<stationlist xmlns:esm="https://esm-db.eu/esmws/shakemap/1/" created="1783994193">
	<station code="ARG2" name="ARG2" netid="HI" source="ITSAK Strong Motion Network" insttype="" lat="38.1783" lon="20.4878" esm:processing="manual (Paolucci et al 2011)" esm:quality="good">
		<comp name="--.HNE" depth="0.0">
			<acc value="0.0650071981173887" flag="0"/>
			<vel value="0.0191462662171867" flag="0"/>
			<psa03 value="0.122117162579197" flag="0"/>
			<psa10 value="0.0128177641139499" flag="0"/>
			<psa30 value="0.00181428560418475" flag="0"/>
		</comp>
		<comp name="--.HNN" depth="0.0">
			<acc value="0.0423080934770641" flag="0"/>
			<vel value="0.0193794801196532" flag="0"/>
			<psa03 value="0.0984578452655664" flag="0"/>
			<psa10 value="0.0166048699911329" flag="0"/>
			<psa30 value="0.00163848781260878" flag="0"/>
		</comp>
		<comp name="--.HNZ" depth="0.0">
			<acc value="0.0337771391882348" flag="0"/>
			<vel value="0.0112889278255499" flag="0"/>
			<psa03 value="0.099510665009697" flag="0"/>
			<psa10 value="0.00473082214375896" flag="0"/>
			<psa30 value="0.00134200369282733" flag="0"/>
		</comp>
	</station>
	<station code="KRI1" name="KRI1" netid="HI" source="ITSAK Strong Motion Network" insttype="" lat="37.6621" lon="20.8172" esm:processing="manual (Paolucci et al 2011)" esm:quality="good">
		<comp name="--.HNE" depth="0.0">
			<acc value="0.0756769785980053" flag="0"/>
			<vel value="0.0573284544356967" flag="0"/>
			<psa03 value="0.155837105651441" flag="0"/>
			<psa10 value="0.0426719847180443" flag="0"/>
			<psa30 value="0.00421292617517647" flag="0"/>
		</comp>
		<comp name="--.HNN" depth="0.0">
			<acc value="0.0769415786921394" flag="0"/>
			<vel value="0.0399113635173338" flag="0"/>
			<psa03 value="0.218699905950112" flag="0"/>
			<psa10 value="0.0517846299399877" flag="0"/>
			<psa30 value="0.00642498087038382" flag="0"/>
		</comp>
		<comp name="--.HNZ" depth="0.0">
			<acc value="0.042013057531657" flag="0"/>
			<vel value="0.0217713342338164" flag="0"/>
			<psa03 value="0.0770908220032822" flag="0"/>
			<psa10 value="0.0246842753913005" flag="0"/>
			<psa30 value="0.0086701447984887" flag="0"/>
		</comp>
	</station>
	<station code="MSL1" name="MSL1" netid="HI" source="ITSAK Strong Motion Network" insttype="" lat="38.3727" lon="21.4243" esm:processing="manual (Paolucci et al 2011)" esm:quality="good">
		<comp name="--.HNE" depth="0.0">
			<acc value="0.0123853301967791" flag="0"/>
			<vel value="0.0162779139572565" flag="0"/>
			<psa03 value="0.0247424402599043" flag="0"/>
			<psa10 value="0.0299311939614253" flag="0"/>
			<psa30 value="0.0035699806660719" flag="0"/>
		</comp>
		<comp name="--.HNN" depth="0.0">
			<acc value="0.00945415415910117" flag="0"/>
			<vel value="0.0103469307639926" flag="0"/>
			<psa03 value="0.0253688311525601" flag="0"/>
			<psa10 value="0.0249500440986131" flag="0"/>
			<psa30 value="0.00218297226090548" flag="0"/>
		</comp>
		<comp name="--.HNZ" depth="0.0">
			<acc value="0.00515396619350307" flag="0"/>
			<vel value="0.00676441386991679" flag="0"/>
			<psa03 value="0.0099775120758746" flag="0"/>
			<psa10 value="0.0164011506800599" flag="0"/>
			<psa30 value="0.000996856363455095" flag="0"/>
		</comp>
	</station>
	<station code="LXRA" name="LXRA" netid="HL" source="National Observatory of Athens Seismic Network" insttype="" lat="38.20006" lon="20.43718" esm:processing="manual (Paolucci et al 2011)" esm:quality="good">
		<comp name="00.HNE" depth="0.0">
			<acc value="0.044874987647321" flag="0"/>
			<vel value="0.0236450929854708" flag="0"/>
			<psa03 value="0.161922045751525" flag="0"/>
			<psa10 value="0.0295768356850085" flag="0"/>
			<psa30 value="0.00740573003945634" flag="0"/>
		</comp>
		<comp name="00.HNN" depth="0.0">
			<acc value="0.0510571455547065" flag="0"/>
			<vel value="0.0299008950061061" flag="0"/>
			<psa03 value="0.172302237686965" flag="0"/>
			<psa10 value="0.0526503916380513" flag="0"/>
			<psa30 value="0.0090352412044938" flag="0"/>
		</comp>
		<comp name="00.HNZ" depth="0.0">
			<acc value="0.0338893377203346" flag="0"/>
			<vel value="0.014068629928095" flag="0"/>
			<psa03 value="0.0957483221631016" flag="0"/>
			<psa10 value="0.0148870744080976" flag="0"/>
			<psa30 value="0.00308721225666075" flag="0"/>
		</comp>
	</station>
	<station code="PATC" name="PATC" netid="HL" source="National Observatory of Athens Seismic Network" insttype="" lat="38.26933" lon="21.76001" esm:processing="manual (Paolucci et al 2011)" esm:quality="good">
		<comp name="00.HNE" depth="0.0">
			<acc value="0.00686644649480855" flag="0"/>
			<vel value="0.0115820945668536" flag="0"/>
			<psa03 value="0.0204744565926825" flag="0"/>
			<psa10 value="0.0240763474398573" flag="0"/>
			<psa30 value="0.00309446957675592" flag="0"/>
		</comp>
		<comp name="00.HNN" depth="0.0">
			<acc value="0.00552894637026961" flag="0"/>
			<vel value="0.00879449425157962" flag="0"/>
			<psa03 value="0.0150727615173106" flag="0"/>
			<psa10 value="0.0154364210246349" flag="0"/>
			<psa30 value="0.0027538988906194" flag="0"/>
		</comp>
		<comp name="00.HNZ" depth="0.0">
			<acc value="0.00425371386677916" flag="0"/>
			<vel value="0.00484150859908778" flag="0"/>
			<psa03 value="0.0103828772677875" flag="0"/>
			<psa10 value="0.00891922241721186" flag="0"/>
			<psa30 value="0.00106512816368013" flag="0"/>
		</comp>
	</station>
	<station code="PATG" name="PATG" netid="HL" source="National Observatory of Athens Seismic Network" insttype="" lat="38.23865" lon="21.72657" esm:processing="manual (Paolucci et al 2011)" esm:quality="good">
		<comp name="00.HNE" depth="0.0">
			<acc value="0.0109665506217712" flag="0"/>
			<vel value="0.0134491554078452" flag="0"/>
			<psa03 value="0.0171333198941903" flag="0"/>
			<psa10 value="0.0198875149502626" flag="0"/>
			<psa30 value="0.00392061930512089" flag="0"/>
		</comp>
		<comp name="00.HNN" depth="0.0">
			<acc value="0.0103820454304987" flag="0"/>
			<vel value="0.01135281107297" flag="0"/>
			<psa03 value="0.0180176701447209" flag="0"/>
			<psa10 value="0.02492558744784" flag="0"/>
			<psa30 value="0.0026325981467071" flag="0"/>
		</comp>
		<comp name="00.HNZ" depth="0.0">
			<acc value="0.00520932740659439" flag="0"/>
			<vel value="0.00641056405191079" flag="0"/>
			<psa03 value="0.00947702884831702" flag="0"/>
			<psa10 value="0.00867809269355107" flag="0"/>
			<psa30 value="0.00165315472172038" flag="0"/>
		</comp>
	</station>
	<station code="ARS1" name="ARS1" netid="HI" source="ITSAK Strong Motion Network" insttype="" lat="37.6349" lon="22.7293" esm:processing="discarded" esm:quality="bad">
		<comp name="--.HNE" depth="0.0">
			<acc value="0" flag="1"/>
			<vel value="0" flag="1"/>
			<psa03 value="0" flag="1"/>
			<psa10 value="0" flag="1"/>
			<psa30 value="0" flag="1"/>
		</comp>
		<comp name="--.HNN" depth="0.0">
			<acc value="0" flag="1"/>
			<vel value="0" flag="1"/>
			<psa03 value="0" flag="1"/>
			<psa10 value="0" flag="1"/>
			<psa30 value="0" flag="1"/>
		</comp>
		<comp name="--.HNZ" depth="0.0">
			<acc value="0" flag="1"/>
			<vel value="0" flag="1"/>
			<psa03 value="0" flag="1"/>
			<psa10 value="0" flag="1"/>
			<psa30 value="0" flag="1"/>
		</comp>
	</station>
	<station code="ART2" name="ART2" netid="HI" source="ITSAK Strong Motion Network" insttype="" lat="39.1474" lon="20.9937" esm:processing="discarded" esm:quality="bad">
		<comp name="--.HNE" depth="0.0">
			<acc value="0" flag="1"/>
			<vel value="0" flag="1"/>
			<psa03 value="0" flag="1"/>
			<psa10 value="0" flag="1"/>
			<psa30 value="0" flag="1"/>
		</comp>
		<comp name="--.HNN" depth="0.0">
			<acc value="0" flag="1"/>
			<vel value="0" flag="1"/>
			<psa03 value="0" flag="1"/>
			<psa10 value="0" flag="1"/>
			<psa30 value="0" flag="1"/>
		</comp>
		<comp name="--.HNZ" depth="0.0">
			<acc value="0" flag="1"/>
			<vel value="0" flag="1"/>
			<psa03 value="0" flag="1"/>
			<psa10 value="0" flag="1"/>
			<psa30 value="0" flag="1"/>
		</comp>
	</station>
	<station code="KLV1" name="KLV1" netid="HI" source="ITSAK Strong Motion Network" insttype="" lat="38.03256" lon="22.10797" esm:processing="discarded" esm:quality="good">
		<comp name="--.HNE" depth="0.0">
			<acc value="0" flag="1"/>
			<vel value="0" flag="1"/>
			<psa03 value="0" flag="1"/>
			<psa10 value="0" flag="1"/>
			<psa30 value="0" flag="1"/>
		</comp>
		<comp name="--.HNN" depth="0.0">
			<acc value="0" flag="1"/>
			<vel value="0" flag="1"/>
			<psa03 value="0" flag="1"/>
			<psa10 value="0" flag="1"/>
			<psa30 value="0" flag="1"/>
		</comp>
		<comp name="--.HNZ" depth="0.0">
			<acc value="0" flag="1"/>
			<vel value="0" flag="1"/>
			<psa03 value="0" flag="1"/>
			<psa10 value="0" flag="1"/>
			<psa30 value="0" flag="1"/>
		</comp>
	</station>
	<station code="PYL1" name="PYL1" netid="HI" source="ITSAK Strong Motion Network" insttype="" lat="36.914188" lon="21.695161" esm:processing="discarded" esm:quality="good">
		<comp name="--.HNE" depth="0.0">
			<acc value="0" flag="1"/>
			<vel value="0" flag="1"/>
			<psa03 value="0" flag="1"/>
			<psa10 value="0" flag="1"/>
			<psa30 value="0" flag="1"/>
		</comp>
		<comp name="--.HNN" depth="0.0">
			<acc value="0" flag="1"/>
			<vel value="0" flag="1"/>
			<psa03 value="0" flag="1"/>
			<psa10 value="0" flag="1"/>
			<psa30 value="0" flag="1"/>
		</comp>
		<comp name="--.HNZ" depth="0.0">
			<acc value="0" flag="1"/>
			<vel value="0" flag="1"/>
			<psa03 value="0" flag="1"/>
			<psa10 value="0" flag="1"/>
			<psa30 value="0" flag="1"/>
		</comp>
	</station>
	<station code="DLFA" name="DLFA" netid="HL" source="National Observatory of Athens Seismic Network" insttype="" lat="38.47836" lon="22.49583" esm:processing="discarded" esm:quality="bad">
		<comp name="00.HNE" depth="0.0">
			<acc value="0" flag="1"/>
			<vel value="0" flag="1"/>
			<psa03 value="0" flag="1"/>
			<psa10 value="0" flag="1"/>
			<psa30 value="0" flag="1"/>
		</comp>
		<comp name="00.HNN" depth="0.0">
			<acc value="0" flag="1"/>
			<vel value="0" flag="1"/>
			<psa03 value="0" flag="1"/>
			<psa10 value="0" flag="1"/>
			<psa30 value="0" flag="1"/>
		</comp>
		<comp name="00.HNZ" depth="0.0">
			<acc value="0" flag="1"/>
			<vel value="0" flag="1"/>
			<psa03 value="0" flag="1"/>
			<psa10 value="0" flag="1"/>
			<psa30 value="0" flag="1"/>
		</comp>
	</station>
	<station code="ITM" name="ITM" netid="HL" source="National Observatory of Athens Seismic Network" insttype="" lat="37.17872" lon="21.92522" esm:processing="automatic (Paolucci et al 2011)" esm:quality="bad">
		<comp name="--.HNE" depth="0.0">
			<acc value="0" flag="1"/>
			<vel value="0" flag="1"/>
			<psa03 value="0" flag="1"/>
			<psa10 value="0" flag="1"/>
			<psa30 value="0" flag="1"/>
		</comp>
		<comp name="--.HNN" depth="0.0">
			<acc value="0" flag="1"/>
			<vel value="0" flag="1"/>
			<psa03 value="0" flag="1"/>
			<psa10 value="0" flag="1"/>
			<psa30 value="0" flag="1"/>
		</comp>
		<comp name="--.HNZ" depth="0.0">
			<acc value="0" flag="1"/>
			<vel value="0" flag="1"/>
			<psa03 value="0" flag="1"/>
			<psa10 value="0" flag="1"/>
			<psa30 value="0" flag="1"/>
		</comp>
	</station>
	<station code="RIOA" name="RIOA" netid="HL" source="National Observatory of Athens Seismic Network" insttype="" lat="38.29585" lon="21.79118" esm:processing="automatic (Paolucci et al 2011)" esm:quality="bad">
		<comp name="00.HNE" depth="0.0">
			<acc value="0" flag="1"/>
			<vel value="0" flag="1"/>
			<psa03 value="0" flag="1"/>
			<psa10 value="0" flag="1"/>
			<psa30 value="0" flag="1"/>
		</comp>
		<comp name="00.HNN" depth="0.0">
			<acc value="0" flag="1"/>
			<vel value="0" flag="1"/>
			<psa03 value="0" flag="1"/>
			<psa10 value="0" flag="1"/>
			<psa30 value="0" flag="1"/>
		</comp>
		<comp name="00.HNZ" depth="0.0">
			<acc value="0" flag="1"/>
			<vel value="0" flag="1"/>
			<psa03 value="0" flag="1"/>
			<psa10 value="0" flag="1"/>
			<psa30 value="0" flag="1"/>
		</comp>
	</station>
</stationlist>
