<?xml version="1.0" encoding="UTF-8" standalone="yes"?>
<!DOCTYPE earthquake SYSTEM "stationlist.dtd">
<stationlist created="" xmlns="ch.ethz.sed.shakemap.usgs.xml">
  <station code="KLV" name="KLV" netid="MN" insttype="" lat="38.0437" lon="22.1504">
    <comp name="--.HHN">
      <acc value="0.0049561937" flag="0"/>
      <vel value="0.0033146783" flag="0"/>
      <psa03 value="0.0149043496" flag="0"/>
      <psa10 value="0.0055044162" flag="0"/>
      <psa30 value="0.0005896240" flag="0"/>
    </comp>
    <comp name="--.HHE">
      <acc value="0.0049008694" flag="0"/>
      <vel value="0.0034886817" flag="0"/>
      <psa03 value="0.0172072074" flag="0"/>
      <psa10 value="0.0057956087" flag="0"/>
      <psa30 value="0.0004709080" flag="0"/>
    </comp>
    <comp name="--.HHZ">
      <acc value="0.0061319891" flag="0"/>
      <vel value="0.0045620791" flag="0"/>
      <psa03 value="0.0188166930" flag="0"/>
      <psa10 value="0.0070724727" flag="0"/>
      <psa30 value="0.0004825272" flag="0"/>
    </comp>
  </station>
</stationlist>
