<?xml version="1.0" encoding="UTF-8" standalone="yes"?>
<!DOCTYPE earthquake SYSTEM "stationlist.dtd">
<stationlist created="" xmlns="ch.ethz.sed.shakemap.usgs.xml">
  <station code="AGRP" name="AGRP" netid="CL" insttype="CMG40-T" commtype="DIG" lat="38.3959" lon="21.7228">
    <comp name="00.HHN">
      <acc value="0.0293302403" flag="0"/>
      <vel value="0.0139120755" flag="0"/>
      <psa03 value="0.0506130532" flag="0"/>
      <psa10 value="0.0105737404" flag="0"/>
      <psa30 value="0.0016356602" flag="0"/>
    </comp>
    <comp name="00.HHE">
      <acc value="0.0340770899" flag="0"/>
      <vel value="0.0131888135" flag="0"/>
      <psa03 value="0.0505306964" flag="0"/>
      <psa10 value="0.0092035549" flag="0"/>
      <psa30 value="0.0012563798" flag="0"/>
    </comp>
    <comp name="00.HHZ">
      <acc value="0.0185032592" flag="0"/>
      <vel value="0.0084665956" flag="0"/>
      <psa03 value="0.0256825365" flag="0"/>
      <psa10 value="0.0064324151" flag="0"/>
      <psa30 value="0.0013444898" flag="0"/>
    </comp>
  </station>
  <station code="MALA" name="MALA" netid="CL" insttype="TRILLIUM-40" commtype="DIG" lat="38.3934" lon="21.8726">
    <comp name="01.HHN">
      <acc value="0.0782393502" flag="0"/>
      <vel value="0.0282263027" flag="0"/>
      <psa03 value="0.0849786019" flag="0"/>
      <psa10 value="0.0231070591" flag="0"/>
      <psa30 value="0.0049425878" flag="0"/>
    </comp>
    <comp name="01.HHE">
      <acc value="0.1043050812" flag="0"/>
      <vel value="0.0318460032" flag="0"/>
      <psa03 value="0.1265026800" flag="0"/>
      <psa10 value="0.0404726861" flag="0"/>
      <psa30 value="0.0037694652" flag="0"/>
    </comp>
    <comp name="01.HHZ">
      <acc value="0.0238785651" flag="0"/>
      <vel value="0.0107532482" flag="0"/>
      <psa03 value="0.0429527020" flag="0"/>
      <psa10 value="0.0163536865" flag="0"/>
      <psa30 value="0.0013548881" flag="0"/>
    </comp>
  </station>
  <station code="MG06" name="MG06" netid="CL" insttype="TRILLIUM-40" commtype="DIG" lat="38.4129" lon="21.9462">
    <comp name="06.HHE">
      <acc value="0.0802425795" flag="0"/>
      <vel value="0.0190520098" flag="0"/>
      <psa03 value="0.1009648221" flag="0"/>
      <psa10 value="0.0067809035" flag="0"/>
      <psa30 value="0.0021491012" flag="0"/>
    </comp>
    <comp name="06.HHZ">
      <acc value="0.0305920354" flag="0"/>
      <vel value="0.0077995477" flag="0"/>
      <psa03 value="0.0309004205" flag="0"/>
      <psa10 value="0.0048872002" flag="0"/>
      <psa30 value="0.0009797445" flag="0"/>
    </comp>
    <comp name="06.HHN">
      <acc value="0.0639657918" flag="0"/>
      <vel value="0.0135951079" flag="0"/>
      <psa03 value="0.0641422572" flag="0"/>
      <psa10 value="0.0049579112" flag="0"/>
      <psa30 value="0.0010485131" flag="0"/>
    </comp>
  </station>
  <station code="PANR" name="PANR" netid="CL" insttype="TRILLIUM-40" commtype="DIG" lat="38.3735" lon="22.2497">
    <comp name="01.HHE">
      <acc value="0.0210706073" flag="0"/>
      <vel value="0.0104670448" flag="0"/>
      <psa03 value="0.0399959448" flag="0"/>
      <psa10 value="0.0060635010" flag="0"/>
      <psa30 value="0.0021369626" flag="0"/>
    </comp>
    <comp name="01.HHN">
      <acc value="0.0307095332" flag="0"/>
      <vel value="0.0145029966" flag="0"/>
      <psa03 value="0.0595533689" flag="0"/>
      <psa10 value="0.0131272467" flag="0"/>
      <psa30 value="0.0014339349" flag="0"/>
    </comp>
    <comp name="01.HHZ">
      <acc value="0.0151244877" flag="0"/>
      <vel value="0.0044208318" flag="0"/>
      <psa03 value="0.0222310087" flag="0"/>
      <psa10 value="0.0043215592" flag="0"/>
      <psa30 value="0.0025743144" flag="0"/>
    </comp>
  </station>
  <station code="TRIZ" name="TRIZ" netid="CL" insttype="STS-2" commtype="DIG" lat="38.3654" lon="22.0727">
    <comp name="00.HH2">
      <acc value="0.0409543286" flag="0"/>
      <vel value="0.0158097050" flag="0"/>
      <psa03 value="0.1115827799" flag="0"/>
      <psa10 value="0.0096660921" flag="0"/>
      <psa30 value="0.0012026793" flag="0"/>
    </comp>
    <comp name="00.HH3">
      <acc value="0.0514677202" flag="0"/>
      <vel value="0.0143192044" flag="0"/>
      <psa03 value="0.1091626078" flag="0"/>
      <psa10 value="0.0078730753" flag="0"/>
      <psa30 value="0.0017575375" flag="0"/>
    </comp>
    <comp name="00.HHZ">
      <acc value="0.0507744904" flag="0"/>
      <vel value="0.0121322749" flag="0"/>
      <psa03 value="0.0447122319" flag="0"/>
      <psa10 value="0.0040587784" flag="0"/>
      <psa30 value="0.0011490705" flag="0"/>
    </comp>
  </station>
  <station code="ZIRI" name="ZIRI" netid="CL" insttype="TRILLIUM-40" commtype="DIG" lat="38.3051" lon="21.9476">
    <comp name="01.HHE">
      <acc value="0.0490294033" flag="0"/>
      <vel value="0.0214678915" flag="0"/>
      <psa03 value="0.0950667055" flag="0"/>
      <psa10 value="0.0092848365" flag="0"/>
      <psa30 value="0.0011523943" flag="0"/>
    </comp>
    <comp name="01.HHN">
      <acc value="0.0505177743" flag="0"/>
      <vel value="0.0148424772" flag="0"/>
      <psa03 value="0.0661489029" flag="0"/>
      <psa10 value="0.0080567470" flag="0"/>
      <psa30 value="0.0014828722" flag="0"/>
    </comp>
    <comp name="01.HHZ">
      <acc value="0.0296353689" flag="0"/>
      <vel value="0.0113226074" flag="0"/>
      <psa03 value="0.0555833773" flag="0"/>
      <psa10 value="0.0037399660" flag="0"/>
      <psa30 value="0.0010420685" flag="0"/>
    </comp>
  </station>
  <station code="ANTK" name="ANTK" netid="HA" insttype="25" commtype="DIG" lat="38.3605" lon="22.6385">
    <comp name="--.HHN">
      <acc value="0.0052436958" flag="0"/>
      <vel value="0.0018233879" flag="0"/>
      <psa03 value="0.0076619747" flag="0"/>
      <psa10 value="0.0015848044" flag="0"/>
      <psa30 value="0.0002912078" flag="0"/>
    </comp>
    <comp name="--.HHE">
      <acc value="0.0053595072" flag="0"/>
      <vel value="0.0019007601" flag="0"/>
      <psa03 value="0.0079146149" flag="0"/>
      <psa10 value="0.0021553628" flag="0"/>
      <psa30 value="0.0004262964" flag="0"/>
    </comp>
    <comp name="--.HHZ">
      <acc value="0.0036082866" flag="0"/>
      <vel value="0.0012231354" flag="0"/>
      <psa03 value="0.0051993191" flag="0"/>
      <psa10 value="0.0010284412" flag="0"/>
      <psa30 value="0.0002911486" flag="0"/>
    </comp>
  </station>
  <station code="AXAR" name="AXAR" netid="HA" insttype="Horizon,120s,1200" commtype="DIG" lat="38.7664" lon="22.659">
    <comp name="--.HHN">
      <acc value="0.0395738094" flag="0"/>
      <vel value="0.0147559664" flag="0"/>
      <psa03 value="0.0763429833" flag="0"/>
      <psa10 value="0.0081462343" flag="0"/>
      <psa30 value="0.0016253492" flag="0"/>
    </comp>
    <comp name="--.HHE">
      <acc value="0.0476460773" flag="0"/>
      <vel value="0.0233942357" flag="0"/>
      <psa03 value="0.1133034510" flag="0"/>
      <psa10 value="0.0114628706" flag="0"/>
      <psa30 value="0.0015947554" flag="0"/>
    </comp>
    <comp name="--.HHZ">
      <acc value="0.0231571050" flag="0"/>
      <vel value="0.0123644618" flag="0"/>
      <psa03 value="0.0721865874" flag="0"/>
      <psa10 value="0.0059673479" flag="0"/>
      <psa30 value="0.0009385574" flag="0"/>
    </comp>
  </station>
  <station code="KALE" name="KALE" netid="HA" insttype="40," commtype="DIG" lat="38.3911" lon="22.1398">
    <comp name="--.HHE">
      <acc value="0.0657480190" flag="0"/>
      <vel value="0.0183538620" flag="0"/>
      <psa03 value="0.0865357941" flag="0"/>
      <psa10 value="0.0070429305" flag="0"/>
      <psa30 value="0.0018355317" flag="0"/>
    </comp>
    <comp name="--.HHN">
      <acc value="0.0817450447" flag="0"/>
      <vel value="0.0209630598" flag="0"/>
      <psa03 value="0.0895783118" flag="0"/>
      <psa10 value="0.0070190189" flag="0"/>
      <psa30 value="0.0018354478" flag="0"/>
    </comp>
    <comp name="--.HHZ">
      <acc value="0.0579023803" flag="0"/>
      <vel value="0.0142572813" flag="0"/>
      <psa03 value="0.0510415136" flag="0"/>
      <psa10 value="0.0042182498" flag="0"/>
      <psa30 value="0.0012267644" flag="0"/>
    </comp>
  </station>
  <station code="LAKA" name="LAKA" netid="HA" insttype="120s," commtype="DIG" lat="38.2401" lon="21.9785">
    <comp name="--.HHZ">
      <acc value="0.0083445367" flag="0"/>
      <vel value="0.0037286195" flag="0"/>
      <psa03 value="0.0147014944" flag="0"/>
      <psa10 value="0.0046200853" flag="0"/>
      <psa30 value="0.0008958807" flag="0"/>
    </comp>
    <comp name="--.HHE">
      <acc value="0.0060721529" flag="0"/>
      <vel value="0.0035591911" flag="0"/>
      <psa03 value="0.0093610563" flag="0"/>
      <psa10 value="0.0026392843" flag="0"/>
      <psa30 value="0.0004989452" flag="0"/>
    </comp>
    <comp name="--.HHN">
      <acc value="0.0082453901" flag="0"/>
      <vel value="0.0038312363" flag="0"/>
      <psa03 value="0.0163403534" flag="0"/>
      <psa10 value="0.0045012561" flag="0"/>
      <psa30 value="0.0010098932" flag="0"/>
    </comp>
  </station>
  <station code="PRDM" name="PRDM" netid="HA" insttype="25" commtype="DIG" lat="38.2804" lon="22.847">
    <comp name="--.HHN">
      <acc value="0.0054269630" flag="0"/>
      <vel value="0.0015770799" flag="0"/>
      <psa03 value="0.0079545843" flag="0"/>
      <psa10 value="0.0010003979" flag="0"/>
      <psa30 value="0.0001738998" flag="0"/>
    </comp>
    <comp name="--.HHZ">
      <acc value="0.0034769461" flag="0"/>
      <vel value="0.0011272017" flag="0"/>
      <psa03 value="0.0072614375" flag="0"/>
      <psa10 value="0.0008009100" flag="0"/>
      <psa30 value="0.0002315433" flag="0"/>
    </comp>
    <comp name="--.HHE">
      <acc value="0.0050268180" flag="0"/>
      <vel value="0.0014616351" flag="0"/>
      <psa03 value="0.0079529835" flag="0"/>
      <psa10 value="0.0011847081" flag="0"/>
      <psa30 value="0.0001806480" flag="0"/>
    </comp>
  </station>
  <station code="AGR3" name="AGR3" netid="HI" insttype="unknown" commtype="DIG" lat="38.5893" lon="21.4162">
    <comp name="--.HNE">
      <acc value="0.1454123768" flag="0"/>
      <vel value="0.0749635051" flag="0"/>
      <psa03 value="0.3095376336" flag="0"/>
      <psa10 value="0.0473824379" flag="0"/>
      <psa30 value="0.0112140482" flag="0"/>
    </comp>
    <comp name="--.HNN">
      <acc value="0.1279625129" flag="0"/>
      <vel value="0.0636643410" flag="0"/>
      <psa03 value="0.1816176223" flag="0"/>
      <psa10 value="0.0511997221" flag="0"/>
      <psa30 value="0.0106570853" flag="0"/>
    </comp>
    <comp name="--.HNZ">
      <acc value="0.0589087798" flag="0"/>
      <vel value="0.0335686875" flag="0"/>
      <psa03 value="0.1275967072" flag="0"/>
      <psa10 value="0.0535223829" flag="0"/>
      <psa30 value="0.0083518046" flag="0"/>
    </comp>
  </station>
  <station code="AST1" name="AST1" netid="HI" insttype="unknown" commtype="DIG" lat="38.5416" lon="21.0895">
    <comp name="--.HNE">
      <acc value="0.0504007559" flag="0"/>
      <vel value="0.0217562556" flag="0"/>
      <psa03 value="0.1057504401" flag="0"/>
      <psa10 value="0.0244808959" flag="0"/>
      <psa30 value="0.0018791846" flag="0"/>
    </comp>
    <comp name="--.HNN">
      <acc value="0.0300669457" flag="0"/>
      <vel value="0.0220203296" flag="0"/>
      <psa03 value="0.1092593879" flag="0"/>
      <psa10 value="0.0298435451" flag="0"/>
      <psa30 value="0.0020179564" flag="0"/>
    </comp>
    <comp name="--.HNZ">
      <acc value="0.0295722582" flag="0"/>
      <vel value="0.0135152945" flag="0"/>
      <psa03 value="0.0542052389" flag="0"/>
      <psa10 value="0.0170690233" flag="0"/>
      <psa30 value="0.0015484921" flag="0"/>
    </comp>
  </station>
  <station code="FRS1" name="FRS1" netid="HI" insttype="unknown" commtype="DIG" lat="39.2934" lon="22.3844">
    <comp name="--.HNZ">
      <acc value="0.0313600930" flag="0"/>
      <vel value="0.0093465296" flag="0"/>
      <psa03 value="0.0661479040" flag="0"/>
      <psa10 value="0.0051629352" flag="0"/>
      <psa30 value="0.0013564598" flag="0"/>
    </comp>
    <comp name="--.HNE">
      <acc value="0.0518421269" flag="0"/>
      <vel value="0.0173634486" flag="0"/>
      <psa03 value="0.1589723493" flag="0"/>
      <psa10 value="0.0068543342" flag="0"/>
      <psa30 value="0.0009622905" flag="0"/>
    </comp>
    <comp name="--.HNN">
      <acc value="0.0358896804" flag="0"/>
      <vel value="0.0138919541" flag="0"/>
      <psa03 value="0.0759388426" flag="0"/>
      <psa10 value="0.0095715474" flag="0"/>
      <psa30 value="0.0017132182" flag="0"/>
    </comp>
  </station>
  <station code="JAN3" name="JAN3" netid="HI" insttype="unknown" commtype="DIG" lat="39.684" lon="20.8379">
    <comp name="--.HNE">
      <acc value="0.0934938454" flag="0"/>
      <vel value="0.0287657412" flag="0"/>
      <psa03 value="0.1501148642" flag="0"/>
      <psa10 value="0.0198238751" flag="0"/>
      <psa30 value="0.0012433641" flag="0"/>
    </comp>
    <comp name="--.HNN">
      <acc value="0.0802247640" flag="0"/>
      <vel value="0.0324277858" flag="0"/>
      <psa03 value="0.2041844674" flag="0"/>
      <psa10 value="0.0155197807" flag="0"/>
      <psa30 value="0.0013313906" flag="0"/>
    </comp>
    <comp name="--.HNZ">
      <acc value="0.0554815328" flag="0"/>
      <vel value="0.0132329100" flag="0"/>
      <psa03 value="0.0812577677" flag="0"/>
      <psa10 value="0.0092987233" flag="0"/>
      <psa30 value="0.0008162372" flag="0"/>
    </comp>
  </station>
  <station code="KAC1" name="KAC1" netid="HI" insttype="unknown" commtype="DIG" lat="38.1434" lon="21.5497">
    <comp name="--.HNE">
      <acc value="0.0337858753" flag="0"/>
      <vel value="0.0256413581" flag="0"/>
      <psa03 value="0.0861383537" flag="0"/>
      <psa10 value="0.0305487130" flag="0"/>
      <psa30 value="0.0028991000" flag="0"/>
    </comp>
    <comp name="--.HNN">
      <acc value="0.0462853440" flag="0"/>
      <vel value="0.0236603133" flag="0"/>
      <psa03 value="0.0980481808" flag="0"/>
      <psa10 value="0.0244530328" flag="0"/>
      <psa30 value="0.0041226102" flag="0"/>
    </comp>
    <comp name="--.HNZ">
      <acc value="0.0206700427" flag="0"/>
      <vel value="0.0077753233" flag="0"/>
      <psa03 value="0.0245513802" flag="0"/>
      <psa10 value="0.0102965598" flag="0"/>
      <psa30 value="0.0016088287" flag="0"/>
    </comp>
  </station>
  <station code="KAR2" name="KAR2" netid="HI" insttype="unknown" commtype="DIG" lat="39.3658" lon="21.9193">
    <comp name="--.HNN">
      <acc value="1.7564767805" flag="0"/>
      <vel value="0.6027859172" flag="0"/>
      <psa03 value="2.7585481608" flag="0"/>
      <psa10 value="0.2382289041" flag="0"/>
      <psa30 value="0.0239512858" flag="0"/>
    </comp>
    <comp name="--.HNZ">
      <acc value="0.7368092931" flag="0"/>
      <vel value="0.1757920722" flag="0"/>
      <psa03 value="0.8376653698" flag="0"/>
      <psa10 value="0.0654016647" flag="0"/>
      <psa30 value="0.0102288135" flag="0"/>
    </comp>
    <comp name="--.HNE">
      <acc value="1.0593838457" flag="0"/>
      <vel value="0.3869306226" flag="0"/>
      <psa03 value="1.7818381408" flag="0"/>
      <psa10 value="0.1443694410" flag="0"/>
      <psa30 value="0.0197268055" flag="0"/>
    </comp>
  </station>
  <station code="LAR4" name="LAR4" netid="HI" insttype="unknown" commtype="DIG" lat="39.6422" lon="22.4219">
    <comp name="--.HNN">
      <acc value="0.0948475243" flag="0"/>
      <vel value="0.0550964485" flag="0"/>
      <psa03 value="0.2982051307" flag="0"/>
      <psa10 value="0.0740241171" flag="0"/>
      <psa30 value="0.0102250812" flag="0"/>
    </comp>
    <comp name="--.HNZ">
      <acc value="0.0748938607" flag="0"/>
      <vel value="0.0338595237" flag="0"/>
      <psa03 value="0.1243616825" flag="0"/>
      <psa10 value="0.0274792844" flag="0"/>
      <psa30 value="0.0035041217" flag="0"/>
    </comp>
    <comp name="--.HNE">
      <acc value="0.1035769966" flag="0"/>
      <vel value="0.0584642999" flag="0"/>
      <psa03 value="0.3686807797" flag="0"/>
      <psa10 value="0.0706077545" flag="0"/>
      <psa30 value="0.0066758447" flag="0"/>
    </comp>
  </station>
  <station code="LEF2" name="LEF2" netid="HI" insttype="unknown" commtype="DIG" lat="38.8301" lon="20.7083">
    <comp name="--.HNN">
      <acc value="0.1112929181" flag="0"/>
      <vel value="0.0680678753" flag="0"/>
      <psa03 value="0.3697651474" flag="0"/>
      <psa10 value="0.0633888542" flag="0"/>
      <psa30 value="0.0071502953" flag="0"/>
    </comp>
    <comp name="--.HNE">
      <acc value="0.0933032218" flag="0"/>
      <vel value="0.0653209913" flag="0"/>
      <psa03 value="0.3195351978" flag="0"/>
      <psa10 value="0.1053657543" flag="0"/>
      <psa30 value="0.0063441139" flag="0"/>
    </comp>
    <comp name="--.HNZ">
      <acc value="0.0675667834" flag="0"/>
      <vel value="0.0441027408" flag="0"/>
      <psa03 value="0.1398827205" flag="0"/>
      <psa10 value="0.0631778063" flag="0"/>
      <psa30 value="0.0066368468" flag="0"/>
    </comp>
  </station>
  <station code="MSL1" name="MSL1" netid="HI" insttype="CMG-5TD,ACCELEROMETER,GURALP" commtype="DIG" lat="38.3727" lon="21.4243">
    <comp name="--.HNE">
      <acc value="0.0632265295" flag="0"/>
      <vel value="0.0316851469" flag="0"/>
      <psa03 value="0.1469673779" flag="0"/>
      <psa10 value="0.0455906139" flag="0"/>
      <psa30 value="0.0032629158" flag="0"/>
    </comp>
    <comp name="--.HNN">
      <acc value="0.0639849850" flag="0"/>
      <vel value="0.0278150791" flag="0"/>
      <psa03 value="0.1715031242" flag="0"/>
      <psa10 value="0.0345422861" flag="0"/>
      <psa30 value="0.0031413471" flag="0"/>
    </comp>
    <comp name="--.HNZ">
      <acc value="0.0137446618" flag="0"/>
      <vel value="0.0044178401" flag="0"/>
      <psa03 value="0.0362702647" flag="0"/>
      <psa10 value="0.0036887949" flag="0"/>
      <psa30 value="0.0003200135" flag="0"/>
    </comp>
  </station>
  <station code="PRE2" name="PRE2" netid="HI" insttype="unknown" commtype="DIG" lat="38.9577" lon="20.7548">
    <comp name="--.HNE">
      <acc value="0.1123010999" flag="0"/>
      <vel value="0.0684300027" flag="0"/>
      <psa03 value="0.4544222309" flag="0"/>
      <psa10 value="0.0444449407" flag="0"/>
      <psa30 value="0.0054773582" flag="0"/>
    </comp>
    <comp name="--.HNZ">
      <acc value="0.0767389162" flag="0"/>
      <vel value="0.0256763433" flag="0"/>
      <psa03 value="0.1754573451" flag="0"/>
      <psa10 value="0.0281963363" flag="0"/>
      <psa30 value="0.0020699950" flag="0"/>
    </comp>
    <comp name="--.HNN">
      <acc value="0.0942807867" flag="0"/>
      <vel value="0.0583403209" flag="0"/>
      <psa03 value="0.2443893415" flag="0"/>
      <psa10 value="0.0856865067" flag="0"/>
      <psa30 value="0.0052518258" flag="0"/>
    </comp>
  </station>
  <station code="VAS2" name="VAS2" netid="HI" insttype="CMG-5TD,ACCELEROMETER,GURALP" commtype="DIG" lat="38.6306" lon="20.6081">
    <comp name="--.HNE">
      <acc value="0.1063393212" flag="0"/>
      <vel value="0.0756273521" flag="0"/>
      <psa03 value="0.2632600808" flag="0"/>
      <psa10 value="0.1441804688" flag="0"/>
      <psa30 value="0.0067029764" flag="0"/>
    </comp>
    <comp name="--.HNN">
      <acc value="0.1154862757" flag="0"/>
      <vel value="0.0812440165" flag="0"/>
      <psa03 value="0.2912965662" flag="0"/>
      <psa10 value="0.1282507269" flag="0"/>
      <psa30 value="0.0071464732" flag="0"/>
    </comp>
    <comp name="--.HNZ">
      <acc value="0.0576244129" flag="0"/>
      <vel value="0.0435296052" flag="0"/>
      <psa03 value="0.1184085175" flag="0"/>
      <psa10 value="0.0586180292" flag="0"/>
      <psa30 value="0.0031716603" flag="0"/>
    </comp>
  </station>
