<?xml version="1.0" encoding="UTF-8" standalone="yes"?>
<!DOCTYPE earthquake SYSTEM "stationlist.dtd">
<stationlist created="" xmlns="ch.ethz.sed.shakemap.usgs.xml">
  <station code="AGRP" name="AGRP" netid="CL" insttype="CMG40-T" commtype="DIG" lat="38.3959" lon="21.7228">
    <comp name="00.HHE">
      <acc value="0.0340770876" flag="0"/>
      <vel value="0.0131888151" flag="0"/>
      <psa03 value="0.0505306964" flag="0"/>
      <psa10 value="0.0092035549" flag="0"/>
      <psa30 value="0.0012563585" flag="0"/>
    </comp>
    <comp name="00.HHN">
      <acc value="0.0293302393" flag="0"/>
      <vel value="0.0139120773" flag="0"/>
      <psa03 value="0.0506130532" flag="0"/>
      <psa10 value="0.0105737402" flag="0"/>
      <psa30 value="0.0016356597" flag="0"/>
    </comp>
    <comp name="00.HHZ">
      <acc value="0.0185032584" flag="0"/>
      <vel value="0.0084665957" flag="0"/>
      <psa03 value="0.0256825365" flag="0"/>
      <psa10 value="0.0064324151" flag="0"/>
      <psa30 value="0.0013444879" flag="0"/>
    </comp>
  </station>
  <station code="MALA" name="MALA" netid="CL" insttype="TRILLIUM-40" commtype="DIG" lat="38.3934" lon="21.8726">
    <comp name="01.HHE">
      <acc value="0.1043050811" flag="0"/>
      <vel value="0.0318460077" flag="0"/>
      <psa03 value="0.1265026800" flag="0"/>
      <psa10 value="0.0404726861" flag="0"/>
      <psa30 value="0.0037694894" flag="0"/>
    </comp>
    <comp name="01.HHN">
      <acc value="0.0782393500" flag="0"/>
      <vel value="0.0282262975" flag="0"/>
      <psa03 value="0.0849786019" flag="0"/>
      <psa10 value="0.0231070594" flag="0"/>
      <psa30 value="0.0049426460" flag="0"/>
    </comp>
    <comp name="01.HHZ">
      <acc value="0.0238785653" flag="0"/>
      <vel value="0.0107532536" flag="0"/>
      <psa03 value="0.0429527020" flag="0"/>
      <psa10 value="0.0163536861" flag="0"/>
      <psa30 value="0.0013548778" flag="0"/>
    </comp>
  </station>
  <station code="MG06" name="MG06" netid="CL" insttype="TRILLIUM-40" commtype="DIG" lat="38.4129" lon="21.9462">
    <comp name="06.HHE">
      <acc value="0.0802425794" flag="0"/>
      <vel value="0.0190520074" flag="0"/>
      <psa03 value="0.1009648221" flag="0"/>
      <psa10 value="0.0067809035" flag="0"/>
      <psa30 value="0.0021491056" flag="0"/>
    </comp>
    <comp name="06.HHN">
      <acc value="0.0639657917" flag="0"/>
      <vel value="0.0135951036" flag="0"/>
      <psa03 value="0.0641422572" flag="0"/>
      <psa10 value="0.0049579111" flag="0"/>
      <psa30 value="0.0010485734" flag="0"/>
    </comp>
    <comp name="06.HHZ">
      <acc value="0.0305920352" flag="0"/>
      <vel value="0.0077995485" flag="0"/>
      <psa03 value="0.0309004205" flag="0"/>
      <psa10 value="0.0048872002" flag="0"/>
      <psa30 value="0.0009797782" flag="0"/>
    </comp>
  </station>
  <station code="PANR" name="PANR" netid="CL" insttype="TRILLIUM-40" commtype="DIG" lat="38.3735" lon="22.2497">
    <comp name="01.HHE">
      <acc value="0.0210706072" flag="0"/>
      <vel value="0.0104670468" flag="0"/>
      <psa03 value="0.0399959448" flag="0"/>
      <psa10 value="0.0060635009" flag="0"/>
      <psa30 value="0.0021369879" flag="0"/>
    </comp>
    <comp name="01.HHN">
      <acc value="0.0307095331" flag="0"/>
      <vel value="0.0145029957" flag="0"/>
      <psa03 value="0.0595533689" flag="0"/>
      <psa10 value="0.0131272467" flag="0"/>
      <psa30 value="0.0014339722" flag="0"/>
    </comp>
    <comp name="01.HHZ">
      <acc value="0.0151244870" flag="0"/>
      <vel value="0.0044208304" flag="0"/>
      <psa03 value="0.0222310087" flag="0"/>
      <psa10 value="0.0043215592" flag="0"/>
      <psa30 value="0.0025743135" flag="0"/>
    </comp>
  </station>
  <station code="PSAM" name="PSAM" netid="CL" insttype="CMG40-T" commtype="DIG" lat="38.3218" lon="22.1842">
    <comp name="00.HHN">
      <acc value="0.0377168068" flag="0"/>
      <vel value="0.0121400899" flag="0"/>
      <psa03 value="0.0519533957" flag="0"/>
      <psa10 value="0.0076839321" flag="0"/>
      <psa30 value="0.0012439656" flag="0"/>
    </comp>
    <comp name="00.HHE">
      <acc value="0.0433478710" flag="0"/>
      <vel value="0.0139410522" flag="0"/>
      <psa03 value="0.0463407077" flag="0"/>
      <psa10 value="0.0089699418" flag="0"/>
      <psa30 value="0.0010431303" flag="0"/>
    </comp>
    <comp name="00.HHZ">
      <acc value="0.0193716011" flag="0"/>
      <vel value="0.0072673228" flag="0"/>
      <psa03 value="0.0371752416" flag="0"/>
      <psa10 value="0.0037133132" flag="0"/>
      <psa30 value="0.0009568860" flag="0"/>
    </comp>
  </station>
  <station code="TRIZ" name="TRIZ" netid="CL" insttype="STS-2" commtype="DIG" lat="38.3654" lon="22.0727">
    <comp name="00.HHZ">
      <acc value="0.0507744901" flag="0"/>
      <vel value="0.0121322747" flag="0"/>
      <psa03 value="0.0447122319" flag="0"/>
      <psa10 value="0.0040587784" flag="0"/>
      <psa30 value="0.0011490835" flag="0"/>
    </comp>
    <comp name="00.HH3">
      <acc value="0.0514677200" flag="0"/>
      <vel value="0.0143192056" flag="0"/>
      <psa03 value="0.1091626078" flag="0"/>
      <psa10 value="0.0078730753" flag="0"/>
      <psa30 value="0.0017575142" flag="0"/>
    </comp>
    <comp name="00.HH2">
      <acc value="0.0409543286" flag="0"/>
      <vel value="0.0158097047" flag="0"/>
      <psa03 value="0.1115827799" flag="0"/>
      <psa10 value="0.0096660920" flag="0"/>
      <psa30 value="0.0012026737" flag="0"/>
    </comp>
  </station>
  <station code="ZIRI" name="ZIRI" netid="CL" insttype="TRILLIUM-40" commtype="DIG" lat="38.3051" lon="21.9476">
    <comp name="01.HHZ">
      <acc value="0.0296353690" flag="0"/>
      <vel value="0.0113226075" flag="0"/>
      <psa03 value="0.0555833773" flag="0"/>
      <psa10 value="0.0037399660" flag="0"/>
      <psa30 value="0.0010420290" flag="0"/>
    </comp>
    <comp name="01.HHN">
      <acc value="0.0505177739" flag="0"/>
      <vel value="0.0148424787" flag="0"/>
      <psa03 value="0.0661489029" flag="0"/>
      <psa10 value="0.0080567471" flag="0"/>
      <psa30 value="0.0014828595" flag="0"/>
    </comp>
    <comp name="01.HHE">
      <acc value="0.0490294026" flag="0"/>
      <vel value="0.0214678896" flag="0"/>
      <psa03 value="0.0950667055" flag="0"/>
      <psa10 value="0.0092848365" flag="0"/>
      <psa30 value="0.0011524015" flag="0"/>
    </comp>
  </station>
  <station code="ANTK" name="ANTK" netid="HA" insttype="25" commtype="DIG" lat="38.3605" lon="22.6385">
    <comp name="--.HHE">
      <acc value="0.0053595073" flag="0"/>
      <vel value="0.0019007629" flag="0"/>
      <psa03 value="0.0079146149" flag="0"/>
      <psa10 value="0.0021553628" flag="0"/>
      <psa30 value="0.0004262745" flag="0"/>
    </comp>
    <comp name="--.HHN">
      <acc value="0.0052436961" flag="0"/>
      <vel value="0.0018233884" flag="0"/>
      <psa03 value="0.0076619747" flag="0"/>
      <psa10 value="0.0015848044" flag="0"/>
      <psa30 value="0.0002912149" flag="0"/>
    </comp>
    <comp name="--.HHZ">
      <acc value="0.0036082865" flag="0"/>
      <vel value="0.0012231365" flag="0"/>
      <psa03 value="0.0051993191" flag="0"/>
      <psa10 value="0.0010284412" flag="0"/>
      <psa30 value="0.0002911407" flag="0"/>
    </comp>
  </station>
  <station code="AXAR" name="AXAR" netid="HA" insttype="Horizon,120s,1200" commtype="DIG" lat="38.7664" lon="22.659">
    <comp name="--.HHN">
      <acc value="0.0395738096" flag="0"/>
      <vel value="0.0147559663" flag="0"/>
      <psa03 value="0.0763429833" flag="0"/>
      <psa10 value="0.0081462343" flag="0"/>
      <psa30 value="0.0016253623" flag="0"/>
    </comp>
    <comp name="--.HHZ">
      <acc value="0.0231571051" flag="0"/>
      <vel value="0.0123644618" flag="0"/>
      <psa03 value="0.0721865874" flag="0"/>
      <psa10 value="0.0059673479" flag="0"/>
      <psa30 value="0.0009385808" flag="0"/>
    </comp>
    <comp name="--.HHE">
      <acc value="0.0476460772" flag="0"/>
      <vel value="0.0233942356" flag="0"/>
      <psa03 value="0.1133034510" flag="0"/>
      <psa10 value="0.0114628706" flag="0"/>
      <psa30 value="0.0015947776" flag="0"/>
    </comp>
  </station>
  <station code="KALE" name="KALE" netid="HA" insttype="40," commtype="DIG" lat="38.3911" lon="22.1398">
    <comp name="--.HHE">
      <acc value="0.0657480193" flag="0"/>
      <vel value="0.0183538629" flag="0"/>
      <psa03 value="0.0865357941" flag="0"/>
      <psa10 value="0.0070429305" flag="0"/>
      <psa30 value="0.0018355553" flag="0"/>
    </comp>
    <comp name="--.HHN">
      <acc value="0.0817450445" flag="0"/>
      <vel value="0.0209630606" flag="0"/>
      <psa03 value="0.0895783118" flag="0"/>
      <psa10 value="0.0070190189" flag="0"/>
      <psa30 value="0.0018354420" flag="0"/>
    </comp>
    <comp name="--.HHZ">
      <acc value="0.0579023806" flag="0"/>
      <vel value="0.0142572790" flag="0"/>
      <psa03 value="0.0510415136" flag="0"/>
      <psa10 value="0.0042182498" flag="0"/>
      <psa30 value="0.0012267562" flag="0"/>
    </comp>
  </station>
  <station code="LAKA" name="LAKA" netid="HA" insttype="120s," commtype="DIG" lat="38.2401" lon="21.9785">
    <comp name="--.HHN">
      <acc value="0.0082453904" flag="0"/>
      <vel value="0.0038312360" flag="0"/>
      <psa03 value="0.0163403534" flag="0"/>
      <psa10 value="0.0045012561" flag="0"/>
      <psa30 value="0.0010098939" flag="0"/>
    </comp>
    <comp name="--.HHZ">
      <acc value="0.0083445362" flag="0"/>
      <vel value="0.0037286199" flag="0"/>
      <psa03 value="0.0147014944" flag="0"/>
      <psa10 value="0.0046200853" flag="0"/>
      <psa30 value="0.0008958996" flag="0"/>
    </comp>
    <comp name="--.HHE">
      <acc value="0.0060721526" flag="0"/>
      <vel value="0.0035591891" flag="0"/>
      <psa03 value="0.0093610563" flag="0"/>
      <psa10 value="0.0026392843" flag="0"/>
      <psa30 value="0.0004988195" flag="0"/>
    </comp>
  </station>
  <station code="PRDM" name="PRDM" netid="HA" insttype="25" commtype="DIG" lat="38.2804" lon="22.847">
    <comp name="--.HHE">
      <acc value="0.0050268184" flag="0"/>
      <vel value="0.0014616359" flag="0"/>
      <psa03 value="0.0079529835" flag="0"/>
      <psa10 value="0.0011847081" flag="0"/>
      <psa30 value="0.0001806264" flag="0"/>
    </comp>
    <comp name="--.HHZ">
      <acc value="0.0034769465" flag="0"/>
      <vel value="0.0011272030" flag="0"/>
      <psa03 value="0.0072614375" flag="0"/>
      <psa10 value="0.0008009100" flag="0"/>
      <psa30 value="0.0002315575" flag="0"/>
    </comp>
    <comp name="--.HHN">
      <acc value="0.0054269629" flag="0"/>
      <vel value="0.0015770803" flag="0"/>
      <psa03 value="0.0079545843" flag="0"/>
      <psa10 value="0.0010003979" flag="0"/>
      <psa30 value="0.0001738812" flag="0"/>
    </comp>
  </station>
  <station code="AGR3" name="AGR3" netid="HI" insttype="unknown" commtype="DIG" lat="38.5893" lon="21.4162">
    <comp name="--.HNN">
      <acc value="0.1279625139" flag="0"/>
      <vel value="0.0636643408" flag="0"/>
      <psa03 value="0.1816176223" flag="0"/>
      <psa10 value="0.0511997221" flag="0"/>
      <psa30 value="0.0106566269" flag="0"/>
    </comp>
    <comp name="--.HNE">
      <acc value="0.1454123780" flag="0"/>
      <vel value="0.0749635051" flag="0"/>
      <psa03 value="0.3095376336" flag="0"/>
      <psa10 value="0.0473824397" flag="0"/>
      <psa30 value="0.0112139793" flag="0"/>
    </comp>
    <comp name="--.HNZ">
      <acc value="0.0589087792" flag="0"/>
      <vel value="0.0335686897" flag="0"/>
      <psa03 value="0.1275967072" flag="0"/>
      <psa10 value="0.0535223829" flag="0"/>
      <psa30 value="0.0083521954" flag="0"/>
    </comp>
  </station>
  <station code="AKR1" name="AKR1" netid="HI" insttype="unknown" commtype="DIG" lat="38.1536" lon="22.3133">
    <comp name="--.HNE">
      <acc value="0.0155049328" flag="0"/>
      <vel value="0.0061148368" flag="0"/>
      <psa03 value="0.0387016063" flag="0"/>
      <psa10 value="0.0056456352" flag="0"/>
      <psa30 value="0.0005879318" flag="0"/>
    </comp>
    <comp name="--.HNN">
      <acc value="0.0183942403" flag="0"/>
      <vel value="0.0098381984" flag="0"/>
      <psa03 value="0.0489167272" flag="0"/>
      <psa10 value="0.0044786155" flag="0"/>
      <psa30 value="0.0008642376" flag="0"/>
    </comp>
    <comp name="--.HNZ">
      <acc value="0.0096967661" flag="0"/>
      <vel value="0.0029450143" flag="0"/>
      <psa03 value="0.0174162097" flag="0"/>
      <psa10 value="0.0028539457" flag="0"/>
      <psa30 value="0.0006046706" flag="0"/>
    </comp>
  </station>
  <station code="AST1" name="AST1" netid="HI" insttype="unknown" commtype="DIG" lat="38.5416" lon="21.0895">
    <comp name="--.HNE">
      <acc value="0.0504007493" flag="0"/>
      <vel value="0.0217562521" flag="0"/>
      <psa03 value="0.1057504401" flag="0"/>
      <psa10 value="0.0244808958" flag="0"/>
      <psa30 value="0.0018793610" flag="0"/>
    </comp>
    <comp name="--.HNZ">
      <acc value="0.0295722577" flag="0"/>
      <vel value="0.0135152913" flag="0"/>
      <psa03 value="0.0542052389" flag="0"/>
      <psa10 value="0.0170690233" flag="0"/>
      <psa30 value="0.0015477117" flag="0"/>
    </comp>
    <comp name="--.HNN">
      <acc value="0.0300669438" flag="0"/>
      <vel value="0.0220203277" flag="0"/>
      <psa03 value="0.1092593879" flag="0"/>
      <psa10 value="0.0298435451" flag="0"/>
      <psa30 value="0.0020177957" flag="0"/>
    </comp>
  </station>
  <station code="FRS1" name="FRS1" netid="HI" insttype="unknown" commtype="DIG" lat="39.2934" lon="22.3844">
    <comp name="--.HNE">
      <acc value="0.0518421253" flag="0"/>
      <vel value="0.0173634468" flag="0"/>
      <psa03 value="0.1589723493" flag="0"/>
      <psa10 value="0.0068543333" flag="0"/>
      <psa30 value="0.0009621049" flag="0"/>
    </comp>
    <comp name="--.HNN">
      <acc value="0.0358896805" flag="0"/>
      <vel value="0.0138919563" flag="0"/>
      <psa03 value="0.0759388426" flag="0"/>
      <psa10 value="0.0095715482" flag="0"/>
      <psa30 value="0.0017126455" flag="0"/>
    </comp>
    <comp name="--.HNZ">
      <acc value="0.0313600925" flag="0"/>
      <vel value="0.0093465281" flag="0"/>
      <psa03 value="0.0661479040" flag="0"/>
      <psa10 value="0.0051629353" flag="0"/>
      <psa30 value="0.0013564565" flag="0"/>
    </comp>
  </station>
  <station code="JAN3" name="JAN3" netid="HI" insttype="unknown" commtype="DIG" lat="39.684" lon="20.8379">
    <comp name="--.HNN">
      <acc value="0.0802247645" flag="0"/>
      <vel value="0.0324277890" flag="0"/>
      <psa03 value="0.2041844674" flag="0"/>
      <psa10 value="0.0155197806" flag="0"/>
      <psa30 value="0.0013309483" flag="0"/>
    </comp>
    <comp name="--.HNE">
      <acc value="0.0934938374" flag="0"/>
      <vel value="0.0287657402" flag="0"/>
      <psa03 value="0.1501148642" flag="0"/>
      <psa10 value="0.0198238752" flag="0"/>
      <psa30 value="0.0012433106" flag="0"/>
    </comp>
    <comp name="--.HNZ">
      <acc value="0.0554815318" flag="0"/>
      <vel value="0.0132329034" flag="0"/>
      <psa03 value="0.0812577677" flag="0"/>
      <psa10 value="0.0092987232" flag="0"/>
      <psa30 value="0.0008163954" flag="0"/>
    </comp>
  </station>
  <station code="KAC1" name="KAC1" netid="HI" insttype="unknown" commtype="DIG" lat="38.1434" lon="21.5497">
    <comp name="--.HNE">
      <acc value="0.0337858727" flag="0"/>
      <vel value="0.0256413557" flag="0"/>
      <psa03 value="0.0861383537" flag="0"/>
      <psa10 value="0.0305487130" flag="0"/>
      <psa30 value="0.0028995785" flag="0"/>
    </comp>
    <comp name="--.HNZ">
      <acc value="0.0206700446" flag="0"/>
      <vel value="0.0077753194" flag="0"/>
      <psa03 value="0.0245513802" flag="0"/>
      <psa10 value="0.0102965597" flag="0"/>
      <psa30 value="0.0016088060" flag="0"/>
    </comp>
    <comp name="--.HNN">
      <acc value="0.0462853472" flag="0"/>
      <vel value="0.0236603182" flag="0"/>
      <psa03 value="0.0980481808" flag="0"/>
      <psa10 value="0.0244530329" flag="0"/>
      <psa30 value="0.0041225993" flag="0"/>
    </comp>
  </station>
  <station code="KAR2" name="KAR2" netid="HI" insttype="unknown" commtype="DIG" lat="39.3658" lon="21.9193">
    <comp name="--.HNE">
      <acc value="1.0593838465" flag="0"/>
      <vel value="0.3869306206" flag="0"/>
      <psa03 value="1.7818381408" flag="0"/>
      <psa10 value="0.1443694300" flag="0"/>
      <psa30 value="0.0197269197" flag="0"/>
    </comp>
    <comp name="--.HNZ">
      <acc value="0.7368092929" flag="0"/>
      <vel value="0.1757920735" flag="0"/>
      <psa03 value="0.8376653698" flag="0"/>
      <psa10 value="0.0654016635" flag="0"/>
      <psa30 value="0.0102284740" flag="0"/>
    </comp>
    <comp name="--.HNN">
      <acc value="1.7564767808" flag="0"/>
      <vel value="0.6027859207" flag="0"/>
      <psa03 value="2.7585481608" flag="0"/>
      <psa10 value="0.2382289162" flag="0"/>
      <psa30 value="0.0239522429" flag="0"/>
    </comp>
  </station>
  <station code="LAR4" name="LAR4" netid="HI" insttype="unknown" commtype="DIG" lat="39.6422" lon="22.4219">
    <comp name="--.HNE">
      <acc value="0.1035769976" flag="0"/>
      <vel value="0.0584642981" flag="0"/>
      <psa03 value="0.3686807797" flag="0"/>
      <psa10 value="0.0706077553" flag="0"/>
      <psa30 value="0.0066757982" flag="0"/>
    </comp>
    <comp name="--.HNZ">
      <acc value="0.0748938605" flag="0"/>
      <vel value="0.0338595221" flag="0"/>
      <psa03 value="0.1243616825" flag="0"/>
      <psa10 value="0.0274792843" flag="0"/>
      <psa30 value="0.0035042664" flag="0"/>
    </comp>
    <comp name="--.HNN">
      <acc value="0.0948475247" flag="0"/>
      <vel value="0.0550964509" flag="0"/>
      <psa03 value="0.2982051307" flag="0"/>
      <psa10 value="0.0740241168" flag="0"/>
      <psa30 value="0.0102250809" flag="0"/>
    </comp>
  </station>
  <station code="LEF2" name="LEF2" netid="HI" insttype="unknown" commtype="DIG" lat="38.8301" lon="20.7083">
    <comp name="--.HNN">
      <acc value="0.1112929183" flag="0"/>
      <vel value="0.0680678761" flag="0"/>
      <psa03 value="0.3697651474" flag="0"/>
      <psa10 value="0.0633888551" flag="0"/>
      <psa30 value="0.0071503588" flag="0"/>
    </comp>
    <comp name="--.HNE">
      <acc value="0.0933032228" flag="0"/>
      <vel value="0.0653209952" flag="0"/>
      <psa03 value="0.3195351978" flag="0"/>
      <psa10 value="0.1053657540" flag="0"/>
      <psa30 value="0.0063441140" flag="0"/>
    </comp>
    <comp name="--.HNZ">
      <acc value="0.0675667877" flag="0"/>
      <vel value="0.0441027395" flag="0"/>
      <psa03 value="0.1398827205" flag="0"/>
      <psa10 value="0.0631778068" flag="0"/>
      <psa30 value="0.0066369596" flag="0"/>
    </comp>
  </station>
  <station code="MSL1" name="MSL1" netid="HI" insttype="CMG-5TD,ACCELEROMETER,GURALP" commtype="DIG" lat="38.3727" lon="21.4243">
    <comp name="--.HNN">
      <acc value="0.0639849848" flag="0"/>
      <vel value="0.0278150824" flag="0"/>
      <psa03 value="0.1715031242" flag="0"/>
      <psa10 value="0.0345422861" flag="0"/>
      <psa30 value="0.0031418852" flag="0"/>
    </comp>
    <comp name="--.HNE">
      <acc value="0.0632265334" flag="0"/>
      <vel value="0.0316851393" flag="0"/>
      <psa03 value="0.1469673779" flag="0"/>
      <psa10 value="0.0455906139" flag="0"/>
      <psa30 value="0.0032629113" flag="0"/>
    </comp>
    <comp name="--.HNZ">
      <acc value="0.0137446632" flag="0"/>
      <vel value="0.0044178427" flag="0"/>
      <psa03 value="0.0362702647" flag="0"/>
      <psa10 value="0.0036887964" flag="0"/>
      <psa30 value="0.0003209029" flag="0"/>
    </comp>
  </station>
