<?xml version="1.0" encoding="UTF-8" standalone="yes"?>
<!DOCTYPE earthquake SYSTEM "stationlist.dtd">
<stationlist created="" xmlns="ch.ethz.sed.shakemap.usgs.xml">
  <station code="AGRP" name="AGRP" netid="CL" insttype="CMG40-T" commtype="DIG" lat="38.3959" lon="21.7228">
    <comp name="00.HHE">
      <acc value="0.0340770876" flag="0"/>
      <vel value="0.0131888147" flag="0"/>
      <psa03 value="0.0505306964" flag="0"/>
      <psa10 value="0.0092035549" flag="0"/>
      <psa30 value="0.0012563630" flag="0"/>
    </comp>
    <comp name="00.HHN">
      <acc value="0.0293302394" flag="0"/>
      <vel value="0.0139120779" flag="0"/>
      <psa03 value="0.0506130532" flag="0"/>
      <psa10 value="0.0105737402" flag="0"/>
      <psa30 value="0.0016356574" flag="0"/>
    </comp>
    <comp name="00.HHZ">
      <acc value="0.0185032587" flag="0"/>
      <vel value="0.0084665964" flag="0"/>
      <psa03 value="0.0256825365" flag="0"/>
      <psa10 value="0.0064324151" flag="0"/>
      <psa30 value="0.0013444869" flag="0"/>
    </comp>
  </station>
  <station code="MALA" name="MALA" netid="CL" insttype="TRILLIUM-40" commtype="DIG" lat="38.3934" lon="21.8726">
    <comp name="01.HHE">
      <acc value="0.1043050811" flag="0"/>
      <vel value="0.0318460032" flag="0"/>
      <psa03 value="0.1265026800" flag="0"/>
      <psa10 value="0.0404726861" flag="0"/>
      <psa30 value="0.0037694909" flag="0"/>
    </comp>
    <comp name="01.HHZ">
      <acc value="0.0238785653" flag="0"/>
      <vel value="0.0107532543" flag="0"/>
      <psa03 value="0.0429527020" flag="0"/>
      <psa10 value="0.0163536861" flag="0"/>
      <psa30 value="0.0013548822" flag="0"/>
    </comp>
    <comp name="01.HHN">
      <acc value="0.0782393500" flag="0"/>
      <vel value="0.0282262920" flag="0"/>
      <psa03 value="0.0849786019" flag="0"/>
      <psa10 value="0.0231070593" flag="0"/>
      <psa30 value="0.0049426414" flag="0"/>
    </comp>
  </station>
  <station code="MG06" name="MG06" netid="CL" insttype="TRILLIUM-40" commtype="DIG" lat="38.4129" lon="21.9462">
    <comp name="06.HHE">
      <acc value="0.0802425794" flag="0"/>
      <vel value="0.0190520075" flag="0"/>
      <psa03 value="0.1009648221" flag="0"/>
      <psa10 value="0.0067809035" flag="0"/>
      <psa30 value="0.0021491054" flag="0"/>
    </comp>
    <comp name="06.HHN">
      <acc value="0.0639657917" flag="0"/>
      <vel value="0.0135951066" flag="0"/>
      <psa03 value="0.0641422572" flag="0"/>
      <psa10 value="0.0049579111" flag="0"/>
      <psa30 value="0.0010485623" flag="0"/>
    </comp>
    <comp name="06.HHZ">
      <acc value="0.0305920352" flag="0"/>
      <vel value="0.0077995484" flag="0"/>
      <psa03 value="0.0309004205" flag="0"/>
      <psa10 value="0.0048872002" flag="0"/>
      <psa30 value="0.0009797759" flag="0"/>
    </comp>
  </station>
  <station code="PANR" name="PANR" netid="CL" insttype="TRILLIUM-40" commtype="DIG" lat="38.3735" lon="22.2497">
    <comp name="01.HHE">
      <acc value="0.0210706072" flag="0"/>
      <vel value="0.0104670467" flag="0"/>
      <psa03 value="0.0399959448" flag="0"/>
      <psa10 value="0.0060635009" flag="0"/>
      <psa30 value="0.0021369890" flag="0"/>
    </comp>
    <comp name="01.HHN">
      <acc value="0.0307095330" flag="0"/>
      <vel value="0.0145029965" flag="0"/>
      <psa03 value="0.0595533689" flag="0"/>
      <psa10 value="0.0131272467" flag="0"/>
      <psa30 value="0.0014339669" flag="0"/>
    </comp>
    <comp name="01.HHZ">
      <acc value="0.0151244870" flag="0"/>
      <vel value="0.0044208309" flag="0"/>
      <psa03 value="0.0222310087" flag="0"/>
      <psa10 value="0.0043215592" flag="0"/>
      <psa30 value="0.0025743138" flag="0"/>
    </comp>
  </station>
  <station code="PSAM" name="PSAM" netid="CL" insttype="CMG40-T" commtype="DIG" lat="38.3218" lon="22.1842">
    <comp name="00.HHE">
      <acc value="0.0433478710" flag="0"/>
      <vel value="0.0139410518" flag="0"/>
      <psa03 value="0.0463407077" flag="0"/>
      <psa10 value="0.0089699418" flag="0"/>
      <psa30 value="0.0010431295" flag="0"/>
    </comp>
    <comp name="00.HHN">
      <acc value="0.0377168068" flag="0"/>
      <vel value="0.0121400888" flag="0"/>
      <psa03 value="0.0519533957" flag="0"/>
      <psa10 value="0.0076839321" flag="0"/>
      <psa30 value="0.0012439655" flag="0"/>
    </comp>
    <comp name="00.HHZ">
      <acc value="0.0193716011" flag="0"/>
      <vel value="0.0072673222" flag="0"/>
      <psa03 value="0.0371752416" flag="0"/>
      <psa10 value="0.0037133132" flag="0"/>
      <psa30 value="0.0009568855" flag="0"/>
    </comp>
  </station>
  <station code="TRIZ" name="TRIZ" netid="CL" insttype="STS-2" commtype="DIG" lat="38.3654" lon="22.0727">
    <comp name="00.HHZ">
      <acc value="0.0507744901" flag="0"/>
      <vel value="0.0121322748" flag="0"/>
      <psa03 value="0.0447122319" flag="0"/>
      <psa10 value="0.0040587784" flag="0"/>
      <psa30 value="0.0011490835" flag="0"/>
    </comp>
    <comp name="00.HH2">
      <acc value="0.0409543286" flag="0"/>
      <vel value="0.0158097047" flag="0"/>
      <psa03 value="0.1115827799" flag="0"/>
      <psa10 value="0.0096660920" flag="0"/>
      <psa30 value="0.0012026737" flag="0"/>
    </comp>
    <comp name="00.HH3">
      <acc value="0.0514677200" flag="0"/>
      <vel value="0.0143192062" flag="0"/>
      <psa03 value="0.1091626078" flag="0"/>
      <psa10 value="0.0078730753" flag="0"/>
      <psa30 value="0.0017575138" flag="0"/>
    </comp>
  </station>
  <station code="ZIRI" name="ZIRI" netid="CL" insttype="TRILLIUM-40" commtype="DIG" lat="38.3051" lon="21.9476">
    <comp name="01.HHZ">
      <acc value="0.0296353690" flag="0"/>
      <vel value="0.0113226069" flag="0"/>
      <psa03 value="0.0555833773" flag="0"/>
      <psa10 value="0.0037399660" flag="0"/>
      <psa30 value="0.0010420272" flag="0"/>
    </comp>
    <comp name="01.HHN">
      <acc value="0.0505177740" flag="0"/>
      <vel value="0.0148424788" flag="0"/>
      <psa03 value="0.0661489029" flag="0"/>
      <psa10 value="0.0080567471" flag="0"/>
      <psa30 value="0.0014828601" flag="0"/>
    </comp>
    <comp name="01.HHE">
      <acc value="0.0490294027" flag="0"/>
      <vel value="0.0214678904" flag="0"/>
      <psa03 value="0.0950667055" flag="0"/>
      <psa10 value="0.0092848365" flag="0"/>
      <psa30 value="0.0011524017" flag="0"/>
    </comp>
  </station>
  <station code="PDO" name="PDO" netid="HP" insttype="120s" commtype="DIG" lat="38.5986" lon="21.1833">
    <comp name="--.HHE">
      <acc value="0.0987111151" flag="0"/>
      <vel value="0.0401114391" flag="0"/>
      <psa03 value="0.2531005924" flag="0"/>
      <psa10 value="0.0209844134" flag="0"/>
      <psa30 value="0.0017970236" flag="0"/>
    </comp>
    <comp name="--.HHN">
      <acc value="0.1045619750" flag="0"/>
      <vel value="0.0454915758" flag="0"/>
      <psa03 value="0.2663174172" flag="0"/>
      <psa10 value="0.0217401550" flag="0"/>
      <psa30 value="0.0019543145" flag="0"/>
    </comp>
    <comp name="--.HHZ">
      <acc value="0.0686154273" flag="0"/>
      <vel value="0.0250763811" flag="0"/>
      <psa03 value="0.1497715808" flag="0"/>
      <psa10 value="0.0123315430" flag="0"/>
      <psa30 value="0.0012550441" flag="0"/>
    </comp>
  </station>
  <station code="PLEV" name="PLEV" netid="HP" insttype="Compact," commtype="DIG" lat="38.4124" lon="21.4073">
    <comp name="--.HHE">
      <acc value="0.0177557139" flag="0"/>
      <vel value="0.0080973063" flag="0"/>
      <psa03 value="0.0340624145" flag="0"/>
      <psa10 value="0.0078450344" flag="0"/>
      <psa30 value="0.0011726510" flag="0"/>
    </comp>
    <comp name="--.HHN">
      <acc value="0.0163577404" flag="0"/>
      <vel value="0.0078298132" flag="0"/>
      <psa03 value="0.0304780321" flag="0"/>
      <psa10 value="0.0081536834" flag="0"/>
      <psa30 value="0.0009029988" flag="0"/>
    </comp>
    <comp name="--.HHZ">
      <acc value="0.0134790744" flag="0"/>
      <vel value="0.0050391557" flag="0"/>
      <psa03 value="0.0198506823" flag="0"/>
      <psa10 value="0.0040157212" flag="0"/>
      <psa30 value="0.0010788005" flag="0"/>
    </comp>
  </station>
  <station code="PRMD" name="PRMD" netid="HP" insttype="120P," commtype="DIG" lat="39.5299" lon="21.0965">
    <comp name="--.HHE">
      <acc value="0.0796862710" flag="0"/>
      <vel value="0.0413862648" flag="0"/>
      <psa03 value="0.1663840988" flag="0"/>
      <psa10 value="0.0381237935" flag="0"/>
      <psa30 value="0.0033851959" flag="0"/>
    </comp>
    <comp name="--.HHN">
      <acc value="0.0730189325" flag="0"/>
      <vel value="0.0277427307" flag="0"/>
      <psa03 value="0.1496713624" flag="0"/>
      <psa10 value="0.0397213892" flag="0"/>
      <psa30 value="0.0045099958" flag="0"/>
    </comp>
    <comp name="--.HHZ">
      <acc value="0.0638865466" flag="0"/>
      <vel value="0.0176643712" flag="0"/>
      <psa03 value="0.0960299892" flag="0"/>
      <psa10 value="0.0300825644" flag="0"/>
      <psa30 value="0.0050843979" flag="0"/>
    </comp>
  </station>
  <station code="PVO" name="PVO" netid="HP" insttype="120P," commtype="DIG" lat="38.616" lon="21.525">
    <comp name="--.HHE">
      <acc value="0.0646605752" flag="0"/>
      <vel value="0.0193415769" flag="0"/>
      <psa03 value="0.1111348248" flag="0"/>
      <psa10 value="0.0178070412" flag="0"/>
      <psa30 value="0.0036715477" flag="0"/>
    </comp>
    <comp name="--.HHN">
      <acc value="0.0615297578" flag="0"/>
      <vel value="0.0215807197" flag="0"/>
      <psa03 value="0.0747592751" flag="0"/>
      <psa10 value="0.0156005220" flag="0"/>
      <psa30 value="0.0027864380" flag="0"/>
    </comp>
    <comp name="--.HHZ">
      <acc value="0.0448387233" flag="0"/>
      <vel value="0.0122522266" flag="0"/>
      <psa03 value="0.0603242529" flag="0"/>
      <psa10 value="0.0087480139" flag="0"/>
      <psa30 value="0.0034997356" flag="0"/>
    </comp>
  </station>
  <station code="UPR" name="UPR" netid="HP" insttype="Horizon" commtype="DIG" lat="38.2836" lon="21.7864">
    <comp name="--.HHE">
      <acc value="0.0148010635" flag="0"/>
      <vel value="0.0128312052" flag="0"/>
      <psa03 value="0.0350860285" flag="0"/>
      <psa10 value="0.0146607201" flag="0"/>
      <psa30 value="0.0030709050" flag="0"/>
    </comp>
    <comp name="--.HHN">
      <acc value="0.0202961141" flag="0"/>
      <vel value="0.0129081579" flag="0"/>
      <psa03 value="0.0367488346" flag="0"/>
      <psa10 value="0.0152649454" flag="0"/>
      <psa30 value="0.0032874861" flag="0"/>
    </comp>
    <comp name="--.HHZ">
      <acc value="0.0107778974" flag="0"/>
      <vel value="0.0077101815" flag="0"/>
      <psa03 value="0.0284829439" flag="0"/>
      <psa10 value="0.0088884354" flag="0"/>
      <psa30 value="0.0015570178" flag="0"/>
    </comp>
  </station>
  <station code="VVK" name="VVK" netid="HP" insttype="40," commtype="DIG" lat="38.4222" lon="21.8116">
    <comp name="--.HHE">
      <acc value="0.0304254676" flag="0"/>
      <vel value="0.0095834485" flag="0"/>
      <psa03 value="0.0476100361" flag="0"/>
      <psa10 value="0.0078552072" flag="0"/>
      <psa30 value="0.0022556152" flag="0"/>
    </comp>
    <comp name="--.HHN">
      <acc value="0.0311649699" flag="0"/>
      <vel value="0.0138972037" flag="0"/>
      <psa03 value="0.0322123792" flag="0"/>
      <psa10 value="0.0055085801" flag="0"/>
      <psa30 value="0.0027434250" flag="0"/>
    </comp>
    <comp name="--.HHZ">
      <acc value="0.0234827068" flag="0"/>
      <vel value="0.0079905196" flag="0"/>
      <psa03 value="0.0280838775" flag="0"/>
      <psa10 value="0.0052825498" flag="0"/>
      <psa30 value="0.0009548827" flag="0"/>
    </comp>
  </station>
  <station code="ACHL" name="ACHL" netid="HT" insttype="60s," commtype="DIG" lat="39.0083" lon="22.9581">
    <comp name="--.HHE">
      <acc value="0.0208597840" flag="0"/>
      <vel value="0.0067779340" flag="0"/>
      <psa03 value="0.0428213918" flag="0"/>
      <psa10 value="0.0035585358" flag="0"/>
      <psa30 value="0.0007344115" flag="0"/>
    </comp>
    <comp name="--.HHN">
      <acc value="0.0170050844" flag="0"/>
      <vel value="0.0066399761" flag="0"/>
      <psa03 value="0.0468836394" flag="0"/>
      <psa10 value="0.0046098411" flag="0"/>
      <psa30 value="0.0006584424" flag="0"/>
    </comp>
    <comp name="--.HHZ">
      <acc value="0.0094815843" flag="0"/>
      <vel value="0.0044585249" flag="0"/>
      <psa03 value="0.0227599690" flag="0"/>
      <psa10 value="0.0033680197" flag="0"/>
      <psa30 value="0.0007144506" flag="0"/>
    </comp>
  </station>
  <station code="AGG" name="AGG" netid="HT" insttype="120P," commtype="DIG" lat="39.0211" lon="22.336">
    <comp name="--.HHE">
      <acc value="0.0831536760" flag="0"/>
      <vel value="0.0191604918" flag="0"/>
      <psa03 value="0.1373946589" flag="0"/>
      <psa10 value="0.0140552030" flag="0"/>
      <psa30 value="0.0011517128" flag="0"/>
    </comp>
    <comp name="--.HHZ">
      <acc value="0.0569832146" flag="0"/>
      <vel value="0.0134107446" flag="0"/>
      <psa03 value="0.0647158126" flag="0"/>
      <psa10 value="0.0090864220" flag="0"/>
      <psa30 value="0.0014315445" flag="0"/>
    </comp>
    <comp name="--.HHN">
      <acc value="0.0726142201" flag="0"/>
      <vel value="0.0196627879" flag="0"/>
      <psa03 value="0.1701947710" flag="0"/>
      <psa10 value="0.0112163706" flag="0"/>
      <psa30 value="0.0013200041" flag="0"/>
    </comp>
  </station>
  <station code="EVGI" name="EVGI" netid="HT" insttype="30" commtype="DIG" lat="38.621" lon="20.656">
    <comp name="--.HHN">
      <acc value="0.0532631491" flag="0"/>
      <vel value="0.0150951571" flag="0"/>
      <psa03 value="0.0825564433" flag="0"/>
      <psa10 value="0.0127561037" flag="0"/>
      <psa30 value="0.0009753853" flag="0"/>
    </comp>
    <comp name="--.HHE">
      <acc value="0.0448290383" flag="0"/>
      <vel value="0.0140866364" flag="0"/>
      <psa03 value="0.0864429618" flag="0"/>
      <psa10 value="0.0162099875" flag="0"/>
      <psa30 value="0.0010782476" flag="0"/>
    </comp>
    <comp name="--.HHZ">
      <acc value="0.0423608625" flag="0"/>
      <vel value="0.0124396661" flag="0"/>
      <psa03 value="0.0838516263" flag="0"/>
      <psa10 value="0.0085060158" flag="0"/>
      <psa30 value="0.0007610031" flag="0"/>
    </comp>
  </station>
  <station code="IGT" name="IGT" netid="HT" insttype="Compact," commtype="DIG" lat="39.5315" lon="20.3299">
    <comp name="--.HHE">
      <acc value="0.0341720209" flag="0"/>
      <vel value="0.0235605572" flag="0"/>
      <psa03 value="0.0830562887" flag="0"/>
      <psa10 value="0.0360368706" flag="0"/>
      <psa30 value="0.0024144123" flag="0"/>
    </comp>
    <comp name="--.HHN">
      <acc value="0.0484878125" flag="0"/>
      <vel value="0.0217174431" flag="0"/>
      <psa03 value="0.0786312193" flag="0"/>
      <psa10 value="0.0211083933" flag="0"/>
      <psa30 value="0.0019720164" flag="0"/>
    </comp>
    <comp name="--.HHZ">
      <acc value="0.0308461205" flag="0"/>
      <vel value="0.0244321086" flag="0"/>
      <psa03 value="0.0804667600" flag="0"/>
      <psa10 value="0.0255343160" flag="0"/>
      <psa30 value="0.0021943274" flag="0"/>
    </comp>
  </station>
  <station code="ITHC" name="ITHC" netid="HT" insttype="60s," commtype="DIG" lat="38.4622" lon="20.632">
    <comp name="--.HHE">
      <acc value="0.0454500703" flag="0"/>
      <vel value="0.0240557609" flag="0"/>
      <psa03 value="0.1612880594" flag="0"/>
      <psa10 value="0.0163646249" flag="0"/>
      <psa30 value="0.0035770264" flag="0"/>
    </comp>
    <comp name="--.HHN">
      <acc value="0.0321947927" flag="0"/>
      <vel value="0.0235515818" flag="0"/>
      <psa03 value="0.0866258331" flag="0"/>
      <psa10 value="0.0249562974" flag="0"/>
      <psa30 value="0.0017828806" flag="0"/>
    </comp>
    <comp name="--.HHZ">
      <acc value="0.0141567212" flag="0"/>
      <vel value="0.0067216909" flag="0"/>
      <psa03 value="0.0243727263" flag="0"/>
      <psa10 value="0.0077449003" flag="0"/>
      <psa30 value="0.0027993349" flag="0"/>
    </comp>
  </station>
  <station code="KPRO" name="KPRO" netid="HT" insttype="100" commtype="DIG" lat="39.9549" lon="21.3632">
    <comp name="--.HHN">
      <acc value="0.0582047008" flag="0"/>
      <vel value="0.0262804832" flag="0"/>
      <psa03 value="0.1017192235" flag="0"/>
      <psa10 value="0.0225596157" flag="0"/>
      <psa30 value="0.0024157894" flag="0"/>
    </comp>
    <comp name="--.HHE">
      <acc value="0.0771376054" flag="0"/>
      <vel value="0.0305063536" flag="0"/>
      <psa03 value="0.1581909168" flag="0"/>
      <psa10 value="0.0269645563" flag="0"/>
      <psa30 value="0.0024714012" flag="0"/>
    </comp>
    <comp name="--.HHZ">
      <acc value="0.0380571044" flag="0"/>
      <vel value="0.0152408140" flag="0"/>
      <psa03 value="0.0948451896" flag="0"/>
      <psa10 value="0.0197570444" flag="0"/>
      <psa30 value="0.0018701362" flag="0"/>
    </comp>
  </station>
  <station code="LIT" name="LIT" netid="HT" insttype="100" commtype="DIG" lat="40.1033" lon="22.4892">
    <comp name="--.HHE">
      <acc value="0.0420425127" flag="0"/>
      <vel value="0.0141032666" flag="0"/>
      <psa03 value="0.0785373888" flag="0"/>
      <psa10 value="0.0150762181" flag="0"/>
      <psa30 value="0.0009826542" flag="0"/>
    </comp>
    <comp name="--.HHN">
      <acc value="0.0342895021" flag="0"/>
      <vel value="0.0169233542" flag="0"/>
      <psa03 value="0.0609940381" flag="0"/>
      <psa10 value="0.0169008969" flag="0"/>
      <psa30 value="0.0015601627" flag="0"/>
    </comp>
    <comp name="--.HHZ">
      <acc value="0.0182831075" flag="0"/>
      <vel value="0.0110268472" flag="0"/>
      <psa03 value="0.0489874243" flag="0"/>
      <psa10 value="0.0142093334" flag="0"/>
      <psa30 value="0.0017421000" flag="0"/>
    </comp>
  </station>
  <station code="NESN" name="NESN" netid="HT" insttype="1s-100Hz," commtype="DIG" lat="39.7267" lon="22.5399">
    <comp name="--.HHE">
      <acc value="0.0844970772" flag="0"/>
      <vel value="0.0633139984" flag="0"/>
      <psa03 value="0.2501781116" flag="0"/>
      <psa10 value="0.0622163157" flag="0"/>
      <psa30 value="0.0032180065" flag="0"/>
    </comp>
    <comp name="--.HHZ">
      <acc value="0.0571598644" flag="0"/>
      <vel value="0.0345079895" flag="0"/>
      <psa03 value="0.1423351444" flag="0"/>
      <psa10 value="0.0230333011" flag="0"/>
      <psa30 value="0.0032860698" flag="0"/>
    </comp>
    <comp name="--.HHN">
      <acc value="0.0796852417" flag="0"/>
      <vel value="0.0526302295" flag="0"/>
      <psa03 value="0.2303671723" flag="0"/>
      <psa10 value="0.0727225018" flag="0"/>
      <psa30 value="0.0040862038" flag="0"/>
    </comp>
  </station>
  <station code="NEST" name="NEST" netid="HT" insttype="120P," commtype="DIG" lat="40.4147" lon="21.0489">
    <comp name="--.HHE">
      <acc value="0.0178317395" flag="0"/>
      <vel value="0.0070787243" flag="0"/>
      <psa03 value="0.0335297830" flag="0"/>
      <psa10 value="0.0099946841" flag="0"/>
      <psa30 value="0.0013627167" flag="0"/>
    </comp>
    <comp name="--.HHN">
      <acc value="0.0149260413" flag="0"/>
      <vel value="0.0065076003" flag="0"/>
      <psa03 value="0.0286478868" flag="0"/>
      <psa10 value="0.0099200703" flag="0"/>
      <psa30 value="0.0011660760" flag="0"/>
    </comp>
    <comp name="--.HHZ">
      <acc value="0.0129223166" flag="0"/>
      <vel value="0.0072543529" flag="0"/>
      <psa03 value="0.0327375606" flag="0"/>
      <psa10 value="0.0087035886" flag="0"/>
      <psa30 value="0.0010175284" flag="0"/>
    </comp>
  </station>
  <station code="NYDR" name="NYDR" netid="HT" insttype="1s-100Hz," commtype="DIG" lat="38.7135" lon="20.6983">
    <comp name="--.HHE">
