<?xml version="1.0" encoding="UTF-8" standalone="yes"?>
<!DOCTYPE earthquake SYSTEM "stationlist.dtd">
<stationlist created="" xmlns="ch.ethz.sed.shakemap.usgs.xml">
  <station code="SVRC" name="SVRC" netid="KO" insttype="CMG-3T" lat="38.3775" lon="39.306">
    <comp name="--.HHN">
      <acc value="0.0076428881" flag="0"/>
      <vel value="0.0036762761" flag="0"/>
      <psa03 value="0.0298546139" flag="0"/>
      <psa10 value="0.0026757453" flag="0"/>
      <psa30 value="0.0006117191" flag="0"/>
    </comp>
    <comp name="--.HHE">
      <acc value="0.0092167596" flag="0"/>
      <vel value="0.0046080057" flag="0"/>
      <psa03 value="0.0264633615" flag="0"/>
      <psa10 value="0.0055532928" flag="0"/>
      <psa30 value="0.0004735371" flag="0"/>
    </comp>
    <comp name="--.HHZ">
      <acc value="0.0063028392" flag="0"/>
      <vel value="0.0027777997" flag="0"/>
      <psa03 value="0.0149412494" flag="0"/>
      <psa10 value="0.0029439450" flag="0"/>
      <psa30 value="0.0010295454" flag="0"/>
    </comp>
  </station>
  <station code="URFA" name="URFA" netid="KO" insttype="CMG-3ESP" lat="37.4409" lon="38.8213">
    <comp name="--.HHE">
      <acc value="0.0280728442" flag="0"/>
      <vel value="0.0067767645" flag="0"/>
      <psa03 value="0.0241826872" flag="0"/>
      <psa10 value="0.0036780719" flag="0"/>
      <psa30 value="0.0011256894" flag="0"/>
    </comp>
    <comp name="--.HHN">
      <acc value="0.0330351620" flag="0"/>
      <vel value="0.0090102112" flag="0"/>
      <psa03 value="0.0275582654" flag="0"/>
      <psa10 value="0.0059804564" flag="0"/>
      <psa30 value="0.0018926363" flag="0"/>
    </comp>
    <comp name="--.HHZ">
      <acc value="0.0230838827" flag="0"/>
      <vel value="0.0065755944" flag="0"/>
      <psa03 value="0.0176727976" flag="0"/>
      <psa10 value="0.0031805605" flag="0"/>
      <psa30 value="0.0011957979" flag="0"/>
    </comp>
  </station>
</stationlist>
