<?xml version="1.0" encoding="UTF-8" standalone="yes"?>
<!DOCTYPE earthquake SYSTEM "stationlist.dtd">
<stationlist created="" xmlns="ch.ethz.sed.shakemap.usgs.xml">
  <station code="DARE" name="DARE" netid="KO" insttype="CMG-3ESP" lat="38.5712" lon="37.4832">
    <comp name="--.HHN">
      <acc value="0.0184772115" flag="0"/>
      <vel value="0.0184967048" flag="0"/>
      <psa03 value="0.0379820506" flag="0"/>
      <psa10 value="0.0299749894" flag="0"/>
      <psa30 value="0.0014586350" flag="0"/>
    </comp>
    <comp name="--.HHE">
      <acc value="0.0218057653" flag="0"/>
      <vel value="0.0145374329" flag="0"/>
      <psa03 value="0.0549272564" flag="0"/>
      <psa10 value="0.0171979312" flag="0"/>
      <psa30 value="0.0016849213" flag="0"/>
    </comp>
    <comp name="--.HHZ">
      <acc value="0.0171268122" flag="0"/>
      <vel value="0.0163449034" flag="0"/>
      <psa03 value="0.0351172567" flag="0"/>
      <psa10 value="0.0178798861" flag="0"/>
      <psa30 value="0.0018497397" flag="0"/>
    </comp>
  </station>
  <station code="GAZ" name="GAZ" netid="KO" insttype="CMG-3T" lat="37.1721" lon="37.2096">
    <comp name="--.HHZ">
      <acc value="0.0845218578" flag="0"/>
      <vel value="0.0383005582" flag="0"/>
      <psa03 value="0.1533182048" flag="0"/>
      <psa10 value="0.0641410922" flag="0"/>
      <psa30 value="0.0053739450" flag="0"/>
    </comp>
    <comp name="--.HHE">
      <acc value="0.1157851465" flag="0"/>
      <vel value="0.0542962992" flag="0"/>
      <psa03 value="0.2458718838" flag="0"/>
      <psa10 value="0.0920660072" flag="0"/>
      <psa30 value="0.0048226661" flag="0"/>
    </comp>
    <comp name="--.HHN">
      <acc value="0.0956230298" flag="0"/>
      <vel value="0.0584404891" flag="0"/>
      <psa03 value="0.2235702412" flag="0"/>
      <psa10 value="0.1194717484" flag="0"/>
      <psa30 value="0.0058464655" flag="0"/>
    </comp>
  </station>
  <station code="SARI" name="SARI" netid="KO" insttype="CMG-3T" lat="38.4072" lon="36.4181">
    <comp name="--.HHE">
      <acc value="0.0732440034" flag="0"/>
      <vel value="0.0394536668" flag="0"/>
      <psa03 value="0.1567450511" flag="0"/>
      <psa10 value="0.0457412244" flag="0"/>
      <psa30 value="0.0027698309" flag="0"/>
    </comp>
    <comp name="--.HHZ">
      <acc value="0.0687299619" flag="0"/>
      <vel value="0.0334455037" flag="0"/>
      <psa03 value="0.1550803724" flag="0"/>
      <psa10 value="0.0399026323" flag="0"/>
      <psa30 value="0.0030431101" flag="0"/>
    </comp>
  </station>
  <station code="URFA" name="URFA" netid="KO" insttype="CMG-3ESP" lat="37.4409" lon="38.8213">
    <comp name="--.HHE">
      <acc value="0.1010098172" flag="0"/>
      <vel value="0.0278681507" flag="0"/>
      <psa03 value="0.0934658752" flag="0"/>
      <psa10 value="0.0223925999" flag="0"/>
      <psa30 value="0.0015101034" flag="0"/>
    </comp>
    <comp name="--.HHN">
      <acc value="0.1552612791" flag="0"/>
      <vel value="0.0333248401" flag="0"/>
      <psa03 value="0.0838948869" flag="0"/>
      <psa10 value="0.0412033995" flag="0"/>
      <psa30 value="0.0033701970" flag="0"/>
    </comp>
    <comp name="--.HHZ">
      <acc value="0.0643355608" flag="0"/>
      <vel value="0.0180393974" flag="0"/>
      <psa03 value="0.0655888987" flag="0"/>
      <psa10 value="0.0217356873" flag="0"/>
      <psa30 value="0.0021858656" flag="0"/>
    </comp>
  </station>
  <station code="ANDN" name="ANDN" netid="TU" insttype="T" lat="37.58" lon="36.3452">
    <comp name="--.HHZ">
      <acc value="0.1096422396" flag="0"/>
      <vel value="0.0478744651" flag="0"/>
      <psa03 value="0.1529722255" flag="0"/>
      <psa10 value="0.0727501487" flag="0"/>
      <psa30 value="0.0036780353" flag="0"/>
    </comp>
    <comp name="--.HHE">
      <acc value="0.2663998725" flag="0"/>
      <vel value="0.0558299837" flag="0"/>
      <psa03 value="0.2313749088" flag="0"/>
      <psa10 value="0.0406633799" flag="0"/>
      <psa30 value="0.0032730577" flag="0"/>
    </comp>
    <comp name="--.HHN">
      <acc value="0.4226970342" flag="0"/>
      <vel value="0.0890871012" flag="0"/>
      <psa03 value="0.2842084755" flag="0"/>
      <psa10 value="0.0777159790" flag="0"/>
      <psa30 value="0.0058693897" flag="0"/>
    </comp>
  </station>
</stationlist>
