<stationlist created="1675692133">
	<station code="ARPRA" name="ARPRA" netid="KO" source="Bogazici University Kandilli Observatory And Earthquake Research Institute (KOERI)" insttype="" lat="39.0929" lon="38.3356">
		<comp name=".HNE" depth="0.0">
			<acc value="0.0176658998448" flag="0"/>
			<vel value="0.0206967595848" flag="0"/>
			<psa03 value="0.0278299477641" flag="0"/>
			<psa10 value="0.0213364946881" flag="0"/>
			<psa30 value="0.00265264364129" flag="0"/>
		</comp>
		<comp name=".HNN" depth="0.0">
			<acc value="0.0136061228133" flag="0"/>
			<vel value="0.0140312498415" flag="0"/>
			<psa03 value="0.0298462271661" flag="0"/>
			<psa10 value="0.0289766151836" flag="0"/>
			<psa30 value="0.0023802130941" flag="0"/>
		</comp>
		<comp name=".HNZ" depth="0.0">
			<acc value="0.00772270158631" flag="0"/>
			<vel value="0.0114402936861" flag="0"/>
			<psa03 value="0.0205700097976" flag="0"/>
			<psa10 value="0.0119537781291" flag="0"/>
			<psa30 value="0.00200970917504" flag="0"/>
		</comp>
	</station>
</stationlist>
