<?xml version="1.0" encoding="UTF-8" standalone="yes"?>
<!DOCTYPE earthquake SYSTEM "stationlist.dtd">
<stationlist created="" xmlns="ch.ethz.sed.shakemap.usgs.xml">
  <station code="BULG" name="BULG" netid="IV" insttype="" lat="40.0783" lon="15.3776">
    <comp name="--.HHE">
      <acc value="0.0020034747" flag="0"/>
      <vel value="0.0010053122" flag="0"/>
      <psa03 value="0.0059481011" flag="0"/>
      <psa10 value="0.0004329877" flag="0"/>
      <psa30 value="0.0000337072" flag="0"/>
    </comp>
    <comp name="--.HHZ">
      <acc value="0.0023609326" flag="0"/>
      <vel value="0.0013081330" flag="0"/>
      <psa03 value="0.0055828005" flag="0"/>
      <psa10 value="0.0005047032" flag="0"/>
      <psa30 value="0.0000673374" flag="0"/>
    </comp>
    <comp name="--.HHN">
      <acc value="0.0030066401" flag="0"/>
      <vel value="0.0014261116" flag="0"/>
      <psa03 value="0.0071966306" flag="0"/>
      <psa10 value="0.0005223704" flag="0"/>
      <psa30 value="0.0000433286" flag="0"/>
    </comp>
  </station>
  <station code="SORR" name="SORR" netid="IV" insttype="" lat="40.5826" lon="14.3357">
    <comp name="--.HHN">
      <acc value="0.0005665943" flag="0"/>
      <vel value="0.0003007005" flag="0"/>
      <psa03 value="0.0014105528" flag="0"/>
      <psa10 value="0.0003838948" flag="0"/>
      <psa30 value="0.0000355412" flag="0"/>
    </comp>
    <comp name="--.HHZ">
      <acc value="0.0011493901" flag="0"/>
      <vel value="0.0006879801" flag="0"/>
      <psa03 value="0.0024416876" flag="0"/>
      <psa10 value="0.0007438446" flag="0"/>
      <psa30 value="0.0000510544" flag="0"/>
    </comp>
    <comp name="--.HHE">
      <acc value="0.0006990662" flag="0"/>
      <vel value="0.0003421087" flag="0"/>
      <psa03 value="0.0019982906" flag="0"/>
      <psa10 value="0.0005226403" flag="0"/>
      <psa30 value="0.0000351656" flag="0"/>
    </comp>
  </station>
</stationlist>
