<?xml version="1.0" encoding="UTF-8" standalone="yes"?>
<!DOCTYPE earthquake SYSTEM "stationlist.dtd">
<stationlist created="" xmlns="ch.ethz.sed.shakemap.usgs.xml">
  <station code="CEYT" name="CEYT" netid="KO" insttype="CMG-3ESP" lat="37.0105" lon="35.7478">
    <comp name="--.HHN">
      <acc value="0.0030056780" flag="0"/>
      <vel value="0.0027575752" flag="0"/>
      <psa03 value="0.0096925813" flag="0"/>
      <psa10 value="0.0042777540" flag="0"/>
      <psa30 value="0.0007078093" flag="0"/>
    </comp>
    <comp name="--.HHE">
      <acc value="0.0041110154" flag="0"/>
      <vel value="0.0030579628" flag="0"/>
      <psa03 value="0.0110898391" flag="0"/>
      <psa10 value="0.0051730868" flag="0"/>
      <psa30 value="0.0006870680" flag="0"/>
    </comp>
    <comp name="--.HHZ">
      <acc value="0.0025619077" flag="0"/>
      <vel value="0.0020900972" flag="0"/>
      <psa03 value="0.0073785531" flag="0"/>
      <psa10 value="0.0036456154" flag="0"/>
      <psa30 value="0.0006272056" flag="0"/>
    </comp>
  </station>
  <station code="GAZ" name="GAZ" netid="KO" insttype="CMG-3T" lat="37.1721" lon="37.2096">
    <comp name="--.HHN">
      <acc value="0.0210271929" flag="0"/>
      <vel value="0.0079610628" flag="0"/>
      <psa03 value="0.0396596282" flag="0"/>
      <psa10 value="0.0047213277" flag="0"/>
      <psa30 value="0.0006422360" flag="0"/>
    </comp>
    <comp name="--.HHE">
      <acc value="0.0254509102" flag="0"/>
      <vel value="0.0148173726" flag="0"/>
      <psa03 value="0.0297220466" flag="0"/>
      <psa10 value="0.0099054226" flag="0"/>
      <psa30 value="0.0007236456" flag="0"/>
    </comp>
    <comp name="--.HHZ">
      <acc value="0.0257761424" flag="0"/>
      <vel value="0.0090472291" flag="0"/>
      <psa03 value="0.0330144562" flag="0"/>
      <psa10 value="0.0059612490" flag="0"/>
      <psa30 value="0.0008936361" flag="0"/>
    </comp>
  </station>
  <station code="SARI" name="SARI" netid="KO" insttype="CMG-3T" lat="38.4072" lon="36.4181">
    <comp name="--.HHE">
      <acc value="0.0810914833" flag="0"/>
      <vel value="0.0285884719" flag="0"/>
      <psa03 value="0.1576451490" flag="0"/>
      <psa10 value="0.0172373052" flag="0"/>
      <psa30 value="0.0015200723" flag="0"/>
    </comp>
    <comp name="--.HHN">
      <acc value="0.0640821747" flag="0"/>
      <vel value="0.0283035012" flag="0"/>
      <psa03 value="0.1177805762" flag="0"/>
      <psa10 value="0.0186334623" flag="0"/>
      <psa30 value="0.0028409720" flag="0"/>
    </comp>
    <comp name="--.HHZ">
      <acc value="0.0459942274" flag="0"/>
      <vel value="0.0201333988" flag="0"/>
      <psa03 value="0.1013769052" flag="0"/>
      <psa10 value="0.0123012661" flag="0"/>
      <psa30 value="0.0028039710" flag="0"/>
    </comp>
  </station>
  <station code="ANDN" name="ANDN" netid="TU" insttype="T" lat="37.58" lon="36.3452">
    <comp name="--.HHZ">
      <acc value="0.1837076310" flag="0"/>
      <vel value="0.1095536148" flag="0"/>
      <psa03 value="0.2183392868" flag="0"/>
      <psa10 value="0.1426714580" flag="0"/>
      <psa30 value="0.0110439796" flag="0"/>
    </comp>
    <comp name="--.HHE">
      <acc value="0.3661732387" flag="0"/>
      <vel value="0.1151139191" flag="0"/>
      <psa03 value="0.3627255352" flag="0"/>
      <psa10 value="0.0685236203" flag="0"/>
      <psa30 value="0.0108440069" flag="0"/>
    </comp>
    <comp name="--.HHN">
      <acc value="0.4463715715" flag="0"/>
      <vel value="0.1026844280" flag="0"/>
      <psa03 value="0.4587808383" flag="0"/>
      <psa10 value="0.0946828828" flag="0"/>
      <psa30 value="0.0064978052" flag="0"/>
    </comp>
  </station>
</stationlist>
