<?xml version="1.0" encoding="UTF-8" standalone="yes"?>
<!DOCTYPE earthquake SYSTEM "stationlist.dtd">
<stationlist created="" xmlns="ch.ethz.sed.shakemap.usgs.xml">
  <station code="ANDN" name="ANDN" netid="TU" insttype="T" lat="37.58" lon="36.3452">
    <comp name="--.HHN">
      <acc value="0.4463715717" flag="0"/>
      <vel value="0.1026844280" flag="0"/>
      <psa03 value="0.4587808383" flag="0"/>
      <psa10 value="0.0946828829" flag="0"/>
      <psa30 value="0.0064977829" flag="0"/>
    </comp>
    <comp name="--.HHZ">
      <acc value="0.1837076311" flag="0"/>
      <vel value="0.1095536144" flag="0"/>
      <psa03 value="0.2183392868" flag="0"/>
      <psa10 value="0.1426714581" flag="0"/>
      <psa30 value="0.0110439789" flag="0"/>
    </comp>
  </station>
</stationlist>
