<?xml version="1.0" encoding="UTF-8" standalone="yes"?>
<!DOCTYPE earthquake SYSTEM "stationlist.dtd">
<stationlist created="" xmlns="ch.ethz.sed.shakemap.usgs.xml">
  <station code="KARP" name="KARP" netid="GE" insttype="STS-2/N" lat="35.5471" lon="27.1611">
    <comp name="--.HHE">
      <acc value="0.4848414441" flag="0"/>
      <vel value="0.1330816011" flag="0"/>
      <psa03 value="0.5202473232" flag="0"/>
      <psa10 value="0.1737997255" flag="0"/>
      <psa30 value="0.0084654470" flag="0"/>
    </comp>
    <comp name="--.HHN">
      <acc value="0.4959225433" flag="0"/>
      <vel value="0.1255457785" flag="0"/>
      <psa03 value="0.4738001558" flag="0"/>
      <psa10 value="0.1330088032" flag="0"/>
      <psa30 value="0.0055925900" flag="0"/>
    </comp>
    <comp name="--.HHZ">
      <acc value="0.2697766009" flag="0"/>
      <vel value="0.0992310535" flag="0"/>
      <psa03 value="0.4192541972" flag="0"/>
      <psa10 value="0.0737221693" flag="0"/>
      <psa30 value="0.0067221422" flag="0"/>
    </comp>
  </station>
  <station code="THERA" name="THERA" netid="GE" insttype="STS-2/N" lat="36.367" lon="25.4753">
    <comp name="--.HHE">
      <acc value="0.0126134875" flag="0"/>
      <vel value="0.0087365080" flag="0"/>
      <psa03 value="0.0361029589" flag="0"/>
      <psa10 value="0.0154816071" flag="0"/>
      <psa30 value="0.0026755315" flag="0"/>
    </comp>
    <comp name="--.HHN">
      <acc value="0.0096092826" flag="0"/>
      <vel value="0.0047872789" flag="0"/>
      <psa03 value="0.0303999737" flag="0"/>
      <psa10 value="0.0044734428" flag="0"/>
      <psa30 value="0.0014240069" flag="0"/>
    </comp>
    <comp name="--.HHZ">
      <acc value="0.0074211499" flag="0"/>
      <vel value="0.0050180938" flag="0"/>
      <psa03 value="0.0213327135" flag="0"/>
      <psa10 value="0.0059853742" flag="0"/>
      <psa30 value="0.0010725936" flag="0"/>
    </comp>
  </station>
  <station code="SIT2" name="SIT2" netid="HI" insttype="CMG-5TD,ACCELEROMETER,GURALP" lat="35.2059" lon="26.107">
    <comp name="--.HNZ">
      <acc value="0.1498210773" flag="0"/>
      <vel value="0.0513846039" flag="0"/>
      <psa03 value="0.2713056507" flag="0"/>
      <psa10 value="0.0170728351" flag="0"/>
      <psa30 value="0.0030604587" flag="0"/>
    </comp>
    <comp name="--.HNE">
      <acc value="0.2371857501" flag="0"/>
      <vel value="0.1331835216" flag="0"/>
      <psa03 value="0.7417716444" flag="0"/>
      <psa10 value="0.0555305848" flag="0"/>
      <psa30 value="0.0067275743" flag="0"/>
    </comp>
    <comp name="--.HNN">
      <acc value="0.2013186332" flag="0"/>
      <vel value="0.1099131323" flag="0"/>
      <psa03 value="0.6970807714" flag="0"/>
      <psa10 value="0.0525762961" flag="0"/>
      <psa30 value="0.0088448823" flag="0"/>
    </comp>
  </station>
  <station code="ARG" name="ARG" netid="HL" insttype="LE3D20_DR24" lat="36.2136" lon="28.1212">
    <comp name="--.HHE">
      <acc value="0.0284470162" flag="0"/>
      <vel value="0.0146919777" flag="0"/>
      <psa03 value="0.0653511681" flag="0"/>
      <psa10 value="0.0259495343" flag="0"/>
      <psa30 value="0.0020600875" flag="0"/>
    </comp>
    <comp name="--.HHN">
      <acc value="0.0206079505" flag="0"/>
      <vel value="0.0122603310" flag="0"/>
      <psa03 value="0.0419488142" flag="0"/>
      <psa10 value="0.0159807995" flag="0"/>
      <psa30 value="0.0016529228" flag="0"/>
    </comp>
    <comp name="--.HHZ">
      <acc value="0.0161282823" flag="0"/>
      <vel value="0.0086711229" flag="0"/>
      <psa03 value="0.0327593950" flag="0"/>
      <psa10 value="0.0168916175" flag="0"/>
      <psa30 value="0.0013295888" flag="0"/>
    </comp>
  </station>
  <station code="KARP" name="KARP" netid="HL" insttype="120" lat="35.5471" lon="27.1611">
    <comp name="--.HHE">
      <acc value="0.4320348883" flag="0"/>
      <vel value="0.1303093742" flag="0"/>
      <psa03 value="0.5051164323" flag="0"/>
      <psa10 value="0.1723166560" flag="0"/>
      <psa30 value="0.0083897034" flag="0"/>
    </comp>
    <comp name="--.HHN">
      <acc value="0.4636526485" flag="0"/>
      <vel value="0.1227646178" flag="0"/>
      <psa03 value="0.4624934257" flag="0"/>
      <psa10 value="0.1322583737" flag="0"/>
      <psa30 value="0.0055707021" flag="0"/>
    </comp>
    <comp name="--.HHZ">
      <acc value="0.2370764635" flag="0"/>
      <vel value="0.0958075218" flag="0"/>
      <psa03 value="0.4084971816" flag="0"/>
      <psa10 value="0.0730107920" flag="0"/>
      <psa30 value="0.0066646576" flag="0"/>
    </comp>
  </station>
  <station code="NPS" name="NPS" netid="HL" insttype="CMG3ESPC-120s" lat="35.2613" lon="25.6104">
    <comp name="--.HHE">
      <acc value="0.0222211733" flag="0"/>
      <vel value="0.0090454780" flag="0"/>
      <psa03 value="0.0665708547" flag="0"/>
      <psa10 value="0.0067259271" flag="0"/>
      <psa30 value="0.0007872212" flag="0"/>
    </comp>
    <comp name="--.HHN">
      <acc value="0.0506906771" flag="0"/>
      <vel value="0.0240322597" flag="0"/>
      <psa03 value="0.1222216471" flag="0"/>
      <psa10 value="0.0221878251" flag="0"/>
      <psa30 value="0.0018608200" flag="0"/>
    </comp>
    <comp name="--.HHZ">
      <acc value="0.0403246123" flag="0"/>
      <vel value="0.0138523367" flag="0"/>
      <psa03 value="0.0629240189" flag="0"/>
      <psa10 value="0.0091483986" flag="0"/>
      <psa30 value="0.0016379767" flag="0"/>
    </comp>
  </station>
  <station code="THERA" name="THERA" netid="HL" insttype="120" lat="36.367" lon="25.4753">
    <comp name="--.HHE">
      <acc value="0.0123348760" flag="0"/>
      <vel value="0.0086298568" flag="0"/>
      <psa03 value="0.0350293903" flag="0"/>
      <psa10 value="0.0154108423" flag="0"/>
      <psa30 value="0.0026768612" flag="0"/>
    </comp>
    <comp name="--.HHN">
      <acc value="0.0094208555" flag="0"/>
      <vel value="0.0047241568" flag="0"/>
      <psa03 value="0.0295048725" flag="0"/>
      <psa10 value="0.0044276458" flag="0"/>
      <psa30 value="0.0014244143" flag="0"/>
    </comp>
    <comp name="--.HHZ">
      <acc value="0.0071912244" flag="0"/>
      <vel value="0.0049476045" flag="0"/>
      <psa03 value="0.0207804250" flag="0"/>
      <psa10 value="0.0059244524" flag="0"/>
      <psa30 value="0.0010728923" flag="0"/>
    </comp>
  </station>
  <station code="ZKR" name="ZKR" netid="HL" insttype="120" lat="35.1147" lon="26.2169">
    <comp name="--.HHN">
      <acc value="0.0464870494" flag="0"/>
      <vel value="0.0154364469" flag="0"/>
      <psa03 value="0.0935730581" flag="0"/>
      <psa10 value="0.0091037149" flag="0"/>
      <psa30 value="0.0025642229" flag="0"/>
    </comp>
    <comp name="--.HHZ">
      <acc value="0.0443837877" flag="0"/>
      <vel value="0.0158158987" flag="0"/>
      <psa03 value="0.1188328156" flag="0"/>
      <psa10 value="0.0127752358" flag="0"/>
      <psa30 value="0.0014465873" flag="0"/>
    </comp>
    <comp name="--.HHE">
      <acc value="0.0791764411" flag="0"/>
      <vel value="0.0471066755" flag="0"/>
      <psa03 value="0.2159742758" flag="0"/>
      <psa10 value="0.0187427614" flag="0"/>
      <psa30 value="0.0030986008" flag="0"/>
    </comp>
  </station>
</stationlist>
