<stationlist created="1778069588">
	<station code="KARP" name="KARP" netid="GE" source="GEOFON" insttype="" lat="35.5471" lon="27.16106">
		<comp name="--.HNE" depth="0.0">
			<acc value="0.351134889196996" flag="0"/>
			<vel value="0.110740939098313" flag="0"/>
			<psa03 value="0.474491101186772" flag="0"/>
			<psa10 value="0.150135158840008" flag="0"/>
			<psa30 value="0.00690909154599352" flag="0"/>
		</comp>
		<comp name="--.HNN" depth="0.0">
			<acc value="0.403873044207795" flag="0"/>
			<vel value="0.111986554388409" flag="0"/>
			<psa03 value="0.38496194574361" flag="0"/>
			<psa10 value="0.117240241112188" flag="0"/>
			<psa30 value="0.0055220831408271" flag="0"/>
		</comp>
		<comp name="--.HNZ" depth="0.0">
			<acc value="0.206133611223982" flag="0"/>
			<vel value="0.079192192768325" flag="0"/>
			<psa03 value="0.340488192365048" flag="0"/>
			<psa10 value="0.0611187490846916" flag="0"/>
			<psa30 value="0.00597800622626729" flag="0"/>
		</comp>
	</station>
	<station code="KSS1" name="KSS1" netid="HI" source="ITSAK Strong Motion Network" insttype="" lat="35.4189" lon="26.9207">
		<comp name="--.HNE" depth="0.0">
			<acc value="0.584063996325273" flag="0"/>
			<vel value="0.145595060054188" flag="0"/>
			<psa03 value="0.780459868300733" flag="0"/>
			<psa10 value="0.150791444193139" flag="0"/>
			<psa30 value="0.0176535861300886" flag="0"/>
		</comp>
		<comp name="--.HNN" depth="0.0">
			<acc value="0.536326424696744" flag="0"/>
			<vel value="0.189069840326498" flag="0"/>
			<psa03 value="1.1246130834296" flag="0"/>
			<psa10 value="0.060815393721441" flag="0"/>
			<psa30 value="0.0148097877424314" flag="0"/>
		</comp>
		<comp name="--.HNZ" depth="0.0">
			<acc value="0.446308661495128" flag="0"/>
			<vel value="0.117775906680587" flag="0"/>
			<psa03 value="0.25614840607483" flag="0"/>
			<psa10 value="0.0827544970793527" flag="0"/>
			<psa30 value="0.00943491751699868" flag="0"/>
		</comp>
	</station>
	<station code="SIT2" name="SIT2" netid="HI" source="ITSAK Strong Motion Network" insttype="" lat="35.2059" lon="26.107">
		<comp name="--.HNE" depth="0.0">
			<acc value="0.236595913848061" flag="0"/>
			<vel value="0.134479355296701" flag="0"/>
			<psa03 value="0.739678159813269" flag="0"/>
			<psa10 value="0.0556060618072543" flag="0"/>
			<psa30 value="0.00684466276846321" flag="0"/>
		</comp>
		<comp name="--.HNN" depth="0.0">
			<acc value="0.201817523984221" flag="0"/>
			<vel value="0.111054518687759" flag="0"/>
			<psa03 value="0.674846702423393" flag="0"/>
			<psa10 value="0.0524893196942255" flag="0"/>
			<psa30 value="0.00982180919684301" flag="0"/>
		</comp>
		<comp name="--.HNZ" depth="0.0">
			<acc value="0.150452168522942" flag="0"/>
			<vel value="0.0517156793799246" flag="0"/>
			<psa03 value="0.271406225346436" flag="0"/>
			<psa10 value="0.0172185907949757" flag="0"/>
			<psa30 value="0.00339593348232683" flag="0"/>
		</comp>
	</station>
	<station code="IACM" name="IACM" netid="HL" source="National Observatory of Athens Seismic Network" insttype="" lat="35.3058" lon="25.0709">
		<comp name="--.HNE" depth="0.0">
			<acc value="0.0959838024330661" flag="0"/>
			<vel value="0.0573070538847077" flag="0"/>
			<psa03 value="0.399682131721022" flag="0"/>
			<psa10 value="0.0542892986664786" flag="0"/>
			<psa30 value="0.00345230866266585" flag="0"/>
		</comp>
		<comp name="--.HNN" depth="0.0">
			<acc value="0.120976084396187" flag="0"/>
			<vel value="0.0619592889639583" flag="0"/>
			<psa03 value="0.481068205559658" flag="0"/>
			<psa10 value="0.0645938762727327" flag="0"/>
			<psa30 value="0.00375610824560391" flag="0"/>
		</comp>
		<comp name="--.HNZ" depth="0.0">
			<acc value="0.0614148763546322" flag="0"/>
			<vel value="0.024114616815945" flag="0"/>
			<psa03 value="0.152391955741834" flag="0"/>
			<psa10 value="0.0190588377531852" flag="0"/>
			<psa30 value="0.00195031278649047" flag="0"/>
		</comp>
	</station>
	<station code="KARP" name="KARP" netid="HL" source="National Observatory of Athens Seismic Network" insttype="" lat="35.5471" lon="27.16106">
		<comp name="--.HNE" depth="0.0">
			<acc value="0.36637372470104" flag="0"/>
			<vel value="0.109510747218408" flag="0"/>
			<psa03 value="0.464871526763844" flag="0"/>
			<psa10 value="0.147090899101701" flag="0"/>
			<psa30 value="0.00676904843927833" flag="0"/>
		</comp>
		<comp name="--.HNN" depth="0.0">
			<acc value="0.398660133970326" flag="0"/>
			<vel value="0.109252735496708" flag="0"/>
			<psa03 value="0.377176801792031" flag="0"/>
			<psa10 value="0.114860403142163" flag="0"/>
			<psa30 value="0.00541022762428142" flag="0"/>
		</comp>
		<comp name="--.HNZ" depth="0.0">
			<acc value="0.215027316960506" flag="0"/>
			<vel value="0.0790344020438868" flag="0"/>
			<psa03 value="0.333553150339216" flag="0"/>
			<psa10 value="0.0598784951172331" flag="0"/>
			<psa30 value="0.00585675484633177" flag="0"/>
		</comp>
	</station>
	<station code="KLNA" name="KLNA" netid="HL" source="National Observatory of Athens Seismic Network" insttype="" lat="36.95708" lon="26.97274">
		<comp name="00.HNE" depth="0.0">
			<acc value="0.013322053082488" flag="0"/>
			<vel value="0.00670822858055258" flag="0"/>
			<psa03 value="0.0496191071396634" flag="0"/>
			<psa10 value="0.00606435868504055" flag="0"/>
			<psa30 value="0.000812965894253998" flag="0"/>
		</comp>
		<comp name="00.HNN" depth="0.0">
			<acc value="0.0146115546879637" flag="0"/>
			<vel value="0.00663291124845213" flag="0"/>
			<psa03 value="0.0424156118741216" flag="0"/>
			<psa10 value="0.0062495914204402" flag="0"/>
			<psa30 value="0.000623258938192525" flag="0"/>
		</comp>
		<comp name="00.HNZ" depth="0.0">
			<acc value="0.0119404054592599" flag="0"/>
			<vel value="0.00317784837469783" flag="0"/>
			<psa03 value="0.0169125541017067" flag="0"/>
			<psa10 value="0.00397847701249672" flag="0"/>
			<psa30 value="0.000495743649330451" flag="0"/>
		</comp>
	</station>
	<station code="SIVA" name="SIVA" netid="HL" source="National Observatory of Athens Seismic Network" insttype="" lat="35.01777" lon="24.81204">
		<comp name="00.HNE" depth="0.0">
			<acc value="0.0133394465082554" flag="0"/>
			<vel value="0.00788394644760528" flag="0"/>
			<psa03 value="0.0408943768491004" flag="0"/>
			<psa10 value="0.010997186964705" flag="0"/>
			<psa30 value="0.00165904102140552" flag="0"/>
		</comp>
		<comp name="00.HNN" depth="0.0">
			<acc value="0.0146788237598122" flag="0"/>
			<vel value="0.00898120780421147" flag="0"/>
			<psa03 value="0.0374044847328752" flag="0"/>
			<psa10 value="0.0123179769040764" flag="0"/>
			<psa30 value="0.00153689479733763" flag="0"/>
		</comp>
		<comp name="00.HNZ" depth="0.0">
			<acc value="0.00807343169158941" flag="0"/>
			<vel value="0.00599065324151869" flag="0"/>
			<psa03 value="0.0287244966489305" flag="0"/>
			<psa10 value="0.00567778601985869" flag="0"/>
			<psa30 value="0.0012322003702672" flag="0"/>
		</comp>
	</station>
	<station code="THRA" name="THRA" netid="HL" source="National Observatory of Athens Seismic Network" insttype="" lat="36.41502" lon="25.43244">
		<comp name="00.HNE" depth="0.0">
			<acc value="0.0427957194570495" flag="0"/>
			<vel value="0.0352221930363744" flag="0"/>
			<psa03 value="0.0974485260145959" flag="0"/>
			<psa10 value="0.065032797319658" flag="0"/>
			<psa30 value="0.0108983066880786" flag="0"/>
		</comp>
		<comp name="00.HNN" depth="0.0">
			<acc value="0.0417412971415496" flag="0"/>
			<vel value="0.0280988548592263" flag="0"/>
			<psa03 value="0.0995514097256547" flag="0"/>
			<psa10 value="0.0336761166553746" flag="0"/>
			<psa30 value="0.00581246006177968" flag="0"/>
		</comp>
		<comp name="00.HNZ" depth="0.0">
			<acc value="0.0413391094694592" flag="0"/>
			<vel value="0.0153527369569021" flag="0"/>
			<psa03 value="0.0851444191945711" flag="0"/>
			<psa10 value="0.0235567717845201" flag="0"/>
			<psa30 value="0.00157761020536026" flag="0"/>
		</comp>
	</station>
	<station code="YKAV" name="YKAV" netid="KO" source="Bogazici University Kandilli Observatory And Earthquake Research Institute (KOERI)" insttype="" lat="37.1246" lon="27.2801">
		<comp name="--.HNE" depth="0.0">
			<acc value="0.00339339179380681" flag="0"/>
			<vel value="0.00287701088887184" flag="0"/>
			<psa03 value="0.00909808382319379" flag="0"/>
			<psa10 value="0.00540412768441921" flag="0"/>
			<psa30 value="0.000864640090660828" flag="0"/>
		</comp>
		<comp name="--.HNN" depth="0.0">
			<acc value="0.00309535403707561" flag="0"/>
			<vel value="0.00308595908089682" flag="0"/>
			<psa03 value="0.00843091592869352" flag="0"/>
			<psa10 value="0.00265687827077126" flag="0"/>
			<psa30 value="0.000435750168393644" flag="0"/>
		</comp>
		<comp name="--.HNZ" depth="0.0">
			<acc value="0.00281729803398964" flag="0"/>
			<vel value="0.00286863469839919" flag="0"/>
			<psa03 value="0.00694605714739716" flag="0"/>
			<psa10 value="0.00535502708800966" flag="0"/>
			<psa30 value="0.00054893287452608" flag="0"/>
		</comp>
	</station>
</stationlist>
