<?xml version="1.0" encoding="UTF-8" standalone="yes"?>
<!DOCTYPE earthquake SYSTEM "stationlist.dtd">
<stationlist created="" xmlns="ch.ethz.sed.shakemap.usgs.xml">
  <station code="CEYT" name="CEYT" netid="KO" insttype="CMG-3ESP" lat="37.0105" lon="35.7478">
    <comp name="--.HHN">
      <acc value="0.0040083811" flag="0"/>
      <vel value="0.0039138506" flag="0"/>
      <psa03 value="0.0077551595" flag="0"/>
      <psa10 value="0.0050865266" flag="0"/>
      <psa30 value="0.0006727116" flag="0"/>
    </comp>
    <comp name="--.HHE">
      <acc value="0.0062198800" flag="0"/>
      <vel value="0.0046703129" flag="0"/>
      <psa03 value="0.0112728121" flag="0"/>
      <psa10 value="0.0053645579" flag="0"/>
      <psa30 value="0.0007684943" flag="0"/>
    </comp>
    <comp name="--.HHZ">
      <acc value="0.0035643565" flag="0"/>
      <vel value="0.0037933593" flag="0"/>
      <psa03 value="0.0077640910" flag="0"/>
      <psa10 value="0.0079681321" flag="0"/>
      <psa30 value="0.0008474064" flag="0"/>
    </comp>
  </station>
  <station code="CMRD" name="CMRD" netid="KO" insttype="CMG-5T" lat="37.6623" lon="34.9902">
    <comp name="--.HNZ">
      <acc value="0.0084872323" flag="0"/>
      <vel value="0.0017968099" flag="0"/>
      <psa03 value="0.0064235364" flag="0"/>
      <psa10 value="0.0020263138" flag="0"/>
      <psa30 value="0.0001978088" flag="0"/>
    </comp>
    <comp name="--.HNE">
      <acc value="0.0096787903" flag="0"/>
      <vel value="0.0018435927" flag="0"/>
      <psa03 value="0.0078779581" flag="0"/>
      <psa10 value="0.0015793164" flag="0"/>
      <psa30 value="0.0001477316" flag="0"/>
    </comp>
    <comp name="--.HNN">
      <acc value="0.0073693925" flag="0"/>
      <vel value="0.0025382431" flag="0"/>
      <psa03 value="0.0103693776" flag="0"/>
      <psa10 value="0.0017668204" flag="0"/>
      <psa30 value="0.0001222921" flag="0"/>
    </comp>
  </station>
  <station code="GAZ" name="GAZ" netid="KO" insttype="CMG-3T" lat="37.1721" lon="37.2096">
    <comp name="--.HHN">
      <acc value="0.0039525525" flag="0"/>
      <vel value="0.0028095752" flag="0"/>
      <psa03 value="0.0128756584" flag="0"/>
      <psa10 value="0.0021640158" flag="0"/>
      <psa30 value="0.0003641753" flag="0"/>
    </comp>
    <comp name="--.HHZ">
      <acc value="0.0033955969" flag="0"/>
      <vel value="0.0017662765" flag="0"/>
      <psa03 value="0.0102050242" flag="0"/>
      <psa10 value="0.0015744306" flag="0"/>
      <psa30 value="0.0001419169" flag="0"/>
    </comp>
  </station>
  <station code="KMRS" name="KMRS" netid="KO" insttype="CMG-3T" lat="37.5087" lon="36.9">
    <comp name="--.HHE">
      <acc value="0.0077065062" flag="0"/>
      <vel value="0.0048783383" flag="0"/>
      <psa03 value="0.0176333358" flag="0"/>
      <psa10 value="0.0028238729" flag="0"/>
      <psa30 value="0.0002796485" flag="0"/>
    </comp>
  </station>
  <station code="SARI" name="SARI" netid="KO" insttype="CMG-3T" lat="38.4072" lon="36.4181">
    <comp name="--.HHZ">
      <acc value="0.0107311606" flag="0"/>
      <vel value="0.0048082622" flag="0"/>
      <psa03 value="0.0207593967" flag="0"/>
      <psa10 value="0.0048113957" flag="0"/>
      <psa30 value="0.0003103514" flag="0"/>
    </comp>
    <comp name="--.HHN">
      <acc value="0.0163380965" flag="0"/>
      <vel value="0.0065449939" flag="0"/>
      <psa03 value="0.0380901830" flag="0"/>
      <psa10 value="0.0049450327" flag="0"/>
      <psa30 value="0.0002828240" flag="0"/>
    </comp>
  </station>
  <station code="ANDN" name="ANDN" netid="TU" insttype="T" lat="37.58" lon="36.3452">
    <comp name="--.HHN">
      <acc value="0.2319399690" flag="0"/>
      <vel value="0.0954805374" flag="0"/>
      <psa03 value="0.6049471431" flag="0"/>
      <psa10 value="0.0552259874" flag="0"/>
      <psa30 value="0.0034924785" flag="0"/>
    </comp>
    <comp name="--.HHE">
      <acc value="0.2818235200" flag="0"/>
      <vel value="0.0915646850" flag="0"/>
      <psa03 value="0.5322149380" flag="0"/>
      <psa10 value="0.0384899673" flag="0"/>
      <psa30 value="0.0026937794" flag="0"/>
    </comp>
    <comp name="--.HHZ">
      <acc value="0.1736132061" flag="0"/>
      <vel value="0.0654998787" flag="0"/>
      <psa03 value="0.3383596720" flag="0"/>
      <psa10 value="0.0324754636" flag="0"/>
      <psa30 value="0.0028668496" flag="0"/>
    </comp>
  </station>
</stationlist>
