<?xml version="1.0" encoding="UTF-8" standalone="yes"?>
<!DOCTYPE earthquake SYSTEM "stationlist.dtd">
<stationlist created="" xmlns="ch.ethz.sed.shakemap.usgs.xml">
  <station code="CEYT" name="CEYT" netid="KO" insttype="CMG-3ESP" lat="37.0105" lon="35.7478">
    <comp name="--.HHE">
      <acc value="0.0062198801" flag="0"/>
      <vel value="0.0046703040" flag="0"/>
      <psa03 value="0.0112728121" flag="0"/>
      <psa10 value="0.0053645579" flag="0"/>
      <psa30 value="0.0007686716" flag="0"/>
    </comp>
    <comp name="--.HHZ">
      <acc value="0.0035643566" flag="0"/>
      <vel value="0.0037933577" flag="0"/>
      <psa03 value="0.0077640910" flag="0"/>
      <psa10 value="0.0079681320" flag="0"/>
      <psa30 value="0.0008474898" flag="0"/>
    </comp>
    <comp name="--.HHN">
      <acc value="0.0040083811" flag="0"/>
      <vel value="0.0039138500" flag="0"/>
      <psa03 value="0.0077551595" flag="0"/>
      <psa10 value="0.0050865266" flag="0"/>
      <psa30 value="0.0006727752" flag="0"/>
    </comp>
  </station>
  <station code="CMRD" name="CMRD" netid="KO" insttype="CMG-5T" lat="37.6623" lon="34.9902">
    <comp name="--.HNN">
      <acc value="0.0073693917" flag="0"/>
      <vel value="0.0025382455" flag="0"/>
      <psa03 value="0.0103693776" flag="0"/>
      <psa10 value="0.0017668205" flag="0"/>
      <psa30 value="0.0001217146" flag="0"/>
    </comp>
    <comp name="--.HNE">
      <acc value="0.0096787901" flag="0"/>
      <vel value="0.0018435866" flag="0"/>
      <psa03 value="0.0078779581" flag="0"/>
      <psa10 value="0.0015793149" flag="0"/>
      <psa30 value="0.0001515915" flag="0"/>
    </comp>
    <comp name="--.HNZ">
      <acc value="0.0084872293" flag="0"/>
      <vel value="0.0017968097" flag="0"/>
      <psa03 value="0.0064235364" flag="0"/>
      <psa10 value="0.0020263139" flag="0"/>
      <psa30 value="0.0001981518" flag="0"/>
    </comp>
  </station>
  <station code="GAZ" name="GAZ" netid="KO" insttype="CMG-3T" lat="37.1721" lon="37.2096">
    <comp name="--.HHN">
      <acc value="0.0039525535" flag="0"/>
      <vel value="0.0028095756" flag="0"/>
      <psa03 value="0.0128756584" flag="0"/>
      <psa10 value="0.0021640158" flag="0"/>
      <psa30 value="0.0003642457" flag="0"/>
    </comp>
    <comp name="--.HHZ">
      <acc value="0.0033955971" flag="0"/>
      <vel value="0.0017662769" flag="0"/>
      <psa03 value="0.0102050242" flag="0"/>
      <psa10 value="0.0015744306" flag="0"/>
      <psa30 value="0.0001419201" flag="0"/>
    </comp>
  </station>
  <station code="KMRS" name="KMRS" netid="KO" insttype="CMG-3T" lat="37.5087" lon="36.9">
    <comp name="--.HHE">
      <acc value="0.0077065063" flag="0"/>
      <vel value="0.0048783381" flag="0"/>
      <psa03 value="0.0176333358" flag="0"/>
      <psa10 value="0.0028238729" flag="0"/>
      <psa30 value="0.0002796481" flag="0"/>
    </comp>
  </station>
  <station code="SARI" name="SARI" netid="KO" insttype="CMG-3T" lat="38.4072" lon="36.4181">
    <comp name="--.HHZ">
      <acc value="0.0107311607" flag="0"/>
      <vel value="0.0048082624" flag="0"/>
      <psa03 value="0.0207593967" flag="0"/>
      <psa10 value="0.0048113957" flag="0"/>
      <psa30 value="0.0003103637" flag="0"/>
    </comp>
    <comp name="--.HHN">
      <acc value="0.0163380967" flag="0"/>
      <vel value="0.0065449940" flag="0"/>
      <psa03 value="0.0380901830" flag="0"/>
      <psa10 value="0.0049450327" flag="0"/>
      <psa30 value="0.0002828594" flag="0"/>
    </comp>
  </station>
  <station code="ANDN" name="ANDN" netid="TU" insttype="T" lat="37.58" lon="36.3452">
    <comp name="--.HHZ">
      <acc value="0.1736132056" flag="0"/>
      <vel value="0.0654998795" flag="0"/>
      <psa03 value="0.3383596720" flag="0"/>
      <psa10 value="0.0324754632" flag="0"/>
      <psa30 value="0.0028662989" flag="0"/>
    </comp>
    <comp name="--.HHE">
      <acc value="0.2818235197" flag="0"/>
      <vel value="0.0915646848" flag="0"/>
      <psa03 value="0.5322149380" flag="0"/>
      <psa10 value="0.0384899670" flag="0"/>
      <psa30 value="0.0026937923" flag="0"/>
    </comp>
    <comp name="--.HHN">
      <acc value="0.2319399688" flag="0"/>
      <vel value="0.0954805368" flag="0"/>
      <psa03 value="0.6049471431" flag="0"/>
      <psa10 value="0.0552259886" flag="0"/>
      <psa30 value="0.0034923143" flag="0"/>
    </comp>
  </station>
</stationlist>
