<?xml version="1.0" encoding="UTF-8" standalone="yes"?>
<!DOCTYPE earthquake SYSTEM "stationlist.dtd">
<stationlist created="" xmlns="ch.ethz.sed.shakemap.usgs.xml">
  <station code="IMOD" name="IMOD" netid="HC" insttype="120" lat="34.9731" lon="24.7995">
    <comp name="--.HHE">
      <acc value="0.0117798268" flag="0"/>
      <vel value="0.0067334628" flag="0"/>
      <psa03 value="0.0276604720" flag="0"/>
      <psa10 value="0.0056146064" flag="0"/>
      <psa30 value="0.0004247175" flag="0"/>
    </comp>
    <comp name="--.HHN">
      <acc value="0.0131400812" flag="0"/>
      <vel value="0.0066894729" flag="0"/>
      <psa03 value="0.0307753209" flag="0"/>
      <psa10 value="0.0054000391" flag="0"/>
      <psa30 value="0.0005509514" flag="0"/>
    </comp>
    <comp name="--.HHZ">
      <acc value="0.0103909954" flag="0"/>
      <vel value="0.0043159191" flag="0"/>
      <psa03 value="0.0263990562" flag="0"/>
      <psa10 value="0.0035933248" flag="0"/>
      <psa30 value="0.0001967105" flag="0"/>
    </comp>
  </station>
  <station code="KNSS" name="KNSS" netid="HC" insttype="60" lat="35.3042" lon="25.1802">
    <comp name="--.HHE">
      <acc value="0.1841465064" flag="0"/>
      <vel value="0.0472796010" flag="0"/>
      <psa03 value="0.2651898361" flag="0"/>
      <psa10 value="0.0262671818" flag="0"/>
      <psa30 value="0.0021863914" flag="0"/>
    </comp>
    <comp name="--.HHN">
      <acc value="0.1768475617" flag="0"/>
      <vel value="0.0408677346" flag="0"/>
      <psa03 value="0.2384109694" flag="0"/>
      <psa10 value="0.0286294715" flag="0"/>
      <psa30 value="0.0014832072" flag="0"/>
    </comp>
    <comp name="--.HHZ">
      <acc value="0.1832820906" flag="0"/>
      <vel value="0.0285681659" flag="0"/>
      <psa03 value="0.1915982837" flag="0"/>
      <psa10 value="0.0119483590" flag="0"/>
      <psa30 value="0.0008643855" flag="0"/>
    </comp>
  </station>
  <station code="PFKS" name="PFKS" netid="HC" insttype="120" lat="35.0429" lon="25.4733">
    <comp name="--.HHZ">
      <acc value="0.1215612868" flag="0"/>
      <vel value="0.0206298358" flag="0"/>
      <psa03 value="0.0807197255" flag="0"/>
      <psa10 value="0.0066797422" flag="0"/>
      <psa30 value="0.0005077256" flag="0"/>
    </comp>
    <comp name="--.HHE">
      <acc value="0.1602734974" flag="0"/>
      <vel value="0.0384909854" flag="0"/>
      <psa03 value="0.1535477182" flag="0"/>
      <psa10 value="0.0154621800" flag="0"/>
      <psa30 value="0.0009592002" flag="0"/>
    </comp>
    <comp name="--.HHN">
      <acc value="0.2698329398" flag="0"/>
      <vel value="0.0566811732" flag="0"/>
      <psa03 value="0.1755601593" flag="0"/>
      <psa10 value="0.0185516454" flag="0"/>
      <psa30 value="0.0009489561" flag="0"/>
    </comp>
  </station>
  <station code="STIA" name="STIA" netid="HC" insttype="120" lat="35.2021" lon="26.0909">
    <comp name="--.HHN">
      <acc value="0.0191399624" flag="0"/>
      <vel value="0.0050674884" flag="0"/>
      <psa03 value="0.0280423529" flag="0"/>
      <psa10 value="0.0042926457" flag="0"/>
      <psa30 value="0.0002904973" flag="0"/>
    </comp>
    <comp name="--.HHE">
      <acc value="0.0169839699" flag="0"/>
      <vel value="0.0065305900" flag="0"/>
      <psa03 value="0.0357091662" flag="0"/>
      <psa10 value="0.0061507185" flag="0"/>
      <psa30 value="0.0002311010" flag="0"/>
    </comp>
    <comp name="--.HHZ">
      <acc value="0.0156363908" flag="0"/>
      <vel value="0.0041640315" flag="0"/>
      <psa03 value="0.0193572050" flag="0"/>
      <psa10 value="0.0023463285" flag="0"/>
      <psa30 value="0.0002360193" flag="0"/>
    </comp>
  </station>
  <station code="IDI" name="IDI" netid="HL" insttype="120" lat="35.288" lon="24.89">
    <comp name="--.HHN">
      <acc value="0.0390758494" flag="0"/>
      <vel value="0.0070356561" flag="0"/>
      <psa03 value="0.0299592802" flag="0"/>
      <psa10 value="0.0026395512" flag="0"/>
      <psa30 value="0.0003404170" flag="0"/>
    </comp>
    <comp name="--.HHE">
      <acc value="0.0285492246" flag="0"/>
      <vel value="0.0059889602" flag="0"/>
      <psa03 value="0.0355578017" flag="0"/>
      <psa10 value="0.0029816584" flag="0"/>
      <psa30 value="0.0003292495" flag="0"/>
    </comp>
    <comp name="--.HHZ">
      <acc value="0.0210564148" flag="0"/>
      <vel value="0.0049725082" flag="0"/>
      <psa03 value="0.0270027682" flag="0"/>
      <psa10 value="0.0038610712" flag="0"/>
      <psa30 value="0.0002945603" flag="0"/>
    </comp>
  </station>
  <station code="NPS" name="NPS" netid="HL" insttype="CMG3ESPC-120s" lat="35.2613" lon="25.6104">
    <comp name="--.HHE">
      <acc value="0.0198604973" flag="0"/>
      <vel value="0.0061818726" flag="0"/>
      <psa03 value="0.0230171365" flag="0"/>
      <psa10 value="0.0026609276" flag="0"/>
      <psa30 value="0.0001880738" flag="0"/>
    </comp>
    <comp name="--.HHN">
      <acc value="0.0674995754" flag="0"/>
      <vel value="0.0156264461" flag="0"/>
      <psa03 value="0.0477124919" flag="0"/>
      <psa10 value="0.0068245793" flag="0"/>
      <psa30 value="0.0005033596" flag="0"/>
    </comp>
    <comp name="--.HHZ">
      <acc value="0.0622003680" flag="0"/>
      <vel value="0.0108321859" flag="0"/>
      <psa03 value="0.0298196438" flag="0"/>
      <psa10 value="0.0052258320" flag="0"/>
      <psa30 value="0.0003269250" flag="0"/>
    </comp>
  </station>
  <station code="SIVA" name="SIVA" netid="HL" insttype="60" lat="35.0178" lon="24.812">
    <comp name="--.HHN">
      <acc value="0.0250400839" flag="0"/>
      <vel value="0.0088382594" flag="0"/>
      <psa03 value="0.0485931110" flag="0"/>
      <psa10 value="0.0082956226" flag="0"/>
      <psa30 value="0.0004972084" flag="0"/>
    </comp>
    <comp name="--.HHZ">
      <acc value="0.0171546267" flag="0"/>
      <vel value="0.0058947878" flag="0"/>
      <psa03 value="0.0397091926" flag="0"/>
      <psa10 value="0.0036511432" flag="0"/>
      <psa30 value="0.0002625218" flag="0"/>
    </comp>
    <comp name="--.HHE">
      <acc value="0.0334135511" flag="0"/>
      <vel value="0.0103413408" flag="0"/>
      <psa03 value="0.0335924428" flag="0"/>
      <psa10 value="0.0086900104" flag="0"/>
      <psa30 value="0.0004652076" flag="0"/>
    </comp>
  </station>
  <station code="IDI" name="IDI" netid="MN" insttype="" lat="35.288" lon="24.89">
    <comp name="--.HHE">
      <acc value="0.0308689977" flag="0"/>
      <vel value="0.0060868117" flag="0"/>
      <psa03 value="0.0357654017" flag="0"/>
      <psa10 value="0.0029914024" flag="0"/>
      <psa30 value="0.0003282681" flag="0"/>
    </comp>
    <comp name="--.HHN">
      <acc value="0.0423352591" flag="0"/>
      <vel value="0.0071243146" flag="0"/>
      <psa03 value="0.0304800467" flag="0"/>
      <psa10 value="0.0026303810" flag="0"/>
      <psa30 value="0.0003403107" flag="0"/>
    </comp>
    <comp name="--.HHZ">
      <acc value="0.0256925129" flag="0"/>
      <vel value="0.0052138535" flag="0"/>
      <psa03 value="0.0274446853" flag="0"/>
      <psa10 value="0.0038368198" flag="0"/>
      <psa30 value="0.0002932495" flag="0"/>
    </comp>
  </station>
</stationlist>
