<?xml version="1.0" encoding="UTF-8" standalone="yes"?>
<!DOCTYPE earthquake SYSTEM "stationlist.dtd">
<stationlist created="" xmlns="ch.ethz.sed.shakemap.usgs.xml">
  <station code="AKS" name="AKS" netid="KO" insttype="CMG-5T" commtype="DIG" lat="38.8785" lon="27.8129">
    <comp name="--.HNE">
      <acc value="0.2707119876" flag="0"/>
      <vel value="0.0994008978" flag="0"/>
      <psa03 value="0.5653250115" flag="0"/>
      <psa10 value="0.0474995556" flag="0"/>
      <psa30 value="0.0059280430" flag="0"/>
    </comp>
    <comp name="--.HNZ">
      <acc value="0.2135670967" flag="0"/>
      <vel value="0.0460779242" flag="0"/>
      <psa03 value="0.3366348794" flag="0"/>
      <psa10 value="0.0160202862" flag="0"/>
      <psa30 value="0.0052425973" flag="0"/>
    </comp>
    <comp name="--.HNN">
      <acc value="0.2974887556" flag="0"/>
      <vel value="0.0869377255" flag="0"/>
      <psa03 value="0.4118795782" flag="0"/>
      <psa10 value="0.0319653236" flag="0"/>
      <psa30 value="0.0060259916" flag="0"/>
    </comp>
  </station>
  <station code="AYDB" name="AYDB" netid="KO" insttype="CMG-3ESPC" commtype="DIG" lat="37.9467" lon="27.8908">
    <comp name="--.HHZ">
      <acc value="0.0886222225" flag="0"/>
      <vel value="0.0245840896" flag="0"/>
      <psa03 value="0.1263658776" flag="0"/>
      <psa10 value="0.0100447935" flag="0"/>
      <psa30 value="0.0015504212" flag="0"/>
    </comp>
    <comp name="--.HHN">
      <acc value="0.0598983783" flag="0"/>
      <vel value="0.0248883092" flag="0"/>
      <psa03 value="0.1952077736" flag="0"/>
      <psa10 value="0.0163663015" flag="0"/>
      <psa30 value="0.0023522369" flag="0"/>
    </comp>
    <comp name="--.HHE">
      <acc value="0.0699916817" flag="0"/>
      <vel value="0.0318165874" flag="0"/>
      <psa03 value="0.3254484020" flag="0"/>
      <psa10 value="0.0146953885" flag="0"/>
      <psa30 value="0.0024738545" flag="0"/>
    </comp>
  </station>
  <station code="AYVL" name="AYVL" netid="KO" insttype="CMG-6T" commtype="DIG" lat="39.2907" lon="26.69">
    <comp name="--.HHN">
      <acc value="0.0185608623" flag="0"/>
      <vel value="0.0058710225" flag="0"/>
      <psa03 value="0.0432586356" flag="0"/>
      <psa10 value="0.0020652227" flag="0"/>
      <psa30 value="0.0001267088" flag="0"/>
    </comp>
    <comp name="--.HHZ">
      <acc value="0.0155020213" flag="0"/>
      <vel value="0.0054456055" flag="0"/>
      <psa03 value="0.0352238752" flag="0"/>
      <psa10 value="0.0028578430" flag="0"/>
      <psa30 value="0.0001365726" flag="0"/>
    </comp>
  </station>
  <station code="BALB" name="BALB" netid="KO" insttype="CMG-5T" commtype="DIG" lat="39.6507" lon="27.8642">
    <comp name="--.HNE">
      <acc value="0.0998729032" flag="0"/>
      <vel value="0.0387429027" flag="0"/>
      <psa03 value="0.2873458724" flag="0"/>
      <psa10 value="0.0285839939" flag="0"/>
      <psa30 value="0.0027130001" flag="0"/>
    </comp>
    <comp name="--.HNN">
      <acc value="0.1363397983" flag="0"/>
      <vel value="0.0400627383" flag="0"/>
      <psa03 value="0.1679748153" flag="0"/>
      <psa10 value="0.0275451378" flag="0"/>
      <psa30 value="0.0054933244" flag="0"/>
    </comp>
    <comp name="--.HNZ">
      <acc value="0.0767569097" flag="0"/>
      <vel value="0.0238271123" flag="0"/>
      <psa03 value="0.1122513380" flag="0"/>
      <psa10 value="0.0126472678" flag="0"/>
      <psa30 value="0.0028051292" flag="0"/>
    </comp>
  </station>
  <station code="BLCB" name="BLCB" netid="KO" insttype="CMG-3T" commtype="DIG" lat="38.3853" lon="27.042">
    <comp name="--.HHE">
      <acc value="0.1058556121" flag="0"/>
      <vel value="0.0386037348" flag="0"/>
      <psa03 value="0.3254138755" flag="0"/>
      <psa10 value="0.0225432294" flag="0"/>
      <psa30 value="0.0036142579" flag="0"/>
    </comp>
    <comp name="--.HHN">
      <acc value="0.0861672526" flag="0"/>
      <vel value="0.0362408424" flag="0"/>
      <psa03 value="0.1820045294" flag="0"/>
      <psa10 value="0.0271962632" flag="0"/>
      <psa30 value="0.0018396692" flag="0"/>
    </comp>
    <comp name="--.HHZ">
      <acc value="0.0840822594" flag="0"/>
      <vel value="0.0299276642" flag="0"/>
      <psa03 value="0.1987863602" flag="0"/>
      <psa10 value="0.0066093539" flag="0"/>
      <psa30 value="0.0018731878" flag="0"/>
    </comp>
  </station>
  <station code="CANM" name="CANM" netid="KO" insttype="CMG-5T" commtype="DIG" lat="40.0113" lon="27.0529">
    <comp name="--.HNE">
      <acc value="0.0519034685" flag="0"/>
      <vel value="0.0254539154" flag="0"/>
      <psa03 value="0.1517743690" flag="0"/>
      <psa10 value="0.0212860405" flag="0"/>
      <psa30 value="0.0011308542" flag="0"/>
    </comp>
    <comp name="--.HNN">
      <acc value="0.0593729632" flag="0"/>
      <vel value="0.0256201419" flag="0"/>
      <psa03 value="0.1488671365" flag="0"/>
      <psa10 value="0.0225386189" flag="0"/>
      <psa30 value="0.0016460029" flag="0"/>
    </comp>
    <comp name="--.HNZ">
      <acc value="0.0549565817" flag="0"/>
      <vel value="0.0177094394" flag="0"/>
      <psa03 value="0.1202177239" flag="0"/>
      <psa10 value="0.0110811943" flag="0"/>
      <psa30 value="0.0017486192" flag="0"/>
    </comp>
  </station>
  <station code="DKL" name="DKL" netid="KO" insttype="CMG-3ESPC" commtype="DIG" lat="39.0713" lon="26.9053">
    <comp name="--.HHZ">
      <acc value="0.0250977944" flag="0"/>
      <vel value="0.0109026108" flag="0"/>
      <psa03 value="0.0588630039" flag="0"/>
      <psa10 value="0.0083797101" flag="0"/>
      <psa30 value="0.0020289086" flag="0"/>
    </comp>
    <comp name="--.HHN">
      <acc value="0.0371821950" flag="0"/>
      <vel value="0.0168666922" flag="0"/>
      <psa03 value="0.1175897799" flag="0"/>
      <psa10 value="0.0216331137" flag="0"/>
      <psa30 value="0.0024651218" flag="0"/>
    </comp>
    <comp name="--.HHE">
      <acc value="0.0223994915" flag="0"/>
      <vel value="0.0116271310" flag="0"/>
      <psa03 value="0.0622528906" flag="0"/>
      <psa10 value="0.0117963644" flag="0"/>
      <psa30 value="0.0023179624" flag="0"/>
    </comp>
  </station>
  <station code="DST" name="DST" netid="KO" insttype="CMG-5T" commtype="DIG" lat="39.6041" lon="28.6267">
    <comp name="--.HNN">
      <acc value="0.1414680435" flag="0"/>
      <vel value="0.0615754070" flag="0"/>
      <psa03 value="0.3794729546" flag="0"/>
      <psa10 value="0.0229932745" flag="0"/>
      <psa30 value="0.0056020061" flag="0"/>
    </comp>
    <comp name="--.HNZ">
      <acc value="0.1294003991" flag="0"/>
      <vel value="0.0530654512" flag="0"/>
      <psa03 value="0.3464108580" flag="0"/>
      <psa10 value="0.0141918016" flag="0"/>
      <psa30 value="0.0038227902" flag="0"/>
    </comp>
    <comp name="--.HNE">
      <acc value="0.1656464450" flag="0"/>
      <vel value="0.0455452703" flag="0"/>
      <psa03 value="0.3461036546" flag="0"/>
      <psa10 value="0.0199583341" flag="0"/>
      <psa30 value="0.0025748592" flag="0"/>
    </comp>
  </station>
  <station code="EDC" name="EDC" netid="KO" insttype="CMG-3T" commtype="DIG" lat="40.3465" lon="27.8618">
    <comp name="--.HHN">
      <acc value="0.1228970214" flag="0"/>
      <vel value="0.0631840634" flag="0"/>
      <psa03 value="0.5695567299" flag="0"/>
      <psa10 value="0.0341510422" flag="0"/>
      <psa30 value="0.0037901383" flag="0"/>
    </comp>
    <comp name="--.HHE">
      <acc value="0.0625842820" flag="0"/>
      <vel value="0.0313001878" flag="0"/>
      <psa03 value="0.1800338098" flag="0"/>
      <psa10 value="0.0268484992" flag="0"/>
      <psa30 value="0.0036381134" flag="0"/>
    </comp>
    <comp name="--.HHZ">
      <acc value="0.0371455295" flag="0"/>
      <vel value="0.0163978533" flag="0"/>
      <psa03 value="0.0691925203" flag="0"/>
      <psa10 value="0.0127929326" flag="0"/>
      <psa30 value="0.0020179969" flag="0"/>
    </comp>
  </station>
  <station code="GEDZ" name="GEDZ" netid="KO" insttype="CMG-6T" commtype="DIG" lat="39.0445" lon="29.4105">
    <comp name="--.HHN">
      <acc value="0.2382448170" flag="0"/>
      <vel value="0.0977116761" flag="0"/>
      <psa03 value="0.5378897188" flag="0"/>
      <psa10 value="0.1381328634" flag="0"/>
      <psa30 value="0.0058848574" flag="0"/>
    </comp>
    <comp name="--.HHZ">
      <acc value="0.1405745154" flag="0"/>
      <vel value="0.0475010705" flag="0"/>
      <psa03 value="0.1684425076" flag="0"/>
      <psa10 value="0.0427725659" flag="0"/>
      <psa30 value="0.0023520410" flag="0"/>
    </comp>
    <comp name="--.HHE">
      <acc value="0.2599256220" flag="0"/>
      <vel value="0.1118725299" flag="0"/>
      <psa03 value="0.5076574504" flag="0"/>
      <psa10 value="0.1513893396" flag="0"/>
      <psa30 value="0.0072672912" flag="0"/>
    </comp>
  </station>
  <station code="GOMA" name="GOMA" netid="KO" insttype="CMG-5T" commtype="DIG" lat="38.7077" lon="27.9175">
    <comp name="--.HNN">
      <acc value="0.2762228481" flag="0"/>
      <vel value="0.1139511532" flag="0"/>
      <psa03 value="0.7346419812" flag="0"/>
      <psa10 value="0.0331220707" flag="0"/>
      <psa30 value="0.0048150727" flag="0"/>
    </comp>
    <comp name="--.HNZ">
      <acc value="0.3221759124" flag="0"/>
      <vel value="0.0740984725" flag="0"/>
      <psa03 value="0.3859127834" flag="0"/>
      <psa10 value="0.0176822605" flag="0"/>
      <psa30 value="0.0043495099" flag="0"/>
    </comp>
  </station>
  <station code="GONE" name="GONE" netid="KO" insttype="CMG-5T" commtype="DIG" lat="40.0466" lon="27.686">
    <comp name="--.HNE">
      <acc value="0.1044014495" flag="0"/>
      <vel value="0.0329630720" flag="0"/>
      <psa03 value="0.1824156403" flag="0"/>
      <psa10 value="0.0277269142" flag="0"/>
      <psa30 value="0.0017708750" flag="0"/>
    </comp>
    <comp name="--.HNZ">
      <acc value="0.0475910058" flag="0"/>
      <vel value="0.0165308381" flag="0"/>
      <psa03 value="0.0880849627" flag="0"/>
      <psa10 value="0.0111011669" flag="0"/>
      <psa30 value="0.0019663280" flag="0"/>
    </comp>
    <comp name="--.HNN">
      <acc value="0.1491275843" flag="0"/>
      <vel value="0.0574684895" flag="0"/>
      <psa03 value="0.3108684892" flag="0"/>
      <psa10 value="0.0437028843" flag="0"/>
      <psa30 value="0.0019706801" flag="0"/>
    </comp>
  </station>
  <station code="GORD" name="GORD" netid="KO" insttype="CMG-5T" commtype="DIG" lat="38.9088" lon="28.1769">
    <comp name="--.HNE">
      <acc value="0.2420244787" flag="0"/>
      <vel value="0.1060763531" flag="0"/>
      <psa03 value="0.5003282552" flag="0"/>
      <psa10 value="0.0887299960" flag="0"/>
      <psa30 value="0.0108456555" flag="0"/>
    </comp>
    <comp name="--.HNN">
      <acc value="0.2874812832" flag="0"/>
      <vel value="0.1263822670" flag="0"/>
      <psa03 value="0.6158890620" flag="0"/>
      <psa10 value="0.1163371701" flag="0"/>
      <psa30 value="0.0130417895" flag="0"/>
    </comp>
    <comp name="--.HNZ">
      <acc value="0.3198942726" flag="0"/>
      <vel value="0.1111477059" flag="0"/>
      <psa03 value="0.5658682775" flag="0"/>
      <psa10 value="0.1100377305" flag="0"/>
      <psa30 value="0.0188818402" flag="0"/>
    </comp>
  </station>
  <station code="KULA" name="KULA" netid="KO" insttype="CMG-3T" commtype="DIG" lat="38.5145" lon="28.6607">
    <comp name="--.HHE">
      <acc value="0.3798087787" flag="0"/>
      <vel value="0.0797453682" flag="0"/>
      <psa03 value="0.2334994659" flag="0"/>
      <psa10 value="0.0386132720" flag="0"/>
      <psa30 value="0.0050224188" flag="0"/>
    </comp>
    <comp name="--.HHZ">
      <acc value="0.1517513834" flag="0"/>
      <vel value="0.0477345150" flag="0"/>
      <psa03 value="0.1959517041" flag="0"/>
      <psa10 value="0.0212386725" flag="0"/>
      <psa30 value="0.0032614006" flag="0"/>
    </comp>
    <comp name="--.HHN">
      <acc value="0.2045486106" flag="0"/>
      <vel value="0.0507547515" flag="0"/>
      <psa03 value="0.2028410933" flag="0"/>
      <psa10 value="0.0140160246" flag="0"/>
      <psa30 value="0.0035850741" flag="0"/>
    </comp>
  </station>
  <station code="MDNY" name="MDNY" netid="KO" insttype="CMG-3ESP" commtype="DIG" lat="40.3709" lon="28.8846">
    <comp name="--.HHE">
      <acc value="0.5210197035" flag="0"/>
      <vel value="0.1649772137" flag="0"/>
      <psa03 value="1.0811656035" flag="0"/>
      <psa10 value="0.0329677637" flag="0"/>
      <psa30 value="0.0036639017" flag="0"/>
    </comp>
    <comp name="--.HHN">
      <acc value="0.3956794713" flag="0"/>
      <vel value="0.1273802611" flag="0"/>
      <psa03 value="0.6169459282" flag="0"/>
      <psa10 value="0.0245595677" flag="0"/>
      <psa30 value="0.0028913115" flag="0"/>
    </comp>
    <comp name="--.HHZ">
      <acc value="0.1586640577" flag="0"/>
      <vel value="0.0434055295" flag="0"/>
      <psa03 value="0.1214541517" flag="0"/>
      <psa10 value="0.0143059596" flag="0"/>
      <psa30 value="0.0049961817" flag="0"/>
    </comp>
  </station>
  <station code="NAZL" name="NAZL" netid="KO" insttype="CMG-5T" commtype="DIG" lat="37.9641" lon="28.2922">
    <comp name="--.HNE">
      <acc value="0.0528429257" flag="0"/>
      <vel value="0.0256100116" flag="0"/>
      <psa03 value="0.2221571012" flag="0"/>
      <psa10 value="0.0374659691" flag="0"/>
      <psa30 value="0.0034897189" flag="0"/>
    </comp>
    <comp name="--.HNN">
      <acc value="0.0494686029" flag="0"/>
      <vel value="0.0243763317" flag="0"/>
      <psa03 value="0.1680097312" flag="0"/>
      <psa10 value="0.0174201966" flag="0"/>
      <psa30 value="0.0016846516" flag="0"/>
    </comp>
    <comp name="--.HNZ">
      <acc value="0.0308263150" flag="0"/>
      <vel value="0.0113755430" flag="0"/>
      <psa03 value="0.0998437216" flag="0"/>
      <psa10 value="0.0090900240" flag="0"/>
      <psa30 value="0.0012098624" flag="0"/>
    </comp>
  </station>
  <station code="ODEM" name="ODEM" netid="KO" insttype="CMG-5T" commtype="DIG" lat="38.2762" lon="28.0747">
    <comp name="--.HNE">
      <acc value="0.0710907056" flag="0"/>
      <vel value="0.0252576424" flag="0"/>
      <psa03 value="0.1253132284" flag="0"/>
      <psa10 value="0.0198848358" flag="0"/>
      <psa30 value="0.0031187763" flag="0"/>
    </comp>
    <comp name="--.HNN">
      <acc value="0.0823575713" flag="0"/>
      <vel value="0.0324467181" flag="0"/>
      <psa03 value="0.1629366588" flag="0"/>
      <psa10 value="0.0152318987" flag="0"/>
      <psa30 value="0.0023373216" flag="0"/>
    </comp>
    <comp name="--.HNZ">
      <acc value="0.0860790891" flag="0"/>
      <vel value="0.0183116176" flag="0"/>
      <psa03 value="0.0803886377" flag="0"/>
      <psa10 value="0.0213444302" flag="0"/>
      <psa30 value="0.0023664134" flag="0"/>
    </comp>
  </station>
  <station code="ORLT" name="ORLT" netid="KO" insttype="CMG-5T" commtype="DIG" lat="40.0452" lon="28.8914">
    <comp name="--.HNN">
      <acc value="0.2313839321" flag="0"/>
      <vel value="0.0983087979" flag="0"/>
      <psa03 value="0.8045829054" flag="0"/>
      <psa10 value="0.0453051312" flag="0"/>
      <psa30 value="0.0035098584" flag="0"/>
    </comp>
    <comp name="--.HNE">
      <acc value="0.1662838312" flag="0"/>
      <vel value="0.0657498344" flag="0"/>
      <psa03 value="0.4744181758" flag="0"/>
      <psa10 value="0.0311279879" flag="0"/>
      <psa30 value="0.0043159948" flag="0"/>
    </comp>
    <comp name="--.HNZ">
      <acc value="0.0874599987" flag="0"/>
      <vel value="0.0336323487" flag="0"/>
      <psa03 value="0.3153992988" flag="0"/>
      <psa10 value="0.0238104778" flag="0"/>
      <psa30 value="0.0033590486" flag="0"/>
    </comp>
  </station>
  <station code="SHAP" name="SHAP" netid="KO" insttype="CMG-5T" commtype="DIG" lat="39.0231" lon="29.222">
    <comp name="--.HNE">
      <acc value="0.5547814657" flag="0"/>
      <vel value="0.1862082616" flag="0"/>
      <psa03 value="0.9569508969" flag="0"/>
      <psa10 value="0.0312049931" flag="0"/>
      <psa30 value="0.0034792100" flag="0"/>
    </comp>
    <comp name="--.HNZ">
      <acc value="0.1932087543" flag="0"/>
      <vel value="0.0757635867" flag="0"/>
      <psa03 value="0.3095754509" flag="0"/>
      <psa10 value="0.0163326473" flag="0"/>
      <psa30 value="0.0023569181" flag="0"/>
    </comp>
    <comp name="--.HNN">
      <acc value="0.6055076334" flag="0"/>
      <vel value="0.2235697008" flag="0"/>
      <psa03 value="0.9493009511" flag="0"/>
      <psa10 value="0.0593580532" flag="0"/>
      <psa30 value="0.0036354158" flag="0"/>
    </comp>
  </station>
  <station code="SIMA" name="SIMA" netid="KO" insttype="CMG-6T" commtype="DIG" lat="39.0833" lon="28.9825">
    <comp name="--.HHE">
      <acc value="0.5655316122" flag="0"/>
      <vel value="0.1095616160" flag="0"/>
      <psa03 value="0.6449787181" flag="0"/>
      <psa10 value="0.0266518957" flag="0"/>
      <psa30 value="0.0047546130" flag="0"/>
    </comp>
    <comp name="--.HHN">
      <acc value="0.3685943007" flag="0"/>
      <vel value="0.0702005344" flag="0"/>
      <psa03 value="0.6362321352" flag="0"/>
      <psa10 value="0.0292549099" flag="0"/>
      <psa30 value="0.0074455580" flag="0"/>
    </comp>
    <comp name="--.HHZ">
      <acc value="0.3000149509" flag="0"/>
      <vel value="0.0616152401" flag="0"/>
      <psa03 value="0.3245164129" flag="0"/>
      <psa10 value="0.0215840486" flag="0"/>
      <psa30 value="0.0025342134" flag="0"/>
    </comp>
  </station>
  <station code="SMAA" name="SMAA" netid="KO" insttype="CMG-5T" commtype="DIG" lat="39.1005" lon="28.9805">
    <comp name="--.HNZ">
      <acc value="0.2320908386" flag="0"/>
      <vel value="0.0629401864" flag="0"/>
      <psa03 value="0.1474995077" flag="0"/>
      <psa10 value="0.0997257193" flag="0"/>
      <psa30 value="0.0049109833" flag="0"/>
    </comp>
    <comp name="--.HNE">
      <acc value="0.3269252449" flag="0"/>
      <vel value="0.1101014821" flag="0"/>
      <psa03 value="0.4206799647" flag="0"/>
      <psa10 value="0.1206202950" flag="0"/>
      <psa30 value="0.0246773886" flag="0"/>
    </comp>
    <comp name="--.HNN">
      <acc value="0.3728573442" flag="0"/>
      <vel value="0.1224716396" flag="0"/>
      <psa03 value="0.4879122496" flag="0"/>
      <psa10 value="0.1611032260" flag="0"/>
      <psa30 value="0.0121271994" flag="0"/>
    </comp>
  </station>
  <station code="SOMA" name="SOMA" netid="KO" insttype="CMG-5T" commtype="DIG" lat="39.1564" lon="27.5341">
    <comp name="--.HNN">
      <acc value="0.3511948854" flag="0"/>
      <vel value="0.1048460892" flag="0"/>
      <psa03 value="0.3451639696" flag="0"/>
      <psa10 value="0.0433200694" flag="0"/>
      <psa30 value="0.0026597425" flag="0"/>
    </comp>
    <comp name="--.HNE">
      <acc value="0.1696939052" flag="0"/>
      <vel value="0.0509789531" flag="0"/>
      <psa03 value="0.2972490248" flag="0"/>
      <psa10 value="0.0294042341" flag="0"/>
      <psa30 value="0.0032348011" flag="0"/>
    </comp>
    <comp name="--.HNZ">
      <acc value="0.1889998103" flag="0"/>
      <vel value="0.0478174678" flag="0"/>
      <psa03 value="0.1306627470" flag="0"/>
      <psa10 value="0.0210381093" flag="0"/>
      <psa30 value="0.0031703906" flag="0"/>
    </comp>
  </station>
  <station code="SUSR" name="SUSR" netid="KO" insttype="CMG-5T" commtype="DIG" lat="39.9627" lon="28.0835">
    <comp name="--.HNE">
      <acc value="0.1461086195" flag="0"/>
      <vel value="0.0437420852" flag="0"/>
      <psa03 value="0.3166008353" flag="0"/>
      <psa10 value="0.0162996783" flag="0"/>
      <psa30 value="0.0017149139" flag="0"/>
    </comp>
    <comp name="--.HNZ">
      <acc value="0.0927258874" flag="0"/>
      <vel value="0.0268794778" flag="0"/>
      <psa03 value="0.1686701034" flag="0"/>
      <psa10 value="0.0063662527" flag="0"/>
      <psa30 value="0.0025076510" flag="0"/>
    </comp>
    <comp name="--.HNN">
