<?xml version="1.0" encoding="UTF-8" standalone="yes"?>
<!DOCTYPE earthquake SYSTEM "stationlist.dtd">
<stationlist created="" xmlns="ch.ethz.sed.shakemap.usgs.xml">
  <station code="THERA" name="THERA" netid="GE" insttype="STS-2/N" lat="36.367" lon="25.4753">
    <comp name="--.HHE">
      <acc value="0.0635536693" flag="0"/>
      <vel value="0.0143440551" flag="0"/>
      <psa03 value="0.0621115620" flag="0"/>
      <psa10 value="0.0051755322" flag="0"/>
      <psa30 value="0.0005962737" flag="0"/>
    </comp>
    <comp name="--.HHN">
      <acc value="0.0343361821" flag="0"/>
      <vel value="0.0068499213" flag="0"/>
      <psa03 value="0.0388110047" flag="0"/>
      <psa10 value="0.0026595424" flag="0"/>
      <psa30 value="0.0002846499" flag="0"/>
    </comp>
    <comp name="--.HHZ">
      <acc value="0.0445494984" flag="0"/>
      <vel value="0.0104377572" flag="0"/>
      <psa03 value="0.0346836620" flag="0"/>
      <psa10 value="0.0048807680" flag="0"/>
      <psa30 value="0.0004723382" flag="0"/>
    </comp>
  </station>
</stationlist>
