<?xml version="1.0" encoding="UTF-8" standalone="yes"?>
<!DOCTYPE earthquake SYSTEM "stationlist.dtd">
<stationlist created="" xmlns="ch.ethz.sed.shakemap.usgs.xml">
  <station code="APE" name="APE" netid="GE" insttype="STS-2/N" lat="37.0727" lon="25.523">
    <comp name="--.HHE">
      <acc value="0.0863369079" flag="0"/>
      <vel value="0.0174203232" flag="0"/>
      <psa03 value="0.0961055349" flag="0"/>
      <psa10 value="0.0041840242" flag="0"/>
      <psa30 value="0.0006396728" flag="0"/>
    </comp>
    <comp name="--.HHN">
      <acc value="0.1063823566" flag="0"/>
      <vel value="0.0211192308" flag="0"/>
      <psa03 value="0.0664305866" flag="0"/>
      <psa10 value="0.0049338246" flag="0"/>
      <psa30 value="0.0008522846" flag="0"/>
    </comp>
    <comp name="--.HHZ">
      <acc value="0.0357505880" flag="0"/>
      <vel value="0.0095913046" flag="0"/>
      <psa03 value="0.0360710849" flag="0"/>
      <psa10 value="0.0038562333" flag="0"/>
      <psa30 value="0.0006059464" flag="0"/>
    </comp>
  </station>
  <station code="THERA" name="THERA" netid="GE" insttype="STS-2/N" lat="36.367" lon="25.4753">
    <comp name="--.HHZ">
      <acc value="0.1269818995" flag="0"/>
      <vel value="0.0331692440" flag="0"/>
      <psa03 value="0.1029366570" flag="0"/>
      <psa10 value="0.0109009937" flag="0"/>
      <psa30 value="0.0008789139" flag="0"/>
    </comp>
    <comp name="--.HHE">
      <acc value="0.1301914918" flag="0"/>
      <vel value="0.0369404181" flag="0"/>
      <psa03 value="0.1414048342" flag="0"/>
      <psa10 value="0.0153656369" flag="0"/>
      <psa30 value="0.0010825376" flag="0"/>
    </comp>
    <comp name="--.HHN">
      <acc value="0.1053828174" flag="0"/>
      <vel value="0.0301167709" flag="0"/>
      <psa03 value="0.1166810945" flag="0"/>
      <psa10 value="0.0072378651" flag="0"/>
      <psa30 value="0.0006785387" flag="0"/>
    </comp>
  </station>
  <station code="SNT1" name="SNT1" netid="HA" insttype="30" lat="36.4159" lon="25.4282">
    <comp name="--.HHE">
      <acc value="0.1078354771" flag="0"/>
      <vel value="0.0439436186" flag="0"/>
      <psa03 value="0.2897962076" flag="0"/>
      <psa10 value="0.0282926451" flag="0"/>
      <psa30 value="0.0019434748" flag="0"/>
    </comp>
    <comp name="--.HHN">
      <acc value="0.1249280055" flag="0"/>
      <vel value="0.0461783639" flag="0"/>
      <psa03 value="0.1786420580" flag="0"/>
      <psa10 value="0.0320665209" flag="0"/>
      <psa30 value="0.0022377114" flag="0"/>
    </comp>
    <comp name="--.HHZ">
      <acc value="0.0993975547" flag="0"/>
      <vel value="0.0287757565" flag="0"/>
      <psa03 value="0.1626037666" flag="0"/>
      <psa10 value="0.0145206399" flag="0"/>
      <psa30 value="0.0013364448" flag="0"/>
    </comp>
  </station>
  <station code="NAX1" name="NAX1" netid="HI" insttype="CMG-5TD,ACCELEROMETER,GURALP" lat="37.1014" lon="25.3741">
    <comp name="--.HNE">
      <acc value="0.0935124453" flag="0"/>
      <vel value="0.0279084248" flag="0"/>
      <psa03 value="0.2086090469" flag="0"/>
      <psa10 value="0.0056623885" flag="0"/>
      <psa30 value="0.0007259747" flag="0"/>
    </comp>
    <comp name="--.HNN">
      <acc value="0.0805439415" flag="0"/>
      <vel value="0.0195704669" flag="0"/>
      <psa03 value="0.0585159537" flag="0"/>
      <psa10 value="0.0050079909" flag="0"/>
      <psa30 value="0.0008145338" flag="0"/>
    </comp>
    <comp name="--.HNZ">
      <acc value="0.0520164292" flag="0"/>
      <vel value="0.0117527179" flag="0"/>
      <psa03 value="0.0917554851" flag="0"/>
      <psa10 value="0.0048138188" flag="0"/>
      <psa30 value="0.0005701067" flag="0"/>
    </comp>
  </station>
  <station code="SFR2" name="SFR2" netid="HI" insttype="unknown" lat="36.3998" lon="25.4382">
    <comp name="--.HNE">
      <acc value="0.3138560230" flag="0"/>
      <vel value="0.1217655286" flag="0"/>
      <psa03 value="0.8038497818" flag="0"/>
      <psa10 value="0.0370490397" flag="0"/>
      <psa30 value="0.0049808822" flag="0"/>
    </comp>
    <comp name="--.HNN">
      <acc value="0.4516475214" flag="0"/>
      <vel value="0.1300642539" flag="0"/>
      <psa03 value="1.0693371657" flag="0"/>
      <psa10 value="0.0548425250" flag="0"/>
      <psa30 value="0.0028172728" flag="0"/>
    </comp>
    <comp name="--.HNZ">
      <acc value="0.3272570452" flag="0"/>
      <vel value="0.0810186075" flag="0"/>
      <psa03 value="0.5395090816" flag="0"/>
      <psa10 value="0.0334961771" flag="0"/>
      <psa30 value="0.0020574550" flag="0"/>
    </comp>
  </station>
  <station code="AMGA" name="AMGA" netid="HL" insttype="SMART24" lat="36.8316" lon="25.8938">
    <comp name="--.HHE">
      <acc value="0.2158538870" flag="0"/>
      <vel value="0.0322960417" flag="0"/>
      <psa03 value="0.1023819176" flag="0"/>
      <psa10 value="0.0144642795" flag="0"/>
      <psa30 value="0.0015875033" flag="0"/>
    </comp>
    <comp name="--.HHZ">
      <acc value="0.1668384004" flag="0"/>
      <vel value="0.0302360980" flag="0"/>
      <psa03 value="0.0840875902" flag="0"/>
      <psa10 value="0.0102396988" flag="0"/>
      <psa30 value="0.0013022626" flag="0"/>
    </comp>
    <comp name="--.HHN">
      <acc value="0.2391761135" flag="0"/>
      <vel value="0.0362828657" flag="0"/>
      <psa03 value="0.1059931371" flag="0"/>
      <psa10 value="0.0187793738" flag="0"/>
      <psa30 value="0.0012199771" flag="0"/>
    </comp>
  </station>
  <station code="APE" name="APE" netid="HL" insttype="120" lat="37.0727" lon="25.523">
    <comp name="--.HHE">
      <acc value="0.0763964305" flag="0"/>
      <vel value="0.0170678329" flag="0"/>
      <psa03 value="0.0931240231" flag="0"/>
      <psa10 value="0.0040290496" flag="0"/>
      <psa30 value="0.0006359117" flag="0"/>
    </comp>
    <comp name="--.HHN">
      <acc value="0.0914480630" flag="0"/>
      <vel value="0.0204615127" flag="0"/>
      <psa03 value="0.0643730390" flag="0"/>
      <psa10 value="0.0048002733" flag="0"/>
      <psa30 value="0.0008456161" flag="0"/>
    </comp>
    <comp name="--.HHZ">
      <acc value="0.0326217271" flag="0"/>
      <vel value="0.0093379762" flag="0"/>
      <psa03 value="0.0353292848" flag="0"/>
      <psa10 value="0.0037979073" flag="0"/>
      <psa30 value="0.0006044563" flag="0"/>
    </comp>
  </station>
  <station code="MHLO" name="MHLO" netid="HL" insttype="20" lat="36.6898" lon="24.4017">
    <comp name="--.HHE">
      <acc value="0.0697764058" flag="0"/>
      <vel value="0.0296850063" flag="0"/>
      <psa03 value="0.2804121880" flag="0"/>
      <psa10 value="0.0276440983" flag="0"/>
      <psa30 value="0.0012353593" flag="0"/>
    </comp>
    <comp name="--.HHN">
      <acc value="0.0520116716" flag="0"/>
      <vel value="0.0248911357" flag="0"/>
      <psa03 value="0.2020349498" flag="0"/>
      <psa10 value="0.0263775661" flag="0"/>
      <psa30 value="0.0011486332" flag="0"/>
    </comp>
    <comp name="--.HHZ">
      <acc value="0.0231879833" flag="0"/>
      <vel value="0.0132154584" flag="0"/>
      <psa03 value="0.0647733492" flag="0"/>
      <psa10 value="0.0129557813" flag="0"/>
      <psa30 value="0.0008207832" flag="0"/>
    </comp>
  </station>
  <station code="MILA" name="MILA" netid="HL" insttype="CMG-5" lat="36.7429" lon="24.4282">
    <comp name="00.HNZ">
      <acc value="0.0717794755" flag="0"/>
      <vel value="0.0293516333" flag="0"/>
      <psa03 value="0.1647345995" flag="0"/>
      <psa10 value="0.0225077420" flag="0"/>
      <psa30 value="0.0013108791" flag="0"/>
    </comp>
    <comp name="00.HNN">
      <acc value="0.1122099230" flag="0"/>
      <vel value="0.0484597611" flag="0"/>
      <psa03 value="0.2699275745" flag="0"/>
      <psa10 value="0.0266857483" flag="0"/>
      <psa30 value="0.0020708033" flag="0"/>
    </comp>
    <comp name="00.HNE">
      <acc value="0.1007193114" flag="0"/>
      <vel value="0.0410180053" flag="0"/>
      <psa03 value="0.2365399086" flag="0"/>
      <psa10 value="0.0214040730" flag="0"/>
      <psa30 value="0.0013618473" flag="0"/>
    </comp>
  </station>
  <station code="SANT" name="SANT" netid="HL" insttype="30" lat="36.3705" lon="25.4593">
    <comp name="--.HHE">
      <acc value="0.3495582914" flag="0"/>
      <vel value="0.0798377499" flag="0"/>
      <psa03 value="0.5151229545" flag="0"/>
      <psa10 value="0.0272795122" flag="0"/>
      <psa30 value="0.0025138177" flag="0"/>
    </comp>
    <comp name="--.HHN">
      <acc value="0.2492898408" flag="0"/>
      <vel value="0.0533388095" flag="0"/>
      <psa03 value="0.1769019882" flag="0"/>
      <psa10 value="0.0168170876" flag="0"/>
      <psa30 value="0.0009541669" flag="0"/>
    </comp>
    <comp name="--.HHZ">
      <acc value="0.2304873380" flag="0"/>
      <vel value="0.0466786468" flag="0"/>
      <psa03 value="0.1367097046" flag="0"/>
      <psa10 value="0.0136223229" flag="0"/>
      <psa30 value="0.0009616964" flag="0"/>
    </comp>
  </station>
  <station code="SAP3" name="SAP3" netid="HL" insttype="65535" lat="36.4356" lon="25.3454">
    <comp name="--.HHE">
      <acc value="0.2777979065" flag="0"/>
      <vel value="0.0861798010" flag="0"/>
      <psa03 value="0.4123814434" flag="0"/>
      <psa10 value="0.0301756460" flag="0"/>
      <psa30 value="0.0025650635" flag="0"/>
    </comp>
    <comp name="--.HHZ">
      <acc value="0.2277502426" flag="0"/>
      <vel value="0.0506867436" flag="0"/>
      <psa03 value="0.2545835525" flag="0"/>
      <psa10 value="0.0107114331" flag="0"/>
      <psa30 value="0.0008239853" flag="0"/>
    </comp>
    <comp name="--.HHN">
      <acc value="0.2461814515" flag="0"/>
      <vel value="0.0826787451" flag="0"/>
      <psa03 value="0.3852545530" flag="0"/>
      <psa10 value="0.0275188721" flag="0"/>
      <psa30 value="0.0030283144" flag="0"/>
    </comp>
  </station>
  <station code="THERA" name="THERA" netid="HL" insttype="120" lat="36.367" lon="25.4753">
    <comp name="--.HHE">
      <acc value="0.1300159977" flag="0"/>
      <vel value="0.0361177870" flag="0"/>
      <psa03 value="0.1371421975" flag="0"/>
      <psa10 value="0.0151349064" flag="0"/>
      <psa30 value="0.0010814179" flag="0"/>
    </comp>
    <comp name="--.HHZ">
      <acc value="0.1279939319" flag="0"/>
      <vel value="0.0321023936" flag="0"/>
      <psa03 value="0.1001993935" flag="0"/>
      <psa10 value="0.0108569060" flag="0"/>
      <psa30 value="0.0008790222" flag="0"/>
    </comp>
    <comp name="--.HHN">
      <acc value="0.2045817436" flag="0"/>
      <vel value="0.0591098936" flag="0"/>
      <psa03 value="0.2263145489" flag="0"/>
      <psa10 value="0.0140614931" flag="0"/>
      <psa30 value="0.0013359264" flag="0"/>
    </comp>
  </station>
  <station code="THRA" name="THRA" netid="HL" insttype="CMG-5" lat="36.415" lon="25.4324">
    <comp name="00.HNN">
      <acc value="0.3575498934" flag="0"/>
      <vel value="0.1390017825" flag="0"/>
      <psa03 value="0.8874297000" flag="0"/>
      <psa10 value="0.0904709523" flag="0"/>
      <psa30 value="0.0048565552" flag="0"/>
    </comp>
    <comp name="00.HNE">
      <acc value="0.4295692130" flag="0"/>
      <vel value="0.1368171785" flag="0"/>
      <psa03 value="0.9630204106" flag="0"/>
      <psa10 value="0.0888623574" flag="0"/>
      <psa30 value="0.0046269784" flag="0"/>
    </comp>
    <comp name="00.HNZ">
      <acc value="0.2544456135" flag="0"/>
      <vel value="0.1057618017" flag="0"/>
      <psa03 value="0.5471449226" flag="0"/>
      <psa10 value="0.0338388119" flag="0"/>
      <psa30 value="0.0030366971" flag="0"/>
    </comp>
  </station>
  <station code="AKRO" name="AKRO" netid="HT" insttype="Compact," lat="36.3584" lon="25.3967">
    <comp name="--.HHE">
      <acc value="0.7763236802" flag="0"/>
      <vel value="0.2063631332" flag="0"/>
      <psa03 value="1.0485530900" flag="0"/>
      <psa10 value="0.0794274797" flag="0"/>
      <psa30 value="0.0051321397" flag="0"/>
    </comp>
    <comp name="--.HHN">
      <acc value="0.3506562027" flag="0"/>
      <vel value="0.0887097305" flag="0"/>
      <psa03 value="0.3941595098" flag="0"/>
      <psa10 value="0.0344321632" flag="0"/>
      <psa30 value="0.0028834507" flag="0"/>
    </comp>
    <comp name="--.HHZ">
      <acc value="0.2362341991" flag="0"/>
      <vel value="0.0764877229" flag="0"/>
      <psa03 value="0.3171110665" flag="0"/>
      <psa10 value="0.0275596182" flag="0"/>
      <psa30 value="0.0024349800" flag="0"/>
    </comp>
  </station>
  <station code="CMBO" name="CMBO" netid="HT" insttype="120P," lat="36.4709" lon="25.4056">
    <comp name="--.HHE">
      <acc value="0.2872526777" flag="0"/>
      <vel value="0.1010670996" flag="0"/>
      <psa03 value="0.3810039660" flag="0"/>
      <psa10 value="0.0317059263" flag="0"/>
      <psa30 value="0.0028765379" flag="0"/>
    </comp>
    <comp name="--.HHN">
      <acc value="0.4000721201" flag="0"/>
      <vel value="0.1180888630" flag="0"/>
      <psa03 value="0.4993959009" flag="0"/>
      <psa10 value="0.0524114537" flag="0"/>
      <psa30 value="0.0030979467" flag="0"/>
    </comp>
    <comp name="--.HHZ">
      <acc value="0.2354410364" flag="0"/>
      <vel value="0.0727168367" flag="0"/>
      <psa03 value="0.3092466254" flag="0"/>
      <psa10 value="0.0160163814" flag="0"/>
      <psa30 value="0.0020264249" flag="0"/>
    </comp>
  </station>
</stationlist>
