<stationlist created="1741951757">
	<station code="BODA" name="BODA" netid="KO" source="Bogazici University Kandilli Observatory And Earthquake Research Institute (KOERI)" insttype="" lat="37.0348" lon="27.4304">
		<comp name=".HNE" depth="0.0">
			<acc value="0.0032585037202488" flag="0"/>
			<vel value="0.00101021382813" flag="0"/>
			<psa03 value="0.00587672654389053" flag="0"/>
			<psa10 value="0.000571003861360034" flag="0"/>
			<psa30 value="0.000164628327693644" flag="0"/>
		</comp>
		<comp name=".HNN" depth="0.0">
			<acc value="0.0040756496233266" flag="0"/>
			<vel value="0.00108170710169" flag="0"/>
			<psa03 value="0.00892647740301571" flag="0"/>
			<psa10 value="0.000828974544403003" flag="0"/>
			<psa30 value="0.000148079822582438" flag="0"/>
		</comp>
		<comp name=".HNZ" depth="0.0">
			<acc value="0.011909726899248" flag="0"/>
			<vel value="0.00147141345227" flag="0"/>
			<psa03 value="0.00185564050520201" flag="0"/>
			<psa10 value="0.000574509992062396" flag="0"/>
			<psa30 value="0.000127395262227563" flag="0"/>
		</comp>
	</station>
	<station code="BODM" name="BODM" netid="KO" source="Bogazici University Kandilli Observatory And Earthquake Research Institute (KOERI)" insttype="" lat="37.031" lon="27.4247">
		<comp name=".HNE" depth="0.0">
			<acc value="0.0079333253528658" flag="0"/>
			<vel value="0.0012340912092" flag="0"/>
			<psa03 value="0.00511643985046823" flag="0"/>
			<psa10 value="0.000759904285243144" flag="0"/>
			<psa30 value="0.000115689564907615" flag="0"/>
		</comp>
		<comp name=".HNN" depth="0.0">
			<acc value="0.005411932567299" flag="0"/>
			<vel value="0.00274535929624" flag="0"/>
			<psa03 value="0.00802932942968953" flag="0"/>
			<psa10 value="0.00172523206159567" flag="0"/>
			<psa30 value="0.000159849378299107" flag="0"/>
		</comp>
		<comp name=".HNZ" depth="0.0">
			<acc value="0.0025106094521874" flag="0"/>
			<vel value="0.000541470178462" flag="0"/>
			<psa03 value="0.00172719172917355" flag="0"/>
			<psa10 value="0.000458840259196476" flag="0"/>
			<psa30 value="0.000151202295055817" flag="0"/>
		</comp>
	</station>
	<station code="CESE" name="CESE" netid="KO" source="Bogazici University Kandilli Observatory And Earthquake Research Institute (KOERI)" insttype="" lat="38.3306" lon="26.2997">
		<comp name=".HNE" depth="0.0">
			<acc value="0.03493598111148" flag="0"/>
			<vel value="0.0023567601418" flag="0"/>
			<psa03 value="0.00186002653794105" flag="0"/>
			<psa10 value="0.00103577795114493" flag="0"/>
			<psa30 value="0.000717383512720574" flag="0"/>
		</comp>
		<comp name=".HNN" depth="0.0">
			<acc value="0.03347803852902" flag="0"/>
			<vel value="0.00249363695324" flag="0"/>
			<psa03 value="0.0033161187651335" flag="0"/>
			<psa10 value="0.00116746194799987" flag="0"/>
			<psa30 value="0.000396239582261125" flag="0"/>
		</comp>
		<comp name=".HNZ" depth="0.0">
			<acc value="0.0052675288356096" flag="0"/>
			<vel value="0.000955561841288" flag="0"/>
			<psa03 value="0.00209980332692369" flag="0"/>
			<psa10 value="0.000648222707196126" flag="0"/>
			<psa30 value="0.000280734196221131" flag="0"/>
		</comp>
	</station>
	<station code="DATC" name="DATC" netid="KO" source="Bogazici University Kandilli Observatory And Earthquake Research Institute (KOERI)" insttype="" lat="36.7584" lon="27.6602">
		<comp name=".HNE" depth="0.0">
			<acc value="0.10783473988236" flag="0"/>
			<vel value="0.0101644055692" flag="0"/>
			<psa03 value="0.0221376123415263" flag="0"/>
			<psa10 value="0.00544771588444725" flag="0"/>
			<psa30 value="0.000566773275112867" flag="0"/>
		</comp>
		<comp name=".HNN" depth="0.0">
			<acc value="0.15461131757526" flag="0"/>
			<vel value="0.0164610378067" flag="0"/>
			<psa03 value="0.0313793886263418" flag="0"/>
			<psa10 value="0.00432298075127119" flag="0"/>
			<psa30 value="0.00056863032521706" flag="0"/>
		</comp>
		<comp name=".HNZ" depth="0.0">
			<acc value="0.1295114241696" flag="0"/>
			<vel value="0.0173814650159" flag="0"/>
			<psa03 value="0.0170953720678218" flag="0"/>
			<psa10 value="0.00490358390086072" flag="0"/>
			<psa30 value="0.000460770367524592" flag="0"/>
		</comp>
	</station>
	<station code="DIDI" name="DIDI" netid="KO" source="Bogazici University Kandilli Observatory And Earthquake Research Institute (KOERI)" insttype="" lat="37.3767" lon="27.2398">
		<comp name=".HNE" depth="0.0">
			<acc value="0.054092316887766" flag="0"/>
			<vel value="0.00557522920241" flag="0"/>
			<psa03 value="0.0186858550336722" flag="0"/>
			<psa10 value="0.00379842014231874" flag="0"/>
			<psa30 value="0.000836296702633529" flag="0"/>
		</comp>
		<comp name=".HNN" depth="0.0">
			<acc value="0.064504319767272" flag="0"/>
			<vel value="0.00503560654027" flag="0"/>
			<psa03 value="0.0186786397119676" flag="0"/>
			<psa10 value="0.00369704014513849" flag="0"/>
			<psa30 value="0.000973725650380065" flag="0"/>
		</comp>
		<comp name=".HNZ" depth="0.0">
			<acc value="0.07691514068442" flag="0"/>
			<vel value="0.00968032822659" flag="0"/>
			<psa03 value="0.01551222682766" flag="0"/>
			<psa10 value="0.00231385570346121" flag="0"/>
			<psa30 value="0.000485158597707691" flag="0"/>
		</comp>
	</station>
	<station code="GMLD" name="GMLD" netid="KO" source="Bogazici University Kandilli Observatory And Earthquake Research Institute (KOERI)" insttype="" lat="38.0766" lon="26.9157">
		<comp name=".HNE" depth="0.0">
			<acc value="0.0088832788735368" flag="0"/>
			<vel value="0.00358204212506" flag="0"/>
			<psa03 value="0.0109324169273135" flag="0"/>
			<psa10 value="0.00323198730642208" flag="0"/>
			<psa30 value="0.000393849163490769" flag="0"/>
		</comp>
		<comp name=".HNN" depth="0.0">
			<acc value="0.014310540967602" flag="0"/>
			<vel value="0.00320523964258" flag="0"/>
			<psa03 value="0.0109759484568895" flag="0"/>
			<psa10 value="0.0029321162695608" flag="0"/>
			<psa30 value="0.000359145927071568" flag="0"/>
		</comp>
		<comp name=".HNZ" depth="0.0">
			<acc value="0.0060723855046644" flag="0"/>
			<vel value="0.00286967171131" flag="0"/>
			<psa03 value="0.00731752837011594" flag="0"/>
			<psa10 value="0.00323932349553388" flag="0"/>
			<psa30 value="0.000407595256393609" flag="0"/>
		</comp>
	</station>
	<station code="KUSD" name="KUSD" netid="KO" source="Bogazici University Kandilli Observatory And Earthquake Research Institute (KOERI)" insttype="" lat="37.8606" lon="27.2868">
		<comp name=".HNE" depth="0.0">
			<acc value="0.0083307616662252" flag="0"/>
			<vel value="0.00103200723123" flag="0"/>
			<psa03 value="0.00342580506777208" flag="0"/>
			<psa10 value="0.00132671495866811" flag="0"/>
			<psa30 value="0.000314466665206553" flag="0"/>
		</comp>
		<comp name=".HNN" depth="0.0">
			<acc value="0.018568885252974" flag="0"/>
			<vel value="0.00163825851552" flag="0"/>
			<psa03 value="0.00421149611334585" flag="0"/>
			<psa10 value="0.00105779413616853" flag="0"/>
			<psa30 value="0.000371194173125357" flag="0"/>
		</comp>
		<comp name=".HNZ" depth="0.0">
			<acc value="0.0051032513078646" flag="0"/>
			<vel value="0.000869594096547" flag="0"/>
			<psa03 value="0.00219568760847387" flag="0"/>
			<psa10 value="0.000547312721624424" flag="0"/>
			<psa30 value="0.000335920325989604" flag="0"/>
		</comp>
	</station>
	<station code="YKAV" name="YKAV" netid="KO" source="Bogazici University Kandilli Observatory And Earthquake Research Institute (KOERI)" insttype="" lat="37.1246" lon="27.2801">
		<comp name=".HNE" depth="0.0">
			<acc value="0.005318624927178" flag="0"/>
			<vel value="0.00235485942871" flag="0"/>
			<psa03 value="0.00558974008449315" flag="0"/>
			<psa10 value="0.00259596861080368" flag="0"/>
			<psa30 value="0.00031534654120237" flag="0"/>
		</comp>
		<comp name=".HNN" depth="0.0">
			<acc value="0.0069328394858136" flag="0"/>
			<vel value="0.00182933943661" flag="0"/>
			<psa03 value="0.0049361616319092" flag="0"/>
			<psa10 value="0.00200854422807444" flag="0"/>
			<psa30 value="0.000278282940087218" flag="0"/>
		</comp>
		<comp name=".HNZ" depth="0.0">
			<acc value="0.0071813477968038" flag="0"/>
			<vel value="0.00215335207977" flag="0"/>
			<psa03 value="0.0077309496374855" flag="0"/>
			<psa10 value="0.00140094561827056" flag="0"/>
			<psa30 value="0.000340585478783337" flag="0"/>
		</comp>
	</station>
</stationlist>
