<?xml version="1.0" encoding="UTF-8" standalone="yes"?>
<!DOCTYPE earthquake SYSTEM "stationlist.dtd">
<stationlist created="" xmlns="ch.ethz.sed.shakemap.usgs.xml">
  <station code="APE" name="APE" netid="GE" insttype="STS-2/N" lat="37.0727" lon="25.523">
    <comp name="--.HHE">
      <acc value="0.0863369079" flag="0"/>
      <vel value="0.0174203232" flag="0"/>
      <psa03 value="0.0961055349" flag="0"/>
      <psa10 value="0.0041840242" flag="0"/>
      <psa30 value="0.0006396728" flag="0"/>
    </comp>
    <comp name="--.HHN">
      <acc value="0.1063823566" flag="0"/>
      <vel value="0.0211192308" flag="0"/>
      <psa03 value="0.0664305866" flag="0"/>
      <psa10 value="0.0049338246" flag="0"/>
      <psa30 value="0.0008522846" flag="0"/>
    </comp>
    <comp name="--.HHZ">
      <acc value="0.0357505880" flag="0"/>
      <vel value="0.0095913046" flag="0"/>
      <psa03 value="0.0360710849" flag="0"/>
      <psa10 value="0.0038562333" flag="0"/>
      <psa30 value="0.0006059464" flag="0"/>
    </comp>
  </station>
  <station code="THERA" name="THERA" netid="GE" insttype="STS-2/N" lat="36.367" lon="25.4753">
    <comp name="--.HHZ">
      <acc value="0.1269818995" flag="0"/>
      <vel value="0.0331692440" flag="0"/>
      <psa03 value="0.1029366570" flag="0"/>
      <psa10 value="0.0109009937" flag="0"/>
      <psa30 value="0.0008789139" flag="0"/>
    </comp>
    <comp name="--.HHE">
      <acc value="0.1301914918" flag="0"/>
      <vel value="0.0369404181" flag="0"/>
      <psa03 value="0.1414048342" flag="0"/>
      <psa10 value="0.0153656369" flag="0"/>
      <psa30 value="0.0010825376" flag="0"/>
    </comp>
    <comp name="--.HHN">
      <acc value="0.1053828174" flag="0"/>
      <vel value="0.0301167709" flag="0"/>
      <psa03 value="0.1166810945" flag="0"/>
      <psa10 value="0.0072378651" flag="0"/>
      <psa30 value="0.0006785387" flag="0"/>
    </comp>
  </station>
</stationlist>
