<?xml version="1.0" encoding="UTF-8" standalone="yes"?>
<!DOCTYPE earthquake SYSTEM "stationlist.dtd">
<stationlist created="" xmlns="ch.ethz.sed.shakemap.usgs.xml">
  <station code="KTHA" name="KTHA" netid="GE" insttype="STS-2/N" lat="36.2566" lon="23.0621">
    <comp name="--.HHZ">
      <acc value="0.0548010299" flag="0"/>
      <vel value="0.0236860352" flag="0"/>
      <psa03 value="0.1911926249" flag="0"/>
      <psa10 value="0.0126860850" flag="0"/>
      <psa30 value="0.0009441493" flag="0"/>
    </comp>
    <comp name="--.HHE">
      <acc value="0.1177961096" flag="0"/>
      <vel value="0.0681633152" flag="0"/>
      <psa03 value="0.4174885085" flag="0"/>
      <psa10 value="0.0562842545" flag="0"/>
      <psa30 value="0.0032224342" flag="0"/>
    </comp>
    <comp name="--.HHN">
      <acc value="0.0805371323" flag="0"/>
      <vel value="0.0375260176" flag="0"/>
      <psa03 value="0.2406829987" flag="0"/>
      <psa10 value="0.0448859233" flag="0"/>
      <psa30 value="0.0021118193" flag="0"/>
    </comp>
  </station>
  <station code="ACOR" name="ACOR" netid="HA" insttype="Horizon,120s,1200" lat="37.8905" lon="22.8694">
    <comp name="--.HHE">
      <acc value="0.0080497935" flag="0"/>
      <vel value="0.0105111801" flag="0"/>
      <psa03 value="0.0184100684" flag="0"/>
      <psa10 value="0.0159513093" flag="0"/>
      <psa30 value="0.0012470326" flag="0"/>
    </comp>
    <comp name="--.HHN">
      <acc value="0.0085637471" flag="0"/>
      <vel value="0.0133783764" flag="0"/>
      <psa03 value="0.0215873677" flag="0"/>
      <psa10 value="0.0198426073" flag="0"/>
      <psa30 value="0.0025131688" flag="0"/>
    </comp>
    <comp name="--.HHZ">
      <acc value="0.0158299041" flag="0"/>
      <vel value="0.0078502695" flag="0"/>
      <psa03 value="0.0334825174" flag="0"/>
      <psa10 value="0.0149165824" flag="0"/>
      <psa30 value="0.0009745977" flag="0"/>
    </comp>
  </station>
  <station code="AMPE" name="AMPE" netid="HA" insttype="1s-100Hz," lat="38.3015" lon="23.2688">
    <comp name="--.HHN">
      <acc value="0.0108837708" flag="0"/>
      <vel value="0.0117794369" flag="0"/>
      <psa03 value="0.0224643659" flag="0"/>
      <psa10 value="0.0218628987" flag="0"/>
      <psa30 value="0.0028654270" flag="0"/>
    </comp>
    <comp name="--.HHZ">
      <acc value="0.0056851293" flag="0"/>
      <vel value="0.0057602214" flag="0"/>
      <psa03 value="0.0101335897" flag="0"/>
      <psa10 value="0.0104790216" flag="0"/>
      <psa30 value="0.0008658228" flag="0"/>
    </comp>
    <comp name="--.HHE">
      <acc value="0.0116968129" flag="0"/>
      <vel value="0.0120911568" flag="0"/>
      <psa03 value="0.0243744062" flag="0"/>
      <psa10 value="0.0190599082" flag="0"/>
      <psa30 value="0.0025791640" flag="0"/>
    </comp>
  </station>
  <station code="ATHU" name="ATHU" netid="HA" insttype="60" lat="37.9665" lon="23.7845">
    <comp name="--.HHZ">
      <acc value="0.0113121276" flag="0"/>
      <vel value="0.0044616091" flag="0"/>
      <psa03 value="0.0129540234" flag="0"/>
      <psa10 value="0.0068578085" flag="0"/>
      <psa30 value="0.0004844161" flag="0"/>
    </comp>
    <comp name="--.HHN">
      <acc value="0.0053786501" flag="0"/>
      <vel value="0.0045214696" flag="0"/>
      <psa03 value="0.0111936890" flag="0"/>
      <psa10 value="0.0061996925" flag="0"/>
      <psa30 value="0.0006855120" flag="0"/>
    </comp>
    <comp name="--.HHE">
      <acc value="0.0048905347" flag="0"/>
      <vel value="0.0063314420" flag="0"/>
      <psa03 value="0.0104539639" flag="0"/>
      <psa10 value="0.0061128912" flag="0"/>
      <psa30 value="0.0014783073" flag="0"/>
    </comp>
  </station>
  <station code="DOMV" name="DOMV" netid="HA" insttype="60" lat="38.2569" lon="22.9795">
    <comp name="--.HHE">
      <acc value="0.0107454535" flag="0"/>
      <vel value="0.0053079204" flag="0"/>
      <psa03 value="0.0130021238" flag="0"/>
      <psa10 value="0.0036914100" flag="0"/>
      <psa30 value="0.0002162880" flag="0"/>
    </comp>
    <comp name="--.HHN">
      <acc value="0.0111861190" flag="0"/>
      <vel value="0.0076880084" flag="0"/>
      <psa03 value="0.0200645663" flag="0"/>
      <psa10 value="0.0076500667" flag="0"/>
      <psa30 value="0.0007237578" flag="0"/>
    </comp>
    <comp name="--.HHZ">
      <acc value="0.0057621285" flag="0"/>
      <vel value="0.0030334727" flag="0"/>
      <psa03 value="0.0135779392" flag="0"/>
      <psa10 value="0.0019992806" flag="0"/>
      <psa30 value="0.0002843012" flag="0"/>
    </comp>
  </station>
  <station code="EPID" name="EPID" netid="HA" insttype="30" lat="37.6144" lon="23.1189">
    <comp name="--.HHN">
      <acc value="0.0525205241" flag="0"/>
      <vel value="0.0217236554" flag="0"/>
      <psa03 value="0.1573195098" flag="0"/>
      <psa10 value="0.0126919018" flag="0"/>
      <psa30 value="0.0020080208" flag="0"/>
    </comp>
    <comp name="--.HHZ">
      <acc value="0.0490863362" flag="0"/>
      <vel value="0.0256947235" flag="0"/>
      <psa03 value="0.1662721871" flag="0"/>
      <psa10 value="0.0105282592" flag="0"/>
      <psa30 value="0.0010150637" flag="0"/>
    </comp>
    <comp name="--.HHE">
      <acc value="0.0324857009" flag="0"/>
      <vel value="0.0160421606" flag="0"/>
      <psa03 value="0.1115591577" flag="0"/>
      <psa10 value="0.0179242477" flag="0"/>
      <psa30 value="0.0015564344" flag="0"/>
    </comp>
  </station>
  <station code="ERTR" name="ERTR" netid="HA" insttype="Horizon,120s,1200" lat="38.4066" lon="23.7865">
    <comp name="--.HHE">
      <acc value="0.0052928179" flag="0"/>
      <vel value="0.0055336226" flag="0"/>
      <psa03 value="0.0104308095" flag="0"/>
      <psa10 value="0.0067908654" flag="0"/>
      <psa30 value="0.0010450953" flag="0"/>
    </comp>
    <comp name="--.HHN">
      <acc value="0.0060765268" flag="0"/>
      <vel value="0.0093699276" flag="0"/>
      <psa03 value="0.0085650592" flag="0"/>
      <psa10 value="0.0146166686" flag="0"/>
      <psa30 value="0.0012729417" flag="0"/>
    </comp>
    <comp name="--.HHZ">
      <acc value="0.0096273956" flag="0"/>
      <vel value="0.0049244007" flag="0"/>
      <psa03 value="0.0158251875" flag="0"/>
      <psa10 value="0.0023400114" flag="0"/>
      <psa30 value="0.0004837788" flag="0"/>
    </comp>
  </station>
  <station code="KARY" name="KARY" netid="HA" insttype="60" lat="38.0321" lon="24.437">
    <comp name="--.HHZ">
      <acc value="0.0393806022" flag="0"/>
      <vel value="0.0191316610" flag="0"/>
      <psa03 value="0.0825564932" flag="0"/>
      <psa10 value="0.0063939621" flag="0"/>
      <psa30 value="0.0008088282" flag="0"/>
    </comp>
    <comp name="--.HHE">
      <acc value="0.0218447407" flag="0"/>
      <vel value="0.0071061660" flag="0"/>
      <psa03 value="0.0256528534" flag="0"/>
      <psa10 value="0.0064021766" flag="0"/>
      <psa30 value="0.0012804220" flag="0"/>
    </comp>
    <comp name="--.HHN">
      <acc value="0.0304625306" flag="0"/>
      <vel value="0.0071171325" flag="0"/>
      <psa03 value="0.0318318411" flag="0"/>
      <psa10 value="0.0088011243" flag="0"/>
      <psa30 value="0.0005527784" flag="0"/>
    </comp>
  </station>
  <station code="LOUT" name="LOUT" netid="HA" insttype="30" lat="37.9879" lon="22.9743">
    <comp name="--.HHN">
      <acc value="0.0285177695" flag="0"/>
      <vel value="0.0222516644" flag="0"/>
      <psa03 value="0.0696973573" flag="0"/>
      <psa10 value="0.0263538519" flag="0"/>
      <psa30 value="0.0019963114" flag="0"/>
    </comp>
    <comp name="--.HHE">
      <acc value="0.0233765118" flag="0"/>
      <vel value="0.0199915765" flag="0"/>
      <psa03 value="0.0459518323" flag="0"/>
      <psa10 value="0.0196047014" flag="0"/>
      <psa30 value="0.0013246649" flag="0"/>
    </comp>
    <comp name="--.HHZ">
      <acc value="0.0480833226" flag="0"/>
      <vel value="0.0150517290" flag="0"/>
      <psa03 value="0.0895721390" flag="0"/>
      <psa10 value="0.0093016266" flag="0"/>
      <psa30 value="0.0007981794" flag="0"/>
    </comp>
  </station>
  <station code="LTRS" name="LTRS" netid="HA" insttype="DC" lat="37.9753" lon="22.9765">
    <comp name="--.HNN">
      <acc value="0.0396816779" flag="0"/>
      <vel value="0.0358643181" flag="0"/>
      <psa03 value="0.1152416329" flag="0"/>
      <psa10 value="0.0324833350" flag="0"/>
      <psa30 value="0.0028181916" flag="0"/>
    </comp>
    <comp name="--.HNZ">
      <acc value="0.0310072098" flag="0"/>
      <vel value="0.0143184436" flag="0"/>
      <psa03 value="0.0972510156" flag="0"/>
      <psa10 value="0.0201649671" flag="0"/>
      <psa30 value="0.0018123396" flag="0"/>
    </comp>
    <comp name="--.HNE">
      <acc value="0.0270743684" flag="0"/>
      <vel value="0.0267285654" flag="0"/>
      <psa03 value="0.0999702851" flag="0"/>
      <psa10 value="0.0430751746" flag="0"/>
      <psa30 value="0.0026970566" flag="0"/>
    </comp>
  </station>
  <station code="MDRA" name="MDRA" netid="HA" insttype="60" lat="38.0606" lon="23.4662">
    <comp name="--.HHZ">
      <acc value="0.0064566199" flag="0"/>
      <vel value="0.0027336766" flag="0"/>
      <psa03 value="0.0160296587" flag="0"/>
      <psa10 value="0.0010889180" flag="0"/>
      <psa30 value="0.0001134017" flag="0"/>
    </comp>
    <comp name="--.HHN">
      <acc value="0.0041919154" flag="0"/>
      <vel value="0.0042217319" flag="0"/>
      <psa03 value="0.0109561147" flag="0"/>
      <psa10 value="0.0067769622" flag="0"/>
      <psa30 value="0.0003570878" flag="0"/>
    </comp>
    <comp name="--.HHE">
      <acc value="0.0034867230" flag="0"/>
      <vel value="0.0044780468" flag="0"/>
      <psa03 value="0.0072114838" flag="0"/>
      <psa10 value="0.0036224879" flag="0"/>
      <psa30 value="0.0006652439" flag="0"/>
    </comp>
  </station>
  <station code="MRTH" name="MRTH" netid="HA" insttype="S100," lat="38.1225" lon="23.9409">
    <comp name="--.HHZ">
      <acc value="0.0181137772" flag="0"/>
      <vel value="0.0099719314" flag="0"/>
      <psa03 value="0.0561953177" flag="0"/>
      <psa10 value="0.0048847943" flag="0"/>
      <psa30 value="0.0004409401" flag="0"/>
    </comp>
    <comp name="--.HHE">
      <acc value="0.0176673052" flag="0"/>
      <vel value="0.0149042911" flag="0"/>
      <psa03 value="0.0393989626" flag="0"/>
      <psa10 value="0.0157331134" flag="0"/>
      <psa30 value="0.0014281008" flag="0"/>
    </comp>
    <comp name="--.HHN">
      <acc value="0.0141285164" flag="0"/>
      <vel value="0.0177577401" flag="0"/>
      <psa03 value="0.0507281402" flag="0"/>
      <psa10 value="0.0368930122" flag="0"/>
      <psa30 value="0.0020644350" flag="0"/>
    </comp>
  </station>
  <station code="PSAH" name="PSAH" netid="HA" insttype="25" lat="38.5694" lon="23.6473">
    <comp name="--.HHN">
      <acc value="0.0007697319" flag="0"/>
      <vel value="0.0011941097" flag="0"/>
      <psa03 value="0.0011158132" flag="0"/>
      <psa10 value="0.0014685223" flag="0"/>
      <psa30 value="0.0001564994" flag="0"/>
    </comp>
    <comp name="--.HHZ">
      <acc value="0.0008101504" flag="0"/>
      <vel value="0.0005487552" flag="0"/>
      <psa03 value="0.0018878557" flag="0"/>
      <psa10 value="0.0003270268" flag="0"/>
      <psa30 value="0.0000222964" flag="0"/>
    </comp>
    <comp name="--.HHE">
      <acc value="0.0009949182" flag="0"/>
      <vel value="0.0012229294" flag="0"/>
      <psa03 value="0.0013233576" flag="0"/>
      <psa10 value="0.0016389970" flag="0"/>
      <psa30 value="0.0002682745" flag="0"/>
    </comp>
  </station>
  <station code="SERI" name="SERI" netid="HA" insttype="30" lat="37.1609" lon="24.4853">
    <comp name="--.HHZ">
      <acc value="0.0383716697" flag="0"/>
      <vel value="0.0145576837" flag="0"/>
      <psa03 value="0.0808441871" flag="0"/>
      <psa10 value="0.0105994876" flag="0"/>
      <psa30 value="0.0010984530" flag="0"/>
    </comp>
    <comp name="--.HHN">
      <acc value="0.0233294227" flag="0"/>
      <vel value="0.0222159323" flag="0"/>
      <psa03 value="0.0551057101" flag="0"/>
      <psa10 value="0.0201398310" flag="0"/>
      <psa30 value="0.0020229483" flag="0"/>
    </comp>
    <comp name="--.HHE">
      <acc value="0.0277415738" flag="0"/>
      <vel value="0.0293172325" flag="0"/>
      <psa03 value="0.0356106462" flag="0"/>
      <psa10 value="0.0389614750" flag="0"/>
      <psa30 value="0.0031509970" flag="0"/>
    </comp>
  </station>
  <station code="STFN" name="STFN" netid="HA" insttype="1s-100Hz," lat="38.1766" lon="23.544">
    <comp name="--.HHE">
      <acc value="0.0187039448" flag="0"/>
      <vel value="0.0166224627" flag="0"/>
      <psa03 value="0.0319192981" flag="0"/>
      <psa10 value="0.0161946449" flag="0"/>
      <psa30 value="0.0012317227" flag="0"/>
    </comp>
    <comp name="--.HHN">
      <acc value="0.0201830638" flag="0"/>
      <vel value="0.0167253304" flag="0"/>
      <psa03 value="0.0327502967" flag="0"/>
      <psa10 value="0.0167845826" flag="0"/>
      <psa30 value="0.0020380284" flag="0"/>
    </comp>
    <comp name="--.HHZ">
      <acc value="0.0368301550" flag="0"/>
      <vel value="0.0106244978" flag="0"/>
      <psa03 value="0.0337617656" flag="0"/>
      <psa10 value="0.0132261766" flag="0"/>
      <psa30 value="0.0007273174" flag="0"/>
    </comp>
  </station>
  <station code="THAL" name="THAL" netid="HA" insttype="30" lat="38.0357" lon="22.6634">
    <comp name="--.HHE">
      <acc value="0.0585699051" flag="0"/>
      <vel value="0.0295138771" flag="0"/>
      <psa03 value="0.1351878527" flag="0"/>
      <psa10 value="0.0361859956" flag="0"/>
      <psa30 value="0.0015170772" flag="0"/>
    </comp>
    <comp name="--.HHN">
      <acc value="0.0597550263" flag="0"/>
      <vel value="0.0205234584" flag="0"/>
      <psa03 value="0.0952906214" flag="0"/>
      <psa10 value="0.0250658469" flag="0"/>
      <psa30 value="0.0015961828" flag="0"/>
    </comp>
    <comp name="--.HHZ">
      <acc value="0.0353048990" flag="0"/>
      <vel value="0.0119344988" flag="0"/>
      <psa03 value="0.0506326827" flag="0"/>
      <psa10 value="0.0162014446" flag="0"/>
      <psa30 value="0.0007941242" flag="0"/>
    </comp>
  </station>
  <station code="THIV" name="THIV" netid="HA" insttype="25" lat="38.299" lon="23.332">
    <comp name="--.HHN">
      <acc value="0.0043492254" flag="0"/>
      <vel value="0.0053314459" flag="0"/>
      <psa03 value="0.0077310296" flag="0"/>
      <psa10 value="0.0081504060" flag="0"/>
      <psa30 value="0.0007727345" flag="0"/>
    </comp>
    <comp name="--.HHE">
      <acc value="0.0023379298" flag="0"/>
      <vel value="0.0025576301" flag="0"/>
      <psa03 value="0.0051291980" flag="0"/>
      <psa10 value="0.0032389199" flag="0"/>
      <psa30 value="0.0005182707" flag="0"/>
    </comp>
    <comp name="--.HHZ">
      <acc value="0.0027663187" flag="0"/>
      <vel value="0.0025318798" flag="0"/>
      <psa03 value="0.0063792836" flag="0"/>
      <psa10 value="0.0025178081" flag="0"/>
      <psa30 value="0.0004232684" flag="0"/>
    </comp>
  </station>
  <station code="VILL" name="VILL" netid="HA" insttype="Horizon,120s,1200" lat="38.1642" lon="23.3122">
    <comp name="--.HHN">
      <acc value="0.0081220500" flag="0"/>
      <vel value="0.0121505345" flag="0"/>
      <psa03 value="0.0187082369" flag="0"/>
      <psa10 value="0.0187816265" flag="0"/>
      <psa30 value="0.0016319256" flag="0"/>
    </comp>
    <comp name="--.HHZ">
      <acc value="0.0047007161" flag="0"/>
      <vel value="0.0037985674" flag="0"/>
      <psa03 value="0.0108669399" flag="0"/>
      <psa10 value="0.0076107224" flag="0"/>
      <psa30 value="0.0004193966" flag="0"/>
    </comp>
    <comp name="--.HHE">
      <acc value="0.0080294628" flag="0"/>
      <vel value="0.0063459569" flag="0"/>
      <psa03 value="0.0191457738" flag="0"/>
      <psa10 value="0.0152850695" flag="0"/>
      <psa30 value="0.0010838573" flag="0"/>
    </comp>
  </station>
  <station code="KTHR" name="KTHR" netid="HC" insttype="120s" lat="36.2447" lon="22.9939">
    <comp name="--.HHN">
      <acc value="0.2888425674" flag="0"/>
      <vel value="0.1447157952" flag="0"/>
      <psa03 value="0.7812856686" flag="0"/>
      <psa10 value="0.0365520970" flag="0"/>
      <psa30 value="0.0034715233" flag="0"/>
    </comp>
    <comp name="--.HHZ">
      <acc value="0.1246196660" flag="0"/>
      <vel value="0.0420361677" flag="0"/>
      <psa03 value="0.1924910491" flag="0"/>
      <psa10 value="0.0145750154" flag="0"/>
      <psa30 value="0.0011047777" flag="0"/>
    </comp>
    <comp name="--.HHE">
      <acc value="0.2566732120" flag="0"/>
      <vel value="0.0994314015" flag="0"/>
      <psa03 value="0.6595287810" flag="0"/>
      <psa10 value="0.0531177489" flag="0"/>
      <psa30 value="0.0030810643" flag="0"/>
    </comp>
  </station>
  <station code="THNO" name="THNO" netid="HC" insttype="60" lat="37.6541" lon="25.0221">
    <comp name="--.HHE">
      <acc value="0.0234961200" flag="0"/>
      <vel value="0.0101793636" flag="0"/>
      <psa03 value="0.0724912699" flag="0"/>
      <psa10 value="0.0049811533" flag="0"/>
      <psa30 value="0.0004264887" flag="0"/>
    </comp>
    <comp name="--.HHZ">
      <acc value="0.0495237399" flag="0"/>
      <vel value="0.0233207805" flag="0"/>
      <psa03 value="0.1186884039" flag="0"/>
      <psa10 value="0.0110062448" flag="0"/>
      <psa30 value="0.0012457697" flag="0"/>
    </comp>
    <comp name="--.HHN">
      <acc value="0.0263004521" flag="0"/>
      <vel value="0.0109211455" flag="0"/>
      <psa03 value="0.0702567534" flag="0"/>
      <psa10 value="0.0053063658" flag="0"/>
      <psa30 value="0.0005856498" flag="0"/>
    </comp>
  </station>
  <station code="NAX1" name="NAX1" netid="HI" insttype="CMG-5TD,ACCELEROMETER,GURALP" lat="37.1014" lon="25.3741">
    <comp name="--.HNE">
      <acc value="0.0092995004" flag="0"/>
      <vel value="0.0058353077" flag="0"/>
      <psa03 value="0.0253948273" flag="0"/>
      <psa10 value="0.0032900895" flag="0"/>
      <psa30 value="0.0004429287" flag="0"/>
    </comp>
    <comp name="--.HNN">
      <acc value="0.0054730418" flag="0"/>
      <vel value="0.0052039049" flag="0"/>
      <psa03 value="0.0132652071" flag="0"/>
      <psa10 value="0.0052488348" flag="0"/>
      <psa30 value="0.0003824249" flag="0"/>
    </comp>
    <comp name="--.HNZ">
      <acc value="0.0189817303" flag="0"/>
      <vel value="0.0107875154" flag="0"/>
      <psa03 value="0.0446055347" flag="0"/>
      <psa10 value="0.0070185629" flag="0"/>
      <psa30 value="0.0007687010" flag="0"/>
    </comp>
  </station>
  <station code="NPS1" name="NPS1" netid="HI" insttype="CMG-5TD,ACCELEROMETER,GURALP" lat="36.5126" lon="23.0625">
    <comp name="--.HNE">
      <acc value="0.0697460152" flag="0"/>
      <vel value="0.0345041589" flag="0"/>
      <psa03 value="0.2241233851" flag="0"/>
      <psa10 value="0.0232067922" flag="0"/>
      <psa30 value="0.0019573733" flag="0"/>
    </comp>
    <comp name="--.HNN">
      <acc value="0.0739530226" flag="0"/>
      <vel value="0.0392786811" flag="0"/>
      <psa03 value="0.2268348161" flag="0"/>
      <psa10 value="0.0247449623" flag="0"/>
      <psa30 value="0.0017030824" flag="0"/>
    </comp>
    <comp name="--.HNZ">
      <acc value="0.0784886991" flag="0"/>
      <vel value="0.0246123682" flag="0"/>
      <psa03 value="0.2098714386" flag="0"/>
      <psa10 value="0.0144453898" flag="0"/>
      <psa30 value="0.0010069551" flag="0"/>
    </comp>
  </station>
  <station code="ATH" name="ATH" netid="HL" insttype="DR24" lat="37.9738" lon="23.7177">
    <comp name="--.HHE">
      <acc value="0.0112037546" flag="0"/>
      <vel value="0.0155919091" flag="0"/>
      <psa03 value="0.0427253085" flag="0"/>
      <psa10 value="0.0130098212" flag="0"/>
      <psa30 value="0.0031800045" flag="0"/>
    </comp>
    <comp name="--.HHN">
      <acc value="0.0132829768" flag="0"/>
