<?xml version="1.0" encoding="UTF-8" standalone="yes"?>
<!DOCTYPE earthquake SYSTEM "stationlist.dtd">
<stationlist created="" xmlns="ch.ethz.sed.shakemap.usgs.xml">
  <station code="KTHA" name="KTHA" netid="GE" insttype="STS-2/N" lat="36.2566" lon="23.0621">
    <comp name="--.HHE">
      <acc value="0.1177961096" flag="0"/>
      <vel value="0.0681633133" flag="0"/>
      <psa03 value="0.4174885085" flag="0"/>
      <psa10 value="0.0562842546" flag="0"/>
      <psa30 value="0.0032224156" flag="0"/>
    </comp>
    <comp name="--.HHN">
      <acc value="0.0805371323" flag="0"/>
      <vel value="0.0375260249" flag="0"/>
      <psa03 value="0.2406829987" flag="0"/>
      <psa10 value="0.0448859233" flag="0"/>
      <psa30 value="0.0021117381" flag="0"/>
    </comp>
    <comp name="--.HHZ">
      <acc value="0.0548010299" flag="0"/>
      <vel value="0.0236860365" flag="0"/>
      <psa03 value="0.1911926249" flag="0"/>
      <psa10 value="0.0126860850" flag="0"/>
      <psa30 value="0.0009441500" flag="0"/>
    </comp>
  </station>
</stationlist>
