<?xml version="1.0" encoding="UTF-8" standalone="yes"?>
<!DOCTYPE earthquake SYSTEM "stationlist.dtd">
<stationlist created="" xmlns="ch.ethz.sed.shakemap.usgs.xml">
  <station code="ARR" name="ARR" netid="RO" insttype="w/attenuator" lat="45.3657" lon="24.6332">
    <comp name="--.HHE">
      <acc value="0.0064759299" flag="0"/>
      <vel value="0.0018361081" flag="0"/>
      <psa03 value="0.0128918384" flag="0"/>
      <psa10 value="0.0016037962" flag="0"/>
      <psa30 value="0.0000871965" flag="0"/>
    </comp>
    <comp name="--.HHZ">
      <acc value="0.0060250463" flag="0"/>
      <vel value="0.0018280688" flag="0"/>
      <psa03 value="0.0084030849" flag="0"/>
      <psa10 value="0.0008957009" flag="0"/>
      <psa30 value="0.0000664848" flag="0"/>
    </comp>
    <comp name="--.HHN">
      <acc value="0.0067868414" flag="0"/>
      <vel value="0.0027149435" flag="0"/>
      <psa03 value="0.0166155276" flag="0"/>
      <psa10 value="0.0024180853" flag="0"/>
      <psa30 value="0.0001277785" flag="0"/>
    </comp>
  </station>
  <station code="CRAR" name="CRAR" netid="RO" insttype="MBB2/Quanterra" lat="44.325" lon="23.7999">
    <comp name="--.HHE">
      <acc value="0.0530723947" flag="0"/>
      <vel value="0.0149452026" flag="0"/>
      <psa03 value="0.1032209690" flag="0"/>
      <psa10 value="0.0056506038" flag="0"/>
      <psa30 value="0.0005164002" flag="0"/>
    </comp>
  </station>
  <station code="CRBR" name="CRBR" netid="RO" insttype="200" lat="45.4108" lon="22.2383">
    <comp name="--.HNZ">
      <acc value="0.0513202961" flag="0"/>
      <vel value="0.0110332740" flag="0"/>
      <psa03 value="0.0279138112" flag="0"/>
      <psa10 value="0.0058039730" flag="0"/>
      <psa30 value="0.0002651608" flag="0"/>
    </comp>
    <comp name="--.HNN">
      <acc value="0.0962142572" flag="0"/>
      <vel value="0.0176951229" flag="0"/>
      <psa03 value="0.0923229722" flag="0"/>
      <psa10 value="0.0098712588" flag="0"/>
      <psa30 value="0.0006990286" flag="0"/>
    </comp>
    <comp name="--.HNE">
      <acc value="0.0920517403" flag="0"/>
      <vel value="0.0179822789" flag="0"/>
      <psa03 value="0.0716360903" flag="0"/>
      <psa10 value="0.0088524286" flag="0"/>
      <psa30 value="0.0009039837" flag="0"/>
    </comp>
  </station>
  <station code="DEV" name="DEV" netid="RO" insttype="CMG40T.1to100/Quanterra" lat="45.887" lon="22.898">
    <comp name="--.HHE">
      <acc value="0.1887300006" flag="0"/>
      <vel value="0.0432190265" flag="0"/>
      <psa03 value="0.2077009513" flag="0"/>
      <psa10 value="0.0095315524" flag="0"/>
      <psa30 value="0.0006042469" flag="0"/>
    </comp>
    <comp name="--.HHN">
      <acc value="0.1808995840" flag="0"/>
      <vel value="0.0422502179" flag="0"/>
      <psa03 value="0.2602303670" flag="0"/>
      <psa10 value="0.0087626078" flag="0"/>
      <psa30 value="0.0007799583" flag="0"/>
    </comp>
    <comp name="--.HHZ">
      <acc value="0.1783218952" flag="0"/>
      <vel value="0.0411831944" flag="0"/>
      <psa03 value="0.1043065501" flag="0"/>
      <psa10 value="0.0083174875" flag="0"/>
      <psa30 value="0.0005807390" flag="0"/>
    </comp>
  </station>
  <station code="GZR" name="GZR" netid="RO" insttype="330" lat="45.3933" lon="22.7767">
    <comp name="--.HHE">
      <acc value="0.8904681774" flag="0"/>
      <vel value="0.1948837674" flag="0"/>
      <psa03 value="1.0511110690" flag="0"/>
      <psa10 value="0.0305419382" flag="0"/>
      <psa30 value="0.0028910188" flag="0"/>
    </comp>
    <comp name="--.HHN">
      <acc value="0.9234419427" flag="0"/>
      <vel value="0.2512589817" flag="0"/>
      <psa03 value="0.7995711563" flag="0"/>
      <psa10 value="0.0351029228" flag="0"/>
      <psa30 value="0.0032286024" flag="0"/>
    </comp>
    <comp name="--.HHZ">
      <acc value="0.5068613029" flag="0"/>
      <vel value="0.0880784947" flag="0"/>
      <psa03 value="0.4219311656" flag="0"/>
      <psa10 value="0.0194529751" flag="0"/>
      <psa30 value="0.0015467242" flag="0"/>
    </comp>
  </station>
  <station code="HERR" name="HERR" netid="RO" insttype="CMG40T.1to100/Quanterra" lat="44.881" lon="22.416">
    <comp name="--.HHE">
      <acc value="0.1897605628" flag="0"/>
      <vel value="0.0478343160" flag="0"/>
      <psa03 value="0.1171325590" flag="0"/>
      <psa10 value="0.0046696383" flag="0"/>
      <psa30 value="0.0005665460" flag="0"/>
    </comp>
    <comp name="--.HHN">
      <acc value="0.3203641153" flag="0"/>
      <vel value="0.0546370992" flag="0"/>
      <psa03 value="0.1345610037" flag="0"/>
      <psa10 value="0.0053581491" flag="0"/>
      <psa30 value="0.0007232964" flag="0"/>
    </comp>
    <comp name="--.HHZ">
      <acc value="0.0950284282" flag="0"/>
      <vel value="0.0127544321" flag="0"/>
      <psa03 value="0.0223411060" flag="0"/>
      <psa10 value="0.0025844703" flag="0"/>
      <psa30 value="0.0001900956" flag="0"/>
    </comp>
  </station>
  <station code="LOT" name="LOT" netid="RO" insttype="330" lat="45.446" lon="23.7698">
    <comp name="--.HHE">
      <acc value="0.2397921948" flag="0"/>
      <vel value="0.0453034590" flag="0"/>
      <psa03 value="0.3291735059" flag="0"/>
      <psa10 value="0.0122747542" flag="0"/>
      <psa30 value="0.0009698489" flag="0"/>
    </comp>
    <comp name="--.HHZ">
      <acc value="0.1387417757" flag="0"/>
      <vel value="0.0212149767" flag="0"/>
      <psa03 value="0.1121171351" flag="0"/>
      <psa10 value="0.0050673296" flag="0"/>
      <psa30 value="0.0003527758" flag="0"/>
    </comp>
    <comp name="--.HHN">
      <acc value="0.1922103120" flag="0"/>
      <vel value="0.0374536326" flag="0"/>
      <psa03 value="0.2381885733" flag="0"/>
      <psa10 value="0.0111036733" flag="0"/>
      <psa30 value="0.0008796396" flag="0"/>
    </comp>
  </station>
  <station code="MDVR" name="MDVR" netid="RO" insttype="CMG40T.1to100/Quanterra" lat="44.7815" lon="21.7128">
    <comp name="--.HHE">
      <acc value="0.0307257988" flag="0"/>
      <vel value="0.0075037491" flag="0"/>
      <psa03 value="0.0491507198" flag="0"/>
      <psa10 value="0.0036132145" flag="0"/>
      <psa30 value="0.0002135245" flag="0"/>
    </comp>
    <comp name="--.HHZ">
      <acc value="0.0242902852" flag="0"/>
      <vel value="0.0071521348" flag="0"/>
      <psa03 value="0.0327654176" flag="0"/>
      <psa10 value="0.0016037783" flag="0"/>
      <psa30 value="0.0002220047" flag="0"/>
    </comp>
    <comp name="--.HHN">
      <acc value="0.0517954728" flag="0"/>
      <vel value="0.0099747913" flag="0"/>
      <psa03 value="0.0460766302" flag="0"/>
      <psa10 value="0.0059096267" flag="0"/>
      <psa30 value="0.0002588424" flag="0"/>
    </comp>
  </station>
  <station code="MHISU" name="MHISU" netid="RO" insttype="200" lat="44.6227" lon="22.6535">
    <comp name="--.HNE">
      <acc value="0.0771456779" flag="0"/>
      <vel value="0.0263903619" flag="0"/>
      <psa03 value="0.1312478621" flag="0"/>
      <psa10 value="0.0145454804" flag="0"/>
      <psa30 value="0.0013616368" flag="0"/>
    </comp>
    <comp name="--.HNN">
      <acc value="0.0810209663" flag="0"/>
      <vel value="0.0340935558" flag="0"/>
      <psa03 value="0.1981949224" flag="0"/>
      <psa10 value="0.0123000254" flag="0"/>
      <psa30 value="0.0011181506" flag="0"/>
    </comp>
    <comp name="--.HNZ">
      <acc value="0.0443551471" flag="0"/>
      <vel value="0.0148974387" flag="0"/>
      <psa03 value="0.0853176091" flag="0"/>
      <psa10 value="0.0074352733" flag="0"/>
      <psa30 value="0.0003822318" flag="0"/>
    </comp>
  </station>
  <station code="RMGR" name="RMGR" netid="RO" insttype="MBB2/Quanterra" lat="44.6627" lon="22.6922">
    <comp name="--.HHE">
      <acc value="0.1050774135" flag="0"/>
      <vel value="0.0416599635" flag="0"/>
      <psa03 value="0.1493924508" flag="0"/>
      <psa10 value="0.0163284686" flag="0"/>
      <psa30 value="0.0011428632" flag="0"/>
    </comp>
    <comp name="--.HHN">
      <acc value="0.1141618872" flag="0"/>
      <vel value="0.0367344356" flag="0"/>
      <psa03 value="0.2312519543" flag="0"/>
      <psa10 value="0.0191677332" flag="0"/>
      <psa30 value="0.0011908663" flag="0"/>
    </comp>
    <comp name="--.HHZ">
      <acc value="0.1476738571" flag="0"/>
      <vel value="0.0228941332" flag="0"/>
      <psa03 value="0.0759386114" flag="0"/>
      <psa10 value="0.0123034151" flag="0"/>
      <psa30 value="0.0007953369" flag="0"/>
    </comp>
  </station>
  <station code="SRE" name="SRE" netid="RO" insttype="Seismometer/Quanterra" lat="44.6609" lon="23.2038">
    <comp name="--.HHZ">
      <acc value="0.1150286813" flag="0"/>
      <vel value="0.0373696243" flag="0"/>
      <psa03 value="0.1749274657" flag="0"/>
      <psa10 value="0.0118521697" flag="0"/>
      <psa30 value="0.0009378653" flag="0"/>
    </comp>
    <comp name="--.HHN">
      <acc value="0.2336414126" flag="0"/>
      <vel value="0.0547577906" flag="0"/>
      <psa03 value="0.2424664909" flag="0"/>
      <psa10 value="0.0348151697" flag="0"/>
      <psa30 value="0.0016468718" flag="0"/>
    </comp>
    <comp name="--.HHE">
      <acc value="0.3797369534" flag="0"/>
      <vel value="0.1164192291" flag="0"/>
      <psa03 value="0.6798304399" flag="0"/>
      <psa10 value="0.0353246587" flag="0"/>
      <psa30 value="0.0031955332" flag="0"/>
    </comp>
  </station>
  <station code="SURR" name="SURR" netid="RO" insttype="Linear" lat="45.754" lon="22.1246">
    <comp name="--.HHE">
      <acc value="0.2160328050" flag="0"/>
      <vel value="0.0225132257" flag="0"/>
      <psa03 value="0.0447382636" flag="0"/>
      <psa10 value="0.0033277423" flag="0"/>
      <psa30 value="0.0004130386" flag="0"/>
    </comp>
    <comp name="--.HHN">
      <acc value="0.2533597943" flag="0"/>
      <vel value="0.0274444434" flag="0"/>
      <psa03 value="0.0546972140" flag="0"/>
      <psa10 value="0.0055041938" flag="0"/>
      <psa30 value="0.0003612871" flag="0"/>
    </comp>
    <comp name="--.HHZ">
      <acc value="0.0868790535" flag="0"/>
      <vel value="0.0168610723" flag="0"/>
      <psa03 value="0.0437488908" flag="0"/>
      <psa10 value="0.0021115277" flag="0"/>
      <psa30 value="0.0002294140" flag="0"/>
    </comp>
  </station>
</stationlist>
