<?xml version="1.0" encoding="UTF-8" standalone="yes"?>
<!DOCTYPE earthquake SYSTEM "stationlist.dtd">
<stationlist created="" xmlns="ch.ethz.sed.shakemap.usgs.xml">
  <station code="ZKR" name="ZKR" netid="GE" source="GFZ" insttype="STS-2/N" lat="35.1147" lon="26.2169">
    <comp name="--.HHE">
      <acc value="0.0200287120" flag="0"/>
      <vel value="0.0071085112" flag="0"/>
      <psa03 value="0.0235984705" flag="0"/>
      <psa10 value="0.0034555567" flag="0"/>
      <psa30 value="0.0003278616" flag="0"/>
    </comp>
    <comp name="--.HHN">
      <acc value="0.0098747027" flag="0"/>
      <vel value="0.0025890280" flag="0"/>
      <psa03 value="0.0121867887" flag="0"/>
      <psa10 value="0.0014386040" flag="0"/>
      <psa30 value="0.0001478711" flag="0"/>
    </comp>
    <comp name="--.HHZ">
      <acc value="0.0196819205" flag="0"/>
      <vel value="0.0034794859" flag="0"/>
      <psa03 value="0.0182529889" flag="0"/>
      <psa10 value="0.0015062690" flag="0"/>
      <psa30 value="0.0001734534" flag="0"/>
    </comp>
  </station>
  <station code="FRMA" name="FRMA" netid="HC" source="NOA" insttype="60" lat="35.0187" lon="25.8555">
    <comp name="--.HHE">
      <acc value="0.0277072337" flag="0"/>
      <vel value="0.0082989153" flag="0"/>
      <psa03 value="0.0362720305" flag="0"/>
      <psa10 value="0.0090590644" flag="0"/>
      <psa30 value="0.0003867335" flag="0"/>
    </comp>
    <comp name="--.HHN">
      <acc value="0.0408324439" flag="0"/>
      <vel value="0.0090321798" flag="0"/>
      <psa03 value="0.0313189869" flag="0"/>
      <psa10 value="0.0029162647" flag="0"/>
      <psa30 value="0.0002168537" flag="0"/>
    </comp>
    <comp name="--.HHZ">
      <acc value="0.0257768591" flag="0"/>
      <vel value="0.0057617092" flag="0"/>
      <psa03 value="0.0266294563" flag="0"/>
      <psa10 value="0.0019324481" flag="0"/>
      <psa30 value="0.0001123113" flag="0"/>
    </comp>
  </station>
  <station code="KSTL" name="KSTL" netid="HC" source="NOA" insttype="1s-100Hz," lat="35.2092" lon="25.3374">
    <comp name="--.HHE">
      <acc value="0.0211413693" flag="0"/>
      <vel value="0.0098170527" flag="0"/>
      <psa03 value="0.0617780397" flag="0"/>
      <psa10 value="0.0038815023" flag="0"/>
      <psa30 value="0.0002942266" flag="0"/>
    </comp>
    <comp name="--.HHN">
      <acc value="0.0242275756" flag="0"/>
      <vel value="0.0088030715" flag="0"/>
      <psa03 value="0.0350169456" flag="0"/>
      <psa10 value="0.0111686189" flag="0"/>
      <psa30 value="0.0005147992" flag="0"/>
    </comp>
    <comp name="--.HHZ">
      <acc value="0.0183899873" flag="0"/>
      <vel value="0.0051419271" flag="0"/>
      <psa03 value="0.0228048029" flag="0"/>
      <psa10 value="0.0039034271" flag="0"/>
      <psa30 value="0.0002185107" flag="0"/>
    </comp>
  </station>
  <station code="STIA" name="STIA" netid="HC" source="NOA" insttype="120" lat="35.2021" lon="26.0909">
    <comp name="--.HHE">
      <acc value="0.0443012403" flag="0"/>
      <vel value="0.0090539260" flag="0"/>
      <psa03 value="0.0398640156" flag="0"/>
      <psa10 value="0.0056629393" flag="0"/>
      <psa30 value="0.0003966487" flag="0"/>
    </comp>
    <comp name="--.HHN">
      <acc value="0.0391097977" flag="0"/>
      <vel value="0.0097800480" flag="0"/>
      <psa03 value="0.0512461094" flag="0"/>
      <psa10 value="0.0041557080" flag="0"/>
      <psa30 value="0.0002362494" flag="0"/>
    </comp>
    <comp name="--.HHZ">
      <acc value="0.0432898551" flag="0"/>
      <vel value="0.0074040968" flag="0"/>
      <psa03 value="0.0285316802" flag="0"/>
      <psa10 value="0.0022848130" flag="0"/>
      <psa30 value="0.0002028962" flag="0"/>
    </comp>
  </station>
  <station code="LAST" name="LAST" netid="HL" source="NOA" insttype="30" lat="35.1615" lon="25.4782">
    <comp name="--.HHE">
      <acc value="0.0142949600" flag="0"/>
      <vel value="0.0054494256" flag="0"/>
      <psa03 value="0.0171560309" flag="0"/>
      <psa10 value="0.0036495782" flag="0"/>
      <psa30 value="0.0002619860" flag="0"/>
    </comp>
    <comp name="--.HHN">
      <acc value="0.0211295360" flag="0"/>
      <vel value="0.0045184665" flag="0"/>
      <psa03 value="0.0214680364" flag="0"/>
      <psa10 value="0.0023481940" flag="0"/>
      <psa30 value="0.0002186028" flag="0"/>
    </comp>
    <comp name="--.HHZ">
      <acc value="0.0102306303" flag="0"/>
      <vel value="0.0020487925" flag="0"/>
      <psa03 value="0.0108348605" flag="0"/>
      <psa10 value="0.0025964639" flag="0"/>
      <psa30 value="0.0001446472" flag="0"/>
    </comp>
  </station>
  <station code="NPS" name="NPS" netid="HL" source="NOA" insttype="120" lat="35.2613" lon="25.6104">
    <comp name="--.HHE">
      <acc value="0.1156217459" flag="0"/>
      <vel value="0.0297335045" flag="0"/>
      <psa03 value="0.0743182670" flag="0"/>
      <psa10 value="0.0083385760" flag="0"/>
      <psa30 value="0.0005960767" flag="0"/>
    </comp>
    <comp name="--.HHN">
      <acc value="0.0971894365" flag="0"/>
      <vel value="0.0188797569" flag="0"/>
      <psa03 value="0.0872270059" flag="0"/>
      <psa10 value="0.0050779793" flag="0"/>
      <psa30 value="0.0003761451" flag="0"/>
    </comp>
    <comp name="--.HHZ">
      <acc value="0.0652088566" flag="0"/>
      <vel value="0.0121371941" flag="0"/>
      <psa03 value="0.0366438361" flag="0"/>
      <psa10 value="0.0032251242" flag="0"/>
      <psa30 value="0.0002660983" flag="0"/>
    </comp>
  </station>
  <station code="ZKR" name="ZKR" netid="HL" source="NOA" insttype="GMG5TD" lat="35.1147" lon="26.2169">
    <comp name="00.HNE">
      <acc value="0.0198161124" flag="0"/>
      <vel value="0.0068407462" flag="0"/>
      <psa03 value="0.0243852270" flag="0"/>
      <psa10 value="0.0034453927" flag="0"/>
      <psa30 value="0.0003285546" flag="0"/>
    </comp>
    <comp name="00.HNN">
      <acc value="0.0189761265" flag="0"/>
      <vel value="0.0049212595" flag="0"/>
      <psa03 value="0.0239107516" flag="0"/>
      <psa10 value="0.0030212565" flag="0"/>
      <psa30 value="0.0003048000" flag="0"/>
    </comp>
    <comp name="00.HNZ">
      <acc value="0.0202894160" flag="0"/>
      <vel value="0.0033971645" flag="0"/>
      <psa03 value="0.0174458103" flag="0"/>
      <psa10 value="0.0014296505" flag="0"/>
      <psa30 value="0.0001743968" flag="0"/>
    </comp>
  </station>
</stationlist>
