<stationlist xmlns:esm="https://esm-db.eu/esmws/shakemap/1/" created="1780970065">
	<station code="AGN1" name="AGN1" netid="HI" source="ITSAK Strong Motion Network" insttype="" lat="35.1879" lon="25.7155" esm:processing="automatic (Paolucci et al 2011)" esm:quality="best">
		<comp name="--.HNE" depth="0.0">
			<acc value="0.0477733809793236" flag="0"/>
			<vel value="0.0179766184574343" flag="0"/>
			<psa03 value="0.101795055922871" flag="0"/>
			<psa10 value="0.00705054675162" flag="0"/>
			<psa30 value="0.000530433680294752" flag="0"/>
		</comp>
		<comp name="--.HNN" depth="0.0">
			<acc value="0.0472519395037782" flag="0"/>
			<vel value="0.0103105881440579" flag="0"/>
			<psa03 value="0.0771160200161936" flag="0"/>
			<psa10 value="0.00448649673964042" flag="0"/>
			<psa30 value="0.000315575071966422" flag="0"/>
		</comp>
		<comp name="--.HNZ" depth="0.0">
			<acc value="0.0310154856579814" flag="0"/>
			<vel value="0.00722971285319416" flag="0"/>
			<psa03 value="0.0383780163135646" flag="0"/>
			<psa10 value="0.00154265742785863" flag="0"/>
			<psa30 value="0.000165914037865745" flag="0"/>
		</comp>
	</station>
	<station code="HER2" name="HER2" netid="HI" source="ITSAK Strong Motion Network" insttype="" lat="35.337866" lon="25.135624" esm:processing="manual (Paolucci et al 2011)" esm:quality="good">
		<comp name="--.HNE" depth="0.0">
			<acc value="0.0854165482251248" flag="0"/>
			<vel value="0.0209570001070453" flag="0"/>
			<psa03 value="0.0965490208987965" flag="0"/>
			<psa10 value="0.0146972142433134" flag="0"/>
			<psa30 value="0.000745002529844652" flag="0"/>
		</comp>
		<comp name="--.HNN" depth="0.0">
			<acc value="0.0806741005807775" flag="0"/>
			<vel value="0.022734557401071" flag="0"/>
			<psa03 value="0.0884697669378725" flag="0"/>
			<psa10 value="0.011382149324032" flag="0"/>
			<psa30 value="0.000875565397743881" flag="0"/>
		</comp>
		<comp name="--.HNZ" depth="0.0">
			<acc value="0.0632537508868261" flag="0"/>
			<vel value="0.0192907451424477" flag="0"/>
			<psa03 value="0.0665814315264072" flag="0"/>
			<psa10 value="0.00497802773865679" flag="0"/>
			<psa30 value="0.000359232885957338" flag="0"/>
		</comp>
	</station>
	<station code="KSS1" name="KSS1" netid="HI" source="ITSAK Strong Motion Network" insttype="" lat="35.4189" lon="26.9207" esm:processing="manual (Paolucci et al 2011)" esm:quality="good">
		<comp name="--.HNE" depth="0.0">
			<acc value="0.0337596884232115" flag="0"/>
			<vel value="0.00826040569754206" flag="0"/>
			<psa03 value="0.0274633661882268" flag="0"/>
			<psa10 value="0.00203838143901648" flag="0"/>
			<psa30 value="0.000150939295862579" flag="0"/>
		</comp>
		<comp name="--.HNN" depth="0.0">
			<acc value="0.0235823056576569" flag="0"/>
			<vel value="0.00543679712522493" flag="0"/>
			<psa03 value="0.026788482938857" flag="0"/>
			<psa10 value="0.00207645560186791" flag="0"/>
			<psa30 value="0.000136391092532174" flag="0"/>
		</comp>
		<comp name="--.HNZ" depth="0.0">
			<acc value="0.0174904014524101" flag="0"/>
			<vel value="0.00272496733301157" flag="0"/>
			<psa03 value="0.015934026905249" flag="0"/>
			<psa10 value="0.00157138175257917" flag="0"/>
			<psa30 value="0.000107834845352195" flag="0"/>
		</comp>
	</station>
	<station code="SIT2" name="SIT2" netid="HI" source="ITSAK Strong Motion Network" insttype="" lat="35.2059" lon="26.107" esm:processing="manual (Paolucci et al 2011)" esm:quality="good">
		<comp name="--.HNE" depth="0.0">
			<acc value="0.0435506046417098" flag="0"/>
			<vel value="0.0157485705204506" flag="0"/>
			<psa03 value="0.0784201949530493" flag="0"/>
			<psa10 value="0.00768071177821033" flag="0"/>
			<psa30 value="0.000646162127986446" flag="0"/>
		</comp>
		<comp name="--.HNN" depth="0.0">
			<acc value="0.0608841122985917" flag="0"/>
			<vel value="0.0255289754913322" flag="0"/>
			<psa03 value="0.206871225036721" flag="0"/>
			<psa10 value="0.010829669287441" flag="0"/>
			<psa30 value="0.000600345342849288" flag="0"/>
		</comp>
		<comp name="--.HNZ" depth="0.0">
			<acc value="0.0731957421275927" flag="0"/>
			<vel value="0.0235787505168201" flag="0"/>
			<psa03 value="0.159501597448038" flag="0"/>
			<psa10 value="0.00406182188826571" flag="0"/>
			<psa30 value="0.000384570632167006" flag="0"/>
		</comp>
	</station>
</stationlist>
