<stationlist created="1738382514">
	<station code="KIAS" name="KIAS" netid="HA" source="Hellenic Seismological Network, University of Athens, Seismological Laboratory (HA)" insttype="" lat="37.9875" lon="22.7543">
		<comp name=".HNE" depth="0.0">
			<acc value="0.005022339328077" flag="0"/>
			<vel value="0.00456722861076" flag="0"/>
			<psa03 value="0.00876461576904167" flag="0"/>
			<psa10 value="0.0086586739071474" flag="0"/>
			<psa30 value="0.0012168287339315" flag="0"/>
		</comp>
		<comp name=".HNN" depth="0.0">
			<acc value="0.0050326778709948" flag="0"/>
			<vel value="0.00474468595582" flag="0"/>
			<psa03 value="0.00895864489854793" flag="0"/>
			<psa10 value="0.00731993787871473" flag="0"/>
			<psa30 value="0.0013931091616455" flag="0"/>
		</comp>
		<comp name=".HNZ" depth="0.0">
			<acc value="0.0044112158251032" flag="0"/>
			<vel value="0.00323492150407" flag="0"/>
			<psa03 value="0.00609921263666104" flag="0"/>
			<psa10 value="0.00627410656626368" flag="0"/>
			<psa30 value="0.00129026391115089" flag="0"/>
		</comp>
	</station>
	<station code="AGR3" name="AGR3" netid="HI" source="ITSAK Strong Motion Network" insttype="" lat="38.5893" lon="21.4162">
		<comp name=".HNE" depth="0.0">
			<acc value="0.012990534474444" flag="0"/>
			<vel value="0.0130856258073" flag="0"/>
			<psa03 value="0.0541225488950227" flag="0"/>
			<psa10 value="0.0232281781278134" flag="0"/>
			<psa30 value="0.00168538758615611" flag="0"/>
		</comp>
		<comp name=".HNN" depth="0.0">
			<acc value="0.012030144911238" flag="0"/>
			<vel value="0.0100124475872" flag="0"/>
			<psa03 value="0.0419951205122995" flag="0"/>
			<psa10 value="0.0129962600009233" flag="0"/>
			<psa30 value="0.00191643049578281" flag="0"/>
		</comp>
		<comp name=".HNZ" depth="0.0">
			<acc value="0.0078370042915752" flag="0"/>
			<vel value="0.00558928569525" flag="0"/>
			<psa03 value="0.0171556820526634" flag="0"/>
			<psa10 value="0.0106769741721316" flag="0"/>
			<psa30 value="0.000829121279380088" flag="0"/>
		</comp>
	</station>
	<station code="AIG2" name="AIG2" netid="HI" source="ITSAK Strong Motion Network" insttype="" lat="38.2417" lon="22.0726">
		<comp name=".HNE" depth="0.0">
			<acc value="0.0071133937961586" flag="0"/>
			<vel value="0.00671676054704" flag="0"/>
			<psa03 value="0.0122979540020152" flag="0"/>
			<psa10 value="0.00784865634119759" flag="0"/>
			<psa30 value="0.00116109920879252" flag="0"/>
		</comp>
		<comp name=".HNN" depth="0.0">
			<acc value="0.006666428478441" flag="0"/>
			<vel value="0.00423364190602" flag="0"/>
			<psa03 value="0.0102984068282754" flag="0"/>
			<psa10 value="0.00719377108326705" flag="0"/>
			<psa30 value="0.00100025876223549" flag="0"/>
		</comp>
		<comp name=".HNZ" depth="0.0">
			<acc value="0.019945777313718" flag="0"/>
			<vel value="0.00281372798779" flag="0"/>
			<psa03 value="0.0106238209634951" flag="0"/>
			<psa10 value="0.00611915567651431" flag="0"/>
			<psa30 value="0.00078801590010111" flag="0"/>
		</comp>
	</station>
	<station code="AOL1" name="AOL1" netid="HI" source="ITSAK Strong Motion Network" insttype="" lat="37.642378" lon="21.624555">
		<comp name=".HNE" depth="0.0">
			<acc value="0.070691658080658" flag="0"/>
			<vel value="0.0347763081375" flag="0"/>
			<psa03 value="0.161156905020715" flag="0"/>
			<psa10 value="0.033730158207432" flag="0"/>
			<psa30 value="0.00341776307669577" flag="0"/>
		</comp>
		<comp name=".HNN" depth="0.0">
			<acc value="0.043484598809544" flag="0"/>
			<vel value="0.02940248771" flag="0"/>
			<psa03 value="0.141277473522789" flag="0"/>
			<psa10 value="0.0233543139836763" flag="0"/>
			<psa30 value="0.00331414162895119" flag="0"/>
		</comp>
		<comp name=".HNZ" depth="0.0">
			<acc value="0.030073848665466" flag="0"/>
			<vel value="0.0128634527583" flag="0"/>
			<psa03 value="0.0595705295887791" flag="0"/>
			<psa10 value="0.0113335798565275" flag="0"/>
			<psa30 value="0.00109964076246819" flag="0"/>
		</comp>
	</station>
	<station code="ARG2" name="ARG2" netid="HI" source="ITSAK Strong Motion Network" insttype="" lat="38.1783" lon="20.4878">
		<comp name=".HNE" depth="0.0">
			<acc value="0.04693325698386" flag="0"/>
			<vel value="0.0180191132362" flag="0"/>
			<psa03 value="0.075608607657536" flag="0"/>
			<psa10 value="0.0161146937693845" flag="0"/>
			<psa30 value="0.00116140495821398" flag="0"/>
		</comp>
		<comp name=".HNN" depth="0.0">
			<acc value="0.05001694403994" flag="0"/>
			<vel value="0.025401385019" flag="0"/>
			<psa03 value="0.108567973345212" flag="0"/>
			<psa10 value="0.0190253272095486" flag="0"/>
			<psa30 value="0.00114191179188371" flag="0"/>
		</comp>
		<comp name=".HNZ" depth="0.0">
			<acc value="0.03104914547502" flag="0"/>
			<vel value="0.0109882913142" flag="0"/>
			<psa03 value="0.0666099177884576" flag="0"/>
			<psa10 value="0.0127149426150659" flag="0"/>
			<psa30 value="0.00124653716030295" flag="0"/>
		</comp>
	</station>
	<station code="ARS1" name="ARS1" netid="HI" source="ITSAK Strong Motion Network" insttype="" lat="37.6349" lon="22.7293">
		<comp name=".HNE" depth="0.0">
			<acc value="0.0058211908570368" flag="0"/>
			<vel value="0.00500521705623" flag="0"/>
			<psa03 value="0.0112917714619624" flag="0"/>
			<psa10 value="0.00679820847296003" flag="0"/>
			<psa30 value="0.000709816605199375" flag="0"/>
		</comp>
		<comp name=".HNN" depth="0.0">
			<acc value="0.0063486916568238" flag="0"/>
			<vel value="0.00392963238528" flag="0"/>
			<psa03 value="0.0234519415968649" flag="0"/>
			<psa10 value="0.00836167391988012" flag="0"/>
			<psa30 value="0.000539967749379433" flag="0"/>
		</comp>
		<comp name=".HNZ" depth="0.0">
			<acc value="0.0078776889798" flag="0"/>
			<vel value="0.00204771030729" flag="0"/>
			<psa03 value="0.0134117126788971" flag="0"/>
			<psa10 value="0.00306608358174155" flag="0"/>
			<psa30 value="0.000490393632005017" flag="0"/>
		</comp>
	</station>
	<station code="ART2" name="ART2" netid="HI" source="ITSAK Strong Motion Network" insttype="" lat="39.1474" lon="20.9937">
		<comp name=".HNE" depth="0.0">
			<acc value="0.0027300082326492" flag="0"/>
			<vel value="0.00162220767096" flag="0"/>
			<psa03 value="0.00420439994013304" flag="0"/>
			<psa10 value="0.00275309933244617" flag="0"/>
			<psa30 value="0.000685883873941124" flag="0"/>
		</comp>
		<comp name=".HNN" depth="0.0">
			<acc value="0.0023192199102714" flag="0"/>
			<vel value="0.00137563817725" flag="0"/>
			<psa03 value="0.00452630830925633" flag="0"/>
			<psa10 value="0.0016354615444245" flag="0"/>
			<psa30 value="0.000354714123069925" flag="0"/>
		</comp>
		<comp name=".HNZ" depth="0.0">
			<acc value="0.0016216262208864" flag="0"/>
			<vel value="0.00162072174201" flag="0"/>
			<psa03 value="0.00393175720440852" flag="0"/>
			<psa10 value="0.00240578530896783" flag="0"/>
			<psa30 value="0.000336468122695269" flag="0"/>
		</comp>
	</station>
	<station code="GTH2" name="GTH2" netid="HI" source="ITSAK Strong Motion Network" insttype="" lat="36.7603" lon="22.5659">
		<comp name=".HNE" depth="0.0">
			<acc value="0.0057693842801232" flag="0"/>
			<vel value="0.00391638436234" flag="0"/>
			<psa03 value="0.0106056120749625" flag="0"/>
			<psa10 value="0.00436586343576941" flag="0"/>
			<psa30 value="0.000509885548246983" flag="0"/>
		</comp>
		<comp name=".HNN" depth="0.0">
			<acc value="0.0061803780551442" flag="0"/>
			<vel value="0.00344210361537" flag="0"/>
			<psa03 value="0.0118012192728533" flag="0"/>
			<psa10 value="0.00499773810689048" flag="0"/>
			<psa30 value="0.000415821191946548" flag="0"/>
		</comp>
		<comp name=".HNZ" depth="0.0">
			<acc value="0.01068686633982" flag="0"/>
			<vel value="0.00178164759833" flag="0"/>
			<psa03 value="0.00600664400442145" flag="0"/>
			<psa10 value="0.00226788656448003" flag="0"/>
			<psa30 value="0.00023800480310842" flag="0"/>
		</comp>
	</station>
	<station code="KOR2" name="KOR2" netid="HI" source="ITSAK Strong Motion Network" insttype="" lat="37.9401" lon="22.9495">
		<comp name=".HNE" depth="0.0">
			<acc value="0.0057047461345134" flag="0"/>
			<vel value="0.00535695447595" flag="0"/>
			<psa03 value="0.0122381583741625" flag="0"/>
			<psa10 value="0.00763255202534581" flag="0"/>
			<psa30 value="0.00102047208043467" flag="0"/>
		</comp>
		<comp name=".HNN" depth="0.0">
			<acc value="0.005838202489824" flag="0"/>
			<vel value="0.00586940923358" flag="0"/>
			<psa03 value="0.0150369140905236" flag="0"/>
			<psa10 value="0.00575579035537355" flag="0"/>
			<psa30 value="0.000746390590547077" flag="0"/>
		</comp>
		<comp name=".HNZ" depth="0.0">
			<acc value="0.0096321524404974" flag="0"/>
			<vel value="0.00266632872623" flag="0"/>
			<psa03 value="0.00858781239002303" flag="0"/>
			<psa10 value="0.00422862543818141" flag="0"/>
			<psa30 value="0.000371892735026797" flag="0"/>
		</comp>
	</station>
	<station code="KYP2" name="KYP2" netid="HI" source="ITSAK Strong Motion Network" insttype="" lat="37.2497" lon="21.667">
		<comp name=".HNE" depth="0.0">
			<acc value="0.016274257542774" flag="0"/>
			<vel value="0.00638510297768" flag="0"/>
			<psa03 value="0.0554466626528352" flag="0"/>
			<psa10 value="0.0070363473734661" flag="0"/>
			<psa30 value="0.000708974518164336" flag="0"/>
		</comp>
		<comp name=".HNN" depth="0.0">
			<acc value="0.014597835385584" flag="0"/>
			<vel value="0.00784745687143" flag="0"/>
			<psa03 value="0.0313371228056037" flag="0"/>
			<psa10 value="0.00762240619698568" flag="0"/>
			<psa30 value="0.000541609889412597" flag="0"/>
		</comp>
		<comp name=".HNZ" depth="0.0">
			<acc value="0.010587860774832" flag="0"/>
			<vel value="0.00325874500672" flag="0"/>
			<psa03 value="0.0190550682943573" flag="0"/>
			<psa10 value="0.00456035741379599" flag="0"/>
			<psa30 value="0.000592994282958882" flag="0"/>
		</comp>
	</station>
	<station code="LEF2" name="LEF2" netid="HI" source="ITSAK Strong Motion Network" insttype="" lat="38.830093" lon="20.708346">
		<comp name=".HNE" depth="0.0">
			<acc value="0.016941676161252" flag="0"/>
			<vel value="0.0152893221153" flag="0"/>
			<psa03 value="0.0325292981355327" flag="0"/>
			<psa10 value="0.0233332507133393" flag="0"/>
			<psa30 value="0.00293797212623283" flag="0"/>
		</comp>
		<comp name=".HNN" depth="0.0">
			<acc value="0.021012789493158" flag="0"/>
			<vel value="0.0173199680839" flag="0"/>
			<psa03 value="0.0402705114737418" flag="0"/>
			<psa10 value="0.021991250562408" flag="0"/>
			<psa30 value="0.0020574469207606" flag="0"/>
		</comp>
		<comp name=".HNZ" depth="0.0">
			<acc value="0.010868826397896" flag="0"/>
			<vel value="0.00820780506044" flag="0"/>
			<psa03 value="0.034092513670039" flag="0"/>
			<psa10 value="0.0137760032175917" flag="0"/>
			<psa30 value="0.00121545458040077" flag="0"/>
		</comp>
	</station>
	<station code="MSL1" name="MSL1" netid="HI" source="ITSAK Strong Motion Network" insttype="" lat="38.3727" lon="21.4243">
		<comp name=".HNE" depth="0.0">
			<acc value="0.023589685604082" flag="0"/>
			<vel value="0.0278936597737" flag="0"/>
			<psa03 value="0.0547250627668388" flag="0"/>
			<psa10 value="0.0415667073402028" flag="0"/>
			<psa30 value="0.00333130297413752" flag="0"/>
		</comp>
		<comp name=".HNN" depth="0.0">
			<acc value="0.017628927823644" flag="0"/>
			<vel value="0.0180032839651" flag="0"/>
			<psa03 value="0.0488005921746644" flag="0"/>
			<psa10 value="0.0252084893137084" flag="0"/>
			<psa30 value="0.00271333578684596" flag="0"/>
		</comp>
		<comp name=".HNZ" depth="0.0">
			<acc value="0.015060867620208" flag="0"/>
			<vel value="0.00882915165112" flag="0"/>
			<psa03 value="0.0251297610775094" flag="0"/>
			<psa10 value="0.0188916308528414" flag="0"/>
			<psa30 value="0.00106400121402522" flag="0"/>
		</comp>
	</station>
	<station code="NMA1" name="NMA1" netid="HI" source="ITSAK Strong Motion Network" insttype="" lat="37.81873" lon="22.662702">
		<comp name=".HNE" depth="0.0">
			<acc value="0.0050162531806428" flag="0"/>
			<vel value="0.00428649736501" flag="0"/>
			<psa03 value="0.0103723830829949" flag="0"/>
			<psa10 value="0.00717632680269252" flag="0"/>
			<psa30 value="0.000509726318948298" flag="0"/>
		</comp>
		<comp name=".HNN" depth="0.0">
			<acc value="0.0051116408135052" flag="0"/>
			<vel value="0.00416920758946" flag="0"/>
			<psa03 value="0.0123278361898824" flag="0"/>
			<psa10 value="0.0101681920303053" flag="0"/>
			<psa30 value="0.000580666018358434" flag="0"/>
		</comp>
		<comp name=".HNZ" depth="0.0">
			<acc value="0.0094506629364918" flag="0"/>
			<vel value="0.0026780587348" flag="0"/>
			<psa03 value="0.00756659499979411" flag="0"/>
			<psa10 value="0.00491399834076743" flag="0"/>
			<psa30 value="0.000323527603990931" flag="0"/>
		</comp>
	</station>
	<station code="PAT4" name="PAT4" netid="HI" source="ITSAK Strong Motion Network" insttype="" lat="38.2338" lon="21.74795">
		<comp name=".HNE" depth="0.0">
			<acc value="0.01650699442893" flag="0"/>
			<vel value="0.0197597864469" flag="0"/>
			<psa03 value="0.0351824061825987" flag="0"/>
			<psa10 value="0.0378144900243702" flag="0"/>
			<psa30 value="0.00240221809349362" flag="0"/>
		</comp>
		<comp name=".HNN" depth="0.0">
			<acc value="0.016024472701794" flag="0"/>
			<vel value="0.0186624560441" flag="0"/>
			<psa03 value="0.0356749283930973" flag="0"/>
			<psa10 value="0.0361477446106737" flag="0"/>
			<psa30 value="0.00318371090522169" flag="0"/>
		</comp>
		<comp name=".HNZ" depth="0.0">
			<acc value="0.018448029772368" flag="0"/>
			<vel value="0.0100535855036" flag="0"/>
			<psa03 value="0.020610957822725" flag="0"/>
			<psa10 value="0.0157696446615851" flag="0"/>
			<psa30 value="0.00229424177392561" flag="0"/>
		</comp>
	</station>
	<station code="PET1" name="PET1" netid="HI" source="ITSAK Strong Motion Network" insttype="" lat="36.963862" lon="21.92538">
		<comp name=".HNE" depth="0.0">
			<acc value="0.011579200100628" flag="0"/>
			<vel value="0.00887583599196" flag="0"/>
			<psa03 value="0.0310731053157302" flag="0"/>
			<psa10 value="0.0122010751363658" flag="0"/>
			<psa30 value="0.00058019265366467" flag="0"/>
		</comp>
		<comp name=".HNN" depth="0.0">
			<acc value="0.012153912475218" flag="0"/>
			<vel value="0.00684977532197" flag="0"/>
			<psa03 value="0.0291391048018529" flag="0"/>
			<psa10 value="0.0131423396779994" flag="0"/>
			<psa30 value="0.000658944485171954" flag="0"/>
		</comp>
		<comp name=".HNZ" depth="0.0">
			<acc value="0.012028669796112" flag="0"/>
			<vel value="0.00334938237385" flag="0"/>
			<psa03 value="0.0148535699135983" flag="0"/>
			<psa10 value="0.00841920273086298" flag="0"/>
			<psa30 value="0.000570915684944045" flag="0"/>
		</comp>
	</station>
	<station code="PRE2" name="PRE2" netid="HI" source="ITSAK Strong Motion Network" insttype="" lat="38.9577" lon="20.7548">
		<comp name=".HNE" depth="0.0">
			<acc value="0.010606161363606" flag="0"/>
			<vel value="0.00770725606405" flag="0"/>
			<psa03 value="0.031275082237355" flag="0"/>
			<psa10 value="0.0171685698334791" flag="0"/>
			<psa30 value="0.00122210408339991" flag="0"/>
		</comp>
		<comp name=".HNN" depth="0.0">
			<acc value="0.008578823859183" flag="0"/>
			<vel value="0.00905575596002" flag="0"/>
			<psa03 value="0.0256017663038888" flag="0"/>
			<psa10 value="0.0192063104488066" flag="0"/>
			<psa30 value="0.00258561420091738" flag="0"/>
		</comp>
		<comp name=".HNZ" depth="0.0">
			<acc value="0.0098062838017542" flag="0"/>
			<vel value="0.00581778267264" flag="0"/>
			<psa03 value="0.0121770618789118" flag="0"/>
			<psa10 value="0.0103203030444254" flag="0"/>
			<psa30 value="0.000945565243221854" flag="0"/>
		</comp>
	</station>
	<station code="PYR2" name="PYR2" netid="HI" source="ITSAK Strong Motion Network" insttype="" lat="37.6671" lon="21.4506">
		<comp name=".HNE" depth="0.0">
			<acc value="0.080816782533168" flag="0"/>
			<vel value="0.0358489490127" flag="0"/>
			<psa03 value="0.215387893390759" flag="0"/>
			<psa10 value="0.0329727392821543" flag="0"/>
			<psa30 value="0.00295700172018448" flag="0"/>
		</comp>
		<comp name=".HNN" depth="0.0">
			<acc value="0.03925995109464" flag="0"/>
			<vel value="0.0194218264061" flag="0"/>
			<psa03 value="0.143681518195262" flag="0"/>
			<psa10 value="0.0192782383386769" flag="0"/>
			<psa30 value="0.00193552509403993" flag="0"/>
		</comp>
		<comp name=".HNZ" depth="0.0">
			<acc value="0.020807303975664" flag="0"/>
			<vel value="0.0088105675287" flag="0"/>
			<psa03 value="0.0610483358191315" flag="0"/>
			<psa10 value="0.0148396908691726" flag="0"/>
			<psa30 value="0.00129301294742978" flag="0"/>
		</comp>
	</station>
	<station code="TRP1" name="TRP1" netid="HI" source="ITSAK Strong Motion Network" insttype="" lat="37.511219" lon="22.363399">
		<comp name=".HNE" depth="0.0">
			<acc value="0.002592501384021" flag="0"/>
			<vel value="0.00235834212061" flag="0"/>
			<psa03 value="0.00512308742627736" flag="0"/>
			<psa10 value="0.00376219344560208" flag="0"/>
			<psa30 value="0.00041004023606975" flag="0"/>
		</comp>
		<comp name=".HNN" depth="0.0">
			<acc value="0.0023471082035004" flag="0"/>
			<vel value="0.00223863539103" flag="0"/>
			<psa03 value="0.0061528848119776" flag="0"/>
			<psa10 value="0.00310359380098462" flag="0"/>
			<psa30 value="0.00035478464857489" flag="0"/>
		</comp>
		<comp name=".HNZ" depth="0.0">
			<acc value="0.0021741708165342" flag="0"/>
			<vel value="0.00169326927861" flag="0"/>
			<psa03 value="0.00472346004147829" flag="0"/>
			<psa10 value="0.00351932852886744" flag="0"/>
			<psa30 value="0.000271013682493281" flag="0"/>
		</comp>
	</station>
	<station code="VAS2" name="VAS2" netid="HI" source="ITSAK Strong Motion Network" insttype="" lat="38.630558" lon="20.608081">
		<comp name=".HNE" depth="0.0">
			<acc value="0.025956954398772" flag="0"/>
			<vel value="0.0241692156083" flag="0"/>
			<psa03 value="0.0630496819405357" flag="0"/>
			<psa10 value="0.0429989497193075" flag="0"/>
			<psa30 value="0.0024404616686075" flag="0"/>
		</comp>
		<comp name=".HNN" depth="0.0">
			<acc value="0.033410406252552" flag="0"/>
			<vel value="0.026365574453" flag="0"/>
			<psa03 value="0.0657325159149677" flag="0"/>
			<psa10 value="0.0448806106202874" flag="0"/>
			<psa30 value="0.00323920916504446" flag="0"/>
		</comp>
		<comp name=".HNZ" depth="0.0">
			<acc value="0.019199168820396" flag="0"/>
			<vel value="0.0148996555192" flag="0"/>
			<psa03 value="0.0462179210855886" flag="0"/>
			<psa10 value="0.0192573325787818" flag="0"/>
			<psa30 value="0.00111075597796458" flag="0"/>
		</comp>
	</station>
	<station code="VSK1" name="VSK1" netid="HI" source="ITSAK Strong Motion Network" insttype="" lat="38.4091" lon="20.564">
		<comp name=".HNE" depth="0.0">
			<acc value="0.013509754496286" flag="0"/>
			<vel value="0.00805397417726" flag="0"/>
			<psa03 value="0.0320685592804901" flag="0"/>
			<psa10 value="0.0129339871256569" flag="0"/>
			<psa30 value="0.0012309805047506" flag="0"/>
		</comp>
		<comp name=".HNN" depth="0.0">
			<acc value="0.016471204639248" flag="0"/>
			<vel value="0.0125130217993" flag="0"/>
			<psa03 value="0.0331170532172586" flag="0"/>
			<psa10 value="0.0177490070345912" flag="0"/>
			<psa30 value="0.00109432603539716" flag="0"/>
		</comp>
		<comp name=".HNZ" depth="0.0">
			<acc value="0.0091331748522888" flag="0"/>
			<vel value="0.00455679224326" flag="0"/>
			<psa03 value="0.0137557406773814" flag="0"/>
			<psa10 value="0.00642578770815727" flag="0"/>
			<psa30 value="0.000683576273158527" flag="0"/>
		</comp>
	</station>
	<station code="ZAK2" name="ZAK2" netid="HI" source="ITSAK Strong Motion Network" insttype="" lat="37.787501" lon="20.899999">
		<comp name=".HNE" depth="0.0">
			<acc value="0.17617381383558" flag="0"/>
			<vel value="0.0957827211531" flag="0"/>
			<psa03 value="0.453072055466901" flag="0"/>
			<psa10 value="0.0658365863505588" flag="0"/>
			<psa30 value="0.00370809314297424" flag="0"/>
		</comp>
		<comp name=".HNN" depth="0.0">
			<acc value="0.20477239629642" flag="0"/>
			<vel value="0.143974039189" flag="0"/>
