<stationlist xmlns:esm="https://esm-db.eu/esmws/shakemap/1/" created="1784080643">
	<station code="AGR3" name="AGR3" netid="HI" source="ITSAK Strong Motion Network" insttype="" lat="38.5893" lon="21.4162" esm:processing="manual (Paolucci et al 2011)" esm:quality="good">
		<comp name="--.HNE" depth="0.0">
			<acc value="0.0129321391037085" flag="0"/>
			<vel value="0.0130581223704056" flag="0"/>
			<psa03 value="0.0541937827804732" flag="0"/>
			<psa10 value="0.0231642776447096" flag="0"/>
			<psa30 value="0.00137048651717243" flag="0"/>
		</comp>
		<comp name="--.HNN" depth="0.0">
			<acc value="0.0122082831532404" flag="0"/>
			<vel value="0.00935758510992867" flag="0"/>
			<psa03 value="0.0421925502577176" flag="0"/>
			<psa10 value="0.0130256938257892" flag="0"/>
			<psa30 value="0.00149829644228604" flag="0"/>
		</comp>
		<comp name="--.HNZ" depth="0.0">
			<acc value="0.00695228882602338" flag="0"/>
			<vel value="0.00544286255104319" flag="0"/>
			<psa03 value="0.0171551716021754" flag="0"/>
			<psa10 value="0.0106198869528909" flag="0"/>
			<psa30 value="0.000723116652929384" flag="0"/>
		</comp>
	</station>
	<station code="AOL1" name="AOL1" netid="HI" source="ITSAK Strong Motion Network" insttype="" lat="37.642378" lon="21.624555" esm:processing="automatic (Paolucci et al 2011)" esm:quality="best">
		<comp name="--.HNE" depth="0.0">
			<acc value="0.0708462922161492" flag="0"/>
			<vel value="0.0350071695488212" flag="0"/>
			<psa03 value="0.161156905020715" flag="0"/>
			<psa10 value="0.033730158207432" flag="0"/>
			<psa30 value="0.00341776307669577" flag="0"/>
		</comp>
		<comp name="--.HNN" depth="0.0">
			<acc value="0.0436047383830054" flag="0"/>
			<vel value="0.0293939699831959" flag="0"/>
			<psa03 value="0.141277473522789" flag="0"/>
			<psa10 value="0.0233543139836763" flag="0"/>
			<psa30 value="0.00331414162895119" flag="0"/>
		</comp>
		<comp name="--.HNZ" depth="0.0">
			<acc value="0.0300476074716253" flag="0"/>
			<vel value="0.0128314256958392" flag="0"/>
			<psa03 value="0.0595705295887791" flag="0"/>
			<psa10 value="0.0113335798565275" flag="0"/>
			<psa30 value="0.00109964076246819" flag="0"/>
		</comp>
	</station>
	<station code="ARG2" name="ARG2" netid="HI" source="ITSAK Strong Motion Network" insttype="" lat="38.1783" lon="20.4878" esm:processing="automatic (Paolucci et al 2011)" esm:quality="best">
		<comp name="--.HNE" depth="0.0">
			<acc value="0.0467307189709363" flag="0"/>
			<vel value="0.0180793940219494" flag="0"/>
			<psa03 value="0.075608607657536" flag="0"/>
			<psa10 value="0.0161146937693845" flag="0"/>
			<psa30 value="0.00116140495821398" flag="0"/>
		</comp>
		<comp name="--.HNN" depth="0.0">
			<acc value="0.050291311167763" flag="0"/>
			<vel value="0.0254295108279124" flag="0"/>
			<psa03 value="0.108567973345212" flag="0"/>
			<psa10 value="0.0190253272095486" flag="0"/>
			<psa30 value="0.00114191179188371" flag="0"/>
		</comp>
		<comp name="--.HNZ" depth="0.0">
			<acc value="0.0309778667125248" flag="0"/>
			<vel value="0.0110731381607089" flag="0"/>
			<psa03 value="0.0666099177884576" flag="0"/>
			<psa10 value="0.0127149426150659" flag="0"/>
			<psa30 value="0.00124653716030295" flag="0"/>
		</comp>
	</station>
	<station code="KYP2" name="KYP2" netid="HI" source="ITSAK Strong Motion Network" insttype="" lat="37.2497" lon="21.667" esm:processing="manual (Paolucci et al 2011)" esm:quality="good">
		<comp name="--.HNE" depth="0.0">
			<acc value="0.0156622522831594" flag="0"/>
			<vel value="0.00638235456239631" flag="0"/>
			<psa03 value="0.0555618682010848" flag="0"/>
			<psa10 value="0.00703971040876547" flag="0"/>
			<psa30 value="0.000678341238861282" flag="0"/>
		</comp>
		<comp name="--.HNN" depth="0.0">
			<acc value="0.0145980144982594" flag="0"/>
			<vel value="0.0077600120458792" flag="0"/>
			<psa03 value="0.0314093124836365" flag="0"/>
			<psa10 value="0.00762769545363901" flag="0"/>
			<psa30 value="0.000510833371453818" flag="0"/>
		</comp>
		<comp name="--.HNZ" depth="0.0">
			<acc value="0.00859808504956841" flag="0"/>
			<vel value="0.00325332247265097" flag="0"/>
			<psa03 value="0.0190953170543732" flag="0"/>
			<psa10 value="0.0045535132104027" flag="0"/>
			<psa30 value="0.000553219408487419" flag="0"/>
		</comp>
	</station>
	<station code="LEF2" name="LEF2" netid="HI" source="ITSAK Strong Motion Network" insttype="" lat="38.830093" lon="20.708346" esm:processing="manual (Paolucci et al 2011)" esm:quality="good">
		<comp name="--.HNE" depth="0.0">
			<acc value="0.016695865186922" flag="0"/>
			<vel value="0.015302327734388" flag="0"/>
			<psa03 value="0.0325686184486337" flag="0"/>
			<psa10 value="0.0233445220850192" flag="0"/>
			<psa30 value="0.00294553846080041" flag="0"/>
		</comp>
		<comp name="--.HNN" depth="0.0">
			<acc value="0.0209823915204091" flag="0"/>
			<vel value="0.0173354142140015" flag="0"/>
			<psa03 value="0.0403119881797093" flag="0"/>
			<psa10 value="0.0220017606336629" flag="0"/>
			<psa30 value="0.00206029877634918" flag="0"/>
		</comp>
		<comp name="--.HNZ" depth="0.0">
			<acc value="0.0104061929784142" flag="0"/>
			<vel value="0.00820491356316887" flag="0"/>
			<psa03 value="0.0341265732179912" flag="0"/>
			<psa10 value="0.0137808382253996" flag="0"/>
			<psa30 value="0.00121775160756759" flag="0"/>
		</comp>
	</station>
	<station code="PYR2" name="PYR2" netid="HI" source="ITSAK Strong Motion Network" insttype="" lat="37.6671" lon="21.4506" esm:processing="manual (Paolucci et al 2011)" esm:quality="good">
		<comp name="--.HNE" depth="0.0">
			<acc value="0.081258939405328" flag="0"/>
			<vel value="0.0360521529506197" flag="0"/>
			<psa03 value="0.215824651490615" flag="0"/>
			<psa10 value="0.0329693378068246" flag="0"/>
			<psa30 value="0.00277461672140735" flag="0"/>
		</comp>
		<comp name="--.HNN" depth="0.0">
			<acc value="0.0388691743244414" flag="0"/>
			<vel value="0.0194086143260404" flag="0"/>
			<psa03 value="0.144023113741123" flag="0"/>
			<psa10 value="0.0192547242809863" flag="0"/>
			<psa30 value="0.00184720820181107" flag="0"/>
		</comp>
		<comp name="--.HNZ" depth="0.0">
			<acc value="0.0204520125981559" flag="0"/>
			<vel value="0.00871734780089287" flag="0"/>
			<psa03 value="0.0611264399516538" flag="0"/>
			<psa10 value="0.0148356574769982" flag="0"/>
			<psa30 value="0.00105277015752287" flag="0"/>
		</comp>
	</station>
	<station code="VAS2" name="VAS2" netid="HI" source="ITSAK Strong Motion Network" insttype="" lat="38.630558" lon="20.608081" esm:processing="manual (Paolucci et al 2011)" esm:quality="good">
		<comp name="--.HNE" depth="0.0">
			<acc value="0.0259974270143486" flag="0"/>
			<vel value="0.0241699304424542" flag="0"/>
			<psa03 value="0.0631559389793374" flag="0"/>
			<psa10 value="0.0430211661911232" flag="0"/>
			<psa30 value="0.0024446619468562" flag="0"/>
		</comp>
		<comp name="--.HNN" depth="0.0">
			<acc value="0.0329585228593054" flag="0"/>
			<vel value="0.0263902133687242" flag="0"/>
			<psa03 value="0.0658245063838313" flag="0"/>
			<psa10 value="0.0449043721942786" flag="0"/>
			<psa30 value="0.0032443322127534" flag="0"/>
		</comp>
		<comp name="--.HNZ" depth="0.0">
			<acc value="0.018943322906957" flag="0"/>
			<vel value="0.0148666671302612" flag="0"/>
			<psa03 value="0.0462524077450181" flag="0"/>
			<psa10 value="0.0192637080011137" flag="0"/>
			<psa30 value="0.00111210460897242" flag="0"/>
		</comp>
	</station>
	<station code="VSK1" name="VSK1" netid="HI" source="ITSAK Strong Motion Network" insttype="" lat="38.4091" lon="20.564" esm:processing="automatic (Paolucci et al 2011)" esm:quality="best">
		<comp name="--.HNE" depth="0.0">
			<acc value="0.0136005661252254" flag="0"/>
			<vel value="0.00809720856325617" flag="0"/>
			<psa03 value="0.0320685592804901" flag="0"/>
			<psa10 value="0.0129339871256569" flag="0"/>
			<psa30 value="0.0012309805047506" flag="0"/>
		</comp>
		<comp name="--.HNN" depth="0.0">
			<acc value="0.01654440857045" flag="0"/>
			<vel value="0.0125087094522781" flag="0"/>
			<psa03 value="0.0331170532172586" flag="0"/>
			<psa10 value="0.0177490070345912" flag="0"/>
			<psa30 value="0.00109432603539716" flag="0"/>
		</comp>
		<comp name="--.HNZ" depth="0.0">
			<acc value="0.00908930929444975" flag="0"/>
			<vel value="0.00456146036154516" flag="0"/>
			<psa03 value="0.0137557406773814" flag="0"/>
			<psa10 value="0.00642578770815727" flag="0"/>
			<psa30 value="0.000683576273158527" flag="0"/>
		</comp>
	</station>
	<station code="ZAK2" name="ZAK2" netid="HI" source="ITSAK Strong Motion Network" insttype="" lat="37.787501" lon="20.899999" esm:processing="automatic (Paolucci et al 2011)" esm:quality="best">
		<comp name="--.HNE" depth="0.0">
			<acc value="0.176396215764956" flag="0"/>
			<vel value="0.0954171078128595" flag="0"/>
			<psa03 value="0.453072055466901" flag="0"/>
			<psa10 value="0.0658365863505588" flag="0"/>
			<psa30 value="0.00370809314297424" flag="0"/>
		</comp>
		<comp name="--.HNN" depth="0.0">
			<acc value="0.205285733751918" flag="0"/>
			<vel value="0.143040132322742" flag="0"/>
			<psa03 value="0.638178692872089" flag="0"/>
			<psa10 value="0.128047162495993" flag="0"/>
			<psa30 value="0.0074728283715274" flag="0"/>
		</comp>
		<comp name="--.HNZ" depth="0.0">
			<acc value="0.0973396479759203" flag="0"/>
			<vel value="0.0459663011473816" flag="0"/>
			<psa03 value="0.298296698192198" flag="0"/>
			<psa10 value="0.034841484327349" flag="0"/>
			<psa30 value="0.00299995894089024" flag="0"/>
		</comp>
	</station>
	<station code="DLFA" name="DLFA" netid="HL" source="National Observatory of Athens Seismic Network" insttype="" lat="38.47836" lon="22.49583" esm:processing="manual (Paolucci et al 2011)" esm:quality="bad">
		<comp name="00.HNE" depth="0.0">
			<acc value="0.00188895559870759" flag="0"/>
			<vel value="0.0016637500587051" flag="0"/>
			<psa03 value="0.00410934839604031" flag="0"/>
			<psa10 value="0.00364212010070763" flag="0"/>
			<psa30 value="0.000227998332937283" flag="0"/>
		</comp>
		<comp name="00.HNN" depth="0.0">
			<acc value="0.00201483795477273" flag="0"/>
			<vel value="0.00239373028463544" flag="0"/>
			<psa03 value="0.00629825511909909" flag="0"/>
			<psa10 value="0.00449731995662942" flag="0"/>
			<psa30 value="0.000446864133805751" flag="0"/>
		</comp>
		<comp name="00.HNZ" depth="0.0">
			<acc value="0.00160578295450056" flag="0"/>
			<vel value="0.00130854006630321" flag="0"/>
			<psa03 value="0.00408991351482333" flag="0"/>
			<psa10 value="0.00164058602452296" flag="0"/>
			<psa30 value="0.00026430180557269" flag="0"/>
		</comp>
	</station>
	<station code="LXRA" name="LXRA" netid="HL" source="National Observatory of Athens Seismic Network" insttype="" lat="38.20006" lon="20.43718" esm:processing="manual (Paolucci et al 2011)" esm:quality="best">
		<comp name="00.HNE" depth="0.0">
			<acc value="0.0624561459275889" flag="0"/>
			<vel value="0.0293936614489103" flag="0"/>
			<psa03 value="0.0972132003140576" flag="0"/>
			<psa10 value="0.0443888817955091" flag="0"/>
			<psa30 value="0.00308981676852958" flag="0"/>
		</comp>
		<comp name="00.HNN" depth="0.0">
			<acc value="0.0545683320504495" flag="0"/>
			<vel value="0.0327885185400641" flag="0"/>
			<psa03 value="0.113444931836844" flag="0"/>
			<psa10 value="0.0356018171956591" flag="0"/>
			<psa30 value="0.00371442356233186" flag="0"/>
		</comp>
		<comp name="00.HNZ" depth="0.0">
			<acc value="0.0322302753116308" flag="0"/>
			<vel value="0.0128119483235061" flag="0"/>
			<psa03 value="0.0375037370426946" flag="0"/>
			<psa10 value="0.0183709632361592" flag="0"/>
			<psa30 value="0.00125341990791956" flag="0"/>
		</comp>
	</station>
	<station code="SMHA" name="SMHA" netid="HL" source="National Observatory of Athens Seismic Network" insttype="" lat="38.25123" lon="20.6477" esm:processing="manual (Paolucci et al 2011)" esm:quality="best">
		<comp name="00.HNE" depth="0.0">
			<acc value="0.0816405967075326" flag="0"/>
			<vel value="0.038544793685694" flag="0"/>
			<psa03 value="0.21158855837005" flag="0"/>
			<psa10 value="0.0489236859542399" flag="0"/>
			<psa30 value="0.00298793397762799" flag="0"/>
		</comp>
		<comp name="00.HNN" depth="0.0">
			<acc value="0.0933355139909294" flag="0"/>
			<vel value="0.0379021254721357" flag="0"/>
			<psa03 value="0.157662225598895" flag="0"/>
			<psa10 value="0.0304874815210077" flag="0"/>
			<psa30 value="0.00200489823133488" flag="0"/>
		</comp>
		<comp name="00.HNZ" depth="0.0">
			<acc value="0.0434857790176731" flag="0"/>
			<vel value="0.0174333574002832" flag="0"/>
			<psa03 value="0.0675270775039754" flag="0"/>
			<psa10 value="0.0175820891021065" flag="0"/>
			<psa30 value="0.000932863880988963" flag="0"/>
		</comp>
	</station>
	<station code="ZARA" name="ZARA" netid="HL" source="National Observatory of Athens Seismic Network" insttype="" lat="37.4865" lon="21.6491" esm:processing="manual (Paolucci et al 2011)" esm:quality="best">
		<comp name="00.HNE" depth="0.0">
			<acc value="0.0267248498865313" flag="0"/>
			<vel value="0.0166953030629461" flag="0"/>
			<psa03 value="0.062484805978466" flag="0"/>
			<psa10 value="0.0232110938710599" flag="0"/>
			<psa30 value="0.00140197516564137" flag="0"/>
		</comp>
		<comp name="00.HNN" depth="0.0">
			<acc value="0.0337163317712745" flag="0"/>
			<vel value="0.0177369038379299" flag="0"/>
			<psa03 value="0.0787593215853317" flag="0"/>
			<psa10 value="0.0179741869516547" flag="0"/>
			<psa30 value="0.00196643318321545" flag="0"/>
		</comp>
		<comp name="00.HNZ" depth="0.0">
			<acc value="0.0180123390910939" flag="0"/>
			<vel value="0.0101714046011014" flag="0"/>
			<psa03 value="0.0337916083198671" flag="0"/>
			<psa10 value="0.0142392357794843" flag="0"/>
			<psa30 value="0.00133287725491193" flag="0"/>
		</comp>
	</station>
	<station code="AMT" name="AMT" netid="HP" source="University of Patras, Seismological Laboratory (PSLNET)" insttype="" lat="37.5324" lon="21.7089" esm:processing="manual (Paolucci et al 2011)" esm:quality="best">
		<comp name="--.HNE" depth="0.0">
			<acc value="0.0183946629948081" flag="0"/>
			<vel value="0.0130382679167296" flag="0"/>
			<psa03 value="0.0524682726407729" flag="0"/>
			<psa10 value="0.0322308013824266" flag="0"/>
			<psa30 value="0.000931960279460022" flag="0"/>
		</comp>
		<comp name="--.HNN" depth="0.0">
			<acc value="0.0188397288308185" flag="0"/>
			<vel value="0.0132406029828503" flag="0"/>
			<psa03 value="0.0517696846957894" flag="0"/>
			<psa10 value="0.0180575118465439" flag="0"/>
			<psa30 value="0.000784388732738452" flag="0"/>
		</comp>
		<comp name="--.HNZ" depth="0.0">
			<acc value="0.0146428169786081" flag="0"/>
			<vel value="0.00780352131078996" flag="0"/>
			<psa03 value="0.0339674975758287" flag="0"/>
			<psa10 value="0.00832742102577486" flag="0"/>
			<psa30 value="0.000430801845799685" flag="0"/>
		</comp>
	</station>
	<station code="DSF" name="DSF" netid="HP" source="University of Patras, Seismological Laboratory (PSLNET)" insttype="" lat="38.4112" lon="22.5271" esm:processing="manual (Paolucci et al 2011)" esm:quality="good">
		<comp name="--.HNE" depth="1.0">
			<acc value="0.0037249197205619" flag="0"/>
			<vel value="0.00156850589653182" flag="0"/>
			<psa03 value="0.00580514888553496" flag="0"/>
			<psa10 value="0.00136952392736306" flag="0"/>
			<psa30 value="0.000128797998380985" flag="0"/>
		</comp>
		<comp name="--.HNN" depth="1.0">
			<acc value="0.00619573127605887" flag="0"/>
			<vel value="0.00199478431626034" flag="0"/>
			<psa03 value="0.0158258843246527" flag="0"/>
			<psa10 value="0.00136207441043155" flag="0"/>
			<psa30 value="9.09202873455705e-05" flag="0"/>
		</comp>
		<comp name="--.HNZ" depth="1.0">
			<acc value="0.00190686250375637" flag="0"/>
			<vel value="0.000807481567130649" flag="0"/>
			<psa03 value="0.00393525125097733" flag="0"/>
			<psa10 value="0.00138781927996699" flag="0"/>
			<psa30 value="7.92297537907586e-05" flag="0"/>
		</comp>
	</station>
	<station code="EFP" name="EFP" netid="HP" source="University of Patras, Seismological Laboratory (PSLNET)" insttype="" lat="38.4269" lon="21.9058" esm:processing="manual (Paolucci et al 2011)" esm:quality="best">
		<comp name="--.HNE" depth="0.0">
			<acc value="0.00484908282865759" flag="0"/>
			<vel value="0.00366172248847184" flag="0"/>
			<psa03 value="0.0139986955740286" flag="0"/>
			<psa10 value="0.00357922655931753" flag="0"/>
			<psa30 value="0.000201417053828894" flag="0"/>
		</comp>
		<comp name="--.HNN" depth="0.0">
			<acc value="0.00481643328370203" flag="0"/>
			<vel value="0.00324293207128771" flag="0"/>
			<psa03 value="0.0224282123214838" flag="0"/>
			<psa10 value="0.00380090304117338" flag="0"/>
			<psa30 value="0.000238428529094826" flag="0"/>
		</comp>
		<comp name="--.HNZ" depth="0.0">
			<acc value="0.00381800892075589" flag="0"/>
			<vel value="0.00189517210608422" flag="0"/>
			<psa03 value="0.0115539034102391" flag="0"/>
			<psa10 value="0.00340660238943932" flag="0"/>
			<psa30 value="0.000231036086256745" flag="0"/>
		</comp>
	</station>
	<station code="FSK" name="FSK" netid="HP" source="University of Patras, Seismological Laboratory (PSLNET)" insttype="" lat="38.4593" lon="20.5623" esm:processing="manual (Paolucci et al 2011)" esm:quality="good">
		<comp name="--.HNE" depth="0.0">
			<acc value="0.0220926165289138" flag="0"/>
			<vel value="0.00923605800280252" flag="0"/>
			<psa03 value="0.0230182201566241" flag="0"/>
			<psa10 value="0.00928190238048329" flag="0"/>
			<psa30 value="0.00222514823848286" flag="0"/>
		</comp>
		<comp name="--.HNN" depth="0.0">
			<acc value="0.0100820500241054" flag="0"/>
			<vel value="0.0086954843632711" flag="0"/>
			<psa03 value="0.0139002059766861" flag="0"/>
			<psa10 value="0.014258115467666" flag="0"/>
			<psa30 value="0.000911304015249753" flag="0"/>
		</comp>
		<comp name="--.HNZ" depth="0.0">
			<acc value="0.0106432986345564" flag="0"/>
			<vel value="0.00486615026439225" flag="0"/>
			<psa03 value="0.0152511431258846" flag="0"/>
			<psa10 value="0.00787670210534609" flag="0"/>
			<psa30 value="0.000951005603621635" flag="0"/>
		</comp>
	</station>
	<station code="GUR" name="GUR" netid="HP" source="University of Patras, Seismological Laboratory (PSLNET)" insttype="" lat="37.9363" lon="22.3423" esm:processing="manual (Paolucci et al 2011)" esm:quality="best">
		<comp name="--.HNE" depth="0.0">
			<acc value="0.00526347881472421" flag="0"/>
			<vel value="0.00332558906624904" flag="0"/>
			<psa03 value="0.0172991381705138" flag="0"/>
			<psa10 value="0.00356702512603451" flag="0"/>
			<psa30 value="0.000235308608873958" flag="0"/>
		</comp>
		<comp name="--.HNN" depth="0.0">
			<acc value="0.00718518831787734" flag="0"/>
			<vel value="0.00481061529358255" flag="0"/>
			<psa03 value="0.0197663680186243" flag="0"/>
			<psa10 value="0.00511829124916641" flag="0"/>
			<psa30 value="0.000281916435996973" flag="0"/>
		</comp>
		<comp name="--.HNZ" depth="0.0">
			<acc value="0.00327305462936805" flag="0"/>
			<vel value="0.00270279947281456" flag="0"/>
			<psa03 value="0.00931231416073197" flag="0"/>
			<psa10 value="0.0035007226088178" flag="0"/>
			<psa30 value="0.000287937225469746" flag="0"/>
		</comp>
	</station>
	<station code="LTHK" name="LTHK" netid="HP" source="University of Patras, Seismological Laboratory (PSLNET)" insttype="" lat="37.7095" lon="20.8367" esm:processing="manual (Paolucci et al 2011)" esm:quality="best">
		<comp name="--.HNE" depth="0.0">
			<acc value="0.384874639367323" flag="0"/>
			<vel value="0.0814605201993105" flag="0"/>
			<psa03 value="0.179549977638315" flag="0"/>
			<psa10 value="0.0284904686037293" flag="0"/>
			<psa30 value="0.00230607255765765" flag="0"/>
		</comp>
		<comp name="--.HNN" depth="0.0">
			<acc value="0.342267814542852" flag="0"/>
			<vel value="0.074377757638414" flag="0"/>
			<psa03 value="0.276581697179853" flag="0"/>
			<psa10 value="0.0344308696261187" flag="0"/>
			<psa30 value="0.00283574431247598" flag="0"/>
		</comp>
