<?xml version="1.0" encoding="UTF-8" standalone="yes"?>
<!DOCTYPE earthquake SYSTEM "stationlist.dtd">
<stationlist created="" xmlns="ch.ethz.sed.shakemap.usgs.xml">
  <station code="ATHR" name="ATHR" netid="HA" insttype="GEOtiny," lat="38.3172" lon="20.4165">
    <comp name="--.HHE">
      <acc value="0.0099672375" flag="0"/>
      <vel value="0.0061825773" flag="0"/>
      <psa03 value="0.0203311279" flag="0"/>
      <psa10 value="0.0072228287" flag="0"/>
      <psa30 value="0.0008864277" flag="0"/>
    </comp>
    <comp name="--.HHN">
      <acc value="0.0088801563" flag="0"/>
      <vel value="0.0065655235" flag="0"/>
      <psa03 value="0.0217430656" flag="0"/>
      <psa10 value="0.0086090741" flag="0"/>
      <psa30 value="0.0008749634" flag="0"/>
    </comp>
    <comp name="--.HHZ">
      <acc value="0.0093843668" flag="0"/>
      <vel value="0.0058449027" flag="0"/>
      <psa03 value="0.0149994148" flag="0"/>
      <psa10 value="0.0103982908" flag="0"/>
      <psa30 value="0.0007418493" flag="0"/>
    </comp>
  </station>
  <station code="HAVD" name="HAVD" netid="HA" insttype="GEOtiny," lat="38.2036" lon="20.3848">
    <comp name="--.HHN">
      <acc value="0.0434864795" flag="0"/>
      <vel value="0.0226814788" flag="0"/>
      <psa03 value="0.0510845581" flag="0"/>
      <psa10 value="0.0397245062" flag="0"/>
      <psa30 value="0.0022115936" flag="0"/>
    </comp>
    <comp name="--.HHZ">
      <acc value="0.0279481264" flag="0"/>
      <vel value="0.0083708169" flag="0"/>
      <psa03 value="0.0332532308" flag="0"/>
      <psa10 value="0.0067974062" flag="0"/>
      <psa30 value="0.0008106120" flag="0"/>
    </comp>
    <comp name="--.HHE">
      <acc value="0.0369191654" flag="0"/>
      <vel value="0.0146771086" flag="0"/>
      <psa03 value="0.0485136474" flag="0"/>
      <psa10 value="0.0140270964" flag="0"/>
      <psa30 value="0.0008962730" flag="0"/>
    </comp>
  </station>
  <station code="ORTH" name="ORTH" netid="HL" insttype="30" lat="37.8511" lon="20.6963">
    <comp name="--.HHE">
      <acc value="0.1460425735" flag="0"/>
      <vel value="0.0407455761" flag="0"/>
      <psa03 value="0.2232291439" flag="0"/>
      <psa10 value="0.0136393039" flag="0"/>
      <psa30 value="0.0014624859" flag="0"/>
    </comp>
    <comp name="--.HHN">
      <acc value="0.1488223218" flag="0"/>
      <vel value="0.0510800453" flag="0"/>
      <psa03 value="0.3158825555" flag="0"/>
      <psa10 value="0.0302823104" flag="0"/>
      <psa30 value="0.0025557819" flag="0"/>
    </comp>
    <comp name="--.HHZ">
      <acc value="0.0675121440" flag="0"/>
      <vel value="0.0140805630" flag="0"/>
      <psa03 value="0.0950783911" flag="0"/>
      <psa10 value="0.0145040574" flag="0"/>
      <psa30 value="0.0007637166" flag="0"/>
    </comp>
  </station>
  <station code="RLS" name="RLS" netid="HL" insttype="CMG3ESPC-120s" lat="38.0559" lon="21.4647">
    <comp name="--.HHE">
      <acc value="0.0131853258" flag="0"/>
      <vel value="0.0096718788" flag="0"/>
      <psa03 value="0.0252594455" flag="0"/>
      <psa10 value="0.0112171394" flag="0"/>
      <psa30 value="0.0009477188" flag="0"/>
    </comp>
    <comp name="--.HHZ">
      <acc value="0.0052623248" flag="0"/>
      <vel value="0.0063955289" flag="0"/>
      <psa03 value="0.0150157938" flag="0"/>
      <psa10 value="0.0073362826" flag="0"/>
      <psa30 value="0.0008724925" flag="0"/>
    </comp>
    <comp name="--.HHN">
      <acc value="0.0099093820" flag="0"/>
      <vel value="0.0079302551" flag="0"/>
      <psa03 value="0.0365613744" flag="0"/>
      <psa10 value="0.0101429748" flag="0"/>
      <psa30 value="0.0006482776" flag="0"/>
    </comp>
  </station>
  <station code="VLS" name="VLS" netid="HL" insttype="120P," lat="38.1768" lon="20.5886">
    <comp name="--.HHE">
      <acc value="0.0715492202" flag="0"/>
      <vel value="0.0148122559" flag="0"/>
      <psa03 value="0.0718878799" flag="0"/>
      <psa10 value="0.0081537804" flag="0"/>
      <psa30 value="0.0007707004" flag="0"/>
    </comp>
    <comp name="--.HHN">
      <acc value="0.0461259838" flag="0"/>
      <vel value="0.0179281963" flag="0"/>
      <psa03 value="0.0468979586" flag="0"/>
      <psa10 value="0.0157011427" flag="0"/>
      <psa30 value="0.0007031130" flag="0"/>
    </comp>
    <comp name="--.HHZ">
      <acc value="0.0236154981" flag="0"/>
      <vel value="0.0099207681" flag="0"/>
      <psa03 value="0.0297563353" flag="0"/>
      <psa10 value="0.0083050510" flag="0"/>
      <psa30 value="0.0007361070" flag="0"/>
    </comp>
  </station>
  <station code="AMT" name="AMT" netid="HP" insttype="CMG-3T," lat="37.5324" lon="21.7089">
    <comp name="00.HHE">
      <acc value="0.0180917688" flag="0"/>
      <vel value="0.0129258858" flag="0"/>
      <psa03 value="0.0503732272" flag="0"/>
      <psa10 value="0.0321915337" flag="0"/>
      <psa30 value="0.0010432726" flag="0"/>
    </comp>
    <comp name="00.HHN">
      <acc value="0.0184180214" flag="0"/>
      <vel value="0.0130950741" flag="0"/>
      <psa03 value="0.0499459466" flag="0"/>
      <psa10 value="0.0179064387" flag="0"/>
      <psa30 value="0.0009583830" flag="0"/>
    </comp>
    <comp name="00.HHZ">
      <acc value="0.0146795983" flag="0"/>
      <vel value="0.0078984682" flag="0"/>
      <psa03 value="0.0335723896" flag="0"/>
      <psa10 value="0.0080528436" flag="0"/>
      <psa30 value="0.0007101130" flag="0"/>
    </comp>
  </station>
  <station code="AXS" name="AXS" netid="HP" insttype="Compact," lat="38.1962" lon="21.3763">
    <comp name="--.HHE">
      <acc value="0.0060619634" flag="0"/>
      <vel value="0.0051222770" flag="0"/>
      <psa03 value="0.0134895475" flag="0"/>
      <psa10 value="0.0041876161" flag="0"/>
      <psa30 value="0.0006559797" flag="0"/>
    </comp>
    <comp name="--.HHN">
      <acc value="0.0104291806" flag="0"/>
      <vel value="0.0085645359" flag="0"/>
      <psa03 value="0.0365001723" flag="0"/>
      <psa10 value="0.0086400126" flag="0"/>
      <psa30 value="0.0006065995" flag="0"/>
    </comp>
    <comp name="--.HHZ">
      <acc value="0.0048879729" flag="0"/>
      <vel value="0.0032112089" flag="0"/>
      <psa03 value="0.0107139813" flag="0"/>
      <psa10 value="0.0050968487" flag="0"/>
      <psa30 value="0.0005018237" flag="0"/>
    </comp>
  </station>
  <station code="DRO" name="DRO" netid="HP" insttype="120P," lat="37.952" lon="21.71">
    <comp name="--.HHE">
      <acc value="0.0177183638" flag="0"/>
      <vel value="0.0141619592" flag="0"/>
      <psa03 value="0.0526480919" flag="0"/>
      <psa10 value="0.0237371121" flag="0"/>
      <psa30 value="0.0018146870" flag="0"/>
    </comp>
    <comp name="--.HHN">
      <acc value="0.0151231738" flag="0"/>
      <vel value="0.0090220150" flag="0"/>
      <psa03 value="0.0608877533" flag="0"/>
      <psa10 value="0.0112408262" flag="0"/>
      <psa30 value="0.0008131888" flag="0"/>
    </comp>
    <comp name="--.HHZ">
      <acc value="0.0067057318" flag="0"/>
      <vel value="0.0061861130" flag="0"/>
      <psa03 value="0.0225347246" flag="0"/>
      <psa10 value="0.0059003742" flag="0"/>
      <psa30 value="0.0012656242" flag="0"/>
    </comp>
  </station>
  <station code="FSK" name="FSK" netid="HP" insttype="40," lat="38.4593" lon="20.5623">
    <comp name="--.HHZ">
      <acc value="0.0105418424" flag="0"/>
      <vel value="0.0048940056" flag="0"/>
      <psa03 value="0.0148901730" flag="0"/>
      <psa10 value="0.0078557484" flag="0"/>
      <psa30 value="0.0009906044" flag="0"/>
    </comp>
    <comp name="--.HHN">
      <acc value="0.0110078006" flag="0"/>
      <vel value="0.0082635394" flag="0"/>
      <psa03 value="0.0137654904" flag="0"/>
      <psa10 value="0.0133955781" flag="0"/>
      <psa30 value="0.0011012677" flag="0"/>
    </comp>
    <comp name="--.HHE">
      <acc value="0.0208558727" flag="0"/>
      <vel value="0.0090593153" flag="0"/>
      <psa03 value="0.0231724042" flag="0"/>
      <psa10 value="0.0089277187" flag="0"/>
      <psa30 value="0.0023195218" flag="0"/>
    </comp>
  </station>
  <station code="LTHK" name="LTHK" netid="HP" insttype="40," lat="37.7095" lon="20.8367">
    <comp name="--.HHN">
      <acc value="0.3520750849" flag="0"/>
      <vel value="0.0731292153" flag="0"/>
      <psa03 value="0.2769614588" flag="0"/>
      <psa10 value="0.0342437850" flag="0"/>
      <psa30 value="0.0028219466" flag="0"/>
    </comp>
    <comp name="--.HHZ">
      <acc value="0.2396273685" flag="0"/>
      <vel value="0.0505415332" flag="0"/>
      <psa03 value="0.1359929409" flag="0"/>
      <psa10 value="0.0163352029" flag="0"/>
      <psa30 value="0.0015476634" flag="0"/>
    </comp>
    <comp name="--.HHE">
      <acc value="0.3940107897" flag="0"/>
      <vel value="0.0811417913" flag="0"/>
      <psa03 value="0.1783994890" flag="0"/>
      <psa10 value="0.0281906186" flag="0"/>
      <psa30 value="0.0022904955" flag="0"/>
    </comp>
  </station>
  <station code="DMLN" name="DMLN" netid="HT" insttype="1s-100Hz," lat="38.2385" lon="20.3734">
    <comp name="--.HHE">
      <acc value="0.0604476433" flag="0"/>
      <vel value="0.0394528346" flag="0"/>
      <psa03 value="0.1266300106" flag="0"/>
      <psa10 value="0.0323427594" flag="0"/>
      <psa30 value="0.0026075202" flag="0"/>
    </comp>
    <comp name="--.HHZ">
      <acc value="0.0406290519" flag="0"/>
      <vel value="0.0108731674" flag="0"/>
      <psa03 value="0.0443354558" flag="0"/>
      <psa10 value="0.0115287394" flag="0"/>
      <psa30 value="0.0009919391" flag="0"/>
    </comp>
    <comp name="--.HHN">
      <acc value="0.0469543602" flag="0"/>
      <vel value="0.0244333338" flag="0"/>
      <psa03 value="0.0836922011" flag="0"/>
      <psa10 value="0.0347486693" flag="0"/>
      <psa30 value="0.0020839073" flag="0"/>
    </comp>
  </station>
  <station code="RTZL" name="RTZL" netid="HT" insttype="Compact," lat="38.076" lon="20.7715">
    <comp name="--.HHE">
      <acc value="0.0403300097" flag="0"/>
      <vel value="0.0194373373" flag="0"/>
      <psa03 value="0.0838054678" flag="0"/>
      <psa10 value="0.0176616728" flag="0"/>
      <psa30 value="0.0016457259" flag="0"/>
    </comp>
    <comp name="--.HHN">
      <acc value="0.0338974204" flag="0"/>
      <vel value="0.0165978938" flag="0"/>
      <psa03 value="0.0517936106" flag="0"/>
      <psa10 value="0.0238639482" flag="0"/>
      <psa30 value="0.0018603859" flag="0"/>
    </comp>
    <comp name="--.HHZ">
      <acc value="0.0172992113" flag="0"/>
      <vel value="0.0072962911" flag="0"/>
      <psa03 value="0.0364211929" flag="0"/>
      <psa10 value="0.0074332157" flag="0"/>
      <psa30 value="0.0006593161" flag="0"/>
    </comp>
  </station>
  <station code="STRF" name="STRF" netid="HT" insttype="30s-100Hz," lat="37.2497" lon="21.013">
    <comp name="--.HHN">
      <acc value="0.2965376788" flag="0"/>
      <vel value="0.0997171866" flag="0"/>
      <psa03 value="0.4027493366" flag="0"/>
      <psa10 value="0.0452267674" flag="0"/>
      <psa30 value="0.0043191071" flag="0"/>
    </comp>
    <comp name="--.HHE">
      <acc value="0.3497728486" flag="0"/>
      <vel value="0.0924661471" flag="0"/>
      <psa03 value="0.2661878639" flag="0"/>
      <psa10 value="0.0313983996" flag="0"/>
      <psa30 value="0.0020843623" flag="0"/>
    </comp>
    <comp name="--.HHZ">
      <acc value="0.1319578477" flag="0"/>
      <vel value="0.0406944648" flag="0"/>
      <psa03 value="0.2621076083" flag="0"/>
      <psa10 value="0.0210877037" flag="0"/>
      <psa30 value="0.0022464128" flag="0"/>
    </comp>
  </station>
</stationlist>
