<?xml version="1.0" encoding="UTF-8" standalone="yes"?>
<!DOCTYPE earthquake SYSTEM "stationlist.dtd">
<stationlist created="" xmlns="ch.ethz.sed.shakemap.usgs.xml">
  <station code="AIGS" name="AIGS" netid="HA" insttype="DC" lat="38.25" lon="22.0878">
    <comp name="--.HNZ">
      <acc value="0.0715373039" flag="0"/>
      <vel value="0.0124504389" flag="0"/>
      <psa03 value="0.0749969872" flag="0"/>
      <psa10 value="0.0084913678" flag="0"/>
      <psa30 value="0.0008683202" flag="0"/>
    </comp>
    <comp name="--.HNE">
      <acc value="0.0576634594" flag="0"/>
      <vel value="0.0191777181" flag="0"/>
      <psa03 value="0.1965239460" flag="0"/>
      <psa10 value="0.0078062134" flag="0"/>
      <psa30 value="0.0010432716" flag="0"/>
    </comp>
    <comp name="--.HNN">
      <acc value="0.0481108527" flag="0"/>
      <vel value="0.0171491794" flag="0"/>
      <psa03 value="0.1042821829" flag="0"/>
      <psa10 value="0.0106096046" flag="0"/>
      <psa30 value="0.0009910293" flag="0"/>
    </comp>
  </station>
  <station code="HAVD" name="HAVD" netid="HA" insttype="GEOtiny," lat="38.2036" lon="20.3848">
    <comp name="--.HHE">
      <acc value="0.0688631781" flag="0"/>
      <vel value="0.0131501701" flag="0"/>
      <psa03 value="0.0480307188" flag="0"/>
      <psa10 value="0.0042553506" flag="0"/>
      <psa30 value="0.0003446521" flag="0"/>
    </comp>
    <comp name="--.HHZ">
      <acc value="0.0760167806" flag="0"/>
      <vel value="0.0134830577" flag="0"/>
      <psa03 value="0.0556593468" flag="0"/>
      <psa10 value="0.0038170474" flag="0"/>
      <psa30 value="0.0003299814" flag="0"/>
    </comp>
    <comp name="--.HHN">
      <acc value="0.0790046718" flag="0"/>
      <vel value="0.0235503297" flag="0"/>
      <psa03 value="0.1027963158" flag="0"/>
      <psa10 value="0.0100988611" flag="0"/>
      <psa30 value="0.0006150283" flag="0"/>
    </comp>
  </station>
  <station code="KALE" name="KALE" netid="HA" insttype="40," lat="38.3911" lon="22.1398">
    <comp name="--.HHN">
      <acc value="0.0232263164" flag="0"/>
      <vel value="0.0102577564" flag="0"/>
      <psa03 value="0.0507670478" flag="0"/>
      <psa10 value="0.0105258746" flag="0"/>
      <psa30 value="0.0006300214" flag="0"/>
    </comp>
    <comp name="--.HHZ">
      <acc value="0.0130706400" flag="0"/>
      <vel value="0.0057140167" flag="0"/>
      <psa03 value="0.0386811389" flag="0"/>
      <psa10 value="0.0039447573" flag="0"/>
      <psa30 value="0.0003996811" flag="0"/>
    </comp>
    <comp name="--.HHE">
      <acc value="0.0207001009" flag="0"/>
      <vel value="0.0091962883" flag="0"/>
      <psa03 value="0.0405692182" flag="0"/>
      <psa10 value="0.0076914319" flag="0"/>
      <psa30 value="0.0004017006" flag="0"/>
    </comp>
  </station>
  <station code="ARG2" name="ARG2" netid="HI" insttype="CMG-5TD,ACCELEROMETER,GURALP" lat="38.1783" lon="20.4878">
    <comp name="--.HNN">
      <acc value="0.3132573032" flag="0"/>
      <vel value="0.0735563611" flag="0"/>
      <psa03 value="0.2474384130" flag="0"/>
      <psa10 value="0.0144646623" flag="0"/>
      <psa30 value="0.0014153450" flag="0"/>
    </comp>
    <comp name="--.HNZ">
      <acc value="0.1098787747" flag="0"/>
      <vel value="0.0322493696" flag="0"/>
      <psa03 value="0.2018693530" flag="0"/>
      <psa10 value="0.0070192958" flag="0"/>
      <psa30 value="0.0005234489" flag="0"/>
    </comp>
    <comp name="--.HNE">
      <acc value="0.2190305348" flag="0"/>
      <vel value="0.0417230210" flag="0"/>
      <psa03 value="0.2217616002" flag="0"/>
      <psa10 value="0.0115101233" flag="0"/>
      <psa30 value="0.0008188264" flag="0"/>
    </comp>
  </station>
  <station code="KLV1" name="KLV1" netid="HI" insttype="CMG-5TD,ACCELEROMETER,GURALP" lat="38.0326" lon="22.108">
    <comp name="--.HNE">
      <acc value="0.0425621984" flag="0"/>
      <vel value="0.0167682360" flag="0"/>
      <psa03 value="0.1211541026" flag="0"/>
      <psa10 value="0.0109661747" flag="0"/>
      <psa30 value="0.0006468551" flag="0"/>
    </comp>
    <comp name="--.HNZ">
      <acc value="0.0342564746" flag="0"/>
      <vel value="0.0067844112" flag="0"/>
      <psa03 value="0.0323383656" flag="0"/>
      <psa10 value="0.0055102754" flag="0"/>
      <psa30 value="0.0004625257" flag="0"/>
    </comp>
    <comp name="--.HNN">
      <acc value="0.0553937751" flag="0"/>
      <vel value="0.0179406633" flag="0"/>
      <psa03 value="0.1254784142" flag="0"/>
      <psa10 value="0.0088542679" flag="0"/>
      <psa30 value="0.0007736374" flag="0"/>
    </comp>
  </station>
  <station code="MSL1" name="MSL1" netid="HI" insttype="CMG-5TD,ACCELEROMETER,GURALP" lat="38.3727" lon="21.4243">
    <comp name="--.HNN">
      <acc value="0.1122389316" flag="0"/>
      <vel value="0.0872400014" flag="0"/>
      <psa03 value="0.3436958879" flag="0"/>
      <psa10 value="0.0962678256" flag="0"/>
      <psa30 value="0.0056161994" flag="0"/>
    </comp>
    <comp name="--.HNZ">
      <acc value="0.0622193585" flag="0"/>
      <vel value="0.0226627327" flag="0"/>
      <psa03 value="0.1346126349" flag="0"/>
      <psa10 value="0.0222439655" flag="0"/>
      <psa30 value="0.0010554519" flag="0"/>
    </comp>
    <comp name="--.HNE">
      <acc value="0.0950773838" flag="0"/>
      <vel value="0.0626528129" flag="0"/>
      <psa03 value="0.2981399637" flag="0"/>
      <psa10 value="0.0587945199" flag="0"/>
      <psa30 value="0.0039474764" flag="0"/>
    </comp>
  </station>
  <station code="VAS2" name="VAS2" netid="HI" insttype="CMG-5TD,ACCELEROMETER,GURALP" lat="38.6306" lon="20.6081">
    <comp name="--.HNE">
      <acc value="0.2543855801" flag="0"/>
      <vel value="0.0857231035" flag="0"/>
      <psa03 value="0.5974739728" flag="0"/>
      <psa10 value="0.0542529829" flag="0"/>
      <psa30 value="0.0033911114" flag="0"/>
    </comp>
    <comp name="--.HNN">
      <acc value="0.2027814791" flag="0"/>
      <vel value="0.0769997737" flag="0"/>
      <psa03 value="0.6533516463" flag="0"/>
      <psa10 value="0.0724191893" flag="0"/>
      <psa30 value="0.0034309603" flag="0"/>
    </comp>
    <comp name="--.HNZ">
      <acc value="0.1176484581" flag="0"/>
      <vel value="0.0332786744" flag="0"/>
      <psa03 value="0.2109753491" flag="0"/>
      <psa10 value="0.0208898525" flag="0"/>
      <psa30 value="0.0010125734" flag="0"/>
    </comp>
  </station>
  <station code="EVR" name="EVR" netid="HL" insttype="DR24" lat="38.9166" lon="21.8105">
    <comp name="--.HHE">
      <acc value="0.0062352477" flag="0"/>
      <vel value="0.0039303131" flag="0"/>
      <psa03 value="0.0240778770" flag="0"/>
      <psa10 value="0.0051660617" flag="0"/>
      <psa30 value="0.0002031258" flag="0"/>
    </comp>
    <comp name="--.HHZ">
      <acc value="0.0045071242" flag="0"/>
      <vel value="0.0026862799" flag="0"/>
      <psa03 value="0.0141897351" flag="0"/>
      <psa10 value="0.0031192773" flag="0"/>
      <psa30 value="0.0003567297" flag="0"/>
    </comp>
    <comp name="--.HHN">
      <acc value="0.0051889885" flag="0"/>
      <vel value="0.0030261392" flag="0"/>
      <psa03 value="0.0172201884" flag="0"/>
      <psa10 value="0.0040098336" flag="0"/>
      <psa30 value="0.0003548736" flag="0"/>
    </comp>
  </station>
  <station code="ITM" name="ITM" netid="HL" insttype="DR24" lat="37.1787" lon="21.9252">
    <comp name="--.HHN">
      <acc value="0.0098883510" flag="0"/>
      <vel value="0.0067755917" flag="0"/>
      <psa03 value="0.0270203173" flag="0"/>
      <psa10 value="0.0078714109" flag="0"/>
      <psa30 value="0.0006608167" flag="0"/>
    </comp>
    <comp name="--.HHE">
      <acc value="0.0072926568" flag="0"/>
      <vel value="0.0056837125" flag="0"/>
      <psa03 value="0.0159697854" flag="0"/>
      <psa10 value="0.0061687901" flag="0"/>
      <psa30 value="0.0008015694" flag="0"/>
    </comp>
    <comp name="--.HHZ">
      <acc value="0.0062287256" flag="0"/>
      <vel value="0.0036358485" flag="0"/>
      <psa03 value="0.0156610695" flag="0"/>
      <psa10 value="0.0055968376" flag="0"/>
      <psa30 value="0.0005042211" flag="0"/>
    </comp>
  </station>
  <station code="KLV" name="KLV" netid="HL" insttype="120" lat="38.0435" lon="22.1504">
    <comp name="--.HHE">
      <acc value="0.0288239259" flag="0"/>
      <vel value="0.0053221829" flag="0"/>
      <psa03 value="0.0358020719" flag="0"/>
      <psa10 value="0.0044704517" flag="0"/>
      <psa30 value="0.0003424303" flag="0"/>
    </comp>
    <comp name="--.HHZ">
      <acc value="0.0218180963" flag="0"/>
      <vel value="0.0062815051" flag="0"/>
      <psa03 value="0.0393168209" flag="0"/>
      <psa10 value="0.0042291740" flag="0"/>
      <psa30 value="0.0002954500" flag="0"/>
    </comp>
    <comp name="--.HHN">
      <acc value="0.0351525023" flag="0"/>
      <vel value="0.0070676812" flag="0"/>
      <psa03 value="0.0295623926" flag="0"/>
      <psa10 value="0.0048200707" flag="0"/>
      <psa30 value="0.0003797988" flag="0"/>
    </comp>
  </station>
  <station code="ORTH" name="ORTH" netid="HL" insttype="30" lat="37.8511" lon="20.6963">
    <comp name="--.HHE">
      <acc value="0.3158915623" flag="0"/>
      <vel value="0.0565649523" flag="0"/>
      <psa03 value="0.3672351618" flag="0"/>
      <psa10 value="0.0131572421" flag="0"/>
      <psa30 value="0.0012511708" flag="0"/>
    </comp>
    <comp name="--.HHN">
      <acc value="0.3010482712" flag="0"/>
      <vel value="0.0471610819" flag="0"/>
      <psa03 value="0.1490088208" flag="0"/>
      <psa10 value="0.0146749468" flag="0"/>
      <psa30 value="0.0013930672" flag="0"/>
    </comp>
    <comp name="--.HHZ">
      <acc value="0.1290838355" flag="0"/>
      <vel value="0.0180195114" flag="0"/>
      <psa03 value="0.0841504908" flag="0"/>
      <psa10 value="0.0053900875" flag="0"/>
      <psa30 value="0.0004901712" flag="0"/>
    </comp>
  </station>
  <station code="PATC" name="PATC" netid="HL" insttype="CMG-5" lat="38.2693" lon="21.76">
    <comp name="00.HNN">
      <acc value="0.0937690040" flag="0"/>
      <vel value="0.0390210510" flag="0"/>
      <psa03 value="0.1745425964" flag="0"/>
      <psa10 value="0.0527159771" flag="0"/>
      <psa30 value="0.0048820750" flag="0"/>
    </comp>
    <comp name="00.HNZ">
      <acc value="0.0897406543" flag="0"/>
      <vel value="0.0239430472" flag="0"/>
      <psa03 value="0.1177262050" flag="0"/>
      <psa10 value="0.0214028595" flag="0"/>
      <psa30 value="0.0018015145" flag="0"/>
    </comp>
    <comp name="00.HNE">
      <acc value="0.1249682845" flag="0"/>
      <vel value="0.0480533752" flag="0"/>
      <psa03 value="0.3287849006" flag="0"/>
      <psa10 value="0.0452759911" flag="0"/>
      <psa30 value="0.0032358100" flag="0"/>
    </comp>
  </station>
  <station code="PATG" name="PATG" netid="HL" insttype="CMG-5" lat="38.2386" lon="21.7266">
    <comp name="00.HNE">
      <acc value="0.2688232223" flag="0"/>
      <vel value="0.1740356128" flag="0"/>
      <psa03 value="0.9572839247" flag="0"/>
      <psa10 value="0.0716234327" flag="0"/>
      <psa30 value="0.0075604090" flag="0"/>
    </comp>
    <comp name="00.HNZ">
      <acc value="0.1105174522" flag="0"/>
      <vel value="0.0303402142" flag="0"/>
      <psa03 value="0.2498875169" flag="0"/>
      <psa10 value="0.0211640673" flag="0"/>
      <psa30 value="0.0033626292" flag="0"/>
    </comp>
    <comp name="00.HNN">
      <acc value="0.1878685711" flag="0"/>
      <vel value="0.0780567970" flag="0"/>
      <psa03 value="0.3622446323" flag="0"/>
      <psa10 value="0.0608026810" flag="0"/>
      <psa30 value="0.0071393625" flag="0"/>
    </comp>
  </station>
  <station code="RIOA" name="RIOA" netid="HL" insttype="CMG-5" lat="38.2959" lon="21.7912">
    <comp name="00.HNE">
      <acc value="0.1269719456" flag="0"/>
      <vel value="0.0374234260" flag="0"/>
      <psa03 value="0.3184248548" flag="0"/>
      <psa10 value="0.0328595893" flag="0"/>
      <psa30 value="0.0025413513" flag="0"/>
    </comp>
    <comp name="00.HNN">
      <acc value="0.0697301883" flag="0"/>
      <vel value="0.0275732170" flag="0"/>
      <psa03 value="0.2096345709" flag="0"/>
      <psa10 value="0.0288907763" flag="0"/>
      <psa30 value="0.0022367017" flag="0"/>
    </comp>
    <comp name="00.HNZ">
      <acc value="0.0705154370" flag="0"/>
      <vel value="0.0212383171" flag="0"/>
      <psa03 value="0.1112547000" flag="0"/>
      <psa10 value="0.0140418548" flag="0"/>
      <psa30 value="0.0016796535" flag="0"/>
    </comp>
  </station>
  <station code="RLS" name="RLS" netid="HL" insttype="CMG3ESPC-120s" lat="38.0559" lon="21.4647">
    <comp name="--.HHE">
      <acc value="0.2689883464" flag="0"/>
      <vel value="0.0565478720" flag="0"/>
      <psa03 value="0.3034574459" flag="0"/>
      <psa10 value="0.0206502183" flag="0"/>
      <psa30 value="0.0019384443" flag="0"/>
    </comp>
    <comp name="--.HHZ">
      <acc value="0.2095175758" flag="0"/>
      <vel value="0.0474103812" flag="0"/>
      <psa03 value="0.1331716986" flag="0"/>
      <psa10 value="0.0169082314" flag="0"/>
      <psa30 value="0.0017683459" flag="0"/>
    </comp>
    <comp name="--.HHN">
      <acc value="0.3738682399" flag="0"/>
      <vel value="0.0718484490" flag="0"/>
      <psa03 value="0.7470680409" flag="0"/>
      <psa10 value="0.0320637233" flag="0"/>
      <psa30 value="0.0030778819" flag="0"/>
    </comp>
  </station>
  <station code="VLS" name="VLS" netid="HL" insttype="120P," lat="38.1768" lon="20.5886">
    <comp name="--.HHN">
      <acc value="0.2794247455" flag="0"/>
      <vel value="0.0308121909" flag="0"/>
      <psa03 value="0.0663593772" flag="0"/>
      <psa10 value="0.0079932091" flag="0"/>
      <psa30 value="0.0004984721" flag="0"/>
    </comp>
    <comp name="--.HHZ">
      <acc value="0.1337887873" flag="0"/>
      <vel value="0.0187813678" flag="0"/>
      <psa03 value="0.0503471911" flag="0"/>
      <psa10 value="0.0064981705" flag="0"/>
      <psa30 value="0.0003639341" flag="0"/>
    </comp>
    <comp name="--.HHE">
      <acc value="0.4568644931" flag="0"/>
      <vel value="0.0448346032" flag="0"/>
      <psa03 value="0.0899917456" flag="0"/>
      <psa10 value="0.0062538898" flag="0"/>
      <psa30 value="0.0003927283" flag="0"/>
    </comp>
  </station>
  <station code="AMPL" name="AMPL" netid="HP" insttype="Compact," lat="38.9224" lon="21.2135">
    <comp name="--.HHZ">
      <acc value="0.0110387468" flag="0"/>
      <vel value="0.0050863645" flag="0"/>
      <psa03 value="0.0216393209" flag="0"/>
      <psa10 value="0.0051656784" flag="0"/>
      <psa30 value="0.0007250878" flag="0"/>
    </comp>
    <comp name="--.HHN">
      <acc value="0.0148547872" flag="0"/>
      <vel value="0.0071693477" flag="0"/>
      <psa03 value="0.0367238185" flag="0"/>
      <psa10 value="0.0058343715" flag="0"/>
      <psa30 value="0.0006325119" flag="0"/>
    </comp>
    <comp name="--.HHE">
      <acc value="0.0196813229" flag="0"/>
      <vel value="0.0070383987" flag="0"/>
      <psa03 value="0.0523039596" flag="0"/>
      <psa10 value="0.0058305980" flag="0"/>
      <psa30 value="0.0005648148" flag="0"/>
    </comp>
  </station>
  <station code="AMT" name="AMT" netid="HP" insttype="CMG-3T," lat="37.5324" lon="21.7089">
    <comp name="00.HHE">
      <acc value="0.0519574077" flag="0"/>
      <vel value="0.0324472223" flag="0"/>
      <psa03 value="0.1881495845" flag="0"/>
      <psa10 value="0.0523934689" flag="0"/>
      <psa30 value="0.0029987009" flag="0"/>
    </comp>
    <comp name="00.HHZ">
      <acc value="0.0308300075" flag="0"/>
      <vel value="0.0170966872" flag="0"/>
      <psa03 value="0.0676548379" flag="0"/>
      <psa10 value="0.0322174158" flag="0"/>
      <psa30 value="0.0013414452" flag="0"/>
    </comp>
    <comp name="00.HHN">
      <acc value="0.0488265800" flag="0"/>
      <vel value="0.0296534699" flag="0"/>
      <psa03 value="0.1451150159" flag="0"/>
      <psa10 value="0.0442911463" flag="0"/>
      <psa30 value="0.0014371775" flag="0"/>
    </comp>
  </station>
  <station code="ANX" name="ANX" netid="HP" insttype="120" lat="38.5933" lon="21.9209">
    <comp name="--.HHE">
      <acc value="0.0161195929" flag="0"/>
      <vel value="0.0084252268" flag="0"/>
      <psa03 value="0.0412093106" flag="0"/>
      <psa10 value="0.0071297099" flag="0"/>
      <psa30 value="0.0005591494" flag="0"/>
    </comp>
    <comp name="--.HHZ">
      <acc value="0.0087316295" flag="0"/>
      <vel value="0.0059352704" flag="0"/>
      <psa03 value="0.0214341372" flag="0"/>
      <psa10 value="0.0074961400" flag="0"/>
      <psa30 value="0.0004210374" flag="0"/>
    </comp>
    <comp name="--.HHN">
      <acc value="0.0146484417" flag="0"/>
      <vel value="0.0080151349" flag="0"/>
      <psa03 value="0.0401674680" flag="0"/>
      <psa10 value="0.0134107695" flag="0"/>
      <psa30 value="0.0005147605" flag="0"/>
    </comp>
  </station>
  <station code="AXS" name="AXS" netid="HP" insttype="Compact," lat="38.1962" lon="21.3763">
    <comp name="--.HHE">
      <acc value="0.1028560433" flag="0"/>
      <vel value="0.0301154741" flag="0"/>
      <psa03 value="0.0843026684" flag="0"/>
      <psa10 value="0.0141260345" flag="0"/>
      <psa30 value="0.0011902899" flag="0"/>
    </comp>
    <comp name="--.HHN">
      <acc value="0.1136296151" flag="0"/>
      <vel value="0.0480935125" flag="0"/>
      <psa03 value="0.2064642183" flag="0"/>
      <psa10 value="0.0225341013" flag="0"/>
      <psa30 value="0.0022421634" flag="0"/>
    </comp>
    <comp name="--.HHZ">
      <acc value="0.0689230265" flag="0"/>
      <vel value="0.0242946276" flag="0"/>
      <psa03 value="0.0697812270" flag="0"/>
      <psa10 value="0.0281247368" flag="0"/>
      <psa30 value="0.0020140327" flag="0"/>
    </comp>
  </station>
  <station code="DRO" name="DRO" netid="HP" insttype="120P," lat="37.952" lon="21.71">
    <comp name="--.HHZ">
      <acc value="0.1269584220" flag="0"/>
      <vel value="0.0279746094" flag="0"/>
      <psa03 value="0.2800352410" flag="0"/>
      <psa10 value="0.0105401584" flag="0"/>
      <psa30 value="0.0009959984" flag="0"/>
    </comp>
    <comp name="--.HHE">
      <acc value="0.2680281226" flag="0"/>
      <vel value="0.0753845634" flag="0"/>
      <psa03 value="0.6694892476" flag="0"/>
      <psa10 value="0.0266285572" flag="0"/>
      <psa30 value="0.0016044024" flag="0"/>
    </comp>
    <comp name="--.HHN">
      <acc value="0.2591687956" flag="0"/>
      <vel value="0.0572585415" flag="0"/>
      <psa03 value="0.4315723168" flag="0"/>
      <psa10 value="0.0287031968" flag="0"/>
      <psa30 value="0.0020128716" flag="0"/>
    </comp>
  </station>
  <station code="DSF" name="DSF" netid="HP" insttype="120P," lat="38.4112" lon="22.5271">
    <comp name="--.HHE">
      <acc value="0.0081536972" flag="0"/>
      <vel value="0.0029846211" flag="0"/>
      <psa03 value="0.0171751924" flag="0"/>
      <psa10 value="0.0029056060" flag="0"/>
      <psa30 value="0.0002174896" flag="0"/>
    </comp>
    <comp name="--.HHN">
      <acc value="0.0143830793" flag="0"/>
      <vel value="0.0040073661" flag="0"/>
      <psa03 value="0.0246381337" flag="0"/>
      <psa10 value="0.0021769441" flag="0"/>
      <psa30 value="0.0002841862" flag="0"/>
    </comp>
    <comp name="--.HHZ">
      <acc value="0.0076253073" flag="0"/>
      <vel value="0.0029647322" flag="0"/>
      <psa03 value="0.0118595865" flag="0"/>
      <psa10 value="0.0017249229" flag="0"/>
      <psa30 value="0.0001968913" flag="0"/>
    </comp>
  </station>
  <station code="EFP" name="EFP" netid="HP" insttype="40," lat="38.4269" lon="21.9058">
    <comp name="--.HHN">
      <acc value="0.0221359063" flag="0"/>
      <vel value="0.0078771168" flag="0"/>
      <psa03 value="0.0640902568" flag="0"/>
      <psa10 value="0.0090587849" flag="0"/>
      <psa30 value="0.0006321833" flag="0"/>
    </comp>
    <comp name="--.HHZ">
      <acc value="0.0234756127" flag="0"/>
