<?xml version="1.0" encoding="UTF-8" standalone="yes"?>
<!DOCTYPE earthquake SYSTEM "stationlist.dtd">
<stationlist created="" xmlns="ch.ethz.sed.shakemap.usgs.xml">
  <station code="GAZ" name="GAZ" netid="KO" insttype="CMG-3T" lat="37.1721" lon="37.2096">
    <comp name="--.HHE">
      <acc value="0.0045600186" flag="0"/>
      <vel value="0.0024755685" flag="0"/>
      <psa03 value="0.0070349984" flag="0"/>
      <psa10 value="0.0013381293" flag="0"/>
      <psa30 value="0.0000902354" flag="0"/>
    </comp>
    <comp name="--.HHZ">
      <acc value="0.0051461668" flag="0"/>
      <vel value="0.0009797221" flag="0"/>
      <psa03 value="0.0068254592" flag="0"/>
      <psa10 value="0.0003867742" flag="0"/>
      <psa30 value="0.0000302806" flag="0"/>
    </comp>
    <comp name="--.HHN">
      <acc value="0.0037155145" flag="0"/>
      <vel value="0.0016045392" flag="0"/>
      <psa03 value="0.0068433663" flag="0"/>
      <psa10 value="0.0012338246" flag="0"/>
      <psa30 value="0.0000576760" flag="0"/>
    </comp>
  </station>
  <station code="SARI" name="SARI" netid="KO" insttype="CMG-3T" lat="38.4072" lon="36.4181">
    <comp name="--.HHE">
      <acc value="0.0173543514" flag="0"/>
      <vel value="0.0035292076" flag="0"/>
      <psa03 value="0.0088944852" flag="0"/>
      <psa10 value="0.0028252671" flag="0"/>
      <psa30 value="0.0001179469" flag="0"/>
    </comp>
    <comp name="--.HHN">
      <acc value="0.0152326945" flag="0"/>
      <vel value="0.0029370262" flag="0"/>
      <psa03 value="0.0140736840" flag="0"/>
      <psa10 value="0.0035643692" flag="0"/>
      <psa30 value="0.0001302052" flag="0"/>
    </comp>
    <comp name="--.HHZ">
      <acc value="0.0111579123" flag="0"/>
      <vel value="0.0028018660" flag="0"/>
      <psa03 value="0.0131550198" flag="0"/>
      <psa10 value="0.0009978503" flag="0"/>
      <psa30 value="0.0000714657" flag="0"/>
    </comp>
  </station>
  <station code="ANDN" name="ANDN" netid="TU" insttype="T" lat="37.58" lon="36.3452">
    <comp name="--.HHN">
      <acc value="0.0143310116" flag="0"/>
      <vel value="0.0040648535" flag="0"/>
      <psa03 value="0.0185714232" flag="0"/>
      <psa10 value="0.0021635038" flag="0"/>
      <psa30 value="0.0002512422" flag="0"/>
    </comp>
    <comp name="--.HHZ">
      <acc value="0.0063875876" flag="0"/>
      <vel value="0.0026591390" flag="0"/>
      <psa03 value="0.0095691203" flag="0"/>
      <psa10 value="0.0030861154" flag="0"/>
      <psa30 value="0.0002066640" flag="0"/>
    </comp>
    <comp name="--.HHE">
      <acc value="0.0098096910" flag="0"/>
      <vel value="0.0036519973" flag="0"/>
      <psa03 value="0.0226334057" flag="0"/>
      <psa10 value="0.0036059651" flag="0"/>
      <psa30 value="0.0002619213" flag="0"/>
    </comp>
  </station>
</stationlist>
