<?xml version="1.0" encoding="UTF-8" standalone="yes"?>
<!DOCTYPE earthquake SYSTEM "stationlist.dtd">
<stationlist created="" xmlns="ch.ethz.sed.shakemap.usgs.xml">
  <station code="DARE" name="DARE" netid="KO" insttype="CMG-3ESP" lat="38.5712" lon="37.4832">
    <comp name="--.HHE">
      <acc value="0.0063296497" flag="0"/>
      <vel value="0.0044724882" flag="0"/>
      <psa03 value="0.0197422924" flag="0"/>
      <psa10 value="0.0088354484" flag="0"/>
      <psa30 value="0.0004423990" flag="0"/>
    </comp>
    <comp name="--.HHN">
      <acc value="0.0061754455" flag="0"/>
      <vel value="0.0052190009" flag="0"/>
      <psa03 value="0.0244846670" flag="0"/>
      <psa10 value="0.0064796243" flag="0"/>
      <psa30 value="0.0005481573" flag="0"/>
    </comp>
    <comp name="--.HHZ">
      <acc value="0.0058417268" flag="0"/>
      <vel value="0.0043114762" flag="0"/>
      <psa03 value="0.0153171558" flag="0"/>
      <psa10 value="0.0057779887" flag="0"/>
      <psa30 value="0.0004586187" flag="0"/>
    </comp>
  </station>
  <station code="GAZ" name="GAZ" netid="KO" insttype="CMG-3T" lat="37.1721" lon="37.2096">
    <comp name="--.HHE">
      <acc value="0.0584081625" flag="0"/>
      <vel value="0.0343979286" flag="0"/>
      <psa03 value="0.1318553186" flag="0"/>
      <psa10 value="0.0395193406" flag="0"/>
      <psa30 value="0.0018719533" flag="0"/>
    </comp>
    <comp name="--.HHZ">
      <acc value="0.0479934589" flag="0"/>
      <vel value="0.0276539257" flag="0"/>
      <psa03 value="0.1396702179" flag="0"/>
      <psa10 value="0.0214694189" flag="0"/>
      <psa30 value="0.0011115871" flag="0"/>
    </comp>
    <comp name="--.HHN">
      <acc value="0.0770977378" flag="0"/>
      <vel value="0.0551941827" flag="0"/>
      <psa03 value="0.2020052215" flag="0"/>
      <psa10 value="0.0308363419" flag="0"/>
      <psa30 value="0.0018808412" flag="0"/>
    </comp>
  </station>
  <station code="KHMN" name="KHMN" netid="KO" insttype="CMG-5T" lat="37.3916" lon="37.1574">
    <comp name="--.HNE">
      <acc value="0.1007010247" flag="0"/>
      <vel value="0.0418886012" flag="0"/>
      <psa03 value="0.1786391546" flag="0"/>
      <psa10 value="0.0240972244" flag="0"/>
      <psa30 value="0.0016732885" flag="0"/>
    </comp>
    <comp name="--.HNN">
      <acc value="0.0564431850" flag="0"/>
      <vel value="0.0168475233" flag="0"/>
      <psa03 value="0.0762646566" flag="0"/>
      <psa10 value="0.0179094763" flag="0"/>
      <psa30 value="0.0022615451" flag="0"/>
    </comp>
    <comp name="--.HNZ">
      <acc value="0.0344016904" flag="0"/>
      <vel value="0.0107002411" flag="0"/>
      <psa03 value="0.0713441623" flag="0"/>
      <psa10 value="0.0086325876" flag="0"/>
      <psa30 value="0.0016821548" flag="0"/>
    </comp>
  </station>
  <station code="KMRS" name="KMRS" netid="KO" insttype="CMG-3T" lat="37.5053" lon="36.9">
    <comp name="--.HHE">
      <acc value="0.1963174429" flag="0"/>
      <vel value="0.0753771229" flag="0"/>
      <psa03 value="0.3154429460" flag="0"/>
      <psa10 value="0.0490920667" flag="0"/>
      <psa30 value="0.0035556536" flag="0"/>
    </comp>
    <comp name="--.HHN">
      <acc value="0.3333241381" flag="0"/>
      <vel value="0.1630584137" flag="0"/>
      <psa03 value="0.9681623572" flag="0"/>
      <psa10 value="0.0519207656" flag="0"/>
      <psa30 value="0.0042303795" flag="0"/>
    </comp>
  </station>
  <station code="SARI" name="SARI" netid="KO" insttype="CMG-3T" lat="38.4072" lon="36.4181">
    <comp name="--.HHE">
      <acc value="0.0429479660" flag="0"/>
      <vel value="0.0187895563" flag="0"/>
      <psa03 value="0.0716497445" flag="0"/>
      <psa10 value="0.0160804951" flag="0"/>
      <psa30 value="0.0011129236" flag="0"/>
    </comp>
    <comp name="--.HHN">
      <acc value="0.0422232176" flag="0"/>
      <vel value="0.0184341728" flag="0"/>
      <psa03 value="0.0818121684" flag="0"/>
      <psa10 value="0.0136203958" flag="0"/>
      <psa30 value="0.0014334564" flag="0"/>
    </comp>
    <comp name="--.HHZ">
      <acc value="0.0288158791" flag="0"/>
      <vel value="0.0187011667" flag="0"/>
      <psa03 value="0.0716219327" flag="0"/>
      <psa10 value="0.0260910903" flag="0"/>
      <psa30 value="0.0013913970" flag="0"/>
    </comp>
  </station>
  <station code="ANDN" name="ANDN" netid="TU" insttype="T" lat="37.58" lon="36.3452">
    <comp name="--.HHZ">
      <acc value="0.1329401270" flag="0"/>
      <vel value="0.0937544788" flag="0"/>
      <psa03 value="0.2524748293" flag="0"/>
      <psa10 value="0.0964211932" flag="0"/>
      <psa30 value="0.0075038853" flag="0"/>
    </comp>
    <comp name="--.HHE">
      <acc value="0.2485007692" flag="0"/>
      <vel value="0.1096439955" flag="0"/>
      <psa03 value="0.3170797950" flag="0"/>
      <psa10 value="0.1644768913" flag="0"/>
      <psa30 value="0.0078624861" flag="0"/>
    </comp>
    <comp name="--.HHN">
      <acc value="0.2517121692" flag="0"/>
      <vel value="0.0954886509" flag="0"/>
      <psa03 value="0.3428962178" flag="0"/>
      <psa10 value="0.0985941229" flag="0"/>
      <psa30 value="0.0080964365" flag="0"/>
    </comp>
  </station>
</stationlist>
