<?xml version="1.0" encoding="UTF-8" standalone="yes"?>
<!DOCTYPE earthquake SYSTEM "stationlist.dtd">
<stationlist created="" xmlns="ch.ethz.sed.shakemap.usgs.xml">
  <station code="CEYT" name="CEYT" netid="KO" insttype="CMG-3ESP" lat="37.0105" lon="35.7478">
    <comp name="--.HHE">
      <acc value="0.0084152357" flag="0"/>
      <vel value="0.0053917007" flag="0"/>
      <psa03 value="0.0272248882" flag="0"/>
      <psa10 value="0.0086371947" flag="0"/>
      <psa30 value="0.0008260906" flag="0"/>
    </comp>
    <comp name="--.HHZ">
      <acc value="0.0042694829" flag="0"/>
      <vel value="0.0052511205" flag="0"/>
      <psa03 value="0.0110109548" flag="0"/>
      <psa10 value="0.0065271347" flag="0"/>
      <psa30 value="0.0006196278" flag="0"/>
    </comp>
    <comp name="--.HHN">
      <acc value="0.0053795409" flag="0"/>
      <vel value="0.0047052672" flag="0"/>
      <psa03 value="0.0161731455" flag="0"/>
      <psa10 value="0.0070320183" flag="0"/>
      <psa30 value="0.0007222070" flag="0"/>
    </comp>
  </station>
  <station code="DARE" name="DARE" netid="KO" insttype="CMG-3ESP" lat="38.5712" lon="37.4832">
    <comp name="--.HHZ">
      <acc value="0.0058417269" flag="0"/>
      <vel value="0.0043114768" flag="0"/>
      <psa03 value="0.0153171558" flag="0"/>
      <psa10 value="0.0057779887" flag="0"/>
      <psa30 value="0.0004586189" flag="0"/>
    </comp>
    <comp name="--.HHN">
      <acc value="0.0061754455" flag="0"/>
      <vel value="0.0052190001" flag="0"/>
      <psa03 value="0.0244846670" flag="0"/>
      <psa10 value="0.0064796243" flag="0"/>
      <psa30 value="0.0005481520" flag="0"/>
    </comp>
    <comp name="--.HHE">
      <acc value="0.0063296497" flag="0"/>
      <vel value="0.0044724883" flag="0"/>
      <psa03 value="0.0197422924" flag="0"/>
      <psa10 value="0.0088354484" flag="0"/>
      <psa30 value="0.0004423996" flag="0"/>
    </comp>
  </station>
  <station code="GAZ" name="GAZ" netid="KO" insttype="CMG-3T" lat="37.1721" lon="37.2096">
    <comp name="--.HHE">
      <acc value="0.0584081622" flag="0"/>
      <vel value="0.0343979290" flag="0"/>
      <psa03 value="0.1318553186" flag="0"/>
      <psa10 value="0.0395193406" flag="0"/>
      <psa30 value="0.0018719253" flag="0"/>
    </comp>
    <comp name="--.HHZ">
      <acc value="0.0479934590" flag="0"/>
      <vel value="0.0276539253" flag="0"/>
      <psa03 value="0.1396702179" flag="0"/>
      <psa10 value="0.0214694190" flag="0"/>
      <psa30 value="0.0011115856" flag="0"/>
    </comp>
    <comp name="--.HHN">
      <acc value="0.0770977377" flag="0"/>
      <vel value="0.0551941824" flag="0"/>
      <psa03 value="0.2020052215" flag="0"/>
      <psa10 value="0.0308363419" flag="0"/>
      <psa30 value="0.0018808381" flag="0"/>
    </comp>
  </station>
  <station code="KHMN" name="KHMN" netid="KO" insttype="CMG-5T" lat="37.3916" lon="37.1574">
    <comp name="--.HNE">
      <acc value="0.1007010270" flag="0"/>
      <vel value="0.0418886053" flag="0"/>
      <psa03 value="0.1786391546" flag="0"/>
      <psa10 value="0.0240972265" flag="0"/>
      <psa30 value="0.0016734906" flag="0"/>
    </comp>
    <comp name="--.HNN">
      <acc value="0.0564431828" flag="0"/>
      <vel value="0.0168475250" flag="0"/>
      <psa03 value="0.0762646566" flag="0"/>
      <psa10 value="0.0179094770" flag="0"/>
      <psa30 value="0.0022614705" flag="0"/>
    </comp>
    <comp name="--.HNZ">
      <acc value="0.0344016845" flag="0"/>
      <vel value="0.0107002428" flag="0"/>
      <psa03 value="0.0713441623" flag="0"/>
      <psa10 value="0.0086325877" flag="0"/>
      <psa30 value="0.0016818043" flag="0"/>
    </comp>
  </station>
  <station code="KMRS" name="KMRS" netid="KO" insttype="CMG-3T" lat="37.5053" lon="36.9">
    <comp name="--.HHE">
      <acc value="0.1963174429" flag="0"/>
      <vel value="0.0753771229" flag="0"/>
      <psa03 value="0.3154429460" flag="0"/>
      <psa10 value="0.0490920667" flag="0"/>
      <psa30 value="0.0035556550" flag="0"/>
    </comp>
    <comp name="--.HHN">
      <acc value="0.3333241381" flag="0"/>
      <vel value="0.1630584136" flag="0"/>
      <psa03 value="0.9681623572" flag="0"/>
      <psa10 value="0.0519207657" flag="0"/>
      <psa30 value="0.0042303795" flag="0"/>
    </comp>
  </station>
  <station code="SARI" name="SARI" netid="KO" insttype="CMG-3T" lat="38.4072" lon="36.4181">
    <comp name="--.HHE">
      <acc value="0.0429479658" flag="0"/>
      <vel value="0.0187895558" flag="0"/>
      <psa03 value="0.0716497445" flag="0"/>
      <psa10 value="0.0160804951" flag="0"/>
      <psa30 value="0.0011131742" flag="0"/>
    </comp>
    <comp name="--.HHN">
      <acc value="0.0422232177" flag="0"/>
      <vel value="0.0184341739" flag="0"/>
      <psa03 value="0.0818121684" flag="0"/>
      <psa10 value="0.0136203958" flag="0"/>
      <psa30 value="0.0014334358" flag="0"/>
    </comp>
    <comp name="--.HHZ">
      <acc value="0.0288158790" flag="0"/>
      <vel value="0.0187011672" flag="0"/>
      <psa03 value="0.0716219327" flag="0"/>
      <psa10 value="0.0260910902" flag="0"/>
      <psa30 value="0.0013912922" flag="0"/>
    </comp>
  </station>
  <station code="ANDN" name="ANDN" netid="TU" insttype="T" lat="37.58" lon="36.3452">
    <comp name="--.HHE">
      <acc value="0.2485007694" flag="0"/>
      <vel value="0.1096439939" flag="0"/>
      <psa03 value="0.3170797950" flag="0"/>
      <psa10 value="0.1644768932" flag="0"/>
      <psa30 value="0.0078627531" flag="0"/>
    </comp>
    <comp name="--.HHN">
      <acc value="0.2517121692" flag="0"/>
      <vel value="0.0954886503" flag="0"/>
      <psa03 value="0.3428962178" flag="0"/>
      <psa10 value="0.0985941228" flag="0"/>
      <psa30 value="0.0080964032" flag="0"/>
    </comp>
    <comp name="--.HHZ">
      <acc value="0.1329401268" flag="0"/>
      <vel value="0.0937544781" flag="0"/>
      <psa03 value="0.2524748293" flag="0"/>
      <psa10 value="0.0964211933" flag="0"/>
      <psa30 value="0.0075037104" flag="0"/>
    </comp>
  </station>
</stationlist>
