<?xml version="1.0" encoding="UTF-8" standalone="yes"?>
<!DOCTYPE earthquake SYSTEM "stationlist.dtd">
<stationlist created="" xmlns="ch.ethz.sed.shakemap.usgs.xml">
  <station code="BNN" name="BNN" netid="KO" insttype="CMG-3T" lat="38.8521" lon="35.8472">
    <comp name="--.HHE">
      <acc value="0.0103517318" flag="0"/>
      <vel value="0.0108040585" flag="0"/>
      <psa03 value="0.0265981085" flag="0"/>
      <psa10 value="0.0160728644" flag="0"/>
      <psa30 value="0.0011038462" flag="0"/>
    </comp>
    <comp name="--.HHN">
      <acc value="0.0083576349" flag="0"/>
      <vel value="0.0083498530" flag="0"/>
      <psa03 value="0.0144428127" flag="0"/>
      <psa10 value="0.0141874067" flag="0"/>
      <psa30 value="0.0011324300" flag="0"/>
    </comp>
    <comp name="--.HHZ">
      <acc value="0.0052557541" flag="0"/>
      <vel value="0.0049299882" flag="0"/>
      <psa03 value="0.0128577512" flag="0"/>
      <psa10 value="0.0123934148" flag="0"/>
      <psa30 value="0.0006688717" flag="0"/>
    </comp>
  </station>
  <station code="CEYT" name="CEYT" netid="KO" insttype="CMG-3ESP" lat="37.0105" lon="35.7478">
    <comp name="--.HHZ">
      <acc value="0.0042694828" flag="0"/>
      <vel value="0.0052511203" flag="0"/>
      <psa03 value="0.0110109548" flag="0"/>
      <psa10 value="0.0065271347" flag="0"/>
      <psa30 value="0.0006196295" flag="0"/>
    </comp>
    <comp name="--.HHN">
      <acc value="0.0053795418" flag="0"/>
      <vel value="0.0047052674" flag="0"/>
      <psa03 value="0.0161731455" flag="0"/>
      <psa10 value="0.0070320183" flag="0"/>
      <psa30 value="0.0007221705" flag="0"/>
    </comp>
    <comp name="--.HHE">
      <acc value="0.0084152359" flag="0"/>
      <vel value="0.0053917017" flag="0"/>
      <psa03 value="0.0272248882" flag="0"/>
      <psa10 value="0.0086371947" flag="0"/>
      <psa30 value="0.0008260839" flag="0"/>
    </comp>
  </station>
  <station code="DARE" name="DARE" netid="KO" insttype="CMG-3ESP" lat="38.5712" lon="37.4832">
    <comp name="--.HHE">
      <acc value="0.0063296499" flag="0"/>
      <vel value="0.0044724882" flag="0"/>
      <psa03 value="0.0197422924" flag="0"/>
      <psa10 value="0.0088354484" flag="0"/>
      <psa30 value="0.0004423989" flag="0"/>
    </comp>
    <comp name="--.HHZ">
      <acc value="0.0058417269" flag="0"/>
      <vel value="0.0043114760" flag="0"/>
      <psa03 value="0.0153171558" flag="0"/>
      <psa10 value="0.0057779887" flag="0"/>
      <psa30 value="0.0004586188" flag="0"/>
    </comp>
    <comp name="--.HHN">
      <acc value="0.0061754454" flag="0"/>
      <vel value="0.0052190010" flag="0"/>
      <psa03 value="0.0244846670" flag="0"/>
      <psa10 value="0.0064796243" flag="0"/>
      <psa30 value="0.0005481582" flag="0"/>
    </comp>
  </station>
  <station code="GAZ" name="GAZ" netid="KO" insttype="CMG-3T" lat="37.1721" lon="37.2096">
    <comp name="--.HHE">
      <acc value="0.0584081629" flag="0"/>
      <vel value="0.0343979290" flag="0"/>
      <psa03 value="0.1318553186" flag="0"/>
      <psa10 value="0.0395193406" flag="0"/>
      <psa30 value="0.0018719226" flag="0"/>
    </comp>
    <comp name="--.HHN">
      <acc value="0.0770977378" flag="0"/>
      <vel value="0.0551941821" flag="0"/>
      <psa03 value="0.2020052215" flag="0"/>
      <psa10 value="0.0308363419" flag="0"/>
      <psa30 value="0.0018808337" flag="0"/>
    </comp>
    <comp name="--.HHZ">
      <acc value="0.0479934597" flag="0"/>
      <vel value="0.0276539253" flag="0"/>
      <psa03 value="0.1396702179" flag="0"/>
      <psa10 value="0.0214694190" flag="0"/>
      <psa30 value="0.0011115864" flag="0"/>
    </comp>
  </station>
  <station code="KHMN" name="KHMN" netid="KO" insttype="CMG-5T" lat="37.3916" lon="37.1574">
    <comp name="--.HNE">
      <acc value="0.1007009862" flag="0"/>
      <vel value="0.0418886045" flag="0"/>
      <psa03 value="0.1786391546" flag="0"/>
      <psa10 value="0.0240972262" flag="0"/>
      <psa30 value="0.0016734496" flag="0"/>
    </comp>
    <comp name="--.HNN">
      <acc value="0.0564431689" flag="0"/>
      <vel value="0.0168475253" flag="0"/>
      <psa03 value="0.0762646566" flag="0"/>
      <psa10 value="0.0179094770" flag="0"/>
      <psa30 value="0.0022614957" flag="0"/>
    </comp>
    <comp name="--.HNZ">
      <acc value="0.0344017998" flag="0"/>
      <vel value="0.0107002446" flag="0"/>
      <psa03 value="0.0713441623" flag="0"/>
      <psa10 value="0.0086325877" flag="0"/>
      <psa30 value="0.0016818540" flag="0"/>
    </comp>
  </station>
  <station code="KMRS" name="KMRS" netid="KO" insttype="CMG-3T" lat="37.5053" lon="36.9">
    <comp name="--.HHE">
      <acc value="0.1963174425" flag="0"/>
      <vel value="0.0753771227" flag="0"/>
      <psa03 value="0.3154429460" flag="0"/>
      <psa10 value="0.0490920665" flag="0"/>
      <psa30 value="0.0035556669" flag="0"/>
    </comp>
    <comp name="--.HHN">
      <acc value="0.3333241384" flag="0"/>
      <vel value="0.1630584137" flag="0"/>
      <psa03 value="0.9681623572" flag="0"/>
      <psa10 value="0.0519207658" flag="0"/>
      <psa30 value="0.0042303837" flag="0"/>
    </comp>
  </station>
  <station code="SARI" name="SARI" netid="KO" insttype="CMG-3T" lat="38.4072" lon="36.4181">
    <comp name="--.HHZ">
      <acc value="0.0288158791" flag="0"/>
      <vel value="0.0187011664" flag="0"/>
      <psa03 value="0.0716219327" flag="0"/>
      <psa10 value="0.0260910903" flag="0"/>
      <psa30 value="0.0013913934" flag="0"/>
    </comp>
    <comp name="--.HHN">
      <acc value="0.0422232171" flag="0"/>
      <vel value="0.0184341728" flag="0"/>
      <psa03 value="0.0818121684" flag="0"/>
      <psa10 value="0.0136203958" flag="0"/>
      <psa30 value="0.0014334571" flag="0"/>
    </comp>
    <comp name="--.HHE">
      <acc value="0.0429479660" flag="0"/>
      <vel value="0.0187895566" flag="0"/>
      <psa03 value="0.0716497445" flag="0"/>
      <psa10 value="0.0160804951" flag="0"/>
      <psa30 value="0.0011129379" flag="0"/>
    </comp>
  </station>
  <station code="ANDN" name="ANDN" netid="TU" insttype="T" lat="37.58" lon="36.3452">
    <comp name="--.HHZ">
      <acc value="0.1329401271" flag="0"/>
      <vel value="0.0937544788" flag="0"/>
      <psa03 value="0.2524748293" flag="0"/>
      <psa10 value="0.0964211937" flag="0"/>
      <psa30 value="0.0075038884" flag="0"/>
    </comp>
    <comp name="--.HHE">
      <acc value="0.2485007697" flag="0"/>
      <vel value="0.1096439951" flag="0"/>
      <psa03 value="0.3170797950" flag="0"/>
      <psa10 value="0.1644768912" flag="0"/>
      <psa30 value="0.0078624204" flag="0"/>
    </comp>
    <comp name="--.HHN">
      <acc value="0.2517121689" flag="0"/>
      <vel value="0.0954886512" flag="0"/>
      <psa03 value="0.3428962178" flag="0"/>
      <psa10 value="0.0985941228" flag="0"/>
      <psa30 value="0.0080964705" flag="0"/>
    </comp>
  </station>
</stationlist>
