<?xml version="1.0" encoding="UTF-8" standalone="yes"?>
<!DOCTYPE earthquake SYSTEM "stationlist.dtd">
<stationlist created="" xmlns="ch.ethz.sed.shakemap.usgs.xml">
  <station code="BNN" name="BNN" netid="KO" insttype="CMG-3T" lat="38.8521" lon="35.8472">
    <comp name="--.HHE">
      <acc value="0.0103517316" flag="0"/>
      <vel value="0.0108040584" flag="0"/>
      <psa03 value="0.0265981085" flag="0"/>
      <psa10 value="0.0160728644" flag="0"/>
      <psa30 value="0.0011038315" flag="0"/>
    </comp>
    <comp name="--.HHN">
      <acc value="0.0083576357" flag="0"/>
      <vel value="0.0083498526" flag="0"/>
      <psa03 value="0.0144428127" flag="0"/>
      <psa10 value="0.0141874067" flag="0"/>
      <psa30 value="0.0011324746" flag="0"/>
    </comp>
    <comp name="--.HHZ">
      <acc value="0.0052557540" flag="0"/>
      <vel value="0.0049299878" flag="0"/>
      <psa03 value="0.0128577512" flag="0"/>
      <psa10 value="0.0123934149" flag="0"/>
      <psa30 value="0.0006689070" flag="0"/>
    </comp>
  </station>
  <station code="DARE" name="DARE" netid="KO" insttype="CMG-3ESP" lat="38.5712" lon="37.4832">
    <comp name="--.HHN">
      <acc value="0.0061754457" flag="0"/>
      <vel value="0.0052190005" flag="0"/>
      <psa03 value="0.0244846670" flag="0"/>
      <psa10 value="0.0064796243" flag="0"/>
      <psa30 value="0.0005481498" flag="0"/>
    </comp>
    <comp name="--.HHZ">
      <acc value="0.0058417269" flag="0"/>
      <vel value="0.0043114769" flag="0"/>
      <psa03 value="0.0153171558" flag="0"/>
      <psa10 value="0.0057779887" flag="0"/>
      <psa30 value="0.0004586202" flag="0"/>
    </comp>
    <comp name="--.HHE">
      <acc value="0.0063296499" flag="0"/>
      <vel value="0.0044724888" flag="0"/>
      <psa03 value="0.0197422924" flag="0"/>
      <psa10 value="0.0088354484" flag="0"/>
      <psa30 value="0.0004424009" flag="0"/>
    </comp>
  </station>
  <station code="GAZ" name="GAZ" netid="KO" insttype="CMG-3T" lat="37.1721" lon="37.2096">
    <comp name="--.HHE">
      <acc value="0.0584081624" flag="0"/>
      <vel value="0.0343979289" flag="0"/>
      <psa03 value="0.1318553186" flag="0"/>
      <psa10 value="0.0395193406" flag="0"/>
      <psa30 value="0.0018719415" flag="0"/>
    </comp>
    <comp name="--.HHZ">
      <acc value="0.0479934589" flag="0"/>
      <vel value="0.0276539253" flag="0"/>
      <psa03 value="0.1396702179" flag="0"/>
      <psa10 value="0.0214694190" flag="0"/>
      <psa30 value="0.0011115847" flag="0"/>
    </comp>
    <comp name="--.HHN">
      <acc value="0.0770977380" flag="0"/>
      <vel value="0.0551941822" flag="0"/>
      <psa03 value="0.2020052215" flag="0"/>
      <psa10 value="0.0308363419" flag="0"/>
      <psa30 value="0.0018808367" flag="0"/>
    </comp>
  </station>
  <station code="KHMN" name="KHMN" netid="KO" insttype="CMG-5T" lat="37.3916" lon="37.1574">
    <comp name="--.HNE">
      <acc value="0.1007010246" flag="0"/>
      <vel value="0.0418886013" flag="0"/>
      <psa03 value="0.1786391546" flag="0"/>
      <psa10 value="0.0240972245" flag="0"/>
      <psa30 value="0.0016733100" flag="0"/>
    </comp>
    <comp name="--.HNN">
      <acc value="0.0564431851" flag="0"/>
      <vel value="0.0168475233" flag="0"/>
      <psa03 value="0.0762646566" flag="0"/>
      <psa10 value="0.0179094764" flag="0"/>
      <psa30 value="0.0022615496" flag="0"/>
    </comp>
    <comp name="--.HNZ">
      <acc value="0.0344016904" flag="0"/>
      <vel value="0.0107002411" flag="0"/>
      <psa03 value="0.0713441623" flag="0"/>
      <psa10 value="0.0086325876" flag="0"/>
      <psa30 value="0.0016821393" flag="0"/>
    </comp>
  </station>
  <station code="KMRS" name="KMRS" netid="KO" insttype="CMG-3T" lat="37.5053" lon="36.9">
    <comp name="--.HHE">
      <acc value="0.1963174429" flag="0"/>
      <vel value="0.0753771228" flag="0"/>
      <psa03 value="0.3154429460" flag="0"/>
      <psa10 value="0.0490920667" flag="0"/>
      <psa30 value="0.0035556500" flag="0"/>
    </comp>
    <comp name="--.HHN">
      <acc value="0.3333241382" flag="0"/>
      <vel value="0.1630584133" flag="0"/>
      <psa03 value="0.9681623572" flag="0"/>
      <psa10 value="0.0519207655" flag="0"/>
      <psa30 value="0.0042303758" flag="0"/>
    </comp>
  </station>
  <station code="SARI" name="SARI" netid="KO" insttype="CMG-3T" lat="38.4072" lon="36.4181">
    <comp name="--.HHE">
      <acc value="0.0429479656" flag="0"/>
      <vel value="0.0187895558" flag="0"/>
      <psa03 value="0.0716497445" flag="0"/>
      <psa10 value="0.0160804951" flag="0"/>
      <psa30 value="0.0011131149" flag="0"/>
    </comp>
    <comp name="--.HHN">
      <acc value="0.0422232178" flag="0"/>
      <vel value="0.0184341732" flag="0"/>
      <psa03 value="0.0818121684" flag="0"/>
      <psa10 value="0.0136203958" flag="0"/>
      <psa30 value="0.0014334597" flag="0"/>
    </comp>
    <comp name="--.HHZ">
      <acc value="0.0288158789" flag="0"/>
      <vel value="0.0187011676" flag="0"/>
      <psa03 value="0.0716219327" flag="0"/>
      <psa10 value="0.0260910902" flag="0"/>
      <psa30 value="0.0013912007" flag="0"/>
    </comp>
  </station>
  <station code="ANDN" name="ANDN" netid="TU" insttype="T" lat="37.58" lon="36.3452">
    <comp name="--.HHE">
      <acc value="0.2485007693" flag="0"/>
      <vel value="0.1096439942" flag="0"/>
      <psa03 value="0.3170797950" flag="0"/>
      <psa10 value="0.1644768931" flag="0"/>
      <psa30 value="0.0078627158" flag="0"/>
    </comp>
    <comp name="--.HHN">
      <acc value="0.2517121692" flag="0"/>
      <vel value="0.0954886509" flag="0"/>
      <psa03 value="0.3428962178" flag="0"/>
      <psa10 value="0.0985941228" flag="0"/>
      <psa30 value="0.0080963909" flag="0"/>
    </comp>
    <comp name="--.HHZ">
      <acc value="0.1329401267" flag="0"/>
      <vel value="0.0937544781" flag="0"/>
      <psa03 value="0.2524748293" flag="0"/>
      <psa10 value="0.0964211933" flag="0"/>
      <psa30 value="0.0075037565" flag="0"/>
    </comp>
  </station>
</stationlist>
