<?xml version="1.0" encoding="UTF-8" standalone="yes"?>
<!DOCTYPE earthquake SYSTEM "stationlist.dtd">
<stationlist created="" xmlns="ch.ethz.sed.shakemap.usgs.xml">
  <station code="CGAU" name="CGAU" netid="2I" insttype="" commtype="DIG" lat="40.8524" lon="14.113">
    <comp name="--.HHE">
      <acc value="1.4745534438" flag="0"/>
      <vel value="0.3763933579" flag="0"/>
      <psa03 value="1.3376794920" flag="0"/>
      <psa10 value="0.2613489558" flag="0"/>
      <psa30 value="0.0190373428" flag="0"/>
    </comp>
    <comp name="--.HHN">
      <acc value="1.4554427516" flag="0"/>
      <vel value="0.5565745430" flag="0"/>
      <psa03 value="2.3566795339" flag="0"/>
      <psa10 value="0.2784267490" flag="0"/>
      <psa30 value="0.0343456273" flag="0"/>
    </comp>
    <comp name="--.HHZ">
      <acc value="1.3104212517" flag="0"/>
      <vel value="0.2271412607" flag="0"/>
      <psa03 value="1.1643382739" flag="0"/>
      <psa10 value="0.1610855837" flag="0"/>
      <psa30 value="0.0174768421" flag="0"/>
    </comp>
  </station>
  <station code="CLAC" name="CLAC" netid="2I" insttype="" commtype="DIG" lat="40.8836" lon="14.0706">
    <comp name="--.HHE">
      <acc value="0.2266975405" flag="0"/>
      <vel value="0.1681430446" flag="0"/>
      <psa03 value="0.6159073752" flag="0"/>
      <psa10 value="0.1220152526" flag="0"/>
      <psa30 value="0.0159580625" flag="0"/>
    </comp>
    <comp name="--.HHN">
      <acc value="0.2338126651" flag="0"/>
      <vel value="0.1130742689" flag="0"/>
      <psa03 value="0.4402491714" flag="0"/>
      <psa10 value="0.1088043829" flag="0"/>
      <psa30 value="0.0139894608" flag="0"/>
    </comp>
    <comp name="--.HHZ">
      <acc value="0.2498968237" flag="0"/>
      <vel value="0.0757063564" flag="0"/>
      <psa03 value="0.5452304062" flag="0"/>
      <psa10 value="0.1083456868" flag="0"/>
      <psa30 value="0.0073453937" flag="0"/>
    </comp>
  </station>
  <station code="CREM" name="CREM" netid="2I" insttype="" commtype="DIG" lat="40.8235" lon="14.1282">
    <comp name="--.HNE">
      <acc value="3.1936511055" flag="0"/>
      <vel value="1.1846564799" flag="0"/>
      <psa03 value="6.4778871459" flag="0"/>
      <psa10 value="0.9720624813" flag="0"/>
      <psa30 value="0.0612377073" flag="0"/>
    </comp>
    <comp name="--.HNN">
      <acc value="4.4539612468" flag="0"/>
      <vel value="1.1358544369" flag="0"/>
      <psa03 value="5.9615505840" flag="0"/>
      <psa10 value="0.3274533830" flag="0"/>
      <psa30 value="0.0314061981" flag="0"/>
    </comp>
    <comp name="--.HNZ">
      <acc value="3.5480294500" flag="0"/>
      <vel value="0.9080030191" flag="0"/>
      <psa03 value="4.5836625509" flag="0"/>
      <psa10 value="0.3938441347" flag="0"/>
      <psa30 value="0.0281061106" flag="0"/>
    </comp>
  </station>
  <station code="CSOC" name="CSOC" netid="2I" insttype="" commtype="DIG" lat="40.8416" lon="14.2125">
    <comp name="--.HNE">
      <acc value="0.2059319280" flag="0"/>
      <vel value="0.1354593036" flag="0"/>
      <psa03 value="0.6674658493" flag="0"/>
      <psa10 value="0.1232281214" flag="0"/>
      <psa30 value="0.0272282194" flag="0"/>
    </comp>
    <comp name="--.HNN">
      <acc value="0.2002307527" flag="0"/>
      <vel value="0.1292399772" flag="0"/>
      <psa03 value="0.6318502295" flag="0"/>
      <psa10 value="0.1627857656" flag="0"/>
      <psa30 value="0.0262802988" flag="0"/>
    </comp>
    <comp name="--.HNZ">
      <acc value="0.1893636458" flag="0"/>
      <vel value="0.0894964828" flag="0"/>
      <psa03 value="0.2241563797" flag="0"/>
      <psa10 value="0.1496820867" flag="0"/>
      <psa30 value="0.0220646459" flag="0"/>
    </comp>
  </station>
  <station code="VSVT" name="VSVT" netid="2I" insttype="" commtype="DIG" lat="40.8229" lon="14.3692">
    <comp name="--.HNN">
      <acc value="0.0452327018" flag="0"/>
      <vel value="0.0285070522" flag="0"/>
      <psa03 value="0.0868799944" flag="0"/>
      <psa10 value="0.0526015860" flag="0"/>
      <psa30 value="0.0081857665" flag="0"/>
    </comp>
    <comp name="--.HNE">
      <acc value="0.0525647504" flag="0"/>
      <vel value="0.0267991176" flag="0"/>
      <psa03 value="0.0773188648" flag="0"/>
      <psa10 value="0.0339916004" flag="0"/>
      <psa30 value="0.0090456704" flag="0"/>
    </comp>
    <comp name="--.HNZ">
      <acc value="0.0475340973" flag="0"/>
      <vel value="0.0252076381" flag="0"/>
      <psa03 value="0.0719604222" flag="0"/>
      <psa10 value="0.0316403419" flag="0"/>
      <psa30 value="0.0064968852" flag="0"/>
    </comp>
  </station>
  <station code="CAMPI" name="CAMPI" netid="GX" insttype="Trillium Compact" commtype="DIG" lat="40.7071" lon="15.2738">
    <comp name="--.HHZ">
      <acc value="0.0017959917" flag="0"/>
      <vel value="0.0015142086" flag="0"/>
      <psa03 value="0.0021845168" flag="0"/>
      <psa10 value="0.0037073798" flag="0"/>
      <psa30 value="0.0003513005" flag="0"/>
    </comp>
    <comp name="--.HHN">
      <acc value="0.0015258117" flag="0"/>
      <vel value="0.0020783905" flag="0"/>
      <psa03 value="0.0029284777" flag="0"/>
      <psa10 value="0.0057035669" flag="0"/>
      <psa30 value="0.0006264335" flag="0"/>
    </comp>
    <comp name="--.HHE">
      <acc value="0.0020459616" flag="0"/>
      <vel value="0.0024265038" flag="0"/>
      <psa03 value="0.0054711118" flag="0"/>
      <psa10 value="0.0059213317" flag="0"/>
      <psa30 value="0.0007132858" flag="0"/>
    </comp>
  </station>
  <station code="BSSO" name="BSSO" netid="IV" insttype="" commtype="DIG" lat="41.5461" lon="14.5938">
    <comp name="--.HHE">
      <acc value="0.0007503428" flag="0"/>
      <vel value="0.0011631395" flag="0"/>
      <psa03 value="0.0031454789" flag="0"/>
      <psa10 value="0.0013400155" flag="0"/>
      <psa30 value="0.0010440653" flag="0"/>
    </comp>
    <comp name="--.HHZ">
      <acc value="0.0004955323" flag="0"/>
      <vel value="0.0008937290" flag="0"/>
      <psa03 value="0.0022198887" flag="0"/>
      <psa10 value="0.0012554329" flag="0"/>
      <psa30 value="0.0006881696" flag="0"/>
    </comp>
    <comp name="--.HHN">
      <acc value="0.0006242623" flag="0"/>
      <vel value="0.0012343305" flag="0"/>
      <psa03 value="0.0018577878" flag="0"/>
      <psa10 value="0.0014084570" flag="0"/>
      <psa30 value="0.0006174688" flag="0"/>
    </comp>
  </station>
  <station code="CAAM" name="CAAM" netid="IV" insttype="" commtype="DIG" lat="40.8201" lon="14.142">
    <comp name="--.HNE">
      <acc value="2.0262997408" flag="0"/>
      <vel value="0.7508172187" flag="0"/>
      <psa03 value="1.8325094703" flag="0"/>
      <psa10 value="0.9036500063" flag="0"/>
      <psa30 value="0.0688369760" flag="0"/>
    </comp>
    <comp name="--.HNN">
      <acc value="1.9107259100" flag="0"/>
      <vel value="0.4856258351" flag="0"/>
      <psa03 value="1.3718185446" flag="0"/>
      <psa10 value="0.4136279175" flag="0"/>
      <psa30 value="0.0767746379" flag="0"/>
    </comp>
    <comp name="--.HNZ">
      <acc value="1.5677314813" flag="0"/>
      <vel value="0.4874836317" flag="0"/>
      <psa03 value="2.7580376608" flag="0"/>
      <psa10 value="0.2855430802" flag="0"/>
      <psa30 value="0.0613805278" flag="0"/>
    </comp>
  </station>
  <station code="CAFE" name="CAFE" netid="IV" insttype="" commtype="DIG" lat="41.028" lon="15.2366">
    <comp name="--.HHE">
      <acc value="0.0013422064" flag="0"/>
      <vel value="0.0018806696" flag="0"/>
      <psa03 value="0.0049138371" flag="0"/>
      <psa10 value="0.0030044118" flag="0"/>
      <psa30 value="0.0011826952" flag="0"/>
    </comp>
    <comp name="--.HHN">
      <acc value="0.0009740223" flag="0"/>
      <vel value="0.0019100664" flag="0"/>
      <psa03 value="0.0034229808" flag="0"/>
      <psa10 value="0.0030078772" flag="0"/>
      <psa30 value="0.0008342077" flag="0"/>
    </comp>
    <comp name="--.HHZ">
      <acc value="0.0008176081" flag="0"/>
      <vel value="0.0013775315" flag="0"/>
      <psa03 value="0.0029806726" flag="0"/>
      <psa10 value="0.0010882789" flag="0"/>
      <psa30 value="0.0007649229" flag="0"/>
    </comp>
  </station>
  <station code="CAWE" name="CAWE" netid="IV" insttype="" commtype="DIG" lat="40.8405" lon="14.1393">
    <comp name="--.HNE">
      <acc value="2.0145742626" flag="0"/>
      <vel value="1.0857829974" flag="0"/>
      <psa03 value="5.7450519813" flag="0"/>
      <psa10 value="1.1944159918" flag="0"/>
      <psa30 value="0.0633183640" flag="0"/>
    </comp>
    <comp name="--.HNN">
      <acc value="2.4301527927" flag="0"/>
      <vel value="1.1686560274" flag="0"/>
      <psa03 value="4.4716272850" flag="0"/>
      <psa10 value="0.9072792026" flag="0"/>
      <psa30 value="0.1034828615" flag="0"/>
    </comp>
    <comp name="--.HNZ">
      <acc value="2.1623255462" flag="0"/>
      <vel value="0.6894524558" flag="0"/>
      <psa03 value="3.7028392644" flag="0"/>
      <psa10 value="0.4083103665" flag="0"/>
      <psa30 value="0.0610358766" flag="0"/>
    </comp>
  </station>
  <station code="CBAC" name="CBAC" netid="IV" insttype="" commtype="DIG" lat="40.8109" lon="14.0806">
    <comp name="--.HNE">
      <acc value="2.2702743831" flag="0"/>
      <vel value="0.4792086560" flag="0"/>
      <psa03 value="1.5375067167" flag="0"/>
      <psa10 value="0.4060233774" flag="0"/>
      <psa30 value="0.0262310895" flag="0"/>
    </comp>
    <comp name="--.HNN">
      <acc value="4.3051215252" flag="0"/>
      <vel value="0.8383615494" flag="0"/>
      <psa03 value="2.0992936797" flag="0"/>
      <psa10 value="0.5267646637" flag="0"/>
      <psa30 value="0.0538065404" flag="0"/>
    </comp>
    <comp name="--.HNZ">
      <acc value="2.0140680905" flag="0"/>
      <vel value="0.2696765244" flag="0"/>
      <psa03 value="1.5066652802" flag="0"/>
      <psa10 value="0.1699052424" flag="0"/>
      <psa30 value="0.0207155160" flag="0"/>
    </comp>
  </station>
  <station code="CDRU" name="CDRU" netid="IV" insttype="" commtype="DIG" lat="40.4896" lon="15.3046">
    <comp name="--.HHE">
      <acc value="0.0012402692" flag="0"/>
      <vel value="0.0004901585" flag="0"/>
      <psa03 value="0.0021794967" flag="0"/>
      <psa10 value="0.0007099291" flag="0"/>
      <psa30 value="0.0001827606" flag="0"/>
    </comp>
    <comp name="--.HHN">
      <acc value="0.0004575585" flag="0"/>
      <vel value="0.0006269095" flag="0"/>
      <psa03 value="0.0012885082" flag="0"/>
      <psa10 value="0.0014020096" flag="0"/>
      <psa30 value="0.0001734375" flag="0"/>
    </comp>
    <comp name="--.HHZ">
      <acc value="0.0004516082" flag="0"/>
      <vel value="0.0005016483" flag="0"/>
      <psa03 value="0.0009862440" flag="0"/>
      <psa10 value="0.0007074646" flag="0"/>
      <psa30 value="0.0001479293" flag="0"/>
    </comp>
  </station>
  <station code="CERA" name="CERA" netid="IV" insttype="" commtype="DIG" lat="41.5978" lon="14.0183">
    <comp name="--.HHE">
      <acc value="0.0012650675" flag="0"/>
      <vel value="0.0013495046" flag="0"/>
      <psa03 value="0.0041388086" flag="0"/>
      <psa10 value="0.0025970188" flag="0"/>
      <psa30 value="0.0002947838" flag="0"/>
    </comp>
    <comp name="--.HHN">
      <acc value="0.0016778883" flag="0"/>
      <vel value="0.0013308202" flag="0"/>
      <psa03 value="0.0035604030" flag="0"/>
      <psa10 value="0.0021389967" flag="0"/>
      <psa30 value="0.0003118424" flag="0"/>
    </comp>
    <comp name="--.HHZ">
      <acc value="0.0007445117" flag="0"/>
      <vel value="0.0008309713" flag="0"/>
      <psa03 value="0.0024152892" flag="0"/>
      <psa10 value="0.0011658571" flag="0"/>
      <psa30 value="0.0001168159" flag="0"/>
    </comp>
  </station>
  <station code="CFMN" name="CFMN" netid="IV" insttype="" commtype="DIG" lat="40.8329" lon="14.0904">
    <comp name="--.HHE">
      <acc value="2.4339015364" flag="0"/>
      <vel value="0.3079041626" flag="0"/>
      <psa03 value="0.7390688100" flag="0"/>
      <psa10 value="0.1705398427" flag="0"/>
      <psa30 value="0.0284394540" flag="0"/>
    </comp>
    <comp name="--.HHN">
      <acc value="2.3928866115" flag="0"/>
      <vel value="0.3218766644" flag="0"/>
      <psa03 value="1.5075015981" flag="0"/>
      <psa10 value="0.1998837815" flag="0"/>
      <psa30 value="0.0472751454" flag="0"/>
    </comp>
    <comp name="--.HHZ">
      <acc value="3.1563529762" flag="0"/>
      <vel value="0.2816503740" flag="0"/>
      <psa03 value="0.9774622917" flag="0"/>
      <psa10 value="0.1485743224" flag="0"/>
      <psa30 value="0.0115475779" flag="0"/>
    </comp>
  </station>
  <station code="CMIS" name="CMIS" netid="IV" insttype="" commtype="DIG" lat="40.7782" lon="14.089">
    <comp name="--.HNE">
      <acc value="3.0658866011" flag="0"/>
      <vel value="1.2965564529" flag="0"/>
      <psa03 value="6.7785931188" flag="0"/>
      <psa10 value="0.6499084433" flag="0"/>
      <psa30 value="0.0681375906" flag="0"/>
    </comp>
    <comp name="--.HNN">
      <acc value="2.6246912740" flag="0"/>
      <vel value="1.3468438374" flag="0"/>
      <psa03 value="5.4331189784" flag="0"/>
      <psa10 value="0.9061107110" flag="0"/>
      <psa30 value="0.0986336705" flag="0"/>
    </comp>
    <comp name="--.HNZ">
      <acc value="1.5101792119" flag="0"/>
      <vel value="0.5761677749" flag="0"/>
      <psa03 value="2.8565352459" flag="0"/>
      <psa10 value="0.2467695809" flag="0"/>
      <psa30 value="0.0428750416" flag="0"/>
    </comp>
  </station>
  <station code="CMPR" name="CMPR" netid="IV" insttype="" commtype="DIG" lat="40.3181" lon="15.303">
    <comp name="--.HHE">
      <acc value="0.0006246533" flag="0"/>
      <vel value="0.0006600135" flag="0"/>
      <psa03 value="0.0016947686" flag="0"/>
      <psa10 value="0.0013801975" flag="0"/>
      <psa30 value="0.0001651190" flag="0"/>
    </comp>
    <comp name="--.HHN">
      <acc value="0.0006374955" flag="0"/>
      <vel value="0.0005700931" flag="0"/>
      <psa03 value="0.0018747725" flag="0"/>
      <psa10 value="0.0007004504" flag="0"/>
      <psa30 value="0.0002116440" flag="0"/>
    </comp>
    <comp name="--.HHZ">
      <acc value="0.0004970589" flag="0"/>
      <vel value="0.0004463971" flag="0"/>
      <psa03 value="0.0011942477" flag="0"/>
      <psa10 value="0.0011313878" flag="0"/>
      <psa30 value="0.0001733805" flag="0"/>
    </comp>
  </station>
  <station code="CNIS" name="CNIS" netid="IV" insttype="" commtype="DIG" lat="40.7982" lon="14.1632">
    <comp name="--.HHE">
      <acc value="0.3822675673" flag="0"/>
      <vel value="0.3564579902" flag="0"/>
      <psa03 value="0.7418424817" flag="0"/>
      <psa10 value="0.6791062461" flag="0"/>
      <psa30 value="0.0375430190" flag="0"/>
    </comp>
    <comp name="--.HHN">
      <acc value="0.2950423936" flag="0"/>
      <vel value="0.1952742693" flag="0"/>
      <psa03 value="0.5879362902" flag="0"/>
      <psa10 value="0.2700967089" flag="0"/>
      <psa30 value="0.0420524813" flag="0"/>
    </comp>
    <comp name="--.HHZ">
      <acc value="0.6680069088" flag="0"/>
      <vel value="0.2062227314" flag="0"/>
      <psa03 value="0.6756947199" flag="0"/>
      <psa10 value="0.3943343741" flag="0"/>
      <psa30 value="0.0233189819" flag="0"/>
    </comp>
  </station>
  <station code="COLB" name="COLB" netid="IV" insttype="" commtype="DIG" lat="40.819" lon="14.1446">
    <comp name="--.HNE">
      <acc value="3.3314494261" flag="0"/>
      <vel value="0.5364414404" flag="0"/>
      <psa03 value="1.6883114150" flag="0"/>
      <psa10 value="0.5501585301" flag="0"/>
      <psa30 value="0.0545644513" flag="0"/>
    </comp>
    <comp name="--.HNN">
      <acc value="4.9289783641" flag="0"/>
      <vel value="0.4391060287" flag="0"/>
      <psa03 value="1.4414760165" flag="0"/>
      <psa10 value="0.4435013067" flag="0"/>
      <psa30 value="0.0708778164" flag="0"/>
    </comp>
    <comp name="--.HNZ">
      <acc value="3.4985444693" flag="0"/>
      <vel value="0.3493893361" flag="0"/>
      <psa03 value="1.7009287162" flag="0"/>
      <psa10 value="0.2954708413" flag="0"/>
      <psa30 value="0.0494605446" flag="0"/>
    </comp>
  </station>
  <station code="CPIS" name="CPIS" netid="IV" insttype="" commtype="DIG" lat="40.8294" lon="14.1468">
    <comp name="--.HHE">
      <acc value="2.7938938386" flag="0"/>
      <vel value="0.3726570287" flag="0"/>
      <psa03 value="0.7931912513" flag="0"/>
      <psa10 value="0.2016287404" flag="0"/>
      <psa30 value="0.0562261847" flag="0"/>
    </comp>
    <comp name="--.HHN">
      <acc value="2.2849672359" flag="0"/>
      <vel value="0.3817308553" flag="0"/>
      <psa03 value="1.2503619056" flag="0"/>
      <psa10 value="0.3322609792" flag="0"/>
      <psa30 value="0.0650931182" flag="0"/>
    </comp>
    <comp name="--.HHZ">
      <acc value="4.0748164698" flag="0"/>
      <vel value="0.3409576032" flag="0"/>
      <psa03 value="1.0968387791" flag="0"/>
      <psa10 value="0.2978743962" flag="0"/>
      <psa30 value="0.0544928608" flag="0"/>
    </comp>
  </station>
  <station code="CPOZ" name="CPOZ" netid="IV" insttype="" commtype="DIG" lat="40.8211" lon="14.1191">
    <comp name="--.HNE">
      <acc value="2.2540374678" flag="0"/>
      <vel value="1.1717146418" flag="0"/>
      <psa03 value="2.7505726106" flag="0"/>
      <psa10 value="0.6835607444" flag="0"/>
      <psa30 value="0.0631348914" flag="0"/>
    </comp>
    <comp name="--.HNN">
      <acc value="4.0265261113" flag="0"/>
      <vel value="1.4045532651" flag="0"/>
      <psa03 value="7.2466261401" flag="0"/>
      <psa10 value="0.5910255219" flag="0"/>
      <psa30 value="0.0917267604" flag="0"/>
    </comp>
    <comp name="--.HNZ">
      <acc value="3.5403494005" flag="0"/>
      <vel value="0.7129367249" flag="0"/>
      <psa03 value="3.1696881667" flag="0"/>
      <psa10 value="0.4137992562" flag="0"/>
      <psa30 value="0.0486051027" flag="0"/>
    </comp>
  </station>
  <station code="CQUE" name="CQUE" netid="IV" insttype="" commtype="DIG" lat="40.8854" lon="14.1554">
    <comp name="--.HHE">
      <acc value="0.2565724311" flag="0"/>
      <vel value="0.1255116857" flag="0"/>
      <psa03 value="1.1262505232" flag="0"/>
      <psa10 value="0.2239774084" flag="0"/>
      <psa30 value="0.0114452916" flag="0"/>
    </comp>
    <comp name="--.HHN">
      <acc value="0.2156386556" flag="0"/>
      <vel value="0.1557641281" flag="0"/>
      <psa03 value="0.6988376408" flag="0"/>
      <psa10 value="0.1473204952" flag="0"/>
      <psa30 value="0.0207703856" flag="0"/>
    </comp>
    <comp name="--.HHZ">
      <acc value="0.2239915939" flag="0"/>
      <vel value="0.0830716535" flag="0"/>
      <psa03 value="0.4984874757" flag="0"/>
      <psa10 value="0.1334717440" flag="0"/>
      <psa30 value="0.0104517213" flag="0"/>
    </comp>
  </station>
  <station code="CRTO" name="CRTO" netid="IV" insttype="" commtype="DIG" lat="40.8212" lon="14.4223">
    <comp name="--.HHE">
      <acc value="0.0894940157" flag="0"/>
      <vel value="0.0557222585" flag="0"/>
      <psa03 value="0.2982290511" flag="0"/>
      <psa10 value="0.1254352912" flag="0"/>
      <psa30 value="0.0077601854" flag="0"/>
    </comp>
    <comp name="--.HHN">
      <acc value="0.0628220072" flag="0"/>
      <vel value="0.0374314567" flag="0"/>
      <psa03 value="0.1380870410" flag="0"/>
      <psa10 value="0.0645922299" flag="0"/>
      <psa30 value="0.0063128535" flag="0"/>
    </comp>
    <comp name="--.HHZ">
      <acc value="0.0686174891" flag="0"/>
      <vel value="0.0144190106" flag="0"/>
      <psa03 value="0.0904699106" flag="0"/>
      <psa10 value="0.0150391434" flag="0"/>
      <psa30 value="0.0027059391" flag="0"/>
    </comp>
  </station>
  <station code="CSFT" name="CSFT" netid="IV" insttype="" commtype="DIG" lat="40.8292" lon="14.1396">
    <comp name="--.HHE">
      <acc value="6.5527052871" flag="0"/>
      <vel value="1.4144380340" flag="0"/>
      <psa03 value="6.2431818644" flag="0"/>
