<stationlist xmlns:esm="https://esm-db.eu/esmws/shakemap/1/" created="1784512405">
	<station code="CREM" name="CREM" netid="2I" source="INGV temporary seismic network of Osservatorio Vesuviano (Mobile_Seismic_Network_OV)" insttype="" lat="40.8235" lon="14.1282" esm:processing="manual (Paolucci et al 2011)" esm:quality="good">
		<comp name="--.HNE" depth="0.0">
			<acc value="3.17701757239936" flag="0"/>
			<vel value="1.17935788349815" flag="0"/>
			<psa03 value="6.63769504805415" flag="0"/>
			<psa10 value="0.973601756338167" flag="0"/>
			<psa30 value="0.0690773427016066" flag="0"/>
		</comp>
		<comp name="--.HNN" depth="0.0">
			<acc value="4.45284100324893" flag="0"/>
			<vel value="1.15337938891409" flag="0"/>
			<psa03 value="6.04486777615683" flag="0"/>
			<psa10 value="0.327188744648574" flag="0"/>
			<psa30 value="0.0353820838894114" flag="0"/>
		</comp>
		<comp name="--.HNZ" depth="0.0">
			<acc value="3.1628940794335" flag="0"/>
			<vel value="0.927613999281614" flag="0"/>
			<psa03 value="4.72205581302296" flag="0"/>
			<psa10 value="0.39433898302231" flag="0"/>
			<psa30 value="0.0298215721994682" flag="0"/>
		</comp>
	</station>
	<station code="VSVT" name="VSVT" netid="2I" source="INGV temporary seismic network of Osservatorio Vesuviano (Mobile_Seismic_Network_OV)" insttype="" lat="40.8229" lon="14.3692" esm:processing="manual (Paolucci et al 2011)" esm:quality="good">
		<comp name="--.HNE" depth="0.0">
			<acc value="0.0524774996122667" flag="0"/>
			<vel value="0.0306953425947028" flag="0"/>
			<psa03 value="0.0771714507715424" flag="0"/>
			<psa10 value="0.0342438859893865" flag="0"/>
			<psa30 value="0.0108599060821469" flag="0"/>
		</comp>
		<comp name="--.HNN" depth="0.0">
			<acc value="0.045157017157787" flag="0"/>
			<vel value="0.0323699805919805" flag="0"/>
			<psa03 value="0.0859409900438139" flag="0"/>
			<psa10 value="0.0521385826752193" flag="0"/>
			<psa30 value="0.00674540976695897" flag="0"/>
		</comp>
		<comp name="--.HNZ" depth="0.0">
			<acc value="0.0479089766852849" flag="0"/>
			<vel value="0.0265457525519073" flag="0"/>
			<psa03 value="0.0709024677738521" flag="0"/>
			<psa10 value="0.0316125241745803" flag="0"/>
			<psa30 value="0.00399410708999265" flag="0"/>
		</comp>
	</station>
	<station code="ATSA" name="ATSA" netid="IT" source="Italian Strong Motion Network (RAN)" insttype="" lat="42.0683" lon="14.4433" esm:processing="automatic (Paolucci et al 2011)" esm:quality="good">
		<comp name="--.HNE" depth="0.0">
			<acc value="0.00021886070021213" flag="0"/>
			<vel value="0.0005425952619456" flag="0"/>
			<psa03 value="0.000229231697519221" flag="0"/>
			<psa10 value="0.000464932684274187" flag="0"/>
			<psa30 value="0.000184698081695628" flag="0"/>
		</comp>
		<comp name="--.HNN" depth="0.0">
			<acc value="0.000162250075131229" flag="0"/>
			<vel value="0.000396867437218671" flag="0"/>
			<psa03 value="0.000172413032845392" flag="0"/>
			<psa10 value="0.000492727797048372" flag="0"/>
			<psa30 value="0.000148252177750025" flag="0"/>
		</comp>
		<comp name="--.HNZ" depth="0.0">
			<acc value="0.000117383866382393" flag="0"/>
			<vel value="0.000324787236409561" flag="0"/>
			<psa03 value="0.000122640641837377" flag="0"/>
			<psa10 value="0.000328437587456406" flag="0"/>
			<psa30 value="0.000130468942406293" flag="0"/>
		</comp>
	</station>
	<station code="BAIP" name="BAIP" netid="IT" source="Italian Strong Motion Network (RAN)" insttype="" lat="40.8183" lon="14.0705" esm:processing="automatic (Paolucci et al 2011)" esm:quality="best">
		<comp name="--.HNE" depth="0.0">
			<acc value="2.68932921961046" flag="0"/>
			<vel value="0.369204637705692" flag="0"/>
			<psa03 value="2.20791809707136" flag="0"/>
			<psa10 value="0.139945185681736" flag="0"/>
			<psa30 value="0.0166649806398466" flag="0"/>
		</comp>
		<comp name="--.HNN" depth="0.0">
			<acc value="2.73788246519165" flag="0"/>
			<vel value="0.470294949915332" flag="0"/>
			<psa03 value="1.38445396328052" flag="0"/>
			<psa10 value="0.176010859855649" flag="0"/>
			<psa30 value="0.0269172097997131" flag="0"/>
		</comp>
		<comp name="--.HNZ" depth="0.0">
			<acc value="2.11101340783892" flag="0"/>
			<vel value="0.311084896290373" flag="0"/>
			<psa03 value="0.772428086236499" flag="0"/>
			<psa10 value="0.0963858325883718" flag="0"/>
			<psa30 value="0.0163550984450053" flag="0"/>
		</comp>
	</station>
	<station code="BAN" name="BAN" netid="IT" source="Italian Strong Motion Network (RAN)" insttype="" lat="40.8138" lon="14.1652" esm:processing="automatic (Paolucci et al 2011)" esm:quality="best">
		<comp name="--.HNE" depth="0.0">
			<acc value="1.09301794418331" flag="0"/>
			<vel value="0.369378955452987" flag="0"/>
			<psa03 value="1.16782961298045" flag="0"/>
			<psa10 value="0.477999105094814" flag="0"/>
			<psa30 value="0.0360942744018709" flag="0"/>
		</comp>
		<comp name="--.HNN" depth="0.0">
			<acc value="1.10701382903689" flag="0"/>
			<vel value="0.560960583358786" flag="0"/>
			<psa03 value="1.1515081984335" flag="0"/>
			<psa10 value="0.815902789555565" flag="0"/>
			<psa30 value="0.0707207249009453" flag="0"/>
		</comp>
		<comp name="--.HNZ" depth="0.0">
			<acc value="1.07124557853065" flag="0"/>
			<vel value="0.282541239827783" flag="0"/>
			<psa03 value="0.918517180588699" flag="0"/>
			<psa10 value="0.387101753591378" flag="0"/>
			<psa30 value="0.0383095078168795" flag="0"/>
		</comp>
	</station>
	<station code="BCLI" name="BCLI" netid="IT" source="Italian Strong Motion Network (RAN)" insttype="" lat="40.7968" lon="14.0777" esm:processing="automatic (Paolucci et al 2011)" esm:quality="best">
		<comp name="--.HNE" depth="0.0">
			<acc value="7.64924732723412" flag="0"/>
			<vel value="2.77880579663361" flag="0"/>
			<psa03 value="16.7021797707731" flag="0"/>
			<psa10 value="1.29316846606433" flag="0"/>
			<psa30 value="0.128525394176594" flag="0"/>
		</comp>
		<comp name="--.HNN" depth="0.0">
			<acc value="4.63038737319582" flag="0"/>
			<vel value="1.45210546129479" flag="0"/>
			<psa03 value="7.11389592735866" flag="0"/>
			<psa10 value="0.913936563811984" flag="0"/>
			<psa30 value="0.052501471298143" flag="0"/>
		</comp>
		<comp name="--.HNZ" depth="0.0">
			<acc value="3.88420776947676" flag="0"/>
			<vel value="1.27617098686226" flag="0"/>
			<psa03 value="6.99247788400918" flag="0"/>
			<psa10 value="0.445107716201723" flag="0"/>
			<psa30 value="0.0501386981093484" flag="0"/>
		</comp>
	</station>
	<station code="BEL7" name="BEL7" netid="IT" source="Italian Strong Motion Network (RAN)" insttype="" lat="40.7589" lon="15.5396" esm:processing="automatic (Paolucci et al 2011)" esm:quality="good">
		<comp name="--.HNE" depth="0.0">
			<acc value="0.0416413964913161" flag="0"/>
			<vel value="0.00206422600466306" flag="0"/>
			<psa03 value="0.000401147464350263" flag="0"/>
			<psa10 value="3.596516083571e-05" flag="0"/>
			<psa30 value="3.9964170867686e-06" flag="0"/>
		</comp>
		<comp name="--.HNN" depth="0.0">
			<acc value="0.0842111544992812" flag="0"/>
			<vel value="0.00420279336928758" flag="0"/>
			<psa03 value="0.00082295157053917" flag="0"/>
			<psa10 value="7.29532532051451e-05" flag="0"/>
			<psa30 value="8.10439104279896e-06" flag="0"/>
		</comp>
		<comp name="--.HNZ" depth="0.0">
			<acc value="0.0576503586865012" flag="0"/>
			<vel value="0.00259296082125658" flag="0"/>
			<psa03 value="0.000683678591132592" flag="0"/>
			<psa10 value="5.92515667270665e-05" flag="0"/>
			<psa30 value="6.57277753665011e-06" flag="0"/>
		</comp>
	</station>
	<station code="BNOM" name="BNOM" netid="IT" source="Italian Strong Motion Network (RAN)" insttype="" lat="41.1527" lon="14.7896" esm:processing="automatic (Paolucci et al 2011)" esm:quality="good">
		<comp name="--.HNE" depth="0.0">
			<acc value="0.00250254978581427" flag="0"/>
			<vel value="0.00333180616996115" flag="0"/>
			<psa03 value="0.00356051158256409" flag="0"/>
			<psa10 value="0.00549434506714585" flag="0"/>
			<psa30 value="0.00188330371796187" flag="0"/>
		</comp>
		<comp name="--.HNN" depth="0.0">
			<acc value="0.00169754406396203" flag="0"/>
			<vel value="0.00292589133145095" flag="0"/>
			<psa03 value="0.00316129926431141" flag="0"/>
			<psa10 value="0.00415318028406107" flag="0"/>
			<psa30 value="0.00230852480343857" flag="0"/>
		</comp>
		<comp name="--.HNZ" depth="0.0">
			<acc value="0.00108248138502581" flag="0"/>
			<vel value="0.00185755376462237" flag="0"/>
			<psa03 value="0.00180912879772702" flag="0"/>
			<psa10 value="0.00237259326640981" flag="0"/>
			<psa30 value="0.000674448949766231" flag="0"/>
		</comp>
	</station>
	<station code="BVN" name="BVN" netid="IT" source="Italian Strong Motion Network (RAN)" insttype="" lat="41.249" lon="15.3422" esm:processing="automatic (Paolucci et al 2011)" esm:quality="good">
		<comp name="--.HGE" depth="0.0">
			<acc value="0.0294572541053014" flag="0"/>
			<vel value="0.00254932298881136" flag="0"/>
			<psa03 value="0.00123402779320688" flag="0"/>
			<psa10 value="0.000103603286549119" flag="0"/>
			<psa30 value="1.14490828270585e-05" flag="0"/>
		</comp>
		<comp name="--.HGN" depth="0.0">
			<acc value="0.0594752015660476" flag="0"/>
			<vel value="0.00466933115926122" flag="0"/>
			<psa03 value="0.00186201950850829" flag="0"/>
			<psa10 value="0.000160580745108149" flag="0"/>
			<psa30 value="1.77882926448998e-05" flag="0"/>
		</comp>
		<comp name="--.HGZ" depth="0.0">
			<acc value="0.0656443658137151" flag="0"/>
			<vel value="0.00669188765489273" flag="0"/>
			<psa03 value="0.00389246651565759" flag="0"/>
			<psa10 value="0.000331932350217287" flag="0"/>
			<psa30 value="3.66935147496447e-05" flag="0"/>
		</comp>
	</station>
	<station code="EBO" name="EBO" netid="IT" source="Italian Strong Motion Network (RAN)" insttype="" lat="40.5241" lon="15.0028" esm:processing="automatic (Paolucci et al 2011)" esm:quality="good">
		<comp name="--.HGE" depth="0.0">
			<acc value="0.00429257156031268" flag="0"/>
			<vel value="0.0072073902141292" flag="0"/>
			<psa03 value="0.00476296396048697" flag="0"/>
			<psa10 value="0.0111797071632324" flag="0"/>
			<psa30 value="0.00216030956823998" flag="0"/>
		</comp>
		<comp name="--.HGN" depth="0.0">
			<acc value="0.00483338741181255" flag="0"/>
			<vel value="0.00805034964739865" flag="0"/>
			<psa03 value="0.00567078321364048" flag="0"/>
			<psa10 value="0.0143917724467934" flag="0"/>
			<psa30 value="0.00298777542545869" flag="0"/>
		</comp>
		<comp name="--.HGZ" depth="0.0">
			<acc value="0.00170210349396464" flag="0"/>
			<vel value="0.00312679358294163" flag="0"/>
			<psa03 value="0.00193673230291633" flag="0"/>
			<psa10 value="0.00596690262176465" flag="0"/>
			<psa30 value="0.00124687916212512" flag="0"/>
		</comp>
	</station>
	<station code="MPCD" name="MPCD" netid="IT" source="Italian Strong Motion Network (RAN)" insttype="" lat="40.7944" lon="14.0552" esm:processing="automatic (Paolucci et al 2011)" esm:quality="best">
		<comp name="--.HNE" depth="0.0">
			<acc value="7.53878037538424" flag="0"/>
			<vel value="0.912465921681911" flag="0"/>
			<psa03 value="3.18883824488372" flag="0"/>
			<psa10 value="0.337558211574867" flag="0"/>
			<psa30 value="0.0369236326761197" flag="0"/>
		</comp>
		<comp name="--.HNN" depth="0.0">
			<acc value="4.48606133838551" flag="0"/>
			<vel value="0.884894421771814" flag="0"/>
			<psa03 value="3.42388048194506" flag="0"/>
			<psa10 value="0.237233515556124" flag="0"/>
			<psa30 value="0.0248113819656206" flag="0"/>
		</comp>
		<comp name="--.HNZ" depth="0.0">
			<acc value="3.46405071769395" flag="0"/>
			<vel value="0.582991499132402" flag="0"/>
			<psa03 value="2.79926910450674" flag="0"/>
			<psa10 value="0.158691657543494" flag="0"/>
			<psa30 value="0.028052811694432" flag="0"/>
		</comp>
	</station>
	<station code="MRC" name="MRC" netid="IT" source="Italian Strong Motion Network (RAN)" insttype="" lat="41.3444" lon="14.6941" esm:processing="automatic (Paolucci et al 2011)" esm:quality="good">
		<comp name="--.HGE" depth="0.0">
			<acc value="0.00420711058272992" flag="0"/>
			<vel value="0.00624319014051191" flag="0"/>
			<psa03 value="0.00737050714013379" flag="0"/>
			<psa10 value="0.0069388470083102" flag="0"/>
			<psa30 value="0.0028685323178547" flag="0"/>
		</comp>
		<comp name="--.HGN" depth="0.0">
			<acc value="0.00445466053418879" flag="0"/>
			<vel value="0.00562877701227309" flag="0"/>
			<psa03 value="0.00513547887214666" flag="0"/>
			<psa10 value="0.00859469373127912" flag="0"/>
			<psa30 value="0.00168384508813987" flag="0"/>
		</comp>
		<comp name="--.HGZ" depth="0.0">
			<acc value="0.00516163223152873" flag="0"/>
			<vel value="0.00399482010067484" flag="0"/>
			<psa03 value="0.00567144211145589" flag="0"/>
			<psa10 value="0.0087587680378967" flag="0"/>
			<psa30 value="0.00121560136095763" flag="0"/>
		</comp>
	</station>
	<station code="NAAG" name="NAAG" netid="IT" source="Italian Strong Motion Network (RAN)" insttype="" lat="40.8334" lon="14.1657" esm:processing="automatic (Paolucci et al 2011)" esm:quality="best">
		<comp name="--.HNE" depth="0.0">
			<acc value="0.80545021293092" flag="0"/>
			<vel value="0.529045479358382" flag="0"/>
			<psa03 value="2.32211749555439" flag="0"/>
			<psa10 value="0.477276957256064" flag="0"/>
			<psa30 value="0.0452930171067634" flag="0"/>
		</comp>
		<comp name="--.HNN" depth="0.0">
			<acc value="1.00489353123175" flag="0"/>
			<vel value="0.617898098312195" flag="0"/>
			<psa03 value="3.74484374418598" flag="0"/>
			<psa10 value="0.608623318307869" flag="0"/>
			<psa30 value="0.0537240256197001" flag="0"/>
		</comp>
		<comp name="--.HNZ" depth="0.0">
			<acc value="0.382174335772884" flag="0"/>
			<vel value="0.188528767158217" flag="0"/>
			<psa03 value="0.646459741451878" flag="0"/>
			<psa10 value="0.123909798416027" flag="0"/>
			<psa30 value="0.0265174083148268" flag="0"/>
		</comp>
	</station>
	<station code="NABA" name="NABA" netid="IT" source="Italian Strong Motion Network (RAN)" insttype="" lat="40.8188" lon="14.1611" esm:processing="automatic (Paolucci et al 2011)" esm:quality="best">
		<comp name="--.HNE" depth="0.0">
			<acc value="2.42481204932768" flag="0"/>
			<vel value="0.791961043311498" flag="0"/>
			<psa03 value="2.29670147853466" flag="0"/>
			<psa10 value="0.824036328362593" flag="0"/>
			<psa30 value="0.0699720686394756" flag="0"/>
		</comp>
		<comp name="--.HNN" depth="0.0">
			<acc value="2.14201091139292" flag="0"/>
			<vel value="0.593094793047839" flag="0"/>
			<psa03 value="3.51932947163886" flag="0"/>
			<psa10 value="0.800787008209235" flag="0"/>
			<psa30 value="0.0677136590309227" flag="0"/>
		</comp>
		<comp name="--.HNZ" depth="0.0">
			<acc value="1.97950849850369" flag="0"/>
			<vel value="0.38477719339025" flag="0"/>
			<psa03 value="0.996505180244264" flag="0"/>
			<psa10 value="0.208694995019198" flag="0"/>
			<psa30 value="0.0481350353765258" flag="0"/>
		</comp>
	</station>
	<station code="NACO" name="NACO" netid="IT" source="Italian Strong Motion Network (RAN)" insttype="" lat="40.8049" lon="14.1744" esm:processing="manual (Paolucci et al 2011)" esm:quality="good">
		<comp name="--.HNE" depth="0.0">
			<acc value="0.724103809657805" flag="0"/>
			<vel value="0.590783026856356" flag="0"/>
			<psa03 value="1.32074090927005" flag="0"/>
			<psa10 value="0.459983421644202" flag="0"/>
			<psa30 value="0.051684093817563" flag="0"/>
		</comp>
		<comp name="--.HNN" depth="0.0">
			<acc value="0.771100026909608" flag="0"/>
			<vel value="0.370797263877073" flag="0"/>
			<psa03 value="1.72011244900787" flag="0"/>
			<psa10 value="0.664217361140366" flag="0"/>
			<psa30 value="0.0462244154740008" flag="0"/>
		</comp>
		<comp name="--.HNZ" depth="0.0">
			<acc value="0.406203707303055" flag="0"/>
			<vel value="0.242819273663701" flag="0"/>
			<psa03 value="0.826453415149397" flag="0"/>
			<psa10 value="0.339111144449048" flag="0"/>
			<psa30 value="0.0327862519282837" flag="0"/>
		</comp>
	</station>
	<station code="NAFG" name="NAFG" netid="IT" source="Italian Strong Motion Network (RAN)" insttype="" lat="40.8202" lon="14.1786" esm:processing="automatic (Paolucci et al 2011)" esm:quality="best">
		<comp name="--.HNE" depth="0.0">
			<acc value="0.640775803777548" flag="0"/>
			<vel value="0.307157647238865" flag="0"/>
			<psa03 value="0.859110911881614" flag="0"/>
			<psa10 value="0.456934169646222" flag="0"/>
			<psa30 value="0.0551199614269298" flag="0"/>
		</comp>
		<comp name="--.HNN" depth="0.0">
			<acc value="0.76280903920798" flag="0"/>
			<vel value="0.515670912816392" flag="0"/>
			<psa03 value="0.685582458139854" flag="0"/>
			<psa10 value="0.840239621751259" flag="0"/>
			<psa30 value="0.0569123434967787" flag="0"/>
		</comp>
		<comp name="--.HNZ" depth="0.0">
			<acc value="0.391396086485487" flag="0"/>
			<vel value="0.20719587522624" flag="0"/>
			<psa03 value="0.696732530110734" flag="0"/>
			<psa10 value="0.337854451199288" flag="0"/>
			<psa30 value="0.0231585424731159" flag="0"/>
		</comp>
	</station>
	<station code="NAP" name="NAP" netid="IT" source="Italian Strong Motion Network (RAN)" insttype="" lat="40.7992" lon="14.1796" esm:processing="automatic (Paolucci et al 2011)" esm:quality="best">
		<comp name="--.HGE" depth="0.0">
			<acc value="1.23638303891777" flag="0"/>
			<vel value="0.509698421721655" flag="0"/>
			<psa03 value="1.16541611976504" flag="0"/>
			<psa10 value="0.626287768491001" flag="0"/>
			<psa30 value="0.0710453864081768" flag="0"/>
		</comp>
		<comp name="--.HGN" depth="0.0">
			<acc value="1.30908269126442" flag="0"/>
			<vel value="0.358285136352296" flag="0"/>
			<psa03 value="1.04445494001386" flag="0"/>
			<psa10 value="0.322825045574926" flag="0"/>
			<psa30 value="0.0474274385017056" flag="0"/>
		</comp>
		<comp name="--.HGZ" depth="0.0">
			<acc value="0.870739263170106" flag="0"/>
			<vel value="0.273481151181045" flag="0"/>
			<psa03 value="0.831469914134502" flag="0"/>
			<psa10 value="0.261740849046692" flag="0"/>
			<psa30 value="0.034600348769963" flag="0"/>
		</comp>
	</station>
	<station code="POZB" name="POZB" netid="IT" source="Italian Strong Motion Network (RAN)" insttype="" lat="40.8401" lon="14.1012" esm:processing="automatic (Paolucci et al 2011)" esm:quality="best">
		<comp name="--.HNE" depth="0.0">
			<acc value="1.36640747269158" flag="0"/>
			<vel value="0.644388359706038" flag="0"/>
			<psa03 value="2.90658721380479" flag="0"/>
			<psa10 value="0.414944198016678" flag="0"/>
			<psa30 value="0.0315849856836238" flag="0"/>
		</comp>
		<comp name="--.HNN" depth="0.0">
			<acc value="1.60938340578263" flag="0"/>
			<vel value="0.693440024205197" flag="0"/>
			<psa03 value="3.05337093750611" flag="0"/>
			<psa10 value="0.349105106499986" flag="0"/>
			<psa30 value="0.0610161153515238" flag="0"/>
		</comp>
		<comp name="--.HNZ" depth="0.0">
			<acc value="1.63937440420483" flag="0"/>
			<vel value="0.392386066742556" flag="0"/>
			<psa03 value="2.01521249793784" flag="0"/>
			<psa10 value="0.199050736134378" flag="0"/>
			<psa30 value="0.0274591023641027" flag="0"/>
		</comp>
	</station>
	<station code="POZL" name="POZL" netid="IT" source="Italian Strong Motion Network (RAN)" insttype="" lat="40.8321" lon="14.0843" esm:processing="automatic (Paolucci et al 2011)" esm:quality="best">
		<comp name="--.HNE" depth="0.0">
			<acc value="2.09614324942645" flag="0"/>
			<vel value="0.310301781553983" flag="0"/>
			<psa03 value="0.603252129159615" flag="0"/>
			<psa10 value="0.272909838937458" flag="0"/>
			<psa30 value="0.0269641529094637" flag="0"/>
		</comp>
		<comp name="--.HNN" depth="0.0">
			<acc value="1.86509118373401" flag="0"/>
			<vel value="0.310354864879643" flag="0"/>
			<psa03 value="0.902077341530044" flag="0"/>
			<psa10 value="0.171542273833756" flag="0"/>
			<psa30 value="0.054699533575648" flag="0"/>
		</comp>
		<comp name="--.HNZ" depth="0.0">
			<acc value="2.51992856780074" flag="0"/>
			<vel value="0.353751017696399" flag="0"/>
			<psa03 value="1.04820127152327" flag="0"/>
