<?xml version="1.0" encoding="UTF-8" standalone="yes"?>
<!DOCTYPE earthquake SYSTEM "stationlist.dtd">
<stationlist created="" xmlns="ch.ethz.sed.shakemap.usgs.xml">
  <station code="RP05B" name="RP05B" netid="5B" insttype="Compact" commtype="DIG" lat="37.6182" lon="21.6541">
    <comp name="--.HHE">
      <acc value="0.3301552554" flag="0"/>
      <vel value="0.1780494994" flag="0"/>
      <psa03 value="1.1177879690" flag="0"/>
      <psa10 value="0.2353779279" flag="0"/>
      <psa30 value="0.0185823495" flag="0"/>
    </comp>
    <comp name="--.HHN">
      <acc value="0.4174479528" flag="0"/>
      <vel value="0.3049827073" flag="0"/>
      <psa03 value="1.0312899795" flag="0"/>
      <psa10 value="0.3096003109" flag="0"/>
      <psa30 value="0.0183407882" flag="0"/>
    </comp>
    <comp name="--.HHZ">
      <acc value="0.1493366249" flag="0"/>
      <vel value="0.0604924147" flag="0"/>
      <psa03 value="0.4819145084" flag="0"/>
      <psa10 value="0.0333672996" flag="0"/>
      <psa30 value="0.0032735580" flag="0"/>
    </comp>
  </station>
  <station code="ATHR" name="ATHR" netid="HA" insttype="GEOtiny," commtype="DIG" lat="38.3172" lon="20.4165">
    <comp name="--.HHN">
      <acc value="0.0218190138" flag="0"/>
      <vel value="0.0225769656" flag="0"/>
      <psa03 value="0.0627261304" flag="0"/>
      <psa10 value="0.0643147326" flag="0"/>
      <psa30 value="0.0078390032" flag="0"/>
    </comp>
    <comp name="--.HHE">
      <acc value="0.0290653994" flag="0"/>
      <vel value="0.0234159582" flag="0"/>
      <psa03 value="0.0432536927" flag="0"/>
      <psa10 value="0.0513116971" flag="0"/>
      <psa30 value="0.0062818551" flag="0"/>
    </comp>
    <comp name="--.HHZ">
      <acc value="0.0187102800" flag="0"/>
      <vel value="0.0164216127" flag="0"/>
      <psa03 value="0.0456317978" flag="0"/>
      <psa10 value="0.0265495118" flag="0"/>
      <psa30 value="0.0032909921" flag="0"/>
    </comp>
  </station>
  <station code="HAVD" name="HAVD" netid="HA" insttype="GEOtiny," commtype="DIG" lat="38.2036" lon="20.3848">
    <comp name="--.HHE">
      <acc value="0.0417490428" flag="0"/>
      <vel value="0.0270602260" flag="0"/>
      <psa03 value="0.1285186681" flag="0"/>
      <psa10 value="0.0585953094" flag="0"/>
      <psa30 value="0.0058139187" flag="0"/>
    </comp>
    <comp name="--.HHZ">
      <acc value="0.0358973344" flag="0"/>
      <vel value="0.0165431306" flag="0"/>
      <psa03 value="0.0627904004" flag="0"/>
      <psa10 value="0.0284230770" flag="0"/>
      <psa30 value="0.0021961468" flag="0"/>
    </comp>
    <comp name="--.HHN">
      <acc value="0.0514119810" flag="0"/>
      <vel value="0.0390129410" flag="0"/>
      <psa03 value="0.1303629424" flag="0"/>
      <psa10 value="0.0723107663" flag="0"/>
      <psa30 value="0.0045817550" flag="0"/>
    </comp>
  </station>
  <station code="AOL1" name="AOL1" netid="HI" insttype="unknown" commtype="DIG" lat="37.6424" lon="21.6246">
    <comp name="--.HNZ">
      <acc value="0.0815827212" flag="0"/>
      <vel value="0.0558437823" flag="0"/>
      <psa03 value="0.2280986073" flag="0"/>
      <psa10 value="0.0909225825" flag="0"/>
      <psa30 value="0.0054459319" flag="0"/>
    </comp>
    <comp name="--.HNE">
      <acc value="0.1238696466" flag="0"/>
      <vel value="0.0972418447" flag="0"/>
      <psa03 value="0.2635026375" flag="0"/>
      <psa10 value="0.1638939549" flag="0"/>
      <psa30 value="0.0156976276" flag="0"/>
    </comp>
    <comp name="--.HNN">
      <acc value="0.1274577094" flag="0"/>
      <vel value="0.1159493473" flag="0"/>
      <psa03 value="0.3450336152" flag="0"/>
      <psa10 value="0.1463686627" flag="0"/>
      <psa30 value="0.0195280093" flag="0"/>
    </comp>
  </station>
  <station code="ARG2" name="ARG2" netid="HI" insttype="CMG-5TD,ACCELEROMETER,GURALP" commtype="DIG" lat="38.1783" lon="20.4878">
    <comp name="--.HNE">
      <acc value="0.1068723696" flag="0"/>
      <vel value="0.0609667993" flag="0"/>
      <psa03 value="0.2084661668" flag="0"/>
      <psa10 value="0.0426559013" flag="0"/>
      <psa30 value="0.0058645651" flag="0"/>
    </comp>
    <comp name="--.HNN">
      <acc value="0.0781312017" flag="0"/>
      <vel value="0.0356911561" flag="0"/>
      <psa03 value="0.1779620119" flag="0"/>
      <psa10 value="0.0437329276" flag="0"/>
      <psa30 value="0.0062362965" flag="0"/>
    </comp>
    <comp name="--.HNZ">
      <acc value="0.0537424023" flag="0"/>
      <vel value="0.0216607149" flag="0"/>
      <psa03 value="0.1637509348" flag="0"/>
      <psa10 value="0.0224590593" flag="0"/>
      <psa30 value="0.0059115590" flag="0"/>
    </comp>
  </station>
  <station code="KAC1" name="KAC1" netid="HI" insttype="unknown" commtype="DIG" lat="38.1434" lon="21.5497">
    <comp name="--.HNZ">
      <acc value="0.0311674473" flag="0"/>
      <vel value="0.0475929875" flag="0"/>
      <psa03 value="0.0776604216" flag="0"/>
      <psa10 value="0.0609050899" flag="0"/>
      <psa30 value="0.0099251676" flag="0"/>
    </comp>
    <comp name="--.HNN">
      <acc value="0.0600809829" flag="0"/>
      <vel value="0.0568974092" flag="0"/>
      <psa03 value="0.2197733635" flag="0"/>
      <psa10 value="0.1301052809" flag="0"/>
      <psa30 value="0.0095799451" flag="0"/>
    </comp>
    <comp name="--.HNE">
      <acc value="0.0579927982" flag="0"/>
      <vel value="0.0799489499" flag="0"/>
      <psa03 value="0.2246906575" flag="0"/>
      <psa10 value="0.1461460029" flag="0"/>
      <psa30 value="0.0146541450" flag="0"/>
    </comp>
  </station>
  <station code="KYP2" name="KYP2" netid="HI" insttype="unknown" commtype="DIG" lat="37.2497" lon="21.667">
    <comp name="--.HNN">
      <acc value="0.1155247943" flag="0"/>
      <vel value="0.0495673127" flag="0"/>
      <psa03 value="0.2379941679" flag="0"/>
      <psa10 value="0.0491851401" flag="0"/>
      <psa30 value="0.0043706976" flag="0"/>
    </comp>
    <comp name="--.HNZ">
      <acc value="0.0822903150" flag="0"/>
      <vel value="0.0336961256" flag="0"/>
      <psa03 value="0.1213258980" flag="0"/>
      <psa10 value="0.0351668101" flag="0"/>
      <psa30 value="0.0033841343" flag="0"/>
    </comp>
    <comp name="--.HNE">
      <acc value="0.1058858565" flag="0"/>
      <vel value="0.0393936205" flag="0"/>
      <psa03 value="0.2484947788" flag="0"/>
      <psa10 value="0.0494522658" flag="0"/>
      <psa30 value="0.0041486089" flag="0"/>
    </comp>
  </station>
  <station code="LXR2" name="LXR2" netid="HI" insttype="unknown" commtype="DIG" lat="38.2067" lon="20.4364">
    <comp name="--.HNN">
      <acc value="0.0771417076" flag="0"/>
      <vel value="0.0773670920" flag="0"/>
      <psa03 value="0.1929074478" flag="0"/>
      <psa10 value="0.1226399812" flag="0"/>
      <psa30 value="0.0150792545" flag="0"/>
    </comp>
    <comp name="--.HNE">
      <acc value="0.0801208679" flag="0"/>
      <vel value="0.0563819307" flag="0"/>
      <psa03 value="0.1947503457" flag="0"/>
      <psa10 value="0.1422179320" flag="0"/>
      <psa30 value="0.0129987983" flag="0"/>
    </comp>
    <comp name="--.HNZ">
      <acc value="0.0573202736" flag="0"/>
      <vel value="0.0488399522" flag="0"/>
      <psa03 value="0.1746752780" flag="0"/>
      <psa10 value="0.0800706728" flag="0"/>
      <psa30 value="0.0067781969" flag="0"/>
    </comp>
  </station>
  <station code="PET1" name="PET1" netid="HI" insttype="unknown" commtype="DIG" lat="36.9639" lon="21.9254">
    <comp name="--.HNN">
      <acc value="0.1313594940" flag="0"/>
      <vel value="0.0988929689" flag="0"/>
      <psa03 value="0.3095169091" flag="0"/>
      <psa10 value="0.1079952563" flag="0"/>
      <psa30 value="0.0058590748" flag="0"/>
    </comp>
    <comp name="--.HNZ">
      <acc value="0.0472867839" flag="0"/>
      <vel value="0.0319420442" flag="0"/>
      <psa03 value="0.1267113302" flag="0"/>
      <psa10 value="0.0426739732" flag="0"/>
      <psa30 value="0.0038191236" flag="0"/>
    </comp>
    <comp name="--.HNE">
      <acc value="0.0967297547" flag="0"/>
      <vel value="0.0785010449" flag="0"/>
      <psa03 value="0.2573876961" flag="0"/>
      <psa10 value="0.1143904886" flag="0"/>
      <psa30 value="0.0070010319" flag="0"/>
    </comp>
  </station>
  <station code="PYL1" name="PYL1" netid="HI" insttype="unknown" commtype="DIG" lat="36.9142" lon="21.6952">
    <comp name="--.HNE">
      <acc value="0.0537524142" flag="0"/>
      <vel value="0.0409045548" flag="0"/>
      <psa03 value="0.1387083903" flag="0"/>
      <psa10 value="0.0521572538" flag="0"/>
      <psa30 value="0.0051870369" flag="0"/>
    </comp>
    <comp name="--.HNN">
      <acc value="0.0386836180" flag="0"/>
      <vel value="0.0369913303" flag="0"/>
      <psa03 value="0.1403688341" flag="0"/>
      <psa10 value="0.0475038618" flag="0"/>
      <psa30 value="0.0044348858" flag="0"/>
    </comp>
    <comp name="--.HNZ">
      <acc value="0.0259002553" flag="0"/>
      <vel value="0.0181807070" flag="0"/>
      <psa03 value="0.0829434719" flag="0"/>
      <psa10 value="0.0256119438" flag="0"/>
      <psa30 value="0.0027782789" flag="0"/>
    </comp>
  </station>
  <station code="VSK1" name="VSK1" netid="HI" insttype="unknown" commtype="DIG" lat="38.4091" lon="20.564">
    <comp name="--.HNN">
      <acc value="0.0349972206" flag="0"/>
      <vel value="0.0264871075" flag="0"/>
      <psa03 value="0.0791979987" flag="0"/>
      <psa10 value="0.0486444253" flag="0"/>
      <psa30 value="0.0046513712" flag="0"/>
    </comp>
    <comp name="--.HNE">
      <acc value="0.0278219375" flag="0"/>
      <vel value="0.0193389166" flag="0"/>
      <psa03 value="0.0630216184" flag="0"/>
      <psa10 value="0.0391545701" flag="0"/>
      <psa30 value="0.0037576733" flag="0"/>
    </comp>
    <comp name="--.HNZ">
      <acc value="0.0199804620" flag="0"/>
      <vel value="0.0117875249" flag="0"/>
      <psa03 value="0.0438221933" flag="0"/>
      <psa10 value="0.0291038664" flag="0"/>
      <psa30 value="0.0033497196" flag="0"/>
    </comp>
  </station>
  <station code="ZAK2" name="ZAK2" netid="HI" insttype="unknown" commtype="DIG" lat="37.7875" lon="20.9">
    <comp name="--.HNE">
      <acc value="0.5443710076" flag="0"/>
      <vel value="0.4256755945" flag="0"/>
      <psa03 value="1.0330076393" flag="0"/>
      <psa10 value="0.4315528176" flag="0"/>
      <psa30 value="0.0385595067" flag="0"/>
    </comp>
    <comp name="--.HNN">
      <acc value="0.5274739733" flag="0"/>
      <vel value="0.2885697810" flag="0"/>
      <psa03 value="1.3725461189" flag="0"/>
      <psa10 value="0.2788656818" flag="0"/>
      <psa30 value="0.0163691011" flag="0"/>
    </comp>
    <comp name="--.HNZ">
      <acc value="0.1965554068" flag="0"/>
      <vel value="0.1605607564" flag="0"/>
      <psa03 value="0.6289035540" flag="0"/>
      <psa10 value="0.2427887374" flag="0"/>
      <psa30 value="0.0120812704" flag="0"/>
    </comp>
  </station>
  <station code="ITM" name="ITM" netid="HL" insttype="DR24" commtype="DIG" lat="37.1787" lon="21.9252">
    <comp name="--.HHE">
      <acc value="0.0393409323" flag="0"/>
      <vel value="0.0374889022" flag="0"/>
      <psa03 value="0.1172586575" flag="0"/>
      <psa10 value="0.0309520194" flag="0"/>
      <psa30 value="0.0034322811" flag="0"/>
    </comp>
    <comp name="--.HHN">
      <acc value="0.0494826503" flag="0"/>
      <vel value="0.0288035578" flag="0"/>
      <psa03 value="0.1576985688" flag="0"/>
      <psa10 value="0.0329430002" flag="0"/>
      <psa30 value="0.0035089735" flag="0"/>
    </comp>
    <comp name="--.HHZ">
      <acc value="0.0349094500" flag="0"/>
      <vel value="0.0276273560" flag="0"/>
      <psa03 value="0.1032002092" flag="0"/>
      <psa10 value="0.0431568541" flag="0"/>
      <psa30 value="0.0025872982" flag="0"/>
    </comp>
  </station>
  <station code="ORTH" name="ORTH" netid="HL" insttype="30" commtype="DIG" lat="37.8511" lon="20.6963">
    <comp name="--.HHN">
      <acc value="0.3505148356" flag="0"/>
      <vel value="0.1679646400" flag="0"/>
      <psa03 value="0.6334472441" flag="0"/>
      <psa10 value="0.1070816167" flag="0"/>
      <psa30 value="0.0101988868" flag="0"/>
    </comp>
    <comp name="--.HHE">
      <acc value="0.2941665216" flag="0"/>
      <vel value="0.1134366815" flag="0"/>
      <psa03 value="0.5592487462" flag="0"/>
      <psa10 value="0.0735372673" flag="0"/>
      <psa30 value="0.0080715327" flag="0"/>
    </comp>
    <comp name="--.HHZ">
      <acc value="0.1210836052" flag="0"/>
      <vel value="0.0435037788" flag="0"/>
      <psa03 value="0.2810825401" flag="0"/>
      <psa10 value="0.0372487590" flag="0"/>
      <psa30 value="0.0047839943" flag="0"/>
    </comp>
  </station>
  <station code="RLS" name="RLS" netid="HL" insttype="CMG3ESPC-120s" commtype="DIG" lat="38.0559" lon="21.4647">
    <comp name="--.HHE">
      <acc value="0.0292016864" flag="0"/>
      <vel value="0.0258945469" flag="0"/>
      <psa03 value="0.0789341820" flag="0"/>
      <psa10 value="0.0374825360" flag="0"/>
      <psa30 value="0.0031650336" flag="0"/>
    </comp>
    <comp name="--.HHN">
      <acc value="0.0248908948" flag="0"/>
      <vel value="0.0355671470" flag="0"/>
      <psa03 value="0.0812187127" flag="0"/>
      <psa10 value="0.0510286952" flag="0"/>
      <psa30 value="0.0051385753" flag="0"/>
    </comp>
    <comp name="--.HHZ">
      <acc value="0.0100723350" flag="0"/>
      <vel value="0.0051072085" flag="0"/>
      <psa03 value="0.0270327033" flag="0"/>
      <psa10 value="0.0075737113" flag="0"/>
      <psa30 value="0.0004469876" flag="0"/>
    </comp>
  </station>
  <station code="ZARA" name="ZARA" netid="HL" insttype="CMG-5" commtype="DIG" lat="37.4865" lon="21.6491">
    <comp name="00.HNE">
      <acc value="0.1439193591" flag="0"/>
      <vel value="0.0983309224" flag="0"/>
      <psa03 value="0.3529093945" flag="0"/>
      <psa10 value="0.1679702838" flag="0"/>
      <psa30 value="0.0144523987" flag="0"/>
    </comp>
    <comp name="00.HNZ">
      <acc value="0.0689191716" flag="0"/>
      <vel value="0.0546070971" flag="0"/>
      <psa03 value="0.1741093695" flag="0"/>
      <psa10 value="0.0772602660" flag="0"/>
      <psa30 value="0.0065028586" flag="0"/>
    </comp>
    <comp name="00.HNN">
      <acc value="0.1340294576" flag="0"/>
      <vel value="0.1199084561" flag="0"/>
      <psa03 value="0.4902775788" flag="0"/>
      <psa10 value="0.1610637347" flag="0"/>
      <psa30 value="0.0185969561" flag="0"/>
    </comp>
  </station>
  <station code="AMT" name="AMT" netid="HP" insttype="CMG-3T," commtype="DIG" lat="37.5324" lon="21.7089">
    <comp name="00.HHE">
      <acc value="0.0956953875" flag="0"/>
      <vel value="0.0729080806" flag="0"/>
      <psa03 value="0.3938654634" flag="0"/>
      <psa10 value="0.1303126878" flag="0"/>
      <psa30 value="0.0110245359" flag="0"/>
    </comp>
    <comp name="00.HHN">
      <acc value="0.0888799685" flag="0"/>
      <vel value="0.0679071382" flag="0"/>
      <psa03 value="0.3017975626" flag="0"/>
      <psa10 value="0.0923864331" flag="0"/>
      <psa30 value="0.0097084056" flag="0"/>
    </comp>
    <comp name="00.HHZ">
      <acc value="0.0609995601" flag="0"/>
      <vel value="0.0424519641" flag="0"/>
      <psa03 value="0.1991535966" flag="0"/>
      <psa10 value="0.0649471009" flag="0"/>
      <psa30 value="0.0042515128" flag="0"/>
    </comp>
  </station>
  <station code="AXS" name="AXS" netid="HP" insttype="Compact," commtype="DIG" lat="38.1962" lon="21.3763">
    <comp name="--.HHE">
      <acc value="0.0135005957" flag="0"/>
      <vel value="0.0153158220" flag="0"/>
      <psa03 value="0.0418303903" flag="0"/>
      <psa10 value="0.0285575784" flag="0"/>
      <psa30 value="0.0030051875" flag="0"/>
    </comp>
    <comp name="--.HHN">
      <acc value="0.0109503534" flag="0"/>
      <vel value="0.0057523978" flag="0"/>
      <psa03 value="0.0287458001" flag="0"/>
      <psa10 value="0.0086818000" flag="0"/>
      <psa30 value="0.0005635044" flag="0"/>
    </comp>
    <comp name="--.HHZ">
      <acc value="0.0099808091" flag="0"/>
      <vel value="0.0130310875" flag="0"/>
      <psa03 value="0.0250489427" flag="0"/>
      <psa10 value="0.0154494620" flag="0"/>
      <psa30 value="0.0020207592" flag="0"/>
    </comp>
  </station>
  <station code="DRO" name="DRO" netid="HP" insttype="120P," commtype="DIG" lat="37.952" lon="21.71">
    <comp name="--.HHE">
      <acc value="0.0676608277" flag="0"/>
      <vel value="0.0430994249" flag="0"/>
      <psa03 value="0.2252749095" flag="0"/>
      <psa10 value="0.0627030287" flag="0"/>
      <psa30 value="0.0059482020" flag="0"/>
    </comp>
    <comp name="--.HHN">
      <acc value="0.0647830281" flag="0"/>
      <vel value="0.0467278912" flag="0"/>
      <psa03 value="0.3157749339" flag="0"/>
      <psa10 value="0.0991548943" flag="0"/>
      <psa30 value="0.0056462001" flag="0"/>
    </comp>
    <comp name="--.HHZ">
      <acc value="0.0329464786" flag="0"/>
      <vel value="0.0230603752" flag="0"/>
      <psa03 value="0.1186042330" flag="0"/>
      <psa10 value="0.0382380414" flag="0"/>
      <psa30 value="0.0035057658" flag="0"/>
    </comp>
  </station>
  <station code="FSK" name="FSK" netid="HP" insttype="40," commtype="DIG" lat="38.4593" lon="20.5623">
    <comp name="--.HHN">
      <acc value="0.0200417554" flag="0"/>
      <vel value="0.0156256117" flag="0"/>
      <psa03 value="0.0499231433" flag="0"/>
      <psa10 value="0.0284602750" flag="0"/>
      <psa30 value="0.0036733549" flag="0"/>
    </comp>
    <comp name="--.HHE">
      <acc value="0.0361970855" flag="0"/>
      <vel value="0.0247027370" flag="0"/>
      <psa03 value="0.0518561355" flag="0"/>
      <psa10 value="0.0263288273" flag="0"/>
      <psa30 value="0.0069264787" flag="0"/>
    </comp>
    <comp name="--.HHZ">
      <acc value="0.0179269984" flag="0"/>
      <vel value="0.0119321597" flag="0"/>
      <psa03 value="0.0307947167" flag="0"/>
      <psa10 value="0.0208623659" flag="0"/>
      <psa30 value="0.0023379432" flag="0"/>
    </comp>
  </station>
  <station code="LTHK" name="LTHK" netid="HP" insttype="40," commtype="DIG" lat="37.7095" lon="20.8367">
    <comp name="--.HHN">
      <acc value="0.4497701660" flag="0"/>
      <vel value="0.1425282576" flag="0"/>
      <psa03 value="0.6992671509" flag="0"/>
      <psa10 value="0.0905250901" flag="0"/>
      <psa30 value="0.0130764001" flag="0"/>
    </comp>
    <comp name="--.HHE">
      <acc value="0.3695523857" flag="0"/>
      <vel value="0.1102548881" flag="0"/>
      <psa03 value="0.4342636758" flag="0"/>
      <psa10 value="0.1489570785" flag="0"/>
      <psa30 value="0.0114177890" flag="0"/>
    </comp>
    <comp name="--.HHZ">
      <acc value="0.1857183896" flag="0"/>
      <vel value="0.0879404196" flag="0"/>
      <psa03 value="0.2851763559" flag="0"/>
      <psa10 value="0.0818448533" flag="0"/>
      <psa30 value="0.0054732466" flag="0"/>
    </comp>
  </station>
  <station code="PYL" name="PYL" netid="HP" insttype="Horizon" commtype="DIG" lat="36.8955" lon="21.742">
    <comp name="--.HHE">
      <acc value="0.0516369172" flag="0"/>
      <vel value="0.0393976624" flag="0"/>
      <psa03 value="0.1682956093" flag="0"/>
      <psa10 value="0.0357717008" flag="0"/>
      <psa30 value="0.0038450926" flag="0"/>
    </comp>
    <comp name="--.HHN">
      <acc value="0.0489342977" flag="0"/>
      <vel value="0.0511113928" flag="0"/>
      <psa03 value="0.1063438839" flag="0"/>
      <psa10 value="0.0668052095" flag="0"/>
      <psa30 value="0.0041894196" flag="0"/>
    </comp>
    <comp name="--.HHZ">
      <acc value="0.0262053746" flag="0"/>
      <vel value="0.0152976772" flag="0"/>
      <psa03 value="0.0874897696" flag="0"/>
      <psa10 value="0.0225773604" flag="0"/>
      <psa30 value="0.0024275113" flag="0"/>
    </comp>
  </station>
  <station code="VALY" name="VALY" netid="HP" insttype="DC_100" commtype="DIG" lat="37.1641" lon="21.9836">
    <comp name="--.HNZ">
