<?xml version="1.0" encoding="UTF-8" standalone="yes"?>
<!DOCTYPE earthquake SYSTEM "stationlist.dtd">
<stationlist created="" xmlns="ch.ethz.sed.shakemap.usgs.xml">
  <station code="RP05B" name="RP05B" netid="5B" insttype="Compact" commtype="DIG" lat="37.6182" lon="21.6541">
    <comp name="--.HHE">
      <acc value="0.3301552554" flag="0"/>
      <vel value="0.1780495104" flag="0"/>
      <psa03 value="1.1177879690" flag="0"/>
      <psa10 value="0.2353779279" flag="0"/>
      <psa30 value="0.0185823473" flag="0"/>
    </comp>
    <comp name="--.HHN">
      <acc value="0.4174479528" flag="0"/>
      <vel value="0.3049826989" flag="0"/>
      <psa03 value="1.0312899795" flag="0"/>
      <psa10 value="0.3096003109" flag="0"/>
      <psa30 value="0.0183407815" flag="0"/>
    </comp>
    <comp name="--.HHZ">
      <acc value="0.1493366250" flag="0"/>
      <vel value="0.0604924127" flag="0"/>
      <psa03 value="0.4819145084" flag="0"/>
      <psa10 value="0.0333672997" flag="0"/>
      <psa30 value="0.0032735583" flag="0"/>
    </comp>
  </station>
  <station code="ATHR" name="ATHR" netid="HA" insttype="GEOtiny," commtype="DIG" lat="38.3172" lon="20.4165">
    <comp name="--.HHE">
      <acc value="0.0290654004" flag="0"/>
      <vel value="0.0234161156" flag="0"/>
      <psa03 value="0.0432536929" flag="0"/>
      <psa10 value="0.0513116970" flag="0"/>
      <psa30 value="0.0062818665" flag="0"/>
    </comp>
    <comp name="--.HHN">
      <acc value="0.0218190127" flag="0"/>
      <vel value="0.0225762573" flag="0"/>
      <psa03 value="0.0627261307" flag="0"/>
      <psa10 value="0.0643147329" flag="0"/>
      <psa30 value="0.0078390086" flag="0"/>
    </comp>
    <comp name="--.HHZ">
      <acc value="0.0187102802" flag="0"/>
      <vel value="0.0164220596" flag="0"/>
      <psa03 value="0.0456317975" flag="0"/>
      <psa10 value="0.0265495114" flag="0"/>
      <psa30 value="0.0032909905" flag="0"/>
    </comp>
  </station>
  <station code="HAVD" name="HAVD" netid="HA" insttype="GEOtiny," commtype="DIG" lat="38.2036" lon="20.3848">
    <comp name="--.HHZ">
      <acc value="0.0358973336" flag="0"/>
      <vel value="0.0165431571" flag="0"/>
      <psa03 value="0.0627904005" flag="0"/>
      <psa10 value="0.0284230768" flag="0"/>
      <psa30 value="0.0021961427" flag="0"/>
    </comp>
    <comp name="--.HHE">
      <acc value="0.0417490372" flag="0"/>
      <vel value="0.0270589876" flag="0"/>
      <psa03 value="0.1285186685" flag="0"/>
      <psa10 value="0.0585953089" flag="0"/>
      <psa30 value="0.0058139199" flag="0"/>
    </comp>
    <comp name="--.HHN">
      <acc value="0.0514119772" flag="0"/>
      <vel value="0.0390130117" flag="0"/>
      <psa03 value="0.1303629427" flag="0"/>
      <psa10 value="0.0723107658" flag="0"/>
      <psa30 value="0.0045817395" flag="0"/>
    </comp>
  </station>
  <station code="AOL1" name="AOL1" netid="HI" insttype="unknown" commtype="DIG" lat="37.6424" lon="21.6246">
    <comp name="--.HNZ">
      <acc value="0.0815827211" flag="0"/>
      <vel value="0.0558437821" flag="0"/>
      <psa03 value="0.2280986073" flag="0"/>
      <psa10 value="0.0909225825" flag="0"/>
      <psa30 value="0.0054459311" flag="0"/>
    </comp>
    <comp name="--.HNN">
      <acc value="0.1274577092" flag="0"/>
      <vel value="0.1159493473" flag="0"/>
      <psa03 value="0.3450336152" flag="0"/>
      <psa10 value="0.1463686627" flag="0"/>
      <psa30 value="0.0195280086" flag="0"/>
    </comp>
    <comp name="--.HNE">
      <acc value="0.1238696466" flag="0"/>
      <vel value="0.0972418447" flag="0"/>
      <psa03 value="0.2635026375" flag="0"/>
      <psa10 value="0.1638939549" flag="0"/>
      <psa30 value="0.0156976273" flag="0"/>
    </comp>
  </station>
  <station code="ARG2" name="ARG2" netid="HI" insttype="CMG-5TD,ACCELEROMETER,GURALP" commtype="DIG" lat="38.1783" lon="20.4878">
    <comp name="--.HNN">
      <acc value="0.0781312020" flag="0"/>
      <vel value="0.0356911555" flag="0"/>
      <psa03 value="0.1779620119" flag="0"/>
      <psa10 value="0.0437329276" flag="0"/>
      <psa30 value="0.0062362867" flag="0"/>
    </comp>
    <comp name="--.HNE">
      <acc value="0.1068723696" flag="0"/>
      <vel value="0.0609667988" flag="0"/>
      <psa03 value="0.2084661668" flag="0"/>
      <psa10 value="0.0426559013" flag="0"/>
      <psa30 value="0.0058645576" flag="0"/>
    </comp>
    <comp name="--.HNZ">
      <acc value="0.0537424022" flag="0"/>
      <vel value="0.0216607156" flag="0"/>
      <psa03 value="0.1637509348" flag="0"/>
      <psa10 value="0.0224590593" flag="0"/>
      <psa30 value="0.0059115429" flag="0"/>
    </comp>
  </station>
  <station code="KAC1" name="KAC1" netid="HI" insttype="unknown" commtype="DIG" lat="38.1434" lon="21.5497">
    <comp name="--.HNE">
      <acc value="0.0579927980" flag="0"/>
      <vel value="0.0799489511" flag="0"/>
      <psa03 value="0.2246906575" flag="0"/>
      <psa10 value="0.1461460029" flag="0"/>
      <psa30 value="0.0146541321" flag="0"/>
    </comp>
    <comp name="--.HNZ">
      <acc value="0.0311674479" flag="0"/>
      <vel value="0.0475929863" flag="0"/>
      <psa03 value="0.0776604216" flag="0"/>
      <psa10 value="0.0609050899" flag="0"/>
      <psa30 value="0.0099251742" flag="0"/>
    </comp>
    <comp name="--.HNN">
      <acc value="0.0600809836" flag="0"/>
      <vel value="0.0568974088" flag="0"/>
      <psa03 value="0.2197733635" flag="0"/>
      <psa10 value="0.1301052809" flag="0"/>
      <psa30 value="0.0095799414" flag="0"/>
    </comp>
  </station>
  <station code="KYP2" name="KYP2" netid="HI" insttype="unknown" commtype="DIG" lat="37.2497" lon="21.667">
    <comp name="--.HNE">
      <acc value="0.1058858573" flag="0"/>
      <vel value="0.0393936204" flag="0"/>
      <psa03 value="0.2484947788" flag="0"/>
      <psa10 value="0.0494522658" flag="0"/>
      <psa30 value="0.0041486092" flag="0"/>
    </comp>
    <comp name="--.HNZ">
      <acc value="0.0822903094" flag="0"/>
      <vel value="0.0336961257" flag="0"/>
      <psa03 value="0.1213258980" flag="0"/>
      <psa10 value="0.0351668101" flag="0"/>
      <psa30 value="0.0033841318" flag="0"/>
    </comp>
    <comp name="--.HNN">
      <acc value="0.1155247958" flag="0"/>
      <vel value="0.0495673126" flag="0"/>
      <psa03 value="0.2379941679" flag="0"/>
      <psa10 value="0.0491851401" flag="0"/>
      <psa30 value="0.0043706846" flag="0"/>
    </comp>
  </station>
  <station code="LXR2" name="LXR2" netid="HI" insttype="unknown" commtype="DIG" lat="38.2067" lon="20.4364">
    <comp name="--.HNZ">
      <acc value="0.0573202744" flag="0"/>
      <vel value="0.0488399523" flag="0"/>
      <psa03 value="0.1746752780" flag="0"/>
      <psa10 value="0.0800706728" flag="0"/>
      <psa30 value="0.0067781940" flag="0"/>
    </comp>
    <comp name="--.HNN">
      <acc value="0.0771417075" flag="0"/>
      <vel value="0.0773670917" flag="0"/>
      <psa03 value="0.1929074478" flag="0"/>
      <psa10 value="0.1226399812" flag="0"/>
      <psa30 value="0.0150985436" flag="0"/>
    </comp>
    <comp name="--.HNE">
      <acc value="0.0801208675" flag="0"/>
      <vel value="0.0563819309" flag="0"/>
      <psa03 value="0.1947503457" flag="0"/>
      <psa10 value="0.1422179320" flag="0"/>
      <psa30 value="0.0129987808" flag="0"/>
    </comp>
  </station>
  <station code="PET1" name="PET1" netid="HI" insttype="unknown" commtype="DIG" lat="36.9639" lon="21.9254">
    <comp name="--.HNE">
      <acc value="0.0967297543" flag="0"/>
      <vel value="0.0785010451" flag="0"/>
      <psa03 value="0.2573876961" flag="0"/>
      <psa10 value="0.1143904886" flag="0"/>
      <psa30 value="0.0070010251" flag="0"/>
    </comp>
    <comp name="--.HNZ">
      <acc value="0.0472867841" flag="0"/>
      <vel value="0.0319420445" flag="0"/>
      <psa03 value="0.1267113302" flag="0"/>
      <psa10 value="0.0426739732" flag="0"/>
      <psa30 value="0.0038191366" flag="0"/>
    </comp>
    <comp name="--.HNN">
      <acc value="0.1313594941" flag="0"/>
      <vel value="0.0988929691" flag="0"/>
      <psa03 value="0.3095169091" flag="0"/>
      <psa10 value="0.1079952563" flag="0"/>
      <psa30 value="0.0058590891" flag="0"/>
    </comp>
  </station>
  <station code="PYL1" name="PYL1" netid="HI" insttype="unknown" commtype="DIG" lat="36.9142" lon="21.6952">
    <comp name="--.HNE">
      <acc value="0.0537524144" flag="0"/>
      <vel value="0.0409045552" flag="0"/>
      <psa03 value="0.1387083903" flag="0"/>
      <psa10 value="0.0521572539" flag="0"/>
      <psa30 value="0.0051874330" flag="0"/>
    </comp>
    <comp name="--.HNN">
      <acc value="0.0386836180" flag="0"/>
      <vel value="0.0369913301" flag="0"/>
      <psa03 value="0.1403688341" flag="0"/>
      <psa10 value="0.0475038619" flag="0"/>
      <psa30 value="0.0044374760" flag="0"/>
    </comp>
    <comp name="--.HNZ">
      <acc value="0.0259002559" flag="0"/>
      <vel value="0.0181807071" flag="0"/>
      <psa03 value="0.0829434719" flag="0"/>
      <psa10 value="0.0256119438" flag="0"/>
      <psa30 value="0.0027782786" flag="0"/>
    </comp>
  </station>
  <station code="VSK1" name="VSK1" netid="HI" insttype="unknown" commtype="DIG" lat="38.4091" lon="20.564">
    <comp name="--.HNE">
      <acc value="0.0278219378" flag="0"/>
      <vel value="0.0193389159" flag="0"/>
      <psa03 value="0.0630216184" flag="0"/>
      <psa10 value="0.0391545701" flag="0"/>
      <psa30 value="0.0037576397" flag="0"/>
    </comp>
    <comp name="--.HNZ">
      <acc value="0.0199804625" flag="0"/>
      <vel value="0.0117875243" flag="0"/>
      <psa03 value="0.0438221933" flag="0"/>
      <psa10 value="0.0291038664" flag="0"/>
      <psa30 value="0.0033497110" flag="0"/>
    </comp>
    <comp name="--.HNN">
      <acc value="0.0349972205" flag="0"/>
      <vel value="0.0264871083" flag="0"/>
      <psa03 value="0.0791979987" flag="0"/>
      <psa10 value="0.0486444253" flag="0"/>
      <psa30 value="0.0046513829" flag="0"/>
    </comp>
  </station>
  <station code="ZAK2" name="ZAK2" netid="HI" insttype="unknown" commtype="DIG" lat="37.7875" lon="20.9">
    <comp name="--.HNN">
      <acc value="0.5274739732" flag="0"/>
      <vel value="0.2885697801" flag="0"/>
      <psa03 value="1.3725461189" flag="0"/>
      <psa10 value="0.2788656819" flag="0"/>
      <psa30 value="0.0163690867" flag="0"/>
    </comp>
    <comp name="--.HNZ">
      <acc value="0.1965554068" flag="0"/>
      <vel value="0.1605607565" flag="0"/>
      <psa03 value="0.6289035540" flag="0"/>
      <psa10 value="0.2427887374" flag="0"/>
      <psa30 value="0.0120812751" flag="0"/>
    </comp>
    <comp name="--.HNE">
      <acc value="0.5443710080" flag="0"/>
      <vel value="0.4256755945" flag="0"/>
      <psa03 value="1.0330076393" flag="0"/>
      <psa10 value="0.4315528176" flag="0"/>
      <psa30 value="0.0385594311" flag="0"/>
    </comp>
  </station>
  <station code="ITM" name="ITM" netid="HL" insttype="DR24" commtype="DIG" lat="37.1787" lon="21.9252">
    <comp name="--.HHN">
      <acc value="0.0494826503" flag="0"/>
      <vel value="0.0288035576" flag="0"/>
      <psa03 value="0.1576985688" flag="0"/>
      <psa10 value="0.0329430002" flag="0"/>
      <psa30 value="0.0035089750" flag="0"/>
    </comp>
    <comp name="--.HHZ">
      <acc value="0.0349094500" flag="0"/>
      <vel value="0.0276273560" flag="0"/>
      <psa03 value="0.1032002092" flag="0"/>
      <psa10 value="0.0431568541" flag="0"/>
      <psa30 value="0.0025872983" flag="0"/>
    </comp>
    <comp name="--.HHE">
      <acc value="0.0393409323" flag="0"/>
      <vel value="0.0374889026" flag="0"/>
      <psa03 value="0.1172586575" flag="0"/>
      <psa10 value="0.0309520194" flag="0"/>
      <psa30 value="0.0034322822" flag="0"/>
    </comp>
  </station>
  <station code="ORTH" name="ORTH" netid="HL" insttype="30" commtype="DIG" lat="37.8511" lon="20.6963">
    <comp name="--.HHE">
      <acc value="0.2941665216" flag="0"/>
      <vel value="0.1134366816" flag="0"/>
      <psa03 value="0.5592487462" flag="0"/>
      <psa10 value="0.0735372673" flag="0"/>
      <psa30 value="0.0080715326" flag="0"/>
    </comp>
    <comp name="--.HHN">
      <acc value="0.3505148356" flag="0"/>
      <vel value="0.1679646429" flag="0"/>
      <psa03 value="0.6334472441" flag="0"/>
      <psa10 value="0.1070816168" flag="0"/>
      <psa30 value="0.0101989012" flag="0"/>
    </comp>
    <comp name="--.HHZ">
      <acc value="0.1210836052" flag="0"/>
      <vel value="0.0435037725" flag="0"/>
      <psa03 value="0.2810825400" flag="0"/>
      <psa10 value="0.0372487590" flag="0"/>
      <psa30 value="0.0047839946" flag="0"/>
    </comp>
  </station>
  <station code="RLS" name="RLS" netid="HL" insttype="CMG3ESPC-120s" commtype="DIG" lat="38.0559" lon="21.4647">
    <comp name="--.HHE">
      <acc value="0.0292016864" flag="0"/>
      <vel value="0.0258945472" flag="0"/>
      <psa03 value="0.0789341820" flag="0"/>
      <psa10 value="0.0374825360" flag="0"/>
      <psa30 value="0.0031650334" flag="0"/>
    </comp>
    <comp name="--.HHN">
      <acc value="0.0248908947" flag="0"/>
      <vel value="0.0355671470" flag="0"/>
      <psa03 value="0.0812187127" flag="0"/>
      <psa10 value="0.0510286952" flag="0"/>
      <psa30 value="0.0051385758" flag="0"/>
    </comp>
    <comp name="--.HHZ">
      <acc value="0.0100723351" flag="0"/>
      <vel value="0.0051072084" flag="0"/>
      <psa03 value="0.0270327033" flag="0"/>
      <psa10 value="0.0075737113" flag="0"/>
      <psa30 value="0.0004469808" flag="0"/>
    </comp>
  </station>
  <station code="ZARA" name="ZARA" netid="HL" insttype="CMG-5" commtype="DIG" lat="37.4865" lon="21.6491">
    <comp name="00.HNE">
      <acc value="0.1439193591" flag="0"/>
      <vel value="0.0983309225" flag="0"/>
      <psa03 value="0.3529093945" flag="0"/>
      <psa10 value="0.1679702838" flag="0"/>
      <psa30 value="0.0144523989" flag="0"/>
    </comp>
    <comp name="00.HNZ">
      <acc value="0.0689191717" flag="0"/>
      <vel value="0.0546070972" flag="0"/>
      <psa03 value="0.1741093695" flag="0"/>
      <psa10 value="0.0772602660" flag="0"/>
      <psa30 value="0.0065028553" flag="0"/>
    </comp>
    <comp name="00.HNN">
      <acc value="0.1340294574" flag="0"/>
      <vel value="0.1199084561" flag="0"/>
      <psa03 value="0.4902775788" flag="0"/>
      <psa10 value="0.1610637347" flag="0"/>
      <psa30 value="0.0185969283" flag="0"/>
    </comp>
  </station>
  <station code="AMT" name="AMT" netid="HP" insttype="CMG-3T," commtype="DIG" lat="37.5324" lon="21.7089">
    <comp name="00.HHE">
      <acc value="0.0956953875" flag="0"/>
      <vel value="0.0729080807" flag="0"/>
      <psa03 value="0.3938654634" flag="0"/>
      <psa10 value="0.1303126878" flag="0"/>
      <psa30 value="0.0110245351" flag="0"/>
    </comp>
    <comp name="00.HHZ">
      <acc value="0.0609995601" flag="0"/>
      <vel value="0.0424519640" flag="0"/>
      <psa03 value="0.1991535966" flag="0"/>
      <psa10 value="0.0649471009" flag="0"/>
      <psa30 value="0.0042515130" flag="0"/>
    </comp>
    <comp name="00.HHN">
      <acc value="0.0888799684" flag="0"/>
      <vel value="0.0679071383" flag="0"/>
      <psa03 value="0.3017975626" flag="0"/>
      <psa10 value="0.0923864331" flag="0"/>
      <psa30 value="0.0097084071" flag="0"/>
    </comp>
  </station>
  <station code="AXS" name="AXS" netid="HP" insttype="Compact," commtype="DIG" lat="38.1962" lon="21.3763">
    <comp name="--.HHN">
      <acc value="0.0109503533" flag="0"/>
      <vel value="0.0057523978" flag="0"/>
      <psa03 value="0.0287458001" flag="0"/>
      <psa10 value="0.0086818000" flag="0"/>
      <psa30 value="0.0005635037" flag="0"/>
    </comp>
    <comp name="--.HHE">
      <acc value="0.0135005957" flag="0"/>
      <vel value="0.0153158222" flag="0"/>
      <psa03 value="0.0418303903" flag="0"/>
      <psa10 value="0.0285575784" flag="0"/>
      <psa30 value="0.0030051834" flag="0"/>
    </comp>
    <comp name="--.HHZ">
      <acc value="0.0099808091" flag="0"/>
      <vel value="0.0130310870" flag="0"/>
      <psa03 value="0.0250489427" flag="0"/>
      <psa10 value="0.0154494620" flag="0"/>
      <psa30 value="0.0020207612" flag="0"/>
    </comp>
  </station>
  <station code="DRO" name="DRO" netid="HP" insttype="120P," commtype="DIG" lat="37.952" lon="21.71">
    <comp name="--.HHE">
      <acc value="0.0676608277" flag="0"/>
      <vel value="0.0430994249" flag="0"/>
      <psa03 value="0.2252749095" flag="0"/>
      <psa10 value="0.0627030287" flag="0"/>
      <psa30 value="0.0059482103" flag="0"/>
    </comp>
    <comp name="--.HHN">
      <acc value="0.0647830280" flag="0"/>
      <vel value="0.0467278913" flag="0"/>
      <psa03 value="0.3157749339" flag="0"/>
      <psa10 value="0.0991548943" flag="0"/>
      <psa30 value="0.0056461992" flag="0"/>
    </comp>
    <comp name="--.HHZ">
      <acc value="0.0329464786" flag="0"/>
      <vel value="0.0230603752" flag="0"/>
      <psa03 value="0.1186042330" flag="0"/>
      <psa10 value="0.0382380414" flag="0"/>
      <psa30 value="0.0035057647" flag="0"/>
    </comp>
  </station>
  <station code="FSK" name="FSK" netid="HP" insttype="40," commtype="DIG" lat="38.4593" lon="20.5623">
    <comp name="--.HHE">
      <acc value="0.0361970854" flag="0"/>
      <vel value="0.0247027314" flag="0"/>
      <psa03 value="0.0518561355" flag="0"/>
      <psa10 value="0.0263288273" flag="0"/>
      <psa30 value="0.0069264775" flag="0"/>
    </comp>
    <comp name="--.HHN">
      <acc value="0.0200417554" flag="0"/>
      <vel value="0.0156256115" flag="0"/>
      <psa03 value="0.0499231433" flag="0"/>
      <psa10 value="0.0284602750" flag="0"/>
      <psa30 value="0.0036733518" flag="0"/>
    </comp>
    <comp name="--.HHZ">
      <acc value="0.0179269984" flag="0"/>
      <vel value="0.0119321574" flag="0"/>
      <psa03 value="0.0307947167" flag="0"/>
      <psa10 value="0.0208623659" flag="0"/>
      <psa30 value="0.0023379301" flag="0"/>
    </comp>
  </station>
  <station code="LTHK" name="LTHK" netid="HP" insttype="40," commtype="DIG" lat="37.7095" lon="20.8367">
    <comp name="--.HHN">
      <acc value="0.4497701660" flag="0"/>
      <vel value="0.1425282586" flag="0"/>
      <psa03 value="0.6992671509" flag="0"/>
      <psa10 value="0.0905250901" flag="0"/>
      <psa30 value="0.0130763925" flag="0"/>
    </comp>
    <comp name="--.HHE">
      <acc value="0.3695523857" flag="0"/>
      <vel value="0.1102548881" flag="0"/>
      <psa03 value="0.4342636758" flag="0"/>
      <psa10 value="0.1489570785" flag="0"/>
      <psa30 value="0.0114177921" flag="0"/>
    </comp>
    <comp name="--.HHZ">
      <acc value="0.1857183896" flag="0"/>
      <vel value="0.0879404202" flag="0"/>
      <psa03 value="0.2851763559" flag="0"/>
      <psa10 value="0.0818448533" flag="0"/>
      <psa30 value="0.0054732577" flag="0"/>
    </comp>
  </station>
  <station code="PYL" name="PYL" netid="HP" insttype="Horizon" commtype="DIG" lat="36.8955" lon="21.742">
    <comp name="--.HHE">
      <acc value="0.0516369172" flag="0"/>
      <vel value="0.0393976623" flag="0"/>
      <psa03 value="0.1682956093" flag="0"/>
      <psa10 value="0.0357717008" flag="0"/>
      <psa30 value="0.0038450817" flag="0"/>
    </comp>
    <comp name="--.HHZ">
      <acc value="0.0262053746" flag="0"/>
      <vel value="0.0152976772" flag="0"/>
      <psa03 value="0.0874897696" flag="0"/>
      <psa10 value="0.0225773604" flag="0"/>
      <psa30 value="0.0024275150" flag="0"/>
    </comp>
    <comp name="--.HHN">
      <acc value="0.0489342977" flag="0"/>
      <vel value="0.0511113927" flag="0"/>
      <psa03 value="0.1063438839" flag="0"/>
      <psa10 value="0.0668052095" flag="0"/>
      <psa30 value="0.0041894261" flag="0"/>
    </comp>
  </station>
  <station code="VALY" name="VALY" netid="HP" insttype="DC_100" commtype="DIG" lat="37.1641" lon="21.9836">
    <comp name="--.HNE">
