<stationlist created="1763975986">
	<station code="AGRP" name="AGRP" netid="CL" source="Corinth Riff Laboratory (CRLNET)" insttype="" lat="38.3959" lon="21.72277">
		<comp name="00.HNE" depth="0.0">
			<acc value="0.015212213445612" flag="0"/>
			<vel value="0.0204519928927" flag="0"/>
			<psa03 value="0.039372475420768" flag="0"/>
			<psa10 value="0.0259990266829348" flag="0"/>
			<psa30 value="0.010520148574887" flag="0"/>
		</comp>
		<comp name="00.HNN" depth="0.0">
			<acc value="0.01470491072229" flag="0"/>
			<vel value="0.0194911212781" flag="0"/>
			<psa03 value="0.0374174683069701" flag="0"/>
			<psa10 value="0.0216891249230868" flag="0"/>
			<psa30 value="0.0074255560733029" flag="0"/>
		</comp>
		<comp name="00.HNZ" depth="0.0">
			<acc value="0.0092421110410602" flag="0"/>
			<vel value="0.0115161745729" flag="0"/>
			<psa03 value="0.0255615969761982" flag="0"/>
			<psa10 value="0.0178717282892703" flag="0"/>
			<psa30 value="0.00403753663365449" flag="0"/>
		</comp>
	</station>
	<station code="MALA" name="MALA" netid="CL" source="Corinth Riff Laboratory (CRLNET)" insttype="" lat="38.39341" lon="21.87263">
		<comp name="01.HNE" depth="0.0">
			<acc value="0.03412081305" flag="0"/>
			<vel value="0.0498874205264" flag="0"/>
			<psa03 value="0.0876355866774442" flag="0"/>
			<psa10 value="0.0961132495311709" flag="0"/>
			<psa30 value="0.015642824593711" flag="0"/>
		</comp>
		<comp name="01.HNN" depth="0.0">
			<acc value="0.03437645504157" flag="0"/>
			<vel value="0.0488024625688" flag="0"/>
			<psa03 value="0.0775536479651285" flag="0"/>
			<psa10 value="0.0607998751934701" flag="0"/>
			<psa30 value="0.0238016684103852" flag="0"/>
		</comp>
		<comp name="01.HNZ" depth="0.0">
			<acc value="0.014466566955702" flag="0"/>
			<vel value="0.0161127968638" flag="0"/>
			<psa03 value="0.0244244148725959" flag="0"/>
			<psa10 value="0.0264731855936399" flag="0"/>
			<psa30 value="0.00546520787653151" flag="0"/>
		</comp>
	</station>
	<station code="TRIZ" name="TRIZ" netid="CL" source="Corinth Riff Laboratory (CRLNET)" insttype="" lat="38.36543" lon="22.07272">
		<comp name="00.HNE" depth="0.0">
			<acc value="0.012300225162336" flag="0"/>
			<vel value="0.019003321255" flag="0"/>
			<psa03 value="0.0275171536055452" flag="0"/>
			<psa10 value="0.0207103700853961" flag="0"/>
			<psa30 value="0.00451341732508652" flag="0"/>
		</comp>
		<comp name="00.HNN" depth="0.0">
			<acc value="0.020200507289322" flag="0"/>
			<vel value="0.0265794096294" flag="0"/>
			<psa03 value="0.0607941418969578" flag="0"/>
			<psa10 value="0.0361018715718209" flag="0"/>
			<psa30 value="0.00819983069852766" flag="0"/>
		</comp>
		<comp name="00.HNZ" depth="0.0">
			<acc value="0.0096864904327764" flag="0"/>
			<vel value="0.0144031787716" flag="0"/>
			<psa03 value="0.0195638025163139" flag="0"/>
			<psa10 value="0.0271391715869362" flag="0"/>
			<psa30 value="0.00423525139795224" flag="0"/>
		</comp>
	</station>
	<station code="KIAS" name="KIAS" netid="HA" source="Hellenic Seismological Network, University of Athens, Seismological Laboratory (HA)" insttype="" lat="37.9875" lon="22.7543">
		<comp name="--.HNE" depth="0.0">
			<acc value="0.02197756468794" flag="0"/>
			<vel value="0.0308810240693" flag="0"/>
			<psa03 value="0.0446669277147433" flag="0"/>
			<psa10 value="0.0578765265359418" flag="0"/>
			<psa30 value="0.0165413157810099" flag="0"/>
		</comp>
		<comp name="--.HNN" depth="0.0">
			<acc value="0.022424314218354" flag="0"/>
			<vel value="0.0319009591462" flag="0"/>
			<psa03 value="0.0467025990261598" flag="0"/>
			<psa10 value="0.0456127266190923" flag="0"/>
			<psa30 value="0.00948907527134059" flag="0"/>
		</comp>
		<comp name="--.HNZ" depth="0.0">
			<acc value="0.017122343929308" flag="0"/>
			<vel value="0.0196318892978" flag="0"/>
			<psa03 value="0.0289992049091694" flag="0"/>
			<psa10 value="0.0331830157119411" flag="0"/>
			<psa30 value="0.00495548619331429" flag="0"/>
		</comp>
	</station>
	<station code="AGR3" name="AGR3" netid="HI" source="ITSAK Strong Motion Network" insttype="" lat="38.5893" lon="21.4162">
		<comp name="--.HNE" depth="0.0">
			<acc value="0.03772919366304" flag="0"/>
			<vel value="0.0452696087949" flag="0"/>
			<psa03 value="0.0920750161846354" flag="0"/>
			<psa10 value="0.104771080569977" flag="0"/>
			<psa30 value="0.0234889010244257" flag="0"/>
		</comp>
		<comp name="--.HNN" depth="0.0">
			<acc value="0.035453006294772" flag="0"/>
			<vel value="0.0679376381232" flag="0"/>
			<psa03 value="0.0992990468245961" flag="0"/>
			<psa10 value="0.103681760907727" flag="0"/>
			<psa30 value="0.0197220031525643" flag="0"/>
		</comp>
		<comp name="--.HNZ" depth="0.0">
			<acc value="0.022817224455348" flag="0"/>
			<vel value="0.030278001456" flag="0"/>
			<psa03 value="0.0479688912451384" flag="0"/>
			<psa10 value="0.067269136250232" flag="0"/>
			<psa30 value="0.00852991089807399" flag="0"/>
		</comp>
	</station>
	<station code="AIG2" name="AIG2" netid="HI" source="ITSAK Strong Motion Network" insttype="" lat="38.2417" lon="22.0726">
		<comp name="--.HNE" depth="0.0">
			<acc value="0.017131160464344" flag="0"/>
			<vel value="0.0262420889061" flag="0"/>
			<psa03 value="0.0404802102610866" flag="0"/>
			<psa10 value="0.0321542813133172" flag="0"/>
			<psa30 value="0.00720668824108188" flag="0"/>
		</comp>
		<comp name="--.HNN" depth="0.0">
			<acc value="0.018972205444014" flag="0"/>
			<vel value="0.0304744131253" flag="0"/>
			<psa03 value="0.0594053728143734" flag="0"/>
			<psa10 value="0.0413180358672506" flag="0"/>
			<psa30 value="0.00812759507993906" flag="0"/>
		</comp>
		<comp name="--.HNZ" depth="0.0">
			<acc value="0.011678746428714" flag="0"/>
			<vel value="0.0170425353127" flag="0"/>
			<psa03 value="0.0298672285573184" flag="0"/>
			<psa10 value="0.0265014624668335" flag="0"/>
			<psa30 value="0.00547952840852005" flag="0"/>
		</comp>
	</station>
	<station code="AKR1" name="AKR1" netid="HI" source="ITSAK Strong Motion Network" insttype="" lat="38.153583" lon="22.31326">
		<comp name="--.HNE" depth="0.0">
			<acc value="0.028445564397966" flag="0"/>
			<vel value="0.0323129229353" flag="0"/>
			<psa03 value="0.0684974699130535" flag="0"/>
			<psa10 value="0.0541421641527186" flag="0"/>
			<psa30 value="0.00482902239901406" flag="0"/>
		</comp>
		<comp name="--.HNN" depth="0.0">
			<acc value="0.0246333894003" flag="0"/>
			<vel value="0.0227445278091" flag="0"/>
			<psa03 value="0.0772145213331438" flag="0"/>
			<psa10 value="0.0396915381196004" flag="0"/>
			<psa30 value="0.00519113347045378" flag="0"/>
		</comp>
		<comp name="--.HNZ" depth="0.0">
			<acc value="0.01589045452113" flag="0"/>
			<vel value="0.0195619116584" flag="0"/>
			<psa03 value="0.034961631140667" flag="0"/>
			<psa10 value="0.0334669582717346" flag="0"/>
			<psa30 value="0.00265616595796022" flag="0"/>
		</comp>
	</station>
	<station code="AOL1" name="AOL1" netid="HI" source="ITSAK Strong Motion Network" insttype="" lat="37.642378" lon="21.624555">
		<comp name="--.HNE" depth="0.0">
			<acc value="0.12354801516018" flag="0"/>
			<vel value="0.100058402067" flag="0"/>
			<psa03 value="0.266863011698207" flag="0"/>
			<psa10 value="0.16372258581785" flag="0"/>
			<psa30 value="0.0166995779317542" flag="0"/>
		</comp>
		<comp name="--.HNN" depth="0.0">
			<acc value="0.12672762780618" flag="0"/>
			<vel value="0.113157274376" flag="0"/>
			<psa03 value="0.345684691581006" flag="0"/>
			<psa10 value="0.146073316640193" flag="0"/>
			<psa30 value="0.0213983275341647" flag="0"/>
		</comp>
		<comp name="--.HNZ" depth="0.0">
			<acc value="0.081253633499388" flag="0"/>
			<vel value="0.0556818777524" flag="0"/>
			<psa03 value="0.232976975247734" flag="0"/>
			<psa10 value="0.0907764059915692" flag="0"/>
			<psa30 value="0.00580898148317782" flag="0"/>
		</comp>
	</station>
	<station code="ARE2" name="ARE2" netid="HI" source="ITSAK Strong Motion Network" insttype="" lat="36.66629" lon="22.382635">
		<comp name="--.HNE" depth="0.0">
			<acc value="0.021975463321782" flag="0"/>
			<vel value="0.0191429026831" flag="0"/>
			<psa03 value="0.0732325075440673" flag="0"/>
			<psa10 value="0.0410720945746186" flag="0"/>
			<psa30 value="0.00278789364260545" flag="0"/>
		</comp>
		<comp name="--.HNN" depth="0.0">
			<acc value="0.026845892226558" flag="0"/>
			<vel value="0.0196999276621" flag="0"/>
			<psa03 value="0.0968231953113444" flag="0"/>
			<psa10 value="0.0221864416178884" flag="0"/>
			<psa30 value="0.00393039620279126" flag="0"/>
		</comp>
		<comp name="--.HNZ" depth="0.0">
			<acc value="0.013781792963682" flag="0"/>
			<vel value="0.0114292912248" flag="0"/>
			<psa03 value="0.0335478447758881" flag="0"/>
			<psa10 value="0.0185845267586729" flag="0"/>
			<psa30 value="0.00293817088940077" flag="0"/>
		</comp>
	</station>
	<station code="ARG2" name="ARG2" netid="HI" source="ITSAK Strong Motion Network" insttype="" lat="38.1783" lon="20.4878">
		<comp name="--.HNE" depth="0.0">
			<acc value="0.10580265310254" flag="0"/>
			<vel value="0.0592052392041" flag="0"/>
			<psa03 value="0.211942081789553" flag="0"/>
			<psa10 value="0.0427556298508165" flag="0"/>
			<psa30 value="0.00660975536384368" flag="0"/>
		</comp>
		<comp name="--.HNN" depth="0.0">
			<acc value="0.078024912569256" flag="0"/>
			<vel value="0.035660234069" flag="0"/>
			<psa03 value="0.17947416011553" flag="0"/>
			<psa10 value="0.0436384345821286" flag="0"/>
			<psa30 value="0.00739766505899758" flag="0"/>
		</comp>
		<comp name="--.HNZ" depth="0.0">
			<acc value="0.053217374436324" flag="0"/>
			<vel value="0.021119623116" flag="0"/>
			<psa03 value="0.167140061792182" flag="0"/>
			<psa10 value="0.0224839994545985" flag="0"/>
			<psa30 value="0.00664899129635345" flag="0"/>
		</comp>
	</station>
	<station code="ARS1" name="ARS1" netid="HI" source="ITSAK Strong Motion Network" insttype="" lat="37.6349" lon="22.7293">
		<comp name="--.HNE" depth="0.0">
			<acc value="0.022716703288476" flag="0"/>
			<vel value="0.029594671067" flag="0"/>
			<psa03 value="0.0648889964944252" flag="0"/>
			<psa10 value="0.0430092479015522" flag="0"/>
			<psa30 value="0.00440889790118352" flag="0"/>
		</comp>
		<comp name="--.HNN" depth="0.0">
			<acc value="0.023145176000706" flag="0"/>
			<vel value="0.024436553659" flag="0"/>
			<psa03 value="0.0750422680570839" flag="0"/>
			<psa10 value="0.0569423584019836" flag="0"/>
			<psa30 value="0.00351887810840541" flag="0"/>
		</comp>
		<comp name="--.HNZ" depth="0.0">
			<acc value="0.013593256640124" flag="0"/>
			<vel value="0.0102282172255" flag="0"/>
			<psa03 value="0.0471735104300155" flag="0"/>
			<psa10 value="0.0201393122555847" flag="0"/>
			<psa30 value="0.00268491411238199" flag="0"/>
		</comp>
	</station>
	<station code="ART2" name="ART2" netid="HI" source="ITSAK Strong Motion Network" insttype="" lat="39.1474" lon="20.9937">
		<comp name="--.HNE" depth="0.0">
			<acc value="0.0069746213724324" flag="0"/>
			<vel value="0.00926313670517" flag="0"/>
			<psa03 value="0.0157963771616213" flag="0"/>
			<psa10 value="0.0125614918246914" flag="0"/>
			<psa30 value="0.00297108640322803" flag="0"/>
		</comp>
		<comp name="--.HNN" depth="0.0">
			<acc value="0.0055987319719026" flag="0"/>
			<vel value="0.00527709464049" flag="0"/>
			<psa03 value="0.0110659492106712" flag="0"/>
			<psa10 value="0.00872291660039521" flag="0"/>
			<psa30 value="0.00167474406857654" flag="0"/>
		</comp>
		<comp name="--.HNZ" depth="0.0">
			<acc value="0.0045519507761982" flag="0"/>
			<vel value="0.00523740525729" flag="0"/>
			<psa03 value="0.0111271889445618" flag="0"/>
			<psa10 value="0.00756300554325265" flag="0"/>
			<psa30 value="0.00149107533892374" flag="0"/>
		</comp>
	</station>
	<station code="AST1" name="AST1" netid="HI" source="ITSAK Strong Motion Network" insttype="" lat="38.5416" lon="21.0895">
		<comp name="--.HNE" depth="0.0">
			<acc value="0.0241008791427" flag="0"/>
			<vel value="0.0264620776769" flag="0"/>
			<psa03 value="0.0806575775437198" flag="0"/>
			<psa10 value="0.0314601140781396" flag="0"/>
			<psa30 value="0.00776116330564141" flag="0"/>
		</comp>
		<comp name="--.HNN" depth="0.0">
			<acc value="0.02286129275475" flag="0"/>
			<vel value="0.0184193469294" flag="0"/>
			<psa03 value="0.072945655208338" flag="0"/>
			<psa10 value="0.0217765863419608" flag="0"/>
			<psa30 value="0.00293336140413209" flag="0"/>
		</comp>
		<comp name="--.HNZ" depth="0.0">
			<acc value="0.019483162670868" flag="0"/>
			<vel value="0.0124477933644" flag="0"/>
			<psa03 value="0.0582544319869845" flag="0"/>
			<psa10 value="0.0274611566668725" flag="0"/>
			<psa30 value="0.00263077344249821" flag="0"/>
		</comp>
	</station>
	<station code="GTH2" name="GTH2" netid="HI" source="ITSAK Strong Motion Network" insttype="" lat="36.7603" lon="22.5659">
		<comp name="--.HNE" depth="0.0">
			<acc value="0.04799586054837" flag="0"/>
			<vel value="0.0470940253722" flag="0"/>
			<psa03 value="0.117588425072815" flag="0"/>
			<psa10 value="0.058934996654153" flag="0"/>
			<psa30 value="0.00556474155348893" flag="0"/>
		</comp>
		<comp name="--.HNN" depth="0.0">
			<acc value="0.04323399085131" flag="0"/>
			<vel value="0.0299784109272" flag="0"/>
			<psa03 value="0.110557407218753" flag="0"/>
			<psa10 value="0.0366707692585052" flag="0"/>
			<psa30 value="0.00410076123863924" flag="0"/>
		</comp>
		<comp name="--.HNZ" depth="0.0">
			<acc value="0.019327715022666" flag="0"/>
			<vel value="0.0137008072917" flag="0"/>
			<psa03 value="0.0482056985990612" flag="0"/>
			<psa10 value="0.0204519554666816" flag="0"/>
			<psa30 value="0.00303997409169745" flag="0"/>
		</comp>
	</station>
	<station code="KAC1" name="KAC1" netid="HI" source="ITSAK Strong Motion Network" insttype="" lat="38.143412" lon="21.549694">
		<comp name="--.HNE" depth="0.0">
			<acc value="0.057802910661936" flag="0"/>
			<vel value="0.0805314656433" flag="0"/>
			<psa03 value="0.222565118846859" flag="0"/>
			<psa10 value="0.14669414776724" flag="0"/>
			<psa30 value="0.0153624610209704" flag="0"/>
		</comp>
		<comp name="--.HNN" depth="0.0">
			<acc value="0.060399738757182" flag="0"/>
			<vel value="0.0564018474253" flag="0"/>
			<psa03 value="0.221718666940216" flag="0"/>
			<psa10 value="0.130214386063921" flag="0"/>
			<psa30 value="0.0103942077319272" flag="0"/>
		</comp>
		<comp name="--.HNZ" depth="0.0">
			<acc value="0.031187844482094" flag="0"/>
			<vel value="0.0477438701556" flag="0"/>
			<psa03 value="0.0765761665453535" flag="0"/>
			<psa10 value="0.0608475220998016" flag="0"/>
			<psa30 value="0.0101618223375318" flag="0"/>
		</comp>
	</station>
	<station code="KLV1" name="KLV1" netid="HI" source="ITSAK Strong Motion Network" insttype="" lat="38.03256" lon="22.10797">
		<comp name="--.HNE" depth="0.0">
			<acc value="0.035682559160046" flag="0"/>
			<vel value="0.0306344278844" flag="0"/>
			<psa03 value="0.110738554635883" flag="0"/>
			<psa10 value="0.040063649020117" flag="0"/>
			<psa30 value="0.00438830695379857" flag="0"/>
		</comp>
		<comp name="--.HNN" depth="0.0">
			<acc value="0.02890415573568" flag="0"/>
			<vel value="0.0326671249209" flag="0"/>
			<psa03 value="0.0969014609129123" flag="0"/>
			<psa10 value="0.0317298131944087" flag="0"/>
			<psa30 value="0.00542140997512327" flag="0"/>
		</comp>
		<comp name="--.HNZ" depth="0.0">
			<acc value="0.016671632279376" flag="0"/>
			<vel value="0.0171124963344" flag="0"/>
			<psa03 value="0.0371442028086237" flag="0"/>
			<psa10 value="0.0248358365022608" flag="0"/>
			<psa30 value="0.00331258590089288" flag="0"/>
		</comp>
	</station>
	<station code="KYP2" name="KYP2" netid="HI" source="ITSAK Strong Motion Network" insttype="" lat="37.2497" lon="21.667">
		<comp name="--.HNE" depth="0.0">
			<acc value="0.10620681944886" flag="0"/>
			<vel value="0.0386458476554" flag="0"/>
			<psa03 value="0.255509947113313" flag="0"/>
			<psa10 value="0.0495493474009653" flag="0"/>
			<psa30 value="0.00464221460724947" flag="0"/>
		</comp>
		<comp name="--.HNN" depth="0.0">
			<acc value="0.1126345563987" flag="0"/>
			<vel value="0.0503008179664" flag="0"/>
			<psa03 value="0.237351202518869" flag="0"/>
			<psa10 value="0.0492705951851947" flag="0"/>
			<psa30 value="0.00495003124862851" flag="0"/>
		</comp>
		<comp name="--.HNZ" depth="0.0">
			<acc value="0.077934403554594" flag="0"/>
			<vel value="0.0328457671845" flag="0"/>
			<psa03 value="0.121419668457229" flag="0"/>
			<psa10 value="0.0352314014074204" flag="0"/>
			<psa30 value="0.00373113633613658" flag="0"/>
		</comp>
	</station>
	<station code="LEF2" name="LEF2" netid="HI" source="ITSAK Strong Motion Network" insttype="" lat="38.830093" lon="20.708346">
		<comp name="--.HNE" depth="0.0">
			<acc value="0.057952837707936" flag="0"/>
			<vel value="0.0543311444354" flag="0"/>
			<psa03 value="0.133923434270073" flag="0"/>
			<psa10 value="0.0772615381976185" flag="0"/>
			<psa30 value="0.0135654186424204" flag="0"/>
		</comp>
		<comp name="--.HNN" depth="0.0">
			<acc value="0.050393041287984" flag="0"/>
			<vel value="0.0520517548316" flag="0"/>
			<psa03 value="0.176672453682813" flag="0"/>
			<psa10 value="0.146494244524701" flag="0"/>
			<psa30 value="0.0078944596358719" flag="0"/>
		</comp>
		<comp name="--.HNZ" depth="0.0">
			<acc value="0.03694619053758" flag="0"/>
			<vel value="0.0399080898089" flag="0"/>
			<psa03 value="0.0999691953850362" flag="0"/>
			<psa10 value="0.0924648353417344" flag="0"/>
			<psa30 value="0.00573090006066641" flag="0"/>
		</comp>
	</station>
	<station code="LEO1" name="LEO1" netid="HI" source="ITSAK Strong Motion Network" insttype="" lat="37.1689" lon="22.8637">
		<comp name="--.HNE" depth="0.0">
			<acc value="0.015856764184698" flag="0"/>
			<vel value="0.00878881882579" flag="0"/>
			<psa03 value="0.0345820799555616" flag="0"/>
			<psa10 value="0.0102118467972201" flag="0"/>
			<psa30 value="0.00240537309416194" flag="0"/>
		</comp>
		<comp name="--.HNN" depth="0.0">
			<acc value="0.01071571087647" flag="0"/>
			<vel value="0.00846641240493" flag="0"/>
			<psa03 value="0.0357081233004302" flag="0"/>
			<psa10 value="0.0170387099809061" flag="0"/>
			<psa30 value="0.00196012609873512" flag="0"/>
		</comp>
		<comp name="--.HNZ" depth="0.0">
			<acc value="0.009443506510116" flag="0"/>
			<vel value="0.00667604018407" flag="0"/>
			<psa03 value="0.0188223692854153" flag="0"/>
			<psa10 value="0.0105375943138874" flag="0"/>
			<psa30 value="0.00112729707373012" flag="0"/>
		</comp>
	</station>
	<station code="LXR2" name="LXR2" netid="HI" source="ITSAK Strong Motion Network" insttype="" lat="38.206718" lon="20.436386">
		<comp name="--.HNE" depth="0.0">
			<acc value="0.079766778633612" flag="0"/>
			<vel value="0.0580748843067" flag="0"/>
			<psa03 value="0.194032145343959" flag="0"/>
			<psa10 value="0.142196909847371" flag="0"/>
			<psa30 value="0.0138761625610117" flag="0"/>
		</comp>
		<comp name="--.HNN" depth="0.0">
			<acc value="0.076399551013836" flag="0"/>
			<vel value="0.0762044406378" flag="0"/>
			<psa03 value="0.192948656901731" flag="0"/>
			<psa10 value="0.123194033500029" flag="0"/>
			<psa30 value="0.0188221218731826" flag="0"/>
		</comp>
		<comp name="--.HNZ" depth="0.0">
			<acc value="0.056921694835644" flag="0"/>
			<vel value="0.0485748438437" flag="0"/>
			<psa03 value="0.174427752899185" flag="0"/>
			<psa10 value="0.080348060164491" flag="0"/>
			<psa30 value="0.00701010521841299" flag="0"/>
		</comp>
	</station>
	<station code="MSL1" name="MSL1" netid="HI" source="ITSAK Strong Motion Network" insttype="" lat="38.3727" lon="21.4243">
		<comp name="--.HNE" depth="0.0">
			<acc value="0.061382025054312" flag="0"/>
			<vel value="0.0724766839539" flag="0"/>
			<psa03 value="0.128023543431469" flag="0"/>
			<psa10 value="0.185019106607921" flag="0"/>
			<psa30 value="0.0212598633616216" flag="0"/>
		</comp>
		<comp name="--.HNN" depth="0.0">
			<acc value="0.057035619290178" flag="0"/>
			<vel value="0.0613046261988" flag="0"/>
