<stationlist xmlns:esm="https://esm-db.eu/esmws/shakemap/1/" created="1781574886">
	<station code="AGRP" name="AGRP" netid="CL" source="Corinth Riff Laboratory (CRLNET)" insttype="" lat="38.3959" lon="21.72277" esm:processing="automatic (Paolucci et al 2011)" esm:quality="best">
		<comp name="00.HNE" depth="0.0">
			<acc value="0.0152113159449666" flag="0"/>
			<vel value="0.0204270500857895" flag="0"/>
			<psa03 value="0.039372475420768" flag="0"/>
			<psa10 value="0.0259990266829348" flag="0"/>
			<psa30 value="0.010520148574887" flag="0"/>
		</comp>
		<comp name="00.HNN" depth="0.0">
			<acc value="0.0147101318638308" flag="0"/>
			<vel value="0.019415167922741" flag="0"/>
			<psa03 value="0.0374174683069701" flag="0"/>
			<psa10 value="0.0216891249230868" flag="0"/>
			<psa30 value="0.0074255560733029" flag="0"/>
		</comp>
		<comp name="00.HNZ" depth="0.0">
			<acc value="0.00924822184878146" flag="0"/>
			<vel value="0.0114840308160366" flag="0"/>
			<psa03 value="0.0255615969761982" flag="0"/>
			<psa10 value="0.0178717282892703" flag="0"/>
			<psa30 value="0.00403753663365449" flag="0"/>
		</comp>
	</station>
	<station code="MALA" name="MALA" netid="CL" source="Corinth Riff Laboratory (CRLNET)" insttype="" lat="38.39341" lon="21.87263" esm:processing="automatic (Paolucci et al 2011)" esm:quality="best">
		<comp name="01.HNE" depth="0.0">
			<acc value="0.0341197033314287" flag="0"/>
			<vel value="0.0497202298445213" flag="0"/>
			<psa03 value="0.0876355866774442" flag="0"/>
			<psa10 value="0.0961132495311709" flag="0"/>
			<psa30 value="0.015642824593711" flag="0"/>
		</comp>
		<comp name="01.HNN" depth="0.0">
			<acc value="0.0343482640030963" flag="0"/>
			<vel value="0.0485703346451141" flag="0"/>
			<psa03 value="0.0775536479651285" flag="0"/>
			<psa10 value="0.0607998751934701" flag="0"/>
			<psa30 value="0.0238016684103852" flag="0"/>
		</comp>
		<comp name="01.HNZ" depth="0.0">
			<acc value="0.0144457559535259" flag="0"/>
			<vel value="0.0161445341440802" flag="0"/>
			<psa03 value="0.0244244148725959" flag="0"/>
			<psa10 value="0.0264731855936399" flag="0"/>
			<psa30 value="0.00546520787653151" flag="0"/>
		</comp>
	</station>
	<station code="TRIZ" name="TRIZ" netid="CL" source="Corinth Riff Laboratory (CRLNET)" insttype="" lat="38.36543" lon="22.07272" esm:processing="automatic (Paolucci et al 2011)" esm:quality="best">
		<comp name="00.HNE" depth="0.0">
			<acc value="0.0122841969663131" flag="0"/>
			<vel value="0.0188425369007225" flag="0"/>
			<psa03 value="0.0275171536055452" flag="0"/>
			<psa10 value="0.0207103700853961" flag="0"/>
			<psa30 value="0.00451341732508652" flag="0"/>
		</comp>
		<comp name="00.HNN" depth="0.0">
			<acc value="0.0201776778736722" flag="0"/>
			<vel value="0.0268699180119313" flag="0"/>
			<psa03 value="0.0607941418969578" flag="0"/>
			<psa10 value="0.0361018715718209" flag="0"/>
			<psa30 value="0.00819983069852766" flag="0"/>
		</comp>
		<comp name="00.HNZ" depth="0.0">
			<acc value="0.00966521210850363" flag="0"/>
			<vel value="0.0142357066434835" flag="0"/>
			<psa03 value="0.0195638025163139" flag="0"/>
			<psa10 value="0.0271391715869362" flag="0"/>
			<psa30 value="0.00423525139795224" flag="0"/>
		</comp>
	</station>
	<station code="KIAS" name="KIAS" netid="HA" source="Hellenic Seismological Network, University of Athens, Seismological Laboratory (HA)" insttype="" lat="37.9875" lon="22.7543" esm:processing="automatic (Paolucci et al 2011)" esm:quality="best">
		<comp name="--.HNE" depth="0.0">
			<acc value="0.0218756653027856" flag="0"/>
			<vel value="0.0311279245745934" flag="0"/>
			<psa03 value="0.0446669277147433" flag="0"/>
			<psa10 value="0.0578765265359418" flag="0"/>
			<psa30 value="0.0165413157810099" flag="0"/>
		</comp>
		<comp name="--.HNN" depth="0.0">
			<acc value="0.02209799210765" flag="0"/>
			<vel value="0.0315613996006336" flag="0"/>
			<psa03 value="0.0467025990261598" flag="0"/>
			<psa10 value="0.0456127266190923" flag="0"/>
			<psa30 value="0.00948907527134059" flag="0"/>
		</comp>
		<comp name="--.HNZ" depth="0.0">
			<acc value="0.0163196183118078" flag="0"/>
			<vel value="0.0193901992656901" flag="0"/>
			<psa03 value="0.0289992049091694" flag="0"/>
			<psa10 value="0.0331830157119411" flag="0"/>
			<psa30 value="0.00495548619331429" flag="0"/>
		</comp>
	</station>
	<station code="AIG2" name="AIG2" netid="HI" source="ITSAK Strong Motion Network" insttype="" lat="38.2417" lon="22.0726" esm:processing="automatic (Paolucci et al 2011)" esm:quality="best">
		<comp name="--.HNE" depth="0.0">
			<acc value="0.0167282252392585" flag="0"/>
			<vel value="0.0267983025538018" flag="0"/>
			<psa03 value="0.0404802102610866" flag="0"/>
			<psa10 value="0.0321542813133172" flag="0"/>
			<psa30 value="0.00720668824108188" flag="0"/>
		</comp>
		<comp name="--.HNN" depth="0.0">
			<acc value="0.0188884475506481" flag="0"/>
			<vel value="0.0303149208780494" flag="0"/>
			<psa03 value="0.0594053728143734" flag="0"/>
			<psa10 value="0.0413180358672506" flag="0"/>
			<psa30 value="0.00812759507993906" flag="0"/>
		</comp>
		<comp name="--.HNZ" depth="0.0">
			<acc value="0.011182260040188" flag="0"/>
			<vel value="0.0170265307710961" flag="0"/>
			<psa03 value="0.0298672285573184" flag="0"/>
			<psa10 value="0.0265014624668335" flag="0"/>
			<psa30 value="0.00547952840852005" flag="0"/>
		</comp>
	</station>
	<station code="AKR1" name="AKR1" netid="HI" source="ITSAK Strong Motion Network" insttype="" lat="38.153583" lon="22.31326" esm:processing="automatic (Paolucci et al 2011)" esm:quality="best">
		<comp name="--.HNE" depth="0.0">
			<acc value="0.0285113663163666" flag="0"/>
			<vel value="0.0322482075710627" flag="0"/>
			<psa03 value="0.0684974699130535" flag="0"/>
			<psa10 value="0.0541421641527186" flag="0"/>
			<psa30 value="0.00482902239901406" flag="0"/>
		</comp>
		<comp name="--.HNN" depth="0.0">
			<acc value="0.0247490990598021" flag="0"/>
			<vel value="0.0226731282901737" flag="0"/>
			<psa03 value="0.0772145213331438" flag="0"/>
			<psa10 value="0.0396915381196004" flag="0"/>
			<psa30 value="0.00519113347045378" flag="0"/>
		</comp>
		<comp name="--.HNZ" depth="0.0">
			<acc value="0.0158554674046238" flag="0"/>
			<vel value="0.0195922563814037" flag="0"/>
			<psa03 value="0.034961631140667" flag="0"/>
			<psa10 value="0.0334669582717346" flag="0"/>
			<psa30 value="0.00265616595796022" flag="0"/>
		</comp>
	</station>
	<station code="AOL1" name="AOL1" netid="HI" source="ITSAK Strong Motion Network" insttype="" lat="37.642378" lon="21.624555" esm:processing="automatic (Paolucci et al 2011)" esm:quality="best">
		<comp name="--.HNE" depth="0.0">
			<acc value="0.123717482822273" flag="0"/>
			<vel value="0.100949011049008" flag="0"/>
			<psa03 value="0.266863011698207" flag="0"/>
			<psa10 value="0.16372258581785" flag="0"/>
			<psa30 value="0.0166995779317542" flag="0"/>
		</comp>
		<comp name="--.HNN" depth="0.0">
			<acc value="0.127018769543694" flag="0"/>
			<vel value="0.113123222301758" flag="0"/>
			<psa03 value="0.345684691581006" flag="0"/>
			<psa10 value="0.146073316640193" flag="0"/>
			<psa30 value="0.0213983275341647" flag="0"/>
		</comp>
		<comp name="--.HNZ" depth="0.0">
			<acc value="0.081419518118866" flag="0"/>
			<vel value="0.0555312114213976" flag="0"/>
			<psa03 value="0.232976975247734" flag="0"/>
			<psa10 value="0.0907764059915692" flag="0"/>
			<psa30 value="0.00580898148317782" flag="0"/>
		</comp>
	</station>
	<station code="ARE2" name="ARE2" netid="HI" source="ITSAK Strong Motion Network" insttype="" lat="36.66629" lon="22.382635" esm:processing="automatic (Paolucci et al 2011)" esm:quality="best">
		<comp name="--.HNE" depth="0.0">
			<acc value="0.0219713788502448" flag="0"/>
			<vel value="0.0191837378421472" flag="0"/>
			<psa03 value="0.0732325075440673" flag="0"/>
			<psa10 value="0.0410720945746186" flag="0"/>
			<psa30 value="0.00278789364260545" flag="0"/>
		</comp>
		<comp name="--.HNN" depth="0.0">
			<acc value="0.0268797590565609" flag="0"/>
			<vel value="0.0193259175827217" flag="0"/>
			<psa03 value="0.0968231953113444" flag="0"/>
			<psa10 value="0.0221864416178884" flag="0"/>
			<psa30 value="0.00393039620279126" flag="0"/>
		</comp>
		<comp name="--.HNZ" depth="0.0">
			<acc value="0.0137502579022341" flag="0"/>
			<vel value="0.0114909979163447" flag="0"/>
			<psa03 value="0.0335478447758881" flag="0"/>
			<psa10 value="0.0185845267586729" flag="0"/>
			<psa30 value="0.00293817088940077" flag="0"/>
		</comp>
	</station>
	<station code="ARG2" name="ARG2" netid="HI" source="ITSAK Strong Motion Network" insttype="" lat="38.1783" lon="20.4878" esm:processing="automatic (Paolucci et al 2011)" esm:quality="best">
		<comp name="--.HNE" depth="0.0">
			<acc value="0.105787966592478" flag="0"/>
			<vel value="0.0591278776404067" flag="0"/>
			<psa03 value="0.211942081789553" flag="0"/>
			<psa10 value="0.0427556298508165" flag="0"/>
			<psa30 value="0.00660975536384368" flag="0"/>
		</comp>
		<comp name="--.HNN" depth="0.0">
			<acc value="0.0781180664910636" flag="0"/>
			<vel value="0.0359275419811767" flag="0"/>
			<psa03 value="0.17947416011553" flag="0"/>
			<psa10 value="0.0436384345821286" flag="0"/>
			<psa30 value="0.00739766505899758" flag="0"/>
		</comp>
		<comp name="--.HNZ" depth="0.0">
			<acc value="0.0530830688279785" flag="0"/>
			<vel value="0.0208661792954464" flag="0"/>
			<psa03 value="0.167140061792182" flag="0"/>
			<psa10 value="0.0224839994545985" flag="0"/>
			<psa30 value="0.00664899129635345" flag="0"/>
		</comp>
	</station>
	<station code="AST1" name="AST1" netid="HI" source="ITSAK Strong Motion Network" insttype="" lat="38.5416" lon="21.0895" esm:processing="automatic (Paolucci et al 2011)" esm:quality="best">
		<comp name="--.HNE" depth="0.0">
			<acc value="0.0241626170494182" flag="0"/>
			<vel value="0.0266645818184742" flag="0"/>
			<psa03 value="0.0806575775437198" flag="0"/>
			<psa10 value="0.0314601140781396" flag="0"/>
			<psa30 value="0.00776116330564141" flag="0"/>
		</comp>
		<comp name="--.HNN" depth="0.0">
			<acc value="0.0228397485218774" flag="0"/>
			<vel value="0.018335779031352" flag="0"/>
			<psa03 value="0.072945655208338" flag="0"/>
			<psa10 value="0.0217765863419608" flag="0"/>
			<psa30 value="0.00293336140413209" flag="0"/>
		</comp>
		<comp name="--.HNZ" depth="0.0">
			<acc value="0.0192540021481662" flag="0"/>
			<vel value="0.0127935828452885" flag="0"/>
			<psa03 value="0.0582544319869845" flag="0"/>
			<psa10 value="0.0274611566668725" flag="0"/>
			<psa30 value="0.00263077344249821" flag="0"/>
		</comp>
	</station>
	<station code="KYP2" name="KYP2" netid="HI" source="ITSAK Strong Motion Network" insttype="" lat="37.2497" lon="21.667" esm:processing="automatic (Paolucci et al 2011)" esm:quality="best">
		<comp name="--.HNE" depth="0.0">
			<acc value="0.106400985764143" flag="0"/>
			<vel value="0.0386822291338607" flag="0"/>
			<psa03 value="0.255509947113313" flag="0"/>
			<psa10 value="0.0495493474009653" flag="0"/>
			<psa30 value="0.00464221460724947" flag="0"/>
		</comp>
		<comp name="--.HNN" depth="0.0">
			<acc value="0.113135563396173" flag="0"/>
			<vel value="0.0505757753895351" flag="0"/>
			<psa03 value="0.237351202518869" flag="0"/>
			<psa10 value="0.0492705951851947" flag="0"/>
			<psa30 value="0.00495003124862851" flag="0"/>
		</comp>
		<comp name="--.HNZ" depth="0.0">
			<acc value="0.077802341663633" flag="0"/>
			<vel value="0.0330331959364848" flag="0"/>
			<psa03 value="0.121419668457229" flag="0"/>
			<psa10 value="0.0352314014074204" flag="0"/>
			<psa30 value="0.00373113633613658" flag="0"/>
		</comp>
	</station>
	<station code="LEO1" name="LEO1" netid="HI" source="ITSAK Strong Motion Network" insttype="" lat="37.1689" lon="22.8637" esm:processing="automatic (Paolucci et al 2011)" esm:quality="best">
		<comp name="--.HNE" depth="0.0">
			<acc value="0.0156693998030364" flag="0"/>
			<vel value="0.00886760330912069" flag="0"/>
			<psa03 value="0.0345820799555616" flag="0"/>
			<psa10 value="0.0102118467972201" flag="0"/>
			<psa30 value="0.00240537309416194" flag="0"/>
		</comp>
		<comp name="--.HNN" depth="0.0">
			<acc value="0.0108109238341337" flag="0"/>
			<vel value="0.00873880040005757" flag="0"/>
			<psa03 value="0.0357081233004302" flag="0"/>
			<psa10 value="0.0170387099809061" flag="0"/>
			<psa30 value="0.00196012609873512" flag="0"/>
		</comp>
		<comp name="--.HNZ" depth="0.0">
			<acc value="0.00923034469568526" flag="0"/>
			<vel value="0.00699179084888769" flag="0"/>
			<psa03 value="0.0188223692854153" flag="0"/>
			<psa10 value="0.0105375943138874" flag="0"/>
			<psa30 value="0.00112729707373012" flag="0"/>
		</comp>
	</station>
	<station code="NMA1" name="NMA1" netid="HI" source="ITSAK Strong Motion Network" insttype="" lat="37.81873" lon="22.662702" esm:processing="automatic (Paolucci et al 2011)" esm:quality="best">
		<comp name="--.HNE" depth="0.0">
			<acc value="0.0190259967263897" flag="0"/>
			<vel value="0.0227221422809033" flag="0"/>
			<psa03 value="0.0567962520562124" flag="0"/>
			<psa10 value="0.0372400007172634" flag="0"/>
			<psa30 value="0.00349552864495075" flag="0"/>
		</comp>
		<comp name="--.HNN" depth="0.0">
			<acc value="0.0252606751168667" flag="0"/>
			<vel value="0.0233570013976781" flag="0"/>
			<psa03 value="0.058545831499123" flag="0"/>
			<psa10 value="0.0297624028631052" flag="0"/>
			<psa30 value="0.00363831768735913" flag="0"/>
		</comp>
		<comp name="--.HNZ" depth="0.0">
			<acc value="0.0151835383288649" flag="0"/>
			<vel value="0.0171292471387152" flag="0"/>
			<psa03 value="0.0397426509847527" flag="0"/>
			<psa10 value="0.0294592327795827" flag="0"/>
			<psa30 value="0.00354341056689465" flag="0"/>
		</comp>
	</station>
	<station code="PYL1" name="PYL1" netid="HI" source="ITSAK Strong Motion Network" insttype="" lat="36.914188" lon="21.695161" esm:processing="automatic (Paolucci et al 2011)" esm:quality="best">
		<comp name="--.HNE" depth="0.0">
			<acc value="0.0538463257196649" flag="0"/>
			<vel value="0.0407789459339949" flag="0"/>
			<psa03 value="0.141537167809341" flag="0"/>
			<psa10 value="0.0520155482746984" flag="0"/>
			<psa30 value="0.00609403369980233" flag="0"/>
		</comp>
		<comp name="--.HNN" depth="0.0">
			<acc value="0.038880625382082" flag="0"/>
			<vel value="0.0362803117338919" flag="0"/>
			<psa03 value="0.141662551115504" flag="0"/>
			<psa10 value="0.0473374096211707" flag="0"/>
			<psa30 value="0.00523133405021781" flag="0"/>
		</comp>
		<comp name="--.HNZ" depth="0.0">
			<acc value="0.0255365113109928" flag="0"/>
			<vel value="0.0174896642726206" flag="0"/>
			<psa03 value="0.0849890884431833" flag="0"/>
			<psa10 value="0.02556911507837" flag="0"/>
			<psa30 value="0.00305800653625998" flag="0"/>
		</comp>
	</station>
	<station code="TRP1" name="TRP1" netid="HI" source="ITSAK Strong Motion Network" insttype="" lat="37.511219" lon="22.363399" esm:processing="automatic (Paolucci et al 2011)" esm:quality="best">
		<comp name="--.HNE" depth="0.0">
			<acc value="0.0140708293618936" flag="0"/>
			<vel value="0.0147046996801179" flag="0"/>
			<psa03 value="0.0381875557798125" flag="0"/>
			<psa10 value="0.0209793922817611" flag="0"/>
			<psa30 value="0.00255227782588144" flag="0"/>
		</comp>
		<comp name="--.HNN" depth="0.0">
			<acc value="0.0153017174940585" flag="0"/>
			<vel value="0.0165312423765503" flag="0"/>
			<psa03 value="0.0297781367179297" flag="0"/>
			<psa10 value="0.024799455342213" flag="0"/>
			<psa30 value="0.00216440421448811" flag="0"/>
		</comp>
		<comp name="--.HNZ" depth="0.0">
			<acc value="0.00759666332577088" flag="0"/>
			<vel value="0.00906004272929878" flag="0"/>
			<psa03 value="0.0228223504103652" flag="0"/>
			<psa10 value="0.0176515249518948" flag="0"/>
			<psa30 value="0.00218278751562747" flag="0"/>
		</comp>
	</station>
	<station code="VAS2" name="VAS2" netid="HI" source="ITSAK Strong Motion Network" insttype="" lat="38.630558" lon="20.608081" esm:processing="automatic (Paolucci et al 2011)" esm:quality="best">
		<comp name="--.HNE" depth="0.0">
			<acc value="0.0750170617926758" flag="0"/>
			<vel value="0.0765479582811897" flag="0"/>
			<psa03 value="0.176047287268917" flag="0"/>
			<psa10 value="0.156633926228849" flag="0"/>
			<psa30 value="0.0112407263096029" flag="0"/>
		</comp>
		<comp name="--.HNN" depth="0.0">
			<acc value="0.0761417787280819" flag="0"/>
			<vel value="0.0908540657202839" flag="0"/>
			<psa03 value="0.137457074606766" flag="0"/>
			<psa10 value="0.187296347463757" flag="0"/>
			<psa30 value="0.0133733109161949" flag="0"/>
		</comp>
		<comp name="--.HNZ" depth="0.0">
			<acc value="0.0440214975681204" flag="0"/>
			<vel value="0.04523091106751" flag="0"/>
			<psa03 value="0.10445086727391" flag="0"/>
			<psa10 value="0.0475256608419788" flag="0"/>
			<psa30 value="0.00438750815088428" flag="0"/>
		</comp>
	</station>
	<station code="VSK1" name="VSK1" netid="HI" source="ITSAK Strong Motion Network" insttype="" lat="38.4091" lon="20.564" esm:processing="automatic (Paolucci et al 2011)" esm:quality="best">
		<comp name="--.HNE" depth="0.0">
			<acc value="0.0278241278945555" flag="0"/>
			<vel value="0.0224325608850894" flag="0"/>
			<psa03 value="0.0629864642106026" flag="0"/>
			<psa10 value="0.0391692897732235" flag="0"/>
			<psa30 value="0.00446608793973921" flag="0"/>
		</comp>
		<comp name="--.HNN" depth="0.0">
			<acc value="0.034793404339515" flag="0"/>
			<vel value="0.0262261980990047" flag="0"/>
			<psa03 value="0.0795503948230363" flag="0"/>
			<psa10 value="0.0487566311376228" flag="0"/>
			<psa30 value="0.0052747869287663" flag="0"/>
		</comp>
		<comp name="--.HNZ" depth="0.0">
			<acc value="0.0199770084758399" flag="0"/>
			<vel value="0.0131131024652285" flag="0"/>
			<psa03 value="0.0441605191676759" flag="0"/>
			<psa10 value="0.0291298897122215" flag="0"/>
			<psa30 value="0.00384480553283225" flag="0"/>
		</comp>
	</station>
	<station code="SMHA" name="SMHA" netid="HL" source="National Observatory of Athens Seismic Network" insttype="" lat="38.25123" lon="20.6477" esm:processing="automatic (Paolucci et al 2011)" esm:quality="best">
		<comp name="00.HNE" depth="0.0">
			<acc value="0.130736073198286" flag="0"/>
			<vel value="0.0714890212296897" flag="0"/>
			<psa03 value="0.541845102910867" flag="0"/>
			<psa10 value="0.0902007953601393" flag="0"/>
			<psa30 value="0.00618428926215094" flag="0"/>
		</comp>
		<comp name="00.HNN" depth="0.0">
			<acc value="0.118863889630576" flag="0"/>
			<vel value="0.0842854953507539" flag="0"/>
			<psa03 value="0.352981674970506" flag="0"/>
			<psa10 value="0.0858954201501627" flag="0"/>
			<psa30 value="0.00593446646260405" flag="0"/>
		</comp>
		<comp name="00.HNZ" depth="0.0">
			<acc value="0.0745067468975701" flag="0"/>
			<vel value="0.0513440300682792" flag="0"/>
			<psa03 value="0.133406337514937" flag="0"/>
			<psa10 value="0.0617890819734481" flag="0"/>
			<psa30 value="0.00358571378593859" flag="0"/>
		</comp>
	</station>
	<station code="AMT" name="AMT" netid="HP" source="University of Patras, Seismological Laboratory (PSLNET)" insttype="" lat="37.5324" lon="21.7089" esm:processing="automatic (Paolucci et al 2011)" esm:quality="best">
		<comp name="--.HNE" depth="0.0">
			<acc value="0.0963024576289172" flag="0"/>
			<vel value="0.0758470703311265" flag="0"/>
			<psa03 value="0.395812178947656" flag="0"/>
			<psa10 value="0.132950627326473" flag="0"/>
			<psa30 value="0.0121208454465169" flag="0"/>
		</comp>
		<comp name="--.HNN" depth="0.0">
			<acc value="0.0909785171294666" flag="0"/>
			<vel value="0.071193392741633" flag="0"/>
			<psa03 value="0.313828289584106" flag="0"/>
			<psa10 value="0.0939992344880926" flag="0"/>
			<psa30 value="0.0109767888250587" flag="0"/>
		</comp>
		<comp name="--.HNZ" depth="0.0">
			<acc value="0.0608628865346994" flag="0"/>
			<vel value="0.0430229392391666" flag="0"/>
			<psa03 value="0.196027360850628" flag="0"/>
