<?xml version="1.0" encoding="UTF-8" standalone="yes"?>
<!DOCTYPE earthquake SYSTEM "stationlist.dtd">
<stationlist created="" xmlns="ch.ethz.sed.shakemap.usgs.xml">
  <station code="AGRP" name="AGRP" netid="CL" insttype="CMG40-T" commtype="DIG" lat="38.3959" lon="21.7228">
    <comp name="00.HHE">
      <acc value="0.0161569845" flag="0"/>
      <vel value="0.0211029410" flag="0"/>
      <psa03 value="0.0401362656" flag="0"/>
      <psa10 value="0.0272471281" flag="0"/>
      <psa30 value="0.0104768625" flag="0"/>
    </comp>
    <comp name="00.HHN">
      <acc value="0.0144284391" flag="0"/>
      <vel value="0.0204527138" flag="0"/>
      <psa03 value="0.0377910549" flag="0"/>
      <psa10 value="0.0219964423" flag="0"/>
      <psa30 value="0.0080991303" flag="0"/>
    </comp>
    <comp name="00.HHZ">
      <acc value="0.0093183175" flag="0"/>
      <vel value="0.0129669541" flag="0"/>
      <psa03 value="0.0277365349" flag="0"/>
      <psa10 value="0.0181343283" flag="0"/>
      <psa30 value="0.0043332223" flag="0"/>
    </comp>
  </station>
  <station code="KLV" name="KLV" netid="MN" insttype="" commtype="DIG" lat="38.0437" lon="22.1504">
    <comp name="--.HHE">
      <acc value="0.0106904188" flag="0"/>
      <vel value="0.0147571929" flag="0"/>
      <psa03 value="0.0217792552" flag="0"/>
      <psa10 value="0.0169386668" flag="0"/>
      <psa30 value="0.0034136414" flag="0"/>
    </comp>
    <comp name="--.HHZ">
      <acc value="0.0126468063" flag="0"/>
      <vel value="0.0137354735" flag="0"/>
      <psa03 value="0.0232198140" flag="0"/>
      <psa10 value="0.0204675574" flag="0"/>
      <psa30 value="0.0027350009" flag="0"/>
    </comp>
    <comp name="--.HHN">
      <acc value="0.0102431829" flag="0"/>
      <vel value="0.0169006331" flag="0"/>
      <psa03 value="0.0264062014" flag="0"/>
      <psa10 value="0.0381635320" flag="0"/>
      <psa30 value="0.0026396997" flag="0"/>
    </comp>
  </station>
</stationlist>
