<stationlist created="1779846970">
	<station code="TRIZ" name="TRIZ" netid="CL" source="Corinth Riff Laboratory (CRLNET)" insttype="" lat="38.36543" lon="22.07272">
		<comp name="00.HNE" depth="0.0">
			<acc value="0.000412888162909221" flag="0"/>
			<vel value="0.000675172415008331" flag="0"/>
			<psa03 value="0.000795042006825968" flag="0"/>
			<psa10 value="0.000464874086642216" flag="0"/>
			<psa30 value="0.000152578466949546" flag="0"/>
		</comp>
		<comp name="00.HNN" depth="0.0">
			<acc value="0.000283625383604758" flag="0"/>
			<vel value="0.000185902281818999" flag="0"/>
			<psa03 value="0.000368900780639863" flag="0"/>
			<psa10 value="0.000130550616111042" flag="0"/>
			<psa30 value="8.55419688187661e-05" flag="0"/>
		</comp>
		<comp name="00.HNZ" depth="0.0">
			<acc value="0.000809359934324269" flag="0"/>
			<vel value="0.00157646713618163" flag="0"/>
			<psa03 value="0.00177179168891219" flag="0"/>
			<psa10 value="0.000906763779587763" flag="0"/>
			<psa30 value="0.000403368518059879" flag="0"/>
		</comp>
	</station>
	<station code="KTHA" name="KTHA" netid="GE" source="GEOFON" insttype="" lat="36.2566" lon="23.0621">
		<comp name="--.HNE" depth="0.0">
			<acc value="0.00181511857770965" flag="0"/>
			<vel value="0.00335658384592406" flag="0"/>
			<psa03 value="0.00256482371557713" flag="0"/>
			<psa10 value="0.00291386076334909" flag="0"/>
			<psa30 value="0.00128697056798238" flag="0"/>
		</comp>
		<comp name="--.HNN" depth="0.0">
			<acc value="0.00216468968785399" flag="0"/>
			<vel value="0.00431755287374299" flag="0"/>
			<psa03 value="0.0039323321122874" flag="0"/>
			<psa10 value="0.00326337547948625" flag="0"/>
			<psa30 value="0.00219585775646827" flag="0"/>
		</comp>
		<comp name="--.HNZ" depth="0.0">
			<acc value="0.000751572231813395" flag="0"/>
			<vel value="0.00110330427595765" flag="0"/>
			<psa03 value="0.00146840049698397" flag="0"/>
			<psa10 value="0.00162814727082983" flag="0"/>
			<psa30 value="0.00053663205965865" flag="0"/>
		</comp>
	</station>
	<station code="ATHU" name="ATHU" netid="HA" source="Hellenic Seismological Network, University of Athens, Seismological Laboratory (HA)" insttype="" lat="37.9665" lon="23.7845">
		<comp name="--.HNE" depth="0.0">
			<acc value="0.00016710316288461" flag="0"/>
			<vel value="7.91963598716064e-05" flag="0"/>
			<psa03 value="8.52466699190716e-05" flag="0"/>
			<psa10 value="4.86662634518413e-05" flag="0"/>
			<psa30 value="1.57790954178281e-05" flag="0"/>
		</comp>
		<comp name="--.HNN" depth="0.0">
			<acc value="0.000184418633227317" flag="0"/>
			<vel value="7.99824761107392e-05" flag="0"/>
			<psa03 value="9.6002901061986e-05" flag="0"/>
			<psa10 value="3.50262656306801e-05" flag="0"/>
			<psa30 value="2.77482802446681e-05" flag="0"/>
		</comp>
		<comp name="--.HNZ" depth="0.0">
			<acc value="0.000158914593774451" flag="0"/>
			<vel value="5.7861948985419e-05" flag="0"/>
			<psa03 value="8.84261662305358e-05" flag="0"/>
			<psa10 value="3.55704325384492e-05" flag="0"/>
			<psa30 value="2.32051244652029e-05" flag="0"/>
		</comp>
	</station>
	<station code="KIAS" name="KIAS" netid="HA" source="Hellenic Seismological Network, University of Athens, Seismological Laboratory (HA)" insttype="" lat="37.9875" lon="22.7543">
		<comp name="--.HNE" depth="0.0">
			<acc value="0.00228269891459592" flag="0"/>
			<vel value="0.00140499911827339" flag="0"/>
			<psa03 value="0.00242650351738779" flag="0"/>
			<psa10 value="0.00278269441797301" flag="0"/>
			<psa30 value="0.000529694256309371" flag="0"/>
		</comp>
		<comp name="--.HNN" depth="0.0">
			<acc value="0.00200896329436666" flag="0"/>
			<vel value="0.0013869471947676" flag="0"/>
			<psa03 value="0.00212404012129647" flag="0"/>
			<psa10 value="0.00212593731728827" flag="0"/>
			<psa30 value="0.000532227288695563" flag="0"/>
		</comp>
		<comp name="--.HNZ" depth="0.0">
			<acc value="0.00233488864164404" flag="0"/>
			<vel value="0.00131541097242452" flag="0"/>
			<psa03 value="0.00232614530664888" flag="0"/>
			<psa10 value="0.00200586748825208" flag="0"/>
			<psa30 value="0.00062921829720934" flag="0"/>
		</comp>
	</station>
	<station code="AGR3" name="AGR3" netid="HI" source="ITSAK Strong Motion Network" insttype="" lat="38.5893" lon="21.4162">
		<comp name="--.HNE" depth="0.0">
			<acc value="0.00325513965340081" flag="0"/>
			<vel value="0.000323532929661909" flag="0"/>
			<psa03 value="0.000670735513663725" flag="0"/>
			<psa10 value="0.000129748707519784" flag="0"/>
			<psa30 value="0.000151942005516371" flag="0"/>
		</comp>
		<comp name="--.HNN" depth="0.0">
			<acc value="0.00170506546708571" flag="0"/>
			<vel value="0.00032181569472207" flag="0"/>
			<psa03 value="0.00107995126152327" flag="0"/>
			<psa10 value="0.000123990743075111" flag="0"/>
			<psa30 value="9.607042018328e-05" flag="0"/>
		</comp>
		<comp name="--.HNZ" depth="0.0">
			<acc value="0.00550452636346898" flag="0"/>
			<vel value="0.000605966313476579" flag="0"/>
			<psa03 value="0.00146885251260276" flag="0"/>
			<psa10 value="0.000157079199671363" flag="0"/>
			<psa30 value="8.43782458946154e-05" flag="0"/>
		</comp>
	</station>
	<station code="AKR1" name="AKR1" netid="HI" source="ITSAK Strong Motion Network" insttype="" lat="38.153583" lon="22.31326">
		<comp name="--.HNE" depth="0.0">
			<acc value="0.000825776130099086" flag="0"/>
			<vel value="0.000159009353508196" flag="0"/>
			<psa03 value="0.000270250609482387" flag="0"/>
			<psa10 value="0.000147073082713728" flag="0"/>
			<psa30 value="7.84298765838682e-05" flag="0"/>
		</comp>
		<comp name="--.HNN" depth="0.0">
			<acc value="0.000739699320318844" flag="0"/>
			<vel value="0.000158103093770897" flag="0"/>
			<psa03 value="0.000352439485081668" flag="0"/>
			<psa10 value="0.000163896155167491" flag="0"/>
			<psa30 value="6.18515582996934e-05" flag="0"/>
		</comp>
		<comp name="--.HNZ" depth="0.0">
			<acc value="0.00059133856275133" flag="0"/>
			<vel value="0.000123714890320361" flag="0"/>
			<psa03 value="0.000232500672210667" flag="0"/>
			<psa10 value="0.00014580113321896" flag="0"/>
			<psa30 value="5.74502055338112e-05" flag="0"/>
		</comp>
	</station>
	<station code="ARE2" name="ARE2" netid="HI" source="ITSAK Strong Motion Network" insttype="" lat="36.66629" lon="22.382635">
		<comp name="--.HNE" depth="0.0">
			<acc value="0.000422211978476896" flag="0"/>
			<vel value="0.000123866862262822" flag="0"/>
			<psa03 value="0.000164676375310417" flag="0"/>
			<psa10 value="0.000174501755197538" flag="0"/>
			<psa30 value="6.00114168682153e-05" flag="0"/>
		</comp>
		<comp name="--.HNN" depth="0.0">
			<acc value="0.00066565355566975" flag="0"/>
			<vel value="0.000123709212297823" flag="0"/>
			<psa03 value="0.000275270310502443" flag="0"/>
			<psa10 value="0.000116420016942414" flag="0"/>
			<psa30 value="7.18873663518124e-05" flag="0"/>
		</comp>
		<comp name="--.HNZ" depth="0.0">
			<acc value="0.000723543704007628" flag="0"/>
			<vel value="0.000100039652792382" flag="0"/>
			<psa03 value="0.000218722110522928" flag="0"/>
			<psa10 value="0.000127050916499591" flag="0"/>
			<psa30 value="5.70807735086571e-05" flag="0"/>
		</comp>
	</station>
	<station code="ARG2" name="ARG2" netid="HI" source="ITSAK Strong Motion Network" insttype="" lat="38.1783" lon="20.4878">
		<comp name="--.HNE" depth="0.0">
			<acc value="0.00585853449881004" flag="0"/>
			<vel value="0.000624922568997739" flag="0"/>
			<psa03 value="0.000479305189117569" flag="0"/>
			<psa10 value="0.000223642798636184" flag="0"/>
			<psa30 value="8.50576007944849e-05" flag="0"/>
		</comp>
		<comp name="--.HNN" depth="0.0">
			<acc value="0.00682207570066856" flag="0"/>
			<vel value="0.00084253086119222" flag="0"/>
			<psa03 value="0.00059813723921779" flag="0"/>
			<psa10 value="0.000140331381226118" flag="0"/>
			<psa30 value="7.7657670481011e-05" flag="0"/>
		</comp>
		<comp name="--.HNZ" depth="0.0">
			<acc value="0.0143004835412479" flag="0"/>
			<vel value="0.0017058426192423" flag="0"/>
			<psa03 value="0.000994272001708812" flag="0"/>
			<psa10 value="0.000176702916638526" flag="0"/>
			<psa30 value="0.000178055219763489" flag="0"/>
		</comp>
	</station>
	<station code="ARS1" name="ARS1" netid="HI" source="ITSAK Strong Motion Network" insttype="" lat="37.6349" lon="22.7293">
		<comp name="--.HNE" depth="0.0">
			<acc value="0.00692624472788425" flag="0"/>
			<vel value="0.000428826797053428" flag="0"/>
			<psa03 value="0.000640901261903133" flag="0"/>
			<psa10 value="0.000136188631203298" flag="0"/>
			<psa30 value="8.84047691426936e-05" flag="0"/>
		</comp>
		<comp name="--.HNN" depth="0.0">
			<acc value="0.00694268773361014" flag="0"/>
			<vel value="0.000582615675079935" flag="0"/>
			<psa03 value="0.000999987386833054" flag="0"/>
			<psa10 value="0.000202837724113253" flag="0"/>
			<psa30 value="0.00010157330425354" flag="0"/>
		</comp>
		<comp name="--.HNZ" depth="0.0">
			<acc value="0.010549275772691" flag="0"/>
			<vel value="0.00078070096255118" flag="0"/>
			<psa03 value="0.00109671962494703" flag="0"/>
			<psa10 value="0.000162266584325969" flag="0"/>
			<psa30 value="8.85300834335545e-05" flag="0"/>
		</comp>
	</station>
	<station code="ART2" name="ART2" netid="HI" source="ITSAK Strong Motion Network" insttype="" lat="39.1474" lon="20.9937">
		<comp name="--.HNE" depth="0.0">
			<acc value="0.000995513027639314" flag="0"/>
			<vel value="0.00013132367760872" flag="0"/>
			<psa03 value="0.000268890859574888" flag="0"/>
			<psa10 value="0.000130265875568584" flag="0"/>
			<psa30 value="4.9387864802608e-05" flag="0"/>
		</comp>
		<comp name="--.HNN" depth="0.0">
			<acc value="0.0011220609000391" flag="0"/>
			<vel value="0.000108067898087371" flag="0"/>
			<psa03 value="0.000191217643630293" flag="0"/>
			<psa10 value="7.46472887667096e-05" flag="0"/>
			<psa30 value="4.59902113394795e-05" flag="0"/>
		</comp>
		<comp name="--.HNZ" depth="0.0">
			<acc value="0.000925426281480514" flag="0"/>
			<vel value="0.000110833043593769" flag="0"/>
			<psa03 value="0.00020794065493062" flag="0"/>
			<psa10 value="9.18458035719221e-05" flag="0"/>
			<psa30 value="5.97281038289468e-05" flag="0"/>
		</comp>
	</station>
	<station code="AST1" name="AST1" netid="HI" source="ITSAK Strong Motion Network" insttype="" lat="38.5416" lon="21.0895">
		<comp name="--.HNE" depth="0.0">
			<acc value="0.00128929353690823" flag="0"/>
			<vel value="0.000191524621693324" flag="0"/>
			<psa03 value="0.000427428135979885" flag="0"/>
			<psa10 value="0.000215505579897888" flag="0"/>
			<psa30 value="0.000104753599568198" flag="0"/>
		</comp>
		<comp name="--.HNN" depth="0.0">
			<acc value="0.000896835047658647" flag="0"/>
			<vel value="0.000143585356396354" flag="0"/>
			<psa03 value="0.000277385359468252" flag="0"/>
			<psa10 value="0.000145268187757697" flag="0"/>
			<psa30 value="6.69457043556585e-05" flag="0"/>
		</comp>
		<comp name="--.HNZ" depth="0.0">
			<acc value="0.00257232148317693" flag="0"/>
			<vel value="0.000217287591995156" flag="0"/>
			<psa03 value="0.000242411179807558" flag="0"/>
			<psa10 value="0.000172295920595169" flag="0"/>
			<psa30 value="5.8145987303076e-05" flag="0"/>
		</comp>
	</station>
	<station code="ATH5" name="ATH5" netid="HI" source="ITSAK Strong Motion Network" insttype="" lat="37.975421" lon="23.737098">
		<comp name="--.HNE" depth="0.0">
			<acc value="0.0032959855043281" flag="0"/>
			<vel value="0.000200735308123888" flag="0"/>
			<psa03 value="0.000360625492858994" flag="0"/>
			<psa10 value="0.00012692329085779" flag="0"/>
			<psa30 value="6.52294513395288e-05" flag="0"/>
		</comp>
		<comp name="--.HNN" depth="0.0">
			<acc value="0.00237718963439535" flag="0"/>
			<vel value="0.000302058164826998" flag="0"/>
			<psa03 value="0.000353005399849052" flag="0"/>
			<psa10 value="0.000155878973677765" flag="0"/>
			<psa30 value="0.000164494764158213" flag="0"/>
		</comp>
		<comp name="--.HNZ" depth="0.0">
			<acc value="0.0021223395713365" flag="0"/>
			<vel value="0.000220557044273042" flag="0"/>
			<psa03 value="0.000309408985596167" flag="0"/>
			<psa10 value="0.000180155562351348" flag="0"/>
			<psa30 value="8.48873746739314e-05" flag="0"/>
		</comp>
	</station>
	<station code="FRS1" name="FRS1" netid="HI" source="ITSAK Strong Motion Network" insttype="" lat="39.2934" lon="22.3844">
		<comp name="--.HNE" depth="0.0">
			<acc value="0.000512164912881183" flag="0"/>
			<vel value="0.000107339266433945" flag="0"/>
			<psa03 value="0.000244445799454347" flag="0"/>
			<psa10 value="0.000111534732378743" flag="0"/>
			<psa30 value="6.17743005776265e-05" flag="0"/>
		</comp>
		<comp name="--.HNN" depth="0.0">
			<acc value="0.000843471694217703" flag="0"/>
			<vel value="0.000138577899428438" flag="0"/>
			<psa03 value="0.000192172968146046" flag="0"/>
			<psa10 value="9.94411040866629e-05" flag="0"/>
			<psa30 value="7.46423079679836e-05" flag="0"/>
		</comp>
		<comp name="--.HNZ" depth="0.0">
			<acc value="0.000602429633131945" flag="0"/>
			<vel value="0.000142435645345962" flag="0"/>
			<psa03 value="0.000181855451165225" flag="0"/>
			<psa10 value="0.000107406331450844" flag="0"/>
			<psa30 value="7.78417126209234e-05" flag="0"/>
		</comp>
	</station>
	<station code="GTH2" name="GTH2" netid="HI" source="ITSAK Strong Motion Network" insttype="" lat="36.7603" lon="22.5659">
		<comp name="--.HNE" depth="0.0">
			<acc value="0.00365543745839952" flag="0"/>
			<vel value="0.000756972395026917" flag="0"/>
			<psa03 value="0.00154116524567751" flag="0"/>
			<psa10 value="0.000377042770201978" flag="0"/>
			<psa30 value="0.000115672753898189" flag="0"/>
		</comp>
		<comp name="--.HNN" depth="0.0">
			<acc value="0.00231823121227063" flag="0"/>
			<vel value="0.000471824161311103" flag="0"/>
			<psa03 value="0.00158641922009349" flag="0"/>
			<psa10 value="0.00030192922007888" flag="0"/>
			<psa30 value="9.19398666064353e-05" flag="0"/>
		</comp>
		<comp name="--.HNZ" depth="0.0">
			<acc value="0.0150950284013824" flag="0"/>
			<vel value="0.00243221808896915" flag="0"/>
			<psa03 value="0.0014913346334427" flag="0"/>
			<psa10 value="0.000217169283860256" flag="0"/>
			<psa30 value="5.24662034931331e-05" flag="0"/>
		</comp>
	</station>
	<station code="KAR2" name="KAR2" netid="HI" source="ITSAK Strong Motion Network" insttype="" lat="39.365759" lon="21.91933">
		<comp name="--.HNE" depth="0.0">
			<acc value="0.00402534477773381" flag="0"/>
			<vel value="0.000668291902942249" flag="0"/>
			<psa03 value="0.0026761989321812" flag="0"/>
			<psa10 value="0.000200434942870316" flag="0"/>
			<psa30 value="0.000119992323902697" flag="0"/>
		</comp>
		<comp name="--.HNN" depth="0.0">
			<acc value="0.00373946764022032" flag="0"/>
			<vel value="0.000465642640563403" flag="0"/>
			<psa03 value="0.00202957813448643" flag="0"/>
			<psa10 value="0.000210999890793257" flag="0"/>
			<psa30 value="0.000147231602329563" flag="0"/>
		</comp>
		<comp name="--.HNZ" depth="0.0">
			<acc value="0.027661874039039" flag="0"/>
			<vel value="0.00330931478755599" flag="0"/>
			<psa03 value="0.00295525729472878" flag="0"/>
			<psa10 value="0.000303574407189646" flag="0"/>
			<psa30 value="8.79730999215655e-05" flag="0"/>
		</comp>
	</station>
	<station code="KIF1" name="KIF1" netid="HI" source="ITSAK Strong Motion Network" insttype="" lat="38.077273" lon="23.814551">
		<comp name="--.HNE" depth="0.0">
			<acc value="0.0042817478570999" flag="0"/>
			<vel value="0.000330210852881324" flag="0"/>
			<psa03 value="0.000351994550007908" flag="0"/>
			<psa10 value="0.00013399817847949" flag="0"/>
			<psa30 value="0.000142766827393183" flag="0"/>
		</comp>
		<comp name="--.HNN" depth="0.0">
			<acc value="0.00284710800145562" flag="0"/>
			<vel value="0.000270249011394424" flag="0"/>
			<psa03 value="0.000289742074036118" flag="0"/>
			<psa10 value="0.000156209830556516" flag="0"/>
			<psa30 value="0.000108753955717939" flag="0"/>
		</comp>
		<comp name="--.HNZ" depth="0.0">
			<acc value="0.00652831084985182" flag="0"/>
			<vel value="0.000650287642102319" flag="0"/>
			<psa03 value="0.000509993175821869" flag="0"/>
			<psa10 value="0.00016066872945219" flag="0"/>
			<psa30 value="0.000109956242394712" flag="0"/>
		</comp>
	</station>
	<station code="KMV1" name="KMV1" netid="HI" source="ITSAK Strong Motion Network" insttype="" lat="38.7794" lon="22.7846">
		<comp name="--.HNE" depth="0.0">
			<acc value="0.00470075824769065" flag="0"/>
			<vel value="0.0010090826381136" flag="0"/>
			<psa03 value="0.00188046425251654" flag="0"/>
			<psa10 value="0.000783800926870653" flag="0"/>
			<psa30 value="0.000424143305745934" flag="0"/>
		</comp>
		<comp name="--.HNN" depth="0.0">
			<acc value="0.00538538648457194" flag="0"/>
			<vel value="0.000504135643577377" flag="0"/>
			<psa03 value="0.00107059899810283" flag="0"/>
			<psa10 value="0.000351392242855288" flag="0"/>
			<psa30 value="0.000198695688655822" flag="0"/>
		</comp>
		<comp name="--.HNZ" depth="0.0">
			<acc value="0.0188492949918099" flag="0"/>
			<vel value="0.00163089952451814" flag="0"/>
			<psa03 value="0.00147243575778949" flag="0"/>
			<psa10 value="0.000536169795959586" flag="0"/>
			<psa30 value="0.000337367687495082" flag="0"/>
		</comp>
	</station>
	<station code="KOR2" name="KOR2" netid="HI" source="ITSAK Strong Motion Network" insttype="" lat="37.9401" lon="22.9495">
		<comp name="--.HNE" depth="0.0">
			<acc value="0.00510278455877632" flag="0"/>
			<vel value="0.000720612417809516" flag="0"/>
			<psa03 value="0.000981248678038039" flag="0"/>
			<psa10 value="0.000688834499090517" flag="0"/>
			<psa30 value="0.000141011789255653" flag="0"/>
		</comp>
		<comp name="--.HNN" depth="0.0">
			<acc value="0.00332777144153393" flag="0"/>
			<vel value="0.000459646694719651" flag="0"/>
			<psa03 value="0.00102346062150846" flag="0"/>
			<psa10 value="0.000660270731883373" flag="0"/>
			<psa30 value="0.000138737992794478" flag="0"/>
		</comp>
		<comp name="--.HNZ" depth="0.0">
			<acc value="0.00873435606196786" flag="0"/>
			<vel value="0.00111808576428751" flag="0"/>
			<psa03 value="0.00149588360015751" flag="0"/>
			<psa10 value="0.00118490658018237" flag="0"/>
			<psa30 value="9.42677356600834e-05" flag="0"/>
		</comp>
	</station>
	<station code="LAM2" name="LAM2" netid="HI" source="ITSAK Strong Motion Network" insttype="" lat="38.90203" lon="22.431301">
		<comp name="--.HNE" depth="0.0">
			<acc value="0.00325994328177036" flag="0"/>
			<vel value="0.000357385355331646" flag="0"/>
			<psa03 value="0.000259312364532017" flag="0"/>
			<psa10 value="0.000104998525461104" flag="0"/>
			<psa30 value="4.80429872994427e-05" flag="0"/>
		</comp>
		<comp name="--.HNN" depth="0.0">
			<acc value="0.00346619424341788" flag="0"/>
			<vel value="0.000324449775327773" flag="0"/>
			<psa03 value="0.000687121527545224" flag="0"/>
			<psa10 value="0.000135469389221076" flag="0"/>
			<psa30 value="8.14390212375429e-05" flag="0"/>
		</comp>
		<comp name="--.HNZ" depth="0.0">
			<acc value="0.00796794643476608" flag="0"/>
			<vel value="0.000874986863873032" flag="0"/>
			<psa03 value="0.000755566735532795" flag="0"/>
			<psa10 value="0.00011670083144322" flag="0"/>
			<psa30 value="4.2689696472474e-05" flag="0"/>
		</comp>
	</station>
	<station code="LEF2" name="LEF2" netid="HI" source="ITSAK Strong Motion Network" insttype="" lat="38.830093" lon="20.708346">
		<comp name="--.HNE" depth="0.0">
			<acc value="0.00173710652763465" flag="0"/>
			<vel value="0.000289937455942048" flag="0"/>
			<psa03 value="0.00114067924278821" flag="0"/>
			<psa10 value="0.000295468450288022" flag="0"/>
			<psa30 value="7.73245559662634e-05" flag="0"/>
		</comp>
		<comp name="--.HNN" depth="0.0">
			<acc value="0.00118113631012274" flag="0"/>
			<vel value="0.000310987465589464" flag="0"/>
			<psa03 value="0.00110879309728464" flag="0"/>
			<psa10 value="0.00035175323356617" flag="0"/>
			<psa30 value="0.000115560259466512" flag="0"/>
		</comp>
		<comp name="--.HNZ" depth="0.0">
			<acc value="0.00328433130481087" flag="0"/>
