<?xml version="1.0" encoding="UTF-8" standalone="yes"?>
<!DOCTYPE earthquake SYSTEM "stationlist.dtd">
<stationlist created="" xmlns="ch.ethz.sed.shakemap.usgs.xml">
  <station code="BODT" name="BODT" netid="KO" insttype="CMG-3ESP" lat="37.0622" lon="27.3103">
    <comp name="--.HHN">
      <acc value="0.0051534324" flag="0"/>
      <vel value="0.0081128605" flag="0"/>
      <psa03 value="0.0074021981" flag="0"/>
      <psa10 value="0.0082852783" flag="0"/>
      <psa30 value="0.0009681135" flag="0"/>
    </comp>
    <comp name="--.HHE">
      <acc value="0.0055046453" flag="0"/>
      <vel value="0.0050248183" flag="0"/>
      <psa03 value="0.0083724849" flag="0"/>
      <psa10 value="0.0055237671" flag="0"/>
      <psa30 value="0.0005460955" flag="0"/>
    </comp>
    <comp name="--.HHZ">
      <acc value="0.0039325989" flag="0"/>
      <vel value="0.0023602943" flag="0"/>
      <psa03 value="0.0074597559" flag="0"/>
      <psa10 value="0.0019253806" flag="0"/>
      <psa30 value="0.0001644473" flag="0"/>
    </comp>
  </station>
  <station code="DAT" name="DAT" netid="KO" insttype="CMG-3T" lat="36.7308" lon="27.5767">
    <comp name="--.HHE">
      <acc value="0.0068145960" flag="0"/>
      <vel value="0.0040515402" flag="0"/>
      <psa03 value="0.0074879472" flag="0"/>
      <psa10 value="0.0051210803" flag="0"/>
      <psa30 value="0.0008283420" flag="0"/>
    </comp>
    <comp name="--.HHN">
      <acc value="0.0062965697" flag="0"/>
      <vel value="0.0070853524" flag="0"/>
      <psa03 value="0.0083429356" flag="0"/>
      <psa10 value="0.0078027003" flag="0"/>
      <psa30 value="0.0012188080" flag="0"/>
    </comp>
    <comp name="--.HHZ">
      <acc value="0.0000273087" flag="0"/>
      <vel value="0.0000028483" flag="0"/>
      <psa03 value="0.0000106318" flag="0"/>
      <psa10 value="0.0000027119" flag="0"/>
      <psa30 value="0.0000003713" flag="0"/>
    </comp>
  </station>
  <station code="MLSB" name="MLSB" netid="KO" insttype="CMG-3ESP" lat="37.2953" lon="27.7767">
    <comp name="--.HHZ">
      <acc value="0.0015910593" flag="0"/>
      <vel value="0.0008197581" flag="0"/>
      <psa03 value="0.0033085690" flag="0"/>
      <psa10 value="0.0010617254" flag="0"/>
      <psa30 value="0.0001992552" flag="0"/>
    </comp>
    <comp name="--.HHN">
      <acc value="0.0024577009" flag="0"/>
      <vel value="0.0028609580" flag="0"/>
      <psa03 value="0.0039051309" flag="0"/>
      <psa10 value="0.0038359325" flag="0"/>
      <psa30 value="0.0005214912" flag="0"/>
    </comp>
    <comp name="--.HHE">
      <acc value="0.0010873993" flag="0"/>
      <vel value="0.0013853726" flag="0"/>
      <psa03 value="0.0016928380" flag="0"/>
      <psa10 value="0.0018134383" flag="0"/>
      <psa30 value="0.0005225892" flag="0"/>
    </comp>
  </station>
</stationlist>
