<?xml version="1.0" encoding="UTF-8" standalone="yes"?>
<!DOCTYPE earthquake SYSTEM "stationlist.dtd">
<stationlist created="" xmlns="ch.ethz.sed.shakemap.usgs.xml">
  <station code="APE" name="APE" netid="GE" insttype="STS-2/N" lat="37.0727" lon="25.523">
    <comp name="--.HHE">
      <acc value="0.0123831487" flag="0"/>
      <vel value="0.0047741665" flag="0"/>
      <psa03 value="0.0128286169" flag="0"/>
      <psa10 value="0.0042217934" flag="0"/>
      <psa30 value="0.0007965923" flag="0"/>
    </comp>
    <comp name="--.HHN">
      <acc value="0.0159742034" flag="0"/>
      <vel value="0.0041070082" flag="0"/>
      <psa03 value="0.0167514764" flag="0"/>
      <psa10 value="0.0043612914" flag="0"/>
      <psa30 value="0.0005361009" flag="0"/>
    </comp>
    <comp name="--.HHZ">
      <acc value="0.0066458826" flag="0"/>
      <vel value="0.0029071835" flag="0"/>
      <psa03 value="0.0139670761" flag="0"/>
      <psa10 value="0.0048382390" flag="0"/>
      <psa30 value="0.0004200680" flag="0"/>
    </comp>
  </station>
  <station code="CESE" name="CESE" netid="KO" insttype="CMG-5T" lat="38.3306" lon="26.2997">
    <comp name="--.HNE">
      <acc value="0.6628138859" flag="0"/>
      <vel value="0.2112614438" flag="0"/>
      <psa03 value="0.3837296790" flag="0"/>
      <psa10 value="0.2416658241" flag="0"/>
      <psa30 value="0.0175222573" flag="0"/>
    </comp>
    <comp name="--.HNN">
      <acc value="0.6575965528" flag="0"/>
      <vel value="0.2416297136" flag="0"/>
      <psa03 value="1.2947079402" flag="0"/>
      <psa10 value="0.2124039539" flag="0"/>
      <psa30 value="0.0173401751" flag="0"/>
    </comp>
    <comp name="--.HNZ">
      <acc value="0.4766082639" flag="0"/>
      <vel value="0.1240731496" flag="0"/>
      <psa03 value="0.5226546980" flag="0"/>
      <psa10 value="0.0885613303" flag="0"/>
      <psa30 value="0.0059465371" flag="0"/>
    </comp>
  </station>
  <station code="FOCM" name="FOCM" netid="KO" insttype="CMG-5T" lat="38.7131" lon="26.7309">
    <comp name="--.HNE">
      <acc value="0.1849128896" flag="0"/>
      <vel value="0.0475448378" flag="0"/>
      <psa03 value="0.3019316527" flag="0"/>
      <psa10 value="0.0361263409" flag="0"/>
      <psa30 value="0.0038013279" flag="0"/>
    </comp>
    <comp name="--.HNN">
      <acc value="0.1112908603" flag="0"/>
      <vel value="0.0365608785" flag="0"/>
      <psa03 value="0.2392020023" flag="0"/>
      <psa10 value="0.0289061439" flag="0"/>
      <psa30 value="0.0038409460" flag="0"/>
    </comp>
    <comp name="--.HNZ">
      <acc value="0.0859105313" flag="0"/>
      <vel value="0.0317808369" flag="0"/>
      <psa03 value="0.2250712049" flag="0"/>
      <psa10 value="0.0146871142" flag="0"/>
      <psa30 value="0.0011572011" flag="0"/>
    </comp>
  </station>
  <station code="GMLD" name="GMLD" netid="KO" insttype="CMG-5T" lat="38.0766" lon="26.9157">
    <comp name="--.HNE">
      <acc value="0.3954280915" flag="0"/>
      <vel value="0.1712271733" flag="0"/>
      <psa03 value="1.0001172722" flag="0"/>
      <psa10 value="0.0671899873" flag="0"/>
      <psa30 value="0.0035461163" flag="0"/>
    </comp>
    <comp name="--.HNN">
      <acc value="0.3429041605" flag="0"/>
      <vel value="0.1727549342" flag="0"/>
      <psa03 value="1.0089078981" flag="0"/>
      <psa10 value="0.0874472841" flag="0"/>
      <psa30 value="0.0053601586" flag="0"/>
    </comp>
    <comp name="--.HNZ">
      <acc value="0.1705652387" flag="0"/>
      <vel value="0.0746751143" flag="0"/>
      <psa03 value="0.6111117243" flag="0"/>
      <psa10 value="0.0294204769" flag="0"/>
      <psa30 value="0.0020969454" flag="0"/>
    </comp>
  </station>
  <station code="KRBN" name="KRBN" netid="KO" insttype="CMG-5T" lat="38.5936" lon="26.5537">
    <comp name="--.HNE">
      <acc value="0.2819499094" flag="0"/>
      <vel value="0.0936091373" flag="0"/>
      <psa03 value="0.3484483320" flag="0"/>
      <psa10 value="0.1000456876" flag="0"/>
      <psa30 value="0.0064220757" flag="0"/>
    </comp>
    <comp name="--.HNN">
      <acc value="0.3922596050" flag="0"/>
      <vel value="0.1001174131" flag="0"/>
      <psa03 value="0.5810753903" flag="0"/>
      <psa10 value="0.1247054901" flag="0"/>
      <psa30 value="0.0047562176" flag="0"/>
    </comp>
    <comp name="--.HNZ">
      <acc value="0.1350561838" flag="0"/>
      <vel value="0.0540135702" flag="0"/>
      <psa03 value="0.1825936844" flag="0"/>
      <psa10 value="0.0738925517" flag="0"/>
      <psa30 value="0.0037212941" flag="0"/>
    </comp>
  </station>
</stationlist>
