<?xml version="1.0" encoding="UTF-8" standalone="yes"?>
<!DOCTYPE earthquake SYSTEM "stationlist.dtd">
<stationlist created="" xmlns="ch.ethz.sed.shakemap.usgs.xml">
  <station code="CESE" name="CESE" netid="KO" insttype="CMG-5T" lat="38.3306" lon="26.2997">
    <comp name="--.HNE">
      <acc value="0.6628138457" flag="0"/>
      <vel value="0.2112614409" flag="0"/>
      <psa03 value="0.3837296790" flag="0"/>
      <psa10 value="0.2416658156" flag="0"/>
      <psa30 value="0.0175220962" flag="0"/>
    </comp>
    <comp name="--.HNN">
      <acc value="0.6575965287" flag="0"/>
      <vel value="0.2416297010" flag="0"/>
      <psa03 value="1.2947079402" flag="0"/>
      <psa10 value="0.2124039589" flag="0"/>
      <psa30 value="0.0173433614" flag="0"/>
    </comp>
    <comp name="--.HNZ">
      <acc value="0.4766083488" flag="0"/>
      <vel value="0.1240731398" flag="0"/>
      <psa03 value="0.5226546980" flag="0"/>
      <psa10 value="0.0885613403" flag="0"/>
      <psa30 value="0.0059463616" flag="0"/>
    </comp>
  </station>
  <station code="FOCM" name="FOCM" netid="KO" insttype="CMG-5T" lat="38.7131" lon="26.7309">
    <comp name="--.HNE">
      <acc value="0.1849128550" flag="0"/>
      <vel value="0.0475448399" flag="0"/>
      <psa03 value="0.3019316527" flag="0"/>
      <psa10 value="0.0361263410" flag="0"/>
      <psa30 value="0.0038021109" flag="0"/>
    </comp>
    <comp name="--.HNZ">
      <acc value="0.0859104974" flag="0"/>
      <vel value="0.0317808342" flag="0"/>
      <psa03 value="0.2250712049" flag="0"/>
      <psa10 value="0.0146871117" flag="0"/>
      <psa30 value="0.0011566078" flag="0"/>
    </comp>
    <comp name="--.HNN">
      <acc value="0.1112908121" flag="0"/>
      <vel value="0.0365608711" flag="0"/>
      <psa03 value="0.2392020023" flag="0"/>
      <psa10 value="0.0289061479" flag="0"/>
      <psa30 value="0.0038407417" flag="0"/>
    </comp>
  </station>
  <station code="GMLD" name="GMLD" netid="KO" insttype="CMG-5T" lat="38.0766" lon="26.9157">
    <comp name="--.HNE">
      <acc value="0.3954280825" flag="0"/>
      <vel value="0.1712271712" flag="0"/>
      <psa03 value="1.0001172722" flag="0"/>
      <psa10 value="0.0671899879" flag="0"/>
      <psa30 value="0.0035447081" flag="0"/>
    </comp>
    <comp name="--.HNN">
      <acc value="0.3429041460" flag="0"/>
      <vel value="0.1727549363" flag="0"/>
      <psa03 value="1.0089078981" flag="0"/>
      <psa10 value="0.0874472815" flag="0"/>
      <psa30 value="0.0053605716" flag="0"/>
    </comp>
    <comp name="--.HNZ">
      <acc value="0.1705651984" flag="0"/>
      <vel value="0.0746751155" flag="0"/>
      <psa03 value="0.6111117243" flag="0"/>
      <psa10 value="0.0294204701" flag="0"/>
      <psa30 value="0.0020970674" flag="0"/>
    </comp>
  </station>
  <station code="KRBN" name="KRBN" netid="KO" insttype="CMG-5T" lat="38.5936" lon="26.5537">
    <comp name="--.HNZ">
      <acc value="0.1350564508" flag="0"/>
      <vel value="0.0540135617" flag="0"/>
      <psa03 value="0.1825936844" flag="0"/>
      <psa10 value="0.0738925517" flag="0"/>
      <psa30 value="0.0037217938" flag="0"/>
    </comp>
    <comp name="--.HNE">
      <acc value="0.2819502883" flag="0"/>
      <vel value="0.0936091454" flag="0"/>
      <psa03 value="0.3484483320" flag="0"/>
      <psa10 value="0.1000456841" flag="0"/>
      <psa30 value="0.0064244572" flag="0"/>
    </comp>
    <comp name="--.HNN">
      <acc value="0.3922595716" flag="0"/>
      <vel value="0.1001174068" flag="0"/>
      <psa03 value="0.5810753903" flag="0"/>
      <psa10 value="0.1247054914" flag="0"/>
      <psa30 value="0.0047548650" flag="0"/>
    </comp>
  </station>
</stationlist>
