<?xml version="1.0" encoding="UTF-8" standalone="yes"?>
<!DOCTYPE earthquake SYSTEM "stationlist.dtd">
<stationlist created="" xmlns="ch.ethz.sed.shakemap.usgs.xml">
  <station code="APE" name="APE" netid="GE" insttype="STS-2/N" lat="37.0727" lon="25.523">
    <comp name="--.HHE">
      <acc value="0.0123831487" flag="0"/>
      <vel value="0.0047741665" flag="0"/>
      <psa03 value="0.0128286169" flag="0"/>
      <psa10 value="0.0042217934" flag="0"/>
      <psa30 value="0.0007965923" flag="0"/>
    </comp>
    <comp name="--.HHN">
      <acc value="0.0159742034" flag="0"/>
      <vel value="0.0041070082" flag="0"/>
      <psa03 value="0.0167514764" flag="0"/>
      <psa10 value="0.0043612914" flag="0"/>
      <psa30 value="0.0005361009" flag="0"/>
    </comp>
    <comp name="--.HHZ">
      <acc value="0.0066458826" flag="0"/>
      <vel value="0.0029071835" flag="0"/>
      <psa03 value="0.0139670761" flag="0"/>
      <psa10 value="0.0048382390" flag="0"/>
      <psa30 value="0.0004200680" flag="0"/>
    </comp>
  </station>
  <station code="THNO" name="THNO" netid="HC" insttype="60" lat="37.6541" lon="25.0221">
    <comp name="--.HHE">
      <acc value="0.0000000000" flag="0"/>
      <vel value="-100.0000000000" flag="0"/>
      <psa03 value="0.0000000000" flag="0"/>
      <psa10 value="0.0000000000" flag="0"/>
      <psa30 value="0.0000000000" flag="0"/>
    </comp>
    <comp name="--.HHN">
      <acc value="0.0000000000" flag="0"/>
      <vel value="-100.0000000000" flag="0"/>
      <psa03 value="0.0000000000" flag="0"/>
      <psa10 value="0.0000000000" flag="0"/>
      <psa30 value="0.0000000000" flag="0"/>
    </comp>
    <comp name="--.HHZ">
      <acc value="0.0449807999" flag="0"/>
      <vel value="0.0133867232" flag="0"/>
      <psa03 value="0.0762409026" flag="0"/>
      <psa10 value="0.0066249034" flag="0"/>
      <psa30 value="0.0007948890" flag="0"/>
    </comp>
  </station>
  <station code="KRL1" name="KRL1" netid="HI" insttype="CMG-5TD,ACCELEROMETER,GURALP" lat="37.7951" lon="26.7065">
    <comp name="--.HNE">
      <acc value="0.2517590181" flag="0"/>
      <vel value="0.0810424019" flag="0"/>
      <psa03 value="0.2098436686" flag="0"/>
      <psa10 value="0.0711968774" flag="0"/>
      <psa30 value="0.0045985206" flag="0"/>
    </comp>
    <comp name="--.HNZ">
      <acc value="0.0871889596" flag="0"/>
      <vel value="0.0669878282" flag="0"/>
      <psa03 value="0.1343920213" flag="0"/>
      <psa10 value="0.0557700777" flag="0"/>
      <psa30 value="0.0037436216" flag="0"/>
    </comp>
    <comp name="--.HNN">
      <acc value="0.1372832145" flag="0"/>
      <vel value="0.0732826972" flag="0"/>
      <psa03 value="0.2626194557" flag="0"/>
      <psa10 value="0.0814512749" flag="0"/>
      <psa30 value="0.0049806645" flag="0"/>
    </comp>
  </station>
  <station code="MYT1" name="MYT1" netid="HI" insttype="CMG-5TD,ACCELEROMETER,GURALP" lat="39.085" lon="26.5694">
    <comp name="--.HNN">
      <acc value="0.0490965248" flag="0"/>
      <vel value="0.0219442804" flag="0"/>
      <psa03 value="0.1820127975" flag="0"/>
      <psa10 value="0.0468113058" flag="0"/>
      <psa30 value="0.0016578073" flag="0"/>
    </comp>
    <comp name="--.HNE">
      <acc value="0.0722839566" flag="0"/>
      <vel value="0.0388243534" flag="0"/>
      <psa03 value="0.1917004917" flag="0"/>
      <psa10 value="0.0498359030" flag="0"/>
      <psa30 value="0.0020648414" flag="0"/>
    </comp>
    <comp name="--.HNZ">
      <acc value="0.0396472094" flag="0"/>
      <vel value="0.0243491193" flag="0"/>
      <psa03 value="0.1074712676" flag="0"/>
      <psa10 value="0.0270272354" flag="0"/>
      <psa30 value="0.0023685701" flag="0"/>
    </comp>
  </station>
  <station code="APE" name="APE" netid="HL" insttype="120" lat="37.0727" lon="25.523">
    <comp name="--.HHN">
      <acc value="0.0148872782" flag="0"/>
      <vel value="0.0040131412" flag="0"/>
      <psa03 value="0.0162385528" flag="0"/>
      <psa10 value="0.0043218551" flag="0"/>
      <psa30 value="0.0005345829" flag="0"/>
    </comp>
    <comp name="--.HHE">
      <acc value="0.0115523910" flag="0"/>
      <vel value="0.0046777970" flag="0"/>
      <psa03 value="0.0124115829" flag="0"/>
      <psa10 value="0.0041977103" flag="0"/>
      <psa30 value="0.0007948681" flag="0"/>
    </comp>
    <comp name="--.HHZ">
      <acc value="0.0063675490" flag="0"/>
      <vel value="0.0028707665" flag="0"/>
      <psa03 value="0.0136414955" flag="0"/>
      <psa10 value="0.0048071046" flag="0"/>
      <psa30 value="0.0004185948" flag="0"/>
    </comp>
  </station>
  <station code="PRK" name="PRK" netid="HL" insttype="120" lat="39.2456" lon="26.265">
    <comp name="--.HHN">
      <acc value="0.0358448815" flag="0"/>
      <vel value="0.0251525995" flag="0"/>
      <psa03 value="0.1509104038" flag="0"/>
      <psa10 value="0.0266594634" flag="0"/>
      <psa30 value="0.0020091533" flag="0"/>
    </comp>
    <comp name="--.HHE">
      <acc value="0.0362292761" flag="0"/>
      <vel value="0.0288231592" flag="0"/>
      <psa03 value="0.0974542498" flag="0"/>
      <psa10 value="0.0435711159" flag="0"/>
      <psa30 value="0.0020993327" flag="0"/>
    </comp>
    <comp name="--.HHZ">
      <acc value="0.0221061464" flag="0"/>
      <vel value="0.0133053493" flag="0"/>
      <psa03 value="0.0627297294" flag="0"/>
      <psa10 value="0.0190123435" flag="0"/>
      <psa30 value="0.0013075718" flag="0"/>
    </comp>
  </station>
  <station code="SMG" name="SMG" netid="HL" insttype="120" lat="37.7043" lon="26.8377">
    <comp name="--.HHE">
      <acc value="0.2410721713" flag="0"/>
      <vel value="0.1202634711" flag="0"/>
      <psa03 value="0.4561637921" flag="0"/>
      <psa10 value="0.0905581587" flag="0"/>
      <psa30 value="0.0060172083" flag="0"/>
    </comp>
    <comp name="--.HHN">
      <acc value="0.2300565591" flag="0"/>
      <vel value="0.1055194066" flag="0"/>
      <psa03 value="0.3296605366" flag="0"/>
      <psa10 value="0.0803374843" flag="0"/>
      <psa30 value="0.0046854428" flag="0"/>
    </comp>
    <comp name="--.HHZ">
      <acc value="0.0723455668" flag="0"/>
      <vel value="0.0284071037" flag="0"/>
      <psa03 value="0.0856941106" flag="0"/>
      <psa10 value="0.0277218625" flag="0"/>
      <psa30 value="0.0011750023" flag="0"/>
    </comp>
  </station>
  <station code="TNSA" name="TNSA" netid="HL" insttype="CMG-5" lat="37.5394" lon="25.1631">
    <comp name="00.HNZ">
      <acc value="0.0318320574" flag="0"/>
      <vel value="0.0142790473" flag="0"/>
      <psa03 value="0.0836651396" flag="0"/>
      <psa10 value="0.0086288178" flag="0"/>
      <psa30 value="0.0005787721" flag="0"/>
    </comp>
    <comp name="00.HNE">
      <acc value="0.0461513205" flag="0"/>
      <vel value="0.0162994922" flag="0"/>
      <psa03 value="0.1019768975" flag="0"/>
      <psa10 value="0.0137745364" flag="0"/>
      <psa30 value="0.0016385775" flag="0"/>
    </comp>
    <comp name="00.HNN">
      <acc value="0.0497369535" flag="0"/>
      <vel value="0.0115976892" flag="0"/>
      <psa03 value="0.0710968658" flag="0"/>
      <psa10 value="0.0117818606" flag="0"/>
      <psa30 value="0.0011239515" flag="0"/>
    </comp>
  </station>
  <station code="CHOS" name="CHOS" netid="HT" insttype="100" lat="38.3869" lon="26.0506">
    <comp name="--.HHN">
      <acc value="0.4711831066" flag="0"/>
      <vel value="0.2023118881" flag="0"/>
      <psa03 value="0.4388969805" flag="0"/>
      <psa10 value="0.2973656456" flag="0"/>
      <psa30 value="0.0158312214" flag="0"/>
    </comp>
    <comp name="--.HHE">
      <acc value="0.6512300328" flag="0"/>
      <vel value="0.3461958244" flag="0"/>
      <psa03 value="0.7097286809" flag="0"/>
      <psa10 value="0.3522893714" flag="0"/>
      <psa30 value="0.0234412110" flag="0"/>
    </comp>
    <comp name="--.HHZ">
      <acc value="0.2038608512" flag="0"/>
      <vel value="0.0619596060" flag="0"/>
      <psa03 value="0.1653768226" flag="0"/>
      <psa10 value="0.0593241917" flag="0"/>
      <psa30 value="0.0046441071" flag="0"/>
    </comp>
  </station>
  <station code="SIGR" name="SIGR" netid="HT" insttype="100" lat="39.2114" lon="25.8553">
    <comp name="--.HHZ">
      <acc value="0.0203302209" flag="0"/>
      <vel value="0.0061871375" flag="0"/>
      <psa03 value="0.0290755161" flag="0"/>
      <psa10 value="0.0060699432" flag="0"/>
      <psa30 value="0.0007859983" flag="0"/>
    </comp>
    <comp name="--.HHN">
      <acc value="0.0310222439" flag="0"/>
      <vel value="0.0161134733" flag="0"/>
      <psa03 value="0.0435579833" flag="0"/>
      <psa10 value="0.0135875012" flag="0"/>
      <psa30 value="0.0010331193" flag="0"/>
    </comp>
    <comp name="--.HHE">
      <acc value="0.0266048912" flag="0"/>
      <vel value="0.0185028094" flag="0"/>
      <psa03 value="0.0602221448" flag="0"/>
      <psa10 value="0.0220682838" flag="0"/>
      <psa30 value="0.0014730960" flag="0"/>
    </comp>
  </station>
  <station code="CESE" name="CESE" netid="KO" insttype="CMG-5T" lat="38.3306" lon="26.2997">
    <comp name="--.HNE">
      <acc value="0.6628138859" flag="0"/>
      <vel value="0.2112614438" flag="0"/>
      <psa03 value="0.3837296790" flag="0"/>
      <psa10 value="0.2416658241" flag="0"/>
      <psa30 value="0.0175222573" flag="0"/>
    </comp>
    <comp name="--.HNN">
      <acc value="0.6575965528" flag="0"/>
      <vel value="0.2416297136" flag="0"/>
      <psa03 value="1.2947079402" flag="0"/>
      <psa10 value="0.2124039539" flag="0"/>
      <psa30 value="0.0173401751" flag="0"/>
    </comp>
    <comp name="--.HNZ">
      <acc value="0.4766082639" flag="0"/>
      <vel value="0.1240731496" flag="0"/>
      <psa03 value="0.5226546980" flag="0"/>
      <psa10 value="0.0885613303" flag="0"/>
      <psa30 value="0.0059465371" flag="0"/>
    </comp>
  </station>
  <station code="FOCM" name="FOCM" netid="KO" insttype="CMG-5T" lat="38.7131" lon="26.7309">
    <comp name="--.HNE">
      <acc value="0.1849128896" flag="0"/>
      <vel value="0.0475448378" flag="0"/>
      <psa03 value="0.3019316527" flag="0"/>
      <psa10 value="0.0361263409" flag="0"/>
      <psa30 value="0.0038013279" flag="0"/>
    </comp>
    <comp name="--.HNN">
      <acc value="0.1112908603" flag="0"/>
      <vel value="0.0365608785" flag="0"/>
      <psa03 value="0.2392020023" flag="0"/>
      <psa10 value="0.0289061439" flag="0"/>
      <psa30 value="0.0038409460" flag="0"/>
    </comp>
    <comp name="--.HNZ">
      <acc value="0.0859105313" flag="0"/>
      <vel value="0.0317808369" flag="0"/>
      <psa03 value="0.2250712049" flag="0"/>
      <psa10 value="0.0146871142" flag="0"/>
      <psa30 value="0.0011572011" flag="0"/>
    </comp>
  </station>
  <station code="GMLD" name="GMLD" netid="KO" insttype="CMG-5T" lat="38.0766" lon="26.9157">
    <comp name="--.HNE">
      <acc value="0.3954280915" flag="0"/>
      <vel value="0.1712271733" flag="0"/>
      <psa03 value="1.0001172722" flag="0"/>
      <psa10 value="0.0671899873" flag="0"/>
      <psa30 value="0.0035461163" flag="0"/>
    </comp>
    <comp name="--.HNN">
      <acc value="0.3429041605" flag="0"/>
      <vel value="0.1727549342" flag="0"/>
      <psa03 value="1.0089078981" flag="0"/>
      <psa10 value="0.0874472841" flag="0"/>
      <psa30 value="0.0053601586" flag="0"/>
    </comp>
    <comp name="--.HNZ">
      <acc value="0.1705652387" flag="0"/>
      <vel value="0.0746751143" flag="0"/>
      <psa03 value="0.6111117243" flag="0"/>
      <psa10 value="0.0294204769" flag="0"/>
      <psa30 value="0.0020969454" flag="0"/>
    </comp>
  </station>
  <station code="KRBN" name="KRBN" netid="KO" insttype="CMG-5T" lat="38.5936" lon="26.5537">
    <comp name="--.HNE">
      <acc value="0.2819499094" flag="0"/>
      <vel value="0.0936091373" flag="0"/>
      <psa03 value="0.3484483320" flag="0"/>
      <psa10 value="0.1000456876" flag="0"/>
      <psa30 value="0.0064220757" flag="0"/>
    </comp>
    <comp name="--.HNN">
      <acc value="0.3922596050" flag="0"/>
      <vel value="0.1001174131" flag="0"/>
      <psa03 value="0.5810753903" flag="0"/>
      <psa10 value="0.1247054901" flag="0"/>
      <psa30 value="0.0047562176" flag="0"/>
    </comp>
    <comp name="--.HNZ">
      <acc value="0.1350561838" flag="0"/>
      <vel value="0.0540135702" flag="0"/>
      <psa03 value="0.1825936844" flag="0"/>
      <psa10 value="0.0738925517" flag="0"/>
      <psa30 value="0.0037212941" flag="0"/>
    </comp>
  </station>
</stationlist>
