<stationlist created="1778138907">
	<station code="ATH5" name="ATH5" netid="HI" source="ITSAK Strong Motion Network" insttype="" lat="37.975421" lon="23.737098">
		<comp name="--.HNE" depth="0.0">
			<acc value="0.00499968068014099" flag="0"/>
			<vel value="0.00291418432316984" flag="0"/>
			<psa03 value="0.01368916335032" flag="0"/>
			<psa10 value="0.00293955605928916" flag="0"/>
			<psa30 value="0.000345065697450709" flag="0"/>
		</comp>
		<comp name="--.HNN" depth="0.0">
			<acc value="0.00453949780730874" flag="0"/>
			<vel value="0.00279694555719549" flag="0"/>
			<psa03 value="0.0172513016682316" flag="0"/>
			<psa10 value="0.00457585531545753" flag="0"/>
			<psa30 value="0.00051079446262661" flag="0"/>
		</comp>
		<comp name="--.HNZ" depth="0.0">
			<acc value="0.00222875050334954" flag="0"/>
			<vel value="0.00224396144359966" flag="0"/>
			<psa03 value="0.00525274510398183" flag="0"/>
			<psa10 value="0.00313383228850785" flag="0"/>
			<psa30 value="0.000335508788310476" flag="0"/>
		</comp>
	</station>
	<station code="KRL1" name="KRL1" netid="HI" source="ITSAK Strong Motion Network" insttype="" lat="37.7951" lon="26.7065">
		<comp name="--.HNE" depth="0.0">
			<acc value="0.249736991516578" flag="0"/>
			<vel value="0.0816700298162801" flag="0"/>
			<psa03 value="0.213088449397437" flag="0"/>
			<psa10 value="0.0712895375820872" flag="0"/>
			<psa30 value="0.0049319100481543" flag="0"/>
		</comp>
		<comp name="--.HNN" depth="0.0">
			<acc value="0.13673935822402" flag="0"/>
			<vel value="0.0732635824180337" flag="0"/>
			<psa03 value="0.259506857722545" flag="0"/>
			<psa10 value="0.0812459746469387" flag="0"/>
			<psa30 value="0.00529292563033359" flag="0"/>
		</comp>
		<comp name="--.HNZ" depth="0.0">
			<acc value="0.0848206417947561" flag="0"/>
			<vel value="0.0669499371466073" flag="0"/>
			<psa03 value="0.135154119963628" flag="0"/>
			<psa10 value="0.0558442444073036" flag="0"/>
			<psa30 value="0.00393956431013485" flag="0"/>
		</comp>
	</station>
	<station code="MYT1" name="MYT1" netid="HI" source="ITSAK Strong Motion Network" insttype="" lat="39.085" lon="26.5694">
		<comp name="--.HNE" depth="0.0">
			<acc value="0.0718969119247848" flag="0"/>
			<vel value="0.038589332535353" flag="0"/>
			<psa03 value="0.192910654384163" flag="0"/>
			<psa10 value="0.0498444732015635" flag="0"/>
			<psa30 value="0.00240521641711532" flag="0"/>
		</comp>
		<comp name="--.HNN" depth="0.0">
			<acc value="0.0487356513578402" flag="0"/>
			<vel value="0.0216476521396123" flag="0"/>
			<psa03 value="0.181772354026365" flag="0"/>
			<psa10 value="0.0468136724258915" flag="0"/>
			<psa30 value="0.00175269798264017" flag="0"/>
		</comp>
		<comp name="--.HNZ" depth="0.0">
			<acc value="0.0392935251526038" flag="0"/>
			<vel value="0.0246468313803899" flag="0"/>
			<psa03 value="0.108485540801272" flag="0"/>
			<psa10 value="0.0270678174850607" flag="0"/>
			<psa30 value="0.00255778923265035" flag="0"/>
		</comp>
	</station>
	<station code="NAX1" name="NAX1" netid="HI" source="ITSAK Strong Motion Network" insttype="" lat="37.101394" lon="25.374103">
		<comp name="--.HNE" depth="0.0">
			<acc value="0.00915987102124111" flag="0"/>
			<vel value="0.00659306395421594" flag="0"/>
			<psa03 value="0.0231785667163065" flag="0"/>
			<psa10 value="0.0072367442425204" flag="0"/>
			<psa30 value="0.000990296852308448" flag="0"/>
		</comp>
		<comp name="--.HNN" depth="0.0">
			<acc value="0.0111364337150723" flag="0"/>
			<vel value="0.00288227329377501" flag="0"/>
			<psa03 value="0.0203911659188384" flag="0"/>
			<psa10 value="0.0036777345693644" flag="0"/>
			<psa30 value="0.000634304884167035" flag="0"/>
		</comp>
		<comp name="--.HNZ" depth="0.0">
			<acc value="0.00561131626535196" flag="0"/>
			<vel value="0.0021964684782913" flag="0"/>
			<psa03 value="0.00951750874346988" flag="0"/>
			<psa10 value="0.00322718323817647" flag="0"/>
			<psa30 value="0.000489869378527671" flag="0"/>
		</comp>
	</station>
	<station code="SKY1" name="SKY1" netid="HI" source="ITSAK Strong Motion Network" insttype="" lat="38.904483" lon="24.564572">
		<comp name="--.HNE" depth="0.0">
			<acc value="0.00450887994626141" flag="0"/>
			<vel value="0.00470321274610385" flag="0"/>
			<psa03 value="0.0149936455991723" flag="0"/>
			<psa10 value="0.00631428250898667" flag="0"/>
			<psa30 value="0.000833921441120107" flag="0"/>
		</comp>
		<comp name="--.HNN" depth="0.0">
			<acc value="0.00533209280741795" flag="0"/>
			<vel value="0.00488522018212727" flag="0"/>
			<psa03 value="0.0124972523607929" flag="0"/>
			<psa10 value="0.00621534486109316" flag="0"/>
			<psa30 value="0.00084980692053576" flag="0"/>
		</comp>
		<comp name="--.HNZ" depth="0.0">
			<acc value="0.00232399749649321" flag="0"/>
			<vel value="0.00226978364435721" flag="0"/>
			<psa03 value="0.00558039311113619" flag="0"/>
			<psa10 value="0.00362243434349839" flag="0"/>
			<psa30 value="0.000458877065020641" flag="0"/>
		</comp>
	</station>
	<station code="EFSA" name="EFSA" netid="HL" source="National Observatory of Athens Seismic Network" insttype="" lat="39.54015" lon="24.98864">
		<comp name="00.HNE" depth="0.0">
			<acc value="0.00505883016694835" flag="0"/>
			<vel value="0.00786788610568129" flag="0"/>
			<psa03 value="0.00642896039226107" flag="0"/>
			<psa10 value="0.0102601978127623" flag="0"/>
			<psa30 value="0.00271388915683775" flag="0"/>
		</comp>
		<comp name="00.HNN" depth="0.0">
			<acc value="0.00397081703977313" flag="0"/>
			<vel value="0.00521408320555155" flag="0"/>
			<psa03 value="0.00830551178792023" flag="0"/>
			<psa10 value="0.00567366741512749" flag="0"/>
			<psa30 value="0.0023865139281701" flag="0"/>
		</comp>
		<comp name="00.HNZ" depth="0.0">
			<acc value="0.00328746008008707" flag="0"/>
			<vel value="0.00391823424331538" flag="0"/>
			<psa03 value="0.00680499311511423" flag="0"/>
			<psa10 value="0.00690650392824501" flag="0"/>
			<psa30 value="0.000795275547686059" flag="0"/>
		</comp>
	</station>
	<station code="KLNA" name="KLNA" netid="HL" source="National Observatory of Athens Seismic Network" insttype="" lat="36.95708" lon="26.97274">
		<comp name="00.HNE" depth="0.0">
			<acc value="0.0258004518589468" flag="0"/>
			<vel value="0.0120160132815222" flag="0"/>
			<psa03 value="0.0744513695377179" flag="0"/>
			<psa10 value="0.0121318014848169" flag="0"/>
			<psa30 value="0.00122098400919627" flag="0"/>
		</comp>
		<comp name="00.HNN" depth="0.0">
			<acc value="0.0275500925874047" flag="0"/>
			<vel value="0.0122262275161066" flag="0"/>
			<psa03 value="0.0945447839613524" flag="0"/>
			<psa10 value="0.0140702758367341" flag="0"/>
			<psa30 value="0.000723825085276325" flag="0"/>
		</comp>
		<comp name="00.HNZ" depth="0.0">
			<acc value="0.025558171847539" flag="0"/>
			<vel value="0.00782602788327875" flag="0"/>
			<psa03 value="0.0367095307845884" flag="0"/>
			<psa10 value="0.00810621543449716" flag="0"/>
			<psa30 value="0.000517626946494844" flag="0"/>
		</comp>
	</station>
	<station code="LIA" name="LIA" netid="HL" source="National Observatory of Athens Seismic Network" insttype="" lat="39.89725" lon="25.18055">
		<comp name="00.HNE" depth="0.0">
			<acc value="0.00253221529520546" flag="0"/>
			<vel value="0.00204740784978589" flag="0"/>
			<psa03 value="0.00770939352197094" flag="0"/>
			<psa10 value="0.00348187151627393" flag="0"/>
			<psa30 value="0.000282047095694292" flag="0"/>
		</comp>
		<comp name="00.HNN" depth="0.0">
			<acc value="0.00249746995885253" flag="0"/>
			<vel value="0.00210224337275569" flag="0"/>
			<psa03 value="0.00846824066688598" flag="0"/>
			<psa10 value="0.00334661294668263" flag="0"/>
			<psa30 value="0.00027449117848497" flag="0"/>
		</comp>
		<comp name="00.HNZ" depth="0.0">
			<acc value="0.00223273198606107" flag="0"/>
			<vel value="0.00165061219672876" flag="0"/>
			<psa03 value="0.00502762504766418" flag="0"/>
			<psa10 value="0.0028430905282957" flag="0"/>
			<psa30 value="0.000260782067198872" flag="0"/>
		</comp>
	</station>
	<station code="PRK" name="PRK" netid="HL" source="National Observatory of Athens Seismic Network" insttype="" lat="39.24565" lon="26.26499">
		<comp name="--.HNE" depth="0.0">
			<acc value="0.0313103465607611" flag="0"/>
			<vel value="0.0263162051884743" flag="0"/>
			<psa03 value="0.0838917397078408" flag="0"/>
			<psa10 value="0.0385560679002769" flag="0"/>
			<psa30 value="0.00195990295895262" flag="0"/>
		</comp>
		<comp name="--.HNN" depth="0.0">
			<acc value="0.0439463180313794" flag="0"/>
			<vel value="0.030265087212016" flag="0"/>
			<psa03 value="0.184151428295245" flag="0"/>
			<psa10 value="0.0317702333720503" flag="0"/>
			<psa30 value="0.00221282950576211" flag="0"/>
		</comp>
		<comp name="--.HNZ" depth="0.0">
			<acc value="0.0222889239035976" flag="0"/>
			<vel value="0.0132376565097247" flag="0"/>
			<psa03 value="0.0613313128985665" flag="0"/>
			<psa10 value="0.018803895665783" flag="0"/>
			<psa30 value="0.0013691392404235" flag="0"/>
		</comp>
	</station>
	<station code="SMG" name="SMG" netid="HL" source="National Observatory of Athens Seismic Network" insttype="" lat="37.70425" lon="26.83772">
		<comp name="00.HNE" depth="0.0">
			<acc value="0.246557625325813" flag="0"/>
			<vel value="0.127448708099991" flag="0"/>
			<psa03 value="0.480217187031643" flag="0"/>
			<psa10 value="0.0977465052264236" flag="0"/>
			<psa30 value="0.00607854184024469" flag="0"/>
		</comp>
		<comp name="00.HNN" depth="0.0">
			<acc value="0.191463832338096" flag="0"/>
			<vel value="0.0876002290127457" flag="0"/>
			<psa03 value="0.281757477550157" flag="0"/>
			<psa10 value="0.069198781579775" flag="0"/>
			<psa30 value="0.00367773821543947" flag="0"/>
		</comp>
		<comp name="00.HNZ" depth="0.0">
			<acc value="0.0678453016449001" flag="0"/>
			<vel value="0.026527672685046" flag="0"/>
			<psa03 value="0.0885458969812557" flag="0"/>
			<psa10 value="0.0272236946861498" flag="0"/>
			<psa30 value="0.00108492280831258" flag="0"/>
		</comp>
	</station>
	<station code="TNSA" name="TNSA" netid="HL" source="National Observatory of Athens Seismic Network" insttype="" lat="37.53942" lon="25.1631">
		<comp name="00.HNE" depth="0.0">
			<acc value="0.0458079656903943" flag="0"/>
			<vel value="0.0161315672669056" flag="0"/>
			<psa03 value="0.102116181362538" flag="0"/>
			<psa10 value="0.0138233529167911" flag="0"/>
			<psa30 value="0.00168181703712532" flag="0"/>
		</comp>
		<comp name="00.HNN" depth="0.0">
			<acc value="0.0497773272363979" flag="0"/>
			<vel value="0.0113600892060732" flag="0"/>
			<psa03 value="0.0712415475277287" flag="0"/>
			<psa10 value="0.0118307774809483" flag="0"/>
			<psa30 value="0.00133785331371565" flag="0"/>
		</comp>
		<comp name="00.HNZ" depth="0.0">
			<acc value="0.0312968540099492" flag="0"/>
			<vel value="0.0142417159395178" flag="0"/>
			<psa03 value="0.0839629996364406" flag="0"/>
			<psa10 value="0.00861607296002901" flag="0"/>
			<psa30 value="0.00062142064523386" flag="0"/>
		</comp>
	</station>
	<station code="CANM" name="CANM" netid="KO" source="Bogazici University Kandilli Observatory And Earthquake Research Institute (KOERI)" insttype="" lat="40.0113" lon="27.0529">
		<comp name="--.HNE" depth="0.0">
			<acc value="0.0118406146084466" flag="0"/>
			<vel value="0.00678209646149358" flag="0"/>
			<psa03 value="0.0345588336239536" flag="0"/>
			<psa10 value="0.00754958902947722" flag="0"/>
			<psa30 value="0.00066881888930247" flag="0"/>
		</comp>
		<comp name="--.HNN" depth="0.0">
			<acc value="0.0146848882986536" flag="0"/>
			<vel value="0.0101561617469879" flag="0"/>
			<psa03 value="0.0563419667538764" flag="0"/>
			<psa10 value="0.0159969022162564" flag="0"/>
			<psa30 value="0.00077439218509972" flag="0"/>
		</comp>
		<comp name="--.HNZ" depth="0.0">
			<acc value="0.0135987080255768" flag="0"/>
			<vel value="0.00654113500933652" flag="0"/>
			<psa03 value="0.0464830844845363" flag="0"/>
			<psa10 value="0.0054975248090249" flag="0"/>
			<psa30 value="0.000441676654743925" flag="0"/>
		</comp>
	</station>
	<station code="CESE" name="CESE" netid="KO" source="Bogazici University Kandilli Observatory And Earthquake Research Institute (KOERI)" insttype="" lat="38.3306" lon="26.2997">
		<comp name="--.HNE" depth="0.0">
			<acc value="0.629506607914543" flag="0"/>
			<vel value="0.212093974261235" flag="0"/>
			<psa03 value="0.384134155335738" flag="0"/>
			<psa10 value="0.242028613207746" flag="0"/>
			<psa30 value="0.0176381851098724" flag="0"/>
		</comp>
		<comp name="--.HNN" depth="0.0">
			<acc value="0.597357592000797" flag="0"/>
			<vel value="0.248425566078802" flag="0"/>
			<psa03 value="1.29259962838354" flag="0"/>
			<psa10 value="0.212286052909104" flag="0"/>
			<psa30 value="0.0173959507296849" flag="0"/>
		</comp>
		<comp name="--.HNZ" depth="0.0">
			<acc value="0.492179530792551" flag="0"/>
			<vel value="0.124974597226791" flag="0"/>
			<psa03 value="0.523239912077319" flag="0"/>
			<psa10 value="0.0887636176541264" flag="0"/>
			<psa30 value="0.0060559420097642" flag="0"/>
		</comp>
	</station>
	<station code="DATC" name="DATC" netid="KO" source="Bogazici University Kandilli Observatory And Earthquake Research Institute (KOERI)" insttype="" lat="36.7584" lon="27.6602">
		<comp name="--.HNE" depth="0.0">
			<acc value="0.0130944598660803" flag="0"/>
			<vel value="0.0110209807181896" flag="0"/>
			<psa03 value="0.020191487326516" flag="0"/>
			<psa10 value="0.021723572830095" flag="0"/>
			<psa30 value="0.00191619506351752" flag="0"/>
		</comp>
		<comp name="--.HNN" depth="0.0">
			<acc value="0.0117762383306011" flag="0"/>
			<vel value="0.00920396650433025" flag="0"/>
			<psa03 value="0.0286288366240804" flag="0"/>
			<psa10 value="0.017536579837353" flag="0"/>
			<psa30 value="0.00141528333891065" flag="0"/>
		</comp>
		<comp name="--.HNZ" depth="0.0">
			<acc value="0.0259467822559865" flag="0"/>
			<vel value="0.0104389985849015" flag="0"/>
			<psa03 value="0.0133090795778793" flag="0"/>
			<psa10 value="0.0168455384342628" flag="0"/>
			<psa30 value="0.00158509719241019" flag="0"/>
		</comp>
	</station>
	<station code="DIDI" name="DIDI" netid="KO" source="Bogazici University Kandilli Observatory And Earthquake Research Institute (KOERI)" insttype="" lat="37.3767" lon="27.2398">
		<comp name="--.HNE" depth="0.0">
			<acc value="0.0324589551558615" flag="0"/>
			<vel value="0.0254793882142565" flag="0"/>
			<psa03 value="0.0935866059035433" flag="0"/>
			<psa10 value="0.0396331805037092" flag="0"/>
			<psa30 value="0.00395620957946642" flag="0"/>
		</comp>
		<comp name="--.HNN" depth="0.0">
			<acc value="0.0382361991582122" flag="0"/>
			<vel value="0.0212420151945073" flag="0"/>
			<psa03 value="0.0821297584017578" flag="0"/>
			<psa10 value="0.0388102109859931" flag="0"/>
			<psa30 value="0.00329114448050375" flag="0"/>
		</comp>
		<comp name="--.HNZ" depth="0.0">
			<acc value="0.0439594287562407" flag="0"/>
			<vel value="0.0182506418492565" flag="0"/>
			<psa03 value="0.0792342436716402" flag="0"/>
			<psa10 value="0.0173648184589941" flag="0"/>
			<psa30 value="0.00255981103325047" flag="0"/>
		</comp>
	</station>
	<station code="EZNE" name="EZNE" netid="KO" source="Bogazici University Kandilli Observatory And Earthquake Research Institute (KOERI)" insttype="" lat="39.756" lon="26.3655">
		<comp name="--.HNE" depth="0.0">
			<acc value="0.0159612948644342" flag="0"/>
			<vel value="0.00735007747800567" flag="0"/>
			<psa03 value="0.0502439273719208" flag="0"/>
			<psa10 value="0.00565756103564814" flag="0"/>
			<psa30 value="0.000834265995193385" flag="0"/>
		</comp>
		<comp name="--.HNN" depth="0.0">
			<acc value="0.0193874545172309" flag="0"/>
			<vel value="0.00798871173088267" flag="0"/>
			<psa03 value="0.0431557546902964" flag="0"/>
			<psa10 value="0.00686999713485956" flag="0"/>
			<psa30 value="0.000601411142617869" flag="0"/>
		</comp>
		<comp name="--.HNZ" depth="0.0">
			<acc value="0.00864698342911196" flag="0"/>
			<vel value="0.00387770816260208" flag="0"/>
			<psa03 value="0.0172854966418234" flag="0"/>
			<psa10 value="0.00483041561632656" flag="0"/>
			<psa30 value="0.000582068559186174" flag="0"/>
		</comp>
	</station>
	<station code="FOCM" name="FOCM" netid="KO" source="Bogazici University Kandilli Observatory And Earthquake Research Institute (KOERI)" insttype="" lat="38.7131" lon="26.7309">
		<comp name="--.HNE" depth="0.0">
			<acc value="0.185669560142951" flag="0"/>
			<vel value="0.0490516877863144" flag="0"/>
			<psa03 value="0.30352114845299" flag="0"/>
			<psa10 value="0.0361395690690949" flag="0"/>
			<psa30 value="0.00415716455841687" flag="0"/>
		</comp>
		<comp name="--.HNN" depth="0.0">
			<acc value="0.11021229789002" flag="0"/>
			<vel value="0.0372087730606413" flag="0"/>
			<psa03 value="0.23984530524083" flag="0"/>
			<psa10 value="0.0289779540222546" flag="0"/>
			<psa30 value="0.004094101214112" flag="0"/>
		</comp>
		<comp name="--.HNZ" depth="0.0">
			<acc value="0.0858534782628493" flag="0"/>
			<vel value="0.0321798912645489" flag="0"/>
			<psa03 value="0.229022129925609" flag="0"/>
			<psa10 value="0.0147645133890365" flag="0"/>
			<psa30 value="0.00126163170190706" flag="0"/>
		</comp>
	</station>
	<station code="GMLD" name="GMLD" netid="KO" source="Bogazici University Kandilli Observatory And Earthquake Research Institute (KOERI)" insttype="" lat="38.0766" lon="26.9157">
		<comp name="--.HNE" depth="0.0">
			<acc value="0.402591099449523" flag="0"/>
			<vel value="0.173405158211605" flag="0"/>
			<psa03 value="1.01770025098134" flag="0"/>
			<psa10 value="0.067459806381037" flag="0"/>
			<psa30 value="0.00354849923732689" flag="0"/>
		</comp>
		<comp name="--.HNN" depth="0.0">
			<acc value="0.345679357936443" flag="0"/>
			<vel value="0.173512272187012" flag="0"/>
			<psa03 value="1.0090285098525" flag="0"/>
			<psa10 value="0.0874976687911366" flag="0"/>
			<psa30 value="0.00531175354425204" flag="0"/>
		</comp>
		<comp name="--.HNZ" depth="0.0">
			<acc value="0.169342818351704" flag="0"/>
			<vel value="0.075179080174579" flag="0"/>
			<psa03 value="0.61590013369436" flag="0"/>
			<psa10 value="0.0294107139404441" flag="0"/>
			<psa30 value="0.00226344890071508" flag="0"/>
		</comp>
	</station>
	<station code="GOMA" name="GOMA" netid="KO" source="Bogazici University Kandilli Observatory And Earthquake Research Institute (KOERI)" insttype="" lat="38.7077" lon="27.9175">
		<comp name="--.HNE" depth="0.0">
			<acc value="0.0277940500327453" flag="0"/>
			<vel value="0.0166420670073896" flag="0"/>
			<psa03 value="0.0932238006193186" flag="0"/>
			<psa10 value="0.0108140973183767" flag="0"/>
			<psa30 value="0.000957330189262173" flag="0"/>
		</comp>
		<comp name="--.HNN" depth="0.0">
			<acc value="0.0199754766362459" flag="0"/>
			<vel value="0.0135909077633106" flag="0"/>
			<psa03 value="0.0624450585537661" flag="0"/>
			<psa10 value="0.0102247092117908" flag="0"/>
			<psa30 value="0.00112520339337016" flag="0"/>
		</comp>
		<comp name="--.HNZ" depth="0.0">
			<acc value="0.0237298907653674" flag="0"/>
			<vel value="0.00975492704013844" flag="0"/>
			<psa03 value="0.0410142143862686" flag="0"/>
			<psa10 value="0.00588205231333368" flag="0"/>
			<psa30 value="0.00133540398479457" flag="0"/>
		</comp>
	</station>
	<station code="GORD" name="GORD" netid="KO" source="Bogazici University Kandilli Observatory And Earthquake Research Institute (KOERI)" insttype="" lat="38.9088" lon="28.1769">
		<comp name="--.HNE" depth="0.0">
			<acc value="0.0124022606407614" flag="0"/>
			<vel value="0.00912302284990726" flag="0"/>
			<psa03 value="0.0539688460047073" flag="0"/>
			<psa10 value="0.0129423998704781" flag="0"/>
			<psa30 value="0.00296050632735027" flag="0"/>
		</comp>
		<comp name="--.HNN" depth="0.0">
			<acc value="0.00808731125080285" flag="0"/>
			<vel value="0.00691681343378258" flag="0"/>
			<psa03 value="0.0312426191493476" flag="0"/>
			<psa10 value="0.00823657313254285" flag="0"/>
			<psa30 value="0.00242296550957415" flag="0"/>
