<?xml version="1.0" encoding="UTF-8" standalone="yes"?>
<!DOCTYPE earthquake SYSTEM "stationlist.dtd">
<stationlist created="" xmlns="ch.ethz.sed.shakemap.usgs.xml">
  <station code="THNO" name="THNO" netid="HC" insttype="60" lat="37.6541" lon="25.0221">
    <comp name="--.HHN">
      <acc value="0.0000000000" flag="0"/>
      <vel value="-100.0000000000" flag="0"/>
      <psa03 value="0.0000000000" flag="0"/>
      <psa10 value="0.0000000000" flag="0"/>
      <psa30 value="0.0000000000" flag="0"/>
    </comp>
    <comp name="--.HHE">
      <acc value="0.0000000000" flag="0"/>
      <vel value="-100.0000000000" flag="0"/>
      <psa03 value="0.0000000000" flag="0"/>
      <psa10 value="0.0000000000" flag="0"/>
      <psa30 value="0.0000000000" flag="0"/>
    </comp>
    <comp name="--.HHZ">
      <acc value="0.0449807997" flag="0"/>
      <vel value="0.0133867231" flag="0"/>
      <psa03 value="0.0762409026" flag="0"/>
      <psa10 value="0.0066249035" flag="0"/>
      <psa30 value="0.0007949230" flag="0"/>
    </comp>
  </station>
  <station code="KRL1" name="KRL1" netid="HI" insttype="CMG-5TD,ACCELEROMETER,GURALP" lat="37.7951" lon="26.7065">
    <comp name="--.HNN">
      <acc value="0.1372832149" flag="0"/>
      <vel value="0.0732826963" flag="0"/>
      <psa03 value="0.2626194557" flag="0"/>
      <psa10 value="0.0814512754" flag="0"/>
      <psa30 value="0.0049810450" flag="0"/>
    </comp>
    <comp name="--.HNE">
      <acc value="0.2517590094" flag="0"/>
      <vel value="0.0810424029" flag="0"/>
      <psa03 value="0.2098436686" flag="0"/>
      <psa10 value="0.0711968775" flag="0"/>
      <psa30 value="0.0045985517" flag="0"/>
    </comp>
    <comp name="--.HNZ">
      <acc value="0.0871889508" flag="0"/>
      <vel value="0.0669878275" flag="0"/>
      <psa03 value="0.1343920213" flag="0"/>
      <psa10 value="0.0557700786" flag="0"/>
      <psa30 value="0.0037432381" flag="0"/>
    </comp>
  </station>
  <station code="MYT1" name="MYT1" netid="HI" insttype="CMG-5TD,ACCELEROMETER,GURALP" lat="39.085" lon="26.5694">
    <comp name="--.HNE">
      <acc value="0.0722839692" flag="0"/>
      <vel value="0.0388243535" flag="0"/>
      <psa03 value="0.1917004917" flag="0"/>
      <psa10 value="0.0498359030" flag="0"/>
      <psa30 value="0.0020648556" flag="0"/>
    </comp>
    <comp name="--.HNZ">
      <acc value="0.0396472042" flag="0"/>
      <vel value="0.0243491194" flag="0"/>
      <psa03 value="0.1074712676" flag="0"/>
      <psa10 value="0.0270272354" flag="0"/>
      <psa30 value="0.0023685682" flag="0"/>
    </comp>
    <comp name="--.HNN">
      <acc value="0.0490965245" flag="0"/>
      <vel value="0.0219442804" flag="0"/>
      <psa03 value="0.1820127975" flag="0"/>
      <psa10 value="0.0468113058" flag="0"/>
      <psa30 value="0.0016577888" flag="0"/>
    </comp>
  </station>
  <station code="PRK" name="PRK" netid="HL" insttype="120" lat="39.2456" lon="26.265">
    <comp name="--.HHN">
      <acc value="0.0358448822" flag="0"/>
      <vel value="0.0251525995" flag="0"/>
      <psa03 value="0.1509104038" flag="0"/>
      <psa10 value="0.0266594634" flag="0"/>
      <psa30 value="0.0020091533" flag="0"/>
    </comp>
    <comp name="--.HHZ">
      <acc value="0.0221061459" flag="0"/>
      <vel value="0.0133053493" flag="0"/>
      <psa03 value="0.0627297294" flag="0"/>
      <psa10 value="0.0190123435" flag="0"/>
      <psa30 value="0.0013075715" flag="0"/>
    </comp>
    <comp name="--.HHE">
      <acc value="0.0362292764" flag="0"/>
      <vel value="0.0288231592" flag="0"/>
      <psa03 value="0.0974542498" flag="0"/>
      <psa10 value="0.0435711159" flag="0"/>
      <psa30 value="0.0020993326" flag="0"/>
    </comp>
  </station>
  <station code="SMG" name="SMG" netid="HL" insttype="120" lat="37.7043" lon="26.8377">
    <comp name="--.HHZ">
      <acc value="0.0723455683" flag="0"/>
      <vel value="0.0284071038" flag="0"/>
      <psa03 value="0.0856941106" flag="0"/>
      <psa10 value="0.0277218625" flag="0"/>
      <psa30 value="0.0011749713" flag="0"/>
    </comp>
    <comp name="--.HHE">
      <acc value="0.2410721703" flag="0"/>
      <vel value="0.1202634710" flag="0"/>
      <psa03 value="0.4561637921" flag="0"/>
      <psa10 value="0.0905581587" flag="0"/>
      <psa30 value="0.0060172168" flag="0"/>
    </comp>
    <comp name="--.HHN">
      <acc value="0.2300565596" flag="0"/>
      <vel value="0.1055194066" flag="0"/>
      <psa03 value="0.3296605366" flag="0"/>
      <psa10 value="0.0803374842" flag="0"/>
      <psa30 value="0.0046854596" flag="0"/>
    </comp>
  </station>
  <station code="TNSA" name="TNSA" netid="HL" insttype="CMG-5" lat="37.5394" lon="25.1631">
    <comp name="00.HNE">
      <acc value="0.0461513162" flag="0"/>
      <vel value="0.0162994947" flag="0"/>
      <psa03 value="0.1019768975" flag="0"/>
      <psa10 value="0.0137745362" flag="0"/>
      <psa30 value="0.0016386737" flag="0"/>
    </comp>
    <comp name="00.HNN">
      <acc value="0.0497369569" flag="0"/>
      <vel value="0.0115976918" flag="0"/>
      <psa03 value="0.0710968658" flag="0"/>
      <psa10 value="0.0117818605" flag="0"/>
      <psa30 value="0.0011236376" flag="0"/>
    </comp>
    <comp name="00.HNZ">
      <acc value="0.0318320556" flag="0"/>
      <vel value="0.0142790448" flag="0"/>
      <psa03 value="0.0836651396" flag="0"/>
      <psa10 value="0.0086288177" flag="0"/>
      <psa30 value="0.0005791308" flag="0"/>
    </comp>
  </station>
  <station code="CHOS" name="CHOS" netid="HT" insttype="100" lat="38.3869" lon="26.0506">
    <comp name="--.HHZ">
      <acc value="0.2038608507" flag="0"/>
      <vel value="0.0619596065" flag="0"/>
      <psa03 value="0.1653768226" flag="0"/>
      <psa10 value="0.0593241919" flag="0"/>
      <psa30 value="0.0046442049" flag="0"/>
    </comp>
    <comp name="--.HHE">
      <acc value="0.6512300325" flag="0"/>
      <vel value="0.3461958242" flag="0"/>
      <psa03 value="0.7097286809" flag="0"/>
      <psa10 value="0.3522893713" flag="0"/>
      <psa30 value="0.0234412839" flag="0"/>
    </comp>
    <comp name="--.HHN">
      <acc value="0.4711831065" flag="0"/>
      <vel value="0.2023118882" flag="0"/>
      <psa03 value="0.4388969805" flag="0"/>
      <psa10 value="0.2973656457" flag="0"/>
      <psa30 value="0.0158312212" flag="0"/>
    </comp>
  </station>
  <station code="SIGR" name="SIGR" netid="HT" insttype="100" lat="39.2114" lon="25.8553">
    <comp name="--.HHE">
      <acc value="0.0266048912" flag="0"/>
      <vel value="0.0185028094" flag="0"/>
      <psa03 value="0.0602221448" flag="0"/>
      <psa10 value="0.0220682838" flag="0"/>
      <psa30 value="0.0014730958" flag="0"/>
    </comp>
    <comp name="--.HHZ">
      <acc value="0.0203302210" flag="0"/>
      <vel value="0.0061871373" flag="0"/>
      <psa03 value="0.0290755161" flag="0"/>
      <psa10 value="0.0060699432" flag="0"/>
      <psa30 value="0.0007859979" flag="0"/>
    </comp>
    <comp name="--.HHN">
      <acc value="0.0310222434" flag="0"/>
      <vel value="0.0161134733" flag="0"/>
      <psa03 value="0.0435579833" flag="0"/>
      <psa10 value="0.0135875012" flag="0"/>
      <psa30 value="0.0010331197" flag="0"/>
    </comp>
  </station>
  <station code="CESE" name="CESE" netid="KO" insttype="CMG-5T" lat="38.3306" lon="26.2997">
    <comp name="--.HNE">
      <acc value="0.6628138508" flag="0"/>
      <vel value="0.2112614422" flag="0"/>
      <psa03 value="0.3837296790" flag="0"/>
      <psa10 value="0.2416658184" flag="0"/>
      <psa30 value="0.0175233073" flag="0"/>
    </comp>
    <comp name="--.HNZ">
      <acc value="0.4766083043" flag="0"/>
      <vel value="0.1240731458" flag="0"/>
      <psa03 value="0.5226546980" flag="0"/>
      <psa10 value="0.0885613352" flag="0"/>
      <psa30 value="0.0059446950" flag="0"/>
    </comp>
    <comp name="--.HNN">
      <acc value="0.6575965236" flag="0"/>
      <vel value="0.2416297040" flag="0"/>
      <psa03 value="1.2947079402" flag="0"/>
      <psa10 value="0.2124039477" flag="0"/>
      <psa30 value="0.0173425579" flag="0"/>
    </comp>
  </station>
  <station code="FOCM" name="FOCM" netid="KO" insttype="CMG-5T" lat="38.7131" lon="26.7309">
    <comp name="--.HNN">
      <acc value="0.1112908038" flag="0"/>
      <vel value="0.0365608783" flag="0"/>
      <psa03 value="0.2392020023" flag="0"/>
      <psa10 value="0.0289061442" flag="0"/>
      <psa30 value="0.0038409498" flag="0"/>
    </comp>
    <comp name="--.HNE">
      <acc value="0.1849128516" flag="0"/>
      <vel value="0.0475448379" flag="0"/>
      <psa03 value="0.3019316526" flag="0"/>
      <psa10 value="0.0361263409" flag="0"/>
      <psa30 value="0.0038012970" flag="0"/>
    </comp>
    <comp name="--.HNZ">
      <acc value="0.0859105014" flag="0"/>
      <vel value="0.0317808364" flag="0"/>
      <psa03 value="0.2250712049" flag="0"/>
      <psa10 value="0.0146871140" flag="0"/>
      <psa30 value="0.0011571545" flag="0"/>
    </comp>
  </station>
  <station code="GMLD" name="GMLD" netid="KO" insttype="CMG-5T" lat="38.0766" lon="26.9157">
    <comp name="--.HNZ">
      <acc value="0.1705651981" flag="0"/>
      <vel value="0.0746751153" flag="0"/>
      <psa03 value="0.6111117243" flag="0"/>
      <psa10 value="0.0294204693" flag="0"/>
      <psa30 value="0.0020970845" flag="0"/>
    </comp>
    <comp name="--.HNE">
      <acc value="0.3954280825" flag="0"/>
      <vel value="0.1712271706" flag="0"/>
      <psa03 value="1.0001172722" flag="0"/>
      <psa10 value="0.0671899880" flag="0"/>
      <psa30 value="0.0035445881" flag="0"/>
    </comp>
    <comp name="--.HNN">
      <acc value="0.3429041466" flag="0"/>
      <vel value="0.1727549365" flag="0"/>
      <psa03 value="1.0089078981" flag="0"/>
      <psa10 value="0.0874472813" flag="0"/>
      <psa30 value="0.0053606215" flag="0"/>
    </comp>
  </station>
  <station code="KRBN" name="KRBN" netid="KO" insttype="CMG-5T" lat="38.5936" lon="26.5537">
    <comp name="--.HNZ">
      <acc value="0.1350572741" flag="0"/>
      <vel value="0.0540135691" flag="0"/>
      <psa03 value="0.1825936844" flag="0"/>
      <psa10 value="0.0738925516" flag="0"/>
      <psa30 value="0.0037213464" flag="0"/>
    </comp>
    <comp name="--.HNN">
      <acc value="0.3922587804" flag="0"/>
      <vel value="0.1001174108" flag="0"/>
      <psa03 value="0.5810753903" flag="0"/>
      <psa10 value="0.1247054906" flag="0"/>
      <psa30 value="0.0047559621" flag="0"/>
    </comp>
    <comp name="--.HNE">
      <acc value="0.2819508575" flag="0"/>
      <vel value="0.0936091423" flag="0"/>
      <psa03 value="0.3484483320" flag="0"/>
      <psa10 value="0.1000456865" flag="0"/>
      <psa30 value="0.0064226558" flag="0"/>
    </comp>
  </station>
</stationlist>
