<?xml version="1.0" encoding="UTF-8" standalone="yes"?>
<!DOCTYPE earthquake SYSTEM "stationlist.dtd">
<stationlist created="" xmlns="ch.ethz.sed.shakemap.usgs.xml">
  <station code="ARG" name="ARG" netid="HL" insttype="LE3D20_DR24" commtype="DIG" lat="36.2136" lon="28.1212">
    <comp name="--.HHZ">
      <acc value="0.0038704085" flag="0"/>
      <vel value="0.0019270713" flag="0"/>
      <psa03 value="0.0076469178" flag="0"/>
      <psa10 value="0.0029675501" flag="0"/>
      <psa30 value="0.0005686563" flag="0"/>
    </comp>
    <comp name="--.HHE">
      <acc value="0.0072274273" flag="0"/>
      <vel value="0.0050365338" flag="0"/>
      <psa03 value="0.0239785368" flag="0"/>
      <psa10 value="0.0032815638" flag="0"/>
      <psa30 value="0.0006975487" flag="0"/>
    </comp>
    <comp name="--.HHN">
      <acc value="0.0010873876" flag="0"/>
      <vel value="0.0004211055" flag="0"/>
      <psa03 value="0.0011262664" flag="0"/>
      <psa10 value="0.0003069474" flag="0"/>
      <psa30 value="0.0000825864" flag="0"/>
    </comp>
  </station>
  <station code="APMY" name="APMY" netid="KO" insttype="CMG-6T" commtype="DIG" lat="37.4717" lon="29.3018">
    <comp name="--.HHE">
      <acc value="0.0096575073" flag="0"/>
      <vel value="0.0075300181" flag="0"/>
      <psa03 value="0.0359592843" flag="0"/>
      <psa10 value="0.0103846508" flag="0"/>
      <psa30 value="0.0007923324" flag="0"/>
    </comp>
    <comp name="--.HHN">
      <acc value="0.0121833184" flag="0"/>
      <vel value="0.0090276740" flag="0"/>
      <psa03 value="0.0199591895" flag="0"/>
      <psa10 value="0.0129670598" flag="0"/>
      <psa30 value="0.0011273801" flag="0"/>
    </comp>
    <comp name="--.HHZ">
      <acc value="0.0085404791" flag="0"/>
      <vel value="0.0064906131" flag="0"/>
      <psa03 value="0.0233359219" flag="0"/>
      <psa10 value="0.0180482896" flag="0"/>
      <psa30 value="0.0012470542" flag="0"/>
    </comp>
  </station>
  <station code="AYDB" name="AYDB" netid="KO" insttype="CMG-3ESPC" commtype="DIG" lat="37.9467" lon="27.8908">
    <comp name="--.HHZ">
      <acc value="0.0145699584" flag="0"/>
      <vel value="0.0106660177" flag="0"/>
      <psa03 value="0.0391327643" flag="0"/>
      <psa10 value="0.0111545247" flag="0"/>
      <psa30 value="0.0010558699" flag="0"/>
    </comp>
  </station>
  <station code="BABD" name="BABD" netid="KO" insttype="CMG-6T" commtype="DIG" lat="37.802" lon="28.8531">
    <comp name="--.HHN">
      <acc value="0.0446108595" flag="0"/>
      <vel value="0.0162827944" flag="0"/>
      <psa03 value="0.0998231963" flag="0"/>
      <psa10 value="0.0183501508" flag="0"/>
      <psa30 value="0.0006024917" flag="0"/>
    </comp>
    <comp name="--.HHZ">
      <acc value="0.0337712172" flag="0"/>
      <vel value="0.0122515849" flag="0"/>
      <psa03 value="0.0469189746" flag="0"/>
      <psa10 value="0.0119472138" flag="0"/>
      <psa30 value="0.0006649775" flag="0"/>
    </comp>
    <comp name="--.HHE">
      <acc value="0.0584635839" flag="0"/>
      <vel value="0.0179208370" flag="0"/>
      <psa03 value="0.1095011919" flag="0"/>
      <psa10 value="0.0145789852" flag="0"/>
      <psa30 value="0.0010509555" flag="0"/>
    </comp>
  </station>
  <station code="CAME" name="CAME" netid="KO" insttype="CMG-5T" commtype="DIG" lat="36.9435" lon="29.3023">
    <comp name="--.HNN">
      <acc value="0.0125826967" flag="0"/>
      <vel value="0.0059900652" flag="0"/>
      <psa03 value="0.0328123840" flag="0"/>
      <psa10 value="0.0062013563" flag="0"/>
      <psa30 value="0.0007437110" flag="0"/>
    </comp>
    <comp name="--.HNZ">
      <acc value="0.0071106316" flag="0"/>
      <vel value="0.0035399643" flag="0"/>
      <psa03 value="0.0194992852" flag="0"/>
      <psa10 value="0.0053946969" flag="0"/>
      <psa30 value="0.0012618843" flag="0"/>
    </comp>
    <comp name="--.HNE">
      <acc value="0.0169646240" flag="0"/>
      <vel value="0.0066608883" flag="0"/>
      <psa03 value="0.0464782639" flag="0"/>
      <psa10 value="0.0059636500" flag="0"/>
      <psa30 value="0.0012241485" flag="0"/>
    </comp>
  </station>
  <station code="DAT" name="DAT" netid="KO" insttype="CMG-3T" commtype="DIG" lat="36.7308" lon="27.5767">
    <comp name="--.HHE">
      <acc value="0.0197282273" flag="0"/>
      <vel value="0.0096515305" flag="0"/>
      <psa03 value="0.0460159561" flag="0"/>
      <psa10 value="0.0130516283" flag="0"/>
      <psa30 value="0.0010790733" flag="0"/>
    </comp>
    <comp name="--.HHN">
      <acc value="0.0215129031" flag="0"/>
      <vel value="0.0109762280" flag="0"/>
      <psa03 value="0.0553564410" flag="0"/>
      <psa10 value="0.0118337657" flag="0"/>
      <psa30 value="0.0014732765" flag="0"/>
    </comp>
    <comp name="--.HHZ">
      <acc value="0.0000288481" flag="0"/>
      <vel value="0.0000030187" flag="0"/>
      <psa03 value="0.0000104449" flag="0"/>
      <psa10 value="0.0000028965" flag="0"/>
      <psa30 value="0.0000006595" flag="0"/>
    </comp>
  </station>
  <station code="MLSB" name="MLSB" netid="KO" insttype="CMG-3ESP" commtype="DIG" lat="37.2953" lon="27.7767">
    <comp name="--.HHZ">
      <acc value="0.0112175501" flag="0"/>
      <vel value="0.0067482489" flag="0"/>
      <psa03 value="0.0251231052" flag="0"/>
      <psa10 value="0.0062051198" flag="0"/>
      <psa30 value="0.0003295415" flag="0"/>
    </comp>
    <comp name="--.HHN">
      <acc value="0.0126427519" flag="0"/>
      <vel value="0.0060957664" flag="0"/>
      <psa03 value="0.0266747154" flag="0"/>
      <psa10 value="0.0069304446" flag="0"/>
      <psa30 value="0.0004521084" flag="0"/>
    </comp>
    <comp name="--.HHE">
      <acc value="0.0123973277" flag="0"/>
      <vel value="0.0065994027" flag="0"/>
      <psa03 value="0.0466357804" flag="0"/>
      <psa10 value="0.0089825811" flag="0"/>
      <psa30 value="0.0004338558" flag="0"/>
    </comp>
  </station>
  <station code="SERH" name="SERH" netid="KO" insttype="CMG-6T" commtype="DIG" lat="37.582" lon="29.2588">
    <comp name="--.HHE">
      <acc value="0.0252003096" flag="0"/>
      <vel value="0.0117794918" flag="0"/>
      <psa03 value="0.0714426805" flag="0"/>
      <psa10 value="0.0118435083" flag="0"/>
      <psa30 value="0.0009733096" flag="0"/>
    </comp>
    <comp name="--.HHN">
      <acc value="0.0254010140" flag="0"/>
      <vel value="0.0100967236" flag="0"/>
      <psa03 value="0.0746262097" flag="0"/>
      <psa10 value="0.0107897304" flag="0"/>
      <psa30 value="0.0009222033" flag="0"/>
    </comp>
    <comp name="--.HHZ">
      <acc value="0.0174001132" flag="0"/>
      <vel value="0.0086975378" flag="0"/>
      <psa03 value="0.0345533344" flag="0"/>
      <psa10 value="0.0105592920" flag="0"/>
      <psa30 value="0.0010813360" flag="0"/>
    </comp>
  </station>
  <station code="YER" name="YER" netid="KO" insttype="CMG-3T" commtype="DIG" lat="37.1336" lon="28.284">
    <comp name="--.HHE">
      <acc value="0.2601368792" flag="0"/>
      <vel value="0.0738296621" flag="0"/>
      <psa03 value="0.3673839411" flag="0"/>
      <psa10 value="0.0236318261" flag="0"/>
      <psa30 value="0.0025469596" flag="0"/>
    </comp>
    <comp name="--.HHN">
      <acc value="0.1745203198" flag="0"/>
      <vel value="0.0568255729" flag="0"/>
      <psa03 value="0.1683097204" flag="0"/>
      <psa10 value="0.0244258263" flag="0"/>
      <psa30 value="0.0020785174" flag="0"/>
    </comp>
    <comp name="--.HHZ">
      <acc value="0.1172767772" flag="0"/>
      <vel value="0.0368219983" flag="0"/>
      <psa03 value="0.1705824263" flag="0"/>
      <psa10 value="0.0229004650" flag="0"/>
      <psa30 value="0.0030846001" flag="0"/>
    </comp>
  </station>
  <station code="AYDN" name="AYDN" netid="TU" insttype="T" commtype="DIG" lat="37.6608" lon="27.8792">
    <comp name="--.HHZ">
      <acc value="0.0515773053" flag="0"/>
      <vel value="0.0155823791" flag="0"/>
      <psa03 value="0.1114108549" flag="0"/>
      <psa10 value="0.0101177855" flag="0"/>
      <psa30 value="0.0014126465" flag="0"/>
    </comp>
    <comp name="--.HHE">
      <acc value="0.0659460191" flag="0"/>
      <vel value="0.0259508061" flag="0"/>
      <psa03 value="0.1859390931" flag="0"/>
      <psa10 value="0.0167484281" flag="0"/>
      <psa30 value="0.0013945281" flag="0"/>
    </comp>
    <comp name="--.HHN">
      <acc value="0.0632466223" flag="0"/>
      <vel value="0.0243152390" flag="0"/>
      <psa03 value="0.1454329536" flag="0"/>
      <psa10 value="0.0199095244" flag="0"/>
      <psa30 value="0.0018563031" flag="0"/>
    </comp>
  </station>
</stationlist>
