<?xml version="1.0" encoding="UTF-8" standalone="yes"?>
<!DOCTYPE earthquake SYSTEM "stationlist.dtd">
<stationlist created="" xmlns="ch.ethz.sed.shakemap.usgs.xml">
  <station code="APMY" name="APMY" netid="KO" insttype="CMG-6T" commtype="DIG" lat="37.4717" lon="29.3018">
    <comp name="--.HHN">
      <acc value="0.0121833189" flag="0"/>
      <vel value="0.0090276728" flag="0"/>
      <psa03 value="0.0199591895" flag="0"/>
      <psa10 value="0.0129670598" flag="0"/>
      <psa30 value="0.0011274105" flag="0"/>
    </comp>
    <comp name="--.HHE">
      <acc value="0.0096575072" flag="0"/>
      <vel value="0.0075300152" flag="0"/>
      <psa03 value="0.0359592843" flag="0"/>
      <psa10 value="0.0103846508" flag="0"/>
      <psa30 value="0.0007922923" flag="0"/>
    </comp>
    <comp name="--.HHZ">
      <acc value="0.0085404794" flag="0"/>
      <vel value="0.0064906137" flag="0"/>
      <psa03 value="0.0233359219" flag="0"/>
      <psa10 value="0.0180482896" flag="0"/>
      <psa30 value="0.0012470563" flag="0"/>
    </comp>
  </station>
  <station code="AYDB" name="AYDB" netid="KO" insttype="CMG-3ESPC" commtype="DIG" lat="37.9467" lon="27.8908">
    <comp name="--.HHZ">
      <acc value="0.0145699584" flag="0"/>
      <vel value="0.0106660163" flag="0"/>
      <psa03 value="0.0391327643" flag="0"/>
      <psa10 value="0.0111545247" flag="0"/>
      <psa30 value="0.0010558734" flag="0"/>
    </comp>
  </station>
  <station code="BABD" name="BABD" netid="KO" insttype="CMG-6T" commtype="DIG" lat="37.802" lon="28.8531">
    <comp name="--.HHN">
      <acc value="0.0446108583" flag="0"/>
      <vel value="0.0162827891" flag="0"/>
      <psa03 value="0.0998231963" flag="0"/>
      <psa10 value="0.0183501508" flag="0"/>
      <psa30 value="0.0006024956" flag="0"/>
    </comp>
    <comp name="--.HHE">
      <acc value="0.0584635870" flag="0"/>
      <vel value="0.0179208381" flag="0"/>
      <psa03 value="0.1095011919" flag="0"/>
      <psa10 value="0.0145789852" flag="0"/>
      <psa30 value="0.0010509408" flag="0"/>
    </comp>
    <comp name="--.HHZ">
      <acc value="0.0337712173" flag="0"/>
      <vel value="0.0122515831" flag="0"/>
      <psa03 value="0.0469189746" flag="0"/>
      <psa10 value="0.0119472138" flag="0"/>
      <psa30 value="0.0006649690" flag="0"/>
    </comp>
  </station>
  <station code="CAME" name="CAME" netid="KO" insttype="CMG-5T" commtype="DIG" lat="36.9435" lon="29.3023">
    <comp name="--.HNE">
      <acc value="0.0169646253" flag="0"/>
      <vel value="0.0066608877" flag="0"/>
      <psa03 value="0.0464782639" flag="0"/>
      <psa10 value="0.0059636498" flag="0"/>
      <psa30 value="0.0012240763" flag="0"/>
    </comp>
    <comp name="--.HNZ">
      <acc value="0.0071106302" flag="0"/>
      <vel value="0.0035399612" flag="0"/>
      <psa03 value="0.0194992852" flag="0"/>
      <psa10 value="0.0053946969" flag="0"/>
      <psa30 value="0.0012615661" flag="0"/>
    </comp>
    <comp name="--.HNN">
      <acc value="0.0125826973" flag="0"/>
      <vel value="0.0059900628" flag="0"/>
      <psa03 value="0.0328123840" flag="0"/>
      <psa10 value="0.0062013561" flag="0"/>
      <psa30 value="0.0007437004" flag="0"/>
    </comp>
  </station>
  <station code="DAT" name="DAT" netid="KO" insttype="CMG-3T" commtype="DIG" lat="36.7308" lon="27.5767">
    <comp name="--.HHN">
      <acc value="0.0215129030" flag="0"/>
      <vel value="0.0109762310" flag="0"/>
      <psa03 value="0.0553564410" flag="0"/>
      <psa10 value="0.0118337658" flag="0"/>
      <psa30 value="0.0014729729" flag="0"/>
    </comp>
    <comp name="--.HHZ">
      <acc value="0.0000288481" flag="0"/>
      <vel value="0.0000030187" flag="0"/>
      <psa03 value="0.0000104449" flag="0"/>
      <psa10 value="0.0000028966" flag="0"/>
      <psa30 value="0.0000006771" flag="0"/>
    </comp>
    <comp name="--.HHE">
      <acc value="0.0197282276" flag="0"/>
      <vel value="0.0096515281" flag="0"/>
      <psa03 value="0.0460159561" flag="0"/>
      <psa10 value="0.0130516283" flag="0"/>
      <psa30 value="0.0010791812" flag="0"/>
    </comp>
  </station>
  <station code="MLSB" name="MLSB" netid="KO" insttype="CMG-3ESP" commtype="DIG" lat="37.2953" lon="27.7767">
    <comp name="--.HHE">
      <acc value="0.0123973276" flag="0"/>
      <vel value="0.0065994033" flag="0"/>
      <psa03 value="0.0466357804" flag="0"/>
      <psa10 value="0.0089825811" flag="0"/>
      <psa30 value="0.0004338914" flag="0"/>
    </comp>
    <comp name="--.HHN">
      <acc value="0.0126427518" flag="0"/>
      <vel value="0.0060957668" flag="0"/>
      <psa03 value="0.0266747154" flag="0"/>
      <psa10 value="0.0069304447" flag="0"/>
      <psa30 value="0.0004520966" flag="0"/>
    </comp>
    <comp name="--.HHZ">
      <acc value="0.0112175502" flag="0"/>
      <vel value="0.0067482463" flag="0"/>
      <psa03 value="0.0251231052" flag="0"/>
      <psa10 value="0.0062051198" flag="0"/>
      <psa30 value="0.0003296125" flag="0"/>
    </comp>
  </station>
  <station code="SERH" name="SERH" netid="KO" insttype="CMG-6T" commtype="DIG" lat="37.582" lon="29.2588">
    <comp name="--.HHE">
      <acc value="0.0252003092" flag="0"/>
      <vel value="0.0117795039" flag="0"/>
      <psa03 value="0.0714426806" flag="0"/>
      <psa10 value="0.0118435083" flag="0"/>
      <psa30 value="0.0009733027" flag="0"/>
    </comp>
    <comp name="--.HHN">
      <acc value="0.0254010138" flag="0"/>
      <vel value="0.0100967240" flag="0"/>
      <psa03 value="0.0746262097" flag="0"/>
      <psa10 value="0.0107897304" flag="0"/>
      <psa30 value="0.0009221624" flag="0"/>
    </comp>
    <comp name="--.HHZ">
      <acc value="0.0174001118" flag="0"/>
      <vel value="0.0086975429" flag="0"/>
      <psa03 value="0.0345533344" flag="0"/>
      <psa10 value="0.0105592920" flag="0"/>
      <psa30 value="0.0010813286" flag="0"/>
    </comp>
  </station>
  <station code="YER" name="YER" netid="KO" insttype="CMG-3T" commtype="DIG" lat="37.1336" lon="28.284">
    <comp name="--.HHE">
      <acc value="0.2601368795" flag="0"/>
      <vel value="0.0738296636" flag="0"/>
      <psa03 value="0.3673839411" flag="0"/>
      <psa10 value="0.0236318260" flag="0"/>
      <psa30 value="0.0025469788" flag="0"/>
    </comp>
    <comp name="--.HHZ">
      <acc value="0.1172767769" flag="0"/>
      <vel value="0.0368219974" flag="0"/>
      <psa03 value="0.1705824263" flag="0"/>
      <psa10 value="0.0229004656" flag="0"/>
      <psa30 value="0.0030845226" flag="0"/>
    </comp>
    <comp name="--.HHN">
      <acc value="0.1745203204" flag="0"/>
      <vel value="0.0568255734" flag="0"/>
      <psa03 value="0.1683097204" flag="0"/>
      <psa10 value="0.0244258263" flag="0"/>
      <psa30 value="0.0020788286" flag="0"/>
    </comp>
  </station>
  <station code="AYDN" name="AYDN" netid="TU" insttype="T" commtype="DIG" lat="37.6608" lon="27.8792">
    <comp name="--.HHZ">
      <acc value="0.0515773052" flag="0"/>
      <vel value="0.0155823789" flag="0"/>
      <psa03 value="0.1114108549" flag="0"/>
      <psa10 value="0.0101177855" flag="0"/>
      <psa30 value="0.0014126478" flag="0"/>
    </comp>
    <comp name="--.HHN">
      <acc value="0.0632466223" flag="0"/>
      <vel value="0.0243152392" flag="0"/>
      <psa03 value="0.1454329536" flag="0"/>
      <psa10 value="0.0199095244" flag="0"/>
      <psa30 value="0.0018563067" flag="0"/>
    </comp>
    <comp name="--.HHE">
      <acc value="0.0659460190" flag="0"/>
      <vel value="0.0259508067" flag="0"/>
      <psa03 value="0.1859390931" flag="0"/>
      <psa10 value="0.0167484281" flag="0"/>
      <psa30 value="0.0013945288" flag="0"/>
    </comp>
  </station>
</stationlist>
