<?xml version="1.0" encoding="UTF-8" standalone="yes"?>
<!DOCTYPE earthquake SYSTEM "stationlist.dtd">
<stationlist created="" xmlns="ch.ethz.sed.shakemap.usgs.xml">
  <station code="IMMV" name="IMMV" netid="GE" insttype="STS-2/N" lat="35.4606" lon="23.9811">
    <comp name="--.HHN">
      <acc value="0.0206326809" flag="0"/>
      <vel value="0.0098148901" flag="0"/>
      <psa03 value="0.0609369605" flag="0"/>
      <psa10 value="0.0105030861" flag="0"/>
      <psa30 value="0.0007265356" flag="0"/>
    </comp>
    <comp name="--.HHE">
      <acc value="0.0185148064" flag="0"/>
      <vel value="0.0112234745" flag="0"/>
      <psa03 value="0.0654193652" flag="0"/>
      <psa10 value="0.0121214580" flag="0"/>
      <psa30 value="0.0008729208" flag="0"/>
    </comp>
    <comp name="--.HHZ">
      <acc value="0.0199662155" flag="0"/>
      <vel value="0.0069700669" flag="0"/>
      <psa03 value="0.0482160503" flag="0"/>
      <psa10 value="0.0048579714" flag="0"/>
      <psa30 value="0.0003792200" flag="0"/>
    </comp>
  </station>
  <station code="CHAN" name="CHAN" netid="HC" insttype="120" lat="35.5193" lon="24.0428">
    <comp name="--.HHZ">
      <acc value="0.0250947897" flag="0"/>
      <vel value="0.0106301454" flag="0"/>
      <psa03 value="0.0606201500" flag="0"/>
      <psa10 value="0.0120708186" flag="0"/>
      <psa30 value="0.0008020244" flag="0"/>
    </comp>
    <comp name="--.HHE">
      <acc value="0.0261837325" flag="0"/>
      <vel value="0.0182524497" flag="0"/>
      <psa03 value="0.1008357580" flag="0"/>
      <psa10 value="0.0251043236" flag="0"/>
      <psa30 value="0.0029052478" flag="0"/>
    </comp>
    <comp name="--.HHN">
      <acc value="0.0224974954" flag="0"/>
      <vel value="0.0214880907" flag="0"/>
      <psa03 value="0.0671070770" flag="0"/>
      <psa10 value="0.0256239692" flag="0"/>
      <psa30 value="0.0018663366" flag="0"/>
    </comp>
  </station>
  <station code="IPPL" name="IPPL" netid="HC" insttype="60" lat="35.3486" lon="24.4632">
    <comp name="--.HHN">
      <acc value="0.0000000000" flag="0"/>
      <vel value="-100.0000000000" flag="0"/>
      <psa03 value="0.0000000000" flag="0"/>
      <psa10 value="0.0000000000" flag="0"/>
      <psa30 value="0.0000000000" flag="0"/>
    </comp>
    <comp name="--.HHE">
      <acc value="0.0000000000" flag="0"/>
      <vel value="-100.0000000000" flag="0"/>
      <psa03 value="0.0000000000" flag="0"/>
      <psa10 value="0.0000000000" flag="0"/>
      <psa30 value="0.0000000000" flag="0"/>
    </comp>
    <comp name="--.HHZ">
      <acc value="0.0072430197" flag="0"/>
      <vel value="0.0044205015" flag="0"/>
      <psa03 value="0.0209146773" flag="0"/>
      <psa10 value="0.0041395913" flag="0"/>
      <psa30 value="0.0002539904" flag="0"/>
    </comp>
  </station>
  <station code="KNDR" name="KNDR" netid="HC" insttype="120" lat="35.2348" lon="23.6248">
    <comp name="--.HHN">
      <acc value="0.0960361176" flag="0"/>
      <vel value="0.0389663367" flag="0"/>
      <psa03 value="0.1930181575" flag="0"/>
      <psa10 value="0.0359631367" flag="0"/>
      <psa30 value="0.0015467086" flag="0"/>
    </comp>
    <comp name="--.HHE">
      <acc value="0.0797309640" flag="0"/>
      <vel value="0.0315165695" flag="0"/>
      <psa03 value="0.3306223478" flag="0"/>
      <psa10 value="0.0321753841" flag="0"/>
      <psa30 value="0.0018135517" flag="0"/>
    </comp>
    <comp name="--.HHZ">
      <acc value="0.0756688251" flag="0"/>
      <vel value="0.0289855550" flag="0"/>
      <psa03 value="0.1720911866" flag="0"/>
      <psa10 value="0.0118783623" flag="0"/>
      <psa30 value="0.0009275133" flag="0"/>
    </comp>
  </station>
  <station code="ANKY" name="ANKY" netid="HL" insttype="60" lat="35.867" lon="23.3012">
    <comp name="--.HHZ">
      <acc value="0.0049643374" flag="0"/>
      <vel value="0.0029580691" flag="0"/>
      <psa03 value="0.0147751832" flag="0"/>
      <psa10 value="0.0037880449" flag="0"/>
      <psa30 value="0.0005582170" flag="0"/>
    </comp>
    <comp name="--.HHN">
      <acc value="0.0061975317" flag="0"/>
      <vel value="0.0050236540" flag="0"/>
      <psa03 value="0.0156877003" flag="0"/>
      <psa10 value="0.0095359880" flag="0"/>
      <psa30 value="0.0005061928" flag="0"/>
    </comp>
    <comp name="--.HHE">
      <acc value="0.0050792932" flag="0"/>
      <vel value="0.0052317955" flag="0"/>
      <psa03 value="0.0188495046" flag="0"/>
      <psa10 value="0.0080911285" flag="0"/>
      <psa30 value="0.0015649999" flag="0"/>
    </comp>
  </station>
  <station code="IMMV" name="IMMV" netid="HL" insttype="120" lat="35.4606" lon="23.9811">
    <comp name="--.HHZ">
      <acc value="0.0194342468" flag="0"/>
      <vel value="0.0067478949" flag="0"/>
      <psa03 value="0.0469044717" flag="0"/>
      <psa10 value="0.0048164749" flag="0"/>
      <psa30 value="0.0003763243" flag="0"/>
    </comp>
    <comp name="--.HHE">
      <acc value="0.0179700248" flag="0"/>
      <vel value="0.0110530416" flag="0"/>
      <psa03 value="0.0636916568" flag="0"/>
      <psa10 value="0.0119868082" flag="0"/>
      <psa30 value="0.0008662937" flag="0"/>
    </comp>
    <comp name="--.HHN">
      <acc value="0.0200739165" flag="0"/>
      <vel value="0.0095695642" flag="0"/>
      <psa03 value="0.0592262633" flag="0"/>
      <psa10 value="0.0103991736" flag="0"/>
      <psa30 value="0.0007259039" flag="0"/>
    </comp>
  </station>
  <station code="VAM" name="VAM" netid="HL" insttype="CMG3ESPC-120s" lat="35.407" lon="24.1997">
    <comp name="--.HHN">
      <acc value="0.0183178022" flag="0"/>
      <vel value="0.0102292892" flag="0"/>
      <psa03 value="0.0540870243" flag="0"/>
      <psa10 value="0.0112114900" flag="0"/>
      <psa30 value="0.0007031176" flag="0"/>
    </comp>
    <comp name="--.HHE">
      <acc value="0.0167464115" flag="0"/>
      <vel value="0.0091656773" flag="0"/>
      <psa03 value="0.0394114976" flag="0"/>
      <psa10 value="0.0101532867" flag="0"/>
      <psa30 value="0.0008175232" flag="0"/>
    </comp>
    <comp name="--.HHZ">
      <acc value="0.0111740765" flag="0"/>
      <vel value="0.0054614724" flag="0"/>
      <psa03 value="0.0230571409" flag="0"/>
      <psa10 value="0.0052546644" flag="0"/>
      <psa30 value="0.0003336776" flag="0"/>
    </comp>
  </station>
</stationlist>
