<?xml version="1.0" encoding="UTF-8" standalone="yes"?>
<!DOCTYPE earthquake SYSTEM "stationlist.dtd">
<stationlist created="" xmlns="ch.ethz.sed.shakemap.usgs.xml">
  <station code="IMMV" name="IMMV" netid="GE" insttype="STS-2/N" lat="35.4606" lon="23.9811">
    <comp name="--.HHN">
      <acc value="0.0206326809" flag="0"/>
      <vel value="0.0098148901" flag="0"/>
      <psa03 value="0.0609369605" flag="0"/>
      <psa10 value="0.0105030861" flag="0"/>
      <psa30 value="0.0007265356" flag="0"/>
    </comp>
    <comp name="--.HHE">
      <acc value="0.0185148064" flag="0"/>
      <vel value="0.0112234745" flag="0"/>
      <psa03 value="0.0654193652" flag="0"/>
      <psa10 value="0.0121214580" flag="0"/>
      <psa30 value="0.0008729208" flag="0"/>
    </comp>
    <comp name="--.HHZ">
      <acc value="0.0199662155" flag="0"/>
      <vel value="0.0069700669" flag="0"/>
      <psa03 value="0.0482160503" flag="0"/>
      <psa10 value="0.0048579714" flag="0"/>
      <psa30 value="0.0003792200" flag="0"/>
    </comp>
  </station>
</stationlist>
