<stationlist created="1778069296">
	<station code="IMMV" name="IMMV" netid="GE" source="GEOFON" insttype="" lat="35.4606" lon="23.9811">
		<comp name="--.HNE" depth="0.0">
			<acc value="0.00722755692619765" flag="0"/>
			<vel value="0.00630108443955819" flag="0"/>
			<psa03 value="0.021565743590007" flag="0"/>
			<psa10 value="0.00872607255676154" flag="0"/>
			<psa30 value="0.000957035799564833" flag="0"/>
		</comp>
		<comp name="--.HNN" depth="0.0">
			<acc value="0.0107782793564192" flag="0"/>
			<vel value="0.00498688553171532" flag="0"/>
			<psa03 value="0.0267110973511082" flag="0"/>
			<psa10 value="0.00502141784876864" flag="0"/>
			<psa30 value="0.000820572069379104" flag="0"/>
		</comp>
		<comp name="--.HNZ" depth="0.0">
			<acc value="0.00508371462533655" flag="0"/>
			<vel value="0.00328606522241523" flag="0"/>
			<psa03 value="0.0224605877223724" flag="0"/>
			<psa10 value="0.00281473221835548" flag="0"/>
			<psa30 value="0.000441158157256159" flag="0"/>
		</comp>
	</station>
	<station code="KTHA" name="KTHA" netid="GE" source="GEOFON" insttype="" lat="36.2566" lon="23.0621">
		<comp name="--.HNE" depth="0.0">
			<acc value="0.00363380969728671" flag="0"/>
			<vel value="0.00510431117567228" flag="0"/>
			<psa03 value="0.0102907075222025" flag="0"/>
			<psa10 value="0.00591536713700171" flag="0"/>
			<psa30 value="0.00294493203961465" flag="0"/>
		</comp>
		<comp name="--.HNN" depth="0.0">
			<acc value="0.00214088883040879" flag="0"/>
			<vel value="0.00188798354103456" flag="0"/>
			<psa03 value="0.0044294784552089" flag="0"/>
			<psa10 value="0.00320533168213299" flag="0"/>
			<psa30 value="0.000835784419629316" flag="0"/>
		</comp>
		<comp name="--.HNZ" depth="0.0">
			<acc value="0.00225836982598317" flag="0"/>
			<vel value="0.00412689656802724" flag="0"/>
			<psa03 value="0.00433999404197236" flag="0"/>
			<psa10 value="0.00467913996813886" flag="0"/>
			<psa30 value="0.00225634947975944" flag="0"/>
		</comp>
	</station>
</stationlist>
