<?xml version="1.0" encoding="UTF-8" standalone="yes"?>
<!DOCTYPE earthquake SYSTEM "stationlist.dtd">
<stationlist created="" xmlns="ch.ethz.sed.shakemap.usgs.xml">
  <station code="GVD" name="GVD" netid="GE" insttype="STS-2/N" lat="34.8391" lon="24.0874">
    <comp name="--.HHE">
      <acc value="0.0376143010" flag="0"/>
      <vel value="0.0140105875" flag="0"/>
      <psa03 value="0.0640597727" flag="0"/>
      <psa10 value="0.0061748505" flag="0"/>
      <psa30 value="0.0006355451" flag="0"/>
    </comp>
    <comp name="--.HHN">
      <acc value="0.0215759472" flag="0"/>
      <vel value="0.0118647039" flag="0"/>
      <psa03 value="0.0666931939" flag="0"/>
      <psa10 value="0.0083975019" flag="0"/>
      <psa30 value="0.0008224038" flag="0"/>
    </comp>
    <comp name="--.HHZ">
      <acc value="0.0193556036" flag="0"/>
      <vel value="0.0067933291" flag="0"/>
      <psa03 value="0.0320375084" flag="0"/>
      <psa10 value="0.0043831512" flag="0"/>
      <psa30 value="0.0006134268" flag="0"/>
    </comp>
  </station>
  <station code="IMMV" name="IMMV" netid="GE" insttype="STS-2/N" lat="35.4606" lon="23.9811">
    <comp name="--.HHN">
      <acc value="0.0110491242" flag="0"/>
      <vel value="0.0050570578" flag="0"/>
      <psa03 value="0.0265317656" flag="0"/>
      <psa10 value="0.0050017520" flag="0"/>
      <psa30 value="0.0007523336" flag="0"/>
    </comp>
    <comp name="--.HHE">
      <acc value="0.0073789402" flag="0"/>
      <vel value="0.0059544097" flag="0"/>
      <psa03 value="0.0221720900" flag="0"/>
      <psa10 value="0.0087230666" flag="0"/>
      <psa30 value="0.0008792416" flag="0"/>
    </comp>
    <comp name="--.HHZ">
      <acc value="0.0051460768" flag="0"/>
      <vel value="0.0030738619" flag="0"/>
      <psa03 value="0.0228809375" flag="0"/>
      <psa10 value="0.0027716490" flag="0"/>
      <psa30 value="0.0003807066" flag="0"/>
    </comp>
  </station>
  <station code="CHAN" name="CHAN" netid="HC" insttype="120" lat="35.5193" lon="24.0428">
    <comp name="--.HHZ">
      <acc value="0.0057187141" flag="0"/>
      <vel value="0.0039146907" flag="0"/>
      <psa03 value="0.0148623522" flag="0"/>
      <psa10 value="0.0063663451" flag="0"/>
      <psa30 value="0.0003482688" flag="0"/>
    </comp>
    <comp name="--.HHE">
      <acc value="0.0105228697" flag="0"/>
      <vel value="0.0101363821" flag="0"/>
      <psa03 value="0.0281753811" flag="0"/>
      <psa10 value="0.0128143659" flag="0"/>
      <psa30 value="0.0024764018" flag="0"/>
    </comp>
    <comp name="--.HHN">
      <acc value="0.0105521084" flag="0"/>
      <vel value="0.0086279140" flag="0"/>
      <psa03 value="0.0340254592" flag="0"/>
      <psa10 value="0.0141386375" flag="0"/>
      <psa30 value="0.0013451021" flag="0"/>
    </comp>
  </station>
  <station code="ANKY" name="ANKY" netid="HL" insttype="60" lat="35.867" lon="23.3012">
    <comp name="--.HHZ">
      <acc value="0.0024932925" flag="0"/>
      <vel value="0.0023183053" flag="0"/>
      <psa03 value="0.0080391985" flag="0"/>
      <psa10 value="0.0024086814" flag="0"/>
      <psa30 value="0.0006387267" flag="0"/>
    </comp>
    <comp name="--.HHE">
      <acc value="0.0036644646" flag="0"/>
      <vel value="0.0045367981" flag="0"/>
      <psa03 value="0.0109064361" flag="0"/>
      <psa10 value="0.0076508198" flag="0"/>
      <psa30 value="0.0006540369" flag="0"/>
    </comp>
    <comp name="--.HHN">
      <acc value="0.0043556697" flag="0"/>
      <vel value="0.0037313245" flag="0"/>
      <psa03 value="0.0089659227" flag="0"/>
      <psa10 value="0.0058867226" flag="0"/>
      <psa30 value="0.0005012628" flag="0"/>
    </comp>
  </station>
  <station code="GVD" name="GVD" netid="HL" insttype="120" lat="34.8391" lon="24.0874">
    <comp name="--.HHN">
      <acc value="0.0208347307" flag="0"/>
      <vel value="0.0116540571" flag="0"/>
      <psa03 value="0.0648727313" flag="0"/>
      <psa10 value="0.0083383423" flag="0"/>
      <psa30 value="0.0008207677" flag="0"/>
    </comp>
    <comp name="--.HHZ">
      <acc value="0.0186070959" flag="0"/>
      <vel value="0.0066044715" flag="0"/>
      <psa03 value="0.0311265229" flag="0"/>
      <psa10 value="0.0043573159" flag="0"/>
      <psa30 value="0.0006137492" flag="0"/>
    </comp>
    <comp name="--.HHE">
      <acc value="0.0367244222" flag="0"/>
      <vel value="0.0135900708" flag="0"/>
      <psa03 value="0.0622964340" flag="0"/>
      <psa10 value="0.0061290316" flag="0"/>
      <psa30 value="0.0006346305" flag="0"/>
    </comp>
  </station>
  <station code="IMMV" name="IMMV" netid="HL" insttype="120" lat="35.4606" lon="23.9811">
    <comp name="--.HHE">
      <acc value="0.0072273338" flag="0"/>
      <vel value="0.0058861829" flag="0"/>
      <psa03 value="0.0216251007" flag="0"/>
      <psa10 value="0.0086751166" flag="0"/>
      <psa30 value="0.0008783654" flag="0"/>
    </comp>
    <comp name="--.HHN">
      <acc value="0.0107643669" flag="0"/>
      <vel value="0.0049038207" flag="0"/>
      <psa03 value="0.0258094201" flag="0"/>
      <psa10 value="0.0049698657" flag="0"/>
      <psa30 value="0.0007506497" flag="0"/>
    </comp>
    <comp name="--.HHZ">
      <acc value="0.0050170915" flag="0"/>
      <vel value="0.0030292819" flag="0"/>
      <psa03 value="0.0222253801" flag="0"/>
      <psa10 value="0.0027483620" flag="0"/>
      <psa30 value="0.0003790441" flag="0"/>
    </comp>
  </station>
</stationlist>
