<?xml version="1.0" encoding="UTF-8" standalone="yes"?>
<!DOCTYPE earthquake SYSTEM "stationlist.dtd">
<stationlist created="" xmlns="ch.ethz.sed.shakemap.usgs.xml">
  <station code="BNN" name="BNN" netid="KO" insttype="CMG-3T" lat="38.8521" lon="35.8472">
    <comp name="--.HHN">
      <acc value="0.0080735016" flag="0"/>
      <vel value="0.0049388467" flag="0"/>
      <psa03 value="0.0166645513" flag="0"/>
      <psa10 value="0.0041748850" flag="0"/>
      <psa30 value="0.0013474700" flag="0"/>
    </comp>
    <comp name="--.HHZ">
      <acc value="0.0043404738" flag="0"/>
      <vel value="0.0041624739" flag="0"/>
      <psa03 value="0.0095600121" flag="0"/>
      <psa10 value="0.0056397000" flag="0"/>
      <psa30 value="0.0013644019" flag="0"/>
    </comp>
  </station>
  <station code="CEYT" name="CEYT" netid="KO" insttype="CMG-3ESP" lat="37.0105" lon="35.7478">
    <comp name="--.HHZ">
      <acc value="0.0063846185" flag="0"/>
      <vel value="0.0051082817" flag="0"/>
      <psa03 value="0.0174309474" flag="0"/>
      <psa10 value="0.0102933535" flag="0"/>
      <psa30 value="0.0016571759" flag="0"/>
    </comp>
    <comp name="--.HHN">
      <acc value="0.0093617273" flag="0"/>
      <vel value="0.0061040131" flag="0"/>
      <psa03 value="0.0238366675" flag="0"/>
      <psa10 value="0.0084021842" flag="0"/>
      <psa30 value="0.0014638163" flag="0"/>
    </comp>
    <comp name="--.HHE">
      <acc value="0.0137715566" flag="0"/>
      <vel value="0.0072316327" flag="0"/>
      <psa03 value="0.0347265622" flag="0"/>
      <psa10 value="0.0170099330" flag="0"/>
      <psa30 value="0.0014488854" flag="0"/>
    </comp>
  </station>
  <station code="GAZ" name="GAZ" netid="KO" insttype="CMG-3T" lat="37.1721" lon="37.2096">
    <comp name="--.HHE">
      <acc value="0.0182496647" flag="0"/>
      <vel value="0.0123186594" flag="0"/>
      <psa03 value="0.0383932237" flag="0"/>
      <psa10 value="0.0167504749" flag="0"/>
      <psa30 value="0.0022862451" flag="0"/>
    </comp>
    <comp name="--.HHN">
      <acc value="0.0251905819" flag="0"/>
      <vel value="0.0197753499" flag="0"/>
      <psa03 value="0.0564336758" flag="0"/>
      <psa10 value="0.0277425592" flag="0"/>
      <psa30 value="0.0015505618" flag="0"/>
    </comp>
  </station>
  <station code="KMRS" name="KMRS" netid="KO" insttype="CMG-3T" lat="37.5053" lon="36.9">
    <comp name="--.HHE">
      <acc value="0.0133345093" flag="0"/>
      <vel value="0.0090592744" flag="0"/>
      <psa03 value="0.0415722750" flag="0"/>
      <psa10 value="0.0127672815" flag="0"/>
      <psa30 value="0.0024428523" flag="0"/>
    </comp>
    <comp name="--.HHN">
      <acc value="0.0179106063" flag="0"/>
      <vel value="0.0121734831" flag="0"/>
      <psa03 value="0.0342516442" flag="0"/>
      <psa10 value="0.0198051658" flag="0"/>
      <psa30 value="0.0042925890" flag="0"/>
    </comp>
    <comp name="--.HHZ">
      <acc value="0.0119700715" flag="0"/>
      <vel value="0.0054568078" flag="0"/>
      <psa03 value="0.0260294930" flag="0"/>
      <psa10 value="0.0082013455" flag="0"/>
      <psa30 value="0.0041130633" flag="0"/>
    </comp>
  </station>
  <station code="SARI" name="SARI" netid="KO" insttype="CMG-3T" lat="38.4072" lon="36.4181">
    <comp name="--.HHN">
      <acc value="0.0856349007" flag="0"/>
      <vel value="0.0343605936" flag="0"/>
      <psa03 value="0.1620477915" flag="0"/>
      <psa10 value="0.0168462149" flag="0"/>
      <psa30 value="0.0027952590" flag="0"/>
    </comp>
  </station>
  <station code="ANDN" name="ANDN" netid="TU" insttype="T" lat="37.58" lon="36.3452">
    <comp name="--.HHN">
      <acc value="0.5112557170" flag="0"/>
      <vel value="0.2061571727" flag="0"/>
      <psa03 value="1.4643182609" flag="0"/>
      <psa10 value="0.1232244643" flag="0"/>
      <psa30 value="0.0265076084" flag="0"/>
    </comp>
    <comp name="--.HHE">
      <acc value="0.4384488114" flag="0"/>
      <vel value="0.2330611349" flag="0"/>
      <psa03 value="1.1567610034" flag="0"/>
      <psa10 value="0.2086175413" flag="0"/>
      <psa30 value="0.0128036963" flag="0"/>
    </comp>
    <comp name="--.HHZ">
      <acc value="0.3831847037" flag="0"/>
      <vel value="0.1613549519" flag="0"/>
      <psa03 value="1.0060379133" flag="0"/>
      <psa10 value="0.1848163645" flag="0"/>
      <psa30 value="0.0171308762" flag="0"/>
    </comp>
  </station>
</stationlist>
