<?xml version="1.0" encoding="UTF-8" standalone="yes"?>
<!DOCTYPE earthquake SYSTEM "stationlist.dtd">
<stationlist created="" xmlns="ch.ethz.sed.shakemap.usgs.xml">
  <station code="BNN" name="BNN" netid="KO" insttype="CMG-3T" lat="38.8521" lon="35.8472">
    <comp name="--.HHZ">
      <acc value="0.0043404737" flag="0"/>
      <vel value="0.0041624737" flag="0"/>
      <psa03 value="0.0095600121" flag="0"/>
      <psa10 value="0.0056397000" flag="0"/>
      <psa30 value="0.0013643989" flag="0"/>
    </comp>
    <comp name="--.HHN">
      <acc value="0.0080735018" flag="0"/>
      <vel value="0.0049388466" flag="0"/>
      <psa03 value="0.0166645513" flag="0"/>
      <psa10 value="0.0041748850" flag="0"/>
      <psa30 value="0.0013474845" flag="0"/>
    </comp>
  </station>
  <station code="CEYT" name="CEYT" netid="KO" insttype="CMG-3ESP" lat="37.0105" lon="35.7478">
    <comp name="--.HHN">
      <acc value="0.0093617272" flag="0"/>
      <vel value="0.0061040154" flag="0"/>
      <psa03 value="0.0238366675" flag="0"/>
      <psa10 value="0.0084021842" flag="0"/>
      <psa30 value="0.0014638165" flag="0"/>
    </comp>
    <comp name="--.HHE">
      <acc value="0.0137715567" flag="0"/>
      <vel value="0.0072316517" flag="0"/>
      <psa03 value="0.0347265623" flag="0"/>
      <psa10 value="0.0170099329" flag="0"/>
      <psa30 value="0.0014488878" flag="0"/>
    </comp>
    <comp name="--.HHZ">
      <acc value="0.0063846185" flag="0"/>
      <vel value="0.0051082844" flag="0"/>
      <psa03 value="0.0174309474" flag="0"/>
      <psa10 value="0.0102933535" flag="0"/>
      <psa30 value="0.0016571787" flag="0"/>
    </comp>
  </station>
  <station code="CMRD" name="CMRD" netid="KO" insttype="CMG-5T" lat="37.6623" lon="34.9902">
    <comp name="--.HNE">
      <acc value="0.0089524742" flag="0"/>
      <vel value="0.0040995446" flag="0"/>
      <psa03 value="0.0194865442" flag="0"/>
      <psa10 value="0.0057950962" flag="0"/>
      <psa30 value="0.0005947062" flag="0"/>
    </comp>
    <comp name="--.HNZ">
      <acc value="0.0078114549" flag="0"/>
      <vel value="0.0038463483" flag="0"/>
      <psa03 value="0.0194351683" flag="0"/>
      <psa10 value="0.0070198071" flag="0"/>
      <psa30 value="0.0008339876" flag="0"/>
    </comp>
    <comp name="--.HNN">
      <acc value="0.0102487752" flag="0"/>
      <vel value="0.0047582105" flag="0"/>
      <psa03 value="0.0196602843" flag="0"/>
      <psa10 value="0.0056799405" flag="0"/>
      <psa30 value="0.0013994392" flag="0"/>
    </comp>
  </station>
  <station code="GAZ" name="GAZ" netid="KO" insttype="CMG-3T" lat="37.1721" lon="37.2096">
    <comp name="--.HHE">
      <acc value="0.0182496653" flag="0"/>
      <vel value="0.0123186593" flag="0"/>
      <psa03 value="0.0383932237" flag="0"/>
      <psa10 value="0.0167504749" flag="0"/>
      <psa30 value="0.0022862447" flag="0"/>
    </comp>
    <comp name="--.HHN">
      <acc value="0.0251905815" flag="0"/>
      <vel value="0.0197753500" flag="0"/>
      <psa03 value="0.0564336758" flag="0"/>
      <psa10 value="0.0277425592" flag="0"/>
      <psa30 value="0.0015505600" flag="0"/>
    </comp>
  </station>
  <station code="KMRS" name="KMRS" netid="KO" insttype="CMG-3T" lat="37.5053" lon="36.9">
    <comp name="--.HHE">
      <acc value="0.0133345093" flag="0"/>
      <vel value="0.0090592743" flag="0"/>
      <psa03 value="0.0415722750" flag="0"/>
      <psa10 value="0.0127672815" flag="0"/>
      <psa30 value="0.0024428522" flag="0"/>
    </comp>
    <comp name="--.HHN">
      <acc value="0.0179106063" flag="0"/>
      <vel value="0.0121734833" flag="0"/>
      <psa03 value="0.0342516442" flag="0"/>
      <psa10 value="0.0198051658" flag="0"/>
      <psa30 value="0.0042925880" flag="0"/>
    </comp>
    <comp name="--.HHZ">
      <acc value="0.0119700715" flag="0"/>
      <vel value="0.0054568079" flag="0"/>
      <psa03 value="0.0260294930" flag="0"/>
      <psa10 value="0.0082013455" flag="0"/>
      <psa30 value="0.0041130619" flag="0"/>
    </comp>
  </station>
  <station code="SARI" name="SARI" netid="KO" insttype="CMG-3T" lat="38.4072" lon="36.4181">
    <comp name="--.HHN">
      <acc value="0.0856349005" flag="0"/>
      <vel value="0.0343605938" flag="0"/>
      <psa03 value="0.1620477915" flag="0"/>
      <psa10 value="0.0168462148" flag="0"/>
      <psa30 value="0.0027951901" flag="0"/>
    </comp>
  </station>
  <station code="ANDN" name="ANDN" netid="TU" insttype="T" lat="37.58" lon="36.3452">
    <comp name="--.HHN">
      <acc value="0.5112557175" flag="0"/>
      <vel value="0.2061571734" flag="0"/>
      <psa03 value="1.4643182609" flag="0"/>
      <psa10 value="0.1232244646" flag="0"/>
      <psa30 value="0.0265075766" flag="0"/>
    </comp>
    <comp name="--.HHZ">
      <acc value="0.3831847036" flag="0"/>
      <vel value="0.1613549519" flag="0"/>
      <psa03 value="1.0060379133" flag="0"/>
      <psa10 value="0.1848163636" flag="0"/>
      <psa30 value="0.0171308875" flag="0"/>
    </comp>
    <comp name="--.HHE">
      <acc value="0.4384488117" flag="0"/>
      <vel value="0.2330611359" flag="0"/>
      <psa03 value="1.1567610034" flag="0"/>
      <psa10 value="0.2086175417" flag="0"/>
      <psa30 value="0.0128032206" flag="0"/>
    </comp>
  </station>
</stationlist>
