<?xml version="1.0" encoding="UTF-8" standalone="yes"?>
<!DOCTYPE earthquake SYSTEM "stationlist.dtd">
<stationlist created="" xmlns="ch.ethz.sed.shakemap.usgs.xml">
  <station code="BNN" name="BNN" netid="KO" insttype="CMG-3T" lat="38.8521" lon="35.8472">
    <comp name="--.HHN">
      <acc value="0.0080735018" flag="0"/>
      <vel value="0.0049388470" flag="0"/>
      <psa03 value="0.0166645513" flag="0"/>
      <psa10 value="0.0041748850" flag="0"/>
      <psa30 value="0.0013474806" flag="0"/>
    </comp>
    <comp name="--.HHZ">
      <acc value="0.0043404738" flag="0"/>
      <vel value="0.0041624735" flag="0"/>
      <psa03 value="0.0095600121" flag="0"/>
      <psa10 value="0.0056397000" flag="0"/>
      <psa30 value="0.0013644020" flag="0"/>
    </comp>
  </station>
  <station code="CEYT" name="CEYT" netid="KO" insttype="CMG-3ESP" lat="37.0105" lon="35.7478">
    <comp name="--.HHE">
      <acc value="0.0137715567" flag="0"/>
      <vel value="0.0072316423" flag="0"/>
      <psa03 value="0.0347265623" flag="0"/>
      <psa10 value="0.0170099330" flag="0"/>
      <psa30 value="0.0014488856" flag="0"/>
    </comp>
    <comp name="--.HHN">
      <acc value="0.0093617272" flag="0"/>
      <vel value="0.0061039947" flag="0"/>
      <psa03 value="0.0238366675" flag="0"/>
      <psa10 value="0.0084021843" flag="0"/>
      <psa30 value="0.0014638181" flag="0"/>
    </comp>
    <comp name="--.HHZ">
      <acc value="0.0063846184" flag="0"/>
      <vel value="0.0051082783" flag="0"/>
      <psa03 value="0.0174309474" flag="0"/>
      <psa10 value="0.0102933535" flag="0"/>
      <psa30 value="0.0016571769" flag="0"/>
    </comp>
  </station>
  <station code="CMRD" name="CMRD" netid="KO" insttype="CMG-5T" lat="37.6623" lon="34.9902">
    <comp name="--.HNE">
      <acc value="0.0089524768" flag="0"/>
      <vel value="0.0040995436" flag="0"/>
      <psa03 value="0.0194865442" flag="0"/>
      <psa10 value="0.0057950961" flag="0"/>
      <psa30 value="0.0005946773" flag="0"/>
    </comp>
    <comp name="--.HNN">
      <acc value="0.0102487792" flag="0"/>
      <vel value="0.0047582115" flag="0"/>
      <psa03 value="0.0196602843" flag="0"/>
      <psa10 value="0.0056799405" flag="0"/>
      <psa30 value="0.0013995247" flag="0"/>
    </comp>
    <comp name="--.HNZ">
      <acc value="0.0078114557" flag="0"/>
      <vel value="0.0038463477" flag="0"/>
      <psa03 value="0.0194351683" flag="0"/>
      <psa10 value="0.0070198071" flag="0"/>
      <psa30 value="0.0008339903" flag="0"/>
    </comp>
  </station>
  <station code="GAZ" name="GAZ" netid="KO" insttype="CMG-3T" lat="37.1721" lon="37.2096">
    <comp name="--.HHE">
      <acc value="0.0182496655" flag="0"/>
      <vel value="0.0123186593" flag="0"/>
      <psa03 value="0.0383932237" flag="0"/>
      <psa10 value="0.0167504749" flag="0"/>
      <psa30 value="0.0022862463" flag="0"/>
    </comp>
    <comp name="--.HHN">
      <acc value="0.0251905803" flag="0"/>
      <vel value="0.0197753500" flag="0"/>
      <psa03 value="0.0564336758" flag="0"/>
      <psa10 value="0.0277425592" flag="0"/>
      <psa30 value="0.0015505596" flag="0"/>
    </comp>
  </station>
  <station code="KMRS" name="KMRS" netid="KO" insttype="CMG-3T" lat="37.5053" lon="36.9">
    <comp name="--.HHE">
      <acc value="0.0133345092" flag="0"/>
      <vel value="0.0090592744" flag="0"/>
      <psa03 value="0.0415722750" flag="0"/>
      <psa10 value="0.0127672815" flag="0"/>
      <psa30 value="0.0024428588" flag="0"/>
    </comp>
    <comp name="--.HHZ">
      <acc value="0.0119700715" flag="0"/>
      <vel value="0.0054568075" flag="0"/>
      <psa03 value="0.0260294930" flag="0"/>
      <psa10 value="0.0082013455" flag="0"/>
      <psa30 value="0.0041130672" flag="0"/>
    </comp>
    <comp name="--.HHN">
      <acc value="0.0179106064" flag="0"/>
      <vel value="0.0121734830" flag="0"/>
      <psa03 value="0.0342516442" flag="0"/>
      <psa10 value="0.0198051658" flag="0"/>
      <psa30 value="0.0042925914" flag="0"/>
    </comp>
  </station>
  <station code="SARI" name="SARI" netid="KO" insttype="CMG-3T" lat="38.4072" lon="36.4181">
    <comp name="--.HHN">
      <acc value="0.0856349007" flag="0"/>
      <vel value="0.0343605936" flag="0"/>
      <psa03 value="0.1620477915" flag="0"/>
      <psa10 value="0.0168462148" flag="0"/>
      <psa30 value="0.0027952115" flag="0"/>
    </comp>
    <comp name="--.HHZ">
      <acc value="0.0414950285" flag="0"/>
      <vel value="0.0200386280" flag="0"/>
      <psa03 value="0.0692624936" flag="0"/>
      <psa10 value="0.0160619325" flag="0"/>
      <psa30 value="0.0016068373" flag="0"/>
    </comp>
  </station>
  <station code="ANDN" name="ANDN" netid="TU" insttype="T" lat="37.58" lon="36.3452">
    <comp name="--.HHE">
      <acc value="0.4384488113" flag="0"/>
      <vel value="0.2330611349" flag="0"/>
      <psa03 value="1.1567610034" flag="0"/>
      <psa10 value="0.2086175411" flag="0"/>
      <psa30 value="0.0128036843" flag="0"/>
    </comp>
    <comp name="--.HHN">
      <acc value="0.5112557170" flag="0"/>
      <vel value="0.2061571729" flag="0"/>
      <psa03 value="1.4643182609" flag="0"/>
      <psa10 value="0.1232244643" flag="0"/>
      <psa30 value="0.0265076056" flag="0"/>
    </comp>
    <comp name="--.HHZ">
      <acc value="0.3831847036" flag="0"/>
      <vel value="0.1613549518" flag="0"/>
      <psa03 value="1.0060379133" flag="0"/>
      <psa10 value="0.1848163646" flag="0"/>
      <psa30 value="0.0171308704" flag="0"/>
    </comp>
  </station>
</stationlist>
