<?xml version="1.0" encoding="UTF-8" standalone="yes"?>
<!DOCTYPE earthquake SYSTEM "stationlist.dtd">
<stationlist created="" xmlns="ch.ethz.sed.shakemap.usgs.xml">
  <station code="DARE" name="DARE" netid="KO" insttype="CMG-3ESP" lat="38.5712" lon="37.4832">
    <comp name="--.HHE">
      <acc value="0.0616526578" flag="0"/>
      <vel value="0.0739469205" flag="0"/>
      <psa03 value="0.0936740269" flag="0"/>
      <psa10 value="0.1128931931" flag="0"/>
      <psa30 value="0.0353628978" flag="0"/>
    </comp>
    <comp name="--.HHZ">
      <acc value="0.0611622553" flag="0"/>
      <vel value="0.0633657276" flag="0"/>
      <psa03 value="0.0850699681" flag="0"/>
      <psa10 value="0.1344105084" flag="0"/>
      <psa30 value="0.0116810399" flag="0"/>
    </comp>
  </station>
  <station code="GAZ" name="GAZ" netid="KO" insttype="CMG-3T" lat="37.1721" lon="37.2096">
    <comp name="--.HHE">
      <acc value="0.0597945807" flag="0"/>
      <vel value="0.0634830021" flag="0"/>
      <psa03 value="0.1477190106" flag="0"/>
      <psa10 value="0.0579935486" flag="0"/>
      <psa30 value="0.0174432360" flag="0"/>
    </comp>
    <comp name="--.HHZ">
      <acc value="0.0309267189" flag="0"/>
      <vel value="0.0290444425" flag="0"/>
      <psa03 value="0.0852290187" flag="0"/>
      <psa10 value="0.0381879240" flag="0"/>
      <psa30 value="0.0115890964" flag="0"/>
    </comp>
    <comp name="--.HHN">
      <acc value="0.0466676290" flag="0"/>
      <vel value="0.0387358458" flag="0"/>
      <psa03 value="0.1118406633" flag="0"/>
      <psa10 value="0.0378788972" flag="0"/>
      <psa30 value="0.0124379478" flag="0"/>
    </comp>
  </station>
  <station code="KMRS" name="KMRS" netid="KO" insttype="CMG-3T" lat="37.5053" lon="36.9">
    <comp name="--.HHE">
      <acc value="0.0463594601" flag="0"/>
      <vel value="0.0389901680" flag="0"/>
      <psa03 value="0.1134536665" flag="0"/>
      <psa10 value="0.0454597750" flag="0"/>
      <psa30 value="0.0169297198" flag="0"/>
    </comp>
  </station>
  <station code="URFA" name="URFA" netid="KO" insttype="CMG-3ESP" lat="37.4409" lon="38.8213">
    <comp name="--.HHN">
      <acc value="0.1033060318" flag="0"/>
      <vel value="0.0689950083" flag="0"/>
      <psa03 value="0.1975086735" flag="0"/>
      <psa10 value="0.1472879302" flag="0"/>
      <psa30 value="0.0193875135" flag="0"/>
    </comp>
    <comp name="--.HHZ">
      <acc value="0.0587577916" flag="0"/>
      <vel value="0.0515865943" flag="0"/>
      <psa03 value="0.1978036745" flag="0"/>
      <psa10 value="0.0926526886" flag="0"/>
      <psa30 value="0.0091531029" flag="0"/>
    </comp>
  </station>
</stationlist>
