<?xml version="1.0" encoding="UTF-8" standalone="yes"?>
<!DOCTYPE earthquake SYSTEM "stationlist.dtd">
<stationlist created="" xmlns="ch.ethz.sed.shakemap.usgs.xml">
  <station code="GAZ" name="GAZ" netid="KO" insttype="CMG-3T" lat="37.1721" lon="37.2096">
    <comp name="--.HHN">
      <acc value="0.0466345739" flag="0"/>
      <vel value="0.0344199647" flag="0"/>
      <psa03 value="0.1121476180" flag="0"/>
      <psa10 value="0.0379285411" flag="0"/>
      <psa30 value="0.0099528103" flag="0"/>
    </comp>
    <comp name="--.HHE">
      <acc value="0.0598350123" flag="0"/>
      <vel value="0.0451707310" flag="0"/>
      <psa03 value="0.1477485134" flag="0"/>
      <psa10 value="0.0568853419" flag="0"/>
      <psa30 value="0.0116808580" flag="0"/>
    </comp>
    <comp name="--.HHZ">
      <acc value="0.0309984365" flag="0"/>
      <vel value="0.0279189578" flag="0"/>
      <psa03 value="0.0849211184" flag="0"/>
      <psa10 value="0.0384808716" flag="0"/>
      <psa30 value="0.0097061710" flag="0"/>
    </comp>
  </station>
  <station code="KMRS" name="KMRS" netid="KO" insttype="CMG-3T" lat="37.5053" lon="36.9">
    <comp name="--.HHE">
      <acc value="0.0466128182" flag="0"/>
      <vel value="0.0340526922" flag="0"/>
      <psa03 value="0.1131194227" flag="0"/>
      <psa10 value="0.0454856636" flag="0"/>
      <psa30 value="0.0143464068" flag="0"/>
    </comp>
  </station>
  <station code="URFA" name="URFA" netid="KO" insttype="CMG-3ESP" lat="37.4409" lon="38.8213">
    <comp name="--.HHZ">
      <acc value="0.0587186802" flag="0"/>
      <vel value="0.0504335614" flag="0"/>
      <psa03 value="0.1977610243" flag="0"/>
      <psa10 value="0.0924014022" flag="0"/>
      <psa30 value="0.0076193956" flag="0"/>
    </comp>
    <comp name="--.HHN">
      <acc value="0.1029911071" flag="0"/>
      <vel value="0.0680692527" flag="0"/>
      <psa03 value="0.1976143244" flag="0"/>
      <psa10 value="0.1476367615" flag="0"/>
      <psa30 value="0.0157740748" flag="0"/>
    </comp>
  </station>
</stationlist>
