<?xml version="1.0" encoding="UTF-8" standalone="yes"?>
<!DOCTYPE earthquake SYSTEM "stationlist.dtd">
<stationlist created="" xmlns="ch.ethz.sed.shakemap.usgs.xml">
  <station code="BISRR" name="BISRR" netid="RO" insttype="CMG40T.1to100/Basalt" lat="45.5481" lon="26.7099">
    <comp name="--.HHZ">
      <acc value="0.1620915315" flag="0"/>
      <vel value="0.0321396026" flag="0"/>
      <psa03 value="0.1716149450" flag="0"/>
      <psa10 value="0.0200418733" flag="0"/>
      <psa30 value="0.0009822981" flag="0"/>
    </comp>
    <comp name="--.HHE">
      <acc value="0.1821737028" flag="0"/>
      <vel value="0.0551065653" flag="0"/>
      <psa03 value="0.4961654348" flag="0"/>
      <psa10 value="0.0318433149" flag="0"/>
      <psa30 value="0.0013885617" flag="0"/>
    </comp>
    <comp name="--.HHN">
      <acc value="0.0032647036" flag="0"/>
      <vel value="0.0009308905" flag="0"/>
      <psa03 value="0.0017531794" flag="0"/>
      <psa10 value="0.0001940818" flag="0"/>
      <psa30 value="0.0000495226" flag="0"/>
    </comp>
  </station>
  <station code="GHRR" name="GHRR" netid="RO" insttype="w/attenuator" lat="46.0605" lon="27.408">
    <comp name="--.HHE">
      <acc value="0.4028125010" flag="0"/>
      <vel value="0.1120142152" flag="0"/>
      <psa03 value="0.5777776149" flag="0"/>
      <psa10 value="0.0248223397" flag="0"/>
      <psa30 value="0.0029783571" flag="0"/>
    </comp>
    <comp name="--.HHN">
      <acc value="0.3599641336" flag="0"/>
      <vel value="0.0967586708" flag="0"/>
      <psa03 value="0.4074539909" flag="0"/>
      <psa10 value="0.0208040583" flag="0"/>
      <psa30 value="0.0030177340" flag="0"/>
    </comp>
    <comp name="--.HHZ">
      <acc value="0.1697001891" flag="0"/>
      <vel value="0.0459788483" flag="0"/>
      <psa03 value="0.2145266913" flag="0"/>
      <psa10 value="0.0092173266" flag="0"/>
      <psa30 value="0.0008863473" flag="0"/>
    </comp>
  </station>
  <station code="MLR" name="MLR" netid="RO" insttype="330HR" lat="45.4909" lon="25.945">
    <comp name="--.HHN">
      <acc value="0.1940374364" flag="0"/>
      <vel value="0.0734409938" flag="0"/>
      <psa03 value="0.4458828699" flag="0"/>
      <psa10 value="0.0415265251" flag="0"/>
      <psa30 value="0.0056155625" flag="0"/>
    </comp>
    <comp name="--.HHE">
      <acc value="0.2685808050" flag="0"/>
      <vel value="0.1185080659" flag="0"/>
      <psa03 value="0.4845939932" flag="0"/>
      <psa10 value="0.0576174212" flag="0"/>
      <psa30 value="0.0037384495" flag="0"/>
    </comp>
    <comp name="--.HHZ">
      <acc value="0.0270982138" flag="0"/>
      <vel value="0.0137349644" flag="0"/>
      <psa03 value="0.0463434056" flag="0"/>
      <psa10 value="0.0047767567" flag="0"/>
      <psa30 value="0.0004783820" flag="0"/>
    </comp>
  </station>
  <station code="PLOR" name="PLOR" netid="RO" insttype="330" lat="45.8512" lon="26.6498">
    <comp name="--.HHE">
      <acc value="0.0282305813" flag="0"/>
      <vel value="0.0110274106" flag="0"/>
      <psa03 value="0.0719548229" flag="0"/>
      <psa10 value="0.0051404779" flag="0"/>
      <psa30 value="0.0003437783" flag="0"/>
    </comp>
    <comp name="--.HHN">
      <acc value="0.0288922164" flag="0"/>
      <vel value="0.0113216562" flag="0"/>
      <psa03 value="0.0631104825" flag="0"/>
      <psa10 value="0.0044964321" flag="0"/>
      <psa30 value="0.0004572386" flag="0"/>
    </comp>
    <comp name="--.HHZ">
      <acc value="0.0158515466" flag="0"/>
      <vel value="0.0059506949" flag="0"/>
      <psa03 value="0.0350231587" flag="0"/>
      <psa10 value="0.0033573682" flag="0"/>
      <psa30 value="0.0001720863" flag="0"/>
    </comp>
  </station>
  <station code="PLOR4" name="PLOR4" netid="RO" insttype="330" lat="45.8512" lon="26.6498">
    <comp name="--.HHE">
      <acc value="0.0282305813" flag="0"/>
      <vel value="0.0110274106" flag="0"/>
      <psa03 value="0.0719548229" flag="0"/>
      <psa10 value="0.0051404779" flag="0"/>
      <psa30 value="0.0003437783" flag="0"/>
    </comp>
    <comp name="--.HHZ">
      <acc value="0.0158515466" flag="0"/>
      <vel value="0.0059506949" flag="0"/>
      <psa03 value="0.0350231587" flag="0"/>
      <psa10 value="0.0033573682" flag="0"/>
      <psa30 value="0.0001720863" flag="0"/>
    </comp>
    <comp name="--.HHN">
      <acc value="0.0288922164" flag="0"/>
      <vel value="0.0113216562" flag="0"/>
      <psa03 value="0.0631104825" flag="0"/>
      <psa10 value="0.0044964321" flag="0"/>
      <psa30 value="0.0004572386" flag="0"/>
    </comp>
  </station>
  <station code="SULR" name="SULR" netid="RO" insttype="330" lat="44.6777" lon="26.2526">
    <comp name="--.HHE">
      <acc value="0.0480878589" flag="0"/>
      <vel value="0.0167592973" flag="0"/>
      <psa03 value="0.0838109139" flag="0"/>
      <psa10 value="0.0073571754" flag="0"/>
      <psa30 value="0.0009137937" flag="0"/>
    </comp>
    <comp name="--.HHZ">
      <acc value="0.1003186067" flag="0"/>
      <vel value="0.0172126171" flag="0"/>
      <psa03 value="0.0704261367" flag="0"/>
      <psa10 value="0.0040013760" flag="0"/>
      <psa30 value="0.0005628409" flag="0"/>
    </comp>
    <comp name="--.HHN">
      <acc value="0.0573985325" flag="0"/>
      <vel value="0.0209187571" flag="0"/>
      <psa03 value="0.0688220161" flag="0"/>
      <psa10 value="0.0104057143" flag="0"/>
      <psa30 value="0.0008322688" flag="0"/>
    </comp>
  </station>
  <station code="TESR" name="TESR" netid="RO" insttype="330" lat="46.5118" lon="26.6489">
    <comp name="--.HHN">
      <acc value="0.0154375707" flag="0"/>
      <vel value="0.0053341218" flag="0"/>
      <psa03 value="0.0355429592" flag="0"/>
      <psa10 value="0.0028174986" flag="0"/>
      <psa30 value="0.0003371026" flag="0"/>
    </comp>
    <comp name="--.HHE">
      <acc value="0.0192693745" flag="0"/>
      <vel value="0.0048230588" flag="0"/>
      <psa03 value="0.0207236529" flag="0"/>
      <psa10 value="0.0027233748" flag="0"/>
      <psa30 value="0.0003303855" flag="0"/>
    </comp>
    <comp name="--.HHZ">
      <acc value="0.0222879800" flag="0"/>
      <vel value="0.0028545131" flag="0"/>
      <psa03 value="0.0099450503" flag="0"/>
      <psa10 value="0.0015401108" flag="0"/>
      <psa30 value="0.0001037360" flag="0"/>
    </comp>
  </station>
  <station code="VOIR" name="VOIR" netid="RO" insttype="330" lat="45.4371" lon="25.0495">
    <comp name="--.HHN">
      <acc value="0.0098511517" flag="0"/>
      <vel value="0.0030000671" flag="0"/>
      <psa03 value="0.0136741500" flag="0"/>
      <psa10 value="0.0017363228" flag="0"/>
      <psa30 value="0.0001112862" flag="0"/>
    </comp>
    <comp name="--.HHZ">
      <acc value="0.0181793471" flag="0"/>
      <vel value="0.0036645957" flag="0"/>
      <psa03 value="0.0112729795" flag="0"/>
      <psa10 value="0.0014411046" flag="0"/>
      <psa30 value="0.0000940689" flag="0"/>
    </comp>
    <comp name="--.HHE">
      <acc value="0.0074847578" flag="0"/>
      <vel value="0.0026739279" flag="0"/>
      <psa03 value="0.0138701343" flag="0"/>
      <psa10 value="0.0025126131" flag="0"/>
      <psa30 value="0.0002197494" flag="0"/>
    </comp>
  </station>
  <station code="VRI" name="VRI" netid="RO" insttype="Linear" lat="45.8657" lon="26.7277">
    <comp name="--.HHE">
      <acc value="0.1327172372" flag="0"/>
      <vel value="0.0530921097" flag="0"/>
      <psa03 value="0.3905743705" flag="0"/>
      <psa10 value="0.0135204379" flag="0"/>
      <psa30 value="0.0014172444" flag="0"/>
    </comp>
    <comp name="--.HHZ">
      <acc value="0.0290234715" flag="0"/>
      <vel value="0.0096225356" flag="0"/>
      <psa03 value="0.0722824179" flag="0"/>
      <psa10 value="0.0032459438" flag="0"/>
      <psa30 value="0.0002725436" flag="0"/>
    </comp>
    <comp name="--.HHN">
      <acc value="0.0591594488" flag="0"/>
      <vel value="0.0230469760" flag="0"/>
      <psa03 value="0.2000075658" flag="0"/>
      <psa10 value="0.0081246841" flag="0"/>
      <psa30 value="0.0008238335" flag="0"/>
    </comp>
  </station>
</stationlist>
