<stationlist created="1631692359">
	<station code="BISRR" name="BISRR" netid="RO" source="Romanian Seismic Network (NIEP)" insttype="" lat="45.5481" lon="26.7099">
		<comp name="--.HNE" depth="0.0">
			<acc value="0.0762228372909" flag="0"/>
			<vel value="0.025257334754" flag="0"/>
			<psa03 value="0.220586362764" flag="0"/>
			<psa10 value="0.0155960372234" flag="0"/>
			<psa30 value="0.00081976466997" flag="0"/>
		</comp>
			<acc value="0.0761559279455" flag="0"/>
			<vel value="0.0252410321497" flag="0"/>
			<psa03 value="0.220586362764" flag="0"/>
			<psa10 value="0.0155960372234" flag="0"/>
			<psa30 value="0.00081976466997" flag="0"/>
		</comp>
			<acc value="0.0762228372909" flag="0"/>
			<vel value="0.025257334754" flag="0"/>
			<psa03 value="0.220581820796" flag="0"/>
			<psa10 value="0.0156518034176" flag="0"/>
			<psa30 value="0.000862421037412" flag="0"/>
		</comp>
			<acc value="0.0761559279455" flag="0"/>
			<vel value="0.0252410321497" flag="0"/>
			<psa03 value="0.220581820796" flag="0"/>
			<psa10 value="0.0156518034176" flag="0"/>
			<psa30 value="0.000862421037412" flag="0"/>
		</comp>
		<comp name="--.HNN" depth="0.0">
			<acc value="0.0568402111853" flag="0"/>
			<vel value="0.0196877064225" flag="0"/>
			<psa03 value="0.109346233235" flag="0"/>
			<psa10 value="0.012263873984" flag="0"/>
			<psa30 value="0.000769778389872" flag="0"/>
		</comp>
			<acc value="0.0568402111853" flag="0"/>
			<vel value="0.0196877064225" flag="0"/>
			<psa03 value="0.109336013808" flag="0"/>
			<psa10 value="0.0123146457848" flag="0"/>
			<psa30 value="0.000868822346881" flag="0"/>
		</comp>
			<acc value="0.056839518332" flag="0"/>
			<vel value="0.019749972019" flag="0"/>
			<psa03 value="0.109346233235" flag="0"/>
			<psa10 value="0.012263873984" flag="0"/>
			<psa30 value="0.000769778389872" flag="0"/>
		</comp>
			<acc value="0.056839518332" flag="0"/>
			<vel value="0.019749972019" flag="0"/>
			<psa03 value="0.109336013808" flag="0"/>
			<psa10 value="0.0123146457848" flag="0"/>
			<psa30 value="0.000868822346881" flag="0"/>
		</comp>
		<comp name="--.HNZ" depth="0.0">
			<acc value="0.0779067449706" flag="0"/>
			<vel value="0.016364493247" flag="0"/>
			<psa03 value="0.0798058596632" flag="0"/>
			<psa10 value="0.0102790362482" flag="0"/>
			<psa30 value="0.000475704690186" flag="0"/>
		</comp>
			<acc value="0.0779067449706" flag="0"/>
			<vel value="0.016364493247" flag="0"/>
			<psa03 value="0.0798189542807" flag="0"/>
			<psa10 value="0.0103031165934" flag="0"/>
			<psa30 value="0.000492702430783" flag="0"/>
		</comp>
			<acc value="0.0778191600067" flag="0"/>
			<vel value="0.0163534647539" flag="0"/>
			<psa03 value="0.0798058596632" flag="0"/>
			<psa10 value="0.0102790362482" flag="0"/>
			<psa30 value="0.000475704690186" flag="0"/>
		</comp>
			<acc value="0.0778191600067" flag="0"/>
			<vel value="0.0163534647539" flag="0"/>
			<psa03 value="0.0798189542807" flag="0"/>
			<psa10 value="0.0103031165934" flag="0"/>
			<psa30 value="0.000492702430783" flag="0"/>
		</comp>
	</station>
	<station code="GHRR" name="GHRR" netid="RO" source="Romanian Seismic Network (NIEP)" insttype="" lat="46.0605" lon="27.408">
		<comp name="--.HNE" depth="0.0">
			<acc value="0.374974398486" flag="0"/>
			<vel value="0.108078734857" flag="0"/>
			<psa03 value="0.561237095868" flag="0"/>
			<psa10 value="0.0252733986136" flag="0"/>
			<psa30 value="0.00279746344323" flag="0"/>
		</comp>
			<acc value="0.374974398486" flag="0"/>
			<vel value="0.108078734857" flag="0"/>
			<psa03 value="0.561185884144" flag="0"/>
			<psa10 value="0.0253896113121" flag="0"/>
			<psa30 value="0.0029457205562" flag="0"/>
		</comp>
			<acc value="0.374866085588" flag="0"/>
			<vel value="0.108311845004" flag="0"/>
			<psa03 value="0.561237095868" flag="0"/>
			<psa10 value="0.0252733986136" flag="0"/>
			<psa30 value="0.00279746344323" flag="0"/>
		</comp>
			<acc value="0.374866085588" flag="0"/>
			<vel value="0.108311845004" flag="0"/>
			<psa03 value="0.561185884144" flag="0"/>
			<psa10 value="0.0253896113121" flag="0"/>
			<psa30 value="0.0029457205562" flag="0"/>
		</comp>
		<comp name="--.HNN" depth="0.0">
			<acc value="0.347601319683" flag="0"/>
			<vel value="0.0967947089346" flag="0"/>
			<psa03 value="0.393773585567" flag="0"/>
			<psa10 value="0.0206401335576" flag="0"/>
			<psa30 value="0.00285156181864" flag="0"/>
		</comp>
			<acc value="0.347601319683" flag="0"/>
			<vel value="0.0967947089346" flag="0"/>
			<psa03 value="0.393803087522" flag="0"/>
			<psa10 value="0.02060643195" flag="0"/>
			<psa30 value="0.00293485525309" flag="0"/>
		</comp>
			<acc value="0.347483538801" flag="0"/>
			<vel value="0.0968891749984" flag="0"/>
			<psa03 value="0.393773585567" flag="0"/>
			<psa10 value="0.0206401335576" flag="0"/>
			<psa30 value="0.00285156181864" flag="0"/>
		</comp>
			<acc value="0.347483538801" flag="0"/>
			<vel value="0.0968891749984" flag="0"/>
			<psa03 value="0.393803087522" flag="0"/>
			<psa10 value="0.02060643195" flag="0"/>
			<psa30 value="0.00293485525309" flag="0"/>
		</comp>
		<comp name="--.HNZ" depth="0.0">
			<acc value="0.161156012684" flag="0"/>
			<vel value="0.044156304012" flag="0"/>
			<psa03 value="0.179702550245" flag="0"/>
			<psa10 value="0.00958721948122" flag="0"/>
			<psa30 value="0.000993511336085" flag="0"/>
		</comp>
			<acc value="0.161228552631" flag="0"/>
			<vel value="0.044303773266" flag="0"/>
			<psa03 value="0.179702550245" flag="0"/>
			<psa10 value="0.00958721948122" flag="0"/>
			<psa30 value="0.000993511336085" flag="0"/>
		</comp>
			<acc value="0.161228552631" flag="0"/>
			<vel value="0.044303773266" flag="0"/>
			<psa03 value="0.17972657267" flag="0"/>
			<psa10 value="0.00956194093166" flag="0"/>
			<psa30 value="0.00101034651383" flag="0"/>
		</comp>
			<acc value="0.161156012684" flag="0"/>
			<vel value="0.044156304012" flag="0"/>
			<psa03 value="0.17972657267" flag="0"/>
			<psa10 value="0.00956194093166" flag="0"/>
			<psa30 value="0.00101034651383" flag="0"/>
		</comp>
	</station>
	<station code="MLR" name="MLR" netid="RO" source="Romanian Seismic Network (NIEP)" insttype="" lat="45.4909" lon="25.945">
		<comp name="--.HNE" depth="0.0">
			<acc value="0.0261477329212" flag="0"/>
			<vel value="0.0115386682288" flag="0"/>
			<psa03 value="0.0466655913663" flag="0"/>
			<psa10 value="0.00568093633416" flag="0"/>
			<psa30 value="0.00034554111957" flag="0"/>
		</comp>
			<acc value="0.0261477329212" flag="0"/>
			<vel value="0.0115386682288" flag="0"/>
			<psa03 value="0.0466649142382" flag="0"/>
			<psa10 value="0.00568092180192" flag="0"/>
			<psa30 value="0.000345534634765" flag="0"/>
		</comp>
			<acc value="0.0261387418143" flag="0"/>
			<vel value="0.0115388249906" flag="0"/>
			<psa03 value="0.0466655913663" flag="0"/>
			<psa10 value="0.00568093633416" flag="0"/>
			<psa30 value="0.00034554111957" flag="0"/>
		</comp>
			<acc value="0.0261387418143" flag="0"/>
			<vel value="0.0115388249906" flag="0"/>
			<psa03 value="0.0466649142382" flag="0"/>
			<psa10 value="0.00568092180192" flag="0"/>
			<psa30 value="0.000345534634765" flag="0"/>
		</comp>
		<comp name="--.HNN" depth="0.0">
			<acc value="0.0185818053328" flag="0"/>
			<vel value="0.00757356140499" flag="0"/>
			<psa03 value="0.0451899779891" flag="0"/>
			<psa10 value="0.00434524269477" flag="0"/>
			<psa30 value="0.000602287606934" flag="0"/>
		</comp>
			<acc value="0.0185818053328" flag="0"/>
			<vel value="0.00757356140499" flag="0"/>
			<psa03 value="0.0451894258694" flag="0"/>
			<psa10 value="0.00434548177309" flag="0"/>
			<psa30 value="0.00060257231329" flag="0"/>
		</comp>
			<acc value="0.0185148382682" flag="0"/>
			<vel value="0.00757493089771" flag="0"/>
			<psa03 value="0.0451899779891" flag="0"/>
			<psa10 value="0.00434524269477" flag="0"/>
			<psa30 value="0.000602287606934" flag="0"/>
		</comp>
			<acc value="0.0185148382682" flag="0"/>
			<vel value="0.00757493089771" flag="0"/>
			<psa03 value="0.0451894258694" flag="0"/>
			<psa10 value="0.00434548177309" flag="0"/>
			<psa30 value="0.00060257231329" flag="0"/>
		</comp>
		<comp name="--.HNZ" depth="0.0">
			<acc value="0.0267495002069" flag="0"/>
			<vel value="0.0135488219556" flag="0"/>
			<psa03 value="0.0460520507222" flag="0"/>
			<psa10 value="0.00475234294439" flag="0"/>
			<psa30 value="0.000497909702823" flag="0"/>
		</comp>
			<acc value="0.0267495002069" flag="0"/>
			<vel value="0.0135488219556" flag="0"/>
			<psa03 value="0.0460499359988" flag="0"/>
			<psa10 value="0.00475214136853" flag="0"/>
			<psa30 value="0.000498595373246" flag="0"/>
		</comp>
			<acc value="0.026821579012" flag="0"/>
			<vel value="0.013538728466" flag="0"/>
			<psa03 value="0.0460520507222" flag="0"/>
			<psa10 value="0.00475234294439" flag="0"/>
			<psa30 value="0.000497909702823" flag="0"/>
		</comp>
			<acc value="0.026821579012" flag="0"/>
			<vel value="0.013538728466" flag="0"/>
			<psa03 value="0.0460499359988" flag="0"/>
			<psa10 value="0.00475214136853" flag="0"/>
			<psa30 value="0.000498595373246" flag="0"/>
		</comp>
	</station>
	<station code="PLOR" name="PLOR" netid="RO" source="Romanian Seismic Network (NIEP)" insttype="" lat="45.8512" lon="26.6498">
		<comp name="--.HNE" depth="0.0">
			<acc value="0.0495840289251" flag="0"/>
			<vel value="0.024536821874" flag="0"/>
			<psa03 value="0.141743702325" flag="0"/>
			<psa10 value="0.0112094063182" flag="0"/>
			<psa30 value="0.000689229408066" flag="0"/>
		</comp>
			<acc value="0.0495840289251" flag="0"/>
			<vel value="0.024536821874" flag="0"/>
			<psa03 value="0.141738889506" flag="0"/>
			<psa10 value="0.0112136891019" flag="0"/>
			<psa30 value="0.000687239067881" flag="0"/>
		</comp>
			<acc value="0.0495831215059" flag="0"/>
			<vel value="0.0245487108596" flag="0"/>
			<psa03 value="0.141743702325" flag="0"/>
			<psa10 value="0.0112094063182" flag="0"/>
			<psa30 value="0.000689229408066" flag="0"/>
		</comp>
			<acc value="0.0495831215059" flag="0"/>
			<vel value="0.0245487108596" flag="0"/>
			<psa03 value="0.141738889506" flag="0"/>
			<psa10 value="0.0112136891019" flag="0"/>
			<psa30 value="0.000687239067881" flag="0"/>
		</comp>
		<comp name="--.HNN" depth="0.0">
			<acc value="0.0545843161213" flag="0"/>
			<vel value="0.0209567750615" flag="0"/>
			<psa03 value="0.142386317812" flag="0"/>
			<psa10 value="0.00981422858197" flag="0"/>
			<psa30 value="0.000933667892581" flag="0"/>
		</comp>
			<acc value="0.0545843161213" flag="0"/>
			<vel value="0.0209567750615" flag="0"/>
			<psa03 value="0.142387765824" flag="0"/>
			<psa10 value="0.0098202477307" flag="0"/>
			<psa30 value="0.000962430631306" flag="0"/>
		</comp>
			<acc value="0.0545811487711" flag="0"/>
			<vel value="0.0209734888475" flag="0"/>
			<psa03 value="0.142386317812" flag="0"/>
			<psa10 value="0.00981422858197" flag="0"/>
			<psa30 value="0.000933667892581" flag="0"/>
		</comp>
			<acc value="0.0545811487711" flag="0"/>
			<vel value="0.0209734888475" flag="0"/>
			<psa03 value="0.142387765824" flag="0"/>
			<psa10 value="0.0098202477307" flag="0"/>
			<psa30 value="0.000962430631306" flag="0"/>
		</comp>
		<comp name="--.HNZ" depth="0.0">
			<acc value="0.0310369138239" flag="0"/>
			<vel value="0.0123242426981" flag="0"/>
			<psa03 value="0.0721204390836" flag="0"/>
			<psa10 value="0.00697621635886" flag="0"/>
			<psa30 value="0.000344066204156" flag="0"/>
		</comp>
			<acc value="0.0310369138239" flag="0"/>
			<vel value="0.0123242426981" flag="0"/>
			<psa03 value="0.0721204338747" flag="0"/>
			<psa10 value="0.00697336804515" flag="0"/>
			<psa30 value="0.000345381213144" flag="0"/>
		</comp>
			<acc value="0.0310350372024" flag="0"/>
			<vel value="0.0123251119375" flag="0"/>
			<psa03 value="0.0721204338747" flag="0"/>
			<psa10 value="0.00697336804515" flag="0"/>
			<psa30 value="0.000345381213144" flag="0"/>
		</comp>
			<acc value="0.0310350372024" flag="0"/>
			<vel value="0.0123251119375" flag="0"/>
			<psa03 value="0.0721204390836" flag="0"/>
			<psa10 value="0.00697621635886" flag="0"/>
			<psa30 value="0.000344066204156" flag="0"/>
		</comp>
	</station>
	<station code="PLOR4" name="PLOR4" netid="RO" source="Romanian Seismic Network (NIEP)" insttype="" lat="45.8512" lon="26.6498">
		<comp name="--.HNE" depth="0.0">
			<acc value="0.0495840289251" flag="0"/>
			<vel value="0.024536821874" flag="0"/>
			<psa03 value="0.141743702325" flag="0"/>
			<psa10 value="0.0112094063182" flag="0"/>
			<psa30 value="0.000689229408066" flag="0"/>
		</comp>
			<acc value="0.0495840289251" flag="0"/>
			<vel value="0.024536821874" flag="0"/>
			<psa03 value="0.141738889506" flag="0"/>
			<psa10 value="0.0112136891019" flag="0"/>
			<psa30 value="0.000687239067881" flag="0"/>
		</comp>
			<acc value="0.0495831215059" flag="0"/>
			<vel value="0.0245487108596" flag="0"/>
			<psa03 value="0.141738889506" flag="0"/>
			<psa10 value="0.0112136891019" flag="0"/>
			<psa30 value="0.000687239067881" flag="0"/>
		</comp>
			<acc value="0.0495831215059" flag="0"/>
			<vel value="0.0245487108596" flag="0"/>
			<psa03 value="0.141743702325" flag="0"/>
			<psa10 value="0.0112094063182" flag="0"/>
			<psa30 value="0.000689229408066" flag="0"/>
		</comp>
		<comp name="--.HNN" depth="0.0">
			<acc value="0.0545843161213" flag="0"/>
			<vel value="0.0209567750615" flag="0"/>
			<psa03 value="0.142387765824" flag="0"/>
			<psa10 value="0.0098202477307" flag="0"/>
			<psa30 value="0.000962430631306" flag="0"/>
		</comp>
			<acc value="0.0545811487711" flag="0"/>
			<vel value="0.0209734888475" flag="0"/>
			<psa03 value="0.142387765824" flag="0"/>
			<psa10 value="0.0098202477307" flag="0"/>
			<psa30 value="0.000962430631306" flag="0"/>
		</comp>
			<acc value="0.0545811487711" flag="0"/>
			<vel value="0.0209734888475" flag="0"/>
			<psa03 value="0.142386317812" flag="0"/>
			<psa10 value="0.00981422858197" flag="0"/>
			<psa30 value="0.000933667892581" flag="0"/>
		</comp>
			<acc value="0.0545843161213" flag="0"/>
			<vel value="0.0209567750615" flag="0"/>
			<psa03 value="0.142386317812" flag="0"/>
			<psa10 value="0.00981422858197" flag="0"/>
			<psa30 value="0.000933667892581" flag="0"/>
		</comp>
		<comp name="--.HNZ" depth="0.0">
			<acc value="0.0310350372024" flag="0"/>
			<vel value="0.0123251119375" flag="0"/>
			<psa03 value="0.0721204390836" flag="0"/>
			<psa10 value="0.00697621635886" flag="0"/>
			<psa30 value="0.000344066204156" flag="0"/>
		</comp>
			<acc value="0.0310369138239" flag="0"/>
			<vel value="0.0123242426981" flag="0"/>
			<psa03 value="0.0721204338747" flag="0"/>
			<psa10 value="0.00697336804515" flag="0"/>
			<psa30 value="0.000345381213144" flag="0"/>
		</comp>
			<acc value="0.0310369138239" flag="0"/>
			<vel value="0.0123242426981" flag="0"/>
			<psa03 value="0.0721204390836" flag="0"/>
			<psa10 value="0.00697621635886" flag="0"/>
			<psa30 value="0.000344066204156" flag="0"/>
		</comp>
			<acc value="0.0310350372024" flag="0"/>
			<vel value="0.0123251119375" flag="0"/>
			<psa03 value="0.0721204338747" flag="0"/>
			<psa10 value="0.00697336804515" flag="0"/>
			<psa30 value="0.000345381213144" flag="0"/>
		</comp>
	</station>
	<station code="TESR" name="TESR" netid="RO" source="Romanian Seismic Network (NIEP)" insttype="" lat="46.5118" lon="26.6489">
		<comp name="--.HNE" depth="0.0">
			<acc value="0.0178451950722" flag="0"/>
			<vel value="0.00490660515741" flag="0"/>
			<psa03 value="0.0203320109584" flag="0"/>
			<psa10 value="0.00270019668728" flag="0"/>
			<psa30 value="0.000306281122954" flag="0"/>
		</comp>
			<acc value="0.0178451950722" flag="0"/>
			<vel value="0.00490660515741" flag="0"/>
			<psa03 value="0.0203265887242" flag="0"/>
			<psa10 value="0.00273531776388" flag="0"/>
			<psa30 value="0.000324738231064" flag="0"/>
		</comp>
			<acc value="0.017859762877" flag="0"/>
			<vel value="0.00491778751813" flag="0"/>
			<psa03 value="0.0203320109584" flag="0"/>
			<psa10 value="0.00270019668728" flag="0"/>
			<psa30 value="0.000306281122954" flag="0"/>
		</comp>
			<acc value="0.017859762877" flag="0"/>
			<vel value="0.00491778751813" flag="0"/>
			<psa03 value="0.0203265887242" flag="0"/>
			<psa10 value="0.00273531776388" flag="0"/>
			<psa30 value="0.000324738231064" flag="0"/>
		</comp>
		<comp name="--.HNN" depth="0.0">
			<acc value="0.0147730727016" flag="0"/>
			<vel value="0.00493590912043" flag="0"/>
			<psa03 value="0.0353613867892" flag="0"/>
			<psa10 value="0.00283491451793" flag="0"/>
			<psa30 value="0.000307765830684" flag="0"/>
		</comp>
			<acc value="0.0147730727016" flag="0"/>
			<vel value="0.00493590912043" flag="0"/>
			<psa03 value="0.035353477411" flag="0"/>
			<psa10 value="0.00285050922287" flag="0"/>
			<psa30 value="0.000398032773968" flag="0"/>
		</comp>
			<acc value="0.0147551763008" flag="0"/>
			<vel value="0.00509625626286" flag="0"/>
			<psa03 value="0.0353613867892" flag="0"/>
			<psa10 value="0.00283491451793" flag="0"/>
			<psa30 value="0.000307765830684" flag="0"/>
		</comp>
			<acc value="0.0147551763008" flag="0"/>
			<vel value="0.00509625626286" flag="0"/>
			<psa03 value="0.035353477411" flag="0"/>
			<psa10 value="0.00285050922287" flag="0"/>
			<psa30 value="0.000398032773968" flag="0"/>
		</comp>
		<comp name="--.HNZ" depth="0.0">
			<acc value="0.0209773290467" flag="0"/>
			<vel value="0.00276887208158" flag="0"/>
			<psa03 value="0.00966094663093" flag="0"/>
			<psa10 value="0.00149472245553" flag="0"/>
			<psa30 value="0.000108357738064" flag="0"/>
		</comp>
			<acc value="0.0209773290467" flag="0"/>
			<vel value="0.00276887208158" flag="0"/>
			<psa03 value="0.00966092514514" flag="0"/>
			<psa10 value="0.00149861755731" flag="0"/>
			<psa30 value="0.000140247246421" flag="0"/>
		</comp>
			<acc value="0.0209595368954" flag="0"/>
			<vel value="0.0027584528275" flag="0"/>
			<psa03 value="0.00966094663093" flag="0"/>
			<psa10 value="0.00149472245553" flag="0"/>
			<psa30 value="0.000108357738064" flag="0"/>
		</comp>
			<acc value="0.0209595368954" flag="0"/>
			<vel value="0.0027584528275" flag="0"/>
			<psa03 value="0.00966092514514" flag="0"/>
			<psa10 value="0.00149861755731" flag="0"/>
			<psa30 value="0.000140247246421" flag="0"/>
		</comp>
	</station>
</stationlist>
