<stationlist created="1775820577">
	<station code="RUSAM" name="RUSAM" netid="BS" source="National Seismic Network of Bulgaria (BS)" insttype="" lat="43.8462" lon="25.9612">
		<comp name="--.HNE" depth="0.0">
			<acc value="0.00986286934083418" flag="0"/>
			<vel value="0.00400823992942852" flag="0"/>
			<psa03 value="0.0238285003962122" flag="0"/>
			<psa10 value="0.0036138697136328" flag="0"/>
			<psa30 value="0.000180203343837316" flag="0"/>
		</comp>
		<comp name="--.HNN" depth="0.0">
			<acc value="0.00675371132493453" flag="0"/>
			<vel value="0.00264694004180289" flag="0"/>
			<psa03 value="0.0195742940967467" flag="0"/>
			<psa10 value="0.00151343209338574" flag="0"/>
			<psa30 value="0.000706231732304593" flag="0"/>
		</comp>
		<comp name="--.HNZ" depth="0.0">
			<acc value="0.0156937065691731" flag="0"/>
			<vel value="0.00330602648112522" flag="0"/>
			<psa03 value="0.0215892426813915" flag="0"/>
			<psa10 value="0.00163878039709589" flag="0"/>
			<psa30 value="0.000139319645909547" flag="0"/>
		</comp>
	</station>
	<station code="SILAM" name="SILAM" netid="BS" source="National Seismic Network of Bulgaria (BS)" insttype="" lat="44.1046" lon="27.2665">
		<comp name="--.HNE" depth="0.0">
			<acc value="0.0354768006643666" flag="0"/>
			<vel value="0.0114951301967721" flag="0"/>
			<psa03 value="0.10890948555246" flag="0"/>
			<psa10 value="0.00424879146156397" flag="0"/>
			<psa30 value="0.000420520331366508" flag="0"/>
		</comp>
		<comp name="--.HNN" depth="0.0">
			<acc value="0.0445704449716923" flag="0"/>
			<vel value="0.0176465297510012" flag="0"/>
			<psa03 value="0.144620194961426" flag="0"/>
			<psa10 value="0.00537161021781212" flag="0"/>
			<psa30 value="0.000550083679927758" flag="0"/>
		</comp>
		<comp name="--.HNZ" depth="0.0">
			<acc value="0.0389436575770247" flag="0"/>
			<vel value="0.00708432039909969" flag="0"/>
			<psa03 value="0.021939211177547" flag="0"/>
			<psa10 value="0.00204252663548991" flag="0"/>
			<psa30 value="0.000154459776472797" flag="0"/>
		</comp>
	</station>
	<station code="BISRR" name="BISRR" netid="RO" source="Romanian Seismic Network (NIEP)" insttype="" lat="45.5481" lon="26.7099">
		<comp name="--.HNE" depth="0.0">
			<acc value="0.0789817246001908" flag="0"/>
			<vel value="0.0253273992714721" flag="0"/>
			<psa03 value="0.220586362764014" flag="0"/>
			<psa10 value="0.0155960372234232" flag="0"/>
			<psa30 value="0.000819764669970157" flag="0"/>
		</comp>
		<comp name="--.HNN" depth="0.0">
			<acc value="0.0571141681157115" flag="0"/>
			<vel value="0.0197226066154856" flag="0"/>
			<psa03 value="0.109346233234618" flag="0"/>
			<psa10 value="0.0122638739839709" flag="0"/>
			<psa30 value="0.000769778389871566" flag="0"/>
		</comp>
		<comp name="--.HNZ" depth="0.0">
			<acc value="0.0801176239835446" flag="0"/>
			<vel value="0.0164068299670483" flag="0"/>
			<psa03 value="0.0798058596632488" flag="0"/>
			<psa10 value="0.0102790362482044" flag="0"/>
			<psa30 value="0.000475704690186094" flag="0"/>
		</comp>
	</station>
	<station code="COPA" name="COPA" netid="RO" source="Romanian Seismic Network (NIEP)" insttype="" lat="44.1343" lon="25.2172">
		<comp name="--.HNE" depth="0.0">
			<acc value="0.0380497346202485" flag="0"/>
			<vel value="0.0131868148220373" flag="0"/>
			<psa03 value="0.0613368966015691" flag="0"/>
			<psa10 value="0.00721921792526666" flag="0"/>
			<psa30 value="0.000504927042687868" flag="0"/>
		</comp>
		<comp name="--.HNN" depth="0.0">
			<acc value="0.04059970500627" flag="0"/>
			<vel value="0.0138384553942396" flag="0"/>
			<psa03 value="0.0759659490378059" flag="0"/>
			<psa10 value="0.00491108299141578" flag="0"/>
			<psa30 value="0.000438431491851494" flag="0"/>
		</comp>
		<comp name="--.HNZ" depth="0.0">
			<acc value="0.0388103901940611" flag="0"/>
			<vel value="0.0114600968607935" flag="0"/>
			<psa03 value="0.0411700840868413" flag="0"/>
			<psa10 value="0.00213697804868388" flag="0"/>
			<psa30 value="0.000285604258421962" flag="0"/>
		</comp>
	</station>
	<station code="GHRR" name="GHRR" netid="RO" source="Romanian Seismic Network (NIEP)" insttype="" lat="46.0605" lon="27.408">
		<comp name="--.HNE" depth="0.0">
			<acc value="0.38017515168879" flag="0"/>
			<vel value="0.108485143516522" flag="0"/>
			<psa03 value="0.561237095868257" flag="0"/>
			<psa10 value="0.0252733986136252" flag="0"/>
			<psa30 value="0.00279746344322506" flag="0"/>
		</comp>
		<comp name="--.HNN" depth="0.0">
			<acc value="0.351791288232035" flag="0"/>
			<vel value="0.0975694531516212" flag="0"/>
			<psa03 value="0.393773585567423" flag="0"/>
			<psa10 value="0.0206401335575656" flag="0"/>
			<psa30 value="0.00285156181864097" flag="0"/>
		</comp>
		<comp name="--.HNZ" depth="0.0">
			<acc value="0.163999568554175" flag="0"/>
			<vel value="0.0447486355609543" flag="0"/>
			<psa03 value="0.17970255024519" flag="0"/>
			<psa10 value="0.00958721948121911" flag="0"/>
			<psa30 value="0.000993511336085006" flag="0"/>
		</comp>
	</station>
	<station code="HUMR" name="HUMR" netid="RO" source="Romanian Seismic Network (NIEP)" insttype="" lat="44.5281" lon="24.9804">
		<comp name="--.HNE" depth="0.0">
			<acc value="0.0574669494995663" flag="0"/>
			<vel value="0.0203078431335983" flag="0"/>
			<psa03 value="0.119311299621434" flag="0"/>
			<psa10 value="0.0109463751436287" flag="0"/>
			<psa30 value="0.000735565446351054" flag="0"/>
		</comp>
		<comp name="--.HNN" depth="0.0">
			<acc value="0.0617883798368412" flag="0"/>
			<vel value="0.0166546579747236" flag="0"/>
			<psa03 value="0.0923942352478424" flag="0"/>
			<psa10 value="0.0102158670635431" flag="0"/>
			<psa30 value="0.000614599360026747" flag="0"/>
		</comp>
		<comp name="--.HNZ" depth="0.0">
			<acc value="0.144015748638587" flag="0"/>
			<vel value="0.0371392413044236" flag="0"/>
			<psa03 value="0.096818674178479" flag="0"/>
			<psa10 value="0.00497634293955832" flag="0"/>
			<psa30 value="0.000573044315540005" flag="0"/>
		</comp>
	</station>
	<station code="LEHL" name="LEHL" netid="RO" source="Romanian Seismic Network (NIEP)" insttype="" lat="44.4739" lon="26.8194">
		<comp name="--.HNE" depth="0.0">
			<acc value="0.0867059856840946" flag="0"/>
			<vel value="0.0342702732555739" flag="0"/>
			<psa03 value="0.159171138056909" flag="0"/>
			<psa10 value="0.0243223768631183" flag="0"/>
			<psa30 value="0.00117918821959803" flag="0"/>
		</comp>
		<comp name="--.HNN" depth="0.0">
			<acc value="0.0972921045492392" flag="0"/>
			<vel value="0.0414101111516381" flag="0"/>
			<psa03 value="0.194004976877454" flag="0"/>
			<psa10 value="0.0202271224476058" flag="0"/>
			<psa30 value="0.00194754276515024" flag="0"/>
		</comp>
		<comp name="--.HNZ" depth="0.0">
			<acc value="0.0683538707828953" flag="0"/>
			<vel value="0.00984558270893587" flag="0"/>
			<psa03 value="0.0522027602602198" flag="0"/>
			<psa10 value="0.00389963325343785" flag="0"/>
			<psa30 value="0.000372202338869892" flag="0"/>
		</comp>
	</station>
	<station code="LEOM" name="LEOM" netid="RO" source="Romanian Seismic Network (NIEP)" insttype="" lat="46.4733" lon="28.2467">
		<comp name="--.HNE" depth="0.0">
			<acc value="0.525698080936425" flag="0"/>
			<vel value="0.121905857644484" flag="0"/>
			<psa03 value="0.516305911063934" flag="0"/>
			<psa10 value="0.0278011804417681" flag="0"/>
			<psa30 value="0.002822628860311" flag="0"/>
		</comp>
		<comp name="--.HNN" depth="0.0">
			<acc value="0.288723396406199" flag="0"/>
			<vel value="0.0505467502585606" flag="0"/>
			<psa03 value="0.202460349504421" flag="0"/>
			<psa10 value="0.0252723766709328" flag="0"/>
			<psa30 value="0.00141550991642032" flag="0"/>
		</comp>
		<comp name="--.HNZ" depth="0.0">
			<acc value="0.186171453673555" flag="0"/>
			<vel value="0.0274507590892805" flag="0"/>
			<psa03 value="0.163999770429876" flag="0"/>
			<psa10 value="0.00644138077237154" flag="0"/>
			<psa30 value="0.000714252367795936" flag="0"/>
		</comp>
	</station>
	<station code="LOT" name="LOT" netid="RO" source="Romanian Seismic Network (NIEP)" insttype="" lat="45.446" lon="23.7698">
		<comp name="--.HNE" depth="0.0">
			<acc value="0.00709579441094063" flag="0"/>
			<vel value="0.00174167209471487" flag="0"/>
			<psa03 value="0.0114836591735769" flag="0"/>
			<psa10 value="0.00101563536679459" flag="0"/>
			<psa30 value="0.000151777385235922" flag="0"/>
		</comp>
		<comp name="--.HNN" depth="0.0">
			<acc value="0.00512011266862276" flag="0"/>
			<vel value="0.00223726417594693" flag="0"/>
			<psa03 value="0.00663543891422791" flag="0"/>
			<psa10 value="0.00174364179677477" flag="0"/>
			<psa30 value="0.000202290236672924" flag="0"/>
		</comp>
		<comp name="--.HNZ" depth="0.0">
			<acc value="0.00744551939506182" flag="0"/>
			<vel value="0.0017797199371102" flag="0"/>
			<psa03 value="0.00344979265943642" flag="0"/>
			<psa10 value="0.000614885752694021" flag="0"/>
			<psa30 value="9.3479317546171e-05" flag="0"/>
		</comp>
	</station>
	<station code="MLR" name="MLR" netid="RO" source="Romanian Seismic Network (NIEP)" insttype="" lat="45.4909" lon="25.945">
		<comp name="--.HNE" depth="0.0">
			<acc value="0.0262139182845808" flag="0"/>
			<vel value="0.0115617167262152" flag="0"/>
			<psa03 value="0.0466649142382138" flag="0"/>
			<psa10 value="0.00568092180192378" flag="0"/>
			<psa30 value="0.000345534634765322" flag="0"/>
		</comp>
		<comp name="--.HNN" depth="0.0">
			<acc value="0.018676675658172" flag="0"/>
			<vel value="0.00758743634299031" flag="0"/>
			<psa03 value="0.0451894258693741" flag="0"/>
			<psa10 value="0.00434548177309391" flag="0"/>
			<psa30 value="0.000602572313289957" flag="0"/>
		</comp>
		<comp name="--.HNZ" depth="0.0">
			<acc value="0.0268747277831245" flag="0"/>
			<vel value="0.0136029592102196" flag="0"/>
			<psa03 value="0.04604993599881" flag="0"/>
			<psa10 value="0.00475214136852863" flag="0"/>
			<psa30 value="0.000498595373246415" flag="0"/>
		</comp>
	</station>
	<station code="OTISU" name="OTISU" netid="RO" source="Romanian Seismic Network (NIEP)" insttype="" lat="44.4278" lon="24.3755">
		<comp name="--.HNE" depth="0.0">
			<acc value="0.0327566661116629" flag="0"/>
			<vel value="0.0128709423696557" flag="0"/>
			<psa03 value="0.0472713971231708" flag="0"/>
			<psa10 value="0.00778691600122681" flag="0"/>
			<psa30 value="0.000501710840045484" flag="0"/>
		</comp>
		<comp name="--.HNN" depth="0.0">
			<acc value="0.0329356940390626" flag="0"/>
			<vel value="0.0127821051888773" flag="0"/>
			<psa03 value="0.0661046186896822" flag="0"/>
			<psa10 value="0.0113203358541864" flag="0"/>
			<psa30 value="0.00073008622921505" flag="0"/>
		</comp>
		<comp name="--.HNZ" depth="0.0">
			<acc value="0.0603916257419445" flag="0"/>
			<vel value="0.0135942762729672" flag="0"/>
			<psa03 value="0.0339219190356697" flag="0"/>
			<psa10 value="0.00302876368760391" flag="0"/>
			<psa30 value="0.000286515334401393" flag="0"/>
		</comp>
	</station>
	<station code="PLOR" name="PLOR" netid="RO" source="Romanian Seismic Network (NIEP)" insttype="" lat="45.8512" lon="26.6498">
		<comp name="--.HNE" depth="0.0">
			<acc value="0.0497192531172585" flag="0"/>
			<vel value="0.0246134311676533" flag="0"/>
			<psa03 value="0.141743702324524" flag="0"/>
			<psa10 value="0.01120940631817" flag="0"/>
			<psa30 value="0.000689229408065918" flag="0"/>
		</comp>
		<comp name="--.HNN" depth="0.0">
			<acc value="0.0548433967656741" flag="0"/>
			<vel value="0.0210083235784154" flag="0"/>
			<psa03 value="0.142386317811534" flag="0"/>
			<psa10 value="0.00981422858197412" flag="0"/>
			<psa30 value="0.000933667892580664" flag="0"/>
		</comp>
		<comp name="--.HNZ" depth="0.0">
			<acc value="0.0313411036753568" flag="0"/>
			<vel value="0.0123482465377083" flag="0"/>
			<psa03 value="0.0721204338747044" flag="0"/>
			<psa10 value="0.00697336804515066" flag="0"/>
			<psa30 value="0.000345381213143757" flag="0"/>
		</comp>
	</station>
	<station code="PLOR4" name="PLOR4" netid="RO" source="Romanian Seismic Network (NIEP)" insttype="" lat="45.8512" lon="26.6498">
		<comp name="--.HNE" depth="0.0">
			<acc value="0.0497192531172585" flag="0"/>
			<vel value="0.0246134311676533" flag="0"/>
			<psa03 value="0.141743702324524" flag="0"/>
			<psa10 value="0.01120940631817" flag="0"/>
			<psa30 value="0.000689229408065918" flag="0"/>
		</comp>
		<comp name="--.HNN" depth="0.0">
			<acc value="0.0548433967656741" flag="0"/>
			<vel value="0.0210083235784154" flag="0"/>
			<psa03 value="0.142386317811534" flag="0"/>
			<psa10 value="0.00981422858197412" flag="0"/>
			<psa30 value="0.000933667892580664" flag="0"/>
		</comp>
		<comp name="--.HNZ" depth="0.0">
			<acc value="0.0313411036753568" flag="0"/>
			<vel value="0.0123482465377083" flag="0"/>
			<psa03 value="0.0721204338747044" flag="0"/>
			<psa10 value="0.00697336804515066" flag="0"/>
			<psa30 value="0.000345381213143757" flag="0"/>
		</comp>
	</station>
	<station code="SULR" name="SULR" netid="RO" source="Romanian Seismic Network (NIEP)" insttype="" lat="44.6777" lon="26.2526">
		<comp name="--.HNE" depth="0.0">
			<acc value="0.106901595176175" flag="0"/>
			<vel value="0.0169827092344537" flag="0"/>
			<psa03 value="0.0782851078791147" flag="0"/>
			<psa10 value="0.00694142155385989" flag="0"/>
			<psa30 value="0.000864638215537319" flag="0"/>
		</comp>
		<comp name="--.HNN" depth="0.0">
			<acc value="0.0893660312063165" flag="0"/>
			<vel value="0.0240292442665964" flag="0"/>
			<psa03 value="0.0779133019989184" flag="0"/>
			<psa10 value="0.0102935581477107" flag="0"/>
			<psa30 value="0.000783034893050947" flag="0"/>
		</comp>
		<comp name="--.HNZ" depth="0.0">
			<acc value="0.0959387415186134" flag="0"/>
			<vel value="0.0181316883649271" flag="0"/>
			<psa03 value="0.0736576815430875" flag="0"/>
			<psa10 value="0.00423684176374013" flag="0"/>
			<psa30 value="0.000542765070105444" flag="0"/>
		</comp>
	</station>
	<station code="TESR" name="TESR" netid="RO" source="Romanian Seismic Network (NIEP)" insttype="" lat="46.5118" lon="26.6489">
		<comp name="--.HNE" depth="0.0">
			<acc value="0.0181516168226931" flag="0"/>
			<vel value="0.00494206677036929" flag="0"/>
			<psa03 value="0.0203320109584454" flag="0"/>
			<psa10 value="0.00270019668727715" flag="0"/>
			<psa30 value="0.000306281122954437" flag="0"/>
		</comp>
		<comp name="--.HNN" depth="0.0">
			<acc value="0.0149838462737395" flag="0"/>
			<vel value="0.00496915738193744" flag="0"/>
			<psa03 value="0.0353613867891579" flag="0"/>
			<psa10 value="0.00283491451792507" flag="0"/>
			<psa30 value="0.000307765830684031" flag="0"/>
		</comp>
		<comp name="--.HNZ" depth="0.0">
			<acc value="0.021623353767287" flag="0"/>
			<vel value="0.00285198267866048" flag="0"/>
			<psa03 value="0.00966094663092918" flag="0"/>
			<psa10 value="0.00149472245552762" flag="0"/>
			<psa30 value="0.000108357738064314" flag="0"/>
		</comp>
	</station>
	<station code="VOIR" name="VOIR" netid="RO" source="Romanian Seismic Network (NIEP)" insttype="" lat="45.4371" lon="25.0495">
		<comp name="--.HNE" depth="0.0">
			<acc value="0.00803737158908821" flag="0"/>
			<vel value="0.00295654205265152" flag="0"/>
			<psa03 value="0.0141366239819582" flag="0"/>
			<psa10 value="0.00175499426757152" flag="0"/>
			<psa30 value="0.000181552717080802" flag="0"/>
		</comp>
		<comp name="--.HNN" depth="0.0">
			<acc value="0.00753451862948924" flag="0"/>
			<vel value="0.00295907511549978" flag="0"/>
			<psa03 value="0.013698180874774" flag="0"/>
			<psa10 value="0.00258073885190896" flag="0"/>
			<psa30 value="0.000177763338448926" flag="0"/>
		</comp>
		<comp name="--.HNZ" depth="0.0">
			<acc value="0.0172364117155398" flag="0"/>
			<vel value="0.00358222545977767" flag="0"/>
			<psa03 value="0.0110862031565658" flag="0"/>
			<psa10 value="0.00142749397853085" flag="0"/>
			<psa30 value="7.27881942563323e-05" flag="0"/>
		</comp>
	</station>
</stationlist>
