<?xml version="1.0" encoding="UTF-8" standalone="yes"?>
<!DOCTYPE earthquake SYSTEM "stationlist.dtd">
<stationlist created="" xmlns="ch.ethz.sed.shakemap.usgs.xml">
  <station code="THERA" name="THERA" netid="HL" insttype="120" lat="36.367" lon="25.4753">
    <comp name="--.HHE">
      <acc value="0.0578018689" flag="0"/>
      <vel value="0.0132063032" flag="0"/>
      <psa03 value="0.0634374576" flag="0"/>
      <psa10 value="0.0043264177" flag="0"/>
      <psa30 value="0.0003609775" flag="0"/>
    </comp>
    <comp name="--.HHN">
      <acc value="0.0425740532" flag="0"/>
      <vel value="0.0104129502" flag="0"/>
      <psa03 value="0.0332959070" flag="0"/>
      <psa10 value="0.0023260036" flag="0"/>
      <psa30 value="0.0001824313" flag="0"/>
    </comp>
    <comp name="--.HHZ">
      <acc value="0.0423906663" flag="0"/>
      <vel value="0.0096849835" flag="0"/>
      <psa03 value="0.0377330923" flag="0"/>
      <psa10 value="0.0025069634" flag="0"/>
      <psa30 value="0.0002664228" flag="0"/>
    </comp>
  </station>
</stationlist>
