<?xml version="1.0" encoding="UTF-8" standalone="yes"?>
<!DOCTYPE earthquake SYSTEM "stationlist.dtd">
<stationlist created="" xmlns="ch.ethz.sed.shakemap.usgs.xml">
  <station code="APE" name="APE" netid="GE" insttype="STS-2/N" lat="37.0727" lon="25.523">
    <comp name="--.HHE">
      <acc value="0.2855569883" flag="0"/>
      <vel value="0.0692996926" flag="0"/>
      <psa03 value="0.1923034834" flag="0"/>
      <psa10 value="0.0160612275" flag="0"/>
      <psa30 value="0.0014805639" flag="0"/>
    </comp>
    <comp name="--.HHN">
      <acc value="0.2516562878" flag="0"/>
      <vel value="0.0527435500" flag="0"/>
      <psa03 value="0.2035407225" flag="0"/>
      <psa10 value="0.0146722144" flag="0"/>
      <psa30 value="0.0010773168" flag="0"/>
    </comp>
    <comp name="--.HHZ">
      <acc value="0.0742915629" flag="0"/>
      <vel value="0.0208984834" flag="0"/>
      <psa03 value="0.1030800993" flag="0"/>
      <psa10 value="0.0093906795" flag="0"/>
      <psa30 value="0.0006812702" flag="0"/>
    </comp>
  </station>
  <station code="APE" name="APE" netid="HL" insttype="120" lat="37.0727" lon="25.523">
    <comp name="--.HHN">
      <acc value="0.2324172416" flag="0"/>
      <vel value="0.0508000001" flag="0"/>
      <psa03 value="0.1967925682" flag="0"/>
      <psa10 value="0.0143651679" flag="0"/>
      <psa30 value="0.0010587244" flag="0"/>
    </comp>
    <comp name="--.HHE">
      <acc value="0.2756697963" flag="0"/>
      <vel value="0.0662926363" flag="0"/>
      <psa03 value="0.1856327980" flag="0"/>
      <psa10 value="0.0156789771" flag="0"/>
      <psa30 value="0.0014355282" flag="0"/>
    </comp>
    <comp name="--.HHZ">
      <acc value="0.0721251236" flag="0"/>
      <vel value="0.0201315753" flag="0"/>
      <psa03 value="0.1004252182" flag="0"/>
      <psa10 value="0.0092459704" flag="0"/>
      <psa30 value="0.0006701187" flag="0"/>
    </comp>
  </station>
  <station code="MHLO" name="MHLO" netid="HL" insttype="20" lat="36.6898" lon="24.4017">
    <comp name="--.HHE">
      <acc value="0.0544611837" flag="0"/>
      <vel value="0.0314156534" flag="0"/>
      <psa03 value="0.1974312926" flag="0"/>
      <psa10 value="0.0209060570" flag="0"/>
      <psa30 value="0.0013850274" flag="0"/>
    </comp>
    <comp name="--.HHN">
      <acc value="0.0491844837" flag="0"/>
      <vel value="0.0270772306" flag="0"/>
      <psa03 value="0.1640760624" flag="0"/>
      <psa10 value="0.0196145127" flag="0"/>
      <psa30 value="0.0011264865" flag="0"/>
    </comp>
    <comp name="--.HHZ">
      <acc value="0.0312771781" flag="0"/>
      <vel value="0.0160720945" flag="0"/>
      <psa03 value="0.1270361152" flag="0"/>
      <psa10 value="0.0128985688" flag="0"/>
      <psa30 value="0.0007832676" flag="0"/>
    </comp>
  </station>
  <station code="NISR" name="NISR" netid="HL" insttype="65535" lat="36.6106" lon="27.131">
    <comp name="--.HHE">
      <acc value="0.0000000000" flag="0"/>
      <vel value="-100.0000000000" flag="0"/>
      <psa03 value="0.0000000000" flag="0"/>
      <psa10 value="0.0000000000" flag="0"/>
      <psa30 value="0.0000000000" flag="0"/>
    </comp>
    <comp name="--.HHZ">
      <acc value="0.0143450905" flag="0"/>
      <vel value="0.0070262324" flag="0"/>
      <psa03 value="0.0360157923" flag="0"/>
      <psa10 value="0.0064826455" flag="0"/>
      <psa30 value="0.0002841288" flag="0"/>
    </comp>
    <comp name="--.HHN">
      <acc value="0.0243885557" flag="0"/>
      <vel value="0.0097721539" flag="0"/>
      <psa03 value="0.0755727132" flag="0"/>
      <psa10 value="0.0064972063" flag="0"/>
      <psa30 value="0.0009180123" flag="0"/>
    </comp>
  </station>
</stationlist>
