<?xml version="1.0" encoding="UTF-8" standalone="yes"?>
<!DOCTYPE earthquake SYSTEM "stationlist.dtd">
<stationlist created="" xmlns="ch.ethz.sed.shakemap.usgs.xml">
  <station code="DARE" name="DARE" netid="KO" insttype="CMG-3ESP" lat="38.5712" lon="37.4832">
    <comp name="--.HHN">
      <acc value="0.0295203306" flag="0"/>
      <vel value="0.0098779103" flag="0"/>
      <psa03 value="0.0516697872" flag="0"/>
      <psa10 value="0.0037733381" flag="0"/>
      <psa30 value="0.0002204226" flag="0"/>
    </comp>
    <comp name="--.HHZ">
      <acc value="0.0225730819" flag="0"/>
      <vel value="0.0070638489" flag="0"/>
      <psa03 value="0.0284644567" flag="0"/>
      <psa10 value="0.0023444410" flag="0"/>
      <psa30 value="0.0001660859" flag="0"/>
    </comp>
    <comp name="--.HHE">
      <acc value="0.0198044906" flag="0"/>
      <vel value="0.0079559542" flag="0"/>
      <psa03 value="0.0354201663" flag="0"/>
      <psa10 value="0.0031275134" flag="0"/>
      <psa30 value="0.0001743292" flag="0"/>
    </comp>
  </station>
  <station code="GAZ" name="GAZ" netid="KO" insttype="CMG-3T" lat="37.1721" lon="37.2096">
    <comp name="--.HHE">
      <acc value="0.0112984779" flag="0"/>
      <vel value="0.0048936435" flag="0"/>
      <psa03 value="0.0305647367" flag="0"/>
      <psa10 value="0.0024467419" flag="0"/>
      <psa30 value="0.0002346201" flag="0"/>
    </comp>
    <comp name="--.HHN">
      <acc value="0.0062775730" flag="0"/>
      <vel value="0.0024269181" flag="0"/>
      <psa03 value="0.0200835025" flag="0"/>
      <psa10 value="0.0033885935" flag="0"/>
      <psa30 value="0.0001973684" flag="0"/>
    </comp>
    <comp name="--.HHZ">
      <acc value="0.0076304125" flag="0"/>
      <vel value="0.0026381230" flag="0"/>
      <psa03 value="0.0112134864" flag="0"/>
      <psa10 value="0.0017781393" flag="0"/>
      <psa30 value="0.0001250407" flag="0"/>
    </comp>
  </station>
  <station code="KHMN" name="KHMN" netid="KO" insttype="CMG-5T" lat="37.3916" lon="37.1574">
    <comp name="--.HNE">
      <acc value="0.0274303342" flag="0"/>
      <vel value="0.0110834448" flag="0"/>
      <psa03 value="0.0761082575" flag="0"/>
      <psa10 value="0.0064982009" flag="0"/>
      <psa30 value="0.0004325920" flag="0"/>
    </comp>
    <comp name="--.HNN">
      <acc value="0.0275613905" flag="0"/>
      <vel value="0.0072676157" flag="0"/>
      <psa03 value="0.0465929255" flag="0"/>
      <psa10 value="0.0031077445" flag="0"/>
      <psa30 value="0.0003072294" flag="0"/>
    </comp>
    <comp name="--.HNZ">
      <acc value="0.0411821093" flag="0"/>
      <vel value="0.0091934231" flag="0"/>
      <psa03 value="0.0347860714" flag="0"/>
      <psa10 value="0.0026294959" flag="0"/>
      <psa30 value="0.0001762443" flag="0"/>
    </comp>
  </station>
  <station code="KMRS" name="KMRS" netid="KO" insttype="CMG-3T" lat="37.5053" lon="36.9">
    <comp name="--.HHE">
      <acc value="0.0130174300" flag="0"/>
      <vel value="0.0037444703" flag="0"/>
      <psa03 value="0.0296045721" flag="0"/>
      <psa10 value="0.0031932774" flag="0"/>
      <psa30 value="0.0003526184" flag="0"/>
    </comp>
    <comp name="--.HHN">
      <acc value="0.0140402519" flag="0"/>
      <vel value="0.0081743719" flag="0"/>
      <psa03 value="0.0257016305" flag="0"/>
      <psa10 value="0.0085325725" flag="0"/>
      <psa30 value="0.0005562427" flag="0"/>
    </comp>
    <comp name="--.HHZ">
      <acc value="0.0169267146" flag="0"/>
      <vel value="0.0072402972" flag="0"/>
      <psa03 value="0.0309810023" flag="0"/>
      <psa10 value="0.0022368746" flag="0"/>
      <psa30 value="0.0002821244" flag="0"/>
    </comp>
  </station>
  <station code="SARI" name="SARI" netid="KO" insttype="CMG-3T" lat="38.4072" lon="36.4181">
    <comp name="--.HHN">
      <acc value="0.1135221939" flag="0"/>
      <vel value="0.0266847785" flag="0"/>
      <psa03 value="0.1548757824" flag="0"/>
      <psa10 value="0.0095629430" flag="0"/>
      <psa30 value="0.0006041292" flag="0"/>
    </comp>
    <comp name="--.HHE">
      <acc value="0.1232141394" flag="0"/>
      <vel value="0.0224936575" flag="0"/>
      <psa03 value="0.1083810178" flag="0"/>
      <psa10 value="0.0088609841" flag="0"/>
      <psa30 value="0.0006489277" flag="0"/>
    </comp>
    <comp name="--.HHZ">
      <acc value="0.0844528094" flag="0"/>
      <vel value="0.0194917914" flag="0"/>
      <psa03 value="0.0972478763" flag="0"/>
      <psa10 value="0.0081300760" flag="0"/>
      <psa30 value="0.0006088755" flag="0"/>
    </comp>
  </station>
  <station code="ANDN" name="ANDN" netid="TU" insttype="T" lat="37.58" lon="36.3452">
    <comp name="--.HHN">
      <acc value="0.0403393858" flag="0"/>
      <vel value="0.0165479587" flag="0"/>
      <psa03 value="0.1112586154" flag="0"/>
      <psa10 value="0.0151324706" flag="0"/>
      <psa30 value="0.0006653142" flag="0"/>
    </comp>
    <comp name="--.HHZ">
      <acc value="0.0251016821" flag="0"/>
      <vel value="0.0165896985" flag="0"/>
      <psa03 value="0.0657056004" flag="0"/>
      <psa10 value="0.0100596952" flag="0"/>
      <psa30 value="0.0007063330" flag="0"/>
    </comp>
    <comp name="--.HHE">
      <acc value="0.0372787724" flag="0"/>
      <vel value="0.0161403013" flag="0"/>
      <psa03 value="0.0874851227" flag="0"/>
      <psa10 value="0.0161135823" flag="0"/>
      <psa30 value="0.0007745346" flag="0"/>
    </comp>
  </station>
</stationlist>
