<?xml version="1.0" encoding="UTF-8" standalone="yes"?>
<!DOCTYPE earthquake SYSTEM "stationlist.dtd">
<stationlist created="" xmlns="ch.ethz.sed.shakemap.usgs.xml">
  <station code="APE" name="APE" netid="GE" insttype="STS-2/N" lat="37.0727" lon="25.523">
    <comp name="--.HHE">
      <acc value="0.0447860135" flag="0"/>
      <vel value="0.0122755511" flag="0"/>
      <psa03 value="0.0560725498" flag="0"/>
      <psa10 value="0.0057973253" flag="0"/>
      <psa30 value="0.0018373843" flag="0"/>
    </comp>
    <comp name="--.HHZ">
      <acc value="0.0172967006" flag="0"/>
      <vel value="0.0088478138" flag="0"/>
      <psa03 value="0.0446100173" flag="0"/>
      <psa10 value="0.0091149099" flag="0"/>
      <psa30 value="0.0020995685" flag="0"/>
    </comp>
    <comp name="--.HHN">
      <acc value="0.0393162695" flag="0"/>
      <vel value="0.0110508207" flag="0"/>
      <psa03 value="0.0434114492" flag="0"/>
      <psa10 value="0.0109161659" flag="0"/>
      <psa30 value="0.0028101055" flag="0"/>
    </comp>
  </station>
  <station code="KRL1" name="KRL1" netid="HI" insttype="CMG-5TD,ACCELEROMETER,GURALP" lat="37.7951" lon="26.7065">
    <comp name="--.HNE">
      <acc value="1.2484636506" flag="0"/>
      <vel value="0.3368436137" flag="0"/>
      <psa03 value="1.3300432961" flag="0"/>
      <psa10 value="0.4943718421" flag="0"/>
      <psa30 value="0.0290738790" flag="0"/>
    </comp>
    <comp name="--.HNN">
      <acc value="0.7044773037" flag="0"/>
      <vel value="0.3924743575" flag="0"/>
      <psa03 value="1.0326727947" flag="0"/>
      <psa10 value="0.4716498735" flag="0"/>
      <psa30 value="0.0207540286" flag="0"/>
    </comp>
    <comp name="--.HNZ">
      <acc value="0.3968030627" flag="0"/>
      <vel value="0.2247269264" flag="0"/>
      <psa03 value="0.5794066175" flag="0"/>
      <psa10 value="0.2744463758" flag="0"/>
      <psa30 value="0.0261178433" flag="0"/>
    </comp>
  </station>
  <station code="APE" name="APE" netid="HL" insttype="120" lat="37.0727" lon="25.523">
    <comp name="--.HHN">
      <acc value="0.0368886760" flag="0"/>
      <vel value="0.0107804729" flag="0"/>
      <psa03 value="0.0421992313" flag="0"/>
      <psa10 value="0.0108511729" flag="0"/>
      <psa30 value="0.0028030479" flag="0"/>
    </comp>
    <comp name="--.HHZ">
      <acc value="0.0160946311" flag="0"/>
      <vel value="0.0086736553" flag="0"/>
      <psa03 value="0.0433229753" flag="0"/>
      <psa10 value="0.0090620556" flag="0"/>
      <psa30 value="0.0020961234" flag="0"/>
    </comp>
    <comp name="--.HHE">
      <acc value="0.0418120431" flag="0"/>
      <vel value="0.0117886038" flag="0"/>
      <psa03 value="0.0542420429" flag="0"/>
      <psa10 value="0.0057584691" flag="0"/>
      <psa30 value="0.0018350331" flag="0"/>
    </comp>
  </station>
  <station code="KLNA" name="KLNA" netid="HL" insttype="CMG-5" lat="36.9571" lon="26.9727">
    <comp name="00.HNN">
      <acc value="0.5068772662" flag="0"/>
      <vel value="0.2343843572" flag="0"/>
      <psa03 value="1.8858395354" flag="0"/>
      <psa10 value="0.0927229667" flag="0"/>
      <psa30 value="0.0072354989" flag="0"/>
    </comp>
    <comp name="00.HNE">
      <acc value="0.4777826013" flag="0"/>
      <vel value="0.1754755208" flag="0"/>
      <psa03 value="1.4120664026" flag="0"/>
      <psa10 value="0.0749160883" flag="0"/>
      <psa30 value="0.0061958411" flag="0"/>
    </comp>
    <comp name="00.HNZ">
      <acc value="0.4020109578" flag="0"/>
      <vel value="0.1138525368" flag="0"/>
      <psa03 value="0.7282976965" flag="0"/>
      <psa10 value="0.0616433707" flag="0"/>
      <psa30 value="0.0044497870" flag="0"/>
    </comp>
  </station>
  <station code="NISR" name="NISR" netid="HL" insttype="65535" lat="36.6106" lon="27.131">
    <comp name="--.HHE">
      <acc value="0.0615366205" flag="0"/>
      <vel value="0.0325410152" flag="0"/>
      <psa03 value="0.1623638482" flag="0"/>
      <psa10 value="0.0218509373" flag="0"/>
      <psa30 value="0.0049638712" flag="0"/>
    </comp>
    <comp name="--.HHN">
      <acc value="0.0248304692" flag="0"/>
      <vel value="0.0173289602" flag="0"/>
      <psa03 value="0.1090588589" flag="0"/>
      <psa10 value="0.0122904230" flag="0"/>
      <psa30 value="0.0067294201" flag="0"/>
    </comp>
    <comp name="--.HHZ">
      <acc value="0.0221082486" flag="0"/>
      <vel value="0.0122630086" flag="0"/>
      <psa03 value="0.0514309198" flag="0"/>
      <psa10 value="0.0121927881" flag="0"/>
      <psa30 value="0.0018952232" flag="0"/>
    </comp>
  </station>
  <station code="NISR2" name="NISR2" netid="HL" insttype="120" lat="36.5744" lon="27.1767">
    <comp name="--.HHE">
      <acc value="0.0651545124" flag="0"/>
      <vel value="0.0502681301" flag="0"/>
      <psa03 value="0.2197918512" flag="0"/>
      <psa10 value="0.0720437477" flag="0"/>
      <psa30 value="0.0058208188" flag="0"/>
    </comp>
    <comp name="--.HHN">
      <acc value="0.0632538116" flag="0"/>
      <vel value="0.0366489476" flag="0"/>
      <psa03 value="0.3141096928" flag="0"/>
      <psa10 value="0.0469283381" flag="0"/>
      <psa30 value="0.0084180822" flag="0"/>
    </comp>
    <comp name="--.HHZ">
      <acc value="0.0284058777" flag="0"/>
      <vel value="0.0186028613" flag="0"/>
      <psa03 value="0.1136169636" flag="0"/>
      <psa10 value="0.0153575895" flag="0"/>
      <psa30 value="0.0040364657" flag="0"/>
    </comp>
  </station>
  <station code="SMG" name="SMG" netid="HL" insttype="0" lat="37.7043" lon="26.8377">
    <comp name="00.HNE">
      <acc value="4.4145420156" flag="0"/>
      <vel value="1.5555558981" flag="0"/>
      <psa03 value="7.8557650046" flag="0"/>
      <psa10 value="0.5852570318" flag="0"/>
      <psa30 value="0.0398276880" flag="0"/>
    </comp>
    <comp name="00.HNZ">
      <acc value="2.3197719081" flag="0"/>
      <vel value="0.9929851404" flag="0"/>
      <psa03 value="4.5211805617" flag="0"/>
      <psa10 value="0.3975470403" flag="0"/>
      <psa30 value="0.0340137568" flag="0"/>
    </comp>
    <comp name="00.HNN">
      <acc value="7.8210004724" flag="0"/>
      <vel value="2.3804046462" flag="0"/>
      <psa03 value="8.2639399665" flag="0"/>
      <psa10 value="0.5972338825" flag="0"/>
      <psa30 value="0.0752501542" flag="0"/>
    </comp>
  </station>
  <station code="CHOS" name="CHOS" netid="HT" insttype="100" lat="38.3869" lon="26.0506">
    <comp name="--.HHN">
      <acc value="0.0311668059" flag="0"/>
      <vel value="0.0240858853" flag="0"/>
      <psa03 value="0.1044515404" flag="0"/>
      <psa10 value="0.0350615083" flag="0"/>
      <psa30 value="0.0040185374" flag="0"/>
    </comp>
    <comp name="--.HHZ">
      <acc value="0.0178244654" flag="0"/>
      <vel value="0.0153485674" flag="0"/>
      <psa03 value="0.0356946393" flag="0"/>
      <psa10 value="0.0253856456" flag="0"/>
      <psa30 value="0.0032455425" flag="0"/>
    </comp>
    <comp name="--.HHE">
      <acc value="0.0514310998" flag="0"/>
      <vel value="0.0239053344" flag="0"/>
      <psa03 value="0.1394915117" flag="0"/>
      <psa10 value="0.0267225144" flag="0"/>
      <psa30 value="0.0027441516" flag="0"/>
    </comp>
  </station>
  <station code="AYDB" name="AYDB" netid="KO" insttype="30s," lat="37.9467" lon="27.8908">
    <comp name="--.HHE">
      <acc value="0.0898731486" flag="0"/>
      <vel value="0.0372701048" flag="0"/>
      <psa03 value="0.1457688516" flag="0"/>
      <psa10 value="0.0386383396" flag="0"/>
      <psa30 value="0.0031498807" flag="0"/>
    </comp>
    <comp name="--.HHN">
      <acc value="0.0803638723" flag="0"/>
      <vel value="0.0260164484" flag="0"/>
      <psa03 value="0.0863111632" flag="0"/>
      <psa10 value="0.0439987534" flag="0"/>
      <psa30 value="0.0039860257" flag="0"/>
    </comp>
    <comp name="--.HHZ">
      <acc value="0.0530236109" flag="0"/>
      <vel value="0.0163271618" flag="0"/>
      <psa03 value="0.0868051006" flag="0"/>
      <psa10 value="0.0266748610" flag="0"/>
      <psa30 value="0.0021087497" flag="0"/>
    </comp>
  </station>
  <station code="DIDI" name="DIDI" netid="KO" insttype="CMG-5T" lat="37.3767" lon="27.2398">
    <comp name="--.HNE">
      <acc value="1.4113598380" flag="0"/>
      <vel value="0.3770157108" flag="0"/>
      <psa03 value="1.2028657217" flag="0"/>
      <psa10 value="0.1934413886" flag="0"/>
      <psa30 value="0.0311972952" flag="0"/>
    </comp>
    <comp name="--.HNZ">
      <acc value="1.4769986096" flag="0"/>
      <vel value="0.3677407914" flag="0"/>
      <psa03 value="1.2605738695" flag="0"/>
      <psa10 value="0.0981402041" flag="0"/>
      <psa30 value="0.0106379083" flag="0"/>
    </comp>
    <comp name="--.HNN">
      <acc value="1.2776636664" flag="0"/>
      <vel value="0.3201193954" flag="0"/>
      <psa03 value="2.1840827197" flag="0"/>
      <psa10 value="0.2187944980" flag="0"/>
      <psa30 value="0.0237576563" flag="0"/>
    </comp>
  </station>
  <station code="GMLD" name="GMLD" netid="KO" insttype="CMG-5T" lat="38.0766" lon="26.9157">
    <comp name="--.HNE">
      <acc value="0.2750202579" flag="0"/>
      <vel value="0.1436256760" flag="0"/>
      <psa03 value="0.7512075307" flag="0"/>
      <psa10 value="0.0810370206" flag="0"/>
      <psa30 value="0.0073369512" flag="0"/>
    </comp>
    <comp name="--.HNN">
      <acc value="0.2957552354" flag="0"/>
      <vel value="0.1024406804" flag="0"/>
      <psa03 value="0.5433785277" flag="0"/>
      <psa10 value="0.1670536018" flag="0"/>
      <psa30 value="0.0086981830" flag="0"/>
    </comp>
    <comp name="--.HNZ">
      <acc value="0.2127113406" flag="0"/>
      <vel value="0.0554518433" flag="0"/>
      <psa03 value="0.3319135979" flag="0"/>
      <psa10 value="0.0289994811" flag="0"/>
      <psa30 value="0.0045841999" flag="0"/>
    </comp>
  </station>
  <station code="KUSD" name="KUSD" netid="KO" insttype="CMG-5T" lat="37.8606" lon="27.2868">
    <comp name="--.HNZ">
      <acc value="0.1185676706" flag="0"/>
      <vel value="0.0458863968" flag="0"/>
      <psa03 value="0.2408241364" flag="0"/>
      <psa10 value="0.0697979599" flag="0"/>
      <psa30 value="0.0034219513" flag="0"/>
    </comp>
    <comp name="--.HNE">
      <acc value="0.1529362763" flag="0"/>
      <vel value="0.0872806457" flag="0"/>
      <psa03 value="0.5896087360" flag="0"/>
      <psa10 value="0.1114545348" flag="0"/>
      <psa30 value="0.0073876996" flag="0"/>
    </comp>
    <comp name="--.HNN">
      <acc value="0.1776238010" flag="0"/>
      <vel value="0.1170285920" flag="0"/>
      <psa03 value="0.4052476869" flag="0"/>
      <psa10 value="0.1692573407" flag="0"/>
      <psa30 value="0.0089252564" flag="0"/>
    </comp>
  </station>
  <station code="YKAV" name="YKAV" netid="KO" insttype="CMG-5T" lat="37.1246" lon="27.2801">
    <comp name="--.HNE">
      <acc value="0.2079562134" flag="0"/>
      <vel value="0.0887057379" flag="0"/>
      <psa03 value="0.5844094705" flag="0"/>
      <psa10 value="0.0653075788" flag="0"/>
      <psa30 value="0.0066311752" flag="0"/>
    </comp>
    <comp name="--.HNZ">
      <acc value="0.1486919470" flag="0"/>
      <vel value="0.0499564988" flag="0"/>
      <psa03 value="0.2227733287" flag="0"/>
      <psa10 value="0.0246692119" flag="0"/>
      <psa30 value="0.0026448875" flag="0"/>
    </comp>
    <comp name="--.HNN">
      <acc value="0.1358486840" flag="0"/>
      <vel value="0.0578897992" flag="0"/>
      <psa03 value="0.2853940159" flag="0"/>
      <psa10 value="0.0926265757" flag="0"/>
      <psa30 value="0.0040984742" flag="0"/>
    </comp>
  </station>
  <station code="AYDN" name="AYDN" netid="TU" insttype="T" lat="37.6608" lon="27.8792">
    <comp name="--.HHE">
      <acc value="0.1927649269" flag="0"/>
      <vel value="0.0767903421" flag="0"/>
      <psa03 value="0.3526079590" flag="0"/>
      <psa10 value="0.0877557481" flag="0"/>
      <psa30 value="0.0061973170" flag="0"/>
    </comp>
    <comp name="--.HHN">
      <acc value="0.1968147458" flag="0"/>
      <vel value="0.0778224124" flag="0"/>
      <psa03 value="0.2628781251" flag="0"/>
      <psa10 value="0.0748255213" flag="0"/>
      <psa30 value="0.0059668503" flag="0"/>
    </comp>
    <comp name="--.HHZ">
      <acc value="0.1007231867" flag="0"/>
      <vel value="0.0420202995" flag="0"/>
      <psa03 value="0.1390059021" flag="0"/>
      <psa10 value="0.0569554993" flag="0"/>
      <psa30 value="0.0053794527" flag="0"/>
    </comp>
  </station>
</stationlist>
