<stationlist created="1662035415">
	<station code="KRL1" name="KRL1" netid="HI" source="ITSAK Strong Motion Network" insttype="" lat="37.7951" lon="26.7065">
		<comp name=".HNE" depth="0.0">
			<acc value="1.23712008459" flag="0"/>
			<vel value="0.330562136297" flag="0"/>
			<psa03 value="1.34363084228" flag="0"/>
			<psa10 value="0.49480099814" flag="0"/>
			<psa30 value="0.0299806560713" flag="0"/>
		</comp>
		<comp name=".HNN" depth="0.0">
			<acc value="0.690001584667" flag="0"/>
			<vel value="0.39822464489" flag="0"/>
			<psa03 value="1.03185702213" flag="0"/>
			<psa10 value="0.47135504496" flag="0"/>
			<psa30 value="0.0215082781512" flag="0"/>
		</comp>
		<comp name=".HNZ" depth="0.0">
			<acc value="0.389537850276" flag="0"/>
			<vel value="0.231628577692" flag="0"/>
			<psa03 value="0.579875538908" flag="0"/>
			<psa10 value="0.274822585648" flag="0"/>
			<psa30 value="0.0275842389871" flag="0"/>
		</comp>
	</station>
	<station code="MYT1" name="MYT1" netid="HI" source="ITSAK Strong Motion Network" insttype="" lat="39.085" lon="26.5694">
		<comp name=".HNE" depth="0.0">
			<acc value="0.0159861334458" flag="0"/>
			<vel value="0.0170009802032" flag="0"/>
			<psa03 value="0.0336410827233" flag="0"/>
			<psa10 value="0.0376146917887" flag="0"/>
			<psa30 value="0.00310383811404" flag="0"/>
		</comp>
		<comp name=".HNN" depth="0.0">
			<acc value="0.0127927914298" flag="0"/>
			<vel value="0.0167445385594" flag="0"/>
			<psa03 value="0.031820706924" flag="0"/>
			<psa10 value="0.0326383896331" flag="0"/>
			<psa30 value="0.00547219500605" flag="0"/>
		</comp>
		<comp name=".HNZ" depth="0.0">
			<acc value="0.00960312029845" flag="0"/>
			<vel value="0.0135666418392" flag="0"/>
			<psa03 value="0.0218604429387" flag="0"/>
			<psa10 value="0.0205294018471" flag="0"/>
			<psa30 value="0.00338884595274" flag="0"/>
		</comp>
	</station>
	<station code="NAX1" name="NAX1" netid="HI" source="ITSAK Strong Motion Network" insttype="" lat="37.101394" lon="25.374103">
		<comp name=".HNE" depth="0.0">
			<acc value="0.0206395429998" flag="0"/>
			<vel value="0.0077381587118" flag="0"/>
			<psa03 value="0.037432456279" flag="0"/>
			<psa10 value="0.00596075408944" flag="0"/>
			<psa30 value="0.00141481643298" flag="0"/>
		</comp>
		<comp name=".HNN" depth="0.0">
			<acc value="0.030921617921" flag="0"/>
			<vel value="0.0163613423846" flag="0"/>
			<psa03 value="0.0588457263657" flag="0"/>
			<psa10 value="0.00919761179663" flag="0"/>
			<psa30 value="0.00288407001382" flag="0"/>
		</comp>
		<comp name=".HNZ" depth="0.0">
			<acc value="0.023392297892" flag="0"/>
			<vel value="0.00825416641216" flag="0"/>
			<psa03 value="0.0382823224743" flag="0"/>
			<psa10 value="0.00561407596749" flag="0"/>
			<psa30 value="0.000970382303899" flag="0"/>
		</comp>
	</station>
	<station code="KLNA" name="KLNA" netid="HL" source="National Observatory of Athens Seismic Network" insttype="" lat="36.95708" lon="26.97274">
		<comp name="00.HNE" depth="0.0">
			<acc value="0.478940369091" flag="0"/>
			<vel value="0.173527667151" flag="0"/>
			<psa03 value="1.41753923835" flag="0"/>
			<psa10 value="0.0748432279965" flag="0"/>
			<psa30 value="0.00665357868361" flag="0"/>
		</comp>
		<comp name="00.HNN" depth="0.0">
			<acc value="0.506915052557" flag="0"/>
			<vel value="0.235509915457" flag="0"/>
			<psa03 value="1.89307907386" flag="0"/>
			<psa10 value="0.0929192379434" flag="0"/>
			<psa30 value="0.00734079295815" flag="0"/>
		</comp>
		<comp name="00.HNZ" depth="0.0">
			<acc value="0.400649793585" flag="0"/>
			<vel value="0.112110227946" flag="0"/>
			<psa03 value="0.72886520041" flag="0"/>
			<psa10 value="0.0614952387577" flag="0"/>
			<psa30 value="0.00478311769139" flag="0"/>
		</comp>
	</station>
	<station code="NISR" name="NISR" netid="HL" source="National Observatory of Athens Seismic Network" insttype="" lat="36.6106" lon="27.131">
		<comp name=".HNE" depth="0.0">
			<acc value="0.0556650997764" flag="0"/>
			<vel value="0.029710004166" flag="0"/>
			<psa03 value="0.157034444428" flag="0"/>
			<psa10 value="0.0209468082482" flag="0"/>
			<psa30 value="0.00660596302931" flag="0"/>
		</comp>
		<comp name=".HNN" depth="0.0">
			<acc value="0.0263144624191" flag="0"/>
			<vel value="0.0218038105164" flag="0"/>
			<psa03 value="0.0987040803277" flag="0"/>
			<psa10 value="0.0122267446493" flag="0"/>
			<psa30 value="0.00827657328236" flag="0"/>
		</comp>
		<comp name=".HNZ" depth="0.0">
			<acc value="0.0206371579322" flag="0"/>
			<vel value="0.0137141278995" flag="0"/>
			<psa03 value="0.0489102973588" flag="0"/>
			<psa10 value="0.0123689512573" flag="0"/>
			<psa30 value="0.0026763200014" flag="0"/>
		</comp>
	</station>
	<station code="PRK" name="PRK" netid="HL" source="National Observatory of Athens Seismic Network" insttype="" lat="39.24565" lon="26.26499">
		<comp name=".HNE" depth="0.0">
			<acc value="0.0203982844533" flag="0"/>
			<vel value="0.0335211219885" flag="0"/>
			<psa03 value="0.0305530422182" flag="0"/>
			<psa10 value="0.0544395888555" flag="0"/>
			<psa30 value="0.00400702877932" flag="0"/>
		</comp>
		<comp name=".HNN" depth="0.0">
			<acc value="0.0164458370218" flag="0"/>
			<vel value="0.0239893096618" flag="0"/>
			<psa03 value="0.0479238101338" flag="0"/>
			<psa10 value="0.05266171233" flag="0"/>
			<psa30 value="0.00277066875154" flag="0"/>
		</comp>
		<comp name=".HNZ" depth="0.0">
			<acc value="0.00783490812568" flag="0"/>
			<vel value="0.00962583110538" flag="0"/>
			<psa03 value="0.0149527040849" flag="0"/>
			<psa10 value="0.0137442236124" flag="0"/>
			<psa30 value="0.00152514978369" flag="0"/>
		</comp>
	</station>
	<station code="RODB" name="RODB" netid="HL" source="National Observatory of Athens Seismic Network" insttype="" lat="36.4471" lon="28.22116">
		<comp name="00.HNE" depth="0.0">
			<acc value="0.0152089377052" flag="0"/>
			<vel value="0.0168278995922" flag="0"/>
			<psa03 value="0.032448136509" flag="0"/>
			<psa10 value="0.0250910540342" flag="0"/>
			<psa30 value="0.00762516429638" flag="0"/>
		</comp>
		<comp name="00.HNN" depth="0.0">
			<acc value="0.015784825685" flag="0"/>
			<vel value="0.0173289881274" flag="0"/>
			<psa03 value="0.0366737575815" flag="0"/>
			<psa10 value="0.0312554273937" flag="0"/>
			<psa30 value="0.00849010992809" flag="0"/>
		</comp>
		<comp name="00.HNZ" depth="0.0">
			<acc value="0.0176491242322" flag="0"/>
			<vel value="0.00826402184197" flag="0"/>
			<psa03 value="0.0210391567617" flag="0"/>
			<psa10 value="0.0174623286686" flag="0"/>
			<psa30 value="0.002682628961" flag="0"/>
		</comp>
	</station>
	<station code="SMG" name="SMG" netid="HL" source="National Observatory of Athens Seismic Network" insttype="" lat="37.70425" lon="26.83772">
		<comp name="00.HNE" depth="0.0">
			<acc value="4.43396935868" flag="0"/>
			<vel value="1.55605794957" flag="0"/>
			<psa03 value="7.8464937917" flag="0"/>
			<psa10 value="0.585640595816" flag="0"/>
			<psa30 value="0.0400612738628" flag="0"/>
		</comp>
		<comp name="00.HNN" depth="0.0">
			<acc value="7.85321743608" flag="0"/>
			<vel value="2.38042897965" flag="0"/>
			<psa03 value="8.28491083467" flag="0"/>
			<psa10 value="0.599972485234" flag="0"/>
			<psa30 value="0.0739964952378" flag="0"/>
		</comp>
		<comp name="00.HNZ" depth="0.0">
			<acc value="2.30474303373" flag="0"/>
			<vel value="0.983656927186" flag="0"/>
			<psa03 value="4.52285861721" flag="0"/>
			<psa10 value="0.399138460964" flag="0"/>
			<psa30 value="0.0333897552408" flag="0"/>
		</comp>
	</station>
	<station code="THRA" name="THRA" netid="HL" source="National Observatory of Athens Seismic Network" insttype="" lat="36.41502" lon="25.43244">
		<comp name="00.HNE" depth="0.0">
			<acc value="0.0411308359316" flag="0"/>
			<vel value="0.0375261568124" flag="0"/>
			<psa03 value="0.125657449189" flag="0"/>
			<psa10 value="0.0349805922926" flag="0"/>
			<psa30 value="0.00766104083968" flag="0"/>
		</comp>
		<comp name="00.HNN" depth="0.0">
			<acc value="0.0363600522033" flag="0"/>
			<vel value="0.033735392146" flag="0"/>
			<psa03 value="0.0785052266275" flag="0"/>
			<psa10 value="0.0568982217281" flag="0"/>
			<psa30 value="0.00565452375112" flag="0"/>
		</comp>
		<comp name="00.HNZ" depth="0.0">
			<acc value="0.0278858555163" flag="0"/>
			<vel value="0.0238756010971" flag="0"/>
			<psa03 value="0.0913301960106" flag="0"/>
			<psa10 value="0.021295645107" flag="0"/>
			<psa30 value="0.0026037139416" flag="0"/>
		</comp>
	</station>
	<station code="TNSA" name="TNSA" netid="HL" source="National Observatory of Athens Seismic Network" insttype="" lat="37.53942" lon="25.1631">
		<comp name="00.HNE" depth="0.0">
			<acc value="0.0145011050556" flag="0"/>
			<vel value="0.00586855126241" flag="0"/>
			<psa03 value="0.0392630436923" flag="0"/>
			<psa10 value="0.00719097246038" flag="0"/>
			<psa30 value="0.000730032996521" flag="0"/>
		</comp>
		<comp name="00.HNN" depth="0.0">
			<acc value="0.033107803" flag="0"/>
			<vel value="0.010084921183" flag="0"/>
			<psa03 value="0.0718981587336" flag="0"/>
			<psa10 value="0.00324773694351" flag="0"/>
			<psa30 value="0.000859785341975" flag="0"/>
		</comp>
		<comp name="00.HNZ" depth="0.0">
			<acc value="0.0141954448749" flag="0"/>
			<vel value="0.00575393020216" flag="0"/>
			<psa03 value="0.0365308783248" flag="0"/>
			<psa10 value="0.00602897251483" flag="0"/>
			<psa30 value="0.000793262028882" flag="0"/>
		</comp>
	</station>
	<station code="AKS" name="AKS" netid="KO" source="Bogazici University Kandilli Observatory And Earthquake Research Institute (KOERI)" insttype="" lat="38.8785" lon="27.8129">
		<comp name=".HNE" depth="0.0">
			<acc value="0.0208956358997" flag="0"/>
			<vel value="0.0137075087967" flag="0"/>
			<psa03 value="0.0524524643015" flag="0"/>
			<psa10 value="0.0247399276488" flag="0"/>
			<psa30 value="0.00173029358179" flag="0"/>
		</comp>
		<comp name=".HNN" depth="0.0">
			<acc value="0.0284738680012" flag="0"/>
			<vel value="0.0210552121373" flag="0"/>
			<psa03 value="0.0668921291918" flag="0"/>
			<psa10 value="0.0186407523583" flag="0"/>
			<psa30 value="0.00417049502483" flag="0"/>
		</comp>
		<comp name=".HNZ" depth="0.0">
			<acc value="0.00976612514833" flag="0"/>
			<vel value="0.00817571648085" flag="0"/>
			<psa03 value="0.0224537895367" flag="0"/>
			<psa10 value="0.0102843934781" flag="0"/>
			<psa30 value="0.00183110901032" flag="0"/>
		</comp>
	</station>
	<station code="FOCM" name="FOCM" netid="KO" source="Bogazici University Kandilli Observatory And Earthquake Research Institute (KOERI)" insttype="" lat="38.7131" lon="26.7309">
		<comp name=".HNE" depth="0.0">
			<acc value="0.0247044788007" flag="0"/>
			<vel value="0.0129310516715" flag="0"/>
			<psa03 value="0.0699485295802" flag="0"/>
			<psa10 value="0.0139184160892" flag="0"/>
			<psa30 value="0.00194730129082" flag="0"/>
		</comp>
		<comp name=".HNN" depth="0.0">
			<acc value="0.0251471923387" flag="0"/>
			<vel value="0.0157242275922" flag="0"/>
			<psa03 value="0.0498081172515" flag="0"/>
			<psa10 value="0.0213830934" flag="0"/>
			<psa30 value="0.00299895033241" flag="0"/>
		</comp>
		<comp name=".HNZ" depth="0.0">
			<acc value="0.0187459102759" flag="0"/>
			<vel value="0.00788041489725" flag="0"/>
			<psa03 value="0.0503592787635" flag="0"/>
			<psa10 value="0.0163274378626" flag="0"/>
			<psa30 value="0.00194523427889" flag="0"/>
		</comp>
	</station>
	<station code="GMLD" name="GMLD" netid="KO" source="Bogazici University Kandilli Observatory And Earthquake Research Institute (KOERI)" insttype="" lat="38.0766" lon="26.9157">
		<comp name=".HNE" depth="0.0">
			<acc value="0.275161328756" flag="0"/>
			<vel value="0.144101928578" flag="0"/>
			<psa03 value="0.756962478382" flag="0"/>
			<psa10 value="0.0811034802076" flag="0"/>
			<psa30 value="0.0070280780757" flag="0"/>
		</comp>
		<comp name=".HNN" depth="0.0">
			<acc value="0.290236686348" flag="0"/>
			<vel value="0.10293190451" flag="0"/>
			<psa03 value="0.535283209886" flag="0"/>
			<psa10 value="0.166808665255" flag="0"/>
			<psa30 value="0.00802039047819" flag="0"/>
		</comp>
		<comp name=".HNZ" depth="0.0">
			<acc value="0.210641154205" flag="0"/>
			<vel value="0.0566512353348" flag="0"/>
			<psa03 value="0.331987450873" flag="0"/>
			<psa10 value="0.0289332435604" flag="0"/>
			<psa30 value="0.00422964102629" flag="0"/>
		</comp>
	</station>
	<station code="GOMA" name="GOMA" netid="KO" source="Bogazici University Kandilli Observatory And Earthquake Research Institute (KOERI)" insttype="" lat="38.7077" lon="27.9175">
		<comp name=".HNE" depth="0.0">
			<acc value="0.0401745817164" flag="0"/>
			<vel value="0.0205109034997" flag="0"/>
			<psa03 value="0.0890199283836" flag="0"/>
			<psa10 value="0.0215004724258" flag="0"/>
			<psa30 value="0.00206321230269" flag="0"/>
		</comp>
		<comp name=".HNN" depth="0.0">
			<acc value="0.0254006874586" flag="0"/>
			<vel value="0.0139631223339" flag="0"/>
			<psa03 value="0.0752218945399" flag="0"/>
			<psa10 value="0.0181074857821" flag="0"/>
			<psa30 value="0.00205396106484" flag="0"/>
		</comp>
		<comp name=".HNZ" depth="0.0">
			<acc value="0.0209988842374" flag="0"/>
			<vel value="0.0143542314397" flag="0"/>
			<psa03 value="0.0800485632409" flag="0"/>
			<psa10 value="0.0100552842382" flag="0"/>
			<psa30 value="0.00191626861006" flag="0"/>
		</comp>
	</station>
	<station code="GORD" name="GORD" netid="KO" source="Bogazici University Kandilli Observatory And Earthquake Research Institute (KOERI)" insttype="" lat="38.9088" lon="28.1769">
		<comp name=".HNE" depth="0.0">
			<acc value="0.00954541454148" flag="0"/>
			<vel value="0.0159044502127" flag="0"/>
			<psa03 value="0.0228108913179" flag="0"/>
			<psa10 value="0.0236541069685" flag="0"/>
			<psa30 value="0.00308562419913" flag="0"/>
		</comp>
		<comp name=".HNN" depth="0.0">
			<acc value="0.00855916498475" flag="0"/>
			<vel value="0.0145247912509" flag="0"/>
			<psa03 value="0.0236960150572" flag="0"/>
			<psa10 value="0.0134960452968" flag="0"/>
			<psa30 value="0.00288798423145" flag="0"/>
		</comp>
		<comp name=".HNZ" depth="0.0">
			<acc value="0.0109037483579" flag="0"/>
			<vel value="0.011193255491" flag="0"/>
			<psa03 value="0.0186083407842" flag="0"/>
			<psa10 value="0.0163514075755" flag="0"/>
			<psa30 value="0.00171000077916" flag="0"/>
		</comp>
	</station>
	<station code="KRBN" name="KRBN" netid="KO" source="Bogazici University Kandilli Observatory And Earthquake Research Institute (KOERI)" insttype="" lat="38.5936" lon="26.5537">
		<comp name=".HNE" depth="0.0">
			<acc value="0.0454725626051" flag="0"/>
			<vel value="0.0362485703347" flag="0"/>
			<psa03 value="0.0995929725457" flag="0"/>
			<psa10 value="0.0538938677044" flag="0"/>
			<psa30 value="0.00658036883381" flag="0"/>
		</comp>
		<comp name=".HNN" depth="0.0">
			<acc value="0.0551995702453" flag="0"/>
			<vel value="0.0378824878309" flag="0"/>
			<psa03 value="0.111422777045" flag="0"/>
			<psa10 value="0.0659548616859" flag="0"/>
			<psa30 value="0.00768518160558" flag="0"/>
		</comp>
		<comp name=".HNZ" depth="0.0">
			<acc value="0.0246496692322" flag="0"/>
			<vel value="0.0310125172189" flag="0"/>
			<psa03 value="0.0527116377208" flag="0"/>
			<psa10 value="0.0549542842015" flag="0"/>
			<psa30 value="0.00430837457534" flag="0"/>
		</comp>
	</station>
	<station code="KUSD" name="KUSD" netid="KO" source="Bogazici University Kandilli Observatory And Earthquake Research Institute (KOERI)" insttype="" lat="37.8606" lon="27.2868">
		<comp name=".HNE" depth="0.0">
			<acc value="0.152387215961" flag="0"/>
			<vel value="0.0883356012425" flag="0"/>
			<psa03 value="0.591995716812" flag="0"/>
			<psa10 value="0.111932607486" flag="0"/>
			<psa30 value="0.00891521892282" flag="0"/>
		</comp>
		<comp name=".HNN" depth="0.0">
			<acc value="0.168222309436" flag="0"/>
			<vel value="0.116766874172" flag="0"/>
			<psa03 value="0.405666373406" flag="0"/>
			<psa10 value="0.169409627556" flag="0"/>
			<psa30 value="0.00895546242208" flag="0"/>
		</comp>
		<comp name=".HNZ" depth="0.0">
			<acc value="0.109175628078" flag="0"/>
			<vel value="0.0440735501971" flag="0"/>
			<psa03 value="0.239453945982" flag="0"/>
			<psa10 value="0.0698061568154" flag="0"/>
			<psa30 value="0.00370207691109" flag="0"/>
		</comp>
	</station>
	<station code="NAZL" name="NAZL" netid="KO" source="Bogazici University Kandilli Observatory And Earthquake Research Institute (KOERI)" insttype="" lat="37.9641" lon="28.2922">
		<comp name=".HNE" depth="0.0">
			<acc value="0.0506779673856" flag="0"/>
			<vel value="0.0278122139462" flag="0"/>
			<psa03 value="0.164115621855" flag="0"/>
			<psa10 value="0.0406158280992" flag="0"/>
			<psa30 value="0.00311582890837" flag="0"/>
		</comp>
		<comp name=".HNN" depth="0.0">
			<acc value="0.0397160958986" flag="0"/>
			<vel value="0.0226272937143" flag="0"/>
			<psa03 value="0.0946738654288" flag="0"/>
			<psa10 value="0.0332634735419" flag="0"/>
			<psa30 value="0.00486410930671" flag="0"/>
		</comp>
		<comp name=".HNZ" depth="0.0">
			<acc value="0.0228202023572" flag="0"/>
			<vel value="0.0111685518555" flag="0"/>
			<psa03 value="0.0546781742439" flag="0"/>
			<psa10 value="0.0110337681205" flag="0"/>
			<psa30 value="0.00167899226667" flag="0"/>
		</comp>
	</station>
	<station code="ODEM" name="ODEM" netid="KO" source="Bogazici University Kandilli Observatory And Earthquake Research Institute (KOERI)" insttype="" lat="38.2762" lon="28.0747">
		<comp name=".HNE" depth="0.0">
			<acc value="0.0171039753898" flag="0"/>
			<vel value="0.0103254216669" flag="0"/>
			<psa03 value="0.0379534699603" flag="0"/>
			<psa10 value="0.0178652441097" flag="0"/>
			<psa30 value="0.00136774112697" flag="0"/>
		</comp>
		<comp name=".HNN" depth="0.0">
			<acc value="0.0164528182082" flag="0"/>
			<vel value="0.0115482274423" flag="0"/>
			<psa03 value="0.0456602383084" flag="0"/>
			<psa10 value="0.0138952058017" flag="0"/>
			<psa30 value="0.00156132488845" flag="0"/>
		</comp>
		<comp name=".HNZ" depth="0.0">
			<acc value="0.0153671999781" flag="0"/>
			<vel value="0.00993632455916" flag="0"/>
			<psa03 value="0.0243754090221" flag="0"/>
			<psa10 value="0.0173000854207" flag="0"/>
			<psa30 value="0.00125903382148" flag="0"/>
		</comp>
	</station>
	<station code="SOMA" name="SOMA" netid="KO" source="Bogazici University Kandilli Observatory And Earthquake Research Institute (KOERI)" insttype="" lat="39.1564" lon="27.5341">
		<comp name=".HNE" depth="0.0">
			<acc value="0.0188885701974" flag="0"/>
			<vel value="0.0102598843071" flag="0"/>
			<psa03 value="0.0578087826732" flag="0"/>
			<psa10 value="0.0131064985537" flag="0"/>
			<psa30 value="0.00234789116127" flag="0"/>
		</comp>
		<comp name=".HNN" depth="0.0">
			<acc value="0.0170908290259" flag="0"/>
			<vel value="0.0113102309696" flag="0"/>
			<psa03 value="0.0374585673838" flag="0"/>
			<psa10 value="0.0188907607952" flag="0"/>
			<psa30 value="0.00387534380584" flag="0"/>
		</comp>
		<comp name=".HNZ" depth="0.0">
			<acc value="0.010685832184" flag="0"/>
			<vel value="0.00914428905419" flag="0"/>
			<psa03 value="0.0332903641774" flag="0"/>
			<psa10 value="0.00940941176486" flag="0"/>
			<psa30 value="0.00390164346473" flag="0"/>
		</comp>
	</station>
	<station code="YKAV" name="YKAV" netid="KO" source="Bogazici University Kandilli Observatory And Earthquake Research Institute (KOERI)" insttype="" lat="37.1246" lon="27.2801">
		<comp name=".HNE" depth="0.0">
			<acc value="0.206785162717" flag="0"/>
			<vel value="0.088601536121" flag="0"/>
			<psa03 value="0.588278428892" flag="0"/>
			<psa10 value="0.065283312199" flag="0"/>
			<psa30 value="0.00670813354759" flag="0"/>
		</comp>
		<comp name=".HNN" depth="0.0">
			<acc value="0.136035433922" flag="0"/>
			<vel value="0.0571395777956" flag="0"/>
			<psa03 value="0.290662275783" flag="0"/>
			<psa10 value="0.092633551518" flag="0"/>
			<psa30 value="0.00453144101905" flag="0"/>
		</comp>
