<stationlist xmlns:esm="https://esm-db.eu/esmws/shakemap/1/" created="1782266076">
	<station code="AGR3" name="AGR3" netid="HI" source="ITSAK Strong Motion Network" insttype="" lat="38.5893" lon="21.4162" esm:processing="manual (Paolucci et al 2011)" esm:quality="good">
		<comp name="--.HNE" depth="0.0">
			<acc value="0.0214183814323873" flag="0"/>
			<vel value="0.0396923260560248" flag="0"/>
			<psa03 value="0.0553129037917479" flag="0"/>
			<psa10 value="0.0433247788039688" flag="0"/>
			<psa30 value="0.0175367000536462" flag="0"/>
		</comp>
		<comp name="--.HNN" depth="0.0">
			<acc value="0.0212276155842889" flag="0"/>
			<vel value="0.036110387109664" flag="0"/>
			<psa03 value="0.047838773250614" flag="0"/>
			<psa10 value="0.0580244813371192" flag="0"/>
			<psa30 value="0.00973314143951925" flag="0"/>
		</comp>
		<comp name="--.HNZ" depth="0.0">
			<acc value="0.0121281782366515" flag="0"/>
			<vel value="0.022364228415027" flag="0"/>
			<psa03 value="0.0280782923407331" flag="0"/>
			<psa10 value="0.0293417187448652" flag="0"/>
			<psa30 value="0.00710419311792849" flag="0"/>
		</comp>
	</station>
	<station code="AIG2" name="AIG2" netid="HI" source="ITSAK Strong Motion Network" insttype="" lat="38.2417" lon="22.0726" esm:processing="manual (Paolucci et al 2011)" esm:quality="good">
		<comp name="--.HNE" depth="0.0">
			<acc value="0.0275751240185005" flag="0"/>
			<vel value="0.0304722981802038" flag="0"/>
			<psa03 value="0.0565763885330778" flag="0"/>
			<psa10 value="0.0368291234986838" flag="0"/>
			<psa30 value="0.00697913525012517" flag="0"/>
		</comp>
		<comp name="--.HNN" depth="0.0">
			<acc value="0.0198085441408405" flag="0"/>
			<vel value="0.0234494676305667" flag="0"/>
			<psa03 value="0.0801523513665773" flag="0"/>
			<psa10 value="0.0176429837610869" flag="0"/>
			<psa30 value="0.00878897639321865" flag="0"/>
		</comp>
		<comp name="--.HNZ" depth="0.0">
			<acc value="0.0109783884069085" flag="0"/>
			<vel value="0.0117196572747772" flag="0"/>
			<psa03 value="0.0284696333693223" flag="0"/>
			<psa10 value="0.0214509935230449" flag="0"/>
			<psa30 value="0.00574295169236467" flag="0"/>
		</comp>
	</station>
	<station code="AKR1" name="AKR1" netid="HI" source="ITSAK Strong Motion Network" insttype="" lat="38.153583" lon="22.31326" esm:processing="manual (Paolucci et al 2011)" esm:quality="good">
		<comp name="--.HNE" depth="0.0">
			<acc value="0.0600496431069471" flag="0"/>
			<vel value="0.0505637617267724" flag="0"/>
			<psa03 value="0.216637371996027" flag="0"/>
			<psa10 value="0.0761166473543261" flag="0"/>
			<psa30 value="0.00852539893250545" flag="0"/>
		</comp>
		<comp name="--.HNN" depth="0.0">
			<acc value="0.0603215102146391" flag="0"/>
			<vel value="0.0488588011728377" flag="0"/>
			<psa03 value="0.230712679416066" flag="0"/>
			<psa10 value="0.0495382316647267" flag="0"/>
			<psa30 value="0.0103950669555028" flag="0"/>
		</comp>
		<comp name="--.HNZ" depth="0.0">
			<acc value="0.0242466911083691" flag="0"/>
			<vel value="0.0277548044313632" flag="0"/>
			<psa03 value="0.0836031372558736" flag="0"/>
			<psa10 value="0.0366622974472766" flag="0"/>
			<psa30 value="0.00957867120662442" flag="0"/>
		</comp>
	</station>
	<station code="ARS1" name="ARS1" netid="HI" source="ITSAK Strong Motion Network" insttype="" lat="37.6349" lon="22.7293" esm:processing="manual (Paolucci et al 2011)" esm:quality="good">
		<comp name="--.HNE" depth="0.0">
			<acc value="0.0547765391439262" flag="0"/>
			<vel value="0.0563343076496779" flag="0"/>
			<psa03 value="0.187421228236555" flag="0"/>
			<psa10 value="0.106279265479746" flag="0"/>
			<psa30 value="0.00527537530105683" flag="0"/>
		</comp>
		<comp name="--.HNN" depth="0.0">
			<acc value="0.0560228474353785" flag="0"/>
			<vel value="0.055773413385673" flag="0"/>
			<psa03 value="0.159044640093522" flag="0"/>
			<psa10 value="0.0487243039960132" flag="0"/>
			<psa30 value="0.00797767681526993" flag="0"/>
		</comp>
		<comp name="--.HNZ" depth="0.0">
			<acc value="0.0285688192028622" flag="0"/>
			<vel value="0.0276601778502826" flag="0"/>
			<psa03 value="0.115754011885196" flag="0"/>
			<psa10 value="0.0324292382778815" flag="0"/>
			<psa30 value="0.0111719600875267" flag="0"/>
		</comp>
	</station>
	<station code="ATH5" name="ATH5" netid="HI" source="ITSAK Strong Motion Network" insttype="" lat="37.975421" lon="23.737098" esm:processing="manual (Paolucci et al 2011)" esm:quality="good">
		<comp name="--.HNE" depth="0.0">
			<acc value="0.190838798095939" flag="0"/>
			<vel value="0.134409375405991" flag="0"/>
			<psa03 value="0.553862065643635" flag="0"/>
			<psa10 value="0.0853426410311283" flag="0"/>
			<psa30 value="0.00919604502618447" flag="0"/>
		</comp>
		<comp name="--.HNN" depth="0.0">
			<acc value="0.196174286566266" flag="0"/>
			<vel value="0.0935812143080552" flag="0"/>
			<psa03 value="0.895952935818222" flag="0"/>
			<psa10 value="0.0755762065527753" flag="0"/>
			<psa30 value="0.00623399547160513" flag="0"/>
		</comp>
		<comp name="--.HNZ" depth="0.0">
			<acc value="0.0911917322578495" flag="0"/>
			<vel value="0.0538230521446073" flag="0"/>
			<psa03 value="0.317301248817167" flag="0"/>
			<psa10 value="0.0481805292236033" flag="0"/>
			<psa30 value="0.00874490347360403" flag="0"/>
		</comp>
	</station>
	<station code="FRS1" name="FRS1" netid="HI" source="ITSAK Strong Motion Network" insttype="" lat="39.2934" lon="22.3844" esm:processing="manual (Paolucci et al 2011)" esm:quality="good">
		<comp name="--.HNE" depth="0.0">
			<acc value="0.0199194560017754" flag="0"/>
			<vel value="0.0200796436820432" flag="0"/>
			<psa03 value="0.0606378086238931" flag="0"/>
			<psa10 value="0.0288404061603667" flag="0"/>
			<psa30 value="0.00266400356049496" flag="0"/>
		</comp>
		<comp name="--.HNN" depth="0.0">
			<acc value="0.0278921792694335" flag="0"/>
			<vel value="0.0408222983185653" flag="0"/>
			<psa03 value="0.068228780238508" flag="0"/>
			<psa10 value="0.0521240242107925" flag="0"/>
			<psa30 value="0.0058002559051542" flag="0"/>
		</comp>
		<comp name="--.HNZ" depth="0.0">
			<acc value="0.0128195027828566" flag="0"/>
			<vel value="0.0138800776777214" flag="0"/>
			<psa03 value="0.0398112518833871" flag="0"/>
			<psa10 value="0.0305109824528474" flag="0"/>
			<psa30 value="0.00363082469098328" flag="0"/>
		</comp>
	</station>
	<station code="KAC1" name="KAC1" netid="HI" source="ITSAK Strong Motion Network" insttype="" lat="38.143412" lon="21.549694" esm:processing="manual (Paolucci et al 2011)" esm:quality="good">
		<comp name="--.HNE" depth="0.0">
			<acc value="0.0301023264793242" flag="0"/>
			<vel value="0.036247957644776" flag="0"/>
			<psa03 value="0.174120607552377" flag="0"/>
			<psa10 value="0.051316408210196" flag="0"/>
			<psa30 value="0.0120148609255704" flag="0"/>
		</comp>
		<comp name="--.HNN" depth="0.0">
			<acc value="0.0276100591823603" flag="0"/>
			<vel value="0.0377773375952768" flag="0"/>
			<psa03 value="0.104550363448472" flag="0"/>
			<psa10 value="0.0584350547855952" flag="0"/>
			<psa30 value="0.0110911055646447" flag="0"/>
		</comp>
		<comp name="--.HNZ" depth="0.0">
			<acc value="0.0121053024971707" flag="0"/>
			<vel value="0.0211844985268742" flag="0"/>
			<psa03 value="0.0291950017339166" flag="0"/>
			<psa10 value="0.0351584403241228" flag="0"/>
			<psa30 value="0.00899088143510345" flag="0"/>
		</comp>
	</station>
	<station code="KIF1" name="KIF1" netid="HI" source="ITSAK Strong Motion Network" insttype="" lat="38.077273" lon="23.814551" esm:processing="manual (Paolucci et al 2011)" esm:quality="good">
		<comp name="--.HNE" depth="0.0">
			<acc value="0.190954598415695" flag="0"/>
			<vel value="0.107529813660873" flag="0"/>
			<psa03 value="0.484183533116153" flag="0"/>
			<psa10 value="0.0676548343007397" flag="0"/>
			<psa30 value="0.0156680529316119" flag="0"/>
		</comp>
		<comp name="--.HNN" depth="0.0">
			<acc value="0.241482497909665" flag="0"/>
			<vel value="0.123760218169285" flag="0"/>
			<psa03 value="0.507513661956023" flag="0"/>
			<psa10 value="0.0768407228207721" flag="0"/>
			<psa30 value="0.0177658752353773" flag="0"/>
		</comp>
		<comp name="--.HNZ" depth="0.0">
			<acc value="0.16859023744206" flag="0"/>
			<vel value="0.0526180857934131" flag="0"/>
			<psa03 value="0.239034772380548" flag="0"/>
			<psa10 value="0.046221200677703" flag="0"/>
			<psa30 value="0.0117934229230562" flag="0"/>
		</comp>
	</station>
	<station code="KLV1" name="KLV1" netid="HI" source="ITSAK Strong Motion Network" insttype="" lat="38.03256" lon="22.10797" esm:processing="manual (Paolucci et al 2011)" esm:quality="good">
		<comp name="--.HNE" depth="0.0">
			<acc value="0.0380936747348742" flag="0"/>
			<vel value="0.0264276199283761" flag="0"/>
			<psa03 value="0.119476248048408" flag="0"/>
			<psa10 value="0.0295692819448103" flag="0"/>
			<psa30 value="0.00373658961405703" flag="0"/>
		</comp>
		<comp name="--.HNN" depth="0.0">
			<acc value="0.0480710877017934" flag="0"/>
			<vel value="0.0237765094413341" flag="0"/>
			<psa03 value="0.144740577936272" flag="0"/>
			<psa10 value="0.0217934380833164" flag="0"/>
			<psa30 value="0.00462118154726459" flag="0"/>
		</comp>
		<comp name="--.HNZ" depth="0.0">
			<acc value="0.0146837245123059" flag="0"/>
			<vel value="0.0141198748461565" flag="0"/>
			<psa03 value="0.0385307451811025" flag="0"/>
			<psa10 value="0.0177391513817198" flag="0"/>
			<psa30 value="0.00491522144263125" flag="0"/>
		</comp>
	</station>
	<station code="KMV1" name="KMV1" netid="HI" source="ITSAK Strong Motion Network" insttype="" lat="38.7794" lon="22.7846" esm:processing="manual (Paolucci et al 2011)" esm:quality="good">
		<comp name="--.HNE" depth="0.0">
			<acc value="0.228441550110559" flag="0"/>
			<vel value="0.120362321092415" flag="0"/>
			<psa03 value="0.927424770672826" flag="0"/>
			<psa10 value="0.142568094436568" flag="0"/>
			<psa30 value="0.008374857293194" flag="0"/>
		</comp>
		<comp name="--.HNN" depth="0.0">
			<acc value="0.299989540057589" flag="0"/>
			<vel value="0.120837215253202" flag="0"/>
			<psa03 value="0.734055960938186" flag="0"/>
			<psa10 value="0.12646544271492" flag="0"/>
			<psa30 value="0.0130753945140492" flag="0"/>
		</comp>
		<comp name="--.HNZ" depth="0.0">
			<acc value="0.144216873740856" flag="0"/>
			<vel value="0.0545266158731087" flag="0"/>
			<psa03 value="0.329888666005113" flag="0"/>
			<psa10 value="0.0627250989799686" flag="0"/>
			<psa30 value="0.00500826343954025" flag="0"/>
		</comp>
	</station>
	<station code="KOR2" name="KOR2" netid="HI" source="ITSAK Strong Motion Network" insttype="" lat="37.9401" lon="22.9495" esm:processing="manual (Paolucci et al 2011)" esm:quality="good">
		<comp name="--.HNE" depth="0.0">
			<acc value="0.192180600591182" flag="0"/>
			<vel value="0.182821709034763" flag="0"/>
			<psa03 value="0.739323726568472" flag="0"/>
			<psa10 value="0.352150788261456" flag="0"/>
			<psa30 value="0.0366361903011397" flag="0"/>
		</comp>
		<comp name="--.HNN" depth="0.0">
			<acc value="0.218649210941496" flag="0"/>
			<vel value="0.157727073630315" flag="0"/>
			<psa03 value="0.491638068609211" flag="0"/>
			<psa10 value="0.380552829757315" flag="0"/>
			<psa30 value="0.0202565918997992" flag="0"/>
		</comp>
		<comp name="--.HNZ" depth="0.0">
			<acc value="0.138945616125318" flag="0"/>
			<vel value="0.109988715749563" flag="0"/>
			<psa03 value="0.354184171296436" flag="0"/>
			<psa10 value="0.19145114269861" flag="0"/>
			<psa30 value="0.0103421392826375" flag="0"/>
		</comp>
	</station>
	<station code="LAM2" name="LAM2" netid="HI" source="ITSAK Strong Motion Network" insttype="" lat="38.90203" lon="22.431301" esm:processing="manual (Paolucci et al 2011)" esm:quality="good">
		<comp name="--.HNE" depth="0.0">
			<acc value="0.0499594125290757" flag="0"/>
			<vel value="0.022633110250725" flag="0"/>
			<psa03 value="0.161667605518775" flag="0"/>
			<psa10 value="0.0272923129817913" flag="0"/>
			<psa30 value="0.00728160987091766" flag="0"/>
		</comp>
		<comp name="--.HNN" depth="0.0">
			<acc value="0.0473947172754919" flag="0"/>
			<vel value="0.0303832402672243" flag="0"/>
			<psa03 value="0.0900627370476577" flag="0"/>
			<psa10 value="0.0389722442199137" flag="0"/>
			<psa30 value="0.00727433522234122" flag="0"/>
		</comp>
		<comp name="--.HNZ" depth="0.0">
			<acc value="0.0337860035860131" flag="0"/>
			<vel value="0.0209321129003907" flag="0"/>
			<psa03 value="0.0516377436637595" flag="0"/>
			<psa10 value="0.0206383240626815" flag="0"/>
			<psa30 value="0.00679701901915198" flag="0"/>
		</comp>
	</station>
	<station code="LAR4" name="LAR4" netid="HI" source="ITSAK Strong Motion Network" insttype="" lat="39.6422" lon="22.4219" esm:processing="manual (Paolucci et al 2011)" esm:quality="good">
		<comp name="--.HNE" depth="0.0">
			<acc value="0.0533888226068555" flag="0"/>
			<vel value="0.0661922317893929" flag="0"/>
			<psa03 value="0.0816073800467532" flag="0"/>
			<psa10 value="0.105291757562193" flag="0"/>
			<psa30 value="0.0319523933559123" flag="0"/>
		</comp>
		<comp name="--.HNN" depth="0.0">
			<acc value="0.0399103145289875" flag="0"/>
			<vel value="0.0746825974038709" flag="0"/>
			<psa03 value="0.075023766831355" flag="0"/>
			<psa10 value="0.0859759079819559" flag="0"/>
			<psa30 value="0.0360329603401153" flag="0"/>
		</comp>
		<comp name="--.HNZ" depth="0.0">
			<acc value="0.0310715517350966" flag="0"/>
			<vel value="0.0500277957917802" flag="0"/>
			<psa03 value="0.0549553488554881" flag="0"/>
			<psa10 value="0.0611117721049809" flag="0"/>
			<psa30 value="0.0108378296196897" flag="0"/>
		</comp>
	</station>
	<station code="LEO1" name="LEO1" netid="HI" source="ITSAK Strong Motion Network" insttype="" lat="37.1689" lon="22.8637" esm:processing="manual (Paolucci et al 2011)" esm:quality="good">
		<comp name="--.HNE" depth="0.0">
			<acc value="0.0173080535029119" flag="0"/>
			<vel value="0.0171262323614652" flag="0"/>
			<psa03 value="0.0477460327320098" flag="0"/>
			<psa10 value="0.0129839310592108" flag="0"/>
			<psa30 value="0.00545375461781112" flag="0"/>
		</comp>
		<comp name="--.HNN" depth="0.0">
			<acc value="0.0169941188531158" flag="0"/>
			<vel value="0.0145395068445318" flag="0"/>
			<psa03 value="0.0467740985544739" flag="0"/>
			<psa10 value="0.00930318316522704" flag="0"/>
			<psa30 value="0.003139799662985" flag="0"/>
		</comp>
		<comp name="--.HNZ" depth="0.0">
			<acc value="0.014827984532314" flag="0"/>
			<vel value="0.00908676167875469" flag="0"/>
			<psa03 value="0.0290526068842899" flag="0"/>
			<psa10 value="0.0116601861801092" flag="0"/>
			<psa30 value="0.00373273060841685" flag="0"/>
		</comp>
	</station>
	<station code="LMN1" name="LMN1" netid="HI" source="ITSAK Strong Motion Network" insttype="" lat="39.875" lon="25.0588" esm:processing="manual (Paolucci et al 2011)" esm:quality="good">
		<comp name="--.HNE" depth="0.0">
			<acc value="0.03594572108357" flag="0"/>
			<vel value="0.0282181131578363" flag="0"/>
			<psa03 value="0.136250421755092" flag="0"/>
			<psa10 value="0.0425798557064694" flag="0"/>
			<psa30 value="0.00615677243929156" flag="0"/>
		</comp>
		<comp name="--.HNN" depth="0.0">
			<acc value="0.0308672809563081" flag="0"/>
			<vel value="0.0227004180355123" flag="0"/>
			<psa03 value="0.130715221741923" flag="0"/>
			<psa10 value="0.0257053897309142" flag="0"/>
			<psa30 value="0.00506346459634598" flag="0"/>
		</comp>
		<comp name="--.HNZ" depth="0.0">
			<acc value="0.019730946644859" flag="0"/>
			<vel value="0.0121055431021722" flag="0"/>
			<psa03 value="0.0264455878279054" flag="0"/>
			<psa10 value="0.0172190575530561" flag="0"/>
			<psa30 value="0.00372650352923675" flag="0"/>
		</comp>
	</station>
	<station code="MSL1" name="MSL1" netid="HI" source="ITSAK Strong Motion Network" insttype="" lat="38.3727" lon="21.4243" esm:processing="manual (Paolucci et al 2011)" esm:quality="good">
		<comp name="--.HNE" depth="0.0">
			<acc value="0.0294373588694891" flag="0"/>
			<vel value="0.0452997321024757" flag="0"/>
			<psa03 value="0.0678778403237943" flag="0"/>
			<psa10 value="0.0624530934609379" flag="0"/>
			<psa30 value="0.00981033822009377" flag="0"/>
		</comp>
		<comp name="--.HNN" depth="0.0">
			<acc value="0.0239428805439007" flag="0"/>
			<vel value="0.0341134726980077" flag="0"/>
			<psa03 value="0.0694504445011031" flag="0"/>
			<psa10 value="0.0527642891252008" flag="0"/>
			<psa30 value="0.00622083293298488" flag="0"/>
		</comp>
		<comp name="--.HNZ" depth="0.0">
			<acc value="0.0166230156602938" flag="0"/>
			<vel value="0.0172152154184737" flag="0"/>
			<psa03 value="0.0216667803699478" flag="0"/>
			<psa10 value="0.0320085541596232" flag="0"/>
			<psa30 value="0.00209412518384933" flag="0"/>
		</comp>
	</station>
	<station code="NMA1" name="NMA1" netid="HI" source="ITSAK Strong Motion Network" insttype="" lat="37.81873" lon="22.662702" esm:processing="manual (Paolucci et al 2011)" esm:quality="good">
		<comp name="--.HNE" depth="0.0">
			<acc value="0.0705760493773621" flag="0"/>
			<vel value="0.0565636468572054" flag="0"/>
			<psa03 value="0.219596318011679" flag="0"/>
			<psa10 value="0.085973110296623" flag="0"/>
			<psa30 value="0.0117517668302112" flag="0"/>
		</comp>
		<comp name="--.HNN" depth="0.0">
			<acc value="0.0801083861026054" flag="0"/>
			<vel value="0.0525188672024042" flag="0"/>
			<psa03 value="0.19531110506884" flag="0"/>
			<psa10 value="0.0551981741081361" flag="0"/>
			<psa30 value="0.0134687939081617" flag="0"/>
		</comp>
		<comp name="--.HNZ" depth="0.0">
			<acc value="0.0373955143224966" flag="0"/>
			<vel value="0.0319190047023258" flag="0"/>
			<psa03 value="0.0948103328025765" flag="0"/>
			<psa10 value="0.0524898309436933" flag="0"/>
			<psa30 value="0.00763362068990684" flag="0"/>
		</comp>
	</station>
	<station code="PER1" name="PER1" netid="HI" source="ITSAK Strong Motion Network" insttype="" lat="38.0119" lon="23.7027" esm:processing="manual (Paolucci et al 2011)" esm:quality="good">
		<comp name="--.HNE" depth="0.0">
			<acc value="0.300112457499455" flag="0"/>
			<vel value="0.103637998577908" flag="0"/>
			<psa03 value="0.476456271222976" flag="0"/>
			<psa10 value="0.08999864196834" flag="0"/>
			<psa30 value="0.00918092402449231" flag="0"/>
		</comp>
		<comp name="--.HNN" depth="0.0">
			<acc value="0.203678646411406" flag="0"/>
			<vel value="0.11365527182431" flag="0"/>
			<psa03 value="0.480733929596849" flag="0"/>
			<psa10 value="0.0577595900393707" flag="0"/>
			<psa30 value="0.00564234711113824" flag="0"/>
		</comp>
		<comp name="--.HNZ" depth="0.0">
			<acc value="0.117696312049268" flag="0"/>
			<vel value="0.0427014979488332" flag="0"/>
			<psa03 value="0.1538669741819" flag="0"/>
			<psa10 value="0.0409179631142414" flag="0"/>
			<psa30 value="0.00701000271160967" flag="0"/>
		</comp>
	</station>
	<station code="PIR1" name="PIR1" netid="HI" source="ITSAK Strong Motion Network" insttype="" lat="37.93723" lon="23.642595" esm:processing="manual (Paolucci et al 2011)" esm:quality="good">
		<comp name="--.HNE" depth="0.0">
			<acc value="0.390872608324421" flag="0"/>
			<vel value="0.122717334837283" flag="0"/>
			<psa03 value="0.755885823726127" flag="0"/>
			<psa10 value="0.0834207512153602" flag="0"/>
			<psa30 value="0.00997413073721084" flag="0"/>
		</comp>
		<comp name="--.HNN" depth="0.0">
			<acc value="0.47026957059368" flag="0"/>
			<vel value="0.170436734738509" flag="0"/>
			<psa03 value="0.63434643900504" flag="0"/>
			<psa10 value="0.128426417619883" flag="0"/>
			<psa30 value="0.0114135260900888" flag="0"/>
		</comp>
		<comp name="--.HNZ" depth="0.0">
			<acc value="0.183214431998701" flag="0"/>
			<vel value="0.0818883467556824" flag="0"/>
			<psa03 value="0.378896891726214" flag="0"/>
			<psa10 value="0.0494558012041133" flag="0"/>
			<psa30 value="0.00910685745127867" flag="0"/>
		</comp>
	</station>
