<?xml version="1.0" encoding="UTF-8" standalone="yes"?>
<!DOCTYPE earthquake SYSTEM "stationlist.dtd">
<stationlist created="" xmlns="ch.ethz.sed.shakemap.usgs.xml">
  <station code="ACOR" name="ACOR" netid="HA" insttype="Horizon,120s,1200" commtype="DIG" lat="37.8905" lon="22.8694">
    <comp name="--.HHZ">
      <acc value="0.0233892261" flag="0"/>
      <vel value="0.0244348398" flag="0"/>
      <psa03 value="0.0520675260" flag="0"/>
      <psa10 value="0.0351842170" flag="0"/>
      <psa30 value="0.0085500554" flag="0"/>
    </comp>
    <comp name="--.HHN">
      <acc value="0.0341269912" flag="0"/>
      <vel value="0.0334064704" flag="0"/>
      <psa03 value="0.1072256339" flag="0"/>
      <psa10 value="0.0506115433" flag="0"/>
      <psa30 value="0.0108206318" flag="0"/>
    </comp>
    <comp name="--.HHE">
      <acc value="0.0332211838" flag="0"/>
      <vel value="0.0348659099" flag="0"/>
      <psa03 value="0.1034051323" flag="0"/>
      <psa10 value="0.0569395832" flag="0"/>
      <psa30 value="0.0076453902" flag="0"/>
    </comp>
  </station>
  <station code="ALIO" name="ALIO" netid="HA" insttype="25" commtype="DIG" lat="38.0657" lon="23.6727">
    <comp name="--.HHE">
      <acc value="0.1100611203" flag="0"/>
      <vel value="0.0365564591" flag="0"/>
      <psa03 value="0.2411787372" flag="0"/>
      <psa10 value="0.0255633526" flag="0"/>
      <psa30 value="0.0021552915" flag="0"/>
    </comp>
    <comp name="--.HHN">
      <acc value="0.1143772776" flag="0"/>
      <vel value="0.0493618708" flag="0"/>
      <psa03 value="0.2814119797" flag="0"/>
      <psa10 value="0.0234748279" flag="0"/>
      <psa30 value="0.0019394050" flag="0"/>
    </comp>
    <comp name="--.HHZ">
      <acc value="0.1250889336" flag="0"/>
      <vel value="0.0501688873" flag="0"/>
      <psa03 value="0.2238772028" flag="0"/>
      <psa10 value="0.0248463219" flag="0"/>
      <psa30 value="0.0032818550" flag="0"/>
    </comp>
  </station>
  <station code="AMPE" name="AMPE" netid="HA" insttype="1s-100Hz," commtype="DIG" lat="38.3015" lon="23.2688">
    <comp name="--.HHN">
      <acc value="0.3606048716" flag="0"/>
      <vel value="0.1643549322" flag="0"/>
      <psa03 value="0.8817466768" flag="0"/>
      <psa10 value="0.1878981324" flag="0"/>
      <psa30 value="0.0476922293" flag="0"/>
    </comp>
    <comp name="--.HHE">
      <acc value="0.5324456127" flag="0"/>
      <vel value="0.2150150264" flag="0"/>
      <psa03 value="0.9482174343" flag="0"/>
      <psa10 value="0.2656908922" flag="0"/>
      <psa30 value="0.0488099291" flag="0"/>
    </comp>
    <comp name="--.HHZ">
      <acc value="0.2485846946" flag="0"/>
      <vel value="0.1216444771" flag="0"/>
      <psa03 value="0.7144970197" flag="0"/>
      <psa10 value="0.1376492769" flag="0"/>
      <psa30 value="0.0163515070" flag="0"/>
    </comp>
  </station>
  <station code="ANTK" name="ANTK" netid="HA" insttype="25" commtype="DIG" lat="38.3605" lon="22.6385">
    <comp name="--.HHE">
      <acc value="0.0416730793" flag="0"/>
      <vel value="0.0293903474" flag="0"/>
      <psa03 value="0.0889206719" flag="0"/>
      <psa10 value="0.0345615160" flag="0"/>
      <psa30 value="0.0025903543" flag="0"/>
    </comp>
    <comp name="--.HHN">
      <acc value="0.0422849822" flag="0"/>
      <vel value="0.0172103996" flag="0"/>
      <psa03 value="0.0645133297" flag="0"/>
      <psa10 value="0.0282848559" flag="0"/>
      <psa30 value="0.0038417059" flag="0"/>
    </comp>
    <comp name="--.HHZ">
      <acc value="0.0235710630" flag="0"/>
      <vel value="0.0273001101" flag="0"/>
      <psa03 value="0.0621685477" flag="0"/>
      <psa10 value="0.0278517697" flag="0"/>
      <psa30 value="0.0030731603" flag="0"/>
    </comp>
  </station>
  <station code="ATAL" name="ATAL" netid="HA" insttype="120s," commtype="DIG" lat="38.6926" lon="23.0213">
    <comp name="--.HHE">
      <acc value="0.4401180427" flag="0"/>
      <vel value="0.1098589178" flag="0"/>
      <psa03 value="0.2981486454" flag="0"/>
      <psa10 value="0.1179479116" flag="0"/>
      <psa30 value="0.0131306530" flag="0"/>
    </comp>
    <comp name="--.HHN">
      <acc value="0.7974645213" flag="0"/>
      <vel value="0.1479109667" flag="0"/>
      <psa03 value="0.6692044394" flag="0"/>
      <psa10 value="0.1154552892" flag="0"/>
      <psa30 value="0.0097238089" flag="0"/>
    </comp>
    <comp name="--.HHZ">
      <acc value="0.5757857747" flag="0"/>
      <vel value="0.1328581747" flag="0"/>
      <psa03 value="0.5341329234" flag="0"/>
      <psa10 value="0.0853395080" flag="0"/>
      <psa30 value="0.0134073703" flag="0"/>
    </comp>
  </station>
  <station code="ATHU" name="ATHU" netid="HA" insttype="60s," commtype="DIG" lat="37.9665" lon="23.7845">
    <comp name="--.HHE">
      <acc value="0.1543851982" flag="0"/>
      <vel value="0.0721412807" flag="0"/>
      <psa03 value="0.2547453931" flag="0"/>
      <psa10 value="0.0356197934" flag="0"/>
      <psa30 value="0.0045041123" flag="0"/>
    </comp>
    <comp name="--.HHZ">
      <acc value="0.0690088630" flag="0"/>
      <vel value="0.0325326248" flag="0"/>
      <psa03 value="0.2006119602" flag="0"/>
      <psa10 value="0.0207834158" flag="0"/>
      <psa30 value="0.0055410781" flag="0"/>
    </comp>
    <comp name="--.HHN">
      <acc value="0.1388676064" flag="0"/>
      <vel value="0.0902335615" flag="0"/>
      <psa03 value="0.3522942614" flag="0"/>
      <psa10 value="0.0564171276" flag="0"/>
      <psa30 value="0.0057033797" flag="0"/>
    </comp>
  </station>
  <station code="AXAR" name="AXAR" netid="HA" insttype="Horizon,120s,1200" commtype="DIG" lat="38.7664" lon="22.659">
    <comp name="--.HHE">
      <acc value="0.1395551393" flag="0"/>
      <vel value="0.0644086188" flag="0"/>
      <psa03 value="0.5225405740" flag="0"/>
      <psa10 value="0.0642469771" flag="0"/>
      <psa30 value="0.0173146467" flag="0"/>
    </comp>
    <comp name="--.HHN">
      <acc value="0.1005790473" flag="0"/>
      <vel value="0.0499743741" flag="0"/>
      <psa03 value="0.2853406061" flag="0"/>
      <psa10 value="0.0560295621" flag="0"/>
      <psa30 value="0.0079274210" flag="0"/>
    </comp>
    <comp name="--.HHZ">
      <acc value="0.0594561069" flag="0"/>
      <vel value="0.0327817896" flag="0"/>
      <psa03 value="0.1924378945" flag="0"/>
      <psa10 value="0.0377216432" flag="0"/>
      <psa30 value="0.0046196824" flag="0"/>
    </comp>
  </station>
  <station code="DOMV" name="DOMV" netid="HA" insttype="60" commtype="DIG" lat="38.2569" lon="22.9795">
    <comp name="--.HHZ">
      <acc value="0.4117357971" flag="0"/>
      <vel value="0.1053896454" flag="0"/>
      <psa03 value="0.5896729934" flag="0"/>
      <psa10 value="0.0427507239" flag="0"/>
      <psa30 value="0.0092781096" flag="0"/>
    </comp>
    <comp name="--.HHN">
      <acc value="0.7717110134" flag="0"/>
      <vel value="0.2121690141" flag="0"/>
      <psa03 value="0.9456592951" flag="0"/>
      <psa10 value="0.1019821723" flag="0"/>
      <psa30 value="0.0087113585" flag="0"/>
    </comp>
    <comp name="--.HHE">
      <acc value="0.8465849273" flag="0"/>
      <vel value="0.2353216680" flag="0"/>
      <psa03 value="1.9355375823" flag="0"/>
      <psa10 value="0.1354870079" flag="0"/>
      <psa30 value="0.0088657940" flag="0"/>
    </comp>
  </station>
  <station code="EPID" name="EPID" netid="HA" insttype="30" commtype="DIG" lat="37.6144" lon="23.1189">
    <comp name="--.HHN">
      <acc value="0.1099892807" flag="0"/>
      <vel value="0.0626766712" flag="0"/>
      <psa03 value="0.3001133354" flag="0"/>
      <psa10 value="0.0330913712" flag="0"/>
      <psa30 value="0.0044583402" flag="0"/>
    </comp>
    <comp name="--.HHE">
      <acc value="0.0993078267" flag="0"/>
      <vel value="0.0653246528" flag="0"/>
      <psa03 value="0.2474817868" flag="0"/>
      <psa10 value="0.0420790077" flag="0"/>
      <psa30 value="0.0039301663" flag="0"/>
    </comp>
    <comp name="--.HHZ">
      <acc value="0.0683620411" flag="0"/>
      <vel value="0.0385758679" flag="0"/>
      <psa03 value="0.1661236697" flag="0"/>
      <psa10 value="0.0398014243" flag="0"/>
      <psa30 value="0.0147001418" flag="0"/>
    </comp>
  </station>
  <station code="KALE" name="KALE" netid="HA" insttype="40," commtype="DIG" lat="38.3911" lon="22.1398">
    <comp name="--.HHE">
      <acc value="0.0395985524" flag="0"/>
      <vel value="0.0287463584" flag="0"/>
      <psa03 value="0.1667374427" flag="0"/>
      <psa10 value="0.0279515576" flag="0"/>
      <psa30 value="0.0037959858" flag="0"/>
    </comp>
    <comp name="--.HHN">
      <acc value="0.0494493886" flag="0"/>
      <vel value="0.0397954117" flag="0"/>
      <psa03 value="0.1595695094" flag="0"/>
      <psa10 value="0.0303884110" flag="0"/>
      <psa30 value="0.0081256724" flag="0"/>
    </comp>
    <comp name="--.HHZ">
      <acc value="0.0191761280" flag="0"/>
      <vel value="0.0213891306" flag="0"/>
      <psa03 value="0.0414240333" flag="0"/>
      <psa10 value="0.0245358653" flag="0"/>
      <psa30 value="0.0049933494" flag="0"/>
    </comp>
  </station>
  <station code="KARY" name="KARY" netid="HA" insttype="60" commtype="DIG" lat="38.0321" lon="24.437">
    <comp name="--.HHE">
      <acc value="0.0941120593" flag="0"/>
      <vel value="0.0347092877" flag="0"/>
      <psa03 value="0.1994298900" flag="0"/>
      <psa10 value="0.0270290020" flag="0"/>
      <psa30 value="0.0038351538" flag="0"/>
    </comp>
    <comp name="--.HHN">
      <acc value="0.1418668913" flag="0"/>
      <vel value="0.0524594667" flag="0"/>
      <psa03 value="0.1869196604" flag="0"/>
      <psa10 value="0.0545194729" flag="0"/>
      <psa30 value="0.0032231331" flag="0"/>
    </comp>
    <comp name="--.HHZ">
      <acc value="0.1035976127" flag="0"/>
      <vel value="0.0434838152" flag="0"/>
      <psa03 value="0.1554790713" flag="0"/>
      <psa10 value="0.0512723855" flag="0"/>
      <psa30 value="0.0060585425" flag="0"/>
    </comp>
  </station>
  <station code="LAKA" name="LAKA" netid="HA" insttype="120s," commtype="DIG" lat="38.2401" lon="21.9785">
    <comp name="--.HHZ">
      <acc value="0.0057976075" flag="0"/>
      <vel value="0.0086487055" flag="0"/>
      <psa03 value="0.0136340766" flag="0"/>
      <psa10 value="0.0140100940" flag="0"/>
      <psa30 value="0.0029153583" flag="0"/>
    </comp>
    <comp name="--.HHN">
      <acc value="0.0093417593" flag="0"/>
      <vel value="0.0119996858" flag="0"/>
      <psa03 value="0.0194582786" flag="0"/>
      <psa10 value="0.0132271791" flag="0"/>
      <psa30 value="0.0035810874" flag="0"/>
    </comp>
    <comp name="--.HHE">
      <acc value="0.0084672502" flag="0"/>
      <vel value="0.0082043601" flag="0"/>
      <psa03 value="0.0265545300" flag="0"/>
      <psa10 value="0.0119552910" flag="0"/>
      <psa30 value="0.0033408179" flag="0"/>
    </comp>
  </station>
  <station code="LOUT" name="LOUT" netid="HA" insttype="30" commtype="DIG" lat="37.9879" lon="22.9743">
    <comp name="--.HHE">
      <acc value="0.2515675245" flag="0"/>
      <vel value="0.1135319991" flag="0"/>
      <psa03 value="0.7753791884" flag="0"/>
      <psa10 value="0.1107113493" flag="0"/>
      <psa30 value="0.0085007395" flag="0"/>
    </comp>
    <comp name="--.HHN">
      <acc value="0.1872330841" flag="0"/>
      <vel value="0.1277473623" flag="0"/>
      <psa03 value="0.5257908636" flag="0"/>
      <psa10 value="0.0962030525" flag="0"/>
      <psa30 value="0.0107272764" flag="0"/>
    </comp>
    <comp name="--.HHZ">
      <acc value="0.1280918687" flag="0"/>
      <vel value="0.0561053240" flag="0"/>
      <psa03 value="0.2828598950" flag="0"/>
      <psa10 value="0.0693402636" flag="0"/>
      <psa30 value="0.0074250963" flag="0"/>
    </comp>
  </station>
  <station code="MDRA" name="MDRA" netid="HA" insttype="60" commtype="DIG" lat="38.0606" lon="23.4662">
    <comp name="--.HHZ">
      <acc value="0.1135599396" flag="0"/>
      <vel value="0.0564188804" flag="0"/>
      <psa03 value="0.3612685905" flag="0"/>
      <psa10 value="0.0340809561" flag="0"/>
      <psa30 value="0.0072556323" flag="0"/>
    </comp>
    <comp name="--.HHE">
      <acc value="0.1336063972" flag="0"/>
      <vel value="0.0549151369" flag="0"/>
      <psa03 value="0.3079067784" flag="0"/>
      <psa10 value="0.0427054546" flag="0"/>
      <psa30 value="0.0049910911" flag="0"/>
    </comp>
    <comp name="--.HHN">
      <acc value="0.3022628746" flag="0"/>
      <vel value="0.1420747315" flag="0"/>
      <psa03 value="0.7013387629" flag="0"/>
      <psa10 value="0.0885243878" flag="0"/>
      <psa30 value="0.0069729241" flag="0"/>
    </comp>
  </station>
  <station code="MRTH" name="MRTH" netid="HA" insttype="S100," commtype="DIG" lat="38.1225" lon="23.9409">
    <comp name="--.HHE">
      <acc value="0.2638207012" flag="0"/>
      <vel value="0.1287938657" flag="0"/>
      <psa03 value="0.6366756811" flag="0"/>
      <psa10 value="0.1108680148" flag="0"/>
      <psa30 value="0.0087407823" flag="0"/>
    </comp>
    <comp name="--.HHZ">
      <acc value="0.2861860556" flag="0"/>
      <vel value="0.0975072335" flag="0"/>
      <psa03 value="0.6053855380" flag="0"/>
      <psa10 value="0.0701520669" flag="0"/>
      <psa30 value="0.0056655045" flag="0"/>
    </comp>
    <comp name="--.HHN">
      <acc value="0.2661110348" flag="0"/>
      <vel value="0.1279894662" flag="0"/>
      <psa03 value="0.8269031088" flag="0"/>
      <psa10 value="0.1435515458" flag="0"/>
      <psa30 value="0.0059907710" flag="0"/>
    </comp>
  </station>
  <station code="PRDM" name="PRDM" netid="HA" insttype="25" commtype="DIG" lat="38.2804" lon="22.847">
    <comp name="--.HHN">
      <acc value="0.1359141962" flag="0"/>
      <vel value="0.0372777952" flag="0"/>
      <psa03 value="0.2469698847" flag="0"/>
      <psa10 value="0.0291982086" flag="0"/>
      <psa30 value="0.0043840943" flag="0"/>
    </comp>
    <comp name="--.HHE">
      <acc value="0.1338601235" flag="0"/>
      <vel value="0.0360039631" flag="0"/>
      <psa03 value="0.1546352366" flag="0"/>
      <psa10 value="0.0248003934" flag="0"/>
      <psa30 value="0.0041133899" flag="0"/>
    </comp>
    <comp name="--.HHZ">
      <acc value="0.0609299849" flag="0"/>
      <vel value="0.0249162662" flag="0"/>
      <psa03 value="0.1648768710" flag="0"/>
      <psa10 value="0.0111651093" flag="0"/>
      <psa30 value="0.0045601858" flag="0"/>
    </comp>
  </station>
  <station code="PSAH" name="PSAH" netid="HA" insttype="25" commtype="DIG" lat="38.5694" lon="23.6473">
    <comp name="--.HHE">
      <acc value="0.4086216545" flag="0"/>
      <vel value="0.2325791972" flag="0"/>
      <psa03 value="1.0222062666" flag="0"/>
      <psa10 value="0.3180358809" flag="0"/>
      <psa30 value="0.0215066298" flag="0"/>
    </comp>
    <comp name="--.HHZ">
      <acc value="0.3444681363" flag="0"/>
      <vel value="0.1308540376" flag="0"/>
      <psa03 value="0.5251012659" flag="0"/>
      <psa10 value="0.2526528727" flag="0"/>
      <psa30 value="0.0222960925" flag="0"/>
    </comp>
    <comp name="--.HHN">
      <acc value="0.4581989708" flag="0"/>
      <vel value="0.1627230708" flag="0"/>
      <psa03 value="0.5642620055" flag="0"/>
      <psa10 value="0.1948680129" flag="0"/>
      <psa30 value="0.0160589498" flag="0"/>
    </comp>
  </station>
  <station code="THAL" name="THAL" netid="HA" insttype="30" commtype="DIG" lat="38.0357" lon="22.6634">
    <comp name="--.HHE">
      <acc value="0.2945643648" flag="0"/>
      <vel value="0.1253217614" flag="0"/>
      <psa03 value="0.9882276837" flag="0"/>
      <psa10 value="0.1293349783" flag="0"/>
      <psa30 value="0.0166885103" flag="0"/>
    </comp>
    <comp name="--.HHZ">
      <acc value="0.1066895897" flag="0"/>
      <vel value="0.0482159925" flag="0"/>
      <psa03 value="0.3528570814" flag="0"/>
      <psa10 value="0.0483575415" flag="0"/>
      <psa30 value="0.0079457601" flag="0"/>
    </comp>
    <comp name="--.HHN">
      <acc value="0.2092317389" flag="0"/>
      <vel value="0.1039179629" flag="0"/>
      <psa03 value="1.0539797219" flag="0"/>
      <psa10 value="0.1078556584" flag="0"/>
      <psa30 value="0.0213594969" flag="0"/>
    </comp>
  </station>
  <station code="THIV" name="THIV" netid="HA" insttype="25" commtype="DIG" lat="38.299" lon="23.332">
    <comp name="--.HHE">
      <acc value="0.2212725278" flag="0"/>
      <vel value="0.0836470149" flag="0"/>
      <psa03 value="0.3673832964" flag="0"/>
      <psa10 value="0.1023264899" flag="0"/>
      <psa30 value="0.0113759601" flag="0"/>
    </comp>
    <comp name="--.HHZ">
      <acc value="0.1870490556" flag="0"/>
      <vel value="0.0616650606" flag="0"/>
      <psa03 value="0.3131306792" flag="0"/>
      <psa10 value="0.0457321902" flag="0"/>
      <psa30 value="0.0058730230" flag="0"/>
    </comp>
    <comp name="--.HHN">
      <acc value="0.3016553291" flag="0"/>
      <vel value="0.1000042947" flag="0"/>
      <psa03 value="0.7484752788" flag="0"/>
      <psa10 value="0.0793740589" flag="0"/>
      <psa30 value="0.0109479691" flag="0"/>
    </comp>
  </station>
  <station code="VILL" name="VILL" netid="HA" insttype="Horizon,120s,1200" commtype="DIG" lat="38.1642" lon="23.3122">
    <comp name="--.HHN">
      <acc value="0.3554391893" flag="0"/>
      <vel value="0.1107145466" flag="0"/>
      <psa03 value="0.5068632503" flag="0"/>
      <psa10 value="0.0568268976" flag="0"/>
      <psa30 value="0.0075312945" flag="0"/>
    </comp>
    <comp name="--.HHE">
      <acc value="0.1897039353" flag="0"/>
      <vel value="0.1328997595" flag="0"/>
      <psa03 value="0.3860495594" flag="0"/>
      <psa10 value="0.1291432329" flag="0"/>
      <psa30 value="0.0081044966" flag="0"/>
    </comp>
    <comp name="--.HHZ">
      <acc value="0.1100927278" flag="0"/>
      <vel value="0.0446073713" flag="0"/>
      <psa03 value="0.2566782863" flag="0"/>
      <psa10 value="0.0380743762" flag="0"/>
      <psa30 value="0.0048208407" flag="0"/>
    </comp>
  </station>
  <station code="AKR1" name="AKR1" netid="HI" insttype="unknown" commtype="DIG" lat="38.1536" lon="22.3133">
    <comp name="--.HNN">
      <acc value="0.0607212275" flag="0"/>
      <vel value="0.0470187086" flag="0"/>
      <psa03 value="0.2310223037" flag="0"/>
      <psa10 value="0.0497531628" flag="0"/>
      <psa30 value="0.0091368142" flag="0"/>
    </comp>
    <comp name="--.HNZ">
      <acc value="0.0239538781" flag="0"/>
      <vel value="0.0267986422" flag="0"/>
      <psa03 value="0.0826235578" flag="0"/>
      <psa10 value="0.0367306709" flag="0"/>
      <psa30 value="0.0085267224" flag="0"/>
    </comp>
    <comp name="--.HNE">
      <acc value="0.0595640886" flag="0"/>
      <vel value="0.0499469253" flag="0"/>
      <psa03 value="0.2142000152" flag="0"/>
      <psa10 value="0.0760664131" flag="0"/>
      <psa30 value="0.0075865054" flag="0"/>
    </comp>
  </station>
  <station code="ATH5" name="ATH5" netid="HI" insttype="CMG-5TD,ACCELEROMETER,GURALP" commtype="DIG" lat="37.9754" lon="23.7371">
    <comp name="--.HNE">
      <acc value="0.1949557621" flag="0"/>
      <vel value="0.1315615975" flag="0"/>
      <psa03 value="0.5403274859" flag="0"/>
      <psa10 value="0.0854585887" flag="0"/>
      <psa30 value="0.0084156446" flag="0"/>
    </comp>
    <comp name="--.HNZ">
      <acc value="0.0916928210" flag="0"/>
      <vel value="0.0545378524" flag="0"/>
      <psa03 value="0.3132764593" flag="0"/>
      <psa10 value="0.0486568557" flag="0"/>
      <psa30 value="0.0074123973" flag="0"/>
    </comp>
    <comp name="--.HNN">
      <acc value="0.1961797263" flag="0"/>
      <vel value="0.0968767096" flag="0"/>
      <psa03 value="0.8950797267" flag="0"/>
      <psa10 value="0.0748928488" flag="0"/>
      <psa30 value="0.0052652527" flag="0"/>
    </comp>
  </station>
  <station code="FRS1" name="FRS1" netid="HI" insttype="unknown" commtype="DIG" lat="39.2934" lon="22.3844">
    <comp name="--.HNN">
