<stationlist xmlns:esm="https://esm-db.eu/esmws/shakemap/1/" created="1780835057">
	<station code="SKY1" name="SKY1" netid="HI" source="ITSAK Strong Motion Network" insttype="" lat="38.904483" lon="24.564572" esm:processing="automatic (Paolucci et al 2011)" esm:quality="best">
		<comp name="--.HNE" depth="0.0">
			<acc value="0.188603219752443" flag="0"/>
			<vel value="0.162708523994732" flag="0"/>
			<psa03 value="0.776325177733018" flag="0"/>
			<psa10 value="0.237634507119847" flag="0"/>
			<psa30 value="0.012248998102676" flag="0"/>
		</comp>
		<comp name="--.HNN" depth="0.0">
			<acc value="0.296053580857863" flag="0"/>
			<vel value="0.196575900870278" flag="0"/>
			<psa03 value="1.01500223891696" flag="0"/>
			<psa10 value="0.0885315597813451" flag="0"/>
			<psa30 value="0.0225071226530832" flag="0"/>
		</comp>
		<comp name="--.HNZ" depth="0.0">
			<acc value="0.136705972101202" flag="0"/>
			<vel value="0.070900389407198" flag="0"/>
			<psa03 value="0.270696494814272" flag="0"/>
			<psa10 value="0.114611364940444" flag="0"/>
			<psa30 value="0.0121495723495411" flag="0"/>
		</comp>
	</station>
	<station code="EFSA" name="EFSA" netid="HL" source="National Observatory of Athens Seismic Network" insttype="" lat="39.54015" lon="24.98864" esm:processing="automatic (Paolucci et al 2011)" esm:quality="best">
		<comp name="00.HNE" depth="0.0">
			<acc value="0.0358595168659587" flag="0"/>
			<vel value="0.031476292119067" flag="0"/>
			<psa03 value="0.0799412540490827" flag="0"/>
			<psa10 value="0.0341469645688181" flag="0"/>
			<psa30 value="0.00881849501534917" flag="0"/>
		</comp>
		<comp name="00.HNN" depth="0.0">
			<acc value="0.0295758395681843" flag="0"/>
			<vel value="0.0239221932828401" flag="0"/>
			<psa03 value="0.0763889926875345" flag="0"/>
			<psa10 value="0.0277282531106854" flag="0"/>
			<psa30 value="0.00480089678585048" flag="0"/>
		</comp>
		<comp name="00.HNZ" depth="0.0">
			<acc value="0.0143170187438124" flag="0"/>
			<vel value="0.012464196948306" flag="0"/>
			<psa03 value="0.0318386195689573" flag="0"/>
			<psa10 value="0.0194430448813019" flag="0"/>
			<psa30 value="0.00521895406342673" flag="0"/>
		</comp>
	</station>
</stationlist>
