<?xml version="1.0" encoding="UTF-8" standalone="yes"?>
<!DOCTYPE earthquake SYSTEM "stationlist.dtd">
<stationlist created="" xmlns="ch.ethz.sed.shakemap.usgs.xml">
  <station code="ARPRA" name="ARPRA" netid="KO" insttype="CMG-5T" lat="39.0929" lon="38.3356">
    <comp name="--.HNZ">
      <acc value="0.0353753496" flag="0"/>
      <vel value="0.0082282813" flag="0"/>
      <psa03 value="0.0473587939" flag="0"/>
      <psa10 value="0.0080449876" flag="0"/>
      <psa30 value="0.0007965697" flag="0"/>
    </comp>
    <comp name="--.HNN">
      <acc value="0.0418465851" flag="0"/>
      <vel value="0.0185800835" flag="0"/>
      <psa03 value="0.1115984965" flag="0"/>
      <psa10 value="0.0192158263" flag="0"/>
      <psa30 value="0.0009790632" flag="0"/>
    </comp>
    <comp name="--.HNE">
      <acc value="0.0498548666" flag="0"/>
      <vel value="0.0138897274" flag="0"/>
      <psa03 value="0.0552255487" flag="0"/>
      <psa10 value="0.0165344399" flag="0"/>
      <psa30 value="0.0011415438" flag="0"/>
    </comp>
  </station>
  <station code="URFA" name="URFA" netid="KO" insttype="CMG-3ESP" lat="37.4409" lon="38.8213">
    <comp name="--.HHN">
      <acc value="0.0673235738" flag="0"/>
      <vel value="0.0288975412" flag="0"/>
      <psa03 value="0.0695554204" flag="0"/>
      <psa10 value="0.0140454331" flag="0"/>
      <psa30 value="0.0010488415" flag="0"/>
    </comp>
    <comp name="--.HHE">
      <acc value="0.0824724522" flag="0"/>
      <vel value="0.0230676689" flag="0"/>
      <psa03 value="0.0930377011" flag="0"/>
      <psa10 value="0.0067146841" flag="0"/>
      <psa30 value="0.0007608624" flag="0"/>
    </comp>
    <comp name="--.HHZ">
      <acc value="0.0426774292" flag="0"/>
      <vel value="0.0109935319" flag="0"/>
      <psa03 value="0.0491660816" flag="0"/>
      <psa10 value="0.0053564299" flag="0"/>
      <psa30 value="0.0004166753" flag="0"/>
    </comp>
  </station>
</stationlist>
