<stationlist created="1675762325">
	<station code="ARPRA" name="ARPRA" netid="KO" source="Bogazici University Kandilli Observatory And Earthquake Research Institute (KOERI)" insttype="" lat="39.0929" lon="38.3356">
		<comp name=".HNE" depth="0.0">
			<acc value="0.0495433489181" flag="0"/>
			<vel value="0.0140487317568" flag="0"/>
			<psa03 value="0.0549775847036" flag="0"/>
			<psa10 value="0.0165615864988" flag="0"/>
			<psa30 value="0.00123051557812" flag="0"/>
		</comp>
		<comp name=".HNN" depth="0.0">
			<acc value="0.0413311201172" flag="0"/>
			<vel value="0.0186991867615" flag="0"/>
			<psa03 value="0.110453629511" flag="0"/>
			<psa10 value="0.0192138371974" flag="0"/>
			<psa30 value="0.000955555175842" flag="0"/>
		</comp>
		<comp name=".HNZ" depth="0.0">
			<acc value="0.0348256977498" flag="0"/>
			<vel value="0.00822732637302" flag="0"/>
			<psa03 value="0.0476775281939" flag="0"/>
			<psa10 value="0.00807632407935" flag="0"/>
			<psa30 value="0.000879437633426" flag="0"/>
		</comp>
	</station>
	<station code="RFHY" name="RFHY" netid="KO" source="Bogazici University Kandilli Observatory And Earthquake Research Institute (KOERI)" insttype="" lat="39.927" lon="38.833">
		<comp name=".HNE" depth="0.0">
			<acc value="0.00122018760904" flag="0"/>
			<vel value="0.00405145359206" flag="0"/>
			<psa03 value="0.00134999633167" flag="0"/>
			<psa10 value="0.00107844605113" flag="0"/>
			<psa30 value="0.000802539935166" flag="0"/>
		</comp>
		<comp name=".HNN" depth="0.0">
			<acc value="0.00543141394504" flag="0"/>
			<vel value="0.00537374822641" flag="0"/>
			<psa03 value="0.0100430949933" flag="0"/>
			<psa10 value="0.00576817789474" flag="0"/>
			<psa30 value="0.000606226044915" flag="0"/>
		</comp>
		<comp name=".HNZ" depth="0.0">
			<acc value="0.00370126530913" flag="0"/>
			<vel value="0.0028955420088" flag="0"/>
			<psa03 value="0.00679052405766" flag="0"/>
			<psa10 value="0.00405775005602" flag="0"/>
			<psa30 value="0.000521898531551" flag="0"/>
		</comp>
	</station>
	<station code="TUNC" name="TUNC" netid="KO" source="Bogazici University Kandilli Observatory And Earthquake Research Institute (KOERI)" insttype="" lat="39.6942" lon="37.5388">
		<comp name=".HNE" depth="0.0">
			<acc value="0.0106944827281" flag="0"/>
			<vel value="0.00936612693982" flag="0"/>
			<psa03 value="0.025730444099" flag="0"/>
			<psa10 value="0.0125227039427" flag="0"/>
			<psa30 value="0.000805877760446" flag="0"/>
		</comp>
		<comp name=".HNN" depth="0.0">
			<acc value="0.01155796097" flag="0"/>
			<vel value="0.00571474360721" flag="0"/>
			<psa03 value="0.0185213584595" flag="0"/>
			<psa10 value="0.0074103582436" flag="0"/>
			<psa30 value="0.000486236689959" flag="0"/>
		</comp>
		<comp name=".HNZ" depth="0.0">
			<acc value="0.00651011478477" flag="0"/>
			<vel value="0.00429489238445" flag="0"/>
			<psa03 value="0.0234796882266" flag="0"/>
			<psa10 value="0.00492495469156" flag="0"/>
			<psa30 value="0.0010419529826" flag="0"/>
		</comp>
	</station>
</stationlist>
