<?xml version="1.0" encoding="UTF-8" standalone="yes"?>
<!DOCTYPE earthquake SYSTEM "stationlist.dtd">
<stationlist created="" xmlns="ch.ethz.sed.shakemap.usgs.xml">
  <station code="ARPRA" name="ARPRA" netid="KO" insttype="CMG-5T" lat="39.0929" lon="38.3356">
    <comp name="--.HNE">
      <acc value="0.0498548669" flag="0"/>
      <vel value="0.0138897250" flag="0"/>
      <psa03 value="0.0552255487" flag="0"/>
      <psa10 value="0.0165344389" flag="0"/>
      <psa30 value="0.0011413425" flag="0"/>
    </comp>
    <comp name="--.HNZ">
      <acc value="0.0353753448" flag="0"/>
      <vel value="0.0082282905" flag="0"/>
      <psa03 value="0.0473587939" flag="0"/>
      <psa10 value="0.0080449877" flag="0"/>
      <psa30 value="0.0007965906" flag="0"/>
    </comp>
    <comp name="--.HNN">
      <acc value="0.0418465835" flag="0"/>
      <vel value="0.0185800758" flag="0"/>
      <psa03 value="0.1115984965" flag="0"/>
      <psa10 value="0.0192158260" flag="0"/>
      <psa30 value="0.0009798215" flag="0"/>
    </comp>
  </station>
  <station code="URFA" name="URFA" netid="KO" insttype="CMG-3ESP" lat="37.4409" lon="38.8213">
    <comp name="--.HHE">
      <acc value="0.0824724522" flag="0"/>
      <vel value="0.0230676633" flag="0"/>
      <psa03 value="0.0930377011" flag="0"/>
      <psa10 value="0.0067146841" flag="0"/>
      <psa30 value="0.0007607283" flag="0"/>
    </comp>
    <comp name="--.HHN">
      <acc value="0.0673235738" flag="0"/>
      <vel value="0.0288975283" flag="0"/>
      <psa03 value="0.0695554204" flag="0"/>
      <psa10 value="0.0140454332" flag="0"/>
      <psa30 value="0.0010488271" flag="0"/>
    </comp>
  </station>
</stationlist>
