<stationlist created="1778138773">
	<station code="AGRP" name="AGRP" netid="CL" source="Corinth Riff Laboratory (CRLNET)" insttype="" lat="38.3959" lon="21.72277">
		<comp name="00.HNE" depth="0.0">
			<acc value="0.0252412543450851" flag="0"/>
			<vel value="0.0141779436279856" flag="0"/>
			<psa03 value="0.0542417651255789" flag="0"/>
			<psa10 value="0.00975939151177394" flag="0"/>
			<psa30 value="0.000775721960688034" flag="0"/>
		</comp>
		<comp name="00.HNN" depth="0.0">
			<acc value="0.0290266648677437" flag="0"/>
			<vel value="0.0117110149950561" flag="0"/>
			<psa03 value="0.0881433078114596" flag="0"/>
			<psa10 value="0.00646278531529886" flag="0"/>
			<psa30 value="0.000596907927637042" flag="0"/>
		</comp>
		<comp name="00.HNZ" depth="0.0">
			<acc value="0.0561538293743169" flag="0"/>
			<vel value="0.010209185512609" flag="0"/>
			<psa03 value="0.0397123781459681" flag="0"/>
			<psa10 value="0.0042482931473317" flag="0"/>
			<psa30 value="0.000410190141833954" flag="0"/>
		</comp>
	</station>
	<station code="MALA" name="MALA" netid="CL" source="Corinth Riff Laboratory (CRLNET)" insttype="" lat="38.39341" lon="21.87263">
		<comp name="01.HNE" depth="0.0">
			<acc value="0.0762360573990861" flag="0"/>
			<vel value="0.0242189332460452" flag="0"/>
			<psa03 value="0.0867466007030407" flag="0"/>
			<psa10 value="0.0227410321067595" flag="0"/>
			<psa30 value="0.00345349836065121" flag="0"/>
		</comp>
		<comp name="01.HNN" depth="0.0">
			<acc value="0.0524869703179688" flag="0"/>
			<vel value="0.021773328626994" flag="0"/>
			<psa03 value="0.116865283418253" flag="0"/>
			<psa10 value="0.0154432155372564" flag="0"/>
			<psa30 value="0.00347259358394801" flag="0"/>
		</comp>
		<comp name="01.HNZ" depth="0.0">
			<acc value="0.0274763500128433" flag="0"/>
			<vel value="0.0125375137584906" flag="0"/>
			<psa03 value="0.0311603038005484" flag="0"/>
			<psa10 value="0.00715188127703559" flag="0"/>
			<psa30 value="0.00347854356144131" flag="0"/>
		</comp>
	</station>
	<station code="ROD3" name="ROD3" netid="CL" source="Corinth Riff Laboratory (CRLNET)" insttype="" lat="38.30811" lon="21.89204">
		<comp name="00.HNE" depth="0.0">
			<acc value="0.130472072114971" flag="0"/>
			<vel value="0.0465817724357701" flag="0"/>
			<psa03 value="0.318171223115229" flag="0"/>
			<psa10 value="0.0129987698547167" flag="0"/>
			<psa30 value="0.00106031013617428" flag="0"/>
		</comp>
		<comp name="00.HNN" depth="0.0">
			<acc value="0.109500244846594" flag="0"/>
			<vel value="0.044049638357792" flag="0"/>
			<psa03 value="0.296545061321421" flag="0"/>
			<psa10 value="0.0113071396675015" flag="0"/>
			<psa30 value="0.000909898297130271" flag="0"/>
		</comp>
		<comp name="00.HNZ" depth="0.0">
			<acc value="0.0833523683845244" flag="0"/>
			<vel value="0.0264333301722735" flag="0"/>
			<psa03 value="0.0892596317627134" flag="0"/>
			<psa10 value="0.00406102589803526" flag="0"/>
			<psa30 value="0.000336554795103325" flag="0"/>
		</comp>
	</station>
	<station code="AIGS" name="AIGS" netid="HA" source="Hellenic Seismological Network, University of Athens, Seismological Laboratory (HA)" insttype="" lat="38.25001" lon="22.0878">
		<comp name="--.HNE" depth="0.0">
			<acc value="0.0386149971459619" flag="0"/>
			<vel value="0.0137302047101565" flag="0"/>
			<psa03 value="0.050496069075116" flag="0"/>
			<psa10 value="0.00490685083603795" flag="0"/>
			<psa30 value="0.000670592913074582" flag="0"/>
		</comp>
		<comp name="--.HNN" depth="0.0">
			<acc value="0.0446688731085728" flag="0"/>
			<vel value="0.0123276993027471" flag="0"/>
			<psa03 value="0.0572854094607846" flag="0"/>
			<psa10 value="0.00340159041679699" flag="0"/>
			<psa30 value="0.000774467346329053" flag="0"/>
		</comp>
		<comp name="--.HNZ" depth="0.0">
			<acc value="0.0435579272010643" flag="0"/>
			<vel value="0.00914085088569941" flag="0"/>
			<psa03 value="0.02537619406914" flag="0"/>
			<psa10 value="0.0025960724458081" flag="0"/>
			<psa30 value="0.000578787821020303" flag="0"/>
		</comp>
	</station>
	<station code="CORS" name="CORS" netid="HA" source="Hellenic Seismological Network, University of Athens, Seismological Laboratory (HA)" insttype="" lat="38.2562" lon="22.0748">
		<comp name="00.HNE" depth="0.0">
			<acc value="0.0267138440001432" flag="0"/>
			<vel value="0.0105408140486" flag="0"/>
			<psa03 value="0.0466719928320302" flag="0"/>
			<psa10 value="0.00917559315053171" flag="0"/>
			<psa30 value="0.000418733936984997" flag="0"/>
		</comp>
		<comp name="00.HNN" depth="0.0">
			<acc value="0.0256440529135593" flag="0"/>
			<vel value="0.00877551649128568" flag="0"/>
			<psa03 value="0.0361566660349976" flag="0"/>
			<psa10 value="0.00527858624294117" flag="0"/>
			<psa30 value="0.000353027240488759" flag="0"/>
		</comp>
		<comp name="00.HNZ" depth="0.0">
			<acc value="0.0212896939712648" flag="0"/>
			<vel value="0.00794268244351275" flag="0"/>
			<psa03 value="0.040062281533712" flag="0"/>
			<psa10 value="0.00268975505807196" flag="0"/>
			<psa30 value="0.000198190915633675" flag="0"/>
		</comp>
	</station>
	<station code="DRES" name="DRES" netid="HA" source="Hellenic Seismological Network, University of Athens, Seismological Laboratory (HA)" insttype="" lat="38.319719" lon="21.853176">
		<comp name="--.HNE" depth="0.0">
			<acc value="0.025798353287877" flag="0"/>
			<vel value="0.00406504515199219" flag="0"/>
			<psa03 value="0.220107789394186" flag="0"/>
			<psa10 value="0.0187368018461514" flag="0"/>
			<psa30 value="0.00142874808504879" flag="0"/>
		</comp>
		<comp name="--.HNN" depth="0.0">
			<acc value="0.0257100611924734" flag="0"/>
			<vel value="0.00446647378101804" flag="0"/>
			<psa03 value="0.12643108377229" flag="0"/>
			<psa10 value="0.0126850062568964" flag="0"/>
			<psa30 value="0.00135791360094642" flag="0"/>
		</comp>
		<comp name="--.HNZ" depth="0.0">
			<acc value="0.0247384391066916" flag="0"/>
			<vel value="0.00368931762018227" flag="0"/>
			<psa03 value="0.0692050636624489" flag="0"/>
			<psa10 value="0.00549243337799404" flag="0"/>
			<psa30 value="0.00152473017255705" flag="0"/>
		</comp>
	</station>
	<station code="KIAS" name="KIAS" netid="HA" source="Hellenic Seismological Network, University of Athens, Seismological Laboratory (HA)" insttype="" lat="37.9875" lon="22.7543">
		<comp name="--.HNE" depth="0.0">
			<acc value="0.1085636241979" flag="0"/>
			<vel value="0.018746563876577" flag="0"/>
			<psa03 value="0.0381709479088181" flag="0"/>
			<psa10 value="0.00868635261571815" flag="0"/>
			<psa30 value="0.000757406789065971" flag="0"/>
		</comp>
		<comp name="--.HNN" depth="0.0">
			<acc value="0.105231249416678" flag="0"/>
			<vel value="0.0172243729977087" flag="0"/>
			<psa03 value="0.0615222161699588" flag="0"/>
			<psa10 value="0.00624481290697524" flag="0"/>
			<psa30 value="0.00109307876527005" flag="0"/>
		</comp>
		<comp name="--.HNZ" depth="0.0">
			<acc value="0.0635820038011164" flag="0"/>
			<vel value="0.00946137050010752" flag="0"/>
			<psa03 value="0.0206374166067374" flag="0"/>
			<psa10 value="0.00425915667949537" flag="0"/>
			<psa30 value="0.000518855934159914" flag="0"/>
		</comp>
	</station>
	<station code="LTRS" name="LTRS" netid="HA" source="Hellenic Seismological Network, University of Athens, Seismological Laboratory (HA)" insttype="" lat="37.97528" lon="22.9765">
		<comp name="--.HNE" depth="0.0">
			<acc value="0.0170339052949512" flag="0"/>
			<vel value="0.00750774750034999" flag="0"/>
			<psa03 value="0.0436700309460779" flag="0"/>
			<psa10 value="0.00669295775060246" flag="0"/>
			<psa30 value="0.000643270946877674" flag="0"/>
		</comp>
		<comp name="--.HNN" depth="0.0">
			<acc value="0.0191173058170051" flag="0"/>
			<vel value="0.0081007992008911" flag="0"/>
			<psa03 value="0.0396573484588593" flag="0"/>
			<psa10 value="0.0078960524497341" flag="0"/>
			<psa30 value="0.00102628517385818" flag="0"/>
		</comp>
		<comp name="--.HNZ" depth="0.0">
			<acc value="0.0227379683794278" flag="0"/>
			<vel value="0.00633654420627622" flag="0"/>
			<psa03 value="0.0217880761656" flag="0"/>
			<psa10 value="0.0058160512223594" flag="0"/>
			<psa30 value="0.000535405103379245" flag="0"/>
		</comp>
	</station>
	<station code="ARG2" name="ARG2" netid="HI" source="ITSAK Strong Motion Network" insttype="" lat="38.1783" lon="20.4878">
		<comp name="--.HNE" depth="0.0">
			<acc value="0.0180727730443635" flag="0"/>
			<vel value="0.00390563059638591" flag="0"/>
			<psa03 value="0.0171907039039332" flag="0"/>
			<psa10 value="0.00131581591634612" flag="0"/>
			<psa30 value="0.000236282215036991" flag="0"/>
		</comp>
		<comp name="--.HNN" depth="0.0">
			<acc value="0.0172381008973084" flag="0"/>
			<vel value="0.00442602687150384" flag="0"/>
			<psa03 value="0.0211091666078657" flag="0"/>
			<psa10 value="0.00124494032274905" flag="0"/>
			<psa30 value="0.000273883039240392" flag="0"/>
		</comp>
		<comp name="--.HNZ" depth="0.0">
			<acc value="0.0161094285180692" flag="0"/>
			<vel value="0.00441406561612418" flag="0"/>
			<psa03 value="0.0133054634529201" flag="0"/>
			<psa10 value="0.0011179338232546" flag="0"/>
			<psa30 value="0.000136449442751743" flag="0"/>
		</comp>
	</station>
	<station code="ARS1" name="ARS1" netid="HI" source="ITSAK Strong Motion Network" insttype="" lat="37.6349" lon="22.7293">
		<comp name="--.HNE" depth="0.0">
			<acc value="0.0261615719093776" flag="0"/>
			<vel value="0.0118711664440216" flag="0"/>
			<psa03 value="0.0510674819286055" flag="0"/>
			<psa10 value="0.00527008536728381" flag="0"/>
			<psa30 value="0.000499375268658997" flag="0"/>
		</comp>
		<comp name="--.HNN" depth="0.0">
			<acc value="0.0295717605444272" flag="0"/>
			<vel value="0.00949333011260532" flag="0"/>
			<psa03 value="0.0548226890259001" flag="0"/>
			<psa10 value="0.00769942223644872" flag="0"/>
			<psa30 value="0.000405489179376231" flag="0"/>
		</comp>
		<comp name="--.HNZ" depth="0.0">
			<acc value="0.0227010585729155" flag="0"/>
			<vel value="0.00585495254151993" flag="0"/>
			<psa03 value="0.0249936114332741" flag="0"/>
			<psa10 value="0.00199756959480599" flag="0"/>
			<psa30 value="0.000209724335916536" flag="0"/>
		</comp>
	</station>
	<station code="KLV1" name="KLV1" netid="HI" source="ITSAK Strong Motion Network" insttype="" lat="38.03256" lon="22.10797">
		<comp name="--.HNE" depth="0.0">
			<acc value="0.0308410276038685" flag="0"/>
			<vel value="0.0136882230765455" flag="0"/>
			<psa03 value="0.0803774287766578" flag="0"/>
			<psa10 value="0.00470293857784985" flag="0"/>
			<psa30 value="0.000343711258767517" flag="0"/>
		</comp>
		<comp name="--.HNN" depth="0.0">
			<acc value="0.0268550027960264" flag="0"/>
			<vel value="0.00877225191670212" flag="0"/>
			<psa03 value="0.058709811111889" flag="0"/>
			<psa10 value="0.0052458484492033" flag="0"/>
			<psa30 value="0.000355965690354883" flag="0"/>
		</comp>
		<comp name="--.HNZ" depth="0.0">
			<acc value="0.0341402449832831" flag="0"/>
			<vel value="0.00507829224087358" flag="0"/>
			<psa03 value="0.0226780700191912" flag="0"/>
			<psa10 value="0.00194813757017698" flag="0"/>
			<psa30 value="0.000141820723052045" flag="0"/>
		</comp>
	</station>
	<station code="MSL1" name="MSL1" netid="HI" source="ITSAK Strong Motion Network" insttype="" lat="38.3727" lon="21.4243">
		<comp name="--.HNE" depth="0.0">
			<acc value="0.0174233278995297" flag="0"/>
			<vel value="0.00724522164625258" flag="0"/>
			<psa03 value="0.0511498571770181" flag="0"/>
			<psa10 value="0.0107141541351428" flag="0"/>
			<psa30 value="0.000628249014246362" flag="0"/>
		</comp>
		<comp name="--.HNN" depth="0.0">
			<acc value="0.0168983543542751" flag="0"/>
			<vel value="0.00993552545032026" flag="0"/>
			<psa03 value="0.0481998492535243" flag="0"/>
			<psa10 value="0.0206076564060983" flag="0"/>
			<psa30 value="0.000823920309843647" flag="0"/>
		</comp>
		<comp name="--.HNZ" depth="0.0">
			<acc value="0.0227638624205906" flag="0"/>
			<vel value="0.00460971766237099" flag="0"/>
			<psa03 value="0.0215978682527957" flag="0"/>
			<psa10 value="0.00621934590738562" flag="0"/>
			<psa30 value="0.000214577313652074" flag="0"/>
		</comp>
	</station>
	<station code="NPS1" name="NPS1" netid="HI" source="ITSAK Strong Motion Network" insttype="" lat="36.51263" lon="23.06248">
		<comp name="--.HNE" depth="0.0">
			<acc value="0.00422941537197262" flag="0"/>
			<vel value="0.00174470230440311" flag="0"/>
			<psa03 value="0.00923802538532343" flag="0"/>
			<psa10 value="0.00102670375627246" flag="0"/>
			<psa30 value="7.66594598233099e-05" flag="0"/>
		</comp>
		<comp name="--.HNN" depth="0.0">
			<acc value="0.00594217279550305" flag="0"/>
			<vel value="0.00219676124343381" flag="0"/>
			<psa03 value="0.0125384803523576" flag="0"/>
			<psa10 value="0.00137769442955642" flag="0"/>
			<psa30 value="9.74200603717462e-05" flag="0"/>
		</comp>
		<comp name="--.HNZ" depth="0.0">
			<acc value="0.00557734890564042" flag="0"/>
			<vel value="0.00133553631928874" flag="0"/>
			<psa03 value="0.0111760476499806" flag="0"/>
			<psa10 value="0.000455871937558963" flag="0"/>
			<psa30 value="4.46560018607708e-05" flag="0"/>
		</comp>
	</station>
	<station code="SKO1" name="SKO1" netid="HI" source="ITSAK Strong Motion Network" insttype="" lat="39.123383" lon="23.728705">
		<comp name="--.HNE" depth="0.0">
			<acc value="0.00288631038535856" flag="0"/>
			<vel value="0.00102695427425463" flag="0"/>
			<psa03 value="0.00574083342703877" flag="0"/>
			<psa10 value="0.00116371861408333" flag="0"/>
			<psa30 value="6.65571304373457e-05" flag="0"/>
		</comp>
		<comp name="--.HNN" depth="0.0">
			<acc value="0.00197477870534101" flag="0"/>
			<vel value="0.00134485415029716" flag="0"/>
			<psa03 value="0.00520636312515508" flag="0"/>
			<psa10 value="0.000868097194679106" flag="0"/>
			<psa30 value="6.52800276064039e-05" flag="0"/>
		</comp>
		<comp name="--.HNZ" depth="0.0">
			<acc value="0.00169367046661898" flag="0"/>
			<vel value="0.000521772659465798" flag="0"/>
			<psa03 value="0.00255590727204074" flag="0"/>
			<psa10 value="0.000512580030129637" flag="0"/>
			<psa30 value="3.44042745570631e-05" flag="0"/>
		</comp>
	</station>
	<station code="VAS2" name="VAS2" netid="HI" source="ITSAK Strong Motion Network" insttype="" lat="38.630558" lon="20.608081">
		<comp name="--.HNE" depth="0.0">
			<acc value="0.00889218632931946" flag="0"/>
			<vel value="0.00435515210294217" flag="0"/>
			<psa03 value="0.0242218129095481" flag="0"/>
			<psa10 value="0.00966212975616806" flag="0"/>
			<psa30 value="0.0003451358583483" flag="0"/>
		</comp>
		<comp name="--.HNN" depth="0.0">
			<acc value="0.0134322161201191" flag="0"/>
			<vel value="0.00552274717052612" flag="0"/>
			<psa03 value="0.0286951352868804" flag="0"/>
			<psa10 value="0.00964013923693187" flag="0"/>
			<psa30 value="0.000623289414865573" flag="0"/>
		</comp>
		<comp name="--.HNZ" depth="0.0">
			<acc value="0.00643789138366762" flag="0"/>
			<vel value="0.00263721395771257" flag="0"/>
			<psa03 value="0.0111974748506701" flag="0"/>
			<psa10 value="0.00484592711262124" flag="0"/>
			<psa30 value="0.000221594835820396" flag="0"/>
		</comp>
	</station>
	<station code="DION" name="DION" netid="HL" source="National Observatory of Athens Seismic Network" insttype="" lat="38.07794" lon="23.93306">
		<comp name="--.HNE" depth="0.0">
			<acc value="0.0" flag="1"/>
			<vel value="0.0" flag="1"/>
			<psa03 value="0.0" flag="1"/>
			<psa10 value="0.0" flag="1"/>
			<psa30 value="0.0" flag="1"/>
		</comp>
		<comp name="--.HNN" depth="0.0">
			<acc value="0.0" flag="1"/>
			<vel value="0.0" flag="1"/>
			<psa03 value="0.0" flag="1"/>
			<psa10 value="0.0" flag="1"/>
			<psa30 value="0.0" flag="1"/>
		</comp>
		<comp name="--.HNZ" depth="0.0">
			<acc value="0.0" flag="1"/>
			<vel value="0.0" flag="1"/>
			<psa03 value="0.0" flag="1"/>
			<psa10 value="0.0" flag="1"/>
			<psa30 value="0.0" flag="1"/>
		</comp>
	</station>
	<station code="DLFA" name="DLFA" netid="HL" source="National Observatory of Athens Seismic Network" insttype="" lat="38.47836" lon="22.49583">
		<comp name="00.HNE" depth="0.0">
			<acc value="0.0198189742299829" flag="0"/>
			<vel value="0.00876758446203491" flag="0"/>
			<psa03 value="0.0215535007303014" flag="0"/>
			<psa10 value="0.00408851850053853" flag="0"/>
			<psa30 value="0.000322896077780639" flag="0"/>
		</comp>
		<comp name="00.HNN" depth="0.0">
			<acc value="0.0135662701022477" flag="0"/>
			<vel value="0.00451572804896749" flag="0"/>
			<psa03 value="0.0138407502151091" flag="0"/>
			<psa10 value="0.00254124311050817" flag="0"/>
			<psa30 value="0.000168658282158461" flag="0"/>
		</comp>
		<comp name="00.HNZ" depth="0.0">
			<acc value="0.0209654105813876" flag="0"/>
			<vel value="0.00612964014521616" flag="0"/>
			<psa03 value="0.0201212535072265" flag="0"/>
			<psa10 value="0.00352306940168118" flag="0"/>
			<psa30 value="0.000218275905020162" flag="0"/>
		</comp>
	</station>
	<station code="GINA" name="GINA" netid="HL" source="National Observatory of Athens Seismic Network" insttype="" lat="39.66886" lon="22.389">
		<comp name="00.HNE" depth="0.0">
			<acc value="0.00330904515311933" flag="0"/>
			<vel value="0.000999221156721273" flag="0"/>
			<psa03 value="0.00547475916029809" flag="0"/>
			<psa10 value="0.000771806636214733" flag="0"/>
			<psa30 value="0.000193101229508606" flag="0"/>
		</comp>
		<comp name="00.HNN" depth="0.0">
			<acc value="0.00370904729362734" flag="0"/>
			<vel value="0.00126258987985245" flag="0"/>
			<psa03 value="0.00562249876502057" flag="0"/>
			<psa10 value="0.000921060136808157" flag="0"/>
			<psa30 value="0.000206974101643583" flag="0"/>
		</comp>
		<comp name="00.HNZ" depth="0.0">
			<acc value="0.00848183943782034" flag="0"/>
			<vel value="0.00154794946503263" flag="0"/>
			<psa03 value="0.0033594731996553" flag="0"/>
			<psa10 value="0.000717812082776118" flag="0"/>
			<psa30 value="8.02400746255542e-05" flag="0"/>
		</comp>
	</station>
	<station code="ITM" name="ITM" netid="HL" source="National Observatory of Athens Seismic Network" insttype="" lat="37.17872" lon="21.92522">
		<comp name="--.HNE" depth="0.0">
			<acc value="0.00642512766581714" flag="0"/>
			<vel value="0.00379221019473154" flag="0"/>
			<psa03 value="0.017252645507253" flag="0"/>
			<psa10 value="0.00338994050441998" flag="0"/>
			<psa30 value="0.00023646892011358" flag="0"/>
		</comp>
		<comp name="--.HNN" depth="0.0">
			<acc value="0.00666070705998589" flag="0"/>
			<vel value="0.00255739573987135" flag="0"/>
			<psa03 value="0.0164680818150238" flag="0"/>
			<psa10 value="0.00282326929336176" flag="0"/>
			<psa30 value="0.000240918277362064" flag="0"/>
		</comp>
		<comp name="--.HNZ" depth="0.0">
			<acc value="0.0130686110188399" flag="0"/>
			<vel value="0.00219099189288833" flag="0"/>
			<psa03 value="0.00677118814130648" flag="0"/>
			<psa10 value="0.00152491277579879" flag="0"/>
			<psa30 value="0.000298906624013667" flag="0"/>
		</comp>
	</station>
	<station code="MNVA" name="MNVA" netid="HL" source="National Observatory of Athens Seismic Network" insttype="" lat="36.68709" lon="23.03734">
		<comp name="00.HNE" depth="0.0">
			<acc value="0.00294032055011493" flag="0"/>
			<vel value="0.000855250691550805" flag="0"/>
			<psa03 value="0.00546400844812739" flag="0"/>
			<psa10 value="0.00053324360602317" flag="0"/>
			<psa30 value="0.000166930836994333" flag="0"/>
		</comp>
		<comp name="00.HNN" depth="0.0">
			<acc value="0.00356557472118107" flag="0"/>
			<vel value="0.000815627884261319" flag="0"/>
			<psa03 value="0.00353618184583879" flag="0"/>
			<psa10 value="0.000365813061445053" flag="0"/>
			<psa30 value="0.000150006655954629" flag="0"/>
		</comp>
		<comp name="00.HNZ" depth="0.0">
			<acc value="0.00251039992016324" flag="0"/>
			<vel value="0.000678201401065693" flag="0"/>
			<psa03 value="0.00232021245919707" flag="0"/>
			<psa10 value="0.000536018614070692" flag="0"/>
			<psa30 value="0.00012581031348243" flag="0"/>
		</comp>
	</station>
