<?xml version="1.0" encoding="UTF-8" standalone="yes"?>
<!DOCTYPE earthquake SYSTEM "stationlist.dtd">
<stationlist created="" xmlns="ch.ethz.sed.shakemap.usgs.xml">
  <station code="AIGS" name="AIGS" netid="HA" insttype="DC" lat="38.25" lon="22.0878">
    <comp name="--.HNZ">
      <acc value="0.0441166653" flag="0"/>
      <vel value="0.0088497527" flag="0"/>
      <psa03 value="0.0248627514" flag="0"/>
      <psa10 value="0.0025710110" flag="0"/>
      <psa30 value="0.0005376268" flag="0"/>
    </comp>
    <comp name="--.HNE">
      <acc value="0.0394162256" flag="0"/>
      <vel value="0.0135800550" flag="0"/>
      <psa03 value="0.0498562660" flag="0"/>
      <psa10 value="0.0048687052" flag="0"/>
      <psa30 value="0.0005999843" flag="0"/>
    </comp>
    <comp name="--.HNN">
      <acc value="0.0452450208" flag="0"/>
      <vel value="0.0125795330" flag="0"/>
      <psa03 value="0.0568516857" flag="0"/>
      <psa10 value="0.0033818048" flag="0"/>
      <psa30 value="0.0007262646" flag="0"/>
    </comp>
  </station>
  <station code="CORS" name="CORS" netid="HA" insttype="DC" lat="38.2562" lon="22.0748">
    <comp name="00.HNE">
      <acc value="0.0271845279" flag="0"/>
      <vel value="0.0105513724" flag="0"/>
      <psa03 value="0.0459700859" flag="0"/>
      <psa10 value="0.0091652123" flag="0"/>
      <psa30 value="0.0004002122" flag="0"/>
    </comp>
    <comp name="00.HNZ">
      <acc value="0.0234625744" flag="0"/>
      <vel value="0.0079129721" flag="0"/>
      <psa03 value="0.0403864126" flag="0"/>
      <psa10 value="0.0026805886" flag="0"/>
      <psa30 value="0.0001704906" flag="0"/>
    </comp>
    <comp name="00.HNN">
      <acc value="0.0259572888" flag="0"/>
      <vel value="0.0087415972" flag="0"/>
      <psa03 value="0.0365443881" flag="0"/>
      <psa10 value="0.0052704116" flag="0"/>
      <psa30 value="0.0003380484" flag="0"/>
    </comp>
  </station>
  <station code="DOMV" name="DOMV" netid="HA" insttype="60" lat="38.2569" lon="22.9795">
    <comp name="--.HHE">
      <acc value="0.0560674781" flag="0"/>
      <vel value="0.0142049209" flag="0"/>
      <psa03 value="0.0626290738" flag="0"/>
      <psa10 value="0.0034714147" flag="0"/>
      <psa30 value="0.0003040861" flag="0"/>
    </comp>
    <comp name="--.HHN">
      <acc value="0.0815829063" flag="0"/>
      <vel value="0.0179906167" flag="0"/>
      <psa03 value="0.0865325167" flag="0"/>
      <psa10 value="0.0066715803" flag="0"/>
      <psa30 value="0.0004645045" flag="0"/>
    </comp>
    <comp name="--.HHZ">
      <acc value="0.0521648362" flag="0"/>
      <vel value="0.0103002955" flag="0"/>
      <psa03 value="0.0271711629" flag="0"/>
      <psa10 value="0.0021288427" flag="0"/>
      <psa30 value="0.0001950610" flag="0"/>
    </comp>
  </station>
  <station code="DRES" name="DRES" netid="HA" insttype="DC" lat="38.3197" lon="21.8532">
    <comp name="--.HNZ">
      <acc value="0.0902716706" flag="0"/>
      <vel value="0.0205956775" flag="0"/>
      <psa03 value="0.0696592671" flag="0"/>
      <psa10 value="0.0054709736" flag="0"/>
      <psa30 value="0.0014031753" flag="0"/>
    </comp>
    <comp name="--.HNN">
      <acc value="0.0577441623" flag="0"/>
      <vel value="0.0228608600" flag="0"/>
      <psa03 value="0.1267981431" flag="0"/>
      <psa10 value="0.0126510009" flag="0"/>
      <psa30 value="0.0012309847" flag="0"/>
    </comp>
    <comp name="--.HNE">
      <acc value="0.0730874920" flag="0"/>
      <vel value="0.0302465973" flag="0"/>
      <psa03 value="0.2201175563" flag="0"/>
      <psa10 value="0.0187655249" flag="0"/>
      <psa30 value="0.0013280594" flag="0"/>
    </comp>
  </station>
  <station code="EPID" name="EPID" netid="HA" insttype="30" lat="37.6144" lon="23.1189">
    <comp name="--.HHZ">
      <acc value="0.0255592738" flag="0"/>
      <vel value="0.0045306499" flag="0"/>
      <psa03 value="0.0148982748" flag="0"/>
      <psa10 value="0.0016986409" flag="0"/>
      <psa30 value="0.0001844675" flag="0"/>
    </comp>
    <comp name="--.HHE">
      <acc value="0.0299280507" flag="0"/>
      <vel value="0.0071508132" flag="0"/>
      <psa03 value="0.0209808052" flag="0"/>
      <psa10 value="0.0027113317" flag="0"/>
      <psa30 value="0.0001815387" flag="0"/>
    </comp>
    <comp name="--.HHN">
      <acc value="0.0451887540" flag="0"/>
      <vel value="0.0068689077" flag="0"/>
      <psa03 value="0.0227535113" flag="0"/>
      <psa10 value="0.0021070732" flag="0"/>
      <psa30 value="0.0001661215" flag="0"/>
    </comp>
  </station>
  <station code="KALE" name="KALE" netid="HA" insttype="40," lat="38.3911" lon="22.1398">
    <comp name="--.HHE">
      <acc value="0.0686735892" flag="0"/>
      <vel value="0.0209603052" flag="0"/>
      <psa03 value="0.1518971140" flag="0"/>
      <psa10 value="0.0076499130" flag="0"/>
      <psa30 value="0.0006134905" flag="0"/>
    </comp>
    <comp name="--.HHN">
      <acc value="0.0975548057" flag="0"/>
      <vel value="0.0233734775" flag="0"/>
      <psa03 value="0.1002606213" flag="0"/>
      <psa10 value="0.0117246362" flag="0"/>
      <psa30 value="0.0007626499" flag="0"/>
    </comp>
    <comp name="--.HHZ">
      <acc value="0.0591628777" flag="0"/>
      <vel value="0.0112736707" flag="0"/>
      <psa03 value="0.0418123380" flag="0"/>
      <psa10 value="0.0039859252" flag="0"/>
      <psa30 value="0.0002904520" flag="0"/>
    </comp>
  </station>
  <station code="KIAS" name="KIAS" netid="HA" insttype="DC" lat="37.9875" lon="22.7543">
    <comp name="--.HNE">
      <acc value="0.1150915154" flag="0"/>
      <vel value="0.0181794411" flag="0"/>
      <psa03 value="0.0375453509" flag="0"/>
      <psa10 value="0.0086681856" flag="0"/>
      <psa30 value="0.0007392089" flag="0"/>
    </comp>
    <comp name="--.HNZ">
      <acc value="0.0691677485" flag="0"/>
      <vel value="0.0096323986" flag="0"/>
      <psa03 value="0.0206551502" flag="0"/>
      <psa10 value="0.0042214427" flag="0"/>
      <psa30 value="0.0004741446" flag="0"/>
    </comp>
    <comp name="--.HNN">
      <acc value="0.1111979408" flag="0"/>
      <vel value="0.0166096208" flag="0"/>
      <psa03 value="0.0606286531" flag="0"/>
      <psa10 value="0.0062645142" flag="0"/>
      <psa30 value="0.0009927202" flag="0"/>
    </comp>
  </station>
  <station code="LAKA" name="LAKA" netid="HA" insttype="120s" lat="38.2401" lon="21.9785">
    <comp name="--.HHZ">
      <acc value="0.0266639745" flag="0"/>
      <vel value="0.0050529374" flag="0"/>
      <psa03 value="0.0249980368" flag="0"/>
      <psa10 value="0.0019178404" flag="0"/>
      <psa30 value="0.0001610888" flag="0"/>
    </comp>
    <comp name="--.HHN">
      <acc value="0.0004172497" flag="0"/>
      <vel value="0.0000418747" flag="0"/>
      <psa03 value="0.0000861071" flag="0"/>
      <psa10 value="0.0000375416" flag="0"/>
      <psa30 value="0.0000046223" flag="0"/>
    </comp>
    <comp name="--.HHE">
      <acc value="0.0002869952" flag="0"/>
      <vel value="0.0000301850" flag="0"/>
      <psa03 value="0.0000626871" flag="0"/>
      <psa10 value="0.0000269282" flag="0"/>
      <psa30 value="0.0000033028" flag="0"/>
    </comp>
  </station>
  <station code="LOUT" name="LOUT" netid="HA" insttype="30" lat="37.9879" lon="22.9743">
    <comp name="--.HHN">
      <acc value="0.0361937874" flag="0"/>
      <vel value="0.0070406889" flag="0"/>
      <psa03 value="0.0222940813" flag="0"/>
      <psa10 value="0.0029936656" flag="0"/>
      <psa30 value="0.0001916702" flag="0"/>
    </comp>
    <comp name="--.HHZ">
      <acc value="0.0298539661" flag="0"/>
      <vel value="0.0058236955" flag="0"/>
      <psa03 value="0.0166393963" flag="0"/>
      <psa10 value="0.0013679977" flag="0"/>
      <psa30 value="0.0001024024" flag="0"/>
    </comp>
    <comp name="--.HHE">
      <acc value="0.0350286785" flag="0"/>
      <vel value="0.0079821572" flag="0"/>
      <psa03 value="0.0279892940" flag="0"/>
      <psa10 value="0.0037488403" flag="0"/>
      <psa30 value="0.0002461843" flag="0"/>
    </comp>
  </station>
  <station code="THAL" name="THAL" netid="HA" insttype="30" lat="38.0357" lon="22.6634">
    <comp name="--.HHN">
      <acc value="0.1000196094" flag="0"/>
      <vel value="0.0205447681" flag="0"/>
      <psa03 value="0.1124987818" flag="0"/>
      <psa10 value="0.0069633107" flag="0"/>
      <psa30 value="0.0006799296" flag="0"/>
    </comp>
    <comp name="--.HHE">
      <acc value="0.0976113317" flag="0"/>
      <vel value="0.0238983719" flag="0"/>
      <psa03 value="0.1336151729" flag="0"/>
      <psa10 value="0.0074741822" flag="0"/>
      <psa30 value="0.0005178684" flag="0"/>
    </comp>
    <comp name="--.HHZ">
      <acc value="0.0712482710" flag="0"/>
      <vel value="0.0137054658" flag="0"/>
      <psa03 value="0.0427414734" flag="0"/>
      <psa10 value="0.0065935341" flag="0"/>
      <psa30 value="0.0002878724" flag="0"/>
    </comp>
  </station>
  <station code="ARS1" name="ARS1" netid="HI" insttype="CMG-5TD,ACCELEROMETER,GURALP" lat="37.6349" lon="22.7293">
    <comp name="--.HNZ">
      <acc value="0.0247839332" flag="0"/>
      <vel value="0.0058073417" flag="0"/>
      <psa03 value="0.0248069428" flag="0"/>
      <psa10 value="0.0020036813" flag="0"/>
      <psa30 value="0.0002697040" flag="0"/>
    </comp>
    <comp name="--.HNN">
      <acc value="0.0298903354" flag="0"/>
      <vel value="0.0094292004" flag="0"/>
      <psa03 value="0.0535797531" flag="0"/>
      <psa10 value="0.0077006455" flag="0"/>
      <psa30 value="0.0004127319" flag="0"/>
    </comp>
    <comp name="--.HNE">
      <acc value="0.0271221765" flag="0"/>
      <vel value="0.0118232935" flag="0"/>
      <psa03 value="0.0505501360" flag="0"/>
      <psa10 value="0.0052855308" flag="0"/>
      <psa30 value="0.0005603000" flag="0"/>
    </comp>
  </station>
  <station code="KLV1" name="KLV1" netid="HI" insttype="CMG-5TD,ACCELEROMETER,GURALP" lat="38.0326" lon="22.108">
    <comp name="--.HNN">
      <acc value="0.0271324368" flag="0"/>
      <vel value="0.0087808068" flag="0"/>
      <psa03 value="0.0570745271" flag="0"/>
      <psa10 value="0.0052287340" flag="0"/>
      <psa30 value="0.0003476663" flag="0"/>
    </comp>
    <comp name="--.HNZ">
      <acc value="0.0349032561" flag="0"/>
      <vel value="0.0048077877" flag="0"/>
      <psa03 value="0.0223245843" flag="0"/>
      <psa10 value="0.0019468842" flag="0"/>
      <psa30 value="0.0001293557" flag="0"/>
    </comp>
    <comp name="--.HNE">
      <acc value="0.0308177615" flag="0"/>
      <vel value="0.0136108914" flag="0"/>
      <psa03 value="0.0792740214" flag="0"/>
      <psa10 value="0.0046867828" flag="0"/>
      <psa30 value="0.0003418673" flag="0"/>
    </comp>
  </station>
  <station code="MSL1" name="MSL1" netid="HI" insttype="CMG-5TD,ACCELEROMETER,GURALP" lat="38.3727" lon="21.4243">
    <comp name="--.HNE">
      <acc value="0.0173411113" flag="0"/>
      <vel value="0.0073059628" flag="0"/>
      <psa03 value="0.0503763588" flag="0"/>
      <psa10 value="0.0107427044" flag="0"/>
      <psa30 value="0.0006899480" flag="0"/>
    </comp>
    <comp name="--.HNN">
      <acc value="0.0170078774" flag="0"/>
      <vel value="0.0099688210" flag="0"/>
      <psa03 value="0.0476826665" flag="0"/>
      <psa10 value="0.0206744892" flag="0"/>
      <psa30 value="0.0009116248" flag="0"/>
    </comp>
    <comp name="--.HNZ">
      <acc value="0.0245618685" flag="0"/>
      <vel value="0.0045573441" flag="0"/>
      <psa03 value="0.0208079804" flag="0"/>
      <psa10 value="0.0062508616" flag="0"/>
      <psa30 value="0.0002376663" flag="0"/>
    </comp>
  </station>
  <station code="DLFA" name="DLFA" netid="HL" insttype="CMG-5" lat="38.4784" lon="22.4958">
    <comp name="00.HNZ">
      <acc value="0.0210183792" flag="0"/>
      <vel value="0.0061161413" flag="0"/>
      <psa03 value="0.0201217745" flag="0"/>
      <psa10 value="0.0035240692" flag="0"/>
      <psa30 value="0.0002080864" flag="0"/>
    </comp>
    <comp name="00.HNE">
      <acc value="0.0199743314" flag="0"/>
      <vel value="0.0087952816" flag="0"/>
      <psa03 value="0.0213709995" flag="0"/>
      <psa10 value="0.0040924868" flag="0"/>
      <psa30 value="0.0003035299" flag="0"/>
    </comp>
    <comp name="00.HNN">
      <acc value="0.0137524417" flag="0"/>
      <vel value="0.0044770278" flag="0"/>
      <psa03 value="0.0137961208" flag="0"/>
      <psa10 value="0.0025386817" flag="0"/>
      <psa30 value="0.0001611974" flag="0"/>
    </comp>
  </station>
  <station code="ITM" name="ITM" netid="HL" insttype="DR24" lat="37.1787" lon="21.9252">
    <comp name="--.HHE">
      <acc value="0.0066552530" flag="0"/>
      <vel value="0.0039052661" flag="0"/>
      <psa03 value="0.0176162063" flag="0"/>
      <psa10 value="0.0035097559" flag="0"/>
      <psa30 value="0.0002252934" flag="0"/>
    </comp>
    <comp name="--.HHN">
      <acc value="0.0064992750" flag="0"/>
      <vel value="0.0026055097" flag="0"/>
      <psa03 value="0.0170036394" flag="0"/>
      <psa10 value="0.0029199443" flag="0"/>
      <psa30 value="0.0002661073" flag="0"/>
    </comp>
    <comp name="--.HHZ">
      <acc value="0.0116038541" flag="0"/>
      <vel value="0.0023865632" flag="0"/>
      <psa03 value="0.0074181940" flag="0"/>
      <psa10 value="0.0015847610" flag="0"/>
      <psa30 value="0.0003026114" flag="0"/>
    </comp>
  </station>
  <station code="KLV" name="KLV" netid="HL" insttype="120" lat="38.0435" lon="22.1504">
    <comp name="--.HHN">
      <acc value="0.0107543195" flag="0"/>
      <vel value="0.0036949889" flag="0"/>
      <psa03 value="0.0200961048" flag="0"/>
      <psa10 value="0.0023147070" flag="0"/>
      <psa30 value="0.0001248405" flag="0"/>
    </comp>
    <comp name="--.HHE">
      <acc value="0.0105960502" flag="0"/>
      <vel value="0.0037814720" flag="0"/>
      <psa03 value="0.0162097744" flag="0"/>
      <psa10 value="0.0029935676" flag="0"/>
      <psa30 value="0.0001295130" flag="0"/>
    </comp>
    <comp name="--.HHZ">
      <acc value="0.0142038860" flag="0"/>
      <vel value="0.0025986915" flag="0"/>
      <psa03 value="0.0130393926" flag="0"/>
      <psa10 value="0.0018558884" flag="0"/>
      <psa30 value="0.0001020964" flag="0"/>
    </comp>
  </station>
  <station code="PATC" name="PATC" netid="HL" insttype="CMG-5" lat="38.2693" lon="21.76">
    <comp name="00.HNE">
      <acc value="0.0628686140" flag="0"/>
      <vel value="0.0305293532" flag="0"/>
      <psa03 value="0.1665106565" flag="0"/>
      <psa10 value="0.0159536068" flag="0"/>
      <psa30 value="0.0012719795" flag="0"/>
    </comp>
    <comp name="00.HNN">
      <acc value="0.0667027804" flag="0"/>
      <vel value="0.0264695844" flag="0"/>
      <psa03 value="0.1497151048" flag="0"/>
      <psa10 value="0.0131604314" flag="0"/>
      <psa30 value="0.0016347519" flag="0"/>
    </comp>
    <comp name="00.HNZ">
      <acc value="0.2018063179" flag="0"/>
      <vel value="0.0563044717" flag="0"/>
      <psa03 value="0.1567844529" flag="0"/>
      <psa10 value="0.0093018148" flag="0"/>
      <psa30 value="0.0010644204" flag="0"/>
    </comp>
  </station>
  <station code="PATG" name="PATG" netid="HL" insttype="CMG-5" lat="38.2386" lon="21.7266">
    <comp name="00.HNE">
      <acc value="0.1037429611" flag="0"/>
      <vel value="0.0501601660" flag="0"/>
      <psa03 value="0.1301753466" flag="0"/>
      <psa10 value="0.0596345487" flag="0"/>
      <psa30 value="0.0044226072" flag="0"/>
    </comp>
    <comp name="00.HNN">
      <acc value="0.0726872543" flag="0"/>
      <vel value="0.0316632435" flag="0"/>
      <psa03 value="0.1989235539" flag="0"/>
      <psa10 value="0.0164078786" flag="0"/>
      <psa30 value="0.0014837468" flag="0"/>
    </comp>
    <comp name="00.HNZ">
      <acc value="0.0960068052" flag="0"/>
      <vel value="0.0399319015" flag="0"/>
      <psa03 value="0.1373634507" flag="0"/>
      <psa10 value="0.0112244063" flag="0"/>
      <psa30 value="0.0010973018" flag="0"/>
    </comp>
  </station>
  <station code="RIOA" name="RIOA" netid="HL" insttype="CMG-5" lat="38.2959" lon="21.7912">
    <comp name="00.HNZ">
      <acc value="0.2154137630" flag="0"/>
      <vel value="0.0637871965" flag="0"/>
      <psa03 value="0.1402059257" flag="0"/>
      <psa10 value="0.0094606819" flag="0"/>
      <psa30 value="0.0007152587" flag="0"/>
    </comp>
    <comp name="00.HNE">
      <acc value="0.0806109778" flag="0"/>
      <vel value="0.0415963934" flag="0"/>
      <psa03 value="0.1965431204" flag="0"/>
      <psa10 value="0.0225810376" flag="0"/>
      <psa30 value="0.0014913147" flag="0"/>
    </comp>
    <comp name="00.HNN">
      <acc value="0.0822718124" flag="0"/>
      <vel value="0.0386318144" flag="0"/>
      <psa03 value="0.2900640558" flag="0"/>
      <psa10 value="0.0206047433" flag="0"/>
      <psa30 value="0.0012630301" flag="0"/>
    </comp>
  </station>
  <station code="RLS" name="RLS" netid="HL" insttype="CMG3ESPC-120s" lat="38.0559" lon="21.4647">
    <comp name="--.HHE">
      <acc value="0.0162317862" flag="0"/>
      <vel value="0.0055610516" flag="0"/>
      <psa03 value="0.0187360544" flag="0"/>
      <psa10 value="0.0019737673" flag="0"/>
      <psa30 value="0.0001814255" flag="0"/>
    </comp>
    <comp name="--.HHN">
      <acc value="0.0167733935" flag="0"/>
      <vel value="0.0060566353" flag="0"/>
      <psa03 value="0.0283991275" flag="0"/>
      <psa10 value="0.0041198028" flag="0"/>
      <psa30 value="0.0002943655" flag="0"/>
    </comp>
    <comp name="--.HHZ">
      <acc value="0.0651637385" flag="0"/>
      <vel value="0.0129894348" flag="0"/>
      <psa03 value="0.0271272971" flag="0"/>
      <psa10 value="0.0027684341" flag="0"/>
      <psa30 value="0.0002384216" flag="0"/>
    </comp>
  </station>
  <station code="AMT" name="AMT" netid="HP" insttype="CMG-3T," lat="37.5324" lon="21.7089">
    <comp name="00.HHN">
      <acc value="0.0419001499" flag="0"/>
      <vel value="0.0180330904" flag="0"/>
      <psa03 value="0.0794585751" flag="0"/>
      <psa10 value="0.0111335320" flag="0"/>
      <psa30 value="0.0007527012" flag="0"/>
    </comp>
    <comp name="00.HHE">
      <acc value="0.0316658345" flag="0"/>
      <vel value="0.0121222594" flag="0"/>
      <psa03 value="0.0796348522" flag="0"/>
      <psa10 value="0.0075285192" flag="0"/>
      <psa30 value="0.0006117211" flag="0"/>
    </comp>
    <comp name="00.HHZ">
      <acc value="0.0418914413" flag="0"/>
      <vel value="0.0102161495" flag="0"/>
      <psa03 value="0.0526788955" flag="0"/>
      <psa10 value="0.0057721899" flag="0"/>
      <psa30 value="0.0003672009" flag="0"/>
    </comp>
  </station>
  <station code="ANX" name="ANX" netid="HP" insttype="120" lat="38.5933" lon="21.9209">
    <comp name="--.HHE">
      <acc value="0.0309712573" flag="0"/>
      <vel value="0.0112511031" flag="0"/>
      <psa03 value="0.0653165255" flag="0"/>
      <psa10 value="0.0085762133" flag="0"/>
      <psa30 value="0.0005810831" flag="0"/>
    </comp>
    <comp name="--.HHN">
      <acc value="0.0304768182" flag="0"/>
      <vel value="0.0118230357" flag="0"/>
      <psa03 value="0.0614973559" flag="0"/>
      <psa10 value="0.0121234528" flag="0"/>
      <psa30 value="0.0005897215" flag="0"/>
    </comp>
    <comp name="--.HHZ">
      <acc value="0.0179228891" flag="0"/>
      <vel value="0.0059333849" flag="0"/>
      <psa03 value="0.0366068060" flag="0"/>
      <psa10 value="0.0037388609" flag="0"/>
      <psa30 value="0.0001803770" flag="0"/>
    </comp>
  </station>
  <station code="AXS" name="AXS" netid="HP" insttype="40," lat="38.1962" lon="21.3763">
    <comp name="--.HHN">
      <acc value="0.0042025678" flag="0"/>
      <vel value="0.0014271391" flag="0"/>
      <psa03 value="0.0071698234" flag="0"/>
      <psa10 value="0.0007748041" flag="0"/>
      <psa30 value="0.0000643923" flag="0"/>
    </comp>
    <comp name="--.HHZ">
      <acc value="0.0051266434" flag="0"/>
      <vel value="0.0013583581" flag="0"/>
