<stationlist xmlns:esm="https://esm-db.eu/esmws/shakemap/1/" created="1784080455">
	<station code="AGRP" name="AGRP" netid="CL" source="Corinth Riff Laboratory (CRLNET)" insttype="" lat="38.3959" lon="21.72277" esm:processing="automatic (Paolucci et al 2011)" esm:quality="best">
		<comp name="00.HNE" depth="0.0">
			<acc value="0.0252412543450851" flag="0"/>
			<vel value="0.0141779436279856" flag="0"/>
			<psa03 value="0.0542417651255789" flag="0"/>
			<psa10 value="0.00975939151177394" flag="0"/>
			<psa30 value="0.000775721960688034" flag="0"/>
		</comp>
		<comp name="00.HNN" depth="0.0">
			<acc value="0.0290266648677437" flag="0"/>
			<vel value="0.0117110149950561" flag="0"/>
			<psa03 value="0.0881433078114596" flag="0"/>
			<psa10 value="0.00646278531529886" flag="0"/>
			<psa30 value="0.000596907927637042" flag="0"/>
		</comp>
		<comp name="00.HNZ" depth="0.0">
			<acc value="0.0561538293743169" flag="0"/>
			<vel value="0.010209185512609" flag="0"/>
			<psa03 value="0.0397123781459681" flag="0"/>
			<psa10 value="0.0042482931473317" flag="0"/>
			<psa30 value="0.000410190141833954" flag="0"/>
		</comp>
	</station>
	<station code="MALA" name="MALA" netid="CL" source="Corinth Riff Laboratory (CRLNET)" insttype="" lat="38.39341" lon="21.87263" esm:processing="automatic (Paolucci et al 2011)" esm:quality="good">
		<comp name="01.HNE" depth="0.0">
			<acc value="0.0762360573990861" flag="0"/>
			<vel value="0.0242189332460452" flag="0"/>
			<psa03 value="0.0867466007030407" flag="0"/>
			<psa10 value="0.0227410321067595" flag="0"/>
			<psa30 value="0.00345349836065121" flag="0"/>
		</comp>
		<comp name="01.HNN" depth="0.0">
			<acc value="0.0524869703179688" flag="0"/>
			<vel value="0.021773328626994" flag="0"/>
			<psa03 value="0.116865283418253" flag="0"/>
			<psa10 value="0.0154432155372564" flag="0"/>
			<psa30 value="0.00347259358394801" flag="0"/>
		</comp>
		<comp name="01.HNZ" depth="0.0">
			<acc value="0.0274763500128433" flag="0"/>
			<vel value="0.0125375137584906" flag="0"/>
			<psa03 value="0.0311603038005484" flag="0"/>
			<psa10 value="0.00715188127703559" flag="0"/>
			<psa30 value="0.00347854356144131" flag="0"/>
		</comp>
	</station>
	<station code="ROD3" name="ROD3" netid="CL" source="Corinth Riff Laboratory (CRLNET)" insttype="" lat="38.30811" lon="21.89204" esm:processing="manual (Paolucci et al 2011)" esm:quality="best">
		<comp name="00.HNE" depth="0.0">
			<acc value="0.130472072114971" flag="0"/>
			<vel value="0.0465817724357701" flag="0"/>
			<psa03 value="0.318171223115229" flag="0"/>
			<psa10 value="0.0129987698547167" flag="0"/>
			<psa30 value="0.00106031013617428" flag="0"/>
		</comp>
		<comp name="00.HNN" depth="0.0">
			<acc value="0.109500244846594" flag="0"/>
			<vel value="0.044049638357792" flag="0"/>
			<psa03 value="0.296545061321421" flag="0"/>
			<psa10 value="0.0113071396675015" flag="0"/>
			<psa30 value="0.000909898297130271" flag="0"/>
		</comp>
		<comp name="00.HNZ" depth="0.0">
			<acc value="0.0833523683845244" flag="0"/>
			<vel value="0.0264333301722735" flag="0"/>
			<psa03 value="0.0892596317627134" flag="0"/>
			<psa10 value="0.00406102589803526" flag="0"/>
			<psa30 value="0.000336554795103325" flag="0"/>
		</comp>
	</station>
	<station code="AIGS" name="AIGS" netid="HA" source="Hellenic Seismological Network, University of Athens, Seismological Laboratory (HA)" insttype="" lat="38.25001" lon="22.0878" esm:processing="manual (Paolucci et al 2011)" esm:quality="good">
		<comp name="--.HNE" depth="0.0">
			<acc value="0.0386785012015248" flag="0"/>
			<vel value="0.0137341292329934" flag="0"/>
			<psa03 value="0.050604638767297" flag="0"/>
			<psa10 value="0.00487023434787367" flag="0"/>
			<psa30 value="0.00034518263228032" flag="0"/>
		</comp>
		<comp name="--.HNN" depth="0.0">
			<acc value="0.0446710983346287" flag="0"/>
			<vel value="0.0126975153621047" flag="0"/>
			<psa03 value="0.0575397440173174" flag="0"/>
			<psa10 value="0.00325608546530704" flag="0"/>
			<psa30 value="0.000438344715269435" flag="0"/>
		</comp>
		<comp name="--.HNZ" depth="0.0">
			<acc value="0.0434599210711112" flag="0"/>
			<vel value="0.00901450195835791" flag="0"/>
			<psa03 value="0.0255892706844305" flag="0"/>
			<psa10 value="0.00253250268774918" flag="0"/>
			<psa30 value="0.000283367365447266" flag="0"/>
		</comp>
	</station>
	<station code="CORS" name="CORS" netid="HA" source="Hellenic Seismological Network, University of Athens, Seismological Laboratory (HA)" insttype="" lat="38.2562" lon="22.0748" esm:processing="automatic (Paolucci et al 2011)" esm:quality="best">
		<comp name="00.HNE" depth="0.0">
			<acc value="0.0267138440001432" flag="0"/>
			<vel value="0.0105408140486" flag="0"/>
			<psa03 value="0.0466719928320302" flag="0"/>
			<psa10 value="0.00917559315053171" flag="0"/>
			<psa30 value="0.000418733936984997" flag="0"/>
		</comp>
		<comp name="00.HNN" depth="0.0">
			<acc value="0.0256440529135593" flag="0"/>
			<vel value="0.00877551649128568" flag="0"/>
			<psa03 value="0.0361566660349976" flag="0"/>
			<psa10 value="0.00527858624294117" flag="0"/>
			<psa30 value="0.000353027240488759" flag="0"/>
		</comp>
		<comp name="00.HNZ" depth="0.0">
			<acc value="0.0212896939712648" flag="0"/>
			<vel value="0.00794268244351275" flag="0"/>
			<psa03 value="0.040062281533712" flag="0"/>
			<psa10 value="0.00268975505807196" flag="0"/>
			<psa30 value="0.000198190915633675" flag="0"/>
		</comp>
	</station>
	<station code="KIAS" name="KIAS" netid="HA" source="Hellenic Seismological Network, University of Athens, Seismological Laboratory (HA)" insttype="" lat="37.9875" lon="22.7543" esm:processing="manual (Paolucci et al 2011)" esm:quality="good">
		<comp name="--.HNE" depth="0.0">
			<acc value="0.108421054845331" flag="0"/>
			<vel value="0.0188176373705052" flag="0"/>
			<psa03 value="0.0383657160195638" flag="0"/>
			<psa10 value="0.00851490344556429" flag="0"/>
			<psa30 value="0.000544925525725057" flag="0"/>
		</comp>
		<comp name="--.HNN" depth="0.0">
			<acc value="0.105098119396093" flag="0"/>
			<vel value="0.0171581383413422" flag="0"/>
			<psa03 value="0.0618636502465511" flag="0"/>
			<psa10 value="0.0061640634952049" flag="0"/>
			<psa30 value="0.000564668812787596" flag="0"/>
		</comp>
		<comp name="--.HNZ" depth="0.0">
			<acc value="0.0634885099884318" flag="0"/>
			<vel value="0.00957192426495769" flag="0"/>
			<psa03 value="0.0206869771815452" flag="0"/>
			<psa10 value="0.00414347276598564" flag="0"/>
			<psa30 value="0.0002656834335569" flag="0"/>
		</comp>
	</station>
	<station code="LTRS" name="LTRS" netid="HA" source="Hellenic Seismological Network, University of Athens, Seismological Laboratory (HA)" insttype="" lat="37.97528" lon="22.9765" esm:processing="manual (Paolucci et al 2011)" esm:quality="good">
		<comp name="--.HNE" depth="0.0">
			<acc value="0.0170293825573334" flag="0"/>
			<vel value="0.00751436898867607" flag="0"/>
			<psa03 value="0.0438038913761587" flag="0"/>
			<psa10 value="0.00660155528938917" flag="0"/>
			<psa30 value="0.000392963610035599" flag="0"/>
		</comp>
		<comp name="--.HNN" depth="0.0">
			<acc value="0.0191111455485454" flag="0"/>
			<vel value="0.00808632948849675" flag="0"/>
			<psa03 value="0.0397499327171266" flag="0"/>
			<psa10 value="0.00772859682535969" flag="0"/>
			<psa30 value="0.000414605278064894" flag="0"/>
		</comp>
		<comp name="--.HNZ" depth="0.0">
			<acc value="0.0227309847054228" flag="0"/>
			<vel value="0.00635181540332686" flag="0"/>
			<psa03 value="0.0218851477002951" flag="0"/>
			<psa10 value="0.00572411388195218" flag="0"/>
			<psa30 value="0.0002669043738132" flag="0"/>
		</comp>
	</station>
	<station code="ARG2" name="ARG2" netid="HI" source="ITSAK Strong Motion Network" insttype="" lat="38.1783" lon="20.4878" esm:processing="manual (Paolucci et al 2011)" esm:quality="good">
		<comp name="--.HNE" depth="0.0">
			<acc value="0.0180727730443635" flag="0"/>
			<vel value="0.00390563059638591" flag="0"/>
			<psa03 value="0.0171907039039332" flag="0"/>
			<psa10 value="0.00131581591634612" flag="0"/>
			<psa30 value="0.000236282215036991" flag="0"/>
		</comp>
		<comp name="--.HNN" depth="0.0">
			<acc value="0.0172381008973084" flag="0"/>
			<vel value="0.00442602687150384" flag="0"/>
			<psa03 value="0.0211091666078657" flag="0"/>
			<psa10 value="0.00124494032274905" flag="0"/>
			<psa30 value="0.000273883039240392" flag="0"/>
		</comp>
		<comp name="--.HNZ" depth="0.0">
			<acc value="0.0161094285180692" flag="0"/>
			<vel value="0.00441406561612418" flag="0"/>
			<psa03 value="0.0133054634529201" flag="0"/>
			<psa10 value="0.0011179338232546" flag="0"/>
			<psa30 value="0.000136449442751743" flag="0"/>
		</comp>
	</station>
	<station code="ARS1" name="ARS1" netid="HI" source="ITSAK Strong Motion Network" insttype="" lat="37.6349" lon="22.7293" esm:processing="manual (Paolucci et al 2011)" esm:quality="best">
		<comp name="--.HNE" depth="0.0">
			<acc value="0.0261615719093776" flag="0"/>
			<vel value="0.0118711664440216" flag="0"/>
			<psa03 value="0.0510674819286055" flag="0"/>
			<psa10 value="0.00527008536728381" flag="0"/>
			<psa30 value="0.000499375268658997" flag="0"/>
		</comp>
		<comp name="--.HNN" depth="0.0">
			<acc value="0.0295717605444272" flag="0"/>
			<vel value="0.00949333011260532" flag="0"/>
			<psa03 value="0.0548226890259001" flag="0"/>
			<psa10 value="0.00769942223644872" flag="0"/>
			<psa30 value="0.000405489179376231" flag="0"/>
		</comp>
		<comp name="--.HNZ" depth="0.0">
			<acc value="0.0227010585729155" flag="0"/>
			<vel value="0.00585495254151993" flag="0"/>
			<psa03 value="0.0249936114332741" flag="0"/>
			<psa10 value="0.00199756959480599" flag="0"/>
			<psa30 value="0.000209724335916536" flag="0"/>
		</comp>
	</station>
	<station code="KLV1" name="KLV1" netid="HI" source="ITSAK Strong Motion Network" insttype="" lat="38.03256" lon="22.10797" esm:processing="manual (Paolucci et al 2011)" esm:quality="best">
		<comp name="--.HNE" depth="0.0">
			<acc value="0.0308410276038685" flag="0"/>
			<vel value="0.0136882230765455" flag="0"/>
			<psa03 value="0.0803774287766578" flag="0"/>
			<psa10 value="0.00470293857784985" flag="0"/>
			<psa30 value="0.000343711258767517" flag="0"/>
		</comp>
		<comp name="--.HNN" depth="0.0">
			<acc value="0.0268550027960264" flag="0"/>
			<vel value="0.00877225191670212" flag="0"/>
			<psa03 value="0.058709811111889" flag="0"/>
			<psa10 value="0.0052458484492033" flag="0"/>
			<psa30 value="0.000355965690354883" flag="0"/>
		</comp>
		<comp name="--.HNZ" depth="0.0">
			<acc value="0.0341402449832831" flag="0"/>
			<vel value="0.00507829224087358" flag="0"/>
			<psa03 value="0.0226780700191912" flag="0"/>
			<psa10 value="0.00194813757017698" flag="0"/>
			<psa30 value="0.000141820723052045" flag="0"/>
		</comp>
	</station>
	<station code="MSL1" name="MSL1" netid="HI" source="ITSAK Strong Motion Network" insttype="" lat="38.3727" lon="21.4243" esm:processing="manual (Paolucci et al 2011)" esm:quality="best">
		<comp name="--.HNE" depth="0.0">
			<acc value="0.0174233278995297" flag="0"/>
			<vel value="0.00724522164625258" flag="0"/>
			<psa03 value="0.0511498571770181" flag="0"/>
			<psa10 value="0.0107141541351428" flag="0"/>
			<psa30 value="0.000628249014246362" flag="0"/>
		</comp>
		<comp name="--.HNN" depth="0.0">
			<acc value="0.0168983543542751" flag="0"/>
			<vel value="0.00993552545032026" flag="0"/>
			<psa03 value="0.0481998492535243" flag="0"/>
			<psa10 value="0.0206076564060983" flag="0"/>
			<psa30 value="0.000823920309843647" flag="0"/>
		</comp>
		<comp name="--.HNZ" depth="0.0">
			<acc value="0.0227638624205906" flag="0"/>
			<vel value="0.00460971766237099" flag="0"/>
			<psa03 value="0.0215978682527957" flag="0"/>
			<psa10 value="0.00621934590738562" flag="0"/>
			<psa30 value="0.000214577313652074" flag="0"/>
		</comp>
	</station>
	<station code="NPS1" name="NPS1" netid="HI" source="ITSAK Strong Motion Network" insttype="" lat="36.51263" lon="23.06248" esm:processing="manual (Paolucci et al 2011)" esm:quality="good">
		<comp name="--.HNE" depth="0.0">
			<acc value="0.00422941537197262" flag="0"/>
			<vel value="0.00174470230440311" flag="0"/>
			<psa03 value="0.00923802538532343" flag="0"/>
			<psa10 value="0.00102670375627246" flag="0"/>
			<psa30 value="7.66594598233099e-05" flag="0"/>
		</comp>
		<comp name="--.HNN" depth="0.0">
			<acc value="0.00594217279550305" flag="0"/>
			<vel value="0.00219676124343381" flag="0"/>
			<psa03 value="0.0125384803523576" flag="0"/>
			<psa10 value="0.00137769442955642" flag="0"/>
			<psa30 value="9.74200603717462e-05" flag="0"/>
		</comp>
		<comp name="--.HNZ" depth="0.0">
			<acc value="0.00557734890564042" flag="0"/>
			<vel value="0.00133553631928874" flag="0"/>
			<psa03 value="0.0111760476499806" flag="0"/>
			<psa10 value="0.000455871937558963" flag="0"/>
			<psa30 value="4.46560018607708e-05" flag="0"/>
		</comp>
	</station>
	<station code="SKO1" name="SKO1" netid="HI" source="ITSAK Strong Motion Network" insttype="" lat="39.123383" lon="23.728705" esm:processing="manual (Paolucci et al 2011)" esm:quality="good">
		<comp name="--.HNE" depth="0.0">
			<acc value="0.00288631038535856" flag="0"/>
			<vel value="0.00102695427425463" flag="0"/>
			<psa03 value="0.00574083342703877" flag="0"/>
			<psa10 value="0.00116371861408333" flag="0"/>
			<psa30 value="6.65571304373457e-05" flag="0"/>
		</comp>
		<comp name="--.HNN" depth="0.0">
			<acc value="0.00197477870534101" flag="0"/>
			<vel value="0.00134485415029716" flag="0"/>
			<psa03 value="0.00520636312515508" flag="0"/>
			<psa10 value="0.000868097194679106" flag="0"/>
			<psa30 value="6.52800276064039e-05" flag="0"/>
		</comp>
		<comp name="--.HNZ" depth="0.0">
			<acc value="0.00169367046661898" flag="0"/>
			<vel value="0.000521772659465798" flag="0"/>
			<psa03 value="0.00255590727204074" flag="0"/>
			<psa10 value="0.000512580030129637" flag="0"/>
			<psa30 value="3.44042745570631e-05" flag="0"/>
		</comp>
	</station>
	<station code="VAS2" name="VAS2" netid="HI" source="ITSAK Strong Motion Network" insttype="" lat="38.630558" lon="20.608081" esm:processing="manual (Paolucci et al 2011)" esm:quality="best">
		<comp name="--.HNE" depth="0.0">
			<acc value="0.00889218632931946" flag="0"/>
			<vel value="0.00435515210294217" flag="0"/>
			<psa03 value="0.0242218129095481" flag="0"/>
			<psa10 value="0.00966212975616806" flag="0"/>
			<psa30 value="0.0003451358583483" flag="0"/>
		</comp>
		<comp name="--.HNN" depth="0.0">
			<acc value="0.0134322161201191" flag="0"/>
			<vel value="0.00552274717052612" flag="0"/>
			<psa03 value="0.0286951352868804" flag="0"/>
			<psa10 value="0.00964013923693187" flag="0"/>
			<psa30 value="0.000623289414865573" flag="0"/>
		</comp>
		<comp name="--.HNZ" depth="0.0">
			<acc value="0.00643789138366762" flag="0"/>
			<vel value="0.00263721395771257" flag="0"/>
			<psa03 value="0.0111974748506701" flag="0"/>
			<psa10 value="0.00484592711262124" flag="0"/>
			<psa30 value="0.000221594835820396" flag="0"/>
		</comp>
	</station>
	<station code="DLFA" name="DLFA" netid="HL" source="National Observatory of Athens Seismic Network" insttype="" lat="38.47836" lon="22.49583" esm:processing="automatic (Paolucci et al 2011)" esm:quality="best">
		<comp name="00.HNE" depth="0.0">
			<acc value="0.0198189742299829" flag="0"/>
			<vel value="0.00876758446203491" flag="0"/>
			<psa03 value="0.0215535007303014" flag="0"/>
			<psa10 value="0.00408851850053853" flag="0"/>
			<psa30 value="0.000322896077780639" flag="0"/>
		</comp>
		<comp name="00.HNN" depth="0.0">
			<acc value="0.0135662701022477" flag="0"/>
			<vel value="0.00451572804896749" flag="0"/>
			<psa03 value="0.0138407502151091" flag="0"/>
			<psa10 value="0.00254124311050817" flag="0"/>
			<psa30 value="0.000168658282158461" flag="0"/>
		</comp>
		<comp name="00.HNZ" depth="0.0">
			<acc value="0.0209654105813876" flag="0"/>
			<vel value="0.00612964014521616" flag="0"/>
			<psa03 value="0.0201212535072265" flag="0"/>
			<psa10 value="0.00352306940168118" flag="0"/>
			<psa30 value="0.000218275905020162" flag="0"/>
		</comp>
	</station>
	<station code="GINA" name="GINA" netid="HL" source="National Observatory of Athens Seismic Network" insttype="" lat="39.66886" lon="22.389" esm:processing="manual (Paolucci et al 2011)" esm:quality="good">
		<comp name="00.HNE" depth="0.0">
			<acc value="0.00330904515311933" flag="0"/>
			<vel value="0.000999221156721273" flag="0"/>
			<psa03 value="0.00546995675883178" flag="0"/>
			<psa10 value="0.000770439436269032" flag="0"/>
			<psa30 value="0.000101293995386319" flag="0"/>
		</comp>
		<comp name="00.HNN" depth="0.0">
			<acc value="0.00370904729362734" flag="0"/>
			<vel value="0.00126258987985245" flag="0"/>
			<psa03 value="0.00561040681816725" flag="0"/>
			<psa10 value="0.000879134527410372" flag="0"/>
			<psa30 value="8.39211322798166e-05" flag="0"/>
		</comp>
		<comp name="00.HNZ" depth="0.0">
			<acc value="0.00848183943782034" flag="0"/>
			<vel value="0.00154794946503263" flag="0"/>
			<psa03 value="0.00335688806746388" flag="0"/>
			<psa10 value="0.000704438872649356" flag="0"/>
			<psa30 value="3.7816714156093e-05" flag="0"/>
		</comp>
	</station>
	<station code="ITM" name="ITM" netid="HL" source="National Observatory of Athens Seismic Network" insttype="" lat="37.17872" lon="21.92522" esm:processing="automatic (Paolucci et al 2011)" esm:quality="best">
		<comp name="--.HNE" depth="0.0">
			<acc value="0.00642512766581714" flag="0"/>
			<vel value="0.00379221019473154" flag="0"/>
			<psa03 value="0.017252645507253" flag="0"/>
			<psa10 value="0.00338994050441998" flag="0"/>
			<psa30 value="0.00023646892011358" flag="0"/>
		</comp>
		<comp name="--.HNN" depth="0.0">
			<acc value="0.00666070705998589" flag="0"/>
			<vel value="0.00255739573987135" flag="0"/>
			<psa03 value="0.0164680818150238" flag="0"/>
			<psa10 value="0.00282326929336176" flag="0"/>
			<psa30 value="0.000240918277362064" flag="0"/>
		</comp>
		<comp name="--.HNZ" depth="0.0">
			<acc value="0.0130686110188399" flag="0"/>
			<vel value="0.00219099189288833" flag="0"/>
			<psa03 value="0.00677118814130648" flag="0"/>
			<psa10 value="0.00152491277579879" flag="0"/>
			<psa30 value="0.000298906624013667" flag="0"/>
		</comp>
	</station>
	<station code="MNVA" name="MNVA" netid="HL" source="National Observatory of Athens Seismic Network" insttype="" lat="36.68709" lon="23.03734" esm:processing="manual (Paolucci et al 2011)" esm:quality="good">
		<comp name="00.HNE" depth="0.0">
			<acc value="0.00284800879779863" flag="0"/>
			<vel value="0.000855741729888027" flag="0"/>
			<psa03 value="0.00546589464077806" flag="0"/>
			<psa10 value="0.000528143092356627" flag="0"/>
			<psa30 value="6.0091187777528e-05" flag="0"/>
		</comp>
		<comp name="00.HNN" depth="0.0">
			<acc value="0.00351807518755748" flag="0"/>
			<vel value="0.000805219268869789" flag="0"/>
			<psa03 value="0.00352714511438683" flag="0"/>
			<psa10 value="0.000356278992359717" flag="0"/>
			<psa30 value="5.46186572804903e-05" flag="0"/>
		</comp>
		<comp name="00.HNZ" depth="0.0">
			<acc value="0.0023891633885661" flag="0"/>
			<vel value="0.000663497904641652" flag="0"/>
			<psa03 value="0.00232616955955666" flag="0"/>
			<psa10 value="0.000524199706126642" flag="0"/>
			<psa30 value="5.56805635640701e-05" flag="0"/>
		</comp>
	</station>
	<station code="NOAC" name="NOAC" netid="HL" source="National Observatory of Athens Seismic Network" insttype="" lat="37.97384" lon="23.71767" esm:processing="automatic (Paolucci et al 2011)" esm:quality="best">
		<comp name="00.HNE" depth="0.0">
			<acc value="0.0120817862638646" flag="0"/>
			<vel value="0.00479486928537586" flag="0"/>
			<psa03 value="0.0201233955762069" flag="0"/>
			<psa10 value="0.00447113150303844" flag="0"/>
			<psa30 value="0.000363816054153051" flag="0"/>
		</comp>
		<comp name="00.HNN" depth="0.0">
			<acc value="0.0102985941963116" flag="0"/>
