<?xml version="1.0" encoding="UTF-8" standalone="yes"?>
<!DOCTYPE earthquake SYSTEM "stationlist.dtd">
<stationlist created="" xmlns="ch.ethz.sed.shakemap.usgs.xml">
  <station code="AIGS" name="AIGS" netid="HA" insttype="DC" lat="38.25" lon="22.0878">
    <comp name="--.HNE">
      <acc value="0.0394162181" flag="0"/>
      <vel value="0.0135800549" flag="0"/>
      <psa03 value="0.0498562660" flag="0"/>
      <psa10 value="0.0048687052" flag="0"/>
      <psa30 value="0.0005999843" flag="0"/>
    </comp>
    <comp name="--.HNZ">
      <acc value="0.0441166550" flag="0"/>
      <vel value="0.0088497527" flag="0"/>
      <psa03 value="0.0248627514" flag="0"/>
      <psa10 value="0.0025710110" flag="0"/>
      <psa30 value="0.0005376268" flag="0"/>
    </comp>
    <comp name="--.HNN">
      <acc value="0.0452450140" flag="0"/>
      <vel value="0.0125795331" flag="0"/>
      <psa03 value="0.0568516857" flag="0"/>
      <psa10 value="0.0033818048" flag="0"/>
      <psa30 value="0.0007262646" flag="0"/>
    </comp>
  </station>
  <station code="AMPE" name="AMPE" netid="HA" insttype="1s-100Hz," lat="38.3015" lon="23.2688">
    <comp name="--.HHZ">
      <acc value="0.0139477181" flag="0"/>
      <vel value="0.0042311537" flag="0"/>
      <psa03 value="0.0138938529" flag="0"/>
      <psa10 value="0.0029417351" flag="0"/>
      <psa30 value="0.0002002536" flag="0"/>
    </comp>
    <comp name="--.HHN">
      <acc value="0.0227468287" flag="0"/>
      <vel value="0.0100943794" flag="0"/>
      <psa03 value="0.0266268442" flag="0"/>
      <psa10 value="0.0051075277" flag="0"/>
      <psa30 value="0.0003971679" flag="0"/>
    </comp>
    <comp name="--.HHE">
      <acc value="0.0198976424" flag="0"/>
      <vel value="0.0080058319" flag="0"/>
      <psa03 value="0.0324787582" flag="0"/>
      <psa10 value="0.0063365489" flag="0"/>
      <psa30 value="0.0005100103" flag="0"/>
    </comp>
  </station>
  <station code="ATAL" name="ATAL" netid="HA" insttype="120" lat="38.6926" lon="23.0213">
    <comp name="--.HHE">
      <acc value="0.0115034489" flag="0"/>
      <vel value="0.0032197424" flag="0"/>
      <psa03 value="0.0138219067" flag="0"/>
      <psa10 value="0.0024450275" flag="0"/>
      <psa30 value="0.0002168622" flag="0"/>
    </comp>
    <comp name="--.HHN">
      <acc value="0.0116433822" flag="0"/>
      <vel value="0.0025620296" flag="0"/>
      <psa03 value="0.0165177440" flag="0"/>
      <psa10 value="0.0024049092" flag="0"/>
      <psa30 value="0.0002000694" flag="0"/>
    </comp>
    <comp name="--.HHZ">
      <acc value="0.0130772647" flag="0"/>
      <vel value="0.0046014300" flag="0"/>
      <psa03 value="0.0133245905" flag="0"/>
      <psa10 value="0.0011188605" flag="0"/>
      <psa30 value="0.0001316852" flag="0"/>
    </comp>
  </station>
  <station code="AXAR" name="AXAR" netid="HA" insttype="30" lat="38.7664" lon="22.659">
    <comp name="--.HHN">
      <acc value="0.0030839833" flag="0"/>
      <vel value="0.0008490970" flag="0"/>
      <psa03 value="0.0041006066" flag="0"/>
      <psa10 value="0.0007971261" flag="0"/>
      <psa30 value="0.0000534704" flag="0"/>
    </comp>
    <comp name="--.HHE">
      <acc value="0.0031011769" flag="0"/>
      <vel value="0.0008984799" flag="0"/>
      <psa03 value="0.0064123712" flag="0"/>
      <psa10 value="0.0005380245" flag="0"/>
      <psa30 value="0.0000491606" flag="0"/>
    </comp>
    <comp name="--.HHZ">
      <acc value="0.0026056965" flag="0"/>
      <vel value="0.0006469616" flag="0"/>
      <psa03 value="0.0023904675" flag="0"/>
      <psa10 value="0.0003256328" flag="0"/>
      <psa30 value="0.0000237058" flag="0"/>
    </comp>
  </station>
  <station code="CORS" name="CORS" netid="HA" insttype="DC" lat="38.2562" lon="22.0748">
    <comp name="00.HNE">
      <acc value="0.0271845318" flag="0"/>
      <vel value="0.0105513724" flag="0"/>
      <psa03 value="0.0459700859" flag="0"/>
      <psa10 value="0.0091652123" flag="0"/>
      <psa30 value="0.0004002122" flag="0"/>
    </comp>
    <comp name="00.HNZ">
      <acc value="0.0234625668" flag="0"/>
      <vel value="0.0079129720" flag="0"/>
      <psa03 value="0.0403864126" flag="0"/>
      <psa10 value="0.0026805886" flag="0"/>
      <psa30 value="0.0001704906" flag="0"/>
    </comp>
    <comp name="00.HNN">
      <acc value="0.0259573102" flag="0"/>
      <vel value="0.0087415972" flag="0"/>
      <psa03 value="0.0365443881" flag="0"/>
      <psa10 value="0.0052704116" flag="0"/>
      <psa30 value="0.0003380484" flag="0"/>
    </comp>
  </station>
  <station code="DOMV" name="DOMV" netid="HA" insttype="60" lat="38.2569" lon="22.9795">
    <comp name="--.HHE">
      <acc value="0.0560674768" flag="0"/>
      <vel value="0.0142049210" flag="0"/>
      <psa03 value="0.0626290738" flag="0"/>
      <psa10 value="0.0034714147" flag="0"/>
      <psa30 value="0.0003040861" flag="0"/>
    </comp>
    <comp name="--.HHN">
      <acc value="0.0815829085" flag="0"/>
      <vel value="0.0179906167" flag="0"/>
      <psa03 value="0.0865325167" flag="0"/>
      <psa10 value="0.0066715803" flag="0"/>
      <psa30 value="0.0004645045" flag="0"/>
    </comp>
    <comp name="--.HHZ">
      <acc value="0.0521648333" flag="0"/>
      <vel value="0.0103002955" flag="0"/>
      <psa03 value="0.0271711629" flag="0"/>
      <psa10 value="0.0021288427" flag="0"/>
      <psa30 value="0.0001950610" flag="0"/>
    </comp>
  </station>
  <station code="DRES" name="DRES" netid="HA" insttype="DC" lat="38.3197" lon="21.8532">
    <comp name="--.HNE">
      <acc value="0.0730874995" flag="0"/>
      <vel value="0.0302465967" flag="0"/>
      <psa03 value="0.2201175563" flag="0"/>
      <psa10 value="0.0187655249" flag="0"/>
      <psa30 value="0.0013280594" flag="0"/>
    </comp>
    <comp name="--.HNN">
      <acc value="0.0577441641" flag="0"/>
      <vel value="0.0228608605" flag="0"/>
      <psa03 value="0.1267981431" flag="0"/>
      <psa10 value="0.0126510009" flag="0"/>
      <psa30 value="0.0012309847" flag="0"/>
    </comp>
    <comp name="--.HNZ">
      <acc value="0.0902716651" flag="0"/>
      <vel value="0.0205956780" flag="0"/>
      <psa03 value="0.0696592671" flag="0"/>
      <psa10 value="0.0054709736" flag="0"/>
      <psa30 value="0.0014031754" flag="0"/>
    </comp>
  </station>
  <station code="EPID" name="EPID" netid="HA" insttype="30" lat="37.6144" lon="23.1189">
    <comp name="--.HHZ">
      <acc value="0.0255592728" flag="0"/>
      <vel value="0.0045306498" flag="0"/>
      <psa03 value="0.0148982748" flag="0"/>
      <psa10 value="0.0016986409" flag="0"/>
      <psa30 value="0.0001844675" flag="0"/>
    </comp>
    <comp name="--.HHE">
      <acc value="0.0299280531" flag="0"/>
      <vel value="0.0071508132" flag="0"/>
      <psa03 value="0.0209808052" flag="0"/>
      <psa10 value="0.0027113317" flag="0"/>
      <psa30 value="0.0001815387" flag="0"/>
    </comp>
    <comp name="--.HHN">
      <acc value="0.0451887521" flag="0"/>
      <vel value="0.0068689077" flag="0"/>
      <psa03 value="0.0227535113" flag="0"/>
      <psa10 value="0.0021070732" flag="0"/>
      <psa30 value="0.0001661215" flag="0"/>
    </comp>
  </station>
  <station code="KALE" name="KALE" netid="HA" insttype="40," lat="38.3911" lon="22.1398">
    <comp name="--.HHN">
      <acc value="0.0975548041" flag="0"/>
      <vel value="0.0233734775" flag="0"/>
      <psa03 value="0.1002606213" flag="0"/>
      <psa10 value="0.0117246362" flag="0"/>
      <psa30 value="0.0007626499" flag="0"/>
    </comp>
    <comp name="--.HHE">
      <acc value="0.0686735894" flag="0"/>
      <vel value="0.0209603052" flag="0"/>
      <psa03 value="0.1518971140" flag="0"/>
      <psa10 value="0.0076499130" flag="0"/>
      <psa30 value="0.0006134905" flag="0"/>
    </comp>
    <comp name="--.HHZ">
      <acc value="0.0591628778" flag="0"/>
      <vel value="0.0112736707" flag="0"/>
      <psa03 value="0.0418123380" flag="0"/>
      <psa10 value="0.0039859252" flag="0"/>
      <psa30 value="0.0002904520" flag="0"/>
    </comp>
  </station>
  <station code="KIAS" name="KIAS" netid="HA" insttype="DC" lat="37.9875" lon="22.7543">
    <comp name="--.HNE">
      <acc value="0.1150915087" flag="0"/>
      <vel value="0.0181794413" flag="0"/>
      <psa03 value="0.0375453509" flag="0"/>
      <psa10 value="0.0086681856" flag="0"/>
      <psa30 value="0.0007392089" flag="0"/>
    </comp>
    <comp name="--.HNN">
      <acc value="0.1111979394" flag="0"/>
      <vel value="0.0166096211" flag="0"/>
      <psa03 value="0.0606286531" flag="0"/>
      <psa10 value="0.0062645143" flag="0"/>
      <psa30 value="0.0009927202" flag="0"/>
    </comp>
    <comp name="--.HNZ">
      <acc value="0.0691677599" flag="0"/>
      <vel value="0.0096323985" flag="0"/>
      <psa03 value="0.0206551502" flag="0"/>
      <psa10 value="0.0042214427" flag="0"/>
      <psa30 value="0.0004741446" flag="0"/>
    </comp>
  </station>
  <station code="LAKA" name="LAKA" netid="HA" insttype="120s" lat="38.2401" lon="21.9785">
    <comp name="--.HHN">
      <acc value="0.0004172538" flag="0"/>
      <vel value="0.0000418747" flag="0"/>
      <psa03 value="0.0000861071" flag="0"/>
      <psa10 value="0.0000375416" flag="0"/>
      <psa30 value="0.0000046223" flag="0"/>
    </comp>
    <comp name="--.HHE">
      <acc value="0.0002869962" flag="0"/>
      <vel value="0.0000301850" flag="0"/>
      <psa03 value="0.0000626871" flag="0"/>
      <psa10 value="0.0000269282" flag="0"/>
      <psa30 value="0.0000033028" flag="0"/>
    </comp>
    <comp name="--.HHZ">
      <acc value="0.0266639740" flag="0"/>
      <vel value="0.0050529374" flag="0"/>
      <psa03 value="0.0249980368" flag="0"/>
      <psa10 value="0.0019178404" flag="0"/>
      <psa30 value="0.0001610888" flag="0"/>
    </comp>
  </station>
  <station code="LOUT" name="LOUT" netid="HA" insttype="30" lat="37.9879" lon="22.9743">
    <comp name="--.HHZ">
      <acc value="0.0298539639" flag="0"/>
      <vel value="0.0058236955" flag="0"/>
      <psa03 value="0.0166393963" flag="0"/>
      <psa10 value="0.0013679977" flag="0"/>
      <psa30 value="0.0001024024" flag="0"/>
    </comp>
    <comp name="--.HHN">
      <acc value="0.0361937834" flag="0"/>
      <vel value="0.0070406890" flag="0"/>
      <psa03 value="0.0222940813" flag="0"/>
      <psa10 value="0.0029936656" flag="0"/>
      <psa30 value="0.0001916702" flag="0"/>
    </comp>
    <comp name="--.HHE">
      <acc value="0.0350286757" flag="0"/>
      <vel value="0.0079821570" flag="0"/>
      <psa03 value="0.0279892940" flag="0"/>
      <psa10 value="0.0037488403" flag="0"/>
      <psa30 value="0.0002461843" flag="0"/>
    </comp>
  </station>
  <station code="MDRA" name="MDRA" netid="HA" insttype="60" lat="38.0606" lon="23.4662">
    <comp name="--.HHE">
      <acc value="0.0053226043" flag="0"/>
      <vel value="0.0016214628" flag="0"/>
      <psa03 value="0.0049531831" flag="0"/>
      <psa10 value="0.0008798396" flag="0"/>
      <psa30 value="0.0000516680" flag="0"/>
    </comp>
    <comp name="--.HHZ">
      <acc value="0.0070643774" flag="0"/>
      <vel value="0.0016310889" flag="0"/>
      <psa03 value="0.0051037472" flag="0"/>
      <psa10 value="0.0010463358" flag="0"/>
      <psa30 value="0.0000599870" flag="0"/>
    </comp>
    <comp name="--.HHN">
      <acc value="0.0067937845" flag="0"/>
      <vel value="0.0020505497" flag="0"/>
      <psa03 value="0.0100220800" flag="0"/>
      <psa10 value="0.0020470729" flag="0"/>
      <psa30 value="0.0001199888" flag="0"/>
    </comp>
  </station>
  <station code="THAL" name="THAL" netid="HA" insttype="30" lat="38.0357" lon="22.6634">
    <comp name="--.HHZ">
      <acc value="0.0712482685" flag="0"/>
      <vel value="0.0137054657" flag="0"/>
      <psa03 value="0.0427414734" flag="0"/>
      <psa10 value="0.0065935341" flag="0"/>
      <psa30 value="0.0002878724" flag="0"/>
    </comp>
    <comp name="--.HHN">
      <acc value="0.1000196080" flag="0"/>
      <vel value="0.0205447684" flag="0"/>
      <psa03 value="0.1124987818" flag="0"/>
      <psa10 value="0.0069633107" flag="0"/>
      <psa30 value="0.0006799296" flag="0"/>
    </comp>
    <comp name="--.HHE">
      <acc value="0.0976113286" flag="0"/>
      <vel value="0.0238983723" flag="0"/>
      <psa03 value="0.1336151728" flag="0"/>
      <psa10 value="0.0074741822" flag="0"/>
      <psa30 value="0.0005178684" flag="0"/>
    </comp>
  </station>
  <station code="THIV" name="THIV" netid="HA" insttype="1s-100Hz," lat="38.299" lon="23.332">
    <comp name="--.HHE">
      <acc value="0.0736865043" flag="0"/>
      <vel value="0.0222534124" flag="0"/>
      <psa03 value="0.0732279505" flag="0"/>
      <psa10 value="0.0075417328" flag="0"/>
      <psa30 value="0.0007325572" flag="0"/>
    </comp>
    <comp name="--.HHZ">
      <acc value="0.0332155587" flag="0"/>
      <vel value="0.0088668524" flag="0"/>
      <psa03 value="0.0275733759" flag="0"/>
      <psa10 value="0.0033856113" flag="0"/>
      <psa30 value="0.0003585238" flag="0"/>
    </comp>
    <comp name="--.HHN">
      <acc value="0.0733218612" flag="0"/>
      <vel value="0.0346124860" flag="0"/>
      <psa03 value="0.1180217929" flag="0"/>
      <psa10 value="0.0142442991" flag="0"/>
      <psa30 value="0.0012328939" flag="0"/>
    </comp>
  </station>
  <station code="ARS1" name="ARS1" netid="HI" insttype="CMG-5TD,ACCELEROMETER,GURALP" lat="37.6349" lon="22.7293">
    <comp name="--.HNZ">
      <acc value="0.0247839444" flag="0"/>
      <vel value="0.0058073417" flag="0"/>
      <psa03 value="0.0248069427" flag="0"/>
      <psa10 value="0.0020036813" flag="0"/>
      <psa30 value="0.0002697040" flag="0"/>
    </comp>
    <comp name="--.HNN">
      <acc value="0.0298903235" flag="0"/>
      <vel value="0.0094292004" flag="0"/>
      <psa03 value="0.0535797531" flag="0"/>
      <psa10 value="0.0077006455" flag="0"/>
      <psa30 value="0.0004127319" flag="0"/>
    </comp>
    <comp name="--.HNE">
      <acc value="0.0271221677" flag="0"/>
      <vel value="0.0118232934" flag="0"/>
      <psa03 value="0.0505501360" flag="0"/>
      <psa10 value="0.0052855308" flag="0"/>
      <psa30 value="0.0005603000" flag="0"/>
    </comp>
  </station>
  <station code="KLV1" name="KLV1" netid="HI" insttype="CMG-5TD,ACCELEROMETER,GURALP" lat="38.0326" lon="22.108">
    <comp name="--.HNN">
      <acc value="0.0271324432" flag="0"/>
      <vel value="0.0087808068" flag="0"/>
      <psa03 value="0.0570745271" flag="0"/>
      <psa10 value="0.0052287340" flag="0"/>
      <psa30 value="0.0003476663" flag="0"/>
    </comp>
    <comp name="--.HNE">
      <acc value="0.0308177675" flag="0"/>
      <vel value="0.0136108914" flag="0"/>
      <psa03 value="0.0792740214" flag="0"/>
      <psa10 value="0.0046867828" flag="0"/>
      <psa30 value="0.0003418673" flag="0"/>
    </comp>
    <comp name="--.HNZ">
      <acc value="0.0349032483" flag="0"/>
      <vel value="0.0048077877" flag="0"/>
      <psa03 value="0.0223245843" flag="0"/>
      <psa10 value="0.0019468842" flag="0"/>
      <psa30 value="0.0001293557" flag="0"/>
    </comp>
  </station>
  <station code="LAM2" name="LAM2" netid="HI" insttype="CMG-5TD,ACCELEROMETER,GURALP" lat="38.902" lon="22.4313">
    <comp name="--.HNE">
      <acc value="0.0185953010" flag="0"/>
      <vel value="0.0047144031" flag="0"/>
      <psa03 value="0.0238378909" flag="0"/>
      <psa10 value="0.0019400930" flag="0"/>
      <psa30 value="0.0001557976" flag="0"/>
    </comp>
    <comp name="--.HNN">
      <acc value="0.0113648875" flag="0"/>
      <vel value="0.0036975701" flag="0"/>
      <psa03 value="0.0147789391" flag="0"/>
      <psa10 value="0.0030135141" flag="0"/>
      <psa30 value="0.0002353142" flag="0"/>
    </comp>
    <comp name="--.HNZ">
      <acc value="0.0351043064" flag="0"/>
      <vel value="0.0046799208" flag="0"/>
      <psa03 value="0.0123165250" flag="0"/>
      <psa10 value="0.0006961456" flag="0"/>
      <psa30 value="0.0000965697" flag="0"/>
    </comp>
  </station>
  <station code="MSL1" name="MSL1" netid="HI" insttype="CMG-5TD,ACCELEROMETER,GURALP" lat="38.3727" lon="21.4243">
    <comp name="--.HNN">
      <acc value="0.0170078663" flag="0"/>
      <vel value="0.0099688210" flag="0"/>
      <psa03 value="0.0476826665" flag="0"/>
      <psa10 value="0.0206744892" flag="0"/>
      <psa30 value="0.0009116248" flag="0"/>
    </comp>
    <comp name="--.HNE">
      <acc value="0.0173411173" flag="0"/>
      <vel value="0.0073059615" flag="0"/>
      <psa03 value="0.0503763588" flag="0"/>
      <psa10 value="0.0107427045" flag="0"/>
      <psa30 value="0.0006899479" flag="0"/>
    </comp>
    <comp name="--.HNZ">
      <acc value="0.0245618544" flag="0"/>
      <vel value="0.0045573441" flag="0"/>
      <psa03 value="0.0208079804" flag="0"/>
      <psa10 value="0.0062508616" flag="0"/>
      <psa30 value="0.0002376663" flag="0"/>
    </comp>
  </station>
  <station code="DLFA" name="DLFA" netid="HL" insttype="CMG-5" lat="38.4784" lon="22.4958">
    <comp name="00.HNN">
      <acc value="0.0137524417" flag="0"/>
      <vel value="0.0044770277" flag="0"/>
      <psa03 value="0.0137961208" flag="0"/>
      <psa10 value="0.0025386817" flag="0"/>
      <psa30 value="0.0001611974" flag="0"/>
    </comp>
    <comp name="00.HNE">
      <acc value="0.0199743315" flag="0"/>
      <vel value="0.0087952816" flag="0"/>
      <psa03 value="0.0213709995" flag="0"/>
      <psa10 value="0.0040924868" flag="0"/>
      <psa30 value="0.0003035299" flag="0"/>
    </comp>
    <comp name="00.HNZ">
      <acc value="0.0210183798" flag="0"/>
      <vel value="0.0061161414" flag="0"/>
      <psa03 value="0.0201217745" flag="0"/>
      <psa10 value="0.0035240692" flag="0"/>
      <psa30 value="0.0002080864" flag="0"/>
    </comp>
  </station>
  <station code="EVR" name="EVR" netid="HL" insttype="DR24" lat="38.9166" lon="21.8105">
    <comp name="--.HHZ">
      <acc value="0.0048880322" flag="0"/>
      <vel value="0.0015573325" flag="0"/>
      <psa03 value="0.0081622986" flag="0"/>
      <psa10 value="0.0023707026" flag="0"/>
      <psa30 value="0.0001790835" flag="0"/>
    </comp>
    <comp name="--.HHE">
      <acc value="0.0055009888" flag="0"/>
      <vel value="0.0019734442" flag="0"/>
      <psa03 value="0.0116081381" flag="0"/>
      <psa10 value="0.0017113618" flag="0"/>
      <psa30 value="0.0001976390" flag="0"/>
    </comp>
    <comp name="--.HHN">
      <acc value="0.0067719895" flag="0"/>
      <vel value="0.0021798507" flag="0"/>
      <psa03 value="0.0098853996" flag="0"/>
      <psa10 value="0.0036438312" flag="0"/>
      <psa30 value="0.0002695000" flag="0"/>
    </comp>
  </station>
  <station code="ITM" name="ITM" netid="HL" insttype="DR24" lat="37.1787" lon="21.9252">
    <comp name="--.HHN">
      <acc value="0.0064992758" flag="0"/>
      <vel value="0.0026055096" flag="0"/>
      <psa03 value="0.0170036394" flag="0"/>
      <psa10 value="0.0029199443" flag="0"/>
      <psa30 value="0.0002661073" flag="0"/>
    </comp>
    <comp name="--.HHZ">
      <acc value="0.0116038536" flag="0"/>
      <vel value="0.0023865632" flag="0"/>
      <psa03 value="0.0074181940" flag="0"/>
      <psa10 value="0.0015847610" flag="0"/>
      <psa30 value="0.0003026114" flag="0"/>
    </comp>
    <comp name="--.HHE">
      <acc value="0.0066552537" flag="0"/>
      <vel value="0.0039052660" flag="0"/>
      <psa03 value="0.0176162063" flag="0"/>
      <psa10 value="0.0035097559" flag="0"/>
      <psa30 value="0.0002252934" flag="0"/>
    </comp>
  </station>
  <station code="KLV" name="KLV" netid="HL" insttype="120" lat="38.0435" lon="22.1504">
    <comp name="--.HHE">
      <acc value="0.0105960500" flag="0"/>
      <vel value="0.0037814720" flag="0"/>
      <psa03 value="0.0162097744" flag="0"/>
      <psa10 value="0.0029935676" flag="0"/>
      <psa30 value="0.0001295130" flag="0"/>
    </comp>
    <comp name="--.HHN">
      <acc value="0.0107543196" flag="0"/>
