<?xml version="1.0" encoding="UTF-8" standalone="yes"?>
<!DOCTYPE earthquake SYSTEM "stationlist.dtd">
<stationlist created="" xmlns="ch.ethz.sed.shakemap.usgs.xml">
  <station code="IFIL" name="IFIL" netid="IV" insttype="" lat="38.5642" lon="14.5753">
    <comp name="--.HHE">
      <acc value="0.0042552395" flag="0"/>
      <vel value="0.0023569101" flag="0"/>
      <psa03 value="0.0114718643" flag="0"/>
      <psa10 value="0.0014421987" flag="0"/>
      <psa30 value="0.0001103814" flag="0"/>
    </comp>
    <comp name="--.HHN">
      <acc value="0.0020974749" flag="0"/>
      <vel value="0.0008146630" flag="0"/>
      <psa03 value="0.0043772836" flag="0"/>
      <psa10 value="0.0006168246" flag="0"/>
      <psa30 value="0.0000468190" flag="0"/>
    </comp>
    <comp name="--.HHZ">
      <acc value="0.0024961370" flag="0"/>
      <vel value="0.0014853258" flag="0"/>
      <psa03 value="0.0073557225" flag="0"/>
      <psa10 value="0.0011073216" flag="0"/>
      <psa30 value="0.0001032285" flag="0"/>
    </comp>
  </station>
  <station code="MPG" name="MPG" netid="IV" insttype="" lat="38.1617" lon="13.36">
    <comp name="--.HHE">
      <acc value="0.0010282555" flag="0"/>
      <vel value="0.0003231125" flag="0"/>
      <psa03 value="0.0009375747" flag="0"/>
      <psa10 value="0.0001671348" flag="0"/>
      <psa30 value="0.0000364714" flag="0"/>
    </comp>
    <comp name="--.HHN">
      <acc value="0.0012747977" flag="0"/>
      <vel value="0.0003735025" flag="0"/>
      <psa03 value="0.0016865953" flag="0"/>
      <psa10 value="0.0001617555" flag="0"/>
      <psa30 value="0.0000508840" flag="0"/>
    </comp>
    <comp name="--.HHZ">
      <acc value="0.0013328007" flag="0"/>
      <vel value="0.0004423821" flag="0"/>
      <psa03 value="0.0021789538" flag="0"/>
      <psa10 value="0.0003213683" flag="0"/>
      <psa30 value="0.0000352847" flag="0"/>
    </comp>
  </station>
</stationlist>
