<stationlist created="1778138749">
	<station code="MARCO" name="MARCO" netid="GE" source="GEOFON" insttype="" lat="40.29724" lon="15.80632">
		<comp name="--.HLE" depth="1.0">
			<acc value="0.000280120895563653" flag="0"/>
			<vel value="0.000112245300033866" flag="0"/>
			<psa03 value="0.00041217920100807" flag="0"/>
			<psa10 value="9.89205593493908e-05" flag="0"/>
			<psa30 value="3.74716717674894e-05" flag="0"/>
		</comp>
		<comp name="--.HLN" depth="1.0">
			<acc value="0.000303545758569442" flag="0"/>
			<vel value="0.000123564838454993" flag="0"/>
			<psa03 value="0.000442985440989074" flag="0"/>
			<psa10 value="0.000120080984560903" flag="0"/>
			<psa30 value="5.60917171028507e-05" flag="0"/>
		</comp>
		<comp name="--.HLZ" depth="1.0">
			<acc value="0.000137271980706798" flag="0"/>
			<vel value="0.000105076773538486" flag="0"/>
			<psa03 value="0.000155675117806905" flag="0"/>
			<psa10 value="7.55440376250562e-05" flag="0"/>
			<psa30 value="4.50829214182803e-05" flag="0"/>
		</comp>
	</station>
	<station code="CBAC" name="CBAC" netid="IV" source="Italian National Seismic Network (INSN)" insttype="" lat="40.810901" lon="14.08057">
		<comp name="--.HNE" depth="0.0">
			<acc value="0.000591511620813604" flag="0"/>
			<vel value="0.000339889132474458" flag="0"/>
			<psa03 value="0.000217323783841036" flag="0"/>
			<psa10 value="0.000477079152979432" flag="0"/>
			<psa30 value="0.000180409360088754" flag="0"/>
		</comp>
		<comp name="--.HNN" depth="0.0">
			<acc value="0.000680254433402047" flag="0"/>
			<vel value="0.000291638781119056" flag="0"/>
			<psa03 value="0.000353493835526038" flag="0"/>
			<psa10 value="0.000378522067416747" flag="0"/>
			<psa30 value="0.000263033257995719" flag="0"/>
		</comp>
		<comp name="--.HNZ" depth="0.0">
			<acc value="0.000375872467499767" flag="0"/>
			<vel value="0.000199444773700332" flag="0"/>
			<psa03 value="0.000198679421302237" flag="0"/>
			<psa10 value="0.000331115587126368" flag="0"/>
			<psa30 value="7.1836549183501e-05" flag="0"/>
		</comp>
	</station>
	<station code="CFMN" name="CFMN" netid="IV" source="Italian National Seismic Network (INSN)" insttype="" lat="40.832942" lon="14.090403">
		<comp name="--.HNE" depth="0.0">
			<acc value="0.00423710299658849" flag="0"/>
			<vel value="0.00068987877446867" flag="0"/>
			<psa03 value="0.000572157897770052" flag="0"/>
			<psa10 value="0.000162231542941773" flag="0"/>
			<psa30 value="6.98664056501541e-05" flag="0"/>
		</comp>
		<comp name="--.HNN" depth="0.0">
			<acc value="0.00380891493030384" flag="0"/>
			<vel value="0.000638182461243746" flag="0"/>
			<psa03 value="0.0006723696958167" flag="0"/>
			<psa10 value="0.000125988805124589" flag="0"/>
			<psa30 value="0.000101504191602316" flag="0"/>
		</comp>
		<comp name="--.HNZ" depth="0.0">
			<acc value="0.00309348174251999" flag="0"/>
			<vel value="0.000416768450386616" flag="0"/>
			<psa03 value="0.000886334105911174" flag="0"/>
			<psa10 value="0.000168652319849501" flag="0"/>
			<psa30 value="3.89729593714468e-05" flag="0"/>
		</comp>
	</station>
	<station code="CSOB" name="CSOB" netid="IV" source="Italian National Seismic Network (INSN)" insttype="" lat="40.826469" lon="14.143963">
		<comp name="--.HNE" depth="0.0">
			<acc value="0.00385461983796954" flag="0"/>
			<vel value="0.000371146102846623" flag="0"/>
			<psa03 value="0.000855539259913841" flag="0"/>
			<psa10 value="0.000146209529413893" flag="0"/>
			<psa30 value="6.70665522047377e-05" flag="0"/>
		</comp>
		<comp name="--.HNN" depth="0.0">
			<acc value="0.00310831088483326" flag="0"/>
			<vel value="0.000354447579243373" flag="0"/>
			<psa03 value="0.000689857955564253" flag="0"/>
			<psa10 value="0.000140603655122268" flag="0"/>
			<psa30 value="9.3933852865273e-05" flag="0"/>
		</comp>
		<comp name="--.HNZ" depth="0.0">
			<acc value="0.0036009048893955" flag="0"/>
			<vel value="0.000263180508043557" flag="0"/>
			<psa03 value="0.000550872511482031" flag="0"/>
			<psa10 value="0.000111709243450805" flag="0"/>
			<psa30 value="4.81946542479942e-05" flag="0"/>
		</comp>
	</station>
	<station code="CSTH" name="CSTH" netid="IV" source="Italian National Seismic Network (INSN)" insttype="" lat="40.829447" lon="14.149329">
		<comp name="--.HNE" depth="0.0">
			<acc value="0.00428746229330892" flag="0"/>
			<vel value="0.000395552190061494" flag="0"/>
			<psa03 value="0.000717353673503167" flag="0"/>
			<psa10 value="0.000119932044030389" flag="0"/>
			<psa30 value="6.08567072394339e-05" flag="0"/>
		</comp>
		<comp name="--.HNN" depth="0.0">
			<acc value="0.00817435599425799" flag="0"/>
			<vel value="0.000567595601116427" flag="0"/>
			<psa03 value="0.000613185395914112" flag="0"/>
			<psa10 value="0.000113627312408069" flag="0"/>
			<psa30 value="7.55830929466558e-05" flag="0"/>
		</comp>
		<comp name="--.HNZ" depth="0.0">
			<acc value="0.00486657244072283" flag="0"/>
			<vel value="0.000385942054085063" flag="0"/>
			<psa03 value="0.000604166040286903" flag="0"/>
			<psa10 value="0.000146994781628324" flag="0"/>
			<psa30 value="5.20476503751556e-05" flag="0"/>
		</comp>
	</station>
</stationlist>
