<?xml version="1.0" encoding="UTF-8" standalone="yes"?>
<!DOCTYPE earthquake SYSTEM "stationlist.dtd">
<stationlist created="" xmlns="ch.ethz.sed.shakemap.usgs.xml">
  <station code="IFIL" name="IFIL" netid="IV" insttype="" lat="38.5642" lon="14.5753">
    <comp name="--.HHE">
      <acc value="0.0042552393" flag="0"/>
      <vel value="0.0023569170" flag="0"/>
      <psa03 value="0.0114718643" flag="0"/>
      <psa10 value="0.0014422160" flag="0"/>
      <psa30 value="0.0001097937" flag="0"/>
    </comp>
    <comp name="--.HHN">
      <acc value="0.0020974749" flag="0"/>
      <vel value="0.0008146661" flag="0"/>
      <psa03 value="0.0043772836" flag="0"/>
      <psa10 value="0.0006168016" flag="0"/>
      <psa30 value="0.0000466909" flag="0"/>
    </comp>
    <comp name="--.HHZ">
      <acc value="0.0024961369" flag="0"/>
      <vel value="0.0014853262" flag="0"/>
      <psa03 value="0.0073557225" flag="0"/>
      <psa10 value="0.0011073238" flag="0"/>
      <psa30 value="0.0001021289" flag="0"/>
    </comp>
  </station>
</stationlist>
