<stationlist created="1775820615">
	<station code="LMS2" name="LMS2" netid="HI" source="ITSAK Strong Motion Network" insttype="" lat="40.834985" lon="21.141815">
		<comp name="--.HNE" depth="0.0">
			<acc value="0.00319094087236103" flag="0"/>
			<vel value="0.00128613089800743" flag="0"/>
			<psa03 value="0.00854865615027355" flag="0"/>
			<psa10 value="0.00108115384770079" flag="0"/>
			<psa30 value="0.000291076391757499" flag="0"/>
		</comp>
		<comp name="--.HNN" depth="0.0">
			<acc value="0.00416520727781745" flag="0"/>
			<vel value="0.00232363320952341" flag="0"/>
			<psa03 value="0.0158287295652395" flag="0"/>
			<psa10 value="0.00117433427825809" flag="0"/>
			<psa30 value="0.000195083691566501" flag="0"/>
		</comp>
		<comp name="--.HNZ" depth="0.0">
			<acc value="0.00173184814193174" flag="0"/>
			<vel value="0.000782164073817713" flag="0"/>
			<psa03 value="0.00475389304707185" flag="0"/>
			<psa10 value="0.000912954267800673" flag="0"/>
			<psa30 value="0.000207218414703111" flag="0"/>
		</comp>
	</station>
</stationlist>
