<?xml version="1.0" encoding="UTF-8" standalone="yes"?>
<!DOCTYPE earthquake SYSTEM "stationlist.dtd">
<stationlist created="" xmlns="ch.ethz.sed.shakemap.usgs.xml">
  <station code="BCI" name="BCI" netid="AC" insttype="" lat="42.3666" lon="20.0675">
    <comp name="--.HHZ">
      <acc value="0.2026308964" flag="0"/>
      <vel value="0.0488810886" flag="0"/>
      <psa03 value="0.2303406274" flag="0"/>
      <psa10 value="0.0281465013" flag="0"/>
      <psa30 value="0.0028018122" flag="0"/>
    </comp>
    <comp name="--.HHE">
      <acc value="0.3253255597" flag="0"/>
      <vel value="0.0636893116" flag="0"/>
      <psa03 value="0.2319868173" flag="0"/>
      <psa10 value="0.0489976828" flag="0"/>
      <psa30 value="0.0024719341" flag="0"/>
    </comp>
    <comp name="--.HHN">
      <acc value="0.2319227756" flag="0"/>
      <vel value="0.0668012754" flag="0"/>
      <psa03 value="0.3077813791" flag="0"/>
      <psa10 value="0.0338254230" flag="0"/>
      <psa30 value="0.0043349030" flag="0"/>
    </comp>
  </station>
  <station code="PHP" name="PHP" netid="AC" insttype="" lat="41.6847" lon="20.4408">
    <comp name="--.HHE">
      <acc value="0.0854017899" flag="0"/>
      <vel value="0.0074387434" flag="0"/>
      <psa03 value="0.0600198315" flag="0"/>
      <psa10 value="0.0123015368" flag="0"/>
      <psa30 value="0.0007469506" flag="0"/>
    </comp>
    <comp name="--.HHN">
      <acc value="0.0146987184" flag="0"/>
      <vel value="0.0058922663" flag="0"/>
      <psa03 value="0.0478336245" flag="0"/>
      <psa10 value="0.0037882652" flag="0"/>
      <psa30 value="0.0005996959" flag="0"/>
    </comp>
    <comp name="--.HHZ">
      <acc value="0.0101047135" flag="0"/>
      <vel value="0.0027116680" flag="0"/>
      <psa03 value="0.0198730112" flag="0"/>
      <psa10 value="0.0036838935" flag="0"/>
      <psa30 value="0.0002176171" flag="0"/>
    </comp>
  </station>
  <station code="PUK" name="PUK" netid="AC" insttype="" lat="42.0426" lon="19.8926">
    <comp name="--.HHE">
      <acc value="0.1011262651" flag="0"/>
      <vel value="0.0172564443" flag="0"/>
      <psa03 value="0.0443941517" flag="0"/>
      <psa10 value="0.0033837493" flag="0"/>
      <psa30 value="0.0008186403" flag="0"/>
    </comp>
    <comp name="--.HHN">
      <acc value="0.0608760862" flag="0"/>
      <vel value="0.0109226980" flag="0"/>
      <psa03 value="0.0334673857" flag="0"/>
      <psa10 value="0.0042295680" flag="0"/>
      <psa30 value="0.0006660253" flag="0"/>
    </comp>
    <comp name="--.HHZ">
      <acc value="0.0241785263" flag="0"/>
      <vel value="0.0045956229" flag="0"/>
      <psa03 value="0.0193548531" flag="0"/>
      <psa10 value="0.0016241082" flag="0"/>
      <psa30 value="0.0001121536" flag="0"/>
    </comp>
  </station>
  <station code="KOME" name="KOME" netid="ME" insttype="SMART24" lat="42.8505" lon="19.5152">
    <comp name="--.HHZ">
      <acc value="0.0191309006" flag="0"/>
      <vel value="0.0104281110" flag="0"/>
      <psa03 value="0.0399241992" flag="0"/>
      <psa10 value="0.0129444868" flag="0"/>
      <psa30 value="0.0013689396" flag="0"/>
    </comp>
  </station>
  <station code="PDG" name="PDG" netid="MN" insttype="" lat="42.4297" lon="19.2608">
    <comp name="--.HHE">
      <acc value="0.5191762853" flag="0"/>
      <vel value="0.0969540493" flag="0"/>
      <psa03 value="0.5224197311" flag="0"/>
      <psa10 value="0.0315149144" flag="0"/>
      <psa30 value="0.0024372357" flag="0"/>
    </comp>
    <comp name="--.HHN">
      <acc value="0.7239458238" flag="0"/>
      <vel value="0.1009713489" flag="0"/>
      <psa03 value="0.4679150892" flag="0"/>
      <psa10 value="0.0408733654" flag="0"/>
      <psa30 value="0.0026675366" flag="0"/>
    </comp>
    <comp name="--.HHZ">
      <acc value="0.3715168991" flag="0"/>
      <vel value="0.0833365822" flag="0"/>
      <psa03 value="0.4184911878" flag="0"/>
      <psa10 value="0.0501985763" flag="0"/>
      <psa30 value="0.0040974549" flag="0"/>
    </comp>
  </station>
  <station code="TIR" name="TIR" netid="MN" insttype="" lat="41.3472" lon="19.8631">
    <comp name="--.HHN">
      <acc value="0.0275292902" flag="0"/>
      <vel value="0.0115698232" flag="0"/>
      <psa03 value="0.0885711300" flag="0"/>
      <psa10 value="0.0071521556" flag="0"/>
      <psa30 value="0.0008551638" flag="0"/>
    </comp>
    <comp name="--.HHE">
      <acc value="0.0338918030" flag="0"/>
      <vel value="0.0119783606" flag="0"/>
      <psa03 value="0.0879148800" flag="0"/>
      <psa10 value="0.0069090836" flag="0"/>
      <psa30 value="0.0007945994" flag="0"/>
    </comp>
    <comp name="--.HHZ">
      <acc value="0.0183662599" flag="0"/>
      <vel value="0.0059541855" flag="0"/>
      <psa03 value="0.0505962572" flag="0"/>
      <psa10 value="0.0049198908" flag="0"/>
      <psa30 value="0.0009978584" flag="0"/>
    </comp>
  </station>
</stationlist>
