<?xml version="1.0" encoding="UTF-8" standalone="yes"?>
<!DOCTYPE earthquake SYSTEM "stationlist.dtd">
<stationlist created="" xmlns="ch.ethz.sed.shakemap.usgs.xml">
  <station code="ARMT" name="ARMT" netid="KO" insttype="CMG-3ESP" commtype="DIG" lat="40.5683" lon="28.866">
    <comp name="--.HHZ">
      <acc value="0.0157591045" flag="0"/>
      <vel value="0.0053208139" flag="0"/>
      <psa03 value="0.0363392143" flag="0"/>
      <psa10 value="0.0014933490" flag="0"/>
      <psa30 value="0.0001250210" flag="0"/>
    </comp>
  </station>
  <station code="BGKT" name="BGKT" netid="KO" insttype="CMG-3ESP" commtype="DIG" lat="41.181" lon="28.773">
    <comp name="--.HHE">
      <acc value="0.0400417203" flag="0"/>
      <vel value="0.0064214033" flag="0"/>
      <psa03 value="0.0276865210" flag="0"/>
      <psa10 value="0.0044725590" flag="0"/>
      <psa30 value="0.0002348930" flag="0"/>
    </comp>
    <comp name="--.HHZ">
      <acc value="0.0237490695" flag="0"/>
      <vel value="0.0040225792" flag="0"/>
      <psa03 value="0.0244506400" flag="0"/>
      <psa10 value="0.0022195839" flag="0"/>
      <psa30 value="0.0001299421" flag="0"/>
    </comp>
    <comp name="--.HHN">
      <acc value="0.0248713434" flag="0"/>
      <vel value="0.0066145933" flag="0"/>
      <psa03 value="0.0332557708" flag="0"/>
      <psa10 value="0.0041917087" flag="0"/>
      <psa30 value="0.0002505219" flag="0"/>
    </comp>
  </station>
  <station code="BIGA" name="BIGA" netid="KO" insttype="CMG-5T" commtype="DIG" lat="40.2813" lon="27.1505">
    <comp name="--.HNE">
      <acc value="0.0807706771" flag="0"/>
      <vel value="0.0225970153" flag="0"/>
      <psa03 value="0.1970659233" flag="0"/>
      <psa10 value="0.0082495527" flag="0"/>
      <psa30 value="0.0004825605" flag="0"/>
    </comp>
    <comp name="--.HNN">
      <acc value="0.0661769063" flag="0"/>
      <vel value="0.0242335729" flag="0"/>
      <psa03 value="0.0935107936" flag="0"/>
      <psa10 value="0.0103433410" flag="0"/>
      <psa30 value="0.0008202420" flag="0"/>
    </comp>
    <comp name="--.HNZ">
      <acc value="0.0383512728" flag="0"/>
      <vel value="0.0078450934" flag="0"/>
      <psa03 value="0.0570928558" flag="0"/>
      <psa10 value="0.0022299945" flag="0"/>
      <psa30 value="0.0003135869" flag="0"/>
    </comp>
  </station>
  <station code="BOTS" name="BOTS" netid="KO" insttype="CMG-6T" commtype="DIG" lat="40.9902" lon="27.981">
    <comp name="--.HHE">
      <acc value="0.1646208168" flag="0"/>
      <vel value="0.0501472869" flag="0"/>
      <psa03 value="0.2271424395" flag="0"/>
      <psa10 value="0.0164628120" flag="0"/>
      <psa30 value="0.0018303704" flag="0"/>
    </comp>
    <comp name="--.HHN">
      <acc value="0.2079516390" flag="0"/>
      <vel value="0.1063222564" flag="0"/>
      <psa03 value="0.2730145235" flag="0"/>
      <psa10 value="0.0665437334" flag="0"/>
      <psa30 value="0.0057762925" flag="0"/>
    </comp>
    <comp name="--.HHZ">
      <acc value="0.1214653351" flag="0"/>
      <vel value="0.0253776443" flag="0"/>
      <psa03 value="0.0639348712" flag="0"/>
      <psa10 value="0.0154754505" flag="0"/>
      <psa30 value="0.0012591650" flag="0"/>
    </comp>
  </station>
  <station code="CANM" name="CANM" netid="KO" insttype="CMG-5T" commtype="DIG" lat="40.0113" lon="27.0529">
    <comp name="--.HNE">
      <acc value="0.0590370766" flag="0"/>
      <vel value="0.0213304048" flag="0"/>
      <psa03 value="0.1100086344" flag="0"/>
      <psa10 value="0.0080106868" flag="0"/>
      <psa30 value="0.0005106597" flag="0"/>
    </comp>
    <comp name="--.HNN">
      <acc value="0.0701925396" flag="0"/>
      <vel value="0.0236034155" flag="0"/>
      <psa03 value="0.1092507983" flag="0"/>
      <psa10 value="0.0152045302" flag="0"/>
      <psa30 value="0.0008887144" flag="0"/>
    </comp>
    <comp name="--.HNZ">
      <acc value="0.0404673688" flag="0"/>
      <vel value="0.0142829228" flag="0"/>
      <psa03 value="0.0677951556" flag="0"/>
      <psa10 value="0.0069731346" flag="0"/>
      <psa30 value="0.0005054120" flag="0"/>
    </comp>
  </station>
  <station code="CRLU" name="CRLU" netid="KO" insttype="SA10" commtype="DIG" lat="41.1428" lon="27.8215">
    <comp name="--.HNN">
      <acc value="0.0793704812" flag="0"/>
      <vel value="0.0635304140" flag="0"/>
      <psa03 value="0.1975358217" flag="0"/>
      <psa10 value="0.0762976669" flag="0"/>
      <psa30 value="0.0049760094" flag="0"/>
    </comp>
    <comp name="--.HNZ">
      <acc value="0.0533593812" flag="0"/>
      <vel value="0.0324989682" flag="0"/>
      <psa03 value="0.1396612899" flag="0"/>
      <psa10 value="0.0255879814" flag="0"/>
      <psa30 value="0.0021530758" flag="0"/>
    </comp>
    <comp name="--.HNE">
      <acc value="0.1104324926" flag="0"/>
      <vel value="0.0537919554" flag="0"/>
      <psa03 value="0.1996722337" flag="0"/>
      <psa10 value="0.0644604633" flag="0"/>
      <psa30 value="0.0033066990" flag="0"/>
    </comp>
  </station>
  <station code="CTYL" name="CTYL" netid="KO" insttype="CMG-3T" commtype="DIG" lat="41.476" lon="28.2897">
    <comp name="--.HHN">
      <acc value="0.0482277350" flag="0"/>
      <vel value="0.0111859364" flag="0"/>
      <psa03 value="0.0516576799" flag="0"/>
      <psa10 value="0.0031848741" flag="0"/>
      <psa30 value="0.0002766187" flag="0"/>
    </comp>
    <comp name="--.HHE">
      <acc value="0.0484910018" flag="0"/>
      <vel value="0.0109699369" flag="0"/>
      <psa03 value="0.0396921726" flag="0"/>
      <psa10 value="0.0040954730" flag="0"/>
      <psa30 value="0.0002590901" flag="0"/>
    </comp>
    <comp name="--.HHZ">
      <acc value="0.0302329476" flag="0"/>
      <vel value="0.0055944171" flag="0"/>
      <psa03 value="0.0311795374" flag="0"/>
      <psa10 value="0.0023732826" flag="0"/>
      <psa30 value="0.0001435079" flag="0"/>
    </comp>
  </station>
  <station code="EDC" name="EDC" netid="KO" insttype="CMG-3T" commtype="DIG" lat="40.3465" lon="27.8618">
    <comp name="--.HHE">
      <acc value="0.0542350537" flag="0"/>
      <vel value="0.0162551776" flag="0"/>
      <psa03 value="0.0739026042" flag="0"/>
      <psa10 value="0.0101305978" flag="0"/>
      <psa30 value="0.0006056080" flag="0"/>
    </comp>
    <comp name="--.HHN">
      <acc value="0.0657058627" flag="0"/>
      <vel value="0.0201389114" flag="0"/>
      <psa03 value="0.0979694216" flag="0"/>
      <psa10 value="0.0104823227" flag="0"/>
      <psa30 value="0.0005938864" flag="0"/>
    </comp>
    <comp name="--.HHZ">
      <acc value="0.0519374282" flag="0"/>
      <vel value="0.0100584161" flag="0"/>
      <psa03 value="0.0206860670" flag="0"/>
      <psa10 value="0.0074210369" flag="0"/>
      <psa30 value="0.0004599435" flag="0"/>
    </comp>
  </station>
  <station code="ERIK" name="ERIK" netid="KO" insttype="CMG-3ESP" commtype="DIG" lat="40.6708" lon="26.5132">
    <comp name="--.HHN">
      <acc value="0.0094031697" flag="0"/>
      <vel value="0.0031264142" flag="0"/>
      <psa03 value="0.0128569927" flag="0"/>
      <psa10 value="0.0022212674" flag="0"/>
      <psa30 value="0.0001453451" flag="0"/>
    </comp>
    <comp name="--.HHZ">
      <acc value="0.0065853344" flag="0"/>
      <vel value="0.0023138189" flag="0"/>
      <psa03 value="0.0171731312" flag="0"/>
      <psa10 value="0.0012155489" flag="0"/>
      <psa30 value="0.0001120884" flag="0"/>
    </comp>
  </station>
  <station code="GEML" name="GEML" netid="KO" insttype="CMG-3T" commtype="DIG" lat="40.4646" lon="29.2116">
    <comp name="--.HHE">
      <acc value="0.0544216101" flag="0"/>
      <vel value="0.0172515642" flag="0"/>
      <psa03 value="0.0672807448" flag="0"/>
      <psa10 value="0.0098206280" flag="0"/>
      <psa30 value="0.0007888287" flag="0"/>
    </comp>
    <comp name="--.HHN">
      <acc value="0.0432967534" flag="0"/>
      <vel value="0.0133348869" flag="0"/>
      <psa03 value="0.0374018720" flag="0"/>
      <psa10 value="0.0098323613" flag="0"/>
      <psa30 value="0.0006780591" flag="0"/>
    </comp>
    <comp name="--.HHZ">
      <acc value="0.0200278716" flag="0"/>
      <vel value="0.0095353108" flag="0"/>
      <psa03 value="0.0323725018" flag="0"/>
      <psa10 value="0.0079797788" flag="0"/>
      <psa30 value="0.0003926272" flag="0"/>
    </comp>
  </station>
  <station code="GONE" name="GONE" netid="KO" insttype="CMG-5T" commtype="DIG" lat="40.0466" lon="27.686">
    <comp name="--.HNE">
      <acc value="0.0153166160" flag="0"/>
      <vel value="0.0100883344" flag="0"/>
      <psa03 value="0.0438528659" flag="0"/>
      <psa10 value="0.0137984836" flag="0"/>
      <psa30 value="0.0004291349" flag="0"/>
    </comp>
    <comp name="--.HNZ">
      <acc value="0.0178886031" flag="0"/>
      <vel value="0.0040022537" flag="0"/>
      <psa03 value="0.0132709592" flag="0"/>
      <psa10 value="0.0036351986" flag="0"/>
      <psa30 value="0.0001585738" flag="0"/>
    </comp>
    <comp name="--.HNN">
      <acc value="0.0229940785" flag="0"/>
      <vel value="0.0141284092" flag="0"/>
      <psa03 value="0.0525117701" flag="0"/>
      <psa10 value="0.0096653457" flag="0"/>
      <psa30 value="0.0005622016" flag="0"/>
    </comp>
  </station>
  <station code="GUZE" name="GUZE" netid="KO" insttype="SA10" commtype="DIG" lat="40.9998" lon="28.5074">
    <comp name="--.HNE">
      <acc value="0.0570217858" flag="0"/>
      <vel value="0.0156858545" flag="0"/>
      <psa03 value="0.1330516267" flag="0"/>
      <psa10 value="0.0085827700" flag="0"/>
      <psa30 value="0.0007421543" flag="0"/>
    </comp>
    <comp name="--.HNN">
      <acc value="0.0517497193" flag="0"/>
      <vel value="0.0211268134" flag="0"/>
      <psa03 value="0.1185377973" flag="0"/>
      <psa10 value="0.0138725182" flag="0"/>
      <psa30 value="0.0009611715" flag="0"/>
    </comp>
    <comp name="--.HNZ">
      <acc value="0.0244801163" flag="0"/>
      <vel value="0.0079121951" flag="0"/>
      <psa03 value="0.0305468308" flag="0"/>
      <psa10 value="0.0045043157" flag="0"/>
      <psa30 value="0.0004970871" flag="0"/>
    </comp>
  </station>
  <station code="ISK" name="ISK" netid="KO" insttype="CMG-3T" commtype="DIG" lat="41.0615" lon="29.0592">
    <comp name="--.HHN">
      <acc value="0.0185914178" flag="0"/>
      <vel value="0.0046656741" flag="0"/>
      <psa03 value="0.0175620685" flag="0"/>
      <psa10 value="0.0027279937" flag="0"/>
      <psa30 value="0.0002040523" flag="0"/>
    </comp>
    <comp name="--.HHE">
      <acc value="0.0227911992" flag="0"/>
      <vel value="0.0050462890" flag="0"/>
      <psa03 value="0.0241012406" flag="0"/>
      <psa10 value="0.0014563662" flag="0"/>
      <psa30 value="0.0001545721" flag="0"/>
    </comp>
    <comp name="--.HHZ">
      <acc value="0.0118028647" flag="0"/>
      <vel value="0.0023934521" flag="0"/>
      <psa03 value="0.0126243404" flag="0"/>
      <psa10 value="0.0015493091" flag="0"/>
      <psa30 value="0.0001194948" flag="0"/>
    </comp>
  </station>
  <station code="KAVV" name="KAVV" netid="KO" insttype="CMG-3ESPC" commtype="DIG" lat="41.0638" lon="29.06">
    <comp name="--.HHE">
      <acc value="0.0419060257" flag="0"/>
      <vel value="0.0161947550" flag="0"/>
      <psa03 value="0.0370489468" flag="0"/>
      <psa10 value="0.0026264996" flag="0"/>
      <psa30 value="0.0003004572" flag="0"/>
    </comp>
    <comp name="--.HHN">
      <acc value="0.0396783076" flag="0"/>
      <vel value="0.0100384524" flag="0"/>
      <psa03 value="0.0462898364" flag="0"/>
      <psa10 value="0.0040733939" flag="0"/>
      <psa30 value="0.0002934256" flag="0"/>
    </comp>
    <comp name="--.HHZ">
      <acc value="0.0246171568" flag="0"/>
      <vel value="0.0057978110" flag="0"/>
      <psa03 value="0.0130845261" flag="0"/>
      <psa10 value="0.0016679053" flag="0"/>
      <psa30 value="0.0001499858" flag="0"/>
    </comp>
  </station>
  <station code="KCTX" name="KCTX" netid="KO" insttype="CMG-3ESP" commtype="DIG" lat="40.2626" lon="28.3353">
    <comp name="--.HHE">
      <acc value="0.0193581691" flag="0"/>
      <vel value="0.0048789347" flag="0"/>
      <psa03 value="0.0143488581" flag="0"/>
      <psa10 value="0.0016761386" flag="0"/>
      <psa30 value="0.0001323398" flag="0"/>
    </comp>
    <comp name="--.HHN">
      <acc value="0.0194300284" flag="0"/>
      <vel value="0.0034843881" flag="0"/>
      <psa03 value="0.0205856378" flag="0"/>
      <psa10 value="0.0017400147" flag="0"/>
      <psa30 value="0.0001334907" flag="0"/>
    </comp>
    <comp name="--.HHZ">
      <acc value="0.0205520835" flag="0"/>
      <vel value="0.0029489467" flag="0"/>
      <psa03 value="0.0092164931" flag="0"/>
      <psa10 value="0.0013986954" flag="0"/>
      <psa30 value="0.0001191566" flag="0"/>
    </comp>
  </station>
  <station code="KRBG" name="KRBG" netid="KO" insttype="CMG-3ESP" commtype="DIG" lat="40.3932" lon="27.2977">
    <comp name="--.HHN">
      <acc value="0.0505559794" flag="0"/>
      <vel value="0.0156930273" flag="0"/>
      <psa03 value="0.1200637400" flag="0"/>
      <psa10 value="0.0063690210" flag="0"/>
      <psa30 value="0.0005934385" flag="0"/>
    </comp>
    <comp name="--.HHE">
      <acc value="0.0607010008" flag="0"/>
      <vel value="0.0196305555" flag="0"/>
      <psa03 value="0.1246877177" flag="0"/>
      <psa10 value="0.0063842431" flag="0"/>
      <psa30 value="0.0005015485" flag="0"/>
    </comp>
    <comp name="--.HHZ">
      <acc value="0.0271472462" flag="0"/>
      <vel value="0.0076066986" flag="0"/>
      <psa03 value="0.0413209662" flag="0"/>
      <psa10 value="0.0047120309" flag="0"/>
      <psa30 value="0.0003778902" flag="0"/>
    </comp>
  </station>
  <station code="LAPK" name="LAPK" netid="KO" insttype="CMG-5T" commtype="DIG" lat="40.3151" lon="26.6425">
    <comp name="--.HNZ">
      <acc value="0.0252436452" flag="0"/>
      <vel value="0.0059895705" flag="0"/>
      <psa03 value="0.0383909499" flag="0"/>
      <psa10 value="0.0043183472" flag="0"/>
      <psa30 value="0.0003682946" flag="0"/>
    </comp>
    <comp name="--.HNE">
      <acc value="0.0652041899" flag="0"/>
      <vel value="0.0186551905" flag="0"/>
      <psa03 value="0.1157938028" flag="0"/>
      <psa10 value="0.0102460997" flag="0"/>
      <psa30 value="0.0005638024" flag="0"/>
    </comp>
    <comp name="--.HNN">
      <acc value="0.0459401395" flag="0"/>
      <vel value="0.0164252244" flag="0"/>
      <psa03 value="0.0899271640" flag="0"/>
      <psa10 value="0.0110661937" flag="0"/>
      <psa30 value="0.0006156289" flag="0"/>
    </comp>
  </station>
  <station code="MAEG" name="MAEG" netid="KO" insttype="SA10" commtype="DIG" lat="40.9653" lon="27.9448">
    <comp name="--.HNE">
      <acc value="0.2276873118" flag="0"/>
      <vel value="0.0649240020" flag="0"/>
      <psa03 value="0.2542633448" flag="0"/>
      <psa10 value="0.0248985137" flag="0"/>
      <psa30 value="0.0023555951" flag="0"/>
    </comp>
    <comp name="--.HNN">
      <acc value="0.2200164326" flag="0"/>
      <vel value="0.0995380312" flag="0"/>
      <psa03 value="0.2005953364" flag="0"/>
      <psa10 value="0.0788584073" flag="0"/>
      <psa30 value="0.0063310844" flag="0"/>
    </comp>
    <comp name="--.HNZ">
      <acc value="0.0932957824" flag="0"/>
      <vel value="0.0149985758" flag="0"/>
      <psa03 value="0.0552470124" flag="0"/>
      <psa10 value="0.0136619483" flag="0"/>
      <psa30 value="0.0014826146" flag="0"/>
    </comp>
  </station>
  <station code="MDNY" name="MDNY" netid="KO" insttype="CMG-5T" commtype="DIG" lat="40.3709" lon="28.8846">
    <comp name="--.HNN">
      <acc value="0.0480104763" flag="0"/>
      <vel value="0.0131485597" flag="0"/>
      <psa03 value="0.0990719730" flag="0"/>
      <psa10 value="0.0051691277" flag="0"/>
      <psa30 value="0.0003967115" flag="0"/>
    </comp>
    <comp name="--.HNE">
      <acc value="0.0460508132" flag="0"/>
      <vel value="0.0153481126" flag="0"/>
      <psa03 value="0.1109221149" flag="0"/>
      <psa10 value="0.0051019511" flag="0"/>
      <psa30 value="0.0004466275" flag="0"/>
    </comp>
    <comp name="--.HNZ">
      <acc value="0.0250590641" flag="0"/>
      <vel value="0.0052248716" flag="0"/>
      <psa03 value="0.0197635449" flag="0"/>
      <psa10 value="0.0011248702" flag="0"/>
      <psa30 value="0.0001213721" flag="0"/>
    </comp>
  </station>
  <station code="NMR7" name="NMR7" netid="KO" insttype="CMG-6T" commtype="DIG" lat="40.728" lon="27.2353">
    <comp name="--.HHN">
      <acc value="0.0184866133" flag="0"/>
      <vel value="0.0055607456" flag="0"/>
      <psa03 value="0.0165164424" flag="0"/>
      <psa10 value="0.0041822533" flag="0"/>
      <psa30 value="0.0003227782" flag="0"/>
    </comp>
    <comp name="--.HHE">
      <acc value="0.0370971334" flag="0"/>
      <vel value="0.0059856011" flag="0"/>
      <psa03 value="0.0290260938" flag="0"/>
      <psa10 value="0.0060041808" flag="0"/>
      <psa30 value="0.0004131739" flag="0"/>
    </comp>
    <comp name="--.HHZ">
      <acc value="0.0229412718" flag="0"/>
      <vel value="0.0026617913" flag="0"/>
      <psa03 value="0.0130491035" flag="0"/>
      <psa10 value="0.0027048814" flag="0"/>
      <psa30 value="0.0001573047" flag="0"/>
    </comp>
  </station>
  <station code="NMR8" name="NMR8" netid="KO" insttype="CMG-6T" commtype="DIG" lat="40.612" lon="27.5347">
    <comp name="--.HHE">
      <acc value="0.0612927884" flag="0"/>
      <vel value="0.0102861630" flag="0"/>
      <psa03 value="0.0322043330" flag="0"/>
      <psa10 value="0.0038805806" flag="0"/>
      <psa30 value="0.0004215155" flag="0"/>
    </comp>
    <comp name="--.HHN">
      <acc value="0.0862688612" flag="0"/>
      <vel value="0.0140239135" flag="0"/>
      <psa03 value="0.0358046730" flag="0"/>
      <psa10 value="0.0096919839" flag="0"/>
      <psa30 value="0.0005494632" flag="0"/>
    </comp>
    <comp name="--.HHZ">
      <acc value="0.0419005025" flag="0"/>
      <vel value="0.0075615854" flag="0"/>
      <psa03 value="0.0316268184" flag="0"/>
      <psa10 value="0.0040094312" flag="0"/>
      <psa30 value="0.0003337600" flag="0"/>
    </comp>
  </station>
  <station code="NMR9" name="NMR9" netid="KO" insttype="CMG-6T" commtype="DIG" lat="40.6196" lon="27.702">
    <comp name="--.HHE">
      <acc value="0.3841188237" flag="0"/>
      <vel value="0.0643064255" flag="0"/>
      <psa03 value="0.1797749967" flag="0"/>
      <psa10 value="0.0125910938" flag="0"/>
      <psa30 value="0.0009432719" flag="0"/>
    </comp>
    <comp name="--.HHN">
      <acc value="1.3252451979" flag="0"/>
      <vel value="0.2326492066" flag="0"/>
      <psa03 value="0.5674355421" flag="0"/>
      <psa10 value="0.0328972339" flag="0"/>
      <psa30 value="0.0033851655" flag="0"/>
    </comp>
    <comp name="--.HHZ">
      <acc value="0.4216525414" flag="0"/>
      <vel value="0.0755138354" flag="0"/>
      <psa03 value="0.1632868608" flag="0"/>
      <psa10 value="0.0121466417" flag="0"/>
      <psa30 value="0.0013086890" flag="0"/>
    </comp>
  </station>
  <station code="ORLT" name="ORLT" netid="KO" insttype="CMG-5T" commtype="DIG" lat="40.0452" lon="28.8914">
    <comp name="--.HNE">
      <acc value="0.0407575242" flag="0"/>
      <vel value="0.0150807634" flag="0"/>
      <psa03 value="0.1329529519" flag="0"/>
      <psa10 value="0.0058780275" flag="0"/>
      <psa30 value="0.0004982739" flag="0"/>
    </comp>
    <comp name="--.HNN">
      <acc value="0.0214595467" flag="0"/>
      <vel value="0.0094011367" flag="0"/>
      <psa03 value="0.0740961430" flag="0"/>
      <psa10 value="0.0056004366" flag="0"/>
      <psa30 value="0.0007912085" flag="0"/>
    </comp>
    <comp name="--.HNZ">
      <acc value="0.0091250060" flag="0"/>
      <vel value="0.0030247644" flag="0"/>
      <psa03 value="0.0299357194" flag="0"/>
      <psa10 value="0.0026786755" flag="0"/>
      <psa30 value="0.0002457944" flag="0"/>
    </comp>
  </station>
