<?xml version="1.0" encoding="UTF-8" standalone="yes"?>
<!DOCTYPE earthquake SYSTEM "stationlist.dtd">
<stationlist created="" xmlns="ch.ethz.sed.shakemap.usgs.xml">
  <station code="THERA" name="THERA" netid="GE" insttype="STS-2/N" lat="36.367" lon="25.4753">
    <comp name="--.HHZ">
      <acc value="0.0099543193" flag="0"/>
      <vel value="0.0029112160" flag="0"/>
      <psa03 value="0.0184465832" flag="0"/>
      <psa10 value="0.0008039515" flag="0"/>
      <psa30 value="0.0001594073" flag="0"/>
    </comp>
    <comp name="--.HHE">
      <acc value="0.0091309270" flag="0"/>
      <vel value="0.0029127685" flag="0"/>
      <psa03 value="0.0205110930" flag="0"/>
      <psa10 value="0.0026768777" flag="0"/>
      <psa30 value="0.0003110639" flag="0"/>
    </comp>
    <comp name="--.HHN">
      <acc value="0.0082168528" flag="0"/>
      <vel value="0.0035246244" flag="0"/>
      <psa03 value="0.0219741825" flag="0"/>
      <psa10 value="0.0008567161" flag="0"/>
      <psa30 value="0.0001149793" flag="0"/>
    </comp>
  </station>
  <station code="MHLO" name="MHLO" netid="HL" insttype="20" lat="36.6898" lon="24.4017">
    <comp name="--.HHE">
      <acc value="0.0231478045" flag="0"/>
      <vel value="0.0106410234" flag="0"/>
      <psa03 value="0.0740535700" flag="0"/>
      <psa10 value="0.0065861063" flag="0"/>
      <psa30 value="0.0004530068" flag="0"/>
    </comp>
    <comp name="--.HHN">
      <acc value="0.0414787323" flag="0"/>
      <vel value="0.0202643915" flag="0"/>
      <psa03 value="0.1077802786" flag="0"/>
      <psa10 value="0.0080698240" flag="0"/>
      <psa30 value="0.0005727180" flag="0"/>
    </comp>
    <comp name="--.HHZ">
      <acc value="0.0137483231" flag="0"/>
      <vel value="0.0071442286" flag="0"/>
      <psa03 value="0.0453137849" flag="0"/>
      <psa10 value="0.0028614278" flag="0"/>
      <psa30 value="0.0002322832" flag="0"/>
    </comp>
  </station>
  <station code="THERA" name="THERA" netid="HL" insttype="120" lat="36.367" lon="25.4753">
    <comp name="--.HHN">
      <acc value="0.0079867223" flag="0"/>
      <vel value="0.0034158854" flag="0"/>
      <psa03 value="0.0213064370" flag="0"/>
      <psa10 value="0.0008373885" flag="0"/>
      <psa30 value="0.0001133335" flag="0"/>
    </comp>
    <comp name="--.HHZ">
      <acc value="0.0096345514" flag="0"/>
      <vel value="0.0028214876" flag="0"/>
      <psa03 value="0.0179386512" flag="0"/>
      <psa10 value="0.0007950058" flag="0"/>
      <psa30 value="0.0001590150" flag="0"/>
    </comp>
    <comp name="--.HHE">
      <acc value="0.0089658956" flag="0"/>
      <vel value="0.0028523791" flag="0"/>
      <psa03 value="0.0199329501" flag="0"/>
      <psa10 value="0.0026558217" flag="0"/>
      <psa30 value="0.0003112297" flag="0"/>
    </comp>
  </station>
  <station code="CMBO" name="CMBO" netid="HT" insttype="120P," lat="36.4709" lon="25.4056">
    <comp name="--.HHN">
      <acc value="0.0445248405" flag="0"/>
      <vel value="0.0185164221" flag="0"/>
      <psa03 value="0.0611537661" flag="0"/>
      <psa10 value="0.0125143922" flag="0"/>
      <psa30 value="0.0012759483" flag="0"/>
    </comp>
    <comp name="--.HHZ">
      <acc value="0.1207898896" flag="0"/>
      <vel value="0.0309903705" flag="0"/>
      <psa03 value="0.1071542638" flag="0"/>
      <psa10 value="0.0053784806" flag="0"/>
      <psa30 value="0.0005942205" flag="0"/>
    </comp>
    <comp name="--.HHE">
      <acc value="0.0406426263" flag="0"/>
      <vel value="0.0267380066" flag="0"/>
      <psa03 value="0.0614225794" flag="0"/>
      <psa10 value="0.0214403191" flag="0"/>
      <psa30 value="0.0014582012" flag="0"/>
    </comp>
  </station>
</stationlist>
