<stationlist created="1778069467">
	<station code="AGRP" name="AGRP" netid="CL" source="Corinth Riff Laboratory (CRLNET)" insttype="" lat="38.3959" lon="21.72277">
		<comp name="00.HNE" depth="0.0">
			<acc value="0.0754857339086194" flag="0"/>
			<vel value="0.0200135901486162" flag="0"/>
			<psa03 value="0.0767776265569543" flag="0"/>
			<psa10 value="0.0116374479414125" flag="0"/>
			<psa30 value="0.00140266817748282" flag="0"/>
		</comp>
		<comp name="00.HNN" depth="0.0">
			<acc value="0.0532121839542674" flag="0"/>
			<vel value="0.0245206274008498" flag="0"/>
			<psa03 value="0.0839811218224961" flag="0"/>
			<psa10 value="0.0182212636452912" flag="0"/>
			<psa30 value="0.00159819162040467" flag="0"/>
		</comp>
		<comp name="00.HNZ" depth="0.0">
			<acc value="0.0288219183813904" flag="0"/>
			<vel value="0.00800326140057848" flag="0"/>
			<psa03 value="0.0389704619645147" flag="0"/>
			<psa10 value="0.00888714450058732" flag="0"/>
			<psa30 value="0.000483215831477335" flag="0"/>
		</comp>
	</station>
	<station code="MALA" name="MALA" netid="CL" source="Corinth Riff Laboratory (CRLNET)" insttype="" lat="38.39341" lon="21.87263">
		<comp name="01.HNE" depth="0.0">
			<acc value="0.12268928459168" flag="0"/>
			<vel value="0.0414033480026932" flag="0"/>
			<psa03 value="0.173286566232567" flag="0"/>
			<psa10 value="0.0380170055414793" flag="0"/>
			<psa30 value="0.00281070541975983" flag="0"/>
		</comp>
		<comp name="01.HNN" depth="0.0">
			<acc value="0.219561646950504" flag="0"/>
			<vel value="0.074495016239896" flag="0"/>
			<psa03 value="0.336864073628968" flag="0"/>
			<psa10 value="0.045631681685843" flag="0"/>
			<psa30 value="0.00281741675075257" flag="0"/>
		</comp>
		<comp name="01.HNZ" depth="0.0">
			<acc value="0.0406550041811659" flag="0"/>
			<vel value="0.0133721325208278" flag="0"/>
			<psa03 value="0.0702452643906867" flag="0"/>
			<psa10 value="0.0126723351804931" flag="0"/>
			<psa30 value="0.00081833495904819" flag="0"/>
		</comp>
	</station>
	<station code="ROD3" name="ROD3" netid="CL" source="Corinth Riff Laboratory (CRLNET)" insttype="" lat="38.30811" lon="21.89204">
		<comp name="00.HNE" depth="0.0">
			<acc value="0.201653372216832" flag="0"/>
			<vel value="0.0787097743658029" flag="0"/>
			<psa03 value="0.467913996813886" flag="0"/>
			<psa10 value="0.0349365046158113" flag="0"/>
			<psa30 value="0.00195702411748321" flag="0"/>
		</comp>
		<comp name="00.HNN" depth="0.0">
			<acc value="0.190100909764108" flag="0"/>
			<vel value="0.0704367040150696" flag="0"/>
			<psa03 value="0.347110038944552" flag="0"/>
			<psa10 value="0.0397163145488413" flag="0"/>
			<psa30 value="0.00239012867754808" flag="0"/>
		</comp>
		<comp name="00.HNZ" depth="0.0">
			<acc value="0.12184297013669" flag="0"/>
			<vel value="0.0348290295136449" flag="0"/>
			<psa03 value="0.0808044251525988" flag="0"/>
			<psa10 value="0.0134696413024307" flag="0"/>
			<psa30 value="0.000960167754028112" flag="0"/>
		</comp>
	</station>
	<station code="AIGS" name="AIGS" netid="HA" source="Hellenic Seismological Network, University of Athens, Seismological Laboratory (HA)" insttype="" lat="38.25001" lon="22.0878">
		<comp name="--.HNE" depth="0.0">
			<acc value="0.0577643871547222" flag="0"/>
			<vel value="0.0202294104583113" flag="0"/>
			<psa03 value="0.162548436644181" flag="0"/>
			<psa10 value="0.0114240276158433" flag="0"/>
			<psa30 value="0.00136105792532783" flag="0"/>
		</comp>
		<comp name="--.HNN" depth="0.0">
			<acc value="0.0658849039550038" flag="0"/>
			<vel value="0.0213348910577577" flag="0"/>
			<psa03 value="0.0804464874996526" flag="0"/>
			<psa10 value="0.00800527560814118" flag="0"/>
			<psa30 value="0.00106307482925014" flag="0"/>
		</comp>
		<comp name="--.HNZ" depth="0.0">
			<acc value="0.0801470478626457" flag="0"/>
			<vel value="0.0202793419096394" flag="0"/>
			<psa03 value="0.0376729379725848" flag="0"/>
			<psa10 value="0.0101716932525979" flag="0"/>
			<psa30 value="0.0010071470709773" flag="0"/>
		</comp>
	</station>
	<station code="XLKS" name="XLKS" netid="HA" source="Hellenic Seismological Network, University of Athens, Seismological Laboratory (HA)" insttype="" lat="38.0772" lon="22.6361">
		<comp name="--.HNE" depth="0.0">
			<acc value="0.0159782871967224" flag="0"/>
			<vel value="0.0175146511477621" flag="0"/>
			<psa03 value="0.0447422066182718" flag="0"/>
			<psa10 value="0.0199205726526531" flag="0"/>
			<psa30 value="0.00213151872329447" flag="0"/>
		</comp>
		<comp name="--.HNN" depth="0.0">
			<acc value="0.0147812024079053" flag="0"/>
			<vel value="0.0145415470890374" flag="0"/>
			<psa03 value="0.0280086213430381" flag="0"/>
			<psa10 value="0.0280466522186636" flag="0"/>
			<psa30 value="0.00239952454093791" flag="0"/>
		</comp>
		<comp name="--.HNZ" depth="0.0">
			<acc value="0.0109848734887935" flag="0"/>
			<vel value="0.00727431815025821" flag="0"/>
			<psa03 value="0.0247871824665226" flag="0"/>
			<psa10 value="0.0101435056624284" flag="0"/>
			<psa30 value="0.00128096937548112" flag="0"/>
		</comp>
	</station>
	<station code="ARG2" name="ARG2" netid="HI" source="ITSAK Strong Motion Network" insttype="" lat="38.1783" lon="20.4878">
		<comp name="--.HNE" depth="0.0">
			<acc value="0.28072476268542" flag="0"/>
			<vel value="0.107403153522576" flag="0"/>
			<psa03 value="0.564199225456407" flag="0"/>
			<psa10 value="0.0308493040412322" flag="0"/>
			<psa30 value="0.00255656968616805" flag="0"/>
		</comp>
		<comp name="--.HNN" depth="0.0">
			<acc value="0.294048291957879" flag="0"/>
			<vel value="0.129807938696606" flag="0"/>
			<psa03 value="0.549658008305469" flag="0"/>
			<psa10 value="0.0586100535596051" flag="0"/>
			<psa30 value="0.0043364146654429" flag="0"/>
		</comp>
		<comp name="--.HNZ" depth="0.0">
			<acc value="0.185054168941819" flag="0"/>
			<vel value="0.0433941471547398" flag="0"/>
			<psa03 value="0.215970631346398" flag="0"/>
			<psa10 value="0.0208346559338644" flag="0"/>
			<psa30 value="0.00134405588681288" flag="0"/>
		</comp>
	</station>
	<station code="ART2" name="ART2" netid="HI" source="ITSAK Strong Motion Network" insttype="" lat="39.1474" lon="20.9937">
		<comp name="--.HNE" depth="0.0">
			<acc value="0.0130339212321716" flag="0"/>
			<vel value="0.0043001945677919" flag="0"/>
			<psa03 value="0.0152570924568307" flag="0"/>
			<psa10 value="0.00378116388131015" flag="0"/>
			<psa30 value="0.000465766370896209" flag="0"/>
		</comp>
		<comp name="--.HNN" depth="0.0">
			<acc value="0.0142307355227075" flag="0"/>
			<vel value="0.00374222647760336" flag="0"/>
			<psa03 value="0.0148991548038845" flag="0"/>
			<psa10 value="0.00502947144595993" flag="0"/>
			<psa30 value="0.00027829652516565" flag="0"/>
		</comp>
		<comp name="--.HNZ" depth="0.0">
			<acc value="0.00784606450259887" flag="0"/>
			<vel value="0.00354196344103636" flag="0"/>
			<psa03 value="0.0116329737207507" flag="0"/>
			<psa10 value="0.00293150937762917" flag="0"/>
			<psa30 value="0.000410286034689552" flag="0"/>
		</comp>
	</station>
	<station code="MSL1" name="MSL1" netid="HI" source="ITSAK Strong Motion Network" insttype="" lat="38.3727" lon="21.4243">
		<comp name="--.HNE" depth="0.0">
			<acc value="0.167825771049973" flag="0"/>
			<vel value="0.0847798463481707" flag="0"/>
			<psa03 value="0.305141849136613" flag="0"/>
			<psa10 value="0.073605851529785" flag="0"/>
			<psa30 value="0.00803346319831069" flag="0"/>
		</comp>
		<comp name="--.HNN" depth="0.0">
			<acc value="0.150686670946919" flag="0"/>
			<vel value="0.0715143673168899" flag="0"/>
			<psa03 value="0.327960374511932" flag="0"/>
			<psa10 value="0.0860889271762829" flag="0"/>
			<psa30 value="0.00580753841905167" flag="0"/>
		</comp>
		<comp name="--.HNZ" depth="0.0">
			<acc value="0.0857446569918173" flag="0"/>
			<vel value="0.0245135031158117" flag="0"/>
			<psa03 value="0.128544359614295" flag="0"/>
			<psa10 value="0.0427726546829354" flag="0"/>
			<psa30 value="0.00221473922760445" flag="0"/>
		</comp>
	</station>
	<station code="PYL1" name="PYL1" netid="HI" source="ITSAK Strong Motion Network" insttype="" lat="36.914188" lon="21.695161">
		<comp name="--.HNE" depth="0.0">
			<acc value="0.0053222249570895" flag="0"/>
			<vel value="0.00305946431991214" flag="0"/>
			<psa03 value="0.0116329737207507" flag="0"/>
			<psa10 value="0.00435296928189166" flag="0"/>
			<psa30 value="0.00077717212895938" flag="0"/>
		</comp>
		<comp name="--.HNN" depth="0.0">
			<acc value="0.00444356823008987" flag="0"/>
			<vel value="0.00298233870361896" flag="0"/>
			<psa03 value="0.00604019789346669" flag="0"/>
			<psa10 value="0.00350734157680632" flag="0"/>
			<psa30 value="0.000516772486441039" flag="0"/>
		</comp>
		<comp name="--.HNZ" depth="0.0">
			<acc value="0.00294678586840097" flag="0"/>
			<vel value="0.00226870408572527" flag="0"/>
			<psa03 value="0.00487690052139162" flag="0"/>
			<psa10 value="0.00339056441753263" flag="0"/>
			<psa30 value="0.000450554020645997" flag="0"/>
		</comp>
	</station>
	<station code="VAS2" name="VAS2" netid="HI" source="ITSAK Strong Motion Network" insttype="" lat="38.630558" lon="20.608081">
		<comp name="--.HNE" depth="0.0">
			<acc value="0.084595381157709" flag="0"/>
			<vel value="0.0618881041639866" flag="0"/>
			<psa03 value="0.217268155338328" flag="0"/>
			<psa10 value="0.0781762679358415" flag="0"/>
			<psa30 value="0.00360577443136652" flag="0"/>
		</comp>
		<comp name="--.HNN" depth="0.0">
			<acc value="0.138622647574904" flag="0"/>
			<vel value="0.0677385286568461" flag="0"/>
			<psa03 value="0.276551579107538" flag="0"/>
			<psa10 value="0.168219511333047" flag="0"/>
			<psa30 value="0.00583662085335355" flag="0"/>
		</comp>
		<comp name="--.HNZ" depth="0.0">
			<acc value="0.0717857331481318" flag="0"/>
			<vel value="0.0347989259268248" flag="0"/>
			<psa03 value="0.201250445368986" flag="0"/>
			<psa10 value="0.0373123157872415" flag="0"/>
			<psa30 value="0.00200668796682949" flag="0"/>
		</comp>
	</station>
	<station code="ITM" name="ITM" netid="HL" source="National Observatory of Athens Seismic Network" insttype="" lat="37.17872" lon="21.92522">
		<comp name="--.HNE" depth="0.0">
			<acc value="0.0109923817229182" flag="0"/>
			<vel value="0.00813415198173242" flag="0"/>
			<psa03 value="0.0231764630282648" flag="0"/>
			<psa10 value="0.00908848443036954" flag="0"/>
			<psa30 value="0.0017682120055541" flag="0"/>
		</comp>
		<comp name="--.HNN" depth="0.0">
			<acc value="0.0113462207215276" flag="0"/>
			<vel value="0.00942282902612585" flag="0"/>
			<psa03 value="0.0209393526973512" flag="0"/>
			<psa10 value="0.0180360309098915" flag="0"/>
			<psa30 value="0.000662632080016604" flag="0"/>
		</comp>
		<comp name="--.HNZ" depth="0.0">
			<acc value="0.00952847815661954" flag="0"/>
			<vel value="0.00560577945700831" flag="0"/>
			<psa03 value="0.0192838910524751" flag="0"/>
			<psa10 value="0.00937841392925594" flag="0"/>
			<psa30 value="0.000836231841695499" flag="0"/>
		</comp>
	</station>
	<station code="PATC" name="PATC" netid="HL" source="National Observatory of Athens Seismic Network" insttype="" lat="38.26933" lon="21.76001">
		<comp name="00.HNE" depth="0.0">
			<acc value="0.135757701321089" flag="0"/>
			<vel value="0.0499484280047175" flag="0"/>
			<psa03 value="0.241205235879103" flag="0"/>
			<psa10 value="0.0724461335342394" flag="0"/>
			<psa30 value="0.00554624393240097" flag="0"/>
		</comp>
		<comp name="00.HNN" depth="0.0">
			<acc value="0.167261842784609" flag="0"/>
			<vel value="0.0411076534236362" flag="0"/>
			<psa03 value="0.210243628899259" flag="0"/>
			<psa10 value="0.0474799822412438" flag="0"/>
			<psa30 value="0.00417892209814658" flag="0"/>
		</comp>
		<comp name="00.HNZ" depth="0.0">
			<acc value="0.072686047333769" flag="0"/>
			<vel value="0.0317816351524154" flag="0"/>
			<psa03 value="0.0880526626247588" flag="0"/>
			<psa10 value="0.0373485569746023" flag="0"/>
			<psa30 value="0.00194360145549772" flag="0"/>
		</comp>
	</station>
	<station code="PATG" name="PATG" netid="HL" source="National Observatory of Athens Seismic Network" insttype="" lat="38.23865" lon="21.72657">
		<comp name="00.HNE" depth="0.0">
			<acc value="0.189907884697708" flag="0"/>
			<vel value="0.0770536320170242" flag="0"/>
			<psa03 value="0.318832964361805" flag="0"/>
			<psa10 value="0.061895921213651" flag="0"/>
			<psa30 value="0.0053668276838617" flag="0"/>
		</comp>
		<comp name="00.HNN" depth="0.0">
			<acc value="0.141805519604302" flag="0"/>
			<vel value="0.100720917212449" flag="0"/>
			<psa03 value="0.402277179704881" flag="0"/>
			<psa10 value="0.0794527630906608" flag="0"/>
			<psa30 value="0.00719633651248283" flag="0"/>
		</comp>
		<comp name="00.HNZ" depth="0.0">
			<acc value="0.0911520451765801" flag="0"/>
			<vel value="0.0335708307567182" flag="0"/>
			<psa03 value="0.0917662657740754" flag="0"/>
			<psa10 value="0.0288278511462187" flag="0"/>
			<psa30 value="0.00521694129169049" flag="0"/>
		</comp>
	</station>
	<station code="RIOA" name="RIOA" netid="HL" source="National Observatory of Athens Seismic Network" insttype="" lat="38.29585" lon="21.79118">
		<comp name="00.HNE" depth="0.0">
			<acc value="0.08033178552297" flag="0"/>
			<vel value="0.022904225876517" flag="0"/>
			<psa03 value="0.0912741015012744" flag="0"/>
			<psa10 value="0.024418506683988" flag="0"/>
			<psa30 value="0.00174047183745077" flag="0"/>
		</comp>
		<comp name="00.HNN" depth="0.0">
			<acc value="0.0918371414079114" flag="0"/>
			<vel value="0.0381273946379194" flag="0"/>
			<psa03 value="0.143801452071125" flag="0"/>
			<psa10 value="0.0257191626303812" flag="0"/>
			<psa30 value="0.00304112778384393" flag="0"/>
		</comp>
		<comp name="00.HNZ" depth="0.0">
			<acc value="0.0858308402083004" flag="0"/>
			<vel value="0.0182183297777496" flag="0"/>
			<psa03 value="0.0587912594964091" flag="0"/>
			<psa10 value="0.0161434355699386" flag="0"/>
			<psa30 value="0.00153018346634489" flag="0"/>
		</comp>
	</station>
	<station code="GUR" name="GUR" netid="HP" source="University of Patras, Seismological Laboratory (PSLNET)" insttype="" lat="37.9363" lon="22.3423">
		<comp name="--.HNE" depth="0.0">
			<acc value="0.0211793212342968" flag="0"/>
			<vel value="0.012071208166717" flag="0"/>
			<psa03 value="0.0778961817224111" flag="0"/>
			<psa10 value="0.0118911362529381" flag="0"/>
			<psa30 value="0.000631759957449997" flag="0"/>
		</comp>
		<comp name="--.HNN" depth="0.0">
			<acc value="0.0309907479853904" flag="0"/>
			<vel value="0.0175109189468857" flag="0"/>
			<psa03 value="0.0753011337385514" flag="0"/>
			<psa10 value="0.0139448035367168" flag="0"/>
			<psa30 value="0.000943165715513168" flag="0"/>
		</comp>
		<comp name="--.HNZ" depth="0.0">
			<acc value="0.0129764474035149" flag="0"/>
			<vel value="0.00606832451953481" flag="0"/>
			<psa03 value="0.0243397604003398" flag="0"/>
			<psa10 value="0.0085327862241706" flag="0"/>
			<psa30 value="0.000573595088846244" flag="0"/>
		</comp>
	</station>
	<station code="LTHK" name="LTHK" netid="HP" source="University of Patras, Seismological Laboratory (PSLNET)" insttype="" lat="37.7095" lon="20.8367">
		<comp name="--.HNE" depth="0.0">
			<acc value="1.03050258705172" flag="0"/>
			<vel value="0.334807639366472" flag="0"/>
			<psa03 value="1.67948820983007" flag="0"/>
			<psa10 value="0.125257597116117" flag="0"/>
			<psa30 value="0.00781601607414589" flag="0"/>
		</comp>
		<comp name="--.HNN" depth="0.0">
			<acc value="1.0718279789024" flag="0"/>
			<vel value="0.24466543877988" flag="0"/>
			<psa03 value="2.05867841091992" flag="0"/>
			<psa10 value="0.0945170166369667" flag="0"/>
			<psa30 value="0.00577040238755851" flag="0"/>
		</comp>
		<comp name="--.HNZ" depth="0.0">
			<acc value="0.420479475380645" flag="0"/>
			<vel value="0.156041118123767" flag="0"/>
			<psa03 value="0.912025139706852" flag="0"/>
			<psa10 value="0.0400223512421103" flag="0"/>
			<psa30 value="0.0031610368975809" flag="0"/>
		</comp>
	</station>
	<station code="PVO" name="PVO" netid="HP" source="University of Patras, Seismological Laboratory (PSLNET)" insttype="" lat="38.616" lon="21.525">
		<comp name="--.HNE" depth="0.0">
			<acc value="0.060646666724338" flag="0"/>
			<vel value="0.0181681005931616" flag="0"/>
			<psa03 value="0.0741825785730946" flag="0"/>
			<psa10 value="0.0165904102140552" flag="0"/>
			<psa30 value="0.0016232472561109" flag="0"/>
		</comp>
		<comp name="--.HNN" depth="0.0">
			<acc value="0.0605652264584891" flag="0"/>
			<vel value="0.0289167011399894" flag="0"/>
			<psa03 value="0.0815650426651094" flag="0"/>
			<psa10 value="0.00994619253124181" flag="0"/>
			<psa30 value="0.00097314299394741" flag="0"/>
		</comp>
		<comp name="--.HNZ" depth="0.0">
			<acc value="0.0661537266179668" flag="0"/>
			<vel value="0.0218560646526847" flag="0"/>
			<psa03 value="0.0678739274399183" flag="0"/>
			<psa10 value="0.00766702452610705" flag="0"/>
			<psa30 value="0.000909609060549465" flag="0"/>
		</comp>
	</station>
	<station code="PYL" name="PYL" netid="HP" source="University of Patras, Seismological Laboratory (PSLNET)" insttype="" lat="36.8955" lon="21.742">
		<comp name="--.HNE" depth="0.0">
			<acc value="0.00917793042759885" flag="0"/>
			<vel value="0.00525800499865763" flag="0"/>
			<psa03 value="0.0238475961275388" flag="0"/>
			<psa10 value="0.00573818799879335" flag="0"/>
			<psa30 value="0.000629075425052901" flag="0"/>
		</comp>
		<comp name="--.HNN" depth="0.0">
			<acc value="0.00761396014708567" flag="0"/>
			<vel value="0.00312543692801364" flag="0"/>
			<psa03 value="0.0140937950847556" flag="0"/>
			<psa10 value="0.00355163636135841" flag="0"/>
			<psa30 value="0.000341383036497413" flag="0"/>
		</comp>
		<comp name="--.HNZ" depth="0.0">
			<acc value="0.00430646458460663" flag="0"/>
			<vel value="0.00230519465717918" flag="0"/>
			<psa03 value="0.00738246409201484" flag="0"/>
			<psa10 value="0.00325768006387637" flag="0"/>
			<psa30 value="0.000459502461969651" flag="0"/>
		</comp>
	</station>
	<station code="SERG" name="SERG" netid="HP" source="University of Patras, Seismological Laboratory (PSLNET)" insttype="" lat="38.4133" lon="22.0566">
		<comp name="--.HNE" depth="0.0">
			<acc value="0.0478031447731271" flag="0"/>
			<vel value="0.0140977959247927" flag="0"/>
			<psa03 value="0.0802227764665613" flag="0"/>
			<psa10 value="0.00680931642523478" flag="0"/>
			<psa30 value="0.000468898325359488" flag="0"/>
		</comp>
		<comp name="--.HNN" depth="0.0">
			<acc value="0.0576243146004389" flag="0"/>
			<vel value="0.0189814288961861" flag="0"/>
			<psa03 value="0.0644735197369296" flag="0"/>
			<psa10 value="0.00767507812329834" flag="0"/>
			<psa30 value="0.000703794910105415" flag="0"/>
		</comp>
		<comp name="--.HNZ" depth="0.0">
			<acc value="0.0379844057785885" flag="0"/>
			<vel value="0.0117626429932842" flag="0"/>
			<psa03 value="0.0443842689653256" flag="0"/>
			<psa10 value="0.00562543763811531" flag="0"/>
			<psa30 value="0.000383888132784772" flag="0"/>
		</comp>
	</station>
	<station code="VALY" name="VALY" netid="HP" source="University of Patras, Seismological Laboratory (PSLNET)" insttype="" lat="37.1641" lon="21.9836">
		<comp name="--.HNE" depth="0.0">
			<acc value="0.00933540830518462" flag="0"/>
			<vel value="0.00928937424066383" flag="0"/>
			<psa03 value="0.0245114466797192" flag="0"/>
			<psa10 value="0.00747364368596245" flag="0"/>
			<psa30 value="0.00115672589824938" flag="0"/>
		</comp>
		<comp name="--.HNN" depth="0.0">
			<acc value="0.0107336737224891" flag="0"/>
			<vel value="0.00524821929887089" flag="0"/>
			<psa03 value="0.0220270242864154" flag="0"/>
			<psa10 value="0.00763161399449201" flag="0"/>
			<psa30 value="0.00089706828053905" flag="0"/>
		</comp>
		<comp name="--.HNZ" depth="0.0">
			<acc value="0.00351510599027273" flag="0"/>
			<vel value="0.00323262580299141" flag="0"/>
			<psa03 value="0.00989758079636065" flag="0"/>
			<psa10 value="0.00543957221997257" flag="0"/>
