<?xml version="1.0" encoding="UTF-8" standalone="yes"?>
<!DOCTYPE earthquake SYSTEM "stationlist.dtd">
<stationlist created="" xmlns="ch.ethz.sed.shakemap.usgs.xml">
  <station code="KALE" name="KALE" netid="HA" insttype="40," lat="38.3911" lon="22.1398">
    <comp name="--.HHE">
      <acc value="0.0285854078" flag="0"/>
      <vel value="0.0099145847" flag="0"/>
      <psa03 value="0.0475716893" flag="0"/>
      <psa10 value="0.0073210673" flag="0"/>
      <psa30 value="0.0005446900" flag="0"/>
    </comp>
    <comp name="--.HHN">
      <acc value="0.0362702686" flag="0"/>
      <vel value="0.0129182410" flag="0"/>
      <psa03 value="0.0552572603" flag="0"/>
      <psa10 value="0.0066348360" flag="0"/>
      <psa30 value="0.0005080326" flag="0"/>
    </comp>
    <comp name="--.HHZ">
      <acc value="0.0178199817" flag="0"/>
      <vel value="0.0067812272" flag="0"/>
      <psa03 value="0.0245581427" flag="0"/>
      <psa10 value="0.0030627659" flag="0"/>
      <psa30 value="0.0005272030" flag="0"/>
    </comp>
  </station>
  <station code="ARG2" name="ARG2" netid="HI" insttype="CMG-5TD,ACCELEROMETER,GURALP" lat="38.1783" lon="20.4878">
    <comp name="--.HNE">
      <acc value="0.2790529703" flag="0"/>
      <vel value="0.1062545687" flag="0"/>
      <psa03 value="0.5546124384" flag="0"/>
      <psa10 value="0.0306726665" flag="0"/>
      <psa30 value="0.0025057628" flag="0"/>
    </comp>
    <comp name="--.HNN">
      <acc value="0.2966729224" flag="0"/>
      <vel value="0.1284974127" flag="0"/>
      <psa03 value="0.5491241554" flag="0"/>
      <psa10 value="0.0584198874" flag="0"/>
      <psa30 value="0.0042400005" flag="0"/>
    </comp>
    <comp name="--.HNZ">
      <acc value="0.1805405484" flag="0"/>
      <vel value="0.0432345620" flag="0"/>
      <psa03 value="0.2127457866" flag="0"/>
      <psa10 value="0.0208034670" flag="0"/>
      <psa30 value="0.0013390600" flag="0"/>
    </comp>
  </station>
  <station code="KLV1" name="KLV1" netid="HI" insttype="CMG-5TD,ACCELEROMETER,GURALP" lat="38.0326" lon="22.108">
    <comp name="--.HNE">
      <acc value="0.0316405992" flag="0"/>
      <vel value="0.0151673342" flag="0"/>
      <psa03 value="0.0773706363" flag="0"/>
      <psa10 value="0.0146787423" flag="0"/>
      <psa30 value="0.0006898300" flag="0"/>
    </comp>
    <comp name="--.HNN">
      <acc value="0.0582259206" flag="0"/>
      <vel value="0.0153912669" flag="0"/>
      <psa03 value="0.0524057295" flag="0"/>
      <psa10 value="0.0172191118" flag="0"/>
      <psa30 value="0.0007601801" flag="0"/>
    </comp>
    <comp name="--.HNZ">
      <acc value="0.0709078422" flag="0"/>
      <vel value="0.0076298011" flag="0"/>
      <psa03 value="0.0270430630" flag="0"/>
      <psa10 value="0.0072067465" flag="0"/>
      <psa30 value="0.0007740629" flag="0"/>
    </comp>
  </station>
  <station code="MSL1" name="MSL1" netid="HI" insttype="CMG-5TD,ACCELEROMETER,GURALP" lat="38.3727" lon="21.4243">
    <comp name="--.HNE">
      <acc value="0.1682898220" flag="0"/>
      <vel value="0.0840178501" flag="0"/>
      <psa03 value="0.3038104446" flag="0"/>
      <psa10 value="0.0736425075" flag="0"/>
      <psa30 value="0.0077983671" flag="0"/>
    </comp>
    <comp name="--.HNN">
      <acc value="0.1512276103" flag="0"/>
      <vel value="0.0711422786" flag="0"/>
      <psa03 value="0.3250748366" flag="0"/>
      <psa10 value="0.0859707617" flag="0"/>
      <psa30 value="0.0056383285" flag="0"/>
    </comp>
    <comp name="--.HNZ">
      <acc value="0.0847954381" flag="0"/>
      <vel value="0.0244029774" flag="0"/>
      <psa03 value="0.1265825381" flag="0"/>
      <psa10 value="0.0426767919" flag="0"/>
      <psa30 value="0.0021527022" flag="0"/>
    </comp>
  </station>
  <station code="PYL1" name="PYL1" netid="HI" insttype="CMG-5TD,ACCELEROMETER,GURALP" lat="36.9142" lon="21.6952">
    <comp name="--.HNE">
      <acc value="0.0053523159" flag="0"/>
      <vel value="0.0030632049" flag="0"/>
      <psa03 value="0.0116311883" flag="0"/>
      <psa10 value="0.0043584984" flag="0"/>
      <psa30 value="0.0007509739" flag="0"/>
    </comp>
    <comp name="--.HNN">
      <acc value="0.0044182062" flag="0"/>
      <vel value="0.0029992024" flag="0"/>
      <psa03 value="0.0059384635" flag="0"/>
      <psa10 value="0.0035075986" flag="0"/>
      <psa30 value="0.0004957248" flag="0"/>
    </comp>
    <comp name="--.HNZ">
      <acc value="0.0030054499" flag="0"/>
      <vel value="0.0022491404" flag="0"/>
      <psa03 value="0.0048519515" flag="0"/>
      <psa10 value="0.0033939235" flag="0"/>
      <psa30 value="0.0004584061" flag="0"/>
    </comp>
  </station>
  <station code="ITM" name="ITM" netid="HL" insttype="DR24" lat="37.1787" lon="21.9252">
    <comp name="--.HHE">
      <acc value="0.0111911241" flag="0"/>
      <vel value="0.0080818636" flag="0"/>
      <psa03 value="0.0236580947" flag="0"/>
      <psa10 value="0.0092397047" flag="0"/>
      <psa30 value="0.0016737746" flag="0"/>
    </comp>
    <comp name="--.HHN">
      <acc value="0.0116085187" flag="0"/>
      <vel value="0.0095896614" flag="0"/>
      <psa03 value="0.0216101691" flag="0"/>
      <psa10 value="0.0185588656" flag="0"/>
      <psa30 value="0.0006362235" flag="0"/>
    </comp>
    <comp name="--.HHZ">
      <acc value="0.0099792996" flag="0"/>
      <vel value="0.0059818916" flag="0"/>
      <psa03 value="0.0208179168" flag="0"/>
      <psa10 value="0.0099817614" flag="0"/>
      <psa30 value="0.0008097752" flag="0"/>
    </comp>
  </station>
  <station code="KLV" name="KLV" netid="HL" insttype="120" lat="38.0435" lon="22.1504">
    <comp name="--.HHE">
      <acc value="0.0146975383" flag="0"/>
      <vel value="0.0054773389" flag="0"/>
      <psa03 value="0.0164154141" flag="0"/>
      <psa10 value="0.0085424147" flag="0"/>
      <psa30 value="0.0004281679" flag="0"/>
    </comp>
    <comp name="--.HHN">
      <acc value="0.0154009265" flag="0"/>
      <vel value="0.0070455787" flag="0"/>
      <psa03 value="0.0239028690" flag="0"/>
      <psa10 value="0.0080247887" flag="0"/>
      <psa30 value="0.0005088424" flag="0"/>
    </comp>
    <comp name="--.HHZ">
      <acc value="0.0324620190" flag="0"/>
      <vel value="0.0060563251" flag="0"/>
      <psa03 value="0.0199138854" flag="0"/>
      <psa10 value="0.0062060305" flag="0"/>
      <psa30 value="0.0005956406" flag="0"/>
    </comp>
  </station>
  <station code="ORTH" name="ORTH" netid="HL" insttype="30" lat="37.8511" lon="20.6963">
    <comp name="--.HHE">
      <acc value="0.3552155005" flag="0"/>
      <vel value="0.1052842857" flag="0"/>
      <psa03 value="0.6527463178" flag="0"/>
      <psa10 value="0.0587684675" flag="0"/>
      <psa30 value="0.0030219355" flag="0"/>
    </comp>
    <comp name="--.HHN">
      <acc value="0.2905259652" flag="0"/>
      <vel value="0.0881413848" flag="0"/>
      <psa03 value="0.2787997363" flag="0"/>
      <psa10 value="0.0422582111" flag="0"/>
      <psa30 value="0.0017955719" flag="0"/>
    </comp>
    <comp name="--.HHZ">
      <acc value="0.2613344415" flag="0"/>
      <vel value="0.0445795698" flag="0"/>
      <psa03 value="0.2759230906" flag="0"/>
      <psa10 value="0.0302161664" flag="0"/>
      <psa30 value="0.0013289273" flag="0"/>
    </comp>
  </station>
  <station code="PATC" name="PATC" netid="HL" insttype="CMG-5" lat="38.2693" lon="21.76">
    <comp name="00.HNE">
      <acc value="0.1357974068" flag="0"/>
      <vel value="0.0495489177" flag="0"/>
      <psa03 value="0.2405011010" flag="0"/>
      <psa10 value="0.0723923165" flag="0"/>
      <psa30 value="0.0052485065" flag="0"/>
    </comp>
    <comp name="00.HNN">
      <acc value="0.1683016977" flag="0"/>
      <vel value="0.0411722360" flag="0"/>
      <psa03 value="0.2090023221" flag="0"/>
      <psa10 value="0.0474748542" flag="0"/>
      <psa30 value="0.0040280426" flag="0"/>
    </comp>
    <comp name="00.HNZ">
      <acc value="0.0734668243" flag="0"/>
      <vel value="0.0317068429" flag="0"/>
      <psa03 value="0.0877471780" flag="0"/>
      <psa10 value="0.0373255045" flag="0"/>
      <psa30 value="0.0017881153" flag="0"/>
    </comp>
  </station>
  <station code="PATG" name="PATG" netid="HL" insttype="CMG-5" lat="38.2386" lon="21.7266">
    <comp name="00.HNE">
      <acc value="0.1894006831" flag="0"/>
      <vel value="0.0768763165" flag="0"/>
      <psa03 value="0.3167416610" flag="0"/>
      <psa10 value="0.0619165299" flag="0"/>
      <psa30 value="0.0052184751" flag="0"/>
    </comp>
    <comp name="00.HNN">
      <acc value="0.1417927549" flag="0"/>
      <vel value="0.1000459572" flag="0"/>
      <psa03 value="0.4021920219" flag="0"/>
      <psa10 value="0.0795545691" flag="0"/>
      <psa30 value="0.0067914819" flag="0"/>
    </comp>
    <comp name="00.HNZ">
      <acc value="0.0916383863" flag="0"/>
      <vel value="0.0333640261" flag="0"/>
      <psa03 value="0.0911108390" flag="0"/>
      <psa10 value="0.0288027155" flag="0"/>
      <psa30 value="0.0049093996" flag="0"/>
    </comp>
  </station>
  <station code="RIOA" name="RIOA" netid="HL" insttype="CMG-5" lat="38.2959" lon="21.7912">
    <comp name="00.HNE">
      <acc value="0.0812815185" flag="0"/>
      <vel value="0.0228362207" flag="0"/>
      <psa03 value="0.0911596237" flag="0"/>
      <psa10 value="0.0244355151" flag="0"/>
      <psa30 value="0.0013349150" flag="0"/>
    </comp>
    <comp name="00.HNN">
      <acc value="0.0922449662" flag="0"/>
      <vel value="0.0383306317" flag="0"/>
      <psa03 value="0.1432311158" flag="0"/>
      <psa10 value="0.0257317942" flag="0"/>
      <psa30 value="0.0030551922" flag="0"/>
    </comp>
    <comp name="00.HNZ">
      <acc value="0.0886282157" flag="0"/>
      <vel value="0.0181412006" flag="0"/>
      <psa03 value="0.0587976438" flag="0"/>
      <psa10 value="0.0161264676" flag="0"/>
      <psa30 value="0.0015333205" flag="0"/>
    </comp>
  </station>
  <station code="RLS" name="RLS" netid="HL" insttype="CMG3ESPC-120s" lat="38.0559" lon="21.4647">
    <comp name="--.HHE">
      <acc value="0.2489680734" flag="0"/>
      <vel value="0.0767578816" flag="0"/>
      <psa03 value="0.1906638295" flag="0"/>
      <psa10 value="0.0482736795" flag="0"/>
      <psa30 value="0.0043355088" flag="0"/>
    </comp>
    <comp name="--.HHN">
      <acc value="0.3045026906" flag="0"/>
      <vel value="0.1130296236" flag="0"/>
      <psa03 value="0.2331487262" flag="0"/>
      <psa10 value="0.0547682875" flag="0"/>
      <psa30 value="0.0039408334" flag="0"/>
    </comp>
    <comp name="--.HHZ">
      <acc value="0.0816818501" flag="0"/>
      <vel value="0.0270837380" flag="0"/>
      <psa03 value="0.0901299052" flag="0"/>
      <psa10 value="0.0163818108" flag="0"/>
      <psa30 value="0.0023444277" flag="0"/>
    </comp>
  </station>
  <station code="VLS" name="VLS" netid="HL" insttype="120P," lat="38.1768" lon="20.5886">
    <comp name="--.HHE">
      <acc value="0.3689501502" flag="0"/>
      <vel value="0.0462574822" flag="0"/>
      <psa03 value="0.1791366612" flag="0"/>
      <psa10 value="0.0131736467" flag="0"/>
      <psa30 value="0.0009756138" flag="0"/>
    </comp>
    <comp name="--.HHN">
      <acc value="0.2205926954" flag="0"/>
      <vel value="0.0457834555" flag="0"/>
      <psa03 value="0.1647447511" flag="0"/>
      <psa10 value="0.0232870493" flag="0"/>
      <psa30 value="0.0014032067" flag="0"/>
    </comp>
    <comp name="--.HHZ">
      <acc value="0.1220001293" flag="0"/>
      <vel value="0.0248727116" flag="0"/>
      <psa03 value="0.0738835170" flag="0"/>
      <psa10 value="0.0093425493" flag="0"/>
      <psa30 value="0.0006635559" flag="0"/>
    </comp>
  </station>
  <station code="AMPL" name="AMPL" netid="HP" insttype="Compact," lat="38.9224" lon="21.2135">
    <comp name="--.HHE">
      <acc value="0.0363202185" flag="0"/>
      <vel value="0.0098000059" flag="0"/>
      <psa03 value="0.0333216838" flag="0"/>
      <psa10 value="0.0135802478" flag="0"/>
      <psa30 value="0.0013372084" flag="0"/>
    </comp>
    <comp name="--.HHN">
      <acc value="0.0302300511" flag="0"/>
      <vel value="0.0086719469" flag="0"/>
      <psa03 value="0.0396461248" flag="0"/>
      <psa10 value="0.0116897310" flag="0"/>
      <psa30 value="0.0006516825" flag="0"/>
    </comp>
    <comp name="--.HHZ">
      <acc value="0.0114287469" flag="0"/>
      <vel value="0.0061395593" flag="0"/>
      <psa03 value="0.0251345650" flag="0"/>
      <psa10 value="0.0082804736" flag="0"/>
      <psa30 value="0.0006036940" flag="0"/>
    </comp>
  </station>
  <station code="AMT" name="AMT" netid="HP" insttype="CMG-3T," lat="37.5324" lon="21.7089">
    <comp name="00.HHE">
      <acc value="0.0341802299" flag="0"/>
      <vel value="0.0275458635" flag="0"/>
      <psa03 value="0.1088322991" flag="0"/>
      <psa10 value="0.0483512718" flag="0"/>
      <psa30 value="0.0031928880" flag="0"/>
    </comp>
    <comp name="00.HHN">
      <acc value="0.0373609892" flag="0"/>
      <vel value="0.0299345793" flag="0"/>
      <psa03 value="0.0858339776" flag="0"/>
      <psa10 value="0.0385160927" flag="0"/>
      <psa30 value="0.0026696504" flag="0"/>
    </comp>
    <comp name="00.HHZ">
      <acc value="0.0221222566" flag="0"/>
      <vel value="0.0161772536" flag="0"/>
      <psa03 value="0.0493404929" flag="0"/>
      <psa10 value="0.0228176764" flag="0"/>
      <psa30 value="0.0011736422" flag="0"/>
    </comp>
  </station>
  <station code="ANX" name="ANX" netid="HP" insttype="120" lat="38.5933" lon="21.9209">
    <comp name="--.HHE">
      <acc value="0.0355039748" flag="0"/>
      <vel value="0.0183207363" flag="0"/>
      <psa03 value="0.0824896696" flag="0"/>
      <psa10 value="0.0129174077" flag="0"/>
      <psa30 value="0.0007935461" flag="0"/>
    </comp>
    <comp name="--.HHN">
      <acc value="0.0387653206" flag="0"/>
      <vel value="0.0210974788" flag="0"/>
      <psa03 value="0.0751280769" flag="0"/>
      <psa10 value="0.0162978034" flag="0"/>
      <psa30 value="0.0007478987" flag="0"/>
    </comp>
    <comp name="--.HHZ">
      <acc value="0.0198736201" flag="0"/>
      <vel value="0.0088457151" flag="0"/>
      <psa03 value="0.0430113248" flag="0"/>
      <psa10 value="0.0069816570" flag="0"/>
      <psa30 value="0.0003572618" flag="0"/>
    </comp>
  </station>
  <station code="AXS" name="AXS" netid="HP" insttype="40," lat="38.1962" lon="21.3763">
    <comp name="--.HHE">
      <acc value="0.1007553228" flag="0"/>
      <vel value="0.0344193260" flag="0"/>
      <psa03 value="0.1268438415" flag="0"/>
      <psa10 value="0.0406125618" flag="0"/>
      <psa30 value="0.0033327857" flag="0"/>
    </comp>
    <comp name="--.HHN">
      <acc value="0.0928989814" flag="0"/>
      <vel value="0.0512571469" flag="0"/>
      <psa03 value="0.1067955235" flag="0"/>
      <psa10 value="0.0511134795" flag="0"/>
      <psa30 value="0.0041187581" flag="0"/>
    </comp>
    <comp name="--.HHZ">
      <acc value="0.0431961165" flag="0"/>
      <vel value="0.0295640053" flag="0"/>
      <psa03 value="0.0678162091" flag="0"/>
      <psa10 value="0.0253850654" flag="0"/>
      <psa30 value="0.0013888112" flag="0"/>
    </comp>
  </station>
  <station code="DRO" name="DRO" netid="HP" insttype="120P," lat="37.952" lon="21.71">
    <comp name="--.HHE">
      <acc value="0.1406971865" flag="0"/>
      <vel value="0.0389637044" flag="0"/>
      <psa03 value="0.1809484215" flag="0"/>
      <psa10 value="0.0254387572" flag="0"/>
      <psa30 value="0.0017184396" flag="0"/>
    </comp>
    <comp name="--.HHN">
      <acc value="0.1735150845" flag="0"/>
      <vel value="0.0699229908" flag="0"/>
      <psa03 value="0.2926958790" flag="0"/>
      <psa10 value="0.0249031647" flag="0"/>
      <psa30 value="0.0019693678" flag="0"/>
    </comp>
    <comp name="--.HHZ">
      <acc value="0.0651294514" flag="0"/>
      <vel value="0.0193574715" flag="0"/>
      <psa03 value="0.1023205496" flag="0"/>
      <psa10 value="0.0161785250" flag="0"/>
      <psa30 value="0.0012039276" flag="0"/>
    </comp>
  </station>
  <station code="EFP" name="EFP" netid="HP" insttype="40," lat="38.4269" lon="21.9058">
    <comp name="--.HHE">
      <acc value="0.0634675143" flag="0"/>
      <vel value="0.0170508079" flag="0"/>
      <psa03 value="0.0680999655" flag="0"/>
      <psa10 value="0.0079673904" flag="0"/>
      <psa30 value="0.0006859473" flag="0"/>
    </comp>
    <comp name="--.HHN">
      <acc value="0.0397404619" flag="0"/>
      <vel value="0.0159177094" flag="0"/>
      <psa03 value="0.0855837868" flag="0"/>
      <psa10 value="0.0100242155" flag="0"/>
      <psa30 value="0.0012174191" flag="0"/>
    </comp>
    <comp name="--.HHZ">
      <acc value="0.0395144142" flag="0"/>
      <vel value="0.0121853212" flag="0"/>
      <psa03 value="0.0679278339" flag="0"/>
      <psa10 value="0.0080295457" flag="0"/>
      <psa30 value="0.0005009138" flag="0"/>
    </comp>
  </station>
  <station code="FSK" name="FSK" netid="HP" insttype="40," lat="38.4593" lon="20.5623">
    <comp name="--.HHE">
      <acc value="0.0476899625" flag="0"/>
      <vel value="0.0125722854" flag="0"/>
      <psa03 value="0.0615921420" flag="0"/>
      <psa10 value="0.0117868846" flag="0"/>
      <psa30 value="0.0013798710" flag="0"/>
    </comp>
    <comp name="--.HHN">
      <acc value="0.0315067677" flag="0"/>
      <vel value="0.0107525157" flag="0"/>
      <psa03 value="0.0518716503" flag="0"/>
      <psa10 value="0.0090880675" flag="0"/>
      <psa30 value="0.0012480457" flag="0"/>
    </comp>
    <comp name="--.HHZ">
      <acc value="0.0321588473" flag="0"/>
      <vel value="0.0078512929" flag="0"/>
      <psa03 value="0.0303974106" flag="0"/>
      <psa10 value="0.0070196045" flag="0"/>
      <psa30 value="0.0005385430" flag="0"/>
    </comp>
  </station>
  <station code="GUR" name="GUR" netid="HP" insttype="40," lat="37.9363" lon="22.3423">
    <comp name="--.HHN">
      <acc value="0.0339631413" flag="0"/>
      <vel value="0.0182792828" flag="0"/>
      <psa03 value="0.0759092646" flag="0"/>
      <psa10 value="0.0131088027" flag="0"/>
      <psa30 value="0.0008053364" flag="0"/>
    </comp>
    <comp name="--.HHE">
      <acc value="0.0203533304" flag="0"/>
      <vel value="0.0107006979" flag="0"/>
      <psa03 value="0.0722534358" flag="0"/>
      <psa10 value="0.0127941482" flag="0"/>
      <psa30 value="0.0005009543" flag="0"/>
    </comp>
    <comp name="--.HHZ">
      <acc value="0.0135286239" flag="0"/>
      <vel value="0.0064591107" flag="0"/>
      <psa03 value="0.0252217650" flag="0"/>
      <psa10 value="0.0090280065" flag="0"/>
      <psa30 value="0.0004766847" flag="0"/>
    </comp>
  </station>
  <station code="LTHK" name="LTHK" netid="HP" insttype="40," lat="37.7095" lon="20.8367">
    <comp name="--.HHE">
      <acc value="1.0825313254" flag="0"/>
      <vel value="0.3383109656" flag="0"/>
      <psa03 value="1.7000058200" flag="0"/>
      <psa10 value="0.1255252246" flag="0"/>
      <psa30 value="0.0077400887" flag="0"/>
    </comp>
    <comp name="--.HHN">
      <acc value="1.1312471719" flag="0"/>
      <vel value="0.2444176394" flag="0"/>
      <psa03 value="2.0978612221" flag="0"/>
      <psa10 value="0.0945464649" flag="0"/>
      <psa30 value="0.0057848024" flag="0"/>
    </comp>
    <comp name="--.HHZ">
      <acc value="0.4625869691" flag="0"/>
      <vel value="0.1555211784" flag="0"/>
      <psa03 value="0.9231466496" flag="0"/>
      <psa10 value="0.0412693877" flag="0"/>
      <psa30 value="0.0032361063" flag="0"/>
    </comp>
  </station>
  <station code="PVO" name="PVO" netid="HP" insttype="120P," lat="38.616" lon="21.525">
    <comp name="--.HHE">
      <acc value="0.0572015410" flag="0"/>
      <vel value="0.0199611830" flag="0"/>
      <psa03 value="0.0864544608" flag="0"/>
      <psa10 value="0.0192633752" flag="0"/>
      <psa30 value="0.0017647900" flag="0"/>
    </comp>
    <comp name="--.HHN">
      <acc value="0.0650692454" flag="0"/>
