<?xml version="1.0" encoding="UTF-8" standalone="yes"?>
<!DOCTYPE earthquake SYSTEM "stationlist.dtd">
<stationlist created="" xmlns="ch.ethz.sed.shakemap.usgs.xml">
  <station code="AKS" name="AKS" netid="KO" insttype="CMG-5T" commtype="DIG" lat="38.8785" lon="27.8129">
    <comp name="--.HNE">
      <acc value="0.2097041852" flag="0"/>
      <vel value="0.0439263424" flag="0"/>
      <psa03 value="0.1374689001" flag="0"/>
      <psa10 value="0.0115879556" flag="0"/>
      <psa30 value="0.0010236193" flag="0"/>
    </comp>
    <comp name="--.HNN">
      <acc value="0.1516721302" flag="0"/>
      <vel value="0.0392240119" flag="0"/>
      <psa03 value="0.2516191567" flag="0"/>
      <psa10 value="0.0134861235" flag="0"/>
      <psa30 value="0.0014105001" flag="0"/>
    </comp>
  </station>
  <station code="BALB" name="BALB" netid="KO" insttype="CMG-5T" commtype="DIG" lat="39.6507" lon="27.8642">
    <comp name="--.HNZ">
      <acc value="0.0761196889" flag="0"/>
      <vel value="0.0142063076" flag="0"/>
      <psa03 value="0.0666911863" flag="0"/>
      <psa10 value="0.0051762592" flag="0"/>
      <psa30 value="0.0008926379" flag="0"/>
    </comp>
    <comp name="--.HNN">
      <acc value="0.1683559644" flag="0"/>
      <vel value="0.0399186539" flag="0"/>
      <psa03 value="0.1057411031" flag="0"/>
      <psa10 value="0.0085622147" flag="0"/>
      <psa30 value="0.0010043749" flag="0"/>
    </comp>
    <comp name="--.HNE">
      <acc value="0.2026742564" flag="0"/>
      <vel value="0.0544019155" flag="0"/>
      <psa03 value="0.1531979965" flag="0"/>
      <psa10 value="0.0144158950" flag="0"/>
      <psa30 value="0.0011274713" flag="0"/>
    </comp>
  </station>
  <station code="DST" name="DST" netid="KO" insttype="CMG-5T" commtype="DIG" lat="39.6041" lon="28.6267">
    <comp name="--.HNE">
      <acc value="0.0404621928" flag="0"/>
      <vel value="0.0119030093" flag="0"/>
      <psa03 value="0.0999262223" flag="0"/>
      <psa10 value="0.0060513790" flag="0"/>
      <psa30 value="0.0011526221" flag="0"/>
    </comp>
    <comp name="--.HNN">
      <acc value="0.0384664280" flag="0"/>
      <vel value="0.0110355200" flag="0"/>
      <psa03 value="0.0759098732" flag="0"/>
      <psa10 value="0.0071757741" flag="0"/>
      <psa30 value="0.0007378163" flag="0"/>
    </comp>
    <comp name="--.HNZ">
      <acc value="0.0355777624" flag="0"/>
      <vel value="0.0141283835" flag="0"/>
      <psa03 value="0.0916757852" flag="0"/>
      <psa10 value="0.0069668303" flag="0"/>
      <psa30 value="0.0008792789" flag="0"/>
    </comp>
  </station>
  <station code="GOMA" name="GOMA" netid="KO" insttype="CMG-5T" commtype="DIG" lat="38.7077" lon="27.9175">
    <comp name="--.HNZ">
      <acc value="0.0480158131" flag="0"/>
      <vel value="0.0144899377" flag="0"/>
      <psa03 value="0.0693401817" flag="0"/>
      <psa10 value="0.0035504152" flag="0"/>
      <psa30 value="0.0005633649" flag="0"/>
    </comp>
    <comp name="--.HNE">
      <acc value="0.1055074001" flag="0"/>
      <vel value="0.0461839068" flag="0"/>
      <psa03 value="0.3907565577" flag="0"/>
      <psa10 value="0.0146148008" flag="0"/>
      <psa30 value="0.0012351089" flag="0"/>
    </comp>
    <comp name="--.HNN">
      <acc value="0.0845386848" flag="0"/>
      <vel value="0.0526954690" flag="0"/>
      <psa03 value="0.2832955998" flag="0"/>
      <psa10 value="0.0198496484" flag="0"/>
      <psa30 value="0.0016185224" flag="0"/>
    </comp>
  </station>
  <station code="GONE" name="GONE" netid="KO" insttype="CMG-5T" commtype="DIG" lat="40.0466" lon="27.686">
    <comp name="--.HNZ">
      <acc value="0.0203713088" flag="0"/>
      <vel value="0.0063441699" flag="0"/>
      <psa03 value="0.0531931635" flag="0"/>
      <psa10 value="0.0034076530" flag="0"/>
      <psa30 value="0.0009215726" flag="0"/>
    </comp>
    <comp name="--.HNE">
      <acc value="0.0328970229" flag="0"/>
      <vel value="0.0113770277" flag="0"/>
      <psa03 value="0.0951458389" flag="0"/>
      <psa10 value="0.0084130056" flag="0"/>
      <psa30 value="0.0011675884" flag="0"/>
    </comp>
    <comp name="--.HNN">
      <acc value="0.0652055992" flag="0"/>
      <vel value="0.0308659046" flag="0"/>
      <psa03 value="0.1540476888" flag="0"/>
      <psa10 value="0.0144431803" flag="0"/>
      <psa30 value="0.0024592108" flag="0"/>
    </comp>
  </station>
  <station code="GORD" name="GORD" netid="KO" insttype="CMG-5T" commtype="DIG" lat="38.9088" lon="28.1769">
    <comp name="--.HNZ">
      <acc value="0.0362275603" flag="0"/>
      <vel value="0.0150983210" flag="0"/>
      <psa03 value="0.0820243832" flag="0"/>
      <psa10 value="0.0102039134" flag="0"/>
      <psa30 value="0.0011803630" flag="0"/>
    </comp>
    <comp name="--.HNE">
      <acc value="0.0255455409" flag="0"/>
      <vel value="0.0127419933" flag="0"/>
      <psa03 value="0.0618149934" flag="0"/>
      <psa10 value="0.0220653853" flag="0"/>
      <psa30 value="0.0017273340" flag="0"/>
    </comp>
    <comp name="--.HNN">
      <acc value="0.0312209055" flag="0"/>
      <vel value="0.0195920484" flag="0"/>
      <psa03 value="0.0604022729" flag="0"/>
      <psa10 value="0.0275599524" flag="0"/>
      <psa30 value="0.0014183453" flag="0"/>
    </comp>
  </station>
  <station code="ORLT" name="ORLT" netid="KO" insttype="CMG-5T" commtype="DIG" lat="40.0452" lon="28.8914">
    <comp name="--.HNN">
      <acc value="0.0378515862" flag="0"/>
      <vel value="0.0142713072" flag="0"/>
      <psa03 value="0.1087978932" flag="0"/>
      <psa10 value="0.0117198642" flag="0"/>
      <psa30 value="0.0010319334" flag="0"/>
    </comp>
    <comp name="--.HNE">
      <acc value="0.0253314325" flag="0"/>
      <vel value="0.0158658267" flag="0"/>
      <psa03 value="0.0786709673" flag="0"/>
      <psa10 value="0.0093490738" flag="0"/>
      <psa30 value="0.0008899806" flag="0"/>
    </comp>
    <comp name="--.HNZ">
      <acc value="0.0162602603" flag="0"/>
      <vel value="0.0079781950" flag="0"/>
      <psa03 value="0.0394220721" flag="0"/>
      <psa10 value="0.0093998147" flag="0"/>
      <psa30 value="0.0008321482" flag="0"/>
    </comp>
  </station>
  <station code="SOMA" name="SOMA" netid="KO" insttype="CMG-5T" commtype="DIG" lat="39.1564" lon="27.5341">
    <comp name="--.HNZ">
      <acc value="0.0833879628" flag="0"/>
      <vel value="0.0191193945" flag="0"/>
      <psa03 value="0.0570430286" flag="0"/>
      <psa10 value="0.0078062231" flag="0"/>
      <psa30 value="0.0011453784" flag="0"/>
    </comp>
    <comp name="--.HNN">
      <acc value="0.0741956137" flag="0"/>
      <vel value="0.0230994915" flag="0"/>
      <psa03 value="0.1029293870" flag="0"/>
      <psa10 value="0.0131970356" flag="0"/>
      <psa30 value="0.0013103482" flag="0"/>
    </comp>
    <comp name="--.HNE">
      <acc value="0.0946386271" flag="0"/>
      <vel value="0.0214731927" flag="0"/>
      <psa03 value="0.1130951963" flag="0"/>
      <psa10 value="0.0078585007" flag="0"/>
      <psa30 value="0.0010325082" flag="0"/>
    </comp>
  </station>
  <station code="SUSR" name="SUSR" netid="KO" insttype="CMG-5T" commtype="DIG" lat="39.9627" lon="28.0835">
    <comp name="--.HNZ">
      <acc value="0.0322022910" flag="0"/>
      <vel value="0.0061994178" flag="0"/>
      <psa03 value="0.0278235081" flag="0"/>
      <psa10 value="0.0029794929" flag="0"/>
      <psa30 value="0.0004895274" flag="0"/>
    </comp>
    <comp name="--.HNN">
      <acc value="0.0428342381" flag="0"/>
      <vel value="0.0141701439" flag="0"/>
      <psa03 value="0.0576635314" flag="0"/>
      <psa10 value="0.0038854605" flag="0"/>
      <psa30 value="0.0006896213" flag="0"/>
    </comp>
    <comp name="--.HNE">
      <acc value="0.0383594036" flag="0"/>
      <vel value="0.0109699133" flag="0"/>
      <psa03 value="0.0624950603" flag="0"/>
      <psa10 value="0.0038952836" flag="0"/>
      <psa30 value="0.0003357488" flag="0"/>
    </comp>
  </station>
  <station code="YENI" name="YENI" netid="KO" insttype="CMG-5T" commtype="DIG" lat="39.9364" lon="27.2422">
    <comp name="--.HNZ">
      <acc value="0.0383416223" flag="0"/>
      <vel value="0.0089260578" flag="0"/>
      <psa03 value="0.0496727666" flag="0"/>
      <psa10 value="0.0029520280" flag="0"/>
      <psa30 value="0.0005029398" flag="0"/>
    </comp>
    <comp name="--.HNN">
      <acc value="0.1561586296" flag="0"/>
      <vel value="0.0561554127" flag="0"/>
      <psa03 value="0.2304118267" flag="0"/>
      <psa10 value="0.0112944548" flag="0"/>
      <psa30 value="0.0011462724" flag="0"/>
    </comp>
    <comp name="--.HNE">
      <acc value="0.0633214504" flag="0"/>
      <vel value="0.0170663944" flag="0"/>
      <psa03 value="0.1224733087" flag="0"/>
      <psa10 value="0.0099498214" flag="0"/>
      <psa30 value="0.0010286295" flag="0"/>
    </comp>
  </station>
</stationlist>
