<stationlist created="1756090952">
	<station code="KRL1" name="KRL1" netid="HI" source="ITSAK Strong Motion Network" insttype="" lat="37.7951" lon="26.7065">
		<comp name=".HNE" depth="0.0">
			<acc value="0.011389674412362" flag="0"/>
			<vel value="0.00661310306074" flag="0"/>
			<psa03 value="0.0290866846626033" flag="0"/>
			<psa10 value="0.00285137881172654" flag="0"/>
			<psa30 value="0.00125265100281259" flag="0"/>
		</comp>
		<comp name=".HNN" depth="0.0">
			<acc value="0.0078194530979946" flag="0"/>
			<vel value="0.00440707007957" flag="0"/>
			<psa03 value="0.0253054914687944" flag="0"/>
			<psa10 value="0.00472301272015814" flag="0"/>
			<psa30 value="0.000951787530419882" flag="0"/>
		</comp>
		<comp name=".HNZ" depth="0.0">
			<acc value="0.0043302265740936" flag="0"/>
			<vel value="0.00198040507554" flag="0"/>
			<psa03 value="0.0102112194119185" flag="0"/>
			<psa10 value="0.00294220185955887" flag="0"/>
			<psa30 value="0.000512122154744856" flag="0"/>
		</comp>
	</station>
	<station code="MYT1" name="MYT1" netid="HI" source="ITSAK Strong Motion Network" insttype="" lat="39.085" lon="26.5694">
		<comp name=".HNE" depth="0.0">
			<acc value="0.019430471771886" flag="0"/>
			<vel value="0.00836818081464" flag="0"/>
			<psa03 value="0.0423466229642709" flag="0"/>
			<psa10 value="0.00873082493678683" flag="0"/>
			<psa30 value="0.00173008721395189" flag="0"/>
		</comp>
		<comp name=".HNN" depth="0.0">
			<acc value="0.010742440866012" flag="0"/>
			<vel value="0.0090048099501" flag="0"/>
			<psa03 value="0.0310895933871398" flag="0"/>
			<psa10 value="0.0108577014569165" flag="0"/>
			<psa30 value="0.00349466733789415" flag="0"/>
		</comp>
		<comp name=".HNZ" depth="0.0">
			<acc value="0.0078830075125356" flag="0"/>
			<vel value="0.00412096951785" flag="0"/>
			<psa03 value="0.02763172629961" flag="0"/>
			<psa10 value="0.00507197661857302" flag="0"/>
			<psa30 value="0.00109389527769558" flag="0"/>
		</comp>
	</station>
	<station code="PLM1" name="PLM1" netid="HI" source="ITSAK Strong Motion Network" insttype="" lat="38.9751" lon="26.3688">
		<comp name=".HNE" depth="0.0">
			<acc value="0.01377476226831" flag="0"/>
			<vel value="0.00347064942639" flag="0"/>
			<psa03 value="0.0213732426953545" flag="0"/>
			<psa10 value="0.00252523095603411" flag="0"/>
			<psa30 value="0.000405239240944389" flag="0"/>
		</comp>
		<comp name=".HNN" depth="0.0">
			<acc value="0.011167654216182" flag="0"/>
			<vel value="0.002708698264" flag="0"/>
			<psa03 value="0.00982507403999995" flag="0"/>
			<psa10 value="0.00190696277223828" flag="0"/>
			<psa30 value="0.0007150341383365" flag="0"/>
		</comp>
		<comp name=".HNZ" depth="0.0">
			<acc value="0.013732291096944" flag="0"/>
			<vel value="0.00248515913518" flag="0"/>
			<psa03 value="0.0041125445713104" flag="0"/>
			<psa10 value="0.00161887243766501" flag="0"/>
			<psa30 value="0.000658590034605788" flag="0"/>
		</comp>
	</station>
	<station code="SGR1" name="SGR1" netid="HI" source="ITSAK Strong Motion Network" insttype="" lat="39.211392" lon="25.855221">
		<comp name=".HNE" depth="0.0">
			<acc value="0.0064229364264504" flag="0"/>
			<vel value="0.00299402783135" flag="0"/>
			<psa03 value="0.0144613551292283" flag="0"/>
			<psa10 value="0.00176127077710568" flag="0"/>
			<psa30 value="0.000545905694820902" flag="0"/>
		</comp>
		<comp name=".HNN" depth="0.0">
			<acc value="0.0045190372324962" flag="0"/>
			<vel value="0.00425296789429" flag="0"/>
			<psa03 value="0.0161260357186214" flag="0"/>
			<psa10 value="0.00366952691627349" flag="0"/>
			<psa30 value="0.000527491766656785" flag="0"/>
		</comp>
		<comp name=".HNZ" depth="0.0">
			<acc value="0.0036230486866158" flag="0"/>
			<vel value="0.00147806936063" flag="0"/>
			<psa03 value="0.0108773644522382" flag="0"/>
			<psa10 value="0.00135838451755647" flag="0"/>
			<psa30 value="0.000418839568982748" flag="0"/>
		</comp>
	</station>
	<station code="PRK" name="PRK" netid="HL" source="National Observatory of Athens Seismic Network" insttype="" lat="39.24565" lon="26.26499">
		<comp name=".HNE" depth="0.0">
			<acc value="0.0097530338024304" flag="0"/>
			<vel value="0.00510216421539" flag="0"/>
			<psa03 value="0.0166440257621138" flag="0"/>
			<psa10 value="0.00457280542593264" flag="0"/>
			<psa30 value="0.000996681337745868" flag="0"/>
		</comp>
		<comp name=".HNN" depth="0.0">
			<acc value="0.006826249942029" flag="0"/>
			<vel value="0.00432046964706" flag="0"/>
			<psa03 value="0.0136902649857726" flag="0"/>
			<psa10 value="0.0039170597203574" flag="0"/>
			<psa30 value="0.000940467405518636" flag="0"/>
		</comp>
		<comp name=".HNZ" depth="0.0">
			<acc value="0.010360915936848" flag="0"/>
			<vel value="0.00421652746198" flag="0"/>
			<psa03 value="0.0145821274527021" flag="0"/>
			<psa10 value="0.00331469716054457" flag="0"/>
			<psa30 value="0.000560957785699452" flag="0"/>
		</comp>
	</station>
	<station code="SMG" name="SMG" netid="HL" source="National Observatory of Athens Seismic Network" insttype="" lat="37.70425" lon="26.83772">
		<comp name="00.HNE" depth="0.0">
			<acc value="0.0084839828570502" flag="0"/>
			<vel value="0.00400478798981" flag="0"/>
			<psa03 value="0.0244539689137821" flag="0"/>
			<psa10 value="0.00168966822128974" flag="0"/>
			<psa30 value="0.000583891023663085" flag="0"/>
		</comp>
		<comp name="00.HNN" depth="0.0">
			<acc value="0.0090772482135798" flag="0"/>
			<vel value="0.00505263843969" flag="0"/>
			<psa03 value="0.0264783295802402" flag="0"/>
			<psa10 value="0.00170497450869446" flag="0"/>
			<psa30 value="0.000650531584106543" flag="0"/>
		</comp>
		<comp name="00.HNZ" depth="0.0">
			<acc value="0.0042683769632052" flag="0"/>
			<vel value="0.00191950705062" flag="0"/>
			<psa03 value="0.0139562409387177" flag="0"/>
			<psa10 value="0.00131292342004696" flag="0"/>
			<psa30 value="0.000455169944439889" flag="0"/>
		</comp>
	</station>
	<station code="LES3" name="LES3" netid="HT" source="Aristotle University of Thessaloniki Seismological Network" insttype="" lat="39.303248" lon="26.180664">
		<comp name=".HNE" depth="0.0">
			<acc value="0.035452769812158" flag="0"/>
			<vel value="0.0202490470268" flag="0"/>
			<psa03 value="0.0406686081582126" flag="0"/>
			<psa10 value="0.0229945676522577" flag="0"/>
			<psa30 value="0.00891032026496603" flag="0"/>
		</comp>
		<comp name=".HNN" depth="0.0">
			<acc value="0.034235375330628" flag="0"/>
			<vel value="0.0204088046537" flag="0"/>
			<psa03 value="0.038774336838689" flag="0"/>
			<psa10 value="0.0176717594173234" flag="0"/>
			<psa30 value="0.00707012919469422" flag="0"/>
		</comp>
		<comp name=".HNZ" depth="0.0">
			<acc value="0.045344603387544" flag="0"/>
			<vel value="0.0283519205685" flag="0"/>
			<psa03 value="0.0480109148624868" flag="0"/>
			<psa10 value="0.0277492094989443" flag="0"/>
			<psa30 value="0.0121342330000535" flag="0"/>
		</comp>
	</station>
	<station code="ALT" name="ALT" netid="KO" source="Bogazici University Kandilli Observatory And Earthquake Research Institute (KOERI)" insttype="" lat="39.0541" lon="30.1104">
		<comp name=".HNE" depth="0.0">
			<acc value="0.002489964892581" flag="0"/>
			<vel value="0.00105845760434" flag="0"/>
			<psa03 value="0.00312330781527092" flag="0"/>
			<psa10 value="0.000720771438976085" flag="0"/>
			<psa30 value="0.00061013536639086" flag="0"/>
		</comp>
		<comp name=".HNN" depth="0.0">
			<acc value="0.002031781224387" flag="0"/>
			<vel value="0.00123340650596" flag="0"/>
			<psa03 value="0.00573582528277096" flag="0"/>
			<psa10 value="0.00084406888417099" flag="0"/>
			<psa30 value="0.000607583061894238" flag="0"/>
		</comp>
		<comp name=".HNZ" depth="0.0">
			<acc value="0.0013334385977274" flag="0"/>
			<vel value="0.00131552590533" flag="0"/>
			<psa03 value="0.00228673384166624" flag="0"/>
			<psa10 value="0.000991935789003195" flag="0"/>
			<psa30 value="0.00067272722112547" flag="0"/>
		</comp>
	</station>
	<station code="ARMT" name="ARMT" netid="KO" source="Bogazici University Kandilli Observatory And Earthquake Research Institute (KOERI)" insttype="" lat="40.5683" lon="28.866">
		<comp name=".HNE" depth="0.0">
			<acc value="0.013511899378806" flag="0"/>
			<vel value="0.00679779742824" flag="0"/>
			<psa03 value="0.0478843075169329" flag="0"/>
			<psa10 value="0.00212634281289884" flag="0"/>
			<psa30 value="0.000582526245754369" flag="0"/>
		</comp>
		<comp name=".HNN" depth="0.0">
			<acc value="0.012310250718672" flag="0"/>
			<vel value="0.00605834205692" flag="0"/>
			<psa03 value="0.0657493243199505" flag="0"/>
			<psa10 value="0.00340698233648257" flag="0"/>
			<psa30 value="0.000495668668949117" flag="0"/>
		</comp>
		<comp name=".HNZ" depth="0.0">
			<acc value="0.010222261889946" flag="0"/>
			<vel value="0.00424845462242" flag="0"/>
			<psa03 value="0.0273181925086889" flag="0"/>
			<psa10 value="0.00182414533286524" flag="0"/>
			<psa30 value="0.000490365088445851" flag="0"/>
		</comp>
	</station>
	<station code="ASYA" name="ASYA" netid="KO" source="Bogazici University Kandilli Observatory And Earthquake Research Institute (KOERI)" insttype="" lat="40.8956" lon="27.465">
		<comp name=".HNE" depth="0.0">
			<acc value="0.043736650968846" flag="0"/>
			<vel value="0.00869003710622" flag="0"/>
			<psa03 value="0.0383734561156458" flag="0"/>
			<psa10 value="0.00527708004940933" flag="0"/>
			<psa30 value="0.000771030712418394" flag="0"/>
		</comp>
		<comp name=".HNN" depth="0.0">
			<acc value="0.05335985464827" flag="0"/>
			<vel value="0.00888239975452" flag="0"/>
			<psa03 value="0.0380937266474438" flag="0"/>
			<psa10 value="0.00552292524168748" flag="0"/>
			<psa30 value="0.000931534209569454" flag="0"/>
		</comp>
		<comp name=".HNZ" depth="0.0">
			<acc value="0.073352095159068" flag="0"/>
			<vel value="0.0268817960423" flag="0"/>
			<psa03 value="0.124746722191651" flag="0"/>
			<psa10 value="0.00420841253666193" flag="0"/>
			<psa30 value="0.00053819799672521" flag="0"/>
		</comp>
	</station>
	<station code="AVCI" name="AVCI" netid="KO" source="Bogazici University Kandilli Observatory And Earthquake Research Institute (KOERI)" insttype="" lat="40.9958" lon="28.7225">
		<comp name=".HNE" depth="0.0">
			<acc value="0.0062191400827614" flag="0"/>
			<vel value="0.00554119471335" flag="0"/>
			<psa03 value="0.0114988802339714" flag="0"/>
			<psa10 value="0.0062994779345007" flag="0"/>
			<psa30 value="0.00373034003338547" flag="0"/>
		</comp>
		<comp name=".HNN" depth="0.0">
			<acc value="0.0045000081729618" flag="0"/>
			<vel value="0.00682105785028" flag="0"/>
			<psa03 value="0.0154698047465549" flag="0"/>
			<psa10 value="0.00491047967019546" flag="0"/>
			<psa30 value="0.00545620061316572" flag="0"/>
		</comp>
		<comp name=".HNZ" depth="0.0">
			<acc value="0.0035135178913332" flag="0"/>
			<vel value="0.00253594368198" flag="0"/>
			<psa03 value="0.0102032084645646" flag="0"/>
			<psa10 value="0.00211554069106473" flag="0"/>
			<psa30 value="0.00105653384434791" flag="0"/>
		</comp>
	</station>
	<station code="BALB" name="BALB" netid="KO" source="Bogazici University Kandilli Observatory And Earthquake Research Institute (KOERI)" insttype="" lat="39.6507" lon="27.8642">
		<comp name=".HNE" depth="0.0">
			<acc value="0.19884698280414" flag="0"/>
			<vel value="0.0550739824384" flag="0"/>
			<psa03 value="0.15309003729676" flag="0"/>
			<psa10 value="0.014523906825036" flag="0"/>
			<psa30 value="0.00116407898952122" flag="0"/>
		</comp>
		<comp name=".HNN" depth="0.0">
			<acc value="0.16877462847978" flag="0"/>
			<vel value="0.0399329269924" flag="0"/>
			<psa03 value="0.107645266387116" flag="0"/>
			<psa10 value="0.00852698112064481" flag="0"/>
			<psa30 value="0.00116417774606328" flag="0"/>
		</comp>
		<comp name=".HNZ" depth="0.0">
			<acc value="0.076170450250404" flag="0"/>
			<vel value="0.0142272289159" flag="0"/>
			<psa03 value="0.0672562314367383" flag="0"/>
			<psa10 value="0.00520654303292808" flag="0"/>
			<psa30 value="0.000998885858784119" flag="0"/>
		</comp>
	</station>
	<station code="BASM" name="BASM" netid="KO" source="Bogazici University Kandilli Observatory And Earthquake Research Institute (KOERI)" insttype="" lat="37.9194" lon="30.035">
		<comp name=".HNE" depth="0.0">
			<acc value="0.0018698437580286" flag="0"/>
			<vel value="0.00177189965632" flag="0"/>
			<psa03 value="0.0029440999800911" flag="0"/>
			<psa10 value="0.00295324962266696" flag="0"/>
			<psa30 value="0.000729127103175922" flag="0"/>
		</comp>
		<comp name=".HNN" depth="0.0">
			<acc value="0.0022435977220062" flag="0"/>
			<vel value="0.00137173251239" flag="0"/>
			<psa03 value="0.00225025925743471" flag="0"/>
			<psa10 value="0.00193569061281593" flag="0"/>
			<psa30 value="0.000601463750271751" flag="0"/>
		</comp>
		<comp name=".HNZ" depth="0.0">
			<acc value="0.00212576888943" flag="0"/>
			<vel value="0.000778671048706" flag="0"/>
			<psa03 value="0.00206035637782314" flag="0"/>
			<psa10 value="0.001180752242478" flag="0"/>
			<psa30 value="0.000294672124748678" flag="0"/>
		</comp>
	</station>
	<station code="BIGA" name="BIGA" netid="KO" source="Bogazici University Kandilli Observatory And Earthquake Research Institute (KOERI)" insttype="" lat="40.28134" lon="27.15048">
		<comp name=".HNE" depth="0.0">
			<acc value="0.029819025014796" flag="0"/>
			<vel value="0.0123965592053" flag="0"/>
			<psa03 value="0.0665905154616522" flag="0"/>
			<psa10 value="0.00451453922231584" flag="0"/>
			<psa30 value="0.000996012855962377" flag="0"/>
		</comp>
		<comp name=".HNN" depth="0.0">
			<acc value="0.048206014538748" flag="0"/>
			<vel value="0.0179422051861" flag="0"/>
			<psa03 value="0.135367321587502" flag="0"/>
			<psa10 value="0.00685958785151006" flag="0"/>
			<psa30 value="0.000845412723194117" flag="0"/>
		</comp>
		<comp name=".HNZ" depth="0.0">
			<acc value="0.01865032693653" flag="0"/>
			<vel value="0.00459960358769" flag="0"/>
			<psa03 value="0.0189836455941915" flag="0"/>
			<psa10 value="0.00143341362849433" flag="0"/>
			<psa30 value="0.000665606645258136" flag="0"/>
		</comp>
	</station>
	<station code="BMYO" name="BMYO" netid="KO" source="Bogazici University Kandilli Observatory And Earthquake Research Institute (KOERI)" insttype="" lat="39.8098" lon="26.6009">
		<comp name=".HNE" depth="0.0">
			<acc value="0.022829258107104" flag="0"/>
			<vel value="0.00926731254385" flag="0"/>
			<psa03 value="0.0569121399417584" flag="0"/>
			<psa10 value="0.00626893544247254" flag="0"/>
			<psa30 value="0.0017033425255838" flag="0"/>
		</comp>
		<comp name=".HNN" depth="0.0">
			<acc value="0.029731914634116" flag="0"/>
			<vel value="0.0146950655601" flag="0"/>
			<psa03 value="0.0466535228585387" flag="0"/>
			<psa10 value="0.0056695332350212" flag="0"/>
			<psa30 value="0.00213019257313583" flag="0"/>
		</comp>
		<comp name=".HNZ" depth="0.0">
			<acc value="0.010659162365334" flag="0"/>
			<vel value="0.00302361429337" flag="0"/>
			<psa03 value="0.0168863074370956" flag="0"/>
			<psa10 value="0.00305777326559763" flag="0"/>
			<psa30 value="0.000909103869502671" flag="0"/>
		</comp>
	</station>
	<station code="BOTS" name="BOTS" netid="KO" source="Bogazici University Kandilli Observatory And Earthquake Research Institute (KOERI)" insttype="" lat="40.9902" lon="27.981">
		<comp name=".HNE" depth="0.0">
			<acc value="0.0071375086879542" flag="0"/>
			<vel value="0.00360042371795" flag="0"/>
			<psa03 value="0.0188537463640069" flag="0"/>
			<psa10 value="0.00288541630091867" flag="0"/>
			<psa30 value="0.000887195126487891" flag="0"/>
		</comp>
		<comp name=".HNN" depth="0.0">
			<acc value="0.0084194458532736" flag="0"/>
			<vel value="0.00555027716429" flag="0"/>
			<psa03 value="0.0224273476808912" flag="0"/>
			<psa10 value="0.00275444168699536" flag="0"/>
			<psa30 value="0.000895522032271564" flag="0"/>
		</comp>
		<comp name=".HNZ" depth="0.0">
			<acc value="0.002610006152271" flag="0"/>
			<vel value="0.00156807471376" flag="0"/>
			<psa03 value="0.00481915322960987" flag="0"/>
			<psa10 value="0.0013433282076516" flag="0"/>
			<psa30 value="0.000707543954648303" flag="0"/>
		</comp>
	</station>
	<station code="BRGA" name="BRGA" netid="KO" source="Bogazici University Kandilli Observatory And Earthquake Research Institute (KOERI)" insttype="" lat="40.8846" lon="29.065">
		<comp name=".HNE" depth="0.0">
			<acc value="0.0062469629148078" flag="0"/>
			<vel value="0.00412441836301" flag="0"/>
			<psa03 value="0.0167878412787634" flag="0"/>
			<psa10 value="0.00393628654091461" flag="0"/>
			<psa30 value="0.000352182861636199" flag="0"/>
		</comp>
		<comp name=".HNN" depth="0.0">
			<acc value="0.0059701684446864" flag="0"/>
			<vel value="0.00328768394439" flag="0"/>
			<psa03 value="0.0181838894892868" flag="0"/>
			<psa10 value="0.00381565206509891" flag="0"/>
			<psa30 value="0.000615980389011834" flag="0"/>
		</comp>
		<comp name=".HNZ" depth="0.0">
			<acc value="0.0041209532339574" flag="0"/>
			<vel value="0.00295771447177" flag="0"/>
			<psa03 value="0.0104982488428944" flag="0"/>
			<psa10 value="0.00182559456949333" flag="0"/>
			<psa30 value="0.000654961512986021" flag="0"/>
		</comp>
	</station>
	<station code="BUYK" name="BUYK" netid="KO" source="Bogazici University Kandilli Observatory And Earthquake Research Institute (KOERI)" insttype="" lat="41.0168" lon="28.5828">
		<comp name=".HNE" depth="0.0">
			<acc value="0.0072243114263832" flag="0"/>
			<vel value="0.0098608775236" flag="0"/>
			<psa03 value="0.0325421765928243" flag="0"/>
			<psa10 value="0.0106950878720938" flag="0"/>
			<psa30 value="0.00238549427728994" flag="0"/>
		</comp>
		<comp name=".HNN" depth="0.0">
			<acc value="0.0090989342489802" flag="0"/>
			<vel value="0.0109295455124" flag="0"/>
			<psa03 value="0.0294653555810347" flag="0"/>
			<psa10 value="0.0125497394836492" flag="0"/>
			<psa30 value="0.00196531602587259" flag="0"/>
		</comp>
		<comp name=".HNZ" depth="0.0">
			<acc value="0.0046694663403666" flag="0"/>
			<vel value="0.00330644115743" flag="0"/>
			<psa03 value="0.0117035018620604" flag="0"/>
			<psa10 value="0.00510194579136593" flag="0"/>
			<psa30 value="0.000447218740630047" flag="0"/>
		</comp>
	</station>
	<station code="CANM" name="CANM" netid="KO" source="Bogazici University Kandilli Observatory And Earthquake Research Institute (KOERI)" insttype="" lat="40.0113" lon="27.0529">
		<comp name=".HNE" depth="0.0">
			<acc value="0.01929549083454" flag="0"/>
			<vel value="0.00713683632341" flag="0"/>
			<psa03 value="0.0335895037855943" flag="0"/>
			<psa10 value="0.00355208437065621" flag="0"/>
			<psa30 value="0.00091916870291638" flag="0"/>
		</comp>
		<comp name=".HNN" depth="0.0">
			<acc value="0.024147384002088" flag="0"/>
			<vel value="0.00910437252271" flag="0"/>
			<psa03 value="0.0331817371897495" flag="0"/>
			<psa10 value="0.00681861216834458" flag="0"/>
			<psa30 value="0.00109926292494034" flag="0"/>
		</comp>
		<comp name=".HNZ" depth="0.0">
			<acc value="0.024287872360176" flag="0"/>
			<vel value="0.00808937173478" flag="0"/>
			<psa03 value="0.0417329729379861" flag="0"/>
			<psa10 value="0.00353654474748341" flag="0"/>
			<psa30 value="0.000516415668336535" flag="0"/>
		</comp>
	</station>
	<station code="CESE" name="CESE" netid="KO" source="Bogazici University Kandilli Observatory And Earthquake Research Institute (KOERI)" insttype="" lat="38.3306" lon="26.2997">
		<comp name=".HNE" depth="0.0">
			<acc value="0.01284139055007" flag="0"/>
			<vel value="0.00157120033312" flag="0"/>
			<psa03 value="0.00499483381293093" flag="0"/>
			<psa10 value="0.00102033477967221" flag="0"/>
			<psa30 value="0.00069983521481534" flag="0"/>
		</comp>
		<comp name=".HNN" depth="0.0">
			<acc value="0.01479809168499" flag="0"/>
			<vel value="0.00223383819491" flag="0"/>
			<psa03 value="0.00648125291890752" flag="0"/>
			<psa10 value="0.00252687614314487" flag="0"/>
			<psa30 value="0.00083089045908351" flag="0"/>
		</comp>
		<comp name=".HNZ" depth="0.0">
