<?xml version="1.0" encoding="UTF-8" standalone="yes"?>
<!DOCTYPE earthquake SYSTEM "stationlist.dtd">
<stationlist created="" xmlns="ch.ethz.sed.shakemap.usgs.xml">
  <station code="AKS" name="AKS" netid="KO" insttype="CMG-5T" commtype="DIG" lat="38.8785" lon="27.8129">
    <comp name="--.HNN">
      <acc value="0.0370258236" flag="0"/>
      <vel value="0.0138789414" flag="0"/>
      <psa03 value="0.0461544928" flag="0"/>
      <psa10 value="0.0051151078" flag="0"/>
      <psa30 value="0.0006815103" flag="0"/>
    </comp>
    <comp name="--.HNZ">
      <acc value="0.0428485937" flag="0"/>
      <vel value="0.0070676731" flag="0"/>
      <psa03 value="0.0347231508" flag="0"/>
      <psa10 value="0.0043192797" flag="0"/>
      <psa30 value="0.0005799870" flag="0"/>
    </comp>
    <comp name="--.HNE">
      <acc value="0.0389209164" flag="0"/>
      <vel value="0.0132096609" flag="0"/>
      <psa03 value="0.1141363378" flag="0"/>
      <psa10 value="0.0057599567" flag="0"/>
      <psa30 value="0.0008338439" flag="0"/>
    </comp>
  </station>
  <station code="BALB" name="BALB" netid="KO" insttype="CMG-5T" commtype="DIG" lat="39.6507" lon="27.8642">
    <comp name="--.HNN">
      <acc value="0.0212300141" flag="0"/>
      <vel value="0.0081426248" flag="0"/>
      <psa03 value="0.0365433267" flag="0"/>
      <psa10 value="0.0068983399" flag="0"/>
      <psa30 value="0.0006962655" flag="0"/>
    </comp>
    <comp name="--.HNZ">
      <acc value="0.0105918235" flag="0"/>
      <vel value="0.0036323696" flag="0"/>
      <psa03 value="0.0130225154" flag="0"/>
      <psa10 value="0.0038888768" flag="0"/>
      <psa30 value="0.0003073085" flag="0"/>
    </comp>
    <comp name="--.HNE">
      <acc value="0.0121945473" flag="0"/>
      <vel value="0.0073842014" flag="0"/>
      <psa03 value="0.0190013216" flag="0"/>
      <psa10 value="0.0089290144" flag="0"/>
      <psa30 value="0.0005849630" flag="0"/>
    </comp>
  </station>
  <station code="DST" name="DST" netid="KO" insttype="CMG-5T" commtype="DIG" lat="39.6041" lon="28.6267">
    <comp name="--.HNE">
      <acc value="0.0339772715" flag="0"/>
      <vel value="0.0114316396" flag="0"/>
      <psa03 value="0.0622162001" flag="0"/>
      <psa10 value="0.0102751731" flag="0"/>
      <psa30 value="0.0006287825" flag="0"/>
    </comp>
    <comp name="--.HNN">
      <acc value="0.0414072533" flag="0"/>
      <vel value="0.0180925645" flag="0"/>
      <psa03 value="0.0514714344" flag="0"/>
      <psa10 value="0.0113163839" flag="0"/>
      <psa30 value="0.0008926058" flag="0"/>
    </comp>
    <comp name="--.HNZ">
      <acc value="0.0336102984" flag="0"/>
      <vel value="0.0145354742" flag="0"/>
      <psa03 value="0.0665880460" flag="0"/>
      <psa10 value="0.0062144357" flag="0"/>
      <psa30 value="0.0005902665" flag="0"/>
    </comp>
  </station>
  <station code="GEDZ" name="GEDZ" netid="KO" insttype="CMG-6T" commtype="DIG" lat="39.0445" lon="29.4105">
    <comp name="--.HHZ">
      <acc value="0.0486242539" flag="0"/>
      <vel value="0.0133553604" flag="0"/>
      <psa03 value="0.0553185569" flag="0"/>
      <psa10 value="0.0069213735" flag="0"/>
      <psa30 value="0.0004178926" flag="0"/>
    </comp>
    <comp name="--.HHE">
      <acc value="0.0823729121" flag="0"/>
      <vel value="0.0325235325" flag="0"/>
      <psa03 value="0.2301537902" flag="0"/>
      <psa10 value="0.0265101917" flag="0"/>
      <psa30 value="0.0012159708" flag="0"/>
    </comp>
    <comp name="--.HHN">
      <acc value="0.1006728066" flag="0"/>
      <vel value="0.0428508326" flag="0"/>
      <psa03 value="0.3503165514" flag="0"/>
      <psa10 value="0.0208594304" flag="0"/>
      <psa30 value="0.0011633980" flag="0"/>
    </comp>
  </station>
  <station code="GOMA" name="GOMA" netid="KO" insttype="CMG-5T" commtype="DIG" lat="38.7077" lon="27.9175">
    <comp name="--.HNE">
      <acc value="0.0314882140" flag="0"/>
      <vel value="0.0177626896" flag="0"/>
      <psa03 value="0.0874058359" flag="0"/>
      <psa10 value="0.0114318055" flag="0"/>
      <psa30 value="0.0006515025" flag="0"/>
    </comp>
    <comp name="--.HNN">
      <acc value="0.0513319357" flag="0"/>
      <vel value="0.0184332606" flag="0"/>
      <psa03 value="0.1335471671" flag="0"/>
      <psa10 value="0.0037375732" flag="0"/>
      <psa30 value="0.0006053189" flag="0"/>
    </comp>
    <comp name="--.HNZ">
      <acc value="0.0388731499" flag="0"/>
      <vel value="0.0116026033" flag="0"/>
      <psa03 value="0.0621614327" flag="0"/>
      <psa10 value="0.0034144729" flag="0"/>
      <psa30 value="0.0004026297" flag="0"/>
    </comp>
  </station>
  <station code="GONE" name="GONE" netid="KO" insttype="CMG-5T" commtype="DIG" lat="40.0466" lon="27.686">
    <comp name="--.HNZ">
      <acc value="0.0065681300" flag="0"/>
      <vel value="0.0018167191" flag="0"/>
      <psa03 value="0.0068472521" flag="0"/>
      <psa10 value="0.0023611099" flag="0"/>
      <psa30 value="0.0002592798" flag="0"/>
    </comp>
    <comp name="--.HNE">
      <acc value="0.0107329024" flag="0"/>
      <vel value="0.0056404725" flag="0"/>
      <psa03 value="0.0159961265" flag="0"/>
      <psa10 value="0.0059605562" flag="0"/>
      <psa30 value="0.0002964307" flag="0"/>
    </comp>
    <comp name="--.HNN">
      <acc value="0.0133609878" flag="0"/>
      <vel value="0.0062225062" flag="0"/>
      <psa03 value="0.0245291445" flag="0"/>
      <psa10 value="0.0055220005" flag="0"/>
      <psa30 value="0.0004074043" flag="0"/>
    </comp>
  </station>
  <station code="GORD" name="GORD" netid="KO" insttype="CMG-5T" commtype="DIG" lat="38.9088" lon="28.1769">
    <comp name="--.HNZ">
      <acc value="0.0587443494" flag="0"/>
      <vel value="0.0205587341" flag="0"/>
      <psa03 value="0.0863587783" flag="0"/>
      <psa10 value="0.0238666776" flag="0"/>
      <psa30 value="0.0020345389" flag="0"/>
    </comp>
    <comp name="--.HNN">
      <acc value="0.0498416070" flag="0"/>
      <vel value="0.0243047952" flag="0"/>
      <psa03 value="0.1276267824" flag="0"/>
      <psa10 value="0.0226710333" flag="0"/>
      <psa30 value="0.0017903719" flag="0"/>
    </comp>
    <comp name="--.HNE">
      <acc value="0.0381027757" flag="0"/>
      <vel value="0.0264850819" flag="0"/>
      <psa03 value="0.1437832659" flag="0"/>
      <psa10 value="0.0169480319" flag="0"/>
      <psa30 value="0.0012833734" flag="0"/>
    </comp>
  </station>
  <station code="KULA" name="KULA" netid="KO" insttype="CMG-3T" commtype="DIG" lat="38.5145" lon="28.6607">
    <comp name="--.HHE">
      <acc value="0.0448929162" flag="0"/>
      <vel value="0.0128354664" flag="0"/>
      <psa03 value="0.0665122524" flag="0"/>
      <psa10 value="0.0073714416" flag="0"/>
      <psa30 value="0.0005064696" flag="0"/>
    </comp>
    <comp name="--.HHN">
      <acc value="0.0455077137" flag="0"/>
      <vel value="0.0111620854" flag="0"/>
      <psa03 value="0.0492461984" flag="0"/>
      <psa10 value="0.0025041817" flag="0"/>
      <psa30 value="0.0003134522" flag="0"/>
    </comp>
    <comp name="--.HHZ">
      <acc value="0.0247417830" flag="0"/>
      <vel value="0.0083679391" flag="0"/>
      <psa03 value="0.0562088811" flag="0"/>
      <psa10 value="0.0035874593" flag="0"/>
      <psa30 value="0.0002586604" flag="0"/>
    </comp>
  </station>
  <station code="ODEM" name="ODEM" netid="KO" insttype="CMG-5T" commtype="DIG" lat="38.2762" lon="28.0747">
    <comp name="--.HNN">
      <acc value="0.0093263160" flag="0"/>
      <vel value="0.0036594107" flag="0"/>
      <psa03 value="0.0328500170" flag="0"/>
      <psa10 value="0.0043112493" flag="0"/>
      <psa30 value="0.0002699155" flag="0"/>
    </comp>
    <comp name="--.HNZ">
      <acc value="0.0123403407" flag="0"/>
      <vel value="0.0032674769" flag="0"/>
      <psa03 value="0.0177849195" flag="0"/>
      <psa10 value="0.0044654601" flag="0"/>
      <psa30 value="0.0003519042" flag="0"/>
    </comp>
    <comp name="--.HNE">
      <acc value="0.0090899356" flag="0"/>
      <vel value="0.0049820751" flag="0"/>
      <psa03 value="0.0207696481" flag="0"/>
      <psa10 value="0.0045514217" flag="0"/>
      <psa30 value="0.0004363353" flag="0"/>
    </comp>
  </station>
  <station code="ORLT" name="ORLT" netid="KO" insttype="CMG-5T" commtype="DIG" lat="40.0452" lon="28.8914">
    <comp name="--.HNE">
      <acc value="0.0328828293" flag="0"/>
      <vel value="0.0136959064" flag="0"/>
      <psa03 value="0.0818657788" flag="0"/>
      <psa10 value="0.0114896180" flag="0"/>
      <psa30 value="0.0006227512" flag="0"/>
    </comp>
    <comp name="--.HNZ">
      <acc value="0.0156167474" flag="0"/>
      <vel value="0.0078303128" flag="0"/>
      <psa03 value="0.0373402115" flag="0"/>
      <psa10 value="0.0084199060" flag="0"/>
      <psa30 value="0.0006827459" flag="0"/>
    </comp>
    <comp name="--.HNN">
      <acc value="0.0510485418" flag="0"/>
      <vel value="0.0198453820" flag="0"/>
      <psa03 value="0.1139429676" flag="0"/>
      <psa10 value="0.0179142586" flag="0"/>
      <psa30 value="0.0008280681" flag="0"/>
    </comp>
  </station>
  <station code="SHAP" name="SHAP" netid="KO" insttype="CMG-5T" commtype="DIG" lat="39.0231" lon="29.222">
    <comp name="--.HNZ">
      <acc value="0.0872555072" flag="0"/>
      <vel value="0.0208127501" flag="0"/>
      <psa03 value="0.0423693524" flag="0"/>
      <psa10 value="0.0041061892" flag="0"/>
      <psa30 value="0.0003693260" flag="0"/>
    </comp>
    <comp name="--.HNE">
      <acc value="0.1179620302" flag="0"/>
      <vel value="0.0291361245" flag="0"/>
      <psa03 value="0.1623891110" flag="0"/>
      <psa10 value="0.0080857432" flag="0"/>
      <psa30 value="0.0004744301" flag="0"/>
    </comp>
    <comp name="--.HNN">
      <acc value="0.1170061581" flag="0"/>
      <vel value="0.0320233787" flag="0"/>
      <psa03 value="0.1658617917" flag="0"/>
      <psa10 value="0.0075734075" flag="0"/>
      <psa30 value="0.0004593427" flag="0"/>
    </comp>
  </station>
  <station code="SIMA" name="SIMA" netid="KO" insttype="CMG-6T" commtype="DIG" lat="39.0833" lon="28.9825">
    <comp name="--.HHE">
      <acc value="0.1651360598" flag="0"/>
      <vel value="0.0349035172" flag="0"/>
      <psa03 value="0.2465010783" flag="0"/>
      <psa10 value="0.0067329403" flag="0"/>
      <psa30 value="0.0008281438" flag="0"/>
    </comp>
    <comp name="--.HHN">
      <acc value="0.1104446013" flag="0"/>
      <vel value="0.0344611553" flag="0"/>
      <psa03 value="0.3293285051" flag="0"/>
      <psa10 value="0.0067766281" flag="0"/>
      <psa30 value="0.0007888214" flag="0"/>
    </comp>
    <comp name="--.HHZ">
      <acc value="0.0828401671" flag="0"/>
      <vel value="0.0224088156" flag="0"/>
      <psa03 value="0.1006131435" flag="0"/>
      <psa10 value="0.0041523200" flag="0"/>
      <psa30 value="0.0003761341" flag="0"/>
    </comp>
  </station>
  <station code="SMAA" name="SMAA" netid="KO" insttype="CMG-5T" commtype="DIG" lat="39.1005" lon="28.9805">
    <comp name="--.HNE">
      <acc value="0.1130201327" flag="0"/>
      <vel value="0.0362941194" flag="0"/>
      <psa03 value="0.2346640914" flag="0"/>
      <psa10 value="0.0281262000" flag="0"/>
      <psa30 value="0.0018716974" flag="0"/>
    </comp>
    <comp name="--.HNN">
      <acc value="0.1113632312" flag="0"/>
      <vel value="0.0356803298" flag="0"/>
      <psa03 value="0.2579994257" flag="0"/>
      <psa10 value="0.0283996181" flag="0"/>
      <psa30 value="0.0015410225" flag="0"/>
    </comp>
    <comp name="--.HNZ">
      <acc value="0.0416410537" flag="0"/>
      <vel value="0.0104536290" flag="0"/>
      <psa03 value="0.0490943117" flag="0"/>
      <psa10 value="0.0121752937" flag="0"/>
      <psa30 value="0.0006496818" flag="0"/>
    </comp>
  </station>
  <station code="SOMA" name="SOMA" netid="KO" insttype="CMG-5T" commtype="DIG" lat="39.1564" lon="27.5341">
    <comp name="--.HNE">
      <acc value="0.0184217420" flag="0"/>
      <vel value="0.0059313434" flag="0"/>
      <psa03 value="0.0209015126" flag="0"/>
      <psa10 value="0.0068898183" flag="0"/>
      <psa30 value="0.0004656351" flag="0"/>
    </comp>
    <comp name="--.HNN">
      <acc value="0.0165403507" flag="0"/>
      <vel value="0.0070912550" flag="0"/>
      <psa03 value="0.0355404144" flag="0"/>
      <psa10 value="0.0076363494" flag="0"/>
      <psa30 value="0.0003810148" flag="0"/>
    </comp>
    <comp name="--.HNZ">
      <acc value="0.0136343681" flag="0"/>
      <vel value="0.0046366639" flag="0"/>
      <psa03 value="0.0136324675" flag="0"/>
      <psa10 value="0.0051136598" flag="0"/>
      <psa30 value="0.0004299815" flag="0"/>
    </comp>
  </station>
  <station code="SUSR" name="SUSR" netid="KO" insttype="CMG-5T" commtype="DIG" lat="39.9627" lon="28.0835">
    <comp name="--.HNE">
      <acc value="0.0200790737" flag="0"/>
      <vel value="0.0045707092" flag="0"/>
      <psa03 value="0.0343042420" flag="0"/>
      <psa10 value="0.0027579498" flag="0"/>
      <psa30 value="0.0002152911" flag="0"/>
    </comp>
    <comp name="--.HNZ">
      <acc value="0.0168680220" flag="0"/>
      <vel value="0.0038929678" flag="0"/>
      <psa03 value="0.0169613650" flag="0"/>
      <psa10 value="0.0015159892" flag="0"/>
      <psa30 value="0.0003921516" flag="0"/>
    </comp>
    <comp name="--.HNN">
      <acc value="0.0220831458" flag="0"/>
      <vel value="0.0057275542" flag="0"/>
      <psa03 value="0.0237587872" flag="0"/>
      <psa10 value="0.0015991744" flag="0"/>
      <psa30 value="0.0003120855" flag="0"/>
    </comp>
  </station>
  <station code="TVSB" name="TVSB" netid="KO" insttype="CMG-3T" commtype="DIG" lat="39.4497" lon="29.4615">
    <comp name="--.HHE">
      <acc value="0.0559016659" flag="0"/>
      <vel value="0.0227164343" flag="0"/>
      <psa03 value="0.1255091972" flag="0"/>
      <psa10 value="0.0076662055" flag="0"/>
      <psa30 value="0.0007851885" flag="0"/>
    </comp>
    <comp name="--.HHN">
      <acc value="0.0600140247" flag="0"/>
      <vel value="0.0257101178" flag="0"/>
      <psa03 value="0.1269298924" flag="0"/>
      <psa10 value="0.0104781023" flag="0"/>
      <psa30 value="0.0007123714" flag="0"/>
    </comp>
    <comp name="--.HHZ">
      <acc value="0.0310360105" flag="0"/>
      <vel value="0.0106665604" flag="0"/>
      <psa03 value="0.0626298607" flag="0"/>
      <psa10 value="0.0041929664" flag="0"/>
      <psa30 value="0.0003944072" flag="0"/>
    </comp>
  </station>
  <station code="YAYO" name="YAYO" netid="KO" insttype="CMG-6T" commtype="DIG" lat="39.6113" lon="27.0726">
    <comp name="--.HHE">
      <acc value="0.0089790243" flag="0"/>
      <vel value="0.0084626683" flag="0"/>
      <psa03 value="0.0217023578" flag="0"/>
      <psa10 value="0.0067460750" flag="0"/>
      <psa30 value="0.0004650466" flag="0"/>
    </comp>
    <comp name="--.HHN">
      <acc value="0.0082481744" flag="0"/>
      <vel value="0.0042947770" flag="0"/>
      <psa03 value="0.0144915955" flag="0"/>
      <psa10 value="0.0049674444" flag="0"/>
      <psa30 value="0.0002697895" flag="0"/>
    </comp>
    <comp name="--.HHZ">
      <acc value="0.0055122585" flag="0"/>
      <vel value="0.0028921445" flag="0"/>
      <psa03 value="0.0107774530" flag="0"/>
      <psa10 value="0.0026217540" flag="0"/>
      <psa30 value="0.0002068796" flag="0"/>
    </comp>
  </station>
</stationlist>
