<?xml version="1.0" encoding="UTF-8" standalone="yes"?>
<!DOCTYPE earthquake SYSTEM "stationlist.dtd">
<stationlist created="" xmlns="ch.ethz.sed.shakemap.usgs.xml">
  <station code="SIMA" name="SIMA" netid="KO" insttype="CMG-6T" commtype="DIG" lat="39.0833" lon="28.9825">
    <comp name="--.HHZ">
      <acc value="0.0470259211" flag="0"/>
      <vel value="0.0152577022" flag="0"/>
      <psa03 value="0.0695619949" flag="0"/>
      <psa10 value="0.0107947361" flag="0"/>
      <psa30 value="0.0006218998" flag="0"/>
    </comp>
    <comp name="--.HHE">
      <acc value="0.1152876219" flag="0"/>
      <vel value="0.0367517400" flag="0"/>
      <psa03 value="0.1872535426" flag="0"/>
      <psa10 value="0.0123716779" flag="0"/>
      <psa30 value="0.0008719242" flag="0"/>
    </comp>
    <comp name="--.HHN">
      <acc value="0.0571147544" flag="0"/>
      <vel value="0.0265243728" flag="0"/>
      <psa03 value="0.1366629012" flag="0"/>
      <psa10 value="0.0164569606" flag="0"/>
      <psa30 value="0.0011741774" flag="0"/>
    </comp>
  </station>
  <station code="SMAA" name="SMAA" netid="KO" insttype="CMG-5T" commtype="DIG" lat="39.1005" lon="28.9805">
    <comp name="--.HNE">
      <acc value="0.1167220468" flag="0"/>
      <vel value="0.0813064386" flag="0"/>
      <psa03 value="0.3186307185" flag="0"/>
      <psa10 value="0.1078165521" flag="0"/>
      <psa30 value="0.0044183454" flag="0"/>
    </comp>
    <comp name="--.HNN">
      <acc value="0.0883317257" flag="0"/>
      <vel value="0.0474727661" flag="0"/>
      <psa03 value="0.2412211046" flag="0"/>
      <psa10 value="0.0507248236" flag="0"/>
      <psa30 value="0.0028320122" flag="0"/>
    </comp>
    <comp name="--.HNZ">
      <acc value="0.0384053205" flag="0"/>
      <vel value="0.0211935438" flag="0"/>
      <psa03 value="0.0437990554" flag="0"/>
      <psa10 value="0.0379050513" flag="0"/>
      <psa30 value="0.0013149271" flag="0"/>
    </comp>
  </station>
  <station code="YENI" name="YENI" netid="KO" insttype="CMG-5T" commtype="DIG" lat="39.9364" lon="27.2422">
    <comp name="--.HNN">
      <acc value="0.0918901777" flag="0"/>
      <vel value="0.0220224716" flag="0"/>
      <psa03 value="0.0405954773" flag="0"/>
      <psa10 value="0.0152634387" flag="0"/>
      <psa30 value="0.0006673088" flag="0"/>
    </comp>
    <comp name="--.HNZ">
      <acc value="0.0189478551" flag="0"/>
      <vel value="0.0039825760" flag="0"/>
      <psa03 value="0.0127331789" flag="0"/>
      <psa10 value="0.0031725269" flag="0"/>
      <psa30 value="0.0004584705" flag="0"/>
    </comp>
    <comp name="--.HNE">
      <acc value="0.0235322424" flag="0"/>
      <vel value="0.0107304819" flag="0"/>
      <psa03 value="0.0249679947" flag="0"/>
      <psa10 value="0.0096272802" flag="0"/>
      <psa30 value="0.0006841055" flag="0"/>
    </comp>
  </station>
</stationlist>
