<?xml version="1.0" encoding="UTF-8" standalone="yes"?>
<!DOCTYPE earthquake SYSTEM "stationlist.dtd">
<stationlist created="" xmlns="ch.ethz.sed.shakemap.usgs.xml">
  <station code="AKS" name="AKS" netid="KO" insttype="CMG-5T" commtype="DIG" lat="38.8785" lon="27.8129">
    <comp name="--.HNE">
      <acc value="0.1538767044" flag="0"/>
      <vel value="0.0293631613" flag="0"/>
      <psa03 value="0.0938634521" flag="0"/>
      <psa10 value="0.0191028257" flag="0"/>
      <psa30 value="0.0011220154" flag="0"/>
    </comp>
    <comp name="--.HNZ">
      <acc value="0.1310274236" flag="0"/>
      <vel value="0.0225981333" flag="0"/>
      <psa03 value="0.0648899056" flag="0"/>
      <psa10 value="0.0067182325" flag="0"/>
      <psa30 value="0.0009265801" flag="0"/>
    </comp>
    <comp name="--.HNN">
      <acc value="0.1873134197" flag="0"/>
      <vel value="0.0441028446" flag="0"/>
      <psa03 value="0.1532895689" flag="0"/>
      <psa10 value="0.0143124385" flag="0"/>
      <psa30 value="0.0010076697" flag="0"/>
    </comp>
  </station>
  <station code="AYVL" name="AYVL" netid="KO" insttype="CMG-6T" commtype="DIG" lat="39.2907" lon="26.69">
    <comp name="--.HHE">
      <acc value="0.0619809783" flag="0"/>
      <vel value="0.0244425180" flag="0"/>
      <psa03 value="0.1007948441" flag="0"/>
      <psa10 value="0.0074441569" flag="0"/>
      <psa30 value="0.0005070201" flag="0"/>
    </comp>
    <comp name="--.HHZ">
      <acc value="0.0175727693" flag="0"/>
      <vel value="0.0057834902" flag="0"/>
      <psa03 value="0.0244576767" flag="0"/>
      <psa10 value="0.0036724293" flag="0"/>
      <psa30 value="0.0001509325" flag="0"/>
    </comp>
    <comp name="--.HHN">
      <acc value="0.0486523304" flag="0"/>
      <vel value="0.0176782654" flag="0"/>
      <psa03 value="0.1027311400" flag="0"/>
      <psa10 value="0.0099431766" flag="0"/>
      <psa30 value="0.0004910035" flag="0"/>
    </comp>
  </station>
  <station code="BALB" name="BALB" netid="KO" insttype="CMG-5T" commtype="DIG" lat="39.6507" lon="27.8642">
    <comp name="--.HNZ">
      <acc value="0.0660039149" flag="0"/>
      <vel value="0.0117116371" flag="0"/>
      <psa03 value="0.0477778077" flag="0"/>
      <psa10 value="0.0086710305" flag="0"/>
      <psa30 value="0.0006344609" flag="0"/>
    </comp>
    <comp name="--.HNE">
      <acc value="0.0632796591" flag="0"/>
      <vel value="0.0180359360" flag="0"/>
      <psa03 value="0.0611161974" flag="0"/>
      <psa10 value="0.0192248036" flag="0"/>
      <psa30 value="0.0015202888" flag="0"/>
    </comp>
    <comp name="--.HNN">
      <acc value="0.0599963940" flag="0"/>
      <vel value="0.0166722154" flag="0"/>
      <psa03 value="0.0366541807" flag="0"/>
      <psa10 value="0.0171798496" flag="0"/>
      <psa30 value="0.0011137764" flag="0"/>
    </comp>
  </station>
  <station code="DST" name="DST" netid="KO" insttype="CMG-5T" commtype="DIG" lat="39.6041" lon="28.6267">
    <comp name="--.HNE">
      <acc value="0.1591446304" flag="0"/>
      <vel value="0.0416613470" flag="0"/>
      <psa03 value="0.1751593412" flag="0"/>
      <psa10 value="0.0123517132" flag="0"/>
      <psa30 value="0.0014656585" flag="0"/>
    </comp>
    <comp name="--.HNZ">
      <acc value="0.1233799492" flag="0"/>
      <vel value="0.0171926628" flag="0"/>
      <psa03 value="0.1142163269" flag="0"/>
      <psa10 value="0.0104881155" flag="0"/>
      <psa30 value="0.0012092428" flag="0"/>
    </comp>
    <comp name="--.HNN">
      <acc value="0.1302943900" flag="0"/>
      <vel value="0.0352714255" flag="0"/>
      <psa03 value="0.1215386527" flag="0"/>
      <psa10 value="0.0130663881" flag="0"/>
      <psa30 value="0.0013433624" flag="0"/>
    </comp>
  </station>
  <station code="GEDZ" name="GEDZ" netid="KO" insttype="CMG-6T" commtype="DIG" lat="39.0445" lon="29.4105">
    <comp name="--.HHE">
      <acc value="0.0981573952" flag="0"/>
      <vel value="0.0386528760" flag="0"/>
      <psa03 value="0.3002567664" flag="0"/>
      <psa10 value="0.0365906845" flag="0"/>
      <psa30 value="0.0014225399" flag="0"/>
    </comp>
    <comp name="--.HHN">
      <acc value="0.1221858672" flag="0"/>
      <vel value="0.0430510832" flag="0"/>
      <psa03 value="0.3177280690" flag="0"/>
      <psa10 value="0.0358603551" flag="0"/>
      <psa30 value="0.0015510975" flag="0"/>
    </comp>
    <comp name="--.HHZ">
      <acc value="0.0414071772" flag="0"/>
      <vel value="0.0144268178" flag="0"/>
      <psa03 value="0.0770137321" flag="0"/>
      <psa10 value="0.0078423367" flag="0"/>
      <psa30 value="0.0007093402" flag="0"/>
    </comp>
  </station>
  <station code="GOMA" name="GOMA" netid="KO" insttype="CMG-5T" commtype="DIG" lat="38.7077" lon="27.9175">
    <comp name="--.HNZ">
      <acc value="0.0851537664" flag="0"/>
      <vel value="0.0236868997" flag="0"/>
      <psa03 value="0.0922072068" flag="0"/>
      <psa10 value="0.0111073048" flag="0"/>
      <psa30 value="0.0007668632" flag="0"/>
    </comp>
    <comp name="--.HNE">
      <acc value="0.0995020617" flag="0"/>
      <vel value="0.0465792501" flag="0"/>
      <psa03 value="0.1989059053" flag="0"/>
      <psa10 value="0.0200912249" flag="0"/>
      <psa30 value="0.0015310489" flag="0"/>
    </comp>
    <comp name="--.HNN">
      <acc value="0.0975979885" flag="0"/>
      <vel value="0.0442151488" flag="0"/>
      <psa03 value="0.1148280242" flag="0"/>
      <psa10 value="0.0198114494" flag="0"/>
      <psa30 value="0.0018418975" flag="0"/>
    </comp>
  </station>
  <station code="GONE" name="GONE" netid="KO" insttype="CMG-5T" commtype="DIG" lat="40.0466" lon="27.686">
    <comp name="--.HNE">
      <acc value="0.0355136768" flag="0"/>
      <vel value="0.0146824907" flag="0"/>
      <psa03 value="0.0239031492" flag="0"/>
      <psa10 value="0.0200751819" flag="0"/>
      <psa30 value="0.0008557664" flag="0"/>
    </comp>
    <comp name="--.HNZ">
      <acc value="0.0221092684" flag="0"/>
      <vel value="0.0053956900" flag="0"/>
      <psa03 value="0.0151447802" flag="0"/>
      <psa10 value="0.0053378789" flag="0"/>
      <psa30 value="0.0003754989" flag="0"/>
    </comp>
    <comp name="--.HNN">
      <acc value="0.0320795728" flag="0"/>
      <vel value="0.0195676293" flag="0"/>
      <psa03 value="0.0480359125" flag="0"/>
      <psa10 value="0.0274494354" flag="0"/>
      <psa30 value="0.0015063788" flag="0"/>
    </comp>
  </station>
  <station code="GORD" name="GORD" netid="KO" insttype="CMG-5T" commtype="DIG" lat="38.9088" lon="28.1769">
    <comp name="--.HNE">
      <acc value="0.1060311264" flag="0"/>
      <vel value="0.0406155792" flag="0"/>
      <psa03 value="0.1196512665" flag="0"/>
      <psa10 value="0.0612268494" flag="0"/>
      <psa30 value="0.0035056212" flag="0"/>
    </comp>
    <comp name="--.HNN">
      <acc value="0.1480158831" flag="0"/>
      <vel value="0.0695724019" flag="0"/>
      <psa03 value="0.2012506016" flag="0"/>
      <psa10 value="0.0608580511" flag="0"/>
      <psa30 value="0.0034744057" flag="0"/>
    </comp>
    <comp name="--.HNZ">
      <acc value="0.0808073537" flag="0"/>
      <vel value="0.0372655660" flag="0"/>
      <psa03 value="0.1282802826" flag="0"/>
      <psa10 value="0.0266917519" flag="0"/>
      <psa30 value="0.0029812114" flag="0"/>
    </comp>
  </station>
  <station code="ORLT" name="ORLT" netid="KO" insttype="CMG-5T" commtype="DIG" lat="40.0452" lon="28.8914">
    <comp name="--.HNN">
      <acc value="0.0600407900" flag="0"/>
      <vel value="0.0307938047" flag="0"/>
      <psa03 value="0.1019249176" flag="0"/>
      <psa10 value="0.0418064278" flag="0"/>
      <psa30 value="0.0024949541" flag="0"/>
    </comp>
    <comp name="--.HNE">
      <acc value="0.0931207711" flag="0"/>
      <vel value="0.0384803952" flag="0"/>
      <psa03 value="0.1743232240" flag="0"/>
      <psa10 value="0.0278633814" flag="0"/>
      <psa30 value="0.0013902695" flag="0"/>
    </comp>
    <comp name="--.HNZ">
      <acc value="0.0344149777" flag="0"/>
      <vel value="0.0143754418" flag="0"/>
      <psa03 value="0.0328233621" flag="0"/>
      <psa10 value="0.0250649007" flag="0"/>
      <psa30 value="0.0017372449" flag="0"/>
    </comp>
  </station>
  <station code="SMAA" name="SMAA" netid="KO" insttype="CMG-5T" commtype="DIG" lat="39.1005" lon="28.9805">
    <comp name="--.HNE">
      <acc value="0.1167220495" flag="0"/>
      <vel value="0.0813064572" flag="0"/>
      <psa03 value="0.3186307185" flag="0"/>
      <psa10 value="0.1078170637" flag="0"/>
      <psa30 value="0.0044187254" flag="0"/>
    </comp>
    <comp name="--.HNN">
      <acc value="0.0883317163" flag="0"/>
      <vel value="0.0474727581" flag="0"/>
      <psa03 value="0.2412211046" flag="0"/>
      <psa10 value="0.0507250387" flag="0"/>
      <psa30 value="0.0028249231" flag="0"/>
    </comp>
    <comp name="--.HNZ">
      <acc value="0.0384053195" flag="0"/>
      <vel value="0.0211935267" flag="0"/>
      <psa03 value="0.0437990554" flag="0"/>
      <psa10 value="0.0379050230" flag="0"/>
      <psa30 value="0.0013265642" flag="0"/>
    </comp>
  </station>
  <station code="SOMA" name="SOMA" netid="KO" insttype="CMG-5T" commtype="DIG" lat="39.1564" lon="27.5341">
    <comp name="--.HNE">
      <acc value="0.0920579920" flag="0"/>
      <vel value="0.0254075492" flag="0"/>
      <psa03 value="0.1364953044" flag="0"/>
      <psa10 value="0.0113565888" flag="0"/>
      <psa30 value="0.0007556789" flag="0"/>
    </comp>
    <comp name="--.HNN">
      <acc value="0.0973808318" flag="0"/>
      <vel value="0.0286016890" flag="0"/>
      <psa03 value="0.1520155653" flag="0"/>
      <psa10 value="0.0152065515" flag="0"/>
      <psa30 value="0.0011779624" flag="0"/>
    </comp>
    <comp name="--.HNZ">
      <acc value="0.1182330659" flag="0"/>
      <vel value="0.0276697739" flag="0"/>
      <psa03 value="0.1088465780" flag="0"/>
      <psa10 value="0.0103807723" flag="0"/>
      <psa30 value="0.0006223840" flag="0"/>
    </comp>
  </station>
  <station code="SUSR" name="SUSR" netid="KO" insttype="CMG-5T" commtype="DIG" lat="39.9627" lon="28.0835">
    <comp name="--.HNE">
      <acc value="0.0554434067" flag="0"/>
      <vel value="0.0122222089" flag="0"/>
      <psa03 value="0.0354381122" flag="0"/>
      <psa10 value="0.0082686442" flag="0"/>
      <psa30 value="0.0004468787" flag="0"/>
    </comp>
    <comp name="--.HNN">
      <acc value="0.0489921734" flag="0"/>
      <vel value="0.0135659007" flag="0"/>
      <psa03 value="0.0334650266" flag="0"/>
      <psa10 value="0.0043949941" flag="0"/>
      <psa30 value="0.0004176346" flag="0"/>
    </comp>
    <comp name="--.HNZ">
      <acc value="0.0514261337" flag="0"/>
      <vel value="0.0092574886" flag="0"/>
      <psa03 value="0.0259239829" flag="0"/>
      <psa10 value="0.0035427752" flag="0"/>
      <psa30 value="0.0002921849" flag="0"/>
    </comp>
  </station>
  <station code="YENI" name="YENI" netid="KO" insttype="CMG-5T" commtype="DIG" lat="39.9364" lon="27.2422">
    <comp name="--.HNZ">
      <acc value="0.0231785716" flag="0"/>
      <vel value="0.0039825730" flag="0"/>
      <psa03 value="0.0127331892" flag="0"/>
      <psa10 value="0.0031725234" flag="0"/>
      <psa30 value="0.0004673429" flag="0"/>
    </comp>
    <comp name="--.HNE">
      <acc value="0.0235322260" flag="0"/>
      <vel value="0.0107304651" flag="0"/>
      <psa03 value="0.0249679948" flag="0"/>
      <psa10 value="0.0096272850" flag="0"/>
      <psa30 value="0.0006820712" flag="0"/>
    </comp>
    <comp name="--.HNN">
      <acc value="0.0918901643" flag="0"/>
      <vel value="0.0220224576" flag="0"/>
      <psa03 value="0.0405954772" flag="0"/>
      <psa10 value="0.0152634288" flag="0"/>
      <psa30 value="0.0006591107" flag="0"/>
    </comp>
  </station>
</stationlist>
