<?xml version="1.0" encoding="UTF-8" standalone="yes"?>
<!DOCTYPE earthquake SYSTEM "stationlist.dtd">
<stationlist created="" xmlns="ch.ethz.sed.shakemap.usgs.xml">
  <station code="KARP" name="KARP" netid="GE" insttype="STS-2/N" commtype="DIG" lat="35.5471" lon="27.1611">
    <comp name="--.HHZ">
      <acc value="0.0391439689" flag="0"/>
      <vel value="0.0045356499" flag="0"/>
      <psa03 value="0.0109021201" flag="0"/>
      <psa10 value="0.0012594282" flag="0"/>
      <psa30 value="0.0000603556" flag="0"/>
    </comp>
    <comp name="--.HHN">
      <acc value="0.0436931073" flag="0"/>
      <vel value="0.0040188395" flag="0"/>
      <psa03 value="0.0070793659" flag="0"/>
      <psa10 value="0.0008174307" flag="0"/>
      <psa30 value="0.0000522603" flag="0"/>
    </comp>
    <comp name="--.HHE">
      <acc value="0.0506685050" flag="0"/>
      <vel value="0.0039181337" flag="0"/>
      <psa03 value="0.0163472232" flag="0"/>
      <psa10 value="0.0010818973" flag="0"/>
      <psa30 value="0.0000724568" flag="0"/>
    </comp>
  </station>
  <station code="ARG" name="ARG" netid="HL" insttype="LE3D20_DR24" commtype="DIG" lat="36.2136" lon="28.1212">
    <comp name="--.HHE">
      <acc value="1.4060481118" flag="0"/>
      <vel value="1.1562209829" flag="0"/>
      <psa03 value="5.8185548170" flag="0"/>
      <psa10 value="1.7721545968" flag="0"/>
      <psa30 value="0.1781020351" flag="0"/>
    </comp>
    <comp name="--.HHN">
      <acc value="1.4759437974" flag="0"/>
      <vel value="1.3791481714" flag="0"/>
      <psa03 value="3.0295492198" flag="0"/>
      <psa10 value="1.9083433545" flag="0"/>
      <psa30 value="0.1691237716" flag="0"/>
    </comp>
    <comp name="--.HHZ">
      <acc value="1.3693260138" flag="0"/>
      <vel value="0.9446685128" flag="0"/>
      <psa03 value="3.2052757975" flag="0"/>
      <psa10 value="1.3749091972" flag="0"/>
      <psa30 value="0.1523084389" flag="0"/>
    </comp>
  </station>
  <station code="ASTA" name="ASTA" netid="HL" insttype="LE3D20_SMART24" commtype="DIG" lat="36.5475" lon="26.3471">
    <comp name="--.HHZ">
      <acc value="0.0554299122" flag="0"/>
      <vel value="0.0741281133" flag="0"/>
      <psa03 value="0.0982738774" flag="0"/>
      <psa10 value="0.0933425647" flag="0"/>
      <psa30 value="0.0174156500" flag="0"/>
    </comp>
    <comp name="--.HHE">
      <acc value="0.0864243623" flag="0"/>
      <vel value="0.1053467904" flag="0"/>
      <psa03 value="0.1790691329" flag="0"/>
      <psa10 value="0.1324904921" flag="0"/>
      <psa30 value="0.0166400874" flag="0"/>
    </comp>
    <comp name="--.HHN">
      <acc value="0.0761828814" flag="0"/>
      <vel value="0.0860132731" flag="0"/>
      <psa03 value="0.1415291067" flag="0"/>
      <psa10 value="0.0884887991" flag="0"/>
      <psa30 value="0.0184518755" flag="0"/>
    </comp>
  </station>
  <station code="KARP" name="KARP" netid="HL" insttype="120" commtype="DIG" lat="35.5471" lon="27.1611">
    <comp name="--.HHE">
      <acc value="0.0416185862" flag="0"/>
      <vel value="0.0034383559" flag="0"/>
      <psa03 value="0.0159829267" flag="0"/>
      <psa10 value="0.0010636167" flag="0"/>
      <psa30 value="0.0000704397" flag="0"/>
    </comp>
    <comp name="--.HHN">
      <acc value="0.0302162786" flag="0"/>
      <vel value="0.0031357613" flag="0"/>
      <psa03 value="0.0068618120" flag="0"/>
      <psa10 value="0.0008059764" flag="0"/>
      <psa30 value="0.0000511252" flag="0"/>
    </comp>
    <comp name="--.HHZ">
      <acc value="0.0329475090" flag="0"/>
      <vel value="0.0037249396" flag="0"/>
      <psa03 value="0.0106194146" flag="0"/>
      <psa10 value="0.0012503213" flag="0"/>
      <psa30 value="0.0000595734" flag="0"/>
    </comp>
  </station>
  <station code="KLNA" name="KLNA" netid="HL" insttype="CMG-5" commtype="DIG" lat="36.9571" lon="26.9727">
    <comp name="00.HNE">
      <acc value="1.0055843407" flag="0"/>
      <vel value="0.5793099846" flag="0"/>
      <psa03 value="3.0508562981" flag="0"/>
      <psa10 value="0.6001185650" flag="0"/>
      <psa30 value="0.0512133491" flag="0"/>
    </comp>
    <comp name="00.HNN">
      <acc value="0.7980747623" flag="0"/>
      <vel value="0.5410832007" flag="0"/>
      <psa03 value="2.4324658679" flag="0"/>
      <psa10 value="0.6309670567" flag="0"/>
      <psa30 value="0.0507712453" flag="0"/>
    </comp>
    <comp name="00.HNZ">
      <acc value="0.7482391985" flag="0"/>
      <vel value="0.2410792505" flag="0"/>
      <psa03 value="0.9676720061" flag="0"/>
      <psa10 value="0.2011926832" flag="0"/>
      <psa30 value="0.0255218893" flag="0"/>
    </comp>
  </station>
</stationlist>
