<?xml version="1.0" encoding="UTF-8" standalone="yes"?>
<!DOCTYPE earthquake SYSTEM "stationlist.dtd">
<stationlist created="" xmlns="ch.ethz.sed.shakemap.usgs.xml">
  <station code="KARP" name="KARP" netid="GE" insttype="STS-2/N" commtype="DIG" lat="35.5471" lon="27.1611">
    <comp name="--.HHZ">
      <acc value="0.0391439689" flag="0"/>
      <vel value="0.0045356499" flag="0"/>
      <psa03 value="0.0109021201" flag="0"/>
      <psa10 value="0.0012594282" flag="0"/>
      <psa30 value="0.0000603556" flag="0"/>
    </comp>
    <comp name="--.HHN">
      <acc value="0.0436931073" flag="0"/>
      <vel value="0.0040188395" flag="0"/>
      <psa03 value="0.0070793659" flag="0"/>
      <psa10 value="0.0008174307" flag="0"/>
      <psa30 value="0.0000522603" flag="0"/>
    </comp>
    <comp name="--.HHE">
      <acc value="0.0506685050" flag="0"/>
      <vel value="0.0039181337" flag="0"/>
      <psa03 value="0.0163472232" flag="0"/>
      <psa10 value="0.0010818973" flag="0"/>
      <psa30 value="0.0000724568" flag="0"/>
    </comp>
  </station>
  <station code="ARG" name="ARG" netid="HL" insttype="LE3D20_DR24" commtype="DIG" lat="36.2136" lon="28.1212">
    <comp name="--.HHE">
      <acc value="1.4060481118" flag="0"/>
      <vel value="1.1562209829" flag="0"/>
      <psa03 value="5.8185548170" flag="0"/>
      <psa10 value="1.7721545968" flag="0"/>
      <psa30 value="0.1781020351" flag="0"/>
    </comp>
    <comp name="--.HHN">
      <acc value="1.4759437974" flag="0"/>
      <vel value="1.3791481714" flag="0"/>
      <psa03 value="3.0295492198" flag="0"/>
      <psa10 value="1.9083433545" flag="0"/>
      <psa30 value="0.1691237716" flag="0"/>
    </comp>
    <comp name="--.HHZ">
      <acc value="1.3693260138" flag="0"/>
      <vel value="0.9446685128" flag="0"/>
      <psa03 value="3.2052757975" flag="0"/>
      <psa10 value="1.3749091972" flag="0"/>
      <psa30 value="0.1523084389" flag="0"/>
    </comp>
  </station>
  <station code="ASTA" name="ASTA" netid="HL" insttype="LE3D20_SMART24" commtype="DIG" lat="36.5475" lon="26.3471">
    <comp name="--.HHZ">
      <acc value="0.0554299122" flag="0"/>
      <vel value="0.0741281133" flag="0"/>
      <psa03 value="0.0982738774" flag="0"/>
      <psa10 value="0.0933425647" flag="0"/>
      <psa30 value="0.0174156500" flag="0"/>
    </comp>
    <comp name="--.HHE">
      <acc value="0.0864243623" flag="0"/>
      <vel value="0.1053467904" flag="0"/>
      <psa03 value="0.1790691329" flag="0"/>
      <psa10 value="0.1324904921" flag="0"/>
      <psa30 value="0.0166400874" flag="0"/>
    </comp>
    <comp name="--.HHN">
      <acc value="0.0761828814" flag="0"/>
      <vel value="0.0860132731" flag="0"/>
      <psa03 value="0.1415291067" flag="0"/>
      <psa10 value="0.0884887991" flag="0"/>
      <psa30 value="0.0184518755" flag="0"/>
    </comp>
  </station>
  <station code="KARP" name="KARP" netid="HL" insttype="120" commtype="DIG" lat="35.5471" lon="27.1611">
    <comp name="--.HHE">
      <acc value="0.0416185862" flag="0"/>
      <vel value="0.0034383559" flag="0"/>
      <psa03 value="0.0159829267" flag="0"/>
      <psa10 value="0.0010636167" flag="0"/>
      <psa30 value="0.0000704397" flag="0"/>
    </comp>
    <comp name="--.HHN">
      <acc value="0.0302162786" flag="0"/>
      <vel value="0.0031357613" flag="0"/>
      <psa03 value="0.0068618120" flag="0"/>
      <psa10 value="0.0008059764" flag="0"/>
      <psa30 value="0.0000511252" flag="0"/>
    </comp>
    <comp name="--.HHZ">
      <acc value="0.0329475090" flag="0"/>
      <vel value="0.0037249396" flag="0"/>
      <psa03 value="0.0106194146" flag="0"/>
      <psa10 value="0.0012503213" flag="0"/>
      <psa30 value="0.0000595734" flag="0"/>
    </comp>
  </station>
  <station code="KLNA" name="KLNA" netid="HL" insttype="CMG-5" commtype="DIG" lat="36.9571" lon="26.9727">
    <comp name="00.HNE">
      <acc value="1.0055843407" flag="0"/>
      <vel value="0.5793099846" flag="0"/>
      <psa03 value="3.0508562981" flag="0"/>
      <psa10 value="0.6001185650" flag="0"/>
      <psa30 value="0.0512133491" flag="0"/>
    </comp>
    <comp name="00.HNN">
      <acc value="0.7980747623" flag="0"/>
      <vel value="0.5410832007" flag="0"/>
      <psa03 value="2.4324658679" flag="0"/>
      <psa10 value="0.6309670567" flag="0"/>
      <psa30 value="0.0507712453" flag="0"/>
    </comp>
    <comp name="00.HNZ">
      <acc value="0.7482391985" flag="0"/>
      <vel value="0.2410792505" flag="0"/>
      <psa03 value="0.9676720061" flag="0"/>
      <psa10 value="0.2011926832" flag="0"/>
      <psa30 value="0.0255218893" flag="0"/>
    </comp>
  </station>
  <station code="APMY" name="APMY" netid="KO" insttype="CMG-6T" commtype="DIG" lat="37.4717" lon="29.3018">
    <comp name="--.HHE">
      <acc value="0.3366886083" flag="0"/>
      <vel value="0.2013947811" flag="0"/>
      <psa03 value="0.7626528939" flag="0"/>
      <psa10 value="0.1964287338" flag="0"/>
      <psa30 value="0.0460210947" flag="0"/>
    </comp>
    <comp name="--.HHZ">
      <acc value="0.2150616196" flag="0"/>
      <vel value="0.1483690337" flag="0"/>
      <psa03 value="0.6362836491" flag="0"/>
      <psa10 value="0.1445565267" flag="0"/>
      <psa30 value="0.0376948860" flag="0"/>
    </comp>
    <comp name="--.HHN">
      <acc value="0.3765536304" flag="0"/>
      <vel value="0.2953530202" flag="0"/>
      <psa03 value="0.9288955327" flag="0"/>
      <psa10 value="0.4298879440" flag="0"/>
      <psa30 value="0.0691280638" flag="0"/>
    </comp>
  </station>
  <station code="BAKL" name="BAKL" netid="KO" insttype="CMG-6T" commtype="DIG" lat="37.9793" lon="29.6135">
    <comp name="--.HHE">
      <acc value="0.1138814247" flag="0"/>
      <vel value="0.1010114660" flag="0"/>
      <psa03 value="0.4449825978" flag="0"/>
      <psa10 value="0.1226201718" flag="0"/>
      <psa30 value="0.0237310506" flag="0"/>
    </comp>
    <comp name="--.HHN">
      <acc value="0.0861719016" flag="0"/>
      <vel value="0.0685014750" flag="0"/>
      <psa03 value="0.1976777885" flag="0"/>
      <psa10 value="0.1597346710" flag="0"/>
      <psa30 value="0.0167537309" flag="0"/>
    </comp>
    <comp name="--.HHZ">
      <acc value="0.0413976257" flag="0"/>
      <vel value="0.0504767038" flag="0"/>
      <psa03 value="0.1227255226" flag="0"/>
      <psa10 value="0.0832193841" flag="0"/>
      <psa30 value="0.0184129094" flag="0"/>
    </comp>
  </station>
  <station code="BODA" name="BODA" netid="KO" insttype="SA10" commtype="DIG" lat="37.0348" lon="27.4304">
    <comp name="--.HNN">
      <acc value="0.9630747215" flag="0"/>
      <vel value="0.7363309423" flag="0"/>
      <psa03 value="4.1348446515" flag="0"/>
      <psa10 value="0.9012096644" flag="0"/>
      <psa30 value="0.0770055707" flag="0"/>
    </comp>
    <comp name="--.HNE">
      <acc value="0.8468068209" flag="0"/>
      <vel value="0.6155198587" flag="0"/>
      <psa03 value="4.0373145225" flag="0"/>
      <psa10 value="0.5765983058" flag="0"/>
      <psa30 value="0.0522961575" flag="0"/>
    </comp>
    <comp name="--.HNZ">
      <acc value="0.4467416170" flag="0"/>
      <vel value="0.2658569920" flag="0"/>
      <psa03 value="0.9850732262" flag="0"/>
      <psa10 value="0.5088913261" flag="0"/>
      <psa30 value="0.0424958633" flag="0"/>
    </comp>
  </station>
  <station code="CAME" name="CAME" netid="KO" insttype="CMG-5T" commtype="DIG" lat="36.9435" lon="29.3023">
    <comp name="--.HNN">
      <acc value="0.5600280002" flag="0"/>
      <vel value="0.2431848117" flag="0"/>
      <psa03 value="1.4725066633" flag="0"/>
      <psa10 value="0.3119443551" flag="0"/>
      <psa30 value="0.0472624504" flag="0"/>
    </comp>
    <comp name="--.HNZ">
      <acc value="0.6181433844" flag="0"/>
      <vel value="0.2263669754" flag="0"/>
      <psa03 value="1.4800166071" flag="0"/>
      <psa10 value="0.2064943635" flag="0"/>
      <psa30 value="0.0959989641" flag="0"/>
    </comp>
  </station>
  <station code="FETI" name="FETI" netid="KO" insttype="CMG-5T" commtype="DIG" lat="36.6903" lon="29.096">
    <comp name="--.HNN">
      <acc value="0.0102988849" flag="0"/>
      <vel value="0.0739890292" flag="0"/>
      <psa03 value="0.0146730463" flag="0"/>
      <psa10 value="0.0109410224" flag="0"/>
      <psa30 value="0.0163832950" flag="0"/>
    </comp>
    <comp name="--.HNE">
      <acc value="2.0045185187" flag="0"/>
      <vel value="1.0445877671" flag="0"/>
      <psa03 value="2.4895807724" flag="0"/>
      <psa10 value="0.9231042645" flag="0"/>
      <psa30 value="0.1895229504" flag="0"/>
    </comp>
    <comp name="--.HNZ">
      <acc value="1.1796080093" flag="0"/>
      <vel value="0.5216128749" flag="0"/>
      <psa03 value="2.1614921013" flag="0"/>
      <psa10 value="0.4630508892" flag="0"/>
      <psa30 value="0.0709809710" flag="0"/>
    </comp>
  </station>
  <station code="NAZL" name="NAZL" netid="KO" insttype="CMG-5T" commtype="DIG" lat="37.9641" lon="28.2922">
    <comp name="--.HNN">
      <acc value="0.4107833681" flag="0"/>
      <vel value="0.2906597454" flag="0"/>
      <psa03 value="0.7938501930" flag="0"/>
      <psa10 value="0.3066123976" flag="0"/>
      <psa30 value="0.0405999813" flag="0"/>
    </comp>
    <comp name="--.HNE">
      <acc value="0.3590539175" flag="0"/>
      <vel value="0.2989807261" flag="0"/>
      <psa03 value="0.8710387654" flag="0"/>
      <psa10 value="0.4770313264" flag="0"/>
      <psa30 value="0.0672918042" flag="0"/>
    </comp>
    <comp name="--.HNZ">
      <acc value="0.1597715929" flag="0"/>
      <vel value="0.1883974981" flag="0"/>
      <psa03 value="0.3751317134" flag="0"/>
      <psa10 value="0.2052817305" flag="0"/>
      <psa30 value="0.0591848487" flag="0"/>
    </comp>
  </station>
  <station code="ODEM" name="ODEM" netid="KO" insttype="CMG-5T" commtype="DIG" lat="38.2762" lon="28.0747">
    <comp name="--.HNE">
      <acc value="0.2184256709" flag="0"/>
      <vel value="0.0930464128" flag="0"/>
      <psa03 value="0.2789140160" flag="0"/>
      <psa10 value="0.1378900454" flag="0"/>
      <psa30 value="0.0388409822" flag="0"/>
    </comp>
    <comp name="--.HNN">
      <acc value="0.3311007568" flag="0"/>
      <vel value="0.2647636881" flag="0"/>
      <psa03 value="0.5226798325" flag="0"/>
      <psa10 value="0.1107222751" flag="0"/>
      <psa30 value="0.0651529858" flag="0"/>
    </comp>
    <comp name="--.HNZ">
      <acc value="0.1255768467" flag="0"/>
      <vel value="0.1429261277" flag="0"/>
      <psa03 value="0.2587057727" flag="0"/>
      <psa10 value="0.1248766653" flag="0"/>
      <psa30 value="0.0453980220" flag="0"/>
    </comp>
  </station>
  <station code="YER" name="YER" netid="KO" insttype="CMG-3T" commtype="DIG" lat="37.1336" lon="28.284">
    <comp name="--.HHN">
      <acc value="1.5900982622" flag="0"/>
      <vel value="1.1547170429" flag="0"/>
      <psa03 value="3.0732743367" flag="0"/>
      <psa10 value="1.3522906741" flag="0"/>
      <psa30 value="0.3064027736" flag="0"/>
    </comp>
    <comp name="--.HHE">
      <acc value="2.1554834846" flag="0"/>
      <vel value="1.3620686907" flag="0"/>
      <psa03 value="2.9461093088" flag="0"/>
      <psa10 value="1.4692282632" flag="0"/>
      <psa30 value="0.4919722106" flag="0"/>
    </comp>
    <comp name="--.HHZ">
      <acc value="0.8609527452" flag="0"/>
      <vel value="0.6526094675" flag="0"/>
      <psa03 value="1.8769790407" flag="0"/>
      <psa10 value="0.6717015011" flag="0"/>
      <psa30 value="0.1572490513" flag="0"/>
    </comp>
  </station>
  <station code="YKAV" name="YKAV" netid="KO" insttype="CMG-5T" commtype="DIG" lat="37.1246" lon="27.2801">
    <comp name="--.HNE">
      <acc value="1.0684406223" flag="0"/>
      <vel value="0.7522011312" flag="0"/>
      <psa03 value="3.3872705068" flag="0"/>
      <psa10 value="0.8398501889" flag="0"/>
      <psa30 value="0.0818940533" flag="0"/>
    </comp>
    <comp name="--.HNN">
      <acc value="1.0404895145" flag="0"/>
      <vel value="1.2511325323" flag="0"/>
      <psa03 value="2.0823578700" flag="0"/>
      <psa10 value="1.6875996211" flag="0"/>
      <psa30 value="0.1247179338" flag="0"/>
    </comp>
    <comp name="--.HNZ">
      <acc value="0.4786061153" flag="0"/>
      <vel value="0.3655455979" flag="0"/>
      <psa03 value="1.0407479964" flag="0"/>
      <psa10 value="0.6692791970" flag="0"/>
      <psa30 value="0.0649633043" flag="0"/>
    </comp>
  </station>
</stationlist>
