<?xml version="1.0" encoding="UTF-8" standalone="yes"?>
<!DOCTYPE earthquake SYSTEM "stationlist.dtd">
<stationlist created="" xmlns="ch.ethz.sed.shakemap.usgs.xml">
  <station code="MMB" name="MMB" netid="BS" insttype="STS-2" lat="41.5469" lon="23.7495">
    <comp name="--.HHE">
      <acc value="0.0333246555" flag="0"/>
      <vel value="0.0230484348" flag="0"/>
      <psa03 value="0.0634463415" flag="0"/>
      <psa10 value="0.0349045362" flag="0"/>
      <psa30 value="0.0042768609" flag="0"/>
    </comp>
    <comp name="--.HHZ">
      <acc value="0.0245077638" flag="0"/>
      <vel value="0.0148271197" flag="0"/>
      <psa03 value="0.0420088506" flag="0"/>
      <psa10 value="0.0157325470" flag="0"/>
      <psa30 value="0.0036575627" flag="0"/>
    </comp>
    <comp name="--.HHN">
      <acc value="0.0327160110" flag="0"/>
      <vel value="0.0187843093" flag="0"/>
      <psa03 value="0.0662757888" flag="0"/>
      <psa10 value="0.0186451799" flag="0"/>
      <psa30 value="0.0039771583" flag="0"/>
    </comp>
  </station>
  <station code="DRA2" name="DRA2" netid="HI" insttype="CMG-5TD,ACCELEROMETER,GURALP" lat="41.1593" lon="24.1485">
    <comp name="--.HNN">
      <acc value="0.1119295298" flag="0"/>
      <vel value="0.0435111771" flag="0"/>
      <psa03 value="0.2362806928" flag="0"/>
      <psa10 value="0.0348216448" flag="0"/>
      <psa30 value="0.0053814287" flag="0"/>
    </comp>
    <comp name="--.HNE">
      <acc value="0.1851006523" flag="0"/>
      <vel value="0.0623223236" flag="0"/>
      <psa03 value="0.2923169969" flag="0"/>
      <psa10 value="0.0262846656" flag="0"/>
      <psa30 value="0.0046091412" flag="0"/>
    </comp>
    <comp name="--.HNZ">
      <acc value="0.1070969398" flag="0"/>
      <vel value="0.0294499135" flag="0"/>
      <psa03 value="0.1048741682" flag="0"/>
      <psa10 value="0.0181981823" flag="0"/>
      <psa30 value="0.0024822004" flag="0"/>
    </comp>
  </station>
  <station code="ITS1" name="ITS1" netid="HI" insttype="unknown" lat="40.605" lon="23.0123">
    <comp name="--.HNZ">
      <acc value="0.0547100122" flag="0"/>
      <vel value="0.0263886684" flag="0"/>
      <psa03 value="0.0936996931" flag="0"/>
      <psa10 value="0.0278800972" flag="0"/>
      <psa30 value="0.0028301579" flag="0"/>
    </comp>
    <comp name="--.HNE">
      <acc value="0.0761423914" flag="0"/>
      <vel value="0.0411522639" flag="0"/>
      <psa03 value="0.1172397272" flag="0"/>
      <psa10 value="0.0359546899" flag="0"/>
      <psa30 value="0.0030346941" flag="0"/>
    </comp>
    <comp name="--.HNN">
      <acc value="0.0605324025" flag="0"/>
      <vel value="0.0457539610" flag="0"/>
      <psa03 value="0.1541075243" flag="0"/>
      <psa10 value="0.0393660869" flag="0"/>
      <psa30 value="0.0051687855" flag="0"/>
    </comp>
  </station>
  <station code="KLR1" name="KLR1" netid="HI" insttype="unknown" lat="40.5825" lon="22.9496">
    <comp name="--.HNE">
      <acc value="0.1010759768" flag="0"/>
      <vel value="0.0655515842" flag="0"/>
      <psa03 value="0.1830645880" flag="0"/>
      <psa10 value="0.0726013806" flag="0"/>
      <psa30 value="0.0094575812" flag="0"/>
    </comp>
    <comp name="--.HNN">
      <acc value="0.1083807454" flag="0"/>
      <vel value="0.0646831891" flag="0"/>
      <psa03 value="0.3241168512" flag="0"/>
      <psa10 value="0.1368936803" flag="0"/>
      <psa30 value="0.0155251140" flag="0"/>
    </comp>
    <comp name="--.HNZ">
      <acc value="0.0611886964" flag="0"/>
      <vel value="0.0255485920" flag="0"/>
      <psa03 value="0.1128052027" flag="0"/>
      <psa10 value="0.0316965937" flag="0"/>
      <psa30 value="0.0050038324" flag="0"/>
    </comp>
  </station>
  <station code="KMT1" name="KMT1" netid="HI" insttype="unknown" lat="41.1159" lon="25.4066">
    <comp name="--.HNE">
      <acc value="0.1002047947" flag="0"/>
      <vel value="0.1381071757" flag="0"/>
      <psa03 value="0.3060599461" flag="0"/>
      <psa10 value="0.1299449494" flag="0"/>
      <psa30 value="0.0367698387" flag="0"/>
    </comp>
    <comp name="--.HNN">
      <acc value="0.1714645034" flag="0"/>
      <vel value="0.1418950493" flag="0"/>
      <psa03 value="0.4771595329" flag="0"/>
      <psa10 value="0.2085917739" flag="0"/>
      <psa30 value="0.0282293168" flag="0"/>
    </comp>
    <comp name="--.HNZ">
      <acc value="0.0672868322" flag="0"/>
      <vel value="0.0837264597" flag="0"/>
      <psa03 value="0.1381656494" flag="0"/>
      <psa10 value="0.0556553931" flag="0"/>
      <psa30 value="0.0418377522" flag="0"/>
    </comp>
  </station>
  <station code="PLA1" name="PLA1" netid="HI" insttype="unknown" lat="40.5559" lon="22.9886">
    <comp name="--.HNE">
      <acc value="0.0937425191" flag="0"/>
      <vel value="0.0762942535" flag="0"/>
      <psa03 value="0.1900230485" flag="0"/>
      <psa10 value="0.0836069217" flag="0"/>
      <psa30 value="0.0107446522" flag="0"/>
    </comp>
    <comp name="--.HNZ">
      <acc value="0.0755693813" flag="0"/>
      <vel value="0.0304952260" flag="0"/>
      <psa03 value="0.0730719503" flag="0"/>
      <psa10 value="0.0349813720" flag="0"/>
      <psa30 value="0.0061698077" flag="0"/>
    </comp>
    <comp name="--.HNN">
      <acc value="0.0706490299" flag="0"/>
      <vel value="0.0545160432" flag="0"/>
      <psa03 value="0.1425071368" flag="0"/>
      <psa10 value="0.1003093465" flag="0"/>
      <psa30 value="0.0225264766" flag="0"/>
    </comp>
  </station>
  <station code="PLN1" name="PLN1" netid="HI" insttype="CMG-5TD,ACCELEROMETER,GURALP" lat="39.998" lon="23.575">
    <comp name="--.HNN">
      <acc value="0.3130471512" flag="0"/>
      <vel value="0.2707410497" flag="0"/>
      <psa03 value="0.5658532691" flag="0"/>
      <psa10 value="0.4230622706" flag="0"/>
      <psa30 value="0.0369114770" flag="0"/>
    </comp>
    <comp name="--.HNZ">
      <acc value="0.3491569257" flag="0"/>
      <vel value="0.1209956637" flag="0"/>
      <psa03 value="0.3783344839" flag="0"/>
      <psa10 value="0.1359910053" flag="0"/>
      <psa30 value="0.0170059348" flag="0"/>
    </comp>
    <comp name="--.HNE">
      <acc value="0.3130897264" flag="0"/>
      <vel value="0.2090472505" flag="0"/>
      <psa03 value="0.6592736570" flag="0"/>
      <psa10 value="0.2689045240" flag="0"/>
      <psa30 value="0.0430622011" flag="0"/>
    </comp>
  </station>
  <station code="SEIS" name="SEIS" netid="HI" insttype="unknown" lat="40.6318" lon="22.9628">
    <comp name="--.HNE">
      <acc value="0.0297559852" flag="0"/>
      <vel value="0.0118364969" flag="0"/>
      <psa03 value="0.0506547110" flag="0"/>
      <psa10 value="0.0110648783" flag="0"/>
      <psa30 value="0.0018234236" flag="0"/>
    </comp>
    <comp name="--.HNZ">
      <acc value="0.0235926287" flag="0"/>
      <vel value="0.0106102064" flag="0"/>
      <psa03 value="0.0421811908" flag="0"/>
      <psa10 value="0.0103565578" flag="0"/>
      <psa30 value="0.0019024830" flag="0"/>
    </comp>
    <comp name="--.HNN">
      <acc value="0.0395519592" flag="0"/>
      <vel value="0.0163512940" flag="0"/>
      <psa03 value="0.0572823815" flag="0"/>
      <psa10 value="0.0227684530" flag="0"/>
      <psa30 value="0.0028731419" flag="0"/>
    </comp>
  </station>
  <station code="STL1" name="STL1" netid="HI" insttype="unknown" lat="40.6624" lon="22.9353">
    <comp name="--.HNE">
      <acc value="0.0649038244" flag="0"/>
      <vel value="0.0262059574" flag="0"/>
      <psa03 value="0.1938227535" flag="0"/>
      <psa10 value="0.0190275927" flag="0"/>
      <psa30 value="0.0033619251" flag="0"/>
    </comp>
    <comp name="--.HNZ">
      <acc value="0.0392454454" flag="0"/>
      <vel value="0.0144534931" flag="0"/>
      <psa03 value="0.0534479555" flag="0"/>
      <psa10 value="0.0135820714" flag="0"/>
      <psa30 value="0.0019117117" flag="0"/>
    </comp>
    <comp name="--.HNN">
      <acc value="0.0817667891" flag="0"/>
      <vel value="0.0437801077" flag="0"/>
      <psa03 value="0.2062506764" flag="0"/>
      <psa10 value="0.0231760440" flag="0"/>
      <psa30 value="0.0055600839" flag="0"/>
    </comp>
  </station>
  <station code="VOL3" name="VOL3" netid="HI" insttype="unknown" lat="39.374" lon="22.9354">
    <comp name="--.HNE">
      <acc value="0.0626414626" flag="0"/>
      <vel value="0.0350677556" flag="0"/>
      <psa03 value="0.1639539940" flag="0"/>
      <psa10 value="0.0367736049" flag="0"/>
      <psa30 value="0.0048529746" flag="0"/>
    </comp>
    <comp name="--.HNN">
      <acc value="0.0895005923" flag="0"/>
      <vel value="0.0585392320" flag="0"/>
      <psa03 value="0.2166457095" flag="0"/>
      <psa10 value="0.0363837526" flag="0"/>
      <psa30 value="0.0095384694" flag="0"/>
    </comp>
    <comp name="--.HNZ">
      <acc value="0.0271103639" flag="0"/>
      <vel value="0.0230549282" flag="0"/>
      <psa03 value="0.0801839821" flag="0"/>
      <psa10 value="0.0278668314" flag="0"/>
      <psa30 value="0.0076851088" flag="0"/>
    </comp>
  </station>
  <station code="XAN2" name="XAN2" netid="HI" insttype="unknown" lat="41.142" lon="24.8908">
    <comp name="--.HNN">
      <acc value="0.1271780976" flag="0"/>
      <vel value="0.0790544539" flag="0"/>
      <psa03 value="0.2456036186" flag="0"/>
      <psa10 value="0.1845439510" flag="0"/>
      <psa30 value="0.0195787883" flag="0"/>
    </comp>
    <comp name="--.HNZ">
      <acc value="0.0849785319" flag="0"/>
      <vel value="0.0740461733" flag="0"/>
      <psa03 value="0.1157712380" flag="0"/>
      <psa10 value="0.1418755951" flag="0"/>
      <psa30 value="0.0163888518" flag="0"/>
    </comp>
    <comp name="--.HNE">
      <acc value="0.1269070436" flag="0"/>
      <vel value="0.1304900185" flag="0"/>
      <psa03 value="0.2660724693" flag="0"/>
      <psa10 value="0.1962709703" flag="0"/>
      <psa30 value="0.0212206127" flag="0"/>
    </comp>
  </station>
  <station code="EFSA" name="EFSA" netid="HL" insttype="CMG-5" lat="39.5401" lon="24.9886">
    <comp name="00.HNE">
      <acc value="0.1369345744" flag="0"/>
      <vel value="0.2121387868" flag="0"/>
      <psa03 value="0.1973627307" flag="0"/>
      <psa10 value="0.2296995390" flag="0"/>
      <psa30 value="0.0363341134" flag="0"/>
    </comp>
    <comp name="00.HNN">
      <acc value="0.0534647673" flag="0"/>
      <vel value="0.0560625397" flag="0"/>
      <psa03 value="0.1326073182" flag="0"/>
      <psa10 value="0.0830478217" flag="0"/>
      <psa30 value="0.0158496352" flag="0"/>
    </comp>
    <comp name="00.HNZ">
      <acc value="0.0543818211" flag="0"/>
      <vel value="0.0392970688" flag="0"/>
      <psa03 value="0.1502511054" flag="0"/>
      <psa10 value="0.0786537988" flag="0"/>
      <psa30 value="0.0056413901" flag="0"/>
    </comp>
  </station>
  <station code="KOMA" name="KOMA" netid="HL" insttype="CMG-5" lat="41.1128" lon="25.3965">
    <comp name="00.HNZ">
      <acc value="0.0714559024" flag="0"/>
      <vel value="0.0674152836" flag="0"/>
      <psa03 value="0.1588863601" flag="0"/>
      <psa10 value="0.0883561264" flag="0"/>
      <psa30 value="0.0297728167" flag="0"/>
    </comp>
    <comp name="00.HNN">
      <acc value="0.1583073454" flag="0"/>
      <vel value="0.1249907025" flag="0"/>
      <psa03 value="0.4691878649" flag="0"/>
      <psa10 value="0.1522120329" flag="0"/>
      <psa30 value="0.0278930442" flag="0"/>
    </comp>
    <comp name="00.HNE">
      <acc value="0.1549362372" flag="0"/>
      <vel value="0.1941312222" flag="0"/>
      <psa03 value="0.3268029724" flag="0"/>
      <psa10 value="0.1761026288" flag="0"/>
      <psa30 value="0.0282971656" flag="0"/>
    </comp>
  </station>
  <station code="LIA" name="LIA" netid="HL" insttype="60s" lat="39.8972" lon="25.1806">
    <comp name="--.HHN">
      <acc value="0.1292096565" flag="0"/>
      <vel value="0.0767458584" flag="0"/>
      <psa03 value="0.1843023603" flag="0"/>
      <psa10 value="0.0783608977" flag="0"/>
      <psa30 value="0.0165988839" flag="0"/>
    </comp>
    <comp name="--.HHE">
      <acc value="0.1340241993" flag="0"/>
      <vel value="0.0854044210" flag="0"/>
      <psa03 value="0.3374911533" flag="0"/>
      <psa10 value="0.1220725556" flag="0"/>
      <psa30 value="0.0110253840" flag="0"/>
    </comp>
    <comp name="--.HHZ">
      <acc value="0.1078940714" flag="0"/>
      <vel value="0.0905794315" flag="0"/>
      <psa03 value="0.2155804790" flag="0"/>
      <psa10 value="0.1047653408" flag="0"/>
      <psa30 value="0.0087472151" flag="0"/>
    </comp>
  </station>
  <station code="NEO" name="NEO" netid="HL" insttype="120" lat="39.3057" lon="23.2219">
    <comp name="--.HHE">
      <acc value="0.0425393419" flag="0"/>
      <vel value="0.0311018125" flag="0"/>
      <psa03 value="0.1225017350" flag="0"/>
      <psa10 value="0.0215134813" flag="0"/>
      <psa30 value="0.0087181164" flag="0"/>
    </comp>
    <comp name="--.HHN">
      <acc value="0.0442282198" flag="0"/>
      <vel value="0.0320647331" flag="0"/>
      <psa03 value="0.1302585945" flag="0"/>
      <psa10 value="0.0518327904" flag="0"/>
      <psa30 value="0.0091040080" flag="0"/>
    </comp>
    <comp name="--.HHZ">
      <acc value="0.0523327706" flag="0"/>
      <vel value="0.0296478061" flag="0"/>
      <psa03 value="0.1066931248" flag="0"/>
      <psa10 value="0.0282938468" flag="0"/>
      <psa30 value="0.0039371668" flag="0"/>
    </comp>
  </station>
  <station code="NGRA" name="NGRA" netid="HL" insttype="CMG-5" lat="40.9075" lon="23.4993">
    <comp name="00.HNE">
      <acc value="0.1374153285" flag="0"/>
      <vel value="0.1074744769" flag="0"/>
      <psa03 value="0.3269007486" flag="0"/>
      <psa10 value="0.1760712001" flag="0"/>
      <psa30 value="0.0112174360" flag="0"/>
    </comp>
    <comp name="00.HNN">
      <acc value="0.1617406745" flag="0"/>
      <vel value="0.0998955283" flag="0"/>
      <psa03 value="0.2913179532" flag="0"/>
      <psa10 value="0.1200984613" flag="0"/>
      <psa30 value="0.0095311545" flag="0"/>
    </comp>
    <comp name="00.HNZ">
      <acc value="0.1619821296" flag="0"/>
      <vel value="0.0669946088" flag="0"/>
      <psa03 value="0.2935355553" flag="0"/>
      <psa10 value="0.1464519321" flag="0"/>
      <psa30 value="0.0058302976" flag="0"/>
    </comp>
  </station>
  <station code="PLG" name="PLG" netid="HL" insttype="120" lat="40.3733" lon="23.4444">
    <comp name="--.HHE">
      <acc value="0.4138700778" flag="0"/>
      <vel value="0.0664828727" flag="0"/>
      <psa03 value="0.4628868236" flag="0"/>
      <psa10 value="0.0342430629" flag="0"/>
      <psa30 value="0.0086441381" flag="0"/>
    </comp>
    <comp name="--.HHN">
      <acc value="0.3760733830" flag="0"/>
      <vel value="0.0799321097" flag="0"/>
      <psa03 value="0.3859502077" flag="0"/>
      <psa10 value="0.0500175006" flag="0"/>
      <psa30 value="0.0127556037" flag="0"/>
    </comp>
    <comp name="--.HHZ">
      <acc value="0.2564944394" flag="0"/>
      <vel value="0.0478551002" flag="0"/>
      <psa03 value="0.3032247428" flag="0"/>
      <psa10 value="0.0411535195" flag="0"/>
      <psa30 value="0.0046810082" flag="0"/>
    </comp>
  </station>
  <station code="PRAS" name="PRAS" netid="HL" insttype="120" lat="41.3524" lon="24.55">
    <comp name="--.HHN">
      <acc value="0.1213616668" flag="0"/>
      <vel value="0.0436864075" flag="0"/>
      <psa03 value="0.1402688482" flag="0"/>
      <psa10 value="0.0221549503" flag="0"/>
      <psa30 value="0.0098219492" flag="0"/>
    </comp>
    <comp name="--.HHE">
      <acc value="0.0813162408" flag="0"/>
      <vel value="0.0336025126" flag="0"/>
      <psa03 value="0.1490036840" flag="0"/>
      <psa10 value="0.0322208614" flag="0"/>
      <psa30 value="0.0075908481" flag="0"/>
    </comp>
    <comp name="--.HHZ">
      <acc value="0.0490622407" flag="0"/>
      <vel value="0.0212566673" flag="0"/>
      <psa03 value="0.0886573697" flag="0"/>
      <psa10 value="0.0327869704" flag="0"/>
      <psa30 value="0.0074356307" flag="0"/>
    </comp>
  </station>
  <station code="AOS2" name="AOS2" netid="HT" insttype="100" lat="39.1478" lon="23.8436">
    <comp name="--.HHN">
      <acc value="0.0232063950" flag="0"/>
      <vel value="0.0284595439" flag="0"/>
      <psa03 value="0.0671875020" flag="0"/>
      <psa10 value="0.0447757052" flag="0"/>
      <psa30 value="0.0056256853" flag="0"/>
    </comp>
    <comp name="--.HHE">
      <acc value="0.0268992081" flag="0"/>
      <vel value="0.0340621020" flag="0"/>
      <psa03 value="0.0808102456" flag="0"/>
      <psa10 value="0.0419436451" flag="0"/>
      <psa30 value="0.0050187164" flag="0"/>
    </comp>
    <comp name="--.HHZ">
      <acc value="0.0224752185" flag="0"/>
      <vel value="0.0163891466" flag="0"/>
      <psa03 value="0.0518453945" flag="0"/>
      <psa10 value="0.0143921889" flag="0"/>
      <psa30 value="0.0037788699" flag="0"/>
    </comp>
  </station>
  <station code="HMT1" name="HMT1" netid="HT" insttype="2g" lat="40.2581" lon="24.2476">
    <comp name="00.HNE">
      <acc value="18.8086599831" flag="0"/>
      <vel value="8.0915195496" flag="0"/>
      <psa03 value="44.4266507294" flag="0"/>
      <psa10 value="2.0249048437" flag="0"/>
      <psa30 value="0.2051501946" flag="0"/>
    </comp>
    <comp name="00.HNN">
      <acc value="9.0867437202" flag="0"/>
      <vel value="3.5998463116" flag="0"/>
      <psa03 value="29.8291456306" flag="0"/>
      <psa10 value="1.0072724251" flag="0"/>
      <psa30 value="0.1370042973" flag="0"/>
    </comp>
    <comp name="00.HNZ">
      <acc value="7.9614628871" flag="0"/>
      <vel value="2.4384219026" flag="0"/>
      <psa03 value="11.6758792513" flag="0"/>
      <psa10 value="0.8871180735" flag="0"/>
      <psa30 value="0.1233930706" flag="0"/>
    </comp>
  </station>
  <station code="HORT" name="HORT" netid="HT" insttype="100" lat="40.5978" lon="23.0996">
    <comp name="--.HHZ">
      <acc value="0.1164713073" flag="0"/>
      <vel value="0.0345561995" flag="0"/>
      <psa03 value="0.0913114814" flag="0"/>
      <psa10 value="0.0307270336" flag="0"/>
      <psa30 value="0.0029375816" flag="0"/>
    </comp>
    <comp name="--.HHN">
      <acc value="0.0000147844" flag="0"/>
      <vel value="0.0000022331" flag="0"/>
      <psa03 value="0.0000068353" flag="0"/>
      <psa10 value="0.0000019035" flag="0"/>
      <psa30 value="0.0000005520" flag="0"/>
    </comp>
    <comp name="--.HHE">
      <acc value="0.1212423709" flag="0"/>
      <vel value="0.0291619557" flag="0"/>
      <psa03 value="0.1048623885" flag="0"/>
      <psa10 value="0.0188944098" flag="0"/>
      <psa30 value="0.0060038048" flag="0"/>
    </comp>
  </station>
  <station code="KAVA" name="KAVA" netid="HT" insttype="Compact," lat="40.9967" lon="24.5137">
    <comp name="--.HHE">
      <acc value="0.5703210690" flag="0"/>
      <vel value="0.1607613000" flag="0"/>
      <psa03 value="0.3721499631" flag="0"/>
      <psa10 value="0.1409789942" flag="0"/>
      <psa30 value="0.0214664201" flag="0"/>
    </comp>
    <comp name="--.HHN">
      <acc value="0.4780448683" flag="0"/>
      <vel value="0.1356084575" flag="0"/>
      <psa03 value="0.2893444837" flag="0"/>
      <psa10 value="0.0410306002" flag="0"/>
      <psa30 value="0.0130676207" flag="0"/>
    </comp>
    <comp name="--.HHZ">
      <acc value="0.3921259517" flag="0"/>
      <vel value="0.1089584054" flag="0"/>
      <psa03 value="0.2896479448" flag="0"/>
      <psa10 value="0.0705833029" flag="0"/>
      <psa30 value="0.0157788756" flag="0"/>
    </comp>
  </station>
  <station code="KNT" name="KNT" netid="HT" insttype="100" lat="41.162" lon="22.898">
    <comp name="--.HHN">
      <acc value="0.1673571109" flag="0"/>
      <vel value="0.0625547302" flag="0"/>
      <psa03 value="0.3031520777" flag="0"/>
      <psa10 value="0.0425544838" flag="0"/>
      <psa30 value="0.0095192973" flag="0"/>
    </comp>
    <comp name="--.HHE">
      <acc value="0.1734181653" flag="0"/>
      <vel value="0.0627894005" flag="0"/>
