<?xml version="1.0" encoding="UTF-8" standalone="yes"?>
<!DOCTYPE earthquake SYSTEM "stationlist.dtd">
<stationlist created="" xmlns="ch.ethz.sed.shakemap.usgs.xml">
  <station code="MMB" name="MMB" netid="BS" insttype="STS-2" lat="41.5469" lon="23.7495">
    <comp name="--.HHE">
      <acc value="0.0333246555" flag="0"/>
      <vel value="0.0230484348" flag="0"/>
      <psa03 value="0.0634463415" flag="0"/>
      <psa10 value="0.0349045362" flag="0"/>
      <psa30 value="0.0042768609" flag="0"/>
    </comp>
    <comp name="--.HHZ">
      <acc value="0.0245077638" flag="0"/>
      <vel value="0.0148271197" flag="0"/>
      <psa03 value="0.0420088506" flag="0"/>
      <psa10 value="0.0157325470" flag="0"/>
      <psa30 value="0.0036575627" flag="0"/>
    </comp>
    <comp name="--.HHN">
      <acc value="0.0327160110" flag="0"/>
      <vel value="0.0187843093" flag="0"/>
      <psa03 value="0.0662757888" flag="0"/>
      <psa10 value="0.0186451799" flag="0"/>
      <psa30 value="0.0039771583" flag="0"/>
    </comp>
  </station>
</stationlist>
