<?xml version="1.0" encoding="UTF-8" standalone="yes"?>
<!DOCTYPE earthquake SYSTEM "stationlist.dtd">
<stationlist created="" xmlns="ch.ethz.sed.shakemap.usgs.xml">
  <station code="KAPA" name="KAPA" netid="Z3" source="GFZ" insttype="CMG-3ESP/60" lat="35.6402" lon="27.1376">
    <comp name="--.HHE">
      <acc value="0.3299913351" flag="0"/>
      <vel value="0.1016341529" flag="0"/>
      <psa03 value="0.4318220110" flag="0"/>
      <psa10 value="0.1256075304" flag="0"/>
      <psa30 value="0.0149993271" flag="0"/>
    </comp>
    <comp name="--.HHN">
      <acc value="0.3739234074" flag="0"/>
      <vel value="0.1100975293" flag="0"/>
      <psa03 value="0.3321800492" flag="0"/>
      <psa10 value="0.1027329179" flag="0"/>
      <psa30 value="0.0149667996" flag="0"/>
    </comp>
    <comp name="--.HHZ">
      <acc value="0.1474494617" flag="0"/>
      <vel value="0.0594424844" flag="0"/>
      <psa03 value="0.1575899357" flag="0"/>
      <psa10 value="0.0871149903" flag="0"/>
      <psa30 value="0.0072003193" flag="0"/>
    </comp>
  </station>
  <station code="KASO" name="KASO" netid="Z3" source="GFZ" insttype="CMG-3ESP/60" lat="35.4115" lon="26.9152">
    <comp name="--.HHE">
      <acc value="1.3470019638" flag="0"/>
      <vel value="0.3448775082" flag="0"/>
      <psa03 value="1.7287869252" flag="0"/>
      <psa10 value="0.0646132287" flag="0"/>
      <psa30 value="0.0162376777" flag="0"/>
    </comp>
    <comp name="--.HHN">
      <acc value="0.8671484515" flag="0"/>
      <vel value="0.3011146836" flag="0"/>
      <psa03 value="1.4981593574" flag="0"/>
      <psa10 value="0.1317530389" flag="0"/>
      <psa30 value="0.0196149102" flag="0"/>
    </comp>
    <comp name="--.HHZ">
      <acc value="0.5337712117" flag="0"/>
      <vel value="0.1048042873" flag="0"/>
      <psa03 value="0.6260627998" flag="0"/>
      <psa10 value="0.0558306584" flag="0"/>
      <psa30 value="0.0139601405" flag="0"/>
    </comp>
  </station>
  <station code="RHON" name="RHON" netid="Z3" source="GFZ" insttype="CMG-3ESP/60" lat="36.38" lon="28.0844">
    <comp name="--.HHE">
      <acc value="0.0636706203" flag="0"/>
      <vel value="0.0870347510" flag="0"/>
      <psa03 value="0.1629363438" flag="0"/>
      <psa10 value="0.1263546204" flag="0"/>
      <psa30 value="0.0134671612" flag="0"/>
    </comp>
    <comp name="--.HHN">
      <acc value="0.0612620019" flag="0"/>
      <vel value="0.0637968156" flag="0"/>
      <psa03 value="0.1150861209" flag="0"/>
      <psa10 value="0.0672263197" flag="0"/>
      <psa30 value="0.0299505638" flag="0"/>
    </comp>
    <comp name="--.HHZ">
      <acc value="0.0345573124" flag="0"/>
      <vel value="0.0327191686" flag="0"/>
      <psa03 value="0.0640508192" flag="0"/>
      <psa10 value="0.0892960127" flag="0"/>
      <psa30 value="0.0077202227" flag="0"/>
    </comp>
  </station>
  <station code="RHOS" name="RHOS" netid="Z3" source="GFZ" insttype="CMG-3ESP/60" lat="36.011" lon="27.8197">
    <comp name="--.HHE">
      <acc value="0.0759284883" flag="0"/>
      <vel value="0.0719732118" flag="0"/>
      <psa03 value="0.1507167884" flag="0"/>
      <psa10 value="0.0939883711" flag="0"/>
      <psa30 value="0.0125410726" flag="0"/>
    </comp>
    <comp name="--.HHN">
      <acc value="0.0708446666" flag="0"/>
      <vel value="0.0702483250" flag="0"/>
      <psa03 value="0.1298542539" flag="0"/>
      <psa10 value="0.1054644379" flag="0"/>
      <psa30 value="0.0108458587" flag="0"/>
    </comp>
    <comp name="--.HHZ">
      <acc value="0.0296768103" flag="0"/>
      <vel value="0.0369865721" flag="0"/>
      <psa03 value="0.0547613780" flag="0"/>
      <psa10 value="0.0587330995" flag="0"/>
      <psa30 value="0.0086764502" flag="0"/>
    </comp>
  </station>
  <station code="TILO" name="TILO" netid="Z3" source="GFZ" insttype="CMG-3ESP/60" lat="36.4485" lon="27.3535">
    <comp name="--.HHE">
      <acc value="0.0823916463" flag="0"/>
      <vel value="0.0364753555" flag="0"/>
      <psa03 value="0.1891314015" flag="0"/>
      <psa10 value="0.0324452527" flag="0"/>
      <psa30 value="0.0082852129" flag="0"/>
    </comp>
    <comp name="--.HHN">
      <acc value="0.0954057492" flag="0"/>
      <vel value="0.0366045491" flag="0"/>
      <psa03 value="0.1465965180" flag="0"/>
      <psa10 value="0.0395472469" flag="0"/>
      <psa30 value="0.0034612616" flag="0"/>
    </comp>
    <comp name="--.HHZ">
      <acc value="0.0365817305" flag="0"/>
      <vel value="0.0212638757" flag="0"/>
      <psa03 value="0.0488120529" flag="0"/>
      <psa10 value="0.0181555572" flag="0"/>
      <psa30 value="0.0049563566" flag="0"/>
    </comp>
  </station>
  <station code="TUR7" name="TUR7" netid="Z3" source="GFZ" insttype="CMG-3ESP/60" lat="36.7017" lon="27.5697">
    <comp name="--.HHE">
      <acc value="0.0343237246" flag="0"/>
      <vel value="0.0215402656" flag="0"/>
      <psa03 value="0.0915234195" flag="0"/>
      <psa10 value="0.0153374341" flag="0"/>
      <psa30 value="0.0039535837" flag="0"/>
    </comp>
    <comp name="--.HHN">
      <acc value="0.0392142327" flag="0"/>
      <vel value="0.0193407628" flag="0"/>
      <psa03 value="0.0770290251" flag="0"/>
      <psa10 value="0.0237775739" flag="0"/>
      <psa30 value="0.0024572162" flag="0"/>
    </comp>
    <comp name="--.HHZ">
      <acc value="0.0145384010" flag="0"/>
      <vel value="0.0120919852" flag="0"/>
      <psa03 value="0.0289426663" flag="0"/>
      <psa10 value="0.0130028424" flag="0"/>
      <psa30 value="0.0019070044" flag="0"/>
    </comp>
  </station>
</stationlist>
