<?xml version="1.0" encoding="UTF-8" standalone="yes"?>
<!DOCTYPE earthquake SYSTEM "stationlist.dtd">
<stationlist created="" xmlns="ch.ethz.sed.shakemap.usgs.xml">
  <station code="ACOR" name="ACOR" netid="HA" insttype="Horizon,120s,1200" commtype="DIG" lat="37.8905" lon="22.8694">
    <comp name="--.HHZ">
      <acc value="0.0082691003" flag="0"/>
      <vel value="0.0054437000" flag="0"/>
      <psa03 value="0.0239806110" flag="0"/>
      <psa10 value="0.0075437160" flag="0"/>
      <psa30 value="0.0007162238" flag="0"/>
    </comp>
    <comp name="--.HHN">
      <acc value="0.0088252656" flag="0"/>
      <vel value="0.0104747956" flag="0"/>
      <psa03 value="0.0290898167" flag="0"/>
      <psa10 value="0.0188159467" flag="0"/>
      <psa30 value="0.0014079638" flag="0"/>
    </comp>
    <comp name="--.HHE">
      <acc value="0.0131978040" flag="0"/>
      <vel value="0.0137918776" flag="0"/>
      <psa03 value="0.0434800268" flag="0"/>
      <psa10 value="0.0203930446" flag="0"/>
      <psa30 value="0.0010696848" flag="0"/>
    </comp>
  </station>
  <station code="ALIO" name="ALIO" netid="HA" insttype="25" commtype="DIG" lat="38.0657" lon="23.6727">
    <comp name="--.HHN">
      <acc value="0.0145215789" flag="0"/>
      <vel value="0.0039075108" flag="0"/>
      <psa03 value="0.0157898341" flag="0"/>
      <psa10 value="0.0030194254" flag="0"/>
      <psa30 value="0.0004786424" flag="0"/>
    </comp>
    <comp name="--.HHE">
      <acc value="0.0182608497" flag="0"/>
      <vel value="0.0049674578" flag="0"/>
      <psa03 value="0.0158459304" flag="0"/>
      <psa10 value="0.0020756783" flag="0"/>
      <psa30 value="0.0007357348" flag="0"/>
    </comp>
    <comp name="--.HHZ">
      <acc value="0.0168770042" flag="0"/>
      <vel value="0.0031009287" flag="0"/>
      <psa03 value="0.0141827800" flag="0"/>
      <psa10 value="0.0018551792" flag="0"/>
      <psa30 value="0.0008196274" flag="0"/>
    </comp>
  </station>
  <station code="AMPE" name="AMPE" netid="HA" insttype="1s-100Hz," commtype="DIG" lat="38.3015" lon="23.2688">
    <comp name="--.HHE">
      <acc value="0.1714599507" flag="0"/>
      <vel value="0.1037103927" flag="0"/>
      <psa03 value="0.3336355846" flag="0"/>
      <psa10 value="0.1630325365" flag="0"/>
      <psa30 value="0.0331773559" flag="0"/>
    </comp>
    <comp name="--.HHZ">
      <acc value="0.1186004923" flag="0"/>
      <vel value="0.0511730067" flag="0"/>
      <psa03 value="0.2184823628" flag="0"/>
      <psa10 value="0.0443061200" flag="0"/>
      <psa30 value="0.0068472302" flag="0"/>
    </comp>
    <comp name="--.HHN">
      <acc value="0.1341717113" flag="0"/>
      <vel value="0.0539469283" flag="0"/>
      <psa03 value="0.2104315133" flag="0"/>
      <psa10 value="0.0516727111" flag="0"/>
      <psa30 value="0.0058479434" flag="0"/>
    </comp>
  </station>
  <station code="ANTK" name="ANTK" netid="HA" insttype="25" commtype="DIG" lat="38.3605" lon="22.6385">
    <comp name="--.HHE">
      <acc value="0.0071104511" flag="0"/>
      <vel value="0.0041462819" flag="0"/>
      <psa03 value="0.0140887428" flag="0"/>
      <psa10 value="0.0036461806" flag="0"/>
      <psa30 value="0.0008322432" flag="0"/>
    </comp>
    <comp name="--.HHN">
      <acc value="0.0064965354" flag="0"/>
      <vel value="0.0032386572" flag="0"/>
      <psa03 value="0.0132892440" flag="0"/>
      <psa10 value="0.0040006193" flag="0"/>
      <psa30 value="0.0008968191" flag="0"/>
    </comp>
    <comp name="--.HHZ">
      <acc value="0.0052469697" flag="0"/>
      <vel value="0.0030851009" flag="0"/>
      <psa03 value="0.0099058081" flag="0"/>
      <psa10 value="0.0019298469" flag="0"/>
      <psa30 value="0.0007686973" flag="0"/>
    </comp>
  </station>
  <station code="ATAL" name="ATAL" netid="HA" insttype="120s," commtype="DIG" lat="38.6926" lon="23.0213">
    <comp name="--.HHN">
      <acc value="0.1740639874" flag="0"/>
      <vel value="0.0554013593" flag="0"/>
      <psa03 value="0.3034991490" flag="0"/>
      <psa10 value="0.0369029508" flag="0"/>
      <psa30 value="0.0066756166" flag="0"/>
    </comp>
    <comp name="--.HHE">
      <acc value="0.1542249510" flag="0"/>
      <vel value="0.0383793253" flag="0"/>
      <psa03 value="0.2297671052" flag="0"/>
      <psa10 value="0.0221211322" flag="0"/>
      <psa30 value="0.0067055915" flag="0"/>
    </comp>
    <comp name="--.HHZ">
      <acc value="0.1801103600" flag="0"/>
      <vel value="0.0501889244" flag="0"/>
      <psa03 value="0.2616196500" flag="0"/>
      <psa10 value="0.0218713939" flag="0"/>
      <psa30 value="0.0039575388" flag="0"/>
    </comp>
  </station>
  <station code="ATHU" name="ATHU" netid="HA" insttype="60s," commtype="DIG" lat="37.9665" lon="23.7845">
    <comp name="--.HHE">
      <acc value="0.0171492042" flag="0"/>
      <vel value="0.0078409049" flag="0"/>
      <psa03 value="0.0454506881" flag="0"/>
      <psa10 value="0.0043734125" flag="0"/>
      <psa30 value="0.0012365549" flag="0"/>
    </comp>
    <comp name="--.HHN">
      <acc value="0.0141175284" flag="0"/>
      <vel value="0.0063206209" flag="0"/>
      <psa03 value="0.0337532833" flag="0"/>
      <psa10 value="0.0047808176" flag="0"/>
      <psa30 value="0.0017680624" flag="0"/>
    </comp>
    <comp name="--.HHZ">
      <acc value="0.0146883415" flag="0"/>
      <vel value="0.0040909313" flag="0"/>
      <psa03 value="0.0245629559" flag="0"/>
      <psa10 value="0.0035339867" flag="0"/>
      <psa30 value="0.0011877140" flag="0"/>
    </comp>
  </station>
  <station code="AXAR" name="AXAR" netid="HA" insttype="Horizon,120s,1200" commtype="DIG" lat="38.7664" lon="22.659">
    <comp name="--.HHE">
      <acc value="0.0380770324" flag="0"/>
      <vel value="0.0207942106" flag="0"/>
      <psa03 value="0.1033825387" flag="0"/>
      <psa10 value="0.0196378828" flag="0"/>
      <psa30 value="0.0054987623" flag="0"/>
    </comp>
    <comp name="--.HHZ">
      <acc value="0.0235503540" flag="0"/>
      <vel value="0.0107131775" flag="0"/>
      <psa03 value="0.0569141726" flag="0"/>
      <psa10 value="0.0141701291" flag="0"/>
      <psa30 value="0.0020591009" flag="0"/>
    </comp>
    <comp name="--.HHN">
      <acc value="0.0325719761" flag="0"/>
      <vel value="0.0174711598" flag="0"/>
      <psa03 value="0.0787481279" flag="0"/>
      <psa10 value="0.0249915307" flag="0"/>
      <psa30 value="0.0023466240" flag="0"/>
    </comp>
  </station>
  <station code="DOMV" name="DOMV" netid="HA" insttype="60" commtype="DIG" lat="38.2569" lon="22.9795">
    <comp name="--.HHE">
      <acc value="0.2707220818" flag="0"/>
      <vel value="0.0901913278" flag="0"/>
      <psa03 value="0.5155355731" flag="0"/>
      <psa10 value="0.0563472644" flag="0"/>
      <psa30 value="0.0028081150" flag="0"/>
    </comp>
    <comp name="--.HHN">
      <acc value="0.2050303000" flag="0"/>
      <vel value="0.0563924731" flag="0"/>
      <psa03 value="0.5146283450" flag="0"/>
      <psa10 value="0.0279787860" flag="0"/>
      <psa30 value="0.0020113632" flag="0"/>
    </comp>
    <comp name="--.HHZ">
      <acc value="0.1934979059" flag="0"/>
      <vel value="0.0730406149" flag="0"/>
      <psa03 value="0.5318896282" flag="0"/>
      <psa10 value="0.0195210919" flag="0"/>
      <psa30 value="0.0027054499" flag="0"/>
    </comp>
  </station>
  <station code="ERTR" name="ERTR" netid="HA" insttype="Horizon,120s,1200" commtype="DIG" lat="38.4066" lon="23.7865">
    <comp name="--.HHE">
      <acc value="0.0157623007" flag="0"/>
      <vel value="0.0070462754" flag="0"/>
      <psa03 value="0.0375066384" flag="0"/>
      <psa10 value="0.0094229802" flag="0"/>
      <psa30 value="0.0024674901" flag="0"/>
    </comp>
    <comp name="--.HHZ">
      <acc value="0.0151033436" flag="0"/>
      <vel value="0.0058293554" flag="0"/>
      <psa03 value="0.0267708246" flag="0"/>
      <psa10 value="0.0071454088" flag="0"/>
      <psa30 value="0.0015524695" flag="0"/>
    </comp>
    <comp name="--.HHN">
      <acc value="0.0143039541" flag="0"/>
      <vel value="0.0068419677" flag="0"/>
      <psa03 value="0.0200091178" flag="0"/>
      <psa10 value="0.0104946704" flag="0"/>
      <psa30 value="0.0023665202" flag="0"/>
    </comp>
  </station>
  <station code="KALE" name="KALE" netid="HA" insttype="40," commtype="DIG" lat="38.3911" lon="22.1398">
    <comp name="--.HHE">
      <acc value="0.0108507025" flag="0"/>
      <vel value="0.0064468546" flag="0"/>
      <psa03 value="0.0254828135" flag="0"/>
      <psa10 value="0.0101554496" flag="0"/>
      <psa30 value="0.0014426902" flag="0"/>
    </comp>
    <comp name="--.HHZ">
      <acc value="0.0061682769" flag="0"/>
      <vel value="0.0057511227" flag="0"/>
      <psa03 value="0.0134611336" flag="0"/>
      <psa10 value="0.0092850432" flag="0"/>
      <psa30 value="0.0014471947" flag="0"/>
    </comp>
    <comp name="--.HHN">
      <acc value="0.0093889077" flag="0"/>
      <vel value="0.0067986039" flag="0"/>
      <psa03 value="0.0243407794" flag="0"/>
      <psa10 value="0.0062996423" flag="0"/>
      <psa30 value="0.0020495519" flag="0"/>
    </comp>
  </station>
  <station code="KARY" name="KARY" netid="HA" insttype="60" commtype="DIG" lat="38.0321" lon="24.437">
    <comp name="--.HHN">
      <acc value="0.0190781682" flag="0"/>
      <vel value="0.0055329290" flag="0"/>
      <psa03 value="0.0151545522" flag="0"/>
      <psa10 value="0.0080633646" flag="0"/>
      <psa30 value="0.0007845795" flag="0"/>
    </comp>
    <comp name="--.HHE">
      <acc value="0.0120151778" flag="0"/>
      <vel value="0.0040163569" flag="0"/>
      <psa03 value="0.0118592215" flag="0"/>
      <psa10 value="0.0029653305" flag="0"/>
      <psa30 value="0.0004776294" flag="0"/>
    </comp>
    <comp name="--.HHZ">
      <acc value="0.0107106605" flag="0"/>
      <vel value="0.0043202538" flag="0"/>
      <psa03 value="0.0146993066" flag="0"/>
      <psa10 value="0.0048347941" flag="0"/>
      <psa30 value="0.0009145854" flag="0"/>
    </comp>
  </station>
  <station code="LOUT" name="LOUT" netid="HA" insttype="30" commtype="DIG" lat="37.9879" lon="22.9743">
    <comp name="--.HHE">
      <acc value="0.0442640607" flag="0"/>
      <vel value="0.0196139608" flag="0"/>
      <psa03 value="0.1054591375" flag="0"/>
      <psa10 value="0.0325095088" flag="0"/>
      <psa30 value="0.0020212180" flag="0"/>
    </comp>
    <comp name="--.HHZ">
      <acc value="0.0277193365" flag="0"/>
      <vel value="0.0138234116" flag="0"/>
      <psa03 value="0.0626767475" flag="0"/>
      <psa10 value="0.0103990041" flag="0"/>
      <psa30 value="0.0013463331" flag="0"/>
    </comp>
    <comp name="--.HHN">
      <acc value="0.0667052621" flag="0"/>
      <vel value="0.0227191540" flag="0"/>
      <psa03 value="0.0817988400" flag="0"/>
      <psa10 value="0.0111603223" flag="0"/>
      <psa30 value="0.0018206937" flag="0"/>
    </comp>
  </station>
  <station code="MDRA" name="MDRA" netid="HA" insttype="60" commtype="DIG" lat="38.0606" lon="23.4662">
    <comp name="--.HHZ">
      <acc value="0.0486203649" flag="0"/>
      <vel value="0.0221824368" flag="0"/>
      <psa03 value="0.1269315290" flag="0"/>
      <psa10 value="0.0277840823" flag="0"/>
      <psa30 value="0.0048643603" flag="0"/>
    </comp>
    <comp name="--.HHE">
      <acc value="0.0680627353" flag="0"/>
      <vel value="0.0318280988" flag="0"/>
      <psa03 value="0.1623406341" flag="0"/>
      <psa10 value="0.0400106878" flag="0"/>
      <psa30 value="0.0071898823" flag="0"/>
    </comp>
    <comp name="--.HHN">
      <acc value="0.0488927843" flag="0"/>
      <vel value="0.0206532703" flag="0"/>
      <psa03 value="0.0865265172" flag="0"/>
      <psa10 value="0.0297557099" flag="0"/>
      <psa30 value="0.0041928288" flag="0"/>
    </comp>
  </station>
  <station code="MRKA" name="MRKA" netid="HA" insttype="Horizon,120s,1200" commtype="DIG" lat="38.7047" lon="23.5863">
    <comp name="--.HHE">
      <acc value="3.9249625892" flag="0"/>
      <vel value="0.9040786814" flag="0"/>
      <psa03 value="4.9828576173" flag="0"/>
      <psa10 value="0.3507847000" flag="0"/>
      <psa30 value="0.0568036316" flag="0"/>
    </comp>
    <comp name="--.HHN">
      <acc value="5.4315024338" flag="0"/>
      <vel value="1.4203192659" flag="0"/>
      <psa03 value="13.0195673222" flag="0"/>
      <psa10 value="0.4085587231" flag="0"/>
      <psa30 value="0.0765218833" flag="0"/>
    </comp>
    <comp name="--.HHZ">
      <acc value="4.0109905221" flag="0"/>
      <vel value="0.6694995232" flag="0"/>
      <psa03 value="2.3921985118" flag="0"/>
      <psa10 value="0.3321651496" flag="0"/>
      <psa30 value="0.0709175605" flag="0"/>
    </comp>
  </station>
  <station code="MRTH" name="MRTH" netid="HA" insttype="S100," commtype="DIG" lat="38.1225" lon="23.9409">
    <comp name="--.HHE">
      <acc value="0.0390118897" flag="0"/>
      <vel value="0.0153415745" flag="0"/>
      <psa03 value="0.0886996701" flag="0"/>
      <psa10 value="0.0066557494" flag="0"/>
      <psa30 value="0.0010656824" flag="0"/>
    </comp>
    <comp name="--.HHN">
      <acc value="0.0284505639" flag="0"/>
      <vel value="0.0102117624" flag="0"/>
      <psa03 value="0.0928977387" flag="0"/>
      <psa10 value="0.0089661637" flag="0"/>
      <psa30 value="0.0008407282" flag="0"/>
    </comp>
    <comp name="--.HHZ">
      <acc value="0.0305856445" flag="0"/>
      <vel value="0.0114860515" flag="0"/>
      <psa03 value="0.0774611362" flag="0"/>
      <psa10 value="0.0035845808" flag="0"/>
      <psa30 value="0.0013271017" flag="0"/>
    </comp>
  </station>
  <station code="PRDM" name="PRDM" netid="HA" insttype="25" commtype="DIG" lat="38.2804" lon="22.847">
    <comp name="--.HHE">
      <acc value="0.0282363044" flag="0"/>
      <vel value="0.0087249754" flag="0"/>
      <psa03 value="0.0356156804" flag="0"/>
      <psa10 value="0.0075246223" flag="0"/>
      <psa30 value="0.0008969920" flag="0"/>
    </comp>
    <comp name="--.HHZ">
      <acc value="0.0127297695" flag="0"/>
      <vel value="0.0044231628" flag="0"/>
      <psa03 value="0.0266170996" flag="0"/>
      <psa10 value="0.0036349743" flag="0"/>
      <psa30 value="0.0008150142" flag="0"/>
    </comp>
    <comp name="--.HHN">
      <acc value="0.0254969444" flag="0"/>
      <vel value="0.0072874441" flag="0"/>
      <psa03 value="0.0358515421" flag="0"/>
      <psa10 value="0.0052034490" flag="0"/>
      <psa30 value="0.0009253990" flag="0"/>
    </comp>
  </station>
  <station code="PSAH" name="PSAH" netid="HA" insttype="25" commtype="DIG" lat="38.5694" lon="23.6473">
    <comp name="--.HHE">
      <acc value="0.0964821127" flag="0"/>
      <vel value="0.0606024295" flag="0"/>
      <psa03 value="0.1562580300" flag="0"/>
      <psa10 value="0.0625551189" flag="0"/>
      <psa30 value="0.0083814522" flag="0"/>
    </comp>
    <comp name="--.HHN">
      <acc value="0.0905364014" flag="0"/>
      <vel value="0.0379459591" flag="0"/>
      <psa03 value="0.1844204322" flag="0"/>
      <psa10 value="0.0345413924" flag="0"/>
      <psa30 value="0.0059361082" flag="0"/>
    </comp>
    <comp name="--.HHZ">
      <acc value="0.0744131206" flag="0"/>
      <vel value="0.0205801363" flag="0"/>
      <psa03 value="0.0573165879" flag="0"/>
      <psa10 value="0.0397867639" flag="0"/>
      <psa30 value="0.0019108486" flag="0"/>
    </comp>
  </station>
  <station code="THAL" name="THAL" netid="HA" insttype="30" commtype="DIG" lat="38.0357" lon="22.6634">
    <comp name="--.HHE">
      <acc value="0.0519229050" flag="0"/>
      <vel value="0.0200115722" flag="0"/>
      <psa03 value="0.1128203706" flag="0"/>
      <psa10 value="0.0224825456" flag="0"/>
      <psa30 value="0.0015902835" flag="0"/>
    </comp>
    <comp name="--.HHZ">
      <acc value="0.0311440700" flag="0"/>
      <vel value="0.0143825711" flag="0"/>
      <psa03 value="0.0669485681" flag="0"/>
      <psa10 value="0.0115982569" flag="0"/>
      <psa30 value="0.0012157308" flag="0"/>
    </comp>
    <comp name="--.HHN">
      <acc value="0.0461596225" flag="0"/>
      <vel value="0.0206959300" flag="0"/>
      <psa03 value="0.1499834851" flag="0"/>
      <psa10 value="0.0180493213" flag="0"/>
      <psa30 value="0.0024729954" flag="0"/>
    </comp>
  </station>
  <station code="THIV" name="THIV" netid="HA" insttype="25" commtype="DIG" lat="38.299" lon="23.332">
    <comp name="--.HHN">
      <acc value="0.1329024109" flag="0"/>
      <vel value="0.0347940334" flag="0"/>
      <psa03 value="0.1729577053" flag="0"/>
      <psa10 value="0.0172925530" flag="0"/>
      <psa30 value="0.0019998194" flag="0"/>
    </comp>
    <comp name="--.HHE">
      <acc value="0.1854086347" flag="0"/>
      <vel value="0.0494527887" flag="0"/>
      <psa03 value="0.2210249020" flag="0"/>
      <psa10 value="0.0299464699" flag="0"/>
      <psa30 value="0.0039608948" flag="0"/>
    </comp>
    <comp name="--.HHZ">
      <acc value="0.1035237344" flag="0"/>
      <vel value="0.0343862096" flag="0"/>
      <psa03 value="0.1018063003" flag="0"/>
      <psa10 value="0.0106225808" flag="0"/>
      <psa30 value="0.0022962809" flag="0"/>
    </comp>
  </station>
  <station code="VILL" name="VILL" netid="HA" insttype="Horizon,120s,1200" commtype="DIG" lat="38.1642" lon="23.3122">
    <comp name="--.HHE">
      <acc value="0.1009873308" flag="0"/>
      <vel value="0.0464600711" flag="0"/>
      <psa03 value="0.2554961860" flag="0"/>
      <psa10 value="0.0429666276" flag="0"/>
      <psa30 value="0.0026125425" flag="0"/>
    </comp>
    <comp name="--.HHN">
      <acc value="0.0832242281" flag="0"/>
      <vel value="0.0296131713" flag="0"/>
      <psa03 value="0.1425275941" flag="0"/>
      <psa10 value="0.0151662680" flag="0"/>
      <psa30 value="0.0018120378" flag="0"/>
    </comp>
    <comp name="--.HHZ">
      <acc value="0.0375603928" flag="0"/>
      <vel value="0.0181343520" flag="0"/>
      <psa03 value="0.0897540205" flag="0"/>
      <psa10 value="0.0132916900" flag="0"/>
      <psa30 value="0.0009939341" flag="0"/>
    </comp>
  </station>
  <station code="AKR1" name="AKR1" netid="HI" insttype="unknown" commtype="DIG" lat="38.1536" lon="22.3133">
    <comp name="--.HNE">
      <acc value="0.0137746140" flag="0"/>
      <vel value="0.0089587099" flag="0"/>
      <psa03 value="0.0340778289" flag="0"/>
      <psa10 value="0.0174884891" flag="0"/>
      <psa30 value="0.0014622421" flag="0"/>
    </comp>
    <comp name="--.HNN">
      <acc value="0.0118012940" flag="0"/>
      <vel value="0.0085184793" flag="0"/>
      <psa03 value="0.0272476970" flag="0"/>
      <psa10 value="0.0106324323" flag="0"/>
      <psa30 value="0.0026404815" flag="0"/>
    </comp>
    <comp name="--.HNZ">
      <acc value="0.0070471129" flag="0"/>
      <vel value="0.0052248078" flag="0"/>
      <psa03 value="0.0174472892" flag="0"/>
      <psa10 value="0.0097602745" flag="0"/>
      <psa30 value="0.0019087208" flag="0"/>
    </comp>
  </station>
  <station code="ATH5" name="ATH5" netid="HI" insttype="CMG-5TD,ACCELEROMETER,GURALP" commtype="DIG" lat="37.9754" lon="23.7371">
    <comp name="--.HNE">
      <acc value="0.0324180791" flag="0"/>
      <vel value="0.0157785495" flag="0"/>
      <psa03 value="0.1192174254" flag="0"/>
      <psa10 value="0.0133118938" flag="0"/>
      <psa30 value="0.0014238234" flag="0"/>
    </comp>
    <comp name="--.HNZ">
      <acc value="0.0151965492" flag="0"/>
      <vel value="0.0050473835" flag="0"/>
      <psa03 value="0.0405682068" flag="0"/>
      <psa10 value="0.0053829107" flag="0"/>
      <psa30 value="0.0008588830" flag="0"/>
    </comp>
    <comp name="--.HNN">
      <acc value="0.0311706461" flag="0"/>
      <vel value="0.0123374690" flag="0"/>
      <psa03 value="0.0822855365" flag="0"/>
      <psa10 value="0.0078308836" flag="0"/>
      <psa30 value="0.0025061873" flag="0"/>
    </comp>
  </station>
  <station code="FRS1" name="FRS1" netid="HI" insttype="unknown" commtype="DIG" lat="39.2934" lon="22.3844">
