<stationlist xmlns:esm="https://esm-db.eu/esmws/shakemap/1/" created="1782438831">
	<station code="ROD3" name="ROD3" netid="CL" source="Corinth Riff Laboratory (CRLNET)" insttype="" lat="38.30811" lon="21.89204" esm:processing="automatic (Paolucci et al 2011)" esm:quality="best">
		<comp name="00.HNE" depth="0.0">
			<acc value="0.00669157026508324" flag="0"/>
			<vel value="0.00533249292497941" flag="0"/>
			<psa03 value="0.0270502997621032" flag="0"/>
			<psa10 value="0.00386138892306544" flag="0"/>
			<psa30 value="0.00161748548380843" flag="0"/>
		</comp>
		<comp name="00.HNN" depth="0.0">
			<acc value="0.0081439762039091" flag="0"/>
			<vel value="0.00593876685787371" flag="0"/>
			<psa03 value="0.0288719152268544" flag="0"/>
			<psa10 value="0.0059878880744479" flag="0"/>
			<psa30 value="0.00138205405429833" flag="0"/>
		</comp>
		<comp name="00.HNZ" depth="0.0">
			<acc value="0.00479053031765996" flag="0"/>
			<vel value="0.00312090621123276" flag="0"/>
			<psa03 value="0.00791366291320475" flag="0"/>
			<psa10 value="0.00449893818882537" flag="0"/>
			<psa30 value="0.000865140227960881" flag="0"/>
		</comp>
	</station>
	<station code="TRIZ" name="TRIZ" netid="CL" source="Corinth Riff Laboratory (CRLNET)" insttype="" lat="38.36543" lon="22.07272" esm:processing="automatic (Paolucci et al 2011)" esm:quality="best">
		<comp name="00.HNE" depth="0.0">
			<acc value="0.00763674320168439" flag="0"/>
			<vel value="0.00657896992463251" flag="0"/>
			<psa03 value="0.0158905123038702" flag="0"/>
			<psa10 value="0.00675539235533979" flag="0"/>
			<psa30 value="0.00178066754381905" flag="0"/>
		</comp>
		<comp name="00.HNN" depth="0.0">
			<acc value="0.00972612628822028" flag="0"/>
			<vel value="0.00643145851734288" flag="0"/>
			<psa03 value="0.0300403077312903" flag="0"/>
			<psa10 value="0.0109250531061509" flag="0"/>
			<psa30 value="0.0018935139776748" flag="0"/>
		</comp>
		<comp name="00.HNZ" depth="0.0">
			<acc value="0.00518859091461307" flag="0"/>
			<vel value="0.00540746288079728" flag="0"/>
			<psa03 value="0.00957970361876666" flag="0"/>
			<psa10 value="0.00536834984558077" flag="0"/>
			<psa30 value="0.00175231441556345" flag="0"/>
		</comp>
	</station>
	<station code="AKR1" name="AKR1" netid="HI" source="ITSAK Strong Motion Network" insttype="" lat="38.153583" lon="22.31326" esm:processing="automatic (Paolucci et al 2011)" esm:quality="best">
		<comp name="--.HNE" depth="0.0">
			<acc value="0.0137240927826219" flag="0"/>
			<vel value="0.00942982398443764" flag="0"/>
			<psa03 value="0.0349843123306645" flag="0"/>
			<psa10 value="0.0175074572831229" flag="0"/>
			<psa30 value="0.00180297902184497" flag="0"/>
		</comp>
		<comp name="--.HNN" depth="0.0">
			<acc value="0.0118959528838315" flag="0"/>
			<vel value="0.00955562737180648" flag="0"/>
			<psa03 value="0.0270959824758588" flag="0"/>
			<psa10 value="0.0108789147372104" flag="0"/>
			<psa30 value="0.00324827601567766" flag="0"/>
		</comp>
		<comp name="--.HNZ" depth="0.0">
			<acc value="0.00696507766102468" flag="0"/>
			<vel value="0.00511996653123455" flag="0"/>
			<psa03 value="0.017623052857429" flag="0"/>
			<psa10 value="0.00976512845433533" flag="0"/>
			<psa30 value="0.00227803820051742" flag="0"/>
		</comp>
	</station>
	<station code="ARS1" name="ARS1" netid="HI" source="ITSAK Strong Motion Network" insttype="" lat="37.6349" lon="22.7293" esm:processing="manual (Paolucci et al 2011)" esm:quality="good">
		<comp name="--.HNE" depth="0.0">
			<acc value="0.0103401432883192" flag="0"/>
			<vel value="0.00951875188233516" flag="0"/>
			<psa03 value="0.0266746472728028" flag="0"/>
			<psa10 value="0.01402432404264" flag="0"/>
			<psa30 value="0.00158268015729303" flag="0"/>
		</comp>
		<comp name="--.HNN" depth="0.0">
			<acc value="0.0113520343839883" flag="0"/>
			<vel value="0.00835726595237947" flag="0"/>
			<psa03 value="0.035481379113066" flag="0"/>
			<psa10 value="0.0130774097517154" flag="0"/>
			<psa30 value="0.000982251944370672" flag="0"/>
		</comp>
		<comp name="--.HNZ" depth="0.0">
			<acc value="0.00779310180753476" flag="0"/>
			<vel value="0.00510640667541964" flag="0"/>
			<psa03 value="0.0194444547663665" flag="0"/>
			<psa10 value="0.00570995200629742" flag="0"/>
			<psa30 value="0.00134824306448619" flag="0"/>
		</comp>
	</station>
	<station code="ATH5" name="ATH5" netid="HI" source="ITSAK Strong Motion Network" insttype="" lat="37.975421" lon="23.737098" esm:processing="automatic (Paolucci et al 2011)" esm:quality="best">
		<comp name="--.HNE" depth="0.0">
			<acc value="0.0322932437655894" flag="0"/>
			<vel value="0.0165655077148806" flag="0"/>
			<psa03 value="0.11784157725949" flag="0"/>
			<psa10 value="0.013253151081216" flag="0"/>
			<psa30 value="0.00152439327523982" flag="0"/>
		</comp>
		<comp name="--.HNN" depth="0.0">
			<acc value="0.0307430214413683" flag="0"/>
			<vel value="0.0125537216117853" flag="0"/>
			<psa03 value="0.0825351915097091" flag="0"/>
			<psa10 value="0.00791272792939167" flag="0"/>
			<psa30 value="0.00292174813480807" flag="0"/>
		</comp>
		<comp name="--.HNZ" depth="0.0">
			<acc value="0.0149948115611965" flag="0"/>
			<vel value="0.00490428639970922" flag="0"/>
			<psa03 value="0.0413606956722672" flag="0"/>
			<psa10 value="0.00546942138482421" flag="0"/>
			<psa30 value="0.000915306155374037" flag="0"/>
		</comp>
	</station>
	<station code="FRS1" name="FRS1" netid="HI" source="ITSAK Strong Motion Network" insttype="" lat="39.2934" lon="22.3844" esm:processing="manual (Paolucci et al 2011)" esm:quality="good">
		<comp name="--.HNE" depth="0.0">
			<acc value="0.00910455675365178" flag="0"/>
			<vel value="0.00813271012726109" flag="0"/>
			<psa03 value="0.0244149559126735" flag="0"/>
			<psa10 value="0.01168543847795" flag="0"/>
			<psa30 value="0.00106845057127333" flag="0"/>
		</comp>
		<comp name="--.HNN" depth="0.0">
			<acc value="0.0251291765768933" flag="0"/>
			<vel value="0.0282649154942106" flag="0"/>
			<psa03 value="0.0523425716051515" flag="0"/>
			<psa10 value="0.0323377359663024" flag="0"/>
			<psa30 value="0.00308736243927628" flag="0"/>
		</comp>
		<comp name="--.HNZ" depth="0.0">
			<acc value="0.00811069686217708" flag="0"/>
			<vel value="0.00836028470396155" flag="0"/>
			<psa03 value="0.0206375624497284" flag="0"/>
			<psa10 value="0.0132058960758038" flag="0"/>
			<psa30 value="0.00129974339328766" flag="0"/>
		</comp>
	</station>
	<station code="KIF1" name="KIF1" netid="HI" source="ITSAK Strong Motion Network" insttype="" lat="38.077273" lon="23.814551" esm:processing="automatic (Paolucci et al 2011)" esm:quality="best">
		<comp name="--.HNE" depth="0.0">
			<acc value="0.0340167140563657" flag="0"/>
			<vel value="0.0141407953784412" flag="0"/>
			<psa03 value="0.0861111784012907" flag="0"/>
			<psa10 value="0.00960247642943694" flag="0"/>
			<psa30 value="0.00393436729919136" flag="0"/>
		</comp>
		<comp name="--.HNN" depth="0.0">
			<acc value="0.0313060451657542" flag="0"/>
			<vel value="0.0118310798910321" flag="0"/>
			<psa03 value="0.0833286503224614" flag="0"/>
			<psa10 value="0.0131859531921857" flag="0"/>
			<psa30 value="0.00356757383425777" flag="0"/>
		</comp>
		<comp name="--.HNZ" depth="0.0">
			<acc value="0.0211210412865691" flag="0"/>
			<vel value="0.00618539534581813" flag="0"/>
			<psa03 value="0.0311015473040371" flag="0"/>
			<psa10 value="0.008461456779985" flag="0"/>
			<psa30 value="0.00352376343203364" flag="0"/>
		</comp>
	</station>
	<station code="KMV1" name="KMV1" netid="HI" source="ITSAK Strong Motion Network" insttype="" lat="38.7794" lon="22.7846" esm:processing="automatic (Paolucci et al 2011)" esm:quality="best">
		<comp name="--.HNE" depth="0.0">
			<acc value="0.0957505035753685" flag="0"/>
			<vel value="0.0416287549133872" flag="0"/>
			<psa03 value="0.257971839368298" flag="0"/>
			<psa10 value="0.0614213213610999" flag="0"/>
			<psa30 value="0.00371466732847987" flag="0"/>
		</comp>
		<comp name="--.HNN" depth="0.0">
			<acc value="0.0976269596771635" flag="0"/>
			<vel value="0.0514065726082116" flag="0"/>
			<psa03 value="0.300067086305148" flag="0"/>
			<psa10 value="0.0470835103014836" flag="0"/>
			<psa30 value="0.00361503531168106" flag="0"/>
		</comp>
		<comp name="--.HNZ" depth="0.0">
			<acc value="0.0619223638907602" flag="0"/>
			<vel value="0.0220671579854804" flag="0"/>
			<psa03 value="0.0683097543526456" flag="0"/>
			<psa10 value="0.0218806894882937" flag="0"/>
			<psa30 value="0.00251773262076307" flag="0"/>
		</comp>
	</station>
	<station code="KOR2" name="KOR2" netid="HI" source="ITSAK Strong Motion Network" insttype="" lat="37.9401" lon="22.9495" esm:processing="manual (Paolucci et al 2011)" esm:quality="good">
		<comp name="--.HNE" depth="0.0">
			<acc value="0.049569846477982" flag="0"/>
			<vel value="0.0317568928637366" flag="0"/>
			<psa03 value="0.08929683214355" flag="0"/>
			<psa10 value="0.0565794993641551" flag="0"/>
			<psa30 value="0.00519515165330055" flag="0"/>
		</comp>
		<comp name="--.HNN" depth="0.0">
			<acc value="0.0452884987801595" flag="0"/>
			<vel value="0.0406521727053619" flag="0"/>
			<psa03 value="0.101851893021383" flag="0"/>
			<psa10 value="0.0464918598575453" flag="0"/>
			<psa30 value="0.00533528885336896" flag="0"/>
		</comp>
		<comp name="--.HNZ" depth="0.0">
			<acc value="0.0256424912205897" flag="0"/>
			<vel value="0.0151606338213594" flag="0"/>
			<psa03 value="0.0820029947959554" flag="0"/>
			<psa10 value="0.0233423300648086" flag="0"/>
			<psa30 value="0.0017103275716411" flag="0"/>
		</comp>
	</station>
	<station code="LAM2" name="LAM2" netid="HI" source="ITSAK Strong Motion Network" insttype="" lat="38.90203" lon="22.431301" esm:processing="automatic (Paolucci et al 2011)" esm:quality="best">
		<comp name="--.HNE" depth="0.0">
			<acc value="0.0239967140096525" flag="0"/>
			<vel value="0.0122910597931769" flag="0"/>
			<psa03 value="0.0385958797042783" flag="0"/>
			<psa10 value="0.0147968780330504" flag="0"/>
			<psa30 value="0.00126332337647362" flag="0"/>
		</comp>
		<comp name="--.HNN" depth="0.0">
			<acc value="0.0222558699719378" flag="0"/>
			<vel value="0.0141278410883122" flag="0"/>
			<psa03 value="0.0396658099569066" flag="0"/>
			<psa10 value="0.0260765705698231" flag="0"/>
			<psa30 value="0.0024636807067557" flag="0"/>
		</comp>
		<comp name="--.HNZ" depth="0.0">
			<acc value="0.014090122244298" flag="0"/>
			<vel value="0.00730374351348027" flag="0"/>
			<psa03 value="0.0421556103106274" flag="0"/>
			<psa10 value="0.00763585083764318" flag="0"/>
			<psa30 value="0.00130799237724236" flag="0"/>
		</comp>
	</station>
	<station code="NMA1" name="NMA1" netid="HI" source="ITSAK Strong Motion Network" insttype="" lat="37.81873" lon="22.662702" esm:processing="manual (Paolucci et al 2011)" esm:quality="good">
		<comp name="--.HNE" depth="0.0">
			<acc value="0.0138861160945164" flag="0"/>
			<vel value="0.010502573770015" flag="0"/>
			<psa03 value="0.0348694375332729" flag="0"/>
			<psa10 value="0.0166898881231784" flag="0"/>
			<psa30 value="0.00225537940781694" flag="0"/>
		</comp>
		<comp name="--.HNN" depth="0.0">
			<acc value="0.0164720121548273" flag="0"/>
			<vel value="0.012394066723083" flag="0"/>
			<psa03 value="0.0510819464282537" flag="0"/>
			<psa10 value="0.0216029179622934" flag="0"/>
			<psa30 value="0.00183516511234884" flag="0"/>
		</comp>
		<comp name="--.HNZ" depth="0.0">
			<acc value="0.00862057126867606" flag="0"/>
			<vel value="0.00559437942399942" flag="0"/>
			<psa03 value="0.0188802181697111" flag="0"/>
			<psa10 value="0.00875288014785288" flag="0"/>
			<psa30 value="0.00138362103310298" flag="0"/>
		</comp>
	</station>
	<station code="PER1" name="PER1" netid="HI" source="ITSAK Strong Motion Network" insttype="" lat="38.0119" lon="23.7027" esm:processing="manual (Paolucci et al 2011)" esm:quality="good">
		<comp name="--.HNE" depth="0.0">
			<acc value="0.0320227803492584" flag="0"/>
			<vel value="0.00926654521709906" flag="0"/>
			<psa03 value="0.0368170613454587" flag="0"/>
			<psa10 value="0.00812307748901765" flag="0"/>
			<psa30 value="0.00207680591153254" flag="0"/>
		</comp>
		<comp name="--.HNN" depth="0.0">
			<acc value="0.0293919010459391" flag="0"/>
			<vel value="0.0100392090300759" flag="0"/>
			<psa03 value="0.0530777088460525" flag="0"/>
			<psa10 value="0.0127422800510175" flag="0"/>
			<psa30 value="0.0023386565911883" flag="0"/>
		</comp>
		<comp name="--.HNZ" depth="0.0">
			<acc value="0.0267230416694964" flag="0"/>
			<vel value="0.00526087883921718" flag="0"/>
			<psa03 value="0.0193039298322793" flag="0"/>
			<psa10 value="0.00621255280113345" flag="0"/>
			<psa30 value="0.0012780388304669" flag="0"/>
		</comp>
	</station>
	<station code="PIR2" name="PIR2" netid="HI" source="ITSAK Strong Motion Network" insttype="" lat="37.9458" lon="23.6709" esm:processing="manual (Paolucci et al 2011)" esm:quality="good">
		<comp name="--.HNE" depth="0.0">
			<acc value="0.0839025994368848" flag="0"/>
			<vel value="0.032638676962757" flag="0"/>
			<psa03 value="0.168075759194174" flag="0"/>
			<psa10 value="0.0233748990973471" flag="0"/>
			<psa30 value="0.00167749560501778" flag="0"/>
		</comp>
		<comp name="--.HNN" depth="0.0">
			<acc value="0.0763356337373454" flag="0"/>
			<vel value="0.0304589112167714" flag="0"/>
			<psa03 value="0.225350345021062" flag="0"/>
			<psa10 value="0.026425536812124" flag="0"/>
			<psa30 value="0.00153175855482011" flag="0"/>
		</comp>
		<comp name="--.HNZ" depth="0.0">
			<acc value="0.0706682646826965" flag="0"/>
			<vel value="0.0227494036555367" flag="0"/>
			<psa03 value="0.105470893179049" flag="0"/>
			<psa10 value="0.0121187899978614" flag="0"/>
			<psa30 value="0.000724289438954035" flag="0"/>
		</comp>
	</station>
	<station code="PIR3" name="PIR3" netid="HI" source="ITSAK Strong Motion Network" insttype="" lat="37.9573" lon="23.6519" esm:processing="manual (Paolucci et al 2011)" esm:quality="good">
		<comp name="--.HNE" depth="0.0">
			<acc value="0.0307387495074832" flag="0"/>
			<vel value="0.012447080219103" flag="0"/>
			<psa03 value="0.0489354031886321" flag="0"/>
			<psa10 value="0.0078762136354989" flag="0"/>
			<psa30 value="0.00171332964551376" flag="0"/>
		</comp>
		<comp name="--.HNN" depth="0.0">
			<acc value="0.0371056876872558" flag="0"/>
			<vel value="0.012717172163324" flag="0"/>
			<psa03 value="0.0643365119781713" flag="0"/>
			<psa10 value="0.0104307703623449" flag="0"/>
			<psa30 value="0.00120834213006921" flag="0"/>
		</comp>
		<comp name="--.HNZ" depth="0.0">
			<acc value="0.0186319041891058" flag="0"/>
			<vel value="0.00575694602922474" flag="0"/>
			<psa03 value="0.029829663568815" flag="0"/>
			<psa10 value="0.0080906575288544" flag="0"/>
			<psa30 value="0.00109075579888519" flag="0"/>
		</comp>
	</station>
	<station code="PLN1" name="PLN1" netid="HI" source="ITSAK Strong Motion Network" insttype="" lat="39.998" lon="23.575" esm:processing="manual (Paolucci et al 2011)" esm:quality="good">
		<comp name="--.HNE" depth="0.0">
			<acc value="0.00514497929466135" flag="0"/>
			<vel value="0.00650398553885011" flag="0"/>
			<psa03 value="0.016044913157169" flag="0"/>
			<psa10 value="0.0089795085983755" flag="0"/>
			<psa30 value="0.00153241734846195" flag="0"/>
		</comp>
		<comp name="--.HNN" depth="0.0">
			<acc value="0.0070847173355883" flag="0"/>
			<vel value="0.00738596514110398" flag="0"/>
			<psa03 value="0.0138150571068159" flag="0"/>
			<psa10 value="0.0129927572689039" flag="0"/>
			<psa30 value="0.00216638101211" flag="0"/>
		</comp>
		<comp name="--.HNZ" depth="0.0">
			<acc value="0.0106165144651776" flag="0"/>
			<vel value="0.00279236424874459" flag="0"/>
			<psa03 value="0.010403081731234" flag="0"/>
			<psa10 value="0.00374688821295533" flag="0"/>
			<psa30 value="0.000856757120537823" flag="0"/>
		</comp>
	</station>
	<station code="SKY1" name="SKY1" netid="HI" source="ITSAK Strong Motion Network" insttype="" lat="38.904483" lon="24.564572" esm:processing="automatic (Paolucci et al 2011)" esm:quality="best">
		<comp name="--.HNE" depth="0.0">
			<acc value="0.0331616400686267" flag="0"/>
			<vel value="0.0169674191940797" flag="0"/>
			<psa03 value="0.0710803389319433" flag="0"/>
			<psa10 value="0.0190064615848011" flag="0"/>
			<psa30 value="0.00150616029656113" flag="0"/>
		</comp>
		<comp name="--.HNN" depth="0.0">
			<acc value="0.0441714201371779" flag="0"/>
			<vel value="0.0217126867887965" flag="0"/>
			<psa03 value="0.0982149958447938" flag="0"/>
			<psa10 value="0.0138654569559752" flag="0"/>
			<psa30 value="0.00137079487093269" flag="0"/>
		</comp>
		<comp name="--.HNZ" depth="0.0">
			<acc value="0.0197732824672754" flag="0"/>
			<vel value="0.0118152394091981" flag="0"/>
			<psa03 value="0.0507419655728572" flag="0"/>
			<psa10 value="0.0118803032617856" flag="0"/>
			<psa30 value="0.00193396915763193" flag="0"/>
		</comp>
	</station>
	<station code="THV2" name="THV2" netid="HI" source="ITSAK Strong Motion Network" insttype="" lat="38.316117" lon="23.319807" esm:processing="automatic (Paolucci et al 2011)" esm:quality="best">
		<comp name="--.HNE" depth="0.0">
			<acc value="0.2952614112276" flag="0"/>
			<vel value="0.108651732922626" flag="0"/>
			<psa03 value="0.406126778905936" flag="0"/>
			<psa10 value="0.0557452453489209" flag="0"/>
			<psa30 value="0.010332265295201" flag="0"/>
		</comp>
		<comp name="--.HNN" depth="0.0">
			<acc value="0.207296062394403" flag="0"/>
			<vel value="0.0845911291438263" flag="0"/>
			<psa03 value="0.402789849517407" flag="0"/>
			<psa10 value="0.042162329297394" flag="0"/>
			<psa30 value="0.00623117778494722" flag="0"/>
		</comp>
		<comp name="--.HNZ" depth="0.0">
			<acc value="0.111663122788174" flag="0"/>
			<vel value="0.0324010441532786" flag="0"/>
			<psa03 value="0.188775859640904" flag="0"/>
			<psa10 value="0.0329220209223132" flag="0"/>
			<psa30 value="0.00302329069483766" flag="0"/>
		</comp>
	</station>
	<station code="TRP1" name="TRP1" netid="HI" source="ITSAK Strong Motion Network" insttype="" lat="37.511219" lon="22.363399" esm:processing="manual (Paolucci et al 2011)" esm:quality="good">
		<comp name="--.HNE" depth="0.0">
			<acc value="0.00399604523864245" flag="0"/>
			<vel value="0.00241607563951603" flag="0"/>
			<psa03 value="0.00958796067617286" flag="0"/>
			<psa10 value="0.00328863574660342" flag="0"/>
			<psa30 value="0.00029958195520926" flag="0"/>
		</comp>
		<comp name="--.HNN" depth="0.0">
			<acc value="0.00338439424877677" flag="0"/>
			<vel value="0.00251699389345893" flag="0"/>
			<psa03 value="0.00810193319768712" flag="0"/>
			<psa10 value="0.00515511212587836" flag="0"/>
			<psa30 value="0.000342131596830862" flag="0"/>
		</comp>
		<comp name="--.HNZ" depth="0.0">
			<acc value="0.00161791136921148" flag="0"/>
			<vel value="0.00176899498707531" flag="0"/>
			<psa03 value="0.00617584401518987" flag="0"/>
			<psa10 value="0.00308057336974207" flag="0"/>
			<psa30 value="0.000372329873360143" flag="0"/>
		</comp>
	</station>
	<station code="VOL2" name="VOL2" netid="HI" source="ITSAK Strong Motion Network" insttype="" lat="39.366" lon="22.9506" esm:processing="manual (Paolucci et al 2011)" esm:quality="good">
		<comp name="--.HNE" depth="0.0">
			<acc value="0.0634358688940474" flag="0"/>
			<vel value="0.0376666812739187" flag="0"/>
			<psa03 value="0.152763911526079" flag="0"/>
			<psa10 value="0.0147033318360739" flag="0"/>
			<psa30 value="0.00127609797272793" flag="0"/>
		</comp>
		<comp name="--.HNN" depth="0.0">
			<acc value="0.063481450959488" flag="0"/>
			<vel value="0.0325099324175701" flag="0"/>
			<psa03 value="0.111472967870374" flag="0"/>
			<psa10 value="0.0237924255064226" flag="0"/>
			<psa30 value="0.00247752849910399" flag="0"/>
		</comp>
		<comp name="--.HNZ" depth="0.0">
			<acc value="0.0381888955141787" flag="0"/>
			<vel value="0.0103313671445383" flag="0"/>
			<psa03 value="0.0469766380133857" flag="0"/>
			<psa10 value="0.0122822942667168" flag="0"/>
