<?xml version="1.0" encoding="UTF-8" standalone="yes"?>
<!DOCTYPE earthquake SYSTEM "stationlist.dtd">
<stationlist created="" xmlns="ch.ethz.sed.shakemap.usgs.xml">
  <station code="ACOR" name="ACOR" netid="HA" insttype="Horizon,120s,1200" commtype="DIG" lat="37.8905" lon="22.8694">
    <comp name="--.HHE">
      <acc value="0.0131978044" flag="0"/>
      <vel value="0.0137918782" flag="0"/>
      <psa03 value="0.0434800268" flag="0"/>
      <psa10 value="0.0203930446" flag="0"/>
      <psa30 value="0.0010696719" flag="0"/>
    </comp>
    <comp name="--.HHZ">
      <acc value="0.0082691002" flag="0"/>
      <vel value="0.0054437000" flag="0"/>
      <psa03 value="0.0239806110" flag="0"/>
      <psa10 value="0.0075437160" flag="0"/>
      <psa30 value="0.0007161502" flag="0"/>
    </comp>
    <comp name="--.HHN">
      <acc value="0.0088252656" flag="0"/>
      <vel value="0.0104747957" flag="0"/>
      <psa03 value="0.0290898167" flag="0"/>
      <psa10 value="0.0188159467" flag="0"/>
      <psa30 value="0.0014079643" flag="0"/>
    </comp>
  </station>
  <station code="ALIO" name="ALIO" netid="HA" insttype="25" commtype="DIG" lat="38.0657" lon="23.6727">
    <comp name="--.HHE">
      <acc value="0.0182608497" flag="0"/>
      <vel value="0.0049674486" flag="0"/>
      <psa03 value="0.0158459304" flag="0"/>
      <psa10 value="0.0020756782" flag="0"/>
      <psa30 value="0.0007357381" flag="0"/>
    </comp>
    <comp name="--.HHZ">
      <acc value="0.0168770043" flag="0"/>
      <vel value="0.0031009322" flag="0"/>
      <psa03 value="0.0141827800" flag="0"/>
      <psa10 value="0.0018551792" flag="0"/>
      <psa30 value="0.0008196252" flag="0"/>
    </comp>
    <comp name="--.HHN">
      <acc value="0.0145215789" flag="0"/>
      <vel value="0.0039075101" flag="0"/>
      <psa03 value="0.0157898341" flag="0"/>
      <psa10 value="0.0030194254" flag="0"/>
      <psa30 value="0.0004786415" flag="0"/>
    </comp>
  </station>
  <station code="AMPE" name="AMPE" netid="HA" insttype="1s-100Hz," commtype="DIG" lat="38.3015" lon="23.2688">
    <comp name="--.HHE">
      <acc value="0.1714599477" flag="0"/>
      <vel value="0.1037112463" flag="0"/>
      <psa03 value="0.3336355877" flag="0"/>
      <psa10 value="0.1630325392" flag="0"/>
      <psa30 value="0.0331775622" flag="0"/>
    </comp>
    <comp name="--.HHN">
      <acc value="0.1341717093" flag="0"/>
      <vel value="0.0539475879" flag="0"/>
      <psa03 value="0.2104315154" flag="0"/>
      <psa10 value="0.0516727137" flag="0"/>
      <psa30 value="0.0058478843" flag="0"/>
    </comp>
    <comp name="--.HHZ">
      <acc value="0.1186004938" flag="0"/>
      <vel value="0.0511736578" flag="0"/>
      <psa03 value="0.2184823610" flag="0"/>
      <psa10 value="0.0443061216" flag="0"/>
      <psa30 value="0.0068476166" flag="0"/>
    </comp>
  </station>
  <station code="ANTK" name="ANTK" netid="HA" insttype="25" commtype="DIG" lat="38.3605" lon="22.6385">
    <comp name="--.HHE">
      <acc value="0.0071104511" flag="0"/>
      <vel value="0.0041462813" flag="0"/>
      <psa03 value="0.0140887428" flag="0"/>
      <psa10 value="0.0036461806" flag="0"/>
      <psa30 value="0.0008322347" flag="0"/>
    </comp>
    <comp name="--.HHZ">
      <acc value="0.0052469695" flag="0"/>
      <vel value="0.0030851029" flag="0"/>
      <psa03 value="0.0099058081" flag="0"/>
      <psa10 value="0.0019298469" flag="0"/>
      <psa30 value="0.0007687024" flag="0"/>
    </comp>
    <comp name="--.HHN">
      <acc value="0.0064965354" flag="0"/>
      <vel value="0.0032386565" flag="0"/>
      <psa03 value="0.0132892439" flag="0"/>
      <psa10 value="0.0040006193" flag="0"/>
      <psa30 value="0.0008968139" flag="0"/>
    </comp>
  </station>
  <station code="ATAL" name="ATAL" netid="HA" insttype="120s," commtype="DIG" lat="38.6926" lon="23.0213">
    <comp name="--.HHE">
      <acc value="0.1542249514" flag="0"/>
      <vel value="0.0383793253" flag="0"/>
      <psa03 value="0.2297671052" flag="0"/>
      <psa10 value="0.0221211322" flag="0"/>
      <psa30 value="0.0067055789" flag="0"/>
    </comp>
    <comp name="--.HHZ">
      <acc value="0.1801103601" flag="0"/>
      <vel value="0.0501889238" flag="0"/>
      <psa03 value="0.2616196500" flag="0"/>
      <psa10 value="0.0218713946" flag="0"/>
      <psa30 value="0.0039575831" flag="0"/>
    </comp>
    <comp name="--.HHN">
      <acc value="0.1740639875" flag="0"/>
      <vel value="0.0554013657" flag="0"/>
      <psa03 value="0.3034991490" flag="0"/>
      <psa10 value="0.0369029716" flag="0"/>
      <psa30 value="0.0066769826" flag="0"/>
    </comp>
  </station>
  <station code="ATHU" name="ATHU" netid="HA" insttype="60s," commtype="DIG" lat="37.9665" lon="23.7845">
    <comp name="--.HHE">
      <acc value="0.0171492040" flag="0"/>
      <vel value="0.0078409049" flag="0"/>
      <psa03 value="0.0454506881" flag="0"/>
      <psa10 value="0.0043734125" flag="0"/>
      <psa30 value="0.0012365522" flag="0"/>
    </comp>
    <comp name="--.HHN">
      <acc value="0.0141175287" flag="0"/>
      <vel value="0.0063206208" flag="0"/>
      <psa03 value="0.0337532833" flag="0"/>
      <psa10 value="0.0047808176" flag="0"/>
      <psa30 value="0.0017680642" flag="0"/>
    </comp>
    <comp name="--.HHZ">
      <acc value="0.0146883416" flag="0"/>
      <vel value="0.0040909312" flag="0"/>
      <psa03 value="0.0245629559" flag="0"/>
      <psa10 value="0.0035339867" flag="0"/>
      <psa30 value="0.0011877128" flag="0"/>
    </comp>
  </station>
  <station code="AXAR" name="AXAR" netid="HA" insttype="Horizon,120s,1200" commtype="DIG" lat="38.7664" lon="22.659">
    <comp name="--.HHE">
      <acc value="0.0380770321" flag="0"/>
      <vel value="0.0207942104" flag="0"/>
      <psa03 value="0.1033825387" flag="0"/>
      <psa10 value="0.0196378828" flag="0"/>
      <psa30 value="0.0054987646" flag="0"/>
    </comp>
    <comp name="--.HHN">
      <acc value="0.0325719761" flag="0"/>
      <vel value="0.0174711599" flag="0"/>
      <psa03 value="0.0787481279" flag="0"/>
      <psa10 value="0.0249915307" flag="0"/>
      <psa30 value="0.0023466406" flag="0"/>
    </comp>
    <comp name="--.HHZ">
      <acc value="0.0235503540" flag="0"/>
      <vel value="0.0107131775" flag="0"/>
      <psa03 value="0.0569141726" flag="0"/>
      <psa10 value="0.0141701292" flag="0"/>
      <psa30 value="0.0020590880" flag="0"/>
    </comp>
  </station>
  <station code="DOMV" name="DOMV" netid="HA" insttype="60" commtype="DIG" lat="38.2569" lon="22.9795">
    <comp name="--.HHZ">
      <acc value="0.1934979048" flag="0"/>
      <vel value="0.0730406156" flag="0"/>
      <psa03 value="0.5318896282" flag="0"/>
      <psa10 value="0.0195210919" flag="0"/>
      <psa30 value="0.0027054667" flag="0"/>
    </comp>
    <comp name="--.HHE">
      <acc value="0.2707220813" flag="0"/>
      <vel value="0.0901913271" flag="0"/>
      <psa03 value="0.5155355731" flag="0"/>
      <psa10 value="0.0563472648" flag="0"/>
      <psa30 value="0.0028080565" flag="0"/>
    </comp>
    <comp name="--.HHN">
      <acc value="0.2050303003" flag="0"/>
      <vel value="0.0563924736" flag="0"/>
      <psa03 value="0.5146283450" flag="0"/>
      <psa10 value="0.0279787860" flag="0"/>
      <psa30 value="0.0020113423" flag="0"/>
    </comp>
  </station>
  <station code="ERTR" name="ERTR" netid="HA" insttype="Horizon,120s,1200" commtype="DIG" lat="38.4066" lon="23.7865">
    <comp name="--.HHN">
      <acc value="0.0143039541" flag="0"/>
      <vel value="0.0068419678" flag="0"/>
      <psa03 value="0.0200091178" flag="0"/>
      <psa10 value="0.0104946704" flag="0"/>
      <psa30 value="0.0023665198" flag="0"/>
    </comp>
    <comp name="--.HHE">
      <acc value="0.0157623007" flag="0"/>
      <vel value="0.0070462754" flag="0"/>
      <psa03 value="0.0375066384" flag="0"/>
      <psa10 value="0.0094229802" flag="0"/>
      <psa30 value="0.0024674895" flag="0"/>
    </comp>
    <comp name="--.HHZ">
      <acc value="0.0151033436" flag="0"/>
      <vel value="0.0058293553" flag="0"/>
      <psa03 value="0.0267708246" flag="0"/>
      <psa10 value="0.0071454088" flag="0"/>
      <psa30 value="0.0015524705" flag="0"/>
    </comp>
  </station>
  <station code="KALE" name="KALE" netid="HA" insttype="40," commtype="DIG" lat="38.3911" lon="22.1398">
    <comp name="--.HHN">
      <acc value="0.0093889079" flag="0"/>
      <vel value="0.0067986039" flag="0"/>
      <psa03 value="0.0243407794" flag="0"/>
      <psa10 value="0.0062996423" flag="0"/>
      <psa30 value="0.0020495573" flag="0"/>
    </comp>
    <comp name="--.HHE">
      <acc value="0.0108507023" flag="0"/>
      <vel value="0.0064468565" flag="0"/>
      <psa03 value="0.0254828135" flag="0"/>
      <psa10 value="0.0101554496" flag="0"/>
      <psa30 value="0.0014426999" flag="0"/>
    </comp>
    <comp name="--.HHZ">
      <acc value="0.0061682770" flag="0"/>
      <vel value="0.0057511227" flag="0"/>
      <psa03 value="0.0134611336" flag="0"/>
      <psa10 value="0.0092850432" flag="0"/>
      <psa30 value="0.0014471964" flag="0"/>
    </comp>
  </station>
  <station code="KARY" name="KARY" netid="HA" insttype="60" commtype="DIG" lat="38.0321" lon="24.437">
    <comp name="--.HHE">
      <acc value="0.0120151778" flag="0"/>
      <vel value="0.0040163571" flag="0"/>
      <psa03 value="0.0118592215" flag="0"/>
      <psa10 value="0.0029653305" flag="0"/>
      <psa30 value="0.0004776291" flag="0"/>
    </comp>
    <comp name="--.HHZ">
      <acc value="0.0107106605" flag="0"/>
      <vel value="0.0043202536" flag="0"/>
      <psa03 value="0.0146993066" flag="0"/>
      <psa10 value="0.0048347941" flag="0"/>
      <psa30 value="0.0009145872" flag="0"/>
    </comp>
    <comp name="--.HHN">
      <acc value="0.0190781682" flag="0"/>
      <vel value="0.0055329288" flag="0"/>
      <psa03 value="0.0151545522" flag="0"/>
      <psa10 value="0.0080633646" flag="0"/>
      <psa30 value="0.0007845734" flag="0"/>
    </comp>
  </station>
  <station code="LOUT" name="LOUT" netid="HA" insttype="30" commtype="DIG" lat="37.9879" lon="22.9743">
    <comp name="--.HHE">
      <acc value="0.0442640605" flag="0"/>
      <vel value="0.0196139616" flag="0"/>
      <psa03 value="0.1054591375" flag="0"/>
      <psa10 value="0.0325095088" flag="0"/>
      <psa30 value="0.0020212198" flag="0"/>
    </comp>
    <comp name="--.HHZ">
      <acc value="0.0277193371" flag="0"/>
      <vel value="0.0138234096" flag="0"/>
      <psa03 value="0.0626767475" flag="0"/>
      <psa10 value="0.0103990041" flag="0"/>
      <psa30 value="0.0013463490" flag="0"/>
    </comp>
    <comp name="--.HHN">
      <acc value="0.0667052621" flag="0"/>
      <vel value="0.0227191528" flag="0"/>
      <psa03 value="0.0817988400" flag="0"/>
      <psa10 value="0.0111603222" flag="0"/>
      <psa30 value="0.0018206974" flag="0"/>
    </comp>
  </station>
  <station code="MDRA" name="MDRA" netid="HA" insttype="60" commtype="DIG" lat="38.0606" lon="23.4662">
    <comp name="--.HHE">
      <acc value="0.0680627353" flag="0"/>
      <vel value="0.0318281033" flag="0"/>
      <psa03 value="0.1623406341" flag="0"/>
      <psa10 value="0.0400106871" flag="0"/>
      <psa30 value="0.0071897042" flag="0"/>
    </comp>
    <comp name="--.HHN">
      <acc value="0.0488927840" flag="0"/>
      <vel value="0.0206532706" flag="0"/>
      <psa03 value="0.0865265172" flag="0"/>
      <psa10 value="0.0297557096" flag="0"/>
      <psa30 value="0.0041928335" flag="0"/>
    </comp>
    <comp name="--.HHZ">
      <acc value="0.0486203650" flag="0"/>
      <vel value="0.0221824375" flag="0"/>
      <psa03 value="0.1269315290" flag="0"/>
      <psa10 value="0.0277840818" flag="0"/>
      <psa30 value="0.0048643765" flag="0"/>
    </comp>
  </station>
  <station code="MRKA" name="MRKA" netid="HA" insttype="Horizon,120s,1200" commtype="DIG" lat="38.7047" lon="23.5863">
    <comp name="--.HHN">
      <acc value="5.4315024337" flag="0"/>
      <vel value="1.4203192613" flag="0"/>
      <psa03 value="13.0195673222" flag="0"/>
      <psa10 value="0.4085587224" flag="0"/>
      <psa30 value="0.0765217094" flag="0"/>
    </comp>
    <comp name="--.HHE">
      <acc value="3.9249625892" flag="0"/>
      <vel value="0.9040786821" flag="0"/>
      <psa03 value="4.9828576173" flag="0"/>
      <psa10 value="0.3507846992" flag="0"/>
      <psa30 value="0.0568036830" flag="0"/>
    </comp>
    <comp name="--.HHZ">
      <acc value="4.0109905221" flag="0"/>
      <vel value="0.6694995222" flag="0"/>
      <psa03 value="2.3921985118" flag="0"/>
      <psa10 value="0.3321651466" flag="0"/>
      <psa30 value="0.0709176443" flag="0"/>
    </comp>
  </station>
  <station code="MRTH" name="MRTH" netid="HA" insttype="S100," commtype="DIG" lat="38.1225" lon="23.9409">
    <comp name="--.HHE">
      <acc value="0.0390118901" flag="0"/>
      <vel value="0.0153417299" flag="0"/>
      <psa03 value="0.0886996700" flag="0"/>
      <psa10 value="0.0066557496" flag="0"/>
      <psa30 value="0.0010657125" flag="0"/>
    </comp>
    <comp name="--.HHN">
      <acc value="0.0284505632" flag="0"/>
      <vel value="0.0102117579" flag="0"/>
      <psa03 value="0.0928977390" flag="0"/>
      <psa10 value="0.0089661640" flag="0"/>
      <psa30 value="0.0008407251" flag="0"/>
    </comp>
    <comp name="--.HHZ">
      <acc value="0.0305856441" flag="0"/>
      <vel value="0.0114859459" flag="0"/>
      <psa03 value="0.0774611359" flag="0"/>
      <psa10 value="0.0035845805" flag="0"/>
      <psa30 value="0.0013271030" flag="0"/>
    </comp>
  </station>
  <station code="PRDM" name="PRDM" netid="HA" insttype="25" commtype="DIG" lat="38.2804" lon="22.847">
    <comp name="--.HHZ">
      <acc value="0.0127297695" flag="0"/>
      <vel value="0.0044231628" flag="0"/>
      <psa03 value="0.0266170996" flag="0"/>
      <psa10 value="0.0036349744" flag="0"/>
      <psa30 value="0.0008150174" flag="0"/>
    </comp>
    <comp name="--.HHE">
      <acc value="0.0282363042" flag="0"/>
      <vel value="0.0087249730" flag="0"/>
      <psa03 value="0.0356156804" flag="0"/>
      <psa10 value="0.0075246225" flag="0"/>
      <psa30 value="0.0008969902" flag="0"/>
    </comp>
    <comp name="--.HHN">
      <acc value="0.0254969446" flag="0"/>
      <vel value="0.0072874450" flag="0"/>
      <psa03 value="0.0358515421" flag="0"/>
      <psa10 value="0.0052034491" flag="0"/>
      <psa30 value="0.0009253921" flag="0"/>
    </comp>
  </station>
  <station code="PSAH" name="PSAH" netid="HA" insttype="25" commtype="DIG" lat="38.5694" lon="23.6473">
    <comp name="--.HHN">
      <acc value="0.0905364014" flag="0"/>
      <vel value="0.0379459585" flag="0"/>
      <psa03 value="0.1844204322" flag="0"/>
      <psa10 value="0.0345413924" flag="0"/>
      <psa30 value="0.0059361085" flag="0"/>
    </comp>
    <comp name="--.HHZ">
      <acc value="0.0744131206" flag="0"/>
      <vel value="0.0205801355" flag="0"/>
      <psa03 value="0.0573165879" flag="0"/>
      <psa10 value="0.0397867639" flag="0"/>
      <psa30 value="0.0019108485" flag="0"/>
    </comp>
    <comp name="--.HHE">
      <acc value="0.0964821127" flag="0"/>
      <vel value="0.0606024291" flag="0"/>
      <psa03 value="0.1562580300" flag="0"/>
      <psa10 value="0.0625551189" flag="0"/>
      <psa30 value="0.0083814527" flag="0"/>
    </comp>
  </station>
  <station code="THAL" name="THAL" netid="HA" insttype="30" commtype="DIG" lat="38.0357" lon="22.6634">
    <comp name="--.HHZ">
      <acc value="0.0311440704" flag="0"/>
      <vel value="0.0143825687" flag="0"/>
      <psa03 value="0.0669485681" flag="0"/>
      <psa10 value="0.0115982569" flag="0"/>
      <psa30 value="0.0012157292" flag="0"/>
    </comp>
    <comp name="--.HHE">
      <acc value="0.0519229051" flag="0"/>
      <vel value="0.0200115701" flag="0"/>
      <psa03 value="0.1128203706" flag="0"/>
      <psa10 value="0.0224825456" flag="0"/>
      <psa30 value="0.0015902746" flag="0"/>
    </comp>
    <comp name="--.HHN">
      <acc value="0.0461596222" flag="0"/>
      <vel value="0.0206959350" flag="0"/>
      <psa03 value="0.1499834851" flag="0"/>
      <psa10 value="0.0180493213" flag="0"/>
      <psa30 value="0.0024729836" flag="0"/>
    </comp>
  </station>
  <station code="THIV" name="THIV" netid="HA" insttype="25" commtype="DIG" lat="38.299" lon="23.332">
    <comp name="--.HHE">
      <acc value="0.1854086345" flag="0"/>
      <vel value="0.0494527762" flag="0"/>
      <psa03 value="0.2210249020" flag="0"/>
      <psa10 value="0.0299464698" flag="0"/>
      <psa30 value="0.0039608986" flag="0"/>
    </comp>
    <comp name="--.HHN">
      <acc value="0.1329024111" flag="0"/>
      <vel value="0.0347940406" flag="0"/>
      <psa03 value="0.1729577053" flag="0"/>
      <psa10 value="0.0172925530" flag="0"/>
      <psa30 value="0.0019998165" flag="0"/>
    </comp>
    <comp name="--.HHZ">
      <acc value="0.1035237345" flag="0"/>
      <vel value="0.0343861977" flag="0"/>
      <psa03 value="0.1018063002" flag="0"/>
      <psa10 value="0.0106225808" flag="0"/>
      <psa30 value="0.0022963152" flag="0"/>
    </comp>
  </station>
  <station code="VILL" name="VILL" netid="HA" insttype="Horizon,120s,1200" commtype="DIG" lat="38.1642" lon="23.3122">
    <comp name="--.HHN">
      <acc value="0.0832242280" flag="0"/>
      <vel value="0.0296131705" flag="0"/>
      <psa03 value="0.1425275941" flag="0"/>
      <psa10 value="0.0151662679" flag="0"/>
      <psa30 value="0.0018120076" flag="0"/>
    </comp>
    <comp name="--.HHE">
      <acc value="0.1009873305" flag="0"/>
      <vel value="0.0464600708" flag="0"/>
      <psa03 value="0.2554961860" flag="0"/>
      <psa10 value="0.0429666277" flag="0"/>
      <psa30 value="0.0026124759" flag="0"/>
    </comp>
    <comp name="--.HHZ">
      <acc value="0.0375603926" flag="0"/>
      <vel value="0.0181343518" flag="0"/>
      <psa03 value="0.0897540205" flag="0"/>
      <psa10 value="0.0132916900" flag="0"/>
      <psa30 value="0.0009939301" flag="0"/>
    </comp>
  </station>
  <station code="AKR1" name="AKR1" netid="HI" insttype="unknown" commtype="DIG" lat="38.1536" lon="22.3133">
    <comp name="--.HNN">
      <acc value="0.0118012907" flag="0"/>
      <vel value="0.0085184787" flag="0"/>
      <psa03 value="0.0272476970" flag="0"/>
      <psa10 value="0.0106324322" flag="0"/>
      <psa30 value="0.0026404952" flag="0"/>
    </comp>
    <comp name="--.HNE">
      <acc value="0.0137746136" flag="0"/>
      <vel value="0.0089587088" flag="0"/>
      <psa03 value="0.0340778289" flag="0"/>
      <psa10 value="0.0174884891" flag="0"/>
      <psa30 value="0.0014622518" flag="0"/>
    </comp>
    <comp name="--.HNZ">
      <acc value="0.0070471126" flag="0"/>
      <vel value="0.0052248082" flag="0"/>
      <psa03 value="0.0174472892" flag="0"/>
      <psa10 value="0.0097602745" flag="0"/>
      <psa30 value="0.0019087243" flag="0"/>
    </comp>
  </station>
  <station code="ATH5" name="ATH5" netid="HI" insttype="CMG-5TD,ACCELEROMETER,GURALP" commtype="DIG" lat="37.9754" lon="23.7371">
    <comp name="--.HNE">
      <acc value="0.0324180776" flag="0"/>
      <vel value="0.0157785506" flag="0"/>
      <psa03 value="0.1192174254" flag="0"/>
      <psa10 value="0.0133118936" flag="0"/>
      <psa30 value="0.0014238181" flag="0"/>
    </comp>
    <comp name="--.HNZ">
      <acc value="0.0151965495" flag="0"/>
      <vel value="0.0050473841" flag="0"/>
      <psa03 value="0.0405682068" flag="0"/>
      <psa10 value="0.0053829107" flag="0"/>
      <psa30 value="0.0008588878" flag="0"/>
    </comp>
    <comp name="--.HNN">
      <acc value="0.0311706444" flag="0"/>
      <vel value="0.0123374696" flag="0"/>
      <psa03 value="0.0822855365" flag="0"/>
      <psa10 value="0.0078308837" flag="0"/>
      <psa30 value="0.0025061866" flag="0"/>
    </comp>
  </station>
  <station code="FRS1" name="FRS1" netid="HI" insttype="unknown" commtype="DIG" lat="39.2934" lon="22.3844">
