<?xml version="1.0" encoding="UTF-8" standalone="yes"?>
<!DOCTYPE earthquake SYSTEM "stationlist.dtd">
<stationlist created="" xmlns="ch.ethz.sed.shakemap.usgs.xml">
  <station code="FOO" name="FOO" netid="NS" insttype="" lat="61.5973" lon="5.04267">
    <comp name="00.HHE">
      <acc value="0.0785431458" flag="0"/>
      <vel value="0.0078594936" flag="0"/>
      <psa03 value="0.0199544199" flag="0"/>
      <psa10 value="0.0019037282" flag="0"/>
      <psa30 value="0.0001148915" flag="0"/>
    </comp>
    <comp name="00.HHN">
      <acc value="0.0791942210" flag="0"/>
      <vel value="0.0111831347" flag="0"/>
      <psa03 value="0.0237130768" flag="0"/>
      <psa10 value="0.0017389672" flag="0"/>
      <psa30 value="0.0001448077" flag="0"/>
    </comp>
    <comp name="00.HHZ">
      <acc value="0.0577118019" flag="0"/>
      <vel value="0.0067813935" flag="0"/>
      <psa03 value="0.0195731269" flag="0"/>
      <psa10 value="0.0013608194" flag="0"/>
      <psa30 value="0.0001157617" flag="0"/>
    </comp>
  </station>
</stationlist>
