<?xml version="1.0" encoding="UTF-8" standalone="yes"?>
<!DOCTYPE earthquake SYSTEM "stationlist.dtd">
<stationlist created="" xmlns="ch.ethz.sed.shakemap.usgs.xml">
  <station code="BORA" name="BORA" netid="TU" insttype="T" lat="39.8801" lon="30.4534">
    <comp name="--.HHZ">
      <acc value="0.0189838601" flag="0"/>
      <vel value="0.0152983899" flag="0"/>
      <psa03 value="0.0495149017" flag="0"/>
      <psa10 value="0.0297090213" flag="0"/>
      <psa30 value="0.0036253379" flag="0"/>
    </comp>
    <comp name="--.HHN">
      <acc value="0.0228578831" flag="0"/>
      <vel value="0.0172312966" flag="0"/>
      <psa03 value="0.0513457566" flag="0"/>
      <psa10 value="0.0221445804" flag="0"/>
      <psa30 value="0.0037523098" flag="0"/>
    </comp>
    <comp name="--.HHE">
      <acc value="0.0328061323" flag="0"/>
      <vel value="0.0199471379" flag="0"/>
      <psa03 value="0.1080485704" flag="0"/>
      <psa10 value="0.0220211830" flag="0"/>
      <psa30 value="0.0027539649" flag="0"/>
    </comp>
  </station>
</stationlist>
