<?xml version="1.0" encoding="UTF-8" standalone="yes"?>
<!DOCTYPE earthquake SYSTEM "stationlist.dtd">
<stationlist created="" xmlns="ch.ethz.sed.shakemap.usgs.xml">
  <station code="GPA" name="GPA" netid="KO" insttype="CMG-5T" lat="40.2911" lon="30.3171">
    <comp name="--.HNZ">
      <acc value="0.0168490835" flag="0"/>
      <vel value="0.0126236781" flag="0"/>
      <psa03 value="0.0652804129" flag="0"/>
      <psa10 value="0.0228930651" flag="0"/>
      <psa30 value="0.0043027628" flag="0"/>
    </comp>
    <comp name="--.HNN">
      <acc value="0.0577822974" flag="0"/>
      <vel value="0.0322022275" flag="0"/>
      <psa03 value="0.1530641266" flag="0"/>
      <psa10 value="0.0246487897" flag="0"/>
      <psa30 value="0.0048583734" flag="0"/>
    </comp>
    <comp name="--.HNE">
      <acc value="0.0381690301" flag="0"/>
      <vel value="0.0170998633" flag="0"/>
      <psa03 value="0.1019095729" flag="0"/>
      <psa10 value="0.0274797337" flag="0"/>
      <psa30 value="0.0052114298" flag="0"/>
    </comp>
  </station>
  <station code="GULT" name="GULT" netid="KO" insttype="CMG-3ESP" lat="40.432" lon="30.5152">
    <comp name="--.HHZ">
      <acc value="0.0940936315" flag="0"/>
      <vel value="0.0582149958" flag="0"/>
      <psa03 value="0.2387801475" flag="0"/>
      <psa10 value="0.0989081014" flag="0"/>
      <psa30 value="0.0079451363" flag="0"/>
    </comp>
    <comp name="--.HHE">
      <acc value="0.1549525059" flag="0"/>
      <vel value="0.0895795157" flag="0"/>
      <psa03 value="0.5292932773" flag="0"/>
      <psa10 value="0.1246164284" flag="0"/>
      <psa30 value="0.0116113876" flag="0"/>
    </comp>
    <comp name="--.HHN">
      <acc value="0.2017272850" flag="0"/>
      <vel value="0.0753434646" flag="0"/>
      <psa03 value="0.5673103382" flag="0"/>
      <psa10 value="0.0727496248" flag="0"/>
      <psa30 value="0.0152009968" flag="0"/>
    </comp>
  </station>
  <station code="KDZE" name="KDZE" netid="KO" insttype="CMG-3T" lat="41.3132" lon="31.443">
    <comp name="--.HHE">
      <acc value="0.0702557833" flag="0"/>
      <vel value="0.0163940639" flag="0"/>
      <psa03 value="0.0756105189" flag="0"/>
      <psa10 value="0.0126486527" flag="0"/>
      <psa30 value="0.0023623943" flag="0"/>
    </comp>
    <comp name="--.HHZ">
      <acc value="0.0340658892" flag="0"/>
      <vel value="0.0163930320" flag="0"/>
      <psa03 value="0.0532619404" flag="0"/>
      <psa10 value="0.0220981599" flag="0"/>
      <psa30 value="0.0021367486" flag="0"/>
    </comp>
    <comp name="--.HHN">
      <acc value="0.0608532692" flag="0"/>
      <vel value="0.0180083869" flag="0"/>
      <psa03 value="0.0496984431" flag="0"/>
      <psa10 value="0.0132572949" flag="0"/>
      <psa30 value="0.0025964868" flag="0"/>
    </comp>
  </station>
  <station code="LOD" name="LOD" netid="KO" insttype="CMG-3T" lat="39.8884" lon="32.7634">
    <comp name="--.HHE">
      <acc value="0.0422280442" flag="0"/>
      <vel value="0.0525544251" flag="0"/>
      <psa03 value="0.1246771107" flag="0"/>
      <psa10 value="0.0790936382" flag="0"/>
      <psa30 value="0.0145255055" flag="0"/>
    </comp>
    <comp name="--.HHN">
      <acc value="0.0287920826" flag="0"/>
      <vel value="0.0205319348" flag="0"/>
      <psa03 value="0.1218800194" flag="0"/>
      <psa10 value="0.0250003607" flag="0"/>
      <psa30 value="0.0059526365" flag="0"/>
    </comp>
    <comp name="--.HHZ">
      <acc value="0.0069721813" flag="0"/>
      <vel value="0.0086436972" flag="0"/>
      <psa03 value="0.0153212543" flag="0"/>
      <psa10 value="0.0142681767" flag="0"/>
      <psa30 value="0.0019008435" flag="0"/>
    </comp>
  </station>
  <station code="POLA" name="POLA" netid="KO" insttype="CMG-6T" lat="39.7005" lon="32.1677">
    <comp name="--.HHE">
      <acc value="0.0199052649" flag="0"/>
      <vel value="0.0131796962" flag="0"/>
      <psa03 value="0.0531660631" flag="0"/>
      <psa10 value="0.0225598488" flag="0"/>
      <psa30 value="0.0009966810" flag="0"/>
    </comp>
    <comp name="--.HHZ">
      <acc value="0.0100294549" flag="0"/>
      <vel value="0.0078942906" flag="0"/>
      <psa03 value="0.0295119598" flag="0"/>
      <psa10 value="0.0120304180" flag="0"/>
      <psa30 value="0.0006650311" flag="0"/>
    </comp>
    <comp name="--.HHN">
      <acc value="0.0159767777" flag="0"/>
      <vel value="0.0155541440" flag="0"/>
      <psa03 value="0.0374325317" flag="0"/>
      <psa10 value="0.0202395625" flag="0"/>
      <psa30 value="0.0010508764" flag="0"/>
    </comp>
  </station>
  <station code="RUZG" name="RUZG" netid="KO" insttype="CMG-6T" lat="40.7242" lon="31.7936">
    <comp name="--.HHZ">
      <acc value="0.3049310927" flag="0"/>
      <vel value="0.1258456160" flag="0"/>
      <psa03 value="0.4899923317" flag="0"/>
      <psa10 value="0.1926430532" flag="0"/>
      <psa30 value="0.0233621363" flag="0"/>
    </comp>
    <comp name="--.HHE">
      <acc value="0.3808595245" flag="0"/>
      <vel value="0.2903139527" flag="0"/>
      <psa03 value="0.9494209533" flag="0"/>
      <psa10 value="0.3618638480" flag="0"/>
      <psa30 value="0.0318063226" flag="0"/>
    </comp>
    <comp name="--.HHN">
      <acc value="0.3784894059" flag="0"/>
      <vel value="0.2832127535" flag="0"/>
      <psa03 value="1.2874435625" flag="0"/>
      <psa10 value="0.4518325821" flag="0"/>
      <psa30 value="0.0286430311" flag="0"/>
    </comp>
  </station>
  <station code="SAFT" name="SAFT" netid="KO" insttype="CMG-5T" lat="41.2398" lon="32.6871">
    <comp name="--.HNZ">
      <acc value="0.0242738848" flag="0"/>
      <vel value="0.0124737172" flag="0"/>
      <psa03 value="0.0696855345" flag="0"/>
      <psa10 value="0.0117761823" flag="0"/>
      <psa30 value="0.0021157528" flag="0"/>
    </comp>
    <comp name="--.HNE">
      <acc value="0.0297864874" flag="0"/>
      <vel value="0.0109080959" flag="0"/>
      <psa03 value="0.0517707679" flag="0"/>
      <psa10 value="0.0143138843" flag="0"/>
      <psa30 value="0.0023960567" flag="0"/>
    </comp>
    <comp name="--.HNN">
      <acc value="0.0353893622" flag="0"/>
      <vel value="0.0150891554" flag="0"/>
      <psa03 value="0.0541626201" flag="0"/>
      <psa10 value="0.0128704578" flag="0"/>
      <psa30 value="0.0037341469" flag="0"/>
    </comp>
  </station>
  <station code="SAUV" name="SAUV" netid="KO" insttype="CMG-6T" lat="40.7401" lon="30.3271">
    <comp name="--.HHE">
      <acc value="0.0968691996" flag="0"/>
      <vel value="0.0396532205" flag="0"/>
      <psa03 value="0.2901594159" flag="0"/>
      <psa10 value="0.0504049552" flag="0"/>
      <psa30 value="0.0032207379" flag="0"/>
    </comp>
    <comp name="--.HHN">
      <acc value="0.0820568736" flag="0"/>
      <vel value="0.0308454325" flag="0"/>
      <psa03 value="0.1437161960" flag="0"/>
      <psa10 value="0.0444379372" flag="0"/>
      <psa30 value="0.0058607061" flag="0"/>
    </comp>
    <comp name="--.HHZ">
      <acc value="0.0464687812" flag="0"/>
      <vel value="0.0158169444" flag="0"/>
      <psa03 value="0.0754775445" flag="0"/>
      <psa10 value="0.0293682269" flag="0"/>
      <psa30 value="0.0024049208" flag="0"/>
    </comp>
  </station>
  <station code="UVEZ" name="UVEZ" netid="KO" insttype="CMG-6T" lat="40.904" lon="30.9032">
    <comp name="--.HHN">
      <acc value="0.4633449990" flag="0"/>
      <vel value="0.2471192202" flag="0"/>
      <psa03 value="1.3356244475" flag="0"/>
      <psa10 value="0.2509822679" flag="0"/>
      <psa30 value="0.0167331354" flag="0"/>
    </comp>
    <comp name="--.HHE">
      <acc value="0.4017486163" flag="0"/>
      <vel value="0.2001773433" flag="0"/>
      <psa03 value="1.1314526545" flag="0"/>
      <psa10 value="0.1103760822" flag="0"/>
      <psa30 value="0.0166808085" flag="0"/>
    </comp>
    <comp name="--.HHZ">
      <acc value="0.2080730043" flag="0"/>
      <vel value="0.0991143496" flag="0"/>
      <psa03 value="0.6434600072" flag="0"/>
      <psa10 value="0.0773024994" flag="0"/>
      <psa30 value="0.0073024241" flag="0"/>
    </comp>
  </station>
  <station code="YALI" name="YALI" netid="KO" insttype="CMG-6T" lat="40.7676" lon="32.9822">
    <comp name="--.HHE">
      <acc value="0.0367964482" flag="0"/>
      <vel value="0.0284419051" flag="0"/>
      <psa03 value="0.1182110806" flag="0"/>
      <psa10 value="0.0301091302" flag="0"/>
      <psa30 value="0.0109861334" flag="0"/>
    </comp>
    <comp name="--.HHN">
      <acc value="0.0471931567" flag="0"/>
      <vel value="0.0411111892" flag="0"/>
      <psa03 value="0.1278488805" flag="0"/>
      <psa10 value="0.0543856260" flag="0"/>
      <psa30 value="0.0062310496" flag="0"/>
    </comp>
    <comp name="--.HHZ">
      <acc value="0.0161398711" flag="0"/>
      <vel value="0.0162813194" flag="0"/>
      <psa03 value="0.0467664247" flag="0"/>
      <psa10 value="0.0160435023" flag="0"/>
      <psa30 value="0.0044319265" flag="0"/>
    </comp>
  </station>
  <station code="YUVA" name="YUVA" netid="KO" insttype="CMG-5T" lat="40.391" lon="31.6872">
    <comp name="--.HNZ">
      <acc value="0.0891639667" flag="0"/>
      <vel value="0.0613766869" flag="0"/>
      <psa03 value="0.1716778176" flag="0"/>
      <psa10 value="0.1094453218" flag="0"/>
      <psa30 value="0.0165206157" flag="0"/>
    </comp>
    <comp name="--.HNE">
      <acc value="0.0941653337" flag="0"/>
      <vel value="0.0643423048" flag="0"/>
      <psa03 value="0.1479789031" flag="0"/>
      <psa10 value="0.1034619460" flag="0"/>
      <psa30 value="0.0186215014" flag="0"/>
    </comp>
    <comp name="--.HNN">
      <acc value="0.0998666180" flag="0"/>
      <vel value="0.0623855535" flag="0"/>
      <psa03 value="0.2305335960" flag="0"/>
      <psa10 value="0.0981778203" flag="0"/>
      <psa30 value="0.0132958921" flag="0"/>
    </comp>
  </station>
  <station code="BORA" name="BORA" netid="TU" insttype="T" lat="39.8801" lon="30.4534">
    <comp name="--.HHE">
      <acc value="0.0328486218" flag="0"/>
      <vel value="0.0196451039" flag="0"/>
      <psa03 value="0.1080995560" flag="0"/>
      <psa10 value="0.0220424365" flag="0"/>
      <psa30 value="0.0025534888" flag="0"/>
    </comp>
    <comp name="--.HHN">
      <acc value="0.0228264814" flag="0"/>
      <vel value="0.0169356720" flag="0"/>
      <psa03 value="0.0514014844" flag="0"/>
      <psa10 value="0.0221262620" flag="0"/>
      <psa30 value="0.0035010879" flag="0"/>
    </comp>
    <comp name="--.HHZ">
      <acc value="0.0190139302" flag="0"/>
      <vel value="0.0152322126" flag="0"/>
      <psa03 value="0.0495497277" flag="0"/>
      <psa10 value="0.0297349490" flag="0"/>
      <psa30 value="0.0031499033" flag="0"/>
    </comp>
  </station>
</stationlist>
