<?xml version="1.0" encoding="UTF-8" standalone="yes"?>
<!DOCTYPE earthquake SYSTEM "stationlist.dtd">
<stationlist created="" xmlns="ch.ethz.sed.shakemap.usgs.xml">
  <station code="KRK1" name="KRK1" netid="HI" insttype="CMG-5TD,ACCELEROMETER,GURALP" commtype="DIG" lat="39.6189" lon="19.9202">
    <comp name="--.HNE">
      <acc value="0.1069336755" flag="0"/>
      <vel value="0.0398680107" flag="0"/>
      <psa03 value="0.2020911562" flag="0"/>
      <psa10 value="0.0139459582" flag="0"/>
      <psa30 value="0.0030880100" flag="0"/>
    </comp>
    <comp name="--.HNN">
      <acc value="0.1267670816" flag="0"/>
      <vel value="0.0443886859" flag="0"/>
      <psa03 value="0.1471587746" flag="0"/>
      <psa10 value="0.0147731355" flag="0"/>
      <psa30 value="0.0041962866" flag="0"/>
    </comp>
    <comp name="--.HNZ">
      <acc value="0.0645701199" flag="0"/>
      <vel value="0.0177536873" flag="0"/>
      <psa03 value="0.1098019165" flag="0"/>
      <psa10 value="0.0060381134" flag="0"/>
      <psa30 value="0.0013365652" flag="0"/>
    </comp>
  </station>
</stationlist>
