<?xml version="1.0" encoding="UTF-8" standalone="yes"?>
<!DOCTYPE earthquake SYSTEM "stationlist.dtd">
<stationlist created="" xmlns="ch.ethz.sed.shakemap.usgs.xml">
  <station code="SNT5" name="SNT5" netid="HA" insttype="1s-100Hz," lat="36.4037" lon="25.3953">
    <comp name="--.HHE">
      <acc value="0.0734577293" flag="0"/>
      <vel value="0.0204637178" flag="0"/>
      <psa03 value="0.1107306453" flag="0"/>
      <psa10 value="0.0096829355" flag="0"/>
      <psa30 value="0.0029914366" flag="0"/>
    </comp>
    <comp name="--.HHZ">
      <acc value="0.0193316662" flag="0"/>
      <vel value="0.0049074745" flag="0"/>
      <psa03 value="0.0244968491" flag="0"/>
      <psa10 value="0.0043666885" flag="0"/>
      <psa30 value="0.0004881238" flag="0"/>
    </comp>
    <comp name="--.HHN">
      <acc value="0.0416032677" flag="0"/>
      <vel value="0.0110415855" flag="0"/>
      <psa03 value="0.0649621886" flag="0"/>
      <psa10 value="0.0099860841" flag="0"/>
      <psa30 value="0.0013446041" flag="0"/>
    </comp>
  </station>
  <station code="IMOD" name="IMOD" netid="HC" insttype="120" lat="34.9731" lon="24.7995">
    <comp name="--.HHZ">
      <acc value="0.0094118243" flag="0"/>
      <vel value="0.0053919915" flag="0"/>
      <psa03 value="0.0263032289" flag="0"/>
      <psa10 value="0.0044105428" flag="0"/>
      <psa30 value="0.0003160324" flag="0"/>
    </comp>
    <comp name="--.HHE">
      <acc value="0.0133875716" flag="0"/>
      <vel value="0.0086586935" flag="0"/>
      <psa03 value="0.0384209662" flag="0"/>
      <psa10 value="0.0106629268" flag="0"/>
      <psa30 value="0.0008899188" flag="0"/>
    </comp>
    <comp name="--.HHN">
      <acc value="0.0148834176" flag="0"/>
      <vel value="0.0087710379" flag="0"/>
      <psa03 value="0.0385161060" flag="0"/>
      <psa10 value="0.0124593234" flag="0"/>
      <psa30 value="0.0007958681" flag="0"/>
    </comp>
  </station>
  <station code="IPPL" name="IPPL" netid="HC" insttype="60" lat="35.3486" lon="24.4632">
    <comp name="--.HHZ">
      <acc value="0.0148162641" flag="0"/>
      <vel value="0.0081668950" flag="0"/>
      <psa03 value="0.0275584871" flag="0"/>
      <psa10 value="0.0112255028" flag="0"/>
      <psa30 value="0.0005077716" flag="0"/>
    </comp>
    <comp name="--.HHN">
      <acc value="0.0174044683" flag="0"/>
      <vel value="0.0113934581" flag="0"/>
      <psa03 value="0.0369890573" flag="0"/>
      <psa10 value="0.0218988241" flag="0"/>
      <psa30 value="0.0009971997" flag="0"/>
    </comp>
    <comp name="--.HHE">
      <acc value="0.0203194766" flag="0"/>
      <vel value="0.0156520158" flag="0"/>
      <psa03 value="0.0462761232" flag="0"/>
      <psa10 value="0.0183866537" flag="0"/>
      <psa30 value="0.0009069160" flag="0"/>
    </comp>
  </station>
  <station code="KNSS" name="KNSS" netid="HC" insttype="60" lat="35.3042" lon="25.1802">
    <comp name="--.HHZ">
      <acc value="0.0802311239" flag="0"/>
      <vel value="0.0170207983" flag="0"/>
      <psa03 value="0.0486421926" flag="0"/>
      <psa10 value="0.0085341502" flag="0"/>
      <psa30 value="0.0008615472" flag="0"/>
    </comp>
    <comp name="--.HHE">
      <acc value="0.0584834228" flag="0"/>
      <vel value="0.0153529617" flag="0"/>
      <psa03 value="0.1106032872" flag="0"/>
      <psa10 value="0.0120260447" flag="0"/>
      <psa30 value="0.0009819121" flag="0"/>
    </comp>
    <comp name="--.HHN">
      <acc value="0.0443649555" flag="0"/>
      <vel value="0.0123305798" flag="0"/>
      <psa03 value="0.0649956597" flag="0"/>
      <psa10 value="0.0117484585" flag="0"/>
      <psa30 value="0.0023031187" flag="0"/>
    </comp>
  </station>
  <station code="PFKS" name="PFKS" netid="HC" insttype="120" lat="35.0429" lon="25.4733">
    <comp name="--.HHN">
      <acc value="0.0698621013" flag="0"/>
      <vel value="0.0190762432" flag="0"/>
      <psa03 value="0.0695652199" flag="0"/>
      <psa10 value="0.0141248328" flag="0"/>
      <psa30 value="0.0010095340" flag="0"/>
    </comp>
    <comp name="--.HHE">
      <acc value="0.0564790240" flag="0"/>
      <vel value="0.0180154687" flag="0"/>
      <psa03 value="0.0826934298" flag="0"/>
      <psa10 value="0.0145731724" flag="0"/>
      <psa30 value="0.0015532077" flag="0"/>
    </comp>
    <comp name="--.HHZ">
      <acc value="0.0411765643" flag="0"/>
      <vel value="0.0096165753" flag="0"/>
      <psa03 value="0.0268433654" flag="0"/>
      <psa10 value="0.0112688324" flag="0"/>
      <psa30 value="0.0009728149" flag="0"/>
    </comp>
  </station>
  <station code="STIA" name="STIA" netid="HC" insttype="120" lat="35.2021" lon="26.0909">
    <comp name="--.HHN">
      <acc value="0.0357200291" flag="0"/>
      <vel value="0.0253676719" flag="0"/>
      <psa03 value="0.0615491136" flag="0"/>
      <psa10 value="0.0300678569" flag="0"/>
      <psa30 value="0.0021520119" flag="0"/>
    </comp>
    <comp name="--.HHE">
      <acc value="0.0388846915" flag="0"/>
      <vel value="0.0208632691" flag="0"/>
      <psa03 value="0.0764264584" flag="0"/>
      <psa10 value="0.0388729399" flag="0"/>
      <psa30 value="0.0019693894" flag="0"/>
    </comp>
    <comp name="--.HHZ">
      <acc value="0.0658335577" flag="0"/>
      <vel value="0.0146247937" flag="0"/>
      <psa03 value="0.0648383315" flag="0"/>
      <psa10 value="0.0095979165" flag="0"/>
      <psa30 value="0.0012533898" flag="0"/>
    </comp>
  </station>
  <station code="TEFL" name="TEFL" netid="HC" insttype="GEOtiny," lat="35.0933" lon="25.1634">
    <comp name="--.HHZ">
      <acc value="0.0501523979" flag="0"/>
      <vel value="0.0155975953" flag="0"/>
      <psa03 value="0.0838585229" flag="0"/>
      <psa10 value="0.0162044192" flag="0"/>
      <psa30 value="0.0010301458" flag="0"/>
    </comp>
    <comp name="--.HHN">
      <acc value="0.1070762629" flag="0"/>
      <vel value="0.0281978371" flag="0"/>
      <psa03 value="0.1076317734" flag="0"/>
      <psa10 value="0.0216969006" flag="0"/>
      <psa30 value="0.0022072699" flag="0"/>
    </comp>
    <comp name="--.HHE">
      <acc value="0.1800262112" flag="0"/>
      <vel value="0.0420846413" flag="0"/>
      <psa03 value="0.1130865505" flag="0"/>
      <psa10 value="0.0289412822" flag="0"/>
      <psa30 value="0.0023618630" flag="0"/>
    </comp>
  </station>
  <station code="IACM" name="IACM" netid="HL" insttype="120" lat="35.3058" lon="25.0709">
    <comp name="--.HHZ">
      <acc value="0.1338623662" flag="0"/>
      <vel value="0.0411817120" flag="0"/>
      <psa03 value="0.1356549804" flag="0"/>
      <psa10 value="0.0376057220" flag="0"/>
      <psa30 value="0.0014543916" flag="0"/>
    </comp>
    <comp name="--.HHE">
      <acc value="0.1149379247" flag="0"/>
      <vel value="0.0550813295" flag="0"/>
      <psa03 value="0.1935700403" flag="0"/>
      <psa10 value="0.0747503140" flag="0"/>
      <psa30 value="0.0035575824" flag="0"/>
    </comp>
    <comp name="--.HHN">
      <acc value="0.1109439907" flag="0"/>
      <vel value="0.0513478965" flag="0"/>
      <psa03 value="0.2128274014" flag="0"/>
      <psa10 value="0.0791344494" flag="0"/>
      <psa30 value="0.0032561808" flag="0"/>
    </comp>
  </station>
  <station code="NPS" name="NPS" netid="HL" insttype="CMG3ESPC-120s" lat="35.2613" lon="25.6104">
    <comp name="--.HHE">
      <acc value="0.0281848042" flag="0"/>
      <vel value="0.0104794727" flag="0"/>
      <psa03 value="0.0461984560" flag="0"/>
      <psa10 value="0.0236582477" flag="0"/>
      <psa30 value="0.0017354905" flag="0"/>
    </comp>
    <comp name="--.HHZ">
      <acc value="0.0744906139" flag="0"/>
      <vel value="0.0203831161" flag="0"/>
      <psa03 value="0.0762982715" flag="0"/>
      <psa10 value="0.0224992969" flag="0"/>
      <psa30 value="0.0019998740" flag="0"/>
    </comp>
    <comp name="--.HHN">
      <acc value="0.0923549284" flag="0"/>
      <vel value="0.0254496147" flag="0"/>
      <psa03 value="0.0775942920" flag="0"/>
      <psa10 value="0.0421662023" flag="0"/>
      <psa30 value="0.0021151621" flag="0"/>
    </comp>
  </station>
  <station code="SAP3" name="SAP3" netid="HL" insttype="LE3D20_SMART24" lat="36.4356" lon="25.3454">
    <comp name="--.HHN">
      <acc value="0.0417236219" flag="0"/>
      <vel value="0.0243312768" flag="0"/>
      <psa03 value="0.1253291623" flag="0"/>
      <psa10 value="0.0289023903" flag="0"/>
      <psa30 value="0.0032936988" flag="0"/>
    </comp>
    <comp name="--.HHZ">
      <acc value="0.0416965850" flag="0"/>
      <vel value="0.0153894876" flag="0"/>
      <psa03 value="0.0954300789" flag="0"/>
      <psa10 value="0.0100220030" flag="0"/>
      <psa30 value="0.0013164990" flag="0"/>
    </comp>
    <comp name="--.HHE">
      <acc value="0.0601428177" flag="0"/>
      <vel value="0.0345200446" flag="0"/>
      <psa03 value="0.1507708944" flag="0"/>
      <psa10 value="0.0299951368" flag="0"/>
      <psa30 value="0.0036186615" flag="0"/>
    </comp>
  </station>
  <station code="SIVA" name="SIVA" netid="HL" insttype="60" lat="35.0178" lon="24.812">
    <comp name="--.HHZ">
      <acc value="0.0130128660" flag="0"/>
      <vel value="0.0076202240" flag="0"/>
      <psa03 value="0.0302907373" flag="0"/>
      <psa10 value="0.0057329503" flag="0"/>
      <psa30 value="0.0003817337" flag="0"/>
    </comp>
    <comp name="--.HHN">
      <acc value="0.0208861975" flag="0"/>
      <vel value="0.0125515018" flag="0"/>
      <psa03 value="0.0450635965" flag="0"/>
      <psa10 value="0.0137700502" flag="0"/>
      <psa30 value="0.0006874815" flag="0"/>
    </comp>
    <comp name="--.HHE">
      <acc value="0.0238052997" flag="0"/>
      <vel value="0.0161055407" flag="0"/>
      <psa03 value="0.0510646852" flag="0"/>
      <psa10 value="0.0184913235" flag="0"/>
      <psa30 value="0.0011901987" flag="0"/>
    </comp>
  </station>
  <station code="THERA" name="THERA" netid="HL" insttype="120" lat="36.367" lon="25.4753">
    <comp name="--.HHE">
      <acc value="0.0187940312" flag="0"/>
      <vel value="0.0086198462" flag="0"/>
      <psa03 value="0.0566460539" flag="0"/>
      <psa10 value="0.0059879351" flag="0"/>
      <psa30 value="0.0005719801" flag="0"/>
    </comp>
    <comp name="--.HHN">
      <acc value="0.0102219989" flag="0"/>
      <vel value="0.0042701889" flag="0"/>
      <psa03 value="0.0228816785" flag="0"/>
      <psa10 value="0.0037921586" flag="0"/>
      <psa30 value="0.0003286603" flag="0"/>
    </comp>
    <comp name="--.HHZ">
      <acc value="0.0115517195" flag="0"/>
      <vel value="0.0055927364" flag="0"/>
      <psa03 value="0.0339421496" flag="0"/>
      <psa10 value="0.0051467876" flag="0"/>
      <psa30 value="0.0004614970" flag="0"/>
    </comp>
  </station>
  <station code="THRA" name="THRA" netid="HL" insttype="CMG-5" lat="36.415" lon="25.4324">
    <comp name="00.HNE">
      <acc value="0.0548980672" flag="0"/>
      <vel value="0.0337181080" flag="0"/>
      <psa03 value="0.1863202913" flag="0"/>
      <psa10 value="0.0525665237" flag="0"/>
      <psa30 value="0.0031520500" flag="0"/>
    </comp>
    <comp name="00.HNZ">
      <acc value="0.0380406304" flag="0"/>
      <vel value="0.0171237331" flag="0"/>
      <psa03 value="0.1344600598" flag="0"/>
      <psa10 value="0.0093472851" flag="0"/>
      <psa30 value="0.0011157771" flag="0"/>
    </comp>
    <comp name="00.HNN">
      <acc value="0.0479908404" flag="0"/>
      <vel value="0.0261027273" flag="0"/>
      <psa03 value="0.1252116327" flag="0"/>
      <psa10 value="0.0418084956" flag="0"/>
      <psa30 value="0.0020466163" flag="0"/>
    </comp>
  </station>
  <station code="ZKR" name="ZKR" netid="HL" insttype="120" lat="35.1147" lon="26.2169">
    <comp name="--.HHZ">
      <acc value="0.0199945697" flag="0"/>
      <vel value="0.0075724327" flag="0"/>
      <psa03 value="0.0261385374" flag="0"/>
      <psa10 value="0.0185684087" flag="0"/>
      <psa30 value="0.0009526824" flag="0"/>
    </comp>
    <comp name="--.HHN">
      <acc value="0.0124281215" flag="0"/>
      <vel value="0.0060466785" flag="0"/>
      <psa03 value="0.0181751208" flag="0"/>
      <psa10 value="0.0092563155" flag="0"/>
      <psa30 value="0.0004679094" flag="0"/>
    </comp>
    <comp name="--.HHE">
      <acc value="0.0235329057" flag="0"/>
      <vel value="0.0125106173" flag="0"/>
      <psa03 value="0.0453419251" flag="0"/>
      <psa10 value="0.0159531286" flag="0"/>
      <psa30 value="0.0016352922" flag="0"/>
    </comp>
  </station>
  <station code="CMBO" name="CMBO" netid="HT" insttype="120P," lat="36.4709" lon="25.4056">
    <comp name="--.HHN">
      <acc value="0.0629258715" flag="0"/>
      <vel value="0.0332889558" flag="0"/>
      <psa03 value="0.1209775949" flag="0"/>
      <psa10 value="0.0214995916" flag="0"/>
      <psa30 value="0.0018129734" flag="0"/>
    </comp>
    <comp name="--.HHZ">
      <acc value="0.0640757926" flag="0"/>
      <vel value="0.0227644168" flag="0"/>
      <psa03 value="0.1283829062" flag="0"/>
      <psa10 value="0.0096173629" flag="0"/>
      <psa30 value="0.0013697749" flag="0"/>
    </comp>
    <comp name="--.HHE">
      <acc value="0.0599412407" flag="0"/>
      <vel value="0.0276234153" flag="0"/>
      <psa03 value="0.1167415693" flag="0"/>
      <psa10 value="0.0305769757" flag="0"/>
      <psa30 value="0.0019455832" flag="0"/>
    </comp>
  </station>
</stationlist>
