<?xml version="1.0" encoding="UTF-8" standalone="yes"?>
<!DOCTYPE earthquake SYSTEM "stationlist.dtd">
<stationlist created="" xmlns="ch.ethz.sed.shakemap.usgs.xml">
  <station code="SNT5" name="SNT5" netid="HA" insttype="1s-100Hz," lat="36.4037" lon="25.3953">
    <comp name="--.HHZ">
      <acc value="0.0193316665" flag="0"/>
      <vel value="0.0049074138" flag="0"/>
      <psa03 value="0.0244968488" flag="0"/>
      <psa10 value="0.0043666887" flag="0"/>
      <psa30 value="0.0004880128" flag="0"/>
    </comp>
    <comp name="--.HHE">
      <acc value="0.0734577294" flag="0"/>
      <vel value="0.0204636033" flag="0"/>
      <psa03 value="0.1107306456" flag="0"/>
      <psa10 value="0.0096829352" flag="0"/>
      <psa30 value="0.0029914084" flag="0"/>
    </comp>
    <comp name="--.HHN">
      <acc value="0.0416032674" flag="0"/>
      <vel value="0.0110415862" flag="0"/>
      <psa03 value="0.0649621885" flag="0"/>
      <psa10 value="0.0099860842" flag="0"/>
      <psa30 value="0.0013445988" flag="0"/>
    </comp>
  </station>
  <station code="IMOD" name="IMOD" netid="HC" insttype="120" lat="34.9731" lon="24.7995">
    <comp name="--.HHN">
      <acc value="0.0148834176" flag="0"/>
      <vel value="0.0087710382" flag="0"/>
      <psa03 value="0.0385161060" flag="0"/>
      <psa10 value="0.0124593234" flag="0"/>
      <psa30 value="0.0007958682" flag="0"/>
    </comp>
    <comp name="--.HHZ">
      <acc value="0.0094118243" flag="0"/>
      <vel value="0.0053919910" flag="0"/>
      <psa03 value="0.0263032289" flag="0"/>
      <psa10 value="0.0044105428" flag="0"/>
      <psa30 value="0.0003160272" flag="0"/>
    </comp>
    <comp name="--.HHE">
      <acc value="0.0133875715" flag="0"/>
      <vel value="0.0086586946" flag="0"/>
      <psa03 value="0.0384209662" flag="0"/>
      <psa10 value="0.0106629268" flag="0"/>
      <psa30 value="0.0008899166" flag="0"/>
    </comp>
  </station>
  <station code="IPPL" name="IPPL" netid="HC" insttype="60" lat="35.3486" lon="24.4632">
    <comp name="--.HHN">
      <acc value="0.0174044683" flag="0"/>
      <vel value="0.0113934591" flag="0"/>
      <psa03 value="0.0369890573" flag="0"/>
      <psa10 value="0.0218988241" flag="0"/>
      <psa30 value="0.0009972097" flag="0"/>
    </comp>
    <comp name="--.HHE">
      <acc value="0.0203194766" flag="0"/>
      <vel value="0.0156520155" flag="0"/>
      <psa03 value="0.0462761232" flag="0"/>
      <psa10 value="0.0183866537" flag="0"/>
      <psa30 value="0.0009069449" flag="0"/>
    </comp>
    <comp name="--.HHZ">
      <acc value="0.0148162641" flag="0"/>
      <vel value="0.0081668937" flag="0"/>
      <psa03 value="0.0275584871" flag="0"/>
      <psa10 value="0.0112255028" flag="0"/>
      <psa30 value="0.0005077725" flag="0"/>
    </comp>
  </station>
  <station code="KNSS" name="KNSS" netid="HC" insttype="60" lat="35.3042" lon="25.1802">
    <comp name="--.HHN">
      <acc value="0.0443649555" flag="0"/>
      <vel value="0.0123305794" flag="0"/>
      <psa03 value="0.0649956597" flag="0"/>
      <psa10 value="0.0117484585" flag="0"/>
      <psa30 value="0.0023031124" flag="0"/>
    </comp>
    <comp name="--.HHZ">
      <acc value="0.0802311239" flag="0"/>
      <vel value="0.0170207956" flag="0"/>
      <psa03 value="0.0486421926" flag="0"/>
      <psa10 value="0.0085341502" flag="0"/>
      <psa30 value="0.0008615511" flag="0"/>
    </comp>
    <comp name="--.HHE">
      <acc value="0.0584834228" flag="0"/>
      <vel value="0.0153529614" flag="0"/>
      <psa03 value="0.1106032872" flag="0"/>
      <psa10 value="0.0120260448" flag="0"/>
      <psa30 value="0.0009818559" flag="0"/>
    </comp>
  </station>
  <station code="PFKS" name="PFKS" netid="HC" insttype="120" lat="35.0429" lon="25.4733">
    <comp name="--.HHE">
      <acc value="0.0564790240" flag="0"/>
      <vel value="0.0180154689" flag="0"/>
      <psa03 value="0.0826934298" flag="0"/>
      <psa10 value="0.0145731725" flag="0"/>
      <psa30 value="0.0015532124" flag="0"/>
    </comp>
    <comp name="--.HHN">
      <acc value="0.0698621014" flag="0"/>
      <vel value="0.0190762447" flag="0"/>
      <psa03 value="0.0695652199" flag="0"/>
      <psa10 value="0.0141248329" flag="0"/>
      <psa30 value="0.0010095537" flag="0"/>
    </comp>
    <comp name="--.HHZ">
      <acc value="0.0411765643" flag="0"/>
      <vel value="0.0096165744" flag="0"/>
      <psa03 value="0.0268433654" flag="0"/>
      <psa10 value="0.0112688324" flag="0"/>
      <psa30 value="0.0009727897" flag="0"/>
    </comp>
  </station>
  <station code="STIA" name="STIA" netid="HC" insttype="120" lat="35.2021" lon="26.0909">
    <comp name="--.HHN">
      <acc value="0.0357200290" flag="0"/>
      <vel value="0.0253676723" flag="0"/>
      <psa03 value="0.0615491136" flag="0"/>
      <psa10 value="0.0300678567" flag="0"/>
      <psa30 value="0.0021520372" flag="0"/>
    </comp>
    <comp name="--.HHE">
      <acc value="0.0388846915" flag="0"/>
      <vel value="0.0208632707" flag="0"/>
      <psa03 value="0.0764264584" flag="0"/>
      <psa10 value="0.0388729399" flag="0"/>
      <psa30 value="0.0019695375" flag="0"/>
    </comp>
    <comp name="--.HHZ">
      <acc value="0.0658335576" flag="0"/>
      <vel value="0.0146247938" flag="0"/>
      <psa03 value="0.0648383315" flag="0"/>
      <psa10 value="0.0095979165" flag="0"/>
      <psa30 value="0.0012533970" flag="0"/>
    </comp>
  </station>
  <station code="TEFL" name="TEFL" netid="HC" insttype="GEOtiny," lat="35.0933" lon="25.1634">
    <comp name="--.HHZ">
      <acc value="0.0501523970" flag="0"/>
      <vel value="0.0155983928" flag="0"/>
      <psa03 value="0.0838585231" flag="0"/>
      <psa10 value="0.0162044184" flag="0"/>
      <psa30 value="0.0010301457" flag="0"/>
    </comp>
    <comp name="--.HHN">
      <acc value="0.1070762649" flag="0"/>
      <vel value="0.0281982169" flag="0"/>
      <psa03 value="0.1076317742" flag="0"/>
      <psa10 value="0.0216969017" flag="0"/>
      <psa30 value="0.0022072828" flag="0"/>
    </comp>
    <comp name="--.HHE">
      <acc value="0.1800262112" flag="0"/>
      <vel value="0.0420846042" flag="0"/>
      <psa03 value="0.1130865503" flag="0"/>
      <psa10 value="0.0289412824" flag="0"/>
      <psa30 value="0.0023618217" flag="0"/>
    </comp>
  </station>
  <station code="IACM" name="IACM" netid="HL" insttype="120" lat="35.3058" lon="25.0709">
    <comp name="--.HHN">
      <acc value="0.1109439908" flag="0"/>
      <vel value="0.0513478943" flag="0"/>
      <psa03 value="0.2128274014" flag="0"/>
      <psa10 value="0.0791344494" flag="0"/>
      <psa30 value="0.0032561753" flag="0"/>
    </comp>
    <comp name="--.HHZ">
      <acc value="0.1338623663" flag="0"/>
      <vel value="0.0411817116" flag="0"/>
      <psa03 value="0.1356549804" flag="0"/>
      <psa10 value="0.0376057220" flag="0"/>
      <psa30 value="0.0014543992" flag="0"/>
    </comp>
    <comp name="--.HHE">
      <acc value="0.1149379247" flag="0"/>
      <vel value="0.0550813290" flag="0"/>
      <psa03 value="0.1935700403" flag="0"/>
      <psa10 value="0.0747503140" flag="0"/>
      <psa30 value="0.0035575948" flag="0"/>
    </comp>
  </station>
  <station code="NPS" name="NPS" netid="HL" insttype="CMG3ESPC-120s" lat="35.2613" lon="25.6104">
    <comp name="--.HHE">
      <acc value="0.0281848041" flag="0"/>
      <vel value="0.0104794720" flag="0"/>
      <psa03 value="0.0461984560" flag="0"/>
      <psa10 value="0.0236582477" flag="0"/>
      <psa30 value="0.0017354941" flag="0"/>
    </comp>
    <comp name="--.HHN">
      <acc value="0.0923549286" flag="0"/>
      <vel value="0.0254496151" flag="0"/>
      <psa03 value="0.0775942920" flag="0"/>
      <psa10 value="0.0421662023" flag="0"/>
      <psa30 value="0.0021151375" flag="0"/>
    </comp>
    <comp name="--.HHZ">
      <acc value="0.0744906139" flag="0"/>
      <vel value="0.0203831166" flag="0"/>
      <psa03 value="0.0762982715" flag="0"/>
      <psa10 value="0.0224992969" flag="0"/>
      <psa30 value="0.0019998712" flag="0"/>
    </comp>
  </station>
  <station code="SAP3" name="SAP3" netid="HL" insttype="LE3D20_SMART24" lat="36.4356" lon="25.3454">
    <comp name="--.HHE">
      <acc value="0.0601428181" flag="0"/>
      <vel value="0.0345200387" flag="0"/>
      <psa03 value="0.1507708944" flag="0"/>
      <psa10 value="0.0299951368" flag="0"/>
      <psa30 value="0.0036186865" flag="0"/>
    </comp>
    <comp name="--.HHN">
      <acc value="0.0417236223" flag="0"/>
      <vel value="0.0243313187" flag="0"/>
      <psa03 value="0.1253291624" flag="0"/>
      <psa10 value="0.0289023903" flag="0"/>
      <psa30 value="0.0032938108" flag="0"/>
    </comp>
    <comp name="--.HHZ">
      <acc value="0.0416965849" flag="0"/>
      <vel value="0.0153894927" flag="0"/>
      <psa03 value="0.0954300789" flag="0"/>
      <psa10 value="0.0100220030" flag="0"/>
      <psa30 value="0.0013165585" flag="0"/>
    </comp>
  </station>
  <station code="SIVA" name="SIVA" netid="HL" insttype="60" lat="35.0178" lon="24.812">
    <comp name="--.HHE">
      <acc value="0.0238052996" flag="0"/>
      <vel value="0.0161055416" flag="0"/>
      <psa03 value="0.0510646852" flag="0"/>
      <psa10 value="0.0184913234" flag="0"/>
      <psa30 value="0.0011902036" flag="0"/>
    </comp>
    <comp name="--.HHN">
      <acc value="0.0208861974" flag="0"/>
      <vel value="0.0125515011" flag="0"/>
      <psa03 value="0.0450635965" flag="0"/>
      <psa10 value="0.0137700502" flag="0"/>
      <psa30 value="0.0006874780" flag="0"/>
    </comp>
    <comp name="--.HHZ">
      <acc value="0.0130128660" flag="0"/>
      <vel value="0.0076202235" flag="0"/>
      <psa03 value="0.0302907373" flag="0"/>
      <psa10 value="0.0057329503" flag="0"/>
      <psa30 value="0.0003817129" flag="0"/>
    </comp>
  </station>
  <station code="THERA" name="THERA" netid="HL" insttype="120" lat="36.367" lon="25.4753">
    <comp name="--.HHE">
      <acc value="0.0187940313" flag="0"/>
      <vel value="0.0086198459" flag="0"/>
      <psa03 value="0.0566460539" flag="0"/>
      <psa10 value="0.0059879351" flag="0"/>
      <psa30 value="0.0005719714" flag="0"/>
    </comp>
    <comp name="--.HHZ">
      <acc value="0.0115517196" flag="0"/>
      <vel value="0.0055927358" flag="0"/>
      <psa03 value="0.0339421496" flag="0"/>
      <psa10 value="0.0051467875" flag="0"/>
      <psa30 value="0.0004615028" flag="0"/>
    </comp>
    <comp name="--.HHN">
      <acc value="0.0102219989" flag="0"/>
      <vel value="0.0042701889" flag="0"/>
      <psa03 value="0.0228816785" flag="0"/>
      <psa10 value="0.0037921586" flag="0"/>
      <psa30 value="0.0003286797" flag="0"/>
    </comp>
  </station>
  <station code="THRA" name="THRA" netid="HL" insttype="CMG-5" lat="36.415" lon="25.4324">
    <comp name="00.HNZ">
      <acc value="0.0380406304" flag="0"/>
      <vel value="0.0171237335" flag="0"/>
      <psa03 value="0.1344600598" flag="0"/>
      <psa10 value="0.0093472851" flag="0"/>
      <psa30 value="0.0011159073" flag="0"/>
    </comp>
    <comp name="00.HNE">
      <acc value="0.0548980668" flag="0"/>
      <vel value="0.0337181104" flag="0"/>
      <psa03 value="0.1863202913" flag="0"/>
      <psa10 value="0.0525665240" flag="0"/>
      <psa30 value="0.0031522153" flag="0"/>
    </comp>
    <comp name="00.HNN">
      <acc value="0.0479908414" flag="0"/>
      <vel value="0.0261027270" flag="0"/>
      <psa03 value="0.1252116327" flag="0"/>
      <psa10 value="0.0418084958" flag="0"/>
      <psa30 value="0.0020464115" flag="0"/>
    </comp>
  </station>
  <station code="ZKR" name="ZKR" netid="HL" insttype="120" lat="35.1147" lon="26.2169">
    <comp name="--.HHE">
      <acc value="0.0235329057" flag="0"/>
      <vel value="0.0125106166" flag="0"/>
      <psa03 value="0.0453419251" flag="0"/>
      <psa10 value="0.0159531286" flag="0"/>
      <psa30 value="0.0016352892" flag="0"/>
    </comp>
    <comp name="--.HHN">
      <acc value="0.0124281213" flag="0"/>
      <vel value="0.0060466786" flag="0"/>
      <psa03 value="0.0181751208" flag="0"/>
      <psa10 value="0.0092563156" flag="0"/>
      <psa30 value="0.0004678804" flag="0"/>
    </comp>
    <comp name="--.HHZ">
      <acc value="0.0199945694" flag="0"/>
      <vel value="0.0075724348" flag="0"/>
      <psa03 value="0.0261385374" flag="0"/>
      <psa10 value="0.0185684087" flag="0"/>
      <psa30 value="0.0009527294" flag="0"/>
    </comp>
  </station>
  <station code="CMBO" name="CMBO" netid="HT" insttype="120P," lat="36.4709" lon="25.4056">
    <comp name="--.HHN">
      <acc value="0.0629258715" flag="0"/>
      <vel value="0.0332889543" flag="0"/>
      <psa03 value="0.1209775949" flag="0"/>
      <psa10 value="0.0214995916" flag="0"/>
      <psa30 value="0.0018130036" flag="0"/>
    </comp>
    <comp name="--.HHE">
      <acc value="0.0599412407" flag="0"/>
      <vel value="0.0276234163" flag="0"/>
      <psa03 value="0.1167415693" flag="0"/>
      <psa10 value="0.0305769757" flag="0"/>
      <psa30 value="0.0019456617" flag="0"/>
    </comp>
    <comp name="--.HHZ">
      <acc value="0.0640757926" flag="0"/>
      <vel value="0.0227644179" flag="0"/>
      <psa03 value="0.1283829062" flag="0"/>
      <psa10 value="0.0096173629" flag="0"/>
      <psa30 value="0.0013697183" flag="0"/>
    </comp>
  </station>
</stationlist>
