<?xml version="1.0" encoding="UTF-8" standalone="yes"?>
<!DOCTYPE earthquake SYSTEM "stationlist.dtd">
<stationlist created="" xmlns="ch.ethz.sed.shakemap.usgs.xml">
  <station code="SNT5" name="SNT5" netid="HA" insttype="1s-100Hz," lat="36.4037" lon="25.3953">
    <comp name="--.HHE">
      <acc value="0.0734577291" flag="0"/>
      <vel value="0.0204639265" flag="0"/>
      <psa03 value="0.1107306450" flag="0"/>
      <psa10 value="0.0096829358" flag="0"/>
      <psa30 value="0.0029913910" flag="0"/>
    </comp>
    <comp name="--.HHN">
      <acc value="0.0416032673" flag="0"/>
      <vel value="0.0110418394" flag="0"/>
      <psa03 value="0.0649621883" flag="0"/>
      <psa10 value="0.0099860845" flag="0"/>
      <psa30 value="0.0013445975" flag="0"/>
    </comp>
    <comp name="--.HHZ">
      <acc value="0.0193316667" flag="0"/>
      <vel value="0.0049072545" flag="0"/>
      <psa03 value="0.0244968484" flag="0"/>
      <psa10 value="0.0043666892" flag="0"/>
      <psa30 value="0.0004882962" flag="0"/>
    </comp>
  </station>
  <station code="IMOD" name="IMOD" netid="HC" insttype="120" lat="34.9731" lon="24.7995">
    <comp name="--.HHE">
      <acc value="0.0133875715" flag="0"/>
      <vel value="0.0086586947" flag="0"/>
      <psa03 value="0.0384209662" flag="0"/>
      <psa10 value="0.0106629268" flag="0"/>
      <psa30 value="0.0008899164" flag="0"/>
    </comp>
    <comp name="--.HHZ">
      <acc value="0.0094118243" flag="0"/>
      <vel value="0.0053919909" flag="0"/>
      <psa03 value="0.0263032289" flag="0"/>
      <psa10 value="0.0044105428" flag="0"/>
      <psa30 value="0.0003160263" flag="0"/>
    </comp>
    <comp name="--.HHN">
      <acc value="0.0148834176" flag="0"/>
      <vel value="0.0087710381" flag="0"/>
      <psa03 value="0.0385161060" flag="0"/>
      <psa10 value="0.0124593234" flag="0"/>
      <psa30 value="0.0007958681" flag="0"/>
    </comp>
  </station>
  <station code="IPPL" name="IPPL" netid="HC" insttype="60" lat="35.3486" lon="24.4632">
    <comp name="--.HHZ">
      <acc value="0.0148162641" flag="0"/>
      <vel value="0.0081668944" flag="0"/>
      <psa03 value="0.0275584871" flag="0"/>
      <psa10 value="0.0112255028" flag="0"/>
      <psa30 value="0.0005077767" flag="0"/>
    </comp>
    <comp name="--.HHN">
      <acc value="0.0174044683" flag="0"/>
      <vel value="0.0113934602" flag="0"/>
      <psa03 value="0.0369890573" flag="0"/>
      <psa10 value="0.0218988241" flag="0"/>
      <psa30 value="0.0009972085" flag="0"/>
    </comp>
    <comp name="--.HHE">
      <acc value="0.0203194766" flag="0"/>
      <vel value="0.0156520150" flag="0"/>
      <psa03 value="0.0462761232" flag="0"/>
      <psa10 value="0.0183866537" flag="0"/>
      <psa30 value="0.0009069862" flag="0"/>
    </comp>
  </station>
  <station code="KNSS" name="KNSS" netid="HC" insttype="60" lat="35.3042" lon="25.1802">
    <comp name="--.HHZ">
      <acc value="0.0802311239" flag="0"/>
      <vel value="0.0170207951" flag="0"/>
      <psa03 value="0.0486421926" flag="0"/>
      <psa10 value="0.0085341502" flag="0"/>
      <psa30 value="0.0008615524" flag="0"/>
    </comp>
    <comp name="--.HHE">
      <acc value="0.0584834228" flag="0"/>
      <vel value="0.0153529606" flag="0"/>
      <psa03 value="0.1106032872" flag="0"/>
      <psa10 value="0.0120260448" flag="0"/>
      <psa30 value="0.0009818264" flag="0"/>
    </comp>
    <comp name="--.HHN">
      <acc value="0.0443649554" flag="0"/>
      <vel value="0.0123305796" flag="0"/>
      <psa03 value="0.0649956597" flag="0"/>
      <psa10 value="0.0117484585" flag="0"/>
      <psa30 value="0.0023031060" flag="0"/>
    </comp>
  </station>
  <station code="PFKS" name="PFKS" netid="HC" insttype="120" lat="35.0429" lon="25.4733">
    <comp name="--.HHE">
      <acc value="0.0564790240" flag="0"/>
      <vel value="0.0180154689" flag="0"/>
      <psa03 value="0.0826934298" flag="0"/>
      <psa10 value="0.0145731725" flag="0"/>
      <psa30 value="0.0015532125" flag="0"/>
    </comp>
    <comp name="--.HHZ">
      <acc value="0.0411765643" flag="0"/>
      <vel value="0.0096165746" flag="0"/>
      <psa03 value="0.0268433654" flag="0"/>
      <psa10 value="0.0112688324" flag="0"/>
      <psa30 value="0.0009727921" flag="0"/>
    </comp>
    <comp name="--.HHN">
      <acc value="0.0698621014" flag="0"/>
      <vel value="0.0190762447" flag="0"/>
      <psa03 value="0.0695652199" flag="0"/>
      <psa10 value="0.0141248329" flag="0"/>
      <psa30 value="0.0010095526" flag="0"/>
    </comp>
  </station>
  <station code="STIA" name="STIA" netid="HC" insttype="120" lat="35.2021" lon="26.0909">
    <comp name="--.HHN">
      <acc value="0.0357200290" flag="0"/>
      <vel value="0.0253676721" flag="0"/>
      <psa03 value="0.0615491136" flag="0"/>
      <psa10 value="0.0300678567" flag="0"/>
      <psa30 value="0.0021520563" flag="0"/>
    </comp>
    <comp name="--.HHZ">
      <acc value="0.0658335576" flag="0"/>
      <vel value="0.0146247935" flag="0"/>
      <psa03 value="0.0648383315" flag="0"/>
      <psa10 value="0.0095979165" flag="0"/>
      <psa30 value="0.0012534001" flag="0"/>
    </comp>
    <comp name="--.HHE">
      <acc value="0.0388846916" flag="0"/>
      <vel value="0.0208632718" flag="0"/>
      <psa03 value="0.0764264584" flag="0"/>
      <psa10 value="0.0388729400" flag="0"/>
      <psa30 value="0.0019696318" flag="0"/>
    </comp>
  </station>
  <station code="TEFL" name="TEFL" netid="HC" insttype="GEOtiny," lat="35.0933" lon="25.1634">
    <comp name="--.HHE">
      <acc value="0.1800262112" flag="0"/>
      <vel value="0.0420846000" flag="0"/>
      <psa03 value="0.1130865503" flag="0"/>
      <psa10 value="0.0289412824" flag="0"/>
      <psa30 value="0.0023618186" flag="0"/>
    </comp>
    <comp name="--.HHZ">
      <acc value="0.0501523968" flag="0"/>
      <vel value="0.0155987066" flag="0"/>
      <psa03 value="0.0838585233" flag="0"/>
      <psa10 value="0.0162044180" flag="0"/>
      <psa30 value="0.0010301451" flag="0"/>
    </comp>
    <comp name="--.HHN">
      <acc value="0.1070762647" flag="0"/>
      <vel value="0.0281979322" flag="0"/>
      <psa03 value="0.1076317743" flag="0"/>
      <psa10 value="0.0216969019" flag="0"/>
      <psa30 value="0.0022072854" flag="0"/>
    </comp>
  </station>
  <station code="IACM" name="IACM" netid="HL" insttype="120" lat="35.3058" lon="25.0709">
    <comp name="--.HHE">
      <acc value="0.1149379247" flag="0"/>
      <vel value="0.0550813267" flag="0"/>
      <psa03 value="0.1935700403" flag="0"/>
      <psa10 value="0.0747503140" flag="0"/>
      <psa30 value="0.0035576008" flag="0"/>
    </comp>
    <comp name="--.HHZ">
      <acc value="0.1338623663" flag="0"/>
      <vel value="0.0411817142" flag="0"/>
      <psa03 value="0.1356549804" flag="0"/>
      <psa10 value="0.0376057220" flag="0"/>
      <psa30 value="0.0014544130" flag="0"/>
    </comp>
    <comp name="--.HHN">
      <acc value="0.1109439908" flag="0"/>
      <vel value="0.0513478965" flag="0"/>
      <psa03 value="0.2128274014" flag="0"/>
      <psa10 value="0.0791344494" flag="0"/>
      <psa30 value="0.0032561800" flag="0"/>
    </comp>
  </station>
  <station code="NPS" name="NPS" netid="HL" insttype="CMG3ESPC-120s" lat="35.2613" lon="25.6104">
    <comp name="--.HHE">
      <acc value="0.0281848041" flag="0"/>
      <vel value="0.0104794720" flag="0"/>
      <psa03 value="0.0461984560" flag="0"/>
      <psa10 value="0.0236582477" flag="0"/>
      <psa30 value="0.0017354944" flag="0"/>
    </comp>
    <comp name="--.HHN">
      <acc value="0.0923549286" flag="0"/>
      <vel value="0.0254496152" flag="0"/>
      <psa03 value="0.0775942920" flag="0"/>
      <psa10 value="0.0421662023" flag="0"/>
      <psa30 value="0.0021151366" flag="0"/>
    </comp>
    <comp name="--.HHZ">
      <acc value="0.0744906138" flag="0"/>
      <vel value="0.0203831167" flag="0"/>
      <psa03 value="0.0762982715" flag="0"/>
      <psa10 value="0.0224992969" flag="0"/>
      <psa30 value="0.0019998719" flag="0"/>
    </comp>
  </station>
  <station code="SAP3" name="SAP3" netid="HL" insttype="LE3D20_SMART24" lat="36.4356" lon="25.3454">
    <comp name="--.HHN">
      <acc value="0.0417236218" flag="0"/>
      <vel value="0.0243312843" flag="0"/>
      <psa03 value="0.1253291623" flag="0"/>
      <psa10 value="0.0289023903" flag="0"/>
      <psa30 value="0.0032935138" flag="0"/>
    </comp>
    <comp name="--.HHE">
      <acc value="0.0601428174" flag="0"/>
      <vel value="0.0345200382" flag="0"/>
      <psa03 value="0.1507708944" flag="0"/>
      <psa10 value="0.0299951372" flag="0"/>
      <psa30 value="0.0036189585" flag="0"/>
    </comp>
    <comp name="--.HHZ">
      <acc value="0.0416965853" flag="0"/>
      <vel value="0.0153895162" flag="0"/>
      <psa03 value="0.0954300789" flag="0"/>
      <psa10 value="0.0100220027" flag="0"/>
      <psa30 value="0.0013163648" flag="0"/>
    </comp>
  </station>
  <station code="SIVA" name="SIVA" netid="HL" insttype="60" lat="35.0178" lon="24.812">
    <comp name="--.HHZ">
      <acc value="0.0130128660" flag="0"/>
      <vel value="0.0076202251" flag="0"/>
      <psa03 value="0.0302907373" flag="0"/>
      <psa10 value="0.0057329503" flag="0"/>
      <psa30 value="0.0003817051" flag="0"/>
    </comp>
    <comp name="--.HHN">
      <acc value="0.0208861974" flag="0"/>
      <vel value="0.0125515010" flag="0"/>
      <psa03 value="0.0450635965" flag="0"/>
      <psa10 value="0.0137700502" flag="0"/>
      <psa30 value="0.0006874773" flag="0"/>
    </comp>
    <comp name="--.HHE">
      <acc value="0.0238052996" flag="0"/>
      <vel value="0.0161055416" flag="0"/>
      <psa03 value="0.0510646852" flag="0"/>
      <psa10 value="0.0184913234" flag="0"/>
      <psa30 value="0.0011902057" flag="0"/>
    </comp>
  </station>
  <station code="THERA" name="THERA" netid="HL" insttype="120" lat="36.367" lon="25.4753">
    <comp name="--.HHZ">
      <acc value="0.0115517193" flag="0"/>
      <vel value="0.0055927364" flag="0"/>
      <psa03 value="0.0339421496" flag="0"/>
      <psa10 value="0.0051467877" flag="0"/>
      <psa30 value="0.0004614925" flag="0"/>
    </comp>
    <comp name="--.HHN">
      <acc value="0.0102219989" flag="0"/>
      <vel value="0.0042701890" flag="0"/>
      <psa03 value="0.0228816785" flag="0"/>
      <psa10 value="0.0037921586" flag="0"/>
      <psa30 value="0.0003286595" flag="0"/>
    </comp>
    <comp name="--.HHE">
      <acc value="0.0187940312" flag="0"/>
      <vel value="0.0086198458" flag="0"/>
      <psa03 value="0.0566460539" flag="0"/>
      <psa10 value="0.0059879351" flag="0"/>
      <psa30 value="0.0005719642" flag="0"/>
    </comp>
  </station>
  <station code="THRA" name="THRA" netid="HL" insttype="CMG-5" lat="36.415" lon="25.4324">
    <comp name="00.HNE">
      <acc value="0.0548980683" flag="0"/>
      <vel value="0.0337181057" flag="0"/>
      <psa03 value="0.1863202913" flag="0"/>
      <psa10 value="0.0525665233" flag="0"/>
      <psa30 value="0.0031517888" flag="0"/>
    </comp>
    <comp name="00.HNN">
      <acc value="0.0479908398" flag="0"/>
      <vel value="0.0261027249" flag="0"/>
      <psa03 value="0.1252116327" flag="0"/>
      <psa10 value="0.0418084951" flag="0"/>
      <psa30 value="0.0020468422" flag="0"/>
    </comp>
    <comp name="00.HNZ">
      <acc value="0.0380406318" flag="0"/>
      <vel value="0.0171237297" flag="0"/>
      <psa03 value="0.1344600598" flag="0"/>
      <psa10 value="0.0093472850" flag="0"/>
      <psa30 value="0.0011155748" flag="0"/>
    </comp>
  </station>
  <station code="ZKR" name="ZKR" netid="HL" insttype="120" lat="35.1147" lon="26.2169">
    <comp name="--.HHE">
      <acc value="0.0235329057" flag="0"/>
      <vel value="0.0125106192" flag="0"/>
      <psa03 value="0.0453419251" flag="0"/>
      <psa10 value="0.0159531286" flag="0"/>
      <psa30 value="0.0016352867" flag="0"/>
    </comp>
    <comp name="--.HHN">
      <acc value="0.0124281212" flag="0"/>
      <vel value="0.0060466781" flag="0"/>
      <psa03 value="0.0181751208" flag="0"/>
      <psa10 value="0.0092563155" flag="0"/>
      <psa30 value="0.0004678747" flag="0"/>
    </comp>
    <comp name="--.HHZ">
      <acc value="0.0199945693" flag="0"/>
      <vel value="0.0075724349" flag="0"/>
      <psa03 value="0.0261385374" flag="0"/>
      <psa10 value="0.0185684087" flag="0"/>
      <psa30 value="0.0009527615" flag="0"/>
    </comp>
  </station>
  <station code="CMBO" name="CMBO" netid="HT" insttype="120P," lat="36.4709" lon="25.4056">
    <comp name="--.HHE">
      <acc value="0.0599412407" flag="0"/>
      <vel value="0.0276234141" flag="0"/>
      <psa03 value="0.1167415693" flag="0"/>
      <psa10 value="0.0305769753" flag="0"/>
      <psa30 value="0.0019455480" flag="0"/>
    </comp>
    <comp name="--.HHZ">
      <acc value="0.0640757928" flag="0"/>
      <vel value="0.0227644189" flag="0"/>
      <psa03 value="0.1283829062" flag="0"/>
      <psa10 value="0.0096173628" flag="0"/>
      <psa30 value="0.0013698125" flag="0"/>
    </comp>
    <comp name="--.HHN">
      <acc value="0.0629258716" flag="0"/>
      <vel value="0.0332889583" flag="0"/>
      <psa03 value="0.1209775949" flag="0"/>
      <psa10 value="0.0214995911" flag="0"/>
      <psa30 value="0.0018129731" flag="0"/>
    </comp>
  </station>
</stationlist>
