<stationlist created="1738600347">
	<station code="ABEA" name="ABEA" netid="HC" source="Seismological Network of Crete (HC)" insttype="" lat="35.5163" lon="24.0113">
		<comp name=".HNE" depth="0.0">
			<acc value="0.0028563406459626" flag="0"/>
			<vel value="0.00218508394978" flag="0"/>
			<psa03 value="0.00139850524176615" flag="0"/>
			<psa10 value="0.00114040484310029" flag="0"/>
			<psa30 value="0.000568150970548529" flag="0"/>
		</comp>
		<comp name=".HNN" depth="0.0">
			<acc value="0.0022577209128876" flag="0"/>
			<vel value="0.00224193607255" flag="0"/>
			<psa03 value="0.00112890144433875" flag="0"/>
			<psa10 value="0.00128000256732413" flag="0"/>
			<psa30 value="0.000547378761155844" flag="0"/>
		</comp>
		<comp name=".HNZ" depth="0.0">
			<acc value="0.003710512948656" flag="0"/>
			<vel value="0.00198212642887" flag="0"/>
			<psa03 value="0.00102853835046226" flag="0"/>
			<psa10 value="0.000923725625884097" flag="0"/>
			<psa30 value="0.000770517188815699" flag="0"/>
		</comp>
	</station>
	<station code="G0LD" name="G0LD" netid="HC" source="Seismological Network of Crete (HC)" insttype="" lat="35.4955" lon="24.0306">
		<comp name=".HNE" depth="0.0">
			<acc value="0.0020160448898988" flag="0"/>
			<vel value="0.00267582893139" flag="0"/>
			<psa03 value="0.00315854061802262" flag="0"/>
			<psa10 value="0.00128550195507237" flag="0"/>
			<psa30 value="0.000997355549077638" flag="0"/>
		</comp>
		<comp name=".HNN" depth="0.0">
			<acc value="0.0028496800550406" flag="0"/>
			<vel value="0.00296272464203" flag="0"/>
			<psa03 value="0.00278158205261623" flag="0"/>
			<psa10 value="0.00185488260343272" flag="0"/>
			<psa30 value="0.00153049305432106" flag="0"/>
		</comp>
		<comp name=".HNZ" depth="0.0">
			<acc value="0.0036325774077246" flag="0"/>
			<vel value="0.00591204526435" flag="0"/>
			<psa03 value="0.00178417629839356" flag="0"/>
			<psa10 value="0.00240527082176342" flag="0"/>
			<psa30 value="0.00168346620887499" flag="0"/>
		</comp>
	</station>
	<station code="PASK" name="PASK" netid="HC" source="Seismological Network of Crete (HC)" insttype="" lat="35.4996" lon="24.0121">
		<comp name=".HNE" depth="0.0">
			<acc value="0.018328015758612" flag="0"/>
			<vel value="0.0112210526333" flag="0"/>
			<psa03 value="0.0522414346970072" flag="0"/>
			<psa10 value="0.0160393925310297" flag="0"/>
			<psa30 value="0.00183059501793651" flag="0"/>
		</comp>
		<comp name=".HNN" depth="0.0">
			<acc value="0.01587657245526" flag="0"/>
			<vel value="0.0135055766518" flag="0"/>
			<psa03 value="0.0394847432746443" flag="0"/>
			<psa10 value="0.0245033994799565" flag="0"/>
			<psa30 value="0.00278402901159184" flag="0"/>
		</comp>
		<comp name=".HNZ" depth="0.0">
			<acc value="0.008685323113506" flag="0"/>
			<vel value="0.00464135644899" flag="0"/>
			<psa03 value="0.0327314182958422" flag="0"/>
			<psa10 value="0.0105529693949301" flag="0"/>
			<psa30 value="0.000999146501050201" flag="0"/>
		</comp>
	</station>
	<station code="ARK1" name="ARK1" netid="HI" source="ITSAK Strong Motion Network" insttype="" lat="35.148777" lon="25.264194">
		<comp name=".HNE" depth="0.0">
			<acc value="0.017888539954992" flag="0"/>
			<vel value="0.0114427776236" flag="0"/>
			<psa03 value="0.0379694397682045" flag="0"/>
			<psa10 value="0.0211805256058898" flag="0"/>
			<psa30 value="0.00262227121259717" flag="0"/>
		</comp>
		<comp name=".HNN" depth="0.0">
			<acc value="0.017883935530458" flag="0"/>
			<vel value="0.0134103215859" flag="0"/>
			<psa03 value="0.047100338916141" flag="0"/>
			<psa10 value="0.0177601246461088" flag="0"/>
			<psa30 value="0.00159441364291119" flag="0"/>
		</comp>
		<comp name=".HNZ" depth="0.0">
			<acc value="0.015049815878694" flag="0"/>
			<vel value="0.00890006102902" flag="0"/>
			<psa03 value="0.0397069428900904" flag="0"/>
			<psa10 value="0.0157679270477983" flag="0"/>
			<psa30 value="0.00149899575944711" flag="0"/>
		</comp>
	</station>
	<station code="CH01" name="CH01" netid="HI" source="ITSAK Strong Motion Network" insttype="" lat="35.517" lon="24.0208">
		<comp name=".HNE" depth="0.0">
			<acc value="0.010257353477592" flag="0"/>
			<vel value="0.00617945025161" flag="0"/>
			<psa03 value="0.0252786172926773" flag="0"/>
			<psa10 value="0.0123383764194024" flag="0"/>
			<psa30 value="0.000895003768773458" flag="0"/>
		</comp>
		<comp name=".HNN" depth="0.0">
			<acc value="0.018860211755232" flag="0"/>
			<vel value="0.00759259647431" flag="0"/>
			<psa03 value="0.0513667830057068" flag="0"/>
			<psa10 value="0.0115270636113758" flag="0"/>
			<psa30 value="0.00151936408791597" flag="0"/>
		</comp>
		<comp name=".HNZ" depth="0.0">
			<acc value="0.0090606366603192" flag="0"/>
			<vel value="0.00376996845352" flag="0"/>
			<psa03 value="0.0173314124439485" flag="0"/>
			<psa10 value="0.00871850443314716" flag="0"/>
			<psa30 value="0.000686412867318355" flag="0"/>
		</comp>
	</station>
	<station code="CH03" name="CH03" netid="HI" source="ITSAK Strong Motion Network" insttype="" lat="35.53303" lon="24.0705">
		<comp name=".HNE" depth="0.0">
			<acc value="0.0067102973212086" flag="0"/>
			<vel value="0.00420699758031" flag="0"/>
			<psa03 value="0.0156861511097088" flag="0"/>
			<psa10 value="0.0092914326993091" flag="0"/>
			<psa30 value="0.000576282967584561" flag="0"/>
		</comp>
		<comp name=".HNN" depth="0.0">
			<acc value="0.0090429425846388" flag="0"/>
			<vel value="0.00535589834823" flag="0"/>
			<psa03 value="0.0242852389862194" flag="0"/>
			<psa10 value="0.00966801858380302" flag="0"/>
			<psa30 value="0.000761877658156214" flag="0"/>
		</comp>
		<comp name=".HNZ" depth="0.0">
			<acc value="0.0065233641983178" flag="0"/>
			<vel value="0.00310063078128" flag="0"/>
			<psa03 value="0.0113246772876165" flag="0"/>
			<psa10 value="0.0041659044082176" flag="0"/>
			<psa30 value="0.000519212103587432" flag="0"/>
		</comp>
	</station>
	<station code="GOR1" name="GOR1" netid="HI" source="ITSAK Strong Motion Network" insttype="" lat="35.0582" lon="24.9628">
		<comp name=".HNE" depth="0.0">
			<acc value="0.0072522315668784" flag="0"/>
			<vel value="0.00584018397169" flag="0"/>
			<psa03 value="0.0319780324502143" flag="0"/>
			<psa10 value="0.0105581259865286" flag="0"/>
			<psa30 value="0.00162024889603772" flag="0"/>
		</comp>
		<comp name=".HNN" depth="0.0">
			<acc value="0.0079513316090016" flag="0"/>
			<vel value="0.00633315414425" flag="0"/>
			<psa03 value="0.0230221969825596" flag="0"/>
			<psa10 value="0.013867858990083" flag="0"/>
			<psa30 value="0.0014342664714498" flag="0"/>
		</comp>
		<comp name=".HNZ" depth="0.0">
			<acc value="0.006094415118558" flag="0"/>
			<vel value="0.0044232176371" flag="0"/>
			<psa03 value="0.0156528337984367" flag="0"/>
			<psa10 value="0.0123467938519809" flag="0"/>
			<psa30 value="0.000599039058396188" flag="0"/>
		</comp>
	</station>
	<station code="KIS1" name="KIS1" netid="HI" source="ITSAK Strong Motion Network" insttype="" lat="35.493933" lon="23.658993">
		<comp name=".HNE" depth="0.0">
			<acc value="0.0059535991032996" flag="0"/>
			<vel value="0.00447319623067" flag="0"/>
			<psa03 value="0.0148880149037324" flag="0"/>
			<psa10 value="0.00799399018760409" flag="0"/>
			<psa30 value="0.000995726586997909" flag="0"/>
		</comp>
		<comp name=".HNN" depth="0.0">
			<acc value="0.0071966626149456" flag="0"/>
			<vel value="0.00534373626372" flag="0"/>
			<psa03 value="0.0126800691590021" flag="0"/>
			<psa10 value="0.00954926321683381" flag="0"/>
			<psa30 value="0.000753915932813358" flag="0"/>
		</comp>
		<comp name=".HNZ" depth="0.0">
			<acc value="0.0048913105850574" flag="0"/>
			<vel value="0.00317045060208" flag="0"/>
			<psa03 value="0.00986113046504491" flag="0"/>
			<psa10 value="0.00494033024136719" flag="0"/>
			<psa30 value="0.000725824853167397" flag="0"/>
		</comp>
	</station>
	<station code="KRL1" name="KRL1" netid="HI" source="ITSAK Strong Motion Network" insttype="" lat="37.7951" lon="26.7065">
		<comp name=".HNE" depth="0.0">
			<acc value="0.06651514482141" flag="0"/>
			<vel value="0.0316890642477" flag="0"/>
			<psa03 value="0.172824709205262" flag="0"/>
			<psa10 value="0.0310576505419406" flag="0"/>
			<psa30 value="0.00226934845819785" flag="0"/>
		</comp>
		<comp name=".HNN" depth="0.0">
			<acc value="0.05803655383227" flag="0"/>
			<vel value="0.0268922165009" flag="0"/>
			<psa03 value="0.210531279997469" flag="0"/>
			<psa10 value="0.0295979919716951" flag="0"/>
			<psa30 value="0.00180286401422724" flag="0"/>
		</comp>
		<comp name=".HNZ" depth="0.0">
			<acc value="0.032406144784518" flag="0"/>
			<vel value="0.0189558564119" flag="0"/>
			<psa03 value="0.0969331921815943" flag="0"/>
			<psa10 value="0.0159098251978313" flag="0"/>
			<psa30 value="0.00162066559030628" flag="0"/>
		</comp>
	</station>
	<station code="KTL1" name="KTL1" netid="HI" source="ITSAK Strong Motion Network" insttype="" lat="35.20778" lon="25.34272">
		<comp name=".HNE" depth="0.0">
			<acc value="0.014812381019418" flag="0"/>
			<vel value="0.00895260142883" flag="0"/>
			<psa03 value="0.0359446858465194" flag="0"/>
			<psa10 value="0.0108594584483239" flag="0"/>
			<psa30 value="0.00152314194234601" flag="0"/>
		</comp>
		<comp name=".HNN" depth="0.0">
			<acc value="0.019450925546388" flag="0"/>
			<vel value="0.0115183063224" flag="0"/>
			<psa03 value="0.0690628406993201" flag="0"/>
			<psa10 value="0.0195033507512539" flag="0"/>
			<psa30 value="0.000922466525544859" flag="0"/>
		</comp>
		<comp name=".HNZ" depth="0.0">
			<acc value="0.0091488574384686" flag="0"/>
			<vel value="0.00434952213294" flag="0"/>
			<psa03 value="0.0213590503489378" flag="0"/>
			<psa10 value="0.00883734230555521" flag="0"/>
			<psa30 value="0.000567988095171633" flag="0"/>
		</comp>
	</station>
	<station code="NAX1" name="NAX1" netid="HI" source="ITSAK Strong Motion Network" insttype="" lat="37.101394" lon="25.374103">
		<comp name=".HNE" depth="0.0">
			<acc value="0.26087656249764" flag="0"/>
			<vel value="0.0944606227602" flag="0"/>
			<psa03 value="0.713605606201658" flag="0"/>
			<psa10 value="0.0376035310494027" flag="0"/>
			<psa30 value="0.00425438141522288" flag="0"/>
		</comp>
		<comp name=".HNN" depth="0.0">
			<acc value="0.31379871343164" flag="0"/>
			<vel value="0.0872926546022" flag="0"/>
			<psa03 value="0.421197902293929" flag="0"/>
			<psa10 value="0.0277208351192791" flag="0"/>
			<psa30 value="0.00631675012035189" flag="0"/>
		</comp>
		<comp name=".HNZ" depth="0.0">
			<acc value="0.15473969496804" flag="0"/>
			<vel value="0.0449476665918" flag="0"/>
			<psa03 value="0.333802487776737" flag="0"/>
			<psa10 value="0.0372116450888691" flag="0"/>
			<psa30 value="0.00675049302038683" flag="0"/>
		</comp>
	</station>
	<station code="RKL1" name="RKL1" netid="HI" source="ITSAK Strong Motion Network" insttype="" lat="36.336699" lon="28.171224">
		<comp name=".HNE" depth="0.0">
			<acc value="0.0062738714902542" flag="0"/>
			<vel value="0.00771201284716" flag="0"/>
			<psa03 value="0.0125247372544734" flag="0"/>
			<psa10 value="0.018285446321079" flag="0"/>
			<psa30 value="0.0010083429436064" flag="0"/>
		</comp>
		<comp name=".HNN" depth="0.0">
			<acc value="0.0055564383358512" flag="0"/>
			<vel value="0.0056108121398" flag="0"/>
			<psa03 value="0.0153877172774202" flag="0"/>
			<psa10 value="0.0115881073427329" flag="0"/>
			<psa30 value="0.00196243812689329" flag="0"/>
		</comp>
		<comp name=".HNZ" depth="0.0">
			<acc value="0.0028418217440514" flag="0"/>
			<vel value="0.00327520679274" flag="0"/>
			<psa03 value="0.00787266149915784" flag="0"/>
			<psa10 value="0.00366133121710066" flag="0"/>
			<psa30 value="0.000894211632966959" flag="0"/>
		</comp>
	</station>
	<station code="RTH1" name="RTH1" netid="HI" source="ITSAK Strong Motion Network" insttype="" lat="35.365393" lon="24.471773">
		<comp name=".HNE" depth="0.0">
			<acc value="0.0098220290044692" flag="0"/>
			<vel value="0.00527069663273" flag="0"/>
			<psa03 value="0.0210715846911564" flag="0"/>
			<psa10 value="0.00373704263885956" flag="0"/>
			<psa30 value="0.00161529867227448" flag="0"/>
		</comp>
		<comp name=".HNN" depth="0.0">
			<acc value="0.010200035883498" flag="0"/>
			<vel value="0.00496205219699" flag="0"/>
			<psa03 value="0.0277764103633837" flag="0"/>
			<psa10 value="0.0040270622418665" flag="0"/>
			<psa30 value="0.00117028023365412" flag="0"/>
		</comp>
		<comp name=".HNZ" depth="0.0">
			<acc value="0.0075604916241672" flag="0"/>
			<vel value="0.00295468749402" flag="0"/>
			<psa03 value="0.0115254080329717" flag="0"/>
			<psa10 value="0.00327425729410077" flag="0"/>
			<psa30 value="0.00083849752551364" flag="0"/>
		</comp>
	</station>
	<station code="SFR2" name="SFR2" netid="HI" source="ITSAK Strong Motion Network" insttype="" lat="36.399841" lon="25.438209">
		<comp name=".HNE" depth="0.0">
			<acc value="0.47027412584712" flag="0"/>
			<vel value="0.136487776687" flag="0"/>
			<psa03 value="0.573812137236812" flag="0"/>
			<psa10 value="0.0806475475042039" flag="0"/>
			<psa30 value="0.00591975507137849" flag="0"/>
		</comp>
		<comp name=".HNN" depth="0.0">
			<acc value="0.51049164239088" flag="0"/>
			<vel value="0.134241087732" flag="0"/>
			<psa03 value="0.451134260431267" flag="0"/>
			<psa10 value="0.0957644914274525" flag="0"/>
			<psa30 value="0.0105446943676007" flag="0"/>
		</comp>
		<comp name=".HNZ" depth="0.0">
			<acc value="0.47808029263602" flag="0"/>
			<vel value="0.13069882357" flag="0"/>
			<psa03 value="0.592201147088003" flag="0"/>
			<psa10 value="0.0645697224273865" flag="0"/>
			<psa30 value="0.00465711934462796" flag="0"/>
		</comp>
	</station>
	<station code="CHNB" name="CHNB" netid="HL" source="National Observatory of Athens Seismic Network" insttype="" lat="35.48765" lon="24.06605">
		<comp name="00.HNE" depth="0.0">
			<acc value="0.020277624256008" flag="0"/>
			<vel value="0.0136907582507" flag="0"/>
			<psa03 value="0.0500497530505984" flag="0"/>
			<psa10 value="0.0210766493495694" flag="0"/>
			<psa30 value="0.00121099345154125" flag="0"/>
		</comp>
		<comp name="00.HNN" depth="0.0">
			<acc value="0.01790877133716" flag="0"/>
			<vel value="0.014729860289" flag="0"/>
			<psa03 value="0.0414609731484776" flag="0"/>
			<psa10 value="0.0292488757194762" flag="0"/>
			<psa30 value="0.00114307259795155" flag="0"/>
		</comp>
		<comp name="00.HNZ" depth="0.0">
			<acc value="0.013548062739918" flag="0"/>
			<vel value="0.00629858071409" flag="0"/>
			<psa03 value="0.0379483732684914" flag="0"/>
			<psa10 value="0.00671870086221481" flag="0"/>
			<psa30 value="0.000610248707232335" flag="0"/>
		</comp>
	</station>
	<station code="HERG" name="HERG" netid="HL" source="National Observatory of Athens Seismic Network" insttype="" lat="35.32622" lon="25.06586">
		<comp name="00.HNE" depth="0.0">
			<acc value="0.02340506183457" flag="0"/>
			<vel value="0.0179988125534" flag="0"/>
			<psa03 value="0.0734575432851731" flag="0"/>
			<psa10 value="0.0297386544149021" flag="0"/>
			<psa30 value="0.0029558503939164" flag="0"/>
		</comp>
		<comp name="00.HNN" depth="0.0">
			<acc value="0.01990162138479" flag="0"/>
			<vel value="0.0130431156804" flag="0"/>
			<psa03 value="0.0503437621103276" flag="0"/>
			<psa10 value="0.0312939218187345" flag="0"/>
			<psa30 value="0.00281202461616525" flag="0"/>
		</comp>
		<comp name="00.HNZ" depth="0.0">
			<acc value="0.01944296079693" flag="0"/>
			<vel value="0.014353305547" flag="0"/>
			<psa03 value="0.0444836082790502" flag="0"/>
			<psa10 value="0.0155510651817629" flag="0"/>
			<psa30 value="0.00085624114885516" flag="0"/>
		</comp>
	</station>
	<station code="KARA" name="KARA" netid="HL" source="National Observatory of Athens Seismic Network" insttype="" lat="38.01581" lon="24.42014">
		<comp name="00.HNE" depth="0.0">
			<acc value="0.017458463184234" flag="0"/>
			<vel value="0.0075645476446" flag="0"/>
			<psa03 value="0.0335249109649692" flag="0"/>
			<psa10 value="0.019807820295891" flag="0"/>
			<psa30 value="0.00118291200794827" flag="0"/>
		</comp>
		<comp name="00.HNN" depth="0.0">
			<acc value="0.016219081284864" flag="0"/>
			<vel value="0.00727926287406" flag="0"/>
			<psa03 value="0.0343398607847266" flag="0"/>
			<psa10 value="0.00823553431373896" flag="0"/>
			<psa30 value="0.00169710482070012" flag="0"/>
		</comp>
		<comp name="00.HNZ" depth="0.0">
			<acc value="0.010029719900112" flag="0"/>
			<vel value="0.00689089146748" flag="0"/>
			<psa03 value="0.0217568201888152" flag="0"/>
			<psa10 value="0.0063866974623751" flag="0"/>
			<psa30 value="0.00179183995060112" flag="0"/>
		</comp>
	</station>
	<station code="KLNA" name="KLNA" netid="HL" source="National Observatory of Athens Seismic Network" insttype="" lat="36.95708" lon="26.97274">
		<comp name="00.HNE" depth="0.0">
			<acc value="0.071550328956396" flag="0"/>
			<vel value="0.0224559460096" flag="0"/>
			<psa03 value="0.176583072761879" flag="0"/>
			<psa10 value="0.0145619859100805" flag="0"/>
			<psa30 value="0.00132557510451254" flag="0"/>
		</comp>
		<comp name="00.HNN" depth="0.0">
			<acc value="0.041943163851786" flag="0"/>
			<vel value="0.0178545110924" flag="0"/>
			<psa03 value="0.0943414059050444" flag="0"/>
			<psa10 value="0.0142307424043434" flag="0"/>
			<psa30 value="0.0026947212203904" flag="0"/>
		</comp>
		<comp name="00.HNZ" depth="0.0">
			<acc value="0.054925229862114" flag="0"/>
			<vel value="0.0174128924936" flag="0"/>
			<psa03 value="0.0608571981571888" flag="0"/>
			<psa10 value="0.0102591561812396" flag="0"/>
			<psa30 value="0.00126175337663328" flag="0"/>
		</comp>
	</station>
	<station code="MILA" name="MILA" netid="HL" source="National Observatory of Athens Seismic Network" insttype="" lat="36.74288" lon="24.4282">
		<comp name="00.HNE" depth="0.0">
			<acc value="0.1826311127355" flag="0"/>
			<vel value="0.0787935380087" flag="0"/>
			<psa03 value="0.438594471398091" flag="0"/>
			<psa10 value="0.0484202826059801" flag="0"/>
			<psa30 value="0.00515947428983343" flag="0"/>
		</comp>
		<comp name="00.HNN" depth="0.0">
			<acc value="0.245430058284" flag="0"/>
			<vel value="0.107600589902" flag="0"/>
			<psa03 value="0.632311720883371" flag="0"/>
			<psa10 value="0.0525850985045783" flag="0"/>
			<psa30 value="0.00473427237230275" flag="0"/>
		</comp>
		<comp name="00.HNZ" depth="0.0">
			<acc value="0.1342072577835" flag="0"/>
			<vel value="0.0615592954152" flag="0"/>
			<psa03 value="0.430964674294803" flag="0"/>
			<psa10 value="0.0407483318768851" flag="0"/>
			<psa30 value="0.00373946063758378" flag="0"/>
		</comp>
	</station>
	<station code="PSRA" name="PSRA" netid="HL" source="National Observatory of Athens Seismic Network" insttype="" lat="38.53978" lon="25.56202">
		<comp name="00.HNE" depth="0.0">
			<acc value="0.02792028640722" flag="0"/>
			<vel value="0.0106658545302" flag="0"/>
			<psa03 value="0.0444602786085948" flag="0"/>
			<psa10 value="0.00725056437681554" flag="0"/>
			<psa30 value="0.00173130875320733" flag="0"/>
		</comp>
		<comp name="00.HNN" depth="0.0">
			<acc value="0.023904543315498" flag="0"/>
			<vel value="0.0102158432273" flag="0"/>
			<psa03 value="0.0515847401525487" flag="0"/>
			<psa10 value="0.00792795581316628" flag="0"/>
			<psa30 value="0.00113734763536425" flag="0"/>
		</comp>
		<comp name="00.HNZ" depth="0.0">
			<acc value="0.012485534179782" flag="0"/>
			<vel value="0.00457903086031" flag="0"/>
			<psa03 value="0.0125671345943463" flag="0"/>
			<psa10 value="0.00655681670066948" flag="0"/>
			<psa30 value="0.00100089182500546" flag="0"/>
		</comp>
	</station>
	<station code="SIVA" name="SIVA" netid="HL" source="National Observatory of Athens Seismic Network" insttype="" lat="35.01777" lon="24.81204">
		<comp name="00.HNE" depth="0.0">
			<acc value="0.01201273923915" flag="0"/>
			<vel value="0.0100375107016" flag="0"/>
			<psa03 value="0.0307905944132654" flag="0"/>
			<psa10 value="0.0181988474593364" flag="0"/>
			<psa30 value="0.000850454567609627" flag="0"/>
		</comp>
