<stationlist created="1738524758">
	<station code="BODA" name="BODA" netid="KO" source="Bogazici University Kandilli Observatory And Earthquake Research Institute (KOERI)" insttype="" lat="37.0348" lon="27.4304">
		<comp name=".HNE" depth="0.0">
			<acc value="0.019595832012342" flag="0"/>
			<vel value="0.00851139228846" flag="0"/>
			<psa03 value="0.0482752032036481" flag="0"/>
			<psa10 value="0.00674253228465657" flag="0"/>
			<psa30 value="0.000614416118717748" flag="0"/>
		</comp>
		<comp name=".HNN" depth="0.0">
			<acc value="0.015082439936808" flag="0"/>
			<vel value="0.00678502566047" flag="0"/>
			<psa03 value="0.0284750894599198" flag="0"/>
			<psa10 value="0.00688460153980476" flag="0"/>
			<psa30 value="0.000713945420379526" flag="0"/>
		</comp>
		<comp name=".HNZ" depth="0.0">
			<acc value="0.008410932645093" flag="0"/>
			<vel value="0.00366444518208" flag="0"/>
			<psa03 value="0.0103716493104484" flag="0"/>
			<psa10 value="0.00510032427769136" flag="0"/>
			<psa30 value="0.000672002485618834" flag="0"/>
		</comp>
	</station>
	<station code="BODM" name="BODM" netid="KO" source="Bogazici University Kandilli Observatory And Earthquake Research Institute (KOERI)" insttype="" lat="37.031" lon="27.4247">
		<comp name=".HNE" depth="0.0">
			<acc value="0.010987482456888" flag="0"/>
			<vel value="0.00758755064019" flag="0"/>
			<psa03 value="0.0359355940984135" flag="0"/>
			<psa10 value="0.00600805222270412" flag="0"/>
			<psa30 value="0.000673961573730102" flag="0"/>
		</comp>
		<comp name=".HNN" depth="0.0">
			<acc value="0.017193692067816" flag="0"/>
			<vel value="0.011951055553" flag="0"/>
			<psa03 value="0.036600716284508" flag="0"/>
			<psa10 value="0.00979249964252774" flag="0"/>
			<psa30 value="0.000925198373183392" flag="0"/>
		</comp>
		<comp name=".HNZ" depth="0.0">
			<acc value="0.0044115558800778" flag="0"/>
			<vel value="0.00358518707593" flag="0"/>
			<psa03 value="0.00990597718592321" flag="0"/>
			<psa10 value="0.00341547711797086" flag="0"/>
			<psa30 value="0.000619956798263251" flag="0"/>
		</comp>
	</station>
	<station code="CESE" name="CESE" netid="KO" source="Bogazici University Kandilli Observatory And Earthquake Research Institute (KOERI)" insttype="" lat="38.3306" lon="26.2997">
		<comp name=".HNE" depth="0.0">
			<acc value="0.010862786141496" flag="0"/>
			<vel value="0.00567875511799" flag="0"/>
			<psa03 value="0.0128993362885719" flag="0"/>
			<psa10 value="0.00757805575901664" flag="0"/>
			<psa30 value="0.00140134501973218" flag="0"/>
		</comp>
		<comp name=".HNN" depth="0.0">
			<acc value="0.012063841004448" flag="0"/>
			<vel value="0.0070739556469" flag="0"/>
			<psa03 value="0.0292856744072235" flag="0"/>
			<psa10 value="0.0108564057460802" flag="0"/>
			<psa30 value="0.00126282542682076" flag="0"/>
		</comp>
		<comp name=".HNZ" depth="0.0">
			<acc value="0.0048752777370792" flag="0"/>
			<vel value="0.00338821075787" flag="0"/>
			<psa03 value="0.0104165474670122" flag="0"/>
			<psa10 value="0.00542142992438462" flag="0"/>
			<psa30 value="0.00104767659093437" flag="0"/>
		</comp>
	</station>
	<station code="DATC" name="DATC" netid="KO" source="Bogazici University Kandilli Observatory And Earthquake Research Institute (KOERI)" insttype="" lat="36.7584" lon="27.6602">
		<comp name=".HNE" depth="0.0">
			<acc value="0.0084415596509394" flag="0"/>
			<vel value="0.00841366225648" flag="0"/>
			<psa03 value="0.027336620812779" flag="0"/>
			<psa10 value="0.010441440756691" flag="0"/>
			<psa30 value="0.00160069968433087" flag="0"/>
		</comp>
		<comp name=".HNN" depth="0.0">
			<acc value="0.0090335128125672" flag="0"/>
			<vel value="0.00948949921265" flag="0"/>
			<psa03 value="0.0305943366204884" flag="0"/>
			<psa10 value="0.0116800803104859" flag="0"/>
			<psa30 value="0.00201438010946484" flag="0"/>
		</comp>
		<comp name=".HNZ" depth="0.0">
			<acc value="0.01415512086042" flag="0"/>
			<vel value="0.00889898965528" flag="0"/>
			<psa03 value="0.0185612634467622" flag="0"/>
			<psa10 value="0.0110068610255429" flag="0"/>
			<psa30 value="0.00184108758801773" flag="0"/>
		</comp>
	</station>
	<station code="DIDI" name="DIDI" netid="KO" source="Bogazici University Kandilli Observatory And Earthquake Research Institute (KOERI)" insttype="" lat="37.3767" lon="27.2398">
		<comp name=".HNE" depth="0.0">
			<acc value="0.044260411265178" flag="0"/>
			<vel value="0.0235178030707" flag="0"/>
			<psa03 value="0.100380868489875" flag="0"/>
			<psa10 value="0.0302386131597113" flag="0"/>
			<psa30 value="0.00409283738038868" flag="0"/>
		</comp>
		<comp name=".HNN" depth="0.0">
			<acc value="0.052336212753876" flag="0"/>
			<vel value="0.0303959720399" flag="0"/>
			<psa03 value="0.143702894611309" flag="0"/>
			<psa10 value="0.0319894391433615" flag="0"/>
			<psa30 value="0.00498304385218508" flag="0"/>
		</comp>
		<comp name=".HNZ" depth="0.0">
			<acc value="0.042074720875266" flag="0"/>
			<vel value="0.0162666440185" flag="0"/>
			<psa03 value="0.0522037342828456" flag="0"/>
			<psa10 value="0.017787567089037" flag="0"/>
			<psa30 value="0.00181254236370403" flag="0"/>
		</comp>
	</station>
	<station code="GMLD" name="GMLD" netid="KO" source="Bogazici University Kandilli Observatory And Earthquake Research Institute (KOERI)" insttype="" lat="38.0766" lon="26.9157">
		<comp name=".HNE" depth="0.0">
			<acc value="0.058474467304542" flag="0"/>
			<vel value="0.0285502434277" flag="0"/>
			<psa03 value="0.194838032063195" flag="0"/>
			<psa10 value="0.0220793663996772" flag="0"/>
			<psa30 value="0.00146809965023008" flag="0"/>
		</comp>
		<comp name=".HNN" depth="0.0">
			<acc value="0.048471585104544" flag="0"/>
			<vel value="0.0295571523297" flag="0"/>
			<psa03 value="0.138625183238071" flag="0"/>
			<psa10 value="0.0406024434627961" flag="0"/>
			<psa30 value="0.00165230341532375" flag="0"/>
		</comp>
		<comp name=".HNZ" depth="0.0">
			<acc value="0.030625740045576" flag="0"/>
			<vel value="0.0130147713996" flag="0"/>
			<psa03 value="0.0949841568177646" flag="0"/>
			<psa10 value="0.00715088464853077" flag="0"/>
			<psa30 value="0.000808972080011278" flag="0"/>
		</comp>
	</station>
	<station code="KUSD" name="KUSD" netid="KO" source="Bogazici University Kandilli Observatory And Earthquake Research Institute (KOERI)" insttype="" lat="37.8606" lon="27.2868">
		<comp name=".HNE" depth="0.0">
			<acc value="0.0089368801613094" flag="0"/>
			<vel value="0.00575338358511" flag="0"/>
			<psa03 value="0.0287344842477341" flag="0"/>
			<psa10 value="0.00750005340424373" flag="0"/>
			<psa30 value="0.00123057818643044" flag="0"/>
		</comp>
		<comp name=".HNN" depth="0.0">
			<acc value="0.0064344595457358" flag="0"/>
			<vel value="0.0052990002167" flag="0"/>
			<psa03 value="0.0244774965140058" flag="0"/>
			<psa10 value="0.00789411450885677" flag="0"/>
			<psa30 value="0.00103587372571735" flag="0"/>
		</comp>
		<comp name=".HNZ" depth="0.0">
			<acc value="0.0039181196918202" flag="0"/>
			<vel value="0.00367917507493" flag="0"/>
			<psa03 value="0.0152905975624637" flag="0"/>
			<psa10 value="0.00539803587464546" flag="0"/>
			<psa30 value="0.000973489593075098" flag="0"/>
		</comp>
	</station>
	<station code="YKAV" name="YKAV" netid="KO" source="Bogazici University Kandilli Observatory And Earthquake Research Institute (KOERI)" insttype="" lat="37.1246" lon="27.2801">
		<comp name=".HNE" depth="0.0">
			<acc value="0.017969883380826" flag="0"/>
			<vel value="0.0112731200433" flag="0"/>
			<psa03 value="0.0566875104777857" flag="0"/>
			<psa10 value="0.0197737774157216" flag="0"/>
			<psa30 value="0.00179317191383725" flag="0"/>
		</comp>
		<comp name=".HNN" depth="0.0">
			<acc value="0.012413869433682" flag="0"/>
			<vel value="0.00728062230798" flag="0"/>
			<psa03 value="0.0256852379793138" flag="0"/>
			<psa10 value="0.0108507044309124" flag="0"/>
			<psa30 value="0.00124191685422915" flag="0"/>
		</comp>
		<comp name=".HNZ" depth="0.0">
			<acc value="0.0088409433501858" flag="0"/>
			<vel value="0.00778439369813" flag="0"/>
			<psa03 value="0.0262221094819157" flag="0"/>
			<psa10 value="0.0102259486688951" flag="0"/>
			<psa30 value="0.00143053247408683" flag="0"/>
		</comp>
	</station>
</stationlist>
