<?xml version="1.0" encoding="UTF-8" standalone="yes"?>
<!DOCTYPE earthquake SYSTEM "stationlist.dtd">
<stationlist created="" xmlns="ch.ethz.sed.shakemap.usgs.xml">
  <station code="APE" name="APE" netid="GE" insttype="STS-2/N" lat="37.0727" lon="25.523">
    <comp name="--.HHZ">
      <acc value="0.2036238687" flag="0"/>
      <vel value="0.0434541573" flag="0"/>
      <psa03 value="0.2370565387" flag="0"/>
      <psa10 value="0.0331700401" flag="0"/>
      <psa30 value="0.0066050352" flag="0"/>
    </comp>
    <comp name="--.HHE">
      <acc value="0.3255177921" flag="0"/>
      <vel value="0.0904265645" flag="0"/>
      <psa03 value="0.5192071291" flag="0"/>
      <psa10 value="0.0309239137" flag="0"/>
      <psa30 value="0.0065621198" flag="0"/>
    </comp>
    <comp name="--.HHN">
      <acc value="0.4296952465" flag="0"/>
      <vel value="0.0854465106" flag="0"/>
      <psa03 value="0.2819510744" flag="0"/>
      <psa10 value="0.0372470065" flag="0"/>
      <psa30 value="0.0066256287" flag="0"/>
    </comp>
  </station>
  <station code="THERA" name="THERA" netid="GE" insttype="STS-2/N" lat="36.367" lon="25.4753">
    <comp name="--.HHE">
      <acc value="0.1883805222" flag="0"/>
      <vel value="0.0491133767" flag="0"/>
      <psa03 value="0.3562919906" flag="0"/>
      <psa10 value="0.0224514537" flag="0"/>
      <psa30 value="0.0030812027" flag="0"/>
    </comp>
    <comp name="--.HHZ">
      <acc value="0.1493733210" flag="0"/>
      <vel value="0.0475226200" flag="0"/>
      <psa03 value="0.1947249278" flag="0"/>
      <psa10 value="0.0166121021" flag="0"/>
      <psa30 value="0.0028749339" flag="0"/>
    </comp>
    <comp name="--.HHN">
      <acc value="0.1677449022" flag="0"/>
      <vel value="0.0469637880" flag="0"/>
      <psa03 value="0.3248180085" flag="0"/>
      <psa10 value="0.0262122983" flag="0"/>
      <psa30 value="0.0016562531" flag="0"/>
    </comp>
  </station>
  <station code="SNT1" name="SNT1" netid="HA" insttype="30" lat="36.4159" lon="25.4282">
    <comp name="--.HHE">
      <acc value="0.1877114865" flag="0"/>
      <vel value="0.0549899501" flag="0"/>
      <psa03 value="0.1947249363" flag="0"/>
      <psa10 value="0.0722299415" flag="0"/>
      <psa30 value="0.0046800016" flag="0"/>
    </comp>
    <comp name="--.HHN">
      <acc value="0.1565144488" flag="0"/>
      <vel value="0.0554601787" flag="0"/>
      <psa03 value="0.2332548186" flag="0"/>
      <psa10 value="0.0603434852" flag="0"/>
      <psa30 value="0.0073570917" flag="0"/>
    </comp>
    <comp name="--.HHZ">
      <acc value="0.1580151959" flag="0"/>
      <vel value="0.0332517900" flag="0"/>
      <psa03 value="0.1578112475" flag="0"/>
      <psa10 value="0.0204718385" flag="0"/>
      <psa30 value="0.0034564079" flag="0"/>
    </comp>
  </station>
  <station code="APE" name="APE" netid="HL" insttype="120" lat="37.0727" lon="25.523">
    <comp name="--.HHE">
      <acc value="0.2853022496" flag="0"/>
      <vel value="0.0860521150" flag="0"/>
      <psa03 value="0.5067494295" flag="0"/>
      <psa10 value="0.0307305730" flag="0"/>
      <psa30 value="0.0065468891" flag="0"/>
    </comp>
    <comp name="--.HHN">
      <acc value="0.3811806879" flag="0"/>
      <vel value="0.0824584690" flag="0"/>
      <psa03 value="0.2713005279" flag="0"/>
      <psa10 value="0.0369615414" flag="0"/>
      <psa30 value="0.0065966747" flag="0"/>
    </comp>
    <comp name="--.HHZ">
      <acc value="0.1861137347" flag="0"/>
      <vel value="0.0410419474" flag="0"/>
      <psa03 value="0.2291740301" flag="0"/>
      <psa10 value="0.0329842314" flag="0"/>
      <psa30 value="0.0065946762" flag="0"/>
    </comp>
  </station>
  <station code="MHLO" name="MHLO" netid="HL" insttype="20" lat="36.6898" lon="24.4017">
    <comp name="--.HHE">
      <acc value="0.1579048383" flag="0"/>
      <vel value="0.0807021370" flag="0"/>
      <psa03 value="0.4348953941" flag="0"/>
      <psa10 value="0.0772306434" flag="0"/>
      <psa30 value="0.0055309173" flag="0"/>
    </comp>
    <comp name="--.HHN">
      <acc value="0.1576773310" flag="0"/>
      <vel value="0.0700765502" flag="0"/>
      <psa03 value="0.3401643099" flag="0"/>
      <psa10 value="0.0888793744" flag="0"/>
      <psa30 value="0.0054129138" flag="0"/>
    </comp>
    <comp name="--.HHZ">
      <acc value="0.0888997787" flag="0"/>
      <vel value="0.0319576326" flag="0"/>
      <psa03 value="0.1214689576" flag="0"/>
      <psa10 value="0.0383074894" flag="0"/>
      <psa30 value="0.0041783905" flag="0"/>
    </comp>
  </station>
  <station code="NISR" name="NISR" netid="HL" insttype="65535" lat="36.6106" lon="27.131">
    <comp name="--.HHE">
      <acc value="0.0000000000" flag="0"/>
      <vel value="-100.0000000000" flag="0"/>
      <psa03 value="0.0000000000" flag="0"/>
      <psa10 value="0.0000000000" flag="0"/>
      <psa30 value="0.0000000000" flag="0"/>
    </comp>
    <comp name="--.HHN">
      <acc value="0.0589550122" flag="0"/>
      <vel value="0.0274180432" flag="0"/>
      <psa03 value="0.1614402756" flag="0"/>
      <psa10 value="0.0210694975" flag="0"/>
      <psa30 value="0.0074075954" flag="0"/>
    </comp>
    <comp name="--.HHZ">
      <acc value="0.0252286347" flag="0"/>
      <vel value="0.0151388087" flag="0"/>
      <psa03 value="0.0786170014" flag="0"/>
      <psa10 value="0.0177007289" flag="0"/>
      <psa30 value="0.0014942102" flag="0"/>
    </comp>
  </station>
  <station code="NISR2" name="NISR2" netid="HL" insttype="120" lat="36.5744" lon="27.1767">
    <comp name="--.HHN">
      <acc value="0.1077049045" flag="0"/>
      <vel value="0.0704685084" flag="0"/>
      <psa03 value="0.3887532275" flag="0"/>
      <psa10 value="0.0680959828" flag="0"/>
      <psa30 value="0.0071838084" flag="0"/>
    </comp>
    <comp name="--.HHE">
      <acc value="0.0652863955" flag="0"/>
      <vel value="0.0534333266" flag="0"/>
      <psa03 value="0.2786458305" flag="0"/>
      <psa10 value="0.1040959190" flag="0"/>
      <psa30 value="0.0060335048" flag="0"/>
    </comp>
    <comp name="--.HHZ">
      <acc value="0.0257021265" flag="0"/>
      <vel value="0.0175817678" flag="0"/>
      <psa03 value="0.1046106498" flag="0"/>
      <psa10 value="0.0117883743" flag="0"/>
      <psa30 value="0.0021461898" flag="0"/>
    </comp>
  </station>
  <station code="NPS" name="NPS" netid="HL" insttype="CMG3ESPC-120s" lat="35.2613" lon="25.6104">
    <comp name="--.HHE">
      <acc value="0.0107222387" flag="0"/>
      <vel value="0.0052230620" flag="0"/>
      <psa03 value="0.0243082335" flag="0"/>
      <psa10 value="0.0065650251" flag="0"/>
      <psa30 value="0.0004292772" flag="0"/>
    </comp>
    <comp name="--.HHN">
      <acc value="0.0177174759" flag="0"/>
      <vel value="0.0091106058" flag="0"/>
      <psa03 value="0.0383721593" flag="0"/>
      <psa10 value="0.0173347320" flag="0"/>
      <psa30 value="0.0007724730" flag="0"/>
    </comp>
    <comp name="--.HHZ">
      <acc value="0.0205583405" flag="0"/>
      <vel value="0.0062800631" flag="0"/>
      <psa03 value="0.0285044197" flag="0"/>
      <psa10 value="0.0069294746" flag="0"/>
      <psa30 value="0.0008378283" flag="0"/>
    </comp>
  </station>
  <station code="SAP3" name="SAP3" netid="HL" insttype="LE3D20_SMART24" lat="36.4356" lon="25.3454">
    <comp name="--.HHE">
      <acc value="0.8987240219" flag="0"/>
      <vel value="0.2734404997" flag="0"/>
      <psa03 value="0.9368996498" flag="0"/>
      <psa10 value="0.1790965326" flag="0"/>
      <psa30 value="0.0331377111" flag="0"/>
    </comp>
    <comp name="--.HHN">
      <acc value="0.8139641446" flag="0"/>
      <vel value="0.2534021779" flag="0"/>
      <psa03 value="0.8567773920" flag="0"/>
      <psa10 value="0.1304464658" flag="0"/>
      <psa30 value="0.0219101771" flag="0"/>
    </comp>
    <comp name="--.HHZ">
      <acc value="0.6992786224" flag="0"/>
      <vel value="0.1463892847" flag="0"/>
      <psa03 value="0.4784022180" flag="0"/>
      <psa10 value="0.0566710500" flag="0"/>
      <psa30 value="0.0102896168" flag="0"/>
    </comp>
  </station>
  <station code="THERA" name="THERA" netid="HL" insttype="120" lat="36.367" lon="25.4753">
    <comp name="--.HHE">
      <acc value="0.1920889894" flag="0"/>
      <vel value="0.0480355948" flag="0"/>
      <psa03 value="0.3461174295" flag="0"/>
      <psa10 value="0.0223428557" flag="0"/>
      <psa30 value="0.0030817736" flag="0"/>
    </comp>
    <comp name="--.HHZ">
      <acc value="0.1459745409" flag="0"/>
      <vel value="0.0460829450" flag="0"/>
      <psa03 value="0.1894188950" flag="0"/>
      <psa10 value="0.0163679718" flag="0"/>
      <psa30 value="0.0028771096" flag="0"/>
    </comp>
    <comp name="--.HHN">
      <acc value="0.1675614057" flag="0"/>
      <vel value="0.0459747310" flag="0"/>
      <psa03 value="0.3151620606" flag="0"/>
      <psa10 value="0.0259555150" flag="0"/>
      <psa30 value="0.0016442535" flag="0"/>
    </comp>
  </station>
  <station code="THRA" name="THRA" netid="HL" insttype="CMG-5" lat="36.415" lon="25.4324">
    <comp name="00.HNE">
      <acc value="0.6550036810" flag="0"/>
      <vel value="0.1875452932" flag="0"/>
      <psa03 value="0.9857494137" flag="0"/>
      <psa10 value="0.1439870178" flag="0"/>
      <psa30 value="0.0098864143" flag="0"/>
    </comp>
    <comp name="00.HNN">
      <acc value="0.4900561302" flag="0"/>
      <vel value="0.1667811882" flag="0"/>
      <psa03 value="0.9150906031" flag="0"/>
      <psa10 value="0.2081081806" flag="0"/>
      <psa30 value="0.0118346025" flag="0"/>
    </comp>
    <comp name="00.HNZ">
      <acc value="0.4143308204" flag="0"/>
      <vel value="0.1302606647" flag="0"/>
      <psa03 value="0.5775918498" flag="0"/>
      <psa10 value="0.0588194211" flag="0"/>
      <psa30 value="0.0060793117" flag="0"/>
    </comp>
  </station>
  <station code="TNSA" name="TNSA" netid="HL" insttype="CMG-5" lat="37.5394" lon="25.1631">
    <comp name="00.HNE">
      <acc value="0.1337672479" flag="0"/>
      <vel value="0.0338383991" flag="0"/>
      <psa03 value="0.1917206206" flag="0"/>
      <psa10 value="0.0169039208" flag="0"/>
      <psa30 value="0.0018551450" flag="0"/>
    </comp>
    <comp name="00.HNN">
      <acc value="0.1614021358" flag="0"/>
      <vel value="0.0518885542" flag="0"/>
      <psa03 value="0.2185377100" flag="0"/>
      <psa10 value="0.0315274307" flag="0"/>
      <psa30 value="0.0032939402" flag="0"/>
    </comp>
    <comp name="00.HNZ">
      <acc value="0.0946883681" flag="0"/>
      <vel value="0.0596264308" flag="0"/>
      <psa03 value="0.2937548386" flag="0"/>
      <psa10 value="0.0269378099" flag="0"/>
      <psa30 value="0.0044100958" flag="0"/>
    </comp>
  </station>
  <station code="CMBO" name="CMBO" netid="HT" insttype="120P," lat="36.4709" lon="25.4056">
    <comp name="--.HHE">
      <acc value="0.7189082111" flag="0"/>
      <vel value="0.2270305258" flag="0"/>
      <psa03 value="0.9611657346" flag="0"/>
      <psa10 value="0.1480363807" flag="0"/>
      <psa30 value="0.0188643482" flag="0"/>
    </comp>
    <comp name="--.HHZ">
      <acc value="0.8726652725" flag="0"/>
      <vel value="0.2345911106" flag="0"/>
      <psa03 value="0.8881768142" flag="0"/>
      <psa10 value="0.0785883551" flag="0"/>
      <psa30 value="0.0126827873" flag="0"/>
    </comp>
    <comp name="--.HHN">
      <acc value="0.8891257247" flag="0"/>
      <vel value="0.2831154748" flag="0"/>
      <psa03 value="0.8535723112" flag="0"/>
      <psa10 value="0.2042007094" flag="0"/>
      <psa30 value="0.0175446319" flag="0"/>
    </comp>
  </station>
  <station code="IDI" name="IDI" netid="MN" insttype="" lat="35.288" lon="24.89">
    <comp name="--.HHE">
      <acc value="0.0098691976" flag="0"/>
      <vel value="0.0036746685" flag="0"/>
      <psa03 value="0.0264063696" flag="0"/>
      <psa10 value="0.0038624939" flag="0"/>
      <psa30 value="0.0004578993" flag="0"/>
    </comp>
    <comp name="--.HHN">
      <acc value="0.0100914731" flag="0"/>
      <vel value="0.0037821278" flag="0"/>
      <psa03 value="0.0196004644" flag="0"/>
      <psa10 value="0.0032485985" flag="0"/>
      <psa30 value="0.0004363002" flag="0"/>
    </comp>
    <comp name="--.HHZ">
      <acc value="0.0085977304" flag="0"/>
      <vel value="0.0036797584" flag="0"/>
      <psa03 value="0.0205732910" flag="0"/>
      <psa10 value="0.0039037822" flag="0"/>
      <psa30 value="0.0003128425" flag="0"/>
    </comp>
  </station>
</stationlist>
