<?xml version="1.0" encoding="UTF-8" standalone="yes"?>
<!DOCTYPE earthquake SYSTEM "stationlist.dtd">
<stationlist created="" xmlns="ch.ethz.sed.shakemap.usgs.xml">
  <station code="APE" name="APE" netid="GE" insttype="STS-2/N" lat="37.0727" lon="25.523">
    <comp name="--.HHZ">
      <acc value="0.2036238687" flag="0"/>
      <vel value="0.0434541573" flag="0"/>
      <psa03 value="0.2370565387" flag="0"/>
      <psa10 value="0.0331700401" flag="0"/>
      <psa30 value="0.0066050352" flag="0"/>
    </comp>
    <comp name="--.HHE">
      <acc value="0.3255177921" flag="0"/>
      <vel value="0.0904265645" flag="0"/>
      <psa03 value="0.5192071291" flag="0"/>
      <psa10 value="0.0309239137" flag="0"/>
      <psa30 value="0.0065621198" flag="0"/>
    </comp>
    <comp name="--.HHN">
      <acc value="0.4296952465" flag="0"/>
      <vel value="0.0854465106" flag="0"/>
      <psa03 value="0.2819510744" flag="0"/>
      <psa10 value="0.0372470065" flag="0"/>
      <psa30 value="0.0066256287" flag="0"/>
    </comp>
  </station>
  <station code="THERA" name="THERA" netid="GE" insttype="STS-2/N" lat="36.367" lon="25.4753">
    <comp name="--.HHE">
      <acc value="0.1883805222" flag="0"/>
      <vel value="0.0491133767" flag="0"/>
      <psa03 value="0.3562919906" flag="0"/>
      <psa10 value="0.0224514537" flag="0"/>
      <psa30 value="0.0030812027" flag="0"/>
    </comp>
    <comp name="--.HHZ">
      <acc value="0.1493733210" flag="0"/>
      <vel value="0.0475226200" flag="0"/>
      <psa03 value="0.1947249278" flag="0"/>
      <psa10 value="0.0166121021" flag="0"/>
      <psa30 value="0.0028749339" flag="0"/>
    </comp>
    <comp name="--.HHN">
      <acc value="0.1677449022" flag="0"/>
      <vel value="0.0469637880" flag="0"/>
      <psa03 value="0.3248180085" flag="0"/>
      <psa10 value="0.0262122983" flag="0"/>
      <psa30 value="0.0016562531" flag="0"/>
    </comp>
  </station>
  <station code="IDI" name="IDI" netid="MN" insttype="" lat="35.288" lon="24.89">
    <comp name="--.HHE">
      <acc value="0.0098691976" flag="0"/>
      <vel value="0.0036746685" flag="0"/>
      <psa03 value="0.0264063696" flag="0"/>
      <psa10 value="0.0038624939" flag="0"/>
      <psa30 value="0.0004578993" flag="0"/>
    </comp>
    <comp name="--.HHN">
      <acc value="0.0100914731" flag="0"/>
      <vel value="0.0037821278" flag="0"/>
      <psa03 value="0.0196004644" flag="0"/>
      <psa10 value="0.0032485985" flag="0"/>
      <psa30 value="0.0004363002" flag="0"/>
    </comp>
    <comp name="--.HHZ">
      <acc value="0.0085977304" flag="0"/>
      <vel value="0.0036797584" flag="0"/>
      <psa03 value="0.0205732910" flag="0"/>
      <psa10 value="0.0039037822" flag="0"/>
      <psa30 value="0.0003128425" flag="0"/>
    </comp>
  </station>
</stationlist>
