<?xml version="1.0" encoding="UTF-8" standalone="yes"?>
<!DOCTYPE earthquake SYSTEM "stationlist.dtd">
<stationlist created="" xmlns="ch.ethz.sed.shakemap.usgs.xml">
  <station code="ARPRA" name="ARPRA" netid="KO" insttype="CMG-5T" lat="39.0929" lon="38.3356">
    <comp name="--.HNE">
      <acc value="0.0697163378" flag="0"/>
      <vel value="0.0282034962" flag="0"/>
      <psa03 value="0.1278211814" flag="0"/>
      <psa10 value="0.0320748984" flag="0"/>
      <psa30 value="0.0036405635" flag="0"/>
    </comp>
    <comp name="--.HNN">
      <acc value="0.0654080758" flag="0"/>
      <vel value="0.0319648130" flag="0"/>
      <psa03 value="0.1105364036" flag="0"/>
      <psa10 value="0.0293592522" flag="0"/>
      <psa30 value="0.0022411764" flag="0"/>
    </comp>
    <comp name="--.HNZ">
      <acc value="0.0239031437" flag="0"/>
      <vel value="0.0167707249" flag="0"/>
      <psa03 value="0.0396438751" flag="0"/>
      <psa10 value="0.0208052606" flag="0"/>
      <psa30 value="0.0030366068" flag="0"/>
    </comp>
  </station>
  <station code="DYBB" name="DYBB" netid="KO" insttype="CMG-3T" lat="37.9532" lon="40.1393">
    <comp name="--.HHZ">
      <acc value="0.0165738607" flag="0"/>
      <vel value="0.0082037262" flag="0"/>
      <psa03 value="0.0126027947" flag="0"/>
      <psa10 value="0.0133199156" flag="0"/>
      <psa30 value="0.0021975304" flag="0"/>
    </comp>
    <comp name="--.HHE">
      <acc value="0.0131016589" flag="0"/>
      <vel value="0.0084979532" flag="0"/>
      <psa03 value="0.0139156264" flag="0"/>
      <psa10 value="0.0135773386" flag="0"/>
      <psa30 value="0.0029169315" flag="0"/>
    </comp>
    <comp name="--.HHN">
      <acc value="0.0141191886" flag="0"/>
      <vel value="0.0090374851" flag="0"/>
      <psa03 value="0.0161984675" flag="0"/>
      <psa10 value="0.0149751905" flag="0"/>
      <psa30 value="0.0041184768" flag="0"/>
    </comp>
  </station>
  <station code="SINE" name="SINE" netid="KO" insttype="CMG-6T" lat="39.1636" lon="39.3871">
    <comp name="--.HHZ">
      <acc value="0.0057020555" flag="0"/>
      <vel value="0.0029297032" flag="0"/>
      <psa03 value="0.0102617719" flag="0"/>
      <psa10 value="0.0037645346" flag="0"/>
      <psa30 value="0.0001782091" flag="0"/>
    </comp>
    <comp name="--.HHN">
      <acc value="0.0090724364" flag="0"/>
      <vel value="0.0028692366" flag="0"/>
      <psa03 value="0.0110231400" flag="0"/>
      <psa10 value="0.0036664045" flag="0"/>
      <psa30 value="0.0001365764" flag="0"/>
    </comp>
    <comp name="--.HHE">
      <acc value="0.0059880391" flag="0"/>
      <vel value="0.0030059454" flag="0"/>
      <psa03 value="0.0113610820" flag="0"/>
      <psa10 value="0.0029293140" flag="0"/>
      <psa30 value="0.0001511665" flag="0"/>
    </comp>
  </station>
  <station code="URFA" name="URFA" netid="KO" insttype="CMG-3ESP" lat="37.4409" lon="38.8213">
    <comp name="--.HHN">
      <acc value="0.0332809925" flag="0"/>
      <vel value="0.0134553059" flag="0"/>
      <psa03 value="0.0348233864" flag="0"/>
      <psa10 value="0.0169998348" flag="0"/>
      <psa30 value="0.0012265493" flag="0"/>
    </comp>
    <comp name="--.HHZ">
      <acc value="0.0201521885" flag="0"/>
      <vel value="0.0092860794" flag="0"/>
      <psa03 value="0.0183497368" flag="0"/>
      <psa10 value="0.0062862220" flag="0"/>
      <psa30 value="0.0011661187" flag="0"/>
    </comp>
  </station>
</stationlist>
