<stationlist created="1778069993">
	<station code="KRL1" name="KRL1" netid="HI" source="ITSAK Strong Motion Network" insttype="" lat="37.7951" lon="26.7065">
		<comp name="--.HNE" depth="0.0">
			<acc value="0.0316263373159097" flag="0"/>
			<vel value="0.0250576301953813" flag="0"/>
			<psa03 value="0.0934217274189514" flag="0"/>
			<psa10 value="0.0263191556211322" flag="0"/>
			<psa30 value="0.00307334217260909" flag="0"/>
		</comp>
		<comp name="--.HNN" depth="0.0">
			<acc value="0.0219987870270415" flag="0"/>
			<vel value="0.0181939448681614" flag="0"/>
			<psa03 value="0.07507742270546" flag="0"/>
			<psa10 value="0.03880223126763" flag="0"/>
			<psa30 value="0.00302546801152754" flag="0"/>
		</comp>
		<comp name="--.HNZ" depth="0.0">
			<acc value="0.0222489504928033" flag="0"/>
			<vel value="0.0172112659763162" flag="0"/>
			<psa03 value="0.0406259236093908" flag="0"/>
			<psa10 value="0.0220265883181752" flag="0"/>
			<psa30 value="0.00216373311205962" flag="0"/>
		</comp>
	</station>
	<station code="LMN1" name="LMN1" netid="HI" source="ITSAK Strong Motion Network" insttype="" lat="39.875" lon="25.0588">
		<comp name="--.HNE" depth="0.0">
			<acc value="0.044543685536628" flag="0"/>
			<vel value="0.024232829575547" flag="0"/>
			<psa03 value="0.107873460156653" flag="0"/>
			<psa10 value="0.0134334001150699" flag="0"/>
			<psa30 value="0.00403529961490193" flag="0"/>
		</comp>
		<comp name="--.HNN" depth="0.0">
			<acc value="0.0447850198586476" flag="0"/>
			<vel value="0.0213756292933234" flag="0"/>
			<psa03 value="0.141027435260793" flag="0"/>
			<psa10 value="0.0189863553784636" flag="0"/>
			<psa30 value="0.00432254458139123" flag="0"/>
		</comp>
		<comp name="--.HNZ" depth="0.0">
			<acc value="0.0381997173070045" flag="0"/>
			<vel value="0.0122541137956177" flag="0"/>
			<psa03 value="0.0344962413026875" flag="0"/>
			<psa10 value="0.00776769449099816" flag="0"/>
			<psa30 value="0.00289303107993745" flag="0"/>
		</comp>
	</station>
	<station code="MYT1" name="MYT1" netid="HI" source="ITSAK Strong Motion Network" insttype="" lat="39.085" lon="26.5694">
		<comp name="--.HNE" depth="0.0">
			<acc value="0.354142476549897" flag="0"/>
			<vel value="0.170353680653897" flag="0"/>
			<psa03 value="0.736456720936753" flag="0"/>
			<psa10 value="0.106182652168549" flag="0"/>
			<psa30 value="0.0103757177147772" flag="0"/>
		</comp>
		<comp name="--.HNN" depth="0.0">
			<acc value="0.290324311508655" flag="0"/>
			<vel value="0.134349461109472" flag="0"/>
			<psa03 value="0.51077703075419" flag="0"/>
			<psa10 value="0.149470737071727" flag="0"/>
			<psa30 value="0.0128486194745691" flag="0"/>
		</comp>
		<comp name="--.HNZ" depth="0.0">
			<acc value="0.205071754569767" flag="0"/>
			<vel value="0.0718296296820888" flag="0"/>
			<psa03 value="0.477533571236815" flag="0"/>
			<psa10 value="0.0681092714467303" flag="0"/>
			<psa30 value="0.00461471119060855" flag="0"/>
		</comp>
	</station>
	<station code="EFSA" name="EFSA" netid="HL" source="National Observatory of Athens Seismic Network" insttype="" lat="39.54015" lon="24.98864">
		<comp name="00.HNE" depth="0.0">
			<acc value="0.0182274636167466" flag="0"/>
			<vel value="0.0210617462619927" flag="0"/>
			<psa03 value="0.0476057078418412" flag="0"/>
			<psa10 value="0.0252238664031169" flag="0"/>
			<psa30 value="0.00473909452500734" flag="0"/>
		</comp>
		<comp name="00.HNN" depth="0.0">
			<acc value="0.0164317225999916" flag="0"/>
			<vel value="0.0146316155199366" flag="0"/>
			<psa03 value="0.054988171933856" flag="0"/>
			<psa10 value="0.0174239575233536" flag="0"/>
			<psa30 value="0.00288810943720944" flag="0"/>
		</comp>
		<comp name="00.HNZ" depth="0.0">
			<acc value="0.01157305885332" flag="0"/>
			<vel value="0.0104352532572857" flag="0"/>
			<psa03 value="0.0478741610815508" flag="0"/>
			<psa10 value="0.0174803327036926" flag="0"/>
			<psa30 value="0.0016232472561109" flag="0"/>
		</comp>
	</station>
	<station code="KYMI" name="KYMI" netid="HL" source="National Observatory of Athens Seismic Network" insttype="" lat="38.633147" lon="24.100138">
		<comp name="--.HNE" depth="1.0">
			<acc value="0.00329572613741788" flag="0"/>
			<vel value="0.00380803606405378" flag="0"/>
			<psa03 value="0.00572700244713878" flag="0"/>
			<psa10 value="0.00631804699656615" flag="0"/>
			<psa30 value="0.00154584323866129" flag="0"/>
		</comp>
		<comp name="--.HNN" depth="1.0">
			<acc value="0.00265843145130082" flag="0"/>
			<vel value="0.00377401096690998" flag="0"/>
			<psa03 value="0.00621916671993977" flag="0"/>
			<psa10 value="0.00409525417177041" flag="0"/>
			<psa30 value="0.00162637921057418" flag="0"/>
		</comp>
		<comp name="--.HNZ" depth="1.0">
			<acc value="0.0020918626893637" flag="0"/>
			<vel value="0.00253438970496627" flag="0"/>
			<psa03 value="0.00398205638902619" flag="0"/>
			<psa10 value="0.00260936548997761" flag="0"/>
			<psa30 value="0.000706479442502511" flag="0"/>
		</comp>
	</station>
	<station code="PRK" name="PRK" netid="HL" source="National Observatory of Athens Seismic Network" insttype="" lat="39.24565" lon="26.26499">
		<comp name="--.HNE" depth="0.0">
			<acc value="0.267808816282916" flag="0"/>
			<vel value="0.164004584913856" flag="0"/>
			<psa03 value="0.995335128430073" flag="0"/>
			<psa10 value="0.234971751653045" flag="0"/>
			<psa30 value="0.0111797351677076" flag="0"/>
		</comp>
		<comp name="--.HNN" depth="0.0">
			<acc value="0.424298555847329" flag="0"/>
			<vel value="0.306047727380475" flag="0"/>
			<psa03 value="1.84651086713608" flag="0"/>
			<psa10 value="0.344983889286052" flag="0"/>
			<psa30 value="0.0196574884777377" flag="0"/>
		</comp>
		<comp name="--.HNZ" depth="0.0">
			<acc value="0.244576995349051" flag="0"/>
			<vel value="0.118526648978776" flag="0"/>
			<psa03 value="0.781377896381498" flag="0"/>
			<psa10 value="0.12324822461689" flag="0"/>
			<psa30 value="0.00966252694128197" flag="0"/>
		</comp>
	</station>
	<station code="SMG" name="SMG" netid="HL" source="National Observatory of Athens Seismic Network" insttype="" lat="37.70425" lon="26.83772">
		<comp name="00.HNE" depth="0.0">
			<acc value="0.0374807254913717" flag="0"/>
			<vel value="0.0244683764636635" flag="0"/>
			<psa03 value="0.114271595703066" flag="0"/>
			<psa10 value="0.0281875901695112" flag="0"/>
			<psa30 value="0.00209930433452931" flag="0"/>
		</comp>
		<comp name="00.HNN" depth="0.0">
			<acc value="0.0433640868723721" flag="0"/>
			<vel value="0.0260905619762425" flag="0"/>
			<psa03 value="0.0838468952026413" flag="0"/>
			<psa10 value="0.0211084782383682" flag="0"/>
			<psa30 value="0.00149573196724882" flag="0"/>
		</comp>
		<comp name="00.HNZ" depth="0.0">
			<acc value="0.0159584925112075" flag="0"/>
			<vel value="0.00857741380609251" flag="0"/>
			<psa03 value="0.0542722966279637" flag="0"/>
			<psa10 value="0.0135139360869828" flag="0"/>
			<psa30 value="0.00130826212151827" flag="0"/>
		</comp>
	</station>
	<station code="EZNE" name="EZNE" netid="KO" source="Bogazici University Kandilli Observatory And Earthquake Research Institute (KOERI)" insttype="" lat="39.756" lon="26.3655">
		<comp name="--.HNE" depth="0.0">
			<acc value="0.419469147365002" flag="0"/>
			<vel value="0.294111865473194" flag="0"/>
			<psa03 value="1.0174377784995" flag="0"/>
			<psa10 value="0.276073284918788" flag="0"/>
			<psa30 value="0.0129358667774747" flag="0"/>
		</comp>
		<comp name="--.HNN" depth="0.0">
			<acc value="0.675990841384616" flag="0"/>
			<vel value="0.564711730614162" flag="0"/>
			<psa03 value="1.7346553505904" flag="0"/>
			<psa10 value="0.607567398909431" flag="0"/>
			<psa30 value="0.0513206532573562" flag="0"/>
		</comp>
		<comp name="--.HNZ" depth="0.0">
			<acc value="0.336933921786608" flag="0"/>
			<vel value="0.199140800002666" flag="0"/>
			<psa03 value="0.86960952783273" flag="0"/>
			<psa10 value="0.18082741773601" flag="0"/>
			<psa30 value="0.0235549820962553" flag="0"/>
		</comp>
	</station>
	<station code="FOCM" name="FOCM" netid="KO" source="Bogazici University Kandilli Observatory And Earthquake Research Institute (KOERI)" insttype="" lat="38.7131" lon="26.7309">
		<comp name="--.HNE" depth="0.0">
			<acc value="0.134557236351508" flag="0"/>
			<vel value="0.0637154322209951" flag="0"/>
			<psa03 value="0.487779536552399" flag="0"/>
			<psa10 value="0.0474799822412438" flag="0"/>
			<psa30 value="0.00268408497503012" flag="0"/>
		</comp>
		<comp name="--.HNN" depth="0.0">
			<acc value="0.138833337786173" flag="0"/>
			<vel value="0.07410307938913" flag="0"/>
			<psa03 value="0.305410302376323" flag="0"/>
			<psa10 value="0.0455793333040996" flag="0"/>
			<psa30 value="0.00482186760725115" flag="0"/>
		</comp>
		<comp name="--.HNZ" depth="0.0">
			<acc value="0.105347901109519" flag="0"/>
			<vel value="0.037321428706889" flag="0"/>
			<psa03 value="0.196597255880686" flag="0"/>
			<psa10 value="0.0244909890587096" flag="0"/>
			<psa30 value="0.00224784846050197" flag="0"/>
		</comp>
	</station>
	<station code="GOMA" name="GOMA" netid="KO" source="Bogazici University Kandilli Observatory And Earthquake Research Institute (KOERI)" insttype="" lat="38.7077" lon="27.9175">
		<comp name="--.HNE" depth="0.0">
			<acc value="0.0233901454480671" flag="0"/>
			<vel value="0.0165236429238036" flag="0"/>
			<psa03 value="0.0787910258547766" flag="0"/>
			<psa10 value="0.011959591829064" flag="0"/>
			<psa30 value="0.00135031979573944" flag="0"/>
		</comp>
		<comp name="--.HNN" depth="0.0">
			<acc value="0.0212789012403126" flag="0"/>
			<vel value="0.0133476755428952" flag="0"/>
			<psa03 value="0.063220737951618" flag="0"/>
			<psa10 value="0.0120884493841247" flag="0"/>
			<psa30 value="0.00114137369083211" flag="0"/>
		</comp>
		<comp name="--.HNZ" depth="0.0">
			<acc value="0.0102472006399422" flag="0"/>
			<vel value="0.00674011901665386" flag="0"/>
			<psa03 value="0.0175389449943625" flag="0"/>
			<psa10 value="0.00717575509743842" flag="0"/>
			<psa30 value="0.00141206404087266" flag="0"/>
		</comp>
	</station>
	<station code="GONE" name="GONE" netid="KO" source="Bogazici University Kandilli Observatory And Earthquake Research Institute (KOERI)" insttype="" lat="40.0466" lon="27.686">
		<comp name="--.HNE" depth="0.0">
			<acc value="0.0989195172434627" flag="0"/>
			<vel value="0.101731134385276" flag="0"/>
			<psa03 value="0.207648580915399" flag="0"/>
			<psa10 value="0.146607683270223" flag="0"/>
			<psa30 value="0.0110777229366179" flag="0"/>
		</comp>
		<comp name="--.HNN" depth="0.0">
			<acc value="0.190709478640883" flag="0"/>
			<vel value="0.157842703190626" flag="0"/>
			<psa03 value="0.53641431514646" flag="0"/>
			<psa10 value="0.238016011391353" flag="0"/>
			<psa30 value="0.0193948517248884" flag="0"/>
		</comp>
		<comp name="--.HNZ" depth="0.0">
			<acc value="0.0552265974603182" flag="0"/>
			<vel value="0.0526356635842668" flag="0"/>
			<psa03 value="0.150870720716812" flag="0"/>
			<psa10 value="0.0661321133362689" flag="0"/>
			<psa30 value="0.0110088199384258" flag="0"/>
		</comp>
	</station>
	<station code="GORD" name="GORD" netid="KO" source="Bogazici University Kandilli Observatory And Earthquake Research Institute (KOERI)" insttype="" lat="38.9088" lon="28.1769">
		<comp name="--.HNE" depth="0.0">
			<acc value="0.0485604083485855" flag="0"/>
			<vel value="0.0647156216980191" flag="0"/>
			<psa03 value="0.150065360997684" flag="0"/>
			<psa10 value="0.118291235545652" flag="0"/>
			<psa30 value="0.0110692219173604" flag="0"/>
		</comp>
		<comp name="--.HNN" depth="0.0">
			<acc value="0.0519036269272536" flag="0"/>
			<vel value="0.0511669226851291" flag="0"/>
			<psa03 value="0.172660175339911" flag="0"/>
			<psa10 value="0.0946015794074752" flag="0"/>
			<psa30 value="0.0081341331632018" flag="0"/>
		</comp>
		<comp name="--.HNZ" depth="0.0">
			<acc value="0.0364776330936147" flag="0"/>
			<vel value="0.0307767462948028" flag="0"/>
			<psa03 value="0.0778961817224111" flag="0"/>
			<psa10 value="0.0465457649670543" flag="0"/>
			<psa30 value="0.00898915673167698" flag="0"/>
		</comp>
	</station>
	<station code="ODEM" name="ODEM" netid="KO" source="Bogazici University Kandilli Observatory And Earthquake Research Institute (KOERI)" insttype="" lat="38.2762" lon="28.0747">
		<comp name="--.HNE" depth="0.0">
			<acc value="0.0573555712032851" flag="0"/>
			<vel value="0.0392475069454654" flag="0"/>
			<psa03 value="0.252211818707198" flag="0"/>
			<psa10 value="0.0490464068949495" flag="0"/>
			<psa30 value="0.00786791703382309" flag="0"/>
		</comp>
		<comp name="--.HNN" depth="0.0">
			<acc value="0.0863411093660384" flag="0"/>
			<vel value="0.0526018872696692" flag="0"/>
			<psa03 value="0.297938353871072" flag="0"/>
			<psa10 value="0.0695508653439711" flag="0"/>
			<psa30 value="0.0140087848921809" flag="0"/>
		</comp>
		<comp name="--.HNZ" depth="0.0">
			<acc value="0.0404046728457507" flag="0"/>
			<vel value="0.0388722994360225" flag="0"/>
			<psa03 value="0.132794869243031" flag="0"/>
			<psa10 value="0.0473390442903962" flag="0"/>
			<psa30 value="0.00609254627521006" flag="0"/>
		</comp>
	</station>
	<station code="SOMA" name="SOMA" netid="KO" source="Bogazici University Kandilli Observatory And Earthquake Research Institute (KOERI)" insttype="" lat="39.1564" lon="27.5341">
		<comp name="--.HNE" depth="0.0">
			<acc value="0.171522643679934" flag="0"/>
			<vel value="0.096876958537218" flag="0"/>
			<psa03 value="0.623751102465327" flag="0"/>
			<psa10 value="0.16211488466205" flag="0"/>
			<psa30 value="0.0091309895266569" flag="0"/>
		</comp>
		<comp name="--.HNN" depth="0.0">
			<acc value="0.167099546955873" flag="0"/>
			<vel value="0.0887784377763734" flag="0"/>
			<psa03 value="0.531805867864778" flag="0"/>
			<psa10 value="0.105759838316006" flag="0"/>
			<psa30 value="0.00842003586349256" flag="0"/>
		</comp>
		<comp name="--.HNZ" depth="0.0">
			<acc value="0.119191767586322" flag="0"/>
			<vel value="0.054875501315467" flag="0"/>
			<psa03 value="0.334716447711291" flag="0"/>
			<psa10 value="0.0846916280635942" flag="0"/>
			<psa30 value="0.00958422807969999" flag="0"/>
		</comp>
	</station>
	<station code="SUSR" name="SUSR" netid="KO" source="Bogazici University Kandilli Observatory And Earthquake Research Institute (KOERI)" insttype="" lat="39.9627" lon="28.0835">
		<comp name="--.HNE" depth="0.0">
			<acc value="0.141926002705041" flag="0"/>
			<vel value="0.0807961199111235" flag="0"/>
			<psa03 value="0.397042341530544" flag="0"/>
			<psa10 value="0.0658623178303607" flag="0"/>
			<psa30 value="0.00883971776157195" flag="0"/>
		</comp>
		<comp name="--.HNN" depth="0.0">
			<acc value="0.184756176365552" flag="0"/>
			<vel value="0.11017523525467" flag="0"/>
			<psa03 value="0.531179476972122" flag="0"/>
			<psa10 value="0.0664341232309423" flag="0"/>
			<psa30 value="0.00779364497083676" flag="0"/>
		</comp>
		<comp name="--.HNZ" depth="0.0">
			<acc value="0.11705155169382" flag="0"/>
			<vel value="0.0743083383988473" flag="0"/>
			<psa03 value="0.330152742636227" flag="0"/>
			<psa10 value="0.0398491989024976" flag="0"/>
			<psa30 value="0.00280175697843618" flag="0"/>
		</comp>
	</station>
	<station code="YENI" name="YENI" netid="KO" source="Bogazici University Kandilli Observatory And Earthquake Research Institute (KOERI)" insttype="" lat="39.9364" lon="27.24216">
		<comp name="--.HNE" depth="0.0">
			<acc value="0.464152382624016" flag="0"/>
			<vel value="0.449180035105569" flag="0"/>
			<psa03 value="1.227770891812" flag="0"/>
			<psa10 value="0.378406317629901" flag="0"/>
			<psa30 value="0.0223326250114442" flag="0"/>
		</comp>
		<comp name="--.HNN" depth="0.0">
			<acc value="0.49441074908004" flag="0"/>
			<vel value="0.337705102534079" flag="0"/>
			<psa03 value="1.64955567360244" flag="0"/>
			<psa10 value="0.288326833045334" flag="0"/>
			<psa30 value="0.0170584136952823" flag="0"/>
		</comp>
		<comp name="--.HNZ" depth="0.0">
			<acc value="0.204316540805625" flag="0"/>
			<vel value="0.156451525136989" flag="0"/>
			<psa03 value="0.853860271103098" flag="0"/>
			<psa10 value="0.11531543138347" flag="0"/>
			<psa30 value="0.011521118204205" flag="0"/>
		</comp>
	</station>
</stationlist>
