<?xml version="1.0" encoding="UTF-8" standalone="yes"?>
<!DOCTYPE earthquake SYSTEM "stationlist.dtd">
<stationlist created="" xmlns="ch.ethz.sed.shakemap.usgs.xml">
  <station code="MYT1" name="MYT1" netid="HI" insttype="CMG-5TD,ACCELEROMETER,GURALP" lat="39.085" lon="26.5694">
    <comp name="--.HNN">
      <acc value="0.2895708240" flag="0"/>
      <vel value="0.1360197369" flag="0"/>
      <psa03 value="0.5087031770" flag="0"/>
      <psa10 value="0.1485869095" flag="0"/>
      <psa30 value="0.0106622744" flag="0"/>
    </comp>
    <comp name="--.HNZ">
      <acc value="0.2066850407" flag="0"/>
      <vel value="0.0726219705" flag="0"/>
      <psa03 value="0.4672988503" flag="0"/>
      <psa10 value="0.0679235107" flag="0"/>
      <psa30 value="0.0040436702" flag="0"/>
    </comp>
    <comp name="--.HNE">
      <acc value="0.3528074759" flag="0"/>
      <vel value="0.1694935572" flag="0"/>
      <psa03 value="0.7180106579" flag="0"/>
      <psa10 value="0.1057823505" flag="0"/>
      <psa30 value="0.0091151145" flag="0"/>
    </comp>
  </station>
  <station code="EFSA" name="EFSA" netid="HL" insttype="CMG-5" lat="39.5401" lon="24.9886">
    <comp name="00.HNN">
      <acc value="0.0164067134" flag="0"/>
      <vel value="0.0150073531" flag="0"/>
      <psa03 value="0.0553488251" flag="0"/>
      <psa10 value="0.0172934910" flag="0"/>
      <psa30 value="0.0026768838" flag="0"/>
    </comp>
    <comp name="00.HNE">
      <acc value="0.0180137382" flag="0"/>
      <vel value="0.0199186728" flag="0"/>
      <psa03 value="0.0475184993" flag="0"/>
      <psa10 value="0.0251840870" flag="0"/>
      <psa30 value="0.0039105782" flag="0"/>
    </comp>
    <comp name="00.HNZ">
      <acc value="0.0117699694" flag="0"/>
      <vel value="0.0101732185" flag="0"/>
      <psa03 value="0.0479068167" flag="0"/>
      <psa10 value="0.0174759772" flag="0"/>
      <psa30 value="0.0014839336" flag="0"/>
    </comp>
  </station>
  <station code="LIA" name="LIA" netid="HL" insttype="P6C" lat="39.8972" lon="25.1806">
    <comp name="--.HHE">
      <acc value="0.0294675454" flag="0"/>
      <vel value="0.0174332945" flag="0"/>
      <psa03 value="0.0913308138" flag="0"/>
      <psa10 value="0.0209821240" flag="0"/>
      <psa30 value="0.0021358930" flag="0"/>
    </comp>
    <comp name="--.HHN">
      <acc value="0.0282510566" flag="0"/>
      <vel value="0.0260112201" flag="0"/>
      <psa03 value="0.0954057748" flag="0"/>
      <psa10 value="0.0155775138" flag="0"/>
      <psa30 value="0.0048541680" flag="0"/>
    </comp>
    <comp name="--.HHZ">
      <acc value="0.0141070471" flag="0"/>
      <vel value="0.0089260346" flag="0"/>
      <psa03 value="0.0274764250" flag="0"/>
      <psa10 value="0.0144016127" flag="0"/>
      <psa30 value="0.0025570598" flag="0"/>
    </comp>
  </station>
  <station code="PRK" name="PRK" netid="HL" insttype="120" lat="39.2456" lon="26.265">
    <comp name="--.HHZ">
      <acc value="0.2527172527" flag="0"/>
      <vel value="0.1185437520" flag="0"/>
      <psa03 value="0.7863981045" flag="0"/>
      <psa10 value="0.1242406872" flag="0"/>
      <psa30 value="0.0078824045" flag="0"/>
    </comp>
    <comp name="--.HHN">
      <acc value="0.3561841649" flag="0"/>
      <vel value="0.2381459597" flag="0"/>
      <psa03 value="1.4536942652" flag="0"/>
      <psa10 value="0.2788409123" flag="0"/>
      <psa30 value="0.0131944357" flag="0"/>
    </comp>
    <comp name="--.HHE">
      <acc value="0.3269302269" flag="0"/>
      <vel value="0.1968913783" flag="0"/>
      <psa03 value="1.3204736812" flag="0"/>
      <psa10 value="0.2918251027" flag="0"/>
      <psa30 value="0.0128440415" flag="0"/>
    </comp>
  </station>
  <station code="CHOS" name="CHOS" netid="HT" insttype="100" lat="38.3869" lon="26.0506">
    <comp name="--.HHE">
      <acc value="0.1868178828" flag="0"/>
      <vel value="0.0931291913" flag="0"/>
      <psa03 value="0.3608114376" flag="0"/>
      <psa10 value="0.0919302801" flag="0"/>
      <psa30 value="0.0043951124" flag="0"/>
    </comp>
    <comp name="--.HHN">
      <acc value="0.1167634298" flag="0"/>
      <vel value="0.0427840079" flag="0"/>
      <psa03 value="0.1686129191" flag="0"/>
      <psa10 value="0.0632667952" flag="0"/>
      <psa30 value="0.0048412858" flag="0"/>
    </comp>
    <comp name="--.HHZ">
      <acc value="0.0852664403" flag="0"/>
      <vel value="0.0423295529" flag="0"/>
      <psa03 value="0.1528707707" flag="0"/>
      <psa10 value="0.0339834999" flag="0"/>
      <psa30 value="0.0035769861" flag="0"/>
    </comp>
  </station>
  <station code="EZN" name="EZN" netid="KO" insttype="120s," lat="39.8255" lon="26.3247">
    <comp name="--.HHZ">
      <acc value="0.0725111984" flag="0"/>
      <vel value="0.0388115629" flag="0"/>
      <psa03 value="0.1064796920" flag="0"/>
      <psa10 value="0.0536818945" flag="0"/>
      <psa30 value="0.0055815064" flag="0"/>
    </comp>
    <comp name="--.HHN">
      <acc value="0.0970869433" flag="0"/>
      <vel value="0.0863537407" flag="0"/>
      <psa03 value="0.1481814734" flag="0"/>
      <psa10 value="0.1043195026" flag="0"/>
      <psa30 value="0.0082857313" flag="0"/>
    </comp>
    <comp name="--.HHE">
      <acc value="0.1315044192" flag="0"/>
      <vel value="0.0918486938" flag="0"/>
      <psa03 value="0.2042698637" flag="0"/>
      <psa10 value="0.1018160977" flag="0"/>
      <psa30 value="0.0089482958" flag="0"/>
    </comp>
  </station>
  <station code="KRBN" name="KRBN" netid="KO" insttype="100" lat="38.5936" lon="26.5537">
    <comp name="--.HNZ">
      <acc value="0.1369880996" flag="0"/>
      <vel value="0.0680067796" flag="0"/>
      <psa03 value="0.3227502253" flag="0"/>
      <psa10 value="0.0610476935" flag="0"/>
      <psa30 value="0.0043562738" flag="0"/>
    </comp>
    <comp name="--.HNE">
      <acc value="0.1250127799" flag="0"/>
      <vel value="0.0805570961" flag="0"/>
      <psa03 value="0.4092723548" flag="0"/>
      <psa10 value="0.0601722282" flag="0"/>
      <psa30 value="0.0039432644" flag="0"/>
    </comp>
    <comp name="--.HNN">
      <acc value="0.1622175340" flag="0"/>
      <vel value="0.0726290312" flag="0"/>
      <psa03 value="0.3739256917" flag="0"/>
      <psa10 value="0.1460627626" flag="0"/>
      <psa30 value="0.0088475521" flag="0"/>
    </comp>
  </station>
</stationlist>
