<?xml version="1.0" encoding="UTF-8" standalone="yes"?>
<!DOCTYPE earthquake SYSTEM "stationlist.dtd">
<stationlist created="" xmlns="ch.ethz.sed.shakemap.usgs.xml">
  <station code="KMRS" name="KMRS" netid="KO" insttype="CMG-3T" lat="37.5053" lon="36.9">
    <comp name="--.HHE">
      <acc value="0.0031871816" flag="0"/>
      <vel value="0.0012144705" flag="0"/>
      <psa03 value="0.0072214836" flag="0"/>
      <psa10 value="0.0005921446" flag="0"/>
      <psa30 value="0.0000397204" flag="0"/>
    </comp>
    <comp name="--.HHN">
      <acc value="0.0059264423" flag="0"/>
      <vel value="0.0023513699" flag="0"/>
      <psa03 value="0.0132477466" flag="0"/>
      <psa10 value="0.0012801550" flag="0"/>
      <psa30 value="0.0000941163" flag="0"/>
    </comp>
  </station>
</stationlist>
