<?xml version="1.0" encoding="UTF-8" standalone="yes"?>
<!DOCTYPE earthquake SYSTEM "stationlist.dtd">
<stationlist created="" xmlns="ch.ethz.sed.shakemap.usgs.xml">
  <station code="SNT5" name="SNT5" netid="HA" insttype="1s-100Hz," lat="36.4037" lon="25.3953">
    <comp name="--.HHN">
      <acc value="0.0788853486" flag="0"/>
      <vel value="0.0202715300" flag="0"/>
      <psa03 value="0.1174628947" flag="0"/>
      <psa10 value="0.0177561948" flag="0"/>
      <psa30 value="0.0027201047" flag="0"/>
    </comp>
    <comp name="--.HHZ">
      <acc value="0.0309401599" flag="0"/>
      <vel value="0.0130021478" flag="0"/>
      <psa03 value="0.0638448325" flag="0"/>
      <psa10 value="0.0115743325" flag="0"/>
      <psa30 value="0.0011146963" flag="0"/>
    </comp>
    <comp name="--.HHE">
      <acc value="0.1234077007" flag="0"/>
      <vel value="0.0429263628" flag="0"/>
      <psa03 value="0.2481461324" flag="0"/>
      <psa10 value="0.0284907096" flag="0"/>
      <psa30 value="0.0051748764" flag="0"/>
    </comp>
  </station>
  <station code="IMOD" name="IMOD" netid="HC" insttype="120" lat="34.9731" lon="24.7995">
    <comp name="--.HHZ">
      <acc value="0.0147338850" flag="0"/>
      <vel value="0.0094861550" flag="0"/>
      <psa03 value="0.0443610595" flag="0"/>
      <psa10 value="0.0071959560" flag="0"/>
      <psa30 value="0.0005967241" flag="0"/>
    </comp>
    <comp name="--.HHE">
      <acc value="0.0206688056" flag="0"/>
      <vel value="0.0145210705" flag="0"/>
      <psa03 value="0.0704437607" flag="0"/>
      <psa10 value="0.0137376256" flag="0"/>
      <psa30 value="0.0013799190" flag="0"/>
    </comp>
    <comp name="--.HHN">
      <acc value="0.0219915948" flag="0"/>
      <vel value="0.0128142772" flag="0"/>
      <psa03 value="0.0588725067" flag="0"/>
      <psa10 value="0.0198260225" flag="0"/>
      <psa30 value="0.0010198203" flag="0"/>
    </comp>
  </station>
  <station code="IPPL" name="IPPL" netid="HC" insttype="60" lat="35.3486" lon="24.4632">
    <comp name="--.HHZ">
      <acc value="0.0237163196" flag="0"/>
      <vel value="0.0089240676" flag="0"/>
      <psa03 value="0.0539898368" flag="0"/>
      <psa10 value="0.0097558336" flag="0"/>
      <psa30 value="0.0005305835" flag="0"/>
    </comp>
    <comp name="--.HHN">
      <acc value="0.0298061256" flag="0"/>
      <vel value="0.0161010289" flag="0"/>
      <psa03 value="0.0899178553" flag="0"/>
      <psa10 value="0.0232552018" flag="0"/>
      <psa30 value="0.0013302686" flag="0"/>
    </comp>
    <comp name="--.HHE">
      <acc value="0.0279303981" flag="0"/>
      <vel value="0.0131154393" flag="0"/>
      <psa03 value="0.0774050189" flag="0"/>
      <psa10 value="0.0149479598" flag="0"/>
      <psa30 value="0.0009772996" flag="0"/>
    </comp>
  </station>
  <station code="KNSS" name="KNSS" netid="HC" insttype="60" lat="35.3042" lon="25.1802">
    <comp name="--.HHZ">
      <acc value="0.0868336541" flag="0"/>
      <vel value="0.0201718027" flag="0"/>
      <psa03 value="0.1121653914" flag="0"/>
      <psa10 value="0.0092866725" flag="0"/>
      <psa30 value="0.0014624345" flag="0"/>
    </comp>
    <comp name="--.HHN">
      <acc value="0.0936208741" flag="0"/>
      <vel value="0.0258457685" flag="0"/>
      <psa03 value="0.1286899473" flag="0"/>
      <psa10 value="0.0145733063" flag="0"/>
      <psa30 value="0.0031830030" flag="0"/>
    </comp>
    <comp name="--.HHE">
      <acc value="0.0829404446" flag="0"/>
      <vel value="0.0281190974" flag="0"/>
      <psa03 value="0.1308805696" flag="0"/>
      <psa10 value="0.0215484454" flag="0"/>
      <psa30 value="0.0018449782" flag="0"/>
    </comp>
  </station>
  <station code="PFKS" name="PFKS" netid="HC" insttype="120" lat="35.0429" lon="25.4733">
    <comp name="--.HHN">
      <acc value="0.1456589370" flag="0"/>
      <vel value="0.0290724651" flag="0"/>
      <psa03 value="0.0816535887" flag="0"/>
      <psa10 value="0.0170357530" flag="0"/>
      <psa30 value="0.0015092755" flag="0"/>
    </comp>
    <comp name="--.HHZ">
      <acc value="0.0605712394" flag="0"/>
      <vel value="0.0181152366" flag="0"/>
      <psa03 value="0.0533228229" flag="0"/>
      <psa10 value="0.0148221433" flag="0"/>
      <psa30 value="0.0016728005" flag="0"/>
    </comp>
    <comp name="--.HHE">
      <acc value="0.0913562146" flag="0"/>
      <vel value="0.0235909582" flag="0"/>
      <psa03 value="0.1215294665" flag="0"/>
      <psa10 value="0.0219385808" flag="0"/>
      <psa30 value="0.0025107621" flag="0"/>
    </comp>
  </station>
  <station code="STIA" name="STIA" netid="HC" insttype="120" lat="35.2021" lon="26.0909">
    <comp name="--.HHN">
      <acc value="0.0665257391" flag="0"/>
      <vel value="0.0364271516" flag="0"/>
      <psa03 value="0.1029456972" flag="0"/>
      <psa10 value="0.0391751229" flag="0"/>
      <psa30 value="0.0023004234" flag="0"/>
    </comp>
    <comp name="--.HHE">
      <acc value="0.0631624132" flag="0"/>
      <vel value="0.0323189035" flag="0"/>
      <psa03 value="0.0821610095" flag="0"/>
      <psa10 value="0.0509350000" flag="0"/>
      <psa30 value="0.0028177228" flag="0"/>
    </comp>
    <comp name="--.HHZ">
      <acc value="0.0835347824" flag="0"/>
      <vel value="0.0217732372" flag="0"/>
      <psa03 value="0.0669404002" flag="0"/>
      <psa10 value="0.0135215025" flag="0"/>
      <psa30 value="0.0020553107" flag="0"/>
    </comp>
  </station>
  <station code="TEFL" name="TEFL" netid="HC" insttype="GEOtiny," lat="35.0933" lon="25.1634">
    <comp name="--.HHE">
      <acc value="0.2744505243" flag="0"/>
      <vel value="0.0527152846" flag="0"/>
      <psa03 value="0.1395921874" flag="0"/>
      <psa10 value="0.0422768228" flag="0"/>
      <psa30 value="0.0029358634" flag="0"/>
    </comp>
    <comp name="--.HHN">
      <acc value="0.2075498344" flag="0"/>
      <vel value="0.0581024270" flag="0"/>
      <psa03 value="0.2225193985" flag="0"/>
      <psa10 value="0.0403211850" flag="0"/>
      <psa30 value="0.0036741977" flag="0"/>
    </comp>
    <comp name="--.HHZ">
      <acc value="0.1162121711" flag="0"/>
      <vel value="0.0215614443" flag="0"/>
      <psa03 value="0.1388110548" flag="0"/>
      <psa10 value="0.0170980765" flag="0"/>
      <psa30 value="0.0014565296" flag="0"/>
    </comp>
  </station>
  <station code="IACM" name="IACM" netid="HL" insttype="120" lat="35.3058" lon="25.0709">
    <comp name="--.HHE">
      <acc value="0.1969028958" flag="0"/>
      <vel value="0.0905470385" flag="0"/>
      <psa03 value="0.4938708789" flag="0"/>
      <psa10 value="0.1407421914" flag="0"/>
      <psa30 value="0.0056943235" flag="0"/>
    </comp>
    <comp name="--.HHN">
      <acc value="0.2187505577" flag="0"/>
      <vel value="0.0700780077" flag="0"/>
      <psa03 value="0.4558245800" flag="0"/>
      <psa10 value="0.0734245158" flag="0"/>
      <psa30 value="0.0045146265" flag="0"/>
    </comp>
    <comp name="--.HHZ">
      <acc value="0.2669790900" flag="0"/>
      <vel value="0.0568394496" flag="0"/>
      <psa03 value="0.2603278738" flag="0"/>
      <psa10 value="0.0432911386" flag="0"/>
      <psa30 value="0.0018887922" flag="0"/>
    </comp>
  </station>
  <station code="NPS" name="NPS" netid="HL" insttype="CMG3ESPC-120s" lat="35.2613" lon="25.6104">
    <comp name="--.HHE">
      <acc value="0.0754668978" flag="0"/>
      <vel value="0.0204096500" flag="0"/>
      <psa03 value="0.0719157333" flag="0"/>
      <psa10 value="0.0189185138" flag="0"/>
      <psa30 value="0.0017264570" flag="0"/>
    </comp>
    <comp name="--.HHN">
      <acc value="0.1755812357" flag="0"/>
      <vel value="0.0377255253" flag="0"/>
      <psa03 value="0.1306165803" flag="0"/>
      <psa10 value="0.0367516056" flag="0"/>
      <psa30 value="0.0027055275" flag="0"/>
    </comp>
    <comp name="--.HHZ">
      <acc value="0.1430488849" flag="0"/>
      <vel value="0.0265131218" flag="0"/>
      <psa03 value="0.0980252805" flag="0"/>
      <psa10 value="0.0238729404" flag="0"/>
      <psa30 value="0.0032508415" flag="0"/>
    </comp>
  </station>
  <station code="SAP3" name="SAP3" netid="HL" insttype="LE3D20_SMART24" lat="36.4356" lon="25.3454">
    <comp name="--.HHE">
      <acc value="0.1362393000" flag="0"/>
      <vel value="0.0630540505" flag="0"/>
      <psa03 value="0.2800246591" flag="0"/>
      <psa10 value="0.0629009015" flag="0"/>
      <psa30 value="0.0089955576" flag="0"/>
    </comp>
    <comp name="--.HHN">
      <acc value="0.1023430720" flag="0"/>
      <vel value="0.0569494251" flag="0"/>
      <psa03 value="0.2178716573" flag="0"/>
      <psa10 value="0.0468151364" flag="0"/>
      <psa30 value="0.0066118707" flag="0"/>
    </comp>
    <comp name="--.HHZ">
      <acc value="0.0879935649" flag="0"/>
      <vel value="0.0304100583" flag="0"/>
      <psa03 value="0.1401125318" flag="0"/>
      <psa10 value="0.0200804895" flag="0"/>
      <psa30 value="0.0026363122" flag="0"/>
    </comp>
  </station>
  <station code="SIVA" name="SIVA" netid="HL" insttype="60" lat="35.0178" lon="24.812">
    <comp name="--.HHZ">
      <acc value="0.0217063572" flag="0"/>
      <vel value="0.0107665780" flag="0"/>
      <psa03 value="0.0402282757" flag="0"/>
      <psa10 value="0.0072608210" flag="0"/>
      <psa30 value="0.0009698861" flag="0"/>
    </comp>
    <comp name="--.HHN">
      <acc value="0.0445486235" flag="0"/>
      <vel value="0.0147871141" flag="0"/>
      <psa03 value="0.0618128166" flag="0"/>
      <psa10 value="0.0177369791" flag="0"/>
      <psa30 value="0.0013514351" flag="0"/>
    </comp>
    <comp name="--.HHE">
      <acc value="0.0385390937" flag="0"/>
      <vel value="0.0205386664" flag="0"/>
      <psa03 value="0.0967771444" flag="0"/>
      <psa10 value="0.0237194717" flag="0"/>
      <psa30 value="0.0012548101" flag="0"/>
    </comp>
  </station>
  <station code="THERA" name="THERA" netid="HL" insttype="120" lat="36.367" lon="25.4753">
    <comp name="--.HHE">
      <acc value="0.0435932883" flag="0"/>
      <vel value="0.0262332712" flag="0"/>
      <psa03 value="0.0991420576" flag="0"/>
      <psa10 value="0.0126965183" flag="0"/>
      <psa30 value="0.0015133749" flag="0"/>
    </comp>
    <comp name="--.HHZ">
      <acc value="0.0271600809" flag="0"/>
      <vel value="0.0159899974" flag="0"/>
      <psa03 value="0.0816044969" flag="0"/>
      <psa10 value="0.0123791368" flag="0"/>
      <psa30 value="0.0008872111" flag="0"/>
    </comp>
    <comp name="--.HHN">
      <acc value="0.0216364899" flag="0"/>
      <vel value="0.0085222431" flag="0"/>
      <psa03 value="0.0476656881" flag="0"/>
      <psa10 value="0.0071266830" flag="0"/>
      <psa30 value="0.0005791413" flag="0"/>
    </comp>
  </station>
  <station code="THRA" name="THRA" netid="HL" insttype="CMG-5" lat="36.415" lon="25.4324">
    <comp name="00.HNN">
      <acc value="0.1129536713" flag="0"/>
      <vel value="0.0639567522" flag="0"/>
      <psa03 value="0.3518713953" flag="0"/>
      <psa10 value="0.1117220919" flag="0"/>
      <psa30 value="0.0041053141" flag="0"/>
    </comp>
    <comp name="00.HNE">
      <acc value="0.1356218941" flag="0"/>
      <vel value="0.0729216077" flag="0"/>
      <psa03 value="0.3346927240" flag="0"/>
      <psa10 value="0.1254519614" flag="0"/>
      <psa30 value="0.0081084686" flag="0"/>
    </comp>
    <comp name="00.HNZ">
      <acc value="0.0905648308" flag="0"/>
      <vel value="0.0307141497" flag="0"/>
      <psa03 value="0.2075302074" flag="0"/>
      <psa10 value="0.0308357390" flag="0"/>
      <psa30 value="0.0023494113" flag="0"/>
    </comp>
  </station>
  <station code="ZKR" name="ZKR" netid="HL" insttype="120" lat="35.1147" lon="26.2169">
    <comp name="--.HHE">
      <acc value="0.0504808032" flag="0"/>
      <vel value="0.0182933826" flag="0"/>
      <psa03 value="0.0827869883" flag="0"/>
      <psa10 value="0.0255772784" flag="0"/>
      <psa30 value="0.0023071663" flag="0"/>
    </comp>
    <comp name="--.HHN">
      <acc value="0.0194388660" flag="0"/>
      <vel value="0.0130261197" flag="0"/>
      <psa03 value="0.0421803493" flag="0"/>
      <psa10 value="0.0145997175" flag="0"/>
      <psa30 value="0.0005797978" flag="0"/>
    </comp>
    <comp name="--.HHZ">
      <acc value="0.0426301940" flag="0"/>
      <vel value="0.0106042054" flag="0"/>
      <psa03 value="0.0424480027" flag="0"/>
      <psa10 value="0.0186763823" flag="0"/>
      <psa30 value="0.0010052844" flag="0"/>
    </comp>
  </station>
  <station code="CMBO" name="CMBO" netid="HT" insttype="120P," lat="36.4709" lon="25.4056">
    <comp name="--.HHE">
      <acc value="0.1086248691" flag="0"/>
      <vel value="0.0618625562" flag="0"/>
      <psa03 value="0.2409949952" flag="0"/>
      <psa10 value="0.0620958076" flag="0"/>
      <psa30 value="0.0048617187" flag="0"/>
    </comp>
    <comp name="--.HHN">
      <acc value="0.0957602465" flag="0"/>
      <vel value="0.0617285207" flag="0"/>
      <psa03 value="0.3040212967" flag="0"/>
      <psa10 value="0.0737961741" flag="0"/>
      <psa30 value="0.0032500620" flag="0"/>
    </comp>
    <comp name="--.HHZ">
      <acc value="0.1155959252" flag="0"/>
      <vel value="0.0448062281" flag="0"/>
      <psa03 value="0.2712471664" flag="0"/>
      <psa10 value="0.0217917541" flag="0"/>
      <psa30 value="0.0033587877" flag="0"/>
    </comp>
  </station>
</stationlist>
