<?xml version="1.0" encoding="UTF-8" standalone="yes"?>
<!DOCTYPE earthquake SYSTEM "stationlist.dtd">
<stationlist created="" xmlns="ch.ethz.sed.shakemap.usgs.xml">
  <station code="SNT5" name="SNT5" netid="HA" insttype="1s-100Hz," lat="36.4037" lon="25.3953">
    <comp name="--.HHN">
      <acc value="0.0788853401" flag="0"/>
      <vel value="0.0202683419" flag="0"/>
      <psa03 value="0.1174628861" flag="0"/>
      <psa10 value="0.0177561862" flag="0"/>
      <psa30 value="0.0027211819" flag="0"/>
    </comp>
    <comp name="--.HHZ">
      <acc value="0.0309401596" flag="0"/>
      <vel value="0.0130023800" flag="0"/>
      <psa03 value="0.0638448320" flag="0"/>
      <psa10 value="0.0115743320" flag="0"/>
      <psa30 value="0.0011152637" flag="0"/>
    </comp>
    <comp name="--.HHE">
      <acc value="0.1234077008" flag="0"/>
      <vel value="0.0429264129" flag="0"/>
      <psa03 value="0.2481461319" flag="0"/>
      <psa10 value="0.0284907093" flag="0"/>
      <psa30 value="0.0051742344" flag="0"/>
    </comp>
  </station>
  <station code="IMOD" name="IMOD" netid="HC" insttype="120" lat="34.9731" lon="24.7995">
    <comp name="--.HHE">
      <acc value="0.0206688056" flag="0"/>
      <vel value="0.0145210703" flag="0"/>
      <psa03 value="0.0704437607" flag="0"/>
      <psa10 value="0.0137376256" flag="0"/>
      <psa30 value="0.0013799228" flag="0"/>
    </comp>
    <comp name="--.HHN">
      <acc value="0.0219915948" flag="0"/>
      <vel value="0.0128142773" flag="0"/>
      <psa03 value="0.0588725067" flag="0"/>
      <psa10 value="0.0198260225" flag="0"/>
      <psa30 value="0.0010198183" flag="0"/>
    </comp>
    <comp name="--.HHZ">
      <acc value="0.0147338851" flag="0"/>
      <vel value="0.0094861550" flag="0"/>
      <psa03 value="0.0443610595" flag="0"/>
      <psa10 value="0.0071959560" flag="0"/>
      <psa30 value="0.0005967249" flag="0"/>
    </comp>
  </station>
  <station code="IPPL" name="IPPL" netid="HC" insttype="60" lat="35.3486" lon="24.4632">
    <comp name="--.HHZ">
      <acc value="0.0237163196" flag="0"/>
      <vel value="0.0089240669" flag="0"/>
      <psa03 value="0.0539898368" flag="0"/>
      <psa10 value="0.0097558336" flag="0"/>
      <psa30 value="0.0005305760" flag="0"/>
    </comp>
    <comp name="--.HHE">
      <acc value="0.0279303981" flag="0"/>
      <vel value="0.0131154391" flag="0"/>
      <psa03 value="0.0774050189" flag="0"/>
      <psa10 value="0.0149479598" flag="0"/>
      <psa30 value="0.0009772992" flag="0"/>
    </comp>
    <comp name="--.HHN">
      <acc value="0.0298061256" flag="0"/>
      <vel value="0.0161010287" flag="0"/>
      <psa03 value="0.0899178553" flag="0"/>
      <psa10 value="0.0232552018" flag="0"/>
      <psa30 value="0.0013302716" flag="0"/>
    </comp>
  </station>
  <station code="KNSS" name="KNSS" netid="HC" insttype="60" lat="35.3042" lon="25.1802">
    <comp name="--.HHZ">
      <acc value="0.0868336541" flag="0"/>
      <vel value="0.0201718028" flag="0"/>
      <psa03 value="0.1121653914" flag="0"/>
      <psa10 value="0.0092866725" flag="0"/>
      <psa30 value="0.0014624198" flag="0"/>
    </comp>
    <comp name="--.HHN">
      <acc value="0.0936208741" flag="0"/>
      <vel value="0.0258457681" flag="0"/>
      <psa03 value="0.1286899473" flag="0"/>
      <psa10 value="0.0145733063" flag="0"/>
      <psa30 value="0.0031829772" flag="0"/>
    </comp>
    <comp name="--.HHE">
      <acc value="0.0829404446" flag="0"/>
      <vel value="0.0281190986" flag="0"/>
      <psa03 value="0.1308805696" flag="0"/>
      <psa10 value="0.0215484453" flag="0"/>
      <psa30 value="0.0018449693" flag="0"/>
    </comp>
  </station>
  <station code="PFKS" name="PFKS" netid="HC" insttype="120" lat="35.0429" lon="25.4733">
    <comp name="--.HHE">
      <acc value="0.0913562145" flag="0"/>
      <vel value="0.0235909581" flag="0"/>
      <psa03 value="0.1215294665" flag="0"/>
      <psa10 value="0.0219385808" flag="0"/>
      <psa30 value="0.0025107640" flag="0"/>
    </comp>
    <comp name="--.HHZ">
      <acc value="0.0605712394" flag="0"/>
      <vel value="0.0181152364" flag="0"/>
      <psa03 value="0.0533228229" flag="0"/>
      <psa10 value="0.0148221433" flag="0"/>
      <psa30 value="0.0016727984" flag="0"/>
    </comp>
    <comp name="--.HHN">
      <acc value="0.1456589369" flag="0"/>
      <vel value="0.0290724649" flag="0"/>
      <psa03 value="0.0816535887" flag="0"/>
      <psa10 value="0.0170357530" flag="0"/>
      <psa30 value="0.0015092751" flag="0"/>
    </comp>
  </station>
  <station code="STIA" name="STIA" netid="HC" insttype="120" lat="35.2021" lon="26.0909">
    <comp name="--.HHZ">
      <acc value="0.0835347824" flag="0"/>
      <vel value="0.0217732369" flag="0"/>
      <psa03 value="0.0669404002" flag="0"/>
      <psa10 value="0.0135215025" flag="0"/>
      <psa30 value="0.0020553124" flag="0"/>
    </comp>
    <comp name="--.HHE">
      <acc value="0.0631624131" flag="0"/>
      <vel value="0.0323189037" flag="0"/>
      <psa03 value="0.0821610095" flag="0"/>
      <psa10 value="0.0509349999" flag="0"/>
      <psa30 value="0.0028177318" flag="0"/>
    </comp>
    <comp name="--.HHN">
      <acc value="0.0665257390" flag="0"/>
      <vel value="0.0364271525" flag="0"/>
      <psa03 value="0.1029456972" flag="0"/>
      <psa10 value="0.0391751225" flag="0"/>
      <psa30 value="0.0023004319" flag="0"/>
    </comp>
  </station>
  <station code="TEFL" name="TEFL" netid="HC" insttype="GEOtiny," lat="35.0933" lon="25.1634">
    <comp name="--.HHE">
      <acc value="0.2744505260" flag="0"/>
      <vel value="0.0527153874" flag="0"/>
      <psa03 value="0.1395921870" flag="0"/>
      <psa10 value="0.0422768221" flag="0"/>
      <psa30 value="0.0029358429" flag="0"/>
    </comp>
    <comp name="--.HHN">
      <acc value="0.2075498374" flag="0"/>
      <vel value="0.0581024663" flag="0"/>
      <psa03 value="0.2225193993" flag="0"/>
      <psa10 value="0.0403211841" flag="0"/>
      <psa30 value="0.0036741919" flag="0"/>
    </comp>
    <comp name="--.HHZ">
      <acc value="0.1162121729" flag="0"/>
      <vel value="0.0215609765" flag="0"/>
      <psa03 value="0.1388110549" flag="0"/>
      <psa10 value="0.0170980766" flag="0"/>
      <psa30 value="0.0014565326" flag="0"/>
    </comp>
  </station>
  <station code="IACM" name="IACM" netid="HL" insttype="120" lat="35.3058" lon="25.0709">
    <comp name="--.HHN">
      <acc value="0.2187505577" flag="0"/>
      <vel value="0.0700780091" flag="0"/>
      <psa03 value="0.4558245800" flag="0"/>
      <psa10 value="0.0734245157" flag="0"/>
      <psa30 value="0.0045146395" flag="0"/>
    </comp>
    <comp name="--.HHZ">
      <acc value="0.2669790900" flag="0"/>
      <vel value="0.0568394533" flag="0"/>
      <psa03 value="0.2603278738" flag="0"/>
      <psa10 value="0.0432911386" flag="0"/>
      <psa30 value="0.0018887829" flag="0"/>
    </comp>
    <comp name="--.HHE">
      <acc value="0.1969028959" flag="0"/>
      <vel value="0.0905470391" flag="0"/>
      <psa03 value="0.4938708789" flag="0"/>
      <psa10 value="0.1407421915" flag="0"/>
      <psa30 value="0.0056943078" flag="0"/>
    </comp>
  </station>
  <station code="NPS" name="NPS" netid="HL" insttype="CMG3ESPC-120s" lat="35.2613" lon="25.6104">
    <comp name="--.HHE">
      <acc value="0.0754668977" flag="0"/>
      <vel value="0.0204096500" flag="0"/>
      <psa03 value="0.0719157333" flag="0"/>
      <psa10 value="0.0189185138" flag="0"/>
      <psa30 value="0.0017264557" flag="0"/>
    </comp>
    <comp name="--.HHN">
      <acc value="0.1755812356" flag="0"/>
      <vel value="0.0377255255" flag="0"/>
      <psa03 value="0.1306165803" flag="0"/>
      <psa10 value="0.0367516056" flag="0"/>
      <psa30 value="0.0027055214" flag="0"/>
    </comp>
    <comp name="--.HHZ">
      <acc value="0.1430488851" flag="0"/>
      <vel value="0.0265131217" flag="0"/>
      <psa03 value="0.0980252805" flag="0"/>
      <psa10 value="0.0238729403" flag="0"/>
      <psa30 value="0.0032508613" flag="0"/>
    </comp>
  </station>
  <station code="SAP3" name="SAP3" netid="HL" insttype="LE3D20_SMART24" lat="36.4356" lon="25.3454">
    <comp name="--.HHE">
      <acc value="0.1362392997" flag="0"/>
      <vel value="0.0630540417" flag="0"/>
      <psa03 value="0.2800246591" flag="0"/>
      <psa10 value="0.0629009024" flag="0"/>
      <psa30 value="0.0089941926" flag="0"/>
    </comp>
    <comp name="--.HHZ">
      <acc value="0.0879935652" flag="0"/>
      <vel value="0.0304100340" flag="0"/>
      <psa03 value="0.1401125318" flag="0"/>
      <psa10 value="0.0200804895" flag="0"/>
      <psa30 value="0.0026373122" flag="0"/>
    </comp>
    <comp name="--.HHN">
      <acc value="0.1023430728" flag="0"/>
      <vel value="0.0569494633" flag="0"/>
      <psa03 value="0.2178716574" flag="0"/>
      <psa10 value="0.0468151407" flag="0"/>
      <psa30 value="0.0066112956" flag="0"/>
    </comp>
  </station>
  <station code="SIVA" name="SIVA" netid="HL" insttype="60" lat="35.0178" lon="24.812">
    <comp name="--.HHE">
      <acc value="0.0385390937" flag="0"/>
      <vel value="0.0205386664" flag="0"/>
      <psa03 value="0.0967771444" flag="0"/>
      <psa10 value="0.0237194717" flag="0"/>
      <psa30 value="0.0012548022" flag="0"/>
    </comp>
    <comp name="--.HHN">
      <acc value="0.0445486235" flag="0"/>
      <vel value="0.0147871138" flag="0"/>
      <psa03 value="0.0618128166" flag="0"/>
      <psa10 value="0.0177369792" flag="0"/>
      <psa30 value="0.0013514356" flag="0"/>
    </comp>
    <comp name="--.HHZ">
      <acc value="0.0217063573" flag="0"/>
      <vel value="0.0107665777" flag="0"/>
      <psa03 value="0.0402282757" flag="0"/>
      <psa10 value="0.0072608210" flag="0"/>
      <psa30 value="0.0009698875" flag="0"/>
    </comp>
  </station>
  <station code="THERA" name="THERA" netid="HL" insttype="120" lat="36.367" lon="25.4753">
    <comp name="--.HHZ">
      <acc value="0.0271600802" flag="0"/>
      <vel value="0.0159899983" flag="0"/>
      <psa03 value="0.0816044969" flag="0"/>
      <psa10 value="0.0123791368" flag="0"/>
      <psa30 value="0.0008872577" flag="0"/>
    </comp>
    <comp name="--.HHN">
      <acc value="0.0216364899" flag="0"/>
      <vel value="0.0085222430" flag="0"/>
      <psa03 value="0.0476656881" flag="0"/>
      <psa10 value="0.0071266829" flag="0"/>
      <psa30 value="0.0005790871" flag="0"/>
    </comp>
    <comp name="--.HHE">
      <acc value="0.0435932878" flag="0"/>
      <vel value="0.0262332724" flag="0"/>
      <psa03 value="0.0991420576" flag="0"/>
      <psa10 value="0.0126965175" flag="0"/>
      <psa30 value="0.0015132097" flag="0"/>
    </comp>
  </station>
  <station code="THRA" name="THRA" netid="HL" insttype="CMG-5" lat="36.415" lon="25.4324">
    <comp name="00.HNE">
      <acc value="0.1356218912" flag="0"/>
      <vel value="0.0729216069" flag="0"/>
      <psa03 value="0.3346927240" flag="0"/>
      <psa10 value="0.1254519641" flag="0"/>
      <psa30 value="0.0081087275" flag="0"/>
    </comp>
    <comp name="00.HNN">
      <acc value="0.1129536709" flag="0"/>
      <vel value="0.0639567523" flag="0"/>
      <psa03 value="0.3518713953" flag="0"/>
      <psa10 value="0.1117220921" flag="0"/>
      <psa30 value="0.0041049291" flag="0"/>
    </comp>
    <comp name="00.HNZ">
      <acc value="0.0905648315" flag="0"/>
      <vel value="0.0307141489" flag="0"/>
      <psa03 value="0.2075302074" flag="0"/>
      <psa10 value="0.0308357392" flag="0"/>
      <psa30 value="0.0023491515" flag="0"/>
    </comp>
  </station>
  <station code="ZKR" name="ZKR" netid="HL" insttype="120" lat="35.1147" lon="26.2169">
    <comp name="--.HHE">
      <acc value="0.0504808030" flag="0"/>
      <vel value="0.0182933825" flag="0"/>
      <psa03 value="0.0827869883" flag="0"/>
      <psa10 value="0.0255772782" flag="0"/>
      <psa30 value="0.0023071451" flag="0"/>
    </comp>
    <comp name="--.HHN">
      <acc value="0.0194388659" flag="0"/>
      <vel value="0.0130261197" flag="0"/>
      <psa03 value="0.0421803493" flag="0"/>
      <psa10 value="0.0145997175" flag="0"/>
      <psa30 value="0.0005798204" flag="0"/>
    </comp>
    <comp name="--.HHZ">
      <acc value="0.0426301939" flag="0"/>
      <vel value="0.0106042055" flag="0"/>
      <psa03 value="0.0424480027" flag="0"/>
      <psa10 value="0.0186763823" flag="0"/>
      <psa30 value="0.0010052994" flag="0"/>
    </comp>
  </station>
  <station code="CMBO" name="CMBO" netid="HT" insttype="120P," lat="36.4709" lon="25.4056">
    <comp name="--.HHN">
      <acc value="0.0957602466" flag="0"/>
      <vel value="0.0617285216" flag="0"/>
      <psa03 value="0.3040212967" flag="0"/>
      <psa10 value="0.0737961719" flag="0"/>
      <psa30 value="0.0032491265" flag="0"/>
    </comp>
    <comp name="--.HHE">
      <acc value="0.1086248688" flag="0"/>
      <vel value="0.0618625558" flag="0"/>
      <psa03 value="0.2409949952" flag="0"/>
      <psa10 value="0.0620958057" flag="0"/>
      <psa30 value="0.0048619918" flag="0"/>
    </comp>
    <comp name="--.HHZ">
      <acc value="0.1155959254" flag="0"/>
      <vel value="0.0448062261" flag="0"/>
      <psa03 value="0.2712471664" flag="0"/>
      <psa10 value="0.0217917547" flag="0"/>
      <psa30 value="0.0033586834" flag="0"/>
    </comp>
  </station>
</stationlist>
