<?xml version="1.0" encoding="UTF-8" standalone="yes"?>
<!DOCTYPE earthquake SYSTEM "stationlist.dtd">
<stationlist created="" xmlns="ch.ethz.sed.shakemap.usgs.xml">
  <station code="AGRB" name="AGRB" netid="KO" insttype="CMG-3T" lat="39.5755" lon="42.992">
    <comp name="--.HHE">
      <acc value="0.0930002352" flag="0"/>
      <vel value="0.0308765745" flag="0"/>
      <psa03 value="0.1365259450" flag="0"/>
      <psa10 value="0.0238474876" flag="0"/>
      <psa30 value="0.0011601747" flag="0"/>
    </comp>
    <comp name="--.HHN">
      <acc value="0.0637321819" flag="0"/>
      <vel value="0.0195657870" flag="0"/>
      <psa03 value="0.1225720073" flag="0"/>
      <psa10 value="0.0217741090" flag="0"/>
      <psa30 value="0.0011170187" flag="0"/>
    </comp>
    <comp name="--.HHZ">
      <acc value="0.0776336070" flag="0"/>
      <vel value="0.0160199195" flag="0"/>
      <psa03 value="0.1010444560" flag="0"/>
      <psa10 value="0.0107371413" flag="0"/>
      <psa30 value="0.0005654724" flag="0"/>
    </comp>
  </station>
  <station code="CLDR" name="CLDR" netid="KO" insttype="CMG-3ESP" lat="39.144" lon="43.9172">
    <comp name="--.HHE">
      <acc value="0.0326010670" flag="0"/>
      <vel value="0.0128195416" flag="0"/>
      <psa03 value="0.0653493099" flag="0"/>
      <psa10 value="0.0122928152" flag="0"/>
      <psa30 value="0.0032280385" flag="0"/>
    </comp>
    <comp name="--.HHZ">
      <acc value="0.0230121483" flag="0"/>
      <vel value="0.0070896399" flag="0"/>
      <psa03 value="0.0373404213" flag="0"/>
      <psa10 value="0.0051073196" flag="0"/>
      <psa30 value="0.0008187370" flag="0"/>
    </comp>
    <comp name="--.HHN">
      <acc value="0.0273433407" flag="0"/>
      <vel value="0.0108866928" flag="0"/>
      <psa03 value="0.0608280832" flag="0"/>
      <psa10 value="0.0131640611" flag="0"/>
      <psa30 value="0.0016258249" flag="0"/>
    </comp>
  </station>
  <station code="KARS" name="KARS" netid="KO" insttype="CMG-3T" lat="40.6152" lon="43.0937">
    <comp name="--.HHE">
      <acc value="0.0088003002" flag="0"/>
      <vel value="0.0040477063" flag="0"/>
      <psa03 value="0.0163666456" flag="0"/>
      <psa10 value="0.0083840306" flag="0"/>
      <psa30 value="0.0009671772" flag="0"/>
    </comp>
    <comp name="--.HHN">
      <acc value="0.0076290812" flag="0"/>
      <vel value="0.0044084123" flag="0"/>
      <psa03 value="0.0135575500" flag="0"/>
      <psa10 value="0.0052927679" flag="0"/>
      <psa30 value="0.0008360037" flag="0"/>
    </comp>
    <comp name="--.HHZ">
      <acc value="0.0050763296" flag="0"/>
      <vel value="0.0041004434" flag="0"/>
      <psa03 value="0.0109747810" flag="0"/>
      <psa10 value="0.0068849895" flag="0"/>
      <psa30 value="0.0009274304" flag="0"/>
    </comp>
  </station>
  <station code="TASB" name="TASB" netid="KO" insttype="CMG-3T" lat="39.9838" lon="44.2384">
    <comp name="--.HHZ">
      <acc value="0.0256362420" flag="0"/>
      <vel value="0.0091785549" flag="0"/>
      <psa03 value="0.0471653617" flag="0"/>
      <psa10 value="0.0089130221" flag="0"/>
      <psa30 value="0.0015291610" flag="0"/>
    </comp>
    <comp name="--.HHN">
      <acc value="0.0335351138" flag="0"/>
      <vel value="0.0227535948" flag="0"/>
      <psa03 value="0.0921729146" flag="0"/>
      <psa10 value="0.0298538736" flag="0"/>
      <psa30 value="0.0016749625" flag="0"/>
    </comp>
    <comp name="--.HHE">
      <acc value="0.0177427423" flag="0"/>
      <vel value="0.0194104723" flag="0"/>
      <psa03 value="0.0763884271" flag="0"/>
      <psa10 value="0.0348902474" flag="0"/>
      <psa30 value="0.0029130575" flag="0"/>
    </comp>
  </station>
  <station code="VANB" name="VANB" netid="KO" insttype="CMG-3T" lat="38.509" lon="43.4056">
    <comp name="--.HHZ">
      <acc value="0.0009788515" flag="0"/>
      <vel value="0.0011646684" flag="0"/>
      <psa03 value="0.0019199804" flag="0"/>
      <psa10 value="0.0023246922" flag="0"/>
      <psa30 value="0.0004481798" flag="0"/>
    </comp>
    <comp name="--.HHE">
      <acc value="0.0018195843" flag="0"/>
      <vel value="0.0018957903" flag="0"/>
      <psa03 value="0.0033204300" flag="0"/>
      <psa10 value="0.0037685627" flag="0"/>
      <psa30 value="0.0003904027" flag="0"/>
    </comp>
    <comp name="--.HHN">
      <acc value="0.0012709243" flag="0"/>
      <vel value="0.0015015332" flag="0"/>
      <psa03 value="0.0026850789" flag="0"/>
      <psa10 value="0.0037102300" flag="0"/>
      <psa30 value="0.0003727935" flag="0"/>
    </comp>
  </station>
</stationlist>
