<?xml version="1.0" encoding="UTF-8" standalone="yes"?>
<!DOCTYPE earthquake SYSTEM "stationlist.dtd">
<stationlist created="" xmlns="ch.ethz.sed.shakemap.usgs.xml">
  <station code="OSTC" name="OSTC" netid="CZ" insttype="" lat="50.5565" lon="16.2156">
    <comp name="--.HHZ">
      <acc value="0.0149747851" flag="0"/>
      <vel value="0.0065402727" flag="0"/>
      <psa03 value="0.0266412359" flag="0"/>
      <psa10 value="0.0064789006" flag="0"/>
      <psa30 value="0.0013186192" flag="0"/>
    </comp>
    <comp name="--.HHN">
      <acc value="0.0148839018" flag="0"/>
      <vel value="0.0117211949" flag="0"/>
      <psa03 value="0.0322047805" flag="0"/>
      <psa10 value="0.0136984142" flag="0"/>
      <psa30 value="0.0008906049" flag="0"/>
    </comp>
    <comp name="--.HHE">
      <acc value="0.0136865319" flag="0"/>
      <vel value="0.0059884898" flag="0"/>
      <psa03 value="0.0334401075" flag="0"/>
      <psa10 value="0.0063778201" flag="0"/>
      <psa30 value="0.0007495167" flag="0"/>
    </comp>
  </station>
  <station code="UPC" name="UPC" netid="CZ" insttype="" lat="50.5074" lon="16.0121">
    <comp name="--.HHE">
      <acc value="0.0047720330" flag="0"/>
      <vel value="0.0015890404" flag="0"/>
      <psa03 value="0.0072322117" flag="0"/>
      <psa10 value="0.0006837005" flag="0"/>
      <psa30 value="0.0000856412" flag="0"/>
    </comp>
    <comp name="--.HHZ">
      <acc value="0.0114827958" flag="0"/>
      <vel value="0.0039174624" flag="0"/>
      <psa03 value="0.0220033437" flag="0"/>
      <psa10 value="0.0013335396" flag="0"/>
      <psa30 value="0.0000879754" flag="0"/>
    </comp>
    <comp name="--.HHN">
      <acc value="0.0134951120" flag="0"/>
      <vel value="0.0048754504" flag="0"/>
      <psa03 value="0.0233350459" flag="0"/>
      <psa10 value="0.0012432823" flag="0"/>
      <psa30 value="0.0001190660" flag="0"/>
    </comp>
  </station>
</stationlist>
