<stationlist created="1738672321">
	<station code="BODA" name="BODA" netid="KO" source="Bogazici University Kandilli Observatory And Earthquake Research Institute (KOERI)" insttype="" lat="37.0348" lon="27.4304">
		<comp name=".HNE" depth="0.0">
			<acc value="0.0033421993543026" flag="0"/>
			<vel value="0.000515123775012" flag="0"/>
			<psa03 value="0.00275389402050339" flag="0"/>
			<psa10 value="0.000337296436030276" flag="0"/>
			<psa30 value="6.37956128648866e-05" flag="0"/>
		</comp>
		<comp name=".HNN" depth="0.0">
			<acc value="0.005493418933179" flag="0"/>
			<vel value="0.000776660884254" flag="0"/>
			<psa03 value="0.00229778014634349" flag="0"/>
			<psa10 value="0.000257651941223493" flag="0"/>
			<psa30 value="7.25552035616256e-05" flag="0"/>
		</comp>
		<comp name=".HNZ" depth="0.0">
			<acc value="0.01461384652734" flag="0"/>
			<vel value="0.00174162119187" flag="0"/>
			<psa03 value="0.00111576816872203" flag="0"/>
			<psa10 value="0.000231503890684146" flag="0"/>
			<psa30 value="9.35475968089204e-05" flag="0"/>
		</comp>
	</station>
	<station code="BODM" name="BODM" netid="KO" source="Bogazici University Kandilli Observatory And Earthquake Research Institute (KOERI)" insttype="" lat="37.031" lon="27.4247">
		<comp name=".HNE" depth="0.0">
			<acc value="0.0017619844795452" flag="0"/>
			<vel value="0.000899267344794" flag="0"/>
			<psa03 value="0.00321339711658197" flag="0"/>
			<psa10 value="0.000346464416411151" flag="0"/>
			<psa30 value="9.72318382676896e-05" flag="0"/>
		</comp>
		<comp name=".HNN" depth="0.0">
			<acc value="0.0018825349598532" flag="0"/>
			<vel value="0.00118603230549" flag="0"/>
			<psa03 value="0.00380654513368225" flag="0"/>
			<psa10 value="0.000444274470065926" flag="0"/>
			<psa30 value="0.000144556672524091" flag="0"/>
		</comp>
		<comp name=".HNZ" depth="0.0">
			<acc value="0.0015624664104024" flag="0"/>
			<vel value="0.000269755043014" flag="0"/>
			<psa03 value="0.000980227614306373" flag="0"/>
			<psa10 value="0.000255689711626016" flag="0"/>
			<psa30 value="0.000130364729773389" flag="0"/>
		</comp>
	</station>
	<station code="CESE" name="CESE" netid="KO" source="Bogazici University Kandilli Observatory And Earthquake Research Institute (KOERI)" insttype="" lat="38.3306" lon="26.2997">
		<comp name=".HNE" depth="0.0">
			<acc value="0.0023915560084068" flag="0"/>
			<vel value="0.000877114356929" flag="0"/>
			<psa03 value="0.000726996809060245" flag="0"/>
			<psa10 value="0.00054822643449654" flag="0"/>
			<psa30 value="0.000378976641800807" flag="0"/>
		</comp>
		<comp name=".HNN" depth="0.0">
			<acc value="0.0035398538205624" flag="0"/>
			<vel value="0.0021587536815" flag="0"/>
			<psa03 value="0.000970431636592996" flag="0"/>
			<psa10 value="0.000869417106333436" flag="0"/>
			<psa30 value="0.000756368178595218" flag="0"/>
		</comp>
		<comp name=".HNZ" depth="0.0">
			<acc value="0.00066652949340606" flag="0"/>
			<vel value="0.000663020373506" flag="0"/>
			<psa03 value="0.000657406749838575" flag="0"/>
			<psa10 value="0.000474402061573261" flag="0"/>
			<psa30 value="0.000332588308384759" flag="0"/>
		</comp>
	</station>
	<station code="DATC" name="DATC" netid="KO" source="Bogazici University Kandilli Observatory And Earthquake Research Institute (KOERI)" insttype="" lat="36.7584" lon="27.6602">
		<comp name=".HNE" depth="0.0">
			<acc value="0.0015386092574904" flag="0"/>
			<vel value="0.000593858894522" flag="0"/>
			<psa03 value="0.00236615056096768" flag="0"/>
			<psa10 value="0.0004316770339836" flag="0"/>
			<psa30 value="0.000296046434540224" flag="0"/>
		</comp>
		<comp name=".HNN" depth="0.0">
			<acc value="0.0019592653276692" flag="0"/>
			<vel value="0.0010429082121" flag="0"/>
			<psa03 value="0.00350441313975522" flag="0"/>
			<psa10 value="0.000487710286930515" flag="0"/>
			<psa30 value="0.000307878806918133" flag="0"/>
		</comp>
		<comp name=".HNZ" depth="0.0">
			<acc value="0.011562768856266" flag="0"/>
			<vel value="0.00135911421528" flag="0"/>
			<psa03 value="0.00382161286361748" flag="0"/>
			<psa10 value="0.000900993963771875" flag="0"/>
			<psa30 value="0.000391497471244288" flag="0"/>
		</comp>
	</station>
	<station code="DIDI" name="DIDI" netid="KO" source="Bogazici University Kandilli Observatory And Earthquake Research Institute (KOERI)" insttype="" lat="37.3767" lon="27.2398">
		<comp name=".HNE" depth="0.0">
			<acc value="0.017887884693018" flag="0"/>
			<vel value="0.00162315913059" flag="0"/>
			<psa03 value="0.00842031887249064" flag="0"/>
			<psa10 value="0.000859514047962721" flag="0"/>
			<psa30 value="0.000626587341671806" flag="0"/>
		</comp>
		<comp name=".HNN" depth="0.0">
			<acc value="0.013731513715776" flag="0"/>
			<vel value="0.0012901024254" flag="0"/>
			<psa03 value="0.00632152944738229" flag="0"/>
			<psa10 value="0.000713640517368315" flag="0"/>
			<psa30 value="0.000273022435354557" flag="0"/>
		</comp>
		<comp name=".HNZ" depth="0.0">
			<acc value="0.02902008851391" flag="0"/>
			<vel value="0.00291111250898" flag="0"/>
			<psa03 value="0.00395148865475152" flag="0"/>
			<psa10 value="0.000639513223986503" flag="0"/>
			<psa30 value="0.000348667915246667" flag="0"/>
		</comp>
	</station>
	<station code="GMLD" name="GMLD" netid="KO" source="Bogazici University Kandilli Observatory And Earthquake Research Institute (KOERI)" insttype="" lat="38.0766" lon="26.9157">
		<comp name=".HNE" depth="0.0">
			<acc value="0.0039277773197232" flag="0"/>
			<vel value="0.00149422735757" flag="0"/>
			<psa03 value="0.00597335924739995" flag="0"/>
			<psa10 value="0.000520486725786055" flag="0"/>
			<psa30 value="0.000481455956595861" flag="0"/>
		</comp>
		<comp name=".HNN" depth="0.0">
			<acc value="0.0021005597067096" flag="0"/>
			<vel value="0.00154836592854" flag="0"/>
			<psa03 value="0.00636312399967595" flag="0"/>
			<psa10 value="0.000761784859038971" flag="0"/>
			<psa30 value="0.00029191186377004" flag="0"/>
		</comp>
		<comp name=".HNZ" depth="0.0">
			<acc value="0.0034662781912746" flag="0"/>
			<vel value="0.00102322489691" flag="0"/>
			<psa03 value="0.00453764695102403" flag="0"/>
			<psa10 value="0.000695658017522995" flag="0"/>
			<psa30 value="0.000314637874465062" flag="0"/>
		</comp>
	</station>
	<station code="KUSD" name="KUSD" netid="KO" source="Bogazici University Kandilli Observatory And Earthquake Research Institute (KOERI)" insttype="" lat="37.8606" lon="27.2868">
		<comp name=".HNE" depth="0.0">
			<acc value="0.0055842522986712" flag="0"/>
			<vel value="0.000649911514745" flag="0"/>
			<psa03 value="0.00141393058002483" flag="0"/>
			<psa10 value="0.000382331265069755" flag="0"/>
			<psa30 value="0.000321490776352934" flag="0"/>
		</comp>
		<comp name=".HNN" depth="0.0">
			<acc value="0.0087764732692314" flag="0"/>
			<vel value="0.000815745376278" flag="0"/>
			<psa03 value="0.00170480417840107" flag="0"/>
			<psa10 value="0.000389129176335744" flag="0"/>
			<psa30 value="0.000337340420063738" flag="0"/>
		</comp>
		<comp name=".HNZ" depth="0.0">
			<acc value="0.0027208065267636" flag="0"/>
			<vel value="0.00059190789149" flag="0"/>
			<psa03 value="0.000961518611253815" flag="0"/>
			<psa10 value="0.000472965745721743" flag="0"/>
			<psa30 value="0.000306536660715946" flag="0"/>
		</comp>
	</station>
	<station code="YKAV" name="YKAV" netid="KO" source="Bogazici University Kandilli Observatory And Earthquake Research Institute (KOERI)" insttype="" lat="37.1246" lon="27.2801">
		<comp name=".HNE" depth="0.0">
			<acc value="0.001264724147802" flag="0"/>
			<vel value="0.000558606299584" flag="0"/>
			<psa03 value="0.00133167008509936" flag="0"/>
			<psa10 value="0.000456323490910664" flag="0"/>
			<psa30 value="0.000210477523832172" flag="0"/>
		</comp>
		<comp name=".HNN" depth="0.0">
			<acc value="0.0007822616003979" flag="0"/>
			<vel value="0.000588876909988" flag="0"/>
			<psa03 value="0.00103682568331225" flag="0"/>
			<psa10 value="0.000382892015107407" flag="0"/>
			<psa30 value="0.000276421410520366" flag="0"/>
		</comp>
		<comp name=".HNZ" depth="0.0">
			<acc value="0.00100567787087574" flag="0"/>
			<vel value="0.000664047683015" flag="0"/>
			<psa03 value="0.00167561230317637" flag="0"/>
			<psa10 value="0.000523693715574992" flag="0"/>
			<psa30 value="0.000357056804302659" flag="0"/>
		</comp>
	</station>
</stationlist>
