<?xml version="1.0" encoding="UTF-8" standalone="yes"?>
<!DOCTYPE earthquake SYSTEM "stationlist.dtd">
<stationlist created="" xmlns="ch.ethz.sed.shakemap.usgs.xml">
  <station code="IDI" name="IDI" netid="MN" insttype="" lat="35.288" lon="24.89">
    <comp name="--.HHZ">
      <acc value="0.0585594136" flag="0"/>
      <vel value="0.0258335472" flag="0"/>
      <psa03 value="0.1424691972" flag="0"/>
      <psa10 value="0.0218059051" flag="0"/>
      <psa30 value="0.0032996383" flag="0"/>
    </comp>
    <comp name="--.HHE">
      <acc value="0.1078830063" flag="0"/>
      <vel value="0.0728161516" flag="0"/>
      <psa03 value="0.2397367839" flag="0"/>
      <psa10 value="0.0499201311" flag="0"/>
      <psa30 value="0.0045982186" flag="0"/>
    </comp>
    <comp name="--.HHN">
      <acc value="0.1076043185" flag="0"/>
      <vel value="0.0349380679" flag="0"/>
      <psa03 value="0.1796754157" flag="0"/>
      <psa10 value="0.0268740535" flag="0"/>
      <psa30 value="0.0028988766" flag="0"/>
    </comp>
  </station>
</stationlist>
