<?xml version="1.0" encoding="UTF-8" standalone="yes"?>
<!DOCTYPE earthquake SYSTEM "stationlist.dtd">
<stationlist created="" xmlns="ch.ethz.sed.shakemap.usgs.xml">
  <station code="IMMV" name="IMMV" netid="GE" insttype="STS-2/N" lat="35.4606" lon="23.9811">
    <comp name="--.HHN">
      <acc value="0.0438706977" flag="0"/>
      <vel value="0.0323883961" flag="0"/>
      <psa03 value="0.1534906072" flag="0"/>
      <psa10 value="0.0283543030" flag="0"/>
      <psa30 value="0.0047277109" flag="0"/>
    </comp>
    <comp name="--.HHE">
      <acc value="0.0483540246" flag="0"/>
      <vel value="0.0349069101" flag="0"/>
      <psa03 value="0.1796575544" flag="0"/>
      <psa10 value="0.0486764523" flag="0"/>
      <psa30 value="0.0054433185" flag="0"/>
    </comp>
    <comp name="--.HHZ">
      <acc value="0.0318740692" flag="0"/>
      <vel value="0.0186330933" flag="0"/>
      <psa03 value="0.1390161412" flag="0"/>
      <psa10 value="0.0295317313" flag="0"/>
      <psa30 value="0.0018144920" flag="0"/>
    </comp>
  </station>
  <station code="ZKR" name="ZKR" netid="GE" insttype="STS-2/N" lat="35.1147" lon="26.2169">
    <comp name="--.HHN">
      <acc value="0.0076434842" flag="0"/>
      <vel value="0.0054007186" flag="0"/>
      <psa03 value="0.0346785632" flag="0"/>
      <psa10 value="0.0073521283" flag="0"/>
      <psa30 value="0.0009238161" flag="0"/>
    </comp>
    <comp name="--.HHE">
      <acc value="0.0113747761" flag="0"/>
      <vel value="0.0094421245" flag="0"/>
      <psa03 value="0.0648140445" flag="0"/>
      <psa10 value="0.0186749281" flag="0"/>
      <psa30 value="0.0021154849" flag="0"/>
    </comp>
    <comp name="--.HHZ">
      <acc value="0.0074608465" flag="0"/>
      <vel value="0.0073872503" flag="0"/>
      <psa03 value="0.0320439966" flag="0"/>
      <psa10 value="0.0145171916" flag="0"/>
      <psa30 value="0.0019616240" flag="0"/>
    </comp>
  </station>
  <station code="CHAN" name="CHAN" netid="HC" insttype="120" lat="35.5193" lon="24.0428">
    <comp name="--.HHN">
      <acc value="0.0835980387" flag="0"/>
      <vel value="0.0671419575" flag="0"/>
      <psa03 value="0.1152988862" flag="0"/>
      <psa10 value="0.1070948038" flag="0"/>
      <psa30 value="0.0103421161" flag="0"/>
    </comp>
    <comp name="--.HHE">
      <acc value="0.0511895948" flag="0"/>
      <vel value="0.0603428078" flag="0"/>
      <psa03 value="0.1669323543" flag="0"/>
      <psa10 value="0.1106612855" flag="0"/>
      <psa30 value="0.0096721696" flag="0"/>
    </comp>
    <comp name="--.HHZ">
      <acc value="0.0421624710" flag="0"/>
      <vel value="0.0377065821" flag="0"/>
      <psa03 value="0.0887495620" flag="0"/>
      <psa10 value="0.0854248581" flag="0"/>
      <psa30 value="0.0049706756" flag="0"/>
    </comp>
  </station>
  <station code="IPPL" name="IPPL" netid="HC" insttype="60" lat="35.3486" lon="24.4632">
    <comp name="--.HHN">
      <acc value="0.0000000000" flag="0"/>
      <vel value="-100.0000000000" flag="0"/>
      <psa03 value="0.0000000000" flag="0"/>
      <psa10 value="0.0000000000" flag="0"/>
      <psa30 value="0.0000000000" flag="0"/>
    </comp>
    <comp name="--.HHE">
      <acc value="0.0000000000" flag="0"/>
      <vel value="-100.0000000000" flag="0"/>
      <psa03 value="0.0000000000" flag="0"/>
      <psa10 value="0.0000000000" flag="0"/>
      <psa30 value="0.0000000000" flag="0"/>
    </comp>
    <comp name="--.HHZ">
      <acc value="0.0593424069" flag="0"/>
      <vel value="0.0316166475" flag="0"/>
      <psa03 value="0.1867492454" flag="0"/>
      <psa10 value="0.0227264883" flag="0"/>
      <psa30 value="0.0030907340" flag="0"/>
    </comp>
  </station>
  <station code="KNDR" name="KNDR" netid="HC" insttype="120" lat="35.2348" lon="23.6248">
    <comp name="--.HHE">
      <acc value="0.0376489200" flag="0"/>
      <vel value="0.0204739331" flag="0"/>
      <psa03 value="0.0917938979" flag="0"/>
      <psa10 value="0.0360111495" flag="0"/>
      <psa30 value="0.0019165983" flag="0"/>
    </comp>
    <comp name="--.HHN">
      <acc value="0.0421901073" flag="0"/>
      <vel value="0.0260987387" flag="0"/>
      <psa03 value="0.1186829570" flag="0"/>
      <psa10 value="0.0328418527" flag="0"/>
      <psa30 value="0.0024228332" flag="0"/>
    </comp>
    <comp name="--.HHZ">
      <acc value="0.0212458027" flag="0"/>
      <vel value="0.0129569157" flag="0"/>
      <psa03 value="0.0789428779" flag="0"/>
      <psa10 value="0.0136523902" flag="0"/>
      <psa30 value="0.0021146415" flag="0"/>
    </comp>
  </station>
  <station code="KNSS" name="KNSS" netid="HC" insttype="60" lat="35.3042" lon="25.1802">
    <comp name="--.HHN">
      <acc value="0.1019756177" flag="0"/>
      <vel value="0.0442523678" flag="0"/>
      <psa03 value="0.2644356984" flag="0"/>
      <psa10 value="0.0347415714" flag="0"/>
      <psa30 value="0.0076603350" flag="0"/>
    </comp>
    <comp name="--.HHE">
      <acc value="0.0791208770" flag="0"/>
      <vel value="0.0371449422" flag="0"/>
      <psa03 value="0.2540814354" flag="0"/>
      <psa10 value="0.0293667419" flag="0"/>
      <psa30 value="0.0054170695" flag="0"/>
    </comp>
    <comp name="--.HHZ">
      <acc value="0.0752069099" flag="0"/>
      <vel value="0.0251082644" flag="0"/>
      <psa03 value="0.2352648828" flag="0"/>
      <psa10 value="0.0210570820" flag="0"/>
      <psa30 value="0.0049754244" flag="0"/>
    </comp>
  </station>
  <station code="PFKS" name="PFKS" netid="HC" insttype="120" lat="35.0429" lon="25.4733">
    <comp name="--.HHE">
      <acc value="0.1051563699" flag="0"/>
      <vel value="0.0529737741" flag="0"/>
      <psa03 value="0.3520063295" flag="0"/>
      <psa10 value="0.0538328921" flag="0"/>
      <psa30 value="0.0031337537" flag="0"/>
    </comp>
    <comp name="--.HHN">
      <acc value="0.1296241835" flag="0"/>
      <vel value="0.0592834337" flag="0"/>
      <psa03 value="0.4526137787" flag="0"/>
      <psa10 value="0.0277678680" flag="0"/>
      <psa30 value="0.0030513923" flag="0"/>
    </comp>
    <comp name="--.HHZ">
      <acc value="0.0544970615" flag="0"/>
      <vel value="0.0229116380" flag="0"/>
      <psa03 value="0.1360564411" flag="0"/>
      <psa10 value="0.0170265848" flag="0"/>
      <psa30 value="0.0045782964" flag="0"/>
    </comp>
  </station>
  <station code="STIA" name="STIA" netid="HC" insttype="120" lat="35.2021" lon="26.0909">
    <comp name="--.HHN">
      <acc value="0.0000000000" flag="0"/>
      <vel value="-100.0000000000" flag="0"/>
      <psa03 value="0.0000000000" flag="0"/>
      <psa10 value="0.0000000000" flag="0"/>
      <psa30 value="0.0000000000" flag="0"/>
    </comp>
    <comp name="--.HHE">
      <acc value="0.0152781641" flag="0"/>
      <vel value="0.0167170473" flag="0"/>
      <psa03 value="0.0591190001" flag="0"/>
      <psa10 value="0.0407364021" flag="0"/>
      <psa30 value="0.0021719887" flag="0"/>
    </comp>
    <comp name="--.HHZ">
      <acc value="0.0157677952" flag="0"/>
      <vel value="0.0083408050" flag="0"/>
      <psa03 value="0.0580120560" flag="0"/>
      <psa10 value="0.0150452020" flag="0"/>
      <psa30 value="0.0016201989" flag="0"/>
    </comp>
  </station>
  <station code="IACM" name="IACM" netid="HL" insttype="120" lat="35.3058" lon="25.0709">
    <comp name="--.HHZ">
      <acc value="0.2506326016" flag="0"/>
      <vel value="0.0879954284" flag="0"/>
      <psa03 value="0.4264212348" flag="0"/>
      <psa10 value="0.0866319815" flag="0"/>
      <psa30 value="0.0058231555" flag="0"/>
    </comp>
    <comp name="--.HHN">
      <acc value="0.2049643361" flag="0"/>
      <vel value="0.1399763901" flag="0"/>
      <psa03 value="0.5358280176" flag="0"/>
      <psa10 value="0.2483252480" flag="0"/>
      <psa30 value="0.0227080895" flag="0"/>
    </comp>
    <comp name="--.HHE">
      <acc value="0.2439400045" flag="0"/>
      <vel value="0.1401463116" flag="0"/>
      <psa03 value="0.8364035606" flag="0"/>
      <psa10 value="0.3143269729" flag="0"/>
      <psa30 value="0.0119571991" flag="0"/>
    </comp>
  </station>
  <station code="IDI" name="IDI" netid="HL" insttype="120" lat="35.288" lon="24.89">
    <comp name="--.HHE">
      <acc value="0.1071404018" flag="0"/>
      <vel value="0.0714446079" flag="0"/>
      <psa03 value="0.2374684216" flag="0"/>
      <psa10 value="0.0500949906" flag="0"/>
      <psa30 value="0.0046343672" flag="0"/>
    </comp>
    <comp name="--.HHN">
      <acc value="0.1004324376" flag="0"/>
      <vel value="0.0344717044" flag="0"/>
      <psa03 value="0.1779638209" flag="0"/>
      <psa10 value="0.0270705960" flag="0"/>
      <psa30 value="0.0029273141" flag="0"/>
    </comp>
    <comp name="--.HHZ">
      <acc value="0.0563085781" flag="0"/>
      <vel value="0.0257753193" flag="0"/>
      <psa03 value="0.1404777217" flag="0"/>
      <psa10 value="0.0219335665" flag="0"/>
      <psa30 value="0.0033408170" flag="0"/>
    </comp>
  </station>
  <station code="IMMV" name="IMMV" netid="HL" insttype="120" lat="35.4606" lon="23.9811">
    <comp name="--.HHN">
      <acc value="0.0429804138" flag="0"/>
      <vel value="0.0318265452" flag="0"/>
      <psa03 value="0.1492745349" flag="0"/>
      <psa10 value="0.0282114373" flag="0"/>
      <psa30 value="0.0047255151" flag="0"/>
    </comp>
    <comp name="--.HHE">
      <acc value="0.0470131471" flag="0"/>
      <vel value="0.0342789057" flag="0"/>
      <psa03 value="0.1746115062" flag="0"/>
      <psa10 value="0.0482963972" flag="0"/>
      <psa30 value="0.0054384838" flag="0"/>
    </comp>
    <comp name="--.HHZ">
      <acc value="0.0310231454" flag="0"/>
      <vel value="0.0183492018" flag="0"/>
      <psa03 value="0.1352397052" flag="0"/>
      <psa10 value="0.0293093887" flag="0"/>
      <psa30 value="0.0018079616" flag="0"/>
    </comp>
  </station>
  <station code="SIVA" name="SIVA" netid="HL" insttype="60" lat="35.0178" lon="24.812">
    <comp name="--.HHN">
      <acc value="1.9117247818" flag="0"/>
      <vel value="0.7396092858" flag="0"/>
      <psa03 value="3.2900615257" flag="0"/>
      <psa10 value="0.8882042868" flag="0"/>
      <psa30 value="0.0300884292" flag="0"/>
    </comp>
    <comp name="--.HHE">
      <acc value="1.7076437381" flag="0"/>
      <vel value="0.8467492326" flag="0"/>
      <psa03 value="4.7885084292" flag="0"/>
      <psa10 value="0.9521217977" flag="0"/>
      <psa30 value="0.0414606660" flag="0"/>
    </comp>
    <comp name="--.HHZ">
      <acc value="0.4976823546" flag="0"/>
      <vel value="0.3168405242" flag="0"/>
      <psa03 value="0.9309891900" flag="0"/>
      <psa10 value="0.5034732709" flag="0"/>
      <psa30 value="0.0240463399" flag="0"/>
    </comp>
  </station>
  <station code="VAM" name="VAM" netid="HL" insttype="CMG3ESPC-120s" lat="35.407" lon="24.1997">
    <comp name="--.HHE">
      <acc value="0.0696196808" flag="0"/>
      <vel value="0.0360658803" flag="0"/>
      <psa03 value="0.2446477873" flag="0"/>
      <psa10 value="0.0375536761" flag="0"/>
      <psa30 value="0.0033158300" flag="0"/>
    </comp>
    <comp name="--.HHN">
      <acc value="0.0732179375" flag="0"/>
      <vel value="0.0399426646" flag="0"/>
      <psa03 value="0.1810704928" flag="0"/>
      <psa10 value="0.0337962529" flag="0"/>
      <psa30 value="0.0031831001" flag="0"/>
    </comp>
    <comp name="--.HHZ">
      <acc value="0.0265901576" flag="0"/>
      <vel value="0.0170396900" flag="0"/>
      <psa03 value="0.0804983730" flag="0"/>
      <psa10 value="0.0183612612" flag="0"/>
      <psa30 value="0.0025478626" flag="0"/>
    </comp>
  </station>
  <station code="ZKR" name="ZKR" netid="HL" insttype="120" lat="35.1147" lon="26.2169">
    <comp name="--.HHN">
      <acc value="0.0074920197" flag="0"/>
      <vel value="0.0052920997" flag="0"/>
      <psa03 value="0.0337313772" flag="0"/>
      <psa10 value="0.0072920739" flag="0"/>
      <psa30 value="0.0009242250" flag="0"/>
    </comp>
    <comp name="--.HHZ">
      <acc value="0.0073715189" flag="0"/>
      <vel value="0.0073122605" flag="0"/>
      <psa03 value="0.0312093214" flag="0"/>
      <psa10 value="0.0144283633" flag="0"/>
      <psa30 value="0.0019611005" flag="0"/>
    </comp>
    <comp name="--.HHE">
      <acc value="0.0110911014" flag="0"/>
      <vel value="0.0094025000" flag="0"/>
      <psa03 value="0.0630012834" flag="0"/>
      <psa10 value="0.0185587490" flag="0"/>
      <psa30 value="0.0021127147" flag="0"/>
    </comp>
  </station>
  <station code="IDI" name="IDI" netid="MN" insttype="" lat="35.288" lon="24.89">
    <comp name="--.HHE">
      <acc value="0.1078830063" flag="0"/>
      <vel value="0.0728161520" flag="0"/>
      <psa03 value="0.2397367839" flag="0"/>
      <psa10 value="0.0499201300" flag="0"/>
      <psa30 value="0.0045987867" flag="0"/>
    </comp>
    <comp name="--.HHN">
      <acc value="0.1076043184" flag="0"/>
      <vel value="0.0349380608" flag="0"/>
      <psa03 value="0.1796754157" flag="0"/>
      <psa10 value="0.0268740537" flag="0"/>
      <psa30 value="0.0028985860" flag="0"/>
    </comp>
    <comp name="--.HHZ">
      <acc value="0.0585594134" flag="0"/>
      <vel value="0.0258335462" flag="0"/>
      <psa03 value="0.1424691972" flag="0"/>
      <psa10 value="0.0218059032" flag="0"/>
      <psa30 value="0.0032995654" flag="0"/>
    </comp>
  </station>
</stationlist>
