<?xml version="1.0" encoding="UTF-8" standalone="yes"?>
<!DOCTYPE earthquake SYSTEM "stationlist.dtd">
<stationlist created="" xmlns="ch.ethz.sed.shakemap.usgs.xml">
  <station code="IMMV" name="IMMV" netid="GE" insttype="STS-2/N" lat="35.4606" lon="23.9811">
    <comp name="--.HHE">
      <acc value="0.0483540243" flag="0"/>
      <vel value="0.0349069097" flag="0"/>
      <psa03 value="0.1796575544" flag="0"/>
      <psa10 value="0.0486764523" flag="0"/>
      <psa30 value="0.0054433037" flag="0"/>
    </comp>
    <comp name="--.HHN">
      <acc value="0.0438706981" flag="0"/>
      <vel value="0.0323883953" flag="0"/>
      <psa03 value="0.1534906072" flag="0"/>
      <psa10 value="0.0283543030" flag="0"/>
      <psa30 value="0.0047276991" flag="0"/>
    </comp>
    <comp name="--.HHZ">
      <acc value="0.0318740696" flag="0"/>
      <vel value="0.0186330932" flag="0"/>
      <psa03 value="0.1390161412" flag="0"/>
      <psa10 value="0.0295317313" flag="0"/>
      <psa30 value="0.0018145270" flag="0"/>
    </comp>
  </station>
  <station code="ZKR" name="ZKR" netid="GE" insttype="STS-2/N" lat="35.1147" lon="26.2169">
    <comp name="--.HHE">
      <acc value="0.0113747759" flag="0"/>
      <vel value="0.0094421255" flag="0"/>
      <psa03 value="0.0648140445" flag="0"/>
      <psa10 value="0.0186749281" flag="0"/>
      <psa30 value="0.0021155574" flag="0"/>
    </comp>
    <comp name="--.HHZ">
      <acc value="0.0074608461" flag="0"/>
      <vel value="0.0073872502" flag="0"/>
      <psa03 value="0.0320439966" flag="0"/>
      <psa10 value="0.0145171916" flag="0"/>
      <psa30 value="0.0019616332" flag="0"/>
    </comp>
    <comp name="--.HHN">
      <acc value="0.0076434845" flag="0"/>
      <vel value="0.0054007190" flag="0"/>
      <psa03 value="0.0346785632" flag="0"/>
      <psa10 value="0.0073521283" flag="0"/>
      <psa30 value="0.0009217853" flag="0"/>
    </comp>
  </station>
  <station code="CHAN" name="CHAN" netid="HC" insttype="120" lat="35.5193" lon="24.0428">
    <comp name="--.HHN">
      <acc value="0.0835980391" flag="0"/>
      <vel value="0.0671419586" flag="0"/>
      <psa03 value="0.1152988862" flag="0"/>
      <psa10 value="0.1070948038" flag="0"/>
      <psa30 value="0.0103421139" flag="0"/>
    </comp>
    <comp name="--.HHZ">
      <acc value="0.0421624709" flag="0"/>
      <vel value="0.0377065816" flag="0"/>
      <psa03 value="0.0887495620" flag="0"/>
      <psa10 value="0.0854248581" flag="0"/>
      <psa30 value="0.0049706798" flag="0"/>
    </comp>
    <comp name="--.HHE">
      <acc value="0.0511895944" flag="0"/>
      <vel value="0.0603428080" flag="0"/>
      <psa03 value="0.1669323543" flag="0"/>
      <psa10 value="0.1106612855" flag="0"/>
      <psa30 value="0.0096721330" flag="0"/>
    </comp>
  </station>
  <station code="IPPL" name="IPPL" netid="HC" insttype="60" lat="35.3486" lon="24.4632">
    <comp name="--.HHE">
      <acc value="0.0000000000" flag="0"/>
      <vel value="-100.0000000000" flag="0"/>
      <psa03 value="0.0000000000" flag="0"/>
      <psa10 value="0.0000000000" flag="0"/>
      <psa30 value="0.0000000000" flag="0"/>
    </comp>
    <comp name="--.HHN">
      <acc value="0.0000000000" flag="0"/>
      <vel value="-100.0000000000" flag="0"/>
      <psa03 value="0.0000000000" flag="0"/>
      <psa10 value="0.0000000000" flag="0"/>
      <psa30 value="0.0000000000" flag="0"/>
    </comp>
    <comp name="--.HHZ">
      <acc value="0.0593424068" flag="0"/>
      <vel value="0.0316166489" flag="0"/>
      <psa03 value="0.1867492454" flag="0"/>
      <psa10 value="0.0227264881" flag="0"/>
      <psa30 value="0.0030907911" flag="0"/>
    </comp>
  </station>
  <station code="KNSS" name="KNSS" netid="HC" insttype="60" lat="35.3042" lon="25.1802">
    <comp name="--.HHE">
      <acc value="0.0791208770" flag="0"/>
      <vel value="0.0371449394" flag="0"/>
      <psa03 value="0.2540814354" flag="0"/>
      <psa10 value="0.0293667422" flag="0"/>
      <psa30 value="0.0054170683" flag="0"/>
    </comp>
    <comp name="--.HHN">
      <acc value="0.1019756175" flag="0"/>
      <vel value="0.0442523674" flag="0"/>
      <psa03 value="0.2644356984" flag="0"/>
      <psa10 value="0.0347415722" flag="0"/>
      <psa30 value="0.0076603290" flag="0"/>
    </comp>
    <comp name="--.HHZ">
      <acc value="0.0752069100" flag="0"/>
      <vel value="0.0251082639" flag="0"/>
      <psa03 value="0.2352648828" flag="0"/>
      <psa10 value="0.0210570820" flag="0"/>
      <psa30 value="0.0049754344" flag="0"/>
    </comp>
  </station>
  <station code="PFKS" name="PFKS" netid="HC" insttype="120" lat="35.0429" lon="25.4733">
    <comp name="--.HHZ">
      <acc value="0.0544970616" flag="0"/>
      <vel value="0.0229116386" flag="0"/>
      <psa03 value="0.1360564411" flag="0"/>
      <psa10 value="0.0170265848" flag="0"/>
      <psa30 value="0.0045783395" flag="0"/>
    </comp>
    <comp name="--.HHN">
      <acc value="0.1296241835" flag="0"/>
      <vel value="0.0592834342" flag="0"/>
      <psa03 value="0.4526137787" flag="0"/>
      <psa10 value="0.0277678680" flag="0"/>
      <psa30 value="0.0030515542" flag="0"/>
    </comp>
    <comp name="--.HHE">
      <acc value="0.1051563701" flag="0"/>
      <vel value="0.0529737738" flag="0"/>
      <psa03 value="0.3520063295" flag="0"/>
      <psa10 value="0.0538328921" flag="0"/>
      <psa30 value="0.0031337635" flag="0"/>
    </comp>
  </station>
  <station code="STIA" name="STIA" netid="HC" insttype="120" lat="35.2021" lon="26.0909">
    <comp name="--.HHE">
      <acc value="0.0152781639" flag="0"/>
      <vel value="0.0167170489" flag="0"/>
      <psa03 value="0.0591190001" flag="0"/>
      <psa10 value="0.0407364021" flag="0"/>
      <psa30 value="0.0021719664" flag="0"/>
    </comp>
    <comp name="--.HHZ">
      <acc value="0.0157677952" flag="0"/>
      <vel value="0.0083408051" flag="0"/>
      <psa03 value="0.0580120560" flag="0"/>
      <psa10 value="0.0150452019" flag="0"/>
      <psa30 value="0.0016201944" flag="0"/>
    </comp>
    <comp name="--.HHN">
      <acc value="0.0000000000" flag="0"/>
      <vel value="-100.0000000000" flag="0"/>
      <psa03 value="0.0000000000" flag="0"/>
      <psa10 value="0.0000000000" flag="0"/>
      <psa30 value="0.0000000000" flag="0"/>
    </comp>
  </station>
  <station code="IACM" name="IACM" netid="HL" insttype="120" lat="35.3058" lon="25.0709">
    <comp name="--.HHN">
      <acc value="0.2049643360" flag="0"/>
      <vel value="0.1399764054" flag="0"/>
      <psa03 value="0.5358280176" flag="0"/>
      <psa10 value="0.2483252481" flag="0"/>
      <psa30 value="0.0227081871" flag="0"/>
    </comp>
    <comp name="--.HHZ">
      <acc value="0.2506326016" flag="0"/>
      <vel value="0.0879954247" flag="0"/>
      <psa03 value="0.4264212348" flag="0"/>
      <psa10 value="0.0866319784" flag="0"/>
      <psa30 value="0.0058231319" flag="0"/>
    </comp>
    <comp name="--.HHE">
      <acc value="0.2439400047" flag="0"/>
      <vel value="0.1401463061" flag="0"/>
      <psa03 value="0.8364035606" flag="0"/>
      <psa10 value="0.3143269712" flag="0"/>
      <psa30 value="0.0119572531" flag="0"/>
    </comp>
  </station>
  <station code="IDI" name="IDI" netid="HL" insttype="120" lat="35.288" lon="24.89">
    <comp name="--.HHZ">
      <acc value="0.0563085781" flag="0"/>
      <vel value="0.0257753195" flag="0"/>
      <psa03 value="0.1404777217" flag="0"/>
      <psa10 value="0.0219335667" flag="0"/>
      <psa30 value="0.0033408765" flag="0"/>
    </comp>
    <comp name="--.HHN">
      <acc value="0.1004324376" flag="0"/>
      <vel value="0.0344717051" flag="0"/>
      <psa03 value="0.1779638209" flag="0"/>
      <psa10 value="0.0270705959" flag="0"/>
      <psa30 value="0.0029273314" flag="0"/>
    </comp>
    <comp name="--.HHE">
      <acc value="0.1071404018" flag="0"/>
      <vel value="0.0714446078" flag="0"/>
      <psa03 value="0.2374684216" flag="0"/>
      <psa10 value="0.0500949918" flag="0"/>
      <psa30 value="0.0046342175" flag="0"/>
    </comp>
  </station>
  <station code="IMMV" name="IMMV" netid="HL" insttype="120" lat="35.4606" lon="23.9811">
    <comp name="--.HHN">
      <acc value="0.0429804143" flag="0"/>
      <vel value="0.0318265444" flag="0"/>
      <psa03 value="0.1492745349" flag="0"/>
      <psa10 value="0.0282114373" flag="0"/>
      <psa30 value="0.0047255035" flag="0"/>
    </comp>
    <comp name="--.HHE">
      <acc value="0.0470131467" flag="0"/>
      <vel value="0.0342789053" flag="0"/>
      <psa03 value="0.1746115062" flag="0"/>
      <psa10 value="0.0482963972" flag="0"/>
      <psa30 value="0.0054384691" flag="0"/>
    </comp>
    <comp name="--.HHZ">
      <acc value="0.0310231448" flag="0"/>
      <vel value="0.0183492018" flag="0"/>
      <psa03 value="0.1352397052" flag="0"/>
      <psa10 value="0.0293093887" flag="0"/>
      <psa30 value="0.0018079966" flag="0"/>
    </comp>
  </station>
  <station code="SIVA" name="SIVA" netid="HL" insttype="60" lat="35.0178" lon="24.812">
    <comp name="--.HHZ">
      <acc value="0.4976823544" flag="0"/>
      <vel value="0.3168405347" flag="0"/>
      <psa03 value="0.9309891900" flag="0"/>
      <psa10 value="0.5034732685" flag="0"/>
      <psa30 value="0.0240460906" flag="0"/>
    </comp>
    <comp name="--.HHN">
      <acc value="1.9117247819" flag="0"/>
      <vel value="0.7396092951" flag="0"/>
      <psa03 value="3.2900615257" flag="0"/>
      <psa10 value="0.8882042864" flag="0"/>
      <psa30 value="0.0300895156" flag="0"/>
    </comp>
    <comp name="--.HHE">
      <acc value="1.7076437379" flag="0"/>
      <vel value="0.8467492167" flag="0"/>
      <psa03 value="4.7885084292" flag="0"/>
      <psa10 value="0.9521217949" flag="0"/>
      <psa30 value="0.0414599838" flag="0"/>
    </comp>
  </station>
  <station code="VAM" name="VAM" netid="HL" insttype="CMG3ESPC-120s" lat="35.407" lon="24.1997">
    <comp name="--.HHN">
      <acc value="0.0732179367" flag="0"/>
      <vel value="0.0399426646" flag="0"/>
      <psa03 value="0.1810704928" flag="0"/>
      <psa10 value="0.0337962529" flag="0"/>
      <psa30 value="0.0031830854" flag="0"/>
    </comp>
    <comp name="--.HHE">
      <acc value="0.0696196815" flag="0"/>
      <vel value="0.0360658799" flag="0"/>
      <psa03 value="0.2446477873" flag="0"/>
      <psa10 value="0.0375536762" flag="0"/>
      <psa30 value="0.0033158407" flag="0"/>
    </comp>
    <comp name="--.HHZ">
      <acc value="0.0265901572" flag="0"/>
      <vel value="0.0170396906" flag="0"/>
      <psa03 value="0.0804983730" flag="0"/>
      <psa10 value="0.0183612614" flag="0"/>
      <psa30 value="0.0025478394" flag="0"/>
    </comp>
  </station>
  <station code="ZKR" name="ZKR" netid="HL" insttype="120" lat="35.1147" lon="26.2169">
    <comp name="--.HHN">
      <acc value="0.0074920201" flag="0"/>
      <vel value="0.0052921001" flag="0"/>
      <psa03 value="0.0337313772" flag="0"/>
      <psa10 value="0.0072920739" flag="0"/>
      <psa30 value="0.0009221582" flag="0"/>
    </comp>
    <comp name="--.HHE">
      <acc value="0.0110911011" flag="0"/>
      <vel value="0.0094025010" flag="0"/>
      <psa03 value="0.0630012834" flag="0"/>
      <psa10 value="0.0185587490" flag="0"/>
      <psa30 value="0.0021127871" flag="0"/>
    </comp>
    <comp name="--.HHZ">
      <acc value="0.0073715185" flag="0"/>
      <vel value="0.0073122604" flag="0"/>
      <psa03 value="0.0312093214" flag="0"/>
      <psa10 value="0.0144283633" flag="0"/>
      <psa30 value="0.0019611096" flag="0"/>
    </comp>
  </station>
  <station code="IDI" name="IDI" netid="MN" insttype="" lat="35.288" lon="24.89">
    <comp name="--.HHZ">
      <acc value="0.0585594136" flag="0"/>
      <vel value="0.0258335472" flag="0"/>
      <psa03 value="0.1424691972" flag="0"/>
      <psa10 value="0.0218059051" flag="0"/>
      <psa30 value="0.0032996383" flag="0"/>
    </comp>
    <comp name="--.HHE">
      <acc value="0.1078830063" flag="0"/>
      <vel value="0.0728161516" flag="0"/>
      <psa03 value="0.2397367839" flag="0"/>
      <psa10 value="0.0499201311" flag="0"/>
      <psa30 value="0.0045982186" flag="0"/>
    </comp>
    <comp name="--.HHN">
      <acc value="0.1076043185" flag="0"/>
      <vel value="0.0349380679" flag="0"/>
      <psa03 value="0.1796754157" flag="0"/>
      <psa10 value="0.0268740535" flag="0"/>
      <psa30 value="0.0028988766" flag="0"/>
    </comp>
  </station>
</stationlist>
