<?xml version="1.0" encoding="UTF-8" standalone="yes"?>
<!DOCTYPE earthquake SYSTEM "stationlist.dtd">
<stationlist created="" xmlns="ch.ethz.sed.shakemap.usgs.xml">
  <station code="ARPRA" name="ARPRA" netid="KO" insttype="CMG-5T" lat="39.0929" lon="38.3356">
    <comp name="--.HNE">
      <acc value="0.1997871182" flag="0"/>
      <vel value="0.0831776851" flag="0"/>
      <psa03 value="0.6242790498" flag="0"/>
      <psa10 value="0.0454706202" flag="0"/>
      <psa30 value="0.0049120953" flag="0"/>
    </comp>
    <comp name="--.HNZ">
      <acc value="0.0755472485" flag="0"/>
      <vel value="0.0317096275" flag="0"/>
      <psa03 value="0.1689012003" flag="0"/>
      <psa10 value="0.0209160351" flag="0"/>
      <psa30 value="0.0015282043" flag="0"/>
    </comp>
    <comp name="--.HNN">
      <acc value="0.1226531327" flag="0"/>
      <vel value="0.0540393740" flag="0"/>
      <psa03 value="0.3945403552" flag="0"/>
      <psa10 value="0.0451961097" flag="0"/>
      <psa30 value="0.0023180501" flag="0"/>
    </comp>
  </station>
  <station code="DARE" name="DARE" netid="KO" insttype="CMG-3ESP" lat="38.5712" lon="37.4832">
    <comp name="--.HHZ">
      <acc value="0.0064796714" flag="0"/>
      <vel value="0.0052012745" flag="0"/>
      <psa03 value="0.0165157887" flag="0"/>
      <psa10 value="0.0076055382" flag="0"/>
      <psa30 value="0.0008935757" flag="0"/>
    </comp>
    <comp name="--.HHN">
      <acc value="0.0067629471" flag="0"/>
      <vel value="0.0049442958" flag="0"/>
      <psa03 value="0.0197937646" flag="0"/>
      <psa10 value="0.0063186304" flag="0"/>
      <psa30 value="0.0008895019" flag="0"/>
    </comp>
    <comp name="--.HHE">
      <acc value="0.0071945274" flag="0"/>
      <vel value="0.0048239242" flag="0"/>
      <psa03 value="0.0196204511" flag="0"/>
      <psa10 value="0.0079001744" flag="0"/>
      <psa30 value="0.0009334269" flag="0"/>
    </comp>
  </station>
  <station code="SVRC" name="SVRC" netid="KO" insttype="CMG-3T" lat="38.3775" lon="39.306">
    <comp name="--.HHE">
      <acc value="0.0867471557" flag="0"/>
      <vel value="0.0488778727" flag="0"/>
      <psa03 value="0.1978515078" flag="0"/>
      <psa10 value="0.0248862505" flag="0"/>
      <psa30 value="0.0034984604" flag="0"/>
    </comp>
    <comp name="--.HHN">
      <acc value="0.0594666391" flag="0"/>
      <vel value="0.0316409454" flag="0"/>
      <psa03 value="0.2102794885" flag="0"/>
      <psa10 value="0.0194198338" flag="0"/>
      <psa30 value="0.0022998770" flag="0"/>
    </comp>
    <comp name="--.HHZ">
      <acc value="0.0664296006" flag="0"/>
      <vel value="0.0257769514" flag="0"/>
      <psa03 value="0.1041139959" flag="0"/>
      <psa10 value="0.0143469741" flag="0"/>
      <psa30 value="0.0023969761" flag="0"/>
    </comp>
  </station>
  <station code="URFA" name="URFA" netid="KO" insttype="CMG-3ESP" lat="37.4409" lon="38.8213">
    <comp name="--.HHZ">
      <acc value="0.0333317772" flag="0"/>
      <vel value="0.0150079576" flag="0"/>
      <psa03 value="0.0741431593" flag="0"/>
      <psa10 value="0.0107724313" flag="0"/>
      <psa30 value="0.0014500303" flag="0"/>
    </comp>
    <comp name="--.HHE">
      <acc value="0.0837209125" flag="0"/>
      <vel value="0.0325236864" flag="0"/>
      <psa03 value="0.1328306898" flag="0"/>
      <psa10 value="0.0256632011" flag="0"/>
      <psa30 value="0.0054389262" flag="0"/>
    </comp>
    <comp name="--.HHN">
      <acc value="0.0907214568" flag="0"/>
      <vel value="0.0309450543" flag="0"/>
      <psa03 value="0.1376400034" flag="0"/>
      <psa10 value="0.0141506373" flag="0"/>
      <psa30 value="0.0012992877" flag="0"/>
    </comp>
  </station>
</stationlist>
