<?xml version="1.0" encoding="UTF-8" standalone="yes"?>
<!DOCTYPE earthquake SYSTEM "stationlist.dtd">
<stationlist created="" xmlns="ch.ethz.sed.shakemap.usgs.xml">
  <station code="ARPRA" name="ARPRA" netid="KO" insttype="CMG-5T" lat="39.0929" lon="38.3356">
    <comp name="--.HNN">
      <acc value="0.1226531350" flag="0"/>
      <vel value="0.0540393650" flag="0"/>
      <psa03 value="0.3945403552" flag="0"/>
      <psa10 value="0.0451961098" flag="0"/>
      <psa30 value="0.0023173379" flag="0"/>
    </comp>
    <comp name="--.HNE">
      <acc value="0.1997871189" flag="0"/>
      <vel value="0.0831776784" flag="0"/>
      <psa03 value="0.6242790498" flag="0"/>
      <psa10 value="0.0454706216" flag="0"/>
      <psa30 value="0.0049116270" flag="0"/>
    </comp>
    <comp name="--.HNZ">
      <acc value="0.0755472395" flag="0"/>
      <vel value="0.0317096221" flag="0"/>
      <psa03 value="0.1689012003" flag="0"/>
      <psa10 value="0.0209160352" flag="0"/>
      <psa30 value="0.0015265281" flag="0"/>
    </comp>
  </station>
  <station code="DARE" name="DARE" netid="KO" insttype="CMG-3ESP" lat="38.5712" lon="37.4832">
    <comp name="--.HHZ">
      <acc value="0.0064796715" flag="0"/>
      <vel value="0.0052012752" flag="0"/>
      <psa03 value="0.0165157887" flag="0"/>
      <psa10 value="0.0076055382" flag="0"/>
      <psa30 value="0.0008935791" flag="0"/>
    </comp>
    <comp name="--.HHE">
      <acc value="0.0071945275" flag="0"/>
      <vel value="0.0048239241" flag="0"/>
      <psa03 value="0.0196204511" flag="0"/>
      <psa10 value="0.0079001744" flag="0"/>
      <psa30 value="0.0009334170" flag="0"/>
    </comp>
    <comp name="--.HHN">
      <acc value="0.0067629470" flag="0"/>
      <vel value="0.0049442923" flag="0"/>
      <psa03 value="0.0197937646" flag="0"/>
      <psa10 value="0.0063186304" flag="0"/>
      <psa30 value="0.0008886615" flag="0"/>
    </comp>
  </station>
  <station code="SVRC" name="SVRC" netid="KO" insttype="CMG-3T" lat="38.3775" lon="39.306">
    <comp name="--.HHN">
      <acc value="0.0594666395" flag="0"/>
      <vel value="0.0316409458" flag="0"/>
      <psa03 value="0.2102794885" flag="0"/>
      <psa10 value="0.0194198337" flag="0"/>
      <psa30 value="0.0022998921" flag="0"/>
    </comp>
    <comp name="--.HHE">
      <acc value="0.0867471552" flag="0"/>
      <vel value="0.0488778725" flag="0"/>
      <psa03 value="0.1978515078" flag="0"/>
      <psa10 value="0.0248862505" flag="0"/>
      <psa30 value="0.0034984619" flag="0"/>
    </comp>
    <comp name="--.HHZ">
      <acc value="0.0664296008" flag="0"/>
      <vel value="0.0257769516" flag="0"/>
      <psa03 value="0.1041139959" flag="0"/>
      <psa10 value="0.0143469737" flag="0"/>
      <psa30 value="0.0023970101" flag="0"/>
    </comp>
  </station>
  <station code="URFA" name="URFA" netid="KO" insttype="CMG-3ESP" lat="37.4409" lon="38.8213">
    <comp name="--.HHE">
      <acc value="0.0837209125" flag="0"/>
      <vel value="0.0325236876" flag="0"/>
      <psa03 value="0.1328306898" flag="0"/>
      <psa10 value="0.0256632011" flag="0"/>
      <psa30 value="0.0054389091" flag="0"/>
    </comp>
    <comp name="--.HHN">
      <acc value="0.0907214567" flag="0"/>
      <vel value="0.0309450546" flag="0"/>
      <psa03 value="0.1376400034" flag="0"/>
      <psa10 value="0.0141506372" flag="0"/>
      <psa30 value="0.0012992839" flag="0"/>
    </comp>
    <comp name="--.HHZ">
      <acc value="0.0333317772" flag="0"/>
      <vel value="0.0150079585" flag="0"/>
      <psa03 value="0.0741431593" flag="0"/>
      <psa10 value="0.0107724313" flag="0"/>
      <psa30 value="0.0014500275" flag="0"/>
    </comp>
  </station>
</stationlist>
