<?xml version="1.0" encoding="UTF-8" standalone="yes"?>
<!DOCTYPE earthquake SYSTEM "stationlist.dtd">
<stationlist created="" xmlns="ch.ethz.sed.shakemap.usgs.xml">
  <station code="ARPRA" name="ARPRA" netid="KO" insttype="CMG-5T" lat="39.0929" lon="38.3356">
    <comp name="--.HNN">
      <acc value="0.1226531244" flag="0"/>
      <vel value="0.0540393831" flag="0"/>
      <psa03 value="0.3945403552" flag="0"/>
      <psa10 value="0.0451961096" flag="0"/>
      <psa30 value="0.0023189127" flag="0"/>
    </comp>
    <comp name="--.HNZ">
      <acc value="0.0755472200" flag="0"/>
      <vel value="0.0317096281" flag="0"/>
      <psa03 value="0.1689012003" flag="0"/>
      <psa10 value="0.0209160346" flag="0"/>
      <psa30 value="0.0015257784" flag="0"/>
    </comp>
    <comp name="--.HNE">
      <acc value="0.1997871152" flag="0"/>
      <vel value="0.0831776862" flag="0"/>
      <psa03 value="0.6242790498" flag="0"/>
      <psa10 value="0.0454706227" flag="0"/>
      <psa30 value="0.0049101834" flag="0"/>
    </comp>
  </station>
  <station code="DARE" name="DARE" netid="KO" insttype="CMG-3ESP" lat="38.5712" lon="37.4832">
    <comp name="--.HHN">
      <acc value="0.0067629473" flag="0"/>
      <vel value="0.0049442944" flag="0"/>
      <psa03 value="0.0197937646" flag="0"/>
      <psa10 value="0.0063186304" flag="0"/>
      <psa30 value="0.0008883885" flag="0"/>
    </comp>
    <comp name="--.HHE">
      <acc value="0.0071945277" flag="0"/>
      <vel value="0.0048239231" flag="0"/>
      <psa03 value="0.0196204511" flag="0"/>
      <psa10 value="0.0079001744" flag="0"/>
      <psa30 value="0.0009334185" flag="0"/>
    </comp>
    <comp name="--.HHZ">
      <acc value="0.0064796712" flag="0"/>
      <vel value="0.0052012747" flag="0"/>
      <psa03 value="0.0165157887" flag="0"/>
      <psa10 value="0.0076055382" flag="0"/>
      <psa30 value="0.0008935628" flag="0"/>
    </comp>
  </station>
  <station code="DYBB" name="DYBB" netid="KO" insttype="CMG-3T" lat="37.9532" lon="40.1393">
    <comp name="--.HHN">
      <acc value="0.0344560266" flag="0"/>
      <vel value="0.0179195274" flag="0"/>
      <psa03 value="0.1099685540" flag="0"/>
      <psa10 value="0.0127814457" flag="0"/>
      <psa30 value="0.0046289473" flag="0"/>
    </comp>
    <comp name="--.HHZ">
      <acc value="0.0202240586" flag="0"/>
      <vel value="0.0103378996" flag="0"/>
      <psa03 value="0.0480185047" flag="0"/>
      <psa10 value="0.0109561641" flag="0"/>
      <psa30 value="0.0014611203" flag="0"/>
    </comp>
    <comp name="--.HHE">
      <acc value="0.0264448017" flag="0"/>
      <vel value="0.0191860971" flag="0"/>
      <psa03 value="0.1086574124" flag="0"/>
      <psa10 value="0.0279129717" flag="0"/>
      <psa30 value="0.0020105128" flag="0"/>
    </comp>
  </station>
  <station code="SVRC" name="SVRC" netid="KO" insttype="CMG-3T" lat="38.3775" lon="39.306">
    <comp name="--.HHE">
      <acc value="0.0867471546" flag="0"/>
      <vel value="0.0488778723" flag="0"/>
      <psa03 value="0.1978515078" flag="0"/>
      <psa10 value="0.0248862505" flag="0"/>
      <psa30 value="0.0034984626" flag="0"/>
    </comp>
    <comp name="--.HHN">
      <acc value="0.0594666403" flag="0"/>
      <vel value="0.0316409454" flag="0"/>
      <psa03 value="0.2102794885" flag="0"/>
      <psa10 value="0.0194198338" flag="0"/>
      <psa30 value="0.0022998747" flag="0"/>
    </comp>
    <comp name="--.HHZ">
      <acc value="0.0664296007" flag="0"/>
      <vel value="0.0257769517" flag="0"/>
      <psa03 value="0.1041139959" flag="0"/>
      <psa10 value="0.0143469741" flag="0"/>
      <psa30 value="0.0023969857" flag="0"/>
    </comp>
  </station>
  <station code="URFA" name="URFA" netid="KO" insttype="CMG-3ESP" lat="37.4409" lon="38.8213">
    <comp name="--.HHE">
      <acc value="0.0837209127" flag="0"/>
      <vel value="0.0325236865" flag="0"/>
      <psa03 value="0.1328306898" flag="0"/>
      <psa10 value="0.0256632011" flag="0"/>
      <psa30 value="0.0054389261" flag="0"/>
    </comp>
    <comp name="--.HHN">
      <acc value="0.0907214568" flag="0"/>
      <vel value="0.0309450556" flag="0"/>
      <psa03 value="0.1376400034" flag="0"/>
      <psa10 value="0.0141506373" flag="0"/>
      <psa30 value="0.0012992877" flag="0"/>
    </comp>
    <comp name="--.HHZ">
      <acc value="0.0333317768" flag="0"/>
      <vel value="0.0150079577" flag="0"/>
      <psa03 value="0.0741431593" flag="0"/>
      <psa10 value="0.0107724313" flag="0"/>
      <psa30 value="0.0014500301" flag="0"/>
    </comp>
  </station>
</stationlist>
