<stationlist created="1739289476">
	<station code="ABEA" name="ABEA" netid="HC" source="Seismological Network of Crete (HC)" insttype="" lat="35.5163" lon="24.0113">
		<comp name=".HNE" depth="0.0">
			<acc value="0.0020348762777682" flag="0"/>
			<vel value="0.00394003942307" flag="0"/>
			<psa03 value="0.00221918965365387" flag="0"/>
			<psa10 value="0.00156059205343938" flag="0"/>
			<psa30 value="0.000932523754286782" flag="0"/>
		</comp>
		<comp name=".HNN" depth="0.0">
			<acc value="0.0020450269954584" flag="0"/>
			<vel value="0.00307649654471" flag="0"/>
			<psa03 value="0.00221097149856396" flag="0"/>
			<psa10 value="0.00125102111619646" flag="0"/>
			<psa30 value="0.00110638839696971" flag="0"/>
		</comp>
		<comp name=".HNZ" depth="0.0">
			<acc value="0.0025077960829038" flag="0"/>
			<vel value="0.00223570248393" flag="0"/>
			<psa03 value="0.00174764051219245" flag="0"/>
			<psa10 value="0.00118305114476803" flag="0"/>
			<psa30 value="0.000735834474590758" flag="0"/>
		</comp>
	</station>
	<station code="ATEI" name="ATEI" netid="HC" source="Seismological Network of Crete (HC)" insttype="" lat="35.5193" lon="24.0432">
		<comp name=".HNE" depth="0.0">
			<acc value="0.027352302603798" flag="0"/>
			<vel value="0.014846652525" flag="0"/>
			<psa03 value="0.0694402250740787" flag="0"/>
			<psa10 value="0.00976212450533645" flag="0"/>
			<psa30 value="0.0019078090913232" flag="0"/>
		</comp>
		<comp name=".HNN" depth="0.0">
			<acc value="0.016889907429786" flag="0"/>
			<vel value="0.0132110521606" flag="0"/>
			<psa03 value="0.0572418544917509" flag="0"/>
			<psa10 value="0.0158278728939006" flag="0"/>
			<psa30 value="0.00107537165475925" flag="0"/>
		</comp>
		<comp name=".HNZ" depth="0.0">
			<acc value="0.014103236516238" flag="0"/>
			<vel value="0.0118673005236" flag="0"/>
			<psa03 value="0.0316060416617979" flag="0"/>
			<psa10 value="0.0125149831187142" flag="0"/>
			<psa30 value="0.00125577568897599" flag="0"/>
		</comp>
	</station>
	<station code="G0LD" name="G0LD" netid="HC" source="Seismological Network of Crete (HC)" insttype="" lat="35.4955" lon="24.0306">
		<comp name=".HNE" depth="0.0">
			<acc value="0.0030754158678588" flag="0"/>
			<vel value="0.00411220894915" flag="0"/>
			<psa03 value="0.00203379439686425" flag="0"/>
			<psa10 value="0.00216385865751512" flag="0"/>
			<psa30 value="0.00173626512321197" flag="0"/>
		</comp>
		<comp name=".HNN" depth="0.0">
			<acc value="0.0027505728042024" flag="0"/>
			<vel value="0.00284062153236" flag="0"/>
			<psa03 value="0.00212941238473339" flag="0"/>
			<psa10 value="0.00159138135870502" flag="0"/>
			<psa30 value="0.00131069818148921" flag="0"/>
		</comp>
		<comp name=".HNZ" depth="0.0">
			<acc value="0.0053055070821096" flag="0"/>
			<vel value="0.00671409753884" flag="0"/>
			<psa03 value="0.00235291775076431" flag="0"/>
			<psa10 value="0.00187423283060062" flag="0"/>
			<psa30 value="0.00178927894761551" flag="0"/>
		</comp>
	</station>
	<station code="PASK" name="PASK" netid="HC" source="Seismological Network of Crete (HC)" insttype="" lat="35.4996" lon="24.0121">
		<comp name=".HNE" depth="0.0">
			<acc value="0.036766103825886" flag="0"/>
			<vel value="0.0254739809253" flag="0"/>
			<psa03 value="0.098049443211105" flag="0"/>
			<psa10 value="0.0347703496150045" flag="0"/>
			<psa30 value="0.00323469032402694" flag="0"/>
		</comp>
		<comp name=".HNN" depth="0.0">
			<acc value="0.021781134917616" flag="0"/>
			<vel value="0.0134038239967" flag="0"/>
			<psa03 value="0.0714562492508563" flag="0"/>
			<psa10 value="0.0313349551619915" flag="0"/>
			<psa30 value="0.00199938349101208" flag="0"/>
		</comp>
		<comp name=".HNZ" depth="0.0">
			<acc value="0.01614922541982" flag="0"/>
			<vel value="0.0107963672222" flag="0"/>
			<psa03 value="0.0443379423794088" flag="0"/>
			<psa10 value="0.0144044285977061" flag="0"/>
			<psa30 value="0.00119865784269998" flag="0"/>
		</comp>
	</station>
	<station code="POLY" name="POLY" netid="HC" source="Seismological Network of Crete (HC)" insttype="" lat="35.5226" lon="24.0602">
		<comp name=".HNE" depth="0.0">
			<acc value="0.0011735956018782" flag="0"/>
			<vel value="0.00317152443204" flag="0"/>
			<psa03 value="0.00126720951607467" flag="0"/>
			<psa10 value="0.00124614216017604" flag="0"/>
			<psa30 value="0.00101790284773313" flag="0"/>
		</comp>
		<comp name=".HNN" depth="0.0">
			<acc value="0.0017802101415162" flag="0"/>
			<vel value="0.00412915793883" flag="0"/>
			<psa03 value="0.00175586875909288" flag="0"/>
			<psa10 value="0.00171257930934882" flag="0"/>
			<psa30 value="0.000909922361224988" flag="0"/>
		</comp>
		<comp name=".HNZ" depth="0.0">
			<acc value="0.0029533305723858" flag="0"/>
			<vel value="0.00181104006836" flag="0"/>
			<psa03 value="0.00163981777701368" flag="0"/>
			<psa10 value="0.00117041397949346" flag="0"/>
			<psa30 value="0.00076078727342229" flag="0"/>
		</comp>
	</station>
	<station code="ARK1" name="ARK1" netid="HI" source="ITSAK Strong Motion Network" insttype="" lat="35.148777" lon="25.264194">
		<comp name=".HNE" depth="0.0">
			<acc value="0.040260858408138" flag="0"/>
			<vel value="0.0220068857613" flag="0"/>
			<psa03 value="0.0924464887094419" flag="0"/>
			<psa10 value="0.0274246780003129" flag="0"/>
			<psa30 value="0.00294847094672874" flag="0"/>
		</comp>
		<comp name=".HNN" depth="0.0">
			<acc value="0.053006886628302" flag="0"/>
			<vel value="0.0282713208113" flag="0"/>
			<psa03 value="0.171641203720717" flag="0"/>
			<psa10 value="0.0301060418775252" flag="0"/>
			<psa30 value="0.00199632203820393" flag="0"/>
		</comp>
		<comp name=".HNZ" depth="0.0">
			<acc value="0.025280763539472" flag="0"/>
			<vel value="0.0169801847903" flag="0"/>
			<psa03 value="0.0652783399947991" flag="0"/>
			<psa10 value="0.0206829951469143" flag="0"/>
			<psa30 value="0.00157366560179097" flag="0"/>
		</comp>
	</station>
	<station code="CH01" name="CH01" netid="HI" source="ITSAK Strong Motion Network" insttype="" lat="35.517" lon="24.0208">
		<comp name=".HNE" depth="0.0">
			<acc value="0.017668439915442" flag="0"/>
			<vel value="0.010197074257" flag="0"/>
			<psa03 value="0.0808514497616363" flag="0"/>
			<psa10 value="0.014134397584482" flag="0"/>
			<psa30 value="0.00201764470072762" flag="0"/>
		</comp>
		<comp name=".HNN" depth="0.0">
			<acc value="0.01822529881122" flag="0"/>
			<vel value="0.0105904378353" flag="0"/>
			<psa03 value="0.0628062178952503" flag="0"/>
			<psa10 value="0.0115575859458542" flag="0"/>
			<psa30 value="0.00147131465487303" flag="0"/>
		</comp>
		<comp name=".HNZ" depth="0.0">
			<acc value="0.012731800090224" flag="0"/>
			<vel value="0.00701523774974" flag="0"/>
			<psa03 value="0.0211632938914227" flag="0"/>
			<psa10 value="0.0141475047027712" flag="0"/>
			<psa30 value="0.000995763256095259" flag="0"/>
		</comp>
	</station>
	<station code="CH02" name="CH02" netid="HI" source="ITSAK Strong Motion Network" insttype="" lat="35.5145" lon="24.0315">
		<comp name=".HNE" depth="0.0">
			<acc value="0.014579371741242" flag="0"/>
			<vel value="0.0125697057463" flag="0"/>
			<psa03 value="0.0550229679184132" flag="0"/>
			<psa10 value="0.0191948140622374" flag="0"/>
			<psa30 value="0.00209119936502989" flag="0"/>
		</comp>
		<comp name=".HNN" depth="0.0">
			<acc value="0.018059990309856" flag="0"/>
			<vel value="0.0114474995817" flag="0"/>
			<psa03 value="0.0657036650452985" flag="0"/>
			<psa10 value="0.0183849197857063" flag="0"/>
			<psa30 value="0.00120723372331109" flag="0"/>
		</comp>
		<comp name=".HNZ" depth="0.0">
			<acc value="0.0088759507000812" flag="0"/>
			<vel value="0.00738567480707" flag="0"/>
			<psa03 value="0.0206575754942346" flag="0"/>
			<psa10 value="0.0133003910856487" flag="0"/>
			<psa30 value="0.00111099245196266" flag="0"/>
		</comp>
	</station>
	<station code="CH03" name="CH03" netid="HI" source="ITSAK Strong Motion Network" insttype="" lat="35.53303" lon="24.0705">
		<comp name=".HNE" depth="0.0">
			<acc value="0.021514099729434" flag="0"/>
			<vel value="0.0128291265229" flag="0"/>
			<psa03 value="0.0848058731813069" flag="0"/>
			<psa10 value="0.0154100567781276" flag="0"/>
			<psa30 value="0.00134626970459264" flag="0"/>
		</comp>
		<comp name=".HNN" depth="0.0">
			<acc value="0.023599297779918" flag="0"/>
			<vel value="0.0128932293958" flag="0"/>
			<psa03 value="0.0620306717276093" flag="0"/>
			<psa10 value="0.0161703155790346" flag="0"/>
			<psa30 value="0.000894034121206238" flag="0"/>
		</comp>
		<comp name=".HNZ" depth="0.0">
			<acc value="0.012978050244624" flag="0"/>
			<vel value="0.00630229850582" flag="0"/>
			<psa03 value="0.0308110541019466" flag="0"/>
			<psa10 value="0.00881814478381142" flag="0"/>
			<psa30 value="0.00103388036449864" flag="0"/>
		</comp>
	</station>
	<station code="GOR1" name="GOR1" netid="HI" source="ITSAK Strong Motion Network" insttype="" lat="35.0582" lon="24.9628">
		<comp name=".HNE" depth="0.0">
			<acc value="0.025110600066894" flag="0"/>
			<vel value="0.0152704628762" flag="0"/>
			<psa03 value="0.0830229581967332" flag="0"/>
			<psa10 value="0.0239475807846954" flag="0"/>
			<psa30 value="0.00176231278624188" flag="0"/>
		</comp>
		<comp name=".HNN" depth="0.0">
			<acc value="0.02088698271927" flag="0"/>
			<vel value="0.013423920421" flag="0"/>
			<psa03 value="0.0552000942353147" flag="0"/>
			<psa10 value="0.0168277922586379" flag="0"/>
			<psa30 value="0.00201587270834118" flag="0"/>
		</comp>
		<comp name=".HNZ" depth="0.0">
			<acc value="0.017713244527038" flag="0"/>
			<vel value="0.0106025759661" flag="0"/>
			<psa03 value="0.0460338568085746" flag="0"/>
			<psa10 value="0.0127699503215411" flag="0"/>
			<psa30 value="0.000797934838431725" flag="0"/>
		</comp>
	</station>
	<station code="HER3" name="HER3" netid="HI" source="ITSAK Strong Motion Network" insttype="" lat="35.3296" lon="25.1065">
		<comp name=".HNE" depth="0.0">
			<acc value="0.13273338141078" flag="0"/>
			<vel value="0.0651857445263" flag="0"/>
			<psa03 value="0.250101026298821" flag="0"/>
			<psa10 value="0.14624470299386" flag="0"/>
			<psa30 value="0.00599482212753838" flag="0"/>
		</comp>
		<comp name=".HNN" depth="0.0">
			<acc value="0.193070157564" flag="0"/>
			<vel value="0.0873559460444" flag="0"/>
			<psa03 value="0.69076775997375" flag="0"/>
			<psa10 value="0.114847953113244" flag="0"/>
			<psa30 value="0.00449466483283731" flag="0"/>
		</comp>
		<comp name=".HNZ" depth="0.0">
			<acc value="0.099686536199292" flag="0"/>
			<vel value="0.0546742339896" flag="0"/>
			<psa03 value="0.270648991667326" flag="0"/>
			<psa10 value="0.0728558888449724" flag="0"/>
			<psa30 value="0.00217608457158821" flag="0"/>
		</comp>
	</station>
	<station code="KRL1" name="KRL1" netid="HI" source="ITSAK Strong Motion Network" insttype="" lat="37.7951" lon="26.7065">
		<comp name=".HNE" depth="0.0">
			<acc value="0.086711544156" flag="0"/>
			<vel value="0.0389230255941" flag="0"/>
			<psa03 value="0.183054876487058" flag="0"/>
			<psa10 value="0.0428284259232157" flag="0"/>
			<psa30 value="0.00214401515548292" flag="0"/>
		</comp>
		<comp name=".HNN" depth="0.0">
			<acc value="0.07527293622039" flag="0"/>
			<vel value="0.0314178128897" flag="0"/>
			<psa03 value="0.183030249855736" flag="0"/>
			<psa10 value="0.041019227322561" flag="0"/>
			<psa30 value="0.00202717012340482" flag="0"/>
		</comp>
		<comp name=".HNZ" depth="0.0">
			<acc value="0.041296356899118" flag="0"/>
			<vel value="0.0259289832543" flag="0"/>
			<psa03 value="0.133939789520171" flag="0"/>
			<psa10 value="0.0246271558032015" flag="0"/>
			<psa30 value="0.00117148979295107" flag="0"/>
		</comp>
	</station>
	<station code="KTL1" name="KTL1" netid="HI" source="ITSAK Strong Motion Network" insttype="" lat="35.20778" lon="25.34272">
		<comp name=".HNE" depth="0.0">
			<acc value="0.029871997387674" flag="0"/>
			<vel value="0.0188977390838" flag="0"/>
			<psa03 value="0.0993886881796234" flag="0"/>
			<psa10 value="0.0232688964501868" flag="0"/>
			<psa30 value="0.00199179819685556" flag="0"/>
		</comp>
		<comp name=".HNN" depth="0.0">
			<acc value="0.054849824923812" flag="0"/>
			<vel value="0.0356544807823" flag="0"/>
			<psa03 value="0.153463895396382" flag="0"/>
			<psa10 value="0.0395255183716296" flag="0"/>
			<psa30 value="0.00158456653225601" flag="0"/>
		</comp>
		<comp name=".HNZ" depth="0.0">
			<acc value="0.02474538941145" flag="0"/>
			<vel value="0.010652553818" flag="0"/>
			<psa03 value="0.0552070999078353" flag="0"/>
			<psa10 value="0.0185348678440207" flag="0"/>
			<psa30 value="0.00139983241952799" flag="0"/>
		</comp>
	</station>
	<station code="NAX1" name="NAX1" netid="HI" source="ITSAK Strong Motion Network" insttype="" lat="37.101394" lon="25.374103">
		<comp name=".HNE" depth="0.0">
			<acc value="0.13931566729692" flag="0"/>
			<vel value="0.0344887327436" flag="0"/>
			<psa03 value="0.228459863511578" flag="0"/>
			<psa10 value="0.0160748548802541" flag="0"/>
			<psa30 value="0.00120289854029122" flag="0"/>
		</comp>
		<comp name=".HNN" depth="0.0">
			<acc value="0.11670235742004" flag="0"/>
			<vel value="0.0229318115103" flag="0"/>
			<psa03 value="0.13683775232952" flag="0"/>
			<psa10 value="0.0187627591906973" flag="0"/>
			<psa30 value="0.00142681149842409" flag="0"/>
		</comp>
		<comp name=".HNZ" depth="0.0">
			<acc value="0.079898485190622" flag="0"/>
			<vel value="0.032045083839" flag="0"/>
			<psa03 value="0.153765207023597" flag="0"/>
			<psa10 value="0.0277408108175562" flag="0"/>
			<psa30 value="0.00126821776320439" flag="0"/>
		</comp>
	</station>
	<station code="RKL1" name="RKL1" netid="HI" source="ITSAK Strong Motion Network" insttype="" lat="36.336699" lon="28.171224">
		<comp name=".HNE" depth="0.0">
			<acc value="0.012470372574402" flag="0"/>
			<vel value="0.0114291355764" flag="0"/>
			<psa03 value="0.0343073143578717" flag="0"/>
			<psa10 value="0.0266851496351881" flag="0"/>
			<psa30 value="0.000966348807533343" flag="0"/>
		</comp>
		<comp name=".HNN" depth="0.0">
			<acc value="0.010382957361546" flag="0"/>
			<vel value="0.011805551321" flag="0"/>
			<psa03 value="0.0245929833311276" flag="0"/>
			<psa10 value="0.016959512234447" flag="0"/>
			<psa30 value="0.00175356033143404" flag="0"/>
		</comp>
		<comp name=".HNZ" depth="0.0">
			<acc value="0.0066871986845238" flag="0"/>
			<vel value="0.00553520167982" flag="0"/>
			<psa03 value="0.0222185291601757" flag="0"/>
			<psa10 value="0.00815862328126398" flag="0"/>
			<psa30 value="0.000360881354535286" flag="0"/>
		</comp>
	</station>
	<station code="RTH1" name="RTH1" netid="HI" source="ITSAK Strong Motion Network" insttype="" lat="35.365393" lon="24.471773">
		<comp name=".HNE" depth="0.0">
			<acc value="0.021885658728504" flag="0"/>
			<vel value="0.0135923995921" flag="0"/>
			<psa03 value="0.0765577486585018" flag="0"/>
			<psa10 value="0.00841172942329531" flag="0"/>
			<psa30 value="0.00155206490001428" flag="0"/>
		</comp>
		<comp name=".HNN" depth="0.0">
			<acc value="0.019587244945584" flag="0"/>
			<vel value="0.0106253429579" flag="0"/>
			<psa03 value="0.0606645291440081" flag="0"/>
			<psa10 value="0.0123406125050115" flag="0"/>
			<psa30 value="0.00131159532425244" flag="0"/>
		</comp>
		<comp name=".HNZ" depth="0.0">
			<acc value="0.017333817077934" flag="0"/>
			<vel value="0.00642875355406" flag="0"/>
			<psa03 value="0.0387002329713216" flag="0"/>
			<psa10 value="0.00530608400204192" flag="0"/>
			<psa30 value="0.000885832327875963" flag="0"/>
		</comp>
	</station>
	<station code="SFR2" name="SFR2" netid="HI" source="ITSAK Strong Motion Network" insttype="" lat="36.399841" lon="25.438209">
		<comp name=".HNE" depth="0.0">
			<acc value="0.56136389607006" flag="0"/>
			<vel value="0.204190721031" flag="0"/>
			<psa03 value="1.25154565875902" flag="0"/>
			<psa10 value="0.211640275129731" flag="0"/>
			<psa30 value="0.0115092824334797" flag="0"/>
		</comp>
		<comp name=".HNN" depth="0.0">
			<acc value="0.57333450006852" flag="0"/>
			<vel value="0.160137010944" flag="0"/>
			<psa03 value="1.04070869184272" flag="0"/>
			<psa10 value="0.175429916370798" flag="0"/>
			<psa30 value="0.010444058534302" flag="0"/>
		</comp>
		<comp name=".HNZ" depth="0.0">
			<acc value="0.65910706914342" flag="0"/>
			<vel value="0.162074911508" flag="0"/>
			<psa03 value="0.553086555934754" flag="0"/>
			<psa10 value="0.152583282893777" flag="0"/>
			<psa30 value="0.00700367312563464" flag="0"/>
		</comp>
	</station>
	<station code="AMGA" name="AMGA" netid="HL" source="National Observatory of Athens Seismic Network" insttype="" lat="36.831561" lon="25.893836">
		<comp name="00.HNE" depth="0.0">
			<acc value="0.99622184701212" flag="0"/>
			<vel value="0.40801681464" flag="0"/>
			<psa03 value="1.19575229605261" flag="0"/>
			<psa10 value="0.312086464196786" flag="0"/>
			<psa30 value="0.023129542218641" flag="0"/>
		</comp>
		<comp name="00.HNN" depth="0.0">
			<acc value="0.9823010685864" flag="0"/>
			<vel value="0.341232764158" flag="0"/>
			<psa03 value="0.800698125653757" flag="0"/>
			<psa10 value="0.222791578848642" flag="0"/>
			<psa30 value="0.01334953517453" flag="0"/>
		</comp>
		<comp name="00.HNZ" depth="0.0">
			<acc value="0.66326705397852" flag="0"/>
			<vel value="0.145263132811" flag="0"/>
			<psa03 value="0.46113025595117" flag="0"/>
			<psa10 value="0.0557416001074905" flag="0"/>
			<psa30 value="0.00417762924743339" flag="0"/>
		</comp>
	</station>
	<station code="ANAF" name="ANAF" netid="HL" source="National Observatory of Athens Seismic Network" insttype="" lat="36.35675" lon="25.77262">
		<comp name=".HNE" depth="0.0">
			<acc value="6.6918787043688" flag="0"/>
			<vel value="2.06014990812" flag="0"/>
			<psa03 value="10.6020229986805" flag="0"/>
			<psa10 value="0.803019516103895" flag="0"/>
			<psa30 value="0.061107548075052" flag="0"/>
		</comp>
		<comp name=".HNN" depth="0.0">
			<acc value="5.2798759867422" flag="0"/>
			<vel value="1.70641342605" flag="0"/>
			<psa03 value="7.40847277497663" flag="0"/>
			<psa10 value="0.394446090117566" flag="0"/>
			<psa30 value="0.0349339575365736" flag="0"/>
		</comp>
		<comp name=".HNZ" depth="0.0">
			<acc value="3.236051263509" flag="0"/>
			<vel value="0.861633507405" flag="0"/>
			<psa03 value="4.37263199874232" flag="0"/>
			<psa10 value="0.19627823746999" flag="0"/>
			<psa30 value="0.014621276921166" flag="0"/>
		</comp>
	</station>
	<station code="ASTA" name="ASTA" netid="HL" source="National Observatory of Athens Seismic Network" insttype="" lat="36.54552" lon="26.35295">
		<comp name="00.HNE" depth="0.0">
			<acc value="0.15499073953044" flag="0"/>
			<vel value="0.0572024869603" flag="0"/>
			<psa03 value="0.319202124740915" flag="0"/>
			<psa10 value="0.0324549874836236" flag="0"/>
			<psa30 value="0.00188144797002678" flag="0"/>
		</comp>
		<comp name="00.HNN" depth="0.0">
			<acc value="0.14264946719232" flag="0"/>
			<vel value="0.0685603539009" flag="0"/>
			<psa03 value="0.244269556659115" flag="0"/>
			<psa10 value="0.0517120144171572" flag="0"/>
			<psa30 value="0.00337249903650924" flag="0"/>
		</comp>
		<comp name="00.HNZ" depth="0.0">
			<acc value="0.091307807611146" flag="0"/>
			<vel value="0.0475246278795" flag="0"/>
			<psa03 value="0.240901375200682" flag="0"/>
			<psa10 value="0.0315447346838651" flag="0"/>
			<psa30 value="0.00167650199752997" flag="0"/>
		</comp>
	</station>
	<station code="CHNB" name="CHNB" netid="HL" source="National Observatory of Athens Seismic Network" insttype="" lat="35.48765" lon="24.06605">
		<comp name="00.HNE" depth="0.0">
			<acc value="0.033351657001758" flag="0"/>
			<vel value="0.0231203924635" flag="0"/>
			<psa03 value="0.112327691158044" flag="0"/>
			<psa10 value="0.0411685659653369" flag="0"/>
			<psa30 value="0.00220811856868445" flag="0"/>
		</comp>
		<comp name="00.HNN" depth="0.0">
			<acc value="0.053730646324494" flag="0"/>
			<vel value="0.0429997098561" flag="0"/>
			<psa03 value="0.112677474746516" flag="0"/>
