<?xml version="1.0" encoding="UTF-8" standalone="yes"?>
<!DOCTYPE earthquake SYSTEM "stationlist.dtd">
<stationlist created="" xmlns="ch.ethz.sed.shakemap.usgs.xml">
  <station code="KMRS" name="KMRS" netid="KO" insttype="CMG-3T" lat="37.5053" lon="36.9">
    <comp name="--.HHE">
      <acc value="0.0180583925" flag="0"/>
      <vel value="0.0101841209" flag="0"/>
      <psa03 value="0.0468247604" flag="0"/>
      <psa10 value="0.0095504801" flag="0"/>
      <psa30 value="0.0012055533" flag="0"/>
    </comp>
    <comp name="--.HHN">
      <acc value="0.0305667451" flag="0"/>
      <vel value="0.0183324894" flag="0"/>
      <psa03 value="0.0781320856" flag="0"/>
      <psa10 value="0.0117329259" flag="0"/>
      <psa30 value="0.0016733975" flag="0"/>
    </comp>
    <comp name="--.HHZ">
      <acc value="0.0194260832" flag="0"/>
      <vel value="0.0128111271" flag="0"/>
      <psa03 value="0.0688182036" flag="0"/>
      <psa10 value="0.0118259549" flag="0"/>
      <psa30 value="0.0010429523" flag="0"/>
    </comp>
  </station>
</stationlist>
