<?xml version="1.0" encoding="UTF-8" standalone="yes"?>
<!DOCTYPE earthquake SYSTEM "stationlist.dtd">
<stationlist created="" xmlns="ch.ethz.sed.shakemap.usgs.xml">
  <station code="BZS" name="BZS" netid="MN" insttype="" lat="45.6188" lon="21.6401">
    <comp name="--.HHN">
      <acc value="0.0208245144" flag="0"/>
      <vel value="0.0050446239" flag="0"/>
      <psa03 value="0.0363095761" flag="0"/>
      <psa10 value="0.0020556203" flag="0"/>
      <psa30 value="0.0001263514" flag="0"/>
    </comp>
    <comp name="--.HHE">
      <acc value="0.0198838979" flag="0"/>
      <vel value="0.0089157361" flag="0"/>
      <psa03 value="0.0448760601" flag="0"/>
      <psa10 value="0.0021905598" flag="0"/>
      <psa30 value="0.0001927263" flag="0"/>
    </comp>
    <comp name="--.HHZ">
      <acc value="0.0143690010" flag="0"/>
      <vel value="0.0047319276" flag="0"/>
      <psa03 value="0.0194052593" flag="0"/>
      <psa10 value="0.0025573706" flag="0"/>
      <psa30 value="0.0001895509" flag="0"/>
    </comp>
  </station>
  <station code="ARR" name="ARR" netid="RO" insttype="w/attenuator" lat="45.3657" lon="24.6332">
    <comp name="--.HHE">
      <acc value="0.0047468212" flag="0"/>
      <vel value="0.0019267541" flag="0"/>
      <psa03 value="0.0128528605" flag="0"/>
      <psa10 value="0.0010331928" flag="0"/>
      <psa30 value="0.0000834180" flag="0"/>
    </comp>
    <comp name="--.HHN">
      <acc value="0.0053503200" flag="0"/>
      <vel value="0.0021370667" flag="0"/>
      <psa03 value="0.0134042939" flag="0"/>
      <psa10 value="0.0009555049" flag="0"/>
      <psa30 value="0.0000789331" flag="0"/>
    </comp>
    <comp name="--.HHZ">
      <acc value="0.0073077337" flag="0"/>
      <vel value="0.0014776275" flag="0"/>
      <psa03 value="0.0067864739" flag="0"/>
      <psa10 value="0.0009379453" flag="0"/>
      <psa30 value="0.0000418944" flag="0"/>
    </comp>
  </station>
  <station code="BZS" name="BZS" netid="RO" insttype="w/attenuator" lat="45.6188" lon="21.6401">
    <comp name="--.HHE">
      <acc value="0.0145186771" flag="0"/>
      <vel value="0.0067247225" flag="0"/>
      <psa03 value="0.0335415845" flag="0"/>
      <psa10 value="0.0016521429" flag="0"/>
      <psa30 value="0.0001459154" flag="0"/>
    </comp>
    <comp name="--.HHN">
      <acc value="0.0154910990" flag="0"/>
      <vel value="0.0037538750" flag="0"/>
      <psa03 value="0.0272069186" flag="0"/>
      <psa10 value="0.0015325977" flag="0"/>
      <psa30 value="0.0000954302" flag="0"/>
    </comp>
  </station>
  <station code="DEV" name="DEV" netid="RO" insttype="CMG40T.1to100/Quanterra" lat="45.887" lon="22.898">
    <comp name="--.HHE">
      <acc value="0.1415082007" flag="0"/>
      <vel value="0.0281724998" flag="0"/>
      <psa03 value="0.1117002480" flag="0"/>
      <psa10 value="0.0071718191" flag="0"/>
      <psa30 value="0.0004545945" flag="0"/>
    </comp>
    <comp name="--.HHN">
      <acc value="0.1423648008" flag="0"/>
      <vel value="0.0373209980" flag="0"/>
      <psa03 value="0.2073448701" flag="0"/>
      <psa10 value="0.0061060862" flag="0"/>
      <psa30 value="0.0005517592" flag="0"/>
    </comp>
    <comp name="--.HHZ">
      <acc value="0.1156648049" flag="0"/>
      <vel value="0.0208454532" flag="0"/>
      <psa03 value="0.0767688539" flag="0"/>
      <psa10 value="0.0026364711" flag="0"/>
      <psa30 value="0.0002745723" flag="0"/>
    </comp>
  </station>
  <station code="GZR" name="GZR" netid="RO" insttype="330" lat="45.3933" lon="22.7767">
    <comp name="--.HHE">
      <acc value="0.9090432709" flag="0"/>
      <vel value="0.1672440031" flag="0"/>
      <psa03 value="0.3868365379" flag="0"/>
      <psa10 value="0.0203163076" flag="0"/>
      <psa30 value="0.0020413487" flag="0"/>
    </comp>
    <comp name="--.HHN">
      <acc value="0.6258385696" flag="0"/>
      <vel value="0.1293849602" flag="0"/>
      <psa03 value="0.4509405313" flag="0"/>
      <psa10 value="0.0217548280" flag="0"/>
      <psa30 value="0.0024714186" flag="0"/>
    </comp>
    <comp name="--.HHZ">
      <acc value="0.4778753936" flag="0"/>
      <vel value="0.1087858385" flag="0"/>
      <psa03 value="0.1961618031" flag="0"/>
      <psa10 value="0.0130784703" flag="0"/>
      <psa30 value="0.0014324809" flag="0"/>
    </comp>
  </station>
  <station code="HERR" name="HERR" netid="RO" insttype="CMG40T.1to100/Quanterra" lat="44.881" lon="22.416">
    <comp name="--.HHZ">
      <acc value="0.0792079261" flag="0"/>
      <vel value="0.0097866326" flag="0"/>
      <psa03 value="0.0339494937" flag="0"/>
      <psa10 value="0.0024878382" flag="0"/>
      <psa30 value="0.0002236612" flag="0"/>
    </comp>
    <comp name="--.HHE">
      <acc value="0.1153496673" flag="0"/>
      <vel value="0.0227937913" flag="0"/>
      <psa03 value="0.1216817541" flag="0"/>
      <psa10 value="0.0048858153" flag="0"/>
      <psa30 value="0.0004421703" flag="0"/>
    </comp>
    <comp name="--.HHN">
      <acc value="0.1593690025" flag="0"/>
      <vel value="0.0270275214" flag="0"/>
      <psa03 value="0.1179184464" flag="0"/>
      <psa10 value="0.0042064443" flag="0"/>
      <psa30 value="0.0004832895" flag="0"/>
    </comp>
  </station>
  <station code="LOT" name="LOT" netid="RO" insttype="330" lat="45.446" lon="23.7698">
    <comp name="--.HHE">
      <acc value="0.2048206186" flag="0"/>
      <vel value="0.0439065086" flag="0"/>
      <psa03 value="0.1529002683" flag="0"/>
      <psa10 value="0.0048727683" flag="0"/>
      <psa30 value="0.0004830711" flag="0"/>
    </comp>
    <comp name="--.HHN">
      <acc value="0.1691611049" flag="0"/>
      <vel value="0.0336710924" flag="0"/>
      <psa03 value="0.0965891873" flag="0"/>
      <psa10 value="0.0051388862" flag="0"/>
      <psa30 value="0.0004958170" flag="0"/>
    </comp>
    <comp name="--.HHZ">
      <acc value="0.1200632603" flag="0"/>
      <vel value="0.0218984374" flag="0"/>
      <psa03 value="0.0741601424" flag="0"/>
      <psa10 value="0.0022765099" flag="0"/>
      <psa30 value="0.0002308561" flag="0"/>
    </comp>
  </station>
  <station code="MDVR" name="MDVR" netid="RO" insttype="CMG40T.1to100/Quanterra" lat="44.7815" lon="21.7128">
    <comp name="--.HHE">
      <acc value="0.0232336463" flag="0"/>
      <vel value="0.0069187885" flag="0"/>
      <psa03 value="0.0385892703" flag="0"/>
      <psa10 value="0.0019353158" flag="0"/>
      <psa30 value="0.0001294136" flag="0"/>
    </comp>
    <comp name="--.HHZ">
      <acc value="0.0173304514" flag="0"/>
      <vel value="0.0047066961" flag="0"/>
      <psa03 value="0.0199511797" flag="0"/>
      <psa10 value="0.0011845013" flag="0"/>
      <psa30 value="0.0001189077" flag="0"/>
    </comp>
    <comp name="--.HHN">
      <acc value="0.0429793509" flag="0"/>
      <vel value="0.0082417535" flag="0"/>
      <psa03 value="0.0302123551" flag="0"/>
      <psa10 value="0.0022194177" flag="0"/>
      <psa30 value="0.0001848367" flag="0"/>
    </comp>
  </station>
  <station code="MHISU" name="MHISU" netid="RO" insttype="200" lat="44.6227" lon="22.6535">
    <comp name="--.HNE">
      <acc value="0.0314164164" flag="0"/>
      <vel value="0.0108625745" flag="0"/>
      <psa03 value="0.0871186663" flag="0"/>
      <psa10 value="0.0097574748" flag="0"/>
      <psa30 value="0.0004955915" flag="0"/>
    </comp>
    <comp name="--.HNN">
      <acc value="0.0299190434" flag="0"/>
      <vel value="0.0171354018" flag="0"/>
      <psa03 value="0.0801095577" flag="0"/>
      <psa10 value="0.0088274607" flag="0"/>
      <psa30 value="0.0007052209" flag="0"/>
    </comp>
    <comp name="--.HNZ">
      <acc value="0.0484043377" flag="0"/>
      <vel value="0.0089217928" flag="0"/>
      <psa03 value="0.0516740961" flag="0"/>
      <psa10 value="0.0041020494" flag="0"/>
      <psa30 value="0.0002978474" flag="0"/>
    </comp>
  </station>
  <station code="RMGR" name="RMGR" netid="RO" insttype="MBB2/Quanterra" lat="44.6627" lon="22.6922">
    <comp name="--.HHE">
      <acc value="0.0459994964" flag="0"/>
      <vel value="0.0185503264" flag="0"/>
      <psa03 value="0.1069831677" flag="0"/>
      <psa10 value="0.0111771463" flag="0"/>
      <psa30 value="0.0006922185" flag="0"/>
    </comp>
    <comp name="--.HHN">
      <acc value="0.0541138776" flag="0"/>
      <vel value="0.0192221430" flag="0"/>
      <psa03 value="0.1125245509" flag="0"/>
      <psa10 value="0.0133612983" flag="0"/>
      <psa30 value="0.0006876443" flag="0"/>
    </comp>
    <comp name="--.HHZ">
      <acc value="0.0983528917" flag="0"/>
      <vel value="0.0144013947" flag="0"/>
      <psa03 value="0.0408414105" flag="0"/>
      <psa10 value="0.0065765129" flag="0"/>
      <psa30 value="0.0004021596" flag="0"/>
    </comp>
  </station>
  <station code="SRE" name="SRE" netid="RO" insttype="Seismometer/Quanterra" lat="44.6609" lon="23.2038">
    <comp name="--.HHE">
      <acc value="0.2489549364" flag="0"/>
      <vel value="0.0673097735" flag="0"/>
      <psa03 value="0.2941747390" flag="0"/>
      <psa10 value="0.0182946506" flag="0"/>
      <psa30 value="0.0020704444" flag="0"/>
    </comp>
    <comp name="--.HHN">
      <acc value="0.1331096504" flag="0"/>
      <vel value="0.0326628599" flag="0"/>
      <psa03 value="0.1617095048" flag="0"/>
      <psa10 value="0.0129951900" flag="0"/>
      <psa30 value="0.0008451058" flag="0"/>
    </comp>
    <comp name="--.HHZ">
      <acc value="0.0658648784" flag="0"/>
      <vel value="0.0190112356" flag="0"/>
      <psa03 value="0.0970192127" flag="0"/>
      <psa10 value="0.0044891614" flag="0"/>
      <psa30 value="0.0004592111" flag="0"/>
    </comp>
  </station>
  <station code="SURR" name="SURR" netid="RO" insttype="Linear" lat="45.754" lon="22.1246">
    <comp name="--.HHN">
      <acc value="0.1010360553" flag="0"/>
      <vel value="0.0099438874" flag="0"/>
      <psa03 value="0.0224723706" flag="0"/>
      <psa10 value="0.0010207330" flag="0"/>
      <psa30 value="0.0001133593" flag="0"/>
    </comp>
    <comp name="--.HHE">
      <acc value="0.0815845360" flag="0"/>
      <vel value="0.0101483920" flag="0"/>
      <psa03 value="0.0160687324" flag="0"/>
      <psa10 value="0.0009844788" flag="0"/>
      <psa30 value="0.0000860952" flag="0"/>
    </comp>
    <comp name="--.HHZ">
      <acc value="0.0267539840" flag="0"/>
      <vel value="0.0036642476" flag="0"/>
      <psa03 value="0.0093590256" flag="0"/>
      <psa10 value="0.0009190364" flag="0"/>
      <psa30 value="0.0000775520" flag="0"/>
    </comp>
  </station>
</stationlist>
