<?xml version="1.0" encoding="UTF-8" standalone="yes"?>
<!DOCTYPE earthquake SYSTEM "stationlist.dtd">
<stationlist created="" xmlns="ch.ethz.sed.shakemap.usgs.xml">
  <station code="DEV" name="DEV" netid="RO" insttype="CMG40T.1to100/Quanterra" lat="45.887" lon="22.898">
    <comp name="--.HHN">
      <acc value="0.1423648022" flag="0"/>
      <vel value="0.0373209959" flag="0"/>
      <psa03 value="0.2073448701" flag="0"/>
      <psa10 value="0.0061060862" flag="0"/>
      <psa30 value="0.0005517461" flag="0"/>
    </comp>
    <comp name="--.HHE">
      <acc value="0.1415082000" flag="0"/>
      <vel value="0.0281725000" flag="0"/>
      <psa03 value="0.1117002480" flag="0"/>
      <psa10 value="0.0071718191" flag="0"/>
      <psa30 value="0.0004545982" flag="0"/>
    </comp>
    <comp name="--.HHZ">
      <acc value="0.1156648028" flag="0"/>
      <vel value="0.0208454531" flag="0"/>
      <psa03 value="0.0767688539" flag="0"/>
      <psa10 value="0.0026364711" flag="0"/>
      <psa30 value="0.0002745418" flag="0"/>
    </comp>
  </station>
  <station code="GZR" name="GZR" netid="RO" insttype="330" lat="45.3933" lon="22.7767">
    <comp name="--.HHN">
      <acc value="0.6258385696" flag="0"/>
      <vel value="0.1293849601" flag="0"/>
      <psa03 value="0.4509405313" flag="0"/>
      <psa10 value="0.0217548280" flag="0"/>
      <psa30 value="0.0024714389" flag="0"/>
    </comp>
    <comp name="--.HHE">
      <acc value="0.9090432710" flag="0"/>
      <vel value="0.1672440032" flag="0"/>
      <psa03 value="0.3868365379" flag="0"/>
      <psa10 value="0.0203163076" flag="0"/>
      <psa30 value="0.0020413303" flag="0"/>
    </comp>
    <comp name="--.HHZ">
      <acc value="0.4778753934" flag="0"/>
      <vel value="0.1087858384" flag="0"/>
      <psa03 value="0.1961618031" flag="0"/>
      <psa10 value="0.0130784702" flag="0"/>
      <psa30 value="0.0014324781" flag="0"/>
    </comp>
  </station>
  <station code="HERR" name="HERR" netid="RO" insttype="CMG40T.1to100/Quanterra" lat="44.881" lon="22.416">
    <comp name="--.HHE">
      <acc value="0.1153496673" flag="0"/>
      <vel value="0.0227937912" flag="0"/>
      <psa03 value="0.1216817541" flag="0"/>
      <psa10 value="0.0048858150" flag="0"/>
      <psa30 value="0.0004422093" flag="0"/>
    </comp>
    <comp name="--.HHN">
      <acc value="0.1593690032" flag="0"/>
      <vel value="0.0270275210" flag="0"/>
      <psa03 value="0.1179184464" flag="0"/>
      <psa10 value="0.0042064446" flag="0"/>
      <psa30 value="0.0004833558" flag="0"/>
    </comp>
    <comp name="--.HHZ">
      <acc value="0.0792079260" flag="0"/>
      <vel value="0.0097866316" flag="0"/>
      <psa03 value="0.0339494937" flag="0"/>
      <psa10 value="0.0024878383" flag="0"/>
      <psa30 value="0.0002236006" flag="0"/>
    </comp>
  </station>
  <station code="LOT" name="LOT" netid="RO" insttype="330" lat="45.446" lon="23.7698">
    <comp name="--.HHE">
      <acc value="0.2048206187" flag="0"/>
      <vel value="0.0439065088" flag="0"/>
      <psa03 value="0.1529002683" flag="0"/>
      <psa10 value="0.0048727688" flag="0"/>
      <psa30 value="0.0004829962" flag="0"/>
    </comp>
    <comp name="--.HHN">
      <acc value="0.1691611058" flag="0"/>
      <vel value="0.0336710927" flag="0"/>
      <psa03 value="0.0965891873" flag="0"/>
      <psa10 value="0.0051388866" flag="0"/>
      <psa30 value="0.0004959851" flag="0"/>
    </comp>
    <comp name="--.HHZ">
      <acc value="0.1200632615" flag="0"/>
      <vel value="0.0218984374" flag="0"/>
      <psa03 value="0.0741601424" flag="0"/>
      <psa10 value="0.0022765099" flag="0"/>
      <psa30 value="0.0002308494" flag="0"/>
    </comp>
  </station>
  <station code="MHISU" name="MHISU" netid="RO" insttype="200" lat="44.6227" lon="22.6535">
    <comp name="--.HNE">
      <acc value="0.0314164213" flag="0"/>
      <vel value="0.0108625761" flag="0"/>
      <psa03 value="0.0871186663" flag="0"/>
      <psa10 value="0.0097574748" flag="0"/>
      <psa30 value="0.0004955735" flag="0"/>
    </comp>
    <comp name="--.HNZ">
      <acc value="0.0484043384" flag="0"/>
      <vel value="0.0089217965" flag="0"/>
      <psa03 value="0.0516740961" flag="0"/>
      <psa10 value="0.0041020494" flag="0"/>
      <psa30 value="0.0002978794" flag="0"/>
    </comp>
    <comp name="--.HNN">
      <acc value="0.0299190426" flag="0"/>
      <vel value="0.0171353991" flag="0"/>
      <psa03 value="0.0801095577" flag="0"/>
      <psa10 value="0.0088274607" flag="0"/>
      <psa30 value="0.0007055478" flag="0"/>
    </comp>
  </station>
  <station code="RMGR" name="RMGR" netid="RO" insttype="MBB2/Quanterra" lat="44.6627" lon="22.6922">
    <comp name="--.HHE">
      <acc value="0.0459994948" flag="0"/>
      <vel value="0.0185503275" flag="0"/>
      <psa03 value="0.1069831677" flag="0"/>
      <psa10 value="0.0111771464" flag="0"/>
      <psa30 value="0.0006917390" flag="0"/>
    </comp>
    <comp name="--.HHN">
      <acc value="0.0541138810" flag="0"/>
      <vel value="0.0192221420" flag="0"/>
      <psa03 value="0.1125245509" flag="0"/>
      <psa10 value="0.0133612983" flag="0"/>
      <psa30 value="0.0006875625" flag="0"/>
    </comp>
    <comp name="--.HHZ">
      <acc value="0.0983528925" flag="0"/>
      <vel value="0.0144013985" flag="0"/>
      <psa03 value="0.0408414105" flag="0"/>
      <psa10 value="0.0065765129" flag="0"/>
      <psa30 value="0.0004022370" flag="0"/>
    </comp>
  </station>
  <station code="SRE" name="SRE" netid="RO" insttype="Seismometer/Quanterra" lat="44.6609" lon="23.2038">
    <comp name="--.HHE">
      <acc value="0.2489549364" flag="0"/>
      <vel value="0.0673097737" flag="0"/>
      <psa03 value="0.2941747390" flag="0"/>
      <psa10 value="0.0182946395" flag="0"/>
      <psa30 value="0.0020705346" flag="0"/>
    </comp>
    <comp name="--.HHN">
      <acc value="0.1331096497" flag="0"/>
      <vel value="0.0326628591" flag="0"/>
      <psa03 value="0.1617095048" flag="0"/>
      <psa10 value="0.0129951897" flag="0"/>
      <psa30 value="0.0008455449" flag="0"/>
    </comp>
    <comp name="--.HHZ">
      <acc value="0.0658648791" flag="0"/>
      <vel value="0.0190112370" flag="0"/>
      <psa03 value="0.0970192127" flag="0"/>
      <psa10 value="0.0044891614" flag="0"/>
      <psa30 value="0.0004601647" flag="0"/>
    </comp>
  </station>
</stationlist>
