<?xml version="1.0" encoding="UTF-8" standalone="yes"?>
<!DOCTYPE earthquake SYSTEM "stationlist.dtd">
<stationlist created="" xmlns="ch.ethz.sed.shakemap.usgs.xml">
  <station code="EREN" name="EREN" netid="KO" insttype="120s," lat="35.5292" lon="34.1742">
    <comp name="--.HHN">
      <acc value="0.0212709693" flag="0"/>
      <vel value="0.0183958383" flag="0"/>
      <psa03 value="0.0589128317" flag="0"/>
      <psa10 value="0.0345063422" flag="0"/>
      <psa30 value="0.0020422683" flag="0"/>
    </comp>
    <comp name="--.HHZ">
      <acc value="0.0257678527" flag="0"/>
      <vel value="0.0189968844" flag="0"/>
      <psa03 value="0.0619868501" flag="0"/>
      <psa10 value="0.0268561769" flag="0"/>
      <psa30 value="0.0014904514" flag="0"/>
    </comp>
    <comp name="--.HHE">
      <acc value="0.0277505877" flag="0"/>
      <vel value="0.0197496784" flag="0"/>
      <psa03 value="0.0841814725" flag="0"/>
      <psa10 value="0.0242179284" flag="0"/>
      <psa30 value="0.0018636528" flag="0"/>
    </comp>
  </station>
  <station code="SLFK" name="SLFK" netid="KO" insttype="100" lat="36.3926" lon="33.9465">
    <comp name="--.HNE">
      <acc value="0.4093741810" flag="0"/>
      <vel value="0.2174690294" flag="0"/>
      <psa03 value="1.5316900274" flag="0"/>
      <psa10 value="0.2034346030" flag="0"/>
      <psa30 value="0.0152923119" flag="0"/>
    </comp>
    <comp name="--.HNN">
      <acc value="0.2352444671" flag="0"/>
      <vel value="0.1481799227" flag="0"/>
      <psa03 value="0.7621522336" flag="0"/>
      <psa10 value="0.1146390190" flag="0"/>
      <psa30 value="0.0080607159" flag="0"/>
    </comp>
    <comp name="--.HNZ">
      <acc value="0.1875750441" flag="0"/>
      <vel value="0.0952565716" flag="0"/>
      <psa03 value="0.6540824575" flag="0"/>
      <psa10 value="0.1117519828" flag="0"/>
      <psa30 value="0.0081679217" flag="0"/>
    </comp>
  </station>
</stationlist>
