<stationlist created="1778069293">
	<station code="CMRD" name="CMRD" netid="KO" source="Bogazici University Kandilli Observatory And Earthquake Research Institute (KOERI)" insttype="" lat="37.6623" lon="34.9902">
		<comp name="--.HNE" depth="0.0">
			<acc value="0.0212803353523562" flag="0"/>
			<vel value="0.0181589761090412" flag="0"/>
			<psa03 value="0.0714085617627617" flag="0"/>
			<psa10 value="0.0301768286757596" flag="0"/>
			<psa30 value="0.00215925889139779" flag="0"/>
		</comp>
		<comp name="--.HNN" depth="0.0">
			<acc value="0.0207106638366698" flag="0"/>
			<vel value="0.0167985617413472" flag="0"/>
			<psa03 value="0.0754801025650245" flag="0"/>
			<psa10 value="0.0370908418644811" flag="0"/>
			<psa30 value="0.00198386944145417" flag="0"/>
		</comp>
		<comp name="--.HNZ" depth="0.0">
			<acc value="0.0176478103909375" flag="0"/>
			<vel value="0.012839833429732" flag="0"/>
			<psa03 value="0.0373597425262569" flag="0"/>
			<psa10 value="0.0197313131186578" flag="0"/>
			<psa30 value="0.00200266116823384" flag="0"/>
		</comp>
	</station>
	<station code="KRTS" name="KRTS" netid="KO" source="Bogazici University Kandilli Observatory And Earthquake Research Institute (KOERI)" insttype="" lat="36.573" lon="35.375">
		<comp name="--.HNE" depth="0.0">
			<acc value="0.259859947667996" flag="0"/>
			<vel value="0.13603943087584" flag="0"/>
			<psa03 value="0.85614212364063" flag="0"/>
			<psa10 value="0.122386489717422" flag="0"/>
			<psa30 value="0.01493718567951" flag="0"/>
		</comp>
		<comp name="--.HNN" depth="0.0">
			<acc value="0.262558920979273" flag="0"/>
			<vel value="0.293170389657697" flag="0"/>
			<psa03 value="0.745315677847171" flag="0"/>
			<psa10 value="0.417595121562713" flag="0"/>
			<psa30 value="0.0236404397108962" flag="0"/>
		</comp>
		<comp name="--.HNZ" depth="0.0">
			<acc value="0.189650178364683" flag="0"/>
			<vel value="0.104459586399924" flag="0"/>
			<psa03 value="0.519680729871226" flag="0"/>
			<psa10 value="0.145995609883685" flag="0"/>
			<psa30 value="0.0121609317588463" flag="0"/>
		</comp>
	</station>
	<station code="SLFK" name="SLFK" netid="KO" source="Bogazici University Kandilli Observatory And Earthquake Research Institute (KOERI)" insttype="" lat="36.3925" lon="33.9464">
		<comp name="--.HNE" depth="0.0">
			<acc value="0.408864841722785" flag="0"/>
			<vel value="0.217669498926718" flag="0"/>
			<psa03 value="1.52074286074844" flag="0"/>
			<psa10 value="0.203421784656171" flag="0"/>
			<psa30 value="0.0153519459348614" flag="0"/>
		</comp>
		<comp name="--.HNN" depth="0.0">
			<acc value="0.234511741343726" flag="0"/>
			<vel value="0.148391480207754" flag="0"/>
			<psa03 value="0.758201433353233" flag="0"/>
			<psa10 value="0.114618795226424" flag="0"/>
			<psa30 value="0.00793547776581668" flag="0"/>
		</comp>
		<comp name="--.HNZ" depth="0.0">
			<acc value="0.187934857094322" flag="0"/>
			<vel value="0.095144268717141" flag="0"/>
			<psa03 value="0.64437725971635" flag="0"/>
			<psa10 value="0.111586615883904" flag="0"/>
			<psa30 value="0.00824240930321802" flag="0"/>
		</comp>
	</station>
</stationlist>
