<?xml version="1.0" encoding="UTF-8" standalone="yes"?>
<!DOCTYPE earthquake SYSTEM "stationlist.dtd">
<stationlist created="" xmlns="ch.ethz.sed.shakemap.usgs.xml">
  <station code="BNN" name="BNN" netid="KO" insttype="CMG-3T" lat="38.8521" lon="35.8472">
    <comp name="--.HHZ">
      <acc value="0.0158994049" flag="0"/>
      <vel value="0.0112059956" flag="0"/>
      <psa03 value="0.0354977312" flag="0"/>
      <psa10 value="0.0213464105" flag="0"/>
      <psa30 value="0.0030285449" flag="0"/>
    </comp>
  </station>
  <station code="CEYT" name="CEYT" netid="KO" insttype="CMG-3ESP" lat="37.0105" lon="35.7478">
    <comp name="--.HHE">
      <acc value="0.0280090944" flag="0"/>
      <vel value="0.0301490037" flag="0"/>
      <psa03 value="0.0670876875" flag="0"/>
      <psa10 value="0.0409923274" flag="0"/>
      <psa30 value="0.0059485625" flag="0"/>
    </comp>
    <comp name="--.HHZ">
      <acc value="0.0119905857" flag="0"/>
      <vel value="0.0190614558" flag="0"/>
      <psa03 value="0.0257068994" flag="0"/>
      <psa10 value="0.0376870441" flag="0"/>
      <psa30 value="0.0076299502" flag="0"/>
    </comp>
    <comp name="--.HHN">
      <acc value="0.0148100890" flag="0"/>
      <vel value="0.0227406039" flag="0"/>
      <psa03 value="0.0363106253" flag="0"/>
      <psa10 value="0.0325956914" flag="0"/>
      <psa30 value="0.0051716560" flag="0"/>
    </comp>
  </station>
  <station code="CMRD" name="CMRD" netid="KO" insttype="CMG-5T" lat="37.6623" lon="34.9902">
    <comp name="--.HNN">
      <acc value="0.0220671963" flag="0"/>
      <vel value="0.0158259363" flag="0"/>
      <psa03 value="0.0719367181" flag="0"/>
      <psa10 value="0.0166158123" flag="0"/>
      <psa30 value="0.0069091938" flag="0"/>
    </comp>
    <comp name="--.HNZ">
      <acc value="0.0177451113" flag="0"/>
      <vel value="0.0111397606" flag="0"/>
      <psa03 value="0.0408218291" flag="0"/>
      <psa10 value="0.0130447177" flag="0"/>
      <psa30 value="0.0066262367" flag="0"/>
    </comp>
    <comp name="--.HNE">
      <acc value="0.0213617264" flag="0"/>
      <vel value="0.0125343023" flag="0"/>
      <psa03 value="0.0296357440" flag="0"/>
      <psa10 value="0.0177119180" flag="0"/>
      <psa30 value="0.0025638372" flag="0"/>
    </comp>
  </station>
  <station code="DARE" name="DARE" netid="KO" insttype="CMG-3ESP" lat="38.5712" lon="37.4832">
    <comp name="--.HHE">
      <acc value="0.0365218825" flag="0"/>
      <vel value="0.0215519402" flag="0"/>
      <psa03 value="0.0775108810" flag="0"/>
      <psa10 value="0.0360535026" flag="0"/>
      <psa30 value="0.0031592006" flag="0"/>
    </comp>
  </station>
  <station code="ANDN" name="ANDN" netid="TU" insttype="T" lat="37.58" lon="36.3452">
    <comp name="--.HHN">
      <acc value="0.8811634047" flag="0"/>
      <vel value="0.3529402356" flag="0"/>
      <psa03 value="1.2891709526" flag="0"/>
      <psa10 value="0.3115460000" flag="0"/>
      <psa30 value="0.0720974996" flag="0"/>
    </comp>
    <comp name="--.HHE">
      <acc value="0.6947071116" flag="0"/>
      <vel value="0.3798193779" flag="0"/>
      <psa03 value="1.1748825403" flag="0"/>
      <psa10 value="0.5293731267" flag="0"/>
      <psa30 value="0.0448398744" flag="0"/>
    </comp>
    <comp name="--.HHZ">
      <acc value="0.3307431093" flag="0"/>
      <vel value="0.2823160085" flag="0"/>
      <psa03 value="0.6183942339" flag="0"/>
      <psa10 value="0.4088566662" flag="0"/>
      <psa30 value="0.0509003953" flag="0"/>
    </comp>
  </station>
</stationlist>
