<stationlist created="1684742469">
	<station code="ARPRA" name="ARPRA" netid="KO" source="Bogazici University Kandilli Observatory And Earthquake Research Institute (KOERI)" insttype="" lat="39.0929" lon="38.3356">
		<comp name=".HNE" depth="0.0">
			<acc value="0.014636831363" flag="0"/>
			<vel value="0.0174577828768" flag="0"/>
			<psa03 value="0.0452111564755" flag="0"/>
			<psa10 value="0.019836292182" flag="0"/>
			<psa30 value="0.00531289403648" flag="0"/>
		</comp>
		<comp name=".HNN" depth="0.0">
			<acc value="0.0145699053383" flag="0"/>
			<vel value="0.0163061276496" flag="0"/>
			<psa03 value="0.0532930668626" flag="0"/>
			<psa10 value="0.0218033087372" flag="0"/>
			<psa30 value="0.00599168233621" flag="0"/>
		</comp>
		<comp name=".HNZ" depth="0.0">
			<acc value="0.00799055444867" flag="0"/>
			<vel value="0.011068468869" flag="0"/>
			<psa03 value="0.0150366510523" flag="0"/>
			<psa10 value="0.0139288099028" flag="0"/>
			<psa30 value="0.00363037382778" flag="0"/>
		</comp>
	</station>
	<station code="CMRD" name="CMRD" netid="KO" source="Bogazici University Kandilli Observatory And Earthquake Research Institute (KOERI)" insttype="" lat="37.6623" lon="34.9902">
		<comp name=".HNE" depth="0.0">
			<acc value="0.0208360061343" flag="0"/>
			<vel value="0.0133003238256" flag="0"/>
			<psa03 value="0.0296093442863" flag="0"/>
			<psa10 value="0.0179317510155" flag="0"/>
			<psa30 value="0.00320388515833" flag="0"/>
		</comp>
		<comp name=".HNN" depth="0.0">
			<acc value="0.0222448450268" flag="0"/>
			<vel value="0.01759515263" flag="0"/>
			<psa03 value="0.0727998122137" flag="0"/>
			<psa10 value="0.016975732059" flag="0"/>
			<psa30 value="0.0085229496036" flag="0"/>
		</comp>
		<comp name=".HNZ" depth="0.0">
			<acc value="0.0177850671669" flag="0"/>
			<vel value="0.0116821438735" flag="0"/>
			<psa03 value="0.0415302381536" flag="0"/>
			<psa10 value="0.013080078991" flag="0"/>
			<psa30 value="0.00785362526414" flag="0"/>
		</comp>
	</station>
	<station code="KHMN" name="KHMN" netid="KO" source="Bogazici University Kandilli Observatory And Earthquake Research Institute (KOERI)" insttype="" lat="37.3916" lon="37.1574">
		<comp name=".HNE" depth="0.0">
			<acc value="0.0866386411867" flag="0"/>
			<vel value="0.0397884143469" flag="0"/>
			<psa03 value="0.196075905733" flag="0"/>
			<psa10 value="0.0334252930116" flag="0"/>
			<psa30 value="0.00900703417182" flag="0"/>
		</comp>
		<comp name=".HNN" depth="0.0">
			<acc value="0.0729718901209" flag="0"/>
			<vel value="0.0383910137771" flag="0"/>
			<psa03 value="0.178367190951" flag="0"/>
			<psa10 value="0.0359229134667" flag="0"/>
			<psa30 value="0.00966112416872" flag="0"/>
		</comp>
		<comp name=".HNZ" depth="0.0">
			<acc value="0.0481310747607" flag="0"/>
			<vel value="0.0203539214601" flag="0"/>
			<psa03 value="0.0979960750923" flag="0"/>
			<psa10 value="0.0151546836109" flag="0"/>
			<psa30 value="0.0108095894156" flag="0"/>
		</comp>
	</station>
	<station code="KOZK" name="KOZK" netid="KO" source="Bogazici University Kandilli Observatory And Earthquake Research Institute (KOERI)" insttype="" lat="39.2101" lon="34.868">
		<comp name=".HNE" depth="0.0">
			<acc value="0.0247149490761" flag="0"/>
			<vel value="0.0240653151431" flag="0"/>
			<psa03 value="0.0367270736134" flag="0"/>
			<psa10 value="0.0504641792544" flag="0"/>
			<psa30 value="0.00319787496852" flag="0"/>
		</comp>
		<comp name=".HNN" depth="0.0">
			<acc value="0.018875043746" flag="0"/>
			<vel value="0.0201721909258" flag="0"/>
			<psa03 value="0.0345093251359" flag="0"/>
			<psa10 value="0.0523438037703" flag="0"/>
			<psa30 value="0.00355130400646" flag="0"/>
		</comp>
		<comp name=".HNZ" depth="0.0">
			<acc value="0.0148485652819" flag="0"/>
			<vel value="0.0122299912992" flag="0"/>
			<psa03 value="0.0338645610693" flag="0"/>
			<psa10 value="0.0151867266711" flag="0"/>
			<psa30 value="0.00189106777396" flag="0"/>
		</comp>
	</station>
</stationlist>
