<?xml version="1.0" encoding="UTF-8" standalone="yes"?>
<!DOCTYPE earthquake SYSTEM "stationlist.dtd">
<stationlist created="" xmlns="ch.ethz.sed.shakemap.usgs.xml">
  <station code="BNN" name="BNN" netid="KO" insttype="CMG-3T" lat="38.8521" lon="35.8472">
    <comp name="--.HHZ">
      <acc value="0.0158994050" flag="0"/>
      <vel value="0.0112059954" flag="0"/>
      <psa03 value="0.0354977312" flag="0"/>
      <psa10 value="0.0213464105" flag="0"/>
      <psa30 value="0.0030285342" flag="0"/>
    </comp>
  </station>
  <station code="CEYT" name="CEYT" netid="KO" insttype="CMG-3ESP" lat="37.0105" lon="35.7478">
    <comp name="--.HHN">
      <acc value="0.0148100891" flag="0"/>
      <vel value="0.0227405992" flag="0"/>
      <psa03 value="0.0363106253" flag="0"/>
      <psa10 value="0.0325956914" flag="0"/>
      <psa30 value="0.0051716851" flag="0"/>
    </comp>
    <comp name="--.HHZ">
      <acc value="0.0119905857" flag="0"/>
      <vel value="0.0190614572" flag="0"/>
      <psa03 value="0.0257068994" flag="0"/>
      <psa10 value="0.0376870441" flag="0"/>
      <psa30 value="0.0076299499" flag="0"/>
    </comp>
    <comp name="--.HHE">
      <acc value="0.0280090941" flag="0"/>
      <vel value="0.0301490059" flag="0"/>
      <psa03 value="0.0670876875" flag="0"/>
      <psa10 value="0.0409923274" flag="0"/>
      <psa30 value="0.0059485617" flag="0"/>
    </comp>
  </station>
  <station code="CMRD" name="CMRD" netid="KO" insttype="CMG-5T" lat="37.6623" lon="34.9902">
    <comp name="--.HNE">
      <acc value="0.0213617272" flag="0"/>
      <vel value="0.0125342988" flag="0"/>
      <psa03 value="0.0296357440" flag="0"/>
      <psa10 value="0.0177119180" flag="0"/>
      <psa30 value="0.0025636755" flag="0"/>
    </comp>
    <comp name="--.HNZ">
      <acc value="0.0177451131" flag="0"/>
      <vel value="0.0111397571" flag="0"/>
      <psa03 value="0.0408218291" flag="0"/>
      <psa10 value="0.0130447177" flag="0"/>
      <psa30 value="0.0066262660" flag="0"/>
    </comp>
    <comp name="--.HNN">
      <acc value="0.0220671992" flag="0"/>
      <vel value="0.0158259366" flag="0"/>
      <psa03 value="0.0719367181" flag="0"/>
      <psa10 value="0.0166158123" flag="0"/>
      <psa30 value="0.0069091833" flag="0"/>
    </comp>
  </station>
  <station code="DARE" name="DARE" netid="KO" insttype="CMG-3ESP" lat="38.5712" lon="37.4832">
    <comp name="--.HHE">
      <acc value="0.0365218823" flag="0"/>
      <vel value="0.0215519406" flag="0"/>
      <psa03 value="0.0775108810" flag="0"/>
      <psa10 value="0.0360535026" flag="0"/>
      <psa30 value="0.0031592059" flag="0"/>
    </comp>
  </station>
  <station code="ANDN" name="ANDN" netid="TU" insttype="T" lat="37.58" lon="36.3452">
    <comp name="--.HHZ">
      <acc value="0.3307431092" flag="0"/>
      <vel value="0.2823160081" flag="0"/>
      <psa03 value="0.6183942339" flag="0"/>
      <psa10 value="0.4088566662" flag="0"/>
      <psa30 value="0.0509003352" flag="0"/>
    </comp>
    <comp name="--.HHE">
      <acc value="0.6947071116" flag="0"/>
      <vel value="0.3798193781" flag="0"/>
      <psa03 value="1.1748825403" flag="0"/>
      <psa10 value="0.5293731267" flag="0"/>
      <psa30 value="0.0448398836" flag="0"/>
    </comp>
    <comp name="--.HHN">
      <acc value="0.8811634045" flag="0"/>
      <vel value="0.3529402354" flag="0"/>
      <psa03 value="1.2891709526" flag="0"/>
      <psa10 value="0.3115460000" flag="0"/>
      <psa30 value="0.0720974861" flag="0"/>
    </comp>
  </station>
</stationlist>
