<?xml version="1.0" encoding="UTF-8" standalone="yes"?>
<!DOCTYPE earthquake SYSTEM "stationlist.dtd">
<stationlist created="" xmlns="ch.ethz.sed.shakemap.usgs.xml">
  <station code="KRI1" name="KRI1" netid="HI" insttype="CMG-5TD,ACCELEROMETER,GURALP" lat="37.6621" lon="20.8172">
    <comp name="--.HNE">
      <acc value="0.3890496363" flag="0"/>
      <vel value="0.2518088119" flag="0"/>
      <psa03 value="0.8584441751" flag="0"/>
      <psa10 value="0.4208319612" flag="0"/>
      <psa30 value="0.0451324804" flag="0"/>
    </comp>
    <comp name="--.HNN">
      <acc value="0.3404364248" flag="0"/>
      <vel value="0.2484058575" flag="0"/>
      <psa03 value="0.5973077011" flag="0"/>
      <psa10 value="0.3524027648" flag="0"/>
      <psa30 value="0.0433766026" flag="0"/>
    </comp>
    <comp name="--.HNZ">
      <acc value="0.3682777027" flag="0"/>
      <vel value="0.1832074572" flag="0"/>
      <psa03 value="1.0099223126" flag="0"/>
      <psa10 value="0.1410099759" flag="0"/>
      <psa30 value="0.0193558263" flag="0"/>
    </comp>
  </station>
  <station code="PYL1" name="PYL1" netid="HI" insttype="CMG-5TD,ACCELEROMETER,GURALP" lat="36.9142" lon="21.6952">
    <comp name="--.HNE">
      <acc value="0.1765519200" flag="0"/>
      <vel value="0.1951967817" flag="0"/>
      <psa03 value="0.7437795950" flag="0"/>
      <psa10 value="0.1587272714" flag="0"/>
      <psa30 value="0.0617787193" flag="0"/>
    </comp>
    <comp name="--.HNN">
      <acc value="0.2858079994" flag="0"/>
      <vel value="0.1911778040" flag="0"/>
      <psa03 value="0.4540398693" flag="0"/>
      <psa10 value="0.2551034527" flag="0"/>
      <psa30 value="0.0519386359" flag="0"/>
    </comp>
    <comp name="--.HNZ">
      <acc value="0.3316042699" flag="0"/>
      <vel value="0.2291759605" flag="0"/>
      <psa03 value="0.6480839088" flag="0"/>
      <psa10 value="0.2130208532" flag="0"/>
      <psa30 value="0.0311273255" flag="0"/>
    </comp>
  </station>
  <station code="ITM" name="ITM" netid="HL" insttype="DR24" lat="37.1787" lon="21.9252">
    <comp name="--.HHZ">
      <acc value="0.4509857342" flag="0"/>
      <vel value="0.1597712842" flag="0"/>
      <psa03 value="0.6107566591" flag="0"/>
      <psa10 value="0.1427798526" flag="0"/>
      <psa30 value="0.0124572258" flag="0"/>
    </comp>
    <comp name="--.HHN">
      <acc value="0.3984287855" flag="0"/>
      <vel value="0.2316399235" flag="0"/>
      <psa03 value="0.8282943426" flag="0"/>
      <psa10 value="0.2654564835" flag="0"/>
      <psa30 value="0.0315101581" flag="0"/>
    </comp>
    <comp name="--.HHE">
      <acc value="0.4422999837" flag="0"/>
      <vel value="0.2344386695" flag="0"/>
      <psa03 value="0.7349389465" flag="0"/>
      <psa10 value="0.2514375487" flag="0"/>
      <psa30 value="0.0654850793" flag="0"/>
    </comp>
  </station>
  <station code="KLV" name="KLV" netid="HL" insttype="120" lat="38.0435" lon="22.1504">
    <comp name="--.HHN">
      <acc value="0.0531213792" flag="0"/>
      <vel value="0.0446544198" flag="0"/>
      <psa03 value="0.1303411372" flag="0"/>
      <psa10 value="0.1019701284" flag="0"/>
      <psa30 value="0.0074798845" flag="0"/>
    </comp>
    <comp name="--.HHE">
      <acc value="0.0419770118" flag="0"/>
      <vel value="0.0314964484" flag="0"/>
      <psa03 value="0.0819562656" flag="0"/>
      <psa10 value="0.0362086406" flag="0"/>
      <psa30 value="0.0030405771" flag="0"/>
    </comp>
    <comp name="--.HHZ">
      <acc value="0.0567496234" flag="0"/>
      <vel value="0.0534663048" flag="0"/>
      <psa03 value="0.1334722342" flag="0"/>
      <psa10 value="0.1156683649" flag="0"/>
      <psa30 value="0.0101063690" flag="0"/>
    </comp>
  </station>
  <station code="ORTH" name="ORTH" netid="HL" insttype="30" lat="37.8511" lon="20.6963">
    <comp name="--.HHE">
      <acc value="0.3016256030" flag="0"/>
      <vel value="0.2363516183" flag="0"/>
      <psa03 value="0.7139085437" flag="0"/>
      <psa10 value="0.1402560610" flag="0"/>
      <psa30 value="0.0173766801" flag="0"/>
    </comp>
    <comp name="--.HHN">
      <acc value="0.3289492274" flag="0"/>
      <vel value="0.1918038306" flag="0"/>
      <psa03 value="0.5958005336" flag="0"/>
      <psa10 value="0.1871230208" flag="0"/>
      <psa30 value="0.0130028247" flag="0"/>
    </comp>
    <comp name="--.HHZ">
      <acc value="0.2173667687" flag="0"/>
      <vel value="0.0918289507" flag="0"/>
      <psa03 value="0.3810099342" flag="0"/>
      <psa10 value="0.1963105724" flag="0"/>
      <psa30 value="0.0231765261" flag="0"/>
    </comp>
  </station>
  <station code="RLS" name="RLS" netid="HL" insttype="CMG3ESPC-120s" lat="38.0559" lon="21.4647">
    <comp name="--.HHN">
      <acc value="0.1496807510" flag="0"/>
      <vel value="0.0873240332" flag="0"/>
      <psa03 value="0.3310241273" flag="0"/>
      <psa10 value="0.2086481075" flag="0"/>
      <psa30 value="0.0197872912" flag="0"/>
    </comp>
    <comp name="--.HHZ">
      <acc value="0.1173909841" flag="0"/>
      <vel value="0.0800796564" flag="0"/>
      <psa03 value="0.3465661030" flag="0"/>
      <psa10 value="0.1032972943" flag="0"/>
      <psa30 value="0.0138090433" flag="0"/>
    </comp>
    <comp name="--.HHE">
      <acc value="0.0980045395" flag="0"/>
      <vel value="0.0698049818" flag="0"/>
      <psa03 value="0.3175370500" flag="0"/>
      <psa10 value="0.0707256567" flag="0"/>
      <psa30 value="0.0091471877" flag="0"/>
    </comp>
  </station>
  <station code="VLS" name="VLS" netid="HL" insttype="120P," lat="38.1768" lon="20.5886">
    <comp name="--.HHE">
      <acc value="0.1458699529" flag="0"/>
      <vel value="0.0633835715" flag="0"/>
      <psa03 value="0.3117560321" flag="0"/>
      <psa10 value="0.0604490015" flag="0"/>
      <psa30 value="0.0034795472" flag="0"/>
    </comp>
    <comp name="--.HHN">
      <acc value="0.1180809169" flag="0"/>
      <vel value="0.0550920383" flag="0"/>
      <psa03 value="0.2768652803" flag="0"/>
      <psa10 value="0.0927701183" flag="0"/>
      <psa30 value="0.0077922630" flag="0"/>
    </comp>
    <comp name="--.HHZ">
      <acc value="0.1128213618" flag="0"/>
      <vel value="0.0617824436" flag="0"/>
      <psa03 value="0.3307333910" flag="0"/>
      <psa10 value="0.1039918039" flag="0"/>
      <psa30 value="0.0086001313" flag="0"/>
    </comp>
  </station>
  <station code="AMT" name="AMT" netid="HP" insttype="CMG-3T," lat="37.5324" lon="21.7089">
    <comp name="00.HHE">
      <acc value="0.8777922485" flag="0"/>
      <vel value="0.7105007108" flag="0"/>
      <psa03 value="2.2401083888" flag="0"/>
      <psa10 value="1.3195861796" flag="0"/>
      <psa30 value="0.1006310192" flag="0"/>
    </comp>
    <comp name="00.HHN">
      <acc value="0.9049938727" flag="0"/>
      <vel value="0.7347290938" flag="0"/>
      <psa03 value="1.8759455127" flag="0"/>
      <psa10 value="1.0985354078" flag="0"/>
      <psa30 value="0.0944760495" flag="0"/>
    </comp>
    <comp name="00.HHZ">
      <acc value="0.6569427822" flag="0"/>
      <vel value="0.5987027714" flag="0"/>
      <psa03 value="1.4548299885" flag="0"/>
      <psa10 value="1.1507024584" flag="0"/>
      <psa30 value="0.0533771523" flag="0"/>
    </comp>
  </station>
  <station code="AXS" name="AXS" netid="HP" insttype="Compact," lat="38.1962" lon="21.3763">
    <comp name="--.HHE">
      <acc value="0.0633681028" flag="0"/>
      <vel value="0.0338757530" flag="0"/>
      <psa03 value="0.1299653603" flag="0"/>
      <psa10 value="0.0691589452" flag="0"/>
      <psa30 value="0.0079799857" flag="0"/>
    </comp>
    <comp name="--.HHN">
      <acc value="0.0890418584" flag="0"/>
      <vel value="0.0679003182" flag="0"/>
      <psa03 value="0.2281886396" flag="0"/>
      <psa10 value="0.0800773269" flag="0"/>
      <psa30 value="0.0116749872" flag="0"/>
    </comp>
    <comp name="--.HHZ">
      <acc value="0.0669316570" flag="0"/>
      <vel value="0.0498901481" flag="0"/>
      <psa03 value="0.2274742317" flag="0"/>
      <psa10 value="0.0739012133" flag="0"/>
      <psa30 value="0.0116402276" flag="0"/>
    </comp>
  </station>
  <station code="DRO" name="DRO" netid="HP" insttype="120P," lat="37.952" lon="21.71">
    <comp name="--.HHZ">
      <acc value="0.2388648639" flag="0"/>
      <vel value="0.1250838722" flag="0"/>
      <psa03 value="0.3805039822" flag="0"/>
      <psa10 value="0.0668223839" flag="0"/>
      <psa30 value="0.0145164971" flag="0"/>
    </comp>
    <comp name="--.HHN">
      <acc value="0.3383446048" flag="0"/>
      <vel value="0.1651685300" flag="0"/>
      <psa03 value="1.0953437616" flag="0"/>
      <psa10 value="0.1198139696" flag="0"/>
      <psa30 value="0.0076719529" flag="0"/>
    </comp>
    <comp name="--.HHE">
      <acc value="0.2818956724" flag="0"/>
      <vel value="0.1288552482" flag="0"/>
      <psa03 value="0.5759656607" flag="0"/>
      <psa10 value="0.0815287197" flag="0"/>
      <psa30 value="0.0069939991" flag="0"/>
    </comp>
  </station>
  <station code="LTHK" name="LTHK" netid="HP" insttype="40," lat="37.7095" lon="20.8367">
    <comp name="--.HHE">
      <acc value="0.4061630147" flag="0"/>
      <vel value="0.1627381375" flag="0"/>
      <psa03 value="0.8000575219" flag="0"/>
      <psa10 value="0.2217876683" flag="0"/>
      <psa30 value="0.0254514736" flag="0"/>
    </comp>
    <comp name="--.HHN">
      <acc value="0.5862003965" flag="0"/>
      <vel value="0.1623799458" flag="0"/>
      <psa03 value="0.6480063245" flag="0"/>
      <psa10 value="0.1376632616" flag="0"/>
      <psa30 value="0.0309994843" flag="0"/>
    </comp>
    <comp name="--.HHZ">
      <acc value="0.4470297594" flag="0"/>
      <vel value="0.2249081242" flag="0"/>
      <psa03 value="1.0726587905" flag="0"/>
      <psa10 value="0.2052013306" flag="0"/>
      <psa30 value="0.0197866874" flag="0"/>
    </comp>
  </station>
  <station code="PYL" name="PYL" netid="HP" insttype="120s" lat="36.8955" lon="21.742">
    <comp name="--.HHZ">
      <acc value="0.2683589309" flag="0"/>
      <vel value="0.1379602038" flag="0"/>
      <psa03 value="0.4508268789" flag="0"/>
      <psa10 value="0.2007818636" flag="0"/>
      <psa30 value="0.0279158263" flag="0"/>
    </comp>
    <comp name="--.HHE">
      <acc value="0.3572937537" flag="0"/>
      <vel value="0.1718571498" flag="0"/>
      <psa03 value="1.1363320639" flag="0"/>
      <psa10 value="0.1426952429" flag="0"/>
      <psa30 value="0.0346474634" flag="0"/>
    </comp>
    <comp name="--.HHN">
      <acc value="0.2083526871" flag="0"/>
      <vel value="0.1196559177" flag="0"/>
      <psa03 value="0.5836449229" flag="0"/>
      <psa10 value="0.0642786156" flag="0"/>
      <psa30 value="0.0292199353" flag="0"/>
    </comp>
  </station>
  <station code="VALY" name="VALY" netid="HP" insttype="DC_100" lat="37.1641" lon="21.9836">
    <comp name="--.HNE">
      <acc value="0.4604832657" flag="0"/>
      <vel value="0.2959741585" flag="0"/>
      <psa03 value="1.1709105543" flag="0"/>
      <psa10 value="0.4052766132" flag="0"/>
      <psa30 value="0.0260874403" flag="0"/>
    </comp>
    <comp name="--.HNN">
      <acc value="0.2720552966" flag="0"/>
      <vel value="0.1728426452" flag="0"/>
      <psa03 value="0.6107900276" flag="0"/>
      <psa10 value="0.2186558971" flag="0"/>
      <psa30 value="0.0270251111" flag="0"/>
    </comp>
    <comp name="--.HNZ">
      <acc value="0.2853234213" flag="0"/>
      <vel value="0.1296703932" flag="0"/>
      <psa03 value="0.4635554278" flag="0"/>
      <psa10 value="0.1529951922" flag="0"/>
      <psa30 value="0.0145134355" flag="0"/>
    </comp>
  </station>
  <station code="VLX" name="VLX" netid="HP" insttype="40," lat="37.3703" lon="22.3793">
    <comp name="--.HHE">
      <acc value="0.2059104465" flag="0"/>
      <vel value="0.1385306492" flag="0"/>
      <psa03 value="0.5182355130" flag="0"/>
      <psa10 value="0.1756308893" flag="0"/>
      <psa30 value="0.0142990009" flag="0"/>
    </comp>
    <comp name="--.HHN">
      <acc value="0.1641131739" flag="0"/>
      <vel value="0.1112497391" flag="0"/>
      <psa03 value="0.3255443511" flag="0"/>
      <psa10 value="0.1405943351" flag="0"/>
      <psa30 value="0.0109406901" flag="0"/>
    </comp>
    <comp name="--.HHZ">
      <acc value="0.2095109891" flag="0"/>
      <vel value="0.1632324306" flag="0"/>
      <psa03 value="0.5152596846" flag="0"/>
      <psa10 value="0.2156608126" flag="0"/>
      <psa30 value="0.0150814631" flag="0"/>
    </comp>
  </station>
  <station code="RTZL" name="RTZL" netid="HT" insttype="Compact," lat="38.076" lon="20.7715">
    <comp name="--.HHE">
      <acc value="0.2173782494" flag="0"/>
      <vel value="0.0520043454" flag="0"/>
      <psa03 value="0.3825126331" flag="0"/>
      <psa10 value="0.1042567331" flag="0"/>
      <psa30 value="0.0056624404" flag="0"/>
    </comp>
    <comp name="--.HHN">
      <acc value="0.1902275976" flag="0"/>
      <vel value="0.1918435380" flag="0"/>
      <psa03 value="0.5323586946" flag="0"/>
      <psa10 value="0.1953990900" flag="0"/>
      <psa30 value="0.0191305159" flag="0"/>
    </comp>
    <comp name="--.HHZ">
      <acc value="0.2082418527" flag="0"/>
      <vel value="0.0979356092" flag="0"/>
      <psa03 value="0.9105729272" flag="0"/>
      <psa10 value="0.0664826642" flag="0"/>
      <psa30 value="0.0153568584" flag="0"/>
    </comp>
  </station>
  <station code="KLV" name="KLV" netid="MN" insttype="" lat="38.0437" lon="22.1504">
    <comp name="--.HHN">
      <acc value="0.0543825922" flag="0"/>
      <vel value="0.0449174537" flag="0"/>
      <psa03 value="0.1331846972" flag="0"/>
      <psa10 value="0.1025469999" flag="0"/>
      <psa30 value="0.0075075910" flag="0"/>
    </comp>
    <comp name="--.HHE">
      <acc value="0.0432496793" flag="0"/>
      <vel value="0.0320741791" flag="0"/>
      <psa03 value="0.0847223813" flag="0"/>
      <psa10 value="0.0364696168" flag="0"/>
      <psa30 value="0.0030569494" flag="0"/>
    </comp>
    <comp name="--.HHZ">
      <acc value="0.0595827868" flag="0"/>
      <vel value="0.0537612011" flag="0"/>
      <psa03 value="0.1368234025" flag="0"/>
      <psa10 value="0.1161955203" flag="0"/>
      <psa30 value="0.0101234373" flag="0"/>
    </comp>
  </station>
</stationlist>
