<stationlist xmlns:esm="https://esm-db.eu/esmws/shakemap/1/" created="1784080570">
	<station code="MALA" name="MALA" netid="CL" source="Corinth Riff Laboratory (CRLNET)" insttype="" lat="38.39341" lon="21.87263" esm:processing="manual (Paolucci et al 2011)" esm:quality="bad">
		<comp name="00.HNE" depth="0.0">
			<acc value="0.406048076048924" flag="0"/>
			<vel value="0.581507725342367" flag="0"/>
			<psa03 value="0.949130458569994" flag="0"/>
			<psa10 value="1.0726992210575" flag="0"/>
			<psa30 value="0.180535612931515" flag="0"/>
		</comp>
		<comp name="00.HNN" depth="0.0">
			<acc value="0.323983002606691" flag="0"/>
			<vel value="0.534078257580926" flag="0"/>
			<psa03 value="0.743724684778018" flag="0"/>
			<psa10 value="1.18997975031783" flag="0"/>
			<psa30 value="0.135297816149815" flag="0"/>
		</comp>
		<comp name="00.HNZ" depth="0.0">
			<acc value="0.131114915513019" flag="0"/>
			<vel value="0.186111507515349" flag="0"/>
			<psa03 value="0.292910174695026" flag="0"/>
			<psa10 value="0.411148436564226" flag="0"/>
			<psa30 value="0.0580251105456096" flag="0"/>
		</comp>
	</station>
	<station code="ROD3" name="ROD3" netid="CL" source="Corinth Riff Laboratory (CRLNET)" insttype="" lat="38.30811" lon="21.89204" esm:processing="manual (Paolucci et al 2011)" esm:quality="good">
		<comp name="00.HNE" depth="0.0">
			<acc value="0.68765297788576" flag="0"/>
			<vel value="0.480284812137191" flag="0"/>
			<psa03 value="2.28104777488853" flag="0"/>
			<psa10 value="0.62051340596934" flag="0"/>
			<psa30 value="0.13860480855484" flag="0"/>
		</comp>
		<comp name="00.HNN" depth="0.0">
			<acc value="0.69610528227129" flag="0"/>
			<vel value="0.440050708223081" flag="0"/>
			<psa03 value="1.92830474072525" flag="0"/>
			<psa10 value="0.463729979836109" flag="0"/>
			<psa30 value="0.0888024293919944" flag="0"/>
		</comp>
		<comp name="00.HNZ" depth="0.0">
			<acc value="0.28329584953094" flag="0"/>
			<vel value="0.316943854689136" flag="0"/>
			<psa03 value="0.607662546330337" flag="0"/>
			<psa10 value="0.25409010222213" flag="0"/>
			<psa30 value="0.05036361967611" flag="0"/>
		</comp>
	</station>
	<station code="TRIZ" name="TRIZ" netid="CL" source="Corinth Riff Laboratory (CRLNET)" insttype="" lat="38.36543" lon="22.07272" esm:processing="manual (Paolucci et al 2011)" esm:quality="good">
		<comp name="00.HNE" depth="0.0">
			<acc value="0.273102444028758" flag="0"/>
			<vel value="0.232886564714341" flag="0"/>
			<psa03 value="0.848785811229683" flag="0"/>
			<psa10 value="0.236084664450279" flag="0"/>
			<psa30 value="0.0511631759757874" flag="0"/>
		</comp>
		<comp name="00.HNN" depth="0.0">
			<acc value="0.27930924633967" flag="0"/>
			<vel value="0.269726907669104" flag="0"/>
			<psa03 value="1.00075312831703" flag="0"/>
			<psa10 value="0.357756959642621" flag="0"/>
			<psa30 value="0.0664184398955902" flag="0"/>
		</comp>
		<comp name="00.HNZ" depth="0.0">
			<acc value="0.109168755030011" flag="0"/>
			<vel value="0.145323929399159" flag="0"/>
			<psa03 value="0.272107525788144" flag="0"/>
			<psa10 value="0.199891511831682" flag="0"/>
			<psa30 value="0.0236748400086218" flag="0"/>
		</comp>
	</station>
	<station code="AIGS" name="AIGS" netid="HA" source="Hellenic Seismological Network, University of Athens, Seismological Laboratory (HA)" insttype="" lat="38.25001" lon="22.0878" esm:processing="manual (Paolucci et al 2011)" esm:quality="good">
		<comp name="--.HNE" depth="0.0">
			<acc value="0.401807511023744" flag="0"/>
			<vel value="0.405478658718827" flag="0"/>
			<psa03 value="1.05584844477548" flag="0"/>
			<psa10 value="0.455076356573919" flag="0"/>
			<psa30 value="0.0758538849474104" flag="0"/>
		</comp>
		<comp name="--.HNN" depth="0.0">
			<acc value="0.386912633120686" flag="0"/>
			<vel value="0.393686489491842" flag="0"/>
			<psa03 value="0.76629434657292" flag="0"/>
			<psa10 value="0.573679283436713" flag="0"/>
			<psa30 value="0.07739306691087" flag="0"/>
		</comp>
		<comp name="--.HNZ" depth="0.0">
			<acc value="0.185677919368781" flag="0"/>
			<vel value="0.345638962221425" flag="0"/>
			<psa03 value="0.556878182114423" flag="0"/>
			<psa10 value="0.507454816392763" flag="0"/>
			<psa30 value="0.0537897666412705" flag="0"/>
		</comp>
	</station>
	<station code="DRES" name="DRES" netid="HA" source="Hellenic Seismological Network, University of Athens, Seismological Laboratory (HA)" insttype="" lat="38.319719" lon="21.853176" esm:processing="manual (Paolucci et al 2011)" esm:quality="good">
		<comp name="--.HNE" depth="0.0">
			<acc value="0.339753480139664" flag="0"/>
			<vel value="0.418142014931708" flag="0"/>
			<psa03 value="0.804534296449512" flag="0"/>
			<psa10 value="0.94304635219395" flag="0"/>
			<psa30 value="0.112723040681767" flag="0"/>
		</comp>
		<comp name="--.HNN" depth="0.0">
			<acc value="0.272252681067037" flag="0"/>
			<vel value="0.351708944280615" flag="0"/>
			<psa03 value="0.668604708448873" flag="0"/>
			<psa10 value="0.443399973073937" flag="0"/>
			<psa30 value="0.117703210593163" flag="0"/>
		</comp>
		<comp name="--.HNZ" depth="0.0">
			<acc value="0.131883607789261" flag="0"/>
			<vel value="0.179878296776875" flag="0"/>
			<psa03 value="0.340066819424531" flag="0"/>
			<psa10 value="0.419370751252977" flag="0"/>
			<psa30 value="0.0469208882787417" flag="0"/>
		</comp>
	</station>
	<station code="KIAS" name="KIAS" netid="HA" source="Hellenic Seismological Network, University of Athens, Seismological Laboratory (HA)" insttype="" lat="37.9875" lon="22.7543" esm:processing="manual (Paolucci et al 2011)" esm:quality="good">
		<comp name="--.HNE" depth="0.0">
			<acc value="0.24658198418357" flag="0"/>
			<vel value="0.450025070992552" flag="0"/>
			<psa03 value="0.57204151994392" flag="0"/>
			<psa10 value="0.629792720675087" flag="0"/>
			<psa30 value="0.152283448030921" flag="0"/>
		</comp>
		<comp name="--.HNN" depth="0.0">
			<acc value="0.324858861321816" flag="0"/>
			<vel value="0.554282352229904" flag="0"/>
			<psa03 value="0.634046794153017" flag="0"/>
			<psa10 value="0.687563887732733" flag="0"/>
			<psa30 value="0.127264150625456" flag="0"/>
		</comp>
		<comp name="--.HNZ" depth="0.0">
			<acc value="0.197946988308981" flag="0"/>
			<vel value="0.234736647728606" flag="0"/>
			<psa03 value="0.684855409978236" flag="0"/>
			<psa10 value="0.351091388081214" flag="0"/>
			<psa30 value="0.0616952336731154" flag="0"/>
		</comp>
	</station>
	<station code="AGR3" name="AGR3" netid="HI" source="ITSAK Strong Motion Network" insttype="" lat="38.5893" lon="21.4162" esm:processing="manual (Paolucci et al 2011)" esm:quality="good">
		<comp name="--.HNE" depth="0.0">
			<acc value="0.335839078543076" flag="0"/>
			<vel value="0.422594884046719" flag="0"/>
			<psa03 value="1.03289975787308" flag="0"/>
			<psa10 value="0.762275136986773" flag="0"/>
			<psa30 value="0.187879846117739" flag="0"/>
		</comp>
		<comp name="--.HNN" depth="0.0">
			<acc value="0.460480902285994" flag="0"/>
			<vel value="0.414946699447658" flag="0"/>
			<psa03 value="1.42352696834201" flag="0"/>
			<psa10 value="0.878482375145985" flag="0"/>
			<psa30 value="0.141637796142205" flag="0"/>
		</comp>
		<comp name="--.HNZ" depth="0.0">
			<acc value="0.217497856444539" flag="0"/>
			<vel value="0.320860280544534" flag="0"/>
			<psa03 value="0.529159887578903" flag="0"/>
			<psa10 value="0.42760416667747" flag="0"/>
			<psa30 value="0.0956125005255846" flag="0"/>
		</comp>
	</station>
	<station code="AIG2" name="AIG2" netid="HI" source="ITSAK Strong Motion Network" insttype="" lat="38.2417" lon="22.0726" esm:processing="manual (Paolucci et al 2011)" esm:quality="good">
		<comp name="--.HNE" depth="0.0">
			<acc value="0.235115557384424" flag="0"/>
			<vel value="0.304298375494827" flag="0"/>
			<psa03 value="0.671933678975219" flag="0"/>
			<psa10 value="0.468195385646515" flag="0"/>
			<psa30 value="0.0791171077867709" flag="0"/>
		</comp>
		<comp name="--.HNN" depth="0.0">
			<acc value="0.277514866653568" flag="0"/>
			<vel value="0.373662397732778" flag="0"/>
			<psa03 value="0.688344057748942" flag="0"/>
			<psa10 value="0.446705352037256" flag="0"/>
			<psa30 value="0.0660021723199943" flag="0"/>
		</comp>
		<comp name="--.HNZ" depth="0.0">
			<acc value="0.145813172720672" flag="0"/>
			<vel value="0.253017634433518" flag="0"/>
			<psa03 value="0.390141094932826" flag="0"/>
			<psa10 value="0.389838114861883" flag="0"/>
			<psa30 value="0.0434220998343427" flag="0"/>
		</comp>
	</station>
	<station code="AKR1" name="AKR1" netid="HI" source="ITSAK Strong Motion Network" insttype="" lat="38.153583" lon="22.31326" esm:processing="manual (Paolucci et al 2011)" esm:quality="good">
		<comp name="--.HNE" depth="0.0">
			<acc value="0.359288334169557" flag="0"/>
			<vel value="0.336034544318051" flag="0"/>
			<psa03 value="1.00101514567401" flag="0"/>
			<psa10 value="0.529237699400221" flag="0"/>
			<psa30 value="0.0519677826105533" flag="0"/>
		</comp>
		<comp name="--.HNN" depth="0.0">
			<acc value="0.272762684732946" flag="0"/>
			<vel value="0.178111287925925" flag="0"/>
			<psa03 value="0.713236415078783" flag="0"/>
			<psa10 value="0.31984575821176" flag="0"/>
			<psa30 value="0.0454646651442701" flag="0"/>
		</comp>
		<comp name="--.HNZ" depth="0.0">
			<acc value="0.171581555187245" flag="0"/>
			<vel value="0.212716875805362" flag="0"/>
			<psa03 value="0.43859301296794" flag="0"/>
			<psa10 value="0.311365966467173" flag="0"/>
			<psa30 value="0.0539500572598536" flag="0"/>
		</comp>
	</station>
	<station code="AOL1" name="AOL1" netid="HI" source="ITSAK Strong Motion Network" insttype="" lat="37.642378" lon="21.624555" esm:processing="manual (Paolucci et al 2011)" esm:quality="good">
		<comp name="--.HNE" depth="0.0">
			<acc value="1.77021392086155" flag="0"/>
			<vel value="1.37336030372678" flag="0"/>
			<psa03 value="6.62085259899122" flag="0"/>
			<psa10 value="2.24197772002089" flag="0"/>
			<psa30 value="0.425361458109034" flag="0"/>
		</comp>
		<comp name="--.HNN" depth="0.0">
			<acc value="1.66135404758177" flag="0"/>
			<vel value="1.32553235478669" flag="0"/>
			<psa03 value="4.02265548118346" flag="0"/>
			<psa10 value="2.52396424024394" flag="0"/>
			<psa30 value="0.273346427859331" flag="0"/>
		</comp>
		<comp name="--.HNZ" depth="0.0">
			<acc value="1.0614608626094" flag="0"/>
			<vel value="0.787455658513181" flag="0"/>
			<psa03 value="3.32742209205012" flag="0"/>
			<psa10 value="0.832737384764877" flag="0"/>
			<psa30 value="0.141597646815843" flag="0"/>
		</comp>
	</station>
	<station code="ARG2" name="ARG2" netid="HI" source="ITSAK Strong Motion Network" insttype="" lat="38.1783" lon="20.4878" esm:processing="manual (Paolucci et al 2011)" esm:quality="good">
		<comp name="--.HNE" depth="0.0">
			<acc value="0.587496740272082" flag="0"/>
			<vel value="0.332540964597988" flag="0"/>
			<psa03 value="1.45138564717798" flag="0"/>
			<psa10 value="0.407099848365414" flag="0"/>
			<psa30 value="0.0606371102441875" flag="0"/>
		</comp>
		<comp name="--.HNN" depth="0.0">
			<acc value="0.581954485412925" flag="0"/>
			<vel value="0.47657345993692" flag="0"/>
			<psa03 value="1.95134176681421" flag="0"/>
			<psa10 value="0.495137620437953" flag="0"/>
			<psa30 value="0.0636602838480669" flag="0"/>
		</comp>
		<comp name="--.HNZ" depth="0.0">
			<acc value="0.363266054117241" flag="0"/>
			<vel value="0.212615999862598" flag="0"/>
			<psa03 value="1.2333477032307" flag="0"/>
			<psa10 value="0.267358571193357" flag="0"/>
			<psa30 value="0.0329956891358209" flag="0"/>
		</comp>
	</station>
	<station code="ARS1" name="ARS1" netid="HI" source="ITSAK Strong Motion Network" insttype="" lat="37.6349" lon="22.7293" esm:processing="manual (Paolucci et al 2011)" esm:quality="good">
		<comp name="--.HNE" depth="0.0">
			<acc value="0.305934804975887" flag="0"/>
			<vel value="0.346689221374465" flag="0"/>
			<psa03 value="0.624462534243711" flag="0"/>
			<psa10 value="0.631870538321031" flag="0"/>
			<psa30 value="0.0601710460365022" flag="0"/>
		</comp>
		<comp name="--.HNN" depth="0.0">
			<acc value="0.28163484081656" flag="0"/>
			<vel value="0.346718128391093" flag="0"/>
			<psa03 value="0.740943583875946" flag="0"/>
			<psa10 value="0.785689468070048" flag="0"/>
			<psa30 value="0.0888771810104523" flag="0"/>
		</comp>
		<comp name="--.HNZ" depth="0.0">
			<acc value="0.246580994850556" flag="0"/>
			<vel value="0.215648676108051" flag="0"/>
			<psa03 value="0.662153114394983" flag="0"/>
			<psa10 value="0.303931173948665" flag="0"/>
			<psa30 value="0.0603824133717372" flag="0"/>
		</comp>
	</station>
	<station code="ART2" name="ART2" netid="HI" source="ITSAK Strong Motion Network" insttype="" lat="39.1474" lon="20.9937" esm:processing="manual (Paolucci et al 2011)" esm:quality="good">
		<comp name="--.HNE" depth="0.0">
			<acc value="0.0551247316702701" flag="0"/>
			<vel value="0.0955230880986017" flag="0"/>
			<psa03 value="0.162629617163822" flag="0"/>
			<psa10 value="0.0938983903073844" flag="0"/>
			<psa30 value="0.0417312744921454" flag="0"/>
		</comp>
		<comp name="--.HNN" depth="0.0">
			<acc value="0.0503583659495647" flag="0"/>
			<vel value="0.0559521001842585" flag="0"/>
			<psa03 value="0.10513910036626" flag="0"/>
			<psa10 value="0.113646891048743" flag="0"/>
			<psa30 value="0.019531343855682" flag="0"/>
		</comp>
		<comp name="--.HNZ" depth="0.0">
			<acc value="0.0344197093233693" flag="0"/>
			<vel value="0.0533485860384861" flag="0"/>
			<psa03 value="0.0756560847610636" flag="0"/>
			<psa10 value="0.0495961542518756" flag="0"/>
			<psa30 value="0.0192383877820856" flag="0"/>
		</comp>
	</station>
	<station code="AST1" name="AST1" netid="HI" source="ITSAK Strong Motion Network" insttype="" lat="38.5416" lon="21.0895" esm:processing="manual (Paolucci et al 2011)" esm:quality="good">
		<comp name="--.HNE" depth="0.0">
			<acc value="0.27554412093378" flag="0"/>
			<vel value="0.189984456663879" flag="0"/>
			<psa03 value="0.647015528270027" flag="0"/>
			<psa10 value="0.35290902849115" flag="0"/>
			<psa30 value="0.04097868130319" flag="0"/>
		</comp>
		<comp name="--.HNN" depth="0.0">
			<acc value="0.289556042773564" flag="0"/>
			<vel value="0.162877571559755" flag="0"/>
			<psa03 value="0.479244872620799" flag="0"/>
			<psa10 value="0.312342831179666" flag="0"/>
			<psa30 value="0.0288952608358864" flag="0"/>
		</comp>
		<comp name="--.HNZ" depth="0.0">
			<acc value="0.181709255524544" flag="0"/>
			<vel value="0.135931317081657" flag="0"/>
			<psa03 value="0.545168656414605" flag="0"/>
			<psa10 value="0.215982102754322" flag="0"/>
			<psa30 value="0.0233313839230137" flag="0"/>
		</comp>
	</station>
	<station code="ITC1" name="ITC1" netid="HI" source="ITSAK Strong Motion Network" insttype="" lat="38.3647" lon="20.7156" esm:processing="manual (Paolucci et al 2011)" esm:quality="good">
		<comp name="--.HNE" depth="0.0">
			<acc value="0.215985306997733" flag="0"/>
			<vel value="0.16388358985866" flag="0"/>
			<psa03 value="0.540084694627087" flag="0"/>
			<psa10 value="0.206124409730538" flag="0"/>
			<psa30 value="0.0413782644402785" flag="0"/>
		</comp>
		<comp name="--.HNN" depth="0.0">
			<acc value="0.217091185569238" flag="0"/>
			<vel value="0.153770534777508" flag="0"/>
			<psa03 value="0.618745947215689" flag="0"/>
			<psa10 value="0.202886130210413" flag="0"/>
			<psa30 value="0.0365885704798935" flag="0"/>
		</comp>
		<comp name="--.HNZ" depth="0.0">
			<acc value="0.134115532251747" flag="0"/>
			<vel value="0.107407453993259" flag="0"/>
			<psa03 value="0.379392341213978" flag="0"/>
			<psa10 value="0.141015206565368" flag="0"/>
			<psa30 value="0.0248142104863295" flag="0"/>
		</comp>
	</station>
	<station code="KLV1" name="KLV1" netid="HI" source="ITSAK Strong Motion Network" insttype="" lat="38.03256" lon="22.10797" esm:processing="manual (Paolucci et al 2011)" esm:quality="good">
		<comp name="--.HNE" depth="0.0">
			<acc value="0.551345963624088" flag="0"/>
			<vel value="0.310674901857912" flag="0"/>
			<psa03 value="1.79983706370506" flag="0"/>
			<psa10 value="0.355544673089719" flag="0"/>
			<psa30 value="0.060797360860248" flag="0"/>
		</comp>
		<comp name="--.HNN" depth="0.0">
			<acc value="0.466193407645654" flag="0"/>
			<vel value="0.303625872472118" flag="0"/>
			<psa03 value="1.39962888521221" flag="0"/>
			<psa10 value="0.56790132067439" flag="0"/>
			<psa30 value="0.0469351258882537" flag="0"/>
		</comp>
		<comp name="--.HNZ" depth="0.0">
			<acc value="0.173093817196642" flag="0"/>
			<vel value="0.155810443845019" flag="0"/>
			<psa03 value="0.62015274874369" flag="0"/>
			<psa10 value="0.371822551419404" flag="0"/>
			<psa30 value="0.0409332182914983" flag="0"/>
		</comp>
	</station>
	<station code="KRI1" name="KRI1" netid="HI" source="ITSAK Strong Motion Network" insttype="" lat="37.6621" lon="20.8172" esm:processing="manual (Paolucci et al 2011)" esm:quality="good">
		<comp name="--.HNE" depth="0.0">
			<acc value="1.8221172874655" flag="0"/>
			<vel value="1.46528863251376" flag="0"/>
			<psa03 value="5.53311820860207" flag="0"/>
			<psa10 value="1.70467404629043" flag="0"/>
			<psa30 value="0.192778770647453" flag="0"/>
		</comp>
		<comp name="--.HNN" depth="0.0">
			<acc value="2.11708567144414" flag="0"/>
			<vel value="1.65530083147958" flag="0"/>
			<psa03 value="4.97204837379102" flag="0"/>
			<psa10 value="1.93816703405362" flag="0"/>
			<psa30 value="0.295379354099198" flag="0"/>
		</comp>
		<comp name="--.HNZ" depth="0.0">
			<acc value="1.22132956685251" flag="0"/>
			<vel value="0.908108358038529" flag="0"/>
			<psa03 value="3.53118892393453" flag="0"/>
			<psa10 value="0.73405562758327" flag="0"/>
			<psa30 value="0.164648907182089" flag="0"/>
		</comp>
	</station>
	<station code="LAM2" name="LAM2" netid="HI" source="ITSAK Strong Motion Network" insttype="" lat="38.90203" lon="22.431301" esm:processing="manual (Paolucci et al 2011)" esm:quality="good">
		<comp name="--.HNE" depth="0.0">
			<acc value="0.0731509834904546" flag="0"/>
			<vel value="0.0410905824265293" flag="0"/>
			<psa03 value="0.188042915253733" flag="0"/>
			<psa10 value="0.0522669836809993" flag="0"/>
			<psa30 value="0.00228908580736679" flag="0"/>
		</comp>
		<comp name="--.HNN" depth="0.0">
			<acc value="0.0862947971798407" flag="0"/>
			<vel value="0.0523942361179581" flag="0"/>
			<psa03 value="0.200638270467303" flag="0"/>
			<psa10 value="0.0693068112362724" flag="0"/>
			<psa30 value="0.00242650199384854" flag="0"/>
		</comp>
		<comp name="--.HNZ" depth="0.0">
			<acc value="0.0422983328781101" flag="0"/>
			<vel value="0.028476222546553" flag="0"/>
			<psa03 value="0.0856037593707409" flag="0"/>
			<psa10 value="0.0309421991438503" flag="0"/>
			<psa30 value="0.00190743198300831" flag="0"/>
		</comp>
	</station>
	<station code="LEO1" name="LEO1" netid="HI" source="ITSAK Strong Motion Network" insttype="" lat="37.1689" lon="22.8637" esm:processing="manual (Paolucci et al 2011)" esm:quality="good">
		<comp name="--.HNE" depth="0.0">
			<acc value="0.179588559627391" flag="0"/>
			<vel value="0.152023371964683" flag="0"/>
			<psa03 value="0.432662786786226" flag="0"/>
			<psa10 value="0.189568938011787" flag="0"/>
			<psa30 value="0.0302277091040449" flag="0"/>
		</comp>
		<comp name="--.HNN" depth="0.0">
			<acc value="0.229948668375215" flag="0"/>
			<vel value="0.259436356259097" flag="0"/>
			<psa03 value="0.402141931596025" flag="0"/>
			<psa10 value="0.379509270626644" flag="0"/>
			<psa30 value="0.0651306945888716" flag="0"/>
		</comp>
		<comp name="--.HNZ" depth="0.0">
			<acc value="0.116192943086319" flag="0"/>
			<vel value="0.103781316688277" flag="0"/>
			<psa03 value="0.267032793778725" flag="0"/>
			<psa10 value="0.222092832560182" flag="0"/>
			<psa30 value="0.0311404695699462" flag="0"/>
		</comp>
	</station>
