<?xml version="1.0" encoding="UTF-8" standalone="yes"?>
<!DOCTYPE earthquake SYSTEM "stationlist.dtd">
<stationlist created="" xmlns="ch.ethz.sed.shakemap.usgs.xml">
  <station code="KRI1" name="KRI1" netid="HI" insttype="CMG-5TD,ACCELEROMETER,GURALP" lat="37.6621" lon="20.8172">
    <comp name="--.HNN">
      <acc value="0.3404956198" flag="0"/>
      <vel value="0.1754672116" flag="0"/>
      <psa03 value="0.5970045840" flag="0"/>
      <psa10 value="0.1340707772" flag="0"/>
      <psa30 value="0.0141764407" flag="0"/>
    </comp>
    <comp name="--.HNE">
      <acc value="0.3903806660" flag="0"/>
      <vel value="0.1702366491" flag="0"/>
      <psa03 value="0.8576223268" flag="0"/>
      <psa10 value="0.1864744757" flag="0"/>
      <psa30 value="0.0242138024" flag="0"/>
    </comp>
    <comp name="--.HNZ">
      <acc value="0.3682744078" flag="0"/>
      <vel value="0.1831548163" flag="0"/>
      <psa03 value="1.0100381861" flag="0"/>
      <psa10 value="0.1336581881" flag="0"/>
      <psa30 value="0.0193528799" flag="0"/>
    </comp>
  </station>
  <station code="PYL1" name="PYL1" netid="HI" insttype="CMG-5TD,ACCELEROMETER,GURALP" lat="36.9142" lon="21.6952">
    <comp name="--.HNE">
      <acc value="0.1765381085" flag="0"/>
      <vel value="0.0926255449" flag="0"/>
      <psa03 value="0.7434698540" flag="0"/>
      <psa10 value="0.1167340856" flag="0"/>
      <psa30 value="0.0379921165" flag="0"/>
    </comp>
    <comp name="--.HNZ">
      <acc value="0.3315975323" flag="0"/>
      <vel value="0.2292021575" flag="0"/>
      <psa03 value="0.6480832334" flag="0"/>
      <psa10 value="0.2130144274" flag="0"/>
      <psa30 value="0.0311367621" flag="0"/>
    </comp>
    <comp name="--.HNN">
      <acc value="0.1844432636" flag="0"/>
      <vel value="0.1269518129" flag="0"/>
      <psa03 value="0.3951687445" flag="0"/>
      <psa10 value="0.1114971316" flag="0"/>
      <psa30 value="0.0151263515" flag="0"/>
    </comp>
  </station>
  <station code="ITM" name="ITM" netid="HL" insttype="DR24" lat="37.1787" lon="21.9252">
    <comp name="--.HHE">
      <acc value="0.4422026713" flag="0"/>
      <vel value="0.2108709361" flag="0"/>
      <psa03 value="0.7350654340" flag="0"/>
      <psa10 value="0.2141939656" flag="0"/>
      <psa30 value="0.0303369162" flag="0"/>
    </comp>
    <comp name="--.HHN">
      <acc value="0.3983652172" flag="0"/>
      <vel value="0.1418133808" flag="0"/>
      <psa03 value="0.7985940635" flag="0"/>
      <psa10 value="0.1641383877" flag="0"/>
      <psa30 value="0.0076655962" flag="0"/>
    </comp>
    <comp name="--.HHZ">
      <acc value="0.4509906164" flag="0"/>
      <vel value="0.1597323672" flag="0"/>
      <psa03 value="0.6107388471" flag="0"/>
      <psa10 value="0.1427792885" flag="0"/>
      <psa30 value="0.0124655214" flag="0"/>
    </comp>
  </station>
  <station code="KLV" name="KLV" netid="HL" insttype="120" lat="38.0435" lon="22.1504">
    <comp name="--.HHN">
      <acc value="0.0413025867" flag="0"/>
      <vel value="0.0339704589" flag="0"/>
      <psa03 value="0.0933697145" flag="0"/>
      <psa10 value="0.0601735828" flag="0"/>
      <psa30 value="0.0064753476" flag="0"/>
    </comp>
    <comp name="--.HHE">
      <acc value="0.0381883816" flag="0"/>
      <vel value="0.0315238506" flag="0"/>
      <psa03 value="0.0819550000" flag="0"/>
      <psa10 value="0.0182516445" flag="0"/>
      <psa30 value="0.0028146195" flag="0"/>
    </comp>
    <comp name="--.HHZ">
      <acc value="0.0567533844" flag="0"/>
      <vel value="0.0400439534" flag="0"/>
      <psa03 value="0.1006118040" flag="0"/>
      <psa10 value="0.0827219159" flag="0"/>
      <psa30 value="0.0054119088" flag="0"/>
    </comp>
  </station>
  <station code="ORTH" name="ORTH" netid="HL" insttype="30" lat="37.8511" lon="20.6963">
    <comp name="--.HHZ">
      <acc value="0.2173621821" flag="0"/>
      <vel value="0.0919158500" flag="0"/>
      <psa03 value="0.3810071725" flag="0"/>
      <psa10 value="0.1951437755" flag="0"/>
      <psa30 value="0.0189167660" flag="0"/>
    </comp>
    <comp name="--.HHE">
      <acc value="0.2611978137" flag="0"/>
      <vel value="0.2353294947" flag="0"/>
      <psa03 value="0.5728899702" flag="0"/>
      <psa10 value="0.1152089558" flag="0"/>
      <psa30 value="0.0171516480" flag="0"/>
    </comp>
    <comp name="--.HHN">
      <acc value="0.3066394753" flag="0"/>
      <vel value="0.1828743264" flag="0"/>
      <psa03 value="0.5353147171" flag="0"/>
      <psa10 value="0.1192944096" flag="0"/>
      <psa30 value="0.0133214091" flag="0"/>
    </comp>
  </station>
  <station code="RLS" name="RLS" netid="HL" insttype="CMG3ESPC-120s" lat="38.0559" lon="21.4647">
    <comp name="--.HHE">
      <acc value="0.0960761551" flag="0"/>
      <vel value="0.0505420804" flag="0"/>
      <psa03 value="0.2873273950" flag="0"/>
      <psa10 value="0.0658091014" flag="0"/>
      <psa30 value="0.0054378793" flag="0"/>
    </comp>
    <comp name="--.HHZ">
      <acc value="0.1091631261" flag="0"/>
      <vel value="0.0795550006" flag="0"/>
      <psa03 value="0.3339629989" flag="0"/>
      <psa10 value="0.1033532184" flag="0"/>
      <psa30 value="0.0138164330" flag="0"/>
    </comp>
    <comp name="--.HHN">
      <acc value="0.0890855693" flag="0"/>
      <vel value="0.0797650604" flag="0"/>
      <psa03 value="0.2731245895" flag="0"/>
      <psa10 value="0.1449278323" flag="0"/>
      <psa30 value="0.0173791283" flag="0"/>
    </comp>
  </station>
  <station code="VLS" name="VLS" netid="HL" insttype="120P," lat="38.1768" lon="20.5886">
    <comp name="--.HHE">
      <acc value="0.1458738573" flag="0"/>
      <vel value="0.0634592080" flag="0"/>
      <psa03 value="0.3117573288" flag="0"/>
      <psa10 value="0.0604764944" flag="0"/>
      <psa30 value="0.0034617294" flag="0"/>
    </comp>
    <comp name="--.HHZ">
      <acc value="0.1128625091" flag="0"/>
      <vel value="0.0618014947" flag="0"/>
      <psa03 value="0.3307347535" flag="0"/>
      <psa10 value="0.1040227641" flag="0"/>
      <psa30 value="0.0086042612" flag="0"/>
    </comp>
    <comp name="--.HHN">
      <acc value="0.1174435694" flag="0"/>
      <vel value="0.0550913051" flag="0"/>
      <psa03 value="0.2768633513" flag="0"/>
      <psa10 value="0.0925200821" flag="0"/>
      <psa30 value="0.0068787019" flag="0"/>
    </comp>
  </station>
  <station code="AMT" name="AMT" netid="HP" insttype="CMG-3T," lat="37.5324" lon="21.7089">
    <comp name="00.HHE">
      <acc value="0.8765122918" flag="0"/>
      <vel value="0.7121929129" flag="0"/>
      <psa03 value="2.0941354387" flag="0"/>
      <psa10 value="1.2932443443" flag="0"/>
      <psa30 value="0.0719076408" flag="0"/>
    </comp>
    <comp name="00.HHN">
      <acc value="0.6924421432" flag="0"/>
      <vel value="0.5680083854" flag="0"/>
      <psa03 value="1.1531245375" flag="0"/>
      <psa10 value="1.1008973692" flag="0"/>
      <psa30 value="0.0477929318" flag="0"/>
    </comp>
    <comp name="00.HHZ">
      <acc value="0.6569452042" flag="0"/>
      <vel value="0.5987639596" flag="0"/>
      <psa03 value="1.4548726554" flag="0"/>
      <psa10 value="1.1507303551" flag="0"/>
      <psa30 value="0.0533653539" flag="0"/>
    </comp>
  </station>
  <station code="AXS" name="AXS" netid="HP" insttype="Compact," lat="38.1962" lon="21.3763">
    <comp name="--.HHZ">
      <acc value="0.0660211896" flag="0"/>
      <vel value="0.0498667198" flag="0"/>
      <psa03 value="0.1677258984" flag="0"/>
      <psa10 value="0.0654778841" flag="0"/>
      <psa30 value="0.0116446389" flag="0"/>
    </comp>
    <comp name="--.HHN">
      <acc value="0.0529181276" flag="0"/>
      <vel value="0.0457136864" flag="0"/>
      <psa03 value="0.1380833527" flag="0"/>
      <psa10 value="0.0751968846" flag="0"/>
      <psa30 value="0.0116648862" flag="0"/>
    </comp>
    <comp name="--.HHE">
      <acc value="0.0434708797" flag="0"/>
      <vel value="0.0298441182" flag="0"/>
      <psa03 value="0.0878398014" flag="0"/>
      <psa10 value="0.0484282257" flag="0"/>
      <psa30 value="0.0068625144" flag="0"/>
    </comp>
  </station>
  <station code="DRO" name="DRO" netid="HP" insttype="120P," lat="37.952" lon="21.71">
    <comp name="--.HHN">
      <acc value="0.2275805834" flag="0"/>
      <vel value="0.0922598449" flag="0"/>
      <psa03 value="0.5862257057" flag="0"/>
      <psa10 value="0.0389193888" flag="0"/>
      <psa30 value="0.0072618554" flag="0"/>
    </comp>
    <comp name="--.HHE">
      <acc value="0.2106648266" flag="0"/>
      <vel value="0.0671966477" flag="0"/>
      <psa03 value="0.3998988478" flag="0"/>
      <psa10 value="0.0341725909" flag="0"/>
      <psa30 value="0.0029329635" flag="0"/>
    </comp>
    <comp name="--.HHZ">
      <acc value="0.1754976215" flag="0"/>
      <vel value="0.0814360100" flag="0"/>
      <psa03 value="0.3481691943" flag="0"/>
      <psa10 value="0.0390005316" flag="0"/>
      <psa30 value="0.0094978002" flag="0"/>
    </comp>
  </station>
  <station code="LTHK" name="LTHK" netid="HP" insttype="40," lat="37.7095" lon="20.8367">
    <comp name="--.HHE">
      <acc value="0.4052469941" flag="0"/>
      <vel value="0.1624157901" flag="0"/>
      <psa03 value="0.7999672918" flag="0"/>
      <psa10 value="0.1437005943" flag="0"/>
      <psa30 value="0.0128935011" flag="0"/>
    </comp>
    <comp name="--.HHN">
      <acc value="0.4388545993" flag="0"/>
      <vel value="0.1619155586" flag="0"/>
      <psa03 value="0.4577377212" flag="0"/>
      <psa10 value="0.1260420184" flag="0"/>
      <psa30 value="0.0106121651" flag="0"/>
    </comp>
    <comp name="--.HHZ">
      <acc value="0.4473889033" flag="0"/>
      <vel value="0.2248530590" flag="0"/>
      <psa03 value="1.0725130216" flag="0"/>
      <psa10 value="0.2052071157" flag="0"/>
      <psa30 value="0.0197365817" flag="0"/>
    </comp>
  </station>
  <station code="PYL" name="PYL" netid="HP" insttype="120s" lat="36.8955" lon="21.742">
    <comp name="--.HHE">
      <acc value="0.3390800388" flag="0"/>
      <vel value="0.1713876406" flag="0"/>
      <psa03 value="1.1359762153" flag="0"/>
      <psa10 value="0.1424121954" flag="0"/>
      <psa30 value="0.0178853001" flag="0"/>
    </comp>
    <comp name="--.HHZ">
      <acc value="0.2537727138" flag="0"/>
      <vel value="0.1380147088" flag="0"/>
      <psa03 value="0.4507968467" flag="0"/>
      <psa10 value="0.2007916102" flag="0"/>
      <psa30 value="0.0279051085" flag="0"/>
    </comp>
    <comp name="--.HHN">
      <acc value="0.2083351299" flag="0"/>
      <vel value="0.1146291567" flag="0"/>
      <psa03 value="0.5381989748" flag="0"/>
      <psa10 value="0.0642543184" flag="0"/>
      <psa30 value="0.0221773541" flag="0"/>
    </comp>
  </station>
  <station code="VALY" name="VALY" netid="HP" insttype="DC_100" lat="37.1641" lon="21.9836">
    <comp name="--.HNZ">
      <acc value="0.2853014598" flag="0"/>
      <vel value="0.1014831155" flag="0"/>
      <psa03 value="0.4632779086" flag="0"/>
      <psa10 value="0.1217072920" flag="0"/>
      <psa30 value="0.0146632387" flag="0"/>
    </comp>
    <comp name="--.HNN">
      <acc value="0.2721602880" flag="0"/>
      <vel value="0.1732073097" flag="0"/>
      <psa03 value="0.6073655017" flag="0"/>
      <psa10 value="0.2189607198" flag="0"/>
      <psa30 value="0.0117763871" flag="0"/>
    </comp>
    <comp name="--.HNE">
      <acc value="0.4604002520" flag="0"/>
      <vel value="0.2962150280" flag="0"/>
      <psa03 value="1.1397634263" flag="0"/>
      <psa10 value="0.4052005330" flag="0"/>
      <psa30 value="0.0226636274" flag="0"/>
    </comp>
  </station>
  <station code="VLX" name="VLX" netid="HP" insttype="40," lat="37.3703" lon="22.3793">
    <comp name="--.HHE">
      <acc value="0.2057218877" flag="0"/>
      <vel value="0.1394654965" flag="0"/>
      <psa03 value="0.5170526344" flag="0"/>
      <psa10 value="0.1359172380" flag="0"/>
      <psa30 value="0.0143482210" flag="0"/>
    </comp>
    <comp name="--.HHZ">
      <acc value="0.2096113891" flag="0"/>
      <vel value="0.1629824569" flag="0"/>
      <psa03 value="0.4757988270" flag="0"/>
      <psa10 value="0.1318486240" flag="0"/>
      <psa30 value="0.0151146182" flag="0"/>
    </comp>
    <comp name="--.HHN">
      <acc value="0.1643679259" flag="0"/>
      <vel value="0.1113629751" flag="0"/>
      <psa03 value="0.3251819240" flag="0"/>
      <psa10 value="0.0874957423" flag="0"/>
      <psa30 value="0.0065408624" flag="0"/>
    </comp>
  </station>
  <station code="RTZL" name="RTZL" netid="HT" insttype="Compact," lat="38.076" lon="20.7715">
    <comp name="--.HHZ">
      <acc value="0.2082417198" flag="0"/>
      <vel value="0.0979362893" flag="0"/>
      <psa03 value="0.9105732103" flag="0"/>
      <psa10 value="0.0664827345" flag="0"/>
      <psa30 value="0.0153596004" flag="0"/>
    </comp>
    <comp name="--.HHE">
      <acc value="0.2173785669" flag="0"/>
      <vel value="0.0533709474" flag="0"/>
      <psa03 value="0.3824802715" flag="0"/>
      <psa10 value="0.0586062063" flag="0"/>
      <psa30 value="0.0038919367" flag="0"/>
    </comp>
    <comp name="--.HHN">
      <acc value="0.1829351130" flag="0"/>
      <vel value="0.1838334050" flag="0"/>
      <psa03 value="0.4965442831" flag="0"/>
      <psa10 value="0.1819235685" flag="0"/>
      <psa30 value="0.0157001657" flag="0"/>
    </comp>
  </station>
  <station code="KLV" name="KLV" netid="MN" insttype="" lat="38.0437" lon="22.1504">
    <comp name="--.HHE">
      <acc value="0.0396038871" flag="0"/>
      <vel value="0.0321041978" flag="0"/>
      <psa03 value="0.0847209587" flag="0"/>
      <psa10 value="0.0184489446" flag="0"/>
      <psa30 value="0.0028288042" flag="0"/>
    </comp>
    <comp name="--.HHZ">
      <acc value="0.0595865734" flag="0"/>
      <vel value="0.0404328475" flag="0"/>
      <psa03 value="0.1034177802" flag="0"/>
      <psa10 value="0.0832250403" flag="0"/>
      <psa30 value="0.0054349726" flag="0"/>
    </comp>
    <comp name="--.HHN">
      <acc value="0.0429370953" flag="0"/>
      <vel value="0.0344721604" flag="0"/>
      <psa03 value="0.0964133762" flag="0"/>
      <psa10 value="0.0606611765" flag="0"/>
      <psa30 value="0.0064843307" flag="0"/>
    </comp>
  </station>
</stationlist>
