<?xml version="1.0" encoding="UTF-8" standalone="yes"?>
<!DOCTYPE earthquake SYSTEM "stationlist.dtd">
<stationlist created="" xmlns="ch.ethz.sed.shakemap.usgs.xml">
  <station code="GIL" name="GIL" netid="VI" source="ODC" insttype="CMG-3ESP" lat="66.0773" lon="-16.3513">
    <comp name="--.HHZ">
      <acc value="0.0037553875" flag="0"/>
      <vel value="0.0093656993" flag="0"/>
      <psa03 value="0.0044797720" flag="0"/>
      <psa10 value="0.0077422459" flag="0"/>
      <psa30 value="0.0044484565" flag="0"/>
    </comp>
    <comp name="--.HHE">
      <acc value="0.0010128610" flag="0"/>
      <vel value="0.0037353317" flag="0"/>
      <psa03 value="0.0011726827" flag="0"/>
      <psa10 value="0.0032519122" flag="0"/>
      <psa30 value="0.0021261493" flag="0"/>
    </comp>
    <comp name="--.HHN">
      <acc value="0.0012568542" flag="0"/>
      <vel value="0.0051708168" flag="0"/>
      <psa03 value="0.0014207877" flag="0"/>
      <psa10 value="0.0031950526" flag="0"/>
      <psa30 value="0.0027530009" flag="0"/>
    </comp>
  </station>
</stationlist>
