<?xml version="1.0" encoding="UTF-8" standalone="yes"?>
<!DOCTYPE earthquake SYSTEM "stationlist.dtd">
<stationlist created="" xmlns="ch.ethz.sed.shakemap.usgs.xml">
  <station code="APE" name="APE" netid="GE" insttype="STS-2/N" lat="37.0727" lon="25.523">
    <comp name="--.HHN">
      <acc value="0.1122439611" flag="0"/>
      <vel value="0.0303535366" flag="0"/>
      <psa03 value="0.0988301089" flag="0"/>
      <psa10 value="0.0062564559" flag="0"/>
      <psa30 value="0.0011032229" flag="0"/>
    </comp>
    <comp name="--.HHE">
      <acc value="0.1044024086" flag="0"/>
      <vel value="0.0280486390" flag="0"/>
      <psa03 value="0.0946019786" flag="0"/>
      <psa10 value="0.0089039743" flag="0"/>
      <psa30 value="0.0009543930" flag="0"/>
    </comp>
    <comp name="--.HHZ">
      <acc value="0.0596570401" flag="0"/>
      <vel value="0.0115679608" flag="0"/>
      <psa03 value="0.0566680433" flag="0"/>
      <psa10 value="0.0096401010" flag="0"/>
      <psa30 value="0.0008320098" flag="0"/>
    </comp>
  </station>
  <station code="THERA" name="THERA" netid="GE" insttype="STS-2/N" lat="36.367" lon="25.4753">
    <comp name="--.HHN">
      <acc value="0.0679919263" flag="0"/>
      <vel value="0.0141431948" flag="0"/>
      <psa03 value="0.0511585485" flag="0"/>
      <psa10 value="0.0046291840" flag="0"/>
      <psa30 value="0.0004213344" flag="0"/>
    </comp>
    <comp name="--.HHE">
      <acc value="0.1260120668" flag="0"/>
      <vel value="0.0197408849" flag="0"/>
      <psa03 value="0.0857758434" flag="0"/>
      <psa10 value="0.0073956741" flag="0"/>
      <psa30 value="0.0008212048" flag="0"/>
    </comp>
    <comp name="--.HHZ">
      <acc value="0.0614486140" flag="0"/>
      <vel value="0.0169726308" flag="0"/>
      <psa03 value="0.0728810344" flag="0"/>
      <psa10 value="0.0063525308" flag="0"/>
      <psa30 value="0.0008494668" flag="0"/>
    </comp>
  </station>
</stationlist>
