<?xml version="1.0" encoding="UTF-8" standalone="yes"?>
<!DOCTYPE earthquake SYSTEM "stationlist.dtd">
<stationlist created="" xmlns="ch.ethz.sed.shakemap.usgs.xml">
  <station code="APE" name="APE" netid="GE" insttype="STS-2/N" lat="37.0727" lon="25.523">
    <comp name="--.HHZ">
      <acc value="0.0596570400" flag="0"/>
      <vel value="0.0115679607" flag="0"/>
      <psa03 value="0.0566680433" flag="0"/>
      <psa10 value="0.0096401011" flag="0"/>
      <psa30 value="0.0008320142" flag="0"/>
    </comp>
    <comp name="--.HHN">
      <acc value="0.1122439610" flag="0"/>
      <vel value="0.0303535367" flag="0"/>
      <psa03 value="0.0988301089" flag="0"/>
      <psa10 value="0.0062564560" flag="0"/>
      <psa30 value="0.0011032299" flag="0"/>
    </comp>
    <comp name="--.HHE">
      <acc value="0.1044024086" flag="0"/>
      <vel value="0.0280486390" flag="0"/>
      <psa03 value="0.0946019786" flag="0"/>
      <psa10 value="0.0089039743" flag="0"/>
      <psa30 value="0.0009543842" flag="0"/>
    </comp>
  </station>
  <station code="THERA" name="THERA" netid="GE" insttype="STS-2/N" lat="36.367" lon="25.4753">
    <comp name="--.HHE">
      <acc value="0.1260120669" flag="0"/>
      <vel value="0.0197408847" flag="0"/>
      <psa03 value="0.0857758434" flag="0"/>
      <psa10 value="0.0073956744" flag="0"/>
      <psa30 value="0.0008212162" flag="0"/>
    </comp>
    <comp name="--.HHZ">
      <acc value="0.0614486140" flag="0"/>
      <vel value="0.0169726307" flag="0"/>
      <psa03 value="0.0728810344" flag="0"/>
      <psa10 value="0.0063525308" flag="0"/>
      <psa30 value="0.0008494981" flag="0"/>
    </comp>
    <comp name="--.HHN">
      <acc value="0.0679919263" flag="0"/>
      <vel value="0.0141431948" flag="0"/>
      <psa03 value="0.0511585485" flag="0"/>
      <psa10 value="0.0046291840" flag="0"/>
      <psa30 value="0.0004213321" flag="0"/>
    </comp>
  </station>
  <station code="SNT1" name="SNT1" netid="HA" insttype="30" lat="36.4159" lon="25.4282">
    <comp name="--.HHE">
      <acc value="0.0514160169" flag="0"/>
      <vel value="0.0153391658" flag="0"/>
      <psa03 value="0.0815643546" flag="0"/>
      <psa10 value="0.0164005783" flag="0"/>
      <psa30 value="0.0027307434" flag="0"/>
    </comp>
    <comp name="--.HHN">
      <acc value="0.0525202877" flag="0"/>
      <vel value="0.0199416787" flag="0"/>
      <psa03 value="0.0623328689" flag="0"/>
      <psa10 value="0.0191392738" flag="0"/>
      <psa30 value="0.0029333330" flag="0"/>
    </comp>
    <comp name="--.HHZ">
      <acc value="0.0342711131" flag="0"/>
      <vel value="0.0122904645" flag="0"/>
      <psa03 value="0.0509198837" flag="0"/>
      <psa10 value="0.0097290681" flag="0"/>
      <psa30 value="0.0010123821" flag="0"/>
    </comp>
  </station>
  <station code="SNT5" name="SNT5" netid="HA" insttype="1s-100Hz," lat="36.4037" lon="25.3953">
    <comp name="--.HHE">
      <acc value="0.3829946431" flag="0"/>
      <vel value="0.0586028049" flag="0"/>
      <psa03 value="0.2047872340" flag="0"/>
      <psa10 value="0.0239827778" flag="0"/>
      <psa30 value="0.0024642428" flag="0"/>
    </comp>
    <comp name="--.HHN">
      <acc value="0.2539150594" flag="0"/>
      <vel value="0.0402368511" flag="0"/>
      <psa03 value="0.1155237860" flag="0"/>
      <psa10 value="0.0118543468" flag="0"/>
      <psa30 value="0.0021673467" flag="0"/>
    </comp>
    <comp name="--.HHZ">
      <acc value="0.1238254412" flag="0"/>
      <vel value="0.0144230731" flag="0"/>
      <psa03 value="0.0451176925" flag="0"/>
      <psa10 value="0.0094708636" flag="0"/>
      <psa30 value="0.0011352119" flag="0"/>
    </comp>
  </station>
  <station code="NAX1" name="NAX1" netid="HI" insttype="CMG-5TD,ACCELEROMETER,GURALP" lat="37.1014" lon="25.3741">
    <comp name="--.HNN">
      <acc value="0.0749047318" flag="0"/>
      <vel value="0.0203407541" flag="0"/>
      <psa03 value="0.1421133853" flag="0"/>
      <psa10 value="0.0058982872" flag="0"/>
      <psa30 value="0.0008864551" flag="0"/>
    </comp>
    <comp name="--.HNZ">
      <acc value="0.0494468125" flag="0"/>
      <vel value="0.0211165688" flag="0"/>
      <psa03 value="0.1149350307" flag="0"/>
      <psa10 value="0.0052536530" flag="0"/>
      <psa30 value="0.0012089376" flag="0"/>
    </comp>
    <comp name="--.HNE">
      <acc value="0.0605995737" flag="0"/>
      <vel value="0.0198266639" flag="0"/>
      <psa03 value="0.0906759490" flag="0"/>
      <psa10 value="0.0061016808" flag="0"/>
      <psa30 value="0.0005909675" flag="0"/>
    </comp>
  </station>
  <station code="SFR2" name="SFR2" netid="HI" insttype="unknown" lat="36.3998" lon="25.4382">
    <comp name="--.HNE">
      <acc value="0.1166683248" flag="0"/>
      <vel value="0.0359659191" flag="0"/>
      <psa03 value="0.2007272311" flag="0"/>
      <psa10 value="0.0218712431" flag="0"/>
      <psa30 value="0.0026298445" flag="0"/>
    </comp>
    <comp name="--.HNN">
      <acc value="0.1072537325" flag="0"/>
      <vel value="0.0416194122" flag="0"/>
      <psa03 value="0.3069955142" flag="0"/>
      <psa10 value="0.0411153759" flag="0"/>
      <psa30 value="0.0023423420" flag="0"/>
    </comp>
    <comp name="--.HNZ">
      <acc value="0.1736669425" flag="0"/>
      <vel value="0.0353132825" flag="0"/>
      <psa03 value="0.1790569180" flag="0"/>
      <psa10 value="0.0214030125" flag="0"/>
      <psa30 value="0.0016135073" flag="0"/>
    </comp>
  </station>
  <station code="AMGA" name="AMGA" netid="HL" insttype="SMART24" lat="36.8316" lon="25.8938">
    <comp name="--.HHE">
      <acc value="0.6719487341" flag="0"/>
      <vel value="0.2722196908" flag="0"/>
      <psa03 value="1.3431617693" flag="0"/>
      <psa10 value="0.1020845789" flag="0"/>
      <psa30 value="0.0105531833" flag="0"/>
    </comp>
    <comp name="--.HHZ">
      <acc value="0.4730566028" flag="0"/>
      <vel value="0.1257601537" flag="0"/>
      <psa03 value="0.6569880568" flag="0"/>
      <psa10 value="0.0400187332" flag="0"/>
      <psa30 value="0.0070652510" flag="0"/>
    </comp>
    <comp name="--.HHN">
      <acc value="0.5595251128" flag="0"/>
      <vel value="0.1471141982" flag="0"/>
      <psa03 value="0.5823606780" flag="0"/>
      <psa10 value="0.0792026923" flag="0"/>
      <psa30 value="0.0057596227" flag="0"/>
    </comp>
  </station>
  <station code="APE" name="APE" netid="HL" insttype="120" lat="37.0727" lon="25.523">
    <comp name="--.HHE">
      <acc value="0.0966454456" flag="0"/>
      <vel value="0.0262410882" flag="0"/>
      <psa03 value="0.0918950853" flag="0"/>
      <psa10 value="0.0088420789" flag="0"/>
      <psa30 value="0.0009449798" flag="0"/>
    </comp>
    <comp name="--.HHN">
      <acc value="0.1064333151" flag="0"/>
      <vel value="0.0294754038" flag="0"/>
      <psa03 value="0.0958762153" flag="0"/>
      <psa10 value="0.0061734936" flag="0"/>
      <psa30 value="0.0010989383" flag="0"/>
    </comp>
    <comp name="--.HHZ">
      <acc value="0.0560330388" flag="0"/>
      <vel value="0.0112897944" flag="0"/>
      <psa03 value="0.0552158895" flag="0"/>
      <psa10 value="0.0095352411" flag="0"/>
      <psa30 value="0.0008307504" flag="0"/>
    </comp>
  </station>
  <station code="ASTA" name="ASTA" netid="HL" insttype="CMG-5" lat="36.5455" lon="26.3529">
    <comp name="00.HNE">
      <acc value="0.0404835230" flag="0"/>
      <vel value="0.0141507169" flag="0"/>
      <psa03 value="0.0524308747" flag="0"/>
      <psa10 value="0.0075615155" flag="0"/>
      <psa30 value="0.0005682326" flag="0"/>
    </comp>
    <comp name="00.HNN">
      <acc value="0.0354493735" flag="0"/>
      <vel value="0.0125949664" flag="0"/>
      <psa03 value="0.0531861958" flag="0"/>
      <psa10 value="0.0109929214" flag="0"/>
      <psa30 value="0.0005538413" flag="0"/>
    </comp>
    <comp name="00.HNZ">
      <acc value="0.0283045185" flag="0"/>
      <vel value="0.0118969637" flag="0"/>
      <psa03 value="0.0474621988" flag="0"/>
      <psa10 value="0.0066787295" flag="0"/>
      <psa30 value="0.0005786269" flag="0"/>
    </comp>
  </station>
  <station code="MILA" name="MILA" netid="HL" insttype="CMG-5" lat="36.7429" lon="24.4282">
    <comp name="00.HNN">
      <acc value="0.0433599307" flag="0"/>
      <vel value="0.0245402581" flag="0"/>
      <psa03 value="0.1215198472" flag="0"/>
      <psa10 value="0.0225731619" flag="0"/>
      <psa30 value="0.0017681260" flag="0"/>
    </comp>
    <comp name="00.HNZ">
      <acc value="0.0327641502" flag="0"/>
      <vel value="0.0178632287" flag="0"/>
      <psa03 value="0.0744608830" flag="0"/>
      <psa10 value="0.0172903854" flag="0"/>
      <psa30 value="0.0010062419" flag="0"/>
    </comp>
    <comp name="00.HNE">
      <acc value="0.0443898621" flag="0"/>
      <vel value="0.0160727638" flag="0"/>
      <psa03 value="0.0726314142" flag="0"/>
      <psa10 value="0.0193220878" flag="0"/>
      <psa30 value="0.0026105991" flag="0"/>
    </comp>
  </station>
  <station code="NISR" name="NISR" netid="HL" insttype="65535" lat="36.6106" lon="27.131">
    <comp name="--.HHE">
      <acc value="0.0000000000" flag="0"/>
      <vel value="-100.0000000000" flag="0"/>
      <psa03 value="0.0000000000" flag="0"/>
      <psa10 value="0.0000000000" flag="0"/>
      <psa30 value="0.0000000000" flag="0"/>
    </comp>
    <comp name="--.HHN">
      <acc value="0.0180689470" flag="0"/>
      <vel value="0.0097279805" flag="0"/>
      <psa03 value="0.0637066733" flag="0"/>
      <psa10 value="0.0085431680" flag="0"/>
      <psa30 value="0.0010780119" flag="0"/>
    </comp>
    <comp name="--.HHZ">
      <acc value="0.0129435331" flag="0"/>
      <vel value="0.0059772792" flag="0"/>
      <psa03 value="0.0431717261" flag="0"/>
      <psa10 value="0.0054010266" flag="0"/>
      <psa30 value="0.0003463596" flag="0"/>
    </comp>
  </station>
  <station code="NISR2" name="NISR2" netid="HL" insttype="120" lat="36.5744" lon="27.1767">
    <comp name="--.HHE">
      <acc value="0.0288549225" flag="0"/>
      <vel value="0.0174038157" flag="0"/>
      <psa03 value="0.1053574358" flag="0"/>
      <psa10 value="0.0227765896" flag="0"/>
      <psa30 value="0.0011694338" flag="0"/>
    </comp>
    <comp name="--.HHN">
      <acc value="0.0339602500" flag="0"/>
      <vel value="0.0218071273" flag="0"/>
      <psa03 value="0.0995821373" flag="0"/>
      <psa10 value="0.0253326221" flag="0"/>
      <psa30 value="0.0012902811" flag="0"/>
    </comp>
    <comp name="--.HHZ">
      <acc value="0.0090188178" flag="0"/>
      <vel value="0.0052918275" flag="0"/>
      <psa03 value="0.0327809933" flag="0"/>
      <psa10 value="0.0051143099" flag="0"/>
      <psa30 value="0.0005354289" flag="0"/>
    </comp>
  </station>
  <station code="SANT" name="SANT" netid="HL" insttype="30" lat="36.3705" lon="25.4593">
    <comp name="--.HHE">
      <acc value="0.2747223960" flag="0"/>
      <vel value="0.0442356456" flag="0"/>
      <psa03 value="0.1282517937" flag="0"/>
      <psa10 value="0.0134534390" flag="0"/>
      <psa30 value="0.0011866272" flag="0"/>
    </comp>
    <comp name="--.HHN">
      <acc value="0.3424885673" flag="0"/>
      <vel value="0.0342480718" flag="0"/>
      <psa03 value="0.1062823634" flag="0"/>
      <psa10 value="0.0114851486" flag="0"/>
      <psa30 value="0.0011324909" flag="0"/>
    </comp>
    <comp name="--.HHZ">
      <acc value="0.2117057703" flag="0"/>
      <vel value="0.0312767181" flag="0"/>
      <psa03 value="0.0828364107" flag="0"/>
      <psa10 value="0.0077436605" flag="0"/>
      <psa30 value="0.0007157745" flag="0"/>
    </comp>
  </station>
  <station code="SAP3" name="SAP3" netid="HL" insttype="65535" lat="36.4356" lon="25.3454">
    <comp name="--.HHE">
      <acc value="0.0618642847" flag="0"/>
      <vel value="0.0178302776" flag="0"/>
      <psa03 value="0.0732739947" flag="0"/>
      <psa10 value="0.0232512211" flag="0"/>
      <psa30 value="0.0029467851" flag="0"/>
    </comp>
    <comp name="--.HHN">
      <acc value="0.0592377414" flag="0"/>
      <vel value="0.0202383351" flag="0"/>
      <psa03 value="0.0826009637" flag="0"/>
      <psa10 value="0.0180199038" flag="0"/>
      <psa30 value="0.0024032154" flag="0"/>
    </comp>
    <comp name="--.HHZ">
      <acc value="0.0759862484" flag="0"/>
      <vel value="0.0137199252" flag="0"/>
      <psa03 value="0.0743753204" flag="0"/>
      <psa10 value="0.0121791902" flag="0"/>
      <psa30 value="0.0009902350" flag="0"/>
    </comp>
  </station>
  <station code="THERA" name="THERA" netid="HL" insttype="120" lat="36.367" lon="25.4753">
    <comp name="--.HHE">
      <acc value="0.1265549687" flag="0"/>
      <vel value="0.0192122523" flag="0"/>
      <psa03 value="0.0829031838" flag="0"/>
      <psa10 value="0.0072855029" flag="0"/>
      <psa30 value="0.0008204762" flag="0"/>
    </comp>
    <comp name="--.HHZ">
      <acc value="0.0640871816" flag="0"/>
      <vel value="0.0164680440" flag="0"/>
      <psa03 value="0.0709143041" flag="0"/>
      <psa10 value="0.0063153166" flag="0"/>
      <psa30 value="0.0008464529" flag="0"/>
    </comp>
    <comp name="--.HHN">
      <acc value="0.1381585345" flag="0"/>
      <vel value="0.0277265700" flag="0"/>
      <psa03 value="0.0993945141" flag="0"/>
      <psa10 value="0.0091446312" flag="0"/>
      <psa30 value="0.0008431352" flag="0"/>
    </comp>
  </station>
  <station code="THRA" name="THRA" netid="HL" insttype="CMG-5" lat="36.415" lon="25.4324">
    <comp name="00.HNN">
      <acc value="0.1245658893" flag="0"/>
      <vel value="0.0525481814" flag="0"/>
      <psa03 value="0.2686308144" flag="0"/>
      <psa10 value="0.0490516677" flag="0"/>
      <psa30 value="0.0046874067" flag="0"/>
    </comp>
    <comp name="00.HNE">
      <acc value="0.1626719463" flag="0"/>
      <vel value="0.0507617589" flag="0"/>
      <psa03 value="0.3323591086" flag="0"/>
      <psa10 value="0.0346247096" flag="0"/>
      <psa30 value="0.0045117157" flag="0"/>
    </comp>
    <comp name="00.HNZ">
      <acc value="0.1277350764" flag="0"/>
      <vel value="0.0316187872" flag="0"/>
      <psa03 value="0.1392106375" flag="0"/>
      <psa10 value="0.0214738000" flag="0"/>
      <psa30 value="0.0018552703" flag="0"/>
    </comp>
  </station>
  <station code="TNSA" name="TNSA" netid="HL" insttype="CMG-5" lat="37.5394" lon="25.1631">
    <comp name="00.HNN">
      <acc value="0.0354106243" flag="0"/>
      <vel value="0.0101332075" flag="0"/>
      <psa03 value="0.0932974404" flag="0"/>
      <psa10 value="0.0056459071" flag="0"/>
      <psa30 value="0.0005881609" flag="0"/>
    </comp>
    <comp name="00.HNZ">
      <acc value="0.0243074263" flag="0"/>
      <vel value="0.0106671083" flag="0"/>
      <psa03 value="0.0602220454" flag="0"/>
      <psa10 value="0.0050936070" flag="0"/>
      <psa30 value="0.0008871162" flag="0"/>
    </comp>
    <comp name="00.HNE">
      <acc value="0.0289494331" flag="0"/>
      <vel value="0.0095585992" flag="0"/>
      <psa03 value="0.0708400911" flag="0"/>
      <psa10 value="0.0036577713" flag="0"/>
      <psa30 value="0.0004713720" flag="0"/>
    </comp>
  </station>
  <station code="AKRO" name="AKRO" netid="HT" insttype="Compact," lat="36.3584" lon="25.3967">
    <comp name="--.HHE">
      <acc value="0.3552305950" flag="0"/>
      <vel value="0.0792129950" flag="0"/>
      <psa03 value="0.4490876497" flag="0"/>
      <psa10 value="0.0220309874" flag="0"/>
      <psa30 value="0.0017706137" flag="0"/>
    </comp>
    <comp name="--.HHN">
      <acc value="0.3822263966" flag="0"/>
      <vel value="0.0555853172" flag="0"/>
      <psa03 value="0.2547160974" flag="0"/>
      <psa10 value="0.0302322709" flag="0"/>
      <psa30 value="0.0021886608" flag="0"/>
    </comp>
    <comp name="--.HHZ">
      <acc value="0.1753014730" flag="0"/>
      <vel value="0.0361297101" flag="0"/>
      <psa03 value="0.2092003208" flag="0"/>
      <psa10 value="0.0118026870" flag="0"/>
      <psa30 value="0.0009595943" flag="0"/>
    </comp>
  </station>
  <station code="CMBO" name="CMBO" netid="HT" insttype="120P," lat="36.4709" lon="25.4056">
    <comp name="--.HHE">
      <acc value="0.0638200552" flag="0"/>
      <vel value="0.0273287879" flag="0"/>
      <psa03 value="0.0811064769" flag="0"/>
      <psa10 value="0.0316510923" flag="0"/>
      <psa30 value="0.0021114961" flag="0"/>
    </comp>
    <comp name="--.HHN">
      <acc value="0.1150567783" flag="0"/>
      <vel value="0.0374404267" flag="0"/>
      <psa03 value="0.1103847500" flag="0"/>
      <psa10 value="0.0338025655" flag="0"/>
      <psa30 value="0.0017324258" flag="0"/>
    </comp>
    <comp name="--.HHZ">
      <acc value="0.0984612485" flag="0"/>
      <vel value="0.0193696991" flag="0"/>
      <psa03 value="0.0874086179" flag="0"/>
      <psa10 value="0.0083651704" flag="0"/>
      <psa30 value="0.0011727282" flag="0"/>
    </comp>
  </station>
</stationlist>
