<?xml version="1.0" encoding="UTF-8" standalone="yes"?>
<!DOCTYPE earthquake SYSTEM "stationlist.dtd">
<stationlist created="" xmlns="ch.ethz.sed.shakemap.usgs.xml">
  <station code="BNGB" name="BNGB" netid="KO" insttype="CMG-3ESPC" lat="38.9913" lon="40.6792">
    <comp name="--.HHE">
      <acc value="0.0206061506" flag="0"/>
      <vel value="0.0062694430" flag="0"/>
      <psa03 value="0.0390520392" flag="0"/>
      <psa10 value="0.0052483765" flag="0"/>
      <psa30 value="0.0005179131" flag="0"/>
    </comp>
    <comp name="--.HHN">
      <acc value="0.0243722448" flag="0"/>
      <vel value="0.0057667467" flag="0"/>
      <psa03 value="0.0213149595" flag="0"/>
      <psa10 value="0.0044146009" flag="0"/>
      <psa30 value="0.0008682867" flag="0"/>
    </comp>
    <comp name="--.HHZ">
      <acc value="0.0130203168" flag="0"/>
      <vel value="0.0047541086" flag="0"/>
      <psa03 value="0.0173976908" flag="0"/>
      <psa10 value="0.0057690769" flag="0"/>
      <psa30 value="0.0002446966" flag="0"/>
    </comp>
  </station>
  <station code="ERZN" name="ERZN" netid="KO" insttype="CMG-3ESP" lat="39.5867" lon="39.722">
    <comp name="--.HHE">
      <acc value="0.0835637047" flag="0"/>
      <vel value="0.0221616166" flag="0"/>
      <psa03 value="0.0782281194" flag="0"/>
      <psa10 value="0.0173975391" flag="0"/>
      <psa30 value="0.0008717581" flag="0"/>
    </comp>
    <comp name="--.HHN">
      <acc value="0.0574599059" flag="0"/>
      <vel value="0.0166090028" flag="0"/>
      <psa03 value="0.1136269690" flag="0"/>
      <psa10 value="0.0097036684" flag="0"/>
      <psa30 value="0.0008367739" flag="0"/>
    </comp>
    <comp name="--.HHZ">
      <acc value="0.0472700980" flag="0"/>
      <vel value="0.0103843728" flag="0"/>
      <psa03 value="0.0359941306" flag="0"/>
      <psa10 value="0.0083895860" flag="0"/>
      <psa30 value="0.0006286802" flag="0"/>
    </comp>
  </station>
  <station code="KARO" name="KARO" netid="KO" insttype="CMG-3T" lat="39.3089" lon="41.0493">
    <comp name="--.HHZ">
      <acc value="0.0271440562" flag="0"/>
      <vel value="0.0089995118" flag="0"/>
      <psa03 value="0.0577237609" flag="0"/>
      <psa10 value="0.0047394901" flag="0"/>
      <psa30 value="0.0004468189" flag="0"/>
    </comp>
    <comp name="--.HHE">
      <acc value="0.0271710568" flag="0"/>
      <vel value="0.0171480061" flag="0"/>
      <psa03 value="0.0834098411" flag="0"/>
      <psa10 value="0.0170438037" flag="0"/>
      <psa30 value="0.0009021030" flag="0"/>
    </comp>
    <comp name="--.HHN">
      <acc value="0.0354985521" flag="0"/>
      <vel value="0.0162321525" flag="0"/>
      <psa03 value="0.0961461864" flag="0"/>
      <psa10 value="0.0155036179" flag="0"/>
      <psa30 value="0.0006882479" flag="0"/>
    </comp>
  </station>
  <station code="VRTB" name="VRTB" netid="KO" insttype="CMG-3ESPC" lat="39.1603" lon="41.4558">
    <comp name="--.HHN">
      <acc value="0.0035186410" flag="0"/>
      <vel value="0.0040174268" flag="0"/>
      <psa03 value="0.0153721142" flag="0"/>
      <psa10 value="0.0071258976" flag="0"/>
      <psa30 value="0.0007659116" flag="0"/>
    </comp>
    <comp name="--.HHZ">
      <acc value="0.0038666259" flag="0"/>
      <vel value="0.0041268668" flag="0"/>
      <psa03 value="0.0085188764" flag="0"/>
      <psa10 value="0.0062698876" flag="0"/>
      <psa30 value="0.0007223131" flag="0"/>
    </comp>
  </station>
  <station code="YEDI" name="YEDI" netid="KO" insttype="CMG-3T" lat="39.4377" lon="40.5443">
    <comp name="--.HHE">
      <acc value="0.1788116023" flag="0"/>
      <vel value="0.0555382200" flag="0"/>
      <psa03 value="0.3187085231" flag="0"/>
      <psa10 value="0.0220997711" flag="0"/>
      <psa30 value="0.0017690818" flag="0"/>
    </comp>
    <comp name="--.HHZ">
      <acc value="0.0000256985" flag="0"/>
      <vel value="0.0000033434" flag="0"/>
      <psa03 value="0.0000165838" flag="0"/>
      <psa10 value="0.0000045013" flag="0"/>
      <psa30 value="0.0000007167" flag="0"/>
    </comp>
    <comp name="--.HHN">
      <acc value="0.1542411694" flag="0"/>
      <vel value="0.0700128083" flag="0"/>
      <psa03 value="0.3905822123" flag="0"/>
      <psa10 value="0.0243517594" flag="0"/>
      <psa30 value="0.0015421690" flag="0"/>
    </comp>
  </station>
</stationlist>
