<?xml version="1.0" encoding="UTF-8" standalone="yes"?>
<!DOCTYPE earthquake SYSTEM "stationlist.dtd">
<stationlist created="" xmlns="ch.ethz.sed.shakemap.usgs.xml">
  <station code="BIR" name="BIR" netid="RO" insttype="MBB2/Quanterra" lat="46.2334" lon="27.6436">
    <comp name="--.HHE">
      <acc value="0.1178034455" flag="0"/>
      <vel value="0.0295487267" flag="0"/>
      <psa03 value="0.1786282289" flag="0"/>
      <psa10 value="0.0221462027" flag="0"/>
      <psa30 value="0.0015007332" flag="0"/>
    </comp>
    <comp name="--.HHN">
      <acc value="0.0730677710" flag="0"/>
      <vel value="0.0370656676" flag="0"/>
      <psa03 value="0.1238435898" flag="0"/>
      <psa10 value="0.0239622225" flag="0"/>
      <psa30 value="0.0017917464" flag="0"/>
    </comp>
    <comp name="--.HHZ">
      <acc value="0.0512586584" flag="0"/>
      <vel value="0.0167593844" flag="0"/>
      <psa03 value="0.0771050134" flag="0"/>
      <psa10 value="0.0074491831" flag="0"/>
      <psa30 value="0.0003877519" flag="0"/>
    </comp>
  </station>
  <station code="BISRR" name="BISRR" netid="RO" insttype="CMG40T.1to100/Basalt" lat="45.5481" lon="26.7099">
    <comp name="--.HHE">
      <acc value="0.0408065805" flag="0"/>
      <vel value="0.0335206792" flag="0"/>
      <psa03 value="0.0950872208" flag="0"/>
      <psa10 value="0.0409274979" flag="0"/>
      <psa30 value="0.0020333206" flag="0"/>
    </comp>
    <comp name="--.HHZ">
      <acc value="0.0308316844" flag="0"/>
      <vel value="0.0174702651" flag="0"/>
      <psa03 value="0.0703409709" flag="0"/>
      <psa10 value="0.0140480870" flag="0"/>
      <psa30 value="0.0011167317" flag="0"/>
    </comp>
    <comp name="--.HHN">
      <acc value="0.0364089925" flag="0"/>
      <vel value="0.0370964193" flag="0"/>
      <psa03 value="0.0967487553" flag="0"/>
      <psa10 value="0.0395484738" flag="0"/>
      <psa30 value="0.0021988148" flag="0"/>
    </comp>
  </station>
  <station code="BOSR" name="BOSR" netid="RO" insttype="Seismometer/Basalt" lat="46.0749" lon="25.6611">
    <comp name="--.HHE">
      <acc value="0.0124770900" flag="0"/>
      <vel value="0.0040380736" flag="0"/>
      <psa03 value="0.0259509640" flag="0"/>
      <psa10 value="0.0037461784" flag="0"/>
      <psa30 value="0.0001759247" flag="0"/>
    </comp>
    <comp name="--.HHZ">
      <acc value="0.0107446110" flag="0"/>
      <vel value="0.0035581392" flag="0"/>
      <psa03 value="0.0160756794" flag="0"/>
      <psa10 value="0.0019848206" flag="0"/>
      <psa30 value="0.0001667657" flag="0"/>
    </comp>
    <comp name="--.HHN">
      <acc value="0.0122755949" flag="0"/>
      <vel value="0.0033793384" flag="0"/>
      <psa03 value="0.0179980189" flag="0"/>
      <psa10 value="0.0033421057" flag="0"/>
      <psa30 value="0.0001714873" flag="0"/>
    </comp>
  </station>
  <station code="COPR" name="COPR" netid="RO" insttype="200" lat="45.8442" lon="26.1687">
    <comp name="--.HNE">
      <acc value="0.0124038063" flag="0"/>
      <vel value="0.0076402897" flag="0"/>
      <psa03 value="0.0339995999" flag="0"/>
      <psa10 value="0.0141455656" flag="0"/>
      <psa30 value="0.0007669677" flag="0"/>
    </comp>
    <comp name="--.HNN">
      <acc value="0.0124338727" flag="0"/>
      <vel value="0.0075896798" flag="0"/>
      <psa03 value="0.0411441072" flag="0"/>
      <psa10 value="0.0083615897" flag="0"/>
      <psa30 value="0.0004707240" flag="0"/>
    </comp>
    <comp name="--.HNZ">
      <acc value="0.0105873708" flag="0"/>
      <vel value="0.0068236827" flag="0"/>
      <psa03 value="0.0267588268" flag="0"/>
      <psa10 value="0.0045765008" flag="0"/>
      <psa30 value="0.0004000610" flag="0"/>
    </comp>
  </station>
  <station code="DOPR" name="DOPR" netid="RO" insttype="330" lat="45.9675" lon="25.3886">
    <comp name="--.HHE">
      <acc value="0.0080809829" flag="0"/>
      <vel value="0.0037170366" flag="0"/>
      <psa03 value="0.0176111355" flag="0"/>
      <psa10 value="0.0055001936" flag="0"/>
      <psa30 value="0.0002966057" flag="0"/>
    </comp>
    <comp name="--.HHN">
      <acc value="0.0076953266" flag="0"/>
      <vel value="0.0024488933" flag="0"/>
      <psa03 value="0.0184716547" flag="0"/>
      <psa10 value="0.0014626792" flag="0"/>
      <psa30 value="0.0001109993" flag="0"/>
    </comp>
    <comp name="--.HHZ">
      <acc value="0.0091893609" flag="0"/>
      <vel value="0.0037016940" flag="0"/>
      <psa03 value="0.0168272121" flag="0"/>
      <psa10 value="0.0019444163" flag="0"/>
      <psa30 value="0.0001769508" flag="0"/>
    </comp>
  </station>
  <station code="ISR" name="ISR" netid="RO" insttype="CMG3ESP/Quanterra" lat="45.1187" lon="26.5432">
    <comp name="--.HHE">
      <acc value="0.0158531983" flag="0"/>
      <vel value="0.0064803261" flag="0"/>
      <psa03 value="0.0395506318" flag="0"/>
      <psa10 value="0.0059082173" flag="0"/>
      <psa30 value="0.0004027201" flag="0"/>
    </comp>
    <comp name="--.HHN">
      <acc value="0.0204848041" flag="0"/>
      <vel value="0.0070845214" flag="0"/>
      <psa03 value="0.0332770198" flag="0"/>
      <psa10 value="0.0076798693" flag="0"/>
      <psa30 value="0.0004660377" flag="0"/>
    </comp>
    <comp name="--.HHZ">
      <acc value="0.0071114925" flag="0"/>
      <vel value="0.0031745682" flag="0"/>
      <psa03 value="0.0212041201" flag="0"/>
      <psa10 value="0.0033817537" flag="0"/>
      <psa30 value="0.0002228653" flag="0"/>
    </comp>
  </station>
  <station code="IZVR" name="IZVR" netid="RO" insttype="CMG40T.1to100/Quanterra" lat="45.5442" lon="27.7655">
    <comp name="--.HHE">
      <acc value="0.0381118490" flag="0"/>
      <vel value="0.0129629023" flag="0"/>
      <psa03 value="0.0433427823" flag="0"/>
      <psa10 value="0.0038181036" flag="0"/>
      <psa30 value="0.0002745761" flag="0"/>
    </comp>
    <comp name="--.HHZ">
      <acc value="0.0260487751" flag="0"/>
      <vel value="0.0032223661" flag="0"/>
      <psa03 value="0.0139117554" flag="0"/>
      <psa10 value="0.0011611499" flag="0"/>
      <psa30 value="0.0001056156" flag="0"/>
    </comp>
    <comp name="--.HHN">
      <acc value="0.0672763846" flag="0"/>
      <vel value="0.0220633007" flag="0"/>
      <psa03 value="0.0720250231" flag="0"/>
      <psa10 value="0.0089828816" flag="0"/>
      <psa30 value="0.0006280712" flag="0"/>
    </comp>
  </station>
  <station code="MLR" name="MLR" netid="RO" insttype="330HR" lat="45.4909" lon="25.945">
    <comp name="--.HHN">
      <acc value="0.0085461574" flag="0"/>
      <vel value="0.0059703819" flag="0"/>
      <psa03 value="0.0296186583" flag="0"/>
      <psa10 value="0.0043714815" flag="0"/>
      <psa30 value="0.0004501039" flag="0"/>
    </comp>
    <comp name="--.HHZ">
      <acc value="0.0137573215" flag="0"/>
      <vel value="0.0050577119" flag="0"/>
      <psa03 value="0.0300306812" flag="0"/>
      <psa10 value="0.0035662095" flag="0"/>
      <psa30 value="0.0002532598" flag="0"/>
    </comp>
    <comp name="--.HHE">
      <acc value="0.0106239624" flag="0"/>
      <vel value="0.0075777199" flag="0"/>
      <psa03 value="0.0285909915" flag="0"/>
      <psa10 value="0.0051010470" flag="0"/>
      <psa30 value="0.0003068708" flag="0"/>
    </comp>
  </station>
  <station code="NEGRR" name="NEGRR" netid="RO" insttype="CMG40T.1to100/Quanterra" lat="45.5373" lon="27.8771">
    <comp name="--.HHZ">
      <acc value="0.0313023699" flag="0"/>
      <vel value="0.0040358464" flag="0"/>
      <psa03 value="0.0300209593" flag="0"/>
      <psa10 value="0.0012356664" flag="0"/>
      <psa30 value="0.0000974176" flag="0"/>
    </comp>
    <comp name="--.HHN">
      <acc value="0.0371865672" flag="0"/>
      <vel value="0.0071790742" flag="0"/>
      <psa03 value="0.0235837608" flag="0"/>
      <psa10 value="0.0035162432" flag="0"/>
      <psa30 value="0.0001792031" flag="0"/>
    </comp>
    <comp name="--.HHE">
      <acc value="0.0443179007" flag="0"/>
      <vel value="0.0068939588" flag="0"/>
      <psa03 value="0.0255361047" flag="0"/>
      <psa10 value="0.0028930645" flag="0"/>
      <psa30 value="0.0002852732" flag="0"/>
    </comp>
  </station>
  <station code="NEHR" name="NEHR" netid="RO" insttype="Seismometer/Basalt" lat="45.4272" lon="26.2952">
    <comp name="--.HHE">
      <acc value="0.0262598588" flag="0"/>
      <vel value="0.0115463538" flag="0"/>
      <psa03 value="0.0839201658" flag="0"/>
      <psa10 value="0.0073913136" flag="0"/>
      <psa30 value="0.0004565548" flag="0"/>
    </comp>
    <comp name="--.HHN">
      <acc value="0.0192234591" flag="0"/>
      <vel value="0.0090793286" flag="0"/>
      <psa03 value="0.0820230517" flag="0"/>
      <psa10 value="0.0056402009" flag="0"/>
      <psa30 value="0.0003882101" flag="0"/>
    </comp>
    <comp name="--.HHZ">
      <acc value="0.0168787920" flag="0"/>
      <vel value="0.0058074827" flag="0"/>
      <psa03 value="0.0326844173" flag="0"/>
      <psa10 value="0.0032025875" flag="0"/>
      <psa30 value="0.0002034284" flag="0"/>
    </comp>
  </station>
  <station code="ODBI" name="ODBI" netid="RO" insttype="PBB.1to100/Quanterra" lat="45.7633" lon="27.0558">
    <comp name="--.HHE">
      <acc value="0.0935075963" flag="0"/>
      <vel value="0.0368146855" flag="0"/>
      <psa03 value="0.1754917736" flag="0"/>
      <psa10 value="0.0288087834" flag="0"/>
      <psa30 value="0.0025836973" flag="0"/>
    </comp>
    <comp name="--.HHN">
      <acc value="0.0918274214" flag="0"/>
      <vel value="0.0467727553" flag="0"/>
      <psa03 value="0.1764524815" flag="0"/>
      <psa10 value="0.0444500556" flag="0"/>
      <psa30 value="0.0029651209" flag="0"/>
    </comp>
    <comp name="--.HHZ">
      <acc value="0.0304309594" flag="0"/>
      <vel value="0.0049157430" flag="0"/>
      <psa03 value="0.0438932518" flag="0"/>
      <psa10 value="0.0071159321" flag="0"/>
      <psa30 value="0.0004104048" flag="0"/>
    </comp>
  </station>
  <station code="ODSR" name="ODSR" netid="RO" insttype="CMG40T.1to100/Quanterra" lat="46.2969" lon="25.2919">
    <comp name="--.HHN">
      <acc value="0.0052579736" flag="0"/>
      <vel value="0.0025469189" flag="0"/>
      <psa03 value="0.0118106248" flag="0"/>
      <psa10 value="0.0017740391" flag="0"/>
      <psa30 value="0.0001632186" flag="0"/>
    </comp>
    <comp name="--.HHZ">
      <acc value="0.0073953199" flag="0"/>
      <vel value="0.0031924964" flag="0"/>
      <psa03 value="0.0160473546" flag="0"/>
      <psa10 value="0.0015659408" flag="0"/>
      <psa30 value="0.0001294854" flag="0"/>
    </comp>
    <comp name="--.HHE">
      <acc value="0.0093289977" flag="0"/>
      <vel value="0.0042065387" flag="0"/>
      <psa03 value="0.0248586821" flag="0"/>
      <psa10 value="0.0026527849" flag="0"/>
      <psa30 value="0.0002513464" flag="0"/>
    </comp>
  </station>
  <station code="PANC" name="PANC" netid="RO" insttype="Seismometer/Basalt" lat="45.8723" lon="27.1477">
    <comp name="--.HHE">
      <acc value="0.0305256699" flag="0"/>
      <vel value="0.0117507580" flag="0"/>
      <psa03 value="0.0606961527" flag="0"/>
      <psa10 value="0.0063495767" flag="0"/>
      <psa30 value="0.0004107073" flag="0"/>
    </comp>
    <comp name="--.HHZ">
      <acc value="0.0404294278" flag="0"/>
      <vel value="0.0054286740" flag="0"/>
      <psa03 value="0.0175506583" flag="0"/>
      <psa10 value="0.0027424367" flag="0"/>
      <psa30 value="0.0002256306" flag="0"/>
    </comp>
    <comp name="--.HHN">
      <acc value="0.0002858557" flag="0"/>
      <vel value="0.0001027119" flag="0"/>
      <psa03 value="0.0001616853" flag="0"/>
      <psa10 value="0.0000606001" flag="0"/>
      <psa30 value="0.0000453166" flag="0"/>
    </comp>
  </station>
  <station code="PGOR" name="PGOR" netid="RO" insttype="CMG40T.1to100/Quanterra" lat="44.9199" lon="26.9768">
    <comp name="--.HHE">
      <acc value="0.0285803460" flag="0"/>
      <vel value="0.0149299384" flag="0"/>
      <psa03 value="0.0589723410" flag="0"/>
      <psa10 value="0.0090596839" flag="0"/>
      <psa30 value="0.0008627551" flag="0"/>
    </comp>
    <comp name="--.HHN">
      <acc value="0.0443687636" flag="0"/>
      <vel value="0.0182656471" flag="0"/>
      <psa03 value="0.0869911470" flag="0"/>
      <psa10 value="0.0058068154" flag="0"/>
      <psa30 value="0.0004576272" flag="0"/>
    </comp>
    <comp name="--.HHZ">
      <acc value="0.0427136899" flag="0"/>
      <vel value="0.0041125447" flag="0"/>
      <psa03 value="0.0194195451" flag="0"/>
      <psa10 value="0.0017940303" flag="0"/>
      <psa30 value="0.0001571685" flag="0"/>
    </comp>
  </station>
  <station code="PLAR" name="PLAR" netid="RO" insttype="200" lat="44.9142" lon="26.0274">
    <comp name="--.HNZ">
      <acc value="0.0241625743" flag="0"/>
      <vel value="0.0043679963" flag="0"/>
      <psa03 value="0.0200229737" flag="0"/>
      <psa10 value="0.0018221508" flag="0"/>
      <psa30 value="0.0001912499" flag="0"/>
    </comp>
    <comp name="--.HNE">
      <acc value="0.0813313326" flag="0"/>
      <vel value="0.0340504554" flag="0"/>
      <psa03 value="0.1577258752" flag="0"/>
      <psa10 value="0.0080430911" flag="0"/>
      <psa30 value="0.0008174399" flag="0"/>
    </comp>
    <comp name="--.HNN">
      <acc value="0.0345490919" flag="0"/>
      <vel value="0.0177469304" flag="0"/>
      <psa03 value="0.0848018612" flag="0"/>
      <psa10 value="0.0064855326" flag="0"/>
      <psa30 value="0.0005715199" flag="0"/>
    </comp>
  </station>
  <station code="PLOR" name="PLOR" netid="RO" insttype="330" lat="45.8512" lon="26.6498">
    <comp name="--.HHN">
      <acc value="0.0100425899" flag="0"/>
      <vel value="0.0066224091" flag="0"/>
      <psa03 value="0.0352291268" flag="0"/>
      <psa10 value="0.0041445521" flag="0"/>
      <psa30 value="0.0003234944" flag="0"/>
    </comp>
    <comp name="--.HHE">
      <acc value="0.0100609746" flag="0"/>
      <vel value="0.0082902813" flag="0"/>
      <psa03 value="0.0283266951" flag="0"/>
      <psa10 value="0.0056532972" flag="0"/>
      <psa30 value="0.0003996841" flag="0"/>
    </comp>
    <comp name="--.HHZ">
      <acc value="0.0047510180" flag="0"/>
      <vel value="0.0022689799" flag="0"/>
      <psa03 value="0.0126682304" flag="0"/>
      <psa10 value="0.0020297272" flag="0"/>
      <psa30 value="0.0001098447" flag="0"/>
    </comp>
  </station>
  <station code="PLOR4" name="PLOR4" netid="RO" insttype="330" lat="45.8512" lon="26.6498">
    <comp name="--.HHN">
      <acc value="0.0100425899" flag="0"/>
      <vel value="0.0066224091" flag="0"/>
      <psa03 value="0.0352291268" flag="0"/>
      <psa10 value="0.0041445521" flag="0"/>
      <psa30 value="0.0003234944" flag="0"/>
    </comp>
    <comp name="--.HHE">
      <acc value="0.0100609746" flag="0"/>
      <vel value="0.0082902813" flag="0"/>
      <psa03 value="0.0283266951" flag="0"/>
      <psa10 value="0.0056532972" flag="0"/>
      <psa30 value="0.0003996841" flag="0"/>
    </comp>
    <comp name="--.HHZ">
      <acc value="0.0047510180" flag="0"/>
      <vel value="0.0022689799" flag="0"/>
      <psa03 value="0.0126682304" flag="0"/>
      <psa10 value="0.0020297272" flag="0"/>
      <psa30 value="0.0001098447" flag="0"/>
    </comp>
  </station>
  <station code="SAHR" name="SAHR" netid="RO" insttype="Seismometer/Basalt" lat="45.7266" lon="26.6855">
    <comp name="--.HHN">
      <acc value="0.0268592423" flag="0"/>
      <vel value="0.0156958292" flag="0"/>
      <psa03 value="0.0878068928" flag="0"/>
      <psa10 value="0.0121846410" flag="0"/>
      <psa30 value="0.0008132459" flag="0"/>
    </comp>
    <comp name="--.HHZ">
      <acc value="0.0153785203" flag="0"/>
      <vel value="0.0058263333" flag="0"/>
      <psa03 value="0.0290507995" flag="0"/>
      <psa10 value="0.0056581309" flag="0"/>
      <psa30 value="0.0004806518" flag="0"/>
    </comp>
    <comp name="--.HHE">
      <acc value="0.0249115053" flag="0"/>
      <vel value="0.0176099642" flag="0"/>
      <psa03 value="0.0832302718" flag="0"/>
      <psa10 value="0.0111617263" flag="0"/>
      <psa30 value="0.0012539315" flag="0"/>
    </comp>
  </station>
  <station code="SCHL" name="SCHL" netid="RO" insttype="CMG40T.1to100/Quanterra" lat="45.5007" lon="27.8302">
    <comp name="--.HHE">
      <acc value="0.0415368120" flag="0"/>
      <vel value="0.0184783868" flag="0"/>
      <psa03 value="0.1089857451" flag="0"/>
      <psa10 value="0.0081666320" flag="0"/>
      <psa30 value="0.0003472048" flag="0"/>
    </comp>
    <comp name="--.HHN">
      <acc value="0.0308008894" flag="0"/>
      <vel value="0.0147773756" flag="0"/>
      <psa03 value="0.0552761402" flag="0"/>
      <psa10 value="0.0116783990" flag="0"/>
      <psa30 value="0.0004775586" flag="0"/>
    </comp>
    <comp name="--.HHZ">
      <acc value="0.0382141293" flag="0"/>
      <vel value="0.0069276006" flag="0"/>
      <psa03 value="0.0370555684" flag="0"/>
      <psa10 value="0.0022953650" flag="0"/>
      <psa30 value="0.0001445146" flag="0"/>
    </comp>
  </station>
  <station code="SCHLR" name="SCHLR" netid="RO" insttype="CMG40T.1to100/Quanterra" lat="45.4702" lon="27.8314">
    <comp name="--.HHZ">
      <acc value="0.0252141355" flag="0"/>
      <vel value="0.0031993066" flag="0"/>
      <psa03 value="0.0111439172" flag="0"/>
      <psa10 value="0.0012665446" flag="0"/>
      <psa30 value="0.0000980736" flag="0"/>
    </comp>
    <comp name="--.HHE">
      <acc value="0.0252098195" flag="0"/>
      <vel value="0.0063463676" flag="0"/>
      <psa03 value="0.0228017265" flag="0"/>
      <psa10 value="0.0024171890" flag="0"/>
      <psa30 value="0.0002097734" flag="0"/>
    </comp>
    <comp name="--.HHN">
      <acc value="0.0278688297" flag="0"/>
      <vel value="0.0077925476" flag="0"/>
      <psa03 value="0.0306650370" flag="0"/>
      <psa10 value="0.0038899348" flag="0"/>
      <psa30 value="0.0002910302" flag="0"/>
    </comp>
  </station>
  <station code="SCTR" name="SCTR" netid="RO" insttype="MBB2/Basalt" lat="45.6741" lon="27.9949">
    <comp name="--.HHZ">
      <acc value="0.0229157989" flag="0"/>
      <vel value="0.0108039774" flag="0"/>
      <psa03 value="0.0464003958" flag="0"/>
      <psa10 value="0.0071201859" flag="0"/>
      <psa30 value="0.0004374475" flag="0"/>
    </comp>
    <comp name="--.HHE">
      <acc value="0.0304014824" flag="0"/>
      <vel value="0.0170709155" flag="0"/>
      <psa03 value="0.0439681687" flag="0"/>
      <psa10 value="0.0156074931" flag="0"/>
      <psa30 value="0.0012326593" flag="0"/>
    </comp>
    <comp name="--.HHN">
      <acc value="0.0501330234" flag="0"/>
      <vel value="0.0240026186" flag="0"/>
      <psa03 value="0.1160012789" flag="0"/>
      <psa10 value="0.0108337211" flag="0"/>
      <psa30 value="0.0008425908" flag="0"/>
    </comp>
  </station>
  <station code="SULR" name="SULR" netid="RO" insttype="330" lat="44.6777" lon="26.2526">
    <comp name="--.HHE">
      <acc value="0.0604786573" flag="0"/>
      <vel value="0.0284038711" flag="0"/>
      <psa03 value="0.1616162851" flag="0"/>
      <psa10 value="0.0111428483" flag="0"/>
      <psa30 value="0.0010268217" flag="0"/>
    </comp>
    <comp name="--.HHZ">
      <acc value="0.0342364377" flag="0"/>
      <vel value="0.0091338945" flag="0"/>
      <psa03 value="0.0339570624" flag="0"/>
      <psa10 value="0.0017362269" flag="0"/>
      <psa30 value="0.0001402087" flag="0"/>
    </comp>
    <comp name="--.HHN">
      <acc value="0.0450529706" flag="0"/>
      <vel value="0.0160041598" flag="0"/>
      <psa03 value="0.0443615989" flag="0"/>
      <psa10 value="0.0088712475" flag="0"/>
      <psa30 value="0.0007768091" flag="0"/>
    </comp>
  </station>
  <station code="TATR" name="TATR" netid="RO" insttype="MBB2/Basalt" lat="45.5977" lon="28.0498">
    <comp name="--.HHZ">
      <acc value="0.0368858881" flag="0"/>
      <vel value="0.0098742607" flag="0"/>
      <psa03 value="0.0380747587" flag="0"/>
