<?xml version="1.0" encoding="UTF-8" standalone="yes"?>
<!DOCTYPE earthquake SYSTEM "stationlist.dtd">
<stationlist created="" xmlns="ch.ethz.sed.shakemap.usgs.xml">
  <station code="BISRR" name="BISRR" netid="RO" insttype="CMG40T.1to100/Basalt" lat="45.5481" lon="26.7099">
    <comp name="--.HHE">
      <acc value="0.0408065806" flag="0"/>
      <vel value="0.0335206778" flag="0"/>
      <psa03 value="0.0950872208" flag="0"/>
      <psa10 value="0.0409274978" flag="0"/>
      <psa30 value="0.0020331421" flag="0"/>
    </comp>
    <comp name="--.HHZ">
      <acc value="0.0308316845" flag="0"/>
      <vel value="0.0174702610" flag="0"/>
      <psa03 value="0.0703409709" flag="0"/>
      <psa10 value="0.0140480870" flag="0"/>
      <psa30 value="0.0011168068" flag="0"/>
    </comp>
    <comp name="--.HHN">
      <acc value="0.0364089923" flag="0"/>
      <vel value="0.0370964375" flag="0"/>
      <psa03 value="0.0967487553" flag="0"/>
      <psa10 value="0.0395484738" flag="0"/>
      <psa30 value="0.0021987587" flag="0"/>
    </comp>
  </station>
  <station code="BOSR" name="BOSR" netid="RO" insttype="Seismometer/Basalt" lat="46.0749" lon="25.6611">
    <comp name="--.HHE">
      <acc value="0.0124770900" flag="0"/>
      <vel value="0.0040380736" flag="0"/>
      <psa03 value="0.0259509640" flag="0"/>
      <psa10 value="0.0037461784" flag="0"/>
      <psa30 value="0.0001759247" flag="0"/>
    </comp>
    <comp name="--.HHZ">
      <acc value="0.0107446110" flag="0"/>
      <vel value="0.0035581392" flag="0"/>
      <psa03 value="0.0160756794" flag="0"/>
      <psa10 value="0.0019848206" flag="0"/>
      <psa30 value="0.0001667657" flag="0"/>
    </comp>
    <comp name="--.HHN">
      <acc value="0.0122755949" flag="0"/>
      <vel value="0.0033793384" flag="0"/>
      <psa03 value="0.0179980189" flag="0"/>
      <psa10 value="0.0033421057" flag="0"/>
      <psa30 value="0.0001714873" flag="0"/>
    </comp>
  </station>
  <station code="COPR" name="COPR" netid="RO" insttype="200" lat="45.8442" lon="26.1687">
    <comp name="--.HNN">
      <acc value="0.0124338730" flag="0"/>
      <vel value="0.0075896790" flag="0"/>
      <psa03 value="0.0411441072" flag="0"/>
      <psa10 value="0.0083615895" flag="0"/>
      <psa30 value="0.0004708598" flag="0"/>
    </comp>
    <comp name="--.HNZ">
      <acc value="0.0105873704" flag="0"/>
      <vel value="0.0068236822" flag="0"/>
      <psa03 value="0.0267588269" flag="0"/>
      <psa10 value="0.0045765096" flag="0"/>
      <psa30 value="0.0003994599" flag="0"/>
    </comp>
  </station>
  <station code="DOPR" name="DOPR" netid="RO" insttype="330" lat="45.9675" lon="25.3886">
    <comp name="--.HHE">
      <acc value="0.0080809829" flag="0"/>
      <vel value="0.0037170362" flag="0"/>
      <psa03 value="0.0176111355" flag="0"/>
      <psa10 value="0.0055001936" flag="0"/>
      <psa30 value="0.0002965985" flag="0"/>
    </comp>
    <comp name="--.HHN">
      <acc value="0.0076953266" flag="0"/>
      <vel value="0.0024488950" flag="0"/>
      <psa03 value="0.0184716547" flag="0"/>
      <psa10 value="0.0014626792" flag="0"/>
      <psa30 value="0.0001109954" flag="0"/>
    </comp>
    <comp name="--.HHZ">
      <acc value="0.0091893609" flag="0"/>
      <vel value="0.0037016940" flag="0"/>
      <psa03 value="0.0168272121" flag="0"/>
      <psa10 value="0.0019444163" flag="0"/>
      <psa30 value="0.0001769526" flag="0"/>
    </comp>
  </station>
  <station code="ISR" name="ISR" netid="RO" insttype="CMG3ESP/Quanterra" lat="45.1187" lon="26.5432">
    <comp name="--.HHZ">
      <acc value="0.0071114926" flag="0"/>
      <vel value="0.0031745685" flag="0"/>
      <psa03 value="0.0212041201" flag="0"/>
      <psa10 value="0.0033817537" flag="0"/>
      <psa30 value="0.0002228693" flag="0"/>
    </comp>
    <comp name="--.HHN">
      <acc value="0.0204848042" flag="0"/>
      <vel value="0.0070845225" flag="0"/>
      <psa03 value="0.0332770198" flag="0"/>
      <psa10 value="0.0076798693" flag="0"/>
      <psa30 value="0.0004660526" flag="0"/>
    </comp>
    <comp name="--.HHE">
      <acc value="0.0158531984" flag="0"/>
      <vel value="0.0064803266" flag="0"/>
      <psa03 value="0.0395506318" flag="0"/>
      <psa10 value="0.0059082173" flag="0"/>
      <psa30 value="0.0004027242" flag="0"/>
    </comp>
  </station>
  <station code="IZVR" name="IZVR" netid="RO" insttype="CMG40T.1to100/Quanterra" lat="45.5442" lon="27.7655">
    <comp name="--.HHE">
      <acc value="0.0381118491" flag="0"/>
      <vel value="0.0129629022" flag="0"/>
      <psa03 value="0.0433427823" flag="0"/>
      <psa10 value="0.0038181036" flag="0"/>
      <psa30 value="0.0002745779" flag="0"/>
    </comp>
    <comp name="--.HHN">
      <acc value="0.0672763847" flag="0"/>
      <vel value="0.0220633033" flag="0"/>
      <psa03 value="0.0720250231" flag="0"/>
      <psa10 value="0.0089828816" flag="0"/>
      <psa30 value="0.0006280652" flag="0"/>
    </comp>
    <comp name="--.HHZ">
      <acc value="0.0260487751" flag="0"/>
      <vel value="0.0032223672" flag="0"/>
      <psa03 value="0.0139117554" flag="0"/>
      <psa10 value="0.0011611500" flag="0"/>
      <psa30 value="0.0001056038" flag="0"/>
    </comp>
  </station>
  <station code="MLR" name="MLR" netid="RO" insttype="330HR" lat="45.4909" lon="25.945">
    <comp name="--.HHE">
      <acc value="0.0106239623" flag="0"/>
      <vel value="0.0075777200" flag="0"/>
      <psa03 value="0.0285909915" flag="0"/>
      <psa10 value="0.0051010470" flag="0"/>
      <psa30 value="0.0003068585" flag="0"/>
    </comp>
    <comp name="--.HHN">
      <acc value="0.0085461574" flag="0"/>
      <vel value="0.0059703820" flag="0"/>
      <psa03 value="0.0296186583" flag="0"/>
      <psa10 value="0.0043714815" flag="0"/>
      <psa30 value="0.0004501073" flag="0"/>
    </comp>
    <comp name="--.HHZ">
      <acc value="0.0137573216" flag="0"/>
      <vel value="0.0050577118" flag="0"/>
      <psa03 value="0.0300306812" flag="0"/>
      <psa10 value="0.0035662097" flag="0"/>
      <psa30 value="0.0002532579" flag="0"/>
    </comp>
  </station>
  <station code="NEGRR" name="NEGRR" netid="RO" insttype="CMG40T.1to100/Quanterra" lat="45.5373" lon="27.8771">
    <comp name="--.HHE">
      <acc value="0.0443179006" flag="0"/>
      <vel value="0.0068939584" flag="0"/>
      <psa03 value="0.0255361047" flag="0"/>
      <psa10 value="0.0028930645" flag="0"/>
      <psa30 value="0.0002852511" flag="0"/>
    </comp>
    <comp name="--.HHZ">
      <acc value="0.0313023700" flag="0"/>
      <vel value="0.0040358459" flag="0"/>
      <psa03 value="0.0300209593" flag="0"/>
      <psa10 value="0.0012356728" flag="0"/>
      <psa30 value="0.0000974094" flag="0"/>
    </comp>
    <comp name="--.HHN">
      <acc value="0.0371865672" flag="0"/>
      <vel value="0.0071790749" flag="0"/>
      <psa03 value="0.0235837608" flag="0"/>
      <psa10 value="0.0035162432" flag="0"/>
      <psa30 value="0.0001792069" flag="0"/>
    </comp>
  </station>
  <station code="NEHR" name="NEHR" netid="RO" insttype="Seismometer/Basalt" lat="45.4272" lon="26.2952">
    <comp name="--.HHE">
      <acc value="0.0262598587" flag="0"/>
      <vel value="0.0115463563" flag="0"/>
      <psa03 value="0.0839201658" flag="0"/>
      <psa10 value="0.0073913136" flag="0"/>
      <psa30 value="0.0004565774" flag="0"/>
    </comp>
    <comp name="--.HHZ">
      <acc value="0.0168787918" flag="0"/>
      <vel value="0.0058074827" flag="0"/>
      <psa03 value="0.0326844173" flag="0"/>
      <psa10 value="0.0032025876" flag="0"/>
      <psa30 value="0.0002034280" flag="0"/>
    </comp>
    <comp name="--.HHN">
      <acc value="0.0192234595" flag="0"/>
      <vel value="0.0090793288" flag="0"/>
      <psa03 value="0.0820230517" flag="0"/>
      <psa10 value="0.0056402010" flag="0"/>
      <psa30 value="0.0003882040" flag="0"/>
    </comp>
  </station>
  <station code="ODBI" name="ODBI" netid="RO" insttype="PBB.1to100/Quanterra" lat="45.7633" lon="27.0558">
    <comp name="--.HHZ">
      <acc value="0.0304309594" flag="0"/>
      <vel value="0.0049157429" flag="0"/>
      <psa03 value="0.0438932518" flag="0"/>
      <psa10 value="0.0071159321" flag="0"/>
      <psa30 value="0.0004104046" flag="0"/>
    </comp>
    <comp name="--.HHN">
      <acc value="0.0918274214" flag="0"/>
      <vel value="0.0467727626" flag="0"/>
      <psa03 value="0.1764524815" flag="0"/>
      <psa10 value="0.0444500556" flag="0"/>
      <psa30 value="0.0029651121" flag="0"/>
    </comp>
    <comp name="--.HHE">
      <acc value="0.0935075963" flag="0"/>
      <vel value="0.0368146772" flag="0"/>
      <psa03 value="0.1754917736" flag="0"/>
      <psa10 value="0.0288087834" flag="0"/>
      <psa30 value="0.0025836877" flag="0"/>
    </comp>
  </station>
  <station code="ODSR" name="ODSR" netid="RO" insttype="CMG40T.1to100/Quanterra" lat="46.2969" lon="25.2919">
    <comp name="--.HHE">
      <acc value="0.0093289974" flag="0"/>
      <vel value="0.0042065275" flag="0"/>
      <psa03 value="0.0248586821" flag="0"/>
      <psa10 value="0.0026527849" flag="0"/>
      <psa30 value="0.0002513330" flag="0"/>
    </comp>
    <comp name="--.HHN">
      <acc value="0.0052579738" flag="0"/>
      <vel value="0.0025469075" flag="0"/>
      <psa03 value="0.0118106247" flag="0"/>
      <psa10 value="0.0017740391" flag="0"/>
      <psa30 value="0.0001632182" flag="0"/>
    </comp>
    <comp name="--.HHZ">
      <acc value="0.0073953197" flag="0"/>
      <vel value="0.0031924982" flag="0"/>
      <psa03 value="0.0160473546" flag="0"/>
      <psa10 value="0.0015659416" flag="0"/>
      <psa30 value="0.0001295455" flag="0"/>
    </comp>
  </station>
  <station code="PANC" name="PANC" netid="RO" insttype="Seismometer/Basalt" lat="45.8723" lon="27.1477">
    <comp name="--.HHE">
      <acc value="0.0305256698" flag="0"/>
      <vel value="0.0117507605" flag="0"/>
      <psa03 value="0.0606961527" flag="0"/>
      <psa10 value="0.0063495767" flag="0"/>
      <psa30 value="0.0004106717" flag="0"/>
    </comp>
    <comp name="--.HHN">
      <acc value="0.0002858557" flag="0"/>
      <vel value="0.0001027121" flag="0"/>
      <psa03 value="0.0001616853" flag="0"/>
      <psa10 value="0.0000606001" flag="0"/>
      <psa30 value="0.0000453163" flag="0"/>
    </comp>
    <comp name="--.HHZ">
      <acc value="0.0404294277" flag="0"/>
      <vel value="0.0054286741" flag="0"/>
      <psa03 value="0.0175506583" flag="0"/>
      <psa10 value="0.0027424367" flag="0"/>
      <psa30 value="0.0002256305" flag="0"/>
    </comp>
  </station>
  <station code="PGOR" name="PGOR" netid="RO" insttype="CMG40T.1to100/Quanterra" lat="44.9199" lon="26.9768">
    <comp name="--.HHE">
      <acc value="0.0285803460" flag="0"/>
      <vel value="0.0149299383" flag="0"/>
      <psa03 value="0.0589723410" flag="0"/>
      <psa10 value="0.0090596839" flag="0"/>
      <psa30 value="0.0008627471" flag="0"/>
    </comp>
    <comp name="--.HHN">
      <acc value="0.0443687636" flag="0"/>
      <vel value="0.0182656472" flag="0"/>
      <psa03 value="0.0869911470" flag="0"/>
      <psa10 value="0.0058068154" flag="0"/>
      <psa30 value="0.0004576059" flag="0"/>
    </comp>
    <comp name="--.HHZ">
      <acc value="0.0427136899" flag="0"/>
      <vel value="0.0041125448" flag="0"/>
      <psa03 value="0.0194195451" flag="0"/>
      <psa10 value="0.0017940303" flag="0"/>
      <psa30 value="0.0001571539" flag="0"/>
    </comp>
  </station>
  <station code="PLAR" name="PLAR" netid="RO" insttype="200" lat="44.9142" lon="26.0274">
    <comp name="--.HNN">
      <acc value="0.0345490911" flag="0"/>
      <vel value="0.0177469293" flag="0"/>
      <psa03 value="0.0848018612" flag="0"/>
      <psa10 value="0.0064855325" flag="0"/>
      <psa30 value="0.0005714979" flag="0"/>
    </comp>
    <comp name="--.HNZ">
      <acc value="0.0241625756" flag="0"/>
      <vel value="0.0043679964" flag="0"/>
      <psa03 value="0.0200229737" flag="0"/>
      <psa10 value="0.0018221508" flag="0"/>
      <psa30 value="0.0001912593" flag="0"/>
    </comp>
    <comp name="--.HNE">
      <acc value="0.0813313334" flag="0"/>
      <vel value="0.0340504553" flag="0"/>
      <psa03 value="0.1577258752" flag="0"/>
      <psa10 value="0.0080430911" flag="0"/>
      <psa30 value="0.0008174205" flag="0"/>
    </comp>
  </station>
  <station code="PLOR" name="PLOR" netid="RO" insttype="330" lat="45.8512" lon="26.6498">
    <comp name="--.HHZ">
      <acc value="0.0047510180" flag="0"/>
      <vel value="0.0022689799" flag="0"/>
      <psa03 value="0.0126682304" flag="0"/>
      <psa10 value="0.0020297272" flag="0"/>
      <psa30 value="0.0001098433" flag="0"/>
    </comp>
    <comp name="--.HHN">
      <acc value="0.0100425899" flag="0"/>
      <vel value="0.0066224091" flag="0"/>
      <psa03 value="0.0352291268" flag="0"/>
      <psa10 value="0.0041445521" flag="0"/>
      <psa30 value="0.0003234920" flag="0"/>
    </comp>
    <comp name="--.HHE">
      <acc value="0.0100609746" flag="0"/>
      <vel value="0.0082902813" flag="0"/>
      <psa03 value="0.0283266951" flag="0"/>
      <psa10 value="0.0056532972" flag="0"/>
      <psa30 value="0.0003996835" flag="0"/>
    </comp>
  </station>
  <station code="PLOR4" name="PLOR4" netid="RO" insttype="330" lat="45.8512" lon="26.6498">
    <comp name="--.HHE">
      <acc value="0.0100609746" flag="0"/>
      <vel value="0.0082902813" flag="0"/>
      <psa03 value="0.0283266951" flag="0"/>
      <psa10 value="0.0056532972" flag="0"/>
      <psa30 value="0.0003996835" flag="0"/>
    </comp>
    <comp name="--.HHN">
      <acc value="0.0100425899" flag="0"/>
      <vel value="0.0066224091" flag="0"/>
      <psa03 value="0.0352291268" flag="0"/>
      <psa10 value="0.0041445521" flag="0"/>
      <psa30 value="0.0003234920" flag="0"/>
    </comp>
    <comp name="--.HHZ">
      <acc value="0.0047510180" flag="0"/>
      <vel value="0.0022689799" flag="0"/>
      <psa03 value="0.0126682304" flag="0"/>
      <psa10 value="0.0020297272" flag="0"/>
      <psa30 value="0.0001098433" flag="0"/>
    </comp>
  </station>
  <station code="SAHR" name="SAHR" netid="RO" insttype="Seismometer/Basalt" lat="45.7266" lon="26.6855">
    <comp name="--.HHN">
      <acc value="0.0268592423" flag="0"/>
      <vel value="0.0156958290" flag="0"/>
      <psa03 value="0.0878068928" flag="0"/>
      <psa10 value="0.0121846411" flag="0"/>
      <psa30 value="0.0008132397" flag="0"/>
    </comp>
    <comp name="--.HHZ">
      <acc value="0.0153785203" flag="0"/>
      <vel value="0.0058263333" flag="0"/>
      <psa03 value="0.0290507995" flag="0"/>
      <psa10 value="0.0056581309" flag="0"/>
      <psa30 value="0.0004806528" flag="0"/>
    </comp>
    <comp name="--.HHE">
      <acc value="0.0249115053" flag="0"/>
      <vel value="0.0176099641" flag="0"/>
      <psa03 value="0.0832302718" flag="0"/>
      <psa10 value="0.0111617263" flag="0"/>
      <psa30 value="0.0012539327" flag="0"/>
    </comp>
  </station>
  <station code="SCHL" name="SCHL" netid="RO" insttype="CMG40T.1to100/Quanterra" lat="45.5007" lon="27.8302">
    <comp name="--.HHE">
      <acc value="0.0415368120" flag="0"/>
      <vel value="0.0184783847" flag="0"/>
      <psa03 value="0.1089857451" flag="0"/>
      <psa10 value="0.0081666319" flag="0"/>
      <psa30 value="0.0003471984" flag="0"/>
    </comp>
    <comp name="--.HHN">
      <acc value="0.0308008893" flag="0"/>
      <vel value="0.0147773713" flag="0"/>
      <psa03 value="0.0552761402" flag="0"/>
      <psa10 value="0.0116783989" flag="0"/>
      <psa30 value="0.0004775554" flag="0"/>
    </comp>
    <comp name="--.HHZ">
      <acc value="0.0382141293" flag="0"/>
      <vel value="0.0069276047" flag="0"/>
      <psa03 value="0.0370555684" flag="0"/>
      <psa10 value="0.0022953650" flag="0"/>
      <psa30 value="0.0001444963" flag="0"/>
    </comp>
  </station>
  <station code="SCHLR" name="SCHLR" netid="RO" insttype="CMG40T.1to100/Quanterra" lat="45.4702" lon="27.8314">
    <comp name="--.HHE">
      <acc value="0.0252098194" flag="0"/>
      <vel value="0.0063463668" flag="0"/>
      <psa03 value="0.0228017265" flag="0"/>
      <psa10 value="0.0024171890" flag="0"/>
      <psa30 value="0.0002097765" flag="0"/>
    </comp>
    <comp name="--.HHZ">
      <acc value="0.0252141355" flag="0"/>
      <vel value="0.0031993066" flag="0"/>
      <psa03 value="0.0111439172" flag="0"/>
      <psa10 value="0.0012665446" flag="0"/>
      <psa30 value="0.0000980731" flag="0"/>
    </comp>
    <comp name="--.HHN">
      <acc value="0.0278688297" flag="0"/>
      <vel value="0.0077925500" flag="0"/>
      <psa03 value="0.0306650370" flag="0"/>
      <psa10 value="0.0038899348" flag="0"/>
      <psa30 value="0.0002910225" flag="0"/>
    </comp>
  </station>
  <station code="SCTR" name="SCTR" netid="RO" insttype="MBB2/Basalt" lat="45.6741" lon="27.9949">
    <comp name="--.HHE">
      <acc value="0.0304014822" flag="0"/>
      <vel value="0.0170709154" flag="0"/>
      <psa03 value="0.0439681687" flag="0"/>
      <psa10 value="0.0156074932" flag="0"/>
      <psa30 value="0.0012326537" flag="0"/>
    </comp>
    <comp name="--.HHN">
      <acc value="0.0501330232" flag="0"/>
      <vel value="0.0240026191" flag="0"/>
      <psa03 value="0.1160012789" flag="0"/>
      <psa10 value="0.0108337211" flag="0"/>
      <psa30 value="0.0008426196" flag="0"/>
    </comp>
    <comp name="--.HHZ">
      <acc value="0.0229157990" flag="0"/>
      <vel value="0.0108039774" flag="0"/>
      <psa03 value="0.0464003958" flag="0"/>
      <psa10 value="0.0071201859" flag="0"/>
      <psa30 value="0.0004374586" flag="0"/>
    </comp>
  </station>
  <station code="SULR" name="SULR" netid="RO" insttype="330" lat="44.6777" lon="26.2526">
    <comp name="--.HHE">
      <acc value="0.0604786575" flag="0"/>
      <vel value="0.0284038708" flag="0"/>
      <psa03 value="0.1616162851" flag="0"/>
      <psa10 value="0.0111428483" flag="0"/>
      <psa30 value="0.0010267910" flag="0"/>
    </comp>
    <comp name="--.HHZ">
      <acc value="0.0342364378" flag="0"/>
      <vel value="0.0091338947" flag="0"/>
      <psa03 value="0.0339570624" flag="0"/>
      <psa10 value="0.0017362268" flag="0"/>
      <psa30 value="0.0001402037" flag="0"/>
    </comp>
    <comp name="--.HHN">
      <acc value="0.0450529705" flag="0"/>
      <vel value="0.0160041601" flag="0"/>
      <psa03 value="0.0443615989" flag="0"/>
      <psa10 value="0.0088712475" flag="0"/>
      <psa30 value="0.0007768383" flag="0"/>
    </comp>
  </station>
  <station code="TESR" name="TESR" netid="RO" insttype="200" lat="46.5118" lon="26.6489">
    <comp name="--.HNN">
      <acc value="0.0078148320" flag="0"/>
      <vel value="0.0037778553" flag="0"/>
      <psa03 value="0.0204556444" flag="0"/>
      <psa10 value="0.0035940885" flag="0"/>
      <psa30 value="0.0002354309" flag="0"/>
    </comp>
    <comp name="--.HNE">
      <acc value="0.0145917945" flag="0"/>
      <vel value="0.0077593556" flag="0"/>
      <psa03 value="0.0382046511" flag="0"/>
      <psa10 value="0.0042297779" flag="0"/>
      <psa30 value="0.0003002472" flag="0"/>
    </comp>
    <comp name="--.HNZ">
      <acc value="0.0090339022" flag="0"/>
      <vel value="0.0017134804" flag="0"/>
      <psa03 value="0.0088139047" flag="0"/>
      <psa10 value="0.0015933549" flag="0"/>
      <psa30 value="0.0001411697" flag="0"/>
    </comp>
  </station>
  <station code="TUDR" name="TUDR" netid="RO" insttype="CMG40T.1to100/Quanterra" lat="45.5939" lon="27.6687">
    <comp name="--.HHE">
      <acc value="0.0825551513" flag="0"/>
      <vel value="0.0253804572" flag="0"/>
      <psa03 value="0.1336982938" flag="0"/>
      <psa10 value="0.0064596710" flag="0"/>
      <psa30 value="0.0008133863" flag="0"/>
    </comp>
    <comp name="--.HHZ">
      <acc value="0.1063145783" flag="0"/>
      <vel value="0.0099429243" flag="0"/>
      <psa03 value="0.0134220656" flag="0"/>
