<?xml version="1.0" encoding="UTF-8" standalone="yes"?>
<!DOCTYPE earthquake SYSTEM "stationlist.dtd">
<stationlist created="" xmlns="ch.ethz.sed.shakemap.usgs.xml">
  <station code="APMY" name="APMY" netid="KO" insttype="CMG-6T" lat="37.4717" lon="29.3018">
    <comp name="--.HHN">
      <acc value="0.0268198646" flag="0"/>
      <vel value="0.0114380188" flag="0"/>
      <psa03 value="0.0436857589" flag="0"/>
      <psa10 value="0.0078173012" flag="0"/>
      <psa30 value="0.0012129861" flag="0"/>
    </comp>
    <comp name="--.HHE">
      <acc value="0.0261497151" flag="0"/>
      <vel value="0.0083260601" flag="0"/>
      <psa03 value="0.0429895332" flag="0"/>
      <psa10 value="0.0075745930" flag="0"/>
      <psa30 value="0.0011246191" flag="0"/>
    </comp>
    <comp name="--.HHZ">
      <acc value="0.0182624727" flag="0"/>
      <vel value="0.0061663278" flag="0"/>
      <psa03 value="0.0277781225" flag="0"/>
      <psa10 value="0.0063718333" flag="0"/>
      <psa30 value="0.0013610546" flag="0"/>
    </comp>
  </station>
  <station code="BODM" name="BODM" netid="KO" insttype="ACEBOX" lat="37.031" lon="27.4247">
    <comp name="--.HNE">
      <acc value="0.0156479911" flag="0"/>
      <vel value="0.0115644266" flag="0"/>
      <psa03 value="0.0462895814" flag="0"/>
      <psa10 value="0.0051392828" flag="0"/>
      <psa30 value="0.0006452493" flag="0"/>
    </comp>
    <comp name="--.HNZ">
      <acc value="0.0031429873" flag="0"/>
      <vel value="0.0023807638" flag="0"/>
      <psa03 value="0.0067660734" flag="0"/>
      <psa10 value="0.0042190701" flag="0"/>
      <psa30 value="0.0005977951" flag="0"/>
    </comp>
    <comp name="--.HNN">
      <acc value="0.0195252069" flag="0"/>
      <vel value="0.0138660151" flag="0"/>
      <psa03 value="0.0468486227" flag="0"/>
      <psa10 value="0.0087868588" flag="0"/>
      <psa30 value="0.0008618359" flag="0"/>
    </comp>
  </station>
  <station code="CAME" name="CAME" netid="KO" insttype="CMG-5T" lat="36.9435" lon="29.3023">
    <comp name="--.HNE">
      <acc value="0.0396622158" flag="0"/>
      <vel value="0.0131396872" flag="0"/>
      <psa03 value="0.0640263728" flag="0"/>
      <psa10 value="0.0066134133" flag="0"/>
      <psa30 value="0.0010335033" flag="0"/>
    </comp>
    <comp name="--.HNN">
      <acc value="0.0343545323" flag="0"/>
      <vel value="0.0129649792" flag="0"/>
      <psa03 value="0.0919497816" flag="0"/>
      <psa10 value="0.0088025913" flag="0"/>
      <psa30 value="0.0011073804" flag="0"/>
    </comp>
    <comp name="--.HNZ">
      <acc value="0.0198355629" flag="0"/>
      <vel value="0.0070585031" flag="0"/>
      <psa03 value="0.0343028798" flag="0"/>
      <psa10 value="0.0040579130" flag="0"/>
      <psa30 value="0.0008989776" flag="0"/>
    </comp>
  </station>
  <station code="FETY" name="FETY" netid="KO" insttype="CMG-3ESP" lat="36.6353" lon="29.0835">
    <comp name="--.HHZ">
      <acc value="0.0118841661" flag="0"/>
      <vel value="0.0067846608" flag="0"/>
      <psa03 value="0.0228337126" flag="0"/>
      <psa10 value="0.0060449253" flag="0"/>
      <psa30 value="0.0005509600" flag="0"/>
    </comp>
  </station>
  <station code="NAZL" name="NAZL" netid="KO" insttype="CMG-5T" lat="37.9641" lon="28.2922">
    <comp name="--.HNE">
      <acc value="0.0230747063" flag="0"/>
      <vel value="0.0117786822" flag="0"/>
      <psa03 value="0.0568483052" flag="0"/>
      <psa10 value="0.0117205866" flag="0"/>
      <psa30 value="0.0007391825" flag="0"/>
    </comp>
    <comp name="--.HNZ">
      <acc value="0.0152257390" flag="0"/>
      <vel value="0.0052932178" flag="0"/>
      <psa03 value="0.0372679201" flag="0"/>
      <psa10 value="0.0040593647" flag="0"/>
      <psa30 value="0.0005617534" flag="0"/>
    </comp>
    <comp name="--.HNN">
      <acc value="0.0283978668" flag="0"/>
      <vel value="0.0162335796" flag="0"/>
      <psa03 value="0.0901982102" flag="0"/>
      <psa10 value="0.0091519635" flag="0"/>
      <psa30 value="0.0007753701" flag="0"/>
    </comp>
  </station>
  <station code="YER" name="YER" netid="KO" insttype="CMG-3T" lat="37.1336" lon="28.284">
    <comp name="--.HHZ">
      <acc value="0.0357062851" flag="0"/>
      <vel value="0.0162533934" flag="0"/>
      <psa03 value="0.0879218582" flag="0"/>
      <psa10 value="0.0119535161" flag="0"/>
      <psa30 value="0.0022888813" flag="0"/>
    </comp>
    <comp name="--.HHE">
      <acc value="0.0506864244" flag="0"/>
      <vel value="0.0210781903" flag="0"/>
      <psa03 value="0.1273638087" flag="0"/>
      <psa10 value="0.0128426997" flag="0"/>
      <psa30 value="0.0015720090" flag="0"/>
    </comp>
    <comp name="--.HHN">
      <acc value="0.0540016387" flag="0"/>
      <vel value="0.0164291222" flag="0"/>
      <psa03 value="0.0884843607" flag="0"/>
      <psa10 value="0.0228846361" flag="0"/>
      <psa30 value="0.0018816009" flag="0"/>
    </comp>
  </station>
</stationlist>
