<stationlist created="1723528886">
	<station code="MMAA" name="MMAA" netid="EG" source="EUROSEISTEST Strong Motion Network" insttype="" lat="40.630855" lon="22.943725">
		<comp name=".EN1" depth="0.0">
			<acc value="0.092796664370742" flag="0"/>
			<vel value="0.0506766479845" flag="0"/>
			<psa03 value="0.272845345498527" flag="0"/>
			<psa10 value="0.0516564544867573" flag="0"/>
			<psa30 value="0.00253939780597728" flag="0"/>
		</comp>
		<comp name=".EN2" depth="0.0">
			<acc value="0.08844119932626" flag="0"/>
			<vel value="0.042021317868" flag="0"/>
			<psa03 value="0.178478177469833" flag="0"/>
			<psa10 value="0.038726554194149" flag="0"/>
			<psa30 value="0.00135683998815526" flag="0"/>
		</comp>
		<comp name=".EN3" depth="0.0">
			<acc value="0.097598301603198" flag="0"/>
			<vel value="0.0296266138067" flag="0"/>
			<psa03 value="0.18005069830825" flag="0"/>
			<psa10 value="0.0121898637686549" flag="0"/>
			<psa30 value="0.000892816957241968" flag="0"/>
		</comp>
	</station>
	<station code="STC" name="STC" netid="EG" source="EUROSEISTEST Strong Motion Network" insttype="" lat="40.64865" lon="23.304856">
		<comp name=".EN1" depth="0.0">
			<acc value="0.23970959611716" flag="0"/>
			<vel value="0.124607448401" flag="0"/>
			<psa03 value="0.945723482872146" flag="0"/>
			<psa10 value="0.126312867607411" flag="0"/>
			<psa30 value="0.00663183432649408" flag="0"/>
		</comp>
		<comp name=".EN2" depth="0.0">
			<acc value="0.36698542593642" flag="0"/>
			<vel value="0.136148502235" flag="0"/>
			<psa03 value="0.567933164453167" flag="0"/>
			<psa10 value="0.110988947472976" flag="0"/>
			<psa30 value="0.00585049381652147" flag="0"/>
		</comp>
		<comp name=".EN3" depth="0.0">
			<acc value="0.16332385433232" flag="0"/>
			<vel value="0.0655897592228" flag="0"/>
			<psa03 value="0.330801018110807" flag="0"/>
			<psa10 value="0.0621925374503946" flag="0"/>
			<psa30 value="0.00271530570900963" flag="0"/>
		</comp>
	</station>
	<station code="DRA2" name="DRA2" netid="HI" source="ITSAK Strong Motion Network" insttype="" lat="41.1593" lon="24.1485">
		<comp name=".HNE" depth="0.0">
			<acc value="0.11462142407238" flag="0"/>
			<vel value="0.0511829426678" flag="0"/>
			<psa03 value="0.294796799674301" flag="0"/>
			<psa10 value="0.0226414086322068" flag="0"/>
			<psa30 value="0.00122637780401029" flag="0"/>
		</comp>
		<comp name=".HNN" depth="0.0">
			<acc value="0.072473240931738" flag="0"/>
			<vel value="0.0244571272125" flag="0"/>
			<psa03 value="0.163065083511508" flag="0"/>
			<psa10 value="0.0130157547298796" flag="0"/>
			<psa30 value="0.000854030064882394" flag="0"/>
		</comp>
		<comp name=".HNZ" depth="0.0">
			<acc value="0.081046849922346" flag="0"/>
			<vel value="0.0265809889765" flag="0"/>
			<psa03 value="0.0849666182050144" flag="0"/>
			<psa10 value="0.00792409118216609" flag="0"/>
			<psa30 value="0.000629703225163993" flag="0"/>
		</comp>
	</station>
	<station code="LAM2" name="LAM2" netid="HI" source="ITSAK Strong Motion Network" insttype="" lat="38.90203" lon="22.431301">
		<comp name=".HNE" depth="0.0">
			<acc value="0.0057979261875162" flag="0"/>
			<vel value="0.0029285777134" flag="0"/>
			<psa03 value="0.00516787587503999" flag="0"/>
			<psa10 value="0.0039276269828882" flag="0"/>
			<psa30 value="0.000512409725877558" flag="0"/>
		</comp>
		<comp name=".HNN" depth="0.0">
			<acc value="0.0038864530071954" flag="0"/>
			<vel value="0.00301168071255" flag="0"/>
			<psa03 value="0.00394549607027051" flag="0"/>
			<psa10 value="0.00311522308699185" flag="0"/>
			<psa30 value="0.000860966357712405" flag="0"/>
		</comp>
		<comp name=".HNZ" depth="0.0">
			<acc value="0.01971942105429" flag="0"/>
			<vel value="0.00206718593098" flag="0"/>
			<psa03 value="0.00749703244890432" flag="0"/>
			<psa10 value="0.00273039767231903" flag="0"/>
			<psa30 value="0.000402466244746742" flag="0"/>
		</comp>
	</station>
	<station code="PLN1" name="PLN1" netid="HI" source="ITSAK Strong Motion Network" insttype="" lat="39.998" lon="23.575">
		<comp name=".HNE" depth="0.0">
			<acc value="0.088799259292716" flag="0"/>
			<vel value="0.0568592579616" flag="0"/>
			<psa03 value="0.250170676746447" flag="0"/>
			<psa10 value="0.0637866255508627" flag="0"/>
			<psa30 value="0.00594894575510928" flag="0"/>
		</comp>
		<comp name=".HNN" depth="0.0">
			<acc value="0.12019924247874" flag="0"/>
			<vel value="0.0825565353088" flag="0"/>
			<psa03 value="0.237517859392528" flag="0"/>
			<psa10 value="0.115246679526779" flag="0"/>
			<psa30 value="0.00622813049974196" flag="0"/>
		</comp>
		<comp name=".HNZ" depth="0.0">
			<acc value="0.096571293743994" flag="0"/>
			<vel value="0.034945448332" flag="0"/>
			<psa03 value="0.161068763764942" flag="0"/>
			<psa10 value="0.0330150533352551" flag="0"/>
			<psa30 value="0.00247395117878961" flag="0"/>
		</comp>
	</station>
	<station code="SKY1" name="SKY1" netid="HI" source="ITSAK Strong Motion Network" insttype="" lat="38.904483" lon="24.564572">
		<comp name=".HNE" depth="0.0">
			<acc value="0.0041604912160074" flag="0"/>
			<vel value="0.00228329209381" flag="0"/>
			<psa03 value="0.0123373485388018" flag="0"/>
			<psa10 value="0.00309667951481922" flag="0"/>
			<psa30 value="0.000436559909534966" flag="0"/>
		</comp>
		<comp name=".HNN" depth="0.0">
			<acc value="0.0051302823781506" flag="0"/>
			<vel value="0.00320425222676" flag="0"/>
			<psa03 value="0.0113897297741021" flag="0"/>
			<psa10 value="0.00396604288712536" flag="0"/>
			<psa30 value="0.000260476474038229" flag="0"/>
		</comp>
		<comp name=".HNZ" depth="0.0">
			<acc value="0.0062049407588148" flag="0"/>
			<vel value="0.00194250769928" flag="0"/>
			<psa03 value="0.0114273116908114" flag="0"/>
			<psa10 value="0.00165631034743202" flag="0"/>
			<psa30 value="0.000257076483180482" flag="0"/>
		</comp>
	</station>
	<station code="VOL2" name="VOL2" netid="HI" source="ITSAK Strong Motion Network" insttype="" lat="39.366" lon="22.9506">
		<comp name=".HNE" depth="0.0">
			<acc value="0.01555939101024" flag="0"/>
			<vel value="0.0126062137669" flag="0"/>
			<psa03 value="0.0501574060153443" flag="0"/>
			<psa10 value="0.0155072004009122" flag="0"/>
			<psa30 value="0.00101126594974109" flag="0"/>
		</comp>
		<comp name=".HNN" depth="0.0">
			<acc value="0.014190122070048" flag="0"/>
			<vel value="0.0117472647903" flag="0"/>
			<psa03 value="0.0569972028683927" flag="0"/>
			<psa10 value="0.0132339188696681" flag="0"/>
			<psa30 value="0.00155677562874538" flag="0"/>
		</comp>
		<comp name=".HNZ" depth="0.0">
			<acc value="0.0084625340264034" flag="0"/>
			<vel value="0.00443290567958" flag="0"/>
			<psa03 value="0.0129682158514674" flag="0"/>
			<psa10 value="0.00649729463263671" flag="0"/>
			<psa30 value="0.000982859484616218" flag="0"/>
		</comp>
	</station>
	<station code="ALNA" name="ALNA" netid="HL" source="National Observatory of Athens Seismic Network" insttype="" lat="39.14804" lon="23.86669">
		<comp name="00.HNE" depth="0.0">
			<acc value="0.0054233463234492" flag="0"/>
			<vel value="0.00598502737942" flag="0"/>
			<psa03 value="0.0150312275158816" flag="0"/>
			<psa10 value="0.00944141357232735" flag="0"/>
			<psa30 value="0.000977083476983179" flag="0"/>
		</comp>
		<comp name="00.HNN" depth="0.0">
			<acc value="0.0048659292383016" flag="0"/>
			<vel value="0.00468082283254" flag="0"/>
			<psa03 value="0.010718346756629" flag="0"/>
			<psa10 value="0.010106436689342" flag="0"/>
			<psa30 value="0.000655864072777691" flag="0"/>
		</comp>
		<comp name="00.HNZ" depth="0.0">
			<acc value="0.0058824412981278" flag="0"/>
			<vel value="0.00384400789999" flag="0"/>
			<psa03 value="0.0115821787208156" flag="0"/>
			<psa10 value="0.00551551943860637" flag="0"/>
			<psa30 value="0.000406667121992877" flag="0"/>
		</comp>
	</station>
	<station code="EFSA" name="EFSA" netid="HL" source="National Observatory of Athens Seismic Network" insttype="" lat="39.54015" lon="24.98864">
		<comp name="00.HNE" depth="0.0">
			<acc value="0.01336514874306" flag="0"/>
			<vel value="0.0131113062405" flag="0"/>
			<psa03 value="0.0176596985142081" flag="0"/>
			<psa10 value="0.0154127813336142" flag="0"/>
			<psa30 value="0.00320171355614122" flag="0"/>
		</comp>
		<comp name="00.HNN" depth="0.0">
			<acc value="0.010897706248374" flag="0"/>
			<vel value="0.00532323445903" flag="0"/>
			<psa03 value="0.0246524429991914" flag="0"/>
			<psa10 value="0.00636636595923443" flag="0"/>
			<psa30 value="0.00137380611207858" flag="0"/>
		</comp>
		<comp name="00.HNZ" depth="0.0">
			<acc value="0.0067602901516866" flag="0"/>
			<vel value="0.00504118255677" flag="0"/>
			<psa03 value="0.0232610773905643" flag="0"/>
			<psa10 value="0.00493550695312329" flag="0"/>
			<psa30 value="0.000525379230879513" flag="0"/>
		</comp>
	</station>
	<station code="GINA" name="GINA" netid="HL" source="National Observatory of Athens Seismic Network" insttype="" lat="39.66886" lon="22.389">
		<comp name="00.HNE" depth="0.0">
			<acc value="0.01352125080939" flag="0"/>
			<vel value="0.0131044295039" flag="0"/>
			<psa03 value="0.0513807162201171" flag="0"/>
			<psa10 value="0.0144921544090888" flag="0"/>
			<psa30 value="0.00190859497671503" flag="0"/>
		</comp>
		<comp name="00.HNN" depth="0.0">
			<acc value="0.020219664023664" flag="0"/>
			<vel value="0.013890640466" flag="0"/>
			<psa03 value="0.0430530161135086" flag="0"/>
			<psa10 value="0.0207151947799994" flag="0"/>
			<psa30 value="0.00386198958785619" flag="0"/>
		</comp>
		<comp name="00.HNZ" depth="0.0">
			<acc value="0.0101589809635476" flag="0"/>
			<vel value="0.00837438180288" flag="0"/>
			<psa03 value="0.0237903051576298" flag="0"/>
			<psa10 value="0.0137779608472994" flag="0"/>
			<psa30 value="0.000985750717815593" flag="0"/>
		</comp>
	</station>
	<station code="KVLA" name="KVLA" netid="HL" source="National Observatory of Athens Seismic Network" insttype="" lat="40.93704" lon="24.38591">
		<comp name="00.HNE" depth="0.0">
			<acc value="0.1747449767073" flag="0"/>
			<vel value="0.0958010291554" flag="0"/>
			<psa03 value="0.385315275245916" flag="0"/>
			<psa10 value="0.0323631326486918" flag="0"/>
			<psa30 value="0.00244266993989724" flag="0"/>
		</comp>
		<comp name="00.HNN" depth="0.0">
			<acc value="0.16122322573122" flag="0"/>
			<vel value="0.0451323051164" flag="0"/>
			<psa03 value="0.230302589749549" flag="0"/>
			<psa10 value="0.0103522851630986" flag="0"/>
			<psa30 value="0.00141785611350818" flag="0"/>
		</comp>
		<comp name="00.HNZ" depth="0.0">
			<acc value="0.088553143919484" flag="0"/>
			<vel value="0.0283783642666" flag="0"/>
			<psa03 value="0.141567294805042" flag="0"/>
			<psa10 value="0.010763346143867" flag="0"/>
			<psa30 value="0.000946079548126384" flag="0"/>
		</comp>
	</station>
	<station code="LIA" name="LIA" netid="HL" source="National Observatory of Athens Seismic Network" insttype="" lat="39.89725" lon="25.18055">
		<comp name="00.HNE" depth="0.0">
			<acc value="0.026910132394392" flag="0"/>
			<vel value="0.00561122795953" flag="0"/>
			<psa03 value="0.0389097103898431" flag="0"/>
			<psa10 value="0.00640539948252489" flag="0"/>
			<psa30 value="0.000589003549843479" flag="0"/>
		</comp>
		<comp name="00.HNN" depth="0.0">
			<acc value="0.01782920583222" flag="0"/>
			<vel value="0.00715525845953" flag="0"/>
			<psa03 value="0.023791115107094" flag="0"/>
			<psa10 value="0.00740581575521562" flag="0"/>
			<psa30 value="0.00171944953009388" flag="0"/>
		</comp>
		<comp name="00.HNZ" depth="0.0">
			<acc value="0.017475706143984" flag="0"/>
			<vel value="0.00508652705907" flag="0"/>
			<psa03 value="0.0224410803614473" flag="0"/>
			<psa10 value="0.00591765201540993" flag="0"/>
			<psa30 value="0.00083801410807378" flag="0"/>
		</comp>
	</station>
	<station code="NGRA" name="NGRA" netid="HL" source="National Observatory of Athens Seismic Network" insttype="" lat="40.90747" lon="23.49933">
		<comp name="00.HNE" depth="0.0">
			<acc value="0.1562508205596" flag="0"/>
			<vel value="0.0658736335785" flag="0"/>
			<psa03 value="0.456942770217047" flag="0"/>
			<psa10 value="0.055014558194644" flag="0"/>
			<psa30 value="0.00407734968773987" flag="0"/>
		</comp>
		<comp name="00.HNN" depth="0.0">
			<acc value="0.1511376881412" flag="0"/>
			<vel value="0.071481674906" flag="0"/>
			<psa03 value="0.362945418352644" flag="0"/>
			<psa10 value="0.0493168845014798" flag="0"/>
			<psa30 value="0.00372746442622278" flag="0"/>
		</comp>
		<comp name="00.HNZ" depth="0.0">
			<acc value="0.12051437171538" flag="0"/>
			<vel value="0.0327632858119" flag="0"/>
			<psa03 value="0.186516543305724" flag="0"/>
			<psa10 value="0.033060956376093" flag="0"/>
			<psa30 value="0.00167591977145918" flag="0"/>
		</comp>
	</station>
	<station code="NVR" name="NVR" netid="HL" source="National Observatory of Athens Seismic Network" insttype="" lat="41.34846" lon="23.86517">
		<comp name="00.HNE" depth="0.0">
			<acc value="0.41959831557036" flag="0"/>
			<vel value="0.115996690702" flag="0"/>
			<psa03 value="0.519244939096458" flag="0"/>
			<psa10 value="0.06484218547636" flag="0"/>
			<psa30 value="0.00274181600685418" flag="0"/>
		</comp>
		<comp name="00.HNN" depth="0.0">
			<acc value="0.23900177740896" flag="0"/>
			<vel value="0.0865539706286" flag="0"/>
			<psa03 value="0.433339331604097" flag="0"/>
			<psa10 value="0.0469439673072482" flag="0"/>
			<psa30 value="0.00267061608187555" flag="0"/>
		</comp>
		<comp name="00.HNZ" depth="0.0">
			<acc value="0.22739550852324" flag="0"/>
			<vel value="0.0817206447866" flag="0"/>
			<psa03 value="0.365126646181579" flag="0"/>
			<psa10 value="0.0535479335377375" flag="0"/>
			<psa30 value="0.00306752320835931" flag="0"/>
		</comp>
	</station>
	<station code="PLG" name="PLG" netid="HL" source="National Observatory of Athens Seismic Network" insttype="" lat="40.37328" lon="23.44443">
		<comp name=".HNE" depth="0.0">
			<acc value="0.30760795585722" flag="0"/>
			<vel value="0.10950038644" flag="0"/>
			<psa03 value="0.527257594895787" flag="0"/>
			<psa10 value="0.0290058146178549" flag="0"/>
			<psa30 value="0.00221830674360133" flag="0"/>
		</comp>
		<comp name=".HNN" depth="0.0">
			<acc value="0.21357232428198" flag="0"/>
			<vel value="0.0713319363516" flag="0"/>
			<psa03 value="0.377633849722496" flag="0"/>
			<psa10 value="0.0409933543583716" flag="0"/>
			<psa30 value="0.00242393869904183" flag="0"/>
		</comp>
		<comp name=".HNZ" depth="0.0">
			<acc value="0.20037986948982" flag="0"/>
			<vel value="0.0712125448858" flag="0"/>
			<psa03 value="0.536178435857311" flag="0"/>
			<psa10 value="0.0247935562014234" flag="0"/>
			<psa30 value="0.00146547343458795" flag="0"/>
		</comp>
	</station>
	<station code="PRK" name="PRK" netid="HL" source="National Observatory of Athens Seismic Network" insttype="" lat="39.24565" lon="26.26499">
		<comp name=".HNE" depth="0.0">
			<acc value="0.0040034709609162" flag="0"/>
			<vel value="0.00421443200151" flag="0"/>
			<psa03 value="0.00676599964657285" flag="0"/>
			<psa10 value="0.00992174445436636" flag="0"/>
			<psa30 value="0.000447818207425155" flag="0"/>
		</comp>
		<comp name=".HNN" depth="0.0">
			<acc value="0.0028529912092632" flag="0"/>
			<vel value="0.00355723947441" flag="0"/>
			<psa03 value="0.00485175369654934" flag="0"/>
			<psa10 value="0.0103562304244588" flag="0"/>
			<psa30 value="0.000740864234870033" flag="0"/>
		</comp>
		<comp name=".HNZ" depth="0.0">
			<acc value="0.002139451903728" flag="0"/>
			<vel value="0.00230184393993" flag="0"/>
			<psa03 value="0.00540897029691163" flag="0"/>
			<psa10 value="0.00273777909880437" flag="0"/>
			<psa30 value="0.000617476529788624" flag="0"/>
		</comp>
	</station>
	<station code="TRKA" name="TRKA" netid="HL" source="National Observatory of Athens Seismic Network" insttype="" lat="39.55381" lon="21.76624">
		<comp name="00.HNE" depth="0.0">
			<acc value="0.0063036924175896" flag="0"/>
			<vel value="0.00677999378746" flag="0"/>
			<psa03 value="0.011588782022869" flag="0"/>
			<psa10 value="0.0156739373839269" flag="0"/>
			<psa30 value="0.000935052880163801" flag="0"/>
		</comp>
		<comp name="00.HNN" depth="0.0">
			<acc value="0.0044637085545786" flag="0"/>
			<vel value="0.00605162573018" flag="0"/>
			<psa03 value="0.0111221964263306" flag="0"/>
			<psa10 value="0.0137649887379431" flag="0"/>
			<psa30 value="0.00109412904317945" flag="0"/>
		</comp>
		<comp name="00.HNZ" depth="0.0">
			<acc value="0.0097399829626512" flag="0"/>
			<vel value="0.00244862455032" flag="0"/>
			<psa03 value="0.011402484525322" flag="0"/>
			<psa10 value="0.00506492708907481" flag="0"/>
			<psa30 value="0.000452878959342379" flag="0"/>
		</comp>
	</station>
	<station code="ENZZ" name="ENZZ" netid="KO" source="Bogazici University Kandilli Observatory And Earthquake Research Institute (KOERI)" insttype="" lat="40.607" lon="26.1406">
		<comp name=".HNE" depth="0.0">
			<acc value="0.02761747272147" flag="0"/>
			<vel value="0.0148422431409" flag="0"/>
			<psa03 value="0.0551933229533444" flag="0"/>
			<psa10 value="0.0304682371211672" flag="0"/>
			<psa30 value="0.00190463658949468" flag="0"/>
		</comp>
		<comp name=".HNN" depth="0.0">
			<acc value="0.029036950775388" flag="0"/>
			<vel value="0.0137373534665" flag="0"/>
			<psa03 value="0.0450461715876446" flag="0"/>
			<psa10 value="0.0209624280329881" flag="0"/>
			<psa30 value="0.00208403284861647" flag="0"/>
		</comp>
		<comp name=".HNZ" depth="0.0">
			<acc value="0.033253285000182" flag="0"/>
			<vel value="0.00871740791659" flag="0"/>
			<psa03 value="0.0263659888048445" flag="0"/>
			<psa10 value="0.00647588165163346" flag="0"/>
			<psa30 value="0.00149603170892391" flag="0"/>
		</comp>
	</station>
	<station code="EZNE" name="EZNE" netid="KO" source="Bogazici University Kandilli Observatory And Earthquake Research Institute (KOERI)" insttype="" lat="39.756" lon="26.3655">
		<comp name=".HNE" depth="0.0">
			<acc value="0.0040817019376974" flag="0"/>
			<vel value="0.00212383909465" flag="0"/>
			<psa03 value="0.00630126703738077" flag="0"/>
			<psa10 value="0.00196518373846543" flag="0"/>
			<psa30 value="0.000337354587669146" flag="0"/>
		</comp>
		<comp name=".HNN" depth="0.0">
			<acc value="0.0052472796285132" flag="0"/>
			<vel value="0.00233458164988" flag="0"/>
			<psa03 value="0.0168633410719261" flag="0"/>
			<psa10 value="0.00192736295177262" flag="0"/>
			<psa30 value="0.000411364750895808" flag="0"/>
		</comp>
		<comp name=".HNZ" depth="0.0">
			<acc value="0.0057017546429766" flag="0"/>
			<vel value="0.00172327295104" flag="0"/>
			<psa03 value="0.00747021752149101" flag="0"/>
			<psa10 value="0.00154006459984825" flag="0"/>
			<psa30 value="0.000332966823042958" flag="0"/>
		</comp>
	</station>
	<station code="GOKC" name="GOKC" netid="KO" source="Bogazici University Kandilli Observatory And Earthquake Research Institute (KOERI)" insttype="" lat="40.1998" lon="25.9183">
		<comp name=".HNE" depth="0.0">
			<acc value="0.020129610040692" flag="0"/>
			<vel value="0.0094751290032" flag="0"/>
			<psa03 value="0.039971481247794" flag="0"/>
			<psa10 value="0.0117819183067788" flag="0"/>
			<psa30 value="0.00545793656152134" flag="0"/>
		</comp>
		<comp name=".HNN" depth="0.0">
			<acc value="0.020257063035216" flag="0"/>
			<vel value="0.0111389959458" flag="0"/>
			<psa03 value="0.0456404297044521" flag="0"/>
			<psa10 value="0.0142421094073368" flag="0"/>
			<psa30 value="0.00432573655881774" flag="0"/>
		</comp>
		<comp name=".HNZ" depth="0.0">
			<acc value="0.018229167255468" flag="0"/>
			<vel value="0.0125642773185" flag="0"/>
			<psa03 value="0.0359512774290229" flag="0"/>
			<psa10 value="0.0155103027939311" flag="0"/>
			<psa30 value="0.00727580198616325" flag="0"/>
		</comp>
	</station>
	<station code="GPNR" name="GPNR" netid="KO" source="Bogazici University Kandilli Observatory And Earthquake Research Institute (KOERI)" insttype="" lat="39.456" lon="26.1331">
		<comp name=".HNE" depth="0.0">
