<?xml version="1.0" encoding="UTF-8" standalone="yes"?>
<!DOCTYPE earthquake SYSTEM "stationlist.dtd">
<stationlist created="" xmlns="ch.ethz.sed.shakemap.usgs.xml">
  <station code="GADA" name="GADA" netid="KO" insttype="CMG-3T" lat="40.1908" lon="25.8987">
    <comp name="--.HHN">
      <acc value="0.0048255411" flag="0"/>
      <vel value="0.0033936521" flag="0"/>
      <psa03 value="0.0092694099" flag="0"/>
      <psa10 value="0.0021476985" flag="0"/>
      <psa30 value="0.0002991944" flag="0"/>
    </comp>
    <comp name="--.HHE">
      <acc value="0.0032289019" flag="0"/>
      <vel value="0.0020334338" flag="0"/>
      <psa03 value="0.0086517740" flag="0"/>
      <psa10 value="0.0036981644" flag="0"/>
      <psa30 value="0.0003276992" flag="0"/>
    </comp>
    <comp name="--.HHZ">
      <acc value="0.0052231971" flag="0"/>
      <vel value="0.0024640761" flag="0"/>
      <psa03 value="0.0060409320" flag="0"/>
      <psa10 value="0.0047585649" flag="0"/>
      <psa30 value="0.0002344929" flag="0"/>
    </comp>
  </station>
</stationlist>
