<?xml version="1.0" encoding="UTF-8" standalone="yes"?>
<!DOCTYPE earthquake SYSTEM "stationlist.dtd">
<stationlist created="" xmlns="ch.ethz.sed.shakemap.usgs.xml">
  <station code="AKDM" name="AKDM" netid="KO" insttype="30s," lat="38.3285" lon="42.98">
    <comp name="--.HHN">
      <acc value="0.0120847678" flag="0"/>
      <vel value="0.0061330005" flag="0"/>
      <psa03 value="0.0197501084" flag="0"/>
      <psa10 value="0.0071341251" flag="0"/>
      <psa30 value="0.0011106189" flag="0"/>
    </comp>
    <comp name="--.HHE">
      <acc value="0.0081295592" flag="0"/>
      <vel value="0.0065164747" flag="0"/>
      <psa03 value="0.0194387335" flag="0"/>
      <psa10 value="0.0090551395" flag="0"/>
      <psa30 value="0.0007304805" flag="0"/>
    </comp>
    <comp name="--.HHZ">
      <acc value="0.0067092644" flag="0"/>
      <vel value="0.0028086936" flag="0"/>
      <psa03 value="0.0131454479" flag="0"/>
      <psa10 value="0.0028885989" flag="0"/>
      <psa30 value="0.0008298602" flag="0"/>
    </comp>
  </station>
  <station code="VANB" name="VANB" netid="KO" insttype="360s," lat="38.509" lon="43.4058">
    <comp name="--.HHZ">
      <acc value="0.0130489770" flag="0"/>
      <vel value="0.0118176814" flag="0"/>
      <psa03 value="0.0314433108" flag="0"/>
      <psa10 value="0.0208960595" flag="0"/>
      <psa30 value="0.0036913668" flag="0"/>
    </comp>
    <comp name="--.HHN">
      <acc value="0.0158653878" flag="0"/>
      <vel value="0.0141488348" flag="0"/>
      <psa03 value="0.0341108831" flag="0"/>
      <psa10 value="0.0426789563" flag="0"/>
      <psa30 value="0.0020412287" flag="0"/>
    </comp>
    <comp name="--.HHE">
      <acc value="0.0216968978" flag="0"/>
      <vel value="0.0207791865" flag="0"/>
      <psa03 value="0.0862118287" flag="0"/>
      <psa10 value="0.0326791314" flag="0"/>
      <psa30 value="0.0053565764" flag="0"/>
    </comp>
  </station>
</stationlist>
