<stationlist xmlns:esm="https://esm-db.eu/esmws/shakemap/1/" created="1781229293">
	<station code="ARK1" name="ARK1" netid="HI" source="ITSAK Strong Motion Network" insttype="" lat="35.148777" lon="25.264194" esm:processing="automatic (Paolucci et al 2011)" esm:quality="best">
		<comp name="--.HNE" depth="0.0">
			<acc value="0.0267458852655273" flag="0"/>
			<vel value="0.0200144436255847" flag="0"/>
			<psa03 value="0.0642438547984212" flag="0"/>
			<psa10 value="0.0239526623713285" flag="0"/>
			<psa30 value="0.00296671257181468" flag="0"/>
		</comp>
		<comp name="--.HNN" depth="0.0">
			<acc value="0.0365951947314234" flag="0"/>
			<vel value="0.0233560667399274" flag="0"/>
			<psa03 value="0.0668194420851053" flag="0"/>
			<psa10 value="0.0226009584525777" flag="0"/>
			<psa30 value="0.00281016470128655" flag="0"/>
		</comp>
		<comp name="--.HNZ" depth="0.0">
			<acc value="0.017639999369269" flag="0"/>
			<vel value="0.0114218982994983" flag="0"/>
			<psa03 value="0.0297308002487719" flag="0"/>
			<psa10 value="0.0198556022112002" flag="0"/>
			<psa30 value="0.002018066603675" flag="0"/>
		</comp>
	</station>
	<station code="CH01" name="CH01" netid="HI" source="ITSAK Strong Motion Network" insttype="" lat="35.517" lon="24.0208" esm:processing="automatic (Paolucci et al 2011)" esm:quality="best">
		<comp name="--.HNE" depth="0.0">
			<acc value="0.110774114049652" flag="0"/>
			<vel value="0.0899383399030893" flag="0"/>
			<psa03 value="0.196952713817363" flag="0"/>
			<psa10 value="0.108818281177076" flag="0"/>
			<psa30 value="0.00682021888936285" flag="0"/>
		</comp>
		<comp name="--.HNN" depth="0.0">
			<acc value="0.0824698463827324" flag="0"/>
			<vel value="0.0557768529554075" flag="0"/>
			<psa03 value="0.256206430751975" flag="0"/>
			<psa10 value="0.0830128591945156" flag="0"/>
			<psa30 value="0.0064082482649975" flag="0"/>
		</comp>
		<comp name="--.HNZ" depth="0.0">
			<acc value="0.0594122335577552" flag="0"/>
			<vel value="0.0463815262564198" flag="0"/>
			<psa03 value="0.128579153154529" flag="0"/>
			<psa10 value="0.0582544540716842" flag="0"/>
			<psa30 value="0.00417232806292411" flag="0"/>
		</comp>
	</station>
	<station code="CH02" name="CH02" netid="HI" source="ITSAK Strong Motion Network" insttype="" lat="35.5145" lon="24.0315" esm:processing="automatic (Paolucci et al 2011)" esm:quality="best">
		<comp name="--.HNE" depth="0.0">
			<acc value="0.0732502312767411" flag="0"/>
			<vel value="0.0590470976433316" flag="0"/>
			<psa03 value="0.248301552925947" flag="0"/>
			<psa10 value="0.0664811040468707" flag="0"/>
			<psa30 value="0.00591908211014045" flag="0"/>
		</comp>
		<comp name="--.HNN" depth="0.0">
			<acc value="0.0765945649351245" flag="0"/>
			<vel value="0.0624009655753929" flag="0"/>
			<psa03 value="0.255928078979202" flag="0"/>
			<psa10 value="0.11213698852515" flag="0"/>
			<psa30 value="0.00565532672097369" flag="0"/>
		</comp>
		<comp name="--.HNZ" depth="0.0">
			<acc value="0.0503120101576082" flag="0"/>
			<vel value="0.0382764967117847" flag="0"/>
			<psa03 value="0.123849162732544" flag="0"/>
			<psa10 value="0.045742571470867" flag="0"/>
			<psa30 value="0.0039738353304214" flag="0"/>
		</comp>
	</station>
	<station code="CH03" name="CH03" netid="HI" source="ITSAK Strong Motion Network" insttype="" lat="35.53303" lon="24.0705" esm:processing="automatic (Paolucci et al 2011)" esm:quality="best">
		<comp name="--.HNE" depth="0.0">
			<acc value="0.0434610814238214" flag="0"/>
			<vel value="0.0348422120772331" flag="0"/>
			<psa03 value="0.109700235852244" flag="0"/>
			<psa10 value="0.0554130745942386" flag="0"/>
			<psa30 value="0.00358584837818996" flag="0"/>
		</comp>
		<comp name="--.HNN" depth="0.0">
			<acc value="0.0463917914126036" flag="0"/>
			<vel value="0.044086522740071" flag="0"/>
			<psa03 value="0.139114298972903" flag="0"/>
			<psa10 value="0.0753008183096557" flag="0"/>
			<psa30 value="0.00470821231262567" flag="0"/>
		</comp>
		<comp name="--.HNZ" depth="0.0">
			<acc value="0.0372534930670136" flag="0"/>
			<vel value="0.0277532292356352" flag="0"/>
			<psa03 value="0.0745898630873615" flag="0"/>
			<psa10 value="0.0287846530919996" flag="0"/>
			<psa30 value="0.00238568116466884" flag="0"/>
		</comp>
	</station>
	<station code="GOR1" name="GOR1" netid="HI" source="ITSAK Strong Motion Network" insttype="" lat="35.0582" lon="24.9628" esm:processing="automatic (Paolucci et al 2011)" esm:quality="best">
		<comp name="--.HNE" depth="0.0">
			<acc value="0.0380754741180823" flag="0"/>
			<vel value="0.0256060018723622" flag="0"/>
			<psa03 value="0.0923375960792375" flag="0"/>
			<psa10 value="0.0411486896487419" flag="0"/>
			<psa30 value="0.00513909627324006" flag="0"/>
		</comp>
		<comp name="--.HNN" depth="0.0">
			<acc value="0.0291638957799479" flag="0"/>
			<vel value="0.0183223757212887" flag="0"/>
			<psa03 value="0.0718448583276012" flag="0"/>
			<psa10 value="0.0291064037814037" flag="0"/>
			<psa30 value="0.0042946082467195" flag="0"/>
		</comp>
		<comp name="--.HNZ" depth="0.0">
			<acc value="0.0304400774296694" flag="0"/>
			<vel value="0.0199850478515511" flag="0"/>
			<psa03 value="0.071393510719704" flag="0"/>
			<psa10 value="0.0219325760505238" flag="0"/>
			<psa30 value="0.00282342016272915" flag="0"/>
		</comp>
	</station>
	<station code="HER1" name="HER1" netid="HI" source="ITSAK Strong Motion Network" insttype="" lat="35.317672" lon="25.10217" esm:processing="manual (Paolucci et al 2011)" esm:quality="good">
		<comp name="--.HNE" depth="0.0">
			<acc value="0.0698117840437584" flag="0"/>
			<vel value="0.0940292326575925" flag="0"/>
			<psa03 value="0.146250469625853" flag="0"/>
			<psa10 value="0.144143063770557" flag="0"/>
			<psa30 value="0.0106046591732919" flag="0"/>
		</comp>
		<comp name="--.HNN" depth="0.0">
			<acc value="0.0835897058873671" flag="0"/>
			<vel value="0.0937412301652537" flag="0"/>
			<psa03 value="0.111892485244674" flag="0"/>
			<psa10 value="0.181844956335908" flag="0"/>
			<psa30 value="0.0080569078972736" flag="0"/>
		</comp>
		<comp name="--.HNZ" depth="0.0">
			<acc value="0.0593085178729424" flag="0"/>
			<vel value="0.0515087863187827" flag="0"/>
			<psa03 value="0.101325795670015" flag="0"/>
			<psa10 value="0.0958036665227271" flag="0"/>
			<psa30 value="0.0031107183614915" flag="0"/>
		</comp>
	</station>
	<station code="HER2" name="HER2" netid="HI" source="ITSAK Strong Motion Network" insttype="" lat="35.337866" lon="25.135624" esm:processing="manual (Paolucci et al 2011)" esm:quality="good">
		<comp name="--.HNE" depth="0.0">
			<acc value="0.0683415785065231" flag="0"/>
			<vel value="0.0403454738510026" flag="0"/>
			<psa03 value="0.161130507438664" flag="0"/>
			<psa10 value="0.0510257939584281" flag="0"/>
			<psa30 value="0.00230272004390174" flag="0"/>
		</comp>
		<comp name="--.HNN" depth="0.0">
			<acc value="0.049986362628977" flag="0"/>
			<vel value="0.0585330292752728" flag="0"/>
			<psa03 value="0.137011201319671" flag="0"/>
			<psa10 value="0.0574604589734057" flag="0"/>
			<psa30 value="0.00479265623995476" flag="0"/>
		</comp>
		<comp name="--.HNZ" depth="0.0">
			<acc value="0.0458589115843247" flag="0"/>
			<vel value="0.0229932036041407" flag="0"/>
			<psa03 value="0.107782546314724" flag="0"/>
			<psa10 value="0.0223899432238544" flag="0"/>
			<psa30 value="0.00164499126426473" flag="0"/>
		</comp>
	</station>
	<station code="HER3" name="HER3" netid="HI" source="ITSAK Strong Motion Network" insttype="" lat="35.3296" lon="25.1065" esm:processing="manual (Paolucci et al 2011)" esm:quality="good">
		<comp name="--.HNE" depth="0.0">
			<acc value="0.0919866706424515" flag="0"/>
			<vel value="0.0664549651938568" flag="0"/>
			<psa03 value="0.170956835468004" flag="0"/>
			<psa10 value="0.124990087479876" flag="0"/>
			<psa30 value="0.00705407646461283" flag="0"/>
		</comp>
		<comp name="--.HNN" depth="0.0">
			<acc value="0.113280068911378" flag="0"/>
			<vel value="0.103664948297855" flag="0"/>
			<psa03 value="0.393553487653763" flag="0"/>
			<psa10 value="0.133701172046477" flag="0"/>
			<psa30 value="0.00973981271479183" flag="0"/>
		</comp>
		<comp name="--.HNZ" depth="0.0">
			<acc value="0.0622114774241197" flag="0"/>
			<vel value="0.0501933183478829" flag="0"/>
			<psa03 value="0.116854178515836" flag="0"/>
			<psa10 value="0.0419110626522119" flag="0"/>
			<psa30 value="0.00273302542452138" flag="0"/>
		</comp>
	</station>
	<station code="KIS1" name="KIS1" netid="HI" source="ITSAK Strong Motion Network" insttype="" lat="35.493933" lon="23.658993" esm:processing="automatic (Paolucci et al 2011)" esm:quality="best">
		<comp name="--.HNE" depth="0.0">
			<acc value="0.0454674017190278" flag="0"/>
			<vel value="0.0430371552712607" flag="0"/>
			<psa03 value="0.181397516695228" flag="0"/>
			<psa10 value="0.0416483765005435" flag="0"/>
			<psa30 value="0.00237331242863412" flag="0"/>
		</comp>
		<comp name="--.HNN" depth="0.0">
			<acc value="0.0554916731876925" flag="0"/>
			<vel value="0.0333710777881028" flag="0"/>
			<psa03 value="0.177403189590661" flag="0"/>
			<psa10 value="0.0299788484515814" flag="0"/>
			<psa30 value="0.00177528385384268" flag="0"/>
		</comp>
		<comp name="--.HNZ" depth="0.0">
			<acc value="0.0264397515072696" flag="0"/>
			<vel value="0.017187142274277" flag="0"/>
			<psa03 value="0.0983371081007982" flag="0"/>
			<psa10 value="0.020474138186173" flag="0"/>
			<psa30 value="0.00125718494899959" flag="0"/>
		</comp>
	</station>
	<station code="RTH1" name="RTH1" netid="HI" source="ITSAK Strong Motion Network" insttype="" lat="35.365393" lon="24.471773" esm:processing="manual (Paolucci et al 2011)" esm:quality="good">
		<comp name="--.HNE" depth="0.0">
			<acc value="0.380137949508783" flag="0"/>
			<vel value="0.166320129527646" flag="0"/>
			<psa03 value="1.17713264592739" flag="0"/>
			<psa10 value="0.0558940964595764" flag="0"/>
			<psa30 value="0.00675270983388591" flag="0"/>
		</comp>
		<comp name="--.HNN" depth="0.0">
			<acc value="0.44918955754558" flag="0"/>
			<vel value="0.216161377749897" flag="0"/>
			<psa03 value="1.64973061989044" flag="0"/>
			<psa10 value="0.0685651921074766" flag="0"/>
			<psa30 value="0.00679234954315544" flag="0"/>
		</comp>
		<comp name="--.HNZ" depth="0.0">
			<acc value="0.127554030173157" flag="0"/>
			<vel value="0.0484935015827825" flag="0"/>
			<psa03 value="0.213239480235707" flag="0"/>
			<psa10 value="0.0294498684092496" flag="0"/>
			<psa30 value="0.00450582890571821" flag="0"/>
		</comp>
	</station>
	<station code="SFIR" name="SFIR" netid="HI" source="ITSAK Strong Motion Network" insttype="" lat="36.421468" lon="25.428495" esm:processing="manual (Paolucci et al 2011)" esm:quality="good">
		<comp name="--.HNE" depth="0.0">
			<acc value="0.00935516227254324" flag="0"/>
			<vel value="0.00977907153820627" flag="0"/>
			<psa03 value="0.0243953582602585" flag="0"/>
			<psa10 value="0.0159250118288778" flag="0"/>
			<psa30 value="0.00203430684617803" flag="0"/>
		</comp>
		<comp name="--.HNN" depth="0.0">
			<acc value="0.00593870490642652" flag="0"/>
			<vel value="0.00635141984297918" flag="0"/>
			<psa03 value="0.0227277998760329" flag="0"/>
			<psa10 value="0.0107547261978291" flag="0"/>
			<psa30 value="0.00102137964055518" flag="0"/>
		</comp>
		<comp name="--.HNZ" depth="0.0">
			<acc value="0.00490338411083717" flag="0"/>
			<vel value="0.00419584908991829" flag="0"/>
			<psa03 value="0.0169926712539915" flag="0"/>
			<psa10 value="0.0041712260107519" flag="0"/>
			<psa30 value="0.000620248432164609" flag="0"/>
		</comp>
	</station>
</stationlist>
