<?xml version="1.0" encoding="UTF-8" standalone="yes"?>
<!DOCTYPE earthquake SYSTEM "stationlist.dtd">
<stationlist created="" xmlns="ch.ethz.sed.shakemap.usgs.xml">
  <station code="GVD" name="GVD" netid="GE" source="GFZ" insttype="STS-2/N" lat="34.8391" lon="24.0874">
    <comp name="--.HHE">
      <acc value="0.1772419225" flag="0"/>
      <vel value="0.0618920832" flag="0"/>
      <psa03 value="0.3208838797" flag="0"/>
      <psa10 value="0.0380292228" flag="0"/>
      <psa30 value="0.0036321032" flag="0"/>
    </comp>
    <comp name="--.HHN">
      <acc value="0.1807768419" flag="0"/>
      <vel value="0.0627849139" flag="0"/>
      <psa03 value="0.4522679229" flag="0"/>
      <psa10 value="0.0592519314" flag="0"/>
      <psa30 value="0.0032345541" flag="0"/>
    </comp>
    <comp name="--.HHZ">
      <acc value="0.1446269529" flag="0"/>
      <vel value="0.0350705322" flag="0"/>
      <psa03 value="0.2121370557" flag="0"/>
      <psa10 value="0.0228312822" flag="0"/>
      <psa30 value="0.0013041822" flag="0"/>
    </comp>
  </station>
  <station code="CHAN" name="CHAN" netid="HC" source="NOA" insttype="120" lat="35.5193" lon="24.0428">
    <comp name="--.HHE">
      <acc value="0.1148377720" flag="0"/>
      <vel value="0.0993437677" flag="0"/>
      <psa03 value="0.2939654194" flag="0"/>
      <psa10 value="0.1062327773" flag="0"/>
      <psa30 value="0.0076909198" flag="0"/>
    </comp>
    <comp name="--.HHN">
      <acc value="0.1421059116" flag="0"/>
      <vel value="0.1094342267" flag="0"/>
      <psa03 value="0.3978633200" flag="0"/>
      <psa10 value="0.2045751882" flag="0"/>
      <psa30 value="0.0113957458" flag="0"/>
    </comp>
    <comp name="--.HHZ">
      <acc value="0.0908409637" flag="0"/>
      <vel value="0.0785471521" flag="0"/>
      <psa03 value="0.1858376115" flag="0"/>
      <psa10 value="0.1038318110" flag="0"/>
      <psa30 value="0.0058090216" flag="0"/>
    </comp>
  </station>
  <station code="PRNS" name="PRNS" netid="HC" source="NOA" insttype="120" lat="35.3445" lon="24.4266">
    <comp name="--.HHE">
      <acc value="0.3922243629" flag="0"/>
      <vel value="0.1719822340" flag="0"/>
      <psa03 value="0.9705686115" flag="0"/>
      <psa10 value="0.0755936130" flag="0"/>
      <psa30 value="0.0106343765" flag="0"/>
    </comp>
    <comp name="--.HHN">
      <acc value="0.0000000000" flag="0"/>
      <vel value="-100.0000000000" flag="0"/>
      <psa03 value="0.0000000000" flag="0"/>
      <psa10 value="0.0000000000" flag="0"/>
      <psa30 value="0.0000000000" flag="0"/>
    </comp>
    <comp name="--.HHZ">
      <acc value="0.2082757983" flag="0"/>
      <vel value="0.1247615531" flag="0"/>
      <psa03 value="0.4479339153" flag="0"/>
      <psa10 value="0.0757228167" flag="0"/>
      <psa30 value="0.0113604841" flag="0"/>
    </comp>
  </station>
  <station code="TMBK" name="TMBK" netid="HC" source="NOA" insttype="120" lat="35.0724" lon="24.7662">
    <comp name="--.HHE">
      <acc value="0.4698171752" flag="0"/>
      <vel value="0.1705678342" flag="0"/>
      <psa03 value="0.5053059112" flag="0"/>
      <psa10 value="0.2137990456" flag="0"/>
      <psa30 value="0.0111542201" flag="0"/>
    </comp>
    <comp name="--.HHN">
      <acc value="0.0000000000" flag="0"/>
      <vel value="-100.0000000000" flag="0"/>
      <psa03 value="0.0000000000" flag="0"/>
      <psa10 value="0.0000000000" flag="0"/>
      <psa30 value="0.0000000000" flag="0"/>
    </comp>
    <comp name="--.HHZ">
      <acc value="0.3745430754" flag="0"/>
      <vel value="0.0630121763" flag="0"/>
      <psa03 value="0.1756823739" flag="0"/>
      <psa10 value="0.1086652892" flag="0"/>
      <psa30 value="0.0130751859" flag="0"/>
    </comp>
  </station>
  <station code="CH01" name="CH01" netid="HI" source="NOA" insttype="CMG-5TD,ACCELEROMETER,GURALP" lat="35.517" lon="24.0208">
    <comp name="--.HNE">
      <acc value="0.1107004704" flag="0"/>
      <vel value="0.0897656899" flag="0"/>
      <psa03 value="0.1952681452" flag="0"/>
      <psa10 value="0.1084677976" flag="0"/>
      <psa30 value="0.0060145791" flag="0"/>
    </comp>
    <comp name="--.HNN">
      <acc value="0.0823696790" flag="0"/>
      <vel value="0.0553439306" flag="0"/>
      <psa03 value="0.2530519864" flag="0"/>
      <psa10 value="0.0828720633" flag="0"/>
      <psa30 value="0.0062531294" flag="0"/>
    </comp>
    <comp name="--.HNZ">
      <acc value="0.0594236645" flag="0"/>
      <vel value="0.0464792313" flag="0"/>
      <psa03 value="0.1283568774" flag="0"/>
      <psa10 value="0.0581021888" flag="0"/>
      <psa30 value="0.0041223118" flag="0"/>
    </comp>
  </station>
  <station code="ANKY" name="ANKY" netid="HL" source="NOA" insttype="60" lat="35.867" lon="23.3012">
    <comp name="--.HHE">
      <acc value="0.0095420397" flag="0"/>
      <vel value="0.0081621974" flag="0"/>
      <psa03 value="0.0343546556" flag="0"/>
      <psa10 value="0.0148477534" flag="0"/>
      <psa30 value="0.0007422586" flag="0"/>
    </comp>
    <comp name="--.HHN">
      <acc value="0.0100772369" flag="0"/>
      <vel value="0.0060176542" flag="0"/>
      <psa03 value="0.0360437883" flag="0"/>
      <psa10 value="0.0122874531" flag="0"/>
      <psa30 value="0.0005159897" flag="0"/>
    </comp>
    <comp name="--.HHZ">
      <acc value="0.0093668872" flag="0"/>
      <vel value="0.0044112250" flag="0"/>
      <psa03 value="0.0212249097" flag="0"/>
      <psa10 value="0.0037076729" flag="0"/>
      <psa30 value="0.0005171574" flag="0"/>
    </comp>
  </station>
  <station code="GVD" name="GVD" netid="HL" source="NOA" insttype="120" lat="34.8391" lon="24.0874">
    <comp name="--.HHE">
      <acc value="0.1746565771" flag="0"/>
      <vel value="0.0602401690" flag="0"/>
      <psa03 value="0.3118572825" flag="0"/>
      <psa10 value="0.0376301409" flag="0"/>
      <psa30 value="0.0036079501" flag="0"/>
    </comp>
    <comp name="--.HHN">
      <acc value="0.1765514941" flag="0"/>
      <vel value="0.0621804698" flag="0"/>
      <psa03 value="0.4389175886" flag="0"/>
      <psa10 value="0.0586995601" flag="0"/>
      <psa30 value="0.0032191343" flag="0"/>
    </comp>
    <comp name="--.HHZ">
      <acc value="0.1461122889" flag="0"/>
      <vel value="0.0340733899" flag="0"/>
      <psa03 value="0.2057442759" flag="0"/>
      <psa10 value="0.0226752000" flag="0"/>
      <psa30 value="0.0012893617" flag="0"/>
    </comp>
  </station>
  <station code="IACM" name="IACM" netid="HL" source="NOA" insttype="120" lat="35.3058" lon="25.0709">
    <comp name="--.HHE">
      <acc value="0.0000000000" flag="0"/>
      <vel value="-100.0000000000" flag="0"/>
      <psa03 value="0.0000000000" flag="0"/>
      <psa10 value="0.0000000000" flag="0"/>
      <psa30 value="0.0000000000" flag="0"/>
    </comp>
    <comp name="--.HHN">
      <acc value="0.1270298290" flag="0"/>
      <vel value="0.1239696711" flag="0"/>
      <psa03 value="0.5123693535" flag="0"/>
      <psa10 value="0.1473213447" flag="0"/>
      <psa30 value="0.0078593676" flag="0"/>
    </comp>
    <comp name="--.HHZ">
      <acc value="0.0828807108" flag="0"/>
      <vel value="0.0599558037" flag="0"/>
      <psa03 value="0.2476755374" flag="0"/>
      <psa10 value="0.0946178434" flag="0"/>
      <psa30 value="0.0041020861" flag="0"/>
    </comp>
  </station>
  <station code="IDI" name="IDI" netid="HL" source="NOA" insttype="120" lat="35.288" lon="24.89">
    <comp name="--.HHE">
      <acc value="0.0429316149" flag="0"/>
      <vel value="0.0224417524" flag="0"/>
      <psa03 value="0.0779132166" flag="0"/>
      <psa10 value="0.0184520637" flag="0"/>
      <psa30 value="0.0012569603" flag="0"/>
    </comp>
    <comp name="--.HHN">
      <acc value="0.0501403305" flag="0"/>
      <vel value="0.0355577324" flag="0"/>
      <psa03 value="0.1676492575" flag="0"/>
      <psa10 value="0.0200844458" flag="0"/>
      <psa30 value="0.0031165146" flag="0"/>
    </comp>
    <comp name="--.HHZ">
      <acc value="0.0273915774" flag="0"/>
      <vel value="0.0173249639" flag="0"/>
      <psa03 value="0.1237393356" flag="0"/>
      <psa10 value="0.0205634051" flag="0"/>
      <psa30 value="0.0023862519" flag="0"/>
    </comp>
  </station>
  <station code="IDI" name="IDI" netid="MN" source="INGV" insttype="" lat="35.288" lon="24.89">
    <comp name="--.HHE">
      <acc value="0.0431502511" flag="0"/>
      <vel value="0.0224846186" flag="0"/>
      <psa03 value="0.0793190991" flag="0"/>
      <psa10 value="0.0183333840" flag="0"/>
      <psa30 value="0.0012514684" flag="0"/>
    </comp>
    <comp name="--.HHN">
      <acc value="0.0508098339" flag="0"/>
      <vel value="0.0356535010" flag="0"/>
      <psa03 value="0.1696679392" flag="0"/>
      <psa10 value="0.0199721202" flag="0"/>
      <psa30 value="0.0030861092" flag="0"/>
    </comp>
    <comp name="--.HHZ">
      <acc value="0.0279435799" flag="0"/>
      <vel value="0.0174219919" flag="0"/>
      <psa03 value="0.1255186014" flag="0"/>
      <psa10 value="0.0204371842" flag="0"/>
      <psa30 value="0.0023618081" flag="0"/>
    </comp>
  </station>
</stationlist>
