<stationlist xmlns:esm="https://esm-db.eu/esmws/shakemap/1/" created="1781661251">
	<station code="ARG2" name="ARG2" netid="HI" source="ITSAK Strong Motion Network" insttype="" lat="38.1783" lon="20.4878" esm:processing="manual (Paolucci et al 2011)" esm:quality="good">
		<comp name="--.HNE" depth="0.0">
			<acc value="0.106111636384883" flag="0"/>
			<vel value="0.043496384840718" flag="0"/>
			<psa03 value="0.184158922440807" flag="0"/>
			<psa10 value="0.0170655724483412" flag="0"/>
			<psa30 value="0.00132168478350375" flag="0"/>
		</comp>
		<comp name="--.HNN" depth="0.0">
			<acc value="0.0846753215807003" flag="0"/>
			<vel value="0.0331039426382034" flag="0"/>
			<psa03 value="0.210512082138969" flag="0"/>
			<psa10 value="0.015414585024127" flag="0"/>
			<psa30 value="0.00139595684649008" flag="0"/>
		</comp>
		<comp name="--.HNZ" depth="0.0">
			<acc value="0.0637890569593062" flag="0"/>
			<vel value="0.0198503350757771" flag="0"/>
			<psa03 value="0.10742603809047" flag="0"/>
			<psa10 value="0.00823882992668856" flag="0"/>
			<psa30 value="0.000657263015222412" flag="0"/>
		</comp>
	</station>
	<station code="ART2" name="ART2" netid="HI" source="ITSAK Strong Motion Network" insttype="" lat="39.1474" lon="20.9937" esm:processing="manual (Paolucci et al 2011)" esm:quality="bad">
		<comp name="--.HNE" depth="0.0">
			<acc value="0.00337760156968478" flag="0"/>
			<vel value="0.00193712183265375" flag="0"/>
			<psa03 value="0.00895347398307202" flag="0"/>
			<psa10 value="0.003872113696028" flag="0"/>
			<psa30 value="0.000210623106392742" flag="0"/>
		</comp>
		<comp name="--.HNN" depth="0.0">
			<acc value="0.00233913968132613" flag="0"/>
			<vel value="0.00216393643124438" flag="0"/>
			<psa03 value="0.00673566560581869" flag="0"/>
			<psa10 value="0.00235693785431646" flag="0"/>
			<psa30 value="0.000151868003218018" flag="0"/>
		</comp>
		<comp name="--.HNZ" depth="0.0">
			<acc value="0.00252576463440468" flag="0"/>
			<vel value="0.00196890944390589" flag="0"/>
			<psa03 value="0.00801369818589892" flag="0"/>
			<psa10 value="0.00112307471068891" flag="0"/>
			<psa30 value="0.000167503114488281" flag="0"/>
		</comp>
	</station>
</stationlist>
