<?xml version="1.0" encoding="UTF-8" standalone="yes"?>
<!DOCTYPE earthquake SYSTEM "stationlist.dtd">
<stationlist created="" xmlns="ch.ethz.sed.shakemap.usgs.xml">
  <station code="SNT1" name="SNT1" netid="HA" insttype="30" lat="36.4159" lon="25.4282">
    <comp name="--.HHZ">
      <acc value="0.1158047453" flag="0"/>
      <vel value="0.0286902522" flag="0"/>
      <psa03 value="0.1256839113" flag="0"/>
      <psa10 value="0.0090095838" flag="0"/>
      <psa30 value="0.0007988403" flag="0"/>
    </comp>
    <comp name="--.HHN">
      <acc value="0.1080657942" flag="0"/>
      <vel value="0.0417325176" flag="0"/>
      <psa03 value="0.1672914355" flag="0"/>
      <psa10 value="0.0186042835" flag="0"/>
      <psa30 value="0.0023518597" flag="0"/>
    </comp>
    <comp name="--.HHE">
      <acc value="0.1764972072" flag="0"/>
      <vel value="0.0501659490" flag="0"/>
      <psa03 value="0.1381906027" flag="0"/>
      <psa10 value="0.0172903685" flag="0"/>
      <psa30 value="0.0018874236" flag="0"/>
    </comp>
  </station>
</stationlist>
