<stationlist created="1778135990">
	<station code="BLY" name="BLY" netid="MN" source="Mediterranean Very Broadband Seismographic Network (MedNet)" insttype="" lat="44.7488" lon="17.1839">
		<comp name="--.HNE" depth="1.0">
			<acc value="0.0105587216088005" flag="0"/>
			<vel value="0.00538348860161959" flag="0"/>
			<psa03 value="0.0239100057955472" flag="0"/>
			<psa10 value="0.00809762830312263" flag="0"/>
			<psa30 value="0.000449253250405637" flag="0"/>
		</comp>
		<comp name="--.HNN" depth="1.0">
			<acc value="0.0102578212482662" flag="0"/>
			<vel value="0.00474863820356071" flag="0"/>
			<psa03 value="0.020677910174667" flag="0"/>
			<psa10 value="0.00450163461744609" flag="0"/>
			<psa30 value="0.000199664320531552" flag="0"/>
		</comp>
		<comp name="--.HNZ" depth="1.0">
			<acc value="0.00665036931351096" flag="0"/>
			<vel value="0.00279317688489056" flag="0"/>
			<psa03 value="0.0164127005420894" flag="0"/>
			<psa10 value="0.00202274430938465" flag="0"/>
			<psa30 value="0.000318693637931281" flag="0"/>
		</comp>
	</station>
	<station code="BOJS" name="BOJS" netid="SL" source="Seismic Network of the Republic of Slovenia (SNRS)" insttype="" lat="45.5043" lon="15.2518">
		<comp name="--.HNE" depth="0.0">
			<acc value="0.0349375379470776" flag="0"/>
			<vel value="0.00586688405604543" flag="0"/>
			<psa03 value="0.0316774822857364" flag="0"/>
			<psa10 value="0.00188454174276161" flag="0"/>
			<psa30 value="0.000167335852752336" flag="0"/>
		</comp>
		<comp name="--.HNN" depth="0.0">
			<acc value="0.0340192567297463" flag="0"/>
			<vel value="0.00912100610720844" flag="0"/>
			<psa03 value="0.046263441643293" flag="0"/>
			<psa10 value="0.00274224984363388" flag="0"/>
			<psa30 value="0.000270242927974361" flag="0"/>
		</comp>
		<comp name="--.HNZ" depth="0.0">
			<acc value="0.0263925971645291" flag="0"/>
			<vel value="0.00470864612287152" flag="0"/>
			<psa03 value="0.0292166609217315" flag="0"/>
			<psa10 value="0.00183622015961387" flag="0"/>
			<psa30 value="0.000212972903502974" flag="0"/>
		</comp>
	</station>
	<station code="CADS" name="CADS" netid="SL" source="Seismic Network of the Republic of Slovenia (SNRS)" insttype="" lat="46.2281" lon="13.7368">
		<comp name="--.HNE" depth="0.0">
			<acc value="0.00478504283228101" flag="0"/>
			<vel value="0.00211885994977871" flag="0"/>
			<psa03 value="0.016513980688935" flag="0"/>
			<psa10 value="0.00105061006650917" flag="0"/>
			<psa30 value="9.07448785902595e-05" flag="0"/>
		</comp>
		<comp name="--.HNN" depth="0.0">
			<acc value="0.00469882891178593" flag="0"/>
			<vel value="0.0018768012914893" flag="0"/>
			<psa03 value="0.0110416585390039" flag="0"/>
			<psa10 value="0.00093379053091442" flag="0"/>
			<psa30 value="7.24520131317719e-05" flag="0"/>
		</comp>
		<comp name="--.HNZ" depth="0.0">
			<acc value="0.00324460930258793" flag="0"/>
			<vel value="0.00116435643828243" flag="0"/>
			<psa03 value="0.0101660705876791" flag="0"/>
			<psa10 value="0.000970278690265207" flag="0"/>
			<psa30 value="5.67889507911718e-05" flag="0"/>
		</comp>
	</station>
	<station code="CEY" name="CEY" netid="SL" source="Seismic Network of the Republic of Slovenia (SNRS)" insttype="" lat="45.7381" lon="14.4221">
		<comp name="--.HNE" depth="0.0">
			<acc value="0.0117566990366458" flag="0"/>
			<vel value="0.00403436529211115" flag="0"/>
			<psa03 value="0.0186151928005956" flag="0"/>
			<psa10 value="0.00195761983895876" flag="0"/>
			<psa30 value="0.000172937823469519" flag="0"/>
		</comp>
		<comp name="--.HNN" depth="0.0">
			<acc value="0.00967551035208454" flag="0"/>
			<vel value="0.00393879582591654" flag="0"/>
			<psa03 value="0.0165835100344856" flag="0"/>
			<psa10 value="0.00329097683918745" flag="0"/>
			<psa30 value="0.000186735417180112" flag="0"/>
		</comp>
		<comp name="--.HNZ" depth="0.0">
			<acc value="0.00550672897983365" flag="0"/>
			<vel value="0.00288623053572065" flag="0"/>
			<psa03 value="0.0118109985665289" flag="0"/>
			<psa10 value="0.00180835186475053" flag="0"/>
			<psa30 value="0.000136010038643347" flag="0"/>
		</comp>
	</station>
	<station code="CRES" name="CRES" netid="SL" source="Seismic Network of the Republic of Slovenia (SNRS)" insttype="" lat="45.826" lon="15.4569">
		<comp name="--.HNE" depth="0.0">
			<acc value="0.0788641904945452" flag="0"/>
			<vel value="0.0213287975336332" flag="0"/>
			<psa03 value="0.0841153484423509" flag="0"/>
			<psa10 value="0.00713548711148198" flag="0"/>
			<psa30 value="0.000494848805198085" flag="0"/>
		</comp>
		<comp name="--.HNN" depth="0.0">
			<acc value="0.0706241405236577" flag="0"/>
			<vel value="0.0167927632423234" flag="0"/>
			<psa03 value="0.0611625964471775" flag="0"/>
			<psa10 value="0.00576234879036722" flag="0"/>
			<psa30 value="0.000345409835093058" flag="0"/>
		</comp>
		<comp name="--.HNZ" depth="0.0">
			<acc value="0.0635348915299733" flag="0"/>
			<vel value="0.0167561618262964" flag="0"/>
			<psa03 value="0.0562409537191676" flag="0"/>
			<psa10 value="0.00216641764445672" flag="0"/>
			<psa30 value="0.000280533635496564" flag="0"/>
		</comp>
	</station>
	<station code="CRNS" name="CRNS" netid="SL" source="Seismic Network of the Republic of Slovenia (SNRS)" insttype="" lat="46.0807" lon="14.2613">
		<comp name="--.HNE" depth="0.0">
			<acc value="0.0194118355789784" flag="0"/>
			<vel value="0.00641783349697408" flag="0"/>
			<psa03 value="0.039983703411634" flag="0"/>
			<psa10 value="0.00211967557435476" flag="0"/>
			<psa30 value="0.000167851705289345" flag="0"/>
		</comp>
		<comp name="--.HNN" depth="0.0">
			<acc value="0.0142706286441865" flag="0"/>
			<vel value="0.00520885841214194" flag="0"/>
			<psa03 value="0.0232909335350222" flag="0"/>
			<psa10 value="0.00168837415118856" flag="0"/>
			<psa30 value="0.000131455895807805" flag="0"/>
		</comp>
		<comp name="--.HNZ" depth="0.0">
			<acc value="0.00805917247895694" flag="0"/>
			<vel value="0.00427568813439819" flag="0"/>
			<psa03 value="0.0161472675938969" flag="0"/>
			<psa10 value="0.00197716964965951" flag="0"/>
			<psa30 value="0.000116583465269798" flag="0"/>
		</comp>
	</station>
	<station code="DOBS" name="DOBS" netid="SL" source="Seismic Network of the Republic of Slovenia (SNRS)" insttype="" lat="46.1495" lon="15.4695">
		<comp name="--.HNE" depth="0.0">
			<acc value="0.069973051154456" flag="0"/>
			<vel value="0.0210011172922286" flag="0"/>
			<psa03 value="0.124650392893278" flag="0"/>
			<psa10 value="0.00502971788164477" flag="0"/>
			<psa30 value="0.00066397539136178" flag="0"/>
		</comp>
		<comp name="--.HNN" depth="0.0">
			<acc value="0.0997104082421452" flag="0"/>
			<vel value="0.0252320588110455" flag="0"/>
			<psa03 value="0.0901553786013118" flag="0"/>
			<psa10 value="0.0032856885201144" flag="0"/>
			<psa30 value="0.000317339173204545" flag="0"/>
		</comp>
		<comp name="--.HNZ" depth="0.0">
			<acc value="0.0360412142170499" flag="0"/>
			<vel value="0.00745260831216009" flag="0"/>
			<psa03 value="0.0446779805302751" flag="0"/>
			<psa10 value="0.00291731521094113" flag="0"/>
			<psa30 value="0.000179559251690152" flag="0"/>
		</comp>
	</station>
	<station code="GBAS" name="GBAS" netid="SL" source="Seismic Network of the Republic of Slovenia (SNRS)" insttype="" lat="45.9348" lon="14.4434">
		<comp name="--.HNE" depth="0.0">
			<acc value="0.00602566155936695" flag="0"/>
			<vel value="0.00181041490658488" flag="0"/>
			<psa03 value="0.0118721757963175" flag="0"/>
			<psa10 value="0.00140079150649912" flag="0"/>
			<psa30 value="7.37917307878332e-05" flag="0"/>
		</comp>
		<comp name="--.HNN" depth="0.0">
			<acc value="0.00607927311737217" flag="0"/>
			<vel value="0.00181514216910931" flag="0"/>
			<psa03 value="0.0115101583248134" flag="0"/>
			<psa10 value="0.00179321258059484" flag="0"/>
			<psa30 value="7.73841888226395e-05" flag="0"/>
		</comp>
		<comp name="--.HNZ" depth="0.0">
			<acc value="0.00553989318433349" flag="0"/>
			<vel value="0.00215039014635965" flag="0"/>
			<psa03 value="0.0107648830425569" flag="0"/>
			<psa10 value="0.00122431348757127" flag="0"/>
			<psa30 value="6.15886893236063e-05" flag="0"/>
		</comp>
	</station>
	<station code="GORS" name="GORS" netid="SL" source="Seismic Network of the Republic of Slovenia (SNRS)" insttype="" lat="46.3174" lon="13.9999">
		<comp name="--.HNE" depth="0.0">
			<acc value="0.00337654148508648" flag="0"/>
			<vel value="0.00117908330024305" flag="0"/>
			<psa03 value="0.00764133172155801" flag="0"/>
			<psa10 value="0.000787367002949229" flag="0"/>
			<psa30 value="0.000106006885717193" flag="0"/>
		</comp>
		<comp name="--.HNN" depth="0.0">
			<acc value="0.00340771612966423" flag="0"/>
			<vel value="0.00112327700301357" flag="0"/>
			<psa03 value="0.00788857987136149" flag="0"/>
			<psa10 value="0.00114888755347456" flag="0"/>
			<psa30 value="8.78284288796531e-05" flag="0"/>
		</comp>
		<comp name="--.HNZ" depth="0.0">
			<acc value="0.00234290325229699" flag="0"/>
			<vel value="0.00114707024886764" flag="0"/>
			<psa03 value="0.00696072022813564" flag="0"/>
			<psa10 value="0.00106929251506881" flag="0"/>
			<psa30 value="0.00014284946307569" flag="0"/>
		</comp>
	</station>
	<station code="JAVS" name="JAVS" netid="SL" source="Seismic Network of the Republic of Slovenia (SNRS)" insttype="" lat="45.8934" lon="14.0643">
		<comp name="--.HNE" depth="0.0">
			<acc value="0.00662605658545198" flag="0"/>
			<vel value="0.00288661597529275" flag="0"/>
			<psa03 value="0.0093698029951304" flag="0"/>
			<psa10 value="0.00248392032878286" flag="0"/>
			<psa30 value="8.98856875586127e-05" flag="0"/>
		</comp>
		<comp name="--.HNN" depth="0.0">
			<acc value="0.0051776059091738" flag="0"/>
			<vel value="0.00178420588924996" flag="0"/>
			<psa03 value="0.0112632448326216" flag="0"/>
			<psa10 value="0.00212888993476159" flag="0"/>
			<psa30 value="9.62731159025927e-05" flag="0"/>
		</comp>
		<comp name="--.HNZ" depth="0.0">
			<acc value="0.00361907495774229" flag="0"/>
			<vel value="0.00138851046320134" flag="0"/>
			<psa03 value="0.00789858704470159" flag="0"/>
			<psa10 value="0.00142921885842204" flag="0"/>
			<psa30 value="6.45652602043473e-05" flag="0"/>
		</comp>
	</station>
	<station code="KOGS" name="KOGS" netid="SL" source="Seismic Network of the Republic of Slovenia (SNRS)" insttype="" lat="46.4481" lon="16.2504">
		<comp name="--.HNE" depth="0.0">
			<acc value="0.100999607502571" flag="0"/>
			<vel value="0.0222730692209482" flag="0"/>
			<psa03 value="0.064536191872789" flag="0"/>
			<psa10 value="0.00623328183058312" flag="0"/>
			<psa30 value="0.000596867820812514" flag="0"/>
		</comp>
		<comp name="--.HNN" depth="0.0">
			<acc value="0.0790837336107528" flag="0"/>
			<vel value="0.021924249473464" flag="0"/>
			<psa03 value="0.0773958875141608" flag="0"/>
			<psa10 value="0.00444986290656323" flag="0"/>
			<psa30 value="0.000401524255261335" flag="0"/>
		</comp>
		<comp name="--.HNZ" depth="0.0">
			<acc value="0.0469709611408174" flag="0"/>
			<vel value="0.012512723629196" flag="0"/>
			<psa03 value="0.0616873989874607" flag="0"/>
			<psa10 value="0.00396019953128402" flag="0"/>
			<psa30 value="0.000266831504402747" flag="0"/>
		</comp>
	</station>
	<station code="LEGS" name="LEGS" netid="SL" source="Seismic Network of the Republic of Slovenia (SNRS)" insttype="" lat="45.9488" lon="15.3177">
		<comp name="--.HNE" depth="0.0">
			<acc value="0.0465648927694377" flag="0"/>
			<vel value="0.0162933814602822" flag="0"/>
			<psa03 value="0.0883713437510734" flag="0"/>
			<psa10 value="0.00997316223554497" flag="0"/>
			<psa30 value="0.000569342091121295" flag="0"/>
		</comp>
		<comp name="--.HNN" depth="0.0">
			<acc value="0.0289056957134415" flag="0"/>
			<vel value="0.0101942478932792" flag="0"/>
			<psa03 value="0.0499106136250488" flag="0"/>
			<psa10 value="0.00672803335545904" flag="0"/>
			<psa30 value="0.000277848484223476" flag="0"/>
		</comp>
		<comp name="--.HNZ" depth="0.0">
			<acc value="0.0216768863471047" flag="0"/>
			<vel value="0.00822158940442099" flag="0"/>
			<psa03 value="0.0404082263258665" flag="0"/>
			<psa10 value="0.00360616060919023" flag="0"/>
			<psa30 value="0.00020132812866729" flag="0"/>
		</comp>
	</station>
	<station code="LJU" name="LJU" netid="SL" source="Seismic Network of the Republic of Slovenia (SNRS)" insttype="" lat="46.0438" lon="14.5278">
		<comp name="--.HNE" depth="0.0">
			<acc value="0.0132225344112752" flag="0"/>
			<vel value="0.00454759523693081" flag="0"/>
			<psa03 value="0.0238240782282756" flag="0"/>
			<psa10 value="0.00287421477762295" flag="0"/>
			<psa30 value="0.000171771925922003" flag="0"/>
		</comp>
		<comp name="--.HNN" depth="0.0">
			<acc value="0.0128878629975647" flag="0"/>
			<vel value="0.0045307897877698" flag="0"/>
			<psa03 value="0.0204339864638343" flag="0"/>
			<psa10 value="0.00254387859759903" flag="0"/>
			<psa30 value="0.000175014197998541" flag="0"/>
		</comp>
		<comp name="--.HNZ" depth="0.0">
			<acc value="0.00786800515664376" flag="0"/>
			<vel value="0.00221523424127479" flag="0"/>
			<psa03 value="0.011569340630793" flag="0"/>
			<psa10 value="0.00143749413318338" flag="0"/>
			<psa30 value="0.000190272852038471" flag="0"/>
		</comp>
	</station>
	<station code="MOZS" name="MOZS" netid="SL" source="Seismic Network of the Republic of Slovenia (SNRS)" insttype="" lat="46.2941" lon="14.4433">
		<comp name="--.HNE" depth="0.0">
			<acc value="0.00748291840440773" flag="0"/>
			<vel value="0.00323629325150492" flag="0"/>
			<psa03 value="0.0242493850485629" flag="0"/>
			<psa10 value="0.00199679024630514" flag="0"/>
			<psa30 value="0.000185607126290359" flag="0"/>
		</comp>
		<comp name="--.HNN" depth="0.0">
			<acc value="0.00652274650832882" flag="0"/>
			<vel value="0.00205104224892628" flag="0"/>
			<psa03 value="0.0129859527035457" flag="0"/>
			<psa10 value="0.00197788477516029" flag="0"/>
			<psa30 value="0.000227558746524976" flag="0"/>
		</comp>
		<comp name="--.HNZ" depth="0.0">
			<acc value="0.00342917205513538" flag="0"/>
			<vel value="0.00137172739679079" flag="0"/>
			<psa03 value="0.00870354010849164" flag="0"/>
			<psa10 value="0.00102072644624164" flag="0"/>
			<psa30 value="0.000200964979610347" flag="0"/>
		</comp>
	</station>
	<station code="PERS" name="PERS" netid="SL" source="Seismic Network of the Republic of Slovenia (SNRS)" insttype="" lat="46.6365" lon="15.1139">
		<comp name="--.HNE" depth="0.0">
			<acc value="0.011016493626992" flag="0"/>
			<vel value="0.00430561205389737" flag="0"/>
			<psa03 value="0.0390701611230736" flag="0"/>
			<psa10 value="0.00233497897777237" flag="0"/>
			<psa30 value="0.000130279815294238" flag="0"/>
		</comp>
		<comp name="--.HNN" depth="0.0">
			<acc value="0.0106678797509278" flag="0"/>
			<vel value="0.00523097909882466" flag="0"/>
			<psa03 value="0.0391372905700832" flag="0"/>
			<psa10 value="0.00205779460004166" flag="0"/>
			<psa30 value="0.000165804225903748" flag="0"/>
		</comp>
		<comp name="--.HNZ" depth="0.0">
			<acc value="0.00592996919047435" flag="0"/>
			<vel value="0.0024002466253761" flag="0"/>
			<psa03 value="0.0192917415248805" flag="0"/>
			<psa10 value="0.0017678059365914" flag="0"/>
			<psa30 value="8.61814838399822e-05" flag="0"/>
		</comp>
	</station>
	<station code="SKDS" name="SKDS" netid="SL" source="Seismic Network of the Republic of Slovenia (SNRS)" insttype="" lat="45.5464" lon="14.0143">
		<comp name="--.HNE" depth="0.0">
			<acc value="0.00509046661174474" flag="0"/>
			<vel value="0.0018026502448664" flag="0"/>
			<psa03 value="0.01133103187526" flag="0"/>
			<psa10 value="0.000989208420830006" flag="0"/>
			<psa30 value="7.07365479283627e-05" flag="0"/>
		</comp>
		<comp name="--.HNN" depth="0.0">
			<acc value="0.00647641435154957" flag="0"/>
			<vel value="0.00248602935029319" flag="0"/>
			<psa03 value="0.0136095864641604" flag="0"/>
			<psa10 value="0.00179278962288894" flag="0"/>
			<psa30 value="0.000132854868691545" flag="0"/>
		</comp>
		<comp name="--.HNZ" depth="0.0">
			<acc value="0.00651743597216652" flag="0"/>
			<vel value="0.00197084270295895" flag="0"/>
			<psa03 value="0.0154858644041774" flag="0"/>
			<psa10 value="0.00165090541906887" flag="0"/>
			<psa30 value="0.000102775818810425" flag="0"/>
		</comp>
	</station>
	<station code="VISS" name="VISS" netid="SL" source="Seismic Network of the Republic of Slovenia (SNRS)" insttype="" lat="45.8033" lon="14.8393">
		<comp name="--.HNE" depth="0.0">
			<acc value="0.0209198486165542" flag="0"/>
			<vel value="0.00612090314118116" flag="0"/>
			<psa03 value="0.0254399404795188" flag="0"/>
			<psa10 value="0.00153276907749224" flag="0"/>
			<psa30 value="0.000151897432250956" flag="0"/>
		</comp>
		<comp name="--.HNN" depth="0.0">
			<acc value="0.0154680326797542" flag="0"/>
			<vel value="0.00440045589598359" flag="0"/>
			<psa03 value="0.0172108354458886" flag="0"/>
			<psa10 value="0.00243616677471606" flag="0"/>
			<psa30 value="0.000127892456622809" flag="0"/>
		</comp>
		<comp name="--.HNZ" depth="0.0">
			<acc value="0.0155132370446776" flag="0"/>
			<vel value="0.00405010773818775" flag="0"/>
			<psa03 value="0.0167454152911715" flag="0"/>
			<psa10 value="0.00228120510301614" flag="0"/>
			<psa30 value="0.00017746975129165" flag="0"/>
		</comp>
	</station>
	<station code="VNDS" name="VNDS" netid="SL" source="Seismic Network of the Republic of Slovenia (SNRS)" insttype="" lat="46.1016" lon="14.7014">
		<comp name="--.HNE" depth="0.0">
			<acc value="0.0160496158590325" flag="0"/>
			<vel value="0.00383006353122989" flag="0"/>
			<psa03 value="0.0226838516521858" flag="0"/>
			<psa10 value="0.00313907677655469" flag="0"/>
			<psa30 value="0.000185005016091232" flag="0"/>
		</comp>
		<comp name="--.HNN" depth="0.0">
			<acc value="0.0127407333399746" flag="0"/>
			<vel value="0.00317133448291553" flag="0"/>
			<psa03 value="0.0186298226759949" flag="0"/>
			<psa10 value="0.0016503765168436" flag="0"/>
			<psa30 value="0.000193136166718806" flag="0"/>
		</comp>
		<comp name="--.HNZ" depth="0.0">
			<acc value="0.00715912687656262" flag="0"/>
			<vel value="0.00223013121356838" flag="0"/>
			<psa03 value="0.00938083953353695" flag="0"/>
			<psa10 value="0.00137206647860807" flag="0"/>
			<psa30 value="0.000156646926569459" flag="0"/>
		</comp>
	</station>
	<station code="VOJS" name="VOJS" netid="SL" source="Seismic Network of the Republic of Slovenia (SNRS)" insttype="" lat="46.0322" lon="13.8877">
		<comp name="--.HNE" depth="0.0">
			<acc value="0.00506898063825977" flag="0"/>
			<vel value="0.00155242473869626" flag="0"/>
			<psa03 value="0.0104233493499224" flag="0"/>
			<psa10 value="0.000997661246411113" flag="0"/>
			<psa30 value="8.0692663201403e-05" flag="0"/>
		</comp>
		<comp name="--.HNN" depth="0.0">
			<acc value="0.00466796475301899" flag="0"/>
			<vel value="0.00227862985875917" flag="0"/>
			<psa03 value="0.00702368012810534" flag="0"/>
			<psa10 value="0.00177490386773356" flag="0"/>
			<psa30 value="9.36820197759222e-05" flag="0"/>
		</comp>
		<comp name="--.HNZ" depth="0.0">
			<acc value="0.00237003055743649" flag="0"/>
			<vel value="0.00110812933568071" flag="0"/>
			<psa03 value="0.0065315856803052" flag="0"/>
			<psa10 value="0.00101384192767748" flag="0"/>
			<psa30 value="8.54104627116487e-05" flag="0"/>
		</comp>
	</station>
	<station code="ZAVS" name="ZAVS" netid="SL" source="Seismic Network of the Republic of Slovenia (SNRS)" insttype="" lat="46.4342" lon="15.0246">
		<comp name="--.HNE" depth="0.0">
			<acc value="0.0253029245435869" flag="0"/>
			<vel value="0.00639203702280677" flag="0"/>
			<psa03 value="0.0337006127085352" flag="0"/>
			<psa10 value="0.00228880779415957" flag="0"/>
			<psa30 value="0.000183171418061612" flag="0"/>
		</comp>
		<comp name="--.HNN" depth="0.0">
			<acc value="0.0265193137555145" flag="0"/>
			<vel value="0.0102833285560574" flag="0"/>
			<psa03 value="0.0486800946091889" flag="0"/>
			<psa10 value="0.00371130655897178" flag="0"/>
			<psa30 value="0.000213723389896702" flag="0"/>
