<?xml version="1.0" encoding="UTF-8" standalone="yes"?>
<!DOCTYPE earthquake SYSTEM "stationlist.dtd">
<stationlist created="" xmlns="ch.ethz.sed.shakemap.usgs.xml">
  <station code="BLY" name="BLY" netid="MN" insttype="" lat="44.7488" lon="17.1839">
    <comp name="--.HHZ">
      <acc value="0.0067427304" flag="0"/>
      <vel value="0.0027625888" flag="0"/>
      <psa03 value="0.0166161647" flag="0"/>
      <psa10 value="0.0019689487" flag="0"/>
      <psa30 value="0.0002886242" flag="0"/>
    </comp>
    <comp name="--.HHE">
      <acc value="0.0112987113" flag="0"/>
      <vel value="0.0053306496" flag="0"/>
      <psa03 value="0.0250207672" flag="0"/>
      <psa10 value="0.0079277445" flag="0"/>
      <psa30 value="0.0004330870" flag="0"/>
    </comp>
    <comp name="--.HHN">
      <acc value="0.0098080096" flag="0"/>
      <vel value="0.0047365210" flag="0"/>
      <psa03 value="0.0210632705" flag="0"/>
      <psa10 value="0.0045259196" flag="0"/>
      <psa30 value="0.0001899680" flag="0"/>
    </comp>
  </station>
</stationlist>
