<?xml version="1.0" encoding="UTF-8" standalone="yes"?>
<!DOCTYPE earthquake SYSTEM "stationlist.dtd">
<stationlist created="" xmlns="ch.ethz.sed.shakemap.usgs.xml">
  <station code="DAT" name="DAT" netid="KO" insttype="CMG-3T" lat="36.7308" lon="27.5767">
    <comp name="--.HHZ">
      <acc value="0.0000311638" flag="0"/>
      <vel value="0.0000031190" flag="0"/>
      <psa03 value="0.0000105454" flag="0"/>
      <psa10 value="0.0000027385" flag="0"/>
      <psa30 value="0.0000005884" flag="0"/>
    </comp>
    <comp name="--.HHN">
      <acc value="0.0559844943" flag="0"/>
      <vel value="0.0200302635" flag="0"/>
      <psa03 value="0.1526970248" flag="0"/>
      <psa10 value="0.0117525847" flag="0"/>
      <psa30 value="0.0005908347" flag="0"/>
    </comp>
    <comp name="--.HHE">
      <acc value="0.0571410974" flag="0"/>
      <vel value="0.0164585765" flag="0"/>
      <psa03 value="0.0691166480" flag="0"/>
      <psa10 value="0.0128218012" flag="0"/>
      <psa30 value="0.0010123854" flag="0"/>
    </comp>
  </station>
</stationlist>
