<?xml version="1.0" encoding="UTF-8" standalone="yes"?>
<!DOCTYPE earthquake SYSTEM "stationlist.dtd">
<stationlist created="" xmlns="ch.ethz.sed.shakemap.usgs.xml">
  <station code="APEC" name="APEC" netid="IV" insttype="" lat="43.5585" lon="12.4199">
    <comp name="--.HHE">
      <acc value="0.0087333127" flag="0"/>
      <vel value="0.0051097159" flag="0"/>
      <psa03 value="0.0269034823" flag="0"/>
      <psa10 value="0.0052838889" flag="0"/>
      <psa30 value="0.0002260409" flag="0"/>
    </comp>
    <comp name="--.HHN">
      <acc value="0.0117163644" flag="0"/>
      <vel value="0.0075062847" flag="0"/>
      <psa03 value="0.0344769748" flag="0"/>
      <psa10 value="0.0057297738" flag="0"/>
      <psa30 value="0.0004210124" flag="0"/>
    </comp>
    <comp name="--.HHZ">
      <acc value="0.0082155271" flag="0"/>
      <vel value="0.0047767129" flag="0"/>
      <psa03 value="0.0243178733" flag="0"/>
      <psa10 value="0.0024656811" flag="0"/>
      <psa30 value="0.0001952212" flag="0"/>
    </comp>
  </station>
  <station code="ASSB" name="ASSB" netid="IV" insttype="" lat="43.0426" lon="12.6587">
    <comp name="--.HHE">
      <acc value="0.0104435099" flag="0"/>
      <vel value="0.0050453932" flag="0"/>
      <psa03 value="0.0402611363" flag="0"/>
      <psa10 value="0.0037450699" flag="0"/>
      <psa30 value="0.0005018436" flag="0"/>
    </comp>
    <comp name="--.HHN">
      <acc value="0.0098886795" flag="0"/>
      <vel value="0.0045221164" flag="0"/>
      <psa03 value="0.0405706256" flag="0"/>
      <psa10 value="0.0027676248" flag="0"/>
      <psa30 value="0.0004919779" flag="0"/>
    </comp>
    <comp name="--.HHZ">
      <acc value="0.0045141003" flag="0"/>
      <vel value="0.0023072351" flag="0"/>
      <psa03 value="0.0132559380" flag="0"/>
      <psa10 value="0.0018839500" flag="0"/>
      <psa30 value="0.0003419827" flag="0"/>
    </comp>
  </station>
  <station code="ATBU" name="ATBU" netid="IV" insttype="" lat="43.4757" lon="12.5483">
    <comp name="--.HNE">
      <acc value="0.0110109787" flag="0"/>
      <vel value="0.0075888200" flag="0"/>
      <psa03 value="0.0471174225" flag="0"/>
      <psa10 value="0.0090099187" flag="0"/>
      <psa30 value="0.0006213430" flag="0"/>
    </comp>
    <comp name="--.HNN">
      <acc value="0.0135678361" flag="0"/>
      <vel value="0.0085721951" flag="0"/>
      <psa03 value="0.0424151723" flag="0"/>
      <psa10 value="0.0139177644" flag="0"/>
      <psa30 value="0.0007000427" flag="0"/>
    </comp>
    <comp name="--.HNZ">
      <acc value="0.0049117830" flag="0"/>
      <vel value="0.0033156496" flag="0"/>
      <psa03 value="0.0097235530" flag="0"/>
      <psa10 value="0.0037078774" flag="0"/>
      <psa30 value="0.0005821204" flag="0"/>
    </comp>
  </station>
  <station code="ATFO" name="ATFO" netid="IV" insttype="" lat="43.3666" lon="12.5715">
    <comp name="--.HHE">
      <acc value="0.0079614941" flag="0"/>
      <vel value="0.0050359864" flag="0"/>
      <psa03 value="0.0187952081" flag="0"/>
      <psa10 value="0.0071268967" flag="0"/>
      <psa30 value="0.0005336270" flag="0"/>
    </comp>
    <comp name="--.HHN">
      <acc value="0.0058055914" flag="0"/>
      <vel value="0.0031917296" flag="0"/>
      <psa03 value="0.0197120841" flag="0"/>
      <psa10 value="0.0060059216" flag="0"/>
      <psa30 value="0.0002675822" flag="0"/>
    </comp>
    <comp name="--.HHZ">
      <acc value="0.0037090008" flag="0"/>
      <vel value="0.0021788360" flag="0"/>
      <psa03 value="0.0092430266" flag="0"/>
      <psa10 value="0.0031288880" flag="0"/>
      <psa30 value="0.0003883872" flag="0"/>
    </comp>
  </station>
  <station code="ATPC" name="ATPC" netid="IV" insttype="" lat="43.4807" lon="12.457">
    <comp name="--.HHE">
      <acc value="0.0089458321" flag="0"/>
      <vel value="0.0057423470" flag="0"/>
      <psa03 value="0.0281879632" flag="0"/>
      <psa10 value="0.0082053997" flag="0"/>
      <psa30 value="0.0003978479" flag="0"/>
    </comp>
    <comp name="--.HHN">
      <acc value="0.0080333581" flag="0"/>
      <vel value="0.0038800363" flag="0"/>
      <psa03 value="0.0150072377" flag="0"/>
      <psa10 value="0.0049772276" flag="0"/>
      <psa30 value="0.0003707195" flag="0"/>
    </comp>
    <comp name="--.HHZ">
      <acc value="0.0046850838" flag="0"/>
      <vel value="0.0024287202" flag="0"/>
      <psa03 value="0.0093567484" flag="0"/>
      <psa10 value="0.0023438531" flag="0"/>
      <psa30 value="0.0002506668" flag="0"/>
    </comp>
  </station>
  <station code="CADA" name="CADA" netid="IV" insttype="" lat="43.1942" lon="13.7614">
    <comp name="--.HNE">
      <acc value="0.0138745786" flag="0"/>
      <vel value="0.0063987120" flag="0"/>
      <psa03 value="0.0316368065" flag="0"/>
      <psa10 value="0.0060682730" flag="0"/>
      <psa30 value="0.0005965632" flag="0"/>
    </comp>
    <comp name="--.HNN">
      <acc value="0.0131765095" flag="0"/>
      <vel value="0.0062696302" flag="0"/>
      <psa03 value="0.0291607401" flag="0"/>
      <psa10 value="0.0055083639" flag="0"/>
      <psa30 value="0.0024464575" flag="0"/>
    </comp>
    <comp name="--.HNZ">
      <acc value="0.0159090829" flag="0"/>
      <vel value="0.0476716517" flag="0"/>
      <psa03 value="0.0310567991" flag="0"/>
      <psa10 value="0.0245998150" flag="0"/>
      <psa30 value="0.0205317078" flag="0"/>
    </comp>
  </station>
  <station code="CRTC" name="CRTC" netid="IV" insttype="" lat="43.7685" lon="12.883">
    <comp name="--.HHE">
      <acc value="0.0351779810" flag="0"/>
      <vel value="0.0208634272" flag="0"/>
      <psa03 value="0.0841769511" flag="0"/>
      <psa10 value="0.0301723068" flag="0"/>
      <psa30 value="0.0022682201" flag="0"/>
    </comp>
    <comp name="--.HHN">
      <acc value="0.0383482912" flag="0"/>
      <vel value="0.0171865079" flag="0"/>
      <psa03 value="0.1011920708" flag="0"/>
      <psa10 value="0.0328248874" flag="0"/>
      <psa30 value="0.0013838814" flag="0"/>
    </comp>
    <comp name="--.HHZ">
      <acc value="0.0317225481" flag="0"/>
      <vel value="0.0110352888" flag="0"/>
      <psa03 value="0.0721254365" flag="0"/>
      <psa10 value="0.0189476878" flag="0"/>
      <psa30 value="0.0012287984" flag="0"/>
    </comp>
  </station>
  <station code="GUMA" name="GUMA" netid="IV" insttype="" lat="43.0627" lon="13.3352">
    <comp name="--.HHE">
      <acc value="0.0179745994" flag="0"/>
      <vel value="0.0096007255" flag="0"/>
      <psa03 value="0.0907835782" flag="0"/>
      <psa10 value="0.0070120484" flag="0"/>
      <psa30 value="0.0006232236" flag="0"/>
    </comp>
    <comp name="--.HHN">
      <acc value="0.0173298821" flag="0"/>
      <vel value="0.0081956134" flag="0"/>
      <psa03 value="0.0400222051" flag="0"/>
      <psa10 value="0.0074890408" flag="0"/>
      <psa30 value="0.0006664620" flag="0"/>
    </comp>
    <comp name="--.HHZ">
      <acc value="0.0092724261" flag="0"/>
      <vel value="0.0043216935" flag="0"/>
      <psa03 value="0.0239467619" flag="0"/>
      <psa10 value="0.0033392148" flag="0"/>
      <psa30 value="0.0004343726" flag="0"/>
    </comp>
  </station>
  <station code="MNTP" name="MNTP" netid="IV" insttype="" lat="43.1374" lon="13.4693">
    <comp name="--.HNN">
      <acc value="0.0194133141" flag="0"/>
      <vel value="0.0068118211" flag="0"/>
      <psa03 value="0.0498520324" flag="0"/>
      <psa10 value="0.0052939120" flag="0"/>
      <psa30 value="0.0006080669" flag="0"/>
    </comp>
    <comp name="--.HNE">
      <acc value="0.0282084585" flag="0"/>
      <vel value="0.0075445888" flag="0"/>
      <psa03 value="0.0411060165" flag="0"/>
      <psa10 value="0.0065012105" flag="0"/>
      <psa30 value="0.0028299785" flag="0"/>
    </comp>
    <comp name="--.HNZ">
      <acc value="0.0143991442" flag="0"/>
      <vel value="0.0039880366" flag="0"/>
      <psa03 value="0.0260888995" flag="0"/>
      <psa10 value="0.0036744801" flag="0"/>
      <psa30 value="0.0004629834" flag="0"/>
    </comp>
  </station>
  <station code="MURB" name="MURB" netid="IV" insttype="" lat="43.263" lon="12.5246">
    <comp name="--.HHE">
      <acc value="0.0159923080" flag="0"/>
      <vel value="0.0073826704" flag="0"/>
      <psa03 value="0.0518185179" flag="0"/>
      <psa10 value="0.0057162303" flag="0"/>
      <psa30 value="0.0005594956" flag="0"/>
    </comp>
    <comp name="--.HHN">
      <acc value="0.0200745362" flag="0"/>
      <vel value="0.0082611110" flag="0"/>
      <psa03 value="0.0588104763" flag="0"/>
      <psa10 value="0.0086173297" flag="0"/>
      <psa30 value="0.0005867825" flag="0"/>
    </comp>
    <comp name="--.HHZ">
      <acc value="0.0066083198" flag="0"/>
      <vel value="0.0027529649" flag="0"/>
      <psa03 value="0.0126158222" flag="0"/>
      <psa10 value="0.0054162060" flag="0"/>
      <psa30 value="0.0003110938" flag="0"/>
    </comp>
  </station>
  <station code="PCRO" name="PCRO" netid="IV" insttype="" lat="43.6077" lon="13.5323">
    <comp name="--.HNN">
      <acc value="0.1148828936" flag="0"/>
      <vel value="0.0212339221" flag="0"/>
      <psa03 value="0.0930086377" flag="0"/>
      <psa10 value="0.0066041241" flag="0"/>
      <psa30 value="0.0007522172" flag="0"/>
    </comp>
    <comp name="--.HNZ">
      <acc value="0.0731476243" flag="0"/>
      <vel value="0.0100674063" flag="0"/>
      <psa03 value="0.0567664329" flag="0"/>
      <psa10 value="0.0036884636" flag="0"/>
      <psa30 value="0.0006500655" flag="0"/>
    </comp>
    <comp name="--.HNE">
      <acc value="0.1567318590" flag="0"/>
      <vel value="0.0233979966" flag="0"/>
      <psa03 value="0.0735247381" flag="0"/>
      <psa10 value="0.0057924926" flag="0"/>
      <psa30 value="0.0006078616" flag="0"/>
    </comp>
  </station>
  <station code="PESA" name="PESA" netid="IV" insttype="" lat="43.941" lon="12.8402">
    <comp name="--.HHE">
      <acc value="0.2680706505" flag="0"/>
      <vel value="0.0385750043" flag="0"/>
      <psa03 value="0.1858115112" flag="0"/>
      <psa10 value="0.0200984715" flag="0"/>
      <psa30 value="0.0017005016" flag="0"/>
    </comp>
    <comp name="--.HHN">
      <acc value="0.3779636399" flag="0"/>
      <vel value="0.0401074836" flag="0"/>
      <psa03 value="0.2150720718" flag="0"/>
      <psa10 value="0.0305888138" flag="0"/>
      <psa30 value="0.0022518370" flag="0"/>
    </comp>
    <comp name="--.HHZ">
      <acc value="0.0829966546" flag="0"/>
      <vel value="0.0163294484" flag="0"/>
      <psa03 value="0.1081133802" flag="0"/>
      <psa10 value="0.0137927813" flag="0"/>
      <psa30 value="0.0008504870" flag="0"/>
    </comp>
  </station>
  <station code="SENI" name="SENI" netid="IV" insttype="" lat="43.7052" lon="13.2331">
    <comp name="--.HNE">
      <acc value="0.3037105869" flag="0"/>
      <vel value="0.0968471317" flag="0"/>
      <psa03 value="0.5250001571" flag="0"/>
      <psa10 value="0.0477553197" flag="0"/>
      <psa30 value="0.0042430193" flag="0"/>
    </comp>
    <comp name="--.HNN">
      <acc value="0.2438719899" flag="0"/>
      <vel value="0.0714237355" flag="0"/>
      <psa03 value="0.3828961265" flag="0"/>
      <psa10 value="0.0425705528" flag="0"/>
      <psa30 value="0.0035718632" flag="0"/>
    </comp>
    <comp name="--.HNZ">
      <acc value="0.0882324119" flag="0"/>
      <vel value="0.0212913578" flag="0"/>
      <psa03 value="0.0898798101" flag="0"/>
      <psa10 value="0.0215572156" flag="0"/>
      <psa30 value="0.0036524134" flag="0"/>
    </comp>
  </station>
  <station code="SSFR" name="SSFR" netid="IV" insttype="" lat="43.4363" lon="12.7822">
    <comp name="--.HHE">
      <acc value="0.0154017863" flag="0"/>
      <vel value="0.0052523243" flag="0"/>
      <psa03 value="0.0319492716" flag="0"/>
      <psa10 value="0.0043064812" flag="0"/>
      <psa30 value="0.0002406415" flag="0"/>
    </comp>
    <comp name="--.HHN">
      <acc value="0.0222092020" flag="0"/>
      <vel value="0.0079667450" flag="0"/>
      <psa03 value="0.0661645821" flag="0"/>
      <psa10 value="0.0036070707" flag="0"/>
      <psa30 value="0.0004198608" flag="0"/>
    </comp>
    <comp name="--.HHZ">
      <acc value="0.0134546394" flag="0"/>
      <vel value="0.0048167174" flag="0"/>
      <psa03 value="0.0339127005" flag="0"/>
      <psa10 value="0.0045063342" flag="0"/>
      <psa30 value="0.0011052510" flag="0"/>
    </comp>
  </station>
</stationlist>
