<?xml version="1.0" encoding="UTF-8" standalone="yes"?>
<!DOCTYPE earthquake SYSTEM "stationlist.dtd">
<stationlist created="" xmlns="ch.ethz.sed.shakemap.usgs.xml">
  <station code="AIO" name="AIO" netid="IV" source="INGV" insttype="" lat="37.9712" lon="15.233">
    <comp name="--.HHE">
      <acc value="0.0181624598" flag="0"/>
      <vel value="0.0042716954" flag="0"/>
      <psa03 value="0.0242516541" flag="0"/>
      <psa10 value="0.0013405760" flag="0"/>
      <psa30 value="0.0001393978" flag="0"/>
    </comp>
    <comp name="--.HHN">
      <acc value="0.0147461531" flag="0"/>
      <vel value="0.0044916683" flag="0"/>
      <psa03 value="0.0270319189" flag="0"/>
      <psa10 value="0.0015682506" flag="0"/>
      <psa30 value="0.0001085788" flag="0"/>
    </comp>
    <comp name="--.HHZ">
      <acc value="0.0084353627" flag="0"/>
      <vel value="0.0019623193" flag="0"/>
      <psa03 value="0.0120369932" flag="0"/>
      <psa10 value="0.0007614966" flag="0"/>
      <psa30 value="0.0000889874" flag="0"/>
    </comp>
  </station>
  <station code="ECNV" name="ECNV" netid="IV" source="INGV" insttype="" lat="37.5956" lon="14.7125">
    <comp name="--.HHE">
      <acc value="0.0230216890" flag="0"/>
      <vel value="0.0111805780" flag="0"/>
      <psa03 value="0.0360229461" flag="0"/>
      <psa10 value="0.0076985099" flag="0"/>
      <psa30 value="0.0007187903" flag="0"/>
    </comp>
    <comp name="--.HHN">
      <acc value="0.0253872613" flag="0"/>
      <vel value="0.0175524176" flag="0"/>
      <psa03 value="0.0560581507" flag="0"/>
      <psa10 value="0.0113793916" flag="0"/>
      <psa30 value="0.0014580103" flag="0"/>
    </comp>
    <comp name="--.HHZ">
      <acc value="0.0293996959" flag="0"/>
      <vel value="0.0158549210" flag="0"/>
      <psa03 value="0.0580463008" flag="0"/>
      <psa10 value="0.0117662892" flag="0"/>
      <psa30 value="0.0007434873" flag="0"/>
    </comp>
  </station>
  <station code="EMSG" name="EMSG" netid="IV" source="INGV" insttype="" lat="37.8208" lon="14.9498">
    <comp name="--.HHE">
      <acc value="0.0295061326" flag="0"/>
      <vel value="0.0119476988" flag="0"/>
      <psa03 value="0.0691247037" flag="0"/>
      <psa10 value="0.0054126620" flag="0"/>
      <psa30 value="0.0003380781" flag="0"/>
    </comp>
    <comp name="--.HHN">
      <acc value="0.0511282469" flag="0"/>
      <vel value="0.0131648502" flag="0"/>
      <psa03 value="0.0673353941" flag="0"/>
      <psa10 value="0.0071631251" flag="0"/>
      <psa30 value="0.0004083364" flag="0"/>
    </comp>
    <comp name="--.HHZ">
      <acc value="0.0344822682" flag="0"/>
      <vel value="0.0092014821" flag="0"/>
      <psa03 value="0.0398776774" flag="0"/>
      <psa10 value="0.0031821797" flag="0"/>
      <psa30 value="0.0002420187" flag="0"/>
    </comp>
  </station>
  <station code="EPOZ" name="EPOZ" netid="IV" source="INGV" insttype="" lat="37.6719" lon="15.1885">
    <comp name="--.HHE">
      <acc value="0.0860407519" flag="0"/>
      <vel value="0.0164004106" flag="0"/>
      <psa03 value="0.1062059843" flag="0"/>
      <psa10 value="0.0064518810" flag="0"/>
      <psa30 value="0.0004822305" flag="0"/>
    </comp>
    <comp name="--.HHN">
      <acc value="0.0872960591" flag="0"/>
      <vel value="0.0222299958" flag="0"/>
      <psa03 value="0.0713039988" flag="0"/>
      <psa10 value="0.0098861614" flag="0"/>
      <psa30 value="0.0003742286" flag="0"/>
    </comp>
    <comp name="--.HHZ">
      <acc value="0.0762574510" flag="0"/>
      <vel value="0.0122712601" flag="0"/>
      <psa03 value="0.0399422194" flag="0"/>
      <psa10 value="0.0043766302" flag="0"/>
      <psa30 value="0.0002458467" flag="0"/>
    </comp>
  </station>
  <station code="EPZF" name="EPZF" netid="IV" source="INGV" insttype="" lat="37.824" lon="14.857">
    <comp name="--.HHE">
      <acc value="0.0153591850" flag="0"/>
      <vel value="0.0085112943" flag="0"/>
      <psa03 value="0.0584707142" flag="0"/>
      <psa10 value="0.0042274917" flag="0"/>
      <psa30 value="0.0003671569" flag="0"/>
    </comp>
    <comp name="--.HHN">
      <acc value="0.0261134902" flag="0"/>
      <vel value="0.0127447384" flag="0"/>
      <psa03 value="0.0994354236" flag="0"/>
      <psa10 value="0.0082123282" flag="0"/>
      <psa30 value="0.0006321757" flag="0"/>
    </comp>
    <comp name="--.HHZ">
      <acc value="0.0143583424" flag="0"/>
      <vel value="0.0066442614" flag="0"/>
      <psa03 value="0.0244813997" flag="0"/>
      <psa10 value="0.0046148442" flag="0"/>
      <psa30 value="0.0003595435" flag="0"/>
    </comp>
  </station>
  <station code="ESLN" name="ESLN" netid="IV" source="INGV" insttype="" lat="37.6934" lon="14.9744">
    <comp name="--.HHE">
      <acc value="0.0682326514" flag="0"/>
      <vel value="0.0171136182" flag="0"/>
      <psa03 value="0.0818188517" flag="0"/>
      <psa10 value="0.0077423604" flag="0"/>
      <psa30 value="0.0004258242" flag="0"/>
    </comp>
    <comp name="--.HHN">
      <acc value="0.0748704436" flag="0"/>
      <vel value="0.0120192325" flag="0"/>
      <psa03 value="0.0639819742" flag="0"/>
      <psa10 value="0.0074333935" flag="0"/>
      <psa30 value="0.0004012376" flag="0"/>
    </comp>
    <comp name="--.HHZ">
      <acc value="0.0947329846" flag="0"/>
      <vel value="0.0158271995" flag="0"/>
      <psa03 value="0.0522568379" flag="0"/>
      <psa10 value="0.0082331541" flag="0"/>
      <psa30 value="0.0003598026" flag="0"/>
    </comp>
  </station>
  <station code="ESML" name="ESML" netid="IV" source="INGV" insttype="" lat="37.6181" lon="14.8794">
    <comp name="--.HHE">
      <acc value="0.0571661981" flag="0"/>
      <vel value="0.0141074660" flag="0"/>
      <psa03 value="0.0618269935" flag="0"/>
      <psa10 value="0.0061020640" flag="0"/>
      <psa30 value="0.0003863595" flag="0"/>
    </comp>
    <comp name="--.HHN">
      <acc value="0.0666303128" flag="0"/>
      <vel value="0.0197999707" flag="0"/>
      <psa03 value="0.0908472692" flag="0"/>
      <psa10 value="0.0097876183" flag="0"/>
      <psa30 value="0.0006243299" flag="0"/>
    </comp>
    <comp name="--.HHZ">
      <acc value="0.1023152384" flag="0"/>
      <vel value="0.0217863284" flag="0"/>
      <psa03 value="0.0886552115" flag="0"/>
      <psa10 value="0.0040731716" flag="0"/>
      <psa30 value="0.0003972609" flag="0"/>
    </comp>
  </station>
  <station code="HAGA" name="HAGA" netid="IV" source="INGV" insttype="" lat="37.285" lon="15.155">
    <comp name="--.HHE">
      <acc value="0.2355108713" flag="0"/>
      <vel value="0.0364835854" flag="0"/>
      <psa03 value="0.1233612835" flag="0"/>
      <psa10 value="0.0105763807" flag="0"/>
      <psa30 value="0.0009067618" flag="0"/>
    </comp>
    <comp name="--.HHN">
      <acc value="0.4532313825" flag="0"/>
      <vel value="0.0508269368" flag="0"/>
      <psa03 value="0.1240237773" flag="0"/>
      <psa10 value="0.0121407680" flag="0"/>
      <psa30 value="0.0013217496" flag="0"/>
    </comp>
    <comp name="--.HHZ">
      <acc value="0.2732526678" flag="0"/>
      <vel value="0.0238382372" flag="0"/>
      <psa03 value="0.1221267124" flag="0"/>
      <psa10 value="0.0049566283" flag="0"/>
      <psa30 value="0.0005373456" flag="0"/>
    </comp>
  </station>
  <station code="HAVL" name="HAVL" netid="IV" source="INGV" insttype="" lat="36.9596" lon="15.122">
    <comp name="--.HHE">
      <acc value="0.2656350733" flag="0"/>
      <vel value="0.0636914177" flag="0"/>
      <psa03 value="0.3544728789" flag="0"/>
      <psa10 value="0.0203422312" flag="0"/>
      <psa30 value="0.0017387299" flag="0"/>
    </comp>
    <comp name="--.HHN">
      <acc value="0.2307334863" flag="0"/>
      <vel value="0.0635979410" flag="0"/>
      <psa03 value="0.3941782078" flag="0"/>
      <psa10 value="0.0278873105" flag="0"/>
      <psa30 value="0.0018468867" flag="0"/>
    </comp>
    <comp name="--.HHZ">
      <acc value="0.1182636945" flag="0"/>
      <vel value="0.0284391533" flag="0"/>
      <psa03 value="0.1135491359" flag="0"/>
      <psa10 value="0.0123731829" flag="0"/>
      <psa30 value="0.0006863008" flag="0"/>
    </comp>
  </station>
  <station code="HLNI" name="HLNI" netid="IV" source="INGV" insttype="" lat="37.3485" lon="14.872">
    <comp name="--.HHE">
      <acc value="0.2487133051" flag="0"/>
      <vel value="0.0540831467" flag="0"/>
      <psa03 value="0.1482968526" flag="0"/>
      <psa10 value="0.0132020489" flag="0"/>
      <psa30 value="0.0007928612" flag="0"/>
    </comp>
    <comp name="--.HHN">
      <acc value="0.2387247784" flag="0"/>
      <vel value="0.0813651542" flag="0"/>
      <psa03 value="0.4011904630" flag="0"/>
      <psa10 value="0.0222799710" flag="0"/>
      <psa30 value="0.0024680241" flag="0"/>
    </comp>
    <comp name="--.HHZ">
      <acc value="0.1982858646" flag="0"/>
      <vel value="0.0347379124" flag="0"/>
      <psa03 value="0.1260937983" flag="0"/>
      <psa10 value="0.0043042504" flag="0"/>
      <psa30 value="0.0005511129" flag="0"/>
    </comp>
  </station>
  <station code="HMDC" name="HMDC" netid="IV" source="INGV" insttype="" lat="36.959" lon="14.7831">
    <comp name="--.HHE">
      <acc value="0.0703372027" flag="0"/>
      <vel value="0.0129790561" flag="0"/>
      <psa03 value="0.0509840364" flag="0"/>
      <psa10 value="0.0088980725" flag="0"/>
      <psa30 value="0.0009683371" flag="0"/>
    </comp>
    <comp name="--.HHN">
      <acc value="0.0751915482" flag="0"/>
      <vel value="0.0157331779" flag="0"/>
      <psa03 value="0.0717459229" flag="0"/>
      <psa10 value="0.0085993637" flag="0"/>
      <psa30 value="0.0005682020" flag="0"/>
    </comp>
    <comp name="--.HHZ">
      <acc value="0.0550032082" flag="0"/>
      <vel value="0.0110411518" flag="0"/>
      <psa03 value="0.0542711742" flag="0"/>
      <psa10 value="0.0071285064" flag="0"/>
      <psa30 value="0.0004407715" flag="0"/>
    </comp>
  </station>
  <station code="HPAC" name="HPAC" netid="IV" source="INGV" insttype="" lat="36.7085" lon="15.0372">
    <comp name="--.HHE">
      <acc value="0.1622062680" flag="0"/>
      <vel value="0.0365805783" flag="0"/>
      <psa03 value="0.1289649555" flag="0"/>
      <psa10 value="0.0180790759" flag="0"/>
      <psa30 value="0.0009981771" flag="0"/>
    </comp>
    <comp name="--.HHN">
      <acc value="0.1305665628" flag="0"/>
      <vel value="0.0284078638" flag="0"/>
      <psa03 value="0.1072717142" flag="0"/>
      <psa10 value="0.0190104097" flag="0"/>
      <psa30 value="0.0013273515" flag="0"/>
    </comp>
    <comp name="--.HHZ">
      <acc value="0.0934019157" flag="0"/>
      <vel value="0.0194628015" flag="0"/>
      <psa03 value="0.0659666568" flag="0"/>
      <psa10 value="0.0076480814" flag="0"/>
      <psa30 value="0.0005686314" flag="0"/>
    </comp>
  </station>
  <station code="HVZN" name="HVZN" netid="IV" source="INGV" insttype="" lat="37.1783" lon="14.7155">
    <comp name="--.HHE">
      <acc value="0.1265676392" flag="0"/>
      <vel value="0.0348395366" flag="0"/>
      <psa03 value="0.1717756073" flag="0"/>
      <psa10 value="0.0228797015" flag="0"/>
      <psa30 value="0.0011885136" flag="0"/>
    </comp>
    <comp name="--.HHN">
      <acc value="0.1124482266" flag="0"/>
      <vel value="0.0320402558" flag="0"/>
      <psa03 value="0.1869436405" flag="0"/>
      <psa10 value="0.0133388340" flag="0"/>
      <psa30 value="0.0009941845" flag="0"/>
    </comp>
    <comp name="--.HHZ">
      <acc value="0.0941919899" flag="0"/>
      <vel value="0.0232940033" flag="0"/>
      <psa03 value="0.1782634488" flag="0"/>
      <psa10 value="0.0068548425" flag="0"/>
      <psa30 value="0.0007548266" flag="0"/>
    </comp>
  </station>
  <station code="MPAZ" name="MPAZ" netid="IV" source="INGV" insttype="" lat="37.9531" lon="16.0067">
    <comp name="--.HHE">
      <acc value="0.0047969279" flag="0"/>
      <vel value="0.0016582375" flag="0"/>
      <psa03 value="0.0093138960" flag="0"/>
      <psa10 value="0.0011077948" flag="0"/>
      <psa30 value="0.0001256295" flag="0"/>
    </comp>
    <comp name="--.HHN">
      <acc value="0.0053230888" flag="0"/>
      <vel value="0.0022170436" flag="0"/>
      <psa03 value="0.0143748056" flag="0"/>
      <psa10 value="0.0018440698" flag="0"/>
      <psa30 value="0.0001007637" flag="0"/>
    </comp>
    <comp name="--.HHZ">
      <acc value="0.0038017356" flag="0"/>
      <vel value="0.0011527763" flag="0"/>
      <psa03 value="0.0063148096" flag="0"/>
      <psa10 value="0.0009071781" flag="0"/>
      <psa30 value="0.0000804837" flag="0"/>
    </comp>
  </station>
  <station code="SSY" name="SSY" netid="IV" source="INGV" insttype="" lat="37.1577" lon="15.0737">
    <comp name="--.HHE">
      <acc value="0.1483481700" flag="0"/>
      <vel value="0.0316859885" flag="0"/>
      <psa03 value="0.1370676530" flag="0"/>
      <psa10 value="0.0243237282" flag="0"/>
      <psa30 value="0.0010996252" flag="0"/>
    </comp>
    <comp name="--.HHN">
      <acc value="0.2021826849" flag="0"/>
      <vel value="0.0551633682" flag="0"/>
      <psa03 value="0.2711747352" flag="0"/>
      <psa10 value="0.0205825055" flag="0"/>
      <psa30 value="0.0012518193" flag="0"/>
    </comp>
    <comp name="--.HHZ">
      <acc value="0.1881385664" flag="0"/>
      <vel value="0.0245603353" flag="0"/>
      <psa03 value="0.1069933563" flag="0"/>
      <psa10 value="0.0112389315" flag="0"/>
      <psa30 value="0.0006754903" flag="0"/>
    </comp>
  </station>
</stationlist>
