<stationlist xmlns:esm="https://esm-db.eu/esmws/shakemap/1/" created="1784166838">
	<station code="EPOZ" name="EPOZ" netid="IV" source="Italian National Seismic Network (INSN)" insttype="" lat="37.6719" lon="15.1885" esm:processing="manual (Paolucci et al 2011)" esm:quality="best">
		<comp name="--.HNE" depth="0.0">
			<acc value="0.0738996586173219" flag="0"/>
			<vel value="0.0148685370140912" flag="0"/>
			<psa03 value="0.0986565655932892" flag="0"/>
			<psa10 value="0.00614489465695344" flag="0"/>
			<psa30 value="0.000443842689653256" flag="0"/>
		</comp>
		<comp name="--.HNN" depth="0.0">
			<acc value="0.079518438387649" flag="0"/>
			<vel value="0.0210958315372394" flag="0"/>
			<psa03 value="0.0677397008200634" flag="0"/>
			<psa10 value="0.0093743871306603" flag="0"/>
			<psa30 value="0.000356595386747626" flag="0"/>
		</comp>
		<comp name="--.HNZ" depth="0.0">
			<acc value="0.0672902255411685" flag="0"/>
			<vel value="0.0113813453908414" flag="0"/>
			<psa03 value="0.0374044847328752" flag="0"/>
			<psa10 value="0.00415565615070508" flag="0"/>
			<psa30 value="0.000245187292268129" flag="0"/>
		</comp>
	</station>
	<station code="JOPP" name="JOPP" netid="IV" source="Italian National Seismic Network (INSN)" insttype="" lat="38.6068" lon="15.8856" esm:processing="discarded" esm:quality="good">
		<comp name="--.HNE" depth="2.0">
			<acc value="0" flag="1"/>
			<vel value="0" flag="1"/>
			<psa03 value="0" flag="1"/>
			<psa10 value="0" flag="1"/>
			<psa30 value="0" flag="1"/>
		</comp>
		<comp name="--.HNN" depth="2.0">
			<acc value="0" flag="1"/>
			<vel value="0" flag="1"/>
			<psa03 value="0" flag="1"/>
			<psa10 value="0" flag="1"/>
			<psa30 value="0" flag="1"/>
		</comp>
		<comp name="--.HNZ" depth="2.0">
			<acc value="0" flag="1"/>
			<vel value="0" flag="1"/>
			<psa03 value="0" flag="1"/>
			<psa10 value="0" flag="1"/>
			<psa30 value="0" flag="1"/>
		</comp>
	</station>
	<station code="CEL" name="CEL" netid="MN" source="Mediterranean Very Broadband Seismographic Network (MedNet)" insttype="" lat="38.2603" lon="15.8939" esm:processing="discarded" esm:quality="good">
		<comp name="--.HNE" depth="0.0">
			<acc value="0" flag="1"/>
			<vel value="0" flag="1"/>
			<psa03 value="0" flag="1"/>
			<psa10 value="0" flag="1"/>
			<psa30 value="0" flag="1"/>
		</comp>
		<comp name="--.HNN" depth="0.0">
			<acc value="0" flag="1"/>
			<vel value="0" flag="1"/>
			<psa03 value="0" flag="1"/>
			<psa10 value="0" flag="1"/>
			<psa30 value="0" flag="1"/>
		</comp>
		<comp name="--.HNZ" depth="0.0">
			<acc value="0" flag="1"/>
			<vel value="0" flag="1"/>
			<psa03 value="0" flag="1"/>
			<psa10 value="0" flag="1"/>
			<psa30 value="0" flag="1"/>
		</comp>
	</station>
</stationlist>
