<stationlist xmlns:esm="https://esm-db.eu/esmws/shakemap/1/" created="1783475647">
	<station code="KARP" name="KARP" netid="GE" source="GEOFON" insttype="" lat="35.5471" lon="27.16106" esm:processing="manual (Paolucci et al 2011)" esm:quality="good">
		<comp name="--.HNE" depth="0.0">
			<acc value="0.00484537302216011" flag="0"/>
			<vel value="0.00349585936988973" flag="0"/>
			<psa03 value="0.0145859593575566" flag="0"/>
			<psa10 value="0.00451404122571744" flag="0"/>
			<psa30 value="0.000312748024261719" flag="0"/>
		</comp>
		<comp name="--.HNN" depth="0.0">
			<acc value="0.00581764578707807" flag="0"/>
			<vel value="0.00353855260284111" flag="0"/>
			<psa03 value="0.0216999702098618" flag="0"/>
			<psa10 value="0.00302815254392463" flag="0"/>
			<psa30 value="0.000337803659967952" flag="0"/>
		</comp>
		<comp name="--.HNZ" depth="0.0">
			<acc value="0.00490369062189671" flag="0"/>
			<vel value="0.00281260329623561" flag="0"/>
			<psa03 value="0.0106039029685304" flag="0"/>
			<psa10 value="0.00235567717845201" flag="0"/>
			<psa30 value="0.0003753871135273" flag="0"/>
		</comp>
	</station>
	<station code="RDI1" name="RDI1" netid="HI" source="ITSAK Strong Motion Network" insttype="" lat="36.4514" lon="28.224" esm:processing="manual (Paolucci et al 2011)" esm:quality="best">
		<comp name="--.HNE" depth="0.0">
			<acc value="0.0373276855705877" flag="0"/>
			<vel value="0.0279660604609427" flag="0"/>
			<psa03 value="0.0964194552623756" flag="0"/>
			<psa10 value="0.0500732405368388" flag="0"/>
			<psa30 value="0.00475699140765465" flag="0"/>
		</comp>
		<comp name="--.HNN" depth="0.0">
			<acc value="0.0462657777613733" flag="0"/>
			<vel value="0.0324890618741733" flag="0"/>
			<psa03 value="0.108141913396363" flag="0"/>
			<psa10 value="0.0423981624135405" flag="0"/>
			<psa30 value="0.0047713089137725" flag="0"/>
		</comp>
		<comp name="--.HNZ" depth="0.0">
			<acc value="0.0231383133624248" flag="0"/>
			<vel value="0.0176541434178193" flag="0"/>
			<psa03 value="0.0860392633269366" flag="0"/>
			<psa10 value="0.0321177455988602" flag="0"/>
			<psa30 value="0.00205500954997722" flag="0"/>
		</comp>
	</station>
	<station code="RGE1" name="RGE1" netid="HI" source="ITSAK Strong Motion Network" insttype="" lat="36.0269" lon="27.9306" esm:processing="manual (Paolucci et al 2011)" esm:quality="best">
		<comp name="--.HNE" depth="0.0">
			<acc value="0.0259727376526261" flag="0"/>
			<vel value="0.0135456604836964" flag="0"/>
			<psa03 value="0.0446974644116535" flag="0"/>
			<psa10 value="0.0187366938655337" flag="0"/>
			<psa30 value="0.00136866410045293" flag="0"/>
		</comp>
		<comp name="--.HNN" depth="0.0">
			<acc value="0.0207230252183735" flag="0"/>
			<vel value="0.014683454659392" flag="0"/>
			<psa03 value="0.03753871135273" flag="0"/>
			<psa10 value="0.0175125470924577" flag="0"/>
			<psa30 value="0.00104696763486756" flag="0"/>
		</comp>
		<comp name="--.HNZ" depth="0.0">
			<acc value="0.0128554696428009" flag="0"/>
			<vel value="0.0055299450246845" flag="0"/>
			<psa03 value="0.0313642868394085" flag="0"/>
			<psa10 value="0.00501336425157735" flag="0"/>
			<psa30 value="0.000629970269185266" flag="0"/>
		</comp>
	</station>
	<station code="KARP" name="KARP" netid="HL" source="National Observatory of Athens Seismic Network" insttype="" lat="35.5471" lon="27.16106" esm:processing="manual (Paolucci et al 2011)" esm:quality="good">
		<comp name="--.HNE" depth="0.0">
			<acc value="0.00474696282859733" flag="0"/>
			<vel value="0.00341714265444062" flag="0"/>
			<psa03 value="0.014317506117847" flag="0"/>
			<psa10 value="0.00442142485801761" flag="0"/>
			<psa30 value="0.0003029047388057" flag="0"/>
		</comp>
		<comp name="--.HNN" depth="0.0">
			<acc value="0.00570191178343895" flag="0"/>
			<vel value="0.00351630018254255" flag="0"/>
			<psa03 value="0.0212525481436791" flag="0"/>
			<psa10 value="0.00295969696779868" flag="0"/>
			<psa30 value="0.000327512952445749" flag="0"/>
		</comp>
		<comp name="--.HNZ" depth="0.0">
			<acc value="0.00480240859247785" flag="0"/>
			<vel value="0.00273189462068138" flag="0"/>
			<psa03 value="0.010380191935439" flag="0"/>
			<psa10 value="0.00230332879670863" flag="0"/>
			<psa30 value="0.000356147964681443" flag="0"/>
		</comp>
	</station>
	<station code="KLNA" name="KLNA" netid="HL" source="National Observatory of Athens Seismic Network" insttype="" lat="36.95708" lon="26.97274" esm:processing="manual (Paolucci et al 2011)" esm:quality="good">
		<comp name="00.HNE" depth="0.0">
			<acc value="0.0144488415730766" flag="0"/>
			<vel value="0.00722962646180896" flag="0"/>
			<psa03 value="0.0568477658854955" flag="0"/>
			<psa10 value="0.00366144372455232" flag="0"/>
			<psa30 value="0.00023518821027302" flag="0"/>
		</comp>
		<comp name="00.HNN" depth="0.0">
			<acc value="0.00914198894951735" flag="0"/>
			<vel value="0.0048491051240771" flag="0"/>
			<psa03 value="0.0506770758575654" flag="0"/>
			<psa10 value="0.00600008294479821" flag="0"/>
			<psa30 value="0.000206292728380823" flag="0"/>
		</comp>
		<comp name="00.HNZ" depth="0.0">
			<acc value="0.00722656027014927" flag="0"/>
			<vel value="0.0029990247560048" flag="0"/>
			<psa03 value="0.0218896584157745" flag="0"/>
			<psa10 value="0.00326522435196343" flag="0"/>
			<psa30 value="0.000176640503649793" flag="0"/>
		</comp>
	</station>
	<station code="KSL" name="KSL" netid="HL" source="National Observatory of Athens Seismic Network" insttype="" lat="36.15031" lon="29.58561" esm:processing="manual (Paolucci et al 2011)" esm:quality="good">
		<comp name="00.HNE" depth="0.0">
			<acc value="0.0236636172262793" flag="0"/>
			<vel value="0.0136263964949419" flag="0"/>
			<psa03 value="0.0834442153430768" flag="0"/>
			<psa10 value="0.00792473963622829" flag="0"/>
			<psa30 value="0.00162906374297127" flag="0"/>
		</comp>
		<comp name="00.HNN" depth="0.0">
			<acc value="0.00923564349212438" flag="0"/>
			<vel value="0.00501620210649809" flag="0"/>
			<psa03 value="0.0184785313333462" flag="0"/>
			<psa10 value="0.00812205276741487" flag="0"/>
			<psa30 value="0.00100222542824929" flag="0"/>
		</comp>
		<comp name="00.HNZ" depth="0.0">
			<acc value="0.0103876096719983" flag="0"/>
			<vel value="0.00545067930969946" flag="0"/>
			<psa03 value="0.0330644906909028" flag="0"/>
			<psa10 value="0.00639858296847904" flag="0"/>
			<psa30 value="0.000712743351429069" flag="0"/>
		</comp>
	</station>
	<station code="RODB" name="RODB" netid="HL" source="National Observatory of Athens Seismic Network" insttype="" lat="36.4471" lon="28.22116" esm:processing="manual (Paolucci et al 2011)" esm:quality="best">
		<comp name="00.HNE" depth="0.0">
			<acc value="0.0379483556054273" flag="0"/>
			<vel value="0.0291757859246513" flag="0"/>
			<psa03 value="0.126888897969419" flag="0"/>
			<psa10 value="0.0428411102590614" flag="0"/>
			<psa30 value="0.00342322622836397" flag="0"/>
		</comp>
		<comp name="00.HNN" depth="0.0">
			<acc value="0.0341470260038477" flag="0"/>
			<vel value="0.0264553374273015" flag="0"/>
			<psa03 value="0.163980187255966" flag="0"/>
			<psa10 value="0.0442424361703457" flag="0"/>
			<psa30 value="0.00411091394408681" flag="0"/>
		</comp>
		<comp name="00.HNZ" depth="0.0">
			<acc value="0.0292829251089512" flag="0"/>
			<vel value="0.0185258280137348" flag="0"/>
			<psa03 value="0.0689029981921385" flag="0"/>
			<psa10 value="0.0258278861924636" flag="0"/>
			<psa30 value="0.00163801218429493" flag="0"/>
		</comp>
	</station>
	<station code="BASM" name="BASM" netid="KO" source="Bogazici University Kandilli Observatory And Earthquake Research Institute (KOERI)" insttype="" lat="37.9194" lon="30.035" esm:processing="manual (Paolucci et al 2011)" esm:quality="good">
		<comp name="--.HNE" depth="0.0">
			<acc value="0.0151266753154358" flag="0"/>
			<vel value="0.0161408553641097" flag="0"/>
			<psa03 value="0.0433551982131053" flag="0"/>
			<psa10 value="0.0319284860648649" flag="0"/>
			<psa30 value="0.0019753684221967" flag="0"/>
		</comp>
		<comp name="--.HNN" depth="0.0">
			<acc value="0.0144799659443624" flag="0"/>
			<vel value="0.016861200167985" flag="0"/>
			<psa03 value="0.0521246707102866" flag="0"/>
			<psa10 value="0.0382062650754746" flag="0"/>
			<psa30 value="0.00136508472392347" flag="0"/>
		</comp>
		<comp name="--.HNZ" depth="0.0">
			<acc value="0.00907683778594922" flag="0"/>
			<vel value="0.00807923845134597" flag="0"/>
			<psa03 value="0.0280981057562747" flag="0"/>
			<psa10 value="0.0160870603895996" flag="0"/>
			<psa30 value="0.000696636157046491" flag="0"/>
		</comp>
	</station>
	<station code="DATC" name="DATC" netid="KO" source="Bogazici University Kandilli Observatory And Earthquake Research Institute (KOERI)" insttype="" lat="36.7584" lon="27.6602" esm:processing="manual (Paolucci et al 2011)" esm:quality="good">
		<comp name="--.HNE" depth="0.0">
			<acc value="0.286923307509254" flag="0"/>
			<vel value="0.219934487824523" flag="0"/>
			<psa03 value="1.07506574062383" flag="0"/>
			<psa10 value="0.309721213983993" flag="0"/>
			<psa30 value="0.0103426084818797" flag="0"/>
		</comp>
		<comp name="--.HNN" depth="0.0">
			<acc value="0.294171306308944" flag="0"/>
			<vel value="0.137461662471654" flag="0"/>
			<psa03 value="1.15828624493382" flag="0"/>
			<psa10 value="0.136113846129974" flag="0"/>
			<psa30 value="0.00744510318128042" flag="0"/>
		</comp>
		<comp name="--.HNZ" depth="0.0">
			<acc value="0.138163418125585" flag="0"/>
			<vel value="0.0767292761980108" flag="0"/>
			<psa03 value="0.456862671779173" flag="0"/>
			<psa10 value="0.0935787725641816" flag="0"/>
			<psa30 value="0.0064048468774056" flag="0"/>
		</comp>
	</station>
	<station code="DEMR" name="DEMR" netid="KO" source="Bogazici University Kandilli Observatory And Earthquake Research Institute (KOERI)" insttype="" lat="36.2365" lon="29.9056" esm:processing="manual (Paolucci et al 2011)" esm:quality="bad">
		<comp name="--.HNE" depth="0.0">
			<acc value="0.0262475378221934" flag="0"/>
			<vel value="0.0256327916496905" flag="0"/>
			<psa03 value="0.108902530908873" flag="0"/>
			<psa10 value="0.0312278231092228" flag="0"/>
			<psa30 value="0.00510329608688008" flag="0"/>
		</comp>
		<comp name="--.HNN" depth="0.0">
			<acc value="0.0268332913111596" flag="0"/>
			<vel value="0.0182671823901293" flag="0"/>
			<psa03 value="0.11986437153035" flag="0"/>
			<psa10 value="0.0255782246795336" flag="0"/>
			<psa30 value="0.00262413041816164" flag="0"/>
		</comp>
		<comp name="--.HNZ" depth="0.0">
			<acc value="0.0336906121212321" flag="0"/>
			<vel value="0.0195901186107265" flag="0"/>
			<psa03 value="0.0834889575496951" flag="0"/>
			<psa10 value="0.0240118000258279" flag="0"/>
			<psa30 value="0.00433194044478107" flag="0"/>
		</comp>
	</station>
	<station code="KEMT" name="KEMT" netid="KO" source="Bogazici University Kandilli Observatory And Earthquake Research Institute (KOERI)" insttype="" lat="36.6037" lon="30.5558" esm:processing="manual (Paolucci et al 2011)" esm:quality="bad">
		<comp name="--.HNE" depth="0.0">
			<acc value="0.0971950321926344" flag="0"/>
			<vel value="0.0645511215735691" flag="0"/>
			<psa03 value="0.308944936699167" flag="0"/>
			<psa10 value="0.0401995303803186" flag="0"/>
			<psa30 value="0.00310421429517569" flag="0"/>
		</comp>
		<comp name="--.HNN" depth="0.0">
			<acc value="0.0738695722732451" flag="0"/>
			<vel value="0.0531624621182861" flag="0"/>
			<psa03 value="0.238654930101862" flag="0"/>
			<psa10 value="0.0292305310057831" flag="0"/>
			<psa30 value="0.00308765967872693" flag="0"/>
		</comp>
		<comp name="--.HNZ" depth="0.0">
			<acc value="0.0328064818590293" flag="0"/>
			<vel value="0.0139363584417381" flag="0"/>
			<psa03 value="0.0891264755835973" flag="0"/>
			<psa10 value="0.0165259814365249" flag="0"/>
			<psa30 value="0.00221384438347209" flag="0"/>
		</comp>
	</station>
	<station code="MRSB" name="MRSB" netid="KO" source="Bogazici University Kandilli Observatory And Earthquake Research Institute (KOERI)" insttype="" lat="36.7161" lon="28.1969" esm:processing="manual (Paolucci et al 2011)" esm:quality="good">
		<comp name="--.HNE" depth="0.0">
			<acc value="0.280710297605093" flag="0"/>
			<vel value="0.143564923031402" flag="0"/>
			<psa03 value="1.03582682541961" flag="0"/>
			<psa10 value="0.0941707119577413" flag="0"/>
			<psa30 value="0.00501783847223918" flag="0"/>
		</comp>
		<comp name="--.HNN" depth="0.0">
			<acc value="0.409468435113968" flag="0"/>
			<vel value="0.216373155743549" flag="0"/>
			<psa03 value="2.20574604407418" flag="0"/>
			<psa10 value="0.0826258803840286" flag="0"/>
			<psa30 value="0.00716233243545294" flag="0"/>
		</comp>
		<comp name="--.HNZ" depth="0.0">
			<acc value="0.202452765442499" flag="0"/>
			<vel value="0.0819147074563351" flag="0"/>
			<psa03 value="0.751087422500928" flag="0"/>
			<psa10 value="0.0311190995471404" flag="0"/>
			<psa30 value="0.00301472988193915" flag="0"/>
		</comp>
	</station>
	<station code="NISR" name="NISR" netid="HL" source="National Observatory of Athens Seismic Network" insttype="" lat="36.6106" lon="27.131" esm:processing="automatic (Paolucci et al 2011)" esm:quality="bad">
		<comp name="00.HNE" depth="0.0">
			<acc value="0" flag="1"/>
			<vel value="0" flag="1"/>
			<psa03 value="0" flag="1"/>
			<psa10 value="0" flag="1"/>
			<psa30 value="0" flag="1"/>
		</comp>
		<comp name="00.HNN" depth="0.0">
			<acc value="0" flag="1"/>
			<vel value="0" flag="1"/>
			<psa03 value="0" flag="1"/>
			<psa10 value="0" flag="1"/>
			<psa30 value="0" flag="1"/>
		</comp>
		<comp name="00.HNZ" depth="0.0">
			<acc value="0" flag="1"/>
			<vel value="0" flag="1"/>
			<psa03 value="0" flag="1"/>
			<psa10 value="0" flag="1"/>
			<psa30 value="0" flag="1"/>
		</comp>
	</station>
	<station code="YKAV" name="YKAV" netid="KO" source="Bogazici University Kandilli Observatory And Earthquake Research Institute (KOERI)" insttype="" lat="37.1246" lon="27.2801" esm:processing="discarded" esm:quality="good">
		<comp name="--.HNE" depth="0.0">
			<acc value="0" flag="1"/>
			<vel value="0" flag="1"/>
			<psa03 value="0" flag="1"/>
			<psa10 value="0" flag="1"/>
			<psa30 value="0" flag="1"/>
		</comp>
		<comp name="--.HNN" depth="0.0">
			<acc value="0" flag="1"/>
			<vel value="0" flag="1"/>
			<psa03 value="0" flag="1"/>
			<psa10 value="0" flag="1"/>
			<psa30 value="0" flag="1"/>
		</comp>
		<comp name="--.HNZ" depth="0.0">
			<acc value="0" flag="1"/>
			<vel value="0" flag="1"/>
			<psa03 value="0" flag="1"/>
			<psa10 value="0" flag="1"/>
			<psa30 value="0" flag="1"/>
		</comp>
	</station>
</stationlist>
