<?xml version="1.0" encoding="UTF-8" standalone="yes"?>
<!DOCTYPE earthquake SYSTEM "stationlist.dtd">
<stationlist created="" xmlns="ch.ethz.sed.shakemap.usgs.xml">
  <station code="ARG" name="ARG" netid="HL" source="NOA" insttype="LE3D20_DR24" lat="36.2136" lon="28.1212">
    <comp name="--.HHE">
      <acc value="0.0291478468" flag="0"/>
      <vel value="0.0186510804" flag="0"/>
      <psa03 value="0.0763846480" flag="0"/>
      <psa10 value="0.0146615469" flag="0"/>
      <psa30 value="0.0014603908" flag="0"/>
    </comp>
    <comp name="--.HHN">
      <acc value="0.0239604417" flag="0"/>
      <vel value="0.0106826962" flag="0"/>
      <psa03 value="0.0498179435" flag="0"/>
      <psa10 value="0.0208869076" flag="0"/>
      <psa30 value="0.0015226990" flag="0"/>
    </comp>
    <comp name="--.HHZ">
      <acc value="0.0185852729" flag="0"/>
      <vel value="0.0113106187" flag="0"/>
      <psa03 value="0.0438006129" flag="0"/>
      <psa10 value="0.0234460010" flag="0"/>
      <psa30 value="0.0010311424" flag="0"/>
    </comp>
  </station>
  <station code="KSL" name="KSL" netid="HL" source="NOA" insttype="60" lat="36.1503" lon="29.5856">
    <comp name="--.HHE">
      <acc value="0.0231628378" flag="0"/>
      <vel value="0.0132197342" flag="0"/>
      <psa03 value="0.0818804950" flag="0"/>
      <psa10 value="0.0076582714" flag="0"/>
      <psa30 value="0.0015070556" flag="0"/>
    </comp>
    <comp name="--.HHN">
      <acc value="0.0092272452" flag="0"/>
      <vel value="0.0049447475" flag="0"/>
      <psa03 value="0.0200193133" flag="0"/>
      <psa10 value="0.0082706648" flag="0"/>
      <psa30 value="0.0008391464" flag="0"/>
    </comp>
    <comp name="--.HHZ">
      <acc value="0.0106152780" flag="0"/>
      <vel value="0.0054657518" flag="0"/>
      <psa03 value="0.0345498147" flag="0"/>
      <psa10 value="0.0065324568" flag="0"/>
      <psa30 value="0.0006177282" flag="0"/>
    </comp>
  </station>
  <station code="DATC" name="DATC" netid="KO" source="KOERI" insttype="100" lat="36.7584" lon="27.6602">
    <comp name="--.HNE">
      <acc value="0.0589348390" flag="0"/>
      <vel value="0.0453120045" flag="0"/>
      <psa03 value="0.2255201270" flag="0"/>
      <psa10 value="0.0637799340" flag="0"/>
      <psa30 value="0.0021877956" flag="0"/>
    </comp>
    <comp name="--.HNN">
      <acc value="0.0606376001" flag="0"/>
      <vel value="0.0282228486" flag="0"/>
      <psa03 value="0.2367620469" flag="0"/>
      <psa10 value="0.0280560423" flag="0"/>
      <psa30 value="0.0015631793" flag="0"/>
    </comp>
    <comp name="--.HNZ">
      <acc value="0.0286413545" flag="0"/>
      <vel value="0.0158361939" flag="0"/>
      <psa03 value="0.0940745820" flag="0"/>
      <psa10 value="0.0192563483" flag="0"/>
      <psa30 value="0.0013457069" flag="0"/>
    </comp>
  </station>
  <station code="MRSB" name="MRSB" netid="KO" source="KOERI" insttype="100" lat="36.7161" lon="28.1969">
    <comp name="--.HNE">
      <acc value="0.0579216546" flag="0"/>
      <vel value="0.0294521109" flag="0"/>
      <psa03 value="0.2148931920" flag="0"/>
      <psa10 value="0.0193734408" flag="0"/>
      <psa30 value="0.0010587721" flag="0"/>
    </comp>
    <comp name="--.HNN">
      <acc value="0.0839702046" flag="0"/>
      <vel value="0.0443521985" flag="0"/>
      <psa03 value="0.4530618882" flag="0"/>
      <psa10 value="0.0169546832" flag="0"/>
      <psa30 value="0.0014959243" flag="0"/>
    </comp>
    <comp name="--.HNZ">
      <acc value="0.0422001697" flag="0"/>
      <vel value="0.0168024820" flag="0"/>
      <psa03 value="0.1524699251" flag="0"/>
      <psa10 value="0.0063739120" flag="0"/>
      <psa30 value="0.0006499115" flag="0"/>
    </comp>
  </station>
</stationlist>
