<?xml version="1.0" encoding="UTF-8" standalone="yes"?>
<!DOCTYPE earthquake SYSTEM "stationlist.dtd">
<stationlist created="" xmlns="ch.ethz.sed.shakemap.usgs.xml">
  <station code="KARP" name="KARP" netid="GE" insttype="STS-2/N" lat="35.5471" lon="27.1611">
    <comp name="--.HHE">
      <acc value="0.1080333800" flag="0"/>
      <vel value="0.0474096384" flag="0"/>
      <psa03 value="0.0861587210" flag="0"/>
      <psa10 value="0.1035598659" flag="0"/>
      <psa30 value="0.0037179640" flag="0"/>
    </comp>
    <comp name="--.HHN">
      <acc value="0.0905258632" flag="0"/>
      <vel value="0.0609299945" flag="0"/>
      <psa03 value="0.1215221535" flag="0"/>
      <psa10 value="0.1182122861" flag="0"/>
      <psa30 value="0.0044832146" flag="0"/>
    </comp>
    <comp name="--.HHZ">
      <acc value="0.0641526525" flag="0"/>
      <vel value="0.0461684255" flag="0"/>
      <psa03 value="0.0953739886" flag="0"/>
      <psa10 value="0.0557368681" flag="0"/>
      <psa30 value="0.0026920811" flag="0"/>
    </comp>
  </station>
  <station code="THERA" name="THERA" netid="GE" insttype="STS-2/N" lat="36.367" lon="25.4753">
    <comp name="--.HHE">
      <acc value="0.0206665098" flag="0"/>
      <vel value="0.0118986038" flag="0"/>
      <psa03 value="0.0604089126" flag="0"/>
      <psa10 value="0.0116142398" flag="0"/>
      <psa30 value="0.0014435930" flag="0"/>
    </comp>
    <comp name="--.HHZ">
      <acc value="0.0150233848" flag="0"/>
      <vel value="0.0070532024" flag="0"/>
      <psa03 value="0.0403415621" flag="0"/>
      <psa10 value="0.0083441744" flag="0"/>
      <psa30 value="0.0018384749" flag="0"/>
    </comp>
    <comp name="--.HHN">
      <acc value="0.0144194154" flag="0"/>
      <vel value="0.0098882764" flag="0"/>
      <psa03 value="0.0451416069" flag="0"/>
      <psa10 value="0.0120077902" flag="0"/>
      <psa30 value="0.0007141330" flag="0"/>
    </comp>
  </station>
  <station code="SNT1" name="SNT1" netid="HA" insttype="30" lat="36.4159" lon="25.4282">
    <comp name="--.HHE">
      <acc value="0.0102807412" flag="0"/>
      <vel value="0.0088596947" flag="0"/>
      <psa03 value="0.0213325089" flag="0"/>
      <psa10 value="0.0130399366" flag="0"/>
      <psa30 value="0.0032959254" flag="0"/>
    </comp>
    <comp name="--.HHZ">
      <acc value="0.0070679825" flag="0"/>
      <vel value="0.0055437473" flag="0"/>
      <psa03 value="0.0203960814" flag="0"/>
      <psa10 value="0.0091812550" flag="0"/>
      <psa30 value="0.0010066656" flag="0"/>
    </comp>
    <comp name="--.HHN">
      <acc value="0.0134276927" flag="0"/>
      <vel value="0.0080393396" flag="0"/>
      <psa03 value="0.0233786245" flag="0"/>
      <psa10 value="0.0146287617" flag="0"/>
      <psa30 value="0.0020313067" flag="0"/>
    </comp>
  </station>
  <station code="SNT5" name="SNT5" netid="HA" insttype="1s-100Hz," lat="36.4037" lon="25.3953">
    <comp name="--.HHN">
      <acc value="0.0236317474" flag="0"/>
      <vel value="0.0093722587" flag="0"/>
      <psa03 value="0.0533230801" flag="0"/>
      <psa10 value="0.0116964229" flag="0"/>
      <psa30 value="0.0028339686" flag="0"/>
    </comp>
    <comp name="--.HHE">
      <acc value="0.0389434579" flag="0"/>
      <vel value="0.0185437190" flag="0"/>
      <psa03 value="0.1018058401" flag="0"/>
      <psa10 value="0.0132677406" flag="0"/>
      <psa30 value="0.0051756393" flag="0"/>
    </comp>
    <comp name="--.HHZ">
      <acc value="0.0123857568" flag="0"/>
      <vel value="0.0046413724" flag="0"/>
      <psa03 value="0.0152960092" flag="0"/>
      <psa10 value="0.0072655370" flag="0"/>
      <psa30 value="0.0011976605" flag="0"/>
    </comp>
  </station>
  <station code="ARG" name="ARG" netid="HL" insttype="LE3D20_DR24" lat="36.2136" lon="28.1212">
    <comp name="--.HHE">
      <acc value="0.1323157817" flag="0"/>
      <vel value="0.0910946480" flag="0"/>
      <psa03 value="0.3480795157" flag="0"/>
      <psa10 value="0.0513698262" flag="0"/>
      <psa30 value="0.0083209546" flag="0"/>
    </comp>
    <comp name="--.HHZ">
      <acc value="0.0445514958" flag="0"/>
      <vel value="0.0357731868" flag="0"/>
      <psa03 value="0.1461652978" flag="0"/>
      <psa10 value="0.0438332005" flag="0"/>
      <psa30 value="0.0052476388" flag="0"/>
    </comp>
    <comp name="--.HHN">
      <acc value="0.1048307714" flag="0"/>
      <vel value="0.0514555884" flag="0"/>
      <psa03 value="0.3432506607" flag="0"/>
      <psa10 value="0.0567323985" flag="0"/>
      <psa30 value="0.0032317107" flag="0"/>
    </comp>
  </station>
  <station code="KARP" name="KARP" netid="HL" insttype="120" lat="35.5471" lon="27.1611">
    <comp name="--.HHE">
      <acc value="0.1043459015" flag="0"/>
      <vel value="0.0468751333" flag="0"/>
      <psa03 value="0.0840126820" flag="0"/>
      <psa10 value="0.1029282521" flag="0"/>
      <psa30 value="0.0036920719" flag="0"/>
    </comp>
    <comp name="--.HHN">
      <acc value="0.0845328615" flag="0"/>
      <vel value="0.0604655157" flag="0"/>
      <psa03 value="0.1181825443" flag="0"/>
      <psa10 value="0.1175317111" flag="0"/>
      <psa30 value="0.0044659140" flag="0"/>
    </comp>
    <comp name="--.HHZ">
      <acc value="0.0554818483" flag="0"/>
      <vel value="0.0454783073" flag="0"/>
      <psa03 value="0.0933332219" flag="0"/>
      <psa10 value="0.0554578801" flag="0"/>
      <psa30 value="0.0026805372" flag="0"/>
    </comp>
  </station>
  <station code="KLNA" name="KLNA" netid="HL" insttype="CMG-5" lat="36.9571" lon="26.9727">
    <comp name="00.HNE">
      <acc value="0.1343725610" flag="0"/>
      <vel value="0.0432298555" flag="0"/>
      <psa03 value="0.2891612113" flag="0"/>
      <psa10 value="0.0246897031" flag="0"/>
      <psa30 value="0.0038217796" flag="0"/>
    </comp>
    <comp name="00.HNN">
      <acc value="0.1292634201" flag="0"/>
      <vel value="0.0424124732" flag="0"/>
      <psa03 value="0.2806073264" flag="0"/>
      <psa10 value="0.0205100691" flag="0"/>
      <psa30 value="0.0023485676" flag="0"/>
    </comp>
    <comp name="00.HNZ">
      <acc value="0.1618652957" flag="0"/>
      <vel value="0.0313217964" flag="0"/>
      <psa03 value="0.0995230679" flag="0"/>
      <psa10 value="0.0107020895" flag="0"/>
      <psa30 value="0.0020019005" flag="0"/>
    </comp>
  </station>
  <station code="NISR" name="NISR" netid="HL" insttype="65535" lat="36.6106" lon="27.131">
    <comp name="--.HHE">
      <acc value="3.7783183373" flag="0"/>
      <vel value="1.1611773281" flag="0"/>
      <psa03 value="4.4537749391" flag="0"/>
      <psa10 value="0.4019073608" flag="0"/>
      <psa30 value="0.0283801951" flag="0"/>
    </comp>
    <comp name="--.HHN">
      <acc value="2.3488095171" flag="0"/>
      <vel value="0.6401956527" flag="0"/>
      <psa03 value="1.7192630960" flag="0"/>
      <psa10 value="0.3191565924" flag="0"/>
      <psa30 value="0.0853581723" flag="0"/>
    </comp>
    <comp name="--.HHZ">
      <acc value="1.2702093464" flag="0"/>
      <vel value="0.3593790031" flag="0"/>
      <psa03 value="1.3994735766" flag="0"/>
      <psa10 value="0.3229002995" flag="0"/>
      <psa30 value="0.0122701816" flag="0"/>
    </comp>
  </station>
  <station code="THERA" name="THERA" netid="HL" insttype="120" lat="36.367" lon="25.4753">
    <comp name="--.HHE">
      <acc value="0.0199028987" flag="0"/>
      <vel value="0.0116248342" flag="0"/>
      <psa03 value="0.0586772765" flag="0"/>
      <psa10 value="0.0115574147" flag="0"/>
      <psa30 value="0.0014429320" flag="0"/>
    </comp>
    <comp name="--.HHN">
      <acc value="0.0141194697" flag="0"/>
      <vel value="0.0097087157" flag="0"/>
      <psa03 value="0.0437748395" flag="0"/>
      <psa10 value="0.0119182208" flag="0"/>
      <psa30 value="0.0007120485" flag="0"/>
    </comp>
    <comp name="--.HHZ">
      <acc value="0.0145988618" flag="0"/>
      <vel value="0.0069000758" flag="0"/>
      <psa03 value="0.0391703742" flag="0"/>
      <psa10 value="0.0083066506" flag="0"/>
      <psa30 value="0.0018363937" flag="0"/>
    </comp>
  </station>
  <station code="CMBO" name="CMBO" netid="HT" insttype="120P," lat="36.4709" lon="25.4056">
    <comp name="--.HHN">
      <acc value="0.0979383653" flag="0"/>
      <vel value="0.0751196212" flag="0"/>
      <psa03 value="0.2929488631" flag="0"/>
      <psa10 value="0.0681892623" flag="0"/>
      <psa30 value="0.0055269524" flag="0"/>
    </comp>
    <comp name="--.HHE">
      <acc value="0.1138942711" flag="0"/>
      <vel value="0.0943768856" flag="0"/>
      <psa03 value="0.2845064339" flag="0"/>
      <psa10 value="0.1340012717" flag="0"/>
      <psa30 value="0.0108333134" flag="0"/>
    </comp>
    <comp name="--.HHZ">
      <acc value="0.0896192850" flag="0"/>
      <vel value="0.0354779089" flag="0"/>
      <psa03 value="0.3531342912" flag="0"/>
      <psa10 value="0.0276457654" flag="0"/>
      <psa30 value="0.0034649903" flag="0"/>
    </comp>
  </station>
  <station code="THT1" name="THT1" netid="HT" insttype="30" lat="36.3858" lon="25.4296">
    <comp name="--.HHZ">
      <acc value="0.0131936139" flag="0"/>
      <vel value="0.0045225294" flag="0"/>
      <psa03 value="0.0229438814" flag="0"/>
      <psa10 value="0.0060303220" flag="0"/>
      <psa30 value="0.0015524532" flag="0"/>
    </comp>
    <comp name="--.HHE">
      <acc value="0.0208039768" flag="0"/>
      <vel value="0.0125161668" flag="0"/>
      <psa03 value="0.0319791735" flag="0"/>
      <psa10 value="0.0112522467" flag="0"/>
      <psa30 value="0.0013064463" flag="0"/>
    </comp>
    <comp name="--.HHN">
      <acc value="0.0303498300" flag="0"/>
      <vel value="0.0098467424" flag="0"/>
      <psa03 value="0.0582049059" flag="0"/>
      <psa10 value="0.0081654633" flag="0"/>
      <psa30 value="0.0013280103" flag="0"/>
    </comp>
  </station>
</stationlist>
