<stationlist created="1778136866">
	<station code="KRL1" name="KRL1" netid="HI" source="ITSAK Strong Motion Network" insttype="" lat="37.7951" lon="26.7065">
		<comp name="--.HNE" depth="0.0">
			<acc value="0.0226223268870594" flag="0"/>
			<vel value="0.0191299179539776" flag="0"/>
			<psa03 value="0.0675769297649909" flag="0"/>
			<psa10 value="0.0472523652370938" flag="0"/>
			<psa30 value="0.00271991893128251" flag="0"/>
		</comp>
		<comp name="--.HNN" depth="0.0">
			<acc value="0.0170907168380483" flag="0"/>
			<vel value="0.0182377778530069" flag="0"/>
			<psa03 value="0.0499722531246495" flag="0"/>
			<psa10 value="0.0384540273906048" flag="0"/>
			<psa30 value="0.00298612864970257" flag="0"/>
		</comp>
		<comp name="--.HNZ" depth="0.0">
			<acc value="0.0105534140454391" flag="0"/>
			<vel value="0.0112563996671041" flag="0"/>
			<psa03 value="0.028382080694388" flag="0"/>
			<psa10 value="0.0186807337569229" flag="0"/>
			<psa30 value="0.00201867268549253" flag="0"/>
		</comp>
	</station>
	<station code="KSS1" name="KSS1" netid="HI" source="ITSAK Strong Motion Network" insttype="" lat="35.4189" lon="26.9207">
		<comp name="--.HNE" depth="0.0">
			<acc value="0.0247581170510847" flag="0"/>
			<vel value="0.00951444682154135" flag="0"/>
			<psa03 value="0.0850835999126815" flag="0"/>
			<psa10 value="0.010580116505805" flag="0"/>
			<psa30 value="0.00111023917289686" flag="0"/>
		</comp>
		<comp name="--.HNN" depth="0.0">
			<acc value="0.026474128777161" flag="0"/>
			<vel value="0.0104160413507095" flag="0"/>
			<psa03 value="0.104535747897082" flag="0"/>
			<psa10 value="0.011436587930319" flag="0"/>
			<psa30 value="0.000922475067780638" flag="0"/>
		</comp>
		<comp name="--.HNZ" depth="0.0">
			<acc value="0.0204080863494201" flag="0"/>
			<vel value="0.00777745148651743" flag="0"/>
			<psa03 value="0.0218505672845137" flag="0"/>
			<psa10 value="0.00924360859370543" flag="0"/>
			<psa30 value="0.00105865023454996" flag="0"/>
		</comp>
	</station>
	<station code="NAX1" name="NAX1" netid="HI" source="ITSAK Strong Motion Network" insttype="" lat="37.101394" lon="25.374103">
		<comp name="--.HNE" depth="0.0">
			<acc value="0.00670226884387426" flag="0"/>
			<vel value="0.00509435357989809" flag="0"/>
			<psa03 value="0.0200300834051367" flag="0"/>
			<psa10 value="0.00999488367447495" flag="0"/>
			<psa30 value="0.000950572866618798" flag="0"/>
		</comp>
		<comp name="--.HNN" depth="0.0">
			<acc value="0.0100714938645685" flag="0"/>
			<vel value="0.00826664599349073" flag="0"/>
			<psa03 value="0.0244040854008722" flag="0"/>
			<psa10 value="0.0108668661265643" flag="0"/>
			<psa30 value="0.00142293874187677" flag="0"/>
		</comp>
		<comp name="--.HNZ" depth="0.0">
			<acc value="0.0103395693910959" flag="0"/>
			<vel value="0.00899500769128395" flag="0"/>
			<psa03 value="0.0204929356813959" flag="0"/>
			<psa10 value="0.0148710926368941" flag="0"/>
			<psa30 value="0.0023955134826774" flag="0"/>
		</comp>
	</station>
	<station code="RDI1" name="RDI1" netid="HI" source="ITSAK Strong Motion Network" insttype="" lat="36.4514" lon="28.224">
		<comp name="--.HNE" depth="0.0">
			<acc value="0.0329519168158531" flag="0"/>
			<vel value="0.0393116141363244" flag="0"/>
			<psa03 value="0.0749637055609979" flag="0"/>
			<psa10 value="0.0533212835233647" flag="0"/>
			<psa30 value="0.0167835401605088" flag="0"/>
		</comp>
		<comp name="--.HNN" depth="0.0">
			<acc value="0.031725005043497" flag="0"/>
			<vel value="0.0345514341521433" flag="0"/>
			<psa03 value="0.0649302596445948" flag="0"/>
			<psa10 value="0.0417675256437298" flag="0"/>
			<psa30 value="0.0106627055185884" flag="0"/>
		</comp>
		<comp name="--.HNZ" depth="0.0">
			<acc value="0.0191430191869143" flag="0"/>
			<vel value="0.0200161137074055" flag="0"/>
			<psa03 value="0.0547299641332936" flag="0"/>
			<psa10 value="0.0245537203134801" flag="0"/>
			<psa30 value="0.00580733429074283" flag="0"/>
		</comp>
	</station>
	<station code="SIT2" name="SIT2" netid="HI" source="ITSAK Strong Motion Network" insttype="" lat="35.2059" lon="26.107">
		<comp name="--.HNE" depth="0.0">
			<acc value="0.0471847911086947" flag="0"/>
			<vel value="0.0356711507923749" flag="0"/>
			<psa03 value="0.205246888265561" flag="0"/>
			<psa10 value="0.0365210443399599" flag="0"/>
			<psa30 value="0.00256171699284593" flag="0"/>
		</comp>
		<comp name="--.HNN" depth="0.0">
			<acc value="0.0734965953269613" flag="0"/>
			<vel value="0.0500513473647514" flag="0"/>
			<psa03 value="0.275105036858709" flag="0"/>
			<psa10 value="0.0395398330698787" flag="0"/>
			<psa30 value="0.00198175023956238" flag="0"/>
		</comp>
		<comp name="--.HNZ" depth="0.0">
			<acc value="0.0412547666540073" flag="0"/>
			<vel value="0.0140479340623434" flag="0"/>
			<psa03 value="0.096981289117702" flag="0"/>
			<psa10 value="0.0091710862894503" flag="0"/>
			<psa30 value="0.00117610739051065" flag="0"/>
		</comp>
	</station>
	<station code="AGNA" name="AGNA" netid="HL" source="National Observatory of Athens Seismic Network" insttype="" lat="35.1895" lon="25.71853">
		<comp name="00.HNE" depth="0.0">
			<acc value="0.0162599618197775" flag="0"/>
			<vel value="0.0120820665195344" flag="0"/>
			<psa03 value="0.0364239728052817" flag="0"/>
			<psa10 value="0.0152971752378008" flag="0"/>
			<psa30 value="0.000776139071654179" flag="0"/>
		</comp>
		<comp name="00.HNN" depth="0.0">
			<acc value="0.0175281422939262" flag="0"/>
			<vel value="0.0197763469603303" flag="0"/>
			<psa03 value="0.0454963472431358" flag="0"/>
			<psa10 value="0.0462172816682262" flag="0"/>
			<psa30 value="0.00246236436955416" flag="0"/>
		</comp>
		<comp name="00.HNZ" depth="0.0">
			<acc value="0.00873137623118072" flag="0"/>
			<vel value="0.00490246610121582" flag="0"/>
			<psa03 value="0.0216972224907756" flag="0"/>
			<psa10 value="0.010505407806716" flag="0"/>
			<psa30 value="0.000934296892583779" flag="0"/>
		</comp>
	</station>
	<station code="HERG" name="HERG" netid="HL" source="National Observatory of Athens Seismic Network" insttype="" lat="35.32622" lon="25.06586">
		<comp name="00.HNE" depth="0.0">
			<acc value="0.0216660726934804" flag="0"/>
			<vel value="0.0274492195825328" flag="0"/>
			<psa03 value="0.0540095987040169" flag="0"/>
			<psa10 value="0.0585142412813211" flag="0"/>
			<psa30 value="0.00373038878661458" flag="0"/>
		</comp>
		<comp name="00.HNN" depth="0.0">
			<acc value="0.0198338235544492" flag="0"/>
			<vel value="0.0266028505408062" flag="0"/>
			<psa03 value="0.052755208315126" flag="0"/>
			<psa10 value="0.0574163260498224" flag="0"/>
			<psa30 value="0.00370585341126903" flag="0"/>
		</comp>
		<comp name="00.HNZ" depth="0.0">
			<acc value="0.0158088918673053" flag="0"/>
			<vel value="0.0120243431183299" flag="0"/>
			<psa03 value="0.0323255372415495" flag="0"/>
			<psa10 value="0.0223058195260682" flag="0"/>
			<psa30 value="0.00118066081715098" flag="0"/>
		</comp>
	</station>
	<station code="IACM" name="IACM" netid="HL" source="National Observatory of Athens Seismic Network" insttype="" lat="35.3058" lon="25.0709">
		<comp name="--.HNE" depth="0.0">
			<acc value="0.03317147935457" flag="0"/>
			<vel value="0.0306553908056342" flag="0"/>
			<psa03 value="0.117659919392413" flag="0"/>
			<psa10 value="0.0798225078494769" flag="0"/>
			<psa30 value="0.00239020708949111" flag="0"/>
		</comp>
		<comp name="--.HNN" depth="0.0">
			<acc value="0.0334532381781136" flag="0"/>
			<vel value="0.0274778857954157" flag="0"/>
			<psa03 value="0.124391584081839" flag="0"/>
			<psa10 value="0.0629129601749303" flag="0"/>
			<psa30 value="0.00312153741153258" flag="0"/>
		</comp>
		<comp name="--.HNZ" depth="0.0">
			<acc value="0.0242765194406814" flag="0"/>
			<vel value="0.014221667020713" flag="0"/>
			<psa03 value="0.0596729634574487" flag="0"/>
			<psa10 value="0.0233163427182582" flag="0"/>
			<psa30 value="0.000946469261443914" flag="0"/>
		</comp>
	</station>
	<station code="KARP" name="KARP" netid="HL" source="National Observatory of Athens Seismic Network" insttype="" lat="35.5471" lon="27.16106">
		<comp name="--.HNE" depth="0.0">
			<acc value="0.0917582072249737" flag="0"/>
			<vel value="0.0406444726823131" flag="0"/>
			<psa03 value="0.0716259584101113" flag="0"/>
			<psa10 value="0.081182400435801" flag="0"/>
			<psa30 value="0.00269073720646719" flag="0"/>
		</comp>
		<comp name="--.HNN" depth="0.0">
			<acc value="0.0763324359922667" flag="0"/>
			<vel value="0.052203715478221" flag="0"/>
			<psa03 value="0.105192978935049" flag="0"/>
			<psa10 value="0.109006198625814" flag="0"/>
			<psa30 value="0.00394841239627741" flag="0"/>
		</comp>
		<comp name="--.HNZ" depth="0.0">
			<acc value="0.0452733436850351" flag="0"/>
			<vel value="0.0375966004464697" flag="0"/>
			<psa03 value="0.0751917727525956" flag="0"/>
			<psa10 value="0.0444898084812937" flag="0"/>
			<psa30 value="0.00224448910305321" flag="0"/>
		</comp>
	</station>
	<station code="KLNA" name="KLNA" netid="HL" source="National Observatory of Athens Seismic Network" insttype="" lat="36.95708" lon="26.97274">
		<comp name="00.HNE" depth="0.0">
			<acc value="0.134216002353259" flag="0"/>
			<vel value="0.043448117178612" flag="0"/>
			<psa03 value="0.290671880585548" flag="0"/>
			<psa10 value="0.0247186806162974" flag="0"/>
			<psa30 value="0.00432383684963696" flag="0"/>
		</comp>
		<comp name="00.HNN" depth="0.0">
			<acc value="0.128482638435668" flag="0"/>
			<vel value="0.0431834296221775" flag="0"/>
			<psa03 value="0.282167504712256" flag="0"/>
			<psa10 value="0.0204984060438076" flag="0"/>
			<psa30 value="0.0026832308758759" flag="0"/>
		</comp>
		<comp name="00.HNZ" depth="0.0">
			<acc value="0.16155313329144" flag="0"/>
			<vel value="0.0327911321103226" flag="0"/>
			<psa03 value="0.100185220112395" flag="0"/>
			<psa10 value="0.0107726120701842" flag="0"/>
			<psa30 value="0.00258885774911951" flag="0"/>
		</comp>
	</station>
	<station code="NISR" name="NISR" netid="HL" source="National Observatory of Athens Seismic Network" insttype="" lat="36.6106" lon="27.131">
		<comp name="--.HNE" depth="0.0">
			<acc value="3.24453910688622" flag="0"/>
			<vel value="1.06019624820499" flag="0"/>
			<psa03 value="4.20445152427762" flag="0"/>
			<psa10 value="0.407180673723208" flag="0"/>
			<psa30 value="0.0323555467294956" flag="0"/>
		</comp>
		<comp name="--.HNN" depth="0.0">
			<acc value="2.27336545655922" flag="0"/>
			<vel value="0.526626414694506" flag="0"/>
			<psa03 value="2.09434607348188" flag="0"/>
			<psa10 value="0.233780661821576" flag="0"/>
			<psa30 value="0.0174980741615337" flag="0"/>
		</comp>
		<comp name="--.HNZ" depth="0.0">
			<acc value="1.12037895060017" flag="0"/>
			<vel value="0.30236669282381" flag="0"/>
			<psa03 value="1.22298835030909" flag="0"/>
			<psa10 value="0.338418488563824" flag="0"/>
			<psa30 value="0.0130631328684426" flag="0"/>
		</comp>
	</station>
	<station code="RODB" name="RODB" netid="HL" source="National Observatory of Athens Seismic Network" insttype="" lat="36.4471" lon="28.22116">
		<comp name="00.HNE" depth="0.0">
			<acc value="0.0296401727604987" flag="0"/>
			<vel value="0.0387917235409778" flag="0"/>
			<psa03 value="0.0897287149203656" flag="0"/>
			<psa10 value="0.0392974882657418" flag="0"/>
			<psa30 value="0.0126213786043695" flag="0"/>
		</comp>
		<comp name="00.HNN" depth="0.0">
			<acc value="0.0321480205984593" flag="0"/>
			<vel value="0.0325690675351424" flag="0"/>
			<psa03 value="0.0897274127507903" flag="0"/>
			<psa10 value="0.0485944291424347" flag="0"/>
			<psa30 value="0.0116199380971967" flag="0"/>
		</comp>
		<comp name="00.HNZ" depth="0.0">
			<acc value="0.0198172524573179" flag="0"/>
			<vel value="0.0182133318241781" flag="0"/>
			<psa03 value="0.048668979289376" flag="0"/>
			<psa10 value="0.0350190585907803" flag="0"/>
			<psa30 value="0.00430646028185976" flag="0"/>
		</comp>
	</station>
	<station code="THRA" name="THRA" netid="HL" source="National Observatory of Athens Seismic Network" insttype="" lat="36.41502" lon="25.43244">
		<comp name="00.HNE" depth="0.0">
			<acc value="0.066566950344688" flag="0"/>
			<vel value="0.0406971725483312" flag="0"/>
			<psa03 value="0.246047424434195" flag="0"/>
			<psa10 value="0.0498821857001925" flag="0"/>
			<psa30 value="0.00923215491828829" flag="0"/>
		</comp>
		<comp name="00.HNN" depth="0.0">
			<acc value="0.0721296971758007" flag="0"/>
			<vel value="0.039229419854411" flag="0"/>
			<psa03 value="0.194994729944025" flag="0"/>
			<psa10 value="0.0620683892262246" flag="0"/>
			<psa30 value="0.00681710368298717" flag="0"/>
		</comp>
		<comp name="00.HNZ" depth="0.0">
			<acc value="0.0543489892960876" flag="0"/>
			<vel value="0.0288234470091258" flag="0"/>
			<psa03 value="0.188078355101462" flag="0"/>
			<psa10 value="0.0258665360310685" flag="0"/>
			<psa30 value="0.00291135744647571" flag="0"/>
		</comp>
	</station>
	<station code="TNSA" name="TNSA" netid="HL" source="National Observatory of Athens Seismic Network" insttype="" lat="37.53942" lon="25.1631">
		<comp name="00.HNE" depth="0.0">
			<acc value="0.00927152670422412" flag="0"/>
			<vel value="0.0110273730322481" flag="0"/>
			<psa03 value="0.0348852979589404" flag="0"/>
			<psa10 value="0.0155400113244937" flag="0"/>
			<psa30 value="0.00172231815762445" flag="0"/>
		</comp>
		<comp name="00.HNN" depth="0.0">
			<acc value="0.00950156280989459" flag="0"/>
			<vel value="0.00753478476327025" flag="0"/>
			<psa03 value="0.0204119745889908" flag="0"/>
			<psa10 value="0.0118378870144167" flag="0"/>
			<psa30 value="0.00123121770796612" flag="0"/>
		</comp>
		<comp name="00.HNZ" depth="0.0">
			<acc value="0.0053978793185482" flag="0"/>
			<vel value="0.00575454423929005" flag="0"/>
			<psa03 value="0.014479620662155" flag="0"/>
			<psa10 value="0.00542685465872982" flag="0"/>
			<psa30 value="0.00178057566273437" flag="0"/>
		</comp>
	</station>
</stationlist>
