<?xml version="1.0" encoding="UTF-8" standalone="yes"?>
<!DOCTYPE earthquake SYSTEM "stationlist.dtd">
<stationlist created="" xmlns="ch.ethz.sed.shakemap.usgs.xml">
  <station code="APE" name="APE" netid="GE" insttype="STS-2/N" lat="37.0727" lon="25.523">
    <comp name="--.HHE">
      <acc value="0.0797121690" flag="0"/>
      <vel value="0.0216805900" flag="0"/>
      <psa03 value="0.1330667867" flag="0"/>
      <psa10 value="0.0064280881" flag="0"/>
      <psa30 value="0.0011060811" flag="0"/>
    </comp>
    <comp name="--.HHN">
      <acc value="0.1454699490" flag="0"/>
      <vel value="0.0318070175" flag="0"/>
      <psa03 value="0.0973591212" flag="0"/>
      <psa10 value="0.0078348217" flag="0"/>
      <psa30 value="0.0013763063" flag="0"/>
    </comp>
    <comp name="--.HHZ">
      <acc value="0.0540389065" flag="0"/>
      <vel value="0.0157244391" flag="0"/>
      <psa03 value="0.0583063056" flag="0"/>
      <psa10 value="0.0082719465" flag="0"/>
      <psa30 value="0.0015430717" flag="0"/>
    </comp>
  </station>
  <station code="THERA" name="THERA" netid="GE" insttype="STS-2/N" lat="36.367" lon="25.4753">
    <comp name="--.HHE">
      <acc value="0.4012444684" flag="0"/>
      <vel value="0.0749891189" flag="0"/>
      <psa03 value="0.4522366317" flag="0"/>
      <psa10 value="0.0227259165" flag="0"/>
      <psa30 value="0.0021198871" flag="0"/>
    </comp>
    <comp name="--.HHN">
      <acc value="0.1857982471" flag="0"/>
      <vel value="0.0598514494" flag="0"/>
      <psa03 value="0.1932974704" flag="0"/>
      <psa10 value="0.0126749234" flag="0"/>
      <psa30 value="0.0010268805" flag="0"/>
    </comp>
    <comp name="--.HHZ">
      <acc value="0.2531576204" flag="0"/>
      <vel value="0.0806603323" flag="0"/>
      <psa03 value="0.2974320703" flag="0"/>
      <psa10 value="0.0172167630" flag="0"/>
      <psa30 value="0.0013416371" flag="0"/>
    </comp>
  </station>
  <station code="SNT5" name="SNT5" netid="HA" insttype="1s-100Hz," lat="36.4037" lon="25.3953">
    <comp name="--.HHE">
      <acc value="0.4791938674" flag="0"/>
      <vel value="0.0886100043" flag="0"/>
      <psa03 value="0.3682545807" flag="0"/>
      <psa10 value="0.0201275693" flag="0"/>
      <psa30 value="0.0032973585" flag="0"/>
    </comp>
    <comp name="--.HHZ">
      <acc value="0.2759311091" flag="0"/>
      <vel value="0.0465807678" flag="0"/>
      <psa03 value="0.0987771444" flag="0"/>
      <psa10 value="0.0085046394" flag="0"/>
      <psa30 value="0.0009096206" flag="0"/>
    </comp>
    <comp name="--.HHN">
      <acc value="0.4111938918" flag="0"/>
      <vel value="0.0804883011" flag="0"/>
      <psa03 value="0.2958738123" flag="0"/>
      <psa10 value="0.0138968999" flag="0"/>
      <psa30 value="0.0022289951" flag="0"/>
    </comp>
  </station>
  <station code="APE" name="APE" netid="HL" insttype="120" lat="37.0727" lon="25.523">
    <comp name="--.HHE">
      <acc value="0.0714562127" flag="0"/>
      <vel value="0.0203189654" flag="0"/>
      <psa03 value="0.1301855496" flag="0"/>
      <psa10 value="0.0062723786" flag="0"/>
      <psa30 value="0.0011042828" flag="0"/>
    </comp>
    <comp name="--.HHZ">
      <acc value="0.0433731208" flag="0"/>
      <vel value="0.0153675865" flag="0"/>
      <psa03 value="0.0563927171" flag="0"/>
      <psa10 value="0.0081771356" flag="0"/>
      <psa30 value="0.0015408696" flag="0"/>
    </comp>
    <comp name="--.HHN">
      <acc value="0.1320521413" flag="0"/>
      <vel value="0.0304487803" flag="0"/>
      <psa03 value="0.0944839713" flag="0"/>
      <psa10 value="0.0077705882" flag="0"/>
      <psa30 value="0.0013699184" flag="0"/>
    </comp>
  </station>
  <station code="MHLO" name="MHLO" netid="HL" insttype="20" lat="36.6898" lon="24.4017">
    <comp name="--.HHE">
      <acc value="0.1305046895" flag="0"/>
      <vel value="0.0587876528" flag="0"/>
      <psa03 value="0.2566917354" flag="0"/>
      <psa10 value="0.0458146881" flag="0"/>
      <psa30 value="0.0021859332" flag="0"/>
    </comp>
    <comp name="--.HHN">
      <acc value="0.1157135659" flag="0"/>
      <vel value="0.0582613677" flag="0"/>
      <psa03 value="0.3120062502" flag="0"/>
      <psa10 value="0.0545990293" flag="0"/>
      <psa30 value="0.0019079057" flag="0"/>
    </comp>
    <comp name="--.HHZ">
      <acc value="0.0544470193" flag="0"/>
      <vel value="0.0264057015" flag="0"/>
      <psa03 value="0.1403931067" flag="0"/>
      <psa10 value="0.0333813470" flag="0"/>
      <psa30 value="0.0012446542" flag="0"/>
    </comp>
  </station>
  <station code="SAP3" name="SAP3" netid="HL" insttype="LE3D20_SMART24" lat="36.4356" lon="25.3454">
    <comp name="--.HHE">
      <acc value="0.3328088087" flag="0"/>
      <vel value="0.1027546326" flag="0"/>
      <psa03 value="0.4538513726" flag="0"/>
      <psa10 value="0.0779136943" flag="0"/>
      <psa30 value="0.0042167901" flag="0"/>
    </comp>
    <comp name="--.HHZ">
      <acc value="0.4902724127" flag="0"/>
      <vel value="0.0909626510" flag="0"/>
      <psa03 value="0.4023968813" flag="0"/>
      <psa10 value="0.0233823335" flag="0"/>
      <psa30 value="0.0026089951" flag="0"/>
    </comp>
    <comp name="--.HHN">
      <acc value="0.4841972460" flag="0"/>
      <vel value="0.1223197239" flag="0"/>
      <psa03 value="0.5917484337" flag="0"/>
      <psa10 value="0.0511559880" flag="0"/>
      <psa30 value="0.0041579775" flag="0"/>
    </comp>
  </station>
  <station code="THERA" name="THERA" netid="HL" insttype="120" lat="36.367" lon="25.4753">
    <comp name="--.HHZ">
      <acc value="0.2486079089" flag="0"/>
      <vel value="0.0781229727" flag="0"/>
      <psa03 value="0.2889215239" flag="0"/>
      <psa10 value="0.0169279862" flag="0"/>
      <psa30 value="0.0013370528" flag="0"/>
    </comp>
    <comp name="--.HHN">
      <acc value="0.1787212503" flag="0"/>
      <vel value="0.0585109526" flag="0"/>
      <psa03 value="0.1879730698" flag="0"/>
      <psa10 value="0.0124412452" flag="0"/>
      <psa30 value="0.0009993873" flag="0"/>
    </comp>
    <comp name="--.HHE">
      <acc value="0.3882711716" flag="0"/>
      <vel value="0.0738902082" flag="0"/>
      <psa03 value="0.4402826911" flag="0"/>
      <psa10 value="0.0223945138" flag="0"/>
      <psa30 value="0.0020737764" flag="0"/>
    </comp>
  </station>
  <station code="THRA" name="THRA" netid="HL" insttype="CMG-5" lat="36.415" lon="25.4324">
    <comp name="00.HNE">
      <acc value="0.4489216457" flag="0"/>
      <vel value="0.1204110470" flag="0"/>
      <psa03 value="0.8996269489" flag="0"/>
      <psa10 value="0.0621592987" flag="0"/>
      <psa30 value="0.0066545624" flag="0"/>
    </comp>
    <comp name="00.HNN">
      <acc value="0.4130622670" flag="0"/>
      <vel value="0.1093900442" flag="0"/>
      <psa03 value="0.6604530618" flag="0"/>
      <psa10 value="0.0586493195" flag="0"/>
      <psa30 value="0.0033603819" flag="0"/>
    </comp>
    <comp name="00.HNZ">
      <acc value="0.4199841763" flag="0"/>
      <vel value="0.0990581726" flag="0"/>
      <psa03 value="0.4757878809" flag="0"/>
      <psa10 value="0.0374276551" flag="0"/>
      <psa30 value="0.0033144616" flag="0"/>
    </comp>
  </station>
  <station code="CMBO" name="CMBO" netid="HT" insttype="120P," lat="36.4709" lon="25.4056">
    <comp name="--.HHE">
      <acc value="0.6181156487" flag="0"/>
      <vel value="0.1663575350" flag="0"/>
      <psa03 value="0.8413369821" flag="0"/>
      <psa10 value="0.0714357625" flag="0"/>
      <psa30 value="0.0045383711" flag="0"/>
    </comp>
    <comp name="--.HHZ">
      <acc value="0.6130810257" flag="0"/>
      <vel value="0.1470907799" flag="0"/>
      <psa03 value="0.7140754007" flag="0"/>
      <psa10 value="0.0336837090" flag="0"/>
      <psa30 value="0.0038149405" flag="0"/>
    </comp>
    <comp name="--.HHN">
      <acc value="0.7177299478" flag="0"/>
      <vel value="0.1809962942" flag="0"/>
      <psa03 value="0.6236701055" flag="0"/>
      <psa10 value="0.1101664550" flag="0"/>
      <psa30 value="0.0061413330" flag="0"/>
    </comp>
  </station>
</stationlist>
