<?xml version="1.0" encoding="UTF-8" standalone="yes"?>
<!DOCTYPE earthquake SYSTEM "stationlist.dtd">
<stationlist created="" xmlns="ch.ethz.sed.shakemap.usgs.xml">
  <station code="APE" name="APE" netid="GE" insttype="STS-2/N" lat="37.0727" lon="25.523">
    <comp name="--.HHE">
      <acc value="0.0797121690" flag="0"/>
      <vel value="0.0216805902" flag="0"/>
      <psa03 value="0.1330667867" flag="0"/>
      <psa10 value="0.0064280876" flag="0"/>
      <psa30 value="0.0011060171" flag="0"/>
    </comp>
    <comp name="--.HHN">
      <acc value="0.1454699488" flag="0"/>
      <vel value="0.0318070167" flag="0"/>
      <psa03 value="0.0973591212" flag="0"/>
      <psa10 value="0.0078348218" flag="0"/>
      <psa30 value="0.0013762567" flag="0"/>
    </comp>
    <comp name="--.HHZ">
      <acc value="0.0540389064" flag="0"/>
      <vel value="0.0157244395" flag="0"/>
      <psa03 value="0.0583063056" flag="0"/>
      <psa10 value="0.0082719468" flag="0"/>
      <psa30 value="0.0015430000" flag="0"/>
    </comp>
  </station>
  <station code="THERA" name="THERA" netid="GE" insttype="STS-2/N" lat="36.367" lon="25.4753">
    <comp name="--.HHE">
      <acc value="0.4012444682" flag="0"/>
      <vel value="0.0749891168" flag="0"/>
      <psa03 value="0.4522366317" flag="0"/>
      <psa10 value="0.0227259185" flag="0"/>
      <psa30 value="0.0021194661" flag="0"/>
    </comp>
    <comp name="--.HHZ">
      <acc value="0.2531576202" flag="0"/>
      <vel value="0.0806603330" flag="0"/>
      <psa03 value="0.2974320703" flag="0"/>
      <psa10 value="0.0172167625" flag="0"/>
      <psa30 value="0.0013415757" flag="0"/>
    </comp>
    <comp name="--.HHN">
      <acc value="0.1857982476" flag="0"/>
      <vel value="0.0598514504" flag="0"/>
      <psa03 value="0.1932974704" flag="0"/>
      <psa10 value="0.0126749238" flag="0"/>
      <psa30 value="0.0010268559" flag="0"/>
    </comp>
  </station>
</stationlist>
