<?xml version="1.0" encoding="UTF-8" standalone="yes"?>
<!DOCTYPE earthquake SYSTEM "stationlist.dtd">
<stationlist created="" xmlns="ch.ethz.sed.shakemap.usgs.xml">
  <station code="ARPRA" name="ARPRA" netid="KO" insttype="CMG-5T" lat="39.0929" lon="38.3356">
    <comp name="--.HNN">
      <acc value="0.0376157659" flag="0"/>
      <vel value="0.0134477779" flag="0"/>
      <psa03 value="0.0825550634" flag="0"/>
      <psa10 value="0.0174556593" flag="0"/>
      <psa30 value="0.0014872908" flag="0"/>
    </comp>
    <comp name="--.HNZ">
      <acc value="0.0188974102" flag="0"/>
      <vel value="0.0093621807" flag="0"/>
      <psa03 value="0.0347866322" flag="0"/>
      <psa10 value="0.0194964267" flag="0"/>
      <psa30 value="0.0006615201" flag="0"/>
    </comp>
    <comp name="--.HNE">
      <acc value="0.0396061095" flag="0"/>
      <vel value="0.0176392593" flag="0"/>
      <psa03 value="0.0958536498" flag="0"/>
      <psa10 value="0.0177234402" flag="0"/>
      <psa30 value="0.0018955086" flag="0"/>
    </comp>
  </station>
  <station code="DARE" name="DARE" netid="KO" insttype="CMG-3ESP" lat="38.5712" lon="37.4832">
    <comp name="--.HHZ">
      <acc value="0.0362348633" flag="0"/>
      <vel value="0.0096850953" flag="0"/>
      <psa03 value="0.0551819505" flag="0"/>
      <psa10 value="0.0105725448" flag="0"/>
      <psa30 value="0.0011255104" flag="0"/>
    </comp>
    <comp name="--.HHN">
      <acc value="0.0487396072" flag="0"/>
      <vel value="0.0140380357" flag="0"/>
      <psa03 value="0.0805896394" flag="0"/>
      <psa10 value="0.0141775130" flag="0"/>
      <psa30 value="0.0013227132" flag="0"/>
    </comp>
  </station>
  <station code="GAZ" name="GAZ" netid="KO" insttype="CMG-3T" lat="37.1721" lon="37.2096">
    <comp name="--.HHE">
      <acc value="0.0347752843" flag="0"/>
      <vel value="0.0240307956" flag="0"/>
      <psa03 value="0.1793149309" flag="0"/>
      <psa10 value="0.0264998738" flag="0"/>
      <psa30 value="0.0011110109" flag="0"/>
    </comp>
    <comp name="--.HHN">
      <acc value="0.0231685007" flag="0"/>
      <vel value="0.0167368645" flag="0"/>
      <psa03 value="0.0822729966" flag="0"/>
      <psa10 value="0.0176237897" flag="0"/>
      <psa30 value="0.0014332823" flag="0"/>
    </comp>
    <comp name="--.HHZ">
      <acc value="0.0231313126" flag="0"/>
      <vel value="0.0112097268" flag="0"/>
      <psa03 value="0.0884695728" flag="0"/>
      <psa10 value="0.0100475625" flag="0"/>
      <psa30 value="0.0005681548" flag="0"/>
    </comp>
  </station>
  <station code="KMRS" name="KMRS" netid="KO" insttype="CMG-3T" lat="37.5053" lon="36.9">
    <comp name="--.HHN">
      <acc value="0.0318752644" flag="0"/>
      <vel value="0.0150833320" flag="0"/>
      <psa03 value="0.0788649886" flag="0"/>
      <psa10 value="0.0292566778" flag="0"/>
      <psa30 value="0.0018929069" flag="0"/>
    </comp>
    <comp name="--.HHZ">
      <acc value="0.0128848423" flag="0"/>
      <vel value="0.0084669588" flag="0"/>
      <psa03 value="0.0452470516" flag="0"/>
      <psa10 value="0.0079465640" flag="0"/>
      <psa30 value="0.0009323969" flag="0"/>
    </comp>
  </station>
  <station code="URFA" name="URFA" netid="KO" insttype="CMG-3ESP" lat="37.4409" lon="38.8213">
    <comp name="--.HHE">
      <acc value="0.1386073342" flag="0"/>
      <vel value="0.0576048712" flag="0"/>
      <psa03 value="0.4500627431" flag="0"/>
      <psa10 value="0.0336036004" flag="0"/>
      <psa30 value="0.0024109731" flag="0"/>
    </comp>
    <comp name="--.HHN">
      <acc value="0.1510940153" flag="0"/>
      <vel value="0.0504714922" flag="0"/>
      <psa03 value="0.1263992492" flag="0"/>
      <psa10 value="0.0290889841" flag="0"/>
      <psa30 value="0.0023146141" flag="0"/>
    </comp>
  </station>
</stationlist>
