<stationlist created="1778069655">
	<station code="ARPRA" name="ARPRA" netid="KO" source="Bogazici University Kandilli Observatory And Earthquake Research Institute (KOERI)" insttype="" lat="39.0929" lon="38.3356">
		<comp name="--.HNE" depth="0.0">
			<acc value="0.00591906531870753" flag="0"/>
			<vel value="0.00340021282433459" flag="0"/>
			<psa03 value="0.0155702879031586" flag="0"/>
			<psa10 value="0.0040670665816009" flag="0"/>
			<psa30 value="0.000505586934786471" flag="0"/>
		</comp>
		<comp name="--.HNN" depth="0.0">
			<acc value="0.00770763308530984" flag="0"/>
			<vel value="0.00466847259801126" flag="0"/>
			<psa03 value="0.036062218534327" flag="0"/>
			<psa10 value="0.00606033188644491" flag="0"/>
			<psa30 value="0.000387914931380416" flag="0"/>
		</comp>
		<comp name="--.HNZ" depth="0.0">
			<acc value="0.00591738285352547" flag="0"/>
			<vel value="0.00289585159187575" flag="0"/>
			<psa03 value="0.014988639217121" flag="0"/>
			<psa10 value="0.00485229230775157" flag="0"/>
			<psa30 value="0.000527510616029424" flag="0"/>
		</comp>
	</station>
</stationlist>
