<?xml version="1.0" encoding="UTF-8" standalone="yes"?>
<!DOCTYPE earthquake SYSTEM "stationlist.dtd">
<stationlist created="" xmlns="ch.ethz.sed.shakemap.usgs.xml">
  <station code="AGRP" name="AGRP" netid="CL" source="RESIF" insttype="30" lat="38.3959" lon="21.7228">
    <comp name="00.HHE">
      <acc value="0.0047809366" flag="0"/>
      <vel value="0.0039211927" flag="0"/>
      <psa03 value="0.0112897301" flag="0"/>
      <psa10 value="0.0078803836" flag="0"/>
      <psa30 value="0.0007812590" flag="0"/>
    </comp>
    <comp name="00.HHN">
      <acc value="0.0039349594" flag="0"/>
      <vel value="0.0031223603" flag="0"/>
      <psa03 value="0.0113075613" flag="0"/>
      <psa10 value="0.0054325050" flag="0"/>
      <psa30 value="0.0006457623" flag="0"/>
    </comp>
    <comp name="00.HHZ">
      <acc value="0.0027420244" flag="0"/>
      <vel value="0.0029817053" flag="0"/>
      <psa03 value="0.0073765760" flag="0"/>
      <psa10 value="0.0043268487" flag="0"/>
      <psa30 value="0.0006964459" flag="0"/>
    </comp>
  </station>
  <station code="VLS" name="VLS" netid="HL" source="NOA" insttype="120P," lat="38.1768" lon="20.5886">
    <comp name="--.HHE">
      <acc value="0.1690246861" flag="0"/>
      <vel value="0.0364435489" flag="0"/>
      <psa03 value="0.1842658360" flag="0"/>
      <psa10 value="0.0166589075" flag="0"/>
      <psa30 value="0.0007973291" flag="0"/>
    </comp>
    <comp name="--.HHN">
      <acc value="0.1670831801" flag="0"/>
      <vel value="0.0418682421" flag="0"/>
      <psa03 value="0.2171464483" flag="0"/>
      <psa10 value="0.0282783176" flag="0"/>
      <psa30 value="0.0015815335" flag="0"/>
    </comp>
    <comp name="--.HHZ">
      <acc value="0.0827187088" flag="0"/>
      <vel value="0.0262538212" flag="0"/>
      <psa03 value="0.1250457931" flag="0"/>
      <psa10 value="0.0202023904" flag="0"/>
      <psa30 value="0.0009918084" flag="0"/>
    </comp>
  </station>
  <station code="AMT" name="AMT" netid="HP" source="NOA" insttype="CMG-3T," lat="37.5324" lon="21.7089">
    <comp name="00.HHE">
      <acc value="0.0079905521" flag="0"/>
      <vel value="0.0067704092" flag="0"/>
      <psa03 value="0.0232511029" flag="0"/>
      <psa10 value="0.0117784811" flag="0"/>
      <psa30 value="0.0006331628" flag="0"/>
    </comp>
    <comp name="00.HHN">
      <acc value="0.0095873385" flag="0"/>
      <vel value="0.0062708664" flag="0"/>
      <psa03 value="0.0210732251" flag="0"/>
      <psa10 value="0.0127659895" flag="0"/>
      <psa30 value="0.0011671099" flag="0"/>
    </comp>
    <comp name="00.HHZ">
      <acc value="0.0075314196" flag="0"/>
      <vel value="0.0043511922" flag="0"/>
      <psa03 value="0.0184482901" flag="0"/>
      <psa10 value="0.0062801428" flag="0"/>
      <psa30 value="0.0004561493" flag="0"/>
    </comp>
  </station>
  <station code="FSK" name="FSK" netid="HP" source="NOA" insttype="40," lat="38.4593" lon="20.5623">
    <comp name="--.HHE">
      <acc value="0.0743414594" flag="0"/>
      <vel value="0.0190282857" flag="0"/>
      <psa03 value="0.0780695471" flag="0"/>
      <psa10 value="0.0277869477" flag="0"/>
      <psa30 value="0.0020981857" flag="0"/>
    </comp>
    <comp name="--.HHN">
      <acc value="0.0323169937" flag="0"/>
      <vel value="0.0124877078" flag="0"/>
      <psa03 value="0.0782229324" flag="0"/>
      <psa10 value="0.0201121581" flag="0"/>
      <psa30 value="0.0010718184" flag="0"/>
    </comp>
    <comp name="--.HHZ">
      <acc value="0.0274899830" flag="0"/>
      <vel value="0.0091906394" flag="0"/>
      <psa03 value="0.0398938265" flag="0"/>
      <psa10 value="0.0131672927" flag="0"/>
      <psa30 value="0.0010617556" flag="0"/>
    </comp>
  </station>
  <station code="LTHK" name="LTHK" netid="HP" source="NOA" insttype="40," lat="37.7095" lon="20.8367">
    <comp name="--.HHE">
      <acc value="0.5428203532" flag="0"/>
      <vel value="0.1594079568" flag="0"/>
      <psa03 value="0.6521336581" flag="0"/>
      <psa10 value="0.0558831077" flag="0"/>
      <psa30 value="0.0042370492" flag="0"/>
    </comp>
    <comp name="--.HHN">
      <acc value="0.3646431668" flag="0"/>
      <vel value="0.1187131088" flag="0"/>
      <psa03 value="0.3584629782" flag="0"/>
      <psa10 value="0.0742262544" flag="0"/>
      <psa30 value="0.0056619591" flag="0"/>
    </comp>
    <comp name="--.HHZ">
      <acc value="0.2868382374" flag="0"/>
      <vel value="0.0956592885" flag="0"/>
      <psa03 value="0.3825892249" flag="0"/>
      <psa10 value="0.0433853956" flag="0"/>
      <psa30 value="0.0032568703" flag="0"/>
    </comp>
  </station>
  <station code="DMLN" name="DMLN" netid="HT" source="NOA" insttype="1s-100Hz," lat="38.2385" lon="20.3734">
    <comp name="--.HHE">
      <acc value="0.1548959872" flag="0"/>
      <vel value="0.0654293618" flag="0"/>
      <psa03 value="0.2172667764" flag="0"/>
      <psa10 value="0.0731357200" flag="0"/>
      <psa30 value="0.0038778514" flag="0"/>
    </comp>
    <comp name="--.HHN">
      <acc value="0.1680569416" flag="0"/>
      <vel value="0.0805468736" flag="0"/>
      <psa03 value="0.2713292351" flag="0"/>
      <psa10 value="0.0927561884" flag="0"/>
      <psa30 value="0.0050097738" flag="0"/>
    </comp>
    <comp name="--.HHZ">
      <acc value="0.1187038223" flag="0"/>
      <vel value="0.0305976114" flag="0"/>
      <psa03 value="0.1218391269" flag="0"/>
      <psa10 value="0.0406506940" flag="0"/>
      <psa30 value="0.0016063437" flag="0"/>
    </comp>
  </station>
  <station code="DRAG" name="DRAG" netid="HT" source="NOA" insttype="1s-100Hz," lat="38.6839" lon="20.5746">
    <comp name="--.HHE">
      <acc value="0.0009824321" flag="0"/>
      <vel value="0.0004129887" flag="0"/>
      <psa03 value="0.0027579854" flag="0"/>
      <psa10 value="0.0001908348" flag="0"/>
      <psa30 value="0.0000147431" flag="0"/>
    </comp>
    <comp name="--.HHN">
      <acc value="0.0001951009" flag="0"/>
      <vel value="0.0000690024" flag="0"/>
      <psa03 value="0.0004606048" flag="0"/>
      <psa10 value="0.0000549437" flag="0"/>
      <psa30 value="0.0000040008" flag="0"/>
    </comp>
    <comp name="--.HHZ">
      <acc value="0.0004455386" flag="0"/>
      <vel value="0.0001069799" flag="0"/>
      <psa03 value="0.0007656529" flag="0"/>
      <psa10 value="0.0000559494" flag="0"/>
      <psa30 value="0.0000061937" flag="0"/>
    </comp>
  </station>
  <station code="EVGI" name="EVGI" netid="HT" source="NOA" insttype="30" lat="38.621" lon="20.656">
    <comp name="--.HHE">
      <acc value="0.0519222002" flag="0"/>
      <vel value="0.0127874188" flag="0"/>
      <psa03 value="0.0732750777" flag="0"/>
      <psa10 value="0.0077773908" flag="0"/>
      <psa30 value="0.0010506152" flag="0"/>
    </comp>
    <comp name="--.HHN">
      <acc value="nan" flag="0"/>
      <vel value="-100.0000000000" flag="0"/>
      <psa03 value="0.0000000000" flag="0"/>
      <psa10 value="0.0000000000" flag="0"/>
      <psa30 value="0.0000000000" flag="0"/>
    </comp>
    <comp name="--.HHZ">
      <acc value="0.0373198250" flag="0"/>
      <vel value="0.0114324683" flag="0"/>
      <psa03 value="0.0823416068" flag="0"/>
      <psa10 value="0.0070148982" flag="0"/>
      <psa30 value="0.0006236821" flag="0"/>
    </comp>
  </station>
  <station code="NYDR" name="NYDR" netid="HT" source="NOA" insttype="1s-100Hz," lat="38.7135" lon="20.6983">
    <comp name="--.HHE">
      <acc value="0.0169272036" flag="0"/>
      <vel value="0.0097423424" flag="0"/>
      <psa03 value="0.0345459567" flag="0"/>
      <psa10 value="0.0104660241" flag="0"/>
      <psa30 value="0.0008934967" flag="0"/>
    </comp>
    <comp name="--.HHN">
      <acc value="0.0198824333" flag="0"/>
      <vel value="0.0074936277" flag="0"/>
      <psa03 value="0.0341412232" flag="0"/>
      <psa10 value="0.0074777779" flag="0"/>
      <psa30 value="0.0006826453" flag="0"/>
    </comp>
    <comp name="--.HHZ">
      <acc value="0.0092743005" flag="0"/>
      <vel value="0.0050231462" flag="0"/>
      <psa03 value="0.0276047622" flag="0"/>
      <psa10 value="0.0102045946" flag="0"/>
      <psa30 value="0.0005381343" flag="0"/>
    </comp>
  </station>
  <station code="TSLK" name="TSLK" netid="HT" source="NOA" insttype="1s-100Hz," lat="38.8249" lon="20.6554">
    <comp name="--.HHE">
      <acc value="0.0186282230" flag="0"/>
      <vel value="0.0135712411" flag="0"/>
      <psa03 value="0.0610545566" flag="0"/>
      <psa10 value="0.0179841254" flag="0"/>
      <psa30 value="0.0013888495" flag="0"/>
    </comp>
    <comp name="--.HHN">
      <acc value="0.0187182126" flag="0"/>
      <vel value="0.0140414289" flag="0"/>
      <psa03 value="0.0563100158" flag="0"/>
      <psa10 value="0.0284974069" flag="0"/>
      <psa30 value="0.0018039504" flag="0"/>
    </comp>
    <comp name="--.HHZ">
      <acc value="0.0108747531" flag="0"/>
      <vel value="0.0063606456" flag="0"/>
      <psa03 value="0.0381185044" flag="0"/>
      <psa10 value="0.0065869302" flag="0"/>
      <psa30 value="0.0011070007" flag="0"/>
    </comp>
  </station>
</stationlist>
