<stationlist xmlns:esm="https://esm-db.eu/esmws/shakemap/1/" created="1783994082">
	<station code="ARG2" name="ARG2" netid="HI" source="ITSAK Strong Motion Network" insttype="" lat="38.1783" lon="20.4878" esm:processing="manual (Paolucci et al 2011)" esm:quality="good">
		<comp name="--.HNE" depth="0.0">
			<acc value="0.187590125057102" flag="0"/>
			<vel value="0.0692000934338169" flag="0"/>
			<psa03 value="0.427467042030968" flag="0"/>
			<psa10 value="0.0287553687714971" flag="0"/>
			<psa30 value="0.00237491632729786" flag="0"/>
		</comp>
		<comp name="--.HNN" depth="0.0">
			<acc value="0.231740104017746" flag="0"/>
			<vel value="0.0470007166315808" flag="0"/>
			<psa03 value="0.224740103843579" flag="0"/>
			<psa10 value="0.0244346138783706" flag="0"/>
			<psa30 value="0.00178789857646614" flag="0"/>
		</comp>
		<comp name="--.HNZ" depth="0.0">
			<acc value="0.0981533538671815" flag="0"/>
			<vel value="0.025644240154499" flag="0"/>
			<psa03 value="0.207827549741872" flag="0"/>
			<psa10 value="0.0189541409896985" flag="0"/>
			<psa30 value="0.00152884120014635" flag="0"/>
		</comp>
	</station>
	<station code="ART2" name="ART2" netid="HI" source="ITSAK Strong Motion Network" insttype="" lat="39.1474" lon="20.9937" esm:processing="manual (Paolucci et al 2011)" esm:quality="bad">
		<comp name="--.HNE" depth="0.0">
			<acc value="0.00343854828923648" flag="0"/>
			<vel value="0.003565417384375" flag="0"/>
			<psa03 value="0.0100526001802002" flag="0"/>
			<psa10 value="0.00496324800958313" flag="0"/>
			<psa30 value="0.000359837535387575" flag="0"/>
		</comp>
		<comp name="--.HNN" depth="0.0">
			<acc value="0.00370590076145082" flag="0"/>
			<vel value="0.00296277639168844" flag="0"/>
			<psa03 value="0.0066594600367399" flag="0"/>
			<psa10 value="0.00531329010438215" flag="0"/>
			<psa30 value="0.000366902248181786" flag="0"/>
		</comp>
		<comp name="--.HNZ" depth="0.0">
			<acc value="0.0017428192975675" flag="0"/>
			<vel value="0.00171256962683118" flag="0"/>
			<psa03 value="0.00462268350874936" flag="0"/>
			<psa10 value="0.00270502911677667" flag="0"/>
			<psa30 value="0.000347321628144757" flag="0"/>
		</comp>
	</station>
	<station code="KLV1" name="KLV1" netid="HI" source="ITSAK Strong Motion Network" insttype="" lat="38.03256" lon="22.10797" esm:processing="manual (Paolucci et al 2011)" esm:quality="best">
		<comp name="--.HNE" depth="0.0">
			<acc value="0.0041653935516441" flag="0"/>
			<vel value="0.00473307379086089" flag="0"/>
			<psa03 value="0.015945578451729" flag="0"/>
			<psa10 value="0.00638096380130329" flag="0"/>
			<psa30 value="0.000796882633314419" flag="0"/>
		</comp>
		<comp name="--.HNN" depth="0.0">
			<acc value="0.00454693640841261" flag="0"/>
			<vel value="0.00338484388821717" flag="0"/>
			<psa03 value="0.0118230410309469" flag="0"/>
			<psa10 value="0.00614608152273922" flag="0"/>
			<psa30 value="0.000354636565848896" flag="0"/>
		</comp>
		<comp name="--.HNZ" depth="0.0">
			<acc value="0.00207221112574496" flag="0"/>
			<vel value="0.00274718541434648" flag="0"/>
			<psa03 value="0.0049545619393689" flag="0"/>
			<psa10 value="0.00383652641666971" flag="0"/>
			<psa30 value="0.000411903536587725" flag="0"/>
		</comp>
	</station>
	<station code="KRI1" name="KRI1" netid="HI" source="ITSAK Strong Motion Network" insttype="" lat="37.6621" lon="20.8172" esm:processing="manual (Paolucci et al 2011)" esm:quality="good">
		<comp name="--.HNE" depth="0.0">
			<acc value="0.266702285138303" flag="0"/>
			<vel value="0.14456884105612" flag="0"/>
			<psa03 value="0.98687885137922" flag="0"/>
			<psa10 value="0.0656569511019829" flag="0"/>
			<psa30 value="0.00590910322807515" flag="0"/>
		</comp>
		<comp name="--.HNN" depth="0.0">
			<acc value="0.308629206199012" flag="0"/>
			<vel value="0.13998554751724" flag="0"/>
			<psa03 value="1.05573710736474" flag="0"/>
			<psa10 value="0.0827426575433023" flag="0"/>
			<psa30 value="0.00732832602200673" flag="0"/>
		</comp>
		<comp name="--.HNZ" depth="0.0">
			<acc value="0.130561654360935" flag="0"/>
			<vel value="0.0529010455727305" flag="0"/>
			<psa03 value="0.403529961490193" flag="0"/>
			<psa10 value="0.0230856363488297" flag="0"/>
			<psa30 value="0.00292345578043788" flag="0"/>
		</comp>
	</station>
	<station code="KRK1" name="KRK1" netid="HI" source="ITSAK Strong Motion Network" insttype="" lat="39.618861" lon="19.9202" esm:processing="manual (Paolucci et al 2011)" esm:quality="good">
		<comp name="--.HNE" depth="0.0">
			<acc value="0.00951878711709912" flag="0"/>
			<vel value="0.00555147511207493" flag="0"/>
			<psa03 value="0.0220004157529221" flag="0"/>
			<psa10 value="0.00553316107600285" flag="0"/>
			<psa30 value="0.000329342051669759" flag="0"/>
		</comp>
		<comp name="--.HNN" depth="0.0">
			<acc value="0.0112897568175629" flag="0"/>
			<vel value="0.00616639471103647" flag="0"/>
			<psa03 value="0.0262484237250662" flag="0"/>
			<psa10 value="0.00542918637569153" flag="0"/>
			<psa30 value="0.000426567190274329" flag="0"/>
		</comp>
		<comp name="--.HNZ" depth="0.0">
			<acc value="0.00388269101200443" flag="0"/>
			<vel value="0.00222243128993253" flag="0"/>
			<psa03 value="0.0123515760437787" flag="0"/>
			<psa10 value="0.00164194548957965" flag="0"/>
			<psa30 value="0.000271276199883767" flag="0"/>
		</comp>
	</station>
	<station code="MSL1" name="MSL1" netid="HI" source="ITSAK Strong Motion Network" insttype="" lat="38.3727" lon="21.4243" esm:processing="manual (Paolucci et al 2011)" esm:quality="best">
		<comp name="--.HNE" depth="0.0">
			<acc value="0.0206181845118727" flag="0"/>
			<vel value="0.0230245560139432" flag="0"/>
			<psa03 value="0.076770434623075" flag="0"/>
			<psa10 value="0.046617403174188" flag="0"/>
			<psa30 value="0.00249024100791109" flag="0"/>
		</comp>
		<comp name="--.HNN" depth="0.0">
			<acc value="0.0284277091849822" flag="0"/>
			<vel value="0.0217977191510976" flag="0"/>
			<psa03 value="0.0689646675289746" flag="0"/>
			<psa10 value="0.0569786383049995" flag="0"/>
			<psa30 value="0.00284889164175849" flag="0"/>
		</comp>
		<comp name="--.HNZ" depth="0.0">
			<acc value="0.0100057208699999" flag="0"/>
			<vel value="0.00915989781772616" flag="0"/>
			<psa03 value="0.0244365380715517" flag="0"/>
			<psa10 value="0.0226370377176581" flag="0"/>
			<psa30 value="0.000807844036536084" flag="0"/>
		</comp>
	</station>
	<station code="ARTB" name="ARTB" netid="HL" source="National Observatory of Athens Seismic Network" insttype="" lat="39.15702" lon="20.9785" esm:processing="automatic (Paolucci et al 2011)" esm:quality="good">
		<comp name="00.HNE" depth="0.0">
			<acc value="0.0126409629139808" flag="0"/>
			<vel value="0.0064945283176606" flag="0"/>
			<psa03 value="0.0429495613434768" flag="0"/>
			<psa10 value="0.00677757507484953" flag="0"/>
			<psa30 value="0.000495156082910414" flag="0"/>
		</comp>
		<comp name="00.HNN" depth="0.0">
			<acc value="0.00674897446471178" flag="0"/>
			<vel value="0.00319898863780811" flag="0"/>
			<psa03 value="0.019808584356898" flag="0"/>
			<psa10 value="0.00302460677160484" flag="0"/>
			<psa30 value="0.000524766117348527" flag="0"/>
		</comp>
		<comp name="00.HNZ" depth="0.0">
			<acc value="0.00732861999810803" flag="0"/>
			<vel value="0.00180686553993892" flag="0"/>
			<psa03 value="0.00901687401637873" flag="0"/>
			<psa10 value="0.00311137134745717" flag="0"/>
			<psa30 value="0.000449381956848368" flag="0"/>
		</comp>
	</station>
	<station code="LXRA" name="LXRA" netid="HL" source="National Observatory of Athens Seismic Network" insttype="" lat="38.20006" lon="20.43718" esm:processing="manual (Paolucci et al 2011)" esm:quality="best">
		<comp name="00.HNE" depth="0.0">
			<acc value="0.138749027059256" flag="0"/>
			<vel value="0.0681209256061415" flag="0"/>
			<psa03 value="0.276104157041355" flag="0"/>
			<psa10 value="0.0905425664230656" flag="0"/>
			<psa30 value="0.00447466808389336" flag="0"/>
		</comp>
		<comp name="00.HNN" depth="0.0">
			<acc value="0.193254793366356" flag="0"/>
			<vel value="0.0820844924668203" flag="0"/>
			<psa03 value="0.378698036817052" flag="0"/>
			<psa10 value="0.077366881418117" flag="0"/>
			<psa30 value="0.00582096108103715" flag="0"/>
		</comp>
		<comp name="00.HNZ" depth="0.0">
			<acc value="0.116841543153635" flag="0"/>
			<vel value="0.033231251593137" flag="0"/>
			<psa03 value="0.166351524206734" flag="0"/>
			<psa10 value="0.0244869622601139" flag="0"/>
			<psa30 value="0.00264560667733841" flag="0"/>
		</comp>
	</station>
	<station code="PRGA" name="PRGA" netid="HL" source="National Observatory of Athens Seismic Network" insttype="" lat="39.28557" lon="20.40157" esm:processing="manual (Paolucci et al 2011)" esm:quality="good">
		<comp name="00.HNE" depth="0.0">
			<acc value="0.0243463532023998" flag="0"/>
			<vel value="0.0129826591390093" flag="0"/>
			<psa03 value="0.0742485540189774" flag="0"/>
			<psa10 value="0.00894211393366248" flag="0"/>
			<psa30 value="0.000831119015889215" flag="0"/>
		</comp>
		<comp name="00.HNN" depth="0.0">
			<acc value="0.0185008475316871" flag="0"/>
			<vel value="0.0111597275364464" flag="0"/>
			<psa03 value="0.0454961128525265" flag="0"/>
			<psa10 value="0.013874255038805" flag="0"/>
			<psa30 value="0.000917226907614446" flag="0"/>
		</comp>
		<comp name="00.HNZ" depth="0.0">
			<acc value="0.00554018696568853" flag="0"/>
			<vel value="0.00276222898613962" flag="0"/>
			<psa03 value="0.0139069590282005" flag="0"/>
			<psa10 value="0.0036242780593844" flag="0"/>
			<psa30 value="0.000326357270609166" flag="0"/>
		</comp>
	</station>
	<station code="SMHA" name="SMHA" netid="HL" source="National Observatory of Athens Seismic Network" insttype="" lat="38.25123" lon="20.6477" esm:processing="automatic (Paolucci et al 2011)" esm:quality="best">
		<comp name="00.HNE" depth="0.0">
			<acc value="0.148284885809143" flag="0"/>
			<vel value="0.105871097606987" flag="0"/>
			<psa03 value="0.677762898467612" flag="0"/>
			<psa10 value="0.07084453310274" flag="0"/>
			<psa30 value="0.00515474689333731" flag="0"/>
		</comp>
		<comp name="00.HNN" depth="0.0">
			<acc value="0.207759968884778" flag="0"/>
			<vel value="0.0734539036583263" flag="0"/>
			<psa03 value="0.857715152754094" flag="0"/>
			<psa10 value="0.0530086740643299" flag="0"/>
			<psa30 value="0.00285400760566159" flag="0"/>
		</comp>
		<comp name="00.HNZ" depth="0.0">
			<acc value="0.139464482491" flag="0"/>
			<vel value="0.0491648952003373" flag="0"/>
			<psa03 value="0.215602136750113" flag="0"/>
			<psa10 value="0.0334493696065918" flag="0"/>
			<psa30 value="0.00179451596120962" flag="0"/>
		</comp>
	</station>
	<station code="ZARA" name="ZARA" netid="HL" source="National Observatory of Athens Seismic Network" insttype="" lat="37.4865" lon="21.6491" esm:processing="manual (Paolucci et al 2011)" esm:quality="good">
		<comp name="00.HNE" depth="0.0">
			<acc value="0.0145351275406505" flag="0"/>
			<vel value="0.0111039765809533" flag="0"/>
			<psa03 value="0.0370165745622301" flag="0"/>
			<psa10 value="0.0161603286674634" flag="0"/>
			<psa30 value="0.0028454816241927" flag="0"/>
		</comp>
		<comp name="00.HNN" depth="0.0">
			<acc value="0.0123684812153401" flag="0"/>
			<vel value="0.00779708933464211" flag="0"/>
			<psa03 value="0.0374520851835048" flag="0"/>
			<psa10 value="0.0101662419011326" flag="0"/>
			<psa30 value="0.00169364948763322" flag="0"/>
		</comp>
		<comp name="00.HNZ" depth="0.0">
			<acc value="0.00568805293346086" flag="0"/>
			<vel value="0.0046879952360756" flag="0"/>
			<psa03 value="0.0156444178763222" flag="0"/>
			<psa10 value="0.007400839644305" flag="0"/>
			<psa30 value="0.000720468821273531" flag="0"/>
		</comp>
	</station>
	<station code="ANX" name="ANX" netid="HP" source="University of Patras, Seismological Laboratory (PSLNET)" insttype="" lat="38.5933" lon="21.9209" esm:processing="automatic (Paolucci et al 2011)" esm:quality="best">
		<comp name="--.HNE" depth="0.0">
			<acc value="0.00953704512007532" flag="0"/>
			<vel value="0.00859671894496503" flag="0"/>
			<psa03 value="0.0229179661194467" flag="0"/>
			<psa10 value="0.0166720500664817" flag="0"/>
			<psa30 value="0.000660952847383207" flag="0"/>
		</comp>
		<comp name="--.HNN" depth="0.0">
			<acc value="0.00870889122304704" flag="0"/>
			<vel value="0.00707248766205691" flag="0"/>
			<psa03 value="0.0194651774933051" flag="0"/>
			<psa10 value="0.0111326087306784" flag="0"/>
			<psa30 value="0.000937191042639459" flag="0"/>
		</comp>
		<comp name="--.HNZ" depth="0.0">
			<acc value="0.00356723250309885" flag="0"/>
			<vel value="0.0028595112442045" flag="0"/>
			<psa03 value="0.00965077017553982" flag="0"/>
			<psa10 value="0.00645883536614102" flag="0"/>
			<psa30 value="0.000510994267527345" flag="0"/>
		</comp>
	</station>
	<station code="FSK" name="FSK" netid="HP" source="University of Patras, Seismological Laboratory (PSLNET)" insttype="" lat="38.4593" lon="20.5623" esm:processing="manual (Paolucci et al 2011)" esm:quality="good">
		<comp name="--.HNE" depth="0.0">
			<acc value="0.0820330728839978" flag="0"/>
			<vel value="0.021614990636618" flag="0"/>
			<psa03 value="0.0866459117414168" flag="0"/>
			<psa10 value="0.0278269934017451" flag="0"/>
			<psa30 value="0.00202176059838402" flag="0"/>
		</comp>
		<comp name="--.HNN" depth="0.0">
			<acc value="0.0260499879006463" flag="0"/>
			<vel value="0.0144888058319024" flag="0"/>
			<psa03 value="0.073508103926126" flag="0"/>
			<psa10 value="0.0192756844194926" flag="0"/>
			<psa30 value="0.00129977954151564" flag="0"/>
		</comp>
		<comp name="--.HNZ" depth="0.0">
			<acc value="0.0277256850221256" flag="0"/>
			<vel value="0.00974183067437959" flag="0"/>
			<psa03 value="0.0400187161477098" flag="0"/>
			<psa10 value="0.0131181543258435" flag="0"/>
			<psa30 value="0.00116511853755167" flag="0"/>
		</comp>
	</station>
	<station code="ARS1" name="ARS1" netid="HI" source="ITSAK Strong Motion Network" insttype="" lat="37.6349" lon="22.7293" esm:processing="discarded" esm:quality="bad">
		<comp name="--.HNE" depth="0.0">
			<acc value="0" flag="1"/>
			<vel value="0" flag="1"/>
			<psa03 value="0" flag="1"/>
			<psa10 value="0" flag="1"/>
			<psa30 value="0" flag="1"/>
		</comp>
		<comp name="--.HNN" depth="0.0">
			<acc value="0" flag="1"/>
			<vel value="0" flag="1"/>
			<psa03 value="0" flag="1"/>
			<psa10 value="0" flag="1"/>
			<psa30 value="0" flag="1"/>
		</comp>
		<comp name="--.HNZ" depth="0.0">
			<acc value="0" flag="1"/>
			<vel value="0" flag="1"/>
			<psa03 value="0" flag="1"/>
			<psa10 value="0" flag="1"/>
			<psa30 value="0" flag="1"/>
		</comp>
	</station>
	<station code="LAM2" name="LAM2" netid="HI" source="ITSAK Strong Motion Network" insttype="" lat="38.90203" lon="22.431301" esm:processing="discarded" esm:quality="bad">
		<comp name="--.HNE" depth="0.0">
			<acc value="0" flag="1"/>
			<vel value="0" flag="1"/>
			<psa03 value="0" flag="1"/>
			<psa10 value="0" flag="1"/>
			<psa30 value="0" flag="1"/>
		</comp>
		<comp name="--.HNN" depth="0.0">
			<acc value="0" flag="1"/>
			<vel value="0" flag="1"/>
			<psa03 value="0" flag="1"/>
			<psa10 value="0" flag="1"/>
			<psa30 value="0" flag="1"/>
		</comp>
		<comp name="--.HNZ" depth="0.0">
			<acc value="0" flag="1"/>
			<vel value="0" flag="1"/>
			<psa03 value="0" flag="1"/>
			<psa10 value="0" flag="1"/>
			<psa30 value="0" flag="1"/>
		</comp>
	</station>
	<station code="PYL1" name="PYL1" netid="HI" source="ITSAK Strong Motion Network" insttype="" lat="36.914188" lon="21.695161" esm:processing="discarded" esm:quality="good">
		<comp name="--.HNE" depth="0.0">
			<acc value="0" flag="1"/>
			<vel value="0" flag="1"/>
			<psa03 value="0" flag="1"/>
			<psa10 value="0" flag="1"/>
			<psa30 value="0" flag="1"/>
		</comp>
		<comp name="--.HNN" depth="0.0">
			<acc value="0" flag="1"/>
			<vel value="0" flag="1"/>
			<psa03 value="0" flag="1"/>
			<psa10 value="0" flag="1"/>
			<psa30 value="0" flag="1"/>
		</comp>
		<comp name="--.HNZ" depth="0.0">
			<acc value="0" flag="1"/>
			<vel value="0" flag="1"/>
			<psa03 value="0" flag="1"/>
			<psa10 value="0" flag="1"/>
			<psa30 value="0" flag="1"/>
		</comp>
	</station>
	<station code="DLFA" name="DLFA" netid="HL" source="National Observatory of Athens Seismic Network" insttype="" lat="38.47836" lon="22.49583" esm:processing="discarded" esm:quality="bad">
		<comp name="00.HNE" depth="0.0">
			<acc value="0" flag="1"/>
			<vel value="0" flag="1"/>
			<psa03 value="0" flag="1"/>
			<psa10 value="0" flag="1"/>
			<psa30 value="0" flag="1"/>
		</comp>
		<comp name="00.HNN" depth="0.0">
			<acc value="0" flag="1"/>
			<vel value="0" flag="1"/>
			<psa03 value="0" flag="1"/>
			<psa10 value="0" flag="1"/>
			<psa30 value="0" flag="1"/>
		</comp>
		<comp name="00.HNZ" depth="0.0">
			<acc value="0" flag="1"/>
			<vel value="0" flag="1"/>
			<psa03 value="0" flag="1"/>
			<psa10 value="0" flag="1"/>
			<psa30 value="0" flag="1"/>
		</comp>
	</station>
	<station code="ITM" name="ITM" netid="HL" source="National Observatory of Athens Seismic Network" insttype="" lat="37.17872" lon="21.92522" esm:processing="discarded" esm:quality="bad">
		<comp name="--.HNE" depth="0.0">
			<acc value="0" flag="1"/>
			<vel value="0" flag="1"/>
			<psa03 value="0" flag="1"/>
			<psa10 value="0" flag="1"/>
			<psa30 value="0" flag="1"/>
		</comp>
		<comp name="--.HNN" depth="0.0">
			<acc value="0" flag="1"/>
			<vel value="0" flag="1"/>
			<psa03 value="0" flag="1"/>
			<psa10 value="0" flag="1"/>
			<psa30 value="0" flag="1"/>
		</comp>
		<comp name="--.HNZ" depth="0.0">
			<acc value="0" flag="1"/>
			<vel value="0" flag="1"/>
			<psa03 value="0" flag="1"/>
			<psa10 value="0" flag="1"/>
			<psa30 value="0" flag="1"/>
		</comp>
	</station>
	<station code="JAN" name="JAN" netid="HL" source="National Observatory of Athens Seismic Network" insttype="" lat="39.65616" lon="20.84874" esm:processing="discarded" esm:quality="bad">
		<comp name="00.HNE" depth="0.0">
			<acc value="0" flag="1"/>
			<vel value="0" flag="1"/>
			<psa03 value="0" flag="1"/>
			<psa10 value="0" flag="1"/>
			<psa30 value="0" flag="1"/>
		</comp>
		<comp name="00.HNN" depth="0.0">
			<acc value="0" flag="1"/>
			<vel value="0" flag="1"/>
			<psa03 value="0" flag="1"/>
			<psa10 value="0" flag="1"/>
			<psa30 value="0" flag="1"/>
		</comp>
		<comp name="00.HNZ" depth="0.0">
			<acc value="0" flag="1"/>
			<vel value="0" flag="1"/>
			<psa03 value="0" flag="1"/>
			<psa10 value="0" flag="1"/>
			<psa30 value="0" flag="1"/>
		</comp>
	</station>
	<station code="KIAA" name="KIAA" netid="HL" source="National Observatory of Athens Seismic Network" insttype="" lat="38.0139" lon="22.7495" esm:processing="automatic (Paolucci et al 2011)" esm:quality="bad">
		<comp name="00.HNE" depth="0.0">
			<acc value="0" flag="1"/>
			<vel value="0" flag="1"/>
			<psa03 value="0" flag="1"/>
			<psa10 value="0" flag="1"/>
			<psa30 value="0" flag="1"/>
		</comp>
		<comp name="00.HNN" depth="0.0">
			<acc value="0" flag="1"/>
			<vel value="0" flag="1"/>
			<psa03 value="0" flag="1"/>
			<psa10 value="0" flag="1"/>
			<psa30 value="0" flag="1"/>
		</comp>
		<comp name="00.HNZ" depth="0.0">
			<acc value="0" flag="1"/>
			<vel value="0" flag="1"/>
			<psa03 value="0" flag="1"/>
			<psa10 value="0" flag="1"/>
			<psa30 value="0" flag="1"/>
		</comp>
	</station>
	<station code="PATC" name="PATC" netid="HL" source="National Observatory of Athens Seismic Network" insttype="" lat="38.26933" lon="21.76001" esm:processing="discarded" esm:quality="good">
		<comp name="00.HNE" depth="0.0">
			<acc value="0" flag="1"/>
			<vel value="0" flag="1"/>
			<psa03 value="0" flag="1"/>
			<psa10 value="0" flag="1"/>
			<psa30 value="0" flag="1"/>
		</comp>
		<comp name="00.HNN" depth="0.0">
			<acc value="0" flag="1"/>
			<vel value="0" flag="1"/>
			<psa03 value="0" flag="1"/>
			<psa10 value="0" flag="1"/>
			<psa30 value="0" flag="1"/>
		</comp>
		<comp name="00.HNZ" depth="0.0">
			<acc value="0" flag="1"/>
