<?xml version="1.0" encoding="UTF-8" standalone="yes"?>
<!DOCTYPE earthquake SYSTEM "stationlist.dtd">
<stationlist created="" xmlns="ch.ethz.sed.shakemap.usgs.xml">
  <station code="BNN" name="BNN" netid="KO" insttype="CMG-3T" lat="38.8521" lon="35.8472">
    <comp name="--.HHE">
      <acc value="0.0067702353" flag="0"/>
      <vel value="0.0041513825" flag="0"/>
      <psa03 value="0.0134596708" flag="0"/>
      <psa10 value="0.0058355347" flag="0"/>
      <psa30 value="0.0002588136" flag="0"/>
    </comp>
    <comp name="--.HHN">
      <acc value="0.0043459262" flag="0"/>
      <vel value="0.0027120053" flag="0"/>
      <psa03 value="0.0112370668" flag="0"/>
      <psa10 value="0.0035925639" flag="0"/>
      <psa30 value="0.0004420287" flag="0"/>
    </comp>
    <comp name="--.HHZ">
      <acc value="0.0031680683" flag="0"/>
      <vel value="0.0018817166" flag="0"/>
      <psa03 value="0.0077752491" flag="0"/>
      <psa10 value="0.0027924963" flag="0"/>
      <psa30 value="0.0005081919" flag="0"/>
    </comp>
  </station>
  <station code="DARE" name="DARE" netid="KO" insttype="CMG-3ESP" lat="38.5712" lon="37.4832">
    <comp name="--.HHE">
      <acc value="0.0094142305" flag="0"/>
      <vel value="0.0034452188" flag="0"/>
      <psa03 value="0.0190177133" flag="0"/>
      <psa10 value="0.0048107930" flag="0"/>
      <psa30 value="0.0003864025" flag="0"/>
    </comp>
    <comp name="--.HHN">
      <acc value="0.0076538877" flag="0"/>
      <vel value="0.0031148012" flag="0"/>
      <psa03 value="0.0144745450" flag="0"/>
      <psa10 value="0.0031683816" flag="0"/>
      <psa30 value="0.0001978411" flag="0"/>
    </comp>
    <comp name="--.HHZ">
      <acc value="0.0065834750" flag="0"/>
      <vel value="0.0026833327" flag="0"/>
      <psa03 value="0.0156420596" flag="0"/>
      <psa10 value="0.0038942538" flag="0"/>
      <psa30 value="0.0004304540" flag="0"/>
    </comp>
  </station>
  <station code="GAZ" name="GAZ" netid="KO" insttype="CMG-3T" lat="37.1721" lon="37.2096">
    <comp name="--.HHN">
      <acc value="0.0178188565" flag="0"/>
      <vel value="0.0083625174" flag="0"/>
      <psa03 value="0.0492659009" flag="0"/>
      <psa10 value="0.0074698044" flag="0"/>
      <psa30 value="0.0005179014" flag="0"/>
    </comp>
    <comp name="--.HHE">
      <acc value="0.0261295235" flag="0"/>
      <vel value="0.0110471773" flag="0"/>
      <psa03 value="0.0446831680" flag="0"/>
      <psa10 value="0.0109274570" flag="0"/>
      <psa30 value="0.0006192410" flag="0"/>
    </comp>
    <comp name="--.HHZ">
      <acc value="0.0243754521" flag="0"/>
      <vel value="0.0107159077" flag="0"/>
      <psa03 value="0.0583603685" flag="0"/>
      <psa10 value="0.0069152647" flag="0"/>
      <psa30 value="0.0006740620" flag="0"/>
    </comp>
  </station>
  <station code="KMRS" name="KMRS" netid="KO" insttype="CMG-3T" lat="37.5053" lon="36.9">
    <comp name="--.HHE">
      <acc value="0.0151254526" flag="0"/>
      <vel value="0.0075324149" flag="0"/>
      <psa03 value="0.0349847966" flag="0"/>
      <psa10 value="0.0064645478" flag="0"/>
      <psa30 value="0.0011302393" flag="0"/>
    </comp>
    <comp name="--.HHN">
      <acc value="0.0167408667" flag="0"/>
      <vel value="0.0099704147" flag="0"/>
      <psa03 value="0.0448120272" flag="0"/>
      <psa10 value="0.0069471615" flag="0"/>
      <psa30 value="0.0008626838" flag="0"/>
    </comp>
    <comp name="--.HHZ">
      <acc value="0.0190197111" flag="0"/>
      <vel value="0.0055991985" flag="0"/>
      <psa03 value="0.0331329889" flag="0"/>
      <psa10 value="0.0028418078" flag="0"/>
      <psa30 value="0.0010514791" flag="0"/>
    </comp>
  </station>
  <station code="SARI" name="SARI" netid="KO" insttype="CMG-3T" lat="38.4072" lon="36.4181">
    <comp name="--.HHE">
      <acc value="0.1110794621" flag="0"/>
      <vel value="0.0222160519" flag="0"/>
      <psa03 value="0.0947423867" flag="0"/>
      <psa10 value="0.0119065557" flag="0"/>
      <psa30 value="0.0011671649" flag="0"/>
    </comp>
    <comp name="--.HHN">
      <acc value="0.1050886099" flag="0"/>
      <vel value="0.0221552549" flag="0"/>
      <psa03 value="0.0781198314" flag="0"/>
      <psa10 value="0.0123049155" flag="0"/>
      <psa30 value="0.0012441667" flag="0"/>
    </comp>
    <comp name="--.HHZ">
      <acc value="0.0582618412" flag="0"/>
      <vel value="0.0145196797" flag="0"/>
      <psa03 value="0.0862097014" flag="0"/>
      <psa10 value="0.0096796353" flag="0"/>
      <psa30 value="0.0014378917" flag="0"/>
    </comp>
  </station>
</stationlist>
