<?xml version="1.0" encoding="UTF-8" standalone="yes"?>
<!DOCTYPE earthquake SYSTEM "stationlist.dtd">
<stationlist created="" xmlns="ch.ethz.sed.shakemap.usgs.xml">
  <station code="BNN" name="BNN" netid="KO" insttype="CMG-3T" lat="38.8521" lon="35.8472">
    <comp name="--.HHE">
      <acc value="0.0067702353" flag="0"/>
      <vel value="0.0041513821" flag="0"/>
      <psa03 value="0.0134596708" flag="0"/>
      <psa10 value="0.0058355347" flag="0"/>
      <psa30 value="0.0002588056" flag="0"/>
    </comp>
    <comp name="--.HHZ">
      <acc value="0.0031680683" flag="0"/>
      <vel value="0.0018817162" flag="0"/>
      <psa03 value="0.0077752491" flag="0"/>
      <psa10 value="0.0027924963" flag="0"/>
      <psa30 value="0.0005081906" flag="0"/>
    </comp>
    <comp name="--.HHN">
      <acc value="0.0043459262" flag="0"/>
      <vel value="0.0027120056" flag="0"/>
      <psa03 value="0.0112370668" flag="0"/>
      <psa10 value="0.0035925639" flag="0"/>
      <psa30 value="0.0004420174" flag="0"/>
    </comp>
  </station>
  <station code="DARE" name="DARE" netid="KO" insttype="CMG-3ESP" lat="38.5712" lon="37.4832">
    <comp name="--.HHZ">
      <acc value="0.0065834748" flag="0"/>
      <vel value="0.0026833326" flag="0"/>
      <psa03 value="0.0156420596" flag="0"/>
      <psa10 value="0.0038942537" flag="0"/>
      <psa30 value="0.0004304553" flag="0"/>
    </comp>
    <comp name="--.HHE">
      <acc value="0.0094142304" flag="0"/>
      <vel value="0.0034452180" flag="0"/>
      <psa03 value="0.0190177133" flag="0"/>
      <psa10 value="0.0048107930" flag="0"/>
      <psa30 value="0.0003863953" flag="0"/>
    </comp>
    <comp name="--.HHN">
      <acc value="0.0076538877" flag="0"/>
      <vel value="0.0031148007" flag="0"/>
      <psa03 value="0.0144745450" flag="0"/>
      <psa10 value="0.0031683816" flag="0"/>
      <psa30 value="0.0001978518" flag="0"/>
    </comp>
  </station>
  <station code="GAZ" name="GAZ" netid="KO" insttype="CMG-3T" lat="37.1721" lon="37.2096">
    <comp name="--.HHN">
      <acc value="0.0178188556" flag="0"/>
      <vel value="0.0083625174" flag="0"/>
      <psa03 value="0.0492659009" flag="0"/>
      <psa10 value="0.0074698044" flag="0"/>
      <psa30 value="0.0005179037" flag="0"/>
    </comp>
    <comp name="--.HHE">
      <acc value="0.0261295238" flag="0"/>
      <vel value="0.0110471780" flag="0"/>
      <psa03 value="0.0446831680" flag="0"/>
      <psa10 value="0.0109274570" flag="0"/>
      <psa30 value="0.0006192333" flag="0"/>
    </comp>
    <comp name="--.HHZ">
      <acc value="0.0243754523" flag="0"/>
      <vel value="0.0107159076" flag="0"/>
      <psa03 value="0.0583603685" flag="0"/>
      <psa10 value="0.0069152647" flag="0"/>
      <psa30 value="0.0006740621" flag="0"/>
    </comp>
  </station>
  <station code="KMRS" name="KMRS" netid="KO" insttype="CMG-3T" lat="37.5053" lon="36.9">
    <comp name="--.HHE">
      <acc value="0.0151254526" flag="0"/>
      <vel value="0.0075324153" flag="0"/>
      <psa03 value="0.0349847966" flag="0"/>
      <psa10 value="0.0064645477" flag="0"/>
      <psa30 value="0.0011302311" flag="0"/>
    </comp>
    <comp name="--.HHZ">
      <acc value="0.0190197110" flag="0"/>
      <vel value="0.0055991983" flag="0"/>
      <psa03 value="0.0331329889" flag="0"/>
      <psa10 value="0.0028418078" flag="0"/>
      <psa30 value="0.0010514712" flag="0"/>
    </comp>
    <comp name="--.HHN">
      <acc value="0.0167408666" flag="0"/>
      <vel value="0.0099704147" flag="0"/>
      <psa03 value="0.0448120272" flag="0"/>
      <psa10 value="0.0069471614" flag="0"/>
      <psa30 value="0.0008627214" flag="0"/>
    </comp>
  </station>
  <station code="SARI" name="SARI" netid="KO" insttype="CMG-3T" lat="38.4072" lon="36.4181">
    <comp name="--.HHN">
      <acc value="0.1050886098" flag="0"/>
      <vel value="0.0221552547" flag="0"/>
      <psa03 value="0.0781198314" flag="0"/>
      <psa10 value="0.0123049156" flag="0"/>
      <psa30 value="0.0012441847" flag="0"/>
    </comp>
    <comp name="--.HHE">
      <acc value="0.1110794618" flag="0"/>
      <vel value="0.0222160515" flag="0"/>
      <psa03 value="0.0947423867" flag="0"/>
      <psa10 value="0.0119065555" flag="0"/>
      <psa30 value="0.0011671528" flag="0"/>
    </comp>
    <comp name="--.HHZ">
      <acc value="0.0582618411" flag="0"/>
      <vel value="0.0145196797" flag="0"/>
      <psa03 value="0.0862097014" flag="0"/>
      <psa10 value="0.0096796353" flag="0"/>
      <psa30 value="0.0014378601" flag="0"/>
    </comp>
  </station>
</stationlist>
