<?xml version="1.0" encoding="UTF-8" standalone="yes"?>
<!DOCTYPE earthquake SYSTEM "stationlist.dtd">
<stationlist created="" xmlns="ch.ethz.sed.shakemap.usgs.xml">
  <station code="GIL" name="GIL" netid="VI" source="ODC" insttype="CMG-3ESP" lat="66.0773" lon="-16.3513">
    <comp name="--.HHZ">
      <acc value="0.0387536779" flag="0"/>
      <vel value="0.0097430491" flag="0"/>
      <psa03 value="0.0325088738" flag="0"/>
      <psa10 value="0.0050977642" flag="0"/>
      <psa30 value="0.0006249312" flag="0"/>
    </comp>
    <comp name="--.HHE">
      <acc value="0.0591614033" flag="0"/>
      <vel value="0.0171849599" flag="0"/>
      <psa03 value="0.0574926464" flag="0"/>
      <psa10 value="0.0113582998" flag="0"/>
      <psa30 value="0.0010762364" flag="0"/>
    </comp>
    <comp name="--.HHN">
      <acc value="0.0904604053" flag="0"/>
      <vel value="0.0219432331" flag="0"/>
      <psa03 value="0.1063340148" flag="0"/>
      <psa10 value="0.0129212403" flag="0"/>
      <psa30 value="0.0012776311" flag="0"/>
    </comp>
  </station>
</stationlist>
