<stationlist xmlns:esm="https://esm-db.eu/esmws/shakemap/1/" created="1783994238">
	<station code="ARG2" name="ARG2" netid="HI" source="ITSAK Strong Motion Network" insttype="" lat="38.1783" lon="20.4878" esm:processing="manual (Paolucci et al 2011)" esm:quality="best">
		<comp name="--.HNE" depth="0.0">
			<acc value="0.0328692033324519" flag="0"/>
			<vel value="0.0153091073033333" flag="0"/>
			<psa03 value="0.0779856661356477" flag="0"/>
			<psa10 value="0.00769521211627656" flag="0"/>
			<psa30 value="0.000772697908297553" flag="0"/>
		</comp>
		<comp name="--.HNN" depth="0.0">
			<acc value="0.0323704234304133" flag="0"/>
			<vel value="0.014370764741109" flag="0"/>
			<psa03 value="0.0552118829669474" flag="0"/>
			<psa10 value="0.00753414017245078" flag="0"/>
			<psa30 value="0.000813860738386363" flag="0"/>
		</comp>
		<comp name="--.HNZ" depth="0.0">
			<acc value="0.019418320851097" flag="0"/>
			<vel value="0.00706583792665802" flag="0"/>
			<psa03 value="0.0457265351638737" flag="0"/>
			<psa10 value="0.00462276478779984" flag="0"/>
			<psa30 value="0.000950771890638275" flag="0"/>
		</comp>
	</station>
	<station code="KRI1" name="KRI1" netid="HI" source="ITSAK Strong Motion Network" insttype="" lat="37.6621" lon="20.8172" esm:processing="manual (Paolucci et al 2011)" esm:quality="best">
		<comp name="--.HNE" depth="0.0">
			<acc value="0.114450386723287" flag="0"/>
			<vel value="0.0504950045093485" flag="0"/>
			<psa03 value="0.174807801257588" flag="0"/>
			<psa10 value="0.0348881830326636" flag="0"/>
			<psa30 value="0.00641066336426598" flag="0"/>
		</comp>
		<comp name="--.HNN" depth="0.0">
			<acc value="0.093389347077971" flag="0"/>
			<vel value="0.037101498914984" flag="0"/>
			<psa03 value="0.18796201000336" flag="0"/>
			<psa10 value="0.0284654392726107" flag="0"/>
			<psa30 value="0.00345812514952622" flag="0"/>
		</comp>
		<comp name="--.HNZ" depth="0.0">
			<acc value="0.0616736752858392" flag="0"/>
			<vel value="0.0263947913210085" flag="0"/>
			<psa03 value="0.12322003702672" flag="0"/>
			<psa10 value="0.014258893827177" flag="0"/>
			<psa30 value="0.0024491883902842" flag="0"/>
		</comp>
	</station>
	<station code="MSL1" name="MSL1" netid="HI" source="ITSAK Strong Motion Network" insttype="" lat="38.3727" lon="21.4243" esm:processing="manual (Paolucci et al 2011)" esm:quality="bad">
		<comp name="--.HNE" depth="0.0">
			<acc value="0.0102705963346087" flag="0"/>
			<vel value="0.0121323757200543" flag="0"/>
			<psa03 value="0.0249214090863774" flag="0"/>
			<psa10 value="0.026174190871689" flag="0"/>
			<psa30 value="0.00401427077779134" flag="0"/>
		</comp>
		<comp name="--.HNN" depth="0.0">
			<acc value="0.0110113570014124" flag="0"/>
			<vel value="0.0105391505852553" flag="0"/>
			<psa03 value="0.0258609954253611" flag="0"/>
			<psa10 value="0.018676291886599" flag="0"/>
			<psa30 value="0.00191451902119585" flag="0"/>
		</comp>
		<comp name="--.HNZ" depth="0.0">
			<acc value="0.00547190874757855" flag="0"/>
			<vel value="0.00503952779927784" flag="0"/>
			<psa03 value="0.0133779197788633" flag="0"/>
			<psa10 value="0.0124025396745849" flag="0"/>
			<psa30 value="0.000816545270783459" flag="0"/>
		</comp>
	</station>
	<station code="NPS1" name="NPS1" netid="HI" source="ITSAK Strong Motion Network" insttype="" lat="36.51263" lon="23.06248" esm:processing="manual (Paolucci et al 2011)" esm:quality="good">
		<comp name="--.HNE" depth="0.0">
			<acc value="0.00641504679478156" flag="0"/>
			<vel value="0.00405029499449232" flag="0"/>
			<psa03 value="0.0284113012026026" flag="0"/>
			<psa10 value="0.00532342774344197" flag="0"/>
			<psa30 value="0.000565541491654955" flag="0"/>
		</comp>
		<comp name="--.HNN" depth="0.0">
			<acc value="0.0058512411878028" flag="0"/>
			<vel value="0.00446682705221119" flag="0"/>
			<psa03 value="0.0134226619854815" flag="0"/>
			<psa10 value="0.00500128385579042" flag="0"/>
			<psa30 value="0.000490374584536258" flag="0"/>
		</comp>
		<comp name="--.HNZ" depth="0.0">
			<acc value="0.00451995734317166" flag="0"/>
			<vel value="0.00212783094620081" flag="0"/>
			<psa03 value="0.0110513250347131" flag="0"/>
			<psa10 value="0.00257715110121245" flag="0"/>
			<psa30 value="0.000370912892865473" flag="0"/>
		</comp>
	</station>
	<station code="PYL1" name="PYL1" netid="HI" source="ITSAK Strong Motion Network" insttype="" lat="36.914188" lon="21.695161" esm:processing="manual (Paolucci et al 2011)" esm:quality="best">
		<comp name="--.HNE" depth="0.0">
			<acc value="0.120085620724183" flag="0"/>
			<vel value="0.0430796099232819" flag="0"/>
			<psa03 value="0.221115985107499" flag="0"/>
			<psa10 value="0.0177944229941529" flag="0"/>
			<psa30 value="0.00176194809662754" flag="0"/>
		</comp>
		<comp name="--.HNN" depth="0.0">
			<acc value="0.0960838928760828" flag="0"/>
			<vel value="0.0254943832259344" flag="0"/>
			<psa03 value="0.103891403767627" flag="0"/>
			<psa10 value="0.0216158548614194" flag="0"/>
			<psa30 value="0.00184427375680516" flag="0"/>
		</comp>
		<comp name="--.HNZ" depth="0.0">
			<acc value="0.0556235780344331" flag="0"/>
			<vel value="0.016347913061106" flag="0"/>
			<psa03 value="0.0711848507296704" flag="0"/>
			<psa10 value="0.00946700349836012" flag="0"/>
			<psa30 value="0.00063712902224419" flag="0"/>
		</comp>
	</station>
	<station code="ITM" name="ITM" netid="HL" source="National Observatory of Athens Seismic Network" insttype="" lat="37.17872" lon="21.92522" esm:processing="manual (Paolucci et al 2011)" esm:quality="best">
		<comp name="--.HNE" depth="0.0">
			<acc value="0.031940216565617" flag="0"/>
			<vel value="0.020698153889594" flag="0"/>
			<psa03 value="0.0893054444100704" flag="0"/>
			<psa10 value="0.00991397814247666" flag="0"/>
			<psa30 value="0.00203845493352846" flag="0"/>
		</comp>
		<comp name="--.HNN" depth="0.0">
			<acc value="0.0412909649622061" flag="0"/>
			<vel value="0.0152727259978841" flag="0"/>
			<psa03 value="0.0851891614011894" flag="0"/>
			<psa10 value="0.015346129448001" flag="0"/>
			<psa30 value="0.0013668744121882" flag="0"/>
		</comp>
		<comp name="--.HNZ" depth="0.0">
			<acc value="0.0277131527199425" flag="0"/>
			<vel value="0.0123581762912578" flag="0"/>
			<psa03 value="0.0489479740403893" flag="0"/>
			<psa10 value="0.0129864254709534" flag="0"/>
			<psa30 value="0.000791042213011045" flag="0"/>
		</comp>
	</station>
	<station code="PATC" name="PATC" netid="HL" source="National Observatory of Athens Seismic Network" insttype="" lat="38.26933" lon="21.76001" esm:processing="manual (Paolucci et al 2011)" esm:quality="good">
		<comp name="00.HNE" depth="0.0">
			<acc value="0.0106831507737811" flag="0"/>
			<vel value="0.00975143909753887" flag="0"/>
			<psa03 value="0.0275164570702371" flag="0"/>
			<psa10 value="0.0185796487203035" flag="0"/>
			<psa30 value="0.00291450733911422" flag="0"/>
		</comp>
		<comp name="00.HNN" depth="0.0">
			<acc value="0.00964602898593694" flag="0"/>
			<vel value="0.0102191615261124" flag="0"/>
			<psa03 value="0.0289034654754036" flag="0"/>
			<psa10 value="0.019650777146745" flag="0"/>
			<psa30 value="0.00259281087352885" flag="0"/>
		</comp>
		<comp name="00.HNZ" depth="0.0">
			<acc value="0.00754338192360377" flag="0"/>
			<vel value="0.0051123561552809" flag="0"/>
			<psa03 value="0.0153913190766855" flag="0"/>
			<psa10 value="0.00910056482615647" flag="0"/>
			<psa30 value="0.00124607045431887" flag="0"/>
		</comp>
	</station>
	<station code="SMHA" name="SMHA" netid="HL" source="National Observatory of Athens Seismic Network" insttype="" lat="38.25123" lon="20.6477" esm:processing="automatic (Paolucci et al 2011)" esm:quality="best">
		<comp name="00.HNE" depth="0.0">
			<acc value="0.0257877067482213" flag="0"/>
			<vel value="0.0118628835031252" flag="0"/>
			<psa03 value="0.0516005641175779" flag="0"/>
			<psa10 value="0.0114724609317395" flag="0"/>
			<psa30 value="0.0008741024883338" flag="0"/>
		</comp>
		<comp name="00.HNN" depth="0.0">
			<acc value="0.0245499964551091" flag="0"/>
			<vel value="0.0117325333124126" flag="0"/>
			<psa03 value="0.0670624529752209" flag="0"/>
			<psa10 value="0.0111711209694278" flag="0"/>
			<psa30 value="0.00089002093868419" flag="0"/>
		</comp>
		<comp name="00.HNZ" depth="0.0">
			<acc value="0.0176493228211689" flag="0"/>
			<vel value="0.00553447943220256" flag="0"/>
			<psa03 value="0.0326794565202759" flag="0"/>
			<psa10 value="0.0048708892350217" flag="0"/>
			<psa30 value="0.000531326916551714" flag="0"/>
		</comp>
	</station>
	<station code="ZARA" name="ZARA" netid="HL" source="National Observatory of Athens Seismic Network" insttype="" lat="37.4865" lon="21.6491" esm:processing="manual (Paolucci et al 2011)" esm:quality="good">
		<comp name="00.HNE" depth="0.0">
			<acc value="0.0675917575987427" flag="0"/>
			<vel value="0.0319079985053904" flag="0"/>
			<psa03 value="0.141572982681965" flag="0"/>
			<psa10 value="0.0226969066836771" flag="0"/>
			<psa30 value="0.00290468429607916" flag="0"/>
		</comp>
		<comp name="00.HNN" depth="0.0">
			<acc value="0.0932147896467906" flag="0"/>
			<vel value="0.0413445664394225" flag="0"/>
			<psa03 value="0.188983831751369" flag="0"/>
			<psa10 value="0.0282901003303063" flag="0"/>
			<psa30 value="0.00383261930888636" flag="0"/>
		</comp>
		<comp name="00.HNZ" depth="0.0">
			<acc value="0.0303176444092841" flag="0"/>
			<vel value="0.0118762305043141" flag="0"/>
			<psa03 value="0.0717566806112603" flag="0"/>
			<psa10 value="0.0161541013799362" flag="0"/>
			<psa30 value="0.00140776002802626" flag="0"/>
		</comp>
	</station>
	<station code="ANX" name="ANX" netid="HP" source="University of Patras, Seismological Laboratory (PSLNET)" insttype="" lat="38.5933" lon="21.9209" esm:processing="manual (Paolucci et al 2011)" esm:quality="best">
		<comp name="--.HNE" depth="0.0">
			<acc value="0.00388780679561127" flag="0"/>
			<vel value="0.00373962163780441" flag="0"/>
			<psa03 value="0.00993276986925633" flag="0"/>
			<psa10 value="0.00626167181622713" flag="0"/>
			<psa30 value="0.00106352225131632" flag="0"/>
		</comp>
		<comp name="--.HNN" depth="0.0">
			<acc value="0.00588679048848292" flag="0"/>
			<vel value="0.00570854945714557" flag="0"/>
			<psa03 value="0.0131542087457719" flag="0"/>
			<psa10 value="0.0105663195149711" flag="0"/>
			<psa30 value="0.00098298627940343" flag="0"/>
		</comp>
		<comp name="--.HNZ" depth="0.0">
			<acc value="0.00257143782123639" flag="0"/>
			<vel value="0.00239448173396825" flag="0"/>
			<psa03 value="0.00563751803390224" flag="0"/>
			<psa10 value="0.00375297629114063" flag="0"/>
			<psa30 value="0.000412075722954283" flag="0"/>
		</comp>
	</station>
	<station code="MALA" name="MALA" netid="CL" source="Corinth Riff Laboratory (CRLNET)" insttype="" lat="38.39341" lon="21.87263" esm:processing="discarded" esm:quality="bad">
		<comp name="01.HNE" depth="0.0">
			<acc value="0" flag="1"/>
			<vel value="0" flag="1"/>
			<psa03 value="0" flag="1"/>
			<psa10 value="0" flag="1"/>
			<psa30 value="0" flag="1"/>
		</comp>
		<comp name="01.HNN" depth="0.0">
			<acc value="0" flag="1"/>
			<vel value="0" flag="1"/>
			<psa03 value="0" flag="1"/>
			<psa10 value="0" flag="1"/>
			<psa30 value="0" flag="1"/>
		</comp>
		<comp name="01.HNZ" depth="0.0">
			<acc value="0" flag="1"/>
			<vel value="0" flag="1"/>
			<psa03 value="0" flag="1"/>
			<psa10 value="0" flag="1"/>
			<psa30 value="0" flag="1"/>
		</comp>
	</station>
	<station code="ARS1" name="ARS1" netid="HI" source="ITSAK Strong Motion Network" insttype="" lat="37.6349" lon="22.7293" esm:processing="discarded" esm:quality="bad">
		<comp name="--.HNE" depth="0.0">
			<acc value="0" flag="1"/>
			<vel value="0" flag="1"/>
			<psa03 value="0" flag="1"/>
			<psa10 value="0" flag="1"/>
			<psa30 value="0" flag="1"/>
		</comp>
		<comp name="--.HNN" depth="0.0">
			<acc value="0" flag="1"/>
			<vel value="0" flag="1"/>
			<psa03 value="0" flag="1"/>
			<psa10 value="0" flag="1"/>
			<psa30 value="0" flag="1"/>
		</comp>
		<comp name="--.HNZ" depth="0.0">
			<acc value="0" flag="1"/>
			<vel value="0" flag="1"/>
			<psa03 value="0" flag="1"/>
			<psa10 value="0" flag="1"/>
			<psa30 value="0" flag="1"/>
		</comp>
	</station>
	<station code="ART2" name="ART2" netid="HI" source="ITSAK Strong Motion Network" insttype="" lat="39.1474" lon="20.9937" esm:processing="discarded" esm:quality="bad">
		<comp name="--.HNE" depth="0.0">
			<acc value="0" flag="1"/>
			<vel value="0" flag="1"/>
			<psa03 value="0" flag="1"/>
			<psa10 value="0" flag="1"/>
			<psa30 value="0" flag="1"/>
		</comp>
		<comp name="--.HNN" depth="0.0">
			<acc value="0" flag="1"/>
			<vel value="0" flag="1"/>
			<psa03 value="0" flag="1"/>
			<psa10 value="0" flag="1"/>
			<psa30 value="0" flag="1"/>
		</comp>
		<comp name="--.HNZ" depth="0.0">
			<acc value="0" flag="1"/>
			<vel value="0" flag="1"/>
			<psa03 value="0" flag="1"/>
			<psa10 value="0" flag="1"/>
			<psa30 value="0" flag="1"/>
		</comp>
	</station>
	<station code="KLV1" name="KLV1" netid="HI" source="ITSAK Strong Motion Network" insttype="" lat="38.03256" lon="22.10797" esm:processing="discarded" esm:quality="good">
		<comp name="--.HNE" depth="0.0">
			<acc value="0" flag="1"/>
			<vel value="0" flag="1"/>
			<psa03 value="0" flag="1"/>
			<psa10 value="0" flag="1"/>
			<psa30 value="0" flag="1"/>
		</comp>
		<comp name="--.HNN" depth="0.0">
			<acc value="0" flag="1"/>
			<vel value="0" flag="1"/>
			<psa03 value="0" flag="1"/>
			<psa10 value="0" flag="1"/>
			<psa30 value="0" flag="1"/>
		</comp>
		<comp name="--.HNZ" depth="0.0">
			<acc value="0" flag="1"/>
			<vel value="0" flag="1"/>
			<psa03 value="0" flag="1"/>
			<psa10 value="0" flag="1"/>
			<psa30 value="0" flag="1"/>
		</comp>
	</station>
	<station code="LAM2" name="LAM2" netid="HI" source="ITSAK Strong Motion Network" insttype="" lat="38.90203" lon="22.431301" esm:processing="discarded" esm:quality="bad">
		<comp name="--.HNE" depth="0.0">
			<acc value="0" flag="1"/>
			<vel value="0" flag="1"/>
			<psa03 value="0" flag="1"/>
			<psa10 value="0" flag="1"/>
			<psa30 value="0" flag="1"/>
		</comp>
		<comp name="--.HNN" depth="0.0">
			<acc value="0" flag="1"/>
			<vel value="0" flag="1"/>
			<psa03 value="0" flag="1"/>
			<psa10 value="0" flag="1"/>
			<psa30 value="0" flag="1"/>
		</comp>
		<comp name="--.HNZ" depth="0.0">
			<acc value="0" flag="1"/>
			<vel value="0" flag="1"/>
			<psa03 value="0" flag="1"/>
			<psa10 value="0" flag="1"/>
			<psa30 value="0" flag="1"/>
		</comp>
	</station>
	<station code="DLFA" name="DLFA" netid="HL" source="National Observatory of Athens Seismic Network" insttype="" lat="38.47836" lon="22.49583" esm:processing="discarded" esm:quality="bad">
		<comp name="00.HNE" depth="0.0">
			<acc value="0" flag="1"/>
			<vel value="0" flag="1"/>
			<psa03 value="0" flag="1"/>
			<psa10 value="0" flag="1"/>
			<psa30 value="0" flag="1"/>
		</comp>
		<comp name="00.HNN" depth="0.0">
			<acc value="0" flag="1"/>
			<vel value="0" flag="1"/>
			<psa03 value="0" flag="1"/>
			<psa10 value="0" flag="1"/>
			<psa30 value="0" flag="1"/>
		</comp>
		<comp name="00.HNZ" depth="0.0">
			<acc value="0" flag="1"/>
			<vel value="0" flag="1"/>
			<psa03 value="0" flag="1"/>
			<psa10 value="0" flag="1"/>
			<psa30 value="0" flag="1"/>
		</comp>
	</station>
	<station code="MNVA" name="MNVA" netid="HL" source="National Observatory of Athens Seismic Network" insttype="" lat="36.68709" lon="23.03734" esm:processing="discarded" esm:quality="bad">
		<comp name="00.HNE" depth="0.0">
			<acc value="0" flag="1"/>
			<vel value="0" flag="1"/>
			<psa03 value="0" flag="1"/>
			<psa10 value="0" flag="1"/>
			<psa30 value="0" flag="1"/>
		</comp>
		<comp name="00.HNN" depth="0.0">
			<acc value="0" flag="1"/>
			<vel value="0" flag="1"/>
			<psa03 value="0" flag="1"/>
			<psa10 value="0" flag="1"/>
			<psa30 value="0" flag="1"/>
		</comp>
		<comp name="00.HNZ" depth="0.0">
			<acc value="0" flag="1"/>
			<vel value="0" flag="1"/>
			<psa03 value="0" flag="1"/>
			<psa10 value="0" flag="1"/>
			<psa30 value="0" flag="1"/>
		</comp>
	</station>
	<station code="PATG" name="PATG" netid="HL" source="National Observatory of Athens Seismic Network" insttype="" lat="38.23865" lon="21.72657" esm:processing="discarded" esm:quality="bad">
		<comp name="00.HNE" depth="0.0">
			<acc value="0" flag="1"/>
			<vel value="0" flag="1"/>
			<psa03 value="0" flag="1"/>
			<psa10 value="0" flag="1"/>
			<psa30 value="0" flag="1"/>
		</comp>
		<comp name="00.HNN" depth="0.0">
			<acc value="0" flag="1"/>
			<vel value="0" flag="1"/>
			<psa03 value="0" flag="1"/>
			<psa10 value="0" flag="1"/>
			<psa30 value="0" flag="1"/>
		</comp>
		<comp name="00.HNZ" depth="0.0">
			<acc value="0" flag="1"/>
			<vel value="0" flag="1"/>
			<psa03 value="0" flag="1"/>
			<psa10 value="0" flag="1"/>
			<psa30 value="0" flag="1"/>
		</comp>
	</station>
	<station code="RIOA" name="RIOA" netid="HL" source="National Observatory of Athens Seismic Network" insttype="" lat="38.29585" lon="21.79118" esm:processing="discarded" esm:quality="bad">
		<comp name="00.HNE" depth="0.0">
			<acc value="0" flag="1"/>
			<vel value="0" flag="1"/>
			<psa03 value="0" flag="1"/>
			<psa10 value="0" flag="1"/>
			<psa30 value="0" flag="1"/>
		</comp>
		<comp name="00.HNN" depth="0.0">
			<acc value="0" flag="1"/>
			<vel value="0" flag="1"/>
			<psa03 value="0" flag="1"/>
			<psa10 value="0" flag="1"/>
			<psa30 value="0" flag="1"/>
		</comp>
		<comp name="00.HNZ" depth="0.0">
			<acc value="0" flag="1"/>
			<vel value="0" flag="1"/>
			<psa03 value="0" flag="1"/>
			<psa10 value="0" flag="1"/>
			<psa30 value="0" flag="1"/>
		</comp>
	</station>
	<station code="FSK" name="FSK" netid="HP" source="University of Patras, Seismological Laboratory (PSLNET)" insttype="" lat="38.4593" lon="20.5623" esm:processing="discarded" esm:quality="good">
		<comp name="--.HNE" depth="0.0">
			<acc value="0" flag="1"/>
			<vel value="0" flag="1"/>
			<psa03 value="0" flag="1"/>
			<psa10 value="0" flag="1"/>
			<psa30 value="0" flag="1"/>
		</comp>
		<comp name="--.HNN" depth="0.0">
			<acc value="0" flag="1"/>
			<vel value="0" flag="1"/>
			<psa03 value="0" flag="1"/>
			<psa10 value="0" flag="1"/>
			<psa30 value="0" flag="1"/>
		</comp>
		<comp name="--.HNZ" depth="0.0">
			<acc value="0" flag="1"/>
			<vel value="0" flag="1"/>
			<psa03 value="0" flag="1"/>
			<psa10 value="0" flag="1"/>
			<psa30 value="0" flag="1"/>
		</comp>
	</station>
</stationlist>
