<?xml version="1.0" encoding="UTF-8" standalone="yes"?>
<!DOCTYPE earthquake SYSTEM "stationlist.dtd">
<stationlist created="" xmlns="ch.ethz.sed.shakemap.usgs.xml">
  <station code="KRI1" name="KRI1" netid="HI" source="NOA" insttype="CMG-5TD,ACCELEROMETER,GURALP" lat="37.6621" lon="20.8172">
    <comp name="--.HNE">
      <acc value="0.1148036579" flag="0"/>
      <vel value="0.0516550819" flag="0"/>
      <psa03 value="0.1713677998" flag="0"/>
      <psa10 value="0.0349008062" flag="0"/>
      <psa30 value="0.0053712578" flag="0"/>
    </comp>
    <comp name="--.HNN">
      <acc value="0.0946720908" flag="0"/>
      <vel value="0.0355992504" flag="0"/>
      <psa03 value="0.1842729145" flag="0"/>
      <psa10 value="0.0283765503" flag="0"/>
      <psa30 value="0.0027078720" flag="0"/>
    </comp>
    <comp name="--.HNZ">
      <acc value="0.0626976429" flag="0"/>
      <vel value="0.0237565598" flag="0"/>
      <psa03 value="0.1226930872" flag="0"/>
      <psa10 value="0.0140383350" flag="0"/>
      <psa30 value="0.0019928650" flag="0"/>
    </comp>
  </station>
  <station code="PYL1" name="PYL1" netid="HI" source="NOA" insttype="CMG-5TD,ACCELEROMETER,GURALP" lat="36.9142" lon="21.6952">
    <comp name="--.HNE">
      <acc value="0.1195898261" flag="0"/>
      <vel value="0.0425727202" flag="0"/>
      <psa03 value="0.2202369133" flag="0"/>
      <psa10 value="0.0177544809" flag="0"/>
      <psa30 value="0.0017044088" flag="0"/>
    </comp>
    <comp name="--.HNN">
      <acc value="0.0969945818" flag="0"/>
      <vel value="0.0254548134" flag="0"/>
      <psa03 value="0.1024719005" flag="0"/>
      <psa10 value="0.0215402349" flag="0"/>
      <psa30 value="0.0018251188" flag="0"/>
    </comp>
    <comp name="--.HNZ">
      <acc value="0.0554930490" flag="0"/>
      <vel value="0.0160909154" flag="0"/>
      <psa03 value="0.0696842207" flag="0"/>
      <psa10 value="0.0094508531" flag="0"/>
      <psa30 value="0.0005990503" flag="0"/>
    </comp>
  </station>
  <station code="AMT" name="AMT" netid="HP" source="NOA" insttype="CMG-3T," lat="37.5324" lon="21.7089">
    <comp name="00.HHE">
      <acc value="0.0360450952" flag="0"/>
      <vel value="0.0224493168" flag="0"/>
      <psa03 value="0.1142740428" flag="0"/>
      <psa10 value="0.0247579570" flag="0"/>
      <psa30 value="0.0014680417" flag="0"/>
    </comp>
    <comp name="00.HHN">
      <acc value="0.0378955036" flag="0"/>
      <vel value="0.0203390128" flag="0"/>
      <psa03 value="0.1216053146" flag="0"/>
      <psa10 value="0.0244093791" flag="0"/>
      <psa30 value="0.0012806396" flag="0"/>
    </comp>
    <comp name="00.HHZ">
      <acc value="0.0347499364" flag="0"/>
      <vel value="0.0141602619" flag="0"/>
      <psa03 value="0.1105461016" flag="0"/>
      <psa10 value="0.0090174857" flag="0"/>
      <psa30 value="0.0011700954" flag="0"/>
    </comp>
  </station>
  <station code="LTHK" name="LTHK" netid="HP" source="NOA" insttype="40," lat="37.7095" lon="20.8367">
    <comp name="--.HHE">
      <acc value="0.1393165883" flag="0"/>
      <vel value="0.0337285563" flag="0"/>
      <psa03 value="0.1553204326" flag="0"/>
      <psa10 value="0.0188836442" flag="0"/>
      <psa30 value="0.0030387249" flag="0"/>
    </comp>
    <comp name="--.HHN">
      <acc value="0.1267446641" flag="0"/>
      <vel value="0.0290219764" flag="0"/>
      <psa03 value="0.1380165453" flag="0"/>
      <psa10 value="0.0202863262" flag="0"/>
      <psa30 value="0.0024992059" flag="0"/>
    </comp>
    <comp name="--.HHZ">
      <acc value="0.0580954581" flag="0"/>
      <vel value="0.0144929431" flag="0"/>
      <psa03 value="0.0907943819" flag="0"/>
      <psa10 value="0.0122892331" flag="0"/>
      <psa30 value="0.0013130385" flag="0"/>
    </comp>
  </station>
  <station code="DMLN" name="DMLN" netid="HT" source="NOA" insttype="1s-100Hz," lat="38.2385" lon="20.3734">
    <comp name="--.HHE">
      <acc value="0.0271250419" flag="0"/>
      <vel value="0.0107718707" flag="0"/>
      <psa03 value="0.0351159321" flag="0"/>
      <psa10 value="0.0143645273" flag="0"/>
      <psa30 value="0.0014133343" flag="0"/>
    </comp>
    <comp name="--.HHN">
      <acc value="0.0334923841" flag="0"/>
      <vel value="0.0130557196" flag="0"/>
      <psa03 value="0.0706522661" flag="0"/>
      <psa10 value="0.0159485392" flag="0"/>
      <psa30 value="0.0009461341" flag="0"/>
    </comp>
    <comp name="--.HHZ">
      <acc value="0.0225764684" flag="0"/>
      <vel value="0.0086355625" flag="0"/>
      <psa03 value="0.0338162994" flag="0"/>
      <psa10 value="0.0062384018" flag="0"/>
      <psa30 value="0.0004886349" flag="0"/>
    </comp>
  </station>
</stationlist>
