<?xml version="1.0" encoding="UTF-8" standalone="yes"?>
<!DOCTYPE earthquake SYSTEM "stationlist.dtd">
<stationlist created="" xmlns="ch.ethz.sed.shakemap.usgs.xml">
  <station code="ASB" name="ASB" netid="VI" source="ODC" insttype="STS-2.5" lat="64.7482" lon="-21.3254">
    <comp name="--.HHE">
      <acc value="0.0115293129" flag="0"/>
      <vel value="0.0047092107" flag="0"/>
      <psa03 value="0.0118744868" flag="0"/>
      <psa10 value="0.0072099172" flag="0"/>
      <psa30 value="0.0011753240" flag="0"/>
    </comp>
    <comp name="--.HHZ">
      <acc value="0.0060338357" flag="0"/>
      <vel value="0.0023693705" flag="0"/>
      <psa03 value="0.0095042999" flag="0"/>
      <psa10 value="0.0038371472" flag="0"/>
      <psa30 value="0.0007066202" flag="0"/>
    </comp>
    <comp name="--.HHN">
      <acc value="0.0094210812" flag="0"/>
      <vel value="0.0034774641" flag="0"/>
      <psa03 value="0.0163406697" flag="0"/>
      <psa10 value="0.0058741183" flag="0"/>
      <psa30 value="0.0012411485" flag="0"/>
    </comp>
  </station>
</stationlist>
