<stationlist created="1778135688">
	<station code="S2114" name="S2114" netid="S2" source="IceSMN Icelandic Strong Motion Network (IceSMN)" insttype="" lat="63.7515" lon="-20.2168">
		<comp name="00.HN1" depth="0.0">
			<acc value="0.0242179524764108" flag="0"/>
			<vel value="0.00718386339993026" flag="0"/>
			<psa03 value="0.0353996419275326" flag="0"/>
			<psa10 value="0.00674905302913753" flag="0"/>
			<psa30 value="0.00158188062515909" flag="0"/>
		</comp>
		<comp name="00.HN2" depth="0.0">
			<acc value="0.0207699986859364" flag="0"/>
			<vel value="0.00956448646743407" flag="0"/>
			<psa03 value="0.0312496560738521" flag="0"/>
			<psa10 value="0.00888689996349775" flag="0"/>
			<psa30 value="0.000961739856378353" flag="0"/>
		</comp>
		<comp name="00.HNZ" depth="0.0">
			<acc value="0.0142500398521722" flag="0"/>
			<vel value="0.00369545631048584" flag="0"/>
			<psa03 value="0.0131641975843374" flag="0"/>
			<psa10 value="0.00472317116815946" flag="0"/>
			<psa30 value="0.00121075197720785" flag="0"/>
		</comp>
	</station>
	<station code="S2405" name="S2405" netid="S2" source="IceSMN Icelandic Strong Motion Network (IceSMN)" insttype="" lat="64.0447" lon="-21.9848">
		<comp name="00.HN1" depth="0.0">
			<acc value="0.0651856292328564" flag="0"/>
			<vel value="0.0302462657268075" flag="0"/>
			<psa03 value="0.121061967678026" flag="0"/>
			<psa10 value="0.031892506472032" flag="0"/>
			<psa30 value="0.00554556486646372" flag="0"/>
		</comp>
		<comp name="00.HN2" depth="0.0">
			<acc value="0.0734957991825765" flag="0"/>
			<vel value="0.025231032050413" flag="0"/>
			<psa03 value="0.107480120030486" flag="0"/>
			<psa10 value="0.0381208778210543" flag="0"/>
			<psa30 value="0.00409177564338721" flag="0"/>
		</comp>
		<comp name="00.HNZ" depth="0.0">
			<acc value="0.0578918431492418" flag="0"/>
			<vel value="0.0140557729089693" flag="0"/>
			<psa03 value="0.0424091817959954" flag="0"/>
			<psa10 value="0.0193465228621971" flag="0"/>
			<psa30 value="0.00377882657871346" flag="0"/>
		</comp>
	</station>
	<station code="S2602" name="S2602" netid="S2" source="IceSMN Icelandic Strong Motion Network (IceSMN)" insttype="" lat="63.8464" lon="-22.4268">
		<comp name="00.HN1" depth="0.0">
			<acc value="0.667150891349931" flag="0"/>
			<vel value="0.474360608177725" flag="0"/>
			<psa03 value="2.0489203975863" flag="0"/>
			<psa10 value="0.364098599745178" flag="0"/>
			<psa30 value="0.0381093578912791" flag="0"/>
		</comp>
		<comp name="00.HN2" depth="0.0">
			<acc value="0.850695892519545" flag="0"/>
			<vel value="0.554945026317875" flag="0"/>
			<psa03 value="1.76441055020514" flag="0"/>
			<psa10 value="0.389041802110026" flag="0"/>
			<psa30 value="0.0337045827631853" flag="0"/>
		</comp>
		<comp name="00.HNZ" depth="0.0">
			<acc value="0.886709912633833" flag="0"/>
			<vel value="0.283278066703574" flag="0"/>
			<psa03 value="1.80224122297038" flag="0"/>
			<psa10 value="0.105444790199957" flag="0"/>
			<psa30 value="0.0133916854667743" flag="0"/>
		</comp>
	</station>
	<station code="S2604" name="S2604" netid="S2" source="IceSMN Icelandic Strong Motion Network (IceSMN)" insttype="" lat="63.9843" lon="-21.6486">
		<comp name="00.HN1" depth="0.0">
			<acc value="0.0357016601296283" flag="0"/>
			<vel value="0.0303296171500267" flag="0"/>
			<psa03 value="0.0797112804813425" flag="0"/>
			<psa10 value="0.0595512599785888" flag="0"/>
			<psa30 value="0.00853780975465688" flag="0"/>
		</comp>
		<comp name="00.HN2" depth="0.0">
			<acc value="0.0269712233028942" flag="0"/>
			<vel value="0.0261955762043946" flag="0"/>
			<psa03 value="0.0715664753027688" flag="0"/>
			<psa10 value="0.0564719384889411" flag="0"/>
			<psa30 value="0.00441842269882104" flag="0"/>
		</comp>
		<comp name="00.HNZ" depth="0.0">
			<acc value="0.0389449238031372" flag="0"/>
			<vel value="0.0169094398057704" flag="0"/>
			<psa03 value="0.0527001942540091" flag="0"/>
			<psa10 value="0.0141170742493671" flag="0"/>
			<psa30 value="0.00526474793038411" flag="0"/>
		</comp>
	</station>
</stationlist>
