<?xml version="1.0" encoding="UTF-8" standalone="yes"?>
<!DOCTYPE earthquake SYSTEM "stationlist.dtd">
<stationlist created="" xmlns="ch.ethz.sed.shakemap.usgs.xml">
  <station code="BNN" name="BNN" netid="KO" insttype="CMG-3T" lat="38.8521" lon="35.8472">
    <comp name="--.HHN">
      <acc value="0.0257768323" flag="0"/>
      <vel value="0.0226551673" flag="0"/>
      <psa03 value="0.0643421514" flag="0"/>
      <psa10 value="0.0364074637" flag="0"/>
      <psa30 value="0.0070822967" flag="0"/>
    </comp>
  </station>
  <station code="KMRS" name="KMRS" netid="KO" insttype="CMG-3T" lat="37.5053" lon="36.9">
    <comp name="--.HHZ">
      <acc value="0.1192707398" flag="0"/>
      <vel value="0.0590119423" flag="0"/>
      <psa03 value="0.2730225693" flag="0"/>
      <psa10 value="0.0671839431" flag="0"/>
      <psa30 value="0.0165986289" flag="0"/>
    </comp>
    <comp name="--.HHN">
      <acc value="0.2017628491" flag="0"/>
      <vel value="0.1153842790" flag="0"/>
      <psa03 value="0.6563268589" flag="0"/>
      <psa10 value="0.1422468635" flag="0"/>
      <psa30 value="0.0285154730" flag="0"/>
    </comp>
  </station>
</stationlist>
