<?xml version="1.0" encoding="UTF-8" standalone="yes"?>
<!DOCTYPE earthquake SYSTEM "stationlist.dtd">
<stationlist created="" xmlns="ch.ethz.sed.shakemap.usgs.xml">
  <station code="CEYT" name="CEYT" netid="KO" insttype="CMG-3ESP" lat="37.0105" lon="35.7478">
    <comp name="--.HHZ">
      <acc value="0.0054175380" flag="0"/>
      <vel value="0.0022351998" flag="0"/>
      <psa03 value="0.0112846139" flag="0"/>
      <psa10 value="0.0014298562" flag="0"/>
      <psa30 value="0.0001714629" flag="0"/>
    </comp>
    <comp name="--.HHE">
      <acc value="0.0109723289" flag="0"/>
      <vel value="0.0043263314" flag="0"/>
      <psa03 value="0.0281575308" flag="0"/>
      <psa10 value="0.0029559646" flag="0"/>
      <psa30 value="0.0002059130" flag="0"/>
    </comp>
    <comp name="--.HHN">
      <acc value="0.0063656504" flag="0"/>
      <vel value="0.0027587429" flag="0"/>
      <psa03 value="0.0154386051" flag="0"/>
      <psa10 value="0.0029537876" flag="0"/>
      <psa30 value="0.0002122545" flag="0"/>
    </comp>
  </station>
  <station code="GAZ" name="GAZ" netid="KO" insttype="CMG-3T" lat="37.1721" lon="37.2096">
    <comp name="--.HHZ">
      <acc value="0.0430560283" flag="0"/>
      <vel value="0.0086300623" flag="0"/>
      <psa03 value="0.0287076314" flag="0"/>
      <psa10 value="0.0044464694" flag="0"/>
      <psa30 value="0.0005017000" flag="0"/>
    </comp>
    <comp name="--.HHN">
      <acc value="0.0497721295" flag="0"/>
      <vel value="0.0111995895" flag="0"/>
      <psa03 value="0.0447646980" flag="0"/>
      <psa10 value="0.0135076382" flag="0"/>
      <psa30 value="0.0007043234" flag="0"/>
    </comp>
    <comp name="--.HHE">
      <acc value="0.0772175102" flag="0"/>
      <vel value="0.0114581783" flag="0"/>
      <psa03 value="0.0511510758" flag="0"/>
      <psa10 value="0.0110709855" flag="0"/>
      <psa30 value="0.0007693768" flag="0"/>
    </comp>
  </station>
  <station code="KHMN" name="KHMN" netid="KO" insttype="CMG-5T" lat="37.3916" lon="37.1574">
    <comp name="--.HNE">
      <acc value="0.3767877625" flag="0"/>
      <vel value="0.0610973555" flag="0"/>
      <psa03 value="0.2980786317" flag="0"/>
      <psa10 value="0.0158966803" flag="0"/>
      <psa30 value="0.0016905239" flag="0"/>
    </comp>
    <comp name="--.HNN">
      <acc value="0.4292714138" flag="0"/>
      <vel value="0.0824602485" flag="0"/>
      <psa03 value="0.2526143491" flag="0"/>
      <psa10 value="0.0237644072" flag="0"/>
      <psa30 value="0.0024388336" flag="0"/>
    </comp>
    <comp name="--.HNZ">
      <acc value="0.2217281700" flag="0"/>
      <vel value="0.0451474958" flag="0"/>
      <psa03 value="0.1813002571" flag="0"/>
      <psa10 value="0.0104543870" flag="0"/>
      <psa30 value="0.0009573734" flag="0"/>
    </comp>
  </station>
  <station code="KMRS" name="KMRS" netid="KO" insttype="CMG-3T" lat="37.5053" lon="36.9">
    <comp name="--.HHN">
      <acc value="0.4435689030" flag="0"/>
      <vel value="0.0749145487" flag="0"/>
      <psa03 value="0.2265551095" flag="0"/>
      <psa10 value="0.0201816063" flag="0"/>
      <psa30 value="0.0015530842" flag="0"/>
    </comp>
    <comp name="--.HHE">
      <acc value="0.5193343226" flag="0"/>
      <vel value="0.0964926948" flag="0"/>
      <psa03 value="0.3006298594" flag="0"/>
      <psa10 value="0.0264140186" flag="0"/>
      <psa30 value="0.0032834934" flag="0"/>
    </comp>
    <comp name="--.HHZ">
      <acc value="0.5016869484" flag="0"/>
      <vel value="0.0608490925" flag="0"/>
      <psa03 value="0.1046638216" flag="0"/>
      <psa10 value="0.0126793542" flag="0"/>
      <psa30 value="0.0015726661" flag="0"/>
    </comp>
  </station>
  <station code="SARI" name="SARI" netid="KO" insttype="CMG-3T" lat="38.4072" lon="36.4181">
    <comp name="--.HHE">
      <acc value="0.0388333443" flag="0"/>
      <vel value="0.0115130676" flag="0"/>
      <psa03 value="0.0457317882" flag="0"/>
      <psa10 value="0.0045671702" flag="0"/>
      <psa30 value="0.0003256501" flag="0"/>
    </comp>
    <comp name="--.HHZ">
      <acc value="0.0201835743" flag="0"/>
      <vel value="0.0059394554" flag="0"/>
      <psa03 value="0.0237038454" flag="0"/>
      <psa10 value="0.0026646994" flag="0"/>
      <psa30 value="0.0001862709" flag="0"/>
    </comp>
    <comp name="--.HHN">
      <acc value="0.0256700767" flag="0"/>
      <vel value="0.0081006762" flag="0"/>
      <psa03 value="0.0455182100" flag="0"/>
      <psa10 value="0.0041897152" flag="0"/>
      <psa30 value="0.0002116868" flag="0"/>
    </comp>
  </station>
  <station code="ANDN" name="ANDN" netid="TU" insttype="T" lat="37.58" lon="36.3452">
    <comp name="--.HHZ">
      <acc value="0.1400391013" flag="0"/>
      <vel value="0.0324926225" flag="0"/>
      <psa03 value="0.1359115334" flag="0"/>
      <psa10 value="0.0233145633" flag="0"/>
      <psa30 value="0.0012984235" flag="0"/>
    </comp>
    <comp name="--.HHE">
      <acc value="0.1617121135" flag="0"/>
      <vel value="0.0743733028" flag="0"/>
      <psa03 value="0.3050055547" flag="0"/>
      <psa10 value="0.0281674851" flag="0"/>
      <psa30 value="0.0020062201" flag="0"/>
    </comp>
    <comp name="--.HHN">
      <acc value="0.2595252764" flag="0"/>
      <vel value="0.0906742192" flag="0"/>
      <psa03 value="0.4893137399" flag="0"/>
      <psa10 value="0.0158441338" flag="0"/>
      <psa30 value="0.0019982310" flag="0"/>
    </comp>
  </station>
</stationlist>
