<?xml version="1.0" encoding="UTF-8" standalone="yes"?>
<!DOCTYPE earthquake SYSTEM "stationlist.dtd">
<stationlist created="" xmlns="ch.ethz.sed.shakemap.usgs.xml">
  <station code="AKS" name="AKS" netid="KO" insttype="CMG-5T" commtype="DIG" lat="38.8785" lon="27.8129">
    <comp name="--.HNN">
      <acc value="0.1004663546" flag="0"/>
      <vel value="0.0409806437" flag="0"/>
      <psa03 value="0.1440671332" flag="0"/>
      <psa10 value="0.0230543792" flag="0"/>
      <psa30 value="0.0015176127" flag="0"/>
    </comp>
    <comp name="--.HNE">
      <acc value="0.1215531731" flag="0"/>
      <vel value="0.0334929214" flag="0"/>
      <psa03 value="0.2041408218" flag="0"/>
      <psa10 value="0.0231585419" flag="0"/>
      <psa30 value="0.0013821905" flag="0"/>
    </comp>
    <comp name="--.HNZ">
      <acc value="0.0627137393" flag="0"/>
      <vel value="0.0145596240" flag="0"/>
      <psa03 value="0.0616813977" flag="0"/>
      <psa10 value="0.0092462240" flag="0"/>
      <psa30 value="0.0007609383" flag="0"/>
    </comp>
  </station>
  <station code="AYVL" name="AYVL" netid="KO" insttype="CMG-6T" commtype="DIG" lat="39.2907" lon="26.69">
    <comp name="--.HHE">
      <acc value="0.0261011739" flag="0"/>
      <vel value="0.0096920189" flag="0"/>
      <psa03 value="0.0360840751" flag="0"/>
      <psa10 value="0.0085040638" flag="0"/>
      <psa30 value="0.0003854582" flag="0"/>
    </comp>
    <comp name="--.HHN">
      <acc value="0.0312344303" flag="0"/>
      <vel value="0.0122001155" flag="0"/>
      <psa03 value="0.0637230776" flag="0"/>
      <psa10 value="0.0082826326" flag="0"/>
      <psa30 value="0.0004270617" flag="0"/>
    </comp>
    <comp name="--.HHZ">
      <acc value="0.0133337621" flag="0"/>
      <vel value="0.0042380847" flag="0"/>
      <psa03 value="0.0240041778" flag="0"/>
      <psa10 value="0.0039327668" flag="0"/>
      <psa30 value="0.0001684934" flag="0"/>
    </comp>
  </station>
  <station code="BALB" name="BALB" netid="KO" insttype="CMG-5T" commtype="DIG" lat="39.6507" lon="27.8642">
    <comp name="--.HNN">
      <acc value="0.0200840731" flag="0"/>
      <vel value="0.0117162849" flag="0"/>
      <psa03 value="0.0489130244" flag="0"/>
      <psa10 value="0.0113609312" flag="0"/>
      <psa30 value="0.0009505961" flag="0"/>
    </comp>
    <comp name="--.HNE">
      <acc value="0.0309268222" flag="0"/>
      <vel value="0.0117648832" flag="0"/>
      <psa03 value="0.0529356458" flag="0"/>
      <psa10 value="0.0152732235" flag="0"/>
      <psa30 value="0.0009881860" flag="0"/>
    </comp>
    <comp name="--.HNZ">
      <acc value="0.0278177688" flag="0"/>
      <vel value="0.0073764332" flag="0"/>
      <psa03 value="0.0370852997" flag="0"/>
      <psa10 value="0.0065425163" flag="0"/>
      <psa30 value="0.0007631240" flag="0"/>
    </comp>
  </station>
  <station code="DST" name="DST" netid="KO" insttype="CMG-5T" commtype="DIG" lat="39.6041" lon="28.6267">
    <comp name="--.HNZ">
      <acc value="0.0270552365" flag="0"/>
      <vel value="0.0099638935" flag="0"/>
      <psa03 value="0.0494209777" flag="0"/>
      <psa10 value="0.0067747231" flag="0"/>
      <psa30 value="0.0004957168" flag="0"/>
    </comp>
  </station>
  <station code="GEDZ" name="GEDZ" netid="KO" insttype="CMG-6T" commtype="DIG" lat="39.0445" lon="29.4105">
    <comp name="--.HHZ">
      <acc value="0.0186159466" flag="0"/>
      <vel value="0.0109449819" flag="0"/>
      <psa03 value="0.0406688453" flag="0"/>
      <psa10 value="0.0113873988" flag="0"/>
      <psa30 value="0.0005046851" flag="0"/>
    </comp>
    <comp name="--.HHE">
      <acc value="0.0534734779" flag="0"/>
      <vel value="0.0221707164" flag="0"/>
      <psa03 value="0.1599829884" flag="0"/>
      <psa10 value="0.0356162494" flag="0"/>
      <psa30 value="0.0015126658" flag="0"/>
    </comp>
    <comp name="--.HHN">
      <acc value="0.0483668738" flag="0"/>
      <vel value="0.0286938503" flag="0"/>
      <psa03 value="0.1577320583" flag="0"/>
      <psa10 value="0.0401697279" flag="0"/>
      <psa30 value="0.0026143681" flag="0"/>
    </comp>
  </station>
  <station code="GOMA" name="GOMA" netid="KO" insttype="CMG-5T" commtype="DIG" lat="38.7077" lon="27.9175">
    <comp name="--.HNZ">
      <acc value="0.0613986073" flag="0"/>
      <vel value="0.0150742405" flag="0"/>
      <psa03 value="0.0669762976" flag="0"/>
      <psa10 value="0.0054698046" flag="0"/>
      <psa30 value="0.0006295062" flag="0"/>
    </comp>
    <comp name="--.HNE">
      <acc value="0.0815748945" flag="0"/>
      <vel value="0.0392184928" flag="0"/>
      <psa03 value="0.1862587109" flag="0"/>
      <psa10 value="0.0329405502" flag="0"/>
      <psa30 value="0.0018118456" flag="0"/>
    </comp>
  </station>
  <station code="GONE" name="GONE" netid="KO" insttype="CMG-5T" commtype="DIG" lat="40.0466" lon="27.686">
    <comp name="--.HNE">
      <acc value="0.0178817537" flag="0"/>
      <vel value="0.0102799389" flag="0"/>
      <psa03 value="0.0575988439" flag="0"/>
      <psa10 value="0.0137912567" flag="0"/>
      <psa30 value="0.0007521613" flag="0"/>
    </comp>
    <comp name="--.HNN">
      <acc value="0.0284879230" flag="0"/>
      <vel value="0.0132959503" flag="0"/>
      <psa03 value="0.0722437827" flag="0"/>
      <psa10 value="0.0068449229" flag="0"/>
      <psa30 value="0.0005632279" flag="0"/>
    </comp>
    <comp name="--.HNZ">
      <acc value="0.0162384720" flag="0"/>
      <vel value="0.0042448603" flag="0"/>
      <psa03 value="0.0255124301" flag="0"/>
      <psa10 value="0.0038714830" flag="0"/>
      <psa30 value="0.0001753022" flag="0"/>
    </comp>
  </station>
  <station code="GORD" name="GORD" netid="KO" insttype="CMG-5T" commtype="DIG" lat="38.9088" lon="28.1769">
    <comp name="--.HNN">
      <acc value="0.0735698404" flag="0"/>
      <vel value="0.0520393685" flag="0"/>
      <psa03 value="0.1037976028" flag="0"/>
      <psa10 value="0.0451630006" flag="0"/>
      <psa30 value="0.0023767555" flag="0"/>
    </comp>
    <comp name="--.HNZ">
      <acc value="0.0439108320" flag="0"/>
      <vel value="0.0186696539" flag="0"/>
      <psa03 value="0.0886624939" flag="0"/>
      <psa10 value="0.0165794731" flag="0"/>
      <psa30 value="0.0013570825" flag="0"/>
    </comp>
    <comp name="--.HNE">
      <acc value="0.0555637174" flag="0"/>
      <vel value="0.0316291304" flag="0"/>
      <psa03 value="0.0728547593" flag="0"/>
      <psa10 value="0.0322302549" flag="0"/>
      <psa30 value="0.0031795283" flag="0"/>
    </comp>
  </station>
  <station code="KCTX" name="KCTX" netid="KO" insttype="CMG-3ESP" commtype="DIG" lat="40.2626" lon="28.3353">
    <comp name="--.HHE">
      <acc value="0.0192053096" flag="0"/>
      <vel value="0.0077578272" flag="0"/>
      <psa03 value="0.0311346775" flag="0"/>
      <psa10 value="0.0091495299" flag="0"/>
      <psa30 value="0.0006806424" flag="0"/>
    </comp>
    <comp name="--.HHN">
      <acc value="0.0238622123" flag="0"/>
      <vel value="0.0090145216" flag="0"/>
      <psa03 value="0.0444576227" flag="0"/>
      <psa10 value="0.0078467492" flag="0"/>
      <psa30 value="0.0004666199" flag="0"/>
    </comp>
    <comp name="--.HHZ">
      <acc value="0.0169373513" flag="0"/>
      <vel value="0.0065758659" flag="0"/>
      <psa03 value="0.0415888793" flag="0"/>
      <psa10 value="0.0047824977" flag="0"/>
      <psa30 value="0.0002511340" flag="0"/>
    </comp>
  </station>
  <station code="ORLT" name="ORLT" netid="KO" insttype="CMG-5T" commtype="DIG" lat="40.0452" lon="28.8914">
    <comp name="--.HNE">
      <acc value="0.0655510554" flag="0"/>
      <vel value="0.0244482346" flag="0"/>
      <psa03 value="0.1726657501" flag="0"/>
      <psa10 value="0.0129038535" flag="0"/>
      <psa30 value="0.0007309873" flag="0"/>
    </comp>
    <comp name="--.HNN">
      <acc value="0.0623789641" flag="0"/>
      <vel value="0.0345577779" flag="0"/>
      <psa03 value="0.2909815759" flag="0"/>
      <psa10 value="0.0179918767" flag="0"/>
      <psa30 value="0.0014571953" flag="0"/>
    </comp>
    <comp name="--.HNZ">
      <acc value="0.0180581675" flag="0"/>
      <vel value="0.0088137959" flag="0"/>
      <psa03 value="0.0499641753" flag="0"/>
      <psa10 value="0.0068197284" flag="0"/>
      <psa30 value="0.0004953098" flag="0"/>
    </comp>
  </station>
  <station code="SIMA" name="SIMA" netid="KO" insttype="CMG-6T" commtype="DIG" lat="39.0833" lon="28.9825">
    <comp name="--.HHE">
      <acc value="0.0618446010" flag="0"/>
      <vel value="0.0248050185" flag="0"/>
      <psa03 value="0.1425190938" flag="0"/>
      <psa10 value="0.0056045903" flag="0"/>
      <psa30 value="0.0004920084" flag="0"/>
    </comp>
    <comp name="--.HHN">
      <acc value="0.0677525745" flag="0"/>
      <vel value="0.0275776195" flag="0"/>
      <psa03 value="0.2224546392" flag="0"/>
      <psa10 value="0.0105160191" flag="0"/>
      <psa30 value="0.0009958050" flag="0"/>
    </comp>
    <comp name="--.HHZ">
      <acc value="0.0493872527" flag="0"/>
      <vel value="0.0135007741" flag="0"/>
      <psa03 value="0.0716660710" flag="0"/>
      <psa10 value="0.0050654347" flag="0"/>
      <psa30 value="0.0003826718" flag="0"/>
    </comp>
  </station>
  <station code="SMAA" name="SMAA" netid="KO" insttype="CMG-5T" commtype="DIG" lat="39.1005" lon="28.9805">
    <comp name="--.HNE">
      <acc value="0.0628925772" flag="0"/>
      <vel value="0.0312917188" flag="0"/>
      <psa03 value="0.2002457227" flag="0"/>
      <psa10 value="0.0307527886" flag="0"/>
      <psa30 value="0.0020677316" flag="0"/>
    </comp>
    <comp name="--.HNN">
      <acc value="0.0598699243" flag="0"/>
      <vel value="0.0289901230" flag="0"/>
      <psa03 value="0.1854354192" flag="0"/>
      <psa10 value="0.0334623849" flag="0"/>
      <psa30 value="0.0022377057" flag="0"/>
    </comp>
    <comp name="--.HNZ">
      <acc value="0.0279880901" flag="0"/>
      <vel value="0.0093476942" flag="0"/>
      <psa03 value="0.0495191811" flag="0"/>
      <psa10 value="0.0243692625" flag="0"/>
      <psa30 value="0.0008484723" flag="0"/>
    </comp>
  </station>
  <station code="SOMA" name="SOMA" netid="KO" insttype="CMG-5T" commtype="DIG" lat="39.1564" lon="27.5341">
    <comp name="--.HNN">
      <acc value="0.0551244184" flag="0"/>
      <vel value="0.0252714162" flag="0"/>
      <psa03 value="0.0613787000" flag="0"/>
      <psa10 value="0.0247226353" flag="0"/>
      <psa30 value="0.0015456920" flag="0"/>
    </comp>
    <comp name="--.HNZ">
      <acc value="0.0656857671" flag="0"/>
      <vel value="0.0193367690" flag="0"/>
      <psa03 value="0.0472105423" flag="0"/>
      <psa10 value="0.0199819590" flag="0"/>
      <psa30 value="0.0009059398" flag="0"/>
    </comp>
    <comp name="--.HNE">
      <acc value="0.0444588028" flag="0"/>
      <vel value="0.0142079434" flag="0"/>
      <psa03 value="0.0585701226" flag="0"/>
      <psa10 value="0.0241964119" flag="0"/>
      <psa30 value="0.0009996439" flag="0"/>
    </comp>
  </station>
  <station code="SUSR" name="SUSR" netid="KO" insttype="CMG-5T" commtype="DIG" lat="39.9627" lon="28.0835">
    <comp name="--.HNE">
      <acc value="0.0208910322" flag="0"/>
      <vel value="0.0067453535" flag="0"/>
      <psa03 value="0.0310319002" flag="0"/>
      <psa10 value="0.0050993633" flag="0"/>
      <psa30 value="0.0002891030" flag="0"/>
    </comp>
    <comp name="--.HNN">
      <acc value="0.0203623236" flag="0"/>
      <vel value="0.0072330425" flag="0"/>
      <psa03 value="0.0495290452" flag="0"/>
      <psa10 value="0.0031581026" flag="0"/>
      <psa30 value="0.0003184208" flag="0"/>
    </comp>
    <comp name="--.HNZ">
      <acc value="0.0194865952" flag="0"/>
      <vel value="0.0047234203" flag="0"/>
      <psa03 value="0.0299506313" flag="0"/>
      <psa10 value="0.0026394820" flag="0"/>
      <psa30 value="0.0002856127" flag="0"/>
    </comp>
  </station>
  <station code="TVSB" name="TVSB" netid="KO" insttype="CMG-3T" commtype="DIG" lat="39.4497" lon="29.4615">
    <comp name="--.HHN">
      <acc value="0.0244283130" flag="0"/>
      <vel value="0.0106272146" flag="0"/>
      <psa03 value="0.0925458234" flag="0"/>
      <psa10 value="0.0038653359" flag="0"/>
      <psa30 value="0.0004056558" flag="0"/>
    </comp>
    <comp name="--.HHE">
      <acc value="0.0435027052" flag="0"/>
      <vel value="0.0252830112" flag="0"/>
      <psa03 value="0.1451453230" flag="0"/>
      <psa10 value="0.0127821198" flag="0"/>
      <psa30 value="0.0009572171" flag="0"/>
    </comp>
    <comp name="--.HHZ">
      <acc value="0.0129051466" flag="0"/>
      <vel value="0.0064884368" flag="0"/>
      <psa03 value="0.0373747111" flag="0"/>
      <psa10 value="0.0054393861" flag="0"/>
      <psa30 value="0.0002427489" flag="0"/>
    </comp>
  </station>
  <station code="YAYO" name="YAYO" netid="KO" insttype="CMG-6T" commtype="DIG" lat="39.6113" lon="27.0726">
    <comp name="--.HHN">
      <acc value="0.0180709568" flag="0"/>
      <vel value="0.0134781623" flag="0"/>
      <psa03 value="0.0826278355" flag="0"/>
      <psa10 value="0.0135761691" flag="0"/>
      <psa30 value="0.0008250757" flag="0"/>
    </comp>
    <comp name="--.HHZ">
      <acc value="0.0144750738" flag="0"/>
      <vel value="0.0076296720" flag="0"/>
      <psa03 value="0.0412399062" flag="0"/>
      <psa10 value="0.0069602405" flag="0"/>
      <psa30 value="0.0003794865" flag="0"/>
    </comp>
    <comp name="--.HHE">
      <acc value="0.0261277674" flag="0"/>
      <vel value="0.0196845734" flag="0"/>
      <psa03 value="0.0506563773" flag="0"/>
      <psa10 value="0.0080336927" flag="0"/>
      <psa30 value="0.0010620855" flag="0"/>
    </comp>
  </station>
  <station code="YENI" name="YENI" netid="KO" insttype="CMG-5T" commtype="DIG" lat="39.9364" lon="27.2422">
    <comp name="--.HNN">
      <acc value="0.0338995162" flag="0"/>
      <vel value="0.0103979036" flag="0"/>
      <psa03 value="0.0391099372" flag="0"/>
      <psa10 value="0.0093663442" flag="0"/>
      <psa30 value="0.0004266194" flag="0"/>
    </comp>
    <comp name="--.HNE">
      <acc value="0.0279339922" flag="0"/>
      <vel value="0.0137960339" flag="0"/>
      <psa03 value="0.0699577922" flag="0"/>
      <psa10 value="0.0071056996" flag="0"/>
      <psa30 value="0.0005898105" flag="0"/>
    </comp>
    <comp name="--.HNZ">
      <acc value="0.0189153808" flag="0"/>
      <vel value="0.0032468613" flag="0"/>
      <psa03 value="0.0176893963" flag="0"/>
      <psa10 value="0.0034158730" flag="0"/>
      <psa30 value="0.0003644662" flag="0"/>
    </comp>
  </station>
</stationlist>
