<?xml version="1.0" encoding="UTF-8" standalone="yes"?>
<!DOCTYPE earthquake SYSTEM "stationlist.dtd">
<stationlist created="" xmlns="ch.ethz.sed.shakemap.usgs.xml">
  <station code="AKS" name="AKS" netid="KO" insttype="CMG-5T" commtype="DIG" lat="38.8785" lon="27.8129">
    <comp name="--.HNE">
      <acc value="0.1215531440" flag="0"/>
      <vel value="0.0334929171" flag="0"/>
      <psa03 value="0.2041408218" flag="0"/>
      <psa10 value="0.0231585400" flag="0"/>
      <psa30 value="0.0013831489" flag="0"/>
    </comp>
    <comp name="--.HNZ">
      <acc value="0.0627137485" flag="0"/>
      <vel value="0.0145596194" flag="0"/>
      <psa03 value="0.0616813977" flag="0"/>
      <psa10 value="0.0092462173" flag="0"/>
      <psa30 value="0.0007595103" flag="0"/>
    </comp>
    <comp name="--.HNN">
      <acc value="0.1004663302" flag="0"/>
      <vel value="0.0409806379" flag="0"/>
      <psa03 value="0.1440671332" flag="0"/>
      <psa10 value="0.0230543885" flag="0"/>
      <psa30 value="0.0015265416" flag="0"/>
    </comp>
  </station>
  <station code="BALB" name="BALB" netid="KO" insttype="CMG-5T" commtype="DIG" lat="39.6507" lon="27.8642">
    <comp name="--.HNN">
      <acc value="0.0200840729" flag="0"/>
      <vel value="0.0117162878" flag="0"/>
      <psa03 value="0.0489130244" flag="0"/>
      <psa10 value="0.0113609316" flag="0"/>
      <psa30 value="0.0009503202" flag="0"/>
    </comp>
    <comp name="--.HNZ">
      <acc value="0.0278177696" flag="0"/>
      <vel value="0.0073764340" flag="0"/>
      <psa03 value="0.0370852997" flag="0"/>
      <psa10 value="0.0065425164" flag="0"/>
      <psa30 value="0.0007631255" flag="0"/>
    </comp>
    <comp name="--.HNE">
      <acc value="0.0309268206" flag="0"/>
      <vel value="0.0117648844" flag="0"/>
      <psa03 value="0.0529356458" flag="0"/>
      <psa10 value="0.0152732248" flag="0"/>
      <psa30 value="0.0009882524" flag="0"/>
    </comp>
  </station>
  <station code="DST" name="DST" netid="KO" insttype="CMG-5T" commtype="DIG" lat="39.6041" lon="28.6267">
    <comp name="--.HNZ">
      <acc value="0.0270552381" flag="0"/>
      <vel value="0.0099638792" flag="0"/>
      <psa03 value="0.0494209777" flag="0"/>
      <psa10 value="0.0067747237" flag="0"/>
      <psa30 value="0.0004975564" flag="0"/>
    </comp>
  </station>
  <station code="GEDZ" name="GEDZ" netid="KO" insttype="CMG-6T" commtype="DIG" lat="39.0445" lon="29.4105">
    <comp name="--.HHE">
      <acc value="0.0534734809" flag="0"/>
      <vel value="0.0221707126" flag="0"/>
      <psa03 value="0.1599829884" flag="0"/>
      <psa10 value="0.0356162493" flag="0"/>
      <psa30 value="0.0015127409" flag="0"/>
    </comp>
    <comp name="--.HHN">
      <acc value="0.0483668662" flag="0"/>
      <vel value="0.0286937991" flag="0"/>
      <psa03 value="0.1577320583" flag="0"/>
      <psa10 value="0.0401697285" flag="0"/>
      <psa30 value="0.0026142560" flag="0"/>
    </comp>
    <comp name="--.HHZ">
      <acc value="0.0186159470" flag="0"/>
      <vel value="0.0109449838" flag="0"/>
      <psa03 value="0.0406688453" flag="0"/>
      <psa10 value="0.0113873988" flag="0"/>
      <psa30 value="0.0005046602" flag="0"/>
    </comp>
  </station>
  <station code="GOMA" name="GOMA" netid="KO" insttype="CMG-5T" commtype="DIG" lat="38.7077" lon="27.9175">
    <comp name="--.HNZ">
      <acc value="0.0613986050" flag="0"/>
      <vel value="0.0150742486" flag="0"/>
      <psa03 value="0.0669762976" flag="0"/>
      <psa10 value="0.0054698041" flag="0"/>
      <psa30 value="0.0006273392" flag="0"/>
    </comp>
    <comp name="--.HNE">
      <acc value="0.0815748940" flag="0"/>
      <vel value="0.0392184879" flag="0"/>
      <psa03 value="0.1862587109" flag="0"/>
      <psa10 value="0.0329405595" flag="0"/>
      <psa30 value="0.0018139799" flag="0"/>
    </comp>
  </station>
  <station code="GONE" name="GONE" netid="KO" insttype="CMG-5T" commtype="DIG" lat="40.0466" lon="27.686">
    <comp name="--.HNN">
      <acc value="0.0284879213" flag="0"/>
      <vel value="0.0132959513" flag="0"/>
      <psa03 value="0.0722437827" flag="0"/>
      <psa10 value="0.0068449227" flag="0"/>
      <psa30 value="0.0005632167" flag="0"/>
    </comp>
    <comp name="--.HNE">
      <acc value="0.0178817529" flag="0"/>
      <vel value="0.0102799400" flag="0"/>
      <psa03 value="0.0575988439" flag="0"/>
      <psa10 value="0.0137912568" flag="0"/>
      <psa30 value="0.0007522617" flag="0"/>
    </comp>
    <comp name="--.HNZ">
      <acc value="0.0162384739" flag="0"/>
      <vel value="0.0042448591" flag="0"/>
      <psa03 value="0.0255124301" flag="0"/>
      <psa10 value="0.0038714830" flag="0"/>
      <psa30 value="0.0001910314" flag="0"/>
    </comp>
  </station>
  <station code="GORD" name="GORD" netid="KO" insttype="CMG-5T" commtype="DIG" lat="38.9088" lon="28.1769">
    <comp name="--.HNN">
      <acc value="0.0735698397" flag="0"/>
      <vel value="0.0520393687" flag="0"/>
      <psa03 value="0.1037976028" flag="0"/>
      <psa10 value="0.0451630005" flag="0"/>
      <psa30 value="0.0023769922" flag="0"/>
    </comp>
    <comp name="--.HNE">
      <acc value="0.0555637155" flag="0"/>
      <vel value="0.0316291295" flag="0"/>
      <psa03 value="0.0728547593" flag="0"/>
      <psa10 value="0.0322302499" flag="0"/>
      <psa30 value="0.0031799142" flag="0"/>
    </comp>
    <comp name="--.HNZ">
      <acc value="0.0439108300" flag="0"/>
      <vel value="0.0186696538" flag="0"/>
      <psa03 value="0.0886624939" flag="0"/>
      <psa10 value="0.0165794730" flag="0"/>
      <psa30 value="0.0013573261" flag="0"/>
    </comp>
  </station>
  <station code="KCTX" name="KCTX" netid="KO" insttype="CMG-3ESP" commtype="DIG" lat="40.2626" lon="28.3353">
    <comp name="--.HHE">
      <acc value="0.0192053098" flag="0"/>
      <vel value="0.0077578327" flag="0"/>
      <psa03 value="0.0311346775" flag="0"/>
      <psa10 value="0.0091495299" flag="0"/>
      <psa30 value="0.0006805663" flag="0"/>
    </comp>
    <comp name="--.HHN">
      <acc value="0.0238622123" flag="0"/>
      <vel value="0.0090145213" flag="0"/>
      <psa03 value="0.0444576227" flag="0"/>
      <psa10 value="0.0078467493" flag="0"/>
      <psa30 value="0.0004666259" flag="0"/>
    </comp>
    <comp name="--.HHZ">
      <acc value="0.0169373513" flag="0"/>
      <vel value="0.0065758625" flag="0"/>
      <psa03 value="0.0415888793" flag="0"/>
      <psa10 value="0.0047824977" flag="0"/>
      <psa30 value="0.0002511437" flag="0"/>
    </comp>
  </station>
  <station code="ORLT" name="ORLT" netid="KO" insttype="CMG-5T" commtype="DIG" lat="40.0452" lon="28.8914">
    <comp name="--.HNZ">
      <acc value="0.0180581598" flag="0"/>
      <vel value="0.0088138023" flag="0"/>
      <psa03 value="0.0499641753" flag="0"/>
      <psa10 value="0.0068197288" flag="0"/>
      <psa30 value="0.0004963356" flag="0"/>
    </comp>
    <comp name="--.HNN">
      <acc value="0.0623789646" flag="0"/>
      <vel value="0.0345577929" flag="0"/>
      <psa03 value="0.2909815759" flag="0"/>
      <psa10 value="0.0179918769" flag="0"/>
      <psa30 value="0.0014587446" flag="0"/>
    </comp>
    <comp name="--.HNE">
      <acc value="0.0655510627" flag="0"/>
      <vel value="0.0244482284" flag="0"/>
      <psa03 value="0.1726657501" flag="0"/>
      <psa10 value="0.0129038535" flag="0"/>
      <psa30 value="0.0007301423" flag="0"/>
    </comp>
  </station>
  <station code="SIMA" name="SIMA" netid="KO" insttype="CMG-6T" commtype="DIG" lat="39.0833" lon="28.9825">
    <comp name="--.HHE">
      <acc value="0.0618446082" flag="0"/>
      <vel value="0.0248050276" flag="0"/>
      <psa03 value="0.1425190938" flag="0"/>
      <psa10 value="0.0056045905" flag="0"/>
      <psa30 value="0.0004919185" flag="0"/>
    </comp>
    <comp name="--.HHN">
      <acc value="0.0677525468" flag="0"/>
      <vel value="0.0275776272" flag="0"/>
      <psa03 value="0.2224546392" flag="0"/>
      <psa10 value="0.0105160192" flag="0"/>
      <psa30 value="0.0009958175" flag="0"/>
    </comp>
    <comp name="--.HHZ">
      <acc value="0.0493872470" flag="0"/>
      <vel value="0.0135007738" flag="0"/>
      <psa03 value="0.0716660710" flag="0"/>
      <psa10 value="0.0050654347" flag="0"/>
      <psa30 value="0.0003827785" flag="0"/>
    </comp>
  </station>
  <station code="SMAA" name="SMAA" netid="KO" insttype="CMG-5T" commtype="DIG" lat="39.1005" lon="28.9805">
    <comp name="--.HNE">
      <acc value="0.0628925900" flag="0"/>
      <vel value="0.0312917306" flag="0"/>
      <psa03 value="0.2002457227" flag="0"/>
      <psa10 value="0.0307527884" flag="0"/>
      <psa30 value="0.0020666658" flag="0"/>
    </comp>
    <comp name="--.HNZ">
      <acc value="0.0279880820" flag="0"/>
      <vel value="0.0093476906" flag="0"/>
      <psa03 value="0.0495191811" flag="0"/>
      <psa10 value="0.0243692633" flag="0"/>
      <psa30 value="0.0008511094" flag="0"/>
    </comp>
    <comp name="--.HNN">
      <acc value="0.0598699144" flag="0"/>
      <vel value="0.0289901628" flag="0"/>
      <psa03 value="0.1854354192" flag="0"/>
      <psa10 value="0.0334623825" flag="0"/>
      <psa30 value="0.0022392527" flag="0"/>
    </comp>
  </station>
  <station code="SOMA" name="SOMA" netid="KO" insttype="CMG-5T" commtype="DIG" lat="39.1564" lon="27.5341">
    <comp name="--.HNN">
      <acc value="0.0551244181" flag="0"/>
      <vel value="0.0252714141" flag="0"/>
      <psa03 value="0.0613787000" flag="0"/>
      <psa10 value="0.0247226326" flag="0"/>
      <psa30 value="0.0015458506" flag="0"/>
    </comp>
    <comp name="--.HNE">
      <acc value="0.0444588028" flag="0"/>
      <vel value="0.0142079422" flag="0"/>
      <psa03 value="0.0585701226" flag="0"/>
      <psa10 value="0.0241964118" flag="0"/>
      <psa30 value="0.0010011002" flag="0"/>
    </comp>
    <comp name="--.HNZ">
      <acc value="0.0656857686" flag="0"/>
      <vel value="0.0193367676" flag="0"/>
      <psa03 value="0.0472105423" flag="0"/>
      <psa10 value="0.0199819594" flag="0"/>
      <psa30 value="0.0009057136" flag="0"/>
    </comp>
  </station>
  <station code="SUSR" name="SUSR" netid="KO" insttype="CMG-5T" commtype="DIG" lat="39.9627" lon="28.0835">
    <comp name="--.HNN">
      <acc value="0.0203623237" flag="0"/>
      <vel value="0.0072330426" flag="0"/>
      <psa03 value="0.0495290452" flag="0"/>
      <psa10 value="0.0031581025" flag="0"/>
      <psa30 value="0.0003184475" flag="0"/>
    </comp>
    <comp name="--.HNE">
      <acc value="0.0208910348" flag="0"/>
      <vel value="0.0067453509" flag="0"/>
      <psa03 value="0.0310319002" flag="0"/>
      <psa10 value="0.0050993630" flag="0"/>
      <psa30 value="0.0002895827" flag="0"/>
    </comp>
    <comp name="--.HNZ">
      <acc value="0.0194865958" flag="0"/>
      <vel value="0.0047234239" flag="0"/>
      <psa03 value="0.0299506313" flag="0"/>
      <psa10 value="0.0026394793" flag="0"/>
      <psa30 value="0.0002857139" flag="0"/>
    </comp>
  </station>
  <station code="TVSB" name="TVSB" netid="KO" insttype="CMG-3T" commtype="DIG" lat="39.4497" lon="29.4615">
    <comp name="--.HHE">
      <acc value="0.0435027055" flag="0"/>
      <vel value="0.0252830113" flag="0"/>
      <psa03 value="0.1451453230" flag="0"/>
      <psa10 value="0.0127821198" flag="0"/>
      <psa30 value="0.0009573010" flag="0"/>
    </comp>
    <comp name="--.HHN">
      <acc value="0.0244283135" flag="0"/>
      <vel value="0.0106272147" flag="0"/>
      <psa03 value="0.0925458234" flag="0"/>
      <psa10 value="0.0038653358" flag="0"/>
      <psa30 value="0.0004056781" flag="0"/>
    </comp>
    <comp name="--.HHZ">
      <acc value="0.0129051461" flag="0"/>
      <vel value="0.0064884364" flag="0"/>
      <psa03 value="0.0373747111" flag="0"/>
      <psa10 value="0.0054393862" flag="0"/>
      <psa30 value="0.0002427646" flag="0"/>
    </comp>
  </station>
  <station code="YAYO" name="YAYO" netid="KO" insttype="CMG-6T" commtype="DIG" lat="39.6113" lon="27.0726">
    <comp name="--.HHE">
      <acc value="0.0261277671" flag="0"/>
      <vel value="0.0196845719" flag="0"/>
      <psa03 value="0.0506563773" flag="0"/>
      <psa10 value="0.0080336928" flag="0"/>
      <psa30 value="0.0010620923" flag="0"/>
    </comp>
    <comp name="--.HHN">
      <acc value="0.0180709569" flag="0"/>
      <vel value="0.0134781620" flag="0"/>
      <psa03 value="0.0826278355" flag="0"/>
      <psa10 value="0.0135761692" flag="0"/>
      <psa30 value="0.0008250521" flag="0"/>
    </comp>
    <comp name="--.HHZ">
      <acc value="0.0144750733" flag="0"/>
      <vel value="0.0076296731" flag="0"/>
      <psa03 value="0.0412399062" flag="0"/>
      <psa10 value="0.0069602405" flag="0"/>
      <psa30 value="0.0003794579" flag="0"/>
    </comp>
  </station>
  <station code="YENI" name="YENI" netid="KO" insttype="CMG-5T" commtype="DIG" lat="39.9364" lon="27.2422">
    <comp name="--.HNN">
      <acc value="0.0338995150" flag="0"/>
      <vel value="0.0103979030" flag="0"/>
      <psa03 value="0.0391099372" flag="0"/>
      <psa10 value="0.0093663439" flag="0"/>
      <psa30 value="0.0004267422" flag="0"/>
    </comp>
    <comp name="--.HNE">
      <acc value="0.0279339946" flag="0"/>
      <vel value="0.0137960446" flag="0"/>
      <psa03 value="0.0699577922" flag="0"/>
      <psa10 value="0.0071056999" flag="0"/>
      <psa30 value="0.0005905350" flag="0"/>
    </comp>
    <comp name="--.HNZ">
      <acc value="0.0189153813" flag="0"/>
      <vel value="0.0032468532" flag="0"/>
      <psa03 value="0.0176893963" flag="0"/>
      <psa10 value="0.0034158732" flag="0"/>
      <psa30 value="0.0003645812" flag="0"/>
    </comp>
  </station>
</stationlist>
