<?xml version="1.0" encoding="UTF-8" standalone="yes"?>
<!DOCTYPE earthquake SYSTEM "stationlist.dtd">
<stationlist created="" xmlns="ch.ethz.sed.shakemap.usgs.xml">
  <station code="ARG" name="ARG" netid="HL" insttype="LE3D20_DR24" lat="36.2136" lon="28.1212">
    <comp name="--.HHE">
      <acc value="0.1312152230" flag="0"/>
      <vel value="0.0258343609" flag="0"/>
      <psa03 value="0.1094709842" flag="0"/>
      <psa10 value="0.0194262490" flag="0"/>
      <psa30 value="0.0013525932" flag="0"/>
    </comp>
    <comp name="--.HHN">
      <acc value="0.1068742297" flag="0"/>
      <vel value="0.0188057307" flag="0"/>
      <psa03 value="0.0882787860" flag="0"/>
      <psa10 value="0.0120237005" flag="0"/>
      <psa30 value="0.0010118065" flag="0"/>
    </comp>
    <comp name="--.HHZ">
      <acc value="0.0676410565" flag="0"/>
      <vel value="0.0142603569" flag="0"/>
      <psa03 value="0.0450527948" flag="0"/>
      <psa10 value="0.0170356363" flag="0"/>
      <psa30 value="0.0008279571" flag="0"/>
    </comp>
  </station>
  <station code="NISR2" name="NISR2" netid="HL" insttype="120" lat="36.5744" lon="27.1767">
    <comp name="--.HHZ">
      <acc value="0.0453527628" flag="0"/>
      <vel value="0.0202512122" flag="0"/>
      <psa03 value="0.1151313276" flag="0"/>
      <psa10 value="0.0094309169" flag="0"/>
      <psa30 value="0.0005180857" flag="0"/>
    </comp>
    <comp name="--.HHE">
      <acc value="0.1024374744" flag="0"/>
      <vel value="0.0516845658" flag="0"/>
      <psa03 value="0.3755018209" flag="0"/>
      <psa10 value="0.0544376088" flag="0"/>
      <psa30 value="0.0017033969" flag="0"/>
    </comp>
    <comp name="--.HHN">
      <acc value="0.1309623541" flag="0"/>
      <vel value="0.0703292684" flag="0"/>
      <psa03 value="0.6207622566" flag="0"/>
      <psa10 value="0.0477470326" flag="0"/>
      <psa30 value="0.0023732648" flag="0"/>
    </comp>
  </station>
</stationlist>
