<?xml version="1.0" encoding="UTF-8" standalone="yes"?>
<!DOCTYPE earthquake SYSTEM "stationlist.dtd">
<stationlist created="" xmlns="ch.ethz.sed.shakemap.usgs.xml">
  <station code="KARP" name="KARP" netid="GE" insttype="STS-2/N" lat="35.5471" lon="27.1611">
    <comp name="--.HHE">
      <acc value="0.2486088951" flag="0"/>
      <vel value="0.0441223794" flag="0"/>
      <psa03 value="0.0763153949" flag="0"/>
      <psa10 value="0.0112088319" flag="0"/>
      <psa30 value="0.0006453752" flag="0"/>
    </comp>
    <comp name="--.HHN">
      <acc value="0.1967388653" flag="0"/>
      <vel value="0.0416171995" flag="0"/>
      <psa03 value="0.0883457167" flag="0"/>
      <psa10 value="0.0128433750" flag="0"/>
      <psa30 value="0.0009418348" flag="0"/>
    </comp>
    <comp name="--.HHZ">
      <acc value="0.1269336075" flag="0"/>
      <vel value="0.0286920388" flag="0"/>
      <psa03 value="0.0575160593" flag="0"/>
      <psa10 value="0.0062004432" flag="0"/>
      <psa30 value="0.0004839172" flag="0"/>
    </comp>
  </station>
  <station code="ARG" name="ARG" netid="HL" insttype="LE3D20_DR24" lat="36.2136" lon="28.1212">
    <comp name="--.HHN">
      <acc value="0.1068742297" flag="0"/>
      <vel value="0.0188057221" flag="0"/>
      <psa03 value="0.0882787860" flag="0"/>
      <psa10 value="0.0120237004" flag="0"/>
      <psa30 value="0.0010117828" flag="0"/>
    </comp>
    <comp name="--.HHE">
      <acc value="0.1312152231" flag="0"/>
      <vel value="0.0258343545" flag="0"/>
      <psa03 value="0.1094709843" flag="0"/>
      <psa10 value="0.0194262490" flag="0"/>
      <psa30 value="0.0013525235" flag="0"/>
    </comp>
    <comp name="--.HHZ">
      <acc value="0.0676410563" flag="0"/>
      <vel value="0.0142603513" flag="0"/>
      <psa03 value="0.0450527948" flag="0"/>
      <psa10 value="0.0170356363" flag="0"/>
      <psa30 value="0.0008279640" flag="0"/>
    </comp>
  </station>
  <station code="KARP" name="KARP" netid="HL" insttype="120" lat="35.5471" lon="27.1611">
    <comp name="--.HHN">
      <acc value="0.1726022769" flag="0"/>
      <vel value="0.0383977010" flag="0"/>
      <psa03 value="0.0863462853" flag="0"/>
      <psa10 value="0.0126149699" flag="0"/>
      <psa30 value="0.0009266923" flag="0"/>
    </comp>
    <comp name="--.HHE">
      <acc value="0.2306833804" flag="0"/>
      <vel value="0.0421993811" flag="0"/>
      <psa03 value="0.0741502777" flag="0"/>
      <psa10 value="0.0110911250" flag="0"/>
      <psa30 value="0.0006084845" flag="0"/>
    </comp>
    <comp name="--.HHZ">
      <acc value="0.1179693426" flag="0"/>
      <vel value="0.0275303961" flag="0"/>
      <psa03 value="0.0552929763" flag="0"/>
      <psa10 value="0.0061275606" flag="0"/>
      <psa30 value="0.0004721033" flag="0"/>
    </comp>
  </station>
  <station code="NISR2" name="NISR2" netid="HL" insttype="120" lat="36.5744" lon="27.1767">
    <comp name="--.HHE">
      <acc value="0.1024374743" flag="0"/>
      <vel value="0.0516845578" flag="0"/>
      <psa03 value="0.3755018209" flag="0"/>
      <psa10 value="0.0544376118" flag="0"/>
      <psa30 value="0.0017033493" flag="0"/>
    </comp>
    <comp name="--.HHZ">
      <acc value="0.0453527628" flag="0"/>
      <vel value="0.0202512115" flag="0"/>
      <psa03 value="0.1151313276" flag="0"/>
      <psa10 value="0.0094309176" flag="0"/>
      <psa30 value="0.0005183522" flag="0"/>
    </comp>
    <comp name="--.HHN">
      <acc value="0.1309623542" flag="0"/>
      <vel value="0.0703292774" flag="0"/>
      <psa03 value="0.6207622566" flag="0"/>
      <psa10 value="0.0477470350" flag="0"/>
      <psa30 value="0.0023742274" flag="0"/>
    </comp>
  </station>
</stationlist>
