<?xml version="1.0" encoding="UTF-8" standalone="yes"?>
<!DOCTYPE earthquake SYSTEM "stationlist.dtd">
<stationlist created="" xmlns="ch.ethz.sed.shakemap.usgs.xml">
  <station code="BNN" name="BNN" netid="KO" insttype="CMG-3T" lat="38.8521" lon="35.8472">
    <comp name="--.HHN">
      <acc value="0.0222648245" flag="0"/>
      <vel value="0.0138523737" flag="0"/>
      <psa03 value="0.0365319026" flag="0"/>
      <psa10 value="0.0305267823" flag="0"/>
      <psa30 value="0.0016267421" flag="0"/>
    </comp>
  </station>
  <station code="DARE" name="DARE" netid="KO" insttype="CMG-3ESP" lat="38.5712" lon="37.4832">
    <comp name="--.HHZ">
      <acc value="0.0172236562" flag="0"/>
      <vel value="0.0115280898" flag="0"/>
      <psa03 value="0.0559962376" flag="0"/>
      <psa10 value="0.0182280250" flag="0"/>
      <psa30 value="0.0009517002" flag="0"/>
    </comp>
  </station>
  <station code="GAZ" name="GAZ" netid="KO" insttype="CMG-3T" lat="37.1721" lon="37.2096">
    <comp name="--.HHN">
      <acc value="0.0312888524" flag="0"/>
      <vel value="0.0225184081" flag="0"/>
      <psa03 value="0.0837541644" flag="0"/>
      <psa10 value="0.0271135885" flag="0"/>
      <psa30 value="0.0016366201" flag="0"/>
    </comp>
    <comp name="--.HHZ">
      <acc value="0.0231247665" flag="0"/>
      <vel value="0.0122224368" flag="0"/>
      <psa03 value="0.0408566465" flag="0"/>
      <psa10 value="0.0166290811" flag="0"/>
      <psa30 value="0.0017959736" flag="0"/>
    </comp>
  </station>
  <station code="KMRS" name="KMRS" netid="KO" insttype="CMG-3T" lat="37.5053" lon="36.9">
    <comp name="--.HHZ">
      <acc value="0.0543755075" flag="0"/>
      <vel value="0.0295148994" flag="0"/>
      <psa03 value="0.1299039632" flag="0"/>
      <psa10 value="0.0230711210" flag="0"/>
      <psa30 value="0.0020113618" flag="0"/>
    </comp>
    <comp name="--.HHE">
      <acc value="0.0565594243" flag="0"/>
      <vel value="0.0325081627" flag="0"/>
      <psa03 value="0.1358696618" flag="0"/>
      <psa10 value="0.0468214316" flag="0"/>
      <psa30 value="0.0078652151" flag="0"/>
    </comp>
    <comp name="--.HHN">
      <acc value="0.0744630653" flag="0"/>
      <vel value="0.0291649006" flag="0"/>
      <psa03 value="0.1428089195" flag="0"/>
      <psa10 value="0.0277293276" flag="0"/>
      <psa30 value="0.0073945779" flag="0"/>
    </comp>
  </station>
  <station code="ANDN" name="ANDN" netid="TU" insttype="T" lat="37.58" lon="36.3452">
    <comp name="--.HHZ">
      <acc value="0.2047997913" flag="0"/>
      <vel value="0.1461987278" flag="0"/>
      <psa03 value="0.4213217255" flag="0"/>
      <psa10 value="0.3037895289" flag="0"/>
      <psa30 value="0.0131248130" flag="0"/>
    </comp>
    <comp name="--.HHE">
      <acc value="0.3706983008" flag="0"/>
      <vel value="0.1928274311" flag="0"/>
      <psa03 value="0.5386862786" flag="0"/>
      <psa10 value="0.1603035431" flag="0"/>
      <psa30 value="0.0200706024" flag="0"/>
    </comp>
    <comp name="--.HHN">
      <acc value="0.7471063599" flag="0"/>
      <vel value="0.2879146402" flag="0"/>
      <psa03 value="0.8839238905" flag="0"/>
      <psa10 value="0.3756121287" flag="0"/>
      <psa30 value="0.0187124799" flag="0"/>
    </comp>
  </station>
</stationlist>
