<?xml version="1.0" encoding="UTF-8" standalone="yes"?>
<!DOCTYPE earthquake SYSTEM "stationlist.dtd">
<stationlist created="" xmlns="ch.ethz.sed.shakemap.usgs.xml">
  <station code="BNN" name="BNN" netid="KO" insttype="CMG-3T" lat="38.8521" lon="35.8472">
    <comp name="--.HHN">
      <acc value="0.0222648246" flag="0"/>
      <vel value="0.0138523732" flag="0"/>
      <psa03 value="0.0365319026" flag="0"/>
      <psa10 value="0.0305267822" flag="0"/>
      <psa30 value="0.0016267741" flag="0"/>
    </comp>
  </station>
  <station code="CEYT" name="CEYT" netid="KO" insttype="CMG-3ESP" lat="37.0105" lon="35.7478">
    <comp name="--.HHE">
      <acc value="0.0166797427" flag="0"/>
      <vel value="0.0132578520" flag="0"/>
      <psa03 value="0.0350269505" flag="0"/>
      <psa10 value="0.0176401913" flag="0"/>
      <psa30 value="0.0043951580" flag="0"/>
    </comp>
    <comp name="--.HHZ">
      <acc value="0.0121785009" flag="0"/>
      <vel value="0.0112254832" flag="0"/>
      <psa03 value="0.0192941404" flag="0"/>
      <psa10 value="0.0215679539" flag="0"/>
      <psa30 value="0.0018775649" flag="0"/>
    </comp>
    <comp name="--.HHN">
      <acc value="0.0132830572" flag="0"/>
      <vel value="0.0094747605" flag="0"/>
      <psa03 value="0.0215227949" flag="0"/>
      <psa10 value="0.0143672233" flag="0"/>
      <psa30 value="0.0023340655" flag="0"/>
    </comp>
  </station>
  <station code="CMRD" name="CMRD" netid="KO" insttype="CMG-5T" lat="37.6623" lon="34.9902">
    <comp name="--.HNE">
      <acc value="0.0116429308" flag="0"/>
      <vel value="0.0073167119" flag="0"/>
      <psa03 value="0.0269458723" flag="0"/>
      <psa10 value="0.0099223251" flag="0"/>
      <psa30 value="0.0008517279" flag="0"/>
    </comp>
    <comp name="--.HNN">
      <acc value="0.0232037540" flag="0"/>
      <vel value="0.0116053948" flag="0"/>
      <psa03 value="0.0377197093" flag="0"/>
      <psa10 value="0.0117060157" flag="0"/>
      <psa30 value="0.0009500229" flag="0"/>
    </comp>
    <comp name="--.HNZ">
      <acc value="0.0118073550" flag="0"/>
      <vel value="0.0083007708" flag="0"/>
      <psa03 value="0.0209583854" flag="0"/>
      <psa10 value="0.0092173202" flag="0"/>
      <psa30 value="0.0011810863" flag="0"/>
    </comp>
  </station>
  <station code="GAZ" name="GAZ" netid="KO" insttype="CMG-3T" lat="37.1721" lon="37.2096">
    <comp name="--.HHZ">
      <acc value="0.0231247667" flag="0"/>
      <vel value="0.0122224370" flag="0"/>
      <psa03 value="0.0408566465" flag="0"/>
      <psa10 value="0.0166290811" flag="0"/>
      <psa30 value="0.0017959742" flag="0"/>
    </comp>
  </station>
  <station code="KMRS" name="KMRS" netid="KO" insttype="CMG-3T" lat="37.5053" lon="36.9">
    <comp name="--.HHZ">
      <acc value="0.0543755078" flag="0"/>
      <vel value="0.0295148999" flag="0"/>
      <psa03 value="0.1299039632" flag="0"/>
      <psa10 value="0.0230711210" flag="0"/>
      <psa30 value="0.0020112785" flag="0"/>
    </comp>
    <comp name="--.HHN">
      <acc value="0.0744630652" flag="0"/>
      <vel value="0.0291649009" flag="0"/>
      <psa03 value="0.1428089195" flag="0"/>
      <psa10 value="0.0277293276" flag="0"/>
      <psa30 value="0.0073945330" flag="0"/>
    </comp>
    <comp name="--.HHE">
      <acc value="0.0565594243" flag="0"/>
      <vel value="0.0325081628" flag="0"/>
      <psa03 value="0.1358696618" flag="0"/>
      <psa10 value="0.0468214319" flag="0"/>
      <psa30 value="0.0078652115" flag="0"/>
    </comp>
  </station>
  <station code="ANDN" name="ANDN" netid="TU" insttype="T" lat="37.58" lon="36.3452">
    <comp name="--.HHZ">
      <acc value="0.2047997912" flag="0"/>
      <vel value="0.1461987283" flag="0"/>
      <psa03 value="0.4213217255" flag="0"/>
      <psa10 value="0.3037895284" flag="0"/>
      <psa30 value="0.0131250081" flag="0"/>
    </comp>
    <comp name="--.HHN">
      <acc value="0.7471063595" flag="0"/>
      <vel value="0.2879146406" flag="0"/>
      <psa03 value="0.8839238905" flag="0"/>
      <psa10 value="0.3756121285" flag="0"/>
      <psa30 value="0.0187123565" flag="0"/>
    </comp>
    <comp name="--.HHE">
      <acc value="0.3706983010" flag="0"/>
      <vel value="0.1928274310" flag="0"/>
      <psa03 value="0.5386862786" flag="0"/>
      <psa10 value="0.1603035428" flag="0"/>
      <psa30 value="0.0200703989" flag="0"/>
    </comp>
  </station>
</stationlist>
