<?xml version="1.0" encoding="UTF-8" standalone="yes"?>
<!DOCTYPE earthquake SYSTEM "stationlist.dtd">
<stationlist created="" xmlns="ch.ethz.sed.shakemap.usgs.xml">
  <station code="BNN" name="BNN" netid="KO" insttype="CMG-3T" lat="38.8521" lon="35.8472">
    <comp name="--.HHN">
      <acc value="0.0222648243" flag="0"/>
      <vel value="0.0138523744" flag="0"/>
      <psa03 value="0.0365319026" flag="0"/>
      <psa10 value="0.0305267826" flag="0"/>
      <psa30 value="0.0016267109" flag="0"/>
    </comp>
  </station>
  <station code="CEYT" name="CEYT" netid="KO" insttype="CMG-3ESP" lat="37.0105" lon="35.7478">
    <comp name="--.HHE">
      <acc value="0.0166797427" flag="0"/>
      <vel value="0.0132578196" flag="0"/>
      <psa03 value="0.0350269505" flag="0"/>
      <psa10 value="0.0176401913" flag="0"/>
      <psa30 value="0.0043950801" flag="0"/>
    </comp>
    <comp name="--.HHZ">
      <acc value="0.0121785014" flag="0"/>
      <vel value="0.0112254849" flag="0"/>
      <psa03 value="0.0192941404" flag="0"/>
      <psa10 value="0.0215679539" flag="0"/>
      <psa30 value="0.0018775868" flag="0"/>
    </comp>
    <comp name="--.HHN">
      <acc value="0.0132830578" flag="0"/>
      <vel value="0.0094747858" flag="0"/>
      <psa03 value="0.0215227948" flag="0"/>
      <psa10 value="0.0143672233" flag="0"/>
      <psa30 value="0.0023341535" flag="0"/>
    </comp>
  </station>
  <station code="GAZ" name="GAZ" netid="KO" insttype="CMG-3T" lat="37.1721" lon="37.2096">
    <comp name="--.HHZ">
      <acc value="0.0231247670" flag="0"/>
      <vel value="0.0122224370" flag="0"/>
      <psa03 value="0.0408566465" flag="0"/>
      <psa10 value="0.0166290811" flag="0"/>
      <psa30 value="0.0017959742" flag="0"/>
    </comp>
  </station>
  <station code="KMRS" name="KMRS" netid="KO" insttype="CMG-3T" lat="37.5053" lon="36.9">
    <comp name="--.HHE">
      <acc value="0.0565594245" flag="0"/>
      <vel value="0.0325081628" flag="0"/>
      <psa03 value="0.1358696618" flag="0"/>
      <psa10 value="0.0468214317" flag="0"/>
      <psa30 value="0.0078652131" flag="0"/>
    </comp>
    <comp name="--.HHZ">
      <acc value="0.0543755075" flag="0"/>
      <vel value="0.0295148995" flag="0"/>
      <psa03 value="0.1299039632" flag="0"/>
      <psa10 value="0.0230711210" flag="0"/>
      <psa30 value="0.0020113117" flag="0"/>
    </comp>
    <comp name="--.HHN">
      <acc value="0.0744630653" flag="0"/>
      <vel value="0.0291649007" flag="0"/>
      <psa03 value="0.1428089195" flag="0"/>
      <psa10 value="0.0277293276" flag="0"/>
      <psa30 value="0.0073945540" flag="0"/>
    </comp>
  </station>
  <station code="ANDN" name="ANDN" netid="TU" insttype="T" lat="37.58" lon="36.3452">
    <comp name="--.HHN">
      <acc value="0.7471063597" flag="0"/>
      <vel value="0.2879146406" flag="0"/>
      <psa03 value="0.8839238905" flag="0"/>
      <psa10 value="0.3756121282" flag="0"/>
      <psa30 value="0.0187126197" flag="0"/>
    </comp>
    <comp name="--.HHE">
      <acc value="0.3706983008" flag="0"/>
      <vel value="0.1928274313" flag="0"/>
      <psa03 value="0.5386862786" flag="0"/>
      <psa10 value="0.1603035408" flag="0"/>
      <psa30 value="0.0200707372" flag="0"/>
    </comp>
    <comp name="--.HHZ">
      <acc value="0.2047997912" flag="0"/>
      <vel value="0.1461987275" flag="0"/>
      <psa03 value="0.4213217255" flag="0"/>
      <psa10 value="0.3037895299" flag="0"/>
      <psa30 value="0.0131250360" flag="0"/>
    </comp>
  </station>
</stationlist>
