<?xml version="1.0" encoding="UTF-8" standalone="yes"?>
<!DOCTYPE earthquake SYSTEM "stationlist.dtd">
<stationlist created="" xmlns="ch.ethz.sed.shakemap.usgs.xml">
  <station code="APMY" name="APMY" netid="KO" insttype="CMG-6T" lat="37.4717" lon="29.3018">
    <comp name="--.HHE">
      <acc value="0.0139854291" flag="0"/>
      <vel value="0.0095019001" flag="0"/>
      <psa03 value="0.0630614072" flag="0"/>
      <psa10 value="0.0077536317" flag="0"/>
      <psa30 value="0.0006203838" flag="0"/>
    </comp>
    <comp name="--.HHN">
      <acc value="0.0264884949" flag="0"/>
      <vel value="0.0169126432" flag="0"/>
      <psa03 value="0.0880821641" flag="0"/>
      <psa10 value="0.0068407675" flag="0"/>
      <psa30 value="0.0005744794" flag="0"/>
    </comp>
    <comp name="--.HHZ">
      <acc value="0.0180115781" flag="0"/>
      <vel value="0.0090251802" flag="0"/>
      <psa03 value="0.0740775756" flag="0"/>
      <psa10 value="0.0057809968" flag="0"/>
      <psa30 value="0.0004015628" flag="0"/>
    </comp>
  </station>
  <station code="CAME" name="CAME" netid="KO" insttype="CMG-5T" lat="36.9435" lon="29.3023">
    <comp name="--.HNZ">
      <acc value="0.0229581259" flag="0"/>
      <vel value="0.0082075483" flag="0"/>
      <psa03 value="0.0492165410" flag="0"/>
      <psa10 value="0.0035512185" flag="0"/>
      <psa30 value="0.0004981426" flag="0"/>
    </comp>
    <comp name="--.HNE">
      <acc value="0.0330404493" flag="0"/>
      <vel value="0.0148086399" flag="0"/>
      <psa03 value="0.0833098098" flag="0"/>
      <psa10 value="0.0058787885" flag="0"/>
      <psa30 value="0.0009405368" flag="0"/>
    </comp>
    <comp name="--.HNN">
      <acc value="0.0410737843" flag="0"/>
      <vel value="0.0163918187" flag="0"/>
      <psa03 value="0.1171957590" flag="0"/>
      <psa10 value="0.0069332597" flag="0"/>
      <psa30 value="0.0006943873" flag="0"/>
    </comp>
  </station>
  <station code="DALY" name="DALY" netid="KO" insttype="CMG-3T" lat="36.8162" lon="28.6532">
    <comp name="--.HHE">
      <acc value="0.0352346319" flag="0"/>
      <vel value="0.0129836381" flag="0"/>
      <psa03 value="0.1011723336" flag="0"/>
      <psa10 value="0.0101418160" flag="0"/>
      <psa30 value="0.0007909735" flag="0"/>
    </comp>
    <comp name="--.HHN">
      <acc value="0.0345314521" flag="0"/>
      <vel value="0.0135411728" flag="0"/>
      <psa03 value="0.1167513210" flag="0"/>
      <psa10 value="0.0105862769" flag="0"/>
      <psa30 value="0.0008443341" flag="0"/>
    </comp>
    <comp name="--.HHZ">
      <acc value="0.0197305905" flag="0"/>
      <vel value="0.0056590362" flag="0"/>
      <psa03 value="0.0312136027" flag="0"/>
      <psa10 value="0.0061978106" flag="0"/>
      <psa30 value="0.0004549585" flag="0"/>
    </comp>
  </station>
  <station code="DAT" name="DAT" netid="KO" insttype="CMG-3T" lat="36.7308" lon="27.5767">
    <comp name="--.HHZ">
      <acc value="0.0011302066" flag="0"/>
      <vel value="0.0001243657" flag="0"/>
      <psa03 value="0.0003292136" flag="0"/>
      <psa10 value="0.0000470390" flag="0"/>
      <psa30 value="0.0000069703" flag="0"/>
    </comp>
    <comp name="--.HHN">
      <acc value="0.1006278600" flag="0"/>
      <vel value="0.0443603205" flag="0"/>
      <psa03 value="0.2638909087" flag="0"/>
      <psa10 value="0.0219976893" flag="0"/>
      <psa30 value="0.0014365401" flag="0"/>
    </comp>
    <comp name="--.HHE">
      <acc value="0.0668992334" flag="0"/>
      <vel value="0.0270840754" flag="0"/>
      <psa03 value="0.1296567479" flag="0"/>
      <psa10 value="0.0113761837" flag="0"/>
      <psa30 value="0.0006706206" flag="0"/>
    </comp>
  </station>
  <station code="ELL" name="ELL" netid="KO" insttype="CMG-3T" lat="36.7483" lon="29.9085">
    <comp name="--.HHZ">
      <acc value="0.0086899077" flag="0"/>
      <vel value="0.0036467312" flag="0"/>
      <psa03 value="0.0261211138" flag="0"/>
      <psa10 value="0.0039939911" flag="0"/>
      <psa30 value="0.0002982705" flag="0"/>
    </comp>
    <comp name="--.HHE">
      <acc value="0.0000163169" flag="0"/>
      <vel value="0.0000072070" flag="0"/>
      <psa03 value="0.0000331494" flag="0"/>
      <psa10 value="0.0000071428" flag="0"/>
      <psa30 value="0.0000004125" flag="0"/>
    </comp>
    <comp name="--.HHN">
      <acc value="0.0112583700" flag="0"/>
      <vel value="0.0054456669" flag="0"/>
      <psa03 value="0.0322082331" flag="0"/>
      <psa10 value="0.0056654337" flag="0"/>
      <psa30 value="0.0003468749" flag="0"/>
    </comp>
  </station>
  <station code="FETY" name="FETY" netid="KO" insttype="CMG-3ESP" lat="36.6353" lon="29.0835">
    <comp name="--.HHN">
      <acc value="0.1497305232" flag="0"/>
      <vel value="0.0788289540" flag="0"/>
      <psa03 value="0.3475139342" flag="0"/>
      <psa10 value="0.0372396973" flag="0"/>
      <psa30 value="0.0029212431" flag="0"/>
    </comp>
    <comp name="--.HHE">
      <acc value="0.1588504497" flag="0"/>
      <vel value="0.0489649018" flag="0"/>
      <psa03 value="0.2031804594" flag="0"/>
      <psa10 value="0.0280025437" flag="0"/>
      <psa30 value="0.0022680620" flag="0"/>
    </comp>
    <comp name="--.HHZ">
      <acc value="0.0649324196" flag="0"/>
      <vel value="0.0295799299" flag="0"/>
      <psa03 value="0.1622809636" flag="0"/>
      <psa10 value="0.0194609394" flag="0"/>
      <psa30 value="0.0013105568" flag="0"/>
    </comp>
  </station>
  <station code="YER" name="YER" netid="KO" insttype="CMG-3T" lat="37.1336" lon="28.284">
    <comp name="--.HHE">
      <acc value="0.0265345548" flag="0"/>
      <vel value="0.0064714194" flag="0"/>
      <psa03 value="0.0318470391" flag="0"/>
      <psa10 value="0.0021853647" flag="0"/>
      <psa30 value="0.0004423145" flag="0"/>
    </comp>
    <comp name="--.HHN">
      <acc value="0.0229994048" flag="0"/>
      <vel value="0.0067972414" flag="0"/>
      <psa03 value="0.0353388478" flag="0"/>
      <psa10 value="0.0074071871" flag="0"/>
      <psa30 value="0.0004919679" flag="0"/>
    </comp>
    <comp name="--.HHZ">
      <acc value="0.0268927273" flag="0"/>
      <vel value="0.0065612998" flag="0"/>
      <psa03 value="0.0295061432" flag="0"/>
      <psa10 value="0.0027296804" flag="0"/>
      <psa30 value="0.0002454897" flag="0"/>
    </comp>
  </station>
</stationlist>
