<?xml version="1.0" encoding="UTF-8" standalone="yes"?>
<!DOCTYPE earthquake SYSTEM "stationlist.dtd">
<stationlist created="" xmlns="ch.ethz.sed.shakemap.usgs.xml">
  <station code="SPA0" name="SPA0" netid="NO" insttype="CMG-3T" lat="78.1777" lon="16.37">
    <comp name="00.HHE">
      <acc value="0.0028121795" flag="0"/>
      <vel value="0.0012091075" flag="0"/>
      <psa03 value="0.0039758364" flag="0"/>
      <psa10 value="0.0017130085" flag="0"/>
      <psa30 value="0.0000988305" flag="0"/>
    </comp>
    <comp name="00.HHZ">
      <acc value="0.0049388498" flag="0"/>
      <vel value="0.0020102921" flag="0"/>
      <psa03 value="0.0074520522" flag="0"/>
      <psa10 value="0.0027579940" flag="0"/>
      <psa30 value="0.0001917755" flag="0"/>
    </comp>
    <comp name="00.HHN">
      <acc value="0.0055580546" flag="0"/>
      <vel value="0.0029711738" flag="0"/>
      <psa03 value="0.0106994068" flag="0"/>
      <psa10 value="0.0045052581" flag="0"/>
      <psa30 value="0.0002279692" flag="0"/>
    </comp>
  </station>
  <station code="SPA1" name="SPA1" netid="NO" insttype="CMG-3T" lat="78.1797" lon="16.3755">
    <comp name="00.HHZ">
      <acc value="0.0039709420" flag="0"/>
      <vel value="0.0018798632" flag="0"/>
      <psa03 value="0.0048927462" flag="0"/>
      <psa10 value="0.0023447622" flag="0"/>
      <psa30 value="0.0001818491" flag="0"/>
    </comp>
  </station>
  <station code="SPA2" name="SPA2" netid="NO" insttype="CMG-3T" lat="78.1759" lon="16.3766">
    <comp name="00.HHZ">
      <acc value="0.0040836655" flag="0"/>
      <vel value="0.0016470046" flag="0"/>
      <psa03 value="0.0062500956" flag="0"/>
      <psa10 value="0.0028957094" flag="0"/>
      <psa30 value="0.0001911318" flag="0"/>
    </comp>
  </station>
  <station code="SPA3" name="SPA3" netid="NO" insttype="CMG-3T" lat="78.1773" lon="16.3588">
    <comp name="00.HHZ">
      <acc value="0.0037537961" flag="0"/>
      <vel value="0.0018473380" flag="0"/>
      <psa03 value="0.0063658215" flag="0"/>
      <psa10 value="0.0026850015" flag="0"/>
      <psa30 value="0.0001909555" flag="0"/>
    </comp>
  </station>
  <station code="SPB1" name="SPB1" netid="NO" insttype="CMG-3T" lat="78.1796" lon="16.3906">
    <comp name="00.HHN">
      <acc value="0.0073592135" flag="0"/>
      <vel value="0.0037770598" flag="0"/>
      <psa03 value="0.0131804337" flag="0"/>
      <psa10 value="0.0037388914" flag="0"/>
      <psa30 value="0.0002232372" flag="0"/>
    </comp>
    <comp name="00.HHE">
      <acc value="0.0077283539" flag="0"/>
      <vel value="0.0039639566" flag="0"/>
      <psa03 value="0.0151161379" flag="0"/>
      <psa10 value="0.0029887474" flag="0"/>
      <psa30 value="0.0002438332" flag="0"/>
    </comp>
    <comp name="00.HHZ">
      <acc value="0.0048185696" flag="0"/>
      <vel value="0.0018536112" flag="0"/>
      <psa03 value="0.0063456781" flag="0"/>
      <psa10 value="0.0026120873" flag="0"/>
      <psa30 value="0.0001769437" flag="0"/>
    </comp>
  </station>
  <station code="SPB2" name="SPB2" netid="NO" insttype="CMG-3T" lat="78.1742" lon="16.3846">
    <comp name="00.HHE">
      <acc value="0.0089368936" flag="0"/>
      <vel value="0.0038982068" flag="0"/>
      <psa03 value="0.0228572312" flag="0"/>
      <psa10 value="0.0033355187" flag="0"/>
      <psa30 value="0.0002316408" flag="0"/>
    </comp>
    <comp name="00.HHZ">
      <acc value="0.0044617153" flag="0"/>
      <vel value="0.0018499729" flag="0"/>
      <psa03 value="0.0085067640" flag="0"/>
      <psa10 value="0.0028993663" flag="0"/>
      <psa30 value="0.0001800719" flag="0"/>
    </comp>
    <comp name="00.HHN">
      <acc value="0.0072606145" flag="0"/>
      <vel value="0.0036008245" flag="0"/>
      <psa03 value="0.0147726059" flag="0"/>
      <psa10 value="0.0030185163" flag="0"/>
      <psa30 value="0.0002044905" flag="0"/>
    </comp>
  </station>
  <station code="SPB3" name="SPB3" netid="NO" insttype="CMG-3T" lat="78.1737" lon="16.3584">
    <comp name="00.HHZ">
      <acc value="0.0046118412" flag="0"/>
      <vel value="0.0017795988" flag="0"/>
      <psa03 value="0.0060464513" flag="0"/>
      <psa10 value="0.0031525816" flag="0"/>
      <psa30 value="0.0001885234" flag="0"/>
    </comp>
    <comp name="00.HHN">
      <acc value="0.0064779615" flag="0"/>
      <vel value="0.0033486332" flag="0"/>
      <psa03 value="0.0130815173" flag="0"/>
      <psa10 value="0.0039538784" flag="0"/>
      <psa30 value="0.0002074829" flag="0"/>
    </comp>
    <comp name="00.HHE">
      <acc value="0.0065538539" flag="0"/>
      <vel value="0.0028551462" flag="0"/>
      <psa03 value="0.0167514211" flag="0"/>
      <psa10 value="0.0038234035" flag="0"/>
      <psa30 value="0.0002117052" flag="0"/>
    </comp>
  </station>
  <station code="SPB4" name="SPB4" netid="NO" insttype="CMG-3T" lat="78.1789" lon="16.3482">
    <comp name="00.HHE">
      <acc value="0.0023442249" flag="0"/>
      <vel value="0.0008457393" flag="0"/>
      <psa03 value="0.0030304422" flag="0"/>
      <psa10 value="0.0013726779" flag="0"/>
      <psa30 value="0.0000461420" flag="0"/>
    </comp>
    <comp name="00.HHZ">
      <acc value="0.0040482376" flag="0"/>
      <vel value="0.0020183048" flag="0"/>
      <psa03 value="0.0068900285" flag="0"/>
      <psa10 value="0.0024802077" flag="0"/>
      <psa30 value="0.0001759178" flag="0"/>
    </comp>
    <comp name="00.HHN">
      <acc value="0.0058451477" flag="0"/>
      <vel value="0.0028532924" flag="0"/>
      <psa03 value="0.0241385753" flag="0"/>
      <psa10 value="0.0038730409" flag="0"/>
      <psa30 value="0.0002428105" flag="0"/>
    </comp>
  </station>
  <station code="SPB5" name="SPB5" netid="NO" insttype="CMG-3T" lat="78.1823" lon="16.3683">
    <comp name="00.HHN">
      <acc value="0.0057673735" flag="0"/>
      <vel value="0.0022238805" flag="0"/>
      <psa03 value="0.0128525827" flag="0"/>
      <psa10 value="0.0029065578" flag="0"/>
      <psa30 value="0.0002144072" flag="0"/>
    </comp>
    <comp name="00.HHE">
      <acc value="0.0021687130" flag="0"/>
      <vel value="0.0006256559" flag="0"/>
      <psa03 value="0.0032892236" flag="0"/>
      <psa10 value="0.0007419660" flag="0"/>
      <psa30 value="0.0000389894" flag="0"/>
    </comp>
    <comp name="00.HHZ">
      <acc value="0.0050385757" flag="0"/>
      <vel value="0.0026749462" flag="0"/>
      <psa03 value="0.0128215672" flag="0"/>
      <psa10 value="0.0026180836" flag="0"/>
      <psa30 value="0.0001644765" flag="0"/>
    </comp>
  </station>
</stationlist>
