<?xml version="1.0" encoding="UTF-8" standalone="yes"?>
<!DOCTYPE earthquake SYSTEM "stationlist.dtd">
<stationlist created="" xmlns="ch.ethz.sed.shakemap.usgs.xml">
  <station code="CMRD" name="CMRD" netid="KO" insttype="CMG-5T" lat="37.6623" lon="34.9902">
    <comp name="--.HNZ">
      <acc value="0.0030900682" flag="0"/>
      <vel value="0.0011045811" flag="0"/>
      <psa03 value="0.0077309017" flag="0"/>
      <psa10 value="0.0011377953" flag="0"/>
      <psa30 value="0.0004615121" flag="0"/>
    </comp>
    <comp name="--.HNE">
      <acc value="0.0038199345" flag="0"/>
      <vel value="0.0012117592" flag="0"/>
      <psa03 value="0.0077750131" flag="0"/>
      <psa10 value="0.0012305694" flag="0"/>
      <psa30 value="0.0003391446" flag="0"/>
    </comp>
    <comp name="--.HNN">
      <acc value="0.0040470581" flag="0"/>
      <vel value="0.0016552764" flag="0"/>
      <psa03 value="0.0070771863" flag="0"/>
      <psa10 value="0.0019487126" flag="0"/>
      <psa30 value="0.0004880786" flag="0"/>
    </comp>
  </station>
  <station code="GAZ" name="GAZ" netid="KO" insttype="CMG-3T" lat="37.1721" lon="37.2096">
    <comp name="--.HHZ">
      <acc value="0.0045797661" flag="0"/>
      <vel value="0.0026837735" flag="0"/>
      <psa03 value="0.0128127956" flag="0"/>
      <psa10 value="0.0024398542" flag="0"/>
      <psa30 value="0.0005561043" flag="0"/>
    </comp>
    <comp name="--.HHN">
      <acc value="0.0074063401" flag="0"/>
      <vel value="0.0058775031" flag="0"/>
      <psa03 value="0.0157289307" flag="0"/>
      <psa10 value="0.0074996222" flag="0"/>
      <psa30 value="0.0004258721" flag="0"/>
    </comp>
  </station>
  <station code="KMRS" name="KMRS" netid="KO" insttype="CMG-3T" lat="37.5053" lon="36.9">
    <comp name="--.HHN">
      <acc value="0.0081392322" flag="0"/>
      <vel value="0.0039826831" flag="0"/>
      <psa03 value="0.0180925234" flag="0"/>
      <psa10 value="0.0051317515" flag="0"/>
      <psa30 value="0.0019615289" flag="0"/>
    </comp>
    <comp name="--.HHE">
      <acc value="0.0081316500" flag="0"/>
      <vel value="0.0043593704" flag="0"/>
      <psa03 value="0.0129627639" flag="0"/>
      <psa10 value="0.0034134151" flag="0"/>
      <psa30 value="0.0008166305" flag="0"/>
    </comp>
    <comp name="--.HHZ">
      <acc value="0.0046676187" flag="0"/>
      <vel value="0.0023481998" flag="0"/>
      <psa03 value="0.0130717429" flag="0"/>
      <psa10 value="0.0020555822" flag="0"/>
      <psa30 value="0.0013947888" flag="0"/>
    </comp>
  </station>
  <station code="ANDN" name="ANDN" netid="TU" insttype="T" lat="37.58" lon="36.3452">
    <comp name="--.HHZ">
      <acc value="0.0740590343" flag="0"/>
      <vel value="0.0317542662" flag="0"/>
      <psa03 value="0.1493224308" flag="0"/>
      <psa10 value="0.0478952271" flag="0"/>
      <psa30 value="0.0061475306" flag="0"/>
    </comp>
    <comp name="--.HHN">
      <acc value="0.1586727201" flag="0"/>
      <vel value="0.0448531004" flag="0"/>
      <psa03 value="0.3083822321" flag="0"/>
      <psa10 value="0.0268027171" flag="0"/>
      <psa30 value="0.0102458617" flag="0"/>
    </comp>
    <comp name="--.HHE">
      <acc value="0.1379882863" flag="0"/>
      <vel value="0.0460772267" flag="0"/>
      <psa03 value="0.1702614684" flag="0"/>
      <psa10 value="0.0359286965" flag="0"/>
      <psa30 value="0.0030702838" flag="0"/>
    </comp>
  </station>
</stationlist>
