<?xml version="1.0" encoding="UTF-8" standalone="yes"?>
<!DOCTYPE earthquake SYSTEM "stationlist.dtd">
<stationlist created="" xmlns="ch.ethz.sed.shakemap.usgs.xml">
  <station code="KARO" name="KARO" netid="KO" insttype="CMG-3T" commtype="DIG" lat="39.3089" lon="41.0493">
    <comp name="--.HHE">
      <acc value="0.0447935893" flag="0"/>
      <vel value="0.0254283378" flag="0"/>
      <psa03 value="0.1057963966" flag="0"/>
      <psa10 value="0.0376325306" flag="0"/>
      <psa30 value="0.0073662198" flag="0"/>
    </comp>
    <comp name="--.HHZ">
      <acc value="0.0261903387" flag="0"/>
      <vel value="0.0165936637" flag="0"/>
      <psa03 value="0.0816395834" flag="0"/>
      <psa10 value="0.0216506986" flag="0"/>
      <psa30 value="0.0055743185" flag="0"/>
    </comp>
    <comp name="--.HHN">
      <acc value="0.0694487975" flag="0"/>
      <vel value="0.0269666237" flag="0"/>
      <psa03 value="0.1416259578" flag="0"/>
      <psa10 value="0.0494283386" flag="0"/>
      <psa30 value="0.0104955596" flag="0"/>
    </comp>
  </station>
  <station code="LICE" name="LICE" netid="KO" insttype="CMG-3ESPC" commtype="DIG" lat="38.4532" lon="40.6446">
    <comp name="--.HHE">
      <acc value="0.0092646525" flag="0"/>
      <vel value="0.0073785498" flag="0"/>
      <psa03 value="0.0347827452" flag="0"/>
      <psa10 value="0.0136939486" flag="0"/>
      <psa30 value="0.0020298359" flag="0"/>
    </comp>
    <comp name="--.HHN">
      <acc value="0.0076779026" flag="0"/>
      <vel value="0.0054427592" flag="0"/>
      <psa03 value="0.0178419855" flag="0"/>
      <psa10 value="0.0133067883" flag="0"/>
      <psa30 value="0.0024431555" flag="0"/>
    </comp>
    <comp name="--.HHZ">
      <acc value="0.0047053694" flag="0"/>
      <vel value="0.0063676308" flag="0"/>
      <psa03 value="0.0123860184" flag="0"/>
      <psa10 value="0.0091870753" flag="0"/>
      <psa30 value="0.0010960907" flag="0"/>
    </comp>
  </station>
  <station code="VRTB" name="VRTB" netid="KO" insttype="CMG-40T" commtype="DIG" lat="39.1603" lon="41.4558">
    <comp name="--.HHZ">
      <acc value="0.0044286890" flag="0"/>
      <vel value="0.0074541612" flag="0"/>
      <psa03 value="0.0061120444" flag="0"/>
      <psa10 value="0.0111875580" flag="0"/>
      <psa30 value="0.0033560459" flag="0"/>
    </comp>
    <comp name="--.HHE">
      <acc value="0.0082676099" flag="0"/>
      <vel value="0.0199690383" flag="0"/>
      <psa03 value="0.0144543329" flag="0"/>
      <psa10 value="0.0231277865" flag="0"/>
      <psa30 value="0.0117287695" flag="0"/>
    </comp>
    <comp name="--.HHN">
      <acc value="0.0023988644" flag="0"/>
      <vel value="0.0064404288" flag="0"/>
      <psa03 value="0.0050469891" flag="0"/>
      <psa10 value="0.0070644438" flag="0"/>
      <psa30 value="0.0051766349" flag="0"/>
    </comp>
  </station>
  <station code="YEDI" name="YEDI" netid="KO" insttype="CMG-3T" commtype="DIG" lat="39.4377" lon="40.5443">
    <comp name="--.HHN">
      <acc value="0.2684447748" flag="0"/>
      <vel value="0.0700973847" flag="0"/>
      <psa03 value="0.3645829241" flag="0"/>
      <psa10 value="0.0649917804" flag="0"/>
      <psa30 value="0.0073573055" flag="0"/>
    </comp>
    <comp name="--.HHZ">
      <acc value="0.0053078657" flag="0"/>
      <vel value="0.0004239853" flag="0"/>
      <psa03 value="0.0010925027" flag="0"/>
      <psa10 value="0.0002462271" flag="0"/>
      <psa30 value="0.0000296014" flag="0"/>
    </comp>
  </station>
</stationlist>
