<?xml version="1.0" encoding="UTF-8" standalone="yes"?>
<!DOCTYPE earthquake SYSTEM "stationlist.dtd">
<stationlist created="" xmlns="ch.ethz.sed.shakemap.usgs.xml">
  <station code="KARO" name="KARO" netid="KO" insttype="CMG-3T" commtype="DIG" lat="39.3089" lon="41.0493">
    <comp name="--.HHE">
      <acc value="0.0447935877" flag="0"/>
      <vel value="0.0254283376" flag="0"/>
      <psa03 value="0.1057963966" flag="0"/>
      <psa10 value="0.0376325308" flag="0"/>
      <psa30 value="0.0073662136" flag="0"/>
    </comp>
    <comp name="--.HHN">
      <acc value="0.0694487982" flag="0"/>
      <vel value="0.0269666257" flag="0"/>
      <psa03 value="0.1416259578" flag="0"/>
      <psa10 value="0.0494283385" flag="0"/>
      <psa30 value="0.0104955620" flag="0"/>
    </comp>
    <comp name="--.HHZ">
      <acc value="0.0261903382" flag="0"/>
      <vel value="0.0165936644" flag="0"/>
      <psa03 value="0.0816395834" flag="0"/>
      <psa10 value="0.0216506986" flag="0"/>
      <psa30 value="0.0055743198" flag="0"/>
    </comp>
  </station>
  <station code="LICE" name="LICE" netid="KO" insttype="CMG-3ESPC" commtype="DIG" lat="38.4532" lon="40.6446">
    <comp name="--.HHE">
      <acc value="0.0092646528" flag="0"/>
      <vel value="0.0073785496" flag="0"/>
      <psa03 value="0.0347827452" flag="0"/>
      <psa10 value="0.0136939486" flag="0"/>
      <psa30 value="0.0020298371" flag="0"/>
    </comp>
    <comp name="--.HHN">
      <acc value="0.0076779023" flag="0"/>
      <vel value="0.0054427593" flag="0"/>
      <psa03 value="0.0178419855" flag="0"/>
      <psa10 value="0.0133067883" flag="0"/>
      <psa30 value="0.0024431579" flag="0"/>
    </comp>
    <comp name="--.HHZ">
      <acc value="0.0047053681" flag="0"/>
      <vel value="0.0063676306" flag="0"/>
      <psa03 value="0.0123860184" flag="0"/>
      <psa10 value="0.0091870753" flag="0"/>
      <psa30 value="0.0010960990" flag="0"/>
    </comp>
  </station>
  <station code="SINE" name="SINE" netid="KO" insttype="CMG-6T" commtype="DIG" lat="39.1636" lon="39.3871">
    <comp name="--.HHE">
      <acc value="0.0489916664" flag="0"/>
      <vel value="0.0168302572" flag="0"/>
      <psa03 value="0.0649737960" flag="0"/>
      <psa10 value="0.0069454217" flag="0"/>
      <psa30 value="0.0003891926" flag="0"/>
    </comp>
    <comp name="--.HHN">
      <acc value="0.0440981640" flag="0"/>
      <vel value="0.0131197431" flag="0"/>
      <psa03 value="0.0928578403" flag="0"/>
      <psa10 value="0.0102816061" flag="0"/>
      <psa30 value="0.0004901766" flag="0"/>
    </comp>
    <comp name="--.HHZ">
      <acc value="0.0326492381" flag="0"/>
      <vel value="0.0131707687" flag="0"/>
      <psa03 value="0.0838910765" flag="0"/>
      <psa10 value="0.0091257668" flag="0"/>
      <psa30 value="0.0004744501" flag="0"/>
    </comp>
  </station>
  <station code="VRTB" name="VRTB" netid="KO" insttype="CMG-40T" commtype="DIG" lat="39.1603" lon="41.4558">
    <comp name="--.HHE">
      <acc value="0.0082676101" flag="0"/>
      <vel value="0.0199690548" flag="0"/>
      <psa03 value="0.0144543328" flag="0"/>
      <psa10 value="0.0231277867" flag="0"/>
      <psa30 value="0.0088875867" flag="0"/>
    </comp>
    <comp name="--.HHN">
      <acc value="0.0023988642" flag="0"/>
      <vel value="0.0062723819" flag="0"/>
      <psa03 value="0.0050469890" flag="0"/>
      <psa10 value="0.0070644438" flag="0"/>
      <psa30 value="0.0039330377" flag="0"/>
    </comp>
    <comp name="--.HHZ">
      <acc value="0.0044286888" flag="0"/>
      <vel value="0.0074541485" flag="0"/>
      <psa03 value="0.0061120444" flag="0"/>
      <psa10 value="0.0111875580" flag="0"/>
      <psa30 value="0.0019332045" flag="0"/>
    </comp>
  </station>
  <station code="YEDI" name="YEDI" netid="KO" insttype="CMG-3T" commtype="DIG" lat="39.4377" lon="40.5443">
    <comp name="--.HHN">
      <acc value="0.2684447765" flag="0"/>
      <vel value="0.0700973846" flag="0"/>
      <psa03 value="0.3645829241" flag="0"/>
      <psa10 value="0.0649917783" flag="0"/>
      <psa30 value="0.0073572864" flag="0"/>
    </comp>
    <comp name="--.HHZ">
      <acc value="0.0053078642" flag="0"/>
      <vel value="0.0004239854" flag="0"/>
      <psa03 value="0.0010925027" flag="0"/>
      <psa10 value="0.0002462272" flag="0"/>
      <psa30 value="0.0000295981" flag="0"/>
    </comp>
  </station>
</stationlist>
