<?xml version="1.0" encoding="UTF-8" standalone="yes"?>
<!DOCTYPE earthquake SYSTEM "stationlist.dtd">
<stationlist created="" xmlns="ch.ethz.sed.shakemap.usgs.xml">
  <station code="APE" name="APE" netid="GE" insttype="STS-2/N" lat="37.0727" lon="25.523">
    <comp name="--.HHE">
      <acc value="0.3905551166" flag="0"/>
      <vel value="0.0779380624" flag="0"/>
      <psa03 value="0.1779221908" flag="0"/>
      <psa10 value="0.0325228855" flag="0"/>
      <psa30 value="0.0029727237" flag="0"/>
    </comp>
    <comp name="--.HHN">
      <acc value="0.2837975962" flag="0"/>
      <vel value="0.0572728866" flag="0"/>
      <psa03 value="0.1686468290" flag="0"/>
      <psa10 value="0.0224163974" flag="0"/>
      <psa30 value="0.0024373732" flag="0"/>
    </comp>
    <comp name="--.HHZ">
      <acc value="0.1436791233" flag="0"/>
      <vel value="0.0362854309" flag="0"/>
      <psa03 value="0.1624354067" flag="0"/>
      <psa10 value="0.0176196993" flag="0"/>
      <psa30 value="0.0016903827" flag="0"/>
    </comp>
  </station>
  <station code="THERA" name="THERA" netid="GE" insttype="STS-2/N" lat="36.367" lon="25.4753">
    <comp name="--.HHN">
      <acc value="0.1254181816" flag="0"/>
      <vel value="0.0338868670" flag="0"/>
      <psa03 value="0.1447300898" flag="0"/>
      <psa10 value="0.0089469274" flag="0"/>
      <psa30 value="0.0011119252" flag="0"/>
    </comp>
    <comp name="--.HHE">
      <acc value="0.2205722541" flag="0"/>
      <vel value="0.0301612486" flag="0"/>
      <psa03 value="0.1908867591" flag="0"/>
      <psa10 value="0.0147345263" flag="0"/>
      <psa30 value="0.0024098075" flag="0"/>
    </comp>
    <comp name="--.HHZ">
      <acc value="0.1421089263" flag="0"/>
      <vel value="0.0264740528" flag="0"/>
      <psa03 value="0.0982227217" flag="0"/>
      <psa10 value="0.0080212108" flag="0"/>
      <psa30 value="0.0017848184" flag="0"/>
    </comp>
  </station>
</stationlist>
