<?xml version="1.0" encoding="UTF-8" standalone="yes"?>
<!DOCTYPE earthquake SYSTEM "stationlist.dtd">
<stationlist created="" xmlns="ch.ethz.sed.shakemap.usgs.xml">
  <station code="APE" name="APE" netid="GE" insttype="STS-2/N" lat="37.0727" lon="25.523">
    <comp name="--.HHE">
      <acc value="0.3905551166" flag="0"/>
      <vel value="0.0779380624" flag="0"/>
      <psa03 value="0.1779221908" flag="0"/>
      <psa10 value="0.0325228855" flag="0"/>
      <psa30 value="0.0029727237" flag="0"/>
    </comp>
    <comp name="--.HHN">
      <acc value="0.2837975962" flag="0"/>
      <vel value="0.0572728866" flag="0"/>
      <psa03 value="0.1686468290" flag="0"/>
      <psa10 value="0.0224163974" flag="0"/>
      <psa30 value="0.0024373732" flag="0"/>
    </comp>
    <comp name="--.HHZ">
      <acc value="0.1436791233" flag="0"/>
      <vel value="0.0362854309" flag="0"/>
      <psa03 value="0.1624354067" flag="0"/>
      <psa10 value="0.0176196993" flag="0"/>
      <psa30 value="0.0016903827" flag="0"/>
    </comp>
  </station>
  <station code="THERA" name="THERA" netid="GE" insttype="STS-2/N" lat="36.367" lon="25.4753">
    <comp name="--.HHN">
      <acc value="0.1254181816" flag="0"/>
      <vel value="0.0338868670" flag="0"/>
      <psa03 value="0.1447300898" flag="0"/>
      <psa10 value="0.0089469274" flag="0"/>
      <psa30 value="0.0011119252" flag="0"/>
    </comp>
    <comp name="--.HHE">
      <acc value="0.2205722541" flag="0"/>
      <vel value="0.0301612486" flag="0"/>
      <psa03 value="0.1908867591" flag="0"/>
      <psa10 value="0.0147345263" flag="0"/>
      <psa30 value="0.0024098075" flag="0"/>
    </comp>
    <comp name="--.HHZ">
      <acc value="0.1421089263" flag="0"/>
      <vel value="0.0264740528" flag="0"/>
      <psa03 value="0.0982227217" flag="0"/>
      <psa10 value="0.0080212108" flag="0"/>
      <psa30 value="0.0017848184" flag="0"/>
    </comp>
  </station>
  <station code="NAX1" name="NAX1" netid="HI" insttype="CMG-5TD,ACCELEROMETER,GURALP" lat="37.1014" lon="25.3741">
    <comp name="--.HNE">
      <acc value="0.1666602646" flag="0"/>
      <vel value="0.0683261195" flag="0"/>
      <psa03 value="0.3307464585" flag="0"/>
      <psa10 value="0.0228840544" flag="0"/>
      <psa30 value="0.0021949684" flag="0"/>
    </comp>
    <comp name="--.HNN">
      <acc value="0.1877298257" flag="0"/>
      <vel value="0.0346141824" flag="0"/>
      <psa03 value="0.1127563591" flag="0"/>
      <psa10 value="0.0141031822" flag="0"/>
      <psa30 value="0.0011754935" flag="0"/>
    </comp>
    <comp name="--.HNZ">
      <acc value="0.1376378315" flag="0"/>
      <vel value="0.0258125131" flag="0"/>
      <psa03 value="0.1116424622" flag="0"/>
      <psa10 value="0.0154866167" flag="0"/>
      <psa30 value="0.0018051453" flag="0"/>
    </comp>
  </station>
  <station code="APE" name="APE" netid="HL" insttype="120" lat="37.0727" lon="25.523">
    <comp name="--.HHN">
      <acc value="0.2486327346" flag="0"/>
      <vel value="0.0540211914" flag="0"/>
      <psa03 value="0.1643802465" flag="0"/>
      <psa10 value="0.0221471772" flag="0"/>
      <psa30 value="0.0024080310" flag="0"/>
    </comp>
    <comp name="--.HHZ">
      <acc value="0.1375230117" flag="0"/>
      <vel value="0.0351521162" flag="0"/>
      <psa03 value="0.1584780480" flag="0"/>
      <psa10 value="0.0174504769" flag="0"/>
      <psa30 value="0.0016879665" flag="0"/>
    </comp>
    <comp name="--.HHE">
      <acc value="0.3639320684" flag="0"/>
      <vel value="0.0764959337" flag="0"/>
      <psa03 value="0.1720282030" flag="0"/>
      <psa10 value="0.0320394296" flag="0"/>
      <psa30 value="0.0029170623" flag="0"/>
    </comp>
  </station>
  <station code="MHLO" name="MHLO" netid="HL" insttype="20" lat="36.6898" lon="24.4017">
    <comp name="--.HHN">
      <acc value="0.0869511573" flag="0"/>
      <vel value="0.0320246128" flag="0"/>
      <psa03 value="0.1244807388" flag="0"/>
      <psa10 value="0.0507323130" flag="0"/>
      <psa30 value="0.0026039028" flag="0"/>
    </comp>
    <comp name="--.HHE">
      <acc value="0.0860570194" flag="0"/>
      <vel value="0.0398170931" flag="0"/>
      <psa03 value="0.1662477858" flag="0"/>
      <psa10 value="0.0459977536" flag="0"/>
      <psa30 value="0.0034938296" flag="0"/>
    </comp>
    <comp name="--.HHZ">
      <acc value="0.0290916484" flag="0"/>
      <vel value="0.0212021345" flag="0"/>
      <psa03 value="0.0659431949" flag="0"/>
      <psa10 value="0.0260192748" flag="0"/>
      <psa30 value="0.0020973788" flag="0"/>
    </comp>
  </station>
  <station code="THERA" name="THERA" netid="HL" insttype="120" lat="36.367" lon="25.4753">
    <comp name="--.HHN">
      <acc value="0.1300761471" flag="0"/>
      <vel value="0.0327199976" flag="0"/>
      <psa03 value="0.1404289674" flag="0"/>
      <psa10 value="0.0088417759" flag="0"/>
      <psa30 value="0.0011099489" flag="0"/>
    </comp>
    <comp name="--.HHE">
      <acc value="0.2163929813" flag="0"/>
      <vel value="0.0296972629" flag="0"/>
      <psa03 value="0.1853923624" flag="0"/>
      <psa10 value="0.0145571596" flag="0"/>
      <psa30 value="0.0024108858" flag="0"/>
    </comp>
    <comp name="--.HHZ">
      <acc value="0.1397828718" flag="0"/>
      <vel value="0.0263124381" flag="0"/>
      <psa03 value="0.0950038406" flag="0"/>
      <psa10 value="0.0079894205" flag="0"/>
      <psa30 value="0.0017843076" flag="0"/>
    </comp>
  </station>
  <station code="TNSA" name="TNSA" netid="HL" insttype="CMG-5" lat="37.5394" lon="25.1631">
    <comp name="00.HNN">
      <acc value="0.1013251147" flag="0"/>
      <vel value="0.0363540985" flag="0"/>
      <psa03 value="0.1570110945" flag="0"/>
      <psa10 value="0.0162900493" flag="0"/>
      <psa30 value="0.0013870102" flag="0"/>
    </comp>
    <comp name="00.HNE">
      <acc value="0.0814351162" flag="0"/>
      <vel value="0.0284404230" flag="0"/>
      <psa03 value="0.1686112035" flag="0"/>
      <psa10 value="0.0099025020" flag="0"/>
      <psa30 value="0.0012934652" flag="0"/>
    </comp>
    <comp name="00.HNZ">
      <acc value="0.0628195328" flag="0"/>
      <vel value="0.0248308480" flag="0"/>
      <psa03 value="0.1294553571" flag="0"/>
      <psa10 value="0.0184665305" flag="0"/>
      <psa30 value="0.0012494681" flag="0"/>
    </comp>
  </station>
  <station code="CMBO" name="CMBO" netid="HT" insttype="120P," lat="36.4709" lon="25.4056">
    <comp name="--.HHE">
      <acc value="0.4000946018" flag="0"/>
      <vel value="0.1556378764" flag="0"/>
      <psa03 value="0.8733332331" flag="0"/>
      <psa10 value="0.0975950563" flag="0"/>
      <psa30 value="0.0111693505" flag="0"/>
    </comp>
    <comp name="--.HHN">
      <acc value="0.5697909451" flag="0"/>
      <vel value="0.1961265343" flag="0"/>
      <psa03 value="0.7818659286" flag="0"/>
      <psa10 value="0.1564333451" flag="0"/>
      <psa30 value="0.0078384899" flag="0"/>
    </comp>
    <comp name="--.HHZ">
      <acc value="0.4588221705" flag="0"/>
      <vel value="0.1304077214" flag="0"/>
      <psa03 value="0.9674673720" flag="0"/>
      <psa10 value="0.0598539928" flag="0"/>
      <psa30 value="0.0072687403" flag="0"/>
    </comp>
  </station>
</stationlist>
