<?xml version="1.0" encoding="UTF-8" standalone="yes"?>
<!DOCTYPE earthquake SYSTEM "stationlist.dtd">
<stationlist created="" xmlns="ch.ethz.sed.shakemap.usgs.xml">
  <station code="AKS" name="AKS" netid="KO" insttype="CMG-5T" commtype="DIG" lat="38.8785" lon="27.8129">
    <comp name="--.HNN">
      <acc value="0.1594562274" flag="0"/>
      <vel value="0.0368176194" flag="0"/>
      <psa03 value="0.1468605133" flag="0"/>
      <psa10 value="0.0178807656" flag="0"/>
      <psa30 value="0.0010831191" flag="0"/>
    </comp>
    <comp name="--.HNE">
      <acc value="0.1759712902" flag="0"/>
      <vel value="0.0260659801" flag="0"/>
      <psa03 value="0.1101172956" flag="0"/>
      <psa10 value="0.0133312647" flag="0"/>
      <psa30 value="0.0013232793" flag="0"/>
    </comp>
    <comp name="--.HNZ">
      <acc value="0.1318013621" flag="0"/>
      <vel value="0.0177788877" flag="0"/>
      <psa03 value="0.0825422813" flag="0"/>
      <psa10 value="0.0094179256" flag="0"/>
      <psa30 value="0.0006702720" flag="0"/>
    </comp>
  </station>
  <station code="BALB" name="BALB" netid="KO" insttype="CMG-5T" commtype="DIG" lat="39.6507" lon="27.8642">
    <comp name="--.HNE">
      <acc value="0.0694534248" flag="0"/>
      <vel value="0.0315920134" flag="0"/>
      <psa03 value="0.1071576875" flag="0"/>
      <psa10 value="0.0295092115" flag="0"/>
      <psa30 value="0.0017512662" flag="0"/>
    </comp>
    <comp name="--.HNZ">
      <acc value="0.0407953836" flag="0"/>
      <vel value="0.0151189629" flag="0"/>
      <psa03 value="0.0484825456" flag="0"/>
      <psa10 value="0.0117664679" flag="0"/>
      <psa30 value="0.0007450913" flag="0"/>
    </comp>
    <comp name="--.HNN">
      <acc value="0.0596000409" flag="0"/>
      <vel value="0.0214041158" flag="0"/>
      <psa03 value="0.0971046624" flag="0"/>
      <psa10 value="0.0146191747" flag="0"/>
      <psa30 value="0.0011315172" flag="0"/>
    </comp>
  </station>
  <station code="DKL" name="DKL" netid="KO" insttype="CMG-3ESPC" commtype="DIG" lat="39.0713" lon="26.9053">
    <comp name="--.HHZ">
      <acc value="0.0056303478" flag="0"/>
      <vel value="0.0030015252" flag="0"/>
      <psa03 value="0.0091186394" flag="0"/>
      <psa10 value="0.0044835619" flag="0"/>
      <psa30 value="0.0004938684" flag="0"/>
    </comp>
  </station>
  <station code="DST" name="DST" netid="KO" insttype="CMG-5T" commtype="DIG" lat="39.6041" lon="28.6267">
    <comp name="--.HNN">
      <acc value="0.0694173517" flag="0"/>
      <vel value="0.0238561075" flag="0"/>
      <psa03 value="0.1383522271" flag="0"/>
      <psa10 value="0.0150068216" flag="0"/>
      <psa30 value="0.0010507528" flag="0"/>
    </comp>
    <comp name="--.HNZ">
      <acc value="0.0723333979" flag="0"/>
      <vel value="0.0172729372" flag="0"/>
      <psa03 value="0.1427107042" flag="0"/>
      <psa10 value="0.0081541332" flag="0"/>
      <psa30 value="0.0010427408" flag="0"/>
    </comp>
    <comp name="--.HNE">
      <acc value="0.0744948017" flag="0"/>
      <vel value="0.0291964804" flag="0"/>
      <psa03 value="0.1853817850" flag="0"/>
      <psa10 value="0.0151884353" flag="0"/>
      <psa30 value="0.0007931317" flag="0"/>
    </comp>
  </station>
  <station code="GOMA" name="GOMA" netid="KO" insttype="CMG-5T" commtype="DIG" lat="38.7077" lon="27.9175">
    <comp name="--.HNN">
      <acc value="0.2467126126" flag="0"/>
      <vel value="0.1462390278" flag="0"/>
      <psa03 value="0.5214861106" flag="0"/>
      <psa10 value="0.0459877337" flag="0"/>
      <psa30 value="0.0039720440" flag="0"/>
    </comp>
    <comp name="--.HNE">
      <acc value="0.2568198434" flag="0"/>
      <vel value="0.0973884924" flag="0"/>
      <psa03 value="0.3401583779" flag="0"/>
      <psa10 value="0.0349186086" flag="0"/>
      <psa30 value="0.0026336422" flag="0"/>
    </comp>
  </station>
  <station code="GONE" name="GONE" netid="KO" insttype="CMG-5T" commtype="DIG" lat="40.0466" lon="27.686">
    <comp name="--.HNZ">
      <acc value="0.0152506119" flag="0"/>
      <vel value="0.0071952148" flag="0"/>
      <psa03 value="0.0343301112" flag="0"/>
      <psa10 value="0.0060844991" flag="0"/>
      <psa30 value="0.0005782783" flag="0"/>
    </comp>
    <comp name="--.HNN">
      <acc value="0.0561308216" flag="0"/>
      <vel value="0.0447128506" flag="0"/>
      <psa03 value="0.1875736597" flag="0"/>
      <psa10 value="0.0390449669" flag="0"/>
      <psa30 value="0.0023148243" flag="0"/>
    </comp>
    <comp name="--.HNE">
      <acc value="0.0221568298" flag="0"/>
      <vel value="0.0147432837" flag="0"/>
      <psa03 value="0.0722643114" flag="0"/>
      <psa10 value="0.0206869995" flag="0"/>
      <psa30 value="0.0012230178" flag="0"/>
    </comp>
  </station>
  <station code="GORD" name="GORD" netid="KO" insttype="CMG-5T" commtype="DIG" lat="38.9088" lon="28.1769">
    <comp name="--.HNN">
      <acc value="0.2559991394" flag="0"/>
      <vel value="0.1269551398" flag="0"/>
      <psa03 value="0.3526654921" flag="0"/>
      <psa10 value="0.0947442713" flag="0"/>
      <psa30 value="0.0054290313" flag="0"/>
    </comp>
    <comp name="--.HNE">
      <acc value="0.2119507846" flag="0"/>
      <vel value="0.0850711701" flag="0"/>
      <psa03 value="0.2510994069" flag="0"/>
      <psa10 value="0.0632533474" flag="0"/>
      <psa30 value="0.0043931526" flag="0"/>
    </comp>
    <comp name="--.HNZ">
      <acc value="0.1933058682" flag="0"/>
      <vel value="0.0552982569" flag="0"/>
      <psa03 value="0.2466111894" flag="0"/>
      <psa10 value="0.0344444922" flag="0"/>
      <psa30 value="0.0023710647" flag="0"/>
    </comp>
  </station>
  <station code="KCTX" name="KCTX" netid="KO" insttype="CMG-3ESP" commtype="DIG" lat="40.2626" lon="28.3353">
    <comp name="--.HHN">
      <acc value="0.0372212823" flag="0"/>
      <vel value="0.0104623846" flag="0"/>
      <psa03 value="0.0810956527" flag="0"/>
      <psa10 value="0.0042167638" flag="0"/>
      <psa30 value="0.0004149747" flag="0"/>
    </comp>
    <comp name="--.HHE">
      <acc value="0.0210636965" flag="0"/>
      <vel value="0.0103701371" flag="0"/>
      <psa03 value="0.0524869668" flag="0"/>
      <psa10 value="0.0132091144" flag="0"/>
      <psa30 value="0.0009232215" flag="0"/>
    </comp>
    <comp name="--.HHZ">
      <acc value="0.0180064233" flag="0"/>
      <vel value="0.0075550664" flag="0"/>
      <psa03 value="0.0328973577" flag="0"/>
      <psa10 value="0.0047490622" flag="0"/>
      <psa30 value="0.0003953868" flag="0"/>
    </comp>
  </station>
  <station code="KULA" name="KULA" netid="KO" insttype="CMG-3T" commtype="DIG" lat="38.5145" lon="28.6607">
    <comp name="--.HHE">
      <acc value="0.0856602529" flag="0"/>
      <vel value="0.0177105028" flag="0"/>
      <psa03 value="0.0627501470" flag="0"/>
      <psa10 value="0.0101287856" flag="0"/>
      <psa30 value="0.0007916024" flag="0"/>
    </comp>
  </station>
  <station code="ORLT" name="ORLT" netid="KO" insttype="CMG-5T" commtype="DIG" lat="40.0452" lon="28.8914">
    <comp name="--.HNE">
      <acc value="0.0469267222" flag="0"/>
      <vel value="0.0193819093" flag="0"/>
      <psa03 value="0.1800849608" flag="0"/>
      <psa10 value="0.0188239711" flag="0"/>
      <psa30 value="0.0008219155" flag="0"/>
    </comp>
    <comp name="--.HNN">
      <acc value="0.0687760806" flag="0"/>
      <vel value="0.0320534132" flag="0"/>
      <psa03 value="0.1992120178" flag="0"/>
      <psa10 value="0.0296548636" flag="0"/>
      <psa30 value="0.0018521474" flag="0"/>
    </comp>
    <comp name="--.HNZ">
      <acc value="0.0187823238" flag="0"/>
      <vel value="0.0111994823" flag="0"/>
      <psa03 value="0.0623135704" flag="0"/>
      <psa10 value="0.0177824272" flag="0"/>
      <psa30 value="0.0011554036" flag="0"/>
    </comp>
  </station>
  <station code="SHAP" name="SHAP" netid="KO" insttype="CMG-5T" commtype="DIG" lat="39.0231" lon="29.222">
    <comp name="--.HNE">
      <acc value="0.1462147508" flag="0"/>
      <vel value="0.0435998245" flag="0"/>
      <psa03 value="0.2786380959" flag="0"/>
      <psa10 value="0.0182330222" flag="0"/>
      <psa30 value="0.0012239849" flag="0"/>
    </comp>
    <comp name="--.HNN">
      <acc value="0.1747790211" flag="0"/>
      <vel value="0.0421571624" flag="0"/>
      <psa03 value="0.2220137913" flag="0"/>
      <psa10 value="0.0243621886" flag="0"/>
      <psa30 value="0.0018231365" flag="0"/>
    </comp>
    <comp name="--.HNZ">
      <acc value="0.0751421193" flag="0"/>
      <vel value="0.0205356026" flag="0"/>
      <psa03 value="0.0475087279" flag="0"/>
      <psa10 value="0.0123198920" flag="0"/>
      <psa30 value="0.0005482705" flag="0"/>
    </comp>
  </station>
  <station code="SIMA" name="SIMA" netid="KO" insttype="CMG-6T" commtype="DIG" lat="39.0833" lon="28.9825">
    <comp name="--.HHE">
      <acc value="0.2144642821" flag="0"/>
      <vel value="0.0658814904" flag="0"/>
      <psa03 value="0.2851320692" flag="0"/>
      <psa10 value="0.0135293109" flag="0"/>
      <psa30 value="0.0014264770" flag="0"/>
    </comp>
    <comp name="--.HHN">
      <acc value="0.2416500976" flag="0"/>
      <vel value="0.0795900353" flag="0"/>
      <psa03 value="0.3496426057" flag="0"/>
      <psa10 value="0.0299150798" flag="0"/>
      <psa30 value="0.0021012762" flag="0"/>
    </comp>
    <comp name="--.HHZ">
      <acc value="0.1254260880" flag="0"/>
      <vel value="0.0249540592" flag="0"/>
      <psa03 value="0.1116399790" flag="0"/>
      <psa10 value="0.0110232313" flag="0"/>
      <psa30 value="0.0008239753" flag="0"/>
    </comp>
  </station>
  <station code="SMAA" name="SMAA" netid="KO" insttype="CMG-5T" commtype="DIG" lat="39.1005" lon="28.9805">
    <comp name="--.HNE">
      <acc value="0.2430680675" flag="0"/>
      <vel value="0.1124916180" flag="0"/>
      <psa03 value="0.6805850835" flag="0"/>
      <psa10 value="0.0974939934" flag="0"/>
      <psa30 value="0.0050587311" flag="0"/>
    </comp>
    <comp name="--.HNN">
      <acc value="0.1850079345" flag="0"/>
      <vel value="0.0873554865" flag="0"/>
      <psa03 value="0.4205107321" flag="0"/>
      <psa10 value="0.0457545007" flag="0"/>
      <psa30 value="0.0045113904" flag="0"/>
    </comp>
    <comp name="--.HNZ">
      <acc value="0.0905194056" flag="0"/>
      <vel value="0.0342304441" flag="0"/>
      <psa03 value="0.2187656756" flag="0"/>
      <psa10 value="0.0359031270" flag="0"/>
      <psa30 value="0.0017418156" flag="0"/>
    </comp>
  </station>
  <station code="SOMA" name="SOMA" netid="KO" insttype="CMG-5T" commtype="DIG" lat="39.1564" lon="27.5341">
    <comp name="--.HNE">
      <acc value="0.0911603110" flag="0"/>
      <vel value="0.0176348769" flag="0"/>
      <psa03 value="0.0544927145" flag="0"/>
      <psa10 value="0.0108769680" flag="0"/>
      <psa30 value="0.0008329578" flag="0"/>
    </comp>
    <comp name="--.HNN">
      <acc value="0.0661634376" flag="0"/>
      <vel value="0.0254054058" flag="0"/>
      <psa03 value="0.0794657286" flag="0"/>
      <psa10 value="0.0267374764" flag="0"/>
      <psa30 value="0.0015310947" flag="0"/>
    </comp>
    <comp name="--.HNZ">
      <acc value="0.0936675378" flag="0"/>
      <vel value="0.0193427176" flag="0"/>
      <psa03 value="0.0349734884" flag="0"/>
      <psa10 value="0.0104211261" flag="0"/>
      <psa30 value="0.0006687241" flag="0"/>
    </comp>
  </station>
  <station code="SUSR" name="SUSR" netid="KO" insttype="CMG-5T" commtype="DIG" lat="39.9627" lon="28.0835">
    <comp name="--.HNE">
      <acc value="0.0481922610" flag="0"/>
      <vel value="0.0119837579" flag="0"/>
      <psa03 value="0.0587296138" flag="0"/>
      <psa10 value="0.0070528896" flag="0"/>
      <psa30 value="0.0006460674" flag="0"/>
    </comp>
    <comp name="--.HNZ">
      <acc value="0.0331086371" flag="0"/>
      <vel value="0.0092666210" flag="0"/>
      <psa03 value="0.0381080456" flag="0"/>
      <psa10 value="0.0057542182" flag="0"/>
      <psa30 value="0.0004102829" flag="0"/>
    </comp>
    <comp name="--.HNN">
      <acc value="0.0391271966" flag="0"/>
      <vel value="0.0128100800" flag="0"/>
      <psa03 value="0.0872075350" flag="0"/>
      <psa10 value="0.0056323461" flag="0"/>
      <psa30 value="0.0004553339" flag="0"/>
    </comp>
  </station>
  <station code="TVSB" name="TVSB" netid="KO" insttype="CMG-3T" commtype="DIG" lat="39.4497" lon="29.4615">
    <comp name="--.HHN">
      <acc value="0.0686912255" flag="0"/>
      <vel value="0.0300966152" flag="0"/>
      <psa03 value="0.1955496439" flag="0"/>
      <psa10 value="0.0169398176" flag="0"/>
      <psa30 value="0.0011707817" flag="0"/>
    </comp>
    <comp name="--.HHE">
      <acc value="0.0721880350" flag="0"/>
      <vel value="0.0357551432" flag="0"/>
      <psa03 value="0.2270304791" flag="0"/>
      <psa10 value="0.0220828809" flag="0"/>
      <psa30 value="0.0014789871" flag="0"/>
    </comp>
    <comp name="--.HHZ">
      <acc value="0.0277486425" flag="0"/>
      <vel value="0.0110680046" flag="0"/>
      <psa03 value="0.0790900800" flag="0"/>
      <psa10 value="0.0105460353" flag="0"/>
      <psa30 value="0.0004787152" flag="0"/>
    </comp>
  </station>
  <station code="YAYO" name="YAYO" netid="KO" insttype="CMG-6T" commtype="DIG" lat="39.6113" lon="27.0726">
    <comp name="--.HHE">
      <acc value="0.0204406047" flag="0"/>
      <vel value="0.0100896113" flag="0"/>
      <psa03 value="0.0210347700" flag="0"/>
      <psa10 value="0.0110416378" flag="0"/>
      <psa30 value="0.0007342818" flag="0"/>
    </comp>
    <comp name="--.HHN">
      <acc value="0.0136222263" flag="0"/>
      <vel value="0.0088187676" flag="0"/>
      <psa03 value="0.0279760361" flag="0"/>
      <psa10 value="0.0101439093" flag="0"/>
      <psa30 value="0.0004334899" flag="0"/>
    </comp>
    <comp name="--.HHZ">
      <acc value="0.0132905412" flag="0"/>
      <vel value="0.0097419762" flag="0"/>
      <psa03 value="0.0177213565" flag="0"/>
      <psa10 value="0.0084182476" flag="0"/>
      <psa30 value="0.0004651667" flag="0"/>
    </comp>
  </station>
</stationlist>
