<?xml version="1.0" encoding="UTF-8" standalone="yes"?>
<!DOCTYPE earthquake SYSTEM "stationlist.dtd">
<stationlist created="" xmlns="ch.ethz.sed.shakemap.usgs.xml">
  <station code="AKS" name="AKS" netid="KO" insttype="CMG-5T" commtype="DIG" lat="38.8785" lon="27.8129">
    <comp name="--.HNE">
      <acc value="0.1759713003" flag="0"/>
      <vel value="0.0260659942" flag="0"/>
      <psa03 value="0.1101172956" flag="0"/>
      <psa10 value="0.0133312709" flag="0"/>
      <psa30 value="0.0013197669" flag="0"/>
    </comp>
    <comp name="--.HNN">
      <acc value="0.1594562411" flag="0"/>
      <vel value="0.0368176370" flag="0"/>
      <psa03 value="0.1468605133" flag="0"/>
      <psa10 value="0.0178807544" flag="0"/>
      <psa30 value="0.0010807648" flag="0"/>
    </comp>
    <comp name="--.HNZ">
      <acc value="0.1318013644" flag="0"/>
      <vel value="0.0177788934" flag="0"/>
      <psa03 value="0.0825422813" flag="0"/>
      <psa10 value="0.0094179051" flag="0"/>
      <psa30 value="0.0006729507" flag="0"/>
    </comp>
  </station>
  <station code="BALB" name="BALB" netid="KO" insttype="CMG-5T" commtype="DIG" lat="39.6507" lon="27.8642">
    <comp name="--.HNE">
      <acc value="0.0694534253" flag="0"/>
      <vel value="0.0315920135" flag="0"/>
      <psa03 value="0.1071576875" flag="0"/>
      <psa10 value="0.0295092112" flag="0"/>
      <psa30 value="0.0017507480" flag="0"/>
    </comp>
    <comp name="--.HNN">
      <acc value="0.0596000419" flag="0"/>
      <vel value="0.0214041183" flag="0"/>
      <psa03 value="0.0971046624" flag="0"/>
      <psa10 value="0.0146191746" flag="0"/>
      <psa30 value="0.0011313144" flag="0"/>
    </comp>
    <comp name="--.HNZ">
      <acc value="0.0407953836" flag="0"/>
      <vel value="0.0151189631" flag="0"/>
      <psa03 value="0.0484825456" flag="0"/>
      <psa10 value="0.0117664661" flag="0"/>
      <psa30 value="0.0007458797" flag="0"/>
    </comp>
  </station>
  <station code="DKL" name="DKL" netid="KO" insttype="CMG-3ESPC" commtype="DIG" lat="39.0713" lon="26.9053">
    <comp name="--.HHZ">
      <acc value="0.0056303481" flag="0"/>
      <vel value="0.0030015257" flag="0"/>
      <psa03 value="0.0091186394" flag="0"/>
      <psa10 value="0.0044835619" flag="0"/>
      <psa30 value="0.0004938640" flag="0"/>
    </comp>
  </station>
  <station code="DST" name="DST" netid="KO" insttype="CMG-5T" commtype="DIG" lat="39.6041" lon="28.6267">
    <comp name="--.HNE">
      <acc value="0.0744948021" flag="0"/>
      <vel value="0.0291964823" flag="0"/>
      <psa03 value="0.1853817850" flag="0"/>
      <psa10 value="0.0151884360" flag="0"/>
      <psa30 value="0.0007929442" flag="0"/>
    </comp>
    <comp name="--.HNZ">
      <acc value="0.0723333980" flag="0"/>
      <vel value="0.0172729466" flag="0"/>
      <psa03 value="0.1427107042" flag="0"/>
      <psa10 value="0.0081541295" flag="0"/>
      <psa30 value="0.0010415841" flag="0"/>
    </comp>
    <comp name="--.HNN">
      <acc value="0.0694173497" flag="0"/>
      <vel value="0.0238561082" flag="0"/>
      <psa03 value="0.1383522271" flag="0"/>
      <psa10 value="0.0150068167" flag="0"/>
      <psa30 value="0.0010484523" flag="0"/>
    </comp>
  </station>
  <station code="GOMA" name="GOMA" netid="KO" insttype="CMG-5T" commtype="DIG" lat="38.7077" lon="27.9175">
    <comp name="--.HNE">
      <acc value="0.2568198411" flag="0"/>
      <vel value="0.0973884712" flag="0"/>
      <psa03 value="0.3401583779" flag="0"/>
      <psa10 value="0.0349186118" flag="0"/>
      <psa30 value="0.0026322014" flag="0"/>
    </comp>
    <comp name="--.HNN">
      <acc value="0.2467126146" flag="0"/>
      <vel value="0.1462390196" flag="0"/>
      <psa03 value="0.5214861106" flag="0"/>
      <psa10 value="0.0459876919" flag="0"/>
      <psa30 value="0.0039713215" flag="0"/>
    </comp>
  </station>
  <station code="GONE" name="GONE" netid="KO" insttype="CMG-5T" commtype="DIG" lat="40.0466" lon="27.686">
    <comp name="--.HNZ">
      <acc value="0.0152506110" flag="0"/>
      <vel value="0.0071952133" flag="0"/>
      <psa03 value="0.0343301112" flag="0"/>
      <psa10 value="0.0060844989" flag="0"/>
      <psa30 value="0.0005782651" flag="0"/>
    </comp>
    <comp name="--.HNN">
      <acc value="0.0561308198" flag="0"/>
      <vel value="0.0447128528" flag="0"/>
      <psa03 value="0.1875736597" flag="0"/>
      <psa10 value="0.0390449667" flag="0"/>
      <psa30 value="0.0023148998" flag="0"/>
    </comp>
    <comp name="--.HNE">
      <acc value="0.0221568335" flag="0"/>
      <vel value="0.0147432820" flag="0"/>
      <psa03 value="0.0722643114" flag="0"/>
      <psa10 value="0.0206869994" flag="0"/>
      <psa30 value="0.0012227064" flag="0"/>
    </comp>
  </station>
  <station code="GORD" name="GORD" netid="KO" insttype="CMG-5T" commtype="DIG" lat="38.9088" lon="28.1769">
    <comp name="--.HNE">
      <acc value="0.2119507808" flag="0"/>
      <vel value="0.0850711696" flag="0"/>
      <psa03 value="0.2510994069" flag="0"/>
      <psa10 value="0.0632533360" flag="0"/>
      <psa30 value="0.0043946124" flag="0"/>
    </comp>
    <comp name="--.HNZ">
      <acc value="0.1933058648" flag="0"/>
      <vel value="0.0552982553" flag="0"/>
      <psa03 value="0.2466111894" flag="0"/>
      <psa10 value="0.0344444498" flag="0"/>
      <psa30 value="0.0023704773" flag="0"/>
    </comp>
    <comp name="--.HNN">
      <acc value="0.2559991394" flag="0"/>
      <vel value="0.1269551404" flag="0"/>
      <psa03 value="0.3526654921" flag="0"/>
      <psa10 value="0.0947442641" flag="0"/>
      <psa30 value="0.0054290467" flag="0"/>
    </comp>
  </station>
  <station code="KCTX" name="KCTX" netid="KO" insttype="CMG-3ESP" commtype="DIG" lat="40.2626" lon="28.3353">
    <comp name="--.HHE">
      <acc value="0.0210636965" flag="0"/>
      <vel value="0.0103701371" flag="0"/>
      <psa03 value="0.0524869668" flag="0"/>
      <psa10 value="0.0132091144" flag="0"/>
      <psa30 value="0.0009232473" flag="0"/>
    </comp>
    <comp name="--.HHN">
      <acc value="0.0372212823" flag="0"/>
      <vel value="0.0104623835" flag="0"/>
      <psa03 value="0.0810956527" flag="0"/>
      <psa10 value="0.0042167637" flag="0"/>
      <psa30 value="0.0004149811" flag="0"/>
    </comp>
    <comp name="--.HHZ">
      <acc value="0.0180064230" flag="0"/>
      <vel value="0.0075550661" flag="0"/>
      <psa03 value="0.0328973577" flag="0"/>
      <psa10 value="0.0047490622" flag="0"/>
      <psa30 value="0.0003953186" flag="0"/>
    </comp>
  </station>
  <station code="KULA" name="KULA" netid="KO" insttype="CMG-3T" commtype="DIG" lat="38.5145" lon="28.6607">
    <comp name="--.HHE">
      <acc value="0.0856602529" flag="0"/>
      <vel value="0.0177105026" flag="0"/>
      <psa03 value="0.0627501470" flag="0"/>
      <psa10 value="0.0101287856" flag="0"/>
      <psa30 value="0.0007915360" flag="0"/>
    </comp>
  </station>
  <station code="ORLT" name="ORLT" netid="KO" insttype="CMG-5T" commtype="DIG" lat="40.0452" lon="28.8914">
    <comp name="--.HNN">
      <acc value="0.0687760819" flag="0"/>
      <vel value="0.0320534360" flag="0"/>
      <psa03 value="0.1992120178" flag="0"/>
      <psa10 value="0.0296548633" flag="0"/>
      <psa30 value="0.0018521338" flag="0"/>
    </comp>
    <comp name="--.HNE">
      <acc value="0.0469267248" flag="0"/>
      <vel value="0.0193819047" flag="0"/>
      <psa03 value="0.1800849608" flag="0"/>
      <psa10 value="0.0188239712" flag="0"/>
      <psa30 value="0.0008211132" flag="0"/>
    </comp>
    <comp name="--.HNZ">
      <acc value="0.0187823325" flag="0"/>
      <vel value="0.0111994825" flag="0"/>
      <psa03 value="0.0623135704" flag="0"/>
      <psa10 value="0.0177824274" flag="0"/>
      <psa30 value="0.0011558192" flag="0"/>
    </comp>
  </station>
  <station code="SHAP" name="SHAP" netid="KO" insttype="CMG-5T" commtype="DIG" lat="39.0231" lon="29.222">
    <comp name="--.HNE">
      <acc value="0.1462147540" flag="0"/>
      <vel value="0.0435998241" flag="0"/>
      <psa03 value="0.2786380959" flag="0"/>
      <psa10 value="0.0182330230" flag="0"/>
      <psa30 value="0.0012238973" flag="0"/>
    </comp>
    <comp name="--.HNZ">
      <acc value="0.0751421195" flag="0"/>
      <vel value="0.0205356058" flag="0"/>
      <psa03 value="0.0475087279" flag="0"/>
      <psa10 value="0.0123198921" flag="0"/>
      <psa30 value="0.0005484761" flag="0"/>
    </comp>
  </station>
  <station code="SIMA" name="SIMA" netid="KO" insttype="CMG-6T" commtype="DIG" lat="39.0833" lon="28.9825">
    <comp name="--.HHE">
      <acc value="0.2144642851" flag="0"/>
      <vel value="0.0658814919" flag="0"/>
      <psa03 value="0.2851320692" flag="0"/>
      <psa10 value="0.0135293111" flag="0"/>
      <psa30 value="0.0014265222" flag="0"/>
    </comp>
    <comp name="--.HHZ">
      <acc value="0.1254260837" flag="0"/>
      <vel value="0.0249540579" flag="0"/>
      <psa03 value="0.1116399790" flag="0"/>
      <psa10 value="0.0110232312" flag="0"/>
      <psa30 value="0.0008238293" flag="0"/>
    </comp>
    <comp name="--.HHN">
      <acc value="0.2416501091" flag="0"/>
      <vel value="0.0795900376" flag="0"/>
      <psa03 value="0.3496426057" flag="0"/>
      <psa10 value="0.0299150797" flag="0"/>
      <psa30 value="0.0021013687" flag="0"/>
    </comp>
  </station>
  <station code="SMAA" name="SMAA" netid="KO" insttype="CMG-5T" commtype="DIG" lat="39.1005" lon="28.9805">
    <comp name="--.HNN">
      <acc value="0.1850079326" flag="0"/>
      <vel value="0.0873554878" flag="0"/>
      <psa03 value="0.4205107321" flag="0"/>
      <psa10 value="0.0457545079" flag="0"/>
      <psa30 value="0.0045099602" flag="0"/>
    </comp>
    <comp name="--.HNZ">
      <acc value="0.0905194054" flag="0"/>
      <vel value="0.0342304471" flag="0"/>
      <psa03 value="0.2187656756" flag="0"/>
      <psa10 value="0.0359031258" flag="0"/>
      <psa30 value="0.0017435943" flag="0"/>
    </comp>
    <comp name="--.HNE">
      <acc value="0.2430680692" flag="0"/>
      <vel value="0.1124916258" flag="0"/>
      <psa03 value="0.6805850835" flag="0"/>
      <psa10 value="0.0974939953" flag="0"/>
      <psa30 value="0.0050573766" flag="0"/>
    </comp>
  </station>
  <station code="SOMA" name="SOMA" netid="KO" insttype="CMG-5T" commtype="DIG" lat="39.1564" lon="27.5341">
    <comp name="--.HNE">
      <acc value="0.0911603131" flag="0"/>
      <vel value="0.0176348766" flag="0"/>
      <psa03 value="0.0544927145" flag="0"/>
      <psa10 value="0.0108769682" flag="0"/>
      <psa30 value="0.0008329605" flag="0"/>
    </comp>
    <comp name="--.HNN">
      <acc value="0.0661634367" flag="0"/>
      <vel value="0.0254054040" flag="0"/>
      <psa03 value="0.0794657286" flag="0"/>
      <psa10 value="0.0267374779" flag="0"/>
      <psa30 value="0.0015317143" flag="0"/>
    </comp>
  </station>
  <station code="SUSR" name="SUSR" netid="KO" insttype="CMG-5T" commtype="DIG" lat="39.9627" lon="28.0835">
    <comp name="--.HNZ">
      <acc value="0.0331086370" flag="0"/>
      <vel value="0.0092666230" flag="0"/>
      <psa03 value="0.0381080456" flag="0"/>
      <psa10 value="0.0057542187" flag="0"/>
      <psa30 value="0.0004101658" flag="0"/>
    </comp>
    <comp name="--.HNE">
      <acc value="0.0481922605" flag="0"/>
      <vel value="0.0119837585" flag="0"/>
      <psa03 value="0.0587296138" flag="0"/>
      <psa10 value="0.0070528893" flag="0"/>
      <psa30 value="0.0006459942" flag="0"/>
    </comp>
  </station>
  <station code="TVSB" name="TVSB" netid="KO" insttype="CMG-3T" commtype="DIG" lat="39.4497" lon="29.4615">
    <comp name="--.HHZ">
      <acc value="0.0277486421" flag="0"/>
      <vel value="0.0110680050" flag="0"/>
      <psa03 value="0.0790900800" flag="0"/>
      <psa10 value="0.0105460353" flag="0"/>
      <psa30 value="0.0004787448" flag="0"/>
    </comp>
    <comp name="--.HHN">
      <acc value="0.0686912256" flag="0"/>
      <vel value="0.0300966155" flag="0"/>
      <psa03 value="0.1955496439" flag="0"/>
      <psa10 value="0.0169398176" flag="0"/>
      <psa30 value="0.0011707458" flag="0"/>
    </comp>
  </station>
  <station code="YAYO" name="YAYO" netid="KO" insttype="CMG-6T" commtype="DIG" lat="39.6113" lon="27.0726">
    <comp name="--.HHE">
      <acc value="0.0204406048" flag="0"/>
      <vel value="0.0100896127" flag="0"/>
      <psa03 value="0.0210347700" flag="0"/>
      <psa10 value="0.0110416378" flag="0"/>
      <psa30 value="0.0007342342" flag="0"/>
    </comp>
    <comp name="--.HHN">
      <acc value="0.0136222263" flag="0"/>
      <vel value="0.0088187673" flag="0"/>
      <psa03 value="0.0279760361" flag="0"/>
      <psa10 value="0.0101439093" flag="0"/>
      <psa30 value="0.0004334681" flag="0"/>
    </comp>
    <comp name="--.HHZ">
      <acc value="0.0132905412" flag="0"/>
      <vel value="0.0097419768" flag="0"/>
      <psa03 value="0.0177213565" flag="0"/>
      <psa10 value="0.0084182476" flag="0"/>
      <psa30 value="0.0004652612" flag="0"/>
    </comp>
  </station>
</stationlist>
