<stationlist created="1778138803">
	<station code="AIGS" name="AIGS" netid="HA" source="Hellenic Seismological Network, University of Athens, Seismological Laboratory (HA)" insttype="" lat="38.25001" lon="22.0878">
		<comp name="--.HNE" depth="0.0">
			<acc value="0.00671613051717012" flag="0"/>
			<vel value="0.00592360747219933" flag="0"/>
			<psa03 value="0.0166009903591357" flag="0"/>
			<psa10 value="0.00917005309600351" flag="0"/>
			<psa30 value="0.00188181799454076" flag="0"/>
		</comp>
		<comp name="--.HNN" depth="0.0">
			<acc value="0.00637257589352049" flag="0"/>
			<vel value="0.00598542829424876" flag="0"/>
			<psa03 value="0.0119890246828069" flag="0"/>
			<psa10 value="0.00950054655207332" flag="0"/>
			<psa30 value="0.00147721952521096" flag="0"/>
		</comp>
		<comp name="--.HNZ" depth="0.0">
			<acc value="0.006464102710564" flag="0"/>
			<vel value="0.00490499115275073" flag="0"/>
			<psa03 value="0.00783336397398954" flag="0"/>
			<psa10 value="0.00977567696560425" flag="0"/>
			<psa30 value="0.00139511231517934" flag="0"/>
		</comp>
	</station>
	<station code="CORS" name="CORS" netid="HA" source="Hellenic Seismological Network, University of Athens, Seismological Laboratory (HA)" insttype="" lat="38.2562" lon="22.0748">
		<comp name="00.HNE" depth="0.0">
			<acc value="0.00731036547641597" flag="0"/>
			<vel value="0.00838960956398947" flag="0"/>
			<psa03 value="0.0144784643355293" flag="0"/>
			<psa10 value="0.0211507730099091" flag="0"/>
			<psa30 value="0.00113606452953498" flag="0"/>
		</comp>
		<comp name="00.HNN" depth="0.0">
			<acc value="0.00912876042083382" flag="0"/>
			<vel value="0.00882269900218374" flag="0"/>
			<psa03 value="0.0158007420341199" flag="0"/>
			<psa10 value="0.0196903475138847" flag="0"/>
			<psa30 value="0.0012119218463734" flag="0"/>
		</comp>
		<comp name="00.HNZ" depth="0.0">
			<acc value="0.003617633608415" flag="0"/>
			<vel value="0.0040356302064617" flag="0"/>
			<psa03 value="0.00996347773982678" flag="0"/>
			<psa10 value="0.00646109676593762" flag="0"/>
			<psa30 value="0.000670189553017147" flag="0"/>
		</comp>
	</station>
	<station code="DRES" name="DRES" netid="HA" source="Hellenic Seismological Network, University of Athens, Seismological Laboratory (HA)" insttype="" lat="38.319719" lon="21.853176">
		<comp name="--.HNE" depth="0.0">
			<acc value="0.00526857314236372" flag="0"/>
			<vel value="0.0057533043467665" flag="0"/>
			<psa03 value="0.0104471067830764" flag="0"/>
			<psa10 value="0.00994934347017682" flag="0"/>
			<psa30 value="0.000940117069808202" flag="0"/>
		</comp>
		<comp name="--.HNN" depth="0.0">
			<acc value="0.00475695167101518" flag="0"/>
			<vel value="0.00554240357776148" flag="0"/>
			<psa03 value="0.0121164992731735" flag="0"/>
			<psa10 value="0.00807692599420642" flag="0"/>
			<psa30 value="0.00204913866204767" flag="0"/>
		</comp>
		<comp name="--.HNZ" depth="0.0">
			<acc value="0.0034170572706682" flag="0"/>
			<vel value="0.00329925431522537" flag="0"/>
			<psa03 value="0.00818686069872612" flag="0"/>
			<psa10 value="0.00601651465830048" flag="0"/>
			<psa30 value="0.000991467763206793" flag="0"/>
		</comp>
	</station>
	<station code="KIAS" name="KIAS" netid="HA" source="Hellenic Seismological Network, University of Athens, Seismological Laboratory (HA)" insttype="" lat="37.9875" lon="22.7543">
		<comp name="--.HNE" depth="0.0">
			<acc value="0.0249634119284064" flag="0"/>
			<vel value="0.0154484869925645" flag="0"/>
			<psa03 value="0.0517044824597333" flag="0"/>
			<psa10 value="0.0256979379872582" flag="0"/>
			<psa30 value="0.00352277003289436" flag="0"/>
		</comp>
		<comp name="--.HNN" depth="0.0">
			<acc value="0.0209881007282209" flag="0"/>
			<vel value="0.0143576942048093" flag="0"/>
			<psa03 value="0.0477597940601169" flag="0"/>
			<psa10 value="0.0268804175707504" flag="0"/>
			<psa30 value="0.00317526097045468" flag="0"/>
		</comp>
		<comp name="--.HNZ" depth="0.0">
			<acc value="0.0134927586328168" flag="0"/>
			<vel value="0.0109548634988833" flag="0"/>
			<psa03 value="0.0330045665989133" flag="0"/>
			<psa10 value="0.0183634721149204" flag="0"/>
			<psa30 value="0.00221366206091298" flag="0"/>
		</comp>
	</station>
	<station code="LTRS" name="LTRS" netid="HA" source="Hellenic Seismological Network, University of Athens, Seismological Laboratory (HA)" insttype="" lat="37.97528" lon="22.9765">
		<comp name="--.HNE" depth="0.0">
			<acc value="0.0223459716217063" flag="0"/>
			<vel value="0.0247998559548729" flag="0"/>
			<psa03 value="0.0599190474676528" flag="0"/>
			<psa10 value="0.0542840435513599" flag="0"/>
			<psa30 value="0.00419295317923467" flag="0"/>
		</comp>
		<comp name="--.HNN" depth="0.0">
			<acc value="0.0231302431014373" flag="0"/>
			<vel value="0.0277134815597801" flag="0"/>
			<psa03 value="0.0914869668127457" flag="0"/>
			<psa10 value="0.0446118678173834" flag="0"/>
			<psa30 value="0.00246159119333378" flag="0"/>
		</comp>
		<comp name="--.HNZ" depth="0.0">
			<acc value="0.0154969830449361" flag="0"/>
			<vel value="0.0150904265645403" flag="0"/>
			<psa03 value="0.0364948707310859" flag="0"/>
			<psa10 value="0.029431749083915" flag="0"/>
			<psa30 value="0.00158442131430147" flag="0"/>
		</comp>
	</station>
	<station code="ABEA" name="ABEA" netid="HC" source="Seismological Network of Crete (HC)" insttype="" lat="35.5163" lon="24.0113">
		<comp name="--.HNE" depth="0.0">
			<acc value="0.0962363806021438" flag="0"/>
			<vel value="0.0693074144330383" flag="0"/>
			<psa03 value="0.276510484129005" flag="0"/>
			<psa10 value="0.0844236051495957" flag="0"/>
			<psa30 value="0.00861648329973645" flag="0"/>
		</comp>
		<comp name="--.HNN" depth="0.0">
			<acc value="0.122256018089988" flag="0"/>
			<vel value="0.0684219262271868" flag="0"/>
			<psa03 value="0.267875016238612" flag="0"/>
			<psa10 value="0.0899710176382782" flag="0"/>
			<psa30 value="0.00626688015005785" flag="0"/>
		</comp>
		<comp name="--.HNZ" depth="0.0">
			<acc value="0.0558744484630001" flag="0"/>
			<vel value="0.0327108783479945" flag="0"/>
			<psa03 value="0.157804057911107" flag="0"/>
			<psa10 value="0.0497756373917587" flag="0"/>
			<psa30 value="0.00325455914023724" flag="0"/>
		</comp>
	</station>
	<station code="ATEI" name="ATEI" netid="HC" source="Seismological Network of Crete (HC)" insttype="" lat="35.5193" lon="24.0432">
		<comp name="--.HNE" depth="0.0">
			<acc value="0.062039929871446" flag="0"/>
			<vel value="0.0500956420055825" flag="0"/>
			<psa03 value="0.30107171535684" flag="0"/>
			<psa10 value="0.0440447402480605" flag="0"/>
			<psa30 value="0.00482747938017194" flag="0"/>
		</comp>
		<comp name="--.HNN" depth="0.0">
			<acc value="0.135083787947281" flag="0"/>
			<vel value="0.0687542240194398" flag="0"/>
			<psa03 value="0.606877619330003" flag="0"/>
			<psa10 value="0.035025344007138" flag="0"/>
			<psa30 value="0.00437762332939448" flag="0"/>
		</comp>
		<comp name="--.HNZ" depth="0.0">
			<acc value="0.056696075616212" flag="0"/>
			<vel value="0.0296924569290425" flag="0"/>
			<psa03 value="0.207702155081928" flag="0"/>
			<psa10 value="0.0231998712525945" flag="0"/>
			<psa30 value="0.00228241015680286" flag="0"/>
		</comp>
	</station>
	<station code="G0LD" name="G0LD" netid="HC" source="Seismological Network of Crete (HC)" insttype="" lat="35.4955" lon="24.0306">
		<comp name="--.HNE" depth="0.0">
			<acc value="0.179903509837375" flag="0"/>
			<vel value="0.112786837261164" flag="0"/>
			<psa03 value="0.42828758028374" flag="0"/>
			<psa10 value="0.179151947937267" flag="0"/>
			<psa30 value="0.0102163892856616" flag="0"/>
		</comp>
		<comp name="--.HNN" depth="0.0">
			<acc value="0.162036977528598" flag="0"/>
			<vel value="0.122769836251857" flag="0"/>
			<psa03 value="0.56197881167317" flag="0"/>
			<psa10 value="0.153041353238473" flag="0"/>
			<psa30 value="0.0118664227589172" flag="0"/>
		</comp>
		<comp name="--.HNZ" depth="0.0">
			<acc value="0.0874030139539907" flag="0"/>
			<vel value="0.0735299118785137" flag="0"/>
			<psa03 value="0.259645075212109" flag="0"/>
			<psa10 value="0.111508769408759" flag="0"/>
			<psa30 value="0.00665298822782597" flag="0"/>
		</comp>
	</station>
	<station code="LENT" name="LENT" netid="HC" source="Seismological Network of Crete (HC)" insttype="" lat="35.5074" lon="24.0402">
		<comp name="--.HNE" depth="0.0">
			<acc value="0.0615933649624823" flag="0"/>
			<vel value="0.046162009790874" flag="0"/>
			<psa03 value="0.218290898200713" flag="0"/>
			<psa10 value="0.0784754036104008" flag="0"/>
			<psa30 value="0.00469191498301468" flag="0"/>
		</comp>
		<comp name="--.HNN" depth="0.0">
			<acc value="0.0974239964840903" flag="0"/>
			<vel value="0.0708460651793093" flag="0"/>
			<psa03 value="0.199132399877556" flag="0"/>
			<psa10 value="0.102804285279529" flag="0"/>
			<psa30 value="0.00580066093196868" flag="0"/>
		</comp>
		<comp name="--.HNZ" depth="0.0">
			<acc value="0.0593654786854274" flag="0"/>
			<vel value="0.0391331347772791" flag="0"/>
			<psa03 value="0.198052578344616" flag="0"/>
			<psa10 value="0.0421043354556213" flag="0"/>
			<psa30 value="0.00247285652294227" flag="0"/>
		</comp>
	</station>
	<station code="MULT" name="MULT" netid="HC" source="Seismological Network of Crete (HC)" insttype="" lat="35.5091" lon="24.0118">
		<comp name="--.HNE" depth="0.0">
			<acc value="0.109438109473869" flag="0"/>
			<vel value="0.0572651852356641" flag="0"/>
			<psa03 value="0.209175815204564" flag="0"/>
			<psa10 value="0.077198241504581" flag="0"/>
			<psa30 value="0.00623271705358813" flag="0"/>
		</comp>
		<comp name="--.HNN" depth="0.0">
			<acc value="0.102280596528179" flag="0"/>
			<vel value="0.0487437715735996" flag="0"/>
			<psa03 value="0.405714459925216" flag="0"/>
			<psa10 value="0.0836324527393933" flag="0"/>
			<psa30 value="0.00699648264932215" flag="0"/>
		</comp>
		<comp name="--.HNZ" depth="0.0">
			<acc value="0.0723516187769098" flag="0"/>
			<vel value="0.0344415268336798" flag="0"/>
			<psa03 value="0.218533164249703" flag="0"/>
			<psa10 value="0.057372838168864" flag="0"/>
			<psa30 value="0.00449892678184024" flag="0"/>
		</comp>
	</station>
	<station code="NERO" name="NERO" netid="HC" source="Seismological Network of Crete (HC)" insttype="" lat="35.474" lon="24.0423">
		<comp name="--.HNE" depth="0.0">
			<acc value="0.0479371560338885" flag="0"/>
			<vel value="0.0403318771928749" flag="0"/>
			<psa03 value="0.147446048827037" flag="0"/>
			<psa10 value="0.0496390345924146" flag="0"/>
			<psa30 value="0.00290154429640366" flag="0"/>
		</comp>
		<comp name="--.HNN" depth="0.0">
			<acc value="0.0512294915195134" flag="0"/>
			<vel value="0.0377569784329032" flag="0"/>
			<psa03 value="0.200422902033844" flag="0"/>
			<psa10 value="0.0449393957642848" flag="0"/>
			<psa30 value="0.00324700447310996" flag="0"/>
		</comp>
		<comp name="--.HNZ" depth="0.0">
			<acc value="0.0349956768280736" flag="0"/>
			<vel value="0.0230626974764757" flag="0"/>
			<psa03 value="0.118442189963825" flag="0"/>
			<psa10 value="0.0291659671021804" flag="0"/>
			<psa30 value="0.00283987708625418" flag="0"/>
		</comp>
	</station>
	<station code="PASK" name="PASK" netid="HC" source="Seismological Network of Crete (HC)" insttype="" lat="35.4996" lon="24.0121">
		<comp name="--.HNE" depth="0.0">
			<acc value="0.132071316568299" flag="0"/>
			<vel value="0.088175931452253" flag="0"/>
			<psa03 value="0.39201296893533" flag="0"/>
			<psa10 value="0.10007558201603" flag="0"/>
			<psa30 value="0.00996830201774144" flag="0"/>
		</comp>
		<comp name="--.HNN" depth="0.0">
			<acc value="0.140820776713259" flag="0"/>
			<vel value="0.100547451026219" flag="0"/>
			<psa03 value="0.36835748520913" flag="0"/>
			<psa10 value="0.082294416601093" flag="0"/>
			<psa30 value="0.0092525504360413" flag="0"/>
		</comp>
		<comp name="--.HNZ" depth="0.0">
			<acc value="0.0801040546040381" flag="0"/>
			<vel value="0.051558424887355" flag="0"/>
			<psa03 value="0.232273449475871" flag="0"/>
			<psa10 value="0.0609894540018563" flag="0"/>
			<psa30 value="0.00418010899503714" flag="0"/>
		</comp>
	</station>
	<station code="POLY" name="POLY" netid="HC" source="Seismological Network of Crete (HC)" insttype="" lat="35.5226" lon="24.0602">
		<comp name="--.HNE" depth="0.0">
			<acc value="0.0723735235584105" flag="0"/>
			<vel value="0.0530653373373007" flag="0"/>
			<psa03 value="0.217547015588899" flag="0"/>
			<psa10 value="0.0566792072192604" flag="0"/>
			<psa30 value="0.00580001130559803" flag="0"/>
		</comp>
		<comp name="--.HNN" depth="0.0">
			<acc value="0.120360707762493" flag="0"/>
			<vel value="0.0599501568266332" flag="0"/>
			<psa03 value="0.382294825156081" flag="0"/>
			<psa10 value="0.0343726545196767" flag="0"/>
			<psa30 value="0.0036734266798212" flag="0"/>
		</comp>
		<comp name="--.HNZ" depth="0.0">
			<acc value="0.0405241284532038" flag="0"/>
			<vel value="0.0251775865367068" flag="0"/>
			<psa03 value="0.186835231083863" flag="0"/>
			<psa10 value="0.0409391895203988" flag="0"/>
			<psa30 value="0.00333394044052516" flag="0"/>
		</comp>
	</station>
	<station code="ARS1" name="ARS1" netid="HI" source="ITSAK Strong Motion Network" insttype="" lat="37.6349" lon="22.7293">
		<comp name="--.HNE" depth="0.0">
			<acc value="0.0261472391744017" flag="0"/>
			<vel value="0.0214446572737175" flag="0"/>
			<psa03 value="0.0905799275588642" flag="0"/>
			<psa10 value="0.0319312540388644" flag="0"/>
			<psa30 value="0.00243472920552617" flag="0"/>
		</comp>
		<comp name="--.HNN" depth="0.0">
			<acc value="0.0277488326092747" flag="0"/>
			<vel value="0.0231020591419434" flag="0"/>
			<psa03 value="0.0860284906317565" flag="0"/>
			<psa10 value="0.0259643762625071" flag="0"/>
			<psa30 value="0.00189742236158495" flag="0"/>
		</comp>
		<comp name="--.HNZ" depth="0.0">
			<acc value="0.0146298083117021" flag="0"/>
			<vel value="0.00951543264547415" flag="0"/>
			<psa03 value="0.063532255575041" flag="0"/>
			<psa10 value="0.00800115503724503" flag="0"/>
			<psa30 value="0.00133452350980083" flag="0"/>
		</comp>
	</station>
	<station code="CH01" name="CH01" netid="HI" source="ITSAK Strong Motion Network" insttype="" lat="35.517" lon="24.0208">
		<comp name="--.HNE" depth="0.0">
			<acc value="0.076331156143703" flag="0"/>
			<vel value="0.0391119479692575" flag="0"/>
			<psa03 value="0.257684382825622" flag="0"/>
			<psa10 value="0.0615750927977459" flag="0"/>
			<psa30 value="0.00680997987775264" flag="0"/>
		</comp>
		<comp name="--.HNN" depth="0.0">
			<acc value="0.0788726465321115" flag="0"/>
			<vel value="0.0498824266456646" flag="0"/>
			<psa03 value="0.284693255364275" flag="0"/>
			<psa10 value="0.0581524810665432" flag="0"/>
			<psa30 value="0.00490171804811216" flag="0"/>
		</comp>
		<comp name="--.HNZ" depth="0.0">
			<acc value="0.0554394167851828" flag="0"/>
			<vel value="0.0337814228578757" flag="0"/>
			<psa03 value="0.215916699255191" flag="0"/>
			<psa10 value="0.0480350908391629" flag="0"/>
			<psa30 value="0.00345855994595467" flag="0"/>
		</comp>
	</station>
	<station code="NPS1" name="NPS1" netid="HI" source="ITSAK Strong Motion Network" insttype="" lat="36.51263" lon="23.06248">
		<comp name="--.HNE" depth="0.0">
			<acc value="0.301863719646674" flag="0"/>
			<vel value="0.198800452959877" flag="0"/>
			<psa03 value="1.14310139152569" flag="0"/>
			<psa10 value="0.286902945912112" flag="0"/>
			<psa30 value="0.0114184264147006" flag="0"/>
		</comp>
		<comp name="--.HNN" depth="0.0">
			<acc value="0.301189487530827" flag="0"/>
			<vel value="0.17368922746799" flag="0"/>
			<psa03 value="1.06861912410464" flag="0"/>
			<psa10 value="0.143305078258016" flag="0"/>
			<psa30 value="0.00564574025256885" flag="0"/>
		</comp>
		<comp name="--.HNZ" depth="0.0">
			<acc value="0.224815890667223" flag="0"/>
			<vel value="0.0916210030569671" flag="0"/>
			<psa03 value="0.513291086350888" flag="0"/>
			<psa10 value="0.0562082397699297" flag="0"/>
			<psa30 value="0.00334283915502034" flag="0"/>
		</comp>
	</station>
	<station code="SIT2" name="SIT2" netid="HI" source="ITSAK Strong Motion Network" insttype="" lat="35.2059" lon="26.107">
		<comp name="--.HNE" depth="0.0">
			<acc value="0.024178637729497" flag="0"/>
			<vel value="0.0139965643926856" flag="0"/>
			<psa03 value="0.0530426127710273" flag="0"/>
			<psa10 value="0.00883478838638394" flag="0"/>
			<psa30 value="0.000757811399202762" flag="0"/>
		</comp>
		<comp name="--.HNN" depth="0.0">
			<acc value="0.0199883710750895" flag="0"/>
			<vel value="0.0138594753230138" flag="0"/>
			<psa03 value="0.0622158506614003" flag="0"/>
			<psa10 value="0.00936289274569189" flag="0"/>
			<psa30 value="0.000819089156470154" flag="0"/>
		</comp>
		<comp name="--.HNZ" depth="0.0">
			<acc value="0.0108016414728092" flag="0"/>
			<vel value="0.00422962035884892" flag="0"/>
			<psa03 value="0.0343764439373543" flag="0"/>
			<psa10 value="0.00262952138038458" flag="0"/>
			<psa30 value="0.00072115126231564" flag="0"/>
		</comp>
	</station>
	<station code="IACM" name="IACM" netid="HL" source="National Observatory of Athens Seismic Network" insttype="" lat="35.3058" lon="25.0709">
		<comp name="--.HNE" depth="0.0">
			<acc value="0.0610108133338504" flag="0"/>
			<vel value="0.0540203736682073" flag="0"/>
			<psa03 value="0.223301042598183" flag="0"/>
			<psa10 value="0.121338058050933" flag="0"/>
			<psa30 value="0.00328860035363419" flag="0"/>
		</comp>
		<comp name="--.HNN" depth="0.0">
			<acc value="0.0751963016335975" flag="0"/>
			<vel value="0.0522895172716831" flag="0"/>
			<psa03 value="0.218370653484207" flag="0"/>
			<psa10 value="0.0899282348042511" flag="0"/>
			<psa30 value="0.00546326733132666" flag="0"/>
		</comp>
		<comp name="--.HNZ" depth="0.0">
			<acc value="0.0397711035217754" flag="0"/>
			<vel value="0.0222529127591641" flag="0"/>
			<psa03 value="0.134835557193873" flag="0"/>
			<psa10 value="0.0318463409138045" flag="0"/>
			<psa30 value="0.00160080333703049" flag="0"/>
		</comp>
	</station>
	<station code="IMMV" name="IMMV" netid="HL" source="National Observatory of Athens Seismic Network" insttype="" lat="35.4606" lon="23.9811">
		<comp name="--.HNE" depth="0.0">
			<acc value="0.0600626993356108" flag="0"/>
			<vel value="0.0355011977594576" flag="0"/>
			<psa03 value="0.290450428415554" flag="0"/>
			<psa10 value="0.044132976093109" flag="0"/>
			<psa30 value="0.00284176283617522" flag="0"/>
		</comp>
		<comp name="--.HNN" depth="0.0">
			<acc value="0.0578929236712208" flag="0"/>
			<vel value="0.0370585235521524" flag="0"/>
			<psa03 value="0.20329217544233" flag="0"/>
			<psa10 value="0.0499672150828339" flag="0"/>
			<psa30 value="0.00375156810630724" flag="0"/>
		</comp>
		<comp name="--.HNZ" depth="0.0">
			<acc value="0.040666663574989" flag="0"/>
			<vel value="0.0258226290203799" flag="0"/>
			<psa03 value="0.108770007562633" flag="0"/>
			<psa10 value="0.0215755767760911" flag="0"/>
			<psa30 value="0.00170095153385593" flag="0"/>
		</comp>
	</station>
	<station code="ITM" name="ITM" netid="HL" source="National Observatory of Athens Seismic Network" insttype="" lat="37.17872" lon="21.92522">
		<comp name="--.HNE" depth="0.0">
			<acc value="0.0154488838486457" flag="0"/>
			<vel value="0.00951867684007129" flag="0"/>
			<psa03 value="0.0560480462412112" flag="0"/>
			<psa10 value="0.0112297804803291" flag="0"/>
			<psa30 value="0.00112842610685819" flag="0"/>
		</comp>
		<comp name="--.HNN" depth="0.0">
			<acc value="0.0174198330628595" flag="0"/>
			<vel value="0.00843825534540426" flag="0"/>
			<psa03 value="0.0521835662799738" flag="0"/>
			<psa10 value="0.0117217099432467" flag="0"/>
			<psa30 value="0.00103000927472826" flag="0"/>
		</comp>
		<comp name="--.HNZ" depth="0.0">
			<acc value="0.016011331401297" flag="0"/>
			<vel value="0.00780186299036561" flag="0"/>
			<psa03 value="0.0236729015468825" flag="0"/>
			<psa10 value="0.012489537683074" flag="0"/>
			<psa30 value="0.000947197434682202" flag="0"/>
		</comp>
