<stationlist xmlns:esm="https://esm-db.eu/esmws/shakemap/1/" created="1784080464">
	<station code="AIGS" name="AIGS" netid="HA" source="Hellenic Seismological Network, University of Athens, Seismological Laboratory (HA)" insttype="" lat="38.25001" lon="22.0878" esm:processing="manual (Paolucci et al 2011)" esm:quality="bad">
		<comp name="--.HNE" depth="0.0">
			<acc value="0.00671613051717012" flag="0"/>
			<vel value="0.00592360747219933" flag="0"/>
			<psa03 value="0.0166009903591357" flag="0"/>
			<psa10 value="0.00917005309600351" flag="0"/>
			<psa30 value="0.00188181799454076" flag="0"/>
		</comp>
		<comp name="--.HNN" depth="0.0">
			<acc value="0.00637257589352049" flag="0"/>
			<vel value="0.00598542829424876" flag="0"/>
			<psa03 value="0.0119890246828069" flag="0"/>
			<psa10 value="0.00950054655207332" flag="0"/>
			<psa30 value="0.00147721952521096" flag="0"/>
		</comp>
		<comp name="--.HNZ" depth="0.0">
			<acc value="0.006464102710564" flag="0"/>
			<vel value="0.00490499115275073" flag="0"/>
			<psa03 value="0.00783336397398954" flag="0"/>
			<psa10 value="0.00977567696560425" flag="0"/>
			<psa30 value="0.00139511231517934" flag="0"/>
		</comp>
	</station>
	<station code="CORS" name="CORS" netid="HA" source="Hellenic Seismological Network, University of Athens, Seismological Laboratory (HA)" insttype="" lat="38.2562" lon="22.0748" esm:processing="manual (Paolucci et al 2011)" esm:quality="good">
		<comp name="00.HNE" depth="0.0">
			<acc value="0.00731036547641597" flag="0"/>
			<vel value="0.00838960956398947" flag="0"/>
			<psa03 value="0.0144784643355293" flag="0"/>
			<psa10 value="0.0211507730099091" flag="0"/>
			<psa30 value="0.00113606452953498" flag="0"/>
		</comp>
		<comp name="00.HNN" depth="0.0">
			<acc value="0.00912876042083382" flag="0"/>
			<vel value="0.00882269900218374" flag="0"/>
			<psa03 value="0.0158007420341199" flag="0"/>
			<psa10 value="0.0196903475138847" flag="0"/>
			<psa30 value="0.0012119218463734" flag="0"/>
		</comp>
		<comp name="00.HNZ" depth="0.0">
			<acc value="0.003617633608415" flag="0"/>
			<vel value="0.0040356302064617" flag="0"/>
			<psa03 value="0.00996347773982678" flag="0"/>
			<psa10 value="0.00646109676593762" flag="0"/>
			<psa30 value="0.000670189553017147" flag="0"/>
		</comp>
	</station>
	<station code="DRES" name="DRES" netid="HA" source="Hellenic Seismological Network, University of Athens, Seismological Laboratory (HA)" insttype="" lat="38.319719" lon="21.853176" esm:processing="manual (Paolucci et al 2011)" esm:quality="bad">
		<comp name="--.HNE" depth="0.0">
			<acc value="0.00526857314236372" flag="0"/>
			<vel value="0.0057533043467665" flag="0"/>
			<psa03 value="0.0104471067830764" flag="0"/>
			<psa10 value="0.00994934347017682" flag="0"/>
			<psa30 value="0.000940117069808202" flag="0"/>
		</comp>
		<comp name="--.HNN" depth="0.0">
			<acc value="0.00475695167101518" flag="0"/>
			<vel value="0.00554240357776148" flag="0"/>
			<psa03 value="0.0121164992731735" flag="0"/>
			<psa10 value="0.00807692599420642" flag="0"/>
			<psa30 value="0.00204913866204767" flag="0"/>
		</comp>
		<comp name="--.HNZ" depth="0.0">
			<acc value="0.0034170572706682" flag="0"/>
			<vel value="0.00329925431522537" flag="0"/>
			<psa03 value="0.00818686069872612" flag="0"/>
			<psa10 value="0.00601651465830048" flag="0"/>
			<psa30 value="0.000991467763206793" flag="0"/>
		</comp>
	</station>
	<station code="KIAS" name="KIAS" netid="HA" source="Hellenic Seismological Network, University of Athens, Seismological Laboratory (HA)" insttype="" lat="37.9875" lon="22.7543" esm:processing="manual (Paolucci et al 2011)" esm:quality="best">
		<comp name="--.HNE" depth="0.0">
			<acc value="0.0249634119284064" flag="0"/>
			<vel value="0.0154484869925645" flag="0"/>
			<psa03 value="0.0517044824597333" flag="0"/>
			<psa10 value="0.0256979379872582" flag="0"/>
			<psa30 value="0.00352277003289436" flag="0"/>
		</comp>
		<comp name="--.HNN" depth="0.0">
			<acc value="0.0209881007282209" flag="0"/>
			<vel value="0.0143576942048093" flag="0"/>
			<psa03 value="0.0477597940601169" flag="0"/>
			<psa10 value="0.0268804175707504" flag="0"/>
			<psa30 value="0.00317526097045468" flag="0"/>
		</comp>
		<comp name="--.HNZ" depth="0.0">
			<acc value="0.0134927586328168" flag="0"/>
			<vel value="0.0109548634988833" flag="0"/>
			<psa03 value="0.0330045665989133" flag="0"/>
			<psa10 value="0.0183634721149204" flag="0"/>
			<psa30 value="0.00221366206091298" flag="0"/>
		</comp>
	</station>
	<station code="LTRS" name="LTRS" netid="HA" source="Hellenic Seismological Network, University of Athens, Seismological Laboratory (HA)" insttype="" lat="37.97528" lon="22.9765" esm:processing="manual (Paolucci et al 2011)" esm:quality="good">
		<comp name="--.HNE" depth="0.0">
			<acc value="0.0223459716217063" flag="0"/>
			<vel value="0.0247998559548729" flag="0"/>
			<psa03 value="0.0599190474676528" flag="0"/>
			<psa10 value="0.0542840435513599" flag="0"/>
			<psa30 value="0.00419295317923467" flag="0"/>
		</comp>
		<comp name="--.HNN" depth="0.0">
			<acc value="0.0231302431014373" flag="0"/>
			<vel value="0.0277134815597801" flag="0"/>
			<psa03 value="0.0914869668127457" flag="0"/>
			<psa10 value="0.0446118678173834" flag="0"/>
			<psa30 value="0.00246159119333378" flag="0"/>
		</comp>
		<comp name="--.HNZ" depth="0.0">
			<acc value="0.0154969830449361" flag="0"/>
			<vel value="0.0150904265645403" flag="0"/>
			<psa03 value="0.0364948707310859" flag="0"/>
			<psa10 value="0.029431749083915" flag="0"/>
			<psa30 value="0.00158442131430147" flag="0"/>
		</comp>
	</station>
	<station code="ABEA" name="ABEA" netid="HC" source="Seismological Network of Crete (HC)" insttype="" lat="35.5163" lon="24.0113" esm:processing="manual (Paolucci et al 2011)" esm:quality="bad">
		<comp name="--.HNE" depth="0.0">
			<acc value="0.0962363806021438" flag="0"/>
			<vel value="0.0693074144330383" flag="0"/>
			<psa03 value="0.276510484129005" flag="0"/>
			<psa10 value="0.0844236051495957" flag="0"/>
			<psa30 value="0.00861648329973645" flag="0"/>
		</comp>
		<comp name="--.HNN" depth="0.0">
			<acc value="0.122256018089988" flag="0"/>
			<vel value="0.0684219262271868" flag="0"/>
			<psa03 value="0.267875016238612" flag="0"/>
			<psa10 value="0.0899710176382782" flag="0"/>
			<psa30 value="0.00626688015005785" flag="0"/>
		</comp>
		<comp name="--.HNZ" depth="0.0">
			<acc value="0.0558744484630001" flag="0"/>
			<vel value="0.0327108783479945" flag="0"/>
			<psa03 value="0.157804057911107" flag="0"/>
			<psa10 value="0.0497756373917587" flag="0"/>
			<psa30 value="0.00325455914023724" flag="0"/>
		</comp>
	</station>
	<station code="ATEI" name="ATEI" netid="HC" source="Seismological Network of Crete (HC)" insttype="" lat="35.5193" lon="24.0432" esm:processing="manual (Paolucci et al 2011)" esm:quality="good">
		<comp name="--.HNE" depth="0.0">
			<acc value="0.062039929871446" flag="0"/>
			<vel value="0.0500956420055825" flag="0"/>
			<psa03 value="0.30107171535684" flag="0"/>
			<psa10 value="0.0440447402480605" flag="0"/>
			<psa30 value="0.00482747938017194" flag="0"/>
		</comp>
		<comp name="--.HNN" depth="0.0">
			<acc value="0.135083787947281" flag="0"/>
			<vel value="0.0687542240194398" flag="0"/>
			<psa03 value="0.606877619330003" flag="0"/>
			<psa10 value="0.035025344007138" flag="0"/>
			<psa30 value="0.00437762332939448" flag="0"/>
		</comp>
		<comp name="--.HNZ" depth="0.0">
			<acc value="0.056696075616212" flag="0"/>
			<vel value="0.0296924569290425" flag="0"/>
			<psa03 value="0.207702155081928" flag="0"/>
			<psa10 value="0.0231998712525945" flag="0"/>
			<psa30 value="0.00228241015680286" flag="0"/>
		</comp>
	</station>
	<station code="G0LD" name="G0LD" netid="HC" source="Seismological Network of Crete (HC)" insttype="" lat="35.4955" lon="24.0306" esm:processing="manual (Paolucci et al 2011)" esm:quality="best">
		<comp name="--.HNE" depth="0.0">
			<acc value="0.179903509837375" flag="0"/>
			<vel value="0.112786837261164" flag="0"/>
			<psa03 value="0.42828758028374" flag="0"/>
			<psa10 value="0.179151947937267" flag="0"/>
			<psa30 value="0.0102163892856616" flag="0"/>
		</comp>
		<comp name="--.HNN" depth="0.0">
			<acc value="0.162036977528598" flag="0"/>
			<vel value="0.122769836251857" flag="0"/>
			<psa03 value="0.56197881167317" flag="0"/>
			<psa10 value="0.153041353238473" flag="0"/>
			<psa30 value="0.0118664227589172" flag="0"/>
		</comp>
		<comp name="--.HNZ" depth="0.0">
			<acc value="0.0874030139539907" flag="0"/>
			<vel value="0.0735299118785137" flag="0"/>
			<psa03 value="0.259645075212109" flag="0"/>
			<psa10 value="0.111508769408759" flag="0"/>
			<psa30 value="0.00665298822782597" flag="0"/>
		</comp>
	</station>
	<station code="LENT" name="LENT" netid="HC" source="Seismological Network of Crete (HC)" insttype="" lat="35.5074" lon="24.0402" esm:processing="manual (Paolucci et al 2011)" esm:quality="best">
		<comp name="--.HNE" depth="0.0">
			<acc value="0.0615933649624823" flag="0"/>
			<vel value="0.046162009790874" flag="0"/>
			<psa03 value="0.218290898200713" flag="0"/>
			<psa10 value="0.0784754036104008" flag="0"/>
			<psa30 value="0.00469191498301468" flag="0"/>
		</comp>
		<comp name="--.HNN" depth="0.0">
			<acc value="0.0974239964840903" flag="0"/>
			<vel value="0.0708460651793093" flag="0"/>
			<psa03 value="0.199132399877556" flag="0"/>
			<psa10 value="0.102804285279529" flag="0"/>
			<psa30 value="0.00580066093196868" flag="0"/>
		</comp>
		<comp name="--.HNZ" depth="0.0">
			<acc value="0.0593654786854274" flag="0"/>
			<vel value="0.0391331347772791" flag="0"/>
			<psa03 value="0.198052578344616" flag="0"/>
			<psa10 value="0.0421043354556213" flag="0"/>
			<psa30 value="0.00247285652294227" flag="0"/>
		</comp>
	</station>
	<station code="MULT" name="MULT" netid="HC" source="Seismological Network of Crete (HC)" insttype="" lat="35.5091" lon="24.0118" esm:processing="manual (Paolucci et al 2011)" esm:quality="best">
		<comp name="--.HNE" depth="0.0">
			<acc value="0.109438109473869" flag="0"/>
			<vel value="0.0572651852356641" flag="0"/>
			<psa03 value="0.209175815204564" flag="0"/>
			<psa10 value="0.077198241504581" flag="0"/>
			<psa30 value="0.00623271705358813" flag="0"/>
		</comp>
		<comp name="--.HNN" depth="0.0">
			<acc value="0.102280596528179" flag="0"/>
			<vel value="0.0487437715735996" flag="0"/>
			<psa03 value="0.405714459925216" flag="0"/>
			<psa10 value="0.0836324527393933" flag="0"/>
			<psa30 value="0.00699648264932215" flag="0"/>
		</comp>
		<comp name="--.HNZ" depth="0.0">
			<acc value="0.0723516187769098" flag="0"/>
			<vel value="0.0344415268336798" flag="0"/>
			<psa03 value="0.218533164249703" flag="0"/>
			<psa10 value="0.057372838168864" flag="0"/>
			<psa30 value="0.00449892678184024" flag="0"/>
		</comp>
	</station>
	<station code="NERO" name="NERO" netid="HC" source="Seismological Network of Crete (HC)" insttype="" lat="35.474" lon="24.0423" esm:processing="manual (Paolucci et al 2011)" esm:quality="best">
		<comp name="--.HNE" depth="0.0">
			<acc value="0.0479371560338885" flag="0"/>
			<vel value="0.0403318771928749" flag="0"/>
			<psa03 value="0.147446048827037" flag="0"/>
			<psa10 value="0.0496390345924146" flag="0"/>
			<psa30 value="0.00290154429640366" flag="0"/>
		</comp>
		<comp name="--.HNN" depth="0.0">
			<acc value="0.0512294915195134" flag="0"/>
			<vel value="0.0377569784329032" flag="0"/>
			<psa03 value="0.200422902033844" flag="0"/>
			<psa10 value="0.0449393957642848" flag="0"/>
			<psa30 value="0.00324700447310996" flag="0"/>
		</comp>
		<comp name="--.HNZ" depth="0.0">
			<acc value="0.0349956768280736" flag="0"/>
			<vel value="0.0230626974764757" flag="0"/>
			<psa03 value="0.118442189963825" flag="0"/>
			<psa10 value="0.0291659671021804" flag="0"/>
			<psa30 value="0.00283987708625418" flag="0"/>
		</comp>
	</station>
	<station code="PASK" name="PASK" netid="HC" source="Seismological Network of Crete (HC)" insttype="" lat="35.4996" lon="24.0121" esm:processing="manual (Paolucci et al 2011)" esm:quality="best">
		<comp name="--.HNE" depth="0.0">
			<acc value="0.132071316568299" flag="0"/>
			<vel value="0.088175931452253" flag="0"/>
			<psa03 value="0.39201296893533" flag="0"/>
			<psa10 value="0.10007558201603" flag="0"/>
			<psa30 value="0.00996830201774144" flag="0"/>
		</comp>
		<comp name="--.HNN" depth="0.0">
			<acc value="0.140820776713259" flag="0"/>
			<vel value="0.100547451026219" flag="0"/>
			<psa03 value="0.36835748520913" flag="0"/>
			<psa10 value="0.082294416601093" flag="0"/>
			<psa30 value="0.0092525504360413" flag="0"/>
		</comp>
		<comp name="--.HNZ" depth="0.0">
			<acc value="0.0801040546040381" flag="0"/>
			<vel value="0.051558424887355" flag="0"/>
			<psa03 value="0.232273449475871" flag="0"/>
			<psa10 value="0.0609894540018563" flag="0"/>
			<psa30 value="0.00418010899503714" flag="0"/>
		</comp>
	</station>
	<station code="POLY" name="POLY" netid="HC" source="Seismological Network of Crete (HC)" insttype="" lat="35.5226" lon="24.0602" esm:processing="manual (Paolucci et al 2011)" esm:quality="best">
		<comp name="--.HNE" depth="0.0">
			<acc value="0.0723735235584105" flag="0"/>
			<vel value="0.0530653373373007" flag="0"/>
			<psa03 value="0.217547015588899" flag="0"/>
			<psa10 value="0.0566792072192604" flag="0"/>
			<psa30 value="0.00580001130559803" flag="0"/>
		</comp>
		<comp name="--.HNN" depth="0.0">
			<acc value="0.120360707762493" flag="0"/>
			<vel value="0.0599501568266332" flag="0"/>
			<psa03 value="0.382294825156081" flag="0"/>
			<psa10 value="0.0343726545196767" flag="0"/>
			<psa30 value="0.0036734266798212" flag="0"/>
		</comp>
		<comp name="--.HNZ" depth="0.0">
			<acc value="0.0405241284532038" flag="0"/>
			<vel value="0.0251775865367068" flag="0"/>
			<psa03 value="0.186835231083863" flag="0"/>
			<psa10 value="0.0409391895203988" flag="0"/>
			<psa30 value="0.00333394044052516" flag="0"/>
		</comp>
	</station>
	<station code="ARK1" name="ARK1" netid="HI" source="ITSAK Strong Motion Network" insttype="" lat="35.148777" lon="25.264194" esm:processing="automatic (Paolucci et al 2011)" esm:quality="best">
		<comp name="--.HNE" depth="0.0">
			<acc value="0.0147184154899256" flag="0"/>
			<vel value="0.0101439230950219" flag="0"/>
			<psa03 value="0.0466051029843467" flag="0"/>
			<psa10 value="0.0184131497808059" flag="0"/>
			<psa30 value="0.00265198713946604" flag="0"/>
		</comp>
		<comp name="--.HNN" depth="0.0">
			<acc value="0.0164515238084144" flag="0"/>
			<vel value="0.0128943492096825" flag="0"/>
			<psa03 value="0.0417118048690283" flag="0"/>
			<psa10 value="0.015962908089319" flag="0"/>
			<psa30 value="0.00271424126349623" flag="0"/>
		</comp>
		<comp name="--.HNZ" depth="0.0">
			<acc value="0.00990793590419207" flag="0"/>
			<vel value="0.00694485091165743" flag="0"/>
			<psa03 value="0.025332050519857" flag="0"/>
			<psa10 value="0.0127412665463778" flag="0"/>
			<psa30 value="0.00138675342810878" flag="0"/>
		</comp>
	</station>
	<station code="ARS1" name="ARS1" netid="HI" source="ITSAK Strong Motion Network" insttype="" lat="37.6349" lon="22.7293" esm:processing="manual (Paolucci et al 2011)" esm:quality="good">
		<comp name="--.HNE" depth="0.0">
			<acc value="0.0261472391744017" flag="0"/>
			<vel value="0.0214446572737175" flag="0"/>
			<psa03 value="0.0905799275588642" flag="0"/>
			<psa10 value="0.0319312540388644" flag="0"/>
			<psa30 value="0.00243472920552617" flag="0"/>
		</comp>
		<comp name="--.HNN" depth="0.0">
			<acc value="0.0277488326092747" flag="0"/>
			<vel value="0.0231020591419434" flag="0"/>
			<psa03 value="0.0860284906317565" flag="0"/>
			<psa10 value="0.0259643762625071" flag="0"/>
			<psa30 value="0.00189742236158495" flag="0"/>
		</comp>
		<comp name="--.HNZ" depth="0.0">
			<acc value="0.0146298083117021" flag="0"/>
			<vel value="0.00951543264547415" flag="0"/>
			<psa03 value="0.063532255575041" flag="0"/>
			<psa10 value="0.00800115503724503" flag="0"/>
			<psa30 value="0.00133452350980083" flag="0"/>
		</comp>
	</station>
	<station code="CH01" name="CH01" netid="HI" source="ITSAK Strong Motion Network" insttype="" lat="35.517" lon="24.0208" esm:processing="manual (Paolucci et al 2011)" esm:quality="best">
		<comp name="--.HNE" depth="0.0">
			<acc value="0.076331156143703" flag="0"/>
			<vel value="0.0391119479692575" flag="0"/>
			<psa03 value="0.257684382825622" flag="0"/>
			<psa10 value="0.0615750927977459" flag="0"/>
			<psa30 value="0.00680997987775264" flag="0"/>
		</comp>
		<comp name="--.HNN" depth="0.0">
			<acc value="0.0788726465321115" flag="0"/>
			<vel value="0.0498824266456646" flag="0"/>
			<psa03 value="0.284693255364275" flag="0"/>
			<psa10 value="0.0581524810665432" flag="0"/>
			<psa30 value="0.00490171804811216" flag="0"/>
		</comp>
		<comp name="--.HNZ" depth="0.0">
			<acc value="0.0554394167851828" flag="0"/>
			<vel value="0.0337814228578757" flag="0"/>
			<psa03 value="0.215916699255191" flag="0"/>
			<psa10 value="0.0480350908391629" flag="0"/>
			<psa30 value="0.00345855994595467" flag="0"/>
		</comp>
	</station>
	<station code="CH03" name="CH03" netid="HI" source="ITSAK Strong Motion Network" insttype="" lat="35.53303" lon="24.0705" esm:processing="automatic (Paolucci et al 2011)" esm:quality="best">
		<comp name="--.HNE" depth="0.0">
			<acc value="0.0775241313524229" flag="0"/>
			<vel value="0.0527823795622377" flag="0"/>
			<psa03 value="0.271748668682294" flag="0"/>
			<psa10 value="0.0488964966529317" flag="0"/>
			<psa30 value="0.00390580499041192" flag="0"/>
		</comp>
		<comp name="--.HNN" depth="0.0">
			<acc value="0.077352651728549" flag="0"/>
			<vel value="0.0460114362026743" flag="0"/>
			<psa03 value="0.261881910891347" flag="0"/>
			<psa10 value="0.040352358145688" flag="0"/>
			<psa30 value="0.00318243582075454" flag="0"/>
		</comp>
		<comp name="--.HNZ" depth="0.0">
			<acc value="0.0535766561011177" flag="0"/>
			<vel value="0.037247326524595" flag="0"/>
			<psa03 value="0.146016277028409" flag="0"/>
			<psa10 value="0.0353969973773568" flag="0"/>
			<psa30 value="0.00269188436579482" flag="0"/>
		</comp>
	</station>
	<station code="GTH2" name="GTH2" netid="HI" source="ITSAK Strong Motion Network" insttype="" lat="36.7603" lon="22.5659" esm:processing="manual (Paolucci et al 2011)" esm:quality="good">
		<comp name="--.HNE" depth="0.0">
			<acc value="0.379555127553624" flag="0"/>
			<vel value="0.301123681353814" flag="0"/>
			<psa03 value="0.756005164965231" flag="0"/>
			<psa10 value="0.204461519572226" flag="0"/>
			<psa30 value="0.013389562826158" flag="0"/>
		</comp>
		<comp name="--.HNN" depth="0.0">
			<acc value="0.300217150925556" flag="0"/>
			<vel value="0.210297548241471" flag="0"/>
			<psa03 value="0.662488303265434" flag="0"/>
			<psa10 value="0.14280529014962" flag="0"/>
			<psa30 value="0.00930776992741086" flag="0"/>
		</comp>
		<comp name="--.HNZ" depth="0.0">
			<acc value="0.13376096479962" flag="0"/>
			<vel value="0.0783032769644153" flag="0"/>
			<psa03 value="0.321507277445922" flag="0"/>
			<psa10 value="0.0643290164816314" flag="0"/>
			<psa30 value="0.00375949988174983" flag="0"/>
		</comp>
	</station>
	<station code="HER1" name="HER1" netid="HI" source="ITSAK Strong Motion Network" insttype="" lat="35.317672" lon="25.10217" esm:processing="manual (Paolucci et al 2011)" esm:quality="good">
		<comp name="--.HNE" depth="0.0">
			<acc value="0.0365118010393149" flag="0"/>
			<vel value="0.039454523243313" flag="0"/>
			<psa03 value="0.101638024686989" flag="0"/>
			<psa10 value="0.0689328889655889" flag="0"/>
			<psa30 value="0.00320585237198614" flag="0"/>
		</comp>
		<comp name="--.HNN" depth="0.0">
			<acc value="0.0362979287043655" flag="0"/>
			<vel value="0.0346386712154799" flag="0"/>
			<psa03 value="0.0810275030910841" flag="0"/>
			<psa10 value="0.0925985166972812" flag="0"/>
			<psa30 value="0.00363130930642001" flag="0"/>
		</comp>
		<comp name="--.HNZ" depth="0.0">
