<?xml version="1.0" encoding="UTF-8" standalone="yes"?>
<!DOCTYPE earthquake SYSTEM "stationlist.dtd">
<stationlist created="" xmlns="ch.ethz.sed.shakemap.usgs.xml">
  <station code="IMMV" name="IMMV" netid="GE" insttype="STS-2/N" lat="35.4606" lon="23.9811">
    <comp name="--.HHE">
      <acc value="0.0637741316" flag="0"/>
      <vel value="0.0372988913" flag="0"/>
      <psa03 value="0.3145308644" flag="0"/>
      <psa10 value="0.0460345738" flag="0"/>
      <psa30 value="0.0029438262" flag="0"/>
    </comp>
    <comp name="--.HHN">
      <acc value="0.0606876682" flag="0"/>
      <vel value="0.0391098378" flag="0"/>
      <psa03 value="0.2151538040" flag="0"/>
      <psa10 value="0.0518117577" flag="0"/>
      <psa30 value="0.0038893737" flag="0"/>
    </comp>
    <comp name="--.HHZ">
      <acc value="0.0421114860" flag="0"/>
      <vel value="0.0265842548" flag="0"/>
      <psa03 value="0.1165971422" flag="0"/>
      <psa10 value="0.0218450141" flag="0"/>
      <psa30 value="0.0017169273" flag="0"/>
    </comp>
  </station>
</stationlist>
