<stationlist created="1778069817">
	<station code="KTHA" name="KTHA" netid="GE" source="GEOFON" insttype="" lat="36.2566" lon="23.0621">
		<comp name="--.HNE" depth="0.0">
			<acc value="0.0127335639095928" flag="0"/>
			<vel value="0.0143440167718426" flag="0"/>
			<psa03 value="0.0305589271202796" flag="0"/>
			<psa10 value="0.0333700799621056" flag="0"/>
			<psa30 value="0.002894373346136" flag="0"/>
		</comp>
		<comp name="--.HNN" depth="0.0">
			<acc value="0.00929786799706356" flag="0"/>
			<vel value="0.00721735014426663" flag="0"/>
			<psa03 value="0.0208051260774964" flag="0"/>
			<psa10 value="0.0122052265433984" flag="0"/>
			<psa30 value="0.00174405121398023" flag="0"/>
		</comp>
		<comp name="--.HNZ" depth="0.0">
			<acc value="0.00746413677885534" flag="0"/>
			<vel value="0.00420605608179572" flag="0"/>
			<psa03 value="0.0185232735399645" flag="0"/>
			<psa10 value="0.00690998639012589" flag="0"/>
			<psa30 value="0.00247827082458607" flag="0"/>
		</comp>
	</station>
	<station code="CH01" name="CH01" netid="HI" source="ITSAK Strong Motion Network" insttype="" lat="35.517" lon="24.0208">
		<comp name="--.HNE" depth="0.0">
			<acc value="0.00419909303158071" flag="0"/>
			<vel value="0.00511259378060823" flag="0"/>
			<psa03 value="0.00867998808394472" flag="0"/>
			<psa10 value="0.0063945561698834" flag="0"/>
			<psa30 value="0.00111005414619932" flag="0"/>
		</comp>
		<comp name="--.HNN" depth="0.0">
			<acc value="0.00375206177171219" flag="0"/>
			<vel value="0.00414571727128854" flag="0"/>
			<psa03 value="0.00975380104278324" flag="0"/>
			<psa10 value="0.00806567758707585" flag="0"/>
			<psa30 value="0.00123443748059812" flag="0"/>
		</comp>
		<comp name="--.HNZ" depth="0.0">
			<acc value="0.00307865607957197" flag="0"/>
			<vel value="0.0031680522827041" flag="0"/>
			<psa03 value="0.0044294784552089" flag="0"/>
			<psa10 value="0.00875426014693105" flag="0"/>
			<psa30 value="0.000551223985537108" flag="0"/>
		</comp>
	</station>
	<station code="NPS1" name="NPS1" netid="HI" source="ITSAK Strong Motion Network" insttype="" lat="36.51263" lon="23.06248">
		<comp name="--.HNE" depth="0.0">
			<acc value="0.0268403974450608" flag="0"/>
			<vel value="0.0198974632217336" flag="0"/>
			<psa03 value="0.0845180283019153" flag="0"/>
			<psa10 value="0.0227916800513476" flag="0"/>
			<psa30 value="0.00217223413131709" flag="0"/>
		</comp>
		<comp name="--.HNN" depth="0.0">
			<acc value="0.0202847573738924" flag="0"/>
			<vel value="0.0143115641917075" flag="0"/>
			<psa03 value="0.0605362055545217" flag="0"/>
			<psa10 value="0.0178789857646614" flag="0"/>
			<psa30 value="0.00111542321099351" flag="0"/>
		</comp>
		<comp name="--.HNZ" depth="0.0">
			<acc value="0.00823225769344453" flag="0"/>
			<vel value="0.00489046505883504" flag="0"/>
			<psa03 value="0.0213867747635339" flag="0"/>
			<psa10 value="0.00498114986281219" flag="0"/>
			<psa30 value="0.00102235942122751" flag="0"/>
		</comp>
	</station>
	<station code="IMMV" name="IMMV" netid="HL" source="National Observatory of Athens Seismic Network" insttype="" lat="35.4606" lon="23.9811">
		<comp name="--.HNE" depth="0.0">
			<acc value="0.00315558660197624" flag="0"/>
			<vel value="0.00386275512258942" flag="0"/>
			<psa03 value="0.00751669071186965" flag="0"/>
			<psa10 value="0.00606435868504055" flag="0"/>
			<psa30 value="0.000615652763067419" flag="0"/>
		</comp>
		<comp name="--.HNN" depth="0.0">
			<acc value="0.00378719016887318" flag="0"/>
			<vel value="0.00274245096903549" flag="0"/>
			<psa03 value="0.0110513250347131" flag="0"/>
			<psa10 value="0.00486839950213415" flag="0"/>
			<psa30 value="0.000370018048733107" flag="0"/>
		</comp>
		<comp name="--.HNZ" depth="0.0">
			<acc value="0.00219426626918472" flag="0"/>
			<vel value="0.0017204631886816" flag="0"/>
			<psa03 value="0.00657710437288595" flag="0"/>
			<psa10 value="0.00292345578043788" flag="0"/>
			<psa30 value="0.000247424402599043" flag="0"/>
		</comp>
	</station>
</stationlist>
