<?xml version="1.0" encoding="UTF-8" standalone="yes"?>
<!DOCTYPE earthquake SYSTEM "stationlist.dtd">
<stationlist created="" xmlns="ch.ethz.sed.shakemap.usgs.xml">
  <station code="KTHA" name="KTHA" netid="GE" insttype="STS-2/N" lat="36.2566" lon="23.0621">
    <comp name="--.HHZ">
      <acc value="0.0081236617" flag="0"/>
      <vel value="0.0056832224" flag="0"/>
      <psa03 value="0.0194624617" flag="0"/>
      <psa10 value="0.0070465908" flag="0"/>
      <psa30 value="0.0014687590" flag="0"/>
    </comp>
    <comp name="--.HHE">
      <acc value="0.0151567132" flag="0"/>
      <vel value="0.0163670018" flag="0"/>
      <psa03 value="0.0325525031" flag="0"/>
      <psa10 value="0.0359250027" flag="0"/>
      <psa30 value="0.0015616108" flag="0"/>
    </comp>
    <comp name="--.HHN">
      <acc value="0.0092651812" flag="0"/>
      <vel value="0.0090354587" flag="0"/>
      <psa03 value="0.0210347659" flag="0"/>
      <psa10 value="0.0113120168" flag="0"/>
      <psa30 value="0.0017083774" flag="0"/>
    </comp>
  </station>
  <station code="NPS1" name="NPS1" netid="HI" insttype="CMG-5TD,ACCELEROMETER,GURALP" lat="36.5126" lon="23.0625">
    <comp name="--.HNE">
      <acc value="0.0268333212" flag="0"/>
      <vel value="0.0199859418" flag="0"/>
      <psa03 value="0.0859924495" flag="0"/>
      <psa10 value="0.0227615710" flag="0"/>
      <psa30 value="0.0020814351" flag="0"/>
    </comp>
    <comp name="--.HNN">
      <acc value="0.0202888596" flag="0"/>
      <vel value="0.0142562199" flag="0"/>
      <psa03 value="0.0606349127" flag="0"/>
      <psa10 value="0.0178542496" flag="0"/>
      <psa30 value="0.0010741021" flag="0"/>
    </comp>
    <comp name="--.HNZ">
      <acc value="0.0084294292" flag="0"/>
      <vel value="0.0047350883" flag="0"/>
      <psa03 value="0.0211662689" flag="0"/>
      <psa10 value="0.0049853287" flag="0"/>
      <psa30 value="0.0009005232" flag="0"/>
    </comp>
  </station>
  <station code="PYL1" name="PYL1" netid="HI" insttype="CMG-5TD,ACCELEROMETER,GURALP" lat="36.9142" lon="21.6952">
    <comp name="--.HNE">
      <acc value="0.0110539960" flag="0"/>
      <vel value="0.0048279745" flag="0"/>
      <psa03 value="0.0224264752" flag="0"/>
      <psa10 value="0.0073400585" flag="0"/>
      <psa30 value="0.0006140675" flag="0"/>
    </comp>
    <comp name="--.HNN">
      <acc value="0.0086802788" flag="0"/>
      <vel value="0.0045845843" flag="0"/>
      <psa03 value="0.0221762097" flag="0"/>
      <psa10 value="0.0056286412" flag="0"/>
      <psa30 value="0.0008594175" flag="0"/>
    </comp>
    <comp name="--.HNZ">
      <acc value="0.0044003385" flag="0"/>
      <vel value="0.0029539142" flag="0"/>
      <psa03 value="0.0111640476" flag="0"/>
      <psa10 value="0.0036109193" flag="0"/>
      <psa30 value="0.0005831329" flag="0"/>
    </comp>
  </station>
  <station code="ANKY" name="ANKY" netid="HL" insttype="60" lat="35.867" lon="23.3012">
    <comp name="--.HHZ">
      <acc value="0.0060959671" flag="0"/>
      <vel value="0.0050356676" flag="0"/>
      <psa03 value="0.0127293564" flag="0"/>
      <psa10 value="0.0047568732" flag="0"/>
      <psa30 value="0.0004407372" flag="0"/>
    </comp>
    <comp name="--.HHE">
      <acc value="0.0108175956" flag="0"/>
      <vel value="0.0124431093" flag="0"/>
      <psa03 value="0.0187652000" flag="0"/>
      <psa10 value="0.0249964763" flag="0"/>
      <psa30 value="0.0010027167" flag="0"/>
    </comp>
    <comp name="--.HHN">
      <acc value="0.0075091106" flag="0"/>
      <vel value="0.0082014663" flag="0"/>
      <psa03 value="0.0151295146" flag="0"/>
      <psa10 value="0.0109009023" flag="0"/>
      <psa30 value="0.0006778447" flag="0"/>
    </comp>
  </station>
  <station code="KTHA" name="KTHA" netid="HL" insttype="120" lat="36.2566" lon="23.0621">
    <comp name="--.HHN">
      <acc value="0.0090947745" flag="0"/>
      <vel value="0.0089764731" flag="0"/>
      <psa03 value="0.0206646907" flag="0"/>
      <psa10 value="0.0112283472" flag="0"/>
      <psa30 value="0.0017035298" flag="0"/>
    </comp>
    <comp name="--.HHZ">
      <acc value="0.0075332764" flag="0"/>
      <vel value="0.0056305917" flag="0"/>
      <psa03 value="0.0188535757" flag="0"/>
      <psa10 value="0.0070086580" flag="0"/>
      <psa30 value="0.0014662474" flag="0"/>
    </comp>
    <comp name="--.HHE">
      <acc value="0.0149959383" flag="0"/>
      <vel value="0.0162384337" flag="0"/>
      <psa03 value="0.0318375386" flag="0"/>
      <psa10 value="0.0357289395" flag="0"/>
      <psa30 value="0.0015523697" flag="0"/>
    </comp>
  </station>
  <station code="VLI" name="VLI" netid="HL" insttype="60" lat="36.718" lon="22.9469">
    <comp name="--.HHE">
      <acc value="0.0096523653" flag="0"/>
      <vel value="0.0123784691" flag="0"/>
      <psa03 value="0.0322869976" flag="0"/>
      <psa10 value="0.0163941209" flag="0"/>
      <psa30 value="0.0015104606" flag="0"/>
    </comp>
    <comp name="--.HHZ">
      <acc value="0.0085102798" flag="0"/>
      <vel value="0.0059240252" flag="0"/>
      <psa03 value="0.0186739923" flag="0"/>
      <psa10 value="0.0063233528" flag="0"/>
      <psa30 value="0.0014029949" flag="0"/>
    </comp>
    <comp name="--.HHN">
      <acc value="0.0102935767" flag="0"/>
      <vel value="0.0107178793" flag="0"/>
      <psa03 value="0.0281994172" flag="0"/>
      <psa10 value="0.0157346724" flag="0"/>
      <psa30 value="0.0019668923" flag="0"/>
    </comp>
  </station>
  <station code="PYL" name="PYL" netid="HP" insttype="DC_100" lat="36.8955" lon="21.742">
    <comp name="--.HNE">
      <acc value="0.0097821843" flag="0"/>
      <vel value="0.0054404541" flag="0"/>
      <psa03 value="0.0277988123" flag="0"/>
      <psa10 value="0.0067303593" flag="0"/>
      <psa30 value="0.0006226614" flag="0"/>
    </comp>
    <comp name="--.HNN">
      <acc value="0.0074586727" flag="0"/>
      <vel value="0.0045930756" flag="0"/>
      <psa03 value="0.0225591050" flag="0"/>
      <psa10 value="0.0051649716" flag="0"/>
      <psa30 value="0.0004507283" flag="0"/>
    </comp>
    <comp name="--.HNZ">
      <acc value="0.0054195890" flag="0"/>
      <vel value="0.0029651146" flag="0"/>
      <psa03 value="0.0158104791" flag="0"/>
      <psa10 value="0.0054090267" flag="0"/>
      <psa30 value="0.0006921588" flag="0"/>
    </comp>
  </station>
</stationlist>
