<stationlist xmlns:esm="https://esm-db.eu/esmws/shakemap/1/" created="1783994332">
	<station code="KTHA" name="KTHA" netid="GE" source="GEOFON" insttype="" lat="36.2566" lon="23.0621" esm:processing="automatic (Paolucci et al 2011)" esm:quality="good">
		<comp name="--.HNE" depth="0.0">
			<acc value="0.0127335639095928" flag="0"/>
			<vel value="0.0143440167718426" flag="0"/>
			<psa03 value="0.0305589271202796" flag="0"/>
			<psa10 value="0.0333700799621056" flag="0"/>
			<psa30 value="0.002894373346136" flag="0"/>
		</comp>
		<comp name="--.HNN" depth="0.0">
			<acc value="0.00929786799706356" flag="0"/>
			<vel value="0.00721735014426663" flag="0"/>
			<psa03 value="0.0208051260774964" flag="0"/>
			<psa10 value="0.0122052265433984" flag="0"/>
			<psa30 value="0.00174405121398023" flag="0"/>
		</comp>
		<comp name="--.HNZ" depth="0.0">
			<acc value="0.00746413677885534" flag="0"/>
			<vel value="0.00420605608179572" flag="0"/>
			<psa03 value="0.0185232735399645" flag="0"/>
			<psa10 value="0.00690998639012589" flag="0"/>
			<psa30 value="0.00247827082458607" flag="0"/>
		</comp>
	</station>
	<station code="ARE2" name="ARE2" netid="HI" source="ITSAK Strong Motion Network" insttype="" lat="36.66629" lon="22.382635" esm:processing="manual (Paolucci et al 2011)" esm:quality="good">
		<comp name="--.HNE" depth="0.0">
			<acc value="0.0202926329048538" flag="0"/>
			<vel value="0.012988178622332" flag="0"/>
			<psa03 value="0.0637982054846747" flag="0"/>
			<psa10 value="0.0188084334664101" flag="0"/>
			<psa30 value="0.00102529906686461" flag="0"/>
		</comp>
		<comp name="--.HNN" depth="0.0">
			<acc value="0.0274715794769042" flag="0"/>
			<vel value="0.0122480167329196" flag="0"/>
			<psa03 value="0.0686016747326048" flag="0"/>
			<psa10 value="0.0127720663992169" flag="0"/>
			<psa30 value="0.000536065251275358" flag="0"/>
		</comp>
		<comp name="--.HNZ" depth="0.0">
			<acc value="0.0134639217807778" flag="0"/>
			<vel value="0.00716707701225529" flag="0"/>
			<psa03 value="0.0346637728673315" flag="0"/>
			<psa10 value="0.00700908963028918" flag="0"/>
			<psa30 value="0.000797419127186979" flag="0"/>
		</comp>
	</station>
	<station code="CH01" name="CH01" netid="HI" source="ITSAK Strong Motion Network" insttype="" lat="35.517" lon="24.0208" esm:processing="manual (Paolucci et al 2011)" esm:quality="best">
		<comp name="--.HNE" depth="0.0">
			<acc value="0.00419909303158071" flag="0"/>
			<vel value="0.00511259378060823" flag="0"/>
			<psa03 value="0.00867998808394472" flag="0"/>
			<psa10 value="0.0063945561698834" flag="0"/>
			<psa30 value="0.00111005414619932" flag="0"/>
		</comp>
		<comp name="--.HNN" depth="0.0">
			<acc value="0.00375206177171219" flag="0"/>
			<vel value="0.00414571727128854" flag="0"/>
			<psa03 value="0.00975380104278324" flag="0"/>
			<psa10 value="0.00806567758707585" flag="0"/>
			<psa30 value="0.00123443748059812" flag="0"/>
		</comp>
		<comp name="--.HNZ" depth="0.0">
			<acc value="0.00307865607957197" flag="0"/>
			<vel value="0.0031680522827041" flag="0"/>
			<psa03 value="0.0044294784552089" flag="0"/>
			<psa10 value="0.00875426014693105" flag="0"/>
			<psa30 value="0.000551223985537108" flag="0"/>
		</comp>
	</station>
	<station code="GTH2" name="GTH2" netid="HI" source="ITSAK Strong Motion Network" insttype="" lat="36.7603" lon="22.5659" esm:processing="manual (Paolucci et al 2011)" esm:quality="good">
		<comp name="--.HNE" depth="0.0">
			<acc value="0.050300459890733" flag="0"/>
			<vel value="0.0356262190713827" flag="0"/>
			<psa03 value="0.132945702833682" flag="0"/>
			<psa10 value="0.0178944679206782" flag="0"/>
			<psa30 value="0.00146108439383713" flag="0"/>
		</comp>
		<comp name="--.HNN" depth="0.0">
			<acc value="0.0271188835559671" flag="0"/>
			<vel value="0.0188605173014455" flag="0"/>
			<psa03 value="0.0863860299421897" flag="0"/>
			<psa10 value="0.021113608047913" flag="0"/>
			<psa30 value="0.00102497060760579" flag="0"/>
		</comp>
		<comp name="--.HNZ" depth="0.0">
			<acc value="0.0176458418242448" flag="0"/>
			<vel value="0.0085570812812414" flag="0"/>
			<psa03 value="0.0483138932666499" flag="0"/>
			<psa10 value="0.0076502569482273" flag="0"/>
			<psa30 value="0.000449822038085744" flag="0"/>
		</comp>
	</station>
	<station code="KIS1" name="KIS1" netid="HI" source="ITSAK Strong Motion Network" insttype="" lat="35.493933" lon="23.658993" esm:processing="automatic (Paolucci et al 2011)" esm:quality="best">
		<comp name="--.HNE" depth="0.0">
			<acc value="0.00565519233584442" flag="0"/>
			<vel value="0.004744878841566" flag="0"/>
			<psa03 value="0.0190900015980837" flag="0"/>
			<psa10 value="0.0086115576609317" flag="0"/>
			<psa30 value="0.000544747232664016" flag="0"/>
		</comp>
		<comp name="--.HNN" depth="0.0">
			<acc value="0.00667281661128818" flag="0"/>
			<vel value="0.00699924088416073" flag="0"/>
			<psa03 value="0.0151329282634789" flag="0"/>
			<psa10 value="0.0122018683138921" flag="0"/>
			<psa30 value="0.000544351633540849" flag="0"/>
		</comp>
		<comp name="--.HNZ" depth="0.0">
			<acc value="0.00513031012380925" flag="0"/>
			<vel value="0.00352612919355934" flag="0"/>
			<psa03 value="0.0103328759085678" flag="0"/>
			<psa10 value="0.00612865974363011" flag="0"/>
			<psa30 value="0.000409860224145026" flag="0"/>
		</comp>
	</station>
	<station code="NPS1" name="NPS1" netid="HI" source="ITSAK Strong Motion Network" insttype="" lat="36.51263" lon="23.06248" esm:processing="manual (Paolucci et al 2011)" esm:quality="good">
		<comp name="--.HNE" depth="0.0">
			<acc value="0.0268403974450608" flag="0"/>
			<vel value="0.0198974632217336" flag="0"/>
			<psa03 value="0.0845180283019153" flag="0"/>
			<psa10 value="0.0227916800513476" flag="0"/>
			<psa30 value="0.00217223413131709" flag="0"/>
		</comp>
		<comp name="--.HNN" depth="0.0">
			<acc value="0.0202847573738924" flag="0"/>
			<vel value="0.0143115641917075" flag="0"/>
			<psa03 value="0.0605362055545217" flag="0"/>
			<psa10 value="0.0178789857646614" flag="0"/>
			<psa30 value="0.00111542321099351" flag="0"/>
		</comp>
		<comp name="--.HNZ" depth="0.0">
			<acc value="0.00823225769344453" flag="0"/>
			<vel value="0.00489046505883504" flag="0"/>
			<psa03 value="0.0213867747635339" flag="0"/>
			<psa10 value="0.00498114986281219" flag="0"/>
			<psa30 value="0.00102235942122751" flag="0"/>
		</comp>
	</station>
	<station code="PET1" name="PET1" netid="HI" source="ITSAK Strong Motion Network" insttype="" lat="36.963862" lon="21.92538" esm:processing="automatic (Paolucci et al 2011)" esm:quality="good">
		<comp name="--.HNE" depth="0.0">
			<acc value="0.0333796730751903" flag="0"/>
			<vel value="0.0197306644787838" flag="0"/>
			<psa03 value="0.0885191452089406" flag="0"/>
			<psa10 value="0.0271649864220316" flag="0"/>
			<psa30 value="0.000959911193572241" flag="0"/>
		</comp>
		<comp name="--.HNN" depth="0.0">
			<acc value="0.0250883027702235" flag="0"/>
			<vel value="0.0167712706762358" flag="0"/>
			<psa03 value="0.0845942549958931" flag="0"/>
			<psa10 value="0.0237147841130614" flag="0"/>
			<psa30 value="0.000896130614255213" flag="0"/>
		</comp>
		<comp name="--.HNZ" depth="0.0">
			<acc value="0.0155378069906647" flag="0"/>
			<vel value="0.00755923693639767" flag="0"/>
			<psa03 value="0.0418364198949955" flag="0"/>
			<psa10 value="0.00717991813433919" flag="0"/>
			<psa30 value="0.000601375671520173" flag="0"/>
		</comp>
	</station>
	<station code="IMMV" name="IMMV" netid="HL" source="National Observatory of Athens Seismic Network" insttype="" lat="35.4606" lon="23.9811" esm:processing="manual (Paolucci et al 2011)" esm:quality="best">
		<comp name="--.HNE" depth="0.0">
			<acc value="0.00315558660197624" flag="0"/>
			<vel value="0.00386275512258942" flag="0"/>
			<psa03 value="0.00751669071186965" flag="0"/>
			<psa10 value="0.00606435868504055" flag="0"/>
			<psa30 value="0.000615652763067419" flag="0"/>
		</comp>
		<comp name="--.HNN" depth="0.0">
			<acc value="0.00378719016887318" flag="0"/>
			<vel value="0.00274245096903549" flag="0"/>
			<psa03 value="0.0110513250347131" flag="0"/>
			<psa10 value="0.00486839950213415" flag="0"/>
			<psa30 value="0.000370018048733107" flag="0"/>
		</comp>
		<comp name="--.HNZ" depth="0.0">
			<acc value="0.00219426626918472" flag="0"/>
			<vel value="0.0017204631886816" flag="0"/>
			<psa03 value="0.00657710437288595" flag="0"/>
			<psa10 value="0.00292345578043788" flag="0"/>
			<psa30 value="0.000247424402599043" flag="0"/>
		</comp>
	</station>
	<station code="ARS1" name="ARS1" netid="HI" source="ITSAK Strong Motion Network" insttype="" lat="37.6349" lon="22.7293" esm:processing="discarded" esm:quality="bad">
		<comp name="--.HNE" depth="0.0">
			<acc value="0" flag="1"/>
			<vel value="0" flag="1"/>
			<psa03 value="0" flag="1"/>
			<psa10 value="0" flag="1"/>
			<psa30 value="0" flag="1"/>
		</comp>
		<comp name="--.HNN" depth="0.0">
			<acc value="0" flag="1"/>
			<vel value="0" flag="1"/>
			<psa03 value="0" flag="1"/>
			<psa10 value="0" flag="1"/>
			<psa30 value="0" flag="1"/>
		</comp>
		<comp name="--.HNZ" depth="0.0">
			<acc value="0" flag="1"/>
			<vel value="0" flag="1"/>
			<psa03 value="0" flag="1"/>
			<psa10 value="0" flag="1"/>
			<psa30 value="0" flag="1"/>
		</comp>
	</station>
	<station code="KAL3" name="KAL3" netid="HI" source="ITSAK Strong Motion Network" insttype="" lat="37.0246" lon="22.103" esm:processing="automatic (Paolucci et al 2011)" esm:quality="bad">
		<comp name="--.HNE" depth="0.0">
			<acc value="0" flag="1"/>
			<vel value="0" flag="1"/>
			<psa03 value="0" flag="1"/>
			<psa10 value="0" flag="1"/>
			<psa30 value="0" flag="1"/>
		</comp>
		<comp name="--.HNN" depth="0.0">
			<acc value="0" flag="1"/>
			<vel value="0" flag="1"/>
			<psa03 value="0" flag="1"/>
			<psa10 value="0" flag="1"/>
			<psa30 value="0" flag="1"/>
		</comp>
		<comp name="--.HNZ" depth="0.0">
			<acc value="0" flag="1"/>
			<vel value="0" flag="1"/>
			<psa03 value="0" flag="1"/>
			<psa10 value="0" flag="1"/>
			<psa30 value="0" flag="1"/>
		</comp>
	</station>
	<station code="PYL1" name="PYL1" netid="HI" source="ITSAK Strong Motion Network" insttype="" lat="36.914188" lon="21.695161" esm:processing="discarded" esm:quality="best">
		<comp name="--.HNE" depth="0.0">
			<acc value="0" flag="1"/>
			<vel value="0" flag="1"/>
			<psa03 value="0" flag="1"/>
			<psa10 value="0" flag="1"/>
			<psa30 value="0" flag="1"/>
		</comp>
		<comp name="--.HNN" depth="0.0">
			<acc value="0" flag="1"/>
			<vel value="0" flag="1"/>
			<psa03 value="0" flag="1"/>
			<psa10 value="0" flag="1"/>
			<psa30 value="0" flag="1"/>
		</comp>
		<comp name="--.HNZ" depth="0.0">
			<acc value="0" flag="1"/>
			<vel value="0" flag="1"/>
			<psa03 value="0" flag="1"/>
			<psa10 value="0" flag="1"/>
			<psa30 value="0" flag="1"/>
		</comp>
	</station>
	<station code="ITM" name="ITM" netid="HL" source="National Observatory of Athens Seismic Network" insttype="" lat="37.17872" lon="21.92522" esm:processing="discarded" esm:quality="best">
		<comp name="--.HNE" depth="0.0">
			<acc value="0" flag="1"/>
			<vel value="0" flag="1"/>
			<psa03 value="0" flag="1"/>
			<psa10 value="0" flag="1"/>
			<psa30 value="0" flag="1"/>
		</comp>
		<comp name="--.HNN" depth="0.0">
			<acc value="0" flag="1"/>
			<vel value="0" flag="1"/>
			<psa03 value="0" flag="1"/>
			<psa10 value="0" flag="1"/>
			<psa30 value="0" flag="1"/>
		</comp>
		<comp name="--.HNZ" depth="0.0">
			<acc value="0" flag="1"/>
			<vel value="0" flag="1"/>
			<psa03 value="0" flag="1"/>
			<psa10 value="0" flag="1"/>
			<psa30 value="0" flag="1"/>
		</comp>
	</station>
	<station code="KTHA" name="KTHA" netid="HL" source="National Observatory of Athens Seismic Network" insttype="" lat="36.2566" lon="23.0621" esm:processing="discarded" esm:quality="good">
		<comp name="--.HNE" depth="0.0">
			<acc value="0" flag="1"/>
			<vel value="0" flag="1"/>
			<psa03 value="0" flag="1"/>
			<psa10 value="0" flag="1"/>
			<psa30 value="0" flag="1"/>
		</comp>
		<comp name="--.HNN" depth="0.0">
			<acc value="0" flag="1"/>
			<vel value="0" flag="1"/>
			<psa03 value="0" flag="1"/>
			<psa10 value="0" flag="1"/>
			<psa30 value="0" flag="1"/>
		</comp>
		<comp name="--.HNZ" depth="0.0">
			<acc value="0" flag="1"/>
			<vel value="0" flag="1"/>
			<psa03 value="0" flag="1"/>
			<psa10 value="0" flag="1"/>
			<psa30 value="0" flag="1"/>
		</comp>
	</station>
	<station code="MNVA" name="MNVA" netid="HL" source="National Observatory of Athens Seismic Network" insttype="" lat="36.68709" lon="23.03734" esm:processing="discarded" esm:quality="bad">
		<comp name="00.HNE" depth="0.0">
			<acc value="0" flag="1"/>
			<vel value="0" flag="1"/>
			<psa03 value="0" flag="1"/>
			<psa10 value="0" flag="1"/>
			<psa30 value="0" flag="1"/>
		</comp>
		<comp name="00.HNN" depth="0.0">
			<acc value="0" flag="1"/>
			<vel value="0" flag="1"/>
			<psa03 value="0" flag="1"/>
			<psa10 value="0" flag="1"/>
			<psa30 value="0" flag="1"/>
		</comp>
		<comp name="00.HNZ" depth="0.0">
			<acc value="0" flag="1"/>
			<vel value="0" flag="1"/>
			<psa03 value="0" flag="1"/>
			<psa10 value="0" flag="1"/>
			<psa30 value="0" flag="1"/>
		</comp>
	</station>
	<station code="YDRA" name="YDRA" netid="HL" source="National Observatory of Athens Seismic Network" insttype="" lat="37.34923" lon="23.46525" esm:processing="discarded" esm:quality="bad">
		<comp name="00.HNE" depth="0.0">
			<acc value="0" flag="1"/>
			<vel value="0" flag="1"/>
			<psa03 value="0" flag="1"/>
			<psa10 value="0" flag="1"/>
			<psa30 value="0" flag="1"/>
		</comp>
		<comp name="00.HNN" depth="0.0">
			<acc value="0" flag="1"/>
			<vel value="0" flag="1"/>
			<psa03 value="0" flag="1"/>
			<psa10 value="0" flag="1"/>
			<psa30 value="0" flag="1"/>
		</comp>
		<comp name="00.HNZ" depth="0.0">
			<acc value="0" flag="1"/>
			<vel value="0" flag="1"/>
			<psa03 value="0" flag="1"/>
			<psa10 value="0" flag="1"/>
			<psa30 value="0" flag="1"/>
		</comp>
	</station>
	<station code="AAMF" name="AAMF" netid="HP" source="University of Patras, Seismological Laboratory (PSLNET)" insttype="" lat="37.107022" lon="22.068923" esm:processing="discarded" esm:quality="bad">
		<comp name="--.HNE" depth="0.0">
			<acc value="0" flag="1"/>
			<vel value="0" flag="1"/>
			<psa03 value="0" flag="1"/>
			<psa10 value="0" flag="1"/>
			<psa30 value="0" flag="1"/>
		</comp>
		<comp name="--.HNN" depth="0.0">
			<acc value="0" flag="1"/>
			<vel value="0" flag="1"/>
			<psa03 value="0" flag="1"/>
			<psa10 value="0" flag="1"/>
			<psa30 value="0" flag="1"/>
		</comp>
		<comp name="--.HNZ" depth="0.0">
			<acc value="0" flag="1"/>
			<vel value="0" flag="1"/>
			<psa03 value="0" flag="1"/>
			<psa10 value="0" flag="1"/>
			<psa30 value="0" flag="1"/>
		</comp>
	</station>
	<station code="PYL" name="PYL" netid="HP" source="University of Patras, Seismological Laboratory (PSLNET)" insttype="" lat="36.8955" lon="21.742" esm:processing="discarded" esm:quality="best">
		<comp name="--.HNE" depth="0.0">
			<acc value="0" flag="1"/>
			<vel value="0" flag="1"/>
			<psa03 value="0" flag="1"/>
			<psa10 value="0" flag="1"/>
			<psa30 value="0" flag="1"/>
		</comp>
		<comp name="--.HNN" depth="0.0">
			<acc value="0" flag="1"/>
			<vel value="0" flag="1"/>
			<psa03 value="0" flag="1"/>
			<psa10 value="0" flag="1"/>
			<psa30 value="0" flag="1"/>
		</comp>
		<comp name="--.HNZ" depth="0.0">
			<acc value="0" flag="1"/>
			<vel value="0" flag="1"/>
			<psa03 value="0" flag="1"/>
			<psa10 value="0" flag="1"/>
			<psa30 value="0" flag="1"/>
		</comp>
	</station>
	<station code="VALY" name="VALY" netid="HP" source="University of Patras, Seismological Laboratory (PSLNET)" insttype="" lat="37.1641" lon="21.9836" esm:processing="discarded" esm:quality="best">
		<comp name="--.HNE" depth="0.0">
			<acc value="0" flag="1"/>
			<vel value="0" flag="1"/>
			<psa03 value="0" flag="1"/>
			<psa10 value="0" flag="1"/>
			<psa30 value="0" flag="1"/>
		</comp>
		<comp name="--.HNN" depth="0.0">
			<acc value="0" flag="1"/>
			<vel value="0" flag="1"/>
			<psa03 value="0" flag="1"/>
			<psa10 value="0" flag="1"/>
			<psa30 value="0" flag="1"/>
		</comp>
		<comp name="--.HNZ" depth="0.0">
			<acc value="0" flag="1"/>
			<vel value="0" flag="1"/>
			<psa03 value="0" flag="1"/>
			<psa10 value="0" flag="1"/>
			<psa30 value="0" flag="1"/>
		</comp>
	</station>
</stationlist>
