<?xml version="1.0" encoding="UTF-8" standalone="yes"?>
<!DOCTYPE earthquake SYSTEM "stationlist.dtd">
<stationlist created="" xmlns="ch.ethz.sed.shakemap.usgs.xml">
  <station code="ARPRA" name="ARPRA" netid="KO" insttype="CMG-5T" lat="39.0929" lon="38.3356">
    <comp name="--.HNE">
      <acc value="0.1463971050" flag="0"/>
      <vel value="0.0809123129" flag="0"/>
      <psa03 value="0.4567063810" flag="0"/>
      <psa10 value="0.0877588762" flag="0"/>
      <psa30 value="0.0067257994" flag="0"/>
    </comp>
    <comp name="--.HNZ">
      <acc value="0.0563404343" flag="0"/>
      <vel value="0.0362055895" flag="0"/>
      <psa03 value="0.1765817083" flag="0"/>
      <psa10 value="0.0537590111" flag="0"/>
      <psa30 value="0.0048250859" flag="0"/>
    </comp>
    <comp name="--.HNN">
      <acc value="0.1287793989" flag="0"/>
      <vel value="0.0923557015" flag="0"/>
      <psa03 value="0.5213173778" flag="0"/>
      <psa10 value="0.0675843297" flag="0"/>
      <psa30 value="0.0054651793" flag="0"/>
    </comp>
  </station>
</stationlist>
