<?xml version="1.0" encoding="UTF-8" standalone="yes"?>
<!DOCTYPE earthquake SYSTEM "stationlist.dtd">
<stationlist created="" xmlns="ch.ethz.sed.shakemap.usgs.xml">
  <station code="ARPRA" name="ARPRA" netid="KO" insttype="CMG-5T" lat="39.0929" lon="38.3356">
    <comp name="--.HNN">
      <acc value="0.1287794017" flag="0"/>
      <vel value="0.0923557074" flag="0"/>
      <psa03 value="0.5213173778" flag="0"/>
      <psa10 value="0.0675843293" flag="0"/>
      <psa30 value="0.0054633853" flag="0"/>
    </comp>
    <comp name="--.HNZ">
      <acc value="0.0563404333" flag="0"/>
      <vel value="0.0362056136" flag="0"/>
      <psa03 value="0.1765817083" flag="0"/>
      <psa10 value="0.0537590113" flag="0"/>
      <psa30 value="0.0048235362" flag="0"/>
    </comp>
    <comp name="--.HNE">
      <acc value="0.1463971035" flag="0"/>
      <vel value="0.0809122980" flag="0"/>
      <psa03 value="0.4567063810" flag="0"/>
      <psa10 value="0.0877588881" flag="0"/>
      <psa30 value="0.0067265353" flag="0"/>
    </comp>
  </station>
</stationlist>
