<?xml version="1.0" encoding="UTF-8" standalone="yes"?>
<!DOCTYPE earthquake SYSTEM "stationlist.dtd">
<stationlist created="" xmlns="ch.ethz.sed.shakemap.usgs.xml">
  <station code="AYVL" name="AYVL" netid="KO" insttype="CMG-6T" commtype="DIG" lat="39.2907" lon="26.69">
    <comp name="--.HHE">
      <acc value="0.1224913967" flag="0"/>
      <vel value="0.0591641241" flag="0"/>
      <psa03 value="0.4359083596" flag="0"/>
      <psa10 value="0.0387089654" flag="0"/>
      <psa30 value="0.0015757455" flag="0"/>
    </comp>
    <comp name="--.HHN">
      <acc value="0.1566483399" flag="0"/>
      <vel value="0.0746500566" flag="0"/>
      <psa03 value="0.5273344984" flag="0"/>
      <psa10 value="0.0327240446" flag="0"/>
      <psa30 value="0.0025607302" flag="0"/>
    </comp>
    <comp name="--.HHZ">
      <acc value="0.0906357524" flag="0"/>
      <vel value="0.0330405748" flag="0"/>
      <psa03 value="0.1074347462" flag="0"/>
      <psa10 value="0.0127398289" flag="0"/>
      <psa30 value="0.0006349785" flag="0"/>
    </comp>
  </station>
  <station code="BALB" name="BALB" netid="KO" insttype="CMG-5T" commtype="DIG" lat="39.6507" lon="27.8642">
    <comp name="--.HNE">
      <acc value="0.1216079305" flag="0"/>
      <vel value="0.0537829748" flag="0"/>
      <psa03 value="0.2865869695" flag="0"/>
      <psa10 value="0.0569274992" flag="0"/>
      <psa30 value="0.0045170858" flag="0"/>
    </comp>
    <comp name="--.HNN">
      <acc value="0.1536147786" flag="0"/>
      <vel value="0.0763066844" flag="0"/>
      <psa03 value="0.3330645580" flag="0"/>
      <psa10 value="0.0782752962" flag="0"/>
      <psa30 value="0.0040138435" flag="0"/>
    </comp>
    <comp name="--.HNZ">
      <acc value="0.1038654912" flag="0"/>
      <vel value="0.0304722109" flag="0"/>
      <psa03 value="0.1461350159" flag="0"/>
      <psa10 value="0.0281010756" flag="0"/>
      <psa30 value="0.0023795151" flag="0"/>
    </comp>
  </station>
  <station code="CANM" name="CANM" netid="KO" insttype="CMG-5T" commtype="DIG" lat="40.0113" lon="27.0529">
    <comp name="--.HNE">
      <acc value="0.0310588895" flag="0"/>
      <vel value="0.0121049387" flag="0"/>
      <psa03 value="0.0482002346" flag="0"/>
      <psa10 value="0.0142963874" flag="0"/>
      <psa30 value="0.0014888458" flag="0"/>
    </comp>
    <comp name="--.HNN">
      <acc value="0.0310781668" flag="0"/>
      <vel value="0.0206546627" flag="0"/>
      <psa03 value="0.0788844633" flag="0"/>
      <psa10 value="0.0243225832" flag="0"/>
      <psa30 value="0.0017124158" flag="0"/>
    </comp>
    <comp name="--.HNZ">
      <acc value="0.0193479879" flag="0"/>
      <vel value="0.0122981921" flag="0"/>
      <psa03 value="0.0536727777" flag="0"/>
      <psa10 value="0.0106649536" flag="0"/>
      <psa30 value="0.0008924986" flag="0"/>
    </comp>
  </station>
  <station code="DST" name="DST" netid="KO" insttype="CMG-5T" commtype="DIG" lat="39.6041" lon="28.6267">
    <comp name="--.HNN">
      <acc value="0.0745236957" flag="0"/>
      <vel value="0.0223495714" flag="0"/>
      <psa03 value="0.1396457117" flag="0"/>
      <psa10 value="0.0137347832" flag="0"/>
      <psa30 value="0.0018313062" flag="0"/>
    </comp>
    <comp name="--.HNE">
      <acc value="0.0680292979" flag="0"/>
      <vel value="0.0264672401" flag="0"/>
      <psa03 value="0.1692225476" flag="0"/>
      <psa10 value="0.0197079745" flag="0"/>
      <psa30 value="0.0018297265" flag="0"/>
    </comp>
    <comp name="--.HNZ">
      <acc value="0.0754505903" flag="0"/>
      <vel value="0.0193860504" flag="0"/>
      <psa03 value="0.1125678266" flag="0"/>
      <psa10 value="0.0118708502" flag="0"/>
      <psa30 value="0.0024334586" flag="0"/>
    </comp>
  </station>
  <station code="EDC" name="EDC" netid="KO" insttype="CMG-3T" commtype="DIG" lat="40.3465" lon="27.8618">
    <comp name="--.HHZ">
      <acc value="0.0294643017" flag="0"/>
      <vel value="0.0129073883" flag="0"/>
      <psa03 value="0.0850666411" flag="0"/>
      <psa10 value="0.0107942108" flag="0"/>
      <psa30 value="0.0006088012" flag="0"/>
    </comp>
    <comp name="--.HHN">
      <acc value="0.1133382791" flag="0"/>
      <vel value="0.0577215458" flag="0"/>
      <psa03 value="0.3832065440" flag="0"/>
      <psa10 value="0.0307163392" flag="0"/>
      <psa30 value="0.0017894972" flag="0"/>
    </comp>
    <comp name="--.HHE">
      <acc value="0.0577355276" flag="0"/>
      <vel value="0.0322630640" flag="0"/>
      <psa03 value="0.1317422002" flag="0"/>
      <psa10 value="0.0310229844" flag="0"/>
      <psa30 value="0.0015473630" flag="0"/>
    </comp>
  </station>
  <station code="GEDZ" name="GEDZ" netid="KO" insttype="CMG-6T" commtype="DIG" lat="39.0445" lon="29.4105">
    <comp name="--.HHE">
      <acc value="0.0439569515" flag="0"/>
      <vel value="0.0221646757" flag="0"/>
      <psa03 value="0.1197541141" flag="0"/>
      <psa10 value="0.0476799255" flag="0"/>
      <psa30 value="0.0019876117" flag="0"/>
    </comp>
    <comp name="--.HHN">
      <acc value="0.0490786167" flag="0"/>
      <vel value="0.0240907499" flag="0"/>
      <psa03 value="0.1003826858" flag="0"/>
      <psa10 value="0.0477368465" flag="0"/>
      <psa30 value="0.0017871474" flag="0"/>
    </comp>
    <comp name="--.HHZ">
      <acc value="0.0184897635" flag="0"/>
      <vel value="0.0080247029" flag="0"/>
      <psa03 value="0.0309120044" flag="0"/>
      <psa10 value="0.0099965483" flag="0"/>
      <psa30 value="0.0008071176" flag="0"/>
    </comp>
  </station>
  <station code="GOMA" name="GOMA" netid="KO" insttype="CMG-5T" commtype="DIG" lat="38.7077" lon="27.9175">
    <comp name="--.HNZ">
      <acc value="0.0542993758" flag="0"/>
      <vel value="0.0192057294" flag="0"/>
      <psa03 value="0.0720503887" flag="0"/>
      <psa10 value="0.0075177091" flag="0"/>
      <psa30 value="0.0015298203" flag="0"/>
    </comp>
    <comp name="--.HNE">
      <acc value="0.0578930763" flag="0"/>
      <vel value="0.0318015883" flag="0"/>
      <psa03 value="0.1733149948" flag="0"/>
      <psa10 value="0.0154668845" flag="0"/>
      <psa30 value="0.0013883313" flag="0"/>
    </comp>
  </station>
  <station code="GONE" name="GONE" netid="KO" insttype="CMG-5T" commtype="DIG" lat="40.0466" lon="27.686">
    <comp name="--.HNE">
      <acc value="0.0465035949" flag="0"/>
      <vel value="0.0158394942" flag="0"/>
      <psa03 value="0.0792318320" flag="0"/>
      <psa10 value="0.0173063332" flag="0"/>
      <psa30 value="0.0014785974" flag="0"/>
    </comp>
    <comp name="--.HNN">
      <acc value="0.0973520428" flag="0"/>
      <vel value="0.0391313483" flag="0"/>
      <psa03 value="0.1456306503" flag="0"/>
      <psa10 value="0.0283394314" flag="0"/>
      <psa30 value="0.0015928869" flag="0"/>
    </comp>
    <comp name="--.HNZ">
      <acc value="0.0415513079" flag="0"/>
      <vel value="0.0105500283" flag="0"/>
      <psa03 value="0.0581719566" flag="0"/>
      <psa10 value="0.0102473984" flag="0"/>
      <psa30 value="0.0007834405" flag="0"/>
    </comp>
  </station>
  <station code="GORD" name="GORD" netid="KO" insttype="CMG-5T" commtype="DIG" lat="38.9088" lon="28.1769">
    <comp name="--.HNE">
      <acc value="0.0481325731" flag="0"/>
      <vel value="0.0426285515" flag="0"/>
      <psa03 value="0.1094755117" flag="0"/>
      <psa10 value="0.1138983156" flag="0"/>
      <psa30 value="0.0056004719" flag="0"/>
    </comp>
    <comp name="--.HNN">
      <acc value="0.0578111707" flag="0"/>
      <vel value="0.0360431128" flag="0"/>
      <psa03 value="0.1283378667" flag="0"/>
      <psa10 value="0.0485889543" flag="0"/>
      <psa30 value="0.0037910922" flag="0"/>
    </comp>
    <comp name="--.HNZ">
      <acc value="0.0547408915" flag="0"/>
      <vel value="0.0327844615" flag="0"/>
      <psa03 value="0.0942838609" flag="0"/>
      <psa10 value="0.0289076459" flag="0"/>
      <psa30 value="0.0038591815" flag="0"/>
    </comp>
  </station>
  <station code="KCTX" name="KCTX" netid="KO" insttype="CMG-3ESP" commtype="DIG" lat="40.2626" lon="28.3353">
    <comp name="--.HHE">
      <acc value="0.0587626688" flag="0"/>
      <vel value="0.0300710185" flag="0"/>
      <psa03 value="0.1578791506" flag="0"/>
      <psa10 value="0.0334723219" flag="0"/>
      <psa30 value="0.0015613595" flag="0"/>
    </comp>
    <comp name="--.HHN">
      <acc value="0.0764393759" flag="0"/>
      <vel value="0.0238298255" flag="0"/>
      <psa03 value="0.2000962599" flag="0"/>
      <psa10 value="0.0141186145" flag="0"/>
      <psa30 value="0.0008457200" flag="0"/>
    </comp>
    <comp name="--.HHZ">
      <acc value="0.0514728073" flag="0"/>
      <vel value="0.0188399940" flag="0"/>
      <psa03 value="0.1074127186" flag="0"/>
      <psa10 value="0.0098994678" flag="0"/>
      <psa30 value="0.0008303657" flag="0"/>
    </comp>
  </station>
  <station code="MSKC" name="MSKC" netid="KO" insttype="SA10" commtype="DIG" lat="40.3092" lon="27.6724">
    <comp name="--.HNE">
      <acc value="0.0706275193" flag="0"/>
      <vel value="0.0396025526" flag="0"/>
      <psa03 value="0.1783457208" flag="0"/>
      <psa10 value="0.0403983593" flag="0"/>
      <psa30 value="0.0020113065" flag="0"/>
    </comp>
    <comp name="--.HNN">
      <acc value="0.0716317298" flag="0"/>
      <vel value="0.0378563939" flag="0"/>
      <psa03 value="0.2521147151" flag="0"/>
      <psa10 value="0.0415048529" flag="0"/>
      <psa30 value="0.0017511874" flag="0"/>
    </comp>
    <comp name="--.HNZ">
      <acc value="0.0315635337" flag="0"/>
      <vel value="0.0149648981" flag="0"/>
      <psa03 value="0.0843694844" flag="0"/>
      <psa10 value="0.0075831090" flag="0"/>
      <psa30 value="0.0005916129" flag="0"/>
    </comp>
  </station>
  <station code="ORLT" name="ORLT" netid="KO" insttype="CMG-5T" commtype="DIG" lat="40.0452" lon="28.8914">
    <comp name="--.HNE">
      <acc value="0.0871444808" flag="0"/>
      <vel value="0.0360159463" flag="0"/>
      <psa03 value="0.2471710436" flag="0"/>
      <psa10 value="0.0256869519" flag="0"/>
      <psa30 value="0.0015444271" flag="0"/>
    </comp>
    <comp name="--.HNN">
      <acc value="0.0928948479" flag="0"/>
      <vel value="0.0468499837" flag="0"/>
      <psa03 value="0.3600327169" flag="0"/>
      <psa10 value="0.0292036408" flag="0"/>
      <psa30 value="0.0021418362" flag="0"/>
    </comp>
    <comp name="--.HNZ">
      <acc value="0.0404394245" flag="0"/>
      <vel value="0.0243630881" flag="0"/>
      <psa03 value="0.0860198494" flag="0"/>
      <psa10 value="0.0268065782" flag="0"/>
      <psa30 value="0.0015445493" flag="0"/>
    </comp>
  </station>
  <station code="SOMA" name="SOMA" netid="KO" insttype="CMG-5T" commtype="DIG" lat="39.1564" lon="27.5341">
    <comp name="--.HNE">
      <acc value="0.1044886219" flag="0"/>
      <vel value="0.0492577465" flag="0"/>
      <psa03 value="0.3707639581" flag="0"/>
      <psa10 value="0.0314910873" flag="0"/>
      <psa30 value="0.0029543856" flag="0"/>
    </comp>
    <comp name="--.HNN">
      <acc value="0.1126055231" flag="0"/>
      <vel value="0.0602791626" flag="0"/>
      <psa03 value="0.2248521337" flag="0"/>
      <psa10 value="0.0405801660" flag="0"/>
      <psa30 value="0.0038652635" flag="0"/>
    </comp>
    <comp name="--.HNZ">
      <acc value="0.1198929665" flag="0"/>
      <vel value="0.0377919354" flag="0"/>
      <psa03 value="0.1596412855" flag="0"/>
      <psa10 value="0.0178875688" flag="0"/>
      <psa30 value="0.0025081103" flag="0"/>
    </comp>
  </station>
  <station code="SUSR" name="SUSR" netid="KO" insttype="CMG-5T" commtype="DIG" lat="39.9627" lon="28.0835">
    <comp name="--.HNE">
      <acc value="0.0561753656" flag="0"/>
      <vel value="0.0244797150" flag="0"/>
      <psa03 value="0.1178057314" flag="0"/>
      <psa10 value="0.0161584496" flag="0"/>
      <psa30 value="0.0009867410" flag="0"/>
    </comp>
    <comp name="--.HNN">
      <acc value="0.0704600629" flag="0"/>
      <vel value="0.0212785842" flag="0"/>
      <psa03 value="0.1577759925" flag="0"/>
      <psa10 value="0.0115366972" flag="0"/>
      <psa30 value="0.0008778443" flag="0"/>
    </comp>
    <comp name="--.HNZ">
      <acc value="0.0699464118" flag="0"/>
      <vel value="0.0180816462" flag="0"/>
      <psa03 value="0.0890676713" flag="0"/>
      <psa10 value="0.0144403364" flag="0"/>
      <psa30 value="0.0012271013" flag="0"/>
    </comp>
  </station>
  <station code="TVSB" name="TVSB" netid="KO" insttype="CMG-3T" commtype="DIG" lat="39.4497" lon="29.4615">
    <comp name="--.HHN">
      <acc value="0.0296345346" flag="0"/>
      <vel value="0.0192601994" flag="0"/>
      <psa03 value="0.0687360362" flag="0"/>
      <psa10 value="0.0280546971" flag="0"/>
      <psa30 value="0.0016165861" flag="0"/>
    </comp>
    <comp name="--.HHZ">
      <acc value="0.0172144023" flag="0"/>
      <vel value="0.0083756801" flag="0"/>
      <psa03 value="0.0256045544" flag="0"/>
      <psa10 value="0.0057957508" flag="0"/>
      <psa30 value="0.0006590774" flag="0"/>
    </comp>
    <comp name="--.HHE">
      <acc value="0.0445582297" flag="0"/>
      <vel value="0.0279721237" flag="0"/>
      <psa03 value="0.1326256344" flag="0"/>
      <psa10 value="0.0160496917" flag="0"/>
      <psa30 value="0.0013394561" flag="0"/>
    </comp>
  </station>
  <station code="YAYO" name="YAYO" netid="KO" insttype="CMG-6T" commtype="DIG" lat="39.6113" lon="27.0726">
    <comp name="--.HHE">
      <acc value="0.0857853926" flag="0"/>
      <vel value="0.0356599091" flag="0"/>
      <psa03 value="0.2141215938" flag="0"/>
      <psa10 value="0.0174682156" flag="0"/>
      <psa30 value="0.0014484550" flag="0"/>
    </comp>
    <comp name="--.HHN">
      <acc value="0.0646854625" flag="0"/>
      <vel value="0.0465187604" flag="0"/>
      <psa03 value="0.1982145179" flag="0"/>
      <psa10 value="0.0231888516" flag="0"/>
      <psa30 value="0.0016974662" flag="0"/>
    </comp>
    <comp name="--.HHZ">
      <acc value="0.0433389984" flag="0"/>
      <vel value="0.0161673447" flag="0"/>
      <psa03 value="0.1268921127" flag="0"/>
      <psa10 value="0.0111192968" flag="0"/>
      <psa30 value="0.0006700610" flag="0"/>
    </comp>
  </station>
  <station code="YENI" name="YENI" netid="KO" insttype="CMG-5T" commtype="DIG" lat="39.9364" lon="27.2422">
    <comp name="--.HNN">
      <acc value="0.0918952019" flag="0"/>
      <vel value="0.0370073354" flag="0"/>
      <psa03 value="0.2217044815" flag="0"/>
      <psa10 value="0.0134860916" flag="0"/>
      <psa30 value="0.0008876791" flag="0"/>
    </comp>
    <comp name="--.HNZ">
      <acc value="0.0434568094" flag="0"/>
      <vel value="0.0120165718" flag="0"/>
      <psa03 value="0.0665294352" flag="0"/>
      <psa10 value="0.0073584469" flag="0"/>
      <psa30 value="0.0012187766" flag="0"/>
    </comp>
    <comp name="--.HNE">
      <acc value="0.0677300575" flag="0"/>
      <vel value="0.0366502857" flag="0"/>
      <psa03 value="0.1754870082" flag="0"/>
      <psa10 value="0.0153543502" flag="0"/>
      <psa30 value="0.0012330479" flag="0"/>
    </comp>
  </station>
</stationlist>
