<stationlist xmlns:esm="https://esm-db.eu/esmws/shakemap/1/" created="1783475626">
	<station code="IMMV" name="IMMV" netid="GE" source="GEOFON" insttype="" lat="35.4606" lon="23.9811" esm:processing="manual (Paolucci et al 2011)" esm:quality="best">
		<comp name="--.HNE" depth="0.0">
			<acc value="0.0194401959826693" flag="0"/>
			<vel value="0.0184788819217456" flag="0"/>
			<psa03 value="0.054496007661055" flag="0"/>
			<psa10 value="0.0238869692693629" flag="0"/>
			<psa30 value="0.00142996092351997" flag="0"/>
		</comp>
		<comp name="--.HNN" depth="0.0">
			<acc value="0.0233082936381027" flag="0"/>
			<vel value="0.0169736319799287" flag="0"/>
			<psa03 value="0.058612290669936" flag="0"/>
			<psa10 value="0.0252359467989038" flag="0"/>
			<psa30 value="0.00170512549422234" flag="0"/>
		</comp>
		<comp name="--.HNZ" depth="0.0">
			<acc value="0.0147446176517382" flag="0"/>
			<vel value="0.00963289451547097" flag="0"/>
			<psa03 value="0.0383440710718589" flag="0"/>
			<psa10 value="0.00960794144920768" flag="0"/>
			<psa30 value="0.0011105015682655" flag="0"/>
		</comp>
	</station>
	<station code="KTHA" name="KTHA" netid="GE" source="GEOFON" insttype="" lat="36.2566" lon="23.0621" esm:processing="manual (Paolucci et al 2011)" esm:quality="good">
		<comp name="--.HNE" depth="0.0">
			<acc value="0.0424344563725063" flag="0"/>
			<vel value="0.0261544226385794" flag="0"/>
			<psa03 value="0.138879809343116" flag="0"/>
			<psa10 value="0.0330519628730497" flag="0"/>
			<psa30 value="0.00265410769659588" flag="0"/>
		</comp>
		<comp name="--.HNN" depth="0.0">
			<acc value="0.0218240965515914" flag="0"/>
			<vel value="0.00985913682211188" flag="0"/>
			<psa03 value="0.0579411575706619" flag="0"/>
			<psa10 value="0.0128374339229145" flag="0"/>
			<psa30 value="0.00065368363869295" flag="0"/>
		</comp>
		<comp name="--.HNZ" depth="0.0">
			<acc value="0.0149502746420157" flag="0"/>
			<vel value="0.0105213083766237" flag="0"/>
			<psa03 value="0.0397758216836436" flag="0"/>
			<psa10 value="0.0140293663072253" flag="0"/>
			<psa30 value="0.00106531193958105" flag="0"/>
		</comp>
	</station>
	<station code="CH01" name="CH01" netid="HI" source="ITSAK Strong Motion Network" insttype="" lat="35.517" lon="24.0208" esm:processing="manual (Paolucci et al 2011)" esm:quality="best">
		<comp name="--.HNE" depth="0.0">
			<acc value="0.0215548092427862" flag="0"/>
			<vel value="0.0232301105939438" flag="0"/>
			<psa03 value="0.059596619215538" flag="0"/>
			<psa10 value="0.0420961525188672" flag="0"/>
			<psa30 value="0.00334984900951001" flag="0"/>
		</comp>
		<comp name="--.HNN" depth="0.0">
			<acc value="0.0282090198178328" flag="0"/>
			<vel value="0.0267697336024891" flag="0"/>
			<psa03 value="0.097627494841069" flag="0"/>
			<psa10 value="0.0339016173767307" flag="0"/>
			<psa30 value="0.00263307885948529" flag="0"/>
		</comp>
		<comp name="--.HNZ" depth="0.0">
			<acc value="0.0177003309573836" flag="0"/>
			<vel value="0.0149896747347807" flag="0"/>
			<psa03 value="0.0364201561872732" flag="0"/>
			<psa10 value="0.0175447614812229" flag="0"/>
			<psa30 value="0.00119148496224458" flag="0"/>
		</comp>
	</station>
	<station code="NPS1" name="NPS1" netid="HI" source="ITSAK Strong Motion Network" insttype="" lat="36.51263" lon="23.06248" esm:processing="manual (Paolucci et al 2011)" esm:quality="best">
		<comp name="--.HNE" depth="0.0">
			<acc value="0.029973545159047" flag="0"/>
			<vel value="0.0182202739126908" flag="0"/>
			<psa03 value="0.0895212324256531" flag="0"/>
			<psa10 value="0.0155448903977101" flag="0"/>
			<psa30 value="0.00138809039167631" flag="0"/>
		</comp>
		<comp name="--.HNN" depth="0.0">
			<acc value="0.0362622366405812" flag="0"/>
			<vel value="0.0211244338234852" flag="0"/>
			<psa03 value="0.112525245911911" flag="0"/>
			<psa10 value="0.0179661951722648" flag="0"/>
			<psa30 value="0.00110413564356875" flag="0"/>
		</comp>
		<comp name="--.HNZ" depth="0.0">
			<acc value="0.0231839537505946" flag="0"/>
			<vel value="0.00823974499753937" flag="0"/>
			<psa03 value="0.0644078396201027" flag="0"/>
			<psa10 value="0.00679006855872342" flag="0"/>
			<psa30 value="0.000587269268291654" flag="0"/>
		</comp>
	</station>
	<station code="ANKY" name="ANKY" netid="HL" source="National Observatory of Athens Seismic Network" insttype="" lat="35.86704" lon="23.30117" esm:processing="manual (Paolucci et al 2011)" esm:quality="good">
		<comp name="00.HNE" depth="0.0">
			<acc value="0.0379565293125491" flag="0"/>
			<vel value="0.0188684547138928" flag="0"/>
			<psa03 value="0.0998198629653643" flag="0"/>
			<psa10 value="0.0179917361253394" flag="0"/>
			<psa30 value="0.00143488256624797" flag="0"/>
		</comp>
		<comp name="00.HNN" depth="0.0">
			<acc value="0.0585474079746936" flag="0"/>
			<vel value="0.0324189895320825" flag="0"/>
			<psa03 value="0.13798496521075" flag="0"/>
			<psa10 value="0.0177541550081964" flag="0"/>
			<psa30 value="0.00134181877648197" flag="0"/>
		</comp>
		<comp name="00.HNZ" depth="0.0">
			<acc value="0.0351978626324364" flag="0"/>
			<vel value="0.0174232928693224" flag="0"/>
			<psa03 value="0.125904569423817" flag="0"/>
			<psa10 value="0.0108602758124531" flag="0"/>
			<psa30 value="0.000957035799564833" flag="0"/>
		</comp>
	</station>
	<station code="CHNB" name="CHNB" netid="HL" source="National Observatory of Athens Seismic Network" insttype="" lat="35.48765" lon="24.06605" esm:processing="manual (Paolucci et al 2011)" esm:quality="good">
		<comp name="00.HNE" depth="0.0">
			<acc value="0.0701626396676262" flag="0"/>
			<vel value="0.0508005561274362" flag="0"/>
			<psa03 value="0.172098536100067" flag="0"/>
			<psa10 value="0.0754946461497989" flag="0"/>
			<psa30 value="0.00479035692096949" flag="0"/>
		</comp>
		<comp name="00.HNN" depth="0.0">
			<acc value="0.0523097402836681" flag="0"/>
			<vel value="0.0397015844119553" flag="0"/>
			<psa03 value="0.134457261300346" flag="0"/>
			<psa10 value="0.0833997648251148" flag="0"/>
			<psa30 value="0.00466351643507647" flag="0"/>
		</comp>
		<comp name="00.HNZ" depth="0.0">
			<acc value="0.0359104410568956" flag="0"/>
			<vel value="0.02227703564026" flag="0"/>
			<psa03 value="0.128173709629219" flag="0"/>
			<psa10 value="0.0201530587912388" flag="0"/>
			<psa30 value="0.00128673721919246" flag="0"/>
		</comp>
	</station>
	<station code="GVD" name="GVD" netid="HL" source="National Observatory of Athens Seismic Network" insttype="" lat="34.83914" lon="24.08738" esm:processing="manual (Paolucci et al 2011)" esm:quality="best">
		<comp name="00.HNE" depth="1.0">
			<acc value="0.0096217311319122" flag="0"/>
			<vel value="0.00470294148040681" flag="0"/>
			<psa03 value="0.0396250728832922" flag="0"/>
			<psa10 value="0.00453890224249367" flag="0"/>
			<psa30 value="0.000443217381809692" flag="0"/>
		</comp>
		<comp name="00.HNN" depth="1.0">
			<acc value="0.0108382410469607" flag="0"/>
			<vel value="0.0073302337470066" flag="0"/>
			<psa03 value="0.0499888167222014" flag="0"/>
			<psa10 value="0.00567399368672531" flag="0"/>
			<psa30 value="0.000725982884471129" flag="0"/>
		</comp>
		<comp name="00.HNZ" depth="1.0">
			<acc value="0.00797029230047891" flag="0"/>
			<vel value="0.00316978415113087" flag="0"/>
			<psa03 value="0.0143664777503134" flag="0"/>
			<psa10 value="0.00240507955909041" flag="0"/>
			<psa30 value="0.000601826795153625" flag="0"/>
		</comp>
	</station>
	<station code="IMMV" name="IMMV" netid="HL" source="National Observatory of Athens Seismic Network" insttype="" lat="35.4606" lon="23.9811" esm:processing="manual (Paolucci et al 2011)" esm:quality="best">
		<comp name="--.HNE" depth="0.0">
			<acc value="0.0190500096494458" flag="0"/>
			<vel value="0.0181032537737858" flag="0"/>
			<psa03 value="0.0533774524955982" flag="0"/>
			<psa10 value="0.0234037534378856" flag="0"/>
			<psa30 value="0.00138119191830605" flag="0"/>
		</comp>
		<comp name="--.HNN" depth="0.0">
			<acc value="0.0228362627644091" flag="0"/>
			<vel value="0.0166341340963833" flag="0"/>
			<psa03 value="0.0574489932978609" flag="0"/>
			<psa10 value="0.0247205165786613" flag="0"/>
			<psa30 value="0.00165098742421423" flag="0"/>
		</comp>
		<comp name="--.HNZ" depth="0.0">
			<acc value="0.0144487314352006" flag="0"/>
			<vel value="0.00938048612950155" flag="0"/>
			<psa03 value="0.0375834535593483" flag="0"/>
			<psa10 value="0.0094106283180211" flag="0"/>
			<psa30 value="0.00107381295883852" flag="0"/>
		</comp>
	</station>
	<station code="ITM" name="ITM" netid="HL" source="National Observatory of Athens Seismic Network" insttype="" lat="37.17872" lon="21.92522" esm:processing="manual (Paolucci et al 2011)" esm:quality="bad">
		<comp name="00.HNE" depth="0.0">
			<acc value="0.00177608148561863" flag="0"/>
			<vel value="0.00173528154371242" flag="0"/>
			<psa03 value="0.00416102521549927" flag="0"/>
			<psa10 value="0.00225098041496525" flag="0"/>
			<psa30 value="0.000400890171299715" flag="0"/>
		</comp>
		<comp name="00.HNN" depth="0.0">
			<acc value="0.00190613225978378" flag="0"/>
			<vel value="0.00155506275342016" flag="0"/>
			<psa03 value="0.00478741610815508" flag="0"/>
			<psa10 value="0.00158655864668392" flag="0"/>
			<psa30 value="0.000412523145020466" flag="0"/>
		</comp>
		<comp name="00.HNZ" depth="0.0">
			<acc value="0.00156587454253121" flag="0"/>
			<vel value="0.00138671216148472" flag="0"/>
			<psa03 value="0.00308721225666075" flag="0"/>
			<psa10 value="0.00182816656242258" flag="0"/>
			<psa30 value="0.000279191369298016" flag="0"/>
		</comp>
	</station>
	<station code="KTHA" name="KTHA" netid="HL" source="National Observatory of Athens Seismic Network" insttype="" lat="36.2566" lon="23.0621" esm:processing="manual (Paolucci et al 2011)" esm:quality="good">
		<comp name="--.HNE" depth="0.0">
			<acc value="0.0415820953298384" flag="0"/>
			<vel value="0.0255982232702648" flag="0"/>
			<psa03 value="0.136061050326164" flag="0"/>
			<psa10 value="0.0323714339103858" flag="0"/>
			<psa30 value="0.00258028305567573" flag="0"/>
		</comp>
		<comp name="--.HNN" depth="0.0">
			<acc value="0.021383336084916" flag="0"/>
			<vel value="0.00966025013471392" flag="0"/>
			<psa03 value="0.0567778601985869" flag="0"/>
			<psa10 value="0.0125756920141976" flag="0"/>
			<psa30 value="0.000626838314721987" flag="0"/>
		</comp>
		<comp name="--.HNZ" depth="0.0">
			<acc value="0.0146518046494672" flag="0"/>
			<vel value="0.0102976122398284" flag="0"/>
			<psa03 value="0.0389704619645147" flag="0"/>
			<psa10 value="0.0137434636069345" flag="0"/>
			<psa30 value="0.00102414910949224" flag="0"/>
		</comp>
	</station>
	<station code="MILA" name="MILA" netid="HL" source="National Observatory of Athens Seismic Network" insttype="" lat="36.74288" lon="24.4282" esm:processing="manual (Paolucci et al 2011)" esm:quality="good">
		<comp name="00.HNE" depth="0.0">
			<acc value="0.0130221544885422" flag="0"/>
			<vel value="0.00690606640183296" flag="0"/>
			<psa03 value="0.0333602229718817" flag="0"/>
			<psa10 value="0.00980013702348122" flag="0"/>
			<psa30 value="0.00144592953573549" flag="0"/>
		</comp>
		<comp name="00.HNN" depth="0.0">
			<acc value="0.0109451940003887" flag="0"/>
			<vel value="0.00881261206888867" flag="0"/>
			<psa03 value="0.0267701275562363" flag="0"/>
			<psa10 value="0.011876845532728" flag="0"/>
			<psa30 value="0.000816160837483307" flag="0"/>
		</comp>
		<comp name="00.HNZ" depth="0.0">
			<acc value="0.00825652721519696" flag="0"/>
			<vel value="0.00933747504703674" flag="0"/>
			<psa03 value="0.0167817809814626" flag="0"/>
			<psa10 value="0.0173331251094719" flag="0"/>
			<psa30 value="0.000742052230235116" flag="0"/>
		</comp>
	</station>
	<station code="MNVA" name="MNVA" netid="HL" source="National Observatory of Athens Seismic Network" insttype="" lat="36.68709" lon="23.03734" esm:processing="manual (Paolucci et al 2011)" esm:quality="best">
		<comp name="00.HNE" depth="0.0">
			<acc value="0.00718323108568508" flag="0"/>
			<vel value="0.00658967193402646" flag="0"/>
			<psa03 value="0.0203577040113136" flag="0"/>
			<psa10 value="0.0106025607023319" flag="0"/>
			<psa30 value="0.000528852882227972" flag="0"/>
		</comp>
		<comp name="00.HNN" depth="0.0">
			<acc value="0.00433486244252697" flag="0"/>
			<vel value="0.0041575756450036" flag="0"/>
			<psa03 value="0.0115434893075141" flag="0"/>
			<psa10 value="0.00335029643157619" flag="0"/>
			<psa30 value="0.000722139214818906" flag="0"/>
		</comp>
		<comp name="00.HNZ" depth="0.0">
			<acc value="0.00660424633996468" flag="0"/>
			<vel value="0.00452725954455418" flag="0"/>
			<psa03 value="0.0131542087457719" flag="0"/>
			<psa10 value="0.00744152380475096" flag="0"/>
			<psa30 value="0.000846969971283884" flag="0"/>
		</comp>
	</station>
	<station code="PYL1" name="PYL1" netid="HI" source="ITSAK Strong Motion Network" insttype="" lat="36.914188" lon="21.695161" esm:processing="discarded" esm:quality="bad">
		<comp name="--.HNE" depth="0.0">
			<acc value="0" flag="1"/>
			<vel value="0" flag="1"/>
			<psa03 value="0" flag="1"/>
			<psa10 value="0" flag="1"/>
			<psa30 value="0" flag="1"/>
		</comp>
		<comp name="--.HNN" depth="0.0">
			<acc value="0" flag="1"/>
			<vel value="0" flag="1"/>
			<psa03 value="0" flag="1"/>
			<psa10 value="0" flag="1"/>
			<psa30 value="0" flag="1"/>
		</comp>
		<comp name="--.HNZ" depth="0.0">
			<acc value="0" flag="1"/>
			<vel value="0" flag="1"/>
			<psa03 value="0" flag="1"/>
			<psa10 value="0" flag="1"/>
			<psa30 value="0" flag="1"/>
		</comp>
	</station>
	<station code="HERG" name="HERG" netid="HL" source="National Observatory of Athens Seismic Network" insttype="" lat="35.32622" lon="25.06586" esm:processing="automatic (Paolucci et al 2011)" esm:quality="bad">
		<comp name="00.HNE" depth="0.0">
			<acc value="0" flag="1"/>
			<vel value="0" flag="1"/>
			<psa03 value="0" flag="1"/>
			<psa10 value="0" flag="1"/>
			<psa30 value="0" flag="1"/>
		</comp>
		<comp name="00.HNN" depth="0.0">
			<acc value="0" flag="1"/>
			<vel value="0" flag="1"/>
			<psa03 value="0" flag="1"/>
			<psa10 value="0" flag="1"/>
			<psa30 value="0" flag="1"/>
		</comp>
		<comp name="00.HNZ" depth="0.0">
			<acc value="0" flag="1"/>
			<vel value="0" flag="1"/>
			<psa03 value="0" flag="1"/>
			<psa10 value="0" flag="1"/>
			<psa30 value="0" flag="1"/>
		</comp>
	</station>
	<station code="IACM" name="IACM" netid="HL" source="National Observatory of Athens Seismic Network" insttype="" lat="35.3058" lon="25.0709" esm:processing="discarded" esm:quality="bad">
		<comp name="--.HNE" depth="0.0">
			<acc value="0" flag="1"/>
			<vel value="0" flag="1"/>
			<psa03 value="0" flag="1"/>
			<psa10 value="0" flag="1"/>
			<psa30 value="0" flag="1"/>
		</comp>
		<comp name="--.HNN" depth="0.0">
			<acc value="0" flag="1"/>
			<vel value="0" flag="1"/>
			<psa03 value="0" flag="1"/>
			<psa10 value="0" flag="1"/>
			<psa30 value="0" flag="1"/>
		</comp>
		<comp name="--.HNZ" depth="0.0">
			<acc value="0" flag="1"/>
			<vel value="0" flag="1"/>
			<psa03 value="0" flag="1"/>
			<psa10 value="0" flag="1"/>
			<psa30 value="0" flag="1"/>
		</comp>
	</station>
	<station code="YDRA" name="YDRA" netid="HL" source="National Observatory of Athens Seismic Network" insttype="" lat="37.34923" lon="23.46525" esm:processing="discarded" esm:quality="bad">
		<comp name="00.HNE" depth="0.0">
			<acc value="0" flag="1"/>
			<vel value="0" flag="1"/>
			<psa03 value="0" flag="1"/>
			<psa10 value="0" flag="1"/>
			<psa30 value="0" flag="1"/>
		</comp>
		<comp name="00.HNN" depth="0.0">
			<acc value="0" flag="1"/>
			<vel value="0" flag="1"/>
			<psa03 value="0" flag="1"/>
			<psa10 value="0" flag="1"/>
			<psa30 value="0" flag="1"/>
		</comp>
		<comp name="00.HNZ" depth="0.0">
			<acc value="0" flag="1"/>
			<vel value="0" flag="1"/>
			<psa03 value="0" flag="1"/>
			<psa10 value="0" flag="1"/>
			<psa30 value="0" flag="1"/>
		</comp>
	</station>
</stationlist>
