<?xml version="1.0" encoding="UTF-8" standalone="yes"?>
<!DOCTYPE earthquake SYSTEM "stationlist.dtd">
<stationlist created="" xmlns="ch.ethz.sed.shakemap.usgs.xml">
  <station code="GVD" name="GVD" netid="GE" source="GFZ" insttype="STS-2/N" lat="34.8391" lon="24.0874">
    <comp name="--.HHE">
      <acc value="0.0101560953" flag="0"/>
      <vel value="0.0049353710" flag="0"/>
      <psa03 value="0.0414933845" flag="0"/>
      <psa10 value="0.0046550764" flag="0"/>
      <psa30 value="0.0004200491" flag="0"/>
    </comp>
    <comp name="--.HHN">
      <acc value="0.0115629518" flag="0"/>
      <vel value="0.0075852425" flag="0"/>
      <psa03 value="0.0525751073" flag="0"/>
      <psa10 value="0.0058415114" flag="0"/>
      <psa30 value="0.0006838341" flag="0"/>
    </comp>
    <comp name="--.HHZ">
      <acc value="0.0083528110" flag="0"/>
      <vel value="0.0033340621" flag="0"/>
      <psa03 value="0.0152451931" flag="0"/>
      <psa10 value="0.0024217514" flag="0"/>
      <psa30 value="0.0005394537" flag="0"/>
    </comp>
  </station>
  <station code="IMMV" name="IMMV" netid="GE" source="GFZ" insttype="STS-2/N" lat="35.4606" lon="23.9811">
    <comp name="--.HHE">
      <acc value="0.0197293474" flag="0"/>
      <vel value="0.0185811671" flag="0"/>
      <psa03 value="0.0576348988" flag="0"/>
      <psa10 value="0.0238213151" flag="0"/>
      <psa30 value="0.0013024155" flag="0"/>
    </comp>
    <comp name="--.HHN">
      <acc value="0.0234364479" flag="0"/>
      <vel value="0.0173747135" flag="0"/>
      <psa03 value="0.0596601340" flag="0"/>
      <psa10 value="0.0252282302" flag="0"/>
      <psa30 value="0.0015930738" flag="0"/>
    </comp>
    <comp name="--.HHZ">
      <acc value="0.0150333848" flag="0"/>
      <vel value="0.0094062868" flag="0"/>
      <psa03 value="0.0396539750" flag="0"/>
      <psa10 value="0.0096069806" flag="0"/>
      <psa30 value="0.0010395357" flag="0"/>
    </comp>
  </station>
  <station code="KTHA" name="KTHA" netid="GE" source="GFZ" insttype="STS-2/N" lat="36.2566" lon="23.0621">
    <comp name="--.HHE">
      <acc value="0.0429696409" flag="0"/>
      <vel value="0.0260224122" flag="0"/>
      <psa03 value="0.1394038345" flag="0"/>
      <psa10 value="0.0327328337" flag="0"/>
      <psa30 value="0.0025396925" flag="0"/>
    </comp>
    <comp name="--.HHN">
      <acc value="0.0217936925" flag="0"/>
      <vel value="0.0098249658" flag="0"/>
      <psa03 value="0.0551509284" flag="0"/>
      <psa10 value="0.0135769091" flag="0"/>
      <psa30 value="0.0006207036" flag="0"/>
    </comp>
    <comp name="--.HHZ">
      <acc value="0.0151076859" flag="0"/>
      <vel value="0.0104895698" flag="0"/>
      <psa03 value="0.0391229435" flag="0"/>
      <psa10 value="0.0139245199" flag="0"/>
      <psa30 value="0.0009450896" flag="0"/>
    </comp>
  </station>
  <station code="CHAN" name="CHAN" netid="HC" source="NOA" insttype="120" lat="35.5193" lon="24.0428">
    <comp name="--.HHE">
      <acc value="0.0471083097" flag="0"/>
      <vel value="0.0445564764" flag="0"/>
      <psa03 value="0.1281133064" flag="0"/>
      <psa10 value="0.0838324969" flag="0"/>
      <psa30 value="0.0044214178" flag="0"/>
    </comp>
    <comp name="--.HHN">
      <acc value="0.0400951011" flag="0"/>
      <vel value="0.0521221234" flag="0"/>
      <psa03 value="0.1539123440" flag="0"/>
      <psa10 value="0.0604801478" flag="0"/>
      <psa30 value="0.0038792853" flag="0"/>
    </comp>
    <comp name="--.HHZ">
      <acc value="0.0337882135" flag="0"/>
      <vel value="0.0183245911" flag="0"/>
      <psa03 value="0.0729039519" flag="0"/>
      <psa10 value="0.0259262322" flag="0"/>
      <psa30 value="0.0019575101" flag="0"/>
    </comp>
  </station>
  <station code="RODP" name="RODP" netid="HC" source="NOA" insttype="120" lat="35.5604" lon="23.7577">
    <comp name="--.HHE">
      <acc value="0.0341359933" flag="0"/>
      <vel value="0.0171862570" flag="0"/>
      <psa03 value="0.0933419269" flag="0"/>
      <psa10 value="0.0134137696" flag="0"/>
      <psa30 value="0.0007698216" flag="0"/>
    </comp>
    <comp name="--.HHN">
      <acc value="0.0818741457" flag="0"/>
      <vel value="0.0420399242" flag="0"/>
      <psa03 value="0.2141022085" flag="0"/>
      <psa10 value="0.0390272663" flag="0"/>
      <psa30 value="0.0019932990" flag="0"/>
    </comp>
    <comp name="--.HHZ">
      <acc value="0.0643251578" flag="0"/>
      <vel value="0.0375111474" flag="0"/>
      <psa03 value="0.1876561212" flag="0"/>
      <psa10 value="0.0372132599" flag="0"/>
      <psa30 value="0.0017119303" flag="0"/>
    </comp>
  </station>
  <station code="ANKY" name="ANKY" netid="HL" source="NOA" insttype="60" lat="35.867" lon="23.3012">
    <comp name="--.HHE">
      <acc value="0.0316298197" flag="0"/>
      <vel value="0.0153256626" flag="0"/>
      <psa03 value="0.0902194258" flag="0"/>
      <psa10 value="0.0180007964" flag="0"/>
      <psa30 value="0.0011304234" flag="0"/>
    </comp>
    <comp name="--.HHN">
      <acc value="0.0612604085" flag="0"/>
      <vel value="0.0336323393" flag="0"/>
      <psa03 value="0.1390332330" flag="0"/>
      <psa10 value="0.0188703104" flag="0"/>
      <psa30 value="0.0014234437" flag="0"/>
    </comp>
    <comp name="--.HHZ">
      <acc value="0.0363808502" flag="0"/>
      <vel value="0.0178842657" flag="0"/>
      <psa03 value="0.1266052044" flag="0"/>
      <psa10 value="0.0109408682" flag="0"/>
      <psa30 value="0.0009410188" flag="0"/>
    </comp>
  </station>
  <station code="GVD" name="GVD" netid="HL" source="NOA" insttype="120" lat="34.8391" lon="24.0874">
    <comp name="--.HHE">
      <acc value="0.0098847106" flag="0"/>
      <vel value="0.0048290532" flag="0"/>
      <psa03 value="0.0402856990" flag="0"/>
      <psa10 value="0.0046107662" flag="0"/>
      <psa30 value="0.0004179616" flag="0"/>
    </comp>
    <comp name="--.HHN">
      <acc value="0.0113238614" flag="0"/>
      <vel value="0.0074240401" flag="0"/>
      <psa03 value="0.0512000155" flag="0"/>
      <psa10 value="0.0057923963" flag="0"/>
      <psa30 value="0.0006816250" flag="0"/>
    </comp>
    <comp name="--.HHZ">
      <acc value="0.0080624646" flag="0"/>
      <vel value="0.0032741805" flag="0"/>
      <psa03 value="0.0147994070" flag="0"/>
      <psa10 value="0.0024001345" flag="0"/>
      <psa30 value="0.0005393820" flag="0"/>
    </comp>
  </station>
  <station code="IMMV" name="IMMV" netid="HL" source="NOA" insttype="120" lat="35.4606" lon="23.9811">
    <comp name="--.HHE">
      <acc value="0.0193136726" flag="0"/>
      <vel value="0.0182617143" flag="0"/>
      <psa03 value="0.0562061715" flag="0"/>
      <psa10 value="0.0235853363" flag="0"/>
      <psa30 value="0.0012953954" flag="0"/>
    </comp>
    <comp name="--.HHN">
      <acc value="0.0230953015" flag="0"/>
      <vel value="0.0169822211" flag="0"/>
      <psa03 value="0.0580437714" flag="0"/>
      <psa10 value="0.0250439351" flag="0"/>
      <psa30 value="0.0015893520" flag="0"/>
    </comp>
    <comp name="--.HHZ">
      <acc value="0.0146819980" flag="0"/>
      <vel value="0.0092078635" flag="0"/>
      <psa03 value="0.0386633966" flag="0"/>
      <psa10 value="0.0095412463" flag="0"/>
      <psa30 value="0.0010345794" flag="0"/>
    </comp>
  </station>
  <station code="KTHA" name="KTHA" netid="HL" source="NOA" insttype="120" lat="36.2566" lon="23.0621">
    <comp name="--.HHZ">
      <acc value="0.0147913524" flag="0"/>
      <vel value="0.0102641956" flag="0"/>
      <psa03 value="0.0383230128" flag="0"/>
      <psa10 value="0.0138036972" flag="0"/>
      <psa30 value="0.0009389165" flag="0"/>
    </comp>
  </station>
  <station code="VAM" name="VAM" netid="HL" source="NOA" insttype="120" lat="35.407" lon="24.1997">
    <comp name="--.HHE">
      <acc value="0.0131604863" flag="0"/>
      <vel value="0.0080039874" flag="0"/>
      <psa03 value="0.0344563792" flag="0"/>
      <psa10 value="0.0139488912" flag="0"/>
      <psa30 value="0.0007705677" flag="0"/>
    </comp>
    <comp name="--.HHN">
      <acc value="0.0130968333" flag="0"/>
      <vel value="0.0108922623" flag="0"/>
      <psa03 value="0.0466999934" flag="0"/>
      <psa10 value="0.0146066845" flag="0"/>
      <psa30 value="0.0010819389" flag="0"/>
    </comp>
    <comp name="--.HHZ">
      <acc value="0.0085133179" flag="0"/>
      <vel value="0.0054079106" flag="0"/>
      <psa03 value="0.0265149532" flag="0"/>
      <psa10 value="0.0068218030" flag="0"/>
      <psa30 value="0.0008855604" flag="0"/>
    </comp>
  </station>
</stationlist>
