<stationlist created="1778135916">
	<station code="THRA" name="THRA" netid="HL" source="National Observatory of Athens Seismic Network" insttype="" lat="36.41502" lon="25.43244">
		<comp name="00.HNE" depth="0.0">
			<acc value="0.0223587310796464" flag="0"/>
			<vel value="0.017316129118483" flag="0"/>
			<psa03 value="0.0482768409411152" flag="0"/>
			<psa10 value="0.0348237542551333" flag="0"/>
			<psa30 value="0.00184651086713607" flag="0"/>
		</comp>
		<comp name="00.HNN" depth="0.0">
			<acc value="0.0172255603538625" flag="0"/>
			<vel value="0.01272454492854" flag="0"/>
			<psa03 value="0.043131487180014" flag="0"/>
			<psa10 value="0.0235930129718809" flag="0"/>
			<psa30 value="0.00119551176084022" flag="0"/>
		</comp>
		<comp name="00.HNZ" depth="0.0">
			<acc value="0.0167378872906109" flag="0"/>
			<vel value="0.01037189289287" flag="0"/>
			<psa03 value="0.0374492269394935" flag="0"/>
			<psa10 value="0.0137193028153607" flag="0"/>
			<psa30 value="0.000518114752639587" flag="0"/>
		</comp>
	</station>
</stationlist>
