<?xml version="1.0" encoding="UTF-8" standalone="yes"?>
<!DOCTYPE earthquake SYSTEM "stationlist.dtd">
<stationlist created="" xmlns="ch.ethz.sed.shakemap.usgs.xml">
  <station code="SMG" name="SMG" netid="HL" insttype="120" lat="37.7043" lon="26.8377">
    <comp name="--.HHN">
      <acc value="0.0128164705" flag="0"/>
      <vel value="0.0026879262" flag="0"/>
      <psa03 value="0.0135205664" flag="0"/>
      <psa10 value="0.0004317310" flag="0"/>
      <psa30 value="0.0000643430" flag="0"/>
    </comp>
    <comp name="--.HHZ">
      <acc value="0.0066510107" flag="0"/>
      <vel value="0.0011233991" flag="0"/>
      <psa03 value="0.0033315287" flag="0"/>
      <psa10 value="0.0001623724" flag="0"/>
      <psa30 value="0.0000543403" flag="0"/>
    </comp>
    <comp name="--.HHE">
      <acc value="0.0113120277" flag="0"/>
      <vel value="0.0023687714" flag="0"/>
      <psa03 value="0.0096841154" flag="0"/>
      <psa10 value="0.0003735750" flag="0"/>
      <psa30 value="0.0000539463" flag="0"/>
    </comp>
  </station>
</stationlist>
