<?xml version="1.0" encoding="UTF-8" standalone="yes"?>
<!DOCTYPE earthquake SYSTEM "stationlist.dtd">
<stationlist created="" xmlns="ch.ethz.sed.shakemap.usgs.xml">
  <station code="BAC" name="BAC" netid="RO" insttype="2.5V" lat="46.5669" lon="26.9124">
    <comp name="--.HNE">
      <acc value="0.0603390125" flag="0"/>
      <vel value="0.0151990628" flag="0"/>
      <psa03 value="0.0615995986" flag="0"/>
      <psa10 value="0.0064830547" flag="0"/>
      <psa30 value="0.0005027270" flag="0"/>
    </comp>
    <comp name="--.HNN">
      <acc value="0.0723993064" flag="0"/>
      <vel value="0.0293613270" flag="0"/>
      <psa03 value="0.0611312225" flag="0"/>
      <psa10 value="0.0072604316" flag="0"/>
      <psa30 value="0.0005552134" flag="0"/>
    </comp>
  </station>
  <station code="BISRR" name="BISRR" netid="RO" insttype="CMG40T.1to100/Basalt" lat="45.5481" lon="26.7099">
    <comp name="--.HHE">
      <acc value="0.1060803619" flag="0"/>
      <vel value="0.0370626923" flag="0"/>
      <psa03 value="0.2311430687" flag="0"/>
      <psa10 value="0.0236775265" flag="0"/>
      <psa30 value="0.0010379686" flag="0"/>
    </comp>
    <comp name="--.HHZ">
      <acc value="0.0749263929" flag="0"/>
      <vel value="0.0209166123" flag="0"/>
      <psa03 value="0.1235982118" flag="0"/>
      <psa10 value="0.0146609112" flag="0"/>
      <psa30 value="0.0008305806" flag="0"/>
    </comp>
  </station>
  <station code="BOSR" name="BOSR" netid="RO" insttype="Seismometer/Basalt" lat="46.0749" lon="25.6611">
    <comp name="--.HHZ">
      <acc value="0.0297886605" flag="0"/>
      <vel value="0.0070350338" flag="0"/>
      <psa03 value="0.0174555694" flag="0"/>
      <psa10 value="0.0013511520" flag="0"/>
      <psa30 value="0.0001561557" flag="0"/>
    </comp>
    <comp name="--.HHE">
      <acc value="0.0145378430" flag="0"/>
      <vel value="0.0032843122" flag="0"/>
      <psa03 value="0.0238995350" flag="0"/>
      <psa10 value="0.0015056746" flag="0"/>
      <psa30 value="0.0000784991" flag="0"/>
    </comp>
    <comp name="--.HHN">
      <acc value="0.0236160854" flag="0"/>
      <vel value="0.0035210129" flag="0"/>
      <psa03 value="0.0185215142" flag="0"/>
      <psa10 value="0.0019781376" flag="0"/>
      <psa30 value="0.0001208346" flag="0"/>
    </comp>
  </station>
  <station code="COPR" name="COPR" netid="RO" insttype="200" lat="45.8442" lon="26.1687">
    <comp name="--.HNE">
      <acc value="0.0220812593" flag="0"/>
      <vel value="0.0121193618" flag="0"/>
      <psa03 value="0.0586065487" flag="0"/>
      <psa10 value="0.0055523145" flag="0"/>
      <psa30 value="0.0004931143" flag="0"/>
    </comp>
    <comp name="--.HNN">
      <acc value="0.0170185507" flag="0"/>
      <vel value="0.0085673696" flag="0"/>
      <psa03 value="0.0348780986" flag="0"/>
      <psa10 value="0.0071684577" flag="0"/>
      <psa30 value="0.0011746017" flag="0"/>
    </comp>
    <comp name="--.HNZ">
      <acc value="0.0109551270" flag="0"/>
      <vel value="0.0038412636" flag="0"/>
      <psa03 value="0.0218110638" flag="0"/>
      <psa10 value="0.0025756556" flag="0"/>
      <psa30 value="0.0001747315" flag="0"/>
    </comp>
  </station>
  <station code="DOPR" name="DOPR" netid="RO" insttype="330" lat="45.9675" lon="25.3886">
    <comp name="--.HHE">
      <acc value="0.0750150958" flag="0"/>
      <vel value="0.0113239282" flag="0"/>
      <psa03 value="0.0152283443" flag="0"/>
      <psa10 value="0.0020644951" flag="0"/>
      <psa30 value="0.0001353532" flag="0"/>
    </comp>
    <comp name="--.HHZ">
      <acc value="0.0431353537" flag="0"/>
      <vel value="0.0074592109" flag="0"/>
      <psa03 value="0.0217931372" flag="0"/>
      <psa10 value="0.0015612229" flag="0"/>
      <psa30 value="0.0001276681" flag="0"/>
    </comp>
    <comp name="--.HHN">
      <acc value="0.0477550267" flag="0"/>
      <vel value="0.0095926049" flag="0"/>
      <psa03 value="0.0236735643" flag="0"/>
      <psa10 value="0.0010694352" flag="0"/>
      <psa30 value="0.0001134662" flag="0"/>
    </comp>
  </station>
  <station code="GISR" name="GISR" netid="RO" insttype="2.5V" lat="45.4411" lon="28.0541">
    <comp name="--.HNE">
      <acc value="0.1309360252" flag="0"/>
      <vel value="0.0407786648" flag="0"/>
      <psa03 value="0.1559804641" flag="0"/>
      <psa10 value="0.0068237253" flag="0"/>
      <psa30 value="0.0008431813" flag="0"/>
    </comp>
    <comp name="--.HNZ">
      <acc value="0.2032774430" flag="0"/>
      <vel value="0.0316551536" flag="0"/>
      <psa03 value="0.0925934850" flag="0"/>
      <psa10 value="0.0036380435" flag="0"/>
      <psa30 value="0.0005252023" flag="0"/>
    </comp>
  </station>
  <station code="GIUM" name="GIUM" netid="RO" insttype="2.5V" lat="45.485" lon="28.2081">
    <comp name="--.HNE">
      <acc value="0.1244751311" flag="0"/>
      <vel value="0.0201121345" flag="0"/>
      <psa03 value="0.0488136683" flag="0"/>
      <psa10 value="0.0048607509" flag="0"/>
      <psa30 value="0.0006765624" flag="0"/>
    </comp>
    <comp name="--.HNN">
      <acc value="0.0951691764" flag="0"/>
      <vel value="0.0189728663" flag="0"/>
      <psa03 value="0.0536555908" flag="0"/>
      <psa10 value="0.0048255790" flag="0"/>
      <psa30 value="0.0008443865" flag="0"/>
    </comp>
    <comp name="--.HNZ">
      <acc value="0.2480263476" flag="0"/>
      <vel value="0.0368367645" flag="0"/>
      <psa03 value="0.0489192752" flag="0"/>
      <psa10 value="0.0030060647" flag="0"/>
      <psa30 value="0.0005453744" flag="0"/>
    </comp>
  </station>
  <station code="ISR" name="ISR" netid="RO" insttype="CMG3ESP/Quanterra" lat="45.1187" lon="26.5432">
    <comp name="--.HHN">
      <acc value="0.0687928571" flag="0"/>
      <vel value="0.0156518055" flag="0"/>
      <psa03 value="0.1037955634" flag="0"/>
      <psa10 value="0.0056339364" flag="0"/>
      <psa30 value="0.0004359001" flag="0"/>
    </comp>
    <comp name="--.HHZ">
      <acc value="0.0444933333" flag="0"/>
      <vel value="0.0076916501" flag="0"/>
      <psa03 value="0.0552908490" flag="0"/>
      <psa10 value="0.0044685716" flag="0"/>
      <psa30 value="0.0002134339" flag="0"/>
    </comp>
    <comp name="--.HHE">
      <acc value="0.0935683875" flag="0"/>
      <vel value="0.0147950097" flag="0"/>
      <psa03 value="0.0821090043" flag="0"/>
      <psa10 value="0.0052606218" flag="0"/>
      <psa30 value="0.0003578777" flag="0"/>
    </comp>
  </station>
  <station code="IZVR" name="IZVR" netid="RO" insttype="CMG40T.1to100/Quanterra" lat="45.5442" lon="27.7655">
    <comp name="--.HHE">
      <acc value="0.1380798946" flag="0"/>
      <vel value="0.0228361173" flag="0"/>
      <psa03 value="0.0735134325" flag="0"/>
      <psa10 value="0.0042749450" flag="0"/>
      <psa30 value="0.0004123223" flag="0"/>
    </comp>
    <comp name="--.HHN">
      <acc value="0.0984122647" flag="0"/>
      <vel value="0.0213509720" flag="0"/>
      <psa03 value="0.0880567257" flag="0"/>
      <psa10 value="0.0060665084" flag="0"/>
      <psa30 value="0.0005183355" flag="0"/>
    </comp>
    <comp name="--.HHZ">
      <acc value="0.0779795922" flag="0"/>
      <vel value="0.0085863464" flag="0"/>
      <psa03 value="0.0215576381" flag="0"/>
      <psa10 value="0.0010060865" flag="0"/>
      <psa30 value="0.0001063732" flag="0"/>
    </comp>
  </station>
  <station code="MLR" name="MLR" netid="RO" insttype="330HR" lat="45.4909" lon="25.945">
    <comp name="--.HHZ">
      <acc value="0.0145783106" flag="0"/>
      <vel value="0.0068939869" flag="0"/>
      <psa03 value="0.0375302567" flag="0"/>
      <psa10 value="0.0031762794" flag="0"/>
      <psa30 value="0.0002168873" flag="0"/>
    </comp>
    <comp name="--.HHE">
      <acc value="0.0128294980" flag="0"/>
      <vel value="0.0091807752" flag="0"/>
      <psa03 value="0.0437967296" flag="0"/>
      <psa10 value="0.0056447624" flag="0"/>
      <psa30 value="0.0003536143" flag="0"/>
    </comp>
    <comp name="--.HHN">
      <acc value="0.0141812803" flag="0"/>
      <vel value="0.0062571485" flag="0"/>
      <psa03 value="0.0346892903" flag="0"/>
      <psa10 value="0.0043110619" flag="0"/>
      <psa30 value="0.0004014327" flag="0"/>
    </comp>
  </station>
  <station code="NEGRR" name="NEGRR" netid="RO" insttype="CMG40T.1to100/Quanterra" lat="45.5373" lon="27.8771">
    <comp name="--.HHE">
      <acc value="0.2352264514" flag="0"/>
      <vel value="0.0319247328" flag="0"/>
      <psa03 value="0.0639486718" flag="0"/>
      <psa10 value="0.0077694083" flag="0"/>
      <psa30 value="0.0004846006" flag="0"/>
    </comp>
    <comp name="--.HHZ">
      <acc value="0.1060682922" flag="0"/>
      <vel value="0.0133297747" flag="0"/>
      <psa03 value="0.0601075196" flag="0"/>
      <psa10 value="0.0027102470" flag="0"/>
      <psa30 value="0.0001803517" flag="0"/>
    </comp>
    <comp name="--.HHN">
      <acc value="0.2246459524" flag="0"/>
      <vel value="0.0317202981" flag="0"/>
      <psa03 value="0.0594176934" flag="0"/>
      <psa10 value="0.0077493876" flag="0"/>
      <psa30 value="0.0005144684" flag="0"/>
    </comp>
  </station>
  <station code="NEHR" name="NEHR" netid="RO" insttype="Seismometer/Basalt" lat="45.4272" lon="26.2952">
    <comp name="--.HHE">
      <acc value="0.0341913070" flag="0"/>
      <vel value="0.0110419044" flag="0"/>
      <psa03 value="0.0697058133" flag="0"/>
      <psa10 value="0.0044876440" flag="0"/>
      <psa30 value="0.0002965053" flag="0"/>
    </comp>
    <comp name="--.HHZ">
      <acc value="0.0279278222" flag="0"/>
      <vel value="0.0066642325" flag="0"/>
      <psa03 value="0.0423272817" flag="0"/>
      <psa10 value="0.0021705844" flag="0"/>
      <psa30 value="0.0001509938" flag="0"/>
    </comp>
    <comp name="--.HHN">
      <acc value="0.0452532323" flag="0"/>
      <vel value="0.0188249336" flag="0"/>
      <psa03 value="0.0784209338" flag="0"/>
      <psa10 value="0.0052993820" flag="0"/>
      <psa30 value="0.0003679384" flag="0"/>
    </comp>
  </station>
  <station code="ODBI" name="ODBI" netid="RO" insttype="PBB.1to100/Quanterra" lat="45.7633" lon="27.0558">
    <comp name="--.HHN">
      <acc value="0.8960875736" flag="0"/>
      <vel value="0.1603432203" flag="0"/>
      <psa03 value="0.5815743109" flag="0"/>
      <psa10 value="0.0263915335" flag="0"/>
      <psa30 value="0.0026265434" flag="0"/>
    </comp>
    <comp name="--.HHZ">
      <acc value="0.0003347671" flag="0"/>
      <vel value="0.0000307730" flag="0"/>
      <psa03 value="0.0000802509" flag="0"/>
      <psa10 value="0.0000134196" flag="0"/>
      <psa30 value="0.0000021944" flag="0"/>
    </comp>
    <comp name="--.HHE">
      <acc value="1.3141313451" flag="0"/>
      <vel value="0.2454199415" flag="0"/>
      <psa03 value="0.4006583115" flag="0"/>
      <psa10 value="0.0477187903" flag="0"/>
      <psa30 value="0.0031660662" flag="0"/>
    </comp>
  </station>
  <station code="ONER" name="ONER" netid="RO" insttype="CMG40T.1to100/obsidian" lat="46.3349" lon="26.394">
    <comp name="--.HHE">
      <acc value="0.0080321476" flag="0"/>
      <vel value="0.0014868700" flag="0"/>
      <psa03 value="0.0058341514" flag="0"/>
      <psa10 value="0.0008544944" flag="0"/>
      <psa30 value="0.0000534952" flag="0"/>
    </comp>
    <comp name="--.HHZ">
      <acc value="0.0134178136" flag="0"/>
      <vel value="0.0039226337" flag="0"/>
      <psa03 value="0.0104401036" flag="0"/>
      <psa10 value="0.0007567029" flag="0"/>
      <psa30 value="0.0000698079" flag="0"/>
    </comp>
    <comp name="--.HHN">
      <acc value="0.0130208512" flag="0"/>
      <vel value="0.0014729338" flag="0"/>
      <psa03 value="0.0053179867" flag="0"/>
      <psa10 value="0.0008857230" flag="0"/>
      <psa30 value="0.0000417102" flag="0"/>
    </comp>
  </station>
  <station code="PANC" name="PANC" netid="RO" insttype="Seismometer/Basalt" lat="45.8723" lon="27.1477">
    <comp name="--.HHE">
      <acc value="0.1340949501" flag="0"/>
      <vel value="0.0271570174" flag="0"/>
      <psa03 value="0.0935273872" flag="0"/>
      <psa10 value="0.0075795365" flag="0"/>
      <psa30 value="0.0006254649" flag="0"/>
    </comp>
    <comp name="--.HHN">
      <acc value="0.3657114238" flag="0"/>
      <vel value="0.0639724352" flag="0"/>
      <psa03 value="0.1567147016" flag="0"/>
      <psa10 value="0.0473032690" flag="0"/>
      <psa30 value="0.0240412245" flag="0"/>
    </comp>
    <comp name="--.HHZ">
      <acc value="0.1207151210" flag="0"/>
      <vel value="0.0177534121" flag="0"/>
      <psa03 value="0.0502093114" flag="0"/>
      <psa10 value="0.0020536464" flag="0"/>
      <psa30 value="0.0001913799" flag="0"/>
    </comp>
  </station>
  <station code="PGOR" name="PGOR" netid="RO" insttype="CMG40T.1to100/Quanterra" lat="44.9199" lon="26.9768">
    <comp name="--.HHE">
      <acc value="0.1114169990" flag="0"/>
      <vel value="0.0248282031" flag="0"/>
      <psa03 value="0.0399313597" flag="0"/>
      <psa10 value="0.0059040035" flag="0"/>
      <psa30 value="0.0005525160" flag="0"/>
    </comp>
    <comp name="--.HHZ">
      <acc value="0.2004813194" flag="0"/>
      <vel value="0.0265299381" flag="0"/>
      <psa03 value="0.0220681217" flag="0"/>
      <psa10 value="0.0018036406" flag="0"/>
      <psa30 value="0.0002017229" flag="0"/>
    </comp>
    <comp name="--.HHN">
      <acc value="0.1063959326" flag="0"/>
      <vel value="0.0206543663" flag="0"/>
      <psa03 value="0.0508433481" flag="0"/>
      <psa10 value="0.0037112855" flag="0"/>
      <psa30 value="0.0004484019" flag="0"/>
    </comp>
  </station>
  <station code="PLAR" name="PLAR" netid="RO" insttype="200" lat="44.9142" lon="26.0274">
    <comp name="--.HNN">
      <acc value="0.0797616008" flag="0"/>
      <vel value="0.0169624557" flag="0"/>
      <psa03 value="0.0864119059" flag="0"/>
      <psa10 value="0.0040568120" flag="0"/>
      <psa30 value="0.0006154096" flag="0"/>
    </comp>
    <comp name="--.HNE">
      <acc value="0.1393695908" flag="0"/>
      <vel value="0.0347530762" flag="0"/>
      <psa03 value="0.1276564748" flag="0"/>
      <psa10 value="0.0050210409" flag="0"/>
      <psa30 value="0.0006650774" flag="0"/>
    </comp>
    <comp name="--.HNZ">
      <acc value="0.0637756549" flag="0"/>
      <vel value="0.0083628936" flag="0"/>
      <psa03 value="0.0165114378" flag="0"/>
      <psa10 value="0.0010381327" flag="0"/>
      <psa30 value="0.0001090638" flag="0"/>
    </comp>
  </station>
  <station code="PLOR" name="PLOR" netid="RO" insttype="330" lat="45.8512" lon="26.6498">
    <comp name="--.HHN">
      <acc value="0.0343496934" flag="0"/>
      <vel value="0.0143756588" flag="0"/>
      <psa03 value="0.0610170432" flag="0"/>
      <psa10 value="0.0058329895" flag="0"/>
      <psa30 value="0.0004473424" flag="0"/>
    </comp>
    <comp name="--.HHE">
      <acc value="0.0302280557" flag="0"/>
      <vel value="0.0117768191" flag="0"/>
      <psa03 value="0.0592576891" flag="0"/>
      <psa10 value="0.0047641681" flag="0"/>
      <psa30 value="0.0004239010" flag="0"/>
    </comp>
    <comp name="--.HHZ">
      <acc value="0.0202638023" flag="0"/>
      <vel value="0.0057831780" flag="0"/>
      <psa03 value="0.0218798590" flag="0"/>
      <psa10 value="0.0019263870" flag="0"/>
      <psa30 value="0.0001424664" flag="0"/>
    </comp>
  </station>
  <station code="PLOR4" name="PLOR4" netid="RO" insttype="330" lat="45.8512" lon="26.6498">
    <comp name="--.HHE">
      <acc value="0.0302280557" flag="0"/>
      <vel value="0.0117768191" flag="0"/>
      <psa03 value="0.0592576891" flag="0"/>
      <psa10 value="0.0047641681" flag="0"/>
      <psa30 value="0.0004239010" flag="0"/>
    </comp>
    <comp name="--.HHN">
      <acc value="0.0343496934" flag="0"/>
      <vel value="0.0143756588" flag="0"/>
      <psa03 value="0.0610170432" flag="0"/>
      <psa10 value="0.0058329895" flag="0"/>
      <psa30 value="0.0004473424" flag="0"/>
    </comp>
    <comp name="--.HHZ">
      <acc value="0.0202638023" flag="0"/>
      <vel value="0.0057831780" flag="0"/>
      <psa03 value="0.0218798590" flag="0"/>
      <psa10 value="0.0019263870" flag="0"/>
      <psa30 value="0.0001424664" flag="0"/>
    </comp>
  </station>
  <station code="SAHR" name="SAHR" netid="RO" insttype="Seismometer/Basalt" lat="45.7266" lon="26.6855">
    <comp name="--.HHZ">
      <acc value="0.0879012136" flag="0"/>
      <vel value="0.0282550653" flag="0"/>
      <psa03 value="0.1239097236" flag="0"/>
      <psa10 value="0.0155158661" flag="0"/>
      <psa30 value="0.0096094580" flag="0"/>
    </comp>
    <comp name="--.HHE">
      <acc value="0.2259625782" flag="0"/>
      <vel value="0.0518178118" flag="0"/>
      <psa03 value="0.0496631745" flag="0"/>
      <psa10 value="0.0299233300" flag="0"/>
      <psa30 value="0.0166944015" flag="0"/>
    </comp>
    <comp name="--.HHN">
      <acc value="0.1053526314" flag="0"/>
      <vel value="0.0440977897" flag="0"/>
      <psa03 value="0.3318593044" flag="0"/>
      <psa10 value="0.0143554090" flag="0"/>
      <psa30 value="0.0009517492" flag="0"/>
    </comp>
  </station>
  <station code="SCHL" name="SCHL" netid="RO" insttype="CMG40T.1to100/Quanterra" lat="45.5007" lon="27.8302">
    <comp name="--.HHE">
      <acc value="0.1380174880" flag="0"/>
      <vel value="0.0271526966" flag="0"/>
      <psa03 value="0.1111015101" flag="0"/>
      <psa10 value="0.0107560336" flag="0"/>
      <psa30 value="0.0006473677" flag="0"/>
    </comp>
    <comp name="--.HHN">
      <acc value="0.0894650380" flag="0"/>
      <vel value="0.0199847242" flag="0"/>
      <psa03 value="0.0697066842" flag="0"/>
      <psa10 value="0.0138657659" flag="0"/>
      <psa30 value="0.0007283157" flag="0"/>
    </comp>
    <comp name="--.HHZ">
      <acc value="0.1318694730" flag="0"/>
      <vel value="0.0193193391" flag="0"/>
      <psa03 value="0.0387432622" flag="0"/>
      <psa10 value="0.0027318207" flag="0"/>
      <psa30 value="0.0002174471" flag="0"/>
    </comp>
  </station>
  <station code="SCHLR" name="SCHLR" netid="RO" insttype="CMG40T.1to100/Quanterra" lat="45.4702" lon="27.8314">
    <comp name="--.HHE">
      <acc value="0.1495664073" flag="0"/>
      <vel value="0.0270508002" flag="0"/>
      <psa03 value="0.0396015688" flag="0"/>
      <psa10 value="0.0039218032" flag="0"/>
      <psa30 value="0.0002490764" flag="0"/>
    </comp>
    <comp name="--.HHN">
      <acc value="0.1157005967" flag="0"/>
      <vel value="0.0226748376" flag="0"/>
      <psa03 value="0.0816240485" flag="0"/>
      <psa10 value="0.0063721409" flag="0"/>
      <psa30 value="0.0004377791" flag="0"/>
    </comp>
    <comp name="--.HHZ">
      <acc value="0.0863237063" flag="0"/>
      <vel value="0.0113074285" flag="0"/>
      <psa03 value="0.0176925106" flag="0"/>
      <psa10 value="0.0016174594" flag="0"/>
      <psa30 value="0.0001267594" flag="0"/>
    </comp>
  </station>
  <station code="SULR" name="SULR" netid="RO" insttype="330" lat="44.6777" lon="26.2526">
    <comp name="--.HHE">
      <acc value="0.0834557190" flag="0"/>
      <vel value="0.0254697679" flag="0"/>
      <psa03 value="0.1702502627" flag="0"/>
      <psa10 value="0.0052439301" flag="0"/>
      <psa30 value="0.0006934744" flag="0"/>
    </comp>
    <comp name="--.HHN">
      <acc value="0.0899611090" flag="0"/>
      <vel value="0.0409138977" flag="0"/>
      <psa03 value="0.1413334160" flag="0"/>
      <psa10 value="0.0146780728" flag="0"/>
      <psa30 value="0.0009749630" flag="0"/>
    </comp>
    <comp name="--.HHZ">
      <acc value="0.1299941804" flag="0"/>
      <vel value="0.0215839143" flag="0"/>
      <psa03 value="0.0477655933" flag="0"/>
      <psa10 value="0.0031702359" flag="0"/>
      <psa30 value="0.0003362199" flag="0"/>
    </comp>
  </station>
  <station code="TATR" name="TATR" netid="RO" insttype="MBB2/Basalt" lat="45.5977" lon="28.0498">
    <comp name="--.HHE">
      <acc value="0.1803589260" flag="0"/>
