<?xml version="1.0" encoding="UTF-8" standalone="yes"?>
<!DOCTYPE earthquake SYSTEM "stationlist.dtd">
<stationlist created="" xmlns="ch.ethz.sed.shakemap.usgs.xml">
  <station code="BAC" name="BAC" netid="RO" insttype="2.5V" lat="46.5669" lon="26.9124">
    <comp name="--.HNE">
      <acc value="0.0603390125" flag="0"/>
      <vel value="0.0151990631" flag="0"/>
      <psa03 value="0.0615995986" flag="0"/>
      <psa10 value="0.0064830547" flag="0"/>
      <psa30 value="0.0005027698" flag="0"/>
    </comp>
  </station>
  <station code="BISRR" name="BISRR" netid="RO" insttype="CMG40T.1to100/Basalt" lat="45.5481" lon="26.7099">
    <comp name="--.HHZ">
      <acc value="0.0749263926" flag="0"/>
      <vel value="0.0209166084" flag="0"/>
      <psa03 value="0.1235982118" flag="0"/>
      <psa10 value="0.0146609112" flag="0"/>
      <psa30 value="0.0008305896" flag="0"/>
    </comp>
  </station>
  <station code="BOSR" name="BOSR" netid="RO" insttype="Seismometer/Basalt" lat="46.0749" lon="25.6611">
    <comp name="--.HHZ">
      <acc value="0.0297886605" flag="0"/>
      <vel value="0.0070350336" flag="0"/>
      <psa03 value="0.0174555694" flag="0"/>
      <psa10 value="0.0013511515" flag="0"/>
      <psa30 value="0.0001561665" flag="0"/>
    </comp>
    <comp name="--.HHN">
      <acc value="0.0236160855" flag="0"/>
      <vel value="0.0035210113" flag="0"/>
      <psa03 value="0.0185215142" flag="0"/>
      <psa10 value="0.0019781376" flag="0"/>
      <psa30 value="0.0001208451" flag="0"/>
    </comp>
    <comp name="--.HHE">
      <acc value="0.0145378431" flag="0"/>
      <vel value="0.0032843121" flag="0"/>
      <psa03 value="0.0238995350" flag="0"/>
      <psa10 value="0.0015056746" flag="0"/>
      <psa30 value="0.0000784984" flag="0"/>
    </comp>
  </station>
  <station code="COPR" name="COPR" netid="RO" insttype="200" lat="45.8442" lon="26.1687">
    <comp name="--.HNE">
      <acc value="0.0220812591" flag="0"/>
      <vel value="0.0121193623" flag="0"/>
      <psa03 value="0.0586065487" flag="0"/>
      <psa10 value="0.0055523145" flag="0"/>
      <psa30 value="0.0004931963" flag="0"/>
    </comp>
    <comp name="--.HNN">
      <acc value="0.0170185499" flag="0"/>
      <vel value="0.0085673779" flag="0"/>
      <psa03 value="0.0348780986" flag="0"/>
      <psa10 value="0.0071684595" flag="0"/>
      <psa30 value="0.0011755888" flag="0"/>
    </comp>
    <comp name="--.HNZ">
      <acc value="0.0109551260" flag="0"/>
      <vel value="0.0038412630" flag="0"/>
      <psa03 value="0.0218110638" flag="0"/>
      <psa10 value="0.0025756556" flag="0"/>
      <psa30 value="0.0001745520" flag="0"/>
    </comp>
  </station>
  <station code="DOPR" name="DOPR" netid="RO" insttype="330" lat="45.9675" lon="25.3886">
    <comp name="--.HHE">
      <acc value="0.0750150957" flag="0"/>
      <vel value="0.0113239282" flag="0"/>
      <psa03 value="0.0152283443" flag="0"/>
      <psa10 value="0.0020644951" flag="0"/>
      <psa30 value="0.0001353521" flag="0"/>
    </comp>
    <comp name="--.HHN">
      <acc value="0.0477550267" flag="0"/>
      <vel value="0.0095926048" flag="0"/>
      <psa03 value="0.0236735643" flag="0"/>
      <psa10 value="0.0010694352" flag="0"/>
      <psa30 value="0.0001134650" flag="0"/>
    </comp>
  </station>
  <station code="GISR" name="GISR" netid="RO" insttype="2.5V" lat="45.4411" lon="28.0541">
    <comp name="--.HNN">
      <acc value="0.1367983552" flag="0"/>
      <vel value="0.0308894127" flag="0"/>
      <psa03 value="0.1579377266" flag="0"/>
      <psa10 value="0.0081786961" flag="0"/>
      <psa30 value="0.0007688312" flag="0"/>
    </comp>
    <comp name="--.HNE">
      <acc value="0.1309360242" flag="0"/>
      <vel value="0.0407786557" flag="0"/>
      <psa03 value="0.1559804641" flag="0"/>
      <psa10 value="0.0068237254" flag="0"/>
      <psa30 value="0.0008431770" flag="0"/>
    </comp>
    <comp name="--.HNZ">
      <acc value="0.2032774425" flag="0"/>
      <vel value="0.0316551661" flag="0"/>
      <psa03 value="0.0925934850" flag="0"/>
      <psa10 value="0.0036380437" flag="0"/>
      <psa30 value="0.0005247567" flag="0"/>
    </comp>
  </station>
  <station code="GIUM" name="GIUM" netid="RO" insttype="2.5V" lat="45.485" lon="28.2081">
    <comp name="--.HNE">
      <acc value="0.1244751302" flag="0"/>
      <vel value="0.0201121250" flag="0"/>
      <psa03 value="0.0488136683" flag="0"/>
      <psa10 value="0.0048607513" flag="0"/>
      <psa30 value="0.0006765810" flag="0"/>
    </comp>
    <comp name="--.HNN">
      <acc value="0.0951691779" flag="0"/>
      <vel value="0.0189728669" flag="0"/>
      <psa03 value="0.0536555908" flag="0"/>
      <psa10 value="0.0048255785" flag="0"/>
      <psa30 value="0.0008442557" flag="0"/>
    </comp>
    <comp name="--.HNZ">
      <acc value="0.2480263485" flag="0"/>
      <vel value="0.0368367508" flag="0"/>
      <psa03 value="0.0489192752" flag="0"/>
      <psa10 value="0.0030058955" flag="0"/>
      <psa30 value="0.0005453525" flag="0"/>
    </comp>
  </station>
  <station code="ISR" name="ISR" netid="RO" insttype="CMG3ESP/Quanterra" lat="45.1187" lon="26.5432">
    <comp name="--.HHZ">
      <acc value="0.0444933333" flag="0"/>
      <vel value="0.0076916512" flag="0"/>
      <psa03 value="0.0552908490" flag="0"/>
      <psa10 value="0.0044685716" flag="0"/>
      <psa30 value="0.0002134439" flag="0"/>
    </comp>
    <comp name="--.HHE">
      <acc value="0.0935683875" flag="0"/>
      <vel value="0.0147950098" flag="0"/>
      <psa03 value="0.0821090043" flag="0"/>
      <psa10 value="0.0052606218" flag="0"/>
      <psa30 value="0.0003578972" flag="0"/>
    </comp>
    <comp name="--.HHN">
      <acc value="0.0687928571" flag="0"/>
      <vel value="0.0156518132" flag="0"/>
      <psa03 value="0.1037955634" flag="0"/>
      <psa10 value="0.0056339364" flag="0"/>
      <psa30 value="0.0004358484" flag="0"/>
    </comp>
  </station>
  <station code="IZVR" name="IZVR" netid="RO" insttype="CMG40T.1to100/Quanterra" lat="45.5442" lon="27.7655">
    <comp name="--.HHE">
      <acc value="0.1380798946" flag="0"/>
      <vel value="0.0228361175" flag="0"/>
      <psa03 value="0.0735134325" flag="0"/>
      <psa10 value="0.0042749450" flag="0"/>
      <psa30 value="0.0004123045" flag="0"/>
    </comp>
    <comp name="--.HHN">
      <acc value="0.0984122647" flag="0"/>
      <vel value="0.0213509715" flag="0"/>
      <psa03 value="0.0880567257" flag="0"/>
      <psa10 value="0.0060665084" flag="0"/>
      <psa30 value="0.0005183409" flag="0"/>
    </comp>
    <comp name="--.HHZ">
      <acc value="0.0779795922" flag="0"/>
      <vel value="0.0085863465" flag="0"/>
      <psa03 value="0.0215576381" flag="0"/>
      <psa10 value="0.0010060865" flag="0"/>
      <psa30 value="0.0001063761" flag="0"/>
    </comp>
  </station>
  <station code="MLR" name="MLR" netid="RO" insttype="330HR" lat="45.4909" lon="25.945">
    <comp name="--.HHE">
      <acc value="0.0128294981" flag="0"/>
      <vel value="0.0091807754" flag="0"/>
      <psa03 value="0.0437967296" flag="0"/>
      <psa10 value="0.0056447624" flag="0"/>
      <psa30 value="0.0003536145" flag="0"/>
    </comp>
    <comp name="--.HHN">
      <acc value="0.0141812803" flag="0"/>
      <vel value="0.0062571484" flag="0"/>
      <psa03 value="0.0346892903" flag="0"/>
      <psa10 value="0.0043110619" flag="0"/>
      <psa30 value="0.0004014309" flag="0"/>
    </comp>
    <comp name="--.HHZ">
      <acc value="0.0145783105" flag="0"/>
      <vel value="0.0068939869" flag="0"/>
      <psa03 value="0.0375302567" flag="0"/>
      <psa10 value="0.0031762794" flag="0"/>
      <psa30 value="0.0002168864" flag="0"/>
    </comp>
  </station>
  <station code="NEGRR" name="NEGRR" netid="RO" insttype="CMG40T.1to100/Quanterra" lat="45.5373" lon="27.8771">
    <comp name="--.HHZ">
      <acc value="0.1060682920" flag="0"/>
      <vel value="0.0133297746" flag="0"/>
      <psa03 value="0.0601075196" flag="0"/>
      <psa10 value="0.0027102470" flag="0"/>
      <psa30 value="0.0001803577" flag="0"/>
    </comp>
    <comp name="--.HHE">
      <acc value="0.2352264513" flag="0"/>
      <vel value="0.0319247330" flag="0"/>
      <psa03 value="0.0639486718" flag="0"/>
      <psa10 value="0.0077694083" flag="0"/>
      <psa30 value="0.0004845938" flag="0"/>
    </comp>
    <comp name="--.HHN">
      <acc value="0.2246459524" flag="0"/>
      <vel value="0.0317203000" flag="0"/>
      <psa03 value="0.0594176934" flag="0"/>
      <psa10 value="0.0077493876" flag="0"/>
      <psa30 value="0.0005144422" flag="0"/>
    </comp>
  </station>
  <station code="NEHR" name="NEHR" netid="RO" insttype="Seismometer/Basalt" lat="45.4272" lon="26.2952">
    <comp name="--.HHN">
      <acc value="0.0452532323" flag="0"/>
      <vel value="0.0188249337" flag="0"/>
      <psa03 value="0.0784209338" flag="0"/>
      <psa10 value="0.0052993820" flag="0"/>
      <psa30 value="0.0003679491" flag="0"/>
    </comp>
    <comp name="--.HHE">
      <acc value="0.0341913071" flag="0"/>
      <vel value="0.0110419058" flag="0"/>
      <psa03 value="0.0697058133" flag="0"/>
      <psa10 value="0.0044876440" flag="0"/>
      <psa30 value="0.0002964904" flag="0"/>
    </comp>
    <comp name="--.HHZ">
      <acc value="0.0279278222" flag="0"/>
      <vel value="0.0066642356" flag="0"/>
      <psa03 value="0.0423272817" flag="0"/>
      <psa10 value="0.0021705844" flag="0"/>
      <psa30 value="0.0001510242" flag="0"/>
    </comp>
  </station>
  <station code="ODBI" name="ODBI" netid="RO" insttype="PBB.1to100/Quanterra" lat="45.7633" lon="27.0558">
    <comp name="--.HHE">
      <acc value="1.3141313451" flag="0"/>
      <vel value="0.2454199409" flag="0"/>
      <psa03 value="0.4006583115" flag="0"/>
      <psa10 value="0.0477187904" flag="0"/>
      <psa30 value="0.0031660469" flag="0"/>
    </comp>
    <comp name="--.HHZ">
      <acc value="0.0003347671" flag="0"/>
      <vel value="0.0000307730" flag="0"/>
      <psa03 value="0.0000802509" flag="0"/>
      <psa10 value="0.0000134196" flag="0"/>
      <psa30 value="0.0000021927" flag="0"/>
    </comp>
    <comp name="--.HHN">
      <acc value="0.8960875737" flag="0"/>
      <vel value="0.1603432146" flag="0"/>
      <psa03 value="0.5815743109" flag="0"/>
      <psa10 value="0.0263915335" flag="0"/>
      <psa30 value="0.0026265064" flag="0"/>
    </comp>
  </station>
  <station code="ONER" name="ONER" netid="RO" insttype="CMG40T.1to100/obsidian" lat="46.3349" lon="26.394">
    <comp name="--.HHN">
      <acc value="0.0130208512" flag="0"/>
      <vel value="0.0014729320" flag="0"/>
      <psa03 value="0.0053179867" flag="0"/>
      <psa10 value="0.0008857230" flag="0"/>
      <psa30 value="0.0000416979" flag="0"/>
    </comp>
    <comp name="--.HHE">
      <acc value="0.0080321476" flag="0"/>
      <vel value="0.0014868796" flag="0"/>
      <psa03 value="0.0058341514" flag="0"/>
      <psa10 value="0.0008544944" flag="0"/>
      <psa30 value="0.0000535046" flag="0"/>
    </comp>
    <comp name="--.HHZ">
      <acc value="0.0134178137" flag="0"/>
      <vel value="0.0039226337" flag="0"/>
      <psa03 value="0.0104401036" flag="0"/>
      <psa10 value="0.0007567026" flag="0"/>
      <psa30 value="0.0000698116" flag="0"/>
    </comp>
  </station>
  <station code="PANC" name="PANC" netid="RO" insttype="Seismometer/Basalt" lat="45.8723" lon="27.1477">
    <comp name="--.HHE">
      <acc value="0.1340949501" flag="0"/>
      <vel value="0.0271570185" flag="0"/>
      <psa03 value="0.0935273872" flag="0"/>
      <psa10 value="0.0075795365" flag="0"/>
      <psa30 value="0.0006254804" flag="0"/>
    </comp>
    <comp name="--.HHN">
      <acc value="0.3657114239" flag="0"/>
      <vel value="0.0639724351" flag="0"/>
      <psa03 value="0.1567147016" flag="0"/>
      <psa10 value="0.0473032690" flag="0"/>
      <psa30 value="0.0240412179" flag="0"/>
    </comp>
    <comp name="--.HHZ">
      <acc value="0.1207151210" flag="0"/>
      <vel value="0.0177534121" flag="0"/>
      <psa03 value="0.0502093114" flag="0"/>
      <psa10 value="0.0020536464" flag="0"/>
      <psa30 value="0.0001913673" flag="0"/>
    </comp>
  </station>
  <station code="PGOR" name="PGOR" netid="RO" insttype="CMG40T.1to100/Quanterra" lat="44.9199" lon="26.9768">
    <comp name="--.HHE">
      <acc value="0.1114169990" flag="0"/>
      <vel value="0.0248282101" flag="0"/>
      <psa03 value="0.0399313597" flag="0"/>
      <psa10 value="0.0059040035" flag="0"/>
      <psa30 value="0.0005525005" flag="0"/>
    </comp>
    <comp name="--.HHN">
      <acc value="0.1063959325" flag="0"/>
      <vel value="0.0206543662" flag="0"/>
      <psa03 value="0.0508433481" flag="0"/>
      <psa10 value="0.0037112855" flag="0"/>
      <psa30 value="0.0004483986" flag="0"/>
    </comp>
    <comp name="--.HHZ">
      <acc value="0.2004813193" flag="0"/>
      <vel value="0.0265299431" flag="0"/>
      <psa03 value="0.0220681217" flag="0"/>
      <psa10 value="0.0018036406" flag="0"/>
      <psa30 value="0.0002017365" flag="0"/>
    </comp>
  </station>
  <station code="PLAR" name="PLAR" netid="RO" insttype="200" lat="44.9142" lon="26.0274">
    <comp name="--.HNE">
      <acc value="0.1393695909" flag="0"/>
      <vel value="0.0347530761" flag="0"/>
      <psa03 value="0.1276564748" flag="0"/>
      <psa10 value="0.0050210409" flag="0"/>
      <psa30 value="0.0006650970" flag="0"/>
    </comp>
    <comp name="--.HNZ">
      <acc value="0.0637756549" flag="0"/>
      <vel value="0.0083628935" flag="0"/>
      <psa03 value="0.0165114378" flag="0"/>
      <psa10 value="0.0010381327" flag="0"/>
      <psa30 value="0.0001090628" flag="0"/>
    </comp>
    <comp name="--.HNN">
      <acc value="0.0797616009" flag="0"/>
      <vel value="0.0169624558" flag="0"/>
      <psa03 value="0.0864119059" flag="0"/>
      <psa10 value="0.0040568120" flag="0"/>
      <psa30 value="0.0006153739" flag="0"/>
    </comp>
  </station>
  <station code="PLOR" name="PLOR" netid="RO" insttype="330" lat="45.8512" lon="26.6498">
    <comp name="--.HHZ">
      <acc value="0.0202638023" flag="0"/>
      <vel value="0.0057831780" flag="0"/>
      <psa03 value="0.0218798590" flag="0"/>
      <psa10 value="0.0019263870" flag="0"/>
      <psa30 value="0.0001424726" flag="0"/>
    </comp>
    <comp name="--.HHN">
      <acc value="0.0343496933" flag="0"/>
      <vel value="0.0143756588" flag="0"/>
      <psa03 value="0.0610170432" flag="0"/>
      <psa10 value="0.0058329895" flag="0"/>
      <psa30 value="0.0004473372" flag="0"/>
    </comp>
    <comp name="--.HHE">
      <acc value="0.0302280557" flag="0"/>
      <vel value="0.0117768190" flag="0"/>
      <psa03 value="0.0592576891" flag="0"/>
      <psa10 value="0.0047641681" flag="0"/>
      <psa30 value="0.0004238988" flag="0"/>
    </comp>
  </station>
  <station code="PLOR4" name="PLOR4" netid="RO" insttype="330" lat="45.8512" lon="26.6498">
    <comp name="--.HHZ">
      <acc value="0.0202638023" flag="0"/>
      <vel value="0.0057831780" flag="0"/>
      <psa03 value="0.0218798590" flag="0"/>
      <psa10 value="0.0019263870" flag="0"/>
      <psa30 value="0.0001424726" flag="0"/>
    </comp>
    <comp name="--.HHN">
      <acc value="0.0343496933" flag="0"/>
      <vel value="0.0143756588" flag="0"/>
      <psa03 value="0.0610170432" flag="0"/>
      <psa10 value="0.0058329895" flag="0"/>
      <psa30 value="0.0004473372" flag="0"/>
    </comp>
    <comp name="--.HHE">
      <acc value="0.0302280557" flag="0"/>
      <vel value="0.0117768190" flag="0"/>
      <psa03 value="0.0592576891" flag="0"/>
      <psa10 value="0.0047641681" flag="0"/>
      <psa30 value="0.0004238988" flag="0"/>
    </comp>
  </station>
  <station code="SAHR" name="SAHR" netid="RO" insttype="Seismometer/Basalt" lat="45.7266" lon="26.6855">
    <comp name="--.HHE">
      <acc value="0.2259625782" flag="0"/>
      <vel value="0.0518178133" flag="0"/>
      <psa03 value="0.0496631745" flag="0"/>
      <psa10 value="0.0299233300" flag="0"/>
      <psa30 value="0.0166944085" flag="0"/>
    </comp>
    <comp name="--.HHZ">
      <acc value="0.0879012137" flag="0"/>
      <vel value="0.0282550675" flag="0"/>
      <psa03 value="0.1239097236" flag="0"/>
      <psa10 value="0.0155158661" flag="0"/>
      <psa30 value="0.0096094618" flag="0"/>
    </comp>
    <comp name="--.HHN">
      <acc value="0.1053526313" flag="0"/>
      <vel value="0.0440977890" flag="0"/>
      <psa03 value="0.3318593044" flag="0"/>
      <psa10 value="0.0143554090" flag="0"/>
      <psa30 value="0.0009517551" flag="0"/>
    </comp>
  </station>
  <station code="SCHL" name="SCHL" netid="RO" insttype="CMG40T.1to100/Quanterra" lat="45.5007" lon="27.8302">
    <comp name="--.HHN">
      <acc value="0.0894650380" flag="0"/>
      <vel value="0.0199847319" flag="0"/>
      <psa03 value="0.0697066842" flag="0"/>
      <psa10 value="0.0138657659" flag="0"/>
      <psa30 value="0.0007283000" flag="0"/>
    </comp>
    <comp name="--.HHE">
      <acc value="0.1380174880" flag="0"/>
      <vel value="0.0271526943" flag="0"/>
      <psa03 value="0.1111015101" flag="0"/>
      <psa10 value="0.0107560336" flag="0"/>
      <psa30 value="0.0006473346" flag="0"/>
    </comp>
    <comp name="--.HHZ">
      <acc value="0.1318694729" flag="0"/>
      <vel value="0.0193193405" flag="0"/>
      <psa03 value="0.0387432622" flag="0"/>
      <psa10 value="0.0027318207" flag="0"/>
      <psa30 value="0.0002174401" flag="0"/>
    </comp>
  </station>
  <station code="SCHLR" name="SCHLR" netid="RO" insttype="CMG40T.1to100/Quanterra" lat="45.4702" lon="27.8314">
    <comp name="--.HHE">
      <acc value="0.1495664075" flag="0"/>
      <vel value="0.0270508001" flag="0"/>
      <psa03 value="0.0396015688" flag="0"/>
      <psa10 value="0.0039218031" flag="0"/>
      <psa30 value="0.0002490805" flag="0"/>
    </comp>
    <comp name="--.HHN">
      <acc value="0.1157005966" flag="0"/>
      <vel value="0.0226748369" flag="0"/>
      <psa03 value="0.0816240485" flag="0"/>
      <psa10 value="0.0063721409" flag="0"/>
      <psa30 value="0.0004378051" flag="0"/>
    </comp>
    <comp name="--.HHZ">
      <acc value="0.0863237062" flag="0"/>
      <vel value="0.0113074287" flag="0"/>
      <psa03 value="0.0176925106" flag="0"/>
      <psa10 value="0.0016174620" flag="0"/>
      <psa30 value="0.0001267443" flag="0"/>
    </comp>
  </station>
  <station code="SULR" name="SULR" netid="RO" insttype="330" lat="44.6777" lon="26.2526">
    <comp name="--.HHE">
      <acc value="0.0834557191" flag="0"/>
      <vel value="0.0254697676" flag="0"/>
      <psa03 value="0.1702502627" flag="0"/>
      <psa10 value="0.0052439301" flag="0"/>
      <psa30 value="0.0006934798" flag="0"/>
    </comp>
    <comp name="--.HHN">
      <acc value="0.0899611090" flag="0"/>
      <vel value="0.0409138978" flag="0"/>
      <psa03 value="0.1413334160" flag="0"/>
      <psa10 value="0.0146780728" flag="0"/>
      <psa30 value="0.0009749643" flag="0"/>
    </comp>
    <comp name="--.HHZ">
      <acc value="0.1299941804" flag="0"/>
      <vel value="0.0215839147" flag="0"/>
      <psa03 value="0.0477655933" flag="0"/>
      <psa10 value="0.0031702359" flag="0"/>
      <psa30 value="0.0003362172" flag="0"/>
    </comp>
  </station>
  <station code="TATR" name="TATR" netid="RO" insttype="MBB2/Basalt" lat="45.5977" lon="28.0498">
    <comp name="--.HHZ">
      <acc value="0.3345726093" flag="0"/>
      <vel value="0.0436663351" flag="0"/>
      <psa03 value="0.0747687719" flag="0"/>
      <psa10 value="0.0037841103" flag="0"/>
      <psa30 value="0.0003751328" flag="0"/>
    </comp>
    <comp name="--.HHE">
      <acc value="0.1803589261" flag="0"/>
      <vel value="0.0320239435" flag="0"/>
      <psa03 value="0.1234922429" flag="0"/>
      <psa10 value="0.0085220948" flag="0"/>
      <psa30 value="0.0008709234" flag="0"/>
    </comp>
    <comp name="--.HHN">
      <acc value="0.1745901576" flag="0"/>
