<?xml version="1.0" encoding="UTF-8" standalone="yes"?>
<!DOCTYPE earthquake SYSTEM "stationlist.dtd">
<stationlist created="" xmlns="ch.ethz.sed.shakemap.usgs.xml">
  <station code="MYT1" name="MYT1" netid="HI" insttype="CMG-5TD,ACCELEROMETER,GURALP" lat="39.085" lon="26.5694">
    <comp name="--.HNN">
      <acc value="0.0369463855" flag="0"/>
      <vel value="0.0336342415" flag="0"/>
      <psa03 value="0.0532320784" flag="0"/>
      <psa10 value="0.0549488869" flag="0"/>
      <psa30 value="0.0029152997" flag="0"/>
    </comp>
    <comp name="--.HNZ">
      <acc value="0.0479618997" flag="0"/>
      <vel value="0.0177231742" flag="0"/>
      <psa03 value="0.0532617027" flag="0"/>
      <psa10 value="0.0321000379" flag="0"/>
      <psa30 value="0.0017537342" flag="0"/>
    </comp>
    <comp name="--.HNE">
      <acc value="0.0330143106" flag="0"/>
      <vel value="0.0222368143" flag="0"/>
      <psa03 value="0.0489330753" flag="0"/>
      <psa10 value="0.0422477987" flag="0"/>
      <psa30 value="0.0024801802" flag="0"/>
    </comp>
  </station>
  <station code="LIA" name="LIA" netid="HL" insttype="P6C" lat="39.8972" lon="25.1806">
    <comp name="--.HHN">
      <acc value="0.0053499436" flag="0"/>
      <vel value="0.0026700607" flag="0"/>
      <psa03 value="0.0126237217" flag="0"/>
      <psa10 value="0.0041163139" flag="0"/>
      <psa30 value="0.0003798801" flag="0"/>
    </comp>
    <comp name="--.HHE">
      <acc value="0.0043514155" flag="0"/>
      <vel value="0.0020247952" flag="0"/>
      <psa03 value="0.0120887473" flag="0"/>
      <psa10 value="0.0027908616" flag="0"/>
      <psa30 value="0.0002229594" flag="0"/>
    </comp>
    <comp name="--.HHZ">
      <acc value="0.0041773342" flag="0"/>
      <vel value="0.0013150268" flag="0"/>
      <psa03 value="0.0058208504" flag="0"/>
      <psa10 value="0.0024306519" flag="0"/>
      <psa30 value="0.0001964316" flag="0"/>
    </comp>
  </station>
  <station code="PRK" name="PRK" netid="HL" insttype="120" lat="39.2456" lon="26.265">
    <comp name="--.HHN">
      <acc value="0.2727676596" flag="0"/>
      <vel value="0.1323604944" flag="0"/>
      <psa03 value="0.4593588502" flag="0"/>
      <psa10 value="0.1867669718" flag="0"/>
      <psa30 value="0.0096241274" flag="0"/>
    </comp>
    <comp name="--.HHE">
      <acc value="0.3645986762" flag="0"/>
      <vel value="0.1217721155" flag="0"/>
      <psa03 value="0.4961780399" flag="0"/>
      <psa10 value="0.1494467275" flag="0"/>
      <psa30 value="0.0091066130" flag="0"/>
    </comp>
    <comp name="--.HHZ">
      <acc value="0.2378590923" flag="0"/>
      <vel value="0.0886091956" flag="0"/>
      <psa03 value="0.3484477974" flag="0"/>
      <psa10 value="0.0866833780" flag="0"/>
      <psa30 value="0.0044077643" flag="0"/>
    </comp>
  </station>
  <station code="CHOS" name="CHOS" netid="HT" insttype="100" lat="38.3869" lon="26.0506">
    <comp name="--.HHN">
      <acc value="0.0089486451" flag="0"/>
      <vel value="0.0035903428" flag="0"/>
      <psa03 value="0.0185949669" flag="0"/>
      <psa10 value="0.0038532277" flag="0"/>
      <psa30 value="0.0005180989" flag="0"/>
    </comp>
    <comp name="--.HHZ">
      <acc value="0.0059207768" flag="0"/>
      <vel value="0.0017569481" flag="0"/>
      <psa03 value="0.0082039671" flag="0"/>
      <psa10 value="0.0017264283" flag="0"/>
      <psa30 value="0.0002745964" flag="0"/>
    </comp>
    <comp name="--.HHE">
      <acc value="0.0142418623" flag="0"/>
      <vel value="0.0042091156" flag="0"/>
      <psa03 value="0.0226439071" flag="0"/>
      <psa10 value="0.0043846422" flag="0"/>
      <psa30 value="0.0002923768" flag="0"/>
    </comp>
  </station>
  <station code="SIGR" name="SIGR" netid="HT" insttype="100" lat="39.2114" lon="25.8553">
    <comp name="--.HHE">
      <acc value="0.0441467608" flag="0"/>
      <vel value="0.0145190901" flag="0"/>
      <psa03 value="0.0474536279" flag="0"/>
      <psa10 value="0.0079938594" flag="0"/>
      <psa30 value="0.0009419332" flag="0"/>
    </comp>
    <comp name="--.HHZ">
      <acc value="0.0365479029" flag="0"/>
      <vel value="0.0120177071" flag="0"/>
      <psa03 value="0.0277043070" flag="0"/>
      <psa10 value="0.0063604931" flag="0"/>
      <psa30 value="0.0003586970" flag="0"/>
    </comp>
    <comp name="--.HHN">
      <acc value="0.0534733831" flag="0"/>
      <vel value="0.0286558440" flag="0"/>
      <psa03 value="0.0894423558" flag="0"/>
      <psa10 value="0.0285300398" flag="0"/>
      <psa30 value="0.0024291804" flag="0"/>
    </comp>
  </station>
  <station code="EZN" name="EZN" netid="KO" insttype="120s," lat="39.8255" lon="26.3247">
    <comp name="--.HHE">
      <acc value="0.0666547372" flag="0"/>
      <vel value="0.0119918751" flag="0"/>
      <psa03 value="0.0317045102" flag="0"/>
      <psa10 value="0.0081770300" flag="0"/>
      <psa30 value="0.0006403725" flag="0"/>
    </comp>
    <comp name="--.HHN">
      <acc value="0.0737789471" flag="0"/>
      <vel value="0.0143433341" flag="0"/>
      <psa03 value="0.0379259920" flag="0"/>
      <psa10 value="0.0158569867" flag="0"/>
      <psa30 value="0.0006949512" flag="0"/>
    </comp>
    <comp name="--.HHZ">
      <acc value="0.0426475299" flag="0"/>
      <vel value="0.0076342261" flag="0"/>
      <psa03 value="0.0257831046" flag="0"/>
      <psa10 value="0.0063231921" flag="0"/>
      <psa30 value="0.0005460656" flag="0"/>
    </comp>
  </station>
  <station code="EZNE" name="EZNE" netid="KO" insttype="CMG-5T" lat="39.756" lon="26.3655">
    <comp name="--.HNE">
      <acc value="0.0402047581" flag="0"/>
      <vel value="0.0173592599" flag="0"/>
      <psa03 value="0.0895916649" flag="0"/>
      <psa10 value="0.0125832937" flag="0"/>
      <psa30 value="0.0008031220" flag="0"/>
    </comp>
    <comp name="--.HNN">
      <acc value="0.0539023857" flag="0"/>
      <vel value="0.0132722015" flag="0"/>
      <psa03 value="0.0697914241" flag="0"/>
      <psa10 value="0.0147619538" flag="0"/>
      <psa30 value="0.0011690402" flag="0"/>
    </comp>
    <comp name="--.HNZ">
      <acc value="0.0698678128" flag="0"/>
      <vel value="0.0183102789" flag="0"/>
      <psa03 value="0.0348185123" flag="0"/>
      <psa10 value="0.0073452826" flag="0"/>
      <psa30 value="0.0006332112" flag="0"/>
    </comp>
  </station>
  <station code="FOCM" name="FOCM" netid="KO" insttype="CMG-5T" lat="38.7131" lon="26.7309">
    <comp name="--.HNE">
      <acc value="0.0198604667" flag="0"/>
      <vel value="0.0112629196" flag="0"/>
      <psa03 value="0.0322973266" flag="0"/>
      <psa10 value="0.0162572977" flag="0"/>
      <psa30 value="0.0012864926" flag="0"/>
    </comp>
    <comp name="--.HNN">
      <acc value="0.0176146444" flag="0"/>
      <vel value="0.0140397731" flag="0"/>
      <psa03 value="0.0213362506" flag="0"/>
      <psa10 value="0.0186821068" flag="0"/>
      <psa30 value="0.0012653244" flag="0"/>
    </comp>
    <comp name="--.HNZ">
      <acc value="0.0163937757" flag="0"/>
      <vel value="0.0045422431" flag="0"/>
      <psa03 value="0.0172902705" flag="0"/>
      <psa10 value="0.0037053708" flag="0"/>
      <psa30 value="0.0003442626" flag="0"/>
    </comp>
  </station>
  <station code="GELI" name="GELI" netid="KO" insttype="30s," lat="40.398" lon="26.4742">
    <comp name="--.HHZ">
      <acc value="0.0043098865" flag="0"/>
      <vel value="0.0014237269" flag="0"/>
      <psa03 value="0.0062287444" flag="0"/>
      <psa10 value="0.0019072389" flag="0"/>
      <psa30 value="0.0002043438" flag="0"/>
    </comp>
    <comp name="--.HHN">
      <acc value="0.0031723036" flag="0"/>
      <vel value="0.0015663903" flag="0"/>
      <psa03 value="0.0083287731" flag="0"/>
      <psa10 value="0.0018677060" flag="0"/>
      <psa30 value="0.0002406870" flag="0"/>
    </comp>
    <comp name="--.HHE">
      <acc value="0.0037941475" flag="0"/>
      <vel value="0.0024625974" flag="0"/>
      <psa03 value="0.0087193435" flag="0"/>
      <psa10 value="0.0029949919" flag="0"/>
      <psa30 value="0.0003615122" flag="0"/>
    </comp>
  </station>
  <station code="GPNR" name="GPNR" netid="KO" insttype="CMG-5T" lat="39.456" lon="26.1331">
    <comp name="--.HNN">
      <acc value="0.4892994111" flag="0"/>
      <vel value="0.1415654498" flag="0"/>
      <psa03 value="0.4656291361" flag="0"/>
      <psa10 value="0.0645529490" flag="0"/>
      <psa30 value="0.0071407158" flag="0"/>
    </comp>
    <comp name="--.HNE">
      <acc value="0.4801210952" flag="0"/>
      <vel value="0.1630174104" flag="0"/>
      <psa03 value="0.5242124103" flag="0"/>
      <psa10 value="0.1395462484" flag="0"/>
      <psa30 value="0.0121479513" flag="0"/>
    </comp>
    <comp name="--.HNZ">
      <acc value="0.2595216917" flag="0"/>
      <vel value="0.0945698595" flag="0"/>
      <psa03 value="0.2814607238" flag="0"/>
      <psa10 value="0.0583703147" flag="0"/>
      <psa30 value="0.0027496628" flag="0"/>
    </comp>
  </station>
  <station code="LAP" name="LAP" netid="KO" insttype="30s," lat="40.3703" lon="26.7593">
    <comp name="--.HHN">
      <acc value="0.0130145949" flag="0"/>
      <vel value="0.0062586598" flag="0"/>
      <psa03 value="0.0208520019" flag="0"/>
      <psa10 value="0.0110868784" flag="0"/>
      <psa30 value="0.0008562232" flag="0"/>
    </comp>
    <comp name="--.HHZ">
      <acc value="0.0084471289" flag="0"/>
      <vel value="0.0035777386" flag="0"/>
      <psa03 value="0.0121574333" flag="0"/>
      <psa10 value="0.0031446373" flag="0"/>
      <psa30 value="0.0002193677" flag="0"/>
    </comp>
    <comp name="--.HHE">
      <acc value="0.0095945248" flag="0"/>
      <vel value="0.0040000943" flag="0"/>
      <psa03 value="0.0165881410" flag="0"/>
      <psa10 value="0.0067417927" flag="0"/>
      <psa30 value="0.0003942770" flag="0"/>
    </comp>
  </station>
  <station code="LAPK" name="LAPK" netid="KO" insttype="CMG-5T" lat="40.3151" lon="26.6425">
    <comp name="--.HNE">
      <acc value="0.0248601825" flag="0"/>
      <vel value="0.0112567795" flag="0"/>
      <psa03 value="0.0534499499" flag="0"/>
      <psa10 value="0.0183682636" flag="0"/>
      <psa30 value="0.0009350350" flag="0"/>
    </comp>
    <comp name="--.HNZ">
      <acc value="0.0163028062" flag="0"/>
      <vel value="0.0055627891" flag="0"/>
      <psa03 value="0.0227827083" flag="0"/>
      <psa10 value="0.0054315743" flag="0"/>
      <psa30 value="0.0005023172" flag="0"/>
    </comp>
    <comp name="--.HNN">
      <acc value="0.0399305177" flag="0"/>
      <vel value="0.0188164283" flag="0"/>
      <psa03 value="0.0527763196" flag="0"/>
      <psa10 value="0.0154697401" flag="0"/>
      <psa30 value="0.0012214963" flag="0"/>
    </comp>
  </station>
  <station code="SOMA" name="SOMA" netid="KO" insttype="CMG-5T" lat="39.1564" lon="27.5341">
    <comp name="--.HNE">
      <acc value="0.0092787323" flag="0"/>
      <vel value="0.0061304060" flag="0"/>
      <psa03 value="0.0169523097" flag="0"/>
      <psa10 value="0.0095227947" flag="0"/>
      <psa30 value="0.0006396260" flag="0"/>
    </comp>
    <comp name="--.HNN">
      <acc value="0.0093117355" flag="0"/>
      <vel value="0.0058610963" flag="0"/>
      <psa03 value="0.0205681643" flag="0"/>
      <psa10 value="0.0059147460" flag="0"/>
      <psa30 value="0.0006342380" flag="0"/>
    </comp>
    <comp name="--.HNZ">
      <acc value="0.0069811939" flag="0"/>
      <vel value="0.0039024221" flag="0"/>
      <psa03 value="0.0127767191" flag="0"/>
      <psa10 value="0.0057379898" flag="0"/>
      <psa30 value="0.0003843551" flag="0"/>
    </comp>
  </station>
  <station code="YAYO" name="YAYO" netid="KO" insttype="CMG-6T" lat="39.6113" lon="27.0726">
    <comp name="--.HHE">
      <acc value="0.0408331884" flag="0"/>
      <vel value="0.0201710941" flag="0"/>
      <psa03 value="0.0966595861" flag="0"/>
      <psa10 value="0.0102626030" flag="0"/>
      <psa30 value="0.0006957141" flag="0"/>
    </comp>
    <comp name="--.HHN">
      <acc value="0.0286257987" flag="0"/>
      <vel value="0.0142608449" flag="0"/>
      <psa03 value="0.0948735379" flag="0"/>
      <psa10 value="0.0100804419" flag="0"/>
      <psa30 value="0.0008505828" flag="0"/>
    </comp>
    <comp name="--.HHZ">
      <acc value="0.0261556979" flag="0"/>
      <vel value="0.0082499152" flag="0"/>
      <psa03 value="0.0750720554" flag="0"/>
      <psa10 value="0.0047241696" flag="0"/>
      <psa30 value="0.0003809379" flag="0"/>
    </comp>
  </station>
</stationlist>
