<?xml version="1.0" encoding="UTF-8" standalone="yes"?>
<!DOCTYPE earthquake SYSTEM "stationlist.dtd">
<stationlist created="" xmlns="ch.ethz.sed.shakemap.usgs.xml">
  <station code="URFA" name="URFA" netid="KO" insttype="CMG-3ESP" lat="37.4409" lon="38.8213">
    <comp name="--.HHE">
      <acc value="0.0054683803" flag="0"/>
      <vel value="0.0007396601" flag="0"/>
      <psa03 value="0.0022299946" flag="0"/>
      <psa10 value="0.0004321209" flag="0"/>
      <psa30 value="0.0000209982" flag="0"/>
    </comp>
    <comp name="--.HHN">
      <acc value="0.0046164569" flag="0"/>
      <vel value="0.0008057361" flag="0"/>
      <psa03 value="0.0028593304" flag="0"/>
      <psa10 value="0.0002459955" flag="0"/>
      <psa30 value="0.0000207787" flag="0"/>
    </comp>
    <comp name="--.HHZ">
      <acc value="0.0072101894" flag="0"/>
      <vel value="0.0010656440" flag="0"/>
      <psa03 value="0.0014862487" flag="0"/>
      <psa10 value="0.0001409718" flag="0"/>
      <psa30 value="0.0000202433" flag="0"/>
    </comp>
  </station>
</stationlist>
