<stationlist xmlns:esm="https://esm-db.eu/esmws/shakemap/1/" created="1783994174">
	<station code="ARG2" name="ARG2" netid="HI" source="ITSAK Strong Motion Network" insttype="" lat="38.1783" lon="20.4878" esm:processing="manual (Paolucci et al 2011)" esm:quality="best">
		<comp name="--.HNE" depth="0.0">
			<acc value="0.0382488220547281" flag="0"/>
			<vel value="0.0175323769468799" flag="0"/>
			<psa03 value="0.0611625964471775" flag="0"/>
			<psa10 value="0.0297258272330474" flag="0"/>
			<psa30 value="0.00146083304608657" flag="0"/>
		</comp>
		<comp name="--.HNN" depth="0.0">
			<acc value="0.0422652393434189" flag="0"/>
			<vel value="0.0152506633880766" flag="0"/>
			<psa03 value="0.0588807439096456" flag="0"/>
			<psa10 value="0.0185031395469863" flag="0"/>
			<psa30 value="0.00116598190447216" flag="0"/>
		</comp>
		<comp name="--.HNZ" depth="0.0">
			<acc value="0.0290149980758333" flag="0"/>
			<vel value="0.00869658583689241" flag="0"/>
			<psa03 value="0.0376281957659665" flag="0"/>
			<psa10 value="0.00753816697104642" flag="0"/>
			<psa30 value="0.000861734899467914" flag="0"/>
		</comp>
	</station>
	<station code="KLV1" name="KLV1" netid="HI" source="ITSAK Strong Motion Network" insttype="" lat="38.03256" lon="22.10797" esm:processing="manual (Paolucci et al 2011)" esm:quality="best">
		<comp name="--.HNE" depth="0.0">
			<acc value="0.00549818686560942" flag="0"/>
			<vel value="0.00630226206373203" flag="0"/>
			<psa03 value="0.020581415044405" flag="0"/>
			<psa10 value="0.00880258173007878" flag="0"/>
			<psa30 value="0.000918557501873119" flag="0"/>
		</comp>
		<comp name="--.HNN" depth="0.0">
			<acc value="0.00525901909339296" flag="0"/>
			<vel value="0.00520756054541505" flag="0"/>
			<psa03 value="0.0130647243325354" flag="0"/>
			<psa10 value="0.00736904143002936" flag="0"/>
			<psa30 value="0.000655473326957681" flag="0"/>
		</comp>
		<comp name="--.HNZ" depth="0.0">
			<acc value="0.00310907147387518" flag="0"/>
			<vel value="0.00334628743032464" flag="0"/>
			<psa03 value="0.00890369911703608" flag="0"/>
			<psa10 value="0.00508987342489459" flag="0"/>
			<psa30 value="0.000527958038095607" flag="0"/>
		</comp>
	</station>
	<station code="KRI1" name="KRI1" netid="HI" source="ITSAK Strong Motion Network" insttype="" lat="37.6621" lon="20.8172" esm:processing="manual (Paolucci et al 2011)" esm:quality="good">
		<comp name="--.HNE" depth="0.0">
			<acc value="0.478076430642916" flag="0"/>
			<vel value="0.161274248358136" flag="0"/>
			<psa03 value="0.802406733492086" flag="0"/>
			<psa10 value="0.0593348773068211" flag="0"/>
			<psa30 value="0.00566794273440267" flag="0"/>
		</comp>
		<comp name="--.HNN" depth="0.0">
			<acc value="0.623487180896565" flag="0"/>
			<vel value="0.226332037987101" flag="0"/>
			<psa03 value="0.599635053098078" flag="0"/>
			<psa10 value="0.126026715647885" flag="0"/>
			<psa30 value="0.00936678095553519" flag="0"/>
		</comp>
		<comp name="--.HNZ" depth="0.0">
			<acc value="0.33907253728541" flag="0"/>
			<vel value="0.0946410083767901" flag="0"/>
			<psa03 value="0.30626040430207" flag="0"/>
			<psa10 value="0.0351257641498066" flag="0"/>
			<psa30 value="0.00349391891482084" flag="0"/>
		</comp>
	</station>
	<station code="MSL1" name="MSL1" netid="HI" source="ITSAK Strong Motion Network" insttype="" lat="38.3727" lon="21.4243" esm:processing="manual (Paolucci et al 2011)" esm:quality="good">
		<comp name="--.HNE" depth="0.0">
			<acc value="0.014320316326186" flag="0"/>
			<vel value="0.0172607534127354" flag="0"/>
			<psa03 value="0.0362411873608001" flag="0"/>
			<psa10 value="0.0359794454520832" flag="0"/>
			<psa30 value="0.00314671939146305" flag="0"/>
		</comp>
		<comp name="--.HNN" depth="0.0">
			<acc value="0.0177647460356641" flag="0"/>
			<vel value="0.0192661617787154" flag="0"/>
			<psa03 value="0.0427288073204495" flag="0"/>
			<psa10 value="0.0386693469139737" flag="0"/>
			<psa30 value="0.00246484816260059" flag="0"/>
		</comp>
		<comp name="--.HNZ" depth="0.0">
			<acc value="0.00727350414375976" flag="0"/>
			<vel value="0.00869689275780714" flag="0"/>
			<psa03 value="0.0164203898289057" flag="0"/>
			<psa10 value="0.0242091131570145" flag="0"/>
			<psa30 value="0.000904239995755272" flag="0"/>
		</comp>
	</station>
	<station code="PYL1" name="PYL1" netid="HI" source="ITSAK Strong Motion Network" insttype="" lat="36.914188" lon="21.695161" esm:processing="manual (Paolucci et al 2011)" esm:quality="best">
		<comp name="--.HNE" depth="0.0">
			<acc value="0.0205710461590965" flag="0"/>
			<vel value="0.00742527564466932" flag="0"/>
			<psa03 value="0.0516772486441039" flag="0"/>
			<psa10 value="0.00426035291419184" flag="0"/>
			<psa30 value="0.000518114752639587" flag="0"/>
		</comp>
		<comp name="--.HNN" depth="0.0">
			<acc value="0.0202042233176326" flag="0"/>
			<vel value="0.0064529635511399" flag="0"/>
			<psa03 value="0.0303352160871883" flag="0"/>
			<psa10 value="0.00342680560489343" flag="0"/>
			<psa30 value="0.000455475663374006" flag="0"/>
		</comp>
		<comp name="--.HNZ" depth="0.0">
			<acc value="0.0109150128938229" flag="0"/>
			<vel value="0.00326420364808069" flag="0"/>
			<psa03 value="0.0216104857966253" flag="0"/>
			<psa10 value="0.0023637307756433" flag="0"/>
			<psa30 value="0.000394178840306974" flag="0"/>
		</comp>
	</station>
	<station code="ITM" name="ITM" netid="HL" source="National Observatory of Athens Seismic Network" insttype="" lat="37.17872" lon="21.92522" esm:processing="manual (Paolucci et al 2011)" esm:quality="good">
		<comp name="--.HNE" depth="0.0">
			<acc value="0.00705268671761648" flag="0"/>
			<vel value="0.00445944328069041" flag="0"/>
			<psa03 value="0.0129163191844226" flag="0"/>
			<psa10 value="0.00534661434321041" flag="0"/>
			<psa30 value="0.00107875583727996" flag="0"/>
		</comp>
		<comp name="--.HNN" depth="0.0">
			<acc value="0.00715178218898946" flag="0"/>
			<vel value="0.00537744623667079" flag="0"/>
			<psa03 value="0.018470213144307" flag="0"/>
			<psa10 value="0.00948854106927849" flag="0"/>
			<psa30 value="0.00116836271079556" flag="0"/>
		</comp>
		<comp name="--.HNZ" depth="0.0">
			<acc value="0.00509195993025213" flag="0"/>
			<vel value="0.0052071028879173" flag="0"/>
			<psa03 value="0.00749921293188584" flag="0"/>
			<psa10 value="0.00883855082311467" flag="0"/>
			<psa30 value="0.000668345003743097" flag="0"/>
		</comp>
	</station>
	<station code="PATC" name="PATC" netid="HL" source="National Observatory of Athens Seismic Network" insttype="" lat="38.26933" lon="21.76001" esm:processing="manual (Paolucci et al 2011)" esm:quality="good">
		<comp name="00.HNE" depth="0.0">
			<acc value="0.0120283605015218" flag="0"/>
			<vel value="0.0117614954713043" flag="0"/>
			<psa03 value="0.0245729767974482" flag="0"/>
			<psa10 value="0.0166313279938573" flag="0"/>
			<psa30 value="0.0035768523655816" flag="0"/>
		</comp>
		<comp name="00.HNN" depth="0.0">
			<acc value="0.00975732988236546" flag="0"/>
			<vel value="0.0132279303580415" flag="0"/>
			<psa03 value="0.0244511952925212" flag="0"/>
			<psa10 value="0.0235742735549265" flag="0"/>
			<psa30 value="0.00222023874658726" flag="0"/>
		</comp>
		<comp name="00.HNZ" depth="0.0">
			<acc value="0.00581006262535044" flag="0"/>
			<vel value="0.00617375513205124" flag="0"/>
			<psa03 value="0.0112997446463765" flag="0"/>
			<psa10 value="0.0157989659789588" flag="0"/>
			<psa30 value="0.00104989392531994" flag="0"/>
		</comp>
	</station>
	<station code="PATG" name="PATG" netid="HL" source="National Observatory of Athens Seismic Network" insttype="" lat="38.23865" lon="21.72657" esm:processing="manual (Paolucci et al 2011)" esm:quality="good">
		<comp name="00.HNE" depth="0.0">
			<acc value="0.0125204940696869" flag="0"/>
			<vel value="0.0125839046197158" flag="0"/>
			<psa03 value="0.0214238033364118" flag="0"/>
			<psa10 value="0.0295658429669949" flag="0"/>
			<psa30 value="0.004487756041813" flag="0"/>
		</comp>
		<comp name="00.HNN" depth="0.0">
			<acc value="0.0125802710898698" flag="0"/>
			<vel value="0.0182683337729423" flag="0"/>
			<psa03 value="0.0254560587347927" flag="0"/>
			<psa10 value="0.0287483769388825" flag="0"/>
			<psa30 value="0.00379948294709835" flag="0"/>
		</comp>
		<comp name="00.HNZ" depth="0.0">
			<acc value="0.00715549522321548" flag="0"/>
			<vel value="0.0089255952942776" flag="0"/>
			<psa03 value="0.0171393072699913" flag="0"/>
			<psa10 value="0.0155374827194762" flag="0"/>
			<psa30 value="0.00255621329491888" flag="0"/>
		</comp>
	</station>
	<station code="ARS1" name="ARS1" netid="HI" source="ITSAK Strong Motion Network" insttype="" lat="37.6349" lon="22.7293" esm:processing="discarded" esm:quality="good">
		<comp name="--.HNE" depth="0.0">
			<acc value="0" flag="1"/>
			<vel value="0" flag="1"/>
			<psa03 value="0" flag="1"/>
			<psa10 value="0" flag="1"/>
			<psa30 value="0" flag="1"/>
		</comp>
		<comp name="--.HNN" depth="0.0">
			<acc value="0" flag="1"/>
			<vel value="0" flag="1"/>
			<psa03 value="0" flag="1"/>
			<psa10 value="0" flag="1"/>
			<psa30 value="0" flag="1"/>
		</comp>
		<comp name="--.HNZ" depth="0.0">
			<acc value="0" flag="1"/>
			<vel value="0" flag="1"/>
			<psa03 value="0" flag="1"/>
			<psa10 value="0" flag="1"/>
			<psa30 value="0" flag="1"/>
		</comp>
	</station>
	<station code="ART2" name="ART2" netid="HI" source="ITSAK Strong Motion Network" insttype="" lat="39.1474" lon="20.9937" esm:processing="discarded" esm:quality="bad">
		<comp name="--.HNE" depth="0.0">
			<acc value="0" flag="1"/>
			<vel value="0" flag="1"/>
			<psa03 value="0" flag="1"/>
			<psa10 value="0" flag="1"/>
			<psa30 value="0" flag="1"/>
		</comp>
		<comp name="--.HNN" depth="0.0">
			<acc value="0" flag="1"/>
			<vel value="0" flag="1"/>
			<psa03 value="0" flag="1"/>
			<psa10 value="0" flag="1"/>
			<psa30 value="0" flag="1"/>
		</comp>
		<comp name="--.HNZ" depth="0.0">
			<acc value="0" flag="1"/>
			<vel value="0" flag="1"/>
			<psa03 value="0" flag="1"/>
			<psa10 value="0" flag="1"/>
			<psa30 value="0" flag="1"/>
		</comp>
	</station>
	<station code="DLFA" name="DLFA" netid="HL" source="National Observatory of Athens Seismic Network" insttype="" lat="38.47836" lon="22.49583" esm:processing="discarded" esm:quality="bad">
		<comp name="00.HNE" depth="0.0">
			<acc value="0" flag="1"/>
			<vel value="0" flag="1"/>
			<psa03 value="0" flag="1"/>
			<psa10 value="0" flag="1"/>
			<psa30 value="0" flag="1"/>
		</comp>
		<comp name="00.HNN" depth="0.0">
			<acc value="0" flag="1"/>
			<vel value="0" flag="1"/>
			<psa03 value="0" flag="1"/>
			<psa10 value="0" flag="1"/>
			<psa30 value="0" flag="1"/>
		</comp>
		<comp name="00.HNZ" depth="0.0">
			<acc value="0" flag="1"/>
			<vel value="0" flag="1"/>
			<psa03 value="0" flag="1"/>
			<psa10 value="0" flag="1"/>
			<psa30 value="0" flag="1"/>
		</comp>
	</station>
	<station code="LXRA" name="LXRA" netid="HL" source="National Observatory of Athens Seismic Network" insttype="" lat="38.20006" lon="20.43718" esm:processing="discarded" esm:quality="bad">
		<comp name="00.HNE" depth="0.0">
			<acc value="0" flag="1"/>
			<vel value="0" flag="1"/>
			<psa03 value="0" flag="1"/>
			<psa10 value="0" flag="1"/>
			<psa30 value="0" flag="1"/>
		</comp>
		<comp name="00.HNN" depth="0.0">
			<acc value="0" flag="1"/>
			<vel value="0" flag="1"/>
			<psa03 value="0" flag="1"/>
			<psa10 value="0" flag="1"/>
			<psa30 value="0" flag="1"/>
		</comp>
		<comp name="00.HNZ" depth="0.0">
			<acc value="0" flag="1"/>
			<vel value="0" flag="1"/>
			<psa03 value="0" flag="1"/>
			<psa10 value="0" flag="1"/>
			<psa30 value="0" flag="1"/>
		</comp>
	</station>
	<station code="RIOA" name="RIOA" netid="HL" source="National Observatory of Athens Seismic Network" insttype="" lat="38.29585" lon="21.79118" esm:processing="automatic (Paolucci et al 2011)" esm:quality="bad">
		<comp name="00.HNE" depth="0.0">
			<acc value="0" flag="1"/>
			<vel value="0" flag="1"/>
			<psa03 value="0" flag="1"/>
			<psa10 value="0" flag="1"/>
			<psa30 value="0" flag="1"/>
		</comp>
		<comp name="00.HNN" depth="0.0">
			<acc value="0" flag="1"/>
			<vel value="0" flag="1"/>
			<psa03 value="0" flag="1"/>
			<psa10 value="0" flag="1"/>
			<psa30 value="0" flag="1"/>
		</comp>
		<comp name="00.HNZ" depth="0.0">
			<acc value="0" flag="1"/>
			<vel value="0" flag="1"/>
			<psa03 value="0" flag="1"/>
			<psa10 value="0" flag="1"/>
			<psa30 value="0" flag="1"/>
		</comp>
	</station>
</stationlist>
