<?xml version="1.0" encoding="UTF-8" standalone="yes"?>
<!DOCTYPE earthquake SYSTEM "stationlist.dtd">
<stationlist created="" xmlns="ch.ethz.sed.shakemap.usgs.xml">
  <station code="AGRP" name="AGRP" netid="CL" source="RESIF" insttype="30" lat="38.3959" lon="21.7228">
    <comp name="00.HHE">
      <acc value="0.0051182545" flag="0"/>
      <vel value="0.0045329829" flag="0"/>
      <psa03 value="0.0099898961" flag="0"/>
      <psa10 value="0.0081794460" flag="0"/>
      <psa30 value="0.0010562432" flag="0"/>
    </comp>
    <comp name="00.HHN">
      <acc value="0.0038551961" flag="0"/>
      <vel value="0.0044679362" flag="0"/>
      <psa03 value="0.0091204170" flag="0"/>
      <psa10 value="0.0098611849" flag="0"/>
      <psa30 value="0.0006899508" flag="0"/>
    </comp>
    <comp name="00.HHZ">
      <acc value="0.0023015878" flag="0"/>
      <vel value="0.0028864450" flag="0"/>
      <psa03 value="0.0048169754" flag="0"/>
      <psa10 value="0.0047745127" flag="0"/>
      <psa30 value="0.0005001514" flag="0"/>
    </comp>
  </station>
  <station code="MSL1" name="MSL1" netid="HI" source="NOA" insttype="CMG-5TD,ACCELEROMETER,GURALP" lat="38.3727" lon="21.4243">
    <comp name="--.HNE">
      <acc value="0.0142721063" flag="0"/>
      <vel value="0.0168595227" flag="0"/>
      <psa03 value="0.0364766939" flag="0"/>
      <psa10 value="0.0360125117" flag="0"/>
      <psa30 value="0.0029739532" flag="0"/>
    </comp>
    <comp name="--.HNN">
      <acc value="0.0177592294" flag="0"/>
      <vel value="0.0197050935" flag="0"/>
      <psa03 value="0.0426784204" flag="0"/>
      <psa10 value="0.0384836744" flag="0"/>
      <psa30 value="0.0023508671" flag="0"/>
    </comp>
    <comp name="--.HNZ">
      <acc value="0.0072485635" flag="0"/>
      <vel value="0.0027126568" flag="0"/>
      <psa03 value="0.0089390052" flag="0"/>
      <psa10 value="0.0038951507" flag="0"/>
      <psa30 value="0.0001471103" flag="0"/>
    </comp>
  </station>
  <station code="ITM" name="ITM" netid="HL" source="NOA" insttype="DR24" lat="37.1787" lon="21.9252">
    <comp name="--.HHE">
      <acc value="0.0070998089" flag="0"/>
      <vel value="0.0044963813" flag="0"/>
      <psa03 value="0.0130218738" flag="0"/>
      <psa10 value="0.0054329936" flag="0"/>
      <psa30 value="0.0009873469" flag="0"/>
    </comp>
    <comp name="--.HHN">
      <acc value="0.0073227097" flag="0"/>
      <vel value="0.0055899962" flag="0"/>
      <psa03 value="0.0192162572" flag="0"/>
      <psa10 value="0.0097445947" flag="0"/>
      <psa30 value="0.0011180488" flag="0"/>
    </comp>
    <comp name="--.HHZ">
      <acc value="0.0054327708" flag="0"/>
      <vel value="0.0053810053" flag="0"/>
      <psa03 value="0.0081823292" flag="0"/>
      <psa10 value="0.0094525193" flag="0"/>
      <psa30 value="0.0006568604" flag="0"/>
    </comp>
  </station>
  <station code="RLS" name="RLS" netid="HL" source="NOA" insttype="120" lat="38.0559" lon="21.4647">
    <comp name="--.HHE">
      <acc value="0.0069272997" flag="0"/>
      <vel value="0.0049215425" flag="0"/>
      <psa03 value="0.0241374510" flag="0"/>
      <psa10 value="0.0070241634" flag="0"/>
      <psa30 value="0.0008063674" flag="0"/>
    </comp>
    <comp name="--.HHN">
      <acc value="0.0085683754" flag="0"/>
      <vel value="0.0048872246" flag="0"/>
      <psa03 value="0.0135005632" flag="0"/>
      <psa10 value="0.0051283926" flag="0"/>
      <psa30 value="0.0006692667" flag="0"/>
    </comp>
    <comp name="--.HHZ">
      <acc value="0.0041749285" flag="0"/>
      <vel value="0.0035517584" flag="0"/>
      <psa03 value="0.0103997182" flag="0"/>
      <psa10 value="0.0063907638" flag="0"/>
      <psa30 value="0.0007828574" flag="0"/>
    </comp>
  </station>
  <station code="AMT" name="AMT" netid="HP" source="NOA" insttype="CMG-3T," lat="37.5324" lon="21.7089">
    <comp name="00.HHE">
      <acc value="0.0172057393" flag="0"/>
      <vel value="0.0145521579" flag="0"/>
      <psa03 value="0.0435320471" flag="0"/>
      <psa10 value="0.0273970224" flag="0"/>
      <psa30 value="0.0013741952" flag="0"/>
    </comp>
    <comp name="00.HHN">
      <acc value="0.0162552596" flag="0"/>
      <vel value="0.0123965050" flag="0"/>
      <psa03 value="0.0294466476" flag="0"/>
      <psa10 value="0.0249657261" flag="0"/>
      <psa30 value="0.0015804193" flag="0"/>
    </comp>
    <comp name="00.HHZ">
      <acc value="0.0100430397" flag="0"/>
      <vel value="0.0074854667" flag="0"/>
      <psa03 value="0.0254761040" flag="0"/>
      <psa10 value="0.0153427109" flag="0"/>
      <psa30 value="0.0005776844" flag="0"/>
    </comp>
  </station>
  <station code="AXS" name="AXS" netid="HP" source="NOA" insttype="40," lat="38.1962" lon="21.3763">
    <comp name="--.HHE">
      <acc value="0.0039632887" flag="0"/>
      <vel value="0.0034521744" flag="0"/>
      <psa03 value="0.0089500451" flag="0"/>
      <psa10 value="0.0065266205" flag="0"/>
      <psa30 value="0.0004447871" flag="0"/>
    </comp>
    <comp name="--.HHE">
      <acc value="0.0039632887" flag="0"/>
      <vel value="0.0034521744" flag="0"/>
      <psa03 value="0.0089500451" flag="0"/>
      <psa10 value="0.0065266205" flag="0"/>
      <psa30 value="0.0004447871" flag="0"/>
    </comp>
    <comp name="--.HHN">
      <acc value="0.0055269215" flag="0"/>
      <vel value="0.0039791548" flag="0"/>
      <psa03 value="0.0141339381" flag="0"/>
      <psa10 value="0.0068960614" flag="0"/>
      <psa30 value="0.0005747511" flag="0"/>
    </comp>
    <comp name="--.HHN">
      <acc value="0.0055269215" flag="0"/>
      <vel value="0.0039791548" flag="0"/>
      <psa03 value="0.0141339381" flag="0"/>
      <psa10 value="0.0068960614" flag="0"/>
      <psa30 value="0.0005747511" flag="0"/>
    </comp>
    <comp name="--.HHZ">
      <acc value="0.0031608072" flag="0"/>
      <vel value="0.0030638605" flag="0"/>
      <psa03 value="0.0049612950" flag="0"/>
      <psa10 value="0.0054918211" flag="0"/>
      <psa30 value="0.0003859077" flag="0"/>
    </comp>
    <comp name="--.HHZ">
      <acc value="0.0031608072" flag="0"/>
      <vel value="0.0030638605" flag="0"/>
      <psa03 value="0.0049612950" flag="0"/>
      <psa10 value="0.0054918211" flag="0"/>
      <psa30 value="0.0003859077" flag="0"/>
    </comp>
  </station>
  <station code="DRO" name="DRO" netid="HP" source="NOA" insttype="120P," lat="37.952" lon="21.71">
    <comp name="--.HHE">
      <acc value="0.0143195448" flag="0"/>
      <vel value="0.0084257530" flag="0"/>
      <psa03 value="0.0317639704" flag="0"/>
      <psa10 value="0.0151515007" flag="0"/>
      <psa30 value="0.0010843118" flag="0"/>
    </comp>
    <comp name="--.HHN">
      <acc value="0.0125637610" flag="0"/>
      <vel value="0.0083600514" flag="0"/>
      <psa03 value="0.0313178451" flag="0"/>
      <psa10 value="0.0132743906" flag="0"/>
      <psa30 value="0.0007469880" flag="0"/>
    </comp>
    <comp name="--.HHZ">
      <acc value="0.0059174317" flag="0"/>
      <vel value="0.0045249624" flag="0"/>
      <psa03 value="0.0174859207" flag="0"/>
      <psa10 value="0.0065181575" flag="0"/>
      <psa30 value="0.0007539644" flag="0"/>
    </comp>
  </station>
  <station code="FSK" name="FSK" netid="HP" source="NOA" insttype="40," lat="38.4593" lon="20.5623">
    <comp name="--.HHE">
      <acc value="0.0181087791" flag="0"/>
      <vel value="0.0102497197" flag="0"/>
      <psa03 value="0.0177405063" flag="0"/>
      <psa10 value="0.0147339422" flag="0"/>
      <psa30 value="0.0015118390" flag="0"/>
    </comp>
    <comp name="--.HHN">
      <acc value="0.0112269142" flag="0"/>
      <vel value="0.0056252014" flag="0"/>
      <psa03 value="0.0124596238" flag="0"/>
      <psa10 value="0.0136640536" flag="0"/>
      <psa30 value="0.0007110813" flag="0"/>
    </comp>
    <comp name="--.HHZ">
      <acc value="0.0103822528" flag="0"/>
      <vel value="0.0046383238" flag="0"/>
      <psa03 value="0.0112207669" flag="0"/>
      <psa10 value="0.0047174987" flag="0"/>
      <psa30 value="0.0007939737" flag="0"/>
    </comp>
  </station>
  <station code="DMLN" name="DMLN" netid="HT" source="NOA" insttype="1s-100Hz," lat="38.2385" lon="20.3734">
    <comp name="--.HHE">
      <acc value="0.0480490670" flag="0"/>
      <vel value="0.0341180340" flag="0"/>
      <psa03 value="0.0823630559" flag="0"/>
      <psa10 value="0.0492347674" flag="0"/>
      <psa30 value="0.0037893602" flag="0"/>
    </comp>
    <comp name="--.HHN">
      <acc value="0.0382252926" flag="0"/>
      <vel value="0.0256613403" flag="0"/>
      <psa03 value="0.0671900771" flag="0"/>
      <psa10 value="0.0579544286" flag="0"/>
      <psa30 value="0.0017573640" flag="0"/>
    </comp>
    <comp name="--.HHZ">
      <acc value="0.0392647789" flag="0"/>
      <vel value="0.0128640622" flag="0"/>
      <psa03 value="0.0427431251" flag="0"/>
      <psa10 value="0.0146387934" flag="0"/>
      <psa30 value="0.0007453601" flag="0"/>
    </comp>
  </station>
  <station code="DRAG" name="DRAG" netid="HT" source="NOA" insttype="1s-100Hz," lat="38.6839" lon="20.5746">
    <comp name="--.HHE">
      <acc value="0.0001516327" flag="0"/>
      <vel value="0.0000685541" flag="0"/>
      <psa03 value="0.0004197125" flag="0"/>
      <psa10 value="0.0001031995" flag="0"/>
      <psa30 value="0.0000064353" flag="0"/>
    </comp>
    <comp name="--.HHN">
      <acc value="0.0000099453" flag="0"/>
      <vel value="0.0000030850" flag="0"/>
      <psa03 value="0.0000111431" flag="0"/>
      <psa10 value="0.0000038712" flag="0"/>
      <psa30 value="0.0000004398" flag="0"/>
    </comp>
    <comp name="--.HHZ">
      <acc value="0.0001012524" flag="0"/>
      <vel value="0.0000314304" flag="0"/>
      <psa03 value="0.0001669321" flag="0"/>
      <psa10 value="0.0000369874" flag="0"/>
      <psa30 value="0.0000066393" flag="0"/>
    </comp>
  </station>
  <station code="EVGI" name="EVGI" netid="HT" source="NOA" insttype="30" lat="38.621" lon="20.656">
    <comp name="--.HHE">
      <acc value="0.0203621646" flag="0"/>
      <vel value="0.0053903437" flag="0"/>
      <psa03 value="0.0189249620" flag="0"/>
      <psa10 value="0.0056981765" flag="0"/>
      <psa30 value="0.0009161821" flag="0"/>
    </comp>
    <comp name="--.HHN">
      <acc value="nan" flag="0"/>
      <vel value="-100.0000000000" flag="0"/>
      <psa03 value="0.0000000000" flag="0"/>
      <psa10 value="0.0000000000" flag="0"/>
      <psa30 value="0.0000000000" flag="0"/>
    </comp>
    <comp name="--.HHZ">
      <acc value="0.0184217175" flag="0"/>
      <vel value="0.0049615726" flag="0"/>
      <psa03 value="0.0166852255" flag="0"/>
      <psa10 value="0.0059827454" flag="0"/>
      <psa30 value="0.0005603908" flag="0"/>
    </comp>
  </station>
  <station code="LKD2" name="LKD2" netid="HT" source="NOA" insttype="100" lat="38.7889" lon="20.6578">
    <comp name="--.HHE">
      <acc value="0.0085049269" flag="0"/>
      <vel value="0.0046289245" flag="0"/>
      <psa03 value="0.0124649744" flag="0"/>
      <psa10 value="0.0058472406" flag="0"/>
      <psa30 value="0.0009210701" flag="0"/>
    </comp>
    <comp name="--.HHN">
      <acc value="0.0062051186" flag="0"/>
      <vel value="0.0040647833" flag="0"/>
      <psa03 value="0.0089004154" flag="0"/>
      <psa10 value="0.0079783305" flag="0"/>
      <psa30 value="0.0009433946" flag="0"/>
    </comp>
    <comp name="--.HHZ">
      <acc value="0.0035517543" flag="0"/>
      <vel value="0.0029615371" flag="0"/>
      <psa03 value="0.0071761749" flag="0"/>
      <psa10 value="0.0045978224" flag="0"/>
      <psa30 value="0.0004754020" flag="0"/>
    </comp>
  </station>
  <station code="NYDR" name="NYDR" netid="HT" source="NOA" insttype="1s-100Hz," lat="38.7135" lon="20.6983">
    <comp name="--.HHE">
      <acc value="0.0066798083" flag="0"/>
      <vel value="0.0057137435" flag="0"/>
      <psa03 value="0.0082655095" flag="0"/>
      <psa10 value="0.0088449948" flag="0"/>
      <psa30 value="0.0006245996" flag="0"/>
    </comp>
    <comp name="--.HHN">
      <acc value="0.0064711799" flag="0"/>
      <vel value="0.0038853116" flag="0"/>
      <psa03 value="0.0121861301" flag="0"/>
      <psa10 value="0.0107200135" flag="0"/>
      <psa30 value="0.0003634387" flag="0"/>
    </comp>
    <comp name="--.HHZ">
      <acc value="0.0039999815" flag="0"/>
      <vel value="0.0029166509" flag="0"/>
      <psa03 value="0.0066970797" flag="0"/>
      <psa10 value="0.0044121494" flag="0"/>
      <psa30 value="0.0004664422" flag="0"/>
    </comp>
  </station>
  <station code="PSDA" name="PSDA" netid="HT" source="NOA" insttype="30" lat="38.114" lon="20.5841">
    <comp name="--.HHE">
      <acc value="0.0874480362" flag="0"/>
      <vel value="0.0276256530" flag="0"/>
      <psa03 value="0.0687097904" flag="0"/>
      <psa10 value="0.0222732055" flag="0"/>
      <psa30 value="0.0009416132" flag="0"/>
    </comp>
    <comp name="--.HHN">
      <acc value="0.0843254631" flag="0"/>
      <vel value="0.0170743405" flag="0"/>
      <psa03 value="0.0650546509" flag="0"/>
      <psa10 value="0.0137625064" flag="0"/>
      <psa30 value="0.0010203021" flag="0"/>
    </comp>
    <comp name="--.HHZ">
      <acc value="0.0752945788" flag="0"/>
      <vel value="0.0167575241" flag="0"/>
      <psa03 value="0.0338444665" flag="0"/>
      <psa10 value="0.0072102999" flag="0"/>
      <psa30 value="0.0009211461" flag="0"/>
    </comp>
  </station>
  <station code="TSLK" name="TSLK" netid="HT" source="NOA" insttype="1s-100Hz," lat="38.8249" lon="20.6554">
    <comp name="--.HHE">
      <acc value="0.0061924194" flag="0"/>
      <vel value="0.0063174557" flag="0"/>
      <psa03 value="0.0161539292" flag="0"/>
      <psa10 value="0.0147950645" flag="0"/>
      <psa30 value="0.0014862663" flag="0"/>
    </comp>
    <comp name="--.HHN">
      <acc value="0.0096678815" flag="0"/>
      <vel value="0.0087807413" flag="0"/>
      <psa03 value="0.0262705494" flag="0"/>
      <psa10 value="0.0110108300" flag="0"/>
      <psa30 value="0.0012413461" flag="0"/>
    </comp>
    <comp name="--.HHZ">
      <acc value="0.0037102147" flag="0"/>
      <vel value="0.0044762669" flag="0"/>
      <psa03 value="0.0089017320" flag="0"/>
      <psa10 value="0.0078568370" flag="0"/>
      <psa30 value="0.0012998912" flag="0"/>
    </comp>
  </station>
</stationlist>
