<?xml version="1.0" encoding="UTF-8" standalone="yes"?>
<!DOCTYPE earthquake SYSTEM "stationlist.dtd">
<stationlist created="" xmlns="ch.ethz.sed.shakemap.usgs.xml">
  <station code="BERA" name="BERA" netid="AC" insttype="" lat="40.7081" lon="19.9455">
    <comp name="00.HHN">
      <acc value="0.1246628628" flag="0"/>
      <vel value="0.0195762452" flag="0"/>
      <psa03 value="0.1137190460" flag="0"/>
      <psa10 value="0.0202769742" flag="0"/>
      <psa30 value="0.0015022083" flag="0"/>
    </comp>
    <comp name="00.HHE">
      <acc value="0.1524658370" flag="0"/>
      <vel value="0.0244786693" flag="0"/>
      <psa03 value="0.1279105831" flag="0"/>
      <psa10 value="0.0162416671" flag="0"/>
      <psa30 value="0.0010846644" flag="0"/>
    </comp>
  </station>
  <station code="TIR" name="TIR" netid="MN" insttype="" lat="41.3472" lon="19.8631">
    <comp name="--.HHE">
      <acc value="0.1693155266" flag="0"/>
      <vel value="0.0660297600" flag="0"/>
      <psa03 value="0.3618409900" flag="0"/>
      <psa10 value="0.0231329182" flag="0"/>
      <psa30 value="0.0023753083" flag="0"/>
    </comp>
    <comp name="--.HHN">
      <acc value="0.2783969935" flag="0"/>
      <vel value="0.0733565176" flag="0"/>
      <psa03 value="0.1567479299" flag="0"/>
      <psa10 value="0.0565323989" flag="0"/>
      <psa30 value="0.0032628754" flag="0"/>
    </comp>
    <comp name="--.HHZ">
      <acc value="0.1558726673" flag="0"/>
      <vel value="0.0386587282" flag="0"/>
      <psa03 value="0.1904749063" flag="0"/>
      <psa10 value="0.0262424069" flag="0"/>
      <psa30 value="0.0019914817" flag="0"/>
    </comp>
  </station>
</stationlist>
