<?xml version="1.0" encoding="UTF-8" standalone="yes"?>
<!DOCTYPE earthquake SYSTEM "stationlist.dtd">
<stationlist created="" xmlns="ch.ethz.sed.shakemap.usgs.xml">
  <station code="KRL1" name="KRL1" netid="HI" insttype="CMG-5TD,ACCELEROMETER,GURALP" lat="37.7951" lon="26.7065">
    <comp name="--.HNE">
      <acc value="0.3122890085" flag="0"/>
      <vel value="0.1274362582" flag="0"/>
      <psa03 value="0.6990070590" flag="0"/>
      <psa10 value="0.0698131258" flag="0"/>
      <psa30 value="0.0067683204" flag="0"/>
    </comp>
    <comp name="--.HNN">
      <acc value="0.2498449744" flag="0"/>
      <vel value="0.1241463819" flag="0"/>
      <psa03 value="0.5872650364" flag="0"/>
      <psa10 value="0.1332969507" flag="0"/>
      <psa30 value="0.0077579896" flag="0"/>
    </comp>
    <comp name="--.HNZ">
      <acc value="0.1157846614" flag="0"/>
      <vel value="0.0615268373" flag="0"/>
      <psa03 value="0.2099018666" flag="0"/>
      <psa10 value="0.0710528666" flag="0"/>
      <psa30 value="0.0030788529" flag="0"/>
    </comp>
  </station>
  <station code="MYT1" name="MYT1" netid="HI" insttype="CMG-5TD,ACCELEROMETER,GURALP" lat="39.085" lon="26.5694">
    <comp name="--.HNZ">
      <acc value="0.0446287058" flag="0"/>
      <vel value="0.0219798741" flag="0"/>
      <psa03 value="0.0797781817" flag="0"/>
      <psa10 value="0.0233404575" flag="0"/>
      <psa30 value="0.0022072704" flag="0"/>
    </comp>
    <comp name="--.HNN">
      <acc value="0.0407276308" flag="0"/>
      <vel value="0.0337930242" flag="0"/>
      <psa03 value="0.1528989111" flag="0"/>
      <psa10 value="0.0499033812" flag="0"/>
      <psa30 value="0.0029047884" flag="0"/>
    </comp>
    <comp name="--.HNE">
      <acc value="0.0672036981" flag="0"/>
      <vel value="0.0356792547" flag="0"/>
      <psa03 value="0.3084605835" flag="0"/>
      <psa10 value="0.0774498428" flag="0"/>
      <psa30 value="0.0038753047" flag="0"/>
    </comp>
  </station>
  <station code="KLNA" name="KLNA" netid="HL" insttype="CMG-5" lat="36.9571" lon="26.9727">
    <comp name="00.HNN">
      <acc value="0.0376780331" flag="0"/>
      <vel value="0.0152011278" flag="0"/>
      <psa03 value="0.1268891752" flag="0"/>
      <psa10 value="0.0071007236" flag="0"/>
      <psa30 value="0.0006011938" flag="0"/>
    </comp>
    <comp name="00.HNE">
      <acc value="0.0604671346" flag="0"/>
      <vel value="0.0253338323" flag="0"/>
      <psa03 value="0.1997719853" flag="0"/>
      <psa10 value="0.0073071459" flag="0"/>
      <psa30 value="0.0007025908" flag="0"/>
    </comp>
    <comp name="00.HNZ">
      <acc value="0.0333453737" flag="0"/>
      <vel value="0.0106380594" flag="0"/>
      <psa03 value="0.0658215844" flag="0"/>
      <psa10 value="0.0055792389" flag="0"/>
      <psa30 value="0.0005593645" flag="0"/>
    </comp>
  </station>
  <station code="PRK" name="PRK" netid="HL" insttype="120" lat="39.2456" lon="26.265">
    <comp name="--.HHN">
      <acc value="0.0550393364" flag="0"/>
      <vel value="0.0530215744" flag="0"/>
      <psa03 value="0.1300152715" flag="0"/>
      <psa10 value="0.0687462996" flag="0"/>
      <psa30 value="0.0029979254" flag="0"/>
    </comp>
    <comp name="--.HHZ">
      <acc value="0.0423435485" flag="0"/>
      <vel value="0.0260493760" flag="0"/>
      <psa03 value="0.1442342710" flag="0"/>
      <psa10 value="0.0387346687" flag="0"/>
      <psa30 value="0.0013552052" flag="0"/>
    </comp>
    <comp name="--.HHE">
      <acc value="0.0697969247" flag="0"/>
      <vel value="0.0532992045" flag="0"/>
      <psa03 value="0.2430048186" flag="0"/>
      <psa10 value="0.1040200150" flag="0"/>
      <psa30 value="0.0038852816" flag="0"/>
    </comp>
  </station>
  <station code="SAM2" name="SAM2" netid="HL" insttype="60" lat="37.7586" lon="26.6107">
    <comp name="--.HHN">
      <acc value="0.4743709374" flag="0"/>
      <vel value="0.1841053922" flag="0"/>
      <psa03 value="1.7893294055" flag="0"/>
      <psa10 value="0.0806323180" flag="0"/>
      <psa30 value="0.0043883631" flag="0"/>
    </comp>
    <comp name="--.HHE">
      <acc value="0.3017640136" flag="0"/>
      <vel value="0.0948336632" flag="0"/>
      <psa03 value="0.5043378083" flag="0"/>
      <psa10 value="0.0572977112" flag="0"/>
      <psa30 value="0.0040920717" flag="0"/>
    </comp>
    <comp name="--.HHZ">
      <acc value="0.1710471907" flag="0"/>
      <vel value="0.0395839791" flag="0"/>
      <psa03 value="0.1344464202" flag="0"/>
      <psa10 value="0.0157782572" flag="0"/>
      <psa30 value="0.0014875602" flag="0"/>
    </comp>
  </station>
  <station code="SMG" name="SMG" netid="HL" insttype="120" lat="37.7043" lon="26.8377">
    <comp name="--.HHE">
      <acc value="0.1233402646" flag="0"/>
      <vel value="0.0449258595" flag="0"/>
      <psa03 value="0.3556434355" flag="0"/>
      <psa10 value="0.0258734338" flag="0"/>
      <psa30 value="0.0018649453" flag="0"/>
    </comp>
    <comp name="--.HHN">
      <acc value="0.1353755354" flag="0"/>
      <vel value="0.0421908730" flag="0"/>
      <psa03 value="0.3176313708" flag="0"/>
      <psa10 value="0.0216628885" flag="0"/>
      <psa30 value="0.0023022201" flag="0"/>
    </comp>
    <comp name="--.HHZ">
      <acc value="0.0817930326" flag="0"/>
      <vel value="0.0190083236" flag="0"/>
      <psa03 value="0.0914498323" flag="0"/>
      <psa10 value="0.0136702251" flag="0"/>
      <psa30 value="0.0012213448" flag="0"/>
    </comp>
  </station>
  <station code="CESE" name="CESE" netid="KO" insttype="CMG-5T" lat="38.3306" lon="26.2997">
    <comp name="--.HNE">
      <acc value="0.0796318121" flag="0"/>
      <vel value="0.0259353863" flag="0"/>
      <psa03 value="0.0632736524" flag="0"/>
      <psa10 value="0.0096667197" flag="0"/>
      <psa30 value="0.0011834256" flag="0"/>
    </comp>
    <comp name="--.HNZ">
      <acc value="0.0462717876" flag="0"/>
      <vel value="0.0152221673" flag="0"/>
      <psa03 value="0.0931121330" flag="0"/>
      <psa10 value="0.0055473858" flag="0"/>
      <psa30 value="0.0008231775" flag="0"/>
    </comp>
    <comp name="--.HNN">
      <acc value="0.0518011188" flag="0"/>
      <vel value="0.0327068777" flag="0"/>
      <psa03 value="0.1130051279" flag="0"/>
      <psa10 value="0.0255855209" flag="0"/>
      <psa30 value="0.0018985544" flag="0"/>
    </comp>
  </station>
  <station code="FOCM" name="FOCM" netid="KO" insttype="CMG-5T" lat="38.7131" lon="26.7309">
    <comp name="--.HNZ">
      <acc value="0.0749603118" flag="0"/>
      <vel value="0.0349906954" flag="0"/>
      <psa03 value="0.2210961344" flag="0"/>
      <psa10 value="0.0141268963" flag="0"/>
      <psa30 value="0.0009593612" flag="0"/>
    </comp>
    <comp name="--.HNN">
      <acc value="0.1145765992" flag="0"/>
      <vel value="0.0487602472" flag="0"/>
      <psa03 value="0.2406493231" flag="0"/>
      <psa10 value="0.0241402988" flag="0"/>
      <psa30 value="0.0024805597" flag="0"/>
    </comp>
    <comp name="--.HNE">
      <acc value="0.1466039355" flag="0"/>
      <vel value="0.0708361102" flag="0"/>
      <psa03 value="0.3324076243" flag="0"/>
      <psa10 value="0.0458448381" flag="0"/>
      <psa30 value="0.0036945000" flag="0"/>
    </comp>
  </station>
  <station code="GMLD" name="GMLD" netid="KO" insttype="CMG-5T" lat="38.0766" lon="26.9157">
    <comp name="--.HNZ">
      <acc value="3.4443144836" flag="0"/>
      <vel value="0.4486654621" flag="0"/>
      <psa03 value="1.7902982864" flag="0"/>
      <psa10 value="0.1112091040" flag="0"/>
      <psa30 value="0.0061069573" flag="0"/>
    </comp>
    <comp name="--.HNE">
      <acc value="3.4863122609" flag="0"/>
      <vel value="0.8496728767" flag="0"/>
      <psa03 value="2.2201469960" flag="0"/>
      <psa10 value="0.4138073319" flag="0"/>
      <psa30 value="0.0288924526" flag="0"/>
    </comp>
    <comp name="--.HNN">
      <acc value="2.9838003337" flag="0"/>
      <vel value="1.0871613526" flag="0"/>
      <psa03 value="2.8401830003" flag="0"/>
      <psa10 value="0.3437407554" flag="0"/>
      <psa30 value="0.0273167082" flag="0"/>
    </comp>
  </station>
  <station code="GOMA" name="GOMA" netid="KO" insttype="CMG-5T" lat="38.7077" lon="27.9175">
    <comp name="--.HNZ">
      <acc value="0.0592747860" flag="0"/>
      <vel value="0.0314587550" flag="0"/>
      <psa03 value="0.1800698711" flag="0"/>
      <psa10 value="0.0167037576" flag="0"/>
      <psa30 value="0.0015383293" flag="0"/>
    </comp>
    <comp name="--.HNE">
      <acc value="0.1731265426" flag="0"/>
      <vel value="0.1039315160" flag="0"/>
      <psa03 value="0.4289447195" flag="0"/>
      <psa10 value="0.0784722454" flag="0"/>
      <psa30 value="0.0060283844" flag="0"/>
    </comp>
    <comp name="--.HNN">
      <acc value="0.1336760502" flag="0"/>
      <vel value="0.0670332496" flag="0"/>
      <psa03 value="0.3299808436" flag="0"/>
      <psa10 value="0.0231240916" flag="0"/>
      <psa30 value="0.0033203346" flag="0"/>
    </comp>
  </station>
  <station code="AYDN" name="AYDN" netid="TU" source="ODC" insttype="T" lat="37.6608" lon="27.8792">
    <comp name="--.HHZ">
      <acc value="0.0857927696" flag="0"/>
      <vel value="0.0400723717" flag="0"/>
      <psa03 value="0.1117431802" flag="0"/>
      <psa10 value="0.0393147093" flag="0"/>
      <psa30 value="0.0024943363" flag="0"/>
    </comp>
    <comp name="--.HHE">
      <acc value="0.1989979211" flag="0"/>
      <vel value="0.1014075938" flag="0"/>
      <psa03 value="0.3867889295" flag="0"/>
      <psa10 value="0.0674219346" flag="0"/>
      <psa30 value="0.0042068472" flag="0"/>
    </comp>
    <comp name="--.HHN">
      <acc value="0.0753680961" flag="0"/>
      <vel value="0.0630446077" flag="0"/>
      <psa03 value="0.1620924405" flag="0"/>
      <psa10 value="0.0701879271" flag="0"/>
      <psa30 value="0.0074151201" flag="0"/>
    </comp>
  </station>
</stationlist>
