<stationlist created="1778136648">
	<station code="KRL1" name="KRL1" netid="HI" source="ITSAK Strong Motion Network" insttype="" lat="37.7951" lon="26.7065">
		<comp name="--.HNE" depth="0.0">
			<acc value="0.311471539455751" flag="0"/>
			<vel value="0.128301478182403" flag="0"/>
			<psa03 value="0.717080919758887" flag="0"/>
			<psa10 value="0.0699354578808758" flag="0"/>
			<psa30 value="0.00680166849381895" flag="0"/>
		</comp>
		<comp name="--.HNN" depth="0.0">
			<acc value="0.249302401699259" flag="0"/>
			<vel value="0.124647940034621" flag="0"/>
			<psa03 value="0.580271565145494" flag="0"/>
			<psa10 value="0.133167256677104" flag="0"/>
			<psa30 value="0.00762724860111365" flag="0"/>
		</comp>
		<comp name="--.HNZ" depth="0.0">
			<acc value="0.116043918071851" flag="0"/>
			<vel value="0.0617714843762982" flag="0"/>
			<psa03 value="0.211047772545793" flag="0"/>
			<psa10 value="0.0711344273067367" flag="0"/>
			<psa30 value="0.00310818590206263" flag="0"/>
		</comp>
	</station>
	<station code="MYT1" name="MYT1" netid="HI" source="ITSAK Strong Motion Network" insttype="" lat="39.085" lon="26.5694">
		<comp name="--.HNE" depth="0.0">
			<acc value="0.0670669345002904" flag="0"/>
			<vel value="0.035932074288683" flag="0"/>
			<psa03 value="0.313635505979871" flag="0"/>
			<psa10 value="0.0774266016322645" flag="0"/>
			<psa30 value="0.00397526250829982" flag="0"/>
		</comp>
		<comp name="--.HNN" depth="0.0">
			<acc value="0.040705625868458" flag="0"/>
			<vel value="0.0339212176833478" flag="0"/>
			<psa03 value="0.151948076231134" flag="0"/>
			<psa10 value="0.0499078186478569" flag="0"/>
			<psa30 value="0.00291983238289695" flag="0"/>
		</comp>
		<comp name="--.HNZ" depth="0.0">
			<acc value="0.0439753118048779" flag="0"/>
			<vel value="0.0220468240530154" flag="0"/>
			<psa03 value="0.0803155080083071" flag="0"/>
			<psa10 value="0.0234115165230613" flag="0"/>
			<psa30 value="0.00222621789267597" flag="0"/>
		</comp>
	</station>
	<station code="NAX1" name="NAX1" netid="HI" source="ITSAK Strong Motion Network" insttype="" lat="37.101394" lon="25.374103">
		<comp name="--.HNE" depth="0.0">
			<acc value="0.00891244882330195" flag="0"/>
			<vel value="0.0035921960578061" flag="0"/>
			<psa03 value="0.0212475820271977" flag="0"/>
			<psa10 value="0.0043553486767125" flag="0"/>
			<psa30 value="0.000310291310484628" flag="0"/>
		</comp>
		<comp name="--.HNN" depth="0.0">
			<acc value="0.00712646093552942" flag="0"/>
			<vel value="0.00278982268940573" flag="0"/>
			<psa03 value="0.0135179658114056" flag="0"/>
			<psa10 value="0.00406453425545255" flag="0"/>
			<psa30 value="0.000286897963915324" flag="0"/>
		</comp>
		<comp name="--.HNZ" depth="0.0">
			<acc value="0.00563620613126962" flag="0"/>
			<vel value="0.00242802202852562" flag="0"/>
			<psa03 value="0.00884498697862878" flag="0"/>
			<psa10 value="0.00243061171922351" flag="0"/>
			<psa30 value="0.000178695314249972" flag="0"/>
		</comp>
	</station>
	<station code="KLNA" name="KLNA" netid="HL" source="National Observatory of Athens Seismic Network" insttype="" lat="36.95708" lon="26.97274">
		<comp name="00.HNE" depth="0.0">
			<acc value="0.0610962033830379" flag="0"/>
			<vel value="0.0254550074028871" flag="0"/>
			<psa03 value="0.200281413493902" flag="0"/>
			<psa10 value="0.00730979720695208" flag="0"/>
			<psa30 value="0.000687108746750461" flag="0"/>
		</comp>
		<comp name="00.HNN" depth="0.0">
			<acc value="0.0372102481876868" flag="0"/>
			<vel value="0.0153190174467877" flag="0"/>
			<psa03 value="0.126999308914473" flag="0"/>
			<psa10 value="0.00709939936286559" flag="0"/>
			<psa30 value="0.000597944090029011" flag="0"/>
		</comp>
		<comp name="00.HNZ" depth="0.0">
			<acc value="0.0330355511663309" flag="0"/>
			<vel value="0.0105818709015382" flag="0"/>
			<psa03 value="0.0662671346640658" flag="0"/>
			<psa10 value="0.00558556189105315" flag="0"/>
			<psa30 value="0.000589616142508067" flag="0"/>
		</comp>
	</station>
	<station code="NISR" name="NISR" netid="HL" source="National Observatory of Athens Seismic Network" insttype="" lat="36.6106" lon="27.131">
		<comp name="--.HNE" depth="0.0">
			<acc value="0.0103323653232508" flag="0"/>
			<vel value="0.00514532573520932" flag="0"/>
			<psa03 value="0.082090182863193" flag="0"/>
			<psa10 value="0.00477235005101016" flag="0"/>
			<psa30 value="0.000788653077731287" flag="0"/>
		</comp>
		<comp name="--.HNN" depth="0.0">
			<acc value="0.00847380718092884" flag="0"/>
			<vel value="0.00618314822001039" flag="0"/>
			<psa03 value="0.0524056434918834" flag="0"/>
			<psa10 value="0.00428808797104391" flag="0"/>
			<psa30 value="0.000586872002391214" flag="0"/>
		</comp>
		<comp name="--.HNZ" depth="0.0">
			<acc value="0.00336017607324388" flag="0"/>
			<vel value="0.00283476017984636" flag="0"/>
			<psa03 value="0.0204218085737501" flag="0"/>
			<psa10 value="0.00406932004123523" flag="0"/>
			<psa30 value="0.000384072187689188" flag="0"/>
		</comp>
	</station>
	<station code="PRK" name="PRK" netid="HL" source="National Observatory of Athens Seismic Network" insttype="" lat="39.24565" lon="26.26499">
		<comp name="--.HNE" depth="0.0">
			<acc value="0.063022033583152" flag="0"/>
			<vel value="0.0498529856183069" flag="0"/>
			<psa03 value="0.222197281979356" flag="0"/>
			<psa10 value="0.0951279842621942" flag="0"/>
			<psa30 value="0.00349825007523447" flag="0"/>
		</comp>
		<comp name="--.HNN" depth="0.0">
			<acc value="0.0652639582661291" flag="0"/>
			<vel value="0.0636457695171557" flag="0"/>
			<psa03 value="0.158987719656019" flag="0"/>
			<psa10 value="0.0839385180148787" flag="0"/>
			<psa30 value="0.00360911741965081" flag="0"/>
		</comp>
		<comp name="--.HNZ" depth="0.0">
			<acc value="0.0414304847508191" flag="0"/>
			<vel value="0.025273572489262" flag="0"/>
			<psa03 value="0.140233018915834" flag="0"/>
			<psa10 value="0.0376442887493966" flag="0"/>
			<psa30 value="0.00136587089890923" flag="0"/>
		</comp>
	</station>
	<station code="TNSA" name="TNSA" netid="HL" source="National Observatory of Athens Seismic Network" insttype="" lat="37.53942" lon="25.1631">
		<comp name="00.HNE" depth="0.0">
			<acc value="0.00693583945884921" flag="0"/>
			<vel value="0.00356093965441153" flag="0"/>
			<psa03 value="0.0209583844838768" flag="0"/>
			<psa10 value="0.00338419113917995" flag="0"/>
			<psa30 value="0.000306086292339663" flag="0"/>
		</comp>
		<comp name="00.HNN" depth="0.0">
			<acc value="0.00850797732828502" flag="0"/>
			<vel value="0.00490425868543232" flag="0"/>
			<psa03 value="0.0237866148089739" flag="0"/>
			<psa10 value="0.00242766683663835" flag="0"/>
			<psa30 value="0.000272166363019362" flag="0"/>
		</comp>
		<comp name="00.HNZ" depth="0.0">
			<acc value="0.00655614088640644" flag="0"/>
			<vel value="0.00327677527363044" flag="0"/>
			<psa03 value="0.017323832514736" flag="0"/>
			<psa10 value="0.00261306646220245" flag="0"/>
			<psa30 value="0.000162990536906315" flag="0"/>
		</comp>
	</station>
	<station code="CANM" name="CANM" netid="KO" source="Bogazici University Kandilli Observatory And Earthquake Research Institute (KOERI)" insttype="" lat="40.0113" lon="27.0529">
		<comp name="--.HNE" depth="0.0">
			<acc value="0.00984515663623719" flag="0"/>
			<vel value="0.00522864455696459" flag="0"/>
			<psa03 value="0.0388185064313702" flag="0"/>
			<psa10 value="0.00529687292309742" flag="0"/>
			<psa30 value="0.000523483376119025" flag="0"/>
		</comp>
		<comp name="--.HNN" depth="0.0">
			<acc value="0.0144603403902605" flag="0"/>
			<vel value="0.0103558758905456" flag="0"/>
			<psa03 value="0.0325494921815902" flag="0"/>
			<psa10 value="0.0124177729290026" flag="0"/>
			<psa30 value="0.000594172173489336" flag="0"/>
		</comp>
		<comp name="--.HNZ" depth="0.0">
			<acc value="0.0113390222852045" flag="0"/>
			<vel value="0.00550306900459381" flag="0"/>
			<psa03 value="0.0469724971138673" flag="0"/>
			<psa10 value="0.00561291573438549" flag="0"/>
			<psa30 value="0.000401482299356842" flag="0"/>
		</comp>
	</station>
	<station code="CESE" name="CESE" netid="KO" source="Bogazici University Kandilli Observatory And Earthquake Research Institute (KOERI)" insttype="" lat="38.3306" lon="26.2997">
		<comp name="--.HNE" depth="0.0">
			<acc value="0.0763236499628373" flag="0"/>
			<vel value="0.0263106992033881" flag="0"/>
			<psa03 value="0.0647786245994737" flag="0"/>
			<psa10 value="0.00969492380363802" flag="0"/>
			<psa30 value="0.00120027836671721" flag="0"/>
		</comp>
		<comp name="--.HNN" depth="0.0">
			<acc value="0.0517856798496846" flag="0"/>
			<vel value="0.0330012750730998" flag="0"/>
			<psa03 value="0.113571429799783" flag="0"/>
			<psa10 value="0.0255981907545272" flag="0"/>
			<psa30 value="0.00187427186964478" flag="0"/>
		</comp>
		<comp name="--.HNZ" depth="0.0">
			<acc value="0.0467955522467968" flag="0"/>
			<vel value="0.01549735479554" flag="0"/>
			<psa03 value="0.0950660372415328" flag="0"/>
			<psa10 value="0.00558032560669437" flag="0"/>
			<psa30 value="0.000857769323007171" flag="0"/>
		</comp>
	</station>
	<station code="DATC" name="DATC" netid="KO" source="Bogazici University Kandilli Observatory And Earthquake Research Institute (KOERI)" insttype="" lat="36.7584" lon="27.6602">
		<comp name="--.HNE" depth="0.0">
			<acc value="0.01916460837181" flag="0"/>
			<vel value="0.0128591040040033" flag="0"/>
			<psa03 value="0.0289586032611601" flag="0"/>
			<psa10 value="0.0155769700228147" flag="0"/>
			<psa30 value="0.00318496452993675" flag="0"/>
		</comp>
		<comp name="--.HNN" depth="0.0">
			<acc value="0.016323028110179" flag="0"/>
			<vel value="0.0135133435106043" flag="0"/>
			<psa03 value="0.0375603840244221" flag="0"/>
			<psa10 value="0.0183431326425037" flag="0"/>
			<psa30 value="0.00280833207988392" flag="0"/>
		</comp>
		<comp name="--.HNZ" depth="0.0">
			<acc value="0.0799381440542527" flag="0"/>
			<vel value="0.00809796941382672" flag="0"/>
			<psa03 value="0.0386663453097998" flag="0"/>
			<psa10 value="0.0126133174453874" flag="0"/>
			<psa30 value="0.00116283015679045" flag="0"/>
		</comp>
	</station>
	<station code="DIDI" name="DIDI" netid="KO" source="Bogazici University Kandilli Observatory And Earthquake Research Institute (KOERI)" insttype="" lat="37.3767" lon="27.2398">
		<comp name="--.HNE" depth="0.0">
			<acc value="0.0598311158489518" flag="0"/>
			<vel value="0.036258406231596" flag="0"/>
			<psa03 value="0.162856746793665" flag="0"/>
			<psa10 value="0.0529873126495833" flag="0"/>
			<psa30 value="0.00534397109517265" flag="0"/>
		</comp>
		<comp name="--.HNN" depth="0.0">
			<acc value="0.0543691715234567" flag="0"/>
			<vel value="0.0428480344278656" flag="0"/>
			<psa03 value="0.204946597539619" flag="0"/>
			<psa10 value="0.0467462204576385" flag="0"/>
			<psa30 value="0.00443878279757395" flag="0"/>
		</comp>
		<comp name="--.HNZ" depth="0.0">
			<acc value="0.0647153529007995" flag="0"/>
			<vel value="0.0295205545853099" flag="0"/>
			<psa03 value="0.12219791792886" flag="0"/>
			<psa10 value="0.0359367331322122" flag="0"/>
			<psa30 value="0.00269492185868184" flag="0"/>
		</comp>
	</station>
	<station code="DST" name="DST" netid="KO" source="Bogazici University Kandilli Observatory And Earthquake Research Institute (KOERI)" insttype="" lat="39.6041" lon="28.6267">
		<comp name="--.HNE" depth="0.0">
			<acc value="0.009753563076768" flag="0"/>
			<vel value="0.00592811173264789" flag="0"/>
			<psa03 value="0.0278262235590837" flag="0"/>
			<psa10 value="0.00734022250371847" flag="0"/>
			<psa30 value="0.000852939575979665" flag="0"/>
		</comp>
		<comp name="--.HNN" depth="0.0">
			<acc value="0.00966137059697971" flag="0"/>
			<vel value="0.00523354422785203" flag="0"/>
			<psa03 value="0.039454379283994" flag="0"/>
			<psa10 value="0.00485847216242964" flag="0"/>
			<psa30 value="0.00077674192409251" flag="0"/>
		</comp>
		<comp name="--.HNZ" depth="0.0">
			<acc value="0.0059762828341168" flag="0"/>
			<vel value="0.00390348387843363" flag="0"/>
			<psa03 value="0.0254004925538256" flag="0"/>
			<psa10 value="0.00459981049611795" flag="0"/>
			<psa30 value="0.000453108297450673" flag="0"/>
		</comp>
	</station>
	<station code="EZNE" name="EZNE" netid="KO" source="Bogazici University Kandilli Observatory And Earthquake Research Institute (KOERI)" insttype="" lat="39.756" lon="26.3655">
		<comp name="--.HNE" depth="0.0">
			<acc value="0.00845172799492039" flag="0"/>
			<vel value="0.00461158277766389" flag="0"/>
			<psa03 value="0.0343852960862905" flag="0"/>
			<psa10 value="0.00562958183842669" flag="0"/>
			<psa30 value="0.000440366255436636" flag="0"/>
		</comp>
		<comp name="--.HNN" depth="0.0">
			<acc value="0.0115359003041536" flag="0"/>
			<vel value="0.00721669384088456" flag="0"/>
			<psa03 value="0.0304959030164067" flag="0"/>
			<psa10 value="0.00825947589972599" flag="0"/>
			<psa30 value="0.000708893731564479" flag="0"/>
		</comp>
		<comp name="--.HNZ" depth="0.0">
			<acc value="0.00578116306990874" flag="0"/>
			<vel value="0.0038026343878094" flag="0"/>
			<psa03 value="0.0197664292205939" flag="0"/>
			<psa10 value="0.00262921386001335" flag="0"/>
			<psa30 value="0.000455325736011397" flag="0"/>
		</comp>
	</station>
	<station code="FOCM" name="FOCM" netid="KO" source="Bogazici University Kandilli Observatory And Earthquake Research Institute (KOERI)" insttype="" lat="38.7131" lon="26.7309">
		<comp name="--.HNE" depth="0.0">
			<acc value="0.146660382150444" flag="0"/>
			<vel value="0.0711281895424577" flag="0"/>
			<psa03 value="0.339674855958791" flag="0"/>
			<psa10 value="0.0458917076005125" flag="0"/>
			<psa30 value="0.00368651504686187" flag="0"/>
		</comp>
		<comp name="--.HNN" depth="0.0">
			<acc value="0.112850336040028" flag="0"/>
			<vel value="0.0488657300807125" flag="0"/>
			<psa03 value="0.237668911065494" flag="0"/>
			<psa10 value="0.0241572796762089" flag="0"/>
			<psa30 value="0.00249361643985216" flag="0"/>
		</comp>
		<comp name="--.HNZ" depth="0.0">
			<acc value="0.0754777969282605" flag="0"/>
			<vel value="0.0354983443640599" flag="0"/>
			<psa03 value="0.219209604893685" flag="0"/>
			<psa10 value="0.0141660290548892" flag="0"/>
			<psa30 value="0.000959763267106884" flag="0"/>
		</comp>
	</station>
	<station code="GMLD" name="GMLD" netid="KO" source="Bogazici University Kandilli Observatory And Earthquake Research Institute (KOERI)" insttype="" lat="38.0766" lon="26.9157">
		<comp name="--.HNE" depth="0.0">
			<acc value="3.51602576239111" flag="0"/>
			<vel value="0.860704834922956" flag="0"/>
			<psa03 value="2.27077542772902" flag="0"/>
			<psa10 value="0.414417873148478" flag="0"/>
			<psa30 value="0.0287564949766403" flag="0"/>
		</comp>
		<comp name="--.HNN" depth="0.0">
			<acc value="2.98400971107724" flag="0"/>
			<vel value="1.09837918897789" flag="0"/>
			<psa03 value="2.87203092462155" flag="0"/>
			<psa10 value="0.344875756326466" flag="0"/>
			<psa30 value="0.0273551304764556" flag="0"/>
		</comp>
		<comp name="--.HNZ" depth="0.0">
			<acc value="3.08313749038093" flag="0"/>
			<vel value="0.457391075790066" flag="0"/>
			<psa03 value="1.83912583306066" flag="0"/>
			<psa10 value="0.111542679155034" flag="0"/>
			<psa30 value="0.00616888574174029" flag="0"/>
		</comp>
	</station>
	<station code="GOMA" name="GOMA" netid="KO" source="Bogazici University Kandilli Observatory And Earthquake Research Institute (KOERI)" insttype="" lat="38.7077" lon="27.9175">
		<comp name="--.HNE" depth="0.0">
			<acc value="0.172966587695512" flag="0"/>
			<vel value="0.104057042975771" flag="0"/>
			<psa03 value="0.426473376768042" flag="0"/>
			<psa10 value="0.0786154828899373" flag="0"/>
			<psa30 value="0.00603841543205265" flag="0"/>
		</comp>
		<comp name="--.HNN" depth="0.0">
			<acc value="0.133766993333834" flag="0"/>
			<vel value="0.0676217585628034" flag="0"/>
			<psa03 value="0.331643553090948" flag="0"/>
			<psa10 value="0.023213392773358" flag="0"/>
			<psa30 value="0.00332178401022156" flag="0"/>
		</comp>
		<comp name="--.HNZ" depth="0.0">
			<acc value="0.0582081156746624" flag="0"/>
			<vel value="0.0317625009967128" flag="0"/>
			<psa03 value="0.179202121260886" flag="0"/>
			<psa10 value="0.0167082118370387" flag="0"/>
			<psa30 value="0.00148917812991062" flag="0"/>
		</comp>
	</station>
	<station code="GONE" name="GONE" netid="KO" source="Bogazici University Kandilli Observatory And Earthquake Research Institute (KOERI)" insttype="" lat="40.0466" lon="27.686">
		<comp name="--.HNE" depth="0.0">
			<acc value="0.00499155924376506" flag="0"/>
			<vel value="0.00392781578884001" flag="0"/>
			<psa03 value="0.0151152786567966" flag="0"/>
			<psa10 value="0.00649568671363554" flag="0"/>
			<psa30 value="0.000641163411431249" flag="0"/>
		</comp>
		<comp name="--.HNN" depth="0.0">
			<acc value="0.00683560109834599" flag="0"/>
			<vel value="0.00685913536376402" flag="0"/>
			<psa03 value="0.0187304374141486" flag="0"/>
			<psa10 value="0.0103102617542534" flag="0"/>
			<psa30 value="0.00117572601107786" flag="0"/>
		</comp>
		<comp name="--.HNZ" depth="0.0">
			<acc value="0.00394673739483035" flag="0"/>
			<vel value="0.00281170787214773" flag="0"/>
			<psa03 value="0.0105161849268735" flag="0"/>
			<psa10 value="0.00269529886282212" flag="0"/>
			<psa30 value="0.00079236696958864" flag="0"/>
		</comp>
	</station>
	<station code="GORD" name="GORD" netid="KO" source="Bogazici University Kandilli Observatory And Earthquake Research Institute (KOERI)" insttype="" lat="38.9088" lon="28.1769">
		<comp name="--.HNE" depth="0.0">
			<acc value="0.0431687154412511" flag="0"/>
			<vel value="0.0377013899075398" flag="0"/>
			<psa03 value="0.0721557695491536" flag="0"/>
			<psa10 value="0.0682714501484992" flag="0"/>
			<psa30 value="0.00394138484740385" flag="0"/>
		</comp>
		<comp name="--.HNN" depth="0.0">
			<acc value="0.0232287955185656" flag="0"/>
			<vel value="0.0224503102463293" flag="0"/>
			<psa03 value="0.0567209762362721" flag="0"/>
			<psa10 value="0.0403870366929162" flag="0"/>
			<psa30 value="0.00230340863118538" flag="0"/>
		</comp>
		<comp name="--.HNZ" depth="0.0">
			<acc value="0.0252385391400951" flag="0"/>
			<vel value="0.0221736741493404" flag="0"/>
			<psa03 value="0.0471749636515174" flag="0"/>
			<psa10 value="0.0372031432756522" flag="0"/>
			<psa30 value="0.00177205280647026" flag="0"/>
		</comp>
	</station>
	<station code="KHL" name="KHL" netid="KO" source="Bogazici University Kandilli Observatory And Earthquake Research Institute (KOERI)" insttype="" lat="38.3231" lon="29.5286">
		<comp name="--.HNE" depth="0.0">
			<acc value="0.00704555960246996" flag="0"/>
			<vel value="0.00280183757529525" flag="0"/>
			<psa03 value="0.00568514093559244" flag="0"/>
			<psa10 value="0.002061069270099" flag="0"/>
			<psa30 value="0.000458146912485565" flag="0"/>
		</comp>
		<comp name="--.HNN" depth="0.0">
			<acc value="0.00665294505619823" flag="0"/>
			<vel value="0.00241019895267098" flag="0"/>
			<psa03 value="0.00657906669027493" flag="0"/>
			<psa10 value="0.00282297841471423" flag="0"/>
			<psa30 value="0.000591299795711746" flag="0"/>
		</comp>
		<comp name="--.HNZ" depth="0.0">
			<acc value="0.00374815920816681" flag="0"/>
			<vel value="0.00168671986597452" flag="0"/>
			<psa03 value="0.00559607058199303" flag="0"/>
			<psa10 value="0.00191992562315108" flag="0"/>
			<psa30 value="0.000372074752292825" flag="0"/>
		</comp>
	</station>
	<station code="KUSD" name="KUSD" netid="KO" source="Bogazici University Kandilli Observatory And Earthquake Research Institute (KOERI)" insttype="" lat="37.8606" lon="27.2868">
		<comp name="--.HNE" depth="0.0">
			<acc value="0.114434766607822" flag="0"/>
			<vel value="0.0308905094400699" flag="0"/>
			<psa03 value="0.135580783645022" flag="0"/>
			<psa10 value="0.0201190121608288" flag="0"/>
			<psa30 value="0.00403058283966428" flag="0"/>
		</comp>
		<comp name="--.HNN" depth="0.0">
			<acc value="0.127068558935367" flag="0"/>
