<?xml version="1.0" encoding="UTF-8" standalone="yes"?>
<!DOCTYPE earthquake SYSTEM "stationlist.dtd">
<stationlist created="" xmlns="ch.ethz.sed.shakemap.usgs.xml">
  <station code="CERN1" name="CERN1" netid="C4" source="SED" insttype="CMG-6T" lat="46.2359" lon="6.05484">
    <comp name="--.HH2">
      <acc value="0.0233703640" flag="0"/>
      <vel value="0.0025896047" flag="0"/>
      <psa03 value="0.0061456261" flag="0"/>
      <psa10 value="0.0012419759" flag="0"/>
      <psa30 value="0.0001115229" flag="0"/>
    </comp>
    <comp name="--.HH3">
      <acc value="0.0141412648" flag="0"/>
      <vel value="0.0021954795" flag="0"/>
      <psa03 value="0.0078150813" flag="0"/>
      <psa10 value="0.0007999439" flag="0"/>
      <psa30 value="0.0000787191" flag="0"/>
    </comp>
    <comp name="--.HHZ">
      <acc value="0.0113194341" flag="0"/>
      <vel value="0.0021654238" flag="0"/>
      <psa03 value="0.0094428872" flag="0"/>
      <psa10 value="0.0008544496" flag="0"/>
      <psa30 value="0.0000854435" flag="0"/>
    </comp>
  </station>
  <station code="CERN5" name="CERN5" netid="C4" source="SED" insttype="CMG-6T" lat="46.3099" lon="6.07608">
    <comp name="--.HH2">
      <acc value="0.0297239347" flag="0"/>
      <vel value="0.0047711396" flag="0"/>
      <psa03 value="0.0143693684" flag="0"/>
      <psa10 value="0.0031135528" flag="0"/>
      <psa30 value="0.0001882091" flag="0"/>
    </comp>
    <comp name="--.HH3">
      <acc value="0.0217717574" flag="0"/>
      <vel value="0.0029043694" flag="0"/>
      <psa03 value="0.0120971754" flag="0"/>
      <psa10 value="0.0017212177" flag="0"/>
      <psa30 value="0.0001079403" flag="0"/>
    </comp>
    <comp name="--.HHZ">
      <acc value="0.0142600186" flag="0"/>
      <vel value="0.0023373209" flag="0"/>
      <psa03 value="0.0080241498" flag="0"/>
      <psa10 value="0.0011162207" flag="0"/>
      <psa30 value="0.0001218467" flag="0"/>
    </comp>
  </station>
  <station code="CERNS" name="CERNS" netid="C4" source="SED" insttype="CMG-40T" lat="46.2669" lon="6.06621">
    <comp name="--.HHE">
      <acc value="0.0435845136" flag="0"/>
      <vel value="0.0059638203" flag="0"/>
      <psa03 value="0.0296181089" flag="0"/>
      <psa10 value="0.0018260979" flag="0"/>
      <psa30 value="0.0001245792" flag="0"/>
    </comp>
    <comp name="--.HHN">
      <acc value="0.0497281797" flag="0"/>
      <vel value="0.0073926401" flag="0"/>
      <psa03 value="0.0196702849" flag="0"/>
      <psa10 value="0.0032757739" flag="0"/>
      <psa30 value="0.0001976255" flag="0"/>
    </comp>
    <comp name="--.HHZ">
      <acc value="0.0237026339" flag="0"/>
      <vel value="0.0036281470" flag="0"/>
      <psa03 value="0.0127631913" flag="0"/>
      <psa10 value="0.0010176467" flag="0"/>
      <psa30 value="0.0001327690" flag="0"/>
    </comp>
  </station>
  <station code="GIMEL" name="GIMEL" netid="CH" source="SED" insttype="Trillium 240s_g2" lat="46.5336" lon="6.26545">
    <comp name="--.HHE">
      <acc value="0.0161041462" flag="0"/>
      <vel value="0.0035779329" flag="0"/>
      <psa03 value="0.0146513444" flag="0"/>
      <psa10 value="0.0019195372" flag="0"/>
      <psa30 value="0.0001533397" flag="0"/>
    </comp>
    <comp name="--.HHN">
      <acc value="0.0143661441" flag="0"/>
      <vel value="0.0032875393" flag="0"/>
      <psa03 value="0.0180764179" flag="0"/>
      <psa10 value="0.0011057899" flag="0"/>
      <psa30 value="0.0001033980" flag="0"/>
    </comp>
    <comp name="--.HHZ">
      <acc value="0.0137125270" flag="0"/>
      <vel value="0.0029194455" flag="0"/>
      <psa03 value="0.0148221174" flag="0"/>
      <psa10 value="0.0008628221" flag="0"/>
      <psa30 value="0.0001125630" flag="0"/>
    </comp>
  </station>
  <station code="GRN" name="GRN" netid="FR" source="RESIF" insttype="TITAN" lat="45.2413" lon="5.7439">
    <comp name="00.HNE">
      <acc value="0.0404714210" flag="0"/>
      <vel value="0.0090225745" flag="0"/>
      <psa03 value="0.0386654138" flag="0"/>
      <psa10 value="0.0049314870" flag="0"/>
      <psa30 value="0.0002596175" flag="0"/>
    </comp>
    <comp name="00.HNN">
      <acc value="0.0295777212" flag="0"/>
      <vel value="0.0077992617" flag="0"/>
      <psa03 value="0.0213049901" flag="0"/>
      <psa10 value="0.0023235541" flag="0"/>
      <psa30 value="0.0001493435" flag="0"/>
    </comp>
    <comp name="00.HNZ">
      <acc value="0.0147786090" flag="0"/>
      <vel value="0.0032212475" flag="0"/>
      <psa03 value="0.0155073189" flag="0"/>
      <psa10 value="0.0014400568" flag="0"/>
      <psa30 value="0.0001558243" flag="0"/>
    </comp>
  </station>
  <station code="OG02" name="OG02" netid="FR" source="RESIF" insttype="EST" lat="46.1542" lon="6.2202">
    <comp name="00.HNE">
      <acc value="0.0054041817" flag="0"/>
      <vel value="0.0010205515" flag="0"/>
      <psa03 value="0.0032103220" flag="0"/>
      <psa10 value="0.0003688584" flag="0"/>
      <psa30 value="0.0001184305" flag="0"/>
    </comp>
    <comp name="00.HNN">
      <acc value="0.0029141252" flag="0"/>
      <vel value="0.0004886475" flag="0"/>
      <psa03 value="0.0019796473" flag="0"/>
      <psa10 value="0.0003494262" flag="0"/>
      <psa30 value="0.0000286233" flag="0"/>
    </comp>
    <comp name="00.HNZ">
      <acc value="0.0035439863" flag="0"/>
      <vel value="0.0007669887" flag="0"/>
      <psa03 value="0.0020496478" flag="0"/>
      <psa10 value="0.0002979943" flag="0"/>
      <psa30 value="0.0000318569" flag="0"/>
    </comp>
  </station>
  <station code="OG35" name="OG35" netid="FR" source="RESIF" insttype="EST" lat="46.0455" lon="5.5715">
    <comp name="00.HNE">
      <acc value="0.0321646799" flag="0"/>
      <vel value="0.0085822740" flag="0"/>
      <psa03 value="0.0621137046" flag="0"/>
      <psa10 value="0.0048698032" flag="0"/>
      <psa30 value="0.0002273548" flag="0"/>
    </comp>
    <comp name="00.HNN">
      <acc value="0.0377151367" flag="0"/>
      <vel value="0.0082824817" flag="0"/>
      <psa03 value="0.0680962455" flag="0"/>
      <psa10 value="0.0038800559" flag="0"/>
      <psa30 value="0.0002210288" flag="0"/>
    </comp>
    <comp name="00.HNZ">
      <acc value="0.0232699674" flag="0"/>
      <vel value="0.0060997647" flag="0"/>
      <psa03 value="0.0384614845" flag="0"/>
      <psa10 value="0.0013408486" flag="0"/>
      <psa30 value="0.0001391427" flag="0"/>
    </comp>
  </station>
  <station code="OGMY" name="OGMY" netid="FR" source="RESIF" insttype="seismometer" lat="45.881" lon="5.88932">
    <comp name="00.HHE">
      <acc value="0.0280847394" flag="0"/>
      <vel value="0.0049060289" flag="0"/>
      <psa03 value="0.0157306818" flag="0"/>
      <psa10 value="0.0008170613" flag="0"/>
      <psa30 value="0.0001031178" flag="0"/>
    </comp>
    <comp name="00.HHN">
      <acc value="0.0287058298" flag="0"/>
      <vel value="0.0064570224" flag="0"/>
      <psa03 value="0.0160044982" flag="0"/>
      <psa10 value="0.0014533213" flag="0"/>
      <psa30 value="0.0001574308" flag="0"/>
    </comp>
    <comp name="00.HHZ">
      <acc value="0.0221039156" flag="0"/>
      <vel value="0.0030309702" flag="0"/>
      <psa03 value="0.0049564084" flag="0"/>
      <psa10 value="0.0006202948" flag="0"/>
      <psa30 value="0.0000901306" flag="0"/>
    </comp>
  </station>
  <station code="OGSM" name="OGSM" netid="FR" source="RESIF" insttype="EST" lat="45.6093" lon="5.69705">
    <comp name="00.HNE">
      <acc value="0.0424304692" flag="0"/>
      <vel value="0.0066972488" flag="0"/>
      <psa03 value="0.0200449856" flag="0"/>
      <psa10 value="0.0015467386" flag="0"/>
      <psa30 value="0.0000993371" flag="0"/>
    </comp>
    <comp name="00.HNN">
      <acc value="0.0422670637" flag="0"/>
      <vel value="0.0055084904" flag="0"/>
      <psa03 value="0.0104545943" flag="0"/>
      <psa10 value="0.0016941205" flag="0"/>
      <psa30 value="0.0001383903" flag="0"/>
    </comp>
    <comp name="00.HNZ">
      <acc value="0.0329007869" flag="0"/>
      <vel value="0.0057330831" flag="0"/>
      <psa03 value="0.0163621429" flag="0"/>
      <psa10 value="0.0011858966" flag="0"/>
      <psa30 value="0.0001110370" flag="0"/>
    </comp>
  </station>
  <station code="PLDF" name="PLDF" netid="FR" source="RESIF" insttype="seismometer" lat="45.9648" lon="3.6226">
    <comp name="00.HHE">
      <acc value="0.0141535899" flag="0"/>
      <vel value="0.0017011163" flag="0"/>
      <psa03 value="0.0102402124" flag="0"/>
      <psa10 value="0.0005279526" flag="0"/>
      <psa30 value="0.0000772736" flag="0"/>
    </comp>
    <comp name="00.HHN">
      <acc value="0.0136750687" flag="0"/>
      <vel value="0.0017608658" flag="0"/>
      <psa03 value="0.0115422530" flag="0"/>
      <psa10 value="0.0013048983" flag="0"/>
      <psa30 value="0.0001032979" flag="0"/>
    </comp>
    <comp name="00.HHZ">
      <acc value="0.0094575823" flag="0"/>
      <vel value="0.0016742700" flag="0"/>
      <psa03 value="0.0091473892" flag="0"/>
      <psa10 value="0.0006913201" flag="0"/>
      <psa30 value="0.0000963487" flag="0"/>
    </comp>
  </station>
  <station code="PLYF" name="PLYF" netid="FR" source="RESIF" insttype="2.5" lat="46.9572" lon="4.7432">
    <comp name="00.HHE">
      <acc value="0.0091259240" flag="0"/>
      <vel value="0.0022230636" flag="0"/>
      <psa03 value="0.0097761286" flag="0"/>
      <psa10 value="0.0011854587" flag="0"/>
      <psa30 value="0.0000695051" flag="0"/>
    </comp>
    <comp name="00.HHN">
      <acc value="0.0078526279" flag="0"/>
      <vel value="0.0019543262" flag="0"/>
      <psa03 value="0.0081742344" flag="0"/>
      <psa10 value="0.0008711100" flag="0"/>
      <psa30 value="0.0001041349" flag="0"/>
    </comp>
    <comp name="00.HHZ">
      <acc value="0.0107520939" flag="0"/>
      <vel value="0.0022814914" flag="0"/>
      <psa03 value="0.0087117750" flag="0"/>
      <psa10 value="0.0013229783" flag="0"/>
      <psa30 value="0.0000795627" flag="0"/>
    </comp>
  </station>
  <station code="RIVEL" name="RIVEL" netid="FR" source="RESIF" insttype="seismometer" lat="46.759" lon="5.92249">
    <comp name="00.HH1">
      <acc value="0.0288064676" flag="0"/>
      <vel value="0.0119061857" flag="0"/>
      <psa03 value="0.0917399687" flag="0"/>
      <psa10 value="0.0085261459" flag="0"/>
      <psa30 value="0.0004695346" flag="0"/>
    </comp>
    <comp name="00.HH2">
      <acc value="0.0208653762" flag="0"/>
      <vel value="0.0087812001" flag="0"/>
      <psa03 value="0.0461825471" flag="0"/>
      <psa10 value="0.0047832687" flag="0"/>
      <psa30 value="0.0004056988" flag="0"/>
    </comp>
    <comp name="00.HHZ">
      <acc value="0.0136338690" flag="0"/>
      <vel value="0.0061347620" flag="0"/>
      <psa03 value="0.0522504965" flag="0"/>
      <psa10 value="0.0029647677" flag="0"/>
      <psa30 value="0.0001965835" flag="0"/>
    </comp>
  </station>
  <station code="OCOL" name="OCOL" netid="RA" source="RESIF" insttype="EST" lat="45.6764" lon="3.63619">
    <comp name="00.HNE">
      <acc value="0.0231214757" flag="0"/>
      <vel value="0.0024959133" flag="0"/>
      <psa03 value="0.0079007745" flag="0"/>
      <psa10 value="0.0007347294" flag="0"/>
      <psa30 value="0.0000558681" flag="0"/>
    </comp>
    <comp name="00.HNN">
      <acc value="0.0224777914" flag="0"/>
      <vel value="0.0025225359" flag="0"/>
      <psa03 value="0.0125367739" flag="0"/>
      <psa10 value="0.0016063401" flag="0"/>
      <psa30 value="0.0001496669" flag="0"/>
    </comp>
    <comp name="00.HNZ">
      <acc value="0.0162897253" flag="0"/>
      <vel value="0.0017477655" flag="0"/>
      <psa03 value="0.0063739964" flag="0"/>
      <psa10 value="0.0004733745" flag="0"/>
      <psa30 value="0.0000582925" flag="0"/>
    </comp>
  </station>
  <station code="OGAN" name="OGAN" netid="RA" source="RESIF" insttype="EST" lat="45.8918" lon="6.13574">
    <comp name="00.HNE">
      <acc value="0.0389078360" flag="0"/>
      <vel value="0.0075759353" flag="0"/>
      <psa03 value="0.0260301824" flag="0"/>
      <psa10 value="0.0010542268" flag="0"/>
      <psa30 value="0.0001325297" flag="0"/>
    </comp>
    <comp name="00.HNN">
      <acc value="0.0290228561" flag="0"/>
      <vel value="0.0051969771" flag="0"/>
      <psa03 value="0.0182750050" flag="0"/>
      <psa10 value="0.0012721391" flag="0"/>
      <psa30 value="0.0001116054" flag="0"/>
    </comp>
    <comp name="00.HNZ">
      <acc value="0.0323161760" flag="0"/>
      <vel value="0.0056818597" flag="0"/>
      <psa03 value="0.0124476568" flag="0"/>
      <psa10 value="0.0009262460" flag="0"/>
      <psa30 value="0.0000848815" flag="0"/>
    </comp>
  </station>
  <station code="OGAP" name="OGAP" netid="RA" source="RESIF" insttype="EST" lat="45.9036" lon="6.13289">
    <comp name="00.HNE">
      <acc value="0.1452797700" flag="0"/>
      <vel value="0.0327843958" flag="0"/>
      <psa03 value="0.1293034926" flag="0"/>
      <psa10 value="0.0182692083" flag="0"/>
      <psa30 value="0.0006069741" flag="0"/>
    </comp>
    <comp name="00.HNN">
      <acc value="0.1845672031" flag="0"/>
      <vel value="0.0303928144" flag="0"/>
      <psa03 value="0.0806354757" flag="0"/>
      <psa10 value="0.0085197106" flag="0"/>
      <psa30 value="0.0005297080" flag="0"/>
    </comp>
    <comp name="00.HNZ">
      <acc value="0.0920279157" flag="0"/>
      <vel value="0.0105210317" flag="0"/>
      <psa03 value="0.0442265547" flag="0"/>
      <psa10 value="0.0044333392" flag="0"/>
      <psa30 value="0.0002321509" flag="0"/>
    </comp>
  </station>
  <station code="OGBL" name="OGBL" netid="RA" source="RESIF" insttype="EST" lat="45.6345" lon="5.88419">
    <comp name="00.HNE">
      <acc value="0.0293912812" flag="0"/>
      <vel value="0.0150009170" flag="0"/>
      <psa03 value="0.0587418131" flag="0"/>
      <psa10 value="0.0163060895" flag="0"/>
      <psa30 value="0.0006862142" flag="0"/>
    </comp>
    <comp name="00.HNN">
      <acc value="0.0337605514" flag="0"/>
      <vel value="0.0132986057" flag="0"/>
      <psa03 value="0.0516519630" flag="0"/>
      <psa10 value="0.0168235205" flag="0"/>
      <psa30 value="0.0008520540" flag="0"/>
    </comp>
    <comp name="00.HNZ">
      <acc value="0.0579691832" flag="0"/>
      <vel value="0.0093697505" flag="0"/>
      <psa03 value="0.0377065039" flag="0"/>
      <psa10 value="0.0033588171" flag="0"/>
      <psa30 value="0.0002852446" flag="0"/>
    </comp>
  </station>
  <station code="OGCH" name="OGCH" netid="RA" source="RESIF" insttype="EST" lat="45.5888" lon="5.93248">
    <comp name="00.HNE">
      <acc value="0.0331043083" flag="0"/>
      <vel value="0.0047010650" flag="0"/>
      <psa03 value="0.0151201982" flag="0"/>
      <psa10 value="0.0015203169" flag="0"/>
      <psa30 value="0.0001115603" flag="0"/>
    </comp>
    <comp name="00.HNN">
      <acc value="0.0336576679" flag="0"/>
      <vel value="0.0051845190" flag="0"/>
      <psa03 value="0.0167172120" flag="0"/>
      <psa10 value="0.0015775127" flag="0"/>
      <psa30 value="0.0001600489" flag="0"/>
    </comp>
    <comp name="00.HNZ">
      <acc value="0.0136208085" flag="0"/>
      <vel value="0.0022501695" flag="0"/>
      <psa03 value="0.0122990196" flag="0"/>
      <psa10 value="0.0015846057" flag="0"/>
      <psa30 value="0.0001168360" flag="0"/>
    </comp>
  </station>
  <station code="OGEP" name="OGEP" netid="RA" source="RESIF" insttype="EST" lat="45.9379" lon="6.09083">
    <comp name="00.HNE">
      <acc value="0.0268705550" flag="0"/>
      <vel value="0.0088722075" flag="0"/>
      <psa03 value="0.0718694543" flag="0"/>
      <psa10 value="0.0023260156" flag="0"/>
      <psa30 value="0.0001787903" flag="0"/>
    </comp>
    <comp name="00.HNN">
      <acc value="0.0360877493" flag="0"/>
      <vel value="0.0119602780" flag="0"/>
      <psa03 value="0.0560753390" flag="0"/>
      <psa10 value="0.0032873744" flag="0"/>
      <psa30 value="0.0003152344" flag="0"/>
    </comp>
    <comp name="00.HNZ">
      <acc value="0.0701835723" flag="0"/>
      <vel value="0.0100819171" flag="0"/>
      <psa03 value="0.0257869553" flag="0"/>
      <psa10 value="0.0014205570" flag="0"/>
      <psa30 value="0.0000998930" flag="0"/>
    </comp>
  </station>
  <station code="OGFO" name="OGFO" netid="RA" source="RESIF" insttype="EST" lat="45.2088" lon="5.821">
    <comp name="00.HNE">
      <acc value="0.0357907015" flag="0"/>
      <vel value="0.0117390007" flag="0"/>
      <psa03 value="0.0469675204" flag="0"/>
      <psa10 value="0.0180133083" flag="0"/>
      <psa30 value="0.0012313699" flag="0"/>
    </comp>
    <comp name="00.HNN">
      <acc value="0.0415003327" flag="0"/>
      <vel value="0.0094075014" flag="0"/>
      <psa03 value="0.0349446071" flag="0"/>
      <psa10 value="0.0123839449" flag="0"/>
      <psa30 value="0.0009765799" flag="0"/>
    </comp>
    <comp name="00.HNZ">
      <acc value="0.0242149253" flag="0"/>
      <vel value="0.0109453204" flag="0"/>
      <psa03 value="0.0313613949" flag="0"/>
      <psa10 value="0.0086483864" flag="0"/>
      <psa30 value="0.0005835093" flag="0"/>
    </comp>
  </station>
  <station code="OGMU" name="OGMU" netid="RA" source="RESIF" insttype="EST" lat="45.1954" lon="5.7265">
    <comp name="00.HNE">
      <acc value="0.0173361183" flag="0"/>
      <vel value="0.0038294908" flag="0"/>
      <psa03 value="0.0187163167" flag="0"/>
      <psa10 value="0.0015788053" flag="0"/>
      <psa30 value="0.0001452067" flag="0"/>
    </comp>
    <comp name="00.HNN">
      <acc value="0.0201212999" flag="0"/>
      <vel value="0.0048663552" flag="0"/>
      <psa03 value="0.0237253438" flag="0"/>
      <psa10 value="0.0014918371" flag="0"/>
      <psa30 value="0.0001692525" flag="0"/>
    </comp>
    <comp name="00.HNZ">
      <acc value="0.0121775662" flag="0"/>
      <vel value="0.0033123902" flag="0"/>
      <psa03 value="0.0101312433" flag="0"/>
      <psa10 value="0.0014396554" flag="0"/>
      <psa30 value="0.0001641249" flag="0"/>
    </comp>
  </station>
  <station code="OGPO" name="OGPO" netid="RA" source="RESIF" insttype="EST" lat="45.9228" lon="6.06356">
    <comp name="00.HNE">
      <acc value="0.1148998715" flag="0"/>
      <vel value="0.0169619092" flag="0"/>
      <psa03 value="0.0263994659" flag="0"/>
      <psa10 value="0.0026078959" flag="0"/>
      <psa30 value="0.0002108201" flag="0"/>
    </comp>
    <comp name="00.HNN">
      <acc value="0.0727140484" flag="0"/>
      <vel value="0.0119001806" flag="0"/>
      <psa03 value="0.0382305294" flag="0"/>
      <psa10 value="0.0030768245" flag="0"/>
      <psa30 value="0.0002975856" flag="0"/>
    </comp>
    <comp name="00.HNZ">
      <acc value="0.0474873909" flag="0"/>
      <vel value="0.0059939184" flag="0"/>
      <psa03 value="0.0273868465" flag="0"/>
      <psa10 value="0.0008444144" flag="0"/>
      <psa30 value="0.0001235161" flag="0"/>
    </comp>
  </station>
</stationlist>
