<stationlist created="1778205311">
	<station code="CERN1" name="CERN1" netid="C4" source="CERN Seismic Network" insttype="" lat="46.235876" lon="6.054836">
		<comp name="--.HG2" depth="0.0">
			<acc value="0.00958561348090166" flag="0"/>
			<vel value="0.00119905299364763" flag="0"/>
			<psa03 value="0.00311760008039287" flag="0"/>
			<psa10 value="0.000582201400017744" flag="0"/>
			<psa30 value="3.96397939105573e-05" flag="0"/>
		</comp>
		<comp name="--.HG3" depth="0.0">
			<acc value="0.0063727747134772" flag="0"/>
			<vel value="0.00107518624569222" flag="0"/>
			<psa03 value="0.00379837206621774" flag="0"/>
			<psa10 value="0.000396619799505832" flag="0"/>
			<psa30 value="3.77132372491824e-05" flag="0"/>
		</comp>
		<comp name="--.HGZ" depth="0.0">
			<acc value="0.00519565956991914" flag="0"/>
			<vel value="0.00102039178271652" flag="0"/>
			<psa03 value="0.00487947428291275" flag="0"/>
			<psa10 value="0.000522932063557341" flag="0"/>
			<psa30 value="4.86665800417893e-05" flag="0"/>
		</comp>
	</station>
	<station code="CERN5" name="CERN5" netid="C4" source="CERN Seismic Network" insttype="" lat="46.309893" lon="6.07608">
		<comp name="--.HG2" depth="0.0">
			<acc value="0.0126092377221798" flag="0"/>
			<vel value="0.00227272529941131" flag="0"/>
			<psa03 value="0.00702452643906867" flag="0"/>
			<psa10 value="0.00155031745932312" flag="0"/>
			<psa30 value="0.00011364520481041" flag="0"/>
		</comp>
		<comp name="--.HG3" depth="0.0">
			<acc value="0.00852009983160382" flag="0"/>
			<vel value="0.00143633839545537" flag="0"/>
			<psa03 value="0.00545854920742915" flag="0"/>
			<psa10 value="0.000958378065763381" flag="0"/>
			<psa30 value="7.9193705714341e-05" flag="0"/>
		</comp>
		<comp name="--.HGZ" depth="0.0">
			<acc value="0.00594659854286745" flag="0"/>
			<vel value="0.00110641016487464" flag="0"/>
			<psa03 value="0.00398205638902619" flag="0"/>
			<psa10 value="0.000587912594964091" flag="0"/>
			<psa30 value="9.30637897660052e-05" flag="0"/>
		</comp>
	</station>
	<station code="CERNS" name="CERNS" netid="C4" source="CERN Seismic Network" insttype="" lat="46.266947" lon="6.066212">
		<comp name="--.HGE" depth="0.0">
			<acc value="0.0177751110841969" flag="0"/>
			<vel value="0.00270006278045545" flag="0"/>
			<psa03 value="0.0136016308119546" flag="0"/>
			<psa10 value="0.000885895691041781" flag="0"/>
			<psa30 value="0.000146307015641749" flag="0"/>
		</comp>
		<comp name="--.HGN" depth="0.0">
			<acc value="0.0224125256456434" flag="0"/>
			<vel value="0.00348393077188921" flag="0"/>
			<psa03 value="0.00984328545601979" flag="0"/>
			<psa10 value="0.00153018346634489" flag="0"/>
			<psa30 value="0.000115882315141324" flag="0"/>
		</comp>
		<comp name="--.HGZ" depth="0.0">
			<acc value="0.0118603669153645" flag="0"/>
			<vel value="0.0018146258352562" flag="0"/>
			<psa03 value="0.00644287775303113" flag="0"/>
			<psa10 value="0.000567778601985869" flag="0"/>
			<psa30 value="0.000103354497288208" flag="0"/>
		</comp>
	</station>
	<station code="BOURR" name="BOURR" netid="CH" source="Switzerland Seismological Network" insttype="" lat="47.39364" lon="7.2301">
		<comp name="--.HGE" depth="0.0">
			<acc value="0.0035772301477199" flag="0"/>
			<vel value="0.00167655500302543" flag="0"/>
			<psa03 value="0.00979854324940151" flag="0"/>
			<psa10 value="0.00160669263966214" flag="0"/>
			<psa30 value="9.57483221631015e-05" flag="0"/>
		</comp>
		<comp name="--.HGN" depth="0.0">
			<acc value="0.00236019150648415" flag="0"/>
			<vel value="0.00123365792093637" flag="0"/>
			<psa03 value="0.00559277582728397" flag="0"/>
			<psa10 value="0.00127246835622365" flag="0"/>
			<psa30 value="0.000121698802001699" flag="0"/>
		</comp>
		<comp name="--.HGZ" depth="0.0">
			<acc value="0.00300730350197859" flag="0"/>
			<vel value="0.00120503178668479" flag="0"/>
			<psa03 value="0.00800885498467064" flag="0"/>
			<psa10 value="0.00138119191830605" flag="0"/>
			<psa30 value="7.65091733172447e-05" flag="0"/>
		</comp>
	</station>
	<station code="GIMEL" name="GIMEL" netid="CH" source="Switzerland Seismological Network" insttype="" lat="46.53364" lon="6.26545">
		<comp name="--.HGE" depth="0.0">
			<acc value="0.0159307010854943" flag="0"/>
			<vel value="0.00360120392256225" flag="0"/>
			<psa03 value="0.0148544125972662" flag="0"/>
			<psa10 value="0.00194494372169627" flag="0"/>
			<psa30 value="0.000140490528781373" flag="0"/>
		</comp>
		<comp name="--.HGN" depth="0.0">
			<acc value="0.014521880916846" flag="0"/>
			<vel value="0.0033503514868596" flag="0"/>
			<psa03 value="0.0183443047134914" flag="0"/>
			<psa10 value="0.00114763759975867" flag="0"/>
			<psa30 value="0.000112302938611862" flag="0"/>
		</comp>
		<comp name="--.HGZ" depth="0.0">
			<acc value="0.0139055846547446" flag="0"/>
			<vel value="0.00295569578506505" flag="0"/>
			<psa03 value="0.0150781236303576" flag="0"/>
			<psa10 value="0.000877842093850492" flag="0"/>
			<psa30 value="0.000124383334398795" flag="0"/>
		</comp>
	</station>
	<station code="SLCF" name="SLCF" netid="CH" source="Switzerland Seismological Network" insttype="" lat="47.08296" lon="6.79236">
		<comp name="--.HGE" depth="1.0">
			<acc value="0.045693859460916" flag="0"/>
			<vel value="0.0104311440749759" flag="0"/>
			<psa03 value="0.0521246707102866" flag="0"/>
			<psa10 value="0.0028711073986945" flag="0"/>
			<psa30 value="0.000199102819451309" flag="0"/>
		</comp>
		<comp name="--.HGN" depth="1.0">
			<acc value="0.0465999916517653" flag="0"/>
			<vel value="0.0111707566575659" flag="0"/>
			<psa03 value="0.0675159897869721" flag="0"/>
			<psa10 value="0.00494088187685575" flag="0"/>
			<psa30 value="0.000330644906909028" flag="0"/>
		</comp>
		<comp name="--.HGZ" depth="1.0">
			<acc value="0.0309248785514099" flag="0"/>
			<vel value="0.00745258058040251" flag="0"/>
			<psa03 value="0.0388362353446599" flag="0"/>
			<psa10 value="0.0020738012767569" flag="0"/>
			<psa30 value="0.000202234773914588" flag="0"/>
		</comp>
	</station>
	<station code="STAF" name="STAF" netid="CH" source="Switzerland Seismological Network" insttype="" lat="46.8052" lon="7.2161">
		<comp name="--.HGE" depth="0.0">
			<acc value="0.0120455512356524" flag="0"/>
			<vel value="0.00223899651774279" flag="0"/>
			<psa03 value="0.0109170984148583" flag="0"/>
			<psa10 value="0.00133689713375396" flag="0"/>
			<psa30 value="9.17215235674571e-05" flag="0"/>
		</comp>
		<comp name="--.HGN" depth="0.0">
			<acc value="0.011713632819958" flag="0"/>
			<vel value="0.00293322111228951" flag="0"/>
			<psa03 value="0.01449647494432" flag="0"/>
			<psa10 value="0.00160669263966214" flag="0"/>
			<psa30 value="0.000114092626876593" flag="0"/>
		</comp>
		<comp name="--.HGZ" depth="0.0">
			<acc value="0.0103987627438357" flag="0"/>
			<vel value="0.00182028632977104" flag="0"/>
			<psa03 value="0.00519009596771952" flag="0"/>
			<psa10 value="0.000587912594964091" flag="0"/>
			<psa30 value="8.00885498467064e-05" flag="0"/>
		</comp>
	</station>
	<station code="TORNY" name="TORNY" netid="CH" source="Switzerland Seismological Network" insttype="" lat="46.77363" lon="6.95874">
		<comp name="--.HGE" depth="0.0">
			<acc value="0.0089873390271076" flag="0"/>
			<vel value="0.00214347986265534" flag="0"/>
			<psa03 value="0.00850101925747163" flag="0"/>
			<psa10 value="0.00158655864668392" flag="0"/>
			<psa30 value="9.12741015012744e-05" flag="0"/>
		</comp>
		<comp name="--.HGN" depth="0.0">
			<acc value="0.00912817438318492" flag="0"/>
			<vel value="0.00269777096527755" flag="0"/>
			<psa03 value="0.0107828717950035" flag="0"/>
			<psa10 value="0.00131676314077574" flag="0"/>
			<psa30 value="0.000188364689862924" flag="0"/>
		</comp>
		<comp name="--.HGZ" depth="0.0">
			<acc value="0.00505409525132792" flag="0"/>
			<vel value="0.00116448633648705" flag="0"/>
			<psa03 value="0.0044294784552089" flag="0"/>
			<psa10 value="0.000946297669976447" flag="0"/>
			<psa30 value="9.12741015012744e-05" flag="0"/>
		</comp>
	</station>
	<station code="GRN" name="GRN" netid="FR" source="RESIF and other broad-band and accelerometric permanent networks in metropolitan France (RESIF)" insttype="" lat="45.2413" lon="5.7439">
		<comp name="00.HNE" depth="0.0">
			<acc value="0.0414074158651854" flag="0"/>
			<vel value="0.00916792036209088" flag="0"/>
			<psa03 value="0.0388362353446599" flag="0"/>
			<psa10 value="0.00494490867545139" flag="0"/>
			<psa30 value="0.000263531596981621" flag="0"/>
		</comp>
		<comp name="00.HNN" depth="0.0">
			<acc value="0.0294512633611397" flag="0"/>
			<vel value="0.00796945742254871" flag="0"/>
			<psa03 value="0.0216104857966253" flag="0"/>
			<psa10 value="0.00233151638687814" flag="0"/>
			<psa30 value="0.00015972967762723" flag="0"/>
		</comp>
		<comp name="00.HNZ" depth="0.0">
			<acc value="0.0153401334963486" flag="0"/>
			<vel value="0.00326375945086909" flag="0"/>
			<psa03 value="0.015480803489922" flag="0"/>
			<psa10 value="0.00144159389724072" flag="0"/>
			<psa30 value="0.000159282255561047" flag="0"/>
		</comp>
	</station>
	<station code="OG35" name="OG35" netid="FR" source="RESIF and other broad-band and accelerometric permanent networks in metropolitan France (RESIF)" insttype="" lat="46.044516" lon="5.571265">
		<comp name="00.HNE" depth="0.0">
			<acc value="0.0315686878721495" flag="0"/>
			<vel value="0.00858428317861" flag="0"/>
			<psa03 value="0.0621916671993977" flag="0"/>
			<psa10 value="0.00487645309932544" flag="0"/>
			<psa30 value="0.000221026500694262" flag="0"/>
		</comp>
		<comp name="00.HNN" depth="0.0">
			<acc value="0.0361735565143819" flag="0"/>
			<vel value="0.00832577452767372" flag="0"/>
			<psa03 value="0.0690372248119933" flag="0"/>
			<psa10 value="0.0038496194574361" flag="0"/>
			<psa30 value="0.000228185253753186" flag="0"/>
		</comp>
		<comp name="00.HNZ" depth="0.0">
			<acc value="0.0219020338908709" flag="0"/>
			<vel value="0.00621296133745313" flag="0"/>
			<psa03 value="0.0389704619645147" flag="0"/>
			<psa10 value="0.00125233436324543" flag="0"/>
			<psa30 value="0.000175836872009808" flag="0"/>
		</comp>
	</station>
	<station code="OGS1" name="OGS1" netid="FR" source="RESIF and other broad-band and accelerometric permanent networks in metropolitan France (RESIF)" insttype="" lat="45.06079" lon="5.804671">
		<comp name="00.HNE" depth="0.0">
			<acc value="0.0940602859344907" flag="0"/>
			<vel value="0.015161434803075" flag="0"/>
			<psa03 value="0.0357490230879991" flag="0"/>
			<psa10 value="0.00299191135656383" flag="0"/>
			<psa30 value="0.000336908815835586" flag="0"/>
		</comp>
		<comp name="00.HNN" depth="0.0">
			<acc value="0.0427842335060504" flag="0"/>
			<vel value="0.00850389042252337" flag="0"/>
			<psa03 value="0.0415655099483745" flag="0"/>
			<psa10 value="0.00215031045007414" flag="0"/>
			<psa30 value="0.000220131656561897" flag="0"/>
		</comp>
		<comp name="00.HNZ" depth="0.0">
			<acc value="0.0202183484475088" flag="0"/>
			<vel value="0.00450327854724299" flag="0"/>
			<psa03 value="0.0204471884245502" flag="0"/>
			<psa10 value="0.00189662213854854" flag="0"/>
			<psa30 value="0.000140937950847556" flag="0"/>
		</comp>
	</station>
	<station code="OGS3" name="OGS3" netid="FR" source="RESIF and other broad-band and accelerometric permanent networks in metropolitan France (RESIF)" insttype="" lat="45.06951" lon="5.806072">
		<comp name="00.HNE" depth="2.0">
			<acc value="0.012952972926612" flag="0"/>
			<vel value="0.00259909508384228" flag="0"/>
			<psa03 value="0.00447422066182718" flag="0"/>
			<psa10 value="0.00113153040537609" flag="0"/>
			<psa30 value="0.00012841013299444" flag="0"/>
		</comp>
		<comp name="00.HNN" depth="2.0">
			<acc value="0.0097692440123399" flag="0"/>
			<vel value="0.00181620054630617" flag="0"/>
			<psa03 value="0.00590597127361187" flag="0"/>
			<psa10 value="0.0019650777146745" flag="0"/>
			<psa30 value="0.000171810073414163" flag="0"/>
		</comp>
		<comp name="00.HNZ" depth="2.0">
			<acc value="0.00689530526348025" flag="0"/>
			<vel value="0.00144577889623241" flag="0"/>
			<psa03 value="0.00532432258757434" flag="0"/>
			<psa10 value="0.00134897752954089" flag="0"/>
			<psa30 value="0.000126620444729709" flag="0"/>
		</comp>
	</station>
	<station code="OGSA" name="OGSA" netid="FR" source="RESIF and other broad-band and accelerometric permanent networks in metropolitan France (RESIF)" insttype="" lat="45.036806" lon="6.400931">
		<comp name="00.HNE" depth="0.0">
			<acc value="0.00881318555509935" flag="0"/>
			<vel value="0.00212908073087711" flag="0"/>
			<psa03 value="0.00657710437288595" flag="0"/>
			<psa10 value="0.00153421026494054" flag="0"/>
			<psa30 value="8.67998808394472e-05" flag="0"/>
		</comp>
		<comp name="00.HNN" depth="0.0">
			<acc value="0.0105933139704335" flag="0"/>
			<vel value="0.00213104237812363" flag="0"/>
			<psa03 value="0.0044294784552089" flag="0"/>
			<psa10 value="0.00142951350145378" flag="0"/>
			<psa30 value="8.05359719128891e-05" flag="0"/>
		</comp>
		<comp name="00.HNZ" depth="0.0">
			<acc value="0.0064566999584943" flag="0"/>
			<vel value="0.00116668389034238" flag="0"/>
			<psa03 value="0.00456370507506372" flag="0"/>
			<psa10 value="0.00066844856687698" flag="0"/>
			<psa30 value="5.72700244713878e-05" flag="0"/>
		</comp>
	</station>
	<station code="OGSM" name="OGSM" netid="FR" source="RESIF and other broad-band and accelerometric permanent networks in metropolitan France (RESIF)" insttype="" lat="45.609238" lon="5.697216">
		<comp name="00.HNE" depth="0.0">
			<acc value="0.0398880933034497" flag="0"/>
			<vel value="0.00682531441023532" flag="0"/>
			<psa03 value="0.020089250771604" flag="0"/>
			<psa10 value="0.00154629066072747" flag="0"/>
			<psa30 value="0.000100222542824929" flag="0"/>
		</comp>
		<comp name="00.HNN" depth="0.0">
			<acc value="0.0416641232685972" flag="0"/>
			<vel value="0.00589804818688378" flag="0"/>
			<psa03 value="0.0105591607619121" flag="0"/>
			<psa10 value="0.00169528220876632" flag="0"/>
			<psa30 value="0.00014317506117847" flag="0"/>
		</comp>
		<comp name="00.HNZ" depth="0.0">
			<acc value="0.033257087550986" flag="0"/>
			<vel value="0.00593209881531348" flag="0"/>
			<psa03 value="0.0167335852752336" flag="0"/>
			<psa10 value="0.00118790558571512" flag="0"/>
			<psa30 value="0.00011856684753842" flag="0"/>
		</comp>
	</station>
	<station code="OGAN" name="OGAN" netid="RA" source="Reseau Accelerometrique Permanent (French Accelerometrique Network) (RAP)" insttype="" lat="45.891799" lon="6.135552">
		<comp name="00.HNE" depth="0.0">
			<acc value="0.0394495657581182" flag="0"/>
			<vel value="0.00777280620159618" flag="0"/>
			<psa03 value="0.0263531596981621" flag="0"/>
			<psa10 value="0.00108320882222836" flag="0"/>
			<psa30 value="0.000135121463987181" flag="0"/>
		</comp>
		<comp name="00.HNN" depth="0.0">
			<acc value="0.029568619938148" flag="0"/>
			<vel value="0.00522266827971549" flag="0"/>
			<psa03 value="0.0182995625068731" flag="0"/>
			<psa10 value="0.00129260234920187" flag="0"/>
			<psa30 value="0.000109170984148583" flag="0"/>
		</comp>
		<comp name="00.HNZ" depth="0.0">
			<acc value="0.0326940275929811" flag="0"/>
			<vel value="0.00579268239204619" flag="0"/>
			<psa03 value="0.0126620444729709" flag="0"/>
			<psa10 value="0.000938244072785159" flag="0"/>
			<psa30 value="7.42720629863311e-05" flag="0"/>
		</comp>
	</station>
	<station code="OGAP" name="OGAP" netid="RA" source="Reseau Accelerometrique Permanent (French Accelerometrique Network) (RAP)" insttype="" lat="45.903552" lon="6.132819">
		<comp name="00.HNE" depth="0.0">
			<acc value="0.143595366997598" flag="0"/>
			<vel value="0.033476649899591" flag="0"/>
			<psa03 value="0.133018580276122" flag="0"/>
			<psa10 value="0.0182695852284389" flag="0"/>
			<psa30 value="0.000610731120339409" flag="0"/>
		</comp>
		<comp name="00.HNN" depth="0.0">
			<acc value="0.18628613126294" flag="0"/>
			<vel value="0.0311756415402602" flag="0"/>
			<psa03 value="0.0810281361856901" flag="0"/>
			<psa10 value="0.00851667902978803" flag="0"/>
			<psa30 value="0.00053019514842652" flag="0"/>
		</comp>
		<comp name="00.HNZ" depth="0.0">
			<acc value="0.0898064062411683" flag="0"/>
			<vel value="0.0108022856832459" flag="0"/>
			<psa03 value="0.0444737533785621" flag="0"/>
			<psa10 value="0.00444558564959148" flag="0"/>
			<psa30 value="0.000234001740613561" flag="0"/>
		</comp>
	</station>
	<station code="OGCH" name="OGCH" netid="RA" source="Reseau Accelerometrique Permanent (French Accelerometrique Network) (RAP)" insttype="" lat="45.588784" lon="5.932482">
		<comp name="00.HNE" depth="0.0">
			<acc value="0.0311499173887181" flag="0"/>
			<vel value="0.00492036579229271" flag="0"/>
			<psa03 value="0.0152123502502124" flag="0"/>
			<psa10 value="0.00152212986915361" flag="0"/>
			<psa30 value="0.000119909113736968" flag="0"/>
		</comp>
		<comp name="00.HNN" depth="0.0">
			<acc value="0.0307395315215094" flag="0"/>
			<vel value="0.0052909577333212" flag="0"/>
			<psa03 value="0.0168678118950885" flag="0"/>
			<psa10 value="0.00158655864668392" flag="0"/>
			<psa30 value="0.000165993586553788" flag="0"/>
		</comp>
		<comp name="00.HNZ" depth="0.0">
			<acc value="0.0127371774689056" flag="0"/>
			<vel value="0.00234852031919486" flag="0"/>
			<psa03 value="0.0123935912332613" flag="0"/>
			<psa10 value="0.00158655864668392" flag="0"/>
			<psa30 value="0.000124383334398795" flag="0"/>
		</comp>
	</station>
	<station code="OGCU" name="OGCU" netid="RA" source="Reseau Accelerometrique Permanent (French Accelerometrique Network) (RAP)" insttype="" lat="45.200197" lon="5.775136">
		<comp name="00.HNE" depth="0.0">
			<acc value="0.0230560221783369" flag="0"/>
			<vel value="0.0105810750160265" flag="0"/>
			<psa03 value="0.0536906479419261" flag="0"/>
			<psa10 value="0.0147904312418021" flag="0"/>
			<psa30 value="0.0014058001319461" flag="0"/>
		</comp>
		<comp name="00.HNN" depth="0.0">
			<acc value="0.0381595394380783" flag="0"/>
			<vel value="0.0110097861908309" flag="0"/>
			<psa03 value="0.0569568290250599" flag="0"/>
			<psa10 value="0.00927774396436483" flag="0"/>
			<psa30 value="0.00079193705714341" flag="0"/>
		</comp>
		<comp name="00.HNZ" depth="0.0">
			<acc value="0.0310111292712316" flag="0"/>
			<vel value="0.00604601800206842" flag="0"/>
			<psa03 value="0.0253240889459418" flag="0"/>
			<psa10 value="0.0058871795468322" flag="0"/>
			<psa30 value="0.000408048924358638" flag="0"/>
		</comp>
	</station>
	<station code="OGDH" name="OGDH" netid="RA" source="Reseau Accelerometrique Permanent (French Accelerometrique Network) (RAP)" insttype="" lat="45.181508" lon="5.736532">
		<comp name="00.HNE" depth="0.0">
			<acc value="0.0318890854834962" flag="0"/>
			<vel value="0.0143029444482389" flag="0"/>
			<psa03 value="0.0526168349830876" flag="0"/>
			<psa10 value="0.0123703252858198" flag="0"/>
			<psa30 value="0.000897528664762531" flag="0"/>
		</comp>
		<comp name="00.HNN" depth="0.0">
			<acc value="0.0341172732376318" flag="0"/>
			<vel value="0.0142022820065388" flag="0"/>
			<psa03 value="0.059596619215538" flag="0"/>
			<psa10 value="0.00968847742112057" flag="0"/>
			<psa30 value="0.000893501866166887" flag="0"/>
		</comp>
		<comp name="00.HNZ" depth="0.0">
			<acc value="0.0262815197103184" flag="0"/>
			<vel value="0.00519624270785175" flag="0"/>
			<psa03 value="0.0285455278224574" flag="0"/>
			<psa10 value="0.00383351226305352" flag="0"/>
			<psa30 value="0.000336461393769404" flag="0"/>
		</comp>
	</station>
	<station code="OGEP" name="OGEP" netid="RA" source="Reseau Accelerometrique Permanent (French Accelerometrique Network) (RAP)" insttype="" lat="45.93783" lon="6.090743">
		<comp name="00.HNE" depth="0.0">
			<acc value="0.027639471926774" flag="0"/>
			<vel value="0.00888894330769694" flag="0"/>
			<psa03 value="0.0726613435480733" flag="0"/>
			<psa10 value="0.00233151638687814" flag="0"/>
			<psa30 value="0.000187917267796741" flag="0"/>
		</comp>
