<?xml version="1.0" encoding="UTF-8" standalone="yes"?>
<!DOCTYPE earthquake SYSTEM "stationlist.dtd">
<stationlist created="" xmlns="ch.ethz.sed.shakemap.usgs.xml">
  <station code="BNN" name="BNN" netid="KO" insttype="CMG-3T" lat="38.8521" lon="35.8472">
    <comp name="--.HHE">
      <acc value="0.0044232793" flag="0"/>
      <vel value="0.0031170369" flag="0"/>
      <psa03 value="0.0113835165" flag="0"/>
      <psa10 value="0.0044691260" flag="0"/>
      <psa30 value="0.0003636041" flag="0"/>
    </comp>
    <comp name="--.HHZ">
      <acc value="0.0021902549" flag="0"/>
      <vel value="0.0020521862" flag="0"/>
      <psa03 value="0.0087684452" flag="0"/>
      <psa10 value="0.0037621949" flag="0"/>
      <psa30 value="0.0004861297" flag="0"/>
    </comp>
    <comp name="--.HHN">
      <acc value="0.0047548155" flag="0"/>
      <vel value="0.0028060562" flag="0"/>
      <psa03 value="0.0117616202" flag="0"/>
      <psa10 value="0.0041822712" flag="0"/>
      <psa30 value="0.0003896145" flag="0"/>
    </comp>
  </station>
  <station code="GAZ" name="GAZ" netid="KO" insttype="CMG-3T" lat="37.1721" lon="37.2096">
    <comp name="--.HHE">
      <acc value="0.0099678416" flag="0"/>
      <vel value="0.0062599353" flag="0"/>
      <psa03 value="0.0145351718" flag="0"/>
      <psa10 value="0.0088953573" flag="0"/>
      <psa30 value="0.0006173171" flag="0"/>
    </comp>
    <comp name="--.HHZ">
      <acc value="0.0087791410" flag="0"/>
      <vel value="0.0040270390" flag="0"/>
      <psa03 value="0.0128782031" flag="0"/>
      <psa10 value="0.0054079546" flag="0"/>
      <psa30 value="0.0003588849" flag="0"/>
    </comp>
    <comp name="--.HHN">
      <acc value="0.0120876728" flag="0"/>
      <vel value="0.0072249674" flag="0"/>
      <psa03 value="0.0167082653" flag="0"/>
      <psa10 value="0.0112770170" flag="0"/>
      <psa30 value="0.0009919853" flag="0"/>
    </comp>
  </station>
  <station code="KMRS" name="KMRS" netid="KO" insttype="CMG-3T" lat="37.5053" lon="36.9">
    <comp name="--.HHE">
      <acc value="0.0117905296" flag="0"/>
      <vel value="0.0054574824" flag="0"/>
      <psa03 value="0.0140504647" flag="0"/>
      <psa10 value="0.0075706152" flag="0"/>
      <psa30 value="0.0015849982" flag="0"/>
    </comp>
    <comp name="--.HHN">
      <acc value="0.0144066270" flag="0"/>
      <vel value="0.0065827201" flag="0"/>
      <psa03 value="0.0275030370" flag="0"/>
      <psa10 value="0.0073730988" flag="0"/>
      <psa30 value="0.0013760742" flag="0"/>
    </comp>
    <comp name="--.HHZ">
      <acc value="0.0195059676" flag="0"/>
      <vel value="0.0062904026" flag="0"/>
      <psa03 value="0.0243994812" flag="0"/>
      <psa10 value="0.0051574273" flag="0"/>
      <psa30 value="0.0009224094" flag="0"/>
    </comp>
  </station>
  <station code="ANDN" name="ANDN" netid="TU" insttype="T" lat="37.58" lon="36.3452">
    <comp name="--.HHN">
      <acc value="0.1564441899" flag="0"/>
      <vel value="0.0516597649" flag="0"/>
      <psa03 value="0.3021019271" flag="0"/>
      <psa10 value="0.0479809643" flag="0"/>
      <psa30 value="0.0047347765" flag="0"/>
    </comp>
    <comp name="--.HHZ">
      <acc value="0.0513609514" flag="0"/>
      <vel value="0.0250377966" flag="0"/>
      <psa03 value="0.1031832555" flag="0"/>
      <psa10 value="0.0573625025" flag="0"/>
      <psa30 value="0.0036707885" flag="0"/>
    </comp>
    <comp name="--.HHE">
      <acc value="0.1561574689" flag="0"/>
      <vel value="0.0553127883" flag="0"/>
      <psa03 value="0.2503767418" flag="0"/>
      <psa10 value="0.0487216186" flag="0"/>
      <psa30 value="0.0063990188" flag="0"/>
    </comp>
  </station>
</stationlist>
