<?xml version="1.0" encoding="UTF-8" standalone="yes"?>
<!DOCTYPE earthquake SYSTEM "stationlist.dtd">
<stationlist created="" xmlns="ch.ethz.sed.shakemap.usgs.xml">
  <station code="ACATE" name="ACATE" netid="IV" insttype="" lat="37.024" lon="14.5006">
    <comp name="--.HNE">
      <acc value="1.0800786515" flag="0"/>
      <vel value="0.4458995526" flag="0"/>
      <psa03 value="2.3050316134" flag="0"/>
      <psa10 value="0.1863713564" flag="0"/>
      <psa30 value="0.0186690259" flag="0"/>
    </comp>
    <comp name="--.HNN">
      <acc value="1.4930224624" flag="0"/>
      <vel value="0.8372864147" flag="0"/>
      <psa03 value="2.5869167844" flag="0"/>
      <psa10 value="0.3767910845" flag="0"/>
      <psa30 value="0.0379472360" flag="0"/>
    </comp>
    <comp name="--.HNZ">
      <acc value="0.7625552534" flag="0"/>
      <vel value="0.2171281967" flag="0"/>
      <psa03 value="1.3597444359" flag="0"/>
      <psa10 value="0.2644998683" flag="0"/>
      <psa30 value="0.0092097322" flag="0"/>
    </comp>
  </station>
  <station code="AIO" name="AIO" netid="IV" insttype="" lat="37.9712" lon="15.233">
    <comp name="--.HHE">
      <acc value="0.0537282365" flag="0"/>
      <vel value="0.0322499285" flag="0"/>
      <psa03 value="0.2266226753" flag="0"/>
      <psa10 value="0.0204066617" flag="0"/>
      <psa30 value="0.0015466854" flag="0"/>
    </comp>
    <comp name="--.HHN">
      <acc value="0.0595363572" flag="0"/>
      <vel value="0.0268360193" flag="0"/>
      <psa03 value="0.2405716759" flag="0"/>
      <psa10 value="0.0149249590" flag="0"/>
      <psa30 value="0.0012975188" flag="0"/>
    </comp>
    <comp name="--.HHZ">
      <acc value="0.0468491285" flag="0"/>
      <vel value="0.0234896609" flag="0"/>
      <psa03 value="0.1273358176" flag="0"/>
      <psa10 value="0.0102899204" flag="0"/>
      <psa30 value="0.0006635767" flag="0"/>
    </comp>
  </station>
  <station code="CAGR" name="CAGR" netid="IV" insttype="" lat="37.622" lon="14.4999">
    <comp name="--.HHE">
      <acc value="0.1421507258" flag="0"/>
      <vel value="0.0866388285" flag="0"/>
      <psa03 value="0.4742963760" flag="0"/>
      <psa10 value="0.0664929433" flag="0"/>
      <psa30 value="0.0041554527" flag="0"/>
    </comp>
    <comp name="--.HHN">
      <acc value="0.1284669970" flag="0"/>
      <vel value="0.0714332562" flag="0"/>
      <psa03 value="0.5866591200" flag="0"/>
      <psa10 value="0.0654391641" flag="0"/>
      <psa30 value="0.0044926023" flag="0"/>
    </comp>
    <comp name="--.HHZ">
      <acc value="0.0675994586" flag="0"/>
      <vel value="0.0436433368" flag="0"/>
      <psa03 value="0.2790741488" flag="0"/>
      <psa10 value="0.0464628695" flag="0"/>
      <psa30 value="0.0026393639" flag="0"/>
    </comp>
  </station>
  <station code="CMDO" name="CMDO" netid="IV" insttype="" lat="37.4639" lon="13.8229">
    <comp name="--.HHE">
      <acc value="0.0312177565" flag="0"/>
      <vel value="0.0147711585" flag="0"/>
      <psa03 value="0.1378300792" flag="0"/>
      <psa10 value="0.0148849028" flag="0"/>
      <psa30 value="0.0049112751" flag="0"/>
    </comp>
    <comp name="--.HHN">
      <acc value="0.0368239271" flag="0"/>
      <vel value="0.0186938628" flag="0"/>
      <psa03 value="0.1947380622" flag="0"/>
      <psa10 value="0.0231904818" flag="0"/>
      <psa30 value="0.0046683186" flag="0"/>
    </comp>
    <comp name="--.HHZ">
      <acc value="0.0511424914" flag="0"/>
      <vel value="0.0275298063" flag="0"/>
      <psa03 value="0.1505872346" flag="0"/>
      <psa10 value="0.0297357574" flag="0"/>
      <psa30 value="0.0025358182" flag="0"/>
    </comp>
  </station>
  <station code="CORL" name="CORL" netid="IV" insttype="" lat="37.8943" lon="13.3038">
    <comp name="--.HHE">
      <acc value="0.0371135445" flag="0"/>
      <vel value="0.0208969282" flag="0"/>
      <psa03 value="0.1451717619" flag="0"/>
      <psa10 value="0.0155146301" flag="0"/>
      <psa30 value="0.0025219884" flag="0"/>
    </comp>
    <comp name="--.HHN">
      <acc value="0.0283446208" flag="0"/>
      <vel value="0.0183227676" flag="0"/>
      <psa03 value="0.1132916303" flag="0"/>
      <psa10 value="0.0167486148" flag="0"/>
      <psa30 value="0.0020635785" flag="0"/>
    </comp>
    <comp name="--.HHZ">
      <acc value="0.0184734174" flag="0"/>
      <vel value="0.0108053296" flag="0"/>
      <psa03 value="0.0655029834" flag="0"/>
      <psa10 value="0.0138467924" flag="0"/>
      <psa30 value="0.0008480476" flag="0"/>
    </comp>
  </station>
  <station code="CPTP" name="CPTP" netid="IV" insttype="" lat="37.4075" lon="14.1625">
    <comp name="--.HHE">
      <acc value="0.4479154915" flag="0"/>
      <vel value="0.3205480474" flag="0"/>
      <psa03 value="0.9881446868" flag="0"/>
      <psa10 value="0.2885844946" flag="0"/>
      <psa30 value="0.0219669712" flag="0"/>
    </comp>
    <comp name="--.HHN">
      <acc value="0.4924664525" flag="0"/>
      <vel value="0.3658446376" flag="0"/>
      <psa03 value="1.2978678424" flag="0"/>
      <psa10 value="0.2271030892" flag="0"/>
      <psa30 value="0.0207370627" flag="0"/>
    </comp>
    <comp name="--.HHZ">
      <acc value="0.4186381378" flag="0"/>
      <vel value="0.1493469644" flag="0"/>
      <psa03 value="0.5494477257" flag="0"/>
      <psa10 value="0.1376430825" flag="0"/>
      <psa30 value="0.0068999892" flag="0"/>
    </comp>
  </station>
  <station code="CSLB" name="CSLB" netid="IV" insttype="" lat="37.9374" lon="14.0579">
    <comp name="--.HHE">
      <acc value="0.0666914326" flag="0"/>
      <vel value="0.0448647934" flag="0"/>
      <psa03 value="0.2185186611" flag="0"/>
      <psa10 value="0.0620374727" flag="0"/>
      <psa30 value="0.0030553073" flag="0"/>
    </comp>
    <comp name="--.HHN">
      <acc value="0.0865843547" flag="0"/>
      <vel value="0.0646638474" flag="0"/>
      <psa03 value="0.2853334211" flag="0"/>
      <psa10 value="0.0548549005" flag="0"/>
      <psa30 value="0.0031174804" flag="0"/>
    </comp>
    <comp name="--.HHZ">
      <acc value="0.0735143019" flag="0"/>
      <vel value="0.0329297629" flag="0"/>
      <psa03 value="0.1697136153" flag="0"/>
      <psa10 value="0.0315748690" flag="0"/>
      <psa30 value="0.0013423059" flag="0"/>
    </comp>
  </station>
  <station code="ECBD" name="ECBD" netid="IV" insttype="" lat="37.7802" lon="15.0865">
    <comp name="--.HHE">
      <acc value="0.2123590912" flag="0"/>
      <vel value="0.0742599695" flag="0"/>
      <psa03 value="0.4645252872" flag="0"/>
      <psa10 value="0.0631402945" flag="0"/>
      <psa30 value="0.0027058608" flag="0"/>
    </comp>
    <comp name="--.HHZ">
      <acc value="0.1216384677" flag="0"/>
      <vel value="0.0382676081" flag="0"/>
      <psa03 value="0.2873797921" flag="0"/>
      <psa10 value="0.0236576314" flag="0"/>
      <psa30 value="0.0020774189" flag="0"/>
    </comp>
    <comp name="--.HHN">
      <acc value="0.1999219747" flag="0"/>
      <vel value="0.0774783208" flag="0"/>
      <psa03 value="0.3616287711" flag="0"/>
      <psa10 value="0.0508060967" flag="0"/>
      <psa30 value="0.0024075571" flag="0"/>
    </comp>
  </station>
  <station code="ECHR" name="ECHR" netid="IV" insttype="" lat="37.6863" lon="14.9129">
    <comp name="--.HHE">
      <acc value="0.3166980231" flag="0"/>
      <vel value="0.0695943043" flag="0"/>
    </comp>
    <comp name="--.HHN">
      <acc value="0.2793326143" flag="0"/>
      <vel value="0.1281418670" flag="0"/>
      <psa03 value="0.7230213782" flag="0"/>
      <psa10 value="0.0513109343" flag="0"/>
      <psa30 value="0.0040812693" flag="0"/>
    </comp>
    <comp name="--.HHZ">
      <acc value="0.0016580939" flag="0"/>
      <vel value="0.0004880894" flag="0"/>
    </comp>
  </station>
  <station code="ECNE" name="ECNE" netid="IV" insttype="" lat="37.7653" lon="15.0018">
    <comp name="--.HHE">
      <acc value="0.2283084604" flag="0"/>
      <vel value="0.1070629296" flag="0"/>
      <psa03 value="0.8963062514" flag="0"/>
      <psa10 value="0.1252318488" flag="0"/>
      <psa30 value="0.0043460943" flag="0"/>
    </comp>
    <comp name="--.HHN">
      <acc value="-20.8955896704" flag="0"/>
      <vel value="0.0000000000" flag="0"/>
    </comp>
    <comp name="--.HHZ">
      <acc value="0.1779212848" flag="0"/>
      <vel value="0.0680089572" flag="0"/>
      <psa03 value="0.3728015374" flag="0"/>
      <psa10 value="0.0395575244" flag="0"/>
      <psa30 value="0.0026179861" flag="0"/>
    </comp>
  </station>
  <station code="ECPN" name="ECPN" netid="IV" insttype="" lat="37.7437" lon="14.9865">
    <comp name="--.HHE">
      <acc value="0.2701707276" flag="0"/>
      <vel value="0.1497304551" flag="0"/>
      <psa03 value="1.0840684385" flag="0"/>
      <psa10 value="0.1081059074" flag="0"/>
      <psa30 value="0.0050663124" flag="0"/>
    </comp>
    <comp name="--.HHN">
      <acc value="0.2718692023" flag="0"/>
      <vel value="0.1273967451" flag="0"/>
      <psa03 value="1.0746705452" flag="0"/>
      <psa10 value="0.1081576697" flag="0"/>
      <psa30 value="0.0055162609" flag="0"/>
    </comp>
    <comp name="--.HHZ">
      <acc value="0.2038360709" flag="0"/>
      <vel value="0.0728655798" flag="0"/>
      <psa03 value="0.6826314437" flag="0"/>
      <psa10 value="0.0373904065" flag="0"/>
      <psa30 value="0.0024771851" flag="0"/>
    </comp>
  </station>
  <station code="ECTS" name="ECTS" netid="IV" insttype="" lat="37.882" lon="15.121">
    <comp name="--.HHE">
      <acc value="0.0919042206" flag="0"/>
      <vel value="0.0617884332" flag="0"/>
      <psa03 value="0.3487418746" flag="0"/>
      <psa10 value="0.0412269742" flag="0"/>
      <psa30 value="0.0033507862" flag="0"/>
    </comp>
    <comp name="--.HHN">
      <acc value="0.0983444468" flag="0"/>
      <vel value="0.0625641453" flag="0"/>
      <psa03 value="0.2670719595" flag="0"/>
      <psa10 value="0.0581716464" flag="0"/>
      <psa30 value="0.0039306693" flag="0"/>
    </comp>
    <comp name="--.HHZ">
      <acc value="0.2064345665" flag="0"/>
      <vel value="0.0742459250" flag="0"/>
      <psa03 value="0.3881211868" flag="0"/>
      <psa10 value="0.0268093404" flag="0"/>
      <psa30 value="0.0017266381" flag="0"/>
    </comp>
  </station>
  <station code="EFIU" name="EFIU" netid="IV" insttype="" lat="37.7896" lon="15.2103">
    <comp name="--.HHE">
      <acc value="0.0460522979" flag="0"/>
      <vel value="0.0413170307" flag="0"/>
      <psa03 value="0.1375318015" flag="0"/>
      <psa10 value="0.0627564983" flag="0"/>
      <psa30 value="0.0036690414" flag="0"/>
    </comp>
    <comp name="--.HHN">
      <acc value="0.0526398576" flag="0"/>
      <vel value="0.0359238195" flag="0"/>
      <psa03 value="0.1842471460" flag="0"/>
      <psa10 value="0.0484105850" flag="0"/>
      <psa30 value="0.0031390577" flag="0"/>
    </comp>
    <comp name="--.HHZ">
      <acc value="0.1050641269" flag="0"/>
      <vel value="0.0499637953" flag="0"/>
      <psa03 value="0.2847358469" flag="0"/>
      <psa10 value="0.0301225214" flag="0"/>
      <psa30 value="0.0019863756" flag="0"/>
    </comp>
  </station>
  <station code="EMCN" name="EMCN" netid="IV" insttype="" lat="37.7912" lon="15.0336">
    <comp name="--.HHE">
      <acc value="0.3740583236" flag="0"/>
      <vel value="0.0949792730" flag="0"/>
      <psa03 value="0.5330697253" flag="0"/>
      <psa10 value="0.0580627007" flag="0"/>
      <psa30 value="0.0037870739" flag="0"/>
    </comp>
    <comp name="--.HHN">
      <acc value="0.3511081094" flag="0"/>
      <vel value="0.0781408412" flag="0"/>
      <psa03 value="0.3731544060" flag="0"/>
      <psa10 value="0.0535031433" flag="0"/>
      <psa30 value="0.0024034151" flag="0"/>
    </comp>
    <comp name="--.HHZ">
      <acc value="0.2095257565" flag="0"/>
      <vel value="0.0636900699" flag="0"/>
      <psa03 value="0.3231091086" flag="0"/>
      <psa10 value="0.0370047076" flag="0"/>
      <psa30 value="0.0020569660" flag="0"/>
    </comp>
  </station>
  <station code="EMSG" name="EMSG" netid="IV" insttype="" lat="37.8208" lon="14.9498">
    <comp name="--.HHZ">
      <acc value="0.3166980230" flag="0"/>
      <vel value="0.0695943050" flag="0"/>
      <psa03 value="0.4969838572" flag="0"/>
      <psa10 value="0.0633716705" flag="0"/>
      <psa30 value="0.0031201976" flag="0"/>
    </comp>
    <comp name="--.HHN">
      <acc value="0.2885971129" flag="0"/>
      <vel value="0.1225675378" flag="0"/>
      <psa03 value="0.8769074282" flag="0"/>
      <psa10 value="0.1397602624" flag="0"/>
      <psa30 value="0.0063018464" flag="0"/>
    </comp>
    <comp name="--.HHE">
      <acc value="0.2289425845" flag="0"/>
      <vel value="0.1336083303" flag="0"/>
      <psa03 value="0.7707934463" flag="0"/>
      <psa10 value="0.1489395048" flag="0"/>
      <psa30 value="0.0069171265" flag="0"/>
    </comp>
  </station>
  <station code="ENIC" name="ENIC" netid="IV" insttype="" lat="37.6314" lon="15.0216">
    <comp name="--.HHN">
      <acc value="0.2658640894" flag="0"/>
      <vel value="0.1125445494" flag="0"/>
      <psa03 value="0.5645195921" flag="0"/>
      <psa10 value="0.0541626242" flag="0"/>
      <psa30 value="0.0025299402" flag="0"/>
    </comp>
    <comp name="--.HHZ">
      <acc value="0.2648082649" flag="0"/>
      <vel value="0.0808690311" flag="0"/>
      <psa03 value="0.5755969467" flag="0"/>
      <psa10 value="0.0485784147" flag="0"/>
      <psa30 value="0.0028963444" flag="0"/>
    </comp>
    <comp name="--.HHE">
      <acc value="0.0000000000" flag="0"/>
      <vel value="0.4776347431" flag="0"/>
    </comp>
  </station>
  <station code="EPIT" name="EPIT" netid="IV" insttype="" lat="37.8113" lon="15.0567">
    <comp name="--.HHN">
      <acc value="0.0000000000" flag="0"/>
      <vel value="0.1477264800" flag="0"/>
    </comp>
    <comp name="--.HHE">
      <acc value="0.1840116670" flag="0"/>
      <vel value="0.0891342559" flag="0"/>
      <psa03 value="0.5518723762" flag="0"/>
      <psa10 value="0.0591185560" flag="0"/>
      <psa30 value="0.0040896729" flag="0"/>
    </comp>
    <comp name="--.HHZ">
      <acc value="0.1580426699" flag="0"/>
      <vel value="0.0601955054" flag="0"/>
      <psa03 value="0.4574949466" flag="0"/>
      <psa10 value="0.0537605774" flag="0"/>
      <psa30 value="0.0024595855" flag="0"/>
    </comp>
  </station>
  <station code="EPZF" name="EPZF" netid="IV" insttype="" lat="37.824" lon="14.857">
    <comp name="--.HHE">
      <acc value="0.2657393914" flag="0"/>
      <vel value="0.1615975216" flag="0"/>
      <psa03 value="0.6260861270" flag="0"/>
      <psa10 value="0.0814047313" flag="0"/>
      <psa30 value="0.0079223591" flag="0"/>
    </comp>
    <comp name="--.HHN">
      <acc value="0.5561715580" flag="0"/>
      <vel value="0.3572077824" flag="0"/>
      <psa03 value="2.5514832381" flag="0"/>
      <psa10 value="0.1371747825" flag="0"/>
      <psa30 value="0.0113220314" flag="0"/>
    </comp>
    <comp name="--.HHZ">
      <acc value="0.2088525021" flag="0"/>
      <vel value="0.1341107052" flag="0"/>
      <psa03 value="0.7103362845" flag="0"/>
      <psa10 value="0.0967812331" flag="0"/>
      <psa30 value="0.0054452331" flag="0"/>
    </comp>
  </station>
  <station code="ESLN" name="ESLN" netid="IV" insttype="" lat="37.6934" lon="14.9744">
    <comp name="--.HHE">
      <acc value="0.2142982715" flag="0"/>
      <vel value="0.1047500457" flag="0"/>
      <psa03 value="0.6509320783" flag="0"/>
      <psa10 value="0.0832438668" flag="0"/>
      <psa30 value="0.0052178423" flag="0"/>
    </comp>
    <comp name="--.HHN">
      <acc value="0.2830087011" flag="0"/>
      <vel value="0.1150845456" flag="0"/>
      <psa03 value="0.7678458788" flag="0"/>
      <psa10 value="0.0748589343" flag="0"/>
      <psa30 value="0.0046310901" flag="0"/>
    </comp>
    <comp name="--.HHZ">
      <acc value="0.3495282966" flag="0"/>
      <vel value="0.1400556450" flag="0"/>
      <psa03 value="0.6710578191" flag="0"/>
      <psa10 value="0.0520950990" flag="0"/>
      <psa30 value="0.0038370728" flag="0"/>
    </comp>
  </station>
  <station code="ESML" name="ESML" netid="IV" insttype="" lat="37.6181" lon="14.8794">
    <comp name="--.HHE">
      <acc value="0.1404958620" flag="0"/>
      <vel value="0.0440221931" flag="0"/>
      <psa03 value="0.2833216692" flag="0"/>
      <psa10 value="0.0322972964" flag="0"/>
      <psa30 value="0.0024185440" flag="0"/>
    </comp>
    <comp name="--.HHN">
      <acc value="0.1099496580" flag="0"/>
      <vel value="0.0397244461" flag="0"/>
      <psa03 value="0.2929247213" flag="0"/>
      <psa10 value="0.0445899936" flag="0"/>
      <psa30 value="0.0037333919" flag="0"/>
    </comp>
    <comp name="--.HHZ">
      <acc value="0.1208541237" flag="0"/>
      <vel value="0.0350044320" flag="0"/>
      <psa03 value="0.3650151462" flag="0"/>
      <psa10 value="0.0222187071" flag="0"/>
      <psa30 value="0.0018221460" flag="0"/>
    </comp>
  </station>
  <station code="EVRN" name="EVRN" netid="IV" insttype="" lat="37.6892" lon="15.1356">
    <comp name="--.HHE">
      <acc value="0.4048555140" flag="0"/>
      <vel value="0.1319248019" flag="0"/>
      <psa03 value="1.3675044379" flag="0"/>
      <psa10 value="0.0661940013" flag="0"/>
      <psa30 value="0.0039288252" flag="0"/>
    </comp>
    <comp name="--.HHN">
      <acc value="0.4185698483" flag="0"/>
      <vel value="0.1495291814" flag="0"/>
      <psa03 value="1.0288079039" flag="0"/>
      <psa10 value="0.0574025508" flag="0"/>
      <psa30 value="0.0038375576" flag="0"/>
    </comp>
    <comp name="--.HHZ">
      <acc value="0.2014231387" flag="0"/>
      <vel value="0.0507750387" flag="0"/>
      <psa03 value="0.2859467836" flag="0"/>
      <psa10 value="0.0381483082" flag="0"/>
      <psa30 value="0.0017765476" flag="0"/>
    </comp>
  </station>
  <station code="GALF" name="GALF" netid="IV" insttype="" lat="37.7107" lon="14.5665">
    <comp name="--.HHE">
      <acc value="0.2699811472" flag="0"/>
      <vel value="0.1514174372" flag="0"/>
      <psa03 value="0.7434268833" flag="0"/>
      <psa10 value="0.1066680378" flag="0"/>
      <psa30 value="0.0062259633" flag="0"/>
    </comp>
    <comp name="--.HHN">
      <acc value="0.2228762460" flag="0"/>
      <vel value="0.1233235335" flag="0"/>
      <psa03 value="0.5729913616" flag="0"/>
      <psa10 value="0.0929903247" flag="0"/>
      <psa30 value="0.0051699173" flag="0"/>
    </comp>
    <comp name="--.HHZ">
      <acc value="0.1243475136" flag="0"/>
      <vel value="0.0621817894" flag="0"/>
      <psa03 value="0.4939652565" flag="0"/>
      <psa10 value="0.0459155974" flag="0"/>
      <psa30 value="0.0026672926" flag="0"/>
    </comp>
  </station>
  <station code="GIB" name="GIB" netid="IV" insttype="" lat="37.9901" lon="14.026">
    <comp name="--.HHE">
      <acc value="0.1351016490" flag="0"/>
      <vel value="0.1147020844" flag="0"/>
      <psa03 value="0.5830695931" flag="0"/>
      <psa10 value="0.2113007878" flag="0"/>
      <psa30 value="0.0089627123" flag="0"/>
    </comp>
    <comp name="--.HHN">
      <acc value="0.1363330616" flag="0"/>
      <vel value="0.1171984773" flag="0"/>
      <psa03 value="0.4372973713" flag="0"/>
      <psa10 value="0.2498083499" flag="0"/>
      <psa30 value="0.0073649756" flag="0"/>
    </comp>
    <comp name="--.HHZ">
      <acc value="0.0678819985" flag="0"/>
      <vel value="0.0420758244" flag="0"/>
      <psa03 value="0.1837062248" flag="0"/>
      <psa10 value="0.0703147461" flag="0"/>
      <psa30 value="0.0030685649" flag="0"/>
    </comp>
  </station>
  <station code="HAGA" name="HAGA" netid="IV" insttype="" lat="37.285" lon="15.155">
    <comp name="--.HHE">
      <acc value="0.8668314683" flag="0"/>
      <vel value="0.1711690548" flag="0"/>
      <psa03 value="0.8045902205" flag="0"/>
      <psa10 value="0.1336821796" flag="0"/>
      <psa30 value="0.0058543754" flag="0"/>
    </comp>
    <comp name="--.HHN">
      <acc value="0.7637834648" flag="0"/>
