<stationlist created="1778069946">
	<station code="AGR" name="AGR" netid="IT" source="Italian Strong Motion Network (RAN)" insttype="" lat="37.3231" lon="13.586">
		<comp name="--.HNE" depth="0.0">
			<acc value="0.046146636" flag="0"/>
			<vel value="0.032466" flag="0"/>
			<psa03 value="0.0934217274189514" flag="0"/>
			<psa10 value="0.0401310748041927" flag="0"/>
			<psa30 value="0.00381829991280331" flag="0"/>
		</comp>
		<comp name="--.HNN" depth="0.0">
			<acc value="0.059608086" flag="0"/>
			<vel value="0.06479" flag="0"/>
			<psa03 value="0.142324959252722" flag="0"/>
			<psa10 value="0.0885412475210303" flag="0"/>
			<psa30 value="0.00492253757214226" flag="0"/>
		</comp>
		<comp name="--.HNZ" depth="0.0">
			<acc value="0.07636026" flag="0"/>
			<vel value="0.046875" flag="0"/>
			<psa03 value="0.182637687415785" flag="0"/>
			<psa10 value="0.0788366629055272" flag="0"/>
			<psa30 value="0.00424111376534598" flag="0"/>
		</comp>
	</station>
	<station code="AUG1" name="AUG1" netid="IT" source="Italian Strong Motion Network (RAN)" insttype="" lat="37.2432" lon="15.2555">
		<comp name="--.HNE" depth="0.0">
			<acc value="0.317463372" flag="0"/>
			<vel value="0.126612" flag="0"/>
			<psa03 value="0.864598400691484" flag="0"/>
			<psa10 value="0.0705092434097345" flag="0"/>
			<psa30 value="0.00489345513784038" flag="0"/>
		</comp>
		<comp name="--.HNN" depth="0.0">
			<acc value="0.831992784" flag="0"/>
			<vel value="0.461679" flag="0"/>
			<psa03 value="2.07818601300549" flag="0"/>
			<psa10 value="0.203357355878641" flag="0"/>
			<psa30 value="0.013347942500429" flag="0"/>
		</comp>
		<comp name="--.HNZ" depth="0.0">
			<acc value="0.268532748" flag="0"/>
			<vel value="0.08315" flag="0"/>
			<psa03 value="0.505184254926906" flag="0"/>
			<psa10 value="0.042313599643032" flag="0"/>
			<psa30 value="0.0023946028982099" flag="0"/>
		</comp>
	</station>
	<station code="BCL" name="BCL" netid="IT" source="Italian Strong Motion Network (RAN)" insttype="" lat="38.1827" lon="15.2316">
		<comp name="--.HGE" depth="0.0">
			<acc value="0.073110846" flag="0"/>
			<vel value="0.052859" flag="0"/>
			<psa03 value="0.179997897225307" flag="0"/>
			<psa10 value="0.0437793543318465" flag="0"/>
			<psa30 value="0.00263263143741911" flag="0"/>
		</comp>
		<comp name="--.HGN" depth="0.0">
			<acc value="0.071487312" flag="0"/>
			<vel value="0.041705" flag="0"/>
			<psa03 value="0.233912256200325" flag="0"/>
			<psa10 value="0.0465779793558194" flag="0"/>
			<psa30 value="0.00463260807325586" flag="0"/>
		</comp>
		<comp name="--.HGZ" depth="0.0">
			<acc value="0.05561652" flag="0"/>
			<vel value="0.020209" flag="0"/>
			<psa03 value="0.106710162784578" flag="0"/>
			<psa10 value="0.0275271951998255" flag="0"/>
			<psa30 value="0.00178834599853232" flag="0"/>
		</comp>
	</station>
	<station code="BNT" name="BNT" netid="IT" source="Italian Strong Motion Network (RAN)" insttype="" lat="37.7805" lon="14.8444">
		<comp name="--.HNE" depth="0.0">
			<acc value="0.215364738" flag="0"/>
			<vel value="0.102991" flag="0"/>
			<psa03 value="0.575384777110975" flag="0"/>
			<psa10 value="0.0658220498444043" flag="0"/>
			<psa30 value="0.00708940263866516" flag="0"/>
		</comp>
		<comp name="--.HNN" depth="0.0">
			<acc value="0.14974365" flag="0"/>
			<vel value="0.084373" flag="0"/>
			<psa03 value="0.560038200240908" flag="0"/>
			<psa10 value="0.0856620865251446" flag="0"/>
			<psa30 value="0.00450554020645997" flag="0"/>
		</comp>
		<comp name="--.HNZ" depth="0.0">
			<acc value="0.091641798" flag="0"/>
			<vel value="0.043633" flag="0"/>
			<psa03 value="0.244963581235038" flag="0"/>
			<psa10 value="0.0322345227581339" flag="0"/>
			<psa30 value="0.00277580649859758" flag="0"/>
		</comp>
	</station>
	<station code="CAT" name="CAT" netid="IT" source="Italian Strong Motion Network (RAN)" insttype="" lat="37.4473" lon="15.0463">
		<comp name="--.HGE" depth="0.0">
			<acc value="0.533334642" flag="0"/>
			<vel value="0.220907" flag="0"/>
			<psa03 value="1.35116989766519" flag="0"/>
			<psa10 value="0.158373988766697" flag="0"/>
			<psa30 value="0.00968713515492202" flag="0"/>
		</comp>
		<comp name="--.HGN" depth="0.0">
			<acc value="1.10815656" flag="0"/>
			<vel value="0.449163" flag="0"/>
			<psa03 value="1.42718690670963" flag="0"/>
			<psa10 value="0.144163416522667" flag="0"/>
			<psa30 value="0.0131193098246096" flag="0"/>
		</comp>
		<comp name="--.HGZ" depth="0.0">
			<acc value="0.61868508" flag="0"/>
			<vel value="0.25516" flag="0"/>
			<psa03 value="1.00307553017503" flag="0"/>
			<psa10 value="0.0435860679992556" flag="0"/>
			<psa30 value="0.00813234347493707" flag="0"/>
		</comp>
	</station>
	<station code="CDI1" name="CDI1" netid="IT" source="Italian Strong Motion Network (RAN)" insttype="" lat="37.5032" lon="14.6473">
		<comp name="--.HNE" depth="0.0">
			<acc value="0.141246948" flag="0"/>
			<vel value="0.059815" flag="0"/>
			<psa03 value="0.296059181193104" flag="0"/>
			<psa10 value="0.059403332882947" flag="0"/>
			<psa30 value="0.00735875072250715" flag="0"/>
		</comp>
		<comp name="--.HNN" depth="0.0">
			<acc value="0.157311846" flag="0"/>
			<vel value="0.064959" flag="0"/>
			<psa03 value="0.482678924997916" flag="0"/>
			<psa10 value="0.0705978329788386" flag="0"/>
			<psa30 value="0.00414268091078578" flag="0"/>
		</comp>
		<comp name="--.HNZ" depth="0.0">
			<acc value="0.076708692" flag="0"/>
			<vel value="0.031708" flag="0"/>
			<psa03 value="0.169036056603831" flag="0"/>
			<psa10 value="0.0453900737701043" flag="0"/>
			<psa30 value="0.00349436633688702" flag="0"/>
		</comp>
	</station>
	<station code="CFL" name="CFL" netid="IT" source="Italian Strong Motion Network (RAN)" insttype="" lat="38.037" lon="14.0232">
		<comp name="--.HNE" depth="0.0">
			<acc value="0.056042064" flag="0"/>
			<vel value="0.067178" flag="0"/>
			<psa03 value="0.235522975638583" flag="0"/>
			<psa10 value="0.0691401318872153" flag="0"/>
			<psa30 value="0.00566346851374084" flag="0"/>
		</comp>
		<comp name="--.HNN" depth="0.0">
			<acc value="0.046558206" flag="0"/>
			<vel value="0.028663" flag="0"/>
			<psa03 value="0.164114413875821" flag="0"/>
			<psa10 value="0.0458410752128165" flag="0"/>
			<psa30 value="0.00291182280671713" flag="0"/>
		</comp>
		<comp name="--.HNZ" depth="0.0">
			<acc value="0.074894316" flag="0"/>
			<vel value="0.051018" flag="0"/>
			<psa03 value="0.292837742316589" flag="0"/>
			<psa10 value="0.0497188822604221" flag="0"/>
			<psa30 value="0.00196373544847595" flag="0"/>
		</comp>
	</station>
	<station code="CLG1" name="CLG1" netid="IT" source="Italian Strong Motion Network (RAN)" insttype="" lat="37.2214" lon="14.5182">
		<comp name="--.HNE" depth="0.0">
			<acc value="1.009203606" flag="0"/>
			<vel value="0.608399" flag="0"/>
			<psa03 value="2.09187712823068" flag="0"/>
			<psa10 value="0.395431622092286" flag="0"/>
			<psa30 value="0.0333629212090467" flag="0"/>
		</comp>
		<comp name="--.HNN" depth="0.0">
			<acc value="1.8799416" flag="0"/>
			<vel value="0.556129" flag="0"/>
			<psa03 value="2.70072907589212" flag="0"/>
			<psa10 value="0.298405909930233" flag="0"/>
			<psa30 value="0.0303401377299163" flag="0"/>
		</comp>
		<comp name="--.HNZ" depth="0.0">
			<acc value="0.624930132" flag="0"/>
			<vel value="0.268928" flag="0"/>
			<psa03 value="1.34535341080481" flag="0"/>
			<psa10 value="0.193656798061733" flag="0"/>
			<psa30 value="0.0146906561210433" flag="0"/>
		</comp>
	</station>
	<station code="CLV" name="CLV" netid="IT" source="Italian Strong Motion Network (RAN)" insttype="" lat="37.8192" lon="13.8902">
		<comp name="--.HGE" depth="0.0">
			<acc value="0.214072704" flag="0"/>
			<vel value="0.153609" flag="0"/>
			<psa03 value="0.745360420053789" flag="0"/>
			<psa10 value="0.0569832269269647" flag="0"/>
			<psa30 value="0.00522544231094796" flag="0"/>
		</comp>
		<comp name="--.HGN" depth="0.0">
			<acc value="0.153816816" flag="0"/>
			<vel value="0.090809" flag="0"/>
			<psa03 value="0.592252589006063" flag="0"/>
			<psa10 value="0.0503671968343209" flag="0"/>
			<psa30 value="0.00414357575491815" flag="0"/>
		</comp>
		<comp name="--.HGZ" depth="0.0">
			<acc value="0.100324752" flag="0"/>
			<vel value="0.05132" flag="0"/>
			<psa03 value="0.302546801152754" flag="0"/>
			<psa10 value="0.0272292121037478" flag="0"/>
			<psa30 value="0.00244516159168855" flag="0"/>
		</comp>
	</station>
	<station code="CSM" name="CSM" netid="IT" source="Italian Strong Motion Network (RAN)" insttype="" lat="37.5404" lon="13.6273">
		<comp name="--.HGE" depth="0.0">
			<acc value="0.057383058" flag="0"/>
			<vel value="0.030775" flag="0"/>
			<psa03 value="0.252346045327053" flag="0"/>
			<psa10 value="0.0665589539874072" flag="0"/>
			<psa30 value="0.00288676717101089" flag="0"/>
		</comp>
		<comp name="--.HGN" depth="0.0">
			<acc value="0.114932172" flag="0"/>
			<vel value="0.055205" flag="0"/>
			<psa03 value="0.54339409937891" flag="0"/>
			<psa10 value="0.0541443339170354" flag="0"/>
			<psa30 value="0.00338340566447371" flag="0"/>
		</comp>
		<comp name="--.HGZ" depth="0.0">
			<acc value="0.05814561" flag="0"/>
			<vel value="0.033768" flag="0"/>
			<psa03 value="0.199192303864546" flag="0"/>
			<psa10 value="0.0464571753979501" flag="0"/>
			<psa30 value="0.00242636986490888" flag="0"/>
		</comp>
	</station>
	<station code="CTU" name="CTU" netid="IT" source="Italian Strong Motion Network (RAN)" insttype="" lat="37.8232" lon="13.8904">
		<comp name="--.HNE" depth="0.0">
			<acc value="0.129432594" flag="0"/>
			<vel value="0.070046" flag="0"/>
			<psa03 value="0.367736196195576" flag="0"/>
			<psa10 value="0.0339177245711133" flag="0"/>
			<psa30 value="0.00335119127570855" flag="0"/>
		</comp>
		<comp name="--.HNN" depth="0.0">
			<acc value="0.082909884" flag="0"/>
			<vel value="0.048174" flag="0"/>
			<psa03 value="0.271450967553055" flag="0"/>
			<psa10 value="0.0393418222794463" flag="0"/>
			<psa30 value="0.00231138239389992" flag="0"/>
		</comp>
		<comp name="--.HNZ" depth="0.0">
			<acc value="0.108133158" flag="0"/>
			<vel value="0.068054" flag="0"/>
			<psa03 value="0.315477298865434" flag="0"/>
			<psa10 value="0.0401351016027883" flag="0"/>
			<psa30 value="0.00229706488778207" flag="0"/>
		</comp>
	</station>
	<station code="GBL" name="GBL" netid="IT" source="Italian Strong Motion Network (RAN)" insttype="" lat="37.7961" lon="12.9142">
		<comp name="--.HNE" depth="0.0">
			<acc value="0.065172288" flag="0"/>
			<vel value="0.027157" flag="0"/>
			<psa03 value="0.178610888820141" flag="0"/>
			<psa10 value="0.014077687890373" flag="0"/>
			<psa30 value="0.00104025630387482" flag="0"/>
		</comp>
		<comp name="--.HNN" depth="0.0">
			<acc value="0.055424454" flag="0"/>
			<vel value="0.023626" flag="0"/>
			<psa03 value="0.188006752209978" flag="0"/>
			<psa10 value="0.0164696062561858" flag="0"/>
			<psa30 value="0.00194002207896826" flag="0"/>
		</comp>
		<comp name="--.HNZ" depth="0.0">
			<acc value="0.028736766" flag="0"/>
			<vel value="0.013026" flag="0"/>
			<psa03 value="0.117627261199436" flag="0"/>
			<psa10 value="0.00872607255676154" flag="0"/>
			<psa30 value="0.00147157117567496" flag="0"/>
		</comp>
	</station>
	<station code="GEA" name="GEA" netid="IT" source="Italian Strong Motion Network (RAN)" insttype="" lat="37.0562" lon="14.3146">
		<comp name="--.HNE" depth="0.0">
			<acc value="1.114920078" flag="0"/>
			<vel value="0.507895" flag="0"/>
			<psa03 value="2.58677067563538" flag="0"/>
			<psa10 value="0.202270120257817" flag="0"/>
			<psa30 value="0.0133792620450618" flag="0"/>
		</comp>
		<comp name="--.HNN" depth="0.0">
			<acc value="1.37454078" flag="0"/>
			<vel value="0.924015" flag="0"/>
			<psa03 value="4.57489062671829" flag="0"/>
			<psa10 value="0.411156270608277" flag="0"/>
			<psa30 value="0.0406684287056781" flag="0"/>
		</comp>
		<comp name="--.HNZ" depth="0.0">
			<acc value="0.650318442" flag="0"/>
			<vel value="0.24486" flag="0"/>
			<psa03 value="2.09872268584327" flag="0"/>
			<psa10 value="0.0787118321490622" flag="0"/>
			<psa30 value="0.00585272804773613" flag="0"/>
		</comp>
	</station>
	<station code="GEL" name="GEL" netid="IT" source="Italian Strong Motion Network (RAN)" insttype="" lat="37.0846" lon="14.2691">
		<comp name="--.HGE" depth="0.0">
			<acc value="5.610024582" flag="0"/>
			<vel value="2.185804" flag="0"/>
			<psa03 value="11.9550728661956" flag="0"/>
			<psa10 value="0.640325405484999" flag="0"/>
			<psa30 value="0.0743731803732884" flag="0"/>
		</comp>
		<comp name="--.HGN" depth="0.0">
			<acc value="1.49922966" flag="0"/>
			<vel value="0.482393" flag="0"/>
			<psa03 value="3.35459168341154" flag="0"/>
			<psa10 value="0.215929021094243" flag="0"/>
			<psa30 value="0.0201389146209503" flag="0"/>
		</comp>
		<comp name="--.HGZ" depth="0.0">
			<acc value="0.62655234" flag="0"/>
			<vel value="0.249621" flag="0"/>
			<psa03 value="1.03238167551" flag="0"/>
			<psa10 value="0.0969008814055882" flag="0"/>
			<psa30 value="0.0084916233940818" flag="0"/>
		</comp>
	</station>
	<station code="GMB" name="GMB" netid="IT" source="Italian Strong Motion Network (RAN)" insttype="" lat="38.1666" lon="15.8363">
		<comp name="--.HGE" depth="0.0">
			<acc value="0.017373252" flag="0"/>
			<vel value="0.009255" flag="0"/>
			<psa03 value="0.0506034356852654" flag="0"/>
			<psa10 value="0.0133770249347309" flag="0"/>
			<psa30 value="0.000757932980113523" flag="0"/>
		</comp>
		<comp name="--.HGN" depth="0.0">
			<acc value="0.019124796" flag="0"/>
			<vel value="0.007707" flag="0"/>
			<psa03 value="0.0352121166085799" flag="0"/>
			<psa10 value="0.00902808245143487" flag="0"/>
			<psa30 value="0.000505139512720288" flag="0"/>
		</comp>
		<comp name="--.HGZ" depth="0.0">
			<acc value="0.009578718" flag="0"/>
			<vel value="0.004441" flag="0"/>
			<psa03 value="0.0268453239709631" flag="0"/>
			<psa10 value="0.00351136837540197" flag="0"/>
			<psa30 value="0.000468898325359488" flag="0"/>
		</comp>
	</station>
	<station code="GSM" name="GSM" netid="IT" source="Italian Strong Motion Network (RAN)" insttype="" lat="38.172" lon="14.8985">
		<comp name="--.HNE" depth="0.0">
			<acc value="0.094854288" flag="0"/>
			<vel value="0.081667" flag="0"/>
			<psa03 value="0.241071009259248" flag="0"/>
			<psa10 value="0.0788930380858662" flag="0"/>
			<psa30 value="0.00470195849351418" flag="0"/>
		</comp>
		<comp name="--.HNN" depth="0.0">
			<acc value="0.068185776" flag="0"/>
			<vel value="0.041181" flag="0"/>
			<psa03 value="0.145009491649819" flag="0"/>
			<psa10 value="0.0391968575300031" flag="0"/>
			<psa30 value="0.00205098275138158" flag="0"/>
		</comp>
		<comp name="--.HNZ" depth="0.0">
			<acc value="0.052816212" flag="0"/>
			<vel value="0.036509" flag="0"/>
			<psa03 value="0.128275906374585" flag="0"/>
			<psa10 value="0.0498477398154827" flag="0"/>
			<psa30 value="0.00275433023942081" flag="0"/>
		</comp>
	</station>
	<station code="ISI" name="ISI" netid="IT" source="Italian Strong Motion Network (RAN)" insttype="" lat="36.7977" lon="14.8923">
		<comp name="--.HGE" depth="0.0">
			<acc value="0.447236442" flag="0"/>
			<vel value="0.106885" flag="0"/>
			<psa03 value="0.625764501763149" flag="0"/>
			<psa10 value="0.0868701261038379" flag="0"/>
			<psa30 value="0.0075050577381489" flag="0"/>
		</comp>
		<comp name="--.HGN" depth="0.0">
			<acc value="0.694653864" flag="0"/>
			<vel value="0.20562" flag="0"/>
			<psa03 value="0.923121206948183" flag="0"/>
			<psa10 value="0.0886620514788997" flag="0"/>
			<psa30 value="0.00824106703701947" flag="0"/>
		</comp>
		<comp name="--.HGZ" depth="0.0">
			<acc value="0.514249014" flag="0"/>
			<vel value="0.081261" flag="0"/>
			<psa03 value="0.469658942871999" flag="0"/>
			<psa10 value="0.0361284370001221" flag="0"/>
			<psa30 value="0.00259325829559503" flag="0"/>
		</comp>
	</station>
	<station code="LCA" name="LCA" netid="IT" source="Italian Strong Motion Network (RAN)" insttype="" lat="37.1143" lon="13.9124">
		<comp name="--.HGE" depth="0.0">
			<acc value="2.859166794" flag="0"/>
			<vel value="1.601416" flag="0"/>
			<psa03 value="7.66957483188429" flag="0"/>
			<psa10 value="0.566562508809984" flag="0"/>
			<psa30 value="0.0460392831881354" flag="0"/>
		</comp>
		<comp name="--.HGN" depth="0.0">
			<acc value="1.731228354" flag="0"/>
			<vel value="0.944826" flag="0"/>
			<psa03 value="5.0570773874434" flag="0"/>
			<psa10 value="0.39108267960899" flag="0"/>
			<psa30 value="0.0403655239668724" flag="0"/>
		</comp>
		<comp name="--.HGZ" depth="0.0">
			<acc value="0.795715056" flag="0"/>
			<vel value="0.368949" flag="0"/>
			<psa03 value="3.08801761637988" flag="0"/>
			<psa10 value="0.132956836030989" flag="0"/>
			<psa30 value="0.0109564715566824" flag="0"/>
		</comp>
	</station>
	<station code="LIC" name="LIC" netid="IT" source="Italian Strong Motion Network (RAN)" insttype="" lat="37.1053" lon="13.9074">
		<comp name="--.HNE" depth="0.0">
			<acc value="1.076693436" flag="0"/>
			<vel value="0.487386" flag="0"/>
			<psa03 value="3.46774472394915" flag="0"/>
			<psa10 value="0.379888179513098" flag="0"/>
			<psa30 value="0.0201254919589648" flag="0"/>
		</comp>
		<comp name="--.HNN" depth="0.0">
			<acc value="1.50879777" flag="0"/>
			<vel value="0.883028" flag="0"/>
			<psa03 value="3.83234896568145" flag="0"/>
			<psa10 value="0.835238564708573" flag="0"/>
			<psa30 value="0.0464831258777887" flag="0"/>
		</comp>
		<comp name="--.HNZ" depth="0.0">
			<acc value="1.295168358" flag="0"/>
			<vel value="0.51419" flag="0"/>
			<psa03 value="4.49833671119442" flag="0"/>
			<psa10 value="0.210923710439857" flag="0"/>
			<psa30 value="0.0150870720716812" flag="0"/>
		</comp>
	</station>
	<station code="LNT" name="LNT" netid="IT" source="Italian Strong Motion Network (RAN)" insttype="" lat="37.28841" lon="15.002259">
		<comp name="--.HGE" depth="0.0">
			<acc value="0.360287052" flag="0"/>
			<vel value="0.197205" flag="0"/>
			<psa03 value="0.797037668697893" flag="0"/>
			<psa10 value="0.0744112112489139" flag="0"/>
			<psa30 value="0.00539680496229594" flag="0"/>
		</comp>
		<comp name="--.HGN" depth="0.0">
			<acc value="0.49307667" flag="0"/>
			<vel value="0.22709" flag="0"/>
			<psa03 value="1.31389963955217" flag="0"/>
			<psa10 value="0.101841763282444" flag="0"/>
			<psa30 value="0.00644824681782532" flag="0"/>
		</comp>
		<comp name="--.HGZ" depth="0.0">
			<acc value="0.322598664" flag="0"/>
			<vel value="0.106633" flag="0"/>
			<psa03 value="0.576055910210249" flag="0"/>
			<psa10 value="0.0520946934318523" flag="0"/>
			<psa30 value="0.00388049158000271" flag="0"/>
		</comp>
	</station>
	<station code="MAZ" name="MAZ" netid="IT" source="Italian Strong Motion Network (RAN)" insttype="" lat="37.6718" lon="12.6108">
		<comp name="--.HNE" depth="0.0">
			<acc value="0.020016582" flag="0"/>
			<vel value="0.008126" flag="0"/>
			<psa03 value="0.0604467211412851" flag="0"/>
			<psa10 value="0.010634775091097" flag="0"/>
			<psa30 value="0.00145098976063055" flag="0"/>
		</comp>
		<comp name="--.HNN" depth="0.0">
			<acc value="0.027316824" flag="0"/>
			<vel value="0.011153" flag="0"/>
			<psa03 value="0.116553448240598" flag="0"/>
			<psa10 value="0.0151971378999622" flag="0"/>
			<psa30 value="0.00125680858390725" flag="0"/>
		</comp>
		<comp name="--.HNZ" depth="0.0">
			<acc value="0.014590692" flag="0"/>
			<vel value="0.006816" flag="0"/>
			<psa03 value="0.0608046587942313" flag="0"/>
			<psa10 value="0.00936633353346901" flag="0"/>
			<psa30 value="0.00145591140335856" flag="0"/>
		</comp>
	</station>
	<station code="MFG" name="MFG" netid="IT" source="Italian Strong Motion Network (RAN)" insttype="" lat="38.1888" lon="15.5406">
		<comp name="--.HNE" depth="0.0">
			<acc value="0.037648302" flag="0"/>
			<vel value="0.021215" flag="0"/>
			<psa03 value="0.148454641559426" flag="0"/>
			<psa10 value="0.0142991618131335" flag="0"/>
			<psa30 value="0.00107783975743417" flag="0"/>
		</comp>
		<comp name="--.HNN" depth="0.0">
