<?xml version="1.0" encoding="UTF-8" standalone="yes"?>
<!DOCTYPE earthquake SYSTEM "stationlist.dtd">
<stationlist created="" xmlns="ch.ethz.sed.shakemap.usgs.xml">
  <station code="ARPRA" name="ARPRA" netid="KO" insttype="CMG-5T" lat="39.0929" lon="38.3356">
    <comp name="--.HNE">
      <acc value="0.0318919841" flag="0"/>
      <vel value="0.0239231946" flag="0"/>
      <psa03 value="0.0728169263" flag="0"/>
      <psa10 value="0.0320289108" flag="0"/>
      <psa30 value="0.0028772067" flag="0"/>
    </comp>
    <comp name="--.HNZ">
      <acc value="0.0146835729" flag="0"/>
      <vel value="0.0092607233" flag="0"/>
      <psa03 value="0.0278937670" flag="0"/>
      <psa10 value="0.0102863748" flag="0"/>
      <psa30 value="0.0008145053" flag="0"/>
    </comp>
  </station>
  <station code="DARE" name="DARE" netid="KO" insttype="CMG-3ESP" lat="38.5712" lon="37.4832">
    <comp name="--.HHE">
      <acc value="0.0041363149" flag="0"/>
      <vel value="0.0024221254" flag="0"/>
      <psa03 value="0.0060182812" flag="0"/>
      <psa10 value="0.0035398765" flag="0"/>
      <psa30 value="0.0002673706" flag="0"/>
    </comp>
    <comp name="--.HHN">
      <acc value="0.0041205239" flag="0"/>
      <vel value="0.0026667229" flag="0"/>
      <psa03 value="0.0080050017" flag="0"/>
      <psa10 value="0.0069218199" flag="0"/>
      <psa30 value="0.0003362432" flag="0"/>
    </comp>
    <comp name="--.HHZ">
      <acc value="0.0025857848" flag="0"/>
      <vel value="0.0020935629" flag="0"/>
      <psa03 value="0.0074000114" flag="0"/>
      <psa10 value="0.0027049985" flag="0"/>
      <psa30 value="0.0003466413" flag="0"/>
    </comp>
  </station>
  <station code="URFA" name="URFA" netid="KO" insttype="CMG-3ESP" lat="37.4409" lon="38.8213">
    <comp name="--.HHZ">
      <acc value="0.0415801011" flag="0"/>
      <vel value="0.0081003093" flag="0"/>
      <psa03 value="0.0265878805" flag="0"/>
      <psa10 value="0.0041637882" flag="0"/>
      <psa30 value="0.0005836234" flag="0"/>
    </comp>
    <comp name="--.HHE">
      <acc value="0.0379304745" flag="0"/>
      <vel value="0.0169136362" flag="0"/>
      <psa03 value="0.0580456280" flag="0"/>
      <psa10 value="0.0114677685" flag="0"/>
      <psa30 value="0.0019162591" flag="0"/>
    </comp>
    <comp name="--.HHN">
      <acc value="0.0356127460" flag="0"/>
      <vel value="0.0122587362" flag="0"/>
      <psa03 value="0.0599641237" flag="0"/>
      <psa10 value="0.0068423106" flag="0"/>
      <psa30 value="0.0006770816" flag="0"/>
    </comp>
  </station>
</stationlist>
