<?xml version="1.0" encoding="UTF-8" standalone="yes"?>
<!DOCTYPE earthquake SYSTEM "stationlist.dtd">
<stationlist created="" xmlns="ch.ethz.sed.shakemap.usgs.xml">
  <station code="ARPRA" name="ARPRA" netid="KO" insttype="CMG-5T" lat="39.0929" lon="38.3356">
    <comp name="--.HNE">
      <acc value="0.0318920085" flag="0"/>
      <vel value="0.0239231952" flag="0"/>
      <psa03 value="0.0728169263" flag="0"/>
      <psa10 value="0.0320289108" flag="0"/>
      <psa30 value="0.0028772138" flag="0"/>
    </comp>
    <comp name="--.HNZ">
      <acc value="0.0146835996" flag="0"/>
      <vel value="0.0092607256" flag="0"/>
      <psa03 value="0.0278937670" flag="0"/>
      <psa10 value="0.0102863749" flag="0"/>
      <psa30 value="0.0008145552" flag="0"/>
    </comp>
  </station>
  <station code="DARE" name="DARE" netid="KO" insttype="CMG-3ESP" lat="38.5712" lon="37.4832">
    <comp name="--.HHE">
      <acc value="0.0041363144" flag="0"/>
      <vel value="0.0024221246" flag="0"/>
      <psa03 value="0.0060182812" flag="0"/>
      <psa10 value="0.0035398765" flag="0"/>
      <psa30 value="0.0002673719" flag="0"/>
    </comp>
    <comp name="--.HHN">
      <acc value="0.0041205241" flag="0"/>
      <vel value="0.0026667223" flag="0"/>
      <psa03 value="0.0080050017" flag="0"/>
      <psa10 value="0.0069218199" flag="0"/>
      <psa30 value="0.0003362233" flag="0"/>
    </comp>
    <comp name="--.HHZ">
      <acc value="0.0025857849" flag="0"/>
      <vel value="0.0020935650" flag="0"/>
      <psa03 value="0.0074000114" flag="0"/>
      <psa10 value="0.0027049985" flag="0"/>
      <psa30 value="0.0003466508" flag="0"/>
    </comp>
  </station>
  <station code="SVRC" name="SVRC" netid="KO" insttype="CMG-3T" lat="38.3775" lon="39.306">
    <comp name="--.HHZ">
      <acc value="0.0175719557" flag="0"/>
      <vel value="0.0074341225" flag="0"/>
      <psa03 value="0.0311410650" flag="0"/>
      <psa10 value="0.0078566615" flag="0"/>
      <psa30 value="0.0010919137" flag="0"/>
    </comp>
    <comp name="--.HHN">
      <acc value="0.0195530080" flag="0"/>
      <vel value="0.0070521555" flag="0"/>
      <psa03 value="0.0358659572" flag="0"/>
      <psa10 value="0.0075220265" flag="0"/>
      <psa30 value="0.0010647009" flag="0"/>
    </comp>
    <comp name="--.HHE">
      <acc value="0.0197501787" flag="0"/>
      <vel value="0.0159091184" flag="0"/>
      <psa03 value="0.0569858143" flag="0"/>
      <psa10 value="0.0250556849" flag="0"/>
      <psa30 value="0.0012655020" flag="0"/>
    </comp>
  </station>
  <station code="URFA" name="URFA" netid="KO" insttype="CMG-3ESP" lat="37.4409" lon="38.8213">
    <comp name="--.HHE">
      <acc value="0.0379304745" flag="0"/>
      <vel value="0.0169136388" flag="0"/>
      <psa03 value="0.0580456280" flag="0"/>
      <psa10 value="0.0114677687" flag="0"/>
      <psa30 value="0.0019162704" flag="0"/>
    </comp>
    <comp name="--.HHN">
      <acc value="0.0356127458" flag="0"/>
      <vel value="0.0122587365" flag="0"/>
      <psa03 value="0.0599641237" flag="0"/>
      <psa10 value="0.0068423106" flag="0"/>
      <psa30 value="0.0006770814" flag="0"/>
    </comp>
    <comp name="--.HHZ">
      <acc value="0.0415801014" flag="0"/>
      <vel value="0.0081003096" flag="0"/>
      <psa03 value="0.0265878805" flag="0"/>
      <psa10 value="0.0041637882" flag="0"/>
      <psa30 value="0.0005836360" flag="0"/>
    </comp>
  </station>
</stationlist>
