<?xml version="1.0" encoding="UTF-8" standalone="yes"?>
<!DOCTYPE earthquake SYSTEM "stationlist.dtd">
<stationlist created="" xmlns="ch.ethz.sed.shakemap.usgs.xml">
  <station code="CROCE" name="CROCE" netid="IV" insttype="" lat="36.8326" lon="14.5345">
    <comp name="--.HHE">
      <acc value="0.0136290658" flag="0"/>
      <vel value="0.0088169091" flag="0"/>
      <psa03 value="0.0322579118" flag="0"/>
      <psa10 value="0.0087108232" flag="0"/>
      <psa30 value="0.0006615231" flag="0"/>
    </comp>
    <comp name="--.HHZ">
      <acc value="0.0092153115" flag="0"/>
      <vel value="0.0059674338" flag="0"/>
      <psa03 value="0.0217862202" flag="0"/>
      <psa10 value="0.0117870521" flag="0"/>
      <psa30 value="0.0007886994" flag="0"/>
    </comp>
    <comp name="--.HHN">
      <acc value="0.0107928935" flag="0"/>
      <vel value="0.0051215958" flag="0"/>
      <psa03 value="0.0229305231" flag="0"/>
      <psa10 value="0.0091055808" flag="0"/>
      <psa30 value="0.0006723150" flag="0"/>
    </comp>
  </station>
  <station code="HPAC" name="HPAC" netid="IV" insttype="" lat="36.7085" lon="15.0372">
    <comp name="--.HHE">
      <acc value="0.0446851203" flag="0"/>
      <vel value="0.0296176013" flag="0"/>
      <psa03 value="0.1222249650" flag="0"/>
      <psa10 value="0.0331811994" flag="0"/>
      <psa30 value="0.0017078596" flag="0"/>
    </comp>
    <comp name="--.HHZ">
      <acc value="0.0293779455" flag="0"/>
      <vel value="0.0191462991" flag="0"/>
      <psa03 value="0.0726417787" flag="0"/>
      <psa10 value="0.0283914234" flag="0"/>
      <psa30 value="0.0031183492" flag="0"/>
    </comp>
    <comp name="--.HHN">
      <acc value="0.0392309743" flag="0"/>
      <vel value="0.0387611633" flag="0"/>
      <psa03 value="0.1188220645" flag="0"/>
      <psa10 value="0.0415867532" flag="0"/>
      <psa30 value="0.0031690819" flag="0"/>
    </comp>
  </station>
  <station code="WDD" name="WDD" netid="MN" insttype="" lat="35.8373" lon="14.5242">
    <comp name="--.HHN">
      <acc value="0.7442444687" flag="0"/>
      <vel value="0.2594034041" flag="0"/>
      <psa03 value="0.7326981088" flag="0"/>
      <psa10 value="0.1627674650" flag="0"/>
      <psa30 value="0.0098018096" flag="0"/>
    </comp>
    <comp name="--.HHE">
      <acc value="0.4041776810" flag="0"/>
      <vel value="0.1435998197" flag="0"/>
      <psa03 value="0.5564612287" flag="0"/>
      <psa10 value="0.0964128603" flag="0"/>
      <psa30 value="0.0064152807" flag="0"/>
    </comp>
    <comp name="--.HHZ">
      <acc value="0.3520998169" flag="0"/>
      <vel value="0.0846160314" flag="0"/>
      <psa03 value="0.4562636223" flag="0"/>
      <psa10 value="0.1125875491" flag="0"/>
      <psa30 value="0.0069677238" flag="0"/>
    </comp>
  </station>
</stationlist>
