<stationlist created="1778069889">
	<station code="ACATE" name="ACATE" netid="IV" source="Italian National Seismic Network (INSN)" insttype="" lat="37.02398" lon="14.50064">
		<comp name="--.HNE" depth="0.0">
			<acc value="0.0205599213648064" flag="0"/>
			<vel value="0.01248747252831" flag="0"/>
			<psa03 value="0.0423708696675034" flag="0"/>
			<psa10 value="0.0197675543060186" flag="0"/>
			<psa30 value="0.0018304036727535" flag="0"/>
		</comp>
		<comp name="--.HNN" depth="0.0">
			<acc value="0.0203693308407383" flag="0"/>
			<vel value="0.0127868472585608" flag="0"/>
			<psa03 value="0.0485452941808249" flag="0"/>
			<psa10 value="0.0149555299842235" flag="0"/>
			<psa30 value="0.00252972436219708" flag="0"/>
		</comp>
		<comp name="--.HNZ" depth="0.0">
			<acc value="0.0139680086710355" flag="0"/>
			<vel value="0.00823905378955468" flag="0"/>
			<psa03 value="0.0318117089055912" flag="0"/>
			<psa10 value="0.0159823636261129" flag="0"/>
			<psa30 value="0.0014187753718654" flag="0"/>
		</comp>
	</station>
	<station code="CROCE" name="CROCE" netid="IV" source="Italian National Seismic Network (INSN)" insttype="" lat="36.8326" lon="14.5345">
		<comp name="--.HNE" depth="0.0">
			<acc value="0.0168009289158509" flag="0"/>
			<vel value="0.0108268090087623" flag="0"/>
			<psa03 value="0.0390599463777512" flag="0"/>
			<psa10 value="0.0107958470349228" flag="0"/>
			<psa30 value="0.00085457614640899" flag="0"/>
		</comp>
		<comp name="--.HNN" depth="0.0">
			<acc value="0.0135249178916862" flag="0"/>
			<vel value="0.00679473229859219" flag="0"/>
			<psa03 value="0.0284113012026026" flag="0"/>
			<psa10 value="0.0114038936228651" flag="0"/>
			<psa30 value="0.000925716254932042" flag="0"/>
		</comp>
		<comp name="--.HNZ" depth="0.0">
			<acc value="0.011215513501826" flag="0"/>
			<vel value="0.00733897935727612" flag="0"/>
			<psa03 value="0.0268453239709631" flag="0"/>
			<psa10 value="0.0143555369934725" flag="0"/>
			<psa30 value="0.00109349952975056" flag="0"/>
		</comp>
	</station>
	<station code="HMDC" name="HMDC" netid="IV" source="Italian National Seismic Network (INSN)" insttype="" lat="36.959" lon="14.7831">
		<comp name="--.HNE" depth="0.0">
			<acc value="0.014727626015084" flag="0"/>
			<vel value="0.01010181135997" flag="0"/>
			<psa03 value="0.0340935614431231" flag="0"/>
			<psa10 value="0.0201380197768179" flag="0"/>
			<psa30 value="0.000804017452930343" flag="0"/>
		</comp>
		<comp name="--.HNN" depth="0.0">
			<acc value="0.015513945932301" flag="0"/>
			<vel value="0.013919512767827" flag="0"/>
			<psa03 value="0.0491716850734807" flag="0"/>
			<psa10 value="0.0279822234411333" flag="0"/>
			<psa30 value="0.00175971098629663" flag="0"/>
		</comp>
		<comp name="--.HNZ" depth="0.0">
			<acc value="0.01039651646324" flag="0"/>
			<vel value="0.00721598757812678" flag="0"/>
			<psa03 value="0.0276506836900919" flag="0"/>
			<psa10 value="0.0120441545995726" flag="0"/>
			<psa30 value="0.00212391254816936" flag="0"/>
		</comp>
	</station>
	<station code="HVZN" name="HVZN" netid="IV" source="Italian National Seismic Network (INSN)" insttype="" lat="37.1783" lon="14.7155">
		<comp name="--.HNE" depth="0.0">
			<acc value="0.0142491092196349" flag="0"/>
			<vel value="0.0115648311970999" flag="0"/>
			<psa03 value="0.0466661215028574" flag="0"/>
			<psa10 value="0.0284896000641845" flag="0"/>
			<psa30 value="0.00109842117247857" flag="0"/>
		</comp>
		<comp name="--.HNN" depth="0.0">
			<acc value="0.020314530758054" flag="0"/>
			<vel value="0.0134811547363176" flag="0"/>
			<psa03 value="0.0673817631671173" flag="0"/>
			<psa10 value="0.029911059968447" flag="0"/>
			<psa30 value="0.00191228191086493" flag="0"/>
		</comp>
		<comp name="--.HNZ" depth="0.0">
			<acc value="0.0120371532843139" flag="0"/>
			<vel value="0.00968938891051954" flag="0"/>
			<psa03 value="0.0321696465585374" flag="0"/>
			<psa10 value="0.0107273914587968" flag="0"/>
			<psa30 value="0.00089394928823307" flag="0"/>
		</comp>
	</station>
	<station code="ISPIC" name="ISPIC" netid="IV" source="Italian National Seismic Network (INSN)" insttype="" lat="36.7804" lon="14.9033">
		<comp name="--.HNE" depth="0.0">
			<acc value="0.0197415647773336" flag="0"/>
			<vel value="0.00972245710948872" flag="0"/>
			<psa03 value="0.0442500423454708" flag="0"/>
			<psa10 value="0.0169649024834501" flag="0"/>
			<psa30 value="0.0011158706330597" flag="0"/>
		</comp>
		<comp name="--.HNN" depth="0.0">
			<acc value="0.0158497798951516" flag="0"/>
			<vel value="0.011126311785028" flag="0"/>
			<psa03 value="0.0455028241307824" flag="0"/>
			<psa10 value="0.0201662073669874" flag="0"/>
			<psa30 value="0.00154092159593328" flag="0"/>
		</comp>
		<comp name="--.HNZ" depth="0.0">
			<acc value="0.0147652538979274" flag="0"/>
			<vel value="0.0101707007589708" flag="0"/>
			<psa03 value="0.0401337593365898" flag="0"/>
			<psa10 value="0.0116293943442212" flag="0"/>
			<psa30 value="0.000872025606990116" flag="0"/>
		</comp>
	</station>
	<station code="SSY" name="SSY" netid="IV" source="Italian National Seismic Network (INSN)" insttype="" lat="37.1577" lon="15.0737">
		<comp name="--.HNE" depth="0.0">
			<acc value="0.0232773774885781" flag="0"/>
			<vel value="0.01194639668164" flag="0"/>
			<psa03 value="0.04478694882489" flag="0"/>
			<psa10 value="0.0232467082926555" flag="0"/>
			<psa30 value="0.000762407200775351" flag="0"/>
		</comp>
		<comp name="--.HNN" depth="0.0">
			<acc value="0.0239912186193369" flag="0"/>
			<vel value="0.0118535366897204" flag="0"/>
			<psa03 value="0.0572700244713879" flag="0"/>
			<psa10 value="0.0166789997831593" flag="0"/>
			<psa30 value="0.00133868682201869" flag="0"/>
		</comp>
		<comp name="--.HNZ" depth="0.0">
			<acc value="0.0129031820589839" flag="0"/>
			<vel value="0.00584610512001317" flag="0"/>
			<psa03 value="0.0250108934996139" flag="0"/>
			<psa10 value="0.00663616408562207" flag="0"/>
			<psa30 value="0.00109439437388293" flag="0"/>
		</comp>
	</station>
</stationlist>
