<stationlist created="1775808388">
	<station code="KHMN" name="KHMN" netid="KO" source="Bogazici University Kandilli Observatory And Earthquake Research Institute (KOERI)" insttype="" lat="37.3916" lon="37.1574">
		<comp name="--.HNE" depth="0.0">
			<acc value="0.0242315254689715" flag="0"/>
			<vel value="0.0092961912532634" flag="0"/>
			<psa03 value="0.0848141601885328" flag="0"/>
			<psa10 value="0.00608315610423732" flag="0"/>
			<psa30 value="0.000891594480425276" flag="0"/>
		</comp>
		<comp name="--.HNN" depth="0.0">
			<acc value="0.0150505071932462" flag="0"/>
			<vel value="0.00584410353080326" flag="0"/>
			<psa03 value="0.0480181184646876" flag="0"/>
			<psa10 value="0.0044136603520872" flag="0"/>
			<psa30 value="0.000736206686746548" flag="0"/>
		</comp>
		<comp name="--.HNZ" depth="0.0">
			<acc value="0.0118926840453999" flag="0"/>
			<vel value="0.00485409455740864" flag="0"/>
			<psa03 value="0.0353715697554016" flag="0"/>
			<psa10 value="0.00367656214794867" flag="0"/>
			<psa30 value="0.000550170248162178" flag="0"/>
		</comp>
	</station>
</stationlist>
