<?xml version="1.0" encoding="UTF-8" standalone="yes"?>
<!DOCTYPE earthquake SYSTEM "stationlist.dtd">
<stationlist created="" xmlns="ch.ethz.sed.shakemap.usgs.xml">
  <station code="GAZ" name="GAZ" netid="KO" insttype="CMG-3T" commtype="DIG" lat="37.1721" lon="37.2096">
    <comp name="--.HHE">
      <acc value="0.0226028628" flag="0"/>
      <vel value="0.0111139873" flag="0"/>
      <psa03 value="0.0715972627" flag="0"/>
      <psa10 value="0.0074991962" flag="0"/>
      <psa30 value="0.0006722955" flag="0"/>
    </comp>
    <comp name="--.HHN">
      <acc value="0.0160701515" flag="0"/>
      <vel value="0.0090899220" flag="0"/>
      <psa03 value="0.0653886935" flag="0"/>
      <psa10 value="0.0076850960" flag="0"/>
      <psa30 value="0.0004546502" flag="0"/>
    </comp>
    <comp name="--.HHZ">
      <acc value="0.0113865333" flag="0"/>
      <vel value="0.0071518897" flag="0"/>
      <psa03 value="0.0378590819" flag="0"/>
      <psa10 value="0.0055922881" flag="0"/>
      <psa30 value="0.0004767855" flag="0"/>
    </comp>
  </station>
  <station code="TAHT" name="TAHT" netid="KO" insttype="CMG-3ESPC" commtype="DIG" lat="36.3755" lon="36.1855">
    <comp name="--.HHN">
      <acc value="0.7557369099" flag="0"/>
      <vel value="0.1801904297" flag="0"/>
      <psa03 value="1.0299999316" flag="0"/>
      <psa10 value="0.1046862942" flag="0"/>
      <psa30 value="0.0064166484" flag="0"/>
    </comp>
    <comp name="--.HHE">
      <acc value="0.8631631903" flag="0"/>
      <vel value="0.2861206618" flag="0"/>
      <psa03 value="3.2644566330" flag="0"/>
      <psa10 value="0.1818477763" flag="0"/>
      <psa30 value="0.0132110650" flag="0"/>
    </comp>
    <comp name="--.HHZ">
      <acc value="0.4390205703" flag="0"/>
      <vel value="0.0926157551" flag="0"/>
      <psa03 value="0.5414729804" flag="0"/>
      <psa10 value="0.0815301860" flag="0"/>
      <psa30 value="0.0043897865" flag="0"/>
    </comp>
  </station>
</stationlist>
