<stationlist created="1779846982">
	<station code="SRN" name="SRN" netid="AC" source="Albanian Seismological Network (AC)" insttype="" lat="39.880001" lon="20.0005">
		<comp name="01.HNE" depth="0.0">
			<acc value="0.00808547047451725" flag="0"/>
			<vel value="0.00475662002812838" flag="0"/>
			<psa03 value="0.0215391755625729" flag="0"/>
			<psa10 value="0.00601855057444935" flag="0"/>
			<psa30 value="0.00142259705257092" flag="0"/>
		</comp>
		<comp name="01.HNN" depth="0.0">
			<acc value="0.00619121825879414" flag="0"/>
			<vel value="0.00503283663468798" flag="0"/>
			<psa03 value="0.0213168535431876" flag="0"/>
			<psa10 value="0.00640350232558722" flag="0"/>
			<psa30 value="0.000899666577661687" flag="0"/>
		</comp>
		<comp name="01.HNZ" depth="0.0">
			<acc value="0.00725771200151591" flag="0"/>
			<vel value="0.00545631330595106" flag="0"/>
			<psa03 value="0.0264155624013748" flag="0"/>
			<psa10 value="0.00618007471213344" flag="0"/>
			<psa30 value="0.00156634636692451" flag="0"/>
		</comp>
	</station>
	<station code="AGRP" name="AGRP" netid="CL" source="Corinth Riff Laboratory (CRLNET)" insttype="" lat="38.3959" lon="21.72277">
		<comp name="00.HNE" depth="0.0">
			<acc value="0.002841634033762" flag="0"/>
			<vel value="0.00188800955317226" flag="0"/>
			<psa03 value="0.00671331712014242" flag="0"/>
			<psa10 value="0.00476002110929457" flag="0"/>
			<psa30 value="0.000239648479702157" flag="0"/>
		</comp>
		<comp name="00.HNN" depth="0.0">
			<acc value="0.00273931136783052" flag="0"/>
			<vel value="0.00176651781619826" flag="0"/>
			<psa03 value="0.00927561446391774" flag="0"/>
			<psa10 value="0.00268127504318835" flag="0"/>
			<psa30 value="0.000255511822237716" flag="0"/>
		</comp>
		<comp name="00.HNZ" depth="0.0">
			<acc value="0.00206861470825823" flag="0"/>
			<vel value="0.00109014634151364" flag="0"/>
			<psa03 value="0.00552834929894439" flag="0"/>
			<psa10 value="0.0018350909017041" flag="0"/>
			<psa30 value="0.00032212042743927" flag="0"/>
		</comp>
	</station>
	<station code="MALA" name="MALA" netid="CL" source="Corinth Riff Laboratory (CRLNET)" insttype="" lat="38.39341" lon="21.87263">
		<comp name="01.HNE" depth="0.0">
			<acc value="0.00619058125692013" flag="0"/>
			<vel value="0.00685923028283597" flag="0"/>
			<psa03 value="0.0134287593810513" flag="0"/>
			<psa10 value="0.0159288520832598" flag="0"/>
			<psa30 value="0.0010623300616509" flag="0"/>
		</comp>
		<comp name="01.HNN" depth="0.0">
			<acc value="0.00503070492350584" flag="0"/>
			<vel value="0.00541811758781115" flag="0"/>
			<psa03 value="0.0125838922148664" flag="0"/>
			<psa10 value="0.00956605682933173" flag="0"/>
			<psa30 value="0.000788562342549665" flag="0"/>
		</comp>
		<comp name="01.HNZ" depth="0.0">
			<acc value="0.00247691829507047" flag="0"/>
			<vel value="0.00223592175137465" flag="0"/>
			<psa03 value="0.00459438801451602" flag="0"/>
			<psa10 value="0.00301462618856663" flag="0"/>
			<psa30 value="0.000295753472424416" flag="0"/>
		</comp>
	</station>
	<station code="TRIZ" name="TRIZ" netid="CL" source="Corinth Riff Laboratory (CRLNET)" insttype="" lat="38.36543" lon="22.07272">
		<comp name="00.HNE" depth="0.0">
			<acc value="0.001560923051527" flag="0"/>
			<vel value="0.00114662955909669" flag="0"/>
			<psa03 value="0.00435692371595908" flag="0"/>
			<psa10 value="0.00147417320361531" flag="0"/>
			<psa30 value="0.000614154538892148" flag="0"/>
		</comp>
		<comp name="00.HNN" depth="0.0">
			<acc value="0.00389264192071896" flag="0"/>
			<vel value="0.00302134667331939" flag="0"/>
			<psa03 value="0.0174142356388954" flag="0"/>
			<psa10 value="0.00305617073756166" flag="0"/>
			<psa30 value="0.000257466717364858" flag="0"/>
		</comp>
		<comp name="00.HNZ" depth="0.0">
			<acc value="0.00160944444483284" flag="0"/>
			<vel value="0.00190834317912893" flag="0"/>
			<psa03 value="0.00335866032028352" flag="0"/>
			<psa10 value="0.00217512159113236" flag="0"/>
			<psa30 value="0.00123197744579316" flag="0"/>
		</comp>
	</station>
	<station code="KIAS" name="KIAS" netid="HA" source="Hellenic Seismological Network, University of Athens, Seismological Laboratory (HA)" insttype="" lat="37.9875" lon="22.7543">
		<comp name="--.HNE" depth="0.0">
			<acc value="0.00318575983326422" flag="0"/>
			<vel value="0.00245404414101521" flag="0"/>
			<psa03 value="0.0035687650590022" flag="0"/>
			<psa10 value="0.00506645390895629" flag="0"/>
			<psa30 value="0.0007631521175809" flag="0"/>
		</comp>
		<comp name="--.HNN" depth="0.0">
			<acc value="0.0027944961631319" flag="0"/>
			<vel value="0.00271355403452212" flag="0"/>
			<psa03 value="0.00350790262873074" flag="0"/>
			<psa10 value="0.00416383708376451" flag="0"/>
			<psa30 value="0.00142429560259386" flag="0"/>
		</comp>
		<comp name="--.HNZ" depth="0.0">
			<acc value="0.00248993588650498" flag="0"/>
			<vel value="0.0016384151312804" flag="0"/>
			<psa03 value="0.00298086380874226" flag="0"/>
			<psa10 value="0.0026123039898172" flag="0"/>
			<psa30 value="0.000557893624381559" flag="0"/>
		</comp>
	</station>
	<station code="AGR3" name="AGR3" netid="HI" source="ITSAK Strong Motion Network" insttype="" lat="38.5893" lon="21.4162">
		<comp name="--.HNE" depth="0.0">
			<acc value="0.0129581456653631" flag="0"/>
			<vel value="0.0125160854597801" flag="0"/>
			<psa03 value="0.0326830322779662" flag="0"/>
			<psa10 value="0.015584039241103" flag="0"/>
			<psa30 value="0.00181439915337279" flag="0"/>
		</comp>
		<comp name="--.HNN" depth="0.0">
			<acc value="0.0121898552069898" flag="0"/>
			<vel value="0.010959950558185" flag="0"/>
			<psa03 value="0.0394970253382319" flag="0"/>
			<psa10 value="0.0143418313259207" flag="0"/>
			<psa30 value="0.00297991490473584" flag="0"/>
		</comp>
		<comp name="--.HNZ" depth="0.0">
			<acc value="0.0067318981534623" flag="0"/>
			<vel value="0.00615375943469197" flag="0"/>
			<psa03 value="0.0171393150830158" flag="0"/>
			<psa10 value="0.0101799649977374" flag="0"/>
			<psa30 value="0.000752687466019161" flag="0"/>
		</comp>
	</station>
	<station code="AIG2" name="AIG2" netid="HI" source="ITSAK Strong Motion Network" insttype="" lat="38.2417" lon="22.0726">
		<comp name="--.HNE" depth="0.0">
			<acc value="0.00268906625535305" flag="0"/>
			<vel value="0.00205708921599033" flag="0"/>
			<psa03 value="0.00488343548281164" flag="0"/>
			<psa10 value="0.00221871588528921" flag="0"/>
			<psa30 value="0.00041830742435553" flag="0"/>
		</comp>
		<comp name="--.HNN" depth="0.0">
			<acc value="0.00407893411349853" flag="0"/>
			<vel value="0.00180073798168774" flag="0"/>
			<psa03 value="0.00419467729084714" flag="0"/>
			<psa10 value="0.00370252418030635" flag="0"/>
			<psa30 value="0.000580922233248945" flag="0"/>
		</comp>
		<comp name="--.HNZ" depth="0.0">
			<acc value="0.00290816759928155" flag="0"/>
			<vel value="0.0012411115316726" flag="0"/>
			<psa03 value="0.00365652575552994" flag="0"/>
			<psa10 value="0.00267505220907949" flag="0"/>
			<psa30 value="0.000384717334593605" flag="0"/>
		</comp>
	</station>
	<station code="AKR1" name="AKR1" netid="HI" source="ITSAK Strong Motion Network" insttype="" lat="38.153583" lon="22.31326">
		<comp name="--.HNE" depth="0.0">
			<acc value="0.00272105929486283" flag="0"/>
			<vel value="0.00191979501399791" flag="0"/>
			<psa03 value="0.00544037992970899" flag="0"/>
			<psa10 value="0.00277400931137929" flag="0"/>
			<psa30 value="0.000346663824151962" flag="0"/>
		</comp>
		<comp name="--.HNN" depth="0.0">
			<acc value="0.00221339002270453" flag="0"/>
			<vel value="0.00202128154283829" flag="0"/>
			<psa03 value="0.00741364866990219" flag="0"/>
			<psa10 value="0.00278591119356709" flag="0"/>
			<psa30 value="0.000249130383873424" flag="0"/>
		</comp>
		<comp name="--.HNZ" depth="0.0">
			<acc value="0.00118821503062366" flag="0"/>
			<vel value="0.00102837086687359" flag="0"/>
			<psa03 value="0.00372088971984873" flag="0"/>
			<psa10 value="0.002325797900821" flag="0"/>
			<psa30 value="0.000255514114056133" flag="0"/>
		</comp>
	</station>
	<station code="AOL1" name="AOL1" netid="HI" source="ITSAK Strong Motion Network" insttype="" lat="37.642378" lon="21.624555">
		<comp name="--.HNE" depth="0.0">
			<acc value="0.00655615915032853" flag="0"/>
			<vel value="0.00504397697084853" flag="0"/>
			<psa03 value="0.0167136866267991" flag="0"/>
			<psa10 value="0.00946630397116302" flag="0"/>
			<psa30 value="0.00119478175259429" flag="0"/>
		</comp>
		<comp name="--.HNN" depth="0.0">
			<acc value="0.00680134366537056" flag="0"/>
			<vel value="0.00563687774611898" flag="0"/>
			<psa03 value="0.0189135055310774" flag="0"/>
			<psa10 value="0.0115702524099221" flag="0"/>
			<psa30 value="0.00138900388968919" flag="0"/>
		</comp>
		<comp name="--.HNZ" depth="0.0">
			<acc value="0.00450847080476596" flag="0"/>
			<vel value="0.00375027207119512" flag="0"/>
			<psa03 value="0.0133038461582567" flag="0"/>
			<psa10 value="0.0105814159668795" flag="0"/>
			<psa30 value="0.000584287039484169" flag="0"/>
		</comp>
	</station>
	<station code="ARG2" name="ARG2" netid="HI" source="ITSAK Strong Motion Network" insttype="" lat="38.1783" lon="20.4878">
		<comp name="--.HNE" depth="0.0">
			<acc value="0.222550407449634" flag="0"/>
			<vel value="0.150718558177638" flag="0"/>
			<psa03 value="0.504890029818247" flag="0"/>
			<psa10 value="0.0975459719417147" flag="0"/>
			<psa30 value="0.0073000627600143" flag="0"/>
		</comp>
		<comp name="--.HNN" depth="0.0">
			<acc value="0.32629356322124" flag="0"/>
			<vel value="0.155241488422721" flag="0"/>
			<psa03 value="0.456675919204705" flag="0"/>
			<psa10 value="0.11512027365301" flag="0"/>
			<psa30 value="0.00678409816319572" flag="0"/>
		</comp>
		<comp name="--.HNZ" depth="0.0">
			<acc value="0.117879337419857" flag="0"/>
			<vel value="0.0507999034392689" flag="0"/>
			<psa03 value="0.223345608050267" flag="0"/>
			<psa10 value="0.0240035813694776" flag="0"/>
			<psa30 value="0.00267392567612043" flag="0"/>
		</comp>
	</station>
	<station code="ARS1" name="ARS1" netid="HI" source="ITSAK Strong Motion Network" insttype="" lat="37.6349" lon="22.7293">
		<comp name="--.HNE" depth="0.0">
			<acc value="0.00558038526866254" flag="0"/>
			<vel value="0.00184795799326207" flag="0"/>
			<psa03 value="0.00334348516135722" flag="0"/>
			<psa10 value="0.00404068361294001" flag="0"/>
			<psa30 value="0.000364698248010828" flag="0"/>
		</comp>
		<comp name="--.HNN" depth="0.0">
			<acc value="0.014632075479587" flag="0"/>
			<vel value="0.00201437527486144" flag="0"/>
			<psa03 value="0.00417374784447701" flag="0"/>
			<psa10 value="0.00385745538123741" flag="0"/>
			<psa30 value="0.000344231084870186" flag="0"/>
		</comp>
		<comp name="--.HNZ" depth="0.0">
			<acc value="0.017516049983081" flag="0"/>
			<vel value="0.001480665640045" flag="0"/>
			<psa03 value="0.00299285679071817" flag="0"/>
			<psa10 value="0.000940493924198548" flag="0"/>
			<psa30 value="0.00023305335530757" flag="0"/>
		</comp>
	</station>
	<station code="ART2" name="ART2" netid="HI" source="ITSAK Strong Motion Network" insttype="" lat="39.1474" lon="20.9937">
		<comp name="--.HNE" depth="0.0">
			<acc value="0.00277140213418205" flag="0"/>
			<vel value="0.00240339988972282" flag="0"/>
			<psa03 value="0.00559157614362556" flag="0"/>
			<psa10 value="0.00319486922253222" flag="0"/>
			<psa30 value="0.000511277411284475" flag="0"/>
		</comp>
		<comp name="--.HNN" depth="0.0">
			<acc value="0.00287884472581707" flag="0"/>
			<vel value="0.00185736898477624" flag="0"/>
			<psa03 value="0.00559958058013836" flag="0"/>
			<psa10 value="0.00257392676001682" flag="0"/>
			<psa30 value="0.00016952272744461" flag="0"/>
		</comp>
		<comp name="--.HNZ" depth="0.0">
			<acc value="0.0018079733703274" flag="0"/>
			<vel value="0.0013299237252777" flag="0"/>
			<psa03 value="0.00353353095408226" flag="0"/>
			<psa10 value="0.0014306351631825" flag="0"/>
			<psa30 value="0.000160664640639911" flag="0"/>
		</comp>
	</station>
	<station code="AST1" name="AST1" netid="HI" source="ITSAK Strong Motion Network" insttype="" lat="38.5416" lon="21.0895">
		<comp name="--.HNE" depth="0.0">
			<acc value="0.01059599836252" flag="0"/>
			<vel value="0.00833385808878205" flag="0"/>
			<psa03 value="0.03138754541669" flag="0"/>
			<psa10 value="0.00651730080169881" flag="0"/>
			<psa30 value="0.00131547245609541" flag="0"/>
		</comp>
		<comp name="--.HNN" depth="0.0">
			<acc value="0.0132587883827409" flag="0"/>
			<vel value="0.00671017280856044" flag="0"/>
			<psa03 value="0.0333919412188877" flag="0"/>
			<psa10 value="0.00515268899659959" flag="0"/>
			<psa30 value="0.00131794907849182" flag="0"/>
		</comp>
		<comp name="--.HNZ" depth="0.0">
			<acc value="0.00831822059467557" flag="0"/>
			<vel value="0.00534781300799681" flag="0"/>
			<psa03 value="0.0299423064475352" flag="0"/>
			<psa10 value="0.00572717174078969" flag="0"/>
			<psa30 value="0.000482029223737756" flag="0"/>
		</comp>
	</station>
	<station code="JAN2" name="JAN2" netid="HI" source="ITSAK Strong Motion Network" insttype="" lat="39.664" lon="20.85222">
		<comp name="--.HNE" depth="0.0">
			<acc value="0.0123048455090551" flag="0"/>
			<vel value="0.00287258696253873" flag="0"/>
			<psa03 value="0.0147183396010841" flag="0"/>
			<psa10 value="0.00452907331013619" flag="0"/>
			<psa30 value="0.000312976384191284" flag="0"/>
		</comp>
		<comp name="--.HNN" depth="0.0">
			<acc value="0.00709625720725295" flag="0"/>
			<vel value="0.00260780244661237" flag="0"/>
			<psa03 value="0.0194638675107115" flag="0"/>
			<psa10 value="0.00257261979843403" flag="0"/>
			<psa30 value="0.000230528422418257" flag="0"/>
		</comp>
		<comp name="--.HNZ" depth="0.0">
			<acc value="0.0337355392520906" flag="0"/>
			<vel value="0.00454920439852251" flag="0"/>
			<psa03 value="0.00665008571784111" flag="0"/>
			<psa10 value="0.00238651770445887" flag="0"/>
			<psa30 value="0.000187464202437648" flag="0"/>
		</comp>
	</station>
	<station code="KAC1" name="KAC1" netid="HI" source="ITSAK Strong Motion Network" insttype="" lat="38.143412" lon="21.549694">
		<comp name="--.HNE" depth="0.0">
			<acc value="0.00987890698223032" flag="0"/>
			<vel value="0.0073049945925783" flag="0"/>
			<psa03 value="0.026692984425034" flag="0"/>
			<psa10 value="0.0120105765792343" flag="0"/>
			<psa30 value="0.00125399838373886" flag="0"/>
		</comp>
		<comp name="--.HNN" depth="0.0">
			<acc value="0.00977437185654476" flag="0"/>
			<vel value="0.00751248482183454" flag="0"/>
			<psa03 value="0.0339976454063197" flag="0"/>
			<psa10 value="0.0132798303485819" flag="0"/>
			<psa30 value="0.000924354463113722" flag="0"/>
		</comp>
		<comp name="--.HNZ" depth="0.0">
			<acc value="0.00412507253473814" flag="0"/>
			<vel value="0.00320774033699966" flag="0"/>
			<psa03 value="0.010360614074219" flag="0"/>
			<psa10 value="0.00537723980949567" flag="0"/>
			<psa30 value="0.000678175446628" flag="0"/>
		</comp>
	</station>
	<station code="KAR2" name="KAR2" netid="HI" source="ITSAK Strong Motion Network" insttype="" lat="39.365759" lon="21.91933">
		<comp name="--.HNE" depth="0.0">
			<acc value="0.00457117455015075" flag="0"/>
			<vel value="0.00347625870437351" flag="0"/>
			<psa03 value="0.00570730190887314" flag="0"/>
			<psa10 value="0.00666248229426097" flag="0"/>
			<psa30 value="0.00237237528322003" flag="0"/>
		</comp>
		<comp name="--.HNN" depth="0.0">
			<acc value="0.00427328489840632" flag="0"/>
			<vel value="0.00381057208104985" flag="0"/>
			<psa03 value="0.00666989171738033" flag="0"/>
			<psa10 value="0.00906736848117147" flag="0"/>
			<psa30 value="0.00154555196856509" flag="0"/>
		</comp>
		<comp name="--.HNZ" depth="0.0">
			<acc value="0.0282809507384314" flag="0"/>
			<vel value="0.00320626252069785" flag="0"/>
			<psa03 value="0.00353612878242737" flag="0"/>
			<psa10 value="0.00361131813835227" flag="0"/>
			<psa30 value="0.000313767452220549" flag="0"/>
		</comp>
	</station>
	<station code="KLV1" name="KLV1" netid="HI" source="ITSAK Strong Motion Network" insttype="" lat="38.03256" lon="22.10797">
		<comp name="--.HNE" depth="0.0">
			<acc value="0.00393285779385434" flag="0"/>
			<vel value="0.00305644770129951" flag="0"/>
			<psa03 value="0.010299543622333" flag="0"/>
			<psa10 value="0.00464112557679503" flag="0"/>
			<psa30 value="0.000387829077189647" flag="0"/>
		</comp>
		<comp name="--.HNN" depth="0.0">
			<acc value="0.00294984120703577" flag="0"/>
			<vel value="0.00195076593075436" flag="0"/>
			<psa03 value="0.00854351388251667" flag="0"/>
			<psa10 value="0.00331897431888391" flag="0"/>
			<psa30 value="0.000270725616535041" flag="0"/>
		</comp>
		<comp name="--.HNZ" depth="0.0">
			<acc value="0.00378833421275428" flag="0"/>
			<vel value="0.00171416380734789" flag="0"/>
			<psa03 value="0.00343920927604921" flag="0"/>
			<psa10 value="0.00277098942382338" flag="0"/>
			<psa30 value="0.000340657254371237" flag="0"/>
		</comp>
	</station>
	<station code="KRK1" name="KRK1" netid="HI" source="ITSAK Strong Motion Network" insttype="" lat="39.618861" lon="19.9202">
		<comp name="--.HNE" depth="0.0">
			<acc value="0.0172399050976434" flag="0"/>
			<vel value="0.00851842671815857" flag="0"/>
			<psa03 value="0.0446467545033866" flag="0"/>
			<psa10 value="0.00389993936746982" flag="0"/>
			<psa30 value="0.000367798453384157" flag="0"/>
		</comp>
		<comp name="--.HNN" depth="0.0">
			<acc value="0.0182916091793866" flag="0"/>
			<vel value="0.0101726293120955" flag="0"/>
			<psa03 value="0.0386020051100713" flag="0"/>
			<psa10 value="0.00501536755597297" flag="0"/>
			<psa30 value="0.000344225563670704" flag="0"/>
		</comp>
		<comp name="--.HNZ" depth="0.0">
			<acc value="0.00940703034149705" flag="0"/>
			<vel value="0.0029367881980633" flag="0"/>
			<psa03 value="0.0234506706793631" flag="0"/>
			<psa10 value="0.00139917514942605" flag="0"/>
			<psa30 value="0.000237342832172805" flag="0"/>
		</comp>
	</station>
	<station code="KYP2" name="KYP2" netid="HI" source="ITSAK Strong Motion Network" insttype="" lat="37.2497" lon="21.667">
		<comp name="--.HNE" depth="0.0">
			<acc value="0.00770096104603227" flag="0"/>
			<vel value="0.002051985605009" flag="0"/>
			<psa03 value="0.0052794867843761" flag="0"/>
			<psa10 value="0.00395627958410723" flag="0"/>
			<psa30 value="0.000280953143016815" flag="0"/>
		</comp>
		<comp name="--.HNN" depth="0.0">
			<acc value="0.00680470403824388" flag="0"/>
			<vel value="0.00231231338089597" flag="0"/>
			<psa03 value="0.00447230115081508" flag="0"/>
			<psa10 value="0.00321159978397343" flag="0"/>
			<psa30 value="0.000386750906807888" flag="0"/>
		</comp>
		<comp name="--.HNZ" depth="0.0">
			<acc value="0.0141011655398758" flag="0"/>
			<vel value="0.00161335350935186" flag="0"/>
			<psa03 value="0.0034660447126189" flag="0"/>
			<psa10 value="0.00204556222721002" flag="0"/>
			<psa30 value="0.000313196685243183" flag="0"/>
		</comp>
	</station>
	<station code="LAM2" name="LAM2" netid="HI" source="ITSAK Strong Motion Network" insttype="" lat="38.90203" lon="22.431301">
		<comp name="--.HNE" depth="0.0">
			<acc value="0.00292665622181003" flag="0"/>
			<vel value="0.000826113455792839" flag="0"/>
			<psa03 value="0.00178570895200554" flag="0"/>
			<psa10 value="0.00126580166564632" flag="0"/>
			<psa30 value="0.000313242625786585" flag="0"/>
		</comp>
		<comp name="--.HNN" depth="0.0">
			<acc value="0.00319231673128385" flag="0"/>
			<vel value="0.00102486123366153" flag="0"/>
			<psa03 value="0.00189913476017989" flag="0"/>
			<psa10 value="0.00170371044057836" flag="0"/>
			<psa30 value="0.000260983382618426" flag="0"/>
		</comp>
		<comp name="--.HNZ" depth="0.0">
			<acc value="0.00918428157502856" flag="0"/>
			<vel value="0.000968323877795355" flag="0"/>
			<psa03 value="0.00123654106191177" flag="0"/>
			<psa10 value="0.000921353710942318" flag="0"/>
			<psa30 value="0.000242011943561903" flag="0"/>
		</comp>
	</station>
