<stationlist xmlns:esm="https://esm-db.eu/esmws/shakemap/1/" created="1781574881">
	<station code="ARG2" name="ARG2" netid="HI" source="ITSAK Strong Motion Network" insttype="" lat="38.1783" lon="20.4878" esm:processing="automatic (Paolucci et al 2011)" esm:quality="best">
		<comp name="--.HNE" depth="0.0">
			<acc value="0.222550407449634" flag="0"/>
			<vel value="0.150718558177638" flag="0"/>
			<psa03 value="0.504890029818247" flag="0"/>
			<psa10 value="0.0975459719417147" flag="0"/>
			<psa30 value="0.0073000627600143" flag="0"/>
		</comp>
		<comp name="--.HNN" depth="0.0">
			<acc value="0.32629356322124" flag="0"/>
			<vel value="0.155241488422721" flag="0"/>
			<psa03 value="0.456675919204705" flag="0"/>
			<psa10 value="0.11512027365301" flag="0"/>
			<psa30 value="0.00678409816319572" flag="0"/>
		</comp>
		<comp name="--.HNZ" depth="0.0">
			<acc value="0.117879337419857" flag="0"/>
			<vel value="0.0507999034392689" flag="0"/>
			<psa03 value="0.223345608050267" flag="0"/>
			<psa10 value="0.0240035813694776" flag="0"/>
			<psa30 value="0.00267392567612043" flag="0"/>
		</comp>
	</station>
	<station code="AST1" name="AST1" netid="HI" source="ITSAK Strong Motion Network" insttype="" lat="38.5416" lon="21.0895" esm:processing="automatic (Paolucci et al 2011)" esm:quality="best">
		<comp name="--.HNE" depth="0.0">
			<acc value="0.01059599836252" flag="0"/>
			<vel value="0.00833385808878205" flag="0"/>
			<psa03 value="0.03138754541669" flag="0"/>
			<psa10 value="0.00651730080169881" flag="0"/>
			<psa30 value="0.00131547245609541" flag="0"/>
		</comp>
		<comp name="--.HNN" depth="0.0">
			<acc value="0.0132587883827409" flag="0"/>
			<vel value="0.00671017280856044" flag="0"/>
			<psa03 value="0.0333919412188877" flag="0"/>
			<psa10 value="0.00515268899659959" flag="0"/>
			<psa30 value="0.00131794907849182" flag="0"/>
		</comp>
		<comp name="--.HNZ" depth="0.0">
			<acc value="0.00831822059467557" flag="0"/>
			<vel value="0.00534781300799681" flag="0"/>
			<psa03 value="0.0299423064475352" flag="0"/>
			<psa10 value="0.00572717174078969" flag="0"/>
			<psa30 value="0.000482029223737756" flag="0"/>
		</comp>
	</station>
	<station code="LXR2" name="LXR2" netid="HI" source="ITSAK Strong Motion Network" insttype="" lat="38.206718" lon="20.436386" esm:processing="automatic (Paolucci et al 2011)" esm:quality="best">
		<comp name="--.HNE" depth="0.0">
			<acc value="0.419853220702644" flag="0"/>
			<vel value="0.188072581022179" flag="0"/>
			<psa03 value="0.785024504022643" flag="0"/>
			<psa10 value="0.109834838519153" flag="0"/>
			<psa30 value="0.0101064178339068" flag="0"/>
		</comp>
		<comp name="--.HNN" depth="0.0">
			<acc value="0.380382975911284" flag="0"/>
			<vel value="0.140660777959085" flag="0"/>
			<psa03 value="0.482403206845314" flag="0"/>
			<psa10 value="0.154638254025546" flag="0"/>
			<psa30 value="0.00840495178682213" flag="0"/>
		</comp>
		<comp name="--.HNZ" depth="0.0">
			<acc value="0.229940537972281" flag="0"/>
			<vel value="0.0641958584730433" flag="0"/>
			<psa03 value="0.482797941325662" flag="0"/>
			<psa10 value="0.0342890952342641" flag="0"/>
			<psa30 value="0.00444331476446498" flag="0"/>
		</comp>
	</station>
	<station code="VAS2" name="VAS2" netid="HI" source="ITSAK Strong Motion Network" insttype="" lat="38.630558" lon="20.608081" esm:processing="automatic (Paolucci et al 2011)" esm:quality="best">
		<comp name="--.HNE" depth="0.0">
			<acc value="0.0345240422093819" flag="0"/>
			<vel value="0.0316766756049754" flag="0"/>
			<psa03 value="0.105709252719039" flag="0"/>
			<psa10 value="0.0677903457777245" flag="0"/>
			<psa30 value="0.00277390625767804" flag="0"/>
		</comp>
		<comp name="--.HNN" depth="0.0">
			<acc value="0.049592124824873" flag="0"/>
			<vel value="0.0435366073697548" flag="0"/>
			<psa03 value="0.130777767551771" flag="0"/>
			<psa10 value="0.076769850625781" flag="0"/>
			<psa30 value="0.00377070062374554" flag="0"/>
		</comp>
		<comp name="--.HNZ" depth="0.0">
			<acc value="0.0245319920078096" flag="0"/>
			<vel value="0.0185133200504216" flag="0"/>
			<psa03 value="0.0749922647445892" flag="0"/>
			<psa10 value="0.0293874342732881" flag="0"/>
			<psa30 value="0.00121069166071337" flag="0"/>
		</comp>
	</station>
	<station code="VSK1" name="VSK1" netid="HI" source="ITSAK Strong Motion Network" insttype="" lat="38.4091" lon="20.564" esm:processing="automatic (Paolucci et al 2011)" esm:quality="best">
		<comp name="--.HNE" depth="0.0">
			<acc value="0.0312180289596556" flag="0"/>
			<vel value="0.0191601794840089" flag="0"/>
			<psa03 value="0.0827161097447147" flag="0"/>
			<psa10 value="0.0163263952935431" flag="0"/>
			<psa30 value="0.00121317463769775" flag="0"/>
		</comp>
		<comp name="--.HNN" depth="0.0">
			<acc value="0.0438037349423303" flag="0"/>
			<vel value="0.0244259538098525" flag="0"/>
			<psa03 value="0.14001686918054" flag="0"/>
			<psa10 value="0.0267085830625478" flag="0"/>
			<psa30 value="0.001602707629849" flag="0"/>
		</comp>
		<comp name="--.HNZ" depth="0.0">
			<acc value="0.0283334652769644" flag="0"/>
			<vel value="0.0103617605610551" flag="0"/>
			<psa03 value="0.0618721039317107" flag="0"/>
			<psa10 value="0.0100594320130112" flag="0"/>
			<psa30 value="0.000836406449490145" flag="0"/>
		</comp>
	</station>
	<station code="ZAK2" name="ZAK2" netid="HI" source="ITSAK Strong Motion Network" insttype="" lat="37.787501" lon="20.899999" esm:processing="automatic (Paolucci et al 2011)" esm:quality="best">
		<comp name="--.HNE" depth="0.0">
			<acc value="0.0619867074644392" flag="0"/>
			<vel value="0.0406055788288169" flag="0"/>
			<psa03 value="0.136765091266058" flag="0"/>
			<psa10 value="0.0298073327145067" flag="0"/>
			<psa30 value="0.00211022145848302" flag="0"/>
		</comp>
		<comp name="--.HNN" depth="0.0">
			<acc value="0.0678497123622693" flag="0"/>
			<vel value="0.0374032766767701" flag="0"/>
			<psa03 value="0.199645371359185" flag="0"/>
			<psa10 value="0.0440774461643721" flag="0"/>
			<psa30 value="0.00242321802630205" flag="0"/>
		</comp>
		<comp name="--.HNZ" depth="0.0">
			<acc value="0.0292106133145137" flag="0"/>
			<vel value="0.0152414483291408" flag="0"/>
			<psa03 value="0.0833481828662914" flag="0"/>
			<psa10 value="0.0163589230733854" flag="0"/>
			<psa30 value="0.00158365001320907" flag="0"/>
		</comp>
	</station>
	<station code="LXRA" name="LXRA" netid="HL" source="National Observatory of Athens Seismic Network" insttype="" lat="38.20006" lon="20.43718" esm:processing="automatic (Paolucci et al 2011)" esm:quality="best">
		<comp name="00.HNE" depth="0.0">
			<acc value="0.534868469423305" flag="0"/>
			<vel value="0.208037238095721" flag="0"/>
			<psa03 value="0.925978758214415" flag="0"/>
			<psa10 value="0.147790645404964" flag="0"/>
			<psa30 value="0.0105077744218159" flag="0"/>
		</comp>
		<comp name="00.HNN" depth="0.0">
			<acc value="0.463664107809722" flag="0"/>
			<vel value="0.14486999346585" flag="0"/>
			<psa03 value="0.605296014558333" flag="0"/>
			<psa10 value="0.089615861611181" flag="0"/>
			<psa30 value="0.00829301270472024" flag="0"/>
		</comp>
		<comp name="00.HNZ" depth="0.0">
			<acc value="0.267772415883344" flag="0"/>
			<vel value="0.0641998828403911" flag="0"/>
			<psa03 value="0.504373620611678" flag="0"/>
			<psa10 value="0.0468896824614157" flag="0"/>
			<psa30 value="0.00441609379454234" flag="0"/>
		</comp>
	</station>
	<station code="AMT" name="AMT" netid="HP" source="University of Patras, Seismological Laboratory (PSLNET)" insttype="" lat="37.5324" lon="21.7089" esm:processing="automatic (Paolucci et al 2011)" esm:quality="best">
		<comp name="--.HNE" depth="0.0">
			<acc value="0.0057016007438207" flag="0"/>
			<vel value="0.00579429143242032" flag="0"/>
			<psa03 value="0.0127742043012636" flag="0"/>
			<psa10 value="0.0122152717017936" flag="0"/>
			<psa30 value="0.000664478132996472" flag="0"/>
		</comp>
		<comp name="--.HNN" depth="0.0">
			<acc value="0.0053136437709589" flag="0"/>
			<vel value="0.00497581465551843" flag="0"/>
			<psa03 value="0.00991427265733585" flag="0"/>
			<psa10 value="0.00678820187257073" flag="0"/>
			<psa30 value="0.000658005985500365" flag="0"/>
		</comp>
		<comp name="--.HNZ" depth="0.0">
			<acc value="0.00343122923629209" flag="0"/>
			<vel value="0.00249846909141462" flag="0"/>
			<psa03 value="0.00872223405520554" flag="0"/>
			<psa10 value="0.00348738836611348" flag="0"/>
			<psa30 value="0.000439648447468757" flag="0"/>
		</comp>
	</station>
	<station code="DSF" name="DSF" netid="HP" source="University of Patras, Seismological Laboratory (PSLNET)" insttype="" lat="38.4112" lon="22.5271" esm:processing="automatic (Paolucci et al 2011)" esm:quality="best">
		<comp name="--.HNE" depth="1.0">
			<acc value="0.000992735496247169" flag="0"/>
			<vel value="0.000584414001122231" flag="0"/>
			<psa03 value="0.00263690645294501" flag="0"/>
			<psa10 value="0.00109756282533774" flag="0"/>
			<psa30 value="0.00013426548297083" flag="0"/>
		</comp>
		<comp name="--.HNN" depth="1.0">
			<acc value="0.00150926047144256" flag="0"/>
			<vel value="0.000758972340243907" flag="0"/>
			<psa03 value="0.00251057370250987" flag="0"/>
			<psa10 value="0.00114416798301498" flag="0"/>
			<psa30 value="0.000158795493380395" flag="0"/>
		</comp>
		<comp name="--.HNZ" depth="1.0">
			<acc value="0.000802815723141491" flag="0"/>
			<vel value="0.000496738732799122" flag="0"/>
			<psa03 value="0.00174474383592467" flag="0"/>
			<psa10 value="0.000879019265867639" flag="0"/>
			<psa30 value="0.000132204669368747" flag="0"/>
		</comp>
	</station>
	<station code="FSK" name="FSK" netid="HP" source="University of Patras, Seismological Laboratory (PSLNET)" insttype="" lat="38.4593" lon="20.5623" esm:processing="automatic (Paolucci et al 2011)" esm:quality="best">
		<comp name="--.HNE" depth="0.0">
			<acc value="0.0272868099677999" flag="0"/>
			<vel value="0.0126345821050942" flag="0"/>
			<psa03 value="0.0573124737535621" flag="0"/>
			<psa10 value="0.0179784247323897" flag="0"/>
			<psa30 value="0.00215331118796294" flag="0"/>
		</comp>
		<comp name="--.HNN" depth="0.0">
			<acc value="0.0178826929499614" flag="0"/>
			<vel value="0.0106868061820223" flag="0"/>
			<psa03 value="0.0355114982958357" flag="0"/>
			<psa10 value="0.0132648115411624" flag="0"/>
			<psa30 value="0.00105279192979779" flag="0"/>
		</comp>
		<comp name="--.HNZ" depth="0.0">
			<acc value="0.0171589130792619" flag="0"/>
			<vel value="0.00681325705017722" flag="0"/>
			<psa03 value="0.0335381149646769" flag="0"/>
			<psa10 value="0.0125788967276857" flag="0"/>
			<psa30 value="0.000776293508968577" flag="0"/>
		</comp>
	</station>
	<station code="GUR" name="GUR" netid="HP" source="University of Patras, Seismological Laboratory (PSLNET)" insttype="" lat="37.9363" lon="22.3423" esm:processing="manual (Paolucci et al 2011)" esm:quality="good">
		<comp name="--.HNE" depth="0.0">
			<acc value="0.00194907847372642" flag="0"/>
			<vel value="0.00208279801873524" flag="0"/>
			<psa03 value="0.00576367152847175" flag="0"/>
			<psa10 value="0.00361829524117846" flag="0"/>
			<psa30 value="0.000197048066488044" flag="0"/>
		</comp>
		<comp name="--.HNN" depth="0.0">
			<acc value="0.00259311759467501" flag="0"/>
			<vel value="0.00232036425148013" flag="0"/>
			<psa03 value="0.00669469023515067" flag="0"/>
			<psa10 value="0.00214853865826522" flag="0"/>
			<psa30 value="0.000221413599856202" flag="0"/>
		</comp>
		<comp name="--.HNZ" depth="0.0">
			<acc value="0.00125867793121426" flag="0"/>
			<vel value="0.00109823733866034" flag="0"/>
			<psa03 value="0.00273308990795768" flag="0"/>
			<psa10 value="0.00230192522562357" flag="0"/>
			<psa30 value="0.000168907829939834" flag="0"/>
		</comp>
	</station>
	<station code="LTHK" name="LTHK" netid="HP" source="University of Patras, Seismological Laboratory (PSLNET)" insttype="" lat="37.7095" lon="20.8367" esm:processing="automatic (Paolucci et al 2011)" esm:quality="best">
		<comp name="--.HNE" depth="0.0">
			<acc value="0.0526755115425598" flag="0"/>
			<vel value="0.0155317437428684" flag="0"/>
			<psa03 value="0.0687753581132354" flag="0"/>
			<psa10 value="0.0105479346863909" flag="0"/>
			<psa30 value="0.000830985361200793" flag="0"/>
		</comp>
		<comp name="--.HNN" depth="0.0">
			<acc value="0.0409263392927371" flag="0"/>
			<vel value="0.0188412164879911" flag="0"/>
			<psa03 value="0.0783508101482555" flag="0"/>
			<psa10 value="0.0143200573835369" flag="0"/>
			<psa30 value="0.000941177973423443" flag="0"/>
		</comp>
		<comp name="--.HNZ" depth="0.0">
			<acc value="0.0245304387836671" flag="0"/>
			<vel value="0.00733325075949257" flag="0"/>
			<psa03 value="0.0396030219433569" flag="0"/>
			<psa10 value="0.00571433370280672" flag="0"/>
			<psa30 value="0.000687491115827166" flag="0"/>
		</comp>
	</station>
	<station code="PDO" name="PDO" netid="HP" source="University of Patras, Seismological Laboratory (PSLNET)" insttype="" lat="38.5986" lon="21.1833" esm:processing="automatic (Paolucci et al 2011)" esm:quality="best">
		<comp name="--.HNE" depth="0.0">
			<acc value="0.0129474679791711" flag="0"/>
			<vel value="0.00494755607117996" flag="0"/>
			<psa03 value="0.0263388203384293" flag="0"/>
			<psa10 value="0.00501048051348057" flag="0"/>
			<psa30 value="0.000746997974534259" flag="0"/>
		</comp>
		<comp name="--.HNN" depth="0.0">
			<acc value="0.0123793517582517" flag="0"/>
			<vel value="0.00804939692972943" flag="0"/>
			<psa03 value="0.0452960996026067" flag="0"/>
			<psa10 value="0.00788082456593829" flag="0"/>
			<psa30 value="0.000760878373208155" flag="0"/>
		</comp>
		<comp name="--.HNZ" depth="0.0">
			<acc value="0.00636682449443821" flag="0"/>
			<vel value="0.00319091059595639" flag="0"/>
			<psa03 value="0.0154174679461528" flag="0"/>
			<psa10 value="0.00277274524326319" flag="0"/>
			<psa30 value="0.000222166540359516" flag="0"/>
		</comp>
	</station>
	<station code="PVO" name="PVO" netid="HP" source="University of Patras, Seismological Laboratory (PSLNET)" insttype="" lat="38.616" lon="21.525" esm:processing="automatic (Paolucci et al 2011)" esm:quality="best">
		<comp name="--.HNE" depth="0.0">
			<acc value="0.0072485179866804" flag="0"/>
			<vel value="0.00410936865813375" flag="0"/>
			<psa03 value="0.0236380867405766" flag="0"/>
			<psa10 value="0.00512396912530602" flag="0"/>
			<psa30 value="0.000483107107642325" flag="0"/>
		</comp>
		<comp name="--.HNN" depth="0.0">
			<acc value="0.00619438299386681" flag="0"/>
			<vel value="0.00656449382635603" flag="0"/>
			<psa03 value="0.0163257611890538" flag="0"/>
			<psa10 value="0.0072491510019175" flag="0"/>
			<psa30 value="0.000739407784220177" flag="0"/>
		</comp>
		<comp name="--.HNZ" depth="0.0">
			<acc value="0.00371403766852697" flag="0"/>
			<vel value="0.00191207233901545" flag="0"/>
			<psa03 value="0.00887769617673651" flag="0"/>
			<psa10 value="0.0028225454954133" flag="0"/>
			<psa30 value="0.000418985932845153" flag="0"/>
		</comp>
	</station>
	<station code="SERG" name="SERG" netid="HP" source="University of Patras, Seismological Laboratory (PSLNET)" insttype="" lat="38.4133" lon="22.0566" esm:processing="automatic (Paolucci et al 2011)" esm:quality="best">
		<comp name="--.HNE" depth="0.0">
			<acc value="0.00202676171315217" flag="0"/>
			<vel value="0.00122315734563882" flag="0"/>
			<psa03 value="0.00641204130270999" flag="0"/>
			<psa10 value="0.00232737159881926" flag="0"/>
			<psa30 value="0.000223904806552935" flag="0"/>
		</comp>
		<comp name="--.HNN" depth="0.0">
			<acc value="0.00293170375983783" flag="0"/>
			<vel value="0.00133794421062737" flag="0"/>
			<psa03 value="0.00742889447152896" flag="0"/>
			<psa10 value="0.00190106304547292" flag="0"/>
			<psa30 value="0.000154216205650235" flag="0"/>
		</comp>
		<comp name="--.HNZ" depth="0.0">
			<acc value="0.00178885289342163" flag="0"/>
			<vel value="0.00102387721401982" flag="0"/>
			<psa03 value="0.00313694185648277" flag="0"/>
			<psa10 value="0.00121978846125107" flag="0"/>
			<psa30 value="0.000194505905894843" flag="0"/>
		</comp>
	</station>
	<station code="VVK" name="VVK" netid="HP" source="University of Patras, Seismological Laboratory (PSLNET)" insttype="" lat="38.4222" lon="21.8116" esm:processing="automatic (Paolucci et al 2011)" esm:quality="best">
		<comp name="--.HNE" depth="0.0">
			<acc value="0.00237361252471618" flag="0"/>
			<vel value="0.00241291756962597" flag="0"/>
			<psa03 value="0.00932941750728042" flag="0"/>
			<psa10 value="0.00367160385073781" flag="0"/>
			<psa30 value="0.000250026120295142" flag="0"/>
		</comp>
		<comp name="--.HNN" depth="0.0">
			<acc value="0.0026551811535932" flag="0"/>
			<vel value="0.00233857805997216" flag="0"/>
			<psa03 value="0.0083109229536991" flag="0"/>
			<psa10 value="0.00335188134256561" flag="0"/>
			<psa30 value="0.000303824580012487" flag="0"/>
		</comp>
		<comp name="--.HNZ" depth="0.0">
			<acc value="0.00202514685925674" flag="0"/>
			<vel value="0.0013569445827327" flag="0"/>
			<psa03 value="0.00409971266657121" flag="0"/>
			<psa10 value="0.00229720881943441" flag="0"/>
			<psa30 value="0.000275953801418424" flag="0"/>
		</comp>
	</station>
	<station code="CKWP" name="CKWP" netid="KF" source="ARGONET" insttype="" lat="38.166171" lon="20.510214" esm:processing="automatic (Paolucci et al 2011)" esm:quality="best">
		<comp name="00.HNE" depth="0.0">
			<acc value="0.143903299468498" flag="0"/>
			<vel value="0.0450314374786066" flag="0"/>
			<psa03 value="0.120633335116277" flag="0"/>
			<psa10 value="0.0431723049531942" flag="0"/>
			<psa30 value="0.00263590128219099" flag="0"/>
		</comp>
		<comp name="00.HNN" depth="0.0">
			<acc value="0.157563980191997" flag="0"/>
			<vel value="0.0786974442618904" flag="0"/>
			<psa03 value="0.207933337063089" flag="0"/>
			<psa10 value="0.0565036018364926" flag="0"/>
			<psa30 value="0.00461885055952223" flag="0"/>
		</comp>
		<comp name="00.HNZ" depth="0.0">
			<acc value="0.124455141029549" flag="0"/>
			<vel value="0.0253668907178903" flag="0"/>
			<psa03 value="0.14780971875172" flag="0"/>
			<psa10 value="0.0226545401270837" flag="0"/>
			<psa30 value="0.00172289882109157" flag="0"/>
		</comp>
	</station>
</stationlist>
