<?xml version="1.0" encoding="UTF-8" standalone="yes"?>
<!DOCTYPE earthquake SYSTEM "stationlist.dtd">
<stationlist created="" xmlns="ch.ethz.sed.shakemap.usgs.xml">
  <station code="ATHR" name="ATHR" netid="HA" insttype="GEOtiny," commtype="DIG" lat="38.3172" lon="20.4165">
    <comp name="--.HHE">
      <acc value="0.0465369195" flag="0"/>
      <vel value="0.0258690480" flag="0"/>
      <psa03 value="0.1013055406" flag="0"/>
      <psa10 value="0.0202923654" flag="0"/>
      <psa30 value="0.0020014596" flag="0"/>
    </comp>
    <comp name="--.HHZ">
      <acc value="0.0362848999" flag="0"/>
      <vel value="0.0145970263" flag="0"/>
      <psa03 value="0.0724804865" flag="0"/>
      <psa10 value="0.0153992437" flag="0"/>
      <psa30 value="0.0008335445" flag="0"/>
    </comp>
    <comp name="--.HHN">
      <acc value="0.0376291308" flag="0"/>
      <vel value="0.0179954904" flag="0"/>
      <psa03 value="0.0888536672" flag="0"/>
      <psa10 value="0.0181512080" flag="0"/>
      <psa30 value="0.0017956921" flag="0"/>
    </comp>
  </station>
  <station code="HAVD" name="HAVD" netid="HA" insttype="GEOtiny," commtype="DIG" lat="38.2036" lon="20.3848">
    <comp name="--.HHZ">
      <acc value="0.1509657058" flag="0"/>
      <vel value="0.0548832751" flag="0"/>
      <psa03 value="0.2556958597" flag="0"/>
      <psa10 value="0.0392786144" flag="0"/>
      <psa30 value="0.0024075788" flag="0"/>
    </comp>
    <comp name="--.HHE">
      <acc value="0.2491283333" flag="0"/>
      <vel value="0.1123874124" flag="0"/>
      <psa03 value="0.3112782331" flag="0"/>
      <psa10 value="0.0698424408" flag="0"/>
      <psa30 value="0.0044594963" flag="0"/>
    </comp>
    <comp name="--.HHN">
      <acc value="0.3603640383" flag="0"/>
      <vel value="0.1168005958" flag="0"/>
      <psa03 value="0.4602637831" flag="0"/>
      <psa10 value="0.1080489454" flag="0"/>
      <psa30 value="0.0074545178" flag="0"/>
    </comp>
  </station>
  <station code="ARG2" name="ARG2" netid="HI" insttype="CMG-5TD,ACCELEROMETER,GURALP" commtype="DIG" lat="38.1783" lon="20.4878">
    <comp name="--.HNE">
      <acc value="0.2255548902" flag="0"/>
      <vel value="0.1501463688" flag="0"/>
      <psa03 value="0.5049263952" flag="0"/>
      <psa10 value="0.0973224624" flag="0"/>
      <psa30 value="0.0073938061" flag="0"/>
    </comp>
    <comp name="--.HNZ">
      <acc value="0.1243127222" flag="0"/>
      <vel value="0.0504834126" flag="0"/>
      <psa03 value="0.2206702274" flag="0"/>
      <psa10 value="0.0239409797" flag="0"/>
      <psa30 value="0.0024854961" flag="0"/>
    </comp>
    <comp name="--.HNN">
      <acc value="0.3384934479" flag="0"/>
      <vel value="0.1549073147" flag="0"/>
      <psa03 value="0.4584990766" flag="0"/>
      <psa10 value="0.1149663900" flag="0"/>
      <psa30 value="0.0066722527" flag="0"/>
    </comp>
  </station>
  <station code="LXR2" name="LXR2" netid="HI" insttype="unknown" commtype="DIG" lat="38.2067" lon="20.4364">
    <comp name="--.HNE">
      <acc value="0.4298696258" flag="0"/>
      <vel value="0.1881038015" flag="0"/>
      <psa03 value="0.7846176352" flag="0"/>
      <psa10 value="0.1097772591" flag="0"/>
      <psa30 value="0.0103318948" flag="0"/>
    </comp>
    <comp name="--.HNN">
      <acc value="0.3962259330" flag="0"/>
      <vel value="0.1378555352" flag="0"/>
      <psa03 value="0.4842291253" flag="0"/>
      <psa10 value="0.1543329218" flag="0"/>
      <psa30 value="0.0080039591" flag="0"/>
    </comp>
    <comp name="--.HNZ">
      <acc value="0.2741135033" flag="0"/>
      <vel value="0.0639406329" flag="0"/>
      <psa03 value="0.4844950876" flag="0"/>
      <psa10 value="0.0341970919" flag="0"/>
      <psa30 value="0.0042291349" flag="0"/>
    </comp>
  </station>
  <station code="VSK1" name="VSK1" netid="HI" insttype="unknown" commtype="DIG" lat="38.4091" lon="20.564">
    <comp name="--.HNE">
      <acc value="0.0317331118" flag="0"/>
      <vel value="0.0193121745" flag="0"/>
      <psa03 value="0.0829048591" flag="0"/>
      <psa10 value="0.0163303854" flag="0"/>
      <psa30 value="0.0011700709" flag="0"/>
    </comp>
    <comp name="--.HNN">
      <acc value="0.0444129011" flag="0"/>
      <vel value="0.0242863118" flag="0"/>
      <psa03 value="0.1361851547" flag="0"/>
      <psa10 value="0.0266912464" flag="0"/>
      <psa30 value="0.0015679498" flag="0"/>
    </comp>
    <comp name="--.HNZ">
      <acc value="0.0288086701" flag="0"/>
      <vel value="0.0103122855" flag="0"/>
      <psa03 value="0.0615743601" flag="0"/>
      <psa10 value="0.0100213382" flag="0"/>
      <psa30 value="0.0007710201" flag="0"/>
    </comp>
  </station>
  <station code="LXRA" name="LXRA" netid="HL" insttype="CMG-5" commtype="DIG" lat="38.2001" lon="20.4372">
    <comp name="00.HNE">
      <acc value="0.5354355495" flag="0"/>
      <vel value="0.2080514159" flag="0"/>
      <psa03 value="0.9249136686" flag="0"/>
      <psa10 value="0.1477321687" flag="0"/>
      <psa30 value="0.0107471124" flag="0"/>
    </comp>
    <comp name="00.HNN">
      <acc value="0.4521613874" flag="0"/>
      <vel value="0.1449601110" flag="0"/>
      <psa03 value="0.6038999158" flag="0"/>
      <psa10 value="0.0894666089" flag="0"/>
      <psa30 value="0.0083439687" flag="0"/>
    </comp>
    <comp name="00.HNZ">
      <acc value="0.2648596744" flag="0"/>
      <vel value="0.0637621089" flag="0"/>
      <psa03 value="0.5029266661" flag="0"/>
      <psa10 value="0.0468334022" flag="0"/>
      <psa30 value="0.0040850332" flag="0"/>
    </comp>
  </station>
  <station code="ORTH" name="ORTH" netid="HL" insttype="30" commtype="DIG" lat="37.8511" lon="20.6963">
    <comp name="--.HHE">
      <acc value="0.0949542881" flag="0"/>
      <vel value="0.0256848527" flag="0"/>
      <psa03 value="0.1700574498" flag="0"/>
      <psa10 value="0.0197932784" flag="0"/>
      <psa30 value="0.0011821759" flag="0"/>
    </comp>
    <comp name="--.HHN">
      <acc value="0.0911563763" flag="0"/>
      <vel value="0.0330945192" flag="0"/>
      <psa03 value="0.1885834450" flag="0"/>
      <psa10 value="0.0371030299" flag="0"/>
      <psa30 value="0.0025955797" flag="0"/>
    </comp>
    <comp name="--.HHZ">
      <acc value="0.0529924706" flag="0"/>
      <vel value="0.0140553288" flag="0"/>
      <psa03 value="0.0622138322" flag="0"/>
      <psa10 value="0.0094886047" flag="0"/>
      <psa30 value="0.0008356284" flag="0"/>
    </comp>
  </station>
  <station code="RLS" name="RLS" netid="HL" insttype="CMG3ESPC-120s" commtype="DIG" lat="38.0559" lon="21.4647">
    <comp name="--.HHN">
      <acc value="0.0029919842" flag="0"/>
      <vel value="0.0022969596" flag="0"/>
      <psa03 value="0.0069309241" flag="0"/>
      <psa10 value="0.0031808726" flag="0"/>
      <psa30 value="0.0002370525" flag="0"/>
    </comp>
    <comp name="--.HHE">
      <acc value="0.0035388175" flag="0"/>
      <vel value="0.0019805406" flag="0"/>
      <psa03 value="0.0124469752" flag="0"/>
      <psa10 value="0.0027160603" flag="0"/>
      <psa30 value="0.0001817318" flag="0"/>
    </comp>
    <comp name="--.HHZ">
      <acc value="0.0020040675" flag="0"/>
      <vel value="0.0012105329" flag="0"/>
      <psa03 value="0.0039155292" flag="0"/>
      <psa10 value="0.0022482125" flag="0"/>
      <psa30 value="0.0001608705" flag="0"/>
    </comp>
  </station>
  <station code="AXS" name="AXS" netid="HP" insttype="Compact," commtype="DIG" lat="38.1962" lon="21.3763">
    <comp name="--.HHE">
      <acc value="0.0025054283" flag="0"/>
      <vel value="0.0013274211" flag="0"/>
      <psa03 value="0.0072893060" flag="0"/>
      <psa10 value="0.0016074487" flag="0"/>
      <psa30 value="0.0001630648" flag="0"/>
    </comp>
    <comp name="--.HHN">
      <acc value="0.0023290848" flag="0"/>
      <vel value="0.0017608821" flag="0"/>
      <psa03 value="0.0065547108" flag="0"/>
      <psa10 value="0.0037844298" flag="0"/>
      <psa30 value="0.0002090069" flag="0"/>
    </comp>
    <comp name="--.HHZ">
      <acc value="0.0022434846" flag="0"/>
      <vel value="0.0012258570" flag="0"/>
      <psa03 value="0.0044880951" flag="0"/>
      <psa10 value="0.0016616090" flag="0"/>
      <psa30 value="0.0001735315" flag="0"/>
    </comp>
  </station>
  <station code="FSK" name="FSK" netid="HP" insttype="40," commtype="DIG" lat="38.4593" lon="20.5623">
    <comp name="--.HHE">
      <acc value="0.0264516146" flag="0"/>
      <vel value="0.0124616179" flag="0"/>
      <psa03 value="0.0533032212" flag="0"/>
      <psa10 value="0.0176401042" flag="0"/>
      <psa30 value="0.0021087305" flag="0"/>
    </comp>
    <comp name="--.HHN">
      <acc value="0.0181938800" flag="0"/>
      <vel value="0.0112720650" flag="0"/>
      <psa03 value="0.0368695183" flag="0"/>
      <psa10 value="0.0136919296" flag="0"/>
      <psa30 value="0.0007783607" flag="0"/>
    </comp>
    <comp name="--.HHZ">
      <acc value="0.0172625994" flag="0"/>
      <vel value="0.0069042374" flag="0"/>
      <psa03 value="0.0327599474" flag="0"/>
      <psa10 value="0.0125577571" flag="0"/>
      <psa30 value="0.0007281814" flag="0"/>
    </comp>
  </station>
  <station code="LTHK" name="LTHK" netid="HP" insttype="40," commtype="DIG" lat="37.7095" lon="20.8367">
    <comp name="--.HHN">
      <acc value="0.0418901164" flag="0"/>
      <vel value="0.0183412445" flag="0"/>
      <psa03 value="0.0778724108" flag="0"/>
      <psa10 value="0.0143021839" flag="0"/>
      <psa30 value="0.0008489786" flag="0"/>
    </comp>
    <comp name="--.HHE">
      <acc value="0.0529171612" flag="0"/>
      <vel value="0.0149381976" flag="0"/>
      <psa03 value="0.0700792322" flag="0"/>
      <psa10 value="0.0104260816" flag="0"/>
      <psa30 value="0.0007024422" flag="0"/>
    </comp>
    <comp name="--.HHZ">
      <acc value="0.0250105199" flag="0"/>
      <vel value="0.0074156337" flag="0"/>
      <psa03 value="0.0387502733" flag="0"/>
      <psa10 value="0.0056496849" flag="0"/>
      <psa30 value="0.0006442024" flag="0"/>
    </comp>
  </station>
  <station code="PDO" name="PDO" netid="HP" insttype="120s" commtype="DIG" lat="38.5986" lon="21.1833">
    <comp name="--.HHE">
      <acc value="0.0124552192" flag="0"/>
      <vel value="0.0053104844" flag="0"/>
      <psa03 value="0.0318361845" flag="0"/>
      <psa10 value="0.0053475678" flag="0"/>
      <psa30 value="0.0006448904" flag="0"/>
    </comp>
    <comp name="--.HHN">
      <acc value="0.0118477002" flag="0"/>
      <vel value="0.0079914020" flag="0"/>
      <psa03 value="0.0428067172" flag="0"/>
      <psa10 value="0.0080320431" flag="0"/>
      <psa30 value="0.0007621110" flag="0"/>
    </comp>
    <comp name="--.HHZ">
      <acc value="0.0066614140" flag="0"/>
      <vel value="0.0033376279" flag="0"/>
      <psa03 value="0.0167245075" flag="0"/>
      <psa10 value="0.0028750430" flag="0"/>
      <psa30 value="0.0002268888" flag="0"/>
    </comp>
  </station>
  <station code="PLEV" name="PLEV" netid="HP" insttype="Compact," commtype="DIG" lat="38.4124" lon="21.4073">
    <comp name="--.HHE">
      <acc value="0.0041418765" flag="0"/>
      <vel value="0.0026179969" flag="0"/>
      <psa03 value="0.0129694639" flag="0"/>
      <psa10 value="0.0032073537" flag="0"/>
      <psa30 value="0.0003426627" flag="0"/>
    </comp>
    <comp name="--.HHN">
      <acc value="0.0039557159" flag="0"/>
      <vel value="0.0023694206" flag="0"/>
      <psa03 value="0.0170213914" flag="0"/>
      <psa10 value="0.0042211950" flag="0"/>
      <psa30 value="0.0003191911" flag="0"/>
    </comp>
    <comp name="--.HHZ">
      <acc value="0.0024003864" flag="0"/>
      <vel value="0.0016069716" flag="0"/>
      <psa03 value="0.0073523781" flag="0"/>
      <psa10 value="0.0021298408" flag="0"/>
      <psa30 value="0.0002630272" flag="0"/>
    </comp>
  </station>
  <station code="DMLN" name="DMLN" netid="HT" insttype="1s-100Hz," commtype="DIG" lat="38.2385" lon="20.3734">
    <comp name="--.HHE">
      <acc value="0.2678889260" flag="0"/>
      <vel value="0.1442324636" flag="0"/>
      <psa03 value="0.4130403119" flag="0"/>
      <psa10 value="0.1353792990" flag="0"/>
      <psa30 value="0.0072475976" flag="0"/>
    </comp>
    <comp name="--.HHZ">
      <acc value="0.2627137183" flag="0"/>
      <vel value="0.0512869149" flag="0"/>
      <psa03 value="0.2476547935" flag="0"/>
      <psa10 value="0.0410247394" flag="0"/>
      <psa30 value="0.0019701037" flag="0"/>
    </comp>
    <comp name="--.HHN">
      <acc value="0.2873314061" flag="0"/>
      <vel value="0.0748654721" flag="0"/>
      <psa03 value="0.3529142276" flag="0"/>
      <psa10 value="0.1350646352" flag="0"/>
      <psa30 value="0.0045968928" flag="0"/>
    </comp>
  </station>
  <station code="DRAG" name="DRAG" netid="HT" insttype="30s-100Hz," commtype="DIG" lat="38.6839" lon="20.5746">
    <comp name="--.HHN">
      <acc value="0.0218921297" flag="0"/>
      <vel value="0.0077391830" flag="0"/>
      <psa03 value="0.0345845761" flag="0"/>
      <psa10 value="0.0084683719" flag="0"/>
      <psa30 value="0.0003223207" flag="0"/>
    </comp>
    <comp name="--.HHZ">
      <acc value="0.0117187495" flag="0"/>
      <vel value="0.0033703146" flag="0"/>
      <psa03 value="0.0135862787" flag="0"/>
      <psa10 value="0.0021730458" flag="0"/>
      <psa30 value="0.0001946976" flag="0"/>
    </comp>
    <comp name="--.HHE">
      <acc value="0.0223288382" flag="0"/>
      <vel value="0.0113523823" flag="0"/>
      <psa03 value="0.0670048839" flag="0"/>
      <psa10 value="0.0059102048" flag="0"/>
      <psa30 value="0.0004710870" flag="0"/>
    </comp>
  </station>
  <station code="EVGI" name="EVGI" netid="HT" insttype="30" commtype="DIG" lat="38.621" lon="20.656">
    <comp name="--.HHN">
      <acc value="0.0351367378" flag="0"/>
      <vel value="0.0091556801" flag="0"/>
      <psa03 value="0.0310325103" flag="0"/>
      <psa10 value="0.0063521724" flag="0"/>
      <psa30 value="0.0005444440" flag="0"/>
    </comp>
    <comp name="--.HHE">
      <acc value="0.0542510221" flag="0"/>
      <vel value="0.0111261238" flag="0"/>
      <psa03 value="0.0436066627" flag="0"/>
      <psa10 value="0.0041712444" flag="0"/>
      <psa30 value="0.0007883357" flag="0"/>
    </comp>
    <comp name="--.HHZ">
      <acc value="0.0377093067" flag="0"/>
      <vel value="0.0067073019" flag="0"/>
      <psa03 value="0.0290701512" flag="0"/>
      <psa10 value="0.0063683542" flag="0"/>
      <psa30 value="0.0004986730" flag="0"/>
    </comp>
  </station>
  <station code="ITHC" name="ITHC" netid="HT" insttype="60s," commtype="DIG" lat="38.4622" lon="20.632">
    <comp name="--.HHN">
      <acc value="0.0311550974" flag="0"/>
      <vel value="0.0159028208" flag="0"/>
      <psa03 value="0.0736876930" flag="0"/>
      <psa10 value="0.0160473863" flag="0"/>
      <psa30 value="0.0019947134" flag="0"/>
    </comp>
    <comp name="--.HHE">
      <acc value="0.0453517861" flag="0"/>
      <vel value="0.0300044862" flag="0"/>
      <psa03 value="0.1394129027" flag="0"/>
      <psa10 value="0.0357353852" flag="0"/>
      <psa30 value="0.0015543540" flag="0"/>
    </comp>
    <comp name="--.HHZ">
      <acc value="0.0211650294" flag="0"/>
      <vel value="0.0086065651" flag="0"/>
      <psa03 value="0.0472406220" flag="0"/>
      <psa10 value="0.0143159664" flag="0"/>
      <psa30 value="0.0015699706" flag="0"/>
    </comp>
  </station>
  <station code="LKD2" name="LKD2" netid="HT" insttype="100" commtype="DIG" lat="38.7889" lon="20.6578">
    <comp name="--.HHE">
      <acc value="0.0146523707" flag="0"/>
      <vel value="0.0057605180" flag="0"/>
      <psa03 value="0.0210753075" flag="0"/>
      <psa10 value="0.0066529645" flag="0"/>
      <psa30 value="0.0004782586" flag="0"/>
    </comp>
    <comp name="--.HHN">
      <acc value="0.0139118148" flag="0"/>
      <vel value="0.0065913668" flag="0"/>
      <psa03 value="0.0267359860" flag="0"/>
      <psa10 value="0.0058324043" flag="0"/>
      <psa30 value="0.0004681548" flag="0"/>
    </comp>
    <comp name="--.HHZ">
      <acc value="0.0082231844" flag="0"/>
      <vel value="0.0036462791" flag="0"/>
      <psa03 value="0.0178668659" flag="0"/>
      <psa10 value="0.0041083233" flag="0"/>
      <psa30 value="0.0003831053" flag="0"/>
    </comp>
  </station>
  <station code="NYDR" name="NYDR" netid="HT" insttype="1s-100Hz," commtype="DIG" lat="38.7135" lon="20.6983">
    <comp name="--.HHZ">
      <acc value="0.0090821769" flag="0"/>
      <vel value="0.0046932333" flag="0"/>
      <psa03 value="0.0216936781" flag="0"/>
      <psa10 value="0.0042198226" flag="0"/>
      <psa30 value="0.0002405917" flag="0"/>
    </comp>
    <comp name="--.HHN">
      <acc value="0.0153468263" flag="0"/>
      <vel value="0.0076008272" flag="0"/>
      <psa03 value="0.0278653021" flag="0"/>
      <psa10 value="0.0072185656" flag="0"/>
      <psa30 value="0.0003300452" flag="0"/>
    </comp>
    <comp name="--.HHE">
      <acc value="0.0150261325" flag="0"/>
      <vel value="0.0119534404" flag="0"/>
      <psa03 value="0.0322738976" flag="0"/>
      <psa10 value="0.0098780275" flag="0"/>
      <psa30 value="0.0006389090" flag="0"/>
    </comp>
  </station>
  <station code="PSDA" name="PSDA" netid="HT" insttype="30" commtype="DIG" lat="38.114" lon="20.5841">
    <comp name="--.HHN">
      <acc value="0.0020551861" flag="0"/>
      <vel value="0.0005104962" flag="0"/>
      <psa03 value="0.0028910948" flag="0"/>
      <psa10 value="0.0006112514" flag="0"/>
      <psa30 value="0.0000321543" flag="0"/>
    </comp>
    <comp name="--.HHE">
      <acc value="0.1415665283" flag="0"/>
      <vel value="0.0425295587" flag="0"/>
      <psa03 value="0.2916567418" flag="0"/>
      <psa10 value="0.0269009125" flag="0"/>
      <psa30 value="0.0018813204" flag="0"/>
    </comp>
    <comp name="--.HHZ">
      <acc value="0.1057603872" flag="0"/>
      <vel value="0.0234137284" flag="0"/>
      <psa03 value="0.0806138218" flag="0"/>
      <psa10 value="0.0106576526" flag="0"/>
      <psa30 value="0.0010431867" flag="0"/>
    </comp>
  </station>
  <station code="RTZL" name="RTZL" netid="HT" insttype="Compact," commtype="DIG" lat="38.076" lon="20.7715">
    <comp name="--.HHE">
      <acc value="0.1802083926" flag="0"/>
      <vel value="0.0396552722" flag="0"/>
      <psa03 value="0.1043667525" flag="0"/>
      <psa10 value="0.0192880826" flag="0"/>
      <psa30 value="0.0014312370" flag="0"/>
    </comp>
    <comp name="--.HHN">
      <acc value="0.1420119075" flag="0"/>
      <vel value="0.0306459562" flag="0"/>
      <psa03 value="0.1026001062" flag="0"/>
      <psa10 value="0.0154266468" flag="0"/>
      <psa30 value="0.0011514222" flag="0"/>
    </comp>
    <comp name="--.HHZ">
      <acc value="0.0611116359" flag="0"/>
      <vel value="0.0115290752" flag="0"/>
      <psa03 value="0.0804292676" flag="0"/>
      <psa10 value="0.0136754644" flag="0"/>
      <psa30 value="0.0008018462" flag="0"/>
    </comp>
  </station>
  <station code="STRF" name="STRF" netid="HT" insttype="30s-100Hz," commtype="DIG" lat="37.2497" lon="21.013">
    <comp name="--.HHE">
      <acc value="0.0152736229" flag="0"/>
      <vel value="0.0125647133" flag="0"/>
      <psa03 value="0.0471964913" flag="0"/>
      <psa10 value="0.0116008142" flag="0"/>
      <psa30 value="0.0024321518" flag="0"/>
    </comp>
    <comp name="--.HHN">
      <acc value="0.0160740915" flag="0"/>
      <vel value="0.0107956776" flag="0"/>
      <psa03 value="0.0496025173" flag="0"/>
      <psa10 value="0.0210287592" flag="0"/>
      <psa30 value="0.0020207806" flag="0"/>
    </comp>
    <comp name="--.HHZ">
      <acc value="0.0103345165" flag="0"/>
      <vel value="0.0069539187" flag="0"/>
      <psa03 value="0.0230304116" flag="0"/>
      <psa10 value="0.0093905969" flag="0"/>
      <psa30 value="0.0010337358" flag="0"/>
    </comp>
  </station>
  <station code="TSLK" name="TSLK" netid="HT" insttype="1s-100Hz," commtype="DIG" lat="38.8249" lon="20.6554">
