<?xml version="1.0" encoding="UTF-8" standalone="yes"?>
<!DOCTYPE earthquake SYSTEM "stationlist.dtd">
<stationlist created="" xmlns="ch.ethz.sed.shakemap.usgs.xml">
  <station code="CEYT" name="CEYT" netid="KO" insttype="CMG-3ESP" lat="37.0105" lon="35.7478">
    <comp name="--.HHE">
      <acc value="0.0418512721" flag="0"/>
      <vel value="0.0234831660" flag="0"/>
      <psa03 value="0.1809769334" flag="0"/>
      <psa10 value="0.0384920832" flag="0"/>
      <psa30 value="0.0024277335" flag="0"/>
    </comp>
    <comp name="--.HHN">
      <acc value="0.0242775584" flag="0"/>
      <vel value="0.0161375354" flag="0"/>
      <psa03 value="0.0622977297" flag="0"/>
      <psa10 value="0.0233463174" flag="0"/>
      <psa30 value="0.0026809091" flag="0"/>
    </comp>
    <comp name="--.HHZ">
      <acc value="0.0148714217" flag="0"/>
      <vel value="0.0125439450" flag="0"/>
      <psa03 value="0.0505162361" flag="0"/>
      <psa10 value="0.0186671383" flag="0"/>
      <psa30 value="0.0037165299" flag="0"/>
    </comp>
  </station>
  <station code="CMRD" name="CMRD" netid="KO" insttype="CMG-5T" lat="37.6623" lon="34.9902">
    <comp name="--.HNE">
      <acc value="0.0147819380" flag="0"/>
      <vel value="0.0133391688" flag="0"/>
      <psa03 value="0.0349150682" flag="0"/>
      <psa10 value="0.0208128061" flag="0"/>
      <psa30 value="0.0014993651" flag="0"/>
    </comp>
    <comp name="--.HNN">
      <acc value="0.0158546519" flag="0"/>
      <vel value="0.0164596951" flag="0"/>
      <psa03 value="0.0473211269" flag="0"/>
      <psa10 value="0.0188479618" flag="0"/>
      <psa30 value="0.0025706099" flag="0"/>
    </comp>
    <comp name="--.HNZ">
      <acc value="0.0130403424" flag="0"/>
      <vel value="0.0121758609" flag="0"/>
      <psa03 value="0.0294817938" flag="0"/>
      <psa10 value="0.0132799668" flag="0"/>
      <psa30 value="0.0016348353" flag="0"/>
    </comp>
  </station>
  <station code="DARE" name="DARE" netid="KO" insttype="CMG-3ESP" lat="38.5712" lon="37.4832">
    <comp name="--.HHE">
      <acc value="0.0336050782" flag="0"/>
      <vel value="0.0216268048" flag="0"/>
      <psa03 value="0.0844054484" flag="0"/>
      <psa10 value="0.0429618795" flag="0"/>
      <psa30 value="0.0015938994" flag="0"/>
    </comp>
    <comp name="--.HHN">
      <acc value="0.0253242823" flag="0"/>
      <vel value="0.0184149772" flag="0"/>
      <psa03 value="0.0579253777" flag="0"/>
      <psa10 value="0.0343502752" flag="0"/>
      <psa30 value="0.0016362755" flag="0"/>
    </comp>
    <comp name="--.HHZ">
      <acc value="0.0187853024" flag="0"/>
      <vel value="0.0123471970" flag="0"/>
      <psa03 value="0.0596802750" flag="0"/>
      <psa10 value="0.0166481358" flag="0"/>
      <psa30 value="0.0012783286" flag="0"/>
    </comp>
  </station>
  <station code="KHMN" name="KHMN" netid="KO" insttype="CMG-5T" lat="37.3916" lon="37.1574">
    <comp name="--.HNE">
      <acc value="0.2465607923" flag="0"/>
      <vel value="0.1458560402" flag="0"/>
      <psa03 value="0.7118748935" flag="0"/>
      <psa10 value="0.0985910900" flag="0"/>
      <psa30 value="0.0088130141" flag="0"/>
    </comp>
    <comp name="--.HNN">
      <acc value="0.1349434636" flag="0"/>
      <vel value="0.0551018720" flag="0"/>
      <psa03 value="0.2423593227" flag="0"/>
      <psa10 value="0.0721018702" flag="0"/>
      <psa30 value="0.0052529224" flag="0"/>
    </comp>
    <comp name="--.HNZ">
      <acc value="0.0926306865" flag="0"/>
      <vel value="0.0368264965" flag="0"/>
      <psa03 value="0.2922251218" flag="0"/>
      <psa10 value="0.0291015473" flag="0"/>
      <psa30 value="0.0026844738" flag="0"/>
    </comp>
  </station>
  <station code="ANDN" name="ANDN" netid="TU" insttype="T" lat="37.58" lon="36.3452">
    <comp name="--.HHZ">
      <acc value="0.4340040010" flag="0"/>
      <vel value="0.2625806523" flag="0"/>
      <psa03 value="1.0884192541" flag="0"/>
      <psa10 value="0.3577816900" flag="0"/>
      <psa30 value="0.0205807193" flag="0"/>
    </comp>
    <comp name="--.HHN">
      <acc value="0.9030409371" flag="0"/>
      <vel value="0.4020441374" flag="0"/>
      <psa03 value="2.5172701646" flag="0"/>
      <psa10 value="0.4700082870" flag="0"/>
      <psa30 value="0.0230892370" flag="0"/>
    </comp>
    <comp name="--.HHE">
      <acc value="0.8564898462" flag="0"/>
      <vel value="0.4088382620" flag="0"/>
      <psa03 value="2.4647749567" flag="0"/>
      <psa10 value="0.4902606596" flag="0"/>
      <psa30 value="0.0379969866" flag="0"/>
    </comp>
  </station>
</stationlist>
