<?xml version="1.0" encoding="UTF-8" standalone="yes"?>
<!DOCTYPE earthquake SYSTEM "stationlist.dtd">
<stationlist created="" xmlns="ch.ethz.sed.shakemap.usgs.xml">
  <station code="CEYT" name="CEYT" netid="KO" insttype="CMG-3ESP" lat="37.0105" lon="35.7478">
    <comp name="--.HHE">
      <acc value="0.0418512722" flag="0"/>
      <vel value="0.0234831738" flag="0"/>
      <psa03 value="0.1809769334" flag="0"/>
      <psa10 value="0.0384920832" flag="0"/>
      <psa30 value="0.0024277605" flag="0"/>
    </comp>
    <comp name="--.HHN">
      <acc value="0.0242775586" flag="0"/>
      <vel value="0.0161375355" flag="0"/>
      <psa03 value="0.0622977297" flag="0"/>
      <psa10 value="0.0233463174" flag="0"/>
      <psa30 value="0.0026810113" flag="0"/>
    </comp>
    <comp name="--.HHZ">
      <acc value="0.0148714216" flag="0"/>
      <vel value="0.0125439457" flag="0"/>
      <psa03 value="0.0505162361" flag="0"/>
      <psa10 value="0.0186671383" flag="0"/>
      <psa30 value="0.0037165735" flag="0"/>
    </comp>
  </station>
  <station code="CMRD" name="CMRD" netid="KO" insttype="CMG-5T" lat="37.6623" lon="34.9902">
    <comp name="--.HNE">
      <acc value="0.0147819384" flag="0"/>
      <vel value="0.0133391616" flag="0"/>
      <psa03 value="0.0349150682" flag="0"/>
      <psa10 value="0.0208128061" flag="0"/>
      <psa30 value="0.0014989466" flag="0"/>
    </comp>
    <comp name="--.HNN">
      <acc value="0.0158546492" flag="0"/>
      <vel value="0.0164596930" flag="0"/>
      <psa03 value="0.0473211269" flag="0"/>
      <psa10 value="0.0188479618" flag="0"/>
      <psa30 value="0.0025706307" flag="0"/>
    </comp>
    <comp name="--.HNZ">
      <acc value="0.0130403453" flag="0"/>
      <vel value="0.0121758641" flag="0"/>
      <psa03 value="0.0294817938" flag="0"/>
      <psa10 value="0.0132799668" flag="0"/>
      <psa30 value="0.0016345469" flag="0"/>
    </comp>
  </station>
  <station code="DARE" name="DARE" netid="KO" insttype="CMG-3ESP" lat="38.5712" lon="37.4832">
    <comp name="--.HHE">
      <acc value="0.0336050782" flag="0"/>
      <vel value="0.0216268051" flag="0"/>
      <psa03 value="0.0844054484" flag="0"/>
      <psa10 value="0.0429618795" flag="0"/>
      <psa30 value="0.0015940531" flag="0"/>
    </comp>
    <comp name="--.HHN">
      <acc value="0.0253242825" flag="0"/>
      <vel value="0.0184149756" flag="0"/>
      <psa03 value="0.0579253777" flag="0"/>
      <psa10 value="0.0343502751" flag="0"/>
      <psa30 value="0.0016362094" flag="0"/>
    </comp>
    <comp name="--.HHZ">
      <acc value="0.0187853024" flag="0"/>
      <vel value="0.0123471968" flag="0"/>
      <psa03 value="0.0596802750" flag="0"/>
      <psa10 value="0.0166481358" flag="0"/>
      <psa30 value="0.0012783280" flag="0"/>
    </comp>
  </station>
  <station code="KHMN" name="KHMN" netid="KO" insttype="CMG-5T" lat="37.3916" lon="37.1574">
    <comp name="--.HNE">
      <acc value="0.2465607855" flag="0"/>
      <vel value="0.1458560352" flag="0"/>
      <psa03 value="0.7118748935" flag="0"/>
      <psa10 value="0.0985910923" flag="0"/>
      <psa30 value="0.0088136024" flag="0"/>
    </comp>
    <comp name="--.HNN">
      <acc value="0.1349434705" flag="0"/>
      <vel value="0.0551018642" flag="0"/>
      <psa03 value="0.2423593227" flag="0"/>
      <psa10 value="0.0721018684" flag="0"/>
      <psa30 value="0.0052517515" flag="0"/>
    </comp>
    <comp name="--.HNZ">
      <acc value="0.0926306086" flag="0"/>
      <vel value="0.0368265011" flag="0"/>
      <psa03 value="0.2922251218" flag="0"/>
      <psa10 value="0.0291015483" flag="0"/>
      <psa30 value="0.0026842798" flag="0"/>
    </comp>
  </station>
  <station code="ANDN" name="ANDN" netid="TU" insttype="T" lat="37.58" lon="36.3452">
    <comp name="--.HHE">
      <acc value="0.8564898462" flag="0"/>
      <vel value="0.4088382615" flag="0"/>
      <psa03 value="2.4647749567" flag="0"/>
      <psa10 value="0.4902606611" flag="0"/>
      <psa30 value="0.0379970863" flag="0"/>
    </comp>
    <comp name="--.HHN">
      <acc value="0.9030409364" flag="0"/>
      <vel value="0.4020441384" flag="0"/>
      <psa03 value="2.5172701646" flag="0"/>
      <psa10 value="0.4700082876" flag="0"/>
      <psa30 value="0.0230897836" flag="0"/>
    </comp>
    <comp name="--.HHZ">
      <acc value="0.4340040008" flag="0"/>
      <vel value="0.2625806513" flag="0"/>
      <psa03 value="1.0884192541" flag="0"/>
      <psa10 value="0.3577816903" flag="0"/>
      <psa30 value="0.0205804959" flag="0"/>
    </comp>
  </station>
</stationlist>
