<stationlist created="1778205308">
	<station code="KRL1" name="KRL1" netid="HI" source="ITSAK Strong Motion Network" insttype="" lat="37.7951" lon="26.7065">
		<comp name="--.HNE" depth="0.0">
			<acc value="0.0173055389064786" flag="0"/>
			<vel value="0.0394005982426154" flag="0"/>
			<psa03 value="0.0346304679225423" flag="0"/>
			<psa10 value="0.0507940374854592" flag="0"/>
			<psa30 value="0.00622185125233687" flag="0"/>
		</comp>
		<comp name="--.HNN" depth="0.0">
			<acc value="0.0179482253074273" flag="0"/>
			<vel value="0.0332360497309571" flag="0"/>
			<psa03 value="0.031274802426172" flag="0"/>
			<psa10 value="0.065089172499997" flag="0"/>
			<psa30 value="0.0098092813789899" flag="0"/>
		</comp>
		<comp name="--.HNZ" depth="0.0">
			<acc value="0.0169823604781572" flag="0"/>
			<vel value="0.0240372554829602" flag="0"/>
			<psa03 value="0.0244292448135764" flag="0"/>
			<psa10 value="0.0503712236329165" flag="0"/>
			<psa30 value="0.00537309159278825" flag="0"/>
		</comp>
	</station>
	<station code="RDI1" name="RDI1" netid="HI" source="ITSAK Strong Motion Network" insttype="" lat="36.4514" lon="28.224">
		<comp name="--.HNE" depth="0.0">
			<acc value="0.0674941796500272" flag="0"/>
			<vel value="0.227179699226392" flag="0"/>
			<psa03 value="0.0854273101814995" flag="0"/>
			<psa10 value="0.230806474796342" flag="0"/>
			<psa30 value="0.139435863608242" flag="0"/>
		</comp>
		<comp name="--.HNN" depth="0.0">
			<acc value="0.0582043814359989" flag="0"/>
			<vel value="0.185637617117545" flag="0"/>
			<psa03 value="0.0941074320723822" flag="0"/>
			<psa10 value="0.162498054698526" flag="0"/>
			<psa30 value="0.132825145680833" flag="0"/>
		</comp>
		<comp name="--.HNZ" depth="0.0">
			<acc value="0.0428283872192848" flag="0"/>
			<vel value="0.0877853784656753" flag="0"/>
			<psa03 value="0.0666674997278534" flag="0"/>
			<psa10 value="0.157827120271978" flag="0"/>
			<psa30 value="0.0530060880599093" flag="0"/>
		</comp>
	</station>
	<station code="RGE1" name="RGE1" netid="HI" source="ITSAK Strong Motion Network" insttype="" lat="36.0269" lon="27.9306">
		<comp name="--.HNE" depth="0.0">
			<acc value="0.0359069564616075" flag="0"/>
			<vel value="0.044290355435163" flag="0"/>
			<psa03 value="0.0563751803390224" flag="0"/>
			<psa10 value="0.0910579966433081" flag="0"/>
			<psa30 value="0.00905805972986912" flag="0"/>
		</comp>
		<comp name="--.HNN" depth="0.0">
			<acc value="0.0396241316756969" flag="0"/>
			<vel value="0.0370689446063355" flag="0"/>
			<psa03 value="0.0702452643906867" flag="0"/>
			<psa10 value="0.0814138140067396" flag="0"/>
			<psa30 value="0.00812742183220906" flag="0"/>
		</comp>
		<comp name="--.HNZ" depth="0.0">
			<acc value="0.0114816417991645" flag="0"/>
			<vel value="0.022580727865376" flag="0"/>
			<psa03 value="0.0336461393769404" flag="0"/>
			<psa10 value="0.0282882601344023" flag="0"/>
			<psa30 value="0.00705897793816473" flag="0"/>
		</comp>
	</station>
</stationlist>
