<?xml version="1.0" encoding="UTF-8" standalone="yes"?>
<!DOCTYPE earthquake SYSTEM "stationlist.dtd">
<stationlist created="" xmlns="ch.ethz.sed.shakemap.usgs.xml">
  <station code="ARG" name="ARG" netid="HL" source="NOA" insttype="LE3D20_DR24" lat="36.2136" lon="28.1212">
    <comp name="--.HHE">
      <acc value="0.0146189369" flag="0"/>
      <vel value="0.0242679838" flag="0"/>
      <psa03 value="0.0328305412" flag="0"/>
      <psa10 value="0.0338704969" flag="0"/>
      <psa30 value="0.0130449039" flag="0"/>
    </comp>
    <comp name="--.HHN">
      <acc value="0.0125154884" flag="0"/>
      <vel value="0.0251817341" flag="0"/>
      <psa03 value="0.0283024397" flag="0"/>
      <psa10 value="0.0311871217" flag="0"/>
      <psa30 value="0.0167297030" flag="0"/>
    </comp>
    <comp name="--.HHZ">
      <acc value="0.0110510748" flag="0"/>
      <vel value="0.0180078436" flag="0"/>
      <psa03 value="0.0182250292" flag="0"/>
      <psa10 value="0.0249039590" flag="0"/>
      <psa30 value="0.0128346271" flag="0"/>
    </comp>
  </station>
  <station code="KSL" name="KSL" netid="HL" source="NOA" insttype="60" lat="36.1503" lon="29.5856">
    <comp name="--.HHE">
      <acc value="0.0233235250" flag="0"/>
      <vel value="0.0509426440" flag="0"/>
      <psa03 value="0.0330255264" flag="0"/>
      <psa10 value="0.0558551742" flag="0"/>
      <psa30 value="0.0168040654" flag="0"/>
    </comp>
    <comp name="--.HHN">
      <acc value="0.0184979058" flag="0"/>
      <vel value="0.0325590886" flag="0"/>
      <psa03 value="0.0234180197" flag="0"/>
      <psa10 value="0.0351751393" flag="0"/>
      <psa30 value="0.0142651692" flag="0"/>
    </comp>
    <comp name="--.HHZ">
      <acc value="0.0165720369" flag="0"/>
      <vel value="0.0210445930" flag="0"/>
      <psa03 value="0.0316296050" flag="0"/>
      <psa10 value="0.0295894193" flag="0"/>
      <psa30 value="0.0107432804" flag="0"/>
    </comp>
  </station>
  <station code="APMY" name="APMY" netid="KO" source="KOERI" insttype="30s," lat="37.4718" lon="29.3018">
    <comp name="--.HHE">
      <acc value="0.0586774230" flag="0"/>
      <vel value="0.1067930222" flag="0"/>
      <psa03 value="0.1139205245" flag="0"/>
      <psa10 value="0.1039802665" flag="0"/>
      <psa30 value="0.0282155081" flag="0"/>
    </comp>
    <comp name="--.HHN">
      <acc value="0.0574115341" flag="0"/>
      <vel value="0.0977445368" flag="0"/>
      <psa03 value="0.1291351591" flag="0"/>
      <psa10 value="0.2165506902" flag="0"/>
      <psa30 value="0.0313165118" flag="0"/>
    </comp>
    <comp name="--.HHZ">
      <acc value="0.0489420920" flag="0"/>
      <vel value="0.1366661523" flag="0"/>
      <psa03 value="0.0857938035" flag="0"/>
      <psa10 value="0.1771844143" flag="0"/>
      <psa30 value="0.0406086119" flag="0"/>
    </comp>
  </station>
  <station code="BASM" name="BASM" netid="KO" source="KOERI" insttype="100" lat="37.9194" lon="30.035">
    <comp name="--.HNE">
      <acc value="0.0245586199" flag="0"/>
      <vel value="0.0477402081" flag="0"/>
      <psa03 value="0.0291920727" flag="0"/>
      <psa10 value="0.0603941099" flag="0"/>
      <psa30 value="0.0110540912" flag="0"/>
    </comp>
    <comp name="--.HNN">
      <acc value="0.0287588256" flag="0"/>
      <vel value="0.0524657958" flag="0"/>
      <psa03 value="0.0351236211" flag="0"/>
      <psa10 value="0.0633401941" flag="0"/>
      <psa30 value="0.0131371840" flag="0"/>
    </comp>
    <comp name="--.HNZ">
      <acc value="0.0137250923" flag="0"/>
      <vel value="0.0206414149" flag="0"/>
      <psa03 value="0.0188780868" flag="0"/>
      <psa10 value="0.0387576025" flag="0"/>
      <psa30 value="0.0069676606" flag="0"/>
    </comp>
  </station>
  <station code="CAME" name="CAME" netid="KO" source="KOERI" insttype="100" lat="36.9435" lon="29.3023">
    <comp name="--.HNE">
      <acc value="0.0623584345" flag="0"/>
      <vel value="0.0385184325" flag="0"/>
      <psa03 value="0.2255780750" flag="0"/>
      <psa10 value="0.0466585338" flag="0"/>
      <psa30 value="0.0298996581" flag="0"/>
    </comp>
    <comp name="--.HNN">
      <acc value="0.0404543045" flag="0"/>
      <vel value="0.0826150451" flag="0"/>
      <psa03 value="0.1409912993" flag="0"/>
      <psa10 value="0.0532274437" flag="0"/>
      <psa30 value="0.0578754011" flag="0"/>
    </comp>
    <comp name="--.HNZ">
      <acc value="0.0285498092" flag="0"/>
      <vel value="0.0369755038" flag="0"/>
      <psa03 value="0.0686125621" flag="0"/>
      <psa10 value="0.0405590628" flag="0"/>
      <psa30 value="0.0165804761" flag="0"/>
    </comp>
  </station>
  <station code="FETY" name="FETY" netid="KO" source="KOERI" insttype="120s," lat="36.6353" lon="29.0835">
    <comp name="--.HHE">
      <acc value="0.0000000000" flag="0"/>
      <vel value="303837571846138824370242236752173553656637413427687165933719802728976122376738101655309187891474100696831331326648200309084850194486128983201874564064216813457625890361652809205547008.0000000000" flag="0"/>
    </comp>
    <comp name="--.HHN">
      <acc value="0.0300293383" flag="0"/>
      <vel value="0.0573626772" flag="0"/>
      <psa03 value="0.0509310832" flag="0"/>
      <psa10 value="0.0501529179" flag="0"/>
      <psa30 value="0.0348678423" flag="0"/>
    </comp>
    <comp name="--.HHZ">
      <acc value="0.0000000000" flag="0"/>
      <vel value="4869212869345926563415185747674474548370261623226724189369839445712897743297691048104657629434646923378356679491983270423483928966393175718267834647653358908813600952131620569977421444782675044876681216.0000000000" flag="0"/>
    </comp>
  </station>
  <station code="AYDN" name="AYDN" netid="TU" source="ODC" insttype="T" lat="37.6608" lon="27.8792">
    <comp name="--.HHE">
      <acc value="514744748479693165728043333036900375801117897626076331873265511647154072111958342360809788479789653414420975294489135630578555038644478753729718018234628974130109404591021915387306166850757571318319366894911543799162842644480.0000000000" flag="0"/>
      <vel value="19490475614644335472979924612498836518580547564757509452085177993657402039305609047989522844173286994721326286762767335132501840596837560760725154042498638677659249390631708336672301689380801823901267136795003896969218553030901760.0000000000" flag="0"/>
    </comp>
    <comp name="--.HHZ">
      <acc value="0.0702509718" flag="0"/>
      <vel value="0.1454404599" flag="0"/>
      <psa03 value="0.1767569304" flag="0"/>
      <psa10 value="0.1499842399" flag="0"/>
      <psa30 value="0.0438165597" flag="0"/>
    </comp>
    <comp name="--.HHN">
      <acc value="0.3155893463" flag="0"/>
      <vel value="0.2010988905" flag="0"/>
      <psa03 value="0.3404716264" flag="0"/>
      <psa10 value="0.2893132307" flag="0"/>
      <psa30 value="0.0662789702" flag="0"/>
    </comp>
  </station>
</stationlist>
