<?xml version="1.0" encoding="UTF-8" standalone="yes"?>
<!DOCTYPE earthquake SYSTEM "stationlist.dtd">
<stationlist created="" xmlns="ch.ethz.sed.shakemap.usgs.xml">
  <station code="KARP" name="KARP" netid="GE" insttype="STS-2/N" lat="35.5471" lon="27.1611">
    <comp name="--.HHE">
      <acc value="0.0474651742" flag="0"/>
      <vel value="0.0339268663" flag="0"/>
      <psa03 value="0.0955543682" flag="0"/>
      <psa10 value="0.0649994834" flag="0"/>
      <psa30 value="0.0024618462" flag="0"/>
    </comp>
    <comp name="--.HHZ">
      <acc value="0.0394618652" flag="0"/>
      <vel value="0.0307873684" flag="0"/>
      <psa03 value="0.0857765883" flag="0"/>
      <psa10 value="0.0400929086" flag="0"/>
      <psa30 value="0.0025102478" flag="0"/>
    </comp>
    <comp name="--.HHN">
      <acc value="0.0800140498" flag="0"/>
      <vel value="0.0564730662" flag="0"/>
      <psa03 value="0.0962020815" flag="0"/>
      <psa10 value="0.1038509273" flag="0"/>
      <psa30 value="0.0050247536" flag="0"/>
    </comp>
  </station>
  <station code="THERA" name="THERA" netid="GE" insttype="STS-2/N" lat="36.367" lon="25.4753">
    <comp name="--.HHN">
      <acc value="0.0084943582" flag="0"/>
      <vel value="0.0073133795" flag="0"/>
      <psa03 value="0.0317560954" flag="0"/>
      <psa10 value="0.0081740746" flag="0"/>
      <psa30 value="0.0009337903" flag="0"/>
    </comp>
    <comp name="--.HHZ">
      <acc value="0.0108940046" flag="0"/>
      <vel value="0.0061899918" flag="0"/>
      <psa03 value="0.0268973088" flag="0"/>
      <psa10 value="0.0075594031" flag="0"/>
      <psa30 value="0.0018175353" flag="0"/>
    </comp>
    <comp name="--.HHE">
      <acc value="0.0083690193" flag="0"/>
      <vel value="0.0068039664" flag="0"/>
      <psa03 value="0.0273298367" flag="0"/>
      <psa10 value="0.0065585614" flag="0"/>
      <psa30 value="0.0022260086" flag="0"/>
    </comp>
  </station>
  <station code="SNT1" name="SNT1" netid="HA" insttype="30" lat="36.4159" lon="25.4282">
    <comp name="--.HHZ">
      <acc value="0.0040491928" flag="0"/>
      <vel value="0.0041905708" flag="0"/>
      <psa03 value="0.0104181613" flag="0"/>
      <psa10 value="0.0056336993" flag="0"/>
      <psa30 value="0.0009999443" flag="0"/>
    </comp>
    <comp name="--.HHE">
      <acc value="0.0078207616" flag="0"/>
      <vel value="0.0071647817" flag="0"/>
      <psa03 value="0.0196636641" flag="0"/>
      <psa10 value="0.0096442130" flag="0"/>
      <psa30 value="0.0022606454" flag="0"/>
    </comp>
    <comp name="--.HHN">
      <acc value="0.0074549310" flag="0"/>
      <vel value="0.0067691510" flag="0"/>
      <psa03 value="0.0177548603" flag="0"/>
      <psa10 value="0.0091467185" flag="0"/>
      <psa30 value="0.0028369664" flag="0"/>
    </comp>
  </station>
  <station code="SNT5" name="SNT5" netid="HA" insttype="1s-100Hz," lat="36.4037" lon="25.3953">
    <comp name="--.HHZ">
      <acc value="0.0131316852" flag="0"/>
      <vel value="0.0036407135" flag="0"/>
      <psa03 value="0.0124632443" flag="0"/>
      <psa10 value="0.0037879116" flag="0"/>
      <psa30 value="0.0011562770" flag="0"/>
    </comp>
    <comp name="--.HHE">
      <acc value="0.0151996351" flag="0"/>
      <vel value="0.0130355493" flag="0"/>
      <psa03 value="0.0431968265" flag="0"/>
      <psa10 value="0.0123021448" flag="0"/>
      <psa30 value="0.0044517952" flag="0"/>
    </comp>
    <comp name="--.HHN">
      <acc value="0.0121268225" flag="0"/>
      <vel value="0.0084261468" flag="0"/>
      <psa03 value="0.0328048902" flag="0"/>
      <psa10 value="0.0051606653" flag="0"/>
      <psa30 value="0.0043245443" flag="0"/>
    </comp>
  </station>
  <station code="ARG" name="ARG" netid="HL" insttype="LE3D20_DR24" lat="36.2136" lon="28.1212">
    <comp name="--.HHZ">
      <acc value="0.0325655830" flag="0"/>
      <vel value="0.0185742578" flag="0"/>
      <psa03 value="0.0640095955" flag="0"/>
      <psa10 value="0.0377517829" flag="0"/>
      <psa30 value="0.0046030747" flag="0"/>
    </comp>
    <comp name="--.HHN">
      <acc value="0.0498498180" flag="0"/>
      <vel value="0.0226355951" flag="0"/>
      <psa03 value="0.1485833053" flag="0"/>
      <psa10 value="0.0334980265" flag="0"/>
      <psa30 value="0.0031756933" flag="0"/>
    </comp>
    <comp name="--.HHE">
      <acc value="0.0810777696" flag="0"/>
      <vel value="0.0706819033" flag="0"/>
      <psa03 value="0.1978563778" flag="0"/>
      <psa10 value="0.0764613686" flag="0"/>
      <psa30 value="0.0110456044" flag="0"/>
    </comp>
  </station>
  <station code="KARP" name="KARP" netid="HL" insttype="120" lat="35.5471" lon="27.1611">
    <comp name="--.HHZ">
      <acc value="0.0386895275" flag="0"/>
      <vel value="0.0304656001" flag="0"/>
      <psa03 value="0.0839907890" flag="0"/>
      <psa10 value="0.0398331350" flag="0"/>
      <psa30 value="0.0025032978" flag="0"/>
    </comp>
    <comp name="--.HHE">
      <acc value="0.0453026041" flag="0"/>
      <vel value="0.0330994720" flag="0"/>
      <psa03 value="0.0935653121" flag="0"/>
      <psa10 value="0.0646182731" flag="0"/>
      <psa30 value="0.0024496264" flag="0"/>
    </comp>
    <comp name="--.HHN">
      <acc value="0.0766976892" flag="0"/>
      <vel value="0.0559194649" flag="0"/>
      <psa03 value="0.0940501958" flag="0"/>
      <psa10 value="0.1030807448" flag="0"/>
      <psa30 value="0.0050027763" flag="0"/>
    </comp>
  </station>
  <station code="KLNA" name="KLNA" netid="HL" insttype="CMG-5" lat="36.9571" lon="26.9727">
    <comp name="00.HNE">
      <acc value="0.0661183301" flag="0"/>
      <vel value="0.0336735877" flag="0"/>
      <psa03 value="0.1638738121" flag="0"/>
      <psa10 value="0.0287023214" flag="0"/>
      <psa30 value="0.0034784761" flag="0"/>
    </comp>
    <comp name="00.HNN">
      <acc value="0.0690307704" flag="0"/>
      <vel value="0.0219363303" flag="0"/>
      <psa03 value="0.1249288393" flag="0"/>
      <psa10 value="0.0183454494" flag="0"/>
      <psa30 value="0.0020958603" flag="0"/>
    </comp>
    <comp name="00.HNZ">
      <acc value="0.0897249967" flag="0"/>
      <vel value="0.0243129745" flag="0"/>
      <psa03 value="0.0550195156" flag="0"/>
      <psa10 value="0.0139433634" flag="0"/>
      <psa30 value="0.0025235808" flag="0"/>
    </comp>
  </station>
  <station code="NISR" name="NISR" netid="HL" insttype="65535" lat="36.6106" lon="27.131">
    <comp name="--.HHN">
      <acc value="2.1465414605" flag="0"/>
      <vel value="0.6713883223" flag="0"/>
      <psa03 value="2.2419555689" flag="0"/>
      <psa10 value="0.1858060725" flag="0"/>
      <psa30 value="0.1003235187" flag="0"/>
    </comp>
    <comp name="--.HHZ">
      <acc value="0.7969098072" flag="0"/>
      <vel value="0.2888329140" flag="0"/>
      <psa03 value="1.4280687807" flag="0"/>
      <psa10 value="0.1377985343" flag="0"/>
      <psa30 value="0.0082965395" flag="0"/>
    </comp>
    <comp name="--.HHE">
      <acc value="3.7039586673" flag="0"/>
      <vel value="1.4593044119" flag="0"/>
      <psa03 value="6.8007224460" flag="0"/>
      <psa10 value="0.3742870035" flag="0"/>
      <psa30 value="0.0372657472" flag="0"/>
    </comp>
  </station>
  <station code="THERA" name="THERA" netid="HL" insttype="120" lat="36.367" lon="25.4753">
    <comp name="--.HHE">
      <acc value="0.0082033228" flag="0"/>
      <vel value="0.0067671875" flag="0"/>
      <psa03 value="0.0266645085" flag="0"/>
      <psa10 value="0.0065053735" flag="0"/>
      <psa30 value="0.0022271580" flag="0"/>
    </comp>
    <comp name="--.HHZ">
      <acc value="0.0106180475" flag="0"/>
      <vel value="0.0060970737" flag="0"/>
      <psa03 value="0.0262538454" flag="0"/>
      <psa10 value="0.0075138036" flag="0"/>
      <psa30 value="0.0018175215" flag="0"/>
    </comp>
    <comp name="--.HHN">
      <acc value="0.0083535040" flag="0"/>
      <vel value="0.0072014584" flag="0"/>
      <psa03 value="0.0308574498" flag="0"/>
      <psa10 value="0.0081152737" flag="0"/>
      <psa30 value="0.0009302805" flag="0"/>
    </comp>
  </station>
  <station code="CMBO" name="CMBO" netid="HT" insttype="120P," lat="36.4709" lon="25.4056">
    <comp name="--.HHN">
      <acc value="0.0776313107" flag="0"/>
      <vel value="0.0472700796" flag="0"/>
      <psa03 value="0.1862594223" flag="0"/>
      <psa10 value="0.0713386119" flag="0"/>
      <psa30 value="0.0064947994" flag="0"/>
    </comp>
    <comp name="--.HHZ">
      <acc value="0.0329110992" flag="0"/>
      <vel value="0.0216286435" flag="0"/>
      <psa03 value="0.1031062759" flag="0"/>
      <psa10 value="0.0106375814" flag="0"/>
      <psa30 value="0.0059686596" flag="0"/>
    </comp>
    <comp name="--.HHE">
      <acc value="0.0446678307" flag="0"/>
      <vel value="0.0496118977" flag="0"/>
      <psa03 value="0.0995711704" flag="0"/>
      <psa10 value="0.0517426993" flag="0"/>
      <psa30 value="0.0114883988" flag="0"/>
    </comp>
  </station>
  <station code="THT1" name="THT1" netid="HT" insttype="30" lat="36.3858" lon="25.4296">
    <comp name="--.HHE">
      <acc value="0.0080742086" flag="0"/>
      <vel value="0.0067062026" flag="0"/>
      <psa03 value="0.0186793536" flag="0"/>
      <psa10 value="0.0060054973" flag="0"/>
      <psa30 value="0.0011728486" flag="0"/>
    </comp>
    <comp name="--.HHZ">
      <acc value="0.0059211345" flag="0"/>
      <vel value="0.0039723057" flag="0"/>
      <psa03 value="0.0123549848" flag="0"/>
      <psa10 value="0.0041710115" flag="0"/>
      <psa30 value="0.0016168788" flag="0"/>
    </comp>
    <comp name="--.HHN">
      <acc value="0.0105009941" flag="0"/>
      <vel value="0.0070116283" flag="0"/>
      <psa03 value="0.0281933577" flag="0"/>
      <psa10 value="0.0090017004" flag="0"/>
      <psa30 value="0.0012583422" flag="0"/>
    </comp>
  </station>
</stationlist>
