<stationlist created="1778136882">
	<station code="KRL1" name="KRL1" netid="HI" source="ITSAK Strong Motion Network" insttype="" lat="37.7951" lon="26.7065">
		<comp name="--.HNE" depth="0.0">
			<acc value="0.0207682897705277" flag="0"/>
			<vel value="0.0248935167769852" flag="0"/>
			<psa03 value="0.0628272505385804" flag="0"/>
			<psa10 value="0.0342787745505909" flag="0"/>
			<psa30 value="0.00344275264879793" flag="0"/>
		</comp>
		<comp name="--.HNN" depth="0.0">
			<acc value="0.01296554268061" flag="0"/>
			<vel value="0.0179798368299878" flag="0"/>
			<psa03 value="0.0320563605557499" flag="0"/>
			<psa10 value="0.0248609331647942" flag="0"/>
			<psa30 value="0.00335032840114902" flag="0"/>
		</comp>
		<comp name="--.HNZ" depth="0.0">
			<acc value="0.00760232081909454" flag="0"/>
			<vel value="0.00953483298433613" flag="0"/>
			<psa03 value="0.0210675609871108" flag="0"/>
			<psa10 value="0.0127718320086864" flag="0"/>
			<psa30 value="0.00183840324352448" flag="0"/>
		</comp>
	</station>
	<station code="KSS1" name="KSS1" netid="HI" source="ITSAK Strong Motion Network" insttype="" lat="35.4189" lon="26.9207">
		<comp name="--.HNE" depth="0.0">
			<acc value="0.0142899876463195" flag="0"/>
			<vel value="0.00789885368794653" flag="0"/>
			<psa03 value="0.0679650596433009" flag="0"/>
			<psa10 value="0.00791049371888039" flag="0"/>
			<psa30 value="0.0012450266435733" flag="0"/>
		</comp>
		<comp name="--.HNN" depth="0.0">
			<acc value="0.0177211946494113" flag="0"/>
			<vel value="0.0103545852527625" flag="0"/>
			<psa03 value="0.0693077423394443" flag="0"/>
			<psa10 value="0.00783137660278138" flag="0"/>
			<psa30 value="0.00150594455310201" flag="0"/>
		</comp>
		<comp name="--.HNZ" depth="0.0">
			<acc value="0.0115507084847133" flag="0"/>
			<vel value="0.00534208050348011" flag="0"/>
			<psa03 value="0.0175224706735305" flag="0"/>
			<psa10 value="0.00745668412498707" flag="0"/>
			<psa30 value="0.00109160460511343" flag="0"/>
		</comp>
	</station>
	<station code="NAX1" name="NAX1" netid="HI" source="ITSAK Strong Motion Network" insttype="" lat="37.101394" lon="25.374103">
		<comp name="--.HNE" depth="0.0">
			<acc value="0.00371313385453976" flag="0"/>
			<vel value="0.00477152226398636" flag="0"/>
			<psa03 value="0.00957147195368628" flag="0"/>
			<psa10 value="0.00705603008360892" flag="0"/>
			<psa30 value="0.00155781330165214" flag="0"/>
		</comp>
		<comp name="--.HNN" depth="0.0">
			<acc value="0.00689489181066033" flag="0"/>
			<vel value="0.00424292472658088" flag="0"/>
			<psa03 value="0.0165769431932143" flag="0"/>
			<psa10 value="0.00519764603730767" flag="0"/>
			<psa30 value="0.0013960173751342" flag="0"/>
		</comp>
		<comp name="--.HNZ" depth="0.0">
			<acc value="0.00495889782595484" flag="0"/>
			<vel value="0.00609075971982902" flag="0"/>
			<psa03 value="0.0142569314309075" flag="0"/>
			<psa10 value="0.00523607905205636" flag="0"/>
			<psa30 value="0.00215662182394508" flag="0"/>
		</comp>
	</station>
	<station code="RDI1" name="RDI1" netid="HI" source="ITSAK Strong Motion Network" insttype="" lat="36.4514" lon="28.224">
		<comp name="--.HNE" depth="0.0">
			<acc value="0.0216234786569863" flag="0"/>
			<vel value="0.0348647811565569" flag="0"/>
			<psa03 value="0.0473653043854098" flag="0"/>
			<psa10 value="0.0377376024309636" flag="0"/>
			<psa30 value="0.0199634808159544" flag="0"/>
		</comp>
		<comp name="--.HNN" depth="0.0">
			<acc value="0.0181983893643976" flag="0"/>
			<vel value="0.027286961158344" flag="0"/>
			<psa03 value="0.0515752447319327" flag="0"/>
			<psa10 value="0.0511561563442352" flag="0"/>
			<psa30 value="0.014364134886766" flag="0"/>
		</comp>
		<comp name="--.HNZ" depth="0.0">
			<acc value="0.0120387453890309" flag="0"/>
			<vel value="0.0147769513883077" flag="0"/>
			<psa03 value="0.0389022593754109" flag="0"/>
			<psa10 value="0.0303435001079696" flag="0"/>
			<psa30 value="0.00551708714661869" flag="0"/>
		</comp>
	</station>
	<station code="KARP" name="KARP" netid="HL" source="National Observatory of Athens Seismic Network" insttype="" lat="35.5471" lon="27.16106">
		<comp name="--.HNE" depth="0.0">
			<acc value="0.036687217440244" flag="0"/>
			<vel value="0.029494813698033" flag="0"/>
			<psa03 value="0.0747663174848255" flag="0"/>
			<psa10 value="0.0536376282295019" flag="0"/>
			<psa30 value="0.00205584910658097" flag="0"/>
		</comp>
		<comp name="--.HNN" depth="0.0">
			<acc value="0.068887131561274" flag="0"/>
			<vel value="0.0484053908950481" flag="0"/>
			<psa03 value="0.0910691162154203" flag="0"/>
			<psa10 value="0.0941238327420388" flag="0"/>
			<psa30 value="0.00447922922694019" flag="0"/>
		</comp>
		<comp name="--.HNZ" depth="0.0">
			<acc value="0.0305368193682454" flag="0"/>
			<vel value="0.0249023776138895" flag="0"/>
			<psa03 value="0.0684115475544011" flag="0"/>
			<psa10 value="0.0320164709340535" flag="0"/>
			<psa30 value="0.00214585548572874" flag="0"/>
		</comp>
	</station>
	<station code="KLNA" name="KLNA" netid="HL" source="National Observatory of Athens Seismic Network" insttype="" lat="36.95708" lon="26.97274">
		<comp name="00.HNE" depth="0.0">
			<acc value="0.0657831631534147" flag="0"/>
			<vel value="0.0326995830724053" flag="0"/>
			<psa03 value="0.164512668990208" flag="0"/>
			<psa10 value="0.0286335162049114" flag="0"/>
			<psa30 value="0.00374431137558754" flag="0"/>
		</comp>
		<comp name="00.HNN" depth="0.0">
			<acc value="0.0688973156002332" flag="0"/>
			<vel value="0.0220696193774197" flag="0"/>
			<psa03 value="0.125534816065504" flag="0"/>
			<psa10 value="0.0183151126613426" flag="0"/>
			<psa30 value="0.00235836414671774" flag="0"/>
		</comp>
		<comp name="00.HNZ" depth="0.0">
			<acc value="0.0896812995329243" flag="0"/>
			<vel value="0.0233343524741742" flag="0"/>
			<psa03 value="0.0551866454277733" flag="0"/>
			<psa10 value="0.0141001915684734" flag="0"/>
			<psa30 value="0.00286917236025306" flag="0"/>
		</comp>
	</station>
	<station code="NISR" name="NISR" netid="HL" source="National Observatory of Athens Seismic Network" insttype="" lat="36.6106" lon="27.131">
		<comp name="--.HNE" depth="0.0">
			<acc value="3.26914544304197" flag="0"/>
			<vel value="1.29436092741002" flag="0"/>
			<psa03 value="6.14819328763512" flag="0"/>
			<psa10 value="0.36231411153169" flag="0"/>
			<psa30 value="0.0410063531363157" flag="0"/>
		</comp>
		<comp name="--.HNN" depth="0.0">
			<acc value="2.42565871276676" flag="0"/>
			<vel value="0.768730044923956" flag="0"/>
			<psa03 value="2.87889271251434" flag="0"/>
			<psa10 value="0.123062249769891" flag="0"/>
			<psa30 value="0.0271029704387989" flag="0"/>
		</comp>
		<comp name="--.HNZ" depth="0.0">
			<acc value="0.622614058805122" flag="0"/>
			<vel value="0.21787543432012" flag="0"/>
			<psa03 value="1.10041131351566" flag="0"/>
			<psa10 value="0.140887548108587" flag="0"/>
			<psa30 value="0.00841134387693581" flag="0"/>
		</comp>
	</station>
	<station code="CAME" name="CAME" netid="KO" source="Bogazici University Kandilli Observatory And Earthquake Research Institute (KOERI)" insttype="" lat="36.9435" lon="29.3023">
		<comp name="--.HNE" depth="0.0">
			<acc value="0.00516186120691198" flag="0"/>
			<vel value="0.00475223766649652" flag="0"/>
			<psa03 value="0.015078574402407" flag="0"/>
			<psa10 value="0.00548368779865845" flag="0"/>
			<psa30 value="0.00146430887827756" flag="0"/>
		</comp>
		<comp name="--.HNN" depth="0.0">
			<acc value="0.0040493903273206" flag="0"/>
			<vel value="0.00305749044455988" flag="0"/>
			<psa03 value="0.0135226601327623" flag="0"/>
			<psa10 value="0.00325894502973903" flag="0"/>
			<psa30 value="0.000731662323205461" flag="0"/>
		</comp>
		<comp name="--.HNZ" depth="0.0">
			<acc value="0.00213851442730837" flag="0"/>
			<vel value="0.00279719686872325" flag="0"/>
			<psa03 value="0.00727788056138872" flag="0"/>
			<psa10 value="0.00299695197085814" flag="0"/>
			<psa30 value="0.000840942062450433" flag="0"/>
		</comp>
	</station>
</stationlist>
