<?xml version="1.0" encoding="UTF-8" standalone="yes"?>
<!DOCTYPE earthquake SYSTEM "stationlist.dtd">
<stationlist created="" xmlns="ch.ethz.sed.shakemap.usgs.xml">
  <station code="CEYT" name="CEYT" netid="KO" insttype="CMG-3ESP" lat="37.0105" lon="35.7478">
    <comp name="--.HHN">
      <acc value="0.0055491964" flag="0"/>
      <vel value="0.0054365912" flag="0"/>
      <psa03 value="0.0149465984" flag="0"/>
      <psa10 value="0.0069576223" flag="0"/>
      <psa30 value="0.0016220524" flag="0"/>
    </comp>
    <comp name="--.HHE">
      <acc value="0.0069163010" flag="0"/>
      <vel value="0.0076544129" flag="0"/>
      <psa03 value="0.0179538043" flag="0"/>
      <psa10 value="0.0094721447" flag="0"/>
      <psa30 value="0.0012056272" flag="0"/>
    </comp>
    <comp name="--.HHZ">
      <acc value="0.0040046210" flag="0"/>
      <vel value="0.0044570658" flag="0"/>
      <psa03 value="0.0094022086" flag="0"/>
      <psa10 value="0.0093646034" flag="0"/>
      <psa30 value="0.0011822086" flag="0"/>
    </comp>
  </station>
  <station code="GAZ" name="GAZ" netid="KO" insttype="CMG-3T" lat="37.1721" lon="37.2096">
    <comp name="--.HHN">
      <acc value="0.0131131985" flag="0"/>
      <vel value="0.0072411101" flag="0"/>
      <psa03 value="0.0410346103" flag="0"/>
      <psa10 value="0.0069692528" flag="0"/>
      <psa30 value="0.0011408910" flag="0"/>
    </comp>
    <comp name="--.HHZ">
      <acc value="0.0099283564" flag="0"/>
      <vel value="0.0058066114" flag="0"/>
      <psa03 value="0.0238003791" flag="0"/>
      <psa10 value="0.0050215754" flag="0"/>
      <psa30 value="0.0011171668" flag="0"/>
    </comp>
  </station>
  <station code="SARI" name="SARI" netid="KO" insttype="CMG-3T" lat="38.4072" lon="36.4181">
    <comp name="--.HHE">
      <acc value="0.1458043913" flag="0"/>
      <vel value="0.0653360551" flag="0"/>
      <psa03 value="0.3356143214" flag="0"/>
      <psa10 value="0.0414533858" flag="0"/>
      <psa30 value="0.0022857269" flag="0"/>
    </comp>
    <comp name="--.HHN">
      <acc value="0.1292248881" flag="0"/>
      <vel value="0.0443311961" flag="0"/>
      <psa03 value="0.3037390098" flag="0"/>
      <psa10 value="0.0393516377" flag="0"/>
      <psa30 value="0.0027056886" flag="0"/>
    </comp>
  </station>
  <station code="ANDN" name="ANDN" netid="TU" insttype="T" lat="37.58" lon="36.3452">
    <comp name="--.HHE">
      <acc value="0.1853203297" flag="0"/>
      <vel value="0.1107865558" flag="0"/>
      <psa03 value="0.4344259916" flag="0"/>
      <psa10 value="0.1265601343" flag="0"/>
      <psa30 value="0.0122144101" flag="0"/>
    </comp>
    <comp name="--.HHZ">
      <acc value="0.1356021008" flag="0"/>
      <vel value="0.0694043772" flag="0"/>
      <psa03 value="0.2567276483" flag="0"/>
      <psa10 value="0.1119400453" flag="0"/>
      <psa30 value="0.0127581189" flag="0"/>
    </comp>
    <comp name="--.HHN">
      <acc value="0.3252454635" flag="0"/>
      <vel value="0.0944932952" flag="0"/>
      <psa03 value="0.6592552096" flag="0"/>
      <psa10 value="0.1132235918" flag="0"/>
      <psa30 value="0.0208188340" flag="0"/>
    </comp>
  </station>
</stationlist>
