<?xml version="1.0" encoding="UTF-8" standalone="yes"?>
<!DOCTYPE earthquake SYSTEM "stationlist.dtd">
<stationlist created="" xmlns="ch.ethz.sed.shakemap.usgs.xml">
  <station code="BNN" name="BNN" netid="KO" insttype="CMG-3T" lat="38.8521" lon="35.8472">
    <comp name="--.HHN">
      <acc value="0.0119911750" flag="0"/>
      <vel value="0.0059170761" flag="0"/>
      <psa03 value="0.0308259504" flag="0"/>
      <psa10 value="0.0102194024" flag="0"/>
      <psa30 value="0.0009463218" flag="0"/>
    </comp>
  </station>
  <station code="CEYT" name="CEYT" netid="KO" insttype="CMG-3ESP" lat="37.0105" lon="35.7478">
    <comp name="--.HHZ">
      <acc value="0.0040046210" flag="0"/>
      <vel value="0.0044570658" flag="0"/>
      <psa03 value="0.0094022086" flag="0"/>
      <psa10 value="0.0093646034" flag="0"/>
      <psa30 value="0.0011883930" flag="0"/>
    </comp>
    <comp name="--.HHN">
      <acc value="0.0055491963" flag="0"/>
      <vel value="0.0054365976" flag="0"/>
      <psa03 value="0.0149465984" flag="0"/>
      <psa10 value="0.0069576224" flag="0"/>
      <psa30 value="0.0016220403" flag="0"/>
    </comp>
    <comp name="--.HHE">
      <acc value="0.0069163009" flag="0"/>
      <vel value="0.0076544101" flag="0"/>
      <psa03 value="0.0179538043" flag="0"/>
      <psa10 value="0.0094721447" flag="0"/>
      <psa30 value="0.0012054125" flag="0"/>
    </comp>
  </station>
  <station code="CMRD" name="CMRD" netid="KO" insttype="CMG-5T" lat="37.6623" lon="34.9902">
    <comp name="--.HNE">
      <acc value="0.0116552394" flag="0"/>
      <vel value="0.0041853992" flag="0"/>
      <psa03 value="0.0283051686" flag="0"/>
      <psa10 value="0.0060626875" flag="0"/>
      <psa30 value="0.0006638671" flag="0"/>
    </comp>
    <comp name="--.HNN">
      <acc value="0.0121399378" flag="0"/>
      <vel value="0.0047556050" flag="0"/>
      <psa03 value="0.0269408924" flag="0"/>
      <psa10 value="0.0057304536" flag="0"/>
      <psa30 value="0.0012095506" flag="0"/>
    </comp>
    <comp name="--.HNZ">
      <acc value="0.0090107225" flag="0"/>
      <vel value="0.0059050792" flag="0"/>
      <psa03 value="0.0265102165" flag="0"/>
      <psa10 value="0.0062097643" flag="0"/>
      <psa30 value="0.0008882427" flag="0"/>
    </comp>
  </station>
  <station code="GAZ" name="GAZ" netid="KO" insttype="CMG-3T" lat="37.1721" lon="37.2096">
    <comp name="--.HHN">
      <acc value="0.0131131986" flag="0"/>
      <vel value="0.0072411106" flag="0"/>
      <psa03 value="0.0410346103" flag="0"/>
      <psa10 value="0.0069692528" flag="0"/>
      <psa30 value="0.0011408790" flag="0"/>
    </comp>
    <comp name="--.HHZ">
      <acc value="0.0099283562" flag="0"/>
      <vel value="0.0058066113" flag="0"/>
      <psa03 value="0.0238003791" flag="0"/>
      <psa10 value="0.0050215754" flag="0"/>
      <psa30 value="0.0011171691" flag="0"/>
    </comp>
  </station>
  <station code="SARI" name="SARI" netid="KO" insttype="CMG-3T" lat="38.4072" lon="36.4181">
    <comp name="--.HHN">
      <acc value="0.1292248878" flag="0"/>
      <vel value="0.0443311963" flag="0"/>
      <psa03 value="0.3037390098" flag="0"/>
      <psa10 value="0.0393516376" flag="0"/>
      <psa30 value="0.0027056540" flag="0"/>
    </comp>
    <comp name="--.HHE">
      <acc value="0.1458043910" flag="0"/>
      <vel value="0.0653360545" flag="0"/>
      <psa03 value="0.3356143214" flag="0"/>
      <psa10 value="0.0414533858" flag="0"/>
      <psa30 value="0.0022858739" flag="0"/>
    </comp>
  </station>
  <station code="ANDN" name="ANDN" netid="TU" insttype="T" lat="37.58" lon="36.3452">
    <comp name="--.HHZ">
      <acc value="0.1356021008" flag="0"/>
      <vel value="0.0694043773" flag="0"/>
      <psa03 value="0.2567276483" flag="0"/>
      <psa10 value="0.1119400477" flag="0"/>
      <psa30 value="0.0127579619" flag="0"/>
    </comp>
    <comp name="--.HHN">
      <acc value="0.3252454639" flag="0"/>
      <vel value="0.0944932961" flag="0"/>
      <psa03 value="0.6592552096" flag="0"/>
      <psa10 value="0.1132235919" flag="0"/>
      <psa30 value="0.0208192155" flag="0"/>
    </comp>
    <comp name="--.HHE">
      <acc value="0.1853203302" flag="0"/>
      <vel value="0.1107865559" flag="0"/>
      <psa03 value="0.4344259916" flag="0"/>
      <psa10 value="0.1265601369" flag="0"/>
      <psa30 value="0.0122144866" flag="0"/>
    </comp>
  </station>
</stationlist>
