<?xml version="1.0" encoding="UTF-8" standalone="yes"?>
<!DOCTYPE earthquake SYSTEM "stationlist.dtd">
<stationlist created="" xmlns="ch.ethz.sed.shakemap.usgs.xml">
  <station code="BNN" name="BNN" netid="KO" insttype="CMG-3T" lat="38.8521" lon="35.8472">
    <comp name="--.HHN">
      <acc value="0.0119911753" flag="0"/>
      <vel value="0.0059170763" flag="0"/>
      <psa03 value="0.0308259504" flag="0"/>
      <psa10 value="0.0102194024" flag="0"/>
      <psa30 value="0.0009463189" flag="0"/>
    </comp>
  </station>
  <station code="CEYT" name="CEYT" netid="KO" insttype="CMG-3ESP" lat="37.0105" lon="35.7478">
    <comp name="--.HHE">
      <acc value="0.0069163010" flag="0"/>
      <vel value="0.0076544096" flag="0"/>
      <psa03 value="0.0179538043" flag="0"/>
      <psa10 value="0.0094721447" flag="0"/>
      <psa30 value="0.0012055614" flag="0"/>
    </comp>
    <comp name="--.HHN">
      <acc value="0.0055491963" flag="0"/>
      <vel value="0.0054365933" flag="0"/>
      <psa03 value="0.0149465984" flag="0"/>
      <psa10 value="0.0069576223" flag="0"/>
      <psa30 value="0.0016220691" flag="0"/>
    </comp>
    <comp name="--.HHZ">
      <acc value="0.0040046211" flag="0"/>
      <vel value="0.0044570715" flag="0"/>
      <psa03 value="0.0094022086" flag="0"/>
      <psa10 value="0.0093646034" flag="0"/>
      <psa30 value="0.0011840395" flag="0"/>
    </comp>
  </station>
  <station code="CMRD" name="CMRD" netid="KO" insttype="CMG-5T" lat="37.6623" lon="34.9902">
    <comp name="--.HNE">
      <acc value="0.0116552440" flag="0"/>
      <vel value="0.0041853873" flag="0"/>
      <psa03 value="0.0283051686" flag="0"/>
      <psa10 value="0.0060626874" flag="0"/>
      <psa30 value="0.0006640923" flag="0"/>
    </comp>
    <comp name="--.HNN">
      <acc value="0.0121399387" flag="0"/>
      <vel value="0.0047556152" flag="0"/>
      <psa03 value="0.0269408924" flag="0"/>
      <psa10 value="0.0057304537" flag="0"/>
      <psa30 value="0.0012093898" flag="0"/>
    </comp>
    <comp name="--.HNZ">
      <acc value="0.0090107242" flag="0"/>
      <vel value="0.0059050769" flag="0"/>
      <psa03 value="0.0265102165" flag="0"/>
      <psa10 value="0.0062097645" flag="0"/>
      <psa30 value="0.0008883319" flag="0"/>
    </comp>
  </station>
  <station code="GAZ" name="GAZ" netid="KO" insttype="CMG-3T" lat="37.1721" lon="37.2096">
    <comp name="--.HHN">
      <acc value="0.0131131985" flag="0"/>
      <vel value="0.0072411104" flag="0"/>
      <psa03 value="0.0410346103" flag="0"/>
      <psa10 value="0.0069692528" flag="0"/>
      <psa30 value="0.0011408819" flag="0"/>
    </comp>
    <comp name="--.HHZ">
      <acc value="0.0099283562" flag="0"/>
      <vel value="0.0058066113" flag="0"/>
      <psa03 value="0.0238003791" flag="0"/>
      <psa10 value="0.0050215754" flag="0"/>
      <psa30 value="0.0011171668" flag="0"/>
    </comp>
  </station>
  <station code="SARI" name="SARI" netid="KO" insttype="CMG-3T" lat="38.4072" lon="36.4181">
    <comp name="--.HHE">
      <acc value="0.1458043910" flag="0"/>
      <vel value="0.0653360549" flag="0"/>
      <psa03 value="0.3356143214" flag="0"/>
      <psa10 value="0.0414533858" flag="0"/>
      <psa30 value="0.0022858605" flag="0"/>
    </comp>
    <comp name="--.HHN">
      <acc value="0.1292248882" flag="0"/>
      <vel value="0.0443311958" flag="0"/>
      <psa03 value="0.3037390098" flag="0"/>
      <psa10 value="0.0393516377" flag="0"/>
      <psa30 value="0.0027056740" flag="0"/>
    </comp>
  </station>
  <station code="ANDN" name="ANDN" netid="TU" insttype="T" lat="37.58" lon="36.3452">
    <comp name="--.HHE">
      <acc value="0.1853203299" flag="0"/>
      <vel value="0.1107865563" flag="0"/>
      <psa03 value="0.4344259916" flag="0"/>
      <psa10 value="0.1265601351" flag="0"/>
      <psa30 value="0.0122145168" flag="0"/>
    </comp>
    <comp name="--.HHN">
      <acc value="0.3252454635" flag="0"/>
      <vel value="0.0944932946" flag="0"/>
      <psa03 value="0.6592552096" flag="0"/>
      <psa10 value="0.1132235918" flag="0"/>
      <psa30 value="0.0208188587" flag="0"/>
    </comp>
    <comp name="--.HHZ">
      <acc value="0.1356021007" flag="0"/>
      <vel value="0.0694043778" flag="0"/>
      <psa03 value="0.2567276483" flag="0"/>
      <psa10 value="0.1119400466" flag="0"/>
      <psa30 value="0.0127580401" flag="0"/>
    </comp>
  </station>
</stationlist>
