<?xml version="1.0" encoding="UTF-8" standalone="yes"?>
<!DOCTYPE earthquake SYSTEM "stationlist.dtd">
<stationlist created="" xmlns="ch.ethz.sed.shakemap.usgs.xml">
  <station code="BNN" name="BNN" netid="KO" insttype="CMG-3T" lat="38.8521" lon="35.8472">
    <comp name="--.HHN">
      <acc value="0.0119911753" flag="0"/>
      <vel value="0.0059170763" flag="0"/>
      <psa03 value="0.0308259504" flag="0"/>
      <psa10 value="0.0102194024" flag="0"/>
      <psa30 value="0.0009463188" flag="0"/>
    </comp>
  </station>
  <station code="CEYT" name="CEYT" netid="KO" insttype="CMG-3ESP" lat="37.0105" lon="35.7478">
    <comp name="--.HHE">
      <acc value="0.0069163010" flag="0"/>
      <vel value="0.0076544089" flag="0"/>
      <psa03 value="0.0179538043" flag="0"/>
      <psa10 value="0.0094721447" flag="0"/>
      <psa30 value="0.0012055385" flag="0"/>
    </comp>
    <comp name="--.HHN">
      <acc value="0.0055491963" flag="0"/>
      <vel value="0.0054365979" flag="0"/>
      <psa03 value="0.0149465984" flag="0"/>
      <psa10 value="0.0069576223" flag="0"/>
      <psa30 value="0.0016220637" flag="0"/>
    </comp>
    <comp name="--.HHZ">
      <acc value="0.0040046211" flag="0"/>
      <vel value="0.0044570720" flag="0"/>
      <psa03 value="0.0094022086" flag="0"/>
      <psa10 value="0.0093646034" flag="0"/>
      <psa30 value="0.0011843258" flag="0"/>
    </comp>
  </station>
  <station code="CMRD" name="CMRD" netid="KO" insttype="CMG-5T" lat="37.6623" lon="34.9902">
    <comp name="--.HNE">
      <acc value="0.0116552438" flag="0"/>
      <vel value="0.0041853864" flag="0"/>
      <psa03 value="0.0283051686" flag="0"/>
      <psa10 value="0.0060626874" flag="0"/>
      <psa30 value="0.0006641100" flag="0"/>
    </comp>
    <comp name="--.HNZ">
      <acc value="0.0090107243" flag="0"/>
      <vel value="0.0059050767" flag="0"/>
      <psa03 value="0.0265102165" flag="0"/>
      <psa10 value="0.0062097645" flag="0"/>
      <psa30 value="0.0008883227" flag="0"/>
    </comp>
    <comp name="--.HNN">
      <acc value="0.0121399390" flag="0"/>
      <vel value="0.0047556162" flag="0"/>
      <psa03 value="0.0269408924" flag="0"/>
      <psa10 value="0.0057304537" flag="0"/>
      <psa30 value="0.0012093515" flag="0"/>
    </comp>
  </station>
  <station code="GAZ" name="GAZ" netid="KO" insttype="CMG-3T" lat="37.1721" lon="37.2096">
    <comp name="--.HHN">
      <acc value="0.0131131987" flag="0"/>
      <vel value="0.0072411108" flag="0"/>
      <psa03 value="0.0410346103" flag="0"/>
      <psa10 value="0.0069692528" flag="0"/>
      <psa30 value="0.0011408694" flag="0"/>
    </comp>
    <comp name="--.HHZ">
      <acc value="0.0099283564" flag="0"/>
      <vel value="0.0058066113" flag="0"/>
      <psa03 value="0.0238003791" flag="0"/>
      <psa10 value="0.0050215754" flag="0"/>
      <psa30 value="0.0011171676" flag="0"/>
    </comp>
  </station>
  <station code="SARI" name="SARI" netid="KO" insttype="CMG-3T" lat="38.4072" lon="36.4181">
    <comp name="--.HHN">
      <acc value="0.1292248881" flag="0"/>
      <vel value="0.0443311959" flag="0"/>
      <psa03 value="0.3037390098" flag="0"/>
      <psa10 value="0.0393516377" flag="0"/>
      <psa30 value="0.0027056701" flag="0"/>
    </comp>
    <comp name="--.HHE">
      <acc value="0.1458043911" flag="0"/>
      <vel value="0.0653360548" flag="0"/>
      <psa03 value="0.3356143214" flag="0"/>
      <psa10 value="0.0414533858" flag="0"/>
      <psa30 value="0.0022858598" flag="0"/>
    </comp>
  </station>
  <station code="ANDN" name="ANDN" netid="TU" insttype="T" lat="37.58" lon="36.3452">
    <comp name="--.HHE">
      <acc value="0.1853203301" flag="0"/>
      <vel value="0.1107865566" flag="0"/>
      <psa03 value="0.4344259916" flag="0"/>
      <psa10 value="0.1265601365" flag="0"/>
      <psa30 value="0.0122145693" flag="0"/>
    </comp>
    <comp name="--.HHN">
      <acc value="0.3252454636" flag="0"/>
      <vel value="0.0944932949" flag="0"/>
      <psa03 value="0.6592552096" flag="0"/>
      <psa10 value="0.1132235918" flag="0"/>
      <psa30 value="0.0208189711" flag="0"/>
    </comp>
    <comp name="--.HHZ">
      <acc value="0.1356021007" flag="0"/>
      <vel value="0.0694043778" flag="0"/>
      <psa03 value="0.2567276483" flag="0"/>
      <psa10 value="0.1119400472" flag="0"/>
      <psa30 value="0.0127579974" flag="0"/>
    </comp>
  </station>
</stationlist>
