<?xml version="1.0" encoding="UTF-8" standalone="yes"?>
<!DOCTYPE earthquake SYSTEM "stationlist.dtd">
<stationlist created="" xmlns="ch.ethz.sed.shakemap.usgs.xml">
  <station code="BNN" name="BNN" netid="KO" insttype="CMG-3T" lat="38.8521" lon="35.8472">
    <comp name="--.HHN">
      <acc value="0.0119911751" flag="0"/>
      <vel value="0.0059170763" flag="0"/>
      <psa03 value="0.0308259504" flag="0"/>
      <psa10 value="0.0102194024" flag="0"/>
      <psa30 value="0.0009463213" flag="0"/>
    </comp>
  </station>
  <station code="CEYT" name="CEYT" netid="KO" insttype="CMG-3ESP" lat="37.0105" lon="35.7478">
    <comp name="--.HHE">
      <acc value="0.0069163011" flag="0"/>
      <vel value="0.0076544128" flag="0"/>
      <psa03 value="0.0179538043" flag="0"/>
      <psa10 value="0.0094721447" flag="0"/>
      <psa30 value="0.0012056235" flag="0"/>
    </comp>
    <comp name="--.HHN">
      <acc value="0.0055491964" flag="0"/>
      <vel value="0.0054365930" flag="0"/>
      <psa03 value="0.0149465984" flag="0"/>
      <psa10 value="0.0069576223" flag="0"/>
      <psa30 value="0.0016220561" flag="0"/>
    </comp>
    <comp name="--.HHZ">
      <acc value="0.0040046211" flag="0"/>
      <vel value="0.0044570693" flag="0"/>
      <psa03 value="0.0094022086" flag="0"/>
      <psa10 value="0.0093646034" flag="0"/>
      <psa30 value="0.0011822192" flag="0"/>
    </comp>
  </station>
  <station code="CMRD" name="CMRD" netid="KO" insttype="CMG-5T" lat="37.6623" lon="34.9902">
    <comp name="--.HNZ">
      <acc value="0.0090107233" flag="0"/>
      <vel value="0.0059050725" flag="0"/>
      <psa03 value="0.0265102165" flag="0"/>
      <psa10 value="0.0062097646" flag="0"/>
      <psa30 value="0.0008883319" flag="0"/>
    </comp>
    <comp name="--.HNE">
      <acc value="0.0116552449" flag="0"/>
      <vel value="0.0041853810" flag="0"/>
      <psa03 value="0.0283051686" flag="0"/>
      <psa10 value="0.0060626874" flag="0"/>
      <psa30 value="0.0006648934" flag="0"/>
    </comp>
    <comp name="--.HNN">
      <acc value="0.0121399424" flag="0"/>
      <vel value="0.0047556121" flag="0"/>
      <psa03 value="0.0269408924" flag="0"/>
      <psa10 value="0.0057304540" flag="0"/>
      <psa30 value="0.0012090168" flag="0"/>
    </comp>
  </station>
  <station code="GAZ" name="GAZ" netid="KO" insttype="CMG-3T" lat="37.1721" lon="37.2096">
    <comp name="--.HHN">
      <acc value="0.0131131982" flag="0"/>
      <vel value="0.0072411103" flag="0"/>
      <psa03 value="0.0410346103" flag="0"/>
      <psa10 value="0.0069692528" flag="0"/>
      <psa30 value="0.0011408851" flag="0"/>
    </comp>
    <comp name="--.HHZ">
      <acc value="0.0099283564" flag="0"/>
      <vel value="0.0058066113" flag="0"/>
      <psa03 value="0.0238003791" flag="0"/>
      <psa10 value="0.0050215754" flag="0"/>
      <psa30 value="0.0011171668" flag="0"/>
    </comp>
  </station>
  <station code="SARI" name="SARI" netid="KO" insttype="CMG-3T" lat="38.4072" lon="36.4181">
    <comp name="--.HHE">
      <acc value="0.1458043910" flag="0"/>
      <vel value="0.0653360548" flag="0"/>
      <psa03 value="0.3356143214" flag="0"/>
      <psa10 value="0.0414533858" flag="0"/>
      <psa30 value="0.0022857691" flag="0"/>
    </comp>
    <comp name="--.HHN">
      <acc value="0.1292248881" flag="0"/>
      <vel value="0.0443311959" flag="0"/>
      <psa03 value="0.3037390098" flag="0"/>
      <psa10 value="0.0393516377" flag="0"/>
      <psa30 value="0.0027057024" flag="0"/>
    </comp>
  </station>
  <station code="ANDN" name="ANDN" netid="TU" insttype="T" lat="37.58" lon="36.3452">
    <comp name="--.HHE">
      <acc value="0.1853203298" flag="0"/>
      <vel value="0.1107865559" flag="0"/>
      <psa03 value="0.4344259916" flag="0"/>
      <psa10 value="0.1265601345" flag="0"/>
      <psa30 value="0.0122144469" flag="0"/>
    </comp>
    <comp name="--.HHN">
      <acc value="0.3252454635" flag="0"/>
      <vel value="0.0944932946" flag="0"/>
      <psa03 value="0.6592552096" flag="0"/>
      <psa10 value="0.1132235918" flag="0"/>
      <psa30 value="0.0208188118" flag="0"/>
    </comp>
    <comp name="--.HHZ">
      <acc value="0.1356021007" flag="0"/>
      <vel value="0.0694043774" flag="0"/>
      <psa03 value="0.2567276483" flag="0"/>
      <psa10 value="0.1119400458" flag="0"/>
      <psa30 value="0.0127580893" flag="0"/>
    </comp>
  </station>
</stationlist>
