<stationlist created="1778069576">
	<station code="IMMV" name="IMMV" netid="GE" source="GEOFON" insttype="" lat="35.4606" lon="23.9811">
		<comp name="--.HNE" depth="0.0">
			<acc value="0.000563331577642875" flag="0"/>
			<vel value="0.000733800519817377" flag="0"/>
			<psa03 value="0.00165546164487605" flag="0"/>
			<psa10 value="0.00137313832111476" flag="0"/>
			<psa30 value="0.000171810073414163" flag="0"/>
		</comp>
		<comp name="--.HNN" depth="0.0">
			<acc value="0.000489261242272379" flag="0"/>
			<vel value="0.000524760533941649" flag="0"/>
			<psa03 value="0.00134226619854815" flag="0"/>
			<psa10 value="0.00101072644750676" flag="0"/>
			<psa30 value="0.000194181176723299" flag="0"/>
		</comp>
		<comp name="--.HNZ" depth="0.0">
			<acc value="0.000395182740308809" flag="0"/>
			<vel value="0.000412524935241307" flag="0"/>
			<psa03 value="0.00107381295883852" flag="0"/>
			<psa10 value="0.000829520510702758" flag="0"/>
			<psa30 value="7.78514395157928e-05" flag="0"/>
		</comp>
	</station>
	<station code="KARP" name="KARP" netid="GE" source="GEOFON" insttype="" lat="35.5471" lon="27.16106">
		<comp name="--.HNE" depth="0.0">
			<acc value="0.0021333248637162" flag="0"/>
			<vel value="0.000387308884322602" flag="0"/>
			<psa03 value="0.000894844132365435" flag="0"/>
			<psa10 value="0.000853681302276625" flag="0"/>
			<psa30 value="0.000127515288862074" flag="0"/>
		</comp>
		<comp name="--.HNN" depth="0.0">
			<acc value="0.00394912752570587" flag="0"/>
			<vel value="0.000459634061488733" flag="0"/>
			<psa03 value="0.00076061751251062" flag="0"/>
			<psa10 value="0.000958378065763381" flag="0"/>
			<psa30 value="0.000165993586553788" flag="0"/>
		</comp>
		<comp name="--.HNZ" depth="0.0">
			<acc value="0.00132412743614917" flag="0"/>
			<vel value="0.000336310675639326" flag="0"/>
			<psa03 value="0.000671133099274076" flag="0"/>
			<psa10 value="0.000789252524746314" flag="0"/>
			<psa30 value="0.000131989509523902" flag="0"/>
		</comp>
	</station>
	<station code="SIT2" name="SIT2" netid="HI" source="ITSAK Strong Motion Network" insttype="" lat="35.2059" lon="26.107">
		<comp name="--.HNE" depth="0.0">
			<acc value="0.0119026757964905" flag="0"/>
			<vel value="0.00717680052444938" flag="0"/>
			<psa03 value="0.0444290111719439" flag="0"/>
			<psa10 value="0.00573013440160206" flag="0"/>
			<psa30 value="0.000345857257159241" flag="0"/>
		</comp>
		<comp name="--.HNN" depth="0.0">
			<acc value="0.00787714912567774" flag="0"/>
			<vel value="0.00694738441777623" flag="0"/>
			<psa03 value="0.0291271765084949" flag="0"/>
			<psa10 value="0.00721199628479922" flag="0"/>
			<psa30 value="0.000603124945214303" flag="0"/>
		</comp>
		<comp name="--.HNZ" depth="0.0">
			<acc value="0.00786365256759987" flag="0"/>
			<vel value="0.00265514890015047" flag="0"/>
			<psa03 value="0.0165546164487606" flag="0"/>
			<psa10 value="0.00184427375680516" flag="0"/>
			<psa30 value="0.000378071645924396" flag="0"/>
		</comp>
	</station>
</stationlist>
