<?xml version="1.0" encoding="UTF-8" standalone="yes"?>
<!DOCTYPE earthquake SYSTEM "stationlist.dtd">
<stationlist created="" xmlns="ch.ethz.sed.shakemap.usgs.xml">
  <station code="KLV" name="KLV" netid="MN" insttype="" lat="38.0437" lon="22.1504">
    <comp name="--.HHE">
      <acc value="0.0024706022" flag="0"/>
      <vel value="0.0029262487" flag="0"/>
      <psa03 value="0.0047578589" flag="0"/>
      <psa10 value="0.0034948429" flag="0"/>
      <psa30 value="0.0002669012" flag="0"/>
    </comp>
    <comp name="--.HHN">
      <acc value="0.0022890707" flag="0"/>
      <vel value="0.0018589244" flag="0"/>
      <psa03 value="0.0060177963" flag="0"/>
      <psa10 value="0.0035245434" flag="0"/>
      <psa30 value="0.0003971806" flag="0"/>
    </comp>
    <comp name="--.HHZ">
      <acc value="0.0028693363" flag="0"/>
      <vel value="0.0021210680" flag="0"/>
      <psa03 value="0.0048513688" flag="0"/>
      <psa10 value="0.0038629454" flag="0"/>
      <psa30 value="0.0004531985" flag="0"/>
    </comp>
  </station>
</stationlist>
