<stationlist created="1778138753">
	<station code="AGRP" name="AGRP" netid="CL" source="Corinth Riff Laboratory (CRLNET)" insttype="" lat="38.3959" lon="21.72277">
		<comp name="00.HNE" depth="0.0">
			<acc value="0.0206708120916718" flag="0"/>
			<vel value="0.00619441678763101" flag="0"/>
			<psa03 value="0.0313880141977461" flag="0"/>
			<psa10 value="0.00871699870837495" flag="0"/>
			<psa30 value="0.000718112623518379" flag="0"/>
		</comp>
		<comp name="00.HNN" depth="0.0">
			<acc value="0.019458535496383" flag="0"/>
			<vel value="0.0070842458296626" flag="0"/>
			<psa03 value="0.0312406164125203" flag="0"/>
			<psa10 value="0.00676676310858009" flag="0"/>
			<psa30 value="0.000655412272010983" flag="0"/>
		</comp>
		<comp name="00.HNZ" depth="0.0">
			<acc value="0.0171525431029465" flag="0"/>
			<vel value="0.00459795362101578" flag="0"/>
			<psa03 value="0.0160478222040513" flag="0"/>
			<psa10 value="0.00377900299665206" flag="0"/>
			<psa30 value="0.000875860208940664" flag="0"/>
		</comp>
	</station>
	<station code="ROD3" name="ROD3" netid="CL" source="Corinth Riff Laboratory (CRLNET)" insttype="" lat="38.30811" lon="21.89204">
		<comp name="00.HNE" depth="0.0">
			<acc value="0.0266990015423516" flag="0"/>
			<vel value="0.0109920289661591" flag="0"/>
			<psa03 value="0.0827110677441086" flag="0"/>
			<psa10 value="0.0101433785115514" flag="0"/>
			<psa30 value="0.000970166664614631" flag="0"/>
		</comp>
		<comp name="00.HNN" depth="0.0">
			<acc value="0.0266162194437085" flag="0"/>
			<vel value="0.0100801199865678" flag="0"/>
			<psa03 value="0.0590582300263707" flag="0"/>
			<psa10 value="0.00698983866748893" flag="0"/>
			<psa30 value="0.00091977197204783" flag="0"/>
		</comp>
		<comp name="00.HNZ" depth="0.0">
			<acc value="0.0155627510345932" flag="0"/>
			<vel value="0.00494618278191598" flag="0"/>
			<psa03 value="0.0178762506201039" flag="0"/>
			<psa10 value="0.00455420700637122" flag="0"/>
			<psa30 value="0.000547282869385693" flag="0"/>
		</comp>
	</station>
	<station code="AIGS" name="AIGS" netid="HA" source="Hellenic Seismological Network, University of Athens, Seismological Laboratory (HA)" insttype="" lat="38.25001" lon="22.0878">
		<comp name="--.HNE" depth="0.0">
			<acc value="0.0144054304894615" flag="0"/>
			<vel value="0.00733533064916095" flag="0"/>
			<psa03 value="0.0330526791611025" flag="0"/>
			<psa10 value="0.00645478416027346" flag="0"/>
			<psa30 value="0.000821668650264356" flag="0"/>
		</comp>
		<comp name="--.HNN" depth="0.0">
			<acc value="0.016993454576583" flag="0"/>
			<vel value="0.00515864870140027" flag="0"/>
			<psa03 value="0.0249516060464511" flag="0"/>
			<psa10 value="0.00612307843640589" flag="0"/>
			<psa30 value="0.000682389996654452" flag="0"/>
		</comp>
		<comp name="--.HNZ" depth="0.0">
			<acc value="0.0130303384513284" flag="0"/>
			<vel value="0.00321359559469655" flag="0"/>
			<psa03 value="0.014333031524261" flag="0"/>
			<psa10 value="0.004047250766758" flag="0"/>
			<psa30 value="0.000609903580203782" flag="0"/>
		</comp>
	</station>
	<station code="DRES" name="DRES" netid="HA" source="Hellenic Seismological Network, University of Athens, Seismological Laboratory (HA)" insttype="" lat="38.319719" lon="21.853176">
		<comp name="--.HNE" depth="0.0">
			<acc value="0.0113761489297915" flag="0"/>
			<vel value="0.00626183735030401" flag="0"/>
			<psa03 value="0.0304015425988352" flag="0"/>
			<psa10 value="0.00947447013714664" flag="0"/>
			<psa30 value="0.000823779623442433" flag="0"/>
		</comp>
		<comp name="--.HNN" depth="0.0">
			<acc value="0.0092233093734722" flag="0"/>
			<vel value="0.00443814963721573" flag="0"/>
			<psa03 value="0.019534870912241" flag="0"/>
			<psa10 value="0.00718779646875507" flag="0"/>
			<psa30 value="0.00072247780852781" flag="0"/>
		</comp>
		<comp name="--.HNZ" depth="0.0">
			<acc value="0.00537695168417335" flag="0"/>
			<vel value="0.0027741026010268" flag="0"/>
			<psa03 value="0.0133910980320261" flag="0"/>
			<psa10 value="0.00559996425137882" flag="0"/>
			<psa30 value="0.000598758831499838" flag="0"/>
		</comp>
	</station>
	<station code="KIAS" name="KIAS" netid="HA" source="Hellenic Seismological Network, University of Athens, Seismological Laboratory (HA)" insttype="" lat="37.9875" lon="22.7543">
		<comp name="--.HNE" depth="0.0">
			<acc value="0.00568263879769566" flag="0"/>
			<vel value="0.00398543164671748" flag="0"/>
			<psa03 value="0.00619957345174088" flag="0"/>
			<psa10 value="0.00759912840494877" flag="0"/>
			<psa30 value="0.00146195893093821" flag="0"/>
		</comp>
		<comp name="--.HNN" depth="0.0">
			<acc value="0.00452972263217131" flag="0"/>
			<vel value="0.00420488511663898" flag="0"/>
			<psa03 value="0.00834627555604904" flag="0"/>
			<psa10 value="0.00562054514603557" flag="0"/>
			<psa30 value="0.00110887074890993" flag="0"/>
		</comp>
		<comp name="--.HNZ" depth="0.0">
			<acc value="0.00475200332758773" flag="0"/>
			<vel value="0.00220787401208346" flag="0"/>
			<psa03 value="0.00639325229764348" flag="0"/>
			<psa10 value="0.0040048903043282" flag="0"/>
			<psa30 value="0.000687676909388229" flag="0"/>
		</comp>
	</station>
	<station code="LTRS" name="LTRS" netid="HA" source="Hellenic Seismological Network, University of Athens, Seismological Laboratory (HA)" insttype="" lat="37.97528" lon="22.9765">
		<comp name="--.HNE" depth="0.0">
			<acc value="0.00387723243509664" flag="0"/>
			<vel value="0.00388609408258943" flag="0"/>
			<psa03 value="0.00815153999953815" flag="0"/>
			<psa10 value="0.00622833384656105" flag="0"/>
			<psa30 value="0.000707603385667664" flag="0"/>
		</comp>
		<comp name="--.HNN" depth="0.0">
			<acc value="0.00308666903915405" flag="0"/>
			<vel value="0.00300426273451453" flag="0"/>
			<psa03 value="0.00577423212389252" flag="0"/>
			<psa10 value="0.00505047316281463" flag="0"/>
			<psa30 value="0.000749804150011413" flag="0"/>
		</comp>
		<comp name="--.HNZ" depth="0.0">
			<acc value="0.00527231557236186" flag="0"/>
			<vel value="0.00198371483051297" flag="0"/>
			<psa03 value="0.00387518542295236" flag="0"/>
			<psa10 value="0.00368953613241006" flag="0"/>
			<psa30 value="0.000596799014171138" flag="0"/>
		</comp>
	</station>
	<station code="DLFA" name="DLFA" netid="HL" source="National Observatory of Athens Seismic Network" insttype="" lat="38.47836" lon="22.49583">
		<comp name="00.HNE" depth="0.0">
			<acc value="0.00486205469958829" flag="0"/>
			<vel value="0.00385070878546505" flag="0"/>
			<psa03 value="0.0115970859583438" flag="0"/>
			<psa10 value="0.0067465834905644" flag="0"/>
			<psa30 value="0.00045650518914552" flag="0"/>
		</comp>
		<comp name="00.HNN" depth="0.0">
			<acc value="0.00500780499838197" flag="0"/>
			<vel value="0.00249247051151373" flag="0"/>
			<psa03 value="0.00954562518936984" flag="0"/>
			<psa10 value="0.00337215026340516" flag="0"/>
			<psa30 value="0.000304013524820852" flag="0"/>
		</comp>
		<comp name="00.HNZ" depth="0.0">
			<acc value="0.00316100311398902" flag="0"/>
			<vel value="0.00227747109319379" flag="0"/>
			<psa03 value="0.00631350417616881" flag="0"/>
			<psa10 value="0.0050479708095376" flag="0"/>
			<psa30 value="0.000280080689387979" flag="0"/>
		</comp>
	</station>
	<station code="GINA" name="GINA" netid="HL" source="National Observatory of Athens Seismic Network" insttype="" lat="39.66886" lon="22.389">
		<comp name="00.HNE" depth="0.0">
			<acc value="0.012624668212004" flag="0"/>
			<vel value="0.0101168620902165" flag="0"/>
			<psa03 value="0.0418077513291961" flag="0"/>
			<psa10 value="0.0118157905506329" flag="0"/>
			<psa30 value="0.00125420652252882" flag="0"/>
		</comp>
		<comp name="00.HNN" depth="0.0">
			<acc value="0.0101899190849964" flag="0"/>
			<vel value="0.0139087682449975" flag="0"/>
			<psa03 value="0.0272055470256223" flag="0"/>
			<psa10 value="0.0110752402428159" flag="0"/>
			<psa30 value="0.00131854828485194" flag="0"/>
		</comp>
		<comp name="00.HNZ" depth="0.0">
			<acc value="0.00846865554181974" flag="0"/>
			<vel value="0.00681826500366149" flag="0"/>
			<psa03 value="0.0192475550039854" flag="0"/>
			<psa10 value="0.00906619934119203" flag="0"/>
			<psa30 value="0.00103962032807848" flag="0"/>
		</comp>
	</station>
	<station code="ITM" name="ITM" netid="HL" source="National Observatory of Athens Seismic Network" insttype="" lat="37.17872" lon="21.92522">
		<comp name="--.HNE" depth="0.0">
			<acc value="0.00123053521610752" flag="0"/>
			<vel value="0.00124775685206088" flag="0"/>
			<psa03 value="0.00319115866422429" flag="0"/>
			<psa10 value="0.00273442286084355" flag="0"/>
			<psa30 value="0.000263980872853887" flag="0"/>
		</comp>
		<comp name="--.HNN" depth="0.0">
			<acc value="0.00127171943549117" flag="0"/>
			<vel value="0.00101027286327732" flag="0"/>
			<psa03 value="0.00240052702443474" flag="0"/>
			<psa10 value="0.00142408582307184" flag="0"/>
			<psa30 value="0.000271845404257016" flag="0"/>
		</comp>
		<comp name="--.HNZ" depth="0.0">
			<acc value="0.000970280596820705" flag="0"/>
			<vel value="0.000960796399729204" flag="0"/>
			<psa03 value="0.00181493842737712" flag="0"/>
			<psa10 value="0.00212715028826573" flag="0"/>
			<psa30 value="0.000276644862822699" flag="0"/>
		</comp>
	</station>
	<station code="PATC" name="PATC" netid="HL" source="National Observatory of Athens Seismic Network" insttype="" lat="38.26933" lon="21.76001">
		<comp name="00.HNE" depth="0.0">
			<acc value="0.0165458451228662" flag="0"/>
			<vel value="0.0123176664043777" flag="0"/>
			<psa03 value="0.0581174072848287" flag="0"/>
			<psa10 value="0.0149721693327249" flag="0"/>
			<psa30 value="0.00228382254203462" flag="0"/>
		</comp>
		<comp name="00.HNN" depth="0.0">
			<acc value="0.0162110061025225" flag="0"/>
			<vel value="0.0119224544641712" flag="0"/>
			<psa03 value="0.0381398520988423" flag="0"/>
			<psa10 value="0.022224349129058" flag="0"/>
			<psa30 value="0.00169178092634915" flag="0"/>
		</comp>
		<comp name="00.HNZ" depth="0.0">
			<acc value="0.0209370008053368" flag="0"/>
			<vel value="0.00623187357208943" flag="0"/>
			<psa03 value="0.0257985319428136" flag="0"/>
			<psa10 value="0.00592253061982641" flag="0"/>
			<psa30 value="0.000619016423468154" flag="0"/>
		</comp>
	</station>
	<station code="PATG" name="PATG" netid="HL" source="National Observatory of Athens Seismic Network" insttype="" lat="38.23865" lon="21.72657">
		<comp name="00.HNE" depth="0.0">
			<acc value="0.0240723737595068" flag="0"/>
			<vel value="0.0108536633140083" flag="0"/>
			<psa03 value="0.0693886956187864" flag="0"/>
			<psa10 value="0.0169220472525775" flag="0"/>
			<psa30 value="0.0018317642620579" flag="0"/>
		</comp>
		<comp name="00.HNN" depth="0.0">
			<acc value="0.024897964739562" flag="0"/>
			<vel value="0.0126734746185714" flag="0"/>
			<psa03 value="0.0451117019706503" flag="0"/>
			<psa10 value="0.0116031608399753" flag="0"/>
			<psa30 value="0.00220696370051592" flag="0"/>
		</comp>
		<comp name="00.HNZ" depth="0.0">
			<acc value="0.022170858888986" flag="0"/>
			<vel value="0.0069363241544076" flag="0"/>
			<psa03 value="0.0260837096885757" flag="0"/>
			<psa10 value="0.0078811761517236" flag="0"/>
			<psa30 value="0.0012035414995496" flag="0"/>
		</comp>
	</station>
	<station code="RIOA" name="RIOA" netid="HL" source="National Observatory of Athens Seismic Network" insttype="" lat="38.29585" lon="21.79118">
		<comp name="00.HNE" depth="0.0">
			<acc value="0.0290849067537218" flag="0"/>
			<vel value="0.0126185718907957" flag="0"/>
			<psa03 value="0.0496037443379269" flag="0"/>
			<psa10 value="0.0100399888499894" flag="0"/>
			<psa30 value="0.0014908202178549" flag="0"/>
		</comp>
		<comp name="00.HNN" depth="0.0">
			<acc value="0.0241831644616677" flag="0"/>
			<vel value="0.00848635071722475" flag="0"/>
			<psa03 value="0.0403044486177281" flag="0"/>
			<psa10 value="0.00757994072764032" flag="0"/>
			<psa30 value="0.00132983976202522" flag="0"/>
		</comp>
		<comp name="00.HNZ" depth="0.0">
			<acc value="0.020866884837934" flag="0"/>
			<vel value="0.00552940887330671" flag="0"/>
			<psa03 value="0.0245982831613839" flag="0"/>
			<psa10 value="0.00548894986600462" flag="0"/>
			<psa30 value="0.000740493116534377" flag="0"/>
		</comp>
	</station>
	<station code="SOFA" name="SOFA" netid="HL" source="National Observatory of Athens Seismic Network" insttype="" lat="39.33773" lon="22.09691">
		<comp name="00.HNE" depth="0.0">
			<acc value="0.0218889910774032" flag="0"/>
			<vel value="0.0208397219958092" flag="0"/>
			<psa03 value="0.0715980294764279" flag="0"/>
			<psa10 value="0.0150236133656506" flag="0"/>
			<psa30 value="0.00130479956156596" flag="0"/>
		</comp>
		<comp name="00.HNN" depth="0.0">
			<acc value="0.0224999090692001" flag="0"/>
			<vel value="0.0197007826573883" flag="0"/>
			<psa03 value="0.0739891566268754" flag="0"/>
			<psa10 value="0.0191295972419534" flag="0"/>
			<psa30 value="0.0015082251208447" flag="0"/>
		</comp>
		<comp name="00.HNZ" depth="0.0">
			<acc value="0.0198189054437872" flag="0"/>
			<vel value="0.006819680860747" flag="0"/>
			<psa03 value="0.0276813597958881" flag="0"/>
			<psa10 value="0.00648389218229431" flag="0"/>
			<psa30 value="0.000626945282049553" flag="0"/>
		</comp>
	</station>
	<station code="TRKA" name="TRKA" netid="HL" source="National Observatory of Athens Seismic Network" insttype="" lat="39.55381" lon="21.76624">
		<comp name="00.HNE" depth="0.0">
			<acc value="0.0216433311274991" flag="0"/>
			<vel value="0.0153159496272327" flag="0"/>
			<psa03 value="0.0586073720338843" flag="0"/>
			<psa10 value="0.0154489609178423" flag="0"/>
			<psa30 value="0.000818949095108618" flag="0"/>
		</comp>
		<comp name="00.HNN" depth="0.0">
			<acc value="0.0168457633892521" flag="0"/>
			<vel value="0.0117023608725874" flag="0"/>
			<psa03 value="0.0460352839865329" flag="0"/>
			<psa10 value="0.010487398176142" flag="0"/>
			<psa30 value="0.000711541250698223" flag="0"/>
		</comp>
		<comp name="00.HNZ" depth="0.0">
			<acc value="0.0135628996124959" flag="0"/>
			<vel value="0.00675017307348157" flag="0"/>
			<psa03 value="0.042001480308607" flag="0"/>
			<psa10 value="0.00497534677981313" flag="0"/>
			<psa30 value="0.000458945559142178" flag="0"/>
		</comp>
	</station>
	<station code="ANX" name="ANX" netid="HP" source="University of Patras, Seismological Laboratory (PSLNET)" insttype="" lat="38.5933" lon="21.9209">
		<comp name="--.HNE" depth="0.0">
			<acc value="0.0217841869867277" flag="0"/>
			<vel value="0.0162300756288211" flag="0"/>
			<psa03 value="0.0679837535900148" flag="0"/>
			<psa10 value="0.0291057362371796" flag="0"/>
			<psa30 value="0.00138475329560954" flag="0"/>
		</comp>
		<comp name="--.HNN" depth="0.0">
			<acc value="0.025360941675772" flag="0"/>
			<vel value="0.0144865606852075" flag="0"/>
			<psa03 value="0.0591843321299522" flag="0"/>
			<psa10 value="0.0163739521939596" flag="0"/>
			<psa30 value="0.00136760726393559" flag="0"/>
		</comp>
		<comp name="--.HNZ" depth="0.0">
			<acc value="0.0159569464799516" flag="0"/>
			<vel value="0.00931086187587251" flag="0"/>
			<psa03 value="0.0543315054454456" flag="0"/>
			<psa10 value="0.0144815374558029" flag="0"/>
			<psa30 value="0.00057255615820026" flag="0"/>
		</comp>
	</station>
	<station code="DSF" name="DSF" netid="HP" source="University of Patras, Seismological Laboratory (PSLNET)" insttype="" lat="38.4112" lon="22.5271">
		<comp name="--.HNE" depth="1.0">
			<acc value="0.00513221374454829" flag="0"/>
			<vel value="0.0024019709068327" flag="0"/>
			<psa03 value="0.00816529611914936" flag="0"/>
			<psa10 value="0.00227227787100668" flag="0"/>
			<psa30 value="0.00022182992951917" flag="0"/>
		</comp>
		<comp name="--.HNN" depth="1.0">
			<acc value="0.00720363698823536" flag="0"/>
			<vel value="0.00318779493230943" flag="0"/>
			<psa03 value="0.0169235325593153" flag="0"/>
			<psa10 value="0.00309194763885776" flag="0"/>
			<psa30 value="0.000231629771418725" flag="0"/>
		</comp>
		<comp name="--.HNZ" depth="1.0">
			<acc value="0.00315828943981816" flag="0"/>
			<vel value="0.0020870101803691" flag="0"/>
			<psa03 value="0.00489496000925344" flag="0"/>
			<psa10 value="0.00187184251600399" flag="0"/>
			<psa30 value="0.000236252812047597" flag="0"/>
		</comp>
	</station>
	<station code="FSK" name="FSK" netid="HP" source="University of Patras, Seismological Laboratory (PSLNET)" insttype="" lat="38.4593" lon="20.5623">
		<comp name="--.HNE" depth="0.0">
			<acc value="0.111744631030596" flag="0"/>
			<vel value="0.0238365485517611" flag="0"/>
			<psa03 value="0.0581748746331694" flag="0"/>
			<psa10 value="0.0144240011443036" flag="0"/>
			<psa30 value="0.000809009217890624" flag="0"/>
		</comp>
		<comp name="--.HNN" depth="0.0">
			<acc value="0.030200080857453" flag="0"/>
			<vel value="0.00815626120871188" flag="0"/>
			<psa03 value="0.0421926466182687" flag="0"/>
			<psa10 value="0.012410315559987" flag="0"/>
			<psa30 value="0.000635458137647497" flag="0"/>
		</comp>
		<comp name="--.HNZ" depth="0.0">
			<acc value="0.034526573619291" flag="0"/>
			<vel value="0.00638742192315303" flag="0"/>
			<psa03 value="0.0201599318507245" flag="0"/>
			<psa10 value="0.00791102437905694" flag="0"/>
			<psa30 value="0.000366233479920657" flag="0"/>
		</comp>
	</station>
	<station code="LTHK" name="LTHK" netid="HP" source="University of Patras, Seismological Laboratory (PSLNET)" insttype="" lat="37.7095" lon="20.8367">
		<comp name="--.HNE" depth="0.0">
			<acc value="0.0109257547841164" flag="0"/>
			<vel value="0.00303909544317878" flag="0"/>
			<psa03 value="0.0145362129527542" flag="0"/>
			<psa10 value="0.00377564886820619" flag="0"/>
			<psa30 value="0.000215809465588903" flag="0"/>
		</comp>
		<comp name="--.HNN" depth="0.0">
			<acc value="0.00993538201547171" flag="0"/>
			<vel value="0.00371584474357388" flag="0"/>
			<psa03 value="0.013143198797435" flag="0"/>
			<psa10 value="0.00259201772407826" flag="0"/>
			<psa30 value="0.000158039427669743" flag="0"/>
		</comp>
		<comp name="--.HNZ" depth="0.0">
			<acc value="0.00590802351516222" flag="0"/>
			<vel value="0.00194620575524682" flag="0"/>
			<psa03 value="0.0100224972745983" flag="0"/>
			<psa10 value="0.00215994386693178" flag="0"/>
			<psa30 value="0.000160287415129516" flag="0"/>
		</comp>
	</station>
	<station code="LTK" name="LTK" netid="HP" source="University of Patras, Seismological Laboratory (PSLNET)" insttype="" lat="38.0228" lon="22.9673">
		<comp name="--.HNE" depth="0.0">
			<acc value="0.000996223990068919" flag="0"/>
			<vel value="0.00130573257493083" flag="0"/>
			<psa03 value="0.00234862531146433" flag="0"/>
			<psa10 value="0.00301429569792279" flag="0"/>
			<psa30 value="0.000163745235338981" flag="0"/>
		</comp>
		<comp name="--.HNN" depth="0.0">
			<acc value="0.00135556755637377" flag="0"/>
			<vel value="0.001297901664145" flag="0"/>
			<psa03 value="0.00328805928914518" flag="0"/>
			<psa10 value="0.00228397067684635" flag="0"/>
			<psa30 value="0.000187366383457348" flag="0"/>
		</comp>
		<comp name="--.HNZ" depth="0.0">
			<acc value="0.000899813367988666" flag="0"/>
			<vel value="0.000729800981465316" flag="0"/>
			<psa03 value="0.00302151038158694" flag="0"/>
			<psa10 value="0.00104556609955872" flag="0"/>
			<psa30 value="0.000113864352850275" flag="0"/>
		</comp>
	</station>
	<station code="PDO" name="PDO" netid="HP" source="University of Patras, Seismological Laboratory (PSLNET)" insttype="" lat="38.5986" lon="21.1833">
		<comp name="--.HNE" depth="0.0">
			<acc value="0.310859143627447" flag="0"/>
			<vel value="0.123395786737002" flag="0"/>
			<psa03 value="0.460613513383842" flag="0"/>
			<psa10 value="0.111429691670281" flag="0"/>
			<psa30 value="0.00688401186533329" flag="0"/>
		</comp>
		<comp name="--.HNN" depth="0.0">
			<acc value="0.399126703058032" flag="0"/>
			<vel value="0.118788327695186" flag="0"/>
			<psa03 value="0.529097883473197" flag="0"/>
			<psa10 value="0.0410849691775033" flag="0"/>
