<?xml version="1.0" encoding="UTF-8" standalone="yes"?>
<!DOCTYPE earthquake SYSTEM "stationlist.dtd">
<stationlist created="" xmlns="ch.ethz.sed.shakemap.usgs.xml">
  <station code="AXAR" name="AXAR" netid="HA" insttype="30" lat="38.7664" lon="22.659">
    <comp name="--.HHN">
      <acc value="0.0012566665" flag="0"/>
      <vel value="0.0009228147" flag="0"/>
      <psa03 value="0.0060302716" flag="0"/>
      <psa10 value="0.0012829123" flag="0"/>
      <psa30 value="0.0001023931" flag="0"/>
    </comp>
    <comp name="--.HHE">
      <acc value="0.0020812787" flag="0"/>
      <vel value="0.0013798247" flag="0"/>
      <psa03 value="0.0069391900" flag="0"/>
      <psa10 value="0.0012165635" flag="0"/>
      <psa30 value="0.0001260871" flag="0"/>
    </comp>
    <comp name="--.HHZ">
      <acc value="0.0010740101" flag="0"/>
      <vel value="0.0006058173" flag="0"/>
      <psa03 value="0.0028055592" flag="0"/>
      <psa10 value="0.0006711029" flag="0"/>
      <psa30 value="0.0000752437" flag="0"/>
    </comp>
  </station>
  <station code="KALE" name="KALE" netid="HA" insttype="40," lat="38.3911" lon="22.1398">
    <comp name="--.HHN">
      <acc value="0.0103010235" flag="0"/>
      <vel value="0.0054590780" flag="0"/>
      <psa03 value="0.0286719608" flag="0"/>
      <psa10 value="0.0063063132" flag="0"/>
      <psa30 value="0.0004985755" flag="0"/>
    </comp>
    <comp name="--.HHE">
      <acc value="0.0091001491" flag="0"/>
      <vel value="0.0043806558" flag="0"/>
      <psa03 value="0.0203712649" flag="0"/>
      <psa10 value="0.0053845942" flag="0"/>
      <psa30 value="0.0005630595" flag="0"/>
    </comp>
    <comp name="--.HHZ">
      <acc value="0.0049642248" flag="0"/>
      <vel value="0.0028756492" flag="0"/>
      <psa03 value="0.0156602040" flag="0"/>
      <psa10 value="0.0036377217" flag="0"/>
      <psa30 value="0.0003488745" flag="0"/>
    </comp>
  </station>
  <station code="LAKA" name="LAKA" netid="HA" insttype="120s" lat="38.2401" lon="21.9785">
    <comp name="--.HHN">
      <acc value="0.0000796122" flag="0"/>
      <vel value="0.0000081587" flag="0"/>
      <psa03 value="0.0000300178" flag="0"/>
      <psa10 value="0.0000083074" flag="0"/>
      <psa30 value="0.0000012430" flag="0"/>
    </comp>
    <comp name="--.HHE">
      <acc value="0.0000570960" flag="0"/>
      <vel value="0.0000062062" flag="0"/>
      <psa03 value="0.0000209674" flag="0"/>
      <psa10 value="0.0000062556" flag="0"/>
      <psa30 value="0.0000009724" flag="0"/>
    </comp>
    <comp name="--.HHZ">
      <acc value="0.0039552626" flag="0"/>
      <vel value="0.0018130894" flag="0"/>
      <psa03 value="0.0064398226" flag="0"/>
      <psa10 value="0.0030047495" flag="0"/>
      <psa30 value="0.0003407244" flag="0"/>
    </comp>
  </station>
  <station code="EVR" name="EVR" netid="HL" insttype="DR24" lat="38.9166" lon="21.8105">
    <comp name="--.HHE">
      <acc value="0.0379962558" flag="0"/>
      <vel value="0.0177558407" flag="0"/>
      <psa03 value="0.0721956692" flag="0"/>
      <psa10 value="0.0109041617" flag="0"/>
      <psa30 value="0.0014249848" flag="0"/>
    </comp>
    <comp name="--.HHN">
      <acc value="0.0309820154" flag="0"/>
      <vel value="0.0144160707" flag="0"/>
      <psa03 value="0.0448402951" flag="0"/>
      <psa10 value="0.0154783625" flag="0"/>
      <psa30 value="0.0014748764" flag="0"/>
    </comp>
    <comp name="--.HHZ">
      <acc value="0.0322386857" flag="0"/>
      <vel value="0.0133556590" flag="0"/>
      <psa03 value="0.0280401729" flag="0"/>
      <psa10 value="0.0176439609" flag="0"/>
      <psa30 value="0.0020095759" flag="0"/>
    </comp>
  </station>
  <station code="JAN" name="JAN" netid="HL" insttype="CMG3EPSC60_DR24" lat="39.6562" lon="20.8487">
    <comp name="--.HHZ">
      <acc value="0.0121289225" flag="0"/>
      <vel value="0.0055250904" flag="0"/>
      <psa03 value="0.0451941589" flag="0"/>
      <psa10 value="0.0085866685" flag="0"/>
      <psa30 value="0.0005291036" flag="0"/>
    </comp>
    <comp name="--.HHN">
      <acc value="0.0200173711" flag="0"/>
      <vel value="0.0093089724" flag="0"/>
      <psa03 value="0.0694594945" flag="0"/>
      <psa10 value="0.0104665809" flag="0"/>
      <psa30 value="0.0006953879" flag="0"/>
    </comp>
    <comp name="--.HHE">
      <acc value="0.0285031495" flag="0"/>
      <vel value="0.0141912252" flag="0"/>
      <psa03 value="0.1008585929" flag="0"/>
      <psa10 value="0.0179183139" flag="0"/>
      <psa30 value="0.0007976019" flag="0"/>
    </comp>
  </station>
  <station code="KLV" name="KLV" netid="HL" insttype="120" lat="38.0435" lon="22.1504">
    <comp name="--.HHN">
      <acc value="0.0022477270" flag="0"/>
      <vel value="0.0018348417" flag="0"/>
      <psa03 value="0.0058916423" flag="0"/>
      <psa10 value="0.0035035697" flag="0"/>
      <psa30 value="0.0003959927" flag="0"/>
    </comp>
    <comp name="--.HHE">
      <acc value="0.0023805831" flag="0"/>
      <vel value="0.0028899764" flag="0"/>
      <psa03 value="0.0046079893" flag="0"/>
      <psa10 value="0.0034757761" flag="0"/>
      <psa30 value="0.0002660739" flag="0"/>
    </comp>
    <comp name="--.HHZ">
      <acc value="0.0027746287" flag="0"/>
      <vel value="0.0021058726" flag="0"/>
      <psa03 value="0.0047238871" flag="0"/>
      <psa10 value="0.0038426400" flag="0"/>
      <psa30 value="0.0004522568" flag="0"/>
    </comp>
  </station>
  <station code="PATC" name="PATC" netid="HL" insttype="CMG-5" lat="38.2693" lon="21.76">
    <comp name="00.HNZ">
      <acc value="0.0212992937" flag="0"/>
      <vel value="0.0062580637" flag="0"/>
      <psa03 value="0.0258147351" flag="0"/>
      <psa10 value="0.0059282822" flag="0"/>
      <psa30 value="0.0005799827" flag="0"/>
    </comp>
    <comp name="00.HNN">
      <acc value="0.0169120979" flag="0"/>
      <vel value="0.0117282444" flag="0"/>
      <psa03 value="0.0381205401" flag="0"/>
      <psa10 value="0.0221960552" flag="0"/>
      <psa30 value="0.0015935992" flag="0"/>
    </comp>
    <comp name="00.HNE">
      <acc value="0.0163844557" flag="0"/>
      <vel value="0.0119321355" flag="0"/>
      <psa03 value="0.0581093340" flag="0"/>
      <psa10 value="0.0149856828" flag="0"/>
      <psa30 value="0.0021747428" flag="0"/>
    </comp>
  </station>
  <station code="RLS" name="RLS" netid="HL" insttype="CMG3ESPC-120s" lat="38.0559" lon="21.4647">
    <comp name="--.HHN">
      <acc value="0.0070477863" flag="0"/>
      <vel value="0.0030222487" flag="0"/>
      <psa03 value="0.0095959873" flag="0"/>
      <psa10 value="0.0030440145" flag="0"/>
      <psa30 value="0.0003513375" flag="0"/>
    </comp>
    <comp name="--.HHZ">
      <acc value="0.0058983724" flag="0"/>
      <vel value="0.0014623390" flag="0"/>
      <psa03 value="0.0071620579" flag="0"/>
      <psa10 value="0.0014012034" flag="0"/>
      <psa30 value="0.0002059078" flag="0"/>
    </comp>
    <comp name="--.HHE">
      <acc value="0.0067762204" flag="0"/>
      <vel value="0.0029076860" flag="0"/>
      <psa03 value="0.0107923985" flag="0"/>
      <psa10 value="0.0028101560" flag="0"/>
      <psa30 value="0.0002839376" flag="0"/>
    </comp>
  </station>
  <station code="TETR" name="TETR" netid="HL" insttype="60" lat="39.3445" lon="21.2747">
    <comp name="--.HHN">
      <acc value="0.1027340463" flag="0"/>
      <vel value="0.0312237149" flag="0"/>
      <psa03 value="0.1464867877" flag="0"/>
      <psa10 value="0.0105860766" flag="0"/>
      <psa30 value="0.0007780730" flag="0"/>
    </comp>
    <comp name="--.HHE">
      <acc value="0.1175215965" flag="0"/>
      <vel value="0.0445448089" flag="0"/>
      <psa03 value="0.2015451931" flag="0"/>
      <psa10 value="0.0154628498" flag="0"/>
      <psa30 value="0.0011458932" flag="0"/>
    </comp>
    <comp name="--.HHZ">
      <acc value="0.0381596810" flag="0"/>
      <vel value="0.0127953666" flag="0"/>
      <psa03 value="0.0850949211" flag="0"/>
      <psa10 value="0.0076061404" flag="0"/>
      <psa30 value="0.0005263441" flag="0"/>
    </comp>
  </station>
  <station code="THL" name="THL" netid="HL" insttype="120" lat="39.5647" lon="22.0144">
    <comp name="--.HHE">
      <acc value="0.0073704811" flag="0"/>
      <vel value="0.0054726871" flag="0"/>
      <psa03 value="0.0168980572" flag="0"/>
      <psa10 value="0.0055405563" flag="0"/>
      <psa30 value="0.0003800335" flag="0"/>
    </comp>
    <comp name="--.HHN">
      <acc value="0.0056735177" flag="0"/>
      <vel value="0.0037342640" flag="0"/>
      <psa03 value="0.0135442889" flag="0"/>
      <psa10 value="0.0031354707" flag="0"/>
      <psa30 value="0.0002916811" flag="0"/>
    </comp>
    <comp name="--.HHZ">
      <acc value="0.0036606946" flag="0"/>
      <vel value="0.0030123307" flag="0"/>
      <psa03 value="0.0077811939" flag="0"/>
      <psa10 value="0.0035273528" flag="0"/>
      <psa30 value="0.0002698114" flag="0"/>
    </comp>
  </station>
  <station code="VLS" name="VLS" netid="HL" insttype="120P," lat="38.1768" lon="20.5886">
    <comp name="--.HHE">
      <acc value="0.1119030485" flag="0"/>
      <vel value="0.0152017274" flag="0"/>
      <psa03 value="0.0225286334" flag="0"/>
      <psa10 value="0.0036485255" flag="0"/>
      <psa30 value="0.0003340574" flag="0"/>
    </comp>
    <comp name="--.HHN">
      <acc value="0.0671437654" flag="0"/>
      <vel value="0.0091298690" flag="0"/>
      <psa03 value="0.0229162903" flag="0"/>
      <psa10 value="0.0041308845" flag="0"/>
      <psa30 value="0.0002520818" flag="0"/>
    </comp>
    <comp name="--.HHZ">
      <acc value="0.0315790442" flag="0"/>
      <vel value="0.0063395748" flag="0"/>
      <psa03 value="0.0193247409" flag="0"/>
      <psa10 value="0.0032976945" flag="0"/>
      <psa30 value="0.0002985579" flag="0"/>
    </comp>
  </station>
  <station code="AMPL" name="AMPL" netid="HP" insttype="Compact," lat="38.9224" lon="21.2135">
    <comp name="--.HHE">
      <acc value="0.8770385906" flag="0"/>
      <vel value="0.2508496440" flag="0"/>
      <psa03 value="0.6014429817" flag="0"/>
      <psa10 value="0.1197059878" flag="0"/>
      <psa30 value="0.0099206113" flag="0"/>
    </comp>
    <comp name="--.HHN">
      <acc value="1.4317459065" flag="0"/>
      <vel value="0.2048319370" flag="0"/>
      <psa03 value="0.5944092061" flag="0"/>
      <psa10 value="0.0405944536" flag="0"/>
      <psa30 value="0.0038114171" flag="0"/>
    </comp>
    <comp name="--.HHZ">
      <acc value="0.4977065400" flag="0"/>
      <vel value="0.0945747417" flag="0"/>
      <psa03 value="0.3674836409" flag="0"/>
      <psa10 value="0.0604438318" flag="0"/>
      <psa30 value="0.0024997974" flag="0"/>
    </comp>
  </station>
  <station code="ANX" name="ANX" netid="HP" insttype="120" lat="38.5933" lon="21.9209">
    <comp name="--.HHE">
      <acc value="0.0174192089" flag="0"/>
      <vel value="0.0128222060" flag="0"/>
      <psa03 value="0.0543492587" flag="0"/>
      <psa10 value="0.0229383214" flag="0"/>
      <psa30 value="0.0010970471" flag="0"/>
    </comp>
    <comp name="--.HHN">
      <acc value="0.0206409675" flag="0"/>
      <vel value="0.0117969297" flag="0"/>
      <psa03 value="0.0454263466" flag="0"/>
      <psa10 value="0.0141235915" flag="0"/>
      <psa30 value="0.0009923285" flag="0"/>
    </comp>
    <comp name="--.HHZ">
      <acc value="0.0132158532" flag="0"/>
      <vel value="0.0073901911" flag="0"/>
      <psa03 value="0.0444839900" flag="0"/>
      <psa10 value="0.0116360265" flag="0"/>
      <psa30 value="0.0004294557" flag="0"/>
    </comp>
  </station>
  <station code="AXS" name="AXS" netid="HP" insttype="40," lat="38.1962" lon="21.3763">
    <comp name="--.HHZ">
      <acc value="0.0067381444" flag="0"/>
      <vel value="0.0014286678" flag="0"/>
      <psa03 value="0.0055305460" flag="0"/>
      <psa10 value="0.0010109575" flag="0"/>
      <psa30 value="0.0001083371" flag="0"/>
    </comp>
    <comp name="--.HHE">
      <acc value="0.0072053994" flag="0"/>
      <vel value="0.0027620623" flag="0"/>
      <psa03 value="0.0104669927" flag="0"/>
      <psa10 value="0.0018955736" flag="0"/>
      <psa30 value="0.0001298513" flag="0"/>
    </comp>
    <comp name="--.HHN">
      <acc value="0.0060812794" flag="0"/>
      <vel value="0.0026286302" flag="0"/>
      <psa03 value="0.0120550260" flag="0"/>
      <psa10 value="0.0014662246" flag="0"/>
      <psa30 value="0.0001169090" flag="0"/>
    </comp>
  </station>
  <station code="DRO" name="DRO" netid="HP" insttype="120P," lat="37.952" lon="21.71">
    <comp name="--.HHN">
      <acc value="0.0148477602" flag="0"/>
      <vel value="0.0055462216" flag="0"/>
      <psa03 value="0.0306822301" flag="0"/>
      <psa10 value="0.0041261148" flag="0"/>
      <psa30 value="0.0004608969" flag="0"/>
    </comp>
    <comp name="--.HHE">
      <acc value="0.0138405250" flag="0"/>
      <vel value="0.0074444984" flag="0"/>
      <psa03 value="0.0331624151" flag="0"/>
      <psa10 value="0.0073972917" flag="0"/>
      <psa30 value="0.0003787645" flag="0"/>
    </comp>
    <comp name="--.HHZ">
      <acc value="0.0062392830" flag="0"/>
      <vel value="0.0024016684" flag="0"/>
      <psa03 value="0.0124954756" flag="0"/>
      <psa10 value="0.0031203870" flag="0"/>
      <psa30 value="0.0002399864" flag="0"/>
    </comp>
  </station>
  <station code="DSF" name="DSF" netid="HP" insttype="120P," lat="38.4112" lon="22.5271">
    <comp name="--.HHN">
      <acc value="0.0094075498" flag="0"/>
      <vel value="0.0032441301" flag="0"/>
      <psa03 value="0.0175730716" flag="0"/>
      <psa10 value="0.0030907390" flag="0"/>
      <psa30 value="0.0002901025" flag="0"/>
    </comp>
    <comp name="--.HHE">
      <acc value="0.0056803229" flag="0"/>
      <vel value="0.0023905901" flag="0"/>
      <psa03 value="0.0090767071" flag="0"/>
      <psa10 value="0.0022996702" flag="0"/>
      <psa30 value="0.0002665197" flag="0"/>
    </comp>
    <comp name="--.HHZ">
      <acc value="0.0038514814" flag="0"/>
      <vel value="0.0021637741" flag="0"/>
      <psa03 value="0.0049920272" flag="0"/>
      <psa10 value="0.0018416338" flag="0"/>
      <psa30 value="0.0002432270" flag="0"/>
    </comp>
  </station>
  <station code="EFP" name="EFP" netid="HP" insttype="40," lat="38.4269" lon="21.9058">
    <comp name="--.HHE">
      <acc value="0.0194053361" flag="0"/>
      <vel value="0.0090909486" flag="0"/>
      <psa03 value="0.0652202551" flag="0"/>
      <psa10 value="0.0117331874" flag="0"/>
      <psa30 value="0.0007651991" flag="0"/>
    </comp>
    <comp name="--.HHN">
      <acc value="0.0202258731" flag="0"/>
      <vel value="0.0089105744" flag="0"/>
      <psa03 value="0.0433750736" flag="0"/>
      <psa10 value="0.0103283889" flag="0"/>
      <psa30 value="0.0006011468" flag="0"/>
    </comp>
    <comp name="--.HHZ">
      <acc value="0.0129613768" flag="0"/>
      <vel value="0.0088909304" flag="0"/>
      <psa03 value="0.0269787478" flag="0"/>
      <psa10 value="0.0083847266" flag="0"/>
      <psa30 value="0.0004765852" flag="0"/>
    </comp>
  </station>
  <station code="FSK" name="FSK" netid="HP" insttype="40," lat="38.4593" lon="20.5623">
    <comp name="--.HHE">
      <acc value="0.1037582016" flag="0"/>
      <vel value="0.0217421506" flag="0"/>
      <psa03 value="0.0591900579" flag="0"/>
      <psa10 value="0.0149694907" flag="0"/>
      <psa30 value="0.0008554066" flag="0"/>
    </comp>
    <comp name="--.HHZ">
      <acc value="0.0349576415" flag="0"/>
      <vel value="0.0062913401" flag="0"/>
      <psa03 value="0.0199641539" flag="0"/>
      <psa10 value="0.0079612038" flag="0"/>
      <psa30 value="0.0003804187" flag="0"/>
    </comp>
    <comp name="--.HHN">
      <acc value="0.0330047823" flag="0"/>
      <vel value="0.0085854914" flag="0"/>
      <psa03 value="0.0365024696" flag="0"/>
      <psa10 value="0.0109392457" flag="0"/>
      <psa30 value="0.0007916125" flag="0"/>
    </comp>
  </station>
  <station code="KSTR" name="KSTR" netid="HP" insttype="Compact," lat="39.2492" lon="20.576">
    <comp name="--.HHN">
      <acc value="0.0180856421" flag="0"/>
      <vel value="0.0066727021" flag="0"/>
      <psa03 value="0.0493468956" flag="0"/>
      <psa10 value="0.0055868867" flag="0"/>
      <psa30 value="0.0004009128" flag="0"/>
    </comp>
    <comp name="--.HHE">
      <acc value="0.0197443944" flag="0"/>
      <vel value="0.0079624025" flag="0"/>
      <psa03 value="0.0814543901" flag="0"/>
      <psa10 value="0.0069970201" flag="0"/>
      <psa30 value="0.0004978350" flag="0"/>
    </comp>
    <comp name="--.HHZ">
      <acc value="0.0115760230" flag="0"/>
      <vel value="0.0056561120" flag="0"/>
      <psa03 value="0.0343713103" flag="0"/>
      <psa10 value="0.0054259639" flag="0"/>
      <psa30 value="0.0007223417" flag="0"/>
    </comp>
  </station>
  <station code="PDO" name="PDO" netid="HP" insttype="120s" lat="38.5986" lon="21.1833">
    <comp name="--.HHZ">
      <acc value="0.4377493142" flag="0"/>
      <vel value="0.1085475224" flag="0"/>
      <psa03 value="0.2655715389" flag="0"/>
      <psa10 value="0.0181994213" flag="0"/>
      <psa30 value="0.0013872680" flag="0"/>
    </comp>
    <comp name="--.HHN">
      <acc value="0.4284766731" flag="0"/>
      <vel value="0.1223027620" flag="0"/>
      <psa03 value="0.5442646388" flag="0"/>
      <psa10 value="0.0426702306" flag="0"/>
      <psa30 value="0.0042802930" flag="0"/>
    </comp>
    <comp name="--.HHE">
      <acc value="0.3140559753" flag="0"/>
      <vel value="0.1217260395" flag="0"/>
      <psa03 value="0.4716778944" flag="0"/>
      <psa10 value="0.1113477321" flag="0"/>
      <psa30 value="0.0072598434" flag="0"/>
    </comp>
  </station>
  <station code="PLEV" name="PLEV" netid="HP" insttype="Compact," lat="38.4124" lon="21.4073">
    <comp name="--.HHE">
      <acc value="0.0301905058" flag="0"/>
      <vel value="0.0133016650" flag="0"/>
      <psa03 value="0.0415234572" flag="0"/>
      <psa10 value="0.0216340643" flag="0"/>
      <psa30 value="0.0008239401" flag="0"/>
    </comp>
    <comp name="--.HHN">
      <acc value="0.0281133048" flag="0"/>
      <vel value="0.0112240954" flag="0"/>
      <psa03 value="0.0454366753" flag="0"/>
      <psa10 value="0.0120792202" flag="0"/>
      <psa30 value="0.0005905452" flag="0"/>
    </comp>
    <comp name="--.HHZ">
      <acc value="0.0229032768" flag="0"/>
      <vel value="0.0071466351" flag="0"/>
      <psa03 value="0.0245000161" flag="0"/>
      <psa10 value="0.0065083488" flag="0"/>
      <psa30 value="0.0007280458" flag="0"/>
    </comp>
  </station>
  <station code="PRMD" name="PRMD" netid="HP" insttype="120P," lat="39.5299" lon="21.0965">
    <comp name="--.HHE">
      <acc value="0.0351613636" flag="0"/>
      <vel value="0.0139909609" flag="0"/>
      <psa03 value="0.0984975765" flag="0"/>
      <psa10 value="0.0072968658" flag="0"/>
      <psa30 value="0.0008443364" flag="0"/>
    </comp>
    <comp name="--.HHN">
      <acc value="0.0246604367" flag="0"/>
      <vel value="0.0113448239" flag="0"/>
      <psa03 value="0.0859905128" flag="0"/>
      <psa10 value="0.0073802310" flag="0"/>
      <psa30 value="0.0007048155" flag="0"/>
    </comp>
    <comp name="--.HHZ">
      <acc value="0.0204380472" flag="0"/>
      <vel value="0.0076517883" flag="0"/>
      <psa03 value="0.0610010966" flag="0"/>
      <psa10 value="0.0076516142" flag="0"/>
      <psa30 value="0.0005805844" flag="0"/>
    </comp>
  </station>
  <station code="PVO" name="PVO" netid="HP" insttype="120P," lat="38.616" lon="21.525">
    <comp name="--.HHE">
      <acc value="0.1037825542" flag="0"/>
      <vel value="0.0241696437" flag="0"/>
      <psa03 value="0.0774543482" flag="0"/>
      <psa10 value="0.0289576709" flag="0"/>
      <psa30 value="0.0025805458" flag="0"/>
    </comp>
    <comp name="--.HHN">
      <acc value="0.0915834033" flag="0"/>
      <vel value="0.0219493554" flag="0"/>
      <psa03 value="0.1137786003" flag="0"/>
