<?xml version="1.0" encoding="UTF-8" standalone="yes"?>
<!DOCTYPE earthquake SYSTEM "stationlist.dtd">
<stationlist created="" xmlns="ch.ethz.sed.shakemap.usgs.xml">
  <station code="AXAR" name="AXAR" netid="HA" insttype="30" lat="38.7664" lon="22.659">
    <comp name="--.HHN">
      <acc value="0.0012566665" flag="0"/>
      <vel value="0.0009228146" flag="0"/>
      <psa03 value="0.0060302716" flag="0"/>
      <psa10 value="0.0012829123" flag="0"/>
      <psa30 value="0.0001023947" flag="0"/>
    </comp>
    <comp name="--.HHE">
      <acc value="0.0020812787" flag="0"/>
      <vel value="0.0013798246" flag="0"/>
      <psa03 value="0.0069391900" flag="0"/>
      <psa10 value="0.0012165635" flag="0"/>
      <psa30 value="0.0001260874" flag="0"/>
    </comp>
    <comp name="--.HHZ">
      <acc value="0.0010740101" flag="0"/>
      <vel value="0.0006058174" flag="0"/>
      <psa03 value="0.0028055592" flag="0"/>
      <psa10 value="0.0006711029" flag="0"/>
      <psa30 value="0.0000752440" flag="0"/>
    </comp>
  </station>
  <station code="KALE" name="KALE" netid="HA" insttype="40," lat="38.3911" lon="22.1398">
    <comp name="--.HHE">
      <acc value="0.0091001491" flag="0"/>
      <vel value="0.0043806560" flag="0"/>
      <psa03 value="0.0203712649" flag="0"/>
      <psa10 value="0.0053845942" flag="0"/>
      <psa30 value="0.0005630529" flag="0"/>
    </comp>
    <comp name="--.HHN">
      <acc value="0.0103010236" flag="0"/>
      <vel value="0.0054590780" flag="0"/>
      <psa03 value="0.0286719608" flag="0"/>
      <psa10 value="0.0063063132" flag="0"/>
      <psa30 value="0.0004985722" flag="0"/>
    </comp>
    <comp name="--.HHZ">
      <acc value="0.0049642248" flag="0"/>
      <vel value="0.0028756497" flag="0"/>
      <psa03 value="0.0156602040" flag="0"/>
      <psa10 value="0.0036377217" flag="0"/>
      <psa30 value="0.0003488740" flag="0"/>
    </comp>
  </station>
  <station code="LAKA" name="LAKA" netid="HA" insttype="120s" lat="38.2401" lon="21.9785">
    <comp name="--.HHN">
      <acc value="0.0000796122" flag="0"/>
      <vel value="0.0000081587" flag="0"/>
      <psa03 value="0.0000300178" flag="0"/>
      <psa10 value="0.0000083074" flag="0"/>
      <psa30 value="0.0000012430" flag="0"/>
    </comp>
    <comp name="--.HHE">
      <acc value="0.0000570960" flag="0"/>
      <vel value="0.0000062062" flag="0"/>
      <psa03 value="0.0000209674" flag="0"/>
      <psa10 value="0.0000062556" flag="0"/>
      <psa30 value="0.0000009724" flag="0"/>
    </comp>
    <comp name="--.HHZ">
      <acc value="0.0039552626" flag="0"/>
      <vel value="0.0018130895" flag="0"/>
      <psa03 value="0.0064398226" flag="0"/>
      <psa10 value="0.0030047495" flag="0"/>
      <psa30 value="0.0003407230" flag="0"/>
    </comp>
  </station>
  <station code="EVR" name="EVR" netid="HL" insttype="DR24" lat="38.9166" lon="21.8105">
    <comp name="--.HHZ">
      <acc value="0.0322386855" flag="0"/>
      <vel value="0.0133556592" flag="0"/>
      <psa03 value="0.0280401729" flag="0"/>
      <psa10 value="0.0176439605" flag="0"/>
      <psa30 value="0.0020095796" flag="0"/>
    </comp>
    <comp name="--.HHN">
      <acc value="0.0309820158" flag="0"/>
      <vel value="0.0144160700" flag="0"/>
      <psa03 value="0.0448402951" flag="0"/>
      <psa10 value="0.0154783629" flag="0"/>
      <psa30 value="0.0014747881" flag="0"/>
    </comp>
    <comp name="--.HHE">
      <acc value="0.0379962555" flag="0"/>
      <vel value="0.0177558389" flag="0"/>
      <psa03 value="0.0721956692" flag="0"/>
      <psa10 value="0.0109041612" flag="0"/>
      <psa30 value="0.0014249356" flag="0"/>
    </comp>
  </station>
  <station code="JAN" name="JAN" netid="HL" insttype="CMG3EPSC60_DR24" lat="39.6562" lon="20.8487">
    <comp name="--.HHE">
      <acc value="0.0285031495" flag="0"/>
      <vel value="0.0141912242" flag="0"/>
      <psa03 value="0.1008585929" flag="0"/>
      <psa10 value="0.0179183140" flag="0"/>
      <psa30 value="0.0007975789" flag="0"/>
    </comp>
    <comp name="--.HHZ">
      <acc value="0.0121289226" flag="0"/>
      <vel value="0.0055250907" flag="0"/>
      <psa03 value="0.0451941589" flag="0"/>
      <psa10 value="0.0085866685" flag="0"/>
      <psa30 value="0.0005290948" flag="0"/>
    </comp>
    <comp name="--.HHN">
      <acc value="0.0200173710" flag="0"/>
      <vel value="0.0093089719" flag="0"/>
      <psa03 value="0.0694594945" flag="0"/>
      <psa10 value="0.0104665809" flag="0"/>
      <psa30 value="0.0006953965" flag="0"/>
    </comp>
  </station>
  <station code="KLV" name="KLV" netid="HL" insttype="120" lat="38.0435" lon="22.1504">
    <comp name="--.HHZ">
      <acc value="0.0027746287" flag="0"/>
      <vel value="0.0021058723" flag="0"/>
      <psa03 value="0.0047238871" flag="0"/>
      <psa10 value="0.0038426400" flag="0"/>
      <psa30 value="0.0004522743" flag="0"/>
    </comp>
    <comp name="--.HHN">
      <acc value="0.0022477271" flag="0"/>
      <vel value="0.0018348422" flag="0"/>
      <psa03 value="0.0058916423" flag="0"/>
      <psa10 value="0.0035035697" flag="0"/>
      <psa30 value="0.0003960109" flag="0"/>
    </comp>
    <comp name="--.HHE">
      <acc value="0.0023805831" flag="0"/>
      <vel value="0.0028899760" flag="0"/>
      <psa03 value="0.0046079893" flag="0"/>
      <psa10 value="0.0034757761" flag="0"/>
      <psa30 value="0.0002660867" flag="0"/>
    </comp>
  </station>
  <station code="PATC" name="PATC" netid="HL" insttype="CMG-5" lat="38.2693" lon="21.76">
    <comp name="00.HNN">
      <acc value="0.0169120980" flag="0"/>
      <vel value="0.0117282432" flag="0"/>
      <psa03 value="0.0381205401" flag="0"/>
      <psa10 value="0.0221960552" flag="0"/>
      <psa30 value="0.0015935959" flag="0"/>
    </comp>
    <comp name="00.HNZ">
      <acc value="0.0212992920" flag="0"/>
      <vel value="0.0062580635" flag="0"/>
      <psa03 value="0.0258147351" flag="0"/>
      <psa10 value="0.0059282823" flag="0"/>
      <psa30 value="0.0005799812" flag="0"/>
    </comp>
    <comp name="00.HNE">
      <acc value="0.0163844552" flag="0"/>
      <vel value="0.0119321344" flag="0"/>
      <psa03 value="0.0581093340" flag="0"/>
      <psa10 value="0.0149856828" flag="0"/>
      <psa30 value="0.0021747180" flag="0"/>
    </comp>
  </station>
  <station code="RLS" name="RLS" netid="HL" insttype="CMG3ESPC-120s" lat="38.0559" lon="21.4647">
    <comp name="--.HHZ">
      <acc value="0.0058983724" flag="0"/>
      <vel value="0.0014623390" flag="0"/>
      <psa03 value="0.0071620579" flag="0"/>
      <psa10 value="0.0014012034" flag="0"/>
      <psa30 value="0.0002059073" flag="0"/>
    </comp>
    <comp name="--.HHE">
      <acc value="0.0067762204" flag="0"/>
      <vel value="0.0029076861" flag="0"/>
      <psa03 value="0.0107923985" flag="0"/>
      <psa10 value="0.0028101560" flag="0"/>
      <psa30 value="0.0002839366" flag="0"/>
    </comp>
    <comp name="--.HHN">
      <acc value="0.0070477862" flag="0"/>
      <vel value="0.0030222483" flag="0"/>
      <psa03 value="0.0095959873" flag="0"/>
      <psa10 value="0.0030440145" flag="0"/>
      <psa30 value="0.0003513315" flag="0"/>
    </comp>
  </station>
  <station code="TETR" name="TETR" netid="HL" insttype="60" lat="39.3445" lon="21.2747">
    <comp name="--.HHN">
      <acc value="0.1027340462" flag="0"/>
      <vel value="0.0312237143" flag="0"/>
      <psa03 value="0.1464867877" flag="0"/>
      <psa10 value="0.0105860766" flag="0"/>
      <psa30 value="0.0007779217" flag="0"/>
    </comp>
    <comp name="--.HHZ">
      <acc value="0.0381596809" flag="0"/>
      <vel value="0.0127953665" flag="0"/>
      <psa03 value="0.0850949211" flag="0"/>
      <psa10 value="0.0076061404" flag="0"/>
      <psa30 value="0.0005263220" flag="0"/>
    </comp>
    <comp name="--.HHE">
      <acc value="0.1175215965" flag="0"/>
      <vel value="0.0445448098" flag="0"/>
      <psa03 value="0.2015451931" flag="0"/>
      <psa10 value="0.0154628497" flag="0"/>
      <psa30 value="0.0011460469" flag="0"/>
    </comp>
  </station>
  <station code="THL" name="THL" netid="HL" insttype="120" lat="39.5647" lon="22.0144">
    <comp name="--.HHN">
      <acc value="0.0056735177" flag="0"/>
      <vel value="0.0037342640" flag="0"/>
      <psa03 value="0.0135442889" flag="0"/>
      <psa10 value="0.0031354707" flag="0"/>
      <psa30 value="0.0002916824" flag="0"/>
    </comp>
    <comp name="--.HHE">
      <acc value="0.0073704811" flag="0"/>
      <vel value="0.0054726872" flag="0"/>
      <psa03 value="0.0168980572" flag="0"/>
      <psa10 value="0.0055405563" flag="0"/>
      <psa30 value="0.0003800338" flag="0"/>
    </comp>
    <comp name="--.HHZ">
      <acc value="0.0036606946" flag="0"/>
      <vel value="0.0030123311" flag="0"/>
      <psa03 value="0.0077811939" flag="0"/>
      <psa10 value="0.0035273528" flag="0"/>
      <psa30 value="0.0002698083" flag="0"/>
    </comp>
  </station>
  <station code="VLS" name="VLS" netid="HL" insttype="120P," lat="38.1768" lon="20.5886">
    <comp name="--.HHN">
      <acc value="0.0671437654" flag="0"/>
      <vel value="0.0091298673" flag="0"/>
      <psa03 value="0.0229162903" flag="0"/>
      <psa10 value="0.0041308845" flag="0"/>
      <psa30 value="0.0002520706" flag="0"/>
    </comp>
    <comp name="--.HHE">
      <acc value="0.1119030485" flag="0"/>
      <vel value="0.0152017261" flag="0"/>
      <psa03 value="0.0225286334" flag="0"/>
      <psa10 value="0.0036485255" flag="0"/>
      <psa30 value="0.0003340488" flag="0"/>
    </comp>
    <comp name="--.HHZ">
      <acc value="0.0315790443" flag="0"/>
      <vel value="0.0063395754" flag="0"/>
      <psa03 value="0.0193247409" flag="0"/>
      <psa10 value="0.0032976946" flag="0"/>
      <psa30 value="0.0002985717" flag="0"/>
    </comp>
  </station>
  <station code="AMPL" name="AMPL" netid="HP" insttype="Compact," lat="38.9224" lon="21.2135">
    <comp name="--.HHN">
      <acc value="1.4317459059" flag="0"/>
      <vel value="0.2048319363" flag="0"/>
      <psa03 value="0.5944092061" flag="0"/>
      <psa10 value="0.0405944523" flag="0"/>
      <psa30 value="0.0038119814" flag="0"/>
    </comp>
    <comp name="--.HHE">
      <acc value="0.8770385908" flag="0"/>
      <vel value="0.2508496435" flag="0"/>
      <psa03 value="0.6014429817" flag="0"/>
      <psa10 value="0.1197059929" flag="0"/>
      <psa30 value="0.0099207136" flag="0"/>
    </comp>
    <comp name="--.HHZ">
      <acc value="0.4977065406" flag="0"/>
      <vel value="0.0945747409" flag="0"/>
      <psa03 value="0.3674836409" flag="0"/>
      <psa10 value="0.0604438324" flag="0"/>
      <psa30 value="0.0024996678" flag="0"/>
    </comp>
  </station>
  <station code="ANX" name="ANX" netid="HP" insttype="120" lat="38.5933" lon="21.9209">
    <comp name="--.HHN">
      <acc value="0.0206409675" flag="0"/>
      <vel value="0.0117969308" flag="0"/>
      <psa03 value="0.0454263466" flag="0"/>
      <psa10 value="0.0141235916" flag="0"/>
      <psa30 value="0.0009922041" flag="0"/>
    </comp>
    <comp name="--.HHE">
      <acc value="0.0174192091" flag="0"/>
      <vel value="0.0128222057" flag="0"/>
      <psa03 value="0.0543492587" flag="0"/>
      <psa10 value="0.0229383215" flag="0"/>
      <psa30 value="0.0010970881" flag="0"/>
    </comp>
    <comp name="--.HHZ">
      <acc value="0.0132158532" flag="0"/>
      <vel value="0.0073901902" flag="0"/>
      <psa03 value="0.0444839900" flag="0"/>
      <psa10 value="0.0116360265" flag="0"/>
      <psa30 value="0.0004294678" flag="0"/>
    </comp>
  </station>
  <station code="AXS" name="AXS" netid="HP" insttype="40," lat="38.1962" lon="21.3763">
    <comp name="--.HHE">
      <acc value="0.0072053994" flag="0"/>
      <vel value="0.0027620618" flag="0"/>
      <psa03 value="0.0104669927" flag="0"/>
      <psa10 value="0.0018955736" flag="0"/>
      <psa30 value="0.0001298650" flag="0"/>
    </comp>
    <comp name="--.HHN">
      <acc value="0.0060812794" flag="0"/>
      <vel value="0.0026286302" flag="0"/>
      <psa03 value="0.0120550260" flag="0"/>
      <psa10 value="0.0014662246" flag="0"/>
      <psa30 value="0.0001169090" flag="0"/>
    </comp>
    <comp name="--.HHZ">
      <acc value="0.0067381444" flag="0"/>
      <vel value="0.0014286680" flag="0"/>
      <psa03 value="0.0055305461" flag="0"/>
      <psa10 value="0.0010109575" flag="0"/>
      <psa30 value="0.0001083453" flag="0"/>
    </comp>
  </station>
  <station code="DRO" name="DRO" netid="HP" insttype="120P," lat="37.952" lon="21.71">
    <comp name="--.HHE">
      <acc value="0.0138405249" flag="0"/>
      <vel value="0.0074444975" flag="0"/>
      <psa03 value="0.0331624151" flag="0"/>
      <psa10 value="0.0073972917" flag="0"/>
      <psa30 value="0.0003787650" flag="0"/>
    </comp>
    <comp name="--.HHZ">
      <acc value="0.0062392830" flag="0"/>
      <vel value="0.0024016700" flag="0"/>
      <psa03 value="0.0124954756" flag="0"/>
      <psa10 value="0.0031203870" flag="0"/>
      <psa30 value="0.0002399694" flag="0"/>
    </comp>
    <comp name="--.HHN">
      <acc value="0.0148477601" flag="0"/>
      <vel value="0.0055462206" flag="0"/>
      <psa03 value="0.0306822301" flag="0"/>
      <psa10 value="0.0041261148" flag="0"/>
      <psa30 value="0.0004609197" flag="0"/>
    </comp>
  </station>
  <station code="DSF" name="DSF" netid="HP" insttype="120P," lat="38.4112" lon="22.5271">
    <comp name="--.HHN">
      <acc value="0.0094075498" flag="0"/>
      <vel value="0.0032441296" flag="0"/>
      <psa03 value="0.0175730716" flag="0"/>
      <psa10 value="0.0030907390" flag="0"/>
      <psa30 value="0.0002901158" flag="0"/>
    </comp>
    <comp name="--.HHZ">
      <acc value="0.0038514815" flag="0"/>
      <vel value="0.0021637736" flag="0"/>
      <psa03 value="0.0049920272" flag="0"/>
      <psa10 value="0.0018416338" flag="0"/>
      <psa30 value="0.0002432178" flag="0"/>
    </comp>
    <comp name="--.HHE">
      <acc value="0.0056803228" flag="0"/>
      <vel value="0.0023905903" flag="0"/>
      <psa03 value="0.0090767071" flag="0"/>
      <psa10 value="0.0022996702" flag="0"/>
      <psa30 value="0.0002665171" flag="0"/>
    </comp>
  </station>
  <station code="EFP" name="EFP" netid="HP" insttype="40," lat="38.4269" lon="21.9058">
    <comp name="--.HHE">
      <acc value="0.0194053359" flag="0"/>
      <vel value="0.0090909475" flag="0"/>
      <psa03 value="0.0652202551" flag="0"/>
      <psa10 value="0.0117331872" flag="0"/>
      <psa30 value="0.0007651532" flag="0"/>
    </comp>
    <comp name="--.HHZ">
      <acc value="0.0129613766" flag="0"/>
      <vel value="0.0088909303" flag="0"/>
      <psa03 value="0.0269787478" flag="0"/>
      <psa10 value="0.0083847266" flag="0"/>
      <psa30 value="0.0004765718" flag="0"/>
    </comp>
    <comp name="--.HHN">
      <acc value="0.0202258731" flag="0"/>
      <vel value="0.0089105750" flag="0"/>
      <psa03 value="0.0433750736" flag="0"/>
      <psa10 value="0.0103283889" flag="0"/>
      <psa30 value="0.0006011560" flag="0"/>
    </comp>
  </station>
  <station code="FSK" name="FSK" netid="HP" insttype="40," lat="38.4593" lon="20.5623">
    <comp name="--.HHN">
      <acc value="0.0330047823" flag="0"/>
      <vel value="0.0085854970" flag="0"/>
      <psa03 value="0.0365024696" flag="0"/>
      <psa10 value="0.0109392457" flag="0"/>
      <psa30 value="0.0007916200" flag="0"/>
    </comp>
    <comp name="--.HHE">
      <acc value="0.1037582015" flag="0"/>
      <vel value="0.0217421497" flag="0"/>
      <psa03 value="0.0591900579" flag="0"/>
      <psa10 value="0.0149694906" flag="0"/>
      <psa30 value="0.0008553966" flag="0"/>
    </comp>
    <comp name="--.HHZ">
      <acc value="0.0349576414" flag="0"/>
      <vel value="0.0062913410" flag="0"/>
      <psa03 value="0.0199641539" flag="0"/>
      <psa10 value="0.0079612038" flag="0"/>
      <psa30 value="0.0003804178" flag="0"/>
    </comp>
  </station>
  <station code="KSTR" name="KSTR" netid="HP" insttype="Compact," lat="39.2492" lon="20.576">
    <comp name="--.HHE">
      <acc value="0.0197443944" flag="0"/>
      <vel value="0.0079624020" flag="0"/>
      <psa03 value="0.0814543901" flag="0"/>
      <psa10 value="0.0069970201" flag="0"/>
      <psa30 value="0.0004978241" flag="0"/>
    </comp>
    <comp name="--.HHN">
      <acc value="0.0180856421" flag="0"/>
      <vel value="0.0066727020" flag="0"/>
      <psa03 value="0.0493468956" flag="0"/>
      <psa10 value="0.0055868867" flag="0"/>
      <psa30 value="0.0004009117" flag="0"/>
    </comp>
    <comp name="--.HHZ">
      <acc value="0.0115760230" flag="0"/>
      <vel value="0.0056561120" flag="0"/>
      <psa03 value="0.0343713103" flag="0"/>
      <psa10 value="0.0054259639" flag="0"/>
      <psa30 value="0.0007223413" flag="0"/>
    </comp>
  </station>
  <station code="PDO" name="PDO" netid="HP" insttype="120s" lat="38.5986" lon="21.1833">
    <comp name="--.HHE">
      <acc value="0.3140559757" flag="0"/>
      <vel value="0.1217260392" flag="0"/>
      <psa03 value="0.4716778944" flag="0"/>
      <psa10 value="0.1113477318" flag="0"/>
      <psa30 value="0.0072596412" flag="0"/>
    </comp>
    <comp name="--.HHZ">
      <acc value="0.4377493142" flag="0"/>
      <vel value="0.1085475219" flag="0"/>
      <psa03 value="0.2655715389" flag="0"/>
      <psa10 value="0.0181994212" flag="0"/>
      <psa30 value="0.0013871871" flag="0"/>
    </comp>
    <comp name="--.HHN">
      <acc value="0.4284766733" flag="0"/>
      <vel value="0.1223027639" flag="0"/>
      <psa03 value="0.5442646388" flag="0"/>
      <psa10 value="0.0426702301" flag="0"/>
      <psa30 value="0.0042799906" flag="0"/>
    </comp>
  </station>
  <station code="PLEV" name="PLEV" netid="HP" insttype="Compact," lat="38.4124" lon="21.4073">
    <comp name="--.HHZ">
      <acc value="0.0229032768" flag="0"/>
      <vel value="0.0071466346" flag="0"/>
      <psa03 value="0.0245000161" flag="0"/>
      <psa10 value="0.0065083487" flag="0"/>
      <psa30 value="0.0007281471" flag="0"/>
    </comp>
    <comp name="--.HHE">
      <acc value="0.0301905058" flag="0"/>
      <vel value="0.0133016660" flag="0"/>
      <psa03 value="0.0415234572" flag="0"/>
      <psa10 value="0.0216340643" flag="0"/>
      <psa30 value="0.0008239858" flag="0"/>
    </comp>
    <comp name="--.HHN">
      <acc value="0.0281133049" flag="0"/>
      <vel value="0.0112240959" flag="0"/>
      <psa03 value="0.0454366753" flag="0"/>
      <psa10 value="0.0120792203" flag="0"/>
      <psa30 value="0.0005906219" flag="0"/>
    </comp>
  </station>
  <station code="PRMD" name="PRMD" netid="HP" insttype="120P," lat="39.5299" lon="21.0965">
    <comp name="--.HHE">
      <acc value="0.0351613636" flag="0"/>
      <vel value="0.0139909611" flag="0"/>
      <psa03 value="0.0984975765" flag="0"/>
      <psa10 value="0.0072968658" flag="0"/>
      <psa30 value="0.0008443609" flag="0"/>
    </comp>
    <comp name="--.HHN">
      <acc value="0.0246604367" flag="0"/>
      <vel value="0.0113448240" flag="0"/>
      <psa03 value="0.0859905128" flag="0"/>
      <psa10 value="0.0073802310" flag="0"/>
      <psa30 value="0.0007047972" flag="0"/>
    </comp>
    <comp name="--.HHZ">
      <acc value="0.0204380472" flag="0"/>
      <vel value="0.0076517878" flag="0"/>
      <psa03 value="0.0610010966" flag="0"/>
      <psa10 value="0.0076516142" flag="0"/>
      <psa30 value="0.0005805812" flag="0"/>
    </comp>
  </station>
  <station code="PVO" name="PVO" netid="HP" insttype="120P," lat="38.616" lon="21.525">
    <comp name="--.HHE">
      <acc value="0.1037825540" flag="0"/>
      <vel value="0.0241696430" flag="0"/>
      <psa03 value="0.0774543482" flag="0"/>
      <psa10 value="0.0289576708" flag="0"/>
      <psa30 value="0.0025807804" flag="0"/>
    </comp>
    <comp name="--.HHZ">
      <acc value="0.0911219909" flag="0"/>
      <vel value="0.0167098638" flag="0"/>
      <psa03 value="0.0722645879" flag="0"/>
