<?xml version="1.0" encoding="UTF-8" standalone="yes"?>
<!DOCTYPE earthquake SYSTEM "stationlist.dtd">
<stationlist created="" xmlns="ch.ethz.sed.shakemap.usgs.xml">
  <station code="ANDN" name="ANDN" netid="TU" insttype="T" lat="37.58" lon="36.3452">
    <comp name="--.HHN">
      <acc value="0.0397612726" flag="0"/>
      <vel value="0.0109775375" flag="0"/>
      <psa03 value="0.0505700986" flag="0"/>
      <psa10 value="0.0092529240" flag="0"/>
      <psa30 value="0.0006568317" flag="0"/>
    </comp>
  </station>
</stationlist>
