<stationlist created="1675764109">
	<station code="ARPRA" name="ARPRA" netid="KO" source="Bogazici University Kandilli Observatory And Earthquake Research Institute (KOERI)" insttype="" lat="39.0929" lon="38.3356">
		<comp name=".HNE" depth="0.0">
			<acc value="0.0451304528678" flag="0"/>
			<vel value="0.0266612128106" flag="0"/>
			<psa03 value="0.0970676490055" flag="0"/>
			<psa10 value="0.0227505408617" flag="0"/>
			<psa30 value="0.00212815702163" flag="0"/>
		</comp>
		<comp name=".HNN" depth="0.0">
			<acc value="0.0546273054284" flag="0"/>
			<vel value="0.0179689231804" flag="0"/>
			<psa03 value="0.124813976647" flag="0"/>
			<psa10 value="0.0206477053091" flag="0"/>
			<psa30 value="0.00144516698522" flag="0"/>
		</comp>
		<comp name=".HNZ" depth="0.0">
			<acc value="0.0498079678167" flag="0"/>
			<vel value="0.0177444713841" flag="0"/>
			<psa03 value="0.0329762209711" flag="0"/>
			<psa10 value="0.0151956110097" flag="0"/>
			<psa30 value="0.00109933199202" flag="0"/>
		</comp>
	</station>
	<station code="RFHY" name="RFHY" netid="KO" source="Bogazici University Kandilli Observatory And Earthquake Research Institute (KOERI)" insttype="" lat="39.927" lon="38.833">
		<comp name=".HNE" depth="0.0">
			<acc value="0.00123314623221" flag="0"/>
			<vel value="0.00297797781257" flag="0"/>
			<psa03 value="0.00147003341766" flag="0"/>
			<psa10 value="0.00125701846662" flag="0"/>
			<psa30 value="0.000931465455017" flag="0"/>
		</comp>
		<comp name=".HNN" depth="0.0">
			<acc value="0.00594257854843" flag="0"/>
			<vel value="0.00683855352863" flag="0"/>
			<psa03 value="0.00968165112749" flag="0"/>
			<psa10 value="0.0118313653324" flag="0"/>
			<psa30 value="0.00105345624464" flag="0"/>
		</comp>
		<comp name=".HNZ" depth="0.0">
			<acc value="0.00467877042267" flag="0"/>
			<vel value="0.00330804441887" flag="0"/>
			<psa03 value="0.00896247783476" flag="0"/>
			<psa10 value="0.00679257700616" flag="0"/>
			<psa30 value="0.000647996884948" flag="0"/>
		</comp>
	</station>
	<station code="TUNC" name="TUNC" netid="KO" source="Bogazici University Kandilli Observatory And Earthquake Research Institute (KOERI)" insttype="" lat="39.6942" lon="37.5388">
		<comp name=".HNE" depth="0.0">
			<acc value="0.016967671517" flag="0"/>
			<vel value="0.0115600508674" flag="0"/>
			<psa03 value="0.0314710822006" flag="0"/>
			<psa10 value="0.0185378530418" flag="0"/>
			<psa30 value="0.00159536401837" flag="0"/>
		</comp>
		<comp name=".HNN" depth="0.0">
			<acc value="0.0116480135452" flag="0"/>
			<vel value="0.00897366307474" flag="0"/>
			<psa03 value="0.0236890510542" flag="0"/>
			<psa10 value="0.0103094563884" flag="0"/>
			<psa30 value="0.00134271144804" flag="0"/>
		</comp>
		<comp name=".HNZ" depth="0.0">
			<acc value="0.00814620109569" flag="0"/>
			<vel value="0.00598846906357" flag="0"/>
			<psa03 value="0.0238940073399" flag="0"/>
			<psa10 value="0.00952347463344" flag="0"/>
			<psa30 value="0.00104438741471" flag="0"/>
		</comp>
	</station>
</stationlist>
