<?xml version="1.0" encoding="UTF-8" standalone="yes"?>
<!DOCTYPE earthquake SYSTEM "stationlist.dtd">
<stationlist created="" xmlns="ch.ethz.sed.shakemap.usgs.xml">
  <station code="BNN" name="BNN" netid="KO" insttype="CMG-3T" lat="38.8521" lon="35.8472">
    <comp name="--.HHN">
      <acc value="0.0000090924" flag="0"/>
      <vel value="0.0000009904" flag="0"/>
      <psa03 value="0.0000030611" flag="0"/>
      <psa10 value="0.0000010085" flag="0"/>
      <psa30 value="0.0000002200" flag="0"/>
    </comp>
    <comp name="--.HHZ">
      <acc value="0.0102455527" flag="0"/>
      <vel value="0.0044792166" flag="0"/>
      <psa03 value="0.0198476188" flag="0"/>
      <psa10 value="0.0037076547" flag="0"/>
      <psa30 value="0.0002929854" flag="0"/>
    </comp>
    <comp name="--.HHE">
      <acc value="0.0077544250" flag="0"/>
      <vel value="0.0043002016" flag="0"/>
      <psa03 value="0.0181042535" flag="0"/>
      <psa10 value="0.0029978307" flag="0"/>
      <psa30 value="0.0002625794" flag="0"/>
    </comp>
  </station>
</stationlist>
