<?xml version="1.0" encoding="UTF-8" standalone="yes"?>
<!DOCTYPE earthquake SYSTEM "stationlist.dtd">
<stationlist created="" xmlns="ch.ethz.sed.shakemap.usgs.xml">
  <station code="URFA" name="URFA" netid="KO" insttype="CMG-3ESP" lat="37.4409" lon="38.8213">
    <comp name="--.HHN">
      <acc value="0.1044670977" flag="0"/>
      <vel value="0.0427305390" flag="0"/>
      <psa03 value="0.1198209250" flag="0"/>
      <psa10 value="0.0579434329" flag="0"/>
      <psa30 value="0.0030291736" flag="0"/>
    </comp>
    <comp name="--.HHE">
      <acc value="0.0953385552" flag="0"/>
      <vel value="0.0249552319" flag="0"/>
      <psa03 value="0.0981731405" flag="0"/>
      <psa10 value="0.0116757260" flag="0"/>
      <psa30 value="0.0019042913" flag="0"/>
    </comp>
    <comp name="--.HHZ">
      <acc value="0.0507091081" flag="0"/>
      <vel value="0.0237515329" flag="0"/>
      <psa03 value="0.0842495604" flag="0"/>
      <psa10 value="0.0130548754" flag="0"/>
      <psa30 value="0.0008852642" flag="0"/>
    </comp>
  </station>
</stationlist>
