<stationlist created="1778138369">
	<station code="MALA" name="MALA" netid="CL" source="Corinth Riff Laboratory (CRLNET)" insttype="" lat="38.39341" lon="21.87263">
		<comp name="01.HNE" depth="0.0">
			<acc value="0.0177658755720592" flag="0"/>
			<vel value="0.0108874451615337" flag="0"/>
			<psa03 value="0.0598632260616051" flag="0"/>
			<psa10 value="0.0165101893440048" flag="0"/>
			<psa30 value="0.00224564938825018" flag="0"/>
		</comp>
		<comp name="01.HNN" depth="0.0">
			<acc value="0.0137234036468848" flag="0"/>
			<vel value="0.00696181346381452" flag="0"/>
			<psa03 value="0.0335815865944605" flag="0"/>
			<psa10 value="0.0148182385105891" flag="0"/>
			<psa30 value="0.0019022801833941" flag="0"/>
		</comp>
		<comp name="01.HNZ" depth="0.0">
			<acc value="0.00701944052044027" flag="0"/>
			<vel value="0.00357499778725128" flag="0"/>
			<psa03 value="0.0175769925144916" flag="0"/>
			<psa10 value="0.00489499255048849" flag="0"/>
			<psa30 value="0.00219348489094028" flag="0"/>
		</comp>
	</station>
	<station code="ROD3" name="ROD3" netid="CL" source="Corinth Riff Laboratory (CRLNET)" insttype="" lat="38.30811" lon="21.89204">
		<comp name="00.HNE" depth="0.0">
			<acc value="0.0171322084162121" flag="0"/>
			<vel value="0.00917838527828979" flag="0"/>
			<psa03 value="0.0635419905950951" flag="0"/>
			<psa10 value="0.00698699222894299" flag="0"/>
			<psa30 value="0.000351991625009417" flag="0"/>
		</comp>
		<comp name="00.HNN" depth="0.0">
			<acc value="0.0199784149632292" flag="0"/>
			<vel value="0.010304269174156" flag="0"/>
			<psa03 value="0.0872918347388669" flag="0"/>
			<psa10 value="0.00673881625726265" flag="0"/>
			<psa30 value="0.000633070531566877" flag="0"/>
		</comp>
		<comp name="00.HNZ" depth="0.0">
			<acc value="0.00889421152055089" flag="0"/>
			<vel value="0.00391841089744595" flag="0"/>
			<psa03 value="0.0184449341259256" flag="0"/>
			<psa10 value="0.00336555779543592" flag="0"/>
			<psa30 value="0.000277562137129272" flag="0"/>
		</comp>
	</station>
	<station code="TRIZ" name="TRIZ" netid="CL" source="Corinth Riff Laboratory (CRLNET)" insttype="" lat="38.36543" lon="22.07272">
		<comp name="00.HNE" depth="0.0">
			<acc value="0.12832107299985" flag="0"/>
			<vel value="0.265321983030888" flag="0"/>
			<psa03 value="0.150770612813364" flag="0"/>
			<psa10 value="0.14132529210698" flag="0"/>
			<psa30 value="0.175292332256699" flag="0"/>
		</comp>
		<comp name="00.HNN" depth="0.0">
			<acc value="0.133593918501012" flag="0"/>
			<vel value="0.285139995674595" flag="0"/>
			<psa03 value="0.16164387478015" flag="0"/>
			<psa10 value="0.159369072418825" flag="0"/>
			<psa30 value="0.186853284779891" flag="0"/>
		</comp>
		<comp name="00.HNZ" depth="0.0">
			<acc value="0.0159554799174561" flag="0"/>
			<vel value="0.0337327753096278" flag="0"/>
			<psa03 value="0.019837552421753" flag="0"/>
			<psa10 value="0.0194446143602708" flag="0"/>
			<psa30 value="0.0231088875170702" flag="0"/>
		</comp>
	</station>
	<station code="KTHA" name="KTHA" netid="GE" source="GEOFON" insttype="" lat="36.2566" lon="23.0621">
		<comp name="--.HNE" depth="0.0">
			<acc value="0.00712524670912467" flag="0"/>
			<vel value="0.00355556173347394" flag="0"/>
			<psa03 value="0.0236270703857821" flag="0"/>
			<psa10 value="0.00493278567907488" flag="0"/>
			<psa30 value="0.00117982555348589" flag="0"/>
		</comp>
		<comp name="--.HNN" depth="0.0">
			<acc value="0.00407619791549279" flag="0"/>
			<vel value="0.00167244094372669" flag="0"/>
			<psa03 value="0.00882087926182639" flag="0"/>
			<psa10 value="0.00373642783250495" flag="0"/>
			<psa30 value="0.00170238881656864" flag="0"/>
		</comp>
		<comp name="--.HNZ" depth="0.0">
			<acc value="0.00408512742066662" flag="0"/>
			<vel value="0.00144067514048842" flag="0"/>
			<psa03 value="0.00793079425641413" flag="0"/>
			<psa10 value="0.00292749361958508" flag="0"/>
			<psa30 value="0.00133981250600467" flag="0"/>
		</comp>
	</station>
	<station code="AIGS" name="AIGS" netid="HA" source="Hellenic Seismological Network, University of Athens, Seismological Laboratory (HA)" insttype="" lat="38.25001" lon="22.0878">
		<comp name="--.HNE" depth="0.0">
			<acc value="0.0269432866663809" flag="0"/>
			<vel value="0.0095801282931968" flag="0"/>
			<psa03 value="0.0101734519360347" flag="0"/>
			<psa10 value="0.00377619476374704" flag="0"/>
			<psa30 value="0.000625297099948271" flag="0"/>
		</comp>
		<comp name="--.HNN" depth="0.0">
			<acc value="0.0228381013203833" flag="0"/>
			<vel value="0.00866553027241971" flag="0"/>
			<psa03 value="0.00921203928885393" flag="0"/>
			<psa10 value="0.00320512638639304" flag="0"/>
			<psa30 value="0.000690946084288737" flag="0"/>
		</comp>
		<comp name="--.HNZ" depth="0.0">
			<acc value="0.019876522261718" flag="0"/>
			<vel value="0.0061489332153854" flag="0"/>
			<psa03 value="0.00578877670722337" flag="0"/>
			<psa10 value="0.00480688093225716" flag="0"/>
			<psa30 value="0.000582152262646811" flag="0"/>
		</comp>
	</station>
	<station code="KIAS" name="KIAS" netid="HA" source="Hellenic Seismological Network, University of Athens, Seismological Laboratory (HA)" insttype="" lat="37.9875" lon="22.7543">
		<comp name="--.HNE" depth="0.0">
			<acc value="0.356874844015056" flag="0"/>
			<vel value="0.0850224058801241" flag="0"/>
			<psa03 value="0.363299900168557" flag="0"/>
			<psa10 value="0.0747237000783513" flag="0"/>
			<psa30 value="0.0064911837590454" flag="0"/>
		</comp>
		<comp name="--.HNN" depth="0.0">
			<acc value="0.384634200794234" flag="0"/>
			<vel value="0.0910215469672832" flag="0"/>
			<psa03 value="0.315152002273674" flag="0"/>
			<psa10 value="0.0598026428814762" flag="0"/>
			<psa30 value="0.00500519781977581" flag="0"/>
		</comp>
		<comp name="--.HNZ" depth="0.0">
			<acc value="0.317590777526085" flag="0"/>
			<vel value="0.0594196199297296" flag="0"/>
			<psa03 value="0.259668514264463" flag="0"/>
			<psa10 value="0.0517022712719183" flag="0"/>
			<psa30 value="0.00332482817021607" flag="0"/>
		</comp>
	</station>
	<station code="LTRS" name="LTRS" netid="HA" source="Hellenic Seismological Network, University of Athens, Seismological Laboratory (HA)" insttype="" lat="37.97528" lon="22.9765">
		<comp name="--.HNE" depth="0.0">
			<acc value="0.581533525080921" flag="0"/>
			<vel value="0.276403137028465" flag="0"/>
			<psa03 value="1.43356913358731" flag="0"/>
			<psa10 value="0.459233851989043" flag="0"/>
			<psa30 value="0.0160078737764199" flag="0"/>
		</comp>
		<comp name="--.HNN" depth="0.0">
			<acc value="0.812325111604838" flag="0"/>
			<vel value="0.295336974257406" flag="0"/>
			<psa03 value="1.38172903276514" flag="0"/>
			<psa10 value="0.249536145544995" flag="0"/>
			<psa30 value="0.0143837561865838" flag="0"/>
		</comp>
		<comp name="--.HNZ" depth="0.0">
			<acc value="0.684554730754248" flag="0"/>
			<vel value="0.19364701529508" flag="0"/>
			<psa03 value="0.767343749423186" flag="0"/>
			<psa10 value="0.158477848379695" flag="0"/>
			<psa30 value="0.00859132830000085" flag="0"/>
		</comp>
	</station>
	<station code="NAFS" name="NAFS" netid="HA" source="Hellenic Seismological Network, University of Athens, Seismological Laboratory (HA)" insttype="" lat="38.369894" lon="21.781265">
		<comp name="--.HNE" depth="0.0">
			<acc value="0.00149170225360975" flag="0"/>
			<vel value="0.000512008060640135" flag="0"/>
			<psa03 value="0.00419811990171705" flag="0"/>
			<psa10 value="0.000409362967894943" flag="0"/>
			<psa30 value="0.000115489291223543" flag="0"/>
		</comp>
		<comp name="--.HNN" depth="0.0">
			<acc value="0.00264722937840246" flag="0"/>
			<vel value="0.00105041071632518" flag="0"/>
			<psa03 value="0.0063637685736224" flag="0"/>
			<psa10 value="0.000487071045362033" flag="0"/>
			<psa30 value="0.000106492894475327" flag="0"/>
		</comp>
		<comp name="--.HNZ" depth="0.0">
			<acc value="0.0020901852953805" flag="0"/>
			<vel value="0.000315066062559634" flag="0"/>
			<psa03 value="0.00142972508336235" flag="0"/>
			<psa10 value="0.000460803543552235" flag="0"/>
			<psa30 value="9.19017586135898e-05" flag="0"/>
		</comp>
	</station>
	<station code="XLKS" name="XLKS" netid="HA" source="Hellenic Seismological Network, University of Athens, Seismological Laboratory (HA)" insttype="" lat="38.0772" lon="22.6361">
		<comp name="--.HNE" depth="0.0">
			<acc value="0.181955635397754" flag="0"/>
			<vel value="0.0525874449199464" flag="0"/>
			<psa03 value="0.266512759329081" flag="0"/>
			<psa10 value="0.0596271425055354" flag="0"/>
			<psa30 value="0.00486934173667486" flag="0"/>
		</comp>
		<comp name="--.HNN" depth="0.0">
			<acc value="0.156051584479323" flag="0"/>
			<vel value="0.0489838768829741" flag="0"/>
			<psa03 value="0.194414629014851" flag="0"/>
			<psa10 value="0.0577281104540662" flag="0"/>
			<psa30 value="0.0039275776827469" flag="0"/>
		</comp>
		<comp name="--.HNZ" depth="0.0">
			<acc value="0.109714261417899" flag="0"/>
			<vel value="0.0319164878889197" flag="0"/>
			<psa03 value="0.163029112378711" flag="0"/>
			<psa10 value="0.0228715201259807" flag="0"/>
			<psa30 value="0.00247263775845094" flag="0"/>
		</comp>
	</station>
	<station code="ARS1" name="ARS1" netid="HI" source="ITSAK Strong Motion Network" insttype="" lat="37.6349" lon="22.7293">
		<comp name="--.HNE" depth="0.0">
			<acc value="0.117529444748061" flag="0"/>
			<vel value="0.0749498338454432" flag="0"/>
			<psa03 value="0.303258881079271" flag="0"/>
			<psa10 value="0.0886135777145767" flag="0"/>
			<psa30 value="0.00355080980705467" flag="0"/>
		</comp>
		<comp name="--.HNN" depth="0.0">
			<acc value="0.109740021977592" flag="0"/>
			<vel value="0.0685925089581904" flag="0"/>
			<psa03 value="0.551387610055141" flag="0"/>
			<psa10 value="0.0556522316870823" flag="0"/>
			<psa30 value="0.00473244558460565" flag="0"/>
		</comp>
		<comp name="--.HNZ" depth="0.0">
			<acc value="0.0798254117366789" flag="0"/>
			<vel value="0.0294560859544542" flag="0"/>
			<psa03 value="0.199554907033011" flag="0"/>
			<psa10 value="0.0408020354346091" flag="0"/>
			<psa30 value="0.00276942554418379" flag="0"/>
		</comp>
	</station>
	<station code="ATH5" name="ATH5" netid="HI" source="ITSAK Strong Motion Network" insttype="" lat="37.975421" lon="23.737098">
		<comp name="--.HNE" depth="0.0">
			<acc value="0.0834737490313511" flag="0"/>
			<vel value="0.0296141629822757" flag="0"/>
			<psa03 value="0.181175981186163" flag="0"/>
			<psa10 value="0.0386216747464072" flag="0"/>
			<psa30 value="0.00199288493551128" flag="0"/>
		</comp>
		<comp name="--.HNN" depth="0.0">
			<acc value="0.102064258859992" flag="0"/>
			<vel value="0.0304847548767931" flag="0"/>
			<psa03 value="0.184372192919804" flag="0"/>
			<psa10 value="0.0294885915994791" flag="0"/>
			<psa30 value="0.00126790940944199" flag="0"/>
		</comp>
		<comp name="--.HNZ" depth="0.0">
			<acc value="0.0623754828271732" flag="0"/>
			<vel value="0.0191457142979444" flag="0"/>
			<psa03 value="0.117872870999073" flag="0"/>
			<psa10 value="0.0272515965345299" flag="0"/>
			<psa30 value="0.00143267636611077" flag="0"/>
		</comp>
	</station>
	<station code="KLV1" name="KLV1" netid="HI" source="ITSAK Strong Motion Network" insttype="" lat="38.03256" lon="22.10797">
		<comp name="--.HNE" depth="0.0">
			<acc value="0.0486747002376356" flag="0"/>
			<vel value="0.0177874078347391" flag="0"/>
			<psa03 value="0.156556058570597" flag="0"/>
			<psa10 value="0.0119639206760103" flag="0"/>
			<psa30 value="0.000763087061191015" flag="0"/>
		</comp>
		<comp name="--.HNN" depth="0.0">
			<acc value="0.0399481763914689" flag="0"/>
			<vel value="0.015281251716384" flag="0"/>
			<psa03 value="0.135887001847132" flag="0"/>
			<psa10 value="0.0090725138220155" flag="0"/>
			<psa30 value="0.000654990004456309" flag="0"/>
		</comp>
		<comp name="--.HNZ" depth="0.0">
			<acc value="0.0270923611161749" flag="0"/>
			<vel value="0.00812439505562614" flag="0"/>
			<psa03 value="0.0663918043812487" flag="0"/>
			<psa10 value="0.00593697423289163" flag="0"/>
			<psa30 value="0.0004133104006191" flag="0"/>
		</comp>
	</station>
	<station code="KRI1" name="KRI1" netid="HI" source="ITSAK Strong Motion Network" insttype="" lat="37.6621" lon="20.8172">
		<comp name="--.HNE" depth="0.0">
			<acc value="0.00269108473637924" flag="0"/>
			<vel value="0.0021715807306058" flag="0"/>
			<psa03 value="0.00938958230021637" flag="0"/>
			<psa10 value="0.00458758515499074" flag="0"/>
			<psa30 value="0.00027919974561269" flag="0"/>
		</comp>
		<comp name="--.HNN" depth="0.0">
			<acc value="0.00369533274533773" flag="0"/>
			<vel value="0.00312207787040879" flag="0"/>
			<psa03 value="0.0103708979585994" flag="0"/>
			<psa10 value="0.0036555117690874" flag="0"/>
			<psa30 value="0.000272822760668855" flag="0"/>
		</comp>
		<comp name="--.HNZ" depth="0.0">
			<acc value="0.00197869743920213" flag="0"/>
			<vel value="0.000977695236258098" flag="0"/>
			<psa03 value="0.00753116947592468" flag="0"/>
			<psa10 value="0.00111480892874688" flag="0"/>
			<psa30 value="0.000141364117283304" flag="0"/>
		</comp>
	</station>
	<station code="LAM2" name="LAM2" netid="HI" source="ITSAK Strong Motion Network" insttype="" lat="38.90203" lon="22.431301">
		<comp name="--.HNE" depth="0.0">
			<acc value="0.00766522966433884" flag="0"/>
			<vel value="0.00584009775629441" flag="0"/>
			<psa03 value="0.0178915315803356" flag="0"/>
			<psa10 value="0.00970714867596534" flag="0"/>
			<psa30 value="0.000877060600962165" flag="0"/>
		</comp>
		<comp name="--.HNN" depth="0.0">
			<acc value="0.00945700214492599" flag="0"/>
			<vel value="0.00674451357314111" flag="0"/>
			<psa03 value="0.025856468072434" flag="0"/>
			<psa10 value="0.00553107171884071" flag="0"/>
			<psa30 value="0.000776923081922493" flag="0"/>
		</comp>
		<comp name="--.HNZ" depth="0.0">
			<acc value="0.00692792256562157" flag="0"/>
			<vel value="0.00351589275292119" flag="0"/>
			<psa03 value="0.0167783093973204" flag="0"/>
			<psa10 value="0.0025120849289243" flag="0"/>
			<psa30 value="0.000386204776879619" flag="0"/>
		</comp>
	</station>
	<station code="MSL1" name="MSL1" netid="HI" source="ITSAK Strong Motion Network" insttype="" lat="38.3727" lon="21.4243">
		<comp name="--.HNE" depth="0.0">
			<acc value="0.00820434352379039" flag="0"/>
			<vel value="0.00730008161007225" flag="0"/>
			<psa03 value="0.0268933336347122" flag="0"/>
			<psa10 value="0.0105677913143275" flag="0"/>
			<psa30 value="0.000771665962831712" flag="0"/>
		</comp>
		<comp name="--.HNN" depth="0.0">
			<acc value="0.0062156978544604" flag="0"/>
			<vel value="0.00620189119513248" flag="0"/>
			<psa03 value="0.0214220948898874" flag="0"/>
			<psa10 value="0.0108208280767532" flag="0"/>
			<psa30 value="0.000908305379108215" flag="0"/>
		</comp>
		<comp name="--.HNZ" depth="0.0">
			<acc value="0.00418482149918923" flag="0"/>
			<vel value="0.00298730086718449" flag="0"/>
			<psa03 value="0.0110523819056327" flag="0"/>
			<psa10 value="0.00419323199980293" flag="0"/>
			<psa30 value="0.000282810114990377" flag="0"/>
		</comp>
	</station>
	<station code="NPS1" name="NPS1" netid="HI" source="ITSAK Strong Motion Network" insttype="" lat="36.51263" lon="23.06248">
		<comp name="--.HNE" depth="0.0">
			<acc value="0.0153463728952364" flag="0"/>
			<vel value="0.0105828981892952" flag="0"/>
			<psa03 value="0.0506542774720811" flag="0"/>
			<psa10 value="0.00924660129193871" flag="0"/>
			<psa30 value="0.000497407482054268" flag="0"/>
		</comp>
		<comp name="--.HNN" depth="0.0">
			<acc value="0.0313920774756664" flag="0"/>
			<vel value="0.0243660918356138" flag="0"/>
			<psa03 value="0.0568121176905534" flag="0"/>
			<psa10 value="0.0142271009131123" flag="0"/>
			<psa30 value="0.00126890457953432" flag="0"/>
		</comp>
		<comp name="--.HNZ" depth="0.0">
			<acc value="0.0119185645933314" flag="0"/>
			<vel value="0.00665089109170487" flag="0"/>
			<psa03 value="0.03057760634551" flag="0"/>
			<psa10 value="0.00420614082367038" flag="0"/>
			<psa30 value="0.000311398441118672" flag="0"/>
		</comp>
	</station>
	<station code="PYL1" name="PYL1" netid="HI" source="ITSAK Strong Motion Network" insttype="" lat="36.914188" lon="21.695161">
		<comp name="--.HNE" depth="0.0">
			<acc value="0.00281685393246337" flag="0"/>
			<vel value="0.00285649366066087" flag="0"/>
			<psa03 value="0.00730169073240537" flag="0"/>
			<psa10 value="0.00504633054463242" flag="0"/>
			<psa30 value="0.000681413890325995" flag="0"/>
		</comp>
		<comp name="--.HNN" depth="0.0">
			<acc value="0.00236550048102436" flag="0"/>
			<vel value="0.00196060217769942" flag="0"/>
			<psa03 value="0.00628800769550077" flag="0"/>
			<psa10 value="0.00369291627820299" flag="0"/>
			<psa30 value="0.000353963266037574" flag="0"/>
		</comp>
		<comp name="--.HNZ" depth="0.0">
			<acc value="0.00310455104857417" flag="0"/>
			<vel value="0.00189898386265429" flag="0"/>
			<psa03 value="0.00763204204368384" flag="0"/>
			<psa10 value="0.00435392170718133" flag="0"/>
			<psa30 value="0.000377271112151127" flag="0"/>
		</comp>
	</station>
	<station code="SKO1" name="SKO1" netid="HI" source="ITSAK Strong Motion Network" insttype="" lat="39.123383" lon="23.728705">
		<comp name="--.HNE" depth="0.0">
			<acc value="0.0142778614588324" flag="0"/>
			<vel value="0.00914346322046896" flag="0"/>
			<psa03 value="0.031167687102125" flag="0"/>
			<psa10 value="0.00534674794580223" flag="0"/>
			<psa30 value="0.000420266278078485" flag="0"/>
		</comp>
		<comp name="--.HNN" depth="0.0">
			<acc value="0.0157128254637186" flag="0"/>
			<vel value="0.0084987845059616" flag="0"/>
			<psa03 value="0.0492008686909405" flag="0"/>
			<psa10 value="0.00597644512892495" flag="0"/>
			<psa30 value="0.000342798854574967" flag="0"/>
		</comp>
		<comp name="--.HNZ" depth="0.0">
			<acc value="0.00749750252431811" flag="0"/>
			<vel value="0.00441671686902788" flag="0"/>
			<psa03 value="0.0296679471267098" flag="0"/>
			<psa10 value="0.00469723304364409" flag="0"/>
			<psa30 value="0.000357745521801878" flag="0"/>
		</comp>
	</station>
	<station code="SKY1" name="SKY1" netid="HI" source="ITSAK Strong Motion Network" insttype="" lat="38.904483" lon="24.564572">
		<comp name="--.HNE" depth="0.0">
			<acc value="0.0205706721567325" flag="0"/>
			<vel value="0.0113130888074121" flag="0"/>
			<psa03 value="0.0545643542040028" flag="0"/>
			<psa10 value="0.00668616417557722" flag="0"/>
			<psa30 value="0.000573142603300064" flag="0"/>
		</comp>
		<comp name="--.HNN" depth="0.0">
			<acc value="0.0270714392665563" flag="0"/>
			<vel value="0.011223590829316" flag="0"/>
			<psa03 value="0.0787311009655704" flag="0"/>
			<psa10 value="0.00754050030239197" flag="0"/>
			<psa30 value="0.000700255659335383" flag="0"/>
		</comp>
		<comp name="--.HNZ" depth="0.0">
			<acc value="0.016613974705069" flag="0"/>
			<vel value="0.0082563247465886" flag="0"/>
			<psa03 value="0.0453621352271373" flag="0"/>
			<psa10 value="0.00474108329226183" flag="0"/>
			<psa30 value="0.000321504996044982" flag="0"/>
		</comp>
	</station>
	<station code="ACHA" name="ACHA" netid="HL" source="National Observatory of Athens Seismic Network" insttype="" lat="38.07458" lon="23.74127">
		<comp name="00.HNE" depth="0.0">
			<acc value="0.179815035731571" flag="0"/>
			<vel value="0.0606330667064895" flag="0"/>
			<psa03 value="0.349635828324531" flag="0"/>
			<psa10 value="0.0379677664281913" flag="0"/>
			<psa30 value="0.00309504253137817" flag="0"/>
		</comp>
		<comp name="00.HNN" depth="0.0">
			<acc value="0.223125128327095" flag="0"/>
			<vel value="0.0552922516236562" flag="0"/>
			<psa03 value="0.319207104237553" flag="0"/>
			<psa10 value="0.025446011298361" flag="0"/>
			<psa30 value="0.00224772390067747" flag="0"/>
		</comp>
		<comp name="00.HNZ" depth="0.0">
			<acc value="0.158523696582651" flag="0"/>
			<vel value="0.0416422814361411" flag="0"/>
			<psa03 value="0.373940021691155" flag="0"/>
			<psa10 value="0.0242617128444127" flag="0"/>
