<?xml version="1.0" encoding="UTF-8" standalone="yes"?>
<!DOCTYPE earthquake SYSTEM "stationlist.dtd">
<stationlist created="" xmlns="ch.ethz.sed.shakemap.usgs.xml">
  <station code="KLV" name="KLV" netid="MN" insttype="" lat="38.0437" lon="22.1504">
    <comp name="--.HHN">
      <acc value="0.0167412655" flag="0"/>
      <vel value="0.0078651297" flag="0"/>
      <psa03 value="0.0527473289" flag="0"/>
      <psa10 value="0.0053191407" flag="0"/>
      <psa30 value="0.0003088329" flag="0"/>
    </comp>
    <comp name="--.HHE">
      <acc value="0.0195043856" flag="0"/>
      <vel value="0.0063754111" flag="0"/>
      <psa03 value="0.0383165799" flag="0"/>
      <psa10 value="0.0045220296" flag="0"/>
      <psa30 value="0.0002615667" flag="0"/>
    </comp>
    <comp name="--.HHZ">
      <acc value="0.0146286311" flag="0"/>
      <vel value="0.0060141725" flag="0"/>
      <psa03 value="0.0240144757" flag="0"/>
      <psa10 value="0.0058933060" flag="0"/>
      <psa30 value="0.0002508650" flag="0"/>
    </comp>
  </station>
</stationlist>
