<?xml version="1.0" encoding="UTF-8" standalone="yes"?>
<!DOCTYPE earthquake SYSTEM "stationlist.dtd">
<stationlist created="" xmlns="ch.ethz.sed.shakemap.usgs.xml">
  <station code="BCI" name="BCI" netid="AC" insttype="" lat="42.3666" lon="20.0675">
    <comp name="--.HHN">
      <acc value="0.0792702255" flag="0"/>
      <vel value="0.0770605921" flag="0"/>
      <psa03 value="0.1718905931" flag="0"/>
      <psa10 value="0.1355737898" flag="0"/>
      <psa30 value="0.0086253219" flag="0"/>
    </comp>
    <comp name="--.HHE">
      <acc value="0.0898678954" flag="0"/>
      <vel value="0.0579228880" flag="0"/>
      <psa03 value="0.2280519084" flag="0"/>
      <psa10 value="0.0913297453" flag="0"/>
      <psa30 value="0.0071552364" flag="0"/>
    </comp>
    <comp name="--.HHZ">
      <acc value="0.0634251926" flag="0"/>
      <vel value="0.0427519817" flag="0"/>
      <psa03 value="0.1468548646" flag="0"/>
      <psa10 value="0.0482069198" flag="0"/>
      <psa30 value="0.0090571814" flag="0"/>
    </comp>
  </station>
  <station code="KBN" name="KBN" netid="AC" insttype="" lat="40.6236" lon="20.7874">
    <comp name="--.HHE">
      <acc value="0.0176323491" flag="0"/>
      <vel value="0.0198126465" flag="0"/>
      <psa03 value="0.0636897239" flag="0"/>
      <psa10 value="0.0283336656" flag="0"/>
      <psa30 value="0.0036345633" flag="0"/>
    </comp>
    <comp name="--.HHN">
      <acc value="0.0282201756" flag="0"/>
      <vel value="0.0228612953" flag="0"/>
      <psa03 value="0.0658648937" flag="0"/>
      <psa10 value="0.0597020011" flag="0"/>
      <psa30 value="0.0044666311" flag="0"/>
    </comp>
    <comp name="--.HHZ">
      <acc value="0.0130168585" flag="0"/>
      <vel value="0.0170215019" flag="0"/>
      <psa03 value="0.0236204510" flag="0"/>
      <psa10 value="0.0266401799" flag="0"/>
      <psa30 value="0.0039293111" flag="0"/>
    </comp>
  </station>
  <station code="PUK" name="PUK" netid="AC" insttype="" lat="42.0426" lon="19.8926">
    <comp name="--.HHE">
      <acc value="0.1073297972" flag="0"/>
      <vel value="0.0634376545" flag="0"/>
      <psa03 value="0.2347975615" flag="0"/>
      <psa10 value="0.0591365542" flag="0"/>
      <psa30 value="0.0108017645" flag="0"/>
    </comp>
    <comp name="--.HHN">
      <acc value="0.1085893435" flag="0"/>
      <vel value="0.0421073424" flag="0"/>
      <psa03 value="0.1890962534" flag="0"/>
      <psa10 value="0.0218012208" flag="0"/>
      <psa30 value="0.0024492828" flag="0"/>
    </comp>
    <comp name="--.HHZ">
      <acc value="0.0497602507" flag="0"/>
      <vel value="0.0219046808" flag="0"/>
      <psa03 value="0.0826899550" flag="0"/>
      <psa10 value="0.0234463396" flag="0"/>
      <psa30 value="0.0009401662" flag="0"/>
    </comp>
  </station>
  <station code="VLO" name="VLO" netid="AC" insttype="" lat="40.4686" lon="19.4955">
    <comp name="--.HHZ">
      <acc value="0.0192964520" flag="0"/>
      <vel value="0.0135801622" flag="0"/>
      <psa03 value="0.0579346298" flag="0"/>
      <psa10 value="0.0222107675" flag="0"/>
      <psa30 value="0.0055060297" flag="0"/>
    </comp>
    <comp name="--.HHN">
      <acc value="0.0355439310" flag="0"/>
      <vel value="0.0289890860" flag="0"/>
      <psa03 value="0.1006013698" flag="0"/>
      <psa10 value="0.0402991332" flag="0"/>
      <psa30 value="0.0051847775" flag="0"/>
    </comp>
    <comp name="--.HHE">
      <acc value="0.0440464050" flag="0"/>
      <vel value="0.0261905123" flag="0"/>
      <psa03 value="0.0806931406" flag="0"/>
      <psa10 value="0.0389103238" flag="0"/>
      <psa30 value="0.0048028870" flag="0"/>
    </comp>
  </station>
  <station code="LMS2" name="LMS2" netid="HI" insttype="CMG-5TD,ACCELEROMETER,GURALP" lat="40.835" lon="21.1418">
    <comp name="--.HNE">
      <acc value="0.0416814442" flag="0"/>
      <vel value="0.0191272531" flag="0"/>
      <psa03 value="0.1016047078" flag="0"/>
      <psa10 value="0.0192544395" flag="0"/>
      <psa30 value="0.0022956625" flag="0"/>
    </comp>
    <comp name="--.HNZ">
      <acc value="0.0138721063" flag="0"/>
      <vel value="0.0141354899" flag="0"/>
      <psa03 value="0.0306223534" flag="0"/>
      <psa10 value="0.0195459234" flag="0"/>
      <psa30 value="0.0017847775" flag="0"/>
    </comp>
    <comp name="--.HNN">
      <acc value="0.0678649412" flag="0"/>
      <vel value="0.0236023621" flag="0"/>
      <psa03 value="0.0861725005" flag="0"/>
      <psa10 value="0.0224548898" flag="0"/>
      <psa30 value="0.0029093765" flag="0"/>
    </comp>
  </station>
  <station code="NEST" name="NEST" netid="HT" insttype="120P," lat="40.4147" lon="21.0489">
    <comp name="--.HHZ">
      <acc value="0.0142519725" flag="0"/>
      <vel value="0.0119750163" flag="0"/>
      <psa03 value="0.0397919781" flag="0"/>
      <psa10 value="0.0196136100" flag="0"/>
      <psa30 value="0.0038903140" flag="0"/>
    </comp>
    <comp name="--.HHE">
      <acc value="0.0140928299" flag="0"/>
      <vel value="0.0126481428" flag="0"/>
      <psa03 value="0.0373495491" flag="0"/>
      <psa10 value="0.0147489540" flag="0"/>
      <psa30 value="0.0042948102" flag="0"/>
    </comp>
    <comp name="--.HHN">
      <acc value="0.0125667200" flag="0"/>
      <vel value="0.0129937074" flag="0"/>
      <psa03 value="0.0353863218" flag="0"/>
      <psa10 value="0.0134844675" flag="0"/>
      <psa30 value="0.0023964458" flag="0"/>
    </comp>
  </station>
  <station code="BARME" name="BARME" netid="ME" insttype="CMG-5" lat="42.1055" lon="19.0889">
    <comp name="--.HNZ">
      <acc value="0.0425240645" flag="0"/>
      <vel value="0.0257523950" flag="0"/>
      <psa03 value="0.0693750622" flag="0"/>
      <psa10 value="0.0520988383" flag="0"/>
      <psa30 value="0.0036357503" flag="0"/>
    </comp>
    <comp name="--.HNE">
      <acc value="0.1028738089" flag="0"/>
      <vel value="0.0512307520" flag="0"/>
      <psa03 value="0.2351526328" flag="0"/>
      <psa10 value="0.1099899152" flag="0"/>
      <psa30 value="0.0075536112" flag="0"/>
    </comp>
    <comp name="--.HNN">
      <acc value="0.1248919681" flag="0"/>
      <vel value="0.0565220024" flag="0"/>
      <psa03 value="0.2652707314" flag="0"/>
      <psa10 value="0.0636752988" flag="0"/>
      <psa30 value="0.0054174717" flag="0"/>
    </comp>
  </station>
  <station code="PDG" name="PDG" netid="MN" insttype="" lat="42.4297" lon="19.2608">
    <comp name="--.HHE">
      <acc value="0.0525095750" flag="0"/>
      <vel value="0.0259545109" flag="0"/>
      <psa03 value="0.0842726459" flag="0"/>
      <psa10 value="0.0281689553" flag="0"/>
      <psa30 value="0.0046184364" flag="0"/>
    </comp>
    <comp name="--.HHZ">
      <acc value="0.0354047652" flag="0"/>
      <vel value="0.0227473238" flag="0"/>
      <psa03 value="0.1032780488" flag="0"/>
      <psa10 value="0.0244427838" flag="0"/>
      <psa30 value="0.0034601586" flag="0"/>
    </comp>
    <comp name="--.HHN">
      <acc value="0.0541450344" flag="0"/>
      <vel value="0.0241823772" flag="0"/>
      <psa03 value="0.0949085563" flag="0"/>
      <psa10 value="0.0309108126" flag="0"/>
      <psa30 value="0.0029545869" flag="0"/>
    </comp>
  </station>
  <station code="TIR" name="TIR" netid="MN" insttype="" lat="41.3472" lon="19.8631">
    <comp name="--.HHE">
      <acc value="0.7636337544" flag="0"/>
      <vel value="0.2506079922" flag="0"/>
      <psa03 value="0.9646239082" flag="0"/>
      <psa10 value="0.2796755886" flag="0"/>
      <psa30 value="0.0262552848" flag="0"/>
    </comp>
    <comp name="--.HHN">
      <acc value="0.8520910608" flag="0"/>
      <vel value="0.2878732888" flag="0"/>
      <psa03 value="1.2425398993" flag="0"/>
      <psa10 value="0.3797714676" flag="0"/>
      <psa30 value="0.0255804542" flag="0"/>
    </comp>
    <comp name="--.HHZ">
      <acc value="0.4929857763" flag="0"/>
      <vel value="0.2121909056" flag="0"/>
      <psa03 value="0.5224841296" flag="0"/>
      <psa10 value="0.4464359772" flag="0"/>
      <psa30 value="0.0266252182" flag="0"/>
    </comp>
  </station>
</stationlist>
