<?xml version="1.0" encoding="UTF-8" standalone="yes"?>
<!DOCTYPE earthquake SYSTEM "stationlist.dtd">
<stationlist created="" xmlns="ch.ethz.sed.shakemap.usgs.xml">
  <station code="ASB" name="ASB" netid="VI" insttype="STS-2.5" commtype="DIG" lat="64.7482" lon="-21.3254">
    <comp name="--.HHN">
      <acc value="0.0428214831" flag="0"/>
      <vel value="0.0131719023" flag="0"/>
      <psa03 value="0.0765430636" flag="0"/>
      <psa10 value="0.0154635333" flag="0"/>
      <psa30 value="0.0030756528" flag="0"/>
    </comp>
    <comp name="--.HHE">
      <acc value="0.0380104776" flag="0"/>
      <vel value="0.0145481572" flag="0"/>
      <psa03 value="0.0851380057" flag="0"/>
      <psa10 value="0.0181106685" flag="0"/>
      <psa30 value="0.0095878865" flag="0"/>
    </comp>
    <comp name="--.HHZ">
      <acc value="0.0228783041" flag="0"/>
      <vel value="0.0141286732" flag="0"/>
      <psa03 value="0.0618543205" flag="0"/>
      <psa10 value="0.0123447279" flag="0"/>
      <psa30 value="0.0051603349" flag="0"/>
    </comp>
  </station>
  <station code="GOD" name="GOD" netid="VI" insttype="CMG-3ESP" commtype="DIG" lat="63.6598" lon="-19.3224">
    <comp name="--.HHE">
      <acc value="0.0544191658" flag="0"/>
      <vel value="0.0434794233" flag="0"/>
      <psa03 value="0.1180022175" flag="0"/>
      <psa10 value="0.0420498004" flag="0"/>
      <psa30 value="0.0051123943" flag="0"/>
    </comp>
    <comp name="--.HHN">
      <acc value="0.0653760723" flag="0"/>
      <vel value="0.0393812865" flag="0"/>
      <psa03 value="0.1491385731" flag="0"/>
      <psa10 value="0.0448390485" flag="0"/>
      <psa30 value="0.0112309706" flag="0"/>
    </comp>
    <comp name="--.HHZ">
      <acc value="0.0443821220" flag="0"/>
      <vel value="0.0240078575" flag="0"/>
      <psa03 value="0.0596292074" flag="0"/>
      <psa10 value="0.0297260581" flag="0"/>
      <psa30 value="0.0035936949" flag="0"/>
    </comp>
  </station>
</stationlist>
