<?xml version="1.0" encoding="UTF-8" standalone="yes"?>
<!DOCTYPE earthquake SYSTEM "stationlist.dtd">
<stationlist created="" xmlns="ch.ethz.sed.shakemap.usgs.xml">
  <station code="IMMV" name="IMMV" netid="GE" insttype="STS-2/N" lat="35.4606" lon="23.9811">
    <comp name="--.HHZ">
      <acc value="0.0083467857" flag="0"/>
      <vel value="0.0044115978" flag="0"/>
      <psa03 value="0.0225772620" flag="0"/>
      <psa10 value="0.0036255519" flag="0"/>
      <psa30 value="0.0001864940" flag="0"/>
    </comp>
    <comp name="--.HHE">
      <acc value="0.0115744947" flag="0"/>
      <vel value="0.0064233133" flag="0"/>
      <psa03 value="0.0331402930" flag="0"/>
      <psa10 value="0.0087170184" flag="0"/>
      <psa30 value="0.0002697419" flag="0"/>
    </comp>
    <comp name="--.HHN">
      <acc value="0.0135661773" flag="0"/>
      <vel value="0.0057017195" flag="0"/>
      <psa03 value="0.0438897110" flag="0"/>
      <psa10 value="0.0062394191" flag="0"/>
      <psa30 value="0.0003025830" flag="0"/>
    </comp>
  </station>
  <station code="ZKR" name="ZKR" netid="GE" insttype="STS-2/N" lat="35.1147" lon="26.2169">
    <comp name="--.HHN">
      <acc value="0.0026174913" flag="0"/>
      <vel value="0.0013541925" flag="0"/>
      <psa03 value="0.0074461492" flag="0"/>
      <psa10 value="0.0020958432" flag="0"/>
      <psa30 value="0.0001464502" flag="0"/>
    </comp>
    <comp name="--.HHZ">
      <acc value="0.0039348894" flag="0"/>
      <vel value="0.0012862516" flag="0"/>
      <psa03 value="0.0111187735" flag="0"/>
      <psa10 value="0.0022672851" flag="0"/>
      <psa30 value="0.0001907012" flag="0"/>
    </comp>
    <comp name="--.HHE">
      <acc value="0.0056405854" flag="0"/>
      <vel value="0.0029546425" flag="0"/>
      <psa03 value="0.0126638396" flag="0"/>
      <psa10 value="0.0036104841" flag="0"/>
      <psa30 value="0.0002639742" flag="0"/>
    </comp>
  </station>
  <station code="IMOD" name="IMOD" netid="HC" insttype="120" lat="34.9731" lon="24.7995">
    <comp name="--.HHE">
      <acc value="0.0481064206" flag="0"/>
      <vel value="0.0240103168" flag="0"/>
      <psa03 value="0.1184320522" flag="0"/>
      <psa10 value="0.0160775668" flag="0"/>
      <psa30 value="0.0008688067" flag="0"/>
    </comp>
    <comp name="--.HHN">
      <acc value="0.0524381478" flag="0"/>
      <vel value="0.0306221053" flag="0"/>
      <psa03 value="0.1524025788" flag="0"/>
      <psa10 value="0.0277600379" flag="0"/>
      <psa30 value="0.0014341235" flag="0"/>
    </comp>
    <comp name="--.HHZ">
      <acc value="0.0354431881" flag="0"/>
      <vel value="0.0106479143" flag="0"/>
      <psa03 value="0.0497779796" flag="0"/>
      <psa10 value="0.0108865415" flag="0"/>
      <psa30 value="0.0004022006" flag="0"/>
    </comp>
  </station>
  <station code="KNSS" name="KNSS" netid="HC" insttype="60" lat="35.3042" lon="25.1802">
    <comp name="--.HHN">
      <acc value="0.1531244525" flag="0"/>
      <vel value="0.0567921089" flag="0"/>
      <psa03 value="0.4314290294" flag="0"/>
      <psa10 value="0.0253069895" flag="0"/>
      <psa30 value="0.0020423615" flag="0"/>
    </comp>
    <comp name="--.HHZ">
      <acc value="0.1331857660" flag="0"/>
      <vel value="0.0334354015" flag="0"/>
      <psa03 value="0.2246939588" flag="0"/>
      <psa10 value="0.0164001653" flag="0"/>
      <psa30 value="0.0011190028" flag="0"/>
    </comp>
    <comp name="--.HHE">
      <acc value="0.1464198516" flag="0"/>
      <vel value="0.0499620300" flag="0"/>
      <psa03 value="0.3403389533" flag="0"/>
      <psa10 value="0.0351330984" flag="0"/>
      <psa30 value="0.0022912100" flag="0"/>
    </comp>
  </station>
  <station code="PFKS" name="PFKS" netid="HC" insttype="120" lat="35.0429" lon="25.4733">
    <comp name="--.HHE">
      <acc value="0.1337353440" flag="0"/>
      <vel value="0.0383163772" flag="0"/>
      <psa03 value="0.1364746438" flag="0"/>
      <psa10 value="0.0127520167" flag="0"/>
      <psa30 value="0.0009716554" flag="0"/>
    </comp>
    <comp name="--.HHN">
      <acc value="0.1123469277" flag="0"/>
      <vel value="0.0492794625" flag="0"/>
      <psa03 value="0.2403411608" flag="0"/>
      <psa10 value="0.0345991035" flag="0"/>
      <psa30 value="0.0012929297" flag="0"/>
    </comp>
    <comp name="--.HHZ">
      <acc value="0.1091513346" flag="0"/>
      <vel value="0.0192104362" flag="0"/>
      <psa03 value="0.0816890084" flag="0"/>
      <psa10 value="0.0111512690" flag="0"/>
      <psa30 value="0.0006010642" flag="0"/>
    </comp>
  </station>
  <station code="STIA" name="STIA" netid="HC" insttype="120" lat="35.2021" lon="26.0909">
    <comp name="--.HHE">
      <acc value="0.0086177429" flag="0"/>
      <vel value="0.0049980168" flag="0"/>
      <psa03 value="0.0227388029" flag="0"/>
      <psa10 value="0.0034122818" flag="0"/>
      <psa30 value="0.0003194426" flag="0"/>
    </comp>
    <comp name="--.HHZ">
      <acc value="0.0074638448" flag="0"/>
      <vel value="0.0028765920" flag="0"/>
      <psa03 value="0.0223803933" flag="0"/>
      <psa10 value="0.0020236084" flag="0"/>
      <psa30 value="0.0002558899" flag="0"/>
    </comp>
    <comp name="--.HHN">
      <acc value="0.0074108888" flag="0"/>
      <vel value="0.0035561463" flag="0"/>
      <psa03 value="0.0170194535" flag="0"/>
      <psa10 value="0.0047719143" flag="0"/>
      <psa30 value="0.0001950088" flag="0"/>
    </comp>
  </station>
  <station code="IACM" name="IACM" netid="HL" insttype="120" lat="35.3058" lon="25.0709">
    <comp name="--.HHE">
      <acc value="0.2078965807" flag="0"/>
      <vel value="0.0915125577" flag="0"/>
      <psa03 value="0.4933857993" flag="0"/>
      <psa10 value="0.1069967799" flag="0"/>
      <psa30 value="0.0038799148" flag="0"/>
    </comp>
    <comp name="--.HHZ">
      <acc value="0.1708098926" flag="0"/>
      <vel value="0.0543699569" flag="0"/>
      <psa03 value="0.3624551386" flag="0"/>
      <psa10 value="0.0338108718" flag="0"/>
      <psa30 value="0.0018063791" flag="0"/>
    </comp>
    <comp name="--.HHN">
      <acc value="0.2574418125" flag="0"/>
      <vel value="0.0962831712" flag="0"/>
      <psa03 value="0.8528097615" flag="0"/>
      <psa10 value="0.0602063234" flag="0"/>
      <psa30 value="0.0031895491" flag="0"/>
    </comp>
  </station>
  <station code="IDI" name="IDI" netid="HL" insttype="120" lat="35.288" lon="24.89">
    <comp name="--.HHE">
      <acc value="0.0559170009" flag="0"/>
      <vel value="0.0140879840" flag="0"/>
      <psa03 value="0.0780104646" flag="0"/>
      <psa10 value="0.0050385310" flag="0"/>
      <psa30 value="0.0003615200" flag="0"/>
    </comp>
    <comp name="--.HHZ">
      <acc value="0.0681011152" flag="0"/>
      <vel value="0.0171442849" flag="0"/>
      <psa03 value="0.1003807528" flag="0"/>
      <psa10 value="0.0044722441" flag="0"/>
      <psa30 value="0.0004156702" flag="0"/>
    </comp>
    <comp name="--.HHN">
      <acc value="0.0696140855" flag="0"/>
      <vel value="0.0113371013" flag="0"/>
      <psa03 value="0.0647564230" flag="0"/>
      <psa10 value="0.0042020986" flag="0"/>
      <psa30 value="0.0004337787" flag="0"/>
    </comp>
  </station>
  <station code="IMMV" name="IMMV" netid="HL" insttype="120" lat="35.4606" lon="23.9811">
    <comp name="--.HHZ">
      <acc value="0.0081333978" flag="0"/>
      <vel value="0.0043385175" flag="0"/>
      <psa03 value="0.0219196877" flag="0"/>
      <psa10 value="0.0035880998" flag="0"/>
      <psa30 value="0.0001848248" flag="0"/>
    </comp>
    <comp name="--.HHE">
      <acc value="0.0111511580" flag="0"/>
      <vel value="0.0063411094" flag="0"/>
      <psa03 value="0.0321416314" flag="0"/>
      <psa10 value="0.0086448400" flag="0"/>
      <psa30 value="0.0002655392" flag="0"/>
    </comp>
    <comp name="--.HHN">
      <acc value="0.0132498406" flag="0"/>
      <vel value="0.0056106981" flag="0"/>
      <psa03 value="0.0425769881" flag="0"/>
      <psa10 value="0.0061909321" flag="0"/>
      <psa30 value="0.0003011070" flag="0"/>
    </comp>
  </station>
  <station code="NPS" name="NPS" netid="HL" insttype="CMG3ESPC-120s" lat="35.2613" lon="25.6104">
    <comp name="--.HHE">
      <acc value="0.0147167513" flag="0"/>
      <vel value="0.0058905100" flag="0"/>
      <psa03 value="0.0291343707" flag="0"/>
      <psa10 value="0.0079932997" flag="0"/>
      <psa30 value="0.0003368521" flag="0"/>
    </comp>
    <comp name="--.HHN">
      <acc value="0.0355480433" flag="0"/>
      <vel value="0.0093321903" flag="0"/>
      <psa03 value="0.0499002183" flag="0"/>
      <psa10 value="0.0146235164" flag="0"/>
      <psa30 value="0.0004767538" flag="0"/>
    </comp>
    <comp name="--.HHZ">
      <acc value="0.0323199754" flag="0"/>
      <vel value="0.0097449597" flag="0"/>
      <psa03 value="0.0257412563" flag="0"/>
      <psa10 value="0.0097891968" flag="0"/>
      <psa30 value="0.0005678559" flag="0"/>
    </comp>
  </station>
  <station code="SIVA" name="SIVA" netid="HL" insttype="60" lat="35.0178" lon="24.812">
    <comp name="--.HHE">
      <acc value="0.0762634452" flag="0"/>
      <vel value="0.0368832849" flag="0"/>
      <psa03 value="0.0994573362" flag="0"/>
      <psa10 value="0.0214773504" flag="0"/>
      <psa30 value="0.0010268026" flag="0"/>
    </comp>
    <comp name="--.HHN">
      <acc value="0.0763819565" flag="0"/>
      <vel value="0.0361523910" flag="0"/>
      <psa03 value="0.1300466047" flag="0"/>
      <psa10 value="0.0187845731" flag="0"/>
      <psa30 value="0.0010915995" flag="0"/>
    </comp>
    <comp name="--.HHZ">
      <acc value="0.0501959995" flag="0"/>
      <vel value="0.0207984425" flag="0"/>
      <psa03 value="0.1040713887" flag="0"/>
      <psa10 value="0.0136071858" flag="0"/>
      <psa30 value="0.0007570823" flag="0"/>
    </comp>
  </station>
  <station code="VAM" name="VAM" netid="HL" insttype="CMG3ESPC-120s" lat="35.407" lon="24.1997">
    <comp name="--.HHN">
      <acc value="0.0289832040" flag="0"/>
      <vel value="0.0109127080" flag="0"/>
      <psa03 value="0.0743087679" flag="0"/>
      <psa10 value="0.0063609139" flag="0"/>
      <psa30 value="0.0003564831" flag="0"/>
    </comp>
    <comp name="--.HHZ">
      <acc value="0.0120305597" flag="0"/>
      <vel value="0.0057469844" flag="0"/>
      <psa03 value="0.0262648438" flag="0"/>
      <psa10 value="0.0025676765" flag="0"/>
      <psa30 value="0.0001906874" flag="0"/>
    </comp>
    <comp name="--.HHE">
      <acc value="0.0239429911" flag="0"/>
      <vel value="0.0116528936" flag="0"/>
      <psa03 value="0.0678998100" flag="0"/>
      <psa10 value="0.0057512567" flag="0"/>
      <psa30 value="0.0004203375" flag="0"/>
    </comp>
  </station>
  <station code="ZKR" name="ZKR" netid="HL" insttype="120" lat="35.1147" lon="26.2169">
    <comp name="--.HHN">
      <acc value="0.0025678788" flag="0"/>
      <vel value="0.0013318437" flag="0"/>
      <psa03 value="0.0072512907" flag="0"/>
      <psa10 value="0.0020822519" flag="0"/>
      <psa30 value="0.0001460532" flag="0"/>
    </comp>
    <comp name="--.HHZ">
      <acc value="0.0038847811" flag="0"/>
      <vel value="0.0012615290" flag="0"/>
      <psa03 value="0.0108075129" flag="0"/>
      <psa10 value="0.0022510819" flag="0"/>
      <psa30 value="0.0001908158" flag="0"/>
    </comp>
    <comp name="--.HHE">
      <acc value="0.0055096771" flag="0"/>
      <vel value="0.0028966157" flag="0"/>
      <psa03 value="0.0123752936" flag="0"/>
      <psa10 value="0.0035836381" flag="0"/>
      <psa30 value="0.0002636102" flag="0"/>
    </comp>
  </station>
  <station code="IDI" name="IDI" netid="MN" insttype="" lat="35.288" lon="24.89">
    <comp name="--.HHZ">
      <acc value="0.0691560327" flag="0"/>
      <vel value="0.0176025720" flag="0"/>
      <psa03 value="0.1021862907" flag="0"/>
      <psa10 value="0.0044876707" flag="0"/>
      <psa30 value="0.0004139331" flag="0"/>
    </comp>
    <comp name="--.HHE">
      <acc value="0.0709738601" flag="0"/>
      <vel value="0.0146640234" flag="0"/>
      <psa03 value="0.0799293224" flag="0"/>
      <psa10 value="0.0050274604" flag="0"/>
      <psa30 value="0.0003612992" flag="0"/>
    </comp>
    <comp name="--.HHN">
      <acc value="0.0771283052" flag="0"/>
      <vel value="0.0117813611" flag="0"/>
      <psa03 value="0.0653558159" flag="0"/>
      <psa10 value="0.0042033621" flag="0"/>
      <psa30 value="0.0004339868" flag="0"/>
    </comp>
  </station>
</stationlist>
