<stationlist created="1778138313">
	<station code="ABEA" name="ABEA" netid="HC" source="Seismological Network of Crete (HC)" insttype="" lat="35.5163" lon="24.0113">
		<comp name="--.HNE" depth="0.0">
			<acc value="0.0107817171585881" flag="0"/>
			<vel value="0.00729004249386876" flag="0"/>
			<psa03 value="0.0283994880975633" flag="0"/>
			<psa10 value="0.0111395523156693" flag="0"/>
			<psa30 value="0.000643401424270635" flag="0"/>
		</comp>
		<comp name="--.HNN" depth="0.0">
			<acc value="0.0112075339853225" flag="0"/>
			<vel value="0.00621248681922947" flag="0"/>
			<psa03 value="0.0391011058813465" flag="0"/>
			<psa10 value="0.00963809535150697" flag="0"/>
			<psa30 value="0.00128889465377772" flag="0"/>
		</comp>
		<comp name="--.HNZ" depth="0.0">
			<acc value="0.00702539360585382" flag="0"/>
			<vel value="0.00311122063373955" flag="0"/>
			<psa03 value="0.0123855548572111" flag="0"/>
			<psa10 value="0.00787503324481524" flag="0"/>
			<psa30 value="0.00056671618799901" flag="0"/>
		</comp>
	</station>
	<station code="ATEI" name="ATEI" netid="HC" source="Seismological Network of Crete (HC)" insttype="" lat="35.5193" lon="24.0432">
		<comp name="--.HNE" depth="0.0">
			<acc value="0.00747589981558372" flag="0"/>
			<vel value="0.00378845308211847" flag="0"/>
			<psa03 value="0.0167616989219717" flag="0"/>
			<psa10 value="0.00790291259168639" flag="0"/>
			<psa30 value="0.000734553400142679" flag="0"/>
		</comp>
		<comp name="--.HNN" depth="0.0">
			<acc value="0.0068399568110407" flag="0"/>
			<vel value="0.00469019302358525" flag="0"/>
			<psa03 value="0.0239351741294895" flag="0"/>
			<psa10 value="0.00638919840929272" flag="0"/>
			<psa30 value="0.000854442540126408" flag="0"/>
		</comp>
		<comp name="--.HNZ" depth="0.0">
			<acc value="0.00502929824292979" flag="0"/>
			<vel value="0.00360861568417211" flag="0"/>
			<psa03 value="0.0130111991676714" flag="0"/>
			<psa10 value="0.00686528166620173" flag="0"/>
			<psa30 value="0.000686769453438991" flag="0"/>
		</comp>
	</station>
	<station code="DEYA" name="DEYA" netid="HC" source="Seismological Network of Crete (HC)" insttype="" lat="35.4825" lon="24.014">
		<comp name="--.HNE" depth="0.0">
			<acc value="0.022727572972848" flag="0"/>
			<vel value="0.0162992996810378" flag="0"/>
			<psa03 value="0.0556084181595927" flag="0"/>
			<psa10 value="0.0215333958568041" flag="0"/>
			<psa30 value="0.0010512389102537" flag="0"/>
		</comp>
		<comp name="--.HNN" depth="0.0">
			<acc value="0.0152926040166276" flag="0"/>
			<vel value="0.0090091209654232" flag="0"/>
			<psa03 value="0.0521463190211447" flag="0"/>
			<psa10 value="0.0111057363255473" flag="0"/>
			<psa30 value="0.000883703957715439" flag="0"/>
		</comp>
		<comp name="--.HNZ" depth="0.0">
			<acc value="0.0128032994803158" flag="0"/>
			<vel value="0.0091232408378265" flag="0"/>
			<psa03 value="0.0286102260162139" flag="0"/>
			<psa10 value="0.00935548037965389" flag="0"/>
			<psa30 value="0.00127576222131894" flag="0"/>
		</comp>
	</station>
	<station code="G0LD" name="G0LD" netid="HC" source="Seismological Network of Crete (HC)" insttype="" lat="35.4955" lon="24.0306">
		<comp name="--.HNE" depth="0.0">
			<acc value="0.0192436994651324" flag="0"/>
			<vel value="0.0134164186231146" flag="0"/>
			<psa03 value="0.0594520321551948" flag="0"/>
			<psa10 value="0.0343815276074691" flag="0"/>
			<psa30 value="0.00171980819968458" flag="0"/>
		</comp>
		<comp name="--.HNN" depth="0.0">
			<acc value="0.0221908850267851" flag="0"/>
			<vel value="0.0141167227036166" flag="0"/>
			<psa03 value="0.102485914188653" flag="0"/>
			<psa10 value="0.0216696198809758" flag="0"/>
			<psa30 value="0.00139393557055497" flag="0"/>
		</comp>
		<comp name="--.HNZ" depth="0.0">
			<acc value="0.0144996858764612" flag="0"/>
			<vel value="0.0109126746453631" flag="0"/>
			<psa03 value="0.0257487265600872" flag="0"/>
			<psa10 value="0.0190031144880626" flag="0"/>
			<psa30 value="0.00185954360230316" flag="0"/>
		</comp>
	</station>
	<station code="LENT" name="LENT" netid="HC" source="Seismological Network of Crete (HC)" insttype="" lat="35.5074" lon="24.0402">
		<comp name="--.HNE" depth="0.0">
			<acc value="0.0118754256417451" flag="0"/>
			<vel value="0.00623316877211694" flag="0"/>
			<psa03 value="0.021444385429037" flag="0"/>
			<psa10 value="0.0081579341730861" flag="0"/>
			<psa30 value="0.00097858899338646" flag="0"/>
		</comp>
		<comp name="--.HNN" depth="0.0">
			<acc value="0.013450531923833" flag="0"/>
			<vel value="0.006009082628525" flag="0"/>
			<psa03 value="0.0274190794002628" flag="0"/>
			<psa10 value="0.00711524978787196" flag="0"/>
			<psa30 value="0.00081403460287873" flag="0"/>
		</comp>
		<comp name="--.HNZ" depth="0.0">
			<acc value="0.00932062163755165" flag="0"/>
			<vel value="0.00430518640701367" flag="0"/>
			<psa03 value="0.0228392135066555" flag="0"/>
			<psa10 value="0.00381923167722875" flag="0"/>
			<psa30 value="0.000703716930291559" flag="0"/>
		</comp>
	</station>
	<station code="MULT" name="MULT" netid="HC" source="Seismological Network of Crete (HC)" insttype="" lat="35.5091" lon="24.0118">
		<comp name="--.HNE" depth="0.0">
			<acc value="0.0192406891881433" flag="0"/>
			<vel value="0.00813484593197772" flag="0"/>
			<psa03 value="0.027220034964559" flag="0"/>
			<psa10 value="0.00706399045469467" flag="0"/>
			<psa30 value="0.00087125005979072" flag="0"/>
		</comp>
		<comp name="--.HNN" depth="0.0">
			<acc value="0.01430602424677" flag="0"/>
			<vel value="0.00571145830260306" flag="0"/>
			<psa03 value="0.035309474496056" flag="0"/>
			<psa10 value="0.00910964409421129" flag="0"/>
			<psa30 value="0.00116823009784586" flag="0"/>
		</comp>
		<comp name="--.HNZ" depth="0.0">
			<acc value="0.0185638891186393" flag="0"/>
			<vel value="0.00573501225713123" flag="0"/>
			<psa03 value="0.0177784329422497" flag="0"/>
			<psa10 value="0.0057917575817469" flag="0"/>
			<psa30 value="0.00277271097016066" flag="0"/>
		</comp>
	</station>
	<station code="NERO" name="NERO" netid="HC" source="Seismological Network of Crete (HC)" insttype="" lat="35.474" lon="24.0423">
		<comp name="--.HNE" depth="0.0">
			<acc value="0.0114910356267517" flag="0"/>
			<vel value="0.00600807832779082" flag="0"/>
			<psa03 value="0.0293915772560836" flag="0"/>
			<psa10 value="0.00561333904365507" flag="0"/>
			<psa30 value="0.000594418335629276" flag="0"/>
		</comp>
		<comp name="--.HNN" depth="0.0">
			<acc value="0.00999082311686154" flag="0"/>
			<vel value="0.00380994766568039" flag="0"/>
			<psa03 value="0.034177339601858" flag="0"/>
			<psa10 value="0.00595763013251108" flag="0"/>
			<psa30 value="0.00101967598603012" flag="0"/>
		</comp>
		<comp name="--.HNZ" depth="0.0">
			<acc value="0.00874824644314457" flag="0"/>
			<vel value="0.00586055476051185" flag="0"/>
			<psa03 value="0.0204905657327511" flag="0"/>
			<psa10 value="0.00524475150154828" flag="0"/>
			<psa30 value="0.000968890330061962" flag="0"/>
		</comp>
	</station>
	<station code="PASK" name="PASK" netid="HC" source="Seismological Network of Crete (HC)" insttype="" lat="35.4996" lon="24.0121">
		<comp name="--.HNE" depth="0.0">
			<acc value="0.013665500665239" flag="0"/>
			<vel value="0.0109203501525632" flag="0"/>
			<psa03 value="0.0356092261239565" flag="0"/>
			<psa10 value="0.00764042051535728" flag="0"/>
			<psa30 value="0.00117596290176907" flag="0"/>
		</comp>
		<comp name="--.HNN" depth="0.0">
			<acc value="0.0143717235362513" flag="0"/>
			<vel value="0.00984341585108536" flag="0"/>
			<psa03 value="0.0320607228238941" flag="0"/>
			<psa10 value="0.00685546304703921" flag="0"/>
			<psa30 value="0.00112568957140865" flag="0"/>
		</comp>
		<comp name="--.HNZ" depth="0.0">
			<acc value="0.00967918671189672" flag="0"/>
			<vel value="0.00482675853826894" flag="0"/>
			<psa03 value="0.0242783713437642" flag="0"/>
			<psa10 value="0.0038178658836272" flag="0"/>
			<psa30 value="0.000919641546739272" flag="0"/>
		</comp>
	</station>
	<station code="POLY" name="POLY" netid="HC" source="Seismological Network of Crete (HC)" insttype="" lat="35.5226" lon="24.0602">
		<comp name="--.HNE" depth="0.0">
			<acc value="0.00592316688096628" flag="0"/>
			<vel value="0.00435866689612624" flag="0"/>
			<psa03 value="0.0157867827760317" flag="0"/>
			<psa10 value="0.00516297874076839" flag="0"/>
			<psa30 value="0.000787766821100391" flag="0"/>
		</comp>
		<comp name="--.HNN" depth="0.0">
			<acc value="0.00889475530224232" flag="0"/>
			<vel value="0.0059071436692384" flag="0"/>
			<psa03 value="0.0234280780368523" flag="0"/>
			<psa10 value="0.00805576052960022" flag="0"/>
			<psa30 value="0.000697416460834615" flag="0"/>
		</comp>
		<comp name="--.HNZ" depth="0.0">
			<acc value="0.00568608990625818" flag="0"/>
			<vel value="0.00336069721102695" flag="0"/>
			<psa03 value="0.0151812009925388" flag="0"/>
			<psa10 value="0.0040605650862642" flag="0"/>
			<psa30 value="0.000656272276899341" flag="0"/>
		</comp>
	</station>
	<station code="SOUD" name="SOUD" netid="HC" source="Seismological Network of Crete (HC)" insttype="" lat="35.4878" lon="24.0678">
		<comp name="--.HNE" depth="0.0">
			<acc value="0.0190049545904568" flag="0"/>
			<vel value="0.0090935875050366" flag="0"/>
			<psa03 value="0.0545422433643199" flag="0"/>
			<psa10 value="0.0119910884132751" flag="0"/>
			<psa30 value="0.000944271824206578" flag="0"/>
		</comp>
		<comp name="--.HNN" depth="0.0">
			<acc value="0.0180417081835099" flag="0"/>
			<vel value="0.010823119729922" flag="0"/>
			<psa03 value="0.0468419051298517" flag="0"/>
			<psa10 value="0.0100847396269997" flag="0"/>
			<psa30 value="0.00158556003557139" flag="0"/>
		</comp>
		<comp name="--.HNZ" depth="0.0">
			<acc value="0.00636296956125722" flag="0"/>
			<vel value="0.00394835246117157" flag="0"/>
			<psa03 value="0.00879258246541587" flag="0"/>
			<psa10 value="0.00421350771797113" flag="0"/>
			<psa30 value="0.0021651796825296" flag="0"/>
		</comp>
	</station>
	<station code="AGNA" name="AGNA" netid="HL" source="National Observatory of Athens Seismic Network" insttype="" lat="35.1895" lon="25.71853">
		<comp name="00.HNE" depth="0.0">
			<acc value="0.0165313409492513" flag="0"/>
			<vel value="0.0130561670834094" flag="0"/>
			<psa03 value="0.034901601122264" flag="0"/>
			<psa10 value="0.0143105917564789" flag="0"/>
			<psa30 value="0.000677587178493565" flag="0"/>
		</comp>
		<comp name="00.HNN" depth="0.0">
			<acc value="0.0171616182327763" flag="0"/>
			<vel value="0.0100729978381968" flag="0"/>
			<psa03 value="0.03372344755457" flag="0"/>
			<psa10 value="0.0122182681503052" flag="0"/>
			<psa30 value="0.00093110313934804" flag="0"/>
		</comp>
		<comp name="00.HNZ" depth="0.0">
			<acc value="0.0159361943384966" flag="0"/>
			<vel value="0.00916529852019763" flag="0"/>
			<psa03 value="0.024239582315877" flag="0"/>
			<psa10 value="0.0120435046980776" flag="0"/>
			<psa30 value="0.000489689939554565" flag="0"/>
		</comp>
	</station>
	<station code="ANKY" name="ANKY" netid="HL" source="National Observatory of Athens Seismic Network" insttype="" lat="35.86704" lon="23.30117">
		<comp name="00.HNE" depth="0.0">
			<acc value="0.0015839742586917" flag="0"/>
			<vel value="0.00114738255613954" flag="0"/>
			<psa03 value="0.00506494750709131" flag="0"/>
			<psa10 value="0.00171054995616489" flag="0"/>
			<psa30 value="0.00013277853550946" flag="0"/>
		</comp>
		<comp name="00.HNN" depth="0.0">
			<acc value="0.00187190272560123" flag="0"/>
			<vel value="0.00089171986508227" flag="0"/>
			<psa03 value="0.00556528924601684" flag="0"/>
			<psa10 value="0.00189115031848898" flag="0"/>
			<psa30 value="0.000105399703567474" flag="0"/>
		</comp>
		<comp name="00.HNZ" depth="0.0">
			<acc value="0.00127560551042387" flag="0"/>
			<vel value="0.000472126794837922" flag="0"/>
			<psa03 value="0.00287809397991242" flag="0"/>
			<psa10 value="0.00051430227312814" flag="0"/>
			<psa30 value="8.56130542572343e-05" flag="0"/>
		</comp>
	</station>
	<station code="CHNB" name="CHNB" netid="HL" source="National Observatory of Athens Seismic Network" insttype="" lat="35.48765" lon="24.06605">
		<comp name="00.HNE" depth="0.0">
			<acc value="0.0195364647164984" flag="0"/>
			<vel value="0.016261610215043" flag="0"/>
			<psa03 value="0.0894292471655694" flag="0"/>
			<psa10 value="0.0157067351816349" flag="0"/>
			<psa30 value="0.000600130641125065" flag="0"/>
		</comp>
		<comp name="00.HNN" depth="0.0">
			<acc value="0.0209366586555832" flag="0"/>
			<vel value="0.0142794402571044" flag="0"/>
			<psa03 value="0.0673189230900431" flag="0"/>
			<psa10 value="0.0161551589500037" flag="0"/>
			<psa30 value="0.000765332574528908" flag="0"/>
		</comp>
		<comp name="00.HNZ" depth="0.0">
			<acc value="0.0146793704580891" flag="0"/>
			<vel value="0.00755384054857669" flag="0"/>
			<psa03 value="0.0388576027713273" flag="0"/>
			<psa10 value="0.00472545553822463" flag="0"/>
			<psa30 value="0.000339091707953356" flag="0"/>
		</comp>
	</station>
	<station code="HERG" name="HERG" netid="HL" source="National Observatory of Athens Seismic Network" insttype="" lat="35.32622" lon="25.06586">
		<comp name="00.HNE" depth="0.0">
			<acc value="0.0839775176866631" flag="0"/>
			<vel value="0.0339284090012302" flag="0"/>
			<psa03 value="0.136983595324184" flag="0"/>
			<psa10 value="0.04712814575832" flag="0"/>
			<psa30 value="0.00325029427437801" flag="0"/>
		</comp>
		<comp name="00.HNN" depth="0.0">
			<acc value="0.0752525249934515" flag="0"/>
			<vel value="0.0351187930807967" flag="0"/>
			<psa03 value="0.164295508770969" flag="0"/>
			<psa10 value="0.0679961819132361" flag="0"/>
			<psa30 value="0.0027929864799823" flag="0"/>
		</comp>
		<comp name="00.HNZ" depth="0.0">
			<acc value="0.0948198664921717" flag="0"/>
			<vel value="0.028708054361508" flag="0"/>
			<psa03 value="0.144502874689481" flag="0"/>
			<psa10 value="0.0219441361913318" flag="0"/>
			<psa30 value="0.00167627323237695" flag="0"/>
		</comp>
	</station>
	<station code="IACM" name="IACM" netid="HL" source="National Observatory of Athens Seismic Network" insttype="" lat="35.3058" lon="25.0709">
		<comp name="--.HNE" depth="0.0">
			<acc value="0.200596604681479" flag="0"/>
			<vel value="0.0909178252684693" flag="0"/>
			<psa03 value="0.482012097602256" flag="0"/>
			<psa10 value="0.107536986297392" flag="0"/>
			<psa30 value="0.00401698652231151" flag="0"/>
		</comp>
		<comp name="--.HNN" depth="0.0">
			<acc value="0.262447109604317" flag="0"/>
			<vel value="0.0999196246498777" flag="0"/>
			<psa03 value="0.856143881995928" flag="0"/>
			<psa10 value="0.0614128983032756" flag="0"/>
			<psa30 value="0.00330359363853306" flag="0"/>
		</comp>
		<comp name="--.HNZ" depth="0.0">
			<acc value="0.160935722733346" flag="0"/>
			<vel value="0.0542006078731616" flag="0"/>
			<psa03 value="0.365100769467322" flag="0"/>
			<psa10 value="0.0335459160023131" flag="0"/>
			<psa30 value="0.00193988392445693" flag="0"/>
		</comp>
	</station>
	<station code="IMMV" name="IMMV" netid="HL" source="National Observatory of Athens Seismic Network" insttype="" lat="35.4606" lon="23.9811">
		<comp name="--.HNE" depth="0.0">
			<acc value="0.010660899141664" flag="0"/>
			<vel value="0.00600281530374622" flag="0"/>
			<psa03 value="0.0304694481388812" flag="0"/>
			<psa10 value="0.00835025253823336" flag="0"/>
			<psa30 value="0.000262371104756194" flag="0"/>
		</comp>
		<comp name="--.HNN" depth="0.0">
			<acc value="0.0128170836152743" flag="0"/>
			<vel value="0.00552751580476222" flag="0"/>
			<psa03 value="0.0416381958261326" flag="0"/>
			<psa10 value="0.00607404253176409" flag="0"/>
			<psa30 value="0.000297556742923765" flag="0"/>
		</comp>
		<comp name="--.HNZ" depth="0.0">
			<acc value="0.00807703348398965" flag="0"/>
			<vel value="0.00438406295985787" flag="0"/>
			<psa03 value="0.0215066968485287" flag="0"/>
			<psa10 value="0.00360918940358572" flag="0"/>
			<psa30 value="0.000191999463813677" flag="0"/>
		</comp>
	</station>
	<station code="SIVA" name="SIVA" netid="HL" source="National Observatory of Athens Seismic Network" insttype="" lat="35.01777" lon="24.81204">
		<comp name="00.HNE" depth="0.0">
			<acc value="0.0685637709038754" flag="0"/>
			<vel value="0.0337099188458306" flag="0"/>
			<psa03 value="0.0911019829759826" flag="0"/>
			<psa10 value="0.0200553066906339" flag="0"/>
			<psa30 value="0.00101642743749715" flag="0"/>
		</comp>
		<comp name="00.HNN" depth="0.0">
			<acc value="0.0771680033093663" flag="0"/>
			<vel value="0.0410196462536471" flag="0"/>
			<psa03 value="0.138471839746242" flag="0"/>
			<psa10 value="0.0224452256360594" flag="0"/>
			<psa30 value="0.00126734291358117" flag="0"/>
		</comp>
		<comp name="00.HNZ" depth="0.0">
			<acc value="0.051355635571553" flag="0"/>
			<vel value="0.0205891389264749" flag="0"/>
			<psa03 value="0.103443748474191" flag="0"/>
			<psa10 value="0.0132323587663231" flag="0"/>
			<psa30 value="0.000751151583022084" flag="0"/>
		</comp>
	</station>
	<station code="THRA" name="THRA" netid="HL" source="National Observatory of Athens Seismic Network" insttype="" lat="36.41502" lon="25.43244">
		<comp name="00.HNE" depth="0.0">
			<acc value="0.0133474690928021" flag="0"/>
			<vel value="0.00547580972066518" flag="0"/>
			<psa03 value="0.0240293444303111" flag="0"/>
			<psa10 value="0.00806266286185157" flag="0"/>
			<psa30 value="0.000508854646621297" flag="0"/>
		</comp>
		<comp name="00.HNN" depth="0.0">
			<acc value="0.0137971236059213" flag="0"/>
			<vel value="0.00470573655359056" flag="0"/>
			<psa03 value="0.0230175873021827" flag="0"/>
			<psa10 value="0.00502804808351413" flag="0"/>
			<psa30 value="0.00040039543048207" flag="0"/>
		</comp>
		<comp name="00.HNZ" depth="0.0">
			<acc value="0.0336746255699226" flag="0"/>
			<vel value="0.00377239141425681" flag="0"/>
			<psa03 value="0.0251741728737594" flag="0"/>
			<psa10 value="0.00196592324057809" flag="0"/>
			<psa30 value="0.000186478629335668" flag="0"/>
		</comp>
	</station>
</stationlist>
