<stationlist created="1730608298">
	<station code="ARPRA" name="ARPRA" netid="KO" source="Bogazici University Kandilli Observatory And Earthquake Research Institute (KOERI)" insttype="" lat="39.0929" lon="38.3356">
		<comp name=".HNE" depth="0.0">
			<acc value="0.052234828014408" flag="0"/>
			<vel value="0.0239440412886" flag="0"/>
			<psa03 value="0.0698891193946506" flag="0"/>
			<psa10 value="0.00978267305408919" flag="0"/>
			<psa30 value="0.00112762042848506" flag="0"/>
		</comp>
		<comp name=".HNN" depth="0.0">
			<acc value="0.036259223716308" flag="0"/>
			<vel value="0.0126189122804" flag="0"/>
			<psa03 value="0.0714872408870155" flag="0"/>
			<psa10 value="0.00953358905349985" flag="0"/>
			<psa30 value="0.000705084104194656" flag="0"/>
		</comp>
		<comp name=".HNZ" depth="0.0">
			<acc value="0.016784482994802" flag="0"/>
			<vel value="0.00847701370107" flag="0"/>
			<psa03 value="0.0214237707821661" flag="0"/>
			<psa10 value="0.0082362815507277" flag="0"/>
			<psa30 value="0.000902222267796609" flag="0"/>
		</comp>
	</station>
	<station code="KHMN" name="KHMN" netid="KO" source="Bogazici University Kandilli Observatory And Earthquake Research Institute (KOERI)" insttype="" lat="37.3916" lon="37.1574">
		<comp name=".HNE" depth="0.0">
			<acc value="0.006635633997744" flag="0"/>
			<vel value="0.00212377525364" flag="0"/>
			<psa03 value="0.0120362296328249" flag="0"/>
			<psa10 value="0.00232238353401307" flag="0"/>
			<psa30 value="0.000487889507786706" flag="0"/>
		</comp>
		<comp name=".HNN" depth="0.0">
			<acc value="0.007565951160489" flag="0"/>
			<vel value="0.00323807924248" flag="0"/>
			<psa03 value="0.00967655573788668" flag="0"/>
			<psa10 value="0.00386890371775854" flag="0"/>
			<psa30 value="0.000921469480329024" flag="0"/>
		</comp>
		<comp name=".HNZ" depth="0.0">
			<acc value="0.0080783764986186" flag="0"/>
			<vel value="0.00187365164011" flag="0"/>
			<psa03 value="0.00617480032624661" flag="0"/>
			<psa10 value="0.00212983616931956" flag="0"/>
			<psa30 value="0.000400363292936702" flag="0"/>
		</comp>
	</station>
	<station code="RFHY" name="RFHY" netid="KO" source="Bogazici University Kandilli Observatory And Earthquake Research Institute (KOERI)" insttype="" lat="39.927" lon="38.833">
		<comp name=".HNE" depth="0.0">
			<acc value="0.0016718686029222" flag="0"/>
			<vel value="0.00531897215463" flag="0"/>
			<psa03 value="0.00152732920540711" flag="0"/>
			<psa10 value="0.00142884266162491" flag="0"/>
			<psa30 value="0.00291606025801519" flag="0"/>
		</comp>
		<comp name=".HNN" depth="0.0">
			<acc value="0.0030251639520462" flag="0"/>
			<vel value="0.00347085144219" flag="0"/>
			<psa03 value="0.00479907670432719" flag="0"/>
			<psa10 value="0.00839149870810473" flag="0"/>
			<psa30 value="0.00059557065155022" flag="0"/>
		</comp>
		<comp name=".HNZ" depth="0.0">
			<acc value="0.0018123211720968" flag="0"/>
			<vel value="0.00339871433821" flag="0"/>
			<psa03 value="0.00345025981277993" flag="0"/>
			<psa10 value="0.00268108424929912" flag="0"/>
			<psa30 value="0.00109902488833858" flag="0"/>
		</comp>
	</station>
	<station code="TUNC" name="TUNC" netid="KO" source="Bogazici University Kandilli Observatory And Earthquake Research Institute (KOERI)" insttype="" lat="39.6942" lon="37.5388">
		<comp name=".HNE" depth="0.0">
			<acc value="0.0052929932265732" flag="0"/>
			<vel value="0.00411252419292" flag="0"/>
			<psa03 value="0.00826031543452686" flag="0"/>
			<psa10 value="0.00355737995583767" flag="0"/>
			<psa30 value="0.000555202873215948" flag="0"/>
		</comp>
		<comp name=".HNN" depth="0.0">
			<acc value="0.0040972624587738" flag="0"/>
			<vel value="0.00338238551163" flag="0"/>
			<psa03 value="0.0117675074041771" flag="0"/>
			<psa10 value="0.00368073476811408" flag="0"/>
			<psa30 value="0.000544503987383874" flag="0"/>
		</comp>
		<comp name=".HNZ" depth="0.0">
			<acc value="0.0023390508264858" flag="0"/>
			<vel value="0.00224002451233" flag="0"/>
			<psa03 value="0.00518882810937656" flag="0"/>
			<psa10 value="0.00222802962727867" flag="0"/>
			<psa30 value="0.000406322724178177" flag="0"/>
		</comp>
	</station>
</stationlist>
