<?xml version="1.0" encoding="UTF-8" standalone="yes"?>
<!DOCTYPE earthquake SYSTEM "stationlist.dtd">
<stationlist created="" xmlns="ch.ethz.sed.shakemap.usgs.xml">
  <station code="ARPRA" name="ARPRA" netid="KO" insttype="CMG-5T" lat="39.0929" lon="38.3356">
    <comp name="--.HNE">
      <acc value="0.0523979482" flag="0"/>
      <vel value="0.0241191319" flag="0"/>
      <psa03 value="0.0696228206" flag="0"/>
      <psa10 value="0.0098045997" flag="0"/>
      <psa30 value="0.0011026529" flag="0"/>
    </comp>
    <comp name="--.HNZ">
      <acc value="0.0168847121" flag="0"/>
      <vel value="0.0085565869" flag="0"/>
      <psa03 value="0.0211814605" flag="0"/>
      <psa10 value="0.0082778577" flag="0"/>
      <psa30 value="0.0008103544" flag="0"/>
    </comp>
    <comp name="--.HNN">
      <acc value="0.0362473357" flag="0"/>
      <vel value="0.0125642906" flag="0"/>
      <psa03 value="0.0702064932" flag="0"/>
      <psa10 value="0.0094935667" flag="0"/>
      <psa30 value="0.0006299201" flag="0"/>
    </comp>
  </station>
  <station code="DARE" name="DARE" netid="KO" insttype="CMG-3ESP" lat="38.5712" lon="37.4832">
    <comp name="--.HHZ">
      <acc value="0.0024148670" flag="0"/>
      <vel value="0.0015500606" flag="0"/>
      <psa03 value="0.0046115618" flag="0"/>
      <psa10 value="0.0017508595" flag="0"/>
      <psa30 value="0.0002288878" flag="0"/>
    </comp>
    <comp name="--.HHN">
      <acc value="0.0028615716" flag="0"/>
      <vel value="0.0016114078" flag="0"/>
      <psa03 value="0.0065531093" flag="0"/>
      <psa10 value="0.0023027619" flag="0"/>
      <psa30 value="0.0002565777" flag="0"/>
    </comp>
  </station>
  <station code="SVRC" name="SVRC" netid="KO" insttype="CMG-3T" lat="38.3775" lon="39.306">
    <comp name="--.HHZ">
      <acc value="0.0324620206" flag="0"/>
      <vel value="0.0155893717" flag="0"/>
      <psa03 value="0.0536632788" flag="0"/>
      <psa10 value="0.0070293990" flag="0"/>
      <psa30 value="0.0008842882" flag="0"/>
    </comp>
  </station>
</stationlist>
