<?xml version="1.0" encoding="UTF-8" standalone="yes"?>
<!DOCTYPE earthquake SYSTEM "stationlist.dtd">
<stationlist created="" xmlns="ch.ethz.sed.shakemap.usgs.xml">
  <station code="ARPRA" name="ARPRA" netid="KO" insttype="CMG-5T" lat="39.0929" lon="38.3356">
    <comp name="--.HNE">
      <acc value="0.0183957571" flag="0"/>
      <vel value="0.0092074255" flag="0"/>
      <psa03 value="0.0440873708" flag="0"/>
      <psa10 value="0.0069591778" flag="0"/>
      <psa30 value="0.0005863991" flag="0"/>
    </comp>
    <comp name="--.HNN">
      <acc value="0.0171682590" flag="0"/>
      <vel value="0.0083685653" flag="0"/>
      <psa03 value="0.0514607498" flag="0"/>
      <psa10 value="0.0087791746" flag="0"/>
      <psa30 value="0.0006663458" flag="0"/>
    </comp>
    <comp name="--.HNZ">
      <acc value="0.0099974773" flag="0"/>
      <vel value="0.0043854162" flag="0"/>
      <psa03 value="0.0231480660" flag="0"/>
      <psa10 value="0.0047657176" flag="0"/>
      <psa30 value="0.0004348369" flag="0"/>
    </comp>
  </station>
  <station code="DARE" name="DARE" netid="KO" insttype="CMG-3ESP" lat="38.5712" lon="37.4832">
    <comp name="--.HHE">
      <acc value="0.0020060717" flag="0"/>
      <vel value="0.0012600355" flag="0"/>
      <psa03 value="0.0036980329" flag="0"/>
      <psa10 value="0.0019454336" flag="0"/>
      <psa30 value="0.0001122590" flag="0"/>
    </comp>
    <comp name="--.HHZ">
      <acc value="0.0016117493" flag="0"/>
      <vel value="0.0011480290" flag="0"/>
      <psa03 value="0.0044656237" flag="0"/>
      <psa10 value="0.0021266529" flag="0"/>
      <psa30 value="0.0002530223" flag="0"/>
    </comp>
    <comp name="--.HHN">
      <acc value="0.0027844735" flag="0"/>
      <vel value="0.0016876872" flag="0"/>
      <psa03 value="0.0052663301" flag="0"/>
      <psa10 value="0.0031650593" flag="0"/>
      <psa30 value="0.0001152610" flag="0"/>
    </comp>
  </station>
  <station code="URFA" name="URFA" netid="KO" insttype="CMG-3ESP" lat="37.4409" lon="38.8213">
    <comp name="--.HHZ">
      <acc value="0.0421549370" flag="0"/>
      <vel value="0.0066058492" flag="0"/>
      <psa03 value="0.0181775288" flag="0"/>
      <psa10 value="0.0036994595" flag="0"/>
      <psa30 value="0.0008348700" flag="0"/>
    </comp>
    <comp name="--.HHN">
      <acc value="0.0610780322" flag="0"/>
      <vel value="0.0122378392" flag="0"/>
      <psa03 value="0.0355535801" flag="0"/>
      <psa10 value="0.0056639908" flag="0"/>
      <psa30 value="0.0006926919" flag="0"/>
    </comp>
    <comp name="--.HHE">
      <acc value="0.0759752418" flag="0"/>
      <vel value="0.0108119212" flag="0"/>
      <psa03 value="0.0350446225" flag="0"/>
      <psa10 value="0.0091445377" flag="0"/>
      <psa30 value="0.0008560511" flag="0"/>
    </comp>
  </station>
</stationlist>
