<?xml version="1.0" encoding="UTF-8" standalone="yes"?>
<!DOCTYPE earthquake SYSTEM "stationlist.dtd">
<stationlist created="" xmlns="ch.ethz.sed.shakemap.usgs.xml">
  <station code="ARPRA" name="ARPRA" netid="KO" insttype="CMG-5T" lat="39.0929" lon="38.3356">
    <comp name="--.HNE">
      <acc value="0.0183957585" flag="0"/>
      <vel value="0.0092074181" flag="0"/>
      <psa03 value="0.0440873708" flag="0"/>
      <psa10 value="0.0069591780" flag="0"/>
      <psa30 value="0.0005878042" flag="0"/>
    </comp>
    <comp name="--.HNZ">
      <acc value="0.0099974728" flag="0"/>
      <vel value="0.0043854168" flag="0"/>
      <psa03 value="0.0231480660" flag="0"/>
      <psa10 value="0.0047657178" flag="0"/>
      <psa30 value="0.0004366570" flag="0"/>
    </comp>
    <comp name="--.HNN">
      <acc value="0.0171682600" flag="0"/>
      <vel value="0.0083685521" flag="0"/>
      <psa03 value="0.0514607498" flag="0"/>
      <psa10 value="0.0087791751" flag="0"/>
      <psa30 value="0.0006665861" flag="0"/>
    </comp>
  </station>
  <station code="DARE" name="DARE" netid="KO" insttype="CMG-3ESP" lat="38.5712" lon="37.4832">
    <comp name="--.HHE">
      <acc value="0.0020060717" flag="0"/>
      <vel value="0.0012600354" flag="0"/>
      <psa03 value="0.0036980329" flag="0"/>
      <psa10 value="0.0019454336" flag="0"/>
      <psa30 value="0.0001122748" flag="0"/>
    </comp>
    <comp name="--.HHN">
      <acc value="0.0027844735" flag="0"/>
      <vel value="0.0016876872" flag="0"/>
      <psa03 value="0.0052663301" flag="0"/>
      <psa10 value="0.0031650593" flag="0"/>
      <psa30 value="0.0001152571" flag="0"/>
    </comp>
    <comp name="--.HHZ">
      <acc value="0.0016117493" flag="0"/>
      <vel value="0.0011480281" flag="0"/>
      <psa03 value="0.0044656237" flag="0"/>
      <psa10 value="0.0021266529" flag="0"/>
      <psa30 value="0.0002530215" flag="0"/>
    </comp>
  </station>
  <station code="URFA" name="URFA" netid="KO" insttype="CMG-3ESP" lat="37.4409" lon="38.8213">
    <comp name="--.HHE">
      <acc value="0.0759752418" flag="0"/>
      <vel value="0.0108119208" flag="0"/>
      <psa03 value="0.0350446225" flag="0"/>
      <psa10 value="0.0091445377" flag="0"/>
      <psa30 value="0.0008560357" flag="0"/>
    </comp>
    <comp name="--.HHN">
      <acc value="0.0610780322" flag="0"/>
      <vel value="0.0122378360" flag="0"/>
      <psa03 value="0.0355535801" flag="0"/>
      <psa10 value="0.0056639908" flag="0"/>
      <psa30 value="0.0006926979" flag="0"/>
    </comp>
    <comp name="--.HHZ">
      <acc value="0.0421549369" flag="0"/>
      <vel value="0.0066058500" flag="0"/>
      <psa03 value="0.0181775288" flag="0"/>
      <psa10 value="0.0036994595" flag="0"/>
      <psa30 value="0.0008348951" flag="0"/>
    </comp>
  </station>
</stationlist>
