<?xml version="1.0" encoding="UTF-8" standalone="yes"?>
<!DOCTYPE earthquake SYSTEM "stationlist.dtd">
<stationlist created="" xmlns="ch.ethz.sed.shakemap.usgs.xml">
  <station code="RP05B" name="RP05B" netid="5B" insttype="Compact" commtype="DIG" lat="37.6182" lon="21.6541">
    <comp name="--.HHE">
      <acc value="0.4037982250" flag="0"/>
      <vel value="0.2662483927" flag="0"/>
      <psa03 value="1.4430799547" flag="0"/>
      <psa10 value="0.2999089157" flag="0"/>
      <psa30 value="0.0525011687" flag="0"/>
    </comp>
    <comp name="--.HHZ">
      <acc value="0.3055711821" flag="0"/>
      <vel value="0.1691931142" flag="0"/>
      <psa03 value="0.8280240482" flag="0"/>
      <psa10 value="0.2915287278" flag="0"/>
      <psa30 value="0.0267516044" flag="0"/>
    </comp>
    <comp name="--.HHN">
      <acc value="0.3910778169" flag="0"/>
      <vel value="0.2892253792" flag="0"/>
      <psa03 value="1.5185595892" flag="0"/>
      <psa10 value="0.5454385046" flag="0"/>
      <psa30 value="0.0470684950" flag="0"/>
    </comp>
  </station>
  <station code="AGRP" name="AGRP" netid="CL" insttype="CMG40-T" commtype="DIG" lat="38.3959" lon="21.7228">
    <comp name="00.HHN">
      <acc value="0.1296805246" flag="0"/>
      <vel value="0.1050200688" flag="0"/>
      <psa03 value="0.2872357968" flag="0"/>
      <psa10 value="0.1419897077" flag="0"/>
      <psa30 value="0.0097761689" flag="0"/>
    </comp>
    <comp name="00.HHE">
      <acc value="0.1674179507" flag="0"/>
      <vel value="0.1072176641" flag="0"/>
      <psa03 value="0.4468812353" flag="0"/>
      <psa10 value="0.1218602429" flag="0"/>
      <psa30 value="0.0065278785" flag="0"/>
    </comp>
    <comp name="00.HHZ">
      <acc value="0.1020447755" flag="0"/>
      <vel value="0.0509186762" flag="0"/>
      <psa03 value="0.2321804705" flag="0"/>
      <psa10 value="0.0437913941" flag="0"/>
      <psa30 value="0.0059239829" flag="0"/>
    </comp>
  </station>
  <station code="MALA" name="MALA" netid="CL" insttype="TRILLIUM-40" commtype="DIG" lat="38.3934" lon="21.8726">
    <comp name="01.HHE">
      <acc value="0.3141480670" flag="0"/>
      <vel value="0.2025819472" flag="0"/>
      <psa03 value="0.6302697722" flag="0"/>
      <psa10 value="0.3976879702" flag="0"/>
      <psa30 value="0.0349821649" flag="0"/>
    </comp>
    <comp name="01.HHZ">
      <acc value="2.1067403388" flag="0"/>
      <vel value="0.2580919636" flag="0"/>
      <psa03 value="0.6608688716" flag="0"/>
      <psa10 value="0.2583019278" flag="0"/>
      <psa30 value="0.0119658113" flag="0"/>
    </comp>
    <comp name="01.HHN">
      <acc value="7.2587238168" flag="0"/>
      <vel value="0.4861883105" flag="0"/>
      <psa03 value="0.6162452781" flag="0"/>
      <psa10 value="0.3178875835" flag="0"/>
      <psa30 value="0.0276991654" flag="0"/>
    </comp>
  </station>
  <station code="MG06" name="MG06" netid="CL" insttype="TRILLIUM-40" commtype="DIG" lat="38.4129" lon="21.9462">
    <comp name="06.HHZ">
      <acc value="0.1268579250" flag="0"/>
      <vel value="0.0546688105" flag="0"/>
      <psa03 value="0.2128138055" flag="0"/>
      <psa10 value="0.0656419945" flag="0"/>
      <psa30 value="0.0090473766" flag="0"/>
    </comp>
    <comp name="06.HHN">
      <acc value="0.2111940153" flag="0"/>
      <vel value="0.0607281932" flag="0"/>
      <psa03 value="0.3729511682" flag="0"/>
      <psa10 value="0.0927528183" flag="0"/>
      <psa30 value="0.0091985036" flag="0"/>
    </comp>
    <comp name="06.HHE">
      <acc value="0.2256505601" flag="0"/>
      <vel value="0.0889167151" flag="0"/>
      <psa03 value="0.4755857254" flag="0"/>
      <psa10 value="0.0918759968" flag="0"/>
      <psa30 value="0.0200391543" flag="0"/>
    </comp>
  </station>
  <station code="PANR" name="PANR" netid="CL" insttype="TRILLIUM-40" commtype="DIG" lat="38.3735" lon="22.2497">
    <comp name="01.HHZ">
      <acc value="0.5182799848" flag="0"/>
      <vel value="0.2463423645" flag="0"/>
      <psa03 value="1.3835250537" flag="0"/>
      <psa10 value="0.1527390707" flag="0"/>
      <psa30 value="0.0323684359" flag="0"/>
    </comp>
    <comp name="01.HHE">
      <acc value="0.6641212419" flag="0"/>
      <vel value="0.4099920451" flag="0"/>
      <psa03 value="1.2171639057" flag="0"/>
      <psa10 value="0.3188546390" flag="0"/>
      <psa30 value="0.0351689393" flag="0"/>
    </comp>
    <comp name="01.HHN">
      <acc value="0.7910629930" flag="0"/>
      <vel value="0.4280068287" flag="0"/>
      <psa03 value="1.9493497744" flag="0"/>
      <psa10 value="0.5262305935" flag="0"/>
      <psa30 value="0.0409216560" flag="0"/>
    </comp>
  </station>
  <station code="PSAM" name="PSAM" netid="CL" insttype="CMG40-T" commtype="DIG" lat="38.3218" lon="22.1842">
    <comp name="00.HHE">
      <acc value="0.5325297137" flag="0"/>
      <vel value="0.3795559072" flag="0"/>
      <psa03 value="1.5167986241" flag="0"/>
      <psa10 value="0.6793492597" flag="0"/>
      <psa30 value="0.0320567841" flag="0"/>
    </comp>
    <comp name="00.HHZ">
      <acc value="0.4897431884" flag="0"/>
      <vel value="0.1571337702" flag="0"/>
      <psa03 value="0.8951604963" flag="0"/>
      <psa10 value="0.1981078029" flag="0"/>
      <psa30 value="0.0286739902" flag="0"/>
    </comp>
    <comp name="00.HHN">
      <acc value="0.4318426082" flag="0"/>
      <vel value="0.2236773701" flag="0"/>
      <psa03 value="0.8990539541" flag="0"/>
      <psa10 value="0.4129582926" flag="0"/>
      <psa30 value="0.0326883255" flag="0"/>
    </comp>
  </station>
  <station code="TRIZ" name="TRIZ" netid="CL" insttype="STS-2" commtype="DIG" lat="38.3654" lon="22.0727">
    <comp name="00.HH3">
      <acc value="0.8239085697" flag="0"/>
      <vel value="0.4301885198" flag="0"/>
      <psa03 value="1.6636961789" flag="0"/>
      <psa10 value="0.2401501105" flag="0"/>
      <psa30 value="0.0360770885" flag="0"/>
    </comp>
    <comp name="00.HHZ">
      <acc value="0.3024542108" flag="0"/>
      <vel value="0.1629753888" flag="0"/>
      <psa03 value="0.6665265212" flag="0"/>
      <psa10 value="0.1832096891" flag="0"/>
      <psa30 value="0.0144259464" flag="0"/>
    </comp>
    <comp name="00.HH2">
      <acc value="0.7177023451" flag="0"/>
      <vel value="0.3761807156" flag="0"/>
      <psa03 value="1.3721477989" flag="0"/>
      <psa10 value="0.3813485494" flag="0"/>
      <psa30 value="0.0198651498" flag="0"/>
    </comp>
  </station>
  <station code="ZIRI" name="ZIRI" netid="CL" insttype="TRILLIUM-40" commtype="DIG" lat="38.3051" lon="21.9476">
    <comp name="01.HHE">
      <acc value="0.5223078090" flag="0"/>
      <vel value="0.3121271700" flag="0"/>
      <psa03 value="1.2006581592" flag="0"/>
      <psa10 value="0.2372521983" flag="0"/>
      <psa30 value="0.0203648472" flag="0"/>
    </comp>
    <comp name="01.HHZ">
      <acc value="0.4400903149" flag="0"/>
      <vel value="0.1520242289" flag="0"/>
      <psa03 value="1.0749674804" flag="0"/>
      <psa10 value="0.0672268576" flag="0"/>
      <psa30 value="0.0111163225" flag="0"/>
    </comp>
    <comp name="01.HHN">
      <acc value="0.4313504946" flag="0"/>
      <vel value="0.2231513942" flag="0"/>
      <psa03 value="1.1208345408" flag="0"/>
      <psa10 value="0.1891077647" flag="0"/>
      <psa30 value="0.0188993518" flag="0"/>
    </comp>
  </station>
  <station code="ACOR" name="ACOR" netid="HA" insttype="Horizon,120s,1200" commtype="DIG" lat="37.8905" lon="22.8694">
    <comp name="--.HHE">
      <acc value="0.1865122382" flag="0"/>
      <vel value="0.0562036822" flag="0"/>
      <psa03 value="0.3499101493" flag="0"/>
      <psa10 value="0.0794606871" flag="0"/>
      <psa30 value="0.0144785435" flag="0"/>
    </comp>
    <comp name="--.HHN">
      <acc value="0.2914671252" flag="0"/>
      <vel value="0.0729570086" flag="0"/>
      <psa03 value="0.2633941181" flag="0"/>
      <psa10 value="0.0831612827" flag="0"/>
      <psa30 value="0.0155880596" flag="0"/>
    </comp>
    <comp name="--.HHZ">
      <acc value="0.2976603846" flag="0"/>
      <vel value="0.0818382527" flag="0"/>
      <psa03 value="0.4421539197" flag="0"/>
      <psa10 value="0.0653786897" flag="0"/>
      <psa30 value="0.0089933252" flag="0"/>
    </comp>
  </station>
  <station code="AMPE" name="AMPE" netid="HA" insttype="1s-100Hz," commtype="DIG" lat="38.3015" lon="23.2688">
    <comp name="--.HHN">
      <acc value="0.1137581202" flag="0"/>
      <vel value="0.0712977514" flag="0"/>
      <psa03 value="0.2533994478" flag="0"/>
      <psa10 value="0.1131068691" flag="0"/>
      <psa30 value="0.0202559059" flag="0"/>
    </comp>
    <comp name="--.HHE">
      <acc value="0.1765976196" flag="0"/>
      <vel value="0.0801529151" flag="0"/>
      <psa03 value="0.6448026955" flag="0"/>
      <psa10 value="0.1107493104" flag="0"/>
      <psa30 value="0.0172604825" flag="0"/>
    </comp>
    <comp name="--.HHZ">
      <acc value="0.0697084421" flag="0"/>
      <vel value="0.0553658045" flag="0"/>
      <psa03 value="0.1936860278" flag="0"/>
      <psa10 value="0.1049545978" flag="0"/>
      <psa30 value="0.0073899360" flag="0"/>
    </comp>
  </station>
  <station code="ANTK" name="ANTK" netid="HA" insttype="25" commtype="DIG" lat="38.3605" lon="22.6385">
    <comp name="--.HHZ">
      <acc value="0.5498019039" flag="0"/>
      <vel value="0.1598677353" flag="0"/>
      <psa03 value="0.6243890650" flag="0"/>
      <psa10 value="0.1379950899" flag="0"/>
      <psa30 value="0.0148364425" flag="0"/>
    </comp>
    <comp name="--.HHN">
      <acc value="0.7354661535" flag="0"/>
      <vel value="0.2176158585" flag="0"/>
      <psa03 value="0.8945381247" flag="0"/>
      <psa10 value="0.1796210919" flag="0"/>
      <psa30 value="0.0314960109" flag="0"/>
    </comp>
    <comp name="--.HHE">
      <acc value="0.8655179501" flag="0"/>
      <vel value="0.2193269481" flag="0"/>
      <psa03 value="0.9613513293" flag="0"/>
      <psa10 value="0.1989160524" flag="0"/>
      <psa30 value="0.0278729112" flag="0"/>
    </comp>
  </station>
  <station code="ATAL" name="ATAL" netid="HA" insttype="120s," commtype="DIG" lat="38.6926" lon="23.0213">
    <comp name="--.HHZ">
      <acc value="0.0760616865" flag="0"/>
      <vel value="0.0417365776" flag="0"/>
      <psa03 value="0.1002780971" flag="0"/>
      <psa10 value="0.0620477275" flag="0"/>
      <psa30 value="0.0107829987" flag="0"/>
    </comp>
    <comp name="--.HHE">
      <acc value="0.0756991153" flag="0"/>
      <vel value="0.0358152684" flag="0"/>
      <psa03 value="0.0819430247" flag="0"/>
      <psa10 value="0.0469111241" flag="0"/>
      <psa30 value="0.0142380199" flag="0"/>
    </comp>
    <comp name="--.HHN">
      <acc value="0.0933634615" flag="0"/>
      <vel value="0.0495237732" flag="0"/>
      <psa03 value="0.1915249618" flag="0"/>
      <psa10 value="0.0721619432" flag="0"/>
      <psa30 value="0.0125989056" flag="0"/>
    </comp>
  </station>
  <station code="ATHU" name="ATHU" netid="HA" insttype="60s," commtype="DIG" lat="37.9665" lon="23.7845">
    <comp name="--.HHE">
      <acc value="0.0305046441" flag="0"/>
      <vel value="0.0253975831" flag="0"/>
      <psa03 value="0.0845490518" flag="0"/>
      <psa10 value="0.0213576225" flag="0"/>
      <psa30 value="0.0042851879" flag="0"/>
    </comp>
    <comp name="--.HHZ">
      <acc value="0.0259759878" flag="0"/>
      <vel value="0.0171841749" flag="0"/>
      <psa03 value="0.0560403358" flag="0"/>
      <psa10 value="0.0217206782" flag="0"/>
      <psa30 value="0.0045771010" flag="0"/>
    </comp>
    <comp name="--.HHN">
      <acc value="0.0452224408" flag="0"/>
      <vel value="0.0306286419" flag="0"/>
      <psa03 value="0.1321425115" flag="0"/>
      <psa10 value="0.0258232296" flag="0"/>
      <psa30 value="0.0061670108" flag="0"/>
    </comp>
  </station>
  <station code="AXAR" name="AXAR" netid="HA" insttype="Horizon,120s,1200" commtype="DIG" lat="38.7664" lon="22.659">
    <comp name="--.HHN">
      <acc value="0.5401425210" flag="0"/>
      <vel value="0.2790611657" flag="0"/>
      <psa03 value="1.2725567233" flag="0"/>
      <psa10 value="0.3409874497" flag="0"/>
      <psa30 value="0.0397742690" flag="0"/>
    </comp>
    <comp name="--.HHE">
      <acc value="0.4517400997" flag="0"/>
      <vel value="0.2301516062" flag="0"/>
      <psa03 value="1.2774004905" flag="0"/>
      <psa10 value="0.2223858014" flag="0"/>
      <psa30 value="0.0357675092" flag="0"/>
    </comp>
    <comp name="--.HHZ">
      <acc value="0.3011322447" flag="0"/>
      <vel value="0.1863605246" flag="0"/>
      <psa03 value="0.8657434030" flag="0"/>
      <psa10 value="0.1791852048" flag="0"/>
      <psa30 value="0.0195283268" flag="0"/>
    </comp>
  </station>
  <station code="DOMV" name="DOMV" netid="HA" insttype="60" commtype="DIG" lat="38.2569" lon="22.9795">
    <comp name="--.HHN">
      <acc value="0.8216617832" flag="0"/>
      <vel value="0.2534326445" flag="0"/>
      <psa03 value="1.3603140816" flag="0"/>
      <psa10 value="0.1131368412" flag="0"/>
      <psa30 value="0.0223286531" flag="0"/>
    </comp>
    <comp name="--.HHE">
      <acc value="0.8800478556" flag="0"/>
      <vel value="0.2225474817" flag="0"/>
      <psa03 value="1.0417906387" flag="0"/>
      <psa10 value="0.1141670309" flag="0"/>
      <psa30 value="0.0121548962" flag="0"/>
    </comp>
    <comp name="--.HHZ">
      <acc value="0.4928463166" flag="0"/>
      <vel value="0.1109412080" flag="0"/>
      <psa03 value="0.7001513217" flag="0"/>
      <psa10 value="0.0656790054" flag="0"/>
      <psa30 value="0.0145340106" flag="0"/>
    </comp>
  </station>
  <station code="EPID" name="EPID" netid="HA" insttype="30" commtype="DIG" lat="37.6144" lon="23.1189">
    <comp name="--.HHE">
      <acc value="0.2957996636" flag="0"/>
      <vel value="0.0973902981" flag="0"/>
      <psa03 value="0.3963502557" flag="0"/>
      <psa10 value="0.0672497174" flag="0"/>
      <psa30 value="0.0055036994" flag="0"/>
    </comp>
    <comp name="--.HHN">
      <acc value="0.3538437866" flag="0"/>
      <vel value="0.0884019376" flag="0"/>
      <psa03 value="0.2892126507" flag="0"/>
      <psa10 value="0.0454174909" flag="0"/>
      <psa30 value="0.0094338167" flag="0"/>
    </comp>
    <comp name="--.HHZ">
      <acc value="0.2358218900" flag="0"/>
      <vel value="0.0501594705" flag="0"/>
      <psa03 value="0.2638474488" flag="0"/>
      <psa10 value="0.0578063112" flag="0"/>
      <psa30 value="0.0059622057" flag="0"/>
    </comp>
  </station>
  <station code="ERTR" name="ERTR" netid="HA" insttype="Horizon,120s,1200" commtype="DIG" lat="38.4066" lon="23.7865">
    <comp name="--.HHZ">
      <acc value="0.0210402718" flag="0"/>
      <vel value="0.0186199226" flag="0"/>
      <psa03 value="0.0519850771" flag="0"/>
      <psa10 value="0.0265389619" flag="0"/>
      <psa30 value="0.0041684995" flag="0"/>
    </comp>
    <comp name="--.HHN">
      <acc value="0.0400245967" flag="0"/>
      <vel value="0.0237136799" flag="0"/>
      <psa03 value="0.1341808432" flag="0"/>
      <psa10 value="0.0377789204" flag="0"/>
      <psa30 value="0.0055949545" flag="0"/>
    </comp>
    <comp name="--.HHE">
      <acc value="0.0318862586" flag="0"/>
      <vel value="0.0162075644" flag="0"/>
      <psa03 value="0.0670434020" flag="0"/>
      <psa10 value="0.0265466298" flag="0"/>
      <psa30 value="0.0040790763" flag="0"/>
    </comp>
  </station>
  <station code="KALE" name="KALE" netid="HA" insttype="40," commtype="DIG" lat="38.3911" lon="22.1398">
    <comp name="--.HHE">
      <acc value="1.1959120240" flag="0"/>
      <vel value="0.4258420105" flag="0"/>
      <psa03 value="2.1814117741" flag="0"/>
      <psa10 value="0.2130377820" flag="0"/>
      <psa30 value="0.0362439958" flag="0"/>
    </comp>
    <comp name="--.HHN">
      <acc value="1.7359038276" flag="0"/>
      <vel value="0.5353811796" flag="0"/>
      <psa03 value="2.4428775573" flag="0"/>
      <psa10 value="0.2816065619" flag="0"/>
      <psa30 value="0.0264466744" flag="0"/>
    </comp>
    <comp name="--.HHZ">
      <acc value="0.4892294708" flag="0"/>
      <vel value="0.1835463310" flag="0"/>
      <psa03 value="0.5702755277" flag="0"/>
      <psa10 value="0.1655913338" flag="0"/>
      <psa30 value="0.0224896440" flag="0"/>
    </comp>
  </station>
  <station code="KIAS" name="KIAS" netid="HA" insttype="DC" commtype="DIG" lat="37.9875" lon="22.7543">
    <comp name="--.HNE">
      <acc value="2.8662491036" flag="0"/>
      <vel value="0.6793403485" flag="0"/>
      <psa03 value="2.6693882225" flag="0"/>
      <psa10 value="0.4285771036" flag="0"/>
      <psa30 value="0.0648155190" flag="0"/>
    </comp>
    <comp name="--.HNN">
      <acc value="3.1888677790" flag="0"/>
      <vel value="0.6876280338" flag="0"/>
      <psa03 value="2.5737469624" flag="0"/>
      <psa10 value="0.3358364352" flag="0"/>
      <psa30 value="0.0737820356" flag="0"/>
    </comp>
    <comp name="--.HNZ">
      <acc value="2.0108757486" flag="0"/>
      <vel value="0.2581746579" flag="0"/>
      <psa03 value="0.7892358798" flag="0"/>
      <psa10 value="0.2150376678" flag="0"/>
      <psa30 value="0.0375290823" flag="0"/>
    </comp>
  </station>
  <station code="LAKA" name="LAKA" netid="HA" insttype="120s," commtype="DIG" lat="38.2401" lon="21.9785">
    <comp name="--.HHE">
      <acc value="0.1093465769" flag="0"/>
      <vel value="0.0504351970" flag="0"/>
      <psa03 value="0.2417750002" flag="0"/>
      <psa10 value="0.0668145330" flag="0"/>
      <psa30 value="0.0110701962" flag="0"/>
    </comp>
    <comp name="--.HHZ">
      <acc value="0.0952611114" flag="0"/>
      <vel value="0.0471649146" flag="0"/>
      <psa03 value="0.1664141783" flag="0"/>
      <psa10 value="0.0653078360" flag="0"/>
      <psa30 value="0.0111413399" flag="0"/>
    </comp>
    <comp name="--.HHN">
      <acc value="0.1317104099" flag="0"/>
      <vel value="0.0484542646" flag="0"/>
      <psa03 value="0.2066407728" flag="0"/>
      <psa10 value="0.0861534746" flag="0"/>
      <psa30 value="0.0098392357" flag="0"/>
    </comp>
  </station>
  <station code="LOUT" name="LOUT" netid="HA" insttype="30" commtype="DIG" lat="37.9879" lon="22.9743">
    <comp name="--.HHE">
      <acc value="0.6783487281" flag="0"/>
      <vel value="0.2082296639" flag="0"/>
      <psa03 value="1.5221845513" flag="0"/>
      <psa10 value="0.1064985973" flag="0"/>
      <psa30 value="0.0121580583" flag="0"/>
    </comp>
    <comp name="--.HHN">
      <acc value="0.4892492243" flag="0"/>
      <vel value="0.1923690479" flag="0"/>
      <psa03 value="1.1301431216" flag="0"/>
      <psa10 value="0.1446966752" flag="0"/>
      <psa30 value="0.0130090364" flag="0"/>
    </comp>
    <comp name="--.HHZ">
      <acc value="0.4139240323" flag="0"/>
      <vel value="0.0977648537" flag="0"/>
      <psa03 value="0.6092019196" flag="0"/>
      <psa10 value="0.0524436493" flag="0"/>
      <psa30 value="0.0108438517" flag="0"/>
    </comp>
  </station>
  <station code="MDRA" name="MDRA" netid="HA" insttype="60" commtype="DIG" lat="38.0606" lon="23.4662">
    <comp name="--.HHN">
      <acc value="0.1120154078" flag="0"/>
      <vel value="0.0565440642" flag="0"/>
      <psa03 value="0.2741755402" flag="0"/>
      <psa10 value="0.0360952343" flag="0"/>
      <psa30 value="0.0085895304" flag="0"/>
    </comp>
    <comp name="--.HHZ">
      <acc value="0.0944458413" flag="0"/>
      <vel value="0.0406902548" flag="0"/>
      <psa03 value="0.2814407221" flag="0"/>
      <psa10 value="0.0434080469" flag="0"/>
      <psa30 value="0.0056043054" flag="0"/>
    </comp>
    <comp name="--.HHE">
      <acc value="0.0850035880" flag="0"/>
      <vel value="0.0377366792" flag="0"/>
      <psa03 value="0.2126947480" flag="0"/>
      <psa10 value="0.0356284336" flag="0"/>
      <psa30 value="0.0049750046" flag="0"/>
    </comp>
  </station>
