<stationlist xmlns:esm="https://esm-db.eu/esmws/shakemap/1/" created="1781574861">
	<station code="AGRP" name="AGRP" netid="CL" source="Corinth Riff Laboratory (CRLNET)" insttype="" lat="38.3959" lon="21.72277" esm:processing="automatic (Paolucci et al 2011)" esm:quality="best">
		<comp name="00.HNE" depth="0.0">
			<acc value="0.166662297596292" flag="0"/>
			<vel value="0.112099081560051" flag="0"/>
			<psa03 value="0.437434561226267" flag="0"/>
			<psa10 value="0.121423916238523" flag="0"/>
			<psa30 value="0.00723070566542679" flag="0"/>
		</comp>
		<comp name="00.HNN" depth="0.0">
			<acc value="0.133535057835966" flag="0"/>
			<vel value="0.103302836447619" flag="0"/>
			<psa03 value="0.268053882254206" flag="0"/>
			<psa10 value="0.134933638691509" flag="0"/>
			<psa30 value="0.0105589328107943" flag="0"/>
		</comp>
		<comp name="00.HNZ" depth="0.0">
			<acc value="0.0982167326629936" flag="0"/>
			<vel value="0.0472847603180917" flag="0"/>
			<psa03 value="0.238618348961425" flag="0"/>
			<psa10 value="0.0429633373604395" flag="0"/>
			<psa30 value="0.00581767789259118" flag="0"/>
		</comp>
	</station>
	<station code="MALA" name="MALA" netid="CL" source="Corinth Riff Laboratory (CRLNET)" insttype="" lat="38.39341" lon="21.87263" esm:processing="automatic (Paolucci et al 2011)" esm:quality="best">
		<comp name="01.HNE" depth="0.0">
			<acc value="0.250278918633163" flag="0"/>
			<vel value="0.258912545700925" flag="0"/>
			<psa03 value="0.68258525959035" flag="0"/>
			<psa10 value="0.409246820591399" flag="0"/>
			<psa30 value="0.0449141720102294" flag="0"/>
		</comp>
		<comp name="01.HNN" depth="0.0">
			<acc value="0.319902910458317" flag="0"/>
			<vel value="0.160743255995961" flag="0"/>
			<psa03 value="0.616862447441216" flag="0"/>
			<psa10 value="0.295848308498489" flag="0"/>
			<psa30 value="0.028357901905172" flag="0"/>
		</comp>
		<comp name="01.HNZ" depth="0.0">
			<acc value="0.153211272210823" flag="0"/>
			<vel value="0.0999965242015198" flag="0"/>
			<psa03 value="0.298080079675803" flag="0"/>
			<psa10 value="0.238489968790184" flag="0"/>
			<psa30 value="0.0117262026367308" flag="0"/>
		</comp>
	</station>
	<station code="TRIZ" name="TRIZ" netid="CL" source="Corinth Riff Laboratory (CRLNET)" insttype="" lat="38.36543" lon="22.07272" esm:processing="manual (Paolucci et al 2011)" esm:quality="best">
		<comp name="00.HNE" depth="0.0">
			<acc value="0.698549939401497" flag="0"/>
			<vel value="0.32009388170273" flag="0"/>
			<psa03 value="1.33801605366236" flag="0"/>
			<psa10 value="0.331161157801249" flag="0"/>
			<psa30 value="0.0240725263534119" flag="0"/>
		</comp>
		<comp name="00.HNN" depth="0.0">
			<acc value="0.846683017124925" flag="0"/>
			<vel value="0.465783354102148" flag="0"/>
			<psa03 value="1.87105461485361" flag="0"/>
			<psa10 value="0.243528172546211" flag="0"/>
			<psa30 value="0.0411423354778075" flag="0"/>
		</comp>
		<comp name="00.HNZ" depth="0.0">
			<acc value="0.30930123407404" flag="0"/>
			<vel value="0.160238344933964" flag="0"/>
			<psa03 value="0.676118164509493" flag="0"/>
			<psa10 value="0.18117544698435" flag="0"/>
			<psa30 value="0.0181493889746112" flag="0"/>
		</comp>
	</station>
	<station code="STC" name="STC" netid="EG" source="EUROSEISTEST Strong Motion Network" insttype="" lat="40.64865" lon="23.304856" esm:processing="automatic (Paolucci et al 2011)" esm:quality="best">
		<comp name="--.EN1" depth="0.0">
			<acc value="0.00624362887147352" flag="0"/>
			<vel value="0.00973611460719304" flag="0"/>
			<psa03 value="0.0169577809218583" flag="0"/>
			<psa10 value="0.014306605242379" flag="0"/>
			<psa30 value="0.00245220182133567" flag="0"/>
		</comp>
		<comp name="--.EN2" depth="0.0">
			<acc value="0.00711549169880105" flag="0"/>
			<vel value="0.00871312903085325" flag="0"/>
			<psa03 value="0.0206182148138757" flag="0"/>
			<psa10 value="0.0161813113074526" flag="0"/>
			<psa30 value="0.00229014941949178" flag="0"/>
		</comp>
		<comp name="--.EN3" depth="0.0">
			<acc value="0.00646519340348165" flag="0"/>
			<vel value="0.00737037687265625" flag="0"/>
			<psa03 value="0.0148160192489624" flag="0"/>
			<psa10 value="0.00637793922592563" flag="0"/>
			<psa30 value="0.00183607350585955" flag="0"/>
		</comp>
	</station>
	<station code="KIAS" name="KIAS" netid="HA" source="Hellenic Seismological Network, University of Athens, Seismological Laboratory (HA)" insttype="" lat="37.9875" lon="22.7543" esm:processing="manual (Paolucci et al 2011)" esm:quality="best">
		<comp name="--.HNE" depth="0.0">
			<acc value="2.94931470235624" flag="0"/>
			<vel value="0.6905509424362" flag="0"/>
			<psa03 value="2.7524681708428" flag="0"/>
			<psa10 value="0.432422935895314" flag="0"/>
			<psa30 value="0.0860359261243118" flag="0"/>
		</comp>
		<comp name="--.HNN" depth="0.0">
			<acc value="3.0706730973484" flag="0"/>
			<vel value="0.712419987333868" flag="0"/>
			<psa03 value="2.64887064134677" flag="0"/>
			<psa10 value="0.328381653672828" flag="0"/>
			<psa30 value="0.0858374329751431" flag="0"/>
		</comp>
		<comp name="--.HNZ" depth="0.0">
			<acc value="1.88297047131537" flag="0"/>
			<vel value="0.261414958767656" flag="0"/>
			<psa03 value="0.788956014465245" flag="0"/>
			<psa10 value="0.2146341584595" flag="0"/>
			<psa30 value="0.0453873233539131" flag="0"/>
		</comp>
	</station>
	<station code="LXR2" name="LXR2" netid="HI" source="ITSAK Strong Motion Network" insttype="" lat="38.206718" lon="20.436386" esm:processing="automatic (Paolucci et al 2011)" esm:quality="best">
		<comp name="--.HNE" depth="0.0">
			<acc value="0.0387935097058545" flag="0"/>
			<vel value="0.047510718745612" flag="0"/>
			<psa03 value="0.122298268326567" flag="0"/>
			<psa10 value="0.0815775341114411" flag="0"/>
			<psa30 value="0.00993875839397269" flag="0"/>
		</comp>
		<comp name="--.HNN" depth="0.0">
			<acc value="0.0520910411308355" flag="0"/>
			<vel value="0.0602080673398096" flag="0"/>
			<psa03 value="0.119253670803839" flag="0"/>
			<psa10 value="0.128950267322504" flag="0"/>
			<psa30 value="0.0167404439722453" flag="0"/>
		</comp>
		<comp name="--.HNZ" depth="0.0">
			<acc value="0.0230402128285422" flag="0"/>
			<vel value="0.0255549709721237" flag="0"/>
			<psa03 value="0.0655883605319082" flag="0"/>
			<psa10 value="0.0406109977791043" flag="0"/>
			<psa30 value="0.00649005076735956" flag="0"/>
		</comp>
	</station>
	<station code="NAX1" name="NAX1" netid="HI" source="ITSAK Strong Motion Network" insttype="" lat="37.101394" lon="25.374103" esm:processing="automatic (Paolucci et al 2011)" esm:quality="best">
		<comp name="--.HNE" depth="0.0">
			<acc value="0.00220457142226115" flag="0"/>
			<vel value="0.0042712667543091" flag="0"/>
			<psa03 value="0.00543282116074149" flag="0"/>
			<psa10 value="0.00275256140618538" flag="0"/>
			<psa30 value="0.00143865655393571" flag="0"/>
		</comp>
		<comp name="--.HNN" depth="0.0">
			<acc value="0.00241670361253409" flag="0"/>
			<vel value="0.00417132093191352" flag="0"/>
			<psa03 value="0.0073798534624233" flag="0"/>
			<psa10 value="0.00428824735660476" flag="0"/>
			<psa30 value="0.0012843464358148" flag="0"/>
		</comp>
		<comp name="--.HNZ" depth="0.0">
			<acc value="0.00203399144941457" flag="0"/>
			<vel value="0.00390939454905636" flag="0"/>
			<psa03 value="0.00528376473703995" flag="0"/>
			<psa10 value="0.00239385975333578" flag="0"/>
			<psa30 value="0.00178465280782463" flag="0"/>
		</comp>
	</station>
	<station code="NMA1" name="NMA1" netid="HI" source="ITSAK Strong Motion Network" insttype="" lat="37.81873" lon="22.662702" esm:processing="manual (Paolucci et al 2011)" esm:quality="good">
		<comp name="--.HNE" depth="0.0">
			<acc value="1.27903468735305" flag="0"/>
			<vel value="0.366100897331471" flag="0"/>
			<psa03 value="1.36442280298056" flag="0"/>
			<psa10 value="0.247858299395893" flag="0"/>
			<psa30 value="0.0233977599867838" flag="0"/>
		</comp>
		<comp name="--.HNN" depth="0.0">
			<acc value="1.4564217844225" flag="0"/>
			<vel value="0.459938791270677" flag="0"/>
			<psa03 value="1.96742249874978" flag="0"/>
			<psa10 value="0.165168501602722" flag="0"/>
			<psa30 value="0.0342023924073065" flag="0"/>
		</comp>
		<comp name="--.HNZ" depth="0.0">
			<acc value="0.861322758473606" flag="0"/>
			<vel value="0.165268590248777" flag="0"/>
			<psa03 value="0.606825699225136" flag="0"/>
			<psa10 value="0.140453404348805" flag="0"/>
			<psa30 value="0.0185531290537362" flag="0"/>
		</comp>
	</station>
	<station code="PER1" name="PER1" netid="HI" source="ITSAK Strong Motion Network" insttype="" lat="38.0119" lon="23.7027" esm:processing="automatic (Paolucci et al 2011)" esm:quality="best">
		<comp name="--.HNE" depth="0.0">
			<acc value="0.131725512429046" flag="0"/>
			<vel value="0.061366377843121" flag="0"/>
			<psa03 value="0.218176515623309" flag="0"/>
			<psa10 value="0.0624579500324715" flag="0"/>
			<psa30 value="0.00656298726567979" flag="0"/>
		</comp>
		<comp name="--.HNN" depth="0.0">
			<acc value="0.077732726455234" flag="0"/>
			<vel value="0.0392862396497006" flag="0"/>
			<psa03 value="0.268592897127787" flag="0"/>
			<psa10 value="0.0359510365797471" flag="0"/>
			<psa30 value="0.00845353083828197" flag="0"/>
		</comp>
		<comp name="--.HNZ" depth="0.0">
			<acc value="0.0584885101792202" flag="0"/>
			<vel value="0.0344538701460631" flag="0"/>
			<psa03 value="0.156594915311294" flag="0"/>
			<psa10 value="0.0370752335522705" flag="0"/>
			<psa30 value="0.00840777280702072" flag="0"/>
		</comp>
	</station>
	<station code="PIR1" name="PIR1" netid="HI" source="ITSAK Strong Motion Network" insttype="" lat="37.93723" lon="23.642595" esm:processing="automatic (Paolucci et al 2011)" esm:quality="best">
		<comp name="--.HNE" depth="0.0">
			<acc value="0.136993117842107" flag="0"/>
			<vel value="0.0606165701797095" flag="0"/>
			<psa03 value="0.24347621243765" flag="0"/>
			<psa10 value="0.0625315899108521" flag="0"/>
			<psa30 value="0.0121814011247298" flag="0"/>
		</comp>
		<comp name="--.HNN" depth="0.0">
			<acc value="0.221102430096256" flag="0"/>
			<vel value="0.0867232262647582" flag="0"/>
			<psa03 value="0.347355218912074" flag="0"/>
			<psa10 value="0.0694379874259912" flag="0"/>
			<psa30 value="0.0139469714184157" flag="0"/>
		</comp>
		<comp name="--.HNZ" depth="0.0">
			<acc value="0.0883841257861312" flag="0"/>
			<vel value="0.0536056511753073" flag="0"/>
			<psa03 value="0.218576792139585" flag="0"/>
			<psa10 value="0.0643289639781" flag="0"/>
			<psa30 value="0.00977138813983253" flag="0"/>
		</comp>
	</station>
	<station code="PIR2" name="PIR2" netid="HI" source="ITSAK Strong Motion Network" insttype="" lat="37.9458" lon="23.6709" esm:processing="automatic (Paolucci et al 2011)" esm:quality="best">
		<comp name="--.HNE" depth="0.0">
			<acc value="0.269494121439808" flag="0"/>
			<vel value="0.154357220455739" flag="0"/>
			<psa03 value="0.774813577595266" flag="0"/>
			<psa10 value="0.138136965896119" flag="0"/>
			<psa30 value="0.0111435365379257" flag="0"/>
		</comp>
		<comp name="--.HNN" depth="0.0">
			<acc value="0.39205769292698" flag="0"/>
			<vel value="0.189028232504346" flag="0"/>
			<psa03 value="1.48851944044226" flag="0"/>
			<psa10 value="0.127971107457773" flag="0"/>
			<psa30 value="0.0172338649922886" flag="0"/>
		</comp>
		<comp name="--.HNZ" depth="0.0">
			<acc value="0.287117831704756" flag="0"/>
			<vel value="0.0979629852487094" flag="0"/>
			<psa03 value="0.507789805248926" flag="0"/>
			<psa10 value="0.0566863439421964" flag="0"/>
			<psa30 value="0.00975141431666102" flag="0"/>
		</comp>
	</station>
	<station code="PIR3" name="PIR3" netid="HI" source="ITSAK Strong Motion Network" insttype="" lat="37.9573" lon="23.6519" esm:processing="automatic (Paolucci et al 2011)" esm:quality="best">
		<comp name="--.HNE" depth="0.0">
			<acc value="0.104667952743297" flag="0"/>
			<vel value="0.0608981652706061" flag="0"/>
			<psa03 value="0.230316799024269" flag="0"/>
			<psa10 value="0.088305667316888" flag="0"/>
			<psa30 value="0.0113896503417862" flag="0"/>
		</comp>
		<comp name="--.HNN" depth="0.0">
			<acc value="0.122505633976513" flag="0"/>
			<vel value="0.0504533457006462" flag="0"/>
			<psa03 value="0.238695729087431" flag="0"/>
			<psa10 value="0.0958035315136596" flag="0"/>
			<psa30 value="0.00602735344924535" flag="0"/>
		</comp>
		<comp name="--.HNZ" depth="0.0">
			<acc value="0.0628469273013668" flag="0"/>
			<vel value="0.0330527268714492" flag="0"/>
			<psa03 value="0.242454478086078" flag="0"/>
			<psa10 value="0.0317388475428809" flag="0"/>
			<psa30 value="0.00884290913265655" flag="0"/>
		</comp>
	</station>
	<station code="PYL1" name="PYL1" netid="HI" source="ITSAK Strong Motion Network" insttype="" lat="36.914188" lon="21.695161" esm:processing="automatic (Paolucci et al 2011)" esm:quality="best">
		<comp name="--.HNE" depth="0.0">
			<acc value="0.0249282946675936" flag="0"/>
			<vel value="0.0420955236545024" flag="0"/>
			<psa03 value="0.052829859094046" flag="0"/>
			<psa10 value="0.0632429370342969" flag="0"/>
			<psa30 value="0.00949203463403937" flag="0"/>
		</comp>
		<comp name="--.HNN" depth="0.0">
			<acc value="0.023565824653161" flag="0"/>
			<vel value="0.0320664193036649" flag="0"/>
			<psa03 value="0.0745494854125359" flag="0"/>
			<psa10 value="0.0568933164028224" flag="0"/>
			<psa30 value="0.00760241195582451" flag="0"/>
		</comp>
		<comp name="--.HNZ" depth="0.0">
			<acc value="0.0463333711739735" flag="0"/>
			<vel value="0.0321512762352409" flag="0"/>
			<psa03 value="0.0844619649823626" flag="0"/>
			<psa10 value="0.0376597510236757" flag="0"/>
			<psa30 value="0.0076163028760086" flag="0"/>
		</comp>
	</station>
	<station code="SIA1" name="SIA1" netid="HI" source="ITSAK Strong Motion Network" insttype="" lat="40.257308" lon="21.553432" esm:processing="automatic (Paolucci et al 2011)" esm:quality="best">
		<comp name="--.HNE" depth="0.0">
			<acc value="0.00446734228810438" flag="0"/>
			<vel value="0.00554438968577969" flag="0"/>
			<psa03 value="0.0146416392075846" flag="0"/>
			<psa10 value="0.00598742116851254" flag="0"/>
			<psa30 value="0.00249772233684814" flag="0"/>
		</comp>
		<comp name="--.HNN" depth="0.0">
			<acc value="0.0070753580058315" flag="0"/>
			<vel value="0.0063224272723196" flag="0"/>
			<psa03 value="0.0165860310348334" flag="0"/>
			<psa10 value="0.00652588746427345" flag="0"/>
			<psa30 value="0.002453374607362" flag="0"/>
		</comp>
		<comp name="--.HNZ" depth="0.0">
			<acc value="0.00316880228565335" flag="0"/>
			<vel value="0.00667269021572226" flag="0"/>
			<psa03 value="0.00889455406431801" flag="0"/>
			<psa10 value="0.00420409271924779" flag="0"/>
			<psa30 value="0.00235096303142974" flag="0"/>
		</comp>
	</station>
	<station code="SKY1" name="SKY1" netid="HI" source="ITSAK Strong Motion Network" insttype="" lat="38.904483" lon="24.564572" esm:processing="automatic (Paolucci et al 2011)" esm:quality="best">
		<comp name="--.HNE" depth="0.0">
			<acc value="0.0204686991731034" flag="0"/>
			<vel value="0.0147183501475679" flag="0"/>
			<psa03 value="0.0393489530292083" flag="0"/>
			<psa10 value="0.0154504300776726" flag="0"/>
			<psa30 value="0.00270266403822706" flag="0"/>
		</comp>
		<comp name="--.HNN" depth="0.0">
			<acc value="0.0183379032521627" flag="0"/>
			<vel value="0.0133350410742642" flag="0"/>
			<psa03 value="0.0719524956665728" flag="0"/>
			<psa10 value="0.0158560597611389" flag="0"/>
			<psa30 value="0.00339053814817956" flag="0"/>
		</comp>
		<comp name="--.HNZ" depth="0.0">
			<acc value="0.0112114755059932" flag="0"/>
			<vel value="0.0128335983785356" flag="0"/>
			<psa03 value="0.0437533828218733" flag="0"/>
			<psa10 value="0.0101910619828248" flag="0"/>
			<psa30 value="0.00395579205181163" flag="0"/>
		</comp>
	</station>
	<station code="THV2" name="THV2" netid="HI" source="ITSAK Strong Motion Network" insttype="" lat="38.316117" lon="23.319807" esm:processing="automatic (Paolucci et al 2011)" esm:quality="best">
		<comp name="--.HNE" depth="0.0">
			<acc value="0.156425582158873" flag="0"/>
			<vel value="0.105290184153662" flag="0"/>
			<psa03 value="0.512322355506739" flag="0"/>
			<psa10 value="0.118783613831433" flag="0"/>
			<psa30 value="0.0273132543690618" flag="0"/>
		</comp>
		<comp name="--.HNN" depth="0.0">
			<acc value="0.136624675398731" flag="0"/>
			<vel value="0.130332540448061" flag="0"/>
			<psa03 value="0.350016520210091" flag="0"/>
			<psa10 value="0.207964446623911" flag="0"/>
			<psa30 value="0.043267702939629" flag="0"/>
		</comp>
		<comp name="--.HNZ" depth="0.0">
			<acc value="0.109675592484161" flag="0"/>
			<vel value="0.0812681432357634" flag="0"/>
			<psa03 value="0.210348184535088" flag="0"/>
			<psa10 value="0.15620879806643" flag="0"/>
			<psa30 value="0.0156891859982367" flag="0"/>
		</comp>
	</station>
	<station code="TRP1" name="TRP1" netid="HI" source="ITSAK Strong Motion Network" insttype="" lat="37.511219" lon="22.363399" esm:processing="automatic (Paolucci et al 2011)" esm:quality="best">
		<comp name="--.HNE" depth="0.0">
			<acc value="0.121719636833819" flag="0"/>
			<vel value="0.0849450454800187" flag="0"/>
			<psa03 value="0.339468800642037" flag="0"/>
			<psa10 value="0.0920263787960942" flag="0"/>
			<psa30 value="0.00910403143071477" flag="0"/>
		</comp>
		<comp name="--.HNN" depth="0.0">
			<acc value="0.166886498289956" flag="0"/>
			<vel value="0.0850153280284143" flag="0"/>
			<psa03 value="0.393494233728411" flag="0"/>
			<psa10 value="0.0997005046693089" flag="0"/>
			<psa30 value="0.0156232282955251" flag="0"/>
		</comp>
		<comp name="--.HNZ" depth="0.0">
			<acc value="0.103330023806372" flag="0"/>
			<vel value="0.0520573816064056" flag="0"/>
			<psa03 value="0.139244557601957" flag="0"/>
			<psa10 value="0.048835487611572" flag="0"/>
			<psa30 value="0.0193961265648501" flag="0"/>
		</comp>
	</station>
	<station code="VOL3" name="VOL3" netid="HI" source="ITSAK Strong Motion Network" insttype="" lat="39.373969" lon="22.935352" esm:processing="automatic (Paolucci et al 2011)" esm:quality="best">
		<comp name="--.HNE" depth="0.0">
			<acc value="0.0251237262103391" flag="0"/>
			<vel value="0.0271941707708724" flag="0"/>
			<psa03 value="0.0678140965178471" flag="0"/>
			<psa10 value="0.0231979980035252" flag="0"/>
			<psa30 value="0.00717008414954897" flag="0"/>
		</comp>
		<comp name="--.HNN" depth="0.0">
			<acc value="0.0155902234957157" flag="0"/>
			<vel value="0.0199625110752904" flag="0"/>
			<psa03 value="0.048632060177049" flag="0"/>
			<psa10 value="0.0377769050345603" flag="0"/>
			<psa30 value="0.00513053403937389" flag="0"/>
		</comp>
		<comp name="--.HNZ" depth="0.0">
			<acc value="0.00989405780398937" flag="0"/>
			<vel value="0.0240000363033888" flag="0"/>
			<psa03 value="0.0302493971032566" flag="0"/>
			<psa10 value="0.0175418170592713" flag="0"/>
			<psa30 value="0.00693868132022984" flag="0"/>
		</comp>
	</station>
	<station code="VSK1" name="VSK1" netid="HI" source="ITSAK Strong Motion Network" insttype="" lat="38.4091" lon="20.564" esm:processing="automatic (Paolucci et al 2011)" esm:quality="best">
		<comp name="--.HNE" depth="0.0">
			<acc value="0.0190206907323512" flag="0"/>
			<vel value="0.0234100932237346" flag="0"/>
			<psa03 value="0.0359434852461827" flag="0"/>
			<psa10 value="0.0384307345975754" flag="0"/>
			<psa30 value="0.00564536314426737" flag="0"/>
		</comp>
		<comp name="--.HNN" depth="0.0">
			<acc value="0.0221227631804669" flag="0"/>
			<vel value="0.0217058359152604" flag="0"/>
			<psa03 value="0.0419880497314119" flag="0"/>
			<psa10 value="0.0330878944106319" flag="0"/>
			<psa30 value="0.00955577385644848" flag="0"/>
		</comp>
		<comp name="--.HNZ" depth="0.0">
			<acc value="0.0105997538588189" flag="0"/>
			<vel value="0.0180647491030053" flag="0"/>
			<psa03 value="0.0317310759863993" flag="0"/>
			<psa10 value="0.0253081371648891" flag="0"/>
			<psa30 value="0.00333273202713876" flag="0"/>
		</comp>
	</station>
