<?xml version="1.0" encoding="UTF-8" standalone="yes"?>
<!DOCTYPE earthquake SYSTEM "stationlist.dtd">
<stationlist created="" xmlns="ch.ethz.sed.shakemap.usgs.xml">
  <station code="AGRP" name="AGRP" netid="CL" insttype="CMG40-T" commtype="DIG" lat="38.3959" lon="21.7228">
    <comp name="00.HHZ">
      <acc value="0.1020447755" flag="0"/>
      <vel value="0.0509186746" flag="0"/>
      <psa03 value="0.2321804705" flag="0"/>
      <psa10 value="0.0437913934" flag="0"/>
      <psa30 value="0.0059238048" flag="0"/>
    </comp>
    <comp name="00.HHE">
      <acc value="0.1674179506" flag="0"/>
      <vel value="0.1072176668" flag="0"/>
      <psa03 value="0.4468812353" flag="0"/>
      <psa10 value="0.1218602430" flag="0"/>
      <psa30 value="0.0065278965" flag="0"/>
    </comp>
    <comp name="00.HHN">
      <acc value="0.1296805226" flag="0"/>
      <vel value="0.1050200727" flag="0"/>
      <psa03 value="0.2872357968" flag="0"/>
      <psa10 value="0.1419897075" flag="0"/>
      <psa30 value="0.0097760567" flag="0"/>
    </comp>
  </station>
  <station code="MALA" name="MALA" netid="CL" insttype="TRILLIUM-40" commtype="DIG" lat="38.3934" lon="21.8726">
    <comp name="01.HHN">
      <acc value="7.2587238164" flag="0"/>
      <vel value="0.4861883050" flag="0"/>
      <psa03 value="0.6162452781" flag="0"/>
      <psa10 value="0.3178875837" flag="0"/>
      <psa30 value="0.0276991693" flag="0"/>
    </comp>
    <comp name="01.HHZ">
      <acc value="2.1067403388" flag="0"/>
      <vel value="0.2580919573" flag="0"/>
      <psa03 value="0.6608688716" flag="0"/>
      <psa10 value="0.2583019267" flag="0"/>
      <psa30 value="0.0119657664" flag="0"/>
    </comp>
    <comp name="01.HHE">
      <acc value="0.3141480671" flag="0"/>
      <vel value="0.2025819474" flag="0"/>
      <psa03 value="0.6302697722" flag="0"/>
      <psa10 value="0.3976879696" flag="0"/>
      <psa30 value="0.0349824089" flag="0"/>
    </comp>
  </station>
  <station code="MG06" name="MG06" netid="CL" insttype="TRILLIUM-40" commtype="DIG" lat="38.4129" lon="21.9462">
    <comp name="06.HHN">
      <acc value="0.2111940153" flag="0"/>
      <vel value="0.0607281945" flag="0"/>
      <psa03 value="0.3729511682" flag="0"/>
      <psa10 value="0.0927528184" flag="0"/>
      <psa30 value="0.0091985999" flag="0"/>
    </comp>
    <comp name="06.HHE">
      <acc value="0.2256505602" flag="0"/>
      <vel value="0.0889167171" flag="0"/>
      <psa03 value="0.4755857254" flag="0"/>
      <psa10 value="0.0918759975" flag="0"/>
      <psa30 value="0.0200391617" flag="0"/>
    </comp>
    <comp name="06.HHZ">
      <acc value="0.1268579253" flag="0"/>
      <vel value="0.0546688102" flag="0"/>
      <psa03 value="0.2128138055" flag="0"/>
      <psa10 value="0.0656419952" flag="0"/>
      <psa30 value="0.0090473770" flag="0"/>
    </comp>
  </station>
  <station code="PANR" name="PANR" netid="CL" insttype="TRILLIUM-40" commtype="DIG" lat="38.3735" lon="22.2497">
    <comp name="01.HHN">
      <acc value="0.7910629929" flag="0"/>
      <vel value="0.4280068299" flag="0"/>
      <psa03 value="1.9493497744" flag="0"/>
      <psa10 value="0.5262305933" flag="0"/>
      <psa30 value="0.0409213027" flag="0"/>
    </comp>
    <comp name="01.HHZ">
      <acc value="0.5182799852" flag="0"/>
      <vel value="0.2463423651" flag="0"/>
      <psa03 value="1.3835250537" flag="0"/>
      <psa10 value="0.1527390717" flag="0"/>
      <psa30 value="0.0323681694" flag="0"/>
    </comp>
    <comp name="01.HHE">
      <acc value="0.6641212431" flag="0"/>
      <vel value="0.4099920447" flag="0"/>
      <psa03 value="1.2171639057" flag="0"/>
      <psa10 value="0.3188546260" flag="0"/>
      <psa30 value="0.0351687552" flag="0"/>
    </comp>
  </station>
  <station code="PSAM" name="PSAM" netid="CL" insttype="CMG40-T" commtype="DIG" lat="38.3218" lon="22.1842">
    <comp name="00.HHE">
      <acc value="0.5325297147" flag="0"/>
      <vel value="0.3795559058" flag="0"/>
      <psa03 value="1.5167986241" flag="0"/>
      <psa10 value="0.6793492639" flag="0"/>
      <psa30 value="0.0320567771" flag="0"/>
    </comp>
    <comp name="00.HHN">
      <acc value="0.4318426077" flag="0"/>
      <vel value="0.2236773672" flag="0"/>
      <psa03 value="0.8990539541" flag="0"/>
      <psa10 value="0.4129582919" flag="0"/>
      <psa30 value="0.0326882397" flag="0"/>
    </comp>
    <comp name="00.HHZ">
      <acc value="0.4897431891" flag="0"/>
      <vel value="0.1571337695" flag="0"/>
      <psa03 value="0.8951604963" flag="0"/>
      <psa10 value="0.1981077955" flag="0"/>
      <psa30 value="0.0286739995" flag="0"/>
    </comp>
  </station>
  <station code="TRIZ" name="TRIZ" netid="CL" insttype="STS-2" commtype="DIG" lat="38.3654" lon="22.0727">
    <comp name="00.HH2">
      <acc value="0.7177023451" flag="0"/>
      <vel value="0.3761807156" flag="0"/>
      <psa03 value="1.3721477989" flag="0"/>
      <psa10 value="0.3813485494" flag="0"/>
      <psa30 value="0.0198651498" flag="0"/>
    </comp>
    <comp name="00.HHZ">
      <acc value="0.3024542108" flag="0"/>
      <vel value="0.1629753888" flag="0"/>
      <psa03 value="0.6665265212" flag="0"/>
      <psa10 value="0.1832096891" flag="0"/>
      <psa30 value="0.0144259464" flag="0"/>
    </comp>
    <comp name="00.HH3">
      <acc value="0.8239085697" flag="0"/>
      <vel value="0.4301885198" flag="0"/>
      <psa03 value="1.6636961789" flag="0"/>
      <psa10 value="0.2401501105" flag="0"/>
      <psa30 value="0.0360770885" flag="0"/>
    </comp>
  </station>
  <station code="ZIRI" name="ZIRI" netid="CL" insttype="TRILLIUM-40" commtype="DIG" lat="38.3051" lon="21.9476">
    <comp name="01.HHZ">
      <acc value="0.4400903144" flag="0"/>
      <vel value="0.1520242287" flag="0"/>
      <psa03 value="1.0749674804" flag="0"/>
      <psa10 value="0.0672268576" flag="0"/>
      <psa30 value="0.0111163217" flag="0"/>
    </comp>
    <comp name="01.HHN">
      <acc value="0.4313504950" flag="0"/>
      <vel value="0.2231513907" flag="0"/>
      <psa03 value="1.1208345408" flag="0"/>
      <psa10 value="0.1891077671" flag="0"/>
      <psa30 value="0.0188993462" flag="0"/>
    </comp>
    <comp name="01.HHE">
      <acc value="0.5223078088" flag="0"/>
      <vel value="0.3121271648" flag="0"/>
      <psa03 value="1.2006581592" flag="0"/>
      <psa10 value="0.2372521991" flag="0"/>
      <psa30 value="0.0203647316" flag="0"/>
    </comp>
  </station>
  <station code="KLV" name="KLV" netid="MN" insttype="" commtype="DIG" lat="38.0437" lon="22.1504">
    <comp name="--.HHN">
      <acc value="0.4928809950" flag="0"/>
      <vel value="0.1677173027" flag="0"/>
      <psa03 value="1.0837984980" flag="0"/>
      <psa10 value="0.1935399416" flag="0"/>
      <psa30 value="0.0226555914" flag="0"/>
    </comp>
    <comp name="--.HHZ">
      <acc value="0.3823545694" flag="0"/>
      <vel value="0.1568195383" flag="0"/>
      <psa03 value="0.4116562578" flag="0"/>
      <psa10 value="0.1819396538" flag="0"/>
      <psa30 value="0.0382802161" flag="0"/>
    </comp>
    <comp name="--.HHE">
      <acc value="0.5082746325" flag="0"/>
      <vel value="0.1958392229" flag="0"/>
      <psa03 value="1.0938878964" flag="0"/>
      <psa10 value="0.1710948067" flag="0"/>
      <psa30 value="0.0131817847" flag="0"/>
    </comp>
  </station>
  <station code="THL" name="THL" netid="MN" insttype="" commtype="DIG" lat="39.5647" lon="22.0144">
    <comp name="--.HHE">
      <acc value="0.0129702420" flag="0"/>
      <vel value="0.0153105848" flag="0"/>
      <psa03 value="0.0317664971" flag="0"/>
      <psa10 value="0.0292678648" flag="0"/>
      <psa30 value="0.0055850926" flag="0"/>
    </comp>
    <comp name="--.HHN">
      <acc value="0.0082816498" flag="0"/>
      <vel value="0.0080945977" flag="0"/>
      <psa03 value="0.0223308345" flag="0"/>
      <psa10 value="0.0170044485" flag="0"/>
      <psa30 value="0.0046073039" flag="0"/>
    </comp>
    <comp name="--.HHZ">
      <acc value="0.0070865659" flag="0"/>
      <vel value="0.0111502920" flag="0"/>
      <psa03 value="0.0144676982" flag="0"/>
      <psa10 value="0.0154065274" flag="0"/>
      <psa30 value="0.0032915945" flag="0"/>
    </comp>
  </station>
</stationlist>
