<?xml version="1.0" encoding="UTF-8" standalone="yes"?>
<!DOCTYPE earthquake SYSTEM "stationlist.dtd">
<stationlist created="" xmlns="ch.ethz.sed.shakemap.usgs.xml">
  <station code="RP05B" name="RP05B" netid="5B" insttype="Compact" commtype="DIG" lat="37.6182" lon="21.6541">
    <comp name="--.HHE">
      <acc value="0.4034294393" flag="0"/>
      <vel value="0.2624021182" flag="0"/>
      <psa03 value="1.4430574745" flag="0"/>
      <psa10 value="0.3006935249" flag="0"/>
      <psa30 value="0.0600556861" flag="0"/>
    </comp>
    <comp name="--.HHZ">
      <acc value="0.3062946405" flag="0"/>
      <vel value="0.1746108904" flag="0"/>
      <psa03 value="0.8273401350" flag="0"/>
      <psa10 value="0.2919077678" flag="0"/>
      <psa30 value="0.0290494717" flag="0"/>
    </comp>
    <comp name="--.HHN">
      <acc value="0.3907333389" flag="0"/>
      <vel value="0.2956567519" flag="0"/>
      <psa03 value="1.5196527071" flag="0"/>
      <psa10 value="0.5467278683" flag="0"/>
      <psa30 value="0.0533135543" flag="0"/>
    </comp>
  </station>
  <station code="AGRP" name="AGRP" netid="CL" insttype="CMG40-T" commtype="DIG" lat="38.3959" lon="21.7228">
    <comp name="00.HHN">
      <acc value="0.1295609911" flag="0"/>
      <vel value="0.1035018698" flag="0"/>
      <psa03 value="0.2875238488" flag="0"/>
      <psa10 value="0.1418079738" flag="0"/>
      <psa30 value="0.0108282115" flag="0"/>
    </comp>
    <comp name="00.HHE">
      <acc value="0.1677772179" flag="0"/>
      <vel value="0.1104878837" flag="0"/>
      <psa03 value="0.4463883924" flag="0"/>
      <psa10 value="0.1218932144" flag="0"/>
      <psa30 value="0.0072335775" flag="0"/>
    </comp>
    <comp name="00.HHZ">
      <acc value="0.1024202216" flag="0"/>
      <vel value="0.0490296606" flag="0"/>
      <psa03 value="0.2317637984" flag="0"/>
      <psa10 value="0.0439584816" flag="0"/>
      <psa30 value="0.0055971315" flag="0"/>
    </comp>
  </station>
  <station code="MALA" name="MALA" netid="CL" insttype="TRILLIUM-40" commtype="DIG" lat="38.3934" lon="21.8726">
    <comp name="01.HHE">
      <acc value="0.3136554731" flag="0"/>
      <vel value="0.2054161913" flag="0"/>
      <psa03 value="0.6304461118" flag="0"/>
      <psa10 value="0.3971031622" flag="0"/>
      <psa30 value="0.0385344537" flag="0"/>
    </comp>
    <comp name="01.HHZ">
      <acc value="2.1067940690" flag="0"/>
      <vel value="0.2607880607" flag="0"/>
      <psa03 value="0.6610010647" flag="0"/>
      <psa10 value="0.2582969447" flag="0"/>
      <psa30 value="0.0134696747" flag="0"/>
    </comp>
    <comp name="01.HHN">
      <acc value="7.2595788526" flag="0"/>
      <vel value="0.4882553266" flag="0"/>
      <psa03 value="0.6150563243" flag="0"/>
      <psa10 value="0.3173243928" flag="0"/>
      <psa30 value="0.0315802589" flag="0"/>
    </comp>
  </station>
  <station code="MG06" name="MG06" netid="CL" insttype="TRILLIUM-40" commtype="DIG" lat="38.4129" lon="21.9462">
    <comp name="06.HHE">
      <acc value="0.2253147009" flag="0"/>
      <vel value="0.0972482336" flag="0"/>
      <psa03 value="0.4767133690" flag="0"/>
      <psa10 value="0.0918642862" flag="0"/>
      <psa30 value="0.0201867867" flag="0"/>
    </comp>
    <comp name="06.HHN">
      <acc value="0.2114794048" flag="0"/>
      <vel value="0.0584782161" flag="0"/>
      <psa03 value="0.3729480657" flag="0"/>
      <psa10 value="0.0922731855" flag="0"/>
      <psa30 value="0.0109377226" flag="0"/>
    </comp>
    <comp name="06.HHZ">
      <acc value="0.1261156255" flag="0"/>
      <vel value="0.0580018313" flag="0"/>
      <psa03 value="0.2132038996" flag="0"/>
      <psa10 value="0.0661591172" flag="0"/>
      <psa30 value="0.0101230767" flag="0"/>
    </comp>
  </station>
  <station code="PANR" name="PANR" netid="CL" insttype="TRILLIUM-40" commtype="DIG" lat="38.3735" lon="22.2497">
    <comp name="01.HHE">
      <acc value="0.6644468977" flag="0"/>
      <vel value="0.4311783110" flag="0"/>
      <psa03 value="1.2170722070" flag="0"/>
      <psa10 value="0.3156102881" flag="0"/>
      <psa30 value="0.0363400272" flag="0"/>
    </comp>
    <comp name="01.HHZ">
      <acc value="0.5202712548" flag="0"/>
      <vel value="0.2565812838" flag="0"/>
      <psa03 value="1.3856753270" flag="0"/>
      <psa10 value="0.1555821017" flag="0"/>
      <psa30 value="0.0397042498" flag="0"/>
    </comp>
    <comp name="01.HHN">
      <acc value="0.7898508072" flag="0"/>
      <vel value="0.4377421663" flag="0"/>
      <psa03 value="1.9506957526" flag="0"/>
      <psa10 value="0.5269570465" flag="0"/>
      <psa30 value="0.0436746234" flag="0"/>
    </comp>
  </station>
  <station code="PSAM" name="PSAM" netid="CL" insttype="CMG40-T" commtype="DIG" lat="38.3218" lon="22.1842">
    <comp name="00.HHZ">
      <acc value="0.4909661458" flag="0"/>
      <vel value="0.1640867846" flag="0"/>
      <psa03 value="0.8952773608" flag="0"/>
      <psa10 value="0.1989222768" flag="0"/>
      <psa30 value="0.0336385013" flag="0"/>
    </comp>
    <comp name="00.HHE">
      <acc value="0.5334420470" flag="0"/>
      <vel value="0.3872793091" flag="0"/>
      <psa03 value="1.5178025078" flag="0"/>
      <psa10 value="0.6799863622" flag="0"/>
      <psa30 value="0.0328652740" flag="0"/>
    </comp>
    <comp name="00.HHN">
      <acc value="0.4312745508" flag="0"/>
      <vel value="0.2274240513" flag="0"/>
      <psa03 value="0.8986330907" flag="0"/>
      <psa10 value="0.4125103219" flag="0"/>
      <psa30 value="0.0333002151" flag="0"/>
    </comp>
  </station>
  <station code="TRIZ" name="TRIZ" netid="CL" insttype="STS-2" commtype="DIG" lat="38.3654" lon="22.0727">
    <comp name="00.HH2">
      <acc value="0.7175045040" flag="0"/>
      <vel value="0.3739673351" flag="0"/>
      <psa03 value="1.3722159212" flag="0"/>
      <psa10 value="0.3812205559" flag="0"/>
      <psa30 value="0.0197149857" flag="0"/>
    </comp>
    <comp name="00.HH3">
      <acc value="0.8225054238" flag="0"/>
      <vel value="0.4302308486" flag="0"/>
      <psa03 value="1.6650236185" flag="0"/>
      <psa10 value="0.2401699062" flag="0"/>
      <psa30 value="0.0395146224" flag="0"/>
    </comp>
    <comp name="00.HHZ">
      <acc value="0.3010139497" flag="0"/>
      <vel value="0.1579357861" flag="0"/>
      <psa03 value="0.6678529867" flag="0"/>
      <psa10 value="0.1829942947" flag="0"/>
      <psa30 value="0.0167408030" flag="0"/>
    </comp>
  </station>
  <station code="ZIRI" name="ZIRI" netid="CL" insttype="TRILLIUM-40" commtype="DIG" lat="38.3051" lon="21.9476">
    <comp name="01.HHZ">
      <acc value="0.4404151779" flag="0"/>
      <vel value="0.1535094518" flag="0"/>
      <psa03 value="1.0750552639" flag="0"/>
      <psa10 value="0.0675473868" flag="0"/>
      <psa30 value="0.0124136868" flag="0"/>
    </comp>
    <comp name="01.HHN">
      <acc value="0.4316933909" flag="0"/>
      <vel value="0.2177501831" flag="0"/>
      <psa03 value="1.1212535978" flag="0"/>
      <psa10 value="0.1886327858" flag="0"/>
      <psa30 value="0.0196782587" flag="0"/>
    </comp>
    <comp name="01.HHE">
      <acc value="0.5211859982" flag="0"/>
      <vel value="0.3182255933" flag="0"/>
      <psa03 value="1.2005196013" flag="0"/>
      <psa10 value="0.2381418970" flag="0"/>
      <psa30 value="0.0226628595" flag="0"/>
    </comp>
  </station>
  <station code="ACOR" name="ACOR" netid="HA" insttype="Horizon,120s,1200" commtype="DIG" lat="37.8905" lon="22.8694">
    <comp name="--.HHN">
      <acc value="0.2914759729" flag="0"/>
      <vel value="0.0706431752" flag="0"/>
      <psa03 value="0.2633734288" flag="0"/>
      <psa10 value="0.0846956685" flag="0"/>
      <psa30 value="0.0173291473" flag="0"/>
    </comp>
    <comp name="--.HHZ">
      <acc value="0.2979637767" flag="0"/>
      <vel value="0.0822279139" flag="0"/>
      <psa03 value="0.4423602156" flag="0"/>
      <psa10 value="0.0663320501" flag="0"/>
      <psa30 value="0.0103434449" flag="0"/>
    </comp>
    <comp name="--.HHE">
      <acc value="0.1866689984" flag="0"/>
      <vel value="0.0558116159" flag="0"/>
      <psa03 value="0.3494957759" flag="0"/>
      <psa10 value="0.0802380858" flag="0"/>
      <psa30 value="0.0193426032" flag="0"/>
    </comp>
  </station>
  <station code="AMPE" name="AMPE" netid="HA" insttype="1s-100Hz," commtype="DIG" lat="38.3015" lon="23.2688">
    <comp name="--.HHE">
      <acc value="0.1773665056" flag="0"/>
      <vel value="0.0785169414" flag="0"/>
      <psa03 value="0.6458829260" flag="0"/>
      <psa10 value="0.1104941875" flag="0"/>
      <psa30 value="0.0200062311" flag="0"/>
    </comp>
    <comp name="--.HHN">
      <acc value="0.1138146149" flag="0"/>
      <vel value="0.0755465708" flag="0"/>
      <psa03 value="0.2535670305" flag="0"/>
      <psa10 value="0.1133213616" flag="0"/>
      <psa30 value="0.0234354699" flag="0"/>
    </comp>
    <comp name="--.HHZ">
      <acc value="0.0699647825" flag="0"/>
      <vel value="0.0574680429" flag="0"/>
      <psa03 value="0.1935464997" flag="0"/>
      <psa10 value="0.1049606952" flag="0"/>
      <psa30 value="0.0078207941" flag="0"/>
    </comp>
  </station>
  <station code="ANTK" name="ANTK" netid="HA" insttype="25" commtype="DIG" lat="38.3605" lon="22.6385">
    <comp name="--.HHE">
      <acc value="0.8673664362" flag="0"/>
      <vel value="0.2284752999" flag="0"/>
      <psa03 value="0.9634468288" flag="0"/>
      <psa10 value="0.1967281616" flag="0"/>
      <psa30 value="0.0326074131" flag="0"/>
    </comp>
    <comp name="--.HHZ">
      <acc value="0.5494345932" flag="0"/>
      <vel value="0.1560227876" flag="0"/>
      <psa03 value="0.6243115382" flag="0"/>
      <psa10 value="0.1376335615" flag="0"/>
      <psa30 value="0.0170833168" flag="0"/>
    </comp>
    <comp name="--.HHN">
      <acc value="0.7361993739" flag="0"/>
      <vel value="0.2201189832" flag="0"/>
      <psa03 value="0.8950920726" flag="0"/>
      <psa10 value="0.1797819273" flag="0"/>
      <psa30 value="0.0333539394" flag="0"/>
    </comp>
  </station>
  <station code="ATAL" name="ATAL" netid="HA" insttype="120s," commtype="DIG" lat="38.6926" lon="23.0213">
    <comp name="--.HHZ">
      <acc value="0.0762290010" flag="0"/>
      <vel value="0.0506282528" flag="0"/>
      <psa03 value="0.1005870359" flag="0"/>
      <psa10 value="0.0616151732" flag="0"/>
      <psa30 value="0.0125323678" flag="0"/>
    </comp>
    <comp name="--.HHE">
      <acc value="0.0762316697" flag="0"/>
      <vel value="0.0391204876" flag="0"/>
      <psa03 value="0.0820066342" flag="0"/>
      <psa10 value="0.0467708482" flag="0"/>
      <psa30 value="0.0161603968" flag="0"/>
    </comp>
    <comp name="--.HHN">
      <acc value="0.0932430216" flag="0"/>
      <vel value="0.0589614922" flag="0"/>
      <psa03 value="0.1904018827" flag="0"/>
      <psa10 value="0.0724206524" flag="0"/>
      <psa30 value="0.0158553919" flag="0"/>
    </comp>
  </station>
  <station code="ATHU" name="ATHU" netid="HA" insttype="60s," commtype="DIG" lat="37.9665" lon="23.7845">
    <comp name="--.HHE">
      <acc value="0.0305099394" flag="0"/>
      <vel value="0.0250699519" flag="0"/>
      <psa03 value="0.0845497000" flag="0"/>
      <psa10 value="0.0214388385" flag="0"/>
      <psa30 value="0.0044253569" flag="0"/>
    </comp>
    <comp name="--.HHN">
      <acc value="0.0452874930" flag="0"/>
      <vel value="0.0306222531" flag="0"/>
      <psa03 value="0.1322127613" flag="0"/>
      <psa10 value="0.0258942556" flag="0"/>
      <psa30 value="0.0073246167" flag="0"/>
    </comp>
    <comp name="--.HHZ">
      <acc value="0.0262470615" flag="0"/>
      <vel value="0.0191959337" flag="0"/>
      <psa03 value="0.0561527233" flag="0"/>
      <psa10 value="0.0222149996" flag="0"/>
      <psa30 value="0.0047966707" flag="0"/>
    </comp>
  </station>
  <station code="AXAR" name="AXAR" netid="HA" insttype="Horizon,120s,1200" commtype="DIG" lat="38.7664" lon="22.659">
    <comp name="--.HHN">
      <acc value="0.5394490808" flag="0"/>
      <vel value="0.2969367567" flag="0"/>
      <psa03 value="1.2720950389" flag="0"/>
      <psa10 value="0.3403282050" flag="0"/>
      <psa30 value="0.0423622596" flag="0"/>
    </comp>
    <comp name="--.HHE">
      <acc value="0.4519346012" flag="0"/>
      <vel value="0.2308825377" flag="0"/>
      <psa03 value="1.2774200556" flag="0"/>
      <psa10 value="0.2231528953" flag="0"/>
      <psa30 value="0.0385519090" flag="0"/>
    </comp>
    <comp name="--.HHZ">
      <acc value="0.3014628032" flag="0"/>
      <vel value="0.1951301955" flag="0"/>
      <psa03 value="0.8650542767" flag="0"/>
      <psa10 value="0.1802741721" flag="0"/>
      <psa30 value="0.0217369598" flag="0"/>
    </comp>
  </station>
  <station code="DOMV" name="DOMV" netid="HA" insttype="60" commtype="DIG" lat="38.2569" lon="22.9795">
    <comp name="--.HHE">
      <acc value="0.8791686753" flag="0"/>
      <vel value="0.2218149750" flag="0"/>
      <psa03 value="1.0426148770" flag="0"/>
      <psa10 value="0.1152427578" flag="0"/>
      <psa30 value="0.0144581463" flag="0"/>
    </comp>
    <comp name="--.HHN">
      <acc value="0.8214276518" flag="0"/>
      <vel value="0.2518909454" flag="0"/>
      <psa03 value="1.3604592789" flag="0"/>
      <psa10 value="0.1131530835" flag="0"/>
      <psa30 value="0.0246205269" flag="0"/>
    </comp>
    <comp name="--.HHZ">
      <acc value="0.4920024076" flag="0"/>
      <vel value="0.1202935157" flag="0"/>
      <psa03 value="0.7008057034" flag="0"/>
      <psa10 value="0.0667009248" flag="0"/>
      <psa30 value="0.0165188893" flag="0"/>
    </comp>
  </station>
  <station code="EPID" name="EPID" netid="HA" insttype="30" commtype="DIG" lat="37.6144" lon="23.1189">
    <comp name="--.HHE">
      <acc value="0.2957648782" flag="0"/>
      <vel value="0.0983742951" flag="0"/>
      <psa03 value="0.3962284294" flag="0"/>
      <psa10 value="0.0675234001" flag="0"/>
      <psa30 value="0.0061656794" flag="0"/>
    </comp>
    <comp name="--.HHZ">
      <acc value="0.2359133388" flag="0"/>
      <vel value="0.0500820777" flag="0"/>
      <psa03 value="0.2638866839" flag="0"/>
      <psa10 value="0.0579054812" flag="0"/>
      <psa30 value="0.0077534697" flag="0"/>
    </comp>
    <comp name="--.HHN">
      <acc value="0.3540566020" flag="0"/>
      <vel value="0.0895958438" flag="0"/>
      <psa03 value="0.2890581657" flag="0"/>
      <psa10 value="0.0452463837" flag="0"/>
      <psa30 value="0.0110957101" flag="0"/>
    </comp>
  </station>
  <station code="ERTR" name="ERTR" netid="HA" insttype="Horizon,120s,1200" commtype="DIG" lat="38.4066" lon="23.7865">
    <comp name="--.HHE">
      <acc value="0.0320512956" flag="0"/>
      <vel value="0.0157769618" flag="0"/>
      <psa03 value="0.0671470340" flag="0"/>
      <psa10 value="0.0268128989" flag="0"/>
      <psa30 value="0.0046749942" flag="0"/>
    </comp>
    <comp name="--.HHN">
      <acc value="0.0400439061" flag="0"/>
      <vel value="0.0240065790" flag="0"/>
      <psa03 value="0.1341418459" flag="0"/>
      <psa10 value="0.0378205749" flag="0"/>
      <psa30 value="0.0061085324" flag="0"/>
    </comp>
    <comp name="--.HHZ">
      <acc value="0.0208392741" flag="0"/>
      <vel value="0.0206066151" flag="0"/>
      <psa03 value="0.0517568185" flag="0"/>
      <psa10 value="0.0262942492" flag="0"/>
      <psa30 value="0.0048321642" flag="0"/>
    </comp>
  </station>
  <station code="KALE" name="KALE" netid="HA" insttype="40," commtype="DIG" lat="38.3911" lon="22.1398">
    <comp name="--.HHN">
      <acc value="1.7356813408" flag="0"/>
      <vel value="0.5393354897" flag="0"/>
      <psa03 value="2.4426864258" flag="0"/>
      <psa10 value="0.2828795054" flag="0"/>
      <psa30 value="0.0272734015" flag="0"/>
    </comp>
    <comp name="--.HHE">
      <acc value="1.1957016557" flag="0"/>
      <vel value="0.4309417579" flag="0"/>
      <psa03 value="2.1807131940" flag="0"/>
      <psa10 value="0.2133213585" flag="0"/>
      <psa30 value="0.0381602941" flag="0"/>
    </comp>
    <comp name="--.HHZ">
      <acc value="0.4889664604" flag="0"/>
      <vel value="0.1791676064" flag="0"/>
      <psa03 value="0.5720342198" flag="0"/>
      <psa10 value="0.1633872215" flag="0"/>
      <psa30 value="0.0280908073" flag="0"/>
    </comp>
  </station>
  <station code="KARY" name="KARY" netid="HA" insttype="60" commtype="DIG" lat="38.0321" lon="24.437">
    <comp name="--.HHN">
      <acc value="0.0438752155" flag="0"/>
      <vel value="0.0154086983" flag="0"/>
      <psa03 value="0.0867955735" flag="0"/>
      <psa10 value="0.0175355350" flag="0"/>
      <psa30 value="0.0034068128" flag="0"/>
    </comp>
    <comp name="--.HHE">
      <acc value="0.0280257548" flag="0"/>
      <vel value="0.0090885389" flag="0"/>
      <psa03 value="0.0788668659" flag="0"/>
      <psa10 value="0.0085266801" flag="0"/>
      <psa30 value="0.0022526804" flag="0"/>
    </comp>
    <comp name="--.HHZ">
      <acc value="0.0323639448" flag="0"/>
      <vel value="0.0161886358" flag="0"/>
      <psa03 value="0.0774663495" flag="0"/>
      <psa10 value="0.0182099818" flag="0"/>
      <psa30 value="0.0023419534" flag="0"/>
    </comp>
  </station>
  <station code="KIAS" name="KIAS" netid="HA" insttype="DC" commtype="DIG" lat="37.9875" lon="22.7543">
    <comp name="--.HNE">
      <acc value="2.8639373096" flag="0"/>
      <vel value="0.6857727100" flag="0"/>
      <psa03 value="2.6678765851" flag="0"/>
      <psa10 value="0.4311411463" flag="0"/>
      <psa30 value="0.0754217274" flag="0"/>
    </comp>
    <comp name="--.HNN">
      <acc value="3.1883030325" flag="0"/>
      <vel value="0.6915479734" flag="0"/>
      <psa03 value="2.5738051769" flag="0"/>
      <psa10 value="0.3294532103" flag="0"/>
      <psa30 value="0.0857473075" flag="0"/>
    </comp>
    <comp name="--.HNZ">
      <acc value="2.0100632549" flag="0"/>
      <vel value="0.2509046579" flag="0"/>
      <psa03 value="0.7883225563" flag="0"/>
      <psa10 value="0.2145701634" flag="0"/>
      <psa30 value="0.0452183639" flag="0"/>
    </comp>
  </station>
  <station code="LAKA" name="LAKA" netid="HA" insttype="120s," commtype="DIG" lat="38.2401" lon="21.9785">
    <comp name="--.HHZ">
      <acc value="0.0953977071" flag="0"/>
      <vel value="0.0495481682" flag="0"/>
      <psa03 value="0.1667207537" flag="0"/>
      <psa10 value="0.0642718133" flag="0"/>
      <psa30 value="0.0137562169" flag="0"/>
    </comp>
    <comp name="--.HHE">
      <acc value="0.1096260415" flag="0"/>
      <vel value="0.0504993466" flag="0"/>
      <psa03 value="0.2412450907" flag="0"/>
      <psa10 value="0.0674437577" flag="0"/>
      <psa30 value="0.0132302131" flag="0"/>
    </comp>
    <comp name="--.HHN">
      <acc value="0.1324735524" flag="0"/>
      <vel value="0.0494455115" flag="0"/>
      <psa03 value="0.2055293166" flag="0"/>
      <psa10 value="0.0859492940" flag="0"/>
      <psa30 value="0.0112281492" flag="0"/>
    </comp>
  </station>
  <station code="LOUT" name="LOUT" netid="HA" insttype="30" commtype="DIG" lat="37.9879" lon="22.9743">
    <comp name="--.HHN">
      <acc value="0.4892473472" flag="0"/>
      <vel value="0.1960720729" flag="0"/>
      <psa03 value="1.1301911698" flag="0"/>
      <psa10 value="0.1451945797" flag="0"/>
      <psa30 value="0.0150786059" flag="0"/>
    </comp>
    <comp name="--.HHE">
      <acc value="0.6782221604" flag="0"/>
      <vel value="0.2030559828" flag="0"/>
      <psa03 value="1.5220720511" flag="0"/>
      <psa10 value="0.1068650474" flag="0"/>
      <psa30 value="0.0142003087" flag="0"/>
    </comp>
    <comp name="--.HHZ">
      <acc value="0.4144657074" flag="0"/>
      <vel value="0.0960300375" flag="0"/>
      <psa03 value="0.6086577659" flag="0"/>
      <psa10 value="0.0532973672" flag="0"/>
      <psa30 value="0.0130537089" flag="0"/>
    </comp>
  </station>
  <station code="MDRA" name="MDRA" netid="HA" insttype="60" commtype="DIG" lat="38.0606" lon="23.4662">
