<stationlist created="1748359919">
	<station code="AGRP" name="AGRP" netid="CL" source="Corinth Riff Laboratory (CRLNET)" insttype="" lat="38.3959" lon="21.72277">
		<comp name="00.HNE" depth="0.0">
			<acc value="0.16654830024804" flag="0"/>
			<vel value="0.111299629301" flag="0"/>
			<psa03 value="0.437434561226267" flag="0"/>
			<psa10 value="0.121423916238523" flag="0"/>
			<psa30 value="0.00723070566542679" flag="0"/>
		</comp>
		<comp name="00.HNN" depth="0.0">
			<acc value="0.1335339836856" flag="0"/>
			<vel value="0.103909655314" flag="0"/>
			<psa03 value="0.268053882254206" flag="0"/>
			<psa10 value="0.134933638691509" flag="0"/>
			<psa30 value="0.0105589328107943" flag="0"/>
		</comp>
		<comp name="00.HNZ" depth="0.0">
			<acc value="0.097819345754442" flag="0"/>
			<vel value="0.0457714840874" flag="0"/>
			<psa03 value="0.238618348961425" flag="0"/>
			<psa10 value="0.0429633373604395" flag="0"/>
			<psa30 value="0.00581767789259118" flag="0"/>
		</comp>
	</station>
	<station code="MALA" name="MALA" netid="CL" source="Corinth Riff Laboratory (CRLNET)" insttype="" lat="38.39341" lon="21.87263">
		<comp name="01.HNE" depth="0.0">
			<acc value="0.25055732700276" flag="0"/>
			<vel value="0.258424547149" flag="0"/>
			<psa03 value="0.68258525959035" flag="0"/>
			<psa10 value="0.409246820591399" flag="0"/>
			<psa30 value="0.0449141720102294" flag="0"/>
		</comp>
		<comp name="01.HNN" depth="0.0">
			<acc value="0.31971979338864" flag="0"/>
			<vel value="0.161338233595" flag="0"/>
			<psa03 value="0.616862447441216" flag="0"/>
			<psa10 value="0.295848308498489" flag="0"/>
			<psa30 value="0.028357901905172" flag="0"/>
		</comp>
		<comp name="01.HNZ" depth="0.0">
			<acc value="0.15315843858288" flag="0"/>
			<vel value="0.0998336468554" flag="0"/>
			<psa03 value="0.298080079675803" flag="0"/>
			<psa10 value="0.238489968790184" flag="0"/>
			<psa30 value="0.0117262026367308" flag="0"/>
		</comp>
	</station>
	<station code="TRIZ" name="TRIZ" netid="CL" source="Corinth Riff Laboratory (CRLNET)" insttype="" lat="38.36543" lon="22.07272">
		<comp name="00.HNE" depth="0.0">
			<acc value="0.69518342287638" flag="0"/>
			<vel value="0.318890117805" flag="0"/>
			<psa03 value="1.33801605366236" flag="0"/>
			<psa10 value="0.331161157801249" flag="0"/>
			<psa30 value="0.0240725263534119" flag="0"/>
		</comp>
		<comp name="00.HNN" depth="0.0">
			<acc value="0.84381086610102" flag="0"/>
			<vel value="0.464992471501" flag="0"/>
			<psa03 value="1.87105461485361" flag="0"/>
			<psa10 value="0.243528172546211" flag="0"/>
			<psa30 value="0.0411423354778075" flag="0"/>
		</comp>
		<comp name="00.HNZ" depth="0.0">
			<acc value="0.30676568687922" flag="0"/>
			<vel value="0.159332313345" flag="0"/>
			<psa03 value="0.676118164509493" flag="0"/>
			<psa10 value="0.18117544698435" flag="0"/>
			<psa30 value="0.0181493889746112" flag="0"/>
		</comp>
	</station>
	<station code="ATHU" name="ATHU" netid="HA" source="Hellenic Seismological Network, University of Athens, Seismological Laboratory (HA)" insttype="" lat="37.9665" lon="23.7845">
		<comp name=".HNE" depth="0.0">
			<acc value="0.002509699175964" flag="0"/>
			<vel value="0.00180208662871" flag="0"/>
			<psa03 value="0.00729277803263285" flag="0"/>
			<psa10 value="0.00144222612634078" flag="0"/>
			<psa30 value="0.000401397345812375" flag="0"/>
		</comp>
		<comp name=".HNN" depth="0.0">
			<acc value="0.0015145346958726" flag="0"/>
			<vel value="0.00115401224568" flag="0"/>
			<psa03 value="0.00326042041393459" flag="0"/>
			<psa10 value="0.00128942201944511" flag="0"/>
			<psa30 value="0.000288843561551529" flag="0"/>
		</comp>
		<comp name=".HNZ" depth="0.0">
			<acc value="0.0017674635511008" flag="0"/>
			<vel value="0.00141274239319" flag="0"/>
			<psa03 value="0.00492999618442747" flag="0"/>
			<psa10 value="0.00122818643944741" flag="0"/>
			<psa30 value="0.000255531563128799" flag="0"/>
		</comp>
	</station>
	<station code="KIAS" name="KIAS" netid="HA" source="Hellenic Seismological Network, University of Athens, Seismological Laboratory (HA)" insttype="" lat="37.9875" lon="22.7543">
		<comp name=".HNE" depth="0.0">
			<acc value="2.9092569691878" flag="0"/>
			<vel value="0.684539385918" flag="0"/>
			<psa03 value="2.7524681708428" flag="0"/>
			<psa10 value="0.432422935895314" flag="0"/>
			<psa30 value="0.0860359261243118" flag="0"/>
		</comp>
		<comp name=".HNN" depth="0.0">
			<acc value="3.0281270048304" flag="0"/>
			<vel value="0.705523966972" flag="0"/>
			<psa03 value="2.64887064134677" flag="0"/>
			<psa10 value="0.328381653672828" flag="0"/>
			<psa30 value="0.0858374329751431" flag="0"/>
		</comp>
		<comp name=".HNZ" depth="0.0">
			<acc value="1.8528051351438" flag="0"/>
			<vel value="0.255769915" flag="0"/>
			<psa03 value="0.788956014465245" flag="0"/>
			<psa10 value="0.2146341584595" flag="0"/>
			<psa30 value="0.0453873233539131" flag="0"/>
		</comp>
	</station>
	<station code="LXR2" name="LXR2" netid="HI" source="ITSAK Strong Motion Network" insttype="" lat="38.206718" lon="20.436386">
		<comp name=".HNE" depth="0.0">
			<acc value="0.038752509554622" flag="0"/>
			<vel value="0.0475230105232" flag="0"/>
			<psa03 value="0.122298268326567" flag="0"/>
			<psa10 value="0.0815775341114411" flag="0"/>
			<psa30 value="0.00993875839397269" flag="0"/>
		</comp>
		<comp name=".HNN" depth="0.0">
			<acc value="0.052040620570308" flag="0"/>
			<vel value="0.0606982432136" flag="0"/>
			<psa03 value="0.119253670803839" flag="0"/>
			<psa10 value="0.128950267322504" flag="0"/>
			<psa30 value="0.0167404439722453" flag="0"/>
		</comp>
		<comp name=".HNZ" depth="0.0">
			<acc value="0.023049257126772" flag="0"/>
			<vel value="0.0244865920331" flag="0"/>
			<psa03 value="0.0655883605319082" flag="0"/>
			<psa10 value="0.0406109977791043" flag="0"/>
			<psa30 value="0.00649005076735956" flag="0"/>
		</comp>
	</station>
	<station code="MSL1" name="MSL1" netid="HI" source="ITSAK Strong Motion Network" insttype="" lat="38.3727" lon="21.4243">
		<comp name=".HNE" depth="0.0">
			<acc value="0.11364357964218" flag="0"/>
			<vel value="0.137851185246" flag="0"/>
			<psa03 value="0.309656200703672" flag="0"/>
			<psa10 value="0.2850634640553" flag="0"/>
			<psa30 value="0.0202812868690466" flag="0"/>
		</comp>
		<comp name=".HNN" depth="0.0">
			<acc value="0.1367200617189" flag="0"/>
			<vel value="0.138975367212" flag="0"/>
			<psa03 value="0.378269600171136" flag="0"/>
			<psa10 value="0.161179287336734" flag="0"/>
			<psa30 value="0.0183423567577691" flag="0"/>
		</comp>
		<comp name=".HNZ" depth="0.0">
			<acc value="0.065198308556898" flag="0"/>
			<vel value="0.048966532605" flag="0"/>
			<psa03 value="0.127459901926119" flag="0"/>
			<psa10 value="0.111890912223812" flag="0"/>
			<psa30 value="0.00687012011173612" flag="0"/>
		</comp>
	</station>
	<station code="NMA1" name="NMA1" netid="HI" source="ITSAK Strong Motion Network" insttype="" lat="37.81873" lon="22.662702">
		<comp name=".HNE" depth="0.0">
			<acc value="1.2747071838366" flag="0"/>
			<vel value="0.362273491362" flag="0"/>
			<psa03 value="1.36442280298056" flag="0"/>
			<psa10 value="0.247858299395893" flag="0"/>
			<psa30 value="0.0233977599867838" flag="0"/>
		</comp>
		<comp name=".HNN" depth="0.0">
			<acc value="1.4493240265068" flag="0"/>
			<vel value="0.458366651754" flag="0"/>
			<psa03 value="1.96742249874978" flag="0"/>
			<psa10 value="0.165168501602722" flag="0"/>
			<psa30 value="0.0342023924073065" flag="0"/>
		</comp>
		<comp name=".HNZ" depth="0.0">
			<acc value="0.85474569593004" flag="0"/>
			<vel value="0.163428733202" flag="0"/>
			<psa03 value="0.606825699225136" flag="0"/>
			<psa10 value="0.140453404348805" flag="0"/>
			<psa30 value="0.0185531290537362" flag="0"/>
		</comp>
	</station>
	<station code="PAT4" name="PAT4" netid="HI" source="ITSAK Strong Motion Network" insttype="" lat="38.2338" lon="21.74795">
		<comp name=".HNE" depth="0.0">
			<acc value="0.17866079709624" flag="0"/>
			<vel value="0.195694443461" flag="0"/>
			<psa03 value="0.510844799295837" flag="0"/>
			<psa10 value="0.253530865175527" flag="0"/>
			<psa30 value="0.0261123531485874" flag="0"/>
		</comp>
		<comp name=".HNN" depth="0.0">
			<acc value="0.20404138668258" flag="0"/>
			<vel value="0.163534010647" flag="0"/>
			<psa03 value="0.665624261007603" flag="0"/>
			<psa10 value="0.308128391993567" flag="0"/>
			<psa30 value="0.043399298323869" flag="0"/>
		</comp>
		<comp name=".HNZ" depth="0.0">
			<acc value="0.16586963155884" flag="0"/>
			<vel value="0.108891706979" flag="0"/>
			<psa03 value="0.332332327885694" flag="0"/>
			<psa10 value="0.215738696629869" flag="0"/>
			<psa30 value="0.0149779938852405" flag="0"/>
		</comp>
	</station>
	<station code="PAT5" name="PAT5" netid="HI" source="ITSAK Strong Motion Network" insttype="" lat="38.29595" lon="21.795083">
		<comp name=".HNE" depth="0.0">
			<acc value="0.18305390748972" flag="0"/>
			<vel value="0.093198421677" flag="0"/>
			<psa03 value="0.488784129550305" flag="0"/>
			<psa10 value="0.0821744461538891" flag="0"/>
			<psa30 value="0.0114771361372972" flag="0"/>
		</comp>
		<comp name=".HNN" depth="0.0">
			<acc value="0.1686556874436" flag="0"/>
			<vel value="0.118286350367" flag="0"/>
			<psa03 value="0.359388682736315" flag="0"/>
			<psa10 value="0.0778542649627854" flag="0"/>
			<psa30 value="0.0144495872142204" flag="0"/>
		</comp>
		<comp name=".HNZ" depth="0.0">
			<acc value="0.16210529128524" flag="0"/>
			<vel value="0.0921951721284" flag="0"/>
			<psa03 value="0.371139919531419" flag="0"/>
			<psa10 value="0.117517154934939" flag="0"/>
			<psa30 value="0.0150890129063682" flag="0"/>
		</comp>
	</station>
	<station code="PER1" name="PER1" netid="HI" source="ITSAK Strong Motion Network" insttype="" lat="38.0119" lon="23.7027">
		<comp name=".HNE" depth="0.0">
			<acc value="0.1313309818053" flag="0"/>
			<vel value="0.0610723468155" flag="0"/>
			<psa03 value="0.218176515623309" flag="0"/>
			<psa10 value="0.0624579500324715" flag="0"/>
			<psa30 value="0.00656298726567979" flag="0"/>
		</comp>
		<comp name=".HNN" depth="0.0">
			<acc value="0.07740970845978" flag="0"/>
			<vel value="0.0393004617578" flag="0"/>
			<psa03 value="0.268592897127787" flag="0"/>
			<psa10 value="0.0359510365797471" flag="0"/>
			<psa30 value="0.00845353083828197" flag="0"/>
		</comp>
		<comp name=".HNZ" depth="0.0">
			<acc value="0.05831840085549" flag="0"/>
			<vel value="0.0336969604239" flag="0"/>
			<psa03 value="0.156594915311294" flag="0"/>
			<psa10 value="0.0370752335522705" flag="0"/>
			<psa30 value="0.00840777280702072" flag="0"/>
		</comp>
	</station>
	<station code="PET1" name="PET1" netid="HI" source="ITSAK Strong Motion Network" insttype="" lat="36.963862" lon="21.92538">
		<comp name=".HNE" depth="0.0">
			<acc value="0.12240672602178" flag="0"/>
			<vel value="0.111705948163" flag="0"/>
			<psa03 value="0.218030672628645" flag="0"/>
			<psa10 value="0.187489560263381" flag="0"/>
			<psa30 value="0.00982551922576116" flag="0"/>
		</comp>
		<comp name=".HNN" depth="0.0">
			<acc value="0.088420324739946" flag="0"/>
			<vel value="0.0854990957807" flag="0"/>
			<psa03 value="0.209718976186308" flag="0"/>
			<psa10 value="0.12259949911504" flag="0"/>
			<psa30 value="0.00925728658312871" flag="0"/>
		</comp>
		<comp name=".HNZ" depth="0.0">
			<acc value="0.033785394611574" flag="0"/>
			<vel value="0.0367704437688" flag="0"/>
			<psa03 value="0.131261101653903" flag="0"/>
			<psa10 value="0.0693832187977566" flag="0"/>
			<psa30 value="0.00913815119100172" flag="0"/>
		</comp>
	</station>
	<station code="PIR1" name="PIR1" netid="HI" source="ITSAK Strong Motion Network" insttype="" lat="37.93723" lon="23.642595">
		<comp name=".HNE" depth="0.0">
			<acc value="0.13652749323528" flag="0"/>
			<vel value="0.0617005664328" flag="0"/>
			<psa03 value="0.24347621243765" flag="0"/>
			<psa10 value="0.0625315899108521" flag="0"/>
			<psa30 value="0.0121814011247298" flag="0"/>
		</comp>
		<comp name=".HNN" depth="0.0">
			<acc value="0.22040108904426" flag="0"/>
			<vel value="0.0844728071619" flag="0"/>
			<psa03 value="0.347355218912074" flag="0"/>
			<psa10 value="0.0694379874259912" flag="0"/>
			<psa30 value="0.0139469714184157" flag="0"/>
		</comp>
		<comp name=".HNZ" depth="0.0">
			<acc value="0.088664526301968" flag="0"/>
			<vel value="0.0528348030308" flag="0"/>
			<psa03 value="0.218576792139585" flag="0"/>
			<psa10 value="0.0643289639781" flag="0"/>
			<psa30 value="0.00977138813983253" flag="0"/>
		</comp>
	</station>
	<station code="PIR2" name="PIR2" netid="HI" source="ITSAK Strong Motion Network" insttype="" lat="37.9458" lon="23.6709">
		<comp name=".HNE" depth="0.0">
			<acc value="0.26917635443604" flag="0"/>
			<vel value="0.1537498432" flag="0"/>
			<psa03 value="0.774813577595266" flag="0"/>
			<psa10 value="0.138136965896119" flag="0"/>
			<psa30 value="0.0111435365379257" flag="0"/>
		</comp>
		<comp name=".HNN" depth="0.0">
			<acc value="0.39255132358722" flag="0"/>
			<vel value="0.186117210879" flag="0"/>
			<psa03 value="1.48851944044226" flag="0"/>
			<psa10 value="0.127971107457773" flag="0"/>
			<psa30 value="0.0172338649922886" flag="0"/>
		</comp>
		<comp name=".HNZ" depth="0.0">
			<acc value="0.28929958279512" flag="0"/>
			<vel value="0.09757865058" flag="0"/>
			<psa03 value="0.507789805248926" flag="0"/>
			<psa10 value="0.0566863439421964" flag="0"/>
			<psa30 value="0.00975141431666102" flag="0"/>
		</comp>
	</station>
	<station code="PIR3" name="PIR3" netid="HI" source="ITSAK Strong Motion Network" insttype="" lat="37.9573" lon="23.6519">
		<comp name=".HNE" depth="0.0">
			<acc value="0.1044716795091" flag="0"/>
			<vel value="0.0601088505225" flag="0"/>
			<psa03 value="0.230316799024269" flag="0"/>
			<psa10 value="0.088305667316888" flag="0"/>
			<psa30 value="0.0113896503417862" flag="0"/>
		</comp>
		<comp name=".HNN" depth="0.0">
			<acc value="0.12214025029044" flag="0"/>
			<vel value="0.0503255394063" flag="0"/>
			<psa03 value="0.238695729087431" flag="0"/>
			<psa10 value="0.0958035315136596" flag="0"/>
			<psa30 value="0.00602735344924535" flag="0"/>
		</comp>
		<comp name=".HNZ" depth="0.0">
			<acc value="0.06277779005847" flag="0"/>
			<vel value="0.0331104327993" flag="0"/>
			<psa03 value="0.242454478086078" flag="0"/>
			<psa10 value="0.0317388475428809" flag="0"/>
			<psa30 value="0.00884290913265655" flag="0"/>
		</comp>
	</station>
	<station code="PLN1" name="PLN1" netid="HI" source="ITSAK Strong Motion Network" insttype="" lat="39.998" lon="23.575">
		<comp name=".HNE" depth="0.0">
			<acc value="0.0064100091678006" flag="0"/>
			<vel value="0.0134479687634" flag="0"/>
			<psa03 value="0.0144928507052274" flag="0"/>
			<psa10 value="0.0185405757221454" flag="0"/>
			<psa30 value="0.00866349808087983" flag="0"/>
		</comp>
		<comp name=".HNN" depth="0.0">
			<acc value="0.0087229828939944" flag="0"/>
			<vel value="0.0143984662133" flag="0"/>
			<psa03 value="0.0115077245698446" flag="0"/>
			<psa10 value="0.0174409522524953" flag="0"/>
			<psa30 value="0.00753684261215546" flag="0"/>
		</comp>
		<comp name=".HNZ" depth="0.0">
			<acc value="0.0041521013424936" flag="0"/>
			<vel value="0.00690636106013" flag="0"/>
			<psa03 value="0.00631884958235796" flag="0"/>
			<psa10 value="0.00720054590706168" flag="0"/>
			<psa30 value="0.00184485825447358" flag="0"/>
		</comp>
	</station>
	<station code="PRE2" name="PRE2" netid="HI" source="ITSAK Strong Motion Network" insttype="" lat="38.9577" lon="20.7548">
		<comp name=".HNE" depth="0.0">
			<acc value="0.05550249511086" flag="0"/>
			<vel value="0.0782163873698" flag="0"/>
			<psa03 value="0.131140135306879" flag="0"/>
			<psa10 value="0.0930693003842688" flag="0"/>
			<psa30 value="0.0113334182833546" flag="0"/>
		</comp>
		<comp name=".HNN" depth="0.0">
			<acc value="0.040954542954612" flag="0"/>
			<vel value="0.0730144748192" flag="0"/>
			<psa03 value="0.112097134218351" flag="0"/>
			<psa10 value="0.146276820121345" flag="0"/>
			<psa30 value="0.0228989019398767" flag="0"/>
		</comp>
		<comp name=".HNZ" depth="0.0">
			<acc value="0.02515843567275" flag="0"/>
			<vel value="0.0297835802314" flag="0"/>
			<psa03 value="0.0528602725669371" flag="0"/>
			<psa10 value="0.0455631783369865" flag="0"/>
			<psa30 value="0.00816111980077918" flag="0"/>
		</comp>
	</station>
	<station code="PYL1" name="PYL1" netid="HI" source="ITSAK Strong Motion Network" insttype="" lat="36.914188" lon="21.695161">
		<comp name=".HNE" depth="0.0">
			<acc value="0.024972047119842" flag="0"/>
			<vel value="0.040784229161" flag="0"/>
			<psa03 value="0.052829859094046" flag="0"/>
			<psa10 value="0.0632429370342969" flag="0"/>
			<psa30 value="0.00949203463403937" flag="0"/>
		</comp>
		<comp name=".HNN" depth="0.0">
			<acc value="0.023566449243774" flag="0"/>
			<vel value="0.0318033430121" flag="0"/>
			<psa03 value="0.0745494854125359" flag="0"/>
			<psa10 value="0.0568933164028224" flag="0"/>
			<psa30 value="0.00760241195582451" flag="0"/>
		</comp>
		<comp name=".HNZ" depth="0.0">
			<acc value="0.046278737666658" flag="0"/>
			<vel value="0.0318079101569" flag="0"/>
			<psa03 value="0.0844619649823626" flag="0"/>
			<psa10 value="0.0376597510236757" flag="0"/>
			<psa30 value="0.0076163028760086" flag="0"/>
		</comp>
	</station>
	<station code="PYR2" name="PYR2" netid="HI" source="ITSAK Strong Motion Network" insttype="" lat="37.6671" lon="21.4506">
		<comp name=".HNE" depth="0.0">
			<acc value="0.39787618274532" flag="0"/>
			<vel value="0.203011742458" flag="0"/>
			<psa03 value="1.91059690100149" flag="0"/>
			<psa10 value="0.227694068614405" flag="0"/>
			<psa30 value="0.0343322510098225" flag="0"/>
		</comp>
		<comp name=".HNN" depth="0.0">
			<acc value="0.37771342164342" flag="0"/>
			<vel value="0.226093504619" flag="0"/>
			<psa03 value="1.29080250933314" flag="0"/>
			<psa10 value="0.20291086684912" flag="0"/>
			<psa30 value="0.0392447431049558" flag="0"/>
		</comp>
		<comp name=".HNZ" depth="0.0">
			<acc value="0.14744123165628" flag="0"/>
			<vel value="0.0702814485645" flag="0"/>
			<psa03 value="0.47315592758993" flag="0"/>
			<psa10 value="0.119685278562419" flag="0"/>
			<psa30 value="0.0247033131399041" flag="0"/>
		</comp>
	</station>
	<station code="SKY1" name="SKY1" netid="HI" source="ITSAK Strong Motion Network" insttype="" lat="38.904483" lon="24.564572">
		<comp name=".HNE" depth="0.0">
			<acc value="0.020374776314634" flag="0"/>
			<vel value="0.0146902851872" flag="0"/>
			<psa03 value="0.0393489530292083" flag="0"/>
			<psa10 value="0.0154504300776726" flag="0"/>
			<psa30 value="0.00270266403822706" flag="0"/>
		</comp>
		<comp name=".HNN" depth="0.0">
			<acc value="0.018280791916626" flag="0"/>
			<vel value="0.0119672547155" flag="0"/>
			<psa03 value="0.0719524956665728" flag="0"/>
			<psa10 value="0.0158560597611389" flag="0"/>
			<psa30 value="0.00339053814817956" flag="0"/>
		</comp>
		<comp name=".HNZ" depth="0.0">
			<acc value="0.01121471921418" flag="0"/>
			<vel value="0.0118072961709" flag="0"/>
			<psa03 value="0.0437533828218733" flag="0"/>
			<psa10 value="0.0101910619828248" flag="0"/>
			<psa30 value="0.00395579205181163" flag="0"/>
		</comp>
	</station>
	<station code="THV2" name="THV2" netid="HI" source="ITSAK Strong Motion Network" insttype="" lat="38.316117" lon="23.319807">
		<comp name=".HNE" depth="0.0">
			<acc value="0.15610441162722" flag="0"/>
			<vel value="0.104481121671" flag="0"/>
			<psa03 value="0.512322355506739" flag="0"/>
			<psa10 value="0.118783613831433" flag="0"/>
			<psa30 value="0.0273132543690618" flag="0"/>
		</comp>
		<comp name=".HNN" depth="0.0">
			<acc value="0.136289787831" flag="0"/>
			<vel value="0.130052128095" flag="0"/>
			<psa03 value="0.350016520210091" flag="0"/>
			<psa10 value="0.207964446623911" flag="0"/>
			<psa30 value="0.043267702939629" flag="0"/>
		</comp>
		<comp name=".HNZ" depth="0.0">
