<?xml version="1.0" encoding="UTF-8" standalone="yes"?>
<!DOCTYPE earthquake SYSTEM "stationlist.dtd">
<stationlist created="" xmlns="ch.ethz.sed.shakemap.usgs.xml">
  <station code="SDAG" name="SDAG" netid="KO" insttype="CMG-6T" lat="38.4396" lon="30.9175">
    <comp name="--.HHZ">
      <acc value="0.0002950566" flag="0"/>
      <vel value="0.0004485665" flag="0"/>
      <psa03 value="0.0006364278" flag="0"/>
      <psa10 value="0.0004264936" flag="0"/>
      <psa30 value="0.0001023270" flag="0"/>
    </comp>
    <comp name="--.HHN">
      <acc value="0.0009358737" flag="0"/>
      <vel value="0.0009973212" flag="0"/>
      <psa03 value="0.0006298930" flag="0"/>
      <psa10 value="0.0009042201" flag="0"/>
      <psa30 value="0.0005267723" flag="0"/>
    </comp>
    <comp name="--.HHE">
      <acc value="0.0005856042" flag="0"/>
      <vel value="0.0004661258" flag="0"/>
      <psa03 value="0.0004939557" flag="0"/>
      <psa10 value="0.0004595521" flag="0"/>
      <psa30 value="0.0001911581" flag="0"/>
    </comp>
  </station>
</stationlist>
