<?xml version="1.0" encoding="UTF-8" standalone="yes"?>
<!DOCTYPE earthquake SYSTEM "stationlist.dtd">
<stationlist created="" xmlns="ch.ethz.sed.shakemap.usgs.xml">
  <station code="GAZ" name="GAZ" netid="KO" insttype="CMG-3T" lat="37.1721" lon="37.2096">
    <comp name="--.HHN">
      <acc value="0.1011458748" flag="0"/>
      <vel value="0.0500056503" flag="0"/>
      <psa03 value="0.1070446034" flag="0"/>
      <psa10 value="0.0546512129" flag="0"/>
      <psa30 value="0.0028606109" flag="0"/>
    </comp>
    <comp name="--.HHE">
      <acc value="0.1016405254" flag="0"/>
      <vel value="0.0562941058" flag="0"/>
      <psa03 value="0.1530485990" flag="0"/>
      <psa10 value="0.0765177523" flag="0"/>
      <psa30 value="0.0038067053" flag="0"/>
    </comp>
    <comp name="--.HHZ">
      <acc value="0.0482523984" flag="0"/>
      <vel value="0.0276103644" flag="0"/>
      <psa03 value="0.1025183357" flag="0"/>
      <psa10 value="0.0287283535" flag="0"/>
      <psa30 value="0.0034625494" flag="0"/>
    </comp>
  </station>
</stationlist>
