<?xml version="1.0" encoding="UTF-8" standalone="yes"?>
<!DOCTYPE earthquake SYSTEM "stationlist.dtd">
<stationlist created="" xmlns="ch.ethz.sed.shakemap.usgs.xml">
  <station code="CEYT" name="CEYT" netid="KO" insttype="CMG-3ESP" lat="37.0105" lon="35.7478">
    <comp name="--.HHE">
      <acc value="0.0026531772" flag="0"/>
      <vel value="0.0001454294" flag="0"/>
      <psa03 value="0.0001029925" flag="0"/>
      <psa10 value="0.0000394766" flag="0"/>
      <psa30 value="0.0000389451" flag="0"/>
    </comp>
    <comp name="--.HHZ">
      <acc value="0.0051602936" flag="0"/>
      <vel value="0.0050796703" flag="0"/>
      <psa03 value="0.0153968349" flag="0"/>
      <psa10 value="0.0054522096" flag="0"/>
      <psa30 value="0.0017323673" flag="0"/>
    </comp>
    <comp name="--.HHN">
      <acc value="0.0103890237" flag="0"/>
      <vel value="0.0058558895" flag="0"/>
      <psa03 value="0.0219081330" flag="0"/>
      <psa10 value="0.0116103511" flag="0"/>
      <psa30 value="0.0008459270" flag="0"/>
    </comp>
  </station>
  <station code="GAZ" name="GAZ" netid="KO" insttype="CMG-3T" lat="37.1721" lon="37.2096">
    <comp name="--.HHN">
      <acc value="0.0114684233" flag="0"/>
      <vel value="0.0070400706" flag="0"/>
      <psa03 value="0.0296908858" flag="0"/>
      <psa10 value="0.0103572430" flag="0"/>
      <psa30 value="0.0015032247" flag="0"/>
    </comp>
    <comp name="--.HHZ">
      <acc value="0.0073424713" flag="0"/>
      <vel value="0.0051014358" flag="0"/>
      <psa03 value="0.0352849898" flag="0"/>
      <psa10 value="0.0078960435" flag="0"/>
      <psa30 value="0.0016554198" flag="0"/>
    </comp>
    <comp name="--.HHE">
      <acc value="0.0118171660" flag="0"/>
      <vel value="0.0118221437" flag="0"/>
      <psa03 value="0.0477558543" flag="0"/>
      <psa10 value="0.0105379443" flag="0"/>
      <psa30 value="0.0022061319" flag="0"/>
    </comp>
  </station>
  <station code="ANDN" name="ANDN" netid="TU" insttype="T" lat="37.58" lon="36.3452">
    <comp name="--.HHN">
      <acc value="0.0131835850" flag="0"/>
      <vel value="0.0095222374" flag="0"/>
      <psa03 value="0.0455391938" flag="0"/>
      <psa10 value="0.0082340348" flag="0"/>
      <psa30 value="0.0017808665" flag="0"/>
    </comp>
    <comp name="--.HHE">
      <acc value="0.0144488172" flag="0"/>
      <vel value="0.0097247733" flag="0"/>
      <psa03 value="0.0358907524" flag="0"/>
      <psa10 value="0.0107245506" flag="0"/>
      <psa30 value="0.0017169721" flag="0"/>
    </comp>
    <comp name="--.HHZ">
      <acc value="0.0080155106" flag="0"/>
      <vel value="0.0058290662" flag="0"/>
      <psa03 value="0.0188185973" flag="0"/>
      <psa10 value="0.0079105677" flag="0"/>
      <psa30 value="0.0013060326" flag="0"/>
    </comp>
  </station>
</stationlist>
