<?xml version="1.0" encoding="UTF-8" standalone="yes"?>
<!DOCTYPE earthquake SYSTEM "stationlist.dtd">
<stationlist created="" xmlns="ch.ethz.sed.shakemap.usgs.xml">
  <station code="BERA" name="BERA" netid="AC" insttype="" lat="40.7081" lon="19.9455">
    <comp name="00.HHN">
      <acc value="0.0609614713" flag="0"/>
      <vel value="0.0292651969" flag="0"/>
      <psa03 value="0.1123691078" flag="0"/>
      <psa10 value="0.0349351175" flag="0"/>
      <psa30 value="0.0047259251" flag="0"/>
    </comp>
    <comp name="00.HHE">
      <acc value="0.0901524683" flag="0"/>
      <vel value="0.0351489843" flag="0"/>
      <psa03 value="0.1798673192" flag="0"/>
      <psa10 value="0.0308722456" flag="0"/>
      <psa30 value="0.0093620684" flag="0"/>
    </comp>
    <comp name="00.HHZ">
      <acc value="0.0641905086" flag="0"/>
      <vel value="0.0191955684" flag="0"/>
      <psa03 value="0.1066235378" flag="0"/>
      <psa10 value="0.0206055322" flag="0"/>
      <psa30 value="0.0046080031" flag="0"/>
    </comp>
  </station>
  <station code="KBN" name="KBN" netid="AC" insttype="" lat="40.6236" lon="20.7874">
    <comp name="--.HHE">
      <acc value="0.2631105015" flag="0"/>
      <vel value="0.1067449327" flag="0"/>
      <psa03 value="0.5111810115" flag="0"/>
      <psa10 value="0.1194310185" flag="0"/>
      <psa30 value="0.0129792299" flag="0"/>
    </comp>
    <comp name="--.HHN">
      <acc value="0.2691469681" flag="0"/>
      <vel value="0.0758980723" flag="0"/>
      <psa03 value="0.3958101580" flag="0"/>
      <psa10 value="0.0988016370" flag="0"/>
      <psa30 value="0.0143332014" flag="0"/>
    </comp>
    <comp name="--.HHZ">
      <acc value="0.3284582097" flag="0"/>
      <vel value="0.1115895495" flag="0"/>
      <psa03 value="0.2732199979" flag="0"/>
      <psa10 value="0.0740804372" flag="0"/>
      <psa30 value="0.0150276513" flag="0"/>
    </comp>
  </station>
  <station code="SRN" name="SRN" netid="AC" insttype="" lat="39.88" lon="20.0005">
    <comp name="--.HHE">
      <acc value="0.0114632233" flag="0"/>
      <vel value="0.0136473048" flag="0"/>
      <psa03 value="0.0197106363" flag="0"/>
      <psa10 value="0.0251084041" flag="0"/>
      <psa30 value="0.0020541959" flag="0"/>
    </comp>
    <comp name="--.HHN">
      <acc value="0.0098801011" flag="0"/>
      <vel value="0.0098759927" flag="0"/>
      <psa03 value="0.0205164491" flag="0"/>
      <psa10 value="0.0124275053" flag="0"/>
      <psa30 value="0.0010309174" flag="0"/>
    </comp>
    <comp name="--.HHZ">
      <acc value="0.0070022096" flag="0"/>
      <vel value="0.0038271343" flag="0"/>
      <psa03 value="0.0183817978" flag="0"/>
      <psa10 value="0.0069049587" flag="0"/>
      <psa30 value="0.0011217812" flag="0"/>
    </comp>
  </station>
  <station code="VLO" name="VLO" netid="AC" insttype="" lat="40.4686" lon="19.4955">
    <comp name="--.HHE">
      <acc value="0.0248647212" flag="0"/>
      <vel value="0.0248848081" flag="0"/>
      <psa03 value="0.0851213028" flag="0"/>
      <psa10 value="0.0437727195" flag="0"/>
      <psa30 value="0.0070049505" flag="0"/>
    </comp>
    <comp name="--.HHN">
      <acc value="0.0515664963" flag="0"/>
      <vel value="0.0468998494" flag="0"/>
      <psa03 value="0.1962402567" flag="0"/>
      <psa10 value="0.1020676220" flag="0"/>
      <psa30 value="0.0070456779" flag="0"/>
    </comp>
    <comp name="--.HHZ">
      <acc value="0.0204059260" flag="0"/>
      <vel value="0.0173404422" flag="0"/>
      <psa03 value="0.0724929766" flag="0"/>
      <psa10 value="0.0285271326" flag="0"/>
      <psa30 value="0.0059892170" flag="0"/>
    </comp>
  </station>
  <station code="KRK1" name="KRK1" netid="HI" insttype="CMG-5TD,ACCELEROMETER,GURALP" lat="39.6189" lon="19.9202">
    <comp name="--.HNZ">
      <acc value="0.0155373180" flag="0"/>
      <vel value="0.0085318741" flag="0"/>
      <psa03 value="0.0612500670" flag="0"/>
      <psa10 value="0.0109234657" flag="0"/>
      <psa30 value="0.0014033254" flag="0"/>
    </comp>
    <comp name="--.HNE">
      <acc value="0.0308583170" flag="0"/>
      <vel value="0.0190083712" flag="0"/>
      <psa03 value="0.0738649803" flag="0"/>
      <psa10 value="0.0164141065" flag="0"/>
      <psa30 value="0.0033092909" flag="0"/>
    </comp>
    <comp name="--.HNN">
      <acc value="0.0353129247" flag="0"/>
      <vel value="0.0238834840" flag="0"/>
      <psa03 value="0.1048892028" flag="0"/>
      <psa10 value="0.0158888621" flag="0"/>
      <psa30 value="0.0019403073" flag="0"/>
    </comp>
  </station>
  <station code="LMS2" name="LMS2" netid="HI" insttype="CMG-5TD,ACCELEROMETER,GURALP" lat="40.835" lon="21.1418">
    <comp name="--.HNZ">
      <acc value="0.0369913974" flag="0"/>
      <vel value="0.0120987874" flag="0"/>
      <psa03 value="0.0455712803" flag="0"/>
      <psa10 value="0.0093095937" flag="0"/>
      <psa30 value="0.0019046367" flag="0"/>
    </comp>
    <comp name="--.HNE">
      <acc value="0.1090385757" flag="0"/>
      <vel value="0.0238943478" flag="0"/>
      <psa03 value="0.1160806309" flag="0"/>
      <psa10 value="0.0208647935" flag="0"/>
      <psa30 value="0.0026702411" flag="0"/>
    </comp>
    <comp name="--.HNN">
      <acc value="0.1418109519" flag="0"/>
      <vel value="0.0316864085" flag="0"/>
      <psa03 value="0.1957508785" flag="0"/>
      <psa10 value="0.0173426137" flag="0"/>
      <psa30 value="0.0012224096" flag="0"/>
    </comp>
  </station>
  <station code="JAN" name="JAN" netid="HL" insttype="CMG3EPSC60_DR24" lat="39.6562" lon="20.8487">
    <comp name="--.HHE">
      <acc value="0.0285723636" flag="0"/>
      <vel value="0.0258084135" flag="0"/>
      <psa03 value="0.0734631052" flag="0"/>
      <psa10 value="0.0243964814" flag="0"/>
      <psa30 value="0.0034941322" flag="0"/>
    </comp>
    <comp name="--.HHN">
      <acc value="0.0382673223" flag="0"/>
      <vel value="0.0195089911" flag="0"/>
      <psa03 value="0.1343777687" flag="0"/>
      <psa10 value="0.0251285586" flag="0"/>
      <psa30 value="0.0026834735" flag="0"/>
    </comp>
    <comp name="--.HHZ">
      <acc value="0.0183661938" flag="0"/>
      <vel value="0.0123090718" flag="0"/>
      <psa03 value="0.0660612052" flag="0"/>
      <psa10 value="0.0170200829" flag="0"/>
      <psa30 value="0.0016884490" flag="0"/>
    </comp>
  </station>
  <station code="KEK" name="KEK" netid="HL" insttype="120" lat="39.7127" lon="19.7962">
    <comp name="--.HHE">
      <acc value="0.0145272010" flag="0"/>
      <vel value="0.0100155665" flag="0"/>
      <psa03 value="0.0360732712" flag="0"/>
      <psa10 value="0.0123516016" flag="0"/>
      <psa30 value="0.0017145278" flag="0"/>
    </comp>
    <comp name="--.HHN">
      <acc value="0.0119037919" flag="0"/>
      <vel value="0.0120768897" flag="0"/>
      <psa03 value="0.0405146709" flag="0"/>
      <psa10 value="0.0145721451" flag="0"/>
      <psa30 value="0.0012870304" flag="0"/>
    </comp>
    <comp name="--.HHZ">
      <acc value="0.0074885164" flag="0"/>
      <vel value="0.0083449057" flag="0"/>
      <psa03 value="0.0182352798" flag="0"/>
      <psa10 value="0.0138746896" flag="0"/>
      <psa30 value="0.0009689466" flag="0"/>
    </comp>
  </station>
  <station code="KZN" name="KZN" netid="HL" insttype="120" lat="40.3033" lon="21.7821">
    <comp name="--.HHE">
      <acc value="0.0320780771" flag="0"/>
      <vel value="0.0183330387" flag="0"/>
      <psa03 value="0.0511549095" flag="0"/>
      <psa10 value="0.0152012774" flag="0"/>
      <psa30 value="0.0033522239" flag="0"/>
    </comp>
    <comp name="--.HHZ">
      <acc value="0.0138425528" flag="0"/>
      <vel value="0.0077137183" flag="0"/>
      <psa03 value="0.0432212479" flag="0"/>
      <psa10 value="0.0111364988" flag="0"/>
      <psa30 value="0.0027185732" flag="0"/>
    </comp>
    <comp name="--.HHN">
      <acc value="0.0212471920" flag="0"/>
      <vel value="0.0129556992" flag="0"/>
      <psa03 value="0.0511673777" flag="0"/>
      <psa10 value="0.0079662990" flag="0"/>
      <psa30 value="0.0023857977" flag="0"/>
    </comp>
  </station>
  <station code="TETR" name="TETR" netid="HL" insttype="60" lat="39.3445" lon="21.2747">
    <comp name="--.HHZ">
      <acc value="0.0139569557" flag="0"/>
      <vel value="0.0115940547" flag="0"/>
      <psa03 value="0.0336688988" flag="0"/>
      <psa10 value="0.0229157534" flag="0"/>
      <psa30 value="0.0034845306" flag="0"/>
    </comp>
    <comp name="--.HHN">
      <acc value="0.0280591449" flag="0"/>
      <vel value="0.0197781702" flag="0"/>
      <psa03 value="0.0445475119" flag="0"/>
      <psa10 value="0.0295205671" flag="0"/>
      <psa30 value="0.0027837083" flag="0"/>
    </comp>
    <comp name="--.HHE">
      <acc value="0.0269428980" flag="0"/>
      <vel value="0.0241270018" flag="0"/>
      <psa03 value="0.0909167438" flag="0"/>
      <psa10 value="0.0488640510" flag="0"/>
      <psa30 value="0.0038165096" flag="0"/>
    </comp>
  </station>
  <station code="TRKA" name="TRKA" netid="HL" insttype="CMG-5" lat="39.5538" lon="21.7662">
    <comp name="00.HNE">
      <acc value="0.0141301279" flag="0"/>
      <vel value="0.0180856320" flag="0"/>
      <psa03 value="0.0406731198" flag="0"/>
      <psa10 value="0.0406680695" flag="0"/>
      <psa30 value="0.0050896978" flag="0"/>
    </comp>
    <comp name="00.HNN">
      <acc value="0.0144814455" flag="0"/>
      <vel value="0.0147967242" flag="0"/>
      <psa03 value="0.0382104798" flag="0"/>
      <psa10 value="0.0275045128" flag="0"/>
      <psa30 value="0.0032000064" flag="0"/>
    </comp>
    <comp name="00.HNZ">
      <acc value="0.0086414976" flag="0"/>
      <vel value="0.0084116480" flag="0"/>
      <psa03 value="0.0287055645" flag="0"/>
      <psa10 value="0.0088163224" flag="0"/>
      <psa30 value="0.0022553733" flag="0"/>
    </comp>
  </station>
  <station code="KSTR" name="KSTR" netid="HP" insttype="Compact," lat="39.2492" lon="20.576">
    <comp name="--.HHE">
      <acc value="0.0081208906" flag="0"/>
      <vel value="0.0072002902" flag="0"/>
      <psa03 value="0.0163147463" flag="0"/>
      <psa10 value="0.0167671972" flag="0"/>
      <psa30 value="0.0022819446" flag="0"/>
    </comp>
    <comp name="--.HHN">
      <acc value="0.0065403348" flag="0"/>
      <vel value="0.0057552050" flag="0"/>
      <psa03 value="0.0152217104" flag="0"/>
      <psa10 value="0.0094679969" flag="0"/>
      <psa30 value="0.0012207226" flag="0"/>
    </comp>
    <comp name="--.HHZ">
      <acc value="0.0041427293" flag="0"/>
      <vel value="0.0053283777" flag="0"/>
      <psa03 value="0.0148887148" flag="0"/>
      <psa10 value="0.0116010610" flag="0"/>
      <psa30 value="0.0016372433" flag="0"/>
    </comp>
  </station>
  <station code="PRMD" name="PRMD" netid="HP" insttype="120P," lat="39.5299" lon="21.0965">
    <comp name="--.HHN">
      <acc value="0.0151817916" flag="0"/>
      <vel value="0.0195904864" flag="0"/>
      <psa03 value="0.0426969169" flag="0"/>
      <psa10 value="0.0381655107" flag="0"/>
      <psa30 value="0.0040807292" flag="0"/>
    </comp>
    <comp name="--.HHZ">
      <acc value="0.0080793771" flag="0"/>
      <vel value="0.0131995351" flag="0"/>
      <psa03 value="0.0310750148" flag="0"/>
      <psa10 value="0.0150689786" flag="0"/>
      <psa30 value="0.0042337168" flag="0"/>
    </comp>
    <comp name="--.HHE">
      <acc value="0.0168479126" flag="0"/>
      <vel value="0.0140202444" flag="0"/>
      <psa03 value="0.0577281630" flag="0"/>
      <psa10 value="0.0202365702" flag="0"/>
      <psa30 value="0.0034342914" flag="0"/>
    </comp>
  </station>
  <station code="IGT" name="IGT" netid="HT" insttype="100" lat="39.5315" lon="20.3299">
    <comp name="--.HHE">
      <acc value="0.0094931775" flag="0"/>
      <vel value="0.0142530367" flag="0"/>
      <psa03 value="0.0207099960" flag="0"/>
      <psa10 value="0.0221741126" flag="0"/>
      <psa30 value="0.0032562718" flag="0"/>
    </comp>
    <comp name="--.HHZ">
      <acc value="0.0086016123" flag="0"/>
      <vel value="0.0104468675" flag="0"/>
      <psa03 value="0.0228695452" flag="0"/>
      <psa10 value="0.0212772531" flag="0"/>
      <psa30 value="0.0020554187" flag="0"/>
    </comp>
    <comp name="--.HHN">
      <acc value="0.0113986920" flag="0"/>
      <vel value="0.0158518396" flag="0"/>
      <psa03 value="0.0319819856" flag="0"/>
      <psa10 value="0.0231332621" flag="0"/>
      <psa30 value="0.0019487878" flag="0"/>
    </comp>
  </station>
  <station code="KPRO" name="KPRO" netid="HT" insttype="100" lat="39.9549" lon="21.3632">
    <comp name="--.HHZ">
      <acc value="0.0291564785" flag="0"/>
      <vel value="0.0157987197" flag="0"/>
      <psa03 value="0.0590566983" flag="0"/>
      <psa10 value="0.0165985114" flag="0"/>
      <psa30 value="0.0041789572" flag="0"/>
    </comp>
    <comp name="--.HHE">
      <acc value="0.0789035838" flag="0"/>
      <vel value="0.0283174786" flag="0"/>
      <psa03 value="0.1037952749" flag="0"/>
      <psa10 value="0.0341745524" flag="0"/>
      <psa30 value="0.0060807027" flag="0"/>
    </comp>
    <comp name="--.HHN">
      <acc value="0.0440727338" flag="0"/>
      <vel value="0.0239571886" flag="0"/>
      <psa03 value="0.0887528616" flag="0"/>
      <psa10 value="0.0278787175" flag="0"/>
      <psa30 value="0.0063520251" flag="0"/>
    </comp>
  </station>
  <station code="NEST" name="NEST" netid="HT" insttype="120P," lat="40.4147" lon="21.0489">
    <comp name="--.HHE">
      <acc value="0.2041571980" flag="0"/>
      <vel value="0.0702061009" flag="0"/>
      <psa03 value="0.1518758013" flag="0"/>
      <psa10 value="0.0462259569" flag="0"/>
      <psa30 value="0.0079231514" flag="0"/>
    </comp>
    <comp name="--.HHN">
      <acc value="0.1565306282" flag="0"/>
      <vel value="0.0568541694" flag="0"/>
      <psa03 value="0.1378527738" flag="0"/>
      <psa10 value="0.0790539832" flag="0"/>
      <psa30 value="0.0092204291" flag="0"/>
    </comp>
    <comp name="--.HHZ">
      <acc value="0.2240523529" flag="0"/>
      <vel value="0.0497341721" flag="0"/>
      <psa03 value="0.1369331886" flag="0"/>
      <psa10 value="0.0739520443" flag="0"/>
      <psa30 value="0.0116932603" flag="0"/>
    </comp>
  </station>
  <station code="KEK" name="KEK" netid="MN" insttype="" lat="39.7127" lon="19.7962">
    <comp name="--.HHE">
      <acc value="0.0145271910" flag="0"/>
      <vel value="0.0100155596" flag="0"/>
      <psa03 value="0.0360732462" flag="0"/>
      <psa10 value="0.0123515931" flag="0"/>
      <psa30 value="0.0017145266" flag="0"/>
    </comp>
    <comp name="--.HHN">
      <acc value="0.0119037836" flag="0"/>
      <vel value="0.0120768814" flag="0"/>
      <psa03 value="0.0405146428" flag="0"/>
      <psa10 value="0.0145721350" flag="0"/>
      <psa30 value="0.0012870295" flag="0"/>
    </comp>
    <comp name="--.HHZ">
      <acc value="0.0074885113" flag="0"/>
      <vel value="0.0083448999" flag="0"/>
      <psa03 value="0.0182352672" flag="0"/>
      <psa10 value="0.0138746800" flag="0"/>
      <psa30 value="0.0009689460" flag="0"/>
    </comp>
  </station>
  <station code="TIR" name="TIR" netid="MN" insttype="" lat="41.3472" lon="19.8631">
    <comp name="--.HHN">
      <acc value="0.0127797827" flag="0"/>
      <vel value="0.0144199462" flag="0"/>
      <psa03 value="0.0237141871" flag="0"/>
      <psa10 value="0.0207165578" flag="0"/>
      <psa30 value="0.0048871320" flag="0"/>
    </comp>
    <comp name="--.HHE">
      <acc value="0.0094766414" flag="0"/>
      <vel value="0.0092925429" flag="0"/>
      <psa03 value="0.0214228370" flag="0"/>
      <psa10 value="0.0182858484" flag="0"/>
      <psa30 value="0.0037550567" flag="0"/>
    </comp>
    <comp name="--.HHZ">
      <acc value="0.0071131882" flag="0"/>
      <vel value="0.0072621650" flag="0"/>
      <psa03 value="0.0156443181" flag="0"/>
      <psa10 value="0.0173086160" flag="0"/>
      <psa30 value="0.0056948161" flag="0"/>
    </comp>
  </station>
</stationlist>
