<?xml version="1.0" encoding="UTF-8" standalone="yes"?>
<!DOCTYPE earthquake SYSTEM "stationlist.dtd">
<stationlist created="" xmlns="ch.ethz.sed.shakemap.usgs.xml">
  <station code="BERA" name="BERA" netid="AC" insttype="" lat="40.7081" lon="19.9455">
    <comp name="00.HHE">
      <acc value="0.0901524683" flag="0"/>
      <vel value="0.0351489838" flag="0"/>
      <psa03 value="0.1798673192" flag="0"/>
      <psa10 value="0.0308722456" flag="0"/>
      <psa30 value="0.0093620641" flag="0"/>
    </comp>
    <comp name="00.HHN">
      <acc value="0.0609614713" flag="0"/>
      <vel value="0.0292651972" flag="0"/>
      <psa03 value="0.1123691078" flag="0"/>
      <psa10 value="0.0349351175" flag="0"/>
      <psa30 value="0.0047259363" flag="0"/>
    </comp>
    <comp name="00.HHZ">
      <acc value="0.0641905086" flag="0"/>
      <vel value="0.0191955682" flag="0"/>
      <psa03 value="0.1066235378" flag="0"/>
      <psa10 value="0.0206055322" flag="0"/>
      <psa30 value="0.0046080144" flag="0"/>
    </comp>
  </station>
  <station code="KBN" name="KBN" netid="AC" insttype="" lat="40.6236" lon="20.7874">
    <comp name="--.HHE">
      <acc value="0.2631105014" flag="0"/>
      <vel value="0.1067449335" flag="0"/>
      <psa03 value="0.5111810115" flag="0"/>
      <psa10 value="0.1194310184" flag="0"/>
      <psa30 value="0.0129792344" flag="0"/>
    </comp>
    <comp name="--.HHN">
      <acc value="0.2691469680" flag="0"/>
      <vel value="0.0758980726" flag="0"/>
      <psa03 value="0.3958101580" flag="0"/>
      <psa10 value="0.0988016369" flag="0"/>
      <psa30 value="0.0143332020" flag="0"/>
    </comp>
    <comp name="--.HHZ">
      <acc value="0.3284582097" flag="0"/>
      <vel value="0.1115895493" flag="0"/>
      <psa03 value="0.2732199979" flag="0"/>
      <psa10 value="0.0740804372" flag="0"/>
      <psa30 value="0.0150276431" flag="0"/>
    </comp>
  </station>
  <station code="SRN" name="SRN" netid="AC" insttype="" lat="39.88" lon="20.0005">
    <comp name="--.HHE">
      <acc value="0.0114632232" flag="0"/>
      <vel value="0.0136473043" flag="0"/>
      <psa03 value="0.0197106363" flag="0"/>
      <psa10 value="0.0251084040" flag="0"/>
      <psa30 value="0.0020542164" flag="0"/>
    </comp>
    <comp name="--.HHZ">
      <acc value="0.0070022096" flag="0"/>
      <vel value="0.0038271340" flag="0"/>
      <psa03 value="0.0183817978" flag="0"/>
      <psa10 value="0.0069049587" flag="0"/>
      <psa30 value="0.0011217794" flag="0"/>
    </comp>
    <comp name="--.HHN">
      <acc value="0.0098801013" flag="0"/>
      <vel value="0.0098759933" flag="0"/>
      <psa03 value="0.0205164491" flag="0"/>
      <psa10 value="0.0124275053" flag="0"/>
      <psa30 value="0.0010309182" flag="0"/>
    </comp>
  </station>
  <station code="VLO" name="VLO" netid="AC" insttype="" lat="40.4686" lon="19.4955">
    <comp name="--.HHE">
      <acc value="0.0248647212" flag="0"/>
      <vel value="0.0248848078" flag="0"/>
      <psa03 value="0.0851213028" flag="0"/>
      <psa10 value="0.0437727195" flag="0"/>
      <psa30 value="0.0070049491" flag="0"/>
    </comp>
    <comp name="--.HHN">
      <acc value="0.0515664963" flag="0"/>
      <vel value="0.0468998595" flag="0"/>
      <psa03 value="0.1962402567" flag="0"/>
      <psa10 value="0.1020676220" flag="0"/>
      <psa30 value="0.0070457002" flag="0"/>
    </comp>
    <comp name="--.HHZ">
      <acc value="0.0204059260" flag="0"/>
      <vel value="0.0173404411" flag="0"/>
      <psa03 value="0.0724929766" flag="0"/>
      <psa10 value="0.0285271326" flag="0"/>
      <psa30 value="0.0059892163" flag="0"/>
    </comp>
  </station>
  <station code="KEK" name="KEK" netid="MN" insttype="" lat="39.7127" lon="19.7962">
    <comp name="--.HHN">
      <acc value="0.0119037836" flag="0"/>
      <vel value="0.0120768810" flag="0"/>
      <psa03 value="0.0405146428" flag="0"/>
      <psa10 value="0.0145721350" flag="0"/>
      <psa30 value="0.0012870426" flag="0"/>
    </comp>
    <comp name="--.HHE">
      <acc value="0.0145271910" flag="0"/>
      <vel value="0.0100155593" flag="0"/>
      <psa03 value="0.0360732462" flag="0"/>
      <psa10 value="0.0123515931" flag="0"/>
      <psa30 value="0.0017145070" flag="0"/>
    </comp>
    <comp name="--.HHZ">
      <acc value="0.0074885114" flag="0"/>
      <vel value="0.0083449006" flag="0"/>
      <psa03 value="0.0182352672" flag="0"/>
      <psa10 value="0.0138746800" flag="0"/>
      <psa30 value="0.0009689304" flag="0"/>
    </comp>
  </station>
  <station code="THL" name="THL" netid="MN" insttype="" lat="39.5647" lon="22.0144">
    <comp name="--.HHE">
      <acc value="0.0089799963" flag="0"/>
      <vel value="0.0051475132" flag="0"/>
      <psa03 value="0.0115796482" flag="0"/>
      <psa10 value="0.0060717841" flag="0"/>
      <psa30 value="0.0014612699" flag="0"/>
    </comp>
    <comp name="--.HHZ">
      <acc value="0.0047519837" flag="0"/>
      <vel value="0.0073503840" flag="0"/>
      <psa03 value="0.0086079420" flag="0"/>
      <psa10 value="0.0051889800" flag="0"/>
      <psa30 value="0.0019085260" flag="0"/>
    </comp>
    <comp name="--.HHN">
      <acc value="0.0076236474" flag="0"/>
      <vel value="0.0078534406" flag="0"/>
      <psa03 value="0.0164360452" flag="0"/>
      <psa10 value="0.0130385274" flag="0"/>
      <psa30 value="0.0011845720" flag="0"/>
    </comp>
  </station>
  <station code="TIR" name="TIR" netid="MN" insttype="" lat="41.3472" lon="19.8631">
    <comp name="--.HHE">
      <acc value="0.0094766415" flag="0"/>
      <vel value="0.0092925445" flag="0"/>
      <psa03 value="0.0214228370" flag="0"/>
      <psa10 value="0.0182858484" flag="0"/>
      <psa30 value="0.0037550542" flag="0"/>
    </comp>
    <comp name="--.HHN">
      <acc value="0.0127797827" flag="0"/>
      <vel value="0.0144199473" flag="0"/>
      <psa03 value="0.0237141871" flag="0"/>
      <psa10 value="0.0207165578" flag="0"/>
      <psa30 value="0.0048871308" flag="0"/>
    </comp>
    <comp name="--.HHZ">
      <acc value="0.0071131882" flag="0"/>
      <vel value="0.0072621638" flag="0"/>
      <psa03 value="0.0156443181" flag="0"/>
      <psa10 value="0.0173086160" flag="0"/>
      <psa30 value="0.0056948167" flag="0"/>
    </comp>
  </station>
</stationlist>
