<?xml version="1.0" encoding="UTF-8" standalone="yes"?>
<!DOCTYPE earthquake SYSTEM "stationlist.dtd">
<stationlist created="" xmlns="ch.ethz.sed.shakemap.usgs.xml">
  <station code="BERA" name="BERA" netid="AC" insttype="" lat="40.7081" lon="19.9455">
    <comp name="00.HHE">
      <acc value="0.0901524683" flag="0"/>
      <vel value="0.0351489838" flag="0"/>
      <psa03 value="0.1798673192" flag="0"/>
      <psa10 value="0.0308722456" flag="0"/>
      <psa30 value="0.0093620641" flag="0"/>
    </comp>
    <comp name="00.HHN">
      <acc value="0.0609614713" flag="0"/>
      <vel value="0.0292651972" flag="0"/>
      <psa03 value="0.1123691078" flag="0"/>
      <psa10 value="0.0349351175" flag="0"/>
      <psa30 value="0.0047259363" flag="0"/>
    </comp>
    <comp name="00.HHZ">
      <acc value="0.0641905086" flag="0"/>
      <vel value="0.0191955682" flag="0"/>
      <psa03 value="0.1066235378" flag="0"/>
      <psa10 value="0.0206055322" flag="0"/>
      <psa30 value="0.0046080144" flag="0"/>
    </comp>
  </station>
  <station code="KBN" name="KBN" netid="AC" insttype="" lat="40.6236" lon="20.7874">
    <comp name="--.HHE">
      <acc value="0.2631105014" flag="0"/>
      <vel value="0.1067449335" flag="0"/>
      <psa03 value="0.5111810115" flag="0"/>
      <psa10 value="0.1194310184" flag="0"/>
      <psa30 value="0.0129792344" flag="0"/>
    </comp>
    <comp name="--.HHN">
      <acc value="0.2691469680" flag="0"/>
      <vel value="0.0758980726" flag="0"/>
      <psa03 value="0.3958101580" flag="0"/>
      <psa10 value="0.0988016369" flag="0"/>
      <psa30 value="0.0143332020" flag="0"/>
    </comp>
    <comp name="--.HHZ">
      <acc value="0.3284582097" flag="0"/>
      <vel value="0.1115895493" flag="0"/>
      <psa03 value="0.2732199979" flag="0"/>
      <psa10 value="0.0740804372" flag="0"/>
      <psa30 value="0.0150276431" flag="0"/>
    </comp>
  </station>
  <station code="SRN" name="SRN" netid="AC" insttype="" lat="39.88" lon="20.0005">
    <comp name="--.HHE">
      <acc value="0.0114632232" flag="0"/>
      <vel value="0.0136473043" flag="0"/>
      <psa03 value="0.0197106363" flag="0"/>
      <psa10 value="0.0251084040" flag="0"/>
      <psa30 value="0.0020542164" flag="0"/>
    </comp>
    <comp name="--.HHZ">
      <acc value="0.0070022096" flag="0"/>
      <vel value="0.0038271340" flag="0"/>
      <psa03 value="0.0183817978" flag="0"/>
      <psa10 value="0.0069049587" flag="0"/>
      <psa30 value="0.0011217794" flag="0"/>
    </comp>
    <comp name="--.HHN">
      <acc value="0.0098801013" flag="0"/>
      <vel value="0.0098759933" flag="0"/>
      <psa03 value="0.0205164491" flag="0"/>
      <psa10 value="0.0124275053" flag="0"/>
      <psa30 value="0.0010309182" flag="0"/>
    </comp>
  </station>
  <station code="VLO" name="VLO" netid="AC" insttype="" lat="40.4686" lon="19.4955">
    <comp name="--.HHE">
      <acc value="0.0248647212" flag="0"/>
      <vel value="0.0248848078" flag="0"/>
      <psa03 value="0.0851213028" flag="0"/>
      <psa10 value="0.0437727195" flag="0"/>
      <psa30 value="0.0070049491" flag="0"/>
    </comp>
    <comp name="--.HHN">
      <acc value="0.0515664963" flag="0"/>
      <vel value="0.0468998595" flag="0"/>
      <psa03 value="0.1962402567" flag="0"/>
      <psa10 value="0.1020676220" flag="0"/>
      <psa30 value="0.0070457002" flag="0"/>
    </comp>
    <comp name="--.HHZ">
      <acc value="0.0204059260" flag="0"/>
      <vel value="0.0173404411" flag="0"/>
      <psa03 value="0.0724929766" flag="0"/>
      <psa10 value="0.0285271326" flag="0"/>
      <psa30 value="0.0059892163" flag="0"/>
    </comp>
  </station>
  <station code="KRK1" name="KRK1" netid="HI" insttype="CMG-5TD,ACCELEROMETER,GURALP" lat="39.6189" lon="19.9202">
    <comp name="--.HNE">
      <acc value="0.0308583162" flag="0"/>
      <vel value="0.0190083725" flag="0"/>
      <psa03 value="0.0738649803" flag="0"/>
      <psa10 value="0.0164141065" flag="0"/>
      <psa30 value="0.0033093247" flag="0"/>
    </comp>
    <comp name="--.HNN">
      <acc value="0.0353129246" flag="0"/>
      <vel value="0.0238834847" flag="0"/>
      <psa03 value="0.1048892028" flag="0"/>
      <psa10 value="0.0158888621" flag="0"/>
      <psa30 value="0.0019402778" flag="0"/>
    </comp>
    <comp name="--.HNZ">
      <acc value="0.0155373155" flag="0"/>
      <vel value="0.0085318710" flag="0"/>
      <psa03 value="0.0612500670" flag="0"/>
      <psa10 value="0.0109234659" flag="0"/>
      <psa30 value="0.0014033501" flag="0"/>
    </comp>
  </station>
  <station code="LMS2" name="LMS2" netid="HI" insttype="CMG-5TD,ACCELEROMETER,GURALP" lat="40.835" lon="21.1418">
    <comp name="--.HNN">
      <acc value="0.1418109521" flag="0"/>
      <vel value="0.0316864083" flag="0"/>
      <psa03 value="0.1957508785" flag="0"/>
      <psa10 value="0.0173426134" flag="0"/>
      <psa30 value="0.0012224105" flag="0"/>
    </comp>
    <comp name="--.HNE">
      <acc value="0.1090385757" flag="0"/>
      <vel value="0.0238943474" flag="0"/>
      <psa03 value="0.1160806309" flag="0"/>
      <psa10 value="0.0208647935" flag="0"/>
      <psa30 value="0.0026702402" flag="0"/>
    </comp>
    <comp name="--.HNZ">
      <acc value="0.0369913981" flag="0"/>
      <vel value="0.0120987866" flag="0"/>
      <psa03 value="0.0455712803" flag="0"/>
      <psa10 value="0.0093095937" flag="0"/>
      <psa30 value="0.0019046470" flag="0"/>
    </comp>
  </station>
  <station code="JAN" name="JAN" netid="HL" insttype="CMG3EPSC60_DR24" lat="39.6562" lon="20.8487">
    <comp name="--.HHE">
      <acc value="0.0285723633" flag="0"/>
      <vel value="0.0258084153" flag="0"/>
      <psa03 value="0.0734631052" flag="0"/>
      <psa10 value="0.0243964814" flag="0"/>
      <psa30 value="0.0034940391" flag="0"/>
    </comp>
    <comp name="--.HHN">
      <acc value="0.0382673217" flag="0"/>
      <vel value="0.0195089915" flag="0"/>
      <psa03 value="0.1343777687" flag="0"/>
      <psa10 value="0.0251285586" flag="0"/>
      <psa30 value="0.0026834105" flag="0"/>
    </comp>
    <comp name="--.HHZ">
      <acc value="0.0183661936" flag="0"/>
      <vel value="0.0123090723" flag="0"/>
      <psa03 value="0.0660612052" flag="0"/>
      <psa10 value="0.0170200829" flag="0"/>
      <psa30 value="0.0016884608" flag="0"/>
    </comp>
  </station>
  <station code="KEK" name="KEK" netid="HL" insttype="120" lat="39.7127" lon="19.7962">
    <comp name="--.HHE">
      <acc value="0.0145272010" flag="0"/>
      <vel value="0.0100155662" flag="0"/>
      <psa03 value="0.0360732712" flag="0"/>
      <psa10 value="0.0123516016" flag="0"/>
      <psa30 value="0.0017145082" flag="0"/>
    </comp>
    <comp name="--.HHN">
      <acc value="0.0119037919" flag="0"/>
      <vel value="0.0120768894" flag="0"/>
      <psa03 value="0.0405146709" flag="0"/>
      <psa10 value="0.0145721451" flag="0"/>
      <psa30 value="0.0012870435" flag="0"/>
    </comp>
    <comp name="--.HHZ">
      <acc value="0.0074885166" flag="0"/>
      <vel value="0.0083449064" flag="0"/>
      <psa03 value="0.0182352798" flag="0"/>
      <psa10 value="0.0138746896" flag="0"/>
      <psa30 value="0.0009689311" flag="0"/>
    </comp>
  </station>
  <station code="KZN" name="KZN" netid="HL" insttype="120" lat="40.3033" lon="21.7821">
    <comp name="--.HHZ">
      <acc value="0.0138425527" flag="0"/>
      <vel value="0.0077137182" flag="0"/>
      <psa03 value="0.0432212479" flag="0"/>
      <psa10 value="0.0111364988" flag="0"/>
      <psa30 value="0.0027185758" flag="0"/>
    </comp>
    <comp name="--.HHN">
      <acc value="0.0212471920" flag="0"/>
      <vel value="0.0129556992" flag="0"/>
      <psa03 value="0.0511673777" flag="0"/>
      <psa10 value="0.0079662989" flag="0"/>
      <psa30 value="0.0023857869" flag="0"/>
    </comp>
    <comp name="--.HHE">
      <acc value="0.0320780772" flag="0"/>
      <vel value="0.0183330386" flag="0"/>
      <psa03 value="0.0511549095" flag="0"/>
      <psa10 value="0.0152012774" flag="0"/>
      <psa30 value="0.0033522229" flag="0"/>
    </comp>
  </station>
  <station code="TETR" name="TETR" netid="HL" insttype="60" lat="39.3445" lon="21.2747">
    <comp name="--.HHZ">
      <acc value="0.0139569558" flag="0"/>
      <vel value="0.0115940540" flag="0"/>
      <psa03 value="0.0336688988" flag="0"/>
      <psa10 value="0.0229157534" flag="0"/>
      <psa30 value="0.0034845524" flag="0"/>
    </comp>
    <comp name="--.HHE">
      <acc value="0.0269428980" flag="0"/>
      <vel value="0.0241270012" flag="0"/>
      <psa03 value="0.0909167438" flag="0"/>
      <psa10 value="0.0488640510" flag="0"/>
      <psa30 value="0.0038165105" flag="0"/>
    </comp>
    <comp name="--.HHN">
      <acc value="0.0280591451" flag="0"/>
      <vel value="0.0197781713" flag="0"/>
      <psa03 value="0.0445475119" flag="0"/>
      <psa10 value="0.0295205671" flag="0"/>
      <psa30 value="0.0027837057" flag="0"/>
    </comp>
  </station>
  <station code="THL" name="THL" netid="HL" insttype="120" lat="39.5647" lon="22.0144">
    <comp name="--.HHZ">
      <acc value="0.0047519837" flag="0"/>
      <vel value="0.0073503840" flag="0"/>
      <psa03 value="0.0086079420" flag="0"/>
      <psa10 value="0.0051889800" flag="0"/>
      <psa30 value="0.0019085260" flag="0"/>
    </comp>
    <comp name="--.HHE">
      <acc value="0.0089799963" flag="0"/>
      <vel value="0.0051475132" flag="0"/>
      <psa03 value="0.0115796482" flag="0"/>
      <psa10 value="0.0060717841" flag="0"/>
      <psa30 value="0.0014612699" flag="0"/>
    </comp>
    <comp name="--.HHN">
      <acc value="0.0076236474" flag="0"/>
      <vel value="0.0078534406" flag="0"/>
      <psa03 value="0.0164360452" flag="0"/>
      <psa10 value="0.0130385274" flag="0"/>
      <psa30 value="0.0011845720" flag="0"/>
    </comp>
  </station>
  <station code="KSTR" name="KSTR" netid="HP" insttype="Compact," lat="39.2492" lon="20.576">
    <comp name="--.HHE">
      <acc value="0.0081208907" flag="0"/>
      <vel value="0.0072002894" flag="0"/>
      <psa03 value="0.0163147463" flag="0"/>
      <psa10 value="0.0167671972" flag="0"/>
      <psa30 value="0.0022819373" flag="0"/>
    </comp>
    <comp name="--.HHZ">
      <acc value="0.0041427292" flag="0"/>
      <vel value="0.0053283766" flag="0"/>
      <psa03 value="0.0148887148" flag="0"/>
      <psa10 value="0.0116010610" flag="0"/>
      <psa30 value="0.0016372574" flag="0"/>
    </comp>
    <comp name="--.HHN">
      <acc value="0.0065403349" flag="0"/>
      <vel value="0.0057552050" flag="0"/>
      <psa03 value="0.0152217104" flag="0"/>
      <psa10 value="0.0094679969" flag="0"/>
      <psa30 value="0.0012207467" flag="0"/>
    </comp>
  </station>
  <station code="PRMD" name="PRMD" netid="HP" insttype="120P," lat="39.5299" lon="21.0965">
    <comp name="--.HHZ">
      <acc value="0.0080793769" flag="0"/>
      <vel value="0.0131995348" flag="0"/>
      <psa03 value="0.0310750148" flag="0"/>
      <psa10 value="0.0150689786" flag="0"/>
      <psa30 value="0.0042337236" flag="0"/>
    </comp>
    <comp name="--.HHN">
      <acc value="0.0151817918" flag="0"/>
      <vel value="0.0195904846" flag="0"/>
      <psa03 value="0.0426969169" flag="0"/>
      <psa10 value="0.0381655107" flag="0"/>
      <psa30 value="0.0040807890" flag="0"/>
    </comp>
    <comp name="--.HHE">
      <acc value="0.0168479128" flag="0"/>
      <vel value="0.0140202453" flag="0"/>
      <psa03 value="0.0577281630" flag="0"/>
      <psa10 value="0.0202365702" flag="0"/>
      <psa30 value="0.0034342338" flag="0"/>
    </comp>
  </station>
  <station code="IGT" name="IGT" netid="HT" insttype="100" lat="39.5315" lon="20.3299">
    <comp name="--.HHZ">
      <acc value="0.0086016120" flag="0"/>
      <vel value="0.0104468668" flag="0"/>
      <psa03 value="0.0228695452" flag="0"/>
      <psa10 value="0.0212772531" flag="0"/>
      <psa30 value="0.0020554144" flag="0"/>
    </comp>
    <comp name="--.HHE">
      <acc value="0.0094931773" flag="0"/>
      <vel value="0.0142530368" flag="0"/>
      <psa03 value="0.0207099960" flag="0"/>
      <psa10 value="0.0221741127" flag="0"/>
      <psa30 value="0.0032563343" flag="0"/>
    </comp>
    <comp name="--.HHN">
      <acc value="0.0113986916" flag="0"/>
      <vel value="0.0158518387" flag="0"/>
      <psa03 value="0.0319819856" flag="0"/>
      <psa10 value="0.0231332622" flag="0"/>
      <psa30 value="0.0019486866" flag="0"/>
    </comp>
  </station>
  <station code="KPRO" name="KPRO" netid="HT" insttype="100" lat="39.9549" lon="21.3632">
    <comp name="--.HHN">
      <acc value="0.0440727338" flag="0"/>
      <vel value="0.0239571890" flag="0"/>
      <psa03 value="0.0887528616" flag="0"/>
      <psa10 value="0.0278787176" flag="0"/>
      <psa30 value="0.0063520360" flag="0"/>
    </comp>
    <comp name="--.HHE">
      <acc value="0.0789035841" flag="0"/>
      <vel value="0.0283174792" flag="0"/>
      <psa03 value="0.1037952749" flag="0"/>
      <psa10 value="0.0341745524" flag="0"/>
      <psa30 value="0.0060807254" flag="0"/>
    </comp>
    <comp name="--.HHZ">
      <acc value="0.0291564782" flag="0"/>
      <vel value="0.0157987214" flag="0"/>
      <psa03 value="0.0590566983" flag="0"/>
      <psa10 value="0.0165985114" flag="0"/>
      <psa30 value="0.0041789603" flag="0"/>
    </comp>
  </station>
  <station code="NEST" name="NEST" netid="HT" insttype="120P," lat="40.4147" lon="21.0489">
    <comp name="--.HHE">
      <acc value="0.2041571986" flag="0"/>
      <vel value="0.0702061003" flag="0"/>
      <psa03 value="0.1518758013" flag="0"/>
      <psa10 value="0.0462259572" flag="0"/>
      <psa30 value="0.0079230720" flag="0"/>
    </comp>
    <comp name="--.HHN">
      <acc value="0.1565306288" flag="0"/>
      <vel value="0.0568541690" flag="0"/>
      <psa03 value="0.1378527738" flag="0"/>
      <psa10 value="0.0790539832" flag="0"/>
      <psa30 value="0.0092205279" flag="0"/>
    </comp>
    <comp name="--.HHZ">
      <acc value="0.2240523529" flag="0"/>
      <vel value="0.0497341727" flag="0"/>
      <psa03 value="0.1369331886" flag="0"/>
      <psa10 value="0.0739520442" flag="0"/>
      <psa30 value="0.0116931634" flag="0"/>
    </comp>
  </station>
  <station code="KEK" name="KEK" netid="MN" insttype="" lat="39.7127" lon="19.7962">
    <comp name="--.HHN">
      <acc value="0.0119037836" flag="0"/>
      <vel value="0.0120768810" flag="0"/>
      <psa03 value="0.0405146428" flag="0"/>
      <psa10 value="0.0145721350" flag="0"/>
      <psa30 value="0.0012870426" flag="0"/>
    </comp>
    <comp name="--.HHE">
      <acc value="0.0145271910" flag="0"/>
      <vel value="0.0100155593" flag="0"/>
      <psa03 value="0.0360732462" flag="0"/>
      <psa10 value="0.0123515931" flag="0"/>
      <psa30 value="0.0017145070" flag="0"/>
    </comp>
    <comp name="--.HHZ">
      <acc value="0.0074885114" flag="0"/>
      <vel value="0.0083449006" flag="0"/>
      <psa03 value="0.0182352672" flag="0"/>
      <psa10 value="0.0138746800" flag="0"/>
      <psa30 value="0.0009689304" flag="0"/>
    </comp>
  </station>
  <station code="THL" name="THL" netid="MN" insttype="" lat="39.5647" lon="22.0144">
    <comp name="--.HHE">
      <acc value="0.0089799963" flag="0"/>
      <vel value="0.0051475132" flag="0"/>
      <psa03 value="0.0115796482" flag="0"/>
      <psa10 value="0.0060717841" flag="0"/>
      <psa30 value="0.0014612699" flag="0"/>
    </comp>
    <comp name="--.HHZ">
      <acc value="0.0047519837" flag="0"/>
      <vel value="0.0073503840" flag="0"/>
      <psa03 value="0.0086079420" flag="0"/>
      <psa10 value="0.0051889800" flag="0"/>
      <psa30 value="0.0019085260" flag="0"/>
    </comp>
    <comp name="--.HHN">
      <acc value="0.0076236474" flag="0"/>
      <vel value="0.0078534406" flag="0"/>
      <psa03 value="0.0164360452" flag="0"/>
      <psa10 value="0.0130385274" flag="0"/>
      <psa30 value="0.0011845720" flag="0"/>
    </comp>
  </station>
  <station code="TIR" name="TIR" netid="MN" insttype="" lat="41.3472" lon="19.8631">
    <comp name="--.HHE">
      <acc value="0.0094766415" flag="0"/>
      <vel value="0.0092925445" flag="0"/>
      <psa03 value="0.0214228370" flag="0"/>
      <psa10 value="0.0182858484" flag="0"/>
      <psa30 value="0.0037550542" flag="0"/>
    </comp>
    <comp name="--.HHN">
      <acc value="0.0127797827" flag="0"/>
      <vel value="0.0144199473" flag="0"/>
      <psa03 value="0.0237141871" flag="0"/>
      <psa10 value="0.0207165578" flag="0"/>
      <psa30 value="0.0048871308" flag="0"/>
    </comp>
    <comp name="--.HHZ">
      <acc value="0.0071131882" flag="0"/>
      <vel value="0.0072621638" flag="0"/>
      <psa03 value="0.0156443181" flag="0"/>
      <psa10 value="0.0173086160" flag="0"/>
      <psa30 value="0.0056948167" flag="0"/>
    </comp>
  </station>
</stationlist>
