<?xml version="1.0" encoding="UTF-8" standalone="yes"?>
<!DOCTYPE earthquake SYSTEM "stationlist.dtd">
<stationlist created="" xmlns="ch.ethz.sed.shakemap.usgs.xml">
  <station code="THERA" name="THERA" netid="GE" insttype="STS-2/N" lat="36.367" lon="25.4753">
    <comp name="--.HHE">
      <acc value="0.1943944086" flag="0"/>
      <vel value="0.0444088671" flag="0"/>
      <psa03 value="0.1585647562" flag="0"/>
      <psa10 value="0.0159151719" flag="0"/>
      <psa30 value="0.0013848172" flag="0"/>
    </comp>
    <comp name="--.HHN">
      <acc value="0.1393921678" flag="0"/>
      <vel value="0.0288837650" flag="0"/>
      <psa03 value="0.1308963677" flag="0"/>
      <psa10 value="0.0063707220" flag="0"/>
      <psa30 value="0.0010294333" flag="0"/>
    </comp>
    <comp name="--.HHZ">
      <acc value="0.1467637867" flag="0"/>
      <vel value="0.0323433212" flag="0"/>
      <psa03 value="0.0863245115" flag="0"/>
      <psa10 value="0.0103553501" flag="0"/>
      <psa30 value="0.0018357296" flag="0"/>
    </comp>
  </station>
</stationlist>
