<?xml version="1.0" encoding="UTF-8" standalone="yes"?>
<!DOCTYPE earthquake SYSTEM "stationlist.dtd">
<stationlist created="" xmlns="ch.ethz.sed.shakemap.usgs.xml">
  <station code="GVD" name="GVD" netid="GE" insttype="STS-2/N" lat="34.8391" lon="24.0874">
    <comp name="--.HHE">
      <acc value="0.0304641029" flag="0"/>
      <vel value="0.0160489987" flag="0"/>
      <psa03 value="0.0979573341" flag="0"/>
      <psa10 value="0.0125423369" flag="0"/>
      <psa30 value="0.0006980482" flag="0"/>
    </comp>
    <comp name="--.HHZ">
      <acc value="0.0264598153" flag="0"/>
      <vel value="0.0082059401" flag="0"/>
      <psa03 value="0.0429676812" flag="0"/>
      <psa10 value="0.0055193855" flag="0"/>
      <psa30 value="0.0005713611" flag="0"/>
    </comp>
    <comp name="--.HHN">
      <acc value="0.0348218727" flag="0"/>
      <vel value="0.0148455715" flag="0"/>
      <psa03 value="0.0779623193" flag="0"/>
      <psa10 value="0.0083725326" flag="0"/>
      <psa30 value="0.0010818947" flag="0"/>
    </comp>
  </station>
  <station code="IMMV" name="IMMV" netid="GE" insttype="STS-2/N" lat="35.4606" lon="23.9811">
    <comp name="--.HHN">
      <acc value="0.0272625806" flag="0"/>
      <vel value="0.0137730703" flag="0"/>
      <psa03 value="0.0674411254" flag="0"/>
      <psa10 value="0.0261037634" flag="0"/>
      <psa30 value="0.0014437868" flag="0"/>
    </comp>
    <comp name="--.HHE">
      <acc value="0.0223305299" flag="0"/>
      <vel value="0.0160913472" flag="0"/>
      <psa03 value="0.0739885471" flag="0"/>
      <psa10 value="0.0328649693" flag="0"/>
      <psa30 value="0.0015573321" flag="0"/>
    </comp>
    <comp name="--.HHZ">
      <acc value="0.0234178092" flag="0"/>
      <vel value="0.0151504055" flag="0"/>
      <psa03 value="0.0531603641" flag="0"/>
      <psa10 value="0.0144708683" flag="0"/>
      <psa30 value="0.0012523471" flag="0"/>
    </comp>
  </station>
  <station code="ZKR" name="ZKR" netid="GE" insttype="STS-2/N" lat="35.1147" lon="26.2169">
    <comp name="--.HHE">
      <acc value="0.1385558914" flag="0"/>
      <vel value="0.0556589259" flag="0"/>
      <psa03 value="0.2808828409" flag="0"/>
      <psa10 value="0.0434860133" flag="0"/>
      <psa30 value="0.0019753937" flag="0"/>
    </comp>
    <comp name="--.HHN">
      <acc value="0.0776508301" flag="0"/>
      <vel value="0.0305546345" flag="0"/>
      <psa03 value="0.2567566998" flag="0"/>
      <psa10 value="0.0265167924" flag="0"/>
      <psa30 value="0.0012185796" flag="0"/>
    </comp>
    <comp name="--.HHZ">
      <acc value="0.1027760963" flag="0"/>
      <vel value="0.0316473445" flag="0"/>
      <psa03 value="0.2012325547" flag="0"/>
      <psa10 value="0.0255350048" flag="0"/>
      <psa30 value="0.0011850779" flag="0"/>
    </comp>
  </station>
  <station code="CHAN" name="CHAN" netid="HC" insttype="120" lat="35.5193" lon="24.0428">
    <comp name="--.HHE">
      <acc value="0.0362058902" flag="0"/>
      <vel value="0.0307500562" flag="0"/>
      <psa03 value="0.1246847167" flag="0"/>
      <psa10 value="0.0579188237" flag="0"/>
      <psa30 value="0.0047288099" flag="0"/>
    </comp>
    <comp name="--.HHZ">
      <acc value="0.0325843952" flag="0"/>
      <vel value="0.0188488372" flag="0"/>
      <psa03 value="0.0760697314" flag="0"/>
      <psa10 value="0.0250801138" flag="0"/>
      <psa30 value="0.0017153521" flag="0"/>
    </comp>
    <comp name="--.HHN">
      <acc value="0.0306709701" flag="0"/>
      <vel value="0.0242231771" flag="0"/>
      <psa03 value="0.1011921745" flag="0"/>
      <psa10 value="0.0376429897" flag="0"/>
      <psa30 value="0.0034804695" flag="0"/>
    </comp>
  </station>
  <station code="GVDS" name="GVDS" netid="HC" insttype="60" lat="34.8389" lon="24.0585">
    <comp name="--.HHN">
      <acc value="0.0295645393" flag="0"/>
      <vel value="0.0106131016" flag="0"/>
      <psa03 value="0.0646266070" flag="0"/>
      <psa10 value="0.0095923884" flag="0"/>
      <psa30 value="0.0011325815" flag="0"/>
    </comp>
    <comp name="--.HHE">
      <acc value="0.0380273113" flag="0"/>
      <vel value="0.0147047481" flag="0"/>
      <psa03 value="0.0711097970" flag="0"/>
      <psa10 value="0.0164963511" flag="0"/>
      <psa30 value="0.0007127760" flag="0"/>
    </comp>
    <comp name="--.HHZ">
      <acc value="0.0152539511" flag="0"/>
      <vel value="0.0042086747" flag="0"/>
      <psa03 value="0.0205212681" flag="0"/>
      <psa10 value="0.0038582278" flag="0"/>
      <psa30 value="0.0004952573" flag="0"/>
    </comp>
  </station>
  <station code="KNSS" name="KNSS" netid="HC" insttype="60" lat="35.3042" lon="25.1802">
    <comp name="--.HHZ">
      <acc value="0.1896356158" flag="0"/>
      <vel value="0.0549567131" flag="0"/>
      <psa03 value="0.3177288620" flag="0"/>
      <psa10 value="0.0388886061" flag="0"/>
      <psa30 value="0.0122206020" flag="0"/>
    </comp>
    <comp name="--.HHE">
      <acc value="0.2036521056" flag="0"/>
      <vel value="0.1141174003" flag="0"/>
      <psa03 value="0.7047413326" flag="0"/>
      <psa10 value="0.0915648628" flag="0"/>
      <psa30 value="0.0105876632" flag="0"/>
    </comp>
    <comp name="--.HHN">
      <acc value="0.2257027164" flag="0"/>
      <vel value="0.1224432146" flag="0"/>
      <psa03 value="0.7699757426" flag="0"/>
      <psa10 value="0.0862702632" flag="0"/>
      <psa30 value="0.0168800257" flag="0"/>
    </comp>
  </station>
  <station code="PFKS" name="PFKS" netid="HC" insttype="120" lat="35.0429" lon="25.4733">
    <comp name="--.HHE">
      <acc value="0.9608636986" flag="0"/>
      <vel value="0.2577675590" flag="0"/>
      <psa03 value="0.8712777081" flag="0"/>
      <psa10 value="0.1184925957" flag="0"/>
      <psa30 value="0.0097668428" flag="0"/>
    </comp>
    <comp name="--.HHN">
      <acc value="1.2261787992" flag="0"/>
      <vel value="0.3527907776" flag="0"/>
      <psa03 value="1.2338343737" flag="0"/>
      <psa10 value="0.1294833661" flag="0"/>
      <psa30 value="0.0098578772" flag="0"/>
    </comp>
    <comp name="--.HHZ">
      <acc value="0.5561336958" flag="0"/>
      <vel value="0.1155565211" flag="0"/>
      <psa03 value="0.4594347497" flag="0"/>
      <psa10 value="0.0559251384" flag="0"/>
      <psa30 value="0.0038341529" flag="0"/>
    </comp>
  </station>
  <station code="STIA" name="STIA" netid="HC" insttype="120" lat="35.2021" lon="26.0909">
    <comp name="--.HHN">
      <acc value="0.1157451676" flag="0"/>
      <vel value="0.0591463774" flag="0"/>
      <psa03 value="0.3012860512" flag="0"/>
      <psa10 value="0.0499041051" flag="0"/>
      <psa30 value="0.0025997249" flag="0"/>
    </comp>
    <comp name="--.HHZ">
      <acc value="0.0915131210" flag="0"/>
      <vel value="0.0502075786" flag="0"/>
      <psa03 value="0.3356449619" flag="0"/>
      <psa10 value="0.0264581315" flag="0"/>
      <psa30 value="0.0015773675" flag="0"/>
    </comp>
    <comp name="--.HHE">
      <acc value="0.1241260266" flag="0"/>
      <vel value="0.0483061177" flag="0"/>
      <psa03 value="0.4071732614" flag="0"/>
      <psa10 value="0.0526475523" flag="0"/>
      <psa30 value="0.0018723030" flag="0"/>
    </comp>
  </station>
  <station code="CH01" name="CH01" netid="HI" insttype="CMG-5TD,ACCELEROMETER,GURALP" lat="35.517" lon="24.0208">
    <comp name="--.HNN">
      <acc value="0.0254490809" flag="0"/>
      <vel value="0.0145855550" flag="0"/>
      <psa03 value="0.0652520413" flag="0"/>
      <psa10 value="0.0239209983" flag="0"/>
      <psa30 value="0.0025716753" flag="0"/>
    </comp>
    <comp name="--.HNE">
      <acc value="0.0197908049" flag="0"/>
      <vel value="0.0165943459" flag="0"/>
      <psa03 value="0.0498970826" flag="0"/>
      <psa10 value="0.0293632922" flag="0"/>
      <psa30 value="0.0034512063" flag="0"/>
    </comp>
    <comp name="--.HNZ">
      <acc value="0.0147260181" flag="0"/>
      <vel value="0.0097478379" flag="0"/>
      <psa03 value="0.0216078123" flag="0"/>
      <psa10 value="0.0234183089" flag="0"/>
      <psa30 value="0.0015299283" flag="0"/>
    </comp>
  </station>
  <station code="SIT2" name="SIT2" netid="HI" insttype="CMG-5TD,ACCELEROMETER,GURALP" lat="35.2059" lon="26.107">
    <comp name="--.HNE">
      <acc value="0.2305589641" flag="0"/>
      <vel value="0.1453034818" flag="0"/>
      <psa03 value="0.8460906574" flag="0"/>
      <psa10 value="0.1105673063" flag="0"/>
      <psa30 value="0.0060277696" flag="0"/>
    </comp>
    <comp name="--.HNN">
      <acc value="0.2526649863" flag="0"/>
      <vel value="0.1541632797" flag="0"/>
      <psa03 value="0.8154500499" flag="0"/>
      <psa10 value="0.0741713800" flag="0"/>
      <psa30 value="0.0058181878" flag="0"/>
    </comp>
    <comp name="--.HNZ">
      <acc value="0.1294417131" flag="0"/>
      <vel value="0.0574891024" flag="0"/>
      <psa03 value="0.3419690483" flag="0"/>
      <psa10 value="0.0263746366" flag="0"/>
      <psa30 value="0.0018773572" flag="0"/>
    </comp>
  </station>
  <station code="CRE1" name="CRE1" netid="HL" insttype="LE3D20_SMART24" lat="35.2267" lon="25.2497">
    <comp name="--.HHE">
      <acc value="1.6719052112" flag="0"/>
      <vel value="0.4328579813" flag="0"/>
      <psa03 value="2.1638856533" flag="0"/>
      <psa10 value="0.2100411527" flag="0"/>
      <psa30 value="0.0172951833" flag="0"/>
    </comp>
    <comp name="--.HHN">
      <acc value="1.7468715696" flag="0"/>
      <vel value="0.4273469762" flag="0"/>
      <psa03 value="1.6348114488" flag="0"/>
      <psa10 value="0.1536906135" flag="0"/>
      <psa30 value="0.0222825966" flag="0"/>
    </comp>
    <comp name="--.HHZ">
      <acc value="1.1174047177" flag="0"/>
      <vel value="0.2682998398" flag="0"/>
      <psa03 value="1.6755914780" flag="0"/>
      <psa10 value="0.2420783652" flag="0"/>
      <psa30 value="0.0296718777" flag="0"/>
    </comp>
  </station>
  <station code="CRE3" name="CRE3" netid="HL" insttype="LE3D20_SMART24" lat="35.0769" lon="25.2462">
    <comp name="--.HHE">
      <acc value="3.9920363450" flag="0"/>
      <vel value="1.1823459859" flag="0"/>
      <psa03 value="7.0688544141" flag="0"/>
      <psa10 value="0.9359106502" flag="0"/>
      <psa30 value="0.1388981573" flag="0"/>
    </comp>
    <comp name="--.HHN">
      <acc value="3.7918790691" flag="0"/>
      <vel value="1.9262231327" flag="0"/>
      <psa03 value="9.4702901471" flag="0"/>
      <psa10 value="1.1309005555" flag="0"/>
      <psa30 value="0.1972889888" flag="0"/>
    </comp>
    <comp name="--.HHZ">
      <acc value="3.6788426894" flag="0"/>
      <vel value="0.9124373921" flag="0"/>
      <psa03 value="5.6389054005" flag="0"/>
      <psa10 value="0.8899358285" flag="0"/>
      <psa30 value="0.0733290317" flag="0"/>
    </comp>
  </station>
  <station code="GVD" name="GVD" netid="HL" insttype="120" lat="34.8391" lon="24.0874">
    <comp name="--.HHE">
      <acc value="0.0295425566" flag="0"/>
      <vel value="0.0156554129" flag="0"/>
      <psa03 value="0.0952824304" flag="0"/>
      <psa10 value="0.0124407240" flag="0"/>
      <psa30 value="0.0006929318" flag="0"/>
    </comp>
    <comp name="--.HHZ">
      <acc value="0.0256722221" flag="0"/>
      <vel value="0.0079681465" flag="0"/>
      <psa03 value="0.0417106386" flag="0"/>
      <psa10 value="0.0054884407" flag="0"/>
      <psa30 value="0.0005716447" flag="0"/>
    </comp>
    <comp name="--.HHN">
      <acc value="0.0338570022" flag="0"/>
      <vel value="0.0144902509" flag="0"/>
      <psa03 value="0.0757172544" flag="0"/>
      <psa10 value="0.0083247691" flag="0"/>
      <psa30 value="0.0010775911" flag="0"/>
    </comp>
  </station>
  <station code="IACM" name="IACM" netid="HL" insttype="CMG5T" lat="35.3058" lon="25.0709">
    <comp name="--.HNN">
      <acc value="0.5741896127" flag="0"/>
      <vel value="0.3894484471" flag="0"/>
      <psa03 value="2.6000781590" flag="0"/>
      <psa10 value="0.4631479519" flag="0"/>
      <psa30 value="0.0218661738" flag="0"/>
    </comp>
    <comp name="--.HNE">
      <acc value="0.9093755511" flag="0"/>
      <vel value="0.4698710439" flag="0"/>
      <psa03 value="4.3603120780" flag="0"/>
      <psa10 value="0.5897419845" flag="0"/>
      <psa30 value="0.0219998055" flag="0"/>
    </comp>
    <comp name="--.HNZ">
      <acc value="0.6290659753" flag="0"/>
      <vel value="0.2176381509" flag="0"/>
      <psa03 value="1.1500655051" flag="0"/>
      <psa10 value="0.2042331714" flag="0"/>
      <psa30 value="0.0084553536" flag="0"/>
    </comp>
  </station>
  <station code="IDI" name="IDI" netid="HL" insttype="120" lat="35.288" lon="24.89">
    <comp name="--.HHE">
      <acc value="0.0971833018" flag="0"/>
      <vel value="0.0339501674" flag="0"/>
      <psa03 value="0.3269510428" flag="0"/>
      <psa10 value="0.0224849372" flag="0"/>
      <psa30 value="0.0018099833" flag="0"/>
    </comp>
    <comp name="--.HHN">
      <acc value="0.1130875379" flag="0"/>
      <vel value="0.0410307747" flag="0"/>
      <psa03 value="0.2540848079" flag="0"/>
      <psa10 value="0.0230835376" flag="0"/>
      <psa30 value="0.0027727967" flag="0"/>
    </comp>
    <comp name="--.HHZ">
      <acc value="0.0756345673" flag="0"/>
      <vel value="0.0294930846" flag="0"/>
      <psa03 value="0.1283454136" flag="0"/>
      <psa10 value="0.0280190988" flag="0"/>
      <psa30 value="0.0025054295" flag="0"/>
    </comp>
  </station>
  <station code="IMMV" name="IMMV" netid="HL" insttype="120" lat="35.4606" lon="23.9811">
    <comp name="--.HHN">
      <acc value="0.0266496789" flag="0"/>
      <vel value="0.0136869069" flag="0"/>
      <psa03 value="0.0657118941" flag="0"/>
      <psa10 value="0.0259409659" flag="0"/>
      <psa30 value="0.0014393932" flag="0"/>
    </comp>
    <comp name="--.HHE">
      <acc value="0.0219244194" flag="0"/>
      <vel value="0.0158181330" flag="0"/>
      <psa03 value="0.0720099319" flag="0"/>
      <psa10 value="0.0326686994" flag="0"/>
      <psa30 value="0.0015539188" flag="0"/>
    </comp>
    <comp name="--.HHZ">
      <acc value="0.0229416447" flag="0"/>
      <vel value="0.0148558229" flag="0"/>
      <psa03 value="0.0516559665" flag="0"/>
      <psa10 value="0.0143873354" flag="0"/>
      <psa30 value="0.0012510393" flag="0"/>
    </comp>
  </station>
  <station code="KSTE" name="KSTE" netid="HL" insttype="60" lat="35.1801" lon="25.3372">
    <comp name="--.HHZ">
      <acc value="0.5326736886" flag="0"/>
      <vel value="0.1792787026" flag="0"/>
      <psa03 value="0.8421283266" flag="0"/>
      <psa10 value="0.0654318058" flag="0"/>
      <psa30 value="0.0059649069" flag="0"/>
    </comp>
    <comp name="--.HHE">
      <acc value="0.9963100040" flag="0"/>
      <vel value="0.2558848250" flag="0"/>
      <psa03 value="0.9677892669" flag="0"/>
      <psa10 value="0.0655319898" flag="0"/>
      <psa30 value="0.0049203423" flag="0"/>
    </comp>
    <comp name="--.HHN">
      <acc value="0.5686245881" flag="0"/>
      <vel value="0.1402320990" flag="0"/>
      <psa03 value="0.7539055166" flag="0"/>
      <psa10 value="0.0452547881" flag="0"/>
      <psa30 value="0.0064934046" flag="0"/>
    </comp>
  </station>
  <station code="NPS" name="NPS" netid="HL" insttype="CMG3ESPC-120s" lat="35.2613" lon="25.6104">
    <comp name="--.HHZ">
      <acc value="0.2879655922" flag="0"/>
      <vel value="0.0511150131" flag="0"/>
      <psa03 value="0.1664146489" flag="0"/>
      <psa10 value="0.0292588345" flag="0"/>
      <psa30 value="0.0034516360" flag="0"/>
    </comp>
    <comp name="--.HHE">
      <acc value="0.1494782879" flag="0"/>
      <vel value="0.0460005788" flag="0"/>
      <psa03 value="0.1391746706" flag="0"/>
      <psa10 value="0.0374245392" flag="0"/>
      <psa30 value="0.0017612263" flag="0"/>
    </comp>
    <comp name="--.HHN">
      <acc value="0.3021014588" flag="0"/>
      <vel value="0.0924661863" flag="0"/>
      <psa03 value="0.1889522881" flag="0"/>
      <psa10 value="0.0644739114" flag="0"/>
      <psa30 value="0.0032437042" flag="0"/>
    </comp>
  </station>
  <station code="SIVA" name="SIVA" netid="HL" insttype="60" lat="35.0178" lon="24.812">
    <comp name="--.HHE">
      <acc value="0.3499005372" flag="0"/>
      <vel value="0.1153320492" flag="0"/>
      <psa03 value="0.6169582246" flag="0"/>
      <psa10 value="0.0794037491" flag="0"/>
      <psa30 value="0.0051674959" flag="0"/>
    </comp>
    <comp name="--.HHN">
      <acc value="0.2434840213" flag="0"/>
      <vel value="0.1190010518" flag="0"/>
      <psa03 value="0.3118278962" flag="0"/>
      <psa10 value="0.0649936339" flag="0"/>
      <psa30 value="0.0050304055" flag="0"/>
    </comp>
    <comp name="--.HHZ">
      <acc value="0.1573963251" flag="0"/>
      <vel value="0.0584776222" flag="0"/>
      <psa03 value="0.2460454757" flag="0"/>
      <psa10 value="0.0402311805" flag="0"/>
      <psa30 value="0.0041900538" flag="0"/>
    </comp>
  </station>
  <station code="VAM" name="VAM" netid="HL" insttype="CMG3ESPC-120s" lat="35.407" lon="24.1997">
    <comp name="--.HHE">
      <acc value="0.0542217573" flag="0"/>
      <vel value="0.0194385065" flag="0"/>
      <psa03 value="0.0986398944" flag="0"/>
      <psa10 value="0.0274654781" flag="0"/>
      <psa30 value="0.0021347658" flag="0"/>
    </comp>
    <comp name="--.HHZ">
      <acc value="0.0379015206" flag="0"/>
      <vel value="0.0128540068" flag="0"/>
      <psa03 value="0.0541178871" flag="0"/>
      <psa10 value="0.0126257271" flag="0"/>
      <psa30 value="0.0013729891" flag="0"/>
    </comp>
    <comp name="--.HHN">
      <acc value="0.0965093804" flag="0"/>
      <vel value="0.0320064558" flag="0"/>
      <psa03 value="0.1298888706" flag="0"/>
      <psa10 value="0.0228336167" flag="0"/>
      <psa30 value="0.0014420367" flag="0"/>
    </comp>
  </station>
  <station code="ZKR" name="ZKR" netid="HL" insttype="120" lat="35.1147" lon="26.2169">
    <comp name="--.HHE">
      <acc value="0.1343523443" flag="0"/>
      <vel value="0.0544247207" flag="0"/>
      <psa03 value="0.2716318824" flag="0"/>
      <psa10 value="0.0431621596" flag="0"/>
      <psa30 value="0.0019451748" flag="0"/>
    </comp>
    <comp name="--.HHN">
      <acc value="0.0754084955" flag="0"/>
      <vel value="0.0302054744" flag="0"/>
      <psa03 value="0.2496819863" flag="0"/>
      <psa10 value="0.0261445009" flag="0"/>
      <psa30 value="0.0012164015" flag="0"/>
    </comp>
    <comp name="--.HHZ">
      <acc value="0.0993346948" flag="0"/>
      <vel value="0.0312304886" flag="0"/>
      <psa03 value="0.1954034443" flag="0"/>
      <psa10 value="0.0253695744" flag="0"/>
      <psa30 value="0.0011827289" flag="0"/>
    </comp>
  </station>
  <station code="IDI" name="IDI" netid="MN" insttype="" lat="35.288" lon="24.89">
    <comp name="--.HHE">
      <acc value="0.1010437964" flag="0"/>
      <vel value="0.0339091933" flag="0"/>
      <psa03 value="0.3323857136" flag="0"/>
      <psa10 value="0.0223966949" flag="0"/>
      <psa30 value="0.0018054640" flag="0"/>
    </comp>
    <comp name="--.HHN">
      <acc value="0.1178790366" flag="0"/>
      <vel value="0.0414820698" flag="0"/>
      <psa03 value="0.2579888084" flag="0"/>
      <psa10 value="0.0229495994" flag="0"/>
      <psa30 value="0.0027639558" flag="0"/>
    </comp>
    <comp name="--.HHZ">
      <acc value="0.0770297069" flag="0"/>
      <vel value="0.0299379103" flag="0"/>
      <psa03 value="0.1315439052" flag="0"/>
      <psa10 value="0.0278366149" flag="0"/>
      <psa30 value="0.0024781897" flag="0"/>
    </comp>
  </station>
</stationlist>
