<stationlist xmlns:esm="https://esm-db.eu/esmws/shakemap/1/" created="1784080441">
	<station code="ABEA" name="ABEA" netid="HC" source="Seismological Network of Crete (HC)" insttype="" lat="35.5163" lon="24.0113" esm:processing="automatic (Paolucci et al 2011)" esm:quality="best">
		<comp name="--.HNE" depth="0.0">
			<acc value="0.022316448094289" flag="0"/>
			<vel value="0.0216282409223249" flag="0"/>
			<psa03 value="0.0653923162950704" flag="0"/>
			<psa10 value="0.0319511566072979" flag="0"/>
			<psa30 value="0.00461955602291396" flag="0"/>
		</comp>
		<comp name="--.HNN" depth="0.0">
			<acc value="0.0316445469948357" flag="0"/>
			<vel value="0.0269570009254918" flag="0"/>
			<psa03 value="0.0693668504216377" flag="0"/>
			<psa10 value="0.0432442834715201" flag="0"/>
			<psa30 value="0.00363964319183403" flag="0"/>
		</comp>
		<comp name="--.HNZ" depth="0.0">
			<acc value="0.0167260080127463" flag="0"/>
			<vel value="0.0124316985400702" flag="0"/>
			<psa03 value="0.0360364523422684" flag="0"/>
			<psa10 value="0.0246834826595815" flag="0"/>
			<psa30 value="0.00305245512683982" flag="0"/>
		</comp>
	</station>
	<station code="ATEI" name="ATEI" netid="HC" source="Seismological Network of Crete (HC)" insttype="" lat="35.5193" lon="24.0432" esm:processing="automatic (Paolucci et al 2011)" esm:quality="best">
		<comp name="--.HNE" depth="0.0">
			<acc value="0.017092441379754" flag="0"/>
			<vel value="0.0150439987210345" flag="0"/>
			<psa03 value="0.0589015425633155" flag="0"/>
			<psa10 value="0.0308222755745014" flag="0"/>
			<psa30 value="0.00302498372365936" flag="0"/>
		</comp>
		<comp name="--.HNN" depth="0.0">
			<acc value="0.0158053945471994" flag="0"/>
			<vel value="0.0131166646682284" flag="0"/>
			<psa03 value="0.058344630670624" flag="0"/>
			<psa10 value="0.0255027394313419" flag="0"/>
			<psa30 value="0.00241469433664723" flag="0"/>
		</comp>
		<comp name="--.HNZ" depth="0.0">
			<acc value="0.0176835629955557" flag="0"/>
			<vel value="0.0104537967527557" flag="0"/>
			<psa03 value="0.0406559120046526" flag="0"/>
			<psa10 value="0.0134118859716243" flag="0"/>
			<psa30 value="0.0012786654344768" flag="0"/>
		</comp>
	</station>
	<station code="LENT" name="LENT" netid="HC" source="Seismological Network of Crete (HC)" insttype="" lat="35.5074" lon="24.0402" esm:processing="manual (Paolucci et al 2011)" esm:quality="good">
		<comp name="--.HNE" depth="0.0">
			<acc value="0.0193452520220931" flag="0"/>
			<vel value="0.0180719953428281" flag="0"/>
			<psa03 value="0.0480966080392367" flag="0"/>
			<psa10 value="0.0276210897616394" flag="0"/>
			<psa30 value="0.00339774216707665" flag="0"/>
		</comp>
		<comp name="--.HNN" depth="0.0">
			<acc value="0.023428523570821" flag="0"/>
			<vel value="0.0219498732383838" flag="0"/>
			<psa03 value="0.0562431424988302" flag="0"/>
			<psa10 value="0.037559941911817" flag="0"/>
			<psa30 value="0.00270925780836679" flag="0"/>
		</comp>
		<comp name="--.HNZ" depth="0.0">
			<acc value="0.0203147510592725" flag="0"/>
			<vel value="0.013702411841498" flag="0"/>
			<psa03 value="0.0745805655964483" flag="0"/>
			<psa10 value="0.0190631522152772" flag="0"/>
			<psa30 value="0.00125531555432804" flag="0"/>
		</comp>
	</station>
	<station code="NERO" name="NERO" netid="HC" source="Seismological Network of Crete (HC)" insttype="" lat="35.474" lon="24.0423" esm:processing="automatic (Paolucci et al 2011)" esm:quality="best">
		<comp name="--.HNE" depth="0.0">
			<acc value="0.0289266507433574" flag="0"/>
			<vel value="0.0144990983196438" flag="0"/>
			<psa03 value="0.0594748513754166" flag="0"/>
			<psa10 value="0.0292605746194648" flag="0"/>
			<psa30 value="0.00311232971823532" flag="0"/>
		</comp>
		<comp name="--.HNN" depth="0.0">
			<acc value="0.0254759782920004" flag="0"/>
			<vel value="0.0138640109473107" flag="0"/>
			<psa03 value="0.0530269086059409" flag="0"/>
			<psa10 value="0.020175102751526" flag="0"/>
			<psa30 value="0.00173364765814771" flag="0"/>
		</comp>
		<comp name="--.HNZ" depth="0.0">
			<acc value="0.0138039697313281" flag="0"/>
			<vel value="0.0110700303467104" flag="0"/>
			<psa03 value="0.0334953751542188" flag="0"/>
			<psa10 value="0.022664341401375" flag="0"/>
			<psa30 value="0.00142284352723517" flag="0"/>
		</comp>
	</station>
	<station code="PASK" name="PASK" netid="HC" source="Seismological Network of Crete (HC)" insttype="" lat="35.4996" lon="24.0121" esm:processing="automatic (Paolucci et al 2011)" esm:quality="best">
		<comp name="--.HNE" depth="0.0">
			<acc value="0.0410418653949891" flag="0"/>
			<vel value="0.0294645709182742" flag="0"/>
			<psa03 value="0.0795033656659534" flag="0"/>
			<psa10 value="0.032573420329233" flag="0"/>
			<psa30 value="0.00394487841216621" flag="0"/>
		</comp>
		<comp name="--.HNN" depth="0.0">
			<acc value="0.035960966404296" flag="0"/>
			<vel value="0.0289679098005345" flag="0"/>
			<psa03 value="0.0778717107017992" flag="0"/>
			<psa10 value="0.0412953693654685" flag="0"/>
			<psa30 value="0.00303584819337808" flag="0"/>
		</comp>
		<comp name="--.HNZ" depth="0.0">
			<acc value="0.0179177847011009" flag="0"/>
			<vel value="0.0146607016949498" flag="0"/>
			<psa03 value="0.065074633791989" flag="0"/>
			<psa10 value="0.0211055450137758" flag="0"/>
			<psa30 value="0.00261787800490392" flag="0"/>
		</comp>
	</station>
	<station code="POLY" name="POLY" netid="HC" source="Seismological Network of Crete (HC)" insttype="" lat="35.5226" lon="24.0602" esm:processing="automatic (Paolucci et al 2011)" esm:quality="best">
		<comp name="--.HNE" depth="0.0">
			<acc value="0.0141481971665245" flag="0"/>
			<vel value="0.0141495713788848" flag="0"/>
			<psa03 value="0.0352601535204671" flag="0"/>
			<psa10 value="0.0229662251496965" flag="0"/>
			<psa30 value="0.00378651250453553" flag="0"/>
		</comp>
		<comp name="--.HNN" depth="0.0">
			<acc value="0.0186185730901159" flag="0"/>
			<vel value="0.0129688908577123" flag="0"/>
			<psa03 value="0.0586663082299425" flag="0"/>
			<psa10 value="0.0196450745147737" flag="0"/>
			<psa30 value="0.00377259658267484" flag="0"/>
		</comp>
		<comp name="--.HNZ" depth="0.0">
			<acc value="0.0107890731274949" flag="0"/>
			<vel value="0.00769805178827469" flag="0"/>
			<psa03 value="0.0350018994332418" flag="0"/>
			<psa10 value="0.0168201980055704" flag="0"/>
			<psa30 value="0.00138109159470848" flag="0"/>
		</comp>
	</station>
	<station code="ARK1" name="ARK1" netid="HI" source="ITSAK Strong Motion Network" insttype="" lat="35.148777" lon="25.264194" esm:processing="manual (Paolucci et al 2011)" esm:quality="good">
		<comp name="--.HNE" depth="0.0">
			<acc value="0.935532513054864" flag="0"/>
			<vel value="0.292225473213889" flag="0"/>
			<psa03 value="2.34079706631761" flag="0"/>
			<psa10 value="0.236964667746276" flag="0"/>
			<psa30 value="0.0202478213187912" flag="0"/>
		</comp>
		<comp name="--.HNN" depth="0.0">
			<acc value="1.23200232799151" flag="0"/>
			<vel value="0.344380968577446" flag="0"/>
			<psa03 value="1.54870059381371" flag="0"/>
			<psa10 value="0.367340494504947" flag="0"/>
			<psa30 value="0.0229049606745663" flag="0"/>
		</comp>
		<comp name="--.HNZ" depth="0.0">
			<acc value="0.791144234241094" flag="0"/>
			<vel value="0.168804877147064" flag="0"/>
			<psa03 value="1.21354405800474" flag="0"/>
			<psa10 value="0.231043175476474" flag="0"/>
			<psa30 value="0.0187669532185473" flag="0"/>
		</comp>
	</station>
	<station code="CH01" name="CH01" netid="HI" source="ITSAK Strong Motion Network" insttype="" lat="35.517" lon="24.0208" esm:processing="manual (Paolucci et al 2011)" esm:quality="best">
		<comp name="--.HNE" depth="0.0">
			<acc value="0.0193454552110933" flag="0"/>
			<vel value="0.0175006164804458" flag="0"/>
			<psa03 value="0.050433611812809" flag="0"/>
			<psa10 value="0.0296480765395761" flag="0"/>
			<psa30 value="0.00398483022544489" flag="0"/>
		</comp>
		<comp name="--.HNN" depth="0.0">
			<acc value="0.0249974461296407" flag="0"/>
			<vel value="0.0155409514565226" flag="0"/>
			<psa03 value="0.0653821385374591" flag="0"/>
			<psa10 value="0.0238437776582589" flag="0"/>
			<psa30 value="0.00298739519193563" flag="0"/>
		</comp>
		<comp name="--.HNZ" depth="0.0">
			<acc value="0.0144311116914939" flag="0"/>
			<vel value="0.0110437337093715" flag="0"/>
			<psa03 value="0.0219367526813907" flag="0"/>
			<psa10 value="0.0233123618295557" flag="0"/>
			<psa30 value="0.00195318688904433" flag="0"/>
		</comp>
	</station>
	<station code="CH02" name="CH02" netid="HI" source="ITSAK Strong Motion Network" insttype="" lat="35.5145" lon="24.0315" esm:processing="automatic (Paolucci et al 2011)" esm:quality="best">
		<comp name="--.HNE" depth="0.0">
			<acc value="0.0204927066007746" flag="0"/>
			<vel value="0.0195618813741178" flag="0"/>
			<psa03 value="0.0677501860339907" flag="0"/>
			<psa10 value="0.0334996941903321" flag="0"/>
			<psa30 value="0.0034684276829785" flag="0"/>
		</comp>
		<comp name="--.HNN" depth="0.0">
			<acc value="0.0279925249135714" flag="0"/>
			<vel value="0.0185260970545598" flag="0"/>
			<psa03 value="0.0558392876204265" flag="0"/>
			<psa10 value="0.0270863155854748" flag="0"/>
			<psa30 value="0.00242606988188981" flag="0"/>
		</comp>
		<comp name="--.HNZ" depth="0.0">
			<acc value="0.0147550958344429" flag="0"/>
			<vel value="0.0130299119115362" flag="0"/>
			<psa03 value="0.0302929442588871" flag="0"/>
			<psa10 value="0.0174024690781695" flag="0"/>
			<psa30 value="0.00149830300522081" flag="0"/>
		</comp>
	</station>
	<station code="CH03" name="CH03" netid="HI" source="ITSAK Strong Motion Network" insttype="" lat="35.53303" lon="24.0705" esm:processing="automatic (Paolucci et al 2011)" esm:quality="best">
		<comp name="--.HNE" depth="0.0">
			<acc value="0.0172570287252985" flag="0"/>
			<vel value="0.0125828954053452" flag="0"/>
			<psa03 value="0.0584492469757581" flag="0"/>
			<psa10 value="0.0214424148297486" flag="0"/>
			<psa30 value="0.00273312126420362" flag="0"/>
		</comp>
		<comp name="--.HNN" depth="0.0">
			<acc value="0.0190737521012972" flag="0"/>
			<vel value="0.0134018637628611" flag="0"/>
			<psa03 value="0.060266721541195" flag="0"/>
			<psa10 value="0.022860173749319" flag="0"/>
			<psa30 value="0.00333134568530225" flag="0"/>
		</comp>
		<comp name="--.HNZ" depth="0.0">
			<acc value="0.0160116059691438" flag="0"/>
			<vel value="0.00782800650280758" flag="0"/>
			<psa03 value="0.0289350209698002" flag="0"/>
			<psa10 value="0.0130377508745095" flag="0"/>
			<psa30 value="0.00116898025170462" flag="0"/>
		</comp>
	</station>
	<station code="HER1" name="HER1" netid="HI" source="ITSAK Strong Motion Network" insttype="" lat="35.317672" lon="25.10217" esm:processing="manual (Paolucci et al 2011)" esm:quality="good">
		<comp name="--.HNE" depth="0.0">
			<acc value="0.471148427379983" flag="0"/>
			<vel value="0.405508869280807" flag="0"/>
			<psa03 value="1.33564956356189" flag="0"/>
			<psa10 value="0.846772734537918" flag="0"/>
			<psa30 value="0.0370380102530728" flag="0"/>
		</comp>
		<comp name="--.HNN" depth="0.0">
			<acc value="0.549328531612713" flag="0"/>
			<vel value="0.33140124729547" flag="0"/>
			<psa03 value="2.11274379224076" flag="0"/>
			<psa10 value="0.582347697676957" flag="0"/>
			<psa30 value="0.0314006834745069" flag="0"/>
		</comp>
		<comp name="--.HNZ" depth="0.0">
			<acc value="0.513515826451153" flag="0"/>
			<vel value="0.186192511678648" flag="0"/>
			<psa03 value="1.53396061736261" flag="0"/>
			<psa10 value="0.318049989250879" flag="0"/>
			<psa30 value="0.0106840836014372" flag="0"/>
		</comp>
	</station>
	<station code="HER2" name="HER2" netid="HI" source="ITSAK Strong Motion Network" insttype="" lat="35.337866" lon="25.135624" esm:processing="manual (Paolucci et al 2011)" esm:quality="good">
		<comp name="--.HNE" depth="0.0">
			<acc value="0.488338921469303" flag="0"/>
			<vel value="0.2129798670348" flag="0"/>
			<psa03 value="1.38565079256459" flag="0"/>
			<psa10 value="0.235150447563092" flag="0"/>
			<psa30 value="0.00956622788231525" flag="0"/>
		</comp>
		<comp name="--.HNN" depth="0.0">
			<acc value="0.371814219761764" flag="0"/>
			<vel value="0.132373687630046" flag="0"/>
			<psa03 value="1.19108198666942" flag="0"/>
			<psa10 value="0.107672332763617" flag="0"/>
			<psa30 value="0.0049748412254826" flag="0"/>
		</comp>
		<comp name="--.HNZ" depth="0.0">
			<acc value="0.310343700778552" flag="0"/>
			<vel value="0.114824310731104" flag="0"/>
			<psa03 value="0.829110174479997" flag="0"/>
			<psa10 value="0.0403986137098922" flag="0"/>
			<psa30 value="0.00347658280654875" flag="0"/>
		</comp>
	</station>
	<station code="HER3" name="HER3" netid="HI" source="ITSAK Strong Motion Network" insttype="" lat="35.3296" lon="25.1065" esm:processing="automatic (Paolucci et al 2011)" esm:quality="best">
		<comp name="--.HNE" depth="0.0">
			<acc value="0.638845871059497" flag="0"/>
			<vel value="0.27051330567007" flag="0"/>
			<psa03 value="1.82712787158775" flag="0"/>
			<psa10 value="0.481988709386519" flag="0"/>
			<psa30 value="0.0225904765082003" flag="0"/>
		</comp>
		<comp name="--.HNN" depth="0.0">
			<acc value="0.57345994316991" flag="0"/>
			<vel value="0.314055843566656" flag="0"/>
			<psa03 value="1.74139019188725" flag="0"/>
			<psa10 value="0.646995800296479" flag="0"/>
			<psa30 value="0.0359909475569746" flag="0"/>
		</comp>
		<comp name="--.HNZ" depth="0.0">
			<acc value="0.382915553933343" flag="0"/>
			<vel value="0.145862471983973" flag="0"/>
			<psa03 value="1.06070334972459" flag="0"/>
			<psa10 value="0.253934001881381" flag="0"/>
			<psa30 value="0.00804620218807291" flag="0"/>
		</comp>
	</station>
	<station code="KSS1" name="KSS1" netid="HI" source="ITSAK Strong Motion Network" insttype="" lat="35.4189" lon="26.9207" esm:processing="manual (Paolucci et al 2011)" esm:quality="good">
		<comp name="--.HNE" depth="0.0">
			<acc value="0.0142366564099505" flag="0"/>
			<vel value="0.00645246244522385" flag="0"/>
			<psa03 value="0.0544766504773464" flag="0"/>
			<psa10 value="0.00915627749596663" flag="0"/>
			<psa30 value="0.00110954641867209" flag="0"/>
		</comp>
		<comp name="--.HNN" depth="0.0">
			<acc value="0.0196754223799088" flag="0"/>
			<vel value="0.0100860611438925" flag="0"/>
			<psa03 value="0.0765160063099034" flag="0"/>
			<psa10 value="0.0134684884712675" flag="0"/>
			<psa30 value="0.00123498222817609" flag="0"/>
		</comp>
		<comp name="--.HNZ" depth="0.0">
			<acc value="0.00811217632473013" flag="0"/>
			<vel value="0.00500135815374249" flag="0"/>
			<psa03 value="0.0141310142353225" flag="0"/>
			<psa10 value="0.0067911373795124" flag="0"/>
			<psa30 value="0.00106264049888336" flag="0"/>
		</comp>
	</station>
	<station code="KTL1" name="KTL1" netid="HI" source="ITSAK Strong Motion Network" insttype="" lat="35.20778" lon="25.34272" esm:processing="manual (Paolucci et al 2011)" esm:quality="good">
		<comp name="--.HNE" depth="0.0">
			<acc value="0.637079514038324" flag="0"/>
			<vel value="0.204209426595843" flag="0"/>
			<psa03 value="1.47807774873016" flag="0"/>
			<psa10 value="0.101873728634552" flag="0"/>
			<psa30 value="0.00574847622500451" flag="0"/>
		</comp>
		<comp name="--.HNN" depth="0.0">
			<acc value="0.789109310841968" flag="0"/>
			<vel value="0.322036646732676" flag="0"/>
			<psa03 value="1.01307644467587" flag="0"/>
			<psa10 value="0.140869996945944" flag="0"/>
			<psa30 value="0.00655538509542374" flag="0"/>
		</comp>
		<comp name="--.HNZ" depth="0.0">
			<acc value="0.456788716863882" flag="0"/>
			<vel value="0.135980164230624" flag="0"/>
			<psa03 value="0.695759548988843" flag="0"/>
			<psa10 value="0.0850431311900713" flag="0"/>
			<psa30 value="0.00411016102799648" flag="0"/>
		</comp>
	</station>
	<station code="RTH1" name="RTH1" netid="HI" source="ITSAK Strong Motion Network" insttype="" lat="35.365393" lon="24.471773" esm:processing="automatic (Paolucci et al 2011)" esm:quality="best">
		<comp name="--.HNE" depth="0.0">
			<acc value="0.0556734211861976" flag="0"/>
			<vel value="0.0262610548116999" flag="0"/>
			<psa03 value="0.173243351521804" flag="0"/>
			<psa10 value="0.0403849178026055" flag="0"/>
			<psa30 value="0.00249566907582816" flag="0"/>
		</comp>
		<comp name="--.HNN" depth="0.0">
			<acc value="0.0815298472382978" flag="0"/>
			<vel value="0.0362426393026924" flag="0"/>
			<psa03 value="0.231082766432514" flag="0"/>
			<psa10 value="0.020200881959289" flag="0"/>
			<psa30 value="0.00272459319926117" flag="0"/>
		</comp>
		<comp name="--.HNZ" depth="0.0">
			<acc value="0.0414497165351507" flag="0"/>
			<vel value="0.0159624335412648" flag="0"/>
			<psa03 value="0.111728516049186" flag="0"/>
			<psa10 value="0.0114141942593517" flag="0"/>
			<psa30 value="0.001906965910466" flag="0"/>
		</comp>
	</station>
	<station code="SFR2" name="SFR2" netid="HI" source="ITSAK Strong Motion Network" insttype="" lat="36.399841" lon="25.438209" esm:processing="automatic (Paolucci et al 2011)" esm:quality="best">
		<comp name="--.HNE" depth="0.0">
			<acc value="0.0470121491742836" flag="0"/>
			<vel value="0.0233058759592505" flag="0"/>
			<psa03 value="0.175086952818009" flag="0"/>
			<psa10 value="0.0163304418116244" flag="0"/>
			<psa30 value="0.00166803529081839" flag="0"/>
		</comp>
		<comp name="--.HNN" depth="0.0">
			<acc value="0.0446860378349306" flag="0"/>
			<vel value="0.0219692459031872" flag="0"/>
			<psa03 value="0.167621708282196" flag="0"/>
			<psa10 value="0.0174386871024359" flag="0"/>
			<psa30 value="0.00110942557733305" flag="0"/>
		</comp>
		<comp name="--.HNZ" depth="0.0">
			<acc value="0.0488088967686617" flag="0"/>
			<vel value="0.0228562020912538" flag="0"/>
			<psa03 value="0.0987870441568537" flag="0"/>
			<psa10 value="0.015167574152349" flag="0"/>
			<psa30 value="0.000752012994253514" flag="0"/>
		</comp>
	</station>
	<station code="SIT2" name="SIT2" netid="HI" source="ITSAK Strong Motion Network" insttype="" lat="35.2059" lon="26.107" esm:processing="manual (Paolucci et al 2011)" esm:quality="best">
		<comp name="--.HNE" depth="0.0">
			<acc value="0.231145897442936" flag="0"/>
			<vel value="0.145868833220599" flag="0"/>
			<psa03 value="0.84958128059008" flag="0"/>
			<psa10 value="0.110896706362637" flag="0"/>
			<psa30 value="0.00618216662153422" flag="0"/>
		</comp>
		<comp name="--.HNN" depth="0.0">
			<acc value="0.252509071972563" flag="0"/>
			<vel value="0.156102323976788" flag="0"/>
			<psa03 value="0.809733390862445" flag="0"/>
			<psa10 value="0.0743181407118889" flag="0"/>
			<psa30 value="0.00582145189261882" flag="0"/>
		</comp>
		<comp name="--.HNZ" depth="0.0">
			<acc value="0.129269848201715" flag="0"/>
			<vel value="0.057563206499851" flag="0"/>
			<psa03 value="0.344928370645147" flag="0"/>
			<psa10 value="0.0264456043915005" flag="0"/>
			<psa30 value="0.00209868694437714" flag="0"/>
		</comp>
	</station>
	<station code="AGNA" name="AGNA" netid="HL" source="National Observatory of Athens Seismic Network" insttype="" lat="35.1895" lon="25.71853" esm:processing="manual (Paolucci et al 2011)" esm:quality="best">
		<comp name="00.HNE" depth="0.0">
			<acc value="0.230862823272164" flag="0"/>
			<vel value="0.0861614210689664" flag="0"/>
			<psa03 value="0.38556395838683" flag="0"/>
			<psa10 value="0.0346453800864023" flag="0"/>
			<psa30 value="0.00325592360562612" flag="0"/>
		</comp>
		<comp name="00.HNN" depth="0.0">
			<acc value="0.243908497650389" flag="0"/>
			<vel value="0.126666382881203" flag="0"/>
			<psa03 value="0.363150765289307" flag="0"/>
			<psa10 value="0.118730390305551" flag="0"/>
			<psa30 value="0.00595511741397258" flag="0"/>
		</comp>
		<comp name="00.HNZ" depth="0.0">
			<acc value="0.198572974139223" flag="0"/>
			<vel value="0.0541638458723768" flag="0"/>
			<psa03 value="0.263841186517053" flag="0"/>
			<psa10 value="0.021729563851959" flag="0"/>
			<psa30 value="0.00302221437353724" flag="0"/>
		</comp>
	</station>
