<stationlist created="1778138710">
	<station code="ABEA" name="ABEA" netid="HC" source="Seismological Network of Crete (HC)" insttype="" lat="35.5163" lon="24.0113">
		<comp name="--.HNE" depth="0.0">
			<acc value="0.022316448094289" flag="0"/>
			<vel value="0.0216282409223249" flag="0"/>
			<psa03 value="0.0653923162950704" flag="0"/>
			<psa10 value="0.0319511566072979" flag="0"/>
			<psa30 value="0.00461955602291396" flag="0"/>
		</comp>
		<comp name="--.HNN" depth="0.0">
			<acc value="0.0316445469948357" flag="0"/>
			<vel value="0.0269570009254918" flag="0"/>
			<psa03 value="0.0693668504216377" flag="0"/>
			<psa10 value="0.0432442834715201" flag="0"/>
			<psa30 value="0.00363964319183403" flag="0"/>
		</comp>
		<comp name="--.HNZ" depth="0.0">
			<acc value="0.0167260080127463" flag="0"/>
			<vel value="0.0124316985400702" flag="0"/>
			<psa03 value="0.0360364523422684" flag="0"/>
			<psa10 value="0.0246834826595815" flag="0"/>
			<psa30 value="0.00305245512683982" flag="0"/>
		</comp>
	</station>
	<station code="ATEI" name="ATEI" netid="HC" source="Seismological Network of Crete (HC)" insttype="" lat="35.5193" lon="24.0432">
		<comp name="--.HNE" depth="0.0">
			<acc value="0.017092441379754" flag="0"/>
			<vel value="0.0150439987210345" flag="0"/>
			<psa03 value="0.0589015425633155" flag="0"/>
			<psa10 value="0.0308222755745014" flag="0"/>
			<psa30 value="0.00302498372365936" flag="0"/>
		</comp>
		<comp name="--.HNN" depth="0.0">
			<acc value="0.0158053945471994" flag="0"/>
			<vel value="0.0131166646682284" flag="0"/>
			<psa03 value="0.058344630670624" flag="0"/>
			<psa10 value="0.0255027394313419" flag="0"/>
			<psa30 value="0.00241469433664723" flag="0"/>
		</comp>
		<comp name="--.HNZ" depth="0.0">
			<acc value="0.0176835629955557" flag="0"/>
			<vel value="0.0104537967527557" flag="0"/>
			<psa03 value="0.0406559120046526" flag="0"/>
			<psa10 value="0.0134118859716243" flag="0"/>
			<psa30 value="0.0012786654344768" flag="0"/>
		</comp>
	</station>
	<station code="G0LD" name="G0LD" netid="HC" source="Seismological Network of Crete (HC)" insttype="" lat="35.4955" lon="24.0306">
		<comp name="--.HNE" depth="0.0">
			<acc value="0.0641302203427414" flag="0"/>
			<vel value="0.0422385934795793" flag="0"/>
			<psa03 value="0.20263567361911" flag="0"/>
			<psa10 value="0.0883988159878996" flag="0"/>
			<psa30 value="0.0065586798970285" flag="0"/>
		</comp>
		<comp name="--.HNN" depth="0.0">
			<acc value="0.0553586113481412" flag="0"/>
			<vel value="0.0505985562202611" flag="0"/>
			<psa03 value="0.149050353021224" flag="0"/>
			<psa10 value="0.0999643496476854" flag="0"/>
			<psa30 value="0.00515419894036502" flag="0"/>
		</comp>
		<comp name="--.HNZ" depth="0.0">
			<acc value="0.0270493287025257" flag="0"/>
			<vel value="0.030204696869091" flag="0"/>
			<psa03 value="0.0760026493857982" flag="0"/>
			<psa10 value="0.0580252276366355" flag="0"/>
			<psa30 value="0.00311176218063723" flag="0"/>
		</comp>
	</station>
	<station code="LENT" name="LENT" netid="HC" source="Seismological Network of Crete (HC)" insttype="" lat="35.5074" lon="24.0402">
		<comp name="--.HNE" depth="0.0">
			<acc value="0.0193452520220931" flag="0"/>
			<vel value="0.0180719953428281" flag="0"/>
			<psa03 value="0.0481266204441223" flag="0"/>
			<psa10 value="0.0276390928292439" flag="0"/>
			<psa30 value="0.00376326346439987" flag="0"/>
		</comp>
		<comp name="--.HNN" depth="0.0">
			<acc value="0.023428523570821" flag="0"/>
			<vel value="0.0219498732383838" flag="0"/>
			<psa03 value="0.0564167112887481" flag="0"/>
			<psa10 value="0.0375987157303945" flag="0"/>
			<psa30 value="0.00260589137751597" flag="0"/>
		</comp>
		<comp name="--.HNZ" depth="0.0">
			<acc value="0.0203147510592725" flag="0"/>
			<vel value="0.013702411841498" flag="0"/>
			<psa03 value="0.0745557410352058" flag="0"/>
			<psa10 value="0.0192098075554694" flag="0"/>
			<psa30 value="0.0013704974553977" flag="0"/>
		</comp>
	</station>
	<station code="MULT" name="MULT" netid="HC" source="Seismological Network of Crete (HC)" insttype="" lat="35.5091" lon="24.0118">
		<comp name="--.HNE" depth="0.0">
			<acc value="0.0335660859169552" flag="0"/>
			<vel value="0.0208330620118877" flag="0"/>
			<psa03 value="0.0666354663557655" flag="0"/>
			<psa10 value="0.0260946598931496" flag="0"/>
			<psa30 value="0.00366475235519234" flag="0"/>
		</comp>
		<comp name="--.HNN" depth="0.0">
			<acc value="0.0332465509723253" flag="0"/>
			<vel value="0.0199283231795644" flag="0"/>
			<psa03 value="0.087177066719433" flag="0"/>
			<psa10 value="0.0322398694831219" flag="0"/>
			<psa30 value="0.00459159125372083" flag="0"/>
		</comp>
		<comp name="--.HNZ" depth="0.0">
			<acc value="0.0314428015988719" flag="0"/>
			<vel value="0.0204552067979732" flag="0"/>
			<psa03 value="0.0315222600700382" flag="0"/>
			<psa10 value="0.0309362700010755" flag="0"/>
			<psa30 value="0.0056412570389472" flag="0"/>
		</comp>
	</station>
	<station code="NERO" name="NERO" netid="HC" source="Seismological Network of Crete (HC)" insttype="" lat="35.474" lon="24.0423">
		<comp name="--.HNE" depth="0.0">
			<acc value="0.0289266507433574" flag="0"/>
			<vel value="0.0144990983196438" flag="0"/>
			<psa03 value="0.0594748513754166" flag="0"/>
			<psa10 value="0.0292605746194648" flag="0"/>
			<psa30 value="0.00311232971823532" flag="0"/>
		</comp>
		<comp name="--.HNN" depth="0.0">
			<acc value="0.0254759782920004" flag="0"/>
			<vel value="0.0138640109473107" flag="0"/>
			<psa03 value="0.0530269086059409" flag="0"/>
			<psa10 value="0.020175102751526" flag="0"/>
			<psa30 value="0.00173364765814771" flag="0"/>
		</comp>
		<comp name="--.HNZ" depth="0.0">
			<acc value="0.0138039697313281" flag="0"/>
			<vel value="0.0110700303467104" flag="0"/>
			<psa03 value="0.0334953751542188" flag="0"/>
			<psa10 value="0.022664341401375" flag="0"/>
			<psa30 value="0.00142284352723517" flag="0"/>
		</comp>
	</station>
	<station code="PASK" name="PASK" netid="HC" source="Seismological Network of Crete (HC)" insttype="" lat="35.4996" lon="24.0121">
		<comp name="--.HNE" depth="0.0">
			<acc value="0.0410418653949891" flag="0"/>
			<vel value="0.0294645709182742" flag="0"/>
			<psa03 value="0.0795033656659534" flag="0"/>
			<psa10 value="0.032573420329233" flag="0"/>
			<psa30 value="0.00394487841216621" flag="0"/>
		</comp>
		<comp name="--.HNN" depth="0.0">
			<acc value="0.035960966404296" flag="0"/>
			<vel value="0.0289679098005345" flag="0"/>
			<psa03 value="0.0778717107017992" flag="0"/>
			<psa10 value="0.0412953693654685" flag="0"/>
			<psa30 value="0.00303584819337808" flag="0"/>
		</comp>
		<comp name="--.HNZ" depth="0.0">
			<acc value="0.0179177847011009" flag="0"/>
			<vel value="0.0146607016949498" flag="0"/>
			<psa03 value="0.065074633791989" flag="0"/>
			<psa10 value="0.0211055450137758" flag="0"/>
			<psa30 value="0.00261787800490392" flag="0"/>
		</comp>
	</station>
	<station code="POLY" name="POLY" netid="HC" source="Seismological Network of Crete (HC)" insttype="" lat="35.5226" lon="24.0602">
		<comp name="--.HNE" depth="0.0">
			<acc value="0.0141481971665245" flag="0"/>
			<vel value="0.0141495713788848" flag="0"/>
			<psa03 value="0.0352601535204671" flag="0"/>
			<psa10 value="0.0229662251496965" flag="0"/>
			<psa30 value="0.00378651250453553" flag="0"/>
		</comp>
		<comp name="--.HNN" depth="0.0">
			<acc value="0.0186185730901159" flag="0"/>
			<vel value="0.0129688908577123" flag="0"/>
			<psa03 value="0.0586663082299425" flag="0"/>
			<psa10 value="0.0196450745147737" flag="0"/>
			<psa30 value="0.00377259658267484" flag="0"/>
		</comp>
		<comp name="--.HNZ" depth="0.0">
			<acc value="0.0107890731274949" flag="0"/>
			<vel value="0.00769805178827469" flag="0"/>
			<psa03 value="0.0350018994332418" flag="0"/>
			<psa10 value="0.0168201980055704" flag="0"/>
			<psa30 value="0.00138109159470848" flag="0"/>
		</comp>
	</station>
	<station code="SOUD" name="SOUD" netid="HC" source="Seismological Network of Crete (HC)" insttype="" lat="35.4878" lon="24.0678">
		<comp name="--.HNE" depth="0.0">
			<acc value="0.0528689944615287" flag="0"/>
			<vel value="0.0300282510192658" flag="0"/>
			<psa03 value="0.165459242112895" flag="0"/>
			<psa10 value="0.0675799493399169" flag="0"/>
			<psa30 value="0.00380136723859213" flag="0"/>
		</comp>
		<comp name="--.HNN" depth="0.0">
			<acc value="0.0642096954485002" flag="0"/>
			<vel value="0.0296383339588072" flag="0"/>
			<psa03 value="0.157232832569968" flag="0"/>
			<psa10 value="0.0425557153574022" flag="0"/>
			<psa30 value="0.00250179573168691" flag="0"/>
		</comp>
		<comp name="--.HNZ" depth="0.0">
			<acc value="0.00623666179064876" flag="0"/>
			<vel value="0.009956544490922" flag="0"/>
			<psa03 value="0.00756688994118075" flag="0"/>
			<psa10 value="0.0055612232475033" flag="0"/>
			<psa30 value="0.00531002051281984" flag="0"/>
		</comp>
	</station>
	<station code="CH01" name="CH01" netid="HI" source="ITSAK Strong Motion Network" insttype="" lat="35.517" lon="24.0208">
		<comp name="--.HNE" depth="0.0">
			<acc value="0.0193454552110933" flag="0"/>
			<vel value="0.0175006164804458" flag="0"/>
			<psa03 value="0.050433611812809" flag="0"/>
			<psa10 value="0.0296480765395761" flag="0"/>
			<psa30 value="0.00398483022544489" flag="0"/>
		</comp>
		<comp name="--.HNN" depth="0.0">
			<acc value="0.0249974461296407" flag="0"/>
			<vel value="0.0155409514565226" flag="0"/>
			<psa03 value="0.0653821385374591" flag="0"/>
			<psa10 value="0.0238437776582589" flag="0"/>
			<psa30 value="0.00298739519193563" flag="0"/>
		</comp>
		<comp name="--.HNZ" depth="0.0">
			<acc value="0.0144311116914939" flag="0"/>
			<vel value="0.0110437337093715" flag="0"/>
			<psa03 value="0.0219367526813907" flag="0"/>
			<psa10 value="0.0233123618295557" flag="0"/>
			<psa30 value="0.00195318688904433" flag="0"/>
		</comp>
	</station>
	<station code="KSS1" name="KSS1" netid="HI" source="ITSAK Strong Motion Network" insttype="" lat="35.4189" lon="26.9207">
		<comp name="--.HNE" depth="0.0">
			<acc value="0.0142366564099505" flag="0"/>
			<vel value="0.00645246244522385" flag="0"/>
			<psa03 value="0.0544766504773464" flag="0"/>
			<psa10 value="0.00915627749596663" flag="0"/>
			<psa30 value="0.00110954641867209" flag="0"/>
		</comp>
		<comp name="--.HNN" depth="0.0">
			<acc value="0.0196754223799088" flag="0"/>
			<vel value="0.0100860611438925" flag="0"/>
			<psa03 value="0.0765160063099034" flag="0"/>
			<psa10 value="0.0134684884712675" flag="0"/>
			<psa30 value="0.00123498222817609" flag="0"/>
		</comp>
		<comp name="--.HNZ" depth="0.0">
			<acc value="0.00811217632473013" flag="0"/>
			<vel value="0.00500135815374249" flag="0"/>
			<psa03 value="0.0141310142353225" flag="0"/>
			<psa10 value="0.0067911373795124" flag="0"/>
			<psa30 value="0.00106264049888336" flag="0"/>
		</comp>
	</station>
	<station code="SIT2" name="SIT2" netid="HI" source="ITSAK Strong Motion Network" insttype="" lat="35.2059" lon="26.107">
		<comp name="--.HNE" depth="0.0">
			<acc value="0.231145897442936" flag="0"/>
			<vel value="0.145868833220599" flag="0"/>
			<psa03 value="0.84958128059008" flag="0"/>
			<psa10 value="0.110896706362637" flag="0"/>
			<psa30 value="0.00618216662153422" flag="0"/>
		</comp>
		<comp name="--.HNN" depth="0.0">
			<acc value="0.252509071972563" flag="0"/>
			<vel value="0.156102323976788" flag="0"/>
			<psa03 value="0.809733390862445" flag="0"/>
			<psa10 value="0.0743181407118889" flag="0"/>
			<psa30 value="0.00582145189261882" flag="0"/>
		</comp>
		<comp name="--.HNZ" depth="0.0">
			<acc value="0.129269848201715" flag="0"/>
			<vel value="0.057563206499851" flag="0"/>
			<psa03 value="0.344928370645147" flag="0"/>
			<psa10 value="0.0264456043915005" flag="0"/>
			<psa30 value="0.00209868694437714" flag="0"/>
		</comp>
	</station>
	<station code="AGNA" name="AGNA" netid="HL" source="National Observatory of Athens Seismic Network" insttype="" lat="35.1895" lon="25.71853">
		<comp name="00.HNE" depth="0.0">
			<acc value="0.230862823272164" flag="0"/>
			<vel value="0.0861614210689664" flag="0"/>
			<psa03 value="0.38556395838683" flag="0"/>
			<psa10 value="0.0346453800864023" flag="0"/>
			<psa30 value="0.00325592360562612" flag="0"/>
		</comp>
		<comp name="00.HNN" depth="0.0">
			<acc value="0.243908497650389" flag="0"/>
			<vel value="0.126666382881203" flag="0"/>
			<psa03 value="0.363150765289307" flag="0"/>
			<psa10 value="0.118730390305551" flag="0"/>
			<psa30 value="0.00595511741397258" flag="0"/>
		</comp>
		<comp name="00.HNZ" depth="0.0">
			<acc value="0.198572974139223" flag="0"/>
			<vel value="0.0541638458723768" flag="0"/>
			<psa03 value="0.263841186517053" flag="0"/>
			<psa10 value="0.021729563851959" flag="0"/>
			<psa30 value="0.00302221437353724" flag="0"/>
		</comp>
	</station>
	<station code="CHNB" name="CHNB" netid="HL" source="National Observatory of Athens Seismic Network" insttype="" lat="35.48765" lon="24.06605">
		<comp name="00.HNE" depth="0.0">
			<acc value="0.0581009317236015" flag="0"/>
			<vel value="0.0424566650696529" flag="0"/>
			<psa03 value="0.211236930910053" flag="0"/>
			<psa10 value="0.0623965697166438" flag="0"/>
			<psa30 value="0.00297047907132525" flag="0"/>
		</comp>
		<comp name="00.HNN" depth="0.0">
			<acc value="0.0865865170883286" flag="0"/>
			<vel value="0.0577454038643399" flag="0"/>
			<psa03 value="0.167563121067808" flag="0"/>
			<psa10 value="0.0891886333094035" flag="0"/>
			<psa30 value="0.0047972219590596" flag="0"/>
		</comp>
		<comp name="00.HNZ" depth="0.0">
			<acc value="0.0435977982124513" flag="0"/>
			<vel value="0.0243287250352987" flag="0"/>
			<psa03 value="0.120292010421828" flag="0"/>
			<psa10 value="0.0256716712472261" flag="0"/>
			<psa30 value="0.00147505802785354" flag="0"/>
		</comp>
	</station>
	<station code="HERG" name="HERG" netid="HL" source="National Observatory of Athens Seismic Network" insttype="" lat="35.32622" lon="25.06586">
		<comp name="00.HNE" depth="0.0">
			<acc value="0.233268075414767" flag="0"/>
			<vel value="0.158397025148048" flag="0"/>
			<psa03 value="0.743068391299568" flag="0"/>
			<psa10 value="0.331914537709094" flag="0"/>
			<psa30 value="0.020221867932856" flag="0"/>
		</comp>
		<comp name="00.HNN" depth="0.0">
			<acc value="0.278687883091371" flag="0"/>
			<vel value="0.158844515442106" flag="0"/>
			<psa03 value="1.27930199747881" flag="0"/>
			<psa10 value="0.292703770188436" flag="0"/>
			<psa30 value="0.020955641541737" flag="0"/>
		</comp>
		<comp name="00.HNZ" depth="0.0">
			<acc value="0.186752671911888" flag="0"/>
			<vel value="0.0815382388093203" flag="0"/>
			<psa03 value="0.559229837899138" flag="0"/>
			<psa10 value="0.138325963416396" flag="0"/>
			<psa30 value="0.00577517382694055" flag="0"/>
		</comp>
	</station>
	<station code="IACM" name="IACM" netid="HL" source="National Observatory of Athens Seismic Network" insttype="" lat="35.3058" lon="25.0709">
		<comp name="--.HNE" depth="0.0">
			<acc value="0.913206702597946" flag="0"/>
			<vel value="0.476817093887915" flag="0"/>
			<psa03 value="4.41948076891233" flag="0"/>
			<psa10 value="0.591348953967446" flag="0"/>
			<psa30 value="0.0224849195155728" flag="0"/>
		</comp>
		<comp name="--.HNN" depth="0.0">
			<acc value="0.574213401629681" flag="0"/>
			<vel value="0.391186441493769" flag="0"/>
			<psa03 value="2.59382482816683" flag="0"/>
			<psa10 value="0.464271155687129" flag="0"/>
			<psa30 value="0.0228813474436546" flag="0"/>
		</comp>
		<comp name="--.HNZ" depth="0.0">
			<acc value="0.628994211518844" flag="0"/>
			<vel value="0.220475934737369" flag="0"/>
			<psa03 value="1.17998375146776" flag="0"/>
			<psa10 value="0.204817208134798" flag="0"/>
			<psa30 value="0.0093848525337703" flag="0"/>
		</comp>
	</station>
	<station code="IMMV" name="IMMV" netid="HL" source="National Observatory of Athens Seismic Network" insttype="" lat="35.4606" lon="23.9811">
		<comp name="--.HNE" depth="0.0">
			<acc value="0.0213176242825011" flag="0"/>
			<vel value="0.0155558718651697" flag="0"/>
			<psa03 value="0.0688043808690398" flag="0"/>
			<psa10 value="0.0319633636659943" flag="0"/>
			<psa30 value="0.00164003291496572" flag="0"/>
		</comp>
		<comp name="--.HNN" depth="0.0">
			<acc value="0.0258986481059227" flag="0"/>
			<vel value="0.0133692099101322" flag="0"/>
			<psa03 value="0.0642791592204669" flag="0"/>
			<psa10 value="0.0254348299326755" flag="0"/>
			<psa30 value="0.00139667408530577" flag="0"/>
		</comp>
		<comp name="--.HNZ" depth="0.0">
			<acc value="0.0226967680309657" flag="0"/>
			<vel value="0.0150230896949396" flag="0"/>
			<psa03 value="0.0520790281052384" flag="0"/>
			<psa10 value="0.0144683450193561" flag="0"/>
			<psa30 value="0.00144819239397219" flag="0"/>
		</comp>
	</station>
	<station code="KSTE" name="KSTE" netid="HL" source="National Observatory of Athens Seismic Network" insttype="" lat="35.1801" lon="25.3372">
		<comp name="--.HNE" depth="0.0">
			<acc value="0.964943343093754" flag="0"/>
			<vel value="0.251061079028176" flag="0"/>
			<psa03 value="0.930466138816465" flag="0"/>
			<psa10 value="0.0634326321003854" flag="0"/>
			<psa30 value="0.00489958957378283" flag="0"/>
		</comp>
		<comp name="--.HNN" depth="0.0">
			<acc value="0.575119668518496" flag="0"/>
			<vel value="0.138522214166498" flag="0"/>
			<psa03 value="0.750455130634703" flag="0"/>
			<psa10 value="0.0447805089888912" flag="0"/>
			<psa30 value="0.00715280883847702" flag="0"/>
		</comp>
		<comp name="--.HNZ" depth="0.0">
			<acc value="0.508352917941807" flag="0"/>
			<vel value="0.171920815591656" flag="0"/>
			<psa03 value="0.818750654880979" flag="0"/>
			<psa10 value="0.0640907181955674" flag="0"/>
			<psa30 value="0.00632184170767175" flag="0"/>
		</comp>
	</station>
	<station code="MILA" name="MILA" netid="HL" source="National Observatory of Athens Seismic Network" insttype="" lat="36.74288" lon="24.4282">
		<comp name="00.HNE" depth="0.0">
			<acc value="0.0134560736741162" flag="0"/>
			<vel value="0.0116741836994658" flag="0"/>
			<psa03 value="0.049938672775108" flag="0"/>
			<psa10 value="0.0117525191717025" flag="0"/>
			<psa30 value="0.00167906841754401" flag="0"/>
		</comp>
		<comp name="00.HNN" depth="0.0">
			<acc value="0.016555720515398" flag="0"/>
			<vel value="0.0139334856616649" flag="0"/>
			<psa03 value="0.0510723259990853" flag="0"/>
			<psa10 value="0.0205170279023972" flag="0"/>
			<psa30 value="0.00298035951752388" flag="0"/>
		</comp>
		<comp name="00.HNZ" depth="0.0">
			<acc value="0.00856690475525351" flag="0"/>
			<vel value="0.00755286790530171" flag="0"/>
			<psa03 value="0.0347643264035211" flag="0"/>
			<psa10 value="0.0100090005471827" flag="0"/>
			<psa30 value="0.00106223724300368" flag="0"/>
		</comp>
	</station>
	<station code="SIVA" name="SIVA" netid="HL" source="National Observatory of Athens Seismic Network" insttype="" lat="35.01777" lon="24.81204">
		<comp name="00.HNE" depth="0.0">
			<acc value="0.323330141332983" flag="0"/>
			<vel value="0.108236116655772" flag="0"/>
			<psa03 value="0.594128524764351" flag="0"/>
			<psa10 value="0.0755111772447773" flag="0"/>
			<psa30 value="0.00499201444644904" flag="0"/>
		</comp>
		<comp name="00.HNN" depth="0.0">
			<acc value="0.235065440385563" flag="0"/>
			<vel value="0.128188706581578" flag="0"/>
			<psa03 value="0.334691838358514" flag="0"/>
			<psa10 value="0.074894291379292" flag="0"/>
			<psa30 value="0.00584041648225603" flag="0"/>
		</comp>
		<comp name="00.HNZ" depth="0.0">
			<acc value="0.15421506510527" flag="0"/>
			<vel value="0.0592567706878264" flag="0"/>
			<psa03 value="0.236388742927632" flag="0"/>
			<psa10 value="0.0407044089671833" flag="0"/>
			<psa30 value="0.00477610431014537" flag="0"/>
		</comp>
	</station>
</stationlist>
