<?xml version="1.0" encoding="UTF-8" standalone="yes"?>
<!DOCTYPE earthquake SYSTEM "stationlist.dtd">
<stationlist created="" xmlns="ch.ethz.sed.shakemap.usgs.xml">
  <station code="KBN" name="KBN" netid="AC" insttype="" lat="40.6236" lon="20.7874">
    <comp name="--.HHE">
      <acc value="0.3668470056" flag="0"/>
      <vel value="0.1927022109" flag="0"/>
      <psa03 value="0.7319478125" flag="0"/>
      <psa10 value="0.2191199991" flag="0"/>
      <psa30 value="0.0218753051" flag="0"/>
    </comp>
    <comp name="--.HHN">
      <acc value="0.4379414793" flag="0"/>
      <vel value="0.2026708884" flag="0"/>
      <psa03 value="0.9785566294" flag="0"/>
      <psa10 value="0.1324487612" flag="0"/>
      <psa30 value="0.0346620670" flag="0"/>
    </comp>
    <comp name="--.HHZ">
      <acc value="0.4261296558" flag="0"/>
      <vel value="0.1260088687" flag="0"/>
      <psa03 value="0.3918850064" flag="0"/>
      <psa10 value="0.1007382895" flag="0"/>
      <psa30 value="0.0337333551" flag="0"/>
    </comp>
  </station>
  <station code="LMS2" name="LMS2" netid="HI" insttype="CMG-5TD,ACCELEROMETER,GURALP" lat="40.835" lon="21.1418">
    <comp name="--.HNE">
      <acc value="0.7375727522" flag="0"/>
      <vel value="0.1862531678" flag="0"/>
      <psa03 value="0.8237874258" flag="0"/>
      <psa10 value="0.1014623333" flag="0"/>
      <psa30 value="0.0078205591" flag="0"/>
    </comp>
    <comp name="--.HNZ">
      <acc value="0.2512049909" flag="0"/>
      <vel value="0.0819358264" flag="0"/>
      <psa03 value="0.4862995637" flag="0"/>
      <psa10 value="0.0327320611" flag="0"/>
      <psa30 value="0.0086299030" flag="0"/>
    </comp>
    <comp name="--.HNN">
      <acc value="0.7758840887" flag="0"/>
      <vel value="0.2354358395" flag="0"/>
      <psa03 value="1.7440436123" flag="0"/>
      <psa10 value="0.0464241497" flag="0"/>
      <psa30 value="0.0090904864" flag="0"/>
    </comp>
  </station>
  <station code="JAN" name="JAN" netid="HL" insttype="CMG3EPSC60_DR24" lat="39.6562" lon="20.8487">
    <comp name="--.HHZ">
      <acc value="0.0235100589" flag="0"/>
      <vel value="0.0167951552" flag="0"/>
      <psa03 value="0.0752392115" flag="0"/>
      <psa10 value="0.0217909798" flag="0"/>
      <psa30 value="0.0050818147" flag="0"/>
    </comp>
    <comp name="--.HHE">
      <acc value="0.0472251189" flag="0"/>
      <vel value="0.0310393366" flag="0"/>
      <psa03 value="0.1052912525" flag="0"/>
      <psa10 value="0.0557668314" flag="0"/>
      <psa30 value="0.0039431851" flag="0"/>
    </comp>
    <comp name="--.HHN">
      <acc value="0.0475829503" flag="0"/>
      <vel value="0.0294493609" flag="0"/>
      <psa03 value="0.1373119245" flag="0"/>
      <psa10 value="0.0388235427" flag="0"/>
      <psa30 value="0.0037853828" flag="0"/>
    </comp>
  </station>
  <station code="KZN" name="KZN" netid="HL" insttype="120" lat="40.3033" lon="21.7821">
    <comp name="--.HHE">
      <acc value="0.3326457981" flag="0"/>
      <vel value="0.1324136744" flag="0"/>
      <psa03 value="0.6548260183" flag="0"/>
      <psa10 value="0.1022516447" flag="0"/>
      <psa30 value="0.0097234687" flag="0"/>
    </comp>
    <comp name="--.HHZ">
      <acc value="0.1400978326" flag="0"/>
      <vel value="0.0692935860" flag="0"/>
      <psa03 value="0.4259806851" flag="0"/>
      <psa10 value="0.0345143352" flag="0"/>
      <psa30 value="0.0045016113" flag="0"/>
    </comp>
    <comp name="--.HHN">
      <acc value="0.2332384016" flag="0"/>
      <vel value="0.1381047168" flag="0"/>
      <psa03 value="0.8564815173" flag="0"/>
      <psa10 value="0.0537614081" flag="0"/>
      <psa30 value="0.0067078822" flag="0"/>
    </comp>
  </station>
  <station code="PENT" name="PENT" netid="HL" insttype="30s-100Hz," lat="40.1959" lon="21.1384">
    <comp name="--.HHZ">
      <acc value="0.3738067559" flag="0"/>
      <vel value="0.2300057124" flag="0"/>
      <psa03 value="0.9101613773" flag="0"/>
      <psa10 value="0.1735531159" flag="0"/>
      <psa30 value="0.0219299550" flag="0"/>
    </comp>
    <comp name="--.HHN">
      <acc value="0.4908427119" flag="0"/>
      <vel value="0.1903584379" flag="0"/>
      <psa03 value="1.2359469181" flag="0"/>
      <psa10 value="0.2138371746" flag="0"/>
      <psa30 value="0.0231170464" flag="0"/>
    </comp>
    <comp name="--.HHE">
      <acc value="0.4006974566" flag="0"/>
      <vel value="0.2560857446" flag="0"/>
      <psa03 value="1.7004481884" flag="0"/>
      <psa10 value="0.2647670762" flag="0"/>
      <psa30 value="0.0146168922" flag="0"/>
    </comp>
  </station>
  <station code="TETR" name="TETR" netid="HL" insttype="60" lat="39.3445" lon="21.2747">
    <comp name="--.HHE">
      <acc value="0.0952145326" flag="0"/>
      <vel value="0.0470388924" flag="0"/>
      <psa03 value="0.2664324288" flag="0"/>
      <psa10 value="0.0792714635" flag="0"/>
      <psa30 value="0.0073873746" flag="0"/>
    </comp>
    <comp name="--.HHN">
      <acc value="0.0776539375" flag="0"/>
      <vel value="0.0360911712" flag="0"/>
      <psa03 value="0.1833344747" flag="0"/>
      <psa10 value="0.0613188574" flag="0"/>
      <psa30 value="0.0059617049" flag="0"/>
    </comp>
    <comp name="--.HHZ">
      <acc value="0.0312265559" flag="0"/>
      <vel value="0.0277887852" flag="0"/>
      <psa03 value="0.0918163306" flag="0"/>
      <psa10 value="0.0347695208" flag="0"/>
      <psa30 value="0.0034600402" flag="0"/>
    </comp>
  </station>
  <station code="THL" name="THL" netid="HL" insttype="120" lat="39.5647" lon="22.0144">
    <comp name="--.HHZ">
      <acc value="0.0201696165" flag="0"/>
      <vel value="0.0205948434" flag="0"/>
      <psa03 value="0.0508725424" flag="0"/>
      <psa10 value="0.0281727294" flag="0"/>
      <psa30 value="0.0061251572" flag="0"/>
    </comp>
    <comp name="--.HHE">
      <acc value="0.0220184209" flag="0"/>
      <vel value="0.0212209142" flag="0"/>
      <psa03 value="0.0644690562" flag="0"/>
      <psa10 value="0.0267406455" flag="0"/>
      <psa30 value="0.0040418042" flag="0"/>
    </comp>
    <comp name="--.HHN">
      <acc value="0.0303387704" flag="0"/>
      <vel value="0.0250738079" flag="0"/>
      <psa03 value="0.0605288317" flag="0"/>
      <psa10 value="0.0236272327" flag="0"/>
      <psa30 value="0.0043198153" flag="0"/>
    </comp>
  </station>
  <station code="KANL" name="KANL" netid="HP" insttype="" lat="39.8334" lon="22.0247">
    <comp name="--.HHE">
      <acc value="0.0626857753" flag="0"/>
      <vel value="0.0432045599" flag="0"/>
      <psa03 value="0.1906830421" flag="0"/>
      <psa10 value="0.0440109740" flag="0"/>
      <psa30 value="0.0049350262" flag="0"/>
    </comp>
    <comp name="--.HHZ">
      <acc value="0.0445863733" flag="0"/>
      <vel value="0.0275965655" flag="0"/>
      <psa03 value="0.1734501168" flag="0"/>
      <psa10 value="0.0403250662" flag="0"/>
      <psa30 value="0.0047409947" flag="0"/>
    </comp>
  </station>
  <station code="PRMD" name="PRMD" netid="HP" insttype="120P," lat="39.5299" lon="21.0965">
    <comp name="--.HHE">
      <acc value="0.0382507884" flag="0"/>
      <vel value="0.0357181609" flag="0"/>
      <psa03 value="0.1243126160" flag="0"/>
      <psa10 value="0.0905279238" flag="0"/>
      <psa30 value="0.0116532009" flag="0"/>
    </comp>
    <comp name="--.HHN">
      <acc value="0.0587269593" flag="0"/>
      <vel value="0.0569567359" flag="0"/>
      <psa03 value="0.1254156684" flag="0"/>
      <psa10 value="0.0892881683" flag="0"/>
      <psa30 value="0.0100291764" flag="0"/>
    </comp>
    <comp name="--.HHZ">
      <acc value="0.0227866027" flag="0"/>
      <vel value="0.0314699361" flag="0"/>
      <psa03 value="0.0640083020" flag="0"/>
      <psa10 value="0.0287127804" flag="0"/>
      <psa30 value="0.0056406594" flag="0"/>
    </comp>
  </station>
  <station code="VRKS" name="VRKS" netid="HP" insttype="" lat="39.784" lon="21.9765">
    <comp name="--.HHZ">
      <acc value="0.0360753021" flag="0"/>
      <vel value="0.0171270424" flag="0"/>
      <psa03 value="0.0812384681" flag="0"/>
      <psa10 value="0.0255956791" flag="0"/>
      <psa30 value="0.0056424631" flag="0"/>
    </comp>
    <comp name="--.HHN">
      <acc value="0.0668794407" flag="0"/>
      <vel value="0.0294690271" flag="0"/>
      <psa03 value="0.2046823627" flag="0"/>
      <psa10 value="0.0248041158" flag="0"/>
      <psa30 value="0.0054849029" flag="0"/>
    </comp>
    <comp name="--.HHE">
      <acc value="0.0518066101" flag="0"/>
      <vel value="0.0284177058" flag="0"/>
      <psa03 value="0.1440412825" flag="0"/>
      <psa10 value="0.0296380670" flag="0"/>
      <psa30 value="0.0046305359" flag="0"/>
    </comp>
  </station>
  <station code="GRG" name="GRG" netid="HT" insttype="100" lat="40.957" lon="22.401">
    <comp name="--.HHZ">
      <acc value="0.0389416771" flag="0"/>
      <vel value="0.0363233190" flag="0"/>
      <psa03 value="0.0960265512" flag="0"/>
      <psa10 value="0.0471021743" flag="0"/>
      <psa30 value="0.0101175439" flag="0"/>
    </comp>
    <comp name="--.HHN">
      <acc value="0.0815039117" flag="0"/>
      <vel value="0.0911848061" flag="0"/>
      <psa03 value="0.2073572089" flag="0"/>
      <psa10 value="0.1760770691" flag="0"/>
      <psa30 value="0.0136148959" flag="0"/>
    </comp>
    <comp name="--.HHE">
      <acc value="0.0628624128" flag="0"/>
      <vel value="0.0552644485" flag="0"/>
      <psa03 value="0.2048257206" flag="0"/>
      <psa10 value="0.0709344120" flag="0"/>
      <psa30 value="0.0101951307" flag="0"/>
    </comp>
  </station>
  <station code="IGT" name="IGT" netid="HT" insttype="100" lat="39.5315" lon="20.3299">
    <comp name="--.HHN">
      <acc value="0.0227341206" flag="0"/>
      <vel value="0.0311384655" flag="0"/>
      <psa03 value="0.0678146953" flag="0"/>
      <psa10 value="0.0257137868" flag="0"/>
      <psa30 value="0.0025821053" flag="0"/>
    </comp>
    <comp name="--.HHZ">
      <acc value="0.0162379107" flag="0"/>
      <vel value="0.0134476829" flag="0"/>
      <psa03 value="0.0481820631" flag="0"/>
      <psa10 value="0.0282423851" flag="0"/>
      <psa30 value="0.0017997280" flag="0"/>
    </comp>
    <comp name="--.HHE">
      <acc value="0.0334753455" flag="0"/>
      <vel value="0.0223568985" flag="0"/>
      <psa03 value="0.0891239059" flag="0"/>
      <psa10 value="0.0233371222" flag="0"/>
      <psa30 value="0.0025620831" flag="0"/>
    </comp>
  </station>
  <station code="KPRO" name="KPRO" netid="HT" insttype="100" lat="39.9549" lon="21.3632">
    <comp name="--.HHE">
      <acc value="0.1602821496" flag="0"/>
      <vel value="0.0874372631" flag="0"/>
      <psa03 value="0.5875806151" flag="0"/>
      <psa10 value="0.1069080971" flag="0"/>
      <psa30 value="0.0107214714" flag="0"/>
    </comp>
    <comp name="--.HHN">
      <acc value="0.1521436149" flag="0"/>
      <vel value="0.0917318038" flag="0"/>
      <psa03 value="0.5024272469" flag="0"/>
      <psa10 value="0.0968631675" flag="0"/>
      <psa30 value="0.0138275107" flag="0"/>
    </comp>
    <comp name="--.HHZ">
      <acc value="0.0910001651" flag="0"/>
      <vel value="0.0543541367" flag="0"/>
      <psa03 value="0.1509903558" flag="0"/>
      <psa10 value="0.0702500541" flag="0"/>
      <psa30 value="0.0118163485" flag="0"/>
    </comp>
  </station>
  <station code="TYRN" name="TYRN" netid="HT" insttype="120P," lat="39.711" lon="22.2325">
    <comp name="--.HHE">
      <acc value="0.0259671100" flag="0"/>
      <vel value="0.0231180546" flag="0"/>
      <psa03 value="0.0612216071" flag="0"/>
      <psa10 value="0.0317473212" flag="0"/>
      <psa30 value="0.0065651752" flag="0"/>
    </comp>
    <comp name="--.HHN">
      <acc value="0.0307246507" flag="0"/>
      <vel value="0.0301548654" flag="0"/>
      <psa03 value="0.0560233550" flag="0"/>
      <psa10 value="0.0498232725" flag="0"/>
      <psa30 value="0.0054436429" flag="0"/>
    </comp>
    <comp name="--.HHZ">
      <acc value="0.0228856121" flag="0"/>
      <vel value="0.0231439272" flag="0"/>
      <psa03 value="0.0790038740" flag="0"/>
      <psa10 value="0.0461857705" flag="0"/>
      <psa30 value="0.0066197359" flag="0"/>
    </comp>
  </station>
  <station code="THL" name="THL" netid="MN" insttype="" lat="39.5647" lon="22.0144">
    <comp name="--.HHE">
      <acc value="0.0220184209" flag="0"/>
      <vel value="0.0212209142" flag="0"/>
      <psa03 value="0.0644690562" flag="0"/>
      <psa10 value="0.0267406455" flag="0"/>
      <psa30 value="0.0040418042" flag="0"/>
    </comp>
    <comp name="--.HHN">
      <acc value="0.0303387704" flag="0"/>
      <vel value="0.0250738079" flag="0"/>
      <psa03 value="0.0605288317" flag="0"/>
      <psa10 value="0.0236272327" flag="0"/>
      <psa30 value="0.0043198153" flag="0"/>
    </comp>
    <comp name="--.HHZ">
      <acc value="0.0201696165" flag="0"/>
      <vel value="0.0205948434" flag="0"/>
      <psa03 value="0.0508725424" flag="0"/>
      <psa10 value="0.0281727294" flag="0"/>
      <psa30 value="0.0061251572" flag="0"/>
    </comp>
  </station>
</stationlist>
