<stationlist created="1778136634">
	<station code="E03" name="E03" netid="EG" source="EUROSEISTEST Strong Motion Network" insttype="" lat="40.676239" lon="23.324046">
		<comp name="--.EN1" depth="0.0">
			<acc value="0.0245567399288553" flag="0"/>
			<vel value="0.0426598333040918" flag="0"/>
			<psa03 value="0.068791880041028" flag="0"/>
			<psa10 value="0.0613235561347755" flag="0"/>
			<psa30 value="0.00778571659884923" flag="0"/>
		</comp>
		<comp name="--.EN2" depth="0.0">
			<acc value="0.0209968222758961" flag="0"/>
			<vel value="0.0313896715759352" flag="0"/>
			<psa03 value="0.0383817040578597" flag="0"/>
			<psa10 value="0.0617560910379158" flag="0"/>
			<psa30 value="0.00435775076293268" flag="0"/>
		</comp>
		<comp name="--.EN3" depth="0.0">
			<acc value="0.0122749113781373" flag="0"/>
			<vel value="0.0157968303167159" flag="0"/>
			<psa03 value="0.0274941338514245" flag="0"/>
			<psa10 value="0.0330582036937404" flag="0"/>
			<psa30 value="0.00371009702572105" flag="0"/>
		</comp>
	</station>
	<station code="MMAA" name="MMAA" netid="EG" source="EUROSEISTEST Strong Motion Network" insttype="" lat="40.630855" lon="22.943725">
		<comp name="--.EN1" depth="0.0">
			<acc value="0.0475225221760908" flag="0"/>
			<vel value="0.0343954973446569" flag="0"/>
			<psa03 value="0.159875601390526" flag="0"/>
			<psa10 value="0.0471701935437529" flag="0"/>
			<psa30 value="0.00495859931618548" flag="0"/>
		</comp>
		<comp name="--.EN2" depth="0.0">
			<acc value="0.0525035418988395" flag="0"/>
			<vel value="0.0572925472576549" flag="0"/>
			<psa03 value="0.180111681514846" flag="0"/>
			<psa10 value="0.0830783985361364" flag="0"/>
			<psa30 value="0.00931426035736968" flag="0"/>
		</comp>
		<comp name="--.EN3" depth="0.0">
			<acc value="0.0194024778347283" flag="0"/>
			<vel value="0.0169547220764585" flag="0"/>
			<psa03 value="0.0548679680669628" flag="0"/>
			<psa10 value="0.0145309760433646" flag="0"/>
			<psa30 value="0.00441683676042661" flag="0"/>
		</comp>
	</station>
	<station code="PRR" name="PRR" netid="EG" source="EUROSEISTEST Strong Motion Network" insttype="" lat="40.682635" lon="23.300668">
		<comp name="--.EN1" depth="0.0">
			<acc value="0.00171283943728922" flag="0"/>
			<vel value="0.00209887452399788" flag="0"/>
			<psa03 value="0.00327119782059433" flag="0"/>
			<psa10 value="0.00328429717794554" flag="0"/>
			<psa30 value="0.000685362537320082" flag="0"/>
		</comp>
		<comp name="--.EN2" depth="0.0">
			<acc value="0.00963689313298941" flag="0"/>
			<vel value="0.0104543616433541" flag="0"/>
			<psa03 value="0.0230299318699619" flag="0"/>
			<psa10 value="0.0135461279895006" flag="0"/>
			<psa30 value="0.00261431776905465" flag="0"/>
		</comp>
		<comp name="--.EN3" depth="0.0">
			<acc value="0.00502527062279462" flag="0"/>
			<vel value="0.00880521161978671" flag="0"/>
			<psa03 value="0.0113333809892041" flag="0"/>
			<psa10 value="0.0116488398034846" flag="0"/>
			<psa30 value="0.00471713457036264" flag="0"/>
		</comp>
	</station>
	<station code="SHTA" name="SHTA" netid="EG" source="EUROSEISTEST Strong Motion Network" insttype="" lat="40.613764" lon="22.952972">
		<comp name="--.EN1" depth="0.0">
			<acc value="0.0830120937498709" flag="0"/>
			<vel value="0.0501989997682216" flag="0"/>
			<psa03 value="0.102108857960843" flag="0"/>
			<psa10 value="0.0746652712077757" flag="0"/>
			<psa30 value="0.0181209337562482" flag="0"/>
		</comp>
		<comp name="--.EN2" depth="0.0">
			<acc value="0.0403422132199465" flag="0"/>
			<vel value="0.0370303902926765" flag="0"/>
			<psa03 value="0.0781935184783885" flag="0"/>
			<psa10 value="0.0667690856241473" flag="0"/>
			<psa30 value="0.00985135010359652" flag="0"/>
		</comp>
		<comp name="--.EN3" depth="0.0">
			<acc value="0.259153717364926" flag="0"/>
			<vel value="0.0388527613495976" flag="0"/>
			<psa03 value="0.0340922402144416" flag="0"/>
			<psa10 value="0.0335920028053398" flag="0"/>
			<psa30 value="0.00558656299905821" flag="0"/>
		</comp>
	</station>
	<station code="STC" name="STC" netid="EG" source="EUROSEISTEST Strong Motion Network" insttype="" lat="40.64865" lon="23.304856">
		<comp name="--.EN1" depth="0.0">
			<acc value="0.0244337026992216" flag="0"/>
			<vel value="0.0299391181380137" flag="0"/>
			<psa03 value="0.0611223511392559" flag="0"/>
			<psa10 value="0.0272732185918692" flag="0"/>
			<psa30 value="0.00449695540124618" flag="0"/>
		</comp>
		<comp name="--.EN2" depth="0.0">
			<acc value="0.0177255969670988" flag="0"/>
			<vel value="0.0214631213967071" flag="0"/>
			<psa03 value="0.0461366969548246" flag="0"/>
			<psa10 value="0.022071620261525" flag="0"/>
			<psa30 value="0.00567853784194822" flag="0"/>
		</comp>
		<comp name="--.EN3" depth="0.0">
			<acc value="0.010185171686928" flag="0"/>
			<vel value="0.0169921871694792" flag="0"/>
			<psa03 value="0.0267928087462471" flag="0"/>
			<psa10 value="0.0149754789270011" flag="0"/>
			<psa30 value="0.00561860095471671" flag="0"/>
		</comp>
	</station>
	<station code="STE" name="STE" netid="EG" source="EUROSEISTEST Strong Motion Network" insttype="" lat="40.645348" lon="23.305398">
		<comp name="--.EN1" depth="0.0">
			<acc value="0.00790836828016374" flag="0"/>
			<vel value="0.0105933294817916" flag="0"/>
			<psa03 value="0.0237958732348195" flag="0"/>
			<psa10 value="0.00790687097887989" flag="0"/>
			<psa30 value="0.00316152339374095" flag="0"/>
		</comp>
		<comp name="--.EN2" depth="0.0">
			<acc value="0.00224326244596889" flag="0"/>
			<vel value="0.00281463626268944" flag="0"/>
			<psa03 value="0.00509286830198832" flag="0"/>
			<psa10 value="0.00734048783378662" flag="0"/>
			<psa30 value="0.000878149631434504" flag="0"/>
		</comp>
		<comp name="--.EN3" depth="0.0">
			<acc value="0.00569635271183911" flag="0"/>
			<vel value="0.00790812648058345" flag="0"/>
			<psa03 value="0.0156730004989523" flag="0"/>
			<psa10 value="0.00563124788627899" flag="0"/>
			<psa30 value="0.00314846169513593" flag="0"/>
		</comp>
	</station>
	<station code="TST" name="TST" netid="EG" source="EUROSEISTEST Strong Motion Network" insttype="" lat="40.6638" lon="23.2906">
		<comp name="00.EN1" depth="0.0">
			<acc value="0.021943167934538" flag="0"/>
			<vel value="0.0366277681293022" flag="0"/>
			<psa03 value="0.0519899076179518" flag="0"/>
			<psa10 value="0.03385473395999" flag="0"/>
			<psa30 value="0.0075242876138145" flag="0"/>
		</comp>
		<comp name="00.EN2" depth="0.0">
			<acc value="0.0121565797125673" flag="0"/>
			<vel value="0.0116060811612236" flag="0"/>
			<psa03 value="0.021539096130257" flag="0"/>
			<psa10 value="0.0210472192749887" flag="0"/>
			<psa30 value="0.00376950846143551" flag="0"/>
		</comp>
		<comp name="00.EN3" depth="0.0">
			<acc value="0.0219360939083551" flag="0"/>
			<vel value="0.0267271208663168" flag="0"/>
			<psa03 value="0.0507111301967295" flag="0"/>
			<psa10 value="0.0419852800685999" flag="0"/>
			<psa30 value="0.00467457508433036" flag="0"/>
		</comp>
	</station>
	<station code="W02" name="W02" netid="EG" source="EUROSEISTEST Strong Motion Network" insttype="" lat="40.661088" lon="23.260065">
		<comp name="--.EN1" depth="0.0">
			<acc value="0.0250287844194612" flag="0"/>
			<vel value="0.0350123630421752" flag="0"/>
			<psa03 value="0.0529792856593743" flag="0"/>
			<psa10 value="0.0680716294114393" flag="0"/>
			<psa30 value="0.0135288270517258" flag="0"/>
		</comp>
		<comp name="--.EN2" depth="0.0">
			<acc value="0.0355309943625468" flag="0"/>
			<vel value="0.049958433996118" flag="0"/>
			<psa03 value="0.0609208117464795" flag="0"/>
			<psa10 value="0.0900043498466022" flag="0"/>
			<psa30 value="0.0132949157228972" flag="0"/>
		</comp>
		<comp name="--.EN3" depth="0.0">
			<acc value="0.0224594194484811" flag="0"/>
			<vel value="0.0261302752129651" flag="0"/>
			<psa03 value="0.0360031402396603" flag="0"/>
			<psa10 value="0.0384342673315804" flag="0"/>
			<psa30 value="0.00405701667411126" flag="0"/>
		</comp>
	</station>
	<station code="ART2" name="ART2" netid="HI" source="ITSAK Strong Motion Network" insttype="" lat="39.1474" lon="20.9937">
		<comp name="--.HNE" depth="0.0">
			<acc value="0.0121532593957964" flag="0"/>
			<vel value="0.0132669497506185" flag="0"/>
			<psa03 value="0.0305285900775918" flag="0"/>
			<psa10 value="0.0173241957679331" flag="0"/>
			<psa30 value="0.00390273770388598" flag="0"/>
		</comp>
		<comp name="--.HNN" depth="0.0">
			<acc value="0.0118684593613659" flag="0"/>
			<vel value="0.0134593292756463" flag="0"/>
			<psa03 value="0.0193859144300118" flag="0"/>
			<psa10 value="0.017331656887227" flag="0"/>
			<psa30 value="0.00314538253282102" flag="0"/>
		</comp>
		<comp name="--.HNZ" depth="0.0">
			<acc value="0.00730690839116272" flag="0"/>
			<vel value="0.0114523033837099" flag="0"/>
			<psa03 value="0.0162941002374921" flag="0"/>
			<psa10 value="0.0136812578786958" flag="0"/>
			<psa30 value="0.00483404189822753" flag="0"/>
		</comp>
	</station>
	<station code="KRK1" name="KRK1" netid="HI" source="ITSAK Strong Motion Network" insttype="" lat="39.618861" lon="19.9202">
		<comp name="--.HNE" depth="0.0">
			<acc value="0.0712653129741676" flag="0"/>
			<vel value="0.0424404388699243" flag="0"/>
			<psa03 value="0.226067621703906" flag="0"/>
			<psa10 value="0.0324813067271497" flag="0"/>
			<psa30 value="0.00330209749775179" flag="0"/>
		</comp>
		<comp name="--.HNN" depth="0.0">
			<acc value="0.0693035935778214" flag="0"/>
			<vel value="0.0408510052136667" flag="0"/>
			<psa03 value="0.166504561359861" flag="0"/>
			<psa10 value="0.027182800102104" flag="0"/>
			<psa30 value="0.00272628518634677" flag="0"/>
		</comp>
		<comp name="--.HNZ" depth="0.0">
			<acc value="0.0233248464179902" flag="0"/>
			<vel value="0.0118286214783742" flag="0"/>
			<psa03 value="0.0805115470367046" flag="0"/>
			<psa10 value="0.0155401125812035" flag="0"/>
			<psa30 value="0.00312746842943529" flag="0"/>
		</comp>
	</station>
	<station code="LAM2" name="LAM2" netid="HI" source="ITSAK Strong Motion Network" insttype="" lat="38.90203" lon="22.431301">
		<comp name="--.HNE" depth="0.0">
			<acc value="0.0100766047832026" flag="0"/>
			<vel value="0.0135752684670832" flag="0"/>
			<psa03 value="0.0271323598856664" flag="0"/>
			<psa10 value="0.0265938648380131" flag="0"/>
			<psa30 value="0.00435458638664235" flag="0"/>
		</comp>
		<comp name="--.HNN" depth="0.0">
			<acc value="0.0119753686195695" flag="0"/>
			<vel value="0.0120503194472812" flag="0"/>
			<psa03 value="0.0364939618166929" flag="0"/>
			<psa10 value="0.025906873703231" flag="0"/>
			<psa30 value="0.00398204254077633" flag="0"/>
		</comp>
		<comp name="--.HNZ" depth="0.0">
			<acc value="0.0073376243831548" flag="0"/>
			<vel value="0.0151439406035733" flag="0"/>
			<psa03 value="0.0125362106707741" flag="0"/>
			<psa10 value="0.01387734711865" flag="0"/>
			<psa30 value="0.00655236114511846" flag="0"/>
		</comp>
	</station>
	<station code="LMS2" name="LMS2" netid="HI" source="ITSAK Strong Motion Network" insttype="" lat="40.834985" lon="21.141815">
		<comp name="--.HNE" depth="0.0">
			<acc value="0.744036220763045" flag="0"/>
			<vel value="0.186168288833879" flag="0"/>
			<psa03 value="0.834556285256292" flag="0"/>
			<psa10 value="0.101714013054313" flag="0"/>
			<psa30 value="0.00956421358219381" flag="0"/>
		</comp>
		<comp name="--.HNN" depth="0.0">
			<acc value="0.772447552795307" flag="0"/>
			<vel value="0.237861590619085" flag="0"/>
			<psa03 value="1.75040995606739" flag="0"/>
			<psa10 value="0.0463269576837456" flag="0"/>
			<psa30 value="0.0103179660145906" flag="0"/>
		</comp>
		<comp name="--.HNZ" depth="0.0">
			<acc value="0.252733701715825" flag="0"/>
			<vel value="0.0798451349198556" flag="0"/>
			<psa03 value="0.489190364795628" flag="0"/>
			<psa10 value="0.0328992456635818" flag="0"/>
			<psa30 value="0.00952977380072371" flag="0"/>
		</comp>
	</station>
	<station code="VAS2" name="VAS2" netid="HI" source="ITSAK Strong Motion Network" insttype="" lat="38.630558" lon="20.608081">
		<comp name="--.HNE" depth="0.0">
			<acc value="0.0576772137653259" flag="0"/>
			<vel value="0.0878799089034511" flag="0"/>
			<psa03 value="0.103723912867022" flag="0"/>
			<psa10 value="0.145665949654311" flag="0"/>
			<psa30 value="0.00852774575464284" flag="0"/>
		</comp>
		<comp name="--.HNN" depth="0.0">
			<acc value="0.0480979472970303" flag="0"/>
			<vel value="0.0676970547682227" flag="0"/>
			<psa03 value="0.102145724986531" flag="0"/>
			<psa10 value="0.181846381430509" flag="0"/>
			<psa30 value="0.0124707261244142" flag="0"/>
		</comp>
		<comp name="--.HNZ" depth="0.0">
			<acc value="0.0193888021852716" flag="0"/>
			<vel value="0.0234427736239959" flag="0"/>
			<psa03 value="0.0494417752748276" flag="0"/>
			<psa10 value="0.0523355907259598" flag="0"/>
			<psa30 value="0.00427637245535231" flag="0"/>
		</comp>
	</station>
	<station code="VOL2" name="VOL2" netid="HI" source="ITSAK Strong Motion Network" insttype="" lat="39.366" lon="22.9506">
		<comp name="--.HNE" depth="0.0">
			<acc value="0.0119089411047014" flag="0"/>
			<vel value="0.0170717348779671" flag="0"/>
			<psa03 value="0.0351273921214818" flag="0"/>
			<psa10 value="0.0156123114264991" flag="0"/>
			<psa30 value="0.00244892285412003" flag="0"/>
		</comp>
		<comp name="--.HNN" depth="0.0">
			<acc value="0.020021330127762" flag="0"/>
			<vel value="0.0191610174135023" flag="0"/>
			<psa03 value="0.0436656556562067" flag="0"/>
			<psa10 value="0.0265864374710229" flag="0"/>
			<psa30 value="0.00286858377959879" flag="0"/>
		</comp>
		<comp name="--.HNZ" depth="0.0">
			<acc value="0.0065485904492932" flag="0"/>
			<vel value="0.0102121902899525" flag="0"/>
			<psa03 value="0.0143508334847957" flag="0"/>
			<psa10 value="0.0130557595674874" flag="0"/>
			<psa30 value="0.00298891841784119" flag="0"/>
		</comp>
	</station>
	<station code="AMYA" name="AMYA" netid="HL" source="National Observatory of Athens Seismic Network" insttype="" lat="40.6901" lon="21.67899">
		<comp name="00.HNE" depth="0.0">
			<acc value="0.00527987080297934" flag="0"/>
			<vel value="0.00732876918463513" flag="0"/>
			<psa03 value="0.0118288708442288" flag="0"/>
			<psa10 value="0.00848683471114728" flag="0"/>
			<psa30 value="0.00414693929770952" flag="0"/>
		</comp>
		<comp name="00.HNN" depth="0.0">
			<acc value="0.00478213508559549" flag="0"/>
			<vel value="0.00812771728657614" flag="0"/>
			<psa03 value="0.0114470317471935" flag="0"/>
			<psa10 value="0.00777661406878428" flag="0"/>
			<psa30 value="0.00244644602337705" flag="0"/>
		</comp>
		<comp name="00.HNZ" depth="0.0">
			<acc value="0.00444373320345048" flag="0"/>
			<vel value="0.00250277009185239" flag="0"/>
			<psa03 value="0.00814613534460044" flag="0"/>
			<psa10 value="0.00413280284042069" flag="0"/>
			<psa30 value="0.000580401834191895" flag="0"/>
		</comp>
	</station>
	<station code="ARTB" name="ARTB" netid="HL" source="National Observatory of Athens Seismic Network" insttype="" lat="39.15702" lon="20.9785">
		<comp name="00.HNE" depth="0.0">
			<acc value="0.0250554353977893" flag="0"/>
			<vel value="0.0161242155120332" flag="0"/>
			<psa03 value="0.0935198514811458" flag="0"/>
			<psa10 value="0.0251559070803882" flag="0"/>
			<psa30 value="0.00536894566632254" flag="0"/>
		</comp>
		<comp name="00.HNN" depth="0.0">
			<acc value="0.0208999951209305" flag="0"/>
			<vel value="0.0178830833766384" flag="0"/>
			<psa03 value="0.0699366173328342" flag="0"/>
			<psa10 value="0.0227048365839793" flag="0"/>
			<psa30 value="0.00308197895764517" flag="0"/>
		</comp>
		<comp name="00.HNZ" depth="0.0">
			<acc value="0.0135591368062462" flag="0"/>
			<vel value="0.0132264796496714" flag="0"/>
			<psa03 value="0.0328669064379171" flag="0"/>
			<psa10 value="0.0150288712139588" flag="0"/>
			<psa30 value="0.00454314637782998" flag="0"/>
		</comp>
	</station>
	<station code="GINA" name="GINA" netid="HL" source="National Observatory of Athens Seismic Network" insttype="" lat="39.66886" lon="22.389">
		<comp name="00.HNE" depth="0.0">
			<acc value="0.052440106014125" flag="0"/>
			<vel value="0.085472260393234" flag="0"/>
			<psa03 value="0.140003722475957" flag="0"/>
			<psa10 value="0.0838215702675307" flag="0"/>
			<psa30 value="0.0207047815901452" flag="0"/>
		</comp>
		<comp name="00.HNN" depth="0.0">
			<acc value="0.0564569369312445" flag="0"/>
			<vel value="0.0682122756696577" flag="0"/>
			<psa03 value="0.127514540962534" flag="0"/>
			<psa10 value="0.0811650742880075" flag="0"/>
			<psa30 value="0.0218571062593544" flag="0"/>
		</comp>
		<comp name="00.HNZ" depth="0.0">
			<acc value="0.0237269712608874" flag="0"/>
			<vel value="0.0334880264860954" flag="0"/>
			<psa03 value="0.0523804907839331" flag="0"/>
			<psa10 value="0.0725155913020133" flag="0"/>
			<psa30 value="0.00689583014825387" flag="0"/>
		</comp>
	</station>
	<station code="JAN" name="JAN" netid="HL" source="National Observatory of Athens Seismic Network" insttype="" lat="39.65616" lon="20.84874">
		<comp name="00.HNE" depth="0.0">
			<acc value="0.0473085437873417" flag="0"/>
			<vel value="0.031497448209724" flag="0"/>
			<psa03 value="0.111493135873049" flag="0"/>
			<psa10 value="0.0558653620561731" flag="0"/>
			<psa30 value="0.00423994754238392" flag="0"/>
		</comp>
		<comp name="00.HNN" depth="0.0">
			<acc value="0.0472472305841134" flag="0"/>
			<vel value="0.0292304112765347" flag="0"/>
			<psa03 value="0.13638169086762" flag="0"/>
			<psa10 value="0.0385684174683824" flag="0"/>
			<psa30 value="0.00369009653411835" flag="0"/>
		</comp>
		<comp name="00.HNZ" depth="0.0">
			<acc value="0.0228043231715451" flag="0"/>
			<vel value="0.0168961713458786" flag="0"/>
			<psa03 value="0.0720491895718728" flag="0"/>
			<psa10 value="0.021718785637953" flag="0"/>
			<psa30 value="0.00524616044904838" flag="0"/>
		</comp>
	</station>
	<station code="NASA" name="NASA" netid="HL" source="National Observatory of Athens Seismic Network" insttype="" lat="40.63111" lon="22.06706">
		<comp name="00.HNE" depth="0.0">
			<acc value="0.152193185225262" flag="0"/>
			<vel value="0.109598904681461" flag="0"/>
			<psa03 value="0.403029323714592" flag="0"/>
			<psa10 value="0.12134448597678" flag="0"/>
			<psa30 value="0.00613011317325812" flag="0"/>
		</comp>
		<comp name="00.HNN" depth="0.0">
			<acc value="0.120405494266191" flag="0"/>
			<vel value="0.0831079518697536" flag="0"/>
			<psa03 value="0.299428106475958" flag="0"/>
			<psa10 value="0.0812325862599891" flag="0"/>
			<psa30 value="0.00513665611161289" flag="0"/>
		</comp>
		<comp name="00.HNZ" depth="0.0">
			<acc value="0.0950703477950841" flag="0"/>
			<vel value="0.0529218146186439" flag="0"/>
			<psa03 value="0.427272929734425" flag="0"/>
			<psa10 value="0.0564495532558194" flag="0"/>
			<psa30 value="0.00608986175677254" flag="0"/>
		</comp>
	</station>
	<station code="OREA" name="OREA" netid="HL" source="National Observatory of Athens Seismic Network" insttype="" lat="40.72705" lon="22.91452">
		<comp name="00.HNE" depth="0.0">
			<acc value="0.00939360567824381" flag="0"/>
			<vel value="0.00780741671457109" flag="0"/>
			<psa03 value="0.0300241816629974" flag="0"/>
			<psa10 value="0.00563097130545638" flag="0"/>
			<psa30 value="0.00150194053785541" flag="0"/>
		</comp>
		<comp name="00.HNN" depth="0.0">
			<acc value="0.0133889309334644" flag="0"/>
			<vel value="0.0115815506630151" flag="0"/>
			<psa03 value="0.0451234058710592" flag="0"/>
			<psa10 value="0.0114903168021097" flag="0"/>
			<psa30 value="0.00190903438082566" flag="0"/>
		</comp>
		<comp name="00.HNZ" depth="0.0">
			<acc value="0.00686778449982427" flag="0"/>
			<vel value="0.00584752236889605" flag="0"/>
			<psa03 value="0.0232312472894711" flag="0"/>
			<psa10 value="0.00728785403457218" flag="0"/>
			<psa30 value="0.00221099667601032" flag="0"/>
		</comp>
	</station>
	<station code="PRGA" name="PRGA" netid="HL" source="National Observatory of Athens Seismic Network" insttype="" lat="39.28557" lon="20.40157">
