<?xml version="1.0" encoding="UTF-8" standalone="yes"?>
<!DOCTYPE earthquake SYSTEM "stationlist.dtd">
<stationlist created="" xmlns="ch.ethz.sed.shakemap.usgs.xml">
  <station code="APE" name="APE" netid="GE" insttype="STS-2/N" lat="37.0727" lon="25.523">
    <comp name="--.HHN">
      <acc value="0.2102773366" flag="0"/>
      <vel value="0.0372981967" flag="0"/>
      <psa03 value="0.1594207060" flag="0"/>
      <psa10 value="0.0225414610" flag="0"/>
      <psa30 value="0.0023662428" flag="0"/>
    </comp>
    <comp name="--.HHE">
      <acc value="0.1812536181" flag="0"/>
      <vel value="0.0412065282" flag="0"/>
      <psa03 value="0.1580309571" flag="0"/>
      <psa10 value="0.0132657767" flag="0"/>
      <psa30 value="0.0011962522" flag="0"/>
    </comp>
    <comp name="--.HHZ">
      <acc value="0.0812449760" flag="0"/>
      <vel value="0.0187842907" flag="0"/>
      <psa03 value="0.0967496470" flag="0"/>
      <psa10 value="0.0128487396" flag="0"/>
      <psa30 value="0.0017523039" flag="0"/>
    </comp>
  </station>
  <station code="THERA" name="THERA" netid="GE" insttype="STS-2/N" lat="36.367" lon="25.4753">
    <comp name="--.HHE">
      <acc value="0.2001110836" flag="0"/>
      <vel value="0.0479371730" flag="0"/>
      <psa03 value="0.2103893688" flag="0"/>
      <psa10 value="0.0127738041" flag="0"/>
      <psa30 value="0.0024026361" flag="0"/>
    </comp>
    <comp name="--.HHN">
      <acc value="0.1084650707" flag="0"/>
      <vel value="0.0264275962" flag="0"/>
      <psa03 value="0.1433291590" flag="0"/>
      <psa10 value="0.0119680344" flag="0"/>
      <psa30 value="0.0011943659" flag="0"/>
    </comp>
    <comp name="--.HHZ">
      <acc value="0.1223231907" flag="0"/>
      <vel value="0.0307841576" flag="0"/>
      <psa03 value="0.1883748711" flag="0"/>
      <psa10 value="0.0097684776" flag="0"/>
      <psa30 value="0.0015438669" flag="0"/>
    </comp>
  </station>
</stationlist>
