<?xml version="1.0" encoding="UTF-8" standalone="yes"?>
<!DOCTYPE earthquake SYSTEM "stationlist.dtd">
<stationlist created="" xmlns="ch.ethz.sed.shakemap.usgs.xml">
  <station code="APE" name="APE" netid="GE" insttype="STS-2/N" lat="37.0727" lon="25.523">
    <comp name="--.HHN">
      <acc value="0.2102773366" flag="0"/>
      <vel value="0.0372981967" flag="0"/>
      <psa03 value="0.1594207060" flag="0"/>
      <psa10 value="0.0225414610" flag="0"/>
      <psa30 value="0.0023662428" flag="0"/>
    </comp>
    <comp name="--.HHE">
      <acc value="0.1812536181" flag="0"/>
      <vel value="0.0412065282" flag="0"/>
      <psa03 value="0.1580309571" flag="0"/>
      <psa10 value="0.0132657767" flag="0"/>
      <psa30 value="0.0011962522" flag="0"/>
    </comp>
    <comp name="--.HHZ">
      <acc value="0.0812449760" flag="0"/>
      <vel value="0.0187842907" flag="0"/>
      <psa03 value="0.0967496470" flag="0"/>
      <psa10 value="0.0128487396" flag="0"/>
      <psa30 value="0.0017523039" flag="0"/>
    </comp>
  </station>
  <station code="THERA" name="THERA" netid="GE" insttype="STS-2/N" lat="36.367" lon="25.4753">
    <comp name="--.HHE">
      <acc value="0.2001110836" flag="0"/>
      <vel value="0.0479371730" flag="0"/>
      <psa03 value="0.2103893688" flag="0"/>
      <psa10 value="0.0127738041" flag="0"/>
      <psa30 value="0.0024026361" flag="0"/>
    </comp>
    <comp name="--.HHN">
      <acc value="0.1084650707" flag="0"/>
      <vel value="0.0264275962" flag="0"/>
      <psa03 value="0.1433291590" flag="0"/>
      <psa10 value="0.0119680344" flag="0"/>
      <psa30 value="0.0011943659" flag="0"/>
    </comp>
    <comp name="--.HHZ">
      <acc value="0.1223231907" flag="0"/>
      <vel value="0.0307841576" flag="0"/>
      <psa03 value="0.1883748711" flag="0"/>
      <psa10 value="0.0097684776" flag="0"/>
      <psa30 value="0.0015438669" flag="0"/>
    </comp>
  </station>
  <station code="SERI" name="SERI" netid="HA" insttype="30" lat="37.1609" lon="24.4853">
    <comp name="--.HHE">
      <acc value="0.0236990593" flag="0"/>
      <vel value="0.0058918301" flag="0"/>
      <psa03 value="0.0270281576" flag="0"/>
      <psa10 value="0.0039373268" flag="0"/>
      <psa30 value="0.0005495091" flag="0"/>
    </comp>
    <comp name="--.HHZ">
      <acc value="0.0195155112" flag="0"/>
      <vel value="0.0050661997" flag="0"/>
      <psa03 value="0.0247265960" flag="0"/>
      <psa10 value="0.0036428095" flag="0"/>
      <psa30 value="0.0006863675" flag="0"/>
    </comp>
    <comp name="--.HHN">
      <acc value="0.0284820708" flag="0"/>
      <vel value="0.0080018784" flag="0"/>
      <psa03 value="0.0357662302" flag="0"/>
      <psa10 value="0.0096138200" flag="0"/>
      <psa30 value="0.0009426651" flag="0"/>
    </comp>
  </station>
  <station code="SNT1" name="SNT1" netid="HA" insttype="30" lat="36.4159" lon="25.4282">
    <comp name="--.HHN">
      <acc value="0.1158482001" flag="0"/>
      <vel value="0.0381747216" flag="0"/>
      <psa03 value="0.1324318257" flag="0"/>
      <psa10 value="0.0185367854" flag="0"/>
      <psa30 value="0.0027281446" flag="0"/>
    </comp>
    <comp name="--.HHZ">
      <acc value="0.0861464461" flag="0"/>
      <vel value="0.0221469690" flag="0"/>
      <psa03 value="0.1089493585" flag="0"/>
      <psa10 value="0.0179721059" flag="0"/>
      <psa30 value="0.0021324282" flag="0"/>
    </comp>
    <comp name="--.HHE">
      <acc value="0.1066597591" flag="0"/>
      <vel value="0.0311821929" flag="0"/>
      <psa03 value="0.1922276623" flag="0"/>
      <psa10 value="0.0203796533" flag="0"/>
      <psa30 value="0.0034599299" flag="0"/>
    </comp>
  </station>
  <station code="SNT5" name="SNT5" netid="HA" insttype="1s-100Hz," lat="36.4037" lon="25.3953">
    <comp name="--.HHZ">
      <acc value="0.1653907576" flag="0"/>
      <vel value="0.0323491398" flag="0"/>
      <psa03 value="0.1010417848" flag="0"/>
      <psa10 value="0.0094388006" flag="0"/>
      <psa30 value="0.0013747796" flag="0"/>
    </comp>
    <comp name="--.HHE">
      <acc value="0.4790017860" flag="0"/>
      <vel value="0.0919421389" flag="0"/>
      <psa03 value="0.3313140769" flag="0"/>
      <psa10 value="0.0337949852" flag="0"/>
      <psa30 value="0.0044357846" flag="0"/>
    </comp>
    <comp name="--.HHN">
      <acc value="0.2932440234" flag="0"/>
      <vel value="0.0718057426" flag="0"/>
      <psa03 value="0.4147710108" flag="0"/>
      <psa10 value="0.0151334896" flag="0"/>
      <psa30 value="0.0035859256" flag="0"/>
    </comp>
  </station>
  <station code="NAX1" name="NAX1" netid="HI" insttype="CMG-5TD,ACCELEROMETER,GURALP" lat="37.1014" lon="25.3741">
    <comp name="--.HNN">
      <acc value="0.0965141528" flag="0"/>
      <vel value="0.0443883886" flag="0"/>
      <psa03 value="0.1491745647" flag="0"/>
      <psa10 value="0.0222216221" flag="0"/>
      <psa30 value="0.0018407046" flag="0"/>
    </comp>
    <comp name="--.HNE">
      <acc value="0.0921098152" flag="0"/>
      <vel value="0.0331143388" flag="0"/>
      <psa03 value="0.2140862267" flag="0"/>
      <psa10 value="0.0103923013" flag="0"/>
      <psa30 value="0.0011111556" flag="0"/>
    </comp>
    <comp name="--.HNZ">
      <acc value="0.0787173973" flag="0"/>
      <vel value="0.0350761037" flag="0"/>
      <psa03 value="0.1693562432" flag="0"/>
      <psa10 value="0.0158229670" flag="0"/>
      <psa30 value="0.0015758289" flag="0"/>
    </comp>
  </station>
  <station code="SFR2" name="SFR2" netid="HI" insttype="unknown" lat="36.3998" lon="25.4382">
    <comp name="--.HNE">
      <acc value="0.3163075856" flag="0"/>
      <vel value="0.0847124895" flag="0"/>
      <psa03 value="0.7004432013" flag="0"/>
      <psa10 value="0.0704124230" flag="0"/>
      <psa30 value="0.0046464366" flag="0"/>
    </comp>
    <comp name="--.HNZ">
      <acc value="0.3317969526" flag="0"/>
      <vel value="0.0800803633" flag="0"/>
      <psa03 value="0.5313383174" flag="0"/>
      <psa10 value="0.0299677526" flag="0"/>
      <psa30 value="0.0036014054" flag="0"/>
    </comp>
  </station>
  <station code="AMGA" name="AMGA" netid="HL" insttype="SMART24" lat="36.8316" lon="25.8938">
    <comp name="--.HHE">
      <acc value="1.0315182570" flag="0"/>
      <vel value="0.2738799914" flag="0"/>
      <psa03 value="0.8174474055" flag="0"/>
      <psa10 value="0.0671162324" flag="0"/>
      <psa30 value="0.0058193789" flag="0"/>
    </comp>
    <comp name="--.HHZ">
      <acc value="0.5465846267" flag="0"/>
      <vel value="0.1287793599" flag="0"/>
      <psa03 value="0.3748359454" flag="0"/>
      <psa10 value="0.0547894868" flag="0"/>
      <psa30 value="0.0055491061" flag="0"/>
    </comp>
    <comp name="--.HHN">
      <acc value="0.7804964274" flag="0"/>
      <vel value="0.1770212666" flag="0"/>
      <psa03 value="0.5045823164" flag="0"/>
      <psa10 value="0.0989253989" flag="0"/>
      <psa30 value="0.0078287495" flag="0"/>
    </comp>
  </station>
  <station code="APE" name="APE" netid="HL" insttype="120" lat="37.0727" lon="25.523">
    <comp name="--.HHE">
      <acc value="0.1546137224" flag="0"/>
      <vel value="0.0391858265" flag="0"/>
      <psa03 value="0.1544801637" flag="0"/>
      <psa10 value="0.0131687385" flag="0"/>
      <psa30 value="0.0011914499" flag="0"/>
    </comp>
    <comp name="--.HHN">
      <acc value="0.1692681967" flag="0"/>
      <vel value="0.0356833774" flag="0"/>
      <psa03 value="0.1533587765" flag="0"/>
      <psa10 value="0.0222774546" flag="0"/>
      <psa30 value="0.0023515444" flag="0"/>
    </comp>
    <comp name="--.HHZ">
      <acc value="0.0693077271" flag="0"/>
      <vel value="0.0180527212" flag="0"/>
      <psa03 value="0.0939344913" flag="0"/>
      <psa10 value="0.0127476491" flag="0"/>
      <psa30 value="0.0017499515" flag="0"/>
    </comp>
  </station>
  <station code="ASTA" name="ASTA" netid="HL" insttype="CMG-5" lat="36.5455" lon="26.3529">
    <comp name="00.HNN">
      <acc value="0.0999946655" flag="0"/>
      <vel value="0.0291577567" flag="0"/>
      <psa03 value="0.1002314444" flag="0"/>
      <psa10 value="0.0135041521" flag="0"/>
      <psa30 value="0.0011466878" flag="0"/>
    </comp>
    <comp name="00.HNE">
      <acc value="0.0713483610" flag="0"/>
      <vel value="0.0214231560" flag="0"/>
      <psa03 value="0.0832931692" flag="0"/>
      <psa10 value="0.0154250852" flag="0"/>
      <psa30 value="0.0008333864" flag="0"/>
    </comp>
    <comp name="00.HNZ">
      <acc value="0.0574222803" flag="0"/>
      <vel value="0.0194601995" flag="0"/>
      <psa03 value="0.0900552407" flag="0"/>
      <psa10 value="0.0082947908" flag="0"/>
      <psa30 value="0.0008638972" flag="0"/>
    </comp>
  </station>
  <station code="MHLO" name="MHLO" netid="HL" insttype="20" lat="36.6898" lon="24.4017">
    <comp name="--.HHE">
      <acc value="0.0557315434" flag="0"/>
      <vel value="0.0264969146" flag="0"/>
      <psa03 value="0.1658888521" flag="0"/>
      <psa10 value="0.0540497412" flag="0"/>
      <psa30 value="0.0023476326" flag="0"/>
    </comp>
    <comp name="--.HHZ">
      <acc value="0.0218175951" flag="0"/>
      <vel value="0.0198179901" flag="0"/>
      <psa03 value="0.0586672825" flag="0"/>
      <psa10 value="0.0344436722" flag="0"/>
      <psa30 value="0.0017119076" flag="0"/>
    </comp>
    <comp name="--.HHN">
      <acc value="0.0405218445" flag="0"/>
      <vel value="0.0292761105" flag="0"/>
      <psa03 value="0.1516263668" flag="0"/>
      <psa10 value="0.0645108419" flag="0"/>
      <psa30 value="0.0020225452" flag="0"/>
    </comp>
  </station>
  <station code="MILA" name="MILA" netid="HL" insttype="CMG-5" lat="36.7429" lon="24.4282">
    <comp name="00.HNE">
      <acc value="0.0559772886" flag="0"/>
      <vel value="0.0224411582" flag="0"/>
      <psa03 value="0.1495301966" flag="0"/>
      <psa10 value="0.0323142069" flag="0"/>
      <psa30 value="0.0017544334" flag="0"/>
    </comp>
    <comp name="00.HNN">
      <acc value="0.0773205698" flag="0"/>
      <vel value="0.0333239691" flag="0"/>
      <psa03 value="0.2043654803" flag="0"/>
      <psa10 value="0.0369168503" flag="0"/>
      <psa30 value="0.0020440437" flag="0"/>
    </comp>
    <comp name="00.HNZ">
      <acc value="0.0509863565" flag="0"/>
      <vel value="0.0201222398" flag="0"/>
      <psa03 value="0.0757158717" flag="0"/>
      <psa10 value="0.0353161005" flag="0"/>
      <psa30 value="0.0012597320" flag="0"/>
    </comp>
  </station>
  <station code="SAP3" name="SAP3" netid="HL" insttype="65535" lat="36.4356" lon="25.3454">
    <comp name="--.HHE">
      <acc value="0.1232151375" flag="0"/>
      <vel value="0.0401408279" flag="0"/>
      <psa03 value="0.1705844691" flag="0"/>
      <psa10 value="0.0286828963" flag="0"/>
      <psa30 value="0.0034045404" flag="0"/>
    </comp>
    <comp name="--.HHN">
      <acc value="0.1023963724" flag="0"/>
      <vel value="0.0334306678" flag="0"/>
      <psa03 value="0.1800685891" flag="0"/>
      <psa10 value="0.0255362702" flag="0"/>
      <psa30 value="0.0021393315" flag="0"/>
    </comp>
    <comp name="--.HHZ">
      <acc value="0.1260451878" flag="0"/>
      <vel value="0.0372188687" flag="0"/>
      <psa03 value="0.1208256166" flag="0"/>
      <psa10 value="0.0089241179" flag="0"/>
      <psa30 value="0.0015757022" flag="0"/>
    </comp>
  </station>
  <station code="THERA" name="THERA" netid="HL" insttype="120" lat="36.367" lon="25.4753">
    <comp name="--.HHN">
      <acc value="0.2151993634" flag="0"/>
      <vel value="0.0517366090" flag="0"/>
      <psa03 value="0.2784439042" flag="0"/>
      <psa10 value="0.0237813977" flag="0"/>
      <psa30 value="0.0023831276" flag="0"/>
    </comp>
    <comp name="--.HHE">
      <acc value="0.1938087278" flag="0"/>
      <vel value="0.0463831536" flag="0"/>
      <psa03 value="0.2040456401" flag="0"/>
      <psa10 value="0.0125581893" flag="0"/>
      <psa30 value="0.0023978266" flag="0"/>
    </comp>
    <comp name="--.HHZ">
      <acc value="0.1213253245" flag="0"/>
      <vel value="0.0295735927" flag="0"/>
      <psa03 value="0.1832868959" flag="0"/>
      <psa10 value="0.0096708926" flag="0"/>
      <psa30 value="0.0015430898" flag="0"/>
    </comp>
  </station>
  <station code="THRA" name="THRA" netid="HL" insttype="CMG-5" lat="36.415" lon="25.4324">
    <comp name="00.HNN">
      <acc value="0.3632339119" flag="0"/>
      <vel value="0.1227083503" flag="0"/>
      <psa03 value="0.7648921138" flag="0"/>
      <psa10 value="0.0451104932" flag="0"/>
      <psa30 value="0.0047975432" flag="0"/>
    </comp>
    <comp name="00.HNZ">
      <acc value="0.3654719099" flag="0"/>
      <vel value="0.0916305254" flag="0"/>
      <psa03 value="0.5927612191" flag="0"/>
      <psa10 value="0.0327409934" flag="0"/>
      <psa30 value="0.0032108571" flag="0"/>
    </comp>
    <comp name="00.HNE">
      <acc value="0.4997481345" flag="0"/>
      <vel value="0.1263338149" flag="0"/>
      <psa03 value="0.8873487010" flag="0"/>
      <psa10 value="0.0531135756" flag="0"/>
      <psa30 value="0.0067080912" flag="0"/>
    </comp>
  </station>
  <station code="TNSA" name="TNSA" netid="HL" insttype="CMG-5" lat="37.5394" lon="25.1631">
    <comp name="00.HNN">
      <acc value="0.0546098154" flag="0"/>
      <vel value="0.0176998216" flag="0"/>
      <psa03 value="0.0656989518" flag="0"/>
      <psa10 value="0.0102609278" flag="0"/>
      <psa30 value="0.0009320673" flag="0"/>
    </comp>
    <comp name="00.HNZ">
      <acc value="0.0414823780" flag="0"/>
      <vel value="0.0127973384" flag="0"/>
      <psa03 value="0.0471089452" flag="0"/>
      <psa10 value="0.0094664978" flag="0"/>
      <psa30 value="0.0013344362" flag="0"/>
    </comp>
    <comp name="00.HNE">
      <acc value="0.0435226308" flag="0"/>
      <vel value="0.0123550586" flag="0"/>
      <psa03 value="0.0439920364" flag="0"/>
      <psa10 value="0.0084345388" flag="0"/>
      <psa30 value="0.0006970575" flag="0"/>
    </comp>
  </station>
  <station code="AKRO" name="AKRO" netid="HT" insttype="Compact," lat="36.3584" lon="25.3967">
    <comp name="--.HHE">
      <acc value="0.8365613159" flag="0"/>
      <vel value="0.1758305013" flag="0"/>
      <psa03 value="0.7105812872" flag="0"/>
      <psa10 value="0.0341042357" flag="0"/>
      <psa30 value="0.0036286295" flag="0"/>
    </comp>
    <comp name="--.HHN">
      <acc value="0.5969504848" flag="0"/>
      <vel value="0.1197818798" flag="0"/>
      <psa03 value="0.4227603890" flag="0"/>
      <psa10 value="0.0380241849" flag="0"/>
      <psa30 value="0.0026875857" flag="0"/>
    </comp>
    <comp name="--.HHZ">
      <acc value="0.3801226953" flag="0"/>
      <vel value="0.0833644175" flag="0"/>
      <psa03 value="0.4071886442" flag="0"/>
      <psa10 value="0.0175350371" flag="0"/>
      <psa30 value="0.0016188070" flag="0"/>
    </comp>
  </station>
  <station code="CMBO" name="CMBO" netid="HT" insttype="120P," lat="36.4709" lon="25.4056">
    <comp name="--.HHE">
      <acc value="0.1442117521" flag="0"/>
      <vel value="0.0414595263" flag="0"/>
      <psa03 value="0.2381403186" flag="0"/>
      <psa10 value="0.0334728920" flag="0"/>
      <psa30 value="0.0021503985" flag="0"/>
    </comp>
    <comp name="--.HHN">
      <acc value="0.1922205084" flag="0"/>
      <vel value="0.0587932279" flag="0"/>
      <psa03 value="0.2212180471" flag="0"/>
      <psa10 value="0.0377424286" flag="0"/>
      <psa30 value="0.0024928486" flag="0"/>
    </comp>
    <comp name="--.HHZ">
      <acc value="0.1536398979" flag="0"/>
      <vel value="0.0489678844" flag="0"/>
      <psa03 value="0.2383250500" flag="0"/>
      <psa10 value="0.0138943459" flag="0"/>
      <psa30 value="0.0019352021" flag="0"/>
    </comp>
  </station>
</stationlist>
