<?xml version="1.0" encoding="UTF-8" standalone="yes"?>
<!DOCTYPE earthquake SYSTEM "stationlist.dtd">
<stationlist created="" xmlns="ch.ethz.sed.shakemap.usgs.xml">
  <station code="APE" name="APE" netid="GE" insttype="STS-2/N" lat="37.0727" lon="25.523">
    <comp name="--.HHE">
      <acc value="0.1812536181" flag="0"/>
      <vel value="0.0412065276" flag="0"/>
      <psa03 value="0.1580309571" flag="0"/>
      <psa10 value="0.0132657766" flag="0"/>
      <psa30 value="0.0011961629" flag="0"/>
    </comp>
    <comp name="--.HHZ">
      <acc value="0.0812449758" flag="0"/>
      <vel value="0.0187842909" flag="0"/>
      <psa03 value="0.0967496470" flag="0"/>
      <psa10 value="0.0128487402" flag="0"/>
      <psa30 value="0.0017523624" flag="0"/>
    </comp>
    <comp name="--.HHN">
      <acc value="0.2102773363" flag="0"/>
      <vel value="0.0372981973" flag="0"/>
      <psa03 value="0.1594207060" flag="0"/>
      <psa10 value="0.0225414613" flag="0"/>
      <psa30 value="0.0023662319" flag="0"/>
    </comp>
  </station>
  <station code="THERA" name="THERA" netid="GE" insttype="STS-2/N" lat="36.367" lon="25.4753">
    <comp name="--.HHN">
      <acc value="0.1084650711" flag="0"/>
      <vel value="0.0264275957" flag="0"/>
      <psa03 value="0.1433291590" flag="0"/>
      <psa10 value="0.0119680346" flag="0"/>
      <psa30 value="0.0011943240" flag="0"/>
    </comp>
    <comp name="--.HHE">
      <acc value="0.2001110835" flag="0"/>
      <vel value="0.0479371750" flag="0"/>
      <psa03 value="0.2103893688" flag="0"/>
      <psa10 value="0.0127738062" flag="0"/>
      <psa30 value="0.0024027392" flag="0"/>
    </comp>
    <comp name="--.HHZ">
      <acc value="0.1223231904" flag="0"/>
      <vel value="0.0307841584" flag="0"/>
      <psa03 value="0.1883748711" flag="0"/>
      <psa10 value="0.0097684843" flag="0"/>
      <psa30 value="0.0015437107" flag="0"/>
    </comp>
  </station>
  <station code="SERI" name="SERI" netid="HA" insttype="30" lat="37.1609" lon="24.4853">
    <comp name="--.HHE">
      <acc value="0.0236990592" flag="0"/>
      <vel value="0.0058918291" flag="0"/>
      <psa03 value="0.0270281576" flag="0"/>
      <psa10 value="0.0039373268" flag="0"/>
      <psa30 value="0.0005495137" flag="0"/>
    </comp>
    <comp name="--.HHZ">
      <acc value="0.0195155113" flag="0"/>
      <vel value="0.0050661962" flag="0"/>
      <psa03 value="0.0247265960" flag="0"/>
      <psa10 value="0.0036428095" flag="0"/>
      <psa30 value="0.0006863459" flag="0"/>
    </comp>
    <comp name="--.HHN">
      <acc value="0.0284820704" flag="0"/>
      <vel value="0.0080018781" flag="0"/>
      <psa03 value="0.0357662302" flag="0"/>
      <psa10 value="0.0096138200" flag="0"/>
      <psa30 value="0.0009426620" flag="0"/>
    </comp>
  </station>
  <station code="SNT1" name="SNT1" netid="HA" insttype="30" lat="36.4159" lon="25.4282">
    <comp name="--.HHE">
      <acc value="0.1066597590" flag="0"/>
      <vel value="0.0311821961" flag="0"/>
      <psa03 value="0.1922276623" flag="0"/>
      <psa10 value="0.0203796532" flag="0"/>
      <psa30 value="0.0034598454" flag="0"/>
    </comp>
    <comp name="--.HHN">
      <acc value="0.1158482000" flag="0"/>
      <vel value="0.0381746919" flag="0"/>
      <psa03 value="0.1324318256" flag="0"/>
      <psa10 value="0.0185367842" flag="0"/>
      <psa30 value="0.0027282026" flag="0"/>
    </comp>
    <comp name="--.HHZ">
      <acc value="0.0861464460" flag="0"/>
      <vel value="0.0221469657" flag="0"/>
      <psa03 value="0.1089493585" flag="0"/>
      <psa10 value="0.0179721062" flag="0"/>
      <psa30 value="0.0021325247" flag="0"/>
    </comp>
  </station>
  <station code="SNT5" name="SNT5" netid="HA" insttype="1s-100Hz," lat="36.4037" lon="25.3953">
    <comp name="--.HHE">
      <acc value="0.4790017861" flag="0"/>
      <vel value="0.0919423800" flag="0"/>
      <psa03 value="0.3313140769" flag="0"/>
      <psa10 value="0.0337949865" flag="0"/>
      <psa30 value="0.0044355989" flag="0"/>
    </comp>
    <comp name="--.HHZ">
      <acc value="0.1653907611" flag="0"/>
      <vel value="0.0323480143" flag="0"/>
      <psa03 value="0.1010417884" flag="0"/>
      <psa10 value="0.0094387987" flag="0"/>
      <psa30 value="0.0013755364" flag="0"/>
    </comp>
    <comp name="--.HHN">
      <acc value="0.2932440245" flag="0"/>
      <vel value="0.0718053377" flag="0"/>
      <psa03 value="0.4147710098" flag="0"/>
      <psa10 value="0.0151334894" flag="0"/>
      <psa30 value="0.0035858893" flag="0"/>
    </comp>
  </station>
  <station code="NAX1" name="NAX1" netid="HI" insttype="CMG-5TD,ACCELEROMETER,GURALP" lat="37.1014" lon="25.3741">
    <comp name="--.HNE">
      <acc value="0.0921098160" flag="0"/>
      <vel value="0.0331143385" flag="0"/>
      <psa03 value="0.2140862267" flag="0"/>
      <psa10 value="0.0103923010" flag="0"/>
      <psa30 value="0.0011108200" flag="0"/>
    </comp>
    <comp name="--.HNN">
      <acc value="0.0965141520" flag="0"/>
      <vel value="0.0443883882" flag="0"/>
      <psa03 value="0.1491745647" flag="0"/>
      <psa10 value="0.0222216214" flag="0"/>
      <psa30 value="0.0018406311" flag="0"/>
    </comp>
    <comp name="--.HNZ">
      <acc value="0.0787173969" flag="0"/>
      <vel value="0.0350761035" flag="0"/>
      <psa03 value="0.1693562432" flag="0"/>
      <psa10 value="0.0158229668" flag="0"/>
      <psa30 value="0.0015758384" flag="0"/>
    </comp>
  </station>
  <station code="SFR2" name="SFR2" netid="HI" insttype="unknown" lat="36.3998" lon="25.4382">
    <comp name="--.HNN">
      <acc value="0.3554455689" flag="0"/>
      <vel value="0.0984617499" flag="0"/>
      <psa03 value="0.6489298856" flag="0"/>
      <psa10 value="0.0495195249" flag="0"/>
      <psa30 value="0.0041823249" flag="0"/>
    </comp>
    <comp name="--.HNE">
      <acc value="0.3163076221" flag="0"/>
      <vel value="0.0847124935" flag="0"/>
      <psa03 value="0.7004432013" flag="0"/>
      <psa10 value="0.0704124142" flag="0"/>
      <psa30 value="0.0046539091" flag="0"/>
    </comp>
    <comp name="--.HNZ">
      <acc value="0.3317969530" flag="0"/>
      <vel value="0.0800803642" flag="0"/>
      <psa03 value="0.5313383174" flag="0"/>
      <psa10 value="0.0299677519" flag="0"/>
      <psa30 value="0.0036015955" flag="0"/>
    </comp>
  </station>
  <station code="AMGA" name="AMGA" netid="HL" insttype="SMART24" lat="36.8316" lon="25.8938">
    <comp name="--.HHE">
      <acc value="1.0315182569" flag="0"/>
      <vel value="0.2738799689" flag="0"/>
      <psa03 value="0.8174474055" flag="0"/>
      <psa10 value="0.0671162266" flag="0"/>
      <psa30 value="0.0058193212" flag="0"/>
    </comp>
    <comp name="--.HHZ">
      <acc value="0.5465846263" flag="0"/>
      <vel value="0.1287793540" flag="0"/>
      <psa03 value="0.3748359454" flag="0"/>
      <psa10 value="0.0547894911" flag="0"/>
      <psa30 value="0.0055489912" flag="0"/>
    </comp>
    <comp name="--.HHN">
      <acc value="0.7804964277" flag="0"/>
      <vel value="0.1770212787" flag="0"/>
      <psa03 value="0.5045823164" flag="0"/>
      <psa10 value="0.0989253931" flag="0"/>
      <psa30 value="0.0078291230" flag="0"/>
    </comp>
  </station>
  <station code="APE" name="APE" netid="HL" insttype="120" lat="37.0727" lon="25.523">
    <comp name="--.HHN">
      <acc value="0.1692681965" flag="0"/>
      <vel value="0.0356833772" flag="0"/>
      <psa03 value="0.1533587765" flag="0"/>
      <psa10 value="0.0222774545" flag="0"/>
      <psa30 value="0.0023515336" flag="0"/>
    </comp>
    <comp name="--.HHE">
      <acc value="0.1546137224" flag="0"/>
      <vel value="0.0391858249" flag="0"/>
      <psa03 value="0.1544801637" flag="0"/>
      <psa10 value="0.0131687383" flag="0"/>
      <psa30 value="0.0011915881" flag="0"/>
    </comp>
    <comp name="--.HHZ">
      <acc value="0.0693077270" flag="0"/>
      <vel value="0.0180527215" flag="0"/>
      <psa03 value="0.0939344913" flag="0"/>
      <psa10 value="0.0127476491" flag="0"/>
      <psa30 value="0.0017499032" flag="0"/>
    </comp>
  </station>
  <station code="ASTA" name="ASTA" netid="HL" insttype="CMG-5" lat="36.5455" lon="26.3529">
    <comp name="00.HNN">
      <acc value="0.0999946648" flag="0"/>
      <vel value="0.0291577567" flag="0"/>
      <psa03 value="0.1002314444" flag="0"/>
      <psa10 value="0.0135041529" flag="0"/>
      <psa30 value="0.0011467620" flag="0"/>
    </comp>
    <comp name="00.HNE">
      <acc value="0.0713483597" flag="0"/>
      <vel value="0.0214231513" flag="0"/>
      <psa03 value="0.0832931692" flag="0"/>
      <psa10 value="0.0154250855" flag="0"/>
      <psa30 value="0.0008332264" flag="0"/>
    </comp>
    <comp name="00.HNZ">
      <acc value="0.0574222817" flag="0"/>
      <vel value="0.0194601983" flag="0"/>
      <psa03 value="0.0900552407" flag="0"/>
      <psa10 value="0.0082947932" flag="0"/>
      <psa30 value="0.0008638722" flag="0"/>
    </comp>
  </station>
  <station code="MHLO" name="MHLO" netid="HL" insttype="20" lat="36.6898" lon="24.4017">
    <comp name="--.HHZ">
      <acc value="0.0218175951" flag="0"/>
      <vel value="0.0198179889" flag="0"/>
      <psa03 value="0.0586672825" flag="0"/>
      <psa10 value="0.0344436723" flag="0"/>
      <psa30 value="0.0017119560" flag="0"/>
    </comp>
    <comp name="--.HHN">
      <acc value="0.0405218447" flag="0"/>
      <vel value="0.0292760971" flag="0"/>
      <psa03 value="0.1516263668" flag="0"/>
      <psa10 value="0.0645108416" flag="0"/>
      <psa30 value="0.0020224112" flag="0"/>
    </comp>
    <comp name="--.HHE">
      <acc value="0.0557315435" flag="0"/>
      <vel value="0.0264969376" flag="0"/>
      <psa03 value="0.1658888521" flag="0"/>
      <psa10 value="0.0540497411" flag="0"/>
      <psa30 value="0.0023479175" flag="0"/>
    </comp>
  </station>
  <station code="MILA" name="MILA" netid="HL" insttype="CMG-5" lat="36.7429" lon="24.4282">
    <comp name="00.HNE">
      <acc value="0.0559772893" flag="0"/>
      <vel value="0.0224411620" flag="0"/>
      <psa03 value="0.1495301966" flag="0"/>
      <psa10 value="0.0323142069" flag="0"/>
      <psa30 value="0.0017545243" flag="0"/>
    </comp>
    <comp name="00.HNN">
      <acc value="0.0773205696" flag="0"/>
      <vel value="0.0333239703" flag="0"/>
      <psa03 value="0.2043654803" flag="0"/>
      <psa10 value="0.0369168500" flag="0"/>
      <psa30 value="0.0020439214" flag="0"/>
    </comp>
    <comp name="00.HNZ">
      <acc value="0.0509863556" flag="0"/>
      <vel value="0.0201222419" flag="0"/>
      <psa03 value="0.0757158717" flag="0"/>
      <psa10 value="0.0353161005" flag="0"/>
      <psa30 value="0.0012598873" flag="0"/>
    </comp>
  </station>
  <station code="SAP3" name="SAP3" netid="HL" insttype="65535" lat="36.4356" lon="25.3454">
    <comp name="--.HHN">
      <acc value="0.1023963725" flag="0"/>
      <vel value="0.0334306618" flag="0"/>
      <psa03 value="0.1800685891" flag="0"/>
      <psa10 value="0.0255362708" flag="0"/>
      <psa30 value="0.0021412249" flag="0"/>
    </comp>
    <comp name="--.HHZ">
      <acc value="0.1260451879" flag="0"/>
      <vel value="0.0372188660" flag="0"/>
      <psa03 value="0.1208256166" flag="0"/>
      <psa10 value="0.0089241140" flag="0"/>
      <psa30 value="0.0015753408" flag="0"/>
    </comp>
    <comp name="--.HHE">
      <acc value="0.1232151374" flag="0"/>
      <vel value="0.0401408310" flag="0"/>
      <psa03 value="0.1705844691" flag="0"/>
      <psa10 value="0.0286828965" flag="0"/>
      <psa30 value="0.0034052915" flag="0"/>
    </comp>
  </station>
  <station code="THERA" name="THERA" netid="HL" insttype="120" lat="36.367" lon="25.4753">
    <comp name="--.HHE">
      <acc value="0.1938087277" flag="0"/>
      <vel value="0.0463831551" flag="0"/>
      <psa03 value="0.2040456401" flag="0"/>
      <psa10 value="0.0125581906" flag="0"/>
      <psa30 value="0.0023978996" flag="0"/>
    </comp>
    <comp name="--.HHN">
      <acc value="0.2151993640" flag="0"/>
      <vel value="0.0517366104" flag="0"/>
      <psa03 value="0.2784439042" flag="0"/>
      <psa10 value="0.0237813981" flag="0"/>
      <psa30 value="0.0023831034" flag="0"/>
    </comp>
    <comp name="--.HHZ">
      <acc value="0.1213253242" flag="0"/>
      <vel value="0.0295735944" flag="0"/>
      <psa03 value="0.1832868959" flag="0"/>
      <psa10 value="0.0096708942" flag="0"/>
      <psa30 value="0.0015429283" flag="0"/>
    </comp>
  </station>
  <station code="THRA" name="THRA" netid="HL" insttype="CMG-5" lat="36.415" lon="25.4324">
    <comp name="00.HNN">
      <acc value="0.3632339115" flag="0"/>
      <vel value="0.1227083451" flag="0"/>
      <psa03 value="0.7648921138" flag="0"/>
      <psa10 value="0.0451104930" flag="0"/>
      <psa30 value="0.0047979589" flag="0"/>
    </comp>
    <comp name="00.HNE">
      <acc value="0.4997481352" flag="0"/>
      <vel value="0.1263338139" flag="0"/>
      <psa03 value="0.8873487010" flag="0"/>
      <psa10 value="0.0531135776" flag="0"/>
      <psa30 value="0.0067081158" flag="0"/>
    </comp>
    <comp name="00.HNZ">
      <acc value="0.3654719097" flag="0"/>
      <vel value="0.0916305249" flag="0"/>
      <psa03 value="0.5927612191" flag="0"/>
      <psa10 value="0.0327410023" flag="0"/>
      <psa30 value="0.0032108180" flag="0"/>
    </comp>
  </station>
  <station code="TNSA" name="TNSA" netid="HL" insttype="CMG-5" lat="37.5394" lon="25.1631">
    <comp name="00.HNE">
      <acc value="0.0435226302" flag="0"/>
      <vel value="0.0123550576" flag="0"/>
      <psa03 value="0.0439920364" flag="0"/>
      <psa10 value="0.0084345386" flag="0"/>
      <psa30 value="0.0006970881" flag="0"/>
    </comp>
    <comp name="00.HNN">
      <acc value="0.0546098146" flag="0"/>
      <vel value="0.0176998223" flag="0"/>
      <psa03 value="0.0656989518" flag="0"/>
      <psa10 value="0.0102609272" flag="0"/>
      <psa30 value="0.0009319968" flag="0"/>
    </comp>
    <comp name="00.HNZ">
      <acc value="0.0414823784" flag="0"/>
      <vel value="0.0127973409" flag="0"/>
      <psa03 value="0.0471089452" flag="0"/>
      <psa10 value="0.0094664966" flag="0"/>
      <psa30 value="0.0013346121" flag="0"/>
    </comp>
  </station>
  <station code="AKRO" name="AKRO" netid="HT" insttype="Compact," lat="36.3584" lon="25.3967">
    <comp name="--.HHE">
      <acc value="0.8365613157" flag="0"/>
      <vel value="0.1758305001" flag="0"/>
      <psa03 value="0.7105812872" flag="0"/>
      <psa10 value="0.0341042437" flag="0"/>
      <psa30 value="0.0036284020" flag="0"/>
    </comp>
    <comp name="--.HHN">
      <acc value="0.5969504848" flag="0"/>
      <vel value="0.1197818711" flag="0"/>
      <psa03 value="0.4227603890" flag="0"/>
      <psa10 value="0.0380241848" flag="0"/>
      <psa30 value="0.0026891684" flag="0"/>
    </comp>
    <comp name="--.HHZ">
      <acc value="0.3801226951" flag="0"/>
      <vel value="0.0833644165" flag="0"/>
      <psa03 value="0.4071886442" flag="0"/>
      <psa10 value="0.0175350354" flag="0"/>
      <psa30 value="0.0016190974" flag="0"/>
    </comp>
  </station>
  <station code="CMBO" name="CMBO" netid="HT" insttype="120P," lat="36.4709" lon="25.4056">
    <comp name="--.HHZ">
      <acc value="0.1536398979" flag="0"/>
      <vel value="0.0489678827" flag="0"/>
      <psa03 value="0.2383250500" flag="0"/>
      <psa10 value="0.0138943479" flag="0"/>
      <psa30 value="0.0019351350" flag="0"/>
    </comp>
    <comp name="--.HHN">
      <acc value="0.1922205084" flag="0"/>
      <vel value="0.0587932309" flag="0"/>
      <psa03 value="0.2212180471" flag="0"/>
      <psa10 value="0.0377424235" flag="0"/>
      <psa30 value="0.0024940973" flag="0"/>
    </comp>
    <comp name="--.HHE">
      <acc value="0.1442117521" flag="0"/>
      <vel value="0.0414595246" flag="0"/>
      <psa03 value="0.2381403186" flag="0"/>
      <psa10 value="0.0334728919" flag="0"/>
      <psa30 value="0.0021503215" flag="0"/>
    </comp>
  </station>
</stationlist>
