<?xml version="1.0" encoding="UTF-8" standalone="yes"?>
<!DOCTYPE earthquake SYSTEM "stationlist.dtd">
<stationlist created="" xmlns="ch.ethz.sed.shakemap.usgs.xml">
  <station code="IMOD" name="IMOD" netid="HC" insttype="120" lat="34.9731" lon="24.7995">
    <comp name="--.HHE">
      <acc value="0.0130869557" flag="0"/>
      <vel value="0.0088028011" flag="0"/>
      <psa03 value="0.0404628334" flag="0"/>
      <psa10 value="0.0116256608" flag="0"/>
      <psa30 value="0.0005877736" flag="0"/>
    </comp>
    <comp name="--.HHZ">
      <acc value="0.0120161542" flag="0"/>
      <vel value="0.0057054055" flag="0"/>
      <psa03 value="0.0257403782" flag="0"/>
      <psa10 value="0.0048131678" flag="0"/>
      <psa30 value="0.0002703907" flag="0"/>
    </comp>
    <comp name="--.HHN">
      <acc value="0.0214989960" flag="0"/>
      <vel value="0.0153897343" flag="0"/>
      <psa03 value="0.0777546144" flag="0"/>
      <psa10 value="0.0099508513" flag="0"/>
      <psa30 value="0.0009536883" flag="0"/>
    </comp>
  </station>
  <station code="PFKS" name="PFKS" netid="HC" insttype="120" lat="35.0429" lon="25.4733">
    <comp name="--.HHE">
      <acc value="0.0162449729" flag="0"/>
      <vel value="0.0123285689" flag="0"/>
      <psa03 value="0.0675589189" flag="0"/>
      <psa10 value="0.0147729698" flag="0"/>
      <psa30 value="0.0010719077" flag="0"/>
    </comp>
    <comp name="--.HHZ">
      <acc value="0.0137809526" flag="0"/>
      <vel value="0.0081511392" flag="0"/>
      <psa03 value="0.0463042797" flag="0"/>
      <psa10 value="0.0083643423" flag="0"/>
      <psa30 value="0.0004510383" flag="0"/>
    </comp>
    <comp name="--.HHN">
      <acc value="0.0288538247" flag="0"/>
      <vel value="0.0155025131" flag="0"/>
      <psa03 value="0.0676958138" flag="0"/>
      <psa10 value="0.0091535957" flag="0"/>
      <psa30 value="0.0005861569" flag="0"/>
    </comp>
  </station>
  <station code="STIA" name="STIA" netid="HC" insttype="120" lat="35.2021" lon="26.0909">
    <comp name="--.HHN">
      <acc value="0.0000000000" flag="0"/>
      <vel value="-100.0000000000" flag="0"/>
      <psa03 value="0.0000000000" flag="0"/>
      <psa10 value="0.0000000000" flag="0"/>
      <psa30 value="0.0000000000" flag="0"/>
    </comp>
    <comp name="--.HHE">
      <acc value="0.0046940149" flag="0"/>
      <vel value="0.0044138649" flag="0"/>
      <psa03 value="0.0125798613" flag="0"/>
      <psa10 value="0.0044834677" flag="0"/>
      <psa30 value="0.0003410126" flag="0"/>
    </comp>
    <comp name="--.HHZ">
      <acc value="0.0033269625" flag="0"/>
      <vel value="0.0024368941" flag="0"/>
      <psa03 value="0.0113494871" flag="0"/>
      <psa10 value="0.0026938307" flag="0"/>
      <psa30 value="0.0002761979" flag="0"/>
    </comp>
  </station>
  <station code="TEFL" name="TEFL" netid="HC" insttype="GEOtiny," lat="35.0933" lon="25.1634">
    <comp name="--.HHE">
      <acc value="0.0235263703" flag="0"/>
      <vel value="0.0112971578" flag="0"/>
      <psa03 value="0.0492906201" flag="0"/>
      <psa10 value="0.0184395372" flag="0"/>
      <psa30 value="0.0010696086" flag="0"/>
    </comp>
    <comp name="--.HHZ">
      <acc value="0.0176894132" flag="0"/>
      <vel value="0.0062244522" flag="0"/>
      <psa03 value="0.0286913680" flag="0"/>
      <psa10 value="0.0080800749" flag="0"/>
      <psa30 value="0.0005141593" flag="0"/>
    </comp>
    <comp name="--.HHN">
      <acc value="0.0213312075" flag="0"/>
      <vel value="0.0137647395" flag="0"/>
      <psa03 value="0.0585761694" flag="0"/>
      <psa10 value="0.0228772182" flag="0"/>
      <psa30 value="0.0010990046" flag="0"/>
    </comp>
  </station>
  <station code="SIVA" name="SIVA" netid="HL" insttype="60" lat="35.0178" lon="24.812">
    <comp name="--.HHE">
      <acc value="0.0150640113" flag="0"/>
      <vel value="0.0114155579" flag="0"/>
      <psa03 value="0.0583504671" flag="0"/>
      <psa10 value="0.0191536202" flag="0"/>
      <psa30 value="0.0006802568" flag="0"/>
    </comp>
    <comp name="--.HHN">
      <acc value="0.0152387050" flag="0"/>
      <vel value="0.0100378098" flag="0"/>
      <psa03 value="0.0370124152" flag="0"/>
      <psa10 value="0.0116237002" flag="0"/>
      <psa30 value="0.0006299496" flag="0"/>
    </comp>
    <comp name="--.HHZ">
      <acc value="0.0092162885" flag="0"/>
      <vel value="0.0060340854" flag="0"/>
      <psa03 value="0.0284827944" flag="0"/>
      <psa10 value="0.0051416926" flag="0"/>
      <psa30 value="0.0003740383" flag="0"/>
    </comp>
  </station>
  <station code="ZKR" name="ZKR" netid="HL" insttype="120" lat="35.1147" lon="26.2169">
    <comp name="--.HHN">
      <acc value="0.0023683640" flag="0"/>
      <vel value="0.0014915362" flag="0"/>
      <psa03 value="0.0076351568" flag="0"/>
      <psa10 value="0.0020874463" flag="0"/>
      <psa30 value="0.0001608989" flag="0"/>
    </comp>
    <comp name="--.HHE">
      <acc value="0.0052182748" flag="0"/>
      <vel value="0.0038536892" flag="0"/>
      <psa03 value="0.0164488281" flag="0"/>
      <psa10 value="0.0056102457" flag="0"/>
      <psa30 value="0.0003849443" flag="0"/>
    </comp>
    <comp name="--.HHZ">
      <acc value="0.0023158831" flag="0"/>
      <vel value="0.0020747076" flag="0"/>
      <psa03 value="0.0065275991" flag="0"/>
      <psa10 value="0.0030499166" flag="0"/>
      <psa30 value="0.0002776744" flag="0"/>
    </comp>
  </station>
</stationlist>
