<?xml version="1.0" encoding="UTF-8" standalone="yes"?>
<!DOCTYPE earthquake SYSTEM "stationlist.dtd">
<stationlist created="" xmlns="ch.ethz.sed.shakemap.usgs.xml">
  <station code="IMOD" name="IMOD" netid="HC" insttype="120" lat="34.9731" lon="24.7995">
    <comp name="--.HHE">
      <acc value="0.0130869556" flag="0"/>
      <vel value="0.0088028010" flag="0"/>
      <psa03 value="0.0404628334" flag="0"/>
      <psa10 value="0.0116256608" flag="0"/>
      <psa30 value="0.0005878200" flag="0"/>
    </comp>
    <comp name="--.HHZ">
      <acc value="0.0120161541" flag="0"/>
      <vel value="0.0057054049" flag="0"/>
      <psa03 value="0.0257403782" flag="0"/>
      <psa10 value="0.0048131679" flag="0"/>
      <psa30 value="0.0002703983" flag="0"/>
    </comp>
    <comp name="--.HHN">
      <acc value="0.0214989960" flag="0"/>
      <vel value="0.0153897339" flag="0"/>
      <psa03 value="0.0777546144" flag="0"/>
      <psa10 value="0.0099508513" flag="0"/>
      <psa30 value="0.0009536910" flag="0"/>
    </comp>
  </station>
  <station code="PFKS" name="PFKS" netid="HC" insttype="120" lat="35.0429" lon="25.4733">
    <comp name="--.HHZ">
      <acc value="0.0137809526" flag="0"/>
      <vel value="0.0081511391" flag="0"/>
      <psa03 value="0.0463042797" flag="0"/>
      <psa10 value="0.0083643423" flag="0"/>
      <psa30 value="0.0004510394" flag="0"/>
    </comp>
    <comp name="--.HHN">
      <acc value="0.0288538248" flag="0"/>
      <vel value="0.0155025132" flag="0"/>
      <psa03 value="0.0676958138" flag="0"/>
      <psa10 value="0.0091535957" flag="0"/>
      <psa30 value="0.0005861571" flag="0"/>
    </comp>
    <comp name="--.HHE">
      <acc value="0.0162449729" flag="0"/>
      <vel value="0.0123285688" flag="0"/>
      <psa03 value="0.0675589189" flag="0"/>
      <psa10 value="0.0147729698" flag="0"/>
      <psa30 value="0.0010719137" flag="0"/>
    </comp>
  </station>
  <station code="TEFL" name="TEFL" netid="HC" insttype="GEOtiny," lat="35.0933" lon="25.1634">
    <comp name="--.HHN">
      <acc value="0.0213312079" flag="0"/>
      <vel value="0.0137647158" flag="0"/>
      <psa03 value="0.0585761692" flag="0"/>
      <psa10 value="0.0228772184" flag="0"/>
      <psa30 value="0.0010990058" flag="0"/>
    </comp>
    <comp name="--.HHZ">
      <acc value="0.0176894126" flag="0"/>
      <vel value="0.0062248881" flag="0"/>
      <psa03 value="0.0286913681" flag="0"/>
      <psa10 value="0.0080800746" flag="0"/>
      <psa30 value="0.0005141693" flag="0"/>
    </comp>
    <comp name="--.HHE">
      <acc value="0.0235263715" flag="0"/>
      <vel value="0.0112975789" flag="0"/>
      <psa03 value="0.0492906199" flag="0"/>
      <psa10 value="0.0184395370" flag="0"/>
      <psa30 value="0.0010696109" flag="0"/>
    </comp>
  </station>
  <station code="ZKR" name="ZKR" netid="HL" insttype="120" lat="35.1147" lon="26.2169">
    <comp name="--.HHN">
      <acc value="0.0023683640" flag="0"/>
      <vel value="0.0014915362" flag="0"/>
      <psa03 value="0.0076351568" flag="0"/>
      <psa10 value="0.0020874463" flag="0"/>
      <psa30 value="0.0001608990" flag="0"/>
    </comp>
    <comp name="--.HHE">
      <acc value="0.0052182746" flag="0"/>
      <vel value="0.0038536892" flag="0"/>
      <psa03 value="0.0164488281" flag="0"/>
      <psa10 value="0.0056102457" flag="0"/>
      <psa30 value="0.0003849373" flag="0"/>
    </comp>
    <comp name="--.HHZ">
      <acc value="0.0023158830" flag="0"/>
      <vel value="0.0020747076" flag="0"/>
      <psa03 value="0.0065275991" flag="0"/>
      <psa10 value="0.0030499166" flag="0"/>
      <psa30 value="0.0002776748" flag="0"/>
    </comp>
  </station>
</stationlist>
