<?xml version="1.0" encoding="UTF-8" standalone="yes"?>
<!DOCTYPE earthquake SYSTEM "stationlist.dtd">
<stationlist created="" xmlns="ch.ethz.sed.shakemap.usgs.xml">
  <station code="AYDN" name="AYDN" netid="TU" insttype="T" lat="37.6608" lon="27.8792">
    <comp name="--.HHE">
      <acc value="0.0657978450" flag="0"/>
      <vel value="0.0212661250" flag="0"/>
      <psa03 value="0.0833965351" flag="0"/>
      <psa10 value="0.0075884609" flag="0"/>
      <psa30 value="0.0005792217" flag="0"/>
    </comp>
    <comp name="--.HHZ">
      <acc value="0.0353585007" flag="0"/>
      <vel value="0.0110335072" flag="0"/>
      <psa03 value="0.0356640540" flag="0"/>
      <psa10 value="0.0073713464" flag="0"/>
      <psa30 value="0.0003682280" flag="0"/>
    </comp>
  </station>
</stationlist>
