<stationlist created="1778069585">
	<station code="KARP" name="KARP" netid="GE" source="GEOFON" insttype="" lat="35.5471" lon="27.16106">
		<comp name="--.HNE" depth="0.0">
			<acc value="0.366103773198834" flag="0"/>
			<vel value="0.0694765125689235" flag="0"/>
			<psa03 value="0.168991314397212" flag="0"/>
			<psa10 value="0.0797507461867385" flag="0"/>
			<psa30 value="0.00355834769235115" flag="0"/>
		</comp>
		<comp name="--.HNN" depth="0.0">
			<acc value="0.227773097376748" flag="0"/>
			<vel value="0.050039031468002" flag="0"/>
			<psa03 value="0.134808268540853" flag="0"/>
			<psa10 value="0.0457887268310731" flag="0"/>
			<psa30 value="0.00244516159168855" flag="0"/>
		</comp>
		<comp name="--.HNZ" depth="0.0">
			<acc value="0.235057282266694" flag="0"/>
			<vel value="0.0387388064708408" flag="0"/>
			<psa03 value="0.145367429302765" flag="0"/>
			<psa10 value="0.0268909610217137" flag="0"/>
			<psa30 value="0.0029901216682991" flag="0"/>
		</comp>
	</station>
	<station code="KSS1" name="KSS1" netid="HI" source="ITSAK Strong Motion Network" insttype="" lat="35.4189" lon="26.9207">
		<comp name="--.HNE" depth="0.0">
			<acc value="0.341678882326295" flag="0"/>
			<vel value="0.0735792102409982" flag="0"/>
			<psa03 value="0.309839780831532" flag="0"/>
			<psa10 value="0.0496343194899136" flag="0"/>
			<psa30 value="0.00631983668483088" flag="0"/>
		</comp>
		<comp name="--.HNN" depth="0.0">
			<acc value="0.396242478953418" flag="0"/>
			<vel value="0.0706166459058934" flag="0"/>
			<psa03 value="0.275030344082516" flag="0"/>
			<psa10 value="0.0178709321674701" flag="0"/>
			<psa30 value="0.00799230036822188" flag="0"/>
		</comp>
		<comp name="--.HNZ" depth="0.0">
			<acc value="0.37567481578372" flag="0"/>
			<vel value="0.0517064746919966" flag="0"/>
			<psa03 value="0.0935559540388062" flag="0"/>
			<psa10 value="0.0208225755380775" flag="0"/>
			<psa30 value="0.00261920877543363" flag="0"/>
		</comp>
	</station>
	<station code="RDI1" name="RDI1" netid="HI" source="ITSAK Strong Motion Network" insttype="" lat="36.4514" lon="28.224">
		<comp name="--.HNE" depth="0.0">
			<acc value="0.00969815366354567" flag="0"/>
			<vel value="0.00953219200871785" flag="0"/>
			<psa03 value="0.0319011933188278" flag="0"/>
			<psa10 value="0.0118267074754078" flag="0"/>
			<psa30 value="0.00262860463882347" flag="0"/>
		</comp>
		<comp name="--.HNN" depth="0.0">
			<acc value="0.00927009667068467" flag="0"/>
			<vel value="0.0114047960228039" flag="0"/>
			<psa03 value="0.025682026598888" flag="0"/>
			<psa10 value="0.012809246332745" flag="0"/>
			<psa30 value="0.0026639509820519" flag="0"/>
		</comp>
		<comp name="--.HNZ" depth="0.0">
			<acc value="0.00881031625321277" flag="0"/>
			<vel value="0.00580092323160318" flag="0"/>
			<psa03 value="0.0195076020855665" flag="0"/>
			<psa10 value="0.00976901339303345" flag="0"/>
			<psa30 value="0.0010666542057796" flag="0"/>
		</comp>
	</station>
	<station code="SIT2" name="SIT2" netid="HI" source="ITSAK Strong Motion Network" insttype="" lat="35.2059" lon="26.107">
		<comp name="--.HNE" depth="0.0">
			<acc value="0.0873312244175629" flag="0"/>
			<vel value="0.06755380541015" flag="0"/>
			<psa03 value="0.231675145869411" flag="0"/>
			<psa10 value="0.0520342914529177" flag="0"/>
			<psa30 value="0.00331852946487722" flag="0"/>
		</comp>
		<comp name="--.HNN" depth="0.0">
			<acc value="0.0833498273793993" flag="0"/>
			<vel value="0.0504689900252251" flag="0"/>
			<psa03 value="0.223845259711214" flag="0"/>
			<psa10 value="0.0360317938338266" flag="0"/>
			<psa30 value="0.0057395302649919" flag="0"/>
		</comp>
		<comp name="--.HNZ" depth="0.0">
			<acc value="0.0853133280245068" flag="0"/>
			<vel value="0.0325124228330625" flag="0"/>
			<psa03 value="0.125680858390725" flag="0"/>
			<psa10 value="0.0132521941782659" flag="0"/>
			<psa30 value="0.00170244096182524" flag="0"/>
		</comp>
	</station>
	<station code="HERG" name="HERG" netid="HL" source="National Observatory of Athens Seismic Network" insttype="" lat="35.32622" lon="25.06586">
		<comp name="00.HNE" depth="0.0">
			<acc value="0.0234783854343882" flag="0"/>
			<vel value="0.0231348277196542" flag="0"/>
			<psa03 value="0.0790458874438709" flag="0"/>
			<psa10 value="0.0245916221992926" flag="0"/>
			<psa30 value="0.00262631731396507" flag="0"/>
		</comp>
		<comp name="00.HNN" depth="0.0">
			<acc value="0.0178170135982809" flag="0"/>
			<vel value="0.0181321852198282" flag="0"/>
			<psa03 value="0.0512906685884043" flag="0"/>
			<psa10 value="0.0385871574597933" flag="0"/>
			<psa30 value="0.00235252417651649" flag="0"/>
		</comp>
		<comp name="00.HNZ" depth="0.0">
			<acc value="0.0243701140758189" flag="0"/>
			<vel value="0.0149002879128436" flag="0"/>
			<psa03 value="0.0343378267958259" flag="0"/>
			<psa10 value="0.0214678021365473" flag="0"/>
			<psa30 value="0.00101725561735685" flag="0"/>
		</comp>
	</station>
	<station code="SIVA" name="SIVA" netid="HL" source="National Observatory of Athens Seismic Network" insttype="" lat="35.01777" lon="24.81204">
		<comp name="00.HNE" depth="0.0">
			<acc value="0.0086918688758563" flag="0"/>
			<vel value="0.00726860142435401" flag="0"/>
			<psa03 value="0.0256372843922697" flag="0"/>
			<psa10 value="0.00891130529216119" flag="0"/>
			<psa30 value="0.000898423508894897" flag="0"/>
		</comp>
		<comp name="00.HNN" depth="0.0">
			<acc value="0.00887968158966326" flag="0"/>
			<vel value="0.00571288627955851" flag="0"/>
			<psa03 value="0.0195523442921848" flag="0"/>
			<psa10 value="0.00733280024266856" flag="0"/>
			<psa30 value="0.000825493712107114" flag="0"/>
		</comp>
		<comp name="00.HNZ" depth="0.0">
			<acc value="0.00468444283108132" flag="0"/>
			<vel value="0.0032576910757304" flag="0"/>
			<psa03 value="0.0105144185552939" flag="0"/>
			<psa10 value="0.00321338527932428" flag="0"/>
			<psa30 value="0.000769118531768091" flag="0"/>
		</comp>
	</station>
</stationlist>
