<?xml version="1.0" encoding="UTF-8" standalone="yes"?>
<!DOCTYPE earthquake SYSTEM "stationlist.dtd">
<stationlist created="" xmlns="ch.ethz.sed.shakemap.usgs.xml">
  <station code="SIT2" name="SIT2" netid="HI" insttype="CMG-5TD,ACCELEROMETER,GURALP" lat="35.2059" lon="26.107">
    <comp name="--.HNE">
      <acc value="0.0870382760" flag="0"/>
      <vel value="0.0666276462" flag="0"/>
      <psa03 value="0.2315715290" flag="0"/>
      <psa10 value="0.0518917459" flag="0"/>
      <psa30 value="0.0031381662" flag="0"/>
    </comp>
    <comp name="--.HNN">
      <acc value="0.0835572416" flag="0"/>
      <vel value="0.0504283586" flag="0"/>
      <psa03 value="0.2232426485" flag="0"/>
      <psa10 value="0.0358355132" flag="0"/>
      <psa30 value="0.0051809120" flag="0"/>
    </comp>
    <comp name="--.HNZ">
      <acc value="0.0853142813" flag="0"/>
      <vel value="0.0319279847" flag="0"/>
      <psa03 value="0.1255940488" flag="0"/>
      <psa10 value="0.0132442020" flag="0"/>
      <psa30 value="0.0015650532" flag="0"/>
    </comp>
  </station>
  <station code="KARP" name="KARP" netid="HL" insttype="120" lat="35.5471" lon="27.1611">
    <comp name="--.HHE">
      <acc value="0.4432054080" flag="0"/>
      <vel value="0.0825104192" flag="0"/>
      <psa03 value="0.1740380267" flag="0"/>
      <psa10 value="0.0893740403" flag="0"/>
      <psa30 value="0.0043440151" flag="0"/>
    </comp>
    <comp name="--.HHZ">
      <acc value="0.3096830150" flag="0"/>
      <vel value="0.0461874048" flag="0"/>
      <psa03 value="0.1700860723" flag="0"/>
      <psa10 value="0.0327247088" flag="0"/>
      <psa30 value="0.0034137672" flag="0"/>
    </comp>
    <comp name="--.HHN">
      <acc value="0.3115556228" flag="0"/>
      <vel value="0.0570263024" flag="0"/>
      <psa03 value="0.1516899229" flag="0"/>
      <psa10 value="0.0539914500" flag="0"/>
      <psa30 value="0.0025200256" flag="0"/>
    </comp>
  </station>
  <station code="NPS" name="NPS" netid="HL" insttype="CMG3ESPC-120s" lat="35.2613" lon="25.6104">
    <comp name="--.HHN">
      <acc value="0.0370113718" flag="0"/>
      <vel value="0.0155715430" flag="0"/>
      <psa03 value="0.0663315685" flag="0"/>
      <psa10 value="0.0141490834" flag="0"/>
      <psa30 value="0.0011338611" flag="0"/>
    </comp>
    <comp name="--.HHZ">
      <acc value="0.0282230159" flag="0"/>
      <vel value="0.0108006410" flag="0"/>
      <psa03 value="0.0350202253" flag="0"/>
      <psa10 value="0.0083381996" flag="0"/>
      <psa30 value="0.0011252577" flag="0"/>
    </comp>
    <comp name="--.HHE">
      <acc value="0.0152422301" flag="0"/>
      <vel value="0.0073394606" flag="0"/>
      <psa03 value="0.0274411695" flag="0"/>
      <psa10 value="0.0053240298" flag="0"/>
      <psa30 value="0.0004517805" flag="0"/>
    </comp>
  </station>
  <station code="ZKR" name="ZKR" netid="HL" insttype="120" lat="35.1147" lon="26.2169">
    <comp name="--.HHE">
      <acc value="0.0619124706" flag="0"/>
      <vel value="0.0179940169" flag="0"/>
      <psa03 value="0.1066573030" flag="0"/>
      <psa10 value="0.0184593753" flag="0"/>
      <psa30 value="0.0020224987" flag="0"/>
    </comp>
    <comp name="--.HHN">
      <acc value="0.0251983339" flag="0"/>
      <vel value="0.0088593456" flag="0"/>
      <psa03 value="0.0375162354" flag="0"/>
      <psa10 value="0.0100757310" flag="0"/>
      <psa30 value="0.0011909396" flag="0"/>
    </comp>
    <comp name="--.HHZ">
      <acc value="0.0311116773" flag="0"/>
      <vel value="0.0102252904" flag="0"/>
      <psa03 value="0.0414086720" flag="0"/>
      <psa10 value="0.0104016857" flag="0"/>
      <psa30 value="0.0008950152" flag="0"/>
    </comp>
  </station>
</stationlist>
