<stationlist created="1739289490">
	<station code="KTHA" name="KTHA" netid="GE" source="GEOFON" insttype="" lat="36.2566" lon="23.0621">
		<comp name=".HNE" depth="0.0">
			<acc value="0.0092129286679356" flag="0"/>
			<vel value="0.0102697163769" flag="0"/>
			<psa03 value="0.0272654155749497" flag="0"/>
			<psa10 value="0.0124029491345264" flag="0"/>
			<psa30 value="0.00432471440776992" flag="0"/>
		</comp>
		<comp name=".HNN" depth="0.0">
			<acc value="0.007844414207025" flag="0"/>
			<vel value="0.0161668801829" flag="0"/>
			<psa03 value="0.0181408150212169" flag="0"/>
			<psa10 value="0.00963292094623738" flag="0"/>
			<psa30 value="0.005284540908241" flag="0"/>
		</comp>
		<comp name=".HNZ" depth="0.0">
			<acc value="0.0070097737501914" flag="0"/>
			<vel value="0.0254686069485" flag="0"/>
			<psa03 value="0.0122661667400275" flag="0"/>
			<psa10 value="0.0116408639626064" flag="0"/>
			<psa30 value="0.00863355859757453" flag="0"/>
		</comp>
	</station>
	<station code="ATHU" name="ATHU" netid="HA" source="Hellenic Seismological Network, University of Athens, Seismological Laboratory (HA)" insttype="" lat="37.9665" lon="23.7845">
		<comp name=".HNE" depth="0.0">
			<acc value="0.00085976505449034" flag="0"/>
			<vel value="0.00100028924645" flag="0"/>
			<psa03 value="0.00275249386264558" flag="0"/>
			<psa10 value="0.00114913858572987" flag="0"/>
			<psa30 value="0.000296005494328116" flag="0"/>
		</comp>
		<comp name=".HNN" depth="0.0">
			<acc value="0.00084114945937746" flag="0"/>
			<vel value="0.000713327975496" flag="0"/>
			<psa03 value="0.00191750137401531" flag="0"/>
			<psa10 value="0.000694679671460972" flag="0"/>
			<psa30 value="0.000316973758372729" flag="0"/>
		</comp>
		<comp name=".HNZ" depth="0.0">
			<acc value="0.0010717232749314" flag="0"/>
			<vel value="0.00121307702444" flag="0"/>
			<psa03 value="0.00379195432336571" flag="0"/>
			<psa10 value="0.00109543702044971" flag="0"/>
			<psa30 value="0.00031350253883792" flag="0"/>
		</comp>
	</station>
	<station code="KIAS" name="KIAS" netid="HA" source="Hellenic Seismological Network, University of Athens, Seismological Laboratory (HA)" insttype="" lat="37.9875" lon="22.7543">
		<comp name=".HNE" depth="0.0">
			<acc value="0.010945441322418" flag="0"/>
			<vel value="0.0251939868905" flag="0"/>
			<psa03 value="0.0202468555777234" flag="0"/>
			<psa10 value="0.0378673272746038" flag="0"/>
			<psa30 value="0.0128516771938817" flag="0"/>
		</comp>
		<comp name=".HNN" depth="0.0">
			<acc value="0.011383883543208" flag="0"/>
			<vel value="0.0205130290901" flag="0"/>
			<psa03 value="0.0253331182989377" flag="0"/>
			<psa10 value="0.0222872651719249" flag="0"/>
			<psa30 value="0.00966563613431093" flag="0"/>
		</comp>
		<comp name=".HNZ" depth="0.0">
			<acc value="0.0060758370221376" flag="0"/>
			<vel value="0.0102837799296" flag="0"/>
			<psa03 value="0.014352217691086" flag="0"/>
			<psa10 value="0.016120727919107" flag="0"/>
			<psa30 value="0.00543273780887406" flag="0"/>
		</comp>
	</station>
	<station code="ABEA" name="ABEA" netid="HC" source="Seismological Network of Crete (HC)" insttype="" lat="35.5163" lon="24.0113">
		<comp name=".HNE" depth="0.0">
			<acc value="0.0057958697221458" flag="0"/>
			<vel value="0.00354403829692" flag="0"/>
			<psa03 value="0.0139129138497512" flag="0"/>
			<psa10 value="0.00353965698490544" flag="0"/>
			<psa30 value="0.000982506752915878" flag="0"/>
		</comp>
		<comp name=".HNN" depth="0.0">
			<acc value="0.0094466874772812" flag="0"/>
			<vel value="0.00354406280017" flag="0"/>
			<psa03 value="0.019114862619988" flag="0"/>
			<psa10 value="0.00321556754681847" flag="0"/>
			<psa30 value="0.00107133961682437" flag="0"/>
		</comp>
		<comp name=".HNZ" depth="0.0">
			<acc value="0.0037916098776588" flag="0"/>
			<vel value="0.00266486717179" flag="0"/>
			<psa03 value="0.00497970488099033" flag="0"/>
			<psa10 value="0.00286651458002398" flag="0"/>
			<psa30 value="0.000638540320996463" flag="0"/>
		</comp>
	</station>
	<station code="ATEI" name="ATEI" netid="HC" source="Seismological Network of Crete (HC)" insttype="" lat="35.5193" lon="24.0432">
		<comp name=".HNE" depth="0.0">
			<acc value="0.028853450996508" flag="0"/>
			<vel value="0.0163319658728" flag="0"/>
			<psa03 value="0.064021465066253" flag="0"/>
			<psa10 value="0.0251364395407384" flag="0"/>
			<psa30 value="0.0067739345732489" flag="0"/>
		</comp>
		<comp name=".HNN" depth="0.0">
			<acc value="0.02198755560069" flag="0"/>
			<vel value="0.019442951863" flag="0"/>
			<psa03 value="0.0589817822536785" flag="0"/>
			<psa10 value="0.0260474648917134" flag="0"/>
			<psa30 value="0.00381273715845976" flag="0"/>
		</comp>
		<comp name=".HNZ" depth="0.0">
			<acc value="0.014654550539118" flag="0"/>
			<vel value="0.0114089785918" flag="0"/>
			<psa03 value="0.0322406019274736" flag="0"/>
			<psa10 value="0.0156625675682146" flag="0"/>
			<psa30 value="0.00262640794496894" flag="0"/>
		</comp>
	</station>
	<station code="G0LD" name="G0LD" netid="HC" source="Seismological Network of Crete (HC)" insttype="" lat="35.4955" lon="24.0306">
		<comp name=".HNE" depth="0.0">
			<acc value="0.0038631510594798" flag="0"/>
			<vel value="0.00412920067538" flag="0"/>
			<psa03 value="0.00919737555702686" flag="0"/>
			<psa10 value="0.00339050374486022" flag="0"/>
			<psa30 value="0.00155942820029885" flag="0"/>
		</comp>
		<comp name=".HNN" depth="0.0">
			<acc value="0.004879199500542" flag="0"/>
			<vel value="0.00322052336946" flag="0"/>
			<psa03 value="0.0119111158759076" flag="0"/>
			<psa10 value="0.00371000616032573" flag="0"/>
			<psa30 value="0.00130155476328001" flag="0"/>
		</comp>
		<comp name=".HNZ" depth="0.0">
			<acc value="0.004037871077139" flag="0"/>
			<vel value="0.00680773245317" flag="0"/>
			<psa03 value="0.00509820687179201" flag="0"/>
			<psa10 value="0.00272021012244362" flag="0"/>
			<psa30 value="0.00184666941612056" flag="0"/>
		</comp>
	</station>
	<station code="PASK" name="PASK" netid="HC" source="Seismological Network of Crete (HC)" insttype="" lat="35.4996" lon="24.0121">
		<comp name=".HNE" depth="0.0">
			<acc value="0.045798006601644" flag="0"/>
			<vel value="0.033972860028" flag="0"/>
			<psa03 value="0.0881732472948096" flag="0"/>
			<psa10 value="0.0506815661549443" flag="0"/>
			<psa30 value="0.0112681647939375" flag="0"/>
		</comp>
		<comp name=".HNN" depth="0.0">
			<acc value="0.03148198100265" flag="0"/>
			<vel value="0.0276739295797" flag="0"/>
			<psa03 value="0.0841061966226425" flag="0"/>
			<psa10 value="0.0424575001011501" flag="0"/>
			<psa30 value="0.00586627194503909" flag="0"/>
		</comp>
		<comp name=".HNZ" depth="0.0">
			<acc value="0.020906533859256" flag="0"/>
			<vel value="0.0178467498161" flag="0"/>
			<psa03 value="0.0742316310228719" flag="0"/>
			<psa10 value="0.0189000464103009" flag="0"/>
			<psa30 value="0.0034518682526654" flag="0"/>
		</comp>
	</station>
	<station code="POLY" name="POLY" netid="HC" source="Seismological Network of Crete (HC)" insttype="" lat="35.5226" lon="24.0602">
		<comp name=".HNE" depth="0.0">
			<acc value="0.001444330033077" flag="0"/>
			<vel value="0.00300271255782" flag="0"/>
			<psa03 value="0.00264685095937514" flag="0"/>
			<psa10 value="0.00126717953036189" flag="0"/>
			<psa30 value="0.00107742085301246" flag="0"/>
		</comp>
		<comp name=".HNN" depth="0.0">
			<acc value="0.001614824720718" flag="0"/>
			<vel value="0.00466213812313" flag="0"/>
			<psa03 value="0.00310024867053207" flag="0"/>
			<psa10 value="0.00140646680433596" flag="0"/>
			<psa30 value="0.001392934358399" flag="0"/>
		</comp>
		<comp name=".HNZ" depth="0.0">
			<acc value="0.0017049717187752" flag="0"/>
			<vel value="0.00246019501083" flag="0"/>
			<psa03 value="0.00256147925574403" flag="0"/>
			<psa10 value="0.0010286060697915" flag="0"/>
			<psa30 value="0.00144287433334278" flag="0"/>
		</comp>
	</station>
	<station code="ARK1" name="ARK1" netid="HI" source="ITSAK Strong Motion Network" insttype="" lat="35.148777" lon="25.264194">
		<comp name=".HNE" depth="0.0">
			<acc value="0.064401245713698" flag="0"/>
			<vel value="0.053171222687" flag="0"/>
			<psa03 value="0.152968820933865" flag="0"/>
			<psa10 value="0.045191461212353" flag="0"/>
			<psa30 value="0.0116014527059883" flag="0"/>
		</comp>
		<comp name=".HNN" depth="0.0">
			<acc value="0.069626639159412" flag="0"/>
			<vel value="0.0463074358803" flag="0"/>
			<psa03 value="0.147235378621018" flag="0"/>
			<psa10 value="0.0343659415749713" flag="0"/>
			<psa30 value="0.00741239936843416" flag="0"/>
		</comp>
		<comp name=".HNZ" depth="0.0">
			<acc value="0.029454082275204" flag="0"/>
			<vel value="0.0294914746973" flag="0"/>
			<psa03 value="0.0790382306863389" flag="0"/>
			<psa10 value="0.0318340325984386" flag="0"/>
			<psa30 value="0.00593653659976254" flag="0"/>
		</comp>
	</station>
	<station code="ARS1" name="ARS1" netid="HI" source="ITSAK Strong Motion Network" insttype="" lat="37.6349" lon="22.7293">
		<comp name=".HNE" depth="0.0">
			<acc value="0.011442815553318" flag="0"/>
			<vel value="0.0216809093209" flag="0"/>
			<psa03 value="0.0208376043473399" flag="0"/>
			<psa10 value="0.0210289761914506" flag="0"/>
			<psa30 value="0.00566683331658013" flag="0"/>
		</comp>
		<comp name=".HNN" depth="0.0">
			<acc value="0.012216688564326" flag="0"/>
			<vel value="0.0133360921637" flag="0"/>
			<psa03 value="0.0357188297388452" flag="0"/>
			<psa10 value="0.0195221657476677" flag="0"/>
			<psa30 value="0.00589601808228096" flag="0"/>
		</comp>
		<comp name=".HNZ" depth="0.0">
			<acc value="0.0093590761856172" flag="0"/>
			<vel value="0.018130965367" flag="0"/>
			<psa03 value="0.0171605391452283" flag="0"/>
			<psa10 value="0.0101630935675579" flag="0"/>
			<psa30 value="0.0125882455761348" flag="0"/>
		</comp>
	</station>
	<station code="ATH5" name="ATH5" netid="HI" source="ITSAK Strong Motion Network" insttype="" lat="37.975421" lon="23.737098">
		<comp name=".HNE" depth="0.0">
			<acc value="0.03227443315362" flag="0"/>
			<vel value="0.0226737313353" flag="0"/>
			<psa03 value="0.115302638234041" flag="0"/>
			<psa10 value="0.0257342478926216" flag="0"/>
			<psa30 value="0.00427766087404122" flag="0"/>
		</comp>
		<comp name=".HNN" depth="0.0">
			<acc value="0.03896571046809" flag="0"/>
			<vel value="0.0359436819648" flag="0"/>
			<psa03 value="0.194108900428497" flag="0"/>
			<psa10 value="0.0463764084593394" flag="0"/>
			<psa30 value="0.00934111046938314" flag="0"/>
		</comp>
		<comp name=".HNZ" depth="0.0">
			<acc value="0.022935886751334" flag="0"/>
			<vel value="0.0198510668058" flag="0"/>
			<psa03 value="0.0581487947807929" flag="0"/>
			<psa10 value="0.0388463596306766" flag="0"/>
			<psa30 value="0.0046402973969398" flag="0"/>
		</comp>
	</station>
	<station code="CH01" name="CH01" netid="HI" source="ITSAK Strong Motion Network" insttype="" lat="35.517" lon="24.0208">
		<comp name=".HNE" depth="0.0">
			<acc value="0.023065421054124" flag="0"/>
			<vel value="0.0204031104607" flag="0"/>
			<psa03 value="0.0564845751590348" flag="0"/>
			<psa10 value="0.0266473077533458" flag="0"/>
			<psa30 value="0.00687638927702185" flag="0"/>
		</comp>
		<comp name=".HNN" depth="0.0">
			<acc value="0.033070565072196" flag="0"/>
			<vel value="0.0248771356135" flag="0"/>
			<psa03 value="0.0693167064749918" flag="0"/>
			<psa10 value="0.0236431674938306" flag="0"/>
			<psa30 value="0.00707353192008825" flag="0"/>
		</comp>
		<comp name=".HNZ" depth="0.0">
			<acc value="0.01236051825504" flag="0"/>
			<vel value="0.0128751978597" flag="0"/>
			<psa03 value="0.0299151145420202" flag="0"/>
			<psa10 value="0.0207477300602776" flag="0"/>
			<psa30 value="0.00271956224098412" flag="0"/>
		</comp>
	</station>
	<station code="CH02" name="CH02" netid="HI" source="ITSAK Strong Motion Network" insttype="" lat="35.5145" lon="24.0315">
		<comp name=".HNE" depth="0.0">
			<acc value="0.029565823652298" flag="0"/>
			<vel value="0.020916053833" flag="0"/>
			<psa03 value="0.0761950735915479" flag="0"/>
			<psa10 value="0.0279387226782449" flag="0"/>
			<psa30 value="0.00673091505675188" flag="0"/>
		</comp>
		<comp name=".HNN" depth="0.0">
			<acc value="0.033089165749662" flag="0"/>
			<vel value="0.0247148148937" flag="0"/>
			<psa03 value="0.107435044127542" flag="0"/>
			<psa10 value="0.0242793596384066" flag="0"/>
			<psa30 value="0.00575125265892082" flag="0"/>
		</comp>
		<comp name=".HNZ" depth="0.0">
			<acc value="0.014120973396504" flag="0"/>
			<vel value="0.014179210276" flag="0"/>
			<psa03 value="0.0316127608569046" flag="0"/>
			<psa10 value="0.0219959177466097" flag="0"/>
			<psa30 value="0.00266828488578023" flag="0"/>
		</comp>
	</station>
	<station code="CH03" name="CH03" netid="HI" source="ITSAK Strong Motion Network" insttype="" lat="35.53303" lon="24.0705">
		<comp name=".HNE" depth="0.0">
			<acc value="0.022344510466302" flag="0"/>
			<vel value="0.0174284143413" flag="0"/>
			<psa03 value="0.0618492795030486" flag="0"/>
			<psa10 value="0.0304073837149559" flag="0"/>
			<psa30 value="0.00528427672407894" flag="0"/>
		</comp>
		<comp name=".HNN" depth="0.0">
			<acc value="0.0265024202286" flag="0"/>
			<vel value="0.0219738726237" flag="0"/>
			<psa03 value="0.0747651038627617" flag="0"/>
			<psa10 value="0.0205421414410423" flag="0"/>
			<psa30 value="0.00332216924407464" flag="0"/>
		</comp>
		<comp name=".HNZ" depth="0.0">
			<acc value="0.011409644958906" flag="0"/>
			<vel value="0.0081821016909" flag="0"/>
			<psa03 value="0.0361748391138814" flag="0"/>
			<psa10 value="0.00674913928485471" flag="0"/>
			<psa30 value="0.00205761964053703" flag="0"/>
		</comp>
	</station>
	<station code="GOR1" name="GOR1" netid="HI" source="ITSAK Strong Motion Network" insttype="" lat="35.0582" lon="24.9628">
		<comp name=".HNE" depth="0.0">
			<acc value="0.026221974995562" flag="0"/>
			<vel value="0.0228907265922" flag="0"/>
			<psa03 value="0.0637307947688619" flag="0"/>
			<psa10 value="0.031425131760757" flag="0"/>
			<psa30 value="0.00867177362912477" flag="0"/>
		</comp>
		<comp name=".HNN" depth="0.0">
			<acc value="0.026546817336936" flag="0"/>
			<vel value="0.0313866669032" flag="0"/>
			<psa03 value="0.0628736546541955" flag="0"/>
			<psa10 value="0.0375868086916294" flag="0"/>
			<psa30 value="0.00818892164252444" flag="0"/>
		</comp>
		<comp name=".HNZ" depth="0.0">
			<acc value="0.020965090281804" flag="0"/>
			<vel value="0.0158005348753" flag="0"/>
			<psa03 value="0.0494054916212962" flag="0"/>
			<psa10 value="0.0261737132550404" flag="0"/>
			<psa30 value="0.0050579208957549" flag="0"/>
		</comp>
	</station>
	<station code="GTH2" name="GTH2" netid="HI" source="ITSAK Strong Motion Network" insttype="" lat="36.7603" lon="22.5659">
		<comp name=".HNE" depth="0.0">
			<acc value="0.009094197848727" flag="0"/>
			<vel value="0.00794934215535" flag="0"/>
			<psa03 value="0.0145660508668657" flag="0"/>
			<psa10 value="0.00895041885882528" flag="0"/>
			<psa30 value="0.0020417279627911" flag="0"/>
		</comp>
		<comp name=".HNN" depth="0.0">
			<acc value="0.0092371716401724" flag="0"/>
			<vel value="0.00949455306462" flag="0"/>
			<psa03 value="0.0195217385318756" flag="0"/>
			<psa10 value="0.0104438652923268" flag="0"/>
			<psa30 value="0.00294151590265917" flag="0"/>
		</comp>
		<comp name=".HNZ" depth="0.0">
			<acc value="0.01113477730068" flag="0"/>
			<vel value="0.0051224790186" flag="0"/>
			<psa03 value="0.00929794146380474" flag="0"/>
			<psa10 value="0.00368662101742614" flag="0"/>
			<psa30 value="0.00132060717124254" flag="0"/>
		</comp>
	</station>
	<station code="HER3" name="HER3" netid="HI" source="ITSAK Strong Motion Network" insttype="" lat="35.3296" lon="25.1065">
		<comp name=".HNE" depth="0.0">
			<acc value="0.10727913182574" flag="0"/>
			<vel value="0.0759118927956" flag="0"/>
			<psa03 value="0.226251946414567" flag="0"/>
			<psa10 value="0.136570667136244" flag="0"/>
			<psa30 value="0.0190394012669132" flag="0"/>
		</comp>
		<comp name=".HNN" depth="0.0">
			<acc value="0.1389532889991" flag="0"/>
			<vel value="0.0929802101101" flag="0"/>
			<psa03 value="0.413694613571356" flag="0"/>
			<psa10 value="0.178888905511931" flag="0"/>
			<psa30 value="0.00925074781665247" flag="0"/>
		</comp>
		<comp name=".HNZ" depth="0.0">
			<acc value="0.06515443916331" flag="0"/>
			<vel value="0.048864777254" flag="0"/>
			<psa03 value="0.164780915927182" flag="0"/>
			<psa10 value="0.0537689131766078" flag="0"/>
			<psa30 value="0.00627473358699238" flag="0"/>
		</comp>
	</station>
	<station code="KIS1" name="KIS1" netid="HI" source="ITSAK Strong Motion Network" insttype="" lat="35.493933" lon="23.658993">
		<comp name=".HNE" depth="0.0">
			<acc value="0.015156440680992" flag="0"/>
			<vel value="0.0170212546605" flag="0"/>
			<psa03 value="0.0383774954457281" flag="0"/>
			<psa10 value="0.0202280712604544" flag="0"/>
			<psa30 value="0.00503554316335095" flag="0"/>
		</comp>
		<comp name=".HNN" depth="0.0">
			<acc value="0.016954136888232" flag="0"/>
			<vel value="0.0231683505423" flag="0"/>
			<psa03 value="0.0380159324314653" flag="0"/>
			<psa10 value="0.029489246017834" flag="0"/>
			<psa30 value="0.00437332554468938" flag="0"/>
		</comp>
		<comp name=".HNZ" depth="0.0">
			<acc value="0.009247328732679" flag="0"/>
			<vel value="0.0143874874407" flag="0"/>
			<psa03 value="0.0254886077660105" flag="0"/>
			<psa10 value="0.0102688983891203" flag="0"/>
			<psa30 value="0.00237799773901379" flag="0"/>
		</comp>
	</station>
	<station code="KOR2" name="KOR2" netid="HI" source="ITSAK Strong Motion Network" insttype="" lat="37.9401" lon="22.9495">
		<comp name=".HNE" depth="0.0">
			<acc value="0.02448587829876" flag="0"/>
			<vel value="0.0446479581501" flag="0"/>
			<psa03 value="0.0598321927556865" flag="0"/>
			<psa10 value="0.0498723412978815" flag="0"/>
			<psa30 value="0.0165589769509746" flag="0"/>
		</comp>
		<comp name=".HNN" depth="0.0">
			<acc value="0.019071006806532" flag="0"/>
			<vel value="0.0301858088037" flag="0"/>
			<psa03 value="0.0372629007759726" flag="0"/>
			<psa10 value="0.0614359735818931" flag="0"/>
			<psa30 value="0.0129847993458785" flag="0"/>
		</comp>
		<comp name=".HNZ" depth="0.0">
			<acc value="0.012032653791774" flag="0"/>
			<vel value="0.0170715351603" flag="0"/>
			<psa03 value="0.0240277010922829" flag="0"/>
			<psa10 value="0.0185118938221129" flag="0"/>
			<psa30 value="0.00532146002061278" flag="0"/>
		</comp>
	</station>
	<station code="KRL1" name="KRL1" netid="HI" source="ITSAK Strong Motion Network" insttype="" lat="37.7951" lon="26.7065">
		<comp name=".HNE" depth="0.0">
			<acc value="0.14235012316662" flag="0"/>
			<vel value="0.0821454877988" flag="0"/>
			<psa03 value="0.541238562730382" flag="0"/>
			<psa10 value="0.0713526842651993" flag="0"/>
			<psa30 value="0.0130409555659567" flag="0"/>
		</comp>
		<comp name=".HNN" depth="0.0">
			<acc value="0.16669714512096" flag="0"/>
			<vel value="0.0884675529777" flag="0"/>
			<psa03 value="0.330539479951835" flag="0"/>
			<psa10 value="0.0993062785535363" flag="0"/>
			<psa30 value="0.0142285209030292" flag="0"/>
		</comp>
		<comp name=".HNZ" depth="0.0">
			<acc value="0.07207881171105" flag="0"/>
			<vel value="0.045886394874" flag="0"/>
			<psa03 value="0.274281878161829" flag="0"/>
			<psa10 value="0.0709275411013446" flag="0"/>
			<psa30 value="0.00841690841219815" flag="0"/>
		</comp>
	</station>
	<station code="KTL1" name="KTL1" netid="HI" source="ITSAK Strong Motion Network" insttype="" lat="35.20778" lon="25.34272">
		<comp name=".HNE" depth="0.0">
			<acc value="0.062289721080102" flag="0"/>
			<vel value="0.0449745950799" flag="0"/>
			<psa03 value="0.15485178942118" flag="0"/>
			<psa10 value="0.0282705127827106" flag="0"/>
			<psa30 value="0.00700774006170323" flag="0"/>
		</comp>
		<comp name=".HNN" depth="0.0">
			<acc value="0.053091549007962" flag="0"/>
			<vel value="0.0371424573118" flag="0"/>
