<?xml version="1.0" encoding="UTF-8" standalone="yes"?>
<!DOCTYPE earthquake SYSTEM "stationlist.dtd">
<stationlist created="" xmlns="ch.ethz.sed.shakemap.usgs.xml">
  <station code="ARPRA" name="ARPRA" netid="KO" insttype="CMG-5T" lat="39.0929" lon="38.3356">
    <comp name="--.HNE">
      <acc value="0.0483326061" flag="0"/>
      <vel value="0.0228144729" flag="0"/>
      <psa03 value="0.1301354205" flag="0"/>
      <psa10 value="0.0327052329" flag="0"/>
      <psa30 value="0.0016172370" flag="0"/>
    </comp>
    <comp name="--.HNZ">
      <acc value="0.0204807512" flag="0"/>
      <vel value="0.0097593199" flag="0"/>
      <psa03 value="0.0567246407" flag="0"/>
      <psa10 value="0.0128210360" flag="0"/>
      <psa30 value="0.0006666973" flag="0"/>
    </comp>
    <comp name="--.HNN">
      <acc value="0.0519637208" flag="0"/>
      <vel value="0.0240666426" flag="0"/>
      <psa03 value="0.1539553280" flag="0"/>
      <psa10 value="0.0169058103" flag="0"/>
      <psa30 value="0.0010988118" flag="0"/>
    </comp>
  </station>
</stationlist>
