<stationlist created="1765332010">
	<station code="KTHA" name="KTHA" netid="GE" source="GEOFON" insttype="" lat="36.2566" lon="23.0621">
		<comp name="--.HNE" depth="0.0">
			<acc value="0.0095880464264322" flag="0"/>
			<vel value="0.00712176085241" flag="0"/>
			<psa03 value="0.0162266686871662" flag="0"/>
			<psa10 value="0.0127276259552454" flag="0"/>
			<psa30 value="0.00265147689732945" flag="0"/>
		</comp>
		<comp name="--.HNN" depth="0.0">
			<acc value="0.0064126206628764" flag="0"/>
			<vel value="0.00636188432203" flag="0"/>
			<psa03 value="0.0116704436825262" flag="0"/>
			<psa10 value="0.00884923621848712" flag="0"/>
			<psa30 value="0.00221331891318121" flag="0"/>
		</comp>
		<comp name="--.HNZ" depth="0.0">
			<acc value="0.006678972426354" flag="0"/>
			<vel value="0.0178594363682" flag="0"/>
			<psa03 value="0.0112050300386503" flag="0"/>
			<psa10 value="0.00832703099992855" flag="0"/>
			<psa30 value="0.0066781936475542" flag="0"/>
		</comp>
	</station>
	<station code="ABEA" name="ABEA" netid="HC" source="Seismological Network of Crete (HC)" insttype="" lat="35.5163" lon="24.0113">
		<comp name="--.HNE" depth="0.0">
			<acc value="0.0014801953270044" flag="0"/>
			<vel value="0.00186415004656" flag="0"/>
			<psa03 value="0.00161773981706298" flag="0"/>
			<psa10 value="0.00152391017032084" flag="0"/>
			<psa30 value="0.00118971245844576" flag="0"/>
		</comp>
		<comp name="--.HNN" depth="0.0">
			<acc value="0.0014320070838414" flag="0"/>
			<vel value="0.00225911964872" flag="0"/>
			<psa03 value="0.00123934455166638" flag="0"/>
			<psa10 value="0.00144835989204587" flag="0"/>
			<psa30 value="0.000818243058752662" flag="0"/>
		</comp>
		<comp name="--.HNZ" depth="0.0">
			<acc value="0.0015508412710944" flag="0"/>
			<vel value="0.0015902590901" flag="0"/>
			<psa03 value="0.00127615371209669" flag="0"/>
			<psa10 value="0.00116522281529213" flag="0"/>
			<psa30 value="0.000747444514530209" flag="0"/>
		</comp>
	</station>
	<station code="ATEI" name="ATEI" netid="HC" source="Seismological Network of Crete (HC)" insttype="" lat="35.5193" lon="24.0432">
		<comp name="--.HNE" depth="0.0">
			<acc value="0.0040527402226314" flag="0"/>
			<vel value="0.00551539791521" flag="0"/>
			<psa03 value="0.0107769925686971" flag="0"/>
			<psa10 value="0.00879001323274564" flag="0"/>
			<psa30 value="0.00189004416448559" flag="0"/>
		</comp>
		<comp name="--.HNN" depth="0.0">
			<acc value="0.0046439224804482" flag="0"/>
			<vel value="0.00544481898447" flag="0"/>
			<psa03 value="0.00957539799498025" flag="0"/>
			<psa10 value="0.0114019909509449" flag="0"/>
			<psa30 value="0.00162856267595237" flag="0"/>
		</comp>
		<comp name="--.HNZ" depth="0.0">
			<acc value="0.0029613372561552" flag="0"/>
			<vel value="0.00320374306937" flag="0"/>
			<psa03 value="0.00841670665406296" flag="0"/>
			<psa10 value="0.0039005726906712" flag="0"/>
			<psa30 value="0.00114669481707224" flag="0"/>
		</comp>
	</station>
	<station code="G0LD" name="G0LD" netid="HC" source="Seismological Network of Crete (HC)" insttype="" lat="35.4955" lon="24.0306">
		<comp name="--.HNE" depth="0.0">
			<acc value="0.0020867523612558" flag="0"/>
			<vel value="0.00275826462874" flag="0"/>
			<psa03 value="0.00175506190225925" flag="0"/>
			<psa10 value="0.00195755690510202" flag="0"/>
			<psa30 value="0.00186225044828746" flag="0"/>
		</comp>
		<comp name="--.HNN" depth="0.0">
			<acc value="0.00245858661009" flag="0"/>
			<vel value="0.00285554053445" flag="0"/>
			<psa03 value="0.00132371797953227" flag="0"/>
			<psa10 value="0.00126741169417856" flag="0"/>
			<psa30 value="0.000915503876803504" flag="0"/>
		</comp>
		<comp name="--.HNZ" depth="0.0">
			<acc value="0.0026223675802212" flag="0"/>
			<vel value="0.0043104456812" flag="0"/>
			<psa03 value="0.00223263406641434" flag="0"/>
			<psa10 value="0.00234827712433461" flag="0"/>
			<psa30 value="0.00168057955931335" flag="0"/>
		</comp>
	</station>
	<station code="MULT" name="MULT" netid="HC" source="Seismological Network of Crete (HC)" insttype="" lat="35.5091" lon="24.0118">
		<comp name="--.HNE" depth="0.0">
			<acc value="0.0013414787488596" flag="0"/>
			<vel value="0.00202666723572" flag="0"/>
			<psa03 value="0.00121236465565678" flag="0"/>
			<psa10 value="0.00136180954913511" flag="0"/>
			<psa30 value="0.00130312122121744" flag="0"/>
		</comp>
		<comp name="--.HNN" depth="0.0">
			<acc value="0.0013203564115734" flag="0"/>
			<vel value="0.00150628949524" flag="0"/>
			<psa03 value="0.00138354673130668" flag="0"/>
			<psa10 value="0.000953617098235733" flag="0"/>
			<psa30 value="0.0008904434666743" flag="0"/>
		</comp>
		<comp name="--.HNZ" depth="0.0">
			<acc value="0.0032808653275878" flag="0"/>
			<vel value="0.00467236245813" flag="0"/>
			<psa03 value="0.00316119053315075" flag="0"/>
			<psa10 value="0.00283362185416719" flag="0"/>
			<psa30 value="0.00162340795947738" flag="0"/>
		</comp>
	</station>
	<station code="PASK" name="PASK" netid="HC" source="Seismological Network of Crete (HC)" insttype="" lat="35.4996" lon="24.0121">
		<comp name="--.HNE" depth="0.0">
			<acc value="0.0094243516561236" flag="0"/>
			<vel value="0.0108325387789" flag="0"/>
			<psa03 value="0.017929871359735" flag="0"/>
			<psa10 value="0.0155161100536465" flag="0"/>
			<psa30 value="0.00290172722518835" flag="0"/>
		</comp>
		<comp name="--.HNN" depth="0.0">
			<acc value="0.007241333259099" flag="0"/>
			<vel value="0.0094765555602" flag="0"/>
			<psa03 value="0.0162728735709253" flag="0"/>
			<psa10 value="0.0121297772882224" flag="0"/>
			<psa30 value="0.00310169234689715" flag="0"/>
		</comp>
		<comp name="--.HNZ" depth="0.0">
			<acc value="0.0041486679242778" flag="0"/>
			<vel value="0.00577696498331" flag="0"/>
			<psa03 value="0.0100300557180215" flag="0"/>
			<psa10 value="0.00745509683233554" flag="0"/>
			<psa30 value="0.00183585995004563" flag="0"/>
		</comp>
	</station>
	<station code="ARE2" name="ARE2" netid="HI" source="ITSAK Strong Motion Network" insttype="" lat="36.66629" lon="22.382635">
		<comp name="--.HNE" depth="0.0">
			<acc value="0.0127896048456" flag="0"/>
			<vel value="0.0182416313973" flag="0"/>
			<psa03 value="0.0301971879155024" flag="0"/>
			<psa10 value="0.0251269701634423" flag="0"/>
			<psa30 value="0.0024680432874221" flag="0"/>
		</comp>
		<comp name="--.HNN" depth="0.0">
			<acc value="0.014232151417194" flag="0"/>
			<vel value="0.00994053740468" flag="0"/>
			<psa03 value="0.0674605418463601" flag="0"/>
			<psa10 value="0.0121654852786846" flag="0"/>
			<psa30 value="0.00123450198803245" flag="0"/>
		</comp>
		<comp name="--.HNZ" depth="0.0">
			<acc value="0.0077006560287048" flag="0"/>
			<vel value="0.00960895145003" flag="0"/>
			<psa03 value="0.0191502256397107" flag="0"/>
			<psa10 value="0.0105117316631346" flag="0"/>
			<psa30 value="0.00198977868807207" flag="0"/>
		</comp>
	</station>
	<station code="ARS1" name="ARS1" netid="HI" source="ITSAK Strong Motion Network" insttype="" lat="37.6349" lon="22.7293">
		<comp name="--.HNE" depth="0.0">
			<acc value="0.004287346775805" flag="0"/>
			<vel value="0.00369142307136" flag="0"/>
			<psa03 value="0.00792951813020354" flag="0"/>
			<psa10 value="0.00481773649514481" flag="0"/>
			<psa30 value="0.00173836838754051" flag="0"/>
		</comp>
		<comp name="--.HNN" depth="0.0">
			<acc value="0.0059663764751016" flag="0"/>
			<vel value="0.00439530128415" flag="0"/>
			<psa03 value="0.00808155229025945" flag="0"/>
			<psa10 value="0.00783963793127745" flag="0"/>
			<psa30 value="0.00138993915998016" flag="0"/>
		</comp>
		<comp name="--.HNZ" depth="0.0">
			<acc value="0.006615097885068" flag="0"/>
			<vel value="0.00193126958627" flag="0"/>
			<psa03 value="0.00581722520638068" flag="0"/>
			<psa10 value="0.00311828844630515" flag="0"/>
			<psa30 value="0.000823314540549011" flag="0"/>
		</comp>
	</station>
	<station code="CH01" name="CH01" netid="HI" source="ITSAK Strong Motion Network" insttype="" lat="35.517" lon="24.0208">
		<comp name="--.HNE" depth="0.0">
			<acc value="0.003977170701087" flag="0"/>
			<vel value="0.00642847158289" flag="0"/>
			<psa03 value="0.0107214172725259" flag="0"/>
			<psa10 value="0.00702018989689241" flag="0"/>
			<psa30 value="0.0026407688963108" flag="0"/>
		</comp>
		<comp name="--.HNN" depth="0.0">
			<acc value="0.0040770974023506" flag="0"/>
			<vel value="0.00670355057597" flag="0"/>
			<psa03 value="0.00748874934808542" flag="0"/>
			<psa10 value="0.0103036369403842" flag="0"/>
			<psa30 value="0.00197598485763071" flag="0"/>
		</comp>
		<comp name="--.HNZ" depth="0.0">
			<acc value="0.0024239251674702" flag="0"/>
			<vel value="0.00377022957824" flag="0"/>
			<psa03 value="0.00548176092619768" flag="0"/>
			<psa10 value="0.00749190036413362" flag="0"/>
			<psa30 value="0.0012803822148729" flag="0"/>
		</comp>
	</station>
	<station code="CH02" name="CH02" netid="HI" source="ITSAK Strong Motion Network" insttype="" lat="35.5145" lon="24.0315">
		<comp name="--.HNE" depth="0.0">
			<acc value="0.0051936659098068" flag="0"/>
			<vel value="0.00772177826342" flag="0"/>
			<psa03 value="0.0114340582315047" flag="0"/>
			<psa10 value="0.0165516652166021" flag="0"/>
			<psa30 value="0.00183703773640281" flag="0"/>
		</comp>
		<comp name="--.HNN" depth="0.0">
			<acc value="0.0062419872489318" flag="0"/>
			<vel value="0.00921687337024" flag="0"/>
			<psa03 value="0.0106717837762031" flag="0"/>
			<psa10 value="0.014990814630383" flag="0"/>
			<psa30 value="0.00254132814218282" flag="0"/>
		</comp>
		<comp name="--.HNZ" depth="0.0">
			<acc value="0.0032090050116756" flag="0"/>
			<vel value="0.00405141549152" flag="0"/>
			<psa03 value="0.00660297322186609" flag="0"/>
			<psa10 value="0.00864897576468483" flag="0"/>
			<psa30 value="0.00132622223071554" flag="0"/>
		</comp>
	</station>
	<station code="CH03" name="CH03" netid="HI" source="ITSAK Strong Motion Network" insttype="" lat="35.53303" lon="24.0705">
		<comp name="--.HNE" depth="0.0">
			<acc value="0.0026627608426854" flag="0"/>
			<vel value="0.00379432492697" flag="0"/>
			<psa03 value="0.00617769830469605" flag="0"/>
			<psa10 value="0.00654110597243382" flag="0"/>
			<psa30 value="0.0014235720129933" flag="0"/>
		</comp>
		<comp name="--.HNN" depth="0.0">
			<acc value="0.0031869134395446" flag="0"/>
			<vel value="0.0043840524411" flag="0"/>
			<psa03 value="0.007670328434132" flag="0"/>
			<psa10 value="0.00807579716944729" flag="0"/>
			<psa30 value="0.00136107610211324" flag="0"/>
		</comp>
		<comp name="--.HNZ" depth="0.0">
			<acc value="0.0019273198620402" flag="0"/>
			<vel value="0.00203484103753" flag="0"/>
			<psa03 value="0.00482834068720169" flag="0"/>
			<psa10 value="0.00360878320479948" flag="0"/>
			<psa30 value="0.000954169459045574" flag="0"/>
		</comp>
	</station>
	<station code="GTH2" name="GTH2" netid="HI" source="ITSAK Strong Motion Network" insttype="" lat="36.7603" lon="22.5659">
		<comp name="--.HNE" depth="0.0">
			<acc value="0.020944127100534" flag="0"/>
			<vel value="0.0206090570294" flag="0"/>
			<psa03 value="0.0481761810190598" flag="0"/>
			<psa10 value="0.0240918809688955" flag="0"/>
			<psa30 value="0.00202895836686763" flag="0"/>
		</comp>
		<comp name="--.HNN" depth="0.0">
			<acc value="0.017346824007774" flag="0"/>
			<vel value="0.0135865743484" flag="0"/>
			<psa03 value="0.048051198781143" flag="0"/>
			<psa10 value="0.0142768301449296" flag="0"/>
			<psa30 value="0.00207895751239982" flag="0"/>
		</comp>
		<comp name="--.HNZ" depth="0.0">
			<acc value="0.010467801351186" flag="0"/>
			<vel value="0.00820873701081" flag="0"/>
			<psa03 value="0.0310467077336874" flag="0"/>
			<psa10 value="0.0103622880132095" flag="0"/>
			<psa30 value="0.00156520399958533" flag="0"/>
		</comp>
	</station>
	<station code="KIS1" name="KIS1" netid="HI" source="ITSAK Strong Motion Network" insttype="" lat="35.493933" lon="23.658993">
		<comp name="--.HNE" depth="0.0">
			<acc value="0.005201150308227" flag="0"/>
			<vel value="0.0064720186752" flag="0"/>
			<psa03 value="0.0115504682868343" flag="0"/>
			<psa10 value="0.0129890932761633" flag="0"/>
			<psa30 value="0.00142205535002225" flag="0"/>
		</comp>
		<comp name="--.HNN" depth="0.0">
			<acc value="0.0072291037856418" flag="0"/>
			<vel value="0.00701609953433" flag="0"/>
			<psa03 value="0.0164984692446844" flag="0"/>
			<psa10 value="0.00973695096272128" flag="0"/>
			<psa30 value="0.00170149094459245" flag="0"/>
		</comp>
		<comp name="--.HNZ" depth="0.0">
			<acc value="0.0037367077705548" flag="0"/>
			<vel value="0.00390095666724" flag="0"/>
			<psa03 value="0.00937911871641397" flag="0"/>
			<psa10 value="0.00542235717328384" flag="0"/>
			<psa30 value="0.000908192871652976" flag="0"/>
		</comp>
	</station>
	<station code="KRI1" name="KRI1" netid="HI" source="ITSAK Strong Motion Network" insttype="" lat="37.6621" lon="20.8172">
		<comp name="--.HNE" depth="0.0">
			<acc value="0.0017411124932214" flag="0"/>
			<vel value="0.00185888048684" flag="0"/>
			<psa03 value="0.0034666254802593" flag="0"/>
			<psa10 value="0.00353176622780511" flag="0"/>
			<psa30 value="0.000543368547583452" flag="0"/>
		</comp>
		<comp name="--.HNN" depth="0.0">
			<acc value="0.0017927040941598" flag="0"/>
			<vel value="0.0024462236578" flag="0"/>
			<psa03 value="0.00442654649219004" flag="0"/>
			<psa10 value="0.00317312786039606" flag="0"/>
			<psa30 value="0.000979659793485641" flag="0"/>
		</comp>
		<comp name="--.HNZ" depth="0.0">
			<acc value="0.0013669865463618" flag="0"/>
			<vel value="0.00104752234522" flag="0"/>
			<psa03 value="0.00229338451010591" flag="0"/>
			<psa10 value="0.00160461516506722" flag="0"/>
			<psa30 value="0.000476256341312055" flag="0"/>
		</comp>
	</station>
	<station code="KYP2" name="KYP2" netid="HI" source="ITSAK Strong Motion Network" insttype="" lat="37.2497" lon="21.667">
		<comp name="--.HNE" depth="0.0">
			<acc value="0.0064553649080712" flag="0"/>
			<vel value="0.00433416085003" flag="0"/>
			<psa03 value="0.00919352699478302" flag="0"/>
			<psa10 value="0.00623675690453689" flag="0"/>
			<psa30 value="0.00126338879747424" flag="0"/>
		</comp>
		<comp name="--.HNN" depth="0.0">
			<acc value="0.0050168107585734" flag="0"/>
			<vel value="0.00390351239896" flag="0"/>
			<psa03 value="0.00825222831025521" flag="0"/>
			<psa10 value="0.00698656141915701" flag="0"/>
			<psa30 value="0.0012177860890204" flag="0"/>
		</comp>
		<comp name="--.HNZ" depth="0.0">
			<acc value="0.005100719033904" flag="0"/>
			<vel value="0.00250835649279" flag="0"/>
			<psa03 value="0.00559455876309962" flag="0"/>
			<psa10 value="0.00268302828432942" flag="0"/>
			<psa30 value="0.00139350606293722" flag="0"/>
		</comp>
	</station>
	<station code="LEO1" name="LEO1" netid="HI" source="ITSAK Strong Motion Network" insttype="" lat="37.1689" lon="22.8637">
		<comp name="--.HNE" depth="0.0">
			<acc value="0.0031198410229512" flag="0"/>
			<vel value="0.0028249379623" flag="0"/>
			<psa03 value="0.00822869745458851" flag="0"/>
			<psa10 value="0.00622754066899491" flag="0"/>
			<psa30 value="0.0010011740311986" flag="0"/>
		</comp>
		<comp name="--.HNN" depth="0.0">
			<acc value="0.002825946385848" flag="0"/>
			<vel value="0.00351540055585" flag="0"/>
			<psa03 value="0.00735484269098042" flag="0"/>
			<psa10 value="0.00383308064152938" flag="0"/>
			<psa30 value="0.000742016967484096" flag="0"/>
		</comp>
		<comp name="--.HNZ" depth="0.0">
			<acc value="0.0024064248968694" flag="0"/>
			<vel value="0.00268811562977" flag="0"/>
			<psa03 value="0.00542987044447414" flag="0"/>
			<psa10 value="0.00404097472599554" flag="0"/>
			<psa30 value="0.000927226632549227" flag="0"/>
		</comp>
	</station>
	<station code="NPS1" name="NPS1" netid="HI" source="ITSAK Strong Motion Network" insttype="" lat="36.51263" lon="23.06248">
		<comp name="--.HNE" depth="0.0">
			<acc value="0.01263042712074" flag="0"/>
			<vel value="0.00930974352407" flag="0"/>
			<psa03 value="0.0382399889407444" flag="0"/>
			<psa10 value="0.0155168741667468" flag="0"/>
			<psa30 value="0.00147175822592827" flag="0"/>
		</comp>
		<comp name="--.HNN" depth="0.0">
			<acc value="0.01361619131595" flag="0"/>
			<vel value="0.0134253940662" flag="0"/>
			<psa03 value="0.0410475343018503" flag="0"/>
			<psa10 value="0.0111504796020412" flag="0"/>
			<psa30 value="0.00143875833151183" flag="0"/>
		</comp>
		<comp name="--.HNZ" depth="0.0">
			<acc value="0.0060980897698644" flag="0"/>
			<vel value="0.00412583142029" flag="0"/>
			<psa03 value="0.0171979661037478" flag="0"/>
			<psa10 value="0.00622990941965821" flag="0"/>
			<psa30 value="0.00142153177366898" flag="0"/>
		</comp>
	</station>
	<station code="PET1" name="PET1" netid="HI" source="ITSAK Strong Motion Network" insttype="" lat="36.963862" lon="21.92538">
		<comp name="--.HNE" depth="0.0">
			<acc value="0.013730506291356" flag="0"/>
			<vel value="0.0137920772183" flag="0"/>
			<psa03 value="0.054158358559013" flag="0"/>
			<psa10 value="0.0224387545823536" flag="0"/>
			<psa30 value="0.00292336845047822" flag="0"/>
		</comp>
		<comp name="--.HNN" depth="0.0">
			<acc value="0.014540366250396" flag="0"/>
			<vel value="0.0170871284938" flag="0"/>
			<psa03 value="0.0421732234565837" flag="0"/>
			<psa10 value="0.0196175120639052" flag="0"/>
			<psa30 value="0.00169976770543512" flag="0"/>
		</comp>
		<comp name="--.HNZ" depth="0.0">
			<acc value="0.0055753120739166" flag="0"/>
			<vel value="0.00435262707066" flag="0"/>
			<psa03 value="0.0259641705196892" flag="0"/>
			<psa10 value="0.00617608069751722" flag="0"/>
			<psa30 value="0.00103463499782602" flag="0"/>
		</comp>
	</station>
	<station code="PYL1" name="PYL1" netid="HI" source="ITSAK Strong Motion Network" insttype="" lat="36.914188" lon="21.695161">
		<comp name="--.HNE" depth="0.0">
			<acc value="0.0039720197751798" flag="0"/>
			<vel value="0.00657880839873" flag="0"/>
			<psa03 value="0.0114974986320355" flag="0"/>
			<psa10 value="0.00585671985395756" flag="0"/>
			<psa30 value="0.00175511126750806" flag="0"/>
		</comp>
		<comp name="--.HNN" depth="0.0">
			<acc value="0.0045590094280566" flag="0"/>
			<vel value="0.00505507233893" flag="0"/>
			<psa03 value="0.0133817041805591" flag="0"/>
			<psa10 value="0.00941616596226873" flag="0"/>
			<psa30 value="0.00232298492801654" flag="0"/>
		</comp>
		<comp name="--.HNZ" depth="0.0">
			<acc value="0.0032773159856274" flag="0"/>
			<vel value="0.00401393342989" flag="0"/>
			<psa03 value="0.00735373324246473" flag="0"/>
			<psa10 value="0.00455780115070579" flag="0"/>
			<psa30 value="0.00153230942464545" flag="0"/>
		</comp>
	</station>
	<station code="PYR2" name="PYR2" netid="HI" source="ITSAK Strong Motion Network" insttype="" lat="37.6671" lon="21.4506">
		<comp name="--.HNE" depth="0.0">
			<acc value="0.0040511442508266" flag="0"/>
			<vel value="0.0069760167688" flag="0"/>
			<psa03 value="0.0100172456246293" flag="0"/>
			<psa10 value="0.00840990961523927" flag="0"/>
			<psa30 value="0.00218384696080785" flag="0"/>
		</comp>
		<comp name="--.HNN" depth="0.0">
			<acc value="0.003698855080047" flag="0"/>
			<vel value="0.0050426855395" flag="0"/>
			<psa03 value="0.0102929754788845" flag="0"/>
			<psa10 value="0.00984613569568463" flag="0"/>
			<psa30 value="0.00246962401713911" flag="0"/>
		</comp>
		<comp name="--.HNZ" depth="0.0">
			<acc value="0.002377878852132" flag="0"/>
			<vel value="0.00295789821266" flag="0"/>
			<psa03 value="0.00430099390411292" flag="0"/>
			<psa10 value="0.00423053759611162" flag="0"/>
			<psa30 value="0.00185249584375966" flag="0"/>
		</comp>
	</station>
	<station code="TRP1" name="TRP1" netid="HI" source="ITSAK Strong Motion Network" insttype="" lat="37.511219" lon="22.363399">
		<comp name="--.HNE" depth="0.0">
			<acc value="0.0018652322577444" flag="0"/>
			<vel value="0.00250531061626" flag="0"/>
			<psa03 value="0.00431029660370521" flag="0"/>
			<psa10 value="0.00455024674401842" flag="0"/>
			<psa30 value="0.000960079954754026" flag="0"/>
