<?xml version="1.0" encoding="UTF-8" standalone="yes"?>
<!DOCTYPE earthquake SYSTEM "stationlist.dtd">
<stationlist created="" xmlns="ch.ethz.sed.shakemap.usgs.xml">
  <station code="KTHR" name="KTHR" netid="HC" insttype="120s" commtype="DIG" lat="36.2447" lon="22.9939">
    <comp name="--.HHE">
      <acc value="0.0264197166" flag="0"/>
      <vel value="0.0135297189" flag="0"/>
      <psa03 value="0.0814223011" flag="0"/>
      <psa10 value="0.0188152529" flag="0"/>
      <psa30 value="0.0019585882" flag="0"/>
    </comp>
    <comp name="--.HHZ">
      <acc value="0.0147646570" flag="0"/>
      <vel value="0.0082070714" flag="0"/>
      <psa03 value="0.0641808946" flag="0"/>
      <psa10 value="0.0056541329" flag="0"/>
      <psa30 value="0.0007986459" flag="0"/>
    </comp>
    <comp name="--.HHN">
      <acc value="0.0330796462" flag="0"/>
      <vel value="0.0152621786" flag="0"/>
      <psa03 value="0.1574673627" flag="0"/>
      <psa10 value="0.0113185802" flag="0"/>
      <psa30 value="0.0017157926" flag="0"/>
    </comp>
  </station>
  <station code="KAL3" name="KAL3" netid="HI" insttype="unknown" commtype="DIG" lat="37.0246" lon="22.103">
    <comp name="--.HNE">
      <acc value="0.0212594986" flag="0"/>
      <vel value="0.0238549786" flag="0"/>
      <psa03 value="0.0480144476" flag="0"/>
      <psa10 value="0.0395698618" flag="0"/>
      <psa30 value="0.0047433416" flag="0"/>
    </comp>
    <comp name="--.HNN">
      <acc value="0.0217334204" flag="0"/>
      <vel value="0.0209257189" flag="0"/>
      <psa03 value="0.0551008629" flag="0"/>
      <psa10 value="0.0341289543" flag="0"/>
      <psa30 value="0.0055003807" flag="0"/>
    </comp>
    <comp name="--.HNZ">
      <acc value="0.0090327561" flag="0"/>
      <vel value="0.0066791950" flag="0"/>
      <psa03 value="0.0171493070" flag="0"/>
      <psa10 value="0.0096108888" flag="0"/>
      <psa30 value="0.0007429070" flag="0"/>
    </comp>
  </station>
</stationlist>
