<?xml version="1.0" encoding="UTF-8" standalone="yes"?>
<!DOCTYPE earthquake SYSTEM "stationlist.dtd">
<stationlist created="" xmlns="ch.ethz.sed.shakemap.usgs.xml">
  <station code="APE" name="APE" netid="GE" source="GFZ" insttype="STS-2/N" lat="37.0689" lon="25.5306">
    <comp name="--.HHE">
      <acc value="1.7286291594" flag="0"/>
      <vel value="0.3434808722" flag="0"/>
      <psa03 value="1.3150134009" flag="0"/>
      <psa10 value="0.3152263789" flag="0"/>
      <psa30 value="0.0875593266" flag="0"/>
    </comp>
    <comp name="--.HHN">
      <acc value="2.3544519808" flag="0"/>
      <vel value="0.2670104515" flag="0"/>
      <psa03 value="0.8584770613" flag="0"/>
      <psa10 value="0.4314688339" flag="0"/>
      <psa30 value="0.0767889290" flag="0"/>
    </comp>
    <comp name="--.HHZ">
      <acc value="1.3602468152" flag="0"/>
      <vel value="0.2227319698" flag="0"/>
      <psa03 value="0.6104989592" flag="0"/>
      <psa10 value="0.2777926159" flag="0"/>
      <psa30 value="0.0657238879" flag="0"/>
    </comp>
  </station>
  <station code="AMOS" name="AMOS" netid="Z3" source="GFZ" insttype="CMG-3ESP/60" lat="36.7956" lon="25.769">
    <comp name="--.HHE">
      <acc value="0.1595912847" flag="0"/>
      <vel value="0.1894505547" flag="0"/>
      <psa03 value="0.4236676292" flag="0"/>
      <psa10 value="0.3672565726" flag="0"/>
      <psa30 value="0.0213905866" flag="0"/>
    </comp>
    <comp name="--.HHN">
      <acc value="0.1943150319" flag="0"/>
      <vel value="0.1668411716" flag="0"/>
      <psa03 value="0.4841422764" flag="0"/>
      <psa10 value="0.2591412333" flag="0"/>
      <psa30 value="0.0301339942" flag="0"/>
    </comp>
    <comp name="--.HHZ">
      <acc value="0.0962893488" flag="0"/>
      <vel value="0.0689980142" flag="0"/>
      <psa03 value="0.2417460002" flag="0"/>
      <psa10 value="0.1205700627" flag="0"/>
      <psa30 value="0.0319394144" flag="0"/>
    </comp>
  </station>
  <station code="ANDR" name="ANDR" netid="Z3" source="GFZ" insttype="CMG-3ESP/60" lat="37.8361" lon="24.9482">
    <comp name="--.HHE">
      <acc value="0.2690651582" flag="0"/>
      <vel value="0.1722188635" flag="0"/>
      <psa03 value="0.5393393844" flag="0"/>
      <psa10 value="0.1421615896" flag="0"/>
      <psa30 value="0.0295014014" flag="0"/>
    </comp>
    <comp name="--.HHN">
      <acc value="0.1961312330" flag="0"/>
      <vel value="0.0996538201" flag="0"/>
      <psa03 value="0.4601862705" flag="0"/>
      <psa10 value="0.1091694273" flag="0"/>
      <psa30 value="0.0300762376" flag="0"/>
    </comp>
    <comp name="--.HHZ">
      <acc value="0.0730724332" flag="0"/>
      <vel value="0.0286597044" flag="0"/>
      <psa03 value="0.0997517321" flag="0"/>
      <psa10 value="0.0326684194" flag="0"/>
      <psa30 value="0.0060731157" flag="0"/>
    </comp>
  </station>
  <station code="ANID" name="ANID" netid="Z3" source="GFZ" insttype="L4-3D" lat="36.6251" lon="25.6847">
    <comp name="--.HHE">
      <acc value="0.2613983366" flag="0"/>
      <vel value="0.2326216263" flag="0"/>
      <psa03 value="0.2600445454" flag="0"/>
      <psa10 value="0.3707562082" flag="0"/>
      <psa30 value="0.0230847076" flag="0"/>
    </comp>
    <comp name="--.HHN">
      <acc value="0.4285660759" flag="0"/>
      <vel value="0.5392944679" flag="0"/>
      <psa03 value="1.3109792453" flag="0"/>
      <psa10 value="0.8140471302" flag="0"/>
      <psa30 value="0.1954919383" flag="0"/>
    </comp>
    <comp name="--.HHZ">
      <acc value="0.3353389204" flag="0"/>
      <vel value="0.2221198463" flag="0"/>
      <psa03 value="0.8355292401" flag="0"/>
      <psa10 value="0.2621018155" flag="0"/>
      <psa30 value="0.0586656406" flag="0"/>
    </comp>
  </station>
  <station code="ANPA" name="ANPA" netid="Z3" source="GFZ" insttype="CMG-3ESP/60" lat="37.0323" lon="25.0763">
    <comp name="--.HHE">
      <acc value="0.2290788907" flag="0"/>
      <vel value="0.2649471414" flag="0"/>
      <psa03 value="0.6230947293" flag="0"/>
      <psa10 value="0.2779872825" flag="0"/>
      <psa30 value="0.0691893823" flag="0"/>
    </comp>
    <comp name="--.HHN">
      <acc value="0.3045896720" flag="0"/>
      <vel value="0.3011428010" flag="0"/>
      <psa03 value="0.6918640186" flag="0"/>
      <psa10 value="0.3674853993" flag="0"/>
      <psa30 value="0.1203998493" flag="0"/>
    </comp>
    <comp name="--.HHZ">
      <acc value="0.1476862979" flag="0"/>
      <vel value="0.2116143536" flag="0"/>
      <psa03 value="0.3668049771" flag="0"/>
      <psa10 value="0.2178962838" flag="0"/>
      <psa30 value="0.0827767336" flag="0"/>
    </comp>
  </station>
  <station code="AT01" name="AT01" netid="Z3" source="GFZ" insttype="CMG-3ESP/60" lat="38.0562" lon="24.3784">
    <comp name="--.HHE">
      <acc value="0.3932966427" flag="0"/>
      <vel value="0.2210159734" flag="0"/>
      <psa03 value="0.7591785072" flag="0"/>
      <psa10 value="0.2078272486" flag="0"/>
      <psa30 value="0.0411224420" flag="0"/>
    </comp>
    <comp name="--.HHN">
      <acc value="0.4960767722" flag="0"/>
      <vel value="0.2303453174" flag="0"/>
      <psa03 value="0.4965739901" flag="0"/>
      <psa10 value="0.2028372768" flag="0"/>
      <psa30 value="0.0280514892" flag="0"/>
    </comp>
    <comp name="--.HHZ">
      <acc value="0.2669399719" flag="0"/>
      <vel value="0.1764429599" flag="0"/>
      <psa03 value="0.4896838655" flag="0"/>
      <psa10 value="0.2005556174" flag="0"/>
      <psa30 value="0.0447773979" flag="0"/>
    </comp>
  </station>
  <station code="AT02" name="AT02" netid="Z3" source="GFZ" insttype="CMG-3ESP/60" lat="38.0473" lon="23.8638">
    <comp name="--.HHE">
      <acc value="0.3164250111" flag="0"/>
      <vel value="0.2531021930" flag="0"/>
      <psa03 value="0.9810810663" flag="0"/>
      <psa10 value="0.2474290306" flag="0"/>
      <psa30 value="0.0522047573" flag="0"/>
    </comp>
    <comp name="--.HHN">
      <acc value="0.3822728382" flag="0"/>
      <vel value="0.1660693005" flag="0"/>
      <psa03 value="0.4424013113" flag="0"/>
      <psa10 value="0.2400687642" flag="0"/>
      <psa30 value="0.0401831912" flag="0"/>
    </comp>
    <comp name="--.HHZ">
      <acc value="0.1719755491" flag="0"/>
      <vel value="0.1954792869" flag="0"/>
      <psa03 value="0.4653816293" flag="0"/>
      <psa10 value="0.2236540968" flag="0"/>
      <psa30 value="0.0472044327" flag="0"/>
    </comp>
  </station>
  <station code="AT03" name="AT03" netid="Z3" source="GFZ" insttype="CMG-3ESP/60" lat="38.0268" lon="23.4677">
    <comp name="--.HHE">
      <acc value="0.1720600589" flag="0"/>
      <vel value="0.2334802605" flag="0"/>
      <psa03 value="0.4885310331" flag="0"/>
      <psa10 value="0.2947125996" flag="0"/>
      <psa30 value="0.0778444488" flag="0"/>
    </comp>
    <comp name="--.HHN">
      <acc value="0.2592908155" flag="0"/>
      <vel value="0.3343741808" flag="0"/>
      <psa03 value="0.4256946886" flag="0"/>
      <psa10 value="0.2526386126" flag="0"/>
      <psa30 value="0.0974809699" flag="0"/>
    </comp>
    <comp name="--.HHZ">
      <acc value="0.1256637191" flag="0"/>
      <vel value="0.1483581911" flag="0"/>
      <psa03 value="0.2531850880" flag="0"/>
      <psa10 value="0.1022219291" flag="0"/>
      <psa30 value="0.0532367255" flag="0"/>
    </comp>
  </station>
  <station code="AT04" name="AT04" netid="Z3" source="GFZ" insttype="CMG-3ESP/60" lat="37.7252" lon="24.0496">
    <comp name="--.HHE">
      <acc value="0.4375408601" flag="0"/>
      <vel value="0.3055987394" flag="0"/>
      <psa03 value="1.0720216558" flag="0"/>
      <psa10 value="0.4405459462" flag="0"/>
      <psa30 value="0.0472184916" flag="0"/>
    </comp>
    <comp name="--.HHN">
      <acc value="0.3481199219" flag="0"/>
      <vel value="0.2623615367" flag="0"/>
      <psa03 value="0.6947264532" flag="0"/>
      <psa10 value="0.3158629085" flag="0"/>
      <psa30 value="0.0407054634" flag="0"/>
    </comp>
    <comp name="--.HHZ">
      <acc value="0.2615761398" flag="0"/>
      <vel value="0.2178643735" flag="0"/>
      <psa03 value="0.6357650257" flag="0"/>
      <psa10 value="0.2226600034" flag="0"/>
      <psa30 value="0.0489963833" flag="0"/>
    </comp>
  </station>
  <station code="IOSI" name="IOSI" netid="Z3" source="GFZ" insttype="STS-2/N" lat="36.7347" lon="25.3618">
    <comp name="--.HHE">
      <acc value="0.2879764636" flag="0"/>
      <vel value="0.1251856928" flag="0"/>
      <psa03 value="0.7114070055" flag="0"/>
      <psa10 value="0.1532110572" flag="0"/>
      <psa30 value="0.0108938866" flag="0"/>
    </comp>
    <comp name="--.HHN">
      <acc value="0.3671025573" flag="0"/>
      <vel value="0.1868437040" flag="0"/>
      <psa03 value="0.4964184217" flag="0"/>
      <psa10 value="0.1839691583" flag="0"/>
      <psa30 value="0.0179739114" flag="0"/>
    </comp>
    <comp name="--.HHZ">
      <acc value="0.1282166585" flag="0"/>
      <vel value="0.0602792952" flag="0"/>
      <psa03 value="0.2575982150" flag="0"/>
      <psa10 value="0.0521250324" flag="0"/>
      <psa30 value="0.0109900486" flag="0"/>
    </comp>
  </station>
  <station code="KEAI" name="KEAI" netid="Z3" source="GFZ" insttype="CMG-3ESP/60" lat="37.6232" lon="24.3191">
    <comp name="--.HHE">
      <acc value="0.5987234924" flag="0"/>
      <vel value="0.2465842882" flag="0"/>
      <psa03 value="0.9428483330" flag="0"/>
      <psa10 value="0.2657911628" flag="0"/>
      <psa30 value="0.0436604441" flag="0"/>
    </comp>
    <comp name="--.HHN">
      <acc value="0.6071773582" flag="0"/>
      <vel value="0.2761567006" flag="0"/>
      <psa03 value="1.3866933926" flag="0"/>
      <psa10 value="0.1782550968" flag="0"/>
      <psa30 value="0.0735870873" flag="0"/>
    </comp>
    <comp name="--.HHZ">
      <acc value="0.3247069560" flag="0"/>
      <vel value="0.2160335410" flag="0"/>
      <psa03 value="0.6740463329" flag="0"/>
      <psa10 value="0.1585897423" flag="0"/>
      <psa30 value="0.0302480870" flag="0"/>
    </comp>
  </station>
  <station code="MYKO" name="MYKO" netid="Z3" source="GFZ" insttype="STS-2/N" lat="37.4822" lon="25.3844">
    <comp name="--.HHE">
      <acc value="0.2335594556" flag="0"/>
      <vel value="0.1230360030" flag="0"/>
      <psa03 value="0.8144780692" flag="0"/>
      <psa10 value="0.1297239953" flag="0"/>
      <psa30 value="0.0317610892" flag="0"/>
    </comp>
    <comp name="--.HHN">
      <acc value="0.2491583582" flag="0"/>
      <vel value="0.1349892727" flag="0"/>
      <psa03 value="0.8166256983" flag="0"/>
      <psa10 value="0.2074708018" flag="0"/>
      <psa30 value="0.0312925391" flag="0"/>
    </comp>
    <comp name="--.HHZ">
      <acc value="0.1244196200" flag="0"/>
      <vel value="0.1095561574" flag="0"/>
      <psa03 value="0.3860121925" flag="0"/>
      <psa10 value="0.1125224135" flag="0"/>
      <psa30 value="0.0261796403" flag="0"/>
    </comp>
  </station>
  <station code="NAXO" name="NAXO" netid="Z3" source="GFZ" insttype="L4-3D" lat="36.98" lon="25.44">
    <comp name="--.HHE">
      <acc value="0.4143124339" flag="0"/>
      <vel value="0.3642567645" flag="0"/>
      <psa03 value="1.8993842315" flag="0"/>
      <psa10 value="0.5406123309" flag="0"/>
      <psa30 value="0.0624443269" flag="0"/>
    </comp>
    <comp name="--.HHN">
      <acc value="0.3158132888" flag="0"/>
      <vel value="0.3784361929" flag="0"/>
      <psa03 value="0.9028002102" flag="0"/>
      <psa10 value="0.6075770046" flag="0"/>
      <psa30 value="0.1067300491" flag="0"/>
    </comp>
    <comp name="--.HHZ">
      <acc value="0.2549707726" flag="0"/>
      <vel value="0.3272197084" flag="0"/>
      <psa03 value="1.0439217513" flag="0"/>
      <psa10 value="0.4425004008" flag="0"/>
      <psa30 value="0.0781179097" flag="0"/>
    </comp>
  </station>
  <station code="NEAK" name="NEAK" netid="Z3" source="GFZ" insttype="L4-3D" lat="36.4087" lon="25.4014">
    <comp name="--.HHE">
      <acc value="1.0429756050" flag="0"/>
      <vel value="1.3713683519" flag="0"/>
      <psa03 value="1.9927632612" flag="0"/>
      <psa10 value="2.8964694660" flag="0"/>
      <psa30 value="0.3897912257" flag="0"/>
    </comp>
    <comp name="--.HHN">
      <acc value="3.4009907879" flag="0"/>
      <vel value="1.3928125351" flag="0"/>
      <psa03 value="2.3812699064" flag="0"/>
      <psa10 value="3.1690220080" flag="0"/>
      <psa30 value="0.3552344366" flag="0"/>
    </comp>
    <comp name="--.HHZ">
      <acc value="0.3153876865" flag="0"/>
      <vel value="0.3427170294" flag="0"/>
      <psa03 value="0.9518970772" flag="0"/>
      <psa10 value="0.5549555380" flag="0"/>
      <psa30 value="0.0974678880" flag="0"/>
    </comp>
  </station>
  <station code="PARS" name="PARS" netid="Z3" source="GFZ" insttype="L4-3D" lat="37.0285" lon="25.2253">
    <comp name="--.HHE">
      <acc value="1.1513747517" flag="0"/>
      <vel value="0.4162905209" flag="0"/>
      <psa03 value="2.2189689928" flag="0"/>
      <psa10 value="0.5720161998" flag="0"/>
      <psa30 value="0.0737715587" flag="0"/>
    </comp>
    <comp name="--.HHN">
      <acc value="1.1948339523" flag="0"/>
      <vel value="0.4797125870" flag="0"/>
      <psa03 value="2.4982124779" flag="0"/>
      <psa10 value="0.5836251961" flag="0"/>
      <psa30 value="0.1400133909" flag="0"/>
    </comp>
    <comp name="--.HHZ">
      <acc value="0.9418885294" flag="0"/>
      <vel value="0.3911815580" flag="0"/>
      <psa03 value="1.9060645006" flag="0"/>
      <psa10 value="0.4595054103" flag="0"/>
      <psa30 value="0.1014270908" flag="0"/>
    </comp>
  </station>
  <station code="PE01" name="PE01" netid="Z3" source="GFZ" insttype="CMG-3ESP/60" lat="38.017" lon="22.0283">
    <comp name="--.HHE">
      <acc value="0.2043096289" flag="0"/>
      <vel value="0.1922859071" flag="0"/>
      <psa03 value="0.5668444794" flag="0"/>
      <psa10 value="0.2389693362" flag="0"/>
      <psa30 value="0.0574149765" flag="0"/>
    </comp>
    <comp name="--.HHN">
      <acc value="0.2293988574" flag="0"/>
      <vel value="0.2498454751" flag="0"/>
      <psa03 value="0.5523304107" flag="0"/>
      <psa10 value="0.3242765926" flag="0"/>
      <psa30 value="0.0726999229" flag="0"/>
    </comp>
    <comp name="--.HHZ">
      <acc value="0.1240420560" flag="0"/>
      <vel value="0.1841591741" flag="0"/>
      <psa03 value="0.3792608332" flag="0"/>
      <psa10 value="0.1806206422" flag="0"/>
      <psa30 value="0.0690640144" flag="0"/>
    </comp>
  </station>
  <station code="PE02" name="PE02" netid="Z3" source="GFZ" insttype="CMG-3ESP/60" lat="37.8958" lon="22.4907">
    <comp name="--.HHE">
      <acc value="0.5134390360" flag="0"/>
      <vel value="0.1923159516" flag="0"/>
      <psa03 value="0.7154409583" flag="0"/>
      <psa10 value="0.2930931789" flag="0"/>
      <psa30 value="0.0678075334" flag="0"/>
    </comp>
    <comp name="--.HHN">
      <acc value="0.5205683956" flag="0"/>
      <vel value="0.2217299243" flag="0"/>
      <psa03 value="0.8215779693" flag="0"/>
      <psa10 value="0.3027600832" flag="0"/>
      <psa30 value="0.0755720020" flag="0"/>
    </comp>
    <comp name="--.HHZ">
      <acc value="0.2596116549" flag="0"/>
      <vel value="0.1707289430" flag="0"/>
      <psa03 value="0.3683535339" flag="0"/>
      <psa10 value="0.2595401983" flag="0"/>
      <psa30 value="0.0641091263" flag="0"/>
    </comp>
  </station>
  <station code="PE05" name="PE05" netid="Z3" source="GFZ" insttype="CMG-3ESP/60" lat="37.5128" lon="22.4553">
    <comp name="--.HHE">
      <acc value="0.2182329094" flag="0"/>
      <vel value="0.2421236846" flag="0"/>
      <psa03 value="0.5197401070" flag="0"/>
      <psa10 value="0.2595994805" flag="0"/>
      <psa30 value="0.0818627400" flag="0"/>
    </comp>
    <comp name="--.HHN">
      <acc value="0.2062520414" flag="0"/>
      <vel value="0.2425644034" flag="0"/>
      <psa03 value="0.4531110427" flag="0"/>
      <psa10 value="0.1969404599" flag="0"/>
      <psa30 value="0.0973994377" flag="0"/>
    </comp>
    <comp name="--.HHZ">
      <acc value="0.1706346215" flag="0"/>
      <vel value="0.1771338050" flag="0"/>
      <psa03 value="0.2773943810" flag="0"/>
      <psa10 value="0.1952185275" flag="0"/>
      <psa30 value="0.0861611716" flag="0"/>
    </comp>
  </station>
  <station code="SCHI" name="SCHI" netid="Z3" source="GFZ" insttype="L4-3D" lat="36.8744" lon="25.518">
    <comp name="--.HHE">
      <acc value="0.8140922299" flag="0"/>
      <vel value="0.6605981495" flag="0"/>
      <psa03 value="2.4957949493" flag="0"/>
      <psa10 value="0.9718583394" flag="0"/>
      <psa30 value="0.0830448775" flag="0"/>
    </comp>
    <comp name="--.HHN">
      <acc value="0.7332875325" flag="0"/>
      <vel value="0.7393652746" flag="0"/>
      <psa03 value="1.6344628058" flag="0"/>
      <psa10 value="1.4885981743" flag="0"/>
      <psa30 value="0.1370379025" flag="0"/>
    </comp>
    <comp name="--.HHZ">
      <acc value="0.3483307078" flag="0"/>
      <vel value="0.2338843074" flag="0"/>
      <psa03 value="0.7509106222" flag="0"/>
      <psa10 value="0.4099228234" flag="0"/>
      <psa30 value="0.0583275732" flag="0"/>
    </comp>
  </station>
  <station code="SERI" name="SERI" netid="Z3" source="GFZ" insttype="CMG-3ESP/60" lat="37.161" lon="24.4853">
    <comp name="--.HHE">
      <acc value="0.8441983452" flag="0"/>
      <vel value="0.3488120704" flag="0"/>
      <psa03 value="1.9114510462" flag="0"/>
      <psa10 value="0.2436157455" flag="0"/>
      <psa30 value="0.0423982903" flag="0"/>
    </comp>
    <comp name="--.HHN">
      <acc value="1.1566380686" flag="0"/>
      <vel value="0.3451919436" flag="0"/>
      <psa03 value="1.5638613840" flag="0"/>
      <psa10 value="0.1478262812" flag="0"/>
      <psa30 value="0.0368776663" flag="0"/>
    </comp>
    <comp name="--.HHZ">
      <acc value="0.7062421761" flag="0"/>
      <vel value="0.2789412937" flag="0"/>
      <psa03 value="1.4091896856" flag="0"/>
      <psa10 value="0.2718994344" flag="0"/>
      <psa30 value="0.0471541172" flag="0"/>
    </comp>
  </station>
  <station code="SYRO" name="SYRO" netid="Z3" source="GFZ" insttype="CMG-3ESP/60" lat="37.4569" lon="24.9266">
    <comp name="--.HHE">
      <acc value="0.3927916068" flag="0"/>
      <vel value="0.1722371754" flag="0"/>
      <psa03 value="1.0784408500" flag="0"/>
      <psa10 value="0.1310629948" flag="0"/>
      <psa30 value="0.0256330633" flag="0"/>
    </comp>
    <comp name="--.HHN">
      <acc value="0.4207395679" flag="0"/>
      <vel value="0.1932869641" flag="0"/>
      <psa03 value="1.0077654887" flag="0"/>
      <psa10 value="0.1122063253" flag="0"/>
      <psa30 value="0.0342359751" flag="0"/>
    </comp>
    <comp name="--.HHZ">
      <acc value="0.2623742496" flag="0"/>
      <vel value="0.1328705178" flag="0"/>
      <psa03 value="0.5850367032" flag="0"/>
      <psa10 value="0.0977321143" flag="0"/>
      <psa30 value="0.0405504010" flag="0"/>
    </comp>
  </station>
</stationlist>
