<?xml version="1.0" encoding="UTF-8" standalone="yes"?>
<!DOCTYPE earthquake SYSTEM "stationlist.dtd">
<stationlist created="" xmlns="ch.ethz.sed.shakemap.usgs.xml">
  <station code="AGRP" name="AGRP" netid="CL" source="RESIF" insttype="30" lat="38.3959" lon="21.7228">
    <comp name="00.HHE">
      <acc value="0.0083223154" flag="0"/>
      <vel value="0.0085836428" flag="0"/>
      <psa03 value="0.0213618608" flag="0"/>
      <psa10 value="0.0112914588" flag="0"/>
      <psa30 value="0.0021917628" flag="0"/>
    </comp>
    <comp name="00.HHN">
      <acc value="0.0057814929" flag="0"/>
      <vel value="0.0066853921" flag="0"/>
      <psa03 value="0.0192330479" flag="0"/>
      <psa10 value="0.0107810035" flag="0"/>
      <psa30 value="0.0010263243" flag="0"/>
    </comp>
    <comp name="00.HHZ">
      <acc value="0.0034774837" flag="0"/>
      <vel value="0.0037797861" flag="0"/>
      <psa03 value="0.0091088600" flag="0"/>
      <psa10 value="0.0065692983" flag="0"/>
      <psa30 value="0.0013598334" flag="0"/>
    </comp>
  </station>
  <station code="MALA" name="MALA" netid="CL" source="RESIF" insttype="30" lat="38.3935" lon="21.8726">
    <comp name="00.HH2">
      <acc value="0.0056623098" flag="0"/>
      <vel value="0.0062729485" flag="0"/>
      <psa03 value="0.0189422233" flag="0"/>
      <psa10 value="0.0102244324" flag="0"/>
      <psa30 value="0.0022678762" flag="0"/>
    </comp>
    <comp name="00.HH3">
      <acc value="0.0060127593" flag="0"/>
      <vel value="0.0076517048" flag="0"/>
      <psa03 value="0.0157626539" flag="0"/>
      <psa10 value="0.0125547622" flag="0"/>
      <psa30 value="0.0020213830" flag="0"/>
    </comp>
    <comp name="00.HHZ">
      <acc value="0.0043834399" flag="0"/>
      <vel value="0.0050921073" flag="0"/>
      <psa03 value="0.0114059450" flag="0"/>
      <psa10 value="0.0095424261" flag="0"/>
      <psa30 value="0.0010606322" flag="0"/>
    </comp>
  </station>
  <station code="MG00" name="MG00" netid="CL" source="RESIF" insttype="40" lat="38.4145" lon="21.9467">
    <comp name="00.HHE">
      <acc value="0.0148151527" flag="0"/>
      <vel value="0.0137990815" flag="0"/>
      <psa03 value="0.0465828868" flag="0"/>
      <psa10 value="0.0153656918" flag="0"/>
      <psa30 value="0.0011863582" flag="0"/>
    </comp>
    <comp name="00.HHN">
      <acc value="0.0190592480" flag="0"/>
      <vel value="0.0149461327" flag="0"/>
      <psa03 value="0.0518867758" flag="0"/>
      <psa10 value="0.0209468567" flag="0"/>
      <psa30 value="0.0011400079" flag="0"/>
    </comp>
    <comp name="00.HHZ">
      <acc value="0.0079145210" flag="0"/>
      <vel value="0.0041686924" flag="0"/>
      <psa03 value="0.0232950611" flag="0"/>
      <psa10 value="0.0062091716" flag="0"/>
      <psa30 value="0.0006785181" flag="0"/>
    </comp>
  </station>
  <station code="MG02" name="MG02" netid="CL" source="RESIF" insttype="40" lat="38.415" lon="21.947">
    <comp name="02.HHE">
      <acc value="0.0126416416" flag="0"/>
      <vel value="0.0142662653" flag="0"/>
      <psa03 value="0.0301878576" flag="0"/>
      <psa10 value="0.0202400435" flag="0"/>
      <psa30 value="0.0012962718" flag="0"/>
    </comp>
    <comp name="02.HHN">
      <acc value="0.0118227434" flag="0"/>
      <vel value="0.0098454595" flag="0"/>
      <psa03 value="0.0235122124" flag="0"/>
      <psa10 value="0.0136074453" flag="0"/>
      <psa30 value="0.0010207688" flag="0"/>
    </comp>
    <comp name="02.HHZ">
      <acc value="0.0102741356" flag="0"/>
      <vel value="0.0076485039" flag="0"/>
      <psa03 value="0.0288508895" flag="0"/>
      <psa10 value="0.0073170428" flag="0"/>
      <psa30 value="0.0006427664" flag="0"/>
    </comp>
  </station>
  <station code="MG03" name="MG03" netid="CL" source="RESIF" insttype="40" lat="38.4141" lon="21.946">
    <comp name="03.HHE">
      <acc value="0.0108255549" flag="0"/>
      <vel value="0.0104871500" flag="0"/>
      <psa03 value="0.0305827366" flag="0"/>
      <psa10 value="0.0145804420" flag="0"/>
      <psa30 value="0.0013139363" flag="0"/>
    </comp>
    <comp name="03.HHN">
      <acc value="0.0047686218" flag="0"/>
      <vel value="0.0048559350" flag="0"/>
      <psa03 value="0.0151600688" flag="0"/>
      <psa10 value="0.0068191248" flag="0"/>
      <psa30 value="0.0004576698" flag="0"/>
    </comp>
    <comp name="03.HHZ">
      <acc value="0.0054419395" flag="0"/>
      <vel value="0.0030946756" flag="0"/>
      <psa03 value="0.0140196053" flag="0"/>
      <psa10 value="0.0047336459" flag="0"/>
      <psa30 value="0.0006447102" flag="0"/>
    </comp>
  </station>
  <station code="MG04" name="MG04" netid="CL" source="RESIF" insttype="40" lat="38.4142" lon="21.9481">
    <comp name="04.HHE">
      <acc value="0.0122450209" flag="0"/>
      <vel value="0.0120192965" flag="0"/>
      <psa03 value="0.0296405724" flag="0"/>
      <psa10 value="0.0185164963" flag="0"/>
      <psa30 value="0.0012919140" flag="0"/>
    </comp>
    <comp name="04.HHN">
      <acc value="0.0128462277" flag="0"/>
      <vel value="0.0135523462" flag="0"/>
      <psa03 value="0.0295657243" flag="0"/>
      <psa10 value="0.0176264111" flag="0"/>
      <psa30 value="0.0008966400" flag="0"/>
    </comp>
    <comp name="04.HHZ">
      <acc value="0.0066610023" flag="0"/>
      <vel value="0.0040832417" flag="0"/>
      <psa03 value="0.0133385931" flag="0"/>
      <psa10 value="0.0063211585" flag="0"/>
      <psa30 value="0.0006510384" flag="0"/>
    </comp>
  </station>
  <station code="MG05" name="MG05" netid="CL" source="RESIF" insttype="30" lat="38.4155" lon="21.9458">
    <comp name="05.HHE">
      <acc value="0.0330125522" flag="0"/>
      <vel value="0.0272833731" flag="0"/>
      <psa03 value="0.0804678223" flag="0"/>
      <psa10 value="0.0440822747" flag="0"/>
      <psa30 value="0.0021680397" flag="0"/>
    </comp>
    <comp name="05.HHN">
      <acc value="0.0333890580" flag="0"/>
      <vel value="0.0357659779" flag="0"/>
      <psa03 value="0.1091526305" flag="0"/>
      <psa10 value="0.0508199119" flag="0"/>
      <psa30 value="0.0031604836" flag="0"/>
    </comp>
    <comp name="05.HHZ">
      <acc value="0.0128175943" flag="0"/>
      <vel value="0.0090815473" flag="0"/>
      <psa03 value="0.0423931135" flag="0"/>
      <psa10 value="0.0180250137" flag="0"/>
      <psa30 value="0.0013634726" flag="0"/>
    </comp>
  </station>
  <station code="MG06" name="MG06" netid="CL" source="RESIF" insttype="40" lat="38.4129" lon="21.9462">
    <comp name="06.HHE">
      <acc value="0.0074217862" flag="0"/>
      <vel value="0.0047173232" flag="0"/>
      <psa03 value="0.0227484579" flag="0"/>
      <psa10 value="0.0099299149" flag="0"/>
      <psa30 value="0.0008550562" flag="0"/>
    </comp>
    <comp name="06.HHN">
      <acc value="0.0074421092" flag="0"/>
      <vel value="0.0074845348" flag="0"/>
      <psa03 value="0.0176052449" flag="0"/>
      <psa10 value="0.0127643234" flag="0"/>
      <psa30 value="0.0012331372" flag="0"/>
    </comp>
    <comp name="06.HHZ">
      <acc value="0.0038424827" flag="0"/>
      <vel value="0.0027929044" flag="0"/>
      <psa03 value="0.0112871461" flag="0"/>
      <psa10 value="0.0057257916" flag="0"/>
      <psa30 value="0.0006317884" flag="0"/>
    </comp>
  </station>
  <station code="MG07" name="MG07" netid="CL" source="RESIF" insttype="40" lat="38.4155" lon="21.9488">
    <comp name="07.HHE">
      <acc value="0.0138652106" flag="0"/>
      <vel value="0.0162785257" flag="0"/>
      <psa03 value="0.0420141498" flag="0"/>
      <psa10 value="0.0233695679" flag="0"/>
      <psa30 value="0.0012007456" flag="0"/>
    </comp>
    <comp name="07.HHN">
      <acc value="0.0235629097" flag="0"/>
      <vel value="0.0209384483" flag="0"/>
      <psa03 value="0.0521977147" flag="0"/>
      <psa10 value="0.0316797441" flag="0"/>
      <psa30 value="0.0015039060" flag="0"/>
    </comp>
    <comp name="07.HHZ">
      <acc value="0.0084205603" flag="0"/>
      <vel value="0.0058320223" flag="0"/>
      <psa03 value="0.0270426736" flag="0"/>
      <psa10 value="0.0103680200" flag="0"/>
      <psa30 value="0.0007075983" flag="0"/>
    </comp>
  </station>
  <station code="TRIZ" name="TRIZ" netid="CL" source="RESIF" insttype="generation" lat="38.3654" lon="22.0727">
    <comp name="00.HH2">
      <acc value="0.0058211592" flag="0"/>
      <vel value="0.0052947569" flag="0"/>
      <psa03 value="0.0176907680" flag="0"/>
      <psa10 value="0.0085832893" flag="0"/>
      <psa30 value="0.0007606127" flag="0"/>
    </comp>
    <comp name="00.HH3">
      <acc value="0.1849740831" flag="0"/>
      <vel value="0.1685645253" flag="0"/>
      <psa03 value="0.6589239679" flag="0"/>
      <psa10 value="0.3241195719" flag="0"/>
      <psa30 value="0.0449045528" flag="0"/>
    </comp>
    <comp name="00.HHZ">
      <acc value="0.0037053326" flag="0"/>
      <vel value="0.0019027743" flag="0"/>
      <psa03 value="0.0052023941" flag="0"/>
      <psa10 value="0.0028618209" flag="0"/>
      <psa30 value="0.0002456641" flag="0"/>
    </comp>
  </station>
  <station code="KLV1" name="KLV1" netid="HI" source="NOA" insttype="CMG-5TD,ACCELEROMETER,GURALP" lat="38.0326" lon="22.108">
    <comp name="--.HNE">
      <acc value="0.0202337356" flag="0"/>
      <vel value="0.0132392927" flag="0"/>
      <psa03 value="0.0733347057" flag="0"/>
      <psa10 value="0.0151103097" flag="0"/>
      <psa30 value="0.0012735998" flag="0"/>
    </comp>
    <comp name="--.HNN">
      <acc value="0.0170986495" flag="0"/>
      <vel value="0.0129422584" flag="0"/>
      <psa03 value="0.0651392774" flag="0"/>
      <psa10 value="0.0176741783" flag="0"/>
      <psa30 value="0.0011012622" flag="0"/>
    </comp>
    <comp name="--.HNZ">
      <acc value="0.0080714960" flag="0"/>
      <vel value="0.0073586208" flag="0"/>
      <psa03 value="0.0213744364" flag="0"/>
      <psa10 value="0.0126275686" flag="0"/>
      <psa30 value="0.0009662450" flag="0"/>
    </comp>
  </station>
  <station code="KRI1" name="KRI1" netid="HI" source="NOA" insttype="CMG-5TD,ACCELEROMETER,GURALP" lat="37.6621" lon="20.8172">
    <comp name="--.HNE">
      <acc value="0.0822995694" flag="0"/>
      <vel value="0.0551742587" flag="0"/>
      <psa03 value="0.1994780056" flag="0"/>
      <psa10 value="0.0654839323" flag="0"/>
      <psa30 value="0.0034511496" flag="0"/>
    </comp>
    <comp name="--.HNN">
      <acc value="0.1034300823" flag="0"/>
      <vel value="0.0773881298" flag="0"/>
      <psa03 value="0.3169511881" flag="0"/>
      <psa10 value="0.0649229400" flag="0"/>
      <psa30 value="0.0048957905" flag="0"/>
    </comp>
    <comp name="--.HNZ">
      <acc value="0.0642788804" flag="0"/>
      <vel value="0.0273542963" flag="0"/>
      <psa03 value="0.1603298477" flag="0"/>
      <psa10 value="0.0249595741" flag="0"/>
      <psa30 value="0.0019093142" flag="0"/>
    </comp>
  </station>
  <station code="ITM" name="ITM" netid="HL" source="NOA" insttype="DR24" lat="37.1787" lon="21.9252">
    <comp name="--.HHE">
      <acc value="0.0413195207" flag="0"/>
      <vel value="0.0155268158" flag="0"/>
      <psa03 value="0.0690530580" flag="0"/>
      <psa10 value="0.0186496515" flag="0"/>
      <psa30 value="0.0021242112" flag="0"/>
    </comp>
    <comp name="--.HHN">
      <acc value="0.0751354340" flag="0"/>
      <vel value="0.0185072561" flag="0"/>
      <psa03 value="0.1188405276" flag="0"/>
      <psa10 value="0.0140476097" flag="0"/>
      <psa30 value="0.0024933289" flag="0"/>
    </comp>
    <comp name="--.HHZ">
      <acc value="0.0344322235" flag="0"/>
      <vel value="0.0119497635" flag="0"/>
      <psa03 value="0.0399748012" flag="0"/>
      <psa10 value="0.0207098376" flag="0"/>
      <psa30 value="0.0012794129" flag="0"/>
    </comp>
  </station>
  <station code="KLV" name="KLV" netid="HL" source="NOA" insttype="120" lat="38.0435" lon="22.1504">
    <comp name="--.HHE">
      <acc value="0.0077988322" flag="0"/>
      <vel value="0.0053380605" flag="0"/>
      <psa03 value="0.0151800532" flag="0"/>
      <psa10 value="0.0053698406" flag="0"/>
      <psa30 value="0.0008715502" flag="0"/>
    </comp>
    <comp name="--.HHN">
      <acc value="0.0056065213" flag="0"/>
      <vel value="0.0046211243" flag="0"/>
      <psa03 value="0.0187767824" flag="0"/>
      <psa10 value="0.0073920911" flag="0"/>
      <psa30 value="0.0007694963" flag="0"/>
    </comp>
    <comp name="--.HHZ">
      <acc value="0.0075272071" flag="0"/>
      <vel value="0.0053818253" flag="0"/>
      <psa03 value="0.0175657338" flag="0"/>
      <psa10 value="0.0074000316" flag="0"/>
      <psa30 value="0.0008354369" flag="0"/>
    </comp>
  </station>
  <station code="RLS" name="RLS" netid="HL" source="NOA" insttype="120" lat="38.0559" lon="21.4647">
    <comp name="--.HHE">
      <acc value="0.0290397184" flag="0"/>
      <vel value="0.0245581867" flag="0"/>
      <psa03 value="0.0520439366" flag="0"/>
      <psa10 value="0.0334384445" flag="0"/>
      <psa30 value="0.0018211766" flag="0"/>
    </comp>
    <comp name="--.HHN">
      <acc value="0.0247638046" flag="0"/>
      <vel value="0.0127476598" flag="0"/>
      <psa03 value="0.0858185442" flag="0"/>
      <psa10 value="0.0197128704" flag="0"/>
      <psa30 value="0.0014321119" flag="0"/>
    </comp>
    <comp name="--.HHZ">
      <acc value="0.0131614466" flag="0"/>
      <vel value="0.0090795059" flag="0"/>
      <psa03 value="0.0261725049" flag="0"/>
      <psa10 value="0.0181318492" flag="0"/>
      <psa30 value="0.0016432771" flag="0"/>
    </comp>
  </station>
  <station code="VLS" name="VLS" netid="HL" source="NOA" insttype="120P," lat="38.1768" lon="20.5886">
    <comp name="--.HHE">
      <acc value="0.0290827739" flag="0"/>
      <vel value="0.0117840825" flag="0"/>
      <psa03 value="0.0701545479" flag="0"/>
      <psa10 value="0.0128841261" flag="0"/>
      <psa30 value="0.0017005998" flag="0"/>
    </comp>
    <comp name="--.HHN">
      <acc value="0.0283534140" flag="0"/>
      <vel value="0.0157343636" flag="0"/>
      <psa03 value="0.0741383065" flag="0"/>
      <psa10 value="0.0219990531" flag="0"/>
      <psa30 value="0.0010128640" flag="0"/>
    </comp>
    <comp name="--.HHZ">
      <acc value="0.0169099569" flag="0"/>
      <vel value="0.0067934538" flag="0"/>
      <psa03 value="0.0425434439" flag="0"/>
      <psa10 value="0.0109048487" flag="0"/>
      <psa30 value="0.0008409083" flag="0"/>
    </comp>
  </station>
  <station code="AMT" name="AMT" netid="HP" source="NOA" insttype="CMG-3T," lat="37.5324" lon="21.7089">
    <comp name="00.HHE">
      <acc value="0.1171499736" flag="0"/>
      <vel value="0.0605425187" flag="0"/>
      <psa03 value="0.3036599533" flag="0"/>
      <psa10 value="0.1041084189" flag="0"/>
      <psa30 value="0.0078763581" flag="0"/>
    </comp>
    <comp name="00.HHN">
      <acc value="0.1099606445" flag="0"/>
      <vel value="0.0609666805" flag="0"/>
      <psa03 value="0.3668391058" flag="0"/>
      <psa10 value="0.0550887768" flag="0"/>
      <psa30 value="0.0035608523" flag="0"/>
    </comp>
    <comp name="00.HHZ">
      <acc value="0.0709513605" flag="0"/>
      <vel value="0.0553363617" flag="0"/>
      <psa03 value="0.2164560571" flag="0"/>
      <psa10 value="0.0285558486" flag="0"/>
      <psa30 value="0.0024924610" flag="0"/>
    </comp>
  </station>
  <station code="AXS" name="AXS" netid="HP" source="NOA" insttype="40," lat="38.1962" lon="21.3763">
    <comp name="--.HHE">
      <acc value="0.0077287915" flag="0"/>
      <vel value="0.0102084214" flag="0"/>
      <psa03 value="0.0203426324" flag="0"/>
      <psa10 value="0.0113496116" flag="0"/>
      <psa30 value="0.0020697202" flag="0"/>
    </comp>
    <comp name="--.HHN">
      <acc value="0.0100883461" flag="0"/>
      <vel value="0.0091287444" flag="0"/>
      <psa03 value="0.0223548501" flag="0"/>
      <psa10 value="0.0117209290" flag="0"/>
      <psa30 value="0.0007771857" flag="0"/>
    </comp>
    <comp name="--.HHZ">
      <acc value="0.0043685528" flag="0"/>
      <vel value="0.0044066119" flag="0"/>
      <psa03 value="0.0102589447" flag="0"/>
      <psa10 value="0.0097644045" flag="0"/>
      <psa30 value="0.0005819537" flag="0"/>
    </comp>
  </station>
  <station code="DRO" name="DRO" netid="HP" source="NOA" insttype="120P," lat="37.952" lon="21.71">
    <comp name="--.HHE">
      <acc value="0.0569334433" flag="0"/>
      <vel value="0.0295538436" flag="0"/>
      <psa03 value="0.1602238561" flag="0"/>
      <psa10 value="0.0319627389" flag="0"/>
      <psa30 value="0.0049134836" flag="0"/>
    </comp>
    <comp name="--.HHN">
      <acc value="0.0639344729" flag="0"/>
      <vel value="0.0300774833" flag="0"/>
      <psa03 value="0.2156827228" flag="0"/>
      <psa10 value="0.0315044547" flag="0"/>
      <psa30 value="0.0019869284" flag="0"/>
    </comp>
    <comp name="--.HHZ">
      <acc value="0.0281809604" flag="0"/>
      <vel value="0.0220584078" flag="0"/>
      <psa03 value="0.0606784650" flag="0"/>
      <psa10 value="0.0376780018" flag="0"/>
      <psa30 value="0.0015259845" flag="0"/>
    </comp>
  </station>
  <station code="EFP" name="EFP" netid="HP" source="NOA" insttype="40," lat="38.4269" lon="21.9058">
    <comp name="--.HHZ">
      <acc value="0.0040434604" flag="0"/>
      <vel value="0.0034088529" flag="0"/>
      <psa03 value="0.0142723573" flag="0"/>
      <psa10 value="0.0057365538" flag="0"/>
      <psa30 value="0.0006092908" flag="0"/>
    </comp>
    <comp name="--.HHE">
      <acc value="0.0062030488" flag="0"/>
      <vel value="0.0065371990" flag="0"/>
      <psa03 value="0.0136596333" flag="0"/>
      <psa10 value="0.0136134698" flag="0"/>
      <psa30 value="0.0014361053" flag="0"/>
    </comp>
    <comp name="--.HHN">
      <acc value="0.0050597254" flag="0"/>
      <vel value="0.0050924080" flag="0"/>
      <psa03 value="0.0174471180" flag="0"/>
      <psa10 value="0.0115009939" flag="0"/>
      <psa30 value="0.0010566661" flag="0"/>
    </comp>
  </station>
  <station code="FSK" name="FSK" netid="HP" source="NOA" insttype="40," lat="38.4593" lon="20.5623">
    <comp name="--.HHE">
      <acc value="0.0125136325" flag="0"/>
      <vel value="0.0114429446" flag="0"/>
      <psa03 value="0.0212963997" flag="0"/>
      <psa10 value="0.0107710857" flag="0"/>
      <psa30 value="0.0034013574" flag="0"/>
    </comp>
    <comp name="--.HHN">
      <acc value="0.0072252121" flag="0"/>
      <vel value="0.0085228257" flag="0"/>
      <psa03 value="0.0273383024" flag="0"/>
      <psa10 value="0.0119730091" flag="0"/>
      <psa30 value="0.0016415013" flag="0"/>
    </comp>
    <comp name="--.HHZ">
      <acc value="0.0060460844" flag="0"/>
      <vel value="0.0050329150" flag="0"/>
      <psa03 value="0.0161785238" flag="0"/>
      <psa10 value="0.0071951871" flag="0"/>
      <psa30 value="0.0011537326" flag="0"/>
    </comp>
  </station>
  <station code="GUR" name="GUR" netid="HP" source="NOA" insttype="40," lat="37.9363" lon="22.3423">
    <comp name="--.HHE">
      <acc value="0.0148568857" flag="0"/>
      <vel value="0.0093282348" flag="0"/>
      <psa03 value="0.0355391475" flag="0"/>
      <psa10 value="0.0097391621" flag="0"/>
      <psa30 value="0.0007975280" flag="0"/>
    </comp>
    <comp name="--.HHN">
      <acc value="0.0193577971" flag="0"/>
      <vel value="0.0157333357" flag="0"/>
      <psa03 value="0.0510829311" flag="0"/>
      <psa10 value="0.0139186485" flag="0"/>
      <psa30 value="0.0012416734" flag="0"/>
    </comp>
    <comp name="--.HHZ">
      <acc value="0.0075778383" flag="0"/>
      <vel value="0.0066688036" flag="0"/>
      <psa03 value="0.0232757536" flag="0"/>
      <psa10 value="0.0095649940" flag="0"/>
      <psa30 value="0.0008477700" flag="0"/>
    </comp>
  </station>
  <station code="LTHK" name="LTHK" netid="HP" source="NOA" insttype="40," lat="37.7095" lon="20.8367">
    <comp name="--.HHE">
      <acc value="0.1707034438" flag="0"/>
