<stationlist xmlns:esm="https://esm-db.eu/esmws/shakemap/1/" created="1781920464">
	<station code="ARG2" name="ARG2" netid="HI" source="ITSAK Strong Motion Network" insttype="" lat="38.1783" lon="20.4878" esm:processing="manual (Paolucci et al 2011)" esm:quality="best">
		<comp name="--.HNE" depth="0.0">
			<acc value="0.0540198400829238" flag="0"/>
			<vel value="0.0253869943951054" flag="0"/>
			<psa03 value="0.116598190447216" flag="0"/>
			<psa10 value="0.0183380408045649" flag="0"/>
			<psa30 value="0.00167291110545718" flag="0"/>
		</comp>
		<comp name="--.HNN" depth="0.0">
			<acc value="0.055020000217035" flag="0"/>
			<vel value="0.0312820757227566" flag="0"/>
			<psa03 value="0.0898423508894897" flag="0"/>
			<psa10 value="0.0258399665882505" flag="0"/>
			<psa30 value="0.00212928161296355" flag="0"/>
		</comp>
		<comp name="--.HNZ" depth="0.0">
			<acc value="0.0290616264775143" flag="0"/>
			<vel value="0.0194038983436734" flag="0"/>
			<psa03 value="0.0878289515916675" flag="0"/>
			<psa10 value="0.0137193028153607" flag="0"/>
			<psa30 value="0.00204069204385937" flag="0"/>
		</comp>
	</station>
	<station code="KLV1" name="KLV1" netid="HI" source="ITSAK Strong Motion Network" insttype="" lat="38.03256" lon="22.10797" esm:processing="manual (Paolucci et al 2011)" esm:quality="best">
		<comp name="--.HNE" depth="0.0">
			<acc value="0.0202437987131165" flag="0"/>
			<vel value="0.0132066942148514" flag="0"/>
			<psa03 value="0.0743168051929494" flag="0"/>
			<psa10 value="0.0150964679350711" flag="0"/>
			<psa30 value="0.00139058778169589" flag="0"/>
		</comp>
		<comp name="--.HNN" depth="0.0">
			<acc value="0.0170844311455302" flag="0"/>
			<vel value="0.0124978627875456" flag="0"/>
			<psa03 value="0.0649209418031123" flag="0"/>
			<psa10 value="0.0177058334250487" flag="0"/>
			<psa30 value="0.00116687674860453" flag="0"/>
		</comp>
		<comp name="--.HNZ" depth="0.0">
			<acc value="0.00797778669253464" flag="0"/>
			<vel value="0.00759346401503665" flag="0"/>
			<psa03 value="0.0214315169701522" flag="0"/>
			<psa10 value="0.0126441475903236" flag="0"/>
			<psa30 value="0.00107381295883852" flag="0"/>
		</comp>
	</station>
	<station code="KRI1" name="KRI1" netid="HI" source="ITSAK Strong Motion Network" insttype="" lat="37.6621" lon="20.8172" esm:processing="manual (Paolucci et al 2011)" esm:quality="best">
		<comp name="--.HNE" depth="0.0">
			<acc value="0.0822296318709389" flag="0"/>
			<vel value="0.0553919284030263" flag="0"/>
			<psa03 value="0.201339929782223" flag="0"/>
			<psa10 value="0.0656005759216439" flag="0"/>
			<psa30 value="0.00365230632624952" flag="0"/>
		</comp>
		<comp name="--.HNN" depth="0.0">
			<acc value="0.103764746007943" flag="0"/>
			<vel value="0.0766015596390043" flag="0"/>
			<psa03 value="0.320935848072863" flag="0"/>
			<psa10 value="0.0648354841884714" flag="0"/>
			<psa30 value="0.00550284399198124" flag="0"/>
		</comp>
		<comp name="--.HNZ" depth="0.0">
			<acc value="0.0646612219651845" flag="0"/>
			<vel value="0.0281160240306092" flag="0"/>
			<psa03 value="0.161474623685343" flag="0"/>
			<psa10 value="0.0249621244944" flag="0"/>
			<psa30 value="0.00207917034155109" flag="0"/>
		</comp>
	</station>
	<station code="ITM" name="ITM" netid="HL" source="National Observatory of Athens Seismic Network" insttype="" lat="37.17872" lon="21.92522" esm:processing="manual (Paolucci et al 2011)" esm:quality="best">
		<comp name="--.HNE" depth="0.0">
			<acc value="0.0404793464655898" flag="0"/>
			<vel value="0.0154399062652429" flag="0"/>
			<psa03 value="0.0675607319935904" flag="0"/>
			<psa10 value="0.0184024695820952" flag="0"/>
			<psa30 value="0.00224919072670052" flag="0"/>
		</comp>
		<comp name="--.HNN" depth="0.0">
			<acc value="0.0738146627659065" flag="0"/>
			<vel value="0.0187866221886049" flag="0"/>
			<psa03 value="0.116866643686926" flag="0"/>
			<psa10 value="0.013908562349356" flag="0"/>
			<psa30 value="0.00269571794875087" flag="0"/>
		</comp>
		<comp name="--.HNZ" depth="0.0">
			<acc value="0.0336965143107662" flag="0"/>
			<vel value="0.0111585398401835" flag="0"/>
			<psa03 value="0.0369123204600742" flag="0"/>
			<psa10 value="0.0191353469265025" flag="0"/>
			<psa30 value="0.0012711260900251" flag="0"/>
		</comp>
	</station>
	<station code="KIAA" name="KIAA" netid="HL" source="National Observatory of Athens Seismic Network" insttype="" lat="38.0139" lon="22.7495" esm:processing="manual (Paolucci et al 2011)" esm:quality="good">
		<comp name="00.HNE" depth="0.0">
			<acc value="0.0203120372780047" flag="0"/>
			<vel value="0.02236048015559" flag="0"/>
			<psa03 value="0.0457205131344481" flag="0"/>
			<psa10 value="0.0539398382496225" flag="0"/>
			<psa30 value="0.00520479020845193" flag="0"/>
		</comp>
		<comp name="00.HNN" depth="0.0">
			<acc value="0.0181174719386885" flag="0"/>
			<vel value="0.0220680155643646" flag="0"/>
			<psa03 value="0.0375824948641945" flag="0"/>
			<psa10 value="0.0467597026009425" flag="0"/>
			<psa30 value="0.00544949683577601" flag="0"/>
		</comp>
		<comp name="00.HNZ" depth="0.0">
			<acc value="0.0321350584131866" flag="0"/>
			<vel value="0.0103064720754759" flag="0"/>
			<psa03 value="0.0211471079233742" flag="0"/>
			<psa10 value="0.0206934695907911" flag="0"/>
			<psa30 value="0.00180847813613625" flag="0"/>
		</comp>
	</station>
	<station code="PATC" name="PATC" netid="HL" source="National Observatory of Athens Seismic Network" insttype="" lat="38.26933" lon="21.76001" esm:processing="manual (Paolucci et al 2011)" esm:quality="best">
		<comp name="00.HNE" depth="0.0">
			<acc value="0.0300016730859167" flag="0"/>
			<vel value="0.0317547608334884" flag="0"/>
			<psa03 value="0.120043340356823" flag="0"/>
			<psa10 value="0.064976422139319" flag="0"/>
			<psa30 value="0.0077381646346301" flag="0"/>
		</comp>
		<comp name="00.HNN" depth="0.0">
			<acc value="0.0244857606795478" flag="0"/>
			<vel value="0.0223030486535999" flag="0"/>
			<psa03 value="0.0648314573898758" flag="0"/>
			<psa10 value="0.030635883715663" flag="0"/>
			<psa30 value="0.00752519173112713" flag="0"/>
		</comp>
		<comp name="00.HNZ" depth="0.0">
			<acc value="0.0175091119797708" flag="0"/>
			<vel value="0.0168924849085563" flag="0"/>
			<psa03 value="0.0362411873608001" flag="0"/>
			<psa10 value="0.0264600935719797" flag="0"/>
			<psa30 value="0.00307155248434436" flag="0"/>
		</comp>
	</station>
	<station code="PATG" name="PATG" netid="HL" source="National Observatory of Athens Seismic Network" insttype="" lat="38.23865" lon="21.72657" esm:processing="manual (Paolucci et al 2011)" esm:quality="best">
		<comp name="00.HNE" depth="0.0">
			<acc value="0.0287980543033648" flag="0"/>
			<vel value="0.0334723162178092" flag="0"/>
			<psa03 value="0.0898423508894897" flag="0"/>
			<psa10 value="0.0390438391833687" flag="0"/>
			<psa30 value="0.00569613032457218" flag="0"/>
		</comp>
		<comp name="00.HNN" depth="0.0">
			<acc value="0.0345472203648312" flag="0"/>
			<vel value="0.0364252929935815" flag="0"/>
			<psa03 value="0.0767328843503361" flag="0"/>
			<psa10 value="0.0489578173258453" flag="0"/>
			<psa30 value="0.0105086020684335" flag="0"/>
		</comp>
		<comp name="00.HNZ" depth="0.0">
			<acc value="0.0123122935342388" flag="0"/>
			<vel value="0.0179107273447792" flag="0"/>
			<psa03 value="0.0373150003196386" flag="0"/>
			<psa10 value="0.0323875411047684" flag="0"/>
			<psa30 value="0.00411717785301337" flag="0"/>
		</comp>
	</station>
	<station code="SMHA" name="SMHA" netid="HL" source="National Observatory of Athens Seismic Network" insttype="" lat="38.25123" lon="20.6477" esm:processing="manual (Paolucci et al 2011)" esm:quality="best">
		<comp name="00.HNE" depth="0.0">
			<acc value="0.0678922316353541" flag="0"/>
			<vel value="0.0350044970973623" flag="0"/>
			<psa03 value="0.216239595645461" flag="0"/>
			<psa10 value="0.0350095442104663" flag="0"/>
			<psa30 value="0.00229168910482475" flag="0"/>
		</comp>
		<comp name="00.HNN" depth="0.0">
			<acc value="0.0652022643201153" flag="0"/>
			<vel value="0.0417570888121888" flag="0"/>
			<psa03 value="0.256234557615145" flag="0"/>
			<psa10 value="0.036391435754022" flag="0"/>
			<psa30 value="0.00220718788203121" flag="0"/>
		</comp>
		<comp name="00.HNZ" depth="0.0">
			<acc value="0.0447886964501283" flag="0"/>
			<vel value="0.0207801992299016" flag="0"/>
			<psa03 value="0.0785978056771175" flag="0"/>
			<psa10 value="0.0167062204551078" flag="0"/>
			<psa30 value="0.00109772105196402" flag="0"/>
		</comp>
	</station>
	<station code="VELA" name="VELA" netid="HL" source="National Observatory of Athens Seismic Network" insttype="" lat="37.974944" lon="22.766063" esm:processing="manual (Paolucci et al 2011)" esm:quality="best">
		<comp name="00.HNE" depth="0.0">
			<acc value="0.0167962694509223" flag="0"/>
			<vel value="0.0176015616322122" flag="0"/>
			<psa03 value="0.0560313576357237" flag="0"/>
			<psa10 value="0.0384413665518538" flag="0"/>
			<psa30 value="0.00481878422081109" flag="0"/>
		</comp>
		<comp name="00.HNN" depth="0.0">
			<acc value="0.0229957256143638" flag="0"/>
			<vel value="0.0224066968724048" flag="0"/>
			<psa03 value="0.0468425510059753" flag="0"/>
			<psa10 value="0.0404644343201497" flag="0"/>
			<psa30 value="0.00636145266501739" flag="0"/>
		</comp>
		<comp name="00.HNZ" depth="0.0">
			<acc value="0.00864769064365194" flag="0"/>
			<vel value="0.0102925542614816" flag="0"/>
			<psa03 value="0.0203230858880344" flag="0"/>
			<psa10 value="0.0252087162037156" flag="0"/>
			<psa30 value="0.00194415462403773" flag="0"/>
		</comp>
	</station>
	<station code="ZARA" name="ZARA" netid="HL" source="National Observatory of Athens Seismic Network" insttype="" lat="37.4865" lon="21.6491" esm:processing="manual (Paolucci et al 2011)" esm:quality="good">
		<comp name="00.HNE" depth="0.0">
			<acc value="0.16083820072932" flag="0"/>
			<vel value="0.0817677932330231" flag="0"/>
			<psa03 value="0.448641511963732" flag="0"/>
			<psa10 value="0.103514784846432" flag="0"/>
			<psa30 value="0.00595619706883186" flag="0"/>
		</comp>
		<comp name="00.HNN" depth="0.0">
			<acc value="0.235098334657394" flag="0"/>
			<vel value="0.0974509504918675" flag="0"/>
			<psa03 value="0.458749764919422" flag="0"/>
			<psa10 value="0.07069435065358" flag="0"/>
			<psa30 value="0.00957200743186024" flag="0"/>
		</comp>
		<comp name="00.HNZ" depth="0.0">
			<acc value="0.0800804266875304" flag="0"/>
			<vel value="0.0290462822970385" flag="0"/>
			<psa03 value="0.189217263881939" flag="0"/>
			<psa10 value="0.0469246122751029" flag="0"/>
			<psa30 value="0.00286774351559838" flag="0"/>
		</comp>
	</station>
	<station code="ANX" name="ANX" netid="HP" source="University of Patras, Seismological Laboratory (PSLNET)" insttype="" lat="38.5933" lon="21.9209" esm:processing="manual (Paolucci et al 2011)" esm:quality="best">
		<comp name="--.HNE" depth="0.0">
			<acc value="0.013837995588037" flag="0"/>
			<vel value="0.0146579816074091" flag="0"/>
			<psa03 value="0.0312300602195537" flag="0"/>
			<psa10 value="0.0154347190171052" flag="0"/>
			<psa30 value="0.00152078760295506" flag="0"/>
		</comp>
		<comp name="--.HNN" depth="0.0">
			<acc value="0.0198562379551815" flag="0"/>
			<vel value="0.0194553157200386" flag="0"/>
			<psa03 value="0.0358385075012357" flag="0"/>
			<psa10 value="0.0213420325569156" flag="0"/>
			<psa30 value="0.00131452603044482" flag="0"/>
		</comp>
		<comp name="--.HNZ" depth="0.0">
			<acc value="0.00666232050076675" flag="0"/>
			<vel value="0.00684253613208692" flag="0"/>
			<psa03 value="0.0178521404406904" flag="0"/>
			<psa10 value="0.00842003586349256" flag="0"/>
			<psa30 value="0.0010433882583381" flag="0"/>
		</comp>
	</station>
	<station code="LTHK" name="LTHK" netid="HP" source="University of Patras, Seismological Laboratory (PSLNET)" insttype="" lat="37.7095" lon="20.8367" esm:processing="manual (Paolucci et al 2011)" esm:quality="best">
		<comp name="--.HNE" depth="0.0">
			<acc value="0.16762094070879" flag="0"/>
			<vel value="0.0557525211594496" flag="0"/>
			<psa03 value="0.269258599428759" flag="0"/>
			<psa10 value="0.0439202922826941" flag="0"/>
			<psa30 value="0.0033189768869434" flag="0"/>
		</comp>
		<comp name="--.HNN" depth="0.0">
			<acc value="0.109157119470181" flag="0"/>
			<vel value="0.0713297692624801" flag="0"/>
			<psa03 value="0.297267220771798" flag="0"/>
			<psa10 value="0.0510436989983891" flag="0"/>
			<psa30 value="0.00361472287269017" flag="0"/>
		</comp>
		<comp name="--.HNZ" depth="0.0">
			<acc value="0.0590806168651374" flag="0"/>
			<vel value="0.0298452557542573" flag="0"/>
			<psa03 value="0.150825978510194" flag="0"/>
			<psa10 value="0.0256064122697031" flag="0"/>
			<psa30 value="0.00235567717845201" flag="0"/>
		</comp>
	</station>
</stationlist>
