<?xml version="1.0" encoding="UTF-8" standalone="yes"?>
<!DOCTYPE earthquake SYSTEM "stationlist.dtd">
<stationlist created="" xmlns="ch.ethz.sed.shakemap.usgs.xml">
  <station code="CEYT" name="CEYT" netid="KO" insttype="CMG-3ESP" lat="37.0105" lon="35.7478">
    <comp name="--.HHN">
      <acc value="0.0065575857" flag="0"/>
      <vel value="0.0036826630" flag="0"/>
      <psa03 value="0.0184381928" flag="0"/>
      <psa10 value="0.0043179399" flag="0"/>
      <psa30 value="0.0001792315" flag="0"/>
    </comp>
    <comp name="--.HHZ">
      <acc value="0.0032867672" flag="0"/>
      <vel value="0.0016215294" flag="0"/>
      <psa03 value="0.0074283148" flag="0"/>
      <psa10 value="0.0025390511" flag="0"/>
      <psa30 value="0.0002142432" flag="0"/>
    </comp>
    <comp name="--.HHE">
      <acc value="0.0056880457" flag="0"/>
      <vel value="0.0032494083" flag="0"/>
      <psa03 value="0.0256888462" flag="0"/>
      <psa10 value="0.0030914366" flag="0"/>
      <psa30 value="0.0001841259" flag="0"/>
    </comp>
  </station>
  <station code="CMRD" name="CMRD" netid="KO" insttype="CMG-5T" lat="37.6623" lon="34.9902">
    <comp name="--.HNE">
      <acc value="0.2894699812" flag="0"/>
      <vel value="0.0732946575" flag="0"/>
      <psa03 value="0.3318635266" flag="0"/>
      <psa10 value="0.0265485504" flag="0"/>
      <psa30 value="0.0026385792" flag="0"/>
    </comp>
    <comp name="--.HNZ">
      <acc value="0.2330057479" flag="0"/>
      <vel value="0.0428348114" flag="0"/>
      <psa03 value="0.2247550173" flag="0"/>
      <psa10 value="0.0313624980" flag="0"/>
      <psa30 value="0.0034573591" flag="0"/>
    </comp>
    <comp name="--.HNN">
      <acc value="0.3588166130" flag="0"/>
      <vel value="0.0952676869" flag="0"/>
      <psa03 value="0.3385087832" flag="0"/>
      <psa10 value="0.0233708717" flag="0"/>
      <psa30 value="0.0020064520" flag="0"/>
    </comp>
  </station>
  <station code="KARA" name="KARA" netid="KO" insttype="CMG-3ESP" lat="37.2607" lon="35.0547">
    <comp name="--.HHE">
      <acc value="0.0273282136" flag="0"/>
      <vel value="0.0082718879" flag="0"/>
      <psa03 value="0.0575357776" flag="0"/>
      <psa10 value="0.0050030167" flag="0"/>
      <psa30 value="0.0006577040" flag="0"/>
    </comp>
    <comp name="--.HHN">
      <acc value="0.0281453901" flag="0"/>
      <vel value="0.0078788300" flag="0"/>
      <psa03 value="0.0411698542" flag="0"/>
      <psa10 value="0.0047544713" flag="0"/>
      <psa30 value="0.0008620233" flag="0"/>
    </comp>
    <comp name="--.HHZ">
      <acc value="0.0244883230" flag="0"/>
      <vel value="0.0079677104" flag="0"/>
      <psa03 value="0.0194482696" flag="0"/>
      <psa10 value="0.0064802133" flag="0"/>
      <psa30 value="0.0004718725" flag="0"/>
    </comp>
  </station>
  <station code="MERS" name="MERS" netid="KO" insttype="CMG-3T" lat="36.8678" lon="34.522">
    <comp name="--.HHE">
      <acc value="0.0111223475" flag="0"/>
      <vel value="0.0051723972" flag="0"/>
      <psa03 value="0.0298556848" flag="0"/>
      <psa10 value="0.0069215322" flag="0"/>
      <psa30 value="0.0006312213" flag="0"/>
    </comp>
    <comp name="--.HHN">
      <acc value="0.0158044487" flag="0"/>
      <vel value="0.0071754331" flag="0"/>
      <psa03 value="0.0355235854" flag="0"/>
      <psa10 value="0.0043842192" flag="0"/>
      <psa30 value="0.0007804022" flag="0"/>
    </comp>
    <comp name="--.HHZ">
      <acc value="0.0121097596" flag="0"/>
      <vel value="0.0040493567" flag="0"/>
      <psa03 value="0.0174383984" flag="0"/>
      <psa10 value="0.0039656330" flag="0"/>
      <psa30 value="0.0008725376" flag="0"/>
    </comp>
  </station>
  <station code="SULT" name="SULT" netid="KO" insttype="CMG-3T" lat="38.1988" lon="33.5157">
    <comp name="--.HHZ">
      <acc value="0.0008631214" flag="0"/>
      <vel value="0.0008544398" flag="0"/>
      <psa03 value="0.0013362117" flag="0"/>
      <psa10 value="0.0013494554" flag="0"/>
      <psa30 value="0.0001405864" flag="0"/>
    </comp>
    <comp name="--.HHE">
      <acc value="0.0013701308" flag="0"/>
      <vel value="0.0024327814" flag="0"/>
      <psa03 value="0.0026836108" flag="0"/>
      <psa10 value="0.0036329295" flag="0"/>
      <psa30 value="0.0009490000" flag="0"/>
    </comp>
    <comp name="--.HHN">
      <acc value="0.0011696367" flag="0"/>
      <vel value="0.0018605999" flag="0"/>
      <psa03 value="0.0020652502" flag="0"/>
      <psa10 value="0.0032865987" flag="0"/>
      <psa30 value="0.0004304323" flag="0"/>
    </comp>
  </station>
  <station code="YESY" name="YESY" netid="KO" insttype="CMG-6T" lat="37.7825" lon="33.7431">
    <comp name="--.HHE">
      <acc value="0.0032376694" flag="0"/>
      <vel value="0.0031107131" flag="0"/>
      <psa03 value="0.0065454335" flag="0"/>
      <psa10 value="0.0091827353" flag="0"/>
      <psa30 value="0.0005091354" flag="0"/>
    </comp>
    <comp name="--.HHN">
      <acc value="0.0047615495" flag="0"/>
      <vel value="0.0033458007" flag="0"/>
      <psa03 value="0.0083774915" flag="0"/>
      <psa10 value="0.0070975195" flag="0"/>
      <psa30 value="0.0005577539" flag="0"/>
    </comp>
    <comp name="--.HHZ">
      <acc value="0.0016984657" flag="0"/>
      <vel value="0.0019673690" flag="0"/>
      <psa03 value="0.0040381277" flag="0"/>
      <psa10 value="0.0037007344" flag="0"/>
      <psa30 value="0.0004242771" flag="0"/>
    </comp>
  </station>
</stationlist>
