<?xml version="1.0" encoding="UTF-8" standalone="yes"?>
<!DOCTYPE earthquake SYSTEM "stationlist.dtd">
<stationlist created="" xmlns="ch.ethz.sed.shakemap.usgs.xml">
  <station code="AKDM" name="AKDM" netid="KO" insttype="CMG-3ESP" lat="38.3285" lon="42.98">
    <comp name="--.HHN">
      <acc value="0.0336956032" flag="0"/>
      <vel value="0.0112358439" flag="0"/>
      <psa03 value="0.0636708852" flag="0"/>
      <psa10 value="0.0119535943" flag="0"/>
      <psa30 value="0.0040761350" flag="0"/>
    </comp>
    <comp name="--.HHE">
      <acc value="0.0327611075" flag="0"/>
      <vel value="0.0097794251" flag="0"/>
      <psa03 value="0.0392141671" flag="0"/>
      <psa10 value="0.0074761799" flag="0"/>
      <psa30 value="0.0016802528" flag="0"/>
    </comp>
    <comp name="--.HHZ">
      <acc value="0.0247523900" flag="0"/>
      <vel value="0.0069433221" flag="0"/>
      <psa03 value="0.0291311150" flag="0"/>
      <psa10 value="0.0086786392" flag="0"/>
      <psa30 value="0.0013579702" flag="0"/>
    </comp>
  </station>
  <station code="GURO" name="GURO" netid="KO" insttype="CMG-3T" lat="38.5509" lon="42.0322">
    <comp name="--.HHE">
      <acc value="0.0910856523" flag="0"/>
      <vel value="0.0438764815" flag="0"/>
      <psa03 value="0.2303722581" flag="0"/>
      <psa10 value="0.0257399117" flag="0"/>
      <psa30 value="0.0015259100" flag="0"/>
    </comp>
    <comp name="--.HHN">
      <acc value="0.0671881926" flag="0"/>
      <vel value="0.0267311456" flag="0"/>
      <psa03 value="0.1909947185" flag="0"/>
      <psa10 value="0.0164057997" flag="0"/>
      <psa30 value="0.0022784516" flag="0"/>
    </comp>
    <comp name="--.HHZ">
      <acc value="0.0833070650" flag="0"/>
      <vel value="0.0354438700" flag="0"/>
      <psa03 value="0.1605839447" flag="0"/>
      <psa10 value="0.0241053060" flag="0"/>
      <psa30 value="0.0012447294" flag="0"/>
    </comp>
  </station>
  <station code="MLAZ" name="MLAZ" netid="KO" insttype="CMG-3T" lat="39.141" lon="42.5496">
    <comp name="--.HHZ">
      <acc value="0.0077551268" flag="0"/>
      <vel value="0.0052749943" flag="0"/>
      <psa03 value="0.0151754900" flag="0"/>
      <psa10 value="0.0058240839" flag="0"/>
      <psa30 value="0.0010250244" flag="0"/>
    </comp>
    <comp name="--.HHE">
      <acc value="0.0082219262" flag="0"/>
      <vel value="0.0097015936" flag="0"/>
      <psa03 value="0.0226706084" flag="0"/>
      <psa10 value="0.0132985177" flag="0"/>
      <psa30 value="0.0022111541" flag="0"/>
    </comp>
    <comp name="--.HHN">
      <acc value="0.0099210357" flag="0"/>
      <vel value="0.0095723796" flag="0"/>
      <psa03 value="0.0273512266" flag="0"/>
      <psa10 value="0.0119084091" flag="0"/>
      <psa30 value="0.0014425272" flag="0"/>
    </comp>
  </station>
  <station code="SVAN" name="SVAN" netid="KO" insttype="CMG-3T" lat="38.1511" lon="41.1984">
    <comp name="--.HHN">
      <acc value="0.0066294281" flag="0"/>
      <vel value="0.0048509193" flag="0"/>
      <psa03 value="0.0163252266" flag="0"/>
      <psa10 value="0.0080582835" flag="0"/>
      <psa30 value="0.0014784643" flag="0"/>
    </comp>
    <comp name="--.HHE">
      <acc value="0.0069574582" flag="0"/>
      <vel value="0.0038802138" flag="0"/>
      <psa03 value="0.0138523498" flag="0"/>
      <psa10 value="0.0045886327" flag="0"/>
      <psa30 value="0.0009255479" flag="0"/>
    </comp>
    <comp name="--.HHZ">
      <acc value="0.0046419376" flag="0"/>
      <vel value="0.0038559782" flag="0"/>
      <psa03 value="0.0161855194" flag="0"/>
      <psa10 value="0.0051450446" flag="0"/>
      <psa30 value="0.0016916124" flag="0"/>
    </comp>
  </station>
  <station code="VRTB" name="VRTB" netid="KO" insttype="CMG-3ESPC" lat="39.1603" lon="41.4558">
    <comp name="--.HHZ">
      <acc value="0.0011354076" flag="0"/>
      <vel value="0.0016014630" flag="0"/>
      <psa03 value="0.0025653524" flag="0"/>
      <psa10 value="0.0027593568" flag="0"/>
      <psa30 value="0.0003296970" flag="0"/>
    </comp>
    <comp name="--.HHN">
      <acc value="0.0004070348" flag="0"/>
      <vel value="0.0007146685" flag="0"/>
      <psa03 value="0.0008317843" flag="0"/>
      <psa10 value="0.0012906792" flag="0"/>
      <psa30 value="0.0002428971" flag="0"/>
    </comp>
    <comp name="--.HHE">
      <acc value="0.0026169225" flag="0"/>
      <vel value="0.0051092753" flag="0"/>
      <psa03 value="0.0061748764" flag="0"/>
      <psa10 value="0.0080256604" flag="0"/>
      <psa30 value="0.0012474297" flag="0"/>
    </comp>
  </station>
</stationlist>
