<?xml version="1.0" encoding="UTF-8" standalone="yes"?>
<!DOCTYPE earthquake SYSTEM "stationlist.dtd">
<stationlist created="" xmlns="ch.ethz.sed.shakemap.usgs.xml">
  <station code="AKDM" name="AKDM" netid="KO" insttype="CMG-3ESP" lat="38.3285" lon="42.98">
    <comp name="--.HHZ">
      <acc value="0.0247523901" flag="0"/>
      <vel value="0.0069433213" flag="0"/>
      <psa03 value="0.0291311150" flag="0"/>
      <psa10 value="0.0086786392" flag="0"/>
      <psa30 value="0.0013579460" flag="0"/>
    </comp>
    <comp name="--.HHN">
      <acc value="0.0336956034" flag="0"/>
      <vel value="0.0112358426" flag="0"/>
      <psa03 value="0.0636708852" flag="0"/>
      <psa10 value="0.0119535942" flag="0"/>
      <psa30 value="0.0040762029" flag="0"/>
    </comp>
    <comp name="--.HHE">
      <acc value="0.0327611075" flag="0"/>
      <vel value="0.0097794258" flag="0"/>
      <psa03 value="0.0392141671" flag="0"/>
      <psa10 value="0.0074761799" flag="0"/>
      <psa30 value="0.0016803040" flag="0"/>
    </comp>
  </station>
  <station code="GURO" name="GURO" netid="KO" insttype="CMG-3T" lat="38.5509" lon="42.0322">
    <comp name="--.HHE">
      <acc value="0.0910856521" flag="0"/>
      <vel value="0.0438764814" flag="0"/>
      <psa03 value="0.2303722581" flag="0"/>
      <psa10 value="0.0257399118" flag="0"/>
      <psa30 value="0.0015258911" flag="0"/>
    </comp>
    <comp name="--.HHN">
      <acc value="0.0671881925" flag="0"/>
      <vel value="0.0267311393" flag="0"/>
      <psa03 value="0.1909947185" flag="0"/>
      <psa10 value="0.0164057997" flag="0"/>
      <psa30 value="0.0022784039" flag="0"/>
    </comp>
    <comp name="--.HHZ">
      <acc value="0.0833070652" flag="0"/>
      <vel value="0.0354438697" flag="0"/>
      <psa03 value="0.1605839447" flag="0"/>
      <psa10 value="0.0241053060" flag="0"/>
      <psa30 value="0.0012447083" flag="0"/>
    </comp>
  </station>
  <station code="MLAZ" name="MLAZ" netid="KO" insttype="CMG-3T" lat="39.141" lon="42.5496">
    <comp name="--.HHZ">
      <acc value="0.0077551267" flag="0"/>
      <vel value="0.0052749950" flag="0"/>
      <psa03 value="0.0151754900" flag="0"/>
      <psa10 value="0.0058240839" flag="0"/>
      <psa30 value="0.0010251989" flag="0"/>
    </comp>
    <comp name="--.HHE">
      <acc value="0.0082219260" flag="0"/>
      <vel value="0.0097015945" flag="0"/>
      <psa03 value="0.0226706084" flag="0"/>
      <psa10 value="0.0132985177" flag="0"/>
      <psa30 value="0.0022111549" flag="0"/>
    </comp>
    <comp name="--.HHN">
      <acc value="0.0099210356" flag="0"/>
      <vel value="0.0095723802" flag="0"/>
      <psa03 value="0.0273512266" flag="0"/>
      <psa10 value="0.0119084092" flag="0"/>
      <psa30 value="0.0014425250" flag="0"/>
    </comp>
  </station>
  <station code="SVAN" name="SVAN" netid="KO" insttype="CMG-3T" lat="38.1511" lon="41.1984">
    <comp name="--.HHE">
      <acc value="0.0069574583" flag="0"/>
      <vel value="0.0038802140" flag="0"/>
      <psa03 value="0.0138523498" flag="0"/>
      <psa10 value="0.0045886327" flag="0"/>
      <psa30 value="0.0009255461" flag="0"/>
    </comp>
    <comp name="--.HHZ">
      <acc value="0.0046419376" flag="0"/>
      <vel value="0.0038559778" flag="0"/>
      <psa03 value="0.0161855194" flag="0"/>
      <psa10 value="0.0051450446" flag="0"/>
      <psa30 value="0.0016916122" flag="0"/>
    </comp>
    <comp name="--.HHN">
      <acc value="0.0066294282" flag="0"/>
      <vel value="0.0048509191" flag="0"/>
      <psa03 value="0.0163252266" flag="0"/>
      <psa10 value="0.0080582835" flag="0"/>
      <psa30 value="0.0014784634" flag="0"/>
    </comp>
  </station>
  <station code="VANB" name="VANB" netid="KO" insttype="CMG-3T" lat="38.509" lon="43.4056">
    <comp name="--.HHN">
      <acc value="0.0015831313" flag="0"/>
      <vel value="0.0019296328" flag="0"/>
      <psa03 value="0.0045160438" flag="0"/>
      <psa10 value="0.0038652031" flag="0"/>
      <psa30 value="0.0004994355" flag="0"/>
    </comp>
    <comp name="--.HHE">
      <acc value="0.0020998856" flag="0"/>
      <vel value="0.0034265298" flag="0"/>
      <psa03 value="0.0052803211" flag="0"/>
      <psa10 value="0.0072823488" flag="0"/>
      <psa30 value="0.0018229491" flag="0"/>
    </comp>
    <comp name="--.HHZ">
      <acc value="0.0020608265" flag="0"/>
      <vel value="0.0021983751" flag="0"/>
      <psa03 value="0.0041535127" flag="0"/>
      <psa10 value="0.0047359347" flag="0"/>
      <psa30 value="0.0010138380" flag="0"/>
    </comp>
  </station>
  <station code="VRTB" name="VRTB" netid="KO" insttype="CMG-3ESPC" lat="39.1603" lon="41.4558">
    <comp name="--.HHZ">
      <acc value="0.0011354076" flag="0"/>
      <vel value="0.0016014598" flag="0"/>
      <psa03 value="0.0025653524" flag="0"/>
      <psa10 value="0.0027593568" flag="0"/>
      <psa30 value="0.0003296886" flag="0"/>
    </comp>
    <comp name="--.HHE">
      <acc value="0.0026169225" flag="0"/>
      <vel value="0.0051092767" flag="0"/>
      <psa03 value="0.0061748764" flag="0"/>
      <psa10 value="0.0080256604" flag="0"/>
      <psa30 value="0.0012474547" flag="0"/>
    </comp>
    <comp name="--.HHN">
      <acc value="0.0004070348" flag="0"/>
      <vel value="0.0007146691" flag="0"/>
      <psa03 value="0.0008317843" flag="0"/>
      <psa10 value="0.0012906792" flag="0"/>
      <psa30 value="0.0002428963" flag="0"/>
    </comp>
  </station>
</stationlist>
