<?xml version="1.0" encoding="UTF-8" standalone="yes"?>
<!DOCTYPE earthquake SYSTEM "stationlist.dtd">
<stationlist created="" xmlns="ch.ethz.sed.shakemap.usgs.xml">
  <station code="AKS" name="AKS" netid="KO" insttype="CMG-5T" commtype="DIG" lat="38.8785" lon="27.8129">
    <comp name="--.HNZ">
      <acc value="0.0666690439" flag="0"/>
      <vel value="0.0137067136" flag="0"/>
      <psa03 value="0.0596922284" flag="0"/>
      <psa10 value="0.0099907747" flag="0"/>
      <psa30 value="0.0023233251" flag="0"/>
    </comp>
    <comp name="--.HNE">
      <acc value="0.1004830201" flag="0"/>
      <vel value="0.0408432760" flag="0"/>
      <psa03 value="0.2338074750" flag="0"/>
      <psa10 value="0.0299956117" flag="0"/>
      <psa30 value="0.0024267709" flag="0"/>
    </comp>
    <comp name="--.HNN">
      <acc value="0.1188041026" flag="0"/>
      <vel value="0.0397692899" flag="0"/>
      <psa03 value="0.1793921247" flag="0"/>
      <psa10 value="0.0177941279" flag="0"/>
      <psa30 value="0.0035119411" flag="0"/>
    </comp>
  </station>
  <station code="BALB" name="BALB" netid="KO" insttype="CMG-5T" commtype="DIG" lat="39.6507" lon="27.8642">
    <comp name="--.HNN">
      <acc value="0.1126181125" flag="0"/>
      <vel value="0.0715203161" flag="0"/>
      <psa03 value="0.4797447812" flag="0"/>
      <psa10 value="0.0727407741" flag="0"/>
      <psa30 value="0.0037981619" flag="0"/>
    </comp>
    <comp name="--.HNZ">
      <acc value="0.0883737250" flag="0"/>
      <vel value="0.0435512669" flag="0"/>
      <psa03 value="0.2032315174" flag="0"/>
      <psa10 value="0.0261236132" flag="0"/>
      <psa30 value="0.0025868147" flag="0"/>
    </comp>
    <comp name="--.HNE">
      <acc value="0.1329292138" flag="0"/>
      <vel value="0.0559487852" flag="0"/>
      <psa03 value="0.3653224246" flag="0"/>
      <psa10 value="0.0390788535" flag="0"/>
      <psa30 value="0.0028148038" flag="0"/>
    </comp>
  </station>
  <station code="DKL" name="DKL" netid="KO" insttype="CMG-3ESPC" commtype="DIG" lat="39.0713" lon="26.9053">
    <comp name="--.HHE">
      <acc value="0.0113317897" flag="0"/>
      <vel value="0.0071049244" flag="0"/>
      <psa03 value="0.0349544343" flag="0"/>
      <psa10 value="0.0087445497" flag="0"/>
      <psa30 value="0.0011428032" flag="0"/>
    </comp>
    <comp name="--.HHN">
      <acc value="0.0170140579" flag="0"/>
      <vel value="0.0118409608" flag="0"/>
      <psa03 value="0.0333470439" flag="0"/>
      <psa10 value="0.0127717819" flag="0"/>
      <psa30 value="0.0012110618" flag="0"/>
    </comp>
    <comp name="--.HHZ">
      <acc value="0.0094677290" flag="0"/>
      <vel value="0.0053925228" flag="0"/>
      <psa03 value="0.0233282926" flag="0"/>
      <psa10 value="0.0066534831" flag="0"/>
      <psa30 value="0.0008700204" flag="0"/>
    </comp>
  </station>
  <station code="DST" name="DST" netid="KO" insttype="CMG-5T" commtype="DIG" lat="39.6041" lon="28.6267">
    <comp name="--.HNZ">
      <acc value="0.0901037184" flag="0"/>
      <vel value="0.0254581295" flag="0"/>
      <psa03 value="0.2073044148" flag="0"/>
      <psa10 value="0.0172048435" flag="0"/>
      <psa30 value="0.0018914695" flag="0"/>
    </comp>
    <comp name="--.HNE">
      <acc value="0.1258473396" flag="0"/>
      <vel value="0.0311470188" flag="0"/>
      <psa03 value="0.2194113529" flag="0"/>
      <psa10 value="0.0207557170" flag="0"/>
      <psa30 value="0.0018176786" flag="0"/>
    </comp>
    <comp name="--.HNN">
      <acc value="0.1048415544" flag="0"/>
      <vel value="0.0372998981" flag="0"/>
      <psa03 value="0.2140081990" flag="0"/>
      <psa10 value="0.0249454247" flag="0"/>
      <psa30 value="0.0023351324" flag="0"/>
    </comp>
  </station>
  <station code="GONE" name="GONE" netid="KO" insttype="CMG-5T" commtype="DIG" lat="40.0466" lon="27.686">
    <comp name="--.HNE">
      <acc value="0.0757919172" flag="0"/>
      <vel value="0.0450196117" flag="0"/>
      <psa03 value="0.1780499001" flag="0"/>
      <psa10 value="0.0527967940" flag="0"/>
      <psa30 value="0.0021694688" flag="0"/>
    </comp>
    <comp name="--.HNN">
      <acc value="0.0879316061" flag="0"/>
      <vel value="0.0366903368" flag="0"/>
      <psa03 value="0.2105472132" flag="0"/>
      <psa10 value="0.0220666245" flag="0"/>
      <psa30 value="0.0018470301" flag="0"/>
    </comp>
    <comp name="--.HNZ">
      <acc value="0.0388810573" flag="0"/>
      <vel value="0.0160443588" flag="0"/>
      <psa03 value="0.0693410560" flag="0"/>
      <psa10 value="0.0137014673" flag="0"/>
      <psa30 value="0.0008090150" flag="0"/>
    </comp>
  </station>
  <station code="GORD" name="GORD" netid="KO" insttype="CMG-5T" commtype="DIG" lat="38.9088" lon="28.1769">
    <comp name="--.HNZ">
      <acc value="0.0569725412" flag="0"/>
      <vel value="0.0225604165" flag="0"/>
      <psa03 value="0.1032460776" flag="0"/>
      <psa10 value="0.0263559458" flag="0"/>
      <psa30 value="0.0044188753" flag="0"/>
    </comp>
    <comp name="--.HNN">
      <acc value="0.0895818451" flag="0"/>
      <vel value="0.0375129805" flag="0"/>
      <psa03 value="0.1265198456" flag="0"/>
      <psa10 value="0.0581566664" flag="0"/>
      <psa30 value="0.0043261770" flag="0"/>
    </comp>
    <comp name="--.HNE">
      <acc value="0.0630960143" flag="0"/>
      <vel value="0.0391746444" flag="0"/>
      <psa03 value="0.1457163786" flag="0"/>
      <psa10 value="0.0475372781" flag="0"/>
      <psa30 value="0.0071680946" flag="0"/>
    </comp>
  </station>
  <station code="KCTX" name="KCTX" netid="KO" insttype="CMG-3ESP" commtype="DIG" lat="40.2626" lon="28.3353">
    <comp name="--.HHZ">
      <acc value="0.0430069797" flag="0"/>
      <vel value="0.0156697162" flag="0"/>
      <psa03 value="0.0534437893" flag="0"/>
      <psa10 value="0.0104009928" flag="0"/>
      <psa30 value="0.0008374170" flag="0"/>
    </comp>
    <comp name="--.HHE">
      <acc value="0.0470230459" flag="0"/>
      <vel value="0.0415154140" flag="0"/>
      <psa03 value="0.1029544210" flag="0"/>
      <psa10 value="0.0494164467" flag="0"/>
      <psa30 value="0.0026906293" flag="0"/>
    </comp>
    <comp name="--.HHN">
      <acc value="0.0588743340" flag="0"/>
      <vel value="0.0257461936" flag="0"/>
      <psa03 value="0.1632624596" flag="0"/>
      <psa10 value="0.0195346640" flag="0"/>
      <psa30 value="0.0010902096" flag="0"/>
    </comp>
  </station>
  <station code="KULA" name="KULA" netid="KO" insttype="CMG-3T" commtype="DIG" lat="38.5145" lon="28.6607">
    <comp name="--.HHN">
      <acc value="0.0449840942" flag="0"/>
      <vel value="0.0109640526" flag="0"/>
      <psa03 value="0.0448338303" flag="0"/>
      <psa10 value="0.0062594985" flag="0"/>
      <psa30 value="0.0004312924" flag="0"/>
    </comp>
    <comp name="--.HHZ">
      <acc value="0.0312451619" flag="0"/>
      <vel value="0.0109320311" flag="0"/>
      <psa03 value="0.0622252320" flag="0"/>
      <psa10 value="0.0077559354" flag="0"/>
      <psa30 value="0.0006232623" flag="0"/>
    </comp>
    <comp name="--.HHE">
      <acc value="0.0395597275" flag="0"/>
      <vel value="0.0162207170" flag="0"/>
      <psa03 value="0.0632539233" flag="0"/>
      <psa10 value="0.0088921027" flag="0"/>
      <psa30 value="0.0006936138" flag="0"/>
    </comp>
  </station>
  <station code="ORLT" name="ORLT" netid="KO" insttype="CMG-5T" commtype="DIG" lat="40.0452" lon="28.8914">
    <comp name="--.HNE">
      <acc value="0.1831677524" flag="0"/>
      <vel value="0.0943435137" flag="0"/>
      <psa03 value="0.6593934139" flag="0"/>
      <psa10 value="0.0618165084" flag="0"/>
      <psa30 value="0.0032875509" flag="0"/>
    </comp>
    <comp name="--.HNN">
      <acc value="0.1575122396" flag="0"/>
      <vel value="0.1011965772" flag="0"/>
      <psa03 value="0.5909597430" flag="0"/>
      <psa10 value="0.0862887385" flag="0"/>
      <psa30 value="0.0039849504" flag="0"/>
    </comp>
    <comp name="--.HNZ">
      <acc value="0.0642101848" flag="0"/>
      <vel value="0.0333349296" flag="0"/>
      <psa03 value="0.1610344878" flag="0"/>
      <psa10 value="0.0445840630" flag="0"/>
      <psa30 value="0.0025716748" flag="0"/>
    </comp>
  </station>
  <station code="SHAP" name="SHAP" netid="KO" insttype="CMG-5T" commtype="DIG" lat="39.0231" lon="29.222">
    <comp name="--.HNZ">
      <acc value="0.0994797899" flag="0"/>
      <vel value="0.0212055033" flag="0"/>
      <psa03 value="0.0653376872" flag="0"/>
      <psa10 value="0.0089391750" flag="0"/>
      <psa30 value="0.0006835169" flag="0"/>
    </comp>
    <comp name="--.HNN">
      <acc value="0.1290782132" flag="0"/>
      <vel value="0.0354301582" flag="0"/>
      <psa03 value="0.1984854759" flag="0"/>
      <psa10 value="0.0144584296" flag="0"/>
      <psa30 value="0.0011490600" flag="0"/>
    </comp>
    <comp name="--.HNE">
      <acc value="0.1363460859" flag="0"/>
      <vel value="0.0356493877" flag="0"/>
      <psa03 value="0.2213824046" flag="0"/>
      <psa10 value="0.0162072989" flag="0"/>
      <psa30 value="0.0008873797" flag="0"/>
    </comp>
  </station>
  <station code="SIMA" name="SIMA" netid="KO" insttype="CMG-6T" commtype="DIG" lat="39.0833" lon="28.9825">
    <comp name="--.HHE">
      <acc value="0.1887251581" flag="0"/>
      <vel value="0.0474014977" flag="0"/>
      <psa03 value="0.2645680804" flag="0"/>
      <psa10 value="0.0087035528" flag="0"/>
      <psa30 value="0.0010882529" flag="0"/>
    </comp>
    <comp name="--.HHZ">
      <acc value="0.0789791767" flag="0"/>
      <vel value="0.0178066044" flag="0"/>
      <psa03 value="0.1109875415" flag="0"/>
      <psa10 value="0.0070872418" flag="0"/>
      <psa30 value="0.0006433612" flag="0"/>
    </comp>
    <comp name="--.HHN">
      <acc value="0.1320632468" flag="0"/>
      <vel value="0.0467054607" flag="0"/>
      <psa03 value="0.2863093777" flag="0"/>
      <psa10 value="0.0122450027" flag="0"/>
      <psa30 value="0.0012120640" flag="0"/>
    </comp>
  </station>
  <station code="SMAA" name="SMAA" netid="KO" insttype="CMG-5T" commtype="DIG" lat="39.1005" lon="28.9805">
    <comp name="--.HNN">
      <acc value="0.1652363852" flag="0"/>
      <vel value="0.0608367711" flag="0"/>
      <psa03 value="0.2945950945" flag="0"/>
      <psa10 value="0.0593299512" flag="0"/>
      <psa30 value="0.0040176822" flag="0"/>
    </comp>
    <comp name="--.HNZ">
      <acc value="0.0698856749" flag="0"/>
      <vel value="0.0206736117" flag="0"/>
      <psa03 value="0.0938425739" flag="0"/>
      <psa10 value="0.0389228015" flag="0"/>
      <psa30 value="0.0018536205" flag="0"/>
    </comp>
    <comp name="--.HNE">
      <acc value="0.1880761565" flag="0"/>
      <vel value="0.0684182686" flag="0"/>
      <psa03 value="0.4458926970" flag="0"/>
      <psa10 value="0.0482276824" flag="0"/>
      <psa30 value="0.0051754775" flag="0"/>
    </comp>
  </station>
  <station code="SOMA" name="SOMA" netid="KO" insttype="CMG-5T" commtype="DIG" lat="39.1564" lon="27.5341">
    <comp name="--.HNN">
      <acc value="0.0982774440" flag="0"/>
      <vel value="0.0612020165" flag="0"/>
      <psa03 value="0.2060982931" flag="0"/>
      <psa10 value="0.0355653329" flag="0"/>
      <psa30 value="0.0029644091" flag="0"/>
    </comp>
    <comp name="--.HNE">
      <acc value="0.0884938041" flag="0"/>
      <vel value="0.0293613652" flag="0"/>
      <psa03 value="0.1581917413" flag="0"/>
      <psa10 value="0.0261105485" flag="0"/>
      <psa30 value="0.0029976637" flag="0"/>
    </comp>
    <comp name="--.HNZ">
      <acc value="0.1020173030" flag="0"/>
      <vel value="0.0227643101" flag="0"/>
      <psa03 value="0.1059743509" flag="0"/>
      <psa10 value="0.0186812432" flag="0"/>
      <psa30 value="0.0026029648" flag="0"/>
    </comp>
  </station>
  <station code="SUSR" name="SUSR" netid="KO" insttype="CMG-5T" commtype="DIG" lat="39.9627" lon="28.0835">
    <comp name="--.HNN">
      <acc value="0.0824170305" flag="0"/>
      <vel value="0.0281543698" flag="0"/>
      <psa03 value="0.2067682292" flag="0"/>
      <psa10 value="0.0094356865" flag="0"/>
      <psa30 value="0.0009461662" flag="0"/>
    </comp>
    <comp name="--.HNE">
      <acc value="0.0725335953" flag="0"/>
      <vel value="0.0234927658" flag="0"/>
      <psa03 value="0.1517973093" flag="0"/>
      <psa10 value="0.0124219211" flag="0"/>
      <psa30 value="0.0009563992" flag="0"/>
    </comp>
    <comp name="--.HNZ">
      <acc value="0.0597830479" flag="0"/>
      <vel value="0.0208006848" flag="0"/>
      <psa03 value="0.0970501590" flag="0"/>
      <psa10 value="0.0095295686" flag="0"/>
      <psa30 value="0.0014486199" flag="0"/>
    </comp>
  </station>
  <station code="TVSB" name="TVSB" netid="KO" insttype="CMG-3T" commtype="DIG" lat="39.4497" lon="29.4615">
    <comp name="--.HHN">
      <acc value="0.0958139658" flag="0"/>
      <vel value="0.0390376820" flag="0"/>
      <psa03 value="0.2884895389" flag="0"/>
      <psa10 value="0.0110865254" flag="0"/>
      <psa30 value="0.0011092074" flag="0"/>
    </comp>
    <comp name="--.HHE">
      <acc value="0.0899888785" flag="0"/>
      <vel value="0.0424809087" flag="0"/>
      <psa03 value="0.2206602355" flag="0"/>
      <psa10 value="0.0224640835" flag="0"/>
      <psa30 value="0.0014043600" flag="0"/>
    </comp>
    <comp name="--.HHZ">
      <acc value="0.0499519929" flag="0"/>
      <vel value="0.0171613948" flag="0"/>
      <psa03 value="0.0992317826" flag="0"/>
      <psa10 value="0.0096698223" flag="0"/>
      <psa30 value="0.0009881039" flag="0"/>
    </comp>
  </station>
  <station code="YAYO" name="YAYO" netid="KO" insttype="CMG-6T" commtype="DIG" lat="39.6113" lon="27.0726">
    <comp name="--.HHZ">
      <acc value="0.0290770407" flag="0"/>
      <vel value="0.0160783317" flag="0"/>
      <psa03 value="0.0689109446" flag="0"/>
      <psa10 value="0.0129733077" flag="0"/>
      <psa30 value="0.0008595274" flag="0"/>
    </comp>
    <comp name="--.HHE">
      <acc value="0.0438053405" flag="0"/>
      <vel value="0.0266069736" flag="0"/>
      <psa03 value="0.0584513475" flag="0"/>
      <psa10 value="0.0339278458" flag="0"/>
      <psa30 value="0.0016030916" flag="0"/>
    </comp>
    <comp name="--.HHN">
      <acc value="0.0495830246" flag="0"/>
      <vel value="0.0280983262" flag="0"/>
      <psa03 value="0.0910115958" flag="0"/>
      <psa10 value="0.0139287987" flag="0"/>
      <psa30 value="0.0009532058" flag="0"/>
    </comp>
  </station>
</stationlist>
