<?xml version="1.0" encoding="UTF-8" standalone="yes"?>
<!DOCTYPE earthquake SYSTEM "stationlist.dtd">
<stationlist created="" xmlns="ch.ethz.sed.shakemap.usgs.xml">
  <station code="AKS" name="AKS" netid="KO" insttype="CMG-5T" commtype="DIG" lat="38.8785" lon="27.8129">
    <comp name="--.HNN">
      <acc value="0.1188041360" flag="0"/>
      <vel value="0.0397692746" flag="0"/>
      <psa03 value="0.1793921247" flag="0"/>
      <psa10 value="0.0177941288" flag="0"/>
      <psa30 value="0.0035125890" flag="0"/>
    </comp>
    <comp name="--.HNZ">
      <acc value="0.0666690438" flag="0"/>
      <vel value="0.0137067387" flag="0"/>
      <psa03 value="0.0596922284" flag="0"/>
      <psa10 value="0.0099906755" flag="0"/>
      <psa30 value="0.0023221545" flag="0"/>
    </comp>
    <comp name="--.HNE">
      <acc value="0.1004830258" flag="0"/>
      <vel value="0.0408432758" flag="0"/>
      <psa03 value="0.2338074750" flag="0"/>
      <psa10 value="0.0299956117" flag="0"/>
      <psa30 value="0.0024267709" flag="0"/>
    </comp>
  </station>
  <station code="BALB" name="BALB" netid="KO" insttype="CMG-5T" commtype="DIG" lat="39.6507" lon="27.8642">
    <comp name="--.HNE">
      <acc value="0.1329292120" flag="0"/>
      <vel value="0.0559487862" flag="0"/>
      <psa03 value="0.3653224246" flag="0"/>
      <psa10 value="0.0390788515" flag="0"/>
      <psa30 value="0.0028144635" flag="0"/>
    </comp>
    <comp name="--.HNN">
      <acc value="0.1126181128" flag="0"/>
      <vel value="0.0715203172" flag="0"/>
      <psa03 value="0.4797447812" flag="0"/>
      <psa10 value="0.0727407728" flag="0"/>
      <psa30 value="0.0037985272" flag="0"/>
    </comp>
    <comp name="--.HNZ">
      <acc value="0.0883737238" flag="0"/>
      <vel value="0.0435512630" flag="0"/>
      <psa03 value="0.2032315174" flag="0"/>
      <psa10 value="0.0261236132" flag="0"/>
      <psa30 value="0.0025865755" flag="0"/>
    </comp>
  </station>
  <station code="DKL" name="DKL" netid="KO" insttype="CMG-3ESPC" commtype="DIG" lat="39.0713" lon="26.9053">
    <comp name="--.HHN">
      <acc value="0.0170140577" flag="0"/>
      <vel value="0.0118409593" flag="0"/>
      <psa03 value="0.0333470439" flag="0"/>
      <psa10 value="0.0127717822" flag="0"/>
      <psa30 value="0.0012112830" flag="0"/>
    </comp>
    <comp name="--.HHZ">
      <acc value="0.0094677293" flag="0"/>
      <vel value="0.0053925232" flag="0"/>
      <psa03 value="0.0233282926" flag="0"/>
      <psa10 value="0.0066534831" flag="0"/>
      <psa30 value="0.0008700210" flag="0"/>
    </comp>
    <comp name="--.HHE">
      <acc value="0.0113317891" flag="0"/>
      <vel value="0.0071049234" flag="0"/>
      <psa03 value="0.0349544343" flag="0"/>
      <psa10 value="0.0087445498" flag="0"/>
      <psa30 value="0.0011428078" flag="0"/>
    </comp>
  </station>
  <station code="DST" name="DST" netid="KO" insttype="CMG-5T" commtype="DIG" lat="39.6041" lon="28.6267">
    <comp name="--.HNE">
      <acc value="0.1258473437" flag="0"/>
      <vel value="0.0311470351" flag="0"/>
      <psa03 value="0.2194113529" flag="0"/>
      <psa10 value="0.0207557136" flag="0"/>
      <psa30 value="0.0018169804" flag="0"/>
    </comp>
    <comp name="--.HNZ">
      <acc value="0.0901037156" flag="0"/>
      <vel value="0.0254581526" flag="0"/>
      <psa03 value="0.2073044148" flag="0"/>
      <psa10 value="0.0172048531" flag="0"/>
      <psa30 value="0.0018924839" flag="0"/>
    </comp>
    <comp name="--.HNN">
      <acc value="0.1048415498" flag="0"/>
      <vel value="0.0372999258" flag="0"/>
      <psa03 value="0.2140081990" flag="0"/>
      <psa10 value="0.0249454355" flag="0"/>
      <psa30 value="0.0023361889" flag="0"/>
    </comp>
  </station>
  <station code="GONE" name="GONE" netid="KO" insttype="CMG-5T" commtype="DIG" lat="40.0466" lon="27.686">
    <comp name="--.HNN">
      <acc value="0.0879316051" flag="0"/>
      <vel value="0.0366903336" flag="0"/>
      <psa03 value="0.2105472132" flag="0"/>
      <psa10 value="0.0220666244" flag="0"/>
      <psa30 value="0.0018469928" flag="0"/>
    </comp>
    <comp name="--.HNE">
      <acc value="0.0757919199" flag="0"/>
      <vel value="0.0450196097" flag="0"/>
      <psa03 value="0.1780499001" flag="0"/>
      <psa10 value="0.0527967947" flag="0"/>
      <psa30 value="0.0021690382" flag="0"/>
    </comp>
    <comp name="--.HNZ">
      <acc value="0.0388810588" flag="0"/>
      <vel value="0.0160443627" flag="0"/>
      <psa03 value="0.0693410560" flag="0"/>
      <psa10 value="0.0137014679" flag="0"/>
      <psa30 value="0.0008087995" flag="0"/>
    </comp>
  </station>
  <station code="GORD" name="GORD" netid="KO" insttype="CMG-5T" commtype="DIG" lat="38.9088" lon="28.1769">
    <comp name="--.HNE">
      <acc value="0.0630960119" flag="0"/>
      <vel value="0.0391746439" flag="0"/>
      <psa03 value="0.1457163786" flag="0"/>
      <psa10 value="0.0475372791" flag="0"/>
      <psa30 value="0.0071682852" flag="0"/>
    </comp>
    <comp name="--.HNZ">
      <acc value="0.0569725407" flag="0"/>
      <vel value="0.0225604164" flag="0"/>
      <psa03 value="0.1032460776" flag="0"/>
      <psa10 value="0.0263559483" flag="0"/>
      <psa30 value="0.0044182238" flag="0"/>
    </comp>
    <comp name="--.HNN">
      <acc value="0.0895818414" flag="0"/>
      <vel value="0.0375129797" flag="0"/>
      <psa03 value="0.1265198456" flag="0"/>
      <psa10 value="0.0581566637" flag="0"/>
      <psa30 value="0.0043264338" flag="0"/>
    </comp>
  </station>
  <station code="KCTX" name="KCTX" netid="KO" insttype="CMG-3ESP" commtype="DIG" lat="40.2626" lon="28.3353">
    <comp name="--.HHE">
      <acc value="0.0470230456" flag="0"/>
      <vel value="0.0415154152" flag="0"/>
      <psa03 value="0.1029544210" flag="0"/>
      <psa10 value="0.0494164466" flag="0"/>
      <psa30 value="0.0026907013" flag="0"/>
    </comp>
    <comp name="--.HHN">
      <acc value="0.0588743335" flag="0"/>
      <vel value="0.0257461944" flag="0"/>
      <psa03 value="0.1632624596" flag="0"/>
      <psa10 value="0.0195346640" flag="0"/>
      <psa30 value="0.0010901625" flag="0"/>
    </comp>
    <comp name="--.HHZ">
      <acc value="0.0430069801" flag="0"/>
      <vel value="0.0156697133" flag="0"/>
      <psa03 value="0.0534437893" flag="0"/>
      <psa10 value="0.0104009928" flag="0"/>
      <psa30 value="0.0008375573" flag="0"/>
    </comp>
  </station>
  <station code="KULA" name="KULA" netid="KO" insttype="CMG-3T" commtype="DIG" lat="38.5145" lon="28.6607">
    <comp name="--.HHZ">
      <acc value="0.0312451623" flag="0"/>
      <vel value="0.0109320320" flag="0"/>
      <psa03 value="0.0622252320" flag="0"/>
      <psa10 value="0.0077559354" flag="0"/>
      <psa30 value="0.0006231423" flag="0"/>
    </comp>
    <comp name="--.HHN">
      <acc value="0.0449840941" flag="0"/>
      <vel value="0.0109640519" flag="0"/>
      <psa03 value="0.0448338303" flag="0"/>
      <psa10 value="0.0062594985" flag="0"/>
      <psa30 value="0.0004312880" flag="0"/>
    </comp>
    <comp name="--.HHE">
      <acc value="0.0395597275" flag="0"/>
      <vel value="0.0162207175" flag="0"/>
      <psa03 value="0.0632539233" flag="0"/>
      <psa10 value="0.0088921028" flag="0"/>
      <psa30 value="0.0006936643" flag="0"/>
    </comp>
  </station>
  <station code="ORLT" name="ORLT" netid="KO" insttype="CMG-5T" commtype="DIG" lat="40.0452" lon="28.8914">
    <comp name="--.HNZ">
      <acc value="0.0642101969" flag="0"/>
      <vel value="0.0333349381" flag="0"/>
      <psa03 value="0.1610344878" flag="0"/>
      <psa10 value="0.0445840625" flag="0"/>
      <psa30 value="0.0025716417" flag="0"/>
    </comp>
    <comp name="--.HNN">
      <acc value="0.1575122364" flag="0"/>
      <vel value="0.1011966002" flag="0"/>
      <psa03 value="0.5909597430" flag="0"/>
      <psa10 value="0.0862887390" flag="0"/>
      <psa30 value="0.0039833448" flag="0"/>
    </comp>
    <comp name="--.HNE">
      <acc value="0.1831677453" flag="0"/>
      <vel value="0.0943435309" flag="0"/>
      <psa03 value="0.6593934139" flag="0"/>
      <psa10 value="0.0618165082" flag="0"/>
      <psa30 value="0.0032897603" flag="0"/>
    </comp>
  </station>
  <station code="SHAP" name="SHAP" netid="KO" insttype="CMG-5T" commtype="DIG" lat="39.0231" lon="29.222">
    <comp name="--.HNE">
      <acc value="0.1363460859" flag="0"/>
      <vel value="0.0356493886" flag="0"/>
      <psa03 value="0.2213824046" flag="0"/>
      <psa10 value="0.0162072988" flag="0"/>
      <psa30 value="0.0008876373" flag="0"/>
    </comp>
    <comp name="--.HNN">
      <acc value="0.1290782116" flag="0"/>
      <vel value="0.0354301582" flag="0"/>
      <psa03 value="0.1984854759" flag="0"/>
      <psa10 value="0.0144584299" flag="0"/>
      <psa30 value="0.0011490954" flag="0"/>
    </comp>
    <comp name="--.HNZ">
      <acc value="0.0994797921" flag="0"/>
      <vel value="0.0212055033" flag="0"/>
      <psa03 value="0.0653376872" flag="0"/>
      <psa10 value="0.0089391747" flag="0"/>
      <psa30 value="0.0006838962" flag="0"/>
    </comp>
  </station>
  <station code="SIMA" name="SIMA" netid="KO" insttype="CMG-6T" commtype="DIG" lat="39.0833" lon="28.9825">
    <comp name="--.HHN">
      <acc value="0.1320632529" flag="0"/>
      <vel value="0.0467054588" flag="0"/>
      <psa03 value="0.2863093777" flag="0"/>
      <psa10 value="0.0122450020" flag="0"/>
      <psa30 value="0.0012120188" flag="0"/>
    </comp>
    <comp name="--.HHE">
      <acc value="0.1887251473" flag="0"/>
      <vel value="0.0474014968" flag="0"/>
      <psa03 value="0.2645680804" flag="0"/>
      <psa10 value="0.0087035528" flag="0"/>
      <psa30 value="0.0010882626" flag="0"/>
    </comp>
    <comp name="--.HHZ">
      <acc value="0.0789791818" flag="0"/>
      <vel value="0.0178066038" flag="0"/>
      <psa03 value="0.1109875415" flag="0"/>
      <psa10 value="0.0070872418" flag="0"/>
      <psa30 value="0.0006433060" flag="0"/>
    </comp>
  </station>
  <station code="SMAA" name="SMAA" netid="KO" insttype="CMG-5T" commtype="DIG" lat="39.1005" lon="28.9805">
    <comp name="--.HNN">
      <acc value="0.1652363886" flag="0"/>
      <vel value="0.0608367688" flag="0"/>
      <psa03 value="0.2945950945" flag="0"/>
      <psa10 value="0.0593299512" flag="0"/>
      <psa30 value="0.0040171355" flag="0"/>
    </comp>
    <comp name="--.HNZ">
      <acc value="0.0698856691" flag="0"/>
      <vel value="0.0206736103" flag="0"/>
      <psa03 value="0.0938425739" flag="0"/>
      <psa10 value="0.0389228014" flag="0"/>
      <psa30 value="0.0018554257" flag="0"/>
    </comp>
    <comp name="--.HNE">
      <acc value="0.1880761764" flag="0"/>
      <vel value="0.0684182689" flag="0"/>
      <psa03 value="0.4458926970" flag="0"/>
      <psa10 value="0.0482276823" flag="0"/>
      <psa30 value="0.0051754594" flag="0"/>
    </comp>
  </station>
  <station code="SOMA" name="SOMA" netid="KO" insttype="CMG-5T" commtype="DIG" lat="39.1564" lon="27.5341">
    <comp name="--.HNN">
      <acc value="0.0982774428" flag="0"/>
      <vel value="0.0612020130" flag="0"/>
      <psa03 value="0.2060982931" flag="0"/>
      <psa10 value="0.0355653329" flag="0"/>
      <psa30 value="0.0029654041" flag="0"/>
    </comp>
    <comp name="--.HNZ">
      <acc value="0.1020173047" flag="0"/>
      <vel value="0.0227643098" flag="0"/>
      <psa03 value="0.1059743509" flag="0"/>
      <psa10 value="0.0186812428" flag="0"/>
      <psa30 value="0.0026026282" flag="0"/>
    </comp>
    <comp name="--.HNE">
      <acc value="0.0884938047" flag="0"/>
      <vel value="0.0293613685" flag="0"/>
      <psa03 value="0.1581917413" flag="0"/>
      <psa10 value="0.0261105492" flag="0"/>
      <psa30 value="0.0029972914" flag="0"/>
    </comp>
  </station>
  <station code="SUSR" name="SUSR" netid="KO" insttype="CMG-5T" commtype="DIG" lat="39.9627" lon="28.0835">
    <comp name="--.HNN">
      <acc value="0.0824170343" flag="0"/>
      <vel value="0.0281543697" flag="0"/>
      <psa03 value="0.2067682292" flag="0"/>
      <psa10 value="0.0094356869" flag="0"/>
      <psa30 value="0.0009462142" flag="0"/>
    </comp>
    <comp name="--.HNE">
      <acc value="0.0725335919" flag="0"/>
      <vel value="0.0234927635" flag="0"/>
      <psa03 value="0.1517973093" flag="0"/>
      <psa10 value="0.0124219204" flag="0"/>
      <psa30 value="0.0009568669" flag="0"/>
    </comp>
    <comp name="--.HNZ">
      <acc value="0.0597830472" flag="0"/>
      <vel value="0.0208006825" flag="0"/>
      <psa03 value="0.0970501590" flag="0"/>
      <psa10 value="0.0095295695" flag="0"/>
      <psa30 value="0.0014485227" flag="0"/>
    </comp>
  </station>
  <station code="TVSB" name="TVSB" netid="KO" insttype="CMG-3T" commtype="DIG" lat="39.4497" lon="29.4615">
    <comp name="--.HHZ">
      <acc value="0.0499519934" flag="0"/>
      <vel value="0.0171613948" flag="0"/>
      <psa03 value="0.0992317826" flag="0"/>
      <psa10 value="0.0096698223" flag="0"/>
      <psa30 value="0.0009881261" flag="0"/>
    </comp>
    <comp name="--.HHN">
      <acc value="0.0958139661" flag="0"/>
      <vel value="0.0390376815" flag="0"/>
      <psa03 value="0.2884895389" flag="0"/>
      <psa10 value="0.0110865254" flag="0"/>
      <psa30 value="0.0011092236" flag="0"/>
    </comp>
    <comp name="--.HHE">
      <acc value="0.0899888786" flag="0"/>
      <vel value="0.0424809081" flag="0"/>
      <psa03 value="0.2206602355" flag="0"/>
      <psa10 value="0.0224640834" flag="0"/>
      <psa30 value="0.0014043397" flag="0"/>
    </comp>
  </station>
  <station code="YAYO" name="YAYO" netid="KO" insttype="CMG-6T" commtype="DIG" lat="39.6113" lon="27.0726">
    <comp name="--.HHE">
      <acc value="0.0438053403" flag="0"/>
      <vel value="0.0266069723" flag="0"/>
      <psa03 value="0.0584513475" flag="0"/>
      <psa10 value="0.0339278458" flag="0"/>
      <psa30 value="0.0016030991" flag="0"/>
    </comp>
    <comp name="--.HHN">
      <acc value="0.0495830244" flag="0"/>
      <vel value="0.0280983236" flag="0"/>
      <psa03 value="0.0910115958" flag="0"/>
      <psa10 value="0.0139287988" flag="0"/>
      <psa30 value="0.0009531496" flag="0"/>
    </comp>
    <comp name="--.HHZ">
      <acc value="0.0290770406" flag="0"/>
      <vel value="0.0160783339" flag="0"/>
      <psa03 value="0.0689109446" flag="0"/>
      <psa10 value="0.0129733076" flag="0"/>
      <psa30 value="0.0008595248" flag="0"/>
    </comp>
  </station>
</stationlist>
