<?xml version="1.0" encoding="UTF-8" standalone="yes"?>
<!DOCTYPE earthquake SYSTEM "stationlist.dtd">
<stationlist created="" xmlns="ch.ethz.sed.shakemap.usgs.xml">
  <station code="DARE" name="DARE" netid="KO" insttype="CMG-3ESP" lat="38.5712" lon="37.4832">
    <comp name="--.HHE">
      <acc value="0.0882245736" flag="0"/>
      <vel value="0.0532090260" flag="0"/>
      <psa03 value="0.1660428621" flag="0"/>
      <psa10 value="0.0368750010" flag="0"/>
      <psa30 value="0.0027887205" flag="0"/>
    </comp>
    <comp name="--.HHZ">
      <acc value="0.0750927908" flag="0"/>
      <vel value="0.0263553809" flag="0"/>
      <psa03 value="0.1057037569" flag="0"/>
      <psa10 value="0.0337324915" flag="0"/>
      <psa30 value="0.0023013631" flag="0"/>
    </comp>
    <comp name="--.HHN">
      <acc value="0.0787096906" flag="0"/>
      <vel value="0.0242425396" flag="0"/>
      <psa03 value="0.1336589699" flag="0"/>
      <psa10 value="0.0304844084" flag="0"/>
      <psa30 value="0.0022703774" flag="0"/>
    </comp>
  </station>
  <station code="GAZ" name="GAZ" netid="KO" insttype="CMG-3T" lat="37.1721" lon="37.2096">
    <comp name="--.HHN">
      <acc value="0.0201898609" flag="0"/>
      <vel value="0.0098441980" flag="0"/>
      <psa03 value="0.0342773443" flag="0"/>
      <psa10 value="0.0096385171" flag="0"/>
      <psa30 value="0.0010964188" flag="0"/>
    </comp>
    <comp name="--.HHZ">
      <acc value="0.0143033201" flag="0"/>
      <vel value="0.0074534416" flag="0"/>
      <psa03 value="0.0332292251" flag="0"/>
      <psa10 value="0.0073271350" flag="0"/>
      <psa30 value="0.0008009348" flag="0"/>
    </comp>
    <comp name="--.HHE">
      <acc value="0.0279802609" flag="0"/>
      <vel value="0.0140192411" flag="0"/>
      <psa03 value="0.0363435782" flag="0"/>
      <psa10 value="0.0182536457" flag="0"/>
      <psa30 value="0.0015573351" flag="0"/>
    </comp>
  </station>
  <station code="KHMN" name="KHMN" netid="KO" insttype="CMG-5T" lat="37.3916" lon="37.1574">
    <comp name="--.HNN">
      <acc value="0.0511251352" flag="0"/>
      <vel value="0.0160326072" flag="0"/>
      <psa03 value="0.0584031916" flag="0"/>
      <psa10 value="0.0140669711" flag="0"/>
      <psa30 value="0.0018519395" flag="0"/>
    </comp>
    <comp name="--.HNE">
      <acc value="0.0600582113" flag="0"/>
      <vel value="0.0124864169" flag="0"/>
      <psa03 value="0.0571376852" flag="0"/>
      <psa10 value="0.0217506933" flag="0"/>
      <psa30 value="0.0012317087" flag="0"/>
    </comp>
    <comp name="--.HNZ">
      <acc value="0.0392643179" flag="0"/>
      <vel value="0.0109514435" flag="0"/>
      <psa03 value="0.0365000652" flag="0"/>
      <psa10 value="0.0149720987" flag="0"/>
      <psa30 value="0.0012619708" flag="0"/>
    </comp>
  </station>
  <station code="KMRS" name="KMRS" netid="KO" insttype="CMG-3T" lat="37.5053" lon="36.9">
    <comp name="--.HHE">
      <acc value="0.0532102431" flag="0"/>
      <vel value="0.0180994164" flag="0"/>
      <psa03 value="0.0574817729" flag="0"/>
      <psa10 value="0.0146577190" flag="0"/>
      <psa30 value="0.0023086735" flag="0"/>
    </comp>
    <comp name="--.HHZ">
      <acc value="0.0360650712" flag="0"/>
      <vel value="0.0122212696" flag="0"/>
      <psa03 value="0.0466919350" flag="0"/>
      <psa10 value="0.0099166522" flag="0"/>
      <psa30 value="0.0021131741" flag="0"/>
    </comp>
    <comp name="--.HHN">
      <acc value="0.0756053972" flag="0"/>
      <vel value="0.0286540822" flag="0"/>
      <psa03 value="0.1434871925" flag="0"/>
      <psa10 value="0.0298292109" flag="0"/>
      <psa30 value="0.0023859979" flag="0"/>
    </comp>
  </station>
  <station code="SARI" name="SARI" netid="KO" insttype="CMG-3T" lat="38.4072" lon="36.4181">
    <comp name="--.HHN">
      <acc value="0.0515355828" flag="0"/>
      <vel value="0.0242201628" flag="0"/>
      <psa03 value="0.1664732215" flag="0"/>
      <psa10 value="0.0294233247" flag="0"/>
      <psa30 value="0.0015717375" flag="0"/>
    </comp>
    <comp name="--.HHE">
      <acc value="0.0674842880" flag="0"/>
      <vel value="0.0226514117" flag="0"/>
      <psa03 value="0.1380874076" flag="0"/>
      <psa10 value="0.0197314006" flag="0"/>
      <psa30 value="0.0015040614" flag="0"/>
    </comp>
    <comp name="--.HHZ">
      <acc value="0.0365680596" flag="0"/>
      <vel value="0.0148970473" flag="0"/>
      <psa03 value="0.1029967299" flag="0"/>
      <psa10 value="0.0166750565" flag="0"/>
      <psa30 value="0.0008884811" flag="0"/>
    </comp>
  </station>
  <station code="ANDN" name="ANDN" netid="TU" insttype="T" lat="37.58" lon="36.3452">
    <comp name="--.HHN">
      <acc value="0.1990369641" flag="0"/>
      <vel value="0.0993981334" flag="0"/>
      <psa03 value="0.3685169016" flag="0"/>
      <psa10 value="0.1055125306" flag="0"/>
      <psa30 value="0.0063462787" flag="0"/>
    </comp>
    <comp name="--.HHE">
      <acc value="0.1667561353" flag="0"/>
      <vel value="0.0907964471" flag="0"/>
      <psa03 value="0.2684966033" flag="0"/>
      <psa10 value="0.0505466860" flag="0"/>
      <psa30 value="0.0038560184" flag="0"/>
    </comp>
    <comp name="--.HHZ">
      <acc value="0.1088625178" flag="0"/>
      <vel value="0.0464035740" flag="0"/>
      <psa03 value="0.2113647837" flag="0"/>
      <psa10 value="0.0493436918" flag="0"/>
      <psa30 value="0.0039596609" flag="0"/>
    </comp>
  </station>
</stationlist>
