<?xml version="1.0" encoding="UTF-8" standalone="yes"?>
<!DOCTYPE earthquake SYSTEM "stationlist.dtd">
<stationlist created="" xmlns="ch.ethz.sed.shakemap.usgs.xml">
  <station code="ZKR" name="ZKR" netid="GE" insttype="STS-2/N" commtype="DIG" lat="35.1147" lon="26.2169">
    <comp name="--.HHZ">
      <acc value="0.3511105720" flag="0"/>
      <vel value="0.0481647332" flag="0"/>
      <psa03 value="0.1950262491" flag="0"/>
      <psa10 value="0.0334911734" flag="0"/>
      <psa30 value="0.0044152123" flag="0"/>
    </comp>
    <comp name="--.HHE">
      <acc value="0.2652436027" flag="0"/>
      <vel value="0.0693743217" flag="0"/>
      <psa03 value="0.2072161107" flag="0"/>
      <psa10 value="0.0382745229" flag="0"/>
      <psa30 value="0.0044715171" flag="0"/>
    </comp>
    <comp name="--.HHN">
      <acc value="0.2279356905" flag="0"/>
      <vel value="0.0594946672" flag="0"/>
      <psa03 value="0.2997013840" flag="0"/>
      <psa10 value="0.0209247091" flag="0"/>
      <psa30 value="0.0026880211" flag="0"/>
    </comp>
  </station>
  <station code="IMOD" name="IMOD" netid="HC" insttype="120" commtype="DIG" lat="34.9731" lon="24.7995">
    <comp name="--.HHE">
      <acc value="0.0162532985" flag="0"/>
      <vel value="0.0153941926" flag="0"/>
      <psa03 value="0.0353233285" flag="0"/>
      <psa10 value="0.0239869522" flag="0"/>
      <psa30 value="0.0020125900" flag="0"/>
    </comp>
    <comp name="--.HHZ">
      <acc value="0.0099077348" flag="0"/>
      <vel value="0.0080823931" flag="0"/>
      <psa03 value="0.0176593597" flag="0"/>
      <psa10 value="0.0120725073" flag="0"/>
      <psa30 value="0.0012422389" flag="0"/>
    </comp>
    <comp name="--.HHN">
      <acc value="0.0178289297" flag="0"/>
      <vel value="0.0160502630" flag="0"/>
      <psa03 value="0.0572559916" flag="0"/>
      <psa10 value="0.0326859072" flag="0"/>
      <psa30 value="0.0018366302" flag="0"/>
    </comp>
  </station>
  <station code="KNSS" name="KNSS" netid="HC" insttype="60" commtype="DIG" lat="35.3042" lon="25.1802">
    <comp name="--.HHE">
      <acc value="0.0000000000" flag="0"/>
      <vel value="-100.0000000000" flag="0"/>
      <psa03 value="0.0000000000" flag="0"/>
      <psa10 value="0.0000000000" flag="0"/>
      <psa30 value="0.0000000000" flag="0"/>
    </comp>
    <comp name="--.HHN">
      <acc value="0.0228324750" flag="0"/>
      <vel value="0.0129470662" flag="0"/>
      <psa03 value="0.0845663332" flag="0"/>
      <psa10 value="0.0174805844" flag="0"/>
      <psa30 value="0.0023015068" flag="0"/>
    </comp>
    <comp name="--.HHZ">
      <acc value="0.0179093028" flag="0"/>
      <vel value="0.0075183522" flag="0"/>
      <psa03 value="0.0329269932" flag="0"/>
      <psa10 value="0.0077485388" flag="0"/>
      <psa30 value="0.0033019449" flag="0"/>
    </comp>
  </station>
  <station code="PFKS" name="PFKS" netid="HC" insttype="120" commtype="DIG" lat="35.0429" lon="25.4733">
    <comp name="--.HHZ">
      <acc value="0.0980966014" flag="0"/>
      <vel value="0.0572751596" flag="0"/>
      <psa03 value="0.2693022747" flag="0"/>
      <psa10 value="0.0499170819" flag="0"/>
      <psa30 value="0.0026047915" flag="0"/>
    </comp>
    <comp name="--.HHN">
      <acc value="0.2133539181" flag="0"/>
      <vel value="0.1213646959" flag="0"/>
      <psa03 value="0.3609465349" flag="0"/>
      <psa10 value="0.1379314439" flag="0"/>
      <psa30 value="0.0079535441" flag="0"/>
    </comp>
    <comp name="--.HHE">
      <acc value="0.2195387385" flag="0"/>
      <vel value="0.0992799449" flag="0"/>
      <psa03 value="0.5568157104" flag="0"/>
      <psa10 value="0.0927615374" flag="0"/>
      <psa30 value="0.0056633158" flag="0"/>
    </comp>
  </station>
  <station code="STIA" name="STIA" netid="HC" insttype="120" commtype="DIG" lat="35.2021" lon="26.0909">
    <comp name="--.HHN">
      <acc value="0.2226757168" flag="0"/>
      <vel value="0.0972740588" flag="0"/>
      <psa03 value="0.3218075843" flag="0"/>
      <psa10 value="0.0369491127" flag="0"/>
      <psa30 value="0.0073357087" flag="0"/>
    </comp>
    <comp name="--.HHE">
      <acc value="0.2810093708" flag="0"/>
      <vel value="0.0744309744" flag="0"/>
      <psa03 value="0.3646886047" flag="0"/>
      <psa10 value="0.0460256589" flag="0"/>
      <psa30 value="0.0042454738" flag="0"/>
    </comp>
    <comp name="--.HHZ">
      <acc value="0.3081254794" flag="0"/>
      <vel value="0.0613781869" flag="0"/>
      <psa03 value="0.2517932877" flag="0"/>
      <psa10 value="0.0224077372" flag="0"/>
      <psa30 value="0.0056013961" flag="0"/>
    </comp>
  </station>
  <station code="AGN1" name="AGN1" netid="HI" insttype="unknown" commtype="DIG" lat="35.1879" lon="25.7155">
    <comp name="--.HNE">
      <acc value="0.0015006533" flag="0"/>
      <vel value="0.0021267797" flag="0"/>
      <psa03 value="0.0026688572" flag="0"/>
      <psa10 value="0.0022321125" flag="0"/>
      <psa30 value="0.0008799420" flag="0"/>
    </comp>
    <comp name="--.HNN">
      <acc value="0.1819543712" flag="0"/>
      <vel value="0.0411254787" flag="0"/>
      <psa03 value="0.1953630593" flag="0"/>
      <psa10 value="0.0362405853" flag="0"/>
      <psa30 value="0.0060626070" flag="0"/>
    </comp>
    <comp name="--.HNZ">
      <acc value="0.0847508646" flag="0"/>
      <vel value="0.0221146688" flag="0"/>
      <psa03 value="0.0615510332" flag="0"/>
      <psa10 value="0.0133269245" flag="0"/>
      <psa30 value="0.0018855250" flag="0"/>
    </comp>
  </station>
  <station code="ARK1" name="ARK1" netid="HI" insttype="unknown" commtype="DIG" lat="35.1488" lon="25.2642">
    <comp name="--.HNN">
      <acc value="0.0635676767" flag="0"/>
      <vel value="0.0318322173" flag="0"/>
      <psa03 value="0.1086124905" flag="0"/>
      <psa10 value="0.0494448441" flag="0"/>
      <psa30 value="0.0065933923" flag="0"/>
    </comp>
    <comp name="--.HNE">
      <acc value="0.0573389255" flag="0"/>
      <vel value="0.0311762372" flag="0"/>
      <psa03 value="0.0940671932" flag="0"/>
      <psa10 value="0.0391814649" flag="0"/>
      <psa30 value="0.0043689043" flag="0"/>
    </comp>
    <comp name="--.HNZ">
      <acc value="0.0389564388" flag="0"/>
      <vel value="0.0224203187" flag="0"/>
      <psa03 value="0.0990313719" flag="0"/>
      <psa10 value="0.0378914185" flag="0"/>
      <psa30 value="0.0033346009" flag="0"/>
    </comp>
  </station>
  <station code="KSS1" name="KSS1" netid="HI" insttype="CMG-5TD,ACCELEROMETER,GURALP" commtype="DIG" lat="35.4189" lon="26.9207">
    <comp name="--.HNE">
      <acc value="0.0136827120" flag="0"/>
      <vel value="0.0060046055" flag="0"/>
      <psa03 value="0.0466604534" flag="0"/>
      <psa10 value="0.0036857563" flag="0"/>
      <psa30 value="0.0008429451" flag="0"/>
    </comp>
    <comp name="--.HNN">
      <acc value="0.0178627372" flag="0"/>
      <vel value="0.0083791653" flag="0"/>
      <psa03 value="0.0790536624" flag="0"/>
      <psa10 value="0.0078769808" flag="0"/>
      <psa30 value="0.0009558378" flag="0"/>
    </comp>
    <comp name="--.HNZ">
      <acc value="0.0078535499" flag="0"/>
      <vel value="0.0034555864" flag="0"/>
      <psa03 value="0.0183459266" flag="0"/>
      <psa10 value="0.0045258418" flag="0"/>
      <psa30 value="0.0008871101" flag="0"/>
    </comp>
  </station>
  <station code="SIT2" name="SIT2" netid="HI" insttype="CMG-5TD,ACCELEROMETER,GURALP" commtype="DIG" lat="35.2059" lon="26.107">
    <comp name="--.HNE">
      <acc value="0.4403845575" flag="0"/>
      <vel value="0.2469818608" flag="0"/>
      <psa03 value="1.4077906524" flag="0"/>
      <psa10 value="0.1210035388" flag="0"/>
      <psa30 value="0.0080881219" flag="0"/>
    </comp>
    <comp name="--.HNZ">
      <acc value="0.2900236495" flag="0"/>
      <vel value="0.1011927063" flag="0"/>
      <psa03 value="0.6872056459" flag="0"/>
      <psa10 value="0.0439511620" flag="0"/>
      <psa30 value="0.0054251678" flag="0"/>
    </comp>
    <comp name="--.HNN">
      <acc value="0.3859555161" flag="0"/>
      <vel value="0.2854762362" flag="0"/>
      <psa03 value="0.8061933866" flag="0"/>
      <psa10 value="0.1444924900" flag="0"/>
      <psa30 value="0.0130783013" flag="0"/>
    </comp>
  </station>
  <station code="IDI" name="IDI" netid="HL" insttype="120" commtype="DIG" lat="35.288" lon="24.89">
    <comp name="--.HHN">
      <acc value="0.0131483556" flag="0"/>
      <vel value="0.0064958990" flag="0"/>
      <psa03 value="0.0241747749" flag="0"/>
      <psa10 value="0.0081648224" flag="0"/>
      <psa30 value="0.0011650493" flag="0"/>
    </comp>
    <comp name="--.HHE">
      <acc value="0.0085495824" flag="0"/>
      <vel value="0.0054078712" flag="0"/>
      <psa03 value="0.0219703369" flag="0"/>
      <psa10 value="0.0068328743" flag="0"/>
      <psa30 value="0.0009857568" flag="0"/>
    </comp>
    <comp name="--.HHZ">
      <acc value="0.0075487860" flag="0"/>
      <vel value="0.0046473085" flag="0"/>
      <psa03 value="0.0188645228" flag="0"/>
      <psa10 value="0.0078301435" flag="0"/>
      <psa30 value="0.0012158519" flag="0"/>
    </comp>
  </station>
  <station code="SIVA" name="SIVA" netid="HL" insttype="60" commtype="DIG" lat="35.0178" lon="24.812">
    <comp name="--.HHN">
      <acc value="0.0163555707" flag="0"/>
      <vel value="0.0162718183" flag="0"/>
      <psa03 value="0.0350088152" flag="0"/>
      <psa10 value="0.0209886786" flag="0"/>
      <psa30 value="0.0026553695" flag="0"/>
    </comp>
    <comp name="--.HHZ">
      <acc value="0.0122978128" flag="0"/>
      <vel value="0.0103382951" flag="0"/>
      <psa03 value="0.0286873031" flag="0"/>
      <psa10 value="0.0171211094" flag="0"/>
      <psa30 value="0.0014915614" flag="0"/>
    </comp>
    <comp name="--.HHE">
      <acc value="0.0275112958" flag="0"/>
      <vel value="0.0206233317" flag="0"/>
      <psa03 value="0.0527811390" flag="0"/>
      <psa10 value="0.0243401107" flag="0"/>
      <psa30 value="0.0030183329" flag="0"/>
    </comp>
  </station>
  <station code="IDI" name="IDI" netid="MN" insttype="" commtype="DIG" lat="35.288" lon="24.89">
    <comp name="--.HHE">
      <acc value="0.0079309599" flag="0"/>
      <vel value="0.0048303741" flag="0"/>
      <psa03 value="0.0198981517" flag="0"/>
      <psa10 value="0.0060860753" flag="0"/>
      <psa30 value="0.0008750756" flag="0"/>
    </comp>
    <comp name="--.HHZ">
      <acc value="0.0068256512" flag="0"/>
      <vel value="0.0041482668" flag="0"/>
      <psa03 value="0.0171815954" flag="0"/>
      <psa10 value="0.0069697274" flag="0"/>
      <psa30 value="0.0010788069" flag="0"/>
    </comp>
    <comp name="--.HHN">
      <acc value="0.0121632374" flag="0"/>
      <vel value="0.0058630642" flag="0"/>
      <psa03 value="0.0218922822" flag="0"/>
      <psa10 value="0.0072786109" flag="0"/>
      <psa30 value="0.0010337533" flag="0"/>
    </comp>
  </station>
</stationlist>
