<stationlist created="1778205383">
	<station code="TEFL" name="TEFL" netid="HC" source="Seismological Network of Crete (HC)" insttype="" lat="35.093273" lon="25.163418">
		<comp name="--.HNE" depth="0.0">
			<acc value="0.226019393507859" flag="0"/>
			<vel value="0.133114517630153" flag="0"/>
			<psa03 value="0.301563914629345" flag="0"/>
			<psa10 value="0.15891151210778" flag="0"/>
			<psa30 value="0.052925926082856" flag="0"/>
		</comp>
		<comp name="--.HNN" depth="0.0">
			<acc value="0.2049702918219" flag="0"/>
			<vel value="0.112898488930702" flag="0"/>
			<psa03 value="0.27392195848541" flag="0"/>
			<psa10 value="0.135898247591949" flag="0"/>
			<psa30 value="0.0592965881079496" flag="0"/>
		</comp>
		<comp name="--.HNZ" depth="0.0">
			<acc value="0.211440249258809" flag="0"/>
			<vel value="0.150319524227066" flag="0"/>
			<psa03 value="0.31046175406754" flag="0"/>
			<psa10 value="0.164172990654912" flag="0"/>
			<psa30 value="0.0656267607841558" flag="0"/>
		</comp>
	</station>
	<station code="AGN1" name="AGN1" netid="HI" source="ITSAK Strong Motion Network" insttype="" lat="35.1879" lon="25.7155">
		<comp name="--.HNE" depth="0.0">
			<acc value="0.00196522225771342" flag="0"/>
			<vel value="0.00306013682622227" flag="0"/>
			<psa03 value="0.00278175231129266" flag="0"/>
			<psa10 value="0.00240190309866736" flag="0"/>
			<psa30 value="0.00206838243685201" flag="0"/>
		</comp>
		<comp name="--.HNN" depth="0.0">
			<acc value="0.182972652335807" flag="0"/>
			<vel value="0.04307510002792" flag="0"/>
			<psa03 value="0.199257991530698" flag="0"/>
			<psa10 value="0.0362165916714564" flag="0"/>
			<psa30 value="0.00632064037807162" flag="0"/>
		</comp>
		<comp name="--.HNZ" depth="0.0">
			<acc value="0.0856203062396831" flag="0"/>
			<vel value="0.023013054085903" flag="0"/>
			<psa03 value="0.0642104515439529" flag="0"/>
			<psa10 value="0.013427793587925" flag="0"/>
			<psa30 value="0.00205364604397164" flag="0"/>
		</comp>
	</station>
	<station code="ARK1" name="ARK1" netid="HI" source="ITSAK Strong Motion Network" insttype="" lat="35.148777" lon="25.264194">
		<comp name="--.HNE" depth="0.0">
			<acc value="0.0571901929471662" flag="0"/>
			<vel value="0.0323598695302641" flag="0"/>
			<psa03 value="0.0958645380551674" flag="0"/>
			<psa10 value="0.0394405077400738" flag="0"/>
			<psa30 value="0.00484722985518893" flag="0"/>
		</comp>
		<comp name="--.HNN" depth="0.0">
			<acc value="0.0636575565211395" flag="0"/>
			<vel value="0.0323764644996177" flag="0"/>
			<psa03 value="0.108825563326149" flag="0"/>
			<psa10 value="0.0496465725917815" flag="0"/>
			<psa30 value="0.00784629644529854" flag="0"/>
		</comp>
		<comp name="--.HNZ" depth="0.0">
			<acc value="0.0391971969280231" flag="0"/>
			<vel value="0.0231902424922524" flag="0"/>
			<psa03 value="0.0982357993062544" flag="0"/>
			<psa10 value="0.0379413121757253" flag="0"/>
			<psa30 value="0.00363483245647807" flag="0"/>
		</comp>
	</station>
	<station code="GOR1" name="GOR1" netid="HI" source="ITSAK Strong Motion Network" insttype="" lat="35.0582" lon="24.9628">
		<comp name="--.HNE" depth="0.0">
			<acc value="0.0227839417257175" flag="0"/>
			<vel value="0.030567214824703" flag="0"/>
			<psa03 value="0.0578807666083904" flag="0"/>
			<psa10 value="0.0437392862630536" flag="0"/>
			<psa30 value="0.00487820565718379" flag="0"/>
		</comp>
		<comp name="--.HNN" depth="0.0">
			<acc value="0.0254630132367952" flag="0"/>
			<vel value="0.0273138597095424" flag="0"/>
			<psa03 value="0.0439136538557176" flag="0"/>
			<psa10 value="0.0452877488411" flag="0"/>
			<psa30 value="0.00435352131608788" flag="0"/>
		</comp>
		<comp name="--.HNZ" depth="0.0">
			<acc value="0.0177057966728484" flag="0"/>
			<vel value="0.0178620349051358" flag="0"/>
			<psa03 value="0.0348509753727454" flag="0"/>
			<psa10 value="0.0300980425976086" flag="0"/>
			<psa30 value="0.00348193441106628" flag="0"/>
		</comp>
	</station>
	<station code="HER1" name="HER1" netid="HI" source="ITSAK Strong Motion Network" insttype="" lat="35.317672" lon="25.10217">
		<comp name="--.HNE" depth="0.0">
			<acc value="0.0582456395510375" flag="0"/>
			<vel value="0.0872609761111305" flag="0"/>
			<psa03 value="0.104792671166836" flag="0"/>
			<psa10 value="0.156234254752619" flag="0"/>
			<psa30 value="0.00876826835474607" flag="0"/>
		</comp>
		<comp name="--.HNN" depth="0.0">
			<acc value="0.0614737082414837" flag="0"/>
			<vel value="0.0883014095500939" flag="0"/>
			<psa03 value="0.0953995697532993" flag="0"/>
			<psa10 value="0.174443511026481" flag="0"/>
			<psa30 value="0.00895313560129387" flag="0"/>
		</comp>
		<comp name="--.HNZ" depth="0.0">
			<acc value="0.0455734176892376" flag="0"/>
			<vel value="0.0477888569571644" flag="0"/>
			<psa03 value="0.077105477651147" flag="0"/>
			<psa10 value="0.0988006850604966" flag="0"/>
			<psa30 value="0.00447705158269512" flag="0"/>
		</comp>
	</station>
	<station code="KSS1" name="KSS1" netid="HI" source="ITSAK Strong Motion Network" insttype="" lat="35.4189" lon="26.9207">
		<comp name="--.HNE" depth="0.0">
			<acc value="0.0136635312902374" flag="0"/>
			<vel value="0.00689038436364202" flag="0"/>
			<psa03 value="0.0482610928938844" flag="0"/>
			<psa10 value="0.00384716774660729" flag="0"/>
			<psa30 value="0.00134818972761955" flag="0"/>
		</comp>
		<comp name="--.HNN" depth="0.0">
			<acc value="0.0177224808911173" flag="0"/>
			<vel value="0.0089542984399082" flag="0"/>
			<psa03 value="0.0798590663128819" flag="0"/>
			<psa10 value="0.0079358641495527" flag="0"/>
			<psa30 value="0.00137381830038672" flag="0"/>
		</comp>
		<comp name="--.HNZ" depth="0.0">
			<acc value="0.00796693224026954" flag="0"/>
			<vel value="0.00402265299007032" flag="0"/>
			<psa03 value="0.0189929456894394" flag="0"/>
			<psa10 value="0.00452907893550191" flag="0"/>
			<psa30 value="0.00108522334905421" flag="0"/>
		</comp>
	</station>
	<station code="RTH1" name="RTH1" netid="HI" source="ITSAK Strong Motion Network" insttype="" lat="35.365393" lon="24.471773">
		<comp name="--.HNE" depth="0.0">
			<acc value="0.00811307562430426" flag="0"/>
			<vel value="0.00560450046009826" flag="0"/>
			<psa03 value="0.0211545680529789" flag="0"/>
			<psa10 value="0.0127662750780703" flag="0"/>
			<psa30 value="0.00158621007863299" flag="0"/>
		</comp>
		<comp name="--.HNN" depth="0.0">
			<acc value="0.00851905382200656" flag="0"/>
			<vel value="0.00498250121139283" flag="0"/>
			<psa03 value="0.0185370326749397" flag="0"/>
			<psa10 value="0.00694286164926046" flag="0"/>
			<psa30 value="0.00143238905541179" flag="0"/>
		</comp>
		<comp name="--.HNZ" depth="0.0">
			<acc value="0.00728888610262561" flag="0"/>
			<vel value="0.00313099037983589" flag="0"/>
			<psa03 value="0.0101443224021984" flag="0"/>
			<psa10 value="0.00682071933918186" flag="0"/>
			<psa30 value="0.00086809193391358" flag="0"/>
		</comp>
	</station>
	<station code="SIT2" name="SIT2" netid="HI" source="ITSAK Strong Motion Network" insttype="" lat="35.2059" lon="26.107">
		<comp name="--.HNE" depth="0.0">
			<acc value="0.441377575059314" flag="0"/>
			<vel value="0.250947052099662" flag="0"/>
			<psa03 value="1.39460880265546" flag="0"/>
			<psa10 value="0.121003663398845" flag="0"/>
			<psa30 value="0.00821983119014217" flag="0"/>
		</comp>
		<comp name="--.HNN" depth="0.0">
			<acc value="0.386105253541723" flag="0"/>
			<vel value="0.288430423503664" flag="0"/>
			<psa03 value="0.819313108805811" flag="0"/>
			<psa10 value="0.144530869460781" flag="0"/>
			<psa30 value="0.013656946372339" flag="0"/>
		</comp>
		<comp name="--.HNZ" depth="0.0">
			<acc value="0.287831838072795" flag="0"/>
			<vel value="0.101552018513943" flag="0"/>
			<psa03 value="0.706176864084843" flag="0"/>
			<psa10 value="0.0442135126782262" flag="0"/>
			<psa30 value="0.00620610445729565" flag="0"/>
		</comp>
	</station>
	<station code="HERG" name="HERG" netid="HL" source="National Observatory of Athens Seismic Network" insttype="" lat="35.32622" lon="25.06586">
		<comp name="00.HNE" depth="0.0">
			<acc value="0.027550248482902" flag="0"/>
			<vel value="0.0332544949706304" flag="0"/>
			<psa03 value="0.0768313553252215" flag="0"/>
			<psa10 value="0.0609491313308278" flag="0"/>
			<psa30 value="0.0063351567563771" flag="0"/>
		</comp>
		<comp name="00.HNN" depth="0.0">
			<acc value="0.0373574836665757" flag="0"/>
			<vel value="0.0420818461811311" flag="0"/>
			<psa03 value="0.0664905452973073" flag="0"/>
			<psa10 value="0.0680250663267944" flag="0"/>
			<psa30 value="0.00569203373596662" flag="0"/>
		</comp>
		<comp name="00.HNZ" depth="0.0">
			<acc value="0.0257435914318448" flag="0"/>
			<vel value="0.0241768202999652" flag="0"/>
			<psa03 value="0.0495707890298257" flag="0"/>
			<psa10 value="0.0328432994574025" flag="0"/>
			<psa30 value="0.00333117650742838" flag="0"/>
		</comp>
	</station>
	<station code="IACM" name="IACM" netid="HL" source="National Observatory of Athens Seismic Network" insttype="" lat="35.3058" lon="25.0709">
		<comp name="--.HNE" depth="0.0">
			<acc value="0.0571305114054507" flag="0"/>
			<vel value="0.0515042029938027" flag="0"/>
			<psa03 value="0.149477245883944" flag="0"/>
			<psa10 value="0.123590869788571" flag="0"/>
			<psa30 value="0.00802645254642274" flag="0"/>
		</comp>
		<comp name="--.HNN" depth="0.0">
			<acc value="0.06354984805824" flag="0"/>
			<vel value="0.0608847808203104" flag="0"/>
			<psa03 value="0.146866135410689" flag="0"/>
			<psa10 value="0.104420117320305" flag="0"/>
			<psa30 value="0.00716323119557806" flag="0"/>
		</comp>
		<comp name="--.HNZ" depth="0.0">
			<acc value="0.0461962165558343" flag="0"/>
			<vel value="0.0301836809529807" flag="0"/>
			<psa03 value="0.104759939831879" flag="0"/>
			<psa10 value="0.0370351883994722" flag="0"/>
			<psa30 value="0.0028336812591431" flag="0"/>
		</comp>
	</station>
	<station code="KARP" name="KARP" netid="HL" source="National Observatory of Athens Seismic Network" insttype="" lat="35.5471" lon="27.16106">
		<comp name="--.HNE" depth="0.0">
			<acc value="0.0129018839732205" flag="0"/>
			<vel value="0.00783881794160386" flag="0"/>
			<psa03 value="0.0268427235111954" flag="0"/>
			<psa10 value="0.00810886873525745" flag="0"/>
			<psa30 value="0.000815216139485034" flag="0"/>
		</comp>
		<comp name="--.HNN" depth="0.0">
			<acc value="0.0104092021188814" flag="0"/>
			<vel value="0.00816189246386708" flag="0"/>
			<psa03 value="0.0277057806844974" flag="0"/>
			<psa10 value="0.0092594777699591" flag="0"/>
			<psa30 value="0.00087140960160945" flag="0"/>
		</comp>
		<comp name="--.HNZ" depth="0.0">
			<acc value="0.00749919125115952" flag="0"/>
			<vel value="0.00461387267653871" flag="0"/>
			<psa03 value="0.0215223046533073" flag="0"/>
			<psa10 value="0.00487236495776612" flag="0"/>
			<psa30 value="0.000769965120993806" flag="0"/>
		</comp>
	</station>
	<station code="SIVA" name="SIVA" netid="HL" source="National Observatory of Athens Seismic Network" insttype="" lat="35.01777" lon="24.81204">
		<comp name="00.HNE" depth="0.0">
			<acc value="0.0252985598669272" flag="0"/>
			<vel value="0.0191513727150381" flag="0"/>
			<psa03 value="0.0505636256337115" flag="0"/>
			<psa10 value="0.0231088489728321" flag="0"/>
			<psa30 value="0.00304673974822236" flag="0"/>
		</comp>
		<comp name="00.HNN" depth="0.0">
			<acc value="0.0185749406427303" flag="0"/>
			<vel value="0.0174008267366852" flag="0"/>
			<psa03 value="0.0369556720902403" flag="0"/>
			<psa10 value="0.024098972688669" flag="0"/>
			<psa30 value="0.00325648801801584" flag="0"/>
		</comp>
		<comp name="00.HNZ" depth="0.0">
			<acc value="0.0118220299293131" flag="0"/>
			<vel value="0.00966697799905702" flag="0"/>
			<psa03 value="0.0285570688489937" flag="0"/>
			<psa10 value="0.0168183622589594" flag="0"/>
			<psa30 value="0.00179016442294068" flag="0"/>
		</comp>
	</station>
</stationlist>
