<?xml version="1.0" encoding="UTF-8" standalone="yes"?>
<!DOCTYPE earthquake SYSTEM "stationlist.dtd">
<stationlist created="" xmlns="ch.ethz.sed.shakemap.usgs.xml">
  <station code="ZKR" name="ZKR" netid="GE" insttype="STS-2/N" commtype="DIG" lat="35.1147" lon="26.2169">
    <comp name="--.HHZ">
      <acc value="0.3511105718" flag="0"/>
      <vel value="0.0481647319" flag="0"/>
      <psa03 value="0.1950262491" flag="0"/>
      <psa10 value="0.0334911754" flag="0"/>
      <psa30 value="0.0044149848" flag="0"/>
    </comp>
    <comp name="--.HHE">
      <acc value="0.2652436031" flag="0"/>
      <vel value="0.0693743203" flag="0"/>
      <psa03 value="0.2072161107" flag="0"/>
      <psa10 value="0.0382745230" flag="0"/>
      <psa30 value="0.0044715209" flag="0"/>
    </comp>
    <comp name="--.HHN">
      <acc value="0.2279356904" flag="0"/>
      <vel value="0.0594946668" flag="0"/>
      <psa03 value="0.2997013840" flag="0"/>
      <psa10 value="0.0209247075" flag="0"/>
      <psa30 value="0.0026878838" flag="0"/>
    </comp>
  </station>
  <station code="IMOD" name="IMOD" netid="HC" insttype="120" commtype="DIG" lat="34.9731" lon="24.7995">
    <comp name="--.HHE">
      <acc value="0.0162532985" flag="0"/>
      <vel value="0.0153941927" flag="0"/>
      <psa03 value="0.0353233285" flag="0"/>
      <psa10 value="0.0239869522" flag="0"/>
      <psa30 value="0.0020125982" flag="0"/>
    </comp>
    <comp name="--.HHZ">
      <acc value="0.0099077350" flag="0"/>
      <vel value="0.0080823927" flag="0"/>
      <psa03 value="0.0176593597" flag="0"/>
      <psa10 value="0.0120725073" flag="0"/>
      <psa30 value="0.0012422380" flag="0"/>
    </comp>
    <comp name="--.HHN">
      <acc value="0.0178289296" flag="0"/>
      <vel value="0.0160502631" flag="0"/>
      <psa03 value="0.0572559916" flag="0"/>
      <psa10 value="0.0326859071" flag="0"/>
      <psa30 value="0.0018366263" flag="0"/>
    </comp>
  </station>
  <station code="KNSS" name="KNSS" netid="HC" insttype="60" commtype="DIG" lat="35.3042" lon="25.1802">
    <comp name="--.HHE">
      <acc value="0.0000000000" flag="0"/>
      <vel value="-100.0000000000" flag="0"/>
      <psa03 value="0.0000000000" flag="0"/>
      <psa10 value="0.0000000000" flag="0"/>
      <psa30 value="0.0000000000" flag="0"/>
    </comp>
    <comp name="--.HHN">
      <acc value="0.0228324749" flag="0"/>
      <vel value="0.0129470667" flag="0"/>
      <psa03 value="0.0845663332" flag="0"/>
      <psa10 value="0.0174805844" flag="0"/>
      <psa30 value="0.0023015091" flag="0"/>
    </comp>
    <comp name="--.HHZ">
      <acc value="0.0179093027" flag="0"/>
      <vel value="0.0075183530" flag="0"/>
      <psa03 value="0.0329269932" flag="0"/>
      <psa10 value="0.0077485387" flag="0"/>
      <psa30 value="0.0033019492" flag="0"/>
    </comp>
  </station>
  <station code="PFKS" name="PFKS" netid="HC" insttype="120" commtype="DIG" lat="35.0429" lon="25.4733">
    <comp name="--.HHN">
      <acc value="0.2133539179" flag="0"/>
      <vel value="0.1213646957" flag="0"/>
      <psa03 value="0.3609465349" flag="0"/>
      <psa10 value="0.1379314438" flag="0"/>
      <psa30 value="0.0079535691" flag="0"/>
    </comp>
    <comp name="--.HHE">
      <acc value="0.2195387386" flag="0"/>
      <vel value="0.0992799438" flag="0"/>
      <psa03 value="0.5568157104" flag="0"/>
      <psa10 value="0.0927615365" flag="0"/>
      <psa30 value="0.0056630062" flag="0"/>
    </comp>
    <comp name="--.HHZ">
      <acc value="0.0980966014" flag="0"/>
      <vel value="0.0572751629" flag="0"/>
      <psa03 value="0.2693022747" flag="0"/>
      <psa10 value="0.0499170818" flag="0"/>
      <psa30 value="0.0026048648" flag="0"/>
    </comp>
  </station>
  <station code="STIA" name="STIA" netid="HC" insttype="120" commtype="DIG" lat="35.2021" lon="26.0909">
    <comp name="--.HHZ">
      <acc value="0.3081254792" flag="0"/>
      <vel value="0.0613781866" flag="0"/>
      <psa03 value="0.2517932877" flag="0"/>
      <psa10 value="0.0224077371" flag="0"/>
      <psa30 value="0.0056015329" flag="0"/>
    </comp>
    <comp name="--.HHE">
      <acc value="0.2810093709" flag="0"/>
      <vel value="0.0744309736" flag="0"/>
      <psa03 value="0.3646886047" flag="0"/>
      <psa10 value="0.0460256590" flag="0"/>
      <psa30 value="0.0042453083" flag="0"/>
    </comp>
    <comp name="--.HHN">
      <acc value="0.2226757165" flag="0"/>
      <vel value="0.0972740602" flag="0"/>
      <psa03 value="0.3218075843" flag="0"/>
      <psa10 value="0.0369491132" flag="0"/>
      <psa30 value="0.0073355439" flag="0"/>
    </comp>
  </station>
  <station code="AGN1" name="AGN1" netid="HI" insttype="unknown" commtype="DIG" lat="35.1879" lon="25.7155">
    <comp name="--.HNE">
      <acc value="0.0016036991" flag="0"/>
      <vel value="0.0021267919" flag="0"/>
      <psa03 value="0.0026688572" flag="0"/>
      <psa10 value="0.0022325143" flag="0"/>
      <psa30 value="0.0008799975" flag="0"/>
    </comp>
    <comp name="--.HNZ">
      <acc value="0.0847508665" flag="0"/>
      <vel value="0.0221146630" flag="0"/>
      <psa03 value="0.0615510332" flag="0"/>
      <psa10 value="0.0133269228" flag="0"/>
      <psa30 value="0.0018855429" flag="0"/>
    </comp>
    <comp name="--.HNN">
      <acc value="0.1819543728" flag="0"/>
      <vel value="0.0411254828" flag="0"/>
      <psa03 value="0.1953630593" flag="0"/>
      <psa10 value="0.0362405826" flag="0"/>
      <psa30 value="0.0060625733" flag="0"/>
    </comp>
  </station>
  <station code="ARK1" name="ARK1" netid="HI" insttype="unknown" commtype="DIG" lat="35.1488" lon="25.2642">
    <comp name="--.HNE">
      <acc value="0.0573389262" flag="0"/>
      <vel value="0.0311762334" flag="0"/>
      <psa03 value="0.0940671932" flag="0"/>
      <psa10 value="0.0391814649" flag="0"/>
      <psa30 value="0.0043689252" flag="0"/>
    </comp>
    <comp name="--.HNZ">
      <acc value="0.0389564363" flag="0"/>
      <vel value="0.0224203195" flag="0"/>
      <psa03 value="0.0990313719" flag="0"/>
      <psa10 value="0.0378914182" flag="0"/>
      <psa30 value="0.0033346326" flag="0"/>
    </comp>
    <comp name="--.HNN">
      <acc value="0.0635676773" flag="0"/>
      <vel value="0.0318322153" flag="0"/>
      <psa03 value="0.1086124905" flag="0"/>
      <psa10 value="0.0494448439" flag="0"/>
      <psa30 value="0.0065934194" flag="0"/>
    </comp>
  </station>
  <station code="KSS1" name="KSS1" netid="HI" insttype="CMG-5TD,ACCELEROMETER,GURALP" commtype="DIG" lat="35.4189" lon="26.9207">
    <comp name="--.HNE">
      <acc value="0.0136827116" flag="0"/>
      <vel value="0.0060046067" flag="0"/>
      <psa03 value="0.0466604534" flag="0"/>
      <psa10 value="0.0036857563" flag="0"/>
      <psa30 value="0.0008429544" flag="0"/>
    </comp>
    <comp name="--.HNN">
      <acc value="0.0178627379" flag="0"/>
      <vel value="0.0083791655" flag="0"/>
      <psa03 value="0.0790536624" flag="0"/>
      <psa10 value="0.0078769806" flag="0"/>
      <psa30 value="0.0009558613" flag="0"/>
    </comp>
    <comp name="--.HNZ">
      <acc value="0.0078535533" flag="0"/>
      <vel value="0.0034555917" flag="0"/>
      <psa03 value="0.0183459266" flag="0"/>
      <psa10 value="0.0045258423" flag="0"/>
      <psa30 value="0.0008869684" flag="0"/>
    </comp>
  </station>
  <station code="SIT2" name="SIT2" netid="HI" insttype="CMG-5TD,ACCELEROMETER,GURALP" commtype="DIG" lat="35.2059" lon="26.107">
    <comp name="--.HNE">
      <acc value="0.4403845593" flag="0"/>
      <vel value="0.2469818618" flag="0"/>
      <psa03 value="1.4077906524" flag="0"/>
      <psa10 value="0.1210035381" flag="0"/>
      <psa30 value="0.0080877923" flag="0"/>
    </comp>
    <comp name="--.HNN">
      <acc value="0.3859555170" flag="0"/>
      <vel value="0.2854762416" flag="0"/>
      <psa03 value="0.8061933866" flag="0"/>
      <psa10 value="0.1444924898" flag="0"/>
      <psa30 value="0.0130787469" flag="0"/>
    </comp>
    <comp name="--.HNZ">
      <acc value="0.2900236513" flag="0"/>
      <vel value="0.1011927127" flag="0"/>
      <psa03 value="0.6872056459" flag="0"/>
      <psa10 value="0.0439511671" flag="0"/>
      <psa30 value="0.0054255940" flag="0"/>
    </comp>
  </station>
  <station code="IDI" name="IDI" netid="HL" insttype="120" commtype="DIG" lat="35.288" lon="24.89">
    <comp name="--.HHE">
      <acc value="0.0085495824" flag="0"/>
      <vel value="0.0054078707" flag="0"/>
      <psa03 value="0.0219703369" flag="0"/>
      <psa10 value="0.0068328743" flag="0"/>
      <psa30 value="0.0009857546" flag="0"/>
    </comp>
    <comp name="--.HHN">
      <acc value="0.0131483557" flag="0"/>
      <vel value="0.0064958988" flag="0"/>
      <psa03 value="0.0241747749" flag="0"/>
      <psa10 value="0.0081648224" flag="0"/>
      <psa30 value="0.0011650264" flag="0"/>
    </comp>
    <comp name="--.HHZ">
      <acc value="0.0075487860" flag="0"/>
      <vel value="0.0046473077" flag="0"/>
      <psa03 value="0.0188645228" flag="0"/>
      <psa10 value="0.0078301435" flag="0"/>
      <psa30 value="0.0012158862" flag="0"/>
    </comp>
  </station>
  <station code="SIVA" name="SIVA" netid="HL" insttype="60" commtype="DIG" lat="35.0178" lon="24.812">
    <comp name="--.HHZ">
      <acc value="0.0122978122" flag="0"/>
      <vel value="0.0103382944" flag="0"/>
      <psa03 value="0.0286873031" flag="0"/>
      <psa10 value="0.0171211093" flag="0"/>
      <psa30 value="0.0014916315" flag="0"/>
    </comp>
    <comp name="--.HHN">
      <acc value="0.0163555710" flag="0"/>
      <vel value="0.0162718209" flag="0"/>
      <psa03 value="0.0350088152" flag="0"/>
      <psa10 value="0.0209886785" flag="0"/>
      <psa30 value="0.0026553672" flag="0"/>
    </comp>
    <comp name="--.HHE">
      <acc value="0.0275112955" flag="0"/>
      <vel value="0.0206233350" flag="0"/>
      <psa03 value="0.0527811390" flag="0"/>
      <psa10 value="0.0243401106" flag="0"/>
      <psa30 value="0.0030183202" flag="0"/>
    </comp>
  </station>
  <station code="IDI" name="IDI" netid="MN" insttype="" commtype="DIG" lat="35.288" lon="24.89">
    <comp name="--.HHZ">
      <acc value="0.0068256512" flag="0"/>
      <vel value="0.0041482661" flag="0"/>
      <psa03 value="0.0171815954" flag="0"/>
      <psa10 value="0.0069697274" flag="0"/>
      <psa30 value="0.0010788374" flag="0"/>
    </comp>
    <comp name="--.HHN">
      <acc value="0.0121632374" flag="0"/>
      <vel value="0.0058630640" flag="0"/>
      <psa03 value="0.0218922822" flag="0"/>
      <psa10 value="0.0072786109" flag="0"/>
      <psa30 value="0.0010337332" flag="0"/>
    </comp>
    <comp name="--.HHE">
      <acc value="0.0079309599" flag="0"/>
      <vel value="0.0048303736" flag="0"/>
      <psa03 value="0.0198981517" flag="0"/>
      <psa10 value="0.0060860753" flag="0"/>
      <psa30 value="0.0008750738" flag="0"/>
    </comp>
  </station>
</stationlist>
