<?xml version="1.0" encoding="UTF-8" standalone="yes"?>
<!DOCTYPE earthquake SYSTEM "stationlist.dtd">
<stationlist created="" xmlns="ch.ethz.sed.shakemap.usgs.xml">
  <station code="KARS" name="KARS" netid="KO" insttype="120s," lat="40.6152" lon="43.0937">
    <comp name="--.HHE">
      <acc value="0.0041422584" flag="0"/>
      <vel value="0.0025920314" flag="0"/>
      <psa03 value="0.0143965363" flag="0"/>
      <psa10 value="0.0028194076" flag="0"/>
      <psa30 value="0.0003468966" flag="0"/>
    </comp>
    <comp name="--.HHN">
      <acc value="0.0040762238" flag="0"/>
      <vel value="0.0015521143" flag="0"/>
      <psa03 value="0.0072301469" flag="0"/>
      <psa10 value="0.0018719941" flag="0"/>
      <psa30 value="0.0005691520" flag="0"/>
    </comp>
    <comp name="--.HHZ">
      <acc value="0.0037983730" flag="0"/>
      <vel value="0.0015275354" flag="0"/>
      <psa03 value="0.0061283441" flag="0"/>
      <psa10 value="0.0021535060" flag="0"/>
      <psa30 value="0.0002355678" flag="0"/>
    </comp>
  </station>
</stationlist>
