<?xml version="1.0" encoding="UTF-8" standalone="yes"?>
<!DOCTYPE earthquake SYSTEM "stationlist.dtd">
<stationlist created="" xmlns="ch.ethz.sed.shakemap.usgs.xml">
  <station code="ARMT" name="ARMT" netid="KO" insttype="CMG-5T" commtype="DIG" lat="40.5683" lon="28.866">
    <comp name="--.HNE">
      <acc value="0.2225053139" flag="0"/>
      <vel value="0.0815720279" flag="0"/>
      <psa03 value="0.6895756788" flag="0"/>
      <psa10 value="0.0750189390" flag="0"/>
      <psa30 value="0.0051492390" flag="0"/>
    </comp>
    <comp name="--.HNN">
      <acc value="0.2542998349" flag="0"/>
      <vel value="0.0955965555" flag="0"/>
      <psa03 value="0.4934933152" flag="0"/>
      <psa10 value="0.0645504302" flag="0"/>
      <psa30 value="0.0080988277" flag="0"/>
    </comp>
  </station>
  <station code="AVCI" name="AVCI" netid="KO" insttype="CMG-5T" commtype="DIG" lat="40.9958" lon="28.7225">
    <comp name="--.HNE">
      <acc value="1.0916528881" flag="0"/>
      <vel value="0.6172343685" flag="0"/>
      <psa03 value="2.1027014519" flag="0"/>
      <psa10 value="0.5802270352" flag="0"/>
      <psa30 value="0.0908067763" flag="0"/>
    </comp>
    <comp name="--.HNZ">
      <acc value="1.1982576333" flag="0"/>
      <vel value="0.3228904206" flag="0"/>
      <psa03 value="1.6644188820" flag="0"/>
      <psa10 value="0.1073015840" flag="0"/>
      <psa30 value="0.0337148454" flag="0"/>
    </comp>
    <comp name="--.HNN">
      <acc value="1.1317958794" flag="0"/>
      <vel value="0.5027649486" flag="0"/>
      <psa03 value="2.9155747842" flag="0"/>
      <psa10 value="0.3741982627" flag="0"/>
      <psa30 value="0.0899043051" flag="0"/>
    </comp>
  </station>
  <station code="BGKT" name="BGKT" netid="KO" insttype="CMG-3ESP" commtype="DIG" lat="41.181" lon="28.773">
    <comp name="--.HHZ">
      <acc value="0.4615334804" flag="0"/>
      <vel value="0.0943010578" flag="0"/>
      <psa03 value="0.3605034626" flag="0"/>
      <psa10 value="0.0576701221" flag="0"/>
      <psa30 value="0.0064811235" flag="0"/>
    </comp>
    <comp name="--.HHE">
      <acc value="0.9757886479" flag="0"/>
      <vel value="0.0995540598" flag="0"/>
      <psa03 value="0.4322894533" flag="0"/>
      <psa10 value="0.0429532132" flag="0"/>
      <psa30 value="0.0046943346" flag="0"/>
    </comp>
    <comp name="--.HHN">
      <acc value="0.8715748157" flag="0"/>
      <vel value="0.0860193002" flag="0"/>
      <psa03 value="0.4952781390" flag="0"/>
      <psa10 value="0.0462990178" flag="0"/>
      <psa30 value="0.0078156964" flag="0"/>
    </comp>
  </station>
  <station code="BOTS" name="BOTS" netid="KO" insttype="CMG-5T" commtype="DIG" lat="40.9902" lon="27.981">
    <comp name="--.HNE">
      <acc value="0.5379948206" flag="0"/>
      <vel value="0.2037979856" flag="0"/>
      <psa03 value="1.1671733742" flag="0"/>
      <psa10 value="0.0803941186" flag="0"/>
      <psa30 value="0.0095623709" flag="0"/>
    </comp>
    <comp name="--.HNZ">
      <acc value="0.8670839265" flag="0"/>
      <vel value="0.2274872070" flag="0"/>
      <psa03 value="0.8307729442" flag="0"/>
      <psa10 value="0.0939398204" flag="0"/>
      <psa30 value="0.0103349276" flag="0"/>
    </comp>
    <comp name="--.HNN">
      <acc value="0.6157412084" flag="0"/>
      <vel value="0.2745991477" flag="0"/>
      <psa03 value="1.2562960829" flag="0"/>
      <psa10 value="0.2727189005" flag="0"/>
      <psa30 value="0.0184242567" flag="0"/>
    </comp>
  </station>
  <station code="BRGA" name="BRGA" netid="KO" insttype="CMG-5T" commtype="DIG" lat="40.8846" lon="29.065">
    <comp name="--.HNE">
      <acc value="0.4935495980" flag="0"/>
      <vel value="0.1777980868" flag="0"/>
      <psa03 value="1.1997400444" flag="0"/>
      <psa10 value="0.1216497289" flag="0"/>
      <psa30 value="0.0120973176" flag="0"/>
    </comp>
    <comp name="--.HNN">
      <acc value="0.6977465572" flag="0"/>
      <vel value="0.3760402648" flag="0"/>
      <psa03 value="1.5195079514" flag="0"/>
      <psa10 value="0.1693772510" flag="0"/>
      <psa30 value="0.0147749365" flag="0"/>
    </comp>
    <comp name="--.HNZ">
      <acc value="0.3724943538" flag="0"/>
      <vel value="0.1347009747" flag="0"/>
      <psa03 value="0.5731334364" flag="0"/>
      <psa10 value="0.0907966533" flag="0"/>
      <psa30 value="0.0059102818" flag="0"/>
    </comp>
  </station>
  <station code="CANM" name="CANM" netid="KO" insttype="CMG-5T" commtype="DIG" lat="40.0113" lon="27.0529">
    <comp name="--.HNN">
      <acc value="0.2541993264" flag="0"/>
      <vel value="0.1180997310" flag="0"/>
      <psa03 value="0.6119695807" flag="0"/>
      <psa10 value="0.0529172893" flag="0"/>
      <psa30 value="0.0054294384" flag="0"/>
    </comp>
    <comp name="--.HNE">
      <acc value="0.2238001503" flag="0"/>
      <vel value="0.0723950847" flag="0"/>
      <psa03 value="0.3949014965" flag="0"/>
      <psa10 value="0.0612142080" flag="0"/>
      <psa30 value="0.0047680453" flag="0"/>
    </comp>
    <comp name="--.HNZ">
      <acc value="0.1943831044" flag="0"/>
      <vel value="0.0715390349" flag="0"/>
      <psa03 value="0.3604705220" flag="0"/>
      <psa10 value="0.0472501980" flag="0"/>
      <psa30 value="0.0054653440" flag="0"/>
    </comp>
  </station>
  <station code="CRLU" name="CRLU" netid="KO" insttype="ACEBOX" commtype="DIG" lat="41.1428" lon="27.8215">
    <comp name="--.HNE">
      <acc value="2.5296684939" flag="0"/>
      <vel value="1.1923058858" flag="0"/>
      <psa03 value="7.5861735729" flag="0"/>
      <psa10 value="1.0497989570" flag="0"/>
      <psa30 value="0.2393615376" flag="0"/>
    </comp>
    <comp name="--.HNN">
      <acc value="2.2869286019" flag="0"/>
      <vel value="1.2874263866" flag="0"/>
      <psa03 value="8.1820844441" flag="0"/>
      <psa10 value="1.4833234473" flag="0"/>
      <psa30 value="0.2529702870" flag="0"/>
    </comp>
    <comp name="--.HNZ">
      <acc value="5.2973292130" flag="0"/>
      <vel value="2.0942575786" flag="0"/>
      <psa03 value="13.9637023102" flag="0"/>
      <psa10 value="1.0524443872" flag="0"/>
      <psa30 value="0.1228520053" flag="0"/>
    </comp>
  </station>
  <station code="CTYL" name="CTYL" netid="KO" insttype="CMG-3T" commtype="DIG" lat="41.476" lon="28.2897">
    <comp name="--.HHZ">
      <acc value="0.2759806177" flag="0"/>
      <vel value="0.1262969847" flag="0"/>
      <psa03 value="0.3994728421" flag="0"/>
      <psa10 value="0.0783642085" flag="0"/>
      <psa30 value="0.0057710123" flag="0"/>
    </comp>
    <comp name="--.HHN">
      <acc value="0.4407362394" flag="0"/>
      <vel value="0.1535175752" flag="0"/>
      <psa03 value="0.8140766697" flag="0"/>
      <psa10 value="0.0850731760" flag="0"/>
      <psa30 value="0.0083228473" flag="0"/>
    </comp>
    <comp name="--.HHE">
      <acc value="0.3772215910" flag="0"/>
      <vel value="0.1874875818" flag="0"/>
      <psa03 value="0.7310260579" flag="0"/>
      <psa10 value="0.1180683220" flag="0"/>
      <psa30 value="0.0196624260" flag="0"/>
    </comp>
  </station>
  <station code="DST" name="DST" netid="KO" insttype="CMG-5T" commtype="DIG" lat="39.6041" lon="28.6267">
    <comp name="--.HNE">
      <acc value="0.1440968924" flag="0"/>
      <vel value="0.0918992828" flag="0"/>
      <psa03 value="0.2599567691" flag="0"/>
      <psa10 value="0.1187660186" flag="0"/>
      <psa30 value="0.0099716089" flag="0"/>
    </comp>
    <comp name="--.HNN">
      <acc value="0.1023305317" flag="0"/>
      <vel value="0.0580959050" flag="0"/>
      <psa03 value="0.2438857316" flag="0"/>
      <psa10 value="0.0978994618" flag="0"/>
      <psa30 value="0.0068443076" flag="0"/>
    </comp>
    <comp name="--.HNZ">
      <acc value="0.0784028482" flag="0"/>
      <vel value="0.0448369254" flag="0"/>
      <psa03 value="0.2018036508" flag="0"/>
      <psa10 value="0.0540928465" flag="0"/>
      <psa30 value="0.0037153258" flag="0"/>
    </comp>
  </station>
  <station code="EDC" name="EDC" netid="KO" insttype="CMG-3T" commtype="DIG" lat="40.3465" lon="27.8618">
    <comp name="--.HHE">
      <acc value="0.3445794918" flag="0"/>
      <vel value="0.1314035828" flag="0"/>
      <psa03 value="0.5944851122" flag="0"/>
      <psa10 value="0.0523355407" flag="0"/>
      <psa30 value="0.0055843352" flag="0"/>
    </comp>
    <comp name="--.HHN">
      <acc value="0.4564131634" flag="0"/>
      <vel value="0.1534949959" flag="0"/>
      <psa03 value="1.1484531907" flag="0"/>
      <psa10 value="0.0715758236" flag="0"/>
      <psa30 value="0.0059882723" flag="0"/>
    </comp>
    <comp name="--.HHZ">
      <acc value="0.1576066942" flag="0"/>
      <vel value="0.0342685244" flag="0"/>
      <psa03 value="0.1471388018" flag="0"/>
      <psa10 value="0.0251169698" flag="0"/>
      <psa30 value="0.0044900789" flag="0"/>
    </comp>
  </station>
  <station code="EDRB" name="EDRB" netid="KO" insttype="CMG-3T" commtype="DIG" lat="41.8469" lon="26.7437">
    <comp name="--.HHE">
      <acc value="0.0426611947" flag="0"/>
      <vel value="0.0232243113" flag="0"/>
      <psa03 value="0.0995674653" flag="0"/>
      <psa10 value="0.0117328614" flag="0"/>
      <psa30 value="0.0021621174" flag="0"/>
    </comp>
  </station>
  <station code="GELI" name="GELI" netid="KO" insttype="CMG-3ESP" commtype="DIG" lat="40.398" lon="26.4742">
    <comp name="--.HHZ">
      <acc value="0.0338561412" flag="0"/>
      <vel value="0.0198323634" flag="0"/>
      <psa03 value="0.0661253651" flag="0"/>
      <psa10 value="0.0263348103" flag="0"/>
      <psa30 value="0.0020807527" flag="0"/>
    </comp>
  </station>
  <station code="ISK" name="ISK" netid="KO" insttype="CMG-3T" commtype="DIG" lat="41.0615" lon="29.0592">
    <comp name="--.HHN">
      <acc value="0.3052863006" flag="0"/>
      <vel value="0.1116542585" flag="0"/>
      <psa03 value="0.4534708297" flag="0"/>
      <psa10 value="0.0761488273" flag="0"/>
      <psa30 value="0.0093777816" flag="0"/>
    </comp>
    <comp name="--.HHZ">
      <acc value="0.2229120424" flag="0"/>
      <vel value="0.0667144357" flag="0"/>
      <psa03 value="0.3034308372" flag="0"/>
      <psa10 value="0.0321728312" flag="0"/>
      <psa30 value="0.0025413819" flag="0"/>
    </comp>
    <comp name="--.HHE">
      <acc value="0.4332836544" flag="0"/>
      <vel value="0.0749756662" flag="0"/>
      <psa03 value="0.2384592699" flag="0"/>
      <psa10 value="0.0238425314" flag="0"/>
      <psa30 value="0.0039476039" flag="0"/>
    </comp>
  </station>
  <station code="KAVV" name="KAVV" netid="KO" insttype="CMG-3ESPC" commtype="DIG" lat="41.0638" lon="29.06">
    <comp name="--.HHN">
      <acc value="0.6912624964" flag="0"/>
      <vel value="0.1865604415" flag="0"/>
      <psa03 value="1.0562038495" flag="0"/>
      <psa10 value="0.0945465816" flag="0"/>
      <psa30 value="0.0094744122" flag="0"/>
    </comp>
    <comp name="--.HHE">
      <acc value="0.5757154665" flag="0"/>
      <vel value="0.1592062471" flag="0"/>
      <psa03 value="0.6465848815" flag="0"/>
      <psa10 value="0.0397386835" flag="0"/>
      <psa30 value="0.0049177645" flag="0"/>
    </comp>
    <comp name="--.HHZ">
      <acc value="0.3566119696" flag="0"/>
      <vel value="0.0819567824" flag="0"/>
      <psa03 value="0.5749942534" flag="0"/>
      <psa10 value="0.0435956926" flag="0"/>
      <psa30 value="0.0028998720" flag="0"/>
    </comp>
  </station>
  <station code="KCTX" name="KCTX" netid="KO" insttype="CMG-3ESP" commtype="DIG" lat="40.2626" lon="28.3353">
    <comp name="--.HHE">
      <acc value="0.3275693285" flag="0"/>
      <vel value="0.2819423872" flag="0"/>
      <psa03 value="0.5827330836" flag="0"/>
      <psa10 value="0.2701679109" flag="0"/>
      <psa30 value="0.0225241300" flag="0"/>
    </comp>
    <comp name="--.HHN">
      <acc value="0.2029992862" flag="0"/>
      <vel value="0.1309504247" flag="0"/>
      <psa03 value="0.3405431778" flag="0"/>
      <psa10 value="0.0883662332" flag="0"/>
      <psa30 value="0.0070103894" flag="0"/>
    </comp>
    <comp name="--.HHZ">
      <acc value="0.1295941653" flag="0"/>
      <vel value="0.0445644221" flag="0"/>
      <psa03 value="0.2616155458" flag="0"/>
      <psa10 value="0.0276295187" flag="0"/>
      <psa30 value="0.0031123370" flag="0"/>
    </comp>
  </station>
  <station code="KOUK" name="KOUK" netid="KO" insttype="CMG-5T" commtype="DIG" lat="40.6572" lon="29.1918">
    <comp name="--.HNN">
      <acc value="0.4577425261" flag="0"/>
      <vel value="0.4740502941" flag="0"/>
      <psa03 value="0.9830150071" flag="0"/>
      <psa10 value="0.6434631957" flag="0"/>
      <psa30 value="0.0442120216" flag="0"/>
    </comp>
    <comp name="--.HNE">
      <acc value="0.5461271135" flag="0"/>
      <vel value="0.4490835505" flag="0"/>
      <psa03 value="1.3129927033" flag="0"/>
      <psa10 value="0.3774606915" flag="0"/>
      <psa30 value="0.0316426010" flag="0"/>
    </comp>
    <comp name="--.HNZ">
      <acc value="0.2224636761" flag="0"/>
      <vel value="0.1317085095" flag="0"/>
      <psa03 value="0.8702491192" flag="0"/>
      <psa10 value="0.1143675736" flag="0"/>
      <psa30 value="0.0107298928" flag="0"/>
    </comp>
  </station>
  <station code="KUMB" name="KUMB" netid="KO" insttype="CMG-5T" commtype="DIG" lat="40.8626" lon="27.4592">
    <comp name="--.HNE">
      <acc value="0.6039368536" flag="0"/>
      <vel value="0.2561359447" flag="0"/>
      <psa03 value="1.3264942887" flag="0"/>
      <psa10 value="0.1084641892" flag="0"/>
      <psa30 value="0.0090180868" flag="0"/>
    </comp>
    <comp name="--.HNZ">
      <acc value="0.0006554893" flag="0"/>
      <vel value="0.0006522838" flag="0"/>
      <psa03 value="0.0007708470" flag="0"/>
      <psa10 value="0.0005734494" flag="0"/>
      <psa30 value="0.0003698226" flag="0"/>
    </comp>
    <comp name="--.HNN">
      <acc value="0.5361342198" flag="0"/>
      <vel value="0.2383702950" flag="0"/>
      <psa03 value="1.1288226430" flag="0"/>
      <psa10 value="0.1019630872" flag="0"/>
      <psa30 value="0.0101314646" flag="0"/>
    </comp>
  </station>
  <station code="LAP" name="LAP" netid="KO" insttype="CMG-3ESP" commtype="DIG" lat="40.3703" lon="26.7593">
    <comp name="--.HHE">
      <acc value="0.0966361625" flag="0"/>
      <vel value="0.0811958199" flag="0"/>
      <psa03 value="0.2162145435" flag="0"/>
      <psa10 value="0.0822733279" flag="0"/>
      <psa30 value="0.0075891765" flag="0"/>
    </comp>
    <comp name="--.HHN">
      <acc value="0.1379960503" flag="0"/>
      <vel value="0.1137137790" flag="0"/>
      <psa03 value="0.3625827349" flag="0"/>
      <psa10 value="0.2095344870" flag="0"/>
      <psa30 value="0.0117587495" flag="0"/>
    </comp>
    <comp name="--.HHZ">
      <acc value="0.0659282312" flag="0"/>
      <vel value="0.0439791098" flag="0"/>
      <psa03 value="0.1340561687" flag="0"/>
      <psa10 value="0.0805440149" flag="0"/>
      <psa30 value="0.0061720744" flag="0"/>
    </comp>
  </station>
  <station code="LAPK" name="LAPK" netid="KO" insttype="CMG-5T" commtype="DIG" lat="40.3151" lon="26.6425">
    <comp name="--.HNE">
      <acc value="0.4524111368" flag="0"/>
      <vel value="0.2073915244" flag="0"/>
      <psa03 value="1.4091922464" flag="0"/>
      <psa10 value="0.1847588083" flag="0"/>
      <psa30 value="0.0132220605" flag="0"/>
    </comp>
    <comp name="--.HNN">
      <acc value="0.4738767713" flag="0"/>
      <vel value="0.2531038158" flag="0"/>
      <psa03 value="0.9903916979" flag="0"/>
      <psa10 value="0.3523174341" flag="0"/>
      <psa30 value="0.0183641245" flag="0"/>
    </comp>
    <comp name="--.HNZ">
      <acc value="0.1478619950" flag="0"/>
      <vel value="0.0725983009" flag="0"/>
      <psa03 value="0.3498002079" flag="0"/>
      <psa10 value="0.1107636341" flag="0"/>
      <psa30 value="0.0049295371" flag="0"/>
    </comp>
  </station>
  <station code="MAEG" name="MAEG" netid="KO" insttype="CMG-5T" commtype="DIG" lat="40.9653" lon="27.9448">
    <comp name="--.HNE">
      <acc value="0.9403071104" flag="0"/>
      <vel value="0.2438461668" flag="0"/>
      <psa03 value="1.6084572369" flag="0"/>
      <psa10 value="0.0708635219" flag="0"/>
      <psa30 value="0.0116340019" flag="0"/>
    </comp>
    <comp name="--.HNN">
      <acc value="1.0680648953" flag="0"/>
      <vel value="0.3966432918" flag="0"/>
      <psa03 value="1.9557833557" flag="0"/>
      <psa10 value="0.2201340220" flag="0"/>
      <psa30 value="0.0223862248" flag="0"/>
    </comp>
    <comp name="--.HNZ">
      <acc value="0.5629762165" flag="0"/>
      <vel value="0.1677708197" flag="0"/>
      <psa03 value="0.6082689366" flag="0"/>
      <psa10 value="0.0714622490" flag="0"/>
      <psa30 value="0.0080434227" flag="0"/>
    </comp>
  </station>
  <station code="MDNY" name="MDNY" netid="KO" insttype="CMG-5T" commtype="DIG" lat="40.3709" lon="28.8846">
    <comp name="--.HNN">
      <acc value="0.3278011806" flag="0"/>
      <vel value="0.1169032287" flag="0"/>
      <psa03 value="0.7891726693" flag="0"/>
      <psa10 value="0.0783058331" flag="0"/>
      <psa30 value="0.0051204585" flag="0"/>
    </comp>
    <comp name="--.HNE">
      <acc value="0.2991744372" flag="0"/>
      <vel value="0.0918249454" flag="0"/>
      <psa03 value="0.6712115138" flag="0"/>
      <psa10 value="0.0731480820" flag="0"/>
      <psa30 value="0.0067273133" flag="0"/>
    </comp>
    <comp name="--.HNZ">
      <acc value="0.1747692494" flag="0"/>
      <vel value="0.0405568841" flag="0"/>
      <psa03 value="0.1913624049" flag="0"/>
      <psa10 value="0.0303491979" flag="0"/>
      <psa30 value="0.0031548491" flag="0"/>
    </comp>
  </station>
  <station code="ORLT" name="ORLT" netid="KO" insttype="CMG-5T" commtype="DIG" lat="40.0452" lon="28.8914">
    <comp name="--.HNN">
      <acc value="0.2993149349" flag="0"/>
      <vel value="0.2213647753" flag="0"/>
      <psa03 value="0.6174876766" flag="0"/>
      <psa10 value="0.1901400482" flag="0"/>
      <psa30 value="0.0112771971" flag="0"/>
    </comp>
    <comp name="--.HNZ">
      <acc value="0.1001629123" flag="0"/>
      <vel value="0.0640298686" flag="0"/>
      <psa03 value="0.1918943265" flag="0"/>
      <psa10 value="0.0714903626" flag="0"/>
      <psa30 value="0.0037975472" flag="0"/>
    </comp>
    <comp name="--.HNE">
      <acc value="0.3547432960" flag="0"/>
      <vel value="0.1896102215" flag="0"/>
      <psa03 value="0.6473596612" flag="0"/>
      <psa10 value="0.1392837471" flag="0"/>
      <psa30 value="0.0096051190" flag="0"/>
    </comp>
  </station>
  <station code="SILT" name="SILT" netid="KO" insttype="CMG-3ESP" commtype="DIG" lat="41.153" lon="29.643">
    <comp name="--.HHE">
      <acc value="0.1606799941" flag="0"/>
      <vel value="0.1199411818" flag="0"/>
      <psa03 value="0.4219647880" flag="0"/>
      <psa10 value="0.0825638732" flag="0"/>
      <psa30 value="0.0073545967" flag="0"/>
    </comp>
    <comp name="--.HHN">
      <acc value="0.2950084847" flag="0"/>
      <vel value="0.1875745162" flag="0"/>
      <psa03 value="1.1350995517" flag="0"/>
      <psa10 value="0.0808515072" flag="0"/>
      <psa30 value="0.0124032508" flag="0"/>
    </comp>
    <comp name="--.HHZ">
      <acc value="0.2510123802" flag="0"/>
      <vel value="0.1509516513" flag="0"/>
      <psa03 value="0.4695056715" flag="0"/>
      <psa10 value="0.1584884644" flag="0"/>
      <psa30 value="0.0074113278" flag="0"/>
    </comp>
  </station>
  <station code="SILV" name="SILV" netid="KO" insttype="ACEBOX" commtype="DIG" lat="41.0723" lon="28.239">
    <comp name="--.HNE">
      <acc value="3.8412381089" flag="0"/>
      <vel value="1.9434068244" flag="0"/>
      <psa03 value="8.4811135066" flag="0"/>
      <psa10 value="0.6931601958" flag="0"/>
      <psa30 value="0.1004924558" flag="0"/>
    </comp>
    <comp name="--.HNZ">
      <acc value="0.6111678635" flag="0"/>
      <vel value="0.1855098219" flag="0"/>
      <psa03 value="1.1640208089" flag="0"/>
