<stationlist created="1745476316">
	<station code="ELND" name="ELND" netid="BS" source="National Seismic Network of Bulgaria (BS)" insttype="" lat="42.9287" lon="25.8751">
		<comp name=".HNE" depth="0.0">
			<acc value="0.009069903481536" flag="0"/>
			<vel value="0.00537034559282" flag="0"/>
			<psa03 value="0.0188091900269398" flag="0"/>
			<psa10 value="0.0072965574236087" flag="0"/>
			<psa30 value="0.00164576339875026" flag="0"/>
		</comp>
		<comp name=".HNN" depth="0.0">
			<acc value="0.012334090652148" flag="0"/>
			<vel value="0.00729828944956" flag="0"/>
			<psa03 value="0.0202569252552102" flag="0"/>
			<psa10 value="0.00729731169235421" flag="0"/>
			<psa30 value="0.00130363844298275" flag="0"/>
		</comp>
		<comp name=".HNZ" depth="0.0">
			<acc value="0.0062845954655394" flag="0"/>
			<vel value="0.00578128218816" flag="0"/>
			<psa03 value="0.0152564963450921" flag="0"/>
			<psa10 value="0.00693143229838206" flag="0"/>
			<psa30 value="0.0012139199995764" flag="0"/>
		</comp>
	</station>
	<station code="JMB" name="JMB" netid="BS" source="National Seismic Network of Bulgaria (BS)" insttype="" lat="42.4911" lon="26.5296">
		<comp name=".HNE" depth="0.0">
			<acc value="6.2351811590796" flag="0"/>
			<vel value="11.909325791" flag="0"/>
			<psa03 value="16.4245800478294" flag="0"/>
			<psa10 value="9.50112348278316" flag="0"/>
			<psa30 value="3.2827842950149" flag="0"/>
		</comp>
		<comp name=".HNN" depth="0.0">
			<acc value="6.2703086255214" flag="0"/>
			<vel value="11.1395875914" flag="0"/>
			<psa03 value="16.929444159248" flag="0"/>
			<psa10 value="8.13198350400587" flag="0"/>
			<psa30 value="5.04015084527244" flag="0"/>
		</comp>
		<comp name=".HNZ" depth="0.0">
			<acc value="5.6259384360336" flag="0"/>
			<vel value="6.39542900411" flag="0"/>
			<psa03 value="23.7079572025001" flag="0"/>
			<psa10 value="8.87172498825162" flag="0"/>
			<psa30 value="2.65514762383425" flag="0"/>
		</comp>
	</station>
	<station code="KALB" name="KALB" netid="BS" source="National Seismic Network of Bulgaria (BS)" insttype="" lat="43.4059" lon="28.4162">
		<comp name=".HNE" depth="0.0">
			<acc value="0.0001408420800681" flag="0"/>
			<vel value="0.000145423229256" flag="0"/>
			<psa03 value="0.0001979050169745" flag="0"/>
			<psa10 value="7.89948375125963e-05" flag="0"/>
			<psa30 value="5.67950384341486e-05" flag="0"/>
		</comp>
		<comp name=".HNN" depth="0.0">
			<acc value="0.00013931266238406" flag="0"/>
			<vel value="0.000131355439647" flag="0"/>
			<psa03 value="0.000157386555237233" flag="0"/>
			<psa10 value="8.70387541717404e-05" flag="0"/>
			<psa30 value="8.09309537263659e-05" flag="0"/>
		</comp>
		<comp name=".HNZ" depth="0.0">
			<acc value="0.00014768563487424" flag="0"/>
			<vel value="0.000153990045214" flag="0"/>
			<psa03 value="0.00016205810900809" flag="0"/>
			<psa10 value="0.000125466583029597" flag="0"/>
			<psa30 value="4.456313112517e-05" flag="0"/>
		</comp>
	</station>
	<station code="LOZB" name="LOZB" netid="BS" source="National Seismic Network of Bulgaria (BS)" insttype="" lat="43.3701" lon="26.593">
		<comp name=".HNE" depth="0.0">
			<acc value="0.095517399535776" flag="0"/>
			<vel value="0.0509044450287" flag="0"/>
			<psa03 value="0.443781023315042" flag="0"/>
			<psa10 value="0.0181359520428192" flag="0"/>
			<psa30 value="0.00263861687875315" flag="0"/>
		</comp>
		<comp name=".HNN" depth="0.0">
			<acc value="0.067339090995138" flag="0"/>
			<vel value="0.0355936523029" flag="0"/>
			<psa03 value="0.399001765241918" flag="0"/>
			<psa10 value="0.0261048005649123" flag="0"/>
			<psa30 value="0.00212219245983428" flag="0"/>
		</comp>
		<comp name=".HNZ" depth="0.0">
			<acc value="0.016454415428844" flag="0"/>
			<vel value="0.0102825097088" flag="0"/>
			<psa03 value="0.0423492220948022" flag="0"/>
			<psa10 value="0.0150846074061921" flag="0"/>
			<psa30 value="0.00148240549375486" flag="0"/>
		</comp>
	</station>
	<station code="RAZG" name="RAZG" netid="BS" source="National Seismic Network of Bulgaria (BS)" insttype="" lat="43.5662" lon="26.5079">
		<comp name=".HNE" depth="0.0">
			<acc value="0.018316100108616" flag="0"/>
			<vel value="0.0141394654292" flag="0"/>
			<psa03 value="0.0425115349305745" flag="0"/>
			<psa10 value="0.0148112461723825" flag="0"/>
			<psa30 value="0.00243697227078528" flag="0"/>
		</comp>
		<comp name=".HNN" depth="0.0">
			<acc value="0.017212032679044" flag="0"/>
			<vel value="0.0101716232954" flag="0"/>
			<psa03 value="0.0436544153282792" flag="0"/>
			<psa10 value="0.0160165703941664" flag="0"/>
			<psa30 value="0.00193119043188646" flag="0"/>
		</comp>
		<comp name=".HNZ" depth="0.0">
			<acc value="0.012251742427068" flag="0"/>
			<vel value="0.0117251087306" flag="0"/>
			<psa03 value="0.0279988938517998" flag="0"/>
			<psa10 value="0.0138568013825758" flag="0"/>
			<psa30 value="0.00197266755454524" flag="0"/>
		</comp>
	</station>
	<station code="VETAM" name="VETAM" netid="BS" source="National Seismic Network of Bulgaria (BS)" insttype="" lat="43.0805" lon="25.6367">
		<comp name=".HNE" depth="0.0">
			<acc value="0.0070954591190328" flag="0"/>
			<vel value="0.00627896023262" flag="0"/>
			<psa03 value="0.0310478171821584" flag="0"/>
			<psa10 value="0.0104973410223231" flag="0"/>
			<psa30 value="0.0015103664085277" flag="0"/>
		</comp>
		<comp name=".HNN" depth="0.0">
			<acc value="0.010959300848124" flag="0"/>
			<vel value="0.00811852022749" flag="0"/>
			<psa03 value="0.030353445662638" flag="0"/>
			<psa10 value="0.00990136279169086" flag="0"/>
			<psa30 value="0.00144946727009447" flag="0"/>
		</comp>
		<comp name=".HNZ" depth="0.0">
			<acc value="0.0064580350330836" flag="0"/>
			<vel value="0.00537764763089" flag="0"/>
			<psa03 value="0.0196195314684976" flag="0"/>
			<psa10 value="0.00595208398386615" flag="0"/>
			<psa30 value="0.00157281867068277" flag="0"/>
		</comp>
	</station>
	<station code="MYT1" name="MYT1" netid="HI" source="ITSAK Strong Motion Network" insttype="" lat="39.085" lon="26.5694">
		<comp name=".HNE" depth="0.0">
			<acc value="0.040132862076852" flag="0"/>
			<vel value="0.0282353283348" flag="0"/>
			<psa03 value="0.125242609207987" flag="0"/>
			<psa10 value="0.039245134797588" flag="0"/>
			<psa30 value="0.00634252724463177" flag="0"/>
		</comp>
		<comp name=".HNN" depth="0.0">
			<acc value="0.048652178734002" flag="0"/>
			<vel value="0.0281498122354" flag="0"/>
			<psa03 value="0.115173546348832" flag="0"/>
			<psa10 value="0.0654002524456248" flag="0"/>
			<psa30 value="0.00619360529595882" flag="0"/>
		</comp>
		<comp name=".HNZ" depth="0.0">
			<acc value="0.029030841912666" flag="0"/>
			<vel value="0.0250878542406" flag="0"/>
			<psa03 value="0.0749542830616776" flag="0"/>
			<psa10 value="0.0207303420334352" flag="0"/>
			<psa30 value="0.00386258212710851" flag="0"/>
		</comp>
	</station>
	<station code="PLM1" name="PLM1" netid="HI" source="ITSAK Strong Motion Network" insttype="" lat="38.9751" lon="26.3688">
		<comp name=".HNE" depth="0.0">
			<acc value="0.03976399094241" flag="0"/>
			<vel value="0.0209813086662" flag="0"/>
			<psa03 value="0.122165342854375" flag="0"/>
			<psa10 value="0.0158821764912456" flag="0"/>
			<psa30 value="0.00207687029079662" flag="0"/>
		</comp>
		<comp name=".HNN" depth="0.0">
			<acc value="0.016659116709852" flag="0"/>
			<vel value="0.011321466721" flag="0"/>
			<psa03 value="0.046381390247942" flag="0"/>
			<psa10 value="0.0173416250475553" flag="0"/>
			<psa30 value="0.00160198154008078" flag="0"/>
		</comp>
		<comp name=".HNZ" depth="0.0">
			<acc value="0.013468473680832" flag="0"/>
			<vel value="0.00748165716514" flag="0"/>
			<psa03 value="0.0334718006758402" flag="0"/>
			<psa10 value="0.0105041102207606" flag="0"/>
			<psa30 value="0.00248336367732292" flag="0"/>
		</comp>
	</station>
	<station code="SGR1" name="SGR1" netid="HI" source="ITSAK Strong Motion Network" insttype="" lat="39.211392" lon="25.855221">
		<comp name=".HNE" depth="0.0">
			<acc value="0.019314355437618" flag="0"/>
			<vel value="0.0173060542666" flag="0"/>
			<psa03 value="0.0468231747222662" flag="0"/>
			<psa10 value="0.0236225036249351" flag="0"/>
			<psa30 value="0.00193256635637189" flag="0"/>
		</comp>
		<comp name=".HNN" depth="0.0">
			<acc value="0.023830743696138" flag="0"/>
			<vel value="0.0169389924951" flag="0"/>
			<psa03 value="0.0760780137532499" flag="0"/>
			<psa10 value="0.0154982457452003" flag="0"/>
			<psa30 value="0.0017867866991824" flag="0"/>
		</comp>
		<comp name=".HNZ" depth="0.0">
			<acc value="0.011451113872764" flag="0"/>
			<vel value="0.00706292298248" flag="0"/>
			<psa03 value="0.0351956987298178" flag="0"/>
			<psa10 value="0.00788617898315863" flag="0"/>
			<psa30 value="0.00129055726391627" flag="0"/>
		</comp>
	</station>
	<station code="EFSA" name="EFSA" netid="HL" source="National Observatory of Athens Seismic Network" insttype="" lat="39.54015" lon="24.98864">
		<comp name="00.HNE" depth="0.0">
			<acc value="0.0096593454875688" flag="0"/>
			<vel value="0.00971590378159" flag="0"/>
			<psa03 value="0.0280985020128536" flag="0"/>
			<psa10 value="0.0128216587469754" flag="0"/>
			<psa30 value="0.00399950286410304" flag="0"/>
		</comp>
		<comp name="00.HNN" depth="0.0">
			<acc value="0.0071631362980122" flag="0"/>
			<vel value="0.00627847481662" flag="0"/>
			<psa03 value="0.0241695776783844" flag="0"/>
			<psa10 value="0.00762266730805613" flag="0"/>
			<psa30 value="0.00334602394933166" flag="0"/>
		</comp>
		<comp name="00.HNZ" depth="0.0">
			<acc value="0.0057541275234006" flag="0"/>
			<vel value="0.00463888261657" flag="0"/>
			<psa03 value="0.0169673492640385" flag="0"/>
			<psa10 value="0.00904216024873336" flag="0"/>
			<psa30 value="0.00154768929765451" flag="0"/>
		</comp>
	</station>
	<station code="KOMA" name="KOMA" netid="HL" source="National Observatory of Athens Seismic Network" insttype="" lat="41.11278" lon="25.39647">
		<comp name="00.HNE" depth="0.0">
			<acc value="0.17318932457226" flag="0"/>
			<vel value="0.0896277060974" flag="0"/>
			<psa03 value="0.31056682352777" flag="0"/>
			<psa10 value="0.13049010432896" flag="0"/>
			<psa30 value="0.0146502555075088" flag="0"/>
		</comp>
		<comp name="00.HNN" depth="0.0">
			<acc value="0.11352305052924" flag="0"/>
			<vel value="0.0817885600811" flag="0"/>
			<psa03 value="0.443859361837906" flag="0"/>
			<psa10 value="0.122413021761831" flag="0"/>
			<psa30 value="0.0128852419173865" flag="0"/>
		</comp>
		<comp name="00.HNZ" depth="0.0">
			<acc value="0.072487208887932" flag="0"/>
			<vel value="0.0335568748794" flag="0"/>
			<psa03 value="0.191905212778721" flag="0"/>
			<psa10 value="0.0315785319227565" flag="0"/>
			<psa30 value="0.00664940424038841" flag="0"/>
		</comp>
	</station>
	<station code="LIA" name="LIA" netid="HL" source="National Observatory of Athens Seismic Network" insttype="" lat="39.89725" lon="25.18055">
		<comp name="00.HNE" depth="0.0">
			<acc value="0.01887727299831" flag="0"/>
			<vel value="0.00785321226324" flag="0"/>
			<psa03 value="0.0351597171795581" flag="0"/>
			<psa10 value="0.014209104408452" flag="0"/>
			<psa30 value="0.000964059280861748" flag="0"/>
		</comp>
		<comp name="00.HNN" depth="0.0">
			<acc value="0.013435357820742" flag="0"/>
			<vel value="0.00700541845574" flag="0"/>
			<psa03 value="0.0354057438942794" flag="0"/>
			<psa10 value="0.00878565263135156" flag="0"/>
			<psa30 value="0.0018300631076985" flag="0"/>
		</comp>
		<comp name="00.HNZ" depth="0.0">
			<acc value="0.013269430597986" flag="0"/>
			<vel value="0.0042400515924" flag="0"/>
			<psa03 value="0.0230525297211366" flag="0"/>
			<psa10 value="0.00583632787808711" flag="0"/>
			<psa30 value="0.00104416719178429" flag="0"/>
		</comp>
	</station>
	<station code="PRK" name="PRK" netid="HL" source="National Observatory of Athens Seismic Network" insttype="" lat="39.24565" lon="26.26499">
		<comp name=".HNE" depth="0.0">
			<acc value="0.02872827293787" flag="0"/>
			<vel value="0.0248840841155" flag="0"/>
			<psa03 value="0.0862755955432333" flag="0"/>
			<psa10 value="0.0488009215716216" flag="0"/>
			<psa30 value="0.00254990246019026" flag="0"/>
		</comp>
		<comp name=".HNN" depth="0.0">
			<acc value="0.026640164411328" flag="0"/>
			<vel value="0.0256977971992" flag="0"/>
			<psa03 value="0.0656059606560537" flag="0"/>
			<psa10 value="0.0331502085386379" flag="0"/>
			<psa30 value="0.00451925979544648" flag="0"/>
		</comp>
		<comp name=".HNZ" depth="0.0">
			<acc value="0.02787273470541" flag="0"/>
			<vel value="0.0165015629795" flag="0"/>
			<psa03 value="0.058998585450221" flag="0"/>
			<psa10 value="0.0195355991375547" flag="0"/>
			<psa30 value="0.00248899696716908" flag="0"/>
		</comp>
	</station>
	<station code="LES3" name="LES3" netid="HT" source="Aristotle University of Thessaloniki Seismological Network" insttype="" lat="39.303248" lon="26.180664">
		<comp name=".HNE" depth="0.0">
			<acc value="0.049917522734988" flag="0"/>
			<vel value="0.0355663316372" flag="0"/>
			<psa03 value="0.11913229818013" flag="0"/>
			<psa10 value="0.0279775358744448" flag="0"/>
			<psa30 value="0.00900041039967226" flag="0"/>
		</comp>
		<comp name=".HNN" depth="0.0">
			<acc value="0.047582743120956" flag="0"/>
			<vel value="0.0329828862292" flag="0"/>
			<psa03 value="0.104558916098461" flag="0"/>
			<psa10 value="0.0258402224128995" flag="0"/>
			<psa30 value="0.00985739550406903" flag="0"/>
		</comp>
		<comp name=".HNZ" depth="0.0">
			<acc value="0.04970252093553" flag="0"/>
			<vel value="0.0343988248692" flag="0"/>
			<psa03 value="0.1363531681449" flag="0"/>
			<psa10 value="0.0273279740941498" flag="0"/>
			<psa30 value="0.0129166539982537" flag="0"/>
		</comp>
	</station>
	<station code="AKS" name="AKS" netid="KO" source="Bogazici University Kandilli Observatory And Earthquake Research Institute (KOERI)" insttype="" lat="38.8785" lon="27.8129">
		<comp name=".HNE" depth="0.0">
			<acc value="0.026118710174142" flag="0"/>
			<vel value="0.0304691318816" flag="0"/>
			<psa03 value="0.0670665834571691" flag="0"/>
			<psa10 value="0.0410451152873804" flag="0"/>
			<psa30 value="0.00805981058957512" flag="0"/>
		</comp>
		<comp name=".HNN" depth="0.0">
			<acc value="0.024512077965618" flag="0"/>
			<vel value="0.0187587638631" flag="0"/>
			<psa03 value="0.0787943811994713" flag="0"/>
			<psa10 value="0.0151455676945105" flag="0"/>
			<psa30 value="0.00376215255747617" flag="0"/>
		</comp>
		<comp name=".HNZ" depth="0.0">
			<acc value="0.01287153429438" flag="0"/>
			<vel value="0.00945741804718" flag="0"/>
			<psa03 value="0.0239623998913874" flag="0"/>
			<psa10 value="0.0125492200742271" flag="0"/>
			<psa30 value="0.00239410443100402" flag="0"/>
		</comp>
	</station>
	<station code="ALT" name="ALT" netid="KO" source="Bogazici University Kandilli Observatory And Earthquake Research Institute (KOERI)" insttype="" lat="39.0541" lon="30.1104">
		<comp name=".HNE" depth="0.0">
			<acc value="0.0057204160637478" flag="0"/>
			<vel value="0.00487860804534" flag="0"/>
			<psa03 value="0.0106966682371753" flag="0"/>
			<psa10 value="0.00577790885186636" flag="0"/>
			<psa30 value="0.00181372473369446" flag="0"/>
		</comp>
		<comp name=".HNN" depth="0.0">
			<acc value="0.0074562007574316" flag="0"/>
			<vel value="0.00407716140143" flag="0"/>
			<psa03 value="0.0150096766090758" flag="0"/>
			<psa10 value="0.00628431802399134" flag="0"/>
			<psa30 value="0.0019045157481547" flag="0"/>
		</comp>
		<comp name=".HNZ" depth="0.0">
			<acc value="0.0053724705439758" flag="0"/>
			<vel value="0.00583575305584" flag="0"/>
			<psa03 value="0.00932789201561608" flag="0"/>
			<psa10 value="0.00907308104709375" flag="0"/>
			<psa30 value="0.0012825467332599" flag="0"/>
		</comp>
	</station>
	<station code="ARMT" name="ARMT" netid="KO" source="Bogazici University Kandilli Observatory And Earthquake Research Institute (KOERI)" insttype="" lat="40.5683" lon="28.866">
		<comp name=".HNE" depth="0.0">
			<acc value="0.2244081992088" flag="0"/>
			<vel value="0.0826597036399" flag="0"/>
			<psa03 value="0.709818772010751" flag="0"/>
			<psa10 value="0.0752825921024071" flag="0"/>
			<psa30 value="0.0051841359235653" flag="0"/>
		</comp>
		<comp name=".HNN" depth="0.0">
			<acc value="0.25053864106176" flag="0"/>
			<vel value="0.095137838263" flag="0"/>
			<psa03 value="0.499571344149161" flag="0"/>
			<psa10 value="0.0645136412122039" flag="0"/>
			<psa30 value="0.00807149969722623" flag="0"/>
		</comp>
		<comp name=".HNZ" depth="0.0">
			<acc value="0.14270061966498" flag="0"/>
			<vel value="0.0438643700099" flag="0"/>
			<psa03 value="0.25964217918688" flag="0"/>
			<psa10 value="0.0214939076158995" flag="0"/>
			<psa30 value="0.00508605025922208" flag="0"/>
		</comp>
	</station>
	<station code="ARMU" name="ARMU" netid="KO" source="Bogazici University Kandilli Observatory And Earthquake Research Institute (KOERI)" insttype="" lat="40.5088" lon="28.838">
		<comp name=".HNE" depth="0.0">
			<acc value="0.5526945845772" flag="0"/>
			<vel value="0.187811458112" flag="0"/>
			<psa03 value="1.46839927424658" flag="0"/>
			<psa10 value="0.0503941883674563" flag="0"/>
			<psa30 value="0.00660713144004503" flag="0"/>
		</comp>
		<comp name=".HNN" depth="0.0">
			<acc value="0.6563382734253" flag="0"/>
			<vel value="0.197337333996" flag="0"/>
			<psa03 value="0.932714287743255" flag="0"/>
			<psa10 value="0.0651499683654712" flag="0"/>
			<psa30 value="0.00594565595385466" flag="0"/>
		</comp>
		<comp name=".HNZ" depth="0.0">
			<acc value="0.50559114025368" flag="0"/>
			<vel value="0.100890925552" flag="0"/>
			<psa03 value="0.410731042249266" flag="0"/>
			<psa10 value="0.0301157981488389" flag="0"/>
			<psa30 value="0.00402838519408039" flag="0"/>
		</comp>
	</station>
	<station code="ATAM" name="ATAM" netid="KO" source="Bogazici University Kandilli Observatory And Earthquake Research Institute (KOERI)" insttype="" lat="40.9688" lon="28.875">
		<comp name=".HNE" depth="0.0">
			<acc value="2.240420214681" flag="0"/>
			<vel value="0.982274264568" flag="0"/>
			<psa03 value="6.12024543623093" flag="0"/>
			<psa10 value="0.410675305221651" flag="0"/>
			<psa30 value="0.0445286831400374" flag="0"/>
		</comp>
		<comp name=".HNN" depth="0.0">
			<acc value="1.6815768385536" flag="0"/>
			<vel value="0.933788924111" flag="0"/>
			<psa03 value="5.86891145326419" flag="0"/>
			<psa10 value="0.327873870034666" flag="0"/>
			<psa30 value="0.0283029449312182" flag="0"/>
		</comp>
		<comp name=".HNZ" depth="0.0">
			<acc value="0.47518073276286" flag="0"/>
			<vel value="0.139421286701" flag="0"/>
			<psa03 value="0.753052969395804" flag="0"/>
			<psa10 value="0.108280848074685" flag="0"/>
			<psa30 value="0.0141748073447509" flag="0"/>
		</comp>
	</station>
	<station code="AVCI" name="AVCI" netid="KO" source="Bogazici University Kandilli Observatory And Earthquake Research Institute (KOERI)" insttype="" lat="40.9958" lon="28.7225">
		<comp name=".HNE" depth="0.0">
			<acc value="1.0929425901252" flag="0"/>
			<vel value="0.620965690469" flag="0"/>
			<psa03 value="2.11514695143898" flag="0"/>
			<psa10 value="0.580783034027673" flag="0"/>
			<psa30 value="0.0906972082451415" flag="0"/>
		</comp>
		<comp name=".HNN" depth="0.0">
			<acc value="1.133071845867" flag="0"/>
			<vel value="0.499207448712" flag="0"/>
			<psa03 value="2.92433805637702" flag="0"/>
			<psa10 value="0.374461556240175" flag="0"/>
			<psa30 value="0.0897582860460501" flag="0"/>
		</comp>
		<comp name=".HNZ" depth="0.0">
			<acc value="1.1532982060752" flag="0"/>
			<vel value="0.323542940847" flag="0"/>
			<psa03 value="1.67927691052223" flag="0"/>
			<psa10 value="0.107572531152216" flag="0"/>
			<psa30 value="0.0337662068454717" flag="0"/>
		</comp>
	</station>
	<station code="BIGA" name="BIGA" netid="KO" source="Bogazici University Kandilli Observatory And Earthquake Research Institute (KOERI)" insttype="" lat="40.28134" lon="27.15048">
		<comp name=".HNE" depth="0.0">
