<?xml version="1.0" encoding="UTF-8" standalone="yes"?>
<!DOCTYPE earthquake SYSTEM "stationlist.dtd">
<stationlist created="" xmlns="ch.ethz.sed.shakemap.usgs.xml">
  <station code="AGRB" name="AGRB" netid="KO" insttype="CMG-3T" lat="39.5755" lon="42.992">
    <comp name="--.HHE">
      <acc value="0.0271730290" flag="0"/>
      <vel value="0.0098707527" flag="0"/>
      <psa03 value="0.0520786915" flag="0"/>
      <psa10 value="0.0066827462" flag="0"/>
      <psa30 value="0.0004391251" flag="0"/>
    </comp>
    <comp name="--.HHN">
      <acc value="0.0231484610" flag="0"/>
      <vel value="0.0103822820" flag="0"/>
      <psa03 value="0.0853077046" flag="0"/>
      <psa10 value="0.0078854088" flag="0"/>
      <psa30 value="0.0003627280" flag="0"/>
    </comp>
    <comp name="--.HHZ">
      <acc value="0.0131920603" flag="0"/>
      <vel value="0.0054465364" flag="0"/>
      <psa03 value="0.0261135506" flag="0"/>
      <psa10 value="0.0050488497" flag="0"/>
      <psa30 value="0.0003467385" flag="0"/>
    </comp>
  </station>
  <station code="AKDM" name="AKDM" netid="KO" insttype="CMG-3ESP" lat="38.3285" lon="42.98">
    <comp name="--.HHE">
      <acc value="0.0053227432" flag="0"/>
      <vel value="0.0041737886" flag="0"/>
      <psa03 value="0.0151348541" flag="0"/>
      <psa10 value="0.0055780777" flag="0"/>
      <psa30 value="0.0006216112" flag="0"/>
    </comp>
    <comp name="--.HHZ">
      <acc value="0.0056397056" flag="0"/>
      <vel value="0.0026195117" flag="0"/>
      <psa03 value="0.0113428828" flag="0"/>
      <psa10 value="0.0028012736" flag="0"/>
      <psa30 value="0.0006871627" flag="0"/>
    </comp>
    <comp name="--.HHN">
      <acc value="0.0055906740" flag="0"/>
      <vel value="0.0045745197" flag="0"/>
      <psa03 value="0.0088045169" flag="0"/>
      <psa10 value="0.0044563323" flag="0"/>
      <psa30 value="0.0005877626" flag="0"/>
    </comp>
  </station>
  <station code="CLDR" name="CLDR" netid="KO" insttype="CMG-3ESP" lat="39.144" lon="43.9172">
    <comp name="--.HHE">
      <acc value="0.0701433546" flag="0"/>
      <vel value="0.0338318542" flag="0"/>
      <psa03 value="0.1549252407" flag="0"/>
      <psa10 value="0.0243814322" flag="0"/>
      <psa30 value="0.0020656381" flag="0"/>
    </comp>
    <comp name="--.HHN">
      <acc value="0.0497671181" flag="0"/>
      <vel value="0.0284128771" flag="0"/>
      <psa03 value="0.1333331689" flag="0"/>
      <psa10 value="0.0630389815" flag="0"/>
      <psa30 value="0.0041460234" flag="0"/>
    </comp>
    <comp name="--.HHZ">
      <acc value="0.0285879587" flag="0"/>
      <vel value="0.0115675724" flag="0"/>
      <psa03 value="0.0524182602" flag="0"/>
      <psa10 value="0.0257822605" flag="0"/>
      <psa30 value="0.0010961638" flag="0"/>
    </comp>
  </station>
  <station code="MLAZ" name="MLAZ" netid="KO" insttype="CMG-3T" lat="39.141" lon="42.5496">
    <comp name="--.HHZ">
      <acc value="0.0126140821" flag="0"/>
      <vel value="0.0100016033" flag="0"/>
      <psa03 value="0.0285906398" flag="0"/>
      <psa10 value="0.0118341191" flag="0"/>
      <psa30 value="0.0012541396" flag="0"/>
    </comp>
    <comp name="--.HHN">
      <acc value="0.0040836436" flag="0"/>
      <vel value="0.0007110863" flag="0"/>
      <psa03 value="0.0024595523" flag="0"/>
      <psa10 value="0.0002140146" flag="0"/>
      <psa30 value="0.0000227504" flag="0"/>
    </comp>
    <comp name="--.HHE">
      <acc value="0.0222556454" flag="0"/>
      <vel value="0.0140050198" flag="0"/>
      <psa03 value="0.0423778637" flag="0"/>
      <psa10 value="0.0172512688" flag="0"/>
      <psa30 value="0.0019523450" flag="0"/>
    </comp>
  </station>
</stationlist>
