<stationlist created="1778065226">
	<station code="IMMV" name="IMMV" netid="GE" source="GEOFON" insttype="" lat="35.4606" lon="23.9811">
		<comp name="--.HNE" depth="0.0">
			<acc value="0.0293629484206654" flag="0"/>
			<vel value="0.0134077598797543" flag="0"/>
			<psa03 value="0.0599098146618659" flag="0"/>
			<psa10 value="0.0165380618323118" flag="0"/>
			<psa30 value="0.000710953663164338" flag="0"/>
		</comp>
		<comp name="--.HNN" depth="0.0">
			<acc value="0.0345415140531602" flag="0"/>
			<vel value="0.013830906951767" flag="0"/>
			<psa03 value="0.104607279073519" flag="0"/>
			<psa10 value="0.0151568699140057" flag="0"/>
			<psa30 value="0.000661737235884239" flag="0"/>
		</comp>
		<comp name="--.HNZ" depth="0.0">
			<acc value="0.0233982801004651" flag="0"/>
			<vel value="0.00942920755023552" flag="0"/>
			<psa03 value="0.0627733158854353" flag="0"/>
			<psa10 value="0.00517846299399877" flag="0"/>
			<psa30 value="0.000262189330783072" flag="0"/>
		</comp>
	</station>
	<station code="KARP" name="KARP" netid="GE" source="GEOFON" insttype="" lat="35.5471" lon="27.16106">
		<comp name="--.HNE" depth="0.0">
			<acc value="0.0552528333146747" flag="0"/>
			<vel value="0.0113108907330606" flag="0"/>
			<psa03 value="0.0497533337595182" flag="0"/>
			<psa10 value="0.00869788496659203" flag="0"/>
			<psa30 value="0.000324828420048653" flag="0"/>
		</comp>
		<comp name="--.HNN" depth="0.0">
			<acc value="0.0554231048304099" flag="0"/>
			<vel value="0.0112702647091607" flag="0"/>
			<psa03 value="0.0416102521549927" flag="0"/>
			<psa10 value="0.00750595258228127" flag="0"/>
			<psa30 value="0.000531984836691251" flag="0"/>
		</comp>
		<comp name="--.HNZ" depth="0.0">
			<acc value="0.0275207924827472" flag="0"/>
			<vel value="0.00629200520093175" flag="0"/>
			<psa03 value="0.0272480038305275" flag="0"/>
			<psa10 value="0.00307647412707237" flag="0"/>
			<psa30 value="0.000270242927974361" flag="0"/>
		</comp>
	</station>
	<station code="CH01" name="CH01" netid="HI" source="ITSAK Strong Motion Network" insttype="" lat="35.517" lon="24.0208">
		<comp name="--.HNE" depth="0.0">
			<acc value="0.044143372292975" flag="0"/>
			<vel value="0.0148924018042781" flag="0"/>
			<psa03 value="0.0713638195561435" flag="0"/>
			<psa10 value="0.0111945000958916" flag="0"/>
			<psa30 value="0.000805807141195074" flag="0"/>
		</comp>
		<comp name="--.HNN" depth="0.0">
			<acc value="0.0540129755153696" flag="0"/>
			<vel value="0.0177253324299683" flag="0"/>
			<psa03 value="0.097135330568268" flag="0"/>
			<psa10 value="0.0124750220493065" flag="0"/>
			<psa30 value="0.00106844389404433" flag="0"/>
		</comp>
		<comp name="--.HNZ" depth="0.0">
			<acc value="0.0262491449147392" flag="0"/>
			<vel value="0.00855217292333196" flag="0"/>
			<psa03 value="0.0426840651138313" flag="0"/>
			<psa10 value="0.00964820943516412" flag="0"/>
			<psa30 value="0.000359727341210905" flag="0"/>
		</comp>
	</station>
	<station code="SIT2" name="SIT2" netid="HI" source="ITSAK Strong Motion Network" insttype="" lat="35.2059" lon="26.107">
		<comp name="--.HNE" depth="0.0">
			<acc value="0.170417373392355" flag="0"/>
			<vel value="0.118371131091039" flag="0"/>
			<psa03 value="0.372836807750059" flag="0"/>
			<psa10 value="0.0553241859055592" flag="0"/>
			<psa30 value="0.00421605812963975" flag="0"/>
		</comp>
		<comp name="--.HNN" depth="0.0">
			<acc value="0.117384357515969" flag="0"/>
			<vel value="0.0704696920580906" flag="0"/>
			<psa03 value="0.339951285885629" flag="0"/>
			<psa10 value="0.0396116177853545" flag="0"/>
			<psa30 value="0.00258609954253611" flag="0"/>
		</comp>
		<comp name="--.HNZ" depth="0.0">
			<acc value="0.0762810421625735" flag="0"/>
			<vel value="0.0266960396625723" flag="0"/>
			<psa03 value="0.176239551869372" flag="0"/>
			<psa10 value="0.00906432363879567" flag="0"/>
			<psa30 value="0.000707821708701059" flag="0"/>
		</comp>
	</station>
	<station code="CHNB" name="CHNB" netid="HL" source="National Observatory of Athens Seismic Network" insttype="" lat="35.48765" lon="24.06605">
		<comp name="00.HNE" depth="0.0">
			<acc value="0.0537383384355235" flag="0"/>
			<vel value="0.0364323747829311" flag="0"/>
			<psa03 value="0.139283445594639" flag="0"/>
			<psa10 value="0.037467423282893" flag="0"/>
			<psa30 value="0.00149119086740856" flag="0"/>
		</comp>
		<comp name="00.HNN" depth="0.0">
			<acc value="0.0643749058405118" flag="0"/>
			<vel value="0.0341105745521024" flag="0"/>
			<psa03 value="0.119335884583444" flag="0"/>
			<psa10 value="0.0349768832968504" flag="0"/>
			<psa30 value="0.00135045550271784" flag="0"/>
		</comp>
		<comp name="00.HNZ" depth="0.0">
			<acc value="0.0458545808080079" flag="0"/>
			<vel value="0.0174628494708655" flag="0"/>
			<psa03 value="0.103994389117997" flag="0"/>
			<psa10 value="0.00964547209020278" flag="0"/>
			<psa30 value="0.000544079063399383" flag="0"/>
		</comp>
	</station>
	<station code="HERG" name="HERG" netid="HL" source="National Observatory of Athens Seismic Network" insttype="" lat="35.32622" lon="25.06586">
		<comp name="00.HNE" depth="0.0">
			<acc value="0.0620438202760196" flag="0"/>
			<vel value="0.0352673248425295" flag="0"/>
			<psa03 value="0.0896266873283815" flag="0"/>
			<psa10 value="0.0371639231775346" flag="0"/>
			<psa30 value="0.00208048032161227" flag="0"/>
		</comp>
		<comp name="00.HNN" depth="0.0">
			<acc value="0.0743016760533419" flag="0"/>
			<vel value="0.0286609629949844" flag="0"/>
			<psa03 value="0.184765114781954" flag="0"/>
			<psa10 value="0.0330378360944979" flag="0"/>
			<psa30 value="0.0013311828718336" flag="0"/>
		</comp>
		<comp name="00.HNZ" depth="0.0">
			<acc value="0.0894389739925115" flag="0"/>
			<vel value="0.0351860438796499" flag="0"/>
			<psa03 value="0.104160691801164" flag="0"/>
			<psa10 value="0.0185206975302996" flag="0"/>
			<psa30 value="0.00150513116588829" flag="0"/>
		</comp>
	</station>
	<station code="IACM" name="IACM" netid="HL" source="National Observatory of Athens Seismic Network" insttype="" lat="35.3058" lon="25.0709">
		<comp name="--.HNE" depth="0.0">
			<acc value="0.188631577787162" flag="0"/>
			<vel value="0.0737754074804315" flag="0"/>
			<psa03 value="0.300220206408603" flag="0"/>
			<psa10 value="0.0522436849798912" flag="0"/>
			<psa30 value="0.00310108234071241" flag="0"/>
		</comp>
		<comp name="--.HNN" depth="0.0">
			<acc value="0.183796708960881" flag="0"/>
			<vel value="0.0689434968445929" flag="0"/>
			<psa03 value="0.430598996494247" flag="0"/>
			<psa10 value="0.0367364835880644" flag="0"/>
			<psa30 value="0.0025395676476531" flag="0"/>
		</comp>
		<comp name="--.HNZ" depth="0.0">
			<acc value="0.175309804655652" flag="0"/>
			<vel value="0.0513138249607602" flag="0"/>
			<psa03 value="0.22187660262001" flag="0"/>
			<psa10 value="0.0208870043156078" flag="0"/>
			<psa30 value="0.00119148496224458" flag="0"/>
		</comp>
	</station>
	<station code="IMMV" name="IMMV" netid="HL" source="National Observatory of Athens Seismic Network" insttype="" lat="35.4606" lon="23.9811">
		<comp name="--.HNE" depth="0.0">
			<acc value="0.028767170003093" flag="0"/>
			<vel value="0.0131357853405488" flag="0"/>
			<psa03 value="0.0586570328765543" flag="0"/>
			<psa10 value="0.0161998107502777" flag="0"/>
			<psa30 value="0.000696636157046491" flag="0"/>
		</comp>
		<comp name="--.HNN" depth="0.0">
			<acc value="0.0338406554067649" flag="0"/>
			<vel value="0.0135501951706648" flag="0"/>
			<psa03 value="0.102459653155842" flag="0"/>
			<psa10 value="0.0148468064221411" flag="0"/>
			<psa30 value="0.000648314573898758" flag="0"/>
		</comp>
		<comp name="--.HNZ" depth="0.0">
			<acc value="0.0229235881664238" flag="0"/>
			<vel value="0.00923782700438362" flag="0"/>
			<psa03 value="0.0615205341001237" flag="0"/>
			<psa10 value="0.00507376623051202" flag="0"/>
			<psa30 value="0.00025682026598888" flag="0"/>
		</comp>
	</station>
	<station code="KARP" name="KARP" netid="HL" source="National Observatory of Athens Seismic Network" insttype="" lat="35.5471" lon="27.16106">
		<comp name="--.HNE" depth="0.0">
			<acc value="0.0541310501072671" flag="0"/>
			<vel value="0.0110812615937912" flag="0"/>
			<psa03 value="0.0487690052139162" flag="0"/>
			<psa10 value="0.00852070582838367" flag="0"/>
			<psa30 value="0.000318117089055912" flag="0"/>
		</comp>
		<comp name="--.HNN" depth="0.0">
			<acc value="0.0542979133266693" flag="0"/>
			<vel value="0.0110414457160806" flag="0"/>
			<psa03 value="0.0408048924358638" flag="0"/>
			<psa10 value="0.00735293423564678" flag="0"/>
			<psa30 value="0.000520799285036683" flag="0"/>
		</comp>
		<comp name="--.HNZ" depth="0.0">
			<acc value="0.0269620362223726" flag="0"/>
			<vel value="0.00616426974362236" flag="0"/>
			<psa03 value="0.0267110973511082" flag="0"/>
			<psa10 value="0.00301204534954205" flag="0"/>
			<psa30 value="0.000264426441113986" flag="0"/>
		</comp>
	</station>
	<station code="MILA" name="MILA" netid="HL" source="National Observatory of Athens Seismic Network" insttype="" lat="36.74288" lon="24.4282">
		<comp name="00.HNE" depth="0.0">
			<acc value="0.023759300335513" flag="0"/>
			<vel value="0.00890543039122212" flag="0"/>
			<psa03 value="0.0602928274370915" flag="0"/>
			<psa10 value="0.00479684151720423" flag="0"/>
			<psa30 value="0.000664177175563777" flag="0"/>
		</comp>
		<comp name="00.HNN" depth="0.0">
			<acc value="0.0203959631858724" flag="0"/>
			<vel value="0.00917778667617951" flag="0"/>
			<psa03 value="0.0737098360398475" flag="0"/>
			<psa10 value="0.00822246282279197" flag="0"/>
			<psa30 value="0.00052729972268552" flag="0"/>
		</comp>
		<comp name="00.HNZ" depth="0.0">
			<acc value="0.0147181849305074" flag="0"/>
			<vel value="0.00783898280437104" flag="0"/>
			<psa03 value="0.0305487450586023" flag="0"/>
			<psa10 value="0.00525927152593561" flag="0"/>
			<psa30 value="0.000311350104583126" flag="0"/>
		</comp>
	</station>
	<station code="THRA" name="THRA" netid="HL" source="National Observatory of Athens Seismic Network" insttype="" lat="36.41502" lon="25.43244">
		<comp name="00.HNE" depth="0.0">
			<acc value="0.0824299280911311" flag="0"/>
			<vel value="0.0363966109860156" flag="0"/>
			<psa03 value="0.189975409301182" flag="0"/>
			<psa10 value="0.0477054829625999" flag="0"/>
			<psa30 value="0.00272793233751603" flag="0"/>
		</comp>
		<comp name="00.HNN" depth="0.0">
			<acc value="0.099540945394101" flag="0"/>
			<vel value="0.0399666976102066" flag="0"/>
			<psa03 value="0.187380361317322" flag="0"/>
			<psa10 value="0.0279419554551769" flag="0"/>
			<psa30 value="0.00147201859774114" flag="0"/>
		</comp>
		<comp name="00.HNZ" depth="0.0">
			<acc value="0.0816325739593406" flag="0"/>
			<vel value="0.0239547917729362" flag="0"/>
			<psa03 value="0.139819395682099" flag="0"/>
			<psa10 value="0.016264239527808" flag="0"/>
			<psa30 value="0.00102146457709514" flag="0"/>
		</comp>
	</station>
	<station code="DATC" name="DATC" netid="KO" source="Bogazici University Kandilli Observatory And Earthquake Research Institute (KOERI)" insttype="" lat="36.7584" lon="27.6602">
		<comp name="--.HNE" depth="0.0">
			<acc value="0.044829334156291" flag="0"/>
			<vel value="0.019908298286158" flag="0"/>
			<psa03 value="0.0539591011816357" flag="0"/>
			<psa10 value="0.0196548039453406" flag="0"/>
			<psa30 value="0.00273016944784694" flag="0"/>
		</comp>
		<comp name="--.HNN" depth="0.0">
			<acc value="0.043267584686721" flag="0"/>
			<vel value="0.00988489821998863" flag="0"/>
			<psa03 value="0.0440263313123794" flag="0"/>
			<psa10 value="0.0172306711907626" flag="0"/>
			<psa30 value="0.00217939288437602" flag="0"/>
		</comp>
		<comp name="--.HNZ" depth="0.0">
			<acc value="0.0579545045137269" flag="0"/>
			<vel value="0.0138814954966121" flag="0"/>
			<psa03 value="0.0378071645924396" flag="0"/>
			<psa10 value="0.0124267004661588" flag="0"/>
			<psa30 value="0.00182682429622404" flag="0"/>
		</comp>
	</station>
</stationlist>
