<stationlist xmlns:esm="https://esm-db.eu/esmws/shakemap/1/" created="1783994312">
	<station code="IMMV" name="IMMV" netid="GE" source="GEOFON" insttype="" lat="35.4606" lon="23.9811" esm:processing="manual (Paolucci et al 2011)" esm:quality="good">
		<comp name="--.HNE" depth="0.0">
			<acc value="0.0293629484206654" flag="0"/>
			<vel value="0.0134077598797543" flag="0"/>
			<psa03 value="0.0599098146618659" flag="0"/>
			<psa10 value="0.0165380618323118" flag="0"/>
			<psa30 value="0.000710953663164338" flag="0"/>
		</comp>
		<comp name="--.HNN" depth="0.0">
			<acc value="0.0345415140531602" flag="0"/>
			<vel value="0.013830906951767" flag="0"/>
			<psa03 value="0.104607279073519" flag="0"/>
			<psa10 value="0.0151568699140057" flag="0"/>
			<psa30 value="0.000661737235884239" flag="0"/>
		</comp>
		<comp name="--.HNZ" depth="0.0">
			<acc value="0.0233982801004651" flag="0"/>
			<vel value="0.00942920755023552" flag="0"/>
			<psa03 value="0.0627733158854353" flag="0"/>
			<psa10 value="0.00517846299399877" flag="0"/>
			<psa30 value="0.000262189330783072" flag="0"/>
		</comp>
	</station>
	<station code="KARP" name="KARP" netid="GE" source="GEOFON" insttype="" lat="35.5471" lon="27.16106" esm:processing="manual (Paolucci et al 2011)" esm:quality="good">
		<comp name="--.HNE" depth="0.0">
			<acc value="0.0552528333146747" flag="0"/>
			<vel value="0.0113108907330606" flag="0"/>
			<psa03 value="0.0497533337595182" flag="0"/>
			<psa10 value="0.00869788496659203" flag="0"/>
			<psa30 value="0.000324828420048653" flag="0"/>
		</comp>
		<comp name="--.HNN" depth="0.0">
			<acc value="0.0554231048304099" flag="0"/>
			<vel value="0.0112702647091607" flag="0"/>
			<psa03 value="0.0416102521549927" flag="0"/>
			<psa10 value="0.00750595258228127" flag="0"/>
			<psa30 value="0.000531984836691251" flag="0"/>
		</comp>
		<comp name="--.HNZ" depth="0.0">
			<acc value="0.0275207924827472" flag="0"/>
			<vel value="0.00629200520093175" flag="0"/>
			<psa03 value="0.0272480038305275" flag="0"/>
			<psa10 value="0.00307647412707237" flag="0"/>
			<psa30 value="0.000270242927974361" flag="0"/>
		</comp>
	</station>
	<station code="AGN1" name="AGN1" netid="HI" source="ITSAK Strong Motion Network" insttype="" lat="35.1879" lon="25.7155" esm:processing="manual (Paolucci et al 2011)" esm:quality="good">
		<comp name="--.HNE" depth="0.0">
			<acc value="0.241495761810622" flag="0"/>
			<vel value="0.073714655761124" flag="0"/>
			<psa03 value="0.448782104611922" flag="0"/>
			<psa10 value="0.0297828079648612" flag="0"/>
			<psa30 value="0.00283977166260244" flag="0"/>
		</comp>
		<comp name="--.HNN" depth="0.0">
			<acc value="0.220184923387115" flag="0"/>
			<vel value="0.0958689489962322" flag="0"/>
			<psa03 value="0.451201598224833" flag="0"/>
			<psa10 value="0.03020607975454" flag="0"/>
			<psa30 value="0.00335178037233331" flag="0"/>
		</comp>
		<comp name="--.HNZ" depth="0.0">
			<acc value="0.0729557733268668" flag="0"/>
			<vel value="0.0288133632699212" flag="0"/>
			<psa03 value="0.112896708019505" flag="0"/>
			<psa10 value="0.0113885003697576" flag="0"/>
			<psa30 value="0.000920263358764433" flag="0"/>
		</comp>
	</station>
	<station code="ARK1" name="ARK1" netid="HI" source="ITSAK Strong Motion Network" insttype="" lat="35.148777" lon="25.264194" esm:processing="automatic (Paolucci et al 2011)" esm:quality="best">
		<comp name="--.HNE" depth="0.0">
			<acc value="0.0602763453303366" flag="0"/>
			<vel value="0.0149693601806891" flag="0"/>
			<psa03 value="0.0779834837314074" flag="0"/>
			<psa10 value="0.00846967919967995" flag="0"/>
			<psa30 value="0.000776628531162027" flag="0"/>
		</comp>
		<comp name="--.HNN" depth="0.0">
			<acc value="0.0556673263280834" flag="0"/>
			<vel value="0.0172288987322423" flag="0"/>
			<psa03 value="0.0814187477591232" flag="0"/>
			<psa10 value="0.0115703433534629" flag="0"/>
			<psa30 value="0.000914276920525613" flag="0"/>
		</comp>
		<comp name="--.HNZ" depth="0.0">
			<acc value="0.0439183914685652" flag="0"/>
			<vel value="0.0141165661661613" flag="0"/>
			<psa03 value="0.0555911253475605" flag="0"/>
			<psa10 value="0.00724571249289254" flag="0"/>
			<psa30 value="0.000614287672710216" flag="0"/>
		</comp>
	</station>
	<station code="CH01" name="CH01" netid="HI" source="ITSAK Strong Motion Network" insttype="" lat="35.517" lon="24.0208" esm:processing="manual (Paolucci et al 2011)" esm:quality="good">
		<comp name="--.HNE" depth="0.0">
			<acc value="0.044143372292975" flag="0"/>
			<vel value="0.0148924018042781" flag="0"/>
			<psa03 value="0.0713638195561435" flag="0"/>
			<psa10 value="0.0111945000958916" flag="0"/>
			<psa30 value="0.000805807141195074" flag="0"/>
		</comp>
		<comp name="--.HNN" depth="0.0">
			<acc value="0.0540129755153696" flag="0"/>
			<vel value="0.0177253324299683" flag="0"/>
			<psa03 value="0.097135330568268" flag="0"/>
			<psa10 value="0.0124750220493065" flag="0"/>
			<psa30 value="0.00106844389404433" flag="0"/>
		</comp>
		<comp name="--.HNZ" depth="0.0">
			<acc value="0.0262491449147392" flag="0"/>
			<vel value="0.00855217292333196" flag="0"/>
			<psa03 value="0.0426840651138313" flag="0"/>
			<psa10 value="0.00964820943516412" flag="0"/>
			<psa30 value="0.000359727341210905" flag="0"/>
		</comp>
	</station>
	<station code="CH02" name="CH02" netid="HI" source="ITSAK Strong Motion Network" insttype="" lat="35.5145" lon="24.0315" esm:processing="manual (Paolucci et al 2011)" esm:quality="good">
		<comp name="--.HNE" depth="0.0">
			<acc value="0.0384945247980676" flag="0"/>
			<vel value="0.0124478096365665" flag="0"/>
			<psa03 value="0.104409708297425" flag="0"/>
			<psa10 value="0.0119729925269945" flag="0"/>
			<psa30 value="0.000671339525032103" flag="0"/>
		</comp>
		<comp name="--.HNN" depth="0.0">
			<acc value="0.0491013108615935" flag="0"/>
			<vel value="0.0181100458733535" flag="0"/>
			<psa03 value="0.0841218018231891" flag="0"/>
			<psa10 value="0.0148232347790554" flag="0"/>
			<psa30 value="0.00100601247672266" flag="0"/>
		</comp>
		<comp name="--.HNZ" depth="0.0">
			<acc value="0.0217389115363436" flag="0"/>
			<vel value="0.00854418847429814" flag="0"/>
			<psa03 value="0.0314543284865591" flag="0"/>
			<psa10 value="0.00802922095898316" flag="0"/>
			<psa30 value="0.000392758882931767" flag="0"/>
		</comp>
	</station>
	<station code="CH03" name="CH03" netid="HI" source="ITSAK Strong Motion Network" insttype="" lat="35.53303" lon="24.0705" esm:processing="automatic (Paolucci et al 2011)" esm:quality="best">
		<comp name="--.HNE" depth="0.0">
			<acc value="0.0256274010295903" flag="0"/>
			<vel value="0.00997537132132623" flag="0"/>
			<psa03 value="0.0423570429253829" flag="0"/>
			<psa10 value="0.0107925887060345" flag="0"/>
			<psa30 value="0.000689165132974479" flag="0"/>
		</comp>
		<comp name="--.HNN" depth="0.0">
			<acc value="0.0283516051905542" flag="0"/>
			<vel value="0.0148144977080113" flag="0"/>
			<psa03 value="0.0603021665975894" flag="0"/>
			<psa10 value="0.0115394581824719" flag="0"/>
			<psa30 value="0.000917561408940184" flag="0"/>
		</comp>
		<comp name="--.HNZ" depth="0.0">
			<acc value="0.0194439855259337" flag="0"/>
			<vel value="0.00727209501347682" flag="0"/>
			<psa03 value="0.0424013062742792" flag="0"/>
			<psa10 value="0.00564398044850549" flag="0"/>
			<psa30 value="0.000294277697578224" flag="0"/>
		</comp>
	</station>
	<station code="GOR1" name="GOR1" netid="HI" source="ITSAK Strong Motion Network" insttype="" lat="35.0582" lon="24.9628" esm:processing="automatic (Paolucci et al 2011)" esm:quality="best">
		<comp name="--.HNE" depth="0.0">
			<acc value="0.0274502087031596" flag="0"/>
			<vel value="0.0145086002699369" flag="0"/>
			<psa03 value="0.0896022169571285" flag="0"/>
			<psa10 value="0.00548993336864247" flag="0"/>
			<psa30 value="0.000745320519659917" flag="0"/>
		</comp>
		<comp name="--.HNN" depth="0.0">
			<acc value="0.0293225616840671" flag="0"/>
			<vel value="0.0110478835589073" flag="0"/>
			<psa03 value="0.0609921498055907" flag="0"/>
			<psa10 value="0.00819082103919538" flag="0"/>
			<psa30 value="0.000528031125303942" flag="0"/>
		</comp>
		<comp name="--.HNZ" depth="0.0">
			<acc value="0.04180958621114" flag="0"/>
			<vel value="0.00924843700611379" flag="0"/>
			<psa03 value="0.0625170529062706" flag="0"/>
			<psa10 value="0.00792000903672929" flag="0"/>
			<psa30 value="0.000630948776426569" flag="0"/>
		</comp>
	</station>
	<station code="HER1" name="HER1" netid="HI" source="ITSAK Strong Motion Network" insttype="" lat="35.317672" lon="25.10217" esm:processing="automatic (Paolucci et al 2011)" esm:quality="best">
		<comp name="--.HNE" depth="0.0">
			<acc value="0.0741166872646819" flag="0"/>
			<vel value="0.0340343948262422" flag="0"/>
			<psa03 value="0.203201148578834" flag="0"/>
			<psa10 value="0.0382914803726498" flag="0"/>
			<psa30 value="0.0019402072792102" flag="0"/>
		</comp>
		<comp name="--.HNN" depth="0.0">
			<acc value="0.103315864732487" flag="0"/>
			<vel value="0.0414500510613408" flag="0"/>
			<psa03 value="0.252356634055171" flag="0"/>
			<psa10 value="0.0362582644320723" flag="0"/>
			<psa30 value="0.00244137672922665" flag="0"/>
		</comp>
		<comp name="--.HNZ" depth="0.0">
			<acc value="0.0921997773294404" flag="0"/>
			<vel value="0.0321308648508313" flag="0"/>
			<psa03 value="0.184091507658908" flag="0"/>
			<psa10 value="0.0343139631316533" flag="0"/>
			<psa30 value="0.00160536936867526" flag="0"/>
		</comp>
	</station>
	<station code="HER2" name="HER2" netid="HI" source="ITSAK Strong Motion Network" insttype="" lat="35.337866" lon="25.135624" esm:processing="manual (Paolucci et al 2011)" esm:quality="good">
		<comp name="--.HNE" depth="0.0">
			<acc value="0.224706000158903" flag="0"/>
			<vel value="0.0550956741028743" flag="0"/>
			<psa03 value="0.208492082410567" flag="0"/>
			<psa10 value="0.0315246933562197" flag="0"/>
			<psa30 value="0.00128704994824256" flag="0"/>
		</comp>
		<comp name="--.HNN" depth="0.0">
			<acc value="0.136263429284122" flag="0"/>
			<vel value="0.0668142994201965" flag="0"/>
			<psa03 value="0.266270034916361" flag="0"/>
			<psa10 value="0.0415039206810544" flag="0"/>
			<psa30 value="0.00229613585773172" flag="0"/>
		</comp>
		<comp name="--.HNZ" depth="0.0">
			<acc value="0.111581462905665" flag="0"/>
			<vel value="0.032696877101226" flag="0"/>
			<psa03 value="0.137321138518156" flag="0"/>
			<psa10 value="0.00931673656307313" flag="0"/>
			<psa30 value="0.000617407566887894" flag="0"/>
		</comp>
	</station>
	<station code="RTH1" name="RTH1" netid="HI" source="ITSAK Strong Motion Network" insttype="" lat="35.365393" lon="24.471773" esm:processing="automatic (Paolucci et al 2011)" esm:quality="best">
		<comp name="--.HNE" depth="0.0">
			<acc value="0.0304939909834844" flag="0"/>
			<vel value="0.0119219469904986" flag="0"/>
			<psa03 value="0.0836252168435379" flag="0"/>
			<psa10 value="0.00318115503278362" flag="0"/>
			<psa30 value="0.000432113338929668" flag="0"/>
		</comp>
		<comp name="--.HNN" depth="0.0">
			<acc value="0.0390952487009538" flag="0"/>
			<vel value="0.0156835838854239" flag="0"/>
			<psa03 value="0.0851239046659176" flag="0"/>
			<psa10 value="0.00496914293133191" flag="0"/>
			<psa30 value="0.000486960071214842" flag="0"/>
		</comp>
		<comp name="--.HNZ" depth="0.0">
			<acc value="0.0340940799437752" flag="0"/>
			<vel value="0.0104458365548763" flag="0"/>
			<psa03 value="0.0455602837702015" flag="0"/>
			<psa10 value="0.00230887209206974" flag="0"/>
			<psa30 value="0.000202254895790064" flag="0"/>
		</comp>
	</station>
	<station code="SFK2" name="SFK2" netid="HI" source="ITSAK Strong Motion Network" insttype="" lat="35.211556" lon="24.188889" esm:processing="automatic (Paolucci et al 2011)" esm:quality="best">
		<comp name="--.HNE" depth="0.0">
			<acc value="0.0297224260837337" flag="0"/>
			<vel value="0.0108599194799788" flag="0"/>
			<psa03 value="0.114751820494935" flag="0"/>
			<psa10 value="0.00335066063669799" flag="0"/>
			<psa30 value="0.000387094028496295" flag="0"/>
		</comp>
		<comp name="--.HNN" depth="0.0">
			<acc value="0.0416058088556649" flag="0"/>
			<vel value="0.0126286511317603" flag="0"/>
			<psa03 value="0.0578401389170052" flag="0"/>
			<psa10 value="0.00548145124424336" flag="0"/>
			<psa30 value="0.000383018602269309" flag="0"/>
		</comp>
		<comp name="--.HNZ" depth="0.0">
			<acc value="0.0185947367729939" flag="0"/>
			<vel value="0.00733954251813569" flag="0"/>
			<psa03 value="0.0302505664515653" flag="0"/>
			<psa10 value="0.00279230091373163" flag="0"/>
			<psa30 value="0.00023048709155531" flag="0"/>
		</comp>
	</station>
	<station code="SIT2" name="SIT2" netid="HI" source="ITSAK Strong Motion Network" insttype="" lat="35.2059" lon="26.107" esm:processing="manual (Paolucci et al 2011)" esm:quality="good">
		<comp name="--.HNE" depth="0.0">
			<acc value="0.170417373392355" flag="0"/>
			<vel value="0.118371131091039" flag="0"/>
			<psa03 value="0.372836807750059" flag="0"/>
			<psa10 value="0.0553241859055592" flag="0"/>
			<psa30 value="0.00421605812963975" flag="0"/>
		</comp>
		<comp name="--.HNN" depth="0.0">
			<acc value="0.117384357515969" flag="0"/>
			<vel value="0.0704696920580906" flag="0"/>
			<psa03 value="0.339951285885629" flag="0"/>
			<psa10 value="0.0396116177853545" flag="0"/>
			<psa30 value="0.00258609954253611" flag="0"/>
		</comp>
		<comp name="--.HNZ" depth="0.0">
			<acc value="0.0762810421625735" flag="0"/>
			<vel value="0.0266960396625723" flag="0"/>
			<psa03 value="0.176239551869372" flag="0"/>
			<psa10 value="0.00906432363879567" flag="0"/>
			<psa30 value="0.000707821708701059" flag="0"/>
		</comp>
	</station>
	<station code="CHNB" name="CHNB" netid="HL" source="National Observatory of Athens Seismic Network" insttype="" lat="35.48765" lon="24.06605" esm:processing="automatic (Paolucci et al 2011)" esm:quality="best">
		<comp name="00.HNE" depth="0.0">
			<acc value="0.0537383384355235" flag="0"/>
			<vel value="0.0364323747829311" flag="0"/>
			<psa03 value="0.139283445594639" flag="0"/>
			<psa10 value="0.037467423282893" flag="0"/>
			<psa30 value="0.00149119086740856" flag="0"/>
		</comp>
		<comp name="00.HNN" depth="0.0">
			<acc value="0.0643749058405118" flag="0"/>
			<vel value="0.0341105745521024" flag="0"/>
			<psa03 value="0.119335884583444" flag="0"/>
			<psa10 value="0.0349768832968504" flag="0"/>
			<psa30 value="0.00135045550271784" flag="0"/>
		</comp>
		<comp name="00.HNZ" depth="0.0">
			<acc value="0.0458545808080079" flag="0"/>
			<vel value="0.0174628494708655" flag="0"/>
			<psa03 value="0.103994389117997" flag="0"/>
			<psa10 value="0.00964547209020278" flag="0"/>
			<psa30 value="0.000544079063399383" flag="0"/>
		</comp>
	</station>
	<station code="HERG" name="HERG" netid="HL" source="National Observatory of Athens Seismic Network" insttype="" lat="35.32622" lon="25.06586" esm:processing="manual (Paolucci et al 2011)" esm:quality="good">
		<comp name="00.HNE" depth="0.0">
			<acc value="0.0621597888113954" flag="0"/>
			<vel value="0.0350440326842987" flag="0"/>
			<psa03 value="0.124243355512548" flag="0"/>
			<psa10 value="0.0365634671502545" flag="0"/>
			<psa30 value="0.00245631959411812" flag="0"/>
		</comp>
		<comp name="00.HNN" depth="0.0">
			<acc value="0.0732266515495159" flag="0"/>
			<vel value="0.0286291029778502" flag="0"/>
			<psa03 value="0.18518026728389" flag="0"/>
			<psa10 value="0.033923190994917" flag="0"/>
			<psa30 value="0.00158822760811775" flag="0"/>
		</comp>
		<comp name="00.HNZ" depth="0.0">
			<acc value="0.0834203835122117" flag="0"/>
			<vel value="0.034989749339271" flag="0"/>
			<psa03 value="0.103551120170175" flag="0"/>
			<psa10 value="0.0246273320648846" flag="0"/>
			<psa30 value="0.00146055206690641" flag="0"/>
		</comp>
	</station>
	<station code="IACM" name="IACM" netid="HL" source="National Observatory of Athens Seismic Network" insttype="" lat="35.3058" lon="25.0709" esm:processing="manual (Paolucci et al 2011)" esm:quality="best">
		<comp name="--.HNE" depth="0.0">
			<acc value="0.188631577787162" flag="0"/>
			<vel value="0.0737754074804315" flag="0"/>
			<psa03 value="0.300220206408603" flag="0"/>
			<psa10 value="0.0522436849798912" flag="0"/>
			<psa30 value="0.00310108234071241" flag="0"/>
		</comp>
		<comp name="--.HNN" depth="0.0">
			<acc value="0.183796708960881" flag="0"/>
			<vel value="0.0689434968445929" flag="0"/>
			<psa03 value="0.430598996494247" flag="0"/>
			<psa10 value="0.0367364835880644" flag="0"/>
			<psa30 value="0.0025395676476531" flag="0"/>
		</comp>
		<comp name="--.HNZ" depth="0.0">
			<acc value="0.175309804655652" flag="0"/>
			<vel value="0.0513138249607602" flag="0"/>
			<psa03 value="0.22187660262001" flag="0"/>
			<psa10 value="0.0208870043156078" flag="0"/>
			<psa30 value="0.00119148496224458" flag="0"/>
		</comp>
	</station>
	<station code="IMMV" name="IMMV" netid="HL" source="National Observatory of Athens Seismic Network" insttype="" lat="35.4606" lon="23.9811" esm:processing="manual (Paolucci et al 2011)" esm:quality="good">
		<comp name="--.HNE" depth="0.0">
			<acc value="0.028767170003093" flag="0"/>
			<vel value="0.0131357853405488" flag="0"/>
			<psa03 value="0.0586570328765543" flag="0"/>
			<psa10 value="0.0161998107502777" flag="0"/>
			<psa30 value="0.000696636157046491" flag="0"/>
		</comp>
		<comp name="--.HNN" depth="0.0">
			<acc value="0.0338406554067649" flag="0"/>
			<vel value="0.0135501951706648" flag="0"/>
			<psa03 value="0.102459653155842" flag="0"/>
			<psa10 value="0.0148468064221411" flag="0"/>
			<psa30 value="0.000648314573898758" flag="0"/>
		</comp>
		<comp name="--.HNZ" depth="0.0">
			<acc value="0.0229235881664238" flag="0"/>
			<vel value="0.00923782700438362" flag="0"/>
			<psa03 value="0.0615205341001237" flag="0"/>
			<psa10 value="0.00507376623051202" flag="0"/>
			<psa30 value="0.00025682026598888" flag="0"/>
		</comp>
	</station>
	<station code="KARP" name="KARP" netid="HL" source="National Observatory of Athens Seismic Network" insttype="" lat="35.5471" lon="27.16106" esm:processing="manual (Paolucci et al 2011)" esm:quality="good">
		<comp name="--.HNE" depth="0.0">
			<acc value="0.0541310501072671" flag="0"/>
			<vel value="0.0110812615937912" flag="0"/>
			<psa03 value="0.0487690052139162" flag="0"/>
			<psa10 value="0.00852070582838367" flag="0"/>
			<psa30 value="0.000318117089055912" flag="0"/>
		</comp>
		<comp name="--.HNN" depth="0.0">
			<acc value="0.0542979133266693" flag="0"/>
			<vel value="0.0110414457160806" flag="0"/>
			<psa03 value="0.0408048924358638" flag="0"/>
			<psa10 value="0.00735293423564678" flag="0"/>
			<psa30 value="0.000520799285036683" flag="0"/>
		</comp>
		<comp name="--.HNZ" depth="0.0">
			<acc value="0.0269620362223726" flag="0"/>
			<vel value="0.00616426974362236" flag="0"/>
			<psa03 value="0.0267110973511082" flag="0"/>
			<psa10 value="0.00301204534954205" flag="0"/>
			<psa30 value="0.000264426441113986" flag="0"/>
		</comp>
	</station>
	<station code="MILA" name="MILA" netid="HL" source="National Observatory of Athens Seismic Network" insttype="" lat="36.74288" lon="24.4282" esm:processing="automatic (Paolucci et al 2011)" esm:quality="best">
		<comp name="00.HNE" depth="0.0">
			<acc value="0.023759300335513" flag="0"/>
			<vel value="0.00890543039122212" flag="0"/>
			<psa03 value="0.0602928274370915" flag="0"/>
			<psa10 value="0.00479684151720423" flag="0"/>
			<psa30 value="0.000664177175563777" flag="0"/>
		</comp>
		<comp name="00.HNN" depth="0.0">
			<acc value="0.0203959631858724" flag="0"/>
			<vel value="0.00917778667617951" flag="0"/>
			<psa03 value="0.0737098360398475" flag="0"/>
			<psa10 value="0.00822246282279197" flag="0"/>
			<psa30 value="0.00052729972268552" flag="0"/>
		</comp>
		<comp name="00.HNZ" depth="0.0">
			<acc value="0.0147181849305074" flag="0"/>
			<vel value="0.00783898280437104" flag="0"/>
			<psa03 value="0.0305487450586023" flag="0"/>
