<?xml version="1.0" encoding="UTF-8" standalone="yes"?>
<!DOCTYPE earthquake SYSTEM "stationlist.dtd">
<stationlist created="" xmlns="ch.ethz.sed.shakemap.usgs.xml">
  <station code="THERA" name="THERA" netid="GE" insttype="STS-2/N" lat="36.367" lon="25.4753">
    <comp name="--.HHE">
      <acc value="0.0544776974" flag="0"/>
      <vel value="0.0151935975" flag="0"/>
      <psa03 value="0.0738057950" flag="0"/>
      <psa10 value="0.0064192374" flag="0"/>
      <psa30 value="0.0007581106" flag="0"/>
    </comp>
    <comp name="--.HHN">
      <acc value="0.0509763389" flag="0"/>
      <vel value="0.0102118377" flag="0"/>
      <psa03 value="0.0665919058" flag="0"/>
      <psa10 value="0.0023092393" flag="0"/>
      <psa30 value="0.0002269617" flag="0"/>
    </comp>
    <comp name="--.HHZ">
      <acc value="0.0420388964" flag="0"/>
      <vel value="0.0116276846" flag="0"/>
      <psa03 value="0.0788218534" flag="0"/>
      <psa10 value="0.0024377177" flag="0"/>
      <psa30 value="0.0002895854" flag="0"/>
    </comp>
  </station>
  <station code="ZKR" name="ZKR" netid="GE" insttype="STS-2/N" lat="35.1147" lon="26.2169">
    <comp name="--.HHE">
      <acc value="0.0370692034" flag="0"/>
      <vel value="0.0164157175" flag="0"/>
      <psa03 value="0.0817987363" flag="0"/>
      <psa10 value="0.0096433528" flag="0"/>
      <psa30 value="0.0007862535" flag="0"/>
    </comp>
    <comp name="--.HHZ">
      <acc value="0.0327479625" flag="0"/>
      <vel value="0.0075278760" flag="0"/>
      <psa03 value="0.0380874430" flag="0"/>
      <psa10 value="0.0061339684" flag="0"/>
      <psa30 value="0.0002684181" flag="0"/>
    </comp>
    <comp name="--.HHN">
      <acc value="0.0143775376" flag="0"/>
      <vel value="0.0069171959" flag="0"/>
      <psa03 value="0.0493506204" flag="0"/>
      <psa10 value="0.0031917239" flag="0"/>
      <psa30 value="0.0002643342" flag="0"/>
    </comp>
  </station>
  <station code="SNT5" name="SNT5" netid="HA" insttype="1s-100Hz," lat="36.4037" lon="25.3953">
    <comp name="--.HHE">
      <acc value="0.1563203896" flag="0"/>
      <vel value="0.0541718609" flag="0"/>
      <psa03 value="0.2842464402" flag="0"/>
      <psa10 value="0.0117052782" flag="0"/>
      <psa30 value="0.0018641412" flag="0"/>
    </comp>
    <comp name="--.HHN">
      <acc value="0.0957263131" flag="0"/>
      <vel value="0.0276011746" flag="0"/>
      <psa03 value="0.1461533982" flag="0"/>
      <psa10 value="0.0071191982" flag="0"/>
      <psa30 value="0.0021526079" flag="0"/>
    </comp>
    <comp name="--.HHZ">
      <acc value="0.0737025084" flag="0"/>
      <vel value="0.0109120006" flag="0"/>
      <psa03 value="0.0527502277" flag="0"/>
      <psa10 value="0.0053071640" flag="0"/>
      <psa30 value="0.0003942094" flag="0"/>
    </comp>
  </station>
  <station code="SIT2" name="SIT2" netid="HI" insttype="CMG-5TD,ACCELEROMETER,GURALP" lat="35.2059" lon="26.107">
    <comp name="--.HNE">
      <acc value="0.1704487825" flag="0"/>
      <vel value="0.1176421529" flag="0"/>
      <psa03 value="0.3745769421" flag="0"/>
      <psa10 value="0.0552386946" flag="0"/>
      <psa30 value="0.0041315321" flag="0"/>
    </comp>
    <comp name="--.HNN">
      <acc value="0.1167922356" flag="0"/>
      <vel value="0.0702513379" flag="0"/>
      <psa03 value="0.3448041565" flag="0"/>
      <psa10 value="0.0394954986" flag="0"/>
      <psa30 value="0.0025736255" flag="0"/>
    </comp>
    <comp name="--.HNZ">
      <acc value="0.0764717964" flag="0"/>
      <vel value="0.0264759495" flag="0"/>
      <psa03 value="0.1748177847" flag="0"/>
      <psa10 value="0.0090150533" flag="0"/>
      <psa30 value="0.0007087264" flag="0"/>
    </comp>
  </station>
  <station code="IACM" name="IACM" netid="HL" insttype="120" lat="35.3058" lon="25.0709">
    <comp name="--.HHE">
      <acc value="0.1858285893" flag="0"/>
      <vel value="0.0760354707" flag="0"/>
      <psa03 value="0.3229819283" flag="0"/>
      <psa10 value="0.0513799305" flag="0"/>
      <psa30 value="0.0030204091" flag="0"/>
    </comp>
    <comp name="--.HHN">
      <acc value="0.1742649452" flag="0"/>
      <vel value="0.0654122588" flag="0"/>
      <psa03 value="0.4064010541" flag="0"/>
      <psa10 value="0.0357734979" flag="0"/>
      <psa30 value="0.0024233203" flag="0"/>
    </comp>
    <comp name="--.HHZ">
      <acc value="0.1727812241" flag="0"/>
      <vel value="0.0492897752" flag="0"/>
      <psa03 value="0.2156204140" flag="0"/>
      <psa10 value="0.0206970917" flag="0"/>
      <psa30 value="0.0012429121" flag="0"/>
    </comp>
  </station>
  <station code="IDI" name="IDI" netid="HL" insttype="120" lat="35.288" lon="24.89">
    <comp name="--.HHE">
      <acc value="0.0519632324" flag="0"/>
      <vel value="0.0109552713" flag="0"/>
      <psa03 value="0.0719316838" flag="0"/>
      <psa10 value="0.0035609869" flag="0"/>
      <psa30 value="0.0002528245" flag="0"/>
    </comp>
    <comp name="--.HHN">
      <acc value="0.0743483273" flag="0"/>
      <vel value="0.0167103725" flag="0"/>
      <psa03 value="0.0610044142" flag="0"/>
      <psa10 value="0.0045272723" flag="0"/>
      <psa30 value="0.0004145001" flag="0"/>
    </comp>
    <comp name="--.HHZ">
      <acc value="0.0533763381" flag="0"/>
      <vel value="0.0104171921" flag="0"/>
      <psa03 value="0.0505755149" flag="0"/>
      <psa10 value="0.0036926570" flag="0"/>
      <psa30 value="0.0002889198" flag="0"/>
    </comp>
  </station>
  <station code="NPS" name="NPS" netid="HL" insttype="CMG3ESPC-120s" lat="35.2613" lon="25.6104">
    <comp name="--.HHE">
      <acc value="0.1081689339" flag="0"/>
      <vel value="0.0302092794" flag="0"/>
      <psa03 value="0.1553868125" flag="0"/>
      <psa10 value="0.0107077696" flag="0"/>
      <psa30 value="0.0011481340" flag="0"/>
    </comp>
    <comp name="--.HHN">
      <acc value="0.2835610496" flag="0"/>
      <vel value="0.0883645062" flag="0"/>
      <psa03 value="0.2821490521" flag="0"/>
      <psa10 value="0.0253677382" flag="0"/>
      <psa30 value="0.0020020300" flag="0"/>
    </comp>
    <comp name="--.HHZ">
      <acc value="0.1809751492" flag="0"/>
      <vel value="0.0474559488" flag="0"/>
      <psa03 value="0.2181426740" flag="0"/>
      <psa10 value="0.0144674279" flag="0"/>
      <psa30 value="0.0011723602" flag="0"/>
    </comp>
  </station>
  <station code="SAP3" name="SAP3" netid="HL" insttype="LE3D20_SMART24" lat="36.4356" lon="25.3454">
    <comp name="--.HHE">
      <acc value="0.0961343261" flag="0"/>
      <vel value="0.0288715672" flag="0"/>
      <psa03 value="0.1356925147" flag="0"/>
      <psa10 value="0.0190595168" flag="0"/>
      <psa30 value="0.0028812922" flag="0"/>
    </comp>
    <comp name="--.HHN">
      <acc value="0.1188404258" flag="0"/>
      <vel value="0.0419522365" flag="0"/>
      <psa03 value="0.2598191470" flag="0"/>
      <psa10 value="0.0267212846" flag="0"/>
      <psa30 value="0.0038805323" flag="0"/>
    </comp>
    <comp name="--.HHZ">
      <acc value="0.1110254522" flag="0"/>
      <vel value="0.0315380704" flag="0"/>
      <psa03 value="0.2301014013" flag="0"/>
      <psa10 value="0.0124836051" flag="0"/>
      <psa30 value="0.0012380064" flag="0"/>
    </comp>
  </station>
  <station code="THERA" name="THERA" netid="HL" insttype="120" lat="36.367" lon="25.4753">
    <comp name="--.HHE">
      <acc value="0.0546557624" flag="0"/>
      <vel value="0.0148389570" flag="0"/>
      <psa03 value="0.0716267046" flag="0"/>
      <psa10 value="0.0063411708" flag="0"/>
      <psa30 value="0.0007554971" flag="0"/>
    </comp>
    <comp name="--.HHN">
      <acc value="0.0516546023" flag="0"/>
      <vel value="0.0100435355" flag="0"/>
      <psa03 value="0.0644819763" flag="0"/>
      <psa10 value="0.0022707922" flag="0"/>
      <psa30 value="0.0002218608" flag="0"/>
    </comp>
    <comp name="--.HHZ">
      <acc value="0.0419072365" flag="0"/>
      <vel value="0.0112749427" flag="0"/>
      <psa03 value="0.0763997327" flag="0"/>
      <psa10 value="0.0023813828" flag="0"/>
      <psa30 value="0.0002849903" flag="0"/>
    </comp>
  </station>
  <station code="ZKR" name="ZKR" netid="HL" insttype="120" lat="35.1147" lon="26.2169">
    <comp name="--.HHE">
      <acc value="0.0359908366" flag="0"/>
      <vel value="0.0161427982" flag="0"/>
      <psa03 value="0.0794830720" flag="0"/>
      <psa10 value="0.0095516147" flag="0"/>
      <psa30 value="0.0007820970" flag="0"/>
    </comp>
    <comp name="--.HHN">
      <acc value="0.0143960805" flag="0"/>
      <vel value="0.0067520785" flag="0"/>
      <psa03 value="0.0479384868" flag="0"/>
      <psa10 value="0.0031479997" flag="0"/>
      <psa30 value="0.0002613150" flag="0"/>
    </comp>
    <comp name="--.HHZ">
      <acc value="0.0329408473" flag="0"/>
      <vel value="0.0073440771" flag="0"/>
      <psa03 value="0.0370151585" flag="0"/>
      <psa10 value="0.0060561207" flag="0"/>
      <psa30 value="0.0002657826" flag="0"/>
    </comp>
  </station>
  <station code="IDI" name="IDI" netid="MN" insttype="" lat="35.288" lon="24.89">
    <comp name="--.HHE">
      <acc value="0.0553142664" flag="0"/>
      <vel value="0.0113199963" flag="0"/>
      <psa03 value="0.0724548428" flag="0"/>
      <psa10 value="0.0035586387" flag="0"/>
      <psa30 value="0.0002549171" flag="0"/>
    </comp>
    <comp name="--.HHN">
      <acc value="0.0791667212" flag="0"/>
      <vel value="0.0169067292" flag="0"/>
      <psa03 value="0.0622790615" flag="0"/>
      <psa10 value="0.0045342331" flag="0"/>
      <psa30 value="0.0004132050" flag="0"/>
    </comp>
    <comp name="--.HHZ">
      <acc value="0.0550795679" flag="0"/>
      <vel value="0.0108343964" flag="0"/>
      <psa03 value="0.0515253612" flag="0"/>
      <psa10 value="0.0036981807" flag="0"/>
      <psa30 value="0.0002882784" flag="0"/>
    </comp>
  </station>
</stationlist>
