<?xml version="1.0" encoding="UTF-8" standalone="yes"?>
<!DOCTYPE earthquake SYSTEM "stationlist.dtd">
<stationlist created="" xmlns="ch.ethz.sed.shakemap.usgs.xml">
  <station code="SVRC" name="SVRC" netid="KO" insttype="CMG-3T" lat="38.3775" lon="39.306">
    <comp name="--.HHE">
      <acc value="0.0105038248" flag="0"/>
      <vel value="0.0054641782" flag="0"/>
      <psa03 value="0.0264302633" flag="0"/>
      <psa10 value="0.0042758588" flag="0"/>
      <psa30 value="0.0008414978" flag="0"/>
    </comp>
    <comp name="--.HHZ">
      <acc value="0.0074205680" flag="0"/>
      <vel value="0.0029767910" flag="0"/>
      <psa03 value="0.0156197644" flag="0"/>
      <psa10 value="0.0040966240" flag="0"/>
      <psa30 value="0.0006108095" flag="0"/>
    </comp>
    <comp name="--.HHN">
      <acc value="0.0076228168" flag="0"/>
      <vel value="0.0040195287" flag="0"/>
      <psa03 value="0.0143608527" flag="0"/>
      <psa10 value="0.0040923789" flag="0"/>
      <psa30 value="0.0003802391" flag="0"/>
    </comp>
  </station>
  <station code="URFA" name="URFA" netid="KO" insttype="CMG-3ESP" lat="37.4409" lon="38.8213">
    <comp name="--.HHE">
      <acc value="0.0207857327" flag="0"/>
      <vel value="0.0102606965" flag="0"/>
      <psa03 value="0.0459388265" flag="0"/>
      <psa10 value="0.0065014650" flag="0"/>
      <psa30 value="0.0016517700" flag="0"/>
    </comp>
    <comp name="--.HHN">
      <acc value="0.0168872117" flag="0"/>
      <vel value="0.0067582847" flag="0"/>
      <psa03 value="0.0325514905" flag="0"/>
      <psa10 value="0.0038885747" flag="0"/>
      <psa30 value="0.0003393375" flag="0"/>
    </comp>
    <comp name="--.HHZ">
      <acc value="0.0127169162" flag="0"/>
      <vel value="0.0029484203" flag="0"/>
      <psa03 value="0.0149005849" flag="0"/>
      <psa10 value="0.0033711148" flag="0"/>
      <psa30 value="0.0003763234" flag="0"/>
    </comp>
  </station>
</stationlist>
