<?xml version="1.0" encoding="UTF-8" standalone="yes"?>
<!DOCTYPE earthquake SYSTEM "stationlist.dtd">
<stationlist created="" xmlns="ch.ethz.sed.shakemap.usgs.xml">
  <station code="AKS" name="AKS" netid="KO" insttype="CMG-5T" commtype="DIG" lat="38.8785" lon="27.8129">
    <comp name="--.HNE">
      <acc value="0.0650824480" flag="0"/>
      <vel value="0.0151596538" flag="0"/>
      <psa03 value="0.0598441489" flag="0"/>
      <psa10 value="0.0085871666" flag="0"/>
      <psa30 value="0.0006117439" flag="0"/>
    </comp>
    <comp name="--.HNZ">
      <acc value="0.0480734251" flag="0"/>
      <vel value="0.0088194624" flag="0"/>
      <psa03 value="0.0287037705" flag="0"/>
      <psa10 value="0.0043076509" flag="0"/>
      <psa30 value="0.0004787639" flag="0"/>
    </comp>
  </station>
  <station code="BALB" name="BALB" netid="KO" insttype="CMG-5T" commtype="DIG" lat="39.6507" lon="27.8642">
    <comp name="--.HNE">
      <acc value="0.0257587751" flag="0"/>
      <vel value="0.0091015776" flag="0"/>
      <psa03 value="0.0479499597" flag="0"/>
      <psa10 value="0.0115058297" flag="0"/>
      <psa30 value="0.0006228184" flag="0"/>
    </comp>
    <comp name="--.HNZ">
      <acc value="0.0198507986" flag="0"/>
      <vel value="0.0069602916" flag="0"/>
      <psa03 value="0.0277017753" flag="0"/>
      <psa10 value="0.0058825887" flag="0"/>
      <psa30 value="0.0004507065" flag="0"/>
    </comp>
    <comp name="--.HNN">
      <acc value="0.0218362278" flag="0"/>
      <vel value="0.0101047383" flag="0"/>
      <psa03 value="0.0456529833" flag="0"/>
      <psa10 value="0.0074324526" flag="0"/>
      <psa30 value="0.0005944932" flag="0"/>
    </comp>
  </station>
  <station code="DST" name="DST" netid="KO" insttype="CMG-5T" commtype="DIG" lat="39.6041" lon="28.6267">
    <comp name="--.HNZ">
      <acc value="0.0387132663" flag="0"/>
      <vel value="0.0070013786" flag="0"/>
      <psa03 value="0.0344736649" flag="0"/>
      <psa10 value="0.0051886622" flag="0"/>
      <psa30 value="0.0008765972" flag="0"/>
    </comp>
    <comp name="--.HNN">
      <acc value="0.0362468665" flag="0"/>
      <vel value="0.0094157001" flag="0"/>
      <psa03 value="0.0372806016" flag="0"/>
      <psa10 value="0.0051543125" flag="0"/>
      <psa30 value="0.0009212709" flag="0"/>
    </comp>
    <comp name="--.HNE">
      <acc value="0.0351655004" flag="0"/>
      <vel value="0.0078073527" flag="0"/>
      <psa03 value="0.0412613533" flag="0"/>
      <psa10 value="0.0052239711" flag="0"/>
      <psa30 value="0.0008873233" flag="0"/>
    </comp>
  </station>
  <station code="GEDZ" name="GEDZ" netid="KO" insttype="CMG-6T" commtype="DIG" lat="39.0445" lon="29.4105">
    <comp name="--.HHN">
      <acc value="0.0537835515" flag="0"/>
      <vel value="0.0267661494" flag="0"/>
      <psa03 value="0.1742278990" flag="0"/>
      <psa10 value="0.0410251733" flag="0"/>
      <psa30 value="0.0022638603" flag="0"/>
    </comp>
    <comp name="--.HHZ">
      <acc value="0.0182943549" flag="0"/>
      <vel value="0.0073103374" flag="0"/>
      <psa03 value="0.0239563564" flag="0"/>
      <psa10 value="0.0101815175" flag="0"/>
      <psa30 value="0.0004783395" flag="0"/>
    </comp>
    <comp name="--.HHE">
      <acc value="0.0408563552" flag="0"/>
      <vel value="0.0173426432" flag="0"/>
      <psa03 value="0.0964228569" flag="0"/>
      <psa10 value="0.0297243802" flag="0"/>
      <psa30 value="0.0011851538" flag="0"/>
    </comp>
  </station>
  <station code="GONE" name="GONE" netid="KO" insttype="CMG-5T" commtype="DIG" lat="40.0466" lon="27.686">
    <comp name="--.HNZ">
      <acc value="0.0077423834" flag="0"/>
      <vel value="0.0034777392" flag="0"/>
      <psa03 value="0.0118948887" flag="0"/>
      <psa10 value="0.0026395703" flag="0"/>
      <psa30 value="0.0003109064" flag="0"/>
    </comp>
    <comp name="--.HNE">
      <acc value="0.0112676802" flag="0"/>
      <vel value="0.0064946911" flag="0"/>
      <psa03 value="0.0207067510" flag="0"/>
      <psa10 value="0.0077225133" flag="0"/>
      <psa30 value="0.0003932878" flag="0"/>
    </comp>
    <comp name="--.HNN">
      <acc value="0.0211384677" flag="0"/>
      <vel value="0.0089109989" flag="0"/>
      <psa03 value="0.0417641452" flag="0"/>
      <psa10 value="0.0085072799" flag="0"/>
      <psa30 value="0.0004992741" flag="0"/>
    </comp>
  </station>
  <station code="GORD" name="GORD" netid="KO" insttype="CMG-5T" commtype="DIG" lat="38.9088" lon="28.1769">
    <comp name="--.HNZ">
      <acc value="0.0413668693" flag="0"/>
      <vel value="0.0132834857" flag="0"/>
      <psa03 value="0.0382521787" flag="0"/>
      <psa10 value="0.0138473126" flag="0"/>
      <psa30 value="0.0015319103" flag="0"/>
    </comp>
    <comp name="--.HNE">
      <acc value="0.0358146449" flag="0"/>
      <vel value="0.0170166985" flag="0"/>
      <psa03 value="0.0430882982" flag="0"/>
      <psa10 value="0.0275095718" flag="0"/>
      <psa30 value="0.0020192592" flag="0"/>
    </comp>
    <comp name="--.HNN">
      <acc value="0.0377872310" flag="0"/>
      <vel value="0.0275984718" flag="0"/>
      <psa03 value="0.0458723615" flag="0"/>
      <psa10 value="0.0312018245" flag="0"/>
      <psa30 value="0.0025908582" flag="0"/>
    </comp>
  </station>
  <station code="KCTX" name="KCTX" netid="KO" insttype="CMG-3ESP" commtype="DIG" lat="40.2626" lon="28.3353">
    <comp name="--.HHE">
      <acc value="0.0131510547" flag="0"/>
      <vel value="0.0062416841" flag="0"/>
      <psa03 value="0.0285758618" flag="0"/>
      <psa10 value="0.0070901373" flag="0"/>
      <psa30 value="0.0004290361" flag="0"/>
    </comp>
    <comp name="--.HHN">
      <acc value="0.0151855886" flag="0"/>
      <vel value="0.0047155827" flag="0"/>
      <psa03 value="0.0256525367" flag="0"/>
      <psa10 value="0.0040920473" flag="0"/>
      <psa30 value="0.0003216043" flag="0"/>
    </comp>
    <comp name="--.HHZ">
      <acc value="0.0153773885" flag="0"/>
      <vel value="0.0032495398" flag="0"/>
      <psa03 value="0.0198840233" flag="0"/>
      <psa10 value="0.0032558002" flag="0"/>
      <psa30 value="0.0002286333" flag="0"/>
    </comp>
  </station>
  <station code="KULA" name="KULA" netid="KO" insttype="CMG-3T" commtype="DIG" lat="38.5145" lon="28.6607">
    <comp name="--.HHZ">
      <acc value="0.0257372223" flag="0"/>
      <vel value="0.0037839383" flag="0"/>
      <psa03 value="0.0138379809" flag="0"/>
      <psa10 value="0.0049233548" flag="0"/>
      <psa30 value="0.0003330645" flag="0"/>
    </comp>
  </station>
  <station code="ORLT" name="ORLT" netid="KO" insttype="CMG-5T" commtype="DIG" lat="40.0452" lon="28.8914">
    <comp name="--.HNE">
      <acc value="0.0290107402" flag="0"/>
      <vel value="0.0100899489" flag="0"/>
      <psa03 value="0.0634353918" flag="0"/>
      <psa10 value="0.0075725037" flag="0"/>
      <psa30 value="0.0008012990" flag="0"/>
    </comp>
    <comp name="--.HNN">
      <acc value="0.0220466457" flag="0"/>
      <vel value="0.0097528563" flag="0"/>
      <psa03 value="0.0631078297" flag="0"/>
      <psa10 value="0.0104868692" flag="0"/>
      <psa30 value="0.0007199396" flag="0"/>
    </comp>
    <comp name="--.HNZ">
      <acc value="0.0112493618" flag="0"/>
      <vel value="0.0043027662" flag="0"/>
      <psa03 value="0.0209408113" flag="0"/>
      <psa10 value="0.0032080505" flag="0"/>
      <psa30 value="0.0003605113" flag="0"/>
    </comp>
  </station>
  <station code="SHAP" name="SHAP" netid="KO" insttype="CMG-5T" commtype="DIG" lat="39.0231" lon="29.222">
    <comp name="--.HNE">
      <acc value="0.0539012101" flag="0"/>
      <vel value="0.0145932600" flag="0"/>
      <psa03 value="0.0942928635" flag="0"/>
      <psa10 value="0.0054822318" flag="0"/>
      <psa30 value="0.0004354479" flag="0"/>
    </comp>
    <comp name="--.HNZ">
      <acc value="0.0294692352" flag="0"/>
      <vel value="0.0070963023" flag="0"/>
      <psa03 value="0.0270101162" flag="0"/>
      <psa10 value="0.0060061860" flag="0"/>
      <psa30 value="0.0003768042" flag="0"/>
    </comp>
    <comp name="--.HNN">
      <acc value="0.0747528591" flag="0"/>
      <vel value="0.0151528744" flag="0"/>
      <psa03 value="0.0634585036" flag="0"/>
      <psa10 value="0.0100651748" flag="0"/>
      <psa30 value="0.0007311814" flag="0"/>
    </comp>
  </station>
  <station code="SIMA" name="SIMA" netid="KO" insttype="CMG-6T" commtype="DIG" lat="39.0833" lon="28.9825">
    <comp name="--.HHN">
      <acc value="0.0590589191" flag="0"/>
      <vel value="0.0196379728" flag="0"/>
      <psa03 value="0.1088588156" flag="0"/>
      <psa10 value="0.0111055029" flag="0"/>
      <psa30 value="0.0006450344" flag="0"/>
    </comp>
    <comp name="--.HHZ">
      <acc value="0.0390630647" flag="0"/>
      <vel value="0.0090176300" flag="0"/>
      <psa03 value="0.0365813416" flag="0"/>
      <psa10 value="0.0035413647" flag="0"/>
      <psa30 value="0.0003648212" flag="0"/>
    </comp>
    <comp name="--.HHE">
      <acc value="0.0592821895" flag="0"/>
      <vel value="0.0139353381" flag="0"/>
      <psa03 value="0.0880761845" flag="0"/>
      <psa10 value="0.0049758276" flag="0"/>
      <psa30 value="0.0004988885" flag="0"/>
    </comp>
  </station>
  <station code="SMAA" name="SMAA" netid="KO" insttype="CMG-5T" commtype="DIG" lat="39.1005" lon="28.9805">
    <comp name="--.HNZ">
      <acc value="0.0285071907" flag="0"/>
      <vel value="0.0102578089" flag="0"/>
      <psa03 value="0.0356727997" flag="0"/>
      <psa10 value="0.0225244364" flag="0"/>
      <psa30 value="0.0007542894" flag="0"/>
    </comp>
    <comp name="--.HNN">
      <acc value="0.0461010902" flag="0"/>
      <vel value="0.0274846322" flag="0"/>
      <psa03 value="0.1284106495" flag="0"/>
      <psa10 value="0.0284133937" flag="0"/>
      <psa30 value="0.0025161985" flag="0"/>
    </comp>
    <comp name="--.HNE">
      <acc value="0.0559814746" flag="0"/>
      <vel value="0.0371422721" flag="0"/>
      <psa03 value="0.1544045551" flag="0"/>
      <psa10 value="0.0558620344" flag="0"/>
      <psa30 value="0.0026734886" flag="0"/>
    </comp>
  </station>
  <station code="SOMA" name="SOMA" netid="KO" insttype="CMG-5T" commtype="DIG" lat="39.1564" lon="27.5341">
    <comp name="--.HNN">
      <acc value="0.0272673742" flag="0"/>
      <vel value="0.0096906955" flag="0"/>
      <psa03 value="0.0671076501" flag="0"/>
      <psa10 value="0.0107897008" flag="0"/>
      <psa30 value="0.0006287239" flag="0"/>
    </comp>
    <comp name="--.HNZ">
      <acc value="0.0245919851" flag="0"/>
      <vel value="0.0066388550" flag="0"/>
      <psa03 value="0.0357133328" flag="0"/>
      <psa10 value="0.0058520330" flag="0"/>
      <psa30 value="0.0005259089" flag="0"/>
    </comp>
    <comp name="--.HNE">
      <acc value="0.0326029613" flag="0"/>
      <vel value="0.0095238141" flag="0"/>
      <psa03 value="0.0559970571" flag="0"/>
      <psa10 value="0.0062820400" flag="0"/>
      <psa30 value="0.0005019935" flag="0"/>
    </comp>
  </station>
  <station code="SUSR" name="SUSR" netid="KO" insttype="CMG-5T" commtype="DIG" lat="39.9627" lon="28.0835">
    <comp name="--.HNE">
      <acc value="0.0230627054" flag="0"/>
      <vel value="0.0039814369" flag="0"/>
      <psa03 value="0.0294965892" flag="0"/>
      <psa10 value="0.0028694440" flag="0"/>
      <psa30 value="0.0002247787" flag="0"/>
    </comp>
    <comp name="--.HNZ">
      <acc value="0.0186482182" flag="0"/>
      <vel value="0.0036557380" flag="0"/>
      <psa03 value="0.0161368905" flag="0"/>
      <psa10 value="0.0028654521" flag="0"/>
      <psa30 value="0.0003284972" flag="0"/>
    </comp>
    <comp name="--.HNN">
      <acc value="0.0278426254" flag="0"/>
      <vel value="0.0071887012" flag="0"/>
      <psa03 value="0.0438743104" flag="0"/>
      <psa10 value="0.0036867663" flag="0"/>
      <psa30 value="0.0001996525" flag="0"/>
    </comp>
  </station>
  <station code="TVSB" name="TVSB" netid="KO" insttype="CMG-3T" commtype="DIG" lat="39.4497" lon="29.4615">
    <comp name="--.HHE">
      <acc value="0.0270347675" flag="0"/>
      <vel value="0.0131864848" flag="0"/>
      <psa03 value="0.0918371342" flag="0"/>
      <psa10 value="0.0094350354" flag="0"/>
      <psa30 value="0.0006263167" flag="0"/>
    </comp>
    <comp name="--.HHN">
      <acc value="0.0183192091" flag="0"/>
      <vel value="0.0088980422" flag="0"/>
      <psa03 value="0.0609906740" flag="0"/>
      <psa10 value="0.0061215569" flag="0"/>
      <psa30 value="0.0004542222" flag="0"/>
    </comp>
    <comp name="--.HHZ">
      <acc value="0.0087174059" flag="0"/>
      <vel value="0.0036287449" flag="0"/>
      <psa03 value="0.0176303757" flag="0"/>
      <psa10 value="0.0026994504" flag="0"/>
      <psa30 value="0.0003276507" flag="0"/>
    </comp>
  </station>
  <station code="YAYO" name="YAYO" netid="KO" insttype="CMG-6T" commtype="DIG" lat="39.6113" lon="27.0726">
    <comp name="--.HHN">
      <acc value="0.0076561088" flag="0"/>
      <vel value="0.0040138221" flag="0"/>
      <psa03 value="0.0242777321" flag="0"/>
      <psa10 value="0.0052511933" flag="0"/>
      <psa30 value="0.0003319412" flag="0"/>
    </comp>
    <comp name="--.HHE">
      <acc value="0.0065002273" flag="0"/>
      <vel value="0.0053094842" flag="0"/>
      <psa03 value="0.0138295054" flag="0"/>
      <psa10 value="0.0046419446" flag="0"/>
      <psa30 value="0.0003112297" flag="0"/>
    </comp>
    <comp name="--.HHZ">
      <acc value="0.0074569860" flag="0"/>
      <vel value="0.0035053391" flag="0"/>
      <psa03 value="0.0164222595" flag="0"/>
      <psa10 value="0.0021083977" flag="0"/>
      <psa30 value="0.0001680518" flag="0"/>
    </comp>
  </station>
</stationlist>
