<stationlist created="1631873503">
	<station code="KRL1" name="KRL1" netid="HI" source="ITSAK Strong Motion Network" insttype="" lat="37.7951" lon="26.7065">
		<comp name="--.HNE" depth="0.0">
			<acc value="-0.263607678" flag="0"/>
			<vel value="0.089571" flag="0"/>
			<psa03 value="0.563528092357" flag="0"/>
			<psa10 value="0.0226185277117" flag="0"/>
			<psa30 value="0.00279773017984" flag="0"/>
		</comp>
		<comp name="--.HNN" depth="0.0">
			<acc value="0.237661734" flag="0"/>
			<vel value="0.083908" flag="0"/>
			<psa03 value="0.282591777001" flag="0"/>
			<psa10 value="0.0265446563425" flag="0"/>
			<psa30 value="0.00220802789661" flag="0"/>
		</comp>
		<comp name="--.HNZ" depth="0.0">
			<acc value="0.074514774" flag="0"/>
			<vel value="0.021768" flag="0"/>
			<psa03 value="0.147022890948" flag="0"/>
			<psa10 value="0.0141541970637" flag="0"/>
			<psa30 value="0.00112392423025" flag="0"/>
		</comp>
	</station>
	<station code="KLNA" name="KLNA" netid="HL" source="National Observatory of Athens Seismic Network" insttype="" lat="36.95708" lon="26.97274">
		<comp name="--.HNE" depth="0.0">
			<acc value="-0.027395976" flag="0"/>
			<vel value="0.012487" flag="0"/>
			<psa03 value="0.108589335463" flag="0"/>
			<psa10 value="0.00910861842335" flag="0"/>
			<psa30 value="0.00061296823067" flag="0"/>
		</comp>
		<comp name="--.HNN" depth="0.0">
			<acc value="-0.023475912" flag="0"/>
			<vel value="-0.013105" flag="0"/>
			<psa03 value="0.0743168051929" flag="0"/>
			<psa10 value="0.00963210224078" flag="0"/>
			<psa30 value="0.000492164272801" flag="0"/>
		</comp>
		<comp name="--.HNZ" depth="0.0">
			<acc value="-0.023827302" flag="0"/>
			<vel value="0.007619" flag="0"/>
			<psa03 value="0.0292614031283" flag="0"/>
			<psa10 value="0.00691803998732" flag="0"/>
			<psa30 value="0.000505586934786" flag="0"/>
		</comp>
	</station>
	<station code="GMLD" name="GMLD" netid="KO" source="Bogazici University Kandilli Observatory And Earthquake Research Institute (KOERI)" insttype="" lat="38.0766" lon="26.9157">
		<comp name="--.HNE" depth="0.0">
			<acc value="1.263199008" flag="0"/>
			<vel value="0.410669" flag="0"/>
			<psa03 value="1.86221538166" flag="0"/>
			<psa10 value="0.214197497698" flag="0"/>
			<psa30 value="0.0154740921589" flag="0"/>
		</comp>
		<comp name="--.HNN" depth="0.0">
			<acc value="1.821701334" flag="0"/>
			<vel value="-0.702512" flag="0"/>
			<psa03 value="1.67850388128" flag="0"/>
			<psa10 value="0.285053045787" flag="0"/>
			<psa30 value="0.0193514517845" flag="0"/>
		</comp>
		<comp name="--.HNZ" depth="0.0">
			<acc value="0.902885028" flag="0"/>
			<vel value="0.217503" flag="0"/>
			<psa03 value="1.10437188596" flag="0"/>
			<psa10 value="0.048059841239" flag="0"/>
			<psa30 value="0.00651714981602" flag="0"/>
		</comp>
	</station>
	<station code="KUSD" name="KUSD" netid="KO" source="Bogazici University Kandilli Observatory And Earthquake Research Institute (KOERI)" insttype="" lat="37.8606" lon="27.2868">
		<comp name="--.HNE" depth="0.0">
			<acc value="0.382680336" flag="0"/>
			<vel value="0.145729" flag="0"/>
			<psa03 value="0.393149769555" flag="0"/>
			<psa10 value="0.0778742580412" flag="0"/>
			<psa30 value="0.0106669894799" flag="0"/>
		</comp>
		<comp name="--.HNN" depth="0.0">
			<acc value="-0.352725282" flag="0"/>
			<vel value="-0.137021" flag="0"/>
			<psa03 value="0.704108105552" flag="0"/>
			<psa10 value="0.102836382536" flag="0"/>
			<psa30 value="0.0106450657986" flag="0"/>
		</comp>
		<comp name="--.HNZ" depth="0.0">
			<acc value="0.227988564" flag="0"/>
			<vel value="0.078151" flag="0"/>
			<psa03 value="0.236462561978" flag="0"/>
			<psa10 value="0.0458128876226" flag="0"/>
			<psa30 value="0.00493774992239" flag="0"/>
		</comp>
	</station>
</stationlist>
