<stationlist created="1642764329">
	<station code="KRL1" name="KRL1" netid="HI" source="ITSAK Strong Motion Network" insttype="" lat="37.7951" lon="26.7065">
		<comp name=".HNE" depth="0.0">
			<acc value="0.263607678" flag="0"/>
			<vel value="0.089571" flag="0"/>
			<psa03 value="0.563528092357" flag="0"/>
			<psa10 value="0.0226185277117" flag="0"/>
			<psa30 value="0.00279773017984" flag="0"/>
		</comp>
		<comp name=".HNN" depth="0.0">
			<acc value="0.237661734" flag="0"/>
			<vel value="0.083908" flag="0"/>
			<psa03 value="0.282591777001" flag="0"/>
			<psa10 value="0.0265446563425" flag="0"/>
			<psa30 value="0.00220802789661" flag="0"/>
		</comp>
		<comp name=".HNZ" depth="0.0">
			<acc value="0.074514774" flag="0"/>
			<vel value="0.021768" flag="0"/>
			<psa03 value="0.147022890948" flag="0"/>
			<psa10 value="0.0141541970637" flag="0"/>
			<psa30 value="0.00112392423025" flag="0"/>
		</comp>
	</station>
	<station code="MYT1" name="MYT1" netid="HI" source="ITSAK Strong Motion Network" insttype="" lat="39.085" lon="26.5694">
		<comp name=".HNE" depth="0.0">
			<acc value="0.0056916" flag="0"/>
			<vel value="0.005709" flag="0"/>
			<psa03 value="0.0181205936804" flag="0"/>
			<psa10 value="0.0111018837282" flag="0"/>
			<psa30 value="0.000784330882018" flag="0"/>
		</comp>
		<comp name=".HNN" depth="0.0">
			<acc value="0.006575328" flag="0"/>
			<vel value="0.006077" flag="0"/>
			<psa03 value="0.00854576146409" flag="0"/>
			<psa10 value="0.0108280614237" flag="0"/>
			<psa30 value="0.00117135096927" flag="0"/>
		</comp>
		<comp name=".HNZ" depth="0.0">
			<acc value="0.003404454" flag="0"/>
			<vel value="0.003494" flag="0"/>
			<psa03 value="0.00809833939791" flag="0"/>
			<psa10 value="0.0061005998724" flag="0"/>
			<psa30 value="0.000691267092252" flag="0"/>
		</comp>
	</station>
	<station code="NAX1" name="NAX1" netid="HI" source="ITSAK Strong Motion Network" insttype="" lat="37.101394" lon="25.374103">
		<comp name=".HNE" depth="0.0">
			<acc value="0.003161592" flag="0"/>
			<vel value="0.001256" flag="0"/>
			<psa03 value="0.00545854920743" flag="0"/>
			<psa10 value="0.00130870954358" flag="0"/>
			<psa30 value="0.000164651320355" flag="0"/>
		</comp>
		<comp name=".HNN" depth="0.0">
			<acc value="0.002979624" flag="0"/>
			<vel value="0.000948" flag="0"/>
			<psa03 value="0.00272927460371" flag="0"/>
			<psa10 value="0.00103891403768" flag="0"/>
			<psa30 value="0.000158387411429" flag="0"/>
		</comp>
		<comp name=".HNZ" depth="0.0">
			<acc value="0.002129148" flag="0"/>
			<vel value="0.000796" flag="0"/>
			<psa03 value="0.00536906479419" flag="0"/>
			<psa10 value="0.000873815295255" flag="0"/>
			<psa30 value="9.57483221631e-05" flag="0"/>
		</comp>
	</station>
	<station code="RDI1" name="RDI1" netid="HI" source="ITSAK Strong Motion Network" insttype="" lat="36.4514" lon="28.224">
		<comp name=".HNE" depth="0.0">
			<acc value="0.002663526" flag="0"/>
			<vel value="0.003027" flag="0"/>
			<psa03 value="0.00438473624859" flag="0"/>
			<psa10 value="0.00670461966175" flag="0"/>
			<psa30 value="0.000588807439096" flag="0"/>
		</comp>
		<comp name=".HNN" depth="0.0">
			<acc value="0.0016422" flag="0"/>
			<vel value="0.0022" flag="0"/>
			<psa03 value="0.00313195446328" flag="0"/>
			<psa10 value="0.00404290579003" flag="0"/>
			<psa30 value="0.000570463134383" flag="0"/>
		</comp>
		<comp name=".HNZ" depth="0.0">
			<acc value="0.00372708" flag="0"/>
			<vel value="0.001387" flag="0"/>
			<psa03 value="0.00228185253753" flag="0"/>
			<psa10 value="0.00256104390683" flag="0"/>
			<psa30 value="0.00023444916268" flag="0"/>
		</comp>
	</station>
	<station code="ASTA" name="ASTA" netid="HL" source="National Observatory of Athens Seismic Network" insttype="" lat="36.54543" lon="26.3528">
		<comp name="00.HNE" depth="0.0">
			<acc value="0.002011644" flag="0"/>
			<vel value="0.001436" flag="0"/>
			<psa03 value="0.00393731418241" flag="0"/>
			<psa10 value="0.00296372376639" flag="0"/>
			<psa30 value="0.000207156416643" flag="0"/>
		</comp>
		<comp name="00.HNN" depth="0.0">
			<acc value="0.002053974" flag="0"/>
			<vel value="0.001023" flag="0"/>
			<psa03 value="0.00393731418241" flag="0"/>
			<psa10 value="0.00122817357167" flag="0"/>
			<psa30 value="0.000152570924568" flag="0"/>
		</comp>
		<comp name="00.HNZ" depth="0.0">
			<acc value="0.001514394" flag="0"/>
			<vel value="0.001485" flag="0"/>
			<psa03 value="0.00237133695077" flag="0"/>
			<psa10 value="0.00198923850625" flag="0"/>
			<psa30 value="0.000202682195981" flag="0"/>
		</comp>
	</station>
	<station code="KLNA" name="KLNA" netid="HL" source="National Observatory of Athens Seismic Network" insttype="" lat="36.95708" lon="26.97274">
		<comp name="00.HNE" depth="0.0">
			<acc value="0.027395976" flag="0"/>
			<vel value="0.012487" flag="0"/>
			<psa03 value="0.108589335463" flag="0"/>
			<psa10 value="0.00910861842335" flag="0"/>
			<psa30 value="0.00061296823067" flag="0"/>
		</comp>
		<comp name="00.HNN" depth="0.0">
			<acc value="0.023475912" flag="0"/>
			<vel value="0.013105" flag="0"/>
			<psa03 value="0.0743168051929" flag="0"/>
			<psa10 value="0.00963210224078" flag="0"/>
			<psa30 value="0.000492164272801" flag="0"/>
		</comp>
		<comp name="00.HNZ" depth="0.0">
			<acc value="0.023827302" flag="0"/>
			<vel value="0.007619" flag="0"/>
			<psa03 value="0.0292614031283" flag="0"/>
			<psa10 value="0.00691803998732" flag="0"/>
			<psa30 value="0.000505586934786" flag="0"/>
		</comp>
	</station>
	<station code="PRK" name="PRK" netid="HL" source="National Observatory of Athens Seismic Network" insttype="" lat="39.24565" lon="26.26499">
		<comp name=".HNE" depth="0.0">
			<acc value="0.005097552" flag="0"/>
			<vel value="0.003692" flag="0"/>
			<psa03 value="0.00827730822438" flag="0"/>
			<psa10 value="0.00869788496659" flag="0"/>
			<psa30 value="0.000355253120549" flag="0"/>
		</comp>
		<comp name=".HNN" depth="0.0">
			<acc value="0.004341936" flag="0"/>
			<vel value="0.002929" flag="0"/>
			<psa03 value="0.0106933873818" flag="0"/>
			<psa10 value="0.00567375922126" flag="0"/>
			<psa30 value="0.000471582857757" flag="0"/>
		</comp>
		<comp name=".HNZ" depth="0.0">
			<acc value="0.002910468" flag="0"/>
			<vel value="0.001945" flag="0"/>
			<psa03 value="0.00774040174496" flag="0"/>
			<psa10 value="0.00279057142678" flag="0"/>
			<psa30 value="0.000223711033091" flag="0"/>
		</comp>
	</station>
	<station code="RODB" name="RODB" netid="HL" source="National Observatory of Athens Seismic Network" insttype="" lat="36.4471" lon="28.22116">
		<comp name="00.HNE" depth="0.0">
			<acc value="0.00242148" flag="0"/>
			<vel value="0.002246" flag="0"/>
			<psa03 value="0.00313195446328" flag="0"/>
			<psa10 value="0.00265768707313" flag="0"/>
			<psa30 value="0.000535116791155" flag="0"/>
		</comp>
		<comp name="00.HNN" depth="0.0">
			<acc value="0.002382618" flag="0"/>
			<vel value="0.002038" flag="0"/>
			<psa03 value="0.0036688609427" flag="0"/>
			<psa10 value="0.00446169284397" flag="0"/>
			<psa30 value="0.000406259236094" flag="0"/>
		</comp>
		<comp name="00.HNZ" depth="0.0">
			<acc value="0.003813066" flag="0"/>
			<vel value="0.00105" flag="0"/>
			<psa03 value="0.002460821364" flag="0"/>
			<psa10 value="0.00197715811046" flag="0"/>
			<psa30 value="0.00025905737632" flag="0"/>
		</comp>
	</station>
	<station code="THRA" name="THRA" netid="HL" source="National Observatory of Athens Seismic Network" insttype="" lat="36.41502" lon="25.43244">
		<comp name="00.HNE" depth="0.0">
			<acc value="0.0060231" flag="0"/>
			<vel value="0.003847" flag="0"/>
			<psa03 value="0.012662044473" flag="0"/>
			<psa10 value="0.00618918944151" flag="0"/>
			<psa30 value="0.000624153782325" flag="0"/>
		</comp>
		<comp name="00.HNN" depth="0.0">
			<acc value="0.005015646" flag="0"/>
			<vel value="0.004726" flag="0"/>
			<psa03 value="0.0114092626877" flag="0"/>
			<psa10 value="0.00743347020756" flag="0"/>
			<psa30 value="0.00060357236728" flag="0"/>
		</comp>
		<comp name="00.HNZ" depth="0.0">
			<acc value="0.005160078" flag="0"/>
			<vel value="0.001934" flag="0"/>
			<psa03 value="0.0088142147038" flag="0"/>
			<psa10 value="0.00181608616664" flag="0"/>
			<psa30 value="0.00020044508565" flag="0"/>
		</comp>
	</station>
	<station code="TNSA" name="TNSA" netid="HL" source="National Observatory of Athens Seismic Network" insttype="" lat="37.53942" lon="25.1631">
		<comp name="00.HNE" depth="0.0">
			<acc value="0.001415046" flag="0"/>
			<vel value="0.0006" flag="0"/>
			<psa03 value="0.00237133695077" flag="0"/>
			<psa10 value="0.000495296227264" flag="0"/>
			<psa30 value="9.84328545602e-05" flag="0"/>
		</comp>
		<comp name="00.HNN" depth="0.0">
			<acc value="0.002033472" flag="0"/>
			<vel value="0.000651" flag="0"/>
			<psa03 value="0.00505586934786" flag="0"/>
			<psa10 value="0.000491269428669" flag="0"/>
			<psa30 value="5.50329141405e-05" flag="0"/>
		</comp>
		<comp name="00.HNZ" depth="0.0">
			<acc value="0.0020043" flag="0"/>
			<vel value="0.000638" flag="0"/>
			<psa03 value="0.00375834535593" flag="0"/>
			<psa10 value="0.000386572665182" flag="0"/>
			<psa30 value="0.000139148262583" flag="0"/>
		</comp>
	</station>
	<station code="AKS" name="AKS" netid="KO" source="Bogazici University Kandilli Observatory And Earthquake Research Institute (KOERI)" insttype="" lat="38.8785" lon="27.8129">
		<comp name=".HNE" depth="0.0">
			<acc value="0.009843408" flag="0"/>
			<vel value="0.0036" flag="0"/>
			<psa03 value="0.0167783274819" flag="0"/>
			<psa10 value="0.00278654462819" flag="0"/>
			<psa30 value="0.000506481778919" flag="0"/>
		</comp>
		<comp name=".HNN" depth="0.0">
			<acc value="0.008476302" flag="0"/>
			<vel value="0.004595" flag="0"/>
			<psa03 value="0.0143175061178" flag="0"/>
			<psa10 value="0.00186038095119" flag="0"/>
			<psa30 value="0.000546302342809" flag="0"/>
		</comp>
		<comp name=".HNZ" depth="0.0">
			<acc value="0.003936996" flag="0"/>
			<vel value="0.001508" flag="0"/>
			<psa03 value="0.00501112714125" flag="0"/>
			<psa10 value="0.00117179839133" flag="0"/>
			<psa30 value="0.000379861334189" flag="0"/>
		</comp>
	</station>
	<station code="CESE" name="CESE" netid="KO" source="Bogazici University Kandilli Observatory And Earthquake Research Institute (KOERI)" insttype="" lat="38.3306" lon="26.2997">
		<comp name=".HNE" depth="0.0">
			<acc value="0.007442838" flag="0"/>
			<vel value="0.002982" flag="0"/>
			<psa03 value="0.00966431662955" flag="0"/>
			<psa10 value="0.00302412574533" flag="0"/>
			<psa30 value="0.000621021827862" flag="0"/>
		</comp>
		<comp name=".HNN" depth="0.0">
			<acc value="0.00906423" flag="0"/>
			<vel value="0.003378" flag="0"/>
			<psa03 value="0.0174494605811" flag="0"/>
			<psa10 value="0.00313284930741" flag="0"/>
			<psa30 value="0.00048053129908" flag="0"/>
		</comp>
		<comp name=".HNZ" depth="0.0">
			<acc value="0.007606956" flag="0"/>
			<vel value="0.002265" flag="0"/>
			<psa03 value="0.00917215235675" flag="0"/>
			<psa10 value="0.0022147392276" flag="0"/>
			<psa30 value="0.000482320987345" flag="0"/>
		</comp>
	</station>
	<station code="DATC" name="DATC" netid="KO" source="Bogazici University Kandilli Observatory And Earthquake Research Institute (KOERI)" insttype="" lat="36.7584" lon="27.6602">
		<comp name=".HNE" depth="0.0">
			<acc value="0.040172496" flag="0"/>
			<vel value="0.021803" flag="0"/>
			<psa03 value="0.0730640234076" flag="0"/>
			<psa10 value="0.0378398264033" flag="0"/>
			<psa30 value="0.00315924720932" flag="0"/>
		</comp>
		<comp name=".HNN" depth="0.0">
			<acc value="0.047085036" flag="0"/>
			<vel value="0.038003" flag="0"/>
			<psa03 value="0.101654293437" flag="0"/>
			<psa10 value="0.041447837945" flag="0"/>
			<psa30 value="0.0021301764571" flag="0"/>
		</comp>
		<comp name=".HNZ" depth="0.0">
			<acc value="0.049221324" flag="0"/>
			<vel value="0.015458" flag="0"/>
			<psa03 value="0.0459949884036" flag="0"/>
			<psa10 value="0.0285218144529" flag="0"/>
			<psa30 value="0.00312076891162" flag="0"/>
		</comp>
	</station>
	<station code="EZNE" name="EZNE" netid="KO" source="Bogazici University Kandilli Observatory And Earthquake Research Institute (KOERI)" insttype="" lat="39.756" lon="26.3655">
		<comp name=".HNE" depth="0.0">
			<acc value="0.007160502" flag="0"/>
			<vel value="0.004649" flag="0"/>
			<psa03 value="0.0149886392171" flag="0"/>
			<psa10 value="0.00684958441119" flag="0"/>
			<psa30 value="0.000982538857337" flag="0"/>
		</comp>
		<comp name=".HNN" depth="0.0">
			<acc value="0.009566376" flag="0"/>
			<vel value="0.005366" flag="0"/>
			<psa03 value="0.0212525481437" flag="0"/>
			<psa10 value="0.00649925293337" flag="0"/>
			<psa30 value="0.00105323154379" flag="0"/>
		</comp>
		<comp name=".HNZ" depth="0.0">
			<acc value="0.006806868" flag="0"/>
			<vel value="0.003165" flag="0"/>
			<psa03 value="0.0127515288862" flag="0"/>
			<psa10 value="0.00335029643158" flag="0"/>
			<psa30 value="0.00151541853816" flag="0"/>
		</comp>
	</station>
	<station code="FOCM" name="FOCM" netid="KO" source="Bogazici University Kandilli Observatory And Earthquake Research Institute (KOERI)" insttype="" lat="38.7131" lon="26.7309">
		<comp name=".HNE" depth="0.0">
			<acc value="0.015280314" flag="0"/>
			<vel value="0.005995" flag="0"/>
			<psa03 value="0.0219684234496" flag="0"/>
			<psa10 value="0.00602409069908" flag="0"/>
			<psa30 value="0.000502902402389" flag="0"/>
		</comp>
		<comp name=".HNN" depth="0.0">
			<acc value="0.020678358" flag="0"/>
			<vel value="0.007618" flag="0"/>
			<psa03 value="0.024384502607" flag="0"/>
			<psa10 value="0.0098898173509" flag="0"/>
			<psa30 value="0.000568673446118" flag="0"/>
		</comp>
		<comp name=".HNZ" depth="0.0">
			<acc value="0.012866994" flag="0"/>
			<vel value="0.003444" flag="0"/>
			<psa03 value="0.0170915229282" flag="0"/>
			<psa10 value="0.00251272232368" flag="0"/>
			<psa30 value="0.000363754139807" flag="0"/>
		</comp>
	</station>
	<station code="GMLD" name="GMLD" netid="KO" source="Bogazici University Kandilli Observatory And Earthquake Research Institute (KOERI)" insttype="" lat="38.0766" lon="26.9157">
		<comp name=".HNE" depth="0.0">
			<acc value="1.263199008" flag="0"/>
			<vel value="0.410669" flag="0"/>
			<psa03 value="1.86221538166" flag="0"/>
			<psa10 value="0.214197497698" flag="0"/>
			<psa30 value="0.0154740921589" flag="0"/>
		</comp>
		<comp name=".HNN" depth="0.0">
			<acc value="1.821701334" flag="0"/>
			<vel value="0.702512" flag="0"/>
			<psa03 value="1.67850388128" flag="0"/>
			<psa10 value="0.285053045787" flag="0"/>
			<psa30 value="0.0193514517845" flag="0"/>
		</comp>
		<comp name=".HNZ" depth="0.0">
			<acc value="0.902885028" flag="0"/>
			<vel value="0.217503" flag="0"/>
			<psa03 value="1.10437188596" flag="0"/>
			<psa10 value="0.048059841239" flag="0"/>
			<psa30 value="0.00651714981602" flag="0"/>
		</comp>
	</station>
	<station code="GOMA" name="GOMA" netid="KO" source="Bogazici University Kandilli Observatory And Earthquake Research Institute (KOERI)" insttype="" lat="38.7077" lon="27.9175">
		<comp name=".HNE" depth="0.0">
			<acc value="0.014486448" flag="0"/>
			<vel value="0.006181" flag="0"/>
			<psa03 value="0.0479189032882" flag="0"/>
			<psa10 value="0.00260131189279" flag="0"/>
			<psa30 value="0.000376729379726" flag="0"/>
		</comp>
		<comp name=".HNN" depth="0.0">
			<acc value="0.00706656" flag="0"/>
			<vel value="0.003392" flag="0"/>
			<psa03 value="0.0205814150444" flag="0"/>
			<psa10 value="0.00333418923719" flag="0"/>
			<psa30 value="0.000402232437498" flag="0"/>
		</comp>
		<comp name=".HNZ" depth="0.0">
			<acc value="0.01076763" flag="0"/>
			<vel value="0.004558" flag="0"/>
			<psa03 value="0.0192838910525" flag="0"/>
			<psa10 value="0.00273822304504" flag="0"/>
			<psa30 value="0.000390599463778" flag="0"/>
		</comp>
	</station>
	<station code="GORD" name="GORD" netid="KO" source="Bogazici University Kandilli Observatory And Earthquake Research Institute (KOERI)" insttype="" lat="38.9088" lon="28.1769">
		<comp name=".HNE" depth="0.0">
			<acc value="0.021105228" flag="0"/>
			<vel value="0.014347" flag="0"/>
			<psa03 value="0.0718112416223" flag="0"/>
			<psa10 value="0.0191152129335" flag="0"/>
			<psa30 value="0.00218386710504" flag="0"/>
		</comp>
		<comp name=".HNN" depth="0.0">
			<acc value="0.01439067" flag="0"/>
			<vel value="0.012213" flag="0"/>
			<psa03 value="0.0305141849137" flag="0"/>
			<psa10 value="0.0183179068116" flag="0"/>
			<psa30 value="0.00301025566128" flag="0"/>
		</comp>
		<comp name=".HNZ" depth="0.0">
			<acc value="0.012172272" flag="0"/>
			<vel value="0.011688" flag="0"/>
			<psa03 value="0.029306145335" flag="0"/>
			<psa10 value="0.0163528290969" flag="0"/>
			<psa30 value="0.0013270538483" flag="0"/>
		</comp>
	</station>
	<station code="KUSD" name="KUSD" netid="KO" source="Bogazici University Kandilli Observatory And Earthquake Research Institute (KOERI)" insttype="" lat="37.8606" lon="27.2868">
		<comp name=".HNE" depth="0.0">
			<acc value="0.382680336" flag="0"/>
			<vel value="0.145729" flag="0"/>
			<psa03 value="0.393149769555" flag="0"/>
			<psa10 value="0.0778742580412" flag="0"/>
			<psa30 value="0.0106669894799" flag="0"/>
		</comp>
		<comp name=".HNN" depth="0.0">
			<acc value="0.352725282" flag="0"/>
			<vel value="0.137021" flag="0"/>
			<psa03 value="0.704108105552" flag="0"/>
			<psa10 value="0.102836382536" flag="0"/>
			<psa30 value="0.0106450657986" flag="0"/>
		</comp>
		<comp name=".HNZ" depth="0.0">
			<acc value="0.227988564" flag="0"/>
			<vel value="0.078151" flag="0"/>
			<psa03 value="0.236462561978" flag="0"/>
			<psa10 value="0.0458128876226" flag="0"/>
			<psa30 value="0.00493774992239" flag="0"/>
		</comp>
	</station>
	<station code="NAZL" name="NAZL" netid="KO" source="Bogazici University Kandilli Observatory And Earthquake Research Institute (KOERI)" insttype="" lat="37.9641" lon="28.2922">
		<comp name=".HNE" depth="0.0">
			<acc value="0.070803912" flag="0"/>
			<vel value="0.030693" flag="0"/>
			<psa03 value="0.171989042241" flag="0"/>
			<psa10 value="0.0157085413216" flag="0"/>
			<psa30 value="0.00146396500055" flag="0"/>
		</comp>
		<comp name=".HNN" depth="0.0">
			<acc value="0.072697848" flag="0"/>
			<vel value="0.025539" flag="0"/>
			<psa03 value="0.148007219493" flag="0"/>
			<psa10 value="0.0228279212387" flag="0"/>
			<psa30 value="0.002345833893" flag="0"/>
		</comp>
		<comp name=".HNZ" depth="0.0">
			<acc value="0.022677252" flag="0"/>
			<vel value="0.010117" flag="0"/>
			<psa03 value="0.0491269428669" flag="0"/>
			<psa10 value="0.0130266934569" flag="0"/>
			<psa30 value="0.00137492800938" flag="0"/>
		</comp>
	</station>
	<station code="SOMA" name="SOMA" netid="KO" source="Bogazici University Kandilli Observatory And Earthquake Research Institute (KOERI)" insttype="" lat="39.1564" lon="27.5341">
		<comp name=".HNE" depth="0.0">
			<acc value="0.044743116" flag="0"/>
			<vel value="0.020103" flag="0"/>
			<psa03 value="0.10160955123" flag="0"/>
			<psa10 value="0.0153421026494" flag="0"/>
			<psa30 value="0.00219997429942" flag="0"/>
		</comp>
		<comp name=".HNN" depth="0.0">
			<acc value="0.060677658" flag="0"/>
			<vel value="0.018775" flag="0"/>
			<psa03 value="0.0854128724343" flag="0"/>
			<psa10 value="0.0206977447816" flag="0"/>
			<psa30 value="0.00218923616983" flag="0"/>
		</comp>
		<comp name=".HNZ" depth="0.0">
			<acc value="0.048757122" flag="0"/>
			<vel value="0.019143" flag="0"/>
			<psa03 value="0.0381651022454" flag="0"/>
			<psa10 value="0.00918915439526" flag="0"/>
			<psa30 value="0.00165143484628" flag="0"/>
		</comp>
	</station>
	<station code="YKAV" name="YKAV" netid="KO" source="Bogazici University Kandilli Observatory And Earthquake Research Institute (KOERI)" insttype="" lat="37.1246" lon="27.2801">
		<comp name=".HNE" depth="0.0">
			<acc value="0.011423388" flag="0"/>
			<vel value="0.008488" flag="0"/>
			<psa03 value="0.0236686273011" flag="0"/>
