<?xml version="1.0" encoding="UTF-8" standalone="yes"?>
<!DOCTYPE earthquake SYSTEM "stationlist.dtd">
<stationlist created="" xmlns="ch.ethz.sed.shakemap.usgs.xml">
  <station code="KRL1" name="KRL1" netid="HI" insttype="CMG-5TD,ACCELEROMETER,GURALP" lat="37.7951" lon="26.7065">
    <comp name="--.HNE">
      <acc value="0.2661283641" flag="0"/>
      <vel value="0.0892694554" flag="0"/>
      <psa03 value="0.5535461035" flag="0"/>
      <psa10 value="0.0224880749" flag="0"/>
      <psa30 value="0.0026386622" flag="0"/>
    </comp>
    <comp name="--.HNZ">
      <acc value="0.0753850035" flag="0"/>
      <vel value="0.0212013141" flag="0"/>
      <psa03 value="0.1423693509" flag="0"/>
      <psa10 value="0.0141260609" flag="0"/>
      <psa30 value="0.0010447038" flag="0"/>
    </comp>
    <comp name="--.HNN">
      <acc value="0.2380062401" flag="0"/>
      <vel value="0.0837285536" flag="0"/>
      <psa03 value="0.2751851155" flag="0"/>
      <psa10 value="0.0263066087" flag="0"/>
      <psa30 value="0.0022834607" flag="0"/>
    </comp>
  </station>
  <station code="EAG2" name="EAG2" netid="HL" insttype="SMART24" lat="38.5438" lon="26.1079">
    <comp name="--.HHZ">
      <acc value="0.0464129025" flag="0"/>
      <vel value="0.0186015591" flag="0"/>
      <psa03 value="0.1280736430" flag="0"/>
      <psa10 value="0.0124661059" flag="0"/>
      <psa30 value="0.0011050593" flag="0"/>
    </comp>
    <comp name="--.HHN">
      <acc value="0.0952878184" flag="0"/>
      <vel value="0.0517311393" flag="0"/>
      <psa03 value="0.3224215038" flag="0"/>
      <psa10 value="0.0192576238" flag="0"/>
      <psa30 value="0.0019622591" flag="0"/>
    </comp>
    <comp name="--.HHE">
      <acc value="0.0814151354" flag="0"/>
      <vel value="0.0488038395" flag="0"/>
      <psa03 value="0.2807127212" flag="0"/>
      <psa10 value="0.0210854142" flag="0"/>
      <psa30 value="0.0018173396" flag="0"/>
    </comp>
  </station>
  <station code="CHOS" name="CHOS" netid="HT" insttype="100" lat="38.3869" lon="26.0506">
    <comp name="--.HHN">
      <acc value="0.0159584905" flag="0"/>
      <vel value="0.0057716314" flag="0"/>
      <psa03 value="0.0322503762" flag="0"/>
      <psa10 value="0.0071016179" flag="0"/>
      <psa30 value="0.0003899714" flag="0"/>
    </comp>
    <comp name="--.HHE">
      <acc value="0.0258716324" flag="0"/>
      <vel value="0.0095242916" flag="0"/>
      <psa03 value="0.0410964502" flag="0"/>
      <psa10 value="0.0058108616" flag="0"/>
      <psa30 value="0.0003882024" flag="0"/>
    </comp>
    <comp name="--.HHZ">
      <acc value="0.0075070791" flag="0"/>
      <vel value="0.0045828303" flag="0"/>
      <psa03 value="0.0130634133" flag="0"/>
      <psa10 value="0.0036964322" flag="0"/>
      <psa30 value="0.0003264917" flag="0"/>
    </comp>
  </station>
  <station code="GMLD" name="GMLD" netid="KO" insttype="100" lat="38.0764" lon="26.8747">
    <comp name="--.HNN">
      <acc value="0.2877536358" flag="0"/>
      <vel value="0.1106371902" flag="0"/>
      <psa03 value="0.2645937907" flag="0"/>
      <psa10 value="0.0453366943" flag="0"/>
      <psa30 value="0.0029162865" flag="0"/>
    </comp>
    <comp name="--.HNE">
      <acc value="0.1974166501" flag="0"/>
      <vel value="0.0652920991" flag="0"/>
      <psa03 value="0.2944724071" flag="0"/>
      <psa10 value="0.0340142341" flag="0"/>
      <psa30 value="0.0023585300" flag="0"/>
    </comp>
    <comp name="--.HNZ">
      <acc value="0.1532345644" flag="0"/>
      <vel value="0.0337478050" flag="0"/>
      <psa03 value="0.1728003937" flag="0"/>
      <psa10 value="0.0075369720" flag="0"/>
      <psa30 value="0.0009885877" flag="0"/>
    </comp>
  </station>
  <station code="KUSD" name="KUSD" netid="KO" insttype="100" lat="37.86" lon="27.2815">
    <comp name="--.HNZ">
      <acc value="0.0357733418" flag="0"/>
      <vel value="0.0124378278" flag="0"/>
      <psa03 value="0.0375613293" flag="0"/>
      <psa10 value="0.0072781069" flag="0"/>
      <psa30 value="0.0007392889" flag="0"/>
    </comp>
    <comp name="--.HNN">
      <acc value="0.0568076336" flag="0"/>
      <vel value="0.0216985310" flag="0"/>
      <psa03 value="0.1112606897" flag="0"/>
      <psa10 value="0.0163623716" flag="0"/>
      <psa30 value="0.0016586613" flag="0"/>
    </comp>
    <comp name="--.HNE">
      <acc value="0.0623996043" flag="0"/>
      <vel value="0.0231548659" flag="0"/>
      <psa03 value="0.0618727161" flag="0"/>
      <psa10 value="0.0124223490" flag="0"/>
      <psa30 value="0.0016377966" flag="0"/>
    </comp>
  </station>
  <station code="AYDN" name="AYDN" netid="TU" source="ODC" insttype="T" lat="37.6608" lon="27.8792">
    <comp name="--.HHE">
      <acc value="0.0312640758" flag="0"/>
      <vel value="0.0104102668" flag="0"/>
      <psa03 value="0.0474709618" flag="0"/>
      <psa10 value="0.0121731783" flag="0"/>
      <psa30 value="0.0007958915" flag="0"/>
    </comp>
    <comp name="--.HHN">
      <acc value="0.0261793264" flag="0"/>
      <vel value="0.0103165716" flag="0"/>
      <psa03 value="0.0480704510" flag="0"/>
      <psa10 value="0.0081200389" flag="0"/>
      <psa30 value="0.0007834468" flag="0"/>
    </comp>
    <comp name="--.HHZ">
      <acc value="0.0227647111" flag="0"/>
      <vel value="0.0047972321" flag="0"/>
      <psa03 value="0.0150196417" flag="0"/>
      <psa10 value="0.0081547186" flag="0"/>
      <psa30 value="0.0004682381" flag="0"/>
    </comp>
  </station>
</stationlist>
