<stationlist created="1778135793">
	<station code="KRL1" name="KRL1" netid="HI" source="ITSAK Strong Motion Network" insttype="" lat="37.7951" lon="26.7065">
		<comp name="--.HNE" depth="0.0">
			<acc value="0.264570395599548" flag="0"/>
			<vel value="0.0900495835393983" flag="0"/>
			<psa03 value="0.563528092357133" flag="0"/>
			<psa10 value="0.0226185277117349" flag="0"/>
			<psa30 value="0.00279773017984053" flag="0"/>
		</comp>
		<comp name="--.HNN" depth="0.0">
			<acc value="0.238712864157218" flag="0"/>
			<vel value="0.0843446641898346" flag="0"/>
			<psa03 value="0.282591777001004" flag="0"/>
			<psa10 value="0.0265446563424883" flag="0"/>
			<psa30 value="0.00220802789661171" flag="0"/>
		</comp>
		<comp name="--.HNZ" depth="0.0">
			<acc value="0.0748666449030364" flag="0"/>
			<vel value="0.0218922465694544" flag="0"/>
			<psa03 value="0.147022890947641" flag="0"/>
			<psa10 value="0.0141541970636903" flag="0"/>
			<psa30 value="0.00112392423025099" flag="0"/>
		</comp>
	</station>
	<station code="MYT1" name="MYT1" netid="HI" source="ITSAK Strong Motion Network" insttype="" lat="39.085" lon="26.5694">
		<comp name="--.HNE" depth="0.0">
			<acc value="0.00568035808081983" flag="0"/>
			<vel value="0.00571265368016101" flag="0"/>
			<psa03 value="0.0181042097317114" flag="0"/>
			<psa10 value="0.0111033146025901" flag="0"/>
			<psa30 value="0.000785793773729379" flag="0"/>
		</comp>
		<comp name="--.HNN" depth="0.0">
			<acc value="0.00659396372456478" flag="0"/>
			<vel value="0.00608244742957025" flag="0"/>
			<psa03 value="0.00854125852479266" flag="0"/>
			<psa10 value="0.0108319466257901" flag="0"/>
			<psa30 value="0.00117336814654689" flag="0"/>
		</comp>
		<comp name="--.HNZ" depth="0.0">
			<acc value="0.00332695547091522" flag="0"/>
			<vel value="0.00349352199406197" flag="0"/>
			<psa03 value="0.00809455380257876" flag="0"/>
			<psa10 value="0.00610184734243216" flag="0"/>
			<psa30 value="0.000692119599528022" flag="0"/>
		</comp>
	</station>
	<station code="KLNA" name="KLNA" netid="HL" source="National Observatory of Athens Seismic Network" insttype="" lat="36.95708" lon="26.97274">
		<comp name="00.HNE" depth="0.0">
			<acc value="0.0273959404364255" flag="0"/>
			<vel value="0.0124873003502979" flag="0"/>
			<psa03 value="0.108589335462546" flag="0"/>
			<psa10 value="0.00910861842334776" flag="0"/>
			<psa30 value="0.000612968230670323" flag="0"/>
		</comp>
		<comp name="00.HNN" depth="0.0">
			<acc value="0.0234759505554327" flag="0"/>
			<vel value="0.0131047770746758" flag="0"/>
			<psa03 value="0.0743168051929494" flag="0"/>
			<psa10 value="0.00963210224078154" flag="0"/>
			<psa30 value="0.000492164272800989" flag="0"/>
		</comp>
		<comp name="00.HNZ" depth="0.0">
			<acc value="0.0238272691785387" flag="0"/>
			<vel value="0.00761943521923771" flag="0"/>
			<psa03 value="0.0292614031283497" flag="0"/>
			<psa10 value="0.00691803998731718" flag="0"/>
			<psa30 value="0.000505586934786471" flag="0"/>
		</comp>
	</station>
	<station code="PRK" name="PRK" netid="HL" source="National Observatory of Athens Seismic Network" insttype="" lat="39.24565" lon="26.26499">
		<comp name="--.HNE" depth="0.0">
			<acc value="0.00510501618099383" flag="0"/>
			<vel value="0.00369318336664631" flag="0"/>
			<psa03 value="0.0082635005413446" flag="0"/>
			<psa10 value="0.00869745803892177" flag="0"/>
			<psa30 value="0.000355367395512527" flag="0"/>
		</comp>
		<comp name="--.HNN" depth="0.0">
			<acc value="0.00435783354353276" flag="0"/>
			<vel value="0.0029337725923237" flag="0"/>
			<psa03 value="0.0106903676896164" flag="0"/>
			<psa10 value="0.00567222544460377" flag="0"/>
			<psa30 value="0.000471768439843607" flag="0"/>
		</comp>
		<comp name="--.HNZ" depth="0.0">
			<acc value="0.00291780289619905" flag="0"/>
			<vel value="0.00194669461741561" flag="0"/>
			<psa03 value="0.00773715577778044" flag="0"/>
			<psa10 value="0.00278930165254693" flag="0"/>
			<psa30 value="0.000223595801707763" flag="0"/>
		</comp>
	</station>
	<station code="AKS" name="AKS" netid="KO" source="Bogazici University Kandilli Observatory And Earthquake Research Institute (KOERI)" insttype="" lat="38.8785" lon="27.8129">
		<comp name="--.HNE" depth="0.0">
			<acc value="0.00989356639718641" flag="0"/>
			<vel value="0.00357082007700874" flag="0"/>
			<psa03 value="0.0167783274818519" flag="0"/>
			<psa10 value="0.00278654462818596" flag="0"/>
			<psa30 value="0.000506481778918836" flag="0"/>
		</comp>
		<comp name="--.HNN" depth="0.0">
			<acc value="0.00856060505681867" flag="0"/>
			<vel value="0.00416688397114646" flag="0"/>
			<psa03 value="0.014317506117847" flag="0"/>
			<psa10 value="0.00186038095118774" flag="0"/>
			<psa30 value="0.000546302342809098" flag="0"/>
		</comp>
		<comp name="--.HNZ" depth="0.0">
			<acc value="0.00393594419140498" flag="0"/>
			<vel value="0.00106019873191117" flag="0"/>
			<psa03 value="0.00501112714124644" flag="0"/>
			<psa10 value="0.00117179839133254" flag="0"/>
			<psa30 value="0.000379861334189127" flag="0"/>
		</comp>
	</station>
	<station code="CESE" name="CESE" netid="KO" source="Bogazici University Kandilli Observatory And Earthquake Research Institute (KOERI)" insttype="" lat="38.3306" lon="26.2997">
		<comp name="--.HNE" depth="0.0">
			<acc value="0.00687868999154476" flag="0"/>
			<vel value="0.0022728455469778" flag="0"/>
			<psa03 value="0.0096643166295467" flag="0"/>
			<psa10 value="0.00302412574532899" flag="0"/>
			<psa30 value="0.000621021827861612" flag="0"/>
		</comp>
		<comp name="--.HNN" depth="0.0">
			<acc value="0.00896284270638193" flag="0"/>
			<vel value="0.00362666629036493" flag="0"/>
			<psa03 value="0.017449460581126" flag="0"/>
			<psa10 value="0.00313284930741139" flag="0"/>
			<psa30 value="0.000480531299080239" flag="0"/>
		</comp>
		<comp name="--.HNZ" depth="0.0">
			<acc value="0.00722501124099426" flag="0"/>
			<vel value="0.00153967335659712" flag="0"/>
			<psa03 value="0.00917215235674571" flag="0"/>
			<psa10 value="0.00221473922760445" flag="0"/>
			<psa30 value="0.000482320987344969" flag="0"/>
		</comp>
	</station>
	<station code="DATC" name="DATC" netid="KO" source="Bogazici University Kandilli Observatory And Earthquake Research Institute (KOERI)" insttype="" lat="36.7584" lon="27.6602">
		<comp name="--.HNE" depth="0.0">
			<acc value="0.0407610085948126" flag="0"/>
			<vel value="0.0216782336873287" flag="0"/>
			<psa03 value="0.0730640234076378" flag="0"/>
			<psa10 value="0.037839826403271" flag="0"/>
			<psa30 value="0.00315924720931617" flag="0"/>
		</comp>
		<comp name="--.HNN" depth="0.0">
			<acc value="0.0481944416395912" flag="0"/>
			<vel value="0.0377547424175504" flag="0"/>
			<psa03 value="0.101654293436713" flag="0"/>
			<psa10 value="0.0414478379449684" flag="0"/>
			<psa30 value="0.00213017645709592" flag="0"/>
		</comp>
		<comp name="--.HNZ" depth="0.0">
			<acc value="0.0502935759231986" flag="0"/>
			<vel value="0.0150423114010969" flag="0"/>
			<psa03 value="0.0459949884035834" flag="0"/>
			<psa10 value="0.0285218144529497" flag="0"/>
			<psa30 value="0.00312076891162445" flag="0"/>
		</comp>
	</station>
	<station code="EZNE" name="EZNE" netid="KO" source="Bogazici University Kandilli Observatory And Earthquake Research Institute (KOERI)" insttype="" lat="39.756" lon="26.3655">
		<comp name="--.HNE" depth="0.0">
			<acc value="0.00723033026120503" flag="0"/>
			<vel value="0.00444803186293404" flag="0"/>
			<psa03 value="0.014988639217121" flag="0"/>
			<psa10 value="0.00684958441119122" flag="0"/>
			<psa30 value="0.000982538857337247" flag="0"/>
		</comp>
		<comp name="--.HNN" depth="0.0">
			<acc value="0.00978430901423246" flag="0"/>
			<vel value="0.00547510082218195" flag="0"/>
			<psa03 value="0.0212525481436791" flag="0"/>
			<psa10 value="0.00649925293337015" flag="0"/>
			<psa30 value="0.00105323154379412" flag="0"/>
		</comp>
		<comp name="--.HNZ" depth="0.0">
			<acc value="0.00690376477304947" flag="0"/>
			<vel value="0.00261470300775419" flag="0"/>
			<psa03 value="0.0127515288862075" flag="0"/>
			<psa10 value="0.00335029643157619" flag="0"/>
			<psa30 value="0.00151541853816086" flag="0"/>
		</comp>
	</station>
	<station code="FOCM" name="FOCM" netid="KO" source="Bogazici University Kandilli Observatory And Earthquake Research Institute (KOERI)" insttype="" lat="38.7131" lon="26.7309">
		<comp name="--.HNE" depth="0.0">
			<acc value="0.0151589824493316" flag="0"/>
			<vel value="0.00571714960613799" flag="0"/>
			<psa03 value="0.0219684234495714" flag="0"/>
			<psa10 value="0.00602409069908411" flag="0"/>
			<psa30 value="0.000502902402389374" flag="0"/>
		</comp>
		<comp name="--.HNN" depth="0.0">
			<acc value="0.0202352179312572" flag="0"/>
			<vel value="0.00746457257466311" flag="0"/>
			<psa03 value="0.0243845026069581" flag="0"/>
			<psa10 value="0.00988981735090279" flag="0"/>
			<psa30 value="0.000568673446118234" flag="0"/>
		</comp>
		<comp name="--.HNZ" depth="0.0">
			<acc value="0.0127755578867343" flag="0"/>
			<vel value="0.00351385317238198" flag="0"/>
			<psa03 value="0.0170915229281798" flag="0"/>
			<psa10 value="0.00251272232368214" flag="0"/>
			<psa30 value="0.000363754139806549" flag="0"/>
		</comp>
	</station>
	<station code="GMLD" name="GMLD" netid="KO" source="Bogazici University Kandilli Observatory And Earthquake Research Institute (KOERI)" insttype="" lat="38.0766" lon="26.9157">
		<comp name="--.HNE" depth="0.0">
			<acc value="1.27204447939123" flag="0"/>
			<vel value="0.413622097097976" flag="0"/>
			<psa03 value="1.86221538165909" flag="0"/>
			<psa10 value="0.214197497698116" flag="0"/>
			<psa30 value="0.0154740921589293" flag="0"/>
		</comp>
		<comp name="--.HNN" depth="0.0">
			<acc value="1.82681619494892" flag="0"/>
			<vel value="0.706784544291508" flag="0"/>
			<psa03 value="1.67850388128447" flag="0"/>
			<psa10 value="0.285053045787076" flag="0"/>
			<psa30 value="0.0193514517844687" flag="0"/>
		</comp>
		<comp name="--.HNZ" depth="0.0">
			<acc value="0.93257994679876" flag="0"/>
			<vel value="0.219843027560648" flag="0"/>
			<psa03 value="1.1043718859588" flag="0"/>
			<psa10 value="0.0480598412390166" flag="0"/>
			<psa30 value="0.00651714981601746" flag="0"/>
		</comp>
	</station>
	<station code="GOMA" name="GOMA" netid="KO" source="Bogazici University Kandilli Observatory And Earthquake Research Institute (KOERI)" insttype="" lat="38.7077" lon="27.9175">
		<comp name="--.HNE" depth="0.0">
			<acc value="0.0145065814436527" flag="0"/>
			<vel value="0.00617641478468444" flag="0"/>
			<psa03 value="0.047918903288169" flag="0"/>
			<psa10 value="0.00260131189278632" flag="0"/>
			<psa30 value="0.000376729379725848" flag="0"/>
		</comp>
		<comp name="--.HNN" depth="0.0">
			<acc value="0.00709413431896407" flag="0"/>
			<vel value="0.00338840135371533" flag="0"/>
			<psa03 value="0.020581415044405" flag="0"/>
			<psa10 value="0.00333418923719361" flag="0"/>
			<psa30 value="0.000402232437498263" flag="0"/>
		</comp>
		<comp name="--.HNZ" depth="0.0">
			<acc value="0.010826549596353" flag="0"/>
			<vel value="0.00460062514754056" flag="0"/>
			<psa03 value="0.0192838910524751" flag="0"/>
			<psa10 value="0.00273822304503823" flag="0"/>
			<psa30 value="0.000390599463777512" flag="0"/>
		</comp>
	</station>
	<station code="GORD" name="GORD" netid="KO" source="Bogazici University Kandilli Observatory And Earthquake Research Institute (KOERI)" insttype="" lat="38.9088" lon="28.1769">
		<comp name="--.HNE" depth="0.0">
			<acc value="0.0211283423768023" flag="0"/>
			<vel value="0.0144348726104828" flag="0"/>
			<psa03 value="0.0718112416223262" flag="0"/>
			<psa10 value="0.0191152129335242" flag="0"/>
			<psa30 value="0.00218386710503784" flag="0"/>
		</comp>
		<comp name="--.HNN" depth="0.0">
			<acc value="0.0144162356876136" flag="0"/>
			<vel value="0.0122372529544516" flag="0"/>
			<psa03 value="0.0305141849136613" flag="0"/>
			<psa10 value="0.0183179068115866" flag="0"/>
			<psa30 value="0.00301025566127732" flag="0"/>
		</comp>
		<comp name="--.HNZ" depth="0.0">
			<acc value="0.0121990582292817" flag="0"/>
			<vel value="0.011805712756741" flag="0"/>
			<psa03 value="0.029306145334968" flag="0"/>
			<psa10 value="0.0163528290969121" flag="0"/>
			<psa30 value="0.00132705384829794" flag="0"/>
		</comp>
	</station>
	<station code="KUSD" name="KUSD" netid="KO" source="Bogazici University Kandilli Observatory And Earthquake Research Institute (KOERI)" insttype="" lat="37.8606" lon="27.2868">
		<comp name="--.HNE" depth="0.0">
			<acc value="0.389396292241006" flag="0"/>
			<vel value="0.146771154412241" flag="0"/>
			<psa03 value="0.393149769554754" flag="0"/>
			<psa10 value="0.0778742580411682" flag="0"/>
			<psa30 value="0.0106669894798622" flag="0"/>
		</comp>
		<comp name="--.HNN" depth="0.0">
			<acc value="0.353932527974777" flag="0"/>
			<vel value="0.137732061190875" flag="0"/>
			<psa03 value="0.704108105551743" flag="0"/>
			<psa10 value="0.102836382535568" flag="0"/>
			<psa30 value="0.0106450657986192" flag="0"/>
		</comp>
		<comp name="--.HNZ" depth="0.0">
			<acc value="0.230617279739247" flag="0"/>
			<vel value="0.0788477387275581" flag="0"/>
			<psa03 value="0.236462561977566" flag="0"/>
			<psa10 value="0.045812887622647" flag="0"/>
			<psa30 value="0.00493774992239247" flag="0"/>
		</comp>
	</station>
	<station code="NAZL" name="NAZL" netid="KO" source="Bogazici University Kandilli Observatory And Earthquake Research Institute (KOERI)" insttype="" lat="37.9641" lon="28.2922">
		<comp name="--.HNE" depth="0.0">
			<acc value="0.0711118712452767" flag="0"/>
			<vel value="0.030831106291389" flag="0"/>
			<psa03 value="0.171989042240637" flag="0"/>
			<psa10 value="0.015708541321609" flag="0"/>
			<psa30 value="0.00146396500054985" flag="0"/>
		</comp>
		<comp name="--.HNN" depth="0.0">
			<acc value="0.0728741232960078" flag="0"/>
			<vel value="0.0255285648926127" flag="0"/>
			<psa03 value="0.148007219493243" flag="0"/>
			<psa10 value="0.0228279212387084" flag="0"/>
			<psa30 value="0.00234583389299599" flag="0"/>
		</comp>
		<comp name="--.HNZ" depth="0.0">
			<acc value="0.0228457137229288" flag="0"/>
			<vel value="0.0101622999006775" flag="0"/>
			<psa03 value="0.0491269428668624" flag="0"/>
			<psa10 value="0.0130266934569098" flag="0"/>
			<psa30 value="0.00137492800937949" flag="0"/>
		</comp>
	</station>
	<station code="SOMA" name="SOMA" netid="KO" source="Bogazici University Kandilli Observatory And Earthquake Research Institute (KOERI)" insttype="" lat="39.1564" lon="27.5341">
		<comp name="--.HNE" depth="0.0">
			<acc value="0.0448330356413854" flag="0"/>
			<vel value="0.0201416686326408" flag="0"/>
			<psa03 value="0.101609551230095" flag="0"/>
			<psa10 value="0.0153421026494054" flag="0"/>
			<psa30 value="0.00219997429942042" flag="0"/>
		</comp>
		<comp name="--.HNN" depth="0.0">
			<acc value="0.0609643796587771" flag="0"/>
			<vel value="0.0188928298874509" flag="0"/>
			<psa03 value="0.0854128724342808" flag="0"/>
			<psa10 value="0.0206977447816125" flag="0"/>
			<psa30 value="0.00218923616983204" flag="0"/>
		</comp>
		<comp name="--.HNZ" depth="0.0">
			<acc value="0.0490369922365323" flag="0"/>
			<vel value="0.0192302704330736" flag="0"/>
			<psa03 value="0.0381651022453858" flag="0"/>
			<psa10 value="0.00918915439526065" flag="0"/>
			<psa30 value="0.00165143484628041" flag="0"/>
		</comp>
	</station>
	<station code="YKAV" name="YKAV" netid="KO" source="Bogazici University Kandilli Observatory And Earthquake Research Institute (KOERI)" insttype="" lat="37.1246" lon="27.2801">
		<comp name="--.HNE" depth="0.0">
			<acc value="0.011404980377908" flag="0"/>
			<vel value="0.00831312206981767" flag="0"/>
			<psa03 value="0.0236686273010658" flag="0"/>
			<psa10 value="0.0132199797895008" flag="0"/>
			<psa30 value="0.000670685677207893" flag="0"/>
		</comp>
		<comp name="--.HNN" depth="0.0">
			<acc value="0.00890229163854082" flag="0"/>
			<vel value="0.0084179912786744" flag="0"/>
			<psa03 value="0.0199550241517492" flag="0"/>
			<psa10 value="0.0116455015386038" flag="0"/>
			<psa30 value="0.000528405460161789" flag="0"/>
		</comp>
		<comp name="--.HNZ" depth="0.0">
			<acc value="0.00441396542356718" flag="0"/>
			<vel value="0.00473035869977865" flag="0"/>
			<psa03 value="0.01087235620824" flag="0"/>
			<psa10 value="0.00680528962663913" flag="0"/>
			<psa30 value="0.000461292150234382" flag="0"/>
		</comp>
	</station>
</stationlist>
