<?xml version="1.0" encoding="UTF-8" standalone="yes"?>
<!DOCTYPE earthquake SYSTEM "stationlist.dtd">
<stationlist created="" xmlns="ch.ethz.sed.shakemap.usgs.xml">
  <station code="AFSR" name="AFSR" netid="KO" insttype="CMG-3ESP" lat="39.4468" lon="33.0707">
    <comp name="--.HHE">
      <acc value="0.3797043618" flag="0"/>
      <vel value="0.1738850476" flag="0"/>
      <psa03 value="1.2151710852" flag="0"/>
      <psa10 value="0.1351959967" flag="0"/>
      <psa30 value="0.0071310940" flag="0"/>
    </comp>
    <comp name="--.HHN">
      <acc value="0.4541509685" flag="0"/>
      <vel value="0.2347077629" flag="0"/>
      <psa03 value="1.1698420495" flag="0"/>
      <psa10 value="0.1092394515" flag="0"/>
      <psa30 value="0.0061243878" flag="0"/>
    </comp>
    <comp name="--.HHZ">
      <acc value="0.1016911067" flag="0"/>
      <vel value="0.0499818469" flag="0"/>
      <psa03 value="0.2506874914" flag="0"/>
      <psa10 value="0.0714413078" flag="0"/>
      <psa30 value="0.0034577172" flag="0"/>
    </comp>
  </station>
  <station code="CHBY" name="CHBY" netid="KO" insttype="CMG-6T" lat="38.5823" lon="32.8902">
    <comp name="--.HHN">
      <acc value="0.0115574157" flag="0"/>
      <vel value="0.0080250607" flag="0"/>
      <psa03 value="0.0346097252" flag="0"/>
      <psa10 value="0.0072129997" flag="0"/>
      <psa30 value="0.0008759510" flag="0"/>
    </comp>
    <comp name="--.HHE">
      <acc value="0.0167650650" flag="0"/>
      <vel value="0.0142797666" flag="0"/>
      <psa03 value="0.0415202564" flag="0"/>
      <psa10 value="0.0151294192" flag="0"/>
      <psa30 value="0.0020075048" flag="0"/>
    </comp>
    <comp name="--.HHZ">
      <acc value="0.0097142757" flag="0"/>
      <vel value="0.0052101394" flag="0"/>
      <psa03 value="0.0140544312" flag="0"/>
      <psa10 value="0.0075638483" flag="0"/>
      <psa30 value="0.0006088740" flag="0"/>
    </comp>
  </station>
  <station code="KAMT" name="KAMT" netid="KO" insttype="CMG-3T" lat="39.3692" lon="33.7124">
    <comp name="--.HHN">
      <acc value="0.0143382296" flag="0"/>
      <vel value="0.0055850968" flag="0"/>
      <psa03 value="0.0288998082" flag="0"/>
      <psa10 value="0.0050853402" flag="0"/>
      <psa30 value="0.0005395442" flag="0"/>
    </comp>
    <comp name="--.HHE">
      <acc value="0.0203605254" flag="0"/>
      <vel value="0.0065014318" flag="0"/>
      <psa03 value="0.0371843518" flag="0"/>
      <psa10 value="0.0062089700" flag="0"/>
      <psa30 value="0.0006631358" flag="0"/>
    </comp>
    <comp name="--.HHZ">
      <acc value="0.0106154644" flag="0"/>
      <vel value="0.0042050899" flag="0"/>
      <psa03 value="0.0287826704" flag="0"/>
      <psa10 value="0.0027795143" flag="0"/>
      <psa30 value="0.0006660180" flag="0"/>
    </comp>
  </station>
  <station code="KIZT" name="KIZT" netid="KO" insttype="CMG-3T" lat="38.8808" lon="31.883">
    <comp name="--.HHE">
      <acc value="0.0038581852" flag="0"/>
      <vel value="0.0024088453" flag="0"/>
      <psa03 value="0.0120311013" flag="0"/>
      <psa10 value="0.0044746789" flag="0"/>
      <psa30 value="0.0008319321" flag="0"/>
    </comp>
    <comp name="--.HHN">
      <acc value="0.0069779247" flag="0"/>
      <vel value="0.0057470180" flag="0"/>
      <psa03 value="0.0114345813" flag="0"/>
      <psa10 value="0.0077415650" flag="0"/>
      <psa30 value="0.0006128757" flag="0"/>
    </comp>
    <comp name="--.HHZ">
      <acc value="0.0028851491" flag="0"/>
      <vel value="0.0020521439" flag="0"/>
      <psa03 value="0.0077569179" flag="0"/>
      <psa10 value="0.0025097389" flag="0"/>
      <psa30 value="0.0005587433" flag="0"/>
    </comp>
  </station>
  <station code="KULU" name="KULU" netid="KO" insttype="CMG-6T" lat="39.0343" lon="33.0023">
    <comp name="--.HHZ">
      <acc value="0.6069301146" flag="0"/>
      <vel value="0.1028573870" flag="0"/>
      <psa03 value="0.1794248099" flag="0"/>
      <psa10 value="0.0273187590" flag="0"/>
      <psa30 value="0.0029435098" flag="0"/>
    </comp>
    <comp name="--.HHE">
      <acc value="1.4453901540" flag="0"/>
      <vel value="0.1437063904" flag="0"/>
      <psa03 value="0.5195975688" flag="0"/>
      <psa10 value="0.0765962598" flag="0"/>
      <psa30 value="0.0106471025" flag="0"/>
    </comp>
    <comp name="--.HHN">
      <acc value="1.0414380836" flag="0"/>
      <vel value="0.1064556645" flag="0"/>
      <psa03 value="0.4660439175" flag="0"/>
      <psa10 value="0.0430277332" flag="0"/>
      <psa30 value="0.0042445825" flag="0"/>
    </comp>
  </station>
  <station code="LOD" name="LOD" netid="KO" insttype="CMG-3T" lat="39.8884" lon="32.7634">
    <comp name="--.HHZ">
      <acc value="0.0120095734" flag="0"/>
      <vel value="0.0051886618" flag="0"/>
      <psa03 value="0.0241176813" flag="0"/>
      <psa10 value="0.0076449430" flag="0"/>
      <psa30 value="0.0009359044" flag="0"/>
    </comp>
  </station>
  <station code="POLA" name="POLA" netid="KO" insttype="CMG-6T" lat="39.7005" lon="32.1677">
    <comp name="--.HHE">
      <acc value="0.0170557177" flag="0"/>
      <vel value="0.0123085892" flag="0"/>
      <psa03 value="0.0499731108" flag="0"/>
      <psa10 value="0.0110755051" flag="0"/>
      <psa30 value="0.0005799769" flag="0"/>
    </comp>
    <comp name="--.HHZ">
      <acc value="0.0079016264" flag="0"/>
      <vel value="0.0045123390" flag="0"/>
      <psa03 value="0.0208154582" flag="0"/>
      <psa10 value="0.0039056837" flag="0"/>
      <psa30 value="0.0001906804" flag="0"/>
    </comp>
    <comp name="--.HHN">
      <acc value="0.0198653918" flag="0"/>
      <vel value="0.0160345968" flag="0"/>
      <psa03 value="0.0387120950" flag="0"/>
      <psa10 value="0.0128881901" flag="0"/>
      <psa30 value="0.0006515994" flag="0"/>
    </comp>
  </station>
  <station code="SULT" name="SULT" netid="KO" insttype="CMG-3T" lat="38.1988" lon="33.5157">
    <comp name="--.HHE">
      <acc value="0.0039538709" flag="0"/>
      <vel value="0.0055527018" flag="0"/>
      <psa03 value="0.0120034572" flag="0"/>
      <psa10 value="0.0076564976" flag="0"/>
      <psa30 value="0.0020776889" flag="0"/>
    </comp>
    <comp name="--.HHN">
      <acc value="0.0046739557" flag="0"/>
      <vel value="0.0056161606" flag="0"/>
      <psa03 value="0.0096274601" flag="0"/>
      <psa10 value="0.0060638363" flag="0"/>
      <psa30 value="0.0011170691" flag="0"/>
    </comp>
    <comp name="--.HHZ">
      <acc value="0.0035802652" flag="0"/>
      <vel value="0.0035053317" flag="0"/>
      <psa03 value="0.0109337533" flag="0"/>
      <psa10 value="0.0058131892" flag="0"/>
      <psa30 value="0.0007972738" flag="0"/>
    </comp>
  </station>
</stationlist>
