<?xml version="1.0" encoding="UTF-8" standalone="yes"?>
<!DOCTYPE earthquake SYSTEM "stationlist.dtd">
<stationlist created="" xmlns="ch.ethz.sed.shakemap.usgs.xml">
  <station code="AFSR" name="AFSR" netid="KO" insttype="CMG-3ESP" lat="39.4468" lon="33.0707">
    <comp name="--.HHZ">
      <acc value="0.1016911067" flag="0"/>
      <vel value="0.0499818471" flag="0"/>
      <psa03 value="0.2506874914" flag="0"/>
      <psa10 value="0.0714413078" flag="0"/>
      <psa30 value="0.0034576851" flag="0"/>
    </comp>
    <comp name="--.HHE">
      <acc value="0.3797043618" flag="0"/>
      <vel value="0.1738850463" flag="0"/>
      <psa03 value="1.2151710852" flag="0"/>
      <psa10 value="0.1351959968" flag="0"/>
      <psa30 value="0.0071311483" flag="0"/>
    </comp>
    <comp name="--.HHN">
      <acc value="0.4541509684" flag="0"/>
      <vel value="0.2347077613" flag="0"/>
      <psa03 value="1.1698420495" flag="0"/>
      <psa10 value="0.1092394514" flag="0"/>
      <psa30 value="0.0061245202" flag="0"/>
    </comp>
  </station>
  <station code="CHBY" name="CHBY" netid="KO" insttype="CMG-6T" lat="38.5823" lon="32.8902">
    <comp name="--.HHE">
      <acc value="0.0167650573" flag="0"/>
      <vel value="0.0142797659" flag="0"/>
      <psa03 value="0.0415202564" flag="0"/>
      <psa10 value="0.0151294194" flag="0"/>
      <psa30 value="0.0020073901" flag="0"/>
    </comp>
    <comp name="--.HHZ">
      <acc value="0.0097142815" flag="0"/>
      <vel value="0.0052101381" flag="0"/>
      <psa03 value="0.0140544312" flag="0"/>
      <psa10 value="0.0075638483" flag="0"/>
      <psa30 value="0.0006088919" flag="0"/>
    </comp>
    <comp name="--.HHN">
      <acc value="0.0115574466" flag="0"/>
      <vel value="0.0080250612" flag="0"/>
      <psa03 value="0.0346097252" flag="0"/>
      <psa10 value="0.0072130000" flag="0"/>
      <psa30 value="0.0008759041" flag="0"/>
    </comp>
  </station>
  <station code="KAMT" name="KAMT" netid="KO" insttype="CMG-3T" lat="39.3692" lon="33.7124">
    <comp name="--.HHN">
      <acc value="0.0143382297" flag="0"/>
      <vel value="0.0055850965" flag="0"/>
      <psa03 value="0.0288998082" flag="0"/>
      <psa10 value="0.0050853402" flag="0"/>
      <psa30 value="0.0005395420" flag="0"/>
    </comp>
    <comp name="--.HHE">
      <acc value="0.0203605237" flag="0"/>
      <vel value="0.0065014314" flag="0"/>
      <psa03 value="0.0371843518" flag="0"/>
      <psa10 value="0.0062089700" flag="0"/>
      <psa30 value="0.0006631375" flag="0"/>
    </comp>
    <comp name="--.HHZ">
      <acc value="0.0106154651" flag="0"/>
      <vel value="0.0042050896" flag="0"/>
      <psa03 value="0.0287826704" flag="0"/>
      <psa10 value="0.0027795143" flag="0"/>
      <psa30 value="0.0006660199" flag="0"/>
    </comp>
  </station>
  <station code="KIZT" name="KIZT" netid="KO" insttype="CMG-3T" lat="38.8808" lon="31.883">
    <comp name="--.HHE">
      <acc value="0.0038581858" flag="0"/>
      <vel value="0.0024088458" flag="0"/>
      <psa03 value="0.0120311013" flag="0"/>
      <psa10 value="0.0044746789" flag="0"/>
      <psa30 value="0.0008319228" flag="0"/>
    </comp>
    <comp name="--.HHZ">
      <acc value="0.0028851492" flag="0"/>
      <vel value="0.0020521431" flag="0"/>
      <psa03 value="0.0077569179" flag="0"/>
      <psa10 value="0.0025097389" flag="0"/>
      <psa30 value="0.0005587470" flag="0"/>
    </comp>
    <comp name="--.HHN">
      <acc value="0.0069779245" flag="0"/>
      <vel value="0.0057470177" flag="0"/>
      <psa03 value="0.0114345813" flag="0"/>
      <psa10 value="0.0077415652" flag="0"/>
      <psa30 value="0.0006128876" flag="0"/>
    </comp>
  </station>
  <station code="KULU" name="KULU" netid="KO" insttype="CMG-6T" lat="39.0343" lon="33.0023">
    <comp name="--.HHN">
      <acc value="1.0414380407" flag="0"/>
      <vel value="0.1064558344" flag="0"/>
      <psa03 value="0.4660439179" flag="0"/>
      <psa10 value="0.0430277328" flag="0"/>
      <psa30 value="0.0042425195" flag="0"/>
    </comp>
    <comp name="--.HHE">
      <acc value="1.4453901576" flag="0"/>
      <vel value="0.1437063948" flag="0"/>
      <psa03 value="0.5195975688" flag="0"/>
      <psa10 value="0.0765962585" flag="0"/>
      <psa30 value="0.0106469655" flag="0"/>
    </comp>
    <comp name="--.HHZ">
      <acc value="0.6069301127" flag="0"/>
      <vel value="0.1028573860" flag="0"/>
      <psa03 value="0.1794248099" flag="0"/>
      <psa10 value="0.0273187537" flag="0"/>
      <psa30 value="0.0029435395" flag="0"/>
    </comp>
  </station>
  <station code="LOD" name="LOD" netid="KO" insttype="CMG-3T" lat="39.8884" lon="32.7634">
    <comp name="--.HHZ">
      <acc value="0.0120095735" flag="0"/>
      <vel value="0.0051886619" flag="0"/>
      <psa03 value="0.0241176813" flag="0"/>
      <psa10 value="0.0076449430" flag="0"/>
      <psa30 value="0.0009359040" flag="0"/>
    </comp>
  </station>
  <station code="POLA" name="POLA" netid="KO" insttype="CMG-6T" lat="39.7005" lon="32.1677">
    <comp name="--.HHE">
      <acc value="0.0170557164" flag="0"/>
      <vel value="0.0123085889" flag="0"/>
      <psa03 value="0.0499731108" flag="0"/>
      <psa10 value="0.0110755051" flag="0"/>
      <psa30 value="0.0005799815" flag="0"/>
    </comp>
    <comp name="--.HHN">
      <acc value="0.0198653911" flag="0"/>
      <vel value="0.0160345969" flag="0"/>
      <psa03 value="0.0387120950" flag="0"/>
      <psa10 value="0.0128881901" flag="0"/>
      <psa30 value="0.0006515988" flag="0"/>
    </comp>
    <comp name="--.HHZ">
      <acc value="0.0079016269" flag="0"/>
      <vel value="0.0045123396" flag="0"/>
      <psa03 value="0.0208154582" flag="0"/>
      <psa10 value="0.0039056837" flag="0"/>
      <psa30 value="0.0001906791" flag="0"/>
    </comp>
  </station>
  <station code="SULT" name="SULT" netid="KO" insttype="CMG-3T" lat="38.1988" lon="33.5157">
    <comp name="--.HHZ">
      <acc value="0.0035802653" flag="0"/>
      <vel value="0.0035053318" flag="0"/>
      <psa03 value="0.0109337533" flag="0"/>
      <psa10 value="0.0058131892" flag="0"/>
      <psa30 value="0.0007972812" flag="0"/>
    </comp>
    <comp name="--.HHE">
      <acc value="0.0039538709" flag="0"/>
      <vel value="0.0055527018" flag="0"/>
      <psa03 value="0.0120034572" flag="0"/>
      <psa10 value="0.0076564976" flag="0"/>
      <psa30 value="0.0020776709" flag="0"/>
    </comp>
    <comp name="--.HHN">
      <acc value="0.0046739556" flag="0"/>
      <vel value="0.0056161607" flag="0"/>
      <psa03 value="0.0096274601" flag="0"/>
      <psa10 value="0.0060638362" flag="0"/>
      <psa30 value="0.0011170518" flag="0"/>
    </comp>
  </station>
</stationlist>
