<?xml version="1.0" encoding="UTF-8" standalone="yes"?>
<!DOCTYPE earthquake SYSTEM "stationlist.dtd">
<stationlist created="" xmlns="ch.ethz.sed.shakemap.usgs.xml">
  <station code="BCI" name="BCI" netid="AC" insttype="" lat="42.3666" lon="20.0675">
    <comp name="--.HHE">
      <acc value="0.6671960088" flag="0"/>
      <vel value="0.5670205018" flag="0"/>
      <psa03 value="1.9779977243" flag="0"/>
      <psa10 value="1.1328909104" flag="0"/>
      <psa30 value="0.0422161256" flag="0"/>
    </comp>
    <comp name="--.HHN">
      <acc value="0.9050651143" flag="0"/>
      <vel value="0.6217189392" flag="0"/>
      <psa03 value="3.1582155910" flag="0"/>
      <psa10 value="1.3392845287" flag="0"/>
      <psa30 value="0.0567416830" flag="0"/>
    </comp>
    <comp name="--.HHZ">
      <acc value="0.6673253682" flag="0"/>
      <vel value="0.4456140657" flag="0"/>
      <psa03 value="1.7415822846" flag="0"/>
      <psa10 value="0.7150086179" flag="0"/>
      <psa30 value="0.0352884874" flag="0"/>
    </comp>
  </station>
  <station code="PUK" name="PUK" netid="AC" insttype="" lat="42.0426" lon="19.8926">
    <comp name="--.HHE">
      <acc value="0.1301064548" flag="0"/>
      <vel value="0.0957571329" flag="0"/>
      <psa03 value="0.3105684723" flag="0"/>
      <psa10 value="0.1295622224" flag="0"/>
      <psa30 value="0.0220143203" flag="0"/>
    </comp>
    <comp name="--.HHN">
      <acc value="0.1310812057" flag="0"/>
      <vel value="0.0943393760" flag="0"/>
      <psa03 value="0.2594046804" flag="0"/>
      <psa10 value="0.1359601775" flag="0"/>
      <psa30 value="0.0214599409" flag="0"/>
    </comp>
    <comp name="--.HHZ">
      <acc value="0.0863174990" flag="0"/>
      <vel value="0.0685594514" flag="0"/>
      <psa03 value="0.2199745300" flag="0"/>
      <psa10 value="0.0492694083" flag="0"/>
      <psa30 value="0.0030155849" flag="0"/>
    </comp>
  </station>
  <station code="CEME" name="CEME" netid="ME" insttype="SMART24" lat="42.5465" lon="18.9226">
    <comp name="--.HHE">
      <acc value="19.4052328370" flag="0"/>
      <vel value="2.4260718590" flag="0"/>
      <psa03 value="6.8010452984" flag="0"/>
      <psa10 value="1.7460619477" flag="0"/>
      <psa30 value="0.3892859262" flag="0"/>
    </comp>
    <comp name="--.HHZ">
      <acc value="0.9229438946" flag="0"/>
      <vel value="0.5615225351" flag="0"/>
      <psa03 value="1.7879458899" flag="0"/>
      <psa10 value="0.4967938311" flag="0"/>
      <psa30 value="0.0558103162" flag="0"/>
    </comp>
    <comp name="--.HHN">
      <acc value="0.9860789201" flag="0"/>
      <vel value="0.3962138754" flag="0"/>
      <psa03 value="1.9289574032" flag="0"/>
      <psa10 value="0.4827536041" flag="0"/>
      <psa30 value="0.0564293081" flag="0"/>
    </comp>
  </station>
  <station code="KOME" name="KOME" netid="ME" insttype="SMART24" lat="42.8505" lon="19.5152">
    <comp name="--.HHZ">
      <acc value="0.1545330823" flag="0"/>
      <vel value="0.1603956327" flag="0"/>
      <psa03 value="0.3469509961" flag="0"/>
      <psa10 value="0.2104106123" flag="0"/>
      <psa30 value="0.0345581995" flag="0"/>
    </comp>
    <comp name="--.HHE">
      <acc value="0.2913411689" flag="0"/>
      <vel value="0.1547186481" flag="0"/>
      <psa03 value="0.7541962623" flag="0"/>
      <psa10 value="0.2003272350" flag="0"/>
      <psa30 value="0.0289386777" flag="0"/>
    </comp>
    <comp name="--.HHN">
      <acc value="0.2480237820" flag="0"/>
      <vel value="0.2241195912" flag="0"/>
      <psa03 value="0.6556880247" flag="0"/>
      <psa10 value="0.2658938267" flag="0"/>
      <psa30 value="0.0414507099" flag="0"/>
    </comp>
  </station>
  <station code="PDG" name="PDG" netid="MN" insttype="" lat="42.4297" lon="19.2608">
    <comp name="--.HHE">
      <acc value="0.5201457164" flag="0"/>
      <vel value="0.3049354213" flag="0"/>
      <psa03 value="1.0865622934" flag="0"/>
      <psa10 value="0.4233932705" flag="0"/>
      <psa30 value="0.0250958363" flag="0"/>
    </comp>
    <comp name="--.HHN">
      <acc value="0.5846712299" flag="0"/>
      <vel value="0.4027594174" flag="0"/>
      <psa03 value="1.2823243667" flag="0"/>
      <psa10 value="0.7109499803" flag="0"/>
      <psa30 value="0.0489145755" flag="0"/>
    </comp>
    <comp name="--.HHZ">
      <acc value="0.4106993926" flag="0"/>
      <vel value="0.2330009913" flag="0"/>
      <psa03 value="0.8462934820" flag="0"/>
      <psa10 value="0.2790616930" flag="0"/>
      <psa30 value="0.0147525746" flag="0"/>
    </comp>
  </station>
</stationlist>
