<stationlist created="1778138825">
	<station code="AMUR" name="AMUR" netid="IV" source="Italian National Seismic Network (INSN)" insttype="" lat="40.9071" lon="16.6041">
		<comp name="--.HNE" depth="0.0">
			<acc value="0.0597758012068249" flag="0"/>
			<vel value="0.0646020323851522" flag="0"/>
			<psa03 value="0.178323667234586" flag="0"/>
			<psa10 value="0.0703428023654102" flag="0"/>
			<psa30 value="0.0150098659966172" flag="0"/>
		</comp>
		<comp name="--.HNN" depth="0.0">
			<acc value="0.0542160911013408" flag="0"/>
			<vel value="0.0497631788765169" flag="0"/>
			<psa03 value="0.238753170392676" flag="0"/>
			<psa10 value="0.0607649753814458" flag="0"/>
			<psa30 value="0.0171980776215502" flag="0"/>
		</comp>
		<comp name="--.HNZ" depth="0.0">
			<acc value="0.0412898583212989" flag="0"/>
			<vel value="0.0815151789314527" flag="0"/>
			<psa03 value="0.141947392901566" flag="0"/>
			<psa10 value="0.117303000748278" flag="0"/>
			<psa30 value="0.0289369502642717" flag="0"/>
		</comp>
	</station>
	<station code="MESG" name="MESG" netid="IV" source="Italian National Seismic Network (INSN)" insttype="" lat="40.589408" lon="17.850423">
		<comp name="--.HNE" depth="0.0">
			<acc value="0.0814110348199367" flag="0"/>
			<vel value="0.079460514546089" flag="0"/>
			<psa03 value="0.188783130955812" flag="0"/>
			<psa10 value="0.132375924255313" flag="0"/>
			<psa30 value="0.0155261918673361" flag="0"/>
		</comp>
		<comp name="--.HNN" depth="0.0">
			<acc value="0.107324952518019" flag="0"/>
			<vel value="0.0864596601376396" flag="0"/>
			<psa03 value="0.242693098059989" flag="0"/>
			<psa10 value="0.111147702990037" flag="0"/>
			<psa30 value="0.0119344280973052" flag="0"/>
		</comp>
		<comp name="--.HNZ" depth="0.0">
			<acc value="0.0346470062673251" flag="0"/>
			<vel value="0.0392274074066747" flag="0"/>
			<psa03 value="0.085139009833156" flag="0"/>
			<psa10 value="0.0522875687950161" flag="0"/>
			<psa30 value="0.0154503835120957" flag="0"/>
		</comp>
	</station>
	<station code="MSAG" name="MSAG" netid="IV" source="Italian National Seismic Network (INSN)" insttype="" lat="41.712" lon="15.9096">
		<comp name="--.HNE" depth="0.0">
			<acc value="0.140155212963173" flag="0"/>
			<vel value="0.194088645235512" flag="0"/>
			<psa03 value="0.380043217664772" flag="0"/>
			<psa10 value="0.236949906768235" flag="0"/>
			<psa30 value="0.0741352777650465" flag="0"/>
		</comp>
		<comp name="--.HNN" depth="0.0">
			<acc value="0.204302319507014" flag="0"/>
			<vel value="0.222844760217292" flag="0"/>
			<psa03 value="0.589900369670885" flag="0"/>
			<psa10 value="0.280711285744973" flag="0"/>
			<psa30 value="0.0414545628280176" flag="0"/>
		</comp>
		<comp name="--.HNZ" depth="0.0">
			<acc value="0.0710176004070406" flag="0"/>
			<vel value="0.0873001207048231" flag="0"/>
			<psa03 value="0.191743639574979" flag="0"/>
			<psa10 value="0.145141274897099" flag="0"/>
			<psa30 value="0.0390275153813599" flag="0"/>
		</comp>
	</station>
	<station code="NOCI" name="NOCI" netid="IV" source="Italian National Seismic Network (INSN)" insttype="" lat="40.7888" lon="17.0644">
		<comp name="--.HNE" depth="0.0">
			<acc value="0.120251720840382" flag="0"/>
			<vel value="0.0658047372335356" flag="0"/>
			<psa03 value="0.31557213427164" flag="0"/>
			<psa10 value="0.0972807618729766" flag="0"/>
			<psa30 value="0.0169084967716109" flag="0"/>
		</comp>
		<comp name="--.HNN" depth="0.0">
			<acc value="0.139379869549706" flag="0"/>
			<vel value="0.0758919855581273" flag="0"/>
			<psa03 value="0.410201423831015" flag="0"/>
			<psa10 value="0.0742938916057763" flag="0"/>
			<psa30 value="0.0272533103980652" flag="0"/>
		</comp>
		<comp name="--.HNZ" depth="0.0">
			<acc value="0.0660673312828328" flag="0"/>
			<vel value="0.0846640018619709" flag="0"/>
			<psa03 value="0.185338777784548" flag="0"/>
			<psa10 value="0.112170433240803" flag="0"/>
			<psa30 value="0.0322336986576941" flag="0"/>
		</comp>
	</station>
	<station code="TREM" name="TREM" netid="IV" source="Italian National Seismic Network (INSN)" insttype="" lat="42.123" lon="15.51">
		<comp name="--.HNE" depth="0.0">
			<acc value="0.271399857676063" flag="0"/>
			<vel value="0.400573856601758" flag="0"/>
			<psa03 value="0.436628007795803" flag="0"/>
			<psa10 value="0.660738450681125" flag="0"/>
			<psa30 value="0.0871560003239244" flag="0"/>
		</comp>
		<comp name="--.HNN" depth="0.0">
			<acc value="0.289841219772728" flag="0"/>
			<vel value="0.347533761531498" flag="0"/>
			<psa03 value="0.588926805178506" flag="0"/>
			<psa10 value="0.798399030016992" flag="0"/>
			<psa30 value="0.0613394967738779" flag="0"/>
		</comp>
		<comp name="--.HNZ" depth="0.0">
			<acc value="0.108041023640154" flag="0"/>
			<vel value="0.140800884849922" flag="0"/>
			<psa03 value="0.338887303787336" flag="0"/>
			<psa10 value="0.198567944151875" flag="0"/>
			<psa30 value="0.0635039868274303" flag="0"/>
		</comp>
	</station>
	<station code="BLY" name="BLY" netid="MN" source="Mediterranean Very Broadband Seismographic Network (MedNet)" insttype="" lat="44.7488" lon="17.1839">
		<comp name="--.HNE" depth="1.0">
			<acc value="0.11407237399117" flag="0"/>
			<vel value="0.151941618908318" flag="0"/>
			<psa03 value="0.289188344808707" flag="0"/>
			<psa10 value="0.266222035903362" flag="0"/>
			<psa30 value="0.0636736447331454" flag="0"/>
		</comp>
		<comp name="--.HNN" depth="1.0">
			<acc value="0.102381389698152" flag="0"/>
			<vel value="0.139178326484463" flag="0"/>
			<psa03 value="0.262426905328033" flag="0"/>
			<psa10 value="0.209802083358519" flag="0"/>
			<psa30 value="0.0668574556447648" flag="0"/>
		</comp>
		<comp name="--.HNZ" depth="1.0">
			<acc value="0.083725833650744" flag="0"/>
			<vel value="0.151646844267848" flag="0"/>
			<psa03 value="0.260564656962866" flag="0"/>
			<psa10 value="0.0843460575124369" flag="0"/>
			<psa30 value="0.0379571678094206" flag="0"/>
		</comp>
	</station>
</stationlist>
