<?xml version="1.0" encoding="UTF-8" standalone="yes"?>
<!DOCTYPE earthquake SYSTEM "stationlist.dtd">
<stationlist created="" xmlns="ch.ethz.sed.shakemap.usgs.xml">
  <station code="BCI" name="BCI" netid="AC" insttype="" lat="42.3666" lon="20.0675">
    <comp name="--.HHE">
      <acc value="0.6671960080" flag="0"/>
      <vel value="0.5670205127" flag="0"/>
      <psa03 value="1.9779977243" flag="0"/>
      <psa10 value="1.1328909104" flag="0"/>
      <psa30 value="0.0422161315" flag="0"/>
    </comp>
    <comp name="--.HHZ">
      <acc value="0.6673253679" flag="0"/>
      <vel value="0.4456140635" flag="0"/>
      <psa03 value="1.7415822846" flag="0"/>
      <psa10 value="0.7150086179" flag="0"/>
      <psa30 value="0.0352884982" flag="0"/>
    </comp>
    <comp name="--.HHN">
      <acc value="0.9050651119" flag="0"/>
      <vel value="0.6217189416" flag="0"/>
      <psa03 value="3.1582155910" flag="0"/>
      <psa10 value="1.3392845287" flag="0"/>
      <psa30 value="0.0567417065" flag="0"/>
    </comp>
  </station>
  <station code="PUK" name="PUK" netid="AC" insttype="" lat="42.0426" lon="19.8926">
    <comp name="--.HHE">
      <acc value="0.1301064548" flag="0"/>
      <vel value="0.0957571478" flag="0"/>
      <psa03 value="0.3105684723" flag="0"/>
      <psa10 value="0.1295622224" flag="0"/>
      <psa30 value="0.0220143155" flag="0"/>
    </comp>
    <comp name="--.HHN">
      <acc value="0.1310812057" flag="0"/>
      <vel value="0.0943393874" flag="0"/>
      <psa03 value="0.2594046804" flag="0"/>
      <psa10 value="0.1359601775" flag="0"/>
      <psa30 value="0.0214598926" flag="0"/>
    </comp>
    <comp name="--.HHZ">
      <acc value="0.0863174990" flag="0"/>
      <vel value="0.0685594512" flag="0"/>
      <psa03 value="0.2199745300" flag="0"/>
      <psa10 value="0.0492694083" flag="0"/>
      <psa30 value="0.0030155836" flag="0"/>
    </comp>
  </station>
  <station code="PDG" name="PDG" netid="MN" insttype="" lat="42.4297" lon="19.2608">
    <comp name="--.HHE">
      <acc value="0.5201457164" flag="0"/>
      <vel value="0.3049354208" flag="0"/>
      <psa03 value="1.0865622934" flag="0"/>
      <psa10 value="0.4233932705" flag="0"/>
      <psa30 value="0.0250958290" flag="0"/>
    </comp>
    <comp name="--.HHN">
      <acc value="0.5846712300" flag="0"/>
      <vel value="0.4027594179" flag="0"/>
      <psa03 value="1.2823243667" flag="0"/>
      <psa10 value="0.7109499803" flag="0"/>
      <psa30 value="0.0489145737" flag="0"/>
    </comp>
    <comp name="--.HHZ">
      <acc value="0.4106993926" flag="0"/>
      <vel value="0.2330009919" flag="0"/>
      <psa03 value="0.8462934820" flag="0"/>
      <psa10 value="0.2790616931" flag="0"/>
      <psa30 value="0.0147525798" flag="0"/>
    </comp>
  </station>
</stationlist>
