<?xml version="1.0" encoding="UTF-8" standalone="yes"?>
<!DOCTYPE earthquake SYSTEM "stationlist.dtd">
<stationlist created="" xmlns="ch.ethz.sed.shakemap.usgs.xml">
  <station code="ARPRA" name="ARPRA" netid="KO" insttype="CMG-5T" lat="39.0929" lon="38.3356">
    <comp name="--.HNE">
      <acc value="0.0677561016" flag="0"/>
      <vel value="0.0359176741" flag="0"/>
      <psa03 value="0.2278609785" flag="0"/>
      <psa10 value="0.0277356202" flag="0"/>
      <psa30 value="0.0033111070" flag="0"/>
    </comp>
    <comp name="--.HNN">
      <acc value="0.0717446945" flag="0"/>
      <vel value="0.0434457933" flag="0"/>
      <psa03 value="0.2509128142" flag="0"/>
      <psa10 value="0.0311366582" flag="0"/>
      <psa30 value="0.0019243390" flag="0"/>
    </comp>
    <comp name="--.HNZ">
      <acc value="0.0274581732" flag="0"/>
      <vel value="0.0210744477" flag="0"/>
      <psa03 value="0.1019353684" flag="0"/>
      <psa10 value="0.0385690571" flag="0"/>
      <psa30 value="0.0012381344" flag="0"/>
    </comp>
  </station>
  <station code="SVRC" name="SVRC" netid="KO" insttype="CMG-3T" lat="38.3775" lon="39.306">
    <comp name="--.HHE">
      <acc value="0.0365271298" flag="0"/>
      <vel value="0.0266507769" flag="0"/>
      <psa03 value="0.0782397396" flag="0"/>
      <psa10 value="0.0253090513" flag="0"/>
      <psa30 value="0.0018005909" flag="0"/>
    </comp>
    <comp name="--.HHN">
      <acc value="0.0292123153" flag="0"/>
      <vel value="0.0129970264" flag="0"/>
      <psa03 value="0.0819526311" flag="0"/>
      <psa10 value="0.0143803759" flag="0"/>
      <psa30 value="0.0014290403" flag="0"/>
    </comp>
    <comp name="--.HHZ">
      <acc value="0.0237996797" flag="0"/>
      <vel value="0.0121276338" flag="0"/>
      <psa03 value="0.0861873466" flag="0"/>
      <psa10 value="0.0180339141" flag="0"/>
      <psa30 value="0.0013477223" flag="0"/>
    </comp>
  </station>
  <station code="URFA" name="URFA" netid="KO" insttype="CMG-3ESP" lat="37.4409" lon="38.8213">
    <comp name="--.HHZ">
      <acc value="0.0764571990" flag="0"/>
      <vel value="0.0216584560" flag="0"/>
      <psa03 value="0.1089104363" flag="0"/>
      <psa10 value="0.0206418230" flag="0"/>
      <psa30 value="0.0023175436" flag="0"/>
    </comp>
    <comp name="--.HHN">
      <acc value="0.1288552836" flag="0"/>
      <vel value="0.0353406553" flag="0"/>
      <psa03 value="0.1857734084" flag="0"/>
      <psa10 value="0.0214386861" flag="0"/>
      <psa30 value="0.0042112958" flag="0"/>
    </comp>
    <comp name="--.HHE">
      <acc value="0.1271001850" flag="0"/>
      <vel value="0.0379962612" flag="0"/>
      <psa03 value="0.2615111298" flag="0"/>
      <psa10 value="0.0269744424" flag="0"/>
      <psa30 value="0.0036914776" flag="0"/>
    </comp>
  </station>
</stationlist>
