<?xml version="1.0" encoding="UTF-8" standalone="yes"?>
<!DOCTYPE earthquake SYSTEM "stationlist.dtd">
<stationlist created="" xmlns="ch.ethz.sed.shakemap.usgs.xml">
  <station code="ARPRA" name="ARPRA" netid="KO" insttype="CMG-5T" lat="39.0929" lon="38.3356">
    <comp name="--.HNZ">
      <acc value="0.0274581609" flag="0"/>
      <vel value="0.0210744324" flag="0"/>
      <psa03 value="0.1019353684" flag="0"/>
      <psa10 value="0.0385690571" flag="0"/>
      <psa30 value="0.0012392436" flag="0"/>
    </comp>
    <comp name="--.HNE">
      <acc value="0.0677561037" flag="0"/>
      <vel value="0.0359176784" flag="0"/>
      <psa03 value="0.2278609785" flag="0"/>
      <psa10 value="0.0277356213" flag="0"/>
      <psa30 value="0.0033095019" flag="0"/>
    </comp>
    <comp name="--.HNN">
      <acc value="0.0717446963" flag="0"/>
      <vel value="0.0434457856" flag="0"/>
      <psa03 value="0.2509128142" flag="0"/>
      <psa10 value="0.0311366558" flag="0"/>
      <psa30 value="0.0019231217" flag="0"/>
    </comp>
  </station>
  <station code="DARE" name="DARE" netid="KO" insttype="CMG-3ESP" lat="38.5712" lon="37.4832">
    <comp name="--.HHE">
      <acc value="0.0168634064" flag="0"/>
      <vel value="0.0055645841" flag="0"/>
      <psa03 value="0.0403298876" flag="0"/>
      <psa10 value="0.0066718321" flag="0"/>
      <psa30 value="0.0006866437" flag="0"/>
    </comp>
    <comp name="--.HHZ">
      <acc value="0.0094445922" flag="0"/>
      <vel value="0.0051414173" flag="0"/>
      <psa03 value="0.0287938936" flag="0"/>
      <psa10 value="0.0088343705" flag="0"/>
      <psa30 value="0.0008355861" flag="0"/>
    </comp>
    <comp name="--.HHN">
      <acc value="0.0108774894" flag="0"/>
      <vel value="0.0060834509" flag="0"/>
      <psa03 value="0.0236905892" flag="0"/>
      <psa10 value="0.0059986036" flag="0"/>
      <psa30 value="0.0004399400" flag="0"/>
    </comp>
  </station>
  <station code="SVRC" name="SVRC" netid="KO" insttype="CMG-3T" lat="38.3775" lon="39.306">
    <comp name="--.HHE">
      <acc value="0.0365271297" flag="0"/>
      <vel value="0.0266507766" flag="0"/>
      <psa03 value="0.0782397396" flag="0"/>
      <psa10 value="0.0253090513" flag="0"/>
      <psa30 value="0.0018006118" flag="0"/>
    </comp>
    <comp name="--.HHN">
      <acc value="0.0292123154" flag="0"/>
      <vel value="0.0129970263" flag="0"/>
      <psa03 value="0.0819526311" flag="0"/>
      <psa10 value="0.0143803759" flag="0"/>
      <psa30 value="0.0014290351" flag="0"/>
    </comp>
    <comp name="--.HHZ">
      <acc value="0.0237996797" flag="0"/>
      <vel value="0.0121276338" flag="0"/>
      <psa03 value="0.0861873466" flag="0"/>
      <psa10 value="0.0180339141" flag="0"/>
      <psa30 value="0.0013477185" flag="0"/>
    </comp>
  </station>
  <station code="URFA" name="URFA" netid="KO" insttype="CMG-3ESP" lat="37.4409" lon="38.8213">
    <comp name="--.HHE">
      <acc value="0.1271001850" flag="0"/>
      <vel value="0.0379962612" flag="0"/>
      <psa03 value="0.2615111298" flag="0"/>
      <psa10 value="0.0269744424" flag="0"/>
      <psa30 value="0.0036914846" flag="0"/>
    </comp>
    <comp name="--.HHN">
      <acc value="0.1288552836" flag="0"/>
      <vel value="0.0353406542" flag="0"/>
      <psa03 value="0.1857734084" flag="0"/>
      <psa10 value="0.0214386861" flag="0"/>
      <psa30 value="0.0042112968" flag="0"/>
    </comp>
    <comp name="--.HHZ">
      <acc value="0.0764571990" flag="0"/>
      <vel value="0.0216584545" flag="0"/>
      <psa03 value="0.1089104363" flag="0"/>
      <psa10 value="0.0206418230" flag="0"/>
      <psa30 value="0.0023175437" flag="0"/>
    </comp>
  </station>
</stationlist>
