<?xml version="1.0" encoding="UTF-8" standalone="yes"?>
<!DOCTYPE earthquake SYSTEM "stationlist.dtd">
<stationlist created="" xmlns="ch.ethz.sed.shakemap.usgs.xml">
  <station code="ZKR" name="ZKR" netid="GE" insttype="STS-2/N" lat="35.1147" lon="26.2169">
    <comp name="--.HHE">
      <acc value="0.0072408504" flag="0"/>
      <vel value="0.0063219814" flag="0"/>
      <psa03 value="0.0200639810" flag="0"/>
      <psa10 value="0.0090278823" flag="0"/>
      <psa30 value="0.0013372452" flag="0"/>
    </comp>
    <comp name="--.HHN">
      <acc value="0.0037624911" flag="0"/>
      <vel value="0.0031168735" flag="0"/>
      <psa03 value="0.0144345431" flag="0"/>
      <psa10 value="0.0048178092" flag="0"/>
      <psa30 value="0.0003534720" flag="0"/>
    </comp>
    <comp name="--.HHZ">
      <acc value="0.0034743881" flag="0"/>
      <vel value="0.0022145798" flag="0"/>
      <psa03 value="0.0073686593" flag="0"/>
      <psa10 value="0.0029479389" flag="0"/>
      <psa30 value="0.0002142848" flag="0"/>
    </comp>
  </station>
  <station code="ZKR" name="ZKR" netid="HL" insttype="120" lat="35.1147" lon="26.2169">
    <comp name="--.HHE">
      <acc value="0.0070882377" flag="0"/>
      <vel value="0.0062213053" flag="0"/>
      <psa03 value="0.0195533998" flag="0"/>
      <psa10 value="0.0089704909" flag="0"/>
      <psa30 value="0.0013361412" flag="0"/>
    </comp>
    <comp name="--.HHZ">
      <acc value="0.0035010044" flag="0"/>
      <vel value="0.0021988567" flag="0"/>
      <psa03 value="0.0071852910" flag="0"/>
      <psa10 value="0.0029289786" flag="0"/>
      <psa30 value="0.0002137079" flag="0"/>
    </comp>
    <comp name="--.HHN">
      <acc value="0.0036561107" flag="0"/>
      <vel value="0.0030795392" flag="0"/>
      <psa03 value="0.0140360563" flag="0"/>
      <psa10 value="0.0047885797" flag="0"/>
      <psa30 value="0.0003531697" flag="0"/>
    </comp>
  </station>
</stationlist>
