<stationlist created="1778069403">
	<station code="SIT2" name="SIT2" netid="HI" source="ITSAK Strong Motion Network" insttype="" lat="35.2059" lon="26.107">
		<comp name="--.HNE" depth="0.0">
			<acc value="0.0245076535106643" flag="0"/>
			<vel value="0.0222872729007567" flag="0"/>
			<psa03 value="0.0562409537191676" flag="0"/>
			<psa10 value="0.0162843735207862" flag="0"/>
			<psa30 value="0.00128544359614295" flag="0"/>
		</comp>
		<comp name="--.HNN" depth="0.0">
			<acc value="0.02424417080659" flag="0"/>
			<vel value="0.020712613396719" flag="0"/>
			<psa03 value="0.0656815593156229" flag="0"/>
			<psa10 value="0.0195621875776408" flag="0"/>
			<psa30 value="0.00106933873817669" flag="0"/>
		</comp>
		<comp name="--.HNZ" depth="0.0">
			<acc value="0.0109417565028551" flag="0"/>
			<vel value="0.00518034029760426" flag="0"/>
			<psa03 value="0.0272927460371458" flag="0"/>
			<psa10 value="0.00539591011816357" flag="0"/>
			<psa30 value="0.000543170388345819" flag="0"/>
		</comp>
	</station>
</stationlist>
