<?xml version="1.0" encoding="UTF-8" standalone="yes"?>
<!DOCTYPE earthquake SYSTEM "stationlist.dtd">
<stationlist created="" xmlns="ch.ethz.sed.shakemap.usgs.xml">
  <station code="AGRB" name="AGRB" netid="KO" insttype="CMG-3T" commtype="DIG" lat="39.5755" lon="42.992">
    <comp name="--.HHZ">
      <acc value="0.0402493888" flag="0"/>
      <vel value="0.0177886471" flag="0"/>
      <psa03 value="0.1472570239" flag="0"/>
      <psa10 value="0.0157649084" flag="0"/>
      <psa30 value="0.0008048365" flag="0"/>
    </comp>
    <comp name="--.HHE">
      <acc value="0.0717337718" flag="0"/>
      <vel value="0.0351727788" flag="0"/>
      <psa03 value="0.2145817758" flag="0"/>
      <psa10 value="0.0320329659" flag="0"/>
      <psa30 value="0.0021294459" flag="0"/>
    </comp>
    <comp name="--.HHN">
      <acc value="0.0546617539" flag="0"/>
      <vel value="0.0291954133" flag="0"/>
      <psa03 value="0.1831390220" flag="0"/>
      <psa10 value="0.0165552437" flag="0"/>
      <psa30 value="0.0013664106" flag="0"/>
    </comp>
  </station>
  <station code="GURO" name="GURO" netid="KO" insttype="CMG-3T" commtype="DIG" lat="38.5509" lon="42.0322">
    <comp name="--.HHZ">
      <acc value="0.0156962346" flag="0"/>
      <vel value="0.0078820814" flag="0"/>
      <psa03 value="0.0270583583" flag="0"/>
      <psa10 value="0.0052986400" flag="0"/>
      <psa30 value="0.0002649076" flag="0"/>
    </comp>
    <comp name="--.HHN">
      <acc value="0.0118852669" flag="0"/>
      <vel value="0.0065044051" flag="0"/>
      <psa03 value="0.0204308937" flag="0"/>
      <psa10 value="0.0056553595" flag="0"/>
      <psa30 value="0.0002871224" flag="0"/>
    </comp>
    <comp name="--.HHE">
      <acc value="0.0151774751" flag="0"/>
      <vel value="0.0117782112" flag="0"/>
      <psa03 value="0.0364844883" flag="0"/>
      <psa10 value="0.0140959636" flag="0"/>
      <psa30 value="0.0007663789" flag="0"/>
    </comp>
  </station>
  <station code="KARO" name="KARO" netid="KO" insttype="CMG-3T" commtype="DIG" lat="39.3089" lon="41.0493">
    <comp name="--.HHZ">
      <acc value="0.0090616601" flag="0"/>
      <vel value="0.0044638802" flag="0"/>
      <psa03 value="0.0287829350" flag="0"/>
      <psa10 value="0.0041537113" flag="0"/>
      <psa30 value="0.0005648799" flag="0"/>
    </comp>
    <comp name="--.HHN">
      <acc value="0.0127944032" flag="0"/>
      <vel value="0.0068353106" flag="0"/>
      <psa03 value="0.0429164488" flag="0"/>
      <psa10 value="0.0095744419" flag="0"/>
      <psa30 value="0.0007616938" flag="0"/>
    </comp>
    <comp name="--.HHE">
      <acc value="0.0157066214" flag="0"/>
      <vel value="0.0099687379" flag="0"/>
      <psa03 value="0.0384041122" flag="0"/>
      <psa10 value="0.0158330595" flag="0"/>
      <psa30 value="0.0014422332" flag="0"/>
    </comp>
  </station>
  <station code="KOPR" name="KOPR" netid="KO" insttype="CMG-3T" commtype="DIG" lat="39.9917" lon="41.8535">
    <comp name="--.HHN">
      <acc value="0.0088187923" flag="0"/>
      <vel value="0.0059384422" flag="0"/>
      <psa03 value="0.0268793751" flag="0"/>
      <psa10 value="0.0083077068" flag="0"/>
      <psa30 value="0.0009963625" flag="0"/>
    </comp>
    <comp name="--.HHZ">
      <acc value="0.0107623718" flag="0"/>
      <vel value="0.0051006072" flag="0"/>
      <psa03 value="0.0335230712" flag="0"/>
      <psa10 value="0.0069262968" flag="0"/>
      <psa30 value="0.0010581718" flag="0"/>
    </comp>
  </station>
  <station code="MLAZ" name="MLAZ" netid="KO" insttype="CMG-3T" commtype="DIG" lat="39.141" lon="42.5496">
    <comp name="--.HHN">
      <acc value="0.2597503278" flag="0"/>
      <vel value="0.1283047612" flag="0"/>
      <psa03 value="0.6559343423" flag="0"/>
      <psa10 value="0.1088699238" flag="0"/>
      <psa30 value="0.0112439840" flag="0"/>
    </comp>
    <comp name="--.HHZ">
      <acc value="0.1756310945" flag="0"/>
      <vel value="0.0437364680" flag="0"/>
      <psa03 value="0.3428489208" flag="0"/>
      <psa10 value="0.0622611470" flag="0"/>
      <psa30 value="0.0035373780" flag="0"/>
    </comp>
    <comp name="--.HHE">
      <acc value="0.2721667070" flag="0"/>
      <vel value="0.1378880158" flag="0"/>
      <psa03 value="0.4156855670" flag="0"/>
      <psa10 value="0.1015144254" flag="0"/>
      <psa30 value="0.0054356830" flag="0"/>
    </comp>
  </station>
  <station code="VRTB" name="VRTB" netid="KO" insttype="CMG-40T" commtype="DIG" lat="39.1603" lon="41.4558">
    <comp name="--.HHE">
      <acc value="0.0116809211" flag="0"/>
      <vel value="0.0105551625" flag="0"/>
      <psa03 value="0.0342757520" flag="0"/>
      <psa10 value="0.0258401570" flag="0"/>
      <psa30 value="0.0051484609" flag="0"/>
    </comp>
    <comp name="--.HHN">
      <acc value="0.0032412503" flag="0"/>
      <vel value="0.0037512560" flag="0"/>
      <psa03 value="0.0107413749" flag="0"/>
      <psa10 value="0.0068747946" flag="0"/>
      <psa30 value="0.0009565099" flag="0"/>
    </comp>
    <comp name="--.HHZ">
      <acc value="0.0050156379" flag="0"/>
      <vel value="0.0056239600" flag="0"/>
      <psa03 value="0.0138706020" flag="0"/>
      <psa10 value="0.0122271832" flag="0"/>
      <psa30 value="0.0013556807" flag="0"/>
    </comp>
  </station>
</stationlist>
