<?xml version="1.0" encoding="UTF-8" standalone="yes"?>
<!DOCTYPE earthquake SYSTEM "stationlist.dtd">
<stationlist created="" xmlns="ch.ethz.sed.shakemap.usgs.xml">
  <station code="CEYT" name="CEYT" netid="KO" insttype="CMG-3ESP" lat="37.0105" lon="35.7478">
    <comp name="--.HHE">
      <acc value="0.0030121578" flag="0"/>
      <vel value="0.0017686308" flag="0"/>
      <psa03 value="0.0092211736" flag="0"/>
      <psa10 value="0.0025055577" flag="0"/>
      <psa30 value="0.0001990317" flag="0"/>
    </comp>
    <comp name="--.HHZ">
      <acc value="0.0014476732" flag="0"/>
      <vel value="0.0012020554" flag="0"/>
      <psa03 value="0.0035941608" flag="0"/>
      <psa10 value="0.0024200802" flag="0"/>
      <psa30 value="0.0002418965" flag="0"/>
    </comp>
  </station>
  <station code="GAZ" name="GAZ" netid="KO" insttype="CMG-3T" lat="37.1721" lon="37.2096">
    <comp name="--.HHN">
      <acc value="0.0142373597" flag="0"/>
      <vel value="0.0110794061" flag="0"/>
      <psa03 value="0.0541954088" flag="0"/>
      <psa10 value="0.0092746167" flag="0"/>
      <psa30 value="0.0005815594" flag="0"/>
    </comp>
  </station>
  <station code="ANDN" name="ANDN" netid="TU" insttype="T" lat="37.58" lon="36.3452">
    <comp name="--.HHE">
      <acc value="0.1558443643" flag="0"/>
      <vel value="0.0467794897" flag="0"/>
      <psa03 value="0.2312447610" flag="0"/>
      <psa10 value="0.0350786247" flag="0"/>
      <psa30 value="0.0024940234" flag="0"/>
    </comp>
    <comp name="--.HHN">
      <acc value="0.2011710545" flag="0"/>
      <vel value="0.0658813114" flag="0"/>
      <psa03 value="0.2086743229" flag="0"/>
      <psa10 value="0.0522446894" flag="0"/>
      <psa30 value="0.0032858569" flag="0"/>
    </comp>
    <comp name="--.HHZ">
      <acc value="0.0726966920" flag="0"/>
      <vel value="0.0355860540" flag="0"/>
      <psa03 value="0.1127827437" flag="0"/>
      <psa10 value="0.0464302825" flag="0"/>
      <psa30 value="0.0022911472" flag="0"/>
    </comp>
  </station>
</stationlist>
