<?xml version="1.0" encoding="UTF-8" standalone="yes"?>
<!DOCTYPE earthquake SYSTEM "stationlist.dtd">
<stationlist created="" xmlns="ch.ethz.sed.shakemap.usgs.xml">
  <station code="VOL2" name="VOL2" netid="HI" insttype="CMG-5TD,ACCELEROMETER,GURALP" lat="39.366" lon="22.9506">
    <comp name="--.HNE">
      <acc value="0.0126259850" flag="0"/>
      <vel value="0.0067376579" flag="0"/>
      <psa03 value="0.0484040604" flag="0"/>
      <psa10 value="0.0039729866" flag="0"/>
      <psa30 value="0.0003055684" flag="0"/>
    </comp>
    <comp name="--.HNZ">
      <acc value="0.0074771302" flag="0"/>
      <vel value="0.0042196935" flag="0"/>
      <psa03 value="0.0195043738" flag="0"/>
      <psa10 value="0.0052076210" flag="0"/>
      <psa30 value="0.0003329686" flag="0"/>
    </comp>
    <comp name="--.HNN">
      <acc value="0.0182458274" flag="0"/>
      <vel value="0.0088930040" flag="0"/>
      <psa03 value="0.0438142846" flag="0"/>
      <psa10 value="0.0044710170" flag="0"/>
      <psa30 value="0.0003255211" flag="0"/>
    </comp>
  </station>
  <station code="KZN" name="KZN" netid="HL" insttype="120" lat="40.3033" lon="21.7821">
    <comp name="--.HHN">
      <acc value="0.0260222181" flag="0"/>
      <vel value="0.0079369546" flag="0"/>
      <psa03 value="0.0565490020" flag="0"/>
      <psa10 value="0.0041725247" flag="0"/>
      <psa30 value="0.0003061500" flag="0"/>
    </comp>
    <comp name="--.HHZ">
      <acc value="0.0143543160" flag="0"/>
      <vel value="0.0072537317" flag="0"/>
      <psa03 value="0.0363601911" flag="0"/>
      <psa10 value="0.0060505820" flag="0"/>
      <psa30 value="0.0003668017" flag="0"/>
    </comp>
    <comp name="--.HHE">
      <acc value="0.0245842414" flag="0"/>
      <vel value="0.0089920067" flag="0"/>
      <psa03 value="0.0770116759" flag="0"/>
      <psa10 value="0.0052345358" flag="0"/>
      <psa30 value="0.0003091273" flag="0"/>
    </comp>
  </station>
  <station code="PENT" name="PENT" netid="HL" insttype="30" lat="40.1959" lon="21.1384">
    <comp name="--.HHN">
      <acc value="0.0003663051" flag="0"/>
      <vel value="0.0003170089" flag="0"/>
      <psa03 value="0.0005441419" flag="0"/>
      <psa10 value="0.0003351391" flag="0"/>
      <psa30 value="0.0002216579" flag="0"/>
    </comp>
    <comp name="--.HHE">
      <acc value="0.0052039397" flag="0"/>
      <vel value="0.0030678288" flag="0"/>
      <psa03 value="0.0146597841" flag="0"/>
      <psa10 value="0.0031631884" flag="0"/>
      <psa30 value="0.0002833782" flag="0"/>
    </comp>
    <comp name="--.HHZ">
      <acc value="0.0044491767" flag="0"/>
      <vel value="0.0021158786" flag="0"/>
      <psa03 value="0.0115453163" flag="0"/>
      <psa10 value="0.0020314699" flag="0"/>
      <psa30 value="0.0003466830" flag="0"/>
    </comp>
  </station>
  <station code="TETR" name="TETR" netid="HL" insttype="60" lat="39.3445" lon="21.2747">
    <comp name="--.HHE">
      <acc value="0.0383341667" flag="0"/>
      <vel value="0.0126049659" flag="0"/>
      <psa03 value="0.0905446528" flag="0"/>
      <psa10 value="0.0117995160" flag="0"/>
      <psa30 value="0.0007372690" flag="0"/>
    </comp>
    <comp name="--.HHN">
      <acc value="0.0364332605" flag="0"/>
      <vel value="0.0128969633" flag="0"/>
      <psa03 value="0.1060857762" flag="0"/>
      <psa10 value="0.0095683127" flag="0"/>
      <psa30 value="0.0003691908" flag="0"/>
    </comp>
    <comp name="--.HHZ">
      <acc value="0.0186512758" flag="0"/>
      <vel value="0.0061806503" flag="0"/>
      <psa03 value="0.0519570074" flag="0"/>
      <psa10 value="0.0053835902" flag="0"/>
      <psa30 value="0.0003054026" flag="0"/>
    </comp>
  </station>
  <station code="THL" name="THL" netid="HL" insttype="120" lat="39.5647" lon="22.0144">
    <comp name="--.HHE">
      <acc value="0.0919476604" flag="0"/>
      <vel value="0.0324070099" flag="0"/>
      <psa03 value="0.0995839918" flag="0"/>
      <psa10 value="0.0138622026" flag="0"/>
      <psa30 value="0.0008680840" flag="0"/>
    </comp>
    <comp name="--.HHZ">
      <acc value="0.0550888832" flag="0"/>
      <vel value="0.0228092329" flag="0"/>
      <psa03 value="0.0504576075" flag="0"/>
      <psa10 value="0.0210097005" flag="0"/>
      <psa30 value="0.0014633169" flag="0"/>
    </comp>
    <comp name="--.HHN">
      <acc value="0.0921908777" flag="0"/>
      <vel value="0.0279746733" flag="0"/>
      <psa03 value="0.0908711502" flag="0"/>
      <psa10 value="0.0182281217" flag="0"/>
      <psa30 value="0.0012482680" flag="0"/>
    </comp>
  </station>
  <station code="PRMD" name="PRMD" netid="HP" insttype="120P," lat="39.5299" lon="21.0965">
    <comp name="--.HHZ">
      <acc value="0.0086818432" flag="0"/>
      <vel value="0.0050410154" flag="0"/>
      <psa03 value="0.0321649590" flag="0"/>
      <psa10 value="0.0030057577" flag="0"/>
      <psa30 value="0.0003602011" flag="0"/>
    </comp>
    <comp name="--.HHN">
      <acc value="0.0115975244" flag="0"/>
      <vel value="0.0060223445" flag="0"/>
      <psa03 value="0.0318140528" flag="0"/>
      <psa10 value="0.0105485018" flag="0"/>
      <psa30 value="0.0003555202" flag="0"/>
    </comp>
    <comp name="--.HHE">
      <acc value="0.0139638444" flag="0"/>
      <vel value="0.0074060324" flag="0"/>
      <psa03 value="0.0320433704" flag="0"/>
      <psa10 value="0.0056456590" flag="0"/>
      <psa30 value="0.0003935393" flag="0"/>
    </comp>
  </station>
  <station code="AGG" name="AGG" netid="HT" insttype="120P," lat="39.0211" lon="22.336">
    <comp name="--.HHE">
      <acc value="0.0152150822" flag="0"/>
      <vel value="0.0067111629" flag="0"/>
      <psa03 value="0.0468703324" flag="0"/>
      <psa10 value="0.0085107890" flag="0"/>
      <psa30 value="0.0004353628" flag="0"/>
    </comp>
    <comp name="--.HHN">
      <acc value="0.0108198926" flag="0"/>
      <vel value="0.0065949643" flag="0"/>
      <psa03 value="0.0458752086" flag="0"/>
      <psa10 value="0.0050799548" flag="0"/>
      <psa30 value="0.0003964237" flag="0"/>
    </comp>
    <comp name="--.HHZ">
      <acc value="0.0064485084" flag="0"/>
      <vel value="0.0031751915" flag="0"/>
      <psa03 value="0.0204704640" flag="0"/>
      <psa10 value="0.0039368618" flag="0"/>
      <psa30 value="0.0002423808" flag="0"/>
    </comp>
  </station>
  <station code="KPRO" name="KPRO" netid="HT" insttype="100" lat="39.9549" lon="21.3632">
    <comp name="--.HHE">
      <acc value="0.0234112738" flag="0"/>
      <vel value="0.0103989927" flag="0"/>
      <psa03 value="0.0774355297" flag="0"/>
      <psa10 value="0.0093269830" flag="0"/>
      <psa30 value="0.0006203573" flag="0"/>
    </comp>
    <comp name="--.HHN">
      <acc value="0.0199560129" flag="0"/>
      <vel value="0.0102665547" flag="0"/>
      <psa03 value="0.0453526368" flag="0"/>
      <psa10 value="0.0096167620" flag="0"/>
      <psa30 value="0.0007273130" flag="0"/>
    </comp>
    <comp name="--.HHZ">
      <acc value="0.0154823000" flag="0"/>
      <vel value="0.0070235688" flag="0"/>
      <psa03 value="0.0419319601" flag="0"/>
      <psa10 value="0.0078484625" flag="0"/>
      <psa30 value="0.0008177388" flag="0"/>
    </comp>
  </station>
  <station code="LIT" name="LIT" netid="HT" insttype="100" lat="40.1033" lon="22.4892">
    <comp name="--.HHE">
      <acc value="0.0994318342" flag="0"/>
      <vel value="0.0351534571" flag="0"/>
      <psa03 value="0.2305098613" flag="0"/>
      <psa10 value="0.0081615849" flag="0"/>
      <psa30 value="0.0007145795" flag="0"/>
    </comp>
    <comp name="--.HHZ">
      <acc value="0.0648059812" flag="0"/>
      <vel value="0.0210539243" flag="0"/>
      <psa03 value="0.1056879381" flag="0"/>
      <psa10 value="0.0085323423" flag="0"/>
      <psa30 value="0.0005477276" flag="0"/>
    </comp>
    <comp name="--.HHN">
      <acc value="0.1055362366" flag="0"/>
      <vel value="0.0367838362" flag="0"/>
      <psa03 value="0.1681625856" flag="0"/>
      <psa10 value="0.0174250718" flag="0"/>
      <psa30 value="0.0010372169" flag="0"/>
    </comp>
  </station>
  <station code="TYRN" name="TYRN" netid="HT" insttype="120P," lat="39.711" lon="22.2325">
    <comp name="--.HHE">
      <acc value="0.1742090647" flag="0"/>
      <vel value="0.0538026661" flag="0"/>
      <psa03 value="0.2045047945" flag="0"/>
      <psa10 value="0.0293590427" flag="0"/>
      <psa30 value="0.0016981271" flag="0"/>
    </comp>
    <comp name="--.HHZ">
      <acc value="0.1527931374" flag="0"/>
      <vel value="0.0601612506" flag="0"/>
      <psa03 value="0.1779525166" flag="0"/>
      <psa10 value="0.0307110399" flag="0"/>
      <psa30 value="0.0024751735" flag="0"/>
    </comp>
    <comp name="--.HHN">
      <acc value="0.1306907440" flag="0"/>
      <vel value="0.0467901965" flag="0"/>
      <psa03 value="0.1118869153" flag="0"/>
      <psa10 value="0.0482882117" flag="0"/>
      <psa30 value="0.0025614371" flag="0"/>
    </comp>
  </station>
  <station code="THL" name="THL" netid="MN" insttype="" lat="39.5647" lon="22.0144">
    <comp name="--.HHZ">
      <acc value="0.0550888832" flag="0"/>
      <vel value="0.0228092329" flag="0"/>
      <psa03 value="0.0504576075" flag="0"/>
      <psa10 value="0.0210097005" flag="0"/>
      <psa30 value="0.0014633169" flag="0"/>
    </comp>
    <comp name="--.HHE">
      <acc value="0.0919476604" flag="0"/>
      <vel value="0.0324070099" flag="0"/>
      <psa03 value="0.0995839918" flag="0"/>
      <psa10 value="0.0138622026" flag="0"/>
      <psa30 value="0.0008680840" flag="0"/>
    </comp>
    <comp name="--.HHN">
      <acc value="0.0921908777" flag="0"/>
      <vel value="0.0279746733" flag="0"/>
      <psa03 value="0.0908711502" flag="0"/>
      <psa10 value="0.0182281217" flag="0"/>
      <psa30 value="0.0012482680" flag="0"/>
    </comp>
  </station>
</stationlist>
