<?xml version="1.0" encoding="UTF-8" standalone="yes"?>
<!DOCTYPE earthquake SYSTEM "stationlist.dtd">
<stationlist created="" xmlns="ch.ethz.sed.shakemap.usgs.xml">
  <station code="KARP" name="KARP" netid="GE" insttype="STS-2/N" commtype="DIG" lat="35.5471" lon="27.1611">
    <comp name="--.HHZ">
      <acc value="0.0090656468" flag="0"/>
      <vel value="0.0030213607" flag="0"/>
      <psa03 value="0.0110868621" flag="0"/>
      <psa10 value="0.0048339498" flag="0"/>
      <psa30 value="0.0007360682" flag="0"/>
    </comp>
    <comp name="--.HHN">
      <acc value="0.0235990336" flag="0"/>
      <vel value="0.0072376158" flag="0"/>
      <psa03 value="0.0173028493" flag="0"/>
      <psa10 value="0.0100109741" flag="0"/>
      <psa30 value="0.0009010952" flag="0"/>
    </comp>
    <comp name="--.HHE">
      <acc value="0.0319467873" flag="0"/>
      <vel value="0.0058628038" flag="0"/>
      <psa03 value="0.0190758923" flag="0"/>
      <psa10 value="0.0134909843" flag="0"/>
      <psa30 value="0.0009729135" flag="0"/>
    </comp>
  </station>
  <station code="ZKR" name="ZKR" netid="GE" insttype="STS-2/N" commtype="DIG" lat="35.1147" lon="26.2169">
    <comp name="--.HHN">
      <acc value="0.0172457471" flag="0"/>
      <vel value="0.0105763088" flag="0"/>
      <psa03 value="0.0631027983" flag="0"/>
      <psa10 value="0.0097005482" flag="0"/>
      <psa30 value="0.0008566985" flag="0"/>
    </comp>
    <comp name="--.HHZ">
      <acc value="0.0496022831" flag="0"/>
      <vel value="0.0169435651" flag="0"/>
      <psa03 value="0.0817319706" flag="0"/>
      <psa10 value="0.0125591695" flag="0"/>
      <psa30 value="0.0016162681" flag="0"/>
    </comp>
    <comp name="--.HHE">
      <acc value="0.0499092018" flag="0"/>
      <vel value="0.0297123117" flag="0"/>
      <psa03 value="0.1870685942" flag="0"/>
      <psa10 value="0.0282662923" flag="0"/>
      <psa30 value="0.0018563381" flag="0"/>
    </comp>
  </station>
  <station code="IMOD" name="IMOD" netid="HC" insttype="120" commtype="DIG" lat="34.9731" lon="24.7995">
    <comp name="--.HHE">
      <acc value="0.0062869867" flag="0"/>
      <vel value="0.0044850631" flag="0"/>
      <psa03 value="0.0158267923" flag="0"/>
      <psa10 value="0.0076948099" flag="0"/>
      <psa30 value="0.0007920467" flag="0"/>
    </comp>
    <comp name="--.HHN">
      <acc value="0.0078420384" flag="0"/>
      <vel value="0.0064624677" flag="0"/>
      <psa03 value="0.0205338871" flag="0"/>
      <psa10 value="0.0059272841" flag="0"/>
      <psa30 value="0.0006987071" flag="0"/>
    </comp>
    <comp name="--.HHZ">
      <acc value="0.0036653267" flag="0"/>
      <vel value="0.0033196549" flag="0"/>
      <psa03 value="0.0087562021" flag="0"/>
      <psa10 value="0.0104409256" flag="0"/>
      <psa30 value="0.0005901752" flag="0"/>
    </comp>
  </station>
  <station code="KNSS" name="KNSS" netid="HC" insttype="60" commtype="DIG" lat="35.3042" lon="25.1802">
    <comp name="--.HHE">
      <acc value="0.0000000000" flag="0"/>
      <vel value="-100.0000000000" flag="0"/>
      <psa03 value="0.0000000000" flag="0"/>
      <psa10 value="0.0000000000" flag="0"/>
      <psa30 value="0.0000000000" flag="0"/>
    </comp>
    <comp name="--.HHN">
      <acc value="0.0046010826" flag="0"/>
      <vel value="0.0029972594" flag="0"/>
      <psa03 value="0.0133505403" flag="0"/>
      <psa10 value="0.0021631241" flag="0"/>
      <psa30 value="0.0004458655" flag="0"/>
    </comp>
    <comp name="--.HHZ">
      <acc value="0.0048370911" flag="0"/>
      <vel value="0.0032541164" flag="0"/>
      <psa03 value="0.0180550682" flag="0"/>
      <psa10 value="0.0046874445" flag="0"/>
      <psa30 value="0.0005726637" flag="0"/>
    </comp>
  </station>
  <station code="PFKS" name="PFKS" netid="HC" insttype="120" commtype="DIG" lat="35.0429" lon="25.4733">
    <comp name="--.HHE">
      <acc value="0.0280347276" flag="0"/>
      <vel value="0.0176212630" flag="0"/>
      <psa03 value="0.1260588716" flag="0"/>
      <psa10 value="0.0160665433" flag="0"/>
      <psa30 value="0.0011158055" flag="0"/>
    </comp>
    <comp name="--.HHN">
      <acc value="0.0244495092" flag="0"/>
      <vel value="0.0129530949" flag="0"/>
      <psa03 value="0.0555893551" flag="0"/>
      <psa10 value="0.0107773759" flag="0"/>
      <psa30 value="0.0009426951" flag="0"/>
    </comp>
    <comp name="--.HHZ">
      <acc value="0.0127200671" flag="0"/>
      <vel value="0.0077559387" flag="0"/>
      <psa03 value="0.0456025619" flag="0"/>
      <psa10 value="0.0094906150" flag="0"/>
      <psa30 value="0.0008865875" flag="0"/>
    </comp>
  </station>
  <station code="STIA" name="STIA" netid="HC" insttype="120" commtype="DIG" lat="35.2021" lon="26.0909">
    <comp name="--.HHE">
      <acc value="0.0226911334" flag="0"/>
      <vel value="0.0168850916" flag="0"/>
      <psa03 value="0.0844171990" flag="0"/>
      <psa10 value="0.0245766143" flag="0"/>
      <psa30 value="0.0013890831" flag="0"/>
    </comp>
    <comp name="--.HHN">
      <acc value="0.0000000000" flag="0"/>
      <vel value="-100.0000000000" flag="0"/>
      <psa03 value="0.0000000000" flag="0"/>
      <psa10 value="0.0000000000" flag="0"/>
      <psa30 value="0.0000000000" flag="0"/>
    </comp>
    <comp name="--.HHZ">
      <acc value="0.0261481146" flag="0"/>
      <vel value="0.0123297061" flag="0"/>
      <psa03 value="0.0902274294" flag="0"/>
      <psa10 value="0.0113588350" flag="0"/>
      <psa30 value="0.0018978380" flag="0"/>
    </comp>
  </station>
  <station code="AGN1" name="AGN1" netid="HI" insttype="unknown" commtype="DIG" lat="35.1879" lon="25.7155">
    <comp name="--.HNE">
      <acc value="0.0362776108" flag="0"/>
      <vel value="0.0188439214" flag="0"/>
      <psa03 value="0.1197281052" flag="0"/>
      <psa10 value="0.0107149665" flag="0"/>
      <psa30 value="0.0019492659" flag="0"/>
    </comp>
    <comp name="--.HNN">
      <acc value="0.0165117678" flag="0"/>
      <vel value="0.0111452849" flag="0"/>
      <psa03 value="0.0610439884" flag="0"/>
      <psa10 value="0.0104778513" flag="0"/>
      <psa30 value="0.0012978013" flag="0"/>
    </comp>
    <comp name="--.HNZ">
      <acc value="0.0131379652" flag="0"/>
      <vel value="0.0046781813" flag="0"/>
      <psa03 value="0.0332101439" flag="0"/>
      <psa10 value="0.0044615348" flag="0"/>
      <psa30 value="0.0009053784" flag="0"/>
    </comp>
  </station>
  <station code="KSS1" name="KSS1" netid="HI" insttype="CMG-5TD,ACCELEROMETER,GURALP" commtype="DIG" lat="35.4189" lon="26.9207">
    <comp name="--.HNE">
      <acc value="0.0077150874" flag="0"/>
      <vel value="0.0039220556" flag="0"/>
      <psa03 value="0.0300358623" flag="0"/>
      <psa10 value="0.0054384256" flag="0"/>
      <psa30 value="0.0008213166" flag="0"/>
    </comp>
    <comp name="--.HNN">
      <acc value="0.0100130650" flag="0"/>
      <vel value="0.0070718328" flag="0"/>
      <psa03 value="0.0418087170" flag="0"/>
      <psa10 value="0.0077736017" flag="0"/>
      <psa30 value="0.0010018740" flag="0"/>
    </comp>
    <comp name="--.HNZ">
      <acc value="0.0075114371" flag="0"/>
      <vel value="0.0032336449" flag="0"/>
      <psa03 value="0.0131310979" flag="0"/>
      <psa10 value="0.0035606870" flag="0"/>
      <psa30 value="0.0009494613" flag="0"/>
    </comp>
  </station>
  <station code="KARP" name="KARP" netid="HL" insttype="120" commtype="DIG" lat="35.5471" lon="27.1611">
    <comp name="--.HHN">
      <acc value="0.0185052262" flag="0"/>
      <vel value="0.0070696675" flag="0"/>
      <psa03 value="0.0168778891" flag="0"/>
      <psa10 value="0.0099527350" flag="0"/>
      <psa30 value="0.0008985901" flag="0"/>
    </comp>
    <comp name="--.HHE">
      <acc value="0.0282363628" flag="0"/>
      <vel value="0.0056792710" flag="0"/>
      <psa03 value="0.0185261466" flag="0"/>
      <psa10 value="0.0134131872" flag="0"/>
      <psa30 value="0.0009694709" flag="0"/>
    </comp>
    <comp name="--.HHZ">
      <acc value="0.0081345641" flag="0"/>
      <vel value="0.0029829570" flag="0"/>
      <psa03 value="0.0108221424" flag="0"/>
      <psa10 value="0.0048021466" flag="0"/>
      <psa30 value="0.0007345905" flag="0"/>
    </comp>
  </station>
  <station code="NPS" name="NPS" netid="HL" insttype="CMG3ESPC-120s" commtype="DIG" lat="35.2613" lon="25.6104">
    <comp name="--.HHZ">
      <acc value="0.0066890128" flag="0"/>
      <vel value="0.0040714413" flag="0"/>
      <psa03 value="0.0208684666" flag="0"/>
      <psa10 value="0.0046133241" flag="0"/>
      <psa30 value="0.0010386696" flag="0"/>
    </comp>
    <comp name="--.HHE">
      <acc value="0.0044836279" flag="0"/>
      <vel value="0.0034646425" flag="0"/>
      <psa03 value="0.0165846768" flag="0"/>
      <psa10 value="0.0040431680" flag="0"/>
      <psa30 value="0.0007246555" flag="0"/>
    </comp>
    <comp name="--.HHN">
      <acc value="0.0100333617" flag="0"/>
      <vel value="0.0080539444" flag="0"/>
      <psa03 value="0.0474037403" flag="0"/>
      <psa10 value="0.0080107464" flag="0"/>
      <psa30 value="0.0010659896" flag="0"/>
    </comp>
  </station>
  <station code="SIVA" name="SIVA" netid="HL" insttype="60" commtype="DIG" lat="35.0178" lon="24.812">
    <comp name="--.HHE">
      <acc value="0.0086370696" flag="0"/>
      <vel value="0.0087363959" flag="0"/>
      <psa03 value="0.0315940384" flag="0"/>
      <psa10 value="0.0133368269" flag="0"/>
      <psa30 value="0.0010887395" flag="0"/>
    </comp>
    <comp name="--.HHN">
      <acc value="0.0071435467" flag="0"/>
      <vel value="0.0075962401" flag="0"/>
      <psa03 value="0.0135605456" flag="0"/>
      <psa10 value="0.0099323907" flag="0"/>
      <psa30 value="0.0008988541" flag="0"/>
    </comp>
    <comp name="--.HHZ">
      <acc value="0.0052511777" flag="0"/>
      <vel value="0.0051253058" flag="0"/>
      <psa03 value="0.0138128251" flag="0"/>
      <psa10 value="0.0059086140" flag="0"/>
      <psa30 value="0.0004867931" flag="0"/>
    </comp>
  </station>
</stationlist>
