<?xml version="1.0" encoding="UTF-8" standalone="yes"?>
<!DOCTYPE earthquake SYSTEM "stationlist.dtd">
<stationlist created="" xmlns="ch.ethz.sed.shakemap.usgs.xml">
  <station code="KARP" name="KARP" netid="GE" insttype="STS-2/N" commtype="DIG" lat="35.5471" lon="27.1611">
    <comp name="--.HHZ">
      <acc value="0.0090656464" flag="0"/>
      <vel value="0.0030213608" flag="0"/>
      <psa03 value="0.0110868621" flag="0"/>
      <psa10 value="0.0048339498" flag="0"/>
      <psa30 value="0.0007360675" flag="0"/>
    </comp>
    <comp name="--.HHE">
      <acc value="0.0319467886" flag="0"/>
      <vel value="0.0058627989" flag="0"/>
      <psa03 value="0.0190758923" flag="0"/>
      <psa10 value="0.0134909843" flag="0"/>
      <psa30 value="0.0009729369" flag="0"/>
    </comp>
    <comp name="--.HHN">
      <acc value="0.0235990344" flag="0"/>
      <vel value="0.0072376161" flag="0"/>
      <psa03 value="0.0173028493" flag="0"/>
      <psa10 value="0.0100109741" flag="0"/>
      <psa30 value="0.0009011010" flag="0"/>
    </comp>
  </station>
  <station code="ZKR" name="ZKR" netid="GE" insttype="STS-2/N" commtype="DIG" lat="35.1147" lon="26.2169">
    <comp name="--.HHZ">
      <acc value="0.0496022829" flag="0"/>
      <vel value="0.0169435650" flag="0"/>
      <psa03 value="0.0817319706" flag="0"/>
      <psa10 value="0.0125591695" flag="0"/>
      <psa30 value="0.0016162437" flag="0"/>
    </comp>
    <comp name="--.HHE">
      <acc value="0.0499092012" flag="0"/>
      <vel value="0.0297123121" flag="0"/>
      <psa03 value="0.1870685942" flag="0"/>
      <psa10 value="0.0282662923" flag="0"/>
      <psa30 value="0.0018563353" flag="0"/>
    </comp>
    <comp name="--.HHN">
      <acc value="0.0172457465" flag="0"/>
      <vel value="0.0105763089" flag="0"/>
      <psa03 value="0.0631027983" flag="0"/>
      <psa10 value="0.0097005482" flag="0"/>
      <psa30 value="0.0008566989" flag="0"/>
    </comp>
  </station>
  <station code="IMOD" name="IMOD" netid="HC" insttype="120" commtype="DIG" lat="34.9731" lon="24.7995">
    <comp name="--.HHE">
      <acc value="0.0062869877" flag="0"/>
      <vel value="0.0044850636" flag="0"/>
      <psa03 value="0.0158267923" flag="0"/>
      <psa10 value="0.0076948099" flag="0"/>
      <psa30 value="0.0007920452" flag="0"/>
    </comp>
    <comp name="--.HHN">
      <acc value="0.0078420388" flag="0"/>
      <vel value="0.0064624678" flag="0"/>
      <psa03 value="0.0205338871" flag="0"/>
      <psa10 value="0.0059272841" flag="0"/>
      <psa30 value="0.0006987150" flag="0"/>
    </comp>
    <comp name="--.HHZ">
      <acc value="0.0036653266" flag="0"/>
      <vel value="0.0033196540" flag="0"/>
      <psa03 value="0.0087562021" flag="0"/>
      <psa10 value="0.0104409256" flag="0"/>
      <psa30 value="0.0005901740" flag="0"/>
    </comp>
  </station>
  <station code="KNSS" name="KNSS" netid="HC" insttype="60" commtype="DIG" lat="35.3042" lon="25.1802">
    <comp name="--.HHN">
      <acc value="0.0046010824" flag="0"/>
      <vel value="0.0029972569" flag="0"/>
      <psa03 value="0.0133505403" flag="0"/>
      <psa10 value="0.0021631242" flag="0"/>
      <psa30 value="0.0004459322" flag="0"/>
    </comp>
    <comp name="--.HHE">
      <acc value="0.0000000000" flag="0"/>
      <vel value="-100.0000000000" flag="0"/>
      <psa03 value="0.0000000000" flag="0"/>
      <psa10 value="0.0000000000" flag="0"/>
      <psa30 value="0.0000000000" flag="0"/>
    </comp>
    <comp name="--.HHZ">
      <acc value="0.0048370909" flag="0"/>
      <vel value="0.0032541147" flag="0"/>
      <psa03 value="0.0180550682" flag="0"/>
      <psa10 value="0.0046874445" flag="0"/>
      <psa30 value="0.0005726402" flag="0"/>
    </comp>
  </station>
  <station code="PFKS" name="PFKS" netid="HC" insttype="120" commtype="DIG" lat="35.0429" lon="25.4733">
    <comp name="--.HHE">
      <acc value="0.0280347278" flag="0"/>
      <vel value="0.0176212624" flag="0"/>
      <psa03 value="0.1260588716" flag="0"/>
      <psa10 value="0.0160665431" flag="0"/>
      <psa30 value="0.0011158210" flag="0"/>
    </comp>
    <comp name="--.HHZ">
      <acc value="0.0127200672" flag="0"/>
      <vel value="0.0077559413" flag="0"/>
      <psa03 value="0.0456025619" flag="0"/>
      <psa10 value="0.0094906150" flag="0"/>
      <psa30 value="0.0008865856" flag="0"/>
    </comp>
  </station>
  <station code="STIA" name="STIA" netid="HC" insttype="120" commtype="DIG" lat="35.2021" lon="26.0909">
    <comp name="--.HHE">
      <acc value="0.0226911339" flag="0"/>
      <vel value="0.0168850901" flag="0"/>
      <psa03 value="0.0844171990" flag="0"/>
      <psa10 value="0.0245766145" flag="0"/>
      <psa30 value="0.0013891988" flag="0"/>
    </comp>
    <comp name="--.HHZ">
      <acc value="0.0261481139" flag="0"/>
      <vel value="0.0123297044" flag="0"/>
      <psa03 value="0.0902274294" flag="0"/>
      <psa10 value="0.0113588350" flag="0"/>
      <psa30 value="0.0018979418" flag="0"/>
    </comp>
  </station>
  <station code="AGN1" name="AGN1" netid="HI" insttype="unknown" commtype="DIG" lat="35.1879" lon="25.7155">
    <comp name="--.HNE">
      <acc value="0.0362776099" flag="0"/>
      <vel value="0.0188439213" flag="0"/>
      <psa03 value="0.1197281052" flag="0"/>
      <psa10 value="0.0107149666" flag="0"/>
      <psa30 value="0.0019492814" flag="0"/>
    </comp>
    <comp name="--.HNN">
      <acc value="0.0165117601" flag="0"/>
      <vel value="0.0111452852" flag="0"/>
      <psa03 value="0.0610439884" flag="0"/>
      <psa10 value="0.0104778513" flag="0"/>
      <psa30 value="0.0012978016" flag="0"/>
    </comp>
    <comp name="--.HNZ">
      <acc value="0.0131379723" flag="0"/>
      <vel value="0.0046781812" flag="0"/>
      <psa03 value="0.0332101439" flag="0"/>
      <psa10 value="0.0044615348" flag="0"/>
      <psa30 value="0.0009053802" flag="0"/>
    </comp>
  </station>
  <station code="KSS1" name="KSS1" netid="HI" insttype="CMG-5TD,ACCELEROMETER,GURALP" commtype="DIG" lat="35.4189" lon="26.9207">
    <comp name="--.HNE">
      <acc value="0.0077150727" flag="0"/>
      <vel value="0.0039220557" flag="0"/>
      <psa03 value="0.0300358623" flag="0"/>
      <psa10 value="0.0054384256" flag="0"/>
      <psa30 value="0.0008213071" flag="0"/>
    </comp>
    <comp name="--.HNN">
      <acc value="0.0100130606" flag="0"/>
      <vel value="0.0070718328" flag="0"/>
      <psa03 value="0.0418087170" flag="0"/>
      <psa10 value="0.0077736017" flag="0"/>
      <psa30 value="0.0010018834" flag="0"/>
    </comp>
    <comp name="--.HNZ">
      <acc value="0.0075114421" flag="0"/>
      <vel value="0.0032336450" flag="0"/>
      <psa03 value="0.0131310979" flag="0"/>
      <psa10 value="0.0035606870" flag="0"/>
      <psa30 value="0.0009494598" flag="0"/>
    </comp>
  </station>
  <station code="KARP" name="KARP" netid="HL" insttype="120" commtype="DIG" lat="35.5471" lon="27.1611">
    <comp name="--.HHE">
      <acc value="0.0282363637" flag="0"/>
      <vel value="0.0056792661" flag="0"/>
      <psa03 value="0.0185261466" flag="0"/>
      <psa10 value="0.0134131872" flag="0"/>
      <psa30 value="0.0009694943" flag="0"/>
    </comp>
    <comp name="--.HHN">
      <acc value="0.0185052257" flag="0"/>
      <vel value="0.0070696678" flag="0"/>
      <psa03 value="0.0168778891" flag="0"/>
      <psa10 value="0.0099527350" flag="0"/>
      <psa30 value="0.0008985959" flag="0"/>
    </comp>
    <comp name="--.HHZ">
      <acc value="0.0081345638" flag="0"/>
      <vel value="0.0029829572" flag="0"/>
      <psa03 value="0.0108221424" flag="0"/>
      <psa10 value="0.0048021466" flag="0"/>
      <psa30 value="0.0007345898" flag="0"/>
    </comp>
  </station>
</stationlist>
