<?xml version="1.0" encoding="UTF-8" standalone="yes"?>
<!DOCTYPE earthquake SYSTEM "stationlist.dtd">
<stationlist created="" xmlns="ch.ethz.sed.shakemap.usgs.xml">
  <station code="DARE" name="DARE" netid="KO" insttype="CMG-3ESP" lat="38.5712" lon="37.4832">
    <comp name="--.HHZ">
      <acc value="0.0453414212" flag="0"/>
      <vel value="0.0240335576" flag="0"/>
      <psa03 value="0.1348175060" flag="0"/>
      <psa10 value="0.0156299158" flag="0"/>
      <psa30 value="0.0017125001" flag="0"/>
    </comp>
    <comp name="--.HHE">
      <acc value="0.0673064127" flag="0"/>
      <vel value="0.0264042112" flag="0"/>
      <psa03 value="0.1213119517" flag="0"/>
      <psa10 value="0.0256964216" flag="0"/>
      <psa30 value="0.0014988305" flag="0"/>
    </comp>
    <comp name="--.HHN">
      <acc value="0.0629383116" flag="0"/>
      <vel value="0.0274187220" flag="0"/>
      <psa03 value="0.1095225569" flag="0"/>
      <psa10 value="0.0166610262" flag="0"/>
      <psa30 value="0.0012893747" flag="0"/>
    </comp>
  </station>
  <station code="GAZ" name="GAZ" netid="KO" insttype="CMG-3T" lat="37.1721" lon="37.2096">
    <comp name="--.HHE">
      <acc value="0.0176848291" flag="0"/>
      <vel value="0.0084457182" flag="0"/>
      <psa03 value="0.0352379719" flag="0"/>
      <psa10 value="0.0076514751" flag="0"/>
      <psa30 value="0.0008041824" flag="0"/>
    </comp>
    <comp name="--.HHZ">
      <acc value="0.0179666872" flag="0"/>
      <vel value="0.0068158979" flag="0"/>
      <psa03 value="0.0445586583" flag="0"/>
      <psa10 value="0.0061935229" flag="0"/>
      <psa30 value="0.0004795479" flag="0"/>
    </comp>
    <comp name="--.HHN">
      <acc value="0.0154609888" flag="0"/>
      <vel value="0.0053639891" flag="0"/>
      <psa03 value="0.0354432361" flag="0"/>
      <psa10 value="0.0057943588" flag="0"/>
      <psa30 value="0.0005001908" flag="0"/>
    </comp>
  </station>
  <station code="KHMN" name="KHMN" netid="KO" insttype="CMG-5T" lat="37.3916" lon="37.1574">
    <comp name="--.HNN">
      <acc value="0.0327343881" flag="0"/>
      <vel value="0.0133124933" flag="0"/>
      <psa03 value="0.0416440374" flag="0"/>
      <psa10 value="0.0144838558" flag="0"/>
      <psa30 value="0.0014667486" flag="0"/>
    </comp>
    <comp name="--.HNE">
      <acc value="0.0405647797" flag="0"/>
      <vel value="0.0124230741" flag="0"/>
      <psa03 value="0.0844327857" flag="0"/>
      <psa10 value="0.0130396313" flag="0"/>
      <psa30 value="0.0015858999" flag="0"/>
    </comp>
    <comp name="--.HNZ">
      <acc value="0.0252429173" flag="0"/>
      <vel value="0.0080190948" flag="0"/>
      <psa03 value="0.0476044755" flag="0"/>
      <psa10 value="0.0041909768" flag="0"/>
      <psa30 value="0.0010521774" flag="0"/>
    </comp>
  </station>
  <station code="KMRS" name="KMRS" netid="KO" insttype="CMG-3T" lat="37.5087" lon="36.9">
    <comp name="--.HHE">
      <acc value="0.0575981008" flag="0"/>
      <vel value="0.0289761819" flag="0"/>
      <psa03 value="0.1709327326" flag="0"/>
      <psa10 value="0.0136369170" flag="0"/>
      <psa30 value="0.0012074571" flag="0"/>
    </comp>
    <comp name="--.HHN">
      <acc value="0.0735576241" flag="0"/>
      <vel value="0.0377469924" flag="0"/>
      <psa03 value="0.2026935273" flag="0"/>
      <psa10 value="0.0222687222" flag="0"/>
      <psa30 value="0.0023262296" flag="0"/>
    </comp>
    <comp name="--.HHZ">
      <acc value="0.0289644000" flag="0"/>
      <vel value="0.0170035703" flag="0"/>
      <psa03 value="0.0745736956" flag="0"/>
      <psa10 value="0.0087790243" flag="0"/>
      <psa30 value="0.0007232774" flag="0"/>
    </comp>
  </station>
  <station code="SARI" name="SARI" netid="KO" insttype="CMG-3T" lat="38.4072" lon="36.4181">
    <comp name="--.HHE">
      <acc value="0.0302866532" flag="0"/>
      <vel value="0.0166728019" flag="0"/>
      <psa03 value="0.0991360244" flag="0"/>
      <psa10 value="0.0087983899" flag="0"/>
      <psa30 value="0.0005117842" flag="0"/>
    </comp>
    <comp name="--.HHN">
      <acc value="0.0311966424" flag="0"/>
      <vel value="0.0137720177" flag="0"/>
      <psa03 value="0.0769204341" flag="0"/>
      <psa10 value="0.0076032251" flag="0"/>
      <psa30 value="0.0005684159" flag="0"/>
    </comp>
    <comp name="--.HHZ">
      <acc value="0.0211278962" flag="0"/>
      <vel value="0.0091521613" flag="0"/>
      <psa03 value="0.0680763605" flag="0"/>
      <psa10 value="0.0060103691" flag="0"/>
      <psa30 value="0.0005068509" flag="0"/>
    </comp>
  </station>
  <station code="URFA" name="URFA" netid="KO" insttype="CMG-3ESP" lat="37.4409" lon="38.8213">
    <comp name="--.HHE">
      <acc value="0.0617840316" flag="0"/>
      <vel value="0.0186554139" flag="0"/>
      <psa03 value="0.0805106126" flag="0"/>
      <psa10 value="0.0204582087" flag="0"/>
      <psa30 value="0.0009283704" flag="0"/>
    </comp>
    <comp name="--.HHN">
      <acc value="0.0483556855" flag="0"/>
      <vel value="0.0255772307" flag="0"/>
      <psa03 value="0.1143486559" flag="0"/>
      <psa10 value="0.0189214386" flag="0"/>
      <psa30 value="0.0018743291" flag="0"/>
    </comp>
    <comp name="--.HHZ">
      <acc value="0.0350009595" flag="0"/>
      <vel value="0.0180457441" flag="0"/>
      <psa03 value="0.0775828805" flag="0"/>
      <psa10 value="0.0153193297" flag="0"/>
      <psa30 value="0.0009696336" flag="0"/>
    </comp>
  </station>
</stationlist>
