<?xml version="1.0" encoding="UTF-8" standalone="yes"?>
<!DOCTYPE earthquake SYSTEM "stationlist.dtd">
<stationlist created="" xmlns="ch.ethz.sed.shakemap.usgs.xml">
  <station code="AIA1" name="AIA1" netid="HI" insttype="unknown" commtype="DIG" lat="40.1641" lon="21.8202">
    <comp name="--.HNZ">
      <acc value="0.0068980166" flag="0"/>
      <vel value="0.0023359263" flag="0"/>
      <psa03 value="0.0081525067" flag="0"/>
      <psa10 value="0.0020484649" flag="0"/>
      <psa30 value="0.0001664155" flag="0"/>
    </comp>
    <comp name="--.HNE">
      <acc value="0.0176787264" flag="0"/>
      <vel value="0.0044599308" flag="0"/>
      <psa03 value="0.0258202456" flag="0"/>
      <psa10 value="0.0021427316" flag="0"/>
      <psa30 value="0.0002516761" flag="0"/>
    </comp>
    <comp name="--.HNN">
      <acc value="0.0107668890" flag="0"/>
      <vel value="0.0036959254" flag="0"/>
      <psa03 value="0.0199420773" flag="0"/>
      <psa10 value="0.0028414382" flag="0"/>
      <psa30 value="0.0002673957" flag="0"/>
    </comp>
  </station>
  <station code="FLO2" name="FLO2" netid="HI" insttype="unknown" commtype="DIG" lat="40.7801" lon="21.4052">
    <comp name="--.HNN">
      <acc value="0.2147455840" flag="0"/>
      <vel value="0.0574627753" flag="0"/>
      <psa03 value="0.2805572395" flag="0"/>
      <psa10 value="0.0116003494" flag="0"/>
      <psa30 value="0.0013304532" flag="0"/>
    </comp>
    <comp name="--.HNE">
      <acc value="0.1303287739" flag="0"/>
      <vel value="0.0435881694" flag="0"/>
      <psa03 value="0.2399960911" flag="0"/>
      <psa10 value="0.0116840529" flag="0"/>
      <psa30 value="0.0010353375" flag="0"/>
    </comp>
    <comp name="--.HNZ">
      <acc value="0.0959989876" flag="0"/>
      <vel value="0.0256767460" flag="0"/>
      <psa03 value="0.1395976455" flag="0"/>
      <psa10 value="0.0066227693" flag="0"/>
      <psa30 value="0.0007263853" flag="0"/>
    </comp>
  </station>
  <station code="KAS2" name="KAS2" netid="HI" insttype="unknown" commtype="DIG" lat="40.5049" lon="21.2805">
    <comp name="--.HNE">
      <acc value="0.0415114143" flag="0"/>
      <vel value="0.0162029702" flag="0"/>
      <psa03 value="0.0618243617" flag="0"/>
      <psa10 value="0.0098935858" flag="0"/>
      <psa30 value="0.0009221557" flag="0"/>
    </comp>
    <comp name="--.HNN">
      <acc value="0.0554925356" flag="0"/>
      <vel value="0.0252609777" flag="0"/>
      <psa03 value="0.1199817943" flag="0"/>
      <psa10 value="0.0139324391" flag="0"/>
      <psa30 value="0.0012119673" flag="0"/>
    </comp>
    <comp name="--.HNZ">
      <acc value="0.0535809736" flag="0"/>
      <vel value="0.0137272482" flag="0"/>
      <psa03 value="0.0469831685" flag="0"/>
      <psa10 value="0.0071497912" flag="0"/>
      <psa30 value="0.0009130144" flag="0"/>
    </comp>
  </station>
  <station code="KNS1" name="KNS1" netid="HI" insttype="unknown" commtype="DIG" lat="40.048" lon="20.7524">
    <comp name="--.HNN">
      <acc value="0.0146638197" flag="0"/>
      <vel value="0.0050431366" flag="0"/>
      <psa03 value="0.0343946481" flag="0"/>
      <psa10 value="0.0052351120" flag="0"/>
      <psa30 value="0.0005816067" flag="0"/>
    </comp>
    <comp name="--.HNZ">
      <acc value="0.0119772685" flag="0"/>
      <vel value="0.0036016383" flag="0"/>
      <psa03 value="0.0199256715" flag="0"/>
      <psa10 value="0.0035708807" flag="0"/>
      <psa30 value="0.0004798511" flag="0"/>
    </comp>
    <comp name="--.HNE">
      <acc value="0.0165741452" flag="0"/>
      <vel value="0.0068743041" flag="0"/>
      <psa03 value="0.0265828957" flag="0"/>
      <psa10 value="0.0044751679" flag="0"/>
      <psa30 value="0.0003832002" flag="0"/>
    </comp>
  </station>
  <station code="LMS2" name="LMS2" netid="HI" insttype="CMG-5TD,ACCELEROMETER,GURALP" commtype="DIG" lat="40.835" lon="21.1418">
    <comp name="--.HNE">
      <acc value="0.3620930670" flag="0"/>
      <vel value="0.0809361135" flag="0"/>
      <psa03 value="0.2351126683" flag="0"/>
      <psa10 value="0.0129381552" flag="0"/>
      <psa30 value="0.0011570234" flag="0"/>
    </comp>
    <comp name="--.HNN">
      <acc value="0.7114435019" flag="0"/>
      <vel value="0.1515186846" flag="0"/>
      <psa03 value="0.2941241953" flag="0"/>
      <psa10 value="0.0167389520" flag="0"/>
      <psa30 value="0.0021693164" flag="0"/>
    </comp>
    <comp name="--.HNZ">
      <acc value="0.1322621813" flag="0"/>
      <vel value="0.0262461869" flag="0"/>
      <psa03 value="0.1048130462" flag="0"/>
      <psa10 value="0.0106018695" flag="0"/>
      <psa30 value="0.0008741829" flag="0"/>
    </comp>
  </station>
  <station code="PTO1" name="PTO1" netid="HI" insttype="unknown" commtype="DIG" lat="40.5101" lon="21.6816">
    <comp name="--.HNE">
      <acc value="0.0215309096" flag="0"/>
      <vel value="0.0150506845" flag="0"/>
      <psa03 value="0.0654594032" flag="0"/>
      <psa10 value="0.0194653526" flag="0"/>
      <psa30 value="0.0015982213" flag="0"/>
    </comp>
    <comp name="--.HNZ">
      <acc value="0.0236836755" flag="0"/>
      <vel value="0.0080318780" flag="0"/>
      <psa03 value="0.0441727518" flag="0"/>
      <psa10 value="0.0065765501" flag="0"/>
      <psa30 value="0.0010856215" flag="0"/>
    </comp>
    <comp name="--.HNN">
      <acc value="0.0267793073" flag="0"/>
      <vel value="0.0142948589" flag="0"/>
      <psa03 value="0.0675558454" flag="0"/>
      <psa10 value="0.0207941887" flag="0"/>
      <psa30 value="0.0015679214" flag="0"/>
    </comp>
  </station>
  <station code="SIA1" name="SIA1" netid="HI" insttype="unknown" commtype="DIG" lat="40.2573" lon="21.5534">
    <comp name="--.HNN">
      <acc value="0.0441200606" flag="0"/>
      <vel value="0.0083541925" flag="0"/>
      <psa03 value="0.0422272643" flag="0"/>
      <psa10 value="0.0040868626" flag="0"/>
      <psa30 value="0.0003950405" flag="0"/>
    </comp>
    <comp name="--.HNE">
      <acc value="0.0578516005" flag="0"/>
      <vel value="0.0122633596" flag="0"/>
      <psa03 value="0.0524893167" flag="0"/>
      <psa10 value="0.0038685486" flag="0"/>
      <psa30 value="0.0002811386" flag="0"/>
    </comp>
    <comp name="--.HNZ">
      <acc value="0.0265178282" flag="0"/>
      <vel value="0.0052721333" flag="0"/>
      <psa03 value="0.0245076528" flag="0"/>
      <psa10 value="0.0026960551" flag="0"/>
      <psa30 value="0.0002715382" flag="0"/>
    </comp>
  </station>
  <station code="KZN" name="KZN" netid="HL" insttype="120" commtype="DIG" lat="40.3033" lon="21.7821">
    <comp name="--.HHE">
      <acc value="0.0366312399" flag="0"/>
      <vel value="0.0089297734" flag="0"/>
      <psa03 value="0.0549430190" flag="0"/>
      <psa10 value="0.0067366081" flag="0"/>
      <psa30 value="0.0003001963" flag="0"/>
    </comp>
    <comp name="--.HHN">
      <acc value="0.0368199295" flag="0"/>
      <vel value="0.0112452630" flag="0"/>
      <psa03 value="0.0727482044" flag="0"/>
      <psa10 value="0.0046424370" flag="0"/>
      <psa30 value="0.0003079103" flag="0"/>
    </comp>
    <comp name="--.HHZ">
      <acc value="0.0197563680" flag="0"/>
      <vel value="0.0062653184" flag="0"/>
      <psa03 value="0.0267410776" flag="0"/>
      <psa10 value="0.0020945816" flag="0"/>
      <psa30 value="0.0001990291" flag="0"/>
    </comp>
  </station>
  <station code="PENT" name="PENT" netid="HL" insttype="Horizon,120s,1200" commtype="DIG" lat="40.1961" lon="21.1381">
    <comp name="--.HHE">
      <acc value="0.0164716536" flag="0"/>
      <vel value="0.0063732377" flag="0"/>
      <psa03 value="0.0324716506" flag="0"/>
      <psa10 value="0.0067066611" flag="0"/>
      <psa30 value="0.0008278136" flag="0"/>
    </comp>
    <comp name="--.HHZ">
      <acc value="0.0128007140" flag="0"/>
      <vel value="0.0063185110" flag="0"/>
      <psa03 value="0.0425965726" flag="0"/>
      <psa10 value="0.0054408302" flag="0"/>
      <psa30 value="0.0009778480" flag="0"/>
    </comp>
    <comp name="--.HHN">
      <acc value="0.0223710829" flag="0"/>
      <vel value="0.0076013201" flag="0"/>
      <psa03 value="0.0410394353" flag="0"/>
      <psa10 value="0.0056740039" flag="0"/>
      <psa30 value="0.0004723316" flag="0"/>
    </comp>
  </station>
  <station code="FLNA" name="FLNA" netid="HT" insttype="120" commtype="DIG" lat="40.7809" lon="21.3863">
    <comp name="--.HHE">
      <acc value="0.0638108180" flag="0"/>
      <vel value="0.0201446495" flag="0"/>
      <psa03 value="0.1122221419" flag="0"/>
      <psa10 value="0.0097958001" flag="0"/>
      <psa30 value="0.0005760756" flag="0"/>
    </comp>
    <comp name="--.HHZ">
      <acc value="0.0598149602" flag="0"/>
      <vel value="0.0182332850" flag="0"/>
      <psa03 value="0.0865049338" flag="0"/>
      <psa10 value="0.0055057955" flag="0"/>
      <psa30 value="0.0006119170" flag="0"/>
    </comp>
    <comp name="--.HHN">
      <acc value="0.0757717832" flag="0"/>
      <vel value="0.0182466741" flag="0"/>
      <psa03 value="0.1001839089" flag="0"/>
      <psa10 value="0.0076884436" flag="0"/>
      <psa30 value="0.0007410945" flag="0"/>
    </comp>
  </station>
  <station code="NEST" name="NEST" netid="HT" insttype="120P," commtype="DIG" lat="40.4147" lon="21.0489">
    <comp name="--.HHN">
      <acc value="0.1748902837" flag="0"/>
      <vel value="0.0392029177" flag="0"/>
      <psa03 value="0.1570342936" flag="0"/>
      <psa10 value="0.0156602653" flag="0"/>
      <psa30 value="0.0011312239" flag="0"/>
    </comp>
    <comp name="--.HHE">
      <acc value="0.1998538187" flag="0"/>
      <vel value="0.0378766011" flag="0"/>
      <psa03 value="0.1664845634" flag="0"/>
      <psa10 value="0.0127214435" flag="0"/>
      <psa30 value="0.0011998728" flag="0"/>
    </comp>
    <comp name="--.HHZ">
      <acc value="0.2400519248" flag="0"/>
      <vel value="0.0472719133" flag="0"/>
      <psa03 value="0.2350137824" flag="0"/>
      <psa10 value="0.0122206065" flag="0"/>
      <psa30 value="0.0012822305" flag="0"/>
    </comp>
  </station>
</stationlist>
