<?xml version="1.0" encoding="UTF-8" standalone="yes"?>
<!DOCTYPE earthquake SYSTEM "stationlist.dtd">
<stationlist created="" xmlns="ch.ethz.sed.shakemap.usgs.xml">
  <station code="CEYT" name="CEYT" netid="KO" insttype="CMG-3ESP" lat="37.0105" lon="35.7478">
    <comp name="--.HHZ">
      <acc value="0.0288619731" flag="0"/>
      <vel value="0.0095789167" flag="0"/>
      <psa03 value="0.0503708485" flag="0"/>
      <psa10 value="0.0085452114" flag="0"/>
      <psa30 value="0.0005957569" flag="0"/>
    </comp>
    <comp name="--.HHE">
      <acc value="0.0418719030" flag="0"/>
      <vel value="0.0185913286" flag="0"/>
      <psa03 value="0.1323211576" flag="0"/>
      <psa10 value="0.0071031282" flag="0"/>
      <psa30 value="0.0007807778" flag="0"/>
    </comp>
    <comp name="--.HHN">
      <acc value="0.0376742879" flag="0"/>
      <vel value="0.0164308643" flag="0"/>
      <psa03 value="0.1045622387" flag="0"/>
      <psa10 value="0.0099060287" flag="0"/>
      <psa30 value="0.0006826854" flag="0"/>
    </comp>
  </station>
  <station code="GAZ" name="GAZ" netid="KO" insttype="CMG-3T" lat="37.1721" lon="37.2096">
    <comp name="--.HHN">
      <acc value="0.0593937213" flag="0"/>
      <vel value="0.0261268109" flag="0"/>
      <psa03 value="0.0645805578" flag="0"/>
      <psa10 value="0.0336319980" flag="0"/>
      <psa30 value="0.0018835292" flag="0"/>
    </comp>
    <comp name="--.HHZ">
      <acc value="0.0325052932" flag="0"/>
      <vel value="0.0192572067" flag="0"/>
      <psa03 value="0.0571792112" flag="0"/>
      <psa10 value="0.0224454210" flag="0"/>
      <psa30 value="0.0012550841" flag="0"/>
    </comp>
    <comp name="--.HHE">
      <acc value="0.0670704561" flag="0"/>
      <vel value="0.0230737004" flag="0"/>
      <psa03 value="0.1000251615" flag="0"/>
      <psa10 value="0.0260868984" flag="0"/>
      <psa30 value="0.0024704784" flag="0"/>
    </comp>
  </station>
  <station code="ANDN" name="ANDN" netid="TU" insttype="T" lat="37.58" lon="36.3452">
    <comp name="--.HHE">
      <acc value="0.1229804777" flag="0"/>
      <vel value="0.0621988772" flag="0"/>
      <psa03 value="0.4209996318" flag="0"/>
      <psa10 value="0.0335973601" flag="0"/>
      <psa30 value="0.0030319227" flag="0"/>
    </comp>
    <comp name="--.HHN">
      <acc value="0.2007861524" flag="0"/>
      <vel value="0.0608360952" flag="0"/>
      <psa03 value="0.4086269640" flag="0"/>
      <psa10 value="0.0322681460" flag="0"/>
      <psa30 value="0.0027784621" flag="0"/>
    </comp>
    <comp name="--.HHZ">
      <acc value="0.0615396700" flag="0"/>
      <vel value="0.0266271687" flag="0"/>
      <psa03 value="0.1165073157" flag="0"/>
      <psa10 value="0.0291550370" flag="0"/>
      <psa30 value="0.0017046839" flag="0"/>
    </comp>
  </station>
</stationlist>
