<?xml version="1.0" encoding="UTF-8" standalone="yes"?>
<!DOCTYPE earthquake SYSTEM "stationlist.dtd">
<stationlist created="" xmlns="ch.ethz.sed.shakemap.usgs.xml">
  <station code="GULT" name="GULT" netid="KO" insttype="CMG-3ESP" lat="40.432" lon="30.5152">
    <comp name="--.HHE">
      <acc value="0.0475468417" flag="0"/>
      <vel value="0.0169271730" flag="0"/>
      <psa03 value="0.0865126021" flag="0"/>
      <psa10 value="0.0081770427" flag="0"/>
      <psa30 value="0.0005613975" flag="0"/>
    </comp>
    <comp name="--.HHN">
      <acc value="0.0537505006" flag="0"/>
      <vel value="0.0153728610" flag="0"/>
      <psa03 value="0.0796906340" flag="0"/>
      <psa10 value="0.0095709924" flag="0"/>
      <psa30 value="0.0005571011" flag="0"/>
    </comp>
  </station>
  <station code="KDZE" name="KDZE" netid="KO" insttype="CMG-3T" lat="41.3132" lon="31.443">
    <comp name="--.HHZ">
      <acc value="0.0836382659" flag="0"/>
      <vel value="0.0126061175" flag="0"/>
      <psa03 value="0.0569969521" flag="0"/>
      <psa10 value="0.0043946055" flag="0"/>
      <psa30 value="0.0003756429" flag="0"/>
    </comp>
    <comp name="--.HHE">
      <acc value="0.1009923783" flag="0"/>
      <vel value="0.0217565951" flag="0"/>
      <psa03 value="0.0782955872" flag="0"/>
      <psa10 value="0.0037399223" flag="0"/>
      <psa30 value="0.0002851147" flag="0"/>
    </comp>
    <comp name="--.HHN">
      <acc value="0.0668637029" flag="0"/>
      <vel value="0.0131549797" flag="0"/>
      <psa03 value="0.0584208888" flag="0"/>
      <psa10 value="0.0054734783" flag="0"/>
      <psa30 value="0.0003078332" flag="0"/>
    </comp>
  </station>
  <station code="RUZG" name="RUZG" netid="KO" insttype="CMG-6T" lat="40.7242" lon="31.7936">
    <comp name="--.HHE">
      <acc value="0.7833205913" flag="0"/>
      <vel value="0.2238218842" flag="0"/>
      <psa03 value="1.0517017952" flag="0"/>
      <psa10 value="0.0516783284" flag="0"/>
      <psa30 value="0.0059840456" flag="0"/>
    </comp>
    <comp name="--.HHN">
      <acc value="0.9166753471" flag="0"/>
      <vel value="0.2799778184" flag="0"/>
      <psa03 value="0.9771320265" flag="0"/>
      <psa10 value="0.0598629288" flag="0"/>
      <psa30 value="0.0067222823" flag="0"/>
    </comp>
    <comp name="--.HHZ">
      <acc value="0.3693676371" flag="0"/>
      <vel value="0.0887242309" flag="0"/>
      <psa03 value="0.2706291888" flag="0"/>
      <psa10 value="0.0173825496" flag="0"/>
      <psa30 value="0.0012111846" flag="0"/>
    </comp>
  </station>
  <station code="SAFT" name="SAFT" netid="KO" insttype="CMG-5T" lat="41.2398" lon="32.6871">
    <comp name="--.HNE">
      <acc value="0.0322293751" flag="0"/>
      <vel value="0.0051420619" flag="0"/>
      <psa03 value="0.0162158642" flag="0"/>
      <psa10 value="0.0016698579" flag="0"/>
      <psa30 value="0.0002985718" flag="0"/>
    </comp>
    <comp name="--.HNN">
      <acc value="0.0452637585" flag="0"/>
      <vel value="0.0073872599" flag="0"/>
      <psa03 value="0.0229807774" flag="0"/>
      <psa10 value="0.0033084763" flag="0"/>
      <psa30 value="0.0002616567" flag="0"/>
    </comp>
    <comp name="--.HNZ">
      <acc value="0.0214142096" flag="0"/>
      <vel value="0.0032826991" flag="0"/>
      <psa03 value="0.0145406209" flag="0"/>
      <psa10 value="0.0015605763" flag="0"/>
      <psa30 value="0.0003500014" flag="0"/>
    </comp>
  </station>
  <station code="SAUV" name="SAUV" netid="KO" insttype="CMG-6T" lat="40.7401" lon="30.3271">
    <comp name="--.HHE">
      <acc value="0.0404905385" flag="0"/>
      <vel value="0.0131579309" flag="0"/>
      <psa03 value="0.0530534734" flag="0"/>
      <psa10 value="0.0036387427" flag="0"/>
      <psa30 value="0.0002994342" flag="0"/>
    </comp>
    <comp name="--.HHN">
      <acc value="0.0341116930" flag="0"/>
      <vel value="0.0100549121" flag="0"/>
      <psa03 value="0.0571768323" flag="0"/>
      <psa10 value="0.0072844001" flag="0"/>
      <psa30 value="0.0004039012" flag="0"/>
    </comp>
    <comp name="--.HHZ">
      <acc value="0.0249174018" flag="0"/>
      <vel value="0.0049452823" flag="0"/>
      <psa03 value="0.0271566805" flag="0"/>
      <psa10 value="0.0034196795" flag="0"/>
      <psa30 value="0.0002328727" flag="0"/>
    </comp>
  </station>
  <station code="UVEZ" name="UVEZ" netid="KO" insttype="CMG-6T" lat="40.904" lon="30.9032">
    <comp name="--.HHE">
      <acc value="0.1268151465" flag="0"/>
      <vel value="0.0493291353" flag="0"/>
      <psa03 value="0.1385437459" flag="0"/>
      <psa10 value="0.0235970439" flag="0"/>
      <psa30 value="0.0010421307" flag="0"/>
    </comp>
    <comp name="--.HHN">
      <acc value="0.1076612668" flag="0"/>
      <vel value="0.0356823090" flag="0"/>
      <psa03 value="0.1930629481" flag="0"/>
      <psa10 value="0.0211893462" flag="0"/>
      <psa30 value="0.0013355616" flag="0"/>
    </comp>
    <comp name="--.HHZ">
      <acc value="0.0671751644" flag="0"/>
      <vel value="0.0209279669" flag="0"/>
      <psa03 value="0.1318646399" flag="0"/>
      <psa10 value="0.0080003451" flag="0"/>
      <psa30 value="0.0005147684" flag="0"/>
    </comp>
  </station>
  <station code="YUVA" name="YUVA" netid="KO" insttype="CMG-5T" lat="40.391" lon="31.6872">
    <comp name="--.HNE">
      <acc value="0.0674713038" flag="0"/>
      <vel value="0.0310689969" flag="0"/>
      <psa03 value="0.1782137267" flag="0"/>
      <psa10 value="0.0195790351" flag="0"/>
      <psa30 value="0.0018681058" flag="0"/>
    </comp>
    <comp name="--.HNN">
      <acc value="0.0803102620" flag="0"/>
      <vel value="0.0251247383" flag="0"/>
      <psa03 value="0.1809748084" flag="0"/>
      <psa10 value="0.0134284490" flag="0"/>
      <psa30 value="0.0008021965" flag="0"/>
    </comp>
    <comp name="--.HNZ">
      <acc value="0.1167279351" flag="0"/>
      <vel value="0.0271454998" flag="0"/>
      <psa03 value="0.1388684657" flag="0"/>
      <psa10 value="0.0087203871" flag="0"/>
      <psa30 value="0.0007052803" flag="0"/>
    </comp>
  </station>
</stationlist>
