<?xml version="1.0" encoding="UTF-8" standalone="yes"?>
<!DOCTYPE earthquake SYSTEM "stationlist.dtd">
<stationlist created="" xmlns="ch.ethz.sed.shakemap.usgs.xml">
  <station code="KALE" name="KALE" netid="HA" insttype="40," lat="38.3911" lon="22.1398">
    <comp name="--.HHE">
      <acc value="0.0582458561" flag="0"/>
      <vel value="0.0231397288" flag="0"/>
      <psa03 value="0.1293997237" flag="0"/>
      <psa10 value="0.0075841480" flag="0"/>
      <psa30 value="0.0004770697" flag="0"/>
    </comp>
    <comp name="--.HHZ">
      <acc value="0.0585668171" flag="0"/>
      <vel value="0.0118674398" flag="0"/>
      <psa03 value="0.0706957800" flag="0"/>
      <psa10 value="0.0041151278" flag="0"/>
      <psa30 value="0.0004295509" flag="0"/>
    </comp>
    <comp name="--.HHN">
      <acc value="0.0754363077" flag="0"/>
      <vel value="0.0291289137" flag="0"/>
      <psa03 value="0.1832902834" flag="0"/>
      <psa10 value="0.0092412578" flag="0"/>
      <psa30 value="0.0005899272" flag="0"/>
    </comp>
  </station>
  <station code="KLV1" name="KLV1" netid="HI" insttype="CMG-5TD,ACCELEROMETER,GURALP" lat="38.0326" lon="22.108">
    <comp name="--.HNZ">
      <acc value="0.0607877565" flag="0"/>
      <vel value="0.0111085860" flag="0"/>
      <psa03 value="0.0392766822" flag="0"/>
      <psa10 value="0.0081139375" flag="0"/>
      <psa30 value="0.0007809669" flag="0"/>
    </comp>
    <comp name="--.HNE">
      <acc value="0.0607879866" flag="0"/>
      <vel value="0.0221799895" flag="0"/>
      <psa03 value="0.1409450116" flag="0"/>
      <psa10 value="0.0130332331" flag="0"/>
      <psa30 value="0.0008558805" flag="0"/>
    </comp>
    <comp name="--.HNN">
      <acc value="0.0453487197" flag="0"/>
      <vel value="0.0196849109" flag="0"/>
      <psa03 value="0.0826152895" flag="0"/>
      <psa10 value="0.0153099334" flag="0"/>
      <psa30 value="0.0007875396" flag="0"/>
    </comp>
  </station>
  <station code="MSL1" name="MSL1" netid="HI" insttype="CMG-5TD,ACCELEROMETER,GURALP" lat="38.3727" lon="21.4243">
    <comp name="--.HNN">
      <acc value="0.1885928359" flag="0"/>
      <vel value="0.0922229610" flag="0"/>
      <psa03 value="0.7259834714" flag="0"/>
      <psa10 value="0.0995560159" flag="0"/>
      <psa30 value="0.0058231249" flag="0"/>
    </comp>
    <comp name="--.HNZ">
      <acc value="0.0785820705" flag="0"/>
      <vel value="0.0335871791" flag="0"/>
      <psa03 value="0.1612777713" flag="0"/>
      <psa10 value="0.0642111837" flag="0"/>
      <psa30 value="0.0022006542" flag="0"/>
    </comp>
    <comp name="--.HNE">
      <acc value="0.1592688720" flag="0"/>
      <vel value="0.0916441495" flag="0"/>
      <psa03 value="0.5077442197" flag="0"/>
      <psa10 value="0.0900777449" flag="0"/>
      <psa30 value="0.0075278773" flag="0"/>
    </comp>
  </station>
  <station code="ITM" name="ITM" netid="HL" insttype="DR24" lat="37.1787" lon="21.9252">
    <comp name="--.HHZ">
      <acc value="0.0096377783" flag="0"/>
      <vel value="0.0085967180" flag="0"/>
      <psa03 value="0.0273221268" flag="0"/>
      <psa10 value="0.0092585431" flag="0"/>
      <psa30 value="0.0009066711" flag="0"/>
    </comp>
    <comp name="--.HHN">
      <acc value="0.0209711011" flag="0"/>
      <vel value="0.0137125844" flag="0"/>
      <psa03 value="0.0506356144" flag="0"/>
      <psa10 value="0.0211574300" flag="0"/>
      <psa30 value="0.0007646481" flag="0"/>
    </comp>
    <comp name="--.HHE">
      <acc value="0.0172193055" flag="0"/>
      <vel value="0.0099144721" flag="0"/>
      <psa03 value="0.0302983516" flag="0"/>
      <psa10 value="0.0117259223" flag="0"/>
      <psa30 value="0.0017978451" flag="0"/>
    </comp>
  </station>
  <station code="KLV" name="KLV" netid="HL" insttype="120" lat="38.0435" lon="22.1504">
    <comp name="--.HHN">
      <acc value="0.0314724999" flag="0"/>
      <vel value="0.0083604626" flag="0"/>
      <psa03 value="0.0353182268" flag="0"/>
      <psa10 value="0.0081234229" flag="0"/>
      <psa30 value="0.0005150088" flag="0"/>
    </comp>
    <comp name="--.HHE">
      <acc value="0.0283357957" flag="0"/>
      <vel value="0.0069322288" flag="0"/>
      <psa03 value="0.0326527771" flag="0"/>
      <psa10 value="0.0067333827" flag="0"/>
      <psa30 value="0.0004058334" flag="0"/>
    </comp>
    <comp name="--.HHZ">
      <acc value="0.0526101236" flag="0"/>
      <vel value="0.0090283438" flag="0"/>
      <psa03 value="0.0412304526" flag="0"/>
      <psa10 value="0.0068731051" flag="0"/>
      <psa30 value="0.0006350463" flag="0"/>
    </comp>
  </station>
  <station code="PATC" name="PATC" netid="HL" insttype="CMG-5" lat="38.2693" lon="21.76">
    <comp name="00.HNE">
      <acc value="0.1936183847" flag="0"/>
      <vel value="0.0821529843" flag="0"/>
      <psa03 value="0.3387882477" flag="0"/>
      <psa10 value="0.0778946895" flag="0"/>
      <psa30 value="0.0050649283" flag="0"/>
    </comp>
    <comp name="00.HNZ">
      <acc value="0.1427680340" flag="0"/>
      <vel value="0.0394831695" flag="0"/>
      <psa03 value="0.2309512663" flag="0"/>
      <psa10 value="0.0292478180" flag="0"/>
      <psa30 value="0.0019727320" flag="0"/>
    </comp>
    <comp name="00.HNN">
      <acc value="0.2260549239" flag="0"/>
      <vel value="0.0660303605" flag="0"/>
      <psa03 value="0.4408143085" flag="0"/>
      <psa10 value="0.0487587226" flag="0"/>
      <psa30 value="0.0041134293" flag="0"/>
    </comp>
  </station>
  <station code="PATG" name="PATG" netid="HL" insttype="CMG-5" lat="38.2386" lon="21.7266">
    <comp name="00.HNZ">
      <acc value="0.1479948313" flag="0"/>
      <vel value="0.0512884296" flag="0"/>
      <psa03 value="0.2436445812" flag="0"/>
      <psa10 value="0.0296565933" flag="0"/>
      <psa30 value="0.0044266859" flag="0"/>
    </comp>
    <comp name="00.HNE">
      <acc value="0.2917825307" flag="0"/>
      <vel value="0.1049419491" flag="0"/>
      <psa03 value="0.5779843908" flag="0"/>
      <psa10 value="0.0524926663" flag="0"/>
      <psa30 value="0.0051317602" flag="0"/>
    </comp>
    <comp name="00.HNN">
      <acc value="0.6014740354" flag="0"/>
      <vel value="0.2385962220" flag="0"/>
      <psa03 value="1.1805326638" flag="0"/>
      <psa10 value="0.1355196205" flag="0"/>
      <psa30 value="0.0080677846" flag="0"/>
    </comp>
  </station>
  <station code="RIOA" name="RIOA" netid="HL" insttype="CMG-5" lat="38.2959" lon="21.7912">
    <comp name="00.HNN">
      <acc value="0.2195934908" flag="0"/>
      <vel value="0.0752506829" flag="0"/>
      <psa03 value="0.2633530578" flag="0"/>
      <psa10 value="0.0309405308" flag="0"/>
      <psa30 value="0.0029811723" flag="0"/>
    </comp>
    <comp name="00.HNE">
      <acc value="0.1558732799" flag="0"/>
      <vel value="0.0404344882" flag="0"/>
      <psa03 value="0.1738560163" flag="0"/>
      <psa10 value="0.0259997460" flag="0"/>
      <psa30 value="0.0014394731" flag="0"/>
    </comp>
    <comp name="00.HNZ">
      <acc value="0.1848978261" flag="0"/>
      <vel value="0.0425127395" flag="0"/>
      <psa03 value="0.1371256519" flag="0"/>
      <psa10 value="0.0127929447" flag="0"/>
      <psa30 value="0.0014182745" flag="0"/>
    </comp>
  </station>
  <station code="RLS" name="RLS" netid="HL" insttype="CMG3ESPC-120s" lat="38.0559" lon="21.4647">
    <comp name="--.HHE">
      <acc value="0.3762789418" flag="0"/>
      <vel value="0.0882018262" flag="0"/>
      <psa03 value="0.5453594552" flag="0"/>
      <psa10 value="0.0420998262" flag="0"/>
      <psa30 value="0.0030705797" flag="0"/>
    </comp>
    <comp name="--.HHN">
      <acc value="0.3136253199" flag="0"/>
      <vel value="0.1113197451" flag="0"/>
      <psa03 value="0.5896529668" flag="0"/>
      <psa10 value="0.0620685933" flag="0"/>
      <psa30 value="0.0031627633" flag="0"/>
    </comp>
    <comp name="--.HHZ">
      <acc value="0.1404069737" flag="0"/>
      <vel value="0.0424460850" flag="0"/>
      <psa03 value="0.1995969867" flag="0"/>
      <psa10 value="0.0197910897" flag="0"/>
      <psa30 value="0.0022324725" flag="0"/>
    </comp>
  </station>
  <station code="VLS" name="VLS" netid="HL" insttype="120P," lat="38.1768" lon="20.5886">
    <comp name="--.HHZ">
      <acc value="0.0828395686" flag="0"/>
      <vel value="0.0202106721" flag="0"/>
      <psa03 value="0.0999519354" flag="0"/>
      <psa10 value="0.0069701632" flag="0"/>
      <psa30 value="0.0006406192" flag="0"/>
    </comp>
    <comp name="--.HHE">
      <acc value="0.1959747868" flag="0"/>
      <vel value="0.0300595683" flag="0"/>
      <psa03 value="0.1955244044" flag="0"/>
      <psa10 value="0.0095322944" flag="0"/>
      <psa30 value="0.0008427725" flag="0"/>
    </comp>
    <comp name="--.HHN">
      <acc value="0.1507498595" flag="0"/>
      <vel value="0.0338907788" flag="0"/>
      <psa03 value="0.1965887894" flag="0"/>
      <psa10 value="0.0209102709" flag="0"/>
      <psa30 value="0.0014414606" flag="0"/>
    </comp>
  </station>
  <station code="AMPL" name="AMPL" netid="HP" insttype="Compact," lat="38.9224" lon="21.2135">
    <comp name="--.HHE">
      <acc value="0.0315475381" flag="0"/>
      <vel value="0.0169067896" flag="0"/>
      <psa03 value="0.0744263828" flag="0"/>
      <psa10 value="0.0129569950" flag="0"/>
      <psa30 value="0.0010036445" flag="0"/>
    </comp>
    <comp name="--.HHN">
      <acc value="0.0343871076" flag="0"/>
      <vel value="0.0138866789" flag="0"/>
      <psa03 value="0.0637743355" flag="0"/>
      <psa10 value="0.0098876886" flag="0"/>
      <psa30 value="0.0006521119" flag="0"/>
    </comp>
    <comp name="--.HHZ">
      <acc value="0.0141873960" flag="0"/>
      <vel value="0.0076288767" flag="0"/>
      <psa03 value="0.0369829534" flag="0"/>
      <psa10 value="0.0113666616" flag="0"/>
      <psa30 value="0.0006223168" flag="0"/>
    </comp>
  </station>
  <station code="AMT" name="AMT" netid="HP" insttype="CMG-3T," lat="37.5324" lon="21.7089">
    <comp name="00.HHN">
      <acc value="0.0314544064" flag="0"/>
      <vel value="0.0282172800" flag="0"/>
      <psa03 value="0.0864642425" flag="0"/>
      <psa10 value="0.0357227846" flag="0"/>
      <psa30 value="0.0025433193" flag="0"/>
    </comp>
    <comp name="00.HHZ">
      <acc value="0.0292354483" flag="0"/>
      <vel value="0.0190658126" flag="0"/>
      <psa03 value="0.0678699021" flag="0"/>
      <psa10 value="0.0203601398" flag="0"/>
      <psa30 value="0.0011550875" flag="0"/>
    </comp>
    <comp name="00.HHE">
      <acc value="0.0404407760" flag="0"/>
      <vel value="0.0336193560" flag="0"/>
      <psa03 value="0.1112721324" flag="0"/>
      <psa10 value="0.0572459084" flag="0"/>
      <psa30 value="0.0030536036" flag="0"/>
    </comp>
  </station>
  <station code="ANX" name="ANX" netid="HP" insttype="120" lat="38.5933" lon="21.9209">
    <comp name="--.HHZ">
      <acc value="0.0382060805" flag="0"/>
      <vel value="0.0216889268" flag="0"/>
      <psa03 value="0.1678603078" flag="0"/>
      <psa10 value="0.0099663886" flag="0"/>
      <psa30 value="0.0005878607" flag="0"/>
    </comp>
    <comp name="--.HHN">
      <acc value="0.0629917430" flag="0"/>
      <vel value="0.0413130393" flag="0"/>
      <psa03 value="0.2050790563" flag="0"/>
      <psa10 value="0.0211886793" flag="0"/>
      <psa30 value="0.0013345061" flag="0"/>
    </comp>
    <comp name="--.HHE">
      <acc value="0.0888480915" flag="0"/>
      <vel value="0.0419847075" flag="0"/>
      <psa03 value="0.2705249704" flag="0"/>
      <psa10 value="0.0206717065" flag="0"/>
      <psa30 value="0.0013365109" flag="0"/>
    </comp>
  </station>
  <station code="AXS" name="AXS" netid="HP" insttype="40," lat="38.1962" lon="21.3763">
    <comp name="--.HHE">
      <acc value="0.1248774398" flag="0"/>
      <vel value="0.0592659175" flag="0"/>
      <psa03 value="0.2977445611" flag="0"/>
      <psa10 value="0.0419681736" flag="0"/>
      <psa30 value="0.0031283353" flag="0"/>
    </comp>
    <comp name="--.HHN">
      <acc value="0.0970468950" flag="0"/>
      <vel value="0.0845407027" flag="0"/>
      <psa03 value="0.1816940736" flag="0"/>
      <psa10 value="0.0633440453" flag="0"/>
      <psa30 value="0.0044784725" flag="0"/>
    </comp>
    <comp name="--.HHZ">
      <acc value="0.0585605206" flag="0"/>
      <vel value="0.0322726634" flag="0"/>
      <psa03 value="0.1041522299" flag="0"/>
      <psa10 value="0.0251594305" flag="0"/>
      <psa30 value="0.0016961393" flag="0"/>
    </comp>
  </station>
  <station code="DRO" name="DRO" netid="HP" insttype="120P," lat="37.952" lon="21.71">
    <comp name="--.HHE">
      <acc value="0.2052010169" flag="0"/>
      <vel value="0.0720841936" flag="0"/>
      <psa03 value="0.3043069089" flag="0"/>
      <psa10 value="0.0350418153" flag="0"/>
      <psa30 value="0.0023887685" flag="0"/>
    </comp>
    <comp name="--.HHN">
      <acc value="0.2901591092" flag="0"/>
      <vel value="0.0870952341" flag="0"/>
      <psa03 value="0.4914246045" flag="0"/>
      <psa10 value="0.0355428076" flag="0"/>
      <psa30 value="0.0024429293" flag="0"/>
    </comp>
    <comp name="--.HHZ">
      <acc value="0.1129516825" flag="0"/>
      <vel value="0.0294044541" flag="0"/>
      <psa03 value="0.1722413074" flag="0"/>
      <psa10 value="0.0189289137" flag="0"/>
      <psa30 value="0.0010585251" flag="0"/>
    </comp>
  </station>
  <station code="EFP" name="EFP" netid="HP" insttype="40," lat="38.4269" lon="21.9058">
    <comp name="--.HHE">
      <acc value="0.0651160033" flag="0"/>
      <vel value="0.0207729999" flag="0"/>
      <psa03 value="0.1274698991" flag="0"/>
      <psa10 value="0.0070515200" flag="0"/>
      <psa30 value="0.0006622471" flag="0"/>
    </comp>
    <comp name="--.HHZ">
      <acc value="0.0694671302" flag="0"/>
      <vel value="0.0181209924" flag="0"/>
      <psa03 value="0.0779352439" flag="0"/>
      <psa10 value="0.0062142691" flag="0"/>
      <psa30 value="0.0004998414" flag="0"/>
    </comp>
    <comp name="--.HHN">
      <acc value="0.0589394835" flag="0"/>
      <vel value="0.0225645647" flag="0"/>
      <psa03 value="0.1645552557" flag="0"/>
      <psa10 value="0.0112156256" flag="0"/>
      <psa30 value="0.0010618151" flag="0"/>
    </comp>
  </station>
  <station code="FSK" name="FSK" netid="HP" insttype="40," lat="38.4593" lon="20.5623">
    <comp name="--.HHE">
      <acc value="0.0335700228" flag="0"/>
      <vel value="0.0124673473" flag="0"/>
      <psa03 value="0.0615034640" flag="0"/>
      <psa10 value="0.0104764004" flag="0"/>
      <psa30 value="0.0012046317" flag="0"/>
    </comp>
    <comp name="--.HHZ">
      <acc value="0.0191761141" flag="0"/>
      <vel value="0.0071735328" flag="0"/>
      <psa03 value="0.0322638455" flag="0"/>
      <psa10 value="0.0066542031" flag="0"/>
      <psa30 value="0.0004502973" flag="0"/>
    </comp>
    <comp name="--.HHN">
      <acc value="0.0161139979" flag="0"/>
      <vel value="0.0073732285" flag="0"/>
      <psa03 value="0.0419628998" flag="0"/>
      <psa10 value="0.0100700367" flag="0"/>
      <psa30 value="0.0011982273" flag="0"/>
    </comp>
  </station>
  <station code="GUR" name="GUR" netid="HP" insttype="40," lat="37.9363" lon="22.3423">
    <comp name="--.HHE">
      <acc value="0.0262559774" flag="0"/>
      <vel value="0.0167260009" flag="0"/>
      <psa03 value="0.1049744781" flag="0"/>
      <psa10 value="0.0131480672" flag="0"/>
      <psa30 value="0.0007085510" flag="0"/>
    </comp>
    <comp name="--.HHN">
      <acc value="0.0484851300" flag="0"/>
      <vel value="0.0275268328" flag="0"/>
      <psa03 value="0.1065470378" flag="0"/>
      <psa10 value="0.0125925796" flag="0"/>
      <psa30 value="0.0012270270" flag="0"/>
    </comp>
    <comp name="--.HHZ">
      <acc value="0.0225265307" flag="0"/>
      <vel value="0.0093230940" flag="0"/>
      <psa03 value="0.0491708467" flag="0"/>
      <psa10 value="0.0111869846" flag="0"/>
      <psa30 value="0.0005251973" flag="0"/>
    </comp>
  </station>
  <station code="LTHK" name="LTHK" netid="HP" insttype="40," lat="37.7095" lon="20.8367">
    <comp name="--.HHN">
      <acc value="0.7271077656" flag="0"/>
      <vel value="0.1664155923" flag="0"/>
      <psa03 value="1.6627974427" flag="0"/>
      <psa10 value="0.0840931499" flag="0"/>
      <psa30 value="0.0054122286" flag="0"/>
    </comp>
    <comp name="--.HHE">
      <acc value="0.5383235361" flag="0"/>
      <vel value="0.1906838016" flag="0"/>
      <psa03 value="0.7564113121" flag="0"/>
      <psa10 value="0.1004949485" flag="0"/>
      <psa30 value="0.0065111489" flag="0"/>
    </comp>
    <comp name="--.HHZ">
      <acc value="0.4292962949" flag="0"/>
      <vel value="0.1093018781" flag="0"/>
      <psa03 value="0.8409556340" flag="0"/>
      <psa10 value="0.0338273793" flag="0"/>
      <psa30 value="0.0029865264" flag="0"/>
    </comp>
  </station>
  <station code="PDO" name="PDO" netid="HP" insttype="120s" lat="38.5986" lon="21.1833">
    <comp name="--.HHE">
      <acc value="0.1240664668" flag="0"/>
      <vel value="0.0453999536" flag="0"/>
      <psa03 value="0.2659131726" flag="0"/>
      <psa10 value="0.0384674012" flag="0"/>
      <psa30 value="0.0017002909" flag="0"/>
    </comp>
    <comp name="--.HHN">
      <acc value="0.1279687649" flag="0"/>
      <vel value="0.0550138268" flag="0"/>
      <psa03 value="0.3048172380" flag="0"/>
      <psa10 value="0.0354020951" flag="0"/>
      <psa30 value="0.0025118771" flag="0"/>
    </comp>
    <comp name="--.HHZ">
      <acc value="0.1013819314" flag="0"/>
      <vel value="0.0292363811" flag="0"/>
      <psa03 value="0.1730829754" flag="0"/>
      <psa10 value="0.0114986787" flag="0"/>
      <psa30 value="0.0007387570" flag="0"/>
    </comp>
  </station>
  <station code="PLEV" name="PLEV" netid="HP" insttype="Compact," lat="38.4124" lon="21.4073">
    <comp name="--.HHE">
      <acc value="0.0961733756" flag="0"/>
      <vel value="0.0427015670" flag="0"/>
      <psa03 value="0.1819847336" flag="0"/>
      <psa10 value="0.0193598765" flag="0"/>
      <psa30 value="0.0020180566" flag="0"/>
    </comp>
    <comp name="--.HHZ">
      <acc value="0.0477624646" flag="0"/>
      <vel value="0.0199206916" flag="0"/>
      <psa03 value="0.0766174885" flag="0"/>
      <psa10 value="0.0121857422" flag="0"/>
      <psa30 value="0.0006202927" flag="0"/>
    </comp>
    <comp name="--.HHN">
      <acc value="0.0997939140" flag="0"/>
      <vel value="0.0398078502" flag="0"/>
      <psa03 value="0.1337500475" flag="0"/>
      <psa10 value="0.0200375295" flag="0"/>
      <psa30 value="0.0020112349" flag="0"/>
    </comp>
  </station>
  <station code="PVO" name="PVO" netid="HP" insttype="120P," lat="38.616" lon="21.525">
    <comp name="--.HHE">
      <acc value="0.1190433267" flag="0"/>
      <vel value="0.0520970384" flag="0"/>
      <psa03 value="0.2552786272" flag="0"/>
      <psa10 value="0.0303822541" flag="0"/>
      <psa30 value="0.0022693746" flag="0"/>
    </comp>
    <comp name="--.HHN">
      <acc value="0.1567492320" flag="0"/>
      <vel value="0.0658081187" flag="0"/>
      <psa03 value="0.2074125258" flag="0"/>
      <psa10 value="0.0243781598" flag="0"/>
      <psa30 value="0.0018573163" flag="0"/>
    </comp>
    <comp name="--.HHZ">
      <acc value="0.1072051427" flag="0"/>
      <vel value="0.0378948545" flag="0"/>
      <psa03 value="0.2041617483" flag="0"/>
      <psa10 value="0.0122086216" flag="0"/>
      <psa30 value="0.0009293354" flag="0"/>
    </comp>
  </station>
  <station code="SERG" name="SERG" netid="HP" insttype="2000" lat="38.4133" lon="22.0566">
    <comp name="00.HHE">
      <acc value="0.0953397594" flag="0"/>
      <vel value="0.0231425416" flag="0"/>
      <psa03 value="0.1325926679" flag="0"/>
      <psa10 value="0.0077395746" flag="0"/>
      <psa30 value="0.0004837941" flag="0"/>
    </comp>
    <comp name="00.HHN">
      <acc value="0.1453200730" flag="0"/>
      <vel value="0.0424407560" flag="0"/>
