<stationlist created="1778136758">
	<station code="ROD3" name="ROD3" netid="CL" source="Corinth Riff Laboratory (CRLNET)" insttype="" lat="38.30811" lon="21.89204">
		<comp name="00.HNE" depth="0.0">
			<acc value="0.447342014119066" flag="0"/>
			<vel value="0.141577982113057" flag="0"/>
			<psa03 value="1.22759748897419" flag="0"/>
			<psa10 value="0.0527225751119694" flag="0"/>
			<psa30 value="0.00274482933147289" flag="0"/>
		</comp>
		<comp name="00.HNN" depth="0.0">
			<acc value="0.492718420546794" flag="0"/>
			<vel value="0.210902677494761" flag="0"/>
			<psa03 value="1.34864000744811" flag="0"/>
			<psa10 value="0.0613232711155548" flag="0"/>
			<psa30 value="0.00544152922460482" flag="0"/>
		</comp>
		<comp name="00.HNZ" depth="0.0">
			<acc value="0.264135908583875" flag="0"/>
			<vel value="0.0804734843584315" flag="0"/>
			<psa03 value="0.181567048759014" flag="0"/>
			<psa10 value="0.0158927840689363" flag="0"/>
			<psa30 value="0.00133052970356249" flag="0"/>
		</comp>
	</station>
	<station code="AIGS" name="AIGS" netid="HA" source="Hellenic Seismological Network, University of Athens, Seismological Laboratory (HA)" insttype="" lat="38.25001" lon="22.0878">
		<comp name="--.HNE" depth="0.0">
			<acc value="0.145123094591819" flag="0"/>
			<vel value="0.0553166029864536" flag="0"/>
			<psa03 value="0.475813937003809" flag="0"/>
			<psa10 value="0.0160578156264782" flag="0"/>
			<psa30 value="0.00188483090246188" flag="0"/>
		</comp>
		<comp name="--.HNN" depth="0.0">
			<acc value="0.115149306585115" flag="0"/>
			<vel value="0.0324883125592781" flag="0"/>
			<psa03 value="0.17667364126178" flag="0"/>
			<psa10 value="0.0105678466304598" flag="0"/>
			<psa30 value="0.00110173569291646" flag="0"/>
		</comp>
		<comp name="--.HNZ" depth="0.0">
			<acc value="0.0839549464631681" flag="0"/>
			<vel value="0.026590869733899" flag="0"/>
			<psa03 value="0.122267380864135" flag="0"/>
			<psa10 value="0.0122996354154866" flag="0"/>
			<psa30 value="0.00104523580424012" flag="0"/>
		</comp>
	</station>
	<station code="KIAS" name="KIAS" netid="HA" source="Hellenic Seismological Network, University of Athens, Seismological Laboratory (HA)" insttype="" lat="37.9875" lon="22.7543">
		<comp name="--.HNE" depth="0.0">
			<acc value="0.0126552900989704" flag="0"/>
			<vel value="0.00828584145829934" flag="0"/>
			<psa03 value="0.0346590980785037" flag="0"/>
			<psa10 value="0.0122763707493232" flag="0"/>
			<psa30 value="0.00157248948221075" flag="0"/>
		</comp>
		<comp name="--.HNN" depth="0.0">
			<acc value="0.0158860236647067" flag="0"/>
			<vel value="0.00922562039804154" flag="0"/>
			<psa03 value="0.0237888962101074" flag="0"/>
			<psa10 value="0.0133008064256422" flag="0"/>
			<psa30 value="0.00209397267374558" flag="0"/>
		</comp>
		<comp name="--.HNZ" depth="0.0">
			<acc value="0.0100981142080511" flag="0"/>
			<vel value="0.0058670593512352" flag="0"/>
			<psa03 value="0.0248098206121707" flag="0"/>
			<psa10 value="0.00864376666963257" flag="0"/>
			<psa30 value="0.0013856957538747" flag="0"/>
		</comp>
	</station>
	<station code="LTRS" name="LTRS" netid="HA" source="Hellenic Seismological Network, University of Athens, Seismological Laboratory (HA)" insttype="" lat="37.97528" lon="22.9765">
		<comp name="--.HNE" depth="0.0">
			<acc value="0.00929362224920648" flag="0"/>
			<vel value="0.00714781948122923" flag="0"/>
			<psa03 value="0.0308743655876971" flag="0"/>
			<psa10 value="0.0146255066805271" flag="0"/>
			<psa30 value="0.00130966665482385" flag="0"/>
		</comp>
		<comp name="--.HNN" depth="0.0">
			<acc value="0.00970551413888951" flag="0"/>
			<vel value="0.00761656972351127" flag="0"/>
			<psa03 value="0.0419579305486399" flag="0"/>
			<psa10 value="0.00863681652172504" flag="0"/>
			<psa30 value="0.000912474821979292" flag="0"/>
		</comp>
		<comp name="--.HNZ" depth="0.0">
			<acc value="0.00501511942650047" flag="0"/>
			<vel value="0.00547332497235613" flag="0"/>
			<psa03 value="0.0179331710574735" flag="0"/>
			<psa10 value="0.00929281372830314" flag="0"/>
			<psa30 value="0.000902331545871229" flag="0"/>
		</comp>
	</station>
	<station code="XLKS" name="XLKS" netid="HA" source="Hellenic Seismological Network, University of Athens, Seismological Laboratory (HA)" insttype="" lat="38.0772" lon="22.6361">
		<comp name="--.HNE" depth="0.0">
			<acc value="0.0258041528237998" flag="0"/>
			<vel value="0.0191215256315785" flag="0"/>
			<psa03 value="0.0762716515810635" flag="0"/>
			<psa10 value="0.0295474123710603" flag="0"/>
			<psa30 value="0.00207470327224196" flag="0"/>
		</comp>
		<comp name="--.HNN" depth="0.0">
			<acc value="0.0202018208962208" flag="0"/>
			<vel value="0.0174367981803173" flag="0"/>
			<psa03 value="0.0533106461521071" flag="0"/>
			<psa10 value="0.034469174663651" flag="0"/>
			<psa30 value="0.00180399867272582" flag="0"/>
		</comp>
		<comp name="--.HNZ" depth="0.0">
			<acc value="0.0157829106025912" flag="0"/>
			<vel value="0.00996045462535616" flag="0"/>
			<psa03 value="0.0482085633723057" flag="0"/>
			<psa10 value="0.014380434508225" flag="0"/>
			<psa30 value="0.00159539318696682" flag="0"/>
		</comp>
	</station>
	<station code="ARS1" name="ARS1" netid="HI" source="ITSAK Strong Motion Network" insttype="" lat="37.6349" lon="22.7293">
		<comp name="--.HNE" depth="0.0">
			<acc value="0.00977967938691048" flag="0"/>
			<vel value="0.00772387561686975" flag="0"/>
			<psa03 value="0.0231514946103763" flag="0"/>
			<psa10 value="0.0113505506682573" flag="0"/>
			<psa30 value="0.00159608875387909" flag="0"/>
		</comp>
		<comp name="--.HNN" depth="0.0">
			<acc value="0.015580749426454" flag="0"/>
			<vel value="0.0140286973100841" flag="0"/>
			<psa03 value="0.0423819143646513" flag="0"/>
			<psa10 value="0.0169505003874435" flag="0"/>
			<psa30 value="0.00119845251659753" flag="0"/>
		</comp>
		<comp name="--.HNZ" depth="0.0">
			<acc value="0.00578304766251497" flag="0"/>
			<vel value="0.00370996752544986" flag="0"/>
			<psa03 value="0.0189550994323272" flag="0"/>
			<psa10 value="0.00504877758173687" flag="0"/>
			<psa30 value="0.000812915153723717" flag="0"/>
		</comp>
	</station>
	<station code="ART2" name="ART2" netid="HI" source="ITSAK Strong Motion Network" insttype="" lat="39.1474" lon="20.9937">
		<comp name="--.HNE" depth="0.0">
			<acc value="0.00946838921854966" flag="0"/>
			<vel value="0.00444994994575201" flag="0"/>
			<psa03 value="0.0219732342647798" flag="0"/>
			<psa10 value="0.00479270874341708" flag="0"/>
			<psa30 value="0.000327146177036987" flag="0"/>
		</comp>
		<comp name="--.HNN" depth="0.0">
			<acc value="0.00808100001120891" flag="0"/>
			<vel value="0.00396634777904299" flag="0"/>
			<psa03 value="0.01422341488769" flag="0"/>
			<psa10 value="0.00441663711178804" flag="0"/>
			<psa30 value="0.000263469406679953" flag="0"/>
		</comp>
		<comp name="--.HNZ" depth="0.0">
			<acc value="0.00437561881716898" flag="0"/>
			<vel value="0.00250620935531968" flag="0"/>
			<psa03 value="0.0109758091247364" flag="0"/>
			<psa10 value="0.00338760878745826" flag="0"/>
			<psa30 value="0.000373896695904232" flag="0"/>
		</comp>
	</station>
	<station code="KLV1" name="KLV1" netid="HI" source="ITSAK Strong Motion Network" insttype="" lat="38.03256" lon="22.10797">
		<comp name="--.HNE" depth="0.0">
			<acc value="0.0596752147283771" flag="0"/>
			<vel value="0.0223206383356235" flag="0"/>
			<psa03 value="0.143737699000243" flag="0"/>
			<psa10 value="0.0130691488919563" flag="0"/>
			<psa30 value="0.000899490107638237" flag="0"/>
		</comp>
		<comp name="--.HNN" depth="0.0">
			<acc value="0.0451292109991536" flag="0"/>
			<vel value="0.0198839678991873" flag="0"/>
			<psa03 value="0.0847479787211772" flag="0"/>
			<psa10 value="0.015353753360816" flag="0"/>
			<psa30 value="0.000859076024153636" flag="0"/>
		</comp>
		<comp name="--.HNZ" depth="0.0">
			<acc value="0.0582101881562137" flag="0"/>
			<vel value="0.0111979734268401" flag="0"/>
			<psa03 value="0.0394513738765535" flag="0"/>
			<psa10 value="0.00812626613773699" flag="0"/>
			<psa30 value="0.0008661296164187" flag="0"/>
		</comp>
	</station>
	<station code="KRK1" name="KRK1" netid="HI" source="ITSAK Strong Motion Network" insttype="" lat="39.618861" lon="19.9202">
		<comp name="--.HNE" depth="0.0">
			<acc value="0.00738686979168538" flag="0"/>
			<vel value="0.00380482972726391" flag="0"/>
			<psa03 value="0.015589186352942" flag="0"/>
			<psa10 value="0.00337237480952961" flag="0"/>
			<psa30 value="0.000291039514314484" flag="0"/>
		</comp>
		<comp name="--.HNN" depth="0.0">
			<acc value="0.00662916119526366" flag="0"/>
			<vel value="0.0034342517935481" flag="0"/>
			<psa03 value="0.0169050222185101" flag="0"/>
			<psa10 value="0.00373255429465311" flag="0"/>
			<psa30 value="0.000185254394590466" flag="0"/>
		</comp>
		<comp name="--.HNZ" depth="0.0">
			<acc value="0.00289214416488705" flag="0"/>
			<vel value="0.00134470904704611" flag="0"/>
			<psa03 value="0.00798584933584376" flag="0"/>
			<psa10 value="0.00139633363306153" flag="0"/>
			<psa30 value="0.000164702707621142" flag="0"/>
		</comp>
	</station>
	<station code="LAM2" name="LAM2" netid="HI" source="ITSAK Strong Motion Network" insttype="" lat="38.90203" lon="22.431301">
		<comp name="--.HNE" depth="0.0">
			<acc value="0.00823471569537486" flag="0"/>
			<vel value="0.00435163925418756" flag="0"/>
			<psa03 value="0.0262487518718368" flag="0"/>
			<psa10 value="0.00418919110709006" flag="0"/>
			<psa30 value="0.000778979832758616" flag="0"/>
		</comp>
		<comp name="--.HNN" depth="0.0">
			<acc value="0.00805190939929635" flag="0"/>
			<vel value="0.0048110552161978" flag="0"/>
			<psa03 value="0.0276888446667479" flag="0"/>
			<psa10 value="0.00379640274304886" flag="0"/>
			<psa30 value="0.000915054992902049" flag="0"/>
		</comp>
		<comp name="--.HNZ" depth="0.0">
			<acc value="0.00321919591337531" flag="0"/>
			<vel value="0.00225204497984154" flag="0"/>
			<psa03 value="0.00884603782952925" flag="0"/>
			<psa10 value="0.00222008824182348" flag="0"/>
			<psa30 value="0.000370405735478787" flag="0"/>
		</comp>
	</station>
	<station code="MSL1" name="MSL1" netid="HI" source="ITSAK Strong Motion Network" insttype="" lat="38.3727" lon="21.4243">
		<comp name="--.HNE" depth="0.0">
			<acc value="0.158914192799052" flag="0"/>
			<vel value="0.0919195864922367" flag="0"/>
			<psa03 value="0.510211549011278" flag="0"/>
			<psa10 value="0.0900115428231092" flag="0"/>
			<psa30 value="0.00758747429959122" flag="0"/>
		</comp>
		<comp name="--.HNN" depth="0.0">
			<acc value="0.188047540119525" flag="0"/>
			<vel value="0.0927397040780032" flag="0"/>
			<psa03 value="0.734297226920585" flag="0"/>
			<psa10 value="0.0997202834793223" flag="0"/>
			<psa30 value="0.00585330858627853" flag="0"/>
		</comp>
		<comp name="--.HNZ" depth="0.0">
			<acc value="0.0757412041134419" flag="0"/>
			<vel value="0.0338931006612409" flag="0"/>
			<psa03 value="0.164728974986317" flag="0"/>
			<psa10 value="0.0643002220741376" flag="0"/>
			<psa30 value="0.00225707035316802" flag="0"/>
		</comp>
	</station>
	<station code="PYL1" name="PYL1" netid="HI" source="ITSAK Strong Motion Network" insttype="" lat="36.914188" lon="21.695161">
		<comp name="--.HNE" depth="0.0">
			<acc value="0.00755578658967213" flag="0"/>
			<vel value="0.00446260607359472" flag="0"/>
			<psa03 value="0.0205964607685928" flag="0"/>
			<psa10 value="0.00540894534734627" flag="0"/>
			<psa30 value="0.000779606176331914" flag="0"/>
		</comp>
		<comp name="--.HNN" depth="0.0">
			<acc value="0.00935371873782609" flag="0"/>
			<vel value="0.00358161101845109" flag="0"/>
			<psa03 value="0.0146941804485962" flag="0"/>
			<psa10 value="0.00350635806026242" flag="0"/>
			<psa30 value="0.000521260989316331" flag="0"/>
		</comp>
		<comp name="--.HNZ" depth="0.0">
			<acc value="0.00905609171910737" flag="0"/>
			<vel value="0.00260518263033734" flag="0"/>
			<psa03 value="0.0108013431401568" flag="0"/>
			<psa10 value="0.00283651728034891" flag="0"/>
			<psa30 value="0.000408338196234782" flag="0"/>
		</comp>
	</station>
	<station code="VAS2" name="VAS2" netid="HI" source="ITSAK Strong Motion Network" insttype="" lat="38.630558" lon="20.608081">
		<comp name="--.HNE" depth="0.0">
			<acc value="0.111170376722934" flag="0"/>
			<vel value="0.0505675028163956" flag="0"/>
			<psa03 value="0.221398333219785" flag="0"/>
			<psa10 value="0.0833001507259816" flag="0"/>
			<psa30 value="0.00320266111891498" flag="0"/>
		</comp>
		<comp name="--.HNN" depth="0.0">
			<acc value="0.131476380814765" flag="0"/>
			<vel value="0.0753079246440481" flag="0"/>
			<psa03 value="0.245892455835176" flag="0"/>
			<psa10 value="0.150337439117463" flag="0"/>
			<psa30 value="0.0048276735596932" flag="0"/>
		</comp>
		<comp name="--.HNZ" depth="0.0">
			<acc value="0.0544456174562208" flag="0"/>
			<vel value="0.0259763005208018" flag="0"/>
			<psa03 value="0.175414203663395" flag="0"/>
			<psa10 value="0.0349172393457583" flag="0"/>
			<psa30 value="0.00138854615103659" flag="0"/>
		</comp>
	</station>
	<station code="DLFA" name="DLFA" netid="HL" source="National Observatory of Athens Seismic Network" insttype="" lat="38.47836" lon="22.49583">
		<comp name="00.HNE" depth="0.0">
			<acc value="0.00786677162127469" flag="0"/>
			<vel value="0.00389643138043485" flag="0"/>
			<psa03 value="0.0242859473664898" flag="0"/>
			<psa10 value="0.00644034523500582" flag="0"/>
			<psa30 value="0.000381645516517285" flag="0"/>
		</comp>
		<comp name="00.HNN" depth="0.0">
			<acc value="0.00898042838693699" flag="0"/>
			<vel value="0.00491189866970567" flag="0"/>
			<psa03 value="0.0252188503125437" flag="0"/>
			<psa10 value="0.0123884619248027" flag="0"/>
			<psa30 value="0.000445221108296577" flag="0"/>
		</comp>
		<comp name="00.HNZ" depth="0.0">
			<acc value="0.00680616735871557" flag="0"/>
			<vel value="0.00413773244582045" flag="0"/>
			<psa03 value="0.02046991592732" flag="0"/>
			<psa10 value="0.00429152648005571" flag="0"/>
			<psa30 value="0.000365598073244735" flag="0"/>
		</comp>
	</station>
	<station code="ITM" name="ITM" netid="HL" source="National Observatory of Athens Seismic Network" insttype="" lat="37.17872" lon="21.92522">
		<comp name="--.HNE" depth="0.0">
			<acc value="0.0167633641168115" flag="0"/>
			<vel value="0.00988149732118974" flag="0"/>
			<psa03 value="0.0301092758417498" flag="0"/>
			<psa10 value="0.0117697825028472" flag="0"/>
			<psa30 value="0.00176818400851204" flag="0"/>
		</comp>
		<comp name="--.HNN" depth="0.0">
			<acc value="0.020622650188854" flag="0"/>
			<vel value="0.013593033737633" flag="0"/>
			<psa03 value="0.0496389497951055" flag="0"/>
			<psa10 value="0.0206876510803615" flag="0"/>
			<psa30 value="0.000820206574243976" flag="0"/>
		</comp>
		<comp name="--.HNZ" depth="0.0">
			<acc value="0.00927775409586633" flag="0"/>
			<vel value="0.00801032542377994" flag="0"/>
			<psa03 value="0.0256976320295126" flag="0"/>
			<psa10 value="0.00865536806314954" flag="0"/>
			<psa30 value="0.000910342805745031" flag="0"/>
		</comp>
	</station>
	<station code="JAN" name="JAN" netid="HL" source="National Observatory of Athens Seismic Network" insttype="" lat="39.65616" lon="20.84874">
		<comp name="00.HNE" depth="0.0">
			<acc value="0.00429428178342914" flag="0"/>
			<vel value="0.00318208309630883" flag="0"/>
			<psa03 value="0.0100486669769765" flag="0"/>
			<psa10 value="0.00411177894766397" flag="0"/>
			<psa30 value="0.000530693072479909" flag="0"/>
		</comp>
		<comp name="00.HNN" depth="0.0">
			<acc value="0.00274367637271632" flag="0"/>
			<vel value="0.00173132797061567" flag="0"/>
			<psa03 value="0.011028800916413" flag="0"/>
			<psa10 value="0.00303351618993515" flag="0"/>
			<psa30 value="0.000308784908609813" flag="0"/>
		</comp>
		<comp name="00.HNZ" depth="0.0">
			<acc value="0.00170262212453847" flag="0"/>
			<vel value="0.0011174268844057" flag="0"/>
			<psa03 value="0.00516809268628791" flag="0"/>
			<psa10 value="0.0021441000048541" flag="0"/>
			<psa30 value="0.000327193133272774" flag="0"/>
		</comp>
	</station>
	<station code="PATC" name="PATC" netid="HL" source="National Observatory of Athens Seismic Network" insttype="" lat="38.26933" lon="21.76001">
		<comp name="00.HNE" depth="0.0">
			<acc value="0.19575189178449" flag="0"/>
			<vel value="0.081753338501518" flag="0"/>
			<psa03 value="0.337725476822244" flag="0"/>
			<psa10 value="0.0779913440438137" flag="0"/>
			<psa30 value="0.00534703921512439" flag="0"/>
		</comp>
		<comp name="00.HNN" depth="0.0">
			<acc value="0.225998557630228" flag="0"/>
			<vel value="0.0665429060242653" flag="0"/>
			<psa03 value="0.441184851331338" flag="0"/>
			<psa10 value="0.048809633398573" flag="0"/>
			<psa30 value="0.0042607118345805" flag="0"/>
		</comp>
		<comp name="00.HNZ" depth="0.0">
			<acc value="0.144293954843342" flag="0"/>
			<vel value="0.0395956656842803" flag="0"/>
			<psa03 value="0.230763974480804" flag="0"/>
			<psa10 value="0.0292774676135534" flag="0"/>
			<psa30 value="0.002021147641112" flag="0"/>
		</comp>
	</station>
	<station code="PATG" name="PATG" netid="HL" source="National Observatory of Athens Seismic Network" insttype="" lat="38.23865" lon="21.72657">
		<comp name="00.HNE" depth="0.0">
			<acc value="0.291514626328603" flag="0"/>
			<vel value="0.105479819301804" flag="0"/>
			<psa03 value="0.579376047486321" flag="0"/>
			<psa10 value="0.0525464296932285" flag="0"/>
			<psa30 value="0.00527793797083657" flag="0"/>
		</comp>
		<comp name="00.HNN" depth="0.0">
			<acc value="0.601336872017982" flag="0"/>
			<vel value="0.238495349114307" flag="0"/>
			<psa03 value="1.18100581917428" flag="0"/>
			<psa10 value="0.135501261293706" flag="0"/>
			<psa30 value="0.00795797467678362" flag="0"/>
		</comp>
		<comp name="00.HNZ" depth="0.0">
			<acc value="0.150161422849063" flag="0"/>
			<vel value="0.051640273890263" flag="0"/>
			<psa03 value="0.24422997070367" flag="0"/>
			<psa10 value="0.0297481031658486" flag="0"/>
			<psa30 value="0.00467653813101731" flag="0"/>
		</comp>
	</station>
	<station code="RIOA" name="RIOA" netid="HL" source="National Observatory of Athens Seismic Network" insttype="" lat="38.29585" lon="21.79118">
		<comp name="00.HNE" depth="0.0">
			<acc value="0.155025654068352" flag="0"/>
			<vel value="0.0406719955841359" flag="0"/>
			<psa03 value="0.175296820887483" flag="0"/>
			<psa10 value="0.0260112712440523" flag="0"/>
			<psa30 value="0.00249537343124159" flag="0"/>
		</comp>
		<comp name="00.HNN" depth="0.0">
			<acc value="0.219122526822047" flag="0"/>
			<vel value="0.0752596721012826" flag="0"/>
			<psa03 value="0.264579777111943" flag="0"/>
			<psa10 value="0.03096331679276" flag="0"/>
			<psa30 value="0.003046350764121" flag="0"/>
		</comp>
		<comp name="00.HNZ" depth="0.0">
			<acc value="0.184284776271533" flag="0"/>
			<vel value="0.0431851990140409" flag="0"/>
			<psa03 value="0.13676541420412" flag="0"/>
			<psa10 value="0.0128016483588753" flag="0"/>
			<psa30 value="0.00144484498472389" flag="0"/>
		</comp>
	</station>
	<station code="ANX" name="ANX" netid="HP" source="University of Patras, Seismological Laboratory (PSLNET)" insttype="" lat="38.5933" lon="21.9209">
		<comp name="--.HNE" depth="0.0">
			<acc value="0.109841982156184" flag="0"/>
			<vel value="0.0524638693688482" flag="0"/>
			<psa03 value="0.331281320761551" flag="0"/>
			<psa10 value="0.0244360412678163" flag="0"/>
			<psa30 value="0.00163866782453269" flag="0"/>
		</comp>
		<comp name="--.HNN" depth="0.0">
			<acc value="0.0792823896312702" flag="0"/>
			<vel value="0.0519765059187212" flag="0"/>
			<psa03 value="0.269933027571867" flag="0"/>
			<psa10 value="0.0269558838200231" flag="0"/>
			<psa30 value="0.00175745392269546" flag="0"/>
		</comp>
		<comp name="--.HNZ" depth="0.0">
			<acc value="0.0462360080372625" flag="0"/>
			<vel value="0.026589292948466" flag="0"/>
			<psa03 value="0.206110007943036" flag="0"/>
			<psa10 value="0.0121139484271252" flag="0"/>
