<?xml version="1.0" encoding="UTF-8" standalone="yes"?>
<!DOCTYPE earthquake SYSTEM "stationlist.dtd">
<stationlist created="" xmlns="ch.ethz.sed.shakemap.usgs.xml">
  <station code="ASB" name="ASB" netid="VI" source="ODC" insttype="STS-2.5" lat="64.7482" lon="-21.3254">
    <comp name="--.HHZ">
      <acc value="0.0065984489" flag="0"/>
      <vel value="0.0048816623" flag="0"/>
      <psa03 value="0.0148890775" flag="0"/>
      <psa10 value="0.0077370346" flag="0"/>
      <psa30 value="0.0005965738" flag="0"/>
    </comp>
    <comp name="--.HHE">
      <acc value="0.0158477226" flag="0"/>
      <vel value="0.0071562193" flag="0"/>
      <psa03 value="0.0307011853" flag="0"/>
      <psa10 value="0.0102053149" flag="0"/>
      <psa30 value="0.0009943305" flag="0"/>
    </comp>
  </station>
</stationlist>
