<stationlist created="1778135666">
	<station code="S2604" name="S2604" netid="S2" source="IceSMN Icelandic Strong Motion Network (IceSMN)" insttype="" lat="63.9843" lon="-21.6486">
		<comp name="00.HN1" depth="0.0">
			<acc value="0.0116152927041851" flag="0"/>
			<vel value="0.00978171466407545" flag="0"/>
			<psa03 value="0.0300770211008833" flag="0"/>
			<psa10 value="0.0160351960030343" flag="0"/>
			<psa30 value="0.0010226872271743" flag="0"/>
		</comp>
		<comp name="00.HN2" depth="0.0">
			<acc value="0.0083359061383719" flag="0"/>
			<vel value="0.00649478247989992" flag="0"/>
			<psa03 value="0.0224181751982475" flag="0"/>
			<psa10 value="0.00922194247094803" flag="0"/>
			<psa30 value="0.000749946555278452" flag="0"/>
		</comp>
		<comp name="00.HNZ" depth="0.0">
			<acc value="0.00516024488027193" flag="0"/>
			<vel value="0.00405843779470269" flag="0"/>
			<psa03 value="0.0191692412223092" flag="0"/>
			<psa10 value="0.00442442262752051" flag="0"/>
			<psa30 value="0.000806452850627147" flag="0"/>
		</comp>
	</station>
</stationlist>
