<?xml version="1.0" encoding="UTF-8" standalone="yes"?>
<!DOCTYPE earthquake SYSTEM "stationlist.dtd">
<stationlist created="" xmlns="ch.ethz.sed.shakemap.usgs.xml">
  <station code="AGRB" name="AGRB" netid="KO" insttype="CMG-3T" lat="39.5755" lon="42.992">
    <comp name="--.HHN">
      <acc value="0.0103812464" flag="0"/>
      <vel value="0.0115232687" flag="0"/>
      <psa03 value="0.0329748160" flag="0"/>
      <psa10 value="0.0212742669" flag="0"/>
      <psa30 value="0.0022344451" flag="0"/>
    </comp>
    <comp name="--.HHE">
      <acc value="0.0118551057" flag="0"/>
      <vel value="0.0146517326" flag="0"/>
      <psa03 value="0.0249044190" flag="0"/>
      <psa10 value="0.0205886085" flag="0"/>
      <psa30 value="0.0025101823" flag="0"/>
    </comp>
    <comp name="--.HHZ">
      <acc value="0.0084684037" flag="0"/>
      <vel value="0.0100676192" flag="0"/>
      <psa03 value="0.0194619162" flag="0"/>
      <psa10 value="0.0186960684" flag="0"/>
      <psa30 value="0.0018982994" flag="0"/>
    </comp>
  </station>
  <station code="BNGB" name="BNGB" netid="KO" insttype="CMG-3ESPC" lat="38.9913" lon="40.6792">
    <comp name="--.HHE">
      <acc value="0.0053778316" flag="0"/>
      <vel value="0.0084873979" flag="0"/>
      <psa03 value="0.0142661118" flag="0"/>
      <psa10 value="0.0087914113" flag="0"/>
      <psa30 value="0.0018947727" flag="0"/>
    </comp>
    <comp name="--.HHN">
      <acc value="0.0055143301" flag="0"/>
      <vel value="0.0070148773" flag="0"/>
      <psa03 value="0.0122065530" flag="0"/>
      <psa10 value="0.0140686652" flag="0"/>
      <psa30 value="0.0010872245" flag="0"/>
    </comp>
  </station>
  <station code="GURO" name="GURO" netid="KO" insttype="CMG-3T" lat="38.5509" lon="42.0322">
    <comp name="--.HHE">
      <acc value="0.0089412363" flag="0"/>
      <vel value="0.0061576506" flag="0"/>
      <psa03 value="0.0223483906" flag="0"/>
      <psa10 value="0.0081594952" flag="0"/>
      <psa30 value="0.0004316486" flag="0"/>
    </comp>
    <comp name="--.HHN">
      <acc value="0.0085264651" flag="0"/>
      <vel value="0.0079637691" flag="0"/>
      <psa03 value="0.0262254830" flag="0"/>
      <psa10 value="0.0083549986" flag="0"/>
      <psa30 value="0.0004683901" flag="0"/>
    </comp>
    <comp name="--.HHZ">
      <acc value="0.0118134686" flag="0"/>
      <vel value="0.0045197262" flag="0"/>
      <psa03 value="0.0241034102" flag="0"/>
      <psa10 value="0.0035101394" flag="0"/>
      <psa30 value="0.0003489309" flag="0"/>
    </comp>
  </station>
  <station code="KARS" name="KARS" netid="KO" insttype="CMG-3T" lat="40.6152" lon="43.0937">
    <comp name="--.HHE">
      <acc value="0.0121100589" flag="0"/>
      <vel value="0.0106057768" flag="0"/>
      <psa03 value="0.0181428021" flag="0"/>
      <psa10 value="0.0162344585" flag="0"/>
      <psa30 value="0.0019587233" flag="0"/>
    </comp>
    <comp name="--.HHZ">
      <acc value="0.0063964892" flag="0"/>
      <vel value="0.0080179531" flag="0"/>
      <psa03 value="0.0117809494" flag="0"/>
      <psa10 value="0.0142033093" flag="0"/>
      <psa30 value="0.0032203280" flag="0"/>
    </comp>
    <comp name="--.HHN">
      <acc value="0.0095057378" flag="0"/>
      <vel value="0.0067675158" flag="0"/>
      <psa03 value="0.0136377156" flag="0"/>
      <psa10 value="0.0124665031" flag="0"/>
      <psa30 value="0.0027095378" flag="0"/>
    </comp>
  </station>
  <station code="KOPR" name="KOPR" netid="KO" insttype="CMG-3T" lat="39.9917" lon="41.8535">
    <comp name="--.HHE">
      <acc value="0.4384605697" flag="0"/>
      <vel value="0.3585858507" flag="0"/>
      <psa03 value="0.9599311830" flag="0"/>
      <psa10 value="0.4914480283" flag="0"/>
      <psa30 value="0.0511496652" flag="0"/>
    </comp>
    <comp name="--.HHN">
      <acc value="0.3993755173" flag="0"/>
      <vel value="0.2443182344" flag="0"/>
      <psa03 value="0.8359287813" flag="0"/>
      <psa10 value="0.2332385670" flag="0"/>
      <psa30 value="0.0322671099" flag="0"/>
    </comp>
    <comp name="--.HHZ">
      <acc value="0.3675361902" flag="0"/>
      <vel value="0.1857774910" flag="0"/>
      <psa03 value="0.6213385007" flag="0"/>
      <psa10 value="0.2509706774" flag="0"/>
      <psa30 value="0.0282677730" flag="0"/>
    </comp>
  </station>
  <station code="MLAZ" name="MLAZ" netid="KO" insttype="CMG-3T" lat="39.141" lon="42.5496">
    <comp name="--.HHE">
      <acc value="0.0248950840" flag="0"/>
      <vel value="0.0172832121" flag="0"/>
      <psa03 value="0.0510839091" flag="0"/>
      <psa10 value="0.0378904998" flag="0"/>
      <psa30 value="0.0041507200" flag="0"/>
    </comp>
    <comp name="--.HHN">
      <acc value="0.0239814296" flag="0"/>
      <vel value="0.0184882802" flag="0"/>
      <psa03 value="0.0546124070" flag="0"/>
      <psa10 value="0.0473085573" flag="0"/>
      <psa30 value="0.0035867080" flag="0"/>
    </comp>
    <comp name="--.HHZ">
      <acc value="0.0146003748" flag="0"/>
      <vel value="0.0133061445" flag="0"/>
      <psa03 value="0.0279209839" flag="0"/>
      <psa10 value="0.0227516285" flag="0"/>
      <psa30 value="0.0022295860" flag="0"/>
    </comp>
  </station>
  <station code="VRTB" name="VRTB" netid="KO" insttype="CMG-3ESPC" lat="39.1603" lon="41.4558">
    <comp name="--.HHZ">
      <acc value="0.0174232117" flag="0"/>
      <vel value="0.0159562797" flag="0"/>
      <psa03 value="0.0267759732" flag="0"/>
      <psa10 value="0.0339281996" flag="0"/>
      <psa30 value="0.0027196410" flag="0"/>
    </comp>
    <comp name="--.HHN">
      <acc value="0.0044443304" flag="0"/>
      <vel value="0.0048431661" flag="0"/>
      <psa03 value="0.0094964961" flag="0"/>
      <psa10 value="0.0072139592" flag="0"/>
      <psa30 value="0.0015526217" flag="0"/>
    </comp>
    <comp name="--.HHE">
      <acc value="0.0387480685" flag="0"/>
      <vel value="0.0365824556" flag="0"/>
      <psa03 value="0.0717581734" flag="0"/>
      <psa10 value="0.0751059452" flag="0"/>
      <psa30 value="0.0091923488" flag="0"/>
    </comp>
  </station>
</stationlist>
