<?xml version="1.0" encoding="UTF-8" standalone="yes"?>
<!DOCTYPE earthquake SYSTEM "stationlist.dtd">
<stationlist created="" xmlns="ch.ethz.sed.shakemap.usgs.xml">
  <station code="BNN" name="BNN" netid="KO" insttype="CMG-3T" lat="38.8521" lon="35.8472">
    <comp name="--.HHN">
      <acc value="0.0104732075" flag="0"/>
      <vel value="0.0061763937" flag="0"/>
      <psa03 value="0.0170659801" flag="0"/>
      <psa10 value="0.0077666942" flag="0"/>
      <psa30 value="0.0010721244" flag="0"/>
    </comp>
    <comp name="--.HHZ">
      <acc value="0.0056903219" flag="0"/>
      <vel value="0.0044694975" flag="0"/>
      <psa03 value="0.0188484274" flag="0"/>
      <psa10 value="0.0066257805" flag="0"/>
      <psa30 value="0.0006618656" flag="0"/>
    </comp>
  </station>
  <station code="CEYT" name="CEYT" netid="KO" insttype="CMG-3ESP" lat="37.0105" lon="35.7478">
    <comp name="--.HHE">
      <acc value="0.0137215968" flag="0"/>
      <vel value="0.0087165653" flag="0"/>
      <psa03 value="0.0524187749" flag="0"/>
      <psa10 value="0.0112977264" flag="0"/>
      <psa30 value="0.0017035967" flag="0"/>
    </comp>
    <comp name="--.HHN">
      <acc value="0.0112353080" flag="0"/>
      <vel value="0.0082768675" flag="0"/>
      <psa03 value="0.0487139076" flag="0"/>
      <psa10 value="0.0122151640" flag="0"/>
      <psa30 value="0.0014280147" flag="0"/>
    </comp>
    <comp name="--.HHZ">
      <acc value="0.0078729037" flag="0"/>
      <vel value="0.0072260640" flag="0"/>
      <psa03 value="0.0180142582" flag="0"/>
      <psa10 value="0.0130072790" flag="0"/>
      <psa30 value="0.0010418995" flag="0"/>
    </comp>
  </station>
  <station code="DARE" name="DARE" netid="KO" insttype="CMG-3ESP" lat="38.5712" lon="37.4832">
    <comp name="--.HHE">
      <acc value="0.0157439111" flag="0"/>
      <vel value="0.0100166199" flag="0"/>
      <psa03 value="0.0253611808" flag="0"/>
      <psa10 value="0.0178354478" flag="0"/>
      <psa30 value="0.0009402600" flag="0"/>
    </comp>
    <comp name="--.HHN">
      <acc value="0.0134158618" flag="0"/>
      <vel value="0.0102548512" flag="0"/>
      <psa03 value="0.0290356100" flag="0"/>
      <psa10 value="0.0161951385" flag="0"/>
      <psa30 value="0.0006840341" flag="0"/>
    </comp>
  </station>
  <station code="GAZ" name="GAZ" netid="KO" insttype="CMG-3T" lat="37.1721" lon="37.2096">
    <comp name="--.HHN">
      <acc value="0.0306872251" flag="0"/>
      <vel value="0.0173244036" flag="0"/>
      <psa03 value="0.1481646700" flag="0"/>
      <psa10 value="0.0124510041" flag="0"/>
      <psa30 value="0.0012019576" flag="0"/>
    </comp>
    <comp name="--.HHZ">
      <acc value="0.0335721325" flag="0"/>
      <vel value="0.0103621547" flag="0"/>
      <psa03 value="0.0986557414" flag="0"/>
      <psa10 value="0.0079672460" flag="0"/>
      <psa30 value="0.0004558970" flag="0"/>
    </comp>
  </station>
  <station code="KMRS" name="KMRS" netid="KO" insttype="CMG-3T" lat="37.5053" lon="36.9">
    <comp name="--.HHE">
      <acc value="0.0437502319" flag="0"/>
      <vel value="0.0221242541" flag="0"/>
      <psa03 value="0.0826305582" flag="0"/>
      <psa10 value="0.0125609417" flag="0"/>
      <psa30 value="0.0021038191" flag="0"/>
    </comp>
    <comp name="--.HHN">
      <acc value="0.0509985505" flag="0"/>
      <vel value="0.0284887052" flag="0"/>
      <psa03 value="0.0931618275" flag="0"/>
      <psa10 value="0.0211449407" flag="0"/>
      <psa30 value="0.0019229545" flag="0"/>
    </comp>
  </station>
  <station code="SARI" name="SARI" netid="KO" insttype="CMG-3T" lat="38.4072" lon="36.4181">
    <comp name="--.HHZ">
      <acc value="0.1109211435" flag="0"/>
      <vel value="0.0292148818" flag="0"/>
      <psa03 value="0.1146717419" flag="0"/>
      <psa10 value="0.0210553251" flag="0"/>
      <psa30 value="0.0015277070" flag="0"/>
    </comp>
    <comp name="--.HHE">
      <acc value="0.2233601829" flag="0"/>
      <vel value="0.0367088675" flag="0"/>
      <psa03 value="0.1392231014" flag="0"/>
      <psa10 value="0.0396848230" flag="0"/>
      <psa30 value="0.0020233513" flag="0"/>
    </comp>
    <comp name="--.HHN">
      <acc value="0.1550965694" flag="0"/>
      <vel value="0.0332503604" flag="0"/>
      <psa03 value="0.1305250456" flag="0"/>
      <psa10 value="0.0464109893" flag="0"/>
      <psa30 value="0.0022766476" flag="0"/>
    </comp>
  </station>
  <station code="ANDN" name="ANDN" netid="TU" insttype="T" lat="37.58" lon="36.3452">
    <comp name="--.HHZ">
      <acc value="0.1693131678" flag="0"/>
      <vel value="0.1453171204" flag="0"/>
      <psa03 value="0.3293253581" flag="0"/>
      <psa10 value="0.1881419445" flag="0"/>
      <psa30 value="0.0076037019" flag="0"/>
    </comp>
    <comp name="--.HHE">
      <acc value="0.2204674123" flag="0"/>
      <vel value="0.1296199920" flag="0"/>
      <psa03 value="0.4779248342" flag="0"/>
      <psa10 value="0.1700667330" flag="0"/>
      <psa30 value="0.0124325964" flag="0"/>
    </comp>
    <comp name="--.HHN">
      <acc value="0.2563953744" flag="0"/>
      <vel value="0.1257545915" flag="0"/>
      <psa03 value="0.5862387784" flag="0"/>
      <psa10 value="0.1839226342" flag="0"/>
      <psa30 value="0.0064599549" flag="0"/>
    </comp>
  </station>
</stationlist>
