<?xml version="1.0" encoding="UTF-8" standalone="yes"?>
<!DOCTYPE earthquake SYSTEM "stationlist.dtd">
<stationlist created="" xmlns="ch.ethz.sed.shakemap.usgs.xml">
  <station code="BNN" name="BNN" netid="KO" insttype="CMG-3T" lat="38.8521" lon="35.8472">
    <comp name="--.HHN">
      <acc value="0.0104732073" flag="0"/>
      <vel value="0.0061763935" flag="0"/>
      <psa03 value="0.0170659801" flag="0"/>
      <psa10 value="0.0077666942" flag="0"/>
      <psa30 value="0.0010721206" flag="0"/>
    </comp>
    <comp name="--.HHZ">
      <acc value="0.0056903222" flag="0"/>
      <vel value="0.0044694979" flag="0"/>
      <psa03 value="0.0188484274" flag="0"/>
      <psa10 value="0.0066257805" flag="0"/>
      <psa30 value="0.0006618621" flag="0"/>
    </comp>
  </station>
  <station code="DARE" name="DARE" netid="KO" insttype="CMG-3ESP" lat="38.5712" lon="37.4832">
    <comp name="--.HHE">
      <acc value="0.0157439113" flag="0"/>
      <vel value="0.0100166198" flag="0"/>
      <psa03 value="0.0253611808" flag="0"/>
      <psa10 value="0.0178354478" flag="0"/>
      <psa30 value="0.0009402541" flag="0"/>
    </comp>
    <comp name="--.HHN">
      <acc value="0.0134158620" flag="0"/>
      <vel value="0.0102548514" flag="0"/>
      <psa03 value="0.0290356100" flag="0"/>
      <psa10 value="0.0161951385" flag="0"/>
      <psa30 value="0.0006840372" flag="0"/>
    </comp>
  </station>
  <station code="GAZ" name="GAZ" netid="KO" insttype="CMG-3T" lat="37.1721" lon="37.2096">
    <comp name="--.HHN">
      <acc value="0.0306872262" flag="0"/>
      <vel value="0.0173244039" flag="0"/>
      <psa03 value="0.1481646700" flag="0"/>
      <psa10 value="0.0124510040" flag="0"/>
      <psa30 value="0.0012019941" flag="0"/>
    </comp>
    <comp name="--.HHZ">
      <acc value="0.0335721316" flag="0"/>
      <vel value="0.0103621539" flag="0"/>
      <psa03 value="0.0986557414" flag="0"/>
      <psa10 value="0.0079672432" flag="0"/>
      <psa30 value="0.0004560767" flag="0"/>
    </comp>
  </station>
  <station code="KMRS" name="KMRS" netid="KO" insttype="CMG-3T" lat="37.5053" lon="36.9">
    <comp name="--.HHE">
      <acc value="0.0437502319" flag="0"/>
      <vel value="0.0221242547" flag="0"/>
      <psa03 value="0.0826305582" flag="0"/>
      <psa10 value="0.0125609417" flag="0"/>
      <psa30 value="0.0021038208" flag="0"/>
    </comp>
    <comp name="--.HHN">
      <acc value="0.0509985505" flag="0"/>
      <vel value="0.0284887044" flag="0"/>
      <psa03 value="0.0931618275" flag="0"/>
      <psa10 value="0.0211449407" flag="0"/>
      <psa30 value="0.0019229367" flag="0"/>
    </comp>
  </station>
  <station code="SARI" name="SARI" netid="KO" insttype="CMG-3T" lat="38.4072" lon="36.4181">
    <comp name="--.HHZ">
      <acc value="0.1109211442" flag="0"/>
      <vel value="0.0292148813" flag="0"/>
      <psa03 value="0.1146717419" flag="0"/>
      <psa10 value="0.0210553250" flag="0"/>
      <psa30 value="0.0015275203" flag="0"/>
    </comp>
    <comp name="--.HHE">
      <acc value="0.2233601822" flag="0"/>
      <vel value="0.0367088682" flag="0"/>
      <psa03 value="0.1392231014" flag="0"/>
      <psa10 value="0.0396848237" flag="0"/>
      <psa30 value="0.0020232699" flag="0"/>
    </comp>
    <comp name="--.HHN">
      <acc value="0.1550965697" flag="0"/>
      <vel value="0.0332503609" flag="0"/>
      <psa03 value="0.1305250456" flag="0"/>
      <psa10 value="0.0464109896" flag="0"/>
      <psa30 value="0.0022765504" flag="0"/>
    </comp>
  </station>
  <station code="ANDN" name="ANDN" netid="TU" insttype="T" lat="37.58" lon="36.3452">
    <comp name="--.HHN">
      <acc value="0.2563953737" flag="0"/>
      <vel value="0.1257545915" flag="0"/>
      <psa03 value="0.5862387784" flag="0"/>
      <psa10 value="0.1839226342" flag="0"/>
      <psa30 value="0.0064599809" flag="0"/>
    </comp>
    <comp name="--.HHE">
      <acc value="0.2204674112" flag="0"/>
      <vel value="0.1296199919" flag="0"/>
      <psa03 value="0.4779248342" flag="0"/>
      <psa10 value="0.1700667329" flag="0"/>
      <psa30 value="0.0124326302" flag="0"/>
    </comp>
    <comp name="--.HHZ">
      <acc value="0.1693131685" flag="0"/>
      <vel value="0.1453171204" flag="0"/>
      <psa03 value="0.3293253581" flag="0"/>
      <psa10 value="0.1881419446" flag="0"/>
      <psa30 value="0.0076037087" flag="0"/>
    </comp>
  </station>
</stationlist>
