<?xml version="1.0" encoding="UTF-8" standalone="yes"?>
<!DOCTYPE earthquake SYSTEM "stationlist.dtd">
<stationlist created="" xmlns="ch.ethz.sed.shakemap.usgs.xml">
  <station code="VSK1" name="VSK1" netid="HI" insttype="unknown" commtype="DIG" lat="38.4091" lon="20.564">
    <comp name="--.HNZ">
      <acc value="0.0106341120" flag="0"/>
      <vel value="0.0012035434" flag="0"/>
      <psa03 value="0.0027143758" flag="0"/>
      <psa10 value="0.0001249967" flag="0"/>
      <psa30 value="0.0000227879" flag="0"/>
    </comp>
    <comp name="--.HNN">
      <acc value="0.0136369580" flag="0"/>
      <vel value="0.0030053275" flag="0"/>
      <psa03 value="0.0094611329" flag="0"/>
      <psa10 value="0.0004165841" flag="0"/>
      <psa30 value="0.0000516250" flag="0"/>
    </comp>
    <comp name="--.HNE">
      <acc value="0.0171976216" flag="0"/>
      <vel value="0.0019764125" flag="0"/>
      <psa03 value="0.0078179827" flag="0"/>
      <psa10 value="0.0004379300" flag="0"/>
      <psa30 value="0.0000395617" flag="0"/>
    </comp>
  </station>
  <station code="FSK" name="FSK" netid="HP" insttype="40," commtype="DIG" lat="38.4593" lon="20.5623">
    <comp name="--.HHN">
      <acc value="0.0034547571" flag="0"/>
      <vel value="0.0004171259" flag="0"/>
      <psa03 value="0.0011865356" flag="0"/>
      <psa10 value="0.0000685092" flag="0"/>
      <psa30 value="0.0000071171" flag="0"/>
    </comp>
    <comp name="--.HHZ">
      <acc value="0.0027595144" flag="0"/>
      <vel value="0.0004676561" flag="0"/>
      <psa03 value="0.0009669757" flag="0"/>
      <psa10 value="0.0000471245" flag="0"/>
      <psa30 value="0.0000091592" flag="0"/>
    </comp>
    <comp name="--.HHE">
      <acc value="0.0037513684" flag="0"/>
      <vel value="0.0006352107" flag="0"/>
      <psa03 value="0.0011408774" flag="0"/>
      <psa10 value="0.0000989399" flag="0"/>
      <psa30 value="0.0000097498" flag="0"/>
    </comp>
  </station>
</stationlist>
