<?xml version="1.0" encoding="UTF-8" standalone="yes"?>
<!DOCTYPE earthquake SYSTEM "stationlist.dtd">
<stationlist created="" xmlns="ch.ethz.sed.shakemap.usgs.xml">
  <station code="ALAN" name="ALAN" netid="KO" insttype="CMG-5T" lat="36.557" lon="32.0327">
    <comp name="--.HNN">
      <acc value="0.5508453360" flag="0"/>
      <vel value="0.3400656894" flag="0"/>
      <psa03 value="1.8451864432" flag="0"/>
      <psa10 value="0.7073416921" flag="0"/>
      <psa30 value="0.0566930108" flag="0"/>
    </comp>
    <comp name="--.HNE">
      <acc value="0.7758231705" flag="0"/>
      <vel value="0.4663023431" flag="0"/>
      <psa03 value="1.2465522031" flag="0"/>
      <psa10 value="0.5869916611" flag="0"/>
      <psa30 value="0.0597137433" flag="0"/>
    </comp>
    <comp name="--.HNZ">
      <acc value="0.3479017780" flag="0"/>
      <vel value="0.2601993810" flag="0"/>
      <psa03 value="0.4776090185" flag="0"/>
      <psa10 value="0.4950332321" flag="0"/>
      <psa30 value="0.0453990855" flag="0"/>
    </comp>
  </station>
  <station code="BOZY" name="BOZY" netid="KO" insttype="CMG-5T" lat="36.1069" lon="32.9763">
    <comp name="--.HNN">
      <acc value="0.8612538086" flag="0"/>
      <vel value="0.3742247743" flag="0"/>
      <psa03 value="1.8299190023" flag="0"/>
      <psa10 value="0.2537089749" flag="0"/>
      <psa30 value="0.0420760847" flag="0"/>
    </comp>
    <comp name="--.HNZ">
      <acc value="0.3506081404" flag="0"/>
      <vel value="0.2175105248" flag="0"/>
      <psa03 value="0.9700214135" flag="0"/>
      <psa10 value="0.2006299745" flag="0"/>
      <psa30 value="0.0422965928" flag="0"/>
    </comp>
    <comp name="--.HNE">
      <acc value="1.3389330052" flag="0"/>
      <vel value="0.5315043602" flag="0"/>
      <psa03 value="2.6898930101" flag="0"/>
      <psa10 value="0.2878690480" flag="0"/>
      <psa30 value="0.0312733390" flag="0"/>
    </comp>
  </station>
  <station code="LFK" name="LFK" netid="KO" insttype="120s," lat="35.2832" lon="33.5337">
    <comp name="--.HHE">
      <acc value="0.2861693330" flag="0"/>
      <vel value="0.3206122750" flag="0"/>
      <psa03 value="0.7786261463" flag="0"/>
      <psa10 value="0.4757643436" flag="0"/>
      <psa30 value="0.1285226163" flag="0"/>
    </comp>
    <comp name="--.HHN">
      <acc value="0.4205221805" flag="0"/>
      <vel value="0.3128358850" flag="0"/>
      <psa03 value="0.8702693696" flag="0"/>
      <psa10 value="0.7884790051" flag="0"/>
      <psa30 value="0.0816211269" flag="0"/>
    </comp>
    <comp name="--.HHZ">
      <acc value="0.1338981884" flag="0"/>
      <vel value="0.2266458053" flag="0"/>
      <psa03 value="0.4180213550" flag="0"/>
      <psa10 value="0.2862621449" flag="0"/>
      <psa30 value="0.1003378609" flag="0"/>
    </comp>
  </station>
</stationlist>
