<stationlist created="1775820672">
	<station code="ALAN" name="ALAN" netid="KO" source="Bogazici University Kandilli Observatory And Earthquake Research Institute (KOERI)" insttype="" lat="36.557" lon="32.0327">
		<comp name="--.HNE" depth="0.0">
			<acc value="0.77940170953768" flag="0"/>
			<vel value="0.470824500438802" flag="0"/>
			<psa03 value="1.28144913971534" flag="0"/>
			<psa10 value="0.587079431130849" flag="0"/>
			<psa30 value="0.05982002278287" flag="0"/>
		</comp>
		<comp name="--.HNN" depth="0.0">
			<acc value="0.550849689144056" flag="0"/>
			<vel value="0.360208316651892" flag="0"/>
			<psa03 value="1.85459819136065" flag="0"/>
			<psa10 value="0.707671279747888" flag="0"/>
			<psa30 value="0.0564199975478965" flag="0"/>
		</comp>
		<comp name="--.HNZ" depth="0.0">
			<acc value="0.346870348787434" flag="0"/>
			<vel value="0.255292207369912" flag="0"/>
			<psa03 value="0.484005979687367" flag="0"/>
			<psa10 value="0.495896370700242" flag="0"/>
			<psa30 value="0.0456463938495428" flag="0"/>
		</comp>
	</station>
	<station code="BASM" name="BASM" netid="KO" source="Bogazici University Kandilli Observatory And Earthquake Research Institute (KOERI)" insttype="" lat="37.9194" lon="30.035">
		<comp name="--.HNE" depth="0.0">
			<acc value="0.113671473587363" flag="0"/>
			<vel value="0.173349457853618" flag="0"/>
			<psa03 value="0.216385813664827" flag="0"/>
			<psa10 value="0.30074241270906" flag="0"/>
			<psa30 value="0.0550851857897807" flag="0"/>
		</comp>
		<comp name="--.HNN" depth="0.0">
			<acc value="0.0900961379376491" flag="0"/>
			<vel value="0.191320400216048" flag="0"/>
			<psa03 value="0.13349225987359" flag="0"/>
			<psa10 value="0.303214126447652" flag="0"/>
			<psa30 value="0.051414425953382" flag="0"/>
		</comp>
		<comp name="--.HNZ" depth="0.0">
			<acc value="0.0567519895905527" flag="0"/>
			<vel value="0.0878532857661755" flag="0"/>
			<psa03 value="0.0816552842618941" flag="0"/>
			<psa10 value="0.146750941529669" flag="0"/>
			<psa30 value="0.0217275476767338" flag="0"/>
		</comp>
	</station>
	<station code="BOZY" name="BOZY" netid="KO" source="Bogazici University Kandilli Observatory And Earthquake Research Institute (KOERI)" insttype="" lat="36.1069" lon="32.9763">
		<comp name="--.HNE" depth="0.0">
			<acc value="1.33714012269673" flag="0"/>
			<vel value="0.537844557236562" flag="0"/>
			<psa03 value="2.69239169106755" flag="0"/>
			<psa10 value="0.287283461119334" flag="0"/>
			<psa30 value="0.0309141479106023" flag="0"/>
		</comp>
		<comp name="--.HNN" depth="0.0">
			<acc value="0.867472933524262" flag="0"/>
			<vel value="0.376959892601075" flag="0"/>
			<psa03 value="1.83767990394337" flag="0"/>
			<psa10 value="0.254033458470029" flag="0"/>
			<psa30 value="0.0425357211161247" flag="0"/>
		</comp>
		<comp name="--.HNZ" depth="0.0">
			<acc value="0.34614517888576" flag="0"/>
			<vel value="0.21614160450471" flag="0"/>
			<psa03 value="0.963259394541766" flag="0"/>
			<psa10 value="0.200542629965044" flag="0"/>
			<psa30 value="0.042300192180153" flag="0"/>
		</comp>
	</station>
	<station code="DATC" name="DATC" netid="KO" source="Bogazici University Kandilli Observatory And Earthquake Research Institute (KOERI)" insttype="" lat="36.7584" lon="27.6602">
		<comp name="--.HNE" depth="0.0">
			<acc value="0.14746409934795" flag="0"/>
			<vel value="0.142367100574323" flag="0"/>
			<psa03 value="0.604026888816304" flag="0"/>
			<psa10 value="0.296516512763925" flag="0"/>
			<psa30 value="0.0580323910278953" flag="0"/>
		</comp>
		<comp name="--.HNN" depth="0.0">
			<acc value="0.174231829146719" flag="0"/>
			<vel value="0.127558540617917" flag="0"/>
			<psa03 value="0.733525342452449" flag="0"/>
			<psa10 value="0.231601872487554" flag="0"/>
			<psa30 value="0.0609743725860944" flag="0"/>
		</comp>
		<comp name="--.HNZ" depth="0.0">
			<acc value="0.136462707189196" flag="0"/>
			<vel value="0.0790060198894417" flag="0"/>
			<psa03 value="0.301922771735419" flag="0"/>
			<psa10 value="0.193282659027541" flag="0"/>
			<psa30 value="0.0184918749959861" flag="0"/>
		</comp>
	</station>
	<station code="DEMR" name="DEMR" netid="KO" source="Bogazici University Kandilli Observatory And Earthquake Research Institute (KOERI)" insttype="" lat="36.2365" lon="29.9056">
		<comp name="--.HNE" depth="0.0">
			<acc value="0.0574604860157857" flag="0"/>
			<vel value="0.199641887738496" flag="0"/>
			<psa03 value="0.093876093830407" flag="0"/>
			<psa10 value="0.116284065748746" flag="0"/>
			<psa30 value="0.100110938525135" flag="0"/>
		</comp>
		<comp name="--.HNN" depth="0.0">
			<acc value="0.0732422979781716" flag="0"/>
			<vel value="0.265551986767175" flag="0"/>
			<psa03 value="0.114676055059068" flag="0"/>
			<psa10 value="0.176388314860081" flag="0"/>
			<psa30 value="0.0917259497273828" flag="0"/>
		</comp>
		<comp name="--.HNZ" depth="0.0">
			<acc value="0.04868308310587" flag="0"/>
			<vel value="0.146609664800161" flag="0"/>
			<psa03 value="0.0730851800763646" flag="0"/>
			<psa10 value="0.0903884427906856" flag="0"/>
			<psa30 value="0.0618881664541319" flag="0"/>
		</comp>
	</station>
	<station code="FETI" name="FETI" netid="KO" source="Bogazici University Kandilli Observatory And Earthquake Research Institute (KOERI)" insttype="" lat="36.6903" lon="29.096">
		<comp name="--.HNE" depth="0.0">
			<acc value="0.0790425112574517" flag="0"/>
			<vel value="0.104706980361685" flag="0"/>
			<psa03 value="0.155153121883051" flag="0"/>
			<psa10 value="0.11934910629261" flag="0"/>
			<psa30 value="0.0615941003069264" flag="0"/>
		</comp>
		<comp name="--.HNN" depth="0.0">
			<acc value="0.00155316813768402" flag="0"/>
			<vel value="0.00344944693305756" flag="0"/>
			<psa03 value="0.00184508381629042" flag="0"/>
			<psa10 value="0.00121987354500878" flag="0"/>
			<psa30 value="0.000857157772079854" flag="0"/>
		</comp>
		<comp name="--.HNZ" depth="0.0">
			<acc value="0.0732321825736752" flag="0"/>
			<vel value="0.108978604288533" flag="0"/>
			<psa03 value="0.182527049854586" flag="0"/>
			<psa10 value="0.136709816354565" flag="0"/>
			<psa30 value="0.0588419179882744" flag="0"/>
		</comp>
	</station>
	<station code="KEMT" name="KEMT" netid="KO" source="Bogazici University Kandilli Observatory And Earthquake Research Institute (KOERI)" insttype="" lat="36.6037" lon="30.5558">
		<comp name="--.HNE" depth="0.0">
			<acc value="0.313668877181083" flag="0"/>
			<vel value="0.282655426632575" flag="0"/>
			<psa03 value="0.915570652063689" flag="0"/>
			<psa10 value="0.274298690942063" flag="0"/>
			<psa30 value="0.0462085444224219" flag="0"/>
		</comp>
		<comp name="--.HNN" depth="0.0">
			<acc value="0.347732866101234" flag="0"/>
			<vel value="0.273888971411576" flag="0"/>
			<psa03 value="1.0744402597295" flag="0"/>
			<psa10 value="0.36912027240654" flag="0"/>
			<psa30 value="0.0487552497960865" flag="0"/>
		</comp>
		<comp name="--.HNZ" depth="0.0">
			<acc value="0.0933613322473509" flag="0"/>
			<vel value="0.181705187415054" flag="0"/>
			<psa03 value="0.231511669845393" flag="0"/>
			<psa10 value="0.242668330585972" flag="0"/>
			<psa30 value="0.0524036281498789" flag="0"/>
		</comp>
	</station>
	<station code="KHL" name="KHL" netid="KO" source="Bogazici University Kandilli Observatory And Earthquake Research Institute (KOERI)" insttype="" lat="38.3231" lon="29.5286">
		<comp name="--.HNE" depth="0.0">
			<acc value="0.0296862030310574" flag="0"/>
			<vel value="0.0512199185835865" flag="0"/>
			<psa03 value="0.053906784601758" flag="0"/>
			<psa10 value="0.0970164143614104" flag="0"/>
			<psa30 value="0.0191897712281556" flag="0"/>
		</comp>
		<comp name="--.HNN" depth="0.0">
			<acc value="0.0354416555555831" flag="0"/>
			<vel value="0.0697713071561086" flag="0"/>
			<psa03 value="0.0683726647701595" flag="0"/>
			<psa10 value="0.0678751838979022" flag="0"/>
			<psa30 value="0.0187293373933528" flag="0"/>
		</comp>
		<comp name="--.HNZ" depth="0.0">
			<acc value="0.0186160839200927" flag="0"/>
			<vel value="0.0422544761381455" flag="0"/>
			<psa03 value="0.0492078170679336" flag="0"/>
			<psa10 value="0.0604787826727309" flag="0"/>
			<psa30 value="0.0159092589103394" flag="0"/>
		</comp>
	</station>
	<station code="KRMN" name="KRMN" netid="KO" source="Bogazici University Kandilli Observatory And Earthquake Research Institute (KOERI)" insttype="" lat="37.174" lon="33.2636">
		<comp name="--.HNE" depth="0.0">
			<acc value="0.247731371828464" flag="0"/>
			<vel value="0.284584157745005" flag="0"/>
			<psa03 value="0.577360288954315" flag="0"/>
			<psa10 value="0.620143301448686" flag="0"/>
			<psa30 value="0.0684362735671124" flag="0"/>
		</comp>
		<comp name="--.HNN" depth="0.0">
			<acc value="0.208965227464449" flag="0"/>
			<vel value="0.26372355624273" flag="0"/>
			<psa03 value="0.538890657192684" flag="0"/>
			<psa10 value="0.465577442221436" flag="0"/>
			<psa30 value="0.0659007856037906" flag="0"/>
		</comp>
		<comp name="--.HNZ" depth="0.0">
			<acc value="0.176671029549607" flag="0"/>
			<vel value="0.29221901166719" flag="0"/>
			<psa03 value="0.396811703494706" flag="0"/>
			<psa10 value="0.238913266831432" flag="0"/>
			<psa30 value="0.0670598423855841" flag="0"/>
		</comp>
	</station>
	<station code="KRTS" name="KRTS" netid="KO" source="Bogazici University Kandilli Observatory And Earthquake Research Institute (KOERI)" insttype="" lat="36.573" lon="35.375">
		<comp name="--.HNE" depth="0.0">
			<acc value="0.0597987364322791" flag="0"/>
			<vel value="0.0652543854697575" flag="0"/>
			<psa03 value="0.206118112646565" flag="0"/>
			<psa10 value="0.078681374754805" flag="0"/>
			<psa30 value="0.0160015466906027" flag="0"/>
		</comp>
		<comp name="--.HNN" depth="0.0">
			<acc value="0.0635405002795014" flag="0"/>
			<vel value="0.0916964501950585" flag="0"/>
			<psa03 value="0.182684310272469" flag="0"/>
			<psa10 value="0.0972637132436861" flag="0"/>
			<psa30 value="0.0456396167340836" flag="0"/>
		</comp>
		<comp name="--.HNZ" depth="0.0">
			<acc value="0.0411160922031961" flag="0"/>
			<vel value="0.0627415043901486" flag="0"/>
			<psa03 value="0.101608449811195" flag="0"/>
			<psa10 value="0.0658266181902305" flag="0"/>
			<psa30 value="0.0165140989780229" flag="0"/>
		</comp>
	</station>
	<station code="NAZL" name="NAZL" netid="KO" source="Bogazici University Kandilli Observatory And Earthquake Research Institute (KOERI)" insttype="" lat="37.9641" lon="28.2922">
		<comp name="--.HNE" depth="0.0">
			<acc value="0.0391435687898664" flag="0"/>
			<vel value="0.0860844886910184" flag="0"/>
			<psa03 value="0.0818447291033443" flag="0"/>
			<psa10 value="0.108015142973072" flag="0"/>
			<psa30 value="0.0269088625801006" flag="0"/>
		</comp>
		<comp name="--.HNN" depth="0.0">
			<acc value="0.0438039775196997" flag="0"/>
			<vel value="0.0635617444045149" flag="0"/>
			<psa03 value="0.0925686009656739" flag="0"/>
			<psa10 value="0.126794654523769" flag="0"/>
			<psa30 value="0.0359838937563588" flag="0"/>
		</comp>
		<comp name="--.HNZ" depth="0.0">
			<acc value="0.0283081849441608" flag="0"/>
			<vel value="0.0516269902717692" flag="0"/>
			<psa03 value="0.0991547351811697" flag="0"/>
			<psa10 value="0.0513377883763299" flag="0"/>
			<psa30 value="0.0347106927463675" flag="0"/>
		</comp>
	</station>
	<station code="SEYD" name="SEYD" netid="KO" source="Bogazici University Kandilli Observatory And Earthquake Research Institute (KOERI)" insttype="" lat="37.4056" lon="31.8379">
		<comp name="--.HNE" depth="0.0">
			<acc value="0.173080982852728" flag="0"/>
			<vel value="0.291776745714772" flag="0"/>
			<psa03 value="0.371523611615934" flag="0"/>
			<psa10 value="0.496960061166595" flag="0"/>
			<psa30 value="0.093457397760632" flag="0"/>
		</comp>
		<comp name="--.HNN" depth="0.0">
			<acc value="0.393061805765476" flag="0"/>
			<vel value="0.799188241190757" flag="0"/>
			<psa03 value="0.438652100215686" flag="0"/>
			<psa10 value="0.917100693421627" flag="0"/>
			<psa30 value="0.206531721713128" flag="0"/>
		</comp>
		<comp name="--.HNZ" depth="0.0">
			<acc value="0.1991817798117" flag="0"/>
			<vel value="0.316785016920293" flag="0"/>
			<psa03 value="0.416555803110969" flag="0"/>
			<psa10 value="0.444803646057131" flag="0"/>
			<psa30 value="0.0690963239591681" flag="0"/>
		</comp>
	</station>
</stationlist>
