<?xml version="1.0" encoding="UTF-8" standalone="yes"?>
<!DOCTYPE earthquake SYSTEM "stationlist.dtd">
<stationlist created="" xmlns="ch.ethz.sed.shakemap.usgs.xml">
  <station code="BNN" name="BNN" netid="KO" insttype="CMG-3T" lat="38.8521" lon="35.8472">
    <comp name="--.HHE">
      <acc value="0.0539958488" flag="0"/>
      <vel value="0.0512768697" flag="0"/>
      <psa03 value="0.2036521198" flag="0"/>
      <psa10 value="0.0857213238" flag="0"/>
      <psa30 value="0.0059589899" flag="0"/>
    </comp>
    <comp name="--.HHZ">
      <acc value="0.0293853912" flag="0"/>
      <vel value="0.0229836557" flag="0"/>
      <psa03 value="0.0797169302" flag="0"/>
      <psa10 value="0.0485101512" flag="0"/>
      <psa30 value="0.0026093872" flag="0"/>
    </comp>
    <comp name="--.HHN">
      <acc value="0.0493603543" flag="0"/>
      <vel value="0.0578093547" flag="0"/>
      <psa03 value="0.1453477585" flag="0"/>
      <psa10 value="0.1126660314" flag="0"/>
      <psa30 value="0.0100283427" flag="0"/>
    </comp>
  </station>
  <station code="CEYT" name="CEYT" netid="KO" insttype="CMG-3ESP" lat="37.0105" lon="35.7478">
    <comp name="--.HHZ">
      <acc value="0.0151428602" flag="0"/>
      <vel value="0.0152821898" flag="0"/>
      <psa03 value="0.0371074003" flag="0"/>
      <psa10 value="0.0301499140" flag="0"/>
      <psa30 value="0.0062124358" flag="0"/>
    </comp>
    <comp name="--.HHN">
      <acc value="0.0224533618" flag="0"/>
      <vel value="0.0180306763" flag="0"/>
      <psa03 value="0.0752591961" flag="0"/>
      <psa10 value="0.0280956745" flag="0"/>
      <psa30 value="0.0040286507" flag="0"/>
    </comp>
    <comp name="--.HHE">
      <acc value="0.0312260349" flag="0"/>
      <vel value="0.0244893159" flag="0"/>
      <psa03 value="0.1166408443" flag="0"/>
      <psa10 value="0.0424836966" flag="0"/>
      <psa30 value="0.0050697902" flag="0"/>
    </comp>
  </station>
  <station code="CMRD" name="CMRD" netid="KO" insttype="CMG-5T" lat="37.6623" lon="34.9902">
    <comp name="--.HNE">
      <acc value="0.0416274771" flag="0"/>
      <vel value="0.0314043529" flag="0"/>
      <psa03 value="0.1196528073" flag="0"/>
      <psa10 value="0.0309976111" flag="0"/>
      <psa30 value="0.0023733885" flag="0"/>
    </comp>
    <comp name="--.HNZ">
      <acc value="0.0262143880" flag="0"/>
      <vel value="0.0173828038" flag="0"/>
      <psa03 value="0.0662847138" flag="0"/>
      <psa10 value="0.0176763748" flag="0"/>
      <psa30 value="0.0026000173" flag="0"/>
    </comp>
    <comp name="--.HNN">
      <acc value="0.0309424851" flag="0"/>
      <vel value="0.0262443272" flag="0"/>
      <psa03 value="0.0812829507" flag="0"/>
      <psa10 value="0.0360909459" flag="0"/>
      <psa30 value="0.0045207103" flag="0"/>
    </comp>
  </station>
  <station code="GAZ" name="GAZ" netid="KO" insttype="CMG-3T" lat="37.1721" lon="37.2096">
    <comp name="--.HHN">
      <acc value="0.0757313033" flag="0"/>
      <vel value="0.0995668116" flag="0"/>
      <psa03 value="0.1746343871" flag="0"/>
      <psa10 value="0.1484156493" flag="0"/>
      <psa30 value="0.0123912033" flag="0"/>
    </comp>
    <comp name="--.HHE">
      <acc value="0.0847315620" flag="0"/>
      <vel value="0.0818457029" flag="0"/>
      <psa03 value="0.2075002842" flag="0"/>
      <psa10 value="0.1265360474" flag="0"/>
      <psa30 value="0.0128688348" flag="0"/>
    </comp>
    <comp name="--.HHZ">
      <acc value="0.0526024560" flag="0"/>
      <vel value="0.0319482816" flag="0"/>
      <psa03 value="0.1455275609" flag="0"/>
      <psa10 value="0.0538849113" flag="0"/>
      <psa30 value="0.0056498606" flag="0"/>
    </comp>
  </station>
  <station code="SARI" name="SARI" netid="KO" insttype="CMG-3T" lat="38.4072" lon="36.4181">
    <comp name="--.HHN">
      <acc value="0.8783811914" flag="0"/>
      <vel value="0.2847361302" flag="0"/>
      <psa03 value="1.1622911875" flag="0"/>
      <psa10 value="0.2203670262" flag="0"/>
      <psa30 value="0.0137243905" flag="0"/>
    </comp>
    <comp name="--.HHE">
      <acc value="0.9095388126" flag="0"/>
      <vel value="0.2839517310" flag="0"/>
      <psa03 value="1.4014348022" flag="0"/>
      <psa10 value="0.1916564227" flag="0"/>
      <psa30 value="0.0189902927" flag="0"/>
    </comp>
    <comp name="--.HHZ">
      <acc value="0.4886777918" flag="0"/>
      <vel value="0.1840719645" flag="0"/>
      <psa03 value="1.1779267480" flag="0"/>
      <psa10 value="0.1568549689" flag="0"/>
      <psa30 value="0.0125020320" flag="0"/>
    </comp>
  </station>
  <station code="ANDN" name="ANDN" netid="TU" insttype="T" lat="37.58" lon="36.3452">
    <comp name="--.HHN">
      <acc value="0.8244521784" flag="0"/>
      <vel value="0.4366666400" flag="0"/>
      <psa03 value="1.6066797727" flag="0"/>
      <psa10 value="0.3774494649" flag="0"/>
      <psa30 value="0.0247874874" flag="0"/>
    </comp>
    <comp name="--.HHE">
      <acc value="0.5314101150" flag="0"/>
      <vel value="0.2653730623" flag="0"/>
      <psa03 value="1.3584883602" flag="0"/>
      <psa10 value="0.2913301984" flag="0"/>
      <psa30 value="0.0340563647" flag="0"/>
    </comp>
    <comp name="--.HHZ">
      <acc value="0.3898468288" flag="0"/>
      <vel value="0.2355520780" flag="0"/>
      <psa03 value="1.0112442361" flag="0"/>
      <psa10 value="0.2193616949" flag="0"/>
      <psa30 value="0.0195306111" flag="0"/>
    </comp>
  </station>
</stationlist>
