<?xml version="1.0" encoding="UTF-8" standalone="yes"?>
<!DOCTYPE earthquake SYSTEM "stationlist.dtd">
<stationlist created="" xmlns="ch.ethz.sed.shakemap.usgs.xml">
  <station code="APRC" name="APRC" netid="IV" insttype="" lat="41.7574" lon="15.5431">
    <comp name="--.HHE">
      <acc value="0.0151936604" flag="0"/>
      <vel value="0.0107112686" flag="0"/>
      <psa03 value="0.0581045517" flag="0"/>
      <psa10 value="0.0070784642" flag="0"/>
      <psa30 value="0.0004694881" flag="0"/>
    </comp>
    <comp name="--.HHN">
      <acc value="0.0210592081" flag="0"/>
      <vel value="0.0097263080" flag="0"/>
      <psa03 value="0.0565375365" flag="0"/>
      <psa10 value="0.0117542680" flag="0"/>
      <psa30 value="0.0009931938" flag="0"/>
    </comp>
    <comp name="--.HHZ">
      <acc value="0.0112078669" flag="0"/>
      <vel value="0.0061911401" flag="0"/>
      <psa03 value="0.0324994135" flag="0"/>
      <psa10 value="0.0058637679" flag="0"/>
      <psa30 value="0.0006949963" flag="0"/>
    </comp>
  </station>
  <station code="MELA" name="MELA" netid="IV" insttype="" lat="41.7059" lon="15.127">
    <comp name="--.HHE">
      <acc value="0.0145005533" flag="0"/>
      <vel value="0.0091855916" flag="0"/>
      <psa03 value="0.0393427014" flag="0"/>
      <psa10 value="0.0112195600" flag="0"/>
      <psa30 value="0.0008428824" flag="0"/>
    </comp>
    <comp name="--.HHN">
      <acc value="0.0133546463" flag="0"/>
      <vel value="0.0080138934" flag="0"/>
      <psa03 value="0.0541283989" flag="0"/>
      <psa10 value="0.0129554258" flag="0"/>
      <psa30 value="0.0020424045" flag="0"/>
    </comp>
    <comp name="--.HHZ">
      <acc value="0.0045421554" flag="0"/>
      <vel value="0.0027969665" flag="0"/>
      <psa03 value="0.0101818771" flag="0"/>
      <psa10 value="0.0027602046" flag="0"/>
      <psa30 value="0.0006528025" flag="0"/>
    </comp>
  </station>
  <station code="MSAG" name="MSAG" netid="IV" insttype="" lat="41.712" lon="15.9096">
    <comp name="--.HHE">
      <acc value="0.0056285063" flag="0"/>
      <vel value="0.0022094578" flag="0"/>
      <psa03 value="0.0092107066" flag="0"/>
      <psa10 value="0.0021133126" flag="0"/>
      <psa30 value="0.0001557011" flag="0"/>
    </comp>
    <comp name="--.HHN">
      <acc value="0.0133755327" flag="0"/>
      <vel value="0.0054357286" flag="0"/>
      <psa03 value="0.0309321704" flag="0"/>
      <psa10 value="0.0035681438" flag="0"/>
      <psa30 value="0.0003174283" flag="0"/>
    </comp>
    <comp name="--.HHZ">
      <acc value="0.0026888326" flag="0"/>
      <vel value="0.0014235194" flag="0"/>
      <psa03 value="0.0083373457" flag="0"/>
      <psa10 value="0.0011757371" flag="0"/>
      <psa30 value="0.0002375432" flag="0"/>
    </comp>
  </station>
  <station code="SGRT" name="SGRT" netid="IV" insttype="" lat="41.7546" lon="15.7437">
    <comp name="--.HHZ">
      <acc value="0.0096183606" flag="0"/>
      <vel value="0.0073446838" flag="0"/>
      <psa03 value="0.0204485500" flag="0"/>
      <psa10 value="0.0048072494" flag="0"/>
      <psa30 value="0.0005520310" flag="0"/>
    </comp>
    <comp name="--.HHE">
      <acc value="0.0170979883" flag="0"/>
      <vel value="0.0072851353" flag="0"/>
      <psa03 value="0.0333268927" flag="0"/>
      <psa10 value="0.0080807090" flag="0"/>
      <psa30 value="0.0004763041" flag="0"/>
    </comp>
    <comp name="--.HHN">
      <acc value="0.0141036283" flag="0"/>
      <vel value="0.0126427108" flag="0"/>
      <psa03 value="0.0347111531" flag="0"/>
      <psa10 value="0.0103296830" flag="0"/>
      <psa30 value="0.0011649044" flag="0"/>
    </comp>
  </station>
  <station code="TREM" name="TREM" netid="IV" insttype="" lat="42.123" lon="15.51">
    <comp name="--.HHE">
      <acc value="0.0162651550" flag="0"/>
      <vel value="0.0123353936" flag="0"/>
      <psa03 value="0.0435499378" flag="0"/>
      <psa10 value="0.0133363255" flag="0"/>
      <psa30 value="0.0013412667" flag="0"/>
    </comp>
    <comp name="--.HHN">
      <acc value="0.0288064855" flag="0"/>
      <vel value="0.0146283114" flag="0"/>
      <psa03 value="0.0539418722" flag="0"/>
      <psa10 value="0.0139459619" flag="0"/>
      <psa30 value="0.0010559215" flag="0"/>
    </comp>
    <comp name="--.HHZ">
      <acc value="0.0139062567" flag="0"/>
      <vel value="0.0072209851" flag="0"/>
      <psa03 value="0.0549640534" flag="0"/>
      <psa10 value="0.0038753950" flag="0"/>
      <psa30 value="0.0004930988" flag="0"/>
    </comp>
  </station>
</stationlist>
