<stationlist created="1778136484">
	<station code="ACER" name="ACER" netid="IV" source="Italian National Seismic Network (INSN)" insttype="" lat="40.7867" lon="15.9427">
		<comp name="--.HNE" depth="1.0">
			<acc value="0.00384452827768967" flag="0"/>
			<vel value="0.00291504243574423" flag="0"/>
			<psa03 value="0.00957483221631016" flag="0"/>
			<psa10 value="0.00382948546445788" flag="0"/>
			<psa30 value="0.000331092328975211" flag="0"/>
		</comp>
		<comp name="--.HNN" depth="1.0">
			<acc value="0.00250398348155863" flag="0"/>
			<vel value="0.00315276203136723" flag="0"/>
			<psa03 value="0.00644287775303113" flag="0"/>
			<psa10 value="0.00271406225346436" flag="0"/>
			<psa30 value="0.000510508577514481" flag="0"/>
		</comp>
		<comp name="--.HNZ" depth="1.0">
			<acc value="0.00181649953126678" flag="0"/>
			<vel value="0.00118685500837267" flag="0"/>
			<psa03 value="0.00510061155448298" flag="0"/>
			<psa10 value="0.00102280684329369" flag="0"/>
			<psa30 value="0.000263084174915438" flag="0"/>
		</comp>
	</station>
	<station code="MOCO" name="MOCO" netid="IV" source="Italian National Seismic Network (INSN)" insttype="" lat="41.37" lon="15.158">
		<comp name="--.HNE" depth="1.0">
			<acc value="0.00248005684515802" flag="0"/>
			<vel value="0.00328650959110705" flag="0"/>
			<psa03 value="0.00765091733172447" flag="0"/>
			<psa10 value="0.00752608657525949" flag="0"/>
			<psa30 value="0.00153823706353618" flag="0"/>
		</comp>
		<comp name="--.HNN" depth="1.0">
			<acc value="0.00175122207883086" flag="0"/>
			<vel value="0.00290267371424231" flag="0"/>
			<psa03 value="0.00447422066182718" flag="0"/>
			<psa10 value="0.00388988744339255" flag="0"/>
			<psa30 value="0.00122369935100973" flag="0"/>
		</comp>
		<comp name="--.HNZ" depth="1.0">
			<acc value="0.00170625518805338" flag="0"/>
			<vel value="0.00200228529841529" flag="0"/>
			<psa03 value="0.00331092328975211" flag="0"/>
			<psa10 value="0.00278654462818596" flag="0"/>
			<psa30 value="0.000697978423245039" flag="0"/>
		</comp>
	</station>
	<station code="TREM" name="TREM" netid="IV" source="Italian National Seismic Network (INSN)" insttype="" lat="42.123" lon="15.51">
		<comp name="--.HNE" depth="0.0">
			<acc value="0.0177054403649603" flag="0"/>
			<vel value="0.0112630367991391" flag="0"/>
			<psa03 value="0.046263441643293" flag="0"/>
			<psa10 value="0.0128897823046579" flag="0"/>
			<psa30 value="0.00144293616343926" flag="0"/>
		</comp>
		<comp name="--.HNN" depth="0.0">
			<acc value="0.0279092978284884" flag="0"/>
			<vel value="0.0147869008122082" flag="0"/>
			<psa03 value="0.0554355940000387" flag="0"/>
			<psa10 value="0.0148508332207368" flag="0"/>
			<psa30 value="0.00130423532292262" flag="0"/>
		</comp>
		<comp name="--.HNZ" depth="0.0">
			<acc value="0.0141674997825342" flag="0"/>
			<vel value="0.00747536207381679" flag="0"/>
			<psa03 value="0.0562409537191676" flag="0"/>
			<psa10 value="0.0039221018321577" flag="0"/>
			<psa30 value="0.000620574405795429" flag="0"/>
		</comp>
	</station>
	<station code="TRIV" name="TRIV" netid="IV" source="Italian National Seismic Network (INSN)" insttype="" lat="41.7666" lon="14.5502">
		<comp name="--.HNE" depth="0.0">
			<acc value="0.00301937618695022" flag="0"/>
			<vel value="0.00355335773864948" flag="0"/>
			<psa03 value="0.00782988615819756" flag="0"/>
			<psa10 value="0.00558114285356322" flag="0"/>
			<psa30 value="0.00153644737527145" flag="0"/>
		</comp>
		<comp name="--.HNN" depth="0.0">
			<acc value="0.0031928452987144" flag="0"/>
			<vel value="0.00309594210829687" flag="0"/>
			<psa03 value="0.00948534780307361" flag="0"/>
			<psa10 value="0.00590731353981042" flag="0"/>
			<psa30 value="0.00102593879775697" flag="0"/>
		</comp>
		<comp name="--.HNZ" depth="0.0">
			<acc value="0.00209055644398149" flag="0"/>
			<vel value="0.00313665234390179" flag="0"/>
			<psa03 value="0.00519009596771952" flag="0"/>
			<psa10 value="0.00452612162150437" flag="0"/>
			<psa30 value="0.00112571391851572" flag="0"/>
		</comp>
	</station>
	<station code="AND3" name="AND3" netid="IX" source="Irpinia Seismic Network (ISNet)" insttype="" lat="40.9298" lon="15.3331">
		<comp name="01.HNE" depth="0.0">
			<acc value="0.00262533932918628" flag="0"/>
			<vel value="0.0031678126522257" flag="0"/>
			<psa03 value="0.00478741610815508" flag="0"/>
			<psa10 value="0.00498920346000348" flag="0"/>
			<psa30 value="0.000470688013624219" flag="0"/>
		</comp>
		<comp name="01.HNN" depth="0.0">
			<acc value="0.00309992855803866" flag="0"/>
			<vel value="0.00271790425779121" flag="0"/>
			<psa03 value="0.0076061751251062" flag="0"/>
			<psa10 value="0.00394626262373157" flag="0"/>
			<psa30 value="0.000712295929362886" flag="0"/>
		</comp>
		<comp name="01.HNZ" depth="0.0">
			<acc value="0.00227393143390888" flag="0"/>
			<vel value="0.00176178041981465" flag="0"/>
			<psa03 value="0.00568226024052051" flag="0"/>
			<psa10 value="0.00181608616663565" flag="0"/>
			<psa30 value="0.00039015204171133" flag="0"/>
		</comp>
	</station>
	<station code="BSC3" name="BSC3" netid="IX" source="Irpinia Seismic Network (ISNet)" insttype="" lat="41.012" lon="15.3852">
		<comp name="01.HNE" depth="0.0">
			<acc value="0.00214228716405849" flag="0"/>
			<vel value="0.00214466746292962" flag="0"/>
			<psa03 value="0.00456370507506372" flag="0"/>
			<psa10 value="0.00324157286949379" flag="0"/>
			<psa30 value="0.000731535078208743" flag="0"/>
		</comp>
		<comp name="01.HNN" depth="0.0">
			<acc value="0.00281563670094907" flag="0"/>
			<vel value="0.00312931287470043" flag="0"/>
			<psa03 value="0.00581648686037533" flag="0"/>
			<psa10 value="0.00349123438242374" flag="0"/>
			<psa30 value="0.000578516731574254" flag="0"/>
		</comp>
		<comp name="01.HNZ" depth="0.0">
			<acc value="0.00113961727483779" flag="0"/>
			<vel value="0.00111214388904093" flag="0"/>
			<psa03 value="0.00259504798385976" flag="0"/>
			<psa10 value="0.00139729911268863" flag="0"/>
			<psa30 value="0.000538248745617809" flag="0"/>
		</comp>
	</station>
	<station code="CLT3" name="CLT3" netid="IX" source="Irpinia Seismic Network (ISNet)" insttype="" lat="40.903" lon="15.4043">
		<comp name="01.HNE" depth="0.0">
			<acc value="0.00566407709865198" flag="0"/>
			<vel value="0.00225673210210405" flag="0"/>
			<psa03 value="0.0140043106715191" flag="0"/>
			<psa10 value="0.00260533869138196" flag="0"/>
			<psa30 value="0.000603572367280486" flag="0"/>
		</comp>
		<comp name="01.HNN" depth="0.0">
			<acc value="0.00632396469290386" flag="0"/>
			<vel value="0.00279268767277212" flag="0"/>
			<psa03 value="0.016957296308325" flag="0"/>
			<psa10 value="0.00298788455796819" flag="0"/>
			<psa30 value="0.000634444489847093" flag="0"/>
		</comp>
		<comp name="01.HNZ" depth="0.0">
			<acc value="0.00250346668515067" flag="0"/>
			<vel value="0.001332587443214" flag="0"/>
			<psa03 value="0.00684555761259558" flag="0"/>
			<psa10 value="0.00240399876159974" flag="0"/>
			<psa30 value="0.000358385075012357" flag="0"/>
		</comp>
	</station>
	<station code="RDM3" name="RDM3" netid="IX" source="Irpinia Seismic Network (ISNet)" insttype="" lat="40.8755" lon="15.5361">
		<comp name="01.HNE" depth="0.0">
			<acc value="0.00276275374441245" flag="0"/>
			<vel value="0.00309672416567545" flag="0"/>
			<psa03 value="0.00827730822438028" flag="0"/>
			<psa10 value="0.00342680560489343" flag="0"/>
			<psa30 value="0.000786120570283035" flag="0"/>
		</comp>
		<comp name="01.HNN" depth="0.0">
			<acc value="0.00405352411721603" flag="0"/>
			<vel value="0.00375997056320361" flag="0"/>
			<psa03 value="0.0109618406214766" flag="0"/>
			<psa10 value="0.00355566315995406" flag="0"/>
			<psa30 value="0.00094674509204263" flag="0"/>
		</comp>
		<comp name="01.HNZ" depth="0.0">
			<acc value="0.00201366792546211" flag="0"/>
			<vel value="0.00182649478732959" flag="0"/>
			<psa03 value="0.00608494010008496" flag="0"/>
			<psa10 value="0.00255701710823423" flag="0"/>
			<psa30 value="0.000412523145020466" flag="0"/>
		</comp>
	</station>
	<station code="SFL3" name="SFL3" netid="IX" source="Irpinia Seismic Network (ISNet)" insttype="" lat="40.7889" lon="15.5782">
		<comp name="01.HNE" depth="0.0">
			<acc value="0.00170679580926208" flag="0"/>
			<vel value="0.00100901388790088" flag="0"/>
			<psa03 value="0.00313195446327902" flag="0"/>
			<psa10 value="0.000962404864359025" flag="0"/>
			<psa30 value="0.000248766668797591" flag="0"/>
		</comp>
		<comp name="01.HNN" depth="0.0">
			<acc value="0.00126723443017548" flag="0"/>
			<vel value="0.000913496505142455" flag="0"/>
			<psa03 value="0.00295298563680594" flag="0"/>
			<psa10 value="0.00096643166295467" flag="0"/>
			<psa30 value="0.000312748024261719" flag="0"/>
		</comp>
		<comp name="01.HNZ" depth="0.0">
			<acc value="0.000707492801811845" flag="0"/>
			<vel value="0.000513564129299581" flag="0"/>
			<psa03 value="0.0020581415044405" flag="0"/>
			<psa10 value="0.000451001442712179" flag="0"/>
			<psa30 value="0.000191496644326203" flag="0"/>
		</comp>
		<comp name="02.HNE" depth="0.0">
			<acc value="0.00157937871043386" flag="0"/>
			<vel value="0.00092475050863433" flag="0"/>
			<psa03 value="0.00317669666989729" flag="0"/>
			<psa10 value="0.000889922489637425" flag="0"/>
			<psa30 value="0.000253240889459418" flag="0"/>
		</comp>
		<comp name="02.HNN" depth="0.0">
			<acc value="0.00123716508492704" flag="0"/>
			<vel value="0.000877910923473873" flag="0"/>
			<psa03 value="0.00295298563680594" flag="0"/>
			<psa10 value="0.000990592454528537" flag="0"/>
			<psa30 value="0.000221473922760445" flag="0"/>
		</comp>
		<comp name="02.HNZ" depth="0.0">
			<acc value="0.000692405695599141" flag="0"/>
			<vel value="0.000423145394814077" flag="0"/>
			<psa03 value="0.0020581415044405" flag="0"/>
			<psa10 value="0.000535564213220713" flag="0"/>
			<psa30 value="0.000111408094479497" flag="0"/>
		</comp>
	</station>
	<station code="SSB3" name="SSB3" netid="IX" source="Irpinia Seismic Network (ISNet)" insttype="" lat="41.0785" lon="15.2292">
		<comp name="01.HNE" depth="0.0">
			<acc value="0.00327367300253733" flag="0"/>
			<vel value="0.00280948824285564" flag="0"/>
			<psa03 value="0.00850101925747163" flag="0"/>
			<psa10 value="0.00308050092566801" flag="0"/>
			<psa30 value="0.000714085617627617" flag="0"/>
		</comp>
		<comp name="01.HNN" depth="0.0">
			<acc value="0.00256904292458283" flag="0"/>
			<vel value="0.00197344922195236" flag="0"/>
			<psa03 value="0.00702452643906867" flag="0"/>
			<psa10 value="0.00266976746891228" flag="0"/>
			<psa30 value="0.000835336997563133" flag="0"/>
		</comp>
		<comp name="01.HNZ" depth="0.0">
			<acc value="0.00117313784485241" flag="0"/>
			<vel value="0.00105442976226143" flag="0"/>
			<psa03 value="0.00429525183535409" flag="0"/>
			<psa10 value="0.0013771651197104" flag="0"/>
			<psa30 value="0.000450554020645997" flag="0"/>
		</comp>
	</station>
</stationlist>
