<?xml version="1.0" encoding="UTF-8" standalone="yes"?>
<!DOCTYPE earthquake SYSTEM "stationlist.dtd">
<stationlist created="" xmlns="ch.ethz.sed.shakemap.usgs.xml">
  <station code="KARO" name="KARO" netid="KO" insttype="120s," lat="39.3089" lon="41.0493">
    <comp name="--.HHE">
      <acc value="0.1187394078" flag="0"/>
      <vel value="0.1059643540" flag="0"/>
      <psa03 value="0.3880339947" flag="0"/>
      <psa10 value="0.0913057664" flag="0"/>
      <psa30 value="0.0116941549" flag="0"/>
    </comp>
    <comp name="--.HHN">
      <acc value="0.0723212842" flag="0"/>
      <vel value="0.0551131306" flag="0"/>
      <psa03 value="0.2679295909" flag="0"/>
      <psa10 value="0.0460857148" flag="0"/>
      <psa30 value="0.0035855776" flag="0"/>
    </comp>
    <comp name="--.HHZ">
      <acc value="0.0594588063" flag="0"/>
      <vel value="0.0251768882" flag="0"/>
      <psa03 value="0.1500213979" flag="0"/>
      <psa10 value="0.0338768196" flag="0"/>
      <psa30 value="0.0053640560" flag="0"/>
    </comp>
  </station>
  <station code="KOPR" name="KOPR" netid="KO" insttype="120s," lat="39.9917" lon="41.8535">
    <comp name="--.HHE">
      <acc value="0.0037507074" flag="0"/>
      <vel value="0.0035544775" flag="0"/>
      <psa03 value="0.0103800478" flag="0"/>
      <psa10 value="0.0061094697" flag="0"/>
      <psa30 value="0.0014197476" flag="0"/>
    </comp>
    <comp name="--.HHN">
      <acc value="0.0039002322" flag="0"/>
      <vel value="0.0043171971" flag="0"/>
      <psa03 value="0.0092482803" flag="0"/>
      <psa10 value="0.0094744257" flag="0"/>
      <psa30 value="0.0008336285" flag="0"/>
    </comp>
    <comp name="--.HHZ">
      <acc value="0.0047880328" flag="0"/>
      <vel value="0.0028981716" flag="0"/>
      <psa03 value="0.0109808654" flag="0"/>
      <psa10 value="0.0058199724" flag="0"/>
      <psa30 value="0.0010761552" flag="0"/>
    </comp>
  </station>
</stationlist>
