<?xml version="1.0" encoding="UTF-8" standalone="yes"?>
<!DOCTYPE earthquake SYSTEM "stationlist.dtd">
<stationlist created="" xmlns="ch.ethz.sed.shakemap.usgs.xml">
  <station code="ARPRA" name="ARPRA" netid="KO" insttype="CMG-5T" lat="39.0929" lon="38.3356">
    <comp name="--.HNZ">
      <acc value="0.0080539088" flag="0"/>
      <vel value="0.0034027212" flag="0"/>
      <psa03 value="0.0237593022" flag="0"/>
      <psa10 value="0.0049223867" flag="0"/>
      <psa30 value="0.0003816413" flag="0"/>
    </comp>
    <comp name="--.HNN">
      <acc value="0.0149835129" flag="0"/>
      <vel value="0.0078655298" flag="0"/>
      <psa03 value="0.0527443902" flag="0"/>
      <psa10 value="0.0087061503" flag="0"/>
      <psa30 value="0.0004740831" flag="0"/>
    </comp>
    <comp name="--.HNE">
      <acc value="0.0141699804" flag="0"/>
      <vel value="0.0095251730" flag="0"/>
      <psa03 value="0.0478580054" flag="0"/>
      <psa10 value="0.0152416625" flag="0"/>
      <psa30 value="0.0011578234" flag="0"/>
    </comp>
  </station>
  <station code="DARE" name="DARE" netid="KO" insttype="CMG-3ESP" lat="38.5712" lon="37.4832">
    <comp name="--.HHE">
      <acc value="0.0041954198" flag="0"/>
      <vel value="0.0020976779" flag="0"/>
      <psa03 value="0.0078003920" flag="0"/>
      <psa10 value="0.0019956637" flag="0"/>
      <psa30 value="0.0001690332" flag="0"/>
    </comp>
    <comp name="--.HHZ">
      <acc value="0.0038212544" flag="0"/>
      <vel value="0.0015051748" flag="0"/>
      <psa03 value="0.0092151268" flag="0"/>
      <psa10 value="0.0020119735" flag="0"/>
      <psa30 value="0.0001605868" flag="0"/>
    </comp>
    <comp name="--.HHN">
      <acc value="0.0048582194" flag="0"/>
      <vel value="0.0018053746" flag="0"/>
      <psa03 value="0.0085884943" flag="0"/>
      <psa10 value="0.0021552909" flag="0"/>
      <psa30 value="0.0001461495" flag="0"/>
    </comp>
  </station>
  <station code="SVRC" name="SVRC" netid="KO" insttype="CMG-3T" lat="38.3775" lon="39.306">
    <comp name="--.HHE">
      <acc value="0.0101185809" flag="0"/>
      <vel value="0.0044918268" flag="0"/>
      <psa03 value="0.0378096433" flag="0"/>
      <psa10 value="0.0024813316" flag="0"/>
      <psa30 value="0.0002505608" flag="0"/>
    </comp>
    <comp name="--.HHN">
      <acc value="0.0104243280" flag="0"/>
      <vel value="0.0042611843" flag="0"/>
      <psa03 value="0.0320248349" flag="0"/>
      <psa10 value="0.0020191030" flag="0"/>
      <psa30 value="0.0003800437" flag="0"/>
    </comp>
  </station>
  <station code="URFA" name="URFA" netid="KO" insttype="CMG-3ESP" lat="37.4409" lon="38.8213">
    <comp name="--.HHE">
      <acc value="0.1351674901" flag="0"/>
      <vel value="0.0249773727" flag="0"/>
      <psa03 value="0.1370059831" flag="0"/>
      <psa10 value="0.0088912323" flag="0"/>
      <psa30 value="0.0016491075" flag="0"/>
    </comp>
  </station>
</stationlist>
