<?xml version="1.0" encoding="UTF-8" standalone="yes"?>
<!DOCTYPE earthquake SYSTEM "stationlist.dtd">
<stationlist created="" xmlns="ch.ethz.sed.shakemap.usgs.xml">
  <station code="APE" name="APE" netid="GE" insttype="STS-2/N" lat="37.0727" lon="25.523">
    <comp name="--.HHN">
      <acc value="0.2337793022" flag="0"/>
      <vel value="0.0480530097" flag="0"/>
      <psa03 value="0.1033770393" flag="0"/>
      <psa10 value="0.0080806360" flag="0"/>
      <psa30 value="0.0030623281" flag="0"/>
    </comp>
    <comp name="--.HHZ">
      <acc value="0.1143934808" flag="0"/>
      <vel value="0.0133284546" flag="0"/>
      <psa03 value="0.0617293964" flag="0"/>
      <psa10 value="0.0156015974" flag="0"/>
      <psa30 value="0.0029426453" flag="0"/>
    </comp>
    <comp name="--.HHE">
      <acc value="0.2458236108" flag="0"/>
      <vel value="0.0385043620" flag="0"/>
      <psa03 value="0.1116889225" flag="0"/>
      <psa10 value="0.0098212772" flag="0"/>
      <psa30 value="0.0027104764" flag="0"/>
    </comp>
  </station>
  <station code="THERA" name="THERA" netid="GE" insttype="STS-2/N" lat="36.367" lon="25.4753">
    <comp name="--.HHE">
      <acc value="0.3046779906" flag="0"/>
      <vel value="0.0902509072" flag="0"/>
      <psa03 value="0.5846219485" flag="0"/>
      <psa10 value="0.0297911601" flag="0"/>
      <psa30 value="0.0021438793" flag="0"/>
    </comp>
    <comp name="--.HHZ">
      <acc value="0.2691562762" flag="0"/>
      <vel value="0.0582591866" flag="0"/>
      <psa03 value="0.2350549252" flag="0"/>
      <psa10 value="0.0177642919" flag="0"/>
      <psa30 value="0.0016257109" flag="0"/>
    </comp>
    <comp name="--.HHN">
      <acc value="0.2384795748" flag="0"/>
      <vel value="0.0635269215" flag="0"/>
      <psa03 value="0.4217997344" flag="0"/>
      <psa10 value="0.0116141275" flag="0"/>
      <psa30 value="0.0014148498" flag="0"/>
    </comp>
  </station>
  <station code="SNT1" name="SNT1" netid="HA" insttype="30" lat="36.4159" lon="25.4282">
    <comp name="--.HHE">
      <acc value="0.1808961599" flag="0"/>
      <vel value="0.0673021659" flag="0"/>
      <psa03 value="0.3053178312" flag="0"/>
      <psa10 value="0.0432646871" flag="0"/>
      <psa30 value="0.0044514269" flag="0"/>
    </comp>
    <comp name="--.HHN">
      <acc value="0.1422206897" flag="0"/>
      <vel value="0.0458313981" flag="0"/>
      <psa03 value="0.2242449327" flag="0"/>
      <psa10 value="0.0479436080" flag="0"/>
      <psa30 value="0.0050020164" flag="0"/>
    </comp>
    <comp name="--.HHZ">
      <acc value="0.2006172923" flag="0"/>
      <vel value="0.0485558738" flag="0"/>
      <psa03 value="0.2721147169" flag="0"/>
      <psa10 value="0.0293206130" flag="0"/>
      <psa30 value="0.0025888516" flag="0"/>
    </comp>
  </station>
  <station code="NAX1" name="NAX1" netid="HI" insttype="CMG-5TD,ACCELEROMETER,GURALP" lat="37.1014" lon="25.3741">
    <comp name="--.HNZ">
      <acc value="0.0735474611" flag="0"/>
      <vel value="0.0144590800" flag="0"/>
      <psa03 value="0.0466352375" flag="0"/>
      <psa10 value="0.0103597506" flag="0"/>
      <psa30 value="0.0025719054" flag="0"/>
    </comp>
    <comp name="--.HNN">
      <acc value="0.1847037330" flag="0"/>
      <vel value="0.0258277728" flag="0"/>
      <psa03 value="0.0771108903" flag="0"/>
      <psa10 value="0.0068228044" flag="0"/>
      <psa30 value="0.0021957477" flag="0"/>
    </comp>
    <comp name="--.HNE">
      <acc value="0.1727829534" flag="0"/>
      <vel value="0.0318344241" flag="0"/>
      <psa03 value="0.0789985410" flag="0"/>
      <psa10 value="0.0106902547" flag="0"/>
      <psa30 value="0.0015489922" flag="0"/>
    </comp>
  </station>
  <station code="APE" name="APE" netid="HL" insttype="120" lat="37.0727" lon="25.523">
    <comp name="--.HHZ">
      <acc value="0.1053957568" flag="0"/>
      <vel value="0.0127369461" flag="0"/>
      <psa03 value="0.0604942911" flag="0"/>
      <psa10 value="0.0154528959" flag="0"/>
      <psa30 value="0.0029381037" flag="0"/>
    </comp>
    <comp name="--.HHN">
      <acc value="0.2023196460" flag="0"/>
      <vel value="0.0437112672" flag="0"/>
      <psa03 value="0.1005360261" flag="0"/>
      <psa10 value="0.0080175772" flag="0"/>
      <psa30 value="0.0030541414" flag="0"/>
    </comp>
    <comp name="--.HHE">
      <acc value="0.2117045077" flag="0"/>
      <vel value="0.0362051997" flag="0"/>
      <psa03 value="0.1077399736" flag="0"/>
      <psa10 value="0.0097093539" flag="0"/>
      <psa30 value="0.0027012140" flag="0"/>
    </comp>
  </station>
  <station code="MHLO" name="MHLO" netid="HL" insttype="20" lat="36.6898" lon="24.4017">
    <comp name="--.HHE">
      <acc value="0.1566109409" flag="0"/>
      <vel value="0.0645545415" flag="0"/>
      <psa03 value="0.4591462638" flag="0"/>
      <psa10 value="0.0562878819" flag="0"/>
      <psa30 value="0.0042140550" flag="0"/>
    </comp>
    <comp name="--.HHN">
      <acc value="0.1635225516" flag="0"/>
      <vel value="0.0793652578" flag="0"/>
      <psa03 value="0.5408635017" flag="0"/>
      <psa10 value="0.0605052773" flag="0"/>
      <psa30 value="0.0025297282" flag="0"/>
    </comp>
    <comp name="--.HHZ">
      <acc value="0.0593945249" flag="0"/>
      <vel value="0.0283392863" flag="0"/>
      <psa03 value="0.1720725856" flag="0"/>
      <psa10 value="0.0333459365" flag="0"/>
      <psa30 value="0.0025072937" flag="0"/>
    </comp>
  </station>
  <station code="NISR" name="NISR" netid="HL" insttype="65535" lat="36.6106" lon="27.131">
    <comp name="--.HHE">
      <acc value="0.0000000000" flag="0"/>
      <vel value="-100.0000000000" flag="0"/>
      <psa03 value="0.0000000000" flag="0"/>
      <psa10 value="0.0000000000" flag="0"/>
      <psa30 value="0.0000000000" flag="0"/>
    </comp>
    <comp name="--.HHZ">
      <acc value="0.0136453275" flag="0"/>
      <vel value="0.0087338129" flag="0"/>
      <psa03 value="0.0304466108" flag="0"/>
      <psa10 value="0.0115208372" flag="0"/>
      <psa30 value="0.0008208846" flag="0"/>
    </comp>
    <comp name="--.HHN">
      <acc value="0.0245574748" flag="0"/>
      <vel value="0.0141180795" flag="0"/>
      <psa03 value="0.0514914840" flag="0"/>
      <psa10 value="0.0153848085" flag="0"/>
      <psa30 value="0.0029103517" flag="0"/>
    </comp>
  </station>
  <station code="NISR2" name="NISR2" netid="HL" insttype="120" lat="36.5744" lon="27.1767">
    <comp name="--.HHE">
      <acc value="0.0345299571" flag="0"/>
      <vel value="0.0281403879" flag="0"/>
      <psa03 value="0.1018788496" flag="0"/>
      <psa10 value="0.0456077828" flag="0"/>
      <psa30 value="0.0022696702" flag="0"/>
    </comp>
    <comp name="--.HHN">
      <acc value="0.0415843200" flag="0"/>
      <vel value="0.0358729206" flag="0"/>
      <psa03 value="0.1469741011" flag="0"/>
      <psa10 value="0.0577267021" flag="0"/>
      <psa30 value="0.0026926095" flag="0"/>
    </comp>
    <comp name="--.HHZ">
      <acc value="0.0140002562" flag="0"/>
      <vel value="0.0076408743" flag="0"/>
      <psa03 value="0.0382408715" flag="0"/>
      <psa10 value="0.0124105293" flag="0"/>
      <psa30 value="0.0011849096" flag="0"/>
    </comp>
  </station>
  <station code="SAP3" name="SAP3" netid="HL" insttype="LE3D20_SMART24" lat="36.4356" lon="25.3454">
    <comp name="--.HHE">
      <acc value="0.9682878652" flag="0"/>
      <vel value="0.2438313490" flag="0"/>
      <psa03 value="1.5591459774" flag="0"/>
      <psa10 value="0.1522665624" flag="0"/>
      <psa30 value="0.0210455887" flag="0"/>
    </comp>
    <comp name="--.HHN">
      <acc value="0.7191073559" flag="0"/>
      <vel value="0.2556494088" flag="0"/>
      <psa03 value="1.2775896021" flag="0"/>
      <psa10 value="0.1627837980" flag="0"/>
      <psa30 value="0.0179795350" flag="0"/>
    </comp>
    <comp name="--.HHZ">
      <acc value="0.9172798264" flag="0"/>
      <vel value="0.1891429172" flag="0"/>
      <psa03 value="0.8734991773" flag="0"/>
      <psa10 value="0.0733068782" flag="0"/>
      <psa30 value="0.0116017531" flag="0"/>
    </comp>
  </station>
  <station code="THERA" name="THERA" netid="HL" insttype="120" lat="36.367" lon="25.4753">
    <comp name="--.HHE">
      <acc value="0.3097260938" flag="0"/>
      <vel value="0.0880337700" flag="0"/>
      <psa03 value="0.5677907494" flag="0"/>
      <psa10 value="0.0293284087" flag="0"/>
      <psa30 value="0.0021283660" flag="0"/>
    </comp>
    <comp name="--.HHN">
      <acc value="0.2399581514" flag="0"/>
      <vel value="0.0620186707" flag="0"/>
      <psa03 value="0.4092625567" flag="0"/>
      <psa10 value="0.0115457325" flag="0"/>
      <psa30 value="0.0013952870" flag="0"/>
    </comp>
    <comp name="--.HHZ">
      <acc value="0.2654855124" flag="0"/>
      <vel value="0.0567816537" flag="0"/>
      <psa03 value="0.2281974393" flag="0"/>
      <psa10 value="0.0175066893" flag="0"/>
      <psa30 value="0.0016254063" flag="0"/>
    </comp>
  </station>
  <station code="THRA" name="THRA" netid="HL" insttype="CMG-5" lat="36.415" lon="25.4324">
    <comp name="00.HNZ">
      <acc value="0.5430717933" flag="0"/>
      <vel value="0.1406441981" flag="0"/>
      <psa03 value="0.8786118357" flag="0"/>
      <psa10 value="0.0556638399" flag="0"/>
      <psa30 value="0.0047236021" flag="0"/>
    </comp>
    <comp name="00.HNE">
      <acc value="0.7693358752" flag="0"/>
      <vel value="0.2178788510" flag="0"/>
      <psa03 value="1.2049612009" flag="0"/>
      <psa10 value="0.1134473111" flag="0"/>
      <psa30 value="0.0087873899" flag="0"/>
    </comp>
    <comp name="00.HNN">
      <acc value="0.6487118696" flag="0"/>
      <vel value="0.2209251489" flag="0"/>
      <psa03 value="1.1658445351" flag="0"/>
      <psa10 value="0.1411306929" flag="0"/>
      <psa30 value="0.0102723233" flag="0"/>
    </comp>
  </station>
  <station code="CMBO" name="CMBO" netid="HT" insttype="120P," lat="36.4709" lon="25.4056">
    <comp name="--.HHE">
      <acc value="1.3185063911" flag="0"/>
      <vel value="0.3331186861" flag="0"/>
      <psa03 value="1.4317030885" flag="0"/>
      <psa10 value="0.1821586087" flag="0"/>
      <psa30 value="0.0159837614" flag="0"/>
    </comp>
    <comp name="--.HHN">
      <acc value="1.4606560938" flag="0"/>
      <vel value="0.6082220024" flag="0"/>
      <psa03 value="1.4875851074" flag="0"/>
      <psa10 value="0.3748212186" flag="0"/>
      <psa30 value="0.0213270968" flag="0"/>
    </comp>
    <comp name="--.HHZ">
      <acc value="1.0776997587" flag="0"/>
      <vel value="0.2769503574" flag="0"/>
      <psa03 value="1.3471326003" flag="0"/>
      <psa10 value="0.0907525852" flag="0"/>
      <psa30 value="0.0077859259" flag="0"/>
    </comp>
  </station>
</stationlist>
