<?xml version="1.0" encoding="UTF-8" standalone="yes"?>
<!DOCTYPE earthquake SYSTEM "stationlist.dtd">
<stationlist created="" xmlns="ch.ethz.sed.shakemap.usgs.xml">
  <station code="APE" name="APE" netid="GE" insttype="STS-2/N" lat="37.0727" lon="25.523">
    <comp name="--.HHZ">
      <acc value="0.1143934813" flag="0"/>
      <vel value="0.0133284570" flag="0"/>
      <psa03 value="0.0617293964" flag="0"/>
      <psa10 value="0.0156015997" flag="0"/>
      <psa30 value="0.0029424563" flag="0"/>
    </comp>
    <comp name="--.HHE">
      <acc value="0.2458236097" flag="0"/>
      <vel value="0.0385043635" flag="0"/>
      <psa03 value="0.1116889225" flag="0"/>
      <psa10 value="0.0098212780" flag="0"/>
      <psa30 value="0.0027103970" flag="0"/>
    </comp>
    <comp name="--.HHN">
      <acc value="0.2337793012" flag="0"/>
      <vel value="0.0480530122" flag="0"/>
      <psa03 value="0.1033770393" flag="0"/>
      <psa10 value="0.0080806358" flag="0"/>
      <psa30 value="0.0030623604" flag="0"/>
    </comp>
  </station>
  <station code="THERA" name="THERA" netid="GE" insttype="STS-2/N" lat="36.367" lon="25.4753">
    <comp name="--.HHZ">
      <acc value="0.2691562757" flag="0"/>
      <vel value="0.0582591862" flag="0"/>
      <psa03 value="0.2350549252" flag="0"/>
      <psa10 value="0.0177642885" flag="0"/>
      <psa30 value="0.0016258161" flag="0"/>
    </comp>
    <comp name="--.HHN">
      <acc value="0.2384795751" flag="0"/>
      <vel value="0.0635269232" flag="0"/>
      <psa03 value="0.4217997344" flag="0"/>
      <psa10 value="0.0116141270" flag="0"/>
      <psa30 value="0.0014148944" flag="0"/>
    </comp>
    <comp name="--.HHE">
      <acc value="0.3046779911" flag="0"/>
      <vel value="0.0902509060" flag="0"/>
      <psa03 value="0.5846219485" flag="0"/>
      <psa10 value="0.0297911606" flag="0"/>
      <psa30 value="0.0021440748" flag="0"/>
    </comp>
  </station>
  <station code="SNT1" name="SNT1" netid="HA" insttype="30" lat="36.4159" lon="25.4282">
    <comp name="--.HHE">
      <acc value="0.1808961615" flag="0"/>
      <vel value="0.0673021616" flag="0"/>
      <psa03 value="0.3053178312" flag="0"/>
      <psa10 value="0.0432646871" flag="0"/>
      <psa30 value="0.0044515955" flag="0"/>
    </comp>
    <comp name="--.HHN">
      <acc value="0.1422206894" flag="0"/>
      <vel value="0.0458313966" flag="0"/>
      <psa03 value="0.2242449327" flag="0"/>
      <psa10 value="0.0479436054" flag="0"/>
      <psa30 value="0.0050021170" flag="0"/>
    </comp>
    <comp name="--.HHZ">
      <acc value="0.2006172876" flag="0"/>
      <vel value="0.0485558674" flag="0"/>
      <psa03 value="0.2721147168" flag="0"/>
      <psa10 value="0.0293206134" flag="0"/>
      <psa30 value="0.0025890584" flag="0"/>
    </comp>
  </station>
  <station code="NAX1" name="NAX1" netid="HI" insttype="CMG-5TD,ACCELEROMETER,GURALP" lat="37.1014" lon="25.3741">
    <comp name="--.HNE">
      <acc value="0.1727829460" flag="0"/>
      <vel value="0.0318344214" flag="0"/>
      <psa03 value="0.0789985410" flag="0"/>
      <psa10 value="0.0106902546" flag="0"/>
      <psa30 value="0.0015491646" flag="0"/>
    </comp>
    <comp name="--.HNN">
      <acc value="0.1847037182" flag="0"/>
      <vel value="0.0258277747" flag="0"/>
      <psa03 value="0.0771108903" flag="0"/>
      <psa10 value="0.0068228076" flag="0"/>
      <psa30 value="0.0021957568" flag="0"/>
    </comp>
    <comp name="--.HNZ">
      <acc value="0.0735474643" flag="0"/>
      <vel value="0.0144590790" flag="0"/>
      <psa03 value="0.0466352375" flag="0"/>
      <psa10 value="0.0103597504" flag="0"/>
      <psa30 value="0.0025720462" flag="0"/>
    </comp>
  </station>
  <station code="APE" name="APE" netid="HL" insttype="120" lat="37.0727" lon="25.523">
    <comp name="--.HHE">
      <acc value="0.2117045084" flag="0"/>
      <vel value="0.0362052011" flag="0"/>
      <psa03 value="0.1077399736" flag="0"/>
      <psa10 value="0.0097093546" flag="0"/>
      <psa30 value="0.0027011356" flag="0"/>
    </comp>
    <comp name="--.HHN">
      <acc value="0.2023196451" flag="0"/>
      <vel value="0.0437112696" flag="0"/>
      <psa03 value="0.1005360261" flag="0"/>
      <psa10 value="0.0080175771" flag="0"/>
      <psa30 value="0.0030541747" flag="0"/>
    </comp>
    <comp name="--.HHZ">
      <acc value="0.1053957571" flag="0"/>
      <vel value="0.0127369484" flag="0"/>
      <psa03 value="0.0604942911" flag="0"/>
      <psa10 value="0.0154528981" flag="0"/>
      <psa30 value="0.0029379144" flag="0"/>
    </comp>
  </station>
  <station code="MHLO" name="MHLO" netid="HL" insttype="20" lat="36.6898" lon="24.4017">
    <comp name="--.HHE">
      <acc value="0.1566109400" flag="0"/>
      <vel value="0.0645545254" flag="0"/>
      <psa03 value="0.4591462638" flag="0"/>
      <psa10 value="0.0562878820" flag="0"/>
      <psa30 value="0.0042137843" flag="0"/>
    </comp>
    <comp name="--.HHN">
      <acc value="0.1635225507" flag="0"/>
      <vel value="0.0793652550" flag="0"/>
      <psa03 value="0.5408635017" flag="0"/>
      <psa10 value="0.0605052781" flag="0"/>
      <psa30 value="0.0025297010" flag="0"/>
    </comp>
  </station>
  <station code="NISR" name="NISR" netid="HL" insttype="65535" lat="36.6106" lon="27.131">
    <comp name="--.HHZ">
      <acc value="0.0136453307" flag="0"/>
      <vel value="0.0087338131" flag="0"/>
      <psa03 value="0.0304466108" flag="0"/>
      <psa10 value="0.0115207708" flag="0"/>
      <psa30 value="0.0008203117" flag="0"/>
    </comp>
    <comp name="--.HHN">
      <acc value="0.0245574775" flag="0"/>
      <vel value="0.0141180915" flag="0"/>
      <psa03 value="0.0514914840" flag="0"/>
      <psa10 value="0.0153848085" flag="0"/>
      <psa30 value="0.0029103696" flag="0"/>
    </comp>
  </station>
  <station code="SAP3" name="SAP3" netid="HL" insttype="LE3D20_SMART24" lat="36.4356" lon="25.3454">
    <comp name="--.HHN">
      <acc value="0.7191073594" flag="0"/>
      <vel value="0.2556494645" flag="0"/>
      <psa03 value="1.2775896022" flag="0"/>
      <psa10 value="0.1627837934" flag="0"/>
      <psa30 value="0.0179802549" flag="0"/>
    </comp>
    <comp name="--.HHE">
      <acc value="0.9682878650" flag="0"/>
      <vel value="0.2438311618" flag="0"/>
      <psa03 value="1.5591459778" flag="0"/>
      <psa10 value="0.1522665620" flag="0"/>
      <psa30 value="0.0210454604" flag="0"/>
    </comp>
    <comp name="--.HHZ">
      <acc value="0.9172798242" flag="0"/>
      <vel value="0.1891428661" flag="0"/>
      <psa03 value="0.8734991772" flag="0"/>
      <psa10 value="0.0733068977" flag="0"/>
      <psa30 value="0.0116020858" flag="0"/>
    </comp>
  </station>
  <station code="THERA" name="THERA" netid="HL" insttype="120" lat="36.367" lon="25.4753">
    <comp name="--.HHN">
      <acc value="0.2399581516" flag="0"/>
      <vel value="0.0620186724" flag="0"/>
      <psa03 value="0.4092625567" flag="0"/>
      <psa10 value="0.0115457320" flag="0"/>
      <psa30 value="0.0013953308" flag="0"/>
    </comp>
    <comp name="--.HHE">
      <acc value="0.3097260945" flag="0"/>
      <vel value="0.0880337688" flag="0"/>
      <psa03 value="0.5677907494" flag="0"/>
      <psa10 value="0.0293284092" flag="0"/>
      <psa30 value="0.0021285596" flag="0"/>
    </comp>
    <comp name="--.HHZ">
      <acc value="0.2654855120" flag="0"/>
      <vel value="0.0567816533" flag="0"/>
      <psa03 value="0.2281974393" flag="0"/>
      <psa10 value="0.0175066859" flag="0"/>
      <psa30 value="0.0016255115" flag="0"/>
    </comp>
  </station>
  <station code="THRA" name="THRA" netid="HL" insttype="CMG-5" lat="36.415" lon="25.4324">
    <comp name="00.HNE">
      <acc value="0.7693358766" flag="0"/>
      <vel value="0.2178788543" flag="0"/>
      <psa03 value="1.2049612009" flag="0"/>
      <psa10 value="0.1134473101" flag="0"/>
      <psa30 value="0.0087874908" flag="0"/>
    </comp>
    <comp name="00.HNZ">
      <acc value="0.5430717957" flag="0"/>
      <vel value="0.1406441955" flag="0"/>
      <psa03 value="0.8786118357" flag="0"/>
      <psa10 value="0.0556638372" flag="0"/>
      <psa30 value="0.0047227615" flag="0"/>
    </comp>
    <comp name="00.HNN">
      <acc value="0.6487118702" flag="0"/>
      <vel value="0.2209251510" flag="0"/>
      <psa03 value="1.1658445351" flag="0"/>
      <psa10 value="0.1411306966" flag="0"/>
      <psa30 value="0.0102766996" flag="0"/>
    </comp>
  </station>
  <station code="CMBO" name="CMBO" netid="HT" insttype="120P," lat="36.4709" lon="25.4056">
    <comp name="--.HHE">
      <acc value="1.3185063915" flag="0"/>
      <vel value="0.3331186743" flag="0"/>
      <psa03 value="1.4317030885" flag="0"/>
      <psa10 value="0.1821585976" flag="0"/>
      <psa30 value="0.0159850961" flag="0"/>
    </comp>
    <comp name="--.HHZ">
      <acc value="1.0776997583" flag="0"/>
      <vel value="0.2769503581" flag="0"/>
      <psa03 value="1.3471326003" flag="0"/>
      <psa10 value="0.0907525356" flag="0"/>
      <psa30 value="0.0077858670" flag="0"/>
    </comp>
  </station>
</stationlist>
