<?xml version="1.0" encoding="UTF-8" standalone="yes"?>
<!DOCTYPE earthquake SYSTEM "stationlist.dtd">
<stationlist created="" xmlns="ch.ethz.sed.shakemap.usgs.xml">
  <station code="APE" name="APE" netid="GE" insttype="STS-2/N" lat="37.0727" lon="25.523">
    <comp name="--.HHN">
      <acc value="0.2337793022" flag="0"/>
      <vel value="0.0480530097" flag="0"/>
      <psa03 value="0.1033770393" flag="0"/>
      <psa10 value="0.0080806360" flag="0"/>
      <psa30 value="0.0030623281" flag="0"/>
    </comp>
    <comp name="--.HHZ">
      <acc value="0.1143934808" flag="0"/>
      <vel value="0.0133284546" flag="0"/>
      <psa03 value="0.0617293964" flag="0"/>
      <psa10 value="0.0156015974" flag="0"/>
      <psa30 value="0.0029426453" flag="0"/>
    </comp>
    <comp name="--.HHE">
      <acc value="0.2458236108" flag="0"/>
      <vel value="0.0385043620" flag="0"/>
      <psa03 value="0.1116889225" flag="0"/>
      <psa10 value="0.0098212772" flag="0"/>
      <psa30 value="0.0027104764" flag="0"/>
    </comp>
  </station>
  <station code="THERA" name="THERA" netid="GE" insttype="STS-2/N" lat="36.367" lon="25.4753">
    <comp name="--.HHE">
      <acc value="0.3046779906" flag="0"/>
      <vel value="0.0902509072" flag="0"/>
      <psa03 value="0.5846219485" flag="0"/>
      <psa10 value="0.0297911601" flag="0"/>
      <psa30 value="0.0021438793" flag="0"/>
    </comp>
    <comp name="--.HHZ">
      <acc value="0.2691562762" flag="0"/>
      <vel value="0.0582591866" flag="0"/>
      <psa03 value="0.2350549252" flag="0"/>
      <psa10 value="0.0177642919" flag="0"/>
      <psa30 value="0.0016257109" flag="0"/>
    </comp>
    <comp name="--.HHN">
      <acc value="0.2384795748" flag="0"/>
      <vel value="0.0635269215" flag="0"/>
      <psa03 value="0.4217997344" flag="0"/>
      <psa10 value="0.0116141275" flag="0"/>
      <psa30 value="0.0014148498" flag="0"/>
    </comp>
  </station>
</stationlist>
