<?xml version="1.0" encoding="UTF-8" standalone="yes"?>
<!DOCTYPE earthquake SYSTEM "stationlist.dtd">
<stationlist created="" xmlns="ch.ethz.sed.shakemap.usgs.xml">
  <station code="LMS2" name="LMS2" netid="HI" insttype="CMG-5TD,ACCELEROMETER,GURALP" lat="40.835" lon="21.1418">
    <comp name="--.HNZ">
      <acc value="0.1109398369" flag="0"/>
      <vel value="0.0488781518" flag="0"/>
      <psa03 value="0.3092151971" flag="0"/>
      <psa10 value="0.0218517924" flag="0"/>
      <psa30 value="0.0059547108" flag="0"/>
    </comp>
    <comp name="--.HNE">
      <acc value="0.1859938403" flag="0"/>
      <vel value="0.0560942250" flag="0"/>
      <psa03 value="0.4139885251" flag="0"/>
      <psa10 value="0.0430586930" flag="0"/>
      <psa30 value="0.0028780899" flag="0"/>
    </comp>
    <comp name="--.HNN">
      <acc value="0.2726025577" flag="0"/>
      <vel value="0.0982313706" flag="0"/>
      <psa03 value="0.2941883904" flag="0"/>
      <psa10 value="0.0312222381" flag="0"/>
      <psa30 value="0.0038891541" flag="0"/>
    </comp>
  </station>
  <station code="NEST" name="NEST" netid="HT" insttype="120P," lat="40.4147" lon="21.0489">
    <comp name="--.HHE">
      <acc value="0.0302285211" flag="0"/>
      <vel value="0.0304113023" flag="0"/>
      <psa03 value="0.0896752172" flag="0"/>
      <psa10 value="0.0339618099" flag="0"/>
      <psa30 value="0.0059555626" flag="0"/>
    </comp>
    <comp name="--.HHN">
      <acc value="0.0260127649" flag="0"/>
      <vel value="0.0246735552" flag="0"/>
      <psa03 value="0.0641987785" flag="0"/>
      <psa10 value="0.0413265646" flag="0"/>
      <psa30 value="0.0067107974" flag="0"/>
    </comp>
    <comp name="--.HHZ">
      <acc value="0.0270313546" flag="0"/>
      <vel value="0.0226197615" flag="0"/>
      <psa03 value="0.0617087835" flag="0"/>
      <psa10 value="0.0211991004" flag="0"/>
      <psa30 value="0.0067507452" flag="0"/>
    </comp>
  </station>
  <station code="PDG" name="PDG" netid="MN" insttype="" lat="42.4297" lon="19.2608">
    <comp name="--.HHE">
      <acc value="0.0360921537" flag="0"/>
      <vel value="0.0258220633" flag="0"/>
      <psa03 value="0.0938054387" flag="0"/>
      <psa10 value="0.0353776378" flag="0"/>
      <psa30 value="0.0017508349" flag="0"/>
    </comp>
    <comp name="--.HHN">
      <acc value="0.0470681575" flag="0"/>
      <vel value="0.0391214625" flag="0"/>
      <psa03 value="0.0954835679" flag="0"/>
      <psa10 value="0.0453373423" flag="0"/>
      <psa30 value="0.0022695064" flag="0"/>
    </comp>
    <comp name="--.HHZ">
      <acc value="0.0271511378" flag="0"/>
      <vel value="0.0308025575" flag="0"/>
      <psa03 value="0.0547295263" flag="0"/>
      <psa10 value="0.0634696483" flag="0"/>
      <psa30 value="0.0024143859" flag="0"/>
    </comp>
  </station>
</stationlist>
