<?xml version="1.0" encoding="UTF-8" standalone="yes"?>
<!DOCTYPE earthquake SYSTEM "stationlist.dtd">
<stationlist created="" xmlns="ch.ethz.sed.shakemap.usgs.xml">
  <station code="DYBB" name="DYBB" netid="KO" insttype="CMG-3T" lat="37.9532" lon="40.1393">
    <comp name="--.HHZ">
      <acc value="0.0099921129" flag="0"/>
      <vel value="0.0139189378" flag="0"/>
      <psa03 value="0.0223076293" flag="0"/>
      <psa10 value="0.0199158550" flag="0"/>
      <psa30 value="0.0030048321" flag="0"/>
    </comp>
    <comp name="--.HHE">
      <acc value="0.0136183829" flag="0"/>
      <vel value="0.0170691328" flag="0"/>
      <psa03 value="0.0321202101" flag="0"/>
      <psa10 value="0.0241530479" flag="0"/>
      <psa30 value="0.0053079377" flag="0"/>
    </comp>
    <comp name="--.HHN">
      <acc value="0.0201810256" flag="0"/>
      <vel value="0.0215675754" flag="0"/>
      <psa03 value="0.0472761827" flag="0"/>
      <psa10 value="0.0306758888" flag="0"/>
      <psa30 value="0.0040685188" flag="0"/>
    </comp>
  </station>
  <station code="KARO" name="KARO" netid="KO" insttype="CMG-3T" lat="39.3089" lon="41.0493">
    <comp name="--.HHE">
      <acc value="0.0187878248" flag="0"/>
      <vel value="0.0198601990" flag="0"/>
      <psa03 value="0.0439115244" flag="0"/>
      <psa10 value="0.0329584848" flag="0"/>
      <psa30 value="0.0031182650" flag="0"/>
    </comp>
    <comp name="--.HHZ">
      <acc value="0.0084764594" flag="0"/>
      <vel value="0.0070381011" flag="0"/>
      <psa03 value="0.0194320397" flag="0"/>
      <psa10 value="0.0126970613" flag="0"/>
      <psa30 value="0.0029964556" flag="0"/>
    </comp>
    <comp name="--.HHN">
      <acc value="0.0174063406" flag="0"/>
      <vel value="0.0206711371" flag="0"/>
      <psa03 value="0.0488664950" flag="0"/>
      <psa10 value="0.0340757359" flag="0"/>
      <psa30 value="0.0035281057" flag="0"/>
    </comp>
  </station>
  <station code="MAZI" name="MAZI" netid="KO" insttype="CMG-3T" lat="37.4593" lon="40.4465">
    <comp name="--.HHN">
      <acc value="0.0697825143" flag="0"/>
      <vel value="0.0347250580" flag="0"/>
      <psa03 value="0.2028106292" flag="0"/>
      <psa10 value="0.0462643075" flag="0"/>
      <psa30 value="0.0030920594" flag="0"/>
    </comp>
    <comp name="--.HHE">
      <acc value="0.0631628782" flag="0"/>
      <vel value="0.0421247522" flag="0"/>
      <psa03 value="0.2079613870" flag="0"/>
      <psa10 value="0.0311442991" flag="0"/>
      <psa30 value="0.0031316397" flag="0"/>
    </comp>
    <comp name="--.HHZ">
      <acc value="0.0635699714" flag="0"/>
      <vel value="0.0375358176" flag="0"/>
      <psa03 value="0.1946423342" flag="0"/>
      <psa10 value="0.0384318918" flag="0"/>
      <psa30 value="0.0014602312" flag="0"/>
    </comp>
  </station>
  <station code="SVAN" name="SVAN" netid="KO" insttype="CMG-3T" lat="38.1511" lon="41.1984">
    <comp name="--.HHE">
      <acc value="0.0128962848" flag="0"/>
      <vel value="0.0077670504" flag="0"/>
      <psa03 value="0.0230485455" flag="0"/>
      <psa10 value="0.0204033613" flag="0"/>
      <psa30 value="0.0032497697" flag="0"/>
    </comp>
    <comp name="--.HHN">
      <acc value="0.0091671227" flag="0"/>
      <vel value="0.0109282712" flag="0"/>
      <psa03 value="0.0164067072" flag="0"/>
      <psa10 value="0.0164577189" flag="0"/>
      <psa30 value="0.0029841008" flag="0"/>
    </comp>
    <comp name="--.HHZ">
      <acc value="0.0089839009" flag="0"/>
      <vel value="0.0089394466" flag="0"/>
      <psa03 value="0.0159717876" flag="0"/>
      <psa10 value="0.0092422033" flag="0"/>
      <psa30 value="0.0063349677" flag="0"/>
    </comp>
  </station>
  <station code="SVRC" name="SVRC" netid="KO" insttype="CMG-3T" lat="38.3775" lon="39.306">
    <comp name="--.HHZ">
      <acc value="0.0130836294" flag="0"/>
      <vel value="0.0125150175" flag="0"/>
      <psa03 value="0.0383704598" flag="0"/>
      <psa10 value="0.0210762871" flag="0"/>
      <psa30 value="0.0055972958" flag="0"/>
    </comp>
    <comp name="--.HHE">
      <acc value="0.0257629202" flag="0"/>
      <vel value="0.0156329314" flag="0"/>
      <psa03 value="0.0983078071" flag="0"/>
      <psa10 value="0.0178125151" flag="0"/>
      <psa30 value="0.0032028189" flag="0"/>
    </comp>
    <comp name="--.HHN">
      <acc value="0.0175448129" flag="0"/>
      <vel value="0.0185445780" flag="0"/>
      <psa03 value="0.0403461149" flag="0"/>
      <psa10 value="0.0215614667" flag="0"/>
      <psa30 value="0.0068720225" flag="0"/>
    </comp>
  </station>
  <station code="VRTB" name="VRTB" netid="KO" insttype="CMG-3ESPC" lat="39.1603" lon="41.4558">
    <comp name="--.HHN">
      <acc value="0.0087812747" flag="0"/>
      <vel value="0.0186802211" flag="0"/>
      <psa03 value="0.0130987688" flag="0"/>
      <psa10 value="0.0303434628" flag="0"/>
      <psa30 value="0.0086268972" flag="0"/>
    </comp>
    <comp name="--.HHE">
      <acc value="0.0036941770" flag="0"/>
      <vel value="0.0059415866" flag="0"/>
      <psa03 value="0.0042937989" flag="0"/>
      <psa10 value="0.0132193606" flag="0"/>
      <psa30 value="0.0019192370" flag="0"/>
    </comp>
    <comp name="--.HHZ">
      <acc value="0.0066408548" flag="0"/>
      <vel value="0.0109317005" flag="0"/>
      <psa03 value="0.0119839144" flag="0"/>
      <psa10 value="0.0167985019" flag="0"/>
      <psa30 value="0.0036646888" flag="0"/>
    </comp>
  </station>
</stationlist>
