<?xml version="1.0" encoding="UTF-8" standalone="yes"?>
<!DOCTYPE earthquake SYSTEM "stationlist.dtd">
<stationlist created="" xmlns="ch.ethz.sed.shakemap.usgs.xml">
  <station code="DYBB" name="DYBB" netid="KO" insttype="CMG-3T" lat="37.9532" lon="40.1393">
    <comp name="--.HHE">
      <acc value="0.0136183834" flag="0"/>
      <vel value="0.0170691331" flag="0"/>
      <psa03 value="0.0321202101" flag="0"/>
      <psa10 value="0.0241530479" flag="0"/>
      <psa30 value="0.0053079337" flag="0"/>
    </comp>
    <comp name="--.HHZ">
      <acc value="0.0099921129" flag="0"/>
      <vel value="0.0139189377" flag="0"/>
      <psa03 value="0.0223076293" flag="0"/>
      <psa10 value="0.0199158550" flag="0"/>
      <psa30 value="0.0030048348" flag="0"/>
    </comp>
    <comp name="--.HHN">
      <acc value="0.0201810253" flag="0"/>
      <vel value="0.0215675746" flag="0"/>
      <psa03 value="0.0472761827" flag="0"/>
      <psa10 value="0.0306758889" flag="0"/>
      <psa30 value="0.0040684972" flag="0"/>
    </comp>
  </station>
  <station code="ERZN" name="ERZN" netid="KO" insttype="CMG-3ESP" lat="39.5867" lon="39.722">
    <comp name="--.HHZ">
      <acc value="0.0077626831" flag="0"/>
      <vel value="0.0054905974" flag="0"/>
      <psa03 value="0.0249130313" flag="0"/>
      <psa10 value="0.0078674073" flag="0"/>
      <psa30 value="0.0012883427" flag="0"/>
    </comp>
    <comp name="--.HHE">
      <acc value="0.0174549174" flag="0"/>
      <vel value="0.0104089012" flag="0"/>
      <psa03 value="0.0387054795" flag="0"/>
      <psa10 value="0.0147295170" flag="0"/>
      <psa30 value="0.0028302986" flag="0"/>
    </comp>
    <comp name="--.HHN">
      <acc value="0.0160341556" flag="0"/>
      <vel value="0.0076094313" flag="0"/>
      <psa03 value="0.0498290497" flag="0"/>
      <psa10 value="0.0098777618" flag="0"/>
      <psa30 value="0.0016391535" flag="0"/>
    </comp>
  </station>
  <station code="KARO" name="KARO" netid="KO" insttype="CMG-3T" lat="39.3089" lon="41.0493">
    <comp name="--.HHE">
      <acc value="0.0187878248" flag="0"/>
      <vel value="0.0198601998" flag="0"/>
      <psa03 value="0.0439115244" flag="0"/>
      <psa10 value="0.0329584848" flag="0"/>
      <psa30 value="0.0031146855" flag="0"/>
    </comp>
    <comp name="--.HHZ">
      <acc value="0.0084764606" flag="0"/>
      <vel value="0.0070381007" flag="0"/>
      <psa03 value="0.0194320397" flag="0"/>
      <psa10 value="0.0126970613" flag="0"/>
      <psa30 value="0.0027423539" flag="0"/>
    </comp>
    <comp name="--.HHN">
      <acc value="0.0174063416" flag="0"/>
      <vel value="0.0206711355" flag="0"/>
      <psa03 value="0.0488664950" flag="0"/>
      <psa10 value="0.0340757360" flag="0"/>
      <psa30 value="0.0034299082" flag="0"/>
    </comp>
  </station>
  <station code="SVAN" name="SVAN" netid="KO" insttype="CMG-3T" lat="38.1511" lon="41.1984">
    <comp name="--.HHE">
      <acc value="0.0128962850" flag="0"/>
      <vel value="0.0077670502" flag="0"/>
      <psa03 value="0.0230485455" flag="0"/>
      <psa10 value="0.0204033613" flag="0"/>
      <psa30 value="0.0032497683" flag="0"/>
    </comp>
    <comp name="--.HHZ">
      <acc value="0.0089839006" flag="0"/>
      <vel value="0.0089394464" flag="0"/>
      <psa03 value="0.0159717876" flag="0"/>
      <psa10 value="0.0092422033" flag="0"/>
      <psa30 value="0.0063349675" flag="0"/>
    </comp>
    <comp name="--.HHN">
      <acc value="0.0091671230" flag="0"/>
      <vel value="0.0109282710" flag="0"/>
      <psa03 value="0.0164067072" flag="0"/>
      <psa10 value="0.0164577189" flag="0"/>
      <psa30 value="0.0029841012" flag="0"/>
    </comp>
  </station>
  <station code="SVRC" name="SVRC" netid="KO" insttype="CMG-3T" lat="38.3775" lon="39.306">
    <comp name="--.HHE">
      <acc value="0.0257629201" flag="0"/>
      <vel value="0.0156329317" flag="0"/>
      <psa03 value="0.0983078071" flag="0"/>
      <psa10 value="0.0178125151" flag="0"/>
      <psa30 value="0.0032028473" flag="0"/>
    </comp>
    <comp name="--.HHN">
      <acc value="0.0175448143" flag="0"/>
      <vel value="0.0185445781" flag="0"/>
      <psa03 value="0.0403461149" flag="0"/>
      <psa10 value="0.0215614668" flag="0"/>
      <psa30 value="0.0068720269" flag="0"/>
    </comp>
    <comp name="--.HHZ">
      <acc value="0.0130836298" flag="0"/>
      <vel value="0.0125150174" flag="0"/>
      <psa03 value="0.0383704598" flag="0"/>
      <psa10 value="0.0210762871" flag="0"/>
      <psa30 value="0.0055972917" flag="0"/>
    </comp>
  </station>
</stationlist>
