<?xml version="1.0" encoding="UTF-8" standalone="yes"?>
<!DOCTYPE earthquake SYSTEM "stationlist.dtd">
<stationlist created="" xmlns="ch.ethz.sed.shakemap.usgs.xml">
  <station code="DYBB" name="DYBB" netid="KO" insttype="CMG-3T" lat="37.9532" lon="40.1393">
    <comp name="--.HHE">
      <acc value="0.0136183835" flag="0"/>
      <vel value="0.0170691337" flag="0"/>
      <psa03 value="0.0321202101" flag="0"/>
      <psa10 value="0.0241530479" flag="0"/>
      <psa30 value="0.0053079300" flag="0"/>
    </comp>
    <comp name="--.HHN">
      <acc value="0.0201810254" flag="0"/>
      <vel value="0.0215675743" flag="0"/>
      <psa03 value="0.0472761827" flag="0"/>
      <psa10 value="0.0306758889" flag="0"/>
      <psa30 value="0.0040684815" flag="0"/>
    </comp>
    <comp name="--.HHZ">
      <acc value="0.0099921128" flag="0"/>
      <vel value="0.0139189378" flag="0"/>
      <psa03 value="0.0223076293" flag="0"/>
      <psa10 value="0.0199158550" flag="0"/>
      <psa30 value="0.0030048395" flag="0"/>
    </comp>
  </station>
  <station code="KARO" name="KARO" netid="KO" insttype="CMG-3T" lat="39.3089" lon="41.0493">
    <comp name="--.HHE">
      <acc value="0.0187878241" flag="0"/>
      <vel value="0.0198601989" flag="0"/>
      <psa03 value="0.0439115244" flag="0"/>
      <psa10 value="0.0329584848" flag="0"/>
      <psa30 value="0.0031170798" flag="0"/>
    </comp>
    <comp name="--.HHN">
      <acc value="0.0174063415" flag="0"/>
      <vel value="0.0206711359" flag="0"/>
      <psa03 value="0.0488664950" flag="0"/>
      <psa10 value="0.0340757360" flag="0"/>
      <psa30 value="0.0034308473" flag="0"/>
    </comp>
    <comp name="--.HHZ">
      <acc value="0.0084764603" flag="0"/>
      <vel value="0.0070381008" flag="0"/>
      <psa03 value="0.0194320397" flag="0"/>
      <psa10 value="0.0126970613" flag="0"/>
      <psa30 value="0.0027462878" flag="0"/>
    </comp>
  </station>
  <station code="SVAN" name="SVAN" netid="KO" insttype="CMG-3T" lat="38.1511" lon="41.1984">
    <comp name="--.HHE">
      <acc value="0.0128962850" flag="0"/>
      <vel value="0.0077670503" flag="0"/>
      <psa03 value="0.0230485455" flag="0"/>
      <psa10 value="0.0204033613" flag="0"/>
      <psa30 value="0.0032497680" flag="0"/>
    </comp>
    <comp name="--.HHN">
      <acc value="0.0091671230" flag="0"/>
      <vel value="0.0109282710" flag="0"/>
      <psa03 value="0.0164067072" flag="0"/>
      <psa10 value="0.0164577189" flag="0"/>
      <psa30 value="0.0029841014" flag="0"/>
    </comp>
    <comp name="--.HHZ">
      <acc value="0.0089839006" flag="0"/>
      <vel value="0.0089394467" flag="0"/>
      <psa03 value="0.0159717876" flag="0"/>
      <psa10 value="0.0092422033" flag="0"/>
      <psa30 value="0.0063349677" flag="0"/>
    </comp>
  </station>
  <station code="SVRC" name="SVRC" netid="KO" insttype="CMG-3T" lat="38.3775" lon="39.306">
    <comp name="--.HHE">
      <acc value="0.0257629201" flag="0"/>
      <vel value="0.0156329317" flag="0"/>
      <psa03 value="0.0983078071" flag="0"/>
      <psa10 value="0.0178125151" flag="0"/>
      <psa30 value="0.0032028523" flag="0"/>
    </comp>
    <comp name="--.HHZ">
      <acc value="0.0130836298" flag="0"/>
      <vel value="0.0125150175" flag="0"/>
      <psa03 value="0.0383704598" flag="0"/>
      <psa10 value="0.0210762871" flag="0"/>
      <psa30 value="0.0055972946" flag="0"/>
    </comp>
    <comp name="--.HHN">
      <acc value="0.0175448143" flag="0"/>
      <vel value="0.0185445780" flag="0"/>
      <psa03 value="0.0403461149" flag="0"/>
      <psa10 value="0.0215614667" flag="0"/>
      <psa30 value="0.0068720266" flag="0"/>
    </comp>
  </station>
</stationlist>
