<?xml version="1.0" encoding="UTF-8" standalone="yes"?>
<!DOCTYPE earthquake SYSTEM "stationlist.dtd">
<stationlist created="" xmlns="ch.ethz.sed.shakemap.usgs.xml">
  <station code="GURO" name="GURO" netid="KO" insttype="120s," lat="38.5509" lon="42.0322">
    <comp name="--.HHE">
      <acc value="0.0024831306" flag="0"/>
      <vel value="0.0015973454" flag="0"/>
      <psa03 value="0.0060978931" flag="0"/>
      <psa10 value="0.0012692599" flag="0"/>
      <psa30 value="0.0000650905" flag="0"/>
    </comp>
    <comp name="--.HHZ">
      <acc value="0.0014068452" flag="0"/>
      <vel value="0.0007035764" flag="0"/>
      <psa03 value="0.0027534829" flag="0"/>
      <psa10 value="0.0010829065" flag="0"/>
      <psa30 value="0.0000624039" flag="0"/>
    </comp>
    <comp name="--.HHN">
      <acc value="0.0021268847" flag="0"/>
      <vel value="0.0015799221" flag="0"/>
      <psa03 value="0.0037875260" flag="0"/>
      <psa10 value="0.0015696773" flag="0"/>
      <psa30 value="0.0001025419" flag="0"/>
    </comp>
  </station>
</stationlist>
