<?xml version="1.0" encoding="UTF-8" standalone="yes"?>
<!DOCTYPE earthquake SYSTEM "stationlist.dtd">
<stationlist created="" xmlns="ch.ethz.sed.shakemap.usgs.xml">
  <station code="SARI" name="SARI" netid="KO" insttype="CMG-3T" lat="38.4072" lon="36.4181">
    <comp name="--.HHE">
      <acc value="0.1274928739" flag="0"/>
      <vel value="0.0485918990" flag="0"/>
      <psa03 value="0.1634066670" flag="0"/>
      <psa10 value="0.0363791036" flag="0"/>
      <psa30 value="0.0020051968" flag="0"/>
    </comp>
    <comp name="--.HHN">
      <acc value="0.1435088892" flag="0"/>
      <vel value="0.0443722517" flag="0"/>
      <psa03 value="0.1365072728" flag="0"/>
      <psa10 value="0.0476318095" flag="0"/>
      <psa30 value="0.0028651917" flag="0"/>
    </comp>
    <comp name="--.HHZ">
      <acc value="0.0830111098" flag="0"/>
      <vel value="0.0280892220" flag="0"/>
      <psa03 value="0.1316999622" flag="0"/>
      <psa10 value="0.0298069472" flag="0"/>
      <psa30 value="0.0019838828" flag="0"/>
    </comp>
  </station>
  <station code="ANDN" name="ANDN" netid="TU" insttype="T" lat="37.58" lon="36.3452">
    <comp name="--.HHZ">
      <acc value="0.1112853771" flag="0"/>
      <vel value="0.0504611432" flag="0"/>
      <psa03 value="0.1965266779" flag="0"/>
      <psa10 value="0.0313036256" flag="0"/>
      <psa30 value="0.0012722507" flag="0"/>
    </comp>
    <comp name="--.HHN">
      <acc value="0.3223606166" flag="0"/>
      <vel value="0.0935917580" flag="0"/>
      <psa03 value="0.5708618732" flag="0"/>
      <psa10 value="0.0405948455" flag="0"/>
      <psa30 value="0.0026528538" flag="0"/>
    </comp>
    <comp name="--.HHE">
      <acc value="0.2062404954" flag="0"/>
      <vel value="0.0653450847" flag="0"/>
      <psa03 value="0.5381104788" flag="0"/>
      <psa10 value="0.0453396349" flag="0"/>
      <psa30 value="0.0029322821" flag="0"/>
    </comp>
  </station>
</stationlist>
