<?xml version="1.0" encoding="UTF-8" standalone="yes"?>
<!DOCTYPE earthquake SYSTEM "stationlist.dtd">
<stationlist created="" xmlns="ch.ethz.sed.shakemap.usgs.xml">
  <station code="TAHT" name="TAHT" netid="KO" insttype="CMG-3ESPC" lat="36.3755" lon="36.1855">
    <comp name="--.HHE">
      <acc value="0.4526989189" flag="0"/>
      <vel value="0.0679848199" flag="0"/>
      <psa03 value="0.3008231260" flag="0"/>
      <psa10 value="0.0116831607" flag="0"/>
      <psa30 value="0.0010891241" flag="0"/>
    </comp>
    <comp name="--.HHN">
      <acc value="0.7122918629" flag="0"/>
      <vel value="0.1215416415" flag="0"/>
      <psa03 value="0.2732784606" flag="0"/>
      <psa10 value="0.0149478533" flag="0"/>
      <psa30 value="0.0010789274" flag="0"/>
    </comp>
    <comp name="--.HHZ">
      <acc value="0.4647525014" flag="0"/>
      <vel value="0.0638984316" flag="0"/>
      <psa03 value="0.1633850549" flag="0"/>
      <psa10 value="0.0079640757" flag="0"/>
      <psa30 value="0.0008959007" flag="0"/>
    </comp>
  </station>
</stationlist>
