<?xml version="1.0" encoding="UTF-8" standalone="yes"?>
<!DOCTYPE earthquake SYSTEM "stationlist.dtd">
<stationlist created="" xmlns="ch.ethz.sed.shakemap.usgs.xml">
  <station code="CUKT" name="CUKT" netid="KO" insttype="CMG-3ESP" commtype="DIG" lat="37.2473" lon="43.6077">
    <comp name="--.HHE">
      <acc value="0.0493502524" flag="0"/>
      <vel value="0.0355847938" flag="0"/>
      <psa03 value="0.1130991426" flag="0"/>
      <psa10 value="0.0347860100" flag="0"/>
      <psa30 value="0.0019819711" flag="0"/>
    </comp>
    <comp name="--.HHN">
      <acc value="0.0299755650" flag="0"/>
      <vel value="0.0262076396" flag="0"/>
      <psa03 value="0.0824383773" flag="0"/>
      <psa10 value="0.0523750078" flag="0"/>
      <psa30 value="0.0020533827" flag="0"/>
    </comp>
    <comp name="--.HHZ">
      <acc value="0.0276411590" flag="0"/>
      <vel value="0.0175541446" flag="0"/>
      <psa03 value="0.0883843640" flag="0"/>
      <psa10 value="0.0152818239" flag="0"/>
      <psa30 value="0.0008870517" flag="0"/>
    </comp>
  </station>
</stationlist>
