<?xml version="1.0" encoding="UTF-8" standalone="yes"?>
<!DOCTYPE earthquake SYSTEM "stationlist.dtd">
<stationlist created="" xmlns="ch.ethz.sed.shakemap.usgs.xml">
  <station code="ITM" name="ITM" netid="HL" insttype="DR24" lat="37.1787" lon="21.9252">
    <comp name="--.HHN">
      <acc value="0.0045281637" flag="0"/>
      <vel value="0.0030305576" flag="0"/>
      <psa03 value="0.0111027090" flag="0"/>
      <psa10 value="0.0030290176" flag="0"/>
      <psa30 value="0.0006558240" flag="0"/>
    </comp>
    <comp name="--.HHZ">
      <acc value="0.0034457945" flag="0"/>
      <vel value="0.0024585103" flag="0"/>
      <psa03 value="0.0075363883" flag="0"/>
      <psa10 value="0.0053927979" flag="0"/>
      <psa30 value="0.0004739508" flag="0"/>
    </comp>
    <comp name="--.HHE">
      <acc value="0.0039110121" flag="0"/>
      <vel value="0.0023492406" flag="0"/>
      <psa03 value="0.0119802708" flag="0"/>
      <psa10 value="0.0042584417" flag="0"/>
      <psa30 value="0.0008024142" flag="0"/>
    </comp>
  </station>
  <station code="AMT" name="AMT" netid="HP" insttype="CMG-3T," lat="37.5324" lon="21.7089">
    <comp name="00.HHE">
      <acc value="0.0112266885" flag="0"/>
      <vel value="0.0119843738" flag="0"/>
      <psa03 value="0.0409564000" flag="0"/>
      <psa10 value="0.0284261685" flag="0"/>
      <psa30 value="0.0009084598" flag="0"/>
    </comp>
    <comp name="00.HHN">
      <acc value="0.0146317462" flag="0"/>
      <vel value="0.0126630941" flag="0"/>
      <psa03 value="0.0287773128" flag="0"/>
      <psa10 value="0.0133620930" flag="0"/>
      <psa30 value="0.0008187812" flag="0"/>
    </comp>
    <comp name="00.HHZ">
      <acc value="0.0091461693" flag="0"/>
      <vel value="0.0070929432" flag="0"/>
      <psa03 value="0.0265312035" flag="0"/>
      <psa10 value="0.0091452463" flag="0"/>
      <psa30 value="0.0006408378" flag="0"/>
    </comp>
  </station>
  <station code="PYL" name="PYL" netid="HP" insttype="120s" lat="36.8955" lon="21.742">
    <comp name="--.HHZ">
      <acc value="0.0037563780" flag="0"/>
      <vel value="0.0024591855" flag="0"/>
      <psa03 value="0.0092228561" flag="0"/>
      <psa10 value="0.0037320802" flag="0"/>
      <psa30 value="0.0003579893" flag="0"/>
    </comp>
    <comp name="--.HHE">
      <acc value="0.0087403169" flag="0"/>
      <vel value="0.0035824775" flag="0"/>
      <psa03 value="0.0193629613" flag="0"/>
      <psa10 value="0.0052369606" flag="0"/>
      <psa30 value="0.0004284510" flag="0"/>
    </comp>
    <comp name="--.HHN">
      <acc value="0.0076301643" flag="0"/>
      <vel value="0.0094371497" flag="0"/>
      <psa03 value="0.0132248721" flag="0"/>
      <psa10 value="0.0105047680" flag="0"/>
      <psa30 value="0.0008744271" flag="0"/>
    </comp>
  </station>
  <station code="STRF" name="STRF" netid="HT" insttype="30s-100Hz," lat="37.2497" lon="21.013">
    <comp name="--.HHE">
      <acc value="0.0753906850" flag="0"/>
      <vel value="0.0424333220" flag="0"/>
      <psa03 value="0.1772859388" flag="0"/>
      <psa10 value="0.0405664414" flag="0"/>
      <psa30 value="0.0083096828" flag="0"/>
    </comp>
    <comp name="--.HHN">
      <acc value="0.0812732708" flag="0"/>
      <vel value="0.0463947781" flag="0"/>
      <psa03 value="0.2803630153" flag="0"/>
      <psa10 value="0.0521684232" flag="0"/>
      <psa30 value="0.0115680557" flag="0"/>
    </comp>
    <comp name="--.HHZ">
      <acc value="0.0516419645" flag="0"/>
      <vel value="0.0315076261" flag="0"/>
      <psa03 value="0.1416339337" flag="0"/>
      <psa10 value="0.0350675690" flag="0"/>
      <psa30 value="0.0057712003" flag="0"/>
    </comp>
  </station>
</stationlist>
