<stationlist created="1670160627">
	<station code="KRI1" name="KRI1" netid="HI" source="ITSAK Strong Motion Network" insttype="" lat="37.6621" lon="20.8172">
		<comp name=".HNE" depth="0.0">
			<acc value="0.0345382900316" flag="0"/>
			<vel value="0.0213405584412" flag="0"/>
			<psa03 value="0.100761237437" flag="0"/>
			<psa10 value="0.008902312547" flag="0"/>
			<psa30 value="0.000782966711454" flag="0"/>
		</comp>
		<comp name=".HNN" depth="0.0">
			<acc value="0.0220125022207" flag="0"/>
			<vel value="0.0167858014544" flag="0"/>
			<psa03 value="0.0672755035467" flag="0"/>
			<psa10 value="0.0162531904441" flag="0"/>
			<psa30 value="0.00111812636205" flag="0"/>
		</comp>
		<comp name=".HNZ" depth="0.0">
			<acc value="0.0142905525777" flag="0"/>
			<vel value="0.00667311285126" flag="0"/>
			<psa03 value="0.0505366603056" flag="0"/>
			<psa10 value="0.00445145160557" flag="0"/>
			<psa30 value="0.000650424076987" flag="0"/>
		</comp>
	</station>
	<station code="MSL1" name="MSL1" netid="HI" source="ITSAK Strong Motion Network" insttype="" lat="38.3727" lon="21.4243">
		<comp name=".HNE" depth="0.0">
			<acc value="0.00457477938548" flag="0"/>
			<vel value="0.0059816338605" flag="0"/>
			<psa03 value="0.0119942463829" flag="0"/>
			<psa10 value="0.00992555939459" flag="0"/>
			<psa30 value="0.00125416776996" flag="0"/>
		</comp>
		<comp name=".HNN" depth="0.0">
			<acc value="0.00577074505114" flag="0"/>
			<vel value="0.00660263536442" flag="0"/>
			<psa03 value="0.011967097449" flag="0"/>
			<psa10 value="0.0121625741483" flag="0"/>
			<psa30 value="0.0010534008243" flag="0"/>
		</comp>
		<comp name=".HNZ" depth="0.0">
			<acc value="0.00195161268883" flag="0"/>
			<vel value="0.0024320247451" flag="0"/>
			<psa03 value="0.00503721520122" flag="0"/>
			<psa10 value="0.00577801948417" flag="0"/>
			<psa30 value="0.000325845648175" flag="0"/>
		</comp>
	</station>
	<station code="VAS2" name="VAS2" netid="HI" source="ITSAK Strong Motion Network" insttype="" lat="38.630558" lon="20.608081">
		<comp name=".HNE" depth="0.0">
			<acc value="0.00566648398706" flag="0"/>
			<vel value="0.00625883222436" flag="0"/>
			<psa03 value="0.0137197773575" flag="0"/>
			<psa10 value="0.0177932862179" flag="0"/>
			<psa30 value="0.000704103570491" flag="0"/>
		</comp>
		<comp name=".HNN" depth="0.0">
			<acc value="0.00871440479177" flag="0"/>
			<vel value="0.00910849815219" flag="0"/>
			<psa03 value="0.0206696687433" flag="0"/>
			<psa10 value="0.0188826040048" flag="0"/>
			<psa30 value="0.000839877356504" flag="0"/>
		</comp>
		<comp name=".HNZ" depth="0.0">
			<acc value="0.00541935488194" flag="0"/>
			<vel value="0.00459870482869" flag="0"/>
			<psa03 value="0.0113496151375" flag="0"/>
			<psa10 value="0.005374782928" flag="0"/>
			<psa30 value="0.00046738476403" flag="0"/>
		</comp>
	</station>
	<station code="ITM" name="ITM" netid="HL" source="National Observatory of Athens Seismic Network" insttype="" lat="37.17872" lon="21.92522">
		<comp name=".HNE" depth="0.0">
			<acc value="0.00377354247253" flag="0"/>
			<vel value="0.00227647139233" flag="0"/>
			<psa03 value="0.0117901833855" flag="0"/>
			<psa10 value="0.00420344673897" flag="0"/>
			<psa30 value="0.000932723350845" flag="0"/>
		</comp>
		<comp name=".HNN" depth="0.0">
			<acc value="0.00442730664716" flag="0"/>
			<vel value="0.00286479258559" flag="0"/>
			<psa03 value="0.0108438583263" flag="0"/>
			<psa10 value="0.0029397067724" flag="0"/>
			<psa30 value="0.000933140045114" flag="0"/>
		</comp>
		<comp name=".HNZ" depth="0.0">
			<acc value="0.00329454045536" flag="0"/>
			<vel value="0.00231661505147" flag="0"/>
			<psa03 value="0.00698349777869" flag="0"/>
			<psa10 value="0.00499459117965" flag="0"/>
			<psa30 value="0.000495297915222" flag="0"/>
		</comp>
	</station>
	<station code="FSK" name="FSK" netid="HP" source="University of Patras, Seismological Laboratory (PSLNET)" insttype="" lat="38.4593" lon="20.5623">
		<comp name=".HNE" depth="0.0">
			<acc value="0.00258088664453" flag="0"/>
			<vel value="0.00181405203661" flag="0"/>
			<psa03 value="0.00635437927978" flag="0"/>
			<psa10 value="0.00244234882487" flag="0"/>
			<psa30 value="0.000651631552809" flag="0"/>
		</comp>
		<comp name=".HNN" depth="0.0">
			<acc value="0.00134176849353" flag="0"/>
			<vel value="0.00151620300904" flag="0"/>
			<psa03 value="0.00312008820095" flag="0"/>
			<psa10 value="0.00205964745716" flag="0"/>
			<psa30 value="0.000316740357494" flag="0"/>
		</comp>
		<comp name=".HNZ" depth="0.0">
			<acc value="0.00126052397377" flag="0"/>
			<vel value="0.000970243868078" flag="0"/>
			<psa03 value="0.00340672860874" flag="0"/>
			<psa10 value="0.00193910521402" flag="0"/>
			<psa30 value="0.000225571818026" flag="0"/>
		</comp>
	</station>
	<station code="PYL" name="PYL" netid="HP" source="University of Patras, Seismological Laboratory (PSLNET)" insttype="" lat="36.8955" lon="21.742">
		<comp name=".HNE" depth="0.0">
			<acc value="0.00888346956474" flag="0"/>
			<vel value="0.00352872312997" flag="0"/>
			<psa03 value="0.0196139555783" flag="0"/>
			<psa10 value="0.0049629798668" flag="0"/>
			<psa30 value="0.000512489939527" flag="0"/>
		</comp>
		<comp name=".HNN" depth="0.0">
			<acc value="0.00738077969917" flag="0"/>
			<vel value="0.00955723652136" flag="0"/>
			<psa03 value="0.012960579929" flag="0"/>
			<psa10 value="0.0105953800169" flag="0"/>
			<psa30 value="0.000927987724633" flag="0"/>
		</comp>
		<comp name=".HNZ" depth="0.0">
			<acc value="0.0044042226445" flag="0"/>
			<vel value="0.00289401254659" flag="0"/>
			<psa03 value="0.00952997636623" flag="0"/>
			<psa10 value="0.00379033695059" flag="0"/>
			<psa30 value="0.000560420250091" flag="0"/>
		</comp>
	</station>
	<station code="SERG" name="SERG" netid="HP" source="University of Patras, Seismological Laboratory (PSLNET)" insttype="" lat="38.4133" lon="22.0566">
		<comp name=".HNE" depth="0.0">
			<acc value="0.0015511035608" flag="0"/>
			<vel value="0.0011004115449" flag="0"/>
			<psa03 value="0.00425900153899" flag="0"/>
			<psa10 value="0.0022185522807" flag="0"/>
			<psa30 value="0.00016332563723" flag="0"/>
		</comp>
		<comp name=".HNN" depth="0.0">
			<acc value="0.00177678012024" flag="0"/>
			<vel value="0.00125201983637" flag="0"/>
			<psa03 value="0.00377816792831" flag="0"/>
			<psa10 value="0.00200844765917" flag="0"/>
			<psa30 value="0.000331527196425" flag="0"/>
		</comp>
		<comp name=".HNZ" depth="0.0">
			<acc value="0.00109362475647" flag="0"/>
			<vel value="0.00078361702219" flag="0"/>
			<psa03 value="0.0022122751331" flag="0"/>
			<psa10 value="0.00153454692964" flag="0"/>
			<psa30 value="0.000223751567235" flag="0"/>
		</comp>
	</station>
	<station code="VALY" name="VALY" netid="HP" source="University of Patras, Seismological Laboratory (PSLNET)" insttype="" lat="37.1641" lon="21.9836">
		<comp name=".HNE" depth="0.0">
			<acc value="0.00343023415078" flag="0"/>
			<vel value="0.00250825997372" flag="0"/>
			<psa03 value="0.0112050912406" flag="0"/>
			<psa10 value="0.00493455907783" flag="0"/>
			<psa30 value="0.000596855007463" flag="0"/>
		</comp>
		<comp name=".HNN" depth="0.0">
			<acc value="0.00350417676437" flag="0"/>
			<vel value="0.00259999769057" flag="0"/>
			<psa03 value="0.00850643330111" flag="0"/>
			<psa10 value="0.00268464089116" flag="0"/>
			<psa30 value="0.000524667725411" flag="0"/>
		</comp>
		<comp name=".HNZ" depth="0.0">
			<acc value="0.00242658061391" flag="0"/>
			<vel value="0.00137730919604" flag="0"/>
			<psa03 value="0.00448520858138" flag="0"/>
			<psa10 value="0.00246945140153" flag="0"/>
			<psa30 value="0.000425402269354" flag="0"/>
		</comp>
	</station>
</stationlist>
