<?xml version="1.0" encoding="UTF-8" standalone="yes"?>
<!DOCTYPE earthquake SYSTEM "stationlist.dtd">
<stationlist created="" xmlns="ch.ethz.sed.shakemap.usgs.xml">
  <station code="ARPRA" name="ARPRA" netid="KO" insttype="CMG-5T" lat="39.0929" lon="38.3356">
    <comp name="--.HNE">
      <acc value="0.0636816003" flag="0"/>
      <vel value="0.0482470179" flag="0"/>
      <psa03 value="0.1379914791" flag="0"/>
      <psa10 value="0.0519929337" flag="0"/>
      <psa30 value="0.0061584370" flag="0"/>
    </comp>
    <comp name="--.HNN">
      <acc value="0.0682571938" flag="0"/>
      <vel value="0.0525818937" flag="0"/>
      <psa03 value="0.1680791994" flag="0"/>
      <psa10 value="0.0694069120" flag="0"/>
      <psa30 value="0.0042529143" flag="0"/>
    </comp>
    <comp name="--.HNZ">
      <acc value="0.0341446464" flag="0"/>
      <vel value="0.0209097831" flag="0"/>
      <psa03 value="0.0627818784" flag="0"/>
      <psa10 value="0.0303965663" flag="0"/>
      <psa30 value="0.0023268440" flag="0"/>
    </comp>
  </station>
  <station code="DARE" name="DARE" netid="KO" insttype="CMG-3ESP" lat="38.5712" lon="37.4832">
    <comp name="--.HHE">
      <acc value="0.0090057992" flag="0"/>
      <vel value="0.0093417425" flag="0"/>
      <psa03 value="0.0212611795" flag="0"/>
      <psa10 value="0.0149529482" flag="0"/>
      <psa30 value="0.0014662546" flag="0"/>
    </comp>
    <comp name="--.HHZ">
      <acc value="0.0106919800" flag="0"/>
      <vel value="0.0081591602" flag="0"/>
      <psa03 value="0.0270601831" flag="0"/>
      <psa10 value="0.0155064436" flag="0"/>
      <psa30 value="0.0015349158" flag="0"/>
    </comp>
    <comp name="--.HHN">
      <acc value="0.0102919614" flag="0"/>
      <vel value="0.0096865182" flag="0"/>
      <psa03 value="0.0238493817" flag="0"/>
      <psa10 value="0.0157999950" flag="0"/>
      <psa30 value="0.0010625916" flag="0"/>
    </comp>
  </station>
  <station code="DYBB" name="DYBB" netid="KO" insttype="CMG-3T" lat="37.9532" lon="40.1393">
    <comp name="--.HHE">
      <acc value="0.0258205069" flag="0"/>
      <vel value="0.0218340085" flag="0"/>
      <psa03 value="0.0477558320" flag="0"/>
      <psa10 value="0.0382312509" flag="0"/>
      <psa30 value="0.0063619155" flag="0"/>
    </comp>
    <comp name="--.HHN">
      <acc value="0.0355715187" flag="0"/>
      <vel value="0.0252197595" flag="0"/>
      <psa03 value="0.0593078963" flag="0"/>
      <psa10 value="0.0263040295" flag="0"/>
      <psa30 value="0.0101549934" flag="0"/>
    </comp>
    <comp name="--.HHZ">
      <acc value="0.0177494031" flag="0"/>
      <vel value="0.0125957806" flag="0"/>
      <psa03 value="0.0340513777" flag="0"/>
      <psa10 value="0.0214822210" flag="0"/>
      <psa30 value="0.0034050460" flag="0"/>
    </comp>
  </station>
  <station code="SVRC" name="SVRC" netid="KO" insttype="CMG-3T" lat="38.3775" lon="39.306">
    <comp name="--.HHZ">
      <acc value="0.1219419281" flag="0"/>
      <vel value="0.0522134065" flag="0"/>
      <psa03 value="0.1924052677" flag="0"/>
      <psa10 value="0.0690950789" flag="0"/>
      <psa30 value="0.0096648080" flag="0"/>
    </comp>
    <comp name="--.HHN">
      <acc value="0.1253403073" flag="0"/>
      <vel value="0.0608813144" flag="0"/>
      <psa03 value="0.2986410223" flag="0"/>
      <psa10 value="0.0357759535" flag="0"/>
      <psa30 value="0.0083784554" flag="0"/>
    </comp>
  </station>
  <station code="URFA" name="URFA" netid="KO" insttype="CMG-3ESP" lat="37.4409" lon="38.8213">
    <comp name="--.HHZ">
      <acc value="0.0666201799" flag="0"/>
      <vel value="0.0180847225" flag="0"/>
      <psa03 value="0.0610077510" flag="0"/>
      <psa10 value="0.0193876060" flag="0"/>
      <psa30 value="0.0035359788" flag="0"/>
    </comp>
    <comp name="--.HHE">
      <acc value="0.0739035944" flag="0"/>
      <vel value="0.0483079082" flag="0"/>
      <psa03 value="0.0972429666" flag="0"/>
      <psa10 value="0.0576279286" flag="0"/>
      <psa30 value="0.0067041064" flag="0"/>
    </comp>
    <comp name="--.HHN">
      <acc value="0.0928447246" flag="0"/>
      <vel value="0.0428582061" flag="0"/>
      <psa03 value="0.0860659410" flag="0"/>
      <psa10 value="0.0396322345" flag="0"/>
      <psa30 value="0.0045529166" flag="0"/>
    </comp>
  </station>
</stationlist>
