<?xml version="1.0" encoding="UTF-8" standalone="yes"?>
<!DOCTYPE earthquake SYSTEM "stationlist.dtd">
<stationlist created="" xmlns="ch.ethz.sed.shakemap.usgs.xml">
  <station code="GURO" name="GURO" netid="KO" insttype="120s," lat="38.5509" lon="42.0322">
    <comp name="--.HHZ">
      <acc value="0.0065414409" flag="0"/>
      <vel value="0.0031231425" flag="0"/>
      <psa03 value="0.0286102859" flag="0"/>
      <psa10 value="0.0021511954" flag="0"/>
      <psa30 value="0.0003296656" flag="0"/>
    </comp>
    <comp name="--.HHN">
      <acc value="0.0062538218" flag="0"/>
      <vel value="0.0035381573" flag="0"/>
      <psa03 value="0.0221920479" flag="0"/>
      <psa10 value="0.0040367304" flag="0"/>
      <psa30 value="0.0003223068" flag="0"/>
    </comp>
    <comp name="--.HHE">
      <acc value="0.0078002873" flag="0"/>
      <vel value="0.0039889174" flag="0"/>
      <psa03 value="0.0328356326" flag="0"/>
      <psa10 value="0.0028834021" flag="0"/>
      <psa30 value="0.0002094583" flag="0"/>
    </comp>
  </station>
  <station code="KARO" name="KARO" netid="KO" insttype="120s," lat="39.3089" lon="41.0493">
    <comp name="--.HHE">
      <acc value="2.8497208890" flag="0"/>
      <vel value="1.1373816444" flag="0"/>
      <psa03 value="7.2315595532" flag="0"/>
      <psa10 value="1.1422342790" flag="0"/>
      <psa30 value="0.0709295739" flag="0"/>
    </comp>
    <comp name="--.HHN">
      <acc value="2.5232278467" flag="0"/>
      <vel value="1.1206095505" flag="0"/>
      <psa03 value="5.7141629601" flag="0"/>
      <psa10 value="0.7382379458" flag="0"/>
      <psa30 value="0.0538587861" flag="0"/>
    </comp>
    <comp name="--.HHZ">
      <acc value="2.0231609713" flag="0"/>
      <vel value="0.6232123032" flag="0"/>
      <psa03 value="5.1323208984" flag="0"/>
      <psa10 value="0.2402485073" flag="0"/>
      <psa30 value="0.0192910823" flag="0"/>
    </comp>
  </station>
  <station code="KOPR" name="KOPR" netid="KO" insttype="120s," lat="39.9917" lon="41.8535">
    <comp name="--.HHZ">
      <acc value="0.0068589115" flag="0"/>
      <vel value="0.0049648593" flag="0"/>
      <psa03 value="0.0224086314" flag="0"/>
      <psa10 value="0.0096923051" flag="0"/>
      <psa30 value="0.0014397875" flag="0"/>
    </comp>
    <comp name="--.HHN">
      <acc value="0.0080691271" flag="0"/>
      <vel value="0.0055352655" flag="0"/>
      <psa03 value="0.0303815469" flag="0"/>
      <psa10 value="0.0076809879" flag="0"/>
      <psa30 value="0.0007251245" flag="0"/>
    </comp>
    <comp name="--.HHE">
      <acc value="0.0092066265" flag="0"/>
      <vel value="0.0072229007" flag="0"/>
      <psa03 value="0.0256214388" flag="0"/>
      <psa10 value="0.0110838740" flag="0"/>
      <psa30 value="0.0014098878" flag="0"/>
    </comp>
  </station>
  <station code="MLAZ" name="MLAZ" netid="KO" insttype="120s," lat="39.141" lon="42.5496">
    <comp name="--.HHE">
      <acc value="0.0087898612" flag="0"/>
      <vel value="0.0075918967" flag="0"/>
      <psa03 value="0.0170728805" flag="0"/>
      <psa10 value="0.0129085089" flag="0"/>
      <psa30 value="0.0015543507" flag="0"/>
    </comp>
    <comp name="--.HHN">
      <acc value="0.0064350326" flag="0"/>
      <vel value="0.0080962191" flag="0"/>
      <psa03 value="0.0203040391" flag="0"/>
      <psa10 value="0.0134605723" flag="0"/>
      <psa30 value="0.0020901285" flag="0"/>
    </comp>
    <comp name="--.HHZ">
      <acc value="0.0063637057" flag="0"/>
      <vel value="0.0043117132" flag="0"/>
      <psa03 value="0.0151711426" flag="0"/>
      <psa10 value="0.0103387965" flag="0"/>
      <psa30 value="0.0009824647" flag="0"/>
    </comp>
  </station>
</stationlist>
