<?xml version="1.0" encoding="UTF-8" standalone="yes"?>
<!DOCTYPE earthquake SYSTEM "stationlist.dtd">
<stationlist created="" xmlns="ch.ethz.sed.shakemap.usgs.xml">
  <station code="DARE" name="DARE" netid="KO" insttype="CMG-3ESP" lat="38.5712" lon="37.4832">
    <comp name="--.HHE">
      <acc value="0.0045806569" flag="0"/>
      <vel value="0.0025552116" flag="0"/>
      <psa03 value="0.0119289420" flag="0"/>
      <psa10 value="0.0036652158" flag="0"/>
      <psa30 value="0.0002979525" flag="0"/>
    </comp>
    <comp name="--.HHN">
      <acc value="0.0046231115" flag="0"/>
      <vel value="0.0029176116" flag="0"/>
      <psa03 value="0.0122154873" flag="0"/>
      <psa10 value="0.0031018427" flag="0"/>
      <psa30 value="0.0003359532" flag="0"/>
    </comp>
    <comp name="--.HHZ">
      <acc value="0.0049676157" flag="0"/>
      <vel value="0.0030085169" flag="0"/>
      <psa03 value="0.0143403972" flag="0"/>
      <psa10 value="0.0030316246" flag="0"/>
      <psa30 value="0.0003634002" flag="0"/>
    </comp>
  </station>
  <station code="GAZ" name="GAZ" netid="KO" insttype="CMG-3T" lat="37.1721" lon="37.2096">
    <comp name="--.HHN">
      <acc value="0.0225719209" flag="0"/>
      <vel value="0.0097411552" flag="0"/>
      <psa03 value="0.0679578706" flag="0"/>
      <psa10 value="0.0067072572" flag="0"/>
      <psa30 value="0.0007779317" flag="0"/>
    </comp>
    <comp name="--.HHE">
      <acc value="0.0322812686" flag="0"/>
      <vel value="0.0112893611" flag="0"/>
      <psa03 value="0.0644023943" flag="0"/>
      <psa10 value="0.0075756077" flag="0"/>
      <psa30 value="0.0013348092" flag="0"/>
    </comp>
    <comp name="--.HHZ">
      <acc value="0.0159702452" flag="0"/>
      <vel value="0.0065070574" flag="0"/>
      <psa03 value="0.0308447586" flag="0"/>
      <psa10 value="0.0047243237" flag="0"/>
      <psa30 value="0.0009858210" flag="0"/>
    </comp>
  </station>
  <station code="KHMN" name="KHMN" netid="KO" insttype="CMG-5T" lat="37.3916" lon="37.1574">
    <comp name="--.HNE">
      <acc value="0.0359055832" flag="0"/>
      <vel value="0.0084550238" flag="0"/>
      <psa03 value="0.0286799605" flag="0"/>
      <psa10 value="0.0041704097" flag="0"/>
      <psa30 value="0.0009023370" flag="0"/>
    </comp>
    <comp name="--.HNN">
      <acc value="0.0423127742" flag="0"/>
      <vel value="0.0060170010" flag="0"/>
      <psa03 value="0.0361861598" flag="0"/>
      <psa10 value="0.0035542951" flag="0"/>
      <psa30 value="0.0008770581" flag="0"/>
    </comp>
    <comp name="--.HNZ">
      <acc value="0.0233443407" flag="0"/>
      <vel value="0.0044565007" flag="0"/>
      <psa03 value="0.0156796437" flag="0"/>
      <psa10 value="0.0025077989" flag="0"/>
      <psa30 value="0.0005589742" flag="0"/>
    </comp>
  </station>
  <station code="URFA" name="URFA" netid="KO" insttype="CMG-3ESP" lat="37.4409" lon="38.8213">
    <comp name="--.HHN">
      <acc value="0.1220984098" flag="0"/>
      <vel value="0.0302614797" flag="0"/>
      <psa03 value="0.1035100341" flag="0"/>
      <psa10 value="0.0163750418" flag="0"/>
      <psa30 value="0.0011050304" flag="0"/>
    </comp>
    <comp name="--.HHE">
      <acc value="0.1018702356" flag="0"/>
      <vel value="0.0303827731" flag="0"/>
      <psa03 value="0.1151253007" flag="0"/>
      <psa10 value="0.0101201577" flag="0"/>
      <psa30 value="0.0007463277" flag="0"/>
    </comp>
    <comp name="--.HHZ">
      <acc value="0.0482925055" flag="0"/>
      <vel value="0.0099540058" flag="0"/>
      <psa03 value="0.0722261301" flag="0"/>
      <psa10 value="0.0078464152" flag="0"/>
      <psa30 value="0.0004248285" flag="0"/>
    </comp>
  </station>
</stationlist>
