<?xml version="1.0" encoding="UTF-8" standalone="yes"?>
<!DOCTYPE earthquake SYSTEM "stationlist.dtd">
<stationlist created="" xmlns="ch.ethz.sed.shakemap.usgs.xml">
  <station code="DARE" name="DARE" netid="KO" insttype="CMG-3ESP" lat="38.5712" lon="37.4832">
    <comp name="--.HHE">
      <acc value="0.0045806569" flag="0"/>
      <vel value="0.0025552131" flag="0"/>
      <psa03 value="0.0119289420" flag="0"/>
      <psa10 value="0.0036652158" flag="0"/>
      <psa30 value="0.0002979523" flag="0"/>
    </comp>
    <comp name="--.HHN">
      <acc value="0.0046231115" flag="0"/>
      <vel value="0.0029176111" flag="0"/>
      <psa03 value="0.0122154873" flag="0"/>
      <psa10 value="0.0031018427" flag="0"/>
      <psa30 value="0.0003359531" flag="0"/>
    </comp>
    <comp name="--.HHZ">
      <acc value="0.0049676157" flag="0"/>
      <vel value="0.0030085164" flag="0"/>
      <psa03 value="0.0143403972" flag="0"/>
      <psa10 value="0.0030316246" flag="0"/>
      <psa30 value="0.0003634002" flag="0"/>
    </comp>
  </station>
  <station code="GAZ" name="GAZ" netid="KO" insttype="CMG-3T" lat="37.1721" lon="37.2096">
    <comp name="--.HHN">
      <acc value="0.0225719209" flag="0"/>
      <vel value="0.0097411553" flag="0"/>
      <psa03 value="0.0679578706" flag="0"/>
      <psa10 value="0.0067072572" flag="0"/>
      <psa30 value="0.0007779310" flag="0"/>
    </comp>
    <comp name="--.HHE">
      <acc value="0.0322812686" flag="0"/>
      <vel value="0.0112893603" flag="0"/>
      <psa03 value="0.0644023943" flag="0"/>
      <psa10 value="0.0075756077" flag="0"/>
      <psa30 value="0.0013348094" flag="0"/>
    </comp>
    <comp name="--.HHZ">
      <acc value="0.0159702451" flag="0"/>
      <vel value="0.0065070576" flag="0"/>
      <psa03 value="0.0308447586" flag="0"/>
      <psa10 value="0.0047243237" flag="0"/>
      <psa30 value="0.0009858205" flag="0"/>
    </comp>
  </station>
  <station code="KHMN" name="KHMN" netid="KO" insttype="CMG-5T" lat="37.3916" lon="37.1574">
    <comp name="--.HNE">
      <acc value="0.0359055774" flag="0"/>
      <vel value="0.0084550372" flag="0"/>
      <psa03 value="0.0286799605" flag="0"/>
      <psa10 value="0.0041704097" flag="0"/>
      <psa30 value="0.0009023353" flag="0"/>
    </comp>
    <comp name="--.HNZ">
      <acc value="0.0233442598" flag="0"/>
      <vel value="0.0044565007" flag="0"/>
      <psa03 value="0.0156796437" flag="0"/>
      <psa10 value="0.0025077989" flag="0"/>
      <psa30 value="0.0005587537" flag="0"/>
    </comp>
    <comp name="--.HNN">
      <acc value="0.0423127759" flag="0"/>
      <vel value="0.0060170035" flag="0"/>
      <psa03 value="0.0361861598" flag="0"/>
      <psa10 value="0.0035542951" flag="0"/>
      <psa30 value="0.0008769902" flag="0"/>
    </comp>
  </station>
  <station code="URFA" name="URFA" netid="KO" insttype="CMG-3ESP" lat="37.4409" lon="38.8213">
    <comp name="--.HHE">
      <acc value="0.1018702355" flag="0"/>
      <vel value="0.0303827720" flag="0"/>
      <psa03 value="0.1151253007" flag="0"/>
      <psa10 value="0.0101201577" flag="0"/>
      <psa30 value="0.0007463366" flag="0"/>
    </comp>
    <comp name="--.HHN">
      <acc value="0.1220984098" flag="0"/>
      <vel value="0.0302614816" flag="0"/>
      <psa03 value="0.1035100341" flag="0"/>
      <psa10 value="0.0163750418" flag="0"/>
      <psa30 value="0.0011050653" flag="0"/>
    </comp>
    <comp name="--.HHZ">
      <acc value="0.0482925053" flag="0"/>
      <vel value="0.0099540044" flag="0"/>
      <psa03 value="0.0722261301" flag="0"/>
      <psa10 value="0.0078464152" flag="0"/>
      <psa30 value="0.0004248327" flag="0"/>
    </comp>
  </station>
</stationlist>
