<?xml version="1.0" encoding="UTF-8" standalone="yes"?>
<!DOCTYPE earthquake SYSTEM "stationlist.dtd">
<stationlist created="" xmlns="ch.ethz.sed.shakemap.usgs.xml">
  <station code="AGRP" name="AGRP" netid="CL" insttype="CMG40-T" commtype="DIG" lat="38.3959" lon="21.7228">
    <comp name="00.HHN">
      <acc value="0.0784037337" flag="0"/>
      <vel value="0.0659391936" flag="0"/>
      <psa03 value="0.1374904254" flag="0"/>
      <psa10 value="0.1218001466" flag="0"/>
      <psa30 value="0.0084426617" flag="0"/>
    </comp>
    <comp name="00.HHE">
      <acc value="0.0951814661" flag="0"/>
      <vel value="0.0447427652" flag="0"/>
      <psa03 value="0.1281722367" flag="0"/>
      <psa10 value="0.0795727032" flag="0"/>
      <psa30 value="0.0076310011" flag="0"/>
    </comp>
    <comp name="00.HHZ">
      <acc value="0.0560733135" flag="0"/>
      <vel value="0.0418135666" flag="0"/>
      <psa03 value="0.0941626786" flag="0"/>
      <psa10 value="0.0646384128" flag="0"/>
      <psa30 value="0.0066758003" flag="0"/>
    </comp>
  </station>
  <station code="MALA" name="MALA" netid="CL" insttype="TRILLIUM-40" commtype="DIG" lat="38.3934" lon="21.8726">
    <comp name="01.HHE">
      <acc value="0.1728516616" flag="0"/>
      <vel value="0.1307423730" flag="0"/>
      <psa03 value="0.2568588313" flag="0"/>
      <psa10 value="0.4001093720" flag="0"/>
      <psa30 value="0.0161168482" flag="0"/>
    </comp>
    <comp name="01.HHN">
      <acc value="0.1758582259" flag="0"/>
      <vel value="0.1029755012" flag="0"/>
      <psa03 value="0.3758312400" flag="0"/>
      <psa10 value="0.1658457921" flag="0"/>
      <psa30 value="0.0108149870" flag="0"/>
    </comp>
    <comp name="01.HHZ">
      <acc value="0.0461787952" flag="0"/>
      <vel value="0.0427951083" flag="0"/>
      <psa03 value="0.1144303042" flag="0"/>
      <psa10 value="0.0663012830" flag="0"/>
      <psa30 value="0.0044138943" flag="0"/>
    </comp>
  </station>
  <station code="MG06" name="MG06" netid="CL" insttype="TRILLIUM-40" commtype="DIG" lat="38.4129" lon="21.9462">
    <comp name="06.HHE">
      <acc value="0.1118993941" flag="0"/>
      <vel value="0.0511464796" flag="0"/>
      <psa03 value="0.1815042595" flag="0"/>
      <psa10 value="0.0574353580" flag="0"/>
      <psa30 value="0.0050805537" flag="0"/>
    </comp>
    <comp name="06.HHN">
      <acc value="0.1388260175" flag="0"/>
      <vel value="0.0466129174" flag="0"/>
      <psa03 value="0.1121552951" flag="0"/>
      <psa10 value="0.0432162498" flag="0"/>
      <psa30 value="0.0034904978" flag="0"/>
    </comp>
    <comp name="06.HHZ">
      <acc value="0.0574476854" flag="0"/>
      <vel value="0.0231709455" flag="0"/>
      <psa03 value="0.0772851265" flag="0"/>
      <psa10 value="0.0438720650" flag="0"/>
      <psa30 value="0.0027850520" flag="0"/>
    </comp>
  </station>
  <station code="PSAM" name="PSAM" netid="CL" insttype="CMG40-T" commtype="DIG" lat="38.3218" lon="22.1842">
    <comp name="00.HHE">
      <acc value="0.0841188903" flag="0"/>
      <vel value="0.0592894419" flag="0"/>
      <psa03 value="0.1708147758" flag="0"/>
      <psa10 value="0.0800867164" flag="0"/>
      <psa30 value="0.0042210845" flag="0"/>
    </comp>
    <comp name="00.HHN">
      <acc value="0.0563864536" flag="0"/>
      <vel value="0.0379229806" flag="0"/>
      <psa03 value="0.0847372444" flag="0"/>
      <psa10 value="0.0688545343" flag="0"/>
      <psa30 value="0.0085539935" flag="0"/>
    </comp>
    <comp name="00.HHZ">
      <acc value="0.0349371062" flag="0"/>
      <vel value="0.0229334182" flag="0"/>
      <psa03 value="0.0699508130" flag="0"/>
      <psa10 value="0.0475427467" flag="0"/>
      <psa30 value="0.0031801650" flag="0"/>
    </comp>
  </station>
  <station code="ROD3" name="ROD3" netid="CL" insttype="CMG40-T" commtype="DIG" lat="38.3081" lon="21.892">
    <comp name="00.HHE">
      <acc value="0.1344430632" flag="0"/>
      <vel value="0.0751623771" flag="0"/>
      <psa03 value="0.5522601137" flag="0"/>
      <psa10 value="0.0707204246" flag="0"/>
      <psa30 value="0.0058887614" flag="0"/>
    </comp>
    <comp name="00.HHN">
      <acc value="0.1414815529" flag="0"/>
      <vel value="0.0758246093" flag="0"/>
      <psa03 value="0.4317650949" flag="0"/>
      <psa10 value="0.0633287949" flag="0"/>
      <psa30 value="0.0074590902" flag="0"/>
    </comp>
    <comp name="00.HHZ">
      <acc value="0.0838689751" flag="0"/>
      <vel value="0.0313628194" flag="0"/>
      <psa03 value="0.1262236459" flag="0"/>
      <psa10 value="0.0649202394" flag="0"/>
      <psa30 value="0.0026506033" flag="0"/>
    </comp>
  </station>
  <station code="TRIZ" name="TRIZ" netid="CL" insttype="STS-2" commtype="DIG" lat="38.3654" lon="22.0727">
    <comp name="00.HH2">
      <acc value="0.1396859305" flag="0"/>
      <vel value="0.0665310388" flag="0"/>
      <psa03 value="0.4203029660" flag="0"/>
      <psa10 value="0.0703921202" flag="0"/>
      <psa30 value="0.0054438384" flag="0"/>
    </comp>
    <comp name="00.HH3">
      <acc value="0.1179281903" flag="0"/>
      <vel value="0.0556763668" flag="0"/>
      <psa03 value="0.4180419487" flag="0"/>
      <psa10 value="0.0578051227" flag="0"/>
      <psa30 value="0.0045733082" flag="0"/>
    </comp>
    <comp name="00.HHZ">
      <acc value="0.1055069075" flag="0"/>
      <vel value="0.0344218799" flag="0"/>
      <psa03 value="0.1347520823" flag="0"/>
      <psa10 value="0.0462879369" flag="0"/>
      <psa30 value="0.0035936360" flag="0"/>
    </comp>
  </station>
  <station code="ZIRI" name="ZIRI" netid="CL" insttype="TRILLIUM-40" commtype="DIG" lat="38.3051" lon="21.9476">
    <comp name="01.HHE">
      <acc value="0.1215320945" flag="0"/>
      <vel value="0.0603801869" flag="0"/>
      <psa03 value="0.2432878714" flag="0"/>
      <psa10 value="0.0758230402" flag="0"/>
      <psa30 value="0.0049590897" flag="0"/>
    </comp>
    <comp name="01.HHN">
      <acc value="0.0998345926" flag="0"/>
      <vel value="0.0539760511" flag="0"/>
      <psa03 value="0.2433257255" flag="0"/>
      <psa10 value="0.0487237234" flag="0"/>
      <psa30 value="0.0051204554" flag="0"/>
    </comp>
    <comp name="01.HHZ">
      <acc value="0.0677559375" flag="0"/>
      <vel value="0.0240159002" flag="0"/>
      <psa03 value="0.1304295619" flag="0"/>
      <psa10 value="0.0196871197" flag="0"/>
      <psa30 value="0.0022777302" flag="0"/>
    </comp>
  </station>
  <station code="KLV" name="KLV" netid="MN" insttype="" commtype="DIG" lat="38.0437" lon="22.1504">
    <comp name="--.HHN">
      <acc value="0.0188428635" flag="0"/>
      <vel value="0.0177110699" flag="0"/>
      <psa03 value="0.0356358708" flag="0"/>
      <psa10 value="0.0285362547" flag="0"/>
      <psa30 value="0.0034678518" flag="0"/>
    </comp>
    <comp name="--.HHE">
      <acc value="0.0152631988" flag="0"/>
      <vel value="0.0201538862" flag="0"/>
      <psa03 value="0.0297857598" flag="0"/>
      <psa10 value="0.0298883809" flag="0"/>
      <psa30 value="0.0030344122" flag="0"/>
    </comp>
    <comp name="--.HHZ">
      <acc value="0.0198973951" flag="0"/>
      <vel value="0.0179012466" flag="0"/>
      <psa03 value="0.0256215882" flag="0"/>
      <psa10 value="0.0246802869" flag="0"/>
      <psa30 value="0.0022867520" flag="0"/>
    </comp>
  </station>
  <station code="THL" name="THL" netid="MN" insttype="" commtype="DIG" lat="39.5647" lon="22.0144">
    <comp name="--.HHE">
      <acc value="0.0856671876" flag="0"/>
      <vel value="0.0410426178" flag="0"/>
      <psa03 value="0.1827449789" flag="0"/>
      <psa10 value="0.0352363332" flag="0"/>
      <psa30 value="0.0061386795" flag="0"/>
    </comp>
    <comp name="--.HHN">
      <acc value="0.0774118917" flag="0"/>
      <vel value="0.0451129367" flag="0"/>
      <psa03 value="0.1538182478" flag="0"/>
      <psa10 value="0.0364366228" flag="0"/>
      <psa30 value="0.0076318257" flag="0"/>
    </comp>
    <comp name="--.HHZ">
      <acc value="0.0601261908" flag="0"/>
      <vel value="0.0265748390" flag="0"/>
      <psa03 value="0.0879773841" flag="0"/>
      <psa10 value="0.0233360869" flag="0"/>
      <psa30 value="0.0083753708" flag="0"/>
    </comp>
  </station>
</stationlist>
