<stationlist created="1775808298">
	<station code="SRN" name="SRN" netid="AC" source="Albanian Seismological Network (AC)" insttype="" lat="39.880001" lon="20.0005">
		<comp name="01.HNE" depth="0.0">
			<acc value="0.0667177661546358" flag="0"/>
			<vel value="0.0554168514082649" flag="0"/>
			<psa03 value="0.19110161787764" flag="0"/>
			<psa10 value="0.0863924255742022" flag="0"/>
			<psa30 value="0.0156604407606763" flag="0"/>
		</comp>
		<comp name="01.HNN" depth="0.0">
			<acc value="0.0842073749152634" flag="0"/>
			<vel value="0.0522311502578068" flag="0"/>
			<psa03 value="0.168078665636711" flag="0"/>
			<psa10 value="0.0873589246000194" flag="0"/>
			<psa30 value="0.00950756316273216" flag="0"/>
		</comp>
		<comp name="01.HNZ" depth="0.0">
			<acc value="0.0756394893621287" flag="0"/>
			<vel value="0.063808862610802" flag="0"/>
			<psa03 value="0.150809948752301" flag="0"/>
			<psa10 value="0.0986407969686952" flag="0"/>
			<psa30 value="0.0107761080309373" flag="0"/>
		</comp>
	</station>
	<station code="AGRP" name="AGRP" netid="CL" source="Corinth Riff Laboratory (CRLNET)" insttype="" lat="38.3959" lon="21.72277">
		<comp name="00.HNE" depth="0.0">
			<acc value="0.0948733627007964" flag="0"/>
			<vel value="0.0461688722040793" flag="0"/>
			<psa03 value="0.126309596557543" flag="0"/>
			<psa10 value="0.0843121102635226" flag="0"/>
			<psa30 value="0.00715729830255301" flag="0"/>
		</comp>
		<comp name="00.HNN" depth="0.0">
			<acc value="0.0740728941678662" flag="0"/>
			<vel value="0.0573195084114851" flag="0"/>
			<psa03 value="0.13847411073024" flag="0"/>
			<psa10 value="0.114785856499653" flag="0"/>
			<psa30 value="0.00806307913942144" flag="0"/>
		</comp>
		<comp name="00.HNZ" depth="0.0">
			<acc value="0.0492235533377969" flag="0"/>
			<vel value="0.0437611039905048" flag="0"/>
			<psa03 value="0.085122467070684" flag="0"/>
			<psa10 value="0.0613035260577392" flag="0"/>
			<psa30 value="0.00633495174279596" flag="0"/>
		</comp>
	</station>
	<station code="MALA" name="MALA" netid="CL" source="Corinth Riff Laboratory (CRLNET)" insttype="" lat="38.39341" lon="21.87263">
		<comp name="01.HNE" depth="0.0">
			<acc value="0.235479744256913" flag="0"/>
			<vel value="0.18719824107555" flag="0"/>
			<psa03 value="0.415874424639626" flag="0"/>
			<psa10 value="0.543558008050389" flag="0"/>
			<psa30 value="0.0185006772457376" flag="0"/>
		</comp>
		<comp name="01.HNN" depth="0.0">
			<acc value="0.214731089809602" flag="0"/>
			<vel value="0.118251454499751" flag="0"/>
			<psa03 value="0.43138553550793" flag="0"/>
			<psa10 value="0.14865614273989" flag="0"/>
			<psa30 value="0.0175184871804661" flag="0"/>
		</comp>
		<comp name="01.HNZ" depth="0.0">
			<acc value="0.0599682812124706" flag="0"/>
			<vel value="0.058245963439963" flag="0"/>
			<psa03 value="0.153678388772375" flag="0"/>
			<psa10 value="0.0862480035069491" flag="0"/>
			<psa30 value="0.00639903973831114" flag="0"/>
		</comp>
	</station>
	<station code="ROD3" name="ROD3" netid="CL" source="Corinth Riff Laboratory (CRLNET)" insttype="" lat="38.30811" lon="21.89204">
		<comp name="00.HNE" depth="0.0">
			<acc value="0.110425432814348" flag="0"/>
			<vel value="0.0598343028296262" flag="0"/>
			<psa03 value="0.458485914108344" flag="0"/>
			<psa10 value="0.0586615210378729" flag="0"/>
			<psa30 value="0.0047041162079455" flag="0"/>
		</comp>
		<comp name="00.HNN" depth="0.0">
			<acc value="0.116407508501802" flag="0"/>
			<vel value="0.0623382519467767" flag="0"/>
			<psa03 value="0.344696438614042" flag="0"/>
			<psa10 value="0.0545985918887566" flag="0"/>
			<psa30 value="0.00533933620481946" flag="0"/>
		</comp>
		<comp name="00.HNZ" depth="0.0">
			<acc value="0.0651944664109752" flag="0"/>
			<vel value="0.0273171950512794" flag="0"/>
			<psa03 value="0.0877187796886529" flag="0"/>
			<psa10 value="0.0513178258041047" flag="0"/>
			<psa30 value="0.00403323968233484" flag="0"/>
		</comp>
	</station>
	<station code="TRIZ" name="TRIZ" netid="CL" source="Corinth Riff Laboratory (CRLNET)" insttype="" lat="38.36543" lon="22.07272">
		<comp name="00.HNE" depth="0.0">
			<acc value="0.101293703850335" flag="0"/>
			<vel value="0.0512037575248361" flag="0"/>
			<psa03 value="0.267521722001154" flag="0"/>
			<psa10 value="0.0619873988609561" flag="0"/>
			<psa30 value="0.00475536876984286" flag="0"/>
		</comp>
		<comp name="00.HNN" depth="0.0">
			<acc value="0.145572966951678" flag="0"/>
			<vel value="0.0704329278530533" flag="0"/>
			<psa03 value="0.511915870247384" flag="0"/>
			<psa10 value="0.0639797858468158" flag="0"/>
			<psa30 value="0.00645508386762632" flag="0"/>
		</comp>
		<comp name="00.HNZ" depth="0.0">
			<acc value="0.108342964175145" flag="0"/>
			<vel value="0.0353194316511516" flag="0"/>
			<psa03 value="0.131028190391227" flag="0"/>
			<psa10 value="0.0460246839094316" flag="0"/>
			<psa30 value="0.00348958450118054" flag="0"/>
		</comp>
	</station>
	<station code="MMAA" name="MMAA" netid="EG" source="EUROSEISTEST Strong Motion Network" insttype="" lat="40.630855" lon="22.943725">
		<comp name="--.EN1" depth="0.0">
			<acc value="0.017105736982777" flag="0"/>
			<vel value="0.0173241182210919" flag="0"/>
			<psa03 value="0.0388549749930696" flag="0"/>
			<psa10 value="0.0268529826283115" flag="0"/>
			<psa30 value="0.00192479354979294" flag="0"/>
		</comp>
		<comp name="--.EN2" depth="0.0">
			<acc value="0.0151662216454949" flag="0"/>
			<vel value="0.0143536922511908" flag="0"/>
			<psa03 value="0.0325419890804021" flag="0"/>
			<psa10 value="0.0332731641838309" flag="0"/>
			<psa30 value="0.00219314340998752" flag="0"/>
		</comp>
		<comp name="--.EN3" depth="0.0">
			<acc value="0.0462832528431006" flag="0"/>
			<vel value="0.00745664353301307" flag="0"/>
			<psa03 value="0.0186023000194143" flag="0"/>
			<psa10 value="0.00791159722948835" flag="0"/>
			<psa30 value="0.00220424706221665" flag="0"/>
		</comp>
	</station>
	<station code="AGR3" name="AGR3" netid="HI" source="ITSAK Strong Motion Network" insttype="" lat="38.5893" lon="21.4162">
		<comp name="--.HNE" depth="0.0">
			<acc value="0.447916766843465" flag="0"/>
			<vel value="0.305345873201041" flag="0"/>
			<psa03 value="1.19700454567656" flag="0"/>
			<psa10 value="0.389974563900962" flag="0"/>
			<psa30 value="0.0524423907176778" flag="0"/>
		</comp>
		<comp name="--.HNN" depth="0.0">
			<acc value="0.354044583245686" flag="0"/>
			<vel value="0.295199335500192" flag="0"/>
			<psa03 value="0.688546321147899" flag="0"/>
			<psa10 value="0.475463637132505" flag="0"/>
			<psa30 value="0.0453814229632175" flag="0"/>
		</comp>
		<comp name="--.HNZ" depth="0.0">
			<acc value="0.238939871016286" flag="0"/>
			<vel value="0.166871659458199" flag="0"/>
			<psa03 value="0.514902943126303" flag="0"/>
			<psa10 value="0.288730456975759" flag="0"/>
			<psa30 value="0.0207572533994997" flag="0"/>
		</comp>
	</station>
	<station code="AIA1" name="AIA1" netid="HI" source="ITSAK Strong Motion Network" insttype="" lat="40.1641" lon="21.8202">
		<comp name="--.HNE" depth="0.0">
			<acc value="0.122127686098342" flag="0"/>
			<vel value="0.0675485440822801" flag="0"/>
			<psa03 value="0.40222622884697" flag="0"/>
			<psa10 value="0.0298814938773186" flag="0"/>
			<psa30 value="0.00503481561515824" flag="0"/>
		</comp>
		<comp name="--.HNN" depth="0.0">
			<acc value="0.0953763088535057" flag="0"/>
			<vel value="0.0499113048361167" flag="0"/>
			<psa03 value="0.244928808664859" flag="0"/>
			<psa10 value="0.04078815951539" flag="0"/>
			<psa30 value="0.00598818543789677" flag="0"/>
		</comp>
		<comp name="--.HNZ" depth="0.0">
			<acc value="0.0503693217566046" flag="0"/>
			<vel value="0.0280926015750599" flag="0"/>
			<psa03 value="0.113871876786316" flag="0"/>
			<psa10 value="0.0237011107072653" flag="0"/>
			<psa30 value="0.00306404297780974" flag="0"/>
		</comp>
	</station>
	<station code="AIG2" name="AIG2" netid="HI" source="ITSAK Strong Motion Network" insttype="" lat="38.2417" lon="22.0726">
		<comp name="--.HNE" depth="0.0">
			<acc value="0.0503665846835011" flag="0"/>
			<vel value="0.0428334770332733" flag="0"/>
			<psa03 value="0.0752985662854702" flag="0"/>
			<psa10 value="0.0593561008003734" flag="0"/>
			<psa30 value="0.00682619761875767" flag="0"/>
		</comp>
		<comp name="--.HNN" depth="0.0">
			<acc value="0.0369423007518056" flag="0"/>
			<vel value="0.0358684934008875" flag="0"/>
			<psa03 value="0.0883348413330467" flag="0"/>
			<psa10 value="0.046389170554883" flag="0"/>
			<psa30 value="0.0078038644677216" flag="0"/>
		</comp>
		<comp name="--.HNZ" depth="0.0">
			<acc value="0.0244530061574333" flag="0"/>
			<vel value="0.021687085972707" flag="0"/>
			<psa03 value="0.0483903566653082" flag="0"/>
			<psa10 value="0.038087710623904" flag="0"/>
			<psa30 value="0.00468246935728122" flag="0"/>
		</comp>
	</station>
	<station code="AKR1" name="AKR1" netid="HI" source="ITSAK Strong Motion Network" insttype="" lat="38.153583" lon="22.31326">
		<comp name="--.HNE" depth="0.0">
			<acc value="0.0414105171020795" flag="0"/>
			<vel value="0.0266497706134098" flag="0"/>
			<psa03 value="0.0848343750693361" flag="0"/>
			<psa10 value="0.0474039427785626" flag="0"/>
			<psa30 value="0.00410930305449328" flag="0"/>
		</comp>
		<comp name="--.HNN" depth="0.0">
			<acc value="0.0409407071626944" flag="0"/>
			<vel value="0.0277328333085129" flag="0"/>
			<psa03 value="0.111765997698828" flag="0"/>
			<psa10 value="0.0494468981143273" flag="0"/>
			<psa30 value="0.00400474362794442" flag="0"/>
		</comp>
		<comp name="--.HNZ" depth="0.0">
			<acc value="0.0268219792113265" flag="0"/>
			<vel value="0.0187736793859866" flag="0"/>
			<psa03 value="0.0443502661124701" flag="0"/>
			<psa10 value="0.0244101495526091" flag="0"/>
			<psa30 value="0.00228316499847596" flag="0"/>
		</comp>
	</station>
	<station code="ARG2" name="ARG2" netid="HI" source="ITSAK Strong Motion Network" insttype="" lat="38.1783" lon="20.4878">
		<comp name="--.HNE" depth="0.0">
			<acc value="0.155624158141548" flag="0"/>
			<vel value="0.132811475666552" flag="0"/>
			<psa03 value="0.611997708511327" flag="0"/>
			<psa10 value="0.135927094502915" flag="0"/>
			<psa30 value="0.0094056330770309" flag="0"/>
		</comp>
		<comp name="--.HNN" depth="0.0">
			<acc value="0.138597285409597" flag="0"/>
			<vel value="0.110252417932486" flag="0"/>
			<psa03 value="0.332737667237463" flag="0"/>
			<psa10 value="0.10094657721532" flag="0"/>
			<psa30 value="0.0102335079196762" flag="0"/>
		</comp>
		<comp name="--.HNZ" depth="0.0">
			<acc value="0.0858659009355392" flag="0"/>
			<vel value="0.0839114541274877" flag="0"/>
			<psa03 value="0.383029832179902" flag="0"/>
			<psa10 value="0.0943574432175308" flag="0"/>
			<psa30 value="0.00686235084706494" flag="0"/>
		</comp>
	</station>
	<station code="ARS1" name="ARS1" netid="HI" source="ITSAK Strong Motion Network" insttype="" lat="37.6349" lon="22.7293">
		<comp name="--.HNE" depth="0.0">
			<acc value="0.0204287184738914" flag="0"/>
			<vel value="0.0183494835422108" flag="0"/>
			<psa03 value="0.0378028948812589" flag="0"/>
			<psa10 value="0.0314824693090838" flag="0"/>
			<psa30 value="0.00219273817480935" flag="0"/>
		</comp>
		<comp name="--.HNN" depth="0.0">
			<acc value="0.0225842128451856" flag="0"/>
			<vel value="0.0212083165180205" flag="0"/>
			<psa03 value="0.0465324210861943" flag="0"/>
			<psa10 value="0.0362038220755333" flag="0"/>
			<psa30 value="0.0027105843545773" flag="0"/>
		</comp>
		<comp name="--.HNZ" depth="0.0">
			<acc value="0.00815363403956316" flag="0"/>
			<vel value="0.00754647152954623" flag="0"/>
			<psa03 value="0.0241482924141921" flag="0"/>
			<psa10 value="0.0118347818087127" flag="0"/>
			<psa30 value="0.00137051318560575" flag="0"/>
		</comp>
	</station>
	<station code="ART2" name="ART2" netid="HI" source="ITSAK Strong Motion Network" insttype="" lat="39.1474" lon="20.9937">
		<comp name="--.HNE" depth="0.0">
			<acc value="0.392192850649788" flag="0"/>
			<vel value="0.128942070026999" flag="0"/>
			<psa03 value="0.614934528061209" flag="0"/>
			<psa10 value="0.112023340996559" flag="0"/>
			<psa30 value="0.018813432964269" flag="0"/>
		</comp>
		<comp name="--.HNN" depth="0.0">
			<acc value="0.407319053307037" flag="0"/>
			<vel value="0.141424224067662" flag="0"/>
			<psa03 value="0.80140217229417" flag="0"/>
			<psa10 value="0.285832565004638" flag="0"/>
			<psa30 value="0.0104640956949847" flag="0"/>
		</comp>
		<comp name="--.HNZ" depth="0.0">
			<acc value="0.405941562018416" flag="0"/>
			<vel value="0.153053492931712" flag="0"/>
			<psa03 value="0.702725385441321" flag="0"/>
			<psa10 value="0.166452391654041" flag="0"/>
			<psa30 value="0.0165031432522472" flag="0"/>
		</comp>
	</station>
	<station code="AST1" name="AST1" netid="HI" source="ITSAK Strong Motion Network" insttype="" lat="38.5416" lon="21.0895">
		<comp name="--.HNE" depth="0.0">
			<acc value="0.222192113657181" flag="0"/>
			<vel value="0.175497989449686" flag="0"/>
			<psa03 value="0.60967542967175" flag="0"/>
			<psa10 value="0.278012666974772" flag="0"/>
			<psa30 value="0.0132300647601939" flag="0"/>
		</comp>
		<comp name="--.HNN" depth="0.0">
			<acc value="0.171141341112967" flag="0"/>
			<vel value="0.153706095809867" flag="0"/>
			<psa03 value="0.519428201235777" flag="0"/>
			<psa10 value="0.182134520518114" flag="0"/>
			<psa30 value="0.0141821311632539" flag="0"/>
		</comp>
		<comp name="--.HNZ" depth="0.0">
			<acc value="0.115462222522873" flag="0"/>
			<vel value="0.115746397093042" flag="0"/>
			<psa03 value="0.3193349043702" flag="0"/>
			<psa10 value="0.168744783513751" flag="0"/>
			<psa30 value="0.00895023457578184" flag="0"/>
		</comp>
	</station>
	<station code="GRE3" name="GRE3" netid="HI" source="ITSAK Strong Motion Network" insttype="" lat="40.08481" lon="21.43829">
		<comp name="--.HNE" depth="0.0">
			<acc value="0.0581263437140771" flag="0"/>
			<vel value="0.054358567346344" flag="0"/>
			<psa03 value="0.179774263329326" flag="0"/>
			<psa10 value="0.0439145203714533" flag="0"/>
			<psa30 value="0.00921358368803474" flag="0"/>
		</comp>
		<comp name="--.HNN" depth="0.0">
			<acc value="0.0747616700133756" flag="0"/>
			<vel value="0.0470279905465991" flag="0"/>
			<psa03 value="0.225969198517069" flag="0"/>
			<psa10 value="0.0425787568836778" flag="0"/>
			<psa30 value="0.0214940255403715" flag="0"/>
		</comp>
		<comp name="--.HNZ" depth="0.0">
			<acc value="0.0497673377173049" flag="0"/>
			<vel value="0.0308950957319365" flag="0"/>
			<psa03 value="0.101177223327827" flag="0"/>
			<psa10 value="0.0309798666391235" flag="0"/>
			<psa30 value="0.0129830792319481" flag="0"/>
		</comp>
	</station>
	<station code="ITS1" name="ITS1" netid="HI" source="ITSAK Strong Motion Network" insttype="" lat="40.605" lon="23.0123">
		<comp name="--.HNE" depth="0.0">
			<acc value="0.00971836589965708" flag="0"/>
			<vel value="0.00743774661895473" flag="0"/>
			<psa03 value="0.0346038340008424" flag="0"/>
			<psa10 value="0.0116583185563883" flag="0"/>
			<psa30 value="0.00217334647353764" flag="0"/>
		</comp>
		<comp name="--.HNN" depth="0.0">
			<acc value="0.0110427686385816" flag="0"/>
			<vel value="0.0103104299233319" flag="0"/>
			<psa03 value="0.027583816875827" flag="0"/>
			<psa10 value="0.0158669992358282" flag="0"/>
			<psa30 value="0.00294811154792147" flag="0"/>
		</comp>
		<comp name="--.HNZ" depth="0.0">
			<acc value="0.00955179759812146" flag="0"/>
			<vel value="0.00615522132701189" flag="0"/>
			<psa03 value="0.0249592419689535" flag="0"/>
			<psa10 value="0.00690546698454745" flag="0"/>
			<psa30 value="0.00247060887404612" flag="0"/>
		</comp>
	</station>
	<station code="JAN2" name="JAN2" netid="HI" source="ITSAK Strong Motion Network" insttype="" lat="39.664" lon="20.85222">
		<comp name="--.HNE" depth="0.0">
			<acc value="0.322873739970772" flag="0"/>
			<vel value="0.149610718076991" flag="0"/>
			<psa03 value="1.52632077792741" flag="0"/>
			<psa10 value="0.0570608212493678" flag="0"/>
			<psa30 value="0.00887218357195255" flag="0"/>
		</comp>
		<comp name="--.HNN" depth="0.0">
			<acc value="0.320889340040972" flag="0"/>
			<vel value="0.143386368393254" flag="0"/>
			<psa03 value="1.01064545030109" flag="0"/>
			<psa10 value="0.0643685215986516" flag="0"/>
			<psa30 value="0.00523408173222722" flag="0"/>
		</comp>
		<comp name="--.HNZ" depth="0.0">
			<acc value="0.188623596883177" flag="0"/>
			<vel value="0.054741188547176" flag="0"/>
			<psa03 value="0.220182836032286" flag="0"/>
			<psa10 value="0.0342204844391487" flag="0"/>
			<psa30 value="0.00535367757153129" flag="0"/>
		</comp>
	</station>
	<station code="JAN3" name="JAN3" netid="HI" source="ITSAK Strong Motion Network" insttype="" lat="39.684" lon="20.8379">
		<comp name="--.HNE" depth="0.0">
			<acc value="0.437370081674163" flag="0"/>
			<vel value="0.149228581701601" flag="0"/>
			<psa03 value="0.66217707431471" flag="0"/>
			<psa10 value="0.069054562025832" flag="0"/>
			<psa30 value="0.0077353324278103" flag="0"/>
		</comp>
		<comp name="--.HNN" depth="0.0">
			<acc value="0.362155377105317" flag="0"/>
			<vel value="0.116514119981457" flag="0"/>
			<psa03 value="0.668556038556451" flag="0"/>
			<psa10 value="0.0436847914030366" flag="0"/>
			<psa30 value="0.00637824919437297" flag="0"/>
		</comp>
		<comp name="--.HNZ" depth="0.0">
			<acc value="0.173790775436869" flag="0"/>
			<vel value="0.0613498949277893" flag="0"/>
			<psa03 value="0.345122841861165" flag="0"/>
			<psa10 value="0.0299648487741714" flag="0"/>
			<psa30 value="0.00665845734012077" flag="0"/>
		</comp>
	</station>
	<station code="KAR2" name="KAR2" netid="HI" source="ITSAK Strong Motion Network" insttype="" lat="39.365759" lon="21.91933">
		<comp name="--.HNE" depth="0.0">
			<acc value="0.646432321037189" flag="0"/>
			<vel value="0.336605426245415" flag="0"/>
			<psa03 value="1.30079508795727" flag="0"/>
			<psa10 value="0.38425774518978" flag="0"/>
			<psa30 value="0.0755781333470826" flag="0"/>
		</comp>
		<comp name="--.HNN" depth="0.0">
			<acc value="1.21459290762487" flag="0"/>
			<vel value="0.442734437797593" flag="0"/>
			<psa03 value="2.09653405175834" flag="0"/>
			<psa10 value="0.409739363221917" flag="0"/>
			<psa30 value="0.0808803779280974" flag="0"/>
		</comp>
		<comp name="--.HNZ" depth="0.0">
			<acc value="0.555986964846266" flag="0"/>
			<vel value="0.209101269666075" flag="0"/>
			<psa03 value="1.45974736776571" flag="0"/>
			<psa10 value="0.206153886683242" flag="0"/>
			<psa30 value="0.0414350382012615" flag="0"/>
		</comp>
	</station>
	<station code="KAS2" name="KAS2" netid="HI" source="ITSAK Strong Motion Network" insttype="" lat="40.504878" lon="21.280507">
		<comp name="--.HNE" depth="0.0">
			<acc value="0.0238691125383385" flag="0"/>
			<vel value="0.0213125213407017" flag="0"/>
			<psa03 value="0.0484103684076546" flag="0"/>
			<psa10 value="0.0281080913981078" flag="0"/>
			<psa30 value="0.00497114889755066" flag="0"/>
		</comp>
		<comp name="--.HNN" depth="0.0">
			<acc value="0.0237286541237618" flag="0"/>
			<vel value="0.0149909464554134" flag="0"/>
			<psa03 value="0.0834904995858474" flag="0"/>
			<psa10 value="0.0243832565210777" flag="0"/>
			<psa30 value="0.00401352962664038" flag="0"/>
		</comp>
		<comp name="--.HNZ" depth="0.0">
			<acc value="0.0114164032911305" flag="0"/>
			<vel value="0.0111972540553992" flag="0"/>
			<psa03 value="0.0336163545226733" flag="0"/>
			<psa10 value="0.0154827900338541" flag="0"/>
			<psa30 value="0.00275401556501517" flag="0"/>
		</comp>
	</station>
	<station code="KLR1" name="KLR1" netid="HI" source="ITSAK Strong Motion Network" insttype="" lat="40.58251" lon="22.949554">
		<comp name="--.HNE" depth="0.0">
			<acc value="0.0106014049027959" flag="0"/>
			<vel value="0.0127240871824996" flag="0"/>
			<psa03 value="0.0378162942063984" flag="0"/>
			<psa10 value="0.0329015520663519" flag="0"/>
			<psa30 value="0.00685190057145214" flag="0"/>
		</comp>
		<comp name="--.HNN" depth="0.0">
