<stationlist xmlns:esm="https://esm-db.eu/esmws/shakemap/1/" created="1781488488">
	<station code="SRN" name="SRN" netid="AC" source="Albanian Seismological Network (AC)" insttype="" lat="39.880001" lon="20.0005" esm:processing="automatic (Paolucci et al 2011)" esm:quality="best">
		<comp name="01.HNE" depth="0.0">
			<acc value="0.0667177661546358" flag="0"/>
			<vel value="0.0554168514082649" flag="0"/>
			<psa03 value="0.19110161787764" flag="0"/>
			<psa10 value="0.0863924255742022" flag="0"/>
			<psa30 value="0.0156604407606763" flag="0"/>
		</comp>
		<comp name="01.HNN" depth="0.0">
			<acc value="0.0842073749152634" flag="0"/>
			<vel value="0.0522311502578068" flag="0"/>
			<psa03 value="0.168078665636711" flag="0"/>
			<psa10 value="0.0873589246000194" flag="0"/>
			<psa30 value="0.00950756316273216" flag="0"/>
		</comp>
		<comp name="01.HNZ" depth="0.0">
			<acc value="0.0756394893621287" flag="0"/>
			<vel value="0.063808862610802" flag="0"/>
			<psa03 value="0.150809948752301" flag="0"/>
			<psa10 value="0.0986407969686952" flag="0"/>
			<psa30 value="0.0107761080309373" flag="0"/>
		</comp>
	</station>
	<station code="AGRP" name="AGRP" netid="CL" source="Corinth Riff Laboratory (CRLNET)" insttype="" lat="38.3959" lon="21.72277" esm:processing="automatic (Paolucci et al 2011)" esm:quality="best">
		<comp name="00.HNE" depth="0.0">
			<acc value="0.0948733627007964" flag="0"/>
			<vel value="0.0461688722040793" flag="0"/>
			<psa03 value="0.126309596557543" flag="0"/>
			<psa10 value="0.0843121102635226" flag="0"/>
			<psa30 value="0.00715729830255301" flag="0"/>
		</comp>
		<comp name="00.HNN" depth="0.0">
			<acc value="0.0740728941678662" flag="0"/>
			<vel value="0.0573195084114851" flag="0"/>
			<psa03 value="0.13847411073024" flag="0"/>
			<psa10 value="0.114785856499653" flag="0"/>
			<psa30 value="0.00806307913942144" flag="0"/>
		</comp>
		<comp name="00.HNZ" depth="0.0">
			<acc value="0.0492235533377969" flag="0"/>
			<vel value="0.0437611039905048" flag="0"/>
			<psa03 value="0.085122467070684" flag="0"/>
			<psa10 value="0.0613035260577392" flag="0"/>
			<psa30 value="0.00633495174279596" flag="0"/>
		</comp>
	</station>
	<station code="ROD3" name="ROD3" netid="CL" source="Corinth Riff Laboratory (CRLNET)" insttype="" lat="38.30811" lon="21.89204" esm:processing="automatic (Paolucci et al 2011)" esm:quality="best">
		<comp name="00.HNE" depth="0.0">
			<acc value="0.110425432814348" flag="0"/>
			<vel value="0.0598343028296262" flag="0"/>
			<psa03 value="0.458485914108344" flag="0"/>
			<psa10 value="0.0586615210378729" flag="0"/>
			<psa30 value="0.0047041162079455" flag="0"/>
		</comp>
		<comp name="00.HNN" depth="0.0">
			<acc value="0.116407508501802" flag="0"/>
			<vel value="0.0623382519467767" flag="0"/>
			<psa03 value="0.344696438614042" flag="0"/>
			<psa10 value="0.0545985918887566" flag="0"/>
			<psa30 value="0.00533933620481946" flag="0"/>
		</comp>
		<comp name="00.HNZ" depth="0.0">
			<acc value="0.0651944664109752" flag="0"/>
			<vel value="0.0273171950512794" flag="0"/>
			<psa03 value="0.0877187796886529" flag="0"/>
			<psa10 value="0.0513178258041047" flag="0"/>
			<psa30 value="0.00403323968233484" flag="0"/>
		</comp>
	</station>
	<station code="TRIZ" name="TRIZ" netid="CL" source="Corinth Riff Laboratory (CRLNET)" insttype="" lat="38.36543" lon="22.07272" esm:processing="automatic (Paolucci et al 2011)" esm:quality="best">
		<comp name="00.HNE" depth="0.0">
			<acc value="0.101293703850335" flag="0"/>
			<vel value="0.0512037575248361" flag="0"/>
			<psa03 value="0.267521722001154" flag="0"/>
			<psa10 value="0.0619873988609561" flag="0"/>
			<psa30 value="0.00475536876984286" flag="0"/>
		</comp>
		<comp name="00.HNN" depth="0.0">
			<acc value="0.145572966951678" flag="0"/>
			<vel value="0.0704329278530533" flag="0"/>
			<psa03 value="0.511915870247384" flag="0"/>
			<psa10 value="0.0639797858468158" flag="0"/>
			<psa30 value="0.00645508386762632" flag="0"/>
		</comp>
		<comp name="00.HNZ" depth="0.0">
			<acc value="0.108342964175145" flag="0"/>
			<vel value="0.0353194316511516" flag="0"/>
			<psa03 value="0.131028190391227" flag="0"/>
			<psa10 value="0.0460246839094316" flag="0"/>
			<psa30 value="0.00348958450118054" flag="0"/>
		</comp>
	</station>
	<station code="AIA1" name="AIA1" netid="HI" source="ITSAK Strong Motion Network" insttype="" lat="40.1641" lon="21.8202" esm:processing="automatic (Paolucci et al 2011)" esm:quality="best">
		<comp name="--.HNE" depth="0.0">
			<acc value="0.122127686098342" flag="0"/>
			<vel value="0.0675485440822801" flag="0"/>
			<psa03 value="0.40222622884697" flag="0"/>
			<psa10 value="0.0298814938773186" flag="0"/>
			<psa30 value="0.00503481561515824" flag="0"/>
		</comp>
		<comp name="--.HNN" depth="0.0">
			<acc value="0.0953763088535057" flag="0"/>
			<vel value="0.0499113048361167" flag="0"/>
			<psa03 value="0.244928808664859" flag="0"/>
			<psa10 value="0.04078815951539" flag="0"/>
			<psa30 value="0.00598818543789677" flag="0"/>
		</comp>
		<comp name="--.HNZ" depth="0.0">
			<acc value="0.0503693217566046" flag="0"/>
			<vel value="0.0280926015750599" flag="0"/>
			<psa03 value="0.113871876786316" flag="0"/>
			<psa10 value="0.0237011107072653" flag="0"/>
			<psa30 value="0.00306404297780974" flag="0"/>
		</comp>
	</station>
	<station code="AIG2" name="AIG2" netid="HI" source="ITSAK Strong Motion Network" insttype="" lat="38.2417" lon="22.0726" esm:processing="automatic (Paolucci et al 2011)" esm:quality="best">
		<comp name="--.HNE" depth="0.0">
			<acc value="0.0503665846835011" flag="0"/>
			<vel value="0.0428334770332733" flag="0"/>
			<psa03 value="0.0752985662854702" flag="0"/>
			<psa10 value="0.0593561008003734" flag="0"/>
			<psa30 value="0.00682619761875767" flag="0"/>
		</comp>
		<comp name="--.HNN" depth="0.0">
			<acc value="0.0369423007518056" flag="0"/>
			<vel value="0.0358684934008875" flag="0"/>
			<psa03 value="0.0883348413330467" flag="0"/>
			<psa10 value="0.046389170554883" flag="0"/>
			<psa30 value="0.0078038644677216" flag="0"/>
		</comp>
		<comp name="--.HNZ" depth="0.0">
			<acc value="0.0244530061574333" flag="0"/>
			<vel value="0.021687085972707" flag="0"/>
			<psa03 value="0.0483903566653082" flag="0"/>
			<psa10 value="0.038087710623904" flag="0"/>
			<psa30 value="0.00468246935728122" flag="0"/>
		</comp>
	</station>
	<station code="AKR1" name="AKR1" netid="HI" source="ITSAK Strong Motion Network" insttype="" lat="38.153583" lon="22.31326" esm:processing="automatic (Paolucci et al 2011)" esm:quality="best">
		<comp name="--.HNE" depth="0.0">
			<acc value="0.0414105171020795" flag="0"/>
			<vel value="0.0266497706134098" flag="0"/>
			<psa03 value="0.0848343750693361" flag="0"/>
			<psa10 value="0.0474039427785626" flag="0"/>
			<psa30 value="0.00410930305449328" flag="0"/>
		</comp>
		<comp name="--.HNN" depth="0.0">
			<acc value="0.0409407071626944" flag="0"/>
			<vel value="0.0277328333085129" flag="0"/>
			<psa03 value="0.111765997698828" flag="0"/>
			<psa10 value="0.0494468981143273" flag="0"/>
			<psa30 value="0.00400474362794442" flag="0"/>
		</comp>
		<comp name="--.HNZ" depth="0.0">
			<acc value="0.0268219792113265" flag="0"/>
			<vel value="0.0187736793859866" flag="0"/>
			<psa03 value="0.0443502661124701" flag="0"/>
			<psa10 value="0.0244101495526091" flag="0"/>
			<psa30 value="0.00228316499847596" flag="0"/>
		</comp>
	</station>
	<station code="ARG2" name="ARG2" netid="HI" source="ITSAK Strong Motion Network" insttype="" lat="38.1783" lon="20.4878" esm:processing="automatic (Paolucci et al 2011)" esm:quality="best">
		<comp name="--.HNE" depth="0.0">
			<acc value="0.155624158141548" flag="0"/>
			<vel value="0.132811475666552" flag="0"/>
			<psa03 value="0.611997708511327" flag="0"/>
			<psa10 value="0.135927094502915" flag="0"/>
			<psa30 value="0.0094056330770309" flag="0"/>
		</comp>
		<comp name="--.HNN" depth="0.0">
			<acc value="0.138597285409597" flag="0"/>
			<vel value="0.110252417932486" flag="0"/>
			<psa03 value="0.332737667237463" flag="0"/>
			<psa10 value="0.10094657721532" flag="0"/>
			<psa30 value="0.0102335079196762" flag="0"/>
		</comp>
		<comp name="--.HNZ" depth="0.0">
			<acc value="0.0858659009355392" flag="0"/>
			<vel value="0.0839114541274877" flag="0"/>
			<psa03 value="0.383029832179902" flag="0"/>
			<psa10 value="0.0943574432175308" flag="0"/>
			<psa30 value="0.00686235084706494" flag="0"/>
		</comp>
	</station>
	<station code="AST1" name="AST1" netid="HI" source="ITSAK Strong Motion Network" insttype="" lat="38.5416" lon="21.0895" esm:processing="automatic (Paolucci et al 2011)" esm:quality="best">
		<comp name="--.HNE" depth="0.0">
			<acc value="0.222192113657181" flag="0"/>
			<vel value="0.175497989449686" flag="0"/>
			<psa03 value="0.60967542967175" flag="0"/>
			<psa10 value="0.278012666974772" flag="0"/>
			<psa30 value="0.0132300647601939" flag="0"/>
		</comp>
		<comp name="--.HNN" depth="0.0">
			<acc value="0.171141341112967" flag="0"/>
			<vel value="0.153706095809867" flag="0"/>
			<psa03 value="0.519428201235777" flag="0"/>
			<psa10 value="0.182134520518114" flag="0"/>
			<psa30 value="0.0141821311632539" flag="0"/>
		</comp>
		<comp name="--.HNZ" depth="0.0">
			<acc value="0.115462222522873" flag="0"/>
			<vel value="0.115746397093042" flag="0"/>
			<psa03 value="0.3193349043702" flag="0"/>
			<psa10 value="0.168744783513751" flag="0"/>
			<psa30 value="0.00895023457578184" flag="0"/>
		</comp>
	</station>
	<station code="GRE3" name="GRE3" netid="HI" source="ITSAK Strong Motion Network" insttype="" lat="40.08481" lon="21.43829" esm:processing="automatic (Paolucci et al 2011)" esm:quality="best">
		<comp name="--.HNE" depth="0.0">
			<acc value="0.0581263437140771" flag="0"/>
			<vel value="0.054358567346344" flag="0"/>
			<psa03 value="0.179774263329326" flag="0"/>
			<psa10 value="0.0439145203714533" flag="0"/>
			<psa30 value="0.00921358368803474" flag="0"/>
		</comp>
		<comp name="--.HNN" depth="0.0">
			<acc value="0.0747616700133756" flag="0"/>
			<vel value="0.0470279905465991" flag="0"/>
			<psa03 value="0.225969198517069" flag="0"/>
			<psa10 value="0.0425787568836778" flag="0"/>
			<psa30 value="0.0214940255403715" flag="0"/>
		</comp>
		<comp name="--.HNZ" depth="0.0">
			<acc value="0.0497673377173049" flag="0"/>
			<vel value="0.0308950957319365" flag="0"/>
			<psa03 value="0.101177223327827" flag="0"/>
			<psa10 value="0.0309798666391235" flag="0"/>
			<psa30 value="0.0129830792319481" flag="0"/>
		</comp>
	</station>
	<station code="ITS1" name="ITS1" netid="HI" source="ITSAK Strong Motion Network" insttype="" lat="40.605" lon="23.0123" esm:processing="automatic (Paolucci et al 2011)" esm:quality="best">
		<comp name="--.HNE" depth="0.0">
			<acc value="0.00971836589965708" flag="0"/>
			<vel value="0.00743774661895473" flag="0"/>
			<psa03 value="0.0346038340008424" flag="0"/>
			<psa10 value="0.0116583185563883" flag="0"/>
			<psa30 value="0.00217334647353764" flag="0"/>
		</comp>
		<comp name="--.HNN" depth="0.0">
			<acc value="0.0110427686385816" flag="0"/>
			<vel value="0.0103104299233319" flag="0"/>
			<psa03 value="0.027583816875827" flag="0"/>
			<psa10 value="0.0158669992358282" flag="0"/>
			<psa30 value="0.00294811154792147" flag="0"/>
		</comp>
		<comp name="--.HNZ" depth="0.0">
			<acc value="0.00955179759812146" flag="0"/>
			<vel value="0.00615522132701189" flag="0"/>
			<psa03 value="0.0249592419689535" flag="0"/>
			<psa10 value="0.00690546698454745" flag="0"/>
			<psa30 value="0.00247060887404612" flag="0"/>
		</comp>
	</station>
	<station code="JAN2" name="JAN2" netid="HI" source="ITSAK Strong Motion Network" insttype="" lat="39.664" lon="20.85222" esm:processing="automatic (Paolucci et al 2011)" esm:quality="best">
		<comp name="--.HNE" depth="0.0">
			<acc value="0.322873739970772" flag="0"/>
			<vel value="0.149610718076991" flag="0"/>
			<psa03 value="1.52632077792741" flag="0"/>
			<psa10 value="0.0570608212493678" flag="0"/>
			<psa30 value="0.00887218357195255" flag="0"/>
		</comp>
		<comp name="--.HNN" depth="0.0">
			<acc value="0.320889340040972" flag="0"/>
			<vel value="0.143386368393254" flag="0"/>
			<psa03 value="1.01064545030109" flag="0"/>
			<psa10 value="0.0643685215986516" flag="0"/>
			<psa30 value="0.00523408173222722" flag="0"/>
		</comp>
		<comp name="--.HNZ" depth="0.0">
			<acc value="0.188623596883177" flag="0"/>
			<vel value="0.054741188547176" flag="0"/>
			<psa03 value="0.220182836032286" flag="0"/>
			<psa10 value="0.0342204844391487" flag="0"/>
			<psa30 value="0.00535367757153129" flag="0"/>
		</comp>
	</station>
	<station code="JAN3" name="JAN3" netid="HI" source="ITSAK Strong Motion Network" insttype="" lat="39.684" lon="20.8379" esm:processing="automatic (Paolucci et al 2011)" esm:quality="best">
		<comp name="--.HNE" depth="0.0">
			<acc value="0.437370081674163" flag="0"/>
			<vel value="0.149228581701601" flag="0"/>
			<psa03 value="0.66217707431471" flag="0"/>
			<psa10 value="0.069054562025832" flag="0"/>
			<psa30 value="0.0077353324278103" flag="0"/>
		</comp>
		<comp name="--.HNN" depth="0.0">
			<acc value="0.362155377105317" flag="0"/>
			<vel value="0.116514119981457" flag="0"/>
			<psa03 value="0.668556038556451" flag="0"/>
			<psa10 value="0.0436847914030366" flag="0"/>
			<psa30 value="0.00637824919437297" flag="0"/>
		</comp>
		<comp name="--.HNZ" depth="0.0">
			<acc value="0.173790775436869" flag="0"/>
			<vel value="0.0613498949277893" flag="0"/>
			<psa03 value="0.345122841861165" flag="0"/>
			<psa10 value="0.0299648487741714" flag="0"/>
			<psa30 value="0.00665845734012077" flag="0"/>
		</comp>
	</station>
	<station code="KLV1" name="KLV1" netid="HI" source="ITSAK Strong Motion Network" insttype="" lat="38.03256" lon="22.10797" esm:processing="automatic (Paolucci et al 2011)" esm:quality="best">
		<comp name="--.HNE" depth="0.0">
			<acc value="0.0468817610985783" flag="0"/>
			<vel value="0.0409231573922334" flag="0"/>
			<psa03 value="0.0887118975611713" flag="0"/>
			<psa10 value="0.0666471425461064" flag="0"/>
			<psa30 value="0.00721207359781416" flag="0"/>
		</comp>
		<comp name="--.HNN" depth="0.0">
			<acc value="0.0568697457959916" flag="0"/>
			<vel value="0.0429396451340073" flag="0"/>
			<psa03 value="0.145260143604947" flag="0"/>
			<psa10 value="0.0608760839918001" flag="0"/>
			<psa30 value="0.00461256597652531" flag="0"/>
		</comp>
		<comp name="--.HNZ" depth="0.0">
			<acc value="0.0313871974775764" flag="0"/>
			<vel value="0.0216878300602934" flag="0"/>
			<psa03 value="0.0555394135885769" flag="0"/>
			<psa10 value="0.0383321593174303" flag="0"/>
			<psa30 value="0.00336334238826013" flag="0"/>
		</comp>
	</station>
	<station code="KMV1" name="KMV1" netid="HI" source="ITSAK Strong Motion Network" insttype="" lat="38.7794" lon="22.7846" esm:processing="automatic (Paolucci et al 2011)" esm:quality="best">
		<comp name="--.HNE" depth="0.0">
			<acc value="0.0582833738581578" flag="0"/>
			<vel value="0.0287500159140098" flag="0"/>
			<psa03 value="0.0961826320439997" flag="0"/>
			<psa10 value="0.0503423036805516" flag="0"/>
			<psa30 value="0.00400082295155218" flag="0"/>
		</comp>
		<comp name="--.HNN" depth="0.0">
			<acc value="0.0585044742263511" flag="0"/>
			<vel value="0.0400277480977227" flag="0"/>
			<psa03 value="0.163741930432621" flag="0"/>
			<psa10 value="0.0662163515083144" flag="0"/>
			<psa30 value="0.0068106003355142" flag="0"/>
		</comp>
		<comp name="--.HNZ" depth="0.0">
			<acc value="0.0427940163915475" flag="0"/>
			<vel value="0.019071795093807" flag="0"/>
			<psa03 value="0.0618585926198415" flag="0"/>
			<psa10 value="0.0248350376993635" flag="0"/>
			<psa30 value="0.002075582497154" flag="0"/>
		</comp>
	</station>
	<station code="KOZ2" name="KOZ2" netid="HI" source="ITSAK Strong Motion Network" insttype="" lat="40.295728" lon="21.788123" esm:processing="automatic (Paolucci et al 2011)" esm:quality="best">
		<comp name="--.HNE" depth="0.0">
			<acc value="0.0731013281007643" flag="0"/>
			<vel value="0.0443626336751905" flag="0"/>
			<psa03 value="0.186630300841497" flag="0"/>
			<psa10 value="0.0250133020084991" flag="0"/>
			<psa30 value="0.00340694402665468" flag="0"/>
		</comp>
		<comp name="--.HNN" depth="0.0">
			<acc value="0.0918762537056136" flag="0"/>
			<vel value="0.0405557595113815" flag="0"/>
			<psa03 value="0.171783119371924" flag="0"/>
			<psa10 value="0.0195713783827665" flag="0"/>
			<psa30 value="0.00305696688405325" flag="0"/>
		</comp>
		<comp name="--.HNZ" depth="0.0">
			<acc value="0.0427701620192394" flag="0"/>
			<vel value="0.0187241064429021" flag="0"/>
			<psa03 value="0.120163220640304" flag="0"/>
			<psa10 value="0.0127501686986017" flag="0"/>
			<psa30 value="0.00262236101021371" flag="0"/>
		</comp>
	</station>
	<station code="KRI1" name="KRI1" netid="HI" source="ITSAK Strong Motion Network" insttype="" lat="37.6621" lon="20.8172" esm:processing="automatic (Paolucci et al 2011)" esm:quality="best">
		<comp name="--.HNE" depth="0.0">
			<acc value="0.0374259204408005" flag="0"/>
			<vel value="0.0275842929276697" flag="0"/>
			<psa03 value="0.0788595469746311" flag="0"/>
			<psa10 value="0.0426229310600002" flag="0"/>
			<psa30 value="0.00506104568610505" flag="0"/>
		</comp>
		<comp name="--.HNN" depth="0.0">
			<acc value="0.0408943911955691" flag="0"/>
			<vel value="0.0351606086957945" flag="0"/>
			<psa03 value="0.0624369538501012" flag="0"/>
			<psa10 value="0.0553041073756951" flag="0"/>
			<psa30 value="0.0066886676747405" flag="0"/>
		</comp>
		<comp name="--.HNZ" depth="0.0">
			<acc value="0.0198049817154853" flag="0"/>
			<vel value="0.0130760770650758" flag="0"/>
			<psa03 value="0.0509807001378505" flag="0"/>
			<psa10 value="0.018342080697828" flag="0"/>
			<psa30 value="0.00317419819171871" flag="0"/>
		</comp>
	</station>
	<station code="KRK1" name="KRK1" netid="HI" source="ITSAK Strong Motion Network" insttype="" lat="39.618861" lon="19.9202" esm:processing="automatic (Paolucci et al 2011)" esm:quality="best">
		<comp name="--.HNE" depth="0.0">
			<acc value="0.265679757694171" flag="0"/>
			<vel value="0.134098899896604" flag="0"/>
			<psa03 value="0.661688000249287" flag="0"/>
			<psa10 value="0.0783985685204042" flag="0"/>
			<psa30 value="0.00477980538864893" flag="0"/>
		</comp>
		<comp name="--.HNN" depth="0.0">
			<acc value="0.223435670630737" flag="0"/>
			<vel value="0.166759170718744" flag="0"/>
			<psa03 value="0.374562396253828" flag="0"/>
			<psa10 value="0.116334004056831" flag="0"/>
			<psa30 value="0.00758879022010823" flag="0"/>
		</comp>
		<comp name="--.HNZ" depth="0.0">
			<acc value="0.0915396516523291" flag="0"/>
			<vel value="0.0405417435731998" flag="0"/>
			<psa03 value="0.239319312063239" flag="0"/>
			<psa10 value="0.0203220749877324" flag="0"/>
			<psa30 value="0.00173669817273067" flag="0"/>
		</comp>
	</station>
	<station code="LAM2" name="LAM2" netid="HI" source="ITSAK Strong Motion Network" insttype="" lat="38.90203" lon="22.431301" esm:processing="automatic (Paolucci et al 2011)" esm:quality="best">
		<comp name="--.HNE" depth="0.0">
			<acc value="0.171940337673815" flag="0"/>
			<vel value="0.0491549675131571" flag="0"/>
			<psa03 value="0.231727038279029" flag="0"/>
			<psa10 value="0.0500400149054038" flag="0"/>
			<psa30 value="0.00468322024035687" flag="0"/>
		</comp>
		<comp name="--.HNN" depth="0.0">
			<acc value="0.145879674213601" flag="0"/>
			<vel value="0.0464632041052704" flag="0"/>
			<psa03 value="0.238347060156322" flag="0"/>
			<psa10 value="0.0430743559646847" flag="0"/>
			<psa30 value="0.00611812862932881" flag="0"/>
		</comp>
		<comp name="--.HNZ" depth="0.0">
			<acc value="0.0959876616183325" flag="0"/>
			<vel value="0.0225352691111773" flag="0"/>
			<psa03 value="0.0826096651932252" flag="0"/>
			<psa10 value="0.0244959964895473" flag="0"/>
			<psa30 value="0.00500677625768842" flag="0"/>
		</comp>
	</station>
