<?xml version="1.0" encoding="UTF-8" standalone="yes"?>
<!DOCTYPE earthquake SYSTEM "stationlist.dtd">
<stationlist created="" xmlns="ch.ethz.sed.shakemap.usgs.xml">
  <station code="AGRP" name="AGRP" netid="CL" insttype="CMG40-T" commtype="DIG" lat="38.3959" lon="21.7228">
    <comp name="00.HHN">
      <acc value="0.0784037337" flag="0"/>
      <vel value="0.0659391936" flag="0"/>
      <psa03 value="0.1374904254" flag="0"/>
      <psa10 value="0.1218001466" flag="0"/>
      <psa30 value="0.0084426617" flag="0"/>
    </comp>
    <comp name="00.HHE">
      <acc value="0.0951814661" flag="0"/>
      <vel value="0.0447427652" flag="0"/>
      <psa03 value="0.1281722367" flag="0"/>
      <psa10 value="0.0795727032" flag="0"/>
      <psa30 value="0.0076310011" flag="0"/>
    </comp>
    <comp name="00.HHZ">
      <acc value="0.0560733135" flag="0"/>
      <vel value="0.0418135666" flag="0"/>
      <psa03 value="0.0941626786" flag="0"/>
      <psa10 value="0.0646384128" flag="0"/>
      <psa30 value="0.0066758003" flag="0"/>
    </comp>
  </station>
  <station code="MALA" name="MALA" netid="CL" insttype="TRILLIUM-40" commtype="DIG" lat="38.3934" lon="21.8726">
    <comp name="01.HHE">
      <acc value="0.1728516616" flag="0"/>
      <vel value="0.1307423730" flag="0"/>
      <psa03 value="0.2568588313" flag="0"/>
      <psa10 value="0.4001093720" flag="0"/>
      <psa30 value="0.0161168482" flag="0"/>
    </comp>
    <comp name="01.HHN">
      <acc value="0.1758582259" flag="0"/>
      <vel value="0.1029755012" flag="0"/>
      <psa03 value="0.3758312400" flag="0"/>
      <psa10 value="0.1658457921" flag="0"/>
      <psa30 value="0.0108149870" flag="0"/>
    </comp>
    <comp name="01.HHZ">
      <acc value="0.0461787952" flag="0"/>
      <vel value="0.0427951083" flag="0"/>
      <psa03 value="0.1144303042" flag="0"/>
      <psa10 value="0.0663012830" flag="0"/>
      <psa30 value="0.0044138943" flag="0"/>
    </comp>
  </station>
  <station code="MG06" name="MG06" netid="CL" insttype="TRILLIUM-40" commtype="DIG" lat="38.4129" lon="21.9462">
    <comp name="06.HHE">
      <acc value="0.1118993941" flag="0"/>
      <vel value="0.0511464796" flag="0"/>
      <psa03 value="0.1815042595" flag="0"/>
      <psa10 value="0.0574353580" flag="0"/>
      <psa30 value="0.0050805537" flag="0"/>
    </comp>
    <comp name="06.HHN">
      <acc value="0.1388260175" flag="0"/>
      <vel value="0.0466129174" flag="0"/>
      <psa03 value="0.1121552951" flag="0"/>
      <psa10 value="0.0432162498" flag="0"/>
      <psa30 value="0.0034904978" flag="0"/>
    </comp>
    <comp name="06.HHZ">
      <acc value="0.0574476854" flag="0"/>
      <vel value="0.0231709455" flag="0"/>
      <psa03 value="0.0772851265" flag="0"/>
      <psa10 value="0.0438720650" flag="0"/>
      <psa30 value="0.0027850520" flag="0"/>
    </comp>
  </station>
  <station code="PSAM" name="PSAM" netid="CL" insttype="CMG40-T" commtype="DIG" lat="38.3218" lon="22.1842">
    <comp name="00.HHE">
      <acc value="0.0841188903" flag="0"/>
      <vel value="0.0592894419" flag="0"/>
      <psa03 value="0.1708147758" flag="0"/>
      <psa10 value="0.0800867164" flag="0"/>
      <psa30 value="0.0042210845" flag="0"/>
    </comp>
    <comp name="00.HHN">
      <acc value="0.0563864536" flag="0"/>
      <vel value="0.0379229806" flag="0"/>
      <psa03 value="0.0847372444" flag="0"/>
      <psa10 value="0.0688545343" flag="0"/>
      <psa30 value="0.0085539935" flag="0"/>
    </comp>
    <comp name="00.HHZ">
      <acc value="0.0349371062" flag="0"/>
      <vel value="0.0229334182" flag="0"/>
      <psa03 value="0.0699508130" flag="0"/>
      <psa10 value="0.0475427467" flag="0"/>
      <psa30 value="0.0031801650" flag="0"/>
    </comp>
  </station>
  <station code="ROD3" name="ROD3" netid="CL" insttype="CMG40-T" commtype="DIG" lat="38.3081" lon="21.892">
    <comp name="00.HHE">
      <acc value="0.1344430632" flag="0"/>
      <vel value="0.0751623771" flag="0"/>
      <psa03 value="0.5522601137" flag="0"/>
      <psa10 value="0.0707204246" flag="0"/>
      <psa30 value="0.0058887614" flag="0"/>
    </comp>
    <comp name="00.HHN">
      <acc value="0.1414815529" flag="0"/>
      <vel value="0.0758246093" flag="0"/>
      <psa03 value="0.4317650949" flag="0"/>
      <psa10 value="0.0633287949" flag="0"/>
      <psa30 value="0.0074590902" flag="0"/>
    </comp>
    <comp name="00.HHZ">
      <acc value="0.0838689751" flag="0"/>
      <vel value="0.0313628194" flag="0"/>
      <psa03 value="0.1262236459" flag="0"/>
      <psa10 value="0.0649202394" flag="0"/>
      <psa30 value="0.0026506033" flag="0"/>
    </comp>
  </station>
  <station code="TRIZ" name="TRIZ" netid="CL" insttype="STS-2" commtype="DIG" lat="38.3654" lon="22.0727">
    <comp name="00.HH2">
      <acc value="0.1396859305" flag="0"/>
      <vel value="0.0665310388" flag="0"/>
      <psa03 value="0.4203029660" flag="0"/>
      <psa10 value="0.0703921202" flag="0"/>
      <psa30 value="0.0054438384" flag="0"/>
    </comp>
    <comp name="00.HH3">
      <acc value="0.1179281903" flag="0"/>
      <vel value="0.0556763668" flag="0"/>
      <psa03 value="0.4180419487" flag="0"/>
      <psa10 value="0.0578051227" flag="0"/>
      <psa30 value="0.0045733082" flag="0"/>
    </comp>
    <comp name="00.HHZ">
      <acc value="0.1055069075" flag="0"/>
      <vel value="0.0344218799" flag="0"/>
      <psa03 value="0.1347520823" flag="0"/>
      <psa10 value="0.0462879369" flag="0"/>
      <psa30 value="0.0035936360" flag="0"/>
    </comp>
  </station>
  <station code="ZIRI" name="ZIRI" netid="CL" insttype="TRILLIUM-40" commtype="DIG" lat="38.3051" lon="21.9476">
    <comp name="01.HHE">
      <acc value="0.1215320945" flag="0"/>
      <vel value="0.0603801869" flag="0"/>
      <psa03 value="0.2432878714" flag="0"/>
      <psa10 value="0.0758230402" flag="0"/>
      <psa30 value="0.0049590897" flag="0"/>
    </comp>
    <comp name="01.HHN">
      <acc value="0.0998345926" flag="0"/>
      <vel value="0.0539760511" flag="0"/>
      <psa03 value="0.2433257255" flag="0"/>
      <psa10 value="0.0487237234" flag="0"/>
      <psa30 value="0.0051204554" flag="0"/>
    </comp>
    <comp name="01.HHZ">
      <acc value="0.0677559375" flag="0"/>
      <vel value="0.0240159002" flag="0"/>
      <psa03 value="0.1304295619" flag="0"/>
      <psa10 value="0.0196871197" flag="0"/>
      <psa30 value="0.0022777302" flag="0"/>
    </comp>
  </station>
  <station code="ANTK" name="ANTK" netid="HA" insttype="25" commtype="DIG" lat="38.3605" lon="22.6385">
    <comp name="--.HHZ">
      <acc value="0.0110087036" flag="0"/>
      <vel value="0.0041550446" flag="0"/>
      <psa03 value="0.0132676633" flag="0"/>
      <psa10 value="0.0060205063" flag="0"/>
      <psa30 value="0.0007149478" flag="0"/>
    </comp>
    <comp name="--.HHE">
      <acc value="0.0131155911" flag="0"/>
      <vel value="0.0064387356" flag="0"/>
      <psa03 value="0.0164405165" flag="0"/>
      <psa10 value="0.0099074670" flag="0"/>
      <psa30 value="0.0013837251" flag="0"/>
    </comp>
    <comp name="--.HHN">
      <acc value="0.0155598992" flag="0"/>
      <vel value="0.0069629839" flag="0"/>
      <psa03 value="0.0222839456" flag="0"/>
      <psa10 value="0.0113051709" flag="0"/>
      <psa30 value="0.0010176367" flag="0"/>
    </comp>
  </station>
  <station code="ATHR" name="ATHR" netid="HA" insttype="GEOtiny," commtype="DIG" lat="38.3172" lon="20.4165">
    <comp name="--.HHN">
      <acc value="0.0670887309" flag="0"/>
      <vel value="0.0811608257" flag="0"/>
      <psa03 value="0.1066050901" flag="0"/>
      <psa10 value="0.0988768675" flag="0"/>
      <psa30 value="0.0099191179" flag="0"/>
    </comp>
    <comp name="--.HHE">
      <acc value="0.0550584495" flag="0"/>
      <vel value="0.0557680142" flag="0"/>
      <psa03 value="0.1374820900" flag="0"/>
      <psa10 value="0.1040192083" flag="0"/>
      <psa30 value="0.0143769329" flag="0"/>
    </comp>
    <comp name="--.HHZ">
      <acc value="0.0319801565" flag="0"/>
      <vel value="0.0394029871" flag="0"/>
      <psa03 value="0.0747893258" flag="0"/>
      <psa10 value="0.0829454691" flag="0"/>
      <psa30 value="0.0092350055" flag="0"/>
    </comp>
  </station>
  <station code="AXAR" name="AXAR" netid="HA" insttype="Horizon,120s,1200" commtype="DIG" lat="38.7664" lon="22.659">
    <comp name="--.HHE">
      <acc value="0.1076160091" flag="0"/>
      <vel value="0.0420628833" flag="0"/>
      <psa03 value="0.2255277997" flag="0"/>
      <psa10 value="0.0528126823" flag="0"/>
      <psa30 value="0.0053002506" flag="0"/>
    </comp>
    <comp name="--.HHN">
      <acc value="0.0887462666" flag="0"/>
      <vel value="0.0458593718" flag="0"/>
      <psa03 value="0.2735739078" flag="0"/>
      <psa10 value="0.0611786609" flag="0"/>
      <psa30 value="0.0053276980" flag="0"/>
    </comp>
    <comp name="--.HHZ">
      <acc value="0.0723930273" flag="0"/>
      <vel value="0.0250901574" flag="0"/>
      <psa03 value="0.1341133029" flag="0"/>
      <psa10 value="0.0364728725" flag="0"/>
      <psa30 value="0.0024182641" flag="0"/>
    </comp>
  </station>
  <station code="KALE" name="KALE" netid="HA" insttype="40," commtype="DIG" lat="38.3911" lon="22.1398">
    <comp name="--.HHN">
      <acc value="0.1725624152" flag="0"/>
      <vel value="0.0586674237" flag="0"/>
      <psa03 value="0.2490133121" flag="0"/>
      <psa10 value="0.0648706358" flag="0"/>
      <psa30 value="0.0040330716" flag="0"/>
    </comp>
    <comp name="--.HHZ">
      <acc value="0.0953024731" flag="0"/>
      <vel value="0.0278376066" flag="0"/>
      <psa03 value="0.1145806989" flag="0"/>
      <psa10 value="0.0389875156" flag="0"/>
      <psa30 value="0.0032074437" flag="0"/>
    </comp>
    <comp name="--.HHE">
      <acc value="0.0956969695" flag="0"/>
      <vel value="0.0524468523" flag="0"/>
      <psa03 value="0.2036944004" flag="0"/>
      <psa10 value="0.0698213056" flag="0"/>
      <psa30 value="0.0040285563" flag="0"/>
    </comp>
  </station>
  <station code="LAKA" name="LAKA" netid="HA" insttype="120s," commtype="DIG" lat="38.2401" lon="21.9785">
    <comp name="--.HHN">
      <acc value="0.0208134252" flag="0"/>
      <vel value="0.0151674305" flag="0"/>
      <psa03 value="0.0462687688" flag="0"/>
      <psa10 value="0.0238867129" flag="0"/>
      <psa30 value="0.0018332653" flag="0"/>
    </comp>
    <comp name="--.HHE">
      <acc value="0.0197551107" flag="0"/>
      <vel value="0.0172327401" flag="0"/>
      <psa03 value="0.0441185368" flag="0"/>
      <psa10 value="0.0231380147" flag="0"/>
      <psa30 value="0.0033590197" flag="0"/>
    </comp>
    <comp name="--.HHZ">
      <acc value="0.0143686398" flag="0"/>
      <vel value="0.0125618659" flag="0"/>
      <psa03 value="0.0364861555" flag="0"/>
      <psa10 value="0.0195082618" flag="0"/>
      <psa30 value="0.0031382287" flag="0"/>
    </comp>
  </station>
  <station code="AGR3" name="AGR3" netid="HI" insttype="unknown" commtype="DIG" lat="38.5893" lon="21.4162">
    <comp name="--.HNZ">
      <acc value="0.2377735978" flag="0"/>
      <vel value="0.1663862460" flag="0"/>
      <psa03 value="0.5160630204" flag="0"/>
      <psa10 value="0.2872531612" flag="0"/>
      <psa30 value="0.0187300011" flag="0"/>
    </comp>
    <comp name="--.HNN">
      <acc value="0.3522635616" flag="0"/>
      <vel value="0.2818988683" flag="0"/>
      <psa03 value="0.6913233953" flag="0"/>
      <psa10 value="0.4744742571" flag="0"/>
      <psa30 value="0.0411555077" flag="0"/>
    </comp>
    <comp name="--.HNE">
      <acc value="0.4494976249" flag="0"/>
      <vel value="0.3008498477" flag="0"/>
      <psa03 value="1.1889854358" flag="0"/>
      <psa10 value="0.3898977180" flag="0"/>
      <psa30 value="0.0488245072" flag="0"/>
    </comp>
  </station>
  <station code="AIA1" name="AIA1" netid="HI" insttype="unknown" commtype="DIG" lat="40.1641" lon="21.8202">
    <comp name="--.HNN">
      <acc value="0.0952866213" flag="0"/>
      <vel value="0.0499198003" flag="0"/>
      <psa03 value="0.2414148123" flag="0"/>
      <psa10 value="0.0407292578" flag="0"/>
      <psa30 value="0.0050686820" flag="0"/>
    </comp>
    <comp name="--.HNZ">
      <acc value="0.0502818633" flag="0"/>
      <vel value="0.0274979104" flag="0"/>
      <psa03 value="0.1143968391" flag="0"/>
      <psa10 value="0.0235718199" flag="0"/>
      <psa30 value="0.0027942714" flag="0"/>
    </comp>
    <comp name="--.HNE">
      <acc value="0.1221041662" flag="0"/>
      <vel value="0.0685244644" flag="0"/>
      <psa03 value="0.4039520596" flag="0"/>
      <psa10 value="0.0299209303" flag="0"/>
      <psa30 value="0.0046644233" flag="0"/>
    </comp>
  </station>
  <station code="AKR1" name="AKR1" netid="HI" insttype="unknown" commtype="DIG" lat="38.1536" lon="22.3133">
    <comp name="--.HNN">
      <acc value="0.0409004277" flag="0"/>
      <vel value="0.0272218617" flag="0"/>
      <psa03 value="0.1104893732" flag="0"/>
      <psa10 value="0.0490370039" flag="0"/>
      <psa30 value="0.0032056966" flag="0"/>
    </comp>
    <comp name="--.HNE">
      <acc value="0.0413226061" flag="0"/>
      <vel value="0.0271415055" flag="0"/>
      <psa03 value="0.0859749976" flag="0"/>
      <psa10 value="0.0471964603" flag="0"/>
      <psa30 value="0.0038315297" flag="0"/>
    </comp>
    <comp name="--.HNZ">
      <acc value="0.0269849744" flag="0"/>
      <vel value="0.0163776235" flag="0"/>
      <psa03 value="0.0441789769" flag="0"/>
      <psa10 value="0.0246026144" flag="0"/>
      <psa30 value="0.0020973402" flag="0"/>
    </comp>
  </station>
  <station code="ARG2" name="ARG2" netid="HI" insttype="CMG-5TD,ACCELEROMETER,GURALP" commtype="DIG" lat="38.1783" lon="20.4878">
    <comp name="--.HNN">
      <acc value="0.1383350221" flag="0"/>
      <vel value="0.1079047470" flag="0"/>
      <psa03 value="0.3348817509" flag="0"/>
      <psa10 value="0.1012190504" flag="0"/>
      <psa30 value="0.0087027119" flag="0"/>
    </comp>
    <comp name="--.HNZ">
      <acc value="0.0858580516" flag="0"/>
      <vel value="0.0824385872" flag="0"/>
      <psa03 value="0.3820317190" flag="0"/>
      <psa10 value="0.0942038669" flag="0"/>
      <psa30 value="0.0064959044" flag="0"/>
    </comp>
    <comp name="--.HNE">
      <acc value="0.1552181141" flag="0"/>
      <vel value="0.1323823797" flag="0"/>
      <psa03 value="0.6141998292" flag="0"/>
      <psa10 value="0.1355726367" flag="0"/>
      <psa30 value="0.0082012406" flag="0"/>
    </comp>
  </station>
  <station code="ART2" name="ART2" netid="HI" insttype="CMG-5TD,ACCELEROMETER,GURALP" commtype="DIG" lat="39.1474" lon="20.9937">
    <comp name="--.HNE">
      <acc value="0.3914741610" flag="0"/>
      <vel value="0.1243886102" flag="0"/>
      <psa03 value="0.6026918669" flag="0"/>
      <psa10 value="0.1119840089" flag="0"/>
      <psa30 value="0.0165834519" flag="0"/>
    </comp>
    <comp name="--.HNN">
      <acc value="0.4238531469" flag="0"/>
      <vel value="0.1416199186" flag="0"/>
      <psa03 value="0.7981311334" flag="0"/>
      <psa10 value="0.2853999440" flag="0"/>
      <psa30 value="0.0091345842" flag="0"/>
    </comp>
    <comp name="--.HNZ">
      <acc value="0.4277284446" flag="0"/>
      <vel value="0.1538076288" flag="0"/>
      <psa03 value="0.6970210139" flag="0"/>
      <psa10 value="0.1669370142" flag="0"/>
      <psa30 value="0.0163830616" flag="0"/>
    </comp>
  </station>
  <station code="AST1" name="AST1" netid="HI" insttype="unknown" commtype="DIG" lat="38.5416" lon="21.0895">
    <comp name="--.HNE">
      <acc value="0.2210610370" flag="0"/>
      <vel value="0.1732507528" flag="0"/>
      <psa03 value="0.6157241513" flag="0"/>
      <psa10 value="0.2776739585" flag="0"/>
      <psa30 value="0.0125707203" flag="0"/>
    </comp>
    <comp name="--.HNN">
      <acc value="0.1711309513" flag="0"/>
      <vel value="0.1546620122" flag="0"/>
      <psa03 value="0.5147540810" flag="0"/>
      <psa10 value="0.1820953989" flag="0"/>
      <psa30 value="0.0129839273" flag="0"/>
    </comp>
    <comp name="--.HNZ">
      <acc value="0.1148782001" flag="0"/>
      <vel value="0.1070328255" flag="0"/>
      <psa03 value="0.3189415749" flag="0"/>
      <psa10 value="0.1686814333" flag="0"/>
      <psa30 value="0.0090576189" flag="0"/>
    </comp>
  </station>
  <station code="GRE3" name="GRE3" netid="HI" insttype="unknown" commtype="DIG" lat="40.0848" lon="21.4383">
    <comp name="--.HNE">
      <acc value="0.0582105008" flag="0"/>
      <vel value="0.0475795018" flag="0"/>
      <psa03 value="0.1793056660" flag="0"/>
      <psa10 value="0.0440530385" flag="0"/>
      <psa30 value="0.0088099720" flag="0"/>
    </comp>
    <comp name="--.HNN">
      <acc value="0.0757121801" flag="0"/>
      <vel value="0.0414193760" flag="0"/>
      <psa03 value="0.2203535879" flag="0"/>
      <psa10 value="0.0423670032" flag="0"/>
      <psa30 value="0.0188278018" flag="0"/>
    </comp>
    <comp name="--.HNZ">
      <acc value="0.0509596358" flag="0"/>
      <vel value="0.0305545364" flag="0"/>
      <psa03 value="0.0984271038" flag="0"/>
      <psa10 value="0.0306145492" flag="0"/>
      <psa30 value="0.0110903452" flag="0"/>
    </comp>
  </station>
  <station code="JAN2" name="JAN2" netid="HI" insttype="unknown" commtype="DIG" lat="39.664" lon="20.8522">
    <comp name="--.HNZ">
      <acc value="0.1906648008" flag="0"/>
      <vel value="0.0542317646" flag="0"/>
      <psa03 value="0.2230415653" flag="0"/>
      <psa10 value="0.0341837558" flag="0"/>
      <psa30 value="0.0049018525" flag="0"/>
    </comp>
    <comp name="--.HNN">
      <acc value="0.3224478457" flag="0"/>
      <vel value="0.1419560431" flag="0"/>
      <psa03 value="1.0273159625" flag="0"/>
      <psa10 value="0.0640856342" flag="0"/>
      <psa30 value="0.0048626060" flag="0"/>
    </comp>
    <comp name="--.HNE">
      <acc value="0.3233545084" flag="0"/>
      <vel value="0.1476935376" flag="0"/>
      <psa03 value="1.5119859354" flag="0"/>
      <psa10 value="0.0567819870" flag="0"/>
      <psa30 value="0.0074697397" flag="0"/>
    </comp>
  </station>
  <station code="JAN3" name="JAN3" netid="HI" insttype="unknown" commtype="DIG" lat="39.684" lon="20.8379">
    <comp name="--.HNN">
      <acc value="0.3610555967" flag="0"/>
      <vel value="0.1150582537" flag="0"/>
      <psa03 value="0.6565326417" flag="0"/>
      <psa10 value="0.0435348580" flag="0"/>
      <psa30 value="0.0059214626" flag="0"/>
    </comp>
    <comp name="--.HNZ">
      <acc value="0.1737553672" flag="0"/>
      <vel value="0.0598170622" flag="0"/>
      <psa03 value="0.3360798243" flag="0"/>
      <psa10 value="0.0299454147" flag="0"/>
      <psa30 value="0.0058768307" flag="0"/>
    </comp>
    <comp name="--.HNE">
      <acc value="0.4360125429" flag="0"/>
      <vel value="0.1496087827" flag="0"/>
      <psa03 value="0.6417966019" flag="0"/>
      <psa10 value="0.0687096727" flag="0"/>
      <psa30 value="0.0065096665" flag="0"/>
    </comp>
  </station>
  <station code="KAR2" name="KAR2" netid="HI" insttype="unknown" commtype="DIG" lat="39.3658" lon="21.9193">
    <comp name="--.HNE">
      <acc value="0.6431944198" flag="0"/>
      <vel value="0.3345301477" flag="0"/>
      <psa03 value="1.2819817042" flag="0"/>
      <psa10 value="0.3835553287" flag="0"/>
      <psa30 value="0.0705055235" flag="0"/>
    </comp>
    <comp name="--.HNN">
      <acc value="1.2178517989" flag="0"/>
      <vel value="0.4374349619" flag="0"/>
      <psa03 value="2.0868982258" flag="0"/>
      <psa10 value="0.4088706146" flag="0"/>
      <psa30 value="0.0755524651" flag="0"/>
    </comp>
    <comp name="--.HNZ">
      <acc value="0.5642203813" flag="0"/>
      <vel value="0.2112750230" flag="0"/>
      <psa03 value="1.4696883023" flag="0"/>
      <psa10 value="0.2063078430" flag="0"/>
      <psa30 value="0.0398754106" flag="0"/>
    </comp>
  </station>
