<?xml version="1.0" encoding="UTF-8" standalone="yes"?>
<!DOCTYPE earthquake SYSTEM "stationlist.dtd">
<stationlist created="" xmlns="ch.ethz.sed.shakemap.usgs.xml">
  <station code="AGRP" name="AGRP" netid="CL" insttype="CMG40-T" commtype="DIG" lat="38.3959" lon="21.7228">
    <comp name="00.HHE">
      <acc value="0.0952359560" flag="0"/>
      <vel value="0.0449438188" flag="0"/>
      <psa03 value="0.1281206084" flag="0"/>
      <psa10 value="0.0796069999" flag="0"/>
      <psa30 value="0.0079425481" flag="0"/>
    </comp>
    <comp name="00.HHN">
      <acc value="0.0786029725" flag="0"/>
      <vel value="0.0650185396" flag="0"/>
      <psa03 value="0.1376308579" flag="0"/>
      <psa10 value="0.1219225769" flag="0"/>
      <psa30 value="0.0086572942" flag="0"/>
    </comp>
    <comp name="00.HHZ">
      <acc value="0.0560872427" flag="0"/>
      <vel value="0.0440497152" flag="0"/>
      <psa03 value="0.0941704236" flag="0"/>
      <psa10 value="0.0644777294" flag="0"/>
      <psa30 value="0.0068227828" flag="0"/>
    </comp>
  </station>
  <station code="MALA" name="MALA" netid="CL" insttype="TRILLIUM-40" commtype="DIG" lat="38.3934" lon="21.8726">
    <comp name="01.HHE">
      <acc value="0.1728709791" flag="0"/>
      <vel value="0.1310769643" flag="0"/>
      <psa03 value="0.2569762012" flag="0"/>
      <psa10 value="0.4002527121" flag="0"/>
      <psa30 value="0.0167274023" flag="0"/>
    </comp>
    <comp name="01.HHN">
      <acc value="0.1760223023" flag="0"/>
      <vel value="0.1039339936" flag="0"/>
      <psa03 value="0.3759917513" flag="0"/>
      <psa10 value="0.1658035433" flag="0"/>
      <psa30 value="0.0123951536" flag="0"/>
    </comp>
    <comp name="01.HHZ">
      <acc value="0.0460564277" flag="0"/>
      <vel value="0.0426130665" flag="0"/>
      <psa03 value="0.1145327279" flag="0"/>
      <psa10 value="0.0664242964" flag="0"/>
      <psa30 value="0.0048431676" flag="0"/>
    </comp>
  </station>
  <station code="MG06" name="MG06" netid="CL" insttype="TRILLIUM-40" commtype="DIG" lat="38.4129" lon="21.9462">
    <comp name="06.HHE">
      <acc value="0.1119429945" flag="0"/>
      <vel value="0.0519818349" flag="0"/>
      <psa03 value="0.1814385850" flag="0"/>
      <psa10 value="0.0572857114" flag="0"/>
      <psa30 value="0.0058251484" flag="0"/>
    </comp>
    <comp name="06.HHN">
      <acc value="0.1388324516" flag="0"/>
      <vel value="0.0461972427" flag="0"/>
      <psa03 value="0.1121549188" flag="0"/>
      <psa10 value="0.0432680230" flag="0"/>
      <psa30 value="0.0039115087" flag="0"/>
    </comp>
    <comp name="06.HHZ">
      <acc value="0.0573854659" flag="0"/>
      <vel value="0.0229030078" flag="0"/>
      <psa03 value="0.0773093790" flag="0"/>
      <psa10 value="0.0439387620" flag="0"/>
      <psa30 value="0.0033620264" flag="0"/>
    </comp>
  </station>
  <station code="PSAM" name="PSAM" netid="CL" insttype="CMG40-T" commtype="DIG" lat="38.3218" lon="22.1842">
    <comp name="00.HHN">
      <acc value="0.0563825088" flag="0"/>
      <vel value="0.0398040434" flag="0"/>
      <psa03 value="0.0847224139" flag="0"/>
      <psa10 value="0.0691945404" flag="0"/>
      <psa30 value="0.0098490025" flag="0"/>
    </comp>
    <comp name="00.HHE">
      <acc value="0.0841550687" flag="0"/>
      <vel value="0.0593729452" flag="0"/>
      <psa03 value="0.1708535896" flag="0"/>
      <psa10 value="0.0800453318" flag="0"/>
      <psa30 value="0.0042019402" flag="0"/>
    </comp>
    <comp name="00.HHZ">
      <acc value="0.0349133820" flag="0"/>
      <vel value="0.0234840431" flag="0"/>
      <psa03 value="0.0699752871" flag="0"/>
      <psa10 value="0.0476828014" flag="0"/>
      <psa30 value="0.0033109183" flag="0"/>
    </comp>
  </station>
  <station code="ROD3" name="ROD3" netid="CL" insttype="CMG40-T" commtype="DIG" lat="38.3081" lon="21.892">
    <comp name="00.HHE">
      <acc value="0.1344561707" flag="0"/>
      <vel value="0.0760430100" flag="0"/>
      <psa03 value="0.5523189106" flag="0"/>
      <psa10 value="0.0707679014" flag="0"/>
      <psa30 value="0.0064860416" flag="0"/>
    </comp>
    <comp name="00.HHN">
      <acc value="0.1411133852" flag="0"/>
      <vel value="0.0726666548" flag="0"/>
      <psa03 value="0.4316377390" flag="0"/>
      <psa10 value="0.0632205992" flag="0"/>
      <psa30 value="0.0081750703" flag="0"/>
    </comp>
    <comp name="00.HHZ">
      <acc value="0.0838446882" flag="0"/>
      <vel value="0.0317354659" flag="0"/>
      <psa03 value="0.1263150881" flag="0"/>
      <psa10 value="0.0648395814" flag="0"/>
      <psa30 value="0.0031452681" flag="0"/>
    </comp>
  </station>
  <station code="TRIZ" name="TRIZ" netid="CL" insttype="STS-2" commtype="DIG" lat="38.3654" lon="22.0727">
    <comp name="00.HH2">
      <acc value="0.1397650849" flag="0"/>
      <vel value="0.0664515632" flag="0"/>
      <psa03 value="0.4203887932" flag="0"/>
      <psa10 value="0.0703784372" flag="0"/>
      <psa30 value="0.0055350005" flag="0"/>
    </comp>
    <comp name="00.HH3">
      <acc value="0.1179490537" flag="0"/>
      <vel value="0.0560617983" flag="0"/>
      <psa03 value="0.4180221051" flag="0"/>
      <psa10 value="0.0579034673" flag="0"/>
      <psa30 value="0.0049467933" flag="0"/>
    </comp>
    <comp name="00.HHZ">
      <acc value="0.1054863262" flag="0"/>
      <vel value="0.0347961576" flag="0"/>
      <psa03 value="0.1348165912" flag="0"/>
      <psa10 value="0.0460716051" flag="0"/>
      <psa30 value="0.0035305460" flag="0"/>
    </comp>
  </station>
  <station code="ZIRI" name="ZIRI" netid="CL" insttype="TRILLIUM-40" commtype="DIG" lat="38.3051" lon="21.9476">
    <comp name="01.HHE">
      <acc value="0.1216752669" flag="0"/>
      <vel value="0.0606427749" flag="0"/>
      <psa03 value="0.2433727494" flag="0"/>
      <psa10 value="0.0759134730" flag="0"/>
      <psa30 value="0.0051767518" flag="0"/>
    </comp>
    <comp name="01.HHN">
      <acc value="0.0999217988" flag="0"/>
      <vel value="0.0560086235" flag="0"/>
      <psa03 value="0.2436080092" flag="0"/>
      <psa10 value="0.0488474747" flag="0"/>
      <psa30 value="0.0056164871" flag="0"/>
    </comp>
    <comp name="01.HHZ">
      <acc value="0.0677108354" flag="0"/>
      <vel value="0.0239995232" flag="0"/>
      <psa03 value="0.1304523024" flag="0"/>
      <psa10 value="0.0196857834" flag="0"/>
      <psa30 value="0.0023796243" flag="0"/>
    </comp>
  </station>
  <station code="ANTK" name="ANTK" netid="HA" insttype="25" commtype="DIG" lat="38.3605" lon="22.6385">
    <comp name="--.HHN">
      <acc value="0.0155313253" flag="0"/>
      <vel value="0.0068977387" flag="0"/>
      <psa03 value="0.0222967914" flag="0"/>
      <psa10 value="0.0113321708" flag="0"/>
      <psa30 value="0.0011213214" flag="0"/>
    </comp>
    <comp name="--.HHE">
      <acc value="0.0131201284" flag="0"/>
      <vel value="0.0065168596" flag="0"/>
      <psa03 value="0.0164304949" flag="0"/>
      <psa10 value="0.0099188906" flag="0"/>
      <psa30 value="0.0015271843" flag="0"/>
    </comp>
    <comp name="--.HHZ">
      <acc value="0.0110065597" flag="0"/>
      <vel value="0.0041479664" flag="0"/>
      <psa03 value="0.0132607743" flag="0"/>
      <psa10 value="0.0059991197" flag="0"/>
      <psa30 value="0.0007959393" flag="0"/>
    </comp>
  </station>
  <station code="ATHR" name="ATHR" netid="HA" insttype="GEOtiny," commtype="DIG" lat="38.3172" lon="20.4165">
    <comp name="--.HHN">
      <acc value="0.0670352779" flag="0"/>
      <vel value="0.0828602926" flag="0"/>
      <psa03 value="0.1069559830" flag="0"/>
      <psa10 value="0.0986178819" flag="0"/>
      <psa30 value="0.0104554319" flag="0"/>
    </comp>
    <comp name="--.HHE">
      <acc value="0.0549059827" flag="0"/>
      <vel value="0.0552029098" flag="0"/>
      <psa03 value="0.1372934357" flag="0"/>
      <psa10 value="0.1041932942" flag="0"/>
      <psa30 value="0.0160072287" flag="0"/>
    </comp>
    <comp name="--.HHZ">
      <acc value="0.0323159071" flag="0"/>
      <vel value="0.0402086377" flag="0"/>
      <psa03 value="0.0746291558" flag="0"/>
      <psa10 value="0.0828773703" flag="0"/>
      <psa30 value="0.0104059999" flag="0"/>
    </comp>
  </station>
  <station code="AXAR" name="AXAR" netid="HA" insttype="Horizon,120s,1200" commtype="DIG" lat="38.7664" lon="22.659">
    <comp name="--.HHN">
      <acc value="0.0888270612" flag="0"/>
      <vel value="0.0462585198" flag="0"/>
      <psa03 value="0.2735937463" flag="0"/>
      <psa10 value="0.0613824744" flag="0"/>
      <psa30 value="0.0058767245" flag="0"/>
    </comp>
    <comp name="--.HHE">
      <acc value="0.1076536086" flag="0"/>
      <vel value="0.0422318021" flag="0"/>
      <psa03 value="0.2255149117" flag="0"/>
      <psa10 value="0.0529476210" flag="0"/>
      <psa30 value="0.0059070616" flag="0"/>
    </comp>
    <comp name="--.HHZ">
      <acc value="0.0724883678" flag="0"/>
      <vel value="0.0249541630" flag="0"/>
      <psa03 value="0.1341844867" flag="0"/>
      <psa10 value="0.0364804235" flag="0"/>
      <psa30 value="0.0026761313" flag="0"/>
    </comp>
  </station>
  <station code="DOMV" name="DOMV" netid="HA" insttype="60" commtype="DIG" lat="38.2569" lon="22.9795">
    <comp name="--.HHN">
      <acc value="0.0429581389" flag="0"/>
      <vel value="0.0146144110" flag="0"/>
      <psa03 value="0.0807508130" flag="0"/>
      <psa10 value="0.0204547670" flag="0"/>
      <psa30 value="0.0015805271" flag="0"/>
    </comp>
    <comp name="--.HHE">
      <acc value="0.0558926586" flag="0"/>
      <vel value="0.0261809191" flag="0"/>
      <psa03 value="0.1353300770" flag="0"/>
      <psa10 value="0.0290383325" flag="0"/>
      <psa30 value="0.0016779634" flag="0"/>
    </comp>
    <comp name="--.HHZ">
      <acc value="0.0309900177" flag="0"/>
      <vel value="0.0114781653" flag="0"/>
      <psa03 value="0.0577785221" flag="0"/>
      <psa10 value="0.0130796797" flag="0"/>
      <psa30 value="0.0012384429" flag="0"/>
    </comp>
  </station>
  <station code="HAVD" name="HAVD" netid="HA" insttype="GEOtiny," commtype="DIG" lat="38.2036" lon="20.3848">
    <comp name="--.HHN">
      <acc value="0.0627642277" flag="0"/>
      <vel value="0.0554269426" flag="0"/>
      <psa03 value="0.1574676243" flag="0"/>
      <psa10 value="0.0471325261" flag="0"/>
      <psa30 value="0.0046418793" flag="0"/>
    </comp>
    <comp name="--.HHE">
      <acc value="0.0825897749" flag="0"/>
      <vel value="0.0984432232" flag="0"/>
      <psa03 value="0.1726323392" flag="0"/>
      <psa10 value="0.1262841299" flag="0"/>
      <psa30 value="0.0096872981" flag="0"/>
    </comp>
    <comp name="--.HHZ">
      <acc value="0.0443643762" flag="0"/>
      <vel value="0.0153896079" flag="0"/>
      <psa03 value="0.0796790048" flag="0"/>
      <psa10 value="0.0156274546" flag="0"/>
      <psa30 value="0.0010382509" flag="0"/>
    </comp>
  </station>
  <station code="KALE" name="KALE" netid="HA" insttype="40," commtype="DIG" lat="38.3911" lon="22.1398">
    <comp name="--.HHE">
      <acc value="0.0956660445" flag="0"/>
      <vel value="0.0523475615" flag="0"/>
      <psa03 value="0.2036902849" flag="0"/>
      <psa10 value="0.0699122463" flag="0"/>
      <psa30 value="0.0044992151" flag="0"/>
    </comp>
    <comp name="--.HHN">
      <acc value="0.1725262832" flag="0"/>
      <vel value="0.0588976313" flag="0"/>
      <psa03 value="0.2490283379" flag="0"/>
      <psa10 value="0.0649315471" flag="0"/>
      <psa30 value="0.0041357045" flag="0"/>
    </comp>
    <comp name="--.HHZ">
      <acc value="0.0952842640" flag="0"/>
      <vel value="0.0278602723" flag="0"/>
      <psa03 value="0.1145969725" flag="0"/>
      <psa10 value="0.0390443430" flag="0"/>
      <psa30 value="0.0033252122" flag="0"/>
    </comp>
  </station>
  <station code="LAKA" name="LAKA" netid="HA" insttype="120s," commtype="DIG" lat="38.2401" lon="21.9785">
    <comp name="--.HHN">
      <acc value="0.0208374070" flag="0"/>
      <vel value="0.0165161885" flag="0"/>
      <psa03 value="0.0461830154" flag="0"/>
      <psa10 value="0.0237967206" flag="0"/>
      <psa30 value="0.0022936823" flag="0"/>
    </comp>
    <comp name="--.HHE">
      <acc value="0.0198159954" flag="0"/>
      <vel value="0.0179644519" flag="0"/>
      <psa03 value="0.0441889172" flag="0"/>
      <psa10 value="0.0231968326" flag="0"/>
      <psa30 value="0.0036571585" flag="0"/>
    </comp>
    <comp name="--.HHZ">
      <acc value="0.0143624889" flag="0"/>
      <vel value="0.0121355785" flag="0"/>
      <psa03 value="0.0364901676" flag="0"/>
      <psa10 value="0.0195444020" flag="0"/>
      <psa30 value="0.0035727904" flag="0"/>
    </comp>
  </station>
  <station code="PRDM" name="PRDM" netid="HA" insttype="25" commtype="DIG" lat="38.2804" lon="22.847">
    <comp name="--.HHN">
      <acc value="0.0096879140" flag="0"/>
      <vel value="0.0047831705" flag="0"/>
      <psa03 value="0.0254528245" flag="0"/>
      <psa10 value="0.0048381610" flag="0"/>
      <psa30 value="0.0005383599" flag="0"/>
    </comp>
    <comp name="--.HHE">
      <acc value="0.0143107639" flag="0"/>
      <vel value="0.0056527491" flag="0"/>
      <psa03 value="0.0231991740" flag="0"/>
      <psa10 value="0.0073377817" flag="0"/>
      <psa30 value="0.0011768044" flag="0"/>
    </comp>
    <comp name="--.HHZ">
      <acc value="0.0082680703" flag="0"/>
      <vel value="0.0050328931" flag="0"/>
      <psa03 value="0.0217854855" flag="0"/>
      <psa10 value="0.0073716419" flag="0"/>
      <psa30 value="0.0005648564" flag="0"/>
    </comp>
  </station>
  <station code="THAL" name="THAL" netid="HA" insttype="30" commtype="DIG" lat="38.0357" lon="22.6634">
    <comp name="--.HHE">
      <acc value="0.0505046926" flag="0"/>
      <vel value="0.0352097650" flag="0"/>
      <psa03 value="0.1401097601" flag="0"/>
      <psa10 value="0.0573028360" flag="0"/>
      <psa30 value="0.0032672187" flag="0"/>
    </comp>
    <comp name="--.HHN">
      <acc value="0.0389711278" flag="0"/>
      <vel value="0.0299754515" flag="0"/>
      <psa03 value="0.0884284499" flag="0"/>
      <psa10 value="0.0475456523" flag="0"/>
      <psa30 value="0.0041282579" flag="0"/>
    </comp>
    <comp name="--.HHZ">
      <acc value="0.0308934995" flag="0"/>
      <vel value="0.0154780279" flag="0"/>
      <psa03 value="0.0734538113" flag="0"/>
      <psa10 value="0.0230523212" flag="0"/>
      <psa30 value="0.0020184984" flag="0"/>
    </comp>
  </station>
  <station code="AGR3" name="AGR3" netid="HI" insttype="unknown" commtype="DIG" lat="38.5893" lon="21.4162">
    <comp name="--.HNN">
      <acc value="0.3516116994" flag="0"/>
      <vel value="0.2880008704" flag="0"/>
      <psa03 value="0.6919676665" flag="0"/>
      <psa10 value="0.4745314583" flag="0"/>
      <psa30 value="0.0453317251" flag="0"/>
    </comp>
    <comp name="--.HNE">
      <acc value="0.4498061349" flag="0"/>
      <vel value="0.3035858225" flag="0"/>
      <psa03 value="1.1889551084" flag="0"/>
      <psa10 value="0.3896982673" flag="0"/>
      <psa30 value="0.0526177824" flag="0"/>
    </comp>
    <comp name="--.HNZ">
      <acc value="0.2381069486" flag="0"/>
      <vel value="0.1673103597" flag="0"/>
      <psa03 value="0.5162344744" flag="0"/>
      <psa10 value="0.2879729389" flag="0"/>
      <psa30 value="0.0202695028" flag="0"/>
    </comp>
  </station>
  <station code="AIA1" name="AIA1" netid="HI" insttype="unknown" commtype="DIG" lat="40.1641" lon="21.8202">
    <comp name="--.HNE">
      <acc value="0.1222378247" flag="0"/>
      <vel value="0.0688715824" flag="0"/>
      <psa03 value="0.4041037174" flag="0"/>
      <psa10 value="0.0298725378" flag="0"/>
      <psa30 value="0.0050457002" flag="0"/>
    </comp>
    <comp name="--.HNN">
      <acc value="0.0952991113" flag="0"/>
      <vel value="0.0499964438" flag="0"/>
      <psa03 value="0.2413433961" flag="0"/>
      <psa10 value="0.0406944401" flag="0"/>
      <psa30 value="0.0059016216" flag="0"/>
    </comp>
    <comp name="--.HNZ">
      <acc value="0.0501973045" flag="0"/>
      <vel value="0.0275048835" flag="0"/>
      <psa03 value="0.1143182571" flag="0"/>
      <psa10 value="0.0236793800" flag="0"/>
      <psa30 value="0.0028306699" flag="0"/>
    </comp>
  </station>
  <station code="AKR1" name="AKR1" netid="HI" insttype="unknown" commtype="DIG" lat="38.1536" lon="22.3133">
    <comp name="--.HNE">
      <acc value="0.0413413063" flag="0"/>
      <vel value="0.0269326645" flag="0"/>
      <psa03 value="0.0859850910" flag="0"/>
      <psa10 value="0.0473014645" flag="0"/>
      <psa30 value="0.0041324068" flag="0"/>
    </comp>
    <comp name="--.HNN">
      <acc value="0.0409010798" flag="0"/>
      <vel value="0.0266471964" flag="0"/>
      <psa03 value="0.1103882429" flag="0"/>
      <psa10 value="0.0491143986" flag="0"/>
      <psa30 value="0.0037978625" flag="0"/>
    </comp>
    <comp name="--.HNZ">
      <acc value="0.0269210800" flag="0"/>
      <vel value="0.0168194829" flag="0"/>
      <psa03 value="0.0442094169" flag="0"/>
      <psa10 value="0.0245202063" flag="0"/>
      <psa30 value="0.0022279096" flag="0"/>
    </comp>
  </station>
  <station code="ARG2" name="ARG2" netid="HI" insttype="CMG-5TD,ACCELEROMETER,GURALP" commtype="DIG" lat="38.1783" lon="20.4878">
    <comp name="--.HNE">
      <acc value="0.1552030232" flag="0"/>
      <vel value="0.1327823436" flag="0"/>
      <psa03 value="0.6141908059" flag="0"/>
      <psa10 value="0.1356419710" flag="0"/>
      <psa30 value="0.0091601273" flag="0"/>
    </comp>
    <comp name="--.HNN">
      <acc value="0.1387121649" flag="0"/>
      <vel value="0.1082275419" flag="0"/>
      <psa03 value="0.3345213976" flag="0"/>
      <psa10 value="0.1009588472" flag="0"/>
      <psa30 value="0.0099429900" flag="0"/>
    </comp>
    <comp name="--.HNZ">
      <acc value="0.0860686489" flag="0"/>
      <vel value="0.0841411402" flag="0"/>
      <psa03 value="0.3818067371" flag="0"/>
      <psa10 value="0.0942372463" flag="0"/>
      <psa30 value="0.0066691381" flag="0"/>
    </comp>
  </station>
  <station code="ART2" name="ART2" netid="HI" insttype="CMG-5TD,ACCELEROMETER,GURALP" commtype="DIG" lat="39.1474" lon="20.9937">
    <comp name="--.HNE">
      <acc value="0.3914066603" flag="0"/>
      <vel value="0.1262585163" flag="0"/>
      <psa03 value="0.6027111202" flag="0"/>
      <psa10 value="0.1117942137" flag="0"/>
      <psa30 value="0.0188138219" flag="0"/>
    </comp>
    <comp name="--.HNN">
      <acc value="0.4239842961" flag="0"/>
      <vel value="0.1405358605" flag="0"/>
      <psa03 value="0.7980786579" flag="0"/>
      <psa10 value="0.2855826987" flag="0"/>
      <psa30 value="0.0102226471" flag="0"/>
    </comp>
    <comp name="--.HNZ">
      <acc value="0.4275077725" flag="0"/>
      <vel value="0.1549336775" flag="0"/>
      <psa03 value="0.6974159557" flag="0"/>
      <psa10 value="0.1664374073" flag="0"/>
      <psa30 value="0.0168203147" flag="0"/>
    </comp>
  </station>
  <station code="AST1" name="AST1" netid="HI" insttype="unknown" commtype="DIG" lat="38.5416" lon="21.0895">
    <comp name="--.HNZ">
      <acc value="0.1151819559" flag="0"/>
      <vel value="0.1105042886" flag="0"/>
      <psa03 value="0.3190733190" flag="0"/>
      <psa10 value="0.1687519498" flag="0"/>
      <psa30 value="0.0092892489" flag="0"/>
    </comp>
    <comp name="--.HNN">
      <acc value="0.1711684848" flag="0"/>
      <vel value="0.1536743065" flag="0"/>
      <psa03 value="0.5146777817" flag="0"/>
      <psa10 value="0.1819917659" flag="0"/>
      <psa30 value="0.0138034397" flag="0"/>
    </comp>
    <comp name="--.HNE">
      <acc value="0.2211845927" flag="0"/>
      <vel value="0.1744918169" flag="0"/>
      <psa03 value="0.6156420653" flag="0"/>
      <psa10 value="0.2777320348" flag="0"/>
      <psa30 value="0.0129518533" flag="0"/>
    </comp>
  </station>
