<stationlist created="1778138778">
	<station code="DPC" name="DPC" netid="CZ" source="Czech Regional Seismic Network (CZ)" insttype="" lat="50.3502" lon="16.3222">
		<comp name="--.HNE" depth="0.0">
			<acc value="0.00111262788099704" flag="0"/>
			<vel value="0.00052864077899878" flag="0"/>
			<psa03 value="0.002726296814721" flag="0"/>
			<psa10 value="0.000366218469160669" flag="0"/>
			<psa30 value="0.000264917783877816" flag="0"/>
		</comp>
		<comp name="--.HNN" depth="0.0">
			<acc value="0.00156751476538992" flag="0"/>
			<vel value="0.00103542578399301" flag="0"/>
			<psa03 value="0.00361984038259758" flag="0"/>
			<psa10 value="0.000730810561051234" flag="0"/>
			<psa30 value="0.000398522545995966" flag="0"/>
		</comp>
		<comp name="--.HNZ" depth="0.0">
			<acc value="0.00111188644934404" flag="0"/>
			<vel value="0.0005283074520206" flag="0"/>
			<psa03 value="0.00273052463385418" flag="0"/>
			<psa10 value="0.00036882043840336" flag="0"/>
			<psa30 value="0.000261923679283339" flag="0"/>
		</comp>
	</station>
</stationlist>
