<?xml version="1.0" encoding="UTF-8" standalone="yes"?>
<!DOCTYPE earthquake SYSTEM "stationlist.dtd">
<stationlist created="" xmlns="ch.ethz.sed.shakemap.usgs.xml">
  <station code="DPC" name="DPC" netid="MN" insttype="" lat="50.3502" lon="16.3222">
    <comp name="--.HHZ">
      <acc value="0.0081786157" flag="0"/>
      <vel value="0.0019299786" flag="0"/>
      <psa03 value="0.0038464309" flag="0"/>
      <psa10 value="0.0011984240" flag="0"/>
      <psa30 value="0.0009733982" flag="0"/>
    </comp>
    <comp name="--.HHE">
      <acc value="0.0101982775" flag="0"/>
      <vel value="0.0016554597" flag="0"/>
      <psa03 value="0.0074220702" flag="0"/>
      <psa10 value="0.0010303466" flag="0"/>
      <psa30 value="0.0005051985" flag="0"/>
    </comp>
    <comp name="--.HHN">
      <acc value="0.0112373339" flag="0"/>
      <vel value="0.0021881018" flag="0"/>
      <psa03 value="0.0076744368" flag="0"/>
      <psa10 value="0.0014569040" flag="0"/>
      <psa30 value="0.0006887994" flag="0"/>
    </comp>
  </station>
</stationlist>
