<?xml version="1.0" encoding="UTF-8" standalone="yes"?>
<!DOCTYPE earthquake SYSTEM "stationlist.dtd">
<stationlist created="" xmlns="ch.ethz.sed.shakemap.usgs.xml">
  <station code="UPC" name="UPC" netid="CZ" insttype="" lat="50.5074" lon="16.0121">
    <comp name="--.HHE">
      <acc value="0.0179135451" flag="0"/>
      <vel value="0.0099291636" flag="0"/>
      <psa03 value="0.0579166130" flag="0"/>
      <psa10 value="0.0090921764" flag="0"/>
      <psa30 value="0.0008962084" flag="0"/>
    </comp>
    <comp name="--.HHZ">
      <acc value="0.0097589705" flag="0"/>
      <vel value="0.0051367048" flag="0"/>
      <psa03 value="0.0198254504" flag="0"/>
      <psa10 value="0.0028175951" flag="0"/>
      <psa30 value="0.0007425337" flag="0"/>
    </comp>
    <comp name="--.HHN">
      <acc value="0.0141995440" flag="0"/>
      <vel value="0.0086748824" flag="0"/>
      <psa03 value="0.0434923310" flag="0"/>
      <psa10 value="0.0067820593" flag="0"/>
      <psa30 value="0.0009793952" flag="0"/>
    </comp>
  </station>
  <station code="KSP" name="KSP" netid="PL" insttype="STS-2/N" lat="50.8428" lon="16.2931">
    <comp name="--.HHE">
      <acc value="0.0056330445" flag="0"/>
      <vel value="0.0057031619" flag="0"/>
      <psa03 value="0.0141454969" flag="0"/>
      <psa10 value="0.0038273039" flag="0"/>
      <psa30 value="0.0016265489" flag="0"/>
    </comp>
    <comp name="--.HHZ">
      <acc value="0.0070111123" flag="0"/>
      <vel value="0.0134398759" flag="0"/>
      <psa03 value="0.0109082408" flag="0"/>
      <psa10 value="0.0067918227" flag="0"/>
      <psa30 value="0.0042062818" flag="0"/>
    </comp>
    <comp name="--.HHN">
      <acc value="0.0077312159" flag="0"/>
      <vel value="0.0149085258" flag="0"/>
      <psa03 value="0.0137895356" flag="0"/>
      <psa10 value="0.0073862193" flag="0"/>
      <psa30 value="0.0044137281" flag="0"/>
    </comp>
  </station>
</stationlist>
