<?xml version="1.0" encoding="UTF-8" standalone="yes"?>
<!DOCTYPE earthquake SYSTEM "stationlist.dtd">
<stationlist created="" xmlns="ch.ethz.sed.shakemap.usgs.xml">
  <station code="ARPRA" name="ARPRA" netid="KO" insttype="CMG-5T" lat="39.0929" lon="38.3356">
    <comp name="--.HNE">
      <acc value="0.0154536248" flag="0"/>
      <vel value="0.0073885115" flag="0"/>
      <psa03 value="0.0486644865" flag="0"/>
      <psa10 value="0.0056166182" flag="0"/>
      <psa30 value="0.0005323555" flag="0"/>
    </comp>
    <comp name="--.HNZ">
      <acc value="0.0066456741" flag="0"/>
      <vel value="0.0036454720" flag="0"/>
      <psa03 value="0.0200278880" flag="0"/>
      <psa10 value="0.0038040743" flag="0"/>
      <psa30 value="0.0002650821" flag="0"/>
    </comp>
    <comp name="--.HNN">
      <acc value="0.0132885763" flag="0"/>
      <vel value="0.0067114032" flag="0"/>
      <psa03 value="0.0402895785" flag="0"/>
      <psa10 value="0.0046617694" flag="0"/>
      <psa30 value="0.0002672309" flag="0"/>
    </comp>
  </station>
  <station code="DARE" name="DARE" netid="KO" insttype="CMG-3ESP" lat="38.5712" lon="37.4832">
    <comp name="--.HHN">
      <acc value="0.0064004257" flag="0"/>
      <vel value="0.0025948306" flag="0"/>
      <psa03 value="0.0129465549" flag="0"/>
      <psa10 value="0.0016944268" flag="0"/>
      <psa30 value="0.0001241490" flag="0"/>
    </comp>
    <comp name="--.HHE">
      <acc value="0.0062531902" flag="0"/>
      <vel value="0.0021188780" flag="0"/>
      <psa03 value="0.0157638554" flag="0"/>
      <psa10 value="0.0015950845" flag="0"/>
      <psa30 value="0.0001789426" flag="0"/>
    </comp>
    <comp name="--.HHZ">
      <acc value="0.0043541078" flag="0"/>
      <vel value="0.0017630999" flag="0"/>
      <psa03 value="0.0146567805" flag="0"/>
      <psa10 value="0.0016597277" flag="0"/>
      <psa30 value="0.0001672062" flag="0"/>
    </comp>
  </station>
  <station code="URFA" name="URFA" netid="KO" insttype="CMG-3ESP" lat="37.4409" lon="38.8213">
    <comp name="--.HHE">
      <acc value="0.0845560501" flag="0"/>
      <vel value="0.0162759615" flag="0"/>
      <psa03 value="0.0728752453" flag="0"/>
      <psa10 value="0.0070643975" flag="0"/>
      <psa30 value="0.0004892065" flag="0"/>
    </comp>
    <comp name="--.HHN">
      <acc value="0.0816134608" flag="0"/>
      <vel value="0.0178116299" flag="0"/>
      <psa03 value="0.0563456682" flag="0"/>
      <psa10 value="0.0074245819" flag="0"/>
      <psa30 value="0.0003957245" flag="0"/>
    </comp>
    <comp name="--.HHZ">
      <acc value="0.0646090558" flag="0"/>
      <vel value="0.0150974383" flag="0"/>
      <psa03 value="0.0685689521" flag="0"/>
      <psa10 value="0.0038618750" flag="0"/>
      <psa30 value="0.0002868220" flag="0"/>
    </comp>
  </station>
</stationlist>
