<?xml version="1.0" encoding="UTF-8" standalone="yes"?>
<!DOCTYPE earthquake SYSTEM "stationlist.dtd">
<stationlist created="" xmlns="ch.ethz.sed.shakemap.usgs.xml">
  <station code="KARP" name="KARP" netid="GE" insttype="STS-2/N" commtype="DIG" lat="35.5471" lon="27.1611">
    <comp name="--.HHZ">
      <acc value="0.0025937793" flag="0"/>
      <vel value="0.0020638601" flag="0"/>
      <psa03 value="0.0088859955" flag="0"/>
      <psa10 value="0.0029807713" flag="0"/>
      <psa30 value="0.0005644193" flag="0"/>
    </comp>
    <comp name="--.HHE">
      <acc value="0.0046547906" flag="0"/>
      <vel value="0.0028915509" flag="0"/>
      <psa03 value="0.0082256585" flag="0"/>
      <psa10 value="0.0076797582" flag="0"/>
      <psa30 value="0.0005808006" flag="0"/>
    </comp>
    <comp name="--.HHN">
      <acc value="0.0036684611" flag="0"/>
      <vel value="0.0034430088" flag="0"/>
      <psa03 value="0.0090306466" flag="0"/>
      <psa10 value="0.0061712240" flag="0"/>
      <psa30 value="0.0006626873" flag="0"/>
    </comp>
  </station>
  <station code="ZKR" name="ZKR" netid="GE" insttype="STS-2/N" commtype="DIG" lat="35.1147" lon="26.2169">
    <comp name="--.HHN">
      <acc value="0.0961681754" flag="0"/>
      <vel value="0.0338495298" flag="0"/>
      <psa03 value="0.1262327382" flag="0"/>
      <psa10 value="0.0227026686" flag="0"/>
      <psa30 value="0.0043542802" flag="0"/>
    </comp>
    <comp name="--.HHE">
      <acc value="0.2177783268" flag="0"/>
      <vel value="0.0601566730" flag="0"/>
      <psa03 value="0.1937395095" flag="0"/>
      <psa10 value="0.0895160836" flag="0"/>
      <psa30 value="0.0113153933" flag="0"/>
    </comp>
    <comp name="--.HHZ">
      <acc value="0.1259050881" flag="0"/>
      <vel value="0.0316729857" flag="0"/>
      <psa03 value="0.1447633375" flag="0"/>
      <psa10 value="0.0413372364" flag="0"/>
      <psa30 value="0.0044152057" flag="0"/>
    </comp>
  </station>
  <station code="IMOD" name="IMOD" netid="HC" insttype="120" commtype="DIG" lat="34.9731" lon="24.7995">
    <comp name="--.HHZ">
      <acc value="0.0055591159" flag="0"/>
      <vel value="0.0055368915" flag="0"/>
      <psa03 value="0.0190788112" flag="0"/>
      <psa10 value="0.0123098010" flag="0"/>
      <psa30 value="0.0003970737" flag="0"/>
    </comp>
    <comp name="--.HHE">
      <acc value="0.0087968199" flag="0"/>
      <vel value="0.0077785365" flag="0"/>
      <psa03 value="0.0237746360" flag="0"/>
      <psa10 value="0.0142141055" flag="0"/>
      <psa30 value="0.0007502917" flag="0"/>
    </comp>
    <comp name="--.HHN">
      <acc value="0.0118666311" flag="0"/>
      <vel value="0.0090582401" flag="0"/>
      <psa03 value="0.0343171868" flag="0"/>
      <psa10 value="0.0132119179" flag="0"/>
      <psa30 value="0.0007750200" flag="0"/>
    </comp>
  </station>
  <station code="KNSS" name="KNSS" netid="HC" insttype="60" commtype="DIG" lat="35.3042" lon="25.1802">
    <comp name="--.HHN">
      <acc value="0.0128249938" flag="0"/>
      <vel value="0.0082513638" flag="0"/>
      <psa03 value="0.0461208869" flag="0"/>
      <psa10 value="0.0090065689" flag="0"/>
      <psa30 value="0.0015714543" flag="0"/>
    </comp>
    <comp name="--.HHZ">
      <acc value="0.0098950680" flag="0"/>
      <vel value="0.0050004826" flag="0"/>
      <psa03 value="0.0242089300" flag="0"/>
      <psa10 value="0.0064473188" flag="0"/>
      <psa30 value="0.0017828145" flag="0"/>
    </comp>
    <comp name="--.HHE">
      <acc value="0.0000000000" flag="0"/>
      <vel value="-100.0000000000" flag="0"/>
      <psa03 value="0.0000000000" flag="0"/>
      <psa10 value="0.0000000000" flag="0"/>
      <psa30 value="0.0000000000" flag="0"/>
    </comp>
  </station>
  <station code="PFKS" name="PFKS" netid="HC" insttype="120" commtype="DIG" lat="35.0429" lon="25.4733">
    <comp name="--.HHE">
      <acc value="0.1333039798" flag="0"/>
      <vel value="0.0684936175" flag="0"/>
      <psa03 value="0.5089270976" flag="0"/>
      <psa10 value="0.0515627231" flag="0"/>
      <psa30 value="0.0030159727" flag="0"/>
    </comp>
    <comp name="--.HHN">
      <acc value="0.0818491546" flag="0"/>
      <vel value="0.0654774456" flag="0"/>
      <psa03 value="0.2494896723" flag="0"/>
      <psa10 value="0.0404414667" flag="0"/>
      <psa30 value="0.0022900535" flag="0"/>
    </comp>
    <comp name="--.HHZ">
      <acc value="0.0674614558" flag="0"/>
      <vel value="0.0334673160" flag="0"/>
      <psa03 value="0.2686670224" flag="0"/>
      <psa10 value="0.0352239313" flag="0"/>
      <psa30 value="0.0018037888" flag="0"/>
    </comp>
  </station>
  <station code="STIA" name="STIA" netid="HC" insttype="120" commtype="DIG" lat="35.2021" lon="26.0909">
    <comp name="--.HHE">
      <acc value="0.0985558816" flag="0"/>
      <vel value="0.0695580358" flag="0"/>
      <psa03 value="0.1740807527" flag="0"/>
      <psa10 value="0.0936887233" flag="0"/>
      <psa30 value="0.0082327737" flag="0"/>
    </comp>
    <comp name="--.HHN">
      <acc value="0.1266458200" flag="0"/>
      <vel value="0.0517110647" flag="0"/>
      <psa03 value="0.1690371339" flag="0"/>
      <psa10 value="0.0685130571" flag="0"/>
      <psa30 value="0.0082804910" flag="0"/>
    </comp>
    <comp name="--.HHZ">
      <acc value="0.1410493831" flag="0"/>
      <vel value="0.0351325916" flag="0"/>
      <psa03 value="0.0821222535" flag="0"/>
      <psa10 value="0.0516577833" flag="0"/>
      <psa30 value="0.0035268698" flag="0"/>
    </comp>
  </station>
  <station code="AGN1" name="AGN1" netid="HI" insttype="unknown" commtype="DIG" lat="35.1879" lon="25.7155">
    <comp name="--.HNZ">
      <acc value="0.0384611028" flag="0"/>
      <vel value="0.0119181829" flag="0"/>
      <psa03 value="0.0842503998" flag="0"/>
      <psa10 value="0.0127561337" flag="0"/>
      <psa30 value="0.0019984206" flag="0"/>
    </comp>
    <comp name="--.HNE">
      <acc value="0.0004076549" flag="0"/>
      <vel value="0.0003075659" flag="0"/>
      <psa03 value="0.0004437518" flag="0"/>
      <psa10 value="0.0002060280" flag="0"/>
      <psa30 value="0.0000867593" flag="0"/>
    </comp>
    <comp name="--.HNN">
      <acc value="0.1129344096" flag="0"/>
      <vel value="0.0462454262" flag="0"/>
      <psa03 value="0.1945090209" flag="0"/>
      <psa10 value="0.0183731053" flag="0"/>
      <psa30 value="0.0031978375" flag="0"/>
    </comp>
  </station>
  <station code="KSS1" name="KSS1" netid="HI" insttype="CMG-5TD,ACCELEROMETER,GURALP" commtype="DIG" lat="35.4189" lon="26.9207">
    <comp name="--.HNN">
      <acc value="0.0063631938" flag="0"/>
      <vel value="0.0045892644" flag="0"/>
      <psa03 value="0.0262143230" flag="0"/>
      <psa10 value="0.0040081269" flag="0"/>
      <psa30 value="0.0010318987" flag="0"/>
    </comp>
    <comp name="--.HNZ">
      <acc value="0.0034292497" flag="0"/>
      <vel value="0.0020774388" flag="0"/>
      <psa03 value="0.0034201410" flag="0"/>
      <psa10 value="0.0024920916" flag="0"/>
      <psa30 value="0.0007403455" flag="0"/>
    </comp>
    <comp name="--.HNE">
      <acc value="0.0041181318" flag="0"/>
      <vel value="0.0027435329" flag="0"/>
      <psa03 value="0.0140194921" flag="0"/>
      <psa10 value="0.0028647773" flag="0"/>
      <psa30 value="0.0012937705" flag="0"/>
    </comp>
  </station>
  <station code="SIT2" name="SIT2" netid="HI" insttype="CMG-5TD,ACCELEROMETER,GURALP" commtype="DIG" lat="35.2059" lon="26.107">
    <comp name="--.HNE">
      <acc value="0.1688994932" flag="0"/>
      <vel value="0.1220261779" flag="0"/>
      <psa03 value="0.5912249445" flag="0"/>
      <psa10 value="0.2265881356" flag="0"/>
      <psa30 value="0.0112964309" flag="0"/>
    </comp>
    <comp name="--.HNZ">
      <acc value="0.1000528191" flag="0"/>
      <vel value="0.0424163530" flag="0"/>
      <psa03 value="0.1397656622" flag="0"/>
      <psa10 value="0.0819990759" flag="0"/>
      <psa30 value="0.0029759958" flag="0"/>
    </comp>
    <comp name="--.HNN">
      <acc value="0.1576079136" flag="0"/>
      <vel value="0.1207967464" flag="0"/>
      <psa03 value="0.4329210751" flag="0"/>
      <psa10 value="0.2421092904" flag="0"/>
      <psa30 value="0.0079462098" flag="0"/>
    </comp>
  </station>
  <station code="IDI" name="IDI" netid="HL" insttype="120" commtype="DIG" lat="35.288" lon="24.89">
    <comp name="--.HHE">
      <acc value="0.0035419241" flag="0"/>
      <vel value="0.0030072742" flag="0"/>
      <psa03 value="0.0121225980" flag="0"/>
      <psa10 value="0.0044004112" flag="0"/>
      <psa30 value="0.0005407176" flag="0"/>
    </comp>
    <comp name="--.HHZ">
      <acc value="0.0039008153" flag="0"/>
      <vel value="0.0025133760" flag="0"/>
      <psa03 value="0.0093450621" flag="0"/>
      <psa10 value="0.0024165061" flag="0"/>
      <psa30 value="0.0006892427" flag="0"/>
    </comp>
    <comp name="--.HHN">
      <acc value="0.0048668336" flag="0"/>
      <vel value="0.0031350039" flag="0"/>
      <psa03 value="0.0125585015" flag="0"/>
      <psa10 value="0.0043622703" flag="0"/>
      <psa30 value="0.0008054631" flag="0"/>
    </comp>
  </station>
  <station code="KARP" name="KARP" netid="HL" insttype="120" commtype="DIG" lat="35.5471" lon="27.1611">
    <comp name="--.HHE">
      <acc value="0.0044868480" flag="0"/>
      <vel value="0.0028688239" flag="0"/>
      <psa03 value="0.0079724695" flag="0"/>
      <psa10 value="0.0076269168" flag="0"/>
      <psa30 value="0.0005797181" flag="0"/>
    </comp>
    <comp name="--.HHZ">
      <acc value="0.0025209075" flag="0"/>
      <vel value="0.0020397829" flag="0"/>
      <psa03 value="0.0087075868" flag="0"/>
      <psa10 value="0.0029625815" flag="0"/>
      <psa30 value="0.0005634004" flag="0"/>
    </comp>
    <comp name="--.HHN">
      <acc value="0.0035950270" flag="0"/>
      <vel value="0.0033972600" flag="0"/>
      <psa03 value="0.0087946545" flag="0"/>
      <psa10 value="0.0061391555" flag="0"/>
      <psa30 value="0.0006619227" flag="0"/>
    </comp>
  </station>
  <station code="SIVA" name="SIVA" netid="HL" insttype="60" commtype="DIG" lat="35.0178" lon="24.812">
    <comp name="--.HHE">
      <acc value="0.0161811055" flag="0"/>
      <vel value="0.0100063170" flag="0"/>
      <psa03 value="0.0346434953" flag="0"/>
      <psa10 value="0.0153495219" flag="0"/>
      <psa30 value="0.0008644481" flag="0"/>
    </comp>
    <comp name="--.HHN">
      <acc value="0.0115103720" flag="0"/>
      <vel value="0.0105056462" flag="0"/>
      <psa03 value="0.0210682505" flag="0"/>
      <psa10 value="0.0119151467" flag="0"/>
      <psa30 value="0.0007996341" flag="0"/>
    </comp>
    <comp name="--.HHZ">
      <acc value="0.0081760181" flag="0"/>
      <vel value="0.0060502185" flag="0"/>
      <psa03 value="0.0224155376" flag="0"/>
      <psa10 value="0.0085027926" flag="0"/>
      <psa30 value="0.0004892781" flag="0"/>
    </comp>
  </station>
  <station code="IDI" name="IDI" netid="MN" insttype="" commtype="DIG" lat="35.288" lon="24.89">
    <comp name="--.HHE">
      <acc value="0.0031956949" flag="0"/>
      <vel value="0.0026897347" flag="0"/>
      <psa03 value="0.0110484140" flag="0"/>
      <psa10 value="0.0039206051" flag="0"/>
      <psa30 value="0.0004793966" flag="0"/>
    </comp>
    <comp name="--.HHN">
      <acc value="0.0044284683" flag="0"/>
      <vel value="0.0028428088" flag="0"/>
      <psa03 value="0.0114524467" flag="0"/>
      <psa10 value="0.0038812934" flag="0"/>
      <psa30 value="0.0007147254" flag="0"/>
    </comp>
    <comp name="--.HHZ">
      <acc value="0.0036092247" flag="0"/>
      <vel value="0.0022567130" flag="0"/>
      <psa03 value="0.0084614414" flag="0"/>
      <psa10 value="0.0021521254" flag="0"/>
      <psa30 value="0.0006112601" flag="0"/>
    </comp>
  </station>
</stationlist>
