<?xml version="1.0" encoding="UTF-8" standalone="yes"?>
<!DOCTYPE earthquake SYSTEM "stationlist.dtd">
<stationlist created="" xmlns="ch.ethz.sed.shakemap.usgs.xml">
  <station code="ZKR" name="ZKR" netid="GE" insttype="STS-2/N" commtype="DIG" lat="35.1147" lon="26.2169">
    <comp name="--.HHE">
      <acc value="0.2177783266" flag="0"/>
      <vel value="0.0601566743" flag="0"/>
      <psa03 value="0.1937395095" flag="0"/>
      <psa10 value="0.0895160899" flag="0"/>
      <psa30 value="0.0113153332" flag="0"/>
    </comp>
    <comp name="--.HHZ">
      <acc value="0.1259050879" flag="0"/>
      <vel value="0.0316729855" flag="0"/>
      <psa03 value="0.1447633375" flag="0"/>
      <psa10 value="0.0413372331" flag="0"/>
      <psa30 value="0.0044151987" flag="0"/>
    </comp>
    <comp name="--.HHN">
      <acc value="0.0961681754" flag="0"/>
      <vel value="0.0338495302" flag="0"/>
      <psa03 value="0.1262327382" flag="0"/>
      <psa10 value="0.0227026686" flag="0"/>
      <psa30 value="0.0043542713" flag="0"/>
    </comp>
  </station>
  <station code="IMOD" name="IMOD" netid="HC" insttype="120" commtype="DIG" lat="34.9731" lon="24.7995">
    <comp name="--.HHN">
      <acc value="0.0118666310" flag="0"/>
      <vel value="0.0090582399" flag="0"/>
      <psa03 value="0.0343171868" flag="0"/>
      <psa10 value="0.0132119179" flag="0"/>
      <psa30 value="0.0007750290" flag="0"/>
    </comp>
    <comp name="--.HHZ">
      <acc value="0.0055591160" flag="0"/>
      <vel value="0.0055368913" flag="0"/>
      <psa03 value="0.0190788112" flag="0"/>
      <psa10 value="0.0123098010" flag="0"/>
      <psa30 value="0.0003970653" flag="0"/>
    </comp>
    <comp name="--.HHE">
      <acc value="0.0087968198" flag="0"/>
      <vel value="0.0077785355" flag="0"/>
      <psa03 value="0.0237746360" flag="0"/>
      <psa10 value="0.0142141055" flag="0"/>
      <psa30 value="0.0007503151" flag="0"/>
    </comp>
  </station>
  <station code="KNSS" name="KNSS" netid="HC" insttype="60" commtype="DIG" lat="35.3042" lon="25.1802">
    <comp name="--.HHE">
      <acc value="0.0000000000" flag="0"/>
      <vel value="-100.0000000000" flag="0"/>
      <psa03 value="0.0000000000" flag="0"/>
      <psa10 value="0.0000000000" flag="0"/>
      <psa30 value="0.0000000000" flag="0"/>
    </comp>
    <comp name="--.HHN">
      <acc value="0.0128249938" flag="0"/>
      <vel value="0.0082513611" flag="0"/>
      <psa03 value="0.0461208869" flag="0"/>
      <psa10 value="0.0090065689" flag="0"/>
      <psa30 value="0.0015714554" flag="0"/>
    </comp>
    <comp name="--.HHZ">
      <acc value="0.0098950679" flag="0"/>
      <vel value="0.0050004824" flag="0"/>
      <psa03 value="0.0242089300" flag="0"/>
      <psa10 value="0.0064473188" flag="0"/>
      <psa30 value="0.0016777120" flag="0"/>
    </comp>
  </station>
  <station code="PFKS" name="PFKS" netid="HC" insttype="120" commtype="DIG" lat="35.0429" lon="25.4733">
    <comp name="--.HHE">
      <acc value="0.1333039799" flag="0"/>
      <vel value="0.0684936170" flag="0"/>
      <psa03 value="0.5089270976" flag="0"/>
      <psa10 value="0.0515627233" flag="0"/>
      <psa30 value="0.0030160624" flag="0"/>
    </comp>
    <comp name="--.HHZ">
      <acc value="0.0674614558" flag="0"/>
      <vel value="0.0334673160" flag="0"/>
      <psa03 value="0.2686670224" flag="0"/>
      <psa10 value="0.0352239311" flag="0"/>
      <psa30 value="0.0018036681" flag="0"/>
    </comp>
    <comp name="--.HHN">
      <acc value="0.0818491547" flag="0"/>
      <vel value="0.0654774442" flag="0"/>
      <psa03 value="0.2494896723" flag="0"/>
      <psa10 value="0.0404414657" flag="0"/>
      <psa30 value="0.0022898891" flag="0"/>
    </comp>
  </station>
  <station code="STIA" name="STIA" netid="HC" insttype="120" commtype="DIG" lat="35.2021" lon="26.0909">
    <comp name="--.HHE">
      <acc value="0.0985558816" flag="0"/>
      <vel value="0.0695580333" flag="0"/>
      <psa03 value="0.1740807527" flag="0"/>
      <psa10 value="0.0936887240" flag="0"/>
      <psa30 value="0.0082327096" flag="0"/>
    </comp>
    <comp name="--.HHN">
      <acc value="0.1266458200" flag="0"/>
      <vel value="0.0517110640" flag="0"/>
      <psa03 value="0.1690371339" flag="0"/>
      <psa10 value="0.0685130561" flag="0"/>
      <psa30 value="0.0082804263" flag="0"/>
    </comp>
    <comp name="--.HHZ">
      <acc value="0.1410493831" flag="0"/>
      <vel value="0.0351325926" flag="0"/>
      <psa03 value="0.0821222535" flag="0"/>
      <psa10 value="0.0516577835" flag="0"/>
      <psa30 value="0.0035268253" flag="0"/>
    </comp>
  </station>
  <station code="AGN1" name="AGN1" netid="HI" insttype="unknown" commtype="DIG" lat="35.1879" lon="25.7155">
    <comp name="--.HNE">
      <acc value="0.0003780947" flag="0"/>
      <vel value="0.0002807518" flag="0"/>
      <psa03 value="0.0004107326" flag="0"/>
      <psa10 value="0.0001992658" flag="0"/>
      <psa30 value="0.0000867374" flag="0"/>
    </comp>
    <comp name="--.HNN">
      <acc value="0.1129344089" flag="0"/>
      <vel value="0.0462454268" flag="0"/>
      <psa03 value="0.1945090209" flag="0"/>
      <psa10 value="0.0183731054" flag="0"/>
      <psa30 value="0.0031978679" flag="0"/>
    </comp>
    <comp name="--.HNZ">
      <acc value="0.0384611024" flag="0"/>
      <vel value="0.0119181828" flag="0"/>
      <psa03 value="0.0842503998" flag="0"/>
      <psa10 value="0.0127561348" flag="0"/>
      <psa30 value="0.0019984231" flag="0"/>
    </comp>
  </station>
  <station code="KSS1" name="KSS1" netid="HI" insttype="CMG-5TD,ACCELEROMETER,GURALP" commtype="DIG" lat="35.4189" lon="26.9207">
    <comp name="--.HNE">
      <acc value="0.0041181319" flag="0"/>
      <vel value="0.0027435329" flag="0"/>
      <psa03 value="0.0140194921" flag="0"/>
      <psa10 value="0.0028647773" flag="0"/>
      <psa30 value="0.0012937710" flag="0"/>
    </comp>
    <comp name="--.HNN">
      <acc value="0.0063631937" flag="0"/>
      <vel value="0.0045892646" flag="0"/>
      <psa03 value="0.0262143230" flag="0"/>
      <psa10 value="0.0040081269" flag="0"/>
      <psa30 value="0.0010318965" flag="0"/>
    </comp>
    <comp name="--.HNZ">
      <acc value="0.0034292499" flag="0"/>
      <vel value="0.0020774389" flag="0"/>
      <psa03 value="0.0034201410" flag="0"/>
      <psa10 value="0.0024920916" flag="0"/>
      <psa30 value="0.0007403482" flag="0"/>
    </comp>
  </station>
  <station code="SIT2" name="SIT2" netid="HI" insttype="CMG-5TD,ACCELEROMETER,GURALP" commtype="DIG" lat="35.2059" lon="26.107">
    <comp name="--.HNE">
      <acc value="0.1688994933" flag="0"/>
      <vel value="0.1220261768" flag="0"/>
      <psa03 value="0.5912249445" flag="0"/>
      <psa10 value="0.2265881361" flag="0"/>
      <psa30 value="0.0112964158" flag="0"/>
    </comp>
    <comp name="--.HNN">
      <acc value="0.1576079139" flag="0"/>
      <vel value="0.1207967455" flag="0"/>
      <psa03 value="0.4329210751" flag="0"/>
      <psa10 value="0.2421092905" flag="0"/>
      <psa30 value="0.0079462048" flag="0"/>
    </comp>
    <comp name="--.HNZ">
      <acc value="0.1000528175" flag="0"/>
      <vel value="0.0424163537" flag="0"/>
      <psa03 value="0.1397656622" flag="0"/>
      <psa10 value="0.0819990762" flag="0"/>
      <psa30 value="0.0029761164" flag="0"/>
    </comp>
  </station>
  <station code="SIVA" name="SIVA" netid="HL" insttype="60" commtype="DIG" lat="35.0178" lon="24.812">
    <comp name="--.HHZ">
      <acc value="0.0081760179" flag="0"/>
      <vel value="0.0060502191" flag="0"/>
      <psa03 value="0.0224155376" flag="0"/>
      <psa10 value="0.0085027926" flag="0"/>
      <psa30 value="0.0004892759" flag="0"/>
    </comp>
    <comp name="--.HHE">
      <acc value="0.0161811053" flag="0"/>
      <vel value="0.0100063174" flag="0"/>
      <psa03 value="0.0346434953" flag="0"/>
      <psa10 value="0.0153495219" flag="0"/>
      <psa30 value="0.0008644608" flag="0"/>
    </comp>
    <comp name="--.HHN">
      <acc value="0.0115103719" flag="0"/>
      <vel value="0.0105056450" flag="0"/>
      <psa03 value="0.0210682505" flag="0"/>
      <psa10 value="0.0119151468" flag="0"/>
      <psa30 value="0.0007996327" flag="0"/>
    </comp>
  </station>
</stationlist>
