<stationlist created="1777010104">
	<station code="TEFL" name="TEFL" netid="HC" source="Seismological Network of Crete (HC)" insttype="" lat="35.093273" lon="25.163418">
		<comp name="--.HNE" depth="0.0">
			<acc value="0.223763815348207" flag="0"/>
			<vel value="0.138251582667371" flag="0"/>
			<psa03 value="0.314509688890022" flag="0"/>
			<psa10 value="0.177110762718816" flag="0"/>
			<psa30 value="0.0545170448199969" flag="0"/>
		</comp>
		<comp name="--.HNN" depth="0.0">
			<acc value="0.211948366805562" flag="0"/>
			<vel value="0.135033900631773" flag="0"/>
			<psa03 value="0.308189186854448" flag="0"/>
			<psa10 value="0.16484250000662" flag="0"/>
			<psa30 value="0.0829835305849725" flag="0"/>
		</comp>
		<comp name="--.HNZ" depth="0.0">
			<acc value="0.211117353434281" flag="0"/>
			<vel value="0.135932010402934" flag="0"/>
			<psa03 value="0.314040636984302" flag="0"/>
			<psa10 value="0.11878005859594" flag="0"/>
			<psa30 value="0.0647423955326315" flag="0"/>
		</comp>
	</station>
	<station code="AGN1" name="AGN1" netid="HI" source="ITSAK Strong Motion Network" insttype="" lat="35.1879" lon="25.7155">
		<comp name="--.HNE" depth="0.0">
			<acc value="0.000409456065835459" flag="0"/>
			<vel value="0.000373195422030878" flag="0"/>
			<psa03 value="0.000463164023814841" flag="0"/>
			<psa10 value="0.000255200890181513" flag="0"/>
			<psa30 value="0.000172537927186737" flag="0"/>
		</comp>
		<comp name="--.HNN" depth="0.0">
			<acc value="0.111816186487452" flag="0"/>
			<vel value="0.0468007775461215" flag="0"/>
			<psa03 value="0.196913273704649" flag="0"/>
			<psa10 value="0.0183264252857337" flag="0"/>
			<psa30 value="0.00333006247529589" flag="0"/>
		</comp>
		<comp name="--.HNZ" depth="0.0">
			<acc value="0.0382229639691308" flag="0"/>
			<vel value="0.012289006998145" flag="0"/>
			<psa03 value="0.0847954610331389" flag="0"/>
			<psa10 value="0.0127529054423975" flag="0"/>
			<psa30 value="0.00210349663799551" flag="0"/>
		</comp>
	</station>
	<station code="GOR1" name="GOR1" netid="HI" source="ITSAK Strong Motion Network" insttype="" lat="35.0582" lon="24.9628">
		<comp name="--.HNE" depth="0.0">
			<acc value="0.0120661888730411" flag="0"/>
			<vel value="0.0134910391887021" flag="0"/>
			<psa03 value="0.0431952599114778" flag="0"/>
			<psa10 value="0.0286186595957451" flag="0"/>
			<psa30 value="0.00290596396418423" flag="0"/>
		</comp>
		<comp name="--.HNN" depth="0.0">
			<acc value="0.0145597853790798" flag="0"/>
			<vel value="0.0156500505138208" flag="0"/>
			<psa03 value="0.0403230435995766" flag="0"/>
			<psa10 value="0.0235922072429453" flag="0"/>
			<psa30 value="0.00295175908121931" flag="0"/>
		</comp>
		<comp name="--.HNZ" depth="0.0">
			<acc value="0.00993787515203147" flag="0"/>
			<vel value="0.0124690370401104" flag="0"/>
			<psa03 value="0.0277113044879223" flag="0"/>
			<psa10 value="0.0129260440994839" flag="0"/>
			<psa30 value="0.00156661586394577" flag="0"/>
		</comp>
	</station>
	<station code="HER1" name="HER1" netid="HI" source="ITSAK Strong Motion Network" insttype="" lat="35.317672" lon="25.10217">
		<comp name="--.HNE" depth="0.0">
			<acc value="0.0329715882941994" flag="0"/>
			<vel value="0.0363649115584088" flag="0"/>
			<psa03 value="0.0667046636482638" flag="0"/>
			<psa10 value="0.0613260763015822" flag="0"/>
			<psa30 value="0.00380455703323165" flag="0"/>
		</comp>
		<comp name="--.HNN" depth="0.0">
			<acc value="0.031315117321488" flag="0"/>
			<vel value="0.04792900474002" flag="0"/>
			<psa03 value="0.0868777916856584" flag="0"/>
			<psa10 value="0.0528374714731722" flag="0"/>
			<psa30 value="0.00483933558223209" flag="0"/>
		</comp>
		<comp name="--.HNZ" depth="0.0">
			<acc value="0.0306956037708647" flag="0"/>
			<vel value="0.0351891087204218" flag="0"/>
			<psa03 value="0.0479161898374163" flag="0"/>
			<psa10 value="0.0440779974510075" flag="0"/>
			<psa30 value="0.00220372702776692" flag="0"/>
		</comp>
	</station>
	<station code="HER3" name="HER3" netid="HI" source="ITSAK Strong Motion Network" insttype="" lat="35.3296" lon="25.1065">
		<comp name="--.HNE" depth="0.0">
			<acc value="0.0615497408105153" flag="0"/>
			<vel value="0.029238958105791" flag="0"/>
			<psa03 value="0.0671778564532982" flag="0"/>
			<psa10 value="0.0583830913432721" flag="0"/>
			<psa30 value="0.00282521028131572" flag="0"/>
		</comp>
		<comp name="--.HNN" depth="0.0">
			<acc value="0.0365128442316168" flag="0"/>
			<vel value="0.0375701814428015" flag="0"/>
			<psa03 value="0.0860009575580341" flag="0"/>
			<psa10 value="0.0877766797742494" flag="0"/>
			<psa30 value="0.00425006779613324" flag="0"/>
		</comp>
		<comp name="--.HNZ" depth="0.0">
			<acc value="0.0808299460654601" flag="0"/>
			<vel value="0.0140279118310664" flag="0"/>
			<psa03 value="0.0444756285837853" flag="0"/>
			<psa10 value="0.0284529736198624" flag="0"/>
			<psa30 value="0.0020014211259938" flag="0"/>
		</comp>
	</station>
	<station code="KSS1" name="KSS1" netid="HI" source="ITSAK Strong Motion Network" insttype="" lat="35.4189" lon="26.9207">
		<comp name="--.HNE" depth="0.0">
			<acc value="0.00399094312495386" flag="0"/>
			<vel value="0.00334632138916481" flag="0"/>
			<psa03 value="0.0142595006115168" flag="0"/>
			<psa10 value="0.00301866590930165" flag="0"/>
			<psa30 value="0.00159434051306771" flag="0"/>
		</comp>
		<comp name="--.HNN" depth="0.0">
			<acc value="0.00629371627587558" flag="0"/>
			<vel value="0.0046345735960209" flag="0"/>
			<psa03 value="0.026152943441651" flag="0"/>
			<psa10 value="0.00397625575117906" flag="0"/>
			<psa30 value="0.00139740517540143" flag="0"/>
		</comp>
		<comp name="--.HNZ" depth="0.0">
			<acc value="0.00265273168496098" flag="0"/>
			<vel value="0.00223606184573716" flag="0"/>
			<psa03 value="0.00337764790624299" flag="0"/>
			<psa10 value="0.00254360459507106" flag="0"/>
			<psa30 value="0.000896247184477418" flag="0"/>
		</comp>
	</station>
	<station code="RTH1" name="RTH1" netid="HI" source="ITSAK Strong Motion Network" insttype="" lat="35.365393" lon="24.471773">
		<comp name="--.HNE" depth="0.0">
			<acc value="0.00488554219436212" flag="0"/>
			<vel value="0.00343790968698693" flag="0"/>
			<psa03 value="0.0139544595707116" flag="0"/>
			<psa10 value="0.005299710454808" flag="0"/>
			<psa30 value="0.000736160069075023" flag="0"/>
		</comp>
		<comp name="--.HNN" depth="0.0">
			<acc value="0.00452000303931944" flag="0"/>
			<vel value="0.0028628735104707" flag="0"/>
			<psa03 value="0.0157195179034137" flag="0"/>
			<psa10 value="0.00346029328994822" flag="0"/>
			<psa30 value="0.000911583096239641" flag="0"/>
		</comp>
		<comp name="--.HNZ" depth="0.0">
			<acc value="0.00606998067298362" flag="0"/>
			<vel value="0.00202942257971361" flag="0"/>
			<psa03 value="0.00897684727624263" flag="0"/>
			<psa10 value="0.00295213392375913" flag="0"/>
			<psa30 value="0.000425610876923473" flag="0"/>
		</comp>
	</station>
	<station code="SIT2" name="SIT2" netid="HI" source="ITSAK Strong Motion Network" insttype="" lat="35.2059" lon="26.107">
		<comp name="--.HNE" depth="0.0">
			<acc value="0.169926355927245" flag="0"/>
			<vel value="0.118405665060435" flag="0"/>
			<psa03 value="0.596048485286896" flag="0"/>
			<psa10 value="0.227107049727461" flag="0"/>
			<psa30 value="0.012171923830217" flag="0"/>
		</comp>
		<comp name="--.HNN" depth="0.0">
			<acc value="0.158303785672401" flag="0"/>
			<vel value="0.120932760237753" flag="0"/>
			<psa03 value="0.439060877294988" flag="0"/>
			<psa10 value="0.242521245842304" flag="0"/>
			<psa30 value="0.00876018615267318" flag="0"/>
		</comp>
		<comp name="--.HNZ" depth="0.0">
			<acc value="0.0995689282613333" flag="0"/>
			<vel value="0.0425221204048228" flag="0"/>
			<psa03 value="0.144821593719836" flag="0"/>
			<psa10 value="0.0820244662183317" flag="0"/>
			<psa30 value="0.00316053061964247" flag="0"/>
		</comp>
	</station>
	<station code="HERG" name="HERG" netid="HL" source="National Observatory of Athens Seismic Network" insttype="" lat="35.32622" lon="25.06586">
		<comp name="00.HNE" depth="0.0">
			<acc value="0.020750576045607" flag="0"/>
			<vel value="0.0240916791034505" flag="0"/>
			<psa03 value="0.0476947585020103" flag="0"/>
			<psa10 value="0.0502991870742881" flag="0"/>
			<psa30 value="0.00393718498584928" flag="0"/>
		</comp>
		<comp name="00.HNN" depth="0.0">
			<acc value="0.0158043067047893" flag="0"/>
			<vel value="0.0232579274671388" flag="0"/>
			<psa03 value="0.049614031477759" flag="0"/>
			<psa10 value="0.0421120309653763" flag="0"/>
			<psa30 value="0.00351940606004579" flag="0"/>
		</comp>
		<comp name="00.HNZ" depth="0.0">
			<acc value="0.0153369389683509" flag="0"/>
			<vel value="0.0156906931923979" flag="0"/>
			<psa03 value="0.0407862331377769" flag="0"/>
			<psa10 value="0.0189750007506753" flag="0"/>
			<psa30 value="0.00165981360033841" flag="0"/>
		</comp>
	</station>
	<station code="IACM" name="IACM" netid="HL" source="National Observatory of Athens Seismic Network" insttype="" lat="35.3058" lon="25.0709">
		<comp name="--.HNE" depth="0.0">
			<acc value="0.0422503073535092" flag="0"/>
			<vel value="0.0390109070810034" flag="0"/>
			<psa03 value="0.133400535047418" flag="0"/>
			<psa10 value="0.0636220571490452" flag="0"/>
			<psa30 value="0.00402795349881779" flag="0"/>
		</comp>
		<comp name="--.HNN" depth="0.0">
			<acc value="0.0273143553139225" flag="0"/>
			<vel value="0.0263513384406816" flag="0"/>
			<psa03 value="0.111329354190006" flag="0"/>
			<psa10 value="0.0385049782658375" flag="0"/>
			<psa30 value="0.0039199584280077" flag="0"/>
		</comp>
		<comp name="--.HNZ" depth="0.0">
			<acc value="0.0217011076080026" flag="0"/>
			<vel value="0.0162975855474304" flag="0"/>
			<psa03 value="0.0419494299855261" flag="0"/>
			<psa10 value="0.0209852689210757" flag="0"/>
			<psa30 value="0.00168828184038627" flag="0"/>
		</comp>
	</station>
	<station code="KARP" name="KARP" netid="HL" source="National Observatory of Athens Seismic Network" insttype="" lat="35.5471" lon="27.16106">
		<comp name="--.HNE" depth="0.0">
			<acc value="0.00450605754653846" flag="0"/>
			<vel value="0.00315822605459937" flag="0"/>
			<psa03 value="0.00805623290464199" flag="0"/>
			<psa10 value="0.00780074316720076" flag="0"/>
			<psa30 value="0.000729928562518296" flag="0"/>
		</comp>
		<comp name="--.HNN" depth="0.0">
			<acc value="0.00336319333512979" flag="0"/>
			<vel value="0.00361353265035888" flag="0"/>
			<psa03 value="0.00849622103607135" flag="0"/>
			<psa10 value="0.00539963207412489" flag="0"/>
			<psa30 value="0.000735188858903782" flag="0"/>
		</comp>
		<comp name="--.HNZ" depth="0.0">
			<acc value="0.00251485841262727" flag="0"/>
			<vel value="0.00185923915251774" flag="0"/>
			<psa03 value="0.00865337337372579" flag="0"/>
			<psa10 value="0.00296657214584548" flag="0"/>
			<psa30 value="0.000628630341591639" flag="0"/>
		</comp>
	</station>
	<station code="SIVA" name="SIVA" netid="HL" source="National Observatory of Athens Seismic Network" insttype="" lat="35.01777" lon="24.81204">
		<comp name="00.HNE" depth="0.0">
			<acc value="0.0148888948093292" flag="0"/>
			<vel value="0.00949232282655488" flag="0"/>
			<psa03 value="0.0322183426404138" flag="0"/>
			<psa10 value="0.0144310713001496" flag="0"/>
			<psa30 value="0.00102100513657946" flag="0"/>
		</comp>
		<comp name="00.HNN" depth="0.0">
			<acc value="0.0116665669088932" flag="0"/>
			<vel value="0.011199922670768" flag="0"/>
			<psa03 value="0.0231342955543766" flag="0"/>
			<psa10 value="0.0137813913870438" flag="0"/>
			<psa30 value="0.0012565845967292" flag="0"/>
		</comp>
		<comp name="00.HNZ" depth="0.0">
			<acc value="0.00774867763456108" flag="0"/>
			<vel value="0.00577906121098551" flag="0"/>
			<psa03 value="0.0216473871581594" flag="0"/>
			<psa10 value="0.00834963937263053" flag="0"/>
			<psa30 value="0.000822849353481333" flag="0"/>
		</comp>
	</station>
</stationlist>
