<?xml version="1.0" encoding="UTF-8" standalone="yes"?>
<!DOCTYPE earthquake SYSTEM "stationlist.dtd">
<stationlist created="" xmlns="ch.ethz.sed.shakemap.usgs.xml">
  <station code="APE" name="APE" netid="GE" insttype="STS-2/N" lat="37.0727" lon="25.523">
    <comp name="--.HHE">
      <acc value="0.0878673385" flag="0"/>
      <vel value="0.0219018060" flag="0"/>
      <psa03 value="0.0504885684" flag="0"/>
      <psa10 value="0.0038034217" flag="0"/>
      <psa30 value="0.0008980841" flag="0"/>
    </comp>
    <comp name="--.HHN">
      <acc value="0.0888513486" flag="0"/>
      <vel value="0.0184350663" flag="0"/>
      <psa03 value="0.0477348831" flag="0"/>
      <psa10 value="0.0042514616" flag="0"/>
      <psa30 value="0.0009722855" flag="0"/>
    </comp>
    <comp name="--.HHZ">
      <acc value="0.0423771301" flag="0"/>
      <vel value="0.0087277937" flag="0"/>
      <psa03 value="0.0223411056" flag="0"/>
      <psa10 value="0.0026862966" flag="0"/>
      <psa30 value="0.0008794251" flag="0"/>
    </comp>
  </station>
  <station code="THERA" name="THERA" netid="GE" insttype="STS-2/N" lat="36.367" lon="25.4753">
    <comp name="--.HHE">
      <acc value="0.1091129910" flag="0"/>
      <vel value="0.0280921499" flag="0"/>
      <psa03 value="0.0922365645" flag="0"/>
      <psa10 value="0.0119195073" flag="0"/>
      <psa30 value="0.0017516785" flag="0"/>
    </comp>
    <comp name="--.HHZ">
      <acc value="0.0942177662" flag="0"/>
      <vel value="0.0221283374" flag="0"/>
      <psa03 value="0.0732226913" flag="0"/>
      <psa10 value="0.0127741694" flag="0"/>
      <psa30 value="0.0009109587" flag="0"/>
    </comp>
    <comp name="--.HHN">
      <acc value="0.0675415870" flag="0"/>
      <vel value="0.0159637418" flag="0"/>
      <psa03 value="0.0848492946" flag="0"/>
      <psa10 value="0.0078884997" flag="0"/>
      <psa30 value="0.0007160888" flag="0"/>
    </comp>
  </station>
  <station code="SERI" name="SERI" netid="HA" insttype="30" lat="37.1609" lon="24.4853">
    <comp name="--.HHN">
      <acc value="0.0312969714" flag="0"/>
      <vel value="0.0064934650" flag="0"/>
      <psa03 value="0.0311341129" flag="0"/>
      <psa10 value="0.0025692271" flag="0"/>
      <psa30 value="0.0003749632" flag="0"/>
    </comp>
    <comp name="--.HHZ">
      <acc value="0.0200950309" flag="0"/>
      <vel value="0.0042887100" flag="0"/>
      <psa03 value="0.0169100975" flag="0"/>
      <psa10 value="0.0034830038" flag="0"/>
      <psa30 value="0.0005569231" flag="0"/>
    </comp>
    <comp name="--.HHE">
      <acc value="0.0263457708" flag="0"/>
      <vel value="0.0055492776" flag="0"/>
      <psa03 value="0.0256787194" flag="0"/>
      <psa10 value="0.0018545339" flag="0"/>
      <psa30 value="0.0003942946" flag="0"/>
    </comp>
  </station>
  <station code="SNT1" name="SNT1" netid="HA" insttype="30" lat="36.4159" lon="25.4282">
    <comp name="--.HHN">
      <acc value="0.0708307854" flag="0"/>
      <vel value="0.0421807495" flag="0"/>
      <psa03 value="0.1386019512" flag="0"/>
      <psa10 value="0.0430280421" flag="0"/>
      <psa30 value="0.0027967879" flag="0"/>
    </comp>
    <comp name="--.HHZ">
      <acc value="0.0832495151" flag="0"/>
      <vel value="0.0219923832" flag="0"/>
      <psa03 value="0.1399581850" flag="0"/>
      <psa10 value="0.0177508452" flag="0"/>
      <psa30 value="0.0012397527" flag="0"/>
    </comp>
    <comp name="--.HHE">
      <acc value="0.0877885885" flag="0"/>
      <vel value="0.0265076741" flag="0"/>
      <psa03 value="0.1438634965" flag="0"/>
      <psa10 value="0.0278087449" flag="0"/>
      <psa30 value="0.0030131314" flag="0"/>
    </comp>
  </station>
  <station code="NAX1" name="NAX1" netid="HI" insttype="CMG-5TD,ACCELEROMETER,GURALP" lat="37.1014" lon="25.3741">
    <comp name="--.HNE">
      <acc value="0.0819043461" flag="0"/>
      <vel value="0.0160785241" flag="0"/>
      <psa03 value="0.0862851684" flag="0"/>
      <psa10 value="0.0033434745" flag="0"/>
      <psa30 value="0.0005834515" flag="0"/>
    </comp>
    <comp name="--.HNN">
      <acc value="0.1020251654" flag="0"/>
      <vel value="0.0115341779" flag="0"/>
      <psa03 value="0.0313621178" flag="0"/>
      <psa10 value="0.0039006086" flag="0"/>
      <psa30 value="0.0007303187" flag="0"/>
    </comp>
    <comp name="--.HNZ">
      <acc value="0.0516978905" flag="0"/>
      <vel value="0.0080497090" flag="0"/>
      <psa03 value="0.0314274853" flag="0"/>
      <psa10 value="0.0027277281" flag="0"/>
      <psa30 value="0.0010727725" flag="0"/>
    </comp>
  </station>
  <station code="SFR2" name="SFR2" netid="HI" insttype="unknown" lat="36.3998" lon="25.4382">
    <comp name="--.HNN">
      <acc value="0.2581188785" flag="0"/>
      <vel value="0.0870732744" flag="0"/>
      <psa03 value="0.6761143531" flag="0"/>
      <psa10 value="0.0653705042" flag="0"/>
      <psa30 value="0.0033053913" flag="0"/>
    </comp>
    <comp name="--.HNE">
      <acc value="0.2614000668" flag="0"/>
      <vel value="0.0896659614" flag="0"/>
      <psa03 value="0.5162788920" flag="0"/>
      <psa10 value="0.0430288805" flag="0"/>
      <psa30 value="0.0035407806" flag="0"/>
    </comp>
    <comp name="--.HNZ">
      <acc value="0.3479995776" flag="0"/>
      <vel value="0.0757497450" flag="0"/>
      <psa03 value="0.2931441675" flag="0"/>
      <psa10 value="0.0419584946" flag="0"/>
      <psa30 value="0.0027127774" flag="0"/>
    </comp>
  </station>
  <station code="AMGA" name="AMGA" netid="HL" insttype="SMART24" lat="36.8316" lon="25.8938">
    <comp name="--.HHE">
      <acc value="0.1566537116" flag="0"/>
      <vel value="0.0291087651" flag="0"/>
      <psa03 value="0.0756211381" flag="0"/>
      <psa10 value="0.0111026622" flag="0"/>
      <psa30 value="0.0019976069" flag="0"/>
    </comp>
    <comp name="--.HHZ">
      <acc value="0.1374082099" flag="0"/>
      <vel value="0.0234432519" flag="0"/>
      <psa03 value="0.0514951931" flag="0"/>
      <psa10 value="0.0141222026" flag="0"/>
      <psa30 value="0.0015283568" flag="0"/>
    </comp>
    <comp name="--.HHN">
      <acc value="0.2047211338" flag="0"/>
      <vel value="0.0330947998" flag="0"/>
      <psa03 value="0.0564528218" flag="0"/>
      <psa10 value="0.0086223615" flag="0"/>
      <psa30 value="0.0020453899" flag="0"/>
    </comp>
  </station>
  <station code="APE" name="APE" netid="HL" insttype="120" lat="37.0727" lon="25.523">
    <comp name="--.HHN">
      <acc value="0.0809284065" flag="0"/>
      <vel value="0.0179599514" flag="0"/>
      <psa03 value="0.0456959050" flag="0"/>
      <psa10 value="0.0041249680" flag="0"/>
      <psa30 value="0.0009702492" flag="0"/>
    </comp>
    <comp name="--.HHE">
      <acc value="0.0746802044" flag="0"/>
      <vel value="0.0206449358" flag="0"/>
      <psa03 value="0.0491542388" flag="0"/>
      <psa10 value="0.0037245108" flag="0"/>
      <psa30 value="0.0008942368" flag="0"/>
    </comp>
    <comp name="--.HHZ">
      <acc value="0.0373059393" flag="0"/>
      <vel value="0.0084248438" flag="0"/>
      <psa03 value="0.0217207243" flag="0"/>
      <psa10 value="0.0026487390" flag="0"/>
      <psa30 value="0.0008766893" flag="0"/>
    </comp>
  </station>
  <station code="MHLO" name="MHLO" netid="HL" insttype="20" lat="36.6898" lon="24.4017">
    <comp name="--.HHE">
      <acc value="0.0483449358" flag="0"/>
      <vel value="0.0327794373" flag="0"/>
      <psa03 value="0.0951273985" flag="0"/>
      <psa10 value="0.0455940939" flag="0"/>
      <psa30 value="0.0019836616" flag="0"/>
    </comp>
    <comp name="--.HHZ">
      <acc value="0.0231196764" flag="0"/>
      <vel value="0.0149611107" flag="0"/>
      <psa03 value="0.0641240049" flag="0"/>
      <psa10 value="0.0203413663" flag="0"/>
      <psa30 value="0.0012115513" flag="0"/>
    </comp>
    <comp name="--.HHN">
      <acc value="0.0447215323" flag="0"/>
      <vel value="0.0286885179" flag="0"/>
      <psa03 value="0.1013649334" flag="0"/>
      <psa10 value="0.0510610770" flag="0"/>
      <psa30 value="0.0018164308" flag="0"/>
    </comp>
  </station>
  <station code="MILA" name="MILA" netid="HL" insttype="CMG-5" lat="36.7429" lon="24.4282">
    <comp name="00.HNE">
      <acc value="0.0545429085" flag="0"/>
      <vel value="0.0279960633" flag="0"/>
      <psa03 value="0.1044744629" flag="0"/>
      <psa10 value="0.0321510127" flag="0"/>
      <psa30 value="0.0016272080" flag="0"/>
    </comp>
    <comp name="00.HNN">
      <acc value="0.0591596083" flag="0"/>
      <vel value="0.0460832813" flag="0"/>
      <psa03 value="0.1078769648" flag="0"/>
      <psa10 value="0.0267149349" flag="0"/>
      <psa30 value="0.0017956530" flag="0"/>
    </comp>
    <comp name="00.HNZ">
      <acc value="0.0427289129" flag="0"/>
      <vel value="0.0245000311" flag="0"/>
      <psa03 value="0.0851986990" flag="0"/>
      <psa10 value="0.0243200207" flag="0"/>
      <psa30 value="0.0013872651" flag="0"/>
    </comp>
  </station>
  <station code="SANT" name="SANT" netid="HL" insttype="30" lat="36.3705" lon="25.4593">
    <comp name="--.HHN">
      <acc value="0.1817405487" flag="0"/>
      <vel value="0.0297230414" flag="0"/>
      <psa03 value="0.0976480299" flag="0"/>
      <psa10 value="0.0219440111" flag="0"/>
      <psa30 value="0.0013614978" flag="0"/>
    </comp>
    <comp name="--.HHE">
      <acc value="0.2872468380" flag="0"/>
      <vel value="0.0618266923" flag="0"/>
      <psa03 value="0.3999230676" flag="0"/>
      <psa10 value="0.0197455583" flag="0"/>
      <psa30 value="0.0022666046" flag="0"/>
    </comp>
    <comp name="--.HHZ">
      <acc value="0.2282196082" flag="0"/>
      <vel value="0.0407419122" flag="0"/>
      <psa03 value="0.1054983135" flag="0"/>
      <psa10 value="0.0142221531" flag="0"/>
      <psa30 value="0.0011490675" flag="0"/>
    </comp>
  </station>
  <station code="SAP3" name="SAP3" netid="HL" insttype="65535" lat="36.4356" lon="25.3454">
    <comp name="--.HHE">
      <acc value="0.2125120511" flag="0"/>
      <vel value="0.0446497824" flag="0"/>
      <psa03 value="0.2576915364" flag="0"/>
      <psa10 value="0.0297564593" flag="0"/>
      <psa30 value="0.0034702928" flag="0"/>
    </comp>
    <comp name="--.HHN">
      <acc value="0.1620758825" flag="0"/>
      <vel value="0.0360156849" flag="0"/>
      <psa03 value="0.2654445097" flag="0"/>
      <psa10 value="0.0244487351" flag="0"/>
      <psa30 value="0.0020953903" flag="0"/>
    </comp>
    <comp name="--.HHZ">
      <acc value="0.1630328502" flag="0"/>
      <vel value="0.0417670052" flag="0"/>
      <psa03 value="0.2542843362" flag="0"/>
      <psa10 value="0.0130761591" flag="0"/>
      <psa30 value="0.0014266319" flag="0"/>
    </comp>
  </station>
  <station code="THERA" name="THERA" netid="HL" insttype="120" lat="36.367" lon="25.4753">
    <comp name="--.HHE">
      <acc value="0.1072035677" flag="0"/>
      <vel value="0.0275624038" flag="0"/>
      <psa03 value="0.0892623994" flag="0"/>
      <psa10 value="0.0116998892" flag="0"/>
      <psa30 value="0.0017476426" flag="0"/>
    </comp>
    <comp name="--.HHZ">
      <acc value="0.0924346030" flag="0"/>
      <vel value="0.0215088242" flag="0"/>
      <psa03 value="0.0712883467" flag="0"/>
      <psa10 value="0.0126795230" flag="0"/>
      <psa30 value="0.0009031085" flag="0"/>
    </comp>
    <comp name="--.HHN">
      <acc value="0.1347152019" flag="0"/>
      <vel value="0.0310022215" flag="0"/>
      <psa03 value="0.1644159652" flag="0"/>
      <psa10 value="0.0156258828" flag="0"/>
      <psa30 value="0.0014206943" flag="0"/>
    </comp>
  </station>
  <station code="THRA" name="THRA" netid="HL" insttype="CMG-5" lat="36.415" lon="25.4324">
    <comp name="00.HNE">
      <acc value="0.3036654861" flag="0"/>
      <vel value="0.0938814495" flag="0"/>
      <psa03 value="0.8957185211" flag="0"/>
      <psa10 value="0.0508788380" flag="0"/>
      <psa30 value="0.0070538927" flag="0"/>
    </comp>
    <comp name="00.HNN">
      <acc value="0.2296524026" flag="0"/>
      <vel value="0.0848231559" flag="0"/>
      <psa03 value="0.6147550004" flag="0"/>
      <psa10 value="0.1281778206" flag="0"/>
      <psa30 value="0.0056623172" flag="0"/>
    </comp>
    <comp name="00.HNZ">
      <acc value="0.1960703887" flag="0"/>
      <vel value="0.0689580925" flag="0"/>
      <psa03 value="0.4143093116" flag="0"/>
      <psa10 value="0.0361658473" flag="0"/>
      <psa30 value="0.0031411310" flag="0"/>
    </comp>
  </station>
  <station code="TNSA" name="TNSA" netid="HL" insttype="CMG-5" lat="37.5394" lon="25.1631">
    <comp name="00.HNN">
      <acc value="0.0359469943" flag="0"/>
      <vel value="0.0135293937" flag="0"/>
      <psa03 value="0.0409384291" flag="0"/>
      <psa10 value="0.0042227746" flag="0"/>
      <psa30 value="0.0006272715" flag="0"/>
    </comp>
    <comp name="00.HNE">
      <acc value="0.0270251372" flag="0"/>
      <vel value="0.0045652302" flag="0"/>
      <psa03 value="0.0269974070" flag="0"/>
      <psa10 value="0.0021672271" flag="0"/>
      <psa30 value="0.0003468686" flag="0"/>
    </comp>
    <comp name="00.HNZ">
      <acc value="0.0292659129" flag="0"/>
      <vel value="0.0086257875" flag="0"/>
      <psa03 value="0.0208095894" flag="0"/>
      <psa10 value="0.0043637483" flag="0"/>
      <psa30 value="0.0006475488" flag="0"/>
    </comp>
  </station>
  <station code="AKRO" name="AKRO" netid="HT" insttype="Compact," lat="36.3584" lon="25.3967">
    <comp name="--.HHZ">
      <acc value="0.1849803258" flag="0"/>
      <vel value="0.0558308153" flag="0"/>
      <psa03 value="0.1933889345" flag="0"/>
      <psa10 value="0.0237172942" flag="0"/>
      <psa30 value="0.0023571219" flag="0"/>
    </comp>
    <comp name="--.HHE">
      <acc value="0.3688982861" flag="0"/>
      <vel value="0.1461167905" flag="0"/>
      <psa03 value="0.5626431133" flag="0"/>
      <psa10 value="0.0632606878" flag="0"/>
      <psa30 value="0.0045030041" flag="0"/>
    </comp>
    <comp name="--.HHN">
      <acc value="0.3068391342" flag="0"/>
      <vel value="0.0729262555" flag="0"/>
      <psa03 value="0.3309460879" flag="0"/>
      <psa10 value="0.0301099767" flag="0"/>
      <psa30 value="0.0022068922" flag="0"/>
    </comp>
  </station>
  <station code="CMBO" name="CMBO" netid="HT" insttype="120P," lat="36.4709" lon="25.4056">
    <comp name="--.HHE">
      <acc value="0.1476177135" flag="0"/>
      <vel value="0.0585808309" flag="0"/>
      <psa03 value="0.2415015235" flag="0"/>
      <psa10 value="0.0373389957" flag="0"/>
      <psa30 value="0.0030014051" flag="0"/>
    </comp>
    <comp name="--.HHN">
      <acc value="0.2439788927" flag="0"/>
      <vel value="0.1062723856" flag="0"/>
      <psa03 value="0.3191811906" flag="0"/>
      <psa10 value="0.0809255853" flag="0"/>
      <psa30 value="0.0048489314" flag="0"/>
    </comp>
    <comp name="--.HHZ">
      <acc value="0.1346193414" flag="0"/>
      <vel value="0.0476984172" flag="0"/>
      <psa03 value="0.3415402395" flag="0"/>
      <psa10 value="0.0211484218" flag="0"/>
      <psa30 value="0.0026484416" flag="0"/>
    </comp>
  </station>
</stationlist>
