<?xml version="1.0" encoding="UTF-8" standalone="yes"?>
<!DOCTYPE earthquake SYSTEM "stationlist.dtd">
<stationlist created="" xmlns="ch.ethz.sed.shakemap.usgs.xml">
  <station code="APE" name="APE" netid="GE" insttype="STS-2/N" lat="37.0727" lon="25.523">
    <comp name="--.HHE">
      <acc value="0.0878673385" flag="0"/>
      <vel value="0.0219018060" flag="0"/>
      <psa03 value="0.0504885684" flag="0"/>
      <psa10 value="0.0038034217" flag="0"/>
      <psa30 value="0.0008980841" flag="0"/>
    </comp>
    <comp name="--.HHN">
      <acc value="0.0888513486" flag="0"/>
      <vel value="0.0184350663" flag="0"/>
      <psa03 value="0.0477348831" flag="0"/>
      <psa10 value="0.0042514616" flag="0"/>
      <psa30 value="0.0009722855" flag="0"/>
    </comp>
    <comp name="--.HHZ">
      <acc value="0.0423771301" flag="0"/>
      <vel value="0.0087277937" flag="0"/>
      <psa03 value="0.0223411056" flag="0"/>
      <psa10 value="0.0026862966" flag="0"/>
      <psa30 value="0.0008794251" flag="0"/>
    </comp>
  </station>
  <station code="THERA" name="THERA" netid="GE" insttype="STS-2/N" lat="36.367" lon="25.4753">
    <comp name="--.HHE">
      <acc value="0.1091129910" flag="0"/>
      <vel value="0.0280921499" flag="0"/>
      <psa03 value="0.0922365645" flag="0"/>
      <psa10 value="0.0119195073" flag="0"/>
      <psa30 value="0.0017516785" flag="0"/>
    </comp>
    <comp name="--.HHZ">
      <acc value="0.0942177662" flag="0"/>
      <vel value="0.0221283374" flag="0"/>
      <psa03 value="0.0732226913" flag="0"/>
      <psa10 value="0.0127741694" flag="0"/>
      <psa30 value="0.0009109587" flag="0"/>
    </comp>
    <comp name="--.HHN">
      <acc value="0.0675415870" flag="0"/>
      <vel value="0.0159637418" flag="0"/>
      <psa03 value="0.0848492946" flag="0"/>
      <psa10 value="0.0078884997" flag="0"/>
      <psa30 value="0.0007160888" flag="0"/>
    </comp>
  </station>
</stationlist>
