<stationlist created="1739408575">
	<station code="ABEA" name="ABEA" netid="HC" source="Seismological Network of Crete (HC)" insttype="" lat="35.5163" lon="24.0113">
		<comp name=".HNE" depth="0.0">
			<acc value="0.0014914933111554" flag="0"/>
			<vel value="0.00197955724752" flag="0"/>
			<psa03 value="0.00274617866565151" flag="0"/>
			<psa10 value="0.00160954697614937" flag="0"/>
			<psa30 value="0.000924863976033964" flag="0"/>
		</comp>
		<comp name=".HNN" depth="0.0">
			<acc value="0.001412650939632" flag="0"/>
			<vel value="0.00197635531029" flag="0"/>
			<psa03 value="0.00301021992011097" flag="0"/>
			<psa10 value="0.00129348459325504" flag="0"/>
			<psa30 value="0.000909130329587294" flag="0"/>
		</comp>
		<comp name=".HNZ" depth="0.0">
			<acc value="0.0013987301497476" flag="0"/>
			<vel value="0.00137768090693" flag="0"/>
			<psa03 value="0.00151693642709522" flag="0"/>
			<psa10 value="0.0012468895143728" flag="0"/>
			<psa30 value="0.000570120840623326" flag="0"/>
		</comp>
	</station>
	<station code="ATEI" name="ATEI" netid="HC" source="Seismological Network of Crete (HC)" insttype="" lat="35.5193" lon="24.0432">
		<comp name=".HNE" depth="0.0">
			<acc value="0.004640646684087" flag="0"/>
			<vel value="0.00327765872328" flag="0"/>
			<psa03 value="0.0142875076751857" flag="0"/>
			<psa10 value="0.00416590112673916" flag="0"/>
			<psa30 value="0.000876315655776634" flag="0"/>
		</comp>
		<comp name=".HNN" depth="0.0">
			<acc value="0.007503254135763" flag="0"/>
			<vel value="0.0057587851366" flag="0"/>
			<psa03 value="0.0192828984911398" flag="0"/>
			<psa10 value="0.00421863993294165" flag="0"/>
			<psa30 value="0.000786264846602041" flag="0"/>
		</comp>
		<comp name=".HNZ" depth="0.0">
			<acc value="0.0036978625239834" flag="0"/>
			<vel value="0.00252351551361" flag="0"/>
			<psa03 value="0.00820547260876976" flag="0"/>
			<psa10 value="0.00388736923788191" flag="0"/>
			<psa30 value="0.000855890031847366" flag="0"/>
		</comp>
	</station>
	<station code="G0LD" name="G0LD" netid="HC" source="Seismological Network of Crete (HC)" insttype="" lat="35.4955" lon="24.0306">
		<comp name=".HNE" depth="0.0">
			<acc value="0.0048024174108312" flag="0"/>
			<vel value="0.00338306248817" flag="0"/>
			<psa03 value="0.0138267948635525" flag="0"/>
			<psa10 value="0.00403506761592987" flag="0"/>
			<psa30 value="0.00182120543758736" flag="0"/>
		</comp>
		<comp name=".HNN" depth="0.0">
			<acc value="0.0050586934286178" flag="0"/>
			<vel value="0.00261782042856" flag="0"/>
			<psa03 value="0.00912725697974679" flag="0"/>
			<psa10 value="0.00457116187954902" flag="0"/>
			<psa30 value="0.00119624039088749" flag="0"/>
		</comp>
		<comp name=".HNZ" depth="0.0">
			<acc value="0.0035822161707906" flag="0"/>
			<vel value="0.00428433816827" flag="0"/>
			<psa03 value="0.00916252298780633" flag="0"/>
			<psa10 value="0.00268153591984275" flag="0"/>
			<psa30 value="0.00245568996907406" flag="0"/>
		</comp>
	</station>
	<station code="PASK" name="PASK" netid="HC" source="Seismological Network of Crete (HC)" insttype="" lat="35.4996" lon="24.0121">
		<comp name=".HNE" depth="0.0">
			<acc value="0.0086479308465918" flag="0"/>
			<vel value="0.00698934042996" flag="0"/>
			<psa03 value="0.0226272749875787" flag="0"/>
			<psa10 value="0.00801161448012937" flag="0"/>
			<psa30 value="0.00108258869535649" flag="0"/>
		</comp>
		<comp name=".HNN" depth="0.0">
			<acc value="0.008197832668377" flag="0"/>
			<vel value="0.00520634247453" flag="0"/>
			<psa03 value="0.0248711632175216" flag="0"/>
			<psa10 value="0.00670384237791567" flag="0"/>
			<psa30 value="0.00103184231282214" flag="0"/>
		</comp>
		<comp name=".HNZ" depth="0.0">
			<acc value="0.0052526947171518" flag="0"/>
			<vel value="0.00330334386479" flag="0"/>
			<psa03 value="0.0151129126146386" flag="0"/>
			<psa10 value="0.00324271653280441" flag="0"/>
			<psa30 value="0.00110974768200322" flag="0"/>
		</comp>
	</station>
	<station code="POLY" name="POLY" netid="HC" source="Seismological Network of Crete (HC)" insttype="" lat="35.5226" lon="24.0602">
		<comp name=".HNE" depth="0.0">
			<acc value="0.001623627401502" flag="0"/>
			<vel value="0.00214729804772" flag="0"/>
			<psa03 value="0.00438733718903809" flag="0"/>
			<psa10 value="0.00126739059903305" flag="0"/>
			<psa30 value="0.000881192437176374" flag="0"/>
		</comp>
		<comp name=".HNN" depth="0.0">
			<acc value="0.0020722894725936" flag="0"/>
			<vel value="0.002420307132" flag="0"/>
			<psa03 value="0.00481100620554581" flag="0"/>
			<psa10 value="0.00144477395137117" flag="0"/>
			<psa30 value="0.00105320268617598" flag="0"/>
		</comp>
		<comp name=".HNZ" depth="0.0">
			<acc value="0.0016799671160676" flag="0"/>
			<vel value="0.00207102454094" flag="0"/>
			<psa03 value="0.00371945472895713" flag="0"/>
			<psa10 value="0.00109421830690712" flag="0"/>
			<psa30 value="0.000750655977272709" flag="0"/>
		</comp>
	</station>
	<station code="ARK1" name="ARK1" netid="HI" source="ITSAK Strong Motion Network" insttype="" lat="35.148777" lon="25.264194">
		<comp name=".HNE" depth="0.0">
			<acc value="0.01139004858702" flag="0"/>
			<vel value="0.00893053770708" flag="0"/>
			<psa03 value="0.033837991600871" flag="0"/>
			<psa10 value="0.00775685025952176" flag="0"/>
			<psa30 value="0.00102857949250959" flag="0"/>
		</comp>
		<comp name=".HNN" depth="0.0">
			<acc value="0.010513931755416" flag="0"/>
			<vel value="0.00664691114407" flag="0"/>
			<psa03 value="0.0306185752053369" flag="0"/>
			<psa10 value="0.00701863448134499" flag="0"/>
			<psa30 value="0.000651366170647549" flag="0"/>
		</comp>
		<comp name=".HNZ" depth="0.0">
			<acc value="0.007031742793374" flag="0"/>
			<vel value="0.00369257038745" flag="0"/>
			<psa03 value="0.0181994933875355" flag="0"/>
			<psa10 value="0.00669524493338645" flag="0"/>
			<psa30 value="0.000387983722851052" flag="0"/>
		</comp>
	</station>
	<station code="CH01" name="CH01" netid="HI" source="ITSAK Strong Motion Network" insttype="" lat="35.517" lon="24.0208">
		<comp name=".HNE" depth="0.0">
			<acc value="0.0052612517774988" flag="0"/>
			<vel value="0.00350685842812" flag="0"/>
			<psa03 value="0.0195498237257022" flag="0"/>
			<psa10 value="0.00575925370981322" flag="0"/>
			<psa30 value="0.00043955885820037" flag="0"/>
		</comp>
		<comp name=".HNN" depth="0.0">
			<acc value="0.0075262930374126" flag="0"/>
			<vel value="0.00430885673734" flag="0"/>
			<psa03 value="0.020518329290693" flag="0"/>
			<psa10 value="0.00439110682679007" flag="0"/>
			<psa30 value="0.000484765238316424" flag="0"/>
		</comp>
		<comp name=".HNZ" depth="0.0">
			<acc value="0.003805110430593" flag="0"/>
			<vel value="0.00177835349281" flag="0"/>
			<psa03 value="0.00908106967524536" flag="0"/>
			<psa10 value="0.00271210208532723" flag="0"/>
			<psa30 value="0.000515958919327858" flag="0"/>
		</comp>
	</station>
	<station code="CH02" name="CH02" netid="HI" source="ITSAK Strong Motion Network" insttype="" lat="35.5145" lon="24.0315">
		<comp name=".HNE" depth="0.0">
			<acc value="0.0071404545673554" flag="0"/>
			<vel value="0.00372765854857" flag="0"/>
			<psa03 value="0.0198363570300355" flag="0"/>
			<psa10 value="0.00337450893528151" flag="0"/>
			<psa30 value="0.000376609037042232" flag="0"/>
		</comp>
		<comp name=".HNN" depth="0.0">
			<acc value="0.0080824295330214" flag="0"/>
			<vel value="0.00525759356835" flag="0"/>
			<psa03 value="0.0325076873289345" flag="0"/>
			<psa10 value="0.0039342670321338" flag="0"/>
			<psa30 value="0.000550677104655196" flag="0"/>
		</comp>
		<comp name=".HNZ" depth="0.0">
			<acc value="0.0027273266661234" flag="0"/>
			<vel value="0.00156623680059" flag="0"/>
			<psa03 value="0.00676831099760246" flag="0"/>
			<psa10 value="0.00296700201807157" flag="0"/>
			<psa30 value="0.00030577150586181" flag="0"/>
		</comp>
	</station>
	<station code="CH03" name="CH03" netid="HI" source="ITSAK Strong Motion Network" insttype="" lat="35.53303" lon="24.0705">
		<comp name=".HNE" depth="0.0">
			<acc value="0.0040505005362318" flag="0"/>
			<vel value="0.00262677055505" flag="0"/>
			<psa03 value="0.0130467119368751" flag="0"/>
			<psa10 value="0.00380463196006905" flag="0"/>
			<psa30 value="0.000315884128898439" flag="0"/>
		</comp>
		<comp name=".HNN" depth="0.0">
			<acc value="0.0056587292965326" flag="0"/>
			<vel value="0.00313076352175" flag="0"/>
			<psa03 value="0.0167261874549004" flag="0"/>
			<psa10 value="0.00546980719163352" flag="0"/>
			<psa30 value="0.000556110537511745" flag="0"/>
		</comp>
		<comp name=".HNZ" depth="0.0">
			<acc value="0.0029749054970748" flag="0"/>
			<vel value="0.0021845095391" flag="0"/>
			<psa03 value="0.00743381406828534" flag="0"/>
			<psa10 value="0.00170635635804804" flag="0"/>
			<psa30 value="0.000316257278617523" flag="0"/>
		</comp>
	</station>
	<station code="GOR1" name="GOR1" netid="HI" source="ITSAK Strong Motion Network" insttype="" lat="35.0582" lon="24.9628">
		<comp name=".HNE" depth="0.0">
			<acc value="0.005996726562678" flag="0"/>
			<vel value="0.00432635168361" flag="0"/>
			<psa03 value="0.0185490022178752" flag="0"/>
			<psa10 value="0.00464785399125263" flag="0"/>
			<psa30 value="0.000549225706425064" flag="0"/>
		</comp>
		<comp name=".HNN" depth="0.0">
			<acc value="0.0040418899209582" flag="0"/>
			<vel value="0.00406022559735" flag="0"/>
			<psa03 value="0.0135705812760691" flag="0"/>
			<psa10 value="0.00504030811442401" flag="0"/>
			<psa30 value="0.000636266993316837" flag="0"/>
		</comp>
		<comp name=".HNZ" depth="0.0">
			<acc value="0.0033907971922254" flag="0"/>
			<vel value="0.00257857316831" flag="0"/>
			<psa03 value="0.00811064536336322" flag="0"/>
			<psa10 value="0.00447660264672067" flag="0"/>
			<psa30 value="0.000245268226983035" flag="0"/>
		</comp>
	</station>
	<station code="HER3" name="HER3" netid="HI" source="ITSAK Strong Motion Network" insttype="" lat="35.3296" lon="25.1065">
		<comp name=".HNE" depth="0.0">
			<acc value="0.029921555143986" flag="0"/>
			<vel value="0.014187146277" flag="0"/>
			<psa03 value="0.0849074788703897" flag="0"/>
			<psa10 value="0.0360891694803706" flag="0"/>
			<psa30 value="0.00144303382307691" flag="0"/>
		</comp>
		<comp name=".HNN" depth="0.0">
			<acc value="0.030758398940274" flag="0"/>
			<vel value="0.0191637051134" flag="0"/>
			<psa03 value="0.124165569109667" flag="0"/>
			<psa10 value="0.0226647858058344" flag="0"/>
			<psa30 value="0.000989420960947961" flag="0"/>
		</comp>
		<comp name=".HNZ" depth="0.0">
			<acc value="0.017198514234096" flag="0"/>
			<vel value="0.0092165508494" flag="0"/>
			<psa03 value="0.051134913478663" flag="0"/>
			<psa10 value="0.0117399033359693" flag="0"/>
			<psa30 value="0.000562425174574992" flag="0"/>
		</comp>
	</station>
	<station code="KIS1" name="KIS1" netid="HI" source="ITSAK Strong Motion Network" insttype="" lat="35.493933" lon="23.658993">
		<comp name=".HNE" depth="0.0">
			<acc value="0.0025174178385594" flag="0"/>
			<vel value="0.00230706801504" flag="0"/>
			<psa03 value="0.00852862227102511" flag="0"/>
			<psa10 value="0.00370168998442074" flag="0"/>
			<psa30 value="0.000320540713415982" flag="0"/>
		</comp>
		<comp name=".HNN" depth="0.0">
			<acc value="0.0032794524125718" flag="0"/>
			<vel value="0.00243489353124" flag="0"/>
			<psa03 value="0.00763650718319896" flag="0"/>
			<psa10 value="0.00339768172036259" flag="0"/>
			<psa30 value="0.000364100812600043" flag="0"/>
		</comp>
		<comp name=".HNZ" depth="0.0">
			<acc value="0.0022714800680742" flag="0"/>
			<vel value="0.00156659481538" flag="0"/>
			<psa03 value="0.00490367770915633" flag="0"/>
			<psa10 value="0.00239426782724508" flag="0"/>
			<psa30 value="0.0002629246310079" flag="0"/>
		</comp>
	</station>
	<station code="KRL1" name="KRL1" netid="HI" source="ITSAK Strong Motion Network" insttype="" lat="37.7951" lon="26.7065">
		<comp name=".HNE" depth="0.0">
			<acc value="0.0076661825818158" flag="0"/>
			<vel value="0.00201915367184" flag="0"/>
			<psa03 value="0.0111569370089847" flag="0"/>
			<psa10 value="0.00239686581184654" flag="0"/>
			<psa30 value="0.000385407224045575" flag="0"/>
		</comp>
		<comp name=".HNN" depth="0.0">
			<acc value="0.0067638549835098" flag="0"/>
			<vel value="0.00231421927566" flag="0"/>
			<psa03 value="0.00721470254799391" flag="0"/>
			<psa10 value="0.00185555319473161" flag="0"/>
			<psa30 value="0.000233700195032479" flag="0"/>
		</comp>
		<comp name=".HNZ" depth="0.0">
			<acc value="0.003444716834391" flag="0"/>
			<vel value="0.00125536638079" flag="0"/>
			<psa03 value="0.00431018071061167" flag="0"/>
			<psa10 value="0.00112353845234654" flag="0"/>
			<psa30 value="0.000150231019776068" flag="0"/>
		</comp>
	</station>
	<station code="KTL1" name="KTL1" netid="HI" source="ITSAK Strong Motion Network" insttype="" lat="35.20778" lon="25.34272">
		<comp name=".HNE" depth="0.0">
			<acc value="0.010263173665728" flag="0"/>
			<vel value="0.00588990198388" flag="0"/>
			<psa03 value="0.027717927322479" flag="0"/>
			<psa10 value="0.00567372835665717" flag="0"/>
			<psa30 value="0.000548229286248908" flag="0"/>
		</comp>
		<comp name=".HNN" depth="0.0">
			<acc value="0.017202913706256" flag="0"/>
			<vel value="0.00992962178317" flag="0"/>
			<psa03 value="0.0579986546260381" flag="0"/>
			<psa10 value="0.00922624681856975" flag="0"/>
			<psa30 value="0.000444822331879555" flag="0"/>
		</comp>
		<comp name=".HNZ" depth="0.0">
			<acc value="0.0059136766312092" flag="0"/>
			<vel value="0.00242939574757" flag="0"/>
			<psa03 value="0.0136365752311983" flag="0"/>
			<psa10 value="0.00420971809189337" flag="0"/>
			<psa30 value="0.000318112323380042" flag="0"/>
		</comp>
	</station>
	<station code="RTH1" name="RTH1" netid="HI" source="ITSAK Strong Motion Network" insttype="" lat="35.365393" lon="24.471773">
		<comp name=".HNE" depth="0.0">
			<acc value="0.0047876012668032" flag="0"/>
			<vel value="0.0022302654129" flag="0"/>
			<psa03 value="0.0145661407165991" flag="0"/>
			<psa10 value="0.00211582289725653" flag="0"/>
			<psa30 value="0.000380717277942826" flag="0"/>
		</comp>
		<comp name=".HNN" depth="0.0">
			<acc value="0.0042772721034294" flag="0"/>
			<vel value="0.00224231284017" flag="0"/>
			<psa03 value="0.0116038611467561" flag="0"/>
			<psa10 value="0.00214941574761752" flag="0"/>
			<psa30 value="0.000319156481092031" flag="0"/>
		</comp>
		<comp name=".HNZ" depth="0.0">
			<acc value="0.0041348073170964" flag="0"/>
			<vel value="0.00119623224111" flag="0"/>
			<psa03 value="0.00622580565822118" flag="0"/>
			<psa10 value="0.00159720233025349" flag="0"/>
			<psa30 value="0.00034985062380361" flag="0"/>
		</comp>
	</station>
	<station code="SFR2" name="SFR2" netid="HI" source="ITSAK Strong Motion Network" insttype="" lat="36.399841" lon="25.438209">
		<comp name=".HNE" depth="0.0">
			<acc value="0.2599961136783" flag="0"/>
			<vel value="0.0900426267727" flag="0"/>
			<psa03 value="0.52412263721927" flag="0"/>
			<psa10 value="0.043168528453151" flag="0"/>
			<psa30 value="0.00355986124000289" flag="0"/>
		</comp>
		<comp name=".HNN" depth="0.0">
			<acc value="0.2555477409588" flag="0"/>
			<vel value="0.0871171338356" flag="0"/>
			<psa03 value="0.689075897895052" flag="0"/>
			<psa10 value="0.0652858773691619" flag="0"/>
			<psa30 value="0.00339903746121536" flag="0"/>
		</comp>
		<comp name=".HNZ" depth="0.0">
			<acc value="0.34749571368276" flag="0"/>
			<vel value="0.0781288301453" flag="0"/>
			<psa03 value="0.290315440306608" flag="0"/>
			<psa10 value="0.0419764744852942" flag="0"/>
			<psa30 value="0.00278095964159654" flag="0"/>
		</comp>
	</station>
	<station code="AMGA" name="AMGA" netid="HL" source="National Observatory of Athens Seismic Network" insttype="" lat="36.831561" lon="25.893836">
		<comp name="00.HNE" depth="0.0">
			<acc value="0.09130365060288" flag="0"/>
			<vel value="0.0175490553723" flag="0"/>
			<psa03 value="0.0457527288104466" flag="0"/>
			<psa10 value="0.00699856362047488" flag="0"/>
			<psa30 value="0.00122967448073269" flag="0"/>
		</comp>
		<comp name="00.HNN" depth="0.0">
			<acc value="0.1261745390955" flag="0"/>
			<vel value="0.0205956989379" flag="0"/>
			<psa03 value="0.0355572174703249" flag="0"/>
			<psa10 value="0.00514593292403557" flag="0"/>
			<psa30 value="0.0014326240709812" flag="0"/>
		</comp>
		<comp name="00.HNZ" depth="0.0">
			<acc value="0.082328325263622" flag="0"/>
			<vel value="0.0146972828824" flag="0"/>
			<psa03 value="0.0309621292141011" flag="0"/>
			<psa10 value="0.008518159598787" flag="0"/>
			<psa30 value="0.00113127556645608" flag="0"/>
		</comp>
	</station>
	<station code="ANAF" name="ANAF" netid="HL" source="National Observatory of Athens Seismic Network" insttype="" lat="36.35675" lon="25.77262">
		<comp name=".HNE" depth="0.0">
			<acc value="1.281739429527" flag="0"/>
			<vel value="0.306738491452" flag="0"/>
			<psa03 value="1.54481633650118" flag="0"/>
			<psa10 value="0.0920576858698212" flag="0"/>
			<psa30 value="0.00699667016171772" flag="0"/>
		</comp>
		<comp name=".HNN" depth="0.0">
			<acc value="1.6839238478742" flag="0"/>
			<vel value="0.324472960154" flag="0"/>
			<psa03 value="1.51736085104081" flag="0"/>
			<psa10 value="0.0433606761818622" flag="0"/>
			<psa30 value="0.00551186721748718" flag="0"/>
		</comp>
		<comp name=".HNZ" depth="0.0">
			<acc value="0.54292746575442" flag="0"/>
			<vel value="0.108052319462" flag="0"/>
			<psa03 value="0.483484695155203" flag="0"/>
			<psa10 value="0.0251834226531601" flag="0"/>
			<psa30 value="0.00310117627104239" flag="0"/>
		</comp>
	</station>
	<station code="ASTA" name="ASTA" netid="HL" source="National Observatory of Athens Seismic Network" insttype="" lat="36.54552" lon="26.35295">
		<comp name="00.HNE" depth="0.0">
			<acc value="0.02079877307745" flag="0"/>
			<vel value="0.00555265047686" flag="0"/>
			<psa03 value="0.0201502150611956" flag="0"/>
			<psa10 value="0.00352735265417752" flag="0"/>
			<psa30 value="0.000531279257144276" flag="0"/>
		</comp>
		<comp name="00.HNN" depth="0.0">
			<acc value="0.023190782456232" flag="0"/>
			<vel value="0.00565079339471" flag="0"/>
			<psa03 value="0.0258084388490924" flag="0"/>
			<psa10 value="0.00246422566473002" flag="0"/>
			<psa30 value="0.000793278696655767" flag="0"/>
		</comp>
		<comp name="00.HNZ" depth="0.0">
			<acc value="0.017104267216356" flag="0"/>
			<vel value="0.00456112333588" flag="0"/>
			<psa03 value="0.017176109187094" flag="0"/>
			<psa10 value="0.00346038845250148" flag="0"/>
			<psa30 value="0.000682234778038219" flag="0"/>
		</comp>
	</station>
	<station code="CHNB" name="CHNB" netid="HL" source="National Observatory of Athens Seismic Network" insttype="" lat="35.48765" lon="24.06605">
		<comp name="00.HNE" depth="0.0">
			<acc value="0.011989271045796" flag="0"/>
			<vel value="0.00968453242093" flag="0"/>
			<psa03 value="0.0361080820873981" flag="0"/>
			<psa10 value="0.0125537513118963" flag="0"/>
			<psa30 value="0.000691436116747516" flag="0"/>
		</comp>
		<comp name="00.HNN" depth="0.0">
			<acc value="0.014426678658834" flag="0"/>
			<vel value="0.0112236368208" flag="0"/>
			<psa03 value="0.0376169138109192" flag="0"/>
			<psa10 value="0.0124716218087336" flag="0"/>
			<psa30 value="0.000460329192468204" flag="0"/>
		</comp>
		<comp name="00.HNZ" depth="0.0">
			<acc value="0.0091537254154068" flag="0"/>
			<vel value="0.00464936737216" flag="0"/>
			<psa03 value="0.0215793683293186" flag="0"/>
			<psa10 value="0.00274233424430963" flag="0"/>
			<psa30 value="0.000282751048577496" flag="0"/>
		</comp>
	</station>
	<station code="HERG" name="HERG" netid="HL" source="National Observatory of Athens Seismic Network" insttype="" lat="35.32622" lon="25.06586">
		<comp name="00.HNE" depth="0.0">
			<acc value="0.015966900255192" flag="0"/>
			<vel value="0.00834229967429" flag="0"/>
			<psa03 value="0.0420093428086123" flag="0"/>
			<psa10 value="0.0144714277235446" flag="0"/>
