<?xml version="1.0" encoding="UTF-8" standalone="yes"?>
<!DOCTYPE earthquake SYSTEM "stationlist.dtd">
<stationlist created="" xmlns="ch.ethz.sed.shakemap.usgs.xml">
  <station code="AFSR" name="AFSR" netid="KO" insttype="CMG-3ESP" lat="39.4468" lon="33.0707">
    <comp name="--.HHZ">
      <acc value="0.1354332477" flag="0"/>
      <vel value="0.1315706465" flag="0"/>
      <psa03 value="0.3009681668" flag="0"/>
      <psa10 value="0.2465447055" flag="0"/>
      <psa30 value="0.0136431362" flag="0"/>
    </comp>
    <comp name="--.HHN">
      <acc value="0.2962123014" flag="0"/>
      <vel value="0.2312710208" flag="0"/>
      <psa03 value="0.8537384964" flag="0"/>
      <psa10 value="0.5531622674" flag="0"/>
      <psa30 value="0.0222858865" flag="0"/>
    </comp>
    <comp name="--.HHE">
      <acc value="0.2685133401" flag="0"/>
      <vel value="0.2176685725" flag="0"/>
      <psa03 value="0.7277532096" flag="0"/>
      <psa10 value="0.5291509564" flag="0"/>
      <psa30 value="0.0287907809" flag="0"/>
    </comp>
  </station>
  <station code="CHBY" name="CHBY" netid="KO" insttype="CMG-6T" lat="38.5823" lon="32.8902">
    <comp name="--.HHE">
      <acc value="0.2158921077" flag="0"/>
      <vel value="0.2106693199" flag="0"/>
      <psa03 value="0.4032013770" flag="0"/>
      <psa10 value="0.4075678602" flag="0"/>
      <psa30 value="0.0226116368" flag="0"/>
    </comp>
    <comp name="--.HHN">
      <acc value="0.1576357191" flag="0"/>
      <vel value="0.1429981065" flag="0"/>
      <psa03 value="0.3204879743" flag="0"/>
      <psa10 value="0.2529082733" flag="0"/>
      <psa30 value="0.0212251711" flag="0"/>
    </comp>
    <comp name="--.HHZ">
      <acc value="0.0829390128" flag="0"/>
      <vel value="0.0750517262" flag="0"/>
      <psa03 value="0.2268988629" flag="0"/>
      <psa10 value="0.1022827860" flag="0"/>
      <psa30 value="0.0083532809" flag="0"/>
    </comp>
  </station>
  <station code="GULA" name="GULA" netid="KO" insttype="CMG-6T" lat="38.3444" lon="34.236">
    <comp name="--.HHZ">
      <acc value="0.0283008666" flag="0"/>
      <vel value="0.0179152650" flag="0"/>
      <psa03 value="0.1008183786" flag="0"/>
      <psa10 value="0.0296206562" flag="0"/>
      <psa30 value="0.0032817874" flag="0"/>
    </comp>
    <comp name="--.HHN">
      <acc value="0.0366503269" flag="0"/>
      <vel value="0.0357955839" flag="0"/>
      <psa03 value="0.1034624381" flag="0"/>
      <psa10 value="0.0464529301" flag="0"/>
      <psa30 value="0.0116076625" flag="0"/>
    </comp>
    <comp name="--.HHE">
      <acc value="0.0352355486" flag="0"/>
      <vel value="0.0216166825" flag="0"/>
      <psa03 value="0.0787069374" flag="0"/>
      <psa10 value="0.0233067874" flag="0"/>
      <psa30 value="0.0030580477" flag="0"/>
    </comp>
  </station>
  <station code="KAMT" name="KAMT" netid="KO" insttype="CMG-3T" lat="39.3692" lon="33.7124">
    <comp name="--.HHE">
      <acc value="0.0474266450" flag="0"/>
      <vel value="0.0323531614" flag="0"/>
      <psa03 value="0.1111750144" flag="0"/>
      <psa10 value="0.0883230837" flag="0"/>
      <psa30 value="0.0075555101" flag="0"/>
    </comp>
    <comp name="--.HHN">
      <acc value="0.0313553502" flag="0"/>
      <vel value="0.0336066144" flag="0"/>
      <psa03 value="0.0723950881" flag="0"/>
      <psa10 value="0.0516142457" flag="0"/>
      <psa30 value="0.0058482887" flag="0"/>
    </comp>
    <comp name="--.HHZ">
      <acc value="0.0228099079" flag="0"/>
      <vel value="0.0165437263" flag="0"/>
      <psa03 value="0.0475391196" flag="0"/>
      <psa10 value="0.0301026397" flag="0"/>
      <psa30 value="0.0024062386" flag="0"/>
    </comp>
  </station>
  <station code="KIZT" name="KIZT" netid="KO" insttype="CMG-3T" lat="38.8808" lon="31.883">
    <comp name="--.HHZ">
      <acc value="0.0187397850" flag="0"/>
      <vel value="0.0146777250" flag="0"/>
      <psa03 value="0.0729110433" flag="0"/>
      <psa10 value="0.0187589181" flag="0"/>
      <psa30 value="0.0025120925" flag="0"/>
    </comp>
    <comp name="--.HHN">
      <acc value="0.0346089531" flag="0"/>
      <vel value="0.0226742852" flag="0"/>
      <psa03 value="0.1127413710" flag="0"/>
      <psa10 value="0.0311993618" flag="0"/>
      <psa30 value="0.0039917279" flag="0"/>
    </comp>
    <comp name="--.HHE">
      <acc value="0.0000623465" flag="0"/>
      <vel value="0.0000514931" flag="0"/>
      <psa03 value="0.0001865917" flag="0"/>
      <psa10 value="0.0000749049" flag="0"/>
      <psa30 value="0.0000092751" flag="0"/>
    </comp>
  </station>
  <station code="KONT" name="KONT" netid="KO" insttype="CMG-3T" lat="37.957" lon="32.3563">
    <comp name="--.HHE">
      <acc value="0.0455278020" flag="0"/>
      <vel value="0.0353829106" flag="0"/>
      <psa03 value="0.0764568612" flag="0"/>
      <psa10 value="0.0660084294" flag="0"/>
      <psa30 value="0.0030787416" flag="0"/>
    </comp>
    <comp name="--.HHN">
      <acc value="0.0270096962" flag="0"/>
      <vel value="0.0237243111" flag="0"/>
      <psa03 value="0.0543580979" flag="0"/>
      <psa10 value="0.0382497104" flag="0"/>
      <psa30 value="0.0021881151" flag="0"/>
    </comp>
    <comp name="--.HHZ">
      <acc value="0.0312431059" flag="0"/>
      <vel value="0.0231205138" flag="0"/>
      <psa03 value="0.0550706699" flag="0"/>
      <psa10 value="0.0290419939" flag="0"/>
      <psa30 value="0.0015791739" flag="0"/>
    </comp>
  </station>
  <station code="KULU" name="KULU" netid="KO" insttype="CMG-6T" lat="39.0343" lon="33.0023">
    <comp name="--.HHZ">
      <acc value="1.0908910684" flag="0"/>
      <vel value="0.1259119620" flag="0"/>
      <psa03 value="0.4458922759" flag="0"/>
      <psa10 value="0.1191970516" flag="0"/>
      <psa30 value="0.0122917550" flag="0"/>
    </comp>
    <comp name="--.HHN">
      <acc value="1.6841215029" flag="0"/>
      <vel value="0.1237463180" flag="0"/>
      <psa03 value="0.8295804146" flag="0"/>
      <psa10 value="0.0962705842" flag="0"/>
      <psa30 value="0.0130233271" flag="0"/>
    </comp>
    <comp name="--.HHE">
      <acc value="1.2948596614" flag="0"/>
      <vel value="0.1116902997" flag="0"/>
      <psa03 value="0.7356359010" flag="0"/>
      <psa10 value="0.1360639619" flag="0"/>
      <psa30 value="0.0115472530" flag="0"/>
    </comp>
  </station>
  <station code="LADK" name="LADK" netid="KO" insttype="CMG-3T" lat="38.1999" lon="32.3648">
    <comp name="--.HHZ">
      <acc value="0.0280243989" flag="0"/>
      <vel value="0.0187008589" flag="0"/>
      <psa03 value="0.0862758261" flag="0"/>
      <psa10 value="0.0271644001" flag="0"/>
      <psa30 value="0.0019833272" flag="0"/>
    </comp>
    <comp name="--.HHN">
      <acc value="0.0253669492" flag="0"/>
      <vel value="0.0295997445" flag="0"/>
      <psa03 value="0.0984569488" flag="0"/>
      <psa10 value="0.0355961634" flag="0"/>
      <psa30 value="0.0028809494" flag="0"/>
    </comp>
  </station>
  <station code="LOD" name="LOD" netid="KO" insttype="CMG-3T" lat="39.8884" lon="32.7634">
    <comp name="--.HHZ">
      <acc value="0.0212216509" flag="0"/>
      <vel value="0.0194760158" flag="0"/>
      <psa03 value="0.0520666357" flag="0"/>
      <psa10 value="0.0424545982" flag="0"/>
      <psa30 value="0.0039672196" flag="0"/>
    </comp>
    <comp name="--.HHE">
      <acc value="0.1444416106" flag="0"/>
      <vel value="0.1287663342" flag="0"/>
      <psa03 value="0.4848129596" flag="0"/>
      <psa10 value="0.2229778872" flag="0"/>
      <psa30 value="0.0178135446" flag="0"/>
    </comp>
    <comp name="--.HHN">
      <acc value="0.0793201360" flag="0"/>
      <vel value="0.0705271511" flag="0"/>
      <psa03 value="0.2106650909" flag="0"/>
      <psa10 value="0.0669988325" flag="0"/>
      <psa30 value="0.0052403728" flag="0"/>
    </comp>
  </station>
  <station code="POLA" name="POLA" netid="KO" insttype="CMG-6T" lat="39.7005" lon="32.1677">
    <comp name="--.HHE">
      <acc value="0.0938925949" flag="0"/>
      <vel value="0.0752114197" flag="0"/>
      <psa03 value="0.3142128961" flag="0"/>
      <psa10 value="0.1080051760" flag="0"/>
      <psa30 value="0.0045383488" flag="0"/>
    </comp>
    <comp name="--.HHZ">
      <acc value="0.0596803822" flag="0"/>
      <vel value="0.0443451836" flag="0"/>
      <psa03 value="0.1636789220" flag="0"/>
      <psa10 value="0.0470701944" flag="0"/>
      <psa30 value="0.0026795089" flag="0"/>
    </comp>
    <comp name="--.HHN">
      <acc value="0.1170514427" flag="0"/>
      <vel value="0.0962315820" flag="0"/>
      <psa03 value="0.3985008262" flag="0"/>
      <psa10 value="0.1843613287" flag="0"/>
      <psa30 value="0.0060012678" flag="0"/>
    </comp>
  </station>
  <station code="SERE" name="SERE" netid="KO" insttype="CMG-6T" lat="38.9463" lon="33.564">
    <comp name="--.HHE">
      <acc value="0.1308161622" flag="0"/>
      <vel value="0.0785345332" flag="0"/>
      <psa03 value="0.3138746630" flag="0"/>
      <psa10 value="0.1265592760" flag="0"/>
      <psa30 value="0.0075417587" flag="0"/>
    </comp>
    <comp name="--.HHZ">
      <acc value="0.1560949891" flag="0"/>
      <vel value="0.0757867690" flag="0"/>
      <psa03 value="0.2072767909" flag="0"/>
      <psa10 value="0.0839513324" flag="0"/>
      <psa30 value="0.0102126043" flag="0"/>
    </comp>
    <comp name="--.HHN">
      <acc value="0.1363181613" flag="0"/>
      <vel value="0.0845278533" flag="0"/>
      <psa03 value="0.3309501422" flag="0"/>
      <psa10 value="0.1520758591" flag="0"/>
      <psa30 value="0.0137114434" flag="0"/>
    </comp>
  </station>
  <station code="SULT" name="SULT" netid="KO" insttype="CMG-3T" lat="38.1988" lon="33.5157">
    <comp name="--.HHE">
      <acc value="0.0252381873" flag="0"/>
      <vel value="0.0497165426" flag="0"/>
      <psa03 value="0.0500450478" flag="0"/>
      <psa10 value="0.0656724383" flag="0"/>
      <psa30 value="0.0182966163" flag="0"/>
    </comp>
    <comp name="--.HHN">
      <acc value="0.0217171068" flag="0"/>
      <vel value="0.0347482721" flag="0"/>
      <psa03 value="0.0393142804" flag="0"/>
      <psa10 value="0.0718959410" flag="0"/>
      <psa30 value="0.0150057888" flag="0"/>
    </comp>
    <comp name="--.HHZ">
      <acc value="0.0141540981" flag="0"/>
      <vel value="0.0289651258" flag="0"/>
      <psa03 value="0.0222539237" flag="0"/>
      <psa10 value="0.0482840451" flag="0"/>
      <psa30 value="0.0082885093" flag="0"/>
    </comp>
  </station>
  <station code="SVRH" name="SVRH" netid="KO" insttype="CMG-3T" lat="39.447" lon="31.523">
    <comp name="--.HHE">
      <acc value="0.0157504728" flag="0"/>
      <vel value="0.0156849436" flag="0"/>
      <psa03 value="0.0372242978" flag="0"/>
      <psa10 value="0.0147612758" flag="0"/>
      <psa30 value="0.0033402525" flag="0"/>
    </comp>
    <comp name="--.HHN">
      <acc value="0.0254580234" flag="0"/>
      <vel value="0.0195421424" flag="0"/>
      <psa03 value="0.0488992021" flag="0"/>
      <psa10 value="0.0199862892" flag="0"/>
      <psa30 value="0.0033836762" flag="0"/>
    </comp>
    <comp name="--.HHZ">
      <acc value="0.0178022279" flag="0"/>
      <vel value="0.0176786133" flag="0"/>
      <psa03 value="0.0631552382" flag="0"/>
      <psa10 value="0.0303199708" flag="0"/>
      <psa30 value="0.0027945700" flag="0"/>
    </comp>
  </station>
  <station code="YAYX" name="YAYX" netid="KO" insttype="CMG-6T" lat="38.9387" lon="33.8115">
    <comp name="--.HHZ">
      <acc value="0.0377421391" flag="0"/>
      <vel value="0.0164931548" flag="0"/>
      <psa03 value="0.0717018092" flag="0"/>
      <psa10 value="0.0143740987" flag="0"/>
      <psa30 value="0.0023859024" flag="0"/>
    </comp>
    <comp name="--.HHN">
      <acc value="0.0337283460" flag="0"/>
      <vel value="0.0243088123" flag="0"/>
      <psa03 value="0.0972242890" flag="0"/>
      <psa10 value="0.0223616257" flag="0"/>
      <psa30 value="0.0057606469" flag="0"/>
    </comp>
    <comp name="--.HHE">
      <acc value="0.0447342091" flag="0"/>
      <vel value="0.0230261918" flag="0"/>
      <psa03 value="0.0729128101" flag="0"/>
      <psa10 value="0.0222023559" flag="0"/>
      <psa30 value="0.0026059680" flag="0"/>
    </comp>
  </station>
  <station code="YESY" name="YESY" netid="KO" insttype="CMG-6T" lat="37.7825" lon="33.7431">
    <comp name="--.HHE">
      <acc value="0.0108627803" flag="0"/>
      <vel value="0.0195675017" flag="0"/>
      <psa03 value="0.0166830841" flag="0"/>
      <psa10 value="0.0356820648" flag="0"/>
      <psa30 value="0.0083279760" flag="0"/>
    </comp>
    <comp name="--.HHN">
      <acc value="0.0070758746" flag="0"/>
      <vel value="0.0117966522" flag="0"/>
      <psa03 value="0.0127543482" flag="0"/>
      <psa10 value="0.0191800146" flag="0"/>
      <psa30 value="0.0049667614" flag="0"/>
    </comp>
    <comp name="--.HHZ">
      <acc value="0.0061280886" flag="0"/>
      <vel value="0.0104527248" flag="0"/>
      <psa03 value="0.0095174344" flag="0"/>
      <psa10 value="0.0222474907" flag="0"/>
      <psa30 value="0.0017898976" flag="0"/>
    </comp>
  </station>
</stationlist>
