<?xml version="1.0" encoding="UTF-8" standalone="yes"?>
<!DOCTYPE earthquake SYSTEM "stationlist.dtd">
<stationlist created="" xmlns="ch.ethz.sed.shakemap.usgs.xml">
  <station code="AFSR" name="AFSR" netid="KO" insttype="CMG-3ESP" lat="39.4468" lon="33.0707">
    <comp name="--.HHE">
      <acc value="0.2675771113" flag="0"/>
      <vel value="0.2249203869" flag="0"/>
      <psa03 value="0.7278083597" flag="0"/>
      <psa10 value="0.5308349720" flag="0"/>
      <psa30 value="0.0325690760" flag="0"/>
    </comp>
    <comp name="--.HHN">
      <acc value="0.2967078215" flag="0"/>
      <vel value="0.2322504134" flag="0"/>
      <psa03 value="0.8542903559" flag="0"/>
      <psa10 value="0.5537795764" flag="0"/>
      <psa30 value="0.0233112068" flag="0"/>
    </comp>
    <comp name="--.HHZ">
      <acc value="0.1356171094" flag="0"/>
      <vel value="0.1335856485" flag="0"/>
      <psa03 value="0.3010937985" flag="0"/>
      <psa10 value="0.2468603477" flag="0"/>
      <psa30 value="0.0150768942" flag="0"/>
    </comp>
  </station>
  <station code="BLVD" name="BLVD" netid="KO" insttype="CMG-6T" lat="38.7946" lon="31.095">
    <comp name="--.HHZ">
      <acc value="0.0136336883" flag="0"/>
      <vel value="0.0123291107" flag="0"/>
      <psa03 value="0.0342528170" flag="0"/>
      <psa10 value="0.0141676068" flag="0"/>
      <psa30 value="0.0021364983" flag="0"/>
    </comp>
    <comp name="--.HHE">
      <acc value="0.0099834704" flag="0"/>
      <vel value="0.0097414125" flag="0"/>
      <psa03 value="0.0218573495" flag="0"/>
      <psa10 value="0.0133845634" flag="0"/>
      <psa30 value="0.0019231693" flag="0"/>
    </comp>
    <comp name="--.HHN">
      <acc value="0.0095972268" flag="0"/>
      <vel value="0.0116442095" flag="0"/>
      <psa03 value="0.0258660976" flag="0"/>
      <psa10 value="0.0237002153" flag="0"/>
      <psa30 value="0.0020378654" flag="0"/>
    </comp>
  </station>
  <station code="CHBY" name="CHBY" netid="KO" insttype="CMG-6T" lat="38.5823" lon="32.8902">
    <comp name="--.HHE">
      <acc value="0.2158676599" flag="0"/>
      <vel value="0.2068098441" flag="0"/>
      <psa03 value="0.4028554982" flag="0"/>
      <psa10 value="0.4085221645" flag="0"/>
      <psa30 value="0.0254971307" flag="0"/>
    </comp>
    <comp name="--.HHN">
      <acc value="0.1577846506" flag="0"/>
      <vel value="0.1450166289" flag="0"/>
      <psa03 value="0.3201416355" flag="0"/>
      <psa10 value="0.2530241809" flag="0"/>
      <psa30 value="0.0230482542" flag="0"/>
    </comp>
    <comp name="--.HHZ">
      <acc value="0.0823940678" flag="0"/>
      <vel value="0.0756191631" flag="0"/>
      <psa03 value="0.2274744316" flag="0"/>
      <psa10 value="0.1020758678" flag="0"/>
      <psa30 value="0.0093600736" flag="0"/>
    </comp>
  </station>
  <station code="GULA" name="GULA" netid="KO" insttype="CMG-6T" lat="38.3444" lon="34.236">
    <comp name="--.HHE">
      <acc value="0.0352214531" flag="0"/>
      <vel value="0.0216087378" flag="0"/>
      <psa03 value="0.0787037104" flag="0"/>
      <psa10 value="0.0232635472" flag="0"/>
      <psa30 value="0.0034991430" flag="0"/>
    </comp>
    <comp name="--.HHN">
      <acc value="0.0361903557" flag="0"/>
      <vel value="0.0358535422" flag="0"/>
      <psa03 value="0.1030025814" flag="0"/>
      <psa10 value="0.0467938174" flag="0"/>
      <psa30 value="0.0133104953" flag="0"/>
    </comp>
    <comp name="--.HHZ">
      <acc value="0.0282980698" flag="0"/>
      <vel value="0.0180826939" flag="0"/>
      <psa03 value="0.1008318543" flag="0"/>
      <psa10 value="0.0296385886" flag="0"/>
      <psa30 value="0.0035647596" flag="0"/>
    </comp>
  </station>
  <station code="KIZT" name="KIZT" netid="KO" insttype="CMG-3T" lat="38.8808" lon="31.883">
    <comp name="--.HHE">
      <acc value="0.0000622519" flag="0"/>
      <vel value="0.0000536318" flag="0"/>
      <psa03 value="0.0001868100" flag="0"/>
      <psa10 value="0.0000749049" flag="0"/>
      <psa30 value="0.0000108159" flag="0"/>
    </comp>
    <comp name="--.HHN">
      <acc value="0.0347432186" flag="0"/>
      <vel value="0.0235797815" flag="0"/>
      <psa03 value="0.1128309754" flag="0"/>
      <psa10 value="0.0314417833" flag="0"/>
      <psa30 value="0.0046770531" flag="0"/>
    </comp>
    <comp name="--.HHZ">
      <acc value="0.0188154386" flag="0"/>
      <vel value="0.0145072634" flag="0"/>
      <psa03 value="0.0729846217" flag="0"/>
      <psa10 value="0.0187806547" flag="0"/>
      <psa30 value="0.0029878507" flag="0"/>
    </comp>
  </station>
  <station code="KONT" name="KONT" netid="KO" insttype="CMG-3T" lat="37.957" lon="32.3563">
    <comp name="--.HHZ">
      <acc value="0.0312375034" flag="0"/>
      <vel value="0.0229235900" flag="0"/>
      <psa03 value="0.0550585751" flag="0"/>
      <psa10 value="0.0289737660" flag="0"/>
      <psa30 value="0.0017648019" flag="0"/>
    </comp>
    <comp name="--.HHE">
      <acc value="0.0456253738" flag="0"/>
      <vel value="0.0352778371" flag="0"/>
      <psa03 value="0.0765492220" flag="0"/>
      <psa10 value="0.0659532950" flag="0"/>
      <psa30 value="0.0032739821" flag="0"/>
    </comp>
    <comp name="--.HHN">
      <acc value="0.0270101141" flag="0"/>
      <vel value="0.0233615288" flag="0"/>
      <psa03 value="0.0543152939" flag="0"/>
      <psa10 value="0.0382880793" flag="0"/>
      <psa30 value="0.0023648024" flag="0"/>
    </comp>
  </station>
  <station code="KOZK" name="KOZK" netid="KO" insttype="CMG-5T" lat="39.2101" lon="34.868">
    <comp name="--.HNN">
      <acc value="0.0401163426" flag="0"/>
      <vel value="0.0447512772" flag="0"/>
      <psa03 value="0.0636812465" flag="0"/>
      <psa10 value="0.0832057418" flag="0"/>
      <psa30 value="0.0052663556" flag="0"/>
    </comp>
    <comp name="--.HNE">
      <acc value="0.0383225513" flag="0"/>
      <vel value="0.0397108463" flag="0"/>
      <psa03 value="0.0680383813" flag="0"/>
      <psa10 value="0.0909341347" flag="0"/>
      <psa30 value="0.0079433043" flag="0"/>
    </comp>
    <comp name="--.HNZ">
      <acc value="0.0238411556" flag="0"/>
      <vel value="0.0174373137" flag="0"/>
      <psa03 value="0.0695946493" flag="0"/>
      <psa10 value="0.0268981077" flag="0"/>
      <psa30 value="0.0034298895" flag="0"/>
    </comp>
  </station>
  <station code="LOD" name="LOD" netid="KO" insttype="CMG-3T" lat="39.8884" lon="32.7634">
    <comp name="--.HHE">
      <acc value="0.1444125307" flag="0"/>
      <vel value="0.1301241724" flag="0"/>
      <psa03 value="0.4848293005" flag="0"/>
      <psa10 value="0.2231249243" flag="0"/>
      <psa30 value="0.0195248088" flag="0"/>
    </comp>
    <comp name="--.HHN">
      <acc value="0.0793523389" flag="0"/>
      <vel value="0.0710343247" flag="0"/>
      <psa03 value="0.2107134092" flag="0"/>
      <psa10 value="0.0671000148" flag="0"/>
      <psa30 value="0.0058683883" flag="0"/>
    </comp>
    <comp name="--.HHZ">
      <acc value="0.0212666231" flag="0"/>
      <vel value="0.0197865342" flag="0"/>
      <psa03 value="0.0521202005" flag="0"/>
      <psa10 value="0.0424617016" flag="0"/>
      <psa30 value="0.0046174645" flag="0"/>
    </comp>
  </station>
  <station code="POLA" name="POLA" netid="KO" insttype="CMG-6T" lat="39.7005" lon="32.1677">
    <comp name="--.HHZ">
      <acc value="0.0596749436" flag="0"/>
      <vel value="0.0443331654" flag="0"/>
      <psa03 value="0.1636729952" flag="0"/>
      <psa10 value="0.0470630653" flag="0"/>
      <psa30 value="0.0026863532" flag="0"/>
    </comp>
    <comp name="--.HHE">
      <acc value="0.0939064459" flag="0"/>
      <vel value="0.0751426041" flag="0"/>
      <psa03 value="0.3142261805" flag="0"/>
      <psa10 value="0.1080123867" flag="0"/>
      <psa30 value="0.0045306923" flag="0"/>
    </comp>
    <comp name="--.HHN">
      <acc value="0.1170430067" flag="0"/>
      <vel value="0.0962249708" flag="0"/>
      <psa03 value="0.3985113988" flag="0"/>
      <psa10 value="0.1843625078" flag="0"/>
      <psa30 value="0.0060368114" flag="0"/>
    </comp>
  </station>
  <station code="SULT" name="SULT" netid="KO" insttype="CMG-3T" lat="38.1988" lon="33.5157">
    <comp name="--.HHE">
      <acc value="0.0254805521" flag="0"/>
      <vel value="0.0584804659" flag="0"/>
      <psa03 value="0.0501617674" flag="0"/>
      <psa10 value="0.0662958987" flag="0"/>
      <psa30 value="0.0204953685" flag="0"/>
    </comp>
    <comp name="--.HHN">
      <acc value="0.0220011005" flag="0"/>
      <vel value="0.0367398230" flag="0"/>
      <psa03 value="0.0396013352" flag="0"/>
      <psa10 value="0.0711987783" flag="0"/>
      <psa30 value="0.0170757551" flag="0"/>
    </comp>
    <comp name="--.HHZ">
      <acc value="0.0141216262" flag="0"/>
      <vel value="0.0315262759" flag="0"/>
      <psa03 value="0.0222838034" flag="0"/>
      <psa10 value="0.0480697408" flag="0"/>
      <psa30 value="0.0091664667" flag="0"/>
    </comp>
  </station>
  <station code="SVRH" name="SVRH" netid="KO" insttype="CMG-3T" lat="39.447" lon="31.523">
    <comp name="--.HHE">
      <acc value="0.0158483162" flag="0"/>
      <vel value="0.0145883754" flag="0"/>
      <psa03 value="0.0373128902" flag="0"/>
      <psa10 value="0.0147858430" flag="0"/>
      <psa30 value="0.0033492922" flag="0"/>
    </comp>
    <comp name="--.HHN">
      <acc value="0.0253097707" flag="0"/>
      <vel value="0.0203127603" flag="0"/>
      <psa03 value="0.0491051576" flag="0"/>
      <psa10 value="0.0202378361" flag="0"/>
      <psa30 value="0.0039110979" flag="0"/>
    </comp>
    <comp name="--.HHZ">
      <acc value="0.0177629807" flag="0"/>
      <vel value="0.0183224165" flag="0"/>
      <psa03 value="0.0631269089" flag="0"/>
      <psa10 value="0.0302223963" flag="0"/>
      <psa30 value="0.0031755300" flag="0"/>
    </comp>
  </station>
  <station code="YESY" name="YESY" netid="KO" insttype="CMG-6T" lat="37.7825" lon="33.7431">
    <comp name="--.HHZ">
      <acc value="0.0061617752" flag="0"/>
      <vel value="0.0103348277" flag="0"/>
      <psa03 value="0.0095179390" flag="0"/>
      <psa10 value="0.0222339632" flag="0"/>
      <psa30 value="0.0021146765" flag="0"/>
    </comp>
    <comp name="--.HHN">
      <acc value="0.0071866834" flag="0"/>
      <vel value="0.0128675156" flag="0"/>
      <psa03 value="0.0127223447" flag="0"/>
      <psa10 value="0.0192259441" flag="0"/>
      <psa30 value="0.0054600938" flag="0"/>
    </comp>
    <comp name="--.HHE">
      <acc value="0.0107677213" flag="0"/>
      <vel value="0.0211604556" flag="0"/>
      <psa03 value="0.0166062168" flag="0"/>
      <psa10 value="0.0359544607" flag="0"/>
      <psa30 value="0.0097261399" flag="0"/>
    </comp>
  </station>
</stationlist>
