<?xml version="1.0" encoding="UTF-8" standalone="yes"?>
<!DOCTYPE earthquake SYSTEM "stationlist.dtd">
<stationlist created="" xmlns="ch.ethz.sed.shakemap.usgs.xml">
  <station code="KOSP" name="KOSP" netid="HC" insttype="60" lat="36.881" lon="27.281">
    <comp name="--.HHZ">
      <acc value="0.0974970057" flag="0"/>
      <vel value="0.0451123557" flag="0"/>
      <psa03 value="0.1908958993" flag="0"/>
      <psa10 value="0.0357999118" flag="0"/>
      <psa30 value="0.0039449745" flag="0"/>
    </comp>
    <comp name="--.HHN">
      <acc value="0.1041547448" flag="0"/>
      <vel value="0.0804429512" flag="0"/>
      <psa03 value="0.3876831053" flag="0"/>
      <psa10 value="0.0601951477" flag="0"/>
      <psa30 value="0.0060228664" flag="0"/>
    </comp>
    <comp name="--.HHE">
      <acc value="0.1268438345" flag="0"/>
      <vel value="0.0545536392" flag="0"/>
      <psa03 value="0.4121518090" flag="0"/>
      <psa10 value="0.0455685614" flag="0"/>
      <psa30 value="0.0067044013" flag="0"/>
    </comp>
  </station>
  <station code="KSS1" name="KSS1" netid="HI" insttype="CMG-5TD,ACCELEROMETER,GURALP" lat="35.4189" lon="26.9207">
    <comp name="--.HNN">
      <acc value="0.0974506296" flag="0"/>
      <vel value="0.0447453514" flag="0"/>
      <psa03 value="0.2011751424" flag="0"/>
      <psa10 value="0.0207248615" flag="0"/>
      <psa30 value="0.0012667151" flag="0"/>
    </comp>
    <comp name="--.HNZ">
      <acc value="0.0604167475" flag="0"/>
      <vel value="0.0214701320" flag="0"/>
      <psa03 value="0.0481956668" flag="0"/>
      <psa10 value="0.0162311904" flag="0"/>
      <psa30 value="0.0017737116" flag="0"/>
    </comp>
    <comp name="--.HNE">
      <acc value="0.0793392788" flag="0"/>
      <vel value="0.0399710612" flag="0"/>
      <psa03 value="0.1502101997" flag="0"/>
      <psa10 value="0.0249510415" flag="0"/>
      <psa30 value="0.0017883112" flag="0"/>
    </comp>
  </station>
  <station code="RDI1" name="RDI1" netid="HI" insttype="CMG-5TD,ACCELEROMETER,GURALP" lat="36.4514" lon="28.224">
    <comp name="--.HNE">
      <acc value="0.2110341711" flag="0"/>
      <vel value="0.0892256674" flag="0"/>
      <psa03 value="0.4481126717" flag="0"/>
      <psa10 value="0.1046597016" flag="0"/>
      <psa30 value="0.0084396937" flag="0"/>
    </comp>
    <comp name="--.HNN">
      <acc value="0.1236285377" flag="0"/>
      <vel value="0.0637699685" flag="0"/>
      <psa03 value="0.3923513726" flag="0"/>
      <psa10 value="0.0899699766" flag="0"/>
      <psa30 value="0.0087664547" flag="0"/>
    </comp>
    <comp name="--.HNZ">
      <acc value="0.2113338484" flag="0"/>
      <vel value="0.0772632027" flag="0"/>
      <psa03 value="0.2839938782" flag="0"/>
      <psa10 value="0.0644818418" flag="0"/>
      <psa30 value="0.0050037646" flag="0"/>
    </comp>
  </station>
  <station code="ARG" name="ARG" netid="HL" insttype="LE3D20_DR24" lat="36.2136" lon="28.1212">
    <comp name="--.HHE">
      <acc value="0.5764516725" flag="0"/>
      <vel value="0.2393290746" flag="0"/>
      <psa03 value="1.0377356841" flag="0"/>
      <psa10 value="0.1688016594" flag="0"/>
      <psa30 value="0.0110592914" flag="0"/>
    </comp>
    <comp name="--.HHN">
      <acc value="0.5078378337" flag="0"/>
      <vel value="0.2434334012" flag="0"/>
      <psa03 value="0.5997983238" flag="0"/>
      <psa10 value="0.2182291278" flag="0"/>
      <psa30 value="0.0184185531" flag="0"/>
    </comp>
    <comp name="--.HHZ">
      <acc value="0.5309931949" flag="0"/>
      <vel value="0.1400965585" flag="0"/>
      <psa03 value="0.4122998035" flag="0"/>
      <psa10 value="0.1061377290" flag="0"/>
      <psa30 value="0.0071150005" flag="0"/>
    </comp>
  </station>
  <station code="KLNA" name="KLNA" netid="HL" insttype="CMG-5" lat="36.9571" lon="26.9727">
    <comp name="00.HNN">
      <acc value="0.2062425388" flag="0"/>
      <vel value="0.0632208773" flag="0"/>
      <psa03 value="0.4046860618" flag="0"/>
      <psa10 value="0.0345513294" flag="0"/>
      <psa30 value="0.0019581672" flag="0"/>
    </comp>
    <comp name="00.HNE">
      <acc value="0.3191972378" flag="0"/>
      <vel value="0.1086782036" flag="0"/>
      <psa03 value="0.6330046692" flag="0"/>
      <psa10 value="0.0295855290" flag="0"/>
      <psa30 value="0.0032057140" flag="0"/>
    </comp>
    <comp name="00.HNZ">
      <acc value="0.1929913711" flag="0"/>
      <vel value="0.0607884198" flag="0"/>
      <psa03 value="0.1700597111" flag="0"/>
      <psa10 value="0.0216606370" flag="0"/>
      <psa30 value="0.0013118118" flag="0"/>
    </comp>
  </station>
  <station code="NISR" name="NISR" netid="HL" insttype="65535" lat="36.6106" lon="27.131">
    <comp name="--.HHZ">
      <acc value="0.0440660569" flag="0"/>
      <vel value="0.0199737061" flag="0"/>
      <psa03 value="0.1246973054" flag="0"/>
      <psa10 value="0.0273779097" flag="0"/>
      <psa30 value="0.0017555682" flag="0"/>
    </comp>
    <comp name="--.HHE">
      <acc value="0.1656777425" flag="0"/>
      <vel value="0.0618625470" flag="0"/>
      <psa03 value="0.3614830032" flag="0"/>
      <psa10 value="0.0331591263" flag="0"/>
      <psa30 value="0.0050809447" flag="0"/>
    </comp>
    <comp name="--.HHN">
      <acc value="0.0848430816" flag="0"/>
      <vel value="0.0315368858" flag="0"/>
      <psa03 value="0.1681721329" flag="0"/>
      <psa10 value="0.0239797820" flag="0"/>
      <psa30 value="0.0035365556" flag="0"/>
    </comp>
  </station>
  <station code="NISR2" name="NISR2" netid="HL" insttype="120" lat="36.5744" lon="27.1767">
    <comp name="--.HHE">
      <acc value="0.4747855235" flag="0"/>
      <vel value="0.2016622145" flag="0"/>
      <psa03 value="1.0501587291" flag="0"/>
      <psa10 value="0.3191257432" flag="0"/>
      <psa30 value="0.0117644679" flag="0"/>
    </comp>
    <comp name="--.HHZ">
      <acc value="0.2345623845" flag="0"/>
      <vel value="0.0834913116" flag="0"/>
      <psa03 value="0.4581071846" flag="0"/>
      <psa10 value="0.0660006929" flag="0"/>
      <psa30 value="0.0048032878" flag="0"/>
    </comp>
    <comp name="--.HHN">
      <acc value="0.6800790776" flag="0"/>
      <vel value="0.2531226435" flag="0"/>
      <psa03 value="1.6213981844" flag="0"/>
      <psa10 value="0.2429084183" flag="0"/>
      <psa30 value="0.0098184308" flag="0"/>
    </comp>
  </station>
  <station code="RODB" name="RODB" netid="HL" insttype="CMG-5" lat="36.4471" lon="28.2212">
    <comp name="00.HNN">
      <acc value="0.1685835849" flag="0"/>
      <vel value="0.0799239800" flag="0"/>
      <psa03 value="0.5171027420" flag="0"/>
      <psa10 value="0.0715277457" flag="0"/>
      <psa30 value="0.0084352155" flag="0"/>
    </comp>
    <comp name="00.HNZ">
      <acc value="0.2287011884" flag="0"/>
      <vel value="0.1121890436" flag="0"/>
      <psa03 value="0.3223533963" flag="0"/>
      <psa10 value="0.0566525876" flag="0"/>
      <psa30 value="0.0050526962" flag="0"/>
    </comp>
    <comp name="00.HNE">
      <acc value="0.1622071745" flag="0"/>
      <vel value="0.0894053046" flag="0"/>
      <psa03 value="0.5287003733" flag="0"/>
      <psa10 value="0.0788664568" flag="0"/>
      <psa30 value="0.0079625108" flag="0"/>
    </comp>
  </station>
  <station code="BODA" name="BODA" netid="KO" insttype="ACEBOX" lat="37.0348" lon="27.4304">
    <comp name="--.HNE">
      <acc value="0.1912178384" flag="0"/>
      <vel value="0.0794352778" flag="0"/>
      <psa03 value="0.8275003953" flag="0"/>
      <psa10 value="0.0289454085" flag="0"/>
      <psa30 value="0.0030831182" flag="0"/>
    </comp>
    <comp name="--.HNZ">
      <acc value="0.1144765449" flag="0"/>
      <vel value="0.0345406815" flag="0"/>
      <psa03 value="0.2586647158" flag="0"/>
      <psa10 value="0.0178983185" flag="0"/>
      <psa30 value="0.0013502853" flag="0"/>
    </comp>
    <comp name="--.HNN">
      <acc value="0.2408182569" flag="0"/>
      <vel value="0.0954167140" flag="0"/>
      <psa03 value="0.5172689444" flag="0"/>
      <psa10 value="0.0430618361" flag="0"/>
      <psa30 value="0.0036333756" flag="0"/>
    </comp>
  </station>
  <station code="BODT" name="BODT" netid="KO" insttype="CMG-3ESP" lat="37.0622" lon="27.3103">
    <comp name="--.HHN">
      <acc value="0.4962611505" flag="0"/>
      <vel value="0.2115919524" flag="0"/>
      <psa03 value="0.7029444820" flag="0"/>
      <psa10 value="0.0829886929" flag="0"/>
      <psa30 value="0.0058987178" flag="0"/>
    </comp>
    <comp name="--.HHE">
      <acc value="0.5621924084" flag="0"/>
      <vel value="0.1484976879" flag="0"/>
      <psa03 value="0.6028832347" flag="0"/>
      <psa10 value="0.0468057269" flag="0"/>
      <psa30 value="0.0048950550" flag="0"/>
    </comp>
    <comp name="--.HHZ">
      <acc value="0.3319876077" flag="0"/>
      <vel value="0.0772526433" flag="0"/>
      <psa03 value="0.3015396935" flag="0"/>
      <psa10 value="0.0181615491" flag="0"/>
      <psa30 value="0.0023370852" flag="0"/>
    </comp>
  </station>
  <station code="DALY" name="DALY" netid="KO" insttype="CMG-3T" lat="36.8162" lon="28.6532">
    <comp name="--.HHE">
      <acc value="0.0380045968" flag="0"/>
      <vel value="0.0184723601" flag="0"/>
      <psa03 value="0.0610832433" flag="0"/>
      <psa10 value="0.0140200120" flag="0"/>
      <psa30 value="0.0033395156" flag="0"/>
    </comp>
    <comp name="--.HHN">
      <acc value="0.0498559113" flag="0"/>
      <vel value="0.0206460150" flag="0"/>
      <psa03 value="0.1010920703" flag="0"/>
      <psa10 value="0.0187875320" flag="0"/>
      <psa30 value="0.0027248569" flag="0"/>
    </comp>
    <comp name="--.HHZ">
      <acc value="0.0399474868" flag="0"/>
      <vel value="0.0168816790" flag="0"/>
      <psa03 value="0.0630477505" flag="0"/>
      <psa10 value="0.0114912626" flag="0"/>
      <psa30 value="0.0018143337" flag="0"/>
    </comp>
  </station>
  <station code="DAT" name="DAT" netid="KO" insttype="CMG-3T" lat="36.7308" lon="27.5767">
    <comp name="--.HHE">
      <acc value="0.6307579750" flag="0"/>
      <vel value="0.2665046176" flag="0"/>
      <psa03 value="0.6698083146" flag="0"/>
      <psa10 value="0.1325648508" flag="0"/>
      <psa30 value="0.0101994712" flag="0"/>
    </comp>
    <comp name="--.HHZ">
      <acc value="0.0000282602" flag="0"/>
      <vel value="0.0000036247" flag="0"/>
      <psa03 value="0.0000144092" flag="0"/>
      <psa10 value="0.0000038058" flag="0"/>
      <psa30 value="0.0000007348" flag="0"/>
    </comp>
    <comp name="--.HHN">
      <acc value="0.4348363117" flag="0"/>
      <vel value="0.2061263744" flag="0"/>
      <psa03 value="1.1274086345" flag="0"/>
      <psa10 value="0.1463976300" flag="0"/>
      <psa30 value="0.0060186051" flag="0"/>
    </comp>
  </station>
  <station code="DATC" name="DATC" netid="KO" insttype="CMG-5T" lat="36.7584" lon="27.6602">
    <comp name="--.HNN">
      <acc value="0.7918414769" flag="0"/>
      <vel value="0.3240412000" flag="0"/>
      <psa03 value="2.3507493032" flag="0"/>
      <psa10 value="0.3182247173" flag="0"/>
      <psa30 value="0.0153538803" flag="0"/>
    </comp>
    <comp name="--.HNE">
      <acc value="1.9072627055" flag="0"/>
      <vel value="1.1614553529" flag="0"/>
      <psa03 value="4.9271263048" flag="0"/>
      <psa10 value="0.7775524837" flag="0"/>
      <psa30 value="0.0492784316" flag="0"/>
    </comp>
    <comp name="--.HNZ">
      <acc value="0.7035092463" flag="0"/>
      <vel value="0.2728489457" flag="0"/>
      <psa03 value="1.5177459957" flag="0"/>
      <psa10 value="0.3142181856" flag="0"/>
      <psa30 value="0.0142684387" flag="0"/>
    </comp>
  </station>
  <station code="FETI" name="FETI" netid="KO" insttype="CMG-5T" lat="36.6903" lon="29.096">
    <comp name="--.HNZ">
      <acc value="0.0796821437" flag="0"/>
      <vel value="0.0111874394" flag="0"/>
      <psa03 value="0.0580721811" flag="0"/>
      <psa10 value="0.0115725613" flag="0"/>
      <psa30 value="0.0014250878" flag="0"/>
    </comp>
    <comp name="--.HNE">
      <acc value="0.0967647924" flag="0"/>
      <vel value="0.0156332049" flag="0"/>
      <psa03 value="0.0659258638" flag="0"/>
      <psa10 value="0.0214389399" flag="0"/>
      <psa30 value="0.0017085628" flag="0"/>
    </comp>
    <comp name="--.HNN">
      <acc value="0.0073932894" flag="0"/>
      <vel value="0.0337232940" flag="0"/>
      <psa03 value="0.0064784130" flag="0"/>
      <psa10 value="0.0076774346" flag="0"/>
      <psa30 value="0.0100469488" flag="0"/>
    </comp>
  </station>
  <station code="FETY" name="FETY" netid="KO" insttype="CMG-3ESP" lat="36.6353" lon="29.0835">
    <comp name="--.HHE">
      <acc value="0.0638533244" flag="0"/>
      <vel value="0.0191383859" flag="0"/>
      <psa03 value="0.1495785347" flag="0"/>
      <psa10 value="0.0099327783" flag="0"/>
      <psa30 value="0.0010664663" flag="0"/>
    </comp>
    <comp name="--.HHN">
      <acc value="0.0576389971" flag="0"/>
      <vel value="0.0180389358" flag="0"/>
      <psa03 value="0.0780376824" flag="0"/>
      <psa10 value="0.0162340747" flag="0"/>
      <psa30 value="0.0016701192" flag="0"/>
    </comp>
    <comp name="--.HHZ">
      <acc value="0.0416475717" flag="0"/>
      <vel value="0.0126982261" flag="0"/>
      <psa03 value="0.0688167497" flag="0"/>
      <psa10 value="0.0137515897" flag="0"/>
      <psa30 value="0.0012020968" flag="0"/>
    </comp>
  </station>
  <station code="MLSB" name="MLSB" netid="KO" insttype="CMG-3ESP" lat="37.2953" lon="27.7767">
    <comp name="--.HHN">
      <acc value="0.0492410607" flag="0"/>
      <vel value="0.0247466049" flag="0"/>
      <psa03 value="0.1436798652" flag="0"/>
      <psa10 value="0.0096614664" flag="0"/>
      <psa30 value="0.0028118952" flag="0"/>
    </comp>
    <comp name="--.HHZ">
      <acc value="0.0250820335" flag="0"/>
      <vel value="0.0134667421" flag="0"/>
      <psa03 value="0.0669122053" flag="0"/>
      <psa10 value="0.0099510168" flag="0"/>
      <psa30 value="0.0015416084" flag="0"/>
    </comp>
    <comp name="--.HHE">
      <acc value="0.0495589458" flag="0"/>
      <vel value="0.0211467681" flag="0"/>
      <psa03 value="0.1141804888" flag="0"/>
      <psa10 value="0.0217816108" flag="0"/>
      <psa30 value="0.0023901385" flag="0"/>
    </comp>
  </station>
  <station code="YER" name="YER" netid="KO" insttype="CMG-3T" lat="37.1336" lon="28.284">
    <comp name="--.HHE">
      <acc value="0.0435379710" flag="0"/>
      <vel value="0.0163474747" flag="0"/>
      <psa03 value="0.0462193088" flag="0"/>
      <psa10 value="0.0125387803" flag="0"/>
      <psa30 value="0.0027638195" flag="0"/>
    </comp>
    <comp name="--.HHZ">
      <acc value="0.0250228065" flag="0"/>
      <vel value="0.0101936228" flag="0"/>
      <psa03 value="0.0531868829" flag="0"/>
      <psa10 value="0.0106689900" flag="0"/>
      <psa30 value="0.0018876964" flag="0"/>
    </comp>
    <comp name="--.HHN">
      <acc value="0.0519777730" flag="0"/>
      <vel value="0.0263104857" flag="0"/>
      <psa03 value="0.0794725783" flag="0"/>
      <psa10 value="0.0287659868" flag="0"/>
      <psa30 value="0.0054445388" flag="0"/>
    </comp>
  </station>
  <station code="YKAV" name="YKAV" netid="KO" insttype="CMG-5T" lat="37.1246" lon="27.2801">
    <comp name="--.HNE">
      <acc value="0.2426948668" flag="0"/>
      <vel value="0.0793585041" flag="0"/>
      <psa03 value="0.5408656738" flag="0"/>
      <psa10 value="0.0290035350" flag="0"/>
      <psa30 value="0.0032140990" flag="0"/>
    </comp>
    <comp name="--.HNN">
      <acc value="0.2819574740" flag="0"/>
      <vel value="0.0870131511" flag="0"/>
      <psa03 value="0.5688989109" flag="0"/>
      <psa10 value="0.0528192823" flag="0"/>
      <psa30 value="0.0048232714" flag="0"/>
    </comp>
    <comp name="--.HNZ">
      <acc value="0.1669461267" flag="0"/>
      <vel value="0.0429278711" flag="0"/>
      <psa03 value="0.2026512257" flag="0"/>
      <psa10 value="0.0253304668" flag="0"/>
      <psa30 value="0.0020849692" flag="0"/>
    </comp>
  </station>
</stationlist>
