<?xml version="1.0" encoding="UTF-8" standalone="yes"?>
<!DOCTYPE earthquake SYSTEM "stationlist.dtd">
<stationlist created="" xmlns="ch.ethz.sed.shakemap.usgs.xml">
  <station code="BODA" name="BODA" netid="KO" insttype="ACEBOX" lat="37.0348" lon="27.4304">
    <comp name="--.HNE">
      <acc value="0.1912178384" flag="0"/>
      <vel value="0.0794352778" flag="0"/>
      <psa03 value="0.8275003953" flag="0"/>
      <psa10 value="0.0289454085" flag="0"/>
      <psa30 value="0.0030831182" flag="0"/>
    </comp>
    <comp name="--.HNZ">
      <acc value="0.1144765449" flag="0"/>
      <vel value="0.0345406815" flag="0"/>
      <psa03 value="0.2586647158" flag="0"/>
      <psa10 value="0.0178983185" flag="0"/>
      <psa30 value="0.0013502853" flag="0"/>
    </comp>
    <comp name="--.HNN">
      <acc value="0.2408182569" flag="0"/>
      <vel value="0.0954167140" flag="0"/>
      <psa03 value="0.5172689444" flag="0"/>
      <psa10 value="0.0430618361" flag="0"/>
      <psa30 value="0.0036333756" flag="0"/>
    </comp>
  </station>
  <station code="BODT" name="BODT" netid="KO" insttype="CMG-3ESP" lat="37.0622" lon="27.3103">
    <comp name="--.HHN">
      <acc value="0.4962611505" flag="0"/>
      <vel value="0.2115919524" flag="0"/>
      <psa03 value="0.7029444820" flag="0"/>
      <psa10 value="0.0829886929" flag="0"/>
      <psa30 value="0.0058987178" flag="0"/>
    </comp>
    <comp name="--.HHE">
      <acc value="0.5621924084" flag="0"/>
      <vel value="0.1484976879" flag="0"/>
      <psa03 value="0.6028832347" flag="0"/>
      <psa10 value="0.0468057269" flag="0"/>
      <psa30 value="0.0048950550" flag="0"/>
    </comp>
    <comp name="--.HHZ">
      <acc value="0.3319876077" flag="0"/>
      <vel value="0.0772526433" flag="0"/>
      <psa03 value="0.3015396935" flag="0"/>
      <psa10 value="0.0181615491" flag="0"/>
      <psa30 value="0.0023370852" flag="0"/>
    </comp>
  </station>
  <station code="DALY" name="DALY" netid="KO" insttype="CMG-3T" lat="36.8162" lon="28.6532">
    <comp name="--.HHE">
      <acc value="0.0380045968" flag="0"/>
      <vel value="0.0184723601" flag="0"/>
      <psa03 value="0.0610832433" flag="0"/>
      <psa10 value="0.0140200120" flag="0"/>
      <psa30 value="0.0033395156" flag="0"/>
    </comp>
    <comp name="--.HHN">
      <acc value="0.0498559113" flag="0"/>
      <vel value="0.0206460150" flag="0"/>
      <psa03 value="0.1010920703" flag="0"/>
      <psa10 value="0.0187875320" flag="0"/>
      <psa30 value="0.0027248569" flag="0"/>
    </comp>
    <comp name="--.HHZ">
      <acc value="0.0399474868" flag="0"/>
      <vel value="0.0168816790" flag="0"/>
      <psa03 value="0.0630477505" flag="0"/>
      <psa10 value="0.0114912626" flag="0"/>
      <psa30 value="0.0018143337" flag="0"/>
    </comp>
  </station>
  <station code="DAT" name="DAT" netid="KO" insttype="CMG-3T" lat="36.7308" lon="27.5767">
    <comp name="--.HHE">
      <acc value="0.6307579750" flag="0"/>
      <vel value="0.2665046176" flag="0"/>
      <psa03 value="0.6698083146" flag="0"/>
      <psa10 value="0.1325648508" flag="0"/>
      <psa30 value="0.0101994712" flag="0"/>
    </comp>
    <comp name="--.HHZ">
      <acc value="0.0000282602" flag="0"/>
      <vel value="0.0000036247" flag="0"/>
      <psa03 value="0.0000144092" flag="0"/>
      <psa10 value="0.0000038058" flag="0"/>
      <psa30 value="0.0000007348" flag="0"/>
    </comp>
    <comp name="--.HHN">
      <acc value="0.4348363117" flag="0"/>
      <vel value="0.2061263744" flag="0"/>
      <psa03 value="1.1274086345" flag="0"/>
      <psa10 value="0.1463976300" flag="0"/>
      <psa30 value="0.0060186051" flag="0"/>
    </comp>
  </station>
  <station code="DATC" name="DATC" netid="KO" insttype="CMG-5T" lat="36.7584" lon="27.6602">
    <comp name="--.HNN">
      <acc value="0.7918414769" flag="0"/>
      <vel value="0.3240412000" flag="0"/>
      <psa03 value="2.3507493032" flag="0"/>
      <psa10 value="0.3182247173" flag="0"/>
      <psa30 value="0.0153538803" flag="0"/>
    </comp>
    <comp name="--.HNE">
      <acc value="1.9072627055" flag="0"/>
      <vel value="1.1614553529" flag="0"/>
      <psa03 value="4.9271263048" flag="0"/>
      <psa10 value="0.7775524837" flag="0"/>
      <psa30 value="0.0492784316" flag="0"/>
    </comp>
    <comp name="--.HNZ">
      <acc value="0.7035092463" flag="0"/>
      <vel value="0.2728489457" flag="0"/>
      <psa03 value="1.5177459957" flag="0"/>
      <psa10 value="0.3142181856" flag="0"/>
      <psa30 value="0.0142684387" flag="0"/>
    </comp>
  </station>
  <station code="FETI" name="FETI" netid="KO" insttype="CMG-5T" lat="36.6903" lon="29.096">
    <comp name="--.HNZ">
      <acc value="0.0796821437" flag="0"/>
      <vel value="0.0111874394" flag="0"/>
      <psa03 value="0.0580721811" flag="0"/>
      <psa10 value="0.0115725613" flag="0"/>
      <psa30 value="0.0014250878" flag="0"/>
    </comp>
    <comp name="--.HNE">
      <acc value="0.0967647924" flag="0"/>
      <vel value="0.0156332049" flag="0"/>
      <psa03 value="0.0659258638" flag="0"/>
      <psa10 value="0.0214389399" flag="0"/>
      <psa30 value="0.0017085628" flag="0"/>
    </comp>
    <comp name="--.HNN">
      <acc value="0.0073932894" flag="0"/>
      <vel value="0.0337232940" flag="0"/>
      <psa03 value="0.0064784130" flag="0"/>
      <psa10 value="0.0076774346" flag="0"/>
      <psa30 value="0.0100469488" flag="0"/>
    </comp>
  </station>
  <station code="FETY" name="FETY" netid="KO" insttype="CMG-3ESP" lat="36.6353" lon="29.0835">
    <comp name="--.HHE">
      <acc value="0.0638533244" flag="0"/>
      <vel value="0.0191383859" flag="0"/>
      <psa03 value="0.1495785347" flag="0"/>
      <psa10 value="0.0099327783" flag="0"/>
      <psa30 value="0.0010664663" flag="0"/>
    </comp>
    <comp name="--.HHN">
      <acc value="0.0576389971" flag="0"/>
      <vel value="0.0180389358" flag="0"/>
      <psa03 value="0.0780376824" flag="0"/>
      <psa10 value="0.0162340747" flag="0"/>
      <psa30 value="0.0016701192" flag="0"/>
    </comp>
    <comp name="--.HHZ">
      <acc value="0.0416475717" flag="0"/>
      <vel value="0.0126982261" flag="0"/>
      <psa03 value="0.0688167497" flag="0"/>
      <psa10 value="0.0137515897" flag="0"/>
      <psa30 value="0.0012020968" flag="0"/>
    </comp>
  </station>
  <station code="MLSB" name="MLSB" netid="KO" insttype="CMG-3ESP" lat="37.2953" lon="27.7767">
    <comp name="--.HHN">
      <acc value="0.0492410607" flag="0"/>
      <vel value="0.0247466049" flag="0"/>
      <psa03 value="0.1436798652" flag="0"/>
      <psa10 value="0.0096614664" flag="0"/>
      <psa30 value="0.0028118952" flag="0"/>
    </comp>
    <comp name="--.HHZ">
      <acc value="0.0250820335" flag="0"/>
      <vel value="0.0134667421" flag="0"/>
      <psa03 value="0.0669122053" flag="0"/>
      <psa10 value="0.0099510168" flag="0"/>
      <psa30 value="0.0015416084" flag="0"/>
    </comp>
    <comp name="--.HHE">
      <acc value="0.0495589458" flag="0"/>
      <vel value="0.0211467681" flag="0"/>
      <psa03 value="0.1141804888" flag="0"/>
      <psa10 value="0.0217816108" flag="0"/>
      <psa30 value="0.0023901385" flag="0"/>
    </comp>
  </station>
  <station code="YER" name="YER" netid="KO" insttype="CMG-3T" lat="37.1336" lon="28.284">
    <comp name="--.HHE">
      <acc value="0.0435379710" flag="0"/>
      <vel value="0.0163474747" flag="0"/>
      <psa03 value="0.0462193088" flag="0"/>
      <psa10 value="0.0125387803" flag="0"/>
      <psa30 value="0.0027638195" flag="0"/>
    </comp>
    <comp name="--.HHZ">
      <acc value="0.0250228065" flag="0"/>
      <vel value="0.0101936228" flag="0"/>
      <psa03 value="0.0531868829" flag="0"/>
      <psa10 value="0.0106689900" flag="0"/>
      <psa30 value="0.0018876964" flag="0"/>
    </comp>
    <comp name="--.HHN">
      <acc value="0.0519777730" flag="0"/>
      <vel value="0.0263104857" flag="0"/>
      <psa03 value="0.0794725783" flag="0"/>
      <psa10 value="0.0287659868" flag="0"/>
      <psa30 value="0.0054445388" flag="0"/>
    </comp>
  </station>
  <station code="YKAV" name="YKAV" netid="KO" insttype="CMG-5T" lat="37.1246" lon="27.2801">
    <comp name="--.HNE">
      <acc value="0.2426948668" flag="0"/>
      <vel value="0.0793585041" flag="0"/>
      <psa03 value="0.5408656738" flag="0"/>
      <psa10 value="0.0290035350" flag="0"/>
      <psa30 value="0.0032140990" flag="0"/>
    </comp>
    <comp name="--.HNN">
      <acc value="0.2819574740" flag="0"/>
      <vel value="0.0870131511" flag="0"/>
      <psa03 value="0.5688989109" flag="0"/>
      <psa10 value="0.0528192823" flag="0"/>
      <psa30 value="0.0048232714" flag="0"/>
    </comp>
    <comp name="--.HNZ">
      <acc value="0.1669461267" flag="0"/>
      <vel value="0.0429278711" flag="0"/>
      <psa03 value="0.2026512257" flag="0"/>
      <psa10 value="0.0253304668" flag="0"/>
      <psa30 value="0.0020849692" flag="0"/>
    </comp>
  </station>
</stationlist>
