<?xml version="1.0" encoding="UTF-8" standalone="yes"?>
<!DOCTYPE earthquake SYSTEM "stationlist.dtd">
<stationlist created="" xmlns="ch.ethz.sed.shakemap.usgs.xml">
  <station code="BODA" name="BODA" netid="KO" insttype="ACEBOX" lat="37.0348" lon="27.4304">
    <comp name="--.HNE">
      <acc value="0.1912178391" flag="0"/>
      <vel value="0.0794352792" flag="0"/>
      <psa03 value="0.8275003953" flag="0"/>
      <psa10 value="0.0289454103" flag="0"/>
      <psa30 value="0.0030830899" flag="0"/>
    </comp>
    <comp name="--.HNN">
      <acc value="0.2408182548" flag="0"/>
      <vel value="0.0954167122" flag="0"/>
      <psa03 value="0.5172689444" flag="0"/>
      <psa10 value="0.0430618354" flag="0"/>
      <psa30 value="0.0036331412" flag="0"/>
    </comp>
    <comp name="--.HNZ">
      <acc value="0.1144765453" flag="0"/>
      <vel value="0.0345406826" flag="0"/>
      <psa03 value="0.2586647158" flag="0"/>
      <psa10 value="0.0178983182" flag="0"/>
      <psa30 value="0.0013498430" flag="0"/>
    </comp>
  </station>
  <station code="BODT" name="BODT" netid="KO" insttype="CMG-3ESP" lat="37.0622" lon="27.3103">
    <comp name="--.HHE">
      <acc value="0.5621924085" flag="0"/>
      <vel value="0.1484976880" flag="0"/>
      <psa03 value="0.6028832347" flag="0"/>
      <psa10 value="0.0468057265" flag="0"/>
      <psa30 value="0.0048950868" flag="0"/>
    </comp>
    <comp name="--.HHN">
      <acc value="0.4962611504" flag="0"/>
      <vel value="0.2115919519" flag="0"/>
      <psa03 value="0.7029444820" flag="0"/>
      <psa10 value="0.0829886929" flag="0"/>
      <psa30 value="0.0058986969" flag="0"/>
    </comp>
    <comp name="--.HHZ">
      <acc value="0.3319876076" flag="0"/>
      <vel value="0.0772526424" flag="0"/>
      <psa03 value="0.3015396935" flag="0"/>
      <psa10 value="0.0181615491" flag="0"/>
      <psa30 value="0.0023370515" flag="0"/>
    </comp>
  </station>
  <station code="DALY" name="DALY" netid="KO" insttype="CMG-3T" lat="36.8162" lon="28.6532">
    <comp name="--.HHE">
      <acc value="0.0380045968" flag="0"/>
      <vel value="0.0184723598" flag="0"/>
      <psa03 value="0.0610832433" flag="0"/>
      <psa10 value="0.0140200120" flag="0"/>
      <psa30 value="0.0033395161" flag="0"/>
    </comp>
    <comp name="--.HHN">
      <acc value="0.0498559113" flag="0"/>
      <vel value="0.0206460154" flag="0"/>
      <psa03 value="0.1010920703" flag="0"/>
      <psa10 value="0.0187875320" flag="0"/>
      <psa30 value="0.0027248894" flag="0"/>
    </comp>
    <comp name="--.HHZ">
      <acc value="0.0399474868" flag="0"/>
      <vel value="0.0168816791" flag="0"/>
      <psa03 value="0.0630477505" flag="0"/>
      <psa10 value="0.0114912626" flag="0"/>
      <psa30 value="0.0018143209" flag="0"/>
    </comp>
  </station>
  <station code="DAT" name="DAT" netid="KO" insttype="CMG-3T" lat="36.7308" lon="27.5767">
    <comp name="--.HHE">
      <acc value="0.6307579748" flag="0"/>
      <vel value="0.2665046176" flag="0"/>
      <psa03 value="0.6698083146" flag="0"/>
      <psa10 value="0.1325648511" flag="0"/>
      <psa30 value="0.0101995639" flag="0"/>
    </comp>
    <comp name="--.HHN">
      <acc value="0.4348363115" flag="0"/>
      <vel value="0.2061263747" flag="0"/>
      <psa03 value="1.1274086345" flag="0"/>
      <psa10 value="0.1463976303" flag="0"/>
      <psa30 value="0.0060186350" flag="0"/>
    </comp>
    <comp name="--.HHZ">
      <acc value="0.0000282594" flag="0"/>
      <vel value="0.0000036247" flag="0"/>
      <psa03 value="0.0000144092" flag="0"/>
      <psa10 value="0.0000038058" flag="0"/>
      <psa30 value="0.0000007341" flag="0"/>
    </comp>
  </station>
  <station code="DATC" name="DATC" netid="KO" insttype="CMG-5T" lat="36.7584" lon="27.6602">
    <comp name="--.HNE">
      <acc value="1.9072627186" flag="0"/>
      <vel value="1.1614553428" flag="0"/>
      <psa03 value="4.9271263048" flag="0"/>
      <psa10 value="0.7775524867" flag="0"/>
      <psa30 value="0.0492764608" flag="0"/>
    </comp>
    <comp name="--.HNZ">
      <acc value="0.7035091712" flag="0"/>
      <vel value="0.2728489566" flag="0"/>
      <psa03 value="1.5177459957" flag="0"/>
      <psa10 value="0.3142181859" flag="0"/>
      <psa30 value="0.0142661456" flag="0"/>
    </comp>
    <comp name="--.HNN">
      <acc value="0.7918414586" flag="0"/>
      <vel value="0.3240411883" flag="0"/>
      <psa03 value="2.3507493032" flag="0"/>
      <psa10 value="0.3182247164" flag="0"/>
      <psa30 value="0.0153544254" flag="0"/>
    </comp>
  </station>
  <station code="FETI" name="FETI" netid="KO" insttype="CMG-5T" lat="36.6903" lon="29.096">
    <comp name="--.HNZ">
      <acc value="0.0796819807" flag="0"/>
      <vel value="0.0111874288" flag="0"/>
      <psa03 value="0.0580721811" flag="0"/>
      <psa10 value="0.0115725613" flag="0"/>
      <psa30 value="0.0014262185" flag="0"/>
    </comp>
    <comp name="--.HNE">
      <acc value="0.0967648066" flag="0"/>
      <vel value="0.0156332001" flag="0"/>
      <psa03 value="0.0659258638" flag="0"/>
      <psa10 value="0.0214389398" flag="0"/>
      <psa30 value="0.0017071411" flag="0"/>
    </comp>
    <comp name="--.HNN">
      <acc value="0.0070033345" flag="0"/>
      <vel value="0.0343054317" flag="0"/>
      <psa03 value="0.0068052225" flag="0"/>
      <psa10 value="0.0078507775" flag="0"/>
      <psa30 value="0.0103384329" flag="0"/>
    </comp>
  </station>
  <station code="FETY" name="FETY" netid="KO" insttype="CMG-3ESP" lat="36.6353" lon="29.0835">
    <comp name="--.HHE">
      <acc value="0.0638533244" flag="0"/>
      <vel value="0.0191383862" flag="0"/>
      <psa03 value="0.1495785347" flag="0"/>
      <psa10 value="0.0099327783" flag="0"/>
      <psa30 value="0.0010664840" flag="0"/>
    </comp>
    <comp name="--.HHN">
      <acc value="0.0576389970" flag="0"/>
      <vel value="0.0180389380" flag="0"/>
      <psa03 value="0.0780376824" flag="0"/>
      <psa10 value="0.0162340748" flag="0"/>
      <psa30 value="0.0016701897" flag="0"/>
    </comp>
    <comp name="--.HHZ">
      <acc value="0.0416475716" flag="0"/>
      <vel value="0.0126982249" flag="0"/>
      <psa03 value="0.0688167497" flag="0"/>
      <psa10 value="0.0137515896" flag="0"/>
      <psa30 value="0.0012020742" flag="0"/>
    </comp>
  </station>
  <station code="YER" name="YER" netid="KO" insttype="CMG-3T" lat="37.1336" lon="28.284">
    <comp name="--.HHE">
      <acc value="0.0435379710" flag="0"/>
      <vel value="0.0163474753" flag="0"/>
      <psa03 value="0.0462193088" flag="0"/>
      <psa10 value="0.0125387803" flag="0"/>
      <psa30 value="0.0027638055" flag="0"/>
    </comp>
    <comp name="--.HHN">
      <acc value="0.0519777727" flag="0"/>
      <vel value="0.0263104859" flag="0"/>
      <psa03 value="0.0794725783" flag="0"/>
      <psa10 value="0.0287659868" flag="0"/>
      <psa30 value="0.0054445339" flag="0"/>
    </comp>
    <comp name="--.HHZ">
      <acc value="0.0250228059" flag="0"/>
      <vel value="0.0101936221" flag="0"/>
      <psa03 value="0.0531868829" flag="0"/>
      <psa10 value="0.0106689900" flag="0"/>
      <psa30 value="0.0018876839" flag="0"/>
    </comp>
  </station>
</stationlist>
