<stationlist created="1718244069">
	<station code="KSS1" name="KSS1" netid="HI" source="ITSAK Strong Motion Network" insttype="" lat="35.4189" lon="26.9207">
		<comp name=".HNE" depth="0.0">
			<acc value="0.077519911956558" flag="0"/>
			<vel value="0.0400788431505" flag="0"/>
			<psa03 value="0.149025965988892" flag="0"/>
			<psa10 value="0.0249200820831325" flag="0"/>
			<psa30 value="0.00187870799685006" flag="0"/>
		</comp>
		<comp name=".HNN" depth="0.0">
			<acc value="0.097581096076122" flag="0"/>
			<vel value="0.044852433529" flag="0"/>
			<psa03 value="0.201989589152492" flag="0"/>
			<psa10 value="0.0207528172723108" flag="0"/>
			<psa30 value="0.001390223137128" flag="0"/>
		</comp>
		<comp name=".HNZ" depth="0.0">
			<acc value="0.060852038120652" flag="0"/>
			<vel value="0.0219644347001" flag="0"/>
			<psa03 value="0.0476946126591641" flag="0"/>
			<psa10 value="0.0162125152495522" flag="0"/>
			<psa30 value="0.00171856905510014" flag="0"/>
		</comp>
	</station>
	<station code="RDI1" name="RDI1" netid="HI" source="ITSAK Strong Motion Network" insttype="" lat="36.4514" lon="28.224">
		<comp name=".HNE" depth="0.0">
			<acc value="0.21136040921532" flag="0"/>
			<vel value="0.0898051398824" flag="0"/>
			<psa03 value="0.44922559232606" flag="0"/>
			<psa10 value="0.104675366729201" flag="0"/>
			<psa30 value="0.0086224720297748" flag="0"/>
		</comp>
		<comp name=".HNN" depth="0.0">
			<acc value="0.12288629765514" flag="0"/>
			<vel value="0.0637767458333" flag="0"/>
			<psa03 value="0.402888314373527" flag="0"/>
			<psa10 value="0.0902294097555241" flag="0"/>
			<psa30 value="0.00982160479976774" flag="0"/>
		</comp>
		<comp name=".HNZ" depth="0.0">
			<acc value="0.20525164060056" flag="0"/>
			<vel value="0.0772114121908" flag="0"/>
			<psa03 value="0.287131541888629" flag="0"/>
			<psa10 value="0.0645086608821973" flag="0"/>
			<psa30 value="0.00525897088100486" flag="0"/>
		</comp>
	</station>
	<station code="KLNA" name="KLNA" netid="HL" source="National Observatory of Athens Seismic Network" insttype="" lat="36.95708" lon="26.97274">
		<comp name="00.HNE" depth="0.0">
			<acc value="0.31667705843496" flag="0"/>
			<vel value="0.10922477467" flag="0"/>
			<psa03 value="0.633787110287371" flag="0"/>
			<psa10 value="0.0294594371681212" flag="0"/>
			<psa30 value="0.00310948640487882" flag="0"/>
		</comp>
		<comp name="00.HNN" depth="0.0">
			<acc value="0.20431721108214" flag="0"/>
			<vel value="0.0635887651017" flag="0"/>
			<psa03 value="0.406266954858769" flag="0"/>
			<psa10 value="0.0345807183028826" flag="0"/>
			<psa30 value="0.00189960333939935" flag="0"/>
		</comp>
		<comp name="00.HNZ" depth="0.0">
			<acc value="0.1908501431445" flag="0"/>
			<vel value="0.0609862253412" flag="0"/>
			<psa03 value="0.170808106865664" flag="0"/>
			<psa10 value="0.0216957909896955" flag="0"/>
			<psa30 value="0.00113435858318681" flag="0"/>
		</comp>
	</station>
	<station code="NISR" name="NISR" netid="HL" source="National Observatory of Athens Seismic Network" insttype="" lat="36.6106" lon="27.131">
		<comp name=".HNE" depth="0.0">
			<acc value="0.15036068401722" flag="0"/>
			<vel value="0.0561638339669" flag="0"/>
			<psa03 value="0.335484661712239" flag="0"/>
			<psa10 value="0.0331416467214508" flag="0"/>
			<psa30 value="0.00599246197121763" flag="0"/>
		</comp>
		<comp name=".HNN" depth="0.0">
			<acc value="0.086414139496998" flag="0"/>
			<vel value="0.0333492226428" flag="0"/>
			<psa03 value="0.185793641250153" flag="0"/>
			<psa10 value="0.0262977958499234" flag="0"/>
			<psa30 value="0.00371382352258103" flag="0"/>
		</comp>
		<comp name=".HNZ" depth="0.0">
			<acc value="0.042565897183776" flag="0"/>
			<vel value="0.0198552454802" flag="0"/>
			<psa03 value="0.125947760087487" flag="0"/>
			<psa10 value="0.0275132401171203" flag="0"/>
			<psa30 value="0.00192934760147744" flag="0"/>
		</comp>
	</station>
	<station code="RODB" name="RODB" netid="HL" source="National Observatory of Athens Seismic Network" insttype="" lat="36.4471" lon="28.22116">
		<comp name="00.HNE" depth="0.0">
			<acc value="0.16278313806354" flag="0"/>
			<vel value="0.0897466085461" flag="0"/>
			<psa03 value="0.53153237807988" flag="0"/>
			<psa10 value="0.078957693059546" flag="0"/>
			<psa30 value="0.00806162570980226" flag="0"/>
		</comp>
		<comp name="00.HNN" depth="0.0">
			<acc value="0.1683961567566" flag="0"/>
			<vel value="0.0799713857672" flag="0"/>
			<psa03 value="0.519622630782615" flag="0"/>
			<psa10 value="0.07141949869137" flag="0"/>
			<psa30 value="0.00848216273498359" flag="0"/>
		</comp>
		<comp name="00.HNZ" depth="0.0">
			<acc value="0.2206319022657" flag="0"/>
			<vel value="0.11191764963" flag="0"/>
			<psa03 value="0.322616934288634" flag="0"/>
			<psa10 value="0.0566727980446036" flag="0"/>
			<psa30 value="0.00490139927698152" flag="0"/>
		</comp>
	</station>
	<station code="CAME" name="CAME" netid="KO" source="Bogazici University Kandilli Observatory And Earthquake Research Institute (KOERI)" insttype="" lat="36.9435" lon="29.3023">
		<comp name=".HNE" depth="0.0">
			<acc value="0.076406594858844" flag="0"/>
			<vel value="0.028945536757" flag="0"/>
			<psa03 value="0.178685462034866" flag="0"/>
			<psa10 value="0.00937068201170269" flag="0"/>
			<psa30 value="0.0017476952554008" flag="0"/>
		</comp>
		<comp name=".HNN" depth="0.0">
			<acc value="0.098445595122006" flag="0"/>
			<vel value="0.0386245387625" flag="0"/>
			<psa03 value="0.290174514304167" flag="0"/>
			<psa10 value="0.010451999581166" flag="0"/>
			<psa30 value="0.000928122629401907" flag="0"/>
		</comp>
		<comp name=".HNZ" depth="0.0">
			<acc value="0.067662069007134" flag="0"/>
			<vel value="0.0130210428507" flag="0"/>
			<psa03 value="0.0614469559757867" flag="0"/>
			<psa10 value="0.00651813054416665" flag="0"/>
			<psa30 value="0.00136145529389821" flag="0"/>
		</comp>
	</station>
	<station code="DATC" name="DATC" netid="KO" source="Bogazici University Kandilli Observatory And Earthquake Research Institute (KOERI)" insttype="" lat="36.7584" lon="27.6602">
		<comp name=".HNE" depth="0.0">
			<acc value="1.8906855056772" flag="0"/>
			<vel value="1.16631793289" flag="0"/>
			<psa03 value="4.97029359089033" flag="0"/>
			<psa10 value="0.778301898679285" flag="0"/>
			<psa30 value="0.0478837687312808" flag="0"/>
		</comp>
		<comp name=".HNN" depth="0.0">
			<acc value="0.7954528872156" flag="0"/>
			<vel value="0.325431112053" flag="0"/>
			<psa03 value="2.3455162122732" flag="0"/>
			<psa10 value="0.318016837054595" flag="0"/>
			<psa30 value="0.0157043003328087" flag="0"/>
		</comp>
		<comp name=".HNZ" depth="0.0">
			<acc value="0.70139471791518" flag="0"/>
			<vel value="0.274158205304" flag="0"/>
			<psa03 value="1.54700598155215" flag="0"/>
			<psa10 value="0.314284859829548" flag="0"/>
			<psa30 value="0.0143413633782911" flag="0"/>
		</comp>
	</station>
	<station code="DEMR" name="DEMR" netid="KO" source="Bogazici University Kandilli Observatory And Earthquake Research Institute (KOERI)" insttype="" lat="36.2365" lon="29.9056">
		<comp name=".HNE" depth="0.0">
			<acc value="0.011063741372034" flag="0"/>
			<vel value="0.00643389510218" flag="0"/>
			<psa03 value="0.0285280434887266" flag="0"/>
			<psa10 value="0.00652081994107067" flag="0"/>
			<psa30 value="0.00193576594332471" flag="0"/>
		</comp>
		<comp name=".HNN" depth="0.0">
			<acc value="0.014973864790572" flag="0"/>
			<vel value="0.00772402164589" flag="0"/>
			<psa03 value="0.0358002648210151" flag="0"/>
			<psa10 value="0.0118383070422481" flag="0"/>
			<psa30 value="0.00171213539973601" flag="0"/>
		</comp>
		<comp name=".HNZ" depth="0.0">
			<acc value="0.012252797192646" flag="0"/>
			<vel value="0.00465595307759" flag="0"/>
			<psa03 value="0.0294690563470186" flag="0"/>
			<psa10 value="0.00702691831135" flag="0"/>
			<psa30 value="0.00079933951481841" flag="0"/>
		</comp>
	</station>
	<station code="DIDI" name="DIDI" netid="KO" source="Bogazici University Kandilli Observatory And Earthquake Research Institute (KOERI)" insttype="" lat="37.3767" lon="27.2398">
		<comp name=".HNE" depth="0.0">
			<acc value="0.1759571180088" flag="0"/>
			<vel value="0.0891414685653" flag="0"/>
			<psa03 value="0.600942267809014" flag="0"/>
			<psa10 value="0.0654115631949666" flag="0"/>
			<psa30 value="0.00662945250201483" flag="0"/>
		</comp>
		<comp name=".HNN" depth="0.0">
			<acc value="0.16926169707336" flag="0"/>
			<vel value="0.129192053188" flag="0"/>
			<psa03 value="0.520164416672593" flag="0"/>
			<psa10 value="0.116979579322934" flag="0"/>
			<psa30 value="0.00885579165271942" flag="0"/>
		</comp>
		<comp name=".HNZ" depth="0.0">
			<acc value="0.098745805009692" flag="0"/>
			<vel value="0.0400780881333" flag="0"/>
			<psa03 value="0.249582929477516" flag="0"/>
			<psa10 value="0.055091160769152" flag="0"/>
			<psa30 value="0.00338930744164867" flag="0"/>
		</comp>
	</station>
	<station code="FETI" name="FETI" netid="KO" source="Bogazici University Kandilli Observatory And Earthquake Research Institute (KOERI)" insttype="" lat="36.6903" lon="29.096">
		<comp name=".HNE" depth="0.0">
			<acc value="0.088404832379574" flag="0"/>
			<vel value="0.0159355210391" flag="0"/>
			<psa03 value="0.0662240328503646" flag="0"/>
			<psa10 value="0.0213994688597711" flag="0"/>
			<psa30 value="0.00186250442344575" flag="0"/>
		</comp>
		<comp name=".HNN" depth="0.0">
			<acc value="0.0022376229971994" flag="0"/>
			<vel value="0.00230302289908" flag="0"/>
			<psa03 value="0.00238665826715952" flag="0"/>
			<psa10 value="0.0016281112918837" flag="0"/>
			<psa30 value="0.000754472011319365" flag="0"/>
		</comp>
		<comp name=".HNZ" depth="0.0">
			<acc value="0.060944153797392" flag="0"/>
			<vel value="0.0111666149487" flag="0"/>
			<psa03 value="0.0600516604195579" flag="0"/>
			<psa10 value="0.0116493779641373" flag="0"/>
			<psa30 value="0.00154401540844393" flag="0"/>
		</comp>
	</station>
	<station code="KUSD" name="KUSD" netid="KO" source="Bogazici University Kandilli Observatory And Earthquake Research Institute (KOERI)" insttype="" lat="37.8606" lon="27.2868">
		<comp name=".HNE" depth="0.0">
			<acc value="0.012399625370934" flag="0"/>
			<vel value="0.0145014024821" flag="0"/>
			<psa03 value="0.0300036125921041" flag="0"/>
			<psa10 value="0.022290739777119" flag="0"/>
			<psa30 value="0.00147842283408877" flag="0"/>
		</comp>
		<comp name=".HNN" depth="0.0">
			<acc value="0.02126879217417" flag="0"/>
			<vel value="0.0235382966814" flag="0"/>
			<psa03 value="0.0381611816368248" flag="0"/>
			<psa10 value="0.0385299924229097" flag="0"/>
			<psa30 value="0.00271945015022648" flag="0"/>
		</comp>
		<comp name=".HNZ" depth="0.0">
			<acc value="0.012204117363798" flag="0"/>
			<vel value="0.00946354958352" flag="0"/>
			<psa03 value="0.015554538224331" flag="0"/>
			<psa10 value="0.0230421976825178" flag="0"/>
			<psa30 value="0.000928567033843386" flag="0"/>
		</comp>
	</station>
	<station code="YKAV" name="YKAV" netid="KO" source="Bogazici University Kandilli Observatory And Earthquake Research Institute (KOERI)" insttype="" lat="37.1246" lon="27.2801">
		<comp name=".HNE" depth="0.0">
			<acc value="0.24457921347852" flag="0"/>
			<vel value="0.0794872320228" flag="0"/>
			<psa03 value="0.544106211033021" flag="0"/>
			<psa10 value="0.0291134842504509" flag="0"/>
			<psa30 value="0.00343173900253557" flag="0"/>
		</comp>
		<comp name=".HNN" depth="0.0">
			<acc value="0.28109798587014" flag="0"/>
			<vel value="0.0880856728144" flag="0"/>
			<psa03 value="0.573440362609047" flag="0"/>
			<psa10 value="0.0529104738091106" flag="0"/>
			<psa30 value="0.00468754010987234" flag="0"/>
		</comp>
		<comp name=".HNZ" depth="0.0">
			<acc value="0.16713459799428" flag="0"/>
			<vel value="0.0426990024922" flag="0"/>
			<psa03 value="0.205247804993107" flag="0"/>
			<psa10 value="0.0254024559130369" flag="0"/>
			<psa30 value="0.00234580456470773" flag="0"/>
		</comp>
	</station>
</stationlist>
