<stationlist xmlns:esm="https://esm-db.eu/esmws/shakemap/1/" created="1781229263">
	<station code="DPC" name="DPC" netid="CZ" source="Czech Regional Seismic Network (CZ)" insttype="" lat="50.3502" lon="16.3222" esm:processing="manual (Paolucci et al 2011)" esm:quality="good">
		<comp name="--.HNE" depth="0.0">
			<acc value="0.00078584781128074" flag="0"/>
			<vel value="0.000423022147201686" flag="0"/>
			<psa03 value="0.00187917267796741" flag="0"/>
			<psa10 value="0.000463081838499113" flag="0"/>
			<psa30 value="0.000104696763486756" flag="0"/>
		</comp>
		<comp name="--.HNN" depth="0.0">
			<acc value="0.00235203154592512" flag="0"/>
			<vel value="0.000698810752270097" flag="0"/>
			<psa03 value="0.00313195446327902" flag="0"/>
			<psa10 value="0.00044294784552089" flag="0"/>
			<psa30 value="0.000135568886053363" flag="0"/>
		</comp>
		<comp name="--.HNZ" depth="0.0">
			<acc value="0.000783784978825045" flag="0"/>
			<vel value="0.000421762119890632" flag="0"/>
			<psa03 value="0.00192391488458569" flag="0"/>
			<psa10 value="0.000467108637094757" flag="0"/>
			<psa30 value="0.000102459653155842" flag="0"/>
		</comp>
	</station>
	<station code="DPC" name="DPC" netid="MN" source="Mediterranean Very Broadband Seismographic Network (MedNet)" insttype="" lat="50.3502" lon="16.3222" esm:processing="manual (Paolucci et al 2011)" esm:quality="good">
		<comp name="--.HNE" depth="0.0">
			<acc value="0.000785879748575225" flag="0"/>
			<vel value="0.000423007909173934" flag="0"/>
			<psa03 value="0.00187917267796741" flag="0"/>
			<psa10 value="0.000463081838499113" flag="0"/>
			<psa30 value="0.000104696763486756" flag="0"/>
		</comp>
		<comp name="--.HNN" depth="0.0">
			<acc value="0.00235203092877391" flag="0"/>
			<vel value="0.000698802024996148" flag="0"/>
			<psa03 value="0.00313195446327902" flag="0"/>
			<psa10 value="0.00044294784552089" flag="0"/>
			<psa30 value="0.000135568886053363" flag="0"/>
		</comp>
		<comp name="--.HNZ" depth="0.0">
			<acc value="0.000783769051492612" flag="0"/>
			<vel value="0.000421783216871904" flag="0"/>
			<psa03 value="0.00192391488458569" flag="0"/>
			<psa10 value="0.000467108637094757" flag="0"/>
			<psa30 value="0.000102459653155842" flag="0"/>
		</comp>
	</station>
</stationlist>
