<?xml version="1.0" encoding="UTF-8" standalone="yes"?>
<!DOCTYPE earthquake SYSTEM "stationlist.dtd">
<stationlist created="" xmlns="ch.ethz.sed.shakemap.usgs.xml">
  <station code="CHVC" name="CHVC" netid="CZ" source="GFZ" insttype="STS-2.5" lat="50.5881" lon="16.0547">
    <comp name="--.HHE">
      <acc value="0.0187522127" flag="0"/>
      <vel value="0.0116296636" flag="0"/>
      <psa03 value="0.0449916352" flag="0"/>
      <psa10 value="0.0082966155" flag="0"/>
      <psa30 value="0.0042179720" flag="0"/>
    </comp>
    <comp name="--.HHN">
      <acc value="0.0164685092" flag="0"/>
      <vel value="0.0135578843" flag="0"/>
      <psa03 value="0.0642535618" flag="0"/>
      <psa10 value="0.0093061780" flag="0"/>
      <psa30 value="0.0041759127" flag="0"/>
    </comp>
    <comp name="--.HHZ">
      <acc value="0.0152596181" flag="0"/>
      <vel value="0.0196762799" flag="0"/>
      <psa03 value="0.0199216063" flag="0"/>
      <psa10 value="0.0094711895" flag="0"/>
      <psa30 value="0.0063800899" flag="0"/>
    </comp>
  </station>
  <station code="UPC" name="UPC" netid="CZ" source="GFZ" insttype="STS-2" lat="50.5074" lon="16.0121">
    <comp name="--.HHE">
      <acc value="0.0286691441" flag="0"/>
      <vel value="0.0152779409" flag="0"/>
      <psa03 value="0.0528506907" flag="0"/>
      <psa10 value="0.0078900718" flag="0"/>
      <psa30 value="0.0005564300" flag="0"/>
    </comp>
    <comp name="--.HHN">
      <acc value="0.0274667697" flag="0"/>
      <vel value="0.0126010488" flag="0"/>
      <psa03 value="0.0463301943" flag="0"/>
      <psa10 value="0.0093569809" flag="0"/>
      <psa30 value="0.0006867122" flag="0"/>
    </comp>
    <comp name="--.HHZ">
      <acc value="0.0117496508" flag="0"/>
      <vel value="0.0072914070" flag="0"/>
      <psa03 value="0.0185895091" flag="0"/>
      <psa10 value="0.0043856939" flag="0"/>
      <psa30 value="0.0004109906" flag="0"/>
    </comp>
  </station>
</stationlist>
