<?xml version="1.0" encoding="UTF-8" standalone="yes"?>
<!DOCTYPE earthquake SYSTEM "stationlist.dtd">
<stationlist created="" xmlns="ch.ethz.sed.shakemap.usgs.xml">
  <station code="IMMV" name="IMMV" netid="GE" insttype="STS-2/N" lat="35.4606" lon="23.9811">
    <comp name="--.HHZ">
      <acc value="0.0041396278" flag="0"/>
      <vel value="0.0024683835" flag="0"/>
      <psa03 value="0.0079288682" flag="0"/>
      <psa10 value="0.0031140305" flag="0"/>
      <psa30 value="0.0001373264" flag="0"/>
    </comp>
    <comp name="--.HHE">
      <acc value="0.0044538572" flag="0"/>
      <vel value="0.0040551306" flag="0"/>
      <psa03 value="0.0098336387" flag="0"/>
      <psa10 value="0.0057276654" flag="0"/>
      <psa30 value="0.0002673134" flag="0"/>
    </comp>
    <comp name="--.HHN">
      <acc value="0.0056617399" flag="0"/>
      <vel value="0.0036381642" flag="0"/>
      <psa03 value="0.0169372765" flag="0"/>
      <psa10 value="0.0036494621" flag="0"/>
      <psa30 value="0.0001573685" flag="0"/>
    </comp>
  </station>
  <station code="ZKR" name="ZKR" netid="GE" insttype="STS-2/N" lat="35.1147" lon="26.2169">
    <comp name="--.HHN">
      <acc value="0.0039245913" flag="0"/>
      <vel value="0.0015052171" flag="0"/>
      <psa03 value="0.0119616532" flag="0"/>
      <psa10 value="0.0015024653" flag="0"/>
      <psa30 value="0.0001000652" flag="0"/>
    </comp>
    <comp name="--.HHE">
      <acc value="0.0108938066" flag="0"/>
      <vel value="0.0049771119" flag="0"/>
      <psa03 value="0.0299476078" flag="0"/>
      <psa10 value="0.0031188291" flag="0"/>
      <psa30 value="0.0002519191" flag="0"/>
    </comp>
    <comp name="--.HHZ">
      <acc value="0.0062748941" flag="0"/>
      <vel value="0.0017357259" flag="0"/>
      <psa03 value="0.0128405492" flag="0"/>
      <psa10 value="0.0021282664" flag="0"/>
      <psa30 value="0.0001476758" flag="0"/>
    </comp>
  </station>
  <station code="IDI" name="IDI" netid="MN" insttype="" lat="35.288" lon="24.89">
    <comp name="--.HHE">
      <acc value="0.0262699148" flag="0"/>
      <vel value="0.0040087742" flag="0"/>
      <psa03 value="0.0122743278" flag="0"/>
      <psa10 value="0.0017360469" flag="0"/>
      <psa30 value="0.0002883639" flag="0"/>
    </comp>
    <comp name="--.HHZ">
      <acc value="0.0170454560" flag="0"/>
      <vel value="0.0031710892" flag="0"/>
      <psa03 value="0.0146148222" flag="0"/>
      <psa10 value="0.0030434592" flag="0"/>
      <psa30 value="0.0002335440" flag="0"/>
    </comp>
    <comp name="--.HHN">
      <acc value="0.0252161705" flag="0"/>
      <vel value="0.0045126867" flag="0"/>
      <psa03 value="0.0152354191" flag="0"/>
      <psa10 value="0.0038397145" flag="0"/>
      <psa30 value="0.0003575399" flag="0"/>
    </comp>
  </station>
</stationlist>
