<?xml version="1.0" encoding="UTF-8" standalone="yes"?>
<!DOCTYPE earthquake SYSTEM "stationlist.dtd">
<stationlist created="" xmlns="ch.ethz.sed.shakemap.usgs.xml">
  <station code="KARP" name="KARP" netid="GE" insttype="STS-2/N" lat="35.5471" lon="27.1611">
    <comp name="--.HHN">
      <acc value="0.0345243267" flag="0"/>
      <vel value="0.0054907489" flag="0"/>
      <psa03 value="0.0130594910" flag="0"/>
      <psa10 value="0.0064756133" flag="0"/>
      <psa30 value="0.0002220123" flag="0"/>
    </comp>
    <comp name="--.HHE">
      <acc value="0.0250551941" flag="0"/>
      <vel value="0.0058173518" flag="0"/>
      <psa03 value="0.0188023118" flag="0"/>
      <psa10 value="0.0066569778" flag="0"/>
      <psa30 value="0.0002808539" flag="0"/>
    </comp>
    <comp name="--.HHZ">
      <acc value="0.0185972001" flag="0"/>
      <vel value="0.0033065378" flag="0"/>
      <psa03 value="0.0162902932" flag="0"/>
      <psa10 value="0.0019313081" flag="0"/>
      <psa30 value="0.0001916484" flag="0"/>
    </comp>
  </station>
  <station code="ARG" name="ARG" netid="HL" insttype="LE3D20_DR24" lat="36.2136" lon="28.1212">
    <comp name="--.HHZ">
      <acc value="0.0092101421" flag="0"/>
      <vel value="0.0050893704" flag="0"/>
      <psa03 value="0.0166377074" flag="0"/>
      <psa10 value="0.0040398497" flag="0"/>
      <psa30 value="0.0008129556" flag="0"/>
    </comp>
    <comp name="--.HHE">
      <acc value="0.0135783049" flag="0"/>
      <vel value="0.0086502125" flag="0"/>
      <psa03 value="0.0193882040" flag="0"/>
      <psa10 value="0.0058105010" flag="0"/>
      <psa30 value="0.0015902023" flag="0"/>
    </comp>
    <comp name="--.HHN">
      <acc value="0.0129640260" flag="0"/>
      <vel value="0.0047673106" flag="0"/>
      <psa03 value="0.0350617292" flag="0"/>
      <psa10 value="0.0040233045" flag="0"/>
      <psa30 value="0.0005176249" flag="0"/>
    </comp>
  </station>
  <station code="KARP" name="KARP" netid="HL" insttype="120" lat="35.5471" lon="27.1611">
    <comp name="--.HHE">
      <acc value="0.0234881554" flag="0"/>
      <vel value="0.0055232481" flag="0"/>
      <psa03 value="0.0182236840" flag="0"/>
      <psa10 value="0.0066071558" flag="0"/>
      <psa30 value="0.0002783092" flag="0"/>
    </comp>
    <comp name="--.HHN">
      <acc value="0.0257567153" flag="0"/>
      <vel value="0.0052781963" flag="0"/>
      <psa03 value="0.0126797268" flag="0"/>
      <psa10 value="0.0064317487" flag="0"/>
      <psa30 value="0.0002199439" flag="0"/>
    </comp>
    <comp name="--.HHZ">
      <acc value="0.0159956654" flag="0"/>
      <vel value="0.0032133750" flag="0"/>
      <psa03 value="0.0158868719" flag="0"/>
      <psa10 value="0.0019078496" flag="0"/>
      <psa30 value="0.0001902204" flag="0"/>
    </comp>
  </station>
  <station code="KLNA" name="KLNA" netid="HL" insttype="CMG-5" lat="36.9571" lon="26.9727">
    <comp name="00.HNN">
      <acc value="0.0480220653" flag="0"/>
      <vel value="0.0163876019" flag="0"/>
      <psa03 value="0.0988109719" flag="0"/>
      <psa10 value="0.0069711980" flag="0"/>
      <psa30 value="0.0006000222" flag="0"/>
    </comp>
    <comp name="00.HNE">
      <acc value="0.0763273431" flag="0"/>
      <vel value="0.0268718143" flag="0"/>
      <psa03 value="0.1522877076" flag="0"/>
      <psa10 value="0.0071242540" flag="0"/>
      <psa30 value="0.0010670654" flag="0"/>
    </comp>
    <comp name="00.HNZ">
      <acc value="0.0792379296" flag="0"/>
      <vel value="0.0160177834" flag="0"/>
      <psa03 value="0.0609014974" flag="0"/>
      <psa10 value="0.0052035786" flag="0"/>
      <psa30 value="0.0007005171" flag="0"/>
    </comp>
  </station>
  <station code="NISR" name="NISR" netid="HL" insttype="65535" lat="36.6106" lon="27.131">
    <comp name="--.HHE">
      <acc value="0.3877320607" flag="0"/>
      <vel value="0.1355590690" flag="0"/>
      <psa03 value="0.8103792403" flag="0"/>
      <psa10 value="0.0322163669" flag="0"/>
      <psa30 value="0.0026330838" flag="0"/>
    </comp>
    <comp name="--.HHN">
      <acc value="0.3422654829" flag="0"/>
      <vel value="0.0770435256" flag="0"/>
      <psa03 value="0.4308686555" flag="0"/>
      <psa10 value="0.0283781321" flag="0"/>
      <psa30 value="0.0108647530" flag="0"/>
    </comp>
    <comp name="--.HHZ">
      <acc value="0.1297406072" flag="0"/>
      <vel value="0.0291602666" flag="0"/>
      <psa03 value="0.2752365542" flag="0"/>
      <psa10 value="0.0155460141" flag="0"/>
      <psa30 value="0.0010660240" flag="0"/>
    </comp>
  </station>
</stationlist>
