<?xml version="1.0" encoding="UTF-8" standalone="yes"?>
<!DOCTYPE earthquake SYSTEM "stationlist.dtd">
<stationlist created="" xmlns="ch.ethz.sed.shakemap.usgs.xml">
  <station code="RDI1" name="RDI1" netid="HI" insttype="CMG-5TD,ACCELEROMETER,GURALP" commtype="DIG" lat="36.4514" lon="28.224">
    <comp name="--.HNE">
      <acc value="0.0554037683" flag="0"/>
      <vel value="0.0257246853" flag="0"/>
      <psa03 value="0.1548853197" flag="0"/>
      <psa10 value="0.0278538037" flag="0"/>
      <psa30 value="0.0022153430" flag="0"/>
    </comp>
    <comp name="--.HNN">
      <acc value="0.0482281423" flag="0"/>
      <vel value="0.0211795650" flag="0"/>
      <psa03 value="0.1578248166" flag="0"/>
      <psa10 value="0.0171829918" flag="0"/>
      <psa30 value="0.0017374680" flag="0"/>
    </comp>
    <comp name="--.HNZ">
      <acc value="0.0470929778" flag="0"/>
      <vel value="0.0121403827" flag="0"/>
      <psa03 value="0.0848241756" flag="0"/>
      <psa10 value="0.0148727153" flag="0"/>
      <psa30 value="0.0009460376" flag="0"/>
    </comp>
  </station>
  <station code="RKL1" name="RKL1" netid="HI" insttype="unknown" commtype="DIG" lat="36.3367" lon="28.1712">
    <comp name="--.HNE">
      <acc value="0.0993551264" flag="0"/>
      <vel value="0.0409334815" flag="0"/>
      <psa03 value="0.1840200348" flag="0"/>
      <psa10 value="0.0304051162" flag="0"/>
      <psa30 value="0.0016502572" flag="0"/>
    </comp>
    <comp name="--.HNN">
      <acc value="0.0870313353" flag="0"/>
      <vel value="0.0323915303" flag="0"/>
      <psa03 value="0.1523469966" flag="0"/>
      <psa10 value="0.0390632923" flag="0"/>
      <psa30 value="0.0016182486" flag="0"/>
    </comp>
    <comp name="--.HNZ">
      <acc value="0.0757167060" flag="0"/>
      <vel value="0.0258593563" flag="0"/>
      <psa03 value="0.0987984133" flag="0"/>
      <psa10 value="0.0121236582" flag="0"/>
      <psa30 value="0.0007796628" flag="0"/>
    </comp>
  </station>
  <station code="RPN1" name="RPN1" netid="HI" insttype="unknown" commtype="DIG" lat="36.4487" lon="28.218">
    <comp name="--.HNE">
      <acc value="0.0608135184" flag="0"/>
      <vel value="0.0222728732" flag="0"/>
      <psa03 value="0.1273281399" flag="0"/>
      <psa10 value="0.0215402492" flag="0"/>
      <psa30 value="0.0016617771" flag="0"/>
    </comp>
    <comp name="--.HNZ">
      <acc value="0.0534435932" flag="0"/>
      <vel value="0.0123114921" flag="0"/>
      <psa03 value="0.0538290729" flag="0"/>
      <psa10 value="0.0112036578" flag="0"/>
      <psa30 value="0.0009285559" flag="0"/>
    </comp>
    <comp name="--.HNN">
      <acc value="0.0863663380" flag="0"/>
      <vel value="0.0271981582" flag="0"/>
      <psa03 value="0.2174529726" flag="0"/>
      <psa10 value="0.0193694245" flag="0"/>
      <psa30 value="0.0014062875" flag="0"/>
    </comp>
  </station>
  <station code="ARG" name="ARG" netid="HL" insttype="LE3D20_DR24" commtype="DIG" lat="36.2136" lon="28.1212">
    <comp name="--.HHN">
      <acc value="0.0481340450" flag="0"/>
      <vel value="0.0158280540" flag="0"/>
      <psa03 value="0.0824882962" flag="0"/>
      <psa10 value="0.0147505530" flag="0"/>
      <psa30 value="0.0010030216" flag="0"/>
    </comp>
    <comp name="--.HHE">
      <acc value="0.0685298707" flag="0"/>
      <vel value="0.0220275470" flag="0"/>
      <psa03 value="0.1982027948" flag="0"/>
      <psa10 value="0.0102911368" flag="0"/>
      <psa30 value="0.0007911860" flag="0"/>
    </comp>
    <comp name="--.HHZ">
      <acc value="0.0384177754" flag="0"/>
      <vel value="0.0131440636" flag="0"/>
      <psa03 value="0.0636635017" flag="0"/>
      <psa10 value="0.0129814302" flag="0"/>
      <psa30 value="0.0006532330" flag="0"/>
    </comp>
  </station>
  <station code="RODB" name="RODB" netid="HL" insttype="CMG-5" commtype="DIG" lat="36.4471" lon="28.2212">
    <comp name="00.HNE">
      <acc value="0.0446899958" flag="0"/>
      <vel value="0.0162163622" flag="0"/>
      <psa03 value="0.1480595515" flag="0"/>
      <psa10 value="0.0188611246" flag="0"/>
      <psa30 value="0.0013973223" flag="0"/>
    </comp>
    <comp name="00.HNN">
      <acc value="0.0660179937" flag="0"/>
      <vel value="0.0212612005" flag="0"/>
      <psa03 value="0.1531579491" flag="0"/>
      <psa10 value="0.0211410400" flag="0"/>
      <psa30 value="0.0020760785" flag="0"/>
    </comp>
    <comp name="00.HNZ">
      <acc value="0.0402884239" flag="0"/>
      <vel value="0.0145277849" flag="0"/>
      <psa03 value="0.0966021219" flag="0"/>
      <psa10 value="0.0132420270" flag="0"/>
      <psa30 value="0.0007649696" flag="0"/>
    </comp>
  </station>
</stationlist>
