<?xml version="1.0" encoding="UTF-8" standalone="yes"?>
<!DOCTYPE earthquake SYSTEM "stationlist.dtd">
<stationlist created="" xmlns="ch.ethz.sed.shakemap.usgs.xml">
  <station code="IMMV" name="IMMV" netid="GE" insttype="STS-2/N" commtype="DIG" lat="35.4606" lon="23.9811">
    <comp name="--.HHZ">
      <acc value="0.1170323992" flag="0"/>
      <vel value="0.0568526265" flag="0"/>
      <psa03 value="0.2995203555" flag="0"/>
      <psa10 value="0.0269050550" flag="0"/>
      <psa30 value="0.0017035874" flag="0"/>
    </comp>
    <comp name="--.HHN">
      <acc value="0.1595480191" flag="0"/>
      <vel value="0.0682698131" flag="0"/>
      <psa03 value="0.6147638095" flag="0"/>
      <psa10 value="0.0438725976" flag="0"/>
      <psa30 value="0.0032948225" flag="0"/>
    </comp>
    <comp name="--.HHE">
      <acc value="0.1446367160" flag="0"/>
      <vel value="0.0589692981" flag="0"/>
      <psa03 value="0.4207270690" flag="0"/>
      <psa10 value="0.0478325986" flag="0"/>
      <psa30 value="0.0028904580" flag="0"/>
    </comp>
  </station>
  <station code="THERA" name="THERA" netid="GE" insttype="STS-2/N" commtype="DIG" lat="36.367" lon="25.4753">
    <comp name="--.HHE">
      <acc value="0.1044603624" flag="0"/>
      <vel value="0.0388144073" flag="0"/>
      <psa03 value="0.1488375797" flag="0"/>
      <psa10 value="0.0537300040" flag="0"/>
      <psa30 value="0.0022584810" flag="0"/>
    </comp>
    <comp name="--.HHN">
      <acc value="0.0957936948" flag="0"/>
      <vel value="0.0473363131" flag="0"/>
      <psa03 value="0.3188043168" flag="0"/>
      <psa10 value="0.0168903832" flag="0"/>
      <psa30 value="0.0014974397" flag="0"/>
    </comp>
    <comp name="--.HHZ">
      <acc value="0.0822200283" flag="0"/>
      <vel value="0.0335450408" flag="0"/>
      <psa03 value="0.3004869984" flag="0"/>
      <psa10 value="0.0136019342" flag="0"/>
      <psa30 value="0.0013919681" flag="0"/>
    </comp>
  </station>
  <station code="ZKR" name="ZKR" netid="GE" insttype="STS-2/N" commtype="DIG" lat="35.1147" lon="26.2169">
    <comp name="--.HHE">
      <acc value="0.0344984138" flag="0"/>
      <vel value="0.0246424584" flag="0"/>
      <psa03 value="0.1035579930" flag="0"/>
      <psa10 value="0.0214890488" flag="0"/>
      <psa30 value="0.0024609919" flag="0"/>
    </comp>
    <comp name="--.HHN">
      <acc value="0.0155405508" flag="0"/>
      <vel value="0.0093027546" flag="0"/>
      <psa03 value="0.0382756664" flag="0"/>
      <psa10 value="0.0099995263" flag="0"/>
      <psa30 value="0.0008085864" flag="0"/>
    </comp>
    <comp name="--.HHZ">
      <acc value="0.0211653552" flag="0"/>
      <vel value="0.0099867106" flag="0"/>
      <psa03 value="0.0495125763" flag="0"/>
      <psa10 value="0.0145037519" flag="0"/>
      <psa30 value="0.0012869934" flag="0"/>
    </comp>
  </station>
  <station code="IOSI" name="IOSI" netid="HA" insttype="60s," commtype="DIG" lat="36.7225" lon="25.2887">
    <comp name="--.HHE">
      <acc value="0.1247479845" flag="0"/>
      <vel value="0.0335272089" flag="0"/>
      <psa03 value="0.2113980423" flag="0"/>
      <psa10 value="0.0215710865" flag="0"/>
      <psa30 value="0.0013892649" flag="0"/>
    </comp>
    <comp name="--.HHN">
      <acc value="0.0995746301" flag="0"/>
      <vel value="0.0259666138" flag="0"/>
      <psa03 value="0.2750656874" flag="0"/>
      <psa10 value="0.0112530209" flag="0"/>
      <psa30 value="0.0010851154" flag="0"/>
    </comp>
    <comp name="--.HHZ">
      <acc value="0.1056047553" flag="0"/>
      <vel value="0.0247656328" flag="0"/>
      <psa03 value="0.0960024451" flag="0"/>
      <psa10 value="0.0100005008" flag="0"/>
      <psa30 value="0.0007540604" flag="0"/>
    </comp>
  </station>
  <station code="SNT1" name="SNT1" netid="HA" insttype="30" commtype="DIG" lat="36.4159" lon="25.4282">
    <comp name="--.HHE">
      <acc value="0.0750169416" flag="0"/>
      <vel value="0.0328483228" flag="0"/>
      <psa03 value="0.1491191849" flag="0"/>
      <psa10 value="0.0448772471" flag="0"/>
      <psa30 value="0.0032305034" flag="0"/>
    </comp>
    <comp name="--.HHN">
      <acc value="0.1019118598" flag="0"/>
      <vel value="0.0463775420" flag="0"/>
      <psa03 value="0.1562937346" flag="0"/>
      <psa10 value="0.0491584219" flag="0"/>
      <psa30 value="0.0049683697" flag="0"/>
    </comp>
    <comp name="--.HHZ">
      <acc value="0.0550670928" flag="0"/>
      <vel value="0.0213704365" flag="0"/>
      <psa03 value="0.1369994229" flag="0"/>
      <psa10 value="0.0136523461" flag="0"/>
      <psa30 value="0.0016794848" flag="0"/>
    </comp>
  </station>
  <station code="SNT5" name="SNT5" netid="HA" insttype="1s-100Hz," commtype="DIG" lat="36.4037" lon="25.3953">
    <comp name="--.HHE">
      <acc value="0.4159194117" flag="0"/>
      <vel value="0.1088240530" flag="0"/>
      <psa03 value="1.0052197131" flag="0"/>
      <psa10 value="0.0709456804" flag="0"/>
      <psa30 value="0.0059983182" flag="0"/>
    </comp>
    <comp name="--.HHN">
      <acc value="0.2043060392" flag="0"/>
      <vel value="0.0704007656" flag="0"/>
      <psa03 value="0.3595663078" flag="0"/>
      <psa10 value="0.0334241665" flag="0"/>
      <psa30 value="0.0046228395" flag="0"/>
    </comp>
    <comp name="--.HHZ">
      <acc value="0.0991512284" flag="0"/>
      <vel value="0.0270991950" flag="0"/>
      <psa03 value="0.1481417649" flag="0"/>
      <psa10 value="0.0200729939" flag="0"/>
      <psa30 value="0.0014873026" flag="0"/>
    </comp>
  </station>
  <station code="AGN1" name="AGN1" netid="HI" insttype="unknown" commtype="DIG" lat="35.1879" lon="25.7155">
    <comp name="--.HNE">
      <acc value="0.2585820953" flag="0"/>
      <vel value="0.0995066349" flag="0"/>
      <psa03 value="0.8432571374" flag="0"/>
      <psa10 value="0.0505533813" flag="0"/>
      <psa30 value="0.0041714627" flag="0"/>
    </comp>
    <comp name="--.HNN">
      <acc value="0.2141393796" flag="0"/>
      <vel value="0.0704856476" flag="0"/>
      <psa03 value="0.6228654923" flag="0"/>
      <psa10 value="0.0386853194" flag="0"/>
      <psa30 value="0.0031163822" flag="0"/>
    </comp>
    <comp name="--.HNZ">
      <acc value="0.1236157984" flag="0"/>
      <vel value="0.0366800708" flag="0"/>
      <psa03 value="0.2931018877" flag="0"/>
      <psa10 value="0.0166852644" flag="0"/>
      <psa30 value="0.0013188895" flag="0"/>
    </comp>
  </station>
  <station code="ARK1" name="ARK1" netid="HI" insttype="unknown" commtype="DIG" lat="35.1488" lon="25.2642">
    <comp name="--.HNE">
      <acc value="0.3855685046" flag="0"/>
      <vel value="0.1674062370" flag="0"/>
      <psa03 value="0.8613090623" flag="0"/>
      <psa10 value="0.0731798513" flag="0"/>
      <psa30 value="0.0062386722" flag="0"/>
    </comp>
    <comp name="--.HNN">
      <acc value="0.4629289698" flag="0"/>
      <vel value="0.1462012608" flag="0"/>
      <psa03 value="0.8953624341" flag="0"/>
      <psa10 value="0.0897504939" flag="0"/>
      <psa30 value="0.0053276002" flag="0"/>
    </comp>
    <comp name="--.HNZ">
      <acc value="0.3709035494" flag="0"/>
      <vel value="0.1078051580" flag="0"/>
      <psa03 value="0.4958575354" flag="0"/>
      <psa10 value="0.0809140949" flag="0"/>
      <psa30 value="0.0039544735" flag="0"/>
    </comp>
  </station>
  <station code="CH01" name="CH01" netid="HI" insttype="CMG-5TD,ACCELEROMETER,GURALP" commtype="DIG" lat="35.517" lon="24.0208">
    <comp name="--.HNE">
      <acc value="0.2443940648" flag="0"/>
      <vel value="0.0832561110" flag="0"/>
      <psa03 value="0.3823229391" flag="0"/>
      <psa10 value="0.0416566658" flag="0"/>
      <psa30 value="0.0031113621" flag="0"/>
    </comp>
    <comp name="--.HNZ">
      <acc value="0.1377068446" flag="0"/>
      <vel value="0.0419863175" flag="0"/>
      <psa03 value="0.1740410466" flag="0"/>
      <psa10 value="0.0275430043" flag="0"/>
      <psa30 value="0.0014080959" flag="0"/>
    </comp>
    <comp name="--.HNN">
      <acc value="0.3501189150" flag="0"/>
      <vel value="0.1095626810" flag="0"/>
      <psa03 value="0.6002556274" flag="0"/>
      <psa10 value="0.0420867402" flag="0"/>
      <psa30 value="0.0034600877" flag="0"/>
    </comp>
  </station>
  <station code="CH02" name="CH02" netid="HI" insttype="unknown" commtype="DIG" lat="35.5145" lon="24.0315">
    <comp name="--.HNE">
      <acc value="0.2072328716" flag="0"/>
      <vel value="0.0743955654" flag="0"/>
      <psa03 value="0.3460880472" flag="0"/>
      <psa10 value="0.0455571147" flag="0"/>
      <psa30 value="0.0033605182" flag="0"/>
    </comp>
    <comp name="--.HNN">
      <acc value="0.3313307297" flag="0"/>
      <vel value="0.1127407201" flag="0"/>
      <psa03 value="0.8004340562" flag="0"/>
      <psa10 value="0.0433832621" flag="0"/>
      <psa30 value="0.0029865556" flag="0"/>
    </comp>
    <comp name="--.HNZ">
      <acc value="0.1395985282" flag="0"/>
      <vel value="0.0449438741" flag="0"/>
      <psa03 value="0.1767702141" flag="0"/>
      <psa10 value="0.0303110918" flag="0"/>
      <psa30 value="0.0014758605" flag="0"/>
    </comp>
  </station>
  <station code="CH03" name="CH03" netid="HI" insttype="unknown" commtype="DIG" lat="35.533" lon="24.0705">
    <comp name="--.HNE">
      <acc value="0.1223817266" flag="0"/>
      <vel value="0.0497784780" flag="0"/>
      <psa03 value="0.2003731716" flag="0"/>
      <psa10 value="0.0395488651" flag="0"/>
      <psa30 value="0.0021483817" flag="0"/>
    </comp>
    <comp name="--.HNZ">
      <acc value="0.1188651119" flag="0"/>
      <vel value="0.0410465507" flag="0"/>
      <psa03 value="0.1987340603" flag="0"/>
      <psa10 value="0.0231690236" flag="0"/>
      <psa30 value="0.0010497554" flag="0"/>
    </comp>
    <comp name="--.HNN">
      <acc value="0.1125306087" flag="0"/>
      <vel value="0.0421664423" flag="0"/>
      <psa03 value="0.2947147751" flag="0"/>
      <psa10 value="0.0353769707" flag="0"/>
      <psa30 value="0.0020541660" flag="0"/>
    </comp>
  </station>
  <station code="GOR1" name="GOR1" netid="HI" insttype="unknown" commtype="DIG" lat="35.0582" lon="24.9628">
    <comp name="--.HNN">
      <acc value="0.3508403570" flag="0"/>
      <vel value="0.1442171432" flag="0"/>
      <psa03 value="0.6766516675" flag="0"/>
      <psa10 value="0.1255029924" flag="0"/>
      <psa30 value="0.0116523314" flag="0"/>
    </comp>
    <comp name="--.HNE">
      <acc value="0.3301853332" flag="0"/>
      <vel value="0.1277839104" flag="0"/>
      <psa03 value="0.9115740988" flag="0"/>
      <psa10 value="0.1373918459" flag="0"/>
      <psa30 value="0.0068124022" flag="0"/>
    </comp>
    <comp name="--.HNZ">
      <acc value="0.2982324012" flag="0"/>
      <vel value="0.0896707356" flag="0"/>
      <psa03 value="0.5677341649" flag="0"/>
      <psa10 value="0.0710817237" flag="0"/>
      <psa30 value="0.0052849379" flag="0"/>
    </comp>
  </station>
  <station code="HER1" name="HER1" netid="HI" insttype="unknown" commtype="DIG" lat="35.3177" lon="25.1022">
    <comp name="--.HNE">
      <acc value="1.7995316561" flag="0"/>
      <vel value="0.5207977363" flag="0"/>
      <psa03 value="2.8274002416" flag="0"/>
      <psa10 value="0.2761055240" flag="0"/>
      <psa30 value="0.0219594736" flag="0"/>
    </comp>
    <comp name="--.HNN">
      <acc value="1.1991857227" flag="0"/>
      <vel value="0.5099958713" flag="0"/>
      <psa03 value="2.6637046800" flag="0"/>
      <psa10 value="0.2550146964" flag="0"/>
      <psa30 value="0.0177846064" flag="0"/>
    </comp>
    <comp name="--.HNZ">
      <acc value="1.1393241839" flag="0"/>
      <vel value="0.3204751833" flag="0"/>
      <psa03 value="1.3233679111" flag="0"/>
      <psa10 value="0.2679846902" flag="0"/>
      <psa30 value="0.0137434274" flag="0"/>
    </comp>
  </station>
  <station code="HER3" name="HER3" netid="HI" insttype="unknown" commtype="DIG" lat="35.3296" lon="25.1065">
    <comp name="--.HNN">
      <acc value="2.0204037037" flag="0"/>
      <vel value="1.0242958199" flag="0"/>
      <psa03 value="6.7859881083" flag="0"/>
      <psa10 value="0.5434533405" flag="0"/>
      <psa30 value="0.0345326179" flag="0"/>
    </comp>
    <comp name="--.HNE">
      <acc value="2.1680178768" flag="0"/>
      <vel value="1.0476532705" flag="0"/>
      <psa03 value="6.0629960629" flag="0"/>
      <psa10 value="0.3355270968" flag="0"/>
      <psa30 value="0.0252852002" flag="0"/>
    </comp>
    <comp name="--.HNZ">
      <acc value="1.0548593903" flag="0"/>
      <vel value="0.5960475995" flag="0"/>
      <psa03 value="2.0914556618" flag="0"/>
      <psa10 value="0.2359771271" flag="0"/>
      <psa30 value="0.0163262419" flag="0"/>
    </comp>
  </station>
  <station code="KIS1" name="KIS1" netid="HI" insttype="unknown" commtype="DIG" lat="35.4939" lon="23.659">
    <comp name="--.HNN">
      <acc value="0.1230290574" flag="0"/>
      <vel value="0.0581822122" flag="0"/>
      <psa03 value="0.2140603911" flag="0"/>
      <psa10 value="0.0495066803" flag="0"/>
      <psa30 value="0.0022995561" flag="0"/>
    </comp>
    <comp name="--.HNE">
      <acc value="0.0871960808" flag="0"/>
      <vel value="0.0375785021" flag="0"/>
      <psa03 value="0.2246674759" flag="0"/>
      <psa10 value="0.0475135455" flag="0"/>
      <psa30 value="0.0021352015" flag="0"/>
    </comp>
    <comp name="--.HNZ">
      <acc value="0.0671209919" flag="0"/>
      <vel value="0.0332591048" flag="0"/>
      <psa03 value="0.1428695530" flag="0"/>
      <psa10 value="0.0338043316" flag="0"/>
      <psa30 value="0.0012570224" flag="0"/>
    </comp>
  </station>
  <station code="KTL1" name="KTL1" netid="HI" insttype="unknown" commtype="DIG" lat="35.2078" lon="25.3427">
    <comp name="--.HNE">
      <acc value="0.4301147506" flag="0"/>
      <vel value="0.1877280361" flag="0"/>
      <psa03 value="0.7173087122" flag="0"/>
      <psa10 value="0.0985262291" flag="0"/>
      <psa30 value="0.0050468860" flag="0"/>
    </comp>
    <comp name="--.HNZ">
      <acc value="0.2405282539" flag="0"/>
      <vel value="0.0809828370" flag="0"/>
      <psa03 value="0.5917271941" flag="0"/>
      <psa10 value="0.0552906384" flag="0"/>
      <psa30 value="0.0029284349" flag="0"/>
    </comp>
    <comp name="--.HNN">
      <acc value="0.6092205068" flag="0"/>
      <vel value="0.3146243252" flag="0"/>
      <psa03 value="1.6994829821" flag="0"/>
      <psa10 value="0.1201757002" flag="0"/>
      <psa30 value="0.0077032712" flag="0"/>
    </comp>
  </station>
  <station code="RTH1" name="RTH1" netid="HI" insttype="unknown" commtype="DIG" lat="35.3654" lon="24.4718">
    <comp name="--.HNE">
      <acc value="0.9447235024" flag="0"/>
      <vel value="0.4025059650" flag="0"/>
      <psa03 value="3.2547091517" flag="0"/>
      <psa10 value="0.0871637552" flag="0"/>
      <psa30 value="0.0076209576" flag="0"/>
    </comp>
    <comp name="--.HNN">
      <acc value="1.0820142751" flag="0"/>
      <vel value="0.3285734934" flag="0"/>
      <psa03 value="2.3512478035" flag="0"/>
      <psa10 value="0.0579509938" flag="0"/>
      <psa30 value="0.0055388234" flag="0"/>
    </comp>
    <comp name="--.HNZ">
      <acc value="0.4276948757" flag="0"/>
      <vel value="0.1563180249" flag="0"/>
      <psa03 value="1.0181229066" flag="0"/>
      <psa10 value="0.0292824005" flag="0"/>
      <psa30 value="0.0024393834" flag="0"/>
    </comp>
  </station>
  <station code="ANKY" name="ANKY" netid="HL" insttype="60" commtype="DIG" lat="35.867" lon="23.3012">
    <comp name="--.HHE">
      <acc value="0.0276282535" flag="0"/>
      <vel value="0.0148851935" flag="0"/>
      <psa03 value="0.0637321417" flag="0"/>
      <psa10 value="0.0192591319" flag="0"/>
      <psa30 value="0.0011720159" flag="0"/>
    </comp>
    <comp name="--.HHN">
      <acc value="0.0262897005" flag="0"/>
      <vel value="0.0160384514" flag="0"/>
      <psa03 value="0.0743398487" flag="0"/>
      <psa10 value="0.0238461408" flag="0"/>
      <psa30 value="0.0007740351" flag="0"/>
    </comp>
    <comp name="--.HHZ">
      <acc value="0.0243148065" flag="0"/>
      <vel value="0.0118299283" flag="0"/>
      <psa03 value="0.0628488658" flag="0"/>
      <psa10 value="0.0070084889" flag="0"/>
      <psa30 value="0.0005258408" flag="0"/>
    </comp>
  </station>
  <station code="CHNB" name="CHNB" netid="HL" insttype="CMG-5" commtype="DIG" lat="35.4877" lon="24.0661">
    <comp name="00.HNE">
      <acc value="0.3368269817" flag="0"/>
      <vel value="0.1594329688" flag="0"/>
      <psa03 value="0.8435452214" flag="0"/>
      <psa10 value="0.1389961000" flag="0"/>
      <psa30 value="0.0063850487" flag="0"/>
    </comp>
    <comp name="00.HNZ">
      <acc value="0.2583208625" flag="0"/>
      <vel value="0.1138803452" flag="0"/>
      <psa03 value="0.6997082614" flag="0"/>
      <psa10 value="0.0346814917" flag="0"/>
      <psa30 value="0.0027353562" flag="0"/>
    </comp>
    <comp name="00.HNN">
      <acc value="0.2783464926" flag="0"/>
      <vel value="0.1306264570" flag="0"/>
      <psa03 value="0.7085674317" flag="0"/>
      <psa10 value="0.1252139389" flag="0"/>
      <psa30 value="0.0059960098" flag="0"/>
    </comp>
  </station>
  <station code="HERG" name="HERG" netid="HL" insttype="CMG-5" commtype="DIG" lat="35.3262" lon="25.0659">
    <comp name="00.HNZ">
      <acc value="0.5626691830" flag="0"/>
      <vel value="0.2186746607" flag="0"/>
      <psa03 value="0.8167647812" flag="0"/>
      <psa10 value="0.1655796375" flag="0"/>
      <psa30 value="0.0092194439" flag="0"/>
    </comp>
    <comp name="00.HNN">
      <acc value="0.7648541635" flag="0"/>
      <vel value="0.3138201956" flag="0"/>
      <psa03 value="1.4700244993" flag="0"/>
      <psa10 value="0.2896717085" flag="0"/>
      <psa30 value="0.0168445742" flag="0"/>
    </comp>
    <comp name="00.HNE">
      <acc value="0.5658072323" flag="0"/>
      <vel value="0.2425677732" flag="0"/>
      <psa03 value="1.6308122738" flag="0"/>
      <psa10 value="0.2452887572" flag="0"/>
      <psa30 value="0.0085081575" flag="0"/>
    </comp>
  </station>
  <station code="IACM" name="IACM" netid="HL" insttype="120" commtype="DIG" lat="35.3058" lon="25.0709">
    <comp name="--.HHZ">
      <acc value="1.1345868597" flag="0"/>
      <vel value="0.3382539648" flag="0"/>
      <psa03 value="1.7351296929" flag="0"/>
      <psa10 value="0.1723011604" flag="0"/>
      <psa30 value="0.0113598103" flag="0"/>
    </comp>
    <comp name="--.HHE">
      <acc value="1.6580740348" flag="0"/>
      <vel value="0.7150510198" flag="0"/>
      <psa03 value="4.5353938648" flag="0"/>
      <psa10 value="0.3486390677" flag="0"/>
      <psa30 value="0.0159991081" flag="0"/>
    </comp>
    <comp name="--.HHN">
      <acc value="1.4915378389" flag="0"/>
      <vel value="0.5547787834" flag="0"/>
      <psa03 value="3.3001209852" flag="0"/>
      <psa10 value="0.3366078424" flag="0"/>
      <psa30 value="0.0170436239" flag="0"/>
    </comp>
  </station>
  <station code="IMMV" name="IMMV" netid="HL" insttype="120" commtype="DIG" lat="35.4606" lon="23.9811">
    <comp name="--.HHE">
      <acc value="0.1405096223" flag="0"/>
      <vel value="0.0575417180" flag="0"/>
      <psa03 value="0.4084420777" flag="0"/>
      <psa10 value="0.0474702948" flag="0"/>
      <psa30 value="0.0028810902" flag="0"/>
    </comp>
    <comp name="--.HHZ">
      <acc value="0.1135350577" flag="0"/>
      <vel value="0.0555692415" flag="0"/>
      <psa03 value="0.2916598525" flag="0"/>
      <psa10 value="0.0265298202" flag="0"/>
      <psa30 value="0.0016829046" flag="0"/>
    </comp>
    <comp name="--.HHN">
      <acc value="0.1547628733" flag="0"/>
      <vel value="0.0665041054" flag="0"/>
      <psa03 value="0.5966378699" flag="0"/>
      <psa10 value="0.0435572687" flag="0"/>
      <psa30 value="0.0032641950" flag="0"/>
    </comp>
  </station>
  <station code="MHLO" name="MHLO" netid="HL" insttype="20" commtype="DIG" lat="36.6898" lon="24.4017">
    <comp name="--.HHN">
