<stationlist xmlns:esm="https://esm-db.eu/esmws/shakemap/1/" created="1781229315">
	<station code="AGN1" name="AGN1" netid="HI" source="ITSAK Strong Motion Network" insttype="" lat="35.1879" lon="25.7155" esm:processing="automatic (Paolucci et al 2011)" esm:quality="best">
		<comp name="--.HNE" depth="0.0">
			<acc value="0.259701131654455" flag="0"/>
			<vel value="0.0998380174523213" flag="0"/>
			<psa03 value="0.860074642390698" flag="0"/>
			<psa10 value="0.050655438174175" flag="0"/>
			<psa30 value="0.00437249465631189" flag="0"/>
		</comp>
		<comp name="--.HNN" depth="0.0">
			<acc value="0.215830514460926" flag="0"/>
			<vel value="0.0708102122991518" flag="0"/>
			<psa03 value="0.63179206145673" flag="0"/>
			<psa10 value="0.0388446345163971" flag="0"/>
			<psa30 value="0.0032900300316763" flag="0"/>
		</comp>
		<comp name="--.HNZ" depth="0.0">
			<acc value="0.121808871346596" flag="0"/>
			<vel value="0.0368956401366165" flag="0"/>
			<psa03 value="0.299453212305675" flag="0"/>
			<psa10 value="0.0167201432524323" flag="0"/>
			<psa30 value="0.00134464553450082" flag="0"/>
		</comp>
	</station>
	<station code="ARK1" name="ARK1" netid="HI" source="ITSAK Strong Motion Network" insttype="" lat="35.148777" lon="25.264194" esm:processing="automatic (Paolucci et al 2011)" esm:quality="best">
		<comp name="--.HNE" depth="0.0">
			<acc value="0.389254514156821" flag="0"/>
			<vel value="0.167250330946656" flag="0"/>
			<psa03 value="0.863442448824679" flag="0"/>
			<psa10 value="0.0733219622201515" flag="0"/>
			<psa30 value="0.00621863862095581" flag="0"/>
		</comp>
		<comp name="--.HNN" depth="0.0">
			<acc value="0.465520709233459" flag="0"/>
			<vel value="0.147391007454164" flag="0"/>
			<psa03 value="0.886825081142647" flag="0"/>
			<psa10 value="0.0899361853308942" flag="0"/>
			<psa30 value="0.00545490636077511" flag="0"/>
		</comp>
		<comp name="--.HNZ" depth="0.0">
			<acc value="0.361954151142451" flag="0"/>
			<vel value="0.109397039231063" flag="0"/>
			<psa03 value="0.49905089300578" flag="0"/>
			<psa10 value="0.0811385150284134" flag="0"/>
			<psa30 value="0.00418896041473579" flag="0"/>
		</comp>
	</station>
	<station code="CH01" name="CH01" netid="HI" source="ITSAK Strong Motion Network" insttype="" lat="35.517" lon="24.0208" esm:processing="automatic (Paolucci et al 2011)" esm:quality="best">
		<comp name="--.HNE" depth="0.0">
			<acc value="0.241047861108665" flag="0"/>
			<vel value="0.0840333805917081" flag="0"/>
			<psa03 value="0.39208276522562" flag="0"/>
			<psa10 value="0.0417508595395419" flag="0"/>
			<psa30 value="0.00339885203226644" flag="0"/>
		</comp>
		<comp name="--.HNN" depth="0.0">
			<acc value="0.349161651184171" flag="0"/>
			<vel value="0.110248423496298" flag="0"/>
			<psa03 value="0.601599936376619" flag="0"/>
			<psa10 value="0.0425163377487165" flag="0"/>
			<psa30 value="0.00371644369615551" flag="0"/>
		</comp>
		<comp name="--.HNZ" depth="0.0">
			<acc value="0.139000613186332" flag="0"/>
			<vel value="0.0425559132036127" flag="0"/>
			<psa03 value="0.180252482509" flag="0"/>
			<psa10 value="0.0275646991510382" flag="0"/>
			<psa30 value="0.00144019113476125" flag="0"/>
		</comp>
	</station>
	<station code="CH02" name="CH02" netid="HI" source="ITSAK Strong Motion Network" insttype="" lat="35.5145" lon="24.0315" esm:processing="automatic (Paolucci et al 2011)" esm:quality="best">
		<comp name="--.HNE" depth="0.0">
			<acc value="0.209423460418356" flag="0"/>
			<vel value="0.0745955578693369" flag="0"/>
			<psa03 value="0.355031227409746" flag="0"/>
			<psa10 value="0.0456689840960646" flag="0"/>
			<psa30 value="0.00365799524089886" flag="0"/>
		</comp>
		<comp name="--.HNN" depth="0.0">
			<acc value="0.328662501658451" flag="0"/>
			<vel value="0.114335179388492" flag="0"/>
			<psa03 value="0.803479893266321" flag="0"/>
			<psa10 value="0.0437699895469955" flag="0"/>
			<psa30 value="0.00321005619213526" flag="0"/>
		</comp>
		<comp name="--.HNZ" depth="0.0">
			<acc value="0.142099462535454" flag="0"/>
			<vel value="0.0453090080981332" flag="0"/>
			<psa03 value="0.176655390052611" flag="0"/>
			<psa10 value="0.0303565322212775" flag="0"/>
			<psa30 value="0.00155697251678801" flag="0"/>
		</comp>
	</station>
	<station code="CH03" name="CH03" netid="HI" source="ITSAK Strong Motion Network" insttype="" lat="35.53303" lon="24.0705" esm:processing="automatic (Paolucci et al 2011)" esm:quality="best">
		<comp name="--.HNE" depth="0.0">
			<acc value="0.119448032719458" flag="0"/>
			<vel value="0.050283368265258" flag="0"/>
			<psa03 value="0.207526955975677" flag="0"/>
			<psa10 value="0.0397261791644037" flag="0"/>
			<psa30 value="0.00235823309636903" flag="0"/>
		</comp>
		<comp name="--.HNN" depth="0.0">
			<acc value="0.11082856631216" flag="0"/>
			<vel value="0.0424064932337837" flag="0"/>
			<psa03 value="0.295673441081048" flag="0"/>
			<psa10 value="0.0354287094781278" flag="0"/>
			<psa30 value="0.00203816668520676" flag="0"/>
		</comp>
		<comp name="--.HNZ" depth="0.0">
			<acc value="0.117946473643445" flag="0"/>
			<vel value="0.0415018982145948" flag="0"/>
			<psa03 value="0.202919734103173" flag="0"/>
			<psa10 value="0.0231843358484671" flag="0"/>
			<psa30 value="0.00110732325056422" flag="0"/>
		</comp>
	</station>
	<station code="GOR1" name="GOR1" netid="HI" source="ITSAK Strong Motion Network" insttype="" lat="35.0582" lon="24.9628" esm:processing="automatic (Paolucci et al 2011)" esm:quality="best">
		<comp name="--.HNE" depth="0.0">
			<acc value="0.330021813335556" flag="0"/>
			<vel value="0.127787336179727" flag="0"/>
			<psa03 value="0.92192965664849" flag="0"/>
			<psa10 value="0.137491593143272" flag="0"/>
			<psa30 value="0.00720532731757287" flag="0"/>
		</comp>
		<comp name="--.HNN" depth="0.0">
			<acc value="0.351709425692125" flag="0"/>
			<vel value="0.143652031294352" flag="0"/>
			<psa03 value="0.699483003982796" flag="0"/>
			<psa10 value="0.125474357060359" flag="0"/>
			<psa30 value="0.0121611072803404" flag="0"/>
		</comp>
		<comp name="--.HNZ" depth="0.0">
			<acc value="0.301505733447997" flag="0"/>
			<vel value="0.0914346098499538" flag="0"/>
			<psa03 value="0.584393338190601" flag="0"/>
			<psa10 value="0.0714790151339518" flag="0"/>
			<psa30 value="0.00587324490698403" flag="0"/>
		</comp>
	</station>
	<station code="HER1" name="HER1" netid="HI" source="ITSAK Strong Motion Network" insttype="" lat="35.317672" lon="25.10217" esm:processing="automatic (Paolucci et al 2011)" esm:quality="best">
		<comp name="--.HNE" depth="0.0">
			<acc value="1.7868603935956" flag="0"/>
			<vel value="0.525396465629125" flag="0"/>
			<psa03 value="2.8577249769214" flag="0"/>
			<psa10 value="0.276866141023054" flag="0"/>
			<psa30 value="0.0220080395912797" flag="0"/>
		</comp>
		<comp name="--.HNN" depth="0.0">
			<acc value="1.19023483965329" flag="0"/>
			<vel value="0.516391361267" flag="0"/>
			<psa03 value="2.72670529751065" flag="0"/>
			<psa10 value="0.255613513140759" flag="0"/>
			<psa30 value="0.0185565476135419" flag="0"/>
		</comp>
		<comp name="--.HNZ" depth="0.0">
			<acc value="1.14251160628487" flag="0"/>
			<vel value="0.321827894597079" flag="0"/>
			<psa03 value="1.33892753071113" flag="0"/>
			<psa10 value="0.269104956882695" flag="0"/>
			<psa30 value="0.0137805728953228" flag="0"/>
		</comp>
	</station>
	<station code="HER3" name="HER3" netid="HI" source="ITSAK Strong Motion Network" insttype="" lat="35.3296" lon="25.1065" esm:processing="automatic (Paolucci et al 2011)" esm:quality="best">
		<comp name="--.HNE" depth="0.0">
			<acc value="2.17272083736859" flag="0"/>
			<vel value="1.05414085829365" flag="0"/>
			<psa03 value="6.22935466417441" flag="0"/>
			<psa10 value="0.33622681337627" flag="0"/>
			<psa30 value="0.0253919270905526" flag="0"/>
		</comp>
		<comp name="--.HNN" depth="0.0">
			<acc value="2.01760599471891" flag="0"/>
			<vel value="1.0308544394597" flag="0"/>
			<psa03 value="6.94480405918559" flag="0"/>
			<psa10 value="0.544521371868514" flag="0"/>
			<psa30 value="0.0351551588567417" flag="0"/>
		</comp>
		<comp name="--.HNZ" depth="0.0">
			<acc value="1.05527609071883" flag="0"/>
			<vel value="0.599325474561379" flag="0"/>
			<psa03 value="2.08789597952845" flag="0"/>
			<psa10 value="0.236985999159377" flag="0"/>
			<psa30 value="0.0164551417390492" flag="0"/>
		</comp>
	</station>
	<station code="KIS1" name="KIS1" netid="HI" source="ITSAK Strong Motion Network" insttype="" lat="35.493933" lon="23.658993" esm:processing="automatic (Paolucci et al 2011)" esm:quality="best">
		<comp name="--.HNE" depth="0.0">
			<acc value="0.0871027397235483" flag="0"/>
			<vel value="0.0379547178692883" flag="0"/>
			<psa03 value="0.22687815456428" flag="0"/>
			<psa10 value="0.0475637333639046" flag="0"/>
			<psa30 value="0.00219048365045817" flag="0"/>
		</comp>
		<comp name="--.HNN" depth="0.0">
			<acc value="0.121616578429953" flag="0"/>
			<vel value="0.0585274734198036" flag="0"/>
			<psa03 value="0.215364245991011" flag="0"/>
			<psa10 value="0.0496609247925443" flag="0"/>
			<psa30 value="0.00241221500573893" flag="0"/>
		</comp>
		<comp name="--.HNZ" depth="0.0">
			<acc value="0.0669488039176965" flag="0"/>
			<vel value="0.0334740846321128" flag="0"/>
			<psa03 value="0.142954167928709" flag="0"/>
			<psa10 value="0.0338858197692567" flag="0"/>
			<psa30 value="0.00131900998210462" flag="0"/>
		</comp>
	</station>
	<station code="KSS1" name="KSS1" netid="HI" source="ITSAK Strong Motion Network" insttype="" lat="35.4189" lon="26.9207" esm:processing="automatic (Paolucci et al 2011)" esm:quality="best">
		<comp name="--.HNE" depth="0.0">
			<acc value="0.0184731911684722" flag="0"/>
			<vel value="0.00630040853875925" flag="0"/>
			<psa03 value="0.0507264645459903" flag="0"/>
			<psa10 value="0.00391235198661828" flag="0"/>
			<psa30 value="0.000324971241291526" flag="0"/>
		</comp>
		<comp name="--.HNN" depth="0.0">
			<acc value="0.02038154367969" flag="0"/>
			<vel value="0.00812068551270074" flag="0"/>
			<psa03 value="0.0728248399132385" flag="0"/>
			<psa10 value="0.0059909895299041" flag="0"/>
			<psa30 value="0.000761292411052669" flag="0"/>
		</comp>
		<comp name="--.HNZ" depth="0.0">
			<acc value="0.0157407772793052" flag="0"/>
			<vel value="0.00475065729258404" flag="0"/>
			<psa03 value="0.0181522142138552" flag="0"/>
			<psa10 value="0.00328665678738209" flag="0"/>
			<psa30 value="0.000406346970575886" flag="0"/>
		</comp>
	</station>
	<station code="KTL1" name="KTL1" netid="HI" source="ITSAK Strong Motion Network" insttype="" lat="35.20778" lon="25.34272" esm:processing="automatic (Paolucci et al 2011)" esm:quality="best">
		<comp name="--.HNE" depth="0.0">
			<acc value="0.42814551994502" flag="0"/>
			<vel value="0.188585521373717" flag="0"/>
			<psa03 value="0.720936925199786" flag="0"/>
			<psa10 value="0.0988441204378772" flag="0"/>
			<psa30 value="0.0050760020935603" flag="0"/>
		</comp>
		<comp name="--.HNN" depth="0.0">
			<acc value="0.608236141468945" flag="0"/>
			<vel value="0.316730237528757" flag="0"/>
			<psa03 value="1.72844033402272" flag="0"/>
			<psa10 value="0.120942976878661" flag="0"/>
			<psa30 value="0.00759695326086962" flag="0"/>
		</comp>
		<comp name="--.HNZ" depth="0.0">
			<acc value="0.239329397087911" flag="0"/>
			<vel value="0.0815508032328339" flag="0"/>
			<psa03 value="0.60440728901662" flag="0"/>
			<psa10 value="0.0554826604539603" flag="0"/>
			<psa30 value="0.00293068372674718" flag="0"/>
		</comp>
	</station>
	<station code="NAX1" name="NAX1" netid="HI" source="ITSAK Strong Motion Network" insttype="" lat="37.101394" lon="25.374103" esm:processing="manual (Paolucci et al 2011)" esm:quality="good">
		<comp name="--.HNE" depth="0.0">
			<acc value="0.0591546301893574" flag="0"/>
			<vel value="0.0222176314275175" flag="0"/>
			<psa03 value="0.0820101671460884" flag="0"/>
			<psa10 value="0.0152488317227642" flag="0"/>
			<psa30 value="0.00108903255972905" flag="0"/>
		</comp>
		<comp name="--.HNN" depth="0.0">
			<acc value="0.190048813905873" flag="0"/>
			<vel value="0.0460365914223944" flag="0"/>
			<psa03 value="0.230765745431429" flag="0"/>
			<psa10 value="0.021130829188729" flag="0"/>
			<psa30 value="0.00104029370601919" flag="0"/>
		</comp>
		<comp name="--.HNZ" depth="0.0">
			<acc value="0.0726778536477504" flag="0"/>
			<vel value="0.0261496584944517" flag="0"/>
			<psa03 value="0.129837674025361" flag="0"/>
			<psa10 value="0.0119592300527981" flag="0"/>
			<psa30 value="0.000788585208649897" flag="0"/>
		</comp>
	</station>
	<station code="NPS1" name="NPS1" netid="HI" source="ITSAK Strong Motion Network" insttype="" lat="36.51263" lon="23.06248" esm:processing="automatic (Paolucci et al 2011)" esm:quality="best">
		<comp name="--.HNE" depth="0.0">
			<acc value="0.0463679431770828" flag="0"/>
			<vel value="0.0234074588248682" flag="0"/>
			<psa03 value="0.102083845887122" flag="0"/>
			<psa10 value="0.0103202627292566" flag="0"/>
			<psa30 value="0.000820935841303875" flag="0"/>
		</comp>
		<comp name="--.HNN" depth="0.0">
			<acc value="0.044271383830093" flag="0"/>
			<vel value="0.0257405406704176" flag="0"/>
			<psa03 value="0.143443533680122" flag="0"/>
			<psa10 value="0.0147076230578463" flag="0"/>
			<psa30 value="0.00173585738786613" flag="0"/>
		</comp>
		<comp name="--.HNZ" depth="0.0">
			<acc value="0.0416376523791538" flag="0"/>
			<vel value="0.0135899689561356" flag="0"/>
			<psa03 value="0.0781234617542645" flag="0"/>
			<psa10 value="0.00982001427775177" flag="0"/>
			<psa30 value="0.000506745861092984" flag="0"/>
		</comp>
	</station>
	<station code="RTH1" name="RTH1" netid="HI" source="ITSAK Strong Motion Network" insttype="" lat="35.365393" lon="24.471773" esm:processing="automatic (Paolucci et al 2011)" esm:quality="best">
		<comp name="--.HNE" depth="0.0">
			<acc value="0.939614357732691" flag="0"/>
			<vel value="0.405310125178616" flag="0"/>
			<psa03 value="3.30542896844696" flag="0"/>
			<psa10 value="0.087815517347048" flag="0"/>
			<psa30 value="0.00761789548152229" flag="0"/>
		</comp>
		<comp name="--.HNN" depth="0.0">
			<acc value="1.08567558180184" flag="0"/>
			<vel value="0.331640452883565" flag="0"/>
			<psa03 value="2.33972382855421" flag="0"/>
			<psa10 value="0.0585264895927024" flag="0"/>
			<psa30 value="0.0055927775773999" flag="0"/>
		</comp>
		<comp name="--.HNZ" depth="0.0">
			<acc value="0.42547718194132" flag="0"/>
			<vel value="0.158898399091347" flag="0"/>
			<psa03 value="1.03040350917552" flag="0"/>
			<psa10 value="0.0296063137729872" flag="0"/>
			<psa30 value="0.00249810069524435" flag="0"/>
		</comp>
	</station>
</stationlist>
