<?xml version="1.0" encoding="UTF-8" standalone="yes"?>
<!DOCTYPE earthquake SYSTEM "stationlist.dtd">
<stationlist created="" xmlns="ch.ethz.sed.shakemap.usgs.xml">
  <station code="IMMV" name="IMMV" netid="GE" insttype="STS-2/N" commtype="DIG" lat="35.4606" lon="23.9811">
    <comp name="--.HHE">
      <acc value="0.1446367160" flag="0"/>
      <vel value="0.0589692979" flag="0"/>
      <psa03 value="0.4207270690" flag="0"/>
      <psa10 value="0.0478325986" flag="0"/>
      <psa30 value="0.0028904469" flag="0"/>
    </comp>
    <comp name="--.HHN">
      <acc value="0.1595480191" flag="0"/>
      <vel value="0.0682698161" flag="0"/>
      <psa03 value="0.6147638095" flag="0"/>
      <psa10 value="0.0438725976" flag="0"/>
      <psa30 value="0.0032948858" flag="0"/>
    </comp>
  </station>
  <station code="IOSI" name="IOSI" netid="HA" insttype="60s," commtype="DIG" lat="36.7225" lon="25.2887">
    <comp name="--.HHZ">
      <acc value="0.1056047553" flag="0"/>
      <vel value="0.0247656346" flag="0"/>
      <psa03 value="0.0960024451" flag="0"/>
      <psa10 value="0.0100005008" flag="0"/>
      <psa30 value="0.0007540607" flag="0"/>
    </comp>
    <comp name="--.HHN">
      <acc value="0.0995746299" flag="0"/>
      <vel value="0.0259666138" flag="0"/>
      <psa03 value="0.2750656874" flag="0"/>
      <psa10 value="0.0112530209" flag="0"/>
      <psa30 value="0.0010851333" flag="0"/>
    </comp>
    <comp name="--.HHE">
      <acc value="0.1247479844" flag="0"/>
      <vel value="0.0335272099" flag="0"/>
      <psa03 value="0.2113980423" flag="0"/>
      <psa10 value="0.0215710865" flag="0"/>
      <psa30 value="0.0013892892" flag="0"/>
    </comp>
  </station>
  <station code="SNT1" name="SNT1" netid="HA" insttype="30" commtype="DIG" lat="36.4159" lon="25.4282">
    <comp name="--.HHE">
      <acc value="0.0750169415" flag="0"/>
      <vel value="0.0328483541" flag="0"/>
      <psa03 value="0.1491191849" flag="0"/>
      <psa10 value="0.0448772471" flag="0"/>
      <psa30 value="0.0032309056" flag="0"/>
    </comp>
    <comp name="--.HHN">
      <acc value="0.1019118596" flag="0"/>
      <vel value="0.0463775417" flag="0"/>
      <psa03 value="0.1562937346" flag="0"/>
      <psa10 value="0.0491584218" flag="0"/>
      <psa30 value="0.0049683355" flag="0"/>
    </comp>
    <comp name="--.HHZ">
      <acc value="0.0550670927" flag="0"/>
      <vel value="0.0213704364" flag="0"/>
      <psa03 value="0.1369994229" flag="0"/>
      <psa10 value="0.0136523641" flag="0"/>
      <psa30 value="0.0016796010" flag="0"/>
    </comp>
  </station>
  <station code="SNT5" name="SNT5" netid="HA" insttype="1s-100Hz," commtype="DIG" lat="36.4037" lon="25.3953">
    <comp name="--.HHE">
      <acc value="0.4159194006" flag="0"/>
      <vel value="0.1088283547" flag="0"/>
      <psa03 value="1.0052197019" flag="0"/>
      <psa10 value="0.0709456918" flag="0"/>
      <psa30 value="0.0059984492" flag="0"/>
    </comp>
    <comp name="--.HHZ">
      <acc value="0.0991512283" flag="0"/>
      <vel value="0.0270991802" flag="0"/>
      <psa03 value="0.1481417651" flag="0"/>
      <psa10 value="0.0200729937" flag="0"/>
      <psa30 value="0.0014891106" flag="0"/>
    </comp>
    <comp name="--.HHN">
      <acc value="0.2043060340" flag="0"/>
      <vel value="0.0704023425" flag="0"/>
      <psa03 value="0.3595663134" flag="0"/>
      <psa10 value="0.0334241614" flag="0"/>
      <psa30 value="0.0046233391" flag="0"/>
    </comp>
  </station>
  <station code="AGN1" name="AGN1" netid="HI" insttype="unknown" commtype="DIG" lat="35.1879" lon="25.7155">
    <comp name="--.HNE">
      <acc value="0.2585820957" flag="0"/>
      <vel value="0.0995066330" flag="0"/>
      <psa03 value="0.8432571374" flag="0"/>
      <psa10 value="0.0505533812" flag="0"/>
      <psa30 value="0.0041716960" flag="0"/>
    </comp>
    <comp name="--.HNN">
      <acc value="0.2141393786" flag="0"/>
      <vel value="0.0704856477" flag="0"/>
      <psa03 value="0.6228654923" flag="0"/>
      <psa10 value="0.0386853193" flag="0"/>
      <psa30 value="0.0031166359" flag="0"/>
    </comp>
    <comp name="--.HNZ">
      <acc value="0.1236157967" flag="0"/>
      <vel value="0.0366800703" flag="0"/>
      <psa03 value="0.2931018877" flag="0"/>
      <psa10 value="0.0166852644" flag="0"/>
      <psa30 value="0.0013188264" flag="0"/>
    </comp>
  </station>
  <station code="ARK1" name="ARK1" netid="HI" insttype="unknown" commtype="DIG" lat="35.1488" lon="25.2642">
    <comp name="--.HNE">
      <acc value="0.3855685038" flag="0"/>
      <vel value="0.1674062411" flag="0"/>
      <psa03 value="0.8613090623" flag="0"/>
      <psa10 value="0.0731798515" flag="0"/>
      <psa30 value="0.0062393787" flag="0"/>
    </comp>
    <comp name="--.HNZ">
      <acc value="0.3709035498" flag="0"/>
      <vel value="0.1078051641" flag="0"/>
      <psa03 value="0.4958575354" flag="0"/>
      <psa10 value="0.0809140950" flag="0"/>
      <psa30 value="0.0039540863" flag="0"/>
    </comp>
    <comp name="--.HNN">
      <acc value="0.4629289692" flag="0"/>
      <vel value="0.1462012600" flag="0"/>
      <psa03 value="0.8953624341" flag="0"/>
      <psa10 value="0.0897504939" flag="0"/>
      <psa30 value="0.0053277877" flag="0"/>
    </comp>
  </station>
  <station code="CH01" name="CH01" netid="HI" insttype="CMG-5TD,ACCELEROMETER,GURALP" commtype="DIG" lat="35.517" lon="24.0208">
    <comp name="--.HNE">
      <acc value="0.2443940637" flag="0"/>
      <vel value="0.0832561170" flag="0"/>
      <psa03 value="0.3823229391" flag="0"/>
      <psa10 value="0.0416566662" flag="0"/>
      <psa30 value="0.0031118109" flag="0"/>
    </comp>
    <comp name="--.HNN">
      <acc value="0.3501189174" flag="0"/>
      <vel value="0.1095626703" flag="0"/>
      <psa03 value="0.6002556274" flag="0"/>
      <psa10 value="0.0420867403" flag="0"/>
      <psa30 value="0.0034598482" flag="0"/>
    </comp>
    <comp name="--.HNZ">
      <acc value="0.1377068438" flag="0"/>
      <vel value="0.0419863203" flag="0"/>
      <psa03 value="0.1740410466" flag="0"/>
      <psa10 value="0.0275430043" flag="0"/>
      <psa30 value="0.0014080170" flag="0"/>
    </comp>
  </station>
  <station code="CH02" name="CH02" netid="HI" insttype="unknown" commtype="DIG" lat="35.5145" lon="24.0315">
    <comp name="--.HNE">
      <acc value="0.2072328711" flag="0"/>
      <vel value="0.0743955703" flag="0"/>
      <psa03 value="0.3460880472" flag="0"/>
      <psa10 value="0.0455571152" flag="0"/>
      <psa30 value="0.0033606985" flag="0"/>
    </comp>
    <comp name="--.HNZ">
      <acc value="0.1395985291" flag="0"/>
      <vel value="0.0449438757" flag="0"/>
      <psa03 value="0.1767702141" flag="0"/>
      <psa10 value="0.0303110917" flag="0"/>
      <psa30 value="0.0014757679" flag="0"/>
    </comp>
    <comp name="--.HNN">
      <acc value="0.3313307334" flag="0"/>
      <vel value="0.1127407089" flag="0"/>
      <psa03 value="0.8004340562" flag="0"/>
      <psa10 value="0.0433832633" flag="0"/>
      <psa30 value="0.0029874915" flag="0"/>
    </comp>
  </station>
  <station code="CH03" name="CH03" netid="HI" insttype="unknown" commtype="DIG" lat="35.533" lon="24.0705">
    <comp name="--.HNE">
      <acc value="0.1223817271" flag="0"/>
      <vel value="0.0497784836" flag="0"/>
      <psa03 value="0.2003731716" flag="0"/>
      <psa10 value="0.0395488650" flag="0"/>
      <psa30 value="0.0021482259" flag="0"/>
    </comp>
    <comp name="--.HNN">
      <acc value="0.1125306091" flag="0"/>
      <vel value="0.0421664378" flag="0"/>
      <psa03 value="0.2947147751" flag="0"/>
      <psa10 value="0.0353769706" flag="0"/>
      <psa30 value="0.0020539957" flag="0"/>
    </comp>
    <comp name="--.HNZ">
      <acc value="0.1188651131" flag="0"/>
      <vel value="0.0410465488" flag="0"/>
      <psa03 value="0.1987340603" flag="0"/>
      <psa10 value="0.0231690236" flag="0"/>
      <psa30 value="0.0010495892" flag="0"/>
    </comp>
  </station>
  <station code="GOR1" name="GOR1" netid="HI" insttype="unknown" commtype="DIG" lat="35.0582" lon="24.9628">
    <comp name="--.HNE">
      <acc value="0.3301853379" flag="0"/>
      <vel value="0.1277839222" flag="0"/>
      <psa03 value="0.9115740988" flag="0"/>
      <psa10 value="0.1373918455" flag="0"/>
      <psa30 value="0.0068122366" flag="0"/>
    </comp>
    <comp name="--.HNN">
      <acc value="0.3508403551" flag="0"/>
      <vel value="0.1442171557" flag="0"/>
      <psa03 value="0.6766516675" flag="0"/>
      <psa10 value="0.1255029919" flag="0"/>
      <psa30 value="0.0116532059" flag="0"/>
    </comp>
    <comp name="--.HNZ">
      <acc value="0.2982324001" flag="0"/>
      <vel value="0.0896707292" flag="0"/>
      <psa03 value="0.5677341649" flag="0"/>
      <psa10 value="0.0710817235" flag="0"/>
      <psa30 value="0.0052843531" flag="0"/>
    </comp>
  </station>
  <station code="HER1" name="HER1" netid="HI" insttype="unknown" commtype="DIG" lat="35.3177" lon="25.1022">
    <comp name="--.HNN">
      <acc value="1.1991857193" flag="0"/>
      <vel value="0.5099958739" flag="0"/>
      <psa03 value="2.6637046800" flag="0"/>
      <psa10 value="0.2550147072" flag="0"/>
      <psa30 value="0.0177837836" flag="0"/>
    </comp>
    <comp name="--.HNZ">
      <acc value="1.1393241807" flag="0"/>
      <vel value="0.3204751806" flag="0"/>
      <psa03 value="1.3233679111" flag="0"/>
      <psa10 value="0.2679846908" flag="0"/>
      <psa30 value="0.0137432214" flag="0"/>
    </comp>
    <comp name="--.HNE">
      <acc value="1.7995316562" flag="0"/>
      <vel value="0.5207977267" flag="0"/>
      <psa03 value="2.8274002416" flag="0"/>
      <psa10 value="0.2761055240" flag="0"/>
      <psa30 value="0.0219607717" flag="0"/>
    </comp>
  </station>
  <station code="HER3" name="HER3" netid="HI" insttype="unknown" commtype="DIG" lat="35.3296" lon="25.1065">
    <comp name="--.HNE">
      <acc value="2.1680178742" flag="0"/>
      <vel value="1.0476532679" flag="0"/>
      <psa03 value="6.0629960629" flag="0"/>
      <psa10 value="0.3355270960" flag="0"/>
      <psa30 value="0.0252826967" flag="0"/>
    </comp>
    <comp name="--.HNN">
      <acc value="2.0204037018" flag="0"/>
      <vel value="1.0242958203" flag="0"/>
      <psa03 value="6.7859881083" flag="0"/>
      <psa10 value="0.5434533368" flag="0"/>
      <psa30 value="0.0345334869" flag="0"/>
    </comp>
    <comp name="--.HNZ">
      <acc value="1.0548593887" flag="0"/>
      <vel value="0.5960476008" flag="0"/>
      <psa03 value="2.0914556618" flag="0"/>
      <psa10 value="0.2359771291" flag="0"/>
      <psa30 value="0.0163266097" flag="0"/>
    </comp>
  </station>
  <station code="KIS1" name="KIS1" netid="HI" insttype="unknown" commtype="DIG" lat="35.4939" lon="23.659">
    <comp name="--.HNE">
      <acc value="0.0871960798" flag="0"/>
      <vel value="0.0375785020" flag="0"/>
      <psa03 value="0.2246674759" flag="0"/>
      <psa10 value="0.0475135455" flag="0"/>
      <psa30 value="0.0021350855" flag="0"/>
    </comp>
    <comp name="--.HNN">
      <acc value="0.1230290562" flag="0"/>
      <vel value="0.0581822181" flag="0"/>
      <psa03 value="0.2140603911" flag="0"/>
      <psa10 value="0.0495066803" flag="0"/>
      <psa30 value="0.0022997260" flag="0"/>
    </comp>
    <comp name="--.HNZ">
      <acc value="0.0671209921" flag="0"/>
      <vel value="0.0332591006" flag="0"/>
      <psa03 value="0.1428695530" flag="0"/>
      <psa10 value="0.0338043316" flag="0"/>
      <psa30 value="0.0012569085" flag="0"/>
    </comp>
  </station>
  <station code="KTL1" name="KTL1" netid="HI" insttype="unknown" commtype="DIG" lat="35.2078" lon="25.3427">
    <comp name="--.HNE">
      <acc value="0.4301147523" flag="0"/>
      <vel value="0.1877280360" flag="0"/>
      <psa03 value="0.7173087122" flag="0"/>
      <psa10 value="0.0985262278" flag="0"/>
      <psa30 value="0.0050466081" flag="0"/>
    </comp>
    <comp name="--.HNZ">
      <acc value="0.2405282536" flag="0"/>
      <vel value="0.0809828388" flag="0"/>
      <psa03 value="0.5917271941" flag="0"/>
      <psa10 value="0.0552906378" flag="0"/>
      <psa30 value="0.0029284618" flag="0"/>
    </comp>
    <comp name="--.HNN">
      <acc value="0.6092205070" flag="0"/>
      <vel value="0.3146243269" flag="0"/>
      <psa03 value="1.6994829821" flag="0"/>
      <psa10 value="0.1201757013" flag="0"/>
      <psa30 value="0.0077034575" flag="0"/>
    </comp>
  </station>
  <station code="RTH1" name="RTH1" netid="HI" insttype="unknown" commtype="DIG" lat="35.3654" lon="24.4718">
    <comp name="--.HNE">
      <acc value="0.9447235017" flag="0"/>
      <vel value="0.4025059687" flag="0"/>
      <psa03 value="3.2547091517" flag="0"/>
      <psa10 value="0.0871637569" flag="0"/>
      <psa30 value="0.0076208810" flag="0"/>
    </comp>
    <comp name="--.HNZ">
      <acc value="0.4276948785" flag="0"/>
      <vel value="0.1563180179" flag="0"/>
      <psa03 value="1.0181229066" flag="0"/>
      <psa10 value="0.0292823989" flag="0"/>
      <psa30 value="0.0024388790" flag="0"/>
    </comp>
    <comp name="--.HNN">
      <acc value="1.0820142755" flag="0"/>
      <vel value="0.3285734927" flag="0"/>
      <psa03 value="2.3512478035" flag="0"/>
      <psa10 value="0.0579509946" flag="0"/>
      <psa30 value="0.0055384592" flag="0"/>
    </comp>
  </station>
  <station code="ANKY" name="ANKY" netid="HL" insttype="60" commtype="DIG" lat="35.867" lon="23.3012">
    <comp name="--.HHN">
      <acc value="0.0262897005" flag="0"/>
      <vel value="0.0160384572" flag="0"/>
      <psa03 value="0.0743398487" flag="0"/>
      <psa10 value="0.0238461408" flag="0"/>
      <psa30 value="0.0007739832" flag="0"/>
    </comp>
    <comp name="--.HHE">
      <acc value="0.0276282534" flag="0"/>
      <vel value="0.0148851818" flag="0"/>
      <psa03 value="0.0637321417" flag="0"/>
      <psa10 value="0.0192591319" flag="0"/>
      <psa30 value="0.0011719748" flag="0"/>
    </comp>
    <comp name="--.HHZ">
      <acc value="0.0243148066" flag="0"/>
      <vel value="0.0118299292" flag="0"/>
      <psa03 value="0.0628488658" flag="0"/>
      <psa10 value="0.0070084889" flag="0"/>
      <psa30 value="0.0005259485" flag="0"/>
    </comp>
  </station>
  <station code="CHNB" name="CHNB" netid="HL" insttype="CMG-5" commtype="DIG" lat="35.4877" lon="24.0661">
    <comp name="00.HNN">
      <acc value="0.2783464928" flag="0"/>
      <vel value="0.1306264625" flag="0"/>
      <psa03 value="0.7085674317" flag="0"/>
      <psa10 value="0.1252139395" flag="0"/>
      <psa30 value="0.0059957695" flag="0"/>
    </comp>
    <comp name="00.HNE">
      <acc value="0.3368269830" flag="0"/>
      <vel value="0.1594329748" flag="0"/>
      <psa03 value="0.8435452214" flag="0"/>
      <psa10 value="0.1389961011" flag="0"/>
      <psa30 value="0.0063851090" flag="0"/>
    </comp>
    <comp name="00.HNZ">
      <acc value="0.2583208631" flag="0"/>
      <vel value="0.1138803413" flag="0"/>
      <psa03 value="0.6997082614" flag="0"/>
      <psa10 value="0.0346814918" flag="0"/>
      <psa30 value="0.0027350079" flag="0"/>
    </comp>
  </station>
  <station code="HERG" name="HERG" netid="HL" insttype="CMG-5" commtype="DIG" lat="35.3262" lon="25.0659">
    <comp name="00.HNZ">
      <acc value="0.5626691852" flag="0"/>
      <vel value="0.2186746617" flag="0"/>
      <psa03 value="0.8167647812" flag="0"/>
      <psa10 value="0.1655796367" flag="0"/>
      <psa30 value="0.0092193721" flag="0"/>
    </comp>
    <comp name="00.HNE">
      <acc value="0.5658072337" flag="0"/>
      <vel value="0.2425677764" flag="0"/>
      <psa03 value="1.6308122738" flag="0"/>
      <psa10 value="0.2452887572" flag="0"/>
      <psa30 value="0.0085086699" flag="0"/>
    </comp>
    <comp name="00.HNN">
      <acc value="0.7648541633" flag="0"/>
      <vel value="0.3138202039" flag="0"/>
      <psa03 value="1.4700244993" flag="0"/>
      <psa10 value="0.2896717084" flag="0"/>
      <psa30 value="0.0168432727" flag="0"/>
    </comp>
  </station>
  <station code="IACM" name="IACM" netid="HL" insttype="120" commtype="DIG" lat="35.3058" lon="25.0709">
    <comp name="--.HHN">
      <acc value="1.4915378387" flag="0"/>
      <vel value="0.5547787760" flag="0"/>
      <psa03 value="3.3001209852" flag="0"/>
      <psa10 value="0.3366078447" flag="0"/>
      <psa30 value="0.0170424504" flag="0"/>
    </comp>
    <comp name="--.HHE">
      <acc value="1.6580740350" flag="0"/>
      <vel value="0.7150510233" flag="0"/>
      <psa03 value="4.5353938648" flag="0"/>
      <psa10 value="0.3486390677" flag="0"/>
      <psa30 value="0.0159995407" flag="0"/>
    </comp>
    <comp name="--.HHZ">
      <acc value="1.1345868598" flag="0"/>
      <vel value="0.3382539577" flag="0"/>
      <psa03 value="1.7351296929" flag="0"/>
      <psa10 value="0.1723011604" flag="0"/>
      <psa30 value="0.0113597266" flag="0"/>
    </comp>
  </station>
  <station code="IMMV" name="IMMV" netid="HL" insttype="120" commtype="DIG" lat="35.4606" lon="23.9811">
    <comp name="--.HHN">
      <acc value="0.1547628734" flag="0"/>
      <vel value="0.0665041032" flag="0"/>
      <psa03 value="0.5966378699" flag="0"/>
      <psa10 value="0.0435572687" flag="0"/>
      <psa30 value="0.0032638654" flag="0"/>
    </comp>
    <comp name="--.HHE">
      <acc value="0.1405096222" flag="0"/>
      <vel value="0.0575417154" flag="0"/>
      <psa03 value="0.4084420777" flag="0"/>
      <psa10 value="0.0474702948" flag="0"/>
      <psa30 value="0.0028812467" flag="0"/>
    </comp>
    <comp name="--.HHZ">
      <acc value="0.1135350583" flag="0"/>
      <vel value="0.0555692486" flag="0"/>
      <psa03 value="0.2916598525" flag="0"/>
      <psa10 value="0.0265298203" flag="0"/>
      <psa30 value="0.0016831368" flag="0"/>
    </comp>
  </station>
  <station code="MHLO" name="MHLO" netid="HL" insttype="20" commtype="DIG" lat="36.6898" lon="24.4017">
    <comp name="--.HHE">
      <acc value="0.2398675172" flag="0"/>
      <vel value="0.1300743361" flag="0"/>
      <psa03 value="0.7374720631" flag="0"/>
      <psa10 value="0.1255039300" flag="0"/>
      <psa30 value="0.0080358411" flag="0"/>
    </comp>
    <comp name="--.HHZ">
      <acc value="0.1103298099" flag="0"/>
      <vel value="0.0623659837" flag="0"/>
      <psa03 value="0.3321971827" flag="0"/>
      <psa10 value="0.0738217439" flag="0"/>
      <psa30 value="0.0030611511" flag="0"/>
    </comp>
    <comp name="--.HHN">
      <acc value="0.1939226186" flag="0"/>
      <vel value="0.1082893967" flag="0"/>
      <psa03 value="0.4750751411" flag="0"/>
      <psa10 value="0.1505806824" flag="0"/>
      <psa30 value="0.0060878480" flag="0"/>
    </comp>
  </station>
  <station code="MILA" name="MILA" netid="HL" insttype="CMG-5" commtype="DIG" lat="36.7429" lon="24.4282">
    <comp name="00.HNE">
      <acc value="0.0936511571" flag="0"/>
      <vel value="0.0465684265" flag="0"/>
      <psa03 value="0.2290010732" flag="0"/>
      <psa10 value="0.0430551755" flag="0"/>
      <psa30 value="0.0042819222" flag="0"/>
    </comp>
    <comp name="00.HNN">
      <acc value="0.1268686532" flag="0"/>
      <vel value="0.0634415151" flag="0"/>
      <psa03 value="0.3844842837" flag="0"/>
      <psa10 value="0.0774124725" flag="0"/>
      <psa30 value="0.0042482673" flag="0"/>
    </comp>
    <comp name="00.HNZ">
      <acc value="0.0790092223" flag="0"/>
      <vel value="0.0339749277" flag="0"/>
      <psa03 value="0.1594858322" flag="0"/>
      <psa10 value="0.0567873123" flag="0"/>
      <psa30 value="0.0027759877" flag="0"/>
    </comp>
  </station>
  <station code="NPS" name="NPS" netid="HL" insttype="CMG3ESPC-120s" commtype="DIG" lat="35.2613" lon="25.6104">
    <comp name="--.HHE">
      <acc value="0.0639565061" flag="0"/>
      <vel value="0.0274997421" flag="0"/>
      <psa03 value="0.1521321013" flag="0"/>
      <psa10 value="0.0225576863" flag="0"/>
      <psa30 value="0.0009460908" flag="0"/>
    </comp>
