<?xml version="1.0" encoding="UTF-8" standalone="yes"?>
<!DOCTYPE earthquake SYSTEM "stationlist.dtd">
<stationlist created="" xmlns="ch.ethz.sed.shakemap.usgs.xml">
  <station code="ADVT" name="ADVT" netid="KO" insttype="120s," lat="40.4332" lon="29.7383">
    <comp name="--.HHZ">
      <acc value="0.0181776487" flag="0"/>
      <vel value="0.0085434948" flag="0"/>
      <psa03 value="0.0479753936" flag="0"/>
      <psa10 value="0.0087640612" flag="0"/>
      <psa30 value="0.0003697475" flag="0"/>
    </comp>
    <comp name="--.HHN">
      <acc value="0.0417505880" flag="0"/>
      <vel value="0.0258931351" flag="0"/>
      <psa03 value="0.0798320117" flag="0"/>
      <psa10 value="0.0124119839" flag="0"/>
      <psa30 value="0.0015475901" flag="0"/>
    </comp>
    <comp name="--.HHE">
      <acc value="0.0269413617" flag="0"/>
      <vel value="0.0155062843" flag="0"/>
      <psa03 value="0.0720054485" flag="0"/>
      <psa10 value="0.0204642298" flag="0"/>
      <psa30 value="0.0009615162" flag="0"/>
    </comp>
  </station>
  <station code="CAVI" name="CAVI" netid="KO" insttype="120s," lat="40.2018" lon="29.8377">
    <comp name="--.HHN">
      <acc value="0.0135411115" flag="0"/>
      <vel value="0.0109152862" flag="0"/>
      <psa03 value="0.0370297977" flag="0"/>
      <psa10 value="0.0141696264" flag="0"/>
      <psa30 value="0.0011153500" flag="0"/>
    </comp>
    <comp name="--.HHZ">
      <acc value="0.0084804969" flag="0"/>
      <vel value="0.0092479139" flag="0"/>
      <psa03 value="0.0160040124" flag="0"/>
      <psa10 value="0.0117229829" flag="0"/>
      <psa30 value="0.0008553933" flag="0"/>
    </comp>
    <comp name="--.HHE">
      <acc value="0.0144669937" flag="0"/>
      <vel value="0.0174338713" flag="0"/>
      <psa03 value="0.0285716077" flag="0"/>
      <psa10 value="0.0209213425" flag="0"/>
      <psa30 value="0.0020579745" flag="0"/>
    </comp>
  </station>
  <station code="GEML" name="GEML" netid="KO" insttype="120s," lat="40.4646" lon="29.2116">
    <comp name="--.HHE">
      <acc value="0.0272352332" flag="0"/>
      <vel value="0.0141618751" flag="0"/>
      <psa03 value="0.0627955497" flag="0"/>
      <psa10 value="0.0156473037" flag="0"/>
      <psa30 value="0.0006132883" flag="0"/>
    </comp>
    <comp name="--.HHZ">
      <acc value="0.0143043987" flag="0"/>
      <vel value="0.0057359270" flag="0"/>
      <psa03 value="0.0363935965" flag="0"/>
      <psa10 value="0.0080962558" flag="0"/>
      <psa30 value="0.0004439384" flag="0"/>
    </comp>
    <comp name="--.HHN">
      <acc value="0.0236789160" flag="0"/>
      <vel value="0.0100140929" flag="0"/>
      <psa03 value="0.0746579311" flag="0"/>
      <psa10 value="0.0136100306" flag="0"/>
      <psa30 value="0.0013600004" flag="0"/>
    </comp>
  </station>
  <station code="GPA" name="GPA" netid="KO" insttype="CMG-5T" lat="40.2911" lon="30.3171">
    <comp name="--.HNE">
      <acc value="0.0320133181" flag="0"/>
      <vel value="0.0131016741" flag="0"/>
      <psa03 value="0.0996864374" flag="0"/>
      <psa10 value="0.0100841554" flag="0"/>
      <psa30 value="0.0009055270" flag="0"/>
    </comp>
    <comp name="--.HNN">
      <acc value="0.0375195758" flag="0"/>
      <vel value="0.0174214001" flag="0"/>
      <psa03 value="0.1177429841" flag="0"/>
      <psa10 value="0.0161065594" flag="0"/>
      <psa30 value="0.0017801170" flag="0"/>
    </comp>
    <comp name="--.HNZ">
      <acc value="0.0165317122" flag="0"/>
      <vel value="0.0080865722" flag="0"/>
      <psa03 value="0.0274493997" flag="0"/>
      <psa10 value="0.0092564739" flag="0"/>
      <psa30 value="0.0008888361" flag="0"/>
    </comp>
  </station>
  <station code="HRTX" name="HRTX" netid="KO" insttype="-3ESP," lat="40.801" lon="29.673">
    <comp name="--.HHZ">
      <acc value="0.0007390667" flag="0"/>
      <vel value="0.0002446660" flag="0"/>
      <psa03 value="0.0018318676" flag="0"/>
      <psa10 value="0.0003610102" flag="0"/>
      <psa30 value="0.0000356440" flag="0"/>
    </comp>
    <comp name="--.HHN">
      <acc value="0.0011982029" flag="0"/>
      <vel value="0.0005029721" flag="0"/>
      <psa03 value="0.0030424016" flag="0"/>
      <psa10 value="0.0004789818" flag="0"/>
      <psa30 value="0.0000294803" flag="0"/>
    </comp>
    <comp name="--.HHE">
      <acc value="0.0011567404" flag="0"/>
      <vel value="0.0005568751" flag="0"/>
      <psa03 value="0.0025881325" flag="0"/>
      <psa10 value="0.0005486600" flag="0"/>
      <psa30 value="0.0000524584" flag="0"/>
    </comp>
  </station>
  <station code="IZI" name="IZI" netid="KO" insttype="CMG-5T" lat="40.3483" lon="29.4612">
    <comp name="--.HNE">
      <acc value="0.0195411843" flag="0"/>
      <vel value="0.0150263650" flag="0"/>
      <psa03 value="0.0510527404" flag="0"/>
      <psa10 value="0.0199568020" flag="0"/>
      <psa30 value="0.0012275068" flag="0"/>
    </comp>
    <comp name="--.HNN">
      <acc value="0.0217549138" flag="0"/>
      <vel value="0.0202041025" flag="0"/>
      <psa03 value="0.0375606254" flag="0"/>
      <psa10 value="0.0252963580" flag="0"/>
      <psa30 value="0.0024993401" flag="0"/>
    </comp>
    <comp name="--.HNZ">
      <acc value="0.0084574803" flag="0"/>
      <vel value="0.0067265049" flag="0"/>
      <psa03 value="0.0275449517" flag="0"/>
      <psa10 value="0.0094201593" flag="0"/>
      <psa30 value="0.0008391941" flag="0"/>
    </comp>
  </station>
  <station code="RUZG" name="RUZG" netid="KO" insttype="30s," lat="40.7243" lon="31.7936">
    <comp name="--.HHE">
      <acc value="0.0768295293" flag="0"/>
      <vel value="0.0318093636" flag="0"/>
      <psa03 value="0.2109924913" flag="0"/>
      <psa10 value="0.0469449085" flag="0"/>
      <psa30 value="0.0023357493" flag="0"/>
    </comp>
    <comp name="--.HHZ">
      <acc value="0.0555131524" flag="0"/>
      <vel value="0.0288863550" flag="0"/>
      <psa03 value="0.1673331293" flag="0"/>
      <psa10 value="0.0147734489" flag="0"/>
      <psa30 value="0.0011142225" flag="0"/>
    </comp>
    <comp name="--.HHN">
      <acc value="0.0847675834" flag="0"/>
      <vel value="0.0358087731" flag="0"/>
      <psa03 value="0.2678135389" flag="0"/>
      <psa10 value="0.0294755726" flag="0"/>
      <psa30 value="0.0020548996" flag="0"/>
    </comp>
  </station>
  <station code="SAUV" name="SAUV" netid="KO" insttype="30s," lat="40.7402" lon="30.3272">
    <comp name="--.HHE">
      <acc value="0.2201088608" flag="0"/>
      <vel value="0.0585477875" flag="0"/>
      <psa03 value="0.2810602126" flag="0"/>
      <psa10 value="0.0239280080" flag="0"/>
      <psa30 value="0.0024364561" flag="0"/>
    </comp>
    <comp name="--.HHN">
      <acc value="0.1464751506" flag="0"/>
      <vel value="0.0304874161" flag="0"/>
      <psa03 value="0.0683264134" flag="0"/>
      <psa10 value="0.0223795062" flag="0"/>
      <psa30 value="0.0034643221" flag="0"/>
    </comp>
    <comp name="--.HHZ">
      <acc value="0.1479477153" flag="0"/>
      <vel value="0.0266914343" flag="0"/>
      <psa03 value="0.1110280175" flag="0"/>
      <psa10 value="0.0269552380" flag="0"/>
      <psa30 value="0.0017901806" flag="0"/>
    </comp>
  </station>
  <station code="TUZL" name="TUZL" netid="KO" insttype="CMG-5T" lat="40.8128" lon="29.2657">
    <comp name="--.HNE">
      <acc value="0.0693792467" flag="0"/>
      <vel value="0.0255109275" flag="0"/>
      <psa03 value="0.2065655029" flag="0"/>
      <psa10 value="0.0089604001" flag="0"/>
      <psa30 value="0.0005586870" flag="0"/>
    </comp>
    <comp name="--.HNZ">
      <acc value="0.0155767723" flag="0"/>
      <vel value="0.0077001406" flag="0"/>
      <psa03 value="0.0242785058" flag="0"/>
      <psa10 value="0.0062148964" flag="0"/>
      <psa30 value="0.0006205623" flag="0"/>
    </comp>
    <comp name="--.HNN">
      <acc value="0.0499336437" flag="0"/>
      <vel value="0.0196376229" flag="0"/>
      <psa03 value="0.0782691428" flag="0"/>
      <psa10 value="0.0129169892" flag="0"/>
      <psa30 value="0.0012824907" flag="0"/>
    </comp>
  </station>
  <station code="YLV" name="YLV" netid="KO" insttype="120s," lat="40.5658" lon="29.3708">
    <comp name="--.HHE">
      <acc value="0.0401087293" flag="0"/>
      <vel value="0.0249907858" flag="0"/>
      <psa03 value="0.0885792876" flag="0"/>
      <psa10 value="0.0332997409" flag="0"/>
      <psa30 value="0.0019079784" flag="0"/>
    </comp>
    <comp name="--.HHN">
      <acc value="0.0312246061" flag="0"/>
      <vel value="0.0212627785" flag="0"/>
      <psa03 value="0.1483346889" flag="0"/>
      <psa10 value="0.0245754961" flag="0"/>
      <psa30 value="0.0008405086" flag="0"/>
    </comp>
    <comp name="--.HHZ">
      <acc value="0.0165157393" flag="0"/>
      <vel value="0.0183040821" flag="0"/>
      <psa03 value="0.0369727242" flag="0"/>
      <psa10 value="0.0308331478" flag="0"/>
      <psa30 value="0.0011582012" flag="0"/>
    </comp>
  </station>
</stationlist>
