<?xml version="1.0" encoding="UTF-8" standalone="yes"?>
<!DOCTYPE earthquake SYSTEM "stationlist.dtd">
<stationlist created="" xmlns="ch.ethz.sed.shakemap.usgs.xml">
  <station code="BISRR" name="BISRR" netid="RO" insttype="CMG40T.1to100/Basalt" lat="45.5481" lon="26.7099">
    <comp name="--.HHE">
      <acc value="0.0207786599" flag="0"/>
      <vel value="0.0106300018" flag="0"/>
      <psa03 value="0.0608567703" flag="0"/>
      <psa10 value="0.0098142923" flag="0"/>
      <psa30 value="0.0004863642" flag="0"/>
    </comp>
    <comp name="--.HHN">
      <acc value="0.0002765227" flag="0"/>
      <vel value="0.0001018317" flag="0"/>
      <psa03 value="0.0003961273" flag="0"/>
      <psa10 value="0.0000353692" flag="0"/>
      <psa30 value="0.0000057331" flag="0"/>
    </comp>
    <comp name="--.HHZ">
      <acc value="0.0273459782" flag="0"/>
      <vel value="0.0051349262" flag="0"/>
      <psa03 value="0.0295024648" flag="0"/>
      <psa10 value="0.0056042887" flag="0"/>
      <psa30 value="0.0002791262" flag="0"/>
    </comp>
  </station>
  <station code="GHRR" name="GHRR" netid="RO" insttype="w/attenuator" lat="46.0605" lon="27.408">
    <comp name="--.HHN">
      <acc value="0.0416826440" flag="0"/>
      <vel value="0.0187839323" flag="0"/>
      <psa03 value="0.1305207758" flag="0"/>
      <psa10 value="0.0077672506" flag="0"/>
      <psa30 value="0.0004936676" flag="0"/>
    </comp>
    <comp name="--.HHE">
      <acc value="0.0461929518" flag="0"/>
      <vel value="0.0124853745" flag="0"/>
      <psa03 value="0.0709923750" flag="0"/>
      <psa10 value="0.0037832935" flag="0"/>
      <psa30 value="0.0003491351" flag="0"/>
    </comp>
    <comp name="--.HHZ">
      <acc value="0.0410643437" flag="0"/>
      <vel value="0.0109141182" flag="0"/>
      <psa03 value="0.0681748320" flag="0"/>
      <psa10 value="0.0032176495" flag="0"/>
      <psa30 value="0.0002558792" flag="0"/>
    </comp>
  </station>
  <station code="MLR" name="MLR" netid="RO" insttype="330HR" lat="45.4909" lon="25.945">
    <comp name="--.HHE">
      <acc value="0.0433931196" flag="0"/>
      <vel value="0.0371466780" flag="0"/>
      <psa03 value="0.1305702398" flag="0"/>
      <psa10 value="0.0352909639" flag="0"/>
      <psa30 value="0.0031058806" flag="0"/>
    </comp>
    <comp name="--.HHN">
      <acc value="0.0487878428" flag="0"/>
      <vel value="0.0375483559" flag="0"/>
      <psa03 value="0.1480068046" flag="0"/>
      <psa10 value="0.0230825309" flag="0"/>
      <psa30 value="0.0028187137" flag="0"/>
    </comp>
    <comp name="--.HHZ">
      <acc value="0.0056044267" flag="0"/>
      <vel value="0.0042923676" flag="0"/>
      <psa03 value="0.0190720940" flag="0"/>
      <psa10 value="0.0023384693" flag="0"/>
      <psa30 value="0.0001889549" flag="0"/>
    </comp>
  </station>
  <station code="PLOR" name="PLOR" netid="RO" insttype="330" lat="45.8512" lon="26.6498">
    <comp name="--.HHN">
      <acc value="0.0052657998" flag="0"/>
      <vel value="0.0027699362" flag="0"/>
      <psa03 value="0.0129065612" flag="0"/>
      <psa10 value="0.0012028650" flag="0"/>
      <psa30 value="0.0000799531" flag="0"/>
    </comp>
    <comp name="--.HHZ">
      <acc value="0.0066659182" flag="0"/>
      <vel value="0.0015782054" flag="0"/>
      <psa03 value="0.0062452271" flag="0"/>
      <psa10 value="0.0004209964" flag="0"/>
      <psa30 value="0.0000302839" flag="0"/>
    </comp>
    <comp name="--.HHE">
      <acc value="0.0063259063" flag="0"/>
      <vel value="0.0028089278" flag="0"/>
      <psa03 value="0.0165932055" flag="0"/>
      <psa10 value="0.0009683422" flag="0"/>
      <psa30 value="0.0000854153" flag="0"/>
    </comp>
  </station>
  <station code="PLOR4" name="PLOR4" netid="RO" insttype="330" lat="45.8512" lon="26.6498">
    <comp name="--.HHZ">
      <acc value="0.0066659182" flag="0"/>
      <vel value="0.0015782054" flag="0"/>
      <psa03 value="0.0062452271" flag="0"/>
      <psa10 value="0.0004209964" flag="0"/>
      <psa30 value="0.0000302839" flag="0"/>
    </comp>
    <comp name="--.HHN">
      <acc value="0.0052657998" flag="0"/>
      <vel value="0.0027699362" flag="0"/>
      <psa03 value="0.0129065612" flag="0"/>
      <psa10 value="0.0012028650" flag="0"/>
      <psa30 value="0.0000799531" flag="0"/>
    </comp>
    <comp name="--.HHE">
      <acc value="0.0063259063" flag="0"/>
      <vel value="0.0028089278" flag="0"/>
      <psa03 value="0.0165932055" flag="0"/>
      <psa10 value="0.0009683422" flag="0"/>
      <psa30 value="0.0000854153" flag="0"/>
    </comp>
  </station>
  <station code="SULR" name="SULR" netid="RO" insttype="200" lat="44.6777" lon="26.2526">
    <comp name="--.HNE">
      <acc value="0.0163344512" flag="0"/>
      <vel value="0.0112496604" flag="0"/>
      <psa03 value="0.0232509807" flag="0"/>
      <psa10 value="0.0081114299" flag="0"/>
      <psa30 value="0.0005993488" flag="0"/>
    </comp>
    <comp name="--.HNN">
      <acc value="0.0163660052" flag="0"/>
      <vel value="0.0067169058" flag="0"/>
      <psa03 value="0.0327189451" flag="0"/>
      <psa10 value="0.0028546248" flag="0"/>
      <psa30 value="0.0002628563" flag="0"/>
    </comp>
    <comp name="--.HNZ">
      <acc value="0.0183680554" flag="0"/>
      <vel value="0.0030664515" flag="0"/>
      <psa03 value="0.0128982657" flag="0"/>
      <psa10 value="0.0007439566" flag="0"/>
      <psa30 value="0.0000856753" flag="0"/>
    </comp>
  </station>
  <station code="VRI" name="VRI" netid="RO" insttype="Linear" lat="45.8657" lon="26.7277">
    <comp name="--.HHN">
      <acc value="0.0130209485" flag="0"/>
      <vel value="0.0048473357" flag="0"/>
      <psa03 value="0.0390902820" flag="0"/>
      <psa10 value="0.0020113381" flag="0"/>
      <psa30 value="0.0001374435" flag="0"/>
    </comp>
    <comp name="--.HHE">
      <acc value="0.0277826674" flag="0"/>
      <vel value="0.0106686491" flag="0"/>
      <psa03 value="0.1150782840" flag="0"/>
      <psa10 value="0.0026580678" flag="0"/>
      <psa30 value="0.0002748965" flag="0"/>
    </comp>
    <comp name="--.HHZ">
      <acc value="0.0229324483" flag="0"/>
      <vel value="0.0063150207" flag="0"/>
      <psa03 value="0.0216400875" flag="0"/>
      <psa10 value="0.0012538536" flag="0"/>
      <psa30 value="0.0001600004" flag="0"/>
    </comp>
  </station>
</stationlist>
