<?xml version="1.0" encoding="UTF-8" standalone="yes"?>
<!DOCTYPE earthquake SYSTEM "stationlist.dtd">
<stationlist created="" xmlns="ch.ethz.sed.shakemap.usgs.xml">
  <station code="APEC" name="APEC" netid="IV" insttype="" lat="43.5585" lon="12.4199">
    <comp name="--.HHN">
      <acc value="0.0170011353" flag="0"/>
      <vel value="0.0118135837" flag="0"/>
      <psa03 value="0.0433775497" flag="0"/>
      <psa10 value="0.0064920530" flag="0"/>
      <psa30 value="0.0004129609" flag="0"/>
    </comp>
    <comp name="--.HHE">
      <acc value="0.0099024654" flag="0"/>
      <vel value="0.0055089954" flag="0"/>
      <psa03 value="0.0260591549" flag="0"/>
      <psa10 value="0.0045250174" flag="0"/>
      <psa30 value="0.0002646898" flag="0"/>
    </comp>
    <comp name="--.HHZ">
      <acc value="0.0071076910" flag="0"/>
      <vel value="0.0038706351" flag="0"/>
      <psa03 value="0.0207637132" flag="0"/>
      <psa10 value="0.0033738412" flag="0"/>
      <psa30 value="0.0003363801" flag="0"/>
    </comp>
  </station>
  <station code="ATPC" name="ATPC" netid="IV" insttype="" lat="43.4807" lon="12.457">
    <comp name="--.HHZ">
      <acc value="0.0047977458" flag="0"/>
      <vel value="0.0025730694" flag="0"/>
      <psa03 value="0.0129933497" flag="0"/>
      <psa10 value="0.0028839548" flag="0"/>
      <psa30 value="0.0002483741" flag="0"/>
    </comp>
    <comp name="--.HHN">
      <acc value="0.0086912942" flag="0"/>
      <vel value="0.0062244612" flag="0"/>
      <psa03 value="0.0212099510" flag="0"/>
      <psa10 value="0.0051267717" flag="0"/>
      <psa30 value="0.0004448929" flag="0"/>
    </comp>
    <comp name="--.HHE">
      <acc value="0.0163195583" flag="0"/>
      <vel value="0.0075470996" flag="0"/>
      <psa03 value="0.0290084390" flag="0"/>
      <psa10 value="0.0090022336" flag="0"/>
      <psa30 value="0.0004872672" flag="0"/>
    </comp>
  </station>
  <station code="RSM2" name="RSM2" netid="IV" insttype="" lat="43.9377" lon="12.4451">
    <comp name="--.HHE">
      <acc value="0.0024188297" flag="0"/>
      <vel value="0.0039914961" flag="0"/>
      <psa03 value="0.0071557670" flag="0"/>
      <psa10 value="0.0051270062" flag="0"/>
      <psa30 value="0.0017848860" flag="0"/>
    </comp>
    <comp name="--.HHZ">
      <acc value="0.0020063096" flag="0"/>
      <vel value="0.0019718742" flag="0"/>
      <psa03 value="0.0033264929" flag="0"/>
      <psa10 value="0.0040108351" flag="0"/>
      <psa30 value="0.0005533101" flag="0"/>
    </comp>
    <comp name="--.HHN">
      <acc value="0.0040767201" flag="0"/>
      <vel value="0.0036958537" flag="0"/>
      <psa03 value="0.0081533311" flag="0"/>
      <psa10 value="0.0085874722" flag="0"/>
      <psa30 value="0.0009004819" flag="0"/>
    </comp>
  </station>
</stationlist>
