<stationlist xmlns:esm="https://esm-db.eu/esmws/shakemap/1/" created="1781834051">
	<station code="ANB" name="ANB" netid="IT" source="Italian Strong Motion Network (RAN)" insttype="" lat="43.5922" lon="13.5074" esm:processing="manual (Paolucci et al 2011)" esm:quality="good">
		<comp name="--.HGE" depth="0.0">
			<acc value="0.58687825150926" flag="0"/>
			<vel value="0.335291351759" flag="0"/>
			<psa03 value="1.43159983646331" flag="0"/>
			<psa10 value="0.162943359197724" flag="0"/>
			<psa30 value="0.0103406483505502" flag="0"/>
		</comp>
		<comp name="--.HGN" depth="0.0">
			<acc value="0.79838289564324" flag="0"/>
			<vel value="0.329895742777" flag="0"/>
			<psa03 value="2.31739351594514" flag="0"/>
			<psa10 value="0.108417327116011" flag="0"/>
			<psa30 value="0.0077329364357518" flag="0"/>
		</comp>
		<comp name="--.HGZ" depth="0.0">
			<acc value="0.29209995142086" flag="0"/>
			<vel value="0.116970089494" flag="0"/>
			<psa03 value="0.997724177661619" flag="0"/>
			<psa10 value="0.0467805464814666" flag="0"/>
			<psa30 value="0.0030390831993489" flag="0"/>
		</comp>
	</station>
	<station code="FSS" name="FSS" netid="IT" source="Italian Strong Motion Network (RAN)" insttype="" lat="43.6905" lon="12.8101" esm:processing="manual (Paolucci et al 2011)" esm:quality="good">
		<comp name="--.HGE" depth="0.0">
			<acc value="0.036865909803642" flag="0"/>
			<vel value="0.00541981434316" flag="0"/>
			<psa03 value="0.0153224759763171" flag="0"/>
			<psa10 value="0.00431838622815347" flag="0"/>
			<psa30 value="0.000744929243739654" flag="0"/>
		</comp>
		<comp name="--.HGN" depth="0.0">
			<acc value="0.026437764538164" flag="0"/>
			<vel value="0.00432758930419" flag="0"/>
			<psa03 value="0.0122337869908675" flag="0"/>
			<psa10 value="0.0040571382967665" flag="0"/>
			<psa30 value="0.000756259421391471" flag="0"/>
		</comp>
		<comp name="--.HGZ" depth="0.0">
			<acc value="0.018308952062448" flag="0"/>
			<vel value="0.00331120960749" flag="0"/>
			<psa03 value="0.00911728626714405" flag="0"/>
			<psa10 value="0.00402700926961285" flag="0"/>
			<psa30 value="0.00049648502511249" flag="0"/>
		</comp>
	</station>
	<station code="GBB" name="GBB" netid="IT" source="Italian Strong Motion Network (RAN)" insttype="" lat="43.3569" lon="12.5972" esm:processing="manual (Paolucci et al 2011)" esm:quality="good">
		<comp name="--.HGE" depth="0.0">
			<acc value="0.018299076948054" flag="0"/>
			<vel value="0.00762335480823" flag="0"/>
			<psa03 value="0.0350112672412995" flag="0"/>
			<psa10 value="0.00426951861590806" flag="0"/>
			<psa30 value="0.000613116605549951" flag="0"/>
		</comp>
		<comp name="--.HGN" depth="0.0">
			<acc value="0.018686003472756" flag="0"/>
			<vel value="0.00750957425415" flag="0"/>
			<psa03 value="0.0440441468752608" flag="0"/>
			<psa10 value="0.00553851971226115" flag="0"/>
			<psa30 value="0.000457357068495693" flag="0"/>
		</comp>
		<comp name="--.HGZ" depth="0.0">
			<acc value="0.013094319974856" flag="0"/>
			<vel value="0.00442003142496" flag="0"/>
			<psa03 value="0.0280953924318649" flag="0"/>
			<psa10 value="0.00479270218050046" flag="0"/>
			<psa30 value="0.000441192143481049" flag="0"/>
		</comp>
	</station>
	<station code="JESI" name="JESI" netid="IT" source="Italian Strong Motion Network (RAN)" insttype="" lat="43.5292" lon="13.2289" esm:processing="manual (Paolucci et al 2011)" esm:quality="good">
		<comp name="--.HNE" depth="0.0">
			<acc value="0.12537403965708" flag="0"/>
			<vel value="0.0414995133508" flag="0"/>
			<psa03 value="0.192549797145637" flag="0"/>
			<psa10 value="0.047172004913733" flag="0"/>
			<psa30 value="0.00259909863586355" flag="0"/>
		</comp>
		<comp name="--.HNN" depth="0.0">
			<acc value="0.14299025506446" flag="0"/>
			<vel value="0.0427748936299" flag="0"/>
			<psa03 value="0.281362638893845" flag="0"/>
			<psa10 value="0.0331336211897974" flag="0"/>
			<psa30 value="0.00337318554031933" flag="0"/>
		</comp>
		<comp name="--.HNZ" depth="0.0">
			<acc value="0.039223941568704" flag="0"/>
			<vel value="0.0129395177892" flag="0"/>
			<psa03 value="0.0892688823754511" flag="0"/>
			<psa10 value="0.0141395851156251" flag="0"/>
			<psa30 value="0.00223389840147408" flag="0"/>
		</comp>
	</station>
	<station code="MBRC" name="MBRC" netid="IT" source="Italian Strong Motion Network (RAN)" insttype="" lat="43.7917" lon="12.8584" esm:processing="manual (Paolucci et al 2011)" esm:quality="good">
		<comp name="--.HNE" depth="0.0">
			<acc value="0.051335268434472" flag="0"/>
			<vel value="0.0151036625029" flag="0"/>
			<psa03 value="0.0584186824511725" flag="0"/>
			<psa10 value="0.0152217624295414" flag="0"/>
			<psa30 value="0.00203862338212884" flag="0"/>
		</comp>
		<comp name="--.HNN" depth="0.0">
			<acc value="0.05394011095389" flag="0"/>
			<vel value="0.0125195712791" flag="0"/>
			<psa03 value="0.077242502353467" flag="0"/>
			<psa10 value="0.00979975262300489" flag="0"/>
			<psa30 value="0.00202997010055617" flag="0"/>
		</comp>
		<comp name="--.HNZ" depth="0.0">
			<acc value="0.039678276367572" flag="0"/>
			<vel value="0.0110570532021" flag="0"/>
			<psa03 value="0.0407760892366444" flag="0"/>
			<psa10 value="0.00765571121580181" flag="0"/>
			<psa30 value="0.000893080724715388" flag="0"/>
		</comp>
	</station>
	<station code="MODF" name="MODF" netid="IT" source="Italian Strong Motion Network (RAN)" insttype="" lat="43.7645" lon="13.1347" esm:processing="manual (Paolucci et al 2011)" esm:quality="good">
		<comp name="--.HNE" depth="0.0">
			<acc value="0.25536580458696" flag="0"/>
			<vel value="0.0536157879059" flag="0"/>
			<psa03 value="0.216099273849832" flag="0"/>
			<psa10 value="0.0510550271451117" flag="0"/>
			<psa30 value="0.0059516413503749" flag="0"/>
		</comp>
		<comp name="--.HNN" depth="0.0">
			<acc value="0.18258293155446" flag="0"/>
			<vel value="0.050338927433" flag="0"/>
			<psa03 value="0.244077439765659" flag="0"/>
			<psa10 value="0.0604607514780061" flag="0"/>
			<psa30 value="0.00678942434938568" flag="0"/>
		</comp>
		<comp name="--.HNZ" depth="0.0">
			<acc value="0.1583953155051" flag="0"/>
			<vel value="0.0214148930599" flag="0"/>
			<psa03 value="0.0895831323593478" flag="0"/>
			<psa10 value="0.0266483840746512" flag="0"/>
			<psa30 value="0.00328956375078673" flag="0"/>
		</comp>
	</station>
	<station code="MOMC" name="MOMC" netid="IT" source="Italian Strong Motion Network (RAN)" insttype="" lat="43.6402" lon="13.3109" esm:processing="manual (Paolucci et al 2011)" esm:quality="good">
		<comp name="--.HNE" depth="0.0">
			<acc value="0.2859026711637" flag="0"/>
			<vel value="0.133558714493" flag="0"/>
			<psa03 value="0.568688922850183" flag="0"/>
			<psa10 value="0.0920940707800668" flag="0"/>
			<psa30 value="0.00666635036300176" flag="0"/>
		</comp>
		<comp name="--.HNN" depth="0.0">
			<acc value="0.25436945656728" flag="0"/>
			<vel value="0.0897934827569" flag="0"/>
			<psa03 value="0.409023970830573" flag="0"/>
			<psa10 value="0.0544339672332074" flag="0"/>
			<psa30 value="0.00586098076121427" flag="0"/>
		</comp>
		<comp name="--.HNZ" depth="0.0">
			<acc value="0.30148067908644" flag="0"/>
			<vel value="0.0827751651281" flag="0"/>
			<psa03 value="0.341486434300236" flag="0"/>
			<psa10 value="0.0328089396812406" flag="0"/>
			<psa30 value="0.00198233611170691" flag="0"/>
		</comp>
	</station>
	<station code="PESR" name="PESR" netid="IT" source="Italian Strong Motion Network (RAN)" insttype="" lat="43.8942" lon="12.8763" esm:processing="manual (Paolucci et al 2011)" esm:quality="good">
		<comp name="--.HNE" depth="0.0">
			<acc value="0.11359522424616" flag="0"/>
			<vel value="0.0414561080684" flag="0"/>
			<psa03 value="0.131556735821269" flag="0"/>
			<psa10 value="0.0171823726228628" flag="0"/>
			<psa30 value="0.00175587590149266" flag="0"/>
		</comp>
		<comp name="--.HNN" depth="0.0">
			<acc value="0.13779487359048" flag="0"/>
			<vel value="0.0688828445152" flag="0"/>
			<psa03 value="0.309968867249691" flag="0"/>
			<psa10 value="0.0361708123888151" flag="0"/>
			<psa30 value="0.0036635464419736" flag="0"/>
		</comp>
		<comp name="--.HNZ" depth="0.0">
			<acc value="0.041185481842806" flag="0"/>
			<vel value="0.0103341085147" flag="0"/>
			<psa03 value="0.0759002415602248" flag="0"/>
			<psa10 value="0.00813765095444177" flag="0"/>
			<psa30 value="0.000833560375535022" flag="0"/>
		</comp>
	</station>
	<station code="SNG" name="SNG" netid="IT" source="Italian Strong Motion Network (RAN)" insttype="" lat="43.6855" lon="13.2261" esm:processing="manual (Paolucci et al 2011)" esm:quality="good">
		<comp name="--.HGE" depth="0.0">
			<acc value="0.30074036949204" flag="0"/>
			<vel value="0.124101431384" flag="0"/>
			<psa03 value="0.780203267969535" flag="0"/>
			<psa10 value="0.165353853881289" flag="0"/>
			<psa30 value="0.0074180630769451" flag="0"/>
		</comp>
		<comp name="--.HGN" depth="0.0">
			<acc value="0.27329397619662" flag="0"/>
			<vel value="0.113527797665" flag="0"/>
			<psa03 value="0.785448865467845" flag="0"/>
			<psa10 value="0.096379187148188" flag="0"/>
			<psa30 value="0.00746674963551591" flag="0"/>
		</comp>
		<comp name="--.HGZ" depth="0.0">
			<acc value="0.19653458641752" flag="0"/>
			<vel value="0.0522533696452" flag="0"/>
			<psa03 value="0.281096142073338" flag="0"/>
			<psa10 value="0.0358194591133873" flag="0"/>
			<psa30 value="0.00481911465936694" flag="0"/>
		</comp>
	</station>
	<station code="SRL" name="SRL" netid="IT" source="Italian Strong Motion Network (RAN)" insttype="" lat="43.5179" lon="13.6193" esm:processing="manual (Paolucci et al 2011)" esm:quality="good">
		<comp name="--.HGE" depth="0.0">
			<acc value="0.1087879185828" flag="0"/>
			<vel value="0.0413823936359" flag="0"/>
			<psa03 value="0.326393121942619" flag="0"/>
			<psa10 value="0.0390909320823869" flag="0"/>
			<psa30 value="0.00170087996661594" flag="0"/>
		</comp>
		<comp name="--.HGN" depth="0.0">
			<acc value="0.12596774915376" flag="0"/>
			<vel value="0.0448230486816" flag="0"/>
			<psa03 value="0.213873418064398" flag="0"/>
			<psa10 value="0.0200882263714013" flag="0"/>
			<psa30 value="0.00146408219659461" flag="0"/>
		</comp>
		<comp name="--.HGZ" depth="0.0">
			<acc value="0.044121563115132" flag="0"/>
			<vel value="0.0138834750893" flag="0"/>
			<psa03 value="0.0810968983130448" flag="0"/>
			<psa10 value="0.0107405718226599" flag="0"/>
			<psa30 value="0.000608901899261342" flag="0"/>
		</comp>
	</station>
	<station code="ATCC" name="ATCC" netid="IV" source="Italian National Seismic Network (INSN)" insttype="" lat="43.18514" lon="12.63994" esm:processing="automatic (Paolucci et al 2011)" esm:quality="best">
		<comp name="--.HNE" depth="1.0">
			<acc value="0.0122337805182735" flag="0"/>
			<vel value="0.00702655050350202" flag="0"/>
			<psa03 value="0.0316903883951881" flag="0"/>
			<psa10 value="0.00636666551032562" flag="0"/>
			<psa30 value="0.000848123423598712" flag="0"/>
		</comp>
		<comp name="--.HNN" depth="1.0">
			<acc value="0.0159561159313846" flag="0"/>
			<vel value="0.0100636440497043" flag="0"/>
			<psa03 value="0.0380777334004549" flag="0"/>
			<psa10 value="0.00735331696489377" flag="0"/>
			<psa30 value="0.000698369596890029" flag="0"/>
		</comp>
		<comp name="--.HNZ" depth="1.0">
			<acc value="0.00593942725909682" flag="0"/>
			<vel value="0.00334130132969898" flag="0"/>
			<psa03 value="0.0134283387802825" flag="0"/>
			<psa10 value="0.00411218491206235" flag="0"/>
			<psa30 value="0.000455589763920254" flag="0"/>
		</comp>
	</station>
	<station code="ATPC" name="ATPC" netid="IV" source="Italian National Seismic Network (INSN)" insttype="" lat="43.4807" lon="12.457" esm:processing="manual (Paolucci et al 2011)" esm:quality="bad">
		<comp name="--.HNE" depth="1.0">
			<acc value="0.0153514458600802" flag="0"/>
			<vel value="0.00708688519994751" flag="0"/>
			<psa03 value="0.0277598754138193" flag="0"/>
			<psa10 value="0.00865726850156565" flag="0"/>
			<psa30 value="0.000552854540564671" flag="0"/>
		</comp>
		<comp name="--.HNN" depth="1.0">
			<acc value="0.00831642990148956" flag="0"/>
			<vel value="0.006040246849682" flag="0"/>
			<psa03 value="0.0207388074379722" flag="0"/>
			<psa10 value="0.00502472161316663" flag="0"/>
			<psa30 value="0.000549228779543526" flag="0"/>
		</comp>
		<comp name="--.HNZ" depth="1.0">
			<acc value="0.00454174365581932" flag="0"/>
			<vel value="0.00258602299969847" flag="0"/>
			<psa03 value="0.0124931921960098" flag="0"/>
			<psa10 value="0.00278468861257841" flag="0"/>
			<psa30 value="0.000310141378677775" flag="0"/>
		</comp>
	</station>
	<station code="CESI" name="CESI" netid="IV" source="Italian National Seismic Network (INSN)" insttype="" lat="43.0049" lon="12.9046" esm:processing="automatic (Paolucci et al 2011)" esm:quality="best">
		<comp name="--.HNE" depth="0.0">
			<acc value="0.0163753211232051" flag="0"/>
			<vel value="0.00967164926245108" flag="0"/>
			<psa03 value="0.0408667645142688" flag="0"/>
			<psa10 value="0.00760956206488598" flag="0"/>
			<psa30 value="0.000615329043779827" flag="0"/>
		</comp>
		<comp name="--.HNN" depth="0.0">
			<acc value="0.0154743887892183" flag="0"/>
			<vel value="0.00967298115336045" flag="0"/>
			<psa03 value="0.0709090567520032" flag="0"/>
			<psa10 value="0.00718151574015476" flag="0"/>
			<psa30 value="0.000762362742373023" flag="0"/>
		</comp>
		<comp name="--.HNZ" depth="0.0">
			<acc value="0.0117672292444409" flag="0"/>
			<vel value="0.00540291624226629" flag="0"/>
			<psa03 value="0.0395393354327705" flag="0"/>
			<psa10 value="0.00633161006309932" flag="0"/>
			<psa30 value="0.000705293128459724" flag="0"/>
		</comp>
	</station>
	<station code="FANO" name="FANO" netid="IV" source="Italian National Seismic Network (INSN)" insttype="" lat="43.843471" lon="13.018354" esm:processing="manual (Paolucci et al 2011)" esm:quality="bad">
		<comp name="--.HNE" depth="0.0">
			<acc value="0.064199321551812" flag="0"/>
			<vel value="0.053198742436895" flag="0"/>
			<psa03 value="0.130610933583536" flag="0"/>
			<psa10 value="0.079408877948303" flag="0"/>
			<psa30 value="0.00779458635308317" flag="0"/>
		</comp>
		<comp name="--.HNN" depth="0.0">
			<acc value="0.0535218588405476" flag="0"/>
			<vel value="0.0373048259805222" flag="0"/>
			<psa03 value="0.116858355875916" flag="0"/>
			<psa10 value="0.0483237737128811" flag="0"/>
			<psa30 value="0.00629428946578466" flag="0"/>
		</comp>
		<comp name="--.HNZ" depth="0.0">
			<acc value="0.0601334433548458" flag="0"/>
			<vel value="0.0151421825372416" flag="0"/>
			<psa03 value="0.0390226189111343" flag="0"/>
			<psa10 value="0.0284867783592423" flag="0"/>
			<psa30 value="0.00296965735022679" flag="0"/>
		</comp>
	</station>
	<station code="FEMA" name="FEMA" netid="IV" source="Italian National Seismic Network (INSN)" insttype="" lat="42.9621" lon="13.04976" esm:processing="automatic (Paolucci et al 2011)" esm:quality="best">
		<comp name="--.HNE" depth="0.0">
			<acc value="0.0178358478365005" flag="0"/>
			<vel value="0.00943782964043417" flag="0"/>
			<psa03 value="0.0496465596744379" flag="0"/>
			<psa10 value="0.00673619248968588" flag="0"/>
			<psa30 value="0.000474318244172568" flag="0"/>
		</comp>
		<comp name="--.HNN" depth="0.0">
			<acc value="0.0147939518398223" flag="0"/>
			<vel value="0.00664503280235737" flag="0"/>
			<psa03 value="0.0497548012197799" flag="0"/>
			<psa10 value="0.00492344099755693" flag="0"/>
			<psa30 value="0.000381586476147947" flag="0"/>
		</comp>
		<comp name="--.HNZ" depth="0.0">
			<acc value="0.00746874153715086" flag="0"/>
			<vel value="0.0038367068272495" flag="0"/>
			<psa03 value="0.0160913185750671" flag="0"/>
			<psa10 value="0.0041313805586871" flag="0"/>
			<psa30 value="0.00029303498504636" flag="0"/>
		</comp>
	</station>
	<station code="FOSV" name="FOSV" netid="IV" source="Italian National Seismic Network (INSN)" insttype="" lat="43.29483" lon="12.76117" esm:processing="manual (Paolucci et al 2011)" esm:quality="best">
		<comp name="--.HNE" depth="0.0">
			<acc value="0.0118369652355669" flag="0"/>
			<vel value="0.00610811855902109" flag="0"/>
			<psa03 value="0.0381358205817783" flag="0"/>
			<psa10 value="0.00715209316609045" flag="0"/>
			<psa30 value="0.000450743297029907" flag="0"/>
		</comp>
		<comp name="--.HNN" depth="0.0">
			<acc value="0.00978761126570193" flag="0"/>
			<vel value="0.00408080067752322" flag="0"/>
			<psa03 value="0.0315846600370413" flag="0"/>
			<psa10 value="0.00435785712414652" flag="0"/>
			<psa30 value="0.000413256126190058" flag="0"/>
		</comp>
		<comp name="--.HNZ" depth="0.0">
			<acc value="0.00622721172424952" flag="0"/>
			<vel value="0.0030419347477035" flag="0"/>
			<psa03 value="0.0190472396507349" flag="0"/>
			<psa10 value="0.00350514860514322" flag="0"/>
			<psa30 value="0.00052807237803503" flag="0"/>
		</comp>
	</station>
	<station code="MGAB" name="MGAB" netid="IV" source="Italian National Seismic Network (INSN)" insttype="" lat="42.91263" lon="12.11214" esm:processing="automatic (Paolucci et al 2011)" esm:quality="best">
		<comp name="--.HNE" depth="0.0">
			<acc value="0.00534172708318182" flag="0"/>
			<vel value="0.00383447663237808" flag="0"/>
			<psa03 value="0.0163253731425355" flag="0"/>
			<psa10 value="0.0028185711696315" flag="0"/>
			<psa30 value="0.000627158525339159" flag="0"/>
		</comp>
		<comp name="--.HNN" depth="0.0">
			<acc value="0.00473137884065973" flag="0"/>
			<vel value="0.00418494038192897" flag="0"/>
			<psa03 value="0.0114391796645161" flag="0"/>
			<psa10 value="0.00561947960668477" flag="0"/>
			<psa30 value="0.000446358266961035" flag="0"/>
		</comp>
		<comp name="--.HNZ" depth="0.0">
			<acc value="0.00213089742000899" flag="0"/>
			<vel value="0.00215534203332485" flag="0"/>
			<psa03 value="0.00559623595755549" flag="0"/>
			<psa10 value="0.00333724506048005" flag="0"/>
			<psa30 value="0.000283259207240628" flag="0"/>
		</comp>
	</station>
	<station code="PCRO" name="PCRO" netid="IV" source="Italian National Seismic Network (INSN)" insttype="" lat="43.60768" lon="13.53233" esm:processing="manual (Paolucci et al 2011)" esm:quality="good">
		<comp name="--.HNE" depth="0.0">
			<acc value="0.432298254865465" flag="0"/>
			<vel value="0.100679236411249" flag="0"/>
			<psa03 value="0.467223242914744" flag="0"/>
			<psa10 value="0.0605819895094622" flag="0"/>
			<psa30 value="0.00386902672069832" flag="0"/>
		</comp>
		<comp name="--.HNN" depth="0.0">
			<acc value="0.36778533774299" flag="0"/>
			<vel value="0.0906712087782997" flag="0"/>
			<psa03 value="0.50858802479196" flag="0"/>
			<psa10 value="0.0632426445147611" flag="0"/>
			<psa30 value="0.0025151374488462" flag="0"/>
		</comp>
		<comp name="--.HNZ" depth="0.0">
			<acc value="0.235546977146121" flag="0"/>
			<vel value="0.0599078285549486" flag="0"/>
			<psa03 value="0.416323912749269" flag="0"/>
			<psa10 value="0.0251073132362869" flag="0"/>
			<psa30 value="0.00161299789486183" flag="0"/>
		</comp>
	</station>
	<station code="PIEI" name="PIEI" netid="IV" source="Italian National Seismic Network (INSN)" insttype="" lat="43.53567" lon="12.535" esm:processing="manual (Paolucci et al 2011)" esm:quality="best">
		<comp name="--.HNE" depth="0.0">
			<acc value="0.011960441354521" flag="0"/>
			<vel value="0.00730817134574405" flag="0"/>
			<psa03 value="0.0399222800717899" flag="0"/>
			<psa10 value="0.00434853588165676" flag="0"/>
			<psa30 value="0.00025786312383328" flag="0"/>
		</comp>
		<comp name="--.HNN" depth="0.0">
			<acc value="0.00933717563328441" flag="0"/>
			<vel value="0.00364685718234367" flag="0"/>
			<psa03 value="0.0227845510313642" flag="0"/>
			<psa10 value="0.00176897367019934" flag="0"/>
			<psa30 value="0.000218487520600819" flag="0"/>
		</comp>
		<comp name="--.HNZ" depth="0.0">
			<acc value="0.00642603419908011" flag="0"/>
			<vel value="0.00413692165363691" flag="0"/>
			<psa03 value="0.0168498623144438" flag="0"/>
			<psa10 value="0.00260928996203041" flag="0"/>
