<stationlist xmlns:esm="https://esm-db.eu/esmws/shakemap/1/" created="1783994123">
	<station code="ROD3" name="ROD3" netid="CL" source="Corinth Riff Laboratory (CRLNET)" insttype="" lat="38.30811" lon="21.89204" esm:processing="automatic (Paolucci et al 2011)" esm:quality="good">
		<comp name="00.HNE" depth="0.0">
			<acc value="0.0508031279740561" flag="0"/>
			<vel value="0.0241935052310845" flag="0"/>
			<psa03 value="0.173470710333257" flag="0"/>
			<psa10 value="0.0177773532873904" flag="0"/>
			<psa30 value="0.00120641168968832" flag="0"/>
		</comp>
		<comp name="00.HNN" depth="0.0">
			<acc value="0.0505316357083275" flag="0"/>
			<vel value="0.0228570093871584" flag="0"/>
			<psa03 value="0.22156336498536" flag="0"/>
			<psa10 value="0.0160751905274874" flag="0"/>
			<psa30 value="0.00132030163017211" flag="0"/>
		</comp>
		<comp name="00.HNZ" depth="0.0">
			<acc value="0.0270348829970774" flag="0"/>
			<vel value="0.010381887735521" flag="0"/>
			<psa03 value="0.0545313520177295" flag="0"/>
			<psa10 value="0.00679360363664735" flag="0"/>
			<psa30 value="0.000814152475273531" flag="0"/>
		</comp>
	</station>
	<station code="ARG2" name="ARG2" netid="HI" source="ITSAK Strong Motion Network" insttype="" lat="38.1783" lon="20.4878" esm:processing="manual (Paolucci et al 2011)" esm:quality="best">
		<comp name="--.HNE" depth="0.0">
			<acc value="0.196765500426169" flag="0"/>
			<vel value="0.0784345061879332" flag="0"/>
			<psa03 value="0.322188629858175" flag="0"/>
			<psa10 value="0.0457041640605646" flag="0"/>
			<psa30 value="0.00293508875415863" flag="0"/>
		</comp>
		<comp name="--.HNN" depth="0.0">
			<acc value="0.17749724420975" flag="0"/>
			<vel value="0.0651743612712923" flag="0"/>
			<psa03 value="0.254090991385165" flag="0"/>
			<psa10 value="0.030523133354985" flag="0"/>
			<psa30 value="0.00237088952870222" flag="0"/>
		</comp>
		<comp name="--.HNZ" depth="0.0">
			<acc value="0.116461990967035" flag="0"/>
			<vel value="0.0420746295414113" flag="0"/>
			<psa03 value="0.199550241517492" flag="0"/>
			<psa10 value="0.0204641904630651" flag="0"/>
			<psa30 value="0.00114629533356012" flag="0"/>
		</comp>
	</station>
	<station code="ART2" name="ART2" netid="HI" source="ITSAK Strong Motion Network" insttype="" lat="39.1474" lon="20.9937" esm:processing="manual (Paolucci et al 2011)" esm:quality="bad">
		<comp name="--.HNE" depth="0.0">
			<acc value="0.00479155835904602" flag="0"/>
			<vel value="0.00454365007427561" flag="0"/>
			<psa03 value="0.0127435577398203" flag="0"/>
			<psa10 value="0.00556564104014872" flag="0"/>
			<psa30 value="0.000767232700402811" flag="0"/>
		</comp>
		<comp name="--.HNN" depth="0.0">
			<acc value="0.00464630568768943" flag="0"/>
			<vel value="0.00253874257440484" flag="0"/>
			<psa03 value="0.0109157504586591" flag="0"/>
			<psa10 value="0.00367695311134859" flag="0"/>
			<psa30 value="0.000451438030555936" flag="0"/>
		</comp>
		<comp name="--.HNZ" depth="0.0">
			<acc value="0.00414951612391084" flag="0"/>
			<vel value="0.00270404360715444" flag="0"/>
			<psa03 value="0.0147597238530157" flag="0"/>
			<psa10 value="0.00352332840321654" flag="0"/>
			<psa30 value="0.000374241979194494" flag="0"/>
		</comp>
	</station>
	<station code="KLV1" name="KLV1" netid="HI" source="ITSAK Strong Motion Network" insttype="" lat="38.03256" lon="22.10797" esm:processing="manual (Paolucci et al 2011)" esm:quality="good">
		<comp name="--.HNE" depth="0.0">
			<acc value="0.0186862066810538" flag="0"/>
			<vel value="0.0108955046065738" flag="0"/>
			<psa03 value="0.057459118884717" flag="0"/>
			<psa10 value="0.0139592066039469" flag="0"/>
			<psa30 value="0.000960844276218792" flag="0"/>
		</comp>
		<comp name="--.HNN" depth="0.0">
			<acc value="0.0144017374897968" flag="0"/>
			<vel value="0.00957175192865113" flag="0"/>
			<psa03 value="0.0416770395451482" flag="0"/>
			<psa10 value="0.0121630598055296" flag="0"/>
			<psa30 value="0.00100272455057951" flag="0"/>
		</comp>
		<comp name="--.HNZ" depth="0.0">
			<acc value="0.00905115973953731" flag="0"/>
			<vel value="0.00535758599749355" flag="0"/>
			<psa03 value="0.0174946289854051" flag="0"/>
			<psa10 value="0.0120160331907239" flag="0"/>
			<psa30 value="0.000706737390800065" flag="0"/>
		</comp>
	</station>
	<station code="KRI1" name="KRI1" netid="HI" source="ITSAK Strong Motion Network" insttype="" lat="37.6621" lon="20.8172" esm:processing="manual (Paolucci et al 2011)" esm:quality="good">
		<comp name="--.HNE" depth="0.0">
			<acc value="1.6187121795648" flag="0"/>
			<vel value="0.707808999010102" flag="0"/>
			<psa03 value="3.25087924847039" flag="0"/>
			<psa10 value="0.322296905998191" flag="0"/>
			<psa30 value="0.0348591005983617" flag="0"/>
		</comp>
		<comp name="--.HNN" depth="0.0">
			<acc value="0.554983290426732" flag="0"/>
			<vel value="0.250282728843637" flag="0"/>
			<psa03 value="1.64660268796564" flag="0"/>
			<psa10 value="0.279733644842229" flag="0"/>
			<psa30 value="0.0143685122333918" flag="0"/>
		</comp>
		<comp name="--.HNZ" depth="0.0">
			<acc value="0.741311401726023" flag="0"/>
			<vel value="0.219893412802953" flag="0"/>
			<psa03 value="1.59895223791718" flag="0"/>
			<psa10 value="0.0981371085744511" flag="0"/>
			<psa30 value="0.00544378427924512" flag="0"/>
		</comp>
	</station>
	<station code="MSL1" name="MSL1" netid="HI" source="ITSAK Strong Motion Network" insttype="" lat="38.3727" lon="21.4243" esm:processing="manual (Paolucci et al 2011)" esm:quality="good">
		<comp name="--.HNE" depth="0.0">
			<acc value="0.0531703721170229" flag="0"/>
			<vel value="0.0494680324740126" flag="0"/>
			<psa03 value="0.192131894461672" flag="0"/>
			<psa10 value="0.0658652082466614" flag="0"/>
			<psa30 value="0.0064740663751218" flag="0"/>
		</comp>
		<comp name="--.HNN" depth="0.0">
			<acc value="0.0818925491592369" flag="0"/>
			<vel value="0.0601166737347545" flag="0"/>
			<psa03 value="0.287797648515079" flag="0"/>
			<psa10 value="0.0602419132310323" flag="0"/>
			<psa30 value="0.00373768260312922" flag="0"/>
		</comp>
		<comp name="--.HNZ" depth="0.0">
			<acc value="0.0321765501933431" flag="0"/>
			<vel value="0.0155883689787868" flag="0"/>
			<psa03 value="0.0665657169437477" flag="0"/>
			<psa10 value="0.0305566286016996" flag="0"/>
			<psa30 value="0.00183919079569773" flag="0"/>
		</comp>
	</station>
	<station code="PYL1" name="PYL1" netid="HI" source="ITSAK Strong Motion Network" insttype="" lat="36.914188" lon="21.695161" esm:processing="manual (Paolucci et al 2011)" esm:quality="best">
		<comp name="--.HNE" depth="0.0">
			<acc value="0.0299656288588168" flag="0"/>
			<vel value="0.0175476238279942" flag="0"/>
			<psa03 value="0.0815958792847351" flag="0"/>
			<psa10 value="0.0175918697500482" flag="0"/>
			<psa30 value="0.00121649537851487" flag="0"/>
		</comp>
		<comp name="--.HNN" depth="0.0">
			<acc value="0.0310297043564967" flag="0"/>
			<vel value="0.0131207035114423" flag="0"/>
			<psa03 value="0.0484772322121812" flag="0"/>
			<psa10 value="0.0147133862521135" flag="0"/>
			<psa30 value="0.00132078124527608" flag="0"/>
		</comp>
		<comp name="--.HNZ" depth="0.0">
			<acc value="0.02013584664519" flag="0"/>
			<vel value="0.00763360322863821" flag="0"/>
			<psa03 value="0.0234515535503467" flag="0"/>
			<psa10 value="0.00822666685130375" flag="0"/>
			<psa30 value="0.000784279402579429" flag="0"/>
		</comp>
	</station>
	<station code="ARTB" name="ARTB" netid="HL" source="National Observatory of Athens Seismic Network" insttype="" lat="39.15702" lon="20.9785" esm:processing="manual (Paolucci et al 2011)" esm:quality="bad">
		<comp name="00.HNE" depth="0.0">
			<acc value="0.018931144009261" flag="0"/>
			<vel value="0.0103637071100469" flag="0"/>
			<psa03 value="0.0817302683957565" flag="0"/>
			<psa10 value="0.00675594270431527" flag="0"/>
			<psa30 value="0.0009037031992343" flag="0"/>
		</comp>
		<comp name="00.HNN" depth="0.0">
			<acc value="0.0169862151313931" flag="0"/>
			<vel value="0.008924353682065" flag="0"/>
			<psa03 value="0.0559431122066708" flag="0"/>
			<psa10 value="0.00469442129488081" flag="0"/>
			<psa30 value="0.000445877349686151" flag="0"/>
		</comp>
		<comp name="00.HNZ" depth="0.0">
			<acc value="0.0248658393964067" flag="0"/>
			<vel value="0.0035390201225507" flag="0"/>
			<psa03 value="0.0194423556689974" flag="0"/>
			<psa10 value="0.0034251452584403" flag="0"/>
			<psa30 value="0.000368388075777044" flag="0"/>
		</comp>
	</station>
	<station code="DLFA" name="DLFA" netid="HL" source="National Observatory of Athens Seismic Network" insttype="" lat="38.47836" lon="22.49583" esm:processing="manual (Paolucci et al 2011)" esm:quality="bad">
		<comp name="00.HNE" depth="0.0">
			<acc value="0.0033557384340565" flag="0"/>
			<vel value="0.00274286644927493" flag="0"/>
			<psa03 value="0.0111226378618448" flag="0"/>
			<psa10 value="0.00453630238278526" flag="0"/>
			<psa30 value="0.000425613976086942" flag="0"/>
		</comp>
		<comp name="00.HNN" depth="0.0">
			<acc value="0.00330030793815078" flag="0"/>
			<vel value="0.00353105561445159" flag="0"/>
			<psa03 value="0.00884245100337764" flag="0"/>
			<psa10 value="0.00466638350000834" flag="0"/>
			<psa30 value="0.000530196841690855" flag="0"/>
		</comp>
		<comp name="00.HNZ" depth="0.0">
			<acc value="0.0026361334056908" flag="0"/>
			<vel value="0.00191132745784187" flag="0"/>
			<psa03 value="0.00631387659665033" flag="0"/>
			<psa10 value="0.00211943344893902" flag="0"/>
			<psa30 value="0.000379334868656638" flag="0"/>
		</comp>
	</station>
	<station code="ITM" name="ITM" netid="HL" source="National Observatory of Athens Seismic Network" insttype="" lat="37.17872" lon="21.92522" esm:processing="manual (Paolucci et al 2011)" esm:quality="best">
		<comp name="--.HNE" depth="0.0">
			<acc value="0.0255328000279889" flag="0"/>
			<vel value="0.0134324426509212" flag="0"/>
			<psa03 value="0.0317349564518051" flag="0"/>
			<psa10 value="0.0126928761532672" flag="0"/>
			<psa30 value="0.00166486185142768" flag="0"/>
		</comp>
		<comp name="--.HNN" depth="0.0">
			<acc value="0.0305610445349481" flag="0"/>
			<vel value="0.0178956647979131" flag="0"/>
			<psa03 value="0.0458478080254375" flag="0"/>
			<psa10 value="0.018573390395965" flag="0"/>
			<psa30 value="0.00253576735714065" flag="0"/>
		</comp>
		<comp name="--.HNZ" depth="0.0">
			<acc value="0.0196810376693632" flag="0"/>
			<vel value="0.00895973230238712" flag="0"/>
			<psa03 value="0.0373593264345182" flag="0"/>
			<psa10 value="0.015275859763229" flag="0"/>
			<psa30 value="0.00116195072353398" flag="0"/>
		</comp>
	</station>
	<station code="KIAA" name="KIAA" netid="HL" source="National Observatory of Athens Seismic Network" insttype="" lat="38.0139" lon="22.7495" esm:processing="manual (Paolucci et al 2011)" esm:quality="bad">
		<comp name="00.HNE" depth="0.0">
			<acc value="0.0179795007609357" flag="0"/>
			<vel value="0.0215586351524872" flag="0"/>
			<psa03 value="0.0456255901798241" flag="0"/>
			<psa10 value="0.0480571085475848" flag="0"/>
			<psa30 value="0.00230007049338134" flag="0"/>
		</comp>
		<comp name="00.HNN" depth="0.0">
			<acc value="0.0172152335972619" flag="0"/>
			<vel value="0.0171765038332359" flag="0"/>
			<psa03 value="0.0314291054615121" flag="0"/>
			<psa10 value="0.0397336684105124" flag="0"/>
			<psa30 value="0.00342673096244104" flag="0"/>
		</comp>
		<comp name="00.HNZ" depth="0.0">
			<acc value="0.027940369648323" flag="0"/>
			<vel value="0.00893073847978542" flag="0"/>
			<psa03 value="0.0244632351526012" flag="0"/>
			<psa10 value="0.0268974099463894" flag="0"/>
			<psa30 value="0.00201217058809127" flag="0"/>
		</comp>
	</station>
	<station code="LXRA" name="LXRA" netid="HL" source="National Observatory of Athens Seismic Network" insttype="" lat="38.20006" lon="20.43718" esm:processing="manual (Paolucci et al 2011)" esm:quality="best">
		<comp name="00.HNE" depth="0.0">
			<acc value="0.202020047408005" flag="0"/>
			<vel value="0.0533739594008248" flag="0"/>
			<psa03 value="0.257468868549124" flag="0"/>
			<psa10 value="0.0633570345926595" flag="0"/>
			<psa30 value="0.00362884914344476" flag="0"/>
		</comp>
		<comp name="00.HNN" depth="0.0">
			<acc value="0.193465667980016" flag="0"/>
			<vel value="0.0579567873213193" flag="0"/>
			<psa03 value="0.398064036455283" flag="0"/>
			<psa10 value="0.0539026695371241" flag="0"/>
			<psa30 value="0.00451436238769262" flag="0"/>
		</comp>
		<comp name="00.HNZ" depth="0.0">
			<acc value="0.122993736713141" flag="0"/>
			<vel value="0.0325472243129696" flag="0"/>
			<psa03 value="0.134255216665708" flag="0"/>
			<psa10 value="0.0394559287616376" flag="0"/>
			<psa30 value="0.00232282283394595" flag="0"/>
		</comp>
	</station>
	<station code="PATC" name="PATC" netid="HL" source="National Observatory of Athens Seismic Network" insttype="" lat="38.26933" lon="21.76001" esm:processing="manual (Paolucci et al 2011)" esm:quality="good">
		<comp name="00.HNE" depth="0.0">
			<acc value="0.035745283245212" flag="0"/>
			<vel value="0.0240738389750903" flag="0"/>
			<psa03 value="0.106068130659882" flag="0"/>
			<psa10 value="0.0447782850915155" flag="0"/>
			<psa30 value="0.00475277818157246" flag="0"/>
		</comp>
		<comp name="00.HNN" depth="0.0">
			<acc value="0.0344084251678216" flag="0"/>
			<vel value="0.0200499983254783" flag="0"/>
			<psa03 value="0.150251297161107" flag="0"/>
			<psa10 value="0.033697441040084" flag="0"/>
			<psa30 value="0.00443108353753628" flag="0"/>
		</comp>
		<comp name="00.HNZ" depth="0.0">
			<acc value="0.0212519003817079" flag="0"/>
			<vel value="0.0165598056072279" flag="0"/>
			<psa03 value="0.0842372521793187" flag="0"/>
			<psa10 value="0.0186913000819143" flag="0"/>
			<psa30 value="0.00200739881365274" flag="0"/>
		</comp>
	</station>
	<station code="PATG" name="PATG" netid="HL" source="National Observatory of Athens Seismic Network" insttype="" lat="38.23865" lon="21.72657" esm:processing="manual (Paolucci et al 2011)" esm:quality="good">
		<comp name="00.HNE" depth="0.0">
			<acc value="0.0743331677381845" flag="0"/>
			<vel value="0.0286033525163718" flag="0"/>
			<psa03 value="0.161337594073625" flag="0"/>
			<psa10 value="0.0383272464919822" flag="0"/>
			<psa30 value="0.00414910485783379" flag="0"/>
		</comp>
		<comp name="00.HNN" depth="0.0">
			<acc value="0.0533906987196433" flag="0"/>
			<vel value="0.0372482852549619" flag="0"/>
			<psa03 value="0.156817273791507" flag="0"/>
			<psa10 value="0.049152188591131" flag="0"/>
			<psa30 value="0.0058882146486549" flag="0"/>
		</comp>
		<comp name="00.HNZ" depth="0.0">
			<acc value="0.0513489773606546" flag="0"/>
			<vel value="0.0157914510602913" flag="0"/>
			<psa03 value="0.0682200192415411" flag="0"/>
			<psa10 value="0.0201884948887137" flag="0"/>
			<psa30 value="0.00391810122164538" flag="0"/>
		</comp>
	</station>
	<station code="SMHA" name="SMHA" netid="HL" source="National Observatory of Athens Seismic Network" insttype="" lat="38.25123" lon="20.6477" esm:processing="manual (Paolucci et al 2011)" esm:quality="good">
		<comp name="00.HNE" depth="0.0">
			<acc value="0.371926828169398" flag="0"/>
			<vel value="0.117075896292479" flag="0"/>
			<psa03 value="0.660613804091189" flag="0"/>
			<psa10 value="0.0633102164912766" flag="0"/>
			<psa30 value="0.00375076596983905" flag="0"/>
		</comp>
		<comp name="00.HNN" depth="0.0">
			<acc value="0.402944237462142" flag="0"/>
			<vel value="0.17672157444472" flag="0"/>
			<psa03 value="1.55722882543314" flag="0"/>
			<psa10 value="0.0723175181806447" flag="0"/>
			<psa30 value="0.00498623239677026" flag="0"/>
		</comp>
		<comp name="00.HNZ" depth="0.0">
			<acc value="0.252222764633374" flag="0"/>
			<vel value="0.0810286994551982" flag="0"/>
			<psa03 value="0.419753223257786" flag="0"/>
			<psa10 value="0.0316282527165382" flag="0"/>
			<psa30 value="0.00200151009022237" flag="0"/>
		</comp>
	</station>
	<station code="ZARA" name="ZARA" netid="HL" source="National Observatory of Athens Seismic Network" insttype="" lat="37.4865" lon="21.6491" esm:processing="manual (Paolucci et al 2011)" esm:quality="best">
		<comp name="00.HNE" depth="0.0">
			<acc value="0.116406873924824" flag="0"/>
			<vel value="0.0693479829145415" flag="0"/>
			<psa03 value="0.245853599094478" flag="0"/>
			<psa10 value="0.033711778239842" flag="0"/>
			<psa30 value="0.00418319628289024" flag="0"/>
		</comp>
		<comp name="00.HNN" depth="0.0">
			<acc value="0.0945213009570841" flag="0"/>
			<vel value="0.0503397826964976" flag="0"/>
			<psa03 value="0.273449031323095" flag="0"/>
			<psa10 value="0.041086214260005" flag="0"/>
			<psa30 value="0.00418224455317634" flag="0"/>
		</comp>
		<comp name="00.HNZ" depth="0.0">
			<acc value="0.0443374179182732" flag="0"/>
			<vel value="0.023033321530873" flag="0"/>
			<psa03 value="0.0847761680885072" flag="0"/>
			<psa10 value="0.026690533116834" flag="0"/>
			<psa30 value="0.00130742588138137" flag="0"/>
		</comp>
	</station>
	<station code="ANX" name="ANX" netid="HP" source="University of Patras, Seismological Laboratory (PSLNET)" insttype="" lat="38.5933" lon="21.9209" esm:processing="automatic (Paolucci et al 2011)" esm:quality="best">
		<comp name="--.HNE" depth="0.0">
			<acc value="0.023589972746366" flag="0"/>
			<vel value="0.0177797897813825" flag="0"/>
			<psa03 value="0.0732585873968912" flag="0"/>
			<psa10 value="0.018463697504334" flag="0"/>
			<psa30 value="0.00134591478524895" flag="0"/>
		</comp>
		<comp name="--.HNN" depth="0.0">
			<acc value="0.0219923215219664" flag="0"/>
			<vel value="0.0173244322650171" flag="0"/>
			<psa03 value="0.0518532735667133" flag="0"/>
			<psa10 value="0.0189788241289688" flag="0"/>
			<psa30 value="0.00138421346818438" flag="0"/>
		</comp>
		<comp name="--.HNZ" depth="0.0">
			<acc value="0.00922530450668046" flag="0"/>
			<vel value="0.00793591525757133" flag="0"/>
			<psa03 value="0.0258770032869891" flag="0"/>
			<psa10 value="0.0117282250623706" flag="0"/>
			<psa30 value="0.000881058886660478" flag="0"/>
		</comp>
	</station>
	<station code="FSK" name="FSK" netid="HP" source="University of Patras, Seismological Laboratory (PSLNET)" insttype="" lat="38.4593" lon="20.5623" esm:processing="manual (Paolucci et al 2011)" esm:quality="good">
		<comp name="--.HNE" depth="0.0">
			<acc value="0.17989089434592" flag="0"/>
			<vel value="0.0404706119235937" flag="0"/>
			<psa03 value="0.100685909530699" flag="0"/>
			<psa10 value="0.024540560691707" flag="0"/>
			<psa30 value="0.00197051699541348" flag="0"/>
		</comp>
		<comp name="--.HNN" depth="0.0">
			<acc value="0.0394036667073462" flag="0"/>
			<vel value="0.0148112653559998" flag="0"/>
			<psa03 value="0.0652855383881801" flag="0"/>
			<psa10 value="0.0155630031600801" flag="0"/>
			<psa30 value="0.0014614368130165" flag="0"/>
		</comp>
		<comp name="--.HNZ" depth="0.0">
			<acc value="0.0562861874146363" flag="0"/>
			<vel value="0.0174466702587925" flag="0"/>
			<psa03 value="0.0772933025936276" flag="0"/>
			<psa10 value="0.0151071520246796" flag="0"/>
			<psa30 value="0.000914361613636116" flag="0"/>
		</comp>
	</station>
	<station code="ARS1" name="ARS1" netid="HI" source="ITSAK Strong Motion Network" insttype="" lat="37.6349" lon="22.7293" esm:processing="discarded" esm:quality="good">
		<comp name="--.HNE" depth="0.0">
			<acc value="0" flag="1"/>
			<vel value="0" flag="1"/>
			<psa03 value="0" flag="1"/>
			<psa10 value="0" flag="1"/>
			<psa30 value="0" flag="1"/>
		</comp>
		<comp name="--.HNN" depth="0.0">
			<acc value="0" flag="1"/>
			<vel value="0" flag="1"/>
			<psa03 value="0" flag="1"/>
			<psa10 value="0" flag="1"/>
			<psa30 value="0" flag="1"/>
		</comp>
		<comp name="--.HNZ" depth="0.0">
			<acc value="0" flag="1"/>
			<vel value="0" flag="1"/>
			<psa03 value="0" flag="1"/>
			<psa10 value="0" flag="1"/>
			<psa30 value="0" flag="1"/>
		</comp>
	</station>
