<?xml version="1.0" encoding="UTF-8" standalone="yes"?>
<!DOCTYPE earthquake SYSTEM "stationlist.dtd">
<stationlist created="" xmlns="ch.ethz.sed.shakemap.usgs.xml">
  <station code="LTHK" name="LTHK" netid="HP" source="NOA" insttype="40," lat="37.7095" lon="20.8367">
    <comp name="--.HHE">
      <acc value="1.4142528123" flag="0"/>
      <vel value="0.4772969910" flag="0"/>
      <psa03 value="1.9094589772" flag="0"/>
      <psa10 value="0.3040152129" flag="0"/>
      <psa30 value="0.0233227737" flag="0"/>
    </comp>
    <comp name="--.HHN">
      <acc value="1.0330574128" flag="0"/>
      <vel value="0.3286064619" flag="0"/>
      <psa03 value="0.9989021595" flag="0"/>
      <psa10 value="0.1240159553" flag="0"/>
      <psa30 value="0.0124208785" flag="0"/>
    </comp>
    <comp name="--.HHZ">
      <acc value="0.6406261140" flag="0"/>
      <vel value="0.1789487848" flag="0"/>
      <psa03 value="0.8462288600" flag="0"/>
      <psa10 value="0.0623399981" flag="0"/>
      <psa30 value="0.0051900271" flag="0"/>
    </comp>
  </station>
  <station code="DMLN" name="DMLN" netid="HT" source="NOA" insttype="1s-100Hz," lat="38.2385" lon="20.3734">
    <comp name="--.HHE">
      <acc value="0.1411409053" flag="0"/>
      <vel value="0.0491242522" flag="0"/>
      <psa03 value="0.1453142363" flag="0"/>
      <psa10 value="0.0515247493" flag="0"/>
      <psa30 value="0.0033317321" flag="0"/>
    </comp>
    <comp name="--.HHN">
      <acc value="0.1787930387" flag="0"/>
      <vel value="0.0685489939" flag="0"/>
      <psa03 value="0.4888988650" flag="0"/>
      <psa10 value="0.0833319418" flag="0"/>
      <psa30 value="0.0036314342" flag="0"/>
    </comp>
    <comp name="--.HHZ">
      <acc value="0.1591136664" flag="0"/>
      <vel value="0.0391476433" flag="0"/>
      <psa03 value="0.1915359816" flag="0"/>
      <psa10 value="0.0200920725" flag="0"/>
      <psa30 value="0.0016707026" flag="0"/>
    </comp>
  </station>
</stationlist>
