<?xml version="1.0" encoding="UTF-8" standalone="yes"?>
<!DOCTYPE earthquake SYSTEM "stationlist.dtd">
<stationlist created="" xmlns="ch.ethz.sed.shakemap.usgs.xml">
  <station code="GAZ" name="GAZ" netid="KO" insttype="CMG-3T" lat="37.1721" lon="37.2096">
    <comp name="--.HHN">
      <acc value="0.0069730035" flag="0"/>
      <vel value="0.0039028782" flag="0"/>
      <psa03 value="0.0142881908" flag="0"/>
      <psa10 value="0.0053358380" flag="0"/>
      <psa30 value="0.0003349906" flag="0"/>
    </comp>
    <comp name="--.HHZ">
      <acc value="0.0052815428" flag="0"/>
      <vel value="0.0020916193" flag="0"/>
      <psa03 value="0.0104249444" flag="0"/>
      <psa10 value="0.0034093177" flag="0"/>
      <psa30 value="0.0004610767" flag="0"/>
    </comp>
    <comp name="--.HHE">
      <acc value="0.0140660289" flag="0"/>
      <vel value="0.0053440340" flag="0"/>
      <psa03 value="0.0152848211" flag="0"/>
      <psa10 value="0.0087648593" flag="0"/>
      <psa30 value="0.0024381418" flag="0"/>
    </comp>
  </station>
  <station code="ANDN" name="ANDN" netid="TU" insttype="T" lat="37.58" lon="36.3452">
    <comp name="--.HHN">
      <acc value="0.0418013865" flag="0"/>
      <vel value="0.0163880420" flag="0"/>
      <psa03 value="0.1089649289" flag="0"/>
      <psa10 value="0.0214097810" flag="0"/>
      <psa30 value="0.0010149688" flag="0"/>
    </comp>
    <comp name="--.HHZ">
      <acc value="0.0162965069" flag="0"/>
      <vel value="0.0066628213" flag="0"/>
      <psa03 value="0.0306455752" flag="0"/>
      <psa10 value="0.0087561331" flag="0"/>
      <psa30 value="0.0011161258" flag="0"/>
    </comp>
    <comp name="--.HHE">
      <acc value="0.0374477392" flag="0"/>
      <vel value="0.0115253385" flag="0"/>
      <psa03 value="0.0601044617" flag="0"/>
      <psa10 value="0.0087749023" flag="0"/>
      <psa30 value="0.0012831868" flag="0"/>
    </comp>
  </station>
</stationlist>
