<?xml version="1.0" encoding="UTF-8" standalone="yes"?>
<!DOCTYPE earthquake SYSTEM "stationlist.dtd">
<stationlist created="" xmlns="ch.ethz.sed.shakemap.usgs.xml">
  <station code="SIVA" name="SIVA" netid="HL" insttype="60" lat="35.0178" lon="24.812">
    <comp name="--.HHE">
      <acc value="0.0209542619" flag="0"/>
      <vel value="0.0145381253" flag="0"/>
      <psa03 value="0.0513177803" flag="0"/>
      <psa10 value="0.0196786584" flag="0"/>
      <psa30 value="0.0027567418" flag="0"/>
    </comp>
    <comp name="--.HHN">
      <acc value="0.0153207895" flag="0"/>
      <vel value="0.0109394031" flag="0"/>
      <psa03 value="0.0371043290" flag="0"/>
      <psa10 value="0.0250513189" flag="0"/>
      <psa30 value="0.0021789162" flag="0"/>
    </comp>
    <comp name="--.HHZ">
      <acc value="0.0099286027" flag="0"/>
      <vel value="0.0063879633" flag="0"/>
      <psa03 value="0.0313633089" flag="0"/>
      <psa10 value="0.0137035919" flag="0"/>
      <psa30 value="0.0012331230" flag="0"/>
    </comp>
  </station>
  <station code="ZKR" name="ZKR" netid="HL" insttype="120" lat="35.1147" lon="26.2169">
    <comp name="--.HHN">
      <acc value="0.0139550055" flag="0"/>
      <vel value="0.0081487821" flag="0"/>
      <psa03 value="0.0338204235" flag="0"/>
      <psa10 value="0.0075955872" flag="0"/>
      <psa30 value="0.0014061417" flag="0"/>
    </comp>
    <comp name="--.HHE">
      <acc value="0.0229102345" flag="0"/>
      <vel value="0.0123422458" flag="0"/>
      <psa03 value="0.0742072963" flag="0"/>
      <psa10 value="0.0221668512" flag="0"/>
      <psa30 value="0.0046821174" flag="0"/>
    </comp>
    <comp name="--.HHZ">
      <acc value="0.0133735960" flag="0"/>
      <vel value="0.0085811719" flag="0"/>
      <psa03 value="0.0381490691" flag="0"/>
      <psa10 value="0.0142830855" flag="0"/>
      <psa30 value="0.0018955973" flag="0"/>
    </comp>
  </station>
</stationlist>
