<?xml version="1.0" encoding="UTF-8" standalone="yes"?>
<!DOCTYPE earthquake SYSTEM "stationlist.dtd">
<stationlist created="" xmlns="ch.ethz.sed.shakemap.usgs.xml">
  <station code="BMYO" name="BMYO" netid="KO" insttype="CMG-5T" lat="39.8098" lon="26.6009">
    <comp name="--.HNN">
      <acc value="0.0225054512" flag="0"/>
      <vel value="0.0107530464" flag="0"/>
      <psa03 value="0.0692468058" flag="0"/>
      <psa10 value="0.0079423445" flag="0"/>
      <psa30 value="0.0005857963" flag="0"/>
    </comp>
    <comp name="--.HNE">
      <acc value="0.0310300390" flag="0"/>
      <vel value="0.0119918901" flag="0"/>
      <psa03 value="0.0506117749" flag="0"/>
      <psa10 value="0.0100595389" flag="0"/>
      <psa30 value="0.0009260518" flag="0"/>
    </comp>
    <comp name="--.HNZ">
      <acc value="0.0220417019" flag="0"/>
      <vel value="0.0046493786" flag="0"/>
      <psa03 value="0.0228748188" flag="0"/>
      <psa10 value="0.0053113616" flag="0"/>
      <psa30 value="0.0004645111" flag="0"/>
    </comp>
  </station>
  <station code="DKL" name="DKL" netid="KO" insttype="CMG-3ESPC" lat="39.0713" lon="26.9053">
    <comp name="--.HHN">
      <acc value="0.0226212391" flag="0"/>
      <vel value="0.0090986842" flag="0"/>
      <psa03 value="0.0581259106" flag="0"/>
      <psa10 value="0.0052673299" flag="0"/>
      <psa30 value="0.0003315614" flag="0"/>
    </comp>
  </station>
  <station code="EZN" name="EZN" netid="KO" insttype="CMG-3ESP" lat="39.8255" lon="26.3246">
    <comp name="--.HHE">
      <acc value="0.0551603618" flag="0"/>
      <vel value="0.0092220278" flag="0"/>
      <psa03 value="0.0424941977" flag="0"/>
      <psa10 value="0.0076494886" flag="0"/>
      <psa30 value="0.0004774890" flag="0"/>
    </comp>
    <comp name="--.HHN">
      <acc value="0.0647246536" flag="0"/>
      <vel value="0.0114826263" flag="0"/>
      <psa03 value="0.0495125046" flag="0"/>
      <psa10 value="0.0048031516" flag="0"/>
      <psa30 value="0.0003219809" flag="0"/>
    </comp>
  </station>
  <station code="EZNE" name="EZNE" netid="KO" insttype="CMG-5T" lat="39.756" lon="26.3655">
    <comp name="--.HNE">
      <acc value="0.0578195136" flag="0"/>
      <vel value="0.0163020798" flag="0"/>
      <psa03 value="0.1045813547" flag="0"/>
      <psa10 value="0.0060170026" flag="0"/>
      <psa30 value="0.0005869999" flag="0"/>
    </comp>
    <comp name="--.HNZ">
      <acc value="0.0410772910" flag="0"/>
      <vel value="0.0110724524" flag="0"/>
      <psa03 value="0.0541620389" flag="0"/>
      <psa10 value="0.0051456755" flag="0"/>
      <psa30 value="0.0003568766" flag="0"/>
    </comp>
    <comp name="--.HNN">
      <acc value="0.0987139969" flag="0"/>
      <vel value="0.0394593611" flag="0"/>
      <psa03 value="0.1673327864" flag="0"/>
      <psa10 value="0.0103276198" flag="0"/>
      <psa30 value="0.0008726666" flag="0"/>
    </comp>
  </station>
  <station code="GADA" name="GADA" netid="KO" insttype="CMG-3T" lat="40.1908" lon="25.8987">
    <comp name="--.HHN">
      <acc value="0.0130634654" flag="0"/>
      <vel value="0.0050316393" flag="0"/>
      <psa03 value="0.0208744848" flag="0"/>
      <psa10 value="0.0028354889" flag="0"/>
      <psa30 value="0.0002866110" flag="0"/>
    </comp>
    <comp name="--.HHZ">
      <acc value="0.0076603493" flag="0"/>
      <vel value="0.0025293822" flag="0"/>
      <psa03 value="0.0133412925" flag="0"/>
      <psa10 value="0.0017754543" flag="0"/>
      <psa30 value="0.0002542377" flag="0"/>
    </comp>
    <comp name="--.HHE">
      <acc value="0.0110468661" flag="0"/>
      <vel value="0.0041081364" flag="0"/>
      <psa03 value="0.0200226750" flag="0"/>
      <psa10 value="0.0021777265" flag="0"/>
      <psa30 value="0.0002045968" flag="0"/>
    </comp>
  </station>
  <station code="GPNR" name="GPNR" netid="KO" insttype="CMG-5T" lat="39.456" lon="26.1331">
    <comp name="--.HNE">
      <acc value="0.1362479245" flag="0"/>
      <vel value="0.0437601201" flag="0"/>
      <psa03 value="0.2107007221" flag="0"/>
      <psa10 value="0.0141156702" flag="0"/>
      <psa30 value="0.0009597294" flag="0"/>
    </comp>
  </station>
  <station code="YAYO" name="YAYO" netid="KO" insttype="CMG-6T" lat="39.6113" lon="27.0726">
    <comp name="--.HHE">
      <acc value="0.0382969348" flag="0"/>
      <vel value="0.0180523997" flag="0"/>
      <psa03 value="0.1078585785" flag="0"/>
      <psa10 value="0.0165551990" flag="0"/>
      <psa30 value="0.0008564236" flag="0"/>
    </comp>
    <comp name="--.HHN">
      <acc value="0.0429255246" flag="0"/>
      <vel value="0.0184289452" flag="0"/>
      <psa03 value="0.1094107684" flag="0"/>
      <psa10 value="0.0123223078" flag="0"/>
      <psa30 value="0.0007254882" flag="0"/>
    </comp>
    <comp name="--.HHZ">
      <acc value="0.0242807958" flag="0"/>
      <vel value="0.0110183576" flag="0"/>
      <psa03 value="0.1081121066" flag="0"/>
      <psa10 value="0.0063122424" flag="0"/>
      <psa30 value="0.0005539665" flag="0"/>
    </comp>
  </station>
</stationlist>
