<?xml version="1.0" encoding="UTF-8" standalone="yes"?>
<!DOCTYPE earthquake SYSTEM "stationlist.dtd">
<stationlist created="" xmlns="ch.ethz.sed.shakemap.usgs.xml">
  <station code="FAUS" name="FAUS" netid="NS" insttype="" lat="67.382" lon="15.2877">
    <comp name="00.HHE">
      <acc value="0.1190421904" flag="0"/>
      <vel value="0.0222948763" flag="0"/>
      <psa03 value="0.0560987692" flag="0"/>
      <psa10 value="0.0115048451" flag="0"/>
      <psa30 value="0.0005374404" flag="0"/>
    </comp>
    <comp name="00.HHN">
      <acc value="0.1212336527" flag="0"/>
      <vel value="0.0160133704" flag="0"/>
      <psa03 value="0.0442138615" flag="0"/>
      <psa10 value="0.0051646144" flag="0"/>
      <psa30 value="0.0004819408" flag="0"/>
    </comp>
    <comp name="00.HHZ">
      <acc value="0.0882714033" flag="0"/>
      <vel value="0.0116583651" flag="0"/>
      <psa03 value="0.0403126713" flag="0"/>
      <psa10 value="0.0083897141" flag="0"/>
      <psa30 value="0.0005509683" flag="0"/>
    </comp>
  </station>
  <station code="GILDE" name="GILDE" netid="NS" insttype="" lat="66.9293" lon="14.1897">
    <comp name="00.HHN">
      <acc value="0.3588450851" flag="0"/>
      <vel value="0.0597147311" flag="0"/>
      <psa03 value="0.1404739433" flag="0"/>
      <psa10 value="0.0264046921" flag="0"/>
      <psa30 value="0.0017305886" flag="0"/>
    </comp>
    <comp name="00.HHE">
      <acc value="0.2942860312" flag="0"/>
      <vel value="0.0590016376" flag="0"/>
      <psa03 value="0.1066104185" flag="0"/>
      <psa10 value="0.0286414987" flag="0"/>
      <psa30 value="0.0029390483" flag="0"/>
    </comp>
    <comp name="00.HHZ">
      <acc value="0.1312790149" flag="0"/>
      <vel value="0.0396183798" flag="0"/>
      <psa03 value="0.1706882923" flag="0"/>
      <psa10 value="0.0258871066" flag="0"/>
      <psa30 value="0.0026458058" flag="0"/>
    </comp>
  </station>
  <station code="KONS" name="KONS" netid="NS" insttype="" lat="66.4992" lon="13.1177">
    <comp name="00.HHZ">
      <acc value="0.3504084118" flag="0"/>
      <vel value="0.0765271731" flag="0"/>
      <psa03 value="0.4704851954" flag="0"/>
      <psa10 value="0.0222905579" flag="0"/>
      <psa30 value="0.0024532822" flag="0"/>
    </comp>
    <comp name="00.HHE">
      <acc value="0.3133358901" flag="0"/>
      <vel value="0.0784221085" flag="0"/>
      <psa03 value="0.6463607810" flag="0"/>
      <psa10 value="0.0312871427" flag="0"/>
      <psa30 value="0.0047414722" flag="0"/>
    </comp>
    <comp name="00.HHN">
      <acc value="0.3630500601" flag="0"/>
      <vel value="0.1180943017" flag="0"/>
      <psa03 value="0.6194011806" flag="0"/>
      <psa10 value="0.0225133582" flag="0"/>
      <psa30 value="0.0025940160" flag="0"/>
    </comp>
  </station>
  <station code="LEIR" name="LEIR" netid="NS" insttype="" lat="66.1118" lon="13.115">
    <comp name="00.HHE">
      <acc value="0.0880919036" flag="0"/>
      <vel value="0.0179495082" flag="0"/>
      <psa03 value="0.0920107688" flag="0"/>
      <psa10 value="0.0068746636" flag="0"/>
      <psa30 value="0.0007134784" flag="0"/>
    </comp>
    <comp name="00.HHN">
      <acc value="0.0870916204" flag="0"/>
      <vel value="0.0196900242" flag="0"/>
      <psa03 value="0.0963762878" flag="0"/>
      <psa10 value="0.0050259654" flag="0"/>
      <psa30 value="0.0006472502" flag="0"/>
    </comp>
    <comp name="00.HHZ">
      <acc value="0.1124418395" flag="0"/>
      <vel value="0.0420621829" flag="0"/>
      <psa03 value="0.2015553823" flag="0"/>
      <psa10 value="0.0096490879" flag="0"/>
      <psa30 value="0.0010655223" flag="0"/>
    </comp>
  </station>
  <station code="MOR8" name="MOR8" netid="NS" insttype="" lat="66.283" lon="14.7308">
    <comp name="00.HHE">
      <acc value="0.1015449295" flag="0"/>
      <vel value="0.0144114941" flag="0"/>
      <psa03 value="0.0485720803" flag="0"/>
      <psa10 value="0.0059126324" flag="0"/>
      <psa30 value="0.0011502004" flag="0"/>
    </comp>
    <comp name="00.HHN">
      <acc value="0.0940261639" flag="0"/>
      <vel value="0.0114237783" flag="0"/>
      <psa03 value="0.0407711042" flag="0"/>
      <psa10 value="0.0058119072" flag="0"/>
      <psa30 value="0.0007584763" flag="0"/>
    </comp>
    <comp name="00.HHZ">
      <acc value="0.1074383619" flag="0"/>
      <vel value="0.0194748629" flag="0"/>
      <psa03 value="0.0532069673" flag="0"/>
      <psa10 value="0.0082197804" flag="0"/>
      <psa30 value="0.0010413076" flag="0"/>
    </comp>
  </station>
  <station code="RAUS" name="RAUS" netid="NS" insttype="" lat="66.4365" lon="14.042">
    <comp name="00.HHE">
      <acc value="0.1072453263" flag="0"/>
      <vel value="0.0237284873" flag="0"/>
      <psa03 value="0.1039334896" flag="0"/>
      <psa10 value="0.0147569640" flag="0"/>
      <psa30 value="0.0029876622" flag="0"/>
    </comp>
    <comp name="00.HHZ">
      <acc value="0.1292763526" flag="0"/>
      <vel value="0.0369676458" flag="0"/>
      <psa03 value="0.1329789778" flag="0"/>
      <psa10 value="0.0255660131" flag="0"/>
      <psa30 value="0.0019226637" flag="0"/>
    </comp>
    <comp name="00.HHN">
      <acc value="0.1153072321" flag="0"/>
      <vel value="0.0263055673" flag="0"/>
      <psa03 value="0.1050057829" flag="0"/>
      <psa10 value="0.0119197776" flag="0"/>
      <psa30 value="0.0015773023" flag="0"/>
    </comp>
  </station>
  <station code="SORF" name="SORF" netid="NS" insttype="" lat="66.494" lon="13.294">
    <comp name="00.HHE">
      <acc value="0.6793438712" flag="0"/>
      <vel value="0.1575732263" flag="0"/>
      <psa03 value="0.6983929776" flag="0"/>
      <psa10 value="0.0549140515" flag="0"/>
      <psa30 value="0.0059119650" flag="0"/>
    </comp>
    <comp name="00.HHN">
      <acc value="0.7427697563" flag="0"/>
      <vel value="0.0952832885" flag="0"/>
      <psa03 value="0.3890165840" flag="0"/>
      <psa10 value="0.0285735191" flag="0"/>
      <psa30 value="0.0022393802" flag="0"/>
    </comp>
    <comp name="00.HHZ">
      <acc value="0.3483710351" flag="0"/>
      <vel value="0.0705517519" flag="0"/>
      <psa03 value="0.3717873417" flag="0"/>
      <psa10 value="0.0245686793" flag="0"/>
      <psa30 value="0.0024495920" flag="0"/>
    </comp>
  </station>
  <station code="STOK" name="STOK" netid="NS" insttype="" lat="66.333" lon="13.0177">
    <comp name="00.HHE">
      <acc value="0.1055963213" flag="0"/>
      <vel value="0.0275665386" flag="0"/>
      <psa03 value="0.1561848524" flag="0"/>
      <psa10 value="0.0175024783" flag="0"/>
      <psa30 value="0.0014988030" flag="0"/>
    </comp>
    <comp name="00.HHZ">
      <acc value="0.1034180256" flag="0"/>
      <vel value="0.0401954642" flag="0"/>
      <psa03 value="0.2526545472" flag="0"/>
      <psa10 value="0.0152807661" flag="0"/>
      <psa30 value="0.0014791897" flag="0"/>
    </comp>
    <comp name="00.HHN">
      <acc value="0.1288336720" flag="0"/>
      <vel value="0.0303771778" flag="0"/>
      <psa03 value="0.2136928974" flag="0"/>
      <psa10 value="0.0136232110" flag="0"/>
      <psa30 value="0.0021234389" flag="0"/>
    </comp>
  </station>
</stationlist>
