<?xml version="1.0" encoding="UTF-8" standalone="yes"?>
<!DOCTYPE earthquake SYSTEM "stationlist.dtd">
<stationlist created="" xmlns="ch.ethz.sed.shakemap.usgs.xml">
  <station code="THERA" name="THERA" netid="GE" insttype="STS-2/N" lat="36.367" lon="25.4753">
    <comp name="--.HHE">
      <acc value="0.1439630503" flag="0"/>
      <vel value="0.0308068492" flag="0"/>
      <psa03 value="0.0637234273" flag="0"/>
      <psa10 value="0.0142412342" flag="0"/>
      <psa30 value="0.0014125073" flag="0"/>
    </comp>
    <comp name="--.HHN">
      <acc value="0.1119211858" flag="0"/>
      <vel value="0.0198423894" flag="0"/>
      <psa03 value="0.0582000222" flag="0"/>
      <psa10 value="0.0093617937" flag="0"/>
      <psa30 value="0.0006876982" flag="0"/>
    </comp>
    <comp name="--.HHZ">
      <acc value="0.0946299385" flag="0"/>
      <vel value="0.0225359755" flag="0"/>
      <psa03 value="0.0488224566" flag="0"/>
      <psa10 value="0.0085885178" flag="0"/>
      <psa30 value="0.0009333526" flag="0"/>
    </comp>
  </station>
</stationlist>
