<stationlist created="1741951951">
	<station code="ABEA" name="ABEA" netid="HC" source="Seismological Network of Crete (HC)" insttype="" lat="35.5163" lon="24.0113">
		<comp name=".HNE" depth="0.0">
			<acc value="0.0028102085181366" flag="0"/>
			<vel value="0.00325743797115" flag="0"/>
			<psa03 value="0.00334940612650937" flag="0"/>
			<psa10 value="0.00191001488848614" flag="0"/>
			<psa30 value="0.00170545256119341" flag="0"/>
		</comp>
		<comp name=".HNN" depth="0.0">
			<acc value="0.0031594282788654" flag="0"/>
			<vel value="0.00260454309742" flag="0"/>
			<psa03 value="0.00619114776337072" flag="0"/>
			<psa10 value="0.00246932576821258" flag="0"/>
			<psa30 value="0.00187402789515266" flag="0"/>
		</comp>
		<comp name=".HNZ" depth="0.0">
			<acc value="0.0029308293458454" flag="0"/>
			<vel value="0.00175981974705" flag="0"/>
			<psa03 value="0.00236553072824002" flag="0"/>
			<psa10 value="0.00297540585603704" flag="0"/>
			<psa30 value="0.00117514659769457" flag="0"/>
		</comp>
	</station>
	<station code="G0LD" name="G0LD" netid="HC" source="Seismological Network of Crete (HC)" insttype="" lat="35.4955" lon="24.0306">
		<comp name=".HNE" depth="0.0">
			<acc value="0.011840598610506" flag="0"/>
			<vel value="0.0212613302863" flag="0"/>
			<psa03 value="0.0223851365512815" flag="0"/>
			<psa10 value="0.0436998899031204" flag="0"/>
			<psa30 value="0.00536993198164583" flag="0"/>
		</comp>
		<comp name=".HNN" depth="0.0">
			<acc value="0.010773132202218" flag="0"/>
			<vel value="0.0144886066756" flag="0"/>
			<psa03 value="0.0161453143394893" flag="0"/>
			<psa10 value="0.0383148781726462" flag="0"/>
			<psa30 value="0.00404100686353957" flag="0"/>
		</comp>
		<comp name=".HNZ" depth="0.0">
			<acc value="0.0090849540591306" flag="0"/>
			<vel value="0.0102414162527" flag="0"/>
			<psa03 value="0.0125884576214429" flag="0"/>
			<psa10 value="0.0216802499601754" flag="0"/>
			<psa30 value="0.00245641168355111" flag="0"/>
		</comp>
	</station>
	<station code="PASK" name="PASK" netid="HC" source="Seismological Network of Crete (HC)" insttype="" lat="35.4996" lon="24.0121">
		<comp name=".HNE" depth="0.0">
			<acc value="0.0051238958838726" flag="0"/>
			<vel value="0.00350781008159" flag="0"/>
			<psa03 value="0.0110368587418771" flag="0"/>
			<psa10 value="0.00539847512246709" flag="0"/>
			<psa30 value="0.00102956049499561" flag="0"/>
		</comp>
		<comp name=".HNN" depth="0.0">
			<acc value="0.0039736711702554" flag="0"/>
			<vel value="0.00316128416769" flag="0"/>
			<psa03 value="0.0103873202704641" flag="0"/>
			<psa10 value="0.00559726735399866" flag="0"/>
			<psa30 value="0.000779261830605195" flag="0"/>
		</comp>
		<comp name=".HNZ" depth="0.0">
			<acc value="0.006475202170389" flag="0"/>
			<vel value="0.00282845120881" flag="0"/>
			<psa03 value="0.00674775494834674" flag="0"/>
			<psa10 value="0.00409340741814996" flag="0"/>
			<psa30 value="0.00119840240911131" flag="0"/>
		</comp>
	</station>
	<station code="POLY" name="POLY" netid="HC" source="Seismological Network of Crete (HC)" insttype="" lat="35.5226" lon="24.0602">
		<comp name=".HNE" depth="0.0">
			<acc value="0.0042709543903218" flag="0"/>
			<vel value="0.00823995299429" flag="0"/>
			<psa03 value="0.00679066404085412" flag="0"/>
			<psa10 value="0.0122427507096637" flag="0"/>
			<psa30 value="0.00241113660096562" flag="0"/>
		</comp>
		<comp name=".HNN" depth="0.0">
			<acc value="0.0046824373236318" flag="0"/>
			<vel value="0.00548578017409" flag="0"/>
			<psa03 value="0.00852719509315632" flag="0"/>
			<psa10 value="0.0114829597522443" flag="0"/>
			<psa30 value="0.00222355896653454" flag="0"/>
		</comp>
		<comp name=".HNZ" depth="0.0">
			<acc value="0.0037575110259534" flag="0"/>
			<vel value="0.00419087968328" flag="0"/>
			<psa03 value="0.00858607724904053" flag="0"/>
			<psa10 value="0.00699864378203506" flag="0"/>
			<psa30 value="0.00156091934074479" flag="0"/>
		</comp>
	</station>
	<station code="ARK1" name="ARK1" netid="HI" source="ITSAK Strong Motion Network" insttype="" lat="35.148777" lon="25.264194">
		<comp name=".HNE" depth="0.0">
			<acc value="0.009672422443275" flag="0"/>
			<vel value="0.00493387946408" flag="0"/>
			<psa03 value="0.0233395956128499" flag="0"/>
			<psa10 value="0.00541677305337781" flag="0"/>
			<psa30 value="0.00113874491543018" flag="0"/>
		</comp>
		<comp name=".HNN" depth="0.0">
			<acc value="0.010344018858996" flag="0"/>
			<vel value="0.00419567150815" flag="0"/>
			<psa03 value="0.023405079117477" flag="0"/>
			<psa10 value="0.00705788036244994" flag="0"/>
			<psa30 value="0.000842975738840233" flag="0"/>
		</comp>
		<comp name=".HNZ" depth="0.0">
			<acc value="0.006979456297923" flag="0"/>
			<vel value="0.00284315959507" flag="0"/>
			<psa03 value="0.0119741382799793" flag="0"/>
			<psa10 value="0.00535676392182697" flag="0"/>
			<psa30 value="0.000478979802976966" flag="0"/>
		</comp>
	</station>
	<station code="CH01" name="CH01" netid="HI" source="ITSAK Strong Motion Network" insttype="" lat="35.517" lon="24.0208">
		<comp name=".HNE" depth="0.0">
			<acc value="0.0055620869406582" flag="0"/>
			<vel value="0.00201916943662" flag="0"/>
			<psa03 value="0.00610724767415863" flag="0"/>
			<psa10 value="0.0054632015977948" flag="0"/>
			<psa30 value="0.000734410213573805" flag="0"/>
		</comp>
		<comp name=".HNN" depth="0.0">
			<acc value="0.0054935890845912" flag="0"/>
			<vel value="0.00219361490548" flag="0"/>
			<psa03 value="0.0127998375097303" flag="0"/>
			<psa10 value="0.00332730901164373" flag="0"/>
			<psa30 value="0.000730466358559531" flag="0"/>
		</comp>
		<comp name=".HNZ" depth="0.0">
			<acc value="0.0081711497920842" flag="0"/>
			<vel value="0.0012491045584" flag="0"/>
			<psa03 value="0.00407789058294674" flag="0"/>
			<psa10 value="0.00194515823218495" flag="0"/>
			<psa30 value="0.000371167270301834" flag="0"/>
		</comp>
	</station>
	<station code="CH02" name="CH02" netid="HI" source="ITSAK Strong Motion Network" insttype="" lat="35.5145" lon="24.0315">
		<comp name=".HNE" depth="0.0">
			<acc value="0.0036784475213982" flag="0"/>
			<vel value="0.00217315965034" flag="0"/>
			<psa03 value="0.00874686263983804" flag="0"/>
			<psa10 value="0.00265038705951173" flag="0"/>
			<psa30 value="0.000748583027453566" flag="0"/>
		</comp>
		<comp name=".HNN" depth="0.0">
			<acc value="0.0051440378266368" flag="0"/>
			<vel value="0.00226196353099" flag="0"/>
			<psa03 value="0.0104084805263973" flag="0"/>
			<psa10 value="0.00224599472362664" flag="0"/>
			<psa30 value="0.000683268648613562" flag="0"/>
		</comp>
		<comp name=".HNZ" depth="0.0">
			<acc value="0.004237039610499" flag="0"/>
			<vel value="0.00119026361212" flag="0"/>
			<psa03 value="0.00507865023775128" flag="0"/>
			<psa10 value="0.00186140405106922" flag="0"/>
			<psa30 value="0.00034437002636561" flag="0"/>
		</comp>
	</station>
	<station code="CH03" name="CH03" netid="HI" source="ITSAK Strong Motion Network" insttype="" lat="35.53303" lon="24.0705">
		<comp name=".HNE" depth="0.0">
			<acc value="0.0037567032463986" flag="0"/>
			<vel value="0.0021271463061" flag="0"/>
			<psa03 value="0.00972806566056606" flag="0"/>
			<psa10 value="0.00307397410444999" flag="0"/>
			<psa30 value="0.000315807248805518" flag="0"/>
		</comp>
		<comp name=".HNN" depth="0.0">
			<acc value="0.0038399540234562" flag="0"/>
			<vel value="0.00280441888729" flag="0"/>
			<psa03 value="0.00763516269308903" flag="0"/>
			<psa10 value="0.003966607299517" flag="0"/>
			<psa30 value="0.00046518227437747" flag="0"/>
		</comp>
		<comp name=".HNZ" depth="0.0">
			<acc value="0.0028585322760108" flag="0"/>
			<vel value="0.00126150131045" flag="0"/>
			<psa03 value="0.00508928375464679" flag="0"/>
			<psa10 value="0.0013956258908651" flag="0"/>
			<psa30 value="0.000328425402404207" flag="0"/>
		</comp>
	</station>
	<station code="GOR1" name="GOR1" netid="HI" source="ITSAK Strong Motion Network" insttype="" lat="35.0582" lon="24.9628">
		<comp name=".HNE" depth="0.0">
			<acc value="0.004495409834676" flag="0"/>
			<vel value="0.00298436465728" flag="0"/>
			<psa03 value="0.0171083416770239" flag="0"/>
			<psa10 value="0.00343073031592196" flag="0"/>
			<psa30 value="0.000617162029789304" flag="0"/>
		</comp>
		<comp name=".HNN" depth="0.0">
			<acc value="0.0031858750021572" flag="0"/>
			<vel value="0.00225350887913" flag="0"/>
			<psa03 value="0.0072960295501289" flag="0"/>
			<psa10 value="0.00358421790559411" flag="0"/>
			<psa30 value="0.000766944400052678" flag="0"/>
		</comp>
		<comp name=".HNZ" depth="0.0">
			<acc value="0.0037105622879634" flag="0"/>
			<vel value="0.00164857562515" flag="0"/>
			<psa03 value="0.00595427530090206" flag="0"/>
			<psa10 value="0.00298580576372694" flag="0"/>
			<psa30 value="0.000385121449906198" flag="0"/>
		</comp>
	</station>
	<station code="HER3" name="HER3" netid="HI" source="ITSAK Strong Motion Network" insttype="" lat="35.3296" lon="25.1065">
		<comp name=".HNE" depth="0.0">
			<acc value="0.028998841212762" flag="0"/>
			<vel value="0.00990068947294" flag="0"/>
			<psa03 value="0.0404372829381882" flag="0"/>
			<psa10 value="0.0184379445483266" flag="0"/>
			<psa30 value="0.000950474318427777" flag="0"/>
		</comp>
		<comp name=".HNN" depth="0.0">
			<acc value="0.027613624648458" flag="0"/>
			<vel value="0.0134670891312" flag="0"/>
			<psa03 value="0.0456260016653973" flag="0"/>
			<psa10 value="0.0228674492312828" flag="0"/>
			<psa30 value="0.000821409153908825" flag="0"/>
		</comp>
		<comp name=".HNZ" depth="0.0">
			<acc value="0.022454628003906" flag="0"/>
			<vel value="0.00681561771232" flag="0"/>
			<psa03 value="0.0312072964968939" flag="0"/>
			<psa10 value="0.00990277288511046" flag="0"/>
			<psa30 value="0.000561028050771217" flag="0"/>
		</comp>
	</station>
	<station code="KIS1" name="KIS1" netid="HI" source="ITSAK Strong Motion Network" insttype="" lat="35.493933" lon="23.658993">
		<comp name=".HNE" depth="0.0">
			<acc value="0.002980826418177" flag="0"/>
			<vel value="0.00161767468099" flag="0"/>
			<psa03 value="0.00369724785421266" flag="0"/>
			<psa10 value="0.00288717704256004" flag="0"/>
			<psa30 value="0.000431536165278028" flag="0"/>
		</comp>
		<comp name=".HNN" depth="0.0">
			<acc value="0.0035088977107062" flag="0"/>
			<vel value="0.00182002175401" flag="0"/>
			<psa03 value="0.00497359379909273" flag="0"/>
			<psa10 value="0.00267401479660682" flag="0"/>
			<psa30 value="0.000416492252026094" flag="0"/>
		</comp>
		<comp name=".HNZ" depth="0.0">
			<acc value="0.0035629919298804" flag="0"/>
			<vel value="0.00106161497524" flag="0"/>
			<psa03 value="0.0033210842633447" flag="0"/>
			<psa10 value="0.0015992251205047" flag="0"/>
			<psa30 value="0.000280927021494679" flag="0"/>
		</comp>
	</station>
	<station code="KRL1" name="KRL1" netid="HI" source="ITSAK Strong Motion Network" insttype="" lat="37.7951" lon="26.7065">
		<comp name=".HNE" depth="0.0">
			<acc value="0.023173621863114" flag="0"/>
			<vel value="0.00860954586046" flag="0"/>
			<psa03 value="0.0672123899909618" flag="0"/>
			<psa10 value="0.0115698511333616" flag="0"/>
			<psa30 value="0.000647261315384361" flag="0"/>
		</comp>
		<comp name=".HNN" depth="0.0">
			<acc value="0.022440479564832" flag="0"/>
			<vel value="0.00881108620555" flag="0"/>
			<psa03 value="0.0546964462877199" flag="0"/>
			<psa10 value="0.00802056069776535" flag="0"/>
			<psa30 value="0.000455265002823803" flag="0"/>
		</comp>
		<comp name=".HNZ" depth="0.0">
			<acc value="0.0088915929467808" flag="0"/>
			<vel value="0.00485837420021" flag="0"/>
			<psa03 value="0.0231082599754975" flag="0"/>
			<psa10 value="0.00443661187250564" flag="0"/>
			<psa30 value="0.000371981386732983" flag="0"/>
		</comp>
	</station>
	<station code="KTL1" name="KTL1" netid="HI" source="ITSAK Strong Motion Network" insttype="" lat="35.20778" lon="25.34272">
		<comp name=".HNE" depth="0.0">
			<acc value="0.01181332639641" flag="0"/>
			<vel value="0.00379262246061" flag="0"/>
			<psa03 value="0.0192295993874381" flag="0"/>
			<psa10 value="0.00443507895846717" flag="0"/>
			<psa30 value="0.000380842624788116" flag="0"/>
		</comp>
		<comp name=".HNN" depth="0.0">
			<acc value="0.011103124454028" flag="0"/>
			<vel value="0.00493432240936" flag="0"/>
			<psa03 value="0.0235489245840228" flag="0"/>
			<psa10 value="0.00637000088754893" flag="0"/>
			<psa30 value="0.000504875945553252" flag="0"/>
		</comp>
		<comp name=".HNZ" depth="0.0">
			<acc value="0.006981983819418" flag="0"/>
			<vel value="0.00271210326059" flag="0"/>
			<psa03 value="0.00555419345890647" flag="0"/>
			<psa10 value="0.00214854967461974" flag="0"/>
			<psa30 value="0.000417648734887173" flag="0"/>
		</comp>
	</station>
	<station code="NAX1" name="NAX1" netid="HI" source="ITSAK Strong Motion Network" insttype="" lat="37.101394" lon="25.374103">
		<comp name=".HNE" depth="0.0">
			<acc value="0.14711449433004" flag="0"/>
			<vel value="0.0448894219513" flag="0"/>
			<psa03 value="0.313263418830924" flag="0"/>
			<psa10 value="0.0127582636098665" flag="0"/>
			<psa30 value="0.00133157560618071" flag="0"/>
		</comp>
		<comp name=".HNN" depth="0.0">
			<acc value="0.087174200993088" flag="0"/>
			<vel value="0.0220408779807" flag="0"/>
			<psa03 value="0.0965918258178327" flag="0"/>
			<psa10 value="0.0074535850134466" flag="0"/>
			<psa30 value="0.00116334685768488" flag="0"/>
		</comp>
		<comp name=".HNZ" depth="0.0">
			<acc value="0.06698660497311" flag="0"/>
			<vel value="0.0164951078558" flag="0"/>
			<psa03 value="0.128998701780843" flag="0"/>
			<psa10 value="0.0117162111414984" flag="0"/>
			<psa30 value="0.00112852215488602" flag="0"/>
		</comp>
	</station>
	<station code="RTH1" name="RTH1" netid="HI" source="ITSAK Strong Motion Network" insttype="" lat="35.365393" lon="24.471773">
		<comp name=".HNE" depth="0.0">
			<acc value="0.0045844562197872" flag="0"/>
			<vel value="0.00152333953675" flag="0"/>
			<psa03 value="0.00984911469508018" flag="0"/>
			<psa10 value="0.00144431220203254" flag="0"/>
			<psa30 value="0.000546690225960089" flag="0"/>
		</comp>
		<comp name=".HNN" depth="0.0">
			<acc value="0.0041981368418844" flag="0"/>
			<vel value="0.00217004077444" flag="0"/>
			<psa03 value="0.00947576053511891" flag="0"/>
			<psa10 value="0.00202690333489868" flag="0"/>
			<psa30 value="0.000575726055692316" flag="0"/>
		</comp>
		<comp name=".HNZ" depth="0.0">
			<acc value="0.0055123768687458" flag="0"/>
			<vel value="0.00165921819273" flag="0"/>
			<psa03 value="0.00395583139035431" flag="0"/>
			<psa10 value="0.00154741086775104" flag="0"/>
			<psa30 value="0.000356246985031153" flag="0"/>
		</comp>
	</station>
	<station code="SFR2" name="SFR2" netid="HI" source="ITSAK Strong Motion Network" insttype="" lat="36.399841" lon="25.438209">
		<comp name=".HNE" depth="0.0">
			<acc value="0.24563088365742" flag="0"/>
			<vel value="0.0715775771638" flag="0"/>
			<psa03 value="0.406280705769716" flag="0"/>
			<psa10 value="0.0492033494804382" flag="0"/>
			<psa30 value="0.00351710465758857" flag="0"/>
		</comp>
		<comp name=".HNN" depth="0.0">
			<acc value="0.3414001287363" flag="0"/>
			<vel value="0.0817449697373" flag="0"/>
			<psa03 value="0.362618896722398" flag="0"/>
			<psa10 value="0.0544201288164815" flag="0"/>
			<psa30 value="0.00339164134626268" flag="0"/>
		</comp>
		<comp name=".HNZ" depth="0.0">
			<acc value="0.24828756120198" flag="0"/>
			<vel value="0.055278811609" flag="0"/>
			<psa03 value="0.228938811906107" flag="0"/>
			<psa10 value="0.0197701059225054" flag="0"/>
			<psa30 value="0.00195017293938593" flag="0"/>
		</comp>
	</station>
	<station code="AMGA" name="AMGA" netid="HL" source="National Observatory of Athens Seismic Network" insttype="" lat="36.831561" lon="25.893836">
		<comp name="00.HNE" depth="0.0">
			<acc value="0.23322658168206" flag="0"/>
			<vel value="0.045314473515" flag="0"/>
			<psa03 value="0.277288973200074" flag="0"/>
			<psa10 value="0.0133649769266461" flag="0"/>
			<psa30 value="0.00138174309619816" flag="0"/>
		</comp>
		<comp name="00.HNN" depth="0.0">
			<acc value="0.42476335239726" flag="0"/>
			<vel value="0.10061548542" flag="0"/>
			<psa03 value="0.432037995396748" flag="0"/>
			<psa10 value="0.0252504733449331" flag="0"/>
			<psa30 value="0.00174056217870411" flag="0"/>
		</comp>
		<comp name="00.HNZ" depth="0.0">
			<acc value="0.3289647772092" flag="0"/>
			<vel value="0.059372553705" flag="0"/>
			<psa03 value="0.283836406935686" flag="0"/>
			<psa10 value="0.0218025136845216" flag="0"/>
			<psa30 value="0.00159531828617293" flag="0"/>
		</comp>
	</station>
	<station code="ANAF" name="ANAF" netid="HL" source="National Observatory of Athens Seismic Network" insttype="" lat="36.35675" lon="25.77262">
		<comp name=".HNE" depth="0.0">
			<acc value="1.343229870141" flag="0"/>
			<vel value="0.39926953675" flag="0"/>
			<psa03 value="1.09837401188857" flag="0"/>
			<psa10 value="0.145566088039037" flag="0"/>
			<psa30 value="0.00984755318540261" flag="0"/>
		</comp>
		<comp name=".HNN" depth="0.0">
			<acc value="1.8129107478762" flag="0"/>
			<vel value="0.368862468184" flag="0"/>
			<psa03 value="1.18515992769653" flag="0"/>
			<psa10 value="0.0738524348612253" flag="0"/>
			<psa30 value="0.00521349995211668" flag="0"/>
		</comp>
		<comp name=".HNZ" depth="0.0">
			<acc value="0.51764384934186" flag="0"/>
			<vel value="0.120269729873" flag="0"/>
			<psa03 value="0.297825583649776" flag="0"/>
			<psa10 value="0.032082906585092" flag="0"/>
			<psa30 value="0.0038520955990954" flag="0"/>
		</comp>
	</station>
	<station code="CHNB" name="CHNB" netid="HL" source="National Observatory of Athens Seismic Network" insttype="" lat="35.48765" lon="24.06605">
		<comp name="00.HNE" depth="0.0">
			<acc value="0.0080543085677148" flag="0"/>
			<vel value="0.00408053541158" flag="0"/>
			<psa03 value="0.0134207848944795" flag="0"/>
			<psa10 value="0.00560571197592392" flag="0"/>
			<psa30 value="0.000533708324306534" flag="0"/>
		</comp>
		<comp name="00.HNN" depth="0.0">
			<acc value="0.007299961166256" flag="0"/>
			<vel value="0.00680586699988" flag="0"/>
			<psa03 value="0.0180169318145773" flag="0"/>
			<psa10 value="0.00941808983971303" flag="0"/>
			<psa30 value="0.000558433816415437" flag="0"/>
		</comp>
		<comp name="00.HNZ" depth="0.0">
			<acc value="0.014033394383964" flag="0"/>
			<vel value="0.00386413023516" flag="0"/>
			<psa03 value="0.0136129603855508" flag="0"/>
			<psa10 value="0.00251774569454434" flag="0"/>
			<psa30 value="0.000336143856422568" flag="0"/>
		</comp>
	</station>
	<station code="HERG" name="HERG" netid="HL" source="National Observatory of Athens Seismic Network" insttype="" lat="35.32622" lon="25.06586">
		<comp name="00.HNE" depth="0.0">
			<acc value="0.010716606908118" flag="0"/>
			<vel value="0.00859814468196" flag="0"/>
			<psa03 value="0.0270407131895469" flag="0"/>
			<psa10 value="0.012417306960634" flag="0"/>
			<psa30 value="0.00138845624924568" flag="0"/>
		</comp>
		<comp name="00.HNN" depth="0.0">
			<acc value="0.010459356719676" flag="0"/>
			<vel value="0.0063585849672" flag="0"/>
			<psa03 value="0.0297580103846383" flag="0"/>
			<psa10 value="0.0152564606656253" flag="0"/>
			<psa30 value="0.000841171713083041" flag="0"/>
		</comp>
		<comp name="00.HNZ" depth="0.0">
			<acc value="0.01172350982925" flag="0"/>
			<vel value="0.00540470896064" flag="0"/>
			<psa03 value="0.0161369400868494" flag="0"/>
			<psa10 value="0.00665581857157112" flag="0"/>
			<psa30 value="0.000635364329351887" flag="0"/>
		</comp>
	</station>
	<station code="IACM" name="IACM" netid="HL" source="National Observatory of Athens Seismic Network" insttype="" lat="35.3058" lon="25.0709">
		<comp name=".HNE" depth="0.0">
			<acc value="0.021518756955492" flag="0"/>
			<vel value="0.0122841855067" flag="0"/>
			<psa03 value="0.0632360536617346" flag="0"/>
			<psa10 value="0.0198789343818456" flag="0"/>
			<psa30 value="0.000954662929236004" flag="0"/>
		</comp>
