<?xml version="1.0" encoding="UTF-8" standalone="yes"?>
<!DOCTYPE earthquake SYSTEM "stationlist.dtd">
<stationlist created="" xmlns="ch.ethz.sed.shakemap.usgs.xml">
  <station code="THERA" name="THERA" netid="GE" insttype="STS-2/N" lat="36.367" lon="25.4753">
    <comp name="--.HHE">
      <acc value="0.1439630503" flag="0"/>
      <vel value="0.0308068492" flag="0"/>
      <psa03 value="0.0637234273" flag="0"/>
      <psa10 value="0.0142412342" flag="0"/>
      <psa30 value="0.0014125073" flag="0"/>
    </comp>
    <comp name="--.HHN">
      <acc value="0.1119211858" flag="0"/>
      <vel value="0.0198423894" flag="0"/>
      <psa03 value="0.0582000222" flag="0"/>
      <psa10 value="0.0093617937" flag="0"/>
      <psa30 value="0.0006876982" flag="0"/>
    </comp>
    <comp name="--.HHZ">
      <acc value="0.0946299385" flag="0"/>
      <vel value="0.0225359755" flag="0"/>
      <psa03 value="0.0488224566" flag="0"/>
      <psa10 value="0.0085885178" flag="0"/>
      <psa30 value="0.0009333526" flag="0"/>
    </comp>
  </station>
  <station code="SNT1" name="SNT1" netid="HA" insttype="30" lat="36.4159" lon="25.4282">
    <comp name="--.HHN">
      <acc value="0.0762107685" flag="0"/>
      <vel value="0.0229110548" flag="0"/>
      <psa03 value="0.1030496808" flag="0"/>
      <psa10 value="0.0199562032" flag="0"/>
      <psa30 value="0.0023068375" flag="0"/>
    </comp>
    <comp name="--.HHE">
      <acc value="0.0876473581" flag="0"/>
      <vel value="0.0258867977" flag="0"/>
      <psa03 value="0.1240589036" flag="0"/>
      <psa10 value="0.0243274463" flag="0"/>
      <psa30 value="0.0024403102" flag="0"/>
    </comp>
    <comp name="--.HHZ">
      <acc value="0.0982885957" flag="0"/>
      <vel value="0.0188033264" flag="0"/>
      <psa03 value="0.0849865899" flag="0"/>
      <psa10 value="0.0101840291" flag="0"/>
      <psa30 value="0.0013991190" flag="0"/>
    </comp>
  </station>
  <station code="SFR2" name="SFR2" netid="HI" insttype="unknown" lat="36.3998" lon="25.4382">
    <comp name="--.HNN">
      <acc value="0.3447693306" flag="0"/>
      <vel value="0.0814132188" flag="0"/>
      <psa03 value="0.3639721634" flag="0"/>
      <psa10 value="0.0543901602" flag="0"/>
      <psa30 value="0.0033422874" flag="0"/>
    </comp>
    <comp name="--.HNE">
      <acc value="0.2497638690" flag="0"/>
      <vel value="0.0717548214" flag="0"/>
      <psa03 value="0.4042746687" flag="0"/>
      <psa10 value="0.0491602462" flag="0"/>
      <psa30 value="0.0033690407" flag="0"/>
    </comp>
    <comp name="--.HNZ">
      <acc value="0.2559061928" flag="0"/>
      <vel value="0.0551478821" flag="0"/>
      <psa03 value="0.2251017885" flag="0"/>
      <psa10 value="0.0197904389" flag="0"/>
      <psa30 value="0.0018368316" flag="0"/>
    </comp>
  </station>
  <station code="AMGA" name="AMGA" netid="HL" insttype="SMART24" lat="36.8316" lon="25.8938">
    <comp name="--.HHE">
      <acc value="0.3975062227" flag="0"/>
      <vel value="0.0802499605" flag="0"/>
      <psa03 value="0.4601054610" flag="0"/>
      <psa10 value="0.0204890455" flag="0"/>
      <psa30 value="0.0021135511" flag="0"/>
    </comp>
    <comp name="--.HHN">
      <acc value="0.7040428029" flag="0"/>
      <vel value="0.1608134471" flag="0"/>
      <psa03 value="0.6839922219" flag="0"/>
      <psa10 value="0.0412702048" flag="0"/>
      <psa30 value="0.0028330211" flag="0"/>
    </comp>
    <comp name="--.HHZ">
      <acc value="0.5465256346" flag="0"/>
      <vel value="0.0943600444" flag="0"/>
      <psa03 value="0.4628486738" flag="0"/>
      <psa10 value="0.0356727571" flag="0"/>
      <psa30 value="0.0027601982" flag="0"/>
    </comp>
  </station>
  <station code="SANT" name="SANT" netid="HL" insttype="30" lat="36.3705" lon="25.4593">
    <comp name="--.HHE">
      <acc value="0.3750151013" flag="0"/>
      <vel value="0.0586744296" flag="0"/>
      <psa03 value="0.2425551505" flag="0"/>
      <psa10 value="0.0209571951" flag="0"/>
      <psa30 value="0.0016498792" flag="0"/>
    </comp>
    <comp name="--.HHZ">
      <acc value="0.2917683121" flag="0"/>
      <vel value="0.0409244135" flag="0"/>
      <psa03 value="0.1077543677" flag="0"/>
      <psa10 value="0.0108989272" flag="0"/>
      <psa30 value="0.0009815055" flag="0"/>
    </comp>
    <comp name="--.HHN">
      <acc value="0.3554975256" flag="0"/>
      <vel value="0.0398378594" flag="0"/>
      <psa03 value="0.1065343983" flag="0"/>
      <psa10 value="0.0106789492" flag="0"/>
      <psa30 value="0.0011611005" flag="0"/>
    </comp>
  </station>
  <station code="SAP3" name="SAP3" netid="HL" insttype="65535" lat="36.4356" lon="25.3454">
    <comp name="--.HHE">
      <acc value="0.1338173385" flag="0"/>
      <vel value="0.0379975989" flag="0"/>
      <psa03 value="0.1647656398" flag="0"/>
      <psa10 value="0.0312383665" flag="0"/>
      <psa30 value="0.0043956537" flag="0"/>
    </comp>
    <comp name="--.HHN">
      <acc value="0.1657906563" flag="0"/>
      <vel value="0.0488858845" flag="0"/>
      <psa03 value="0.1951873670" flag="0"/>
      <psa10 value="0.0236223969" flag="0"/>
      <psa30 value="0.0040810426" flag="0"/>
    </comp>
    <comp name="--.HHZ">
      <acc value="0.1329026939" flag="0"/>
      <vel value="0.0314669481" flag="0"/>
      <psa03 value="0.0999698237" flag="0"/>
      <psa10 value="0.0146516659" flag="0"/>
      <psa30 value="0.0012752091" flag="0"/>
    </comp>
  </station>
  <station code="THERA" name="THERA" netid="HL" insttype="120" lat="36.367" lon="25.4753">
    <comp name="--.HHE">
      <acc value="0.1394136902" flag="0"/>
      <vel value="0.0303732998" flag="0"/>
      <psa03 value="0.0616433363" flag="0"/>
      <psa10 value="0.0140882012" flag="0"/>
      <psa30 value="0.0014113208" flag="0"/>
    </comp>
    <comp name="--.HHZ">
      <acc value="0.0929406882" flag="0"/>
      <vel value="0.0217870041" flag="0"/>
      <psa03 value="0.0472667064" flag="0"/>
      <psa10 value="0.0084990698" flag="0"/>
      <psa30 value="0.0009336397" flag="0"/>
    </comp>
    <comp name="--.HHN">
      <acc value="0.2217801354" flag="0"/>
      <vel value="0.0381736714" flag="0"/>
      <psa03 value="0.1131006165" flag="0"/>
      <psa10 value="0.0185628934" flag="0"/>
      <psa30 value="0.0013760219" flag="0"/>
    </comp>
  </station>
  <station code="THRA" name="THRA" netid="HL" insttype="CMG-5" lat="36.415" lon="25.4324">
    <comp name="00.HNN">
      <acc value="0.2739538497" flag="0"/>
      <vel value="0.0634026643" flag="0"/>
      <psa03 value="0.4544016249" flag="0"/>
      <psa10 value="0.0653617516" flag="0"/>
      <psa30 value="0.0037130800" flag="0"/>
    </comp>
    <comp name="00.HNZ">
      <acc value="0.2196075591" flag="0"/>
      <vel value="0.0593789068" flag="0"/>
      <psa03 value="0.2819425143" flag="0"/>
      <psa10 value="0.0338381832" flag="0"/>
      <psa30 value="0.0018182919" flag="0"/>
    </comp>
    <comp name="00.HNE">
      <acc value="0.3165890960" flag="0"/>
      <vel value="0.0933303366" flag="0"/>
      <psa03 value="0.6703790494" flag="0"/>
      <psa10 value="0.0558172450" flag="0"/>
      <psa30 value="0.0051908868" flag="0"/>
    </comp>
  </station>
  <station code="AKRO" name="AKRO" netid="HT" insttype="Compact," lat="36.3584" lon="25.3967">
    <comp name="--.HHE">
      <acc value="0.5664577635" flag="0"/>
      <vel value="0.1085312188" flag="0"/>
      <psa03 value="0.4537391329" flag="0"/>
      <psa10 value="0.0308319051" flag="0"/>
      <psa30 value="0.0027333394" flag="0"/>
    </comp>
    <comp name="--.HHN">
      <acc value="0.3925409424" flag="0"/>
      <vel value="0.0819941722" flag="0"/>
      <psa03 value="0.1624821357" flag="0"/>
      <psa10 value="0.0244016184" flag="0"/>
      <psa30 value="0.0028158956" flag="0"/>
    </comp>
    <comp name="--.HHZ">
      <acc value="0.3600547019" flag="0"/>
      <vel value="0.0606946928" flag="0"/>
      <psa03 value="0.1437602639" flag="0"/>
      <psa10 value="0.0183948815" flag="0"/>
      <psa30 value="0.0012391731" flag="0"/>
    </comp>
  </station>
  <station code="CMBO" name="CMBO" netid="HT" insttype="120P," lat="36.4709" lon="25.4056">
    <comp name="--.HHZ">
      <acc value="0.1599463652" flag="0"/>
      <vel value="0.0401828499" flag="0"/>
      <psa03 value="0.1466783684" flag="0"/>
      <psa10 value="0.0124132890" flag="0"/>
      <psa30 value="0.0024176250" flag="0"/>
    </comp>
    <comp name="--.HHE">
      <acc value="0.1449100862" flag="0"/>
      <vel value="0.0437711072" flag="0"/>
      <psa03 value="0.1739999572" flag="0"/>
      <psa10 value="0.0234722336" flag="0"/>
      <psa30 value="0.0025223289" flag="0"/>
    </comp>
    <comp name="--.HHN">
      <acc value="0.2548598868" flag="0"/>
      <vel value="0.0553212455" flag="0"/>
      <psa03 value="0.2574502088" flag="0"/>
      <psa10 value="0.0348624723" flag="0"/>
      <psa30 value="0.0031154388" flag="0"/>
    </comp>
  </station>
</stationlist>
