<?xml version="1.0" encoding="UTF-8" standalone="yes"?>
<!DOCTYPE earthquake SYSTEM "stationlist.dtd">
<stationlist created="" xmlns="ch.ethz.sed.shakemap.usgs.xml">
  <station code="APE" name="APE" netid="GE" insttype="STS-2/N" commtype="DIG" lat="37.0727" lon="25.523">
    <comp name="--.HHE">
      <acc value="0.2455682465" flag="0"/>
      <vel value="0.0591438431" flag="0"/>
      <psa03 value="0.1688250840" flag="0"/>
      <psa10 value="0.0199867295" flag="0"/>
      <psa30 value="0.0024883337" flag="0"/>
    </comp>
    <comp name="--.HHZ">
      <acc value="0.1119106150" flag="0"/>
      <vel value="0.0189554481" flag="0"/>
      <psa03 value="0.0691704503" flag="0"/>
      <psa10 value="0.0207988078" flag="0"/>
      <psa30 value="0.0026503594" flag="0"/>
    </comp>
    <comp name="--.HHN">
      <acc value="0.2668993746" flag="0"/>
      <vel value="0.0470303072" flag="0"/>
      <psa03 value="0.1225775019" flag="0"/>
      <psa10 value="0.0165717968" flag="0"/>
      <psa30 value="0.0019831262" flag="0"/>
    </comp>
  </station>
  <station code="THERA" name="THERA" netid="GE" insttype="STS-2/N" commtype="DIG" lat="36.367" lon="25.4753">
    <comp name="--.HHZ">
      <acc value="0.1191519873" flag="0"/>
      <vel value="0.0284593825" flag="0"/>
      <psa03 value="0.0885135564" flag="0"/>
      <psa10 value="0.0101328977" flag="0"/>
      <psa30 value="0.0017725447" flag="0"/>
    </comp>
    <comp name="--.HHE">
      <acc value="0.1460368226" flag="0"/>
      <vel value="0.0377374042" flag="0"/>
      <psa03 value="0.1714329040" flag="0"/>
      <psa10 value="0.0163721346" flag="0"/>
      <psa30 value="0.0025265626" flag="0"/>
    </comp>
    <comp name="--.HHN">
      <acc value="0.1207705651" flag="0"/>
      <vel value="0.0271211251" flag="0"/>
      <psa03 value="0.1857694636" flag="0"/>
      <psa10 value="0.0108552767" flag="0"/>
      <psa30 value="0.0008954322" flag="0"/>
    </comp>
  </station>
</stationlist>
