<?xml version="1.0" encoding="UTF-8" standalone="yes"?>
<!DOCTYPE earthquake SYSTEM "stationlist.dtd">
<stationlist created="" xmlns="ch.ethz.sed.shakemap.usgs.xml">
  <station code="APE" name="APE" netid="GE" insttype="STS-2/N" commtype="DIG" lat="37.0727" lon="25.523">
    <comp name="--.HHE">
      <acc value="0.2455682465" flag="0"/>
      <vel value="0.0591438431" flag="0"/>
      <psa03 value="0.1688250840" flag="0"/>
      <psa10 value="0.0199867295" flag="0"/>
      <psa30 value="0.0024883337" flag="0"/>
    </comp>
    <comp name="--.HHZ">
      <acc value="0.1119106150" flag="0"/>
      <vel value="0.0189554481" flag="0"/>
      <psa03 value="0.0691704503" flag="0"/>
      <psa10 value="0.0207988078" flag="0"/>
      <psa30 value="0.0026503594" flag="0"/>
    </comp>
    <comp name="--.HHN">
      <acc value="0.2668993746" flag="0"/>
      <vel value="0.0470303072" flag="0"/>
      <psa03 value="0.1225775019" flag="0"/>
      <psa10 value="0.0165717968" flag="0"/>
      <psa30 value="0.0019831262" flag="0"/>
    </comp>
  </station>
  <station code="THERA" name="THERA" netid="GE" insttype="STS-2/N" commtype="DIG" lat="36.367" lon="25.4753">
    <comp name="--.HHZ">
      <acc value="0.1191519873" flag="0"/>
      <vel value="0.0284593825" flag="0"/>
      <psa03 value="0.0885135564" flag="0"/>
      <psa10 value="0.0101328977" flag="0"/>
      <psa30 value="0.0017725447" flag="0"/>
    </comp>
    <comp name="--.HHE">
      <acc value="0.1460368226" flag="0"/>
      <vel value="0.0377374042" flag="0"/>
      <psa03 value="0.1714329040" flag="0"/>
      <psa10 value="0.0163721346" flag="0"/>
      <psa30 value="0.0025265626" flag="0"/>
    </comp>
    <comp name="--.HHN">
      <acc value="0.1207705651" flag="0"/>
      <vel value="0.0271211251" flag="0"/>
      <psa03 value="0.1857694636" flag="0"/>
      <psa10 value="0.0108552767" flag="0"/>
      <psa30 value="0.0008954322" flag="0"/>
    </comp>
  </station>
  <station code="IOSI" name="IOSI" netid="HA" insttype="60s," commtype="DIG" lat="36.7225" lon="25.2887">
    <comp name="--.HHE">
      <acc value="0.5236440909" flag="0"/>
      <vel value="0.0866936047" flag="0"/>
      <psa03 value="0.1676366754" flag="0"/>
      <psa10 value="0.0228428644" flag="0"/>
      <psa30 value="0.0024966497" flag="0"/>
    </comp>
    <comp name="--.HHZ">
      <acc value="0.3253388768" flag="0"/>
      <vel value="0.0454799621" flag="0"/>
      <psa03 value="0.1538125663" flag="0"/>
      <psa10 value="0.0187171265" flag="0"/>
      <psa30 value="0.0022133255" flag="0"/>
    </comp>
    <comp name="--.HHN">
      <acc value="0.4559010427" flag="0"/>
      <vel value="0.0779189369" flag="0"/>
      <psa03 value="0.1196630796" flag="0"/>
      <psa10 value="0.0145543726" flag="0"/>
      <psa30 value="0.0025388572" flag="0"/>
    </comp>
  </station>
  <station code="SERI" name="SERI" netid="HA" insttype="30" commtype="DIG" lat="37.1609" lon="24.4853">
    <comp name="--.HHE">
      <acc value="0.0404702646" flag="0"/>
      <vel value="0.0076757606" flag="0"/>
      <psa03 value="0.0430480542" flag="0"/>
      <psa10 value="0.0049511722" flag="0"/>
      <psa30 value="0.0007850817" flag="0"/>
    </comp>
    <comp name="--.HHZ">
      <acc value="0.0255348415" flag="0"/>
      <vel value="0.0081926012" flag="0"/>
      <psa03 value="0.0368103119" flag="0"/>
      <psa10 value="0.0067806439" flag="0"/>
      <psa30 value="0.0009166809" flag="0"/>
    </comp>
    <comp name="--.HHN">
      <acc value="0.0569303492" flag="0"/>
      <vel value="0.0118856608" flag="0"/>
      <psa03 value="0.0604882042" flag="0"/>
      <psa10 value="0.0086839063" flag="0"/>
      <psa30 value="0.0018480655" flag="0"/>
    </comp>
  </station>
  <station code="SNT1" name="SNT1" netid="HA" insttype="30" commtype="DIG" lat="36.4159" lon="25.4282">
    <comp name="--.HHN">
      <acc value="0.0543861579" flag="0"/>
      <vel value="0.0126769338" flag="0"/>
      <psa03 value="0.0650938870" flag="0"/>
      <psa10 value="0.0116377360" flag="0"/>
      <psa30 value="0.0025348993" flag="0"/>
    </comp>
    <comp name="--.HHZ">
      <acc value="0.0351579874" flag="0"/>
      <vel value="0.0099593958" flag="0"/>
      <psa03 value="0.0450104959" flag="0"/>
      <psa10 value="0.0141820104" flag="0"/>
      <psa30 value="0.0008059161" flag="0"/>
    </comp>
    <comp name="--.HHE">
      <acc value="0.0641950544" flag="0"/>
      <vel value="0.0151600262" flag="0"/>
      <psa03 value="0.1044744016" flag="0"/>
      <psa10 value="0.0192565438" flag="0"/>
      <psa30 value="0.0029947627" flag="0"/>
    </comp>
  </station>
  <station code="SNT5" name="SNT5" netid="HA" insttype="1s-100Hz," commtype="DIG" lat="36.4037" lon="25.3953">
    <comp name="--.HHN">
      <acc value="0.1417850376" flag="0"/>
      <vel value="0.0299783228" flag="0"/>
      <psa03 value="0.1744352286" flag="0"/>
      <psa10 value="0.0107237497" flag="0"/>
      <psa30 value="0.0039147505" flag="0"/>
    </comp>
    <comp name="--.HHE">
      <acc value="0.1588588752" flag="0"/>
      <vel value="0.0426446787" flag="0"/>
      <psa03 value="0.2268945722" flag="0"/>
      <psa10 value="0.0204943073" flag="0"/>
      <psa30 value="0.0043058935" flag="0"/>
    </comp>
    <comp name="--.HHZ">
      <acc value="0.0726226866" flag="0"/>
      <vel value="0.0134737790" flag="0"/>
      <psa03 value="0.0519742146" flag="0"/>
      <psa10 value="0.0072214512" flag="0"/>
      <psa30 value="0.0008176748" flag="0"/>
    </comp>
  </station>
  <station code="THNO" name="THNO" netid="HC" insttype="60" commtype="DIG" lat="37.6541" lon="25.0221">
    <comp name="--.HHE">
      <acc value="0.0000000000" flag="0"/>
      <vel value="-100.0000000000" flag="0"/>
      <psa03 value="0.0000000000" flag="0"/>
      <psa10 value="0.0000000000" flag="0"/>
      <psa30 value="0.0000000000" flag="0"/>
    </comp>
    <comp name="--.HHN">
      <acc value="0.0000000000" flag="0"/>
      <vel value="-100.0000000000" flag="0"/>
      <psa03 value="0.0000000000" flag="0"/>
      <psa10 value="0.0000000000" flag="0"/>
      <psa30 value="0.0000000000" flag="0"/>
    </comp>
    <comp name="--.HHZ">
      <acc value="0.0382522553" flag="0"/>
      <vel value="0.0140893078" flag="0"/>
      <psa03 value="0.0669006459" flag="0"/>
      <psa10 value="0.0063600529" flag="0"/>
      <psa30 value="0.0010740077" flag="0"/>
    </comp>
  </station>
  <station code="NAX1" name="NAX1" netid="HI" insttype="CMG-5TD,ACCELEROMETER,GURALP" commtype="DIG" lat="37.1014" lon="25.3741">
    <comp name="--.HNE">
      <acc value="0.1402844248" flag="0"/>
      <vel value="0.0268136163" flag="0"/>
      <psa03 value="0.0836641065" flag="0"/>
      <psa10 value="0.0111353373" flag="0"/>
      <psa30 value="0.0019052406" flag="0"/>
    </comp>
    <comp name="--.HNZ">
      <acc value="0.0838310808" flag="0"/>
      <vel value="0.0157329361" flag="0"/>
      <psa03 value="0.0604683976" flag="0"/>
      <psa10 value="0.0141907936" flag="0"/>
      <psa30 value="0.0028220467" flag="0"/>
    </comp>
    <comp name="--.HNN">
      <acc value="0.1299069544" flag="0"/>
      <vel value="0.0276483444" flag="0"/>
      <psa03 value="0.0974030557" flag="0"/>
      <psa10 value="0.0091019476" flag="0"/>
      <psa30 value="0.0019148167" flag="0"/>
    </comp>
  </station>
  <station code="SFR2" name="SFR2" netid="HI" insttype="unknown" commtype="DIG" lat="36.3998" lon="25.4382">
    <comp name="--.HNE">
      <acc value="0.3182146248" flag="0"/>
      <vel value="0.1051332796" flag="0"/>
      <psa03 value="0.6545025116" flag="0"/>
      <psa10 value="0.0633813875" flag="0"/>
      <psa30 value="0.0071411462" flag="0"/>
    </comp>
    <comp name="--.HNN">
      <acc value="0.2845555640" flag="0"/>
      <vel value="0.0914996325" flag="0"/>
      <psa03 value="0.5248693718" flag="0"/>
      <psa10 value="0.0712639475" flag="0"/>
      <psa30 value="0.0041092480" flag="0"/>
    </comp>
    <comp name="--.HNZ">
      <acc value="0.3760416762" flag="0"/>
      <vel value="0.0929851170" flag="0"/>
      <psa03 value="0.4757312840" flag="0"/>
      <psa10 value="0.0289689644" flag="0"/>
      <psa30 value="0.0023342564" flag="0"/>
    </comp>
  </station>
  <station code="AMGA" name="AMGA" netid="HL" insttype="LE3D20_SMART24" commtype="DIG" lat="36.8316" lon="25.8938">
    <comp name="--.HHN">
      <acc value="1.2794448544" flag="0"/>
      <vel value="0.4637807680" flag="0"/>
      <psa03 value="0.9260826810" flag="0"/>
      <psa10 value="0.3012678901" flag="0"/>
      <psa30 value="0.0188140981" flag="0"/>
    </comp>
    <comp name="--.HHE">
      <acc value="1.3650365446" flag="0"/>
      <vel value="0.3487409658" flag="0"/>
      <psa03 value="1.5588279289" flag="0"/>
      <psa10 value="0.1651266165" flag="0"/>
      <psa30 value="0.0185773047" flag="0"/>
    </comp>
    <comp name="--.HHZ">
      <acc value="1.1769147213" flag="0"/>
      <vel value="0.3019409801" flag="0"/>
      <psa03 value="1.3190078915" flag="0"/>
      <psa10 value="0.1251774157" flag="0"/>
      <psa30 value="0.0088402901" flag="0"/>
    </comp>
  </station>
  <station code="APE" name="APE" netid="HL" insttype="120" commtype="DIG" lat="37.0727" lon="25.523">
    <comp name="--.HHE">
      <acc value="0.2150287808" flag="0"/>
      <vel value="0.0546613622" flag="0"/>
      <psa03 value="0.1618736393" flag="0"/>
      <psa10 value="0.0197316838" flag="0"/>
      <psa30 value="0.0024818188" flag="0"/>
    </comp>
    <comp name="--.HHZ">
      <acc value="0.0967370800" flag="0"/>
      <vel value="0.0178717900" flag="0"/>
      <psa03 value="0.0668757659" flag="0"/>
      <psa10 value="0.0206318148" flag="0"/>
      <psa30 value="0.0026442254" flag="0"/>
    </comp>
    <comp name="--.HHN">
      <acc value="0.2454803221" flag="0"/>
      <vel value="0.0452729896" flag="0"/>
      <psa03 value="0.1191144961" flag="0"/>
      <psa10 value="0.0162915206" flag="0"/>
      <psa30 value="0.0019696802" flag="0"/>
    </comp>
  </station>
  <station code="ASTA" name="ASTA" netid="HL" insttype="LE3D20_SMART24" commtype="DIG" lat="36.5475" lon="26.3471">
    <comp name="--.HHN">
      <acc value="0.0808147891" flag="0"/>
      <vel value="0.0290517819" flag="0"/>
      <psa03 value="0.1458971855" flag="0"/>
      <psa10 value="0.0199999915" flag="0"/>
      <psa30 value="0.0013004363" flag="0"/>
    </comp>
    <comp name="--.HHZ">
      <acc value="0.0497994984" flag="0"/>
      <vel value="0.0152036647" flag="0"/>
      <psa03 value="0.0387538523" flag="0"/>
      <psa10 value="0.0085196615" flag="0"/>
      <psa30 value="0.0006978445" flag="0"/>
    </comp>
    <comp name="--.HHE">
      <acc value="0.1142837027" flag="0"/>
      <vel value="0.0240940087" flag="0"/>
      <psa03 value="0.1007069228" flag="0"/>
      <psa10 value="0.0125288099" flag="0"/>
      <psa30 value="0.0010610400" flag="0"/>
    </comp>
  </station>
  <station code="MHLO" name="MHLO" netid="HL" insttype="20" commtype="DIG" lat="36.6898" lon="24.4017">
    <comp name="--.HHE">
      <acc value="0.0588299614" flag="0"/>
      <vel value="0.0259329280" flag="0"/>
      <psa03 value="0.1065209478" flag="0"/>
      <psa10 value="0.0395344731" flag="0"/>
      <psa30 value="0.0020900895" flag="0"/>
    </comp>
    <comp name="--.HHZ">
      <acc value="0.0269099529" flag="0"/>
      <vel value="0.0131640175" flag="0"/>
      <psa03 value="0.0752667699" flag="0"/>
      <psa10 value="0.0130953620" flag="0"/>
      <psa30 value="0.0012545733" flag="0"/>
    </comp>
    <comp name="--.HHN">
      <acc value="0.0523452082" flag="0"/>
      <vel value="0.0235962211" flag="0"/>
      <psa03 value="0.2057352982" flag="0"/>
      <psa10 value="0.0341971078" flag="0"/>
      <psa30 value="0.0019791193" flag="0"/>
    </comp>
  </station>
  <station code="MILA" name="MILA" netid="HL" insttype="CMG-5" commtype="DIG" lat="36.7429" lon="24.4282">
    <comp name="00.HNE">
      <acc value="0.0887078470" flag="0"/>
      <vel value="0.0280298067" flag="0"/>
      <psa03 value="0.2017940578" flag="0"/>
      <psa10 value="0.0199319016" flag="0"/>
      <psa30 value="0.0025291671" flag="0"/>
    </comp>
    <comp name="00.HNN">
      <acc value="0.1153713047" flag="0"/>
      <vel value="0.0346937242" flag="0"/>
      <psa03 value="0.3506419800" flag="0"/>
      <psa10 value="0.0236843722" flag="0"/>
      <psa30 value="0.0018575094" flag="0"/>
    </comp>
    <comp name="00.HNZ">
      <acc value="0.0752230781" flag="0"/>
      <vel value="0.0273541897" flag="0"/>
      <psa03 value="0.1738093046" flag="0"/>
      <psa10 value="0.0247077710" flag="0"/>
      <psa30 value="0.0014501137" flag="0"/>
    </comp>
  </station>
  <station code="SANT" name="SANT" netid="HL" insttype="30" commtype="DIG" lat="36.3705" lon="25.4593">
    <comp name="--.HHE">
      <acc value="0.4054957340" flag="0"/>
      <vel value="0.1080631407" flag="0"/>
      <psa03 value="0.6460724671" flag="0"/>
      <psa10 value="0.0321441368" flag="0"/>
      <psa30 value="0.0030006110" flag="0"/>
    </comp>
    <comp name="--.HHN">
      <acc value="0.3534374099" flag="0"/>
      <vel value="0.0590488769" flag="0"/>
      <psa03 value="0.4110925277" flag="0"/>
      <psa10 value="0.0242778280" flag="0"/>
      <psa30 value="0.0021814299" flag="0"/>
    </comp>
    <comp name="--.HHZ">
      <acc value="0.3052517346" flag="0"/>
      <vel value="0.0625881484" flag="0"/>
      <psa03 value="0.3574142800" flag="0"/>
      <psa10 value="0.0136720243" flag="0"/>
      <psa30 value="0.0017580566" flag="0"/>
    </comp>
  </station>
  <station code="SAP3" name="SAP3" netid="HL" insttype="65535" commtype="DIG" lat="36.4356" lon="25.3454">
    <comp name="--.HHN">
      <acc value="0.1686603043" flag="0"/>
      <vel value="0.0479738350" flag="0"/>
      <psa03 value="0.4085589605" flag="0"/>
      <psa10 value="0.0357868794" flag="0"/>
      <psa30 value="0.0056627200" flag="0"/>
    </comp>
    <comp name="--.HHZ">
      <acc value="0.1655352676" flag="0"/>
      <vel value="0.0404669452" flag="0"/>
      <psa03 value="0.2081756971" flag="0"/>
      <psa10 value="0.0156416605" flag="0"/>
      <psa30 value="0.0019996901" flag="0"/>
    </comp>
    <comp name="--.HHE">
      <acc value="0.1273324603" flag="0"/>
      <vel value="0.0354269622" flag="0"/>
      <psa03 value="0.2535246003" flag="0"/>
      <psa10 value="0.0374748297" flag="0"/>
      <psa30 value="0.0075227582" flag="0"/>
    </comp>
  </station>
  <station code="THERA" name="THERA" netid="HL" insttype="120" commtype="DIG" lat="36.367" lon="25.4753">
    <comp name="--.HHN">
      <acc value="0.2400771016" flag="0"/>
      <vel value="0.0523671349" flag="0"/>
      <psa03 value="0.3608507947" flag="0"/>
      <psa10 value="0.0214902021" flag="0"/>
      <psa30 value="0.0017906448" flag="0"/>
    </comp>
    <comp name="--.HHE">
      <acc value="0.1424668343" flag="0"/>
      <vel value="0.0374729163" flag="0"/>
      <psa03 value="0.1666723569" flag="0"/>
      <psa10 value="0.0162217547" flag="0"/>
      <psa30 value="0.0025138504" flag="0"/>
    </comp>
    <comp name="--.HHZ">
      <acc value="0.1203607323" flag="0"/>
      <vel value="0.0276470163" flag="0"/>
      <psa03 value="0.0861938320" flag="0"/>
      <psa10 value="0.0100518863" flag="0"/>
      <psa30 value="0.0017719614" flag="0"/>
    </comp>
  </station>
  <station code="THRA" name="THRA" netid="HL" insttype="CMG-5" commtype="DIG" lat="36.415" lon="25.4324">
    <comp name="00.HNE">
      <acc value="0.3159454766" flag="0"/>
      <vel value="0.1044927289" flag="0"/>
      <psa03 value="0.6501891098" flag="0"/>
      <psa10 value="0.0788585378" flag="0"/>
      <psa30 value="0.0098519239" flag="0"/>
    </comp>
    <comp name="00.HNN">
      <acc value="0.3299150139" flag="0"/>
      <vel value="0.0876530139" flag="0"/>
      <psa03 value="0.4435667902" flag="0"/>
      <psa10 value="0.0809623501" flag="0"/>
      <psa30 value="0.0083318284" flag="0"/>
    </comp>
    <comp name="00.HNZ">
      <acc value="0.2477032540" flag="0"/>
      <vel value="0.0699843011" flag="0"/>
      <psa03 value="0.3146115944" flag="0"/>
      <psa10 value="0.0393230666" flag="0"/>
      <psa30 value="0.0031315987" flag="0"/>
    </comp>
  </station>
  <station code="TNSA" name="TNSA" netid="HL" insttype="CMG-5" commtype="DIG" lat="37.5394" lon="25.1631">
    <comp name="00.HNE">
      <acc value="0.0614393444" flag="0"/>
      <vel value="0.0154734512" flag="0"/>
      <psa03 value="0.0621949678" flag="0"/>
      <psa10 value="0.0062196240" flag="0"/>
      <psa30 value="0.0008013987" flag="0"/>
    </comp>
    <comp name="00.HNN">
      <acc value="0.1193547794" flag="0"/>
      <vel value="0.0295826599" flag="0"/>
      <psa03 value="0.1046288895" flag="0"/>
      <psa10 value="0.0127252370" flag="0"/>
      <psa30 value="0.0006902868" flag="0"/>
    </comp>
    <comp name="00.HNZ">
      <acc value="0.0579123549" flag="0"/>
      <vel value="0.0157065819" flag="0"/>
      <psa03 value="0.0742722024" flag="0"/>
      <psa10 value="0.0124245841" flag="0"/>
      <psa30 value="0.0015533578" flag="0"/>
    </comp>
  </station>
  <station code="AKRO" name="AKRO" netid="HT" insttype="Compact," commtype="DIG" lat="36.3584" lon="25.3967">
    <comp name="--.HHE">
      <acc value="0.7464289202" flag="0"/>
      <vel value="0.1571709048" flag="0"/>
      <psa03 value="0.7084710005" flag="0"/>
      <psa10 value="0.0403253516" flag="0"/>
      <psa30 value="0.0046895177" flag="0"/>
    </comp>
    <comp name="--.HHN">
      <acc value="0.6149477830" flag="0"/>
      <vel value="0.1130436168" flag="0"/>
      <psa03 value="0.5567262234" flag="0"/>
      <psa10 value="0.0467304690" flag="0"/>
      <psa30 value="0.0043756575" flag="0"/>
    </comp>
    <comp name="--.HHZ">
      <acc value="0.3279003240" flag="0"/>
      <vel value="0.0620638451" flag="0"/>
      <psa03 value="0.3093882059" flag="0"/>
      <psa10 value="0.0209400041" flag="0"/>
      <psa30 value="0.0022680578" flag="0"/>
    </comp>
  </station>
  <station code="ANYD" name="ANYD" netid="HT" insttype="120" commtype="DIG" lat="36.63" lon="25.6779">
    <comp name="--.HHN">
      <acc value="1.3059309432" flag="0"/>
      <vel value="0.4780081653" flag="0"/>
      <psa03 value="1.1327841727" flag="0"/>
      <psa10 value="0.3369837911" flag="0"/>
      <psa30 value="0.0399897078" flag="0"/>
    </comp>
    <comp name="--.HHE">
      <acc value="2.4625527738" flag="0"/>
      <vel value="0.8348087228" flag="0"/>
      <psa03 value="7.9620692635" flag="0"/>
      <psa10 value="0.3432186529" flag="0"/>
      <psa30 value="0.0333791828" flag="0"/>
    </comp>
    <comp name="--.HHZ">
      <acc value="1.8945350154" flag="0"/>
      <vel value="0.4026007973" flag="0"/>
      <psa03 value="1.4929303723" flag="0"/>
      <psa10 value="0.2631835131" flag="0"/>
      <psa30 value="0.0203656833" flag="0"/>
    </comp>
  </station>
  <station code="CHRI" name="CHRI" netid="HT" insttype="120s," commtype="DIG" lat="36.2491" lon="25.2076">
    <comp name="--.HHE">
      <acc value="0.0951653303" flag="0"/>
      <vel value="0.0394205645" flag="0"/>
      <psa03 value="0.2457406249" flag="0"/>
      <psa10 value="0.0176767035" flag="0"/>
      <psa30 value="0.0017876678" flag="0"/>
    </comp>
    <comp name="--.HHZ">
      <acc value="0.0672508223" flag="0"/>
      <vel value="0.0204293314" flag="0"/>
      <psa03 value="0.1522877885" flag="0"/>
      <psa10 value="0.0104170575" flag="0"/>
      <psa30 value="0.0006311839" flag="0"/>
    </comp>
    <comp name="--.HHN">
      <acc value="0.0528792465" flag="0"/>
      <vel value="0.0248302789" flag="0"/>
      <psa03 value="0.1420628894" flag="0"/>
      <psa10 value="0.0128215537" flag="0"/>
      <psa30 value="0.0017153292" flag="0"/>
    </comp>
  </station>
  <station code="CMBO" name="CMBO" netid="HT" insttype="120P," commtype="DIG" lat="36.4709" lon="25.4056">
    <comp name="--.HHE">
