<?xml version="1.0" encoding="UTF-8" standalone="yes"?>
<!DOCTYPE earthquake SYSTEM "stationlist.dtd">
<stationlist created="" xmlns="ch.ethz.sed.shakemap.usgs.xml">
  <station code="APE" name="APE" netid="GE" insttype="STS-2/N" commtype="DIG" lat="37.0727" lon="25.523">
    <comp name="--.HHE">
      <acc value="0.2455682462" flag="0"/>
      <vel value="0.0591438429" flag="0"/>
      <psa03 value="0.1688250840" flag="0"/>
      <psa10 value="0.0199867298" flag="0"/>
      <psa30 value="0.0024883440" flag="0"/>
    </comp>
    <comp name="--.HHN">
      <acc value="0.2668993747" flag="0"/>
      <vel value="0.0470303071" flag="0"/>
      <psa03 value="0.1225775019" flag="0"/>
      <psa10 value="0.0165717971" flag="0"/>
      <psa30 value="0.0019831359" flag="0"/>
    </comp>
    <comp name="--.HHZ">
      <acc value="0.1119106147" flag="0"/>
      <vel value="0.0189554481" flag="0"/>
      <psa03 value="0.0691704503" flag="0"/>
      <psa10 value="0.0207988080" flag="0"/>
      <psa30 value="0.0026503578" flag="0"/>
    </comp>
  </station>
  <station code="THERA" name="THERA" netid="GE" insttype="STS-2/N" commtype="DIG" lat="36.367" lon="25.4753">
    <comp name="--.HHE">
      <acc value="0.1460368225" flag="0"/>
      <vel value="0.0377374047" flag="0"/>
      <psa03 value="0.1714329040" flag="0"/>
      <psa10 value="0.0163721333" flag="0"/>
      <psa30 value="0.0025265707" flag="0"/>
    </comp>
    <comp name="--.HHN">
      <acc value="0.1207705650" flag="0"/>
      <vel value="0.0271211256" flag="0"/>
      <psa03 value="0.1857694636" flag="0"/>
      <psa10 value="0.0108552748" flag="0"/>
      <psa30 value="0.0008954096" flag="0"/>
    </comp>
    <comp name="--.HHZ">
      <acc value="0.1191519874" flag="0"/>
      <vel value="0.0284593822" flag="0"/>
      <psa03 value="0.0885135564" flag="0"/>
      <psa10 value="0.0101328987" flag="0"/>
      <psa30 value="0.0017724727" flag="0"/>
    </comp>
  </station>
  <station code="IOSI" name="IOSI" netid="HA" insttype="60s," commtype="DIG" lat="36.7225" lon="25.2887">
    <comp name="--.HHE">
      <acc value="0.5236440898" flag="0"/>
      <vel value="0.0866936052" flag="0"/>
      <psa03 value="0.1676366754" flag="0"/>
      <psa10 value="0.0228428641" flag="0"/>
      <psa30 value="0.0024966476" flag="0"/>
    </comp>
    <comp name="--.HHN">
      <acc value="0.4559010429" flag="0"/>
      <vel value="0.0779189365" flag="0"/>
      <psa03 value="0.1196630796" flag="0"/>
      <psa10 value="0.0145543699" flag="0"/>
      <psa30 value="0.0025388799" flag="0"/>
    </comp>
    <comp name="--.HHZ">
      <acc value="0.3253388759" flag="0"/>
      <vel value="0.0454799622" flag="0"/>
      <psa03 value="0.1538125663" flag="0"/>
      <psa10 value="0.0187171266" flag="0"/>
      <psa30 value="0.0022133967" flag="0"/>
    </comp>
  </station>
  <station code="SERI" name="SERI" netid="HA" insttype="30" commtype="DIG" lat="37.1609" lon="24.4853">
    <comp name="--.HHN">
      <acc value="0.0569303484" flag="0"/>
      <vel value="0.0118856608" flag="0"/>
      <psa03 value="0.0604882042" flag="0"/>
      <psa10 value="0.0086839063" flag="0"/>
      <psa30 value="0.0018480721" flag="0"/>
    </comp>
    <comp name="--.HHZ">
      <acc value="0.0255348424" flag="0"/>
      <vel value="0.0081925995" flag="0"/>
      <psa03 value="0.0368103119" flag="0"/>
      <psa10 value="0.0067806439" flag="0"/>
      <psa30 value="0.0009166821" flag="0"/>
    </comp>
    <comp name="--.HHE">
      <acc value="0.0404702647" flag="0"/>
      <vel value="0.0076757605" flag="0"/>
      <psa03 value="0.0430480542" flag="0"/>
      <psa10 value="0.0049511722" flag="0"/>
      <psa30 value="0.0007850880" flag="0"/>
    </comp>
  </station>
  <station code="SNT1" name="SNT1" netid="HA" insttype="30" commtype="DIG" lat="36.4159" lon="25.4282">
    <comp name="--.HHN">
      <acc value="0.0543861579" flag="0"/>
      <vel value="0.0126769337" flag="0"/>
      <psa03 value="0.0650938870" flag="0"/>
      <psa10 value="0.0116377361" flag="0"/>
      <psa30 value="0.0025348738" flag="0"/>
    </comp>
    <comp name="--.HHE">
      <acc value="0.0641950542" flag="0"/>
      <vel value="0.0151600248" flag="0"/>
      <psa03 value="0.1044744016" flag="0"/>
      <psa10 value="0.0192565436" flag="0"/>
      <psa30 value="0.0029946451" flag="0"/>
    </comp>
    <comp name="--.HHZ">
      <acc value="0.0351579872" flag="0"/>
      <vel value="0.0099593952" flag="0"/>
      <psa03 value="0.0450104959" flag="0"/>
      <psa10 value="0.0141820103" flag="0"/>
      <psa30 value="0.0008058670" flag="0"/>
    </comp>
  </station>
  <station code="SNT5" name="SNT5" netid="HA" insttype="1s-100Hz," commtype="DIG" lat="36.4037" lon="25.3953">
    <comp name="--.HHE">
      <acc value="0.1588588733" flag="0"/>
      <vel value="0.0426452586" flag="0"/>
      <psa03 value="0.2268945742" flag="0"/>
      <psa10 value="0.0204943091" flag="0"/>
      <psa30 value="0.0043058981" flag="0"/>
    </comp>
    <comp name="--.HHN">
      <acc value="0.1417850376" flag="0"/>
      <vel value="0.0299783242" flag="0"/>
      <psa03 value="0.1744352287" flag="0"/>
      <psa10 value="0.0107237498" flag="0"/>
      <psa30 value="0.0039148673" flag="0"/>
    </comp>
    <comp name="--.HHZ">
      <acc value="0.0726226868" flag="0"/>
      <vel value="0.0134737866" flag="0"/>
      <psa03 value="0.0519742146" flag="0"/>
      <psa10 value="0.0072214529" flag="0"/>
      <psa30 value="0.0008176794" flag="0"/>
    </comp>
  </station>
  <station code="THNO" name="THNO" netid="HC" insttype="60" commtype="DIG" lat="37.6541" lon="25.0221">
    <comp name="--.HHN">
      <acc value="0.0000000000" flag="0"/>
      <vel value="-100.0000000000" flag="0"/>
      <psa03 value="0.0000000000" flag="0"/>
      <psa10 value="0.0000000000" flag="0"/>
      <psa30 value="0.0000000000" flag="0"/>
    </comp>
    <comp name="--.HHE">
      <acc value="0.0000000000" flag="0"/>
      <vel value="-100.0000000000" flag="0"/>
      <psa03 value="0.0000000000" flag="0"/>
      <psa10 value="0.0000000000" flag="0"/>
      <psa30 value="0.0000000000" flag="0"/>
    </comp>
    <comp name="--.HHZ">
      <acc value="0.0382522553" flag="0"/>
      <vel value="0.0140893074" flag="0"/>
      <psa03 value="0.0669006459" flag="0"/>
      <psa10 value="0.0063600529" flag="0"/>
      <psa30 value="0.0010739897" flag="0"/>
    </comp>
  </station>
  <station code="NAX1" name="NAX1" netid="HI" insttype="CMG-5TD,ACCELEROMETER,GURALP" commtype="DIG" lat="37.1014" lon="25.3741">
    <comp name="--.HNZ">
      <acc value="0.0838310816" flag="0"/>
      <vel value="0.0157329376" flag="0"/>
      <psa03 value="0.0604683976" flag="0"/>
      <psa10 value="0.0141907983" flag="0"/>
      <psa30 value="0.0028222344" flag="0"/>
    </comp>
    <comp name="--.HNN">
      <acc value="0.1299069563" flag="0"/>
      <vel value="0.0276483449" flag="0"/>
      <psa03 value="0.0974030557" flag="0"/>
      <psa10 value="0.0091019484" flag="0"/>
      <psa30 value="0.0019149291" flag="0"/>
    </comp>
    <comp name="--.HNE">
      <acc value="0.1402844224" flag="0"/>
      <vel value="0.0268136171" flag="0"/>
      <psa03 value="0.0836641065" flag="0"/>
      <psa10 value="0.0111353368" flag="0"/>
      <psa30 value="0.0019049072" flag="0"/>
    </comp>
  </station>
  <station code="SFR2" name="SFR2" netid="HI" insttype="unknown" commtype="DIG" lat="36.3998" lon="25.4382">
    <comp name="--.HNN">
      <acc value="0.2845555644" flag="0"/>
      <vel value="0.0914996311" flag="0"/>
      <psa03 value="0.5248693718" flag="0"/>
      <psa10 value="0.0712639476" flag="0"/>
      <psa30 value="0.0041091274" flag="0"/>
    </comp>
    <comp name="--.HNE">
      <acc value="0.3182146266" flag="0"/>
      <vel value="0.1051332839" flag="0"/>
      <psa03 value="0.6545025116" flag="0"/>
      <psa10 value="0.0633813856" flag="0"/>
      <psa30 value="0.0071406596" flag="0"/>
    </comp>
    <comp name="--.HNZ">
      <acc value="0.3760416770" flag="0"/>
      <vel value="0.0929851169" flag="0"/>
      <psa03 value="0.4757312840" flag="0"/>
      <psa10 value="0.0289689879" flag="0"/>
      <psa30 value="0.0023342997" flag="0"/>
    </comp>
  </station>
  <station code="AMGA" name="AMGA" netid="HL" insttype="LE3D20_SMART24" commtype="DIG" lat="36.8316" lon="25.8938">
    <comp name="--.HHE">
      <acc value="1.3650365442" flag="0"/>
      <vel value="0.3487409631" flag="0"/>
      <psa03 value="1.5588279289" flag="0"/>
      <psa10 value="0.1651266067" flag="0"/>
      <psa30 value="0.0185777136" flag="0"/>
    </comp>
    <comp name="--.HHZ">
      <acc value="1.1769147208" flag="0"/>
      <vel value="0.3019409826" flag="0"/>
      <psa03 value="1.3190078915" flag="0"/>
      <psa10 value="0.1251774231" flag="0"/>
      <psa30 value="0.0088404225" flag="0"/>
    </comp>
    <comp name="--.HHN">
      <acc value="1.2794448541" flag="0"/>
      <vel value="0.4637807650" flag="0"/>
      <psa03 value="0.9260826810" flag="0"/>
      <psa10 value="0.3012678923" flag="0"/>
      <psa30 value="0.0188141124" flag="0"/>
    </comp>
  </station>
  <station code="APE" name="APE" netid="HL" insttype="120" commtype="DIG" lat="37.0727" lon="25.523">
    <comp name="--.HHN">
      <acc value="0.2454803219" flag="0"/>
      <vel value="0.0452729896" flag="0"/>
      <psa03 value="0.1191144961" flag="0"/>
      <psa10 value="0.0162915208" flag="0"/>
      <psa30 value="0.0019696994" flag="0"/>
    </comp>
    <comp name="--.HHE">
      <acc value="0.2150287808" flag="0"/>
      <vel value="0.0546613620" flag="0"/>
      <psa03 value="0.1618736393" flag="0"/>
      <psa10 value="0.0197316839" flag="0"/>
      <psa30 value="0.0024818343" flag="0"/>
    </comp>
    <comp name="--.HHZ">
      <acc value="0.0967370798" flag="0"/>
      <vel value="0.0178717900" flag="0"/>
      <psa03 value="0.0668757659" flag="0"/>
      <psa10 value="0.0206318149" flag="0"/>
      <psa30 value="0.0026442266" flag="0"/>
    </comp>
  </station>
  <station code="ASTA" name="ASTA" netid="HL" insttype="LE3D20_SMART24" commtype="DIG" lat="36.5475" lon="26.3471">
    <comp name="--.HHE">
      <acc value="0.1142837023" flag="0"/>
      <vel value="0.0240940120" flag="0"/>
      <psa03 value="0.1007069228" flag="0"/>
      <psa10 value="0.0125288098" flag="0"/>
      <psa30 value="0.0010610191" flag="0"/>
    </comp>
    <comp name="--.HHN">
      <acc value="0.0808147886" flag="0"/>
      <vel value="0.0290517832" flag="0"/>
      <psa03 value="0.1458971855" flag="0"/>
      <psa10 value="0.0199999913" flag="0"/>
      <psa30 value="0.0013005584" flag="0"/>
    </comp>
    <comp name="--.HHZ">
      <acc value="0.0497994988" flag="0"/>
      <vel value="0.0152036649" flag="0"/>
      <psa03 value="0.0387538523" flag="0"/>
      <psa10 value="0.0085196618" flag="0"/>
      <psa30 value="0.0006977284" flag="0"/>
    </comp>
  </station>
  <station code="MHLO" name="MHLO" netid="HL" insttype="20" commtype="DIG" lat="36.6898" lon="24.4017">
    <comp name="--.HHE">
      <acc value="0.0588299614" flag="0"/>
      <vel value="0.0259329207" flag="0"/>
      <psa03 value="0.1065209478" flag="0"/>
      <psa10 value="0.0395344731" flag="0"/>
      <psa30 value="0.0020901311" flag="0"/>
    </comp>
    <comp name="--.HHN">
      <acc value="0.0523452086" flag="0"/>
      <vel value="0.0235962199" flag="0"/>
      <psa03 value="0.2057352982" flag="0"/>
      <psa10 value="0.0341971076" flag="0"/>
      <psa30 value="0.0019791490" flag="0"/>
    </comp>
    <comp name="--.HHZ">
      <acc value="0.0269099522" flag="0"/>
      <vel value="0.0131640186" flag="0"/>
      <psa03 value="0.0752667699" flag="0"/>
      <psa10 value="0.0130953620" flag="0"/>
      <psa30 value="0.0012546309" flag="0"/>
    </comp>
  </station>
  <station code="MILA" name="MILA" netid="HL" insttype="CMG-5" commtype="DIG" lat="36.7429" lon="24.4282">
    <comp name="00.HNE">
      <acc value="0.0887078459" flag="0"/>
      <vel value="0.0280298069" flag="0"/>
      <psa03 value="0.2017940578" flag="0"/>
      <psa10 value="0.0199319016" flag="0"/>
      <psa30 value="0.0025290661" flag="0"/>
    </comp>
    <comp name="00.HNN">
      <acc value="0.1153713036" flag="0"/>
      <vel value="0.0346937221" flag="0"/>
      <psa03 value="0.3506419800" flag="0"/>
      <psa10 value="0.0236843722" flag="0"/>
      <psa30 value="0.0018574712" flag="0"/>
    </comp>
    <comp name="00.HNZ">
      <acc value="0.0752230802" flag="0"/>
      <vel value="0.0273541832" flag="0"/>
      <psa03 value="0.1738093046" flag="0"/>
      <psa10 value="0.0247077710" flag="0"/>
      <psa30 value="0.0014498299" flag="0"/>
    </comp>
  </station>
  <station code="SANT" name="SANT" netid="HL" insttype="30" commtype="DIG" lat="36.3705" lon="25.4593">
    <comp name="--.HHN">
      <acc value="0.3534374106" flag="0"/>
      <vel value="0.0590489461" flag="0"/>
      <psa03 value="0.4110925279" flag="0"/>
      <psa10 value="0.0242778229" flag="0"/>
      <psa30 value="0.0021799220" flag="0"/>
    </comp>
    <comp name="--.HHE">
      <acc value="0.4054957339" flag="0"/>
      <vel value="0.1080631408" flag="0"/>
      <psa03 value="0.6460724671" flag="0"/>
      <psa10 value="0.0321441358" flag="0"/>
      <psa30 value="0.0030007857" flag="0"/>
    </comp>
    <comp name="--.HHZ">
      <acc value="0.3052517344" flag="0"/>
      <vel value="0.0625881447" flag="0"/>
      <psa03 value="0.3574142800" flag="0"/>
      <psa10 value="0.0136720260" flag="0"/>
      <psa30 value="0.0017586541" flag="0"/>
    </comp>
  </station>
  <station code="SAP3" name="SAP3" netid="HL" insttype="65535" commtype="DIG" lat="36.4356" lon="25.3454">
    <comp name="--.HHE">
      <acc value="0.1273324606" flag="0"/>
      <vel value="0.0354269611" flag="0"/>
      <psa03 value="0.2535246003" flag="0"/>
      <psa10 value="0.0374748299" flag="0"/>
      <psa30 value="0.0076011985" flag="0"/>
    </comp>
    <comp name="--.HHN">
      <acc value="0.1686603044" flag="0"/>
      <vel value="0.0479738419" flag="0"/>
      <psa03 value="0.4085589605" flag="0"/>
      <psa10 value="0.0357868796" flag="0"/>
      <psa30 value="0.0056623990" flag="0"/>
    </comp>
    <comp name="--.HHZ">
      <acc value="0.1655352673" flag="0"/>
      <vel value="0.0404669414" flag="0"/>
      <psa03 value="0.2081756971" flag="0"/>
      <psa10 value="0.0156416606" flag="0"/>
      <psa30 value="0.0019997742" flag="0"/>
    </comp>
  </station>
  <station code="THERA" name="THERA" netid="HL" insttype="120" commtype="DIG" lat="36.367" lon="25.4753">
    <comp name="--.HHE">
      <acc value="0.1424668343" flag="0"/>
      <vel value="0.0374729167" flag="0"/>
      <psa03 value="0.1666723569" flag="0"/>
      <psa10 value="0.0162217508" flag="0"/>
      <psa30 value="0.0025137932" flag="0"/>
    </comp>
    <comp name="--.HHN">
      <acc value="0.2400771014" flag="0"/>
      <vel value="0.0523671358" flag="0"/>
      <psa03 value="0.3608507947" flag="0"/>
      <psa10 value="0.0214901987" flag="0"/>
      <psa30 value="0.0017906204" flag="0"/>
    </comp>
    <comp name="--.HHZ">
      <acc value="0.1203607325" flag="0"/>
      <vel value="0.0276470165" flag="0"/>
      <psa03 value="0.0861938320" flag="0"/>
      <psa10 value="0.0100518871" flag="0"/>
      <psa30 value="0.0017719133" flag="0"/>
    </comp>
  </station>
  <station code="THRA" name="THRA" netid="HL" insttype="CMG-5" commtype="DIG" lat="36.415" lon="25.4324">
    <comp name="00.HNN">
      <acc value="0.3299150170" flag="0"/>
      <vel value="0.0876530095" flag="0"/>
      <psa03 value="0.4435667902" flag="0"/>
      <psa10 value="0.0809623488" flag="0"/>
      <psa30 value="0.0083315898" flag="0"/>
    </comp>
    <comp name="00.HNZ">
      <acc value="0.2477032559" flag="0"/>
      <vel value="0.0699842994" flag="0"/>
      <psa03 value="0.3146115944" flag="0"/>
      <psa10 value="0.0393230659" flag="0"/>
      <psa30 value="0.0031314910" flag="0"/>
    </comp>
    <comp name="00.HNE">
      <acc value="0.3159454761" flag="0"/>
      <vel value="0.1044927260" flag="0"/>
      <psa03 value="0.6501891098" flag="0"/>
      <psa10 value="0.0788585395" flag="0"/>
      <psa30 value="0.0098511208" flag="0"/>
    </comp>
  </station>
  <station code="TNSA" name="TNSA" netid="HL" insttype="CMG-5" commtype="DIG" lat="37.5394" lon="25.1631">
    <comp name="00.HNN">
      <acc value="0.1193547777" flag="0"/>
      <vel value="0.0295826582" flag="0"/>
      <psa03 value="0.1046288895" flag="0"/>
      <psa10 value="0.0127252372" flag="0"/>
      <psa30 value="0.0006899599" flag="0"/>
    </comp>
    <comp name="00.HNE">
      <acc value="0.0614393438" flag="0"/>
      <vel value="0.0154734522" flag="0"/>
      <psa03 value="0.0621949678" flag="0"/>
      <psa10 value="0.0062196239" flag="0"/>
      <psa30 value="0.0008010137" flag="0"/>
    </comp>
    <comp name="00.HNZ">
      <acc value="0.0579123568" flag="0"/>
      <vel value="0.0157065786" flag="0"/>
      <psa03 value="0.0742722024" flag="0"/>
      <psa10 value="0.0124245846" flag="0"/>
      <psa30 value="0.0015542138" flag="0"/>
    </comp>
  </station>
  <station code="AKRO" name="AKRO" netid="HT" insttype="Compact," commtype="DIG" lat="36.3584" lon="25.3967">
    <comp name="--.HHN">
      <acc value="0.6149477836" flag="0"/>
      <vel value="0.1130436188" flag="0"/>
      <psa03 value="0.5567262234" flag="0"/>
      <psa10 value="0.0467304711" flag="0"/>
      <psa30 value="0.0043765360" flag="0"/>
    </comp>
    <comp name="--.HHE">
      <acc value="0.7464289200" flag="0"/>
      <vel value="0.1571709088" flag="0"/>
      <psa03 value="0.7084710005" flag="0"/>
      <psa10 value="0.0403253527" flag="0"/>
      <psa30 value="0.0046906698" flag="0"/>
    </comp>
    <comp name="--.HHZ">
      <acc value="0.3279003242" flag="0"/>
      <vel value="0.0620638442" flag="0"/>
      <psa03 value="0.3093882059" flag="0"/>
      <psa10 value="0.0209400037" flag="0"/>
      <psa30 value="0.0022679363" flag="0"/>
    </comp>
  </station>
  <station code="ANYD" name="ANYD" netid="HT" insttype="120" commtype="DIG" lat="36.63" lon="25.6779">
    <comp name="--.HHN">
      <acc value="1.3059309430" flag="0"/>
      <vel value="0.4780081652" flag="0"/>
      <psa03 value="1.1327841727" flag="0"/>
      <psa10 value="0.3369838017" flag="0"/>
      <psa30 value="0.0399897654" flag="0"/>
    </comp>
    <comp name="--.HHE">
      <acc value="2.4625527739" flag="0"/>
      <vel value="0.8348087217" flag="0"/>
      <psa03 value="7.9620692635" flag="0"/>
      <psa10 value="0.3432186528" flag="0"/>
      <psa30 value="0.0333788804" flag="0"/>
    </comp>
    <comp name="--.HHZ">
      <acc value="1.8945350153" flag="0"/>
      <vel value="0.4026007965" flag="0"/>
      <psa03 value="1.4929303723" flag="0"/>
      <psa10 value="0.2631835067" flag="0"/>
      <psa30 value="0.0203653122" flag="0"/>
    </comp>
  </station>
  <station code="CHRI" name="CHRI" netid="HT" insttype="120s," commtype="DIG" lat="36.2491" lon="25.2076">
    <comp name="--.HHE">
      <acc value="0.0951653311" flag="0"/>
      <vel value="0.0394205653" flag="0"/>
      <psa03 value="0.2457406249" flag="0"/>
      <psa10 value="0.0176767046" flag="0"/>
      <psa30 value="0.0017877769" flag="0"/>
    </comp>
    <comp name="--.HHN">
      <acc value="0.0528792464" flag="0"/>
      <vel value="0.0248302791" flag="0"/>
      <psa03 value="0.1420628894" flag="0"/>
      <psa10 value="0.0128215534" flag="0"/>
      <psa30 value="0.0017152608" flag="0"/>
    </comp>
    <comp name="--.HHZ">
      <acc value="0.0672508222" flag="0"/>
      <vel value="0.0204293302" flag="0"/>
      <psa03 value="0.1522877885" flag="0"/>
      <psa10 value="0.0104170570" flag="0"/>
      <psa30 value="0.0006311878" flag="0"/>
    </comp>
  </station>
  <station code="CMBO" name="CMBO" netid="HT" insttype="120P," commtype="DIG" lat="36.4709" lon="25.4056">
    <comp name="--.HHZ">
