<stationlist xmlns:esm="https://esm-db.eu/esmws/shakemap/1/" created="1779933272">
	<station code="MALA" name="MALA" netid="CL" source="Corinth Riff Laboratory (CRLNET)" insttype="" lat="38.39341" lon="21.87263" esm:processing="automatic (Paolucci et al 2011)" esm:quality="best">
		<comp name="01.HNE" depth="0.0">
			<acc value="0.0137634182665795" flag="0"/>
			<vel value="0.0182896694316397" flag="0"/>
			<psa03 value="0.0231198649109328" flag="0"/>
			<psa10 value="0.0307002181137724" flag="0"/>
			<psa30 value="0.00508408721249039" flag="0"/>
		</comp>
		<comp name="01.HNN" depth="0.0">
			<acc value="0.0107048987922901" flag="0"/>
			<vel value="0.0107305354988478" flag="0"/>
			<psa03 value="0.0280863084967774" flag="0"/>
			<psa10 value="0.0148890825786377" flag="0"/>
			<psa30 value="0.0030205821820769" flag="0"/>
		</comp>
		<comp name="01.HNZ" depth="0.0">
			<acc value="0.00603742012185543" flag="0"/>
			<vel value="0.00918865891811515" flag="0"/>
			<psa03 value="0.0101868480057581" flag="0"/>
			<psa10 value="0.0109472030109775" flag="0"/>
			<psa30 value="0.00211413796793308" flag="0"/>
		</comp>
	</station>
	<station code="ATHU" name="ATHU" netid="HA" source="Hellenic Seismological Network, University of Athens, Seismological Laboratory (HA)" insttype="" lat="37.9665" lon="23.7845" esm:processing="automatic (Paolucci et al 2011)" esm:quality="best">
		<comp name="--.HNE" depth="0.0">
			<acc value="0.00671770501397293" flag="0"/>
			<vel value="0.00369333838320549" flag="0"/>
			<psa03 value="0.0154461026555732" flag="0"/>
			<psa10 value="0.00165574581784845" flag="0"/>
			<psa30 value="0.000181872881519095" flag="0"/>
		</comp>
		<comp name="--.HNN" depth="0.0">
			<acc value="0.00475495205098348" flag="0"/>
			<vel value="0.00185502041216745" flag="0"/>
			<psa03 value="0.00906637404030105" flag="0"/>
			<psa10 value="0.00111795222290945" flag="0"/>
			<psa30 value="0.000216850146507951" flag="0"/>
		</comp>
		<comp name="--.HNZ" depth="0.0">
			<acc value="0.00810256468858307" flag="0"/>
			<vel value="0.00388193872995228" flag="0"/>
			<psa03 value="0.0177031662374601" flag="0"/>
			<psa10 value="0.0019336803624585" flag="0"/>
			<psa30 value="0.000177113712080956" flag="0"/>
		</comp>
	</station>
	<station code="AKR1" name="AKR1" netid="HI" source="ITSAK Strong Motion Network" insttype="" lat="38.153583" lon="22.31326" esm:processing="automatic (Paolucci et al 2011)" esm:quality="best">
		<comp name="--.HNE" depth="0.0">
			<acc value="0.0291877820199903" flag="0"/>
			<vel value="0.0198918355565184" flag="0"/>
			<psa03 value="0.0738043735524419" flag="0"/>
			<psa10 value="0.0231554008066449" flag="0"/>
			<psa30 value="0.00360315119108114" flag="0"/>
		</comp>
		<comp name="--.HNN" depth="0.0">
			<acc value="0.0262137467086786" flag="0"/>
			<vel value="0.0118191369474233" flag="0"/>
			<psa03 value="0.0899554174384203" flag="0"/>
			<psa10 value="0.0163025830911318" flag="0"/>
			<psa30 value="0.00356694254243641" flag="0"/>
		</comp>
		<comp name="--.HNZ" depth="0.0">
			<acc value="0.0119240470901518" flag="0"/>
			<vel value="0.00900188308267946" flag="0"/>
			<psa03 value="0.034126669578539" flag="0"/>
			<psa10 value="0.0131297472813347" flag="0"/>
			<psa30 value="0.00388521987674782" flag="0"/>
		</comp>
	</station>
	<station code="ARS1" name="ARS1" netid="HI" source="ITSAK Strong Motion Network" insttype="" lat="37.6349" lon="22.7293" esm:processing="automatic (Paolucci et al 2011)" esm:quality="best">
		<comp name="--.HNE" depth="0.0">
			<acc value="0.0386436751511534" flag="0"/>
			<vel value="0.0441674670637892" flag="0"/>
			<psa03 value="0.0903075032621896" flag="0"/>
			<psa10 value="0.0889478148563885" flag="0"/>
			<psa30 value="0.00635797285117269" flag="0"/>
		</comp>
		<comp name="--.HNN" depth="0.0">
			<acc value="0.0445934313586708" flag="0"/>
			<vel value="0.035841400741268" flag="0"/>
			<psa03 value="0.184344941114228" flag="0"/>
			<psa10 value="0.0498450282385694" flag="0"/>
			<psa30 value="0.00713303002823985" flag="0"/>
		</comp>
		<comp name="--.HNZ" depth="0.0">
			<acc value="0.0215318695239643" flag="0"/>
			<vel value="0.0195390486387255" flag="0"/>
			<psa03 value="0.0669851822313822" flag="0"/>
			<psa10 value="0.0188257652395596" flag="0"/>
			<psa30 value="0.00550584681864653" flag="0"/>
		</comp>
	</station>
	<station code="ATH5" name="ATH5" netid="HI" source="ITSAK Strong Motion Network" insttype="" lat="37.975421" lon="23.737098" esm:processing="automatic (Paolucci et al 2011)" esm:quality="best">
		<comp name="--.HNE" depth="0.0">
			<acc value="0.211557595683914" flag="0"/>
			<vel value="0.0896040210438382" flag="0"/>
			<psa03 value="0.598358721663941" flag="0"/>
			<psa10 value="0.0443248913064156" flag="0"/>
			<psa30 value="0.00530635318653483" flag="0"/>
		</comp>
		<comp name="--.HNN" depth="0.0">
			<acc value="0.178629163812973" flag="0"/>
			<vel value="0.0652954708824999" flag="0"/>
			<psa03 value="0.261330624371268" flag="0"/>
			<psa10 value="0.0433244300306668" flag="0"/>
			<psa30 value="0.00419809310306368" flag="0"/>
		</comp>
		<comp name="--.HNZ" depth="0.0">
			<acc value="0.192096870466808" flag="0"/>
			<vel value="0.077713875846432" flag="0"/>
			<psa03 value="0.35506689643913" flag="0"/>
			<psa10 value="0.0316837826451141" flag="0"/>
			<psa30 value="0.00368309815384364" flag="0"/>
		</comp>
	</station>
	<station code="FRS1" name="FRS1" netid="HI" source="ITSAK Strong Motion Network" insttype="" lat="39.2934" lon="22.3844" esm:processing="automatic (Paolucci et al 2011)" esm:quality="best">
		<comp name="--.HNE" depth="0.0">
			<acc value="0.0150767108845003" flag="0"/>
			<vel value="0.00822608778792973" flag="0"/>
			<psa03 value="0.0303863098188907" flag="0"/>
			<psa10 value="0.00921833566949958" flag="0"/>
			<psa30 value="0.00208040302482399" flag="0"/>
		</comp>
		<comp name="--.HNN" depth="0.0">
			<acc value="0.0220830139747601" flag="0"/>
			<vel value="0.0221584919653864" flag="0"/>
			<psa03 value="0.0531790228494908" flag="0"/>
			<psa10 value="0.0245862274668923" flag="0"/>
			<psa30 value="0.00284623104884012" flag="0"/>
		</comp>
		<comp name="--.HNZ" depth="0.0">
			<acc value="0.0113839708459332" flag="0"/>
			<vel value="0.00774071752658174" flag="0"/>
			<psa03 value="0.0476409320196064" flag="0"/>
			<psa10 value="0.00686900613171184" flag="0"/>
			<psa30 value="0.00107281127681332" flag="0"/>
		</comp>
	</station>
	<station code="KIF1" name="KIF1" netid="HI" source="ITSAK Strong Motion Network" insttype="" lat="38.077273" lon="23.814551" esm:processing="automatic (Paolucci et al 2011)" esm:quality="best">
		<comp name="--.HNE" depth="0.0">
			<acc value="0.358467644552152" flag="0"/>
			<vel value="0.182960350672759" flag="0"/>
			<psa03 value="1.13793188240472" flag="0"/>
			<psa10 value="0.0765742976714813" flag="0"/>
			<psa30 value="0.00478738172385878" flag="0"/>
		</comp>
		<comp name="--.HNN" depth="0.0">
			<acc value="0.210463773411686" flag="0"/>
			<vel value="0.0895739336753006" flag="0"/>
			<psa03 value="0.679712485951613" flag="0"/>
			<psa10 value="0.0543218235540325" flag="0"/>
			<psa30 value="0.00702799640358771" flag="0"/>
		</comp>
		<comp name="--.HNZ" depth="0.0">
			<acc value="0.252488409648585" flag="0"/>
			<vel value="0.0651340286239335" flag="0"/>
			<psa03 value="0.240460658505383" flag="0"/>
			<psa10 value="0.03869385952831" flag="0"/>
			<psa30 value="0.00448940781791981" flag="0"/>
		</comp>
	</station>
	<station code="KMV1" name="KMV1" netid="HI" source="ITSAK Strong Motion Network" insttype="" lat="38.7794" lon="22.7846" esm:processing="automatic (Paolucci et al 2011)" esm:quality="best">
		<comp name="--.HNE" depth="0.0">
			<acc value="0.148018522281078" flag="0"/>
			<vel value="0.0579714411709377" flag="0"/>
			<psa03 value="0.469609692668827" flag="0"/>
			<psa10 value="0.0556232985206564" flag="0"/>
			<psa30 value="0.00575058469799925" flag="0"/>
		</comp>
		<comp name="--.HNN" depth="0.0">
			<acc value="0.236160265113884" flag="0"/>
			<vel value="0.0757773135263858" flag="0"/>
			<psa03 value="0.555735231399508" flag="0"/>
			<psa10 value="0.0503874379204104" flag="0"/>
			<psa30 value="0.00606834449802999" flag="0"/>
		</comp>
		<comp name="--.HNZ" depth="0.0">
			<acc value="0.116356069713427" flag="0"/>
			<vel value="0.032110430170914" flag="0"/>
			<psa03 value="0.19509552828773" flag="0"/>
			<psa10 value="0.0270905964940655" flag="0"/>
			<psa30 value="0.00386616528114194" flag="0"/>
		</comp>
	</station>
	<station code="KOR2" name="KOR2" netid="HI" source="ITSAK Strong Motion Network" insttype="" lat="37.9401" lon="22.9495" esm:processing="automatic (Paolucci et al 2011)" esm:quality="best">
		<comp name="--.HNE" depth="0.0">
			<acc value="0.199885742712061" flag="0"/>
			<vel value="0.114803518820228" flag="0"/>
			<psa03 value="0.566441523972796" flag="0"/>
			<psa10 value="0.123131936886395" flag="0"/>
			<psa30 value="0.0165719294756782" flag="0"/>
		</comp>
		<comp name="--.HNN" depth="0.0">
			<acc value="0.226067098995367" flag="0"/>
			<vel value="0.150836272438626" flag="0"/>
			<psa03 value="0.415519151104585" flag="0"/>
			<psa10 value="0.144671143753435" flag="0"/>
			<psa30 value="0.0135952989551865" flag="0"/>
		</comp>
		<comp name="--.HNZ" depth="0.0">
			<acc value="0.140768994493507" flag="0"/>
			<vel value="0.0711774692924785" flag="0"/>
			<psa03 value="0.338931702561724" flag="0"/>
			<psa10 value="0.0858733086853864" flag="0"/>
			<psa30 value="0.0065156553801872" flag="0"/>
		</comp>
	</station>
	<station code="LAM2" name="LAM2" netid="HI" source="ITSAK Strong Motion Network" insttype="" lat="38.90203" lon="22.431301" esm:processing="automatic (Paolucci et al 2011)" esm:quality="best">
		<comp name="--.HNE" depth="0.0">
			<acc value="0.0338755105158613" flag="0"/>
			<vel value="0.0171125938949438" flag="0"/>
			<psa03 value="0.0831594672400361" flag="0"/>
			<psa10 value="0.0122907923296794" flag="0"/>
			<psa30 value="0.00194989417091997" flag="0"/>
		</comp>
		<comp name="--.HNN" depth="0.0">
			<acc value="0.0281967544619451" flag="0"/>
			<vel value="0.0162270655623884" flag="0"/>
			<psa03 value="0.0517361876853191" flag="0"/>
			<psa10 value="0.0163947923245275" flag="0"/>
			<psa30 value="0.00588310264336327" flag="0"/>
		</comp>
		<comp name="--.HNZ" depth="0.0">
			<acc value="0.0231462478200671" flag="0"/>
			<vel value="0.009707187102419" flag="0"/>
			<psa03 value="0.0321746756851999" flag="0"/>
			<psa10 value="0.00832492804813327" flag="0"/>
			<psa30 value="0.0014566869150237" flag="0"/>
		</comp>
	</station>
	<station code="LEO1" name="LEO1" netid="HI" source="ITSAK Strong Motion Network" insttype="" lat="37.1689" lon="22.8637" esm:processing="automatic (Paolucci et al 2011)" esm:quality="best">
		<comp name="--.HNE" depth="0.0">
			<acc value="0.0193566907266316" flag="0"/>
			<vel value="0.0130486692232517" flag="0"/>
			<psa03 value="0.0576578403824485" flag="0"/>
			<psa10 value="0.0103299936863715" flag="0"/>
			<psa30 value="0.00445783155946274" flag="0"/>
		</comp>
		<comp name="--.HNN" depth="0.0">
			<acc value="0.0221872511767671" flag="0"/>
			<vel value="0.0109376061559777" flag="0"/>
			<psa03 value="0.0562855307236889" flag="0"/>
			<psa10 value="0.0123674220935342" flag="0"/>
			<psa30 value="0.00303854191348887" flag="0"/>
		</comp>
		<comp name="--.HNZ" depth="0.0">
			<acc value="0.0118547362638776" flag="0"/>
			<vel value="0.00590909929155947" flag="0"/>
			<psa03 value="0.0218364986442133" flag="0"/>
			<psa10 value="0.00597460844475733" flag="0"/>
			<psa30 value="0.00352025819983098" flag="0"/>
		</comp>
	</station>
	<station code="NMA1" name="NMA1" netid="HI" source="ITSAK Strong Motion Network" insttype="" lat="37.81873" lon="22.662702" esm:processing="automatic (Paolucci et al 2011)" esm:quality="best">
		<comp name="--.HNE" depth="0.0">
			<acc value="0.0501575293818033" flag="0"/>
			<vel value="0.0402932852034672" flag="0"/>
			<psa03 value="0.163996791066024" flag="0"/>
			<psa10 value="0.0442278198759957" flag="0"/>
			<psa30 value="0.0109147413813646" flag="0"/>
		</comp>
		<comp name="--.HNN" depth="0.0">
			<acc value="0.0606208004594354" flag="0"/>
			<vel value="0.0324330425091412" flag="0"/>
			<psa03 value="0.133367512026671" flag="0"/>
			<psa10 value="0.0380113255637535" flag="0"/>
			<psa30 value="0.00863374527660176" flag="0"/>
		</comp>
		<comp name="--.HNZ" depth="0.0">
			<acc value="0.024219566329919" flag="0"/>
			<vel value="0.0185881533832246" flag="0"/>
			<psa03 value="0.0541282263544244" flag="0"/>
			<psa10 value="0.0261797080271827" flag="0"/>
			<psa30 value="0.00360718104137267" flag="0"/>
		</comp>
	</station>
	<station code="PER1" name="PER1" netid="HI" source="ITSAK Strong Motion Network" insttype="" lat="38.0119" lon="23.7027" esm:processing="automatic (Paolucci et al 2011)" esm:quality="best">
		<comp name="--.HNE" depth="0.0">
			<acc value="0.182697168865467" flag="0"/>
			<vel value="0.0569178189828592" flag="0"/>
			<psa03 value="0.285844185774336" flag="0"/>
			<psa10 value="0.0212881708618578" flag="0"/>
			<psa30 value="0.00394624808623697" flag="0"/>
		</comp>
		<comp name="--.HNN" depth="0.0">
			<acc value="0.203141664295741" flag="0"/>
			<vel value="0.0766633229392823" flag="0"/>
			<psa03 value="0.383347269875062" flag="0"/>
			<psa10 value="0.0337766275357886" flag="0"/>
			<psa30 value="0.0029140951278358" flag="0"/>
		</comp>
		<comp name="--.HNZ" depth="0.0">
			<acc value="0.118894910021698" flag="0"/>
			<vel value="0.0404081990390068" flag="0"/>
			<psa03 value="0.178928082273902" flag="0"/>
			<psa10 value="0.0294291239100191" flag="0"/>
			<psa30 value="0.00379054735515792" flag="0"/>
		</comp>
	</station>
	<station code="PIR1" name="PIR1" netid="HI" source="ITSAK Strong Motion Network" insttype="" lat="37.93723" lon="23.642595" esm:processing="automatic (Paolucci et al 2011)" esm:quality="best">
		<comp name="--.HNE" depth="0.0">
			<acc value="0.338082905627321" flag="0"/>
			<vel value="0.103411828146521" flag="0"/>
			<psa03 value="0.486483643821054" flag="0"/>
			<psa10 value="0.0572272535247834" flag="0"/>
			<psa30 value="0.00538941910589456" flag="0"/>
		</comp>
		<comp name="--.HNN" depth="0.0">
			<acc value="0.342243218701299" flag="0"/>
			<vel value="0.0857207681702984" flag="0"/>
			<psa03 value="0.509993576237773" flag="0"/>
			<psa10 value="0.0862239044105903" flag="0"/>
			<psa30 value="0.00505162339527446" flag="0"/>
		</comp>
		<comp name="--.HNZ" depth="0.0">
			<acc value="0.211199037467725" flag="0"/>
			<vel value="0.0888820188590697" flag="0"/>
			<psa03 value="0.363811100699957" flag="0"/>
			<psa10 value="0.039544708392857" flag="0"/>
			<psa30 value="0.00502601836571791" flag="0"/>
		</comp>
	</station>
	<station code="PIR2" name="PIR2" netid="HI" source="ITSAK Strong Motion Network" insttype="" lat="37.9458" lon="23.6709" esm:processing="manual (Paolucci et al 2011)" esm:quality="good">
		<comp name="--.HNE" depth="0.0">
			<acc value="0.422239028463004" flag="0"/>
			<vel value="0.191821151253606" flag="0"/>
			<psa03 value="1.08640255217131" flag="0"/>
			<psa10 value="0.126311307504026" flag="0"/>
			<psa30 value="0.00884782279149572" flag="0"/>
		</comp>
		<comp name="--.HNN" depth="0.0">
			<acc value="0.574182469832535" flag="0"/>
			<vel value="0.255951073573018" flag="0"/>
			<psa03 value="1.49550040289361" flag="0"/>
			<psa10 value="0.109533356047311" flag="0"/>
			<psa30 value="0.0108555024570755" flag="0"/>
		</comp>
		<comp name="--.HNZ" depth="0.0">
			<acc value="0.538342546912629" flag="0"/>
			<vel value="0.145165805159569" flag="0"/>
			<psa03 value="0.501540599604739" flag="0"/>
			<psa10 value="0.0405359703090144" flag="0"/>
			<psa30 value="0.00679337794463069" flag="0"/>
		</comp>
	</station>
	<station code="PIR3" name="PIR3" netid="HI" source="ITSAK Strong Motion Network" insttype="" lat="37.9573" lon="23.6519" esm:processing="automatic (Paolucci et al 2011)" esm:quality="best">
		<comp name="--.HNE" depth="0.0">
			<acc value="0.232607106584044" flag="0"/>
			<vel value="0.0582572899872582" flag="0"/>
			<psa03 value="0.426663514363815" flag="0"/>
			<psa10 value="0.0317875632700416" flag="0"/>
			<psa30 value="0.00276810253987655" flag="0"/>
		</comp>
		<comp name="--.HNN" depth="0.0">
			<acc value="0.21726176059863" flag="0"/>
			<vel value="0.0739655356376243" flag="0"/>
			<psa03 value="0.300630311116105" flag="0"/>
			<psa10 value="0.0464888709095554" flag="0"/>
			<psa30 value="0.00342795041822641" flag="0"/>
		</comp>
		<comp name="--.HNZ" depth="0.0">
			<acc value="0.147584362468541" flag="0"/>
			<vel value="0.0604988678546738" flag="0"/>
			<psa03 value="0.22711346181906" flag="0"/>
			<psa10 value="0.0329874890092676" flag="0"/>
			<psa30 value="0.00416294035770334" flag="0"/>
		</comp>
	</station>
	<station code="PLN1" name="PLN1" netid="HI" source="ITSAK Strong Motion Network" insttype="" lat="39.998" lon="23.575" esm:processing="automatic (Paolucci et al 2011)" esm:quality="best">
		<comp name="--.HNE" depth="0.0">
			<acc value="0.00912816511419267" flag="0"/>
			<vel value="0.0107404063363147" flag="0"/>
			<psa03 value="0.020174359889824" flag="0"/>
			<psa10 value="0.0142414531138628" flag="0"/>
			<psa30 value="0.00335619274796483" flag="0"/>
		</comp>
		<comp name="--.HNN" depth="0.0">
			<acc value="0.00835177073782617" flag="0"/>
			<vel value="0.00804941146136258" flag="0"/>
			<psa03 value="0.0193769958704419" flag="0"/>
			<psa10 value="0.0130638863558505" flag="0"/>
			<psa30 value="0.00380154350026455" flag="0"/>
		</comp>
		<comp name="--.HNZ" depth="0.0">
			<acc value="0.0126672136115368" flag="0"/>
			<vel value="0.00521444176893769" flag="0"/>
			<psa03 value="0.0154802351250182" flag="0"/>
			<psa10 value="0.00965550681745813" flag="0"/>
			<psa30 value="0.00101265531261092" flag="0"/>
		</comp>
	</station>
	<station code="SKY1" name="SKY1" netid="HI" source="ITSAK Strong Motion Network" insttype="" lat="38.904483" lon="24.564572" esm:processing="automatic (Paolucci et al 2011)" esm:quality="best">
		<comp name="--.HNE" depth="0.0">
			<acc value="0.138090570582538" flag="0"/>
			<vel value="0.0796782086294091" flag="0"/>
			<psa03 value="0.490851058142249" flag="0"/>
			<psa10 value="0.0516521492012137" flag="0"/>
			<psa30 value="0.00382459086037597" flag="0"/>
		</comp>
		<comp name="--.HNN" depth="0.0">
			<acc value="0.177548639085267" flag="0"/>
			<vel value="0.0884775806048429" flag="0"/>
			<psa03 value="0.465522630258182" flag="0"/>
			<psa10 value="0.0405893775970451" flag="0"/>
			<psa30 value="0.00383723044768399" flag="0"/>
		</comp>
		<comp name="--.HNZ" depth="0.0">
			<acc value="0.0796596439117997" flag="0"/>
			<vel value="0.0488858915060316" flag="0"/>
			<psa03 value="0.207428511954302" flag="0"/>
			<psa10 value="0.0439921205120374" flag="0"/>
			<psa30 value="0.00503705243001467" flag="0"/>
		</comp>
	</station>
	<station code="THV2" name="THV2" netid="HI" source="ITSAK Strong Motion Network" insttype="" lat="38.316117" lon="23.319807" esm:processing="manual (Paolucci et al 2011)" esm:quality="best">
		<comp name="--.HNE" depth="0.0">
			<acc value="0.615729779068487" flag="0"/>
			<vel value="0.20036925151752" flag="0"/>
			<psa03 value="1.07195234491466" flag="0"/>
			<psa10 value="0.0823231735060882" flag="0"/>
			<psa30 value="0.0183841945293243" flag="0"/>
		</comp>
		<comp name="--.HNN" depth="0.0">
			<acc value="0.436137988196309" flag="0"/>
			<vel value="0.224153192474425" flag="0"/>
			<psa03 value="1.08258638270341" flag="0"/>
			<psa10 value="0.112889723389979" flag="0"/>
			<psa30 value="0.0113146995433285" flag="0"/>
		</comp>
		<comp name="--.HNZ" depth="0.0">
			<acc value="0.390605033835222" flag="0"/>
			<vel value="0.212932613695623" flag="0"/>
			<psa03 value="0.837516148002915" flag="0"/>
			<psa10 value="0.100893121174084" flag="0"/>
			<psa30 value="0.0100170710817914" flag="0"/>
