<?xml version="1.0" encoding="UTF-8" standalone="yes"?>
<!DOCTYPE earthquake SYSTEM "stationlist.dtd">
<stationlist created="" xmlns="ch.ethz.sed.shakemap.usgs.xml">
  <station code="MG06" name="MG06" netid="CL" insttype="TRILLIUM-40" commtype="DIG" lat="38.4129" lon="21.9462">
    <comp name="06.HHN">
      <acc value="0.0066245132" flag="0"/>
      <vel value="0.0065354537" flag="0"/>
      <psa03 value="0.0164606094" flag="0"/>
      <psa10 value="0.0057015788" flag="0"/>
      <psa30 value="0.0017103760" flag="0"/>
    </comp>
    <comp name="06.HHZ">
      <acc value="0.0037404219" flag="0"/>
      <vel value="0.0046960835" flag="0"/>
      <psa03 value="0.0080719187" flag="0"/>
      <psa10 value="0.0051356965" flag="0"/>
      <psa30 value="0.0015507572" flag="0"/>
    </comp>
    <comp name="06.HHE">
      <acc value="0.0101992257" flag="0"/>
      <vel value="0.0051738293" flag="0"/>
      <psa03 value="0.0211101706" flag="0"/>
      <psa10 value="0.0062383476" flag="0"/>
      <psa30 value="0.0014314182" flag="0"/>
    </comp>
  </station>
  <station code="PANR" name="PANR" netid="CL" insttype="TRILLIUM-40" commtype="DIG" lat="38.3735" lon="22.2497">
    <comp name="01.HHN">
      <acc value="0.0095443699" flag="0"/>
      <vel value="0.0110086648" flag="0"/>
      <psa03 value="0.0210431281" flag="0"/>
      <psa10 value="0.0132706363" flag="0"/>
      <psa30 value="0.0017299551" flag="0"/>
    </comp>
    <comp name="01.HHZ">
      <acc value="0.0058516967" flag="0"/>
      <vel value="0.0069583160" flag="0"/>
      <psa03 value="0.0165478061" flag="0"/>
      <psa10 value="0.0088915287" flag="0"/>
      <psa30 value="0.0014121964" flag="0"/>
    </comp>
    <comp name="01.HHE">
      <acc value="0.0107504071" flag="0"/>
      <vel value="0.0069459075" flag="0"/>
      <psa03 value="0.0288737517" flag="0"/>
      <psa10 value="0.0105896034" flag="0"/>
      <psa30 value="0.0015945397" flag="0"/>
    </comp>
  </station>
  <station code="PSAM" name="PSAM" netid="CL" insttype="CMG40-T" commtype="DIG" lat="38.3218" lon="22.1842">
    <comp name="00.HHZ">
      <acc value="0.0078936624" flag="0"/>
      <vel value="0.0062920277" flag="0"/>
      <psa03 value="0.0144978920" flag="0"/>
      <psa10 value="0.0124712320" flag="0"/>
      <psa30 value="0.0016323846" flag="0"/>
    </comp>
    <comp name="00.HHN">
      <acc value="0.0113957378" flag="0"/>
      <vel value="0.0130285008" flag="0"/>
      <psa03 value="0.0306140321" flag="0"/>
      <psa10 value="0.0234627357" flag="0"/>
      <psa30 value="0.0023440923" flag="0"/>
    </comp>
    <comp name="00.HHE">
      <acc value="0.0129675867" flag="0"/>
      <vel value="0.0193519883" flag="0"/>
      <psa03 value="0.0341003005" flag="0"/>
      <psa10 value="0.0176162831" flag="0"/>
      <psa30 value="0.0038454517" flag="0"/>
    </comp>
  </station>
  <station code="KLV" name="KLV" netid="MN" insttype="" commtype="DIG" lat="38.0437" lon="22.1504">
    <comp name="--.HHE">
      <acc value="0.0062981394" flag="0"/>
      <vel value="0.0055596831" flag="0"/>
      <psa03 value="0.0140361926" flag="0"/>
      <psa10 value="0.0072267879" flag="0"/>
      <psa30 value="0.0019654949" flag="0"/>
    </comp>
    <comp name="--.HHN">
      <acc value="0.0065519516" flag="0"/>
      <vel value="0.0058587218" flag="0"/>
      <psa03 value="0.0154102724" flag="0"/>
      <psa10 value="0.0103482769" flag="0"/>
      <psa30 value="0.0019678518" flag="0"/>
    </comp>
    <comp name="--.HHZ">
      <acc value="0.0056577280" flag="0"/>
      <vel value="0.0076521288" flag="0"/>
      <psa03 value="0.0157743842" flag="0"/>
      <psa10 value="0.0095949875" flag="0"/>
      <psa30 value="0.0011966799" flag="0"/>
    </comp>
  </station>
</stationlist>
