<?xml version="1.0" encoding="UTF-8" standalone="yes"?>
<!DOCTYPE earthquake SYSTEM "stationlist.dtd">
<stationlist created="" xmlns="ch.ethz.sed.shakemap.usgs.xml">
  <station code="MG06" name="MG06" netid="CL" insttype="TRILLIUM-40" commtype="DIG" lat="38.4129" lon="21.9462">
    <comp name="06.HHN">
      <acc value="0.0066245132" flag="0"/>
      <vel value="0.0065354537" flag="0"/>
      <psa03 value="0.0164606094" flag="0"/>
      <psa10 value="0.0057015788" flag="0"/>
      <psa30 value="0.0017103760" flag="0"/>
    </comp>
    <comp name="06.HHZ">
      <acc value="0.0037404219" flag="0"/>
      <vel value="0.0046960835" flag="0"/>
      <psa03 value="0.0080719187" flag="0"/>
      <psa10 value="0.0051356965" flag="0"/>
      <psa30 value="0.0015507572" flag="0"/>
    </comp>
    <comp name="06.HHE">
      <acc value="0.0101992257" flag="0"/>
      <vel value="0.0051738293" flag="0"/>
      <psa03 value="0.0211101706" flag="0"/>
      <psa10 value="0.0062383476" flag="0"/>
      <psa30 value="0.0014314182" flag="0"/>
    </comp>
  </station>
  <station code="PANR" name="PANR" netid="CL" insttype="TRILLIUM-40" commtype="DIG" lat="38.3735" lon="22.2497">
    <comp name="01.HHN">
      <acc value="0.0095443699" flag="0"/>
      <vel value="0.0110086648" flag="0"/>
      <psa03 value="0.0210431281" flag="0"/>
      <psa10 value="0.0132706363" flag="0"/>
      <psa30 value="0.0017299551" flag="0"/>
    </comp>
    <comp name="01.HHZ">
      <acc value="0.0058516967" flag="0"/>
      <vel value="0.0069583160" flag="0"/>
      <psa03 value="0.0165478061" flag="0"/>
      <psa10 value="0.0088915287" flag="0"/>
      <psa30 value="0.0014121964" flag="0"/>
    </comp>
    <comp name="01.HHE">
      <acc value="0.0107504071" flag="0"/>
      <vel value="0.0069459075" flag="0"/>
      <psa03 value="0.0288737517" flag="0"/>
      <psa10 value="0.0105896034" flag="0"/>
      <psa30 value="0.0015945397" flag="0"/>
    </comp>
  </station>
  <station code="PSAM" name="PSAM" netid="CL" insttype="CMG40-T" commtype="DIG" lat="38.3218" lon="22.1842">
    <comp name="00.HHZ">
      <acc value="0.0078936624" flag="0"/>
      <vel value="0.0062920277" flag="0"/>
      <psa03 value="0.0144978920" flag="0"/>
      <psa10 value="0.0124712320" flag="0"/>
      <psa30 value="0.0016323846" flag="0"/>
    </comp>
    <comp name="00.HHN">
      <acc value="0.0113957378" flag="0"/>
      <vel value="0.0130285008" flag="0"/>
      <psa03 value="0.0306140321" flag="0"/>
      <psa10 value="0.0234627357" flag="0"/>
      <psa30 value="0.0023440923" flag="0"/>
    </comp>
    <comp name="00.HHE">
      <acc value="0.0129675867" flag="0"/>
      <vel value="0.0193519883" flag="0"/>
      <psa03 value="0.0341003005" flag="0"/>
      <psa10 value="0.0176162831" flag="0"/>
      <psa30 value="0.0038454517" flag="0"/>
    </comp>
  </station>
  <station code="ACOR" name="ACOR" netid="HA" insttype="Horizon,120s,1200" commtype="DIG" lat="37.8905" lon="22.8694">
    <comp name="--.HHE">
      <acc value="0.0420067418" flag="0"/>
      <vel value="0.0312020655" flag="0"/>
      <psa03 value="0.0856952833" flag="0"/>
      <psa10 value="0.0378633962" flag="0"/>
      <psa30 value="0.0067027301" flag="0"/>
    </comp>
    <comp name="--.HHN">
      <acc value="0.0284484758" flag="0"/>
      <vel value="0.0215128418" flag="0"/>
      <psa03 value="0.0826955868" flag="0"/>
      <psa10 value="0.0335881774" flag="0"/>
      <psa30 value="0.0042241811" flag="0"/>
    </comp>
    <comp name="--.HHZ">
      <acc value="0.0290263950" flag="0"/>
      <vel value="0.0178438140" flag="0"/>
      <psa03 value="0.0846497856" flag="0"/>
      <psa10 value="0.0148137692" flag="0"/>
      <psa30 value="0.0023478477" flag="0"/>
    </comp>
  </station>
  <station code="AMPE" name="AMPE" netid="HA" insttype="1s-100Hz," commtype="DIG" lat="38.3015" lon="23.2688">
    <comp name="--.HHZ">
      <acc value="0.1658808005" flag="0"/>
      <vel value="0.0461553903" flag="0"/>
      <psa03 value="0.1985113116" flag="0"/>
      <psa10 value="0.0291638073" flag="0"/>
      <psa30 value="0.0039870076" flag="0"/>
    </comp>
    <comp name="--.HHN">
      <acc value="0.2547492214" flag="0"/>
      <vel value="0.1295637991" flag="0"/>
      <psa03 value="0.5451743527" flag="0"/>
      <psa10 value="0.0744982904" flag="0"/>
      <psa30 value="0.0071978555" flag="0"/>
    </comp>
    <comp name="--.HHE">
      <acc value="0.4095989094" flag="0"/>
      <vel value="0.2529076707" flag="0"/>
      <psa03 value="1.1892295944" flag="0"/>
      <psa10 value="0.1061433015" flag="0"/>
      <psa30 value="0.0133151614" flag="0"/>
    </comp>
  </station>
  <station code="ANTK" name="ANTK" netid="HA" insttype="25" commtype="DIG" lat="38.3605" lon="22.6385">
    <comp name="--.HHN">
      <acc value="0.0137541289" flag="0"/>
      <vel value="0.0079921722" flag="0"/>
      <psa03 value="0.0178771285" flag="0"/>
      <psa10 value="0.0074329460" flag="0"/>
      <psa30 value="0.0013047120" flag="0"/>
    </comp>
    <comp name="--.HHZ">
      <acc value="0.0100213731" flag="0"/>
      <vel value="0.0054081981" flag="0"/>
      <psa03 value="0.0096326324" flag="0"/>
      <psa10 value="0.0046658918" flag="0"/>
      <psa30 value="0.0006612695" flag="0"/>
    </comp>
    <comp name="--.HHE">
      <acc value="0.0112764736" flag="0"/>
      <vel value="0.0056551493" flag="0"/>
      <psa03 value="0.0184236537" flag="0"/>
      <psa10 value="0.0064340387" flag="0"/>
      <psa30 value="0.0009351526" flag="0"/>
    </comp>
  </station>
  <station code="ATAL" name="ATAL" netid="HA" insttype="120s," commtype="DIG" lat="38.6926" lon="23.0213">
    <comp name="--.HHE">
      <acc value="0.1444380527" flag="0"/>
      <vel value="0.0333620944" flag="0"/>
      <psa03 value="0.2011525190" flag="0"/>
      <psa10 value="0.0130304983" flag="0"/>
      <psa30 value="0.0021055153" flag="0"/>
    </comp>
    <comp name="--.HHZ">
      <acc value="0.1386486108" flag="0"/>
      <vel value="0.0257173874" flag="0"/>
      <psa03 value="0.1833551354" flag="0"/>
      <psa10 value="0.0099797553" flag="0"/>
      <psa30 value="0.0024742801" flag="0"/>
    </comp>
    <comp name="--.HHN">
      <acc value="0.1464904067" flag="0"/>
      <vel value="0.0368343996" flag="0"/>
      <psa03 value="0.1498167096" flag="0"/>
      <psa10 value="0.0227641975" flag="0"/>
      <psa30 value="0.0029978982" flag="0"/>
    </comp>
  </station>
  <station code="ATHU" name="ATHU" netid="HA" insttype="60s," commtype="DIG" lat="37.9665" lon="23.7845">
    <comp name="--.HHE">
      <acc value="0.1417062908" flag="0"/>
      <vel value="0.0678373493" flag="0"/>
      <psa03 value="0.3028415765" flag="0"/>
      <psa10 value="0.0342582942" flag="0"/>
      <psa30 value="0.0029763701" flag="0"/>
    </comp>
    <comp name="--.HHN">
      <acc value="0.1227123771" flag="0"/>
      <vel value="0.0660053623" flag="0"/>
      <psa03 value="0.2737887913" flag="0"/>
      <psa10 value="0.0300649821" flag="0"/>
      <psa30 value="0.0031835038" flag="0"/>
    </comp>
    <comp name="--.HHZ">
      <acc value="0.0823053312" flag="0"/>
      <vel value="0.0323287618" flag="0"/>
      <psa03 value="0.1581701814" flag="0"/>
      <psa10 value="0.0189682306" flag="0"/>
      <psa30 value="0.0034488693" flag="0"/>
    </comp>
  </station>
  <station code="AXAR" name="AXAR" netid="HA" insttype="Horizon,120s,1200" commtype="DIG" lat="38.7664" lon="22.659">
    <comp name="--.HHE">
      <acc value="0.0987939151" flag="0"/>
      <vel value="0.0344784112" flag="0"/>
      <psa03 value="0.2252737860" flag="0"/>
      <psa10 value="0.0363458339" flag="0"/>
      <psa30 value="0.0063369798" flag="0"/>
    </comp>
    <comp name="--.HHZ">
      <acc value="0.0655454130" flag="0"/>
      <vel value="0.0224379589" flag="0"/>
      <psa03 value="0.1592300425" flag="0"/>
      <psa10 value="0.0158201676" flag="0"/>
      <psa30 value="0.0020400229" flag="0"/>
    </comp>
    <comp name="--.HHN">
      <acc value="0.1170813876" flag="0"/>
      <vel value="0.0374790275" flag="0"/>
      <psa03 value="0.4517971013" flag="0"/>
      <psa10 value="0.0276281290" flag="0"/>
      <psa30 value="0.0047212551" flag="0"/>
    </comp>
  </station>
  <station code="DOMV" name="DOMV" netid="HA" insttype="60" commtype="DIG" lat="38.2569" lon="22.9795">
    <comp name="--.HHZ">
      <acc value="0.4277589940" flag="0"/>
      <vel value="0.0995902597" flag="0"/>
      <psa03 value="0.7234889769" flag="0"/>
      <psa10 value="0.0514003790" flag="0"/>
      <psa30 value="0.0030699640" flag="0"/>
    </comp>
    <comp name="--.HHN">
      <acc value="0.7046288984" flag="0"/>
      <vel value="0.1595455307" flag="0"/>
      <psa03 value="0.6473811573" flag="0"/>
      <psa10 value="0.1087098728" flag="0"/>
      <psa30 value="0.0066002179" flag="0"/>
    </comp>
    <comp name="--.HHE">
      <acc value="0.7175985174" flag="0"/>
      <vel value="0.1647262618" flag="0"/>
      <psa03 value="0.8317479454" flag="0"/>
      <psa10 value="0.0906942676" flag="0"/>
      <psa30 value="0.0068547010" flag="0"/>
    </comp>
  </station>
  <station code="EPID" name="EPID" netid="HA" insttype="30" commtype="DIG" lat="37.6144" lon="23.1189">
    <comp name="--.HHE">
      <acc value="0.1000052572" flag="0"/>
      <vel value="0.0478702467" flag="0"/>
      <psa03 value="0.2272682244" flag="0"/>
      <psa10 value="0.0306235871" flag="0"/>
      <psa30 value="0.0065351189" flag="0"/>
    </comp>
    <comp name="--.HHN">
      <acc value="0.0961408343" flag="0"/>
      <vel value="0.0383824749" flag="0"/>
      <psa03 value="0.1570727901" flag="0"/>
      <psa10 value="0.0225930557" flag="0"/>
      <psa30 value="0.0027855369" flag="0"/>
    </comp>
    <comp name="--.HHZ">
      <acc value="0.0534318656" flag="0"/>
      <vel value="0.0346910619" flag="0"/>
      <psa03 value="0.1104695135" flag="0"/>
      <psa10 value="0.0286539216" flag="0"/>
      <psa30 value="0.0026839706" flag="0"/>
    </comp>
  </station>
  <station code="ERTR" name="ERTR" netid="HA" insttype="Horizon,120s,1200" commtype="DIG" lat="38.4066" lon="23.7865">
    <comp name="--.HHE">
      <acc value="1.3484901828" flag="0"/>
      <vel value="0.3792611620" flag="0"/>
      <psa03 value="2.0765149284" flag="0"/>
      <psa10 value="0.0673003383" flag="0"/>
      <psa30 value="0.0102310162" flag="0"/>
    </comp>
    <comp name="--.HHN">
      <acc value="0.7152744977" flag="0"/>
      <vel value="0.2346610420" flag="0"/>
      <psa03 value="1.8652702960" flag="0"/>
      <psa10 value="0.0609067542" flag="0"/>
      <psa30 value="0.0088516954" flag="0"/>
    </comp>
    <comp name="--.HHZ">
      <acc value="0.5440852032" flag="0"/>
      <vel value="0.1518661187" flag="0"/>
      <psa03 value="1.0704585064" flag="0"/>
      <psa10 value="0.0515510767" flag="0"/>
      <psa30 value="0.0068810064" flag="0"/>
    </comp>
  </station>
  <station code="KALE" name="KALE" netid="HA" insttype="40," commtype="DIG" lat="38.3911" lon="22.1398">
    <comp name="--.HHE">
      <acc value="0.0112182856" flag="0"/>
      <vel value="0.0086184932" flag="0"/>
      <psa03 value="0.0389519368" flag="0"/>
      <psa10 value="0.0090705985" flag="0"/>
      <psa30 value="0.0014558221" flag="0"/>
    </comp>
    <comp name="--.HHN">
      <acc value="0.0197887191" flag="0"/>
      <vel value="0.0111052754" flag="0"/>
      <psa03 value="0.0382472325" flag="0"/>
      <psa10 value="0.0146811754" flag="0"/>
      <psa30 value="0.0025432727" flag="0"/>
    </comp>
    <comp name="--.HHZ">
      <acc value="0.0098129549" flag="0"/>
      <vel value="0.0093009738" flag="0"/>
      <psa03 value="0.0206358947" flag="0"/>
      <psa10 value="0.0130616836" flag="0"/>
      <psa30 value="0.0020913504" flag="0"/>
    </comp>
  </station>
  <station code="KARY" name="KARY" netid="HA" insttype="60" commtype="DIG" lat="38.0321" lon="24.437">
    <comp name="--.HHN">
      <acc value="0.2203205914" flag="0"/>
      <vel value="0.0694590233" flag="0"/>
      <psa03 value="0.3720637696" flag="0"/>
      <psa10 value="0.0421108861" flag="0"/>
      <psa30 value="0.0059175367" flag="0"/>
    </comp>
    <comp name="--.HHE">
      <acc value="0.1898121977" flag="0"/>
      <vel value="0.0690721309" flag="0"/>
      <psa03 value="0.3490246769" flag="0"/>
      <psa10 value="0.0243333547" flag="0"/>
      <psa30 value="0.0024006366" flag="0"/>
    </comp>
    <comp name="--.HHZ">
      <acc value="0.2695165613" flag="0"/>
      <vel value="0.0974326301" flag="0"/>
      <psa03 value="0.4467444839" flag="0"/>
      <psa10 value="0.0325989000" flag="0"/>
      <psa30 value="0.0038141824" flag="0"/>
    </comp>
  </station>
  <station code="KIAS" name="KIAS" netid="HA" insttype="DC" commtype="DIG" lat="37.9875" lon="22.7543">
    <comp name="--.HNN">
      <acc value="0.1672133497" flag="0"/>
      <vel value="0.1105481627" flag="0"/>
      <psa03 value="0.4050457147" flag="0"/>
      <psa10 value="0.1543478294" flag="0"/>
      <psa30 value="0.0202578496" flag="0"/>
    </comp>
    <comp name="--.HNE">
      <acc value="0.1552959716" flag="0"/>
      <vel value="0.1227617152" flag="0"/>
      <psa03 value="0.2952872196" flag="0"/>
      <psa10 value="0.1331178901" flag="0"/>
      <psa30 value="0.0182625948" flag="0"/>
    </comp>
    <comp name="--.HNZ">
      <acc value="0.0565016000" flag="0"/>
      <vel value="0.0343425374" flag="0"/>
      <psa03 value="0.1112628197" flag="0"/>
      <psa10 value="0.0295526799" flag="0"/>
      <psa30 value="0.0105844410" flag="0"/>
    </comp>
  </station>
  <station code="LOUT" name="LOUT" netid="HA" insttype="30" commtype="DIG" lat="37.9879" lon="22.9743">
    <comp name="--.HHN">
      <acc value="0.2398816246" flag="0"/>
      <vel value="0.0823509041" flag="0"/>
      <psa03 value="0.4612897719" flag="0"/>
      <psa10 value="0.0532714286" flag="0"/>
      <psa30 value="0.0051171840" flag="0"/>
    </comp>
    <comp name="--.HHE">
      <acc value="0.2320944879" flag="0"/>
      <vel value="0.1074975995" flag="0"/>
      <psa03 value="0.3630246562" flag="0"/>
      <psa10 value="0.0630263314" flag="0"/>
      <psa30 value="0.0068755992" flag="0"/>
    </comp>
    <comp name="--.HHZ">
      <acc value="0.1263942547" flag="0"/>
      <vel value="0.0437497578" flag="0"/>
      <psa03 value="0.2213661636" flag="0"/>
      <psa10 value="0.0366856683" flag="0"/>
      <psa30 value="0.0029030130" flag="0"/>
    </comp>
  </station>
  <station code="MDRA" name="MDRA" netid="HA" insttype="60" commtype="DIG" lat="38.0606" lon="23.4662">
    <comp name="--.HHE">
      <acc value="0.1246227369" flag="0"/>
      <vel value="0.0561108090" flag="0"/>
      <psa03 value="0.2637891389" flag="0"/>
      <psa10 value="0.0410081923" flag="0"/>
      <psa30 value="0.0034249234" flag="0"/>
    </comp>
    <comp name="--.HHN">
      <acc value="0.1608678218" flag="0"/>
      <vel value="0.0930432534" flag="0"/>
      <psa03 value="0.3055287906" flag="0"/>
      <psa10 value="0.0444317002" flag="0"/>
      <psa30 value="0.0038726613" flag="0"/>
    </comp>
    <comp name="--.HHZ">
      <acc value="0.1336481797" flag="0"/>
      <vel value="0.0384524051" flag="0"/>
      <psa03 value="0.1807025447" flag="0"/>
      <psa10 value="0.0513892744" flag="0"/>
      <psa30 value="0.0034941571" flag="0"/>
    </comp>
  </station>
  <station code="MRKA" name="MRKA" netid="HA" insttype="Horizon,120s,1200" commtype="DIG" lat="38.7047" lon="23.5863">
    <comp name="--.HHN">
      <acc value="2.8549521842" flag="0"/>
      <vel value="0.8176453372" flag="0"/>
      <psa03 value="4.4982452722" flag="0"/>
      <psa10 value="0.2099362356" flag="0"/>
      <psa30 value="0.0292750167" flag="0"/>
    </comp>
    <comp name="--.HHE">
      <acc value="6.0170963392" flag="0"/>
      <vel value="1.2884964522" flag="0"/>
      <psa03 value="6.3572437158" flag="0"/>
      <psa10 value="0.3779751030" flag="0"/>
      <psa30 value="0.0375138969" flag="0"/>
    </comp>
    <comp name="--.HHZ">
      <acc value="2.6416661536" flag="0"/>
      <vel value="0.4575582090" flag="0"/>
      <psa03 value="3.0900574535" flag="0"/>
      <psa10 value="0.1578418383" flag="0"/>
      <psa30 value="0.0149384743" flag="0"/>
    </comp>
  </station>
  <station code="MRTH" name="MRTH" netid="HA" insttype="S100," commtype="DIG" lat="38.1225" lon="23.9409">
    <comp name="--.HHE">
      <acc value="0.5742670129" flag="0"/>
      <vel value="0.1919716715" flag="0"/>
      <psa03 value="1.1356845940" flag="0"/>
      <psa10 value="0.1153071607" flag="0"/>
      <psa30 value="0.0076747487" flag="0"/>
    </comp>
    <comp name="--.HHZ">
      <acc value="0.4234707555" flag="0"/>
      <vel value="0.1513122132" flag="0"/>
      <psa03 value="1.3924708203" flag="0"/>
      <psa10 value="0.1054531549" flag="0"/>
      <psa30 value="0.0062831446" flag="0"/>
    </comp>
    <comp name="--.HHN">
      <acc value="0.4013214263" flag="0"/>
      <vel value="0.1985399688" flag="0"/>
      <psa03 value="1.0455815079" flag="0"/>
      <psa10 value="0.1514362683" flag="0"/>
      <psa30 value="0.0093003478" flag="0"/>
    </comp>
  </station>
  <station code="PRDM" name="PRDM" netid="HA" insttype="25" commtype="DIG" lat="38.2804" lon="22.847">
    <comp name="--.HHZ">
      <acc value="0.0457148188" flag="0"/>
      <vel value="0.0128752205" flag="0"/>
      <psa03 value="0.0630402349" flag="0"/>
      <psa10 value="0.0071292210" flag="0"/>
      <psa30 value="0.0008151856" flag="0"/>
    </comp>
    <comp name="--.HHE">
      <acc value="0.0977244549" flag="0"/>
      <vel value="0.0246423266" flag="0"/>
      <psa03 value="0.0648442328" flag="0"/>
      <psa10 value="0.0227112023" flag="0"/>
      <psa30 value="0.0019756550" flag="0"/>
    </comp>
    <comp name="--.HHN">
      <acc value="0.1110673412" flag="0"/>
      <vel value="0.0219092994" flag="0"/>
      <psa03 value="0.0949408833" flag="0"/>
      <psa10 value="0.0146001590" flag="0"/>
      <psa30 value="0.0013035529" flag="0"/>
    </comp>
  </station>
  <station code="PSAH" name="PSAH" netid="HA" insttype="25" commtype="DIG" lat="38.5694" lon="23.6473">
    <comp name="--.HHE">
      <acc value="0.6357454680" flag="0"/>
      <vel value="0.2052481366" flag="0"/>
      <psa03 value="0.8396282176" flag="0"/>
      <psa10 value="0.1274791341" flag="0"/>
      <psa30 value="0.0124509586" flag="0"/>
    </comp>
    <comp name="--.HHZ">
      <acc value="0.3532509828" flag="0"/>
      <vel value="0.1087774846" flag="0"/>
      <psa03 value="0.3887085123" flag="0"/>
      <psa10 value="0.0762687996" flag="0"/>
      <psa30 value="0.0072920093" flag="0"/>
    </comp>
    <comp name="--.HHN">
      <acc value="0.4183964708" flag="0"/>
      <vel value="0.2046578420" flag="0"/>
      <psa03 value="0.4482947838" flag="0"/>
      <psa10 value="0.1519361307" flag="0"/>
      <psa30 value="0.0141314376" flag="0"/>
    </comp>
  </station>
  <station code="THAL" name="THAL" netid="HA" insttype="30" commtype="DIG" lat="38.0357" lon="22.6634">
    <comp name="--.HHZ">
      <acc value="0.0756369406" flag="0"/>
      <vel value="0.0320581952" flag="0"/>
      <psa03 value="0.2065196551" flag="0"/>
      <psa10 value="0.0216475164" flag="0"/>
      <psa30 value="0.0028816456" flag="0"/>
    </comp>
    <comp name="--.HHE">
      <acc value="0.1625223990" flag="0"/>
      <vel value="0.0768845455" flag="0"/>
      <psa03 value="0.4615121224" flag="0"/>
      <psa10 value="0.0791372064" flag="0"/>
      <psa30 value="0.0103818781" flag="0"/>
    </comp>
    <comp name="--.HHN">
      <acc value="0.1190768639" flag="0"/>
      <vel value="0.0540653896" flag="0"/>
      <psa03 value="0.3492541554" flag="0"/>
      <psa10 value="0.0502063092" flag="0"/>
      <psa30 value="0.0069744626" flag="0"/>
    </comp>
  </station>
  <station code="THIV" name="THIV" netid="HA" insttype="25" commtype="DIG" lat="38.299" lon="23.332">
    <comp name="--.HHN">
