<?xml version="1.0" encoding="UTF-8" standalone="yes"?>
<!DOCTYPE earthquake SYSTEM "stationlist.dtd">
<stationlist created="" xmlns="ch.ethz.sed.shakemap.usgs.xml">
  <station code="THERA" name="THERA" netid="GE" insttype="STS-2/N" lat="36.367" lon="25.4753">
    <comp name="--.HHN">
      <acc value="0.0802562639" flag="0"/>
      <vel value="0.0169678606" flag="0"/>
      <psa03 value="0.1031383609" flag="0"/>
      <psa10 value="0.0172743960" flag="0"/>
      <psa30 value="0.0014484318" flag="0"/>
    </comp>
    <comp name="--.HHZ">
      <acc value="0.1100146282" flag="0"/>
      <vel value="0.0233998170" flag="0"/>
      <psa03 value="0.0710826687" flag="0"/>
      <psa10 value="0.0105104592" flag="0"/>
      <psa30 value="0.0014139504" flag="0"/>
    </comp>
    <comp name="--.HHE">
      <acc value="0.1343990914" flag="0"/>
      <vel value="0.0251867275" flag="0"/>
      <psa03 value="0.1037866312" flag="0"/>
      <psa10 value="0.0175049283" flag="0"/>
      <psa30 value="0.0025579913" flag="0"/>
    </comp>
  </station>
</stationlist>
