<stationlist created="1741951759">
	<station code="ABEA" name="ABEA" netid="HC" source="Seismological Network of Crete (HC)" insttype="" lat="35.5163" lon="24.0113">
		<comp name=".HNE" depth="0.0">
			<acc value="0.0019019507527344" flag="0"/>
			<vel value="0.00255336706708" flag="0"/>
			<psa03 value="0.0035375240571476" flag="0"/>
			<psa10 value="0.00125211044617134" flag="0"/>
			<psa30 value="0.000995359896042299" flag="0"/>
		</comp>
		<comp name=".HNN" depth="0.0">
			<acc value="0.0022494701713314" flag="0"/>
			<vel value="0.0022450847382" flag="0"/>
			<psa03 value="0.0034580946416947" flag="0"/>
			<psa10 value="0.00126855868422481" flag="0"/>
			<psa30 value="0.000961159922128663" flag="0"/>
		</comp>
		<comp name=".HNZ" depth="0.0">
			<acc value="0.0020611203779172" flag="0"/>
			<vel value="0.00196456277667" flag="0"/>
			<psa03 value="0.00148677231949233" flag="0"/>
			<psa10 value="0.00135469661700041" flag="0"/>
			<psa30 value="0.000806472383168539" flag="0"/>
		</comp>
	</station>
	<station code="ATEI" name="ATEI" netid="HC" source="Seismological Network of Crete (HC)" insttype="" lat="35.5193" lon="24.0432">
		<comp name=".HNE" depth="0.0">
			<acc value="0.005363591795682" flag="0"/>
			<vel value="0.00411450541569" flag="0"/>
			<psa03 value="0.0175762268387831" flag="0"/>
			<psa10 value="0.0067094574373663" flag="0"/>
			<psa30 value="0.00101137564450435" flag="0"/>
		</comp>
		<comp name=".HNN" depth="0.0">
			<acc value="0.0055732551019836" flag="0"/>
			<vel value="0.00367143705751" flag="0"/>
			<psa03 value="0.015142749226573" flag="0"/>
			<psa10 value="0.00446834459966277" flag="0"/>
			<psa30 value="0.000787210690509981" flag="0"/>
		</comp>
		<comp name=".HNZ" depth="0.0">
			<acc value="0.0059578491481728" flag="0"/>
			<vel value="0.00328315535285" flag="0"/>
			<psa03 value="0.00850129298666761" flag="0"/>
			<psa10 value="0.00257136018374375" flag="0"/>
			<psa30 value="0.000549134814985759" flag="0"/>
		</comp>
	</station>
	<station code="G0LD" name="G0LD" netid="HC" source="Seismological Network of Crete (HC)" insttype="" lat="35.4955" lon="24.0306">
		<comp name=".HNE" depth="0.0">
			<acc value="0.0059220841331892" flag="0"/>
			<vel value="0.00487631497129" flag="0"/>
			<psa03 value="0.012659061256949" flag="0"/>
			<psa10 value="0.00527596903832129" flag="0"/>
			<psa30 value="0.00199971017931644" flag="0"/>
		</comp>
		<comp name=".HNN" depth="0.0">
			<acc value="0.005276377741998" flag="0"/>
			<vel value="0.00360259723929" flag="0"/>
			<psa03 value="0.00821366000010273" flag="0"/>
			<psa10 value="0.00573082213885636" flag="0"/>
			<psa30 value="0.00144509448041773" flag="0"/>
		</comp>
		<comp name=".HNZ" depth="0.0">
			<acc value="0.0080536679451276" flag="0"/>
			<vel value="0.00487742982714" flag="0"/>
			<psa03 value="0.00542942705569417" flag="0"/>
			<psa10 value="0.00414403249056233" flag="0"/>
			<psa30 value="0.00183190677149822" flag="0"/>
		</comp>
	</station>
	<station code="PASK" name="PASK" netid="HC" source="Seismological Network of Crete (HC)" insttype="" lat="35.4996" lon="24.0121">
		<comp name=".HNE" depth="0.0">
			<acc value="0.0096337950341052" flag="0"/>
			<vel value="0.00583464758298" flag="0"/>
			<psa03 value="0.0285502480846297" flag="0"/>
			<psa10 value="0.0104543556747557" flag="0"/>
			<psa30 value="0.00101620908969895" flag="0"/>
		</comp>
		<comp name=".HNN" depth="0.0">
			<acc value="0.0093876049878054" flag="0"/>
			<vel value="0.00545686896649" flag="0"/>
			<psa03 value="0.0206475084211021" flag="0"/>
			<psa10 value="0.00914480454842564" flag="0"/>
			<psa30 value="0.00138946912884477" flag="0"/>
		</comp>
		<comp name=".HNZ" depth="0.0">
			<acc value="0.0081070137355992" flag="0"/>
			<vel value="0.00305927071337" flag="0"/>
			<psa03 value="0.0162903291543432" flag="0"/>
			<psa10 value="0.00440188410323657" flag="0"/>
			<psa30 value="0.00105750797137958" flag="0"/>
		</comp>
	</station>
	<station code="POLY" name="POLY" netid="HC" source="Seismological Network of Crete (HC)" insttype="" lat="35.5226" lon="24.0602">
		<comp name=".HNE" depth="0.0">
			<acc value="0.0020966199189594" flag="0"/>
			<vel value="0.00175905857626" flag="0"/>
			<psa03 value="0.00319663331074702" flag="0"/>
			<psa10 value="0.00209877497104097" flag="0"/>
			<psa30 value="0.000896631376596078" flag="0"/>
		</comp>
		<comp name=".HNN" depth="0.0">
			<acc value="0.002187138635025" flag="0"/>
			<vel value="0.00249105526465" flag="0"/>
			<psa03 value="0.003265473808591" flag="0"/>
			<psa10 value="0.00200043783168923" flag="0"/>
			<psa30 value="0.000994954139994957" flag="0"/>
		</comp>
		<comp name=".HNZ" depth="0.0">
			<acc value="0.0022039361515032" flag="0"/>
			<vel value="0.00147351112186" flag="0"/>
			<psa03 value="0.00272031253157477" flag="0"/>
			<psa10 value="0.00102469725616518" flag="0"/>
			<psa30 value="0.000971015366668588" flag="0"/>
		</comp>
	</station>
	<station code="ARK1" name="ARK1" netid="HI" source="ITSAK Strong Motion Network" insttype="" lat="35.148777" lon="25.264194">
		<comp name=".HNE" depth="0.0">
			<acc value="0.015855611058072" flag="0"/>
			<vel value="0.00917306125385" flag="0"/>
			<psa03 value="0.039729650123522" flag="0"/>
			<psa10 value="0.0105111719385728" flag="0"/>
			<psa30 value="0.00142810522996368" flag="0"/>
		</comp>
		<comp name=".HNN" depth="0.0">
			<acc value="0.013128323517282" flag="0"/>
			<vel value="0.00725752951211" flag="0"/>
			<psa03 value="0.0333543163305999" flag="0"/>
			<psa10 value="0.00694058290455651" flag="0"/>
			<psa30 value="0.000957797095190227" flag="0"/>
		</comp>
		<comp name=".HNZ" depth="0.0">
			<acc value="0.0097805515701024" flag="0"/>
			<vel value="0.00481244992761" flag="0"/>
			<psa03 value="0.026646312062396" flag="0"/>
			<psa10 value="0.00814876387812153" flag="0"/>
			<psa30 value="0.000598143217801191" flag="0"/>
		</comp>
	</station>
	<station code="CH01" name="CH01" netid="HI" source="ITSAK Strong Motion Network" insttype="" lat="35.517" lon="24.0208">
		<comp name=".HNE" depth="0.0">
			<acc value="0.0060462029259174" flag="0"/>
			<vel value="0.00437340422478" flag="0"/>
			<psa03 value="0.0205341298165776" flag="0"/>
			<psa10 value="0.00507130860554468" flag="0"/>
			<psa30 value="0.000793564809358079" flag="0"/>
		</comp>
		<comp name=".HNN" depth="0.0">
			<acc value="0.0085057723250508" flag="0"/>
			<vel value="0.00533202021129" flag="0"/>
			<psa03 value="0.0242469499914169" flag="0"/>
			<psa10 value="0.00560963848601331" flag="0"/>
			<psa30 value="0.000686308850010018" flag="0"/>
		</comp>
		<comp name=".HNZ" depth="0.0">
			<acc value="0.0078137622191652" flag="0"/>
			<vel value="0.00206702942014" flag="0"/>
			<psa03 value="0.00977902671878491" flag="0"/>
			<psa10 value="0.00369368296961815" flag="0"/>
			<psa30 value="0.000421912793401923" flag="0"/>
		</comp>
	</station>
	<station code="CH02" name="CH02" netid="HI" source="ITSAK Strong Motion Network" insttype="" lat="35.5145" lon="24.0315">
		<comp name=".HNE" depth="0.0">
			<acc value="0.0057862034247222" flag="0"/>
			<vel value="0.00368468910082" flag="0"/>
			<psa03 value="0.0178292253695079" flag="0"/>
			<psa10 value="0.00566926978003182" flag="0"/>
			<psa30 value="0.000718713652917604" flag="0"/>
		</comp>
		<comp name=".HNN" depth="0.0">
			<acc value="0.0063779367024204" flag="0"/>
			<vel value="0.00401476745444" flag="0"/>
			<psa03 value="0.020263390527243" flag="0"/>
			<psa10 value="0.00464624185321349" flag="0"/>
			<psa30 value="0.000625726815912575" flag="0"/>
		</comp>
		<comp name=".HNZ" depth="0.0">
			<acc value="0.0045856111981722" flag="0"/>
			<vel value="0.00155134415088" flag="0"/>
			<psa03 value="0.0102652959108786" flag="0"/>
			<psa10 value="0.00235568152108852" flag="0"/>
			<psa30 value="0.000456026980383065" flag="0"/>
		</comp>
	</station>
	<station code="CH03" name="CH03" netid="HI" source="ITSAK Strong Motion Network" insttype="" lat="35.53303" lon="24.0705">
		<comp name=".HNE" depth="0.0">
			<acc value="0.0054129387741858" flag="0"/>
			<vel value="0.003183188851" flag="0"/>
			<psa03 value="0.0107155366746472" flag="0"/>
			<psa10 value="0.0052848350943971" flag="0"/>
			<psa30 value="0.00045960695712028" flag="0"/>
		</comp>
		<comp name=".HNN" depth="0.0">
			<acc value="0.0060672711815694" flag="0"/>
			<vel value="0.00356740389926" flag="0"/>
			<psa03 value="0.0204596574352156" flag="0"/>
			<psa10 value="0.00623328745594022" flag="0"/>
			<psa30 value="0.000481810355073151" flag="0"/>
		</comp>
		<comp name=".HNZ" depth="0.0">
			<acc value="0.0033703838187504" flag="0"/>
			<vel value="0.00159699420755" flag="0"/>
			<psa03 value="0.00712725860425349" flag="0"/>
			<psa10 value="0.00159169051981145" flag="0"/>
			<psa30 value="0.000310767201385122" flag="0"/>
		</comp>
	</station>
	<station code="GOR1" name="GOR1" netid="HI" source="ITSAK Strong Motion Network" insttype="" lat="35.0582" lon="24.9628">
		<comp name=".HNE" depth="0.0">
			<acc value="0.006410027114364" flag="0"/>
			<vel value="0.00377456229123" flag="0"/>
			<psa03 value="0.0234491497452742" flag="0"/>
			<psa10 value="0.00553477462040139" flag="0"/>
			<psa30 value="0.00115309440767995" flag="0"/>
		</comp>
		<comp name=".HNN" depth="0.0">
			<acc value="0.005243273666427" flag="0"/>
			<vel value="0.00372947382875" flag="0"/>
			<psa03 value="0.0138071386134943" flag="0"/>
			<psa10 value="0.00607027962623324" flag="0"/>
			<psa30 value="0.000857544151843486" flag="0"/>
		</comp>
		<comp name=".HNZ" depth="0.0">
			<acc value="0.0078704106808662" flag="0"/>
			<vel value="0.00243011718971" flag="0"/>
			<psa03 value="0.0134539094846472" flag="0"/>
			<psa10 value="0.00493937674072096" flag="0"/>
			<psa30 value="0.000468456345435545" flag="0"/>
		</comp>
	</station>
	<station code="HER3" name="HER3" netid="HI" source="ITSAK Strong Motion Network" insttype="" lat="35.3296" lon="25.1065">
		<comp name=".HNE" depth="0.0">
			<acc value="0.033026831858196" flag="0"/>
			<vel value="0.0140692837614" flag="0"/>
			<psa03 value="0.0735943335967785" flag="0"/>
			<psa10 value="0.0337639479458472" flag="0"/>
			<psa30 value="0.00148047442833189" flag="0"/>
		</comp>
		<comp name=".HNN" depth="0.0">
			<acc value="0.033999314937366" flag="0"/>
			<vel value="0.0200588234513" flag="0"/>
			<psa03 value="0.135608681326274" flag="0"/>
			<psa10 value="0.0297947506309967" flag="0"/>
			<psa30 value="0.00118869624529277" flag="0"/>
		</comp>
		<comp name=".HNZ" depth="0.0">
			<acc value="0.026834993603466" flag="0"/>
			<vel value="0.00939526971395" flag="0"/>
			<psa03 value="0.0756117589079707" flag="0"/>
			<psa10 value="0.0123326844798298" flag="0"/>
			<psa30 value="0.000750043280434841" flag="0"/>
		</comp>
	</station>
	<station code="KIS1" name="KIS1" netid="HI" source="ITSAK Strong Motion Network" insttype="" lat="35.493933" lon="23.658993">
		<comp name=".HNE" depth="0.0">
			<acc value="0.0033163493705358" flag="0"/>
			<vel value="0.00302846166783" flag="0"/>
			<psa03 value="0.00743607463471808" flag="0"/>
			<psa10 value="0.00354654314420077" flag="0"/>
			<psa30 value="0.000502663559412252" flag="0"/>
		</comp>
		<comp name=".HNN" depth="0.0">
			<acc value="0.003553714863957" flag="0"/>
			<vel value="0.0031279095563" flag="0"/>
			<psa03 value="0.00933367885727468" flag="0"/>
			<psa10 value="0.00369863376633488" flag="0"/>
			<psa30 value="0.000431328052533408" flag="0"/>
		</comp>
		<comp name=".HNZ" depth="0.0">
			<acc value="0.0058541135829726" flag="0"/>
			<vel value="0.00212560902717" flag="0"/>
			<psa03 value="0.0042405221247185" flag="0"/>
			<psa10 value="0.00221636213561441" flag="0"/>
			<psa30 value="0.000340315330678863" flag="0"/>
		</comp>
	</station>
	<station code="KRL1" name="KRL1" netid="HI" source="ITSAK Strong Motion Network" insttype="" lat="37.7951" lon="26.7065">
		<comp name=".HNE" depth="0.0">
			<acc value="0.032280903128268" flag="0"/>
			<vel value="0.0102133260674" flag="0"/>
			<psa03 value="0.0579463803297827" flag="0"/>
			<psa10 value="0.0100631119442631" flag="0"/>
			<psa30 value="0.000536186353048936" flag="0"/>
		</comp>
		<comp name=".HNN" depth="0.0">
			<acc value="0.019930508281836" flag="0"/>
			<vel value="0.00676015411782" flag="0"/>
			<psa03 value="0.0420455509364041" flag="0"/>
			<psa10 value="0.00992017685054522" flag="0"/>
			<psa30 value="0.000579655847273567" flag="0"/>
		</comp>
		<comp name=".HNZ" depth="0.0">
			<acc value="0.0097191317307672" flag="0"/>
			<vel value="0.00482168694814" flag="0"/>
			<psa03 value="0.0271744980938013" flag="0"/>
			<psa10 value="0.0054545736824806" flag="0"/>
			<psa30 value="0.000462018158518095" flag="0"/>
		</comp>
	</station>
	<station code="KTL1" name="KTL1" netid="HI" source="ITSAK Strong Motion Network" insttype="" lat="35.20778" lon="25.34272">
		<comp name=".HNE" depth="0.0">
			<acc value="0.011958507384552" flag="0"/>
			<vel value="0.00591832944011" flag="0"/>
			<psa03 value="0.031166067203152" flag="0"/>
			<psa10 value="0.00668859761800828" flag="0"/>
			<psa30 value="0.000896289895641261" flag="0"/>
		</comp>
		<comp name=".HNN" depth="0.0">
			<acc value="0.018829915924944" flag="0"/>
			<vel value="0.0101317901883" flag="0"/>
			<psa03 value="0.0611517176677781" flag="0"/>
			<psa10 value="0.00810182670627731" flag="0"/>
			<psa30 value="0.000553082732766889" flag="0"/>
		</comp>
		<comp name=".HNZ" depth="0.0">
			<acc value="0.0058918609340718" flag="0"/>
			<vel value="0.0032462528068" flag="0"/>
			<psa03 value="0.0146951414497633" flag="0"/>
			<psa10 value="0.00582355921970974" flag="0"/>
			<psa30 value="0.000479458063828298" flag="0"/>
		</comp>
	</station>
	<station code="NAX1" name="NAX1" netid="HI" source="ITSAK Strong Motion Network" insttype="" lat="37.101394" lon="25.374103">
		<comp name=".HNE" depth="0.0">
			<acc value="0.100584157111128" flag="0"/>
			<vel value="0.0267417675173" flag="0"/>
			<psa03 value="0.157363341215807" flag="0"/>
			<psa10 value="0.012269723433945" flag="0"/>
			<psa30 value="0.0011010633567082" flag="0"/>
		</comp>
		<comp name=".HNN" depth="0.0">
			<acc value="0.1064237698554" flag="0"/>
			<vel value="0.0256281430793" flag="0"/>
			<psa03 value="0.0687420017369163" flag="0"/>
			<psa10 value="0.00832977711936456" flag="0"/>
			<psa30 value="0.00173250143638376" flag="0"/>
		</comp>
		<comp name=".HNZ" depth="0.0">
			<acc value="0.049528206768894" flag="0"/>
			<vel value="0.0155824994457" flag="0"/>
			<psa03 value="0.0805151722766804" flag="0"/>
			<psa10 value="0.0109174954179743" flag="0"/>
			<psa30 value="0.00196906856612856" flag="0"/>
		</comp>
	</station>
	<station code="RTH1" name="RTH1" netid="HI" source="ITSAK Strong Motion Network" insttype="" lat="35.365393" lon="24.471773">
		<comp name=".HNE" depth="0.0">
			<acc value="0.0059538912680706" flag="0"/>
			<vel value="0.00271686518258" flag="0"/>
			<psa03 value="0.0175568219074445" flag="0"/>
			<psa10 value="0.00204265789418471" flag="0"/>
			<psa30 value="0.000617394128496221" flag="0"/>
		</comp>
		<comp name=".HNN" depth="0.0">
			<acc value="0.0055920779823186" flag="0"/>
			<vel value="0.00300862153577" flag="0"/>
			<psa03 value="0.0165423510579088" flag="0"/>
			<psa10 value="0.00248583670573089" flag="0"/>
			<psa30 value="0.000821565205911294" flag="0"/>
		</comp>
		<comp name=".HNZ" depth="0.0">
			<acc value="0.0052450166002092" flag="0"/>
			<vel value="0.00165858942891" flag="0"/>
			<psa03 value="0.00722572020496557" flag="0"/>
			<psa10 value="0.00171513451768356" flag="0"/>
			<psa30 value="0.000434570741303959" flag="0"/>
		</comp>
	</station>
	<station code="SFR2" name="SFR2" netid="HI" source="ITSAK Strong Motion Network" insttype="" lat="36.399841" lon="25.438209">
		<comp name=".HNE" depth="0.0">
			<acc value="0.32228589037482" flag="0"/>
			<vel value="0.0870340119598" flag="0"/>
			<psa03 value="0.374095823679096" flag="0"/>
			<psa10 value="0.0893219921435571" flag="0"/>
			<psa30 value="0.00604993202829626" flag="0"/>
		</comp>
		<comp name=".HNN" depth="0.0">
			<acc value="0.34929573651306" flag="0"/>
			<vel value="0.0856883953505" flag="0"/>
			<psa03 value="0.275959614303537" flag="0"/>
			<psa10 value="0.0967839889643056" flag="0"/>
			<psa30 value="0.00599386164726004" flag="0"/>
		</comp>
		<comp name=".HNZ" depth="0.0">
			<acc value="0.29372016823194" flag="0"/>
			<vel value="0.0673286572721" flag="0"/>
			<psa03 value="0.341936255765682" flag="0"/>
			<psa10 value="0.0413654015049216" flag="0"/>
			<psa30 value="0.00342286008101722" flag="0"/>
		</comp>
	</station>
	<station code="AMGA" name="AMGA" netid="HL" source="National Observatory of Athens Seismic Network" insttype="" lat="36.831561" lon="25.893836">
		<comp name="00.HNE" depth="0.0">
			<acc value="0.45616239004308" flag="0"/>
			<vel value="0.0875275607762" flag="0"/>
			<psa03 value="0.366249137207991" flag="0"/>
			<psa10 value="0.0209201214803634" flag="0"/>
			<psa30 value="0.00296742636909944" flag="0"/>
		</comp>
		<comp name="00.HNN" depth="0.0">
			<acc value="0.4801266910593" flag="0"/>
			<vel value="0.121696740077" flag="0"/>
			<psa03 value="0.571299929148733" flag="0"/>
			<psa10 value="0.0297601977170407" flag="0"/>
			<psa30 value="0.0022557302643937" flag="0"/>
		</comp>
		<comp name="00.HNZ" depth="0.0">
			<acc value="0.42295548095358" flag="0"/>
			<vel value="0.12355001729" flag="0"/>
			<psa03 value="0.419347404707372" flag="0"/>
			<psa10 value="0.0274656700908303" flag="0"/>
			<psa30 value="0.00334375046538987" flag="0"/>
		</comp>
	</station>
	<station code="ANAF" name="ANAF" netid="HL" source="National Observatory of Athens Seismic Network" insttype="" lat="36.35675" lon="25.77262">
		<comp name=".HNE" depth="0.0">
			<acc value="1.4250282672402" flag="0"/>
			<vel value="0.36432226125" flag="0"/>
			<psa03 value="2.02776599621104" flag="0"/>
			<psa10 value="0.171238398703465" flag="0"/>
			<psa30 value="0.0115380935087146" flag="0"/>
		</comp>
		<comp name=".HNN" depth="0.0">
			<acc value="1.237923909585" flag="0"/>
			<vel value="0.273799102438" flag="0"/>
			<psa03 value="1.65347170105366" flag="0"/>
			<psa10 value="0.0755262532436898" flag="0"/>
			<psa30 value="0.00868535702896403" flag="0"/>
		</comp>
		<comp name=".HNZ" depth="0.0">
			<acc value="0.85852974545658" flag="0"/>
			<vel value="0.143854765138" flag="0"/>
			<psa03 value="0.666886052929267" flag="0"/>
			<psa10 value="0.0450637127499733" flag="0"/>
			<psa30 value="0.00428523554249188" flag="0"/>
		</comp>
	</station>
	<station code="CHNB" name="CHNB" netid="HL" source="National Observatory of Athens Seismic Network" insttype="" lat="35.48765" lon="24.06605">
		<comp name="00.HNE" depth="0.0">
			<acc value="0.0090649351328646" flag="0"/>
			<vel value="0.00649911898757" flag="0"/>
			<psa03 value="0.0253195913611681" flag="0"/>
			<psa10 value="0.0111930552349721" flag="0"/>
			<psa30 value="0.000755397749726163" flag="0"/>
		</comp>
		<comp name="00.HNN" depth="0.0">
			<acc value="0.0101238485143752" flag="0"/>
			<vel value="0.00820316042419" flag="0"/>
			<psa03 value="0.0377524071617028" flag="0"/>
			<psa10 value="0.0136093018619594" flag="0"/>
			<psa30 value="0.000896658045027261" flag="0"/>
		</comp>
		<comp name="00.HNZ" depth="0.0">
			<acc value="0.0093880129809408" flag="0"/>
			<vel value="0.00482051618152" flag="0"/>
			<psa03 value="0.0246387988661914" flag="0"/>
			<psa10 value="0.00361212256664067" flag="0"/>
			<psa30 value="0.000345866089014454" flag="0"/>
		</comp>
	</station>
	<station code="HERG" name="HERG" netid="HL" source="National Observatory of Athens Seismic Network" insttype="" lat="35.32622" lon="25.06586">
		<comp name="00.HNE" depth="0.0">
			<acc value="0.016461007731378" flag="0"/>
			<vel value="0.0117865476263" flag="0"/>
			<psa03 value="0.0471061518012537" flag="0"/>
			<psa10 value="0.020506407198833" flag="0"/>
			<psa30 value="0.0017508645278487" flag="0"/>
		</comp>
		<comp name="00.HNN" depth="0.0">
