<?xml version="1.0" encoding="UTF-8" standalone="yes"?>
<!DOCTYPE earthquake SYSTEM "stationlist.dtd">
<stationlist created="" xmlns="ch.ethz.sed.shakemap.usgs.xml">
  <station code="THERA" name="THERA" netid="GE" insttype="STS-2/N" lat="36.367" lon="25.4753">
    <comp name="--.HHE">
      <acc value="0.1343990915" flag="0"/>
      <vel value="0.0251867280" flag="0"/>
      <psa03 value="0.1037866312" flag="0"/>
      <psa10 value="0.0175049266" flag="0"/>
      <psa30 value="0.0025581961" flag="0"/>
    </comp>
    <comp name="--.HHN">
      <acc value="0.0802562639" flag="0"/>
      <vel value="0.0169678649" flag="0"/>
      <psa03 value="0.1031383609" flag="0"/>
      <psa10 value="0.0172743966" flag="0"/>
      <psa30 value="0.0014481122" flag="0"/>
    </comp>
    <comp name="--.HHZ">
      <acc value="0.1100146283" flag="0"/>
      <vel value="0.0233998167" flag="0"/>
      <psa03 value="0.0710826687" flag="0"/>
      <psa10 value="0.0105104551" flag="0"/>
      <psa30 value="0.0014139398" flag="0"/>
    </comp>
  </station>
</stationlist>
