<?xml version="1.0" encoding="UTF-8" standalone="yes"?>
<!DOCTYPE earthquake SYSTEM "stationlist.dtd">
<stationlist created="" xmlns="ch.ethz.sed.shakemap.usgs.xml">
  <station code="GVD" name="GVD" netid="GE" insttype="STS-2/N" lat="34.8391" lon="24.0874">
    <comp name="--.HHE">
      <acc value="0.0313981461" flag="0"/>
      <vel value="0.0300729305" flag="0"/>
      <psa03 value="0.0711960302" flag="0"/>
      <psa10 value="0.0314113824" flag="0"/>
      <psa30 value="0.0077148110" flag="0"/>
    </comp>
    <comp name="--.HHN">
      <acc value="0.0265003465" flag="0"/>
      <vel value="0.0293500633" flag="0"/>
      <psa03 value="0.0633992983" flag="0"/>
      <psa10 value="0.0406770292" flag="0"/>
      <psa30 value="0.0092071770" flag="0"/>
    </comp>
    <comp name="--.HHZ">
      <acc value="0.0116299593" flag="0"/>
      <vel value="0.0128785492" flag="0"/>
      <psa03 value="0.0315568636" flag="0"/>
      <psa10 value="0.0148887467" flag="0"/>
      <psa30 value="0.0054017635" flag="0"/>
    </comp>
  </station>
  <station code="ZKR" name="ZKR" netid="GE" insttype="STS-2/N" lat="35.1147" lon="26.2169">
    <comp name="--.HHE">
      <acc value="0.0274277303" flag="0"/>
      <vel value="0.0384008226" flag="0"/>
      <psa03 value="0.0847620454" flag="0"/>
      <psa10 value="0.0725291401" flag="0"/>
      <psa30 value="0.0141322311" flag="0"/>
    </comp>
    <comp name="--.HHZ">
      <acc value="0.0159108253" flag="0"/>
      <vel value="0.0311691429" flag="0"/>
      <psa03 value="0.0357606126" flag="0"/>
      <psa10 value="0.0577341285" flag="0"/>
      <psa30 value="0.0142756426" flag="0"/>
    </comp>
    <comp name="--.HHN">
      <acc value="0.0151891673" flag="0"/>
      <vel value="0.0178705253" flag="0"/>
      <psa03 value="0.0468007068" flag="0"/>
      <psa10 value="0.0352270086" flag="0"/>
      <psa30 value="0.0051491066" flag="0"/>
    </comp>
  </station>
  <station code="SIT2" name="SIT2" netid="HI" insttype="CMG-5TD,ACCELEROMETER,GURALP" lat="35.2059" lon="26.107">
    <comp name="--.HNE">
      <acc value="0.0880213095" flag="0"/>
      <vel value="0.0756757210" flag="0"/>
      <psa03 value="0.2091818633" flag="0"/>
      <psa10 value="0.0863672445" flag="0"/>
      <psa30 value="0.0141920782" flag="0"/>
    </comp>
    <comp name="--.HNZ">
      <acc value="0.0357849558" flag="0"/>
      <vel value="0.0388342522" flag="0"/>
      <psa03 value="0.0975810135" flag="0"/>
      <psa10 value="0.0401079231" flag="0"/>
      <psa30 value="0.0066699403" flag="0"/>
    </comp>
    <comp name="--.HNN">
      <acc value="0.1020720229" flag="0"/>
      <vel value="0.0860659704" flag="0"/>
      <psa03 value="0.2261719036" flag="0"/>
      <psa10 value="0.0848265397" flag="0"/>
      <psa30 value="0.0086693730" flag="0"/>
    </comp>
  </station>
  <station code="GVD" name="GVD" netid="HL" insttype="120" lat="34.8391" lon="24.0874">
    <comp name="--.HHE">
      <acc value="0.0308748536" flag="0"/>
      <vel value="0.0295876337" flag="0"/>
      <psa03 value="0.0695259208" flag="0"/>
      <psa10 value="0.0311499498" flag="0"/>
      <psa30 value="0.0077151177" flag="0"/>
    </comp>
    <comp name="--.HHN">
      <acc value="0.0262529553" flag="0"/>
      <vel value="0.0290638515" flag="0"/>
      <psa03 value="0.0620523009" flag="0"/>
      <psa10 value="0.0403769340" flag="0"/>
      <psa30 value="0.0092092278" flag="0"/>
    </comp>
    <comp name="--.HHZ">
      <acc value="0.0118570206" flag="0"/>
      <vel value="0.0128199326" flag="0"/>
      <psa03 value="0.0306684726" flag="0"/>
      <psa10 value="0.0148125304" flag="0"/>
      <psa30 value="0.0054039331" flag="0"/>
    </comp>
  </station>
  <station code="IACM" name="IACM" netid="HL" insttype="120" lat="35.3058" lon="25.0709">
    <comp name="--.HHE">
      <acc value="0.0982852205" flag="0"/>
      <vel value="0.1529418789" flag="0"/>
      <psa03 value="0.1449518112" flag="0"/>
      <psa10 value="0.2948409287" flag="0"/>
      <psa30 value="0.0270385437" flag="0"/>
    </comp>
    <comp name="--.HHN">
      <acc value="0.0764125638" flag="0"/>
      <vel value="0.1067882856" flag="0"/>
      <psa03 value="0.1389620192" flag="0"/>
      <psa10 value="0.1959909605" flag="0"/>
      <psa30 value="0.0163306231" flag="0"/>
    </comp>
    <comp name="--.HHZ">
      <acc value="0.0335705084" flag="0"/>
      <vel value="0.0424534814" flag="0"/>
      <psa03 value="0.0659706146" flag="0"/>
      <psa10 value="0.0754586339" flag="0"/>
      <psa30 value="0.0082389278" flag="0"/>
    </comp>
  </station>
  <station code="IDI" name="IDI" netid="HL" insttype="120" lat="35.288" lon="24.89">
    <comp name="--.HHN">
      <acc value="0.0091593250" flag="0"/>
      <vel value="0.0126545224" flag="0"/>
      <psa03 value="0.0174862402" flag="0"/>
      <psa10 value="0.0272731546" flag="0"/>
      <psa30 value="0.0059198640" flag="0"/>
    </comp>
    <comp name="--.HHZ">
      <acc value="0.0077836743" flag="0"/>
      <vel value="0.0149113794" flag="0"/>
      <psa03 value="0.0195320677" flag="0"/>
      <psa10 value="0.0170678759" flag="0"/>
      <psa30 value="0.0049320720" flag="0"/>
    </comp>
    <comp name="--.HHE">
      <acc value="0.0077564292" flag="0"/>
      <vel value="0.0146276683" flag="0"/>
      <psa03 value="0.0166581284" flag="0"/>
      <psa10 value="0.0184238625" flag="0"/>
      <psa30 value="0.0041972670" flag="0"/>
    </comp>
  </station>
  <station code="NPS" name="NPS" netid="HL" insttype="CMG3ESPC-120s" lat="35.2613" lon="25.6104">
    <comp name="--.HHE">
      <acc value="0.0095788578" flag="0"/>
      <vel value="0.0096409400" flag="0"/>
      <psa03 value="0.0172816682" flag="0"/>
      <psa10 value="0.0139427498" flag="0"/>
      <psa30 value="0.0037099441" flag="0"/>
    </comp>
    <comp name="--.HHN">
      <acc value="0.0166304088" flag="0"/>
      <vel value="0.0242931870" flag="0"/>
      <psa03 value="0.0257484020" flag="0"/>
      <psa10 value="0.0409937877" flag="0"/>
      <psa30 value="0.0093139275" flag="0"/>
    </comp>
    <comp name="--.HHZ">
      <acc value="0.0113193022" flag="0"/>
      <vel value="0.0216418917" flag="0"/>
      <psa03 value="0.0211102199" flag="0"/>
      <psa10 value="0.0193764917" flag="0"/>
      <psa30 value="0.0080824141" flag="0"/>
    </comp>
  </station>
  <station code="ZKR" name="ZKR" netid="HL" insttype="120" lat="35.1147" lon="26.2169">
    <comp name="--.HHE">
      <acc value="0.0270329360" flag="0"/>
      <vel value="0.0383131460" flag="0"/>
      <psa03 value="0.0824373861" flag="0"/>
      <psa10 value="0.0720821951" flag="0"/>
      <psa30 value="0.0141348049" flag="0"/>
    </comp>
    <comp name="--.HHN">
      <acc value="0.0150016009" flag="0"/>
      <vel value="0.0176511558" flag="0"/>
      <psa03 value="0.0455904265" flag="0"/>
      <psa10 value="0.0350924818" flag="0"/>
      <psa30 value="0.0051444601" flag="0"/>
    </comp>
    <comp name="--.HHZ">
      <acc value="0.0156102380" flag="0"/>
      <vel value="0.0310683069" flag="0"/>
      <psa03 value="0.0348638885" flag="0"/>
      <psa10 value="0.0574577960" flag="0"/>
      <psa30 value="0.0142756568" flag="0"/>
    </comp>
  </station>
  <station code="IDI" name="IDI" netid="MN" insttype="" lat="35.288" lon="24.89">
    <comp name="--.HHE">
      <acc value="0.0077523132" flag="0"/>
      <vel value="0.0145133554" flag="0"/>
      <psa03 value="0.0166995648" flag="0"/>
      <psa10 value="0.0182916101" flag="0"/>
      <psa30 value="0.0041456289" flag="0"/>
    </comp>
    <comp name="--.HHN">
      <acc value="0.0091566503" flag="0"/>
      <vel value="0.0126128653" flag="0"/>
      <psa03 value="0.0175105568" flag="0"/>
      <psa10 value="0.0270642795" flag="0"/>
      <psa30 value="0.0058475551" flag="0"/>
    </comp>
    <comp name="--.HHZ">
      <acc value="0.0077681377" flag="0"/>
      <vel value="0.0147412997" flag="0"/>
      <psa03 value="0.0196870537" flag="0"/>
      <psa10 value="0.0169444182" flag="0"/>
      <psa30 value="0.0048714049" flag="0"/>
    </comp>
  </station>
</stationlist>
