<stationlist created="1778069406">
	<station code="IMMV" name="IMMV" netid="GE" source="GEOFON" insttype="" lat="35.4606" lon="23.9811">
		<comp name="--.HNE" depth="0.0">
			<acc value="0.0115928777679809" flag="0"/>
			<vel value="0.0162955338374597" flag="0"/>
			<psa03 value="0.0162861632090509" flag="0"/>
			<psa10 value="0.0307365536805541" flag="0"/>
			<psa30 value="0.00485497684014867" flag="0"/>
		</comp>
		<comp name="--.HNN" depth="0.0">
			<acc value="0.00832538345073908" flag="0"/>
			<vel value="0.0140264007692719" flag="0"/>
			<psa03 value="0.0253688311525601" flag="0"/>
			<psa10 value="0.0227473852667955" flag="0"/>
			<psa30 value="0.00690014310466987" flag="0"/>
		</comp>
		<comp name="--.HNZ" depth="0.0">
			<acc value="0.00592437325987437" flag="0"/>
			<vel value="0.0108046267455465" flag="0"/>
			<psa03 value="0.0159282255561047" flag="0"/>
			<psa10 value="0.0118146270796208" flag="0"/>
			<psa30 value="0.00288989912547417" flag="0"/>
		</comp>
	</station>
	<station code="SIT2" name="SIT2" netid="HI" source="ITSAK Strong Motion Network" insttype="" lat="35.2059" lon="26.107">
		<comp name="--.HNE" depth="0.0">
			<acc value="0.0879117732621636" flag="0"/>
			<vel value="0.0754394212817703" flag="0"/>
			<psa03 value="0.206172088096996" flag="0"/>
			<psa10 value="0.0866768397712469" flag="0"/>
			<psa30 value="0.0140298137292915" flag="0"/>
		</comp>
		<comp name="--.HNN" depth="0.0">
			<acc value="0.102333523430672" flag="0"/>
			<vel value="0.0902134238503478" flag="0"/>
			<psa03 value="0.224247939570778" flag="0"/>
			<psa10 value="0.0849372627779286" flag="0"/>
			<psa30 value="0.00967371249293653" flag="0"/>
		</comp>
		<comp name="--.HNZ" depth="0.0">
			<acc value="0.0357485406329557" flag="0"/>
			<vel value="0.0419210555629775" flag="0"/>
			<psa03 value="0.0962852286425208" flag="0"/>
			<psa10 value="0.0400465120336841" flag="0"/>
			<psa30 value="0.00780751505488842" flag="0"/>
		</comp>
	</station>
	<station code="IACM" name="IACM" netid="HL" source="National Observatory of Athens Seismic Network" insttype="" lat="35.3058" lon="25.0709">
		<comp name="--.HNE" depth="0.0">
			<acc value="0.100137978002114" flag="0"/>
			<vel value="0.159389679504249" flag="0"/>
			<psa03 value="0.145993820195421" flag="0"/>
			<psa10 value="0.2971414951712" flag="0"/>
			<psa30 value="0.0269124372808905" flag="0"/>
		</comp>
		<comp name="--.HNN" depth="0.0">
			<acc value="0.0761399775757388" flag="0"/>
			<vel value="0.109529286571191" flag="0"/>
			<psa03 value="0.139595684649008" flag="0"/>
			<psa10 value="0.18510790464318" flag="0"/>
			<psa30 value="0.0167845913907785" flag="0"/>
		</comp>
		<comp name="--.HNZ" depth="0.0">
			<acc value="0.0331856192027041" flag="0"/>
			<vel value="0.0465360727026147" flag="0"/>
			<psa03 value="0.063712902224419" flag="0"/>
			<psa10 value="0.0730098853376297" flag="0"/>
			<psa30 value="0.00835605450802843" flag="0"/>
		</comp>
	</station>
	<station code="IMMV" name="IMMV" netid="HL" source="National Observatory of Athens Seismic Network" insttype="" lat="35.4606" lon="23.9811">
		<comp name="--.HNE" depth="0.0">
			<acc value="0.0113074476627923" flag="0"/>
			<vel value="0.0153806656296166" flag="0"/>
			<psa03 value="0.0158834833494865" flag="0"/>
			<psa10 value="0.0301285070926118" flag="0"/>
			<psa30 value="0.00469390489632289" flag="0"/>
		</comp>
		<comp name="--.HNN" depth="0.0">
			<acc value="0.00807992943929699" flag="0"/>
			<vel value="0.013807138531287" flag="0"/>
			<psa03 value="0.0247871824665226" flag="0"/>
			<psa10 value="0.0222601426367226" flag="0"/>
			<psa30 value="0.00667330011711523" flag="0"/>
		</comp>
		<comp name="--.HNZ" depth="0.0">
			<acc value="0.00581345328167962" flag="0"/>
			<vel value="0.0104849814645306" flag="0"/>
			<psa03 value="0.0155702879031586" flag="0"/>
			<psa10 value="0.0115569119694996" flag="0"/>
			<psa30 value="0.00279638791364198" flag="0"/>
		</comp>
	</station>
</stationlist>
