<?xml version="1.0" encoding="UTF-8" standalone="yes"?>
<!DOCTYPE earthquake SYSTEM "stationlist.dtd">
<stationlist created="" xmlns="ch.ethz.sed.shakemap.usgs.xml">
  <station code="ASB" name="ASB" netid="VI" source="ODC" insttype="STS-2.5" lat="64.7482" lon="-21.3254">
    <comp name="--.HHE">
      <acc value="0.3430323511" flag="0"/>
      <vel value="0.3221035358" flag="0"/>
      <psa03 value="1.0260521728" flag="0"/>
      <psa10 value="0.5217066398" flag="0"/>
      <psa30 value="0.1028699127" flag="0"/>
    </comp>
    <comp name="--.HHZ">
      <acc value="0.2844417590" flag="0"/>
      <vel value="0.1853421228" flag="0"/>
      <psa03 value="0.6823892889" flag="0"/>
      <psa10 value="0.2454333079" flag="0"/>
      <psa30 value="0.0834656026" flag="0"/>
    </comp>
    <comp name="--.HHN">
      <acc value="0.3767089060" flag="0"/>
      <vel value="0.2260845849" flag="0"/>
      <psa03 value="0.8628063381" flag="0"/>
      <psa10 value="0.3128061782" flag="0"/>
      <psa30 value="0.0787664992" flag="0"/>
    </comp>
  </station>
  <station code="GOD" name="GOD" netid="VI" source="ODC" insttype="CMG-3ESP" lat="63.6598" lon="-19.3224">
    <comp name="--.HHN">
      <acc value="0.1660729530" flag="0"/>
      <vel value="0.4606521821" flag="0"/>
      <psa03 value="0.2661612557" flag="0"/>
      <psa10 value="0.5721118312" flag="0"/>
      <psa30 value="0.1291260687" flag="0"/>
    </comp>
    <comp name="--.HHZ">
      <acc value="0.1154391403" flag="0"/>
      <vel value="0.2521745547" flag="0"/>
      <psa03 value="0.1594573401" flag="0"/>
      <psa10 value="0.3260688675" flag="0"/>
      <psa30 value="0.0729296603" flag="0"/>
    </comp>
    <comp name="--.HHE">
      <acc value="0.1340968891" flag="0"/>
      <vel value="0.1842752120" flag="0"/>
      <psa03 value="0.2083068766" flag="0"/>
      <psa10 value="0.3502386540" flag="0"/>
      <psa30 value="0.0904971085" flag="0"/>
    </comp>
  </station>
  <station code="SKR" name="SKR" netid="VI" source="ODC" insttype="LE-3D/5s" lat="64.5601" lon="-18.3865">
    <comp name="--.HHE">
      <acc value="0.1096885254" flag="0"/>
      <vel value="0.3792947508" flag="0"/>
      <psa03 value="0.1350473695" flag="0"/>
      <psa10 value="0.2893557072" flag="0"/>
      <psa30 value="0.2041983066" flag="0"/>
    </comp>
    <comp name="--.HHZ">
      <acc value="0.0990243164" flag="0"/>
      <vel value="0.2684023915" flag="0"/>
      <psa03 value="0.2193765333" flag="0"/>
      <psa10 value="0.2365797752" flag="0"/>
      <psa30 value="0.1819251760" flag="0"/>
    </comp>
    <comp name="--.HHN">
      <acc value="0.1369339588" flag="0"/>
      <vel value="0.4405962111" flag="0"/>
      <psa03 value="0.1656200316" flag="0"/>
      <psa10 value="0.2524607620" flag="0"/>
      <psa30 value="0.1992534463" flag="0"/>
    </comp>
  </station>
</stationlist>
