<stationlist created="1778135743">
	<station code="S2114" name="S2114" netid="S2" source="IceSMN Icelandic Strong Motion Network (IceSMN)" insttype="" lat="63.7515" lon="-20.2168">
		<comp name="00.HN1" depth="0.0">
			<acc value="0.422626189931431" flag="0"/>
			<vel value="0.415500485138712" flag="0"/>
			<psa03 value="0.703447933308762" flag="0"/>
			<psa10 value="0.557974863096492" flag="0"/>
			<psa30 value="0.215987534780695" flag="0"/>
		</comp>
		<comp name="00.HN2" depth="0.0">
			<acc value="0.456097318062485" flag="0"/>
			<vel value="0.180397504167059" flag="0"/>
			<psa03 value="0.506872994514118" flag="0"/>
			<psa10 value="0.300906163556758" flag="0"/>
			<psa30 value="0.127188958977687" flag="0"/>
		</comp>
		<comp name="00.HNZ" depth="0.0">
			<acc value="0.20353907350211" flag="0"/>
			<vel value="0.216987506869607" flag="0"/>
			<psa03 value="0.200378190738274" flag="0"/>
			<psa10 value="0.199759878111469" flag="0"/>
			<psa30 value="0.19425482842888" flag="0"/>
		</comp>
	</station>
	<station code="S2119" name="S2119" netid="S2" source="IceSMN Icelandic Strong Motion Network (IceSMN)" insttype="" lat="64.1301" lon="-20.32">
		<comp name="00.HN1" depth="0.0">
			<acc value="0.219495671769987" flag="0"/>
			<vel value="0.399768689037067" flag="0"/>
			<psa03 value="0.540722445207207" flag="0"/>
			<psa10 value="0.196404620842411" flag="0"/>
			<psa30 value="0.158116007742903" flag="0"/>
		</comp>
		<comp name="00.HN2" depth="0.0">
			<acc value="0.197731731755779" flag="0"/>
			<vel value="0.287877731889147" flag="0"/>
			<psa03 value="0.55442518628316" flag="0"/>
			<psa10 value="0.343159822654122" flag="0"/>
			<psa30 value="0.152465086730454" flag="0"/>
		</comp>
		<comp name="00.HNZ" depth="0.0">
			<acc value="0.0991650057238636" flag="0"/>
			<vel value="0.140552561611725" flag="0"/>
			<psa03 value="0.149304515691413" flag="0"/>
			<psa10 value="0.170876379721374" flag="0"/>
			<psa30 value="0.114006419032238" flag="0"/>
		</comp>
	</station>
	<station code="S2405" name="S2405" netid="S2" source="IceSMN Icelandic Strong Motion Network (IceSMN)" insttype="" lat="64.0447" lon="-21.9848">
		<comp name="00.HN1" depth="0.0">
			<acc value="3.84111062853048" flag="0"/>
			<vel value="5.04946559121555" flag="0"/>
			<psa03 value="6.82067183602358" flag="0"/>
			<psa10 value="6.63463711215849" flag="0"/>
			<psa30 value="1.0070988220197" flag="0"/>
		</comp>
		<comp name="00.HN2" depth="0.0">
			<acc value="7.11281807619067" flag="0"/>
			<vel value="5.00073219792736" flag="0"/>
			<psa03 value="7.37924950572046" flag="0"/>
			<psa10 value="7.20592151692035" flag="0"/>
			<psa30 value="1.11529361606004" flag="0"/>
		</comp>
		<comp name="00.HNZ" depth="0.0">
			<acc value="2.43387209443429" flag="0"/>
			<vel value="2.37026199053986" flag="0"/>
			<psa03 value="2.86499012486924" flag="0"/>
			<psa10 value="2.05165783226158" flag="0"/>
			<psa30 value="0.97107776913422" flag="0"/>
		</comp>
	</station>
	<station code="S2602" name="S2602" netid="S2" source="IceSMN Icelandic Strong Motion Network (IceSMN)" insttype="" lat="63.8464" lon="-22.4268">
		<comp name="00.HN1" depth="0.0">
			<acc value="3.34235320374444" flag="0"/>
			<vel value="3.62563985856543" flag="0"/>
			<psa03 value="4.9484118079946" flag="0"/>
			<psa10 value="4.3483834190486" flag="0"/>
			<psa30 value="0.973283888614647" flag="0"/>
		</comp>
		<comp name="00.HN2" depth="0.0">
			<acc value="1.99831614203967" flag="0"/>
			<vel value="2.95694542922426" flag="0"/>
			<psa03 value="3.84393897542537" flag="0"/>
			<psa10 value="4.60876274791163" flag="0"/>
			<psa30 value="0.942250579474681" flag="0"/>
		</comp>
		<comp name="00.HNZ" depth="0.0">
			<acc value="1.5255163874122" flag="0"/>
			<vel value="1.53247216762039" flag="0"/>
			<psa03 value="2.18178253238357" flag="0"/>
			<psa10 value="0.973556453338764" flag="0"/>
			<psa30 value="0.329650584400088" flag="0"/>
		</comp>
	</station>
	<station code="S2604" name="S2604" netid="S2" source="IceSMN Icelandic Strong Motion Network (IceSMN)" insttype="" lat="63.9843" lon="-21.6486">
		<comp name="00.HN1" depth="0.0">
			<acc value="1.82893861592595" flag="0"/>
			<vel value="2.60598578853923" flag="0"/>
			<psa03 value="4.15015092713016" flag="0"/>
			<psa10 value="2.81569948627175" flag="0"/>
			<psa30 value="1.35935053030307" flag="0"/>
		</comp>
		<comp name="00.HN2" depth="0.0">
			<acc value="1.75042835525359" flag="0"/>
			<vel value="1.46086713753721" flag="0"/>
			<psa03 value="2.93656053272338" flag="0"/>
			<psa10 value="2.40343665588316" flag="0"/>
			<psa30 value="0.620841287688842" flag="0"/>
		</comp>
		<comp name="00.HNZ" depth="0.0">
			<acc value="1.64146951898809" flag="0"/>
			<vel value="1.21777865499026" flag="0"/>
			<psa03 value="2.75832422544228" flag="0"/>
			<psa10 value="0.894214517321183" flag="0"/>
			<psa30 value="0.917430695282804" flag="0"/>
		</comp>
	</station>
</stationlist>
