<?xml version="1.0" encoding="UTF-8" standalone="yes"?>
<!DOCTYPE earthquake SYSTEM "stationlist.dtd">
<stationlist created="" xmlns="ch.ethz.sed.shakemap.usgs.xml">
  <station code="SVRC" name="SVRC" netid="KO" insttype="CMG-3T" lat="38.3775" lon="39.306">
    <comp name="--.HHE">
      <acc value="0.0176885671" flag="0"/>
      <vel value="0.0107881361" flag="0"/>
      <psa03 value="0.0590484490" flag="0"/>
      <psa10 value="0.0106685537" flag="0"/>
      <psa30 value="0.0022948772" flag="0"/>
    </comp>
    <comp name="--.HHN">
      <acc value="0.0114578220" flag="0"/>
      <vel value="0.0110277755" flag="0"/>
      <psa03 value="0.0434481722" flag="0"/>
      <psa10 value="0.0123529336" flag="0"/>
      <psa30 value="0.0046345663" flag="0"/>
    </comp>
  </station>
</stationlist>
