<?xml version="1.0" encoding="UTF-8" standalone="yes"?>
<!DOCTYPE earthquake SYSTEM "stationlist.dtd">
<stationlist created="" xmlns="ch.ethz.sed.shakemap.usgs.xml">
  <station code="APE" name="APE" netid="GE" insttype="STS-2/N" lat="37.0727" lon="25.523">
    <comp name="--.HHE">
      <acc value="0.3217658652" flag="0"/>
      <vel value="0.0599050329" flag="0"/>
      <psa03 value="0.2366246264" flag="0"/>
      <psa10 value="0.0361185214" flag="0"/>
      <psa30 value="0.0064417097" flag="0"/>
    </comp>
    <comp name="--.HHZ">
      <acc value="0.1669705636" flag="0"/>
      <vel value="0.0282159470" flag="0"/>
      <psa03 value="0.1762076594" flag="0"/>
      <psa10 value="0.0276145996" flag="0"/>
      <psa30 value="0.0070525219" flag="0"/>
    </comp>
    <comp name="--.HHN">
      <acc value="0.3172717985" flag="0"/>
      <vel value="0.0942745351" flag="0"/>
      <psa03 value="0.1714156835" flag="0"/>
      <psa10 value="0.0382037979" flag="0"/>
      <psa30 value="0.0069250089" flag="0"/>
    </comp>
  </station>
  <station code="THERA" name="THERA" netid="GE" insttype="STS-2/N" lat="36.367" lon="25.4753">
    <comp name="--.HHE">
      <acc value="0.1502140950" flag="0"/>
      <vel value="0.0342835600" flag="0"/>
      <psa03 value="0.2182640717" flag="0"/>
      <psa10 value="0.0129977174" flag="0"/>
      <psa30 value="0.0031635716" flag="0"/>
    </comp>
    <comp name="--.HHN">
      <acc value="0.0661773474" flag="0"/>
      <vel value="0.0153987872" flag="0"/>
      <psa03 value="0.1154010737" flag="0"/>
      <psa10 value="0.0086623634" flag="0"/>
      <psa30 value="0.0013447838" flag="0"/>
    </comp>
    <comp name="--.HHZ">
      <acc value="0.1022484795" flag="0"/>
      <vel value="0.0219682315" flag="0"/>
      <psa03 value="0.0915557557" flag="0"/>
      <psa10 value="0.0108425761" flag="0"/>
      <psa30 value="0.0022303611" flag="0"/>
    </comp>
  </station>
</stationlist>
