<?xml version="1.0" encoding="UTF-8" standalone="yes"?>
<!DOCTYPE earthquake SYSTEM "stationlist.dtd">
<stationlist created="" xmlns="ch.ethz.sed.shakemap.usgs.xml">
  <station code="APE" name="APE" netid="GE" insttype="STS-2/N" lat="37.0727" lon="25.523">
    <comp name="--.HHE">
      <acc value="0.3217658653" flag="0"/>
      <vel value="0.0599050292" flag="0"/>
      <psa03 value="0.2366246264" flag="0"/>
      <psa10 value="0.0361185255" flag="0"/>
      <psa30 value="0.0064422793" flag="0"/>
    </comp>
    <comp name="--.HHN">
      <acc value="0.3172717989" flag="0"/>
      <vel value="0.0942745532" flag="0"/>
      <psa03 value="0.1714156835" flag="0"/>
      <psa10 value="0.0382037944" flag="0"/>
      <psa30 value="0.0069250530" flag="0"/>
    </comp>
    <comp name="--.HHZ">
      <acc value="0.1669705637" flag="0"/>
      <vel value="0.0282159438" flag="0"/>
      <psa03 value="0.1762076594" flag="0"/>
      <psa10 value="0.0276145999" flag="0"/>
      <psa30 value="0.0070526588" flag="0"/>
    </comp>
  </station>
  <station code="THERA" name="THERA" netid="GE" insttype="STS-2/N" lat="36.367" lon="25.4753">
    <comp name="--.HHN">
      <acc value="0.0661773477" flag="0"/>
      <vel value="0.0153987869" flag="0"/>
      <psa03 value="0.1154010737" flag="0"/>
      <psa10 value="0.0086623607" flag="0"/>
      <psa30 value="0.0013447145" flag="0"/>
    </comp>
    <comp name="--.HHZ">
      <acc value="0.1022484790" flag="0"/>
      <vel value="0.0219682346" flag="0"/>
      <psa03 value="0.0915557557" flag="0"/>
      <psa10 value="0.0108425773" flag="0"/>
      <psa30 value="0.0022297268" flag="0"/>
    </comp>
    <comp name="--.HHE">
      <acc value="0.1502140951" flag="0"/>
      <vel value="0.0342835600" flag="0"/>
      <psa03 value="0.2182640717" flag="0"/>
      <psa10 value="0.0129977213" flag="0"/>
      <psa30 value="0.0031627118" flag="0"/>
    </comp>
  </station>
</stationlist>
