<?xml version="1.0" encoding="UTF-8" standalone="yes"?>
<!DOCTYPE earthquake SYSTEM "stationlist.dtd">
<stationlist created="" xmlns="ch.ethz.sed.shakemap.usgs.xml">
  <station code="APE" name="APE" netid="GE" insttype="STS-2/N" lat="37.0727" lon="25.523">
    <comp name="--.HHZ">
      <acc value="0.1669705636" flag="0"/>
      <vel value="0.0282159470" flag="0"/>
      <psa03 value="0.1762076594" flag="0"/>
      <psa10 value="0.0276145997" flag="0"/>
      <psa30 value="0.0070525140" flag="0"/>
    </comp>
    <comp name="--.HHE">
      <acc value="0.3217658652" flag="0"/>
      <vel value="0.0599050331" flag="0"/>
      <psa03 value="0.2366246264" flag="0"/>
      <psa10 value="0.0361185213" flag="0"/>
      <psa30 value="0.0064416964" flag="0"/>
    </comp>
    <comp name="--.HHN">
      <acc value="0.3172717985" flag="0"/>
      <vel value="0.0942745426" flag="0"/>
      <psa03 value="0.1714156835" flag="0"/>
      <psa10 value="0.0382037980" flag="0"/>
      <psa30 value="0.0069249120" flag="0"/>
    </comp>
  </station>
  <station code="THERA" name="THERA" netid="GE" insttype="STS-2/N" lat="36.367" lon="25.4753">
    <comp name="--.HHZ">
      <acc value="0.1022484795" flag="0"/>
      <vel value="0.0219682302" flag="0"/>
      <psa03 value="0.0915557557" flag="0"/>
      <psa10 value="0.0108425760" flag="0"/>
      <psa30 value="0.0022303272" flag="0"/>
    </comp>
    <comp name="--.HHE">
      <acc value="0.1502140950" flag="0"/>
      <vel value="0.0342835585" flag="0"/>
      <psa03 value="0.2182640717" flag="0"/>
      <psa10 value="0.0129977172" flag="0"/>
      <psa30 value="0.0031636364" flag="0"/>
    </comp>
    <comp name="--.HHN">
      <acc value="0.0661773474" flag="0"/>
      <vel value="0.0153987819" flag="0"/>
      <psa03 value="0.1154010737" flag="0"/>
      <psa10 value="0.0086623634" flag="0"/>
      <psa30 value="0.0013447032" flag="0"/>
    </comp>
  </station>
  <station code="NAX1" name="NAX1" netid="HI" insttype="CMG-5TD,ACCELEROMETER,GURALP" lat="37.1014" lon="25.3741">
    <comp name="--.HNE">
      <acc value="0.1926422918" flag="0"/>
      <vel value="0.0548370645" flag="0"/>
      <psa03 value="0.1654693230" flag="0"/>
      <psa10 value="0.0223277061" flag="0"/>
      <psa30 value="0.0023513720" flag="0"/>
    </comp>
    <comp name="--.HNZ">
      <acc value="0.1056288092" flag="0"/>
      <vel value="0.0232457866" flag="0"/>
      <psa03 value="0.1341352177" flag="0"/>
      <psa10 value="0.0206744897" flag="0"/>
      <psa30 value="0.0054780578" flag="0"/>
    </comp>
    <comp name="--.HNN">
      <acc value="0.2091842541" flag="0"/>
      <vel value="0.0585964099" flag="0"/>
      <psa03 value="0.2093580744" flag="0"/>
      <psa10 value="0.0189172437" flag="0"/>
      <psa30 value="0.0038709884" flag="0"/>
    </comp>
  </station>
  <station code="APE" name="APE" netid="HL" insttype="120" lat="37.0727" lon="25.523">
    <comp name="--.HHE">
      <acc value="0.2981679850" flag="0"/>
      <vel value="0.0570670494" flag="0"/>
      <psa03 value="0.2283313092" flag="0"/>
      <psa10 value="0.0357465661" flag="0"/>
      <psa30 value="0.0064321493" flag="0"/>
    </comp>
    <comp name="--.HHN">
      <acc value="0.2835763484" flag="0"/>
      <vel value="0.0896092842" flag="0"/>
      <psa03 value="0.1672616522" flag="0"/>
      <psa10 value="0.0378852957" flag="0"/>
      <psa30 value="0.0069123546" flag="0"/>
    </comp>
    <comp name="--.HHZ">
      <acc value="0.1527290501" flag="0"/>
      <vel value="0.0277630662" flag="0"/>
      <psa03 value="0.1712554368" flag="0"/>
      <psa10 value="0.0273566200" flag="0"/>
      <psa30 value="0.0070416139" flag="0"/>
    </comp>
  </station>
  <station code="MHLO" name="MHLO" netid="HL" insttype="20" lat="36.6898" lon="24.4017">
    <comp name="--.HHZ">
      <acc value="0.0420389633" flag="0"/>
      <vel value="0.0188530923" flag="0"/>
      <psa03 value="0.0962576647" flag="0"/>
      <psa10 value="0.0220816894" flag="0"/>
      <psa30 value="0.0032278378" flag="0"/>
    </comp>
    <comp name="--.HHN">
      <acc value="0.0871035269" flag="0"/>
      <vel value="0.0296394112" flag="0"/>
      <psa03 value="0.1822578644" flag="0"/>
      <psa10 value="0.0236120968" flag="0"/>
      <psa30 value="0.0038950046" flag="0"/>
    </comp>
    <comp name="--.HHE">
      <acc value="0.1387985023" flag="0"/>
      <vel value="0.0487754782" flag="0"/>
      <psa03 value="0.2644154210" flag="0"/>
      <psa10 value="0.0320701723" flag="0"/>
      <psa30 value="0.0053158793" flag="0"/>
    </comp>
  </station>
  <station code="NISR" name="NISR" netid="HL" insttype="65535" lat="36.6106" lon="27.131">
    <comp name="--.HHE">
      <acc value="0.0000000000" flag="0"/>
      <vel value="-100.0000000000" flag="0"/>
      <psa03 value="0.0000000000" flag="0"/>
      <psa10 value="0.0000000000" flag="0"/>
      <psa30 value="0.0000000000" flag="0"/>
    </comp>
    <comp name="--.HHN">
      <acc value="0.0679420303" flag="0"/>
      <vel value="0.0559936276" flag="0"/>
      <psa03 value="0.2735287549" flag="0"/>
      <psa10 value="0.0264308042" flag="0"/>
      <psa30 value="0.0065698158" flag="0"/>
    </comp>
    <comp name="--.HHZ">
      <acc value="0.0453615922" flag="0"/>
      <vel value="0.0307316882" flag="0"/>
      <psa03 value="0.1588663412" flag="0"/>
      <psa10 value="0.0182146580" flag="0"/>
      <psa30 value="0.0017068072" flag="0"/>
    </comp>
  </station>
  <station code="NISR2" name="NISR2" netid="HL" insttype="120" lat="36.5744" lon="27.1767">
    <comp name="--.HHE">
      <acc value="0.0657842419" flag="0"/>
      <vel value="0.0602391485" flag="0"/>
      <psa03 value="0.1951284936" flag="0"/>
      <psa10 value="0.1094998063" flag="0"/>
      <psa30 value="0.0053059231" flag="0"/>
    </comp>
    <comp name="--.HHZ">
      <acc value="0.0306112468" flag="0"/>
      <vel value="0.0224443099" flag="0"/>
      <psa03 value="0.0889033600" flag="0"/>
      <psa10 value="0.0167552949" flag="0"/>
      <psa30 value="0.0018074108" flag="0"/>
    </comp>
    <comp name="--.HHN">
      <acc value="0.0993506055" flag="0"/>
      <vel value="0.0723281578" flag="0"/>
      <psa03 value="0.2306585342" flag="0"/>
      <psa10 value="0.0900305486" flag="0"/>
      <psa30 value="0.0048556751" flag="0"/>
    </comp>
  </station>
  <station code="SAP3" name="SAP3" netid="HL" insttype="LE3D20_SMART24" lat="36.4356" lon="25.3454">
    <comp name="--.HHE">
      <acc value="0.3740294897" flag="0"/>
      <vel value="0.1115497482" flag="0"/>
      <psa03 value="0.3963803509" flag="0"/>
      <psa10 value="0.0629407270" flag="0"/>
      <psa30 value="0.0246695998" flag="0"/>
    </comp>
    <comp name="--.HHN">
      <acc value="0.3495368369" flag="0"/>
      <vel value="0.1019500640" flag="0"/>
      <psa03 value="0.7015593949" flag="0"/>
      <psa10 value="0.0703610564" flag="0"/>
      <psa30 value="0.0233447884" flag="0"/>
    </comp>
    <comp name="--.HHZ">
      <acc value="0.3603273629" flag="0"/>
      <vel value="0.1181361741" flag="0"/>
      <psa03 value="0.5633340728" flag="0"/>
      <psa10 value="0.0392052750" flag="0"/>
      <psa30 value="0.0118653119" flag="0"/>
    </comp>
  </station>
  <station code="SMG" name="SMG" netid="HL" insttype="120" lat="37.7043" lon="26.8377">
    <comp name="--.HHE">
      <acc value="0.0769274146" flag="0"/>
      <vel value="0.0283024708" flag="0"/>
      <psa03 value="0.2145505937" flag="0"/>
      <psa10 value="0.0196879830" flag="0"/>
      <psa30 value="0.0010232992" flag="0"/>
    </comp>
    <comp name="--.HHZ">
      <acc value="0.0328687756" flag="0"/>
      <vel value="0.0107369952" flag="0"/>
      <psa03 value="0.0836591409" flag="0"/>
      <psa10 value="0.0095005262" flag="0"/>
      <psa30 value="0.0005792248" flag="0"/>
    </comp>
    <comp name="--.HHN">
      <acc value="0.0541238767" flag="0"/>
      <vel value="0.0238193692" flag="0"/>
      <psa03 value="0.1913742515" flag="0"/>
      <psa10 value="0.0150112501" flag="0"/>
      <psa30 value="0.0014748637" flag="0"/>
    </comp>
  </station>
  <station code="THERA" name="THERA" netid="HL" insttype="120" lat="36.367" lon="25.4753">
    <comp name="--.HHE">
      <acc value="0.1487415119" flag="0"/>
      <vel value="0.0330698409" flag="0"/>
      <psa03 value="0.2116921085" flag="0"/>
      <psa10 value="0.0128893936" flag="0"/>
      <psa30 value="0.0031634452" flag="0"/>
    </comp>
    <comp name="--.HHZ">
      <acc value="0.1030945649" flag="0"/>
      <vel value="0.0210871239" flag="0"/>
      <psa03 value="0.0891756079" flag="0"/>
      <psa10 value="0.0107676609" flag="0"/>
      <psa30 value="0.0022284296" flag="0"/>
    </comp>
    <comp name="--.HHN">
      <acc value="0.0652407428" flag="0"/>
      <vel value="0.0149653829" flag="0"/>
      <psa03 value="0.1118255298" flag="0"/>
      <psa10 value="0.0085973171" flag="0"/>
      <psa30 value="0.0013416735" flag="0"/>
    </comp>
  </station>
  <station code="TNSA" name="TNSA" netid="HL" insttype="CMG-5" lat="37.5394" lon="25.1631">
    <comp name="00.HNZ">
      <acc value="0.0859119278" flag="0"/>
      <vel value="0.0283876081" flag="0"/>
      <psa03 value="0.0743128719" flag="0"/>
      <psa10 value="0.0242318724" flag="0"/>
      <psa30 value="0.0028179052" flag="0"/>
    </comp>
    <comp name="00.HNN">
      <acc value="0.0798065570" flag="0"/>
      <vel value="0.0238129929" flag="0"/>
      <psa03 value="0.1214851503" flag="0"/>
      <psa10 value="0.0161619847" flag="0"/>
      <psa30 value="0.0021576704" flag="0"/>
    </comp>
    <comp name="00.HNE">
      <acc value="0.0923973710" flag="0"/>
      <vel value="0.0200617018" flag="0"/>
      <psa03 value="0.0692296189" flag="0"/>
      <psa10 value="0.0100462292" flag="0"/>
      <psa30 value="0.0015240043" flag="0"/>
    </comp>
  </station>
  <station code="CMBO" name="CMBO" netid="HT" insttype="120P," lat="36.4709" lon="25.4056">
    <comp name="--.HHZ">
      <acc value="0.5306655075" flag="0"/>
      <vel value="0.1177081896" flag="0"/>
      <psa03 value="0.8363866830" flag="0"/>
      <psa10 value="0.0347629336" flag="0"/>
      <psa30 value="0.0082141218" flag="0"/>
    </comp>
    <comp name="--.HHN">
      <acc value="0.4509045135" flag="0"/>
      <vel value="0.1431888561" flag="0"/>
      <psa03 value="1.0382510929" flag="0"/>
      <psa10 value="0.0895306811" flag="0"/>
      <psa30 value="0.0107715067" flag="0"/>
    </comp>
    <comp name="--.HHE">
      <acc value="0.3851261014" flag="0"/>
      <vel value="0.0889773121" flag="0"/>
      <psa03 value="0.5138031201" flag="0"/>
      <psa10 value="0.0727113175" flag="0"/>
      <psa30 value="0.0129984397" flag="0"/>
    </comp>
  </station>
</stationlist>
