<?xml version="1.0" encoding="UTF-8" standalone="yes"?>
<!DOCTYPE earthquake SYSTEM "stationlist.dtd">
<stationlist created="" xmlns="ch.ethz.sed.shakemap.usgs.xml">
  <station code="ARPRA" name="ARPRA" netid="KO" insttype="CMG-5T" lat="39.0929" lon="38.3356">
    <comp name="--.HNN">
      <acc value="0.0265516091" flag="0"/>
      <vel value="0.0079127783" flag="0"/>
      <psa03 value="0.0388923424" flag="0"/>
      <psa10 value="0.0091526815" flag="0"/>
      <psa30 value="0.0010467403" flag="0"/>
    </comp>
    <comp name="--.HNE">
      <acc value="0.0270752447" flag="0"/>
      <vel value="0.0081863986" flag="0"/>
      <psa03 value="0.0397288299" flag="0"/>
      <psa10 value="0.0084570292" flag="0"/>
      <psa30 value="0.0017248287" flag="0"/>
    </comp>
    <comp name="--.HNZ">
      <acc value="0.0149403740" flag="0"/>
      <vel value="0.0042555518" flag="0"/>
      <psa03 value="0.0116601085" flag="0"/>
      <psa10 value="0.0062039321" flag="0"/>
      <psa30 value="0.0007926858" flag="0"/>
    </comp>
  </station>
  <station code="DARE" name="DARE" netid="KO" insttype="CMG-3ESP" lat="38.5712" lon="37.4832">
    <comp name="--.HHN">
      <acc value="0.0284459367" flag="0"/>
      <vel value="0.0106047145" flag="0"/>
      <psa03 value="0.0376763757" flag="0"/>
      <psa10 value="0.0112278859" flag="0"/>
      <psa30 value="0.0009174027" flag="0"/>
    </comp>
    <comp name="--.HHE">
      <acc value="0.0328727970" flag="0"/>
      <vel value="0.0227992641" flag="0"/>
      <psa03 value="0.0674237477" flag="0"/>
      <psa10 value="0.0279205976" flag="0"/>
      <psa30 value="0.0019958061" flag="0"/>
    </comp>
    <comp name="--.HHZ">
      <acc value="0.0210571277" flag="0"/>
      <vel value="0.0114203728" flag="0"/>
      <psa03 value="0.0373418305" flag="0"/>
      <psa10 value="0.0127182148" flag="0"/>
      <psa30 value="0.0020742936" flag="0"/>
    </comp>
  </station>
  <station code="TUNC" name="TUNC" netid="KO" insttype="CMG-5T" lat="39.6942" lon="37.5388">
    <comp name="--.HNN">
      <acc value="0.0144396203" flag="0"/>
      <vel value="0.0057767480" flag="0"/>
      <psa03 value="0.0245476018" flag="0"/>
      <psa10 value="0.0052985281" flag="0"/>
      <psa30 value="0.0007855152" flag="0"/>
    </comp>
    <comp name="--.HNZ">
      <acc value="0.0065557085" flag="0"/>
      <vel value="0.0034591443" flag="0"/>
      <psa03 value="0.0148293668" flag="0"/>
      <psa10 value="0.0045241743" flag="0"/>
      <psa30 value="0.0005047517" flag="0"/>
    </comp>
    <comp name="--.HNE">
      <acc value="0.0123944618" flag="0"/>
      <vel value="0.0065315673" flag="0"/>
      <psa03 value="0.0217243328" flag="0"/>
      <psa10 value="0.0073179591" flag="0"/>
      <psa30 value="0.0009630474" flag="0"/>
    </comp>
  </station>
</stationlist>
