<?xml version="1.0" encoding="UTF-8" standalone="yes"?>
<!DOCTYPE earthquake SYSTEM "stationlist.dtd">
<stationlist created="" xmlns="ch.ethz.sed.shakemap.usgs.xml">
  <station code="ARPRA" name="ARPRA" netid="KO" insttype="CMG-5T" lat="39.0929" lon="38.3356">
    <comp name="--.HNZ">
      <acc value="0.0364378163" flag="0"/>
      <vel value="0.0192091309" flag="0"/>
      <psa03 value="0.0804485295" flag="0"/>
      <psa10 value="0.0165825900" flag="0"/>
      <psa30 value="0.0010870454" flag="0"/>
    </comp>
    <comp name="--.HNE">
      <acc value="0.0877278623" flag="0"/>
      <vel value="0.0306317493" flag="0"/>
      <psa03 value="0.1546412282" flag="0"/>
      <psa10 value="0.0296970197" flag="0"/>
      <psa30 value="0.0016055792" flag="0"/>
    </comp>
    <comp name="--.HNN">
      <acc value="0.0744600318" flag="0"/>
      <vel value="0.0268438125" flag="0"/>
      <psa03 value="0.2068277451" flag="0"/>
      <psa10 value="0.0189739504" flag="0"/>
      <psa30 value="0.0010135831" flag="0"/>
    </comp>
  </station>
  <station code="DARE" name="DARE" netid="KO" insttype="CMG-3ESP" lat="38.5712" lon="37.4832">
    <comp name="--.HHE">
      <acc value="0.0053108425" flag="0"/>
      <vel value="0.0027549962" flag="0"/>
      <psa03 value="0.0121547251" flag="0"/>
      <psa10 value="0.0022106159" flag="0"/>
      <psa30 value="0.0002113591" flag="0"/>
    </comp>
    <comp name="--.HHZ">
      <acc value="0.0054112991" flag="0"/>
      <vel value="0.0025658067" flag="0"/>
      <psa03 value="0.0144342475" flag="0"/>
      <psa10 value="0.0030449136" flag="0"/>
      <psa30 value="0.0002588485" flag="0"/>
    </comp>
    <comp name="--.HHN">
      <acc value="0.0069178265" flag="0"/>
      <vel value="0.0030822611" flag="0"/>
      <psa03 value="0.0198557886" flag="0"/>
      <psa10 value="0.0040465647" flag="0"/>
      <psa30 value="0.0002553994" flag="0"/>
    </comp>
  </station>
  <station code="SINE" name="SINE" netid="KO" insttype="CMG-6T" lat="39.1636" lon="39.3871">
    <comp name="--.HHE">
      <acc value="0.0045422562" flag="0"/>
      <vel value="0.0025288962" flag="0"/>
      <psa03 value="0.0115724165" flag="0"/>
      <psa10 value="0.0025676170" flag="0"/>
      <psa30 value="0.0001368936" flag="0"/>
    </comp>
    <comp name="--.HHN">
      <acc value="0.0055814765" flag="0"/>
      <vel value="0.0030251024" flag="0"/>
      <psa03 value="0.0170649720" flag="0"/>
      <psa10 value="0.0030568702" flag="0"/>
      <psa30 value="0.0001341024" flag="0"/>
    </comp>
    <comp name="--.HHZ">
      <acc value="0.0048313945" flag="0"/>
      <vel value="0.0025548515" flag="0"/>
      <psa03 value="0.0136936949" flag="0"/>
      <psa10 value="0.0029633884" flag="0"/>
      <psa30 value="0.0001101924" flag="0"/>
    </comp>
  </station>
  <station code="URFA" name="URFA" netid="KO" insttype="CMG-3ESP" lat="37.4409" lon="38.8213">
    <comp name="--.HHE">
      <acc value="0.0227102244" flag="0"/>
      <vel value="0.0098372967" flag="0"/>
      <psa03 value="0.0429231405" flag="0"/>
      <psa10 value="0.0119842882" flag="0"/>
      <psa30 value="0.0008493234" flag="0"/>
    </comp>
    <comp name="--.HHN">
      <acc value="0.0218920068" flag="0"/>
      <vel value="0.0071781467" flag="0"/>
      <psa03 value="0.0360365505" flag="0"/>
      <psa10 value="0.0055217611" flag="0"/>
      <psa30 value="0.0004135607" flag="0"/>
    </comp>
    <comp name="--.HHZ">
      <acc value="0.0159401964" flag="0"/>
      <vel value="0.0030788495" flag="0"/>
      <psa03 value="0.0136247396" flag="0"/>
      <psa10 value="0.0024978826" flag="0"/>
      <psa30 value="0.0002971391" flag="0"/>
    </comp>
  </station>
</stationlist>
