<stationlist xmlns:esm="https://esm-db.eu/esmws/shakemap/1/" created="1783475643">
	<station code="KARP" name="KARP" netid="GE" source="GEOFON" insttype="" lat="35.5471" lon="27.16106" esm:processing="manual (Paolucci et al 2011)" esm:quality="best">
		<comp name="--.HNE" depth="0.0">
			<acc value="0.0990971157569609" flag="0"/>
			<vel value="0.0275318360810194" flag="0"/>
			<psa03 value="0.120267051389914" flag="0"/>
			<psa10 value="0.0132683013726485" flag="0"/>
			<psa30 value="0.000810728783923084" flag="0"/>
		</comp>
		<comp name="--.HNN" depth="0.0">
			<acc value="0.097892065616761" flag="0"/>
			<vel value="0.0244692771019475" flag="0"/>
			<psa03 value="0.111631805512588" flag="0"/>
			<psa10 value="0.0142991618131335" flag="0"/>
			<psa30 value="0.00101967488883041" flag="0"/>
		</comp>
		<comp name="--.HNZ" depth="0.0">
			<acc value="0.060290313726541" flag="0"/>
			<vel value="0.0205893509485915" flag="0"/>
			<psa03 value="0.0987460500065258" flag="0"/>
			<psa10 value="0.0136266864476608" flag="0"/>
			<psa30 value="0.00103667692734536" flag="0"/>
		</comp>
	</station>
	<station code="RGE1" name="RGE1" netid="HI" source="ITSAK Strong Motion Network" insttype="" lat="36.0269" lon="27.9306" esm:processing="manual (Paolucci et al 2011)" esm:quality="good">
		<comp name="--.HNE" depth="0.0">
			<acc value="0.0075002797322198" flag="0"/>
			<vel value="0.00642547558687927" flag="0"/>
			<psa03 value="0.0157212523932945" flag="0"/>
			<psa10 value="0.0048484200903031" flag="0"/>
			<psa30 value="0.000637832878298995" flag="0"/>
		</comp>
		<comp name="--.HNN" depth="0.0">
			<acc value="0.00986103951935902" flag="0"/>
			<vel value="0.00755462214907631" flag="0"/>
			<psa03 value="0.0219312835690852" flag="0"/>
			<psa10 value="0.0122730227150263" flag="0"/>
			<psa30 value="0.000632792440224997" flag="0"/>
		</comp>
		<comp name="--.HNZ" depth="0.0">
			<acc value="0.00450211273737953" flag="0"/>
			<vel value="0.00260015197982258" flag="0"/>
			<psa03 value="0.0161864837334388" flag="0"/>
			<psa10 value="0.00474408583489017" flag="0"/>
			<psa30 value="0.000350344458600967" flag="0"/>
		</comp>
	</station>
	<station code="SIT2" name="SIT2" netid="HI" source="ITSAK Strong Motion Network" insttype="" lat="35.2059" lon="26.107" esm:processing="manual (Paolucci et al 2011)" esm:quality="best">
		<comp name="--.HNE" depth="0.0">
			<acc value="0.0980772852242163" flag="0"/>
			<vel value="0.06289531483228" flag="0"/>
			<psa03 value="0.315164103419106" flag="0"/>
			<psa10 value="0.0255862782767249" flag="0"/>
			<psa30 value="0.0018509850877979" flag="0"/>
		</comp>
		<comp name="--.HNN" depth="0.0">
			<acc value="0.0741993481999121" flag="0"/>
			<vel value="0.0418231541055307" flag="0"/>
			<psa03 value="0.321472754552283" flag="0"/>
			<psa10 value="0.0260815745039892" flag="0"/>
			<psa30 value="0.00162772147677273" flag="0"/>
		</comp>
		<comp name="--.HNZ" depth="0.0">
			<acc value="0.0530638748645468" flag="0"/>
			<vel value="0.0209398928801355" flag="0"/>
			<psa03 value="0.0970458461550314" flag="0"/>
			<psa10 value="0.0058871795468322" flag="0"/>
			<psa30 value="0.000564199225456407" flag="0"/>
		</comp>
	</station>
	<station code="IACM" name="IACM" netid="HL" source="National Observatory of Athens Seismic Network" insttype="" lat="35.3058" lon="25.0709" esm:processing="manual (Paolucci et al 2011)" esm:quality="bad">
		<comp name="--.HNE" depth="0.0">
			<acc value="0.020970335985363" flag="0"/>
			<vel value="0.0170204106017155" flag="0"/>
			<psa03 value="0.0555250784132752" flag="0"/>
			<psa10 value="0.0237379777213241" flag="0"/>
			<psa30 value="0.0013462929971438" flag="0"/>
		</comp>
		<comp name="--.HNN" depth="0.0">
			<acc value="0.0166040920904084" flag="0"/>
			<vel value="0.0113798325257716" flag="0"/>
			<psa03 value="0.0564199225456407" flag="0"/>
			<psa10 value="0.0143434565976856" flag="0"/>
			<psa30 value="0.000919899768071667" flag="0"/>
		</comp>
		<comp name="--.HNZ" depth="0.0">
			<acc value="0.0166530916941856" flag="0"/>
			<vel value="0.00664765139181083" flag="0"/>
			<psa03 value="0.0292166609217315" flag="0"/>
			<psa10 value="0.00614892145554909" flag="0"/>
			<psa30 value="0.000437578780726698" flag="0"/>
		</comp>
	</station>
	<station code="KARP" name="KARP" netid="HL" source="National Observatory of Athens Seismic Network" insttype="" lat="35.5471" lon="27.16106" esm:processing="manual (Paolucci et al 2011)" esm:quality="best">
		<comp name="--.HNE" depth="0.0">
			<acc value="0.0971316641475556" flag="0"/>
			<vel value="0.0269568289820275" flag="0"/>
			<psa03 value="0.11780623002591" flag="0"/>
			<psa10 value="0.0129944790681447" flag="0"/>
			<psa30 value="0.000783436037885938" flag="0"/>
		</comp>
		<comp name="--.HNN" depth="0.0">
			<acc value="0.0959263364868957" flag="0"/>
			<vel value="0.0240692574497502" flag="0"/>
			<psa03 value="0.109349952975056" flag="0"/>
			<psa10 value="0.0139971519184601" flag="0"/>
			<psa30 value="0.000989250188329988" flag="0"/>
		</comp>
		<comp name="--.HNZ" depth="0.0">
			<acc value="0.0590812403234693" flag="0"/>
			<vel value="0.020270865183809" flag="0"/>
			<psa03 value="0.0967773929153218" flag="0"/>
			<psa10 value="0.0133488373445614" flag="0"/>
			<psa30 value="0.000991487298660902" flag="0"/>
		</comp>
	</station>
	<station code="NISR" name="NISR" netid="HL" source="National Observatory of Athens Seismic Network" insttype="" lat="36.6106" lon="27.131" esm:processing="manual (Paolucci et al 2011)" esm:quality="good">
		<comp name="00.HNE" depth="0.0">
			<acc value="0.0094895580400188" flag="0"/>
			<vel value="0.00452140852666239" flag="0"/>
			<psa03 value="0.028856692864281" flag="0"/>
			<psa10 value="0.00518898202584301" flag="0"/>
			<psa30 value="0.000483876221091572" flag="0"/>
		</comp>
		<comp name="00.HNN" depth="0.0">
			<acc value="0.00565443800225871" flag="0"/>
			<vel value="0.00342581151462887" flag="0"/>
			<psa03 value="0.0169790596752079" flag="0"/>
			<psa10 value="0.0030087851766266" flag="0"/>
			<psa30 value="0.000539011279768621" flag="0"/>
		</comp>
		<comp name="00.HNZ" depth="0.0">
			<acc value="0.00362148723389914" flag="0"/>
			<vel value="0.00244195835907769" flag="0"/>
			<psa03 value="0.0122590074115769" flag="0"/>
			<psa10 value="0.00355540123100755" flag="0"/>
			<psa30 value="0.000150189806108395" flag="0"/>
		</comp>
	</station>
	<station code="THRA" name="THRA" netid="HL" source="National Observatory of Athens Seismic Network" insttype="" lat="36.41502" lon="25.43244" esm:processing="automatic (Paolucci et al 2011)" esm:quality="good">
		<comp name="00.HNE" depth="0.0">
			<acc value="0.0116133926042471" flag="0"/>
			<vel value="0.00906479835810016" flag="0"/>
			<psa03 value="0.0289338516214998" flag="0"/>
			<psa10 value="0.0106156285458047" flag="0"/>
			<psa30 value="0.00175097036819167" flag="0"/>
		</comp>
		<comp name="00.HNN" depth="0.0">
			<acc value="0.00960580052205177" flag="0"/>
			<vel value="0.00540743941306115" flag="0"/>
			<psa03 value="0.0241163241506156" flag="0"/>
			<psa10 value="0.0109893023623449" flag="0"/>
			<psa30 value="0.000922253907294931" flag="0"/>
		</comp>
		<comp name="00.HNZ" depth="0.0">
			<acc value="0.0101743357434671" flag="0"/>
			<vel value="0.00427312647366902" flag="0"/>
			<psa03 value="0.0242385041194347" flag="0"/>
			<psa10 value="0.00278076983735303" flag="0"/>
			<psa30 value="0.000327048540360598" flag="0"/>
		</comp>
	</station>
	<station code="ZKR" name="ZKR" netid="HL" source="National Observatory of Athens Seismic Network" insttype="" lat="35.1147" lon="26.21691" esm:processing="manual (Paolucci et al 2011)" esm:quality="best">
		<comp name="00.HNE" depth="0.0">
			<acc value="0.0495697922933059" flag="0"/>
			<vel value="0.0227955913695775" flag="0"/>
			<psa03 value="0.159550708800757" flag="0"/>
			<psa10 value="0.0111018837281918" flag="0"/>
			<psa30 value="0.000610283698273227" flag="0"/>
		</comp>
		<comp name="00.HNN" depth="0.0">
			<acc value="0.0475216810674634" flag="0"/>
			<vel value="0.0261291393220862" flag="0"/>
			<psa03 value="0.205456212791104" flag="0"/>
			<psa10 value="0.00824285672528421" flag="0"/>
			<psa30 value="0.000763749466973899" flag="0"/>
		</comp>
		<comp name="00.HNZ" depth="0.0">
			<acc value="0.0186176639945804" flag="0"/>
			<vel value="0.00838614358157057" flag="0"/>
			<psa03 value="0.0628628002986718" flag="0"/>
			<psa10 value="0.00544423170131131" flag="0"/>
			<psa30 value="0.000717664994157079" flag="0"/>
		</comp>
	</station>
	<station code="RDI1" name="RDI1" netid="HI" source="ITSAK Strong Motion Network" insttype="" lat="36.4514" lon="28.224" esm:processing="discarded" esm:quality="bad">
		<comp name="--.HNE" depth="0.0">
			<acc value="0" flag="1"/>
			<vel value="0" flag="1"/>
			<psa03 value="0" flag="1"/>
			<psa10 value="0" flag="1"/>
			<psa30 value="0" flag="1"/>
		</comp>
		<comp name="--.HNN" depth="0.0">
			<acc value="0" flag="1"/>
			<vel value="0" flag="1"/>
			<psa03 value="0" flag="1"/>
			<psa10 value="0" flag="1"/>
			<psa30 value="0" flag="1"/>
		</comp>
		<comp name="--.HNZ" depth="0.0">
			<acc value="0" flag="1"/>
			<vel value="0" flag="1"/>
			<psa03 value="0" flag="1"/>
			<psa10 value="0" flag="1"/>
			<psa30 value="0" flag="1"/>
		</comp>
	</station>
	<station code="AGNA" name="AGNA" netid="HL" source="National Observatory of Athens Seismic Network" insttype="" lat="35.1895" lon="25.71853" esm:processing="automatic (Paolucci et al 2011)" esm:quality="bad">
		<comp name="00.HNE" depth="0.0">
			<acc value="0" flag="1"/>
			<vel value="0" flag="1"/>
			<psa03 value="0" flag="1"/>
			<psa10 value="0" flag="1"/>
			<psa30 value="0" flag="1"/>
		</comp>
		<comp name="00.HNN" depth="0.0">
			<acc value="0" flag="1"/>
			<vel value="0" flag="1"/>
			<psa03 value="0" flag="1"/>
			<psa10 value="0" flag="1"/>
			<psa30 value="0" flag="1"/>
		</comp>
		<comp name="00.HNZ" depth="0.0">
			<acc value="0" flag="1"/>
			<vel value="0" flag="1"/>
			<psa03 value="0" flag="1"/>
			<psa10 value="0" flag="1"/>
			<psa30 value="0" flag="1"/>
		</comp>
	</station>
	<station code="AMGA" name="AMGA" netid="HL" source="National Observatory of Athens Seismic Network" insttype="" lat="36.831561" lon="25.893836" esm:processing="discarded" esm:quality="bad">
		<comp name="00.HNE" depth="0.0">
			<acc value="0" flag="1"/>
			<vel value="0" flag="1"/>
			<psa03 value="0" flag="1"/>
			<psa10 value="0" flag="1"/>
			<psa30 value="0" flag="1"/>
		</comp>
		<comp name="00.HNN" depth="0.0">
			<acc value="0" flag="1"/>
			<vel value="0" flag="1"/>
			<psa03 value="0" flag="1"/>
			<psa10 value="0" flag="1"/>
			<psa30 value="0" flag="1"/>
		</comp>
		<comp name="00.HNZ" depth="0.0">
			<acc value="0" flag="1"/>
			<vel value="0" flag="1"/>
			<psa03 value="0" flag="1"/>
			<psa10 value="0" flag="1"/>
			<psa30 value="0" flag="1"/>
		</comp>
	</station>
	<station code="ASTA" name="ASTA" netid="HL" source="National Observatory of Athens Seismic Network" insttype="" lat="36.54552" lon="26.35295" esm:processing="discarded" esm:quality="bad">
		<comp name="00.HNE" depth="0.0">
			<acc value="0" flag="1"/>
			<vel value="0" flag="1"/>
			<psa03 value="0" flag="1"/>
			<psa10 value="0" flag="1"/>
			<psa30 value="0" flag="1"/>
		</comp>
		<comp name="00.HNN" depth="0.0">
			<acc value="0" flag="1"/>
			<vel value="0" flag="1"/>
			<psa03 value="0" flag="1"/>
			<psa10 value="0" flag="1"/>
			<psa30 value="0" flag="1"/>
		</comp>
		<comp name="00.HNZ" depth="0.0">
			<acc value="0" flag="1"/>
			<vel value="0" flag="1"/>
			<psa03 value="0" flag="1"/>
			<psa10 value="0" flag="1"/>
			<psa30 value="0" flag="1"/>
		</comp>
	</station>
	<station code="HERG" name="HERG" netid="HL" source="National Observatory of Athens Seismic Network" insttype="" lat="35.32622" lon="25.06586" esm:processing="automatic (Paolucci et al 2011)" esm:quality="bad">
		<comp name="00.HNE" depth="0.0">
			<acc value="0" flag="1"/>
			<vel value="0" flag="1"/>
			<psa03 value="0" flag="1"/>
			<psa10 value="0" flag="1"/>
			<psa30 value="0" flag="1"/>
		</comp>
		<comp name="00.HNN" depth="0.0">
			<acc value="0" flag="1"/>
			<vel value="0" flag="1"/>
			<psa03 value="0" flag="1"/>
			<psa10 value="0" flag="1"/>
			<psa30 value="0" flag="1"/>
		</comp>
		<comp name="00.HNZ" depth="0.0">
			<acc value="0" flag="1"/>
			<vel value="0" flag="1"/>
			<psa03 value="0" flag="1"/>
			<psa10 value="0" flag="1"/>
			<psa30 value="0" flag="1"/>
		</comp>
	</station>
	<station code="KLNA" name="KLNA" netid="HL" source="National Observatory of Athens Seismic Network" insttype="" lat="36.95708" lon="26.97274" esm:processing="discarded" esm:quality="bad">
		<comp name="00.HNE" depth="0.0">
			<acc value="0" flag="1"/>
			<vel value="0" flag="1"/>
			<psa03 value="0" flag="1"/>
			<psa10 value="0" flag="1"/>
			<psa30 value="0" flag="1"/>
		</comp>
		<comp name="00.HNN" depth="0.0">
			<acc value="0" flag="1"/>
			<vel value="0" flag="1"/>
			<psa03 value="0" flag="1"/>
			<psa10 value="0" flag="1"/>
			<psa30 value="0" flag="1"/>
		</comp>
		<comp name="00.HNZ" depth="0.0">
			<acc value="0" flag="1"/>
			<vel value="0" flag="1"/>
			<psa03 value="0" flag="1"/>
			<psa10 value="0" flag="1"/>
			<psa30 value="0" flag="1"/>
		</comp>
	</station>
	<station code="RODB" name="RODB" netid="HL" source="National Observatory of Athens Seismic Network" insttype="" lat="36.4471" lon="28.22116" esm:processing="automatic (Paolucci et al 2011)" esm:quality="bad">
		<comp name="00.HNE" depth="0.0">
			<acc value="0" flag="1"/>
			<vel value="0" flag="1"/>
			<psa03 value="0" flag="1"/>
			<psa10 value="0" flag="1"/>
			<psa30 value="0" flag="1"/>
		</comp>
		<comp name="00.HNN" depth="0.0">
			<acc value="0" flag="1"/>
			<vel value="0" flag="1"/>
			<psa03 value="0" flag="1"/>
			<psa10 value="0" flag="1"/>
			<psa30 value="0" flag="1"/>
		</comp>
		<comp name="00.HNZ" depth="0.0">
			<acc value="0" flag="1"/>
			<vel value="0" flag="1"/>
			<psa03 value="0" flag="1"/>
			<psa10 value="0" flag="1"/>
			<psa30 value="0" flag="1"/>
		</comp>
	</station>
	<station code="GMLD" name="GMLD" netid="KO" source="Bogazici University Kandilli Observatory And Earthquake Research Institute (KOERI)" insttype="" lat="38.0766" lon="26.9157" esm:processing="discarded" esm:quality="bad">
		<comp name="--.HNE" depth="0.0">
			<acc value="0" flag="1"/>
			<vel value="0" flag="1"/>
			<psa03 value="0" flag="1"/>
			<psa10 value="0" flag="1"/>
			<psa30 value="0" flag="1"/>
		</comp>
		<comp name="--.HNN" depth="0.0">
			<acc value="0" flag="1"/>
			<vel value="0" flag="1"/>
			<psa03 value="0" flag="1"/>
			<psa10 value="0" flag="1"/>
			<psa30 value="0" flag="1"/>
		</comp>
		<comp name="--.HNZ" depth="0.0">
			<acc value="0" flag="1"/>
			<vel value="0" flag="1"/>
			<psa03 value="0" flag="1"/>
			<psa10 value="0" flag="1"/>
			<psa30 value="0" flag="1"/>
		</comp>
	</station>
	<station code="YKAV" name="YKAV" netid="KO" source="Bogazici University Kandilli Observatory And Earthquake Research Institute (KOERI)" insttype="" lat="37.1246" lon="27.2801" esm:processing="discarded" esm:quality="bad">
		<comp name="--.HNE" depth="0.0">
			<acc value="0" flag="1"/>
			<vel value="0" flag="1"/>
			<psa03 value="0" flag="1"/>
			<psa10 value="0" flag="1"/>
			<psa30 value="0" flag="1"/>
		</comp>
		<comp name="--.HNN" depth="0.0">
			<acc value="0" flag="1"/>
			<vel value="0" flag="1"/>
			<psa03 value="0" flag="1"/>
			<psa10 value="0" flag="1"/>
			<psa30 value="0" flag="1"/>
		</comp>
		<comp name="--.HNZ" depth="0.0">
			<acc value="0" flag="1"/>
			<vel value="0" flag="1"/>
			<psa03 value="0" flag="1"/>
			<psa10 value="0" flag="1"/>
			<psa30 value="0" flag="1"/>
		</comp>
	</station>
</stationlist>
