<?xml version="1.0" encoding="UTF-8" standalone="yes"?>
<!DOCTYPE earthquake SYSTEM "stationlist.dtd">
<stationlist created="" xmlns="ch.ethz.sed.shakemap.usgs.xml">
  <station code="KARP" name="KARP" netid="GE" source="GFZ" insttype="STS-2/N" lat="35.5471" lon="27.1611">
    <comp name="--.HHE">
      <acc value="0.1180727308" flag="0"/>
      <vel value="0.0268051323" flag="0"/>
      <psa03 value="0.1186027156" flag="0"/>
      <psa10 value="0.0127871889" flag="0"/>
      <psa30 value="0.0007671691" flag="0"/>
    </comp>
    <comp name="--.HHN">
      <acc value="0.1099185562" flag="0"/>
      <vel value="0.0291153380" flag="0"/>
      <psa03 value="0.1118761991" flag="0"/>
      <psa10 value="0.0149535960" flag="0"/>
      <psa30 value="0.0009636112" flag="0"/>
    </comp>
    <comp name="--.HHZ">
      <acc value="0.0730637398" flag="0"/>
      <vel value="0.0240624600" flag="0"/>
      <psa03 value="0.1178143012" flag="0"/>
      <psa10 value="0.0156673155" flag="0"/>
      <psa30 value="0.0010411971" flag="0"/>
    </comp>
  </station>
  <station code="ZKR" name="ZKR" netid="GE" source="GFZ" insttype="STS-2/N" lat="35.1147" lon="26.2169">
    <comp name="--.HHE">
      <acc value="0.0510562413" flag="0"/>
      <vel value="0.0222967172" flag="0"/>
      <psa03 value="0.1491626306" flag="0"/>
      <psa10 value="0.0107798789" flag="0"/>
      <psa30 value="0.0006249568" flag="0"/>
    </comp>
    <comp name="--.HHN">
      <acc value="0.0253197779" flag="0"/>
      <vel value="0.0135044335" flag="0"/>
      <psa03 value="0.1108814500" flag="0"/>
      <psa10 value="0.0044150105" flag="0"/>
      <psa30 value="0.0004022901" flag="0"/>
    </comp>
    <comp name="--.HHZ">
      <acc value="0.0195989031" flag="0"/>
      <vel value="0.0087916443" flag="0"/>
      <psa03 value="0.0675985176" flag="0"/>
      <psa10 value="0.0056114467" flag="0"/>
      <psa30 value="0.0006386439" flag="0"/>
    </comp>
  </station>
  <station code="STIA" name="STIA" netid="HC" source="NOA" insttype="120" lat="35.2021" lon="26.0909">
    <comp name="--.HHE">
      <acc value="0.0400013229" flag="0"/>
      <vel value="0.0171377404" flag="0"/>
      <psa03 value="0.1066832366" flag="0"/>
      <psa10 value="0.0080261992" flag="0"/>
      <psa30 value="0.0004313608" flag="0"/>
    </comp>
    <comp name="--.HHN">
      <acc value="0.0311582790" flag="0"/>
      <vel value="0.0135024594" flag="0"/>
      <psa03 value="0.0770672958" flag="0"/>
      <psa10 value="0.0107575107" flag="0"/>
      <psa30 value="0.0003894642" flag="0"/>
    </comp>
    <comp name="--.HHZ">
      <acc value="0.0291273349" flag="0"/>
      <vel value="0.0125259468" flag="0"/>
      <psa03 value="0.0756734390" flag="0"/>
      <psa10 value="0.0046803615" flag="0"/>
      <psa30 value="0.0003058661" flag="0"/>
    </comp>
  </station>
  <station code="KARP" name="KARP" netid="HL" source="NOA" insttype="120" lat="35.5471" lon="27.1611">
    <comp name="--.HHE">
      <acc value="0.1120941858" flag="0"/>
      <vel value="0.0253598991" flag="0"/>
      <psa03 value="0.1151690363" flag="0"/>
      <psa10 value="0.0126438566" flag="0"/>
      <psa30 value="0.0007606105" flag="0"/>
    </comp>
    <comp name="--.HHN">
      <acc value="0.1037083704" flag="0"/>
      <vel value="0.0280058365" flag="0"/>
      <psa03 value="0.1090299465" flag="0"/>
      <psa10 value="0.0147574135" flag="0"/>
      <psa30 value="0.0009595825" flag="0"/>
    </comp>
    <comp name="--.HHZ">
      <acc value="0.0695211041" flag="0"/>
      <vel value="0.0232966272" flag="0"/>
      <psa03 value="0.1152372947" flag="0"/>
      <psa10 value="0.0154532164" flag="0"/>
      <psa30 value="0.0010378730" flag="0"/>
    </comp>
  </station>
</stationlist>
