<?xml version="1.0" encoding="UTF-8" standalone="yes"?>
<!DOCTYPE earthquake SYSTEM "stationlist.dtd">
<stationlist created="" xmlns="ch.ethz.sed.shakemap.usgs.xml">
  <station code="ARPRA" name="ARPRA" netid="KO" insttype="CMG-5T" lat="39.0929" lon="38.3356">
    <comp name="--.HNZ">
      <acc value="0.0238662566" flag="0"/>
      <vel value="0.0108383695" flag="0"/>
      <psa03 value="0.0489131059" flag="0"/>
      <psa10 value="0.0152871739" flag="0"/>
      <psa30 value="0.0016218730" flag="0"/>
    </comp>
    <comp name="--.HNN">
      <acc value="0.0441679093" flag="0"/>
      <vel value="0.0273423096" flag="0"/>
      <psa03 value="0.1454746976" flag="0"/>
      <psa10 value="0.0158211509" flag="0"/>
      <psa30 value="0.0013336739" flag="0"/>
    </comp>
    <comp name="--.HNE">
      <acc value="0.0548597497" flag="0"/>
      <vel value="0.0235169563" flag="0"/>
      <psa03 value="0.1403807279" flag="0"/>
      <psa10 value="0.0169539171" flag="0"/>
      <psa30 value="0.0012093835" flag="0"/>
    </comp>
  </station>
</stationlist>
