<stationlist created="1675762363">
	<station code="ARPRA" name="ARPRA" netid="KO" source="Bogazici University Kandilli Observatory And Earthquake Research Institute (KOERI)" insttype="" lat="39.0929" lon="38.3356">
		<comp name=".HNE" depth="0.0">
			<acc value="0.0548537143296" flag="0"/>
			<vel value="0.0235086673538" flag="0"/>
			<psa03 value="0.142914602808" flag="0"/>
			<psa10 value="0.0168777736947" flag="0"/>
			<psa30 value="0.00114818022797" flag="0"/>
		</comp>
		<comp name=".HNN" depth="0.0">
			<acc value="0.044029789754" flag="0"/>
			<vel value="0.0274376632921" flag="0"/>
			<psa03 value="0.144649655246" flag="0"/>
			<psa10 value="0.0158002860664" flag="0"/>
			<psa30 value="0.00122991022552" flag="0"/>
		</comp>
		<comp name=".HNZ" depth="0.0">
			<acc value="0.0239218275948" flag="0"/>
			<vel value="0.0108205102829" flag="0"/>
			<psa03 value="0.0487978211578" flag="0"/>
			<psa10 value="0.0152940184662" flag="0"/>
			<psa30 value="0.00147271537267" flag="0"/>
		</comp>
	</station>
	<station code="RFHY" name="RFHY" netid="KO" source="Bogazici University Kandilli Observatory And Earthquake Research Institute (KOERI)" insttype="" lat="39.927" lon="38.833">
		<comp name=".HNE" depth="0.0">
			<acc value="0.00179455593805" flag="0"/>
			<vel value="0.00576483075598" flag="0"/>
			<psa03 value="0.00168755873259" flag="0"/>
			<psa10 value="0.00129092821297" flag="0"/>
			<psa30 value="0.00134792950205" flag="0"/>
		</comp>
		<comp name=".HNN" depth="0.0">
			<acc value="0.0106028825661" flag="0"/>
			<vel value="0.00548212127105" flag="0"/>
			<psa03 value="0.00852679272273" flag="0"/>
			<psa10 value="0.00933108970141" flag="0"/>
			<psa30 value="0.0013623408734" flag="0"/>
		</comp>
		<comp name=".HNZ" depth="0.0">
			<acc value="0.00816779339557" flag="0"/>
			<vel value="0.00416346693455" flag="0"/>
			<psa03 value="0.00731765858707" flag="0"/>
			<psa10 value="0.00899752291675" flag="0"/>
			<psa30 value="0.000852844673858" flag="0"/>
		</comp>
	</station>
	<station code="TUNC" name="TUNC" netid="KO" source="Bogazici University Kandilli Observatory And Earthquake Research Institute (KOERI)" insttype="" lat="39.6942" lon="37.5388">
		<comp name=".HNE" depth="0.0">
			<acc value="0.0211707820525" flag="0"/>
			<vel value="0.0103824194609" flag="0"/>
			<psa03 value="0.0510493348927" flag="0"/>
			<psa10 value="0.0144325873381" flag="0"/>
			<psa30 value="0.000973916079659" flag="0"/>
		</comp>
		<comp name=".HNN" depth="0.0">
			<acc value="0.0282051971417" flag="0"/>
			<vel value="0.00869097415668" flag="0"/>
			<psa03 value="0.0418660885271" flag="0"/>
			<psa10 value="0.0122176109193" flag="0"/>
			<psa30 value="0.00128112205555" flag="0"/>
		</comp>
		<comp name=".HNZ" depth="0.0">
			<acc value="0.0143706260568" flag="0"/>
			<vel value="0.00606556631815" flag="0"/>
			<psa03 value="0.0235815725801" flag="0"/>
			<psa10 value="0.00826514533783" flag="0"/>
			<psa30 value="0.00141859605836" flag="0"/>
		</comp>
	</station>
</stationlist>
