<?xml version="1.0" encoding="UTF-8" standalone="yes"?>
<!DOCTYPE earthquake SYSTEM "stationlist.dtd">
<stationlist created="" xmlns="ch.ethz.sed.shakemap.usgs.xml">
  <station code="KMRS" name="KMRS" netid="KO" insttype="CMG-3T" lat="37.5053" lon="36.9">
    <comp name="--.HHZ">
      <acc value="0.0081345139" flag="0"/>
      <vel value="0.0025985082" flag="0"/>
      <psa03 value="0.0116112678" flag="0"/>
      <psa10 value="0.0007255314" flag="0"/>
      <psa30 value="0.0000682701" flag="0"/>
    </comp>
  </station>
  <station code="SARI" name="SARI" netid="KO" insttype="CMG-3T" lat="38.4072" lon="36.4181">
    <comp name="--.HHN">
      <acc value="0.0160349633" flag="0"/>
      <vel value="0.0046222494" flag="0"/>
      <psa03 value="0.0189619426" flag="0"/>
      <psa10 value="0.0013627954" flag="0"/>
      <psa30 value="0.0001531357" flag="0"/>
    </comp>
  </station>
  <station code="ANDN" name="ANDN" netid="TU" insttype="T" lat="37.58" lon="36.3452">
    <comp name="--.HHN">
      <acc value="0.0250031092" flag="0"/>
      <vel value="0.0035650856" flag="0"/>
      <psa03 value="0.0170645095" flag="0"/>
      <psa10 value="0.0022641448" flag="0"/>
      <psa30 value="0.0000925710" flag="0"/>
    </comp>
    <comp name="--.HHZ">
      <acc value="0.0108853944" flag="0"/>
      <vel value="0.0015727316" flag="0"/>
      <psa03 value="0.0056521517" flag="0"/>
      <psa10 value="0.0017655406" flag="0"/>
      <psa30 value="0.0001045922" flag="0"/>
    </comp>
    <comp name="--.HHE">
      <acc value="0.0165025905" flag="0"/>
      <vel value="0.0026119999" flag="0"/>
      <psa03 value="0.0103465615" flag="0"/>
      <psa10 value="0.0017621296" flag="0"/>
      <psa30 value="0.0000824929" flag="0"/>
    </comp>
  </station>
</stationlist>
