<?xml version="1.0" encoding="UTF-8" standalone="yes"?>
<!DOCTYPE earthquake SYSTEM "stationlist.dtd">
<stationlist created="" xmlns="ch.ethz.sed.shakemap.usgs.xml">
  <station code="OEM4" name="OEM4" netid="3D" insttype="" lat="38.4095" lon="14.9422">
    <comp name="--.HHE">
      <acc value="0.0105373250" flag="0"/>
      <vel value="0.0061829569" flag="0"/>
      <psa03 value="0.0172075115" flag="0"/>
      <psa10 value="0.0070477977" flag="0"/>
      <psa30 value="0.0016864415" flag="0"/>
    </comp>
    <comp name="--.HHZ">
      <acc value="0.0068030054" flag="0"/>
      <vel value="0.0024839574" flag="0"/>
      <psa03 value="0.0044860429" flag="0"/>
      <psa10 value="0.0038426586" flag="0"/>
      <psa30 value="0.0011388140" flag="0"/>
    </comp>
    <comp name="--.HHN">
      <acc value="0.0084087202" flag="0"/>
      <vel value="0.0058525988" flag="0"/>
      <psa03 value="0.0094949501" flag="0"/>
      <psa10 value="0.0106747284" flag="0"/>
      <psa30 value="0.0016767934" flag="0"/>
    </comp>
  </station>
  <station code="OEM5" name="OEM5" netid="3D" insttype="" lat="38.4223" lon="14.9661">
    <comp name="--.HHE">
      <acc value="0.0089122311" flag="0"/>
      <vel value="0.0078046917" flag="0"/>
      <psa03 value="0.0155842795" flag="0"/>
      <psa10 value="0.0101522273" flag="0"/>
      <psa30 value="0.0031482421" flag="0"/>
    </comp>
    <comp name="--.HHN">
      <acc value="0.0065402160" flag="0"/>
      <vel value="0.0063524805" flag="0"/>
      <psa03 value="0.0110189246" flag="0"/>
      <psa10 value="0.0126757356" flag="0"/>
      <psa30 value="0.0020755337" flag="0"/>
    </comp>
    <comp name="--.HHZ">
      <acc value="0.0069482533" flag="0"/>
      <vel value="0.0050775101" flag="0"/>
      <psa03 value="0.0121246694" flag="0"/>
      <psa10 value="0.0064881023" flag="0"/>
      <psa30 value="0.0008430566" flag="0"/>
    </comp>
  </station>
  <station code="OEM9" name="OEM9" netid="3D" insttype="" lat="38.3879" lon="14.9908">
    <comp name="--.HHE">
      <acc value="0.0063551890" flag="0"/>
      <vel value="0.0048224755" flag="0"/>
      <psa03 value="0.0192366955" flag="0"/>
      <psa10 value="0.0072179000" flag="0"/>
      <psa30 value="0.0011890266" flag="0"/>
    </comp>
    <comp name="--.HHN">
      <acc value="0.0075834837" flag="0"/>
      <vel value="0.0047183237" flag="0"/>
      <psa03 value="0.0221707278" flag="0"/>
      <psa10 value="0.0045477437" flag="0"/>
      <psa30 value="0.0007118905" flag="0"/>
    </comp>
    <comp name="--.HHZ">
      <acc value="0.0041026447" flag="0"/>
      <vel value="0.0018175420" flag="0"/>
      <psa03 value="0.0101012928" flag="0"/>
      <psa10 value="0.0024448166" flag="0"/>
      <psa30 value="0.0005718133" flag="0"/>
    </comp>
  </station>
  <station code="CS2FF" name="CS2FF" netid="7C" insttype="" lat="39.2933" lon="16.2584">
    <comp name="--.HH2">
      <acc value="0.0237520203" flag="0"/>
      <vel value="0.0156258548" flag="0"/>
      <psa03 value="0.0674809461" flag="0"/>
      <psa10 value="0.0156553600" flag="0"/>
      <psa30 value="0.0009806425" flag="0"/>
    </comp>
    <comp name="--.HH1">
      <acc value="0.0155225419" flag="0"/>
      <vel value="0.0085265717" flag="0"/>
      <psa03 value="0.0430562094" flag="0"/>
      <psa10 value="0.0082193783" flag="0"/>
      <psa30 value="0.0005934511" flag="0"/>
    </comp>
    <comp name="--.HHZ">
      <acc value="0.0145830666" flag="0"/>
      <vel value="0.0068580143" flag="0"/>
      <psa03 value="0.0457540550" flag="0"/>
      <psa10 value="0.0041501819" flag="0"/>
      <psa30 value="0.0004846254" flag="0"/>
    </comp>
  </station>
  <station code="MARCO" name="MARCO" netid="GE" insttype="VBB" lat="40.2972" lon="15.8063">
    <comp name="--.HHE">
      <acc value="0.0134536017" flag="0"/>
      <vel value="0.0092943925" flag="0"/>
      <psa03 value="0.0365956955" flag="0"/>
      <psa10 value="0.0149326914" flag="0"/>
      <psa30 value="0.0010740846" flag="0"/>
    </comp>
    <comp name="--.HHZ">
      <acc value="0.0096387272" flag="0"/>
      <vel value="0.0063218518" flag="0"/>
      <psa03 value="0.0245209828" flag="0"/>
      <psa10 value="0.0055336637" flag="0"/>
      <psa30 value="0.0008375822" flag="0"/>
    </comp>
    <comp name="--.HHN">
      <acc value="0.0143224559" flag="0"/>
      <vel value="0.0152667198" flag="0"/>
      <psa03 value="0.0474990236" flag="0"/>
      <psa10 value="0.0139964324" flag="0"/>
      <psa30 value="0.0017052638" flag="0"/>
    </comp>
  </station>
  <station code="BULG" name="BULG" netid="IV" insttype="" lat="40.0783" lon="15.3776">
    <comp name="--.HHN">
      <acc value="0.0905282178" flag="0"/>
      <vel value="0.0588674355" flag="0"/>
      <psa03 value="0.1435802579" flag="0"/>
      <psa10 value="0.0658444094" flag="0"/>
      <psa30 value="0.0025575767" flag="0"/>
    </comp>
    <comp name="--.HHE">
      <acc value="0.0380498555" flag="0"/>
      <vel value="0.0187745289" flag="0"/>
      <psa03 value="0.1044453465" flag="0"/>
      <psa10 value="0.0211300205" flag="0"/>
      <psa30 value="0.0012059024" flag="0"/>
    </comp>
    <comp name="--.HHZ">
      <acc value="0.0221114449" flag="0"/>
      <vel value="0.0183703062" flag="0"/>
      <psa03 value="0.0691156304" flag="0"/>
      <psa10 value="0.0240263127" flag="0"/>
      <psa30 value="0.0014969507" flag="0"/>
    </comp>
  </station>
  <station code="CAR1" name="CAR1" netid="IV" insttype="" lat="39.2534" lon="16.2114">
    <comp name="--.HHE">
      <acc value="0.0921331168" flag="0"/>
      <vel value="0.0382193226" flag="0"/>
      <psa03 value="0.1492823302" flag="0"/>
      <psa10 value="0.0181864346" flag="0"/>
      <psa30 value="0.0012424491" flag="0"/>
    </comp>
    <comp name="--.HHN">
      <acc value="0.0799710333" flag="0"/>
      <vel value="0.0396908656" flag="0"/>
      <psa03 value="0.2284694022" flag="0"/>
      <psa10 value="0.0260008527" flag="0"/>
      <psa30 value="0.0012546090" flag="0"/>
    </comp>
    <comp name="--.HHZ">
      <acc value="0.0435210119" flag="0"/>
      <vel value="0.0196138846" flag="0"/>
      <psa03 value="0.1305592414" flag="0"/>
      <psa10 value="0.0101141770" flag="0"/>
      <psa30 value="0.0006504242" flag="0"/>
    </comp>
  </station>
  <station code="CDRU" name="CDRU" netid="IV" insttype="" lat="40.4896" lon="15.3046">
    <comp name="--.HHE">
      <acc value="0.0269952248" flag="0"/>
      <vel value="0.0092047904" flag="0"/>
      <psa03 value="0.0359995538" flag="0"/>
      <psa10 value="0.0073718578" flag="0"/>
      <psa30 value="0.0006210198" flag="0"/>
    </comp>
    <comp name="--.HHN">
      <acc value="0.0091022210" flag="0"/>
      <vel value="0.0035238036" flag="0"/>
      <psa03 value="0.0222400750" flag="0"/>
      <psa10 value="0.0041264358" flag="0"/>
      <psa30 value="0.0004915664" flag="0"/>
    </comp>
    <comp name="--.HHZ">
      <acc value="0.0083612718" flag="0"/>
      <vel value="0.0038342505" flag="0"/>
      <psa03 value="0.0164162279" flag="0"/>
      <psa10 value="0.0044608420" flag="0"/>
      <psa30 value="0.0003937505" flag="0"/>
    </comp>
  </station>
  <station code="CELI" name="CELI" netid="IV" insttype="" lat="39.4027" lon="16.5088">
    <comp name="--.HHE">
      <acc value="0.0161983478" flag="0"/>
      <vel value="0.0083269974" flag="0"/>
      <psa03 value="0.0302100389" flag="0"/>
      <psa10 value="0.0069697002" flag="0"/>
      <psa30 value="0.0005085134" flag="0"/>
    </comp>
    <comp name="--.HHZ">
      <acc value="0.0073196608" flag="0"/>
      <vel value="0.0051050882" flag="0"/>
      <psa03 value="0.0118204611" flag="0"/>
      <psa10 value="0.0060463408" flag="0"/>
      <psa30 value="0.0005603492" flag="0"/>
    </comp>
    <comp name="--.HHN">
      <acc value="0.0136007044" flag="0"/>
      <vel value="0.0083496285" flag="0"/>
      <psa03 value="0.0431445839" flag="0"/>
      <psa10 value="0.0092481254" flag="0"/>
      <psa30 value="0.0006668518" flag="0"/>
    </comp>
  </station>
  <station code="CET2" name="CET2" netid="IV" insttype="" lat="39.5288" lon="15.9546">
    <comp name="--.HHE">
      <acc value="0.1705369440" flag="0"/>
      <vel value="0.0594865658" flag="0"/>
      <psa03 value="0.3049764057" flag="0"/>
      <psa10 value="0.0564007402" flag="0"/>
      <psa30 value="0.0032910309" flag="0"/>
    </comp>
    <comp name="--.HHN">
      <acc value="0.2375925246" flag="0"/>
      <vel value="0.0808968712" flag="0"/>
      <psa03 value="0.3397082309" flag="0"/>
      <psa10 value="0.0677799262" flag="0"/>
      <psa30 value="0.0029656661" flag="0"/>
    </comp>
    <comp name="--.HHZ">
      <acc value="0.1362878156" flag="0"/>
      <vel value="0.0359488847" flag="0"/>
      <psa03 value="0.1495413475" flag="0"/>
      <psa10 value="0.0216840623" flag="0"/>
      <psa30 value="0.0013827331" flag="0"/>
    </comp>
  </station>
  <station code="CMPR" name="CMPR" netid="IV" insttype="" lat="40.3181" lon="15.303">
    <comp name="--.HHN">
      <acc value="0.0188678488" flag="0"/>
      <vel value="0.0077545759" flag="0"/>
      <psa03 value="0.0642917558" flag="0"/>
      <psa10 value="0.0067359947" flag="0"/>
      <psa30 value="0.0006091651" flag="0"/>
    </comp>
    <comp name="--.HHE">
      <acc value="0.0191833830" flag="0"/>
      <vel value="0.0085550170" flag="0"/>
      <psa03 value="0.0500877946" flag="0"/>
      <psa10 value="0.0085803407" flag="0"/>
      <psa30 value="0.0007524877" flag="0"/>
    </comp>
    <comp name="--.HHZ">
      <acc value="0.0102575253" flag="0"/>
      <vel value="0.0057395521" flag="0"/>
      <psa03 value="0.0381513681" flag="0"/>
      <psa10 value="0.0039942773" flag="0"/>
      <psa30 value="0.0007162585" flag="0"/>
    </comp>
  </station>
  <station code="GIZZ" name="GIZZ" netid="IV" insttype="" lat="38.9798" lon="16.2078">
    <comp name="--.HHN">
      <acc value="0.1132452426" flag="0"/>
      <vel value="0.0282677288" flag="0"/>
      <psa03 value="0.1373967775" flag="0"/>
      <psa10 value="0.0098646161" flag="0"/>
      <psa30 value="0.0007425706" flag="0"/>
    </comp>
    <comp name="--.HHE">
      <acc value="0.0930188104" flag="0"/>
      <vel value="0.0269178344" flag="0"/>
      <psa03 value="0.1840071653" flag="0"/>
      <psa10 value="0.0113877363" flag="0"/>
      <psa30 value="0.0008423015" flag="0"/>
    </comp>
    <comp name="--.HHZ">
      <acc value="0.0487032079" flag="0"/>
      <vel value="0.0093307243" flag="0"/>
      <psa03 value="0.0784825672" flag="0"/>
      <psa10 value="0.0055914084" flag="0"/>
      <psa30 value="0.0004098545" flag="0"/>
    </comp>
  </station>
  <station code="GRIS" name="GRIS" netid="IV" insttype="" lat="39.7405" lon="15.8531">
    <comp name="--.HNE">
      <acc value="0.0591611062" flag="0"/>
      <vel value="0.0268737084" flag="0"/>
      <psa03 value="0.0923295080" flag="0"/>
      <psa10 value="0.0305208219" flag="0"/>
      <psa30 value="0.0016021120" flag="0"/>
    </comp>
    <comp name="--.HNN">
      <acc value="0.0652970097" flag="0"/>
      <vel value="0.0195050176" flag="0"/>
      <psa03 value="0.0954025757" flag="0"/>
      <psa10 value="0.0104564042" flag="0"/>
      <psa30 value="0.0010846331" flag="0"/>
    </comp>
    <comp name="--.HNZ">
      <acc value="0.0367794476" flag="0"/>
      <vel value="0.0100417068" flag="0"/>
      <psa03 value="0.0414659492" flag="0"/>
      <psa10 value="0.0075821802" flag="0"/>
      <psa30 value="0.0006466987" flag="0"/>
    </comp>
  </station>
  <station code="IACL" name="IACL" netid="IV" insttype="" lat="38.533" lon="14.355">
    <comp name="--.HHE">
      <acc value="0.0357562893" flag="0"/>
      <vel value="0.0132401516" flag="0"/>
      <psa03 value="0.0341097091" flag="0"/>
      <psa10 value="0.0068954291" flag="0"/>
      <psa30 value="0.0008262069" flag="0"/>
    </comp>
    <comp name="--.HHN">
      <acc value="0.0418346896" flag="0"/>
      <vel value="0.0107480518" flag="0"/>
      <psa03 value="0.0284291245" flag="0"/>
      <psa10 value="0.0082739419" flag="0"/>
      <psa30 value="0.0010750914" flag="0"/>
    </comp>
    <comp name="--.HHZ">
      <acc value="0.0230562882" flag="0"/>
      <vel value="0.0055596984" flag="0"/>
      <psa03 value="0.0197413195" flag="0"/>
      <psa10 value="0.0049843022" flag="0"/>
      <psa30 value="0.0004978655" flag="0"/>
    </comp>
  </station>
  <station code="IFIL" name="IFIL" netid="IV" insttype="" lat="38.5642" lon="14.5753">
    <comp name="--.HHN">
      <acc value="0.0336679965" flag="0"/>
      <vel value="0.0088627569" flag="0"/>
      <psa03 value="0.0344955030" flag="0"/>
      <psa10 value="0.0076085628" flag="0"/>
      <psa30 value="0.0008189612" flag="0"/>
    </comp>
    <comp name="--.HHE">
      <acc value="0.0820566990" flag="0"/>
      <vel value="0.0193213770" flag="0"/>
      <psa03 value="0.0724036845" flag="0"/>
      <psa10 value="0.0173118132" flag="0"/>
      <psa30 value="0.0011190520" flag="0"/>
    </comp>
    <comp name="--.HHZ">
      <acc value="0.0484604098" flag="0"/>
      <vel value="0.0112208184" flag="0"/>
      <psa03 value="0.0348587474" flag="0"/>
      <psa10 value="0.0077623689" flag="0"/>
      <psa30 value="0.0007651724" flag="0"/>
    </comp>
  </station>
  <station code="ILOS" name="ILOS" netid="IV" insttype="" lat="38.4457" lon="14.9483">
    <comp name="--.HHE">
      <acc value="0.0062935831" flag="0"/>
      <vel value="0.0047143961" flag="0"/>
      <psa03 value="0.0148970747" flag="0"/>
      <psa10 value="0.0089892537" flag="0"/>
      <psa30 value="0.0009520620" flag="0"/>
    </comp>
    <comp name="--.HHZ">
      <acc value="0.0046090405" flag="0"/>
      <vel value="0.0033829624" flag="0"/>
      <psa03 value="0.0086061090" flag="0"/>
      <psa10 value="0.0029134493" flag="0"/>
      <psa30 value="0.0005278031" flag="0"/>
    </comp>
    <comp name="--.HHN">
      <acc value="0.0110698928" flag="0"/>
      <vel value="0.0099462993" flag="0"/>
      <psa03 value="0.0204024295" flag="0"/>
      <psa10 value="0.0146443079" flag="0"/>
      <psa30 value="0.0010929921" flag="0"/>
    </comp>
  </station>
  <station code="IST3" name="IST3" netid="IV" insttype="" lat="38.7992" lon="15.2304">
    <comp name="--.HHE">
      <acc value="0.2012054718" flag="0"/>
      <vel value="0.0433736320" flag="0"/>
      <psa03 value="0.1841712919" flag="0"/>
      <psa10 value="0.0265282826" flag="0"/>
      <psa30 value="0.0015986940" flag="0"/>
    </comp>
    <comp name="--.HHN">
      <acc value="0.2440523753" flag="0"/>
      <vel value="0.0508275723" flag="0"/>
      <psa03 value="0.1967056495" flag="0"/>
      <psa10 value="0.0280975602" flag="0"/>
      <psa30 value="0.0022344537" flag="0"/>
    </comp>
    <comp name="--.HHZ">
      <acc value="0.1587278123" flag="0"/>
      <vel value="0.0282611663" flag="0"/>
      <psa03 value="0.1083461965" flag="0"/>
      <psa10 value="0.0185031740" flag="0"/>
      <psa30 value="0.0018409263" flag="0"/>
    </comp>
  </station>
  <station code="ISTR" name="ISTR" netid="IV" insttype="" lat="38.7866" lon="15.1918">
    <comp name="--.HHE">
      <acc value="0.1107780952" flag="0"/>
      <vel value="0.0303160352" flag="0"/>
      <psa03 value="0.1602650501" flag="0"/>
      <psa10 value="0.0176305303" flag="0"/>
      <psa30 value="0.0011790978" flag="0"/>
    </comp>
    <comp name="--.HHN">
      <acc value="0.1251216578" flag="0"/>
      <vel value="0.0453883211" flag="0"/>
      <psa03 value="0.1488813731" flag="0"/>
      <psa10 value="0.0167644389" flag="0"/>
      <psa30 value="0.0023152405" flag="0"/>
    </comp>
    <comp name="--.HHZ">
      <acc value="0.0810440940" flag="0"/>
      <vel value="0.0202230895" flag="0"/>
      <psa03 value="0.0904268052" flag="0"/>
      <psa10 value="0.0087583484" flag="0"/>
      <psa30 value="0.0006741397" flag="0"/>
    </comp>
  </station>
  <station code="IVCR" name="IVCR" netid="IV" insttype="" lat="38.4096" lon="14.961">
    <comp name="--.HHE">
      <acc value="0.0069900825" flag="0"/>
      <vel value="0.0034384294" flag="0"/>
      <psa03 value="0.0146651948" flag="0"/>
      <psa10 value="0.0032571575" flag="0"/>
      <psa30 value="0.0013743191" flag="0"/>
    </comp>
    <comp name="--.HHN">
      <acc value="0.0051565510" flag="0"/>
      <vel value="0.0032400047" flag="0"/>
      <psa03 value="0.0103042270" flag="0"/>
      <psa10 value="0.0037852840" flag="0"/>
      <psa30 value="0.0006656519" flag="0"/>
    </comp>
    <comp name="--.HHZ">
      <acc value="0.0036639294" flag="0"/>
      <vel value="0.0022831304" flag="0"/>
      <psa03 value="0.0066946499" flag="0"/>
      <psa10 value="0.0037402346" flag="0"/>
      <psa30 value="0.0008859183" flag="0"/>
    </comp>
  </station>
  <station code="IVGP" name="IVGP" netid="IV" insttype="" lat="38.3968" lon="14.9608">
    <comp name="--.HHE">
      <acc value="0.0067361066" flag="0"/>
      <vel value="0.0027731877" flag="0"/>
      <psa03 value="0.0094277555" flag="0"/>
      <psa10 value="0.0036112857" flag="0"/>
      <psa30 value="0.0007700550" flag="0"/>
    </comp>
    <comp name="--.HHN">
      <acc value="0.0046961384" flag="0"/>
      <vel value="0.0024600464" flag="0"/>
      <psa03 value="0.0094867844" flag="0"/>
      <psa10 value="0.0037711819" flag="0"/>
      <psa30 value="0.0004872351" flag="0"/>
    </comp>
    <comp name="--.HHZ">
      <acc value="0.0036770474" flag="0"/>
      <vel value="0.0021588150" flag="0"/>
      <psa03 value="0.0053857643" flag="0"/>
      <psa10 value="0.0019623908" flag="0"/>
      <psa30 value="0.0006408871" flag="0"/>
    </comp>
  </station>
  <station code="IVLT" name="IVLT" netid="IV" insttype="" lat="38.3961" lon="14.9482">
    <comp name="--.HHE">
      <acc value="0.0054643698" flag="0"/>
      <vel value="0.0060137878" flag="0"/>
      <psa03 value="0.0099247356" flag="0"/>
      <psa10 value="0.0116200754" flag="0"/>
      <psa30 value="0.0008981000" flag="0"/>
    </comp>
    <comp name="--.HHN">
      <acc value="0.0060614325" flag="0"/>
      <vel value="0.0058853316" flag="0"/>
      <psa03 value="0.0107663835" flag="0"/>
      <psa10 value="0.0092478779" flag="0"/>
      <psa30 value="0.0007827997" flag="0"/>
    </comp>
    <comp name="--.HHZ">
      <acc value="0.0044538778" flag="0"/>
      <vel value="0.0033470103" flag="0"/>
      <psa03 value="0.0097857527" flag="0"/>
      <psa10 value="0.0036899180" flag="0"/>
      <psa30 value="0.0009342542" flag="0"/>
    </comp>
  </station>
  <station code="IVPL" name="IVPL" netid="IV" insttype="" lat="38.3763" lon="14.9801">
    <comp name="--.HHE">
      <acc value="0.0094331952" flag="0"/>
      <vel value="0.0066866621" flag="0"/>
      <psa03 value="0.0154099888" flag="0"/>
      <psa10 value="0.0138066933" flag="0"/>
      <psa30 value="0.0011700508" flag="0"/>
    </comp>
    <comp name="--.HHN">
      <acc value="0.0094397044" flag="0"/>
      <vel value="0.0076213469" flag="0"/>
      <psa03 value="0.0186961721" flag="0"/>
      <psa10 value="0.0101046949" flag="0"/>
      <psa30 value="0.0013297848" flag="0"/>
    </comp>
    <comp name="--.HHZ">
      <acc value="0.0049102746" flag="0"/>
      <vel value="0.0028040426" flag="0"/>
      <psa03 value="0.0116726268" flag="0"/>
      <psa10 value="0.0037903462" flag="0"/>
      <psa30 value="0.0004202428" flag="0"/>
    </comp>
  </station>
  <station code="IVUG" name="IVUG" netid="IV" insttype="" lat="38.396" lon="14.986">
    <comp name="--.HHN">
      <acc value="0.0080813959" flag="0"/>
      <vel value="0.0052511658" flag="0"/>
      <psa03 value="0.0233233058" flag="0"/>
      <psa10 value="0.0053742791" flag="0"/>
      <psa30 value="0.0006901519" flag="0"/>
    </comp>
    <comp name="--.HHE">
      <acc value="0.0075617216" flag="0"/>
      <vel value="0.0045815887" flag="0"/>
      <psa03 value="0.0266343947" flag="0"/>
      <psa10 value="0.0064174243" flag="0"/>
      <psa30 value="0.0013301883" flag="0"/>
    </comp>
