<?xml version="1.0" encoding="UTF-8" standalone="yes"?>
<!DOCTYPE earthquake SYSTEM "stationlist.dtd">
<stationlist created="" xmlns="ch.ethz.sed.shakemap.usgs.xml">
  <station code="OEM4" name="OEM4" netid="3D" insttype="" lat="38.4095" lon="14.9422">
    <comp name="--.HHE">
      <acc value="0.0105373253" flag="0"/>
      <vel value="0.0061829571" flag="0"/>
      <psa03 value="0.0172075115" flag="0"/>
      <psa10 value="0.0070477977" flag="0"/>
      <psa30 value="0.0016864524" flag="0"/>
    </comp>
    <comp name="--.HHN">
      <acc value="0.0084087197" flag="0"/>
      <vel value="0.0058525987" flag="0"/>
      <psa03 value="0.0094949501" flag="0"/>
      <psa10 value="0.0106747284" flag="0"/>
      <psa30 value="0.0016767937" flag="0"/>
    </comp>
    <comp name="--.HHZ">
      <acc value="0.0068030052" flag="0"/>
      <vel value="0.0024839573" flag="0"/>
      <psa03 value="0.0044860429" flag="0"/>
      <psa10 value="0.0038426586" flag="0"/>
      <psa30 value="0.0011388101" flag="0"/>
    </comp>
  </station>
  <station code="OEM5" name="OEM5" netid="3D" insttype="" lat="38.4223" lon="14.9661">
    <comp name="--.HHE">
      <acc value="0.0089122310" flag="0"/>
      <vel value="0.0078046913" flag="0"/>
      <psa03 value="0.0155842795" flag="0"/>
      <psa10 value="0.0101522273" flag="0"/>
      <psa30 value="0.0031482324" flag="0"/>
    </comp>
    <comp name="--.HHN">
      <acc value="0.0065402160" flag="0"/>
      <vel value="0.0063524807" flag="0"/>
      <psa03 value="0.0110189246" flag="0"/>
      <psa10 value="0.0126757356" flag="0"/>
      <psa30 value="0.0020755325" flag="0"/>
    </comp>
    <comp name="--.HHZ">
      <acc value="0.0069482533" flag="0"/>
      <vel value="0.0050775099" flag="0"/>
      <psa03 value="0.0121246694" flag="0"/>
      <psa10 value="0.0064881023" flag="0"/>
      <psa30 value="0.0008430561" flag="0"/>
    </comp>
  </station>
  <station code="OEM9" name="OEM9" netid="3D" insttype="" lat="38.3879" lon="14.9908">
    <comp name="--.HHN">
      <acc value="0.0075834837" flag="0"/>
      <vel value="0.0047183237" flag="0"/>
      <psa03 value="0.0221707278" flag="0"/>
      <psa10 value="0.0045477437" flag="0"/>
      <psa30 value="0.0007118906" flag="0"/>
    </comp>
    <comp name="--.HHZ">
      <acc value="0.0041026448" flag="0"/>
      <vel value="0.0018175421" flag="0"/>
      <psa03 value="0.0101012928" flag="0"/>
      <psa10 value="0.0024448166" flag="0"/>
      <psa30 value="0.0005718128" flag="0"/>
    </comp>
    <comp name="--.HHE">
      <acc value="0.0063551890" flag="0"/>
      <vel value="0.0048224754" flag="0"/>
      <psa03 value="0.0192366955" flag="0"/>
      <psa10 value="0.0072179000" flag="0"/>
      <psa30 value="0.0011890254" flag="0"/>
    </comp>
  </station>
  <station code="CS2FF" name="CS2FF" netid="7C" insttype="" lat="39.2933" lon="16.2584">
    <comp name="--.HH1">
      <acc value="0.0155225419" flag="0"/>
      <vel value="0.0085265740" flag="0"/>
      <psa03 value="0.0430562094" flag="0"/>
      <psa10 value="0.0082193783" flag="0"/>
      <psa30 value="0.0005934510" flag="0"/>
    </comp>
    <comp name="--.HH2">
      <acc value="0.0237520203" flag="0"/>
      <vel value="0.0156258547" flag="0"/>
      <psa03 value="0.0674809461" flag="0"/>
      <psa10 value="0.0156553600" flag="0"/>
      <psa30 value="0.0009806461" flag="0"/>
    </comp>
    <comp name="--.HHZ">
      <acc value="0.0145830666" flag="0"/>
      <vel value="0.0068580152" flag="0"/>
      <psa03 value="0.0457540550" flag="0"/>
      <psa10 value="0.0041501819" flag="0"/>
      <psa30 value="0.0004846250" flag="0"/>
    </comp>
  </station>
  <station code="MARCO" name="MARCO" netid="GE" insttype="VBB" lat="40.2972" lon="15.8063">
    <comp name="--.HHE">
      <acc value="0.0134536017" flag="0"/>
      <vel value="0.0092943929" flag="0"/>
      <psa03 value="0.0365956955" flag="0"/>
      <psa10 value="0.0149326914" flag="0"/>
      <psa30 value="0.0010740881" flag="0"/>
    </comp>
    <comp name="--.HHN">
      <acc value="0.0143224560" flag="0"/>
      <vel value="0.0152667190" flag="0"/>
      <psa03 value="0.0474990236" flag="0"/>
      <psa10 value="0.0139964324" flag="0"/>
      <psa30 value="0.0017052341" flag="0"/>
    </comp>
    <comp name="--.HHZ">
      <acc value="0.0096387274" flag="0"/>
      <vel value="0.0063218521" flag="0"/>
      <psa03 value="0.0245209828" flag="0"/>
      <psa10 value="0.0055336637" flag="0"/>
      <psa30 value="0.0008375777" flag="0"/>
    </comp>
  </station>
  <station code="BULG" name="BULG" netid="IV" insttype="" lat="40.0783" lon="15.3776">
    <comp name="--.HHE">
      <acc value="0.0380498554" flag="0"/>
      <vel value="0.0187745288" flag="0"/>
      <psa03 value="0.1044453465" flag="0"/>
      <psa10 value="0.0211300205" flag="0"/>
      <psa30 value="0.0012059058" flag="0"/>
    </comp>
    <comp name="--.HHN">
      <acc value="0.0905282178" flag="0"/>
      <vel value="0.0588674348" flag="0"/>
      <psa03 value="0.1435802579" flag="0"/>
      <psa10 value="0.0658444094" flag="0"/>
      <psa30 value="0.0025575576" flag="0"/>
    </comp>
    <comp name="--.HHZ">
      <acc value="0.0221114449" flag="0"/>
      <vel value="0.0183703069" flag="0"/>
      <psa03 value="0.0691156304" flag="0"/>
      <psa10 value="0.0240263127" flag="0"/>
      <psa30 value="0.0014969595" flag="0"/>
    </comp>
  </station>
  <station code="CAR1" name="CAR1" netid="IV" insttype="" lat="39.2534" lon="16.2114">
    <comp name="--.HHE">
      <acc value="0.0921331168" flag="0"/>
      <vel value="0.0382193225" flag="0"/>
      <psa03 value="0.1492823302" flag="0"/>
      <psa10 value="0.0181864346" flag="0"/>
      <psa30 value="0.0012424721" flag="0"/>
    </comp>
    <comp name="--.HHZ">
      <acc value="0.0435210119" flag="0"/>
      <vel value="0.0196138839" flag="0"/>
      <psa03 value="0.1305592414" flag="0"/>
      <psa10 value="0.0101141770" flag="0"/>
      <psa30 value="0.0006504306" flag="0"/>
    </comp>
    <comp name="--.HHN">
      <acc value="0.0799710334" flag="0"/>
      <vel value="0.0396908657" flag="0"/>
      <psa03 value="0.2284694022" flag="0"/>
      <psa10 value="0.0260008528" flag="0"/>
      <psa30 value="0.0012546265" flag="0"/>
    </comp>
  </station>
  <station code="CDRU" name="CDRU" netid="IV" insttype="" lat="40.4896" lon="15.3046">
    <comp name="--.HHE">
      <acc value="0.0269952248" flag="0"/>
      <vel value="0.0092047907" flag="0"/>
      <psa03 value="0.0359995538" flag="0"/>
      <psa10 value="0.0073718577" flag="0"/>
      <psa30 value="0.0006210137" flag="0"/>
    </comp>
    <comp name="--.HHN">
      <acc value="0.0091022209" flag="0"/>
      <vel value="0.0035238032" flag="0"/>
      <psa03 value="0.0222400750" flag="0"/>
      <psa10 value="0.0041264358" flag="0"/>
      <psa30 value="0.0004915684" flag="0"/>
    </comp>
    <comp name="--.HHZ">
      <acc value="0.0083612719" flag="0"/>
      <vel value="0.0038342520" flag="0"/>
      <psa03 value="0.0164162279" flag="0"/>
      <psa10 value="0.0044608420" flag="0"/>
      <psa30 value="0.0003937302" flag="0"/>
    </comp>
  </station>
  <station code="CELI" name="CELI" netid="IV" insttype="" lat="39.4027" lon="16.5088">
    <comp name="--.HHE">
      <acc value="0.0161983477" flag="0"/>
      <vel value="0.0083269973" flag="0"/>
      <psa03 value="0.0302100389" flag="0"/>
      <psa10 value="0.0069697002" flag="0"/>
      <psa30 value="0.0005085180" flag="0"/>
    </comp>
    <comp name="--.HHN">
      <acc value="0.0136007043" flag="0"/>
      <vel value="0.0083496290" flag="0"/>
      <psa03 value="0.0431445839" flag="0"/>
      <psa10 value="0.0092481254" flag="0"/>
      <psa30 value="0.0006668770" flag="0"/>
    </comp>
    <comp name="--.HHZ">
      <acc value="0.0073196608" flag="0"/>
      <vel value="0.0051050880" flag="0"/>
      <psa03 value="0.0118204611" flag="0"/>
      <psa10 value="0.0060463408" flag="0"/>
      <psa30 value="0.0005603209" flag="0"/>
    </comp>
  </station>
  <station code="CET2" name="CET2" netid="IV" insttype="" lat="39.5288" lon="15.9546">
    <comp name="--.HHE">
      <acc value="0.1705369442" flag="0"/>
      <vel value="0.0594865645" flag="0"/>
      <psa03 value="0.3049764057" flag="0"/>
      <psa10 value="0.0564007403" flag="0"/>
      <psa30 value="0.0032910357" flag="0"/>
    </comp>
    <comp name="--.HHN">
      <acc value="0.2375925245" flag="0"/>
      <vel value="0.0808968711" flag="0"/>
      <psa03 value="0.3397082309" flag="0"/>
      <psa10 value="0.0677799260" flag="0"/>
      <psa30 value="0.0029656512" flag="0"/>
    </comp>
    <comp name="--.HHZ">
      <acc value="0.1362878155" flag="0"/>
      <vel value="0.0359488834" flag="0"/>
      <psa03 value="0.1495413475" flag="0"/>
      <psa10 value="0.0216840622" flag="0"/>
      <psa30 value="0.0013827531" flag="0"/>
    </comp>
  </station>
  <station code="CMPR" name="CMPR" netid="IV" insttype="" lat="40.3181" lon="15.303">
    <comp name="--.HHE">
      <acc value="0.0191833830" flag="0"/>
      <vel value="0.0085550175" flag="0"/>
      <psa03 value="0.0500877946" flag="0"/>
      <psa10 value="0.0085803407" flag="0"/>
      <psa30 value="0.0007525215" flag="0"/>
    </comp>
    <comp name="--.HHN">
      <acc value="0.0188678488" flag="0"/>
      <vel value="0.0077545752" flag="0"/>
      <psa03 value="0.0642917558" flag="0"/>
      <psa10 value="0.0067359947" flag="0"/>
      <psa30 value="0.0006091514" flag="0"/>
    </comp>
    <comp name="--.HHZ">
      <acc value="0.0102575255" flag="0"/>
      <vel value="0.0057395517" flag="0"/>
      <psa03 value="0.0381513681" flag="0"/>
      <psa10 value="0.0039942773" flag="0"/>
      <psa30 value="0.0007162686" flag="0"/>
    </comp>
  </station>
  <station code="GIZZ" name="GIZZ" netid="IV" insttype="" lat="38.9798" lon="16.2078">
    <comp name="--.HHE">
      <acc value="0.0930188104" flag="0"/>
      <vel value="0.0269178310" flag="0"/>
      <psa03 value="0.1840071653" flag="0"/>
      <psa10 value="0.0113877363" flag="0"/>
      <psa30 value="0.0008422955" flag="0"/>
    </comp>
    <comp name="--.HHN">
      <acc value="0.1132452427" flag="0"/>
      <vel value="0.0282677277" flag="0"/>
      <psa03 value="0.1373967775" flag="0"/>
      <psa10 value="0.0098646161" flag="0"/>
      <psa30 value="0.0007425628" flag="0"/>
    </comp>
    <comp name="--.HHZ">
      <acc value="0.0487032079" flag="0"/>
      <vel value="0.0093307242" flag="0"/>
      <psa03 value="0.0784825672" flag="0"/>
      <psa10 value="0.0055914084" flag="0"/>
      <psa30 value="0.0004098537" flag="0"/>
    </comp>
  </station>
  <station code="GRIS" name="GRIS" netid="IV" insttype="" lat="39.7405" lon="15.8531">
    <comp name="--.HNE">
      <acc value="0.0591611070" flag="0"/>
      <vel value="0.0268737085" flag="0"/>
      <psa03 value="0.0923295080" flag="0"/>
      <psa10 value="0.0305208226" flag="0"/>
      <psa30 value="0.0016028696" flag="0"/>
    </comp>
    <comp name="--.HNZ">
      <acc value="0.0367794457" flag="0"/>
      <vel value="0.0100417048" flag="0"/>
      <psa03 value="0.0414659492" flag="0"/>
      <psa10 value="0.0075821802" flag="0"/>
      <psa30 value="0.0006482185" flag="0"/>
    </comp>
    <comp name="--.HNN">
      <acc value="0.0652970102" flag="0"/>
      <vel value="0.0195050153" flag="0"/>
      <psa03 value="0.0954025757" flag="0"/>
      <psa10 value="0.0104564066" flag="0"/>
      <psa30 value="0.0010845996" flag="0"/>
    </comp>
  </station>
  <station code="IACL" name="IACL" netid="IV" insttype="" lat="38.533" lon="14.355">
    <comp name="--.HHE">
      <acc value="0.0357562893" flag="0"/>
      <vel value="0.0132401522" flag="0"/>
      <psa03 value="0.0341097091" flag="0"/>
      <psa10 value="0.0068954291" flag="0"/>
      <psa30 value="0.0008262128" flag="0"/>
    </comp>
    <comp name="--.HHN">
      <acc value="0.0418346896" flag="0"/>
      <vel value="0.0107480526" flag="0"/>
      <psa03 value="0.0284291245" flag="0"/>
      <psa10 value="0.0082739419" flag="0"/>
      <psa30 value="0.0010751100" flag="0"/>
    </comp>
    <comp name="--.HHZ">
      <acc value="0.0230562882" flag="0"/>
      <vel value="0.0055596979" flag="0"/>
      <psa03 value="0.0197413195" flag="0"/>
      <psa10 value="0.0049843022" flag="0"/>
      <psa30 value="0.0004978645" flag="0"/>
    </comp>
  </station>
  <station code="IFIL" name="IFIL" netid="IV" insttype="" lat="38.5642" lon="14.5753">
    <comp name="--.HHE">
      <acc value="0.0820566990" flag="0"/>
      <vel value="0.0193213805" flag="0"/>
      <psa03 value="0.0724036845" flag="0"/>
      <psa10 value="0.0173118132" flag="0"/>
      <psa30 value="0.0011190931" flag="0"/>
    </comp>
    <comp name="--.HHN">
      <acc value="0.0336679965" flag="0"/>
      <vel value="0.0088627554" flag="0"/>
      <psa03 value="0.0344955030" flag="0"/>
      <psa10 value="0.0076085628" flag="0"/>
      <psa30 value="0.0008189624" flag="0"/>
    </comp>
    <comp name="--.HHZ">
      <acc value="0.0484604098" flag="0"/>
      <vel value="0.0112208177" flag="0"/>
      <psa03 value="0.0348587474" flag="0"/>
      <psa10 value="0.0077623689" flag="0"/>
      <psa30 value="0.0007651675" flag="0"/>
    </comp>
  </station>
  <station code="ILOS" name="ILOS" netid="IV" insttype="" lat="38.4457" lon="14.9483">
    <comp name="--.HHN">
      <acc value="0.0110698929" flag="0"/>
      <vel value="0.0099462985" flag="0"/>
      <psa03 value="0.0204024295" flag="0"/>
      <psa10 value="0.0146443079" flag="0"/>
      <psa30 value="0.0010930127" flag="0"/>
    </comp>
    <comp name="--.HHE">
      <acc value="0.0062935831" flag="0"/>
      <vel value="0.0047143931" flag="0"/>
      <psa03 value="0.0148970747" flag="0"/>
      <psa10 value="0.0089892537" flag="0"/>
      <psa30 value="0.0009520603" flag="0"/>
    </comp>
    <comp name="--.HHZ">
      <acc value="0.0046090405" flag="0"/>
      <vel value="0.0033829620" flag="0"/>
      <psa03 value="0.0086061090" flag="0"/>
      <psa10 value="0.0029134492" flag="0"/>
      <psa30 value="0.0005278047" flag="0"/>
    </comp>
  </station>
  <station code="IST3" name="IST3" netid="IV" insttype="" lat="38.7992" lon="15.2304">
    <comp name="--.HHE">
      <acc value="0.2012054709" flag="0"/>
      <vel value="0.0433736312" flag="0"/>
      <psa03 value="0.1841712919" flag="0"/>
      <psa10 value="0.0265282839" flag="0"/>
      <psa30 value="0.0015986971" flag="0"/>
    </comp>
    <comp name="--.HHN">
      <acc value="0.2440523806" flag="0"/>
      <vel value="0.0508275736" flag="0"/>
      <psa03 value="0.1967056495" flag="0"/>
      <psa10 value="0.0280975649" flag="0"/>
      <psa30 value="0.0022344715" flag="0"/>
    </comp>
    <comp name="--.HHZ">
      <acc value="0.1587278095" flag="0"/>
      <vel value="0.0282611673" flag="0"/>
      <psa03 value="0.1083461965" flag="0"/>
      <psa10 value="0.0185031733" flag="0"/>
      <psa30 value="0.0018409229" flag="0"/>
    </comp>
  </station>
  <station code="ISTR" name="ISTR" netid="IV" insttype="" lat="38.7866" lon="15.1918">
    <comp name="--.HHE">
      <acc value="0.1107780951" flag="0"/>
      <vel value="0.0303160354" flag="0"/>
      <psa03 value="0.1602650501" flag="0"/>
      <psa10 value="0.0176305312" flag="0"/>
      <psa30 value="0.0011789642" flag="0"/>
    </comp>
    <comp name="--.HHN">
      <acc value="0.1251216574" flag="0"/>
      <vel value="0.0453883082" flag="0"/>
      <psa03 value="0.1488813731" flag="0"/>
      <psa10 value="0.0167644414" flag="0"/>
      <psa30 value="0.0023152138" flag="0"/>
    </comp>
    <comp name="--.HHZ">
      <acc value="0.0810440940" flag="0"/>
      <vel value="0.0202230871" flag="0"/>
      <psa03 value="0.0904268052" flag="0"/>
      <psa10 value="0.0087583467" flag="0"/>
      <psa30 value="0.0006741376" flag="0"/>
    </comp>
  </station>
  <station code="IVCR" name="IVCR" netid="IV" insttype="" lat="38.4096" lon="14.961">
    <comp name="--.HHZ">
      <acc value="0.0036639294" flag="0"/>
      <vel value="0.0022831300" flag="0"/>
      <psa03 value="0.0066946499" flag="0"/>
      <psa10 value="0.0037402347" flag="0"/>
      <psa30 value="0.0008859192" flag="0"/>
    </comp>
    <comp name="--.HHE">
      <acc value="0.0069900825" flag="0"/>
      <vel value="0.0034384293" flag="0"/>
      <psa03 value="0.0146651948" flag="0"/>
      <psa10 value="0.0032571575" flag="0"/>
      <psa30 value="0.0013743218" flag="0"/>
    </comp>
    <comp name="--.HHN">
      <acc value="0.0051565510" flag="0"/>
      <vel value="0.0032400062" flag="0"/>
      <psa03 value="0.0103042270" flag="0"/>
      <psa10 value="0.0037852840" flag="0"/>
      <psa30 value="0.0006656527" flag="0"/>
    </comp>
  </station>
  <station code="IVGP" name="IVGP" netid="IV" insttype="" lat="38.3968" lon="14.9608">
    <comp name="--.HHE">
      <acc value="0.0067361066" flag="0"/>
      <vel value="0.0027731879" flag="0"/>
      <psa03 value="0.0094277555" flag="0"/>
      <psa10 value="0.0036112857" flag="0"/>
      <psa30 value="0.0007700559" flag="0"/>
    </comp>
    <comp name="--.HHN">
      <acc value="0.0046961384" flag="0"/>
      <vel value="0.0024600457" flag="0"/>
      <psa03 value="0.0094867844" flag="0"/>
      <psa10 value="0.0037711819" flag="0"/>
      <psa30 value="0.0004872381" flag="0"/>
    </comp>
    <comp name="--.HHZ">
      <acc value="0.0036770474" flag="0"/>
      <vel value="0.0021588150" flag="0"/>
      <psa03 value="0.0053857643" flag="0"/>
      <psa10 value="0.0019623908" flag="0"/>
      <psa30 value="0.0006408880" flag="0"/>
    </comp>
  </station>
  <station code="IVLT" name="IVLT" netid="IV" insttype="" lat="38.3961" lon="14.9482">
    <comp name="--.HHE">
      <acc value="0.0054643699" flag="0"/>
      <vel value="0.0060137906" flag="0"/>
      <psa03 value="0.0099247356" flag="0"/>
      <psa10 value="0.0116200754" flag="0"/>
      <psa30 value="0.0008980947" flag="0"/>
    </comp>
    <comp name="--.HHN">
      <acc value="0.0060614324" flag="0"/>
      <vel value="0.0058853307" flag="0"/>
      <psa03 value="0.0107663835" flag="0"/>
      <psa10 value="0.0092478779" flag="0"/>
      <psa30 value="0.0007827995" flag="0"/>
    </comp>
    <comp name="--.HHZ">
      <acc value="0.0044538778" flag="0"/>
      <vel value="0.0033470103" flag="0"/>
      <psa03 value="0.0097857527" flag="0"/>
      <psa10 value="0.0036899180" flag="0"/>
      <psa30 value="0.0009342546" flag="0"/>
    </comp>
  </station>
  <station code="IVPL" name="IVPL" netid="IV" insttype="" lat="38.3763" lon="14.9801">
    <comp name="--.HHN">
      <acc value="0.0094397044" flag="0"/>
      <vel value="0.0076213472" flag="0"/>
      <psa03 value="0.0186961721" flag="0"/>
      <psa10 value="0.0101046949" flag="0"/>
      <psa30 value="0.0013297858" flag="0"/>
    </comp>
    <comp name="--.HHE">
      <acc value="0.0094331952" flag="0"/>
      <vel value="0.0066866614" flag="0"/>
      <psa03 value="0.0154099888" flag="0"/>
      <psa10 value="0.0138066933" flag="0"/>
      <psa30 value="0.0011700510" flag="0"/>
    </comp>
    <comp name="--.HHZ">
      <acc value="0.0049102746" flag="0"/>
      <vel value="0.0028040424" flag="0"/>
      <psa03 value="0.0116726268" flag="0"/>
      <psa10 value="0.0037903462" flag="0"/>
      <psa30 value="0.0004202428" flag="0"/>
    </comp>
  </station>
  <station code="IVUG" name="IVUG" netid="IV" insttype="" lat="38.396" lon="14.986">
    <comp name="--.HHE">
      <acc value="0.0075617216" flag="0"/>
      <vel value="0.0045815885" flag="0"/>
      <psa03 value="0.0266343947" flag="0"/>
      <psa10 value="0.0064174243" flag="0"/>
      <psa30 value="0.0013301883" flag="0"/>
    </comp>
    <comp name="--.HHN">
      <acc value="0.0080813959" flag="0"/>
      <vel value="0.0052511649" flag="0"/>
      <psa03 value="0.0233233058" flag="0"/>
      <psa10 value="0.0053742791" flag="0"/>
      <psa30 value="0.0006901495" flag="0"/>
    </comp>
