<?xml version="1.0" encoding="UTF-8" standalone="yes"?>
<!DOCTYPE earthquake SYSTEM "stationlist.dtd">
<stationlist created="" xmlns="ch.ethz.sed.shakemap.usgs.xml">
  <station code="THERA" name="THERA" netid="GE" insttype="STS-2/N" lat="36.367" lon="25.4753">
    <comp name="--.HHZ">
      <acc value="0.0933211175" flag="0"/>
      <vel value="0.0214602454" flag="0"/>
      <psa03 value="0.1145205202" flag="0"/>
      <psa10 value="0.0048659492" flag="0"/>
      <psa30 value="0.0006034997" flag="0"/>
    </comp>
    <comp name="--.HHN">
      <acc value="0.1084980623" flag="0"/>
      <vel value="0.0259545617" flag="0"/>
      <psa03 value="0.0973676507" flag="0"/>
      <psa10 value="0.0039580185" flag="0"/>
      <psa30 value="0.0004326971" flag="0"/>
    </comp>
    <comp name="--.HHE">
      <acc value="0.0891800222" flag="0"/>
      <vel value="0.0214565757" flag="0"/>
      <psa03 value="0.1262263762" flag="0"/>
      <psa10 value="0.0084716011" flag="0"/>
      <psa30 value="0.0007994524" flag="0"/>
    </comp>
  </station>
</stationlist>
