<?xml version="1.0" encoding="UTF-8" standalone="yes"?>
<!DOCTYPE earthquake SYSTEM "stationlist.dtd">
<stationlist created="" xmlns="ch.ethz.sed.shakemap.usgs.xml">
  <station code="ADA" name="ADA" netid="VI" source="ODC" insttype="CMG-3ESP" lat="65.0188" lon="-15.5745">
    <comp name="--.HHN">
      <acc value="0.0073867398" flag="0"/>
      <vel value="0.0333529989" flag="0"/>
      <psa03 value="0.0116106229" flag="0"/>
      <psa10 value="0.0139492930" flag="0"/>
      <psa30 value="0.0286695443" flag="0"/>
    </comp>
    <comp name="--.HHE">
      <acc value="0.0113925939" flag="0"/>
      <vel value="0.0354089028" flag="0"/>
      <psa03 value="0.0179314260" flag="0"/>
      <psa10 value="0.0227301770" flag="0"/>
      <psa30 value="0.0209731734" flag="0"/>
    </comp>
    <comp name="--.HHZ">
      <acc value="0.0107981081" flag="0"/>
      <vel value="0.0321370090" flag="0"/>
      <psa03 value="0.0110517480" flag="0"/>
      <psa10 value="0.0155334418" flag="0"/>
      <psa30 value="0.0198240671" flag="0"/>
    </comp>
  </station>
  <station code="FAG" name="FAG" netid="VI" source="ODC" insttype="CMG-3T" lat="63.8748" lon="-16.6536">
    <comp name="--.HHE">
      <acc value="0.0064659872" flag="0"/>
      <vel value="0.0290228809" flag="0"/>
      <psa03 value="0.0081179261" flag="0"/>
      <psa10 value="0.0189925818" flag="0"/>
      <psa30 value="0.0255293868" flag="0"/>
    </comp>
    <comp name="--.HHN">
      <acc value="0.0084865069" flag="0"/>
      <vel value="0.0355718000" flag="0"/>
      <psa03 value="0.0089546135" flag="0"/>
      <psa10 value="0.0167615492" flag="0"/>
      <psa30 value="0.0245615684" flag="0"/>
    </comp>
    <comp name="--.HHZ">
      <acc value="0.0112692124" flag="0"/>
      <vel value="0.0371531241" flag="0"/>
      <psa03 value="0.0116744095" flag="0"/>
      <psa10 value="0.0137049474" flag="0"/>
      <psa30 value="0.0220778693" flag="0"/>
    </comp>
  </station>
  <station code="SKR" name="SKR" netid="VI" source="ODC" insttype="LE-3D/5s" lat="64.5601" lon="-18.3865">
    <comp name="--.HHE">
      <acc value="0.1883725039" flag="0"/>
      <vel value="0.6384847664" flag="0"/>
      <psa03 value="0.1943837788" flag="0"/>
      <psa10 value="0.2812959688" flag="0"/>
      <psa30 value="0.3765247101" flag="0"/>
    </comp>
    <comp name="--.HHN">
      <acc value="0.1772550365" flag="0"/>
      <vel value="0.6636233048" flag="0"/>
      <psa03 value="0.1823163802" flag="0"/>
      <psa10 value="0.2876241798" flag="0"/>
      <psa30 value="0.3013458196" flag="0"/>
    </comp>
    <comp name="--.HHZ">
      <acc value="0.1165712432" flag="0"/>
      <vel value="0.4179384584" flag="0"/>
      <psa03 value="0.1456526503" flag="0"/>
      <psa10 value="0.1980530304" flag="0"/>
      <psa30 value="0.3654605680" flag="0"/>
    </comp>
  </station>
</stationlist>
