<stationlist created="1778135625">
	<station code="S2114" name="S2114" netid="S2" source="IceSMN Icelandic Strong Motion Network (IceSMN)" insttype="" lat="63.7515" lon="-20.2168">
		<comp name="00.HN1" depth="0.0">
			<acc value="0.0142689801280976" flag="0"/>
			<vel value="0.0774990992919091" flag="0"/>
			<psa03 value="0.0179143299655882" flag="0"/>
			<psa10 value="0.0189229923053828" flag="0"/>
			<psa30 value="0.0566142704175083" flag="0"/>
		</comp>
		<comp name="00.HN2" depth="0.0">
			<acc value="0.0143246103710731" flag="0"/>
			<vel value="0.0645954942628734" flag="0"/>
			<psa03 value="0.0160464861780483" flag="0"/>
			<psa10 value="0.0183655328764166" flag="0"/>
			<psa30 value="0.0702102110820662" flag="0"/>
		</comp>
		<comp name="00.HNZ" depth="0.0">
			<acc value="0.0201143445211044" flag="0"/>
			<vel value="0.0942428598887957" flag="0"/>
			<psa03 value="0.0222445543217369" flag="0"/>
			<psa10 value="0.024362118245777" flag="0"/>
			<psa30 value="0.114056102323862" flag="0"/>
		</comp>
	</station>
</stationlist>
