<?xml version="1.0" encoding="UTF-8" standalone="yes"?>
<!DOCTYPE earthquake SYSTEM "stationlist.dtd">
<stationlist created="" xmlns="ch.ethz.sed.shakemap.usgs.xml">
  <station code="JMIC" name="JMIC" netid="NO" insttype="STS-2" lat="70.9866" lon="-8.5057">
    <comp name="00.HHZ">
      <acc value="0.3693201468" flag="0"/>
      <vel value="0.0527658905" flag="0"/>
      <psa03 value="0.1591132117" flag="0"/>
      <psa10 value="0.0162787460" flag="0"/>
      <psa30 value="0.0012567321" flag="0"/>
    </comp>
    <comp name="00.HHE">
      <acc value="0.6380663412" flag="0"/>
      <vel value="0.1169048139" flag="0"/>
      <psa03 value="0.3907699426" flag="0"/>
      <psa10 value="0.0340973747" flag="0"/>
      <psa30 value="0.0046880368" flag="0"/>
    </comp>
    <comp name="00.HHN">
      <acc value="0.9133662800" flag="0"/>
      <vel value="0.1182107065" flag="0"/>
      <psa03 value="0.3665891817" flag="0"/>
      <psa10 value="0.0248263589" flag="0"/>
      <psa30 value="0.0020134801" flag="0"/>
    </comp>
  </station>
  <station code="JMI" name="JMI" netid="NS" insttype="" lat="70.9268" lon="-8.72667">
    <comp name="00.HHZ">
      <acc value="0.1271565201" flag="0"/>
      <vel value="0.0255582518" flag="0"/>
      <psa03 value="0.1305823272" flag="0"/>
      <psa10 value="0.0100253377" flag="0"/>
      <psa30 value="0.0007905407" flag="0"/>
    </comp>
    <comp name="00.HHE">
      <acc value="0.2633534083" flag="0"/>
      <vel value="0.0814619155" flag="0"/>
      <psa03 value="0.3471842345" flag="0"/>
      <psa10 value="0.0322601032" flag="0"/>
      <psa30 value="0.0036620052" flag="0"/>
    </comp>
    <comp name="00.HHN">
      <acc value="0.2219680968" flag="0"/>
      <vel value="0.0328041795" flag="0"/>
      <psa03 value="0.1428192272" flag="0"/>
      <psa10 value="0.0128006314" flag="0"/>
      <psa30 value="0.0008376545" flag="0"/>
    </comp>
  </station>
  <station code="JNE" name="JNE" netid="NS" insttype="" lat="70.9883" lon="-8.29267">
    <comp name="00.HHN">
      <acc value="0.1602398813" flag="0"/>
      <vel value="0.0453524352" flag="0"/>
      <psa03 value="0.1880959403" flag="0"/>
      <psa10 value="0.0336759691" flag="0"/>
      <psa30 value="0.0019048932" flag="0"/>
    </comp>
    <comp name="00.HHE">
      <acc value="0.1759868062" flag="0"/>
      <vel value="0.0840217132" flag="0"/>
      <psa03 value="0.2524835092" flag="0"/>
      <psa10 value="0.0372116634" flag="0"/>
      <psa30 value="0.0025003457" flag="0"/>
    </comp>
    <comp name="00.HHZ">
      <acc value="0.2150507199" flag="0"/>
      <vel value="0.0532265659" flag="0"/>
      <psa03 value="0.2049482419" flag="0"/>
      <psa10 value="0.0166971077" flag="0"/>
      <psa30 value="0.0014236802" flag="0"/>
    </comp>
  </station>
  <station code="JNW" name="JNW" netid="NS" insttype="" lat="71.0273" lon="-8.42367">
    <comp name="00.HHN">
      <acc value="0.7680080527" flag="0"/>
      <vel value="0.1852579301" flag="0"/>
      <psa03 value="1.2575767881" flag="0"/>
      <psa10 value="0.0776175884" flag="0"/>
      <psa30 value="0.0052430011" flag="0"/>
    </comp>
    <comp name="00.HHZ">
      <acc value="0.4486095103" flag="0"/>
      <vel value="0.1216475679" flag="0"/>
      <psa03 value="0.3715425295" flag="0"/>
      <psa10 value="0.0287038321" flag="0"/>
      <psa30 value="0.0017467022" flag="0"/>
    </comp>
    <comp name="00.HHE">
      <acc value="0.9551373882" flag="0"/>
      <vel value="0.2894450652" flag="0"/>
      <psa03 value="0.6720066459" flag="0"/>
      <psa10 value="0.1064574067" flag="0"/>
      <psa30 value="0.0077306510" flag="0"/>
    </comp>
  </station>
</stationlist>
