<stationlist xmlns:esm="https://esm-db.eu/esmws/shakemap/1/" created="1783475700">
	<station code="CAR1" name="CAR1" netid="IV" source="Italian National Seismic Network (INSN)" insttype="" lat="39.2534" lon="16.2114" esm:processing="manual (Paolucci et al 2011)" esm:quality="best">
		<comp name="--.HNE" depth="0.0">
			<acc value="0.0126537892729574" flag="0"/>
			<vel value="0.00548237187916553" flag="0"/>
			<psa03 value="0.0323038731783922" flag="0"/>
			<psa10 value="0.00456638960746081" flag="0"/>
			<psa30 value="0.000468898325359488" flag="0"/>
		</comp>
		<comp name="--.HNN" depth="0.0">
			<acc value="0.012531845851502" flag="0"/>
			<vel value="0.00589220125408589" flag="0"/>
			<psa03 value="0.0391046885843695" flag="0"/>
			<psa10 value="0.00878647453569621" flag="0"/>
			<psa30 value="0.000424156118741216" flag="0"/>
		</comp>
		<comp name="--.HNZ" depth="0.0">
			<acc value="0.00919108362759346" flag="0"/>
			<vel value="0.00327446094402917" flag="0"/>
			<psa03 value="0.0197313131186578" flag="0"/>
			<psa10 value="0.00258923149699939" flag="0"/>
			<psa30 value="0.000244739870201946" flag="0"/>
		</comp>
	</station>
	<station code="JOPP" name="JOPP" netid="IV" source="Italian National Seismic Network (INSN)" insttype="" lat="38.6068" lon="15.8856" esm:processing="manual (Paolucci et al 2011)" esm:quality="bad">
		<comp name="--.HNE" depth="2.0">
			<acc value="0.0113908842543932" flag="0"/>
			<vel value="0.00334704622378985" flag="0"/>
			<psa03 value="0.0170915229281798" flag="0"/>
			<psa10 value="0.00304828653690285" flag="0"/>
			<psa30 value="0.000628628002986718" flag="0"/>
		</comp>
		<comp name="--.HNN" depth="2.0">
			<acc value="0.013259671429034" flag="0"/>
			<vel value="0.00490329296161254" flag="0"/>
			<psa03 value="0.0180758514737818" flag="0"/>
			<psa10 value="0.00462679158639548" flag="0"/>
			<psa30 value="0.000381651022453858" flag="0"/>
		</comp>
		<comp name="--.HNZ" depth="2.0">
			<acc value="0.020234196825262" flag="0"/>
			<vel value="0.00515892780221862" flag="0"/>
			<psa03 value="0.0136016308119546" flag="0"/>
			<psa10 value="0.00355163636135841" flag="0"/>
			<psa30 value="0.000289034654754035" flag="0"/>
		</comp>
	</station>
	<station code="PIPA" name="PIPA" netid="IV" source="Italian National Seismic Network (INSN)" insttype="" lat="39.48514" lon="16.8158" esm:processing="manual (Paolucci et al 2011)" esm:quality="best">
		<comp name="--.HNE" depth="0.0">
			<acc value="0.00674173418166622" flag="0"/>
			<vel value="0.00236593425397619" flag="0"/>
			<psa03 value="0.0111408094479497" flag="0"/>
			<psa10 value="0.00186440774978338" flag="0"/>
			<psa30 value="0.000110513250347131" flag="0"/>
		</comp>
		<comp name="--.HNN" depth="0.0">
			<acc value="0.00596847552702048" flag="0"/>
			<vel value="0.0019551143990386" flag="0"/>
			<psa03 value="0.00930637897660052" flag="0"/>
			<psa10 value="0.00191675613152676" flag="0"/>
			<psa30 value="0.00014317506117847" flag="0"/>
		</comp>
		<comp name="--.HNZ" depth="0.0">
			<acc value="0.00489323515063071" flag="0"/>
			<vel value="0.00138448514165423" flag="0"/>
			<psa03 value="0.00429525183535409" flag="0"/>
			<psa10 value="0.00175165738910534" flag="0"/>
			<psa30 value="0.000119909113736968" flag="0"/>
		</comp>
	</station>
	<station code="PLAC" name="PLAC" netid="IV" source="Italian National Seismic Network (INSN)" insttype="" lat="38.4494" lon="16.4383" esm:processing="manual (Paolucci et al 2011)" esm:quality="good">
		<comp name="--.HNE" depth="1.0">
			<acc value="0.0888524424909347" flag="0"/>
			<vel value="0.0518320431882845" flag="0"/>
			<psa03 value="0.298564744763727" flag="0"/>
			<psa10 value="0.059709369576216" flag="0"/>
			<psa30 value="0.00283531363339988" flag="0"/>
		</comp>
		<comp name="--.HNN" depth="1.0">
			<acc value="0.0575841122719012" flag="0"/>
			<vel value="0.0283805069724248" flag="0"/>
			<psa03 value="0.151139173956522" flag="0"/>
			<psa10 value="0.0243138099205012" flag="0"/>
			<psa30 value="0.00217670835197892" flag="0"/>
		</comp>
		<comp name="--.HNZ" depth="1.0">
			<acc value="0.0352812840715761" flag="0"/>
			<vel value="0.0138711366942259" flag="0"/>
			<psa03 value="0.0597755880420111" flag="0"/>
			<psa10 value="0.0146253324993807" flag="0"/>
			<psa30 value="0.0012581508501058" flag="0"/>
		</comp>
	</station>
	<station code="SALB" name="SALB" netid="IV" source="Italian National Seismic Network (INSN)" insttype="" lat="39.8772" lon="16.3459" esm:processing="manual (Paolucci et al 2011)" esm:quality="best">
		<comp name="--.HNE" depth="0.0">
			<acc value="0.00265128024547182" flag="0"/>
			<vel value="0.00113534175917028" flag="0"/>
			<psa03 value="0.00711401085230521" flag="0"/>
			<psa10 value="0.000954351267167736" flag="0"/>
			<psa30 value="0.000109618406214766" flag="0"/>
		</comp>
		<comp name="--.HNN" depth="0.0">
			<acc value="0.00220425334471918" flag="0"/>
			<vel value="0.000595764948681028" flag="0"/>
			<psa03 value="0.00425050962873582" flag="0"/>
			<psa10 value="0.000700662955642136" flag="0"/>
			<psa30 value="6.62184657950422e-05" flag="0"/>
		</comp>
		<comp name="--.HNZ" depth="0.0">
			<acc value="0.00211915195027025" flag="0"/>
			<vel value="0.000660852784673877" flag="0"/>
			<psa03 value="0.00196865709120396" flag="0"/>
			<psa10 value="0.000434894248329601" flag="0"/>
			<psa30 value="4.83215831477335e-05" flag="0"/>
		</comp>
	</station>
	<station code="SERS" name="SERS" netid="IV" source="Italian National Seismic Network (INSN)" insttype="" lat="39.0359" lon="16.6886" esm:processing="manual (Paolucci et al 2011)" esm:quality="best">
		<comp name="--.HNE" depth="0.0">
			<acc value="0.00668278433229708" flag="0"/>
			<vel value="0.00291075773138621" flag="0"/>
			<psa03 value="0.0188812111929107" flag="0"/>
			<psa10 value="0.00212614965850027" flag="0"/>
			<psa30 value="0.000258609954253611" flag="0"/>
		</comp>
		<comp name="--.HNN" depth="0.0">
			<acc value="0.0067877386120437" flag="0"/>
			<vel value="0.00427386104830123" flag="0"/>
			<psa03 value="0.0298430518143873" flag="0"/>
			<psa10 value="0.00291942898184223" flag="0"/>
			<psa30 value="0.000236686273010658" flag="0"/>
		</comp>
		<comp name="--.HNZ" depth="0.0">
			<acc value="0.00551151254649378" flag="0"/>
			<vel value="0.00184308443483289" flag="0"/>
			<psa03 value="0.00984328545601979" flag="0"/>
			<psa10 value="0.00184830055540081" flag="0"/>
			<psa30 value="0.000145412171509383" flag="0"/>
		</comp>
	</station>
	<station code="CEL" name="CEL" netid="MN" source="Mediterranean Very Broadband Seismographic Network (MedNet)" insttype="" lat="38.2603" lon="15.8939" esm:processing="manual (Paolucci et al 2011)" esm:quality="good">
		<comp name="--.HNE" depth="0.0">
			<acc value="0.0183702537749746" flag="0"/>
			<vel value="0.00491876265234233" flag="0"/>
			<psa03 value="0.0183443047134914" flag="0"/>
			<psa10 value="0.00625361821903584" flag="0"/>
			<psa30 value="0.000625496048523439" flag="0"/>
		</comp>
		<comp name="--.HNN" depth="0.0">
			<acc value="0.00866305805295842" flag="0"/>
			<vel value="0.00503513383380786" flag="0"/>
			<psa03 value="0.0157045145230134" flag="0"/>
			<psa10 value="0.00695428117467798" flag="0"/>
			<psa30 value="0.000575832199177157" flag="0"/>
		</comp>
		<comp name="--.HNZ" depth="0.0">
			<acc value="0.0310527047460171" flag="0"/>
			<vel value="0.00696813259151022" flag="0"/>
			<psa03 value="0.0171810073414164" flag="0"/>
			<psa10 value="0.00324559966808943" flag="0"/>
			<psa30 value="0.000309168647732258" flag="0"/>
		</comp>
	</station>
	<station code="TIP" name="TIP" netid="MN" source="Mediterranean Very Broadband Seismographic Network (MedNet)" insttype="" lat="39.1794" lon="16.7583" esm:processing="manual (Paolucci et al 2011)" esm:quality="best">
		<comp name="--.HNE" depth="0.0">
			<acc value="0.00205275539000346" flag="0"/>
			<vel value="0.00147149425963348" flag="0"/>
			<psa03 value="0.00550329141404743" flag="0"/>
			<psa10 value="0.00218655163743494" flag="0"/>
			<psa30 value="0.000148991548038845" flag="0"/>
		</comp>
		<comp name="--.HNN" depth="0.0">
			<acc value="0.00219743795016029" flag="0"/>
			<vel value="0.00127731147480558" flag="0"/>
			<psa03 value="0.00541380700081088" flag="0"/>
			<psa10 value="0.00173957699331841" flag="0"/>
			<psa30 value="0.00013333177572245" flag="0"/>
		</comp>
		<comp name="--.HNZ" depth="0.0">
			<acc value="0.00306152247218004" flag="0"/>
			<vel value="0.0010542711366847" flag="0"/>
			<psa03 value="0.00635339333979459" flag="0"/>
			<psa10 value="0.00149796907757974" flag="0"/>
			<psa30 value="0.000127962710928257" flag="0"/>
		</comp>
	</station>
</stationlist>
