<?xml version="1.0" encoding="UTF-8" standalone="yes"?>
<!DOCTYPE earthquake SYSTEM "stationlist.dtd">
<stationlist created="" xmlns="ch.ethz.sed.shakemap.usgs.xml">
  <station code="CAR1" name="CAR1" netid="IV" source="INGV" insttype="" lat="39.2534" lon="16.2114">
    <comp name="--.HHE">
      <acc value="0.0146732784" flag="0"/>
      <vel value="0.0061627794" flag="0"/>
      <psa03 value="0.0360054210" flag="0"/>
      <psa10 value="0.0050642446" flag="0"/>
      <psa30 value="0.0004146171" flag="0"/>
    </comp>
    <comp name="--.HHN">
      <acc value="0.0128107566" flag="0"/>
      <vel value="0.0063886962" flag="0"/>
      <psa03 value="0.0304703910" flag="0"/>
      <psa10 value="0.0083407261" flag="0"/>
      <psa30 value="0.0004839925" flag="0"/>
    </comp>
    <comp name="--.HHZ">
      <acc value="0.0084426215" flag="0"/>
      <vel value="0.0032824956" flag="0"/>
      <psa03 value="0.0193370922" flag="0"/>
      <psa10 value="0.0027068640" flag="0"/>
      <psa30 value="0.0002320154" flag="0"/>
    </comp>
  </station>
  <station code="JOPP" name="JOPP" netid="IV" source="INGV" insttype="" lat="38.6068" lon="15.8856">
    <comp name="--.HHE">
      <acc value="0.0118797035" flag="0"/>
      <vel value="0.0035242925" flag="0"/>
      <psa03 value="0.0175551488" flag="0"/>
      <psa10 value="0.0030191238" flag="0"/>
      <psa30 value="0.0005840857" flag="0"/>
    </comp>
    <comp name="--.HHN">
      <acc value="0.0139391705" flag="0"/>
      <vel value="0.0048719771" flag="0"/>
      <psa03 value="0.0177857338" flag="0"/>
      <psa10 value="0.0045933135" flag="0"/>
      <psa30 value="0.0003112958" flag="0"/>
    </comp>
    <comp name="--.HHZ">
      <acc value="0.0238830076" flag="0"/>
      <vel value="0.0052956493" flag="0"/>
      <psa03 value="0.0139998789" flag="0"/>
      <psa10 value="0.0036041653" flag="0"/>
      <psa30 value="0.0002943155" flag="0"/>
    </comp>
  </station>
  <station code="MPNC" name="MPNC" netid="IV" source="INGV" insttype="" lat="38.1465" lon="15.3528">
    <comp name="--.HHE">
      <acc value="0.0092620810" flag="0"/>
      <vel value="0.0047464824" flag="0"/>
      <psa03 value="0.0192969851" flag="0"/>
      <psa10 value="0.0075803642" flag="0"/>
      <psa30 value="0.0003142580" flag="0"/>
    </comp>
    <comp name="--.HHN">
      <acc value="0.0078211505" flag="0"/>
      <vel value="0.0038644644" flag="0"/>
      <psa03 value="0.0222555496" flag="0"/>
      <psa10 value="0.0064886797" flag="0"/>
      <psa30 value="0.0003260766" flag="0"/>
    </comp>
    <comp name="--.HHZ">
      <acc value="0.0065935149" flag="0"/>
      <vel value="0.0025938574" flag="0"/>
      <psa03 value="0.0078553480" flag="0"/>
      <psa10 value="0.0017565169" flag="0"/>
      <psa30 value="0.0001585643" flag="0"/>
    </comp>
  </station>
  <station code="MSCL" name="MSCL" netid="IV" source="INGV" insttype="" lat="38.232" lon="15.79">
    <comp name="--.HHE">
      <acc value="0.0343605399" flag="0"/>
      <vel value="0.0091933155" flag="0"/>
      <psa03 value="0.0300092919" flag="0"/>
      <psa10 value="0.0063491939" flag="0"/>
      <psa30 value="0.0006385549" flag="0"/>
    </comp>
    <comp name="--.HHN">
      <acc value="0.0338954707" flag="0"/>
      <vel value="0.0083698494" flag="0"/>
      <psa03 value="0.0303239827" flag="0"/>
      <psa10 value="0.0131752409" flag="0"/>
      <psa30 value="0.0007509695" flag="0"/>
    </comp>
    <comp name="--.HHZ">
      <acc value="0.0345007304" flag="0"/>
      <vel value="0.0074130809" flag="0"/>
      <psa03 value="0.0170583607" flag="0"/>
      <psa10 value="0.0046635800" flag="0"/>
      <psa30 value="0.0004153913" flag="0"/>
    </comp>
  </station>
  <station code="MSRU" name="MSRU" netid="IV" source="INGV" insttype="" lat="38.2639" lon="15.5083">
    <comp name="--.HHE">
      <acc value="0.0117661083" flag="0"/>
      <vel value="0.0046986232" flag="0"/>
      <psa03 value="0.0196356822" flag="0"/>
      <psa10 value="0.0055308106" flag="0"/>
      <psa30 value="0.0003263847" flag="0"/>
    </comp>
    <comp name="--.HHN">
      <acc value="0.0102214529" flag="0"/>
      <vel value="0.0028925044" flag="0"/>
      <psa03 value="0.0189401602" flag="0"/>
      <psa10 value="0.0030165194" flag="0"/>
      <psa30 value="0.0003745038" flag="0"/>
    </comp>
    <comp name="--.HHZ">
      <acc value="0.0142464949" flag="0"/>
      <vel value="0.0023525168" flag="0"/>
      <psa03 value="0.0118908805" flag="0"/>
      <psa10 value="0.0016853709" flag="0"/>
      <psa30 value="0.0002380049" flag="0"/>
    </comp>
  </station>
  <station code="PLAC" name="PLAC" netid="IV" source="INGV" insttype="" lat="38.4494" lon="16.4383">
    <comp name="--.HNE">
      <acc value="0.0890577646" flag="0"/>
      <vel value="0.0515932250" flag="0"/>
      <psa03 value="0.2981277637" flag="0"/>
      <psa10 value="0.0596128894" flag="0"/>
      <psa30 value="0.0027378319" flag="0"/>
    </comp>
    <comp name="--.HNN">
      <acc value="0.0570623285" flag="0"/>
      <vel value="0.0280154581" flag="0"/>
      <psa03 value="0.1498993829" flag="0"/>
      <psa10 value="0.0243348881" flag="0"/>
      <psa30 value="0.0022748116" flag="0"/>
    </comp>
    <comp name="--.HNZ">
      <acc value="0.0354639258" flag="0"/>
      <vel value="0.0139357655" flag="0"/>
      <psa03 value="0.0613668818" flag="0"/>
      <psa10 value="0.0146141722" flag="0"/>
      <psa30 value="0.0012168446" flag="0"/>
    </comp>
  </station>
  <station code="SERS" name="SERS" netid="IV" source="INGV" insttype="" lat="39.0359" lon="16.6886">
    <comp name="--.HHE">
      <acc value="0.0074432443" flag="0"/>
      <vel value="0.0043018829" flag="0"/>
      <psa03 value="0.0290991121" flag="0"/>
      <psa10 value="0.0028152582" flag="0"/>
      <psa30 value="0.0002299863" flag="0"/>
    </comp>
    <comp name="--.HHN">
      <acc value="0.0076652413" flag="0"/>
      <vel value="0.0031359329" flag="0"/>
      <psa03 value="0.0204483626" flag="0"/>
      <psa10 value="0.0022697125" flag="0"/>
      <psa30 value="0.0002176281" flag="0"/>
    </comp>
    <comp name="--.HHZ">
      <acc value="0.0059513908" flag="0"/>
      <vel value="0.0019016612" flag="0"/>
      <psa03 value="0.0099514355" flag="0"/>
      <psa10 value="0.0018708900" flag="0"/>
      <psa30 value="0.0001414028" flag="0"/>
    </comp>
  </station>
  <station code="SPS2" name="SPS2" netid="IV" source="INGV" insttype="" lat="39.291" lon="16.3388">
    <comp name="--.HHE">
      <acc value="0.0040369969" flag="0"/>
      <vel value="0.0018749945" flag="0"/>
      <psa03 value="0.0148228319" flag="0"/>
      <psa10 value="0.0010883202" flag="0"/>
      <psa30 value="0.0000788693" flag="0"/>
    </comp>
    <comp name="--.HHN">
      <acc value="0.0045519963" flag="0"/>
      <vel value="0.0017259619" flag="0"/>
      <psa03 value="0.0187810068" flag="0"/>
      <psa10 value="0.0019181189" flag="0"/>
      <psa30 value="0.0001035417" flag="0"/>
    </comp>
    <comp name="--.HHZ">
      <acc value="0.0022652846" flag="0"/>
      <vel value="0.0006673135" flag="0"/>
      <psa03 value="0.0048537152" flag="0"/>
      <psa10 value="0.0005775866" flag="0"/>
      <psa30 value="0.0000636035" flag="0"/>
    </comp>
  </station>
  <station code="CEL" name="CEL" netid="MN" source="INGV" insttype="" lat="38.2603" lon="15.8939">
    <comp name="--.HHE">
      <acc value="0.0229340850" flag="0"/>
      <vel value="0.0059151118" flag="0"/>
      <psa03 value="0.0223523435" flag="0"/>
      <psa10 value="0.0073258237" flag="0"/>
      <psa30 value="0.0006778033" flag="0"/>
    </comp>
    <comp name="--.HHN">
      <acc value="0.0111803116" flag="0"/>
      <vel value="0.0060431479" flag="0"/>
      <psa03 value="0.0200404092" flag="0"/>
      <psa10 value="0.0084428294" flag="0"/>
      <psa30 value="0.0006564901" flag="0"/>
    </comp>
    <comp name="--.HHZ">
      <acc value="0.0406050404" flag="0"/>
      <vel value="0.0086686530" flag="0"/>
      <psa03 value="0.0211041453" flag="0"/>
      <psa10 value="0.0039400287" flag="0"/>
      <psa30 value="0.0003839456" flag="0"/>
    </comp>
  </station>
  <station code="TIP" name="TIP" netid="MN" source="INGV" insttype="" lat="39.1794" lon="16.7583">
    <comp name="--.HNE">
      <acc value="0.0020628393" flag="0"/>
      <vel value="0.0014770055" flag="0"/>
      <psa03 value="0.0055148047" flag="0"/>
      <psa10 value="0.0021881380" flag="0"/>
      <psa30 value="0.0001371665" flag="0"/>
    </comp>
    <comp name="--.HNN">
      <acc value="0.0021598647" flag="0"/>
      <vel value="0.0012517300" flag="0"/>
      <psa03 value="0.0055318561" flag="0"/>
      <psa10 value="0.0017310994" flag="0"/>
      <psa30 value="0.0001264019" flag="0"/>
    </comp>
    <comp name="--.HNZ">
      <acc value="0.0030676788" flag="0"/>
      <vel value="0.0010416284" flag="0"/>
      <psa03 value="0.0062925638" flag="0"/>
      <psa10 value="0.0014923491" flag="0"/>
      <psa30 value="0.0001259489" flag="0"/>
    </comp>
  </station>
</stationlist>
