<stationlist created="1775808430">
	<station code="KTHA" name="KTHA" netid="GE" source="GEOFON" insttype="" lat="36.2566" lon="23.0621">
		<comp name="--.HNE" depth="0.0">
			<acc value="0.0553254331647953" flag="0"/>
			<vel value="0.0322970310271866" flag="0"/>
			<psa03 value="0.207784618877913" flag="0"/>
			<psa10 value="0.0453610511970213" flag="0"/>
			<psa30 value="0.00270791751124535" flag="0"/>
		</comp>
		<comp name="--.HNN" depth="0.0">
			<acc value="0.0314911523267876" flag="0"/>
			<vel value="0.0214422311460267" flag="0"/>
			<psa03 value="0.104828840229525" flag="0"/>
			<psa10 value="0.0234510591425764" flag="0"/>
			<psa30 value="0.00118656193723833" flag="0"/>
		</comp>
		<comp name="--.HNZ" depth="0.0">
			<acc value="0.0299154497181909" flag="0"/>
			<vel value="0.0214878320945335" flag="0"/>
			<psa03 value="0.0722637767038877" flag="0"/>
			<psa10 value="0.0333407586616334" flag="0"/>
			<psa30 value="0.00129922898421058" flag="0"/>
		</comp>
	</station>
	<station code="ATEI" name="ATEI" netid="HC" source="Seismological Network of Crete (HC)" insttype="" lat="35.5193" lon="24.0432">
		<comp name="--.HNE" depth="0.0">
			<acc value="0.0895660716576835" flag="0"/>
			<vel value="0.0954468801810446" flag="0"/>
			<psa03 value="0.279582937664165" flag="0"/>
			<psa10 value="0.191118000629583" flag="0"/>
			<psa30 value="0.0239243082013372" flag="0"/>
		</comp>
		<comp name="--.HNN" depth="0.0">
			<acc value="0.111369399820182" flag="0"/>
			<vel value="0.102410718585692" flag="0"/>
			<psa03 value="0.316648663919954" flag="0"/>
			<psa10 value="0.228424542004858" flag="0"/>
			<psa30 value="0.0292438472613597" flag="0"/>
		</comp>
		<comp name="--.HNZ" depth="0.0">
			<acc value="0.0534301967742483" flag="0"/>
			<vel value="0.0502970598118685" flag="0"/>
			<psa03 value="0.156267164432724" flag="0"/>
			<psa10 value="0.0789156002712203" flag="0"/>
			<psa30 value="0.0134250276755302" flag="0"/>
		</comp>
	</station>
	<station code="G0LD" name="G0LD" netid="HC" source="Seismological Network of Crete (HC)" insttype="" lat="35.4955" lon="24.0306">
		<comp name="--.HNE" depth="0.0">
			<acc value="0.00208103430973492" flag="0"/>
			<vel value="0.00244404886700053" flag="0"/>
			<psa03 value="0.00195994901018008" flag="0"/>
			<psa10 value="0.00197571806912576" flag="0"/>
			<psa30 value="0.00148184201892792" flag="0"/>
		</comp>
		<comp name="--.HNN" depth="0.0">
			<acc value="0.00240073111614127" flag="0"/>
			<vel value="0.00189768090261604" flag="0"/>
			<psa03 value="0.00158813401467806" flag="0"/>
			<psa10 value="0.0014924350383718" flag="0"/>
			<psa30 value="0.00134653836822509" flag="0"/>
		</comp>
		<comp name="--.HNZ" depth="0.0">
			<acc value="0.00264219642305353" flag="0"/>
			<vel value="0.00296373661113946" flag="0"/>
			<psa03 value="0.0020258993426076" flag="0"/>
			<psa10 value="0.00176515017472367" flag="0"/>
			<psa30 value="0.00163892700837087" flag="0"/>
		</comp>
	</station>
	<station code="MULT" name="MULT" netid="HC" source="Seismological Network of Crete (HC)" insttype="" lat="35.5091" lon="24.0118">
		<comp name="--.HNE" depth="0.0">
			<acc value="0.00273018300616445" flag="0"/>
			<vel value="0.00110635756032305" flag="0"/>
			<psa03 value="0.00132143486930399" flag="0"/>
			<psa10 value="0.000945135911396893" flag="0"/>
			<psa30 value="0.000753231616647933" flag="0"/>
		</comp>
		<comp name="--.HNN" depth="0.0">
			<acc value="0.00299673904584986" flag="0"/>
			<vel value="0.00140184723428518" flag="0"/>
			<psa03 value="0.0015458786112983" flag="0"/>
			<psa10 value="0.00110248209652819" flag="0"/>
			<psa30 value="0.000793094778220083" flag="0"/>
		</comp>
		<comp name="--.HNZ" depth="0.0">
			<acc value="0.00403861882654213" flag="0"/>
			<vel value="0.00391342114493178" flag="0"/>
			<psa03 value="0.00423387389784612" flag="0"/>
			<psa10 value="0.00305173302171056" flag="0"/>
			<psa30 value="0.0021742667428343" flag="0"/>
		</comp>
	</station>
	<station code="TEFL" name="TEFL" netid="HC" source="Seismological Network of Crete (HC)" insttype="" lat="35.093273" lon="25.163418">
		<comp name="--.HNE" depth="0.0">
			<acc value="0.239693939215556" flag="0"/>
			<vel value="0.15174878963105" flag="0"/>
			<psa03 value="0.35452177699449" flag="0"/>
			<psa10 value="0.152981034242727" flag="0"/>
			<psa30 value="0.0750761934293598" flag="0"/>
		</comp>
		<comp name="--.HNN" depth="0.0">
			<acc value="0.210712912054567" flag="0"/>
			<vel value="0.129588576330947" flag="0"/>
			<psa03 value="0.304594261208267" flag="0"/>
			<psa10 value="0.182545757760563" flag="0"/>
			<psa30 value="0.0721221644061013" flag="0"/>
		</comp>
		<comp name="--.HNZ" depth="0.0">
			<acc value="0.219546501216708" flag="0"/>
			<vel value="0.1509134587395" flag="0"/>
			<psa03 value="0.283949372752394" flag="0"/>
			<psa10 value="0.153679180491489" flag="0"/>
			<psa30 value="0.0643504362339182" flag="0"/>
		</comp>
	</station>
	<station code="ARE2" name="ARE2" netid="HI" source="ITSAK Strong Motion Network" insttype="" lat="36.66629" lon="22.382635">
		<comp name="--.HNE" depth="0.0">
			<acc value="0.0111744382215366" flag="0"/>
			<vel value="0.0103922066961644" flag="0"/>
			<psa03 value="0.0453761569893726" flag="0"/>
			<psa10 value="0.0112972315111437" flag="0"/>
			<psa30 value="0.00458447411557739" flag="0"/>
		</comp>
		<comp name="--.HNN" depth="0.0">
			<acc value="0.0128941136119975" flag="0"/>
			<vel value="0.00797867906181527" flag="0"/>
			<psa03 value="0.0503049470391908" flag="0"/>
			<psa10 value="0.0106419515395615" flag="0"/>
			<psa30 value="0.00225333239721253" flag="0"/>
		</comp>
		<comp name="--.HNZ" depth="0.0">
			<acc value="0.00765780264125624" flag="0"/>
			<vel value="0.00641807244213463" flag="0"/>
			<psa03 value="0.0289817480235715" flag="0"/>
			<psa10 value="0.010022324242294" flag="0"/>
			<psa30 value="0.0027906807022339" flag="0"/>
		</comp>
	</station>
	<station code="ARK1" name="ARK1" netid="HI" source="ITSAK Strong Motion Network" insttype="" lat="35.148777" lon="25.264194">
		<comp name="--.HNE" depth="0.0">
			<acc value="0.0149200176757398" flag="0"/>
			<vel value="0.0209904539699975" flag="0"/>
			<psa03 value="0.029568148848915" flag="0"/>
			<psa10 value="0.0315974369251241" flag="0"/>
			<psa30 value="0.00868055171061555" flag="0"/>
		</comp>
		<comp name="--.HNN" depth="0.0">
			<acc value="0.0167537837630905" flag="0"/>
			<vel value="0.0199233834544011" flag="0"/>
			<psa03 value="0.0521223070137033" flag="0"/>
			<psa10 value="0.0342137527432068" flag="0"/>
			<psa30 value="0.0074265386384039" flag="0"/>
		</comp>
		<comp name="--.HNZ" depth="0.0">
			<acc value="0.0130023910846738" flag="0"/>
			<vel value="0.0135667744350591" flag="0"/>
			<psa03 value="0.0268526720869063" flag="0"/>
			<psa10 value="0.0255648116683074" flag="0"/>
			<psa30 value="0.00394424545357061" flag="0"/>
		</comp>
	</station>
	<station code="CH01" name="CH01" netid="HI" source="ITSAK Strong Motion Network" insttype="" lat="35.517" lon="24.0208">
		<comp name="--.HNE" depth="0.0">
			<acc value="0.144966756775873" flag="0"/>
			<vel value="0.168580420023154" flag="0"/>
			<psa03 value="0.302499872465292" flag="0"/>
			<psa10 value="0.199541013612855" flag="0"/>
			<psa30 value="0.0331740376171824" flag="0"/>
		</comp>
		<comp name="--.HNN" depth="0.0">
			<acc value="0.145078827756241" flag="0"/>
			<vel value="0.157283583924711" flag="0"/>
			<psa03 value="0.280086491855492" flag="0"/>
			<psa10 value="0.304551165020023" flag="0"/>
			<psa30 value="0.054836909342785" flag="0"/>
		</comp>
		<comp name="--.HNZ" depth="0.0">
			<acc value="0.0706150154711568" flag="0"/>
			<vel value="0.10045523038167" flag="0"/>
			<psa03 value="0.183195344125806" flag="0"/>
			<psa10 value="0.165120498422651" flag="0"/>
			<psa30 value="0.022319498557241" flag="0"/>
		</comp>
	</station>
	<station code="CH02" name="CH02" netid="HI" source="ITSAK Strong Motion Network" insttype="" lat="35.5145" lon="24.0315">
		<comp name="--.HNE" depth="0.0">
			<acc value="0.101404077771623" flag="0"/>
			<vel value="0.143783574515414" flag="0"/>
			<psa03 value="0.302302567728155" flag="0"/>
			<psa10 value="0.176652137337135" flag="0"/>
			<psa30 value="0.0288580217023099" flag="0"/>
		</comp>
		<comp name="--.HNN" depth="0.0">
			<acc value="0.121857277166452" flag="0"/>
			<vel value="0.122933396445297" flag="0"/>
			<psa03 value="0.336725181390706" flag="0"/>
			<psa10 value="0.184145238718327" flag="0"/>
			<psa30 value="0.0403660273845414" flag="0"/>
		</comp>
		<comp name="--.HNZ" depth="0.0">
			<acc value="0.0535265392569245" flag="0"/>
			<vel value="0.0647376186596249" flag="0"/>
			<psa03 value="0.167194096621688" flag="0"/>
			<psa10 value="0.102853743555731" flag="0"/>
			<psa30 value="0.0183615513626639" flag="0"/>
		</comp>
	</station>
	<station code="CH03" name="CH03" netid="HI" source="ITSAK Strong Motion Network" insttype="" lat="35.53303" lon="24.0705">
		<comp name="--.HNE" depth="0.0">
			<acc value="0.096128836225669" flag="0"/>
			<vel value="0.104906348264688" flag="0"/>
			<psa03 value="0.337747019915826" flag="0"/>
			<psa10 value="0.203278391195778" flag="0"/>
			<psa30 value="0.0170422172965904" flag="0"/>
		</comp>
		<comp name="--.HNN" depth="0.0">
			<acc value="0.094731868391818" flag="0"/>
			<vel value="0.110669845454771" flag="0"/>
			<psa03 value="0.296894042773253" flag="0"/>
			<psa10 value="0.161352593817463" flag="0"/>
			<psa30 value="0.0224909682495999" flag="0"/>
		</comp>
		<comp name="--.HNZ" depth="0.0">
			<acc value="0.051967106213943" flag="0"/>
			<vel value="0.0455394253704277" flag="0"/>
			<psa03 value="0.203923508931662" flag="0"/>
			<psa10 value="0.101858540128388" flag="0"/>
			<psa30 value="0.011933502202621" flag="0"/>
		</comp>
	</station>
	<station code="GOR1" name="GOR1" netid="HI" source="ITSAK Strong Motion Network" insttype="" lat="35.0582" lon="24.9628">
		<comp name="--.HNE" depth="0.0">
			<acc value="0.0173542183139103" flag="0"/>
			<vel value="0.0292805006595494" flag="0"/>
			<psa03 value="0.0364410390399931" flag="0"/>
			<psa10 value="0.042783554200495" flag="0"/>
			<psa30 value="0.00548426288883435" flag="0"/>
		</comp>
		<comp name="--.HNN" depth="0.0">
			<acc value="0.0191439337789259" flag="0"/>
			<vel value="0.0237217532389644" flag="0"/>
			<psa03 value="0.0485506016557524" flag="0"/>
			<psa10 value="0.0348120673786151" flag="0"/>
			<psa30 value="0.00741321275562956" flag="0"/>
		</comp>
		<comp name="--.HNZ" depth="0.0">
			<acc value="0.0145465473622217" flag="0"/>
			<vel value="0.0177500248831152" flag="0"/>
			<psa03 value="0.0435442387587804" flag="0"/>
			<psa10 value="0.0279683365150326" flag="0"/>
			<psa30 value="0.00478904016707434" flag="0"/>
		</comp>
	</station>
	<station code="GTH2" name="GTH2" netid="HI" source="ITSAK Strong Motion Network" insttype="" lat="36.7603" lon="22.5659">
		<comp name="--.HNE" depth="0.0">
			<acc value="0.0285781126129238" flag="0"/>
			<vel value="0.02811979902591" flag="0"/>
			<psa03 value="0.086959281458956" flag="0"/>
			<psa10 value="0.0307859862955023" flag="0"/>
			<psa30 value="0.00772790943607352" flag="0"/>
		</comp>
		<comp name="--.HNN" depth="0.0">
			<acc value="0.0306544436061819" flag="0"/>
			<vel value="0.0209543951676871" flag="0"/>
			<psa03 value="0.0917289307581471" flag="0"/>
			<psa10 value="0.030707165449008" flag="0"/>
			<psa30 value="0.00423980711641357" flag="0"/>
		</comp>
		<comp name="--.HNZ" depth="0.0">
			<acc value="0.0274572715651916" flag="0"/>
			<vel value="0.00824399835189413" flag="0"/>
			<psa03 value="0.0346971657044431" flag="0"/>
			<psa10 value="0.0105883717401627" flag="0"/>
			<psa30 value="0.00223561080657746" flag="0"/>
		</comp>
	</station>
	<station code="HER1" name="HER1" netid="HI" source="ITSAK Strong Motion Network" insttype="" lat="35.317672" lon="25.10217">
		<comp name="--.HNE" depth="0.0">
			<acc value="0.0582442954860836" flag="0"/>
			<vel value="0.0921527404732714" flag="0"/>
			<psa03 value="0.103718297911547" flag="0"/>
			<psa10 value="0.224047627055724" flag="0"/>
			<psa30 value="0.0103185452196467" flag="0"/>
		</comp>
		<comp name="--.HNN" depth="0.0">
			<acc value="0.0731986442965171" flag="0"/>
			<vel value="0.0933685324874867" flag="0"/>
			<psa03 value="0.124559532707735" flag="0"/>
			<psa10 value="0.190629028237562" flag="0"/>
			<psa30 value="0.0132308914816268" flag="0"/>
		</comp>
		<comp name="--.HNZ" depth="0.0">
			<acc value="0.0593889052019" flag="0"/>
			<vel value="0.0735968312316258" flag="0"/>
			<psa03 value="0.0886392990018731" flag="0"/>
			<psa10 value="0.125549182017145" flag="0"/>
			<psa30 value="0.00516567928423407" flag="0"/>
		</comp>
	</station>
	<station code="HER3" name="HER3" netid="HI" source="ITSAK Strong Motion Network" insttype="" lat="35.3296" lon="25.1065">
		<comp name="--.HNE" depth="0.0">
			<acc value="0.0655979628000938" flag="0"/>
			<vel value="0.0675824594174299" flag="0"/>
			<psa03 value="0.171608618228746" flag="0"/>
			<psa10 value="0.133926141949629" flag="0"/>
			<psa30 value="0.00679160741065947" flag="0"/>
		</comp>
		<comp name="--.HNN" depth="0.0">
			<acc value="0.095751397419602" flag="0"/>
			<vel value="0.129297311987855" flag="0"/>
			<psa03 value="0.167647647500542" flag="0"/>
			<psa10 value="0.254361620208997" flag="0"/>
			<psa30 value="0.012723222017683" flag="0"/>
		</comp>
		<comp name="--.HNZ" depth="0.0">
			<acc value="0.0362234492886435" flag="0"/>
			<vel value="0.0356216133764575" flag="0"/>
			<psa03 value="0.0861600045524502" flag="0"/>
			<psa10 value="0.0576715229553586" flag="0"/>
			<psa30 value="0.00479858413264856" flag="0"/>
		</comp>
	</station>
	<station code="KAL3" name="KAL3" netid="HI" source="ITSAK Strong Motion Network" insttype="" lat="37.0246" lon="22.103">
		<comp name="--.HNE" depth="0.0">
			<acc value="0.0189096431524107" flag="0"/>
			<vel value="0.0252940348952729" flag="0"/>
			<psa03 value="0.04356581831332" flag="0"/>
			<psa10 value="0.0430954136096503" flag="0"/>
			<psa30 value="0.0082108439281135" flag="0"/>
		</comp>
		<comp name="--.HNN" depth="0.0">
			<acc value="0.0182783969264196" flag="0"/>
			<vel value="0.0266296648286744" flag="0"/>
			<psa03 value="0.0455112076024796" flag="0"/>
			<psa10 value="0.0320191261099631" flag="0"/>
			<psa30 value="0.00656841887551437" flag="0"/>
		</comp>
		<comp name="--.HNZ" depth="0.0">
			<acc value="0.00891615761327579" flag="0"/>
			<vel value="0.01268639937409" flag="0"/>
			<psa03 value="0.0223845219272201" flag="0"/>
			<psa10 value="0.0205039657871051" flag="0"/>
			<psa30 value="0.0053189015177884" flag="0"/>
		</comp>
	</station>
	<station code="LEO1" name="LEO1" netid="HI" source="ITSAK Strong Motion Network" insttype="" lat="37.1689" lon="22.8637">
		<comp name="--.HNE" depth="0.0">
			<acc value="0.0112725212970669" flag="0"/>
			<vel value="0.00950943950627399" flag="0"/>
			<psa03 value="0.0287318720955176" flag="0"/>
			<psa10 value="0.009520618819272" flag="0"/>
			<psa30 value="0.00214955406407395" flag="0"/>
		</comp>
		<comp name="--.HNN" depth="0.0">
			<acc value="0.00952017254197987" flag="0"/>
			<vel value="0.00869834599185643" flag="0"/>
			<psa03 value="0.0283356323049095" flag="0"/>
			<psa10 value="0.0114923419362518" flag="0"/>
			<psa30 value="0.00155760068340097" flag="0"/>
		</comp>
		<comp name="--.HNZ" depth="0.0">
			<acc value="0.00824979439609925" flag="0"/>
			<vel value="0.00476142223170077" flag="0"/>
			<psa03 value="0.013842332351167" flag="0"/>
			<psa10 value="0.00695614174775181" flag="0"/>
			<psa30 value="0.00152190206854293" flag="0"/>
		</comp>
	</station>
	<station code="NPS1" name="NPS1" netid="HI" source="ITSAK Strong Motion Network" insttype="" lat="36.51263" lon="23.06248">
		<comp name="--.HNE" depth="0.0">
			<acc value="0.0559408830898408" flag="0"/>
			<vel value="0.0402881078853814" flag="0"/>
			<psa03 value="0.178925769620782" flag="0"/>
			<psa10 value="0.0488828194968872" flag="0"/>
			<psa30 value="0.00571314055085619" flag="0"/>
		</comp>
		<comp name="--.HNN" depth="0.0">
			<acc value="0.055774718385867" flag="0"/>
			<vel value="0.0383901997631116" flag="0"/>
			<psa03 value="0.190596480248084" flag="0"/>
			<psa10 value="0.0472247671590571" flag="0"/>
			<psa30 value="0.00465037639794683" flag="0"/>
		</comp>
		<comp name="--.HNZ" depth="0.0">
			<acc value="0.0354465433960254" flag="0"/>
			<vel value="0.0214614786463837" flag="0"/>
			<psa03 value="0.102975311192323" flag="0"/>
			<psa10 value="0.0207235353325099" flag="0"/>
			<psa30 value="0.00410788671066745" flag="0"/>
		</comp>
	</station>
	<station code="PET1" name="PET1" netid="HI" source="ITSAK Strong Motion Network" insttype="" lat="36.963862" lon="21.92538">
		<comp name="--.HNE" depth="0.0">
			<acc value="0.0170804470312081" flag="0"/>
			<vel value="0.0151817134166015" flag="0"/>
			<psa03 value="0.0499182912168068" flag="0"/>
			<psa10 value="0.0209591953188275" flag="0"/>
			<psa30 value="0.00337886570827056" flag="0"/>
		</comp>
		<comp name="--.HNN" depth="0.0">
			<acc value="0.0142636328461449" flag="0"/>
			<vel value="0.013219845908689" flag="0"/>
			<psa03 value="0.039078604390753" flag="0"/>
			<psa10 value="0.0232358098833693" flag="0"/>
			<psa30 value="0.00331488021954596" flag="0"/>
		</comp>
		<comp name="--.HNZ" depth="0.0">
			<acc value="0.00754291311507344" flag="0"/>
			<vel value="0.00527691345696567" flag="0"/>
			<psa03 value="0.029866981145088" flag="0"/>
			<psa10 value="0.00470817204954177" flag="0"/>
			<psa30 value="0.00222786091818539" flag="0"/>
		</comp>
	</station>
	<station code="RTH1" name="RTH1" netid="HI" source="ITSAK Strong Motion Network" insttype="" lat="35.365393" lon="24.471773">
		<comp name="--.HNE" depth="0.0">
			<acc value="0.0416790173428502" flag="0"/>
			<vel value="0.0401956333048842" flag="0"/>
			<psa03 value="0.123751218744236" flag="0"/>
			<psa10 value="0.091038233336166" flag="0"/>
			<psa30 value="0.0107798757805322" flag="0"/>
		</comp>
		<comp name="--.HNN" depth="0.0">
			<acc value="0.0446466825127058" flag="0"/>
			<vel value="0.0365132964065745" flag="0"/>
			<psa03 value="0.134699527349283" flag="0"/>
			<psa10 value="0.0440315131216488" flag="0"/>
			<psa30 value="0.00972409334012707" flag="0"/>
		</comp>
		<comp name="--.HNZ" depth="0.0">
			<acc value="0.0252974055785283" flag="0"/>
			<vel value="0.0206554481059162" flag="0"/>
			<psa03 value="0.0684913757591725" flag="0"/>
			<psa10 value="0.0266267863939211" flag="0"/>
			<psa30 value="0.00745157696373673" flag="0"/>
		</comp>
	</station>
	<station code="CHNB" name="CHNB" netid="HL" source="National Observatory of Athens Seismic Network" insttype="" lat="35.48765" lon="24.06605">
		<comp name="00.HNE" depth="0.0">
			<acc value="0.326976173790952" flag="0"/>
			<vel value="0.257449282062506" flag="0"/>
			<psa03 value="0.854410183814783" flag="0"/>
			<psa10 value="0.371734945615766" flag="0"/>
			<psa30 value="0.0224969419786635" flag="0"/>
		</comp>
		<comp name="00.HNN" depth="0.0">
			<acc value="0.263411065512307" flag="0"/>
			<vel value="0.281520972327456" flag="0"/>
			<psa03 value="0.602004213157971" flag="0"/>
			<psa10 value="0.661209001851327" flag="0"/>
			<psa30 value="0.025121529178018" flag="0"/>
		</comp>
		<comp name="00.HNZ" depth="0.0">
			<acc value="0.241526656446651" flag="0"/>
			<vel value="0.135928389215304" flag="0"/>
			<psa03 value="0.830617190979111" flag="0"/>
			<psa10 value="0.113486822945056" flag="0"/>
			<psa30 value="0.0145877463666038" flag="0"/>
		</comp>
	</station>
	<station code="HERG" name="HERG" netid="HL" source="National Observatory of Athens Seismic Network" insttype="" lat="35.32622" lon="25.06586">
		<comp name="00.HNE" depth="0.0">
			<acc value="0.0588100951725917" flag="0"/>
			<vel value="0.0940967397347572" flag="0"/>
			<psa03 value="0.11384555212577" flag="0"/>
			<psa10 value="0.131741952257781" flag="0"/>
