<?xml version="1.0" encoding="UTF-8" standalone="yes"?>
<!DOCTYPE earthquake SYSTEM "stationlist.dtd">
<stationlist created="" xmlns="ch.ethz.sed.shakemap.usgs.xml">
  <station code="GVDS" name="GVDS" netid="HC" insttype="60" commtype="DIG" lat="34.8389" lon="24.0585">
    <comp name="--.HHE">
      <acc value="0.0823987993" flag="0"/>
      <vel value="0.0453480157" flag="0"/>
      <psa03 value="0.1669720584" flag="0"/>
      <psa10 value="0.0467072569" flag="0"/>
      <psa30 value="0.0046126339" flag="0"/>
    </comp>
    <comp name="--.HHN">
      <acc value="0.1107423050" flag="0"/>
      <vel value="0.0701819482" flag="0"/>
      <psa03 value="0.3598214710" flag="0"/>
      <psa10 value="0.0519361457" flag="0"/>
      <psa30 value="0.0085409961" flag="0"/>
    </comp>
    <comp name="--.HHZ">
      <acc value="0.0465107756" flag="0"/>
      <vel value="0.0256483050" flag="0"/>
      <psa03 value="0.1577087159" flag="0"/>
      <psa10 value="0.0342093591" flag="0"/>
      <psa30 value="0.0045498569" flag="0"/>
    </comp>
  </station>
  <station code="IMOD" name="IMOD" netid="HC" insttype="120" commtype="DIG" lat="34.9731" lon="24.7995">
    <comp name="--.HHE">
      <acc value="0.0287297764" flag="0"/>
      <vel value="0.0250414879" flag="0"/>
      <psa03 value="0.0719208901" flag="0"/>
      <psa10 value="0.0596675470" flag="0"/>
      <psa30 value="0.0036208204" flag="0"/>
    </comp>
    <comp name="--.HHZ">
      <acc value="0.0136400007" flag="0"/>
      <vel value="0.0125742744" flag="0"/>
      <psa03 value="0.0385447367" flag="0"/>
      <psa10 value="0.0167934409" flag="0"/>
      <psa30 value="0.0033629232" flag="0"/>
    </comp>
    <comp name="--.HHN">
      <acc value="0.0335021196" flag="0"/>
      <vel value="0.0245307338" flag="0"/>
      <psa03 value="0.0759105199" flag="0"/>
      <psa10 value="0.0406744062" flag="0"/>
      <psa30 value="0.0031690404" flag="0"/>
    </comp>
  </station>
  <station code="IPPL" name="IPPL" netid="HC" insttype="60" commtype="DIG" lat="35.3486" lon="24.4632">
    <comp name="--.HHE">
      <acc value="0.0000000000" flag="0"/>
      <vel value="-100.0000000000" flag="0"/>
      <psa03 value="0.0000000000" flag="0"/>
      <psa10 value="0.0000000000" flag="0"/>
      <psa30 value="0.0000000000" flag="0"/>
    </comp>
    <comp name="--.HHZ">
      <acc value="0.0400473970" flag="0"/>
      <vel value="0.0337168061" flag="0"/>
      <psa03 value="0.1407315398" flag="0"/>
      <psa10 value="0.0611149735" flag="0"/>
      <psa30 value="0.0067457096" flag="0"/>
    </comp>
    <comp name="--.HHN">
      <acc value="0.0000000000" flag="0"/>
      <vel value="-100.0000000000" flag="0"/>
      <psa03 value="0.0000000000" flag="0"/>
      <psa10 value="0.0000000000" flag="0"/>
      <psa30 value="0.0000000000" flag="0"/>
    </comp>
  </station>
  <station code="GOR1" name="GOR1" netid="HI" insttype="unknown" commtype="DIG" lat="35.0582" lon="24.9628">
    <comp name="--.HNE">
      <acc value="0.0173100381" flag="0"/>
      <vel value="0.0271348747" flag="0"/>
      <psa03 value="0.0363320335" flag="0"/>
      <psa10 value="0.0426994698" flag="0"/>
      <psa30 value="0.0053918703" flag="0"/>
    </comp>
    <comp name="--.HNZ">
      <acc value="0.0145800550" flag="0"/>
      <vel value="0.0174059605" flag="0"/>
      <psa03 value="0.0431607069" flag="0"/>
      <psa10 value="0.0279192936" flag="0"/>
      <psa30 value="0.0047085777" flag="0"/>
    </comp>
    <comp name="--.HNN">
      <acc value="0.0191794874" flag="0"/>
      <vel value="0.0236655086" flag="0"/>
      <psa03 value="0.0486895528" flag="0"/>
      <psa10 value="0.0348480566" flag="0"/>
      <psa30 value="0.0074593089" flag="0"/>
    </comp>
  </station>
  <station code="IACM" name="IACM" netid="HL" insttype="120" commtype="DIG" lat="35.3058" lon="25.0709">
    <comp name="--.HHN">
      <acc value="0.0678529533" flag="0"/>
      <vel value="0.0712228790" flag="0"/>
      <psa03 value="0.2746203804" flag="0"/>
      <psa10 value="0.1425981260" flag="0"/>
      <psa30 value="0.0122748109" flag="0"/>
    </comp>
    <comp name="--.HHE">
      <acc value="0.0816290648" flag="0"/>
      <vel value="0.0976279821" flag="0"/>
      <psa03 value="0.1600890796" flag="0"/>
      <psa10 value="0.3115459568" flag="0"/>
      <psa30 value="0.0113711471" flag="0"/>
    </comp>
    <comp name="--.HHZ">
      <acc value="0.0359154406" flag="0"/>
      <vel value="0.0328113945" flag="0"/>
      <psa03 value="0.0943125426" flag="0"/>
      <psa10 value="0.0603127198" flag="0"/>
      <psa30 value="0.0050986134" flag="0"/>
    </comp>
  </station>
  <station code="SIVA" name="SIVA" netid="HL" insttype="60" commtype="DIG" lat="35.0178" lon="24.812">
    <comp name="--.HHE">
      <acc value="0.0338625383" flag="0"/>
      <vel value="0.0354417446" flag="0"/>
      <psa03 value="0.0971611345" flag="0"/>
      <psa10 value="0.0729776849" flag="0"/>
      <psa30 value="0.0041858987" flag="0"/>
    </comp>
    <comp name="--.HHN">
      <acc value="0.0282716653" flag="0"/>
      <vel value="0.0260084559" flag="0"/>
      <psa03 value="0.0605686849" flag="0"/>
      <psa10 value="0.0375885854" flag="0"/>
      <psa30 value="0.0035347864" flag="0"/>
    </comp>
    <comp name="--.HHZ">
      <acc value="0.0149058086" flag="0"/>
      <vel value="0.0159263003" flag="0"/>
      <psa03 value="0.0530791626" flag="0"/>
      <psa10 value="0.0162020170" flag="0"/>
      <psa30 value="0.0033300582" flag="0"/>
    </comp>
  </station>
  <station code="VLI" name="VLI" netid="HL" insttype="60" commtype="DIG" lat="36.718" lon="22.9469">
    <comp name="--.HHE">
      <acc value="0.0256736351" flag="0"/>
      <vel value="0.0261063499" flag="0"/>
      <psa03 value="0.0910938426" flag="0"/>
      <psa10 value="0.0452164552" flag="0"/>
      <psa30 value="0.0079067231" flag="0"/>
    </comp>
    <comp name="--.HHN">
      <acc value="0.0265130520" flag="0"/>
      <vel value="0.0229433181" flag="0"/>
      <psa03 value="0.0785062529" flag="0"/>
      <psa10 value="0.0353633330" flag="0"/>
      <psa30 value="0.0044571641" flag="0"/>
    </comp>
    <comp name="--.HHZ">
      <acc value="0.0190168581" flag="0"/>
      <vel value="0.0140838587" flag="0"/>
      <psa03 value="0.0574195941" flag="0"/>
      <psa10 value="0.0154212937" flag="0"/>
      <psa30 value="0.0036722004" flag="0"/>
    </comp>
  </station>
</stationlist>
