<?xml version="1.0" encoding="UTF-8" standalone="yes"?>
<!DOCTYPE earthquake SYSTEM "stationlist.dtd">
<stationlist created="" xmlns="ch.ethz.sed.shakemap.usgs.xml">
  <station code="IMMV" name="IMMV" netid="GE" insttype="STS-2/N" commtype="DIG" lat="35.4606" lon="23.9811">
    <comp name="--.HHN">
      <acc value="0.1104364872" flag="0"/>
      <vel value="0.1115447273" flag="0"/>
      <psa03 value="0.4640433674" flag="0"/>
      <psa10 value="0.0986388905" flag="0"/>
      <psa30 value="0.0179227967" flag="0"/>
    </comp>
    <comp name="--.HHE">
      <acc value="0.1383488520" flag="0"/>
      <vel value="0.1176425060" flag="0"/>
      <psa03 value="0.3252491885" flag="0"/>
      <psa10 value="0.1227869235" flag="0"/>
      <psa30 value="0.0118804095" flag="0"/>
    </comp>
    <comp name="--.HHZ">
      <acc value="0.0740315946" flag="0"/>
      <vel value="0.0614379602" flag="0"/>
      <psa03 value="0.2988837324" flag="0"/>
      <psa10 value="0.0514473009" flag="0"/>
      <psa30 value="0.0092188492" flag="0"/>
    </comp>
  </station>
  <station code="KTHA" name="KTHA" netid="GE" insttype="STS-2/N" commtype="DIG" lat="36.2566" lon="23.0621">
    <comp name="--.HHE">
      <acc value="0.0000000000" flag="0"/>
      <vel value="-100.0000000000" flag="0"/>
      <psa03 value="0.0000000000" flag="0"/>
      <psa10 value="0.0000000000" flag="0"/>
      <psa30 value="0.0000000000" flag="0"/>
    </comp>
    <comp name="--.HHZ">
      <acc value="0.0311146119" flag="0"/>
      <vel value="0.0237144313" flag="0"/>
      <psa03 value="0.0737140618" flag="0"/>
      <psa10 value="0.0334245988" flag="0"/>
      <psa30 value="0.0044915761" flag="0"/>
    </comp>
    <comp name="--.HHN">
      <acc value="0.0298958045" flag="0"/>
      <vel value="0.0251773609" flag="0"/>
      <psa03 value="0.1021370405" flag="0"/>
      <psa10 value="0.0261608046" flag="0"/>
      <psa30 value="0.0044287116" flag="0"/>
    </comp>
  </station>
  <station code="ATEI" name="ATEI" netid="HC" insttype="DC" commtype="DIG" lat="35.5193" lon="24.0432">
    <comp name="--.HNE">
      <acc value="0.0888431871" flag="0"/>
      <vel value="0.0950556329" flag="0"/>
      <psa03 value="0.2799956411" flag="0"/>
      <psa10 value="0.1908706790" flag="0"/>
      <psa30 value="0.0216192117" flag="0"/>
    </comp>
    <comp name="--.HNN">
      <acc value="0.1112670419" flag="0"/>
      <vel value="0.1008047370" flag="0"/>
      <psa03 value="0.3145249995" flag="0"/>
      <psa10 value="0.2286418653" flag="0"/>
      <psa30 value="0.0268916670" flag="0"/>
    </comp>
    <comp name="--.HNZ">
      <acc value="0.0540744077" flag="0"/>
      <vel value="0.0494685953" flag="0"/>
      <psa03 value="0.1554425316" flag="0"/>
      <psa10 value="0.0789647792" flag="0"/>
      <psa30 value="0.0120764117" flag="0"/>
    </comp>
  </station>
  <station code="CHAN" name="CHAN" netid="HC" insttype="120" commtype="DIG" lat="35.5193" lon="24.0428">
    <comp name="--.HHE">
      <acc value="0.0000000002" flag="0"/>
      <vel value="-100.0000000000" flag="0"/>
      <psa03 value="0.0000000000" flag="0"/>
      <psa10 value="0.0000000000" flag="0"/>
      <psa30 value="0.0000000000" flag="0"/>
    </comp>
    <comp name="--.HHZ">
      <acc value="0.0996854231" flag="0"/>
      <vel value="0.0940250070" flag="0"/>
      <psa03 value="0.2881352532" flag="0"/>
      <psa10 value="0.1488439313" flag="0"/>
      <psa30 value="0.0233192781" flag="0"/>
    </comp>
    <comp name="--.HHN">
      <acc value="0.0000000000" flag="0"/>
      <vel value="-100.0000000000" flag="0"/>
      <psa03 value="0.0000000000" flag="0"/>
      <psa10 value="0.0000000000" flag="0"/>
      <psa30 value="0.0000000000" flag="0"/>
    </comp>
  </station>
  <station code="GVDS" name="GVDS" netid="HC" insttype="60" commtype="DIG" lat="34.8389" lon="24.0585">
    <comp name="--.HHE">
      <acc value="0.0824065132" flag="0"/>
      <vel value="0.0449843280" flag="0"/>
      <psa03 value="0.1669660889" flag="0"/>
      <psa10 value="0.0467144421" flag="0"/>
      <psa30 value="0.0043358531" flag="0"/>
    </comp>
    <comp name="--.HHZ">
      <acc value="0.0465423381" flag="0"/>
      <vel value="0.0255893356" flag="0"/>
      <psa03 value="0.1576942016" flag="0"/>
      <psa10 value="0.0341329487" flag="0"/>
      <psa30 value="0.0039855287" flag="0"/>
    </comp>
    <comp name="--.HHN">
      <acc value="0.1109290636" flag="0"/>
      <vel value="0.0700199500" flag="0"/>
      <psa03 value="0.3597183556" flag="0"/>
      <psa10 value="0.0521234627" flag="0"/>
      <psa30 value="0.0075646273" flag="0"/>
    </comp>
  </station>
  <station code="IMOD" name="IMOD" netid="HC" insttype="120" commtype="DIG" lat="34.9731" lon="24.7995">
    <comp name="--.HHN">
      <acc value="0.0335042345" flag="0"/>
      <vel value="0.0239035834" flag="0"/>
      <psa03 value="0.0759655611" flag="0"/>
      <psa10 value="0.0407950665" flag="0"/>
      <psa30 value="0.0029741405" flag="0"/>
    </comp>
    <comp name="--.HHE">
      <acc value="0.0286546697" flag="0"/>
      <vel value="0.0250541459" flag="0"/>
      <psa03 value="0.0718509235" flag="0"/>
      <psa10 value="0.0596753888" flag="0"/>
      <psa30 value="0.0031625474" flag="0"/>
    </comp>
    <comp name="--.HHZ">
      <acc value="0.0136216885" flag="0"/>
      <vel value="0.0123917091" flag="0"/>
      <psa03 value="0.0384988862" flag="0"/>
      <psa10 value="0.0167799545" flag="0"/>
      <psa30 value="0.0030992696" flag="0"/>
    </comp>
  </station>
  <station code="IPPL" name="IPPL" netid="HC" insttype="60" commtype="DIG" lat="35.3486" lon="24.4632">
    <comp name="--.HHE">
      <acc value="0.0000000000" flag="0"/>
      <vel value="-100.0000000000" flag="0"/>
      <psa03 value="0.0000000000" flag="0"/>
      <psa10 value="0.0000000000" flag="0"/>
      <psa30 value="0.0000000000" flag="0"/>
    </comp>
    <comp name="--.HHN">
      <acc value="0.0000000000" flag="0"/>
      <vel value="-100.0000000000" flag="0"/>
      <psa03 value="0.0000000000" flag="0"/>
      <psa10 value="0.0000000000" flag="0"/>
      <psa30 value="0.0000000000" flag="0"/>
    </comp>
    <comp name="--.HHZ">
      <acc value="0.0400054413" flag="0"/>
      <vel value="0.0342616005" flag="0"/>
      <psa03 value="0.1406944971" flag="0"/>
      <psa10 value="0.0611117690" flag="0"/>
      <psa30 value="0.0060715415" flag="0"/>
    </comp>
  </station>
  <station code="KNDR" name="KNDR" netid="HC" insttype="120" commtype="DIG" lat="35.2348" lon="23.6248">
    <comp name="--.HHN">
      <acc value="0.3512692184" flag="0"/>
      <vel value="0.3554056669" flag="0"/>
      <psa03 value="0.9385706793" flag="0"/>
      <psa10 value="0.3533866786" flag="0"/>
      <psa30 value="0.0660099464" flag="0"/>
    </comp>
    <comp name="--.HHE">
      <acc value="0.0038668697" flag="0"/>
      <vel value="-100.0000000000" flag="0"/>
      <psa03 value="0.0000001456" flag="0"/>
      <psa10 value="0.0000001559" flag="0"/>
      <psa30 value="0.0000002415" flag="0"/>
    </comp>
    <comp name="--.HHZ">
      <acc value="0.2375037133" flag="0"/>
      <vel value="0.2316056949" flag="0"/>
      <psa03 value="0.5703582291" flag="0"/>
      <psa10 value="0.3273744483" flag="0"/>
      <psa30 value="0.0153631718" flag="0"/>
    </comp>
  </station>
  <station code="RODP" name="RODP" netid="HC" insttype="120" commtype="DIG" lat="35.5604" lon="23.7577">
    <comp name="--.HHZ">
      <acc value="0.0718166027" flag="0"/>
      <vel value="0.0481832278" flag="0"/>
      <psa03 value="0.2826434888" flag="0"/>
      <psa10 value="0.0734034043" flag="0"/>
      <psa30 value="0.0112774390" flag="0"/>
    </comp>
    <comp name="--.HHN">
      <acc value="0.1207243748" flag="0"/>
      <vel value="0.1335532855" flag="0"/>
      <psa03 value="0.4634917601" flag="0"/>
      <psa10 value="0.1463435305" flag="0"/>
      <psa30 value="0.0180458567" flag="0"/>
    </comp>
    <comp name="--.HHE">
      <acc value="0.1956860360" flag="0"/>
      <vel value="0.1551423493" flag="0"/>
      <psa03 value="0.5653245361" flag="0"/>
      <psa10 value="0.1542358967" flag="0"/>
      <psa30 value="0.0211634266" flag="0"/>
    </comp>
  </station>
  <station code="CH01" name="CH01" netid="HI" insttype="CMG-5TD,ACCELEROMETER,GURALP" commtype="DIG" lat="35.517" lon="24.0208">
    <comp name="--.HNZ">
      <acc value="0.0707100371" flag="0"/>
      <vel value="0.1014114328" flag="0"/>
      <psa03 value="0.1806306861" flag="0"/>
      <psa10 value="0.1651491585" flag="0"/>
      <psa30 value="0.0203946449" flag="0"/>
    </comp>
    <comp name="--.HNN">
      <acc value="0.1445534098" flag="0"/>
      <vel value="0.1572078190" flag="0"/>
      <psa03 value="0.2822262051" flag="0"/>
      <psa10 value="0.3035235350" flag="0"/>
      <psa30 value="0.0496381196" flag="0"/>
    </comp>
    <comp name="--.HNE">
      <acc value="0.1450721929" flag="0"/>
      <vel value="0.1642045391" flag="0"/>
      <psa03 value="0.2963022551" flag="0"/>
      <psa10 value="0.1991725228" flag="0"/>
      <psa30 value="0.0296474476" flag="0"/>
    </comp>
  </station>
  <station code="CH02" name="CH02" netid="HI" insttype="unknown" commtype="DIG" lat="35.5145" lon="24.0315">
    <comp name="--.HNE">
      <acc value="0.1016086838" flag="0"/>
      <vel value="0.1411835596" flag="0"/>
      <psa03 value="0.2994036335" flag="0"/>
      <psa10 value="0.1763958378" flag="0"/>
      <psa30 value="0.0264730668" flag="0"/>
    </comp>
    <comp name="--.HNN">
      <acc value="0.1212771858" flag="0"/>
      <vel value="0.1196175281" flag="0"/>
      <psa03 value="0.3347623037" flag="0"/>
      <psa10 value="0.1827527726" flag="0"/>
      <psa30 value="0.0361450039" flag="0"/>
    </comp>
    <comp name="--.HNZ">
      <acc value="0.0531448013" flag="0"/>
      <vel value="0.0675308456" flag="0"/>
      <psa03 value="0.1677151250" flag="0"/>
      <psa10 value="0.1028066585" flag="0"/>
      <psa30 value="0.0167563660" flag="0"/>
    </comp>
  </station>
  <station code="CH03" name="CH03" netid="HI" insttype="unknown" commtype="DIG" lat="35.533" lon="24.0705">
    <comp name="--.HNZ">
      <acc value="0.0521309436" flag="0"/>
      <vel value="0.0403168016" flag="0"/>
      <psa03 value="0.2025004119" flag="0"/>
      <psa10 value="0.1015259322" flag="0"/>
      <psa30 value="0.0103786964" flag="0"/>
    </comp>
    <comp name="--.HNE">
      <acc value="0.0964431373" flag="0"/>
      <vel value="0.1041354292" flag="0"/>
      <psa03 value="0.3358723577" flag="0"/>
      <psa10 value="0.2029587669" flag="0"/>
      <psa30 value="0.0160902023" flag="0"/>
    </comp>
    <comp name="--.HNN">
      <acc value="0.0960822234" flag="0"/>
      <vel value="0.1085125966" flag="0"/>
      <psa03 value="0.2988766114" flag="0"/>
      <psa10 value="0.1612708838" flag="0"/>
      <psa30 value="0.0200913688" flag="0"/>
    </comp>
  </station>
  <station code="NPS1" name="NPS1" netid="HI" insttype="unknown" commtype="DIG" lat="36.5126" lon="23.0625">
    <comp name="--.HNE">
      <acc value="0.0557884526" flag="0"/>
      <vel value="0.0410655533" flag="0"/>
      <psa03 value="0.1797740554" flag="0"/>
      <psa10 value="0.0488123443" flag="0"/>
      <psa30 value="0.0050241132" flag="0"/>
    </comp>
    <comp name="--.HNN">
      <acc value="0.0556623126" flag="0"/>
      <vel value="0.0393631829" flag="0"/>
      <psa03 value="0.1895098773" flag="0"/>
      <psa10 value="0.0471392935" flag="0"/>
      <psa30 value="0.0042545690" flag="0"/>
    </comp>
    <comp name="--.HNZ">
      <acc value="0.0365751488" flag="0"/>
      <vel value="0.0210640778" flag="0"/>
      <psa03 value="0.1022749462" flag="0"/>
      <psa10 value="0.0207811624" flag="0"/>
      <psa30 value="0.0036341918" flag="0"/>
    </comp>
  </station>
  <station code="RTH1" name="RTH1" netid="HI" insttype="unknown" commtype="DIG" lat="35.3654" lon="24.4718">
    <comp name="--.HNE">
      <acc value="0.0413738151" flag="0"/>
      <vel value="0.0411341656" flag="0"/>
      <psa03 value="0.1209318770" flag="0"/>
      <psa10 value="0.0905523106" flag="0"/>
      <psa30 value="0.0098186297" flag="0"/>
    </comp>
    <comp name="--.HNZ">
      <acc value="0.0254557824" flag="0"/>
      <vel value="0.0207177533" flag="0"/>
      <psa03 value="0.0681286218" flag="0"/>
      <psa10 value="0.0267150507" flag="0"/>
      <psa30 value="0.0067504732" flag="0"/>
    </comp>
    <comp name="--.HNN">
      <acc value="0.0444038879" flag="0"/>
      <vel value="0.0365711308" flag="0"/>
      <psa03 value="0.1324776887" flag="0"/>
      <psa10 value="0.0441414775" flag="0"/>
      <psa30 value="0.0082037015" flag="0"/>
    </comp>
  </station>
  <station code="CHNB" name="CHNB" netid="HL" insttype="CMG-5" commtype="DIG" lat="35.4877" lon="24.0661">
    <comp name="00.HNN">
      <acc value="0.2639964678" flag="0"/>
      <vel value="0.2788204821" flag="0"/>
      <psa03 value="0.6053596149" flag="0"/>
      <psa10 value="0.6608753449" flag="0"/>
      <psa30 value="0.0243256961" flag="0"/>
    </comp>
    <comp name="00.HNZ">
      <acc value="0.2427925775" flag="0"/>
      <vel value="0.1344447625" flag="0"/>
      <psa03 value="0.8339325609" flag="0"/>
      <psa10 value="0.1132817577" flag="0"/>
      <psa30 value="0.0134896062" flag="0"/>
    </comp>
    <comp name="00.HNE">
      <acc value="0.3274957446" flag="0"/>
      <vel value="0.2567779240" flag="0"/>
      <psa03 value="0.8537461305" flag="0"/>
      <psa10 value="0.3716078400" flag="0"/>
      <psa30 value="0.0209079373" flag="0"/>
    </comp>
  </station>
  <station code="IMMV" name="IMMV" netid="HL" insttype="120" commtype="DIG" lat="35.4606" lon="23.9811">
    <comp name="--.HHE">
      <acc value="0.1366210412" flag="0"/>
      <vel value="0.1157147066" flag="0"/>
      <psa03 value="0.3165229347" flag="0"/>
      <psa10 value="0.1216351742" flag="0"/>
      <psa30 value="0.0118754227" flag="0"/>
    </comp>
    <comp name="--.HHN">
      <acc value="0.1073461913" flag="0"/>
      <vel value="0.1103874449" flag="0"/>
      <psa03 value="0.4512438640" flag="0"/>
      <psa10 value="0.0980242262" flag="0"/>
      <psa30 value="0.0179197460" flag="0"/>
    </comp>
    <comp name="--.HHZ">
      <acc value="0.0718535532" flag="0"/>
      <vel value="0.0608693110" flag="0"/>
      <psa03 value="0.2909717151" flag="0"/>
      <psa10 value="0.0511397351" flag="0"/>
      <psa30 value="0.0092071745" flag="0"/>
    </comp>
  </station>
  <station code="SIVA" name="SIVA" netid="HL" insttype="60" commtype="DIG" lat="35.0178" lon="24.812">
    <comp name="--.HHE">
      <acc value="0.0339072499" flag="0"/>
      <vel value="0.0351987437" flag="0"/>
      <psa03 value="0.0971903165" flag="0"/>
      <psa10 value="0.0730522697" flag="0"/>
      <psa30 value="0.0038120930" flag="0"/>
    </comp>
    <comp name="--.HHZ">
      <acc value="0.0148397239" flag="0"/>
      <vel value="0.0162369296" flag="0"/>
      <psa03 value="0.0529067562" flag="0"/>
      <psa10 value="0.0160506870" flag="0"/>
      <psa30 value="0.0029759486" flag="0"/>
    </comp>
    <comp name="--.HHN">
      <acc value="0.0283654340" flag="0"/>
      <vel value="0.0268462753" flag="0"/>
      <psa03 value="0.0605565421" flag="0"/>
      <psa10 value="0.0375468516" flag="0"/>
      <psa30 value="0.0032683381" flag="0"/>
    </comp>
  </station>
</stationlist>
