<?xml version="1.0" encoding="UTF-8" standalone="yes"?>
<!DOCTYPE earthquake SYSTEM "stationlist.dtd">
<stationlist created="" xmlns="ch.ethz.sed.shakemap.usgs.xml">
  <station code="BODA" name="BODA" netid="KO" insttype="ACEBOX" lat="37.0348" lon="27.4304">
    <comp name="--.HNE">
      <acc value="0.1606350265" flag="0"/>
      <vel value="0.0658514324" flag="0"/>
      <psa03 value="0.2662755583" flag="0"/>
      <psa10 value="0.0398548191" flag="0"/>
      <psa30 value="0.0017246378" flag="0"/>
    </comp>
    <comp name="--.HNZ">
      <acc value="0.0640006473" flag="0"/>
      <vel value="0.0232929533" flag="0"/>
      <psa03 value="0.0636505069" flag="0"/>
      <psa10 value="0.0224185255" flag="0"/>
      <psa30 value="0.0012601226" flag="0"/>
    </comp>
    <comp name="--.HNN">
      <acc value="0.2128697317" flag="0"/>
      <vel value="0.0781503375" flag="0"/>
      <psa03 value="0.5170719130" flag="0"/>
      <psa10 value="0.0312108298" flag="0"/>
      <psa30 value="0.0020703787" flag="0"/>
    </comp>
  </station>
  <station code="DALY" name="DALY" netid="KO" insttype="CMG-3T" lat="36.8162" lon="28.6532">
    <comp name="--.HHZ">
      <acc value="0.0093896080" flag="0"/>
      <vel value="0.0045353967" flag="0"/>
      <psa03 value="0.0193197413" flag="0"/>
      <psa10 value="0.0083731827" flag="0"/>
      <psa30 value="0.0004331484" flag="0"/>
    </comp>
    <comp name="--.HHE">
      <acc value="0.0206638040" flag="0"/>
      <vel value="0.0068612372" flag="0"/>
      <psa03 value="0.0403776742" flag="0"/>
      <psa10 value="0.0062599312" flag="0"/>
      <psa30 value="0.0005509513" flag="0"/>
    </comp>
    <comp name="--.HHN">
      <acc value="0.0210439546" flag="0"/>
      <vel value="0.0120218762" flag="0"/>
      <psa03 value="0.0605036610" flag="0"/>
      <psa10 value="0.0138838099" flag="0"/>
      <psa30 value="0.0015546956" flag="0"/>
    </comp>
  </station>
  <station code="DATC" name="DATC" netid="KO" insttype="CMG-5T" lat="36.7584" lon="27.6602">
    <comp name="--.HNE">
      <acc value="0.7173128924" flag="0"/>
      <vel value="0.2031611890" flag="0"/>
      <psa03 value="1.2279318061" flag="0"/>
      <psa10 value="0.0762671726" flag="0"/>
      <psa30 value="0.0077038440" flag="0"/>
    </comp>
    <comp name="--.HNN">
      <acc value="0.7432420909" flag="0"/>
      <vel value="0.1587648686" flag="0"/>
      <psa03 value="0.8300514185" flag="0"/>
      <psa10 value="0.0794760520" flag="0"/>
      <psa30 value="0.0057493353" flag="0"/>
    </comp>
    <comp name="--.HNZ">
      <acc value="0.7680367105" flag="0"/>
      <vel value="0.1782737697" flag="0"/>
      <psa03 value="0.6094242541" flag="0"/>
      <psa10 value="0.1100945751" flag="0"/>
      <psa30 value="0.0091518507" flag="0"/>
    </comp>
  </station>
  <station code="FETY" name="FETY" netid="KO" insttype="CMG-3ESP" lat="36.6353" lon="29.0835">
    <comp name="--.HHN">
      <acc value="0.0175983031" flag="0"/>
      <vel value="0.0086075245" flag="0"/>
      <psa03 value="0.0309862210" flag="0"/>
      <psa10 value="0.0083858859" flag="0"/>
      <psa30 value="0.0007800988" flag="0"/>
    </comp>
    <comp name="--.HHE">
      <acc value="0.0179125313" flag="0"/>
      <vel value="0.0070062666" flag="0"/>
      <psa03 value="0.0370028946" flag="0"/>
      <psa10 value="0.0055641951" flag="0"/>
      <psa30 value="0.0003916774" flag="0"/>
    </comp>
    <comp name="--.HHZ">
      <acc value="0.0093571697" flag="0"/>
      <vel value="0.0053503052" flag="0"/>
      <psa03 value="0.0253487874" flag="0"/>
      <psa10 value="0.0041148969" flag="0"/>
      <psa30 value="0.0003613709" flag="0"/>
    </comp>
  </station>
  <station code="MLSB" name="MLSB" netid="KO" insttype="CMG-3ESP" lat="37.2953" lon="27.7767">
    <comp name="--.HHE">
      <acc value="0.0414030347" flag="0"/>
      <vel value="0.0288862354" flag="0"/>
      <psa03 value="0.0938903544" flag="0"/>
      <psa10 value="0.0394594297" flag="0"/>
      <psa30 value="0.0017706624" flag="0"/>
    </comp>
    <comp name="--.HHN">
      <acc value="0.0255416762" flag="0"/>
      <vel value="0.0134958101" flag="0"/>
      <psa03 value="0.0869172034" flag="0"/>
      <psa10 value="0.0111520529" flag="0"/>
      <psa30 value="0.0010668390" flag="0"/>
    </comp>
    <comp name="--.HHZ">
      <acc value="0.0175998916" flag="0"/>
      <vel value="0.0199237716" flag="0"/>
      <psa03 value="0.0622230798" flag="0"/>
      <psa10 value="0.0204325689" flag="0"/>
      <psa30 value="0.0017812360" flag="0"/>
    </comp>
  </station>
  <station code="YER" name="YER" netid="KO" insttype="CMG-3T" lat="37.1336" lon="28.284">
    <comp name="--.HHZ">
      <acc value="0.0147716329" flag="0"/>
      <vel value="0.0082687414" flag="0"/>
      <psa03 value="0.0292704641" flag="0"/>
      <psa10 value="0.0101050640" flag="0"/>
      <psa30 value="0.0010253328" flag="0"/>
    </comp>
    <comp name="--.HHE">
      <acc value="0.0288280218" flag="0"/>
      <vel value="0.0112614791" flag="0"/>
      <psa03 value="0.0501184025" flag="0"/>
      <psa10 value="0.0120052509" flag="0"/>
      <psa30 value="0.0009712722" flag="0"/>
    </comp>
    <comp name="--.HHN">
      <acc value="0.0282800380" flag="0"/>
      <vel value="0.0155240324" flag="0"/>
      <psa03 value="0.0455167137" flag="0"/>
      <psa10 value="0.0221633446" flag="0"/>
      <psa30 value="0.0014780787" flag="0"/>
    </comp>
  </station>
  <station code="YKAV" name="YKAV" netid="KO" insttype="CMG-5T" lat="37.1246" lon="27.2801">
    <comp name="--.HNE">
      <acc value="0.0747963293" flag="0"/>
      <vel value="0.0341175725" flag="0"/>
      <psa03 value="0.1562859157" flag="0"/>
      <psa10 value="0.0186937659" flag="0"/>
      <psa30 value="0.0009803687" flag="0"/>
    </comp>
    <comp name="--.HNZ">
      <acc value="0.0525504674" flag="0"/>
      <vel value="0.0149365457" flag="0"/>
      <psa03 value="0.0753315243" flag="0"/>
      <psa10 value="0.0166312029" flag="0"/>
      <psa30 value="0.0015154253" flag="0"/>
    </comp>
    <comp name="--.HNN">
      <acc value="0.0528743099" flag="0"/>
      <vel value="0.0242424564" flag="0"/>
      <psa03 value="0.1222141210" flag="0"/>
      <psa10 value="0.0142694748" flag="0"/>
      <psa30 value="0.0014695551" flag="0"/>
    </comp>
  </station>
  <station code="AYDN" name="AYDN" netid="TU" insttype="T" lat="37.6608" lon="27.8792">
    <comp name="--.HHZ">
      <acc value="0.0345136078" flag="0"/>
      <vel value="0.0110686174" flag="0"/>
      <psa03 value="0.0769433190" flag="0"/>
      <psa10 value="0.0132592742" flag="0"/>
      <psa30 value="0.0014609794" flag="0"/>
    </comp>
    <comp name="--.HHN">
      <acc value="0.0433468698" flag="0"/>
      <vel value="0.0291983368" flag="0"/>
      <psa03 value="0.0985452794" flag="0"/>
      <psa10 value="0.0263284354" flag="0"/>
      <psa30 value="0.0029080055" flag="0"/>
    </comp>
    <comp name="--.HHE">
      <acc value="0.0570932338" flag="0"/>
      <vel value="0.0403609600" flag="0"/>
      <psa03 value="0.1409598608" flag="0"/>
      <psa10 value="0.0252454147" flag="0"/>
      <psa30 value="0.0033781590" flag="0"/>
    </comp>
  </station>
</stationlist>
