<stationlist created="1767924009">
	<station code="ANB" name="ANB" netid="IT" source="Italian Strong Motion Network (RAN)" insttype="" lat="43.5922" lon="13.5074">
		<comp name="--.HGE" depth="0.0">
			<acc value="0.99890430024534" flag="0"/>
			<vel value="0.344486330065" flag="0"/>
			<psa03 value="2.13842332671839" flag="0"/>
			<psa10 value="0.267584246143014" flag="0"/>
			<psa30 value="0.0152002886112086" flag="0"/>
		</comp>
		<comp name="--.HGN" depth="0.0">
			<acc value="1.0566000978678" flag="0"/>
			<vel value="0.406438241155" flag="0"/>
			<psa03 value="1.49954933778546" flag="0"/>
			<psa10 value="0.267731345887784" flag="0"/>
			<psa30 value="0.0117601365513141" flag="0"/>
		</comp>
		<comp name="--.HGZ" depth="0.0">
			<acc value="0.4163112727677" flag="0"/>
			<vel value="0.152808324538" flag="0"/>
			<psa03 value="1.27970785769943" flag="0"/>
			<psa10 value="0.100348352585975" flag="0"/>
			<psa30 value="0.0111284555388926" flag="0"/>
		</comp>
	</station>
	<station code="CTL" name="CTL" netid="IT" source="Italian Strong Motion Network (RAN)" insttype="" lat="43.955" lon="12.7358">
		<comp name="--.HNE" depth="0.0">
			<acc value="0.069687638987268" flag="0"/>
			<vel value="0.0637153482272" flag="0"/>
			<psa03 value="0.149674404777895" flag="0"/>
			<psa10 value="0.10824319558059" flag="0"/>
			<psa30 value="0.00783633411866526" flag="0"/>
		</comp>
		<comp name="--.HNN" depth="0.0">
			<acc value="0.075948567684762" flag="0"/>
			<vel value="0.0836504784398" flag="0"/>
			<psa03 value="0.256217493984956" flag="0"/>
			<psa10 value="0.262148516052452" flag="0"/>
			<psa30 value="0.00821195400164332" flag="0"/>
		</comp>
		<comp name="--.HNZ" depth="0.0">
			<acc value="0.047758654890132" flag="0"/>
			<vel value="0.026987490529" flag="0"/>
			<psa03 value="0.0693866433998078" flag="0"/>
			<psa10 value="0.0479462437035375" flag="0"/>
			<psa30 value="0.00496153284388405" flag="0"/>
		</comp>
	</station>
	<station code="JESI" name="JESI" netid="IT" source="Italian Strong Motion Network (RAN)" insttype="" lat="43.5292" lon="13.2289">
		<comp name="--.HNE" depth="0.0">
			<acc value="0.21641834157258" flag="0"/>
			<vel value="0.0723197404718" flag="0"/>
			<psa03 value="0.607537371367602" flag="0"/>
			<psa10 value="0.113433921940453" flag="0"/>
			<psa30 value="0.0127490287272717" flag="0"/>
		</comp>
		<comp name="--.HNN" depth="0.0">
			<acc value="0.1551650770563" flag="0"/>
			<vel value="0.0675044244093" flag="0"/>
			<psa03 value="0.560775356949193" flag="0"/>
			<psa10 value="0.118062096034321" flag="0"/>
			<psa30 value="0.0130787480695571" flag="0"/>
		</comp>
		<comp name="--.HNZ" depth="0.0">
			<acc value="0.089078662616562" flag="0"/>
			<vel value="0.0450698679386" flag="0"/>
			<psa03 value="0.22158765826174" flag="0"/>
			<psa10 value="0.0498397591395872" flag="0"/>
			<psa30 value="0.00964589149298108" flag="0"/>
		</comp>
	</station>
	<station code="MBRC" name="MBRC" netid="IT" source="Italian Strong Motion Network (RAN)" insttype="" lat="43.7917" lon="12.8584">
		<comp name="--.HNE" depth="0.0">
			<acc value="0.12452915633034" flag="0"/>
			<vel value="0.0482061518639" flag="0"/>
			<psa03 value="0.214748996900572" flag="0"/>
			<psa10 value="0.0492797982948632" flag="0"/>
			<psa30 value="0.00536853980609745" flag="0"/>
		</comp>
		<comp name="--.HNN" depth="0.0">
			<acc value="0.18628455069084" flag="0"/>
			<vel value="0.059681109899" flag="0"/>
			<psa03 value="0.506595309453845" flag="0"/>
			<psa10 value="0.0645538363747157" flag="0"/>
			<psa30 value="0.00621351703166773" flag="0"/>
		</comp>
		<comp name="--.HNZ" depth="0.0">
			<acc value="0.12860022759408" flag="0"/>
			<vel value="0.0470322929786" flag="0"/>
			<psa03 value="0.259611593827407" flag="0"/>
			<psa10 value="0.0400982825644331" flag="0"/>
			<psa30 value="0.00597061177372472" flag="0"/>
		</comp>
	</station>
	<station code="MODF" name="MODF" netid="IT" source="Italian Strong Motion Network (RAN)" insttype="" lat="43.7645" lon="13.1347">
		<comp name="--.HNE" depth="0.0">
			<acc value="0.47319663470436" flag="0"/>
			<vel value="0.206596641692" flag="0"/>
			<psa03 value="0.90788330947964" flag="0"/>
			<psa10 value="0.250658264879911" flag="0"/>
			<psa30 value="0.0348900046248956" flag="0"/>
		</comp>
		<comp name="--.HNN" depth="0.0">
			<acc value="0.35501540142954" flag="0"/>
			<vel value="0.20287123583" flag="0"/>
			<psa03 value="0.951406609353106" flag="0"/>
			<psa10 value="0.241032892246284" flag="0"/>
			<psa30 value="0.0230099359619924" flag="0"/>
		</comp>
		<comp name="--.HNZ" depth="0.0">
			<acc value="0.23892441075066" flag="0"/>
			<vel value="0.150694643557" flag="0"/>
			<psa03 value="0.55506556203705" flag="0"/>
			<psa10 value="0.157103367327018" flag="0"/>
			<psa30 value="0.0245718344300953" flag="0"/>
		</comp>
	</station>
	<station code="MOMC" name="MOMC" netid="IT" source="Italian Strong Motion Network (RAN)" insttype="" lat="43.6402" lon="13.3109">
		<comp name="--.HNE" depth="0.0">
			<acc value="0.36004910453238" flag="0"/>
			<vel value="0.161291413841" flag="0"/>
			<psa03 value="0.797919774934323" flag="0"/>
			<psa10 value="0.174630993446138" flag="0"/>
			<psa30 value="0.0131007603610848" flag="0"/>
		</comp>
		<comp name="--.HNN" depth="0.0">
			<acc value="0.4261393991073" flag="0"/>
			<vel value="0.15945978503" flag="0"/>
			<psa03 value="0.820219085489316" flag="0"/>
			<psa10 value="0.157127518927021" flag="0"/>
			<psa30 value="0.0127296649444903" flag="0"/>
		</comp>
		<comp name="--.HNZ" depth="0.0">
			<acc value="0.26997991791162" flag="0"/>
			<vel value="0.0861384935566" flag="0"/>
			<psa03 value="0.496892083328065" flag="0"/>
			<psa10 value="0.0992497323075447" flag="0"/>
			<psa30 value="0.00928853698664528" flag="0"/>
		</comp>
	</station>
	<station code="OSTR" name="OSTR" netid="IT" source="Italian Strong Motion Network (RAN)" insttype="" lat="43.6323" lon="13.1454">
		<comp name="--.HNE" depth="0.0">
			<acc value="0.1927601830116" flag="0"/>
			<vel value="0.103230554438" flag="0"/>
			<psa03 value="0.358240898368248" flag="0"/>
			<psa10 value="0.179472279157504" flag="0"/>
			<psa30 value="0.0160341871862021" flag="0"/>
		</comp>
		<comp name="--.HNN" depth="0.0">
			<acc value="0.18115943157006" flag="0"/>
			<vel value="0.165111897557" flag="0"/>
			<psa03 value="0.555033643255569" flag="0"/>
			<psa10 value="0.228326990542487" flag="0"/>
			<psa30 value="0.0208029230915543" flag="0"/>
		</comp>
		<comp name="--.HNZ" depth="0.0">
			<acc value="0.098254326271386" flag="0"/>
			<vel value="0.0646278755232" flag="0"/>
			<psa03 value="0.198310324585917" flag="0"/>
			<psa10 value="0.0642806232757125" flag="0"/>
			<psa30 value="0.0167182074992202" flag="0"/>
		</comp>
	</station>
	<station code="PESR" name="PESR" netid="IT" source="Italian Strong Motion Network (RAN)" insttype="" lat="43.8942" lon="12.8763">
		<comp name="--.HNE" depth="0.0">
			<acc value="0.20663569055802" flag="0"/>
			<vel value="0.0928364737525" flag="0"/>
			<psa03 value="0.532348140451532" flag="0"/>
			<psa10 value="0.0662705350977192" flag="0"/>
			<psa30 value="0.00692117224370087" flag="0"/>
		</comp>
		<comp name="--.HNN" depth="0.0">
			<acc value="0.27958515204378" flag="0"/>
			<vel value="0.109394086386" flag="0"/>
			<psa03 value="0.844955140799202" flag="0"/>
			<psa10 value="0.0693847714004241" flag="0"/>
			<psa30 value="0.00531498834189867" flag="0"/>
		</comp>
		<comp name="--.HNZ" depth="0.0">
			<acc value="0.100150789154718" flag="0"/>
			<vel value="0.0381501969568" flag="0"/>
			<psa03 value="0.203465666101928" flag="0"/>
			<psa10 value="0.0531147310904493" flag="0"/>
			<psa30 value="0.00552348090351379" flag="0"/>
		</comp>
	</station>
	<station code="SNG" name="SNG" netid="IT" source="Italian Strong Motion Network (RAN)" insttype="" lat="43.6855" lon="13.2261">
		<comp name="--.HGE" depth="0.0">
			<acc value="1.00170054717348" flag="0"/>
			<vel value="0.482932902021" flag="0"/>
			<psa03 value="3.20370622981539" flag="0"/>
			<psa10 value="0.565204502026193" flag="0"/>
			<psa30 value="0.0224456635817307" flag="0"/>
		</comp>
		<comp name="--.HGN" depth="0.0">
			<acc value="1.3346340475092" flag="0"/>
			<vel value="0.436604744669" flag="0"/>
			<psa03 value="2.69762487107334" flag="0"/>
			<psa10 value="0.480039930288972" flag="0"/>
			<psa30 value="0.0357369073947275" flag="0"/>
		</comp>
		<comp name="--.HGZ" depth="0.0">
			<acc value="0.60564243327288" flag="0"/>
			<vel value="0.225699871794" flag="0"/>
			<psa03 value="1.54912662203563" flag="0"/>
			<psa10 value="0.146169533014159" flag="0"/>
			<psa30 value="0.0180395116958054" flag="0"/>
		</comp>
	</station>
	<station code="SRL" name="SRL" netid="IT" source="Italian Strong Motion Network (RAN)" insttype="" lat="43.5179" lon="13.6193">
		<comp name="--.HGE" depth="0.0">
			<acc value="0.1825591263834" flag="0"/>
			<vel value="0.0750413792784" flag="0"/>
			<psa03 value="0.292850816596067" flag="0"/>
			<psa10 value="0.0865004177279524" flag="0"/>
			<psa30 value="0.004359139188243" flag="0"/>
		</comp>
		<comp name="--.HGN" depth="0.0">
			<acc value="0.26801136988674" flag="0"/>
			<vel value="0.0704089002591" flag="0"/>
			<psa03 value="0.298305761292585" flag="0"/>
			<psa10 value="0.053546208423394" flag="0"/>
			<psa30 value="0.0039638955052885" flag="0"/>
		</comp>
		<comp name="--.HGZ" depth="0.0">
			<acc value="0.066944913550332" flag="0"/>
			<vel value="0.0280051652987" flag="0"/>
			<psa03 value="0.120480700004987" flag="0"/>
			<psa10 value="0.024140047284649" flag="0"/>
			<psa30 value="0.00266613245152499" flag="0"/>
		</comp>
	</station>
	<station code="APEC" name="APEC" netid="IV" source="Italian National Seismic Network (INSN)" insttype="" lat="43.55846" lon="12.41991">
		<comp name="--.HNE" depth="0.0">
			<acc value="0.027335952339276" flag="0"/>
			<vel value="0.0136266628857" flag="0"/>
			<psa03 value="0.0877686371580188" flag="0"/>
			<psa10 value="0.00997771316204448" flag="0"/>
			<psa30 value="0.00149989061039372" flag="0"/>
		</comp>
		<comp name="--.HNN" depth="0.0">
			<acc value="0.034848075024006" flag="0"/>
			<vel value="0.0171656989173" flag="0"/>
			<psa03 value="0.0980245144763771" flag="0"/>
			<psa10 value="0.0144144408234525" flag="0"/>
			<psa30 value="0.00133303111927105" flag="0"/>
		</comp>
		<comp name="--.HNZ" depth="0.0">
			<acc value="0.019773402667698" flag="0"/>
			<vel value="0.0120207129684" flag="0"/>
			<psa03 value="0.0724974432247613" flag="0"/>
			<psa10 value="0.00853632673976255" flag="0"/>
			<psa30 value="0.0018617235383803" flag="0"/>
		</comp>
	</station>
	<station code="ARCI" name="ARCI" netid="IV" source="Italian National Seismic Network (INSN)" insttype="" lat="42.8519" lon="11.4754">
		<comp name="--.HNE" depth="0.0">
			<acc value="0.0009956890954725" flag="0"/>
			<vel value="0.0011254647839" flag="0"/>
			<psa03 value="0.00267620625688311" flag="0"/>
			<psa10 value="0.00219134352513023" flag="0"/>
			<psa30 value="0.000635138897752766" flag="0"/>
		</comp>
		<comp name="--.HNN" depth="0.0">
			<acc value="0.0011865098373414" flag="0"/>
			<vel value="0.00132703177078" flag="0"/>
			<psa03 value="0.00290005214026489" flag="0"/>
			<psa10 value="0.00342821413361185" flag="0"/>
			<psa30 value="0.000539215876655144" flag="0"/>
		</comp>
		<comp name="--.HNZ" depth="0.0">
			<acc value="0.00086902771365936" flag="0"/>
			<vel value="0.000912112016917" flag="0"/>
			<psa03 value="0.00193767963129522" flag="0"/>
			<psa10 value="0.00143132356816054" flag="0"/>
			<psa30 value="0.000397305538292063" flag="0"/>
		</comp>
	</station>
	<station code="ATBU" name="ATBU" netid="IV" source="Italian National Seismic Network (INSN)" insttype="" lat="43.47571" lon="12.54828">
		<comp name="--.HNE" depth="1.0">
			<acc value="0.048525152113962" flag="0"/>
			<vel value="0.0261552054784" flag="0"/>
			<psa03 value="0.163497060044482" flag="0"/>
			<psa10 value="0.0430827265191321" flag="0"/>
			<psa30 value="0.00204997017546127" flag="0"/>
		</comp>
		<comp name="--.HNN" depth="1.0">
			<acc value="0.044729217310272" flag="0"/>
			<vel value="0.0391298786353" flag="0"/>
			<psa03 value="0.204395519366696" flag="0"/>
			<psa10 value="0.0381283258144747" flag="0"/>
			<psa30 value="0.00214836669374797" flag="0"/>
		</comp>
		<comp name="--.HNZ" depth="1.0">
			<acc value="0.01840204811076" flag="0"/>
			<vel value="0.014309350576" flag="0"/>
			<psa03 value="0.0861098345624633" flag="0"/>
			<psa10 value="0.0129906177521662" flag="0"/>
			<psa30 value="0.00198249945586132" flag="0"/>
		</comp>
	</station>
	<station code="ATCC" name="ATCC" netid="IV" source="Italian National Seismic Network (INSN)" insttype="" lat="43.18514" lon="12.63994">
		<comp name="--.HNE" depth="1.0">
			<acc value="0.036276829769946" flag="0"/>
			<vel value="0.0212119565351" flag="0"/>
			<psa03 value="0.0708691113976245" flag="0"/>
			<psa10 value="0.0444402977015687" flag="0"/>
			<psa30 value="0.00393724373974091" flag="0"/>
		</comp>
		<comp name="--.HNN" depth="1.0">
			<acc value="0.027841487447172" flag="0"/>
			<vel value="0.0161614464146" flag="0"/>
			<psa03 value="0.0830882906496126" flag="0"/>
			<psa10 value="0.0228416493971787" flag="0"/>
			<psa30 value="0.00262228975549464" flag="0"/>
		</comp>
		<comp name="--.HNZ" depth="1.0">
			<acc value="0.020936714628444" flag="0"/>
			<vel value="0.0103992885564" flag="0"/>
			<psa03 value="0.0536841031834841" flag="0"/>
			<psa10 value="0.0255433114940279" flag="0"/>
			<psa30 value="0.00215957243607494" flag="0"/>
		</comp>
	</station>
	<station code="ATFO" name="ATFO" netid="IV" source="Italian National Seismic Network (INSN)" insttype="" lat="43.3666" lon="12.5715">
		<comp name="--.HNE" depth="1.0">
			<acc value="0.024501104567346" flag="0"/>
			<vel value="0.0154994030355" flag="0"/>
			<psa03 value="0.11253202761121" flag="0"/>
			<psa10 value="0.0288368490497072" flag="0"/>
			<psa30 value="0.00170228620560629" flag="0"/>
		</comp>
		<comp name="--.HNN" depth="1.0">
			<acc value="0.03205685852493" flag="0"/>
			<vel value="0.017269469874" flag="0"/>
			<psa03 value="0.168320650416843" flag="0"/>
			<psa10 value="0.0203412481328747" flag="0"/>
			<psa30 value="0.00152278233519131" flag="0"/>
		</comp>
		<comp name="--.HNZ" depth="1.0">
			<acc value="0.013705822589298" flag="0"/>
			<vel value="0.00779940187045" flag="0"/>
			<psa03 value="0.0376116764848097" flag="0"/>
			<psa10 value="0.0107340398274647" flag="0"/>
			<psa30 value="0.0011407468188802" flag="0"/>
		</comp>
	</station>
	<station code="ATLO" name="ATLO" netid="IV" source="Italian National Seismic Network (INSN)" insttype="" lat="43.31516" lon="12.40726">
		<comp name="--.HNE" depth="1.0">
			<acc value="0.01592943279858" flag="0"/>
			<vel value="0.00959800323172" flag="0"/>
			<psa03 value="0.0689938465455933" flag="0"/>
			<psa10 value="0.00993897497080725" flag="0"/>
			<psa30 value="0.0013422640225691" flag="0"/>
		</comp>
		<comp name="--.HNN" depth="1.0">
			<acc value="0.014554299846156" flag="0"/>
			<vel value="0.00880513784906" flag="0"/>
			<psa03 value="0.0603563472699831" flag="0"/>
			<psa10 value="0.0132843268964684" flag="0"/>
			<psa30 value="0.00109281218510913" flag="0"/>
		</comp>
		<comp name="--.HNZ" depth="1.0">
			<acc value="0.0023440944377238" flag="0"/>
			<vel value="0.00133068661182" flag="0"/>
			<psa03 value="0.006971281474645" flag="0"/>
			<psa10 value="0.00195127031676882" flag="0"/>
			<psa30 value="0.000226589072914213" flag="0"/>
		</comp>
	</station>
	<station code="ATPC" name="ATPC" netid="IV" source="Italian National Seismic Network (INSN)" insttype="" lat="43.4807" lon="12.457">
		<comp name="--.HNE" depth="1.0">
			<acc value="0.027569854182732" flag="0"/>
			<vel value="0.0203164928357" flag="0"/>
			<psa03 value="0.0878587785461308" flag="0"/>
			<psa10 value="0.0334090731871286" flag="0"/>
			<psa30 value="0.00154356548280521" flag="0"/>
		</comp>
		<comp name="--.HNN" depth="1.0">
			<acc value="0.027234620554944" flag="0"/>
			<vel value="0.0182890733304" flag="0"/>
			<psa03 value="0.0776134279669892" flag="0"/>
			<psa10 value="0.0302775444887325" flag="0"/>
			<psa30 value="0.00144687022305119" flag="0"/>
		</comp>
		<comp name="--.HNZ" depth="1.0">
			<acc value="0.012810357839244" flag="0"/>
			<vel value="0.00979712985906" flag="0"/>
			<psa03 value="0.0429852121426564" flag="0"/>
			<psa10 value="0.0117273653178774" flag="0"/>
			<psa30 value="0.00101750271706078" flag="0"/>
		</comp>
	</station>
	<station code="ATPI" name="ATPI" netid="IV" source="Italian National Seismic Network (INSN)" insttype="" lat="43.45068" lon="12.40222">
		<comp name="--.HNE" depth="1.0">
			<acc value="0.01235945794005" flag="0"/>
			<vel value="0.00881541307595" flag="0"/>
			<psa03 value="0.0439174457735763" flag="0"/>
			<psa10 value="0.0161366458485999" flag="0"/>
			<psa30 value="0.00127063813187318" flag="0"/>
		</comp>
		<comp name="--.HNN" depth="1.0">
			<acc value="0.014785642045206" flag="0"/>
			<vel value="0.00894860101587" flag="0"/>
			<psa03 value="0.0485180422070183" flag="0"/>
			<psa10 value="0.016662565688193" flag="0"/>
			<psa30 value="0.00111150144401651" flag="0"/>
		</comp>
		<comp name="--.HNZ" depth="1.0">
			<acc value="0.009418588197654" flag="0"/>
			<vel value="0.00779520893789" flag="0"/>
			<psa03 value="0.0237151256981745" flag="0"/>
			<psa10 value="0.0131552255316385" flag="0"/>
			<psa30 value="0.000825807205675239" flag="0"/>
		</comp>
	</station>
	<station code="ATVO" name="ATVO" netid="IV" source="Italian National Seismic Network (INSN)" insttype="" lat="43.38211" lon="12.40663">
		<comp name="--.HNE" depth="1.0">
			<acc value="0.015427794093234" flag="0"/>
			<vel value="0.0110396115973" flag="0"/>
			<psa03 value="0.0493017712088196" flag="0"/>
			<psa10 value="0.0169563507750175" flag="0"/>
			<psa30 value="0.000975605879099386" flag="0"/>
		</comp>
		<comp name="--.HNN" depth="1.0">
			<acc value="0.015559004853234" flag="0"/>
			<vel value="0.00930906367997" flag="0"/>
			<psa03 value="0.0567561869023383" flag="0"/>
			<psa10 value="0.0159945320592337" flag="0"/>
			<psa30 value="0.00115007816620046" flag="0"/>
		</comp>
		<comp name="--.HNZ" depth="1.0">
			<acc value="0.007366370560797" flag="0"/>
			<vel value="0.0055705450936" flag="0"/>
			<psa03 value="0.0273654456389494" flag="0"/>
			<psa10 value="0.0101476397313145" flag="0"/>
			<psa30 value="0.00081084366233049" flag="0"/>
		</comp>
	</station>
	<station code="BARO" name="BARO" netid="IV" source="Italian National Seismic Network (INSN)" insttype="" lat="42.24795" lon="12.05123">
		<comp name="--.HNE" depth="0.0">
			<acc value="0.0023512731091878" flag="0"/>
			<vel value="0.00336452660582" flag="0"/>
			<psa03 value="0.00464652395525125" flag="0"/>
			<psa10 value="0.00496938247845584" flag="0"/>
			<psa30 value="0.000857259080873971" flag="0"/>
		</comp>
		<comp name="--.HNN" depth="0.0">
			<acc value="0.0023859510468396" flag="0"/>
			<vel value="0.00278259972322" flag="0"/>
			<psa03 value="0.00436648977935166" flag="0"/>
			<psa10 value="0.00457563311324798" flag="0"/>
			<psa30 value="0.000719330360437925" flag="0"/>
		</comp>
		<comp name="--.HNZ" depth="0.0">
			<acc value="0.0020040740152464" flag="0"/>
			<vel value="0.00211974231124" flag="0"/>
			<psa03 value="0.00370856663788125" flag="0"/>
			<psa10 value="0.00256605592611059" flag="0"/>
			<psa30 value="0.0006987438925219" flag="0"/>
		</comp>
	</station>
	<station code="BRSN" name="BRSN" netid="IV" source="Italian National Seismic Network (INSN)" insttype="" lat="44.28418" lon="12.08023">
		<comp name="--.HNE" depth="0.0">
			<acc value="0.049156506505434" flag="0"/>
			<vel value="0.0235251095459" flag="0"/>
			<psa03 value="0.0455505800024181" flag="0"/>
			<psa10 value="0.0484271268093803" flag="0"/>
			<psa30 value="0.00867603974505889" flag="0"/>
		</comp>
		<comp name="--.HNN" depth="0.0">
