<stationlist xmlns:esm="https://esm-db.eu/esmws/shakemap/1/" created="1783734850">
	<station code="JRDA" name="JRDA" netid="CR" source="Croatian Seismograph Network (CSN)" insttype="" lat="44.979071" lon="14.734496" esm:processing="automatic (Paolucci et al 2011)" esm:quality="best">
		<comp name="--.HNE" depth="0.0">
			<acc value="0.015516208892613" flag="0"/>
			<vel value="0.0133500721507739" flag="0"/>
			<psa03 value="0.0376107779877893" flag="0"/>
			<psa10 value="0.0117384773039976" flag="0"/>
			<psa30 value="0.000863019410385914" flag="0"/>
		</comp>
		<comp name="--.HNN" depth="0.0">
			<acc value="0.0183883743682181" flag="0"/>
			<vel value="0.00958525189393755" flag="0"/>
			<psa03 value="0.0461643081588864" flag="0"/>
			<psa10 value="0.014642815952209" flag="0"/>
			<psa30 value="0.000947147952235658" flag="0"/>
		</comp>
		<comp name="--.HNZ" depth="0.0">
			<acc value="0.0105400429592537" flag="0"/>
			<vel value="0.00846281500960285" flag="0"/>
			<psa03 value="0.0256730522762112" flag="0"/>
			<psa10 value="0.0104237161450558" flag="0"/>
			<psa30 value="0.00139468478685391" flag="0"/>
		</comp>
	</station>
	<station code="MK01" name="MK01" netid="CR" source="Croatian Seismograph Network (CSN)" insttype="" lat="44.033987" lon="15.609901" esm:processing="automatic (Paolucci et al 2011)" esm:quality="best">
		<comp name="--.HNE" depth="0.0">
			<acc value="0.0353151933206183" flag="0"/>
			<vel value="0.0194666315204432" flag="0"/>
			<psa03 value="0.134145761498302" flag="0"/>
			<psa10 value="0.00942942121536428" flag="0"/>
			<psa30 value="0.00075348861283896" flag="0"/>
		</comp>
		<comp name="--.HNN" depth="0.0">
			<acc value="0.0303578184362501" flag="0"/>
			<vel value="0.0183914918783763" flag="0"/>
			<psa03 value="0.0811457817598748" flag="0"/>
			<psa10 value="0.01323657217043" flag="0"/>
			<psa30 value="0.00137482482539923" flag="0"/>
		</comp>
		<comp name="--.HNZ" depth="0.0">
			<acc value="0.0135659099389396" flag="0"/>
			<vel value="0.00881807560424126" flag="0"/>
			<psa03 value="0.0536843323651468" flag="0"/>
			<psa10 value="0.00655800318552012" flag="0"/>
			<psa30 value="0.000740563016997427" flag="0"/>
		</comp>
	</station>
	<station code="MK02" name="MK02" netid="CR" source="Croatian Seismograph Network (CSN)" insttype="" lat="44.115808" lon="15.224273" esm:processing="automatic (Paolucci et al 2011)" esm:quality="good">
		<comp name="--.HNE" depth="0.0">
			<acc value="0.0187167531006028" flag="0"/>
			<vel value="0.0098648116470012" flag="0"/>
			<psa03 value="0.0502119565038007" flag="0"/>
			<psa10 value="0.00788928512641561" flag="0"/>
			<psa30 value="0.000518551643168846" flag="0"/>
		</comp>
		<comp name="--.HNN" depth="0.0">
			<acc value="0.0504450141429504" flag="0"/>
			<vel value="0.0357295695747273" flag="0"/>
			<psa03 value="0.126867508516387" flag="0"/>
			<psa10 value="0.0182016151426816" flag="0"/>
			<psa30 value="0.00206100236462557" flag="0"/>
		</comp>
		<comp name="--.HNZ" depth="0.0">
			<acc value="0.0224849766272306" flag="0"/>
			<vel value="0.0159351561102792" flag="0"/>
			<psa03 value="0.0735736499350539" flag="0"/>
			<psa10 value="0.00712088078591492" flag="0"/>
			<psa30 value="0.000666790942460949" flag="0"/>
		</comp>
	</station>
	<station code="MK06" name="MK06" netid="CR" source="Croatian Seismograph Network (CSN)" insttype="" lat="44.20035" lon="15.68177" esm:processing="automatic (Paolucci et al 2011)" esm:quality="best">
		<comp name="--.HNE" depth="0.0">
			<acc value="0.0286074649007474" flag="0"/>
			<vel value="0.0146502792129812" flag="0"/>
			<psa03 value="0.084377131237391" flag="0"/>
			<psa10 value="0.00883973027624902" flag="0"/>
			<psa30 value="0.000642091597916831" flag="0"/>
		</comp>
		<comp name="--.HNN" depth="0.0">
			<acc value="0.0438042378147828" flag="0"/>
			<vel value="0.0182415987202606" flag="0"/>
			<psa03 value="0.1436936544159" flag="0"/>
			<psa10 value="0.0177515047000706" flag="0"/>
			<psa30 value="0.00124286441700292" flag="0"/>
		</comp>
		<comp name="--.HNZ" depth="0.0">
			<acc value="0.0209273679795922" flag="0"/>
			<vel value="0.0105700449302684" flag="0"/>
			<psa03 value="0.0699094176143457" flag="0"/>
			<psa10 value="0.00737209399004654" flag="0"/>
			<psa30 value="0.000866966338514176" flag="0"/>
		</comp>
	</station>
	<station code="MK14" name="MK14" netid="CR" source="Croatian Seismograph Network (CSN)" insttype="" lat="44.873001" lon="13.849577" esm:processing="automatic (Paolucci et al 2011)" esm:quality="best">
		<comp name="--.HNE" depth="0.0">
			<acc value="0.0189457041505425" flag="0"/>
			<vel value="0.0152329040800177" flag="0"/>
			<psa03 value="0.0437414393223395" flag="0"/>
			<psa10 value="0.0196825563727549" flag="0"/>
			<psa30 value="0.00200519866790565" flag="0"/>
		</comp>
		<comp name="--.HNN" depth="0.0">
			<acc value="0.0216944031462834" flag="0"/>
			<vel value="0.00934369213168018" flag="0"/>
			<psa03 value="0.0310775300880211" flag="0"/>
			<psa10 value="0.0100904193782584" flag="0"/>
			<psa30 value="0.00111099245196266" flag="0"/>
		</comp>
		<comp name="--.HNZ" depth="0.0">
			<acc value="0.0118119514897169" flag="0"/>
			<vel value="0.00877831111267206" flag="0"/>
			<psa03 value="0.0303749575043521" flag="0"/>
			<psa10 value="0.010611931738401" flag="0"/>
			<psa30 value="0.00121333819019872" flag="0"/>
		</comp>
	</station>
	<station code="MK16" name="MK16" netid="CR" source="Croatian Seismograph Network (CSN)" insttype="" lat="45.24038" lon="13.930621" esm:processing="automatic (Paolucci et al 2011)" esm:quality="best">
		<comp name="--.HNE" depth="0.0">
			<acc value="0.0182639721057249" flag="0"/>
			<vel value="0.010957456980672" flag="0"/>
			<psa03 value="0.0310641880583375" flag="0"/>
			<psa10 value="0.0153897754346023" flag="0"/>
			<psa30 value="0.00106359587467547" flag="0"/>
		</comp>
		<comp name="--.HNN" depth="0.0">
			<acc value="0.0148165490888982" flag="0"/>
			<vel value="0.00737663556031288" flag="0"/>
			<psa03 value="0.0448219796527887" flag="0"/>
			<psa10 value="0.00515375969254786" flag="0"/>
			<psa30 value="0.000561545793402925" flag="0"/>
		</comp>
		<comp name="--.HNZ" depth="0.0">
			<acc value="0.013543639212112" flag="0"/>
			<vel value="0.00598997657543861" flag="0"/>
			<psa03 value="0.0231991722479819" flag="0"/>
			<psa10 value="0.00657482164340564" flag="0"/>
			<psa30 value="0.000671664859084313" flag="0"/>
		</comp>
	</station>
	<station code="MK26" name="MK26" netid="CR" source="Croatian Seismograph Network (CSN)" insttype="" lat="45.228525" lon="13.593657" esm:processing="automatic (Paolucci et al 2011)" esm:quality="best">
		<comp name="--.HNE" depth="0.0">
			<acc value="0.0142769258624165" flag="0"/>
			<vel value="0.0104634170108383" flag="0"/>
			<psa03 value="0.0178270286093991" flag="0"/>
			<psa10 value="0.017954139998653" flag="0"/>
			<psa30 value="0.00176384851297232" flag="0"/>
		</comp>
		<comp name="--.HNN" depth="0.0">
			<acc value="0.0178849099887168" flag="0"/>
			<vel value="0.00689015824882318" flag="0"/>
			<psa03 value="0.038876653512486" flag="0"/>
			<psa10 value="0.00924782387293142" flag="0"/>
			<psa30 value="0.00100815032667986" flag="0"/>
		</comp>
		<comp name="--.HNZ" depth="0.0">
			<acc value="0.0118492909333325" flag="0"/>
			<vel value="0.00653130300342861" flag="0"/>
			<psa03 value="0.0225420089224674" flag="0"/>
			<psa10 value="0.0121975920930957" flag="0"/>
			<psa30 value="0.00103013240788487" flag="0"/>
		</comp>
	</station>
	<station code="MK30" name="MK30" netid="CR" source="Croatian Seismograph Network (CSN)" insttype="" lat="45.371447" lon="14.460476" esm:processing="automatic (Paolucci et al 2011)" esm:quality="good">
		<comp name="--.HNE" depth="0.0">
			<acc value="0.0145312854869798" flag="0"/>
			<vel value="0.00705126704474936" flag="0"/>
			<psa03 value="0.0219258352914804" flag="0"/>
			<psa10 value="0.00837598486789113" flag="0"/>
			<psa30 value="0.00102479351254136" flag="0"/>
		</comp>
		<comp name="--.HNN" depth="0.0">
			<acc value="0.0245979766535073" flag="0"/>
			<vel value="0.00943767919359118" flag="0"/>
			<psa03 value="0.0714255336745593" flag="0"/>
			<psa10 value="0.00838942107045668" flag="0"/>
			<psa30 value="0.000838455595650006" flag="0"/>
		</comp>
		<comp name="--.HNZ" depth="0.0">
			<acc value="0.00633942796205087" flag="0"/>
			<vel value="0.00470281229570229" flag="0"/>
			<psa03 value="0.0222650088017094" flag="0"/>
			<psa10 value="0.00525889181328425" flag="0"/>
			<psa30 value="0.000928875700121149" flag="0"/>
		</comp>
	</station>
	<station code="ZAVI" name="ZAVI" netid="CR" source="Croatian Seismograph Network (CSN)" insttype="" lat="44.814564" lon="14.975526" esm:processing="automatic (Paolucci et al 2011)" esm:quality="best">
		<comp name="--.HNE" depth="0.0">
			<acc value="0.00169680775803619" flag="0"/>
			<vel value="0.00125330919592082" flag="0"/>
			<psa03 value="0.00457743571962578" flag="0"/>
			<psa10 value="0.00123511877368385" flag="0"/>
			<psa30 value="0.000112808866263026" flag="0"/>
		</comp>
		<comp name="--.HNN" depth="0.0">
			<acc value="0.00213778678789797" flag="0"/>
			<vel value="0.00176148376056893" flag="0"/>
			<psa03 value="0.00688145521157652" flag="0"/>
			<psa10 value="0.00269074067023836" flag="0"/>
			<psa30 value="0.000156377872287554" flag="0"/>
		</comp>
		<comp name="--.HNZ" depth="0.0">
			<acc value="0.00159387551106716" flag="0"/>
			<vel value="0.000920431846130174" flag="0"/>
			<psa03 value="0.00378736124565839" flag="0"/>
			<psa10 value="0.00132960347032925" flag="0"/>
			<psa30 value="0.000127811565847435" flag="0"/>
		</comp>
	</station>
	<station code="ANB" name="ANB" netid="IT" source="Italian Strong Motion Network (RAN)" insttype="" lat="43.5922" lon="13.5074" esm:processing="manual (Paolucci et al 2011)" esm:quality="best">
		<comp name="--.HGE" depth="0.0">
			<acc value="0.998904300245623" flag="0"/>
			<vel value="0.344486330183908" flag="0"/>
			<psa03 value="2.13842332671839" flag="0"/>
			<psa10 value="0.267584246143014" flag="0"/>
			<psa30 value="0.0152002886112086" flag="0"/>
		</comp>
		<comp name="--.HGN" depth="0.0">
			<acc value="1.05660009786364" flag="0"/>
			<vel value="0.4064382411873" flag="0"/>
			<psa03 value="1.49954933778546" flag="0"/>
			<psa10 value="0.267731345887784" flag="0"/>
			<psa30 value="0.0117601365513141" flag="0"/>
		</comp>
		<comp name="--.HGZ" depth="0.0">
			<acc value="0.416311272767742" flag="0"/>
			<vel value="0.152808324684013" flag="0"/>
			<psa03 value="1.27970785769943" flag="0"/>
			<psa10 value="0.100348352585975" flag="0"/>
			<psa30 value="0.0111284555388926" flag="0"/>
		</comp>
	</station>
	<station code="CTL" name="CTL" netid="IT" source="Italian Strong Motion Network (RAN)" insttype="" lat="43.955" lon="12.7358" esm:processing="manual (Paolucci et al 2011)" esm:quality="best">
		<comp name="--.HNE" depth="0.0">
			<acc value="0.0696876389873546" flag="0"/>
			<vel value="0.0637153481481387" flag="0"/>
			<psa03 value="0.149674404777895" flag="0"/>
			<psa10 value="0.10824319558059" flag="0"/>
			<psa30 value="0.00783633411866526" flag="0"/>
		</comp>
		<comp name="--.HNN" depth="0.0">
			<acc value="0.0759485676850621" flag="0"/>
			<vel value="0.0836504786381237" flag="0"/>
			<psa03 value="0.256217493984956" flag="0"/>
			<psa10 value="0.262148516052452" flag="0"/>
			<psa30 value="0.00821195400164332" flag="0"/>
		</comp>
		<comp name="--.HNZ" depth="0.0">
			<acc value="0.0477586548901201" flag="0"/>
			<vel value="0.026987490528714" flag="0"/>
			<psa03 value="0.0693866433998078" flag="0"/>
			<psa10 value="0.0479462437035375" flag="0"/>
			<psa30 value="0.00496153284388405" flag="0"/>
		</comp>
	</station>
	<station code="JESI" name="JESI" netid="IT" source="Italian Strong Motion Network (RAN)" insttype="" lat="43.5292" lon="13.2289" esm:processing="manual (Paolucci et al 2011)" esm:quality="best">
		<comp name="--.HNE" depth="0.0">
			<acc value="0.216418341573089" flag="0"/>
			<vel value="0.0723197408899235" flag="0"/>
			<psa03 value="0.607537371367602" flag="0"/>
			<psa10 value="0.113433921940453" flag="0"/>
			<psa30 value="0.0127490287272717" flag="0"/>
		</comp>
		<comp name="--.HNN" depth="0.0">
			<acc value="0.155165077055905" flag="0"/>
			<vel value="0.0675044241502777" flag="0"/>
			<psa03 value="0.560775356949193" flag="0"/>
			<psa10 value="0.118062096034321" flag="0"/>
			<psa30 value="0.0130787480695571" flag="0"/>
		</comp>
		<comp name="--.HNZ" depth="0.0">
			<acc value="0.0890786626174821" flag="0"/>
			<vel value="0.0450698669327849" flag="0"/>
			<psa03 value="0.22158765826174" flag="0"/>
			<psa10 value="0.0498397591395872" flag="0"/>
			<psa30 value="0.00964589149298108" flag="0"/>
		</comp>
	</station>
	<station code="MBRC" name="MBRC" netid="IT" source="Italian Strong Motion Network (RAN)" insttype="" lat="43.7917" lon="12.8584" esm:processing="manual (Paolucci et al 2011)" esm:quality="best">
		<comp name="--.HNE" depth="0.0">
			<acc value="0.124529156330453" flag="0"/>
			<vel value="0.0482061522898451" flag="0"/>
			<psa03 value="0.214748996900572" flag="0"/>
			<psa10 value="0.0492797982948632" flag="0"/>
			<psa30 value="0.00536853980609745" flag="0"/>
		</comp>
		<comp name="--.HNN" depth="0.0">
			<acc value="0.186284550691079" flag="0"/>
			<vel value="0.0596811098957018" flag="0"/>
			<psa03 value="0.506595309453845" flag="0"/>
			<psa10 value="0.0645538363747157" flag="0"/>
			<psa30 value="0.00621351703166773" flag="0"/>
		</comp>
		<comp name="--.HNZ" depth="0.0">
			<acc value="0.128600227594934" flag="0"/>
			<vel value="0.0470322933101795" flag="0"/>
			<psa03 value="0.259611593827407" flag="0"/>
			<psa10 value="0.0400982825644331" flag="0"/>
			<psa30 value="0.00597061177372472" flag="0"/>
		</comp>
	</station>
	<station code="MODF" name="MODF" netid="IT" source="Italian Strong Motion Network (RAN)" insttype="" lat="43.7645" lon="13.1347" esm:processing="manual (Paolucci et al 2011)" esm:quality="best">
		<comp name="--.HNE" depth="0.0">
			<acc value="0.473196634040166" flag="0"/>
			<vel value="0.206596561024052" flag="0"/>
			<psa03 value="0.90788330947964" flag="0"/>
			<psa10 value="0.250658264879911" flag="0"/>
			<psa30 value="0.0348900046248956" flag="0"/>
		</comp>
		<comp name="--.HNN" depth="0.0">
			<acc value="0.355015404334055" flag="0"/>
			<vel value="0.202871508425104" flag="0"/>
			<psa03 value="0.951406609353106" flag="0"/>
			<psa10 value="0.241032892246284" flag="0"/>
			<psa30 value="0.0230099359619924" flag="0"/>
		</comp>
		<comp name="--.HNZ" depth="0.0">
			<acc value="0.23892441020848" flag="0"/>
			<vel value="0.150694547301918" flag="0"/>
			<psa03 value="0.55506556203705" flag="0"/>
			<psa10 value="0.157103367327018" flag="0"/>
			<psa30 value="0.0245718344300953" flag="0"/>
		</comp>
	</station>
	<station code="MOMC" name="MOMC" netid="IT" source="Italian Strong Motion Network (RAN)" insttype="" lat="43.6402" lon="13.3109" esm:processing="manual (Paolucci et al 2011)" esm:quality="best">
		<comp name="--.HNE" depth="0.0">
			<acc value="0.360049106601162" flag="0"/>
			<vel value="0.161292019428853" flag="0"/>
			<psa03 value="0.797919774934323" flag="0"/>
			<psa10 value="0.174630993446138" flag="0"/>
			<psa30 value="0.0131007603610848" flag="0"/>
		</comp>
		<comp name="--.HNN" depth="0.0">
			<acc value="0.426139398944363" flag="0"/>
			<vel value="0.159459770452103" flag="0"/>
			<psa03 value="0.820219085489316" flag="0"/>
			<psa10 value="0.157127518927021" flag="0"/>
			<psa30 value="0.0127296649444903" flag="0"/>
		</comp>
		<comp name="--.HNZ" depth="0.0">
			<acc value="0.269979917617415" flag="0"/>
			<vel value="0.0861384524334206" flag="0"/>
			<psa03 value="0.496892083328065" flag="0"/>
			<psa10 value="0.0992497323075447" flag="0"/>
			<psa30 value="0.00928853698664528" flag="0"/>
		</comp>
	</station>
	<station code="OSTR" name="OSTR" netid="IT" source="Italian Strong Motion Network (RAN)" insttype="" lat="43.6323" lon="13.1454" esm:processing="manual (Paolucci et al 2011)" esm:quality="best">
		<comp name="--.HNE" depth="0.0">
			<acc value="0.192760184864015" flag="0"/>
			<vel value="0.103230145022208" flag="0"/>
			<psa03 value="0.358240898368248" flag="0"/>
			<psa10 value="0.179472279157504" flag="0"/>
			<psa30 value="0.0160341871862021" flag="0"/>
		</comp>
		<comp name="--.HNN" depth="0.0">
			<acc value="0.181159431031338" flag="0"/>
			<vel value="0.165111730416348" flag="0"/>
			<psa03 value="0.555033643255569" flag="0"/>
			<psa10 value="0.228326990542487" flag="0"/>
			<psa30 value="0.0208029230915543" flag="0"/>
		</comp>
		<comp name="--.HNZ" depth="0.0">
			<acc value="0.0982543255334439" flag="0"/>
			<vel value="0.0646278394919577" flag="0"/>
			<psa03 value="0.198310324585917" flag="0"/>
			<psa10 value="0.0642806232757125" flag="0"/>
			<psa30 value="0.0167182074992202" flag="0"/>
		</comp>
	</station>
	<station code="PESR" name="PESR" netid="IT" source="Italian Strong Motion Network (RAN)" insttype="" lat="43.8942" lon="12.8763" esm:processing="manual (Paolucci et al 2011)" esm:quality="best">
		<comp name="--.HNE" depth="0.0">
			<acc value="0.20663569108002" flag="0"/>
			<vel value="0.0928366623677724" flag="0"/>
			<psa03 value="0.532348140451532" flag="0"/>
			<psa10 value="0.0662705350977192" flag="0"/>
			<psa30 value="0.00692117224370087" flag="0"/>
		</comp>
		<comp name="--.HNN" depth="0.0">
			<acc value="0.279585152744708" flag="0"/>
			<vel value="0.109393873940636" flag="0"/>
			<psa03 value="0.844955140799202" flag="0"/>
			<psa10 value="0.0693847714004241" flag="0"/>
			<psa30 value="0.00531498834189867" flag="0"/>
		</comp>
		<comp name="--.HNZ" depth="0.0">
			<acc value="0.100150789786293" flag="0"/>
			<vel value="0.0381502345068842" flag="0"/>
			<psa03 value="0.203465666101928" flag="0"/>
			<psa10 value="0.0531147310904493" flag="0"/>
			<psa30 value="0.00552348090351379" flag="0"/>
		</comp>
	</station>
	<station code="SNG" name="SNG" netid="IT" source="Italian Strong Motion Network (RAN)" insttype="" lat="43.6855" lon="13.2261" esm:processing="manual (Paolucci et al 2011)" esm:quality="good">
		<comp name="--.HGE" depth="0.0">
			<acc value="1.00170054843148" flag="0"/>
			<vel value="0.482932131567065" flag="0"/>
			<psa03 value="3.20370622981539" flag="0"/>
			<psa10 value="0.565204502026193" flag="0"/>
			<psa30 value="0.0224456635817307" flag="0"/>
		</comp>
		<comp name="--.HGN" depth="0.0">
			<acc value="1.33463404240284" flag="0"/>
			<vel value="0.436606270230658" flag="0"/>
			<psa03 value="2.69762487107334" flag="0"/>
			<psa10 value="0.480039930288972" flag="0"/>
			<psa30 value="0.0357369073947275" flag="0"/>
		</comp>
		<comp name="--.HGZ" depth="0.0">
			<acc value="0.605642414553316" flag="0"/>
			<vel value="0.22570434849064" flag="0"/>
			<psa03 value="1.54912662203563" flag="0"/>
			<psa10 value="0.146169533014159" flag="0"/>
			<psa30 value="0.0180395116958054" flag="0"/>
		</comp>
	</station>
	<station code="SRL" name="SRL" netid="IT" source="Italian Strong Motion Network (RAN)" insttype="" lat="43.5179" lon="13.6193" esm:processing="manual (Paolucci et al 2011)" esm:quality="good">
		<comp name="--.HGE" depth="0.0">
			<acc value="0.182559126384268" flag="0"/>
			<vel value="0.0750413796588178" flag="0"/>
			<psa03 value="0.292850816596067" flag="0"/>
			<psa10 value="0.0865004177279524" flag="0"/>
			<psa30 value="0.004359139188243" flag="0"/>
		</comp>
		<comp name="--.HGN" depth="0.0">
			<acc value="0.268011369887785" flag="0"/>
			<vel value="0.07040890110704" flag="0"/>
			<psa03 value="0.298305761292585" flag="0"/>
			<psa10 value="0.053546208423394" flag="0"/>
			<psa30 value="0.0039638955052885" flag="0"/>
		</comp>
		<comp name="--.HGZ" depth="0.0">
			<acc value="0.0669449135510327" flag="0"/>
			<vel value="0.0280051651028521" flag="0"/>
			<psa03 value="0.120480700004987" flag="0"/>
			<psa10 value="0.024140047284649" flag="0"/>
