<?xml version="1.0" encoding="UTF-8" standalone="yes"?>
<!DOCTYPE earthquake SYSTEM "stationlist.dtd">
<stationlist created="" xmlns="ch.ethz.sed.shakemap.usgs.xml">
  <station code="AOI" name="AOI" netid="IV" insttype="" commtype="DIG" lat="43.5502" lon="13.602">
    <comp name="--.HHE">
      <acc value="0.0565253715" flag="0"/>
      <vel value="0.0225000940" flag="0"/>
      <psa03 value="0.1243958101" flag="0"/>
      <psa10 value="0.0206610792" flag="0"/>
      <psa30 value="0.0025210721" flag="0"/>
    </comp>
    <comp name="--.HHN">
      <acc value="0.0841046591" flag="0"/>
      <vel value="0.0276374030" flag="0"/>
      <psa03 value="0.1096134496" flag="0"/>
      <psa10 value="0.0310194362" flag="0"/>
      <psa30 value="0.0022094978" flag="0"/>
    </comp>
    <comp name="--.HHZ">
      <acc value="0.0380706750" flag="0"/>
      <vel value="0.0195958249" flag="0"/>
      <psa03 value="0.0887797844" flag="0"/>
      <psa10 value="0.0181676778" flag="0"/>
      <psa30 value="0.0025819719" flag="0"/>
    </comp>
  </station>
  <station code="APEC" name="APEC" netid="IV" insttype="" commtype="DIG" lat="43.5585" lon="12.4199">
    <comp name="--.HHE">
      <acc value="0.0258884654" flag="0"/>
      <vel value="0.0129281893" flag="0"/>
      <psa03 value="0.0870677192" flag="0"/>
      <psa10 value="0.0099997884" flag="0"/>
      <psa30 value="0.0011891934" flag="0"/>
    </comp>
    <comp name="--.HHN">
      <acc value="0.0363119083" flag="0"/>
      <vel value="0.0177465859" flag="0"/>
      <psa03 value="0.0972526072" flag="0"/>
      <psa10 value="0.0158571724" flag="0"/>
      <psa30 value="0.0011344910" flag="0"/>
    </comp>
    <comp name="--.HHZ">
      <acc value="0.0200971897" flag="0"/>
      <vel value="0.0120733369" flag="0"/>
      <psa03 value="0.0734452618" flag="0"/>
      <psa10 value="0.0094310828" flag="0"/>
      <psa30 value="0.0010518527" flag="0"/>
    </comp>
  </station>
  <station code="ARVD" name="ARVD" netid="IV" insttype="" commtype="DIG" lat="43.4981" lon="12.9415">
    <comp name="--.HHN">
      <acc value="0.0303158669" flag="0"/>
      <vel value="0.0123017505" flag="0"/>
      <psa03 value="0.0589675123" flag="0"/>
      <psa10 value="0.0126107249" flag="0"/>
      <psa30 value="0.0026320444" flag="0"/>
    </comp>
    <comp name="--.HHZ">
      <acc value="0.0294751349" flag="0"/>
      <vel value="0.0133034149" flag="0"/>
      <psa03 value="0.0586460837" flag="0"/>
      <psa10 value="0.0186714320" flag="0"/>
      <psa30 value="0.0030435316" flag="0"/>
    </comp>
    <comp name="--.HHE">
      <acc value="0.0260869205" flag="0"/>
      <vel value="0.0144760104" flag="0"/>
      <psa03 value="0.0552310958" flag="0"/>
      <psa10 value="0.0122387585" flag="0"/>
      <psa30 value="0.0027659708" flag="0"/>
    </comp>
  </station>
  <station code="ASSB" name="ASSB" netid="IV" insttype="" commtype="DIG" lat="43.0426" lon="12.6587">
    <comp name="--.HHE">
      <acc value="0.0333440409" flag="0"/>
      <vel value="0.0221601434" flag="0"/>
      <psa03 value="0.1031945416" flag="0"/>
      <psa10 value="0.0181146645" flag="0"/>
      <psa30 value="0.0013591933" flag="0"/>
    </comp>
    <comp name="--.HHN">
      <acc value="0.0222795572" flag="0"/>
      <vel value="0.0156843664" flag="0"/>
      <psa03 value="0.1097931654" flag="0"/>
      <psa10 value="0.0175135406" flag="0"/>
      <psa30 value="0.0012197021" flag="0"/>
    </comp>
    <comp name="--.HHZ">
      <acc value="0.0158630495" flag="0"/>
      <vel value="0.0088668547" flag="0"/>
      <psa03 value="0.0405799670" flag="0"/>
      <psa10 value="0.0105902987" flag="0"/>
      <psa30 value="0.0011355360" flag="0"/>
    </comp>
  </station>
  <station code="ATBU" name="ATBU" netid="IV" insttype="" commtype="DIG" lat="43.4757" lon="12.5483">
    <comp name="--.HNE">
      <acc value="0.0485346550" flag="0"/>
      <vel value="0.0264149821" flag="0"/>
      <psa03 value="0.1632953937" flag="0"/>
      <psa10 value="0.0431123966" flag="0"/>
      <psa30 value="0.0020234057" flag="0"/>
    </comp>
    <comp name="--.HNZ">
      <acc value="0.0187232534" flag="0"/>
      <vel value="0.0133623443" flag="0"/>
      <psa03 value="0.0863315102" flag="0"/>
      <psa10 value="0.0129126975" flag="0"/>
      <psa30 value="0.0017311683" flag="0"/>
    </comp>
    <comp name="--.HNN">
      <acc value="0.0447757583" flag="0"/>
      <vel value="0.0396999413" flag="0"/>
      <psa03 value="0.2048660120" flag="0"/>
      <psa10 value="0.0381409377" flag="0"/>
      <psa30 value="0.0021612482" flag="0"/>
    </comp>
  </station>
  <station code="ATCC" name="ATCC" netid="IV" insttype="" commtype="DIG" lat="43.1851" lon="12.6399">
    <comp name="--.HNN">
      <acc value="0.0279878255" flag="0"/>
      <vel value="0.0162250287" flag="0"/>
      <psa03 value="0.0823921961" flag="0"/>
      <psa10 value="0.0227223716" flag="0"/>
      <psa30 value="0.0021702344" flag="0"/>
    </comp>
    <comp name="--.HNE">
      <acc value="0.0362597800" flag="0"/>
      <vel value="0.0212658310" flag="0"/>
      <psa03 value="0.0707847769" flag="0"/>
      <psa10 value="0.0444016337" flag="0"/>
      <psa30 value="0.0034934376" flag="0"/>
    </comp>
    <comp name="--.HNZ">
      <acc value="0.0210240803" flag="0"/>
      <vel value="0.0099783068" flag="0"/>
      <psa03 value="0.0534226013" flag="0"/>
      <psa10 value="0.0255394658" flag="0"/>
      <psa30 value="0.0020371668" flag="0"/>
    </comp>
  </station>
  <station code="ATFO" name="ATFO" netid="IV" insttype="" commtype="DIG" lat="43.3666" lon="12.5715">
    <comp name="--.HHE">
      <acc value="0.0252665180" flag="0"/>
      <vel value="0.0157494082" flag="0"/>
      <psa03 value="0.1147641258" flag="0"/>
      <psa10 value="0.0297932496" flag="0"/>
      <psa30 value="0.0016877067" flag="0"/>
    </comp>
    <comp name="--.HHZ">
      <acc value="0.0142407764" flag="0"/>
      <vel value="0.0073731341" flag="0"/>
      <psa03 value="0.0378715570" flag="0"/>
      <psa10 value="0.0109777449" flag="0"/>
      <psa30 value="0.0010534797" flag="0"/>
    </comp>
    <comp name="--.HHN">
      <acc value="0.0334220487" flag="0"/>
      <vel value="0.0181206785" flag="0"/>
      <psa03 value="0.1717465167" flag="0"/>
      <psa10 value="0.0202613845" flag="0"/>
      <psa30 value="0.0016208361" flag="0"/>
    </comp>
  </station>
  <station code="ATLO" name="ATLO" netid="IV" insttype="" commtype="DIG" lat="43.3152" lon="12.4073">
    <comp name="--.HNE">
      <acc value="0.0158710569" flag="0"/>
      <vel value="0.0095947790" flag="0"/>
      <psa03 value="0.0690151200" flag="0"/>
      <psa10 value="0.0099435722" flag="0"/>
      <psa30 value="0.0012988357" flag="0"/>
    </comp>
    <comp name="--.HNN">
      <acc value="0.0146754530" flag="0"/>
      <vel value="0.0086877355" flag="0"/>
      <psa03 value="0.0605499895" flag="0"/>
      <psa10 value="0.0132895730" flag="0"/>
      <psa30 value="0.0009870701" flag="0"/>
    </comp>
    <comp name="--.HNZ">
      <acc value="0.0023512227" flag="0"/>
      <vel value="0.0013157102" flag="0"/>
      <psa03 value="0.0069686815" flag="0"/>
      <psa10 value="0.0019502301" flag="0"/>
      <psa30 value="0.0001857836" flag="0"/>
    </comp>
  </station>
  <station code="ATMI" name="ATMI" netid="IV" insttype="" commtype="DIG" lat="43.3342" lon="12.268">
    <comp name="--.HHN">
      <acc value="0.0165841890" flag="0"/>
      <vel value="0.0162660263" flag="0"/>
      <psa03 value="0.0569265092" flag="0"/>
      <psa10 value="0.0264291184" flag="0"/>
      <psa30 value="0.0016069847" flag="0"/>
    </comp>
    <comp name="--.HHE">
      <acc value="0.0209121163" flag="0"/>
      <vel value="0.0163004764" flag="0"/>
      <psa03 value="0.0794838385" flag="0"/>
      <psa10 value="0.0343294902" flag="0"/>
      <psa30 value="0.0011749081" flag="0"/>
    </comp>
    <comp name="--.HHZ">
      <acc value="0.0102845189" flag="0"/>
      <vel value="0.0063115979" flag="0"/>
      <psa03 value="0.0365530745" flag="0"/>
      <psa10 value="0.0116194227" flag="0"/>
      <psa30 value="0.0010100502" flag="0"/>
    </comp>
  </station>
  <station code="ATPC" name="ATPC" netid="IV" insttype="" commtype="DIG" lat="43.4807" lon="12.457">
    <comp name="--.HHE">
      <acc value="0.0289131524" flag="0"/>
      <vel value="0.0207849174" flag="0"/>
      <psa03 value="0.0902985896" flag="0"/>
      <psa10 value="0.0338781106" flag="0"/>
      <psa30 value="0.0013753960" flag="0"/>
    </comp>
    <comp name="--.HHZ">
      <acc value="0.0135851611" flag="0"/>
      <vel value="0.0097749095" flag="0"/>
      <psa03 value="0.0432054630" flag="0"/>
      <psa10 value="0.0118801700" flag="0"/>
      <psa30 value="0.0007628691" flag="0"/>
    </comp>
    <comp name="--.HHN">
      <acc value="0.0282275930" flag="0"/>
      <vel value="0.0185992625" flag="0"/>
      <psa03 value="0.0789728810" flag="0"/>
      <psa10 value="0.0307808194" flag="0"/>
      <psa30 value="0.0014373781" flag="0"/>
    </comp>
  </station>
  <station code="ATPI" name="ATPI" netid="IV" insttype="" commtype="DIG" lat="43.4507" lon="12.4022">
    <comp name="--.HNN">
      <acc value="0.0149466168" flag="0"/>
      <vel value="0.0084573188" flag="0"/>
      <psa03 value="0.0486844506" flag="0"/>
      <psa10 value="0.0166188049" flag="0"/>
      <psa30 value="0.0010889261" flag="0"/>
    </comp>
    <comp name="--.HNE">
      <acc value="0.0124499148" flag="0"/>
      <vel value="0.0081134688" flag="0"/>
      <psa03 value="0.0439317924" flag="0"/>
      <psa10 value="0.0162156949" flag="0"/>
      <psa30 value="0.0009917734" flag="0"/>
    </comp>
    <comp name="--.HNZ">
      <acc value="0.0094447954" flag="0"/>
      <vel value="0.0074843938" flag="0"/>
      <psa03 value="0.0237089842" flag="0"/>
      <psa10 value="0.0131456913" flag="0"/>
      <psa30 value="0.0008045436" flag="0"/>
    </comp>
  </station>
  <station code="ATVO" name="ATVO" netid="IV" insttype="" commtype="DIG" lat="43.3821" lon="12.4066">
    <comp name="--.HHE">
      <acc value="0.0161528000" flag="0"/>
      <vel value="0.0116379173" flag="0"/>
      <psa03 value="0.0512313711" flag="0"/>
      <psa10 value="0.0173800727" flag="0"/>
      <psa30 value="0.0008752833" flag="0"/>
    </comp>
    <comp name="--.HHN">
      <acc value="0.0160400738" flag="0"/>
      <vel value="0.0091603809" flag="0"/>
      <psa03 value="0.0595911246" flag="0"/>
      <psa10 value="0.0162238597" flag="0"/>
      <psa30 value="0.0010267045" flag="0"/>
    </comp>
    <comp name="--.HHZ">
      <acc value="0.0076421879" flag="0"/>
      <vel value="0.0056288034" flag="0"/>
      <psa03 value="0.0281775591" flag="0"/>
      <psa10 value="0.0104550447" flag="0"/>
      <psa30 value="0.0007247309" flag="0"/>
    </comp>
  </station>
  <station code="CAFI" name="CAFI" netid="IV" insttype="" commtype="DIG" lat="43.3292" lon="11.9663">
    <comp name="--.HHE">
      <acc value="0.0060426245" flag="0"/>
      <vel value="0.0084416258" flag="0"/>
      <psa03 value="0.0150562186" flag="0"/>
      <psa10 value="0.0115081744" flag="0"/>
      <psa30 value="0.0018150388" flag="0"/>
    </comp>
    <comp name="--.HHN">
      <acc value="0.0075993531" flag="0"/>
      <vel value="0.0063836746" flag="0"/>
      <psa03 value="0.0180000108" flag="0"/>
      <psa10 value="0.0161891832" flag="0"/>
      <psa30 value="0.0017869138" flag="0"/>
    </comp>
    <comp name="--.HHZ">
      <acc value="0.0080549205" flag="0"/>
      <vel value="0.0073231225" flag="0"/>
      <psa03 value="0.0160087183" flag="0"/>
      <psa10 value="0.0086711292" flag="0"/>
      <psa30 value="0.0011619068" flag="0"/>
    </comp>
  </station>
  <station code="CESI" name="CESI" netid="IV" insttype="" commtype="DIG" lat="43.0049" lon="12.9046">
    <comp name="--.HHN">
      <acc value="0.0358597667" flag="0"/>
      <vel value="0.0230395822" flag="0"/>
      <psa03 value="0.1399305269" flag="0"/>
      <psa10 value="0.0177560438" flag="0"/>
      <psa30 value="0.0010495635" flag="0"/>
    </comp>
    <comp name="--.HHZ">
      <acc value="0.0143269623" flag="0"/>
      <vel value="0.0093861006" flag="0"/>
      <psa03 value="0.0594754623" flag="0"/>
      <psa10 value="0.0144252279" flag="0"/>
      <psa30 value="0.0011389690" flag="0"/>
    </comp>
    <comp name="--.HHE">
      <acc value="0.0216795470" flag="0"/>
      <vel value="0.0144888785" flag="0"/>
      <psa03 value="0.0832836220" flag="0"/>
      <psa10 value="0.0217623031" flag="0"/>
      <psa30 value="0.0014718231" flag="0"/>
    </comp>
  </station>
  <station code="CING" name="CING" netid="IV" insttype="" commtype="DIG" lat="43.3756" lon="13.1954">
    <comp name="--.HHE">
      <acc value="0.0419736173" flag="0"/>
      <vel value="0.0133299851" flag="0"/>
      <psa03 value="0.0727626659" flag="0"/>
      <psa10 value="0.0182526103" flag="0"/>
      <psa30 value="0.0025476606" flag="0"/>
    </comp>
    <comp name="--.HHN">
      <acc value="0.0278270744" flag="0"/>
      <vel value="0.0123757768" flag="0"/>
      <psa03 value="0.0582732337" flag="0"/>
      <psa10 value="0.0134939404" flag="0"/>
      <psa30 value="0.0026759880" flag="0"/>
    </comp>
    <comp name="--.HHZ">
      <acc value="0.0200712627" flag="0"/>
      <vel value="0.0111733707" flag="0"/>
      <psa03 value="0.0631415052" flag="0"/>
      <psa10 value="0.0125402260" flag="0"/>
      <psa30 value="0.0022504810" flag="0"/>
    </comp>
  </station>
  <station code="COR1" name="COR1" netid="IV" insttype="" commtype="DIG" lat="43.6318" lon="13.0003">
    <comp name="--.HNN">
      <acc value="0.2371667097" flag="0"/>
      <vel value="0.0860543380" flag="0"/>
      <psa03 value="0.5001760309" flag="0"/>
      <psa10 value="0.1398232749" flag="0"/>
      <psa30 value="0.0168865947" flag="0"/>
    </comp>
    <comp name="--.HNE">
      <acc value="0.1511255735" flag="0"/>
      <vel value="0.0703127546" flag="0"/>
      <psa03 value="0.4722652429" flag="0"/>
      <psa10 value="0.1562443568" flag="0"/>
      <psa30 value="0.0228287290" flag="0"/>
    </comp>
    <comp name="--.HNZ">
      <acc value="0.1345487694" flag="0"/>
      <vel value="0.0472592402" flag="0"/>
      <psa03 value="0.2564800870" flag="0"/>
      <psa10 value="0.0719391698" flag="0"/>
      <psa30 value="0.0243732179" flag="0"/>
    </comp>
  </station>
  <station code="CRE" name="CRE" netid="IV" insttype="" commtype="DIG" lat="43.6189" lon="11.9517">
    <comp name="--.HHE">
      <acc value="0.0061360121" flag="0"/>
      <vel value="0.0086731556" flag="0"/>
      <psa03 value="0.0126062592" flag="0"/>
      <psa10 value="0.0113719392" flag="0"/>
      <psa30 value="0.0018413089" flag="0"/>
    </comp>
    <comp name="--.HHN">
      <acc value="0.0085149768" flag="0"/>
      <vel value="0.0081768288" flag="0"/>
      <psa03 value="0.0176631951" flag="0"/>
      <psa10 value="0.0135162244" flag="0"/>
      <psa30 value="0.0017243418" flag="0"/>
    </comp>
    <comp name="--.HHZ">
      <acc value="0.0070794785" flag="0"/>
      <vel value="0.0045917324" flag="0"/>
      <psa03 value="0.0136503762" flag="0"/>
      <psa10 value="0.0072017740" flag="0"/>
      <psa30 value="0.0007711074" flag="0"/>
    </comp>
  </station>
  <station code="CRTC" name="CRTC" netid="IV" insttype="" commtype="DIG" lat="43.7685" lon="12.883">
    <comp name="--.HHE">
      <acc value="0.1017077378" flag="0"/>
      <vel value="0.0634420846" flag="0"/>
      <psa03 value="0.3746764165" flag="0"/>
      <psa10 value="0.0642222145" flag="0"/>
      <psa30 value="0.0081798610" flag="0"/>
    </comp>
    <comp name="--.HHZ">
      <acc value="0.0769882717" flag="0"/>
      <vel value="0.0429063792" flag="0"/>
      <psa03 value="0.2822490177" flag="0"/>
      <psa10 value="0.0697605327" flag="0"/>
      <psa30 value="0.0079469542" flag="0"/>
    </comp>
    <comp name="--.HHN">
      <acc value="0.0896950951" flag="0"/>
      <vel value="0.0492271584" flag="0"/>
      <psa03 value="0.2545492344" flag="0"/>
      <psa10 value="0.0959751402" flag="0"/>
      <psa30 value="0.0067373097" flag="0"/>
    </comp>
  </station>
  <station code="FANO" name="FANO" netid="IV" insttype="" commtype="DIG" lat="43.8435" lon="13.0184">
    <comp name="--.HNE">
      <acc value="0.1903284063" flag="0"/>
      <vel value="0.1340861413" flag="0"/>
      <psa03 value="0.4782022006" flag="0"/>
      <psa10 value="0.1995838833" flag="0"/>
      <psa30 value="0.0109831846" flag="0"/>
    </comp>
    <comp name="--.HNN">
      <acc value="0.2297521873" flag="0"/>
      <vel value="0.1713365140" flag="0"/>
      <psa03 value="0.4884245769" flag="0"/>
      <psa10 value="0.3743643759" flag="0"/>
      <psa30 value="0.0242183615" flag="0"/>
    </comp>
    <comp name="--.HNZ">
      <acc value="0.1348552269" flag="0"/>
      <vel value="0.0801855753" flag="0"/>
      <psa03 value="0.2626191295" flag="0"/>
      <psa10 value="0.1051866070" flag="0"/>
      <psa30 value="0.0148801238" flag="0"/>
    </comp>
  </station>
  <station code="FDMO" name="FDMO" netid="IV" insttype="" commtype="DIG" lat="43.0365" lon="13.0873">
    <comp name="--.HHE">
      <acc value="0.0280160715" flag="0"/>
      <vel value="0.0133728082" flag="0"/>
      <psa03 value="0.0667792045" flag="0"/>
      <psa10 value="0.0115164557" flag="0"/>
      <psa30 value="0.0011345925" flag="0"/>
    </comp>
    <comp name="--.HHN">
      <acc value="0.0172899709" flag="0"/>
      <vel value="0.0072323429" flag="0"/>
      <psa03 value="0.0395875574" flag="0"/>
      <psa10 value="0.0072381876" flag="0"/>
      <psa30 value="0.0024121522" flag="0"/>
    </comp>
    <comp name="--.HHZ">
      <acc value="0.0140868792" flag="0"/>
      <vel value="0.0063441649" flag="0"/>
      <psa03 value="0.0578379012" flag="0"/>
      <psa10 value="0.0084897408" flag="0"/>
      <psa30 value="0.0020986667" flag="0"/>
    </comp>
  </station>
  <station code="FEMA" name="FEMA" netid="IV" insttype="" commtype="DIG" lat="42.9621" lon="13.0498">
    <comp name="--.HNN">
      <acc value="0.0263292709" flag="0"/>
      <vel value="0.0148056373" flag="0"/>
      <psa03 value="0.0821097229" flag="0"/>
      <psa10 value="0.0202637594" flag="0"/>
      <psa30 value="0.0018695521" flag="0"/>
    </comp>
    <comp name="--.HNE">
      <acc value="0.0282064930" flag="0"/>
      <vel value="0.0191499845" flag="0"/>
      <psa03 value="0.0861238831" flag="0"/>
      <psa10 value="0.0248006280" flag="0"/>
      <psa30 value="0.0011966525" flag="0"/>
    </comp>
    <comp name="--.HNZ">
      <acc value="0.0151857530" flag="0"/>
      <vel value="0.0086058820" flag="0"/>
      <psa03 value="0.0372648506" flag="0"/>
      <psa10 value="0.0124383964" flag="0"/>
      <psa30 value="0.0014868586" flag="0"/>
    </comp>
  </station>
  <station code="FOSV" name="FOSV" netid="IV" insttype="" commtype="DIG" lat="43.2948" lon="12.7612">
    <comp name="--.HNE">
      <acc value="0.0244012570" flag="0"/>
      <vel value="0.0161340895" flag="0"/>
      <psa03 value="0.0591524180" flag="0"/>
      <psa10 value="0.0256250419" flag="0"/>
      <psa30 value="0.0023652298" flag="0"/>
    </comp>
    <comp name="--.HNN">
      <acc value="0.0176488459" flag="0"/>
      <vel value="0.0127342773" flag="0"/>
      <psa03 value="0.0708489850" flag="0"/>
      <psa10 value="0.0188763597" flag="0"/>
      <psa30 value="0.0013842532" flag="0"/>
    </comp>
    <comp name="--.HNZ">
      <acc value="0.0148481390" flag="0"/>
      <vel value="0.0093438243" flag="0"/>
      <psa03 value="0.0460575412" flag="0"/>
      <psa10 value="0.0211753592" flag="0"/>
      <psa30 value="0.0012850456" flag="0"/>
    </comp>
  </station>
  <station code="GAVE" name="GAVE" netid="IV" insttype="" commtype="DIG" lat="42.6922" lon="12.8942">
    <comp name="--.HNE">
      <acc value="0.0228013746" flag="0"/>
      <vel value="0.0125787157" flag="0"/>
      <psa03 value="0.0747540762" flag="0"/>
