<?xml version="1.0" encoding="UTF-8" standalone="yes"?>
<!DOCTYPE earthquake SYSTEM "stationlist.dtd">
<stationlist created="" xmlns="ch.ethz.sed.shakemap.usgs.xml">
  <station code="AOI" name="AOI" netid="IV" insttype="" commtype="DIG" lat="43.5502" lon="13.602">
    <comp name="--.HHZ">
      <acc value="0.0380706750" flag="0"/>
      <vel value="0.0195958232" flag="0"/>
      <psa03 value="0.0887797844" flag="0"/>
      <psa10 value="0.0181676778" flag="0"/>
      <psa30 value="0.0025819749" flag="0"/>
    </comp>
    <comp name="--.HHE">
      <acc value="0.0565253715" flag="0"/>
      <vel value="0.0225000934" flag="0"/>
      <psa03 value="0.1243958101" flag="0"/>
      <psa10 value="0.0206610793" flag="0"/>
      <psa30 value="0.0025210952" flag="0"/>
    </comp>
    <comp name="--.HHN">
      <acc value="0.0841046591" flag="0"/>
      <vel value="0.0276374006" flag="0"/>
      <psa03 value="0.1096134496" flag="0"/>
      <psa10 value="0.0310194362" flag="0"/>
      <psa30 value="0.0022095628" flag="0"/>
    </comp>
  </station>
  <station code="APEC" name="APEC" netid="IV" insttype="" commtype="DIG" lat="43.5585" lon="12.4199">
    <comp name="--.HHE">
      <acc value="0.0258884653" flag="0"/>
      <vel value="0.0129281916" flag="0"/>
      <psa03 value="0.0870677192" flag="0"/>
      <psa10 value="0.0099997884" flag="0"/>
      <psa30 value="0.0011892304" flag="0"/>
    </comp>
    <comp name="--.HHN">
      <acc value="0.0363119083" flag="0"/>
      <vel value="0.0177465854" flag="0"/>
      <psa03 value="0.0972526072" flag="0"/>
      <psa10 value="0.0158571724" flag="0"/>
      <psa30 value="0.0011344745" flag="0"/>
    </comp>
    <comp name="--.HHZ">
      <acc value="0.0200971896" flag="0"/>
      <vel value="0.0120733369" flag="0"/>
      <psa03 value="0.0734452618" flag="0"/>
      <psa10 value="0.0094310829" flag="0"/>
      <psa30 value="0.0010518522" flag="0"/>
    </comp>
  </station>
  <station code="ARVD" name="ARVD" netid="IV" insttype="" commtype="DIG" lat="43.4981" lon="12.9415">
    <comp name="--.HHE">
      <acc value="0.0260869205" flag="0"/>
      <vel value="0.0144760086" flag="0"/>
      <psa03 value="0.0552310958" flag="0"/>
      <psa10 value="0.0122387585" flag="0"/>
      <psa30 value="0.0027659711" flag="0"/>
    </comp>
    <comp name="--.HHZ">
      <acc value="0.0294751351" flag="0"/>
      <vel value="0.0133034150" flag="0"/>
      <psa03 value="0.0586460837" flag="0"/>
      <psa10 value="0.0186714319" flag="0"/>
      <psa30 value="0.0030435270" flag="0"/>
    </comp>
    <comp name="--.HHN">
      <acc value="0.0303158669" flag="0"/>
      <vel value="0.0123017503" flag="0"/>
      <psa03 value="0.0589675123" flag="0"/>
      <psa10 value="0.0126107250" flag="0"/>
      <psa30 value="0.0026320491" flag="0"/>
    </comp>
  </station>
  <station code="ASSB" name="ASSB" netid="IV" insttype="" commtype="DIG" lat="43.0426" lon="12.6587">
    <comp name="--.HHN">
      <acc value="0.0222795572" flag="0"/>
      <vel value="0.0156843666" flag="0"/>
      <psa03 value="0.1097931654" flag="0"/>
      <psa10 value="0.0175135406" flag="0"/>
      <psa30 value="0.0012197022" flag="0"/>
    </comp>
    <comp name="--.HHZ">
      <acc value="0.0158630495" flag="0"/>
      <vel value="0.0088668546" flag="0"/>
      <psa03 value="0.0405799670" flag="0"/>
      <psa10 value="0.0105902987" flag="0"/>
      <psa30 value="0.0011355360" flag="0"/>
    </comp>
    <comp name="--.HHE">
      <acc value="0.0333440409" flag="0"/>
      <vel value="0.0221601433" flag="0"/>
      <psa03 value="0.1031945416" flag="0"/>
      <psa10 value="0.0181146645" flag="0"/>
      <psa30 value="0.0013591932" flag="0"/>
    </comp>
  </station>
  <station code="ATBU" name="ATBU" netid="IV" insttype="" commtype="DIG" lat="43.4757" lon="12.5483">
    <comp name="--.HNE">
      <acc value="0.0485346552" flag="0"/>
      <vel value="0.0264150154" flag="0"/>
      <psa03 value="0.1632953937" flag="0"/>
      <psa10 value="0.0431123965" flag="0"/>
      <psa30 value="0.0020245516" flag="0"/>
    </comp>
    <comp name="--.HNZ">
      <acc value="0.0187232515" flag="0"/>
      <vel value="0.0133623426" flag="0"/>
      <psa03 value="0.0863315102" flag="0"/>
      <psa10 value="0.0129126973" flag="0"/>
      <psa30 value="0.0017311701" flag="0"/>
    </comp>
    <comp name="--.HNN">
      <acc value="0.0447757598" flag="0"/>
      <vel value="0.0396999317" flag="0"/>
      <psa03 value="0.2048660120" flag="0"/>
      <psa10 value="0.0381409375" flag="0"/>
      <psa30 value="0.0021607459" flag="0"/>
    </comp>
  </station>
  <station code="ATCC" name="ATCC" netid="IV" insttype="" commtype="DIG" lat="43.1851" lon="12.6399">
    <comp name="--.HNN">
      <acc value="0.0279878253" flag="0"/>
      <vel value="0.0162250294" flag="0"/>
      <psa03 value="0.0823921961" flag="0"/>
      <psa10 value="0.0227223716" flag="0"/>
      <psa30 value="0.0021702295" flag="0"/>
    </comp>
    <comp name="--.HNE">
      <acc value="0.0362597799" flag="0"/>
      <vel value="0.0212658304" flag="0"/>
      <psa03 value="0.0707847769" flag="0"/>
      <psa10 value="0.0444016337" flag="0"/>
      <psa30 value="0.0034934378" flag="0"/>
    </comp>
    <comp name="--.HNZ">
      <acc value="0.0210240805" flag="0"/>
      <vel value="0.0099783052" flag="0"/>
      <psa03 value="0.0534226013" flag="0"/>
      <psa10 value="0.0255394659" flag="0"/>
      <psa30 value="0.0020372096" flag="0"/>
    </comp>
  </station>
  <station code="ATFO" name="ATFO" netid="IV" insttype="" commtype="DIG" lat="43.3666" lon="12.5715">
    <comp name="--.HHZ">
      <acc value="0.0142407764" flag="0"/>
      <vel value="0.0073731349" flag="0"/>
      <psa03 value="0.0378715570" flag="0"/>
      <psa10 value="0.0109777448" flag="0"/>
      <psa30 value="0.0010534646" flag="0"/>
    </comp>
    <comp name="--.HHE">
      <acc value="0.0252665179" flag="0"/>
      <vel value="0.0157494081" flag="0"/>
      <psa03 value="0.1147641258" flag="0"/>
      <psa10 value="0.0297932496" flag="0"/>
      <psa30 value="0.0016876903" flag="0"/>
    </comp>
    <comp name="--.HHN">
      <acc value="0.0334220487" flag="0"/>
      <vel value="0.0181206796" flag="0"/>
      <psa03 value="0.1717465167" flag="0"/>
      <psa10 value="0.0202613844" flag="0"/>
      <psa30 value="0.0016208759" flag="0"/>
    </comp>
  </station>
  <station code="ATLO" name="ATLO" netid="IV" insttype="" commtype="DIG" lat="43.3152" lon="12.4073">
    <comp name="--.HNE">
      <acc value="0.0158710565" flag="0"/>
      <vel value="0.0095947786" flag="0"/>
      <psa03 value="0.0690151200" flag="0"/>
      <psa10 value="0.0099435722" flag="0"/>
      <psa30 value="0.0012985698" flag="0"/>
    </comp>
    <comp name="--.HNN">
      <acc value="0.0146754527" flag="0"/>
      <vel value="0.0086877340" flag="0"/>
      <psa03 value="0.0605499895" flag="0"/>
      <psa10 value="0.0132895731" flag="0"/>
      <psa30 value="0.0009867966" flag="0"/>
    </comp>
    <comp name="--.HNZ">
      <acc value="0.0023512230" flag="0"/>
      <vel value="0.0013157103" flag="0"/>
      <psa03 value="0.0069686815" flag="0"/>
      <psa10 value="0.0019502307" flag="0"/>
      <psa30 value="0.0001855842" flag="0"/>
    </comp>
  </station>
  <station code="ATMI" name="ATMI" netid="IV" insttype="" commtype="DIG" lat="43.3342" lon="12.268">
    <comp name="--.HHN">
      <acc value="0.0165841890" flag="0"/>
      <vel value="0.0162660262" flag="0"/>
      <psa03 value="0.0569265092" flag="0"/>
      <psa10 value="0.0264291184" flag="0"/>
      <psa30 value="0.0016069936" flag="0"/>
    </comp>
    <comp name="--.HHZ">
      <acc value="0.0102845189" flag="0"/>
      <vel value="0.0063115962" flag="0"/>
      <psa03 value="0.0365530745" flag="0"/>
      <psa10 value="0.0116194227" flag="0"/>
      <psa30 value="0.0010100574" flag="0"/>
    </comp>
    <comp name="--.HHE">
      <acc value="0.0209121163" flag="0"/>
      <vel value="0.0163004745" flag="0"/>
      <psa03 value="0.0794838385" flag="0"/>
      <psa10 value="0.0343294902" flag="0"/>
      <psa30 value="0.0011749091" flag="0"/>
    </comp>
  </station>
  <station code="ATPC" name="ATPC" netid="IV" insttype="" commtype="DIG" lat="43.4807" lon="12.457">
    <comp name="--.HHN">
      <acc value="0.0282275931" flag="0"/>
      <vel value="0.0185992639" flag="0"/>
      <psa03 value="0.0789728810" flag="0"/>
      <psa10 value="0.0307808194" flag="0"/>
      <psa30 value="0.0014373842" flag="0"/>
    </comp>
    <comp name="--.HHZ">
      <acc value="0.0135851608" flag="0"/>
      <vel value="0.0097749101" flag="0"/>
      <psa03 value="0.0432054630" flag="0"/>
      <psa10 value="0.0118801700" flag="0"/>
      <psa30 value="0.0007628693" flag="0"/>
    </comp>
    <comp name="--.HHE">
      <acc value="0.0289131525" flag="0"/>
      <vel value="0.0207849159" flag="0"/>
      <psa03 value="0.0902985896" flag="0"/>
      <psa10 value="0.0338781107" flag="0"/>
      <psa30 value="0.0013754801" flag="0"/>
    </comp>
  </station>
  <station code="ATPI" name="ATPI" netid="IV" insttype="" commtype="DIG" lat="43.4507" lon="12.4022">
    <comp name="--.HNZ">
      <acc value="0.0094447956" flag="0"/>
      <vel value="0.0074843955" flag="0"/>
      <psa03 value="0.0237089842" flag="0"/>
      <psa10 value="0.0131456913" flag="0"/>
      <psa30 value="0.0009282717" flag="0"/>
    </comp>
    <comp name="--.HNE">
      <acc value="0.0124499143" flag="0"/>
      <vel value="0.0081134667" flag="0"/>
      <psa03 value="0.0439317924" flag="0"/>
      <psa10 value="0.0162156949" flag="0"/>
      <psa30 value="0.0009917109" flag="0"/>
    </comp>
    <comp name="--.HNN">
      <acc value="0.0149466159" flag="0"/>
      <vel value="0.0084573196" flag="0"/>
      <psa03 value="0.0486844506" flag="0"/>
      <psa10 value="0.0166188049" flag="0"/>
      <psa30 value="0.0010891851" flag="0"/>
    </comp>
  </station>
  <station code="ATVO" name="ATVO" netid="IV" insttype="" commtype="DIG" lat="43.3821" lon="12.4066">
    <comp name="--.HHE">
      <acc value="0.0161528001" flag="0"/>
      <vel value="0.0116379176" flag="0"/>
      <psa03 value="0.0512313711" flag="0"/>
      <psa10 value="0.0173800727" flag="0"/>
      <psa30 value="0.0008752991" flag="0"/>
    </comp>
    <comp name="--.HHZ">
      <acc value="0.0076421879" flag="0"/>
      <vel value="0.0056288052" flag="0"/>
      <psa03 value="0.0281775591" flag="0"/>
      <psa10 value="0.0104550447" flag="0"/>
      <psa30 value="0.0007247304" flag="0"/>
    </comp>
    <comp name="--.HHN">
      <acc value="0.0160400739" flag="0"/>
      <vel value="0.0091603818" flag="0"/>
      <psa03 value="0.0595911246" flag="0"/>
      <psa10 value="0.0162238597" flag="0"/>
      <psa30 value="0.0010267186" flag="0"/>
    </comp>
  </station>
  <station code="CAFI" name="CAFI" netid="IV" insttype="" commtype="DIG" lat="43.3292" lon="11.9663">
    <comp name="--.HHE">
      <acc value="0.0060426245" flag="0"/>
      <vel value="0.0084416265" flag="0"/>
      <psa03 value="0.0150562186" flag="0"/>
      <psa10 value="0.0115081744" flag="0"/>
      <psa30 value="0.0018150419" flag="0"/>
    </comp>
    <comp name="--.HHN">
      <acc value="0.0075993531" flag="0"/>
      <vel value="0.0063836748" flag="0"/>
      <psa03 value="0.0180000108" flag="0"/>
      <psa10 value="0.0161891832" flag="0"/>
      <psa30 value="0.0017869139" flag="0"/>
    </comp>
    <comp name="--.HHZ">
      <acc value="0.0080549205" flag="0"/>
      <vel value="0.0073231240" flag="0"/>
      <psa03 value="0.0160087183" flag="0"/>
      <psa10 value="0.0086711291" flag="0"/>
      <psa30 value="0.0011619060" flag="0"/>
    </comp>
  </station>
  <station code="CESI" name="CESI" netid="IV" insttype="" commtype="DIG" lat="43.0049" lon="12.9046">
    <comp name="--.HHE">
      <acc value="0.0216795470" flag="0"/>
      <vel value="0.0144888786" flag="0"/>
      <psa03 value="0.0832836220" flag="0"/>
      <psa10 value="0.0217623031" flag="0"/>
      <psa30 value="0.0014718229" flag="0"/>
    </comp>
    <comp name="--.HHN">
      <acc value="0.0358597667" flag="0"/>
      <vel value="0.0230395822" flag="0"/>
      <psa03 value="0.1399305269" flag="0"/>
      <psa10 value="0.0177560438" flag="0"/>
      <psa30 value="0.0010495643" flag="0"/>
    </comp>
    <comp name="--.HHZ">
      <acc value="0.0143269623" flag="0"/>
      <vel value="0.0093861003" flag="0"/>
      <psa03 value="0.0594754623" flag="0"/>
      <psa10 value="0.0144252279" flag="0"/>
      <psa30 value="0.0011389688" flag="0"/>
    </comp>
  </station>
  <station code="CING" name="CING" netid="IV" insttype="" commtype="DIG" lat="43.3756" lon="13.1954">
    <comp name="--.HHE">
      <acc value="0.0419736173" flag="0"/>
      <vel value="0.0133299850" flag="0"/>
      <psa03 value="0.0727626659" flag="0"/>
      <psa10 value="0.0182526103" flag="0"/>
      <psa30 value="0.0025476614" flag="0"/>
    </comp>
    <comp name="--.HHN">
      <acc value="0.0278270744" flag="0"/>
      <vel value="0.0123757767" flag="0"/>
      <psa03 value="0.0582732337" flag="0"/>
      <psa10 value="0.0134939404" flag="0"/>
      <psa30 value="0.0026759892" flag="0"/>
    </comp>
    <comp name="--.HHZ">
      <acc value="0.0200712628" flag="0"/>
      <vel value="0.0111733709" flag="0"/>
      <psa03 value="0.0631415052" flag="0"/>
      <psa10 value="0.0125402260" flag="0"/>
      <psa30 value="0.0022504813" flag="0"/>
    </comp>
  </station>
  <station code="COR1" name="COR1" netid="IV" insttype="" commtype="DIG" lat="43.6318" lon="13.0003">
    <comp name="--.HNZ">
      <acc value="0.1345487682" flag="0"/>
      <vel value="0.0472591994" flag="0"/>
      <psa03 value="0.2564800870" flag="0"/>
      <psa10 value="0.0719391706" flag="0"/>
      <psa30 value="0.0243731055" flag="0"/>
    </comp>
    <comp name="--.HNE">
      <acc value="0.1511255739" flag="0"/>
      <vel value="0.0703127726" flag="0"/>
      <psa03 value="0.4722652429" flag="0"/>
      <psa10 value="0.1562443569" flag="0"/>
      <psa30 value="0.0228286576" flag="0"/>
    </comp>
    <comp name="--.HNN">
      <acc value="0.2371667102" flag="0"/>
      <vel value="0.0860543175" flag="0"/>
      <psa03 value="0.5001760309" flag="0"/>
      <psa10 value="0.1398232747" flag="0"/>
      <psa30 value="0.0168881322" flag="0"/>
    </comp>
  </station>
  <station code="CRE" name="CRE" netid="IV" insttype="" commtype="DIG" lat="43.6189" lon="11.9517">
    <comp name="--.HHE">
      <acc value="0.0061360121" flag="0"/>
      <vel value="0.0086731557" flag="0"/>
      <psa03 value="0.0126062592" flag="0"/>
      <psa10 value="0.0113719392" flag="0"/>
      <psa30 value="0.0018413108" flag="0"/>
    </comp>
    <comp name="--.HHZ">
      <acc value="0.0070794786" flag="0"/>
      <vel value="0.0045917321" flag="0"/>
      <psa03 value="0.0136503762" flag="0"/>
      <psa10 value="0.0072017740" flag="0"/>
      <psa30 value="0.0007711148" flag="0"/>
    </comp>
    <comp name="--.HHN">
      <acc value="0.0085149768" flag="0"/>
      <vel value="0.0081768312" flag="0"/>
      <psa03 value="0.0176631951" flag="0"/>
      <psa10 value="0.0135162244" flag="0"/>
      <psa30 value="0.0017243472" flag="0"/>
    </comp>
  </station>
  <station code="CRTC" name="CRTC" netid="IV" insttype="" commtype="DIG" lat="43.7685" lon="12.883">
    <comp name="--.HHN">
      <acc value="0.0896950951" flag="0"/>
      <vel value="0.0492271582" flag="0"/>
      <psa03 value="0.2545492344" flag="0"/>
      <psa10 value="0.0959751379" flag="0"/>
      <psa30 value="0.0067373160" flag="0"/>
    </comp>
    <comp name="--.HHE">
      <acc value="0.1017077378" flag="0"/>
      <vel value="0.0634420838" flag="0"/>
      <psa03 value="0.3746764165" flag="0"/>
      <psa10 value="0.0642222141" flag="0"/>
      <psa30 value="0.0081798303" flag="0"/>
    </comp>
    <comp name="--.HHZ">
      <acc value="0.0769882718" flag="0"/>
      <vel value="0.0429063808" flag="0"/>
      <psa03 value="0.2822490177" flag="0"/>
      <psa10 value="0.0697605326" flag="0"/>
      <psa30 value="0.0079469534" flag="0"/>
    </comp>
  </station>
  <station code="FANO" name="FANO" netid="IV" insttype="" commtype="DIG" lat="43.8435" lon="13.0184">
    <comp name="--.HNZ">
      <acc value="0.1348552221" flag="0"/>
      <vel value="0.0801855639" flag="0"/>
      <psa03 value="0.2626191295" flag="0"/>
      <psa10 value="0.1051866069" flag="0"/>
      <psa30 value="0.0148804565" flag="0"/>
    </comp>
    <comp name="--.HNN">
      <acc value="0.2297521861" flag="0"/>
      <vel value="0.1713365098" flag="0"/>
      <psa03 value="0.4884245769" flag="0"/>
      <psa10 value="0.3743643709" flag="0"/>
      <psa30 value="0.0242183603" flag="0"/>
    </comp>
    <comp name="--.HNE">
      <acc value="0.1903284123" flag="0"/>
      <vel value="0.1340861414" flag="0"/>
      <psa03 value="0.4782022006" flag="0"/>
      <psa10 value="0.1995839061" flag="0"/>
      <psa30 value="0.0109975473" flag="0"/>
    </comp>
  </station>
  <station code="FDMO" name="FDMO" netid="IV" insttype="" commtype="DIG" lat="43.0365" lon="13.0873">
    <comp name="--.HHE">
      <acc value="0.0280160715" flag="0"/>
      <vel value="0.0133728083" flag="0"/>
      <psa03 value="0.0667792045" flag="0"/>
      <psa10 value="0.0115164557" flag="0"/>
      <psa30 value="0.0011345922" flag="0"/>
    </comp>
    <comp name="--.HHN">
      <acc value="0.0172899710" flag="0"/>
      <vel value="0.0072323426" flag="0"/>
      <psa03 value="0.0395875574" flag="0"/>
      <psa10 value="0.0072381876" flag="0"/>
      <psa30 value="0.0024121518" flag="0"/>
    </comp>
    <comp name="--.HHZ">
      <acc value="0.0140868792" flag="0"/>
      <vel value="0.0063441649" flag="0"/>
      <psa03 value="0.0578379012" flag="0"/>
      <psa10 value="0.0084897408" flag="0"/>
      <psa30 value="0.0020986668" flag="0"/>
    </comp>
  </station>
  <station code="FEMA" name="FEMA" netid="IV" insttype="" commtype="DIG" lat="42.9621" lon="13.0498">
    <comp name="--.HNE">
      <acc value="0.0282064931" flag="0"/>
      <vel value="0.0191499849" flag="0"/>
      <psa03 value="0.0861238831" flag="0"/>
      <psa10 value="0.0248006280" flag="0"/>
      <psa30 value="0.0011966528" flag="0"/>
    </comp>
    <comp name="--.HNN">
      <acc value="0.0263292710" flag="0"/>
      <vel value="0.0148056378" flag="0"/>
      <psa03 value="0.0821097229" flag="0"/>
      <psa10 value="0.0202637593" flag="0"/>
      <psa30 value="0.0018695503" flag="0"/>
    </comp>
    <comp name="--.HNZ">
      <acc value="0.0151857531" flag="0"/>
      <vel value="0.0086058841" flag="0"/>
      <psa03 value="0.0372648506" flag="0"/>
      <psa10 value="0.0124383964" flag="0"/>
      <psa30 value="0.0014868486" flag="0"/>
    </comp>
  </station>
  <station code="FOSV" name="FOSV" netid="IV" insttype="" commtype="DIG" lat="43.2948" lon="12.7612">
    <comp name="--.HNE">
      <acc value="0.0244012575" flag="0"/>
      <vel value="0.0161340904" flag="0"/>
      <psa03 value="0.0591524180" flag="0"/>
      <psa10 value="0.0256250421" flag="0"/>
      <psa30 value="0.0023652333" flag="0"/>
    </comp>
    <comp name="--.HNN">
      <acc value="0.0176488474" flag="0"/>
      <vel value="0.0127342750" flag="0"/>
      <psa03 value="0.0708489850" flag="0"/>
      <psa10 value="0.0188763597" flag="0"/>
      <psa30 value="0.0013842650" flag="0"/>
    </comp>
    <comp name="--.HNZ">
      <acc value="0.0148481394" flag="0"/>
      <vel value="0.0093438242" flag="0"/>
      <psa03 value="0.0460575412" flag="0"/>
      <psa10 value="0.0211753592" flag="0"/>
      <psa30 value="0.0012850651" flag="0"/>
    </comp>
  </station>
  <station code="GAVE" name="GAVE" netid="IV" insttype="" commtype="DIG" lat="42.6922" lon="12.8942">
    <comp name="--.HNE">
      <acc value="0.0228013745" flag="0"/>
      <vel value="0.0125787148" flag="0"/>
      <psa03 value="0.0747540762" flag="0"/>
