<?xml version="1.0" encoding="UTF-8" standalone="yes"?>
<!DOCTYPE earthquake SYSTEM "stationlist.dtd">
<stationlist created="" xmlns="ch.ethz.sed.shakemap.usgs.xml">
  <station code="GAZ" name="GAZ" netid="KO" insttype="CMG-3T" lat="37.1721" lon="37.2096">
    <comp name="--.HHN">
      <acc value="0.0097145956" flag="0"/>
      <vel value="0.0067214344" flag="0"/>
      <psa03 value="0.0319844316" flag="0"/>
      <psa10 value="0.0055574325" flag="0"/>
      <psa30 value="0.0003076842" flag="0"/>
    </comp>
  </station>
  <station code="KMRS" name="KMRS" netid="KO" insttype="CMG-3T" lat="37.5053" lon="36.9">
    <comp name="--.HHE">
      <acc value="0.0299517280" flag="0"/>
      <vel value="0.0171251564" flag="0"/>
      <psa03 value="0.0568859895" flag="0"/>
      <psa10 value="0.0142781611" flag="0"/>
      <psa30 value="0.0010447147" flag="0"/>
    </comp>
    <comp name="--.HHN">
      <acc value="0.0477293267" flag="0"/>
      <vel value="0.0249240619" flag="0"/>
      <psa03 value="0.1200191723" flag="0"/>
      <psa10 value="0.0086315245" flag="0"/>
      <psa30 value="0.0007182992" flag="0"/>
    </comp>
    <comp name="--.HHZ">
      <acc value="0.0246232948" flag="0"/>
      <vel value="0.0131216491" flag="0"/>
      <psa03 value="0.0664699036" flag="0"/>
      <psa10 value="0.0061494727" flag="0"/>
      <psa30 value="0.0006677666" flag="0"/>
    </comp>
  </station>
  <station code="ANDN" name="ANDN" netid="TU" insttype="T" lat="37.58" lon="36.3452">
    <comp name="--.HHZ">
      <acc value="0.0336418498" flag="0"/>
      <vel value="0.0317358771" flag="0"/>
      <psa03 value="0.0659250318" flag="0"/>
      <psa10 value="0.0488424459" flag="0"/>
      <psa30 value="0.0029175845" flag="0"/>
    </comp>
    <comp name="--.HHE">
      <acc value="0.0454476554" flag="0"/>
      <vel value="0.0197462355" flag="0"/>
      <psa03 value="0.0693757909" flag="0"/>
      <psa10 value="0.0233541177" flag="0"/>
      <psa30 value="0.0019447246" flag="0"/>
    </comp>
    <comp name="--.HHN">
      <acc value="0.0927321305" flag="0"/>
      <vel value="0.0239173018" flag="0"/>
      <psa03 value="0.1036918292" flag="0"/>
      <psa10 value="0.0292960136" flag="0"/>
      <psa30 value="0.0014155855" flag="0"/>
    </comp>
  </station>
</stationlist>
