<?xml version="1.0" encoding="UTF-8" standalone="yes"?>
<!DOCTYPE earthquake SYSTEM "stationlist.dtd">
<stationlist created="" xmlns="ch.ethz.sed.shakemap.usgs.xml">
  <station code="ARPRA" name="ARPRA" netid="KO" insttype="CMG-5T" lat="39.0929" lon="38.3356">
    <comp name="--.HNE">
      <acc value="0.0576009152" flag="0"/>
      <vel value="0.0403270973" flag="0"/>
      <psa03 value="0.2736098402" flag="0"/>
      <psa10 value="0.0558026947" flag="0"/>
      <psa30 value="0.0083128347" flag="0"/>
    </comp>
    <comp name="--.HNZ">
      <acc value="0.0164497700" flag="0"/>
      <vel value="0.0120417344" flag="0"/>
      <psa03 value="0.1314421430" flag="0"/>
      <psa10 value="0.0105780567" flag="0"/>
      <psa30 value="0.0007558133" flag="0"/>
    </comp>
    <comp name="--.HNN">
      <acc value="0.0921248615" flag="0"/>
      <vel value="0.0537929189" flag="0"/>
      <psa03 value="0.2616678861" flag="0"/>
      <psa10 value="0.0603813489" flag="0"/>
      <psa30 value="0.0080483641" flag="0"/>
    </comp>
  </station>
  <station code="DARE" name="DARE" netid="KO" insttype="CMG-3ESP" lat="38.5712" lon="37.4832">
    <comp name="--.HHZ">
      <acc value="0.0825887269" flag="0"/>
      <vel value="0.0663497057" flag="0"/>
      <psa03 value="0.2753747347" flag="0"/>
      <psa10 value="0.0935823092" flag="0"/>
      <psa30 value="0.0057534046" flag="0"/>
    </comp>
    <comp name="--.HHN">
      <acc value="0.0790545050" flag="0"/>
      <vel value="0.0682322365" flag="0"/>
      <psa03 value="0.2224411407" flag="0"/>
      <psa10 value="0.0969781656" flag="0"/>
      <psa30 value="0.0058982414" flag="0"/>
    </comp>
    <comp name="--.HHE">
      <acc value="0.1441463872" flag="0"/>
      <vel value="0.0938682706" flag="0"/>
      <psa03 value="0.2985446692" flag="0"/>
      <psa10 value="0.1136912815" flag="0"/>
      <psa30 value="0.0116451951" flag="0"/>
    </comp>
  </station>
  <station code="GAZ" name="GAZ" netid="KO" insttype="CMG-3T" lat="37.1721" lon="37.2096">
    <comp name="--.HHN">
      <acc value="0.0319310323" flag="0"/>
      <vel value="0.0247017164" flag="0"/>
      <psa03 value="0.0759826347" flag="0"/>
      <psa10 value="0.0469714180" flag="0"/>
      <psa30 value="0.0044707385" flag="0"/>
    </comp>
    <comp name="--.HHZ">
      <acc value="0.0283722761" flag="0"/>
      <vel value="0.0228842654" flag="0"/>
      <psa03 value="0.0785079277" flag="0"/>
      <psa10 value="0.0281580450" flag="0"/>
      <psa30 value="0.0070139364" flag="0"/>
    </comp>
    <comp name="--.HHE">
      <acc value="0.0531181435" flag="0"/>
      <vel value="0.0395179675" flag="0"/>
      <psa03 value="0.1963171209" flag="0"/>
      <psa10 value="0.0372615544" flag="0"/>
      <psa30 value="0.0043180500" flag="0"/>
    </comp>
  </station>
  <station code="URFA" name="URFA" netid="KO" insttype="CMG-3ESP" lat="37.4409" lon="38.8213">
    <comp name="--.HHZ">
      <acc value="0.0762595064" flag="0"/>
      <vel value="0.0489196559" flag="0"/>
      <psa03 value="0.2476564268" flag="0"/>
      <psa10 value="0.0377884736" flag="0"/>
      <psa30 value="0.0036054419" flag="0"/>
    </comp>
    <comp name="--.HHE">
      <acc value="0.1059257059" flag="0"/>
      <vel value="0.0520694577" flag="0"/>
      <psa03 value="0.1766948866" flag="0"/>
      <psa10 value="0.0628806820" flag="0"/>
      <psa30 value="0.0056707296" flag="0"/>
    </comp>
  </station>
  <station code="ANDN" name="ANDN" netid="TU" insttype="T" lat="37.58" lon="36.3452">
    <comp name="--.HHE">
      <acc value="0.1019206475" flag="0"/>
      <vel value="0.0642413220" flag="0"/>
      <psa03 value="0.3205139857" flag="0"/>
      <psa10 value="0.0808054077" flag="0"/>
      <psa30 value="0.0089523678" flag="0"/>
    </comp>
    <comp name="--.HHN">
      <acc value="0.1094061295" flag="0"/>
      <vel value="0.0738447504" flag="0"/>
      <psa03 value="0.2006089264" flag="0"/>
      <psa10 value="0.1476882657" flag="0"/>
      <psa30 value="0.0090923730" flag="0"/>
    </comp>
    <comp name="--.HHZ">
      <acc value="0.0768479102" flag="0"/>
      <vel value="0.0573385318" flag="0"/>
      <psa03 value="0.2449306754" flag="0"/>
      <psa10 value="0.0853725283" flag="0"/>
      <psa30 value="0.0058875970" flag="0"/>
    </comp>
  </station>
</stationlist>
