<stationlist xmlns:esm="https://esm-db.eu/esmws/shakemap/1/" created="1781661283">
	<station code="ARG2" name="ARG2" netid="HI" source="ITSAK Strong Motion Network" insttype="" lat="38.1783" lon="20.4878" esm:processing="manual (Paolucci et al 2011)" esm:quality="best">
		<comp name="--.HNE" depth="0.0">
			<acc value="0.10562146743337" flag="0"/>
			<vel value="0.0430713164101166" flag="0"/>
			<psa03 value="0.195433958508611" flag="0"/>
			<psa10 value="0.0453498057841479" flag="0"/>
			<psa30 value="0.00282949714653951" flag="0"/>
		</comp>
		<comp name="--.HNN" depth="0.0">
			<acc value="0.122101398893486" flag="0"/>
			<vel value="0.0429031486925" flag="0"/>
			<psa03 value="0.166172555380261" flag="0"/>
			<psa10 value="0.0454464489504433" flag="0"/>
			<psa30 value="0.00355208378342459" flag="0"/>
		</comp>
		<comp name="--.HNZ" depth="0.0">
			<acc value="0.0740508010275626" flag="0"/>
			<vel value="0.0303398034791686" flag="0"/>
			<psa03 value="0.131452603044482" flag="0"/>
			<psa10 value="0.0459135575875381" flag="0"/>
			<psa30 value="0.00274269726570006" flag="0"/>
		</comp>
	</station>
	<station code="KLV1" name="KLV1" netid="HI" source="ITSAK Strong Motion Network" insttype="" lat="38.03256" lon="22.10797" esm:processing="manual (Paolucci et al 2011)" esm:quality="best">
		<comp name="--.HNE" depth="0.0">
			<acc value="0.027057696556891" flag="0"/>
			<vel value="0.0163478922651" flag="0"/>
			<psa03 value="0.0639366132575103" flag="0"/>
			<psa10 value="0.0208145219408862" flag="0"/>
			<psa30 value="0.00187380361317322" flag="0"/>
		</comp>
		<comp name="--.HNN" depth="0.0">
			<acc value="0.0182846144795917" flag="0"/>
			<vel value="0.0130052282584995" flag="0"/>
			<psa03 value="0.0527958038095607" flag="0"/>
			<psa10 value="0.0263876111972581" flag="0"/>
			<psa30 value="0.00185948610705537" flag="0"/>
		</comp>
		<comp name="--.HNZ" depth="0.0">
			<acc value="0.00892708499578041" flag="0"/>
			<vel value="0.00893051705854069" flag="0"/>
			<psa03 value="0.0171810073414164" flag="0"/>
			<psa10 value="0.0144843945485331" flag="0"/>
			<psa30 value="0.0013176579849081" flag="0"/>
		</comp>
	</station>
	<station code="KRI1" name="KRI1" netid="HI" source="ITSAK Strong Motion Network" insttype="" lat="37.6621" lon="20.8172" esm:processing="manual (Paolucci et al 2011)" esm:quality="good">
		<comp name="--.HNE" depth="0.0">
			<acc value="0.954820395528238" flag="0"/>
			<vel value="0.473428500494629" flag="0"/>
			<psa03 value="3.63821253116477" flag="0"/>
			<psa10 value="0.526741497497656" flag="0"/>
			<psa30 value="0.0258856036390011" flag="0"/>
		</comp>
		<comp name="--.HNN" depth="0.0">
			<acc value="0.942905086229749" flag="0"/>
			<vel value="0.367748943110305" flag="0"/>
			<psa03 value="1.9748762579239" flag="0"/>
			<psa10 value="0.40014297644919" flag="0"/>
			<psa30 value="0.022662822496287" flag="0"/>
		</comp>
		<comp name="--.HNZ" depth="0.0">
			<acc value="0.658551090843606" flag="0"/>
			<vel value="0.247084106990964" flag="0"/>
			<psa03 value="2.02990917206437" flag="0"/>
			<psa10 value="0.134877618961111" flag="0"/>
			<psa30 value="0.0149890866391872" flag="0"/>
		</comp>
	</station>
	<station code="ITM" name="ITM" netid="HL" source="National Observatory of Athens Seismic Network" insttype="" lat="37.17872" lon="21.92522" esm:processing="manual (Paolucci et al 2011)" esm:quality="best">
		<comp name="--.HNE" depth="0.0">
			<acc value="0.0281608545941342" flag="0"/>
			<vel value="0.024793126907649" flag="0"/>
			<psa03 value="0.0685450605391923" flag="0"/>
			<psa10 value="0.0180239505141046" flag="0"/>
			<psa30 value="0.00257715110121245" flag="0"/>
		</comp>
		<comp name="--.HNN" depth="0.0">
			<acc value="0.0249819458075515" flag="0"/>
			<vel value="0.0125366578470736" flag="0"/>
			<psa03 value="0.0704242332171598" flag="0"/>
			<psa10 value="0.0132320601852877" flag="0"/>
			<psa30 value="0.00377668966064832" flag="0"/>
		</comp>
		<comp name="--.HNZ" depth="0.0">
			<acc value="0.0145828794936149" flag="0"/>
			<vel value="0.0093605188113554" flag="0"/>
			<psa03 value="0.0358385075012357" flag="0"/>
			<psa10 value="0.0107394718545838" flag="0"/>
			<psa30 value="0.00157089887436752" flag="0"/>
		</comp>
	</station>
	<station code="KIAA" name="KIAA" netid="HL" source="National Observatory of Athens Seismic Network" insttype="" lat="38.0139" lon="22.7495" esm:processing="manual (Paolucci et al 2011)" esm:quality="good">
		<comp name="00.HNE" depth="0.0">
			<acc value="0.0203538157354325" flag="0"/>
			<vel value="0.0355933199112272" flag="0"/>
			<psa03 value="0.0395685509098134" flag="0"/>
			<psa10 value="0.0727441464427205" flag="0"/>
			<psa30 value="0.0109225910680521" flag="0"/>
		</comp>
		<comp name="00.HNN" depth="0.0">
			<acc value="0.0196741671556667" flag="0"/>
			<vel value="0.0352105927369263" flag="0"/>
			<psa03 value="0.0431070535474217" flag="0"/>
			<psa10 value="0.0636320403104525" flag="0"/>
			<psa30 value="0.0111851117921002" flag="0"/>
		</comp>
		<comp name="00.HNZ" depth="0.0">
			<acc value="0.0103442718017626" flag="0"/>
			<vel value="0.015469871597571" flag="0"/>
			<psa03 value="0.0280079673695594" flag="0"/>
			<psa10 value="0.0333301154565904" flag="0"/>
			<psa30 value="0.0053523741518609" flag="0"/>
		</comp>
	</station>
	<station code="PATC" name="PATC" netid="HL" source="National Observatory of Athens Seismic Network" insttype="" lat="38.26933" lon="21.76001" esm:processing="manual (Paolucci et al 2011)" esm:quality="best">
		<comp name="00.HNE" depth="0.0">
			<acc value="0.0421070268545787" flag="0"/>
			<vel value="0.0506659213207389" flag="0"/>
			<psa03 value="0.145367429302765" flag="0"/>
			<psa10 value="0.0809104641822841" flag="0"/>
			<psa30 value="0.015274989339478" flag="0"/>
		</comp>
		<comp name="00.HNN" depth="0.0">
			<acc value="0.0431604702826165" flag="0"/>
			<vel value="0.0436308913761122" flag="0"/>
			<psa03 value="0.139595684649008" flag="0"/>
			<psa10 value="0.0599550042905503" flag="0"/>
			<psa30 value="0.0111242548315009" flag="0"/>
		</comp>
		<comp name="00.HNZ" depth="0.0">
			<acc value="0.0230051389379835" flag="0"/>
			<vel value="0.0237881544680079" flag="0"/>
			<psa03 value="0.0884553424843233" flag="0"/>
			<psa10 value="0.0333700799621056" flag="0"/>
			<psa30 value="0.00514222180663797" flag="0"/>
		</comp>
	</station>
	<station code="PATG" name="PATG" netid="HL" source="National Observatory of Athens Seismic Network" insttype="" lat="38.23865" lon="21.72657" esm:processing="manual (Paolucci et al 2011)" esm:quality="good">
		<comp name="00.HNE" depth="0.0">
			<acc value="0.0622414533688174" flag="0"/>
			<vel value="0.0534856403936084" flag="0"/>
			<psa03 value="0.153689479733763" flag="0"/>
			<psa10 value="0.0911022914278602" flag="0"/>
			<psa30 value="0.0165179278393336" flag="0"/>
		</comp>
		<comp name="00.HNN" depth="0.0">
			<acc value="0.0787134760484806" flag="0"/>
			<vel value="0.0694376553689515" flag="0"/>
			<psa03 value="0.151855049262414" flag="0"/>
			<psa10 value="0.0971263821269443" flag="0"/>
			<psa30 value="0.0157268856263225" flag="0"/>
		</comp>
		<comp name="00.HNZ" depth="0.0">
			<acc value="0.0278215250422375" flag="0"/>
			<vel value="0.0335636112635283" flag="0"/>
			<psa03 value="0.0744510318128042" flag="0"/>
			<psa10 value="0.0499323025859913" flag="0"/>
			<psa30 value="0.00883479611884394" flag="0"/>
		</comp>
	</station>
	<station code="RIOA" name="RIOA" netid="HL" source="National Observatory of Athens Seismic Network" insttype="" lat="38.29585" lon="21.79118" esm:processing="manual (Paolucci et al 2011)" esm:quality="good">
		<comp name="00.HNE" depth="0.0">
			<acc value="0.0268975218377399" flag="0"/>
			<vel value="0.0215403102083888" flag="0"/>
			<psa03 value="0.0506034356852654" flag="0"/>
			<psa10 value="0.0407632821837088" flag="0"/>
			<psa30 value="0.00446303511017261" flag="0"/>
		</comp>
		<comp name="00.HNN" depth="0.0">
			<acc value="0.0318257342061032" flag="0"/>
			<vel value="0.0265947218719077" flag="0"/>
			<psa03 value="0.0510508577514481" flag="0"/>
			<psa10 value="0.0427444670927659" flag="0"/>
			<psa30 value="0.00777261613372617" flag="0"/>
		</comp>
		<comp name="00.HNZ" depth="0.0">
			<acc value="0.0260609551147132" flag="0"/>
			<vel value="0.0187854005384499" flag="0"/>
			<psa03 value="0.0394626262373157" flag="0"/>
			<psa10 value="0.0231742259179339" flag="0"/>
			<psa30 value="0.00419592413666152" flag="0"/>
		</comp>
	</station>
	<station code="SMHA" name="SMHA" netid="HL" source="National Observatory of Athens Seismic Network" insttype="" lat="38.25123" lon="20.6477" esm:processing="manual (Paolucci et al 2011)" esm:quality="best">
		<comp name="00.HNE" depth="0.0">
			<acc value="0.175933313040835" flag="0"/>
			<vel value="0.0817059589879353" flag="0"/>
			<psa03 value="0.396501724626461" flag="0"/>
			<psa10 value="0.0717550634207598" flag="0"/>
			<psa30 value="0.00460108896621167" flag="0"/>
		</comp>
		<comp name="00.HNN" depth="0.0">
			<acc value="0.173247327008833" flag="0"/>
			<vel value="0.068941849102377" flag="0"/>
			<psa03 value="0.572241991557225" flag="0"/>
			<psa10 value="0.0547259278239366" flag="0"/>
			<psa30 value="0.00519162641977333" flag="0"/>
		</comp>
		<comp name="00.HNZ" depth="0.0">
			<acc value="0.103596247653628" flag="0"/>
			<vel value="0.0260825649469497" flag="0"/>
			<psa03 value="0.131773458511391" flag="0"/>
			<psa10 value="0.022930592164197" flag="0"/>
			<psa30 value="0.00171564156950101" flag="0"/>
		</comp>
	</station>
	<station code="VELA" name="VELA" netid="HL" source="National Observatory of Athens Seismic Network" insttype="" lat="37.974944" lon="22.766063" esm:processing="manual (Paolucci et al 2011)" esm:quality="good">
		<comp name="00.HNE" depth="0.0">
			<acc value="0.0157897685148266" flag="0"/>
			<vel value="0.0221298999133229" flag="0"/>
			<psa03 value="0.0513946598523029" flag="0"/>
			<psa10 value="0.0576112902152958" flag="0"/>
			<psa30 value="0.00718152074050798" flag="0"/>
		</comp>
		<comp name="00.HNN" depth="0.0">
			<acc value="0.0194835175488858" flag="0"/>
			<vel value="0.0244490180180962" flag="0"/>
			<psa03 value="0.0489846720774466" flag="0"/>
			<psa10 value="0.0386221772796774" flag="0"/>
			<psa30 value="0.00602722594080205" flag="0"/>
		</comp>
		<comp name="00.HNZ" depth="0.0">
			<acc value="0.00968390047561829" flag="0"/>
			<vel value="0.0148027246848481" flag="0"/>
			<psa03 value="0.0209536523995607" flag="0"/>
			<psa10 value="0.0331428130487114" flag="0"/>
			<psa30 value="0.00289179906749787" flag="0"/>
		</comp>
	</station>
	<station code="ZARA" name="ZARA" netid="HL" source="National Observatory of Athens Seismic Network" insttype="" lat="37.4865" lon="21.6491" esm:processing="manual (Paolucci et al 2011)" esm:quality="good">
		<comp name="00.HNE" depth="0.0">
			<acc value="0.229744086398649" flag="0"/>
			<vel value="0.0708514995158234" flag="0"/>
			<psa03 value="0.370070432016457" flag="0"/>
			<psa10 value="0.0379341567017268" flag="0"/>
			<psa30 value="0.0123413392198328" flag="0"/>
		</comp>
		<comp name="00.HNN" depth="0.0">
			<acc value="0.180823454851798" flag="0"/>
			<vel value="0.0730809845608607" flag="0"/>
			<psa03 value="0.374988632823154" flag="0"/>
			<psa10 value="0.0422000680475879" flag="0"/>
			<psa30 value="0.00690900977133362" flag="0"/>
		</comp>
		<comp name="00.HNZ" depth="0.0">
			<acc value="0.0638225111485854" flag="0"/>
			<vel value="0.023070385890651" flag="0"/>
			<psa03 value="0.152159923598345" flag="0"/>
			<psa10 value="0.0280517626666133" flag="0"/>
			<psa30 value="0.00257260250562531" flag="0"/>
		</comp>
	</station>
	<station code="ANX" name="ANX" netid="HP" source="University of Patras, Seismological Laboratory (PSLNET)" insttype="" lat="38.5933" lon="21.9209" esm:processing="manual (Paolucci et al 2011)" esm:quality="best">
		<comp name="--.HNE" depth="0.0">
			<acc value="0.0214248634529991" flag="0"/>
			<vel value="0.018274540675132" flag="0"/>
			<psa03 value="0.0374939691461117" flag="0"/>
			<psa10 value="0.0329553197067542" flag="0"/>
			<psa30 value="0.00189259533995289" flag="0"/>
		</comp>
		<comp name="--.HNN" depth="0.0">
			<acc value="0.0191730190150995" flag="0"/>
			<vel value="0.0214160561047202" flag="0"/>
			<psa03 value="0.0402232437498263" flag="0"/>
			<psa10 value="0.0282077241624894" flag="0"/>
			<psa30 value="0.00297535674011507" flag="0"/>
		</comp>
		<comp name="--.HNZ" depth="0.0">
			<acc value="0.0125432999175782" flag="0"/>
			<vel value="0.0127123977035764" flag="0"/>
			<psa03 value="0.0309168647732258" flag="0"/>
			<psa10 value="0.0133367569487744" flag="0"/>
			<psa30 value="0.00214896818387559" flag="0"/>
		</comp>
	</station>
	<station code="GUR" name="GUR" netid="HP" source="University of Patras, Seismological Laboratory (PSLNET)" insttype="" lat="37.9363" lon="22.3423" esm:processing="manual (Paolucci et al 2011)" esm:quality="best">
		<comp name="--.HNE" depth="0.0">
			<acc value="0.0121596228096946" flag="0"/>
			<vel value="0.0111534009265664" flag="0"/>
			<psa03 value="0.0344514990960693" flag="0"/>
			<psa10 value="0.0182534780340563" flag="0"/>
			<psa30 value="0.00105144185552939" flag="0"/>
		</comp>
		<comp name="--.HNN" depth="0.0">
			<acc value="0.0190190194470363" flag="0"/>
			<vel value="0.0118697803777012" flag="0"/>
			<psa03 value="0.0501112714124644" flag="0"/>
			<psa10 value="0.0174360379191405" flag="0"/>
			<psa30 value="0.000892607022034521" flag="0"/>
		</comp>
		<comp name="--.HNZ" depth="0.0">
			<acc value="0.00895763185263471" flag="0"/>
			<vel value="0.00643963285899278" flag="0"/>
			<psa03 value="0.0231317208216465" flag="0"/>
			<psa10 value="0.0155756569679528" flag="0"/>
			<psa30 value="0.00123354263646575" flag="0"/>
		</comp>
	</station>
	<station code="LTHK" name="LTHK" netid="HP" source="University of Patras, Seismological Laboratory (PSLNET)" insttype="" lat="37.7095" lon="20.8367" esm:processing="manual (Paolucci et al 2011)" esm:quality="best">
		<comp name="--.HNE" depth="0.0">
			<acc value="3.36653417471925" flag="0"/>
			<vel value="0.674767398297557" flag="0"/>
			<psa03 value="1.45859593575566" flag="0"/>
			<psa10 value="0.529910587992428" flag="0"/>
			<psa30 value="0.023904418729944" flag="0"/>
		</comp>
		<comp name="--.HNN" depth="0.0">
			<acc value="2.50881707829052" flag="0"/>
			<vel value="1.08476150437471" flag="0"/>
			<psa03 value="5.13349707634741" flag="0"/>
			<psa10 value="0.692923448741307" flag="0"/>
			<psa30 value="0.0623572133638853" flag="0"/>
		</comp>
		<comp name="--.HNZ" depth="0.0">
			<acc value="1.68737658769642" flag="0"/>
			<vel value="0.339936729710836" flag="0"/>
			<psa03 value="1.42432340548606" flag="0"/>
			<psa10 value="0.253772874296109" flag="0"/>
			<psa30 value="0.0271057236134814" flag="0"/>
		</comp>
	</station>
	<station code="PVO" name="PVO" netid="HP" source="University of Patras, Seismological Laboratory (PSLNET)" insttype="" lat="38.616" lon="21.525" esm:processing="manual (Paolucci et al 2011)" esm:quality="best">
		<comp name="--.HNE" depth="0.0">
			<acc value="0.00954270092420644" flag="0"/>
			<vel value="0.00695405054766653" flag="0"/>
			<psa03 value="0.0234001740613561" flag="0"/>
			<psa10 value="0.0089757340696915" flag="0"/>
			<psa30 value="0.00163845960636111" flag="0"/>
		</comp>
		<comp name="--.HNN" depth="0.0">
			<acc value="0.0122568154739048" flag="0"/>
			<vel value="0.00591308697359405" flag="0"/>
			<psa03 value="0.0255925421856514" flag="0"/>
			<psa10 value="0.00957975385903817" flag="0"/>
			<psa30 value="0.0011986437153035" flag="0"/>
		</comp>
		<comp name="--.HNZ" depth="0.0">
			<acc value="0.00690340372564669" flag="0"/>
			<vel value="0.00503036631259972" flag="0"/>
			<psa03 value="0.014988639217121" flag="0"/>
			<psa10 value="0.00622945742746198" flag="0"/>
			<psa30 value="0.000996408941388912" flag="0"/>
		</comp>
	</station>
</stationlist>
