<?xml version="1.0" encoding="UTF-8" standalone="yes"?>
<!DOCTYPE earthquake SYSTEM "stationlist.dtd">
<stationlist created="" xmlns="ch.ethz.sed.shakemap.usgs.xml">
  <station code="AGRP" name="AGRP" netid="CL" source="RESIF" insttype="30" lat="38.3959" lon="21.7228">
    <comp name="00.HHN">
      <acc value="0.0162003727" flag="0"/>
      <vel value="0.0122400216" flag="0"/>
      <psa03 value="0.0339391952" flag="0"/>
      <psa10 value="0.0212138433" flag="0"/>
      <psa30 value="0.0038272961" flag="0"/>
    </comp>
    <comp name="00.HHZ">
      <acc value="0.0100405022" flag="0"/>
      <vel value="0.0064303554" flag="0"/>
      <psa03 value="0.0190759818" flag="0"/>
      <psa10 value="0.0138447149" flag="0"/>
      <psa30 value="0.0016838395" flag="0"/>
    </comp>
    <comp name="00.HHE">
      <acc value="0.0177314937" flag="0"/>
      <vel value="0.0109100952" flag="0"/>
      <psa03 value="0.0328373096" flag="0"/>
      <psa10 value="0.0202496739" flag="0"/>
      <psa30 value="0.0034623526" flag="0"/>
    </comp>
  </station>
  <station code="MALA" name="MALA" netid="CL" source="RESIF" insttype="30" lat="38.3935" lon="21.8726">
    <comp name="00.HH3">
      <acc value="0.0205991499" flag="0"/>
      <vel value="0.0197942379" flag="0"/>
      <psa03 value="0.0429223951" flag="0"/>
      <psa10 value="0.0263470890" flag="0"/>
      <psa30 value="0.0061598417" flag="0"/>
    </comp>
    <comp name="00.HHZ">
      <acc value="0.0070817506" flag="0"/>
      <vel value="0.0084412258" flag="0"/>
      <psa03 value="0.0107662239" flag="0"/>
      <psa10 value="0.0171297202" flag="0"/>
      <psa30 value="0.0026618334" flag="0"/>
    </comp>
    <comp name="00.HH2">
      <acc value="0.0116344333" flag="0"/>
      <vel value="0.0159369937" flag="0"/>
      <psa03 value="0.0256360383" flag="0"/>
      <psa10 value="0.0151853523" flag="0"/>
      <psa30 value="0.0028143340" flag="0"/>
    </comp>
  </station>
  <station code="MG00" name="MG00" netid="CL" source="RESIF" insttype="40" lat="38.4145" lon="21.9467">
    <comp name="00.HHE">
      <acc value="0.0250073731" flag="0"/>
      <vel value="0.0150004849" flag="0"/>
      <psa03 value="0.0803382890" flag="0"/>
      <psa10 value="0.0140613916" flag="0"/>
      <psa30 value="0.0026230998" flag="0"/>
    </comp>
    <comp name="00.HHZ">
      <acc value="0.0144788900" flag="0"/>
      <vel value="0.0072622622" flag="0"/>
      <psa03 value="0.0243586477" flag="0"/>
      <psa10 value="0.0076560832" flag="0"/>
      <psa30 value="0.0019161258" flag="0"/>
    </comp>
    <comp name="00.HHN">
      <acc value="0.0264007626" flag="0"/>
      <vel value="0.0176837571" flag="0"/>
      <psa03 value="0.0590987008" flag="0"/>
      <psa10 value="0.0396282361" flag="0"/>
      <psa30 value="0.0026620931" flag="0"/>
    </comp>
  </station>
  <station code="MG02" name="MG02" netid="CL" source="RESIF" insttype="40" lat="38.415" lon="21.947">
    <comp name="02.HHE">
      <acc value="0.0206800976" flag="0"/>
      <vel value="0.0187574187" flag="0"/>
      <psa03 value="0.0490700483" flag="0"/>
      <psa10 value="0.0230568204" flag="0"/>
      <psa30 value="0.0025149128" flag="0"/>
    </comp>
    <comp name="02.HHN">
      <acc value="0.0164364146" flag="0"/>
      <vel value="0.0119754231" flag="0"/>
      <psa03 value="0.0323660977" flag="0"/>
      <psa10 value="0.0227753908" flag="0"/>
      <psa30 value="0.0018833201" flag="0"/>
    </comp>
    <comp name="02.HHZ">
      <acc value="0.0174554646" flag="0"/>
      <vel value="0.0101399479" flag="0"/>
      <psa03 value="0.0371649529" flag="0"/>
      <psa10 value="0.0170501101" flag="0"/>
      <psa30 value="0.0011967259" flag="0"/>
    </comp>
  </station>
  <station code="MG03" name="MG03" netid="CL" source="RESIF" insttype="40" lat="38.4141" lon="21.946">
    <comp name="03.HHZ">
      <acc value="0.0096605137" flag="0"/>
      <vel value="0.0049955756" flag="0"/>
      <psa03 value="0.0171828787" flag="0"/>
      <psa10 value="0.0062536324" flag="0"/>
      <psa30 value="0.0018899711" flag="0"/>
    </comp>
    <comp name="03.HHE">
      <acc value="0.0189578742" flag="0"/>
      <vel value="0.0123242406" flag="0"/>
      <psa03 value="0.0504753827" flag="0"/>
      <psa10 value="0.0152994400" flag="0"/>
      <psa30 value="0.0025896492" flag="0"/>
    </comp>
    <comp name="03.HHN">
      <acc value="0.0124285082" flag="0"/>
      <vel value="0.0067939126" flag="0"/>
      <psa03 value="0.0283183578" flag="0"/>
      <psa10 value="0.0141796453" flag="0"/>
      <psa30 value="0.0012095973" flag="0"/>
    </comp>
  </station>
  <station code="MG04" name="MG04" netid="CL" source="RESIF" insttype="40" lat="38.4142" lon="21.9481">
    <comp name="04.HHE">
      <acc value="0.0216686588" flag="0"/>
      <vel value="0.0143416822" flag="0"/>
      <psa03 value="0.0478179359" flag="0"/>
      <psa10 value="0.0212388831" flag="0"/>
      <psa30 value="0.0026136052" flag="0"/>
    </comp>
    <comp name="04.HHN">
      <acc value="0.0218929337" flag="0"/>
      <vel value="0.0119871907" flag="0"/>
      <psa03 value="0.0549368029" flag="0"/>
      <psa10 value="0.0361187348" flag="0"/>
      <psa30 value="0.0025891035" flag="0"/>
    </comp>
    <comp name="04.HHZ">
      <acc value="0.0139886233" flag="0"/>
      <vel value="0.0063488486" flag="0"/>
      <psa03 value="0.0196216604" flag="0"/>
      <psa10 value="0.0070932723" flag="0"/>
      <psa30 value="0.0018734930" flag="0"/>
    </comp>
  </station>
  <station code="MG05" name="MG05" netid="CL" source="RESIF" insttype="30" lat="38.4155" lon="21.9458">
    <comp name="05.HHE">
      <acc value="0.0514005725" flag="0"/>
      <vel value="0.0426503026" flag="0"/>
      <psa03 value="0.0906867070" flag="0"/>
      <psa10 value="0.0597755917" flag="0"/>
      <psa30 value="0.0047711363" flag="0"/>
    </comp>
    <comp name="05.HHN">
      <acc value="0.0472118863" flag="0"/>
      <vel value="0.0533473371" flag="0"/>
      <psa03 value="0.0921678606" flag="0"/>
      <psa10 value="0.0798697042" flag="0"/>
      <psa30 value="0.0062683904" flag="0"/>
    </comp>
    <comp name="05.HHZ">
      <acc value="0.0231158155" flag="0"/>
      <vel value="0.0156310391" flag="0"/>
      <psa03 value="0.0663352556" flag="0"/>
      <psa10 value="0.0262053308" flag="0"/>
      <psa30 value="0.0040362701" flag="0"/>
    </comp>
  </station>
  <station code="MG06" name="MG06" netid="CL" source="RESIF" insttype="40" lat="38.4129" lon="21.9462">
    <comp name="06.HHE">
      <acc value="0.0164710933" flag="0"/>
      <vel value="0.0090801193" flag="0"/>
      <psa03 value="0.0250027170" flag="0"/>
      <psa10 value="0.0217712624" flag="0"/>
      <psa30 value="0.0024675319" flag="0"/>
    </comp>
    <comp name="06.HHN">
      <acc value="0.0153101516" flag="0"/>
      <vel value="0.0099227426" flag="0"/>
      <psa03 value="0.0296764121" flag="0"/>
      <psa10 value="0.0122991937" flag="0"/>
      <psa30 value="0.0024145478" flag="0"/>
    </comp>
    <comp name="06.HHZ">
      <acc value="0.0072550382" flag="0"/>
      <vel value="0.0036251600" flag="0"/>
      <psa03 value="0.0146004201" flag="0"/>
      <psa10 value="0.0067759608" flag="0"/>
      <psa30 value="0.0018223429" flag="0"/>
    </comp>
  </station>
  <station code="MG07" name="MG07" netid="CL" source="RESIF" insttype="40" lat="38.4155" lon="21.9488">
    <comp name="07.HHE">
      <acc value="0.0239132634" flag="0"/>
      <vel value="0.0214719255" flag="0"/>
      <psa03 value="0.0488352798" flag="0"/>
      <psa10 value="0.0219065472" flag="0"/>
      <psa30 value="0.0030079729" flag="0"/>
    </comp>
    <comp name="07.HHN">
      <acc value="0.0309848537" flag="0"/>
      <vel value="0.0229775187" flag="0"/>
      <psa03 value="0.0498167443" flag="0"/>
      <psa10 value="0.0500303107" flag="0"/>
      <psa30 value="0.0027421006" flag="0"/>
    </comp>
    <comp name="07.HHZ">
      <acc value="0.0124809169" flag="0"/>
      <vel value="0.0087165937" flag="0"/>
      <psa03 value="0.0365717240" flag="0"/>
      <psa10 value="0.0100347258" flag="0"/>
      <psa30 value="0.0019965792" flag="0"/>
    </comp>
  </station>
  <station code="PSAM" name="PSAM" netid="CL" source="RESIF" insttype="30" lat="38.3322" lon="22.1843">
    <comp name="00.HHE">
      <acc value="0.0116971237" flag="0"/>
      <vel value="0.0087082219" flag="0"/>
      <psa03 value="0.0254049124" flag="0"/>
      <psa10 value="0.0156920002" flag="0"/>
      <psa30 value="0.0020123074" flag="0"/>
    </comp>
    <comp name="00.HHN">
      <acc value="0.0076505368" flag="0"/>
      <vel value="0.0088486909" flag="0"/>
      <psa03 value="0.0187018353" flag="0"/>
      <psa10 value="0.0145725416" flag="0"/>
      <psa30 value="0.0034997424" flag="0"/>
    </comp>
    <comp name="00.HHZ">
      <acc value="0.0068093847" flag="0"/>
      <vel value="0.0043914037" flag="0"/>
      <psa03 value="0.0189340511" flag="0"/>
      <psa10 value="0.0071142907" flag="0"/>
      <psa30 value="0.0010227238" flag="0"/>
    </comp>
  </station>
  <station code="TRIZ" name="TRIZ" netid="CL" source="RESIF" insttype="generation" lat="38.3654" lon="22.0727">
    <comp name="00.HH2">
      <acc value="0.0058933434" flag="0"/>
      <vel value="0.0058306406" flag="0"/>
      <psa03 value="0.0155760119" flag="0"/>
      <psa10 value="0.0107875623" flag="0"/>
      <psa30 value="0.0016584395" flag="0"/>
    </comp>
    <comp name="00.HH3">
      <acc value="0.2408289856" flag="0"/>
      <vel value="0.2495494196" flag="0"/>
      <psa03 value="0.8040160423" flag="0"/>
      <psa10 value="0.2416728770" flag="0"/>
      <psa30 value="0.0706574423" flag="0"/>
    </comp>
    <comp name="00.HHZ">
      <acc value="0.0034843212" flag="0"/>
      <vel value="0.0024742560" flag="0"/>
      <psa03 value="0.0078828949" flag="0"/>
      <psa10 value="0.0033450075" flag="0"/>
      <psa30 value="0.0008489679" flag="0"/>
    </comp>
  </station>
  <station code="KALE" name="KALE" netid="HA" source="NOA" insttype="40," lat="38.3911" lon="22.1398">
    <comp name="--.HHE">
      <acc value="0.0113471198" flag="0"/>
      <vel value="0.0081631425" flag="0"/>
      <psa03 value="0.0305022394" flag="0"/>
      <psa10 value="0.0201342096" flag="0"/>
      <psa30 value="0.0026866114" flag="0"/>
    </comp>
    <comp name="--.HHN">
      <acc value="0.0121607173" flag="0"/>
      <vel value="0.0112612311" flag="0"/>
      <psa03 value="0.0275016077" flag="0"/>
      <psa10 value="0.0145296242" flag="0"/>
      <psa30 value="0.0016965501" flag="0"/>
    </comp>
    <comp name="--.HHZ">
      <acc value="0.0063949330" flag="0"/>
      <vel value="0.0042793915" flag="0"/>
      <psa03 value="0.0117174012" flag="0"/>
      <psa10 value="0.0058040869" flag="0"/>
      <psa30 value="0.0017705391" flag="0"/>
    </comp>
  </station>
  <station code="ARG2" name="ARG2" netid="HI" source="NOA" insttype="CMG-5TD,ACCELEROMETER,GURALP" lat="38.1783" lon="20.4878">
    <comp name="--.HNE">
      <acc value="0.1048783218" flag="0"/>
      <vel value="0.0413379715" flag="0"/>
      <psa03 value="0.1942264495" flag="0"/>
      <psa10 value="0.0450930713" flag="0"/>
      <psa30 value="0.0026434478" flag="0"/>
    </comp>
    <comp name="--.HNN">
      <acc value="0.1230417007" flag="0"/>
      <vel value="0.0420361710" flag="0"/>
      <psa03 value="0.1664992801" flag="0"/>
      <psa10 value="0.0453053767" flag="0"/>
      <psa30 value="0.0031028011" flag="0"/>
    </comp>
    <comp name="--.HNZ">
      <acc value="0.0726489379" flag="0"/>
      <vel value="0.0296676840" flag="0"/>
      <psa03 value="0.1283121873" flag="0"/>
      <psa10 value="0.0459578446" flag="0"/>
      <psa30 value="0.0021766442" flag="0"/>
    </comp>
  </station>
  <station code="KLV1" name="KLV1" netid="HI" source="NOA" insttype="CMG-5TD,ACCELEROMETER,GURALP" lat="38.0326" lon="22.108">
    <comp name="--.HNE">
      <acc value="0.0270178172" flag="0"/>
      <vel value="0.0170237082" flag="0"/>
      <psa03 value="0.0628484600" flag="0"/>
      <psa10 value="0.0208555971" flag="0"/>
      <psa30 value="0.0017490712" flag="0"/>
    </comp>
    <comp name="--.HNN">
      <acc value="0.0182738234" flag="0"/>
      <vel value="0.0128606071" flag="0"/>
      <psa03 value="0.0535867998" flag="0"/>
      <psa10 value="0.0264083971" flag="0"/>
      <psa30 value="0.0016437855" flag="0"/>
    </comp>
    <comp name="--.HNZ">
      <acc value="0.0092071782" flag="0"/>
      <vel value="0.0082920168" flag="0"/>
      <psa03 value="0.0172455110" flag="0"/>
      <psa10 value="0.0144791291" flag="0"/>
      <psa30 value="0.0011974914" flag="0"/>
    </comp>
  </station>
  <station code="KRI1" name="KRI1" netid="HI" source="NOA" insttype="CMG-5TD,ACCELEROMETER,GURALP" lat="37.6621" lon="20.8172">
    <comp name="--.HNE">
      <acc value="0.9587240199" flag="0"/>
      <vel value="0.4686222281" flag="0"/>
      <psa03 value="3.5922375349" flag="0"/>
      <psa10 value="0.5271750161" flag="0"/>
      <psa30 value="0.0243878779" flag="0"/>
    </comp>
    <comp name="--.HNN">
      <acc value="0.9372408962" flag="0"/>
      <vel value="0.3691353241" flag="0"/>
      <psa03 value="2.0042278733" flag="0"/>
      <psa10 value="0.3994669120" flag="0"/>
      <psa30 value="0.0204643493" flag="0"/>
    </comp>
    <comp name="--.HNZ">
      <acc value="0.6514953912" flag="0"/>
      <vel value="0.2417348618" flag="0"/>
      <psa03 value="2.0251100686" flag="0"/>
      <psa10 value="0.1346006825" flag="0"/>
      <psa30 value="0.0139474584" flag="0"/>
    </comp>
  </station>
  <station code="ITM" name="ITM" netid="HL" source="NOA" insttype="DR24" lat="37.1787" lon="21.9252">
    <comp name="--.HHE">
      <acc value="0.0286173109" flag="0"/>
      <vel value="0.0247951217" flag="0"/>
      <psa03 value="0.0699584113" flag="0"/>
      <psa10 value="0.0182958083" flag="0"/>
      <psa30 value="0.0022429816" flag="0"/>
    </comp>
    <comp name="--.HHN">
      <acc value="0.0249313765" flag="0"/>
      <vel value="0.0129157531" flag="0"/>
      <psa03 value="0.0700595954" flag="0"/>
      <psa10 value="0.0136020306" flag="0"/>
      <psa30 value="0.0033251984" flag="0"/>
    </comp>
    <comp name="--.HHZ">
      <acc value="0.0153318721" flag="0"/>
      <vel value="0.0092352935" flag="0"/>
      <psa03 value="0.0380191934" flag="0"/>
      <psa10 value="0.0114434140" flag="0"/>
      <psa30 value="0.0015236984" flag="0"/>
    </comp>
  </station>
  <station code="KLV" name="KLV" netid="HL" source="NOA" insttype="120" lat="38.0435" lon="22.1504">
    <comp name="--.HHE">
      <acc value="0.0072341294" flag="0"/>
      <vel value="0.0065153657" flag="0"/>
      <psa03 value="0.0141668775" flag="0"/>
      <psa10 value="0.0093221949" flag="0"/>
      <psa30 value="0.0009659608" flag="0"/>
    </comp>
    <comp name="--.HHN">
      <acc value="0.0071520644" flag="0"/>
      <vel value="0.0063551371" flag="0"/>
      <psa03 value="0.0131968008" flag="0"/>
      <psa10 value="0.0112809698" flag="0"/>
      <psa30 value="0.0012971368" flag="0"/>
    </comp>
    <comp name="--.HHZ">
      <acc value="0.0060299630" flag="0"/>
      <vel value="0.0051859840" flag="0"/>
      <psa03 value="0.0118289192" flag="0"/>
      <psa10 value="0.0072394854" flag="0"/>
      <psa30 value="0.0010896013" flag="0"/>
    </comp>
  </station>
  <station code="ORTH" name="ORTH" netid="HL" source="NOA" insttype="30" lat="37.8511" lon="20.6963">
    <comp name="--.HHE">
      <acc value="0.4367067045" flag="0"/>
      <vel value="0.1558910347" flag="0"/>
      <psa03 value="0.6760699242" flag="0"/>
      <psa10 value="0.1123705834" flag="0"/>
      <psa30 value="0.0061524540" flag="0"/>
    </comp>
    <comp name="--.HHN">
      <acc value="0.4520477705" flag="0"/>
      <vel value="0.1231967079" flag="0"/>
      <psa03 value="1.0332065840" flag="0"/>
      <psa10 value="0.0495768053" flag="0"/>
      <psa30 value="0.0044588669" flag="0"/>
    </comp>
    <comp name="--.HHZ">
      <acc value="0.1954808661" flag="0"/>
      <vel value="0.0698247451" flag="0"/>
      <psa03 value="0.3961593577" flag="0"/>
      <psa10 value="0.0353690903" flag="0"/>
      <psa30 value="0.0019613095" flag="0"/>
    </comp>
  </station>
  <station code="RLS" name="RLS" netid="HL" source="NOA" insttype="120" lat="38.0559" lon="21.4647">
    <comp name="--.HHE">
      <acc value="0.0625228731" flag="0"/>
      <vel value="0.0269659855" flag="0"/>
      <psa03 value="0.1598580812" flag="0"/>
      <psa10 value="0.0244682056" flag="0"/>
      <psa30 value="0.0043902647" flag="0"/>
    </comp>
    <comp name="--.HHN">
      <acc value="0.0568494687" flag="0"/>
      <vel value="0.0380475338" flag="0"/>
      <psa03 value="0.1007463032" flag="0"/>
      <psa10 value="0.0398531073" flag="0"/>
      <psa30 value="0.0035016007" flag="0"/>
    </comp>
    <comp name="--.HHZ">
      <acc value="0.0221181004" flag="0"/>
      <vel value="0.0182512267" flag="0"/>
      <psa03 value="0.0670798560" flag="0"/>
      <psa10 value="0.0247616533" flag="0"/>
      <psa30 value="0.0042279890" flag="0"/>
    </comp>
  </station>
  <station code="VLS" name="VLS" netid="HL" source="NOA" insttype="120P," lat="38.1768" lon="20.5886">
    <comp name="--.HHE">
      <acc value="0.1443600229" flag="0"/>
      <vel value="0.0229469156" flag="0"/>
      <psa03 value="0.1139307431" flag="0"/>
      <psa10 value="0.0188346235" flag="0"/>
      <psa30 value="0.0021134883" flag="0"/>
    </comp>
    <comp name="--.HHN">
      <acc value="0.0993810943" flag="0"/>
      <vel value="0.0262106443" flag="0"/>
      <psa03 value="0.0837386141" flag="0"/>
      <psa10 value="0.0192286944" flag="0"/>
      <psa30 value="0.0020787728" flag="0"/>
    </comp>
    <comp name="--.HHZ">
      <acc value="0.0525347036" flag="0"/>
      <vel value="0.0140528625" flag="0"/>
      <psa03 value="0.0680218220" flag="0"/>
      <psa10 value="0.0183130320" flag="0"/>
      <psa30 value="0.0014418100" flag="0"/>
    </comp>
  </station>
  <station code="AMPL" name="AMPL" netid="HP" source="NOA" insttype="Compact," lat="38.9224" lon="21.2135">
    <comp name="--.HHE">
      <acc value="0.0120051934" flag="0"/>
      <vel value="0.0088456509" flag="0"/>
      <psa03 value="0.0266597870" flag="0"/>
      <psa10 value="0.0215458997" flag="0"/>
      <psa30 value="0.0019265650" flag="0"/>
    </comp>
    <comp name="--.HHN">
      <acc value="0.0120336899" flag="0"/>
      <vel value="0.0087739561" flag="0"/>
      <psa03 value="0.0293586648" flag="0"/>
      <psa10 value="0.0124833519" flag="0"/>
      <psa30 value="0.0015408889" flag="0"/>
    </comp>
    <comp name="--.HHZ">
      <acc value="0.0056351228" flag="0"/>
      <vel value="0.0058545362" flag="0"/>
      <psa03 value="0.0167003226" flag="0"/>
      <psa10 value="0.0119772268" flag="0"/>
      <psa30 value="0.0023578953" flag="0"/>
    </comp>
  </station>
  <station code="ANX" name="ANX" netid="HP" source="NOA" insttype="120" lat="38.5933" lon="21.9209">
    <comp name="--.HHE">
      <acc value="0.0177364154" flag="0"/>
      <vel value="0.0152589926" flag="0"/>
      <psa03 value="0.0313442477" flag="0"/>
      <psa10 value="0.0261322941" flag="0"/>
      <psa30 value="0.0014542546" flag="0"/>
    </comp>
    <comp name="--.HHN">
      <acc value="0.0147424187" flag="0"/>
      <vel value="0.0164351184" flag="0"/>
      <psa03 value="0.0319601781" flag="0"/>
      <psa10 value="0.0229231812" flag="0"/>
      <psa30 value="0.0022297821" flag="0"/>
    </comp>
    <comp name="--.HHZ">
      <acc value="0.0101585921" flag="0"/>
      <vel value="0.0097627082" flag="0"/>
      <psa03 value="0.0252690422" flag="0"/>
      <psa10 value="0.0109454310" flag="0"/>
      <psa30 value="0.0016061253" flag="0"/>
    </comp>
  </station>
  <station code="AXS" name="AXS" netid="HP" source="NOA" insttype="40," lat="38.1962" lon="21.3763">
    <comp name="--.HHE">
