<?xml version="1.0" encoding="UTF-8" standalone="yes"?>
<!DOCTYPE earthquake SYSTEM "stationlist.dtd">
<stationlist created="" xmlns="ch.ethz.sed.shakemap.usgs.xml">
  <station code="ALT" name="ALT" netid="KO" insttype="CMG-5T" lat="39.0541" lon="30.1104">
    <comp name="--.HNE">
      <acc value="0.1018325195" flag="0"/>
      <vel value="0.0203461555" flag="0"/>
      <psa03 value="0.0362534830" flag="0"/>
      <psa10 value="0.0021311638" flag="0"/>
      <psa30 value="0.0004275096" flag="0"/>
    </comp>
    <comp name="--.HNN">
      <acc value="0.1145825175" flag="0"/>
      <vel value="0.0146440583" flag="0"/>
      <psa03 value="0.0433430780" flag="0"/>
      <psa10 value="0.0029153058" flag="0"/>
      <psa30 value="0.0004801387" flag="0"/>
    </comp>
    <comp name="--.HNZ">
      <acc value="0.0661937541" flag="0"/>
      <vel value="0.0104548383" flag="0"/>
      <psa03 value="0.0198543552" flag="0"/>
      <psa10 value="0.0027559648" flag="0"/>
      <psa30 value="0.0003753901" flag="0"/>
    </comp>
  </station>
  <station code="GEDZ" name="GEDZ" netid="KO" insttype="CMG-6T" lat="39.0445" lon="29.4105">
    <comp name="--.HHN">
      <acc value="0.9830294250" flag="0"/>
      <vel value="0.2947234425" flag="0"/>
      <psa03 value="1.9604402769" flag="0"/>
      <psa10 value="0.1243961868" flag="0"/>
      <psa30 value="0.0078540509" flag="0"/>
    </comp>
    <comp name="--.HHE">
      <acc value="1.4705095845" flag="0"/>
      <vel value="0.3096113672" flag="0"/>
      <psa03 value="1.8635831229" flag="0"/>
      <psa10 value="0.1141084603" flag="0"/>
      <psa30 value="0.0099310851" flag="0"/>
    </comp>
    <comp name="--.HHZ">
      <acc value="0.5408317684" flag="0"/>
      <vel value="0.1496460833" flag="0"/>
      <psa03 value="0.9068722232" flag="0"/>
      <psa10 value="0.0776806870" flag="0"/>
      <psa30 value="0.0049759791" flag="0"/>
    </comp>
  </station>
  <station code="GORD" name="GORD" netid="KO" insttype="CMG-5T" lat="38.9088" lon="28.1769">
    <comp name="--.HNE">
      <acc value="0.0103473476" flag="0"/>
      <vel value="0.0061775651" flag="0"/>
      <psa03 value="0.0275776482" flag="0"/>
      <psa10 value="0.0051235743" flag="0"/>
      <psa30 value="0.0002945272" flag="0"/>
    </comp>
    <comp name="--.HNN">
      <acc value="0.0074417861" flag="0"/>
      <vel value="0.0054762393" flag="0"/>
      <psa03 value="0.0218927792" flag="0"/>
      <psa10 value="0.0054527268" flag="0"/>
      <psa30 value="0.0003878472" flag="0"/>
    </comp>
    <comp name="--.HNZ">
      <acc value="0.0060384889" flag="0"/>
      <vel value="0.0044105522" flag="0"/>
      <psa03 value="0.0184639740" flag="0"/>
      <psa10 value="0.0043398220" flag="0"/>
      <psa30 value="0.0003648599" flag="0"/>
    </comp>
  </station>
  <station code="KULA" name="KULA" netid="KO" insttype="CMG-3T" lat="38.5145" lon="28.6607">
    <comp name="--.HHZ">
      <acc value="0.0153912744" flag="0"/>
      <vel value="0.0066319564" flag="0"/>
      <psa03 value="0.0292152073" flag="0"/>
      <psa10 value="0.0032208890" flag="0"/>
      <psa30 value="0.0003189476" flag="0"/>
    </comp>
    <comp name="--.HHE">
      <acc value="0.0179687329" flag="0"/>
      <vel value="0.0060731772" flag="0"/>
      <psa03 value="0.0244744503" flag="0"/>
      <psa10 value="0.0027972348" flag="0"/>
      <psa30 value="0.0002303827" flag="0"/>
    </comp>
    <comp name="--.HHN">
      <acc value="0.0355842072" flag="0"/>
      <vel value="0.0076128021" flag="0"/>
      <psa03 value="0.0449220678" flag="0"/>
      <psa10 value="0.0035218426" flag="0"/>
      <psa30 value="0.0004201997" flag="0"/>
    </comp>
  </station>
  <station code="ORLT" name="ORLT" netid="KO" insttype="CMG-5T" lat="40.0452" lon="28.8914">
    <comp name="--.HNZ">
      <acc value="0.0166130452" flag="0"/>
      <vel value="0.0074376647" flag="0"/>
      <psa03 value="0.0274534998" flag="0"/>
      <psa10 value="0.0068696980" flag="0"/>
      <psa30 value="0.0004622338" flag="0"/>
    </comp>
    <comp name="--.HNN">
      <acc value="0.0297845839" flag="0"/>
      <vel value="0.0187067830" flag="0"/>
      <psa03 value="0.1056466645" flag="0"/>
      <psa10 value="0.0147758636" flag="0"/>
      <psa30 value="0.0012219238" flag="0"/>
    </comp>
    <comp name="--.HNE">
      <acc value="0.0393660261" flag="0"/>
      <vel value="0.0182477765" flag="0"/>
      <psa03 value="0.1859594884" flag="0"/>
      <psa10 value="0.0058221567" flag="0"/>
      <psa30 value="0.0005597696" flag="0"/>
    </comp>
  </station>
  <station code="SHAP" name="SHAP" netid="KO" insttype="CMG-5T" lat="39.0231" lon="29.222">
    <comp name="--.HNN">
      <acc value="1.3220841988" flag="0"/>
      <vel value="0.1487649289" flag="0"/>
      <psa03 value="0.6263478003" flag="0"/>
      <psa10 value="0.0339355305" flag="0"/>
      <psa30 value="0.0029112203" flag="0"/>
    </comp>
    <comp name="--.HNZ">
      <acc value="0.5712657478" flag="0"/>
      <vel value="0.1043477438" flag="0"/>
      <psa03 value="0.2204506512" flag="0"/>
      <psa10 value="0.0168903716" flag="0"/>
      <psa30 value="0.0016536596" flag="0"/>
    </comp>
    <comp name="--.HNE">
      <acc value="1.3420383789" flag="0"/>
      <vel value="0.2074019350" flag="0"/>
      <psa03 value="0.8082651416" flag="0"/>
      <psa10 value="0.0394516789" flag="0"/>
      <psa30 value="0.0028500129" flag="0"/>
    </comp>
  </station>
  <station code="SHUT" name="SHUT" netid="KO" insttype="CMG-3T" lat="38.553" lon="30.551">
    <comp name="--.HHE">
      <acc value="0.0085180339" flag="0"/>
      <vel value="0.0037723696" flag="0"/>
      <psa03 value="0.0110509207" flag="0"/>
      <psa10 value="0.0036491308" flag="0"/>
      <psa30 value="0.0004104575" flag="0"/>
    </comp>
    <comp name="--.HHN">
      <acc value="0.0094563014" flag="0"/>
      <vel value="0.0036931632" flag="0"/>
      <psa03 value="0.0161572694" flag="0"/>
      <psa10 value="0.0026745798" flag="0"/>
      <psa30 value="0.0002001478" flag="0"/>
    </comp>
    <comp name="--.HHZ">
      <acc value="0.0050605765" flag="0"/>
      <vel value="0.0015129932" flag="0"/>
      <psa03 value="0.0075104292" flag="0"/>
      <psa10 value="0.0013711328" flag="0"/>
      <psa30 value="0.0000961738" flag="0"/>
    </comp>
  </station>
  <station code="SMAA" name="SMAA" netid="KO" insttype="CMG-5T" lat="39.1005" lon="28.9805">
    <comp name="--.HNE">
      <acc value="0.1430447014" flag="0"/>
      <vel value="0.0472494462" flag="0"/>
      <psa03 value="0.1891431142" flag="0"/>
      <psa10 value="0.0384621669" flag="0"/>
      <psa30 value="0.0019876534" flag="0"/>
    </comp>
    <comp name="--.HNZ">
      <acc value="0.0878480580" flag="0"/>
      <vel value="0.0171290721" flag="0"/>
      <psa03 value="0.0884290201" flag="0"/>
      <psa10 value="0.0204431215" flag="0"/>
      <psa30 value="0.0006542864" flag="0"/>
    </comp>
    <comp name="--.HNN">
      <acc value="0.1547891421" flag="0"/>
      <vel value="0.0729295550" flag="0"/>
      <psa03 value="0.2950591626" flag="0"/>
      <psa10 value="0.0749095638" flag="0"/>
      <psa30 value="0.0030819247" flag="0"/>
    </comp>
  </station>
  <station code="TVSB" name="TVSB" netid="KO" insttype="CMG-3T" lat="39.4497" lon="29.4615">
    <comp name="--.HHN">
      <acc value="0.1953709029" flag="0"/>
      <vel value="0.0513133860" flag="0"/>
      <psa03 value="0.3062124262" flag="0"/>
      <psa10 value="0.0160088364" flag="0"/>
      <psa30 value="0.0012319887" flag="0"/>
    </comp>
    <comp name="--.HHE">
      <acc value="0.2357412444" flag="0"/>
      <vel value="0.0532958066" flag="0"/>
      <psa03 value="0.1188482912" flag="0"/>
      <psa10 value="0.0118543057" flag="0"/>
      <psa30 value="0.0010875747" flag="0"/>
    </comp>
    <comp name="--.HHZ">
      <acc value="0.1134977800" flag="0"/>
      <vel value="0.0225530603" flag="0"/>
      <psa03 value="0.1349442114" flag="0"/>
      <psa10 value="0.0063945801" flag="0"/>
      <psa30 value="0.0006526489" flag="0"/>
    </comp>
  </station>
  <station code="BORA" name="BORA" netid="TU" insttype="T" lat="39.8801" lon="30.4534">
    <comp name="--.HHE">
      <acc value="0.0264978490" flag="0"/>
      <vel value="0.0060831673" flag="0"/>
      <psa03 value="0.0459184933" flag="0"/>
      <psa10 value="0.0015614375" flag="0"/>
      <psa30 value="0.0001617634" flag="0"/>
    </comp>
    <comp name="--.HHZ">
      <acc value="0.0753682657" flag="0"/>
      <vel value="0.0162055361" flag="0"/>
      <psa03 value="0.0279654165" flag="0"/>
      <psa10 value="0.0021277395" flag="0"/>
      <psa30 value="0.0002348739" flag="0"/>
    </comp>
    <comp name="--.HHN">
      <acc value="0.0212974228" flag="0"/>
      <vel value="0.0054465702" flag="0"/>
      <psa03 value="0.0259182829" flag="0"/>
      <psa10 value="0.0017681804" flag="0"/>
      <psa30 value="0.0001251412" flag="0"/>
    </comp>
  </station>
</stationlist>
