<?xml version="1.0" encoding="UTF-8" standalone="yes"?>
<!DOCTYPE earthquake SYSTEM "stationlist.dtd">
<stationlist created="" xmlns="ch.ethz.sed.shakemap.usgs.xml">
  <station code="BAYT" name="BAYT" netid="KO" insttype="CMG-3ESPC" commtype="DIG" lat="40.3937" lon="40.141">
    <comp name="--.HHE">
      <acc value="0.0211951937" flag="0"/>
      <vel value="0.0084766485" flag="0"/>
      <psa03 value="0.0587620880" flag="0"/>
      <psa10 value="0.0060035884" flag="0"/>
      <psa30 value="0.0003102427" flag="0"/>
    </comp>
    <comp name="--.HHN">
      <acc value="0.0168816892" flag="0"/>
      <vel value="0.0078526192" flag="0"/>
      <psa03 value="0.0449776655" flag="0"/>
      <psa10 value="0.0050051971" flag="0"/>
      <psa30 value="0.0004175696" flag="0"/>
    </comp>
    <comp name="--.HHZ">
      <acc value="0.0014648707" flag="0"/>
      <vel value="0.0005997688" flag="0"/>
      <psa03 value="0.0071021878" flag="0"/>
      <psa10 value="0.0002370165" flag="0"/>
      <psa30 value="0.0000169276" flag="0"/>
    </comp>
  </station>
  <station code="BNGB" name="BNGB" netid="KO" insttype="CMG-3ESPC" commtype="DIG" lat="38.9913" lon="40.6792">
    <comp name="--.HHE">
      <acc value="0.0028738508" flag="0"/>
      <vel value="0.0025446094" flag="0"/>
      <psa03 value="0.0088154195" flag="0"/>
      <psa10 value="0.0026804532" flag="0"/>
      <psa30 value="0.0002471808" flag="0"/>
    </comp>
    <comp name="--.HHN">
      <acc value="0.0026488779" flag="0"/>
      <vel value="0.0012507869" flag="0"/>
      <psa03 value="0.0053213794" flag="0"/>
      <psa10 value="0.0019119768" flag="0"/>
      <psa30 value="0.0002782581" flag="0"/>
    </comp>
    <comp name="--.HHZ">
      <acc value="0.0016491624" flag="0"/>
      <vel value="0.0015685099" flag="0"/>
      <psa03 value="0.0039971847" flag="0"/>
      <psa10 value="0.0018374827" flag="0"/>
      <psa30 value="0.0002065961" flag="0"/>
    </comp>
  </station>
  <station code="ERZN" name="ERZN" netid="KO" insttype="CMG-3ESP" commtype="DIG" lat="39.5867" lon="39.722">
    <comp name="--.HHN">
      <acc value="2.8677189981" flag="0"/>
      <vel value="0.2907706712" flag="0"/>
      <psa03 value="0.7694401163" flag="0"/>
      <psa10 value="0.1078106718" flag="0"/>
      <psa30 value="0.0050335248" flag="0"/>
    </comp>
    <comp name="--.HHZ">
      <acc value="2.1385368127" flag="0"/>
      <vel value="0.1854805983" flag="0"/>
      <psa03 value="0.2798315973" flag="0"/>
      <psa10 value="0.0282413546" flag="0"/>
      <psa30 value="0.0028048584" flag="0"/>
    </comp>
    <comp name="--.HHE">
      <acc value="2.4850666535" flag="0"/>
      <vel value="0.2859317042" flag="0"/>
      <psa03 value="0.6746616213" flag="0"/>
      <psa10 value="0.1084260864" flag="0"/>
      <psa30 value="0.0090520321" flag="0"/>
    </comp>
  </station>
  <station code="KBAN" name="KBAN" netid="KO" insttype="CMG-6T" commtype="DIG" lat="38.797" lon="38.7278">
    <comp name="--.HHN">
      <acc value="0.0102488322" flag="0"/>
      <vel value="0.0041453499" flag="0"/>
      <psa03 value="0.0281393817" flag="0"/>
      <psa10 value="0.0053489536" flag="0"/>
      <psa30 value="0.0002045376" flag="0"/>
    </comp>
    <comp name="--.HHZ">
      <acc value="0.0083835689" flag="0"/>
      <vel value="0.0050405085" flag="0"/>
      <psa03 value="0.0323840776" flag="0"/>
      <psa10 value="0.0038859692" flag="0"/>
      <psa30 value="0.0002488271" flag="0"/>
    </comp>
    <comp name="--.HHE">
      <acc value="0.0131862015" flag="0"/>
      <vel value="0.0063500493" flag="0"/>
      <psa03 value="0.0338664472" flag="0"/>
      <psa10 value="0.0062638764" flag="0"/>
      <psa30 value="0.0003621006" flag="0"/>
    </comp>
  </station>
  <station code="KMAH" name="KMAH" netid="KO" insttype="CMG-3ESP" commtype="DIG" lat="39.6082" lon="39.0275">
    <comp name="--.HHN">
      <acc value="0.2439120880" flag="0"/>
      <vel value="0.0659938978" flag="0"/>
      <psa03 value="0.1978625076" flag="0"/>
      <psa10 value="0.0150725578" flag="0"/>
      <psa30 value="0.0011545287" flag="0"/>
    </comp>
  </station>
  <station code="SINE" name="SINE" netid="KO" insttype="CMG-6T" commtype="DIG" lat="39.1636" lon="39.3871">
    <comp name="--.HHN">
      <acc value="0.0571939854" flag="0"/>
      <vel value="0.0123297613" flag="0"/>
      <psa03 value="0.0525920797" flag="0"/>
      <psa10 value="0.0051112659" flag="0"/>
      <psa30 value="0.0003115433" flag="0"/>
    </comp>
    <comp name="--.HHE">
      <acc value="0.0537032762" flag="0"/>
      <vel value="0.0183271630" flag="0"/>
      <psa03 value="0.0887706251" flag="0"/>
      <psa10 value="0.0074382071" flag="0"/>
      <psa30 value="0.0006975271" flag="0"/>
    </comp>
    <comp name="--.HHZ">
      <acc value="0.0388745924" flag="0"/>
      <vel value="0.0124695920" flag="0"/>
      <psa03 value="0.0503481274" flag="0"/>
      <psa10 value="0.0098625010" flag="0"/>
      <psa30 value="0.0005461148" flag="0"/>
    </comp>
  </station>
</stationlist>
