<?xml version="1.0" encoding="UTF-8" standalone="yes"?>
<!DOCTYPE earthquake SYSTEM "stationlist.dtd">
<stationlist created="" xmlns="ch.ethz.sed.shakemap.usgs.xml">
  <station code="BAYT" name="BAYT" netid="KO" insttype="CMG-3ESPC" commtype="DIG" lat="40.3937" lon="40.141">
    <comp name="--.HHN">
      <acc value="0.0168816893" flag="0"/>
      <vel value="0.0078526193" flag="0"/>
      <psa03 value="0.0449776655" flag="0"/>
      <psa10 value="0.0050051971" flag="0"/>
      <psa30 value="0.0004175664" flag="0"/>
    </comp>
    <comp name="--.HHZ">
      <acc value="0.0014648708" flag="0"/>
      <vel value="0.0005997688" flag="0"/>
      <psa03 value="0.0071021878" flag="0"/>
      <psa10 value="0.0002370165" flag="0"/>
      <psa30 value="0.0000169300" flag="0"/>
    </comp>
    <comp name="--.HHE">
      <acc value="0.0211951938" flag="0"/>
      <vel value="0.0084766484" flag="0"/>
      <psa03 value="0.0587620880" flag="0"/>
      <psa10 value="0.0060035884" flag="0"/>
      <psa30 value="0.0003102433" flag="0"/>
    </comp>
  </station>
  <station code="BNGB" name="BNGB" netid="KO" insttype="CMG-3ESPC" commtype="DIG" lat="38.9913" lon="40.6792">
    <comp name="--.HHN">
      <acc value="0.0026488778" flag="0"/>
      <vel value="0.0012507875" flag="0"/>
      <psa03 value="0.0053213794" flag="0"/>
      <psa10 value="0.0019119768" flag="0"/>
      <psa30 value="0.0002782556" flag="0"/>
    </comp>
    <comp name="--.HHZ">
      <acc value="0.0016491624" flag="0"/>
      <vel value="0.0015685096" flag="0"/>
      <psa03 value="0.0039971847" flag="0"/>
      <psa10 value="0.0018374827" flag="0"/>
      <psa30 value="0.0002066001" flag="0"/>
    </comp>
    <comp name="--.HHE">
      <acc value="0.0028738508" flag="0"/>
      <vel value="0.0025446102" flag="0"/>
      <psa03 value="0.0088154195" flag="0"/>
      <psa10 value="0.0026804532" flag="0"/>
      <psa30 value="0.0002471812" flag="0"/>
    </comp>
  </station>
  <station code="ERZN" name="ERZN" netid="KO" insttype="CMG-3ESP" commtype="DIG" lat="39.5867" lon="39.722">
    <comp name="--.HHE">
      <acc value="2.4850666534" flag="0"/>
      <vel value="0.2859317087" flag="0"/>
      <psa03 value="0.6746616213" flag="0"/>
      <psa10 value="0.1084260870" flag="0"/>
      <psa30 value="0.0090520413" flag="0"/>
    </comp>
    <comp name="--.HHN">
      <acc value="2.8677189981" flag="0"/>
      <vel value="0.2907706811" flag="0"/>
      <psa03 value="0.7694401163" flag="0"/>
      <psa10 value="0.1078106720" flag="0"/>
      <psa30 value="0.0050334996" flag="0"/>
    </comp>
    <comp name="--.HHZ">
      <acc value="2.1385368124" flag="0"/>
      <vel value="0.1854805983" flag="0"/>
      <psa03 value="0.2798315973" flag="0"/>
      <psa10 value="0.0282413546" flag="0"/>
      <psa30 value="0.0028048378" flag="0"/>
    </comp>
  </station>
  <station code="KBAN" name="KBAN" netid="KO" insttype="CMG-6T" commtype="DIG" lat="38.797" lon="38.7278">
    <comp name="--.HHN">
      <acc value="0.0102488193" flag="0"/>
      <vel value="0.0041453516" flag="0"/>
      <psa03 value="0.0281393817" flag="0"/>
      <psa10 value="0.0053489536" flag="0"/>
      <psa30 value="0.0002045341" flag="0"/>
    </comp>
    <comp name="--.HHE">
      <acc value="0.0131861981" flag="0"/>
      <vel value="0.0063500463" flag="0"/>
      <psa03 value="0.0338664472" flag="0"/>
      <psa10 value="0.0062638764" flag="0"/>
      <psa30 value="0.0003620809" flag="0"/>
    </comp>
    <comp name="--.HHZ">
      <acc value="0.0083835663" flag="0"/>
      <vel value="0.0050405088" flag="0"/>
      <psa03 value="0.0323840776" flag="0"/>
      <psa10 value="0.0038859692" flag="0"/>
      <psa30 value="0.0002488261" flag="0"/>
    </comp>
  </station>
  <station code="KMAH" name="KMAH" netid="KO" insttype="CMG-3ESP" commtype="DIG" lat="39.6082" lon="39.0275">
    <comp name="--.HHN">
      <acc value="0.2439120807" flag="0"/>
      <vel value="0.0659938961" flag="0"/>
      <psa03 value="0.1978625076" flag="0"/>
      <psa10 value="0.0150725578" flag="0"/>
      <psa30 value="0.0011545298" flag="0"/>
    </comp>
  </station>
  <station code="SINE" name="SINE" netid="KO" insttype="CMG-6T" commtype="DIG" lat="39.1636" lon="39.3871">
    <comp name="--.HHE">
      <acc value="0.0537032764" flag="0"/>
      <vel value="0.0183271629" flag="0"/>
      <psa03 value="0.0887706251" flag="0"/>
      <psa10 value="0.0074382072" flag="0"/>
      <psa30 value="0.0006975277" flag="0"/>
    </comp>
    <comp name="--.HHZ">
      <acc value="0.0388745928" flag="0"/>
      <vel value="0.0124695920" flag="0"/>
      <psa03 value="0.0503481274" flag="0"/>
      <psa10 value="0.0098625010" flag="0"/>
      <psa30 value="0.0005461142" flag="0"/>
    </comp>
    <comp name="--.HHN">
      <acc value="0.0571939852" flag="0"/>
      <vel value="0.0123297611" flag="0"/>
      <psa03 value="0.0525920797" flag="0"/>
      <psa10 value="0.0051112659" flag="0"/>
      <psa30 value="0.0003115376" flag="0"/>
    </comp>
  </station>
</stationlist>
