<stationlist created="1776432313">
	<station code="ARPRA" name="ARPRA" netid="KO" source="Bogazici University Kandilli Observatory And Earthquake Research Institute (KOERI)" insttype="" lat="39.0929" lon="38.3356">
		<comp name="--.HNE" depth="0.0">
			<acc value="0.0288723384928124" flag="0"/>
			<vel value="0.0140812613165081" flag="0"/>
			<psa03 value="0.0992645966256944" flag="0"/>
			<psa10 value="0.010582019756875" flag="0"/>
			<psa30 value="0.00048091019127332" flag="0"/>
		</comp>
		<comp name="--.HNN" depth="0.0">
			<acc value="0.0324068051364127" flag="0"/>
			<vel value="0.0118231350485228" flag="0"/>
			<psa03 value="0.0663588907425058" flag="0"/>
			<psa10 value="0.00841746167802541" flag="0"/>
			<psa30 value="0.0005365021552181" flag="0"/>
		</comp>
		<comp name="--.HNZ" depth="0.0">
			<acc value="0.0197546952745791" flag="0"/>
			<vel value="0.00620299083583795" flag="0"/>
			<psa03 value="0.0252852010621437" flag="0"/>
			<psa10 value="0.00539906109880058" flag="0"/>
			<psa30 value="0.000514759100264086" flag="0"/>
		</comp>
	</station>
	<station code="GUMT" name="GUMT" netid="KO" source="Bogazici University Kandilli Observatory And Earthquake Research Institute (KOERI)" insttype="" lat="40.4665" lon="39.478">
		<comp name="--.HNE" depth="0.0">
			<acc value="0.00794903235002897" flag="0"/>
			<vel value="0.0025049180679229" flag="0"/>
			<psa03 value="0.00784586805754495" flag="0"/>
			<psa10 value="0.00246791684675419" flag="0"/>
			<psa30 value="0.000238972445335021" flag="0"/>
		</comp>
		<comp name="--.HNN" depth="0.0">
			<acc value="0.00583414450973243" flag="0"/>
			<vel value="0.00153082904761782" flag="0"/>
			<psa03 value="0.00769847482992533" flag="0"/>
			<psa10 value="0.00152439453834432" flag="0"/>
			<psa30 value="0.000127238715398773" flag="0"/>
		</comp>
		<comp name="--.HNZ" depth="0.0">
			<acc value="0.00483104185172499" flag="0"/>
			<vel value="0.00177884135277672" flag="0"/>
			<psa03 value="0.00677373192962158" flag="0"/>
			<psa10 value="0.0030147340082075" flag="0"/>
			<psa30 value="0.000112676266332991" flag="0"/>
		</comp>
	</station>
	<station code="RFHY" name="RFHY" netid="KO" source="Bogazici University Kandilli Observatory And Earthquake Research Institute (KOERI)" insttype="" lat="39.927" lon="38.833">
		<comp name="--.HNE" depth="0.0">
			<acc value="0.00155786975405898" flag="0"/>
			<vel value="0.000885140564611938" flag="0"/>
			<psa03 value="0.00157529804065986" flag="0"/>
			<psa10 value="0.000834598217723428" flag="0"/>
			<psa30 value="0.000584871192762788" flag="0"/>
		</comp>
		<comp name="--.HNN" depth="0.0">
			<acc value="0.0182823332754081" flag="0"/>
			<vel value="0.0076577624140266" flag="0"/>
			<psa03 value="0.0337319507220208" flag="0"/>
			<psa10 value="0.0149372863969154" flag="0"/>
			<psa30 value="0.00119510187796749" flag="0"/>
		</comp>
		<comp name="--.HNZ" depth="0.0">
			<acc value="0.010348109454934" flag="0"/>
			<vel value="0.0048871509441614" flag="0"/>
			<psa03 value="0.0185023285530453" flag="0"/>
			<psa10 value="0.00951855618263244" flag="0"/>
			<psa30 value="0.000827075831381418" flag="0"/>
		</comp>
	</station>
</stationlist>
