<?xml version="1.0" encoding="UTF-8" standalone="yes"?>
<!DOCTYPE earthquake SYSTEM "stationlist.dtd">
<stationlist created="" xmlns="ch.ethz.sed.shakemap.usgs.xml">
  <station code="RP05B" name="RP05B" netid="5B" insttype="Compact" lat="37.6182" lon="21.6541">
    <comp name="--.HHE">
      <acc value="0.0622333091" flag="0"/>
      <vel value="0.0279245530" flag="0"/>
      <psa03 value="0.1663221039" flag="0"/>
      <psa10 value="0.0265033477" flag="0"/>
      <psa30 value="0.0026404066" flag="0"/>
    </comp>
    <comp name="--.HHN">
      <acc value="0.0629341807" flag="0"/>
      <vel value="0.0291229059" flag="0"/>
      <psa03 value="0.1841681027" flag="0"/>
      <psa10 value="0.0414702008" flag="0"/>
      <psa30 value="0.0036851156" flag="0"/>
    </comp>
    <comp name="--.HHZ">
      <acc value="0.0305916721" flag="0"/>
      <vel value="0.0152586712" flag="0"/>
      <psa03 value="0.0880221678" flag="0"/>
      <psa10 value="0.0175475152" flag="0"/>
      <psa30 value="0.0013012118" flag="0"/>
    </comp>
  </station>
  <station code="KYP2" name="KYP2" netid="HI" insttype="unknown" lat="37.2497" lon="21.667">
    <comp name="--.HNN">
      <acc value="0.0709963427" flag="0"/>
      <vel value="0.0208726103" flag="0"/>
      <psa03 value="0.1246932573" flag="0"/>
      <psa10 value="0.0080405352" flag="0"/>
      <psa30 value="0.0010437430" flag="0"/>
    </comp>
    <comp name="--.HNE">
      <acc value="0.0931926081" flag="0"/>
      <vel value="0.0233824724" flag="0"/>
      <psa03 value="0.1258431747" flag="0"/>
      <psa10 value="0.0245461357" flag="0"/>
      <psa30 value="0.0023875720" flag="0"/>
    </comp>
    <comp name="--.HNZ">
      <acc value="0.0415504198" flag="0"/>
      <vel value="0.0137811787" flag="0"/>
      <psa03 value="0.0642464868" flag="0"/>
      <psa10 value="0.0062370369" flag="0"/>
      <psa30 value="0.0008640297" flag="0"/>
    </comp>
  </station>
  <station code="PYL1" name="PYL1" netid="HI" insttype="unknown" lat="36.9142" lon="21.6952">
    <comp name="--.HNE">
      <acc value="0.0671808839" flag="0"/>
      <vel value="0.0314354471" flag="0"/>
      <psa03 value="0.1611818643" flag="0"/>
      <psa10 value="0.0348861318" flag="0"/>
      <psa30 value="0.0053811964" flag="0"/>
    </comp>
    <comp name="--.HNN">
      <acc value="0.0577131028" flag="0"/>
      <vel value="0.0287712633" flag="0"/>
      <psa03 value="0.1100886226" flag="0"/>
      <psa10 value="0.0215371793" flag="0"/>
      <psa30 value="0.0016738078" flag="0"/>
    </comp>
    <comp name="--.HNZ">
      <acc value="0.0413312211" flag="0"/>
      <vel value="0.0152472408" flag="0"/>
      <psa03 value="0.0702666532" flag="0"/>
      <psa10 value="0.0120334602" flag="0"/>
      <psa30 value="0.0016133679" flag="0"/>
    </comp>
  </station>
  <station code="PYR2" name="PYR2" netid="HI" insttype="unknown" lat="37.6671" lon="21.4506">
    <comp name="--.HNZ">
      <acc value="0.0143638077" flag="0"/>
      <vel value="0.0095300764" flag="0"/>
      <psa03 value="0.0349105854" flag="0"/>
      <psa10 value="0.0086105118" flag="0"/>
      <psa30 value="0.0013869754" flag="0"/>
    </comp>
    <comp name="--.HNE">
      <acc value="0.0365822785" flag="0"/>
      <vel value="0.0211277230" flag="0"/>
      <psa03 value="0.0954375088" flag="0"/>
      <psa10 value="0.0278930673" flag="0"/>
      <psa30 value="0.0015808296" flag="0"/>
    </comp>
    <comp name="--.HNN">
      <acc value="0.0274193360" flag="0"/>
      <vel value="0.0169684736" flag="0"/>
      <psa03 value="0.0733262742" flag="0"/>
      <psa10 value="0.0219492069" flag="0"/>
      <psa30 value="0.0028448211" flag="0"/>
    </comp>
  </station>
  <station code="ITM" name="ITM" netid="HL" insttype="DR24" lat="37.1787" lon="21.9252">
    <comp name="--.HHZ">
      <acc value="0.0242432237" flag="0"/>
      <vel value="0.0117593286" flag="0"/>
      <psa03 value="0.0381980797" flag="0"/>
      <psa10 value="0.0242592776" flag="0"/>
      <psa30 value="0.0021395385" flag="0"/>
    </comp>
    <comp name="--.HHN">
      <acc value="0.0403380069" flag="0"/>
      <vel value="0.0138424941" flag="0"/>
      <psa03 value="0.0677694952" flag="0"/>
      <psa10 value="0.0181188189" flag="0"/>
      <psa30 value="0.0024990596" flag="0"/>
    </comp>
    <comp name="--.HHE">
      <acc value="0.0356659679" flag="0"/>
      <vel value="0.0174595344" flag="0"/>
      <psa03 value="0.0821626880" flag="0"/>
      <psa10 value="0.0243439773" flag="0"/>
      <psa30 value="0.0031325693" flag="0"/>
    </comp>
  </station>
  <station code="ZARA" name="ZARA" netid="HL" insttype="CMG-5" lat="37.4865" lon="21.6491">
    <comp name="00.HNN">
      <acc value="0.0319014544" flag="0"/>
      <vel value="0.0167742471" flag="0"/>
      <psa03 value="0.0733082243" flag="0"/>
      <psa10 value="0.0186329706" flag="0"/>
      <psa30 value="0.0026359954" flag="0"/>
    </comp>
    <comp name="00.HNZ">
      <acc value="0.0151152073" flag="0"/>
      <vel value="0.0073001337" flag="0"/>
      <psa03 value="0.0270170112" flag="0"/>
      <psa10 value="0.0143265425" flag="0"/>
      <psa30 value="0.0006891738" flag="0"/>
    </comp>
    <comp name="00.HNE">
      <acc value="0.0393307218" flag="0"/>
      <vel value="0.0166517258" flag="0"/>
      <psa03 value="0.0744913362" flag="0"/>
      <psa10 value="0.0209209353" flag="0"/>
      <psa30 value="0.0021022013" flag="0"/>
    </comp>
  </station>
  <station code="AMT" name="AMT" netid="HP" insttype="CMG-3T," lat="37.5324" lon="21.7089">
    <comp name="00.HHN">
      <acc value="0.0254002380" flag="0"/>
      <vel value="0.0138461888" flag="0"/>
      <psa03 value="0.0647033949" flag="0"/>
      <psa10 value="0.0238289614" flag="0"/>
      <psa30 value="0.0009154875" flag="0"/>
    </comp>
    <comp name="00.HHZ">
      <acc value="0.0209426298" flag="0"/>
      <vel value="0.0097068697" flag="0"/>
      <psa03 value="0.0457043878" flag="0"/>
      <psa10 value="0.0089635009" flag="0"/>
      <psa30 value="0.0006433948" flag="0"/>
    </comp>
    <comp name="00.HHE">
      <acc value="0.0260153022" flag="0"/>
      <vel value="0.0168312657" flag="0"/>
      <psa03 value="0.0878125467" flag="0"/>
      <psa10 value="0.0273223435" flag="0"/>
      <psa30 value="0.0012691843" flag="0"/>
    </comp>
  </station>
  <station code="LTHK" name="LTHK" netid="HP" insttype="40," lat="37.7095" lon="20.8367">
    <comp name="--.HHE">
      <acc value="0.0228818142" flag="0"/>
      <vel value="0.0090114709" flag="0"/>
      <psa03 value="0.0428649370" flag="0"/>
      <psa10 value="0.0144253063" flag="0"/>
      <psa30 value="0.0006131421" flag="0"/>
    </comp>
    <comp name="--.HHZ">
      <acc value="0.0137339821" flag="0"/>
      <vel value="0.0044886681" flag="0"/>
      <psa03 value="0.0272786259" flag="0"/>
      <psa10 value="0.0068648509" flag="0"/>
      <psa30 value="0.0006241376" flag="0"/>
    </comp>
    <comp name="--.HHN">
      <acc value="0.0277655977" flag="0"/>
      <vel value="0.0101035431" flag="0"/>
      <psa03 value="0.0637573045" flag="0"/>
      <psa10 value="0.0146443824" flag="0"/>
      <psa30 value="0.0013141108" flag="0"/>
    </comp>
  </station>
  <station code="PYL" name="PYL" netid="HP" insttype="Horizon" lat="36.8955" lon="21.742">
    <comp name="--.HHE">
      <acc value="0.0939825667" flag="0"/>
      <vel value="0.0305535565" flag="0"/>
      <psa03 value="0.1728734254" flag="0"/>
      <psa10 value="0.0147438562" flag="0"/>
      <psa30 value="0.0030787284" flag="0"/>
    </comp>
    <comp name="--.HHN">
      <acc value="0.0691543072" flag="0"/>
      <vel value="0.0170438563" flag="0"/>
      <psa03 value="0.0733615327" flag="0"/>
      <psa10 value="0.0236929228" flag="0"/>
      <psa30 value="0.0035471851" flag="0"/>
    </comp>
    <comp name="--.HHZ">
      <acc value="0.0464259885" flag="0"/>
      <vel value="0.0105169411" flag="0"/>
      <psa03 value="0.0582227518" flag="0"/>
      <psa10 value="0.0158531160" flag="0"/>
      <psa30 value="0.0009071411" flag="0"/>
    </comp>
  </station>
  <station code="VLX" name="VLX" netid="HP" insttype="40," lat="37.3703" lon="22.3793">
    <comp name="--.HHE">
      <acc value="0.0130597601" flag="0"/>
      <vel value="0.0094400255" flag="0"/>
      <psa03 value="0.0361943510" flag="0"/>
      <psa10 value="0.0092238829" flag="0"/>
      <psa30 value="0.0011991466" flag="0"/>
    </comp>
    <comp name="--.HHN">
      <acc value="0.0095371869" flag="0"/>
      <vel value="0.0068867877" flag="0"/>
      <psa03 value="0.0183610433" flag="0"/>
      <psa10 value="0.0104744199" flag="0"/>
      <psa30 value="0.0010271929" flag="0"/>
    </comp>
    <comp name="--.HHZ">
      <acc value="0.0056507106" flag="0"/>
      <vel value="0.0056748739" flag="0"/>
      <psa03 value="0.0175499994" flag="0"/>
      <psa10 value="0.0045137179" flag="0"/>
      <psa30 value="0.0007131566" flag="0"/>
    </comp>
  </station>
</stationlist>
