<stationlist xmlns:esm="https://esm-db.eu/esmws/shakemap/1/" created="1784080647">
	<station code="ROD3" name="ROD3" netid="CL" source="Corinth Riff Laboratory (CRLNET)" insttype="" lat="38.30811" lon="21.89204" esm:processing="automatic (Paolucci et al 2011)" esm:quality="good">
		<comp name="00.HNE" depth="0.0">
			<acc value="0.00574582094507971" flag="0"/>
			<vel value="0.00439551632963355" flag="0"/>
			<psa03 value="0.0246549587908752" flag="0"/>
			<psa10 value="0.0047680864873281" flag="0"/>
			<psa30 value="0.000462337190070741" flag="0"/>
		</comp>
		<comp name="00.HNN" depth="0.0">
			<acc value="0.00735699820486508" flag="0"/>
			<vel value="0.00407802768188619" flag="0"/>
			<psa03 value="0.0229634430904119" flag="0"/>
			<psa10 value="0.00446748907420754" flag="0"/>
			<psa30 value="0.000505115492674274" flag="0"/>
		</comp>
		<comp name="00.HNZ" depth="0.0">
			<acc value="0.00270687899202935" flag="0"/>
			<vel value="0.00227681435231359" flag="0"/>
			<psa03 value="0.00624202287838776" flag="0"/>
			<psa10 value="0.00360205713423262" flag="0"/>
			<psa30 value="0.000458820759208619" flag="0"/>
		</comp>
	</station>
	<station code="AOL1" name="AOL1" netid="HI" source="ITSAK Strong Motion Network" insttype="" lat="37.642378" lon="21.624555" esm:processing="automatic (Paolucci et al 2011)" esm:quality="best">
		<comp name="--.HNE" depth="0.0">
			<acc value="0.0225018646038437" flag="0"/>
			<vel value="0.0125109338748659" flag="0"/>
			<psa03 value="0.0793927281284676" flag="0"/>
			<psa10 value="0.0260861487043376" flag="0"/>
			<psa30 value="0.00227882200243859" flag="0"/>
		</comp>
		<comp name="--.HNN" depth="0.0">
			<acc value="0.0178925655463526" flag="0"/>
			<vel value="0.0148123317559947" flag="0"/>
			<psa03 value="0.0581430704431916" flag="0"/>
			<psa10 value="0.0340632552734885" flag="0"/>
			<psa30 value="0.00271285596339543" flag="0"/>
		</comp>
		<comp name="--.HNZ" depth="0.0">
			<acc value="0.0134654851629263" flag="0"/>
			<vel value="0.00715368141502219" flag="0"/>
			<psa03 value="0.0285488183024513" flag="0"/>
			<psa10 value="0.0128275888273096" flag="0"/>
			<psa30 value="0.00129875166092579" flag="0"/>
		</comp>
	</station>
	<station code="GTH2" name="GTH2" netid="HI" source="ITSAK Strong Motion Network" insttype="" lat="36.7603" lon="22.5659" esm:processing="manual (Paolucci et al 2011)" esm:quality="good">
		<comp name="--.HNE" depth="0.0">
			<acc value="0.0183581928865602" flag="0"/>
			<vel value="0.014295202820322" flag="0"/>
			<psa03 value="0.0559167406679775" flag="0"/>
			<psa10 value="0.0150315545167157" flag="0"/>
			<psa30 value="0.0011193488388671" flag="0"/>
		</comp>
		<comp name="--.HNN" depth="0.0">
			<acc value="0.0243421592483377" flag="0"/>
			<vel value="0.0179506992219868" flag="0"/>
			<psa03 value="0.069693012653386" flag="0"/>
			<psa10 value="0.0204490096465305" flag="0"/>
			<psa30 value="0.00128856015245284" flag="0"/>
		</comp>
		<comp name="--.HNZ" depth="0.0">
			<acc value="0.0121532544783722" flag="0"/>
			<vel value="0.00523063865585887" flag="0"/>
			<psa03 value="0.0296606289336" flag="0"/>
			<psa10 value="0.00704511920457165" flag="0"/>
			<psa30 value="0.000829116487398197" flag="0"/>
		</comp>
	</station>
	<station code="KYP2" name="KYP2" netid="HI" source="ITSAK Strong Motion Network" insttype="" lat="37.2497" lon="21.667" esm:processing="automatic (Paolucci et al 2011)" esm:quality="best">
		<comp name="--.HNE" depth="0.0">
			<acc value="0.0927871851703887" flag="0"/>
			<vel value="0.0235249003983574" flag="0"/>
			<psa03 value="0.126545414262607" flag="0"/>
			<psa10 value="0.024536129773178" flag="0"/>
			<psa30 value="0.00243401082460301" flag="0"/>
		</comp>
		<comp name="--.HNN" depth="0.0">
			<acc value="0.0659788051849293" flag="0"/>
			<vel value="0.0214585049753067" flag="0"/>
			<psa03 value="0.123284469074459" flag="0"/>
			<psa10 value="0.0080814244172119" flag="0"/>
			<psa30 value="0.00111557275538521" flag="0"/>
		</comp>
		<comp name="--.HNZ" depth="0.0">
			<acc value="0.0389950586033603" flag="0"/>
			<vel value="0.0138849205841305" flag="0"/>
			<psa03 value="0.064943364678971" flag="0"/>
			<psa10 value="0.0062656802268094" flag="0"/>
			<psa30 value="0.000989247824478409" flag="0"/>
		</comp>
	</station>
	<station code="LXR2" name="LXR2" netid="HI" source="ITSAK Strong Motion Network" insttype="" lat="38.206718" lon="20.436386" esm:processing="manual (Paolucci et al 2011)" esm:quality="good">
		<comp name="--.HNE" depth="0.0">
			<acc value="0.00817364728229107" flag="0"/>
			<vel value="0.00620027176088333" flag="0"/>
			<psa03 value="0.0214042200078624" flag="0"/>
			<psa10 value="0.0148876668598646" flag="0"/>
			<psa30 value="0.00204450356332717" flag="0"/>
		</comp>
		<comp name="--.HNN" depth="0.0">
			<acc value="0.0074353873815528" flag="0"/>
			<vel value="0.00714073787333465" flag="0"/>
			<psa03 value="0.0189197155778872" flag="0"/>
			<psa10 value="0.0181310148407508" flag="0"/>
			<psa30 value="0.00219975759814503" flag="0"/>
		</comp>
		<comp name="--.HNZ" depth="0.0">
			<acc value="0.00600198238599104" flag="0"/>
			<vel value="0.00503238760260297" flag="0"/>
			<psa03 value="0.0153062639648684" flag="0"/>
			<psa10 value="0.00667197136035828" flag="0"/>
			<psa30 value="0.000906407024183603" flag="0"/>
		</comp>
	</station>
	<station code="PET1" name="PET1" netid="HI" source="ITSAK Strong Motion Network" insttype="" lat="36.963862" lon="21.92538" esm:processing="manual (Paolucci et al 2011)" esm:quality="good">
		<comp name="--.HNE" depth="0.0">
			<acc value="0.0821330015426362" flag="0"/>
			<vel value="0.054988222522644" flag="0"/>
			<psa03 value="0.219983656170931" flag="0"/>
			<psa10 value="0.0548208091095569" flag="0"/>
			<psa30 value="0.00280323090862348" flag="0"/>
		</comp>
		<comp name="--.HNN" depth="0.0">
			<acc value="0.0975624978988076" flag="0"/>
			<vel value="0.0507046401137716" flag="0"/>
			<psa03 value="0.221585595624891" flag="0"/>
			<psa10 value="0.0565262758383577" flag="0"/>
			<psa30 value="0.00438990872657525" flag="0"/>
		</comp>
		<comp name="--.HNZ" depth="0.0">
			<acc value="0.0542108109718054" flag="0"/>
			<vel value="0.0230833814008072" flag="0"/>
			<psa03 value="0.07938947270461" flag="0"/>
			<psa10 value="0.0154779231489469" flag="0"/>
			<psa30 value="0.00119364563566525" flag="0"/>
		</comp>
	</station>
	<station code="PYL1" name="PYL1" netid="HI" source="ITSAK Strong Motion Network" insttype="" lat="36.914188" lon="21.695161" esm:processing="automatic (Paolucci et al 2011)" esm:quality="best">
		<comp name="--.HNE" depth="0.0">
			<acc value="0.0666260682397803" flag="0"/>
			<vel value="0.032120071580867" flag="0"/>
			<psa03 value="0.160218697035652" flag="0"/>
			<psa10 value="0.0351032929208976" flag="0"/>
			<psa30 value="0.00593938095485631" flag="0"/>
		</comp>
		<comp name="--.HNN" depth="0.0">
			<acc value="0.0570416588941763" flag="0"/>
			<vel value="0.0289470843127641" flag="0"/>
			<psa03 value="0.110312234727654" flag="0"/>
			<psa10 value="0.0215828485077988" flag="0"/>
			<psa30 value="0.00175701660205937" flag="0"/>
		</comp>
		<comp name="--.HNZ" depth="0.0">
			<acc value="0.0406802705091839" flag="0"/>
			<vel value="0.0155342543008136" flag="0"/>
			<psa03 value="0.0724624982016768" flag="0"/>
			<psa10 value="0.0120536603708328" flag="0"/>
			<psa30 value="0.00177096856797773" flag="0"/>
		</comp>
	</station>
	<station code="PYR2" name="PYR2" netid="HI" source="ITSAK Strong Motion Network" insttype="" lat="37.6671" lon="21.4506" esm:processing="automatic (Paolucci et al 2011)" esm:quality="best">
		<comp name="--.HNE" depth="0.0">
			<acc value="0.0364579031290625" flag="0"/>
			<vel value="0.0216770257972498" flag="0"/>
			<psa03 value="0.0964479308688673" flag="0"/>
			<psa10 value="0.027978525940033" flag="0"/>
			<psa30 value="0.0017775683801793" flag="0"/>
		</comp>
		<comp name="--.HNN" depth="0.0">
			<acc value="0.0275178837914029" flag="0"/>
			<vel value="0.0169061085981911" flag="0"/>
			<psa03 value="0.0737941801690624" flag="0"/>
			<psa10 value="0.0219556644550051" flag="0"/>
			<psa30 value="0.00298437040822483" flag="0"/>
		</comp>
		<comp name="--.HNZ" depth="0.0">
			<acc value="0.0144066908194849" flag="0"/>
			<vel value="0.00959420338468206" flag="0"/>
			<psa03 value="0.0353193892153531" flag="0"/>
			<psa10 value="0.00956402325710179" flag="0"/>
			<psa30 value="0.00165229226875598" flag="0"/>
		</comp>
	</station>
	<station code="TRP1" name="TRP1" netid="HI" source="ITSAK Strong Motion Network" insttype="" lat="37.511219" lon="22.363399" esm:processing="automatic (Paolucci et al 2011)" esm:quality="best">
		<comp name="--.HNE" depth="0.0">
			<acc value="0.00638011607541698" flag="0"/>
			<vel value="0.00604255184148075" flag="0"/>
			<psa03 value="0.0143772909666309" flag="0"/>
			<psa10 value="0.010477791914794" flag="0"/>
			<psa30 value="0.000923924851318223" flag="0"/>
		</comp>
		<comp name="--.HNN" depth="0.0">
			<acc value="0.00547347312475677" flag="0"/>
			<vel value="0.00665270813484864" flag="0"/>
			<psa03 value="0.0172132952442668" flag="0"/>
			<psa10 value="0.00746864413600587" flag="0"/>
			<psa30 value="0.000815138790610241" flag="0"/>
		</comp>
		<comp name="--.HNZ" depth="0.0">
			<acc value="0.00399791283845975" flag="0"/>
			<vel value="0.00349345685634866" flag="0"/>
			<psa03 value="0.00972986005025238" flag="0"/>
			<psa10 value="0.00541160192958666" flag="0"/>
			<psa30 value="0.000563619368266219" flag="0"/>
		</comp>
	</station>
	<station code="PATC" name="PATC" netid="HL" source="National Observatory of Athens Seismic Network" insttype="" lat="38.26933" lon="21.76001" esm:processing="manual (Paolucci et al 2011)" esm:quality="good">
		<comp name="00.HNE" depth="0.0">
			<acc value="0.00871549705427719" flag="0"/>
			<vel value="0.00750369217477666" flag="0"/>
			<psa03 value="0.021124899420911" flag="0"/>
			<psa10 value="0.0134149761763344" flag="0"/>
			<psa30 value="0.0032264210262252" flag="0"/>
		</comp>
		<comp name="00.HNN" depth="0.0">
			<acc value="0.00718463121755818" flag="0"/>
			<vel value="0.0096774912409022" flag="0"/>
			<psa03 value="0.0162392229042361" flag="0"/>
			<psa10 value="0.017470916737491" flag="0"/>
			<psa30 value="0.00178272455508595" flag="0"/>
		</comp>
		<comp name="00.HNZ" depth="0.0">
			<acc value="0.0041964026617456" flag="0"/>
			<vel value="0.00520232525364091" flag="0"/>
			<psa03 value="0.0105011025475487" flag="0"/>
			<psa10 value="0.00784294705675132" flag="0"/>
			<psa30 value="0.00081649908905748" flag="0"/>
		</comp>
	</station>
	<station code="VELA" name="VELA" netid="HL" source="National Observatory of Athens Seismic Network" insttype="" lat="37.974944" lon="22.766063" esm:processing="manual (Paolucci et al 2011)" esm:quality="good">
		<comp name="00.HNE" depth="0.0">
			<acc value="0.00844271737580944" flag="0"/>
			<vel value="0.0111123469768714" flag="0"/>
			<psa03 value="0.0182770011262091" flag="0"/>
			<psa10 value="0.0290534108958851" flag="0"/>
			<psa30 value="0.00378160884636023" flag="0"/>
		</comp>
		<comp name="00.HNN" depth="0.0">
			<acc value="0.009995310356277" flag="0"/>
			<vel value="0.0119332262428031" flag="0"/>
			<psa03 value="0.0217211055833099" flag="0"/>
			<psa10 value="0.0184898986150395" flag="0"/>
			<psa30 value="0.00487947449123782" flag="0"/>
		</comp>
		<comp name="00.HNZ" depth="0.0">
			<acc value="0.00456746134567473" flag="0"/>
			<vel value="0.0081668960509835" flag="0"/>
			<psa03 value="0.00844645276520932" flag="0"/>
			<psa10 value="0.0131134712031096" flag="0"/>
			<psa30 value="0.0021524994675258" flag="0"/>
		</comp>
	</station>
	<station code="ZARA" name="ZARA" netid="HL" source="National Observatory of Athens Seismic Network" insttype="" lat="37.4865" lon="21.6491" esm:processing="automatic (Paolucci et al 2011)" esm:quality="best">
		<comp name="00.HNE" depth="0.0">
			<acc value="0.038721386282803" flag="0"/>
			<vel value="0.0166293352549055" flag="0"/>
			<psa03 value="0.074483340405838" flag="0"/>
			<psa10 value="0.0209599322426277" flag="0"/>
			<psa30 value="0.00221969246039742" flag="0"/>
		</comp>
		<comp name="00.HNN" depth="0.0">
			<acc value="0.031542704662432" flag="0"/>
			<vel value="0.0167023920581457" flag="0"/>
			<psa03 value="0.0735044370165449" flag="0"/>
			<psa10 value="0.0186290365822431" flag="0"/>
			<psa30 value="0.00290832412053361" flag="0"/>
		</comp>
		<comp name="00.HNZ" depth="0.0">
			<acc value="0.0143169035193489" flag="0"/>
			<vel value="0.00734783573502424" flag="0"/>
			<psa03 value="0.0270946386368488" flag="0"/>
			<psa10 value="0.0143423488602237" flag="0"/>
			<psa30 value="0.000729472021857916" flag="0"/>
		</comp>
	</station>
	<station code="AMT" name="AMT" netid="HP" source="University of Patras, Seismological Laboratory (PSLNET)" insttype="" lat="37.5324" lon="21.7089" esm:processing="manual (Paolucci et al 2011)" esm:quality="best">
		<comp name="--.HNE" depth="0.0">
			<acc value="0.0264456987749746" flag="0"/>
			<vel value="0.0170549221992701" flag="0"/>
			<psa03 value="0.0894411854560813" flag="0"/>
			<psa10 value="0.0279492871281173" flag="0"/>
			<psa30 value="0.0013311805800125" flag="0"/>
		</comp>
		<comp name="--.HNN" depth="0.0">
			<acc value="0.0261787514223612" flag="0"/>
			<vel value="0.0140777828918752" flag="0"/>
			<psa03 value="0.0659985127023898" flag="0"/>
			<psa10 value="0.0244189607613008" flag="0"/>
			<psa30 value="0.000933055247831673" flag="0"/>
		</comp>
		<comp name="--.HNZ" depth="0.0">
			<acc value="0.0205541446066915" flag="0"/>
			<vel value="0.00968287318731381" flag="0"/>
			<psa03 value="0.0450402805723484" flag="0"/>
			<psa10 value="0.00884833615885416" flag="0"/>
			<psa30 value="0.000667859711178939" flag="0"/>
		</comp>
	</station>
	<station code="DSF" name="DSF" netid="HP" source="University of Patras, Seismological Laboratory (PSLNET)" insttype="" lat="38.4112" lon="22.5271" esm:processing="manual (Paolucci et al 2011)" esm:quality="best">
		<comp name="--.HNE" depth="1.0">
			<acc value="0.0014524518503308" flag="0"/>
			<vel value="0.0017728331343081" flag="0"/>
			<psa03 value="0.00550203049812895" flag="0"/>
			<psa10 value="0.00215881808922698" flag="0"/>
			<psa30 value="0.000350204683716622" flag="0"/>
		</comp>
		<comp name="--.HNN" depth="1.0">
			<acc value="0.00210443139353333" flag="0"/>
			<vel value="0.00133547270288626" flag="0"/>
			<psa03 value="0.00493005575867558" flag="0"/>
			<psa10 value="0.00248475780613484" flag="0"/>
			<psa30 value="0.000342953343976005" flag="0"/>
		</comp>
		<comp name="--.HNZ" depth="1.0">
			<acc value="0.00121146912409874" flag="0"/>
			<vel value="0.00112868961236015" flag="0"/>
			<psa03 value="0.00284715996454313" flag="0"/>
			<psa10 value="0.00121306614093033" flag="0"/>
			<psa30 value="0.000201783679678329" flag="0"/>
		</comp>
	</station>
	<station code="FSK" name="FSK" netid="HP" source="University of Patras, Seismological Laboratory (PSLNET)" insttype="" lat="38.4593" lon="20.5623" esm:processing="manual (Paolucci et al 2011)" esm:quality="good">
		<comp name="--.HNE" depth="0.0">
			<acc value="0.0028187189835274" flag="0"/>
			<vel value="0.00222317276884407" flag="0"/>
			<psa03 value="0.00526181764510852" flag="0"/>
			<psa10 value="0.00399752716030579" flag="0"/>
			<psa30 value="0.000689128463880517" flag="0"/>
		</comp>
		<comp name="--.HNN" depth="0.0">
			<acc value="0.00149074288934241" flag="0"/>
			<vel value="0.00254707679551585" flag="0"/>
			<psa03 value="0.00449442891877005" flag="0"/>
			<psa10 value="0.00536993479432438" flag="0"/>
			<psa30 value="0.000495066910336935" flag="0"/>
		</comp>
		<comp name="--.HNZ" depth="0.0">
			<acc value="0.0013448247917565" flag="0"/>
			<vel value="0.00109126348194624" flag="0"/>
			<psa03 value="0.00241512727548663" flag="0"/>
			<psa10 value="0.00248212958515238" flag="0"/>
			<psa30 value="0.000327867943600679" flag="0"/>
		</comp>
	</station>
	<station code="GUR" name="GUR" netid="HP" source="University of Patras, Seismological Laboratory (PSLNET)" insttype="" lat="37.9363" lon="22.3423" esm:processing="manual (Paolucci et al 2011)" esm:quality="best">
		<comp name="--.HNE" depth="0.0">
			<acc value="0.00703383992535056" flag="0"/>
			<vel value="0.0053935207963432" flag="0"/>
			<psa03 value="0.0226035208098229" flag="0"/>
			<psa10 value="0.0054503499651787" flag="0"/>
			<psa30 value="0.000713260687519664" flag="0"/>
		</comp>
		<comp name="--.HNN" depth="0.0">
			<acc value="0.00837300445703773" flag="0"/>
			<vel value="0.00536844646653566" flag="0"/>
			<psa03 value="0.0250739891537024" flag="0"/>
			<psa10 value="0.00525116020732468" flag="0"/>
			<psa30 value="0.000386948992846824" flag="0"/>
		</comp>
		<comp name="--.HNZ" depth="0.0">
			<acc value="0.00333195555563345" flag="0"/>
			<vel value="0.00269005252286923" flag="0"/>
			<psa03 value="0.0126766548703428" flag="0"/>
			<psa10 value="0.00625609693572994" flag="0"/>
			<psa30 value="0.000402718657301359" flag="0"/>
		</comp>
	</station>
	<station code="LTHK" name="LTHK" netid="HP" source="University of Patras, Seismological Laboratory (PSLNET)" insttype="" lat="37.7095" lon="20.8367" esm:processing="manual (Paolucci et al 2011)" esm:quality="best">
		<comp name="--.HNE" depth="0.0">
			<acc value="0.022187146310386" flag="0"/>
			<vel value="0.0091172919771988" flag="0"/>
			<psa03 value="0.0428109427856678" flag="0"/>
			<psa10 value="0.0144778040834573" flag="0"/>
			<psa30 value="0.000690717110784684" flag="0"/>
		</comp>
		<comp name="--.HNN" depth="0.0">
			<acc value="0.0265529592313165" flag="0"/>
			<vel value="0.0102411042954224" flag="0"/>
			<psa03 value="0.0646392612007017" flag="0"/>
			<psa10 value="0.0147868864336428" flag="0"/>
			<psa30 value="0.00144290881479231" flag="0"/>
		</comp>
		<comp name="--.HNZ" depth="0.0">
			<acc value="0.0134440401636051" flag="0"/>
			<vel value="0.00460861110563422" flag="0"/>
			<psa03 value="0.0273387042841441" flag="0"/>
			<psa10 value="0.00691396457873907" flag="0"/>
			<psa30 value="0.000732410966549131" flag="0"/>
		</comp>
	</station>
	<station code="LTK" name="LTK" netid="HP" source="University of Patras, Seismological Laboratory (PSLNET)" insttype="" lat="38.0228" lon="22.9673" esm:processing="manual (Paolucci et al 2011)" esm:quality="good">
		<comp name="--.HNE" depth="0.0">
			<acc value="0.00168940114504135" flag="0"/>
			<vel value="0.00223786656462405" flag="0"/>
			<psa03 value="0.00528458445278824" flag="0"/>
			<psa10 value="0.00342051627991569" flag="0"/>
			<psa30 value="0.000509802053132906" flag="0"/>
		</comp>
		<comp name="--.HNN" depth="0.0">
			<acc value="0.00198731467466389" flag="0"/>
			<vel value="0.00192440501611191" flag="0"/>
			<psa03 value="0.00449339825152641" flag="0"/>
			<psa10 value="0.00295621606918141" flag="0"/>
			<psa30 value="0.000687394494844056" flag="0"/>
		</comp>
		<comp name="--.HNZ" depth="0.0">
			<acc value="0.00114743146921526" flag="0"/>
			<vel value="0.00151546760288678" flag="0"/>
			<psa03 value="0.00354207806976766" flag="0"/>
			<psa10 value="0.00204387274028926" flag="0"/>
			<psa30 value="0.000324660048801732" flag="0"/>
		</comp>
	</station>
	<station code="PYL" name="PYL" netid="HP" source="University of Patras, Seismological Laboratory (PSLNET)" insttype="" lat="36.8955" lon="21.742" esm:processing="manual (Paolucci et al 2011)" esm:quality="best">
		<comp name="--.HNE" depth="0.0">
			<acc value="0.110145362215976" flag="0"/>
			<vel value="0.0330943855784952" flag="0"/>
			<psa03 value="0.175710889984018" flag="0"/>
			<psa10 value="0.0146061619615364" flag="0"/>
			<psa30 value="0.00278355189665106" flag="0"/>
		</comp>
		<comp name="--.HNN" depth="0.0">
			<acc value="0.0920845029753942" flag="0"/>
			<vel value="0.0199579125783448" flag="0"/>
			<psa03 value="0.0822301348430085" flag="0"/>
			<psa10 value="0.0248902544821891" flag="0"/>
