<?xml version="1.0" encoding="UTF-8" standalone="yes"?>
<!DOCTYPE earthquake SYSTEM "stationlist.dtd">
<stationlist created="" xmlns="ch.ethz.sed.shakemap.usgs.xml">
  <station code="ZKR" name="ZKR" netid="GE" insttype="STS-2/N" lat="35.1147" lon="26.2169">
    <comp name="--.HHN">
      <acc value="0.0043835731" flag="0"/>
      <vel value="0.0027301992" flag="0"/>
      <psa03 value="0.0106776096" flag="0"/>
      <psa10 value="0.0026867175" flag="0"/>
      <psa30 value="0.0006630387" flag="0"/>
    </comp>
    <comp name="--.HHZ">
      <acc value="0.0043220112" flag="0"/>
      <vel value="0.0034001125" flag="0"/>
      <psa03 value="0.0091204554" flag="0"/>
      <psa10 value="0.0052217663" flag="0"/>
      <psa30 value="0.0010844245" flag="0"/>
    </comp>
    <comp name="--.HHE">
      <acc value="0.0063629501" flag="0"/>
      <vel value="0.0061821298" flag="0"/>
      <psa03 value="0.0211019624" flag="0"/>
      <psa10 value="0.0076299672" flag="0"/>
      <psa30 value="0.0025671739" flag="0"/>
    </comp>
  </station>
  <station code="NPS" name="NPS" netid="HL" insttype="CMG3ESPC-120s" lat="35.2613" lon="25.6104">
    <comp name="--.HHN">
      <acc value="0.0038159954" flag="0"/>
      <vel value="0.0028093383" flag="0"/>
      <psa03 value="0.0089884915" flag="0"/>
      <psa10 value="0.0047676578" flag="0"/>
      <psa30 value="0.0006222708" flag="0"/>
    </comp>
    <comp name="--.HHZ">
      <acc value="0.0032916770" flag="0"/>
      <vel value="0.0027214415" flag="0"/>
      <psa03 value="0.0066138449" flag="0"/>
      <psa10 value="0.0044590017" flag="0"/>
      <psa30 value="0.0005300175" flag="0"/>
    </comp>
    <comp name="--.HHE">
      <acc value="0.0021449422" flag="0"/>
      <vel value="0.0018350157" flag="0"/>
      <psa03 value="0.0053813619" flag="0"/>
      <psa10 value="0.0024729590" flag="0"/>
      <psa30 value="0.0003116652" flag="0"/>
    </comp>
  </station>
  <station code="ZKR" name="ZKR" netid="HL" insttype="120" lat="35.1147" lon="26.2169">
    <comp name="--.HHE">
      <acc value="0.0063254570" flag="0"/>
      <vel value="0.0061485630" flag="0"/>
      <psa03 value="0.0204862146" flag="0"/>
      <psa10 value="0.0075823227" flag="0"/>
      <psa30 value="0.0025664094" flag="0"/>
    </comp>
    <comp name="--.HHN">
      <acc value="0.0042715331" flag="0"/>
      <vel value="0.0027110833" flag="0"/>
      <psa03 value="0.0103883713" flag="0"/>
      <psa10 value="0.0026707690" flag="0"/>
      <psa30 value="0.0006629500" flag="0"/>
    </comp>
    <comp name="--.HHZ">
      <acc value="0.0042305732" flag="0"/>
      <vel value="0.0033809636" flag="0"/>
      <psa03 value="0.0088771048" flag="0"/>
      <psa10 value="0.0051949359" flag="0"/>
      <psa30 value="0.0010840679" flag="0"/>
    </comp>
  </station>
</stationlist>
