<?xml version="1.0" encoding="UTF-8" standalone="yes"?>
<!DOCTYPE earthquake SYSTEM "stationlist.dtd">
<stationlist created="" xmlns="ch.ethz.sed.shakemap.usgs.xml">
  <station code="BHB" name="BHB" netid="GU" insttype="" lat="44.8355" lon="7.263">
    <comp name="--.HHZ">
      <acc value="0.0072432058" flag="0"/>
      <vel value="0.0016694017" flag="0"/>
      <psa03 value="0.0091150997" flag="0"/>
      <psa10 value="0.0012632918" flag="0"/>
      <psa30 value="0.0001410368" flag="0"/>
    </comp>
    <comp name="--.HHE">
      <acc value="0.0056326319" flag="0"/>
      <vel value="0.0016647162" flag="0"/>
      <psa03 value="0.0075777810" flag="0"/>
      <psa10 value="0.0014300793" flag="0"/>
      <psa30 value="0.0001104622" flag="0"/>
    </comp>
    <comp name="--.HHN">
      <acc value="0.0060248912" flag="0"/>
      <vel value="0.0017251528" flag="0"/>
      <psa03 value="0.0083740006" flag="0"/>
      <psa10 value="0.0012724423" flag="0"/>
      <psa30 value="0.0000895643" flag="0"/>
    </comp>
  </station>
  <station code="PZZ" name="PZZ" netid="GU" insttype="" lat="44.5068" lon="7.116">
    <comp name="--.HHE">
      <acc value="0.0297360387" flag="0"/>
      <vel value="0.0086291405" flag="0"/>
      <psa03 value="0.0405105158" flag="0"/>
      <psa10 value="0.0029978241" flag="0"/>
      <psa30 value="0.0002054658" flag="0"/>
    </comp>
    <comp name="--.HHN">
      <acc value="0.0219901259" flag="0"/>
      <vel value="0.0060676391" flag="0"/>
      <psa03 value="0.0266418078" flag="0"/>
      <psa10 value="0.0020786193" flag="0"/>
      <psa30 value="0.0001344609" flag="0"/>
    </comp>
    <comp name="--.HHZ">
      <acc value="0.0254202264" flag="0"/>
      <vel value="0.0066150787" flag="0"/>
      <psa03 value="0.0355565141" flag="0"/>
      <psa10 value="0.0020497421" flag="0"/>
      <psa30 value="0.0001485285" flag="0"/>
    </comp>
  </station>
</stationlist>
