<?xml version="1.0" encoding="UTF-8" standalone="yes"?>
<!DOCTYPE earthquake SYSTEM "stationlist.dtd">
<stationlist created="" xmlns="ch.ethz.sed.shakemap.usgs.xml">
  <station code="BERA" name="BERA" netid="AC" insttype="" lat="40.7081" lon="19.9455">
    <comp name="00.HHE">
      <acc value="0.3076125939" flag="0"/>
      <vel value="0.0758761788" flag="0"/>
      <psa03 value="0.3721590749" flag="0"/>
      <psa10 value="0.0442643188" flag="0"/>
      <psa30 value="0.0028307289" flag="0"/>
    </comp>
    <comp name="00.HHZ">
      <acc value="0.1503237938" flag="0"/>
      <vel value="0.0461294720" flag="0"/>
      <psa03 value="0.2050046476" flag="0"/>
      <psa10 value="0.0132909979" flag="0"/>
      <psa30 value="0.0009529733" flag="0"/>
    </comp>
    <comp name="00.HHN">
      <acc value="0.3352731343" flag="0"/>
      <vel value="0.0581830443" flag="0"/>
      <psa03 value="0.3315810141" flag="0"/>
      <psa10 value="0.0240558997" flag="0"/>
      <psa30 value="0.0015550773" flag="0"/>
    </comp>
  </station>
  <station code="KBN" name="KBN" netid="AC" insttype="" lat="40.6236" lon="20.7874">
    <comp name="--.HHE">
      <acc value="0.0107933479" flag="0"/>
      <vel value="0.0063440686" flag="0"/>
      <psa03 value="0.0352992970" flag="0"/>
      <psa10 value="0.0066806336" flag="0"/>
      <psa30 value="0.0005212169" flag="0"/>
    </comp>
    <comp name="--.HHN">
      <acc value="0.0125587771" flag="0"/>
      <vel value="0.0069711156" flag="0"/>
      <psa03 value="0.0318324027" flag="0"/>
      <psa10 value="0.0065343584" flag="0"/>
      <psa30 value="0.0004249663" flag="0"/>
    </comp>
    <comp name="--.HHZ">
      <acc value="0.0047492204" flag="0"/>
      <vel value="0.0023822034" flag="0"/>
      <psa03 value="0.0114898838" flag="0"/>
      <psa10 value="0.0031978070" flag="0"/>
      <psa30 value="0.0003048826" flag="0"/>
    </comp>
  </station>
  <station code="LACI" name="LACI" netid="AC" insttype="" lat="41.6367" lon="19.7178">
    <comp name="00.HHN">
      <acc value="0.0090842075" flag="0"/>
      <vel value="0.0038068109" flag="0"/>
      <psa03 value="0.0238698813" flag="0"/>
      <psa10 value="0.0036598670" flag="0"/>
      <psa30 value="0.0003445656" flag="0"/>
    </comp>
    <comp name="00.HHE">
      <acc value="0.0113000690" flag="0"/>
      <vel value="0.0045397015" flag="0"/>
      <psa03 value="0.0244084362" flag="0"/>
      <psa10 value="0.0046289676" flag="0"/>
      <psa30 value="0.0004073926" flag="0"/>
    </comp>
    <comp name="00.HHZ">
      <acc value="0.0088940615" flag="0"/>
      <vel value="0.0038734950" flag="0"/>
      <psa03 value="0.0218413903" flag="0"/>
      <psa10 value="0.0048263941" flag="0"/>
      <psa30 value="0.0003708099" flag="0"/>
    </comp>
  </station>
  <station code="PUK" name="PUK" netid="AC" insttype="" lat="42.0426" lon="19.8926">
    <comp name="--.HHE">
      <acc value="0.0083083293" flag="0"/>
      <vel value="0.0049328584" flag="0"/>
      <psa03 value="0.0139328495" flag="0"/>
      <psa10 value="0.0047817424" flag="0"/>
      <psa30 value="0.0002619068" flag="0"/>
    </comp>
    <comp name="--.HHN">
      <acc value="0.0059864531" flag="0"/>
      <vel value="0.0033420202" flag="0"/>
      <psa03 value="0.0170760230" flag="0"/>
      <psa10 value="0.0023367076" flag="0"/>
      <psa30 value="0.0001983800" flag="0"/>
    </comp>
    <comp name="--.HHZ">
      <acc value="0.0076844721" flag="0"/>
      <vel value="0.0027165905" flag="0"/>
      <psa03 value="0.0191892436" flag="0"/>
      <psa10 value="0.0014632625" flag="0"/>
      <psa30 value="0.0000637638" flag="0"/>
    </comp>
  </station>
  <station code="VLO" name="VLO" netid="AC" insttype="" lat="40.4686" lon="19.4955">
    <comp name="--.HHE">
      <acc value="0.0610960886" flag="0"/>
      <vel value="0.0223587922" flag="0"/>
      <psa03 value="0.1408576766" flag="0"/>
      <psa10 value="0.0128221616" flag="0"/>
      <psa30 value="0.0009228363" flag="0"/>
    </comp>
    <comp name="--.HHZ">
      <acc value="0.0320414862" flag="0"/>
      <vel value="0.0118055629" flag="0"/>
      <psa03 value="0.0582276268" flag="0"/>
      <psa10 value="0.0071269456" flag="0"/>
      <psa30 value="0.0007063585" flag="0"/>
    </comp>
    <comp name="--.HHN">
      <acc value="0.0683490879" flag="0"/>
      <vel value="0.0229550632" flag="0"/>
      <psa03 value="0.1052054553" flag="0"/>
      <psa10 value="0.0138037668" flag="0"/>
      <psa30 value="0.0010263036" flag="0"/>
    </comp>
  </station>
  <station code="LMS2" name="LMS2" netid="HI" insttype="CMG-5TD,ACCELEROMETER,GURALP" lat="40.835" lon="21.1418">
    <comp name="--.HNN">
      <acc value="0.0160547492" flag="0"/>
      <vel value="0.0053543956" flag="0"/>
      <psa03 value="0.0280408919" flag="0"/>
      <psa10 value="0.0044940401" flag="0"/>
      <psa30 value="0.0002789361" flag="0"/>
    </comp>
    <comp name="--.HNE">
      <acc value="0.0129388208" flag="0"/>
      <vel value="0.0064263981" flag="0"/>
      <psa03 value="0.0290269353" flag="0"/>
      <psa10 value="0.0072319316" flag="0"/>
      <psa30 value="0.0005258515" flag="0"/>
    </comp>
    <comp name="--.HNZ">
      <acc value="0.0054746186" flag="0"/>
      <vel value="0.0028947860" flag="0"/>
      <psa03 value="0.0087274559" flag="0"/>
      <psa10 value="0.0023351511" flag="0"/>
      <psa30 value="0.0003388099" flag="0"/>
    </comp>
  </station>
  <station code="TIR" name="TIR" netid="MN" insttype="" lat="41.3472" lon="19.8631">
    <comp name="--.HHE">
      <acc value="0.0723498977" flag="0"/>
      <vel value="0.0230940862" flag="0"/>
      <psa03 value="0.1044124138" flag="0"/>
      <psa10 value="0.0347881525" flag="0"/>
      <psa30 value="0.0015718995" flag="0"/>
    </comp>
    <comp name="--.HHN">
      <acc value="0.0795474136" flag="0"/>
      <vel value="0.0295257427" flag="0"/>
      <psa03 value="0.1101772673" flag="0"/>
      <psa10 value="0.0250778874" flag="0"/>
      <psa30 value="0.0018157343" flag="0"/>
    </comp>
    <comp name="--.HHZ">
      <acc value="0.0506062006" flag="0"/>
      <vel value="0.0254691296" flag="0"/>
      <psa03 value="0.1089712725" flag="0"/>
      <psa10 value="0.0307867247" flag="0"/>
      <psa30 value="0.0017256977" flag="0"/>
    </comp>
  </station>
</stationlist>
