<stationlist created="1761294752">
	<station code="KHMN" name="KHMN" netid="KO" source="Bogazici University Kandilli Observatory And Earthquake Research Institute (KOERI)" insttype="" lat="37.3916" lon="37.1574">
		<comp name="--.HNE" depth="0.0">
			<acc value="0.19717405183308" flag="0"/>
			<vel value="0.0495428226858" flag="0"/>
			<psa03 value="0.219529355242408" flag="0"/>
			<psa10 value="0.0270989107948555" flag="0"/>
			<psa30 value="0.00257702863216442" flag="0"/>
		</comp>
		<comp name="--.HNN" depth="0.0">
			<acc value="0.1903970415597" flag="0"/>
			<vel value="0.0395919395684" flag="0"/>
			<psa03 value="0.242229129824238" flag="0"/>
			<psa10 value="0.0287679194834675" flag="0"/>
			<psa30 value="0.0013220924779714" flag="0"/>
		</comp>
		<comp name="--.HNZ" depth="0.0">
			<acc value="0.13943746412298" flag="0"/>
			<vel value="0.0271046784732" flag="0"/>
			<psa03 value="0.155400200750537" flag="0"/>
			<psa10 value="0.0205589369286592" flag="0"/>
			<psa30 value="0.0023692611185892" flag="0"/>
		</comp>
	</station>
</stationlist>
