<?xml version="1.0" encoding="UTF-8" standalone="yes"?>
<!DOCTYPE earthquake SYSTEM "stationlist.dtd">
<stationlist created="" xmlns="ch.ethz.sed.shakemap.usgs.xml">
  <station code="CEYT" name="CEYT" netid="KO" insttype="CMG-3ESP" commtype="DIG" lat="37.0105" lon="35.7478">
    <comp name="--.HHN">
      <acc value="0.0174789695" flag="0"/>
      <vel value="0.0091740210" flag="0"/>
      <psa03 value="0.0310091122" flag="0"/>
      <psa10 value="0.0059328733" flag="0"/>
      <psa30 value="0.0003308830" flag="0"/>
    </comp>
    <comp name="--.HHE">
      <acc value="0.0106101601" flag="0"/>
      <vel value="0.0048742979" flag="0"/>
      <psa03 value="0.0326051170" flag="0"/>
      <psa10 value="0.0027660660" flag="0"/>
      <psa30 value="0.0002388189" flag="0"/>
    </comp>
    <comp name="--.HHZ">
      <acc value="0.0075419739" flag="0"/>
      <vel value="0.0034783188" flag="0"/>
      <psa03 value="0.0250299037" flag="0"/>
      <psa10 value="0.0028544368" flag="0"/>
      <psa30 value="0.0002048735" flag="0"/>
    </comp>
  </station>
  <station code="GAZ" name="GAZ" netid="KO" insttype="CMG-3T" commtype="DIG" lat="37.1721" lon="37.2096">
    <comp name="--.HHN">
      <acc value="0.0679121102" flag="0"/>
      <vel value="0.0327825511" flag="0"/>
      <psa03 value="0.1609357400" flag="0"/>
      <psa10 value="0.0260273763" flag="0"/>
      <psa30 value="0.0019966642" flag="0"/>
    </comp>
  </station>
  <station code="KHMN" name="KHMN" netid="KO" insttype="CMG-5T" commtype="DIG" lat="37.3916" lon="37.1574">
    <comp name="--.HNN">
      <acc value="0.1960715833" flag="0"/>
      <vel value="0.0392943299" flag="0"/>
      <psa03 value="0.2401484772" flag="0"/>
      <psa10 value="0.0287324315" flag="0"/>
      <psa30 value="0.0012919330" flag="0"/>
    </comp>
    <comp name="--.HNE">
      <acc value="0.2039445060" flag="0"/>
      <vel value="0.0488109562" flag="0"/>
      <psa03 value="0.2167063168" flag="0"/>
      <psa10 value="0.0270273526" flag="0"/>
      <psa30 value="0.0024337198" flag="0"/>
    </comp>
    <comp name="--.HNZ">
      <acc value="0.1416319629" flag="0"/>
      <vel value="0.0269638947" flag="0"/>
      <psa03 value="0.1552708002" flag="0"/>
      <psa10 value="0.0204567369" flag="0"/>
      <psa30 value="0.0022275398" flag="0"/>
    </comp>
  </station>
  <station code="KMRS" name="KMRS" netid="KO" insttype="CMG-3T" commtype="DIG" lat="37.5087" lon="36.9">
    <comp name="--.HHE">
      <acc value="0.1339803086" flag="0"/>
      <vel value="0.0403454913" flag="0"/>
      <psa03 value="0.1171915792" flag="0"/>
      <psa10 value="0.0316010056" flag="0"/>
      <psa30 value="0.0036689856" flag="0"/>
    </comp>
    <comp name="--.HHN">
      <acc value="0.0708019605" flag="0"/>
      <vel value="0.0232988367" flag="0"/>
      <psa03 value="0.0691085797" flag="0"/>
      <psa10 value="0.0257560079" flag="0"/>
      <psa30 value="0.0016477019" flag="0"/>
    </comp>
    <comp name="--.HHZ">
      <acc value="0.0930835577" flag="0"/>
      <vel value="0.0284907709" flag="0"/>
      <psa03 value="0.1211132611" flag="0"/>
      <psa10 value="0.0150943687" flag="0"/>
      <psa30 value="0.0013597476" flag="0"/>
    </comp>
  </station>
  <station code="KOZT" name="KOZT" netid="KO" insttype="CMG-3T" commtype="DIG" lat="37.4795" lon="35.8264">
    <comp name="--.HHE">
      <acc value="0.0087022729" flag="0"/>
      <vel value="0.0057082194" flag="0"/>
      <psa03 value="0.0243979097" flag="0"/>
      <psa10 value="0.0103469952" flag="0"/>
      <psa30 value="0.0003764913" flag="0"/>
    </comp>
    <comp name="--.HHN">
      <acc value="0.0062648000" flag="0"/>
      <vel value="0.0038488854" flag="0"/>
      <psa03 value="0.0210345401" flag="0"/>
      <psa10 value="0.0047580820" flag="0"/>
      <psa30 value="0.0003220275" flag="0"/>
    </comp>
    <comp name="--.HHZ">
      <acc value="0.0055635494" flag="0"/>
      <vel value="0.0027018951" flag="0"/>
      <psa03 value="0.0116932776" flag="0"/>
      <psa10 value="0.0026953617" flag="0"/>
      <psa30 value="0.0002265695" flag="0"/>
    </comp>
  </station>
  <station code="NURH" name="NURH" netid="KO" insttype="CMG-6T" commtype="DIG" lat="37.9693" lon="37.4363">
    <comp name="--.HHN">
      <acc value="0.0151042929" flag="0"/>
      <vel value="0.0061551047" flag="0"/>
      <psa03 value="0.0336049560" flag="0"/>
      <psa10 value="0.0043338084" flag="0"/>
      <psa30 value="0.0004257298" flag="0"/>
    </comp>
    <comp name="--.HHE">
      <acc value="0.0096540515" flag="0"/>
      <vel value="0.0042011406" flag="0"/>
      <psa03 value="0.0217444560" flag="0"/>
      <psa10 value="0.0062775432" flag="0"/>
      <psa30 value="0.0003080516" flag="0"/>
    </comp>
    <comp name="--.HHZ">
      <acc value="0.0094722331" flag="0"/>
      <vel value="0.0030737083" flag="0"/>
      <psa03 value="0.0128200328" flag="0"/>
      <psa10 value="0.0032936492" flag="0"/>
      <psa30 value="0.0002670232" flag="0"/>
    </comp>
  </station>
  <station code="SARI" name="SARI" netid="KO" insttype="CMG-3T" commtype="DIG" lat="38.4072" lon="36.4181">
    <comp name="--.HHZ">
      <acc value="0.0079584826" flag="0"/>
      <vel value="0.0027836139" flag="0"/>
      <psa03 value="0.0144353973" flag="0"/>
      <psa10 value="0.0040848312" flag="0"/>
      <psa30 value="0.0002040457" flag="0"/>
    </comp>
    <comp name="--.HHE">
      <acc value="0.0146306298" flag="0"/>
      <vel value="0.0045938252" flag="0"/>
      <psa03 value="0.0244643314" flag="0"/>
      <psa10 value="0.0040009574" flag="0"/>
      <psa30 value="0.0002989644" flag="0"/>
    </comp>
  </station>
  <station code="ANDN" name="ANDN" netid="TU" insttype="T" commtype="DIG" lat="37.58" lon="36.3452">
    <comp name="--.HHZ">
      <acc value="0.0695223305" flag="0"/>
      <vel value="0.0277832270" flag="0"/>
      <psa03 value="0.0906324268" flag="0"/>
      <psa10 value="0.0279736271" flag="0"/>
      <psa30 value="0.0011469470" flag="0"/>
    </comp>
    <comp name="--.HHE">
      <acc value="0.0954917619" flag="0"/>
      <vel value="0.0402060311" flag="0"/>
      <psa03 value="0.2153587489" flag="0"/>
      <psa10 value="0.0291874318" flag="0"/>
      <psa30 value="0.0013920917" flag="0"/>
    </comp>
    <comp name="--.HHN">
      <acc value="0.1318336191" flag="0"/>
      <vel value="0.0381344726" flag="0"/>
      <psa03 value="0.2431274877" flag="0"/>
      <psa10 value="0.0320362005" flag="0"/>
      <psa30 value="0.0014994718" flag="0"/>
    </comp>
  </station>
</stationlist>
