<stationlist xmlns:esm="https://esm-db.eu/esmws/shakemap/1/" created="1780624458">
	<station code="EMCN" name="EMCN" netid="IV" source="Italian National Seismic Network (INSN)" insttype="" lat="37.7912" lon="15.0336" esm:processing="manual (Paolucci et al 2011)" esm:quality="good">
		<comp name="--.HNE" depth="0.0">
			<acc value="7.63456284943282" flag="0"/>
			<vel value="1.78515209593911" flag="0"/>
			<psa03 value="9.0026688780757" flag="0"/>
			<psa10 value="1.04863070268756" flag="0"/>
			<psa30 value="0.212089692344329" flag="0"/>
		</comp>
		<comp name="--.HNN" depth="0.0">
			<acc value="7.28056791352959" flag="0"/>
			<vel value="1.21847024368913" flag="0"/>
			<psa03 value="4.2602634297786" flag="0"/>
			<psa10 value="0.919559727301368" flag="0"/>
			<psa30 value="0.0770988756004735" flag="0"/>
		</comp>
		<comp name="--.HNZ" depth="0.0">
			<acc value="4.55187050693962" flag="0"/>
			<vel value="0.89682353314501" flag="0"/>
			<psa03 value="2.59580860137227" flag="0"/>
			<psa10 value="0.700614634058988" flag="0"/>
			<psa30 value="0.0634390799199151" flag="0"/>
		</comp>
	</station>
	<station code="EVRN" name="EVRN" netid="IV" source="Italian National Seismic Network (INSN)" insttype="" lat="37.6892" lon="15.1356" esm:processing="manual (Paolucci et al 2011)" esm:quality="good">
		<comp name="--.HNE" depth="0.0">
			<acc value="2.60410794954515" flag="0"/>
			<vel value="2.36648406675211" flag="0"/>
			<psa03 value="3.4676104973293" flag="0"/>
			<psa10 value="3.90427922157338" flag="0"/>
			<psa30 value="0.299534308381145" flag="0"/>
		</comp>
		<comp name="--.HNN" depth="0.0">
			<acc value="3.12424512779885" flag="0"/>
			<vel value="2.09739339299023" flag="0"/>
			<psa03 value="4.92370086951433" flag="0"/>
			<psa10 value="3.36939553731533" flag="0"/>
			<psa30 value="0.265825529914939" flag="0"/>
		</comp>
		<comp name="--.HNZ" depth="0.0">
			<acc value="1.35484887735761" flag="0"/>
			<vel value="1.60272631898508" flag="0"/>
			<psa03 value="2.35106873117033" flag="0"/>
			<psa10 value="1.74962788261313" flag="0"/>
			<psa30 value="0.164922905549413" flag="0"/>
		</comp>
	</station>
	<station code="FAVR" name="FAVR" netid="IV" source="Italian National Seismic Network (INSN)" insttype="" lat="37.2671" lon="13.667" esm:processing="manual (Paolucci et al 2011)" esm:quality="good">
		<comp name="--.HNE" depth="0.0">
			<acc value="0.0129291695893816" flag="0"/>
			<vel value="0.0144139837380023" flag="0"/>
			<psa03 value="0.0236238850944475" flag="0"/>
			<psa10 value="0.0179716021323612" flag="0"/>
			<psa30 value="0.00517577846160168" flag="0"/>
		</comp>
		<comp name="--.HNN" depth="0.0">
			<acc value="0.00840336900685086" flag="0"/>
			<vel value="0.00981284854168346" flag="0"/>
			<psa03 value="0.0195523442921848" flag="0"/>
			<psa10 value="0.0103488723908063" flag="0"/>
			<psa30 value="0.0045901029769685" flag="0"/>
		</comp>
		<comp name="--.HNZ" depth="0.0">
			<acc value="0.00562860640444742" flag="0"/>
			<vel value="0.00654928302415156" flag="0"/>
			<psa03 value="0.011856684753842" flag="0"/>
			<psa10 value="0.00755024736683336" flag="0"/>
			<psa30 value="0.00446974644116535" flag="0"/>
		</comp>
	</station>
	<station code="GALF" name="GALF" netid="IV" source="Italian National Seismic Network (INSN)" insttype="" lat="37.7107" lon="14.5665" esm:processing="manual (Paolucci et al 2011)" esm:quality="good">
		<comp name="--.HNE" depth="0.0">
			<acc value="0.0140034610545454" flag="0"/>
			<vel value="0.0155997822119152" flag="0"/>
			<psa03 value="0.024205533780485" flag="0"/>
			<psa10 value="0.0269513630006484" flag="0"/>
			<psa30 value="0.00202503227154298" flag="0"/>
		</comp>
		<comp name="--.HNN" depth="0.0">
			<acc value="0.0116846774656864" flag="0"/>
			<vel value="0.0139873853681011" flag="0"/>
			<psa03 value="0.047739934461696" flag="0"/>
			<psa10 value="0.0236534149508155" flag="0"/>
			<psa30 value="0.00274985601875898" flag="0"/>
		</comp>
		<comp name="--.HNZ" depth="0.0">
			<acc value="0.00773275756605406" flag="0"/>
			<vel value="0.0073357299121549" flag="0"/>
			<psa03 value="0.0159282255561047" flag="0"/>
			<psa10 value="0.0110052405618963" flag="0"/>
			<psa30 value="0.0019494179423581" flag="0"/>
		</comp>
	</station>
	<station code="PLAC" name="PLAC" netid="IV" source="Italian National Seismic Network (INSN)" insttype="" lat="38.4494" lon="16.4383" esm:processing="manual (Paolucci et al 2011)" esm:quality="best">
		<comp name="--.HNE" depth="1.0">
			<acc value="0.00541279765112569" flag="0"/>
			<vel value="0.0102034809971737" flag="0"/>
			<psa03 value="0.00836679263761682" flag="0"/>
			<psa10 value="0.00949921788712528" flag="0"/>
			<psa30 value="0.00324425740189088" flag="0"/>
		</comp>
		<comp name="--.HNN" depth="1.0">
			<acc value="0.00369593167728755" flag="0"/>
			<vel value="0.00736830287094082" flag="0"/>
			<psa03 value="0.00841153484423509" flag="0"/>
			<psa10 value="0.00753816697104642" flag="0"/>
			<psa30 value="0.00185724899672446" flag="0"/>
		</comp>
		<comp name="--.HNZ" depth="1.0">
			<acc value="0.0025407364592181" flag="0"/>
			<vel value="0.00461185260667903" flag="0"/>
			<psa03 value="0.00353463432284347" flag="0"/>
			<psa10 value="0.00573013440160206" flag="0"/>
			<psa30 value="0.00191138706673257" flag="0"/>
		</comp>
	</station>
	<station code="SSY" name="SSY" netid="IV" source="Italian National Seismic Network (INSN)" insttype="" lat="37.1577" lon="15.0737" esm:processing="automatic (Paolucci et al 2011)" esm:quality="best">
		<comp name="--.HNE" depth="0.0">
			<acc value="0.0717336684969168" flag="0"/>
			<vel value="0.044796700162522" flag="0"/>
			<psa03 value="0.127946694590531" flag="0"/>
			<psa10 value="0.058185344493498" flag="0"/>
			<psa30 value="0.0151571274186485" flag="0"/>
		</comp>
		<comp name="--.HNN" depth="0.0">
			<acc value="0.0688354158188074" flag="0"/>
			<vel value="0.0469659241303187" flag="0"/>
			<psa03 value="0.121901648302698" flag="0"/>
			<psa10 value="0.0507896895677961" flag="0"/>
			<psa30 value="0.00880802515512285" flag="0"/>
		</comp>
		<comp name="--.HNZ" depth="0.0">
			<acc value="0.0500374335655349" flag="0"/>
			<vel value="0.0211645058782976" flag="0"/>
			<psa03 value="0.0750639153241063" flag="0"/>
			<psa10 value="0.0142112129856044" flag="0"/>
			<psa30 value="0.00967471840261705" flag="0"/>
		</comp>
	</station>
	<station code="CEL" name="CEL" netid="MN" source="Mediterranean Very Broadband Seismographic Network (MedNet)" insttype="" lat="38.2603" lon="15.8939" esm:processing="manual (Paolucci et al 2011)" esm:quality="best">
		<comp name="--.HNE" depth="0.0">
			<acc value="0.00589719040478751" flag="0"/>
			<vel value="0.00705386601487054" flag="0"/>
			<psa03 value="0.0140043106715191" flag="0"/>
			<psa10 value="0.00990995134388101" flag="0"/>
			<psa30 value="0.00438652593685536" flag="0"/>
		</comp>
		<comp name="--.HNN" depth="0.0">
			<acc value="0.00516745286749031" flag="0"/>
			<vel value="0.00740180026101989" flag="0"/>
			<psa03 value="0.0135121463987181" flag="0"/>
			<psa10 value="0.0105018907374407" flag="0"/>
			<psa30 value="0.00282591777001004" flag="0"/>
		</comp>
		<comp name="--.HNZ" depth="0.0">
			<acc value="0.00379957133232146" flag="0"/>
			<vel value="0.00614543335203589" flag="0"/>
			<psa03 value="0.00894844132365435" flag="0"/>
			<psa10 value="0.00884284971603523" flag="0"/>
			<psa30 value="0.00358653528252066" flag="0"/>
		</comp>
	</station>
</stationlist>
