<?xml version="1.0" encoding="UTF-8" standalone="yes"?>
<!DOCTYPE earthquake SYSTEM "stationlist.dtd">
<stationlist created="" xmlns="ch.ethz.sed.shakemap.usgs.xml">
  <station code="CAGR" name="CAGR" netid="IV" source="INGV" insttype="" lat="37.622" lon="14.4999">
    <comp name="--.HHE">
      <acc value="0.0431413612" flag="0"/>
      <vel value="0.0733939371" flag="0"/>
      <psa03 value="0.0611859261" flag="0"/>
      <psa10 value="0.1338520970" flag="0"/>
      <psa30 value="0.0325937213" flag="0"/>
    </comp>
    <comp name="--.HHN">
      <acc value="0.0390946566" flag="0"/>
      <vel value="0.0852024628" flag="0"/>
      <psa03 value="0.0908645853" flag="0"/>
      <psa10 value="0.1105170862" flag="0"/>
      <psa30 value="0.0414629917" flag="0"/>
    </comp>
    <comp name="--.HHZ">
      <acc value="0.0261550989" flag="0"/>
      <vel value="0.0465820305" flag="0"/>
      <psa03 value="0.0403761828" flag="0"/>
      <psa10 value="0.0751703962" flag="0"/>
      <psa30 value="0.0274511764" flag="0"/>
    </comp>
  </station>
  <station code="EPZF" name="EPZF" netid="IV" source="INGV" insttype="" lat="37.824" lon="14.857">
    <comp name="--.HHE">
      <acc value="0.1358543183" flag="0"/>
      <vel value="0.1782558096" flag="0"/>
      <psa03 value="0.4737693081" flag="0"/>
      <psa10 value="0.2513098861" flag="0"/>
      <psa30 value="0.0486970842" flag="0"/>
    </comp>
    <comp name="--.HHN">
      <acc value="0.1648359711" flag="0"/>
      <vel value="0.2070161544" flag="0"/>
      <psa03 value="0.3867036751" flag="0"/>
      <psa10 value="0.1971809372" flag="0"/>
      <psa30 value="0.1228801764" flag="0"/>
    </comp>
    <comp name="--.HHZ">
      <acc value="0.0831501418" flag="0"/>
      <vel value="0.1275587337" flag="0"/>
      <psa03 value="0.1954553850" flag="0"/>
      <psa10 value="0.1538665882" flag="0"/>
      <psa30 value="0.0496230267" flag="0"/>
    </comp>
  </station>
  <station code="ESML" name="ESML" netid="IV" source="INGV" insttype="" lat="37.6181" lon="14.8794">
    <comp name="--.HHE">
      <acc value="0.4926407550" flag="0"/>
      <vel value="0.4670455688" flag="0"/>
      <psa03 value="1.2800151231" flag="0"/>
      <psa10 value="0.6805577788" flag="0"/>
      <psa30 value="0.1389204692" flag="0"/>
    </comp>
    <comp name="--.HHN">
      <acc value="0.4498088332" flag="0"/>
      <vel value="0.5663109202" flag="0"/>
      <psa03 value="0.7041207563" flag="0"/>
      <psa10 value="1.0996814765" flag="0"/>
      <psa30 value="0.1338130179" flag="0"/>
    </comp>
    <comp name="--.HHZ">
      <acc value="0.4088185053" flag="0"/>
      <vel value="0.4843639100" flag="0"/>
      <psa03 value="0.7002640254" flag="0"/>
      <psa10 value="0.9487185847" flag="0"/>
      <psa30 value="0.0774801974" flag="0"/>
    </comp>
  </station>
  <station code="GALF" name="GALF" netid="IV" source="INGV" insttype="" lat="37.7107" lon="14.5665">
    <comp name="--.HHE">
      <acc value="0.1196520613" flag="0"/>
      <vel value="0.1194232490" flag="0"/>
      <psa03 value="0.2204403749" flag="0"/>
      <psa10 value="0.1925661874" flag="0"/>
      <psa30 value="0.0154610608" flag="0"/>
    </comp>
    <comp name="--.HHN">
      <acc value="0.1001863727" flag="0"/>
      <vel value="0.1395505223" flag="0"/>
      <psa03 value="0.3432286074" flag="0"/>
      <psa10 value="0.2443739489" flag="0"/>
      <psa30 value="0.0214404199" flag="0"/>
    </comp>
    <comp name="--.HHZ">
      <acc value="0.0629087718" flag="0"/>
      <vel value="0.0549828054" flag="0"/>
      <psa03 value="0.1313285550" flag="0"/>
      <psa10 value="0.0871007511" flag="0"/>
      <psa30 value="0.0135570095" flag="0"/>
    </comp>
  </station>
  <station code="HAGA" name="HAGA" netid="IV" source="INGV" insttype="" lat="37.285" lon="15.155">
    <comp name="--.HHE">
      <acc value="0.0392204941" flag="0"/>
      <vel value="0.0296978927" flag="0"/>
      <psa03 value="0.0469603956" flag="0"/>
      <psa10 value="0.0347902197" flag="0"/>
      <psa30 value="0.0067466446" flag="0"/>
    </comp>
    <comp name="--.HHN">
      <acc value="0.0334588860" flag="0"/>
      <vel value="0.0233383452" flag="0"/>
      <psa03 value="0.0508105085" flag="0"/>
      <psa10 value="0.0375291714" flag="0"/>
      <psa30 value="0.0055650903" flag="0"/>
    </comp>
    <comp name="--.HHZ">
      <acc value="0.0276303886" flag="0"/>
      <vel value="0.0113065057" flag="0"/>
      <psa03 value="0.0348294506" flag="0"/>
      <psa10 value="0.0140682175" flag="0"/>
      <psa30 value="0.0037335518" flag="0"/>
    </comp>
  </station>
  <station code="HLNI" name="HLNI" netid="IV" source="INGV" insttype="" lat="37.3485" lon="14.872">
    <comp name="--.HHE">
      <acc value="0.0450664038" flag="0"/>
      <vel value="0.0190189656" flag="0"/>
      <psa03 value="0.0429114203" flag="0"/>
      <psa10 value="0.0198744794" flag="0"/>
      <psa30 value="0.0141853498" flag="0"/>
    </comp>
    <comp name="--.HHN">
      <acc value="0.0442372165" flag="0"/>
      <vel value="0.0184296046" flag="0"/>
      <psa03 value="0.0447795039" flag="0"/>
      <psa10 value="0.0211012551" flag="0"/>
      <psa30 value="0.0103230909" flag="0"/>
    </comp>
    <comp name="--.HHZ">
      <acc value="0.0347793032" flag="0"/>
      <vel value="0.0180372298" flag="0"/>
      <psa03 value="0.0372940807" flag="0"/>
      <psa10 value="0.0186733911" flag="0"/>
      <psa30 value="0.0072725160" flag="0"/>
    </comp>
  </station>
  <station code="IFIL" name="IFIL" netid="IV" source="INGV" insttype="" lat="38.5642" lon="14.5753">
    <comp name="--.HHE">
      <acc value="0.0434168989" flag="0"/>
      <vel value="0.0383456213" flag="0"/>
      <psa03 value="0.1032166762" flag="0"/>
      <psa10 value="0.0789276938" flag="0"/>
      <psa30 value="0.0050632232" flag="0"/>
    </comp>
    <comp name="--.HHN">
      <acc value="0.0196286396" flag="0"/>
      <vel value="0.0161846813" flag="0"/>
      <psa03 value="0.0381415744" flag="0"/>
      <psa10 value="0.0208368686" flag="0"/>
      <psa30 value="0.0029306818" flag="0"/>
    </comp>
    <comp name="--.HHZ">
      <acc value="0.0205035991" flag="0"/>
      <vel value="0.0182805107" flag="0"/>
      <psa03 value="0.0409058692" flag="0"/>
      <psa10 value="0.0422074310" flag="0"/>
      <psa30 value="0.0038831053" flag="0"/>
    </comp>
  </station>
  <station code="ILLI" name="ILLI" netid="IV" source="INGV" insttype="" lat="38.4457" lon="14.9483">
    <comp name="--.HHE">
      <acc value="0.0618765264" flag="0"/>
      <vel value="0.0903384611" flag="0"/>
      <psa03 value="0.1383533924" flag="0"/>
      <psa10 value="0.1941794565" flag="0"/>
      <psa30 value="0.0304593857" flag="0"/>
    </comp>
    <comp name="--.HHN">
      <acc value="0.0982141662" flag="0"/>
      <vel value="0.1045173454" flag="0"/>
      <psa03 value="0.2182080325" flag="0"/>
      <psa10 value="0.2529457842" flag="0"/>
      <psa30 value="0.0271605783" flag="0"/>
    </comp>
    <comp name="--.HHZ">
      <acc value="0.0376943909" flag="0"/>
      <vel value="0.0325367080" flag="0"/>
      <psa03 value="0.0754376494" flag="0"/>
      <psa10 value="0.0499900273" flag="0"/>
      <psa30 value="0.0086307180" flag="0"/>
    </comp>
  </station>
  <station code="IVPL" name="IVPL" netid="IV" source="INGV" insttype="" lat="38.3763" lon="14.9801">
    <comp name="--.HHE">
      <acc value="0.0308036508" flag="0"/>
      <vel value="0.0260790906" flag="0"/>
      <psa03 value="0.0855934562" flag="0"/>
      <psa10 value="0.0326428374" flag="0"/>
      <psa30 value="0.0041873796" flag="0"/>
    </comp>
    <comp name="--.HHN">
      <acc value="0.0397631941" flag="0"/>
      <vel value="0.0297123048" flag="0"/>
      <psa03 value="0.0771264176" flag="0"/>
      <psa10 value="0.0936665924" flag="0"/>
      <psa30 value="0.0039622124" flag="0"/>
    </comp>
    <comp name="--.HHZ">
      <acc value="0.0194993179" flag="0"/>
      <vel value="0.0122699786" flag="0"/>
      <psa03 value="0.0426829164" flag="0"/>
      <psa10 value="0.0191869483" flag="0"/>
      <psa30 value="0.0018698412" flag="0"/>
    </comp>
  </station>
  <station code="MILZ" name="MILZ" netid="IV" source="INGV" insttype="" lat="38.2713" lon="15.2313">
    <comp name="--.HHE">
      <acc value="0.0365584331" flag="0"/>
      <vel value="0.0325825806" flag="0"/>
      <psa03 value="0.0945427784" flag="0"/>
      <psa10 value="0.0472052088" flag="0"/>
      <psa30 value="0.0067850700" flag="0"/>
    </comp>
    <comp name="--.HHN">
      <acc value="0.0240073728" flag="0"/>
      <vel value="0.0212988477" flag="0"/>
      <psa03 value="0.0601368544" flag="0"/>
      <psa10 value="0.0399576080" flag="0"/>
      <psa30 value="0.0047320363" flag="0"/>
    </comp>
    <comp name="--.HHZ">
      <acc value="0.0303804959" flag="0"/>
      <vel value="0.0266309803" flag="0"/>
      <psa03 value="0.0775898609" flag="0"/>
      <psa10 value="0.0349695599" flag="0"/>
      <psa30 value="0.0067928017" flag="0"/>
    </comp>
  </station>
  <station code="MPNC" name="MPNC" netid="IV" source="INGV" insttype="" lat="38.1465" lon="15.3528">
    <comp name="--.HHE">
      <acc value="0.0551580911" flag="0"/>
      <vel value="0.0544055732" flag="0"/>
      <psa03 value="0.1146221579" flag="0"/>
      <psa10 value="0.0859899864" flag="0"/>
      <psa30 value="0.0166176296" flag="0"/>
    </comp>
    <comp name="--.HHN">
      <acc value="0.0463548333" flag="0"/>
      <vel value="0.0605447820" flag="0"/>
      <psa03 value="0.0934615252" flag="0"/>
      <psa10 value="0.0901674884" flag="0"/>
      <psa30 value="0.0081409321" flag="0"/>
    </comp>
    <comp name="--.HHZ">
      <acc value="0.0213330858" flag="0"/>
      <vel value="0.0195757642" flag="0"/>
      <psa03 value="0.0719822522" flag="0"/>
      <psa10 value="0.0259522200" flag="0"/>
      <psa30 value="0.0064843444" flag="0"/>
    </comp>
  </station>
  <station code="MSRU" name="MSRU" netid="IV" source="INGV" insttype="" lat="38.2639" lon="15.5083">
    <comp name="--.HHE">
      <acc value="0.0237366837" flag="0"/>
      <vel value="0.0183367811" flag="0"/>
      <psa03 value="0.0637947124" flag="0"/>
      <psa10 value="0.0200027941" flag="0"/>
      <psa30 value="0.0097669252" flag="0"/>
    </comp>
    <comp name="--.HHN">
      <acc value="0.0213012729" flag="0"/>
      <vel value="0.0167616475" flag="0"/>
      <psa03 value="0.0593153179" flag="0"/>
      <psa10 value="0.0267206528" flag="0"/>
      <psa30 value="0.0040375924" flag="0"/>
    </comp>
    <comp name="--.HHZ">
      <acc value="0.0087017190" flag="0"/>
      <vel value="0.0107790070" flag="0"/>
      <psa03 value="0.0225985386" flag="0"/>
      <psa10 value="0.0109034043" flag="0"/>
      <psa30 value="0.0044393256" flag="0"/>
    </comp>
  </station>
  <station code="MTTG" name="MTTG" netid="IV" source="INGV" insttype="" lat="38.0031" lon="15.6999">
    <comp name="--.HHE">
      <acc value="0.0111073024" flag="0"/>
      <vel value="0.0157595210" flag="0"/>
      <psa03 value="0.0270864463" flag="0"/>
      <psa10 value="0.0262276531" flag="0"/>
      <psa30 value="0.0026958562" flag="0"/>
    </comp>
    <comp name="--.HHN">
      <acc value="0.0140150549" flag="0"/>
      <vel value="0.0144475262" flag="0"/>
      <psa03 value="0.0298646456" flag="0"/>
      <psa10 value="0.0312488644" flag="0"/>
      <psa30 value="0.0026459618" flag="0"/>
    </comp>
    <comp name="--.HHZ">
      <acc value="0.0082752458" flag="0"/>
      <vel value="0.0098752787" flag="0"/>
      <psa03 value="0.0156731507" flag="0"/>
      <psa10 value="0.0194892568" flag="0"/>
      <psa30 value="0.0025930876" flag="0"/>
    </comp>
  </station>
  <station code="MUCR" name="MUCR" netid="IV" source="INGV" insttype="" lat="38.043" lon="14.8739">
    <comp name="--.HHE">
      <acc value="0.0304340499" flag="0"/>
      <vel value="0.0334444184" flag="0"/>
      <psa03 value="0.0846642853" flag="0"/>
      <psa10 value="0.0464921112" flag="0"/>
      <psa30 value="0.0120263533" flag="0"/>
    </comp>
    <comp name="--.HHN">
      <acc value="0.0285040881" flag="0"/>
      <vel value="0.0344661243" flag="0"/>
      <psa03 value="0.0651475550" flag="0"/>
      <psa10 value="0.0505062697" flag="0"/>
      <psa30 value="0.0121520592" flag="0"/>
    </comp>
    <comp name="--.HHZ">
      <acc value="0.0166518701" flag="0"/>
      <vel value="0.0227899969" flag="0"/>
      <psa03 value="0.0415749178" flag="0"/>
      <psa10 value="0.0329166227" flag="0"/>
      <psa30 value="0.0086137455" flag="0"/>
    </comp>
  </station>
  <station code="NOV" name="NOV" netid="IV" source="INGV" insttype="" lat="38.0286" lon="15.1356">
    <comp name="--.HHE">
      <acc value="0.1630294266" flag="0"/>
      <vel value="0.1824386568" flag="0"/>
      <psa03 value="0.4396424226" flag="0"/>
      <psa10 value="0.1800821537" flag="0"/>
      <psa30 value="0.0532073880" flag="0"/>
    </comp>
    <comp name="--.HHN">
      <acc value="0.2017746385" flag="0"/>
      <vel value="0.1780300716" flag="0"/>
      <psa03 value="0.6278098972" flag="0"/>
      <psa10 value="0.2617259820" flag="0"/>
      <psa30 value="0.0287443093" flag="0"/>
    </comp>
    <comp name="--.HHZ">
      <acc value="0.0926971410" flag="0"/>
      <vel value="0.0835098824" flag="0"/>
      <psa03 value="0.2648627508" flag="0"/>
      <psa10 value="0.1234866353" flag="0"/>
      <psa30 value="0.0202249668" flag="0"/>
    </comp>
  </station>
  <station code="RESU" name="RESU" netid="IV" source="INGV" insttype="" lat="37.6468" lon="14.0568">
    <comp name="--.HHE">
      <acc value="0.0060015920" flag="0"/>
      <vel value="0.0120226289" flag="0"/>
      <psa03 value="0.0131061770" flag="0"/>
      <psa10 value="0.0145166351" flag="0"/>
      <psa30 value="0.0106023223" flag="0"/>
    </comp>
    <comp name="--.HHN">
      <acc value="0.0082431100" flag="0"/>
      <vel value="0.0148655979" flag="0"/>
      <psa03 value="0.0139999398" flag="0"/>
      <psa10 value="0.0169877049" flag="0"/>
      <psa30 value="0.0098010387" flag="0"/>
    </comp>
    <comp name="--.HHZ">
      <acc value="0.0044230879" flag="0"/>
      <vel value="0.0123376835" flag="0"/>
      <psa03 value="0.0085809652" flag="0"/>
      <psa10 value="0.0100213520" flag="0"/>
      <psa30 value="0.0093540734" flag="0"/>
    </comp>
  </station>
  <station code="SSY" name="SSY" netid="IV" source="INGV" insttype="" lat="37.1577" lon="15.0737">
    <comp name="--.HHE">
      <acc value="0.0000000000" flag="0"/>
      <vel value="0.0000000000" flag="0"/>
    </comp>
    <comp name="--.HHN">
      <acc value="0.2425511633" flag="0"/>
      <vel value="0.0991280235" flag="0"/>
      <psa03 value="0.4035435804" flag="0"/>
      <psa10 value="0.1260594400" flag="0"/>
      <psa30 value="0.0110787412" flag="0"/>
    </comp>
  </station>
  <station code="CEL" name="CEL" netid="MN" source="INGV" insttype="" lat="38.2603" lon="15.8939">
    <comp name="--.HHE">
      <acc value="0.0071083456" flag="0"/>
      <vel value="0.0063771031" flag="0"/>
      <psa03 value="0.0176609432" flag="0"/>
      <psa10 value="0.0122554741" flag="0"/>
      <psa30 value="0.0045988671" flag="0"/>
    </comp>
    <comp name="--.HHN">
      <acc value="0.0064901633" flag="0"/>
      <vel value="0.0080385423" flag="0"/>
      <psa03 value="0.0166344225" flag="0"/>
      <psa10 value="0.0125090553" flag="0"/>
      <psa30 value="0.0026562340" flag="0"/>
    </comp>
    <comp name="--.HHZ">
      <acc value="0.0046167985" flag="0"/>
      <vel value="0.0062705291" flag="0"/>
      <psa03 value="0.0113164789" flag="0"/>
      <psa10 value="0.0105679873" flag="0"/>
      <psa30 value="0.0035623966" flag="0"/>
    </comp>
  </station>
  <station code="VAE" name="VAE" netid="MN" source="INGV" insttype="" lat="37.469" lon="14.3533">
    <comp name="--.HHE">
      <acc value="0.0106848978" flag="0"/>
      <vel value="0.0271160692" flag="0"/>
      <psa03 value="0.0110530714" flag="0"/>
      <psa10 value="0.0245597692" flag="0"/>
      <psa30 value="0.0194917577" flag="0"/>
    </comp>
    <comp name="--.HHN">
      <acc value="0.0168804743" flag="0"/>
      <vel value="0.0454627410" flag="0"/>
      <psa03 value="0.0180055137" flag="0"/>
      <psa10 value="0.0294816928" flag="0"/>
      <psa30 value="0.0322956037" flag="0"/>
    </comp>
    <comp name="--.HHZ">
      <acc value="0.0105449763" flag="0"/>
      <vel value="0.0315001058" flag="0"/>
      <psa03 value="0.0111107629" flag="0"/>
      <psa10 value="0.0198773346" flag="0"/>
      <psa30 value="0.0244780228" flag="0"/>
    </comp>
  </station>
</stationlist>
