<?xml version="1.0" encoding="UTF-8" standalone="yes"?>
<!DOCTYPE earthquake SYSTEM "stationlist.dtd">
<stationlist created="" xmlns="ch.ethz.sed.shakemap.usgs.xml">
  <station code="AKS" name="AKS" netid="KO" insttype="CMG-5T" commtype="DIG" lat="38.8785" lon="27.8129">
    <comp name="--.HNZ">
      <acc value="0.0984584449" flag="0"/>
      <vel value="0.0295115084" flag="0"/>
      <psa03 value="0.1764095790" flag="0"/>
      <psa10 value="0.0152475207" flag="0"/>
      <psa30 value="0.0013126106" flag="0"/>
    </comp>
    <comp name="--.HNN">
      <acc value="0.1457201591" flag="0"/>
      <vel value="0.0516009221" flag="0"/>
      <psa03 value="0.2479455307" flag="0"/>
      <psa10 value="0.0222921443" flag="0"/>
      <psa30 value="0.0011882311" flag="0"/>
    </comp>
  </station>
  <station code="BALB" name="BALB" netid="KO" insttype="CMG-5T" commtype="DIG" lat="39.6507" lon="27.8642">
    <comp name="--.HNN">
      <acc value="0.1052664647" flag="0"/>
      <vel value="0.0351363007" flag="0"/>
      <psa03 value="0.1297624105" flag="0"/>
      <psa10 value="0.0293511090" flag="0"/>
      <psa30 value="0.0029638146" flag="0"/>
    </comp>
    <comp name="--.HNZ">
      <acc value="0.0541384491" flag="0"/>
      <vel value="0.0167295011" flag="0"/>
      <psa03 value="0.0686434422" flag="0"/>
      <psa10 value="0.0174178714" flag="0"/>
      <psa30 value="0.0012502076" flag="0"/>
    </comp>
    <comp name="--.HNE">
      <acc value="0.1239988678" flag="0"/>
      <vel value="0.0486544266" flag="0"/>
      <psa03 value="0.1299886179" flag="0"/>
      <psa10 value="0.0404691288" flag="0"/>
      <psa30 value="0.0021770144" flag="0"/>
    </comp>
  </station>
  <station code="DKL" name="DKL" netid="KO" insttype="CMG-3ESPC" commtype="DIG" lat="39.0713" lon="26.9053">
    <comp name="--.HHE">
      <acc value="0.0256604242" flag="0"/>
      <vel value="0.0104200184" flag="0"/>
      <psa03 value="0.0527131389" flag="0"/>
      <psa10 value="0.0117324612" flag="0"/>
      <psa30 value="0.0008241223" flag="0"/>
    </comp>
    <comp name="--.HHZ">
      <acc value="0.0196254689" flag="0"/>
      <vel value="0.0084947935" flag="0"/>
      <psa03 value="0.0441151612" flag="0"/>
      <psa10 value="0.0043054116" flag="0"/>
      <psa30 value="0.0008137617" flag="0"/>
    </comp>
  </station>
  <station code="DST" name="DST" netid="KO" insttype="CMG-5T" commtype="DIG" lat="39.6041" lon="28.6267">
    <comp name="--.HNE">
      <acc value="0.0635486930" flag="0"/>
      <vel value="0.0184788738" flag="0"/>
      <psa03 value="0.0627459164" flag="0"/>
      <psa10 value="0.0142242263" flag="0"/>
      <psa30 value="0.0008261062" flag="0"/>
    </comp>
    <comp name="--.HNN">
      <acc value="0.0606469383" flag="0"/>
      <vel value="0.0186633329" flag="0"/>
      <psa03 value="0.0629917894" flag="0"/>
      <psa10 value="0.0151299249" flag="0"/>
      <psa30 value="0.0014400928" flag="0"/>
    </comp>
    <comp name="--.HNZ">
      <acc value="0.0605858125" flag="0"/>
      <vel value="0.0122994263" flag="0"/>
      <psa03 value="0.0839186942" flag="0"/>
      <psa10 value="0.0154171575" flag="0"/>
      <psa30 value="0.0011086107" flag="0"/>
    </comp>
  </station>
  <station code="GOMA" name="GOMA" netid="KO" insttype="CMG-5T" commtype="DIG" lat="38.7077" lon="27.9175">
    <comp name="--.HNZ">
      <acc value="0.1180984707" flag="0"/>
      <vel value="0.0443430081" flag="0"/>
      <psa03 value="0.2872208260" flag="0"/>
      <psa10 value="0.0121018199" flag="0"/>
      <psa30 value="0.0020053211" flag="0"/>
    </comp>
    <comp name="--.HNE">
      <acc value="0.3034314518" flag="0"/>
      <vel value="0.1668375545" flag="0"/>
      <psa03 value="0.9530740093" flag="0"/>
      <psa10 value="0.0500170272" flag="0"/>
      <psa30 value="0.0041513549" flag="0"/>
    </comp>
    <comp name="--.HNN">
      <acc value="0.3874986310" flag="0"/>
      <vel value="0.1791993865" flag="0"/>
      <psa03 value="1.3809318976" flag="0"/>
      <psa10 value="0.0532205130" flag="0"/>
      <psa30 value="0.0052330398" flag="0"/>
    </comp>
  </station>
  <station code="GONE" name="GONE" netid="KO" insttype="CMG-5T" commtype="DIG" lat="40.0466" lon="27.686">
    <comp name="--.HNE">
      <acc value="0.0493410701" flag="0"/>
      <vel value="0.0185043476" flag="0"/>
      <psa03 value="0.0741367389" flag="0"/>
      <psa10 value="0.0203680610" flag="0"/>
      <psa30 value="0.0016411537" flag="0"/>
    </comp>
    <comp name="--.HNZ">
      <acc value="0.0256592183" flag="0"/>
      <vel value="0.0105215105" flag="0"/>
      <psa03 value="0.0435566608" flag="0"/>
      <psa10 value="0.0106739306" flag="0"/>
      <psa30 value="0.0009950047" flag="0"/>
    </comp>
    <comp name="--.HNN">
      <acc value="0.0851787368" flag="0"/>
      <vel value="0.0577448215" flag="0"/>
      <psa03 value="0.1852719409" flag="0"/>
      <psa10 value="0.0364239160" flag="0"/>
      <psa30 value="0.0022906914" flag="0"/>
    </comp>
  </station>
  <station code="GORD" name="GORD" netid="KO" insttype="CMG-5T" commtype="DIG" lat="38.9088" lon="28.1769">
    <comp name="--.HNZ">
      <acc value="0.3469715449" flag="0"/>
      <vel value="0.0646192614" flag="0"/>
      <psa03 value="0.1838009923" flag="0"/>
      <psa10 value="0.0366428073" flag="0"/>
      <psa30 value="0.0041665197" flag="0"/>
    </comp>
    <comp name="--.HNN">
      <acc value="0.1306583866" flag="0"/>
      <vel value="0.0543806422" flag="0"/>
      <psa03 value="0.2121510936" flag="0"/>
      <psa10 value="0.0808880053" flag="0"/>
      <psa30 value="0.0068525764" flag="0"/>
    </comp>
    <comp name="--.HNE">
      <acc value="0.2228738120" flag="0"/>
      <vel value="0.0532821824" flag="0"/>
      <psa03 value="0.1764945691" flag="0"/>
      <psa10 value="0.0633456092" flag="0"/>
      <psa30 value="0.0043761481" flag="0"/>
    </comp>
  </station>
  <station code="KCTX" name="KCTX" netid="KO" insttype="CMG-3ESP" commtype="DIG" lat="40.2626" lon="28.3353">
    <comp name="--.HHE">
      <acc value="0.0242577432" flag="0"/>
      <vel value="0.0106168404" flag="0"/>
      <psa03 value="0.0424771142" flag="0"/>
      <psa10 value="0.0103911750" flag="0"/>
      <psa30 value="0.0009883457" flag="0"/>
    </comp>
    <comp name="--.HHZ">
      <acc value="0.0261350994" flag="0"/>
      <vel value="0.0067395537" flag="0"/>
      <psa03 value="0.0281116963" flag="0"/>
      <psa10 value="0.0069985742" flag="0"/>
      <psa30 value="0.0008100945" flag="0"/>
    </comp>
    <comp name="--.HHN">
      <acc value="0.0340506531" flag="0"/>
      <vel value="0.0100260583" flag="0"/>
      <psa03 value="0.0562323104" flag="0"/>
      <psa10 value="0.0082020011" flag="0"/>
      <psa30 value="0.0009544235" flag="0"/>
    </comp>
  </station>
  <station code="KULA" name="KULA" netid="KO" insttype="CMG-3T" commtype="DIG" lat="38.5145" lon="28.6607">
    <comp name="--.HHN">
      <acc value="0.0561122760" flag="0"/>
      <vel value="0.0119335879" flag="0"/>
      <psa03 value="0.0371222222" flag="0"/>
      <psa10 value="0.0070548996" flag="0"/>
      <psa30 value="0.0005937210" flag="0"/>
    </comp>
    <comp name="--.HHZ">
      <acc value="0.0444462757" flag="0"/>
      <vel value="0.0102179368" flag="0"/>
      <psa03 value="0.0328518081" flag="0"/>
      <psa10 value="0.0106173036" flag="0"/>
      <psa30 value="0.0010901556" flag="0"/>
    </comp>
  </station>
  <station code="ORLT" name="ORLT" netid="KO" insttype="CMG-5T" commtype="DIG" lat="40.0452" lon="28.8914">
    <comp name="--.HNZ">
      <acc value="0.0277488509" flag="0"/>
      <vel value="0.0159319393" flag="0"/>
      <psa03 value="0.0370835568" flag="0"/>
      <psa10 value="0.0307119941" flag="0"/>
      <psa30 value="0.0015218548" flag="0"/>
    </comp>
    <comp name="--.HNN">
      <acc value="0.0769434507" flag="0"/>
      <vel value="0.0294143476" flag="0"/>
      <psa03 value="0.1532539699" flag="0"/>
      <psa10 value="0.0427454362" flag="0"/>
      <psa30 value="0.0020176459" flag="0"/>
    </comp>
    <comp name="--.HNE">
      <acc value="0.0747323245" flag="0"/>
      <vel value="0.0330548141" flag="0"/>
      <psa03 value="0.1838905089" flag="0"/>
      <psa10 value="0.0298822373" flag="0"/>
      <psa30 value="0.0020149808" flag="0"/>
    </comp>
  </station>
  <station code="SIMA" name="SIMA" netid="KO" insttype="CMG-6T" commtype="DIG" lat="39.0833" lon="28.9825">
    <comp name="--.HHE">
      <acc value="0.1175334227" flag="0"/>
      <vel value="0.0153605352" flag="0"/>
      <psa03 value="0.0486424364" flag="0"/>
      <psa10 value="0.0071602210" flag="0"/>
      <psa30 value="0.0008796576" flag="0"/>
    </comp>
    <comp name="--.HHN">
      <acc value="0.0964490766" flag="0"/>
      <vel value="0.0194871614" flag="0"/>
      <psa03 value="0.0982496650" flag="0"/>
      <psa10 value="0.0122187948" flag="0"/>
      <psa30 value="0.0012675351" flag="0"/>
    </comp>
    <comp name="--.HHZ">
      <acc value="0.0731115319" flag="0"/>
      <vel value="0.0102818599" flag="0"/>
      <psa03 value="0.0345393361" flag="0"/>
      <psa10 value="0.0049453236" flag="0"/>
      <psa30 value="0.0007253979" flag="0"/>
    </comp>
  </station>
  <station code="SMAA" name="SMAA" netid="KO" insttype="CMG-5T" commtype="DIG" lat="39.1005" lon="28.9805">
    <comp name="--.HNE">
      <acc value="0.0668200321" flag="0"/>
      <vel value="0.0287426673" flag="0"/>
      <psa03 value="0.1005326990" flag="0"/>
      <psa10 value="0.0313589853" flag="0"/>
      <psa30 value="0.0045270366" flag="0"/>
    </comp>
    <comp name="--.HNZ">
      <acc value="0.0517399947" flag="0"/>
      <vel value="0.0134767690" flag="0"/>
      <psa03 value="0.0393985392" flag="0"/>
      <psa10 value="0.0321984712" flag="0"/>
      <psa30 value="0.0014217653" flag="0"/>
    </comp>
    <comp name="--.HNN">
      <acc value="0.0784657251" flag="0"/>
      <vel value="0.0361717156" flag="0"/>
      <psa03 value="0.1232191435" flag="0"/>
      <psa10 value="0.0372347677" flag="0"/>
      <psa30 value="0.0034147892" flag="0"/>
    </comp>
  </station>
  <station code="SOMA" name="SOMA" netid="KO" insttype="CMG-5T" commtype="DIG" lat="39.1564" lon="27.5341">
    <comp name="--.HNE">
      <acc value="0.1579037376" flag="0"/>
      <vel value="0.0400058082" flag="0"/>
      <psa03 value="0.2305432843" flag="0"/>
      <psa10 value="0.0155036268" flag="0"/>
      <psa30 value="0.0010056172" flag="0"/>
    </comp>
    <comp name="--.HNN">
      <acc value="0.1768891606" flag="0"/>
      <vel value="0.0586781440" flag="0"/>
      <psa03 value="0.3049887686" flag="0"/>
      <psa10 value="0.0408543796" flag="0"/>
      <psa30 value="0.0021305829" flag="0"/>
    </comp>
    <comp name="--.HNZ">
      <acc value="0.1427211146" flag="0"/>
      <vel value="0.0365971778" flag="0"/>
      <psa03 value="0.1018582886" flag="0"/>
      <psa10 value="0.0137833417" flag="0"/>
      <psa30 value="0.0010280696" flag="0"/>
    </comp>
  </station>
  <station code="SUSR" name="SUSR" netid="KO" insttype="CMG-5T" commtype="DIG" lat="39.9627" lon="28.0835">
    <comp name="--.HNE">
      <acc value="0.0585999688" flag="0"/>
      <vel value="0.0143227720" flag="0"/>
      <psa03 value="0.0703536442" flag="0"/>
      <psa10 value="0.0096824015" flag="0"/>
      <psa30 value="0.0006971438" flag="0"/>
    </comp>
    <comp name="--.HNN">
      <acc value="0.0519827499" flag="0"/>
      <vel value="0.0136756071" flag="0"/>
      <psa03 value="0.0792639397" flag="0"/>
      <psa10 value="0.0064374600" flag="0"/>
      <psa30 value="0.0006822891" flag="0"/>
    </comp>
    <comp name="--.HNZ">
      <acc value="0.0400448043" flag="0"/>
      <vel value="0.0105996610" flag="0"/>
      <psa03 value="0.0611788112" flag="0"/>
      <psa10 value="0.0082745736" flag="0"/>
      <psa30 value="0.0006865452" flag="0"/>
    </comp>
  </station>
  <station code="TVSB" name="TVSB" netid="KO" insttype="CMG-3T" commtype="DIG" lat="39.4497" lon="29.4615">
    <comp name="--.HHN">
      <acc value="0.0475685808" flag="0"/>
      <vel value="0.0184860348" flag="0"/>
      <psa03 value="0.0931914708" flag="0"/>
      <psa10 value="0.0177060377" flag="0"/>
      <psa30 value="0.0008839848" flag="0"/>
    </comp>
    <comp name="--.HHZ">
      <acc value="0.0294852414" flag="0"/>
      <vel value="0.0081620539" flag="0"/>
      <psa03 value="0.0296580660" flag="0"/>
      <psa10 value="0.0100835107" flag="0"/>
      <psa30 value="0.0006729393" flag="0"/>
    </comp>
    <comp name="--.HHE">
      <acc value="0.0517101245" flag="0"/>
      <vel value="0.0184093757" flag="0"/>
      <psa03 value="0.0981368810" flag="0"/>
      <psa10 value="0.0165724728" flag="0"/>
      <psa30 value="0.0010370566" flag="0"/>
    </comp>
  </station>
  <station code="YAYO" name="YAYO" netid="KO" insttype="CMG-6T" commtype="DIG" lat="39.6113" lon="27.0726">
    <comp name="--.HHN">
      <acc value="0.0264079419" flag="0"/>
      <vel value="0.0187470941" flag="0"/>
      <psa03 value="0.0921648094" flag="0"/>
      <psa10 value="0.0166214551" flag="0"/>
      <psa30 value="0.0007246658" flag="0"/>
    </comp>
    <comp name="--.HHE">
      <acc value="0.0254942602" flag="0"/>
      <vel value="0.0217598691" flag="0"/>
      <psa03 value="0.0454331930" flag="0"/>
      <psa10 value="0.0208304382" flag="0"/>
      <psa30 value="0.0011170601" flag="0"/>
    </comp>
    <comp name="--.HHZ">
      <acc value="0.0225491524" flag="0"/>
      <vel value="0.0116768669" flag="0"/>
      <psa03 value="0.0424924385" flag="0"/>
      <psa10 value="0.0115262366" flag="0"/>
      <psa30 value="0.0008105985" flag="0"/>
    </comp>
  </station>
  <station code="YENI" name="YENI" netid="KO" insttype="CMG-5T" commtype="DIG" lat="39.9364" lon="27.2422">
    <comp name="--.HNN">
      <acc value="0.0897732361" flag="0"/>
      <vel value="0.0399538267" flag="0"/>
      <psa03 value="0.1013959153" flag="0"/>
      <psa10 value="0.0280636754" flag="0"/>
      <psa30 value="0.0015113755" flag="0"/>
    </comp>
    <comp name="--.HNE">
      <acc value="0.0485390121" flag="0"/>
      <vel value="0.0319836959" flag="0"/>
      <psa03 value="0.1091582383" flag="0"/>
      <psa10 value="0.0262503641" flag="0"/>
      <psa30 value="0.0016149915" flag="0"/>
    </comp>
    <comp name="--.HNZ">
      <acc value="0.0207541714" flag="0"/>
      <vel value="0.0087719205" flag="0"/>
      <psa03 value="0.0323047723" flag="0"/>
      <psa10 value="0.0110942099" flag="0"/>
      <psa30 value="0.0004719379" flag="0"/>
    </comp>
  </station>
</stationlist>
