<?xml version="1.0" encoding="UTF-8" standalone="yes"?>
<!DOCTYPE earthquake SYSTEM "stationlist.dtd">
<stationlist created="" xmlns="ch.ethz.sed.shakemap.usgs.xml">
  <station code="AKS" name="AKS" netid="KO" insttype="CMG-5T" commtype="DIG" lat="38.8785" lon="27.8129">
    <comp name="--.HNN">
      <acc value="0.1457201387" flag="0"/>
      <vel value="0.0516009301" flag="0"/>
      <psa03 value="0.2479455307" flag="0"/>
      <psa10 value="0.0222921430" flag="0"/>
      <psa30 value="0.0011844782" flag="0"/>
    </comp>
    <comp name="--.HNZ">
      <acc value="0.0984584065" flag="0"/>
      <vel value="0.0295114960" flag="0"/>
      <psa03 value="0.1764095790" flag="0"/>
      <psa10 value="0.0152475133" flag="0"/>
      <psa30 value="0.0013111965" flag="0"/>
    </comp>
  </station>
  <station code="AYDB" name="AYDB" netid="KO" insttype="CMG-3ESPC" commtype="DIG" lat="37.9467" lon="27.8908">
    <comp name="--.HHN">
      <acc value="0.0257693808" flag="0"/>
      <vel value="0.0154616409" flag="0"/>
      <psa03 value="0.0794841951" flag="0"/>
      <psa10 value="0.0099987816" flag="0"/>
      <psa30 value="0.0008310509" flag="0"/>
    </comp>
    <comp name="--.HHZ">
      <acc value="0.0285965875" flag="0"/>
      <vel value="0.0114108504" flag="0"/>
      <psa03 value="0.0635358519" flag="0"/>
      <psa10 value="0.0092059943" flag="0"/>
      <psa30 value="0.0007167164" flag="0"/>
    </comp>
  </station>
  <station code="AYVL" name="AYVL" netid="KO" insttype="CMG-6T" commtype="DIG" lat="39.2907" lon="26.69">
    <comp name="--.HHE">
      <acc value="0.0733462327" flag="0"/>
      <vel value="0.0283031787" flag="0"/>
      <psa03 value="0.1290161981" flag="0"/>
      <psa10 value="0.0218422639" flag="0"/>
      <psa30 value="0.0008947078" flag="0"/>
    </comp>
    <comp name="--.HHN">
      <acc value="0.1227247559" flag="0"/>
      <vel value="0.0438533428" flag="0"/>
      <psa03 value="0.2389955954" flag="0"/>
      <psa10 value="0.0218894206" flag="0"/>
      <psa30 value="0.0010567812" flag="0"/>
    </comp>
    <comp name="--.HHZ">
      <acc value="0.0503746594" flag="0"/>
      <vel value="0.0166719580" flag="0"/>
      <psa03 value="0.0621637092" flag="0"/>
      <psa10 value="0.0064047003" flag="0"/>
      <psa30 value="0.0003659786" flag="0"/>
    </comp>
  </station>
  <station code="BALB" name="BALB" netid="KO" insttype="CMG-5T" commtype="DIG" lat="39.6507" lon="27.8642">
    <comp name="--.HNZ">
      <acc value="0.0541384536" flag="0"/>
      <vel value="0.0167295025" flag="0"/>
      <psa03 value="0.0686434422" flag="0"/>
      <psa10 value="0.0174178714" flag="0"/>
      <psa30 value="0.0012502479" flag="0"/>
    </comp>
    <comp name="--.HNN">
      <acc value="0.1052664755" flag="0"/>
      <vel value="0.0351363008" flag="0"/>
      <psa03 value="0.1297624105" flag="0"/>
      <psa10 value="0.0293511090" flag="0"/>
      <psa30 value="0.0029638184" flag="0"/>
    </comp>
    <comp name="--.HNE">
      <acc value="0.1239988531" flag="0"/>
      <vel value="0.0486544266" flag="0"/>
      <psa03 value="0.1299886179" flag="0"/>
      <psa10 value="0.0404691282" flag="0"/>
      <psa30 value="0.0021769630" flag="0"/>
    </comp>
  </station>
  <station code="BLCB" name="BLCB" netid="KO" insttype="CMG-3T" commtype="DIG" lat="38.3853" lon="27.042">
    <comp name="--.HHZ">
      <acc value="0.0492223596" flag="0"/>
      <vel value="0.0190393878" flag="0"/>
      <psa03 value="0.0777090952" flag="0"/>
      <psa10 value="0.0075072535" flag="0"/>
      <psa30 value="0.0009771478" flag="0"/>
    </comp>
    <comp name="--.HHE">
      <acc value="0.0367626995" flag="0"/>
      <vel value="0.0162868411" flag="0"/>
      <psa03 value="0.1051059224" flag="0"/>
      <psa10 value="0.0135189838" flag="0"/>
      <psa30 value="0.0010268552" flag="0"/>
    </comp>
    <comp name="--.HHN">
      <acc value="0.0000454781" flag="0"/>
      <vel value="0.0000107792" flag="0"/>
      <psa03 value="0.0000545446" flag="0"/>
      <psa10 value="0.0000090618" flag="0"/>
      <psa30 value="0.0000006590" flag="0"/>
    </comp>
  </station>
  <station code="CANM" name="CANM" netid="KO" insttype="CMG-5T" commtype="DIG" lat="40.0113" lon="27.0529">
    <comp name="--.HNN">
      <acc value="0.0213586152" flag="0"/>
      <vel value="0.0116300565" flag="0"/>
      <psa03 value="0.0369183611" flag="0"/>
      <psa10 value="0.0232177656" flag="0"/>
      <psa30 value="0.0008363102" flag="0"/>
    </comp>
    <comp name="--.HNE">
      <acc value="0.0171337587" flag="0"/>
      <vel value="0.0126966165" flag="0"/>
      <psa03 value="0.0389925714" flag="0"/>
      <psa10 value="0.0131962064" flag="0"/>
      <psa30 value="0.0008921318" flag="0"/>
    </comp>
    <comp name="--.HNZ">
      <acc value="0.0167227996" flag="0"/>
      <vel value="0.0091725618" flag="0"/>
      <psa03 value="0.0292388248" flag="0"/>
      <psa10 value="0.0074185913" flag="0"/>
      <psa30 value="0.0007782396" flag="0"/>
    </comp>
  </station>
  <station code="DKL" name="DKL" netid="KO" insttype="CMG-3ESPC" commtype="DIG" lat="39.0713" lon="26.9053">
    <comp name="--.HHZ">
      <acc value="0.0196254683" flag="0"/>
      <vel value="0.0084947947" flag="0"/>
      <psa03 value="0.0441151612" flag="0"/>
      <psa10 value="0.0043054116" flag="0"/>
      <psa30 value="0.0008137769" flag="0"/>
    </comp>
    <comp name="--.HHE">
      <acc value="0.0256604272" flag="0"/>
      <vel value="0.0104200188" flag="0"/>
      <psa03 value="0.0527131389" flag="0"/>
      <psa10 value="0.0117324612" flag="0"/>
      <psa30 value="0.0008241468" flag="0"/>
    </comp>
  </station>
  <station code="DST" name="DST" netid="KO" insttype="CMG-5T" commtype="DIG" lat="39.6041" lon="28.6267">
    <comp name="--.HNN">
      <acc value="0.0606469463" flag="0"/>
      <vel value="0.0186633355" flag="0"/>
      <psa03 value="0.0629917894" flag="0"/>
      <psa10 value="0.0151299252" flag="0"/>
      <psa30 value="0.0014395426" flag="0"/>
    </comp>
    <comp name="--.HNZ">
      <acc value="0.0605858059" flag="0"/>
      <vel value="0.0122994252" flag="0"/>
      <psa03 value="0.0839186942" flag="0"/>
      <psa10 value="0.0154171576" flag="0"/>
      <psa30 value="0.0011080055" flag="0"/>
    </comp>
    <comp name="--.HNE">
      <acc value="0.0635486836" flag="0"/>
      <vel value="0.0184788782" flag="0"/>
      <psa03 value="0.0627459164" flag="0"/>
      <psa10 value="0.0142242262" flag="0"/>
      <psa30 value="0.0008262469" flag="0"/>
    </comp>
  </station>
  <station code="EDC" name="EDC" netid="KO" insttype="CMG-3T" commtype="DIG" lat="40.3465" lon="27.8618">
    <comp name="--.HHE">
      <acc value="0.0237664692" flag="0"/>
      <vel value="0.0140165122" flag="0"/>
      <psa03 value="0.0569960767" flag="0"/>
      <psa10 value="0.0210995742" flag="0"/>
      <psa30 value="0.0015244763" flag="0"/>
    </comp>
    <comp name="--.HHN">
      <acc value="0.0358204700" flag="0"/>
      <vel value="0.0214323045" flag="0"/>
      <psa03 value="0.1150273454" flag="0"/>
      <psa10 value="0.0207062137" flag="0"/>
      <psa30 value="0.0013793890" flag="0"/>
    </comp>
    <comp name="--.HHZ">
      <acc value="0.0147014702" flag="0"/>
      <vel value="0.0073451888" flag="0"/>
      <psa03 value="0.0273772175" flag="0"/>
      <psa10 value="0.0072997324" flag="0"/>
      <psa30 value="0.0006777533" flag="0"/>
    </comp>
  </station>
  <station code="GOMA" name="GOMA" netid="KO" insttype="CMG-5T" commtype="DIG" lat="38.7077" lon="27.9175">
    <comp name="--.HNN">
      <acc value="0.3874986282" flag="0"/>
      <vel value="0.1791993726" flag="0"/>
      <psa03 value="1.3809318976" flag="0"/>
      <psa10 value="0.0532205143" flag="0"/>
      <psa30 value="0.0052309911" flag="0"/>
    </comp>
    <comp name="--.HNE">
      <acc value="0.3034314612" flag="0"/>
      <vel value="0.1668375539" flag="0"/>
      <psa03 value="0.9530740093" flag="0"/>
      <psa10 value="0.0500170333" flag="0"/>
      <psa30 value="0.0041499846" flag="0"/>
    </comp>
  </station>
  <station code="GONE" name="GONE" netid="KO" insttype="CMG-5T" commtype="DIG" lat="40.0466" lon="27.686">
    <comp name="--.HNE">
      <acc value="0.0493410642" flag="0"/>
      <vel value="0.0185043474" flag="0"/>
      <psa03 value="0.0741367389" flag="0"/>
      <psa10 value="0.0203680611" flag="0"/>
      <psa30 value="0.0016410864" flag="0"/>
    </comp>
    <comp name="--.HNN">
      <acc value="0.0851787384" flag="0"/>
      <vel value="0.0577448238" flag="0"/>
      <psa03 value="0.1852719409" flag="0"/>
      <psa10 value="0.0364239160" flag="0"/>
      <psa30 value="0.0022907178" flag="0"/>
    </comp>
    <comp name="--.HNZ">
      <acc value="0.0256592292" flag="0"/>
      <vel value="0.0105215130" flag="0"/>
      <psa03 value="0.0435566608" flag="0"/>
      <psa10 value="0.0106739306" flag="0"/>
      <psa30 value="0.0009950222" flag="0"/>
    </comp>
  </station>
  <station code="GORD" name="GORD" netid="KO" insttype="CMG-5T" commtype="DIG" lat="38.9088" lon="28.1769">
    <comp name="--.HNE">
      <acc value="0.2228738174" flag="0"/>
      <vel value="0.0532821796" flag="0"/>
      <psa03 value="0.1764945691" flag="0"/>
      <psa10 value="0.0633456106" flag="0"/>
      <psa30 value="0.0043762824" flag="0"/>
    </comp>
    <comp name="--.HNN">
      <acc value="0.1306583824" flag="0"/>
      <vel value="0.0543806417" flag="0"/>
      <psa03 value="0.2121510936" flag="0"/>
      <psa10 value="0.0808880065" flag="0"/>
      <psa30 value="0.0068521177" flag="0"/>
    </comp>
    <comp name="--.HNZ">
      <acc value="0.3469715453" flag="0"/>
      <vel value="0.0646192631" flag="0"/>
      <psa03 value="0.1838009923" flag="0"/>
      <psa10 value="0.0366428111" flag="0"/>
      <psa30 value="0.0041666049" flag="0"/>
    </comp>
  </station>
  <station code="KCTX" name="KCTX" netid="KO" insttype="CMG-3ESP" commtype="DIG" lat="40.2626" lon="28.3353">
    <comp name="--.HHE">
      <acc value="0.0242577432" flag="0"/>
      <vel value="0.0106168410" flag="0"/>
      <psa03 value="0.0424771142" flag="0"/>
      <psa10 value="0.0103911750" flag="0"/>
      <psa30 value="0.0009883620" flag="0"/>
    </comp>
    <comp name="--.HHN">
      <acc value="0.0340506534" flag="0"/>
      <vel value="0.0100260588" flag="0"/>
      <psa03 value="0.0562323104" flag="0"/>
      <psa10 value="0.0082020011" flag="0"/>
      <psa30 value="0.0009544320" flag="0"/>
    </comp>
    <comp name="--.HHZ">
      <acc value="0.0261350996" flag="0"/>
      <vel value="0.0067395544" flag="0"/>
      <psa03 value="0.0281116963" flag="0"/>
      <psa10 value="0.0069985742" flag="0"/>
      <psa30 value="0.0008101033" flag="0"/>
    </comp>
  </station>
  <station code="KULA" name="KULA" netid="KO" insttype="CMG-3T" commtype="DIG" lat="38.5145" lon="28.6607">
    <comp name="--.HHN">
      <acc value="0.0561122758" flag="0"/>
      <vel value="0.0119335879" flag="0"/>
      <psa03 value="0.0371222222" flag="0"/>
      <psa10 value="0.0070548996" flag="0"/>
      <psa30 value="0.0005937268" flag="0"/>
    </comp>
  </station>
  <station code="MDNY" name="MDNY" netid="KO" insttype="CMG-5T" commtype="DIG" lat="40.3709" lon="28.8846">
    <comp name="--.HNN">
      <acc value="0.0536950035" flag="0"/>
      <vel value="0.0257075930" flag="0"/>
      <psa03 value="0.1681717261" flag="0"/>
      <psa10 value="0.0196437516" flag="0"/>
      <psa30 value="0.0013460373" flag="0"/>
    </comp>
    <comp name="--.HNZ">
      <acc value="0.0481770181" flag="0"/>
      <vel value="0.0144003862" flag="0"/>
      <psa03 value="0.0295222099" flag="0"/>
      <psa10 value="0.0072004265" flag="0"/>
      <psa30 value="0.0016089942" flag="0"/>
    </comp>
  </station>
  <station code="NAZL" name="NAZL" netid="KO" insttype="CMG-5T" commtype="DIG" lat="37.9641" lon="28.2922">
    <comp name="--.HNN">
      <acc value="0.0178561569" flag="0"/>
      <vel value="0.0107514840" flag="0"/>
      <psa03 value="0.0594506212" flag="0"/>
      <psa10 value="0.0130713083" flag="0"/>
      <psa30 value="0.0007165980" flag="0"/>
    </comp>
    <comp name="--.HNZ">
      <acc value="0.0099463513" flag="0"/>
      <vel value="0.0052056668" flag="0"/>
      <psa03 value="0.0271534250" flag="0"/>
      <psa10 value="0.0055530312" flag="0"/>
      <psa30 value="0.0004660463" flag="0"/>
    </comp>
    <comp name="--.HNE">
      <acc value="0.0184022092" flag="0"/>
      <vel value="0.0161608550" flag="0"/>
      <psa03 value="0.0452028410" flag="0"/>
      <psa10 value="0.0253662243" flag="0"/>
      <psa30 value="0.0011732170" flag="0"/>
    </comp>
  </station>
  <station code="ORLT" name="ORLT" netid="KO" insttype="CMG-5T" commtype="DIG" lat="40.0452" lon="28.8914">
    <comp name="--.HNE">
      <acc value="0.0747323157" flag="0"/>
      <vel value="0.0330548179" flag="0"/>
      <psa03 value="0.1838905089" flag="0"/>
      <psa10 value="0.0298822381" flag="0"/>
      <psa30 value="0.0020150545" flag="0"/>
    </comp>
    <comp name="--.HNZ">
      <acc value="0.0277488246" flag="0"/>
      <vel value="0.0159319425" flag="0"/>
      <psa03 value="0.0370835568" flag="0"/>
      <psa10 value="0.0307119944" flag="0"/>
      <psa30 value="0.0015220231" flag="0"/>
    </comp>
    <comp name="--.HNN">
      <acc value="0.0769434550" flag="0"/>
      <vel value="0.0294143322" flag="0"/>
      <psa03 value="0.1532539699" flag="0"/>
      <psa10 value="0.0427454370" flag="0"/>
      <psa30 value="0.0020165772" flag="0"/>
    </comp>
  </station>
  <station code="SIMA" name="SIMA" netid="KO" insttype="CMG-6T" commtype="DIG" lat="39.0833" lon="28.9825">
    <comp name="--.HHZ">
      <acc value="0.0731115166" flag="0"/>
      <vel value="0.0102818570" flag="0"/>
      <psa03 value="0.0345393361" flag="0"/>
      <psa10 value="0.0049453237" flag="0"/>
      <psa30 value="0.0007254118" flag="0"/>
    </comp>
    <comp name="--.HHE">
      <acc value="0.1175334431" flag="0"/>
      <vel value="0.0153605345" flag="0"/>
      <psa03 value="0.0486424364" flag="0"/>
      <psa10 value="0.0071602210" flag="0"/>
      <psa30 value="0.0008796368" flag="0"/>
    </comp>
    <comp name="--.HHN">
      <acc value="0.0964491062" flag="0"/>
      <vel value="0.0194871617" flag="0"/>
      <psa03 value="0.0982496650" flag="0"/>
      <psa10 value="0.0122187948" flag="0"/>
      <psa30 value="0.0012675322" flag="0"/>
    </comp>
  </station>
  <station code="SMAA" name="SMAA" netid="KO" insttype="CMG-5T" commtype="DIG" lat="39.1005" lon="28.9805">
    <comp name="--.HNZ">
      <acc value="0.0517399815" flag="0"/>
      <vel value="0.0134767783" flag="0"/>
      <psa03 value="0.0393985392" flag="0"/>
      <psa10 value="0.0321984710" flag="0"/>
      <psa30 value="0.0014203485" flag="0"/>
    </comp>
  </station>
  <station code="SOMA" name="SOMA" netid="KO" insttype="CMG-5T" commtype="DIG" lat="39.1564" lon="27.5341">
    <comp name="--.HNE">
      <acc value="0.1579037471" flag="0"/>
      <vel value="0.0400058135" flag="0"/>
      <psa03 value="0.2305432843" flag="0"/>
      <psa10 value="0.0155036262" flag="0"/>
      <psa30 value="0.0010060985" flag="0"/>
    </comp>
    <comp name="--.HNZ">
      <acc value="0.1427211126" flag="0"/>
      <vel value="0.0365971805" flag="0"/>
      <psa03 value="0.1018582886" flag="0"/>
      <psa10 value="0.0137833416" flag="0"/>
      <psa30 value="0.0010280543" flag="0"/>
    </comp>
  </station>
  <station code="SUSR" name="SUSR" netid="KO" insttype="CMG-5T" commtype="DIG" lat="39.9627" lon="28.0835">
    <comp name="--.HNN">
      <acc value="0.0519827457" flag="0"/>
      <vel value="0.0136756081" flag="0"/>
      <psa03 value="0.0792639397" flag="0"/>
      <psa10 value="0.0064374598" flag="0"/>
      <psa30 value="0.0006824080" flag="0"/>
    </comp>
  </station>
  <station code="TVSB" name="TVSB" netid="KO" insttype="CMG-3T" commtype="DIG" lat="39.4497" lon="29.4615">
    <comp name="--.HHE">
      <acc value="0.0517101254" flag="0"/>
      <vel value="0.0184093757" flag="0"/>
      <psa03 value="0.0981368810" flag="0"/>
      <psa10 value="0.0165724728" flag="0"/>
      <psa30 value="0.0010370602" flag="0"/>
    </comp>
    <comp name="--.HHZ">
      <acc value="0.0294852417" flag="0"/>
      <vel value="0.0081620540" flag="0"/>
      <psa03 value="0.0296580660" flag="0"/>
      <psa10 value="0.0100835107" flag="0"/>
      <psa30 value="0.0006729219" flag="0"/>
    </comp>
  </station>
  <station code="YAYO" name="YAYO" netid="KO" insttype="CMG-6T" commtype="DIG" lat="39.6113" lon="27.0726">
    <comp name="--.HHN">
      <acc value="0.0264079429" flag="0"/>
      <vel value="0.0187470939" flag="0"/>
      <psa03 value="0.0921648094" flag="0"/>
      <psa10 value="0.0166214551" flag="0"/>
      <psa30 value="0.0007246586" flag="0"/>
    </comp>
  </station>
  <station code="YENI" name="YENI" netid="KO" insttype="CMG-5T" commtype="DIG" lat="39.9364" lon="27.2422">
    <comp name="--.HNE">
      <acc value="0.0485390123" flag="0"/>
      <vel value="0.0319836935" flag="0"/>
      <psa03 value="0.1091582383" flag="0"/>
      <psa10 value="0.0262503640" flag="0"/>
      <psa30 value="0.0016166763" flag="0"/>
    </comp>
  </station>
</stationlist>
