<?xml version="1.0" encoding="UTF-8" standalone="yes"?>
<!DOCTYPE earthquake SYSTEM "stationlist.dtd">
<stationlist created="" xmlns="ch.ethz.sed.shakemap.usgs.xml">
  <station code="KARP" name="KARP" netid="GE" source="GFZ" insttype="STS-2/N" lat="35.5471" lon="27.1611">
    <comp name="--.HHE">
      <acc value="0.1971440919" flag="0"/>
      <vel value="0.0335758699" flag="0"/>
      <psa03 value="0.1594746878" flag="0"/>
      <psa10 value="0.0141255878" flag="0"/>
      <psa30 value="0.0010920748" flag="0"/>
    </comp>
    <comp name="--.HHN">
      <acc value="0.1778874325" flag="0"/>
      <vel value="0.0406645827" flag="0"/>
      <psa03 value="0.1836543339" flag="0"/>
      <psa10 value="0.0136274106" flag="0"/>
      <psa30 value="0.0011430955" flag="0"/>
    </comp>
    <comp name="--.HHZ">
      <acc value="0.0815460897" flag="0"/>
      <vel value="0.0247331593" flag="0"/>
      <psa03 value="0.1748562746" flag="0"/>
      <psa10 value="0.0113762091" flag="0"/>
      <psa30 value="0.0009222073" flag="0"/>
    </comp>
  </station>
  <station code="KARP" name="KARP" netid="HL" source="NOA" insttype="120" lat="35.5471" lon="27.1611">
    <comp name="--.HHE">
      <acc value="0.1563210894" flag="0"/>
      <vel value="0.0329049614" flag="0"/>
      <psa03 value="0.1544766414" flag="0"/>
      <psa10 value="0.0139370639" flag="0"/>
      <psa30 value="0.0010771771" flag="0"/>
    </comp>
    <comp name="--.HHN">
      <acc value="0.1412053729" flag="0"/>
      <vel value="0.0384767272" flag="0"/>
      <psa03 value="0.1783357192" flag="0"/>
      <psa10 value="0.0134974119" flag="0"/>
      <psa30 value="0.0011219548" flag="0"/>
    </comp>
    <comp name="--.HHZ">
      <acc value="0.0753313036" flag="0"/>
      <vel value="0.0235748351" flag="0"/>
      <psa03 value="0.1700349142" flag="0"/>
      <psa10 value="0.0112441048" flag="0"/>
      <psa30 value="0.0009109592" flag="0"/>
    </comp>
  </station>
</stationlist>
