<stationlist xmlns:esm="https://esm-db.eu/esmws/shakemap/1/" created="1780970074">
	<station code="KSS1" name="KSS1" netid="HI" source="ITSAK Strong Motion Network" insttype="" lat="35.4189" lon="26.9207" esm:processing="automatic (Paolucci et al 2011)" esm:quality="best">
		<comp name="--.HNE" depth="0.0">
			<acc value="0.0836889299429048" flag="0"/>
			<vel value="0.0372285762863522" flag="0"/>
			<psa03 value="0.273172200484289" flag="0"/>
			<psa10 value="0.0170235214747506" flag="0"/>
			<psa30 value="0.00105001653760907" flag="0"/>
		</comp>
		<comp name="--.HNN" depth="0.0">
			<acc value="0.0939546682978552" flag="0"/>
			<vel value="0.0404463385576374" flag="0"/>
			<psa03 value="0.293936534352835" flag="0"/>
			<psa10 value="0.0144876044201914" flag="0"/>
			<psa30 value="0.00116947747214303" flag="0"/>
		</comp>
		<comp name="--.HNZ" depth="0.0">
			<acc value="0.0655189908032101" flag="0"/>
			<vel value="0.0242967535702417" flag="0"/>
			<psa03 value="0.193504943752851" flag="0"/>
			<psa10 value="0.00695416349170206" flag="0"/>
			<psa30 value="0.000891486556609186" flag="0"/>
		</comp>
	</station>
	<station code="SIT2" name="SIT2" netid="HI" source="ITSAK Strong Motion Network" insttype="" lat="35.2059" lon="26.107" esm:processing="manual (Paolucci et al 2011)" esm:quality="good">
		<comp name="--.HNE" depth="0.0">
			<acc value="0.0298184285171708" flag="0"/>
			<vel value="0.0169170164038482" flag="0"/>
			<psa03 value="0.0773181584068699" flag="0"/>
			<psa10 value="0.00947858603480631" flag="0"/>
			<psa30 value="0.000672642788450242" flag="0"/>
		</comp>
		<comp name="--.HNN" depth="0.0">
			<acc value="0.0250704713505665" flag="0"/>
			<vel value="0.0174764101215473" flag="0"/>
			<psa03 value="0.0720943331874197" flag="0"/>
			<psa10 value="0.00954122830954958" flag="0"/>
			<psa30 value="0.000706998553934429" flag="0"/>
		</comp>
		<comp name="--.HNZ" depth="0.0">
			<acc value="0.0292606326636254" flag="0"/>
			<vel value="0.00857757894266587" flag="0"/>
			<psa03 value="0.0340248060597497" flag="0"/>
			<psa10 value="0.00213579625164473" flag="0"/>
			<psa30 value="0.000232321067213863" flag="0"/>
		</comp>
	</station>
</stationlist>
