<?xml version="1.0" encoding="UTF-8" standalone="yes"?>
<!DOCTYPE earthquake SYSTEM "stationlist.dtd">
<stationlist created="" xmlns="ch.ethz.sed.shakemap.usgs.xml">
  <station code="APMY" name="APMY" netid="KO" insttype="CMG-6T" lat="37.4717" lon="29.3018">
    <comp name="--.HHE">
      <acc value="0.0050659547" flag="0"/>
      <vel value="0.0062536726" flag="0"/>
      <psa03 value="0.0120077408" flag="0"/>
      <psa10 value="0.0093622114" flag="0"/>
      <psa30 value="0.0007999360" flag="0"/>
    </comp>
    <comp name="--.HHN">
      <acc value="0.0058557107" flag="0"/>
      <vel value="0.0036001922" flag="0"/>
      <psa03 value="0.0130614343" flag="0"/>
      <psa10 value="0.0078378163" flag="0"/>
      <psa30 value="0.0008212660" flag="0"/>
    </comp>
    <comp name="--.HHZ">
      <acc value="0.0050214883" flag="0"/>
      <vel value="0.0052629518" flag="0"/>
      <psa03 value="0.0104126782" flag="0"/>
      <psa10 value="0.0098080775" flag="0"/>
      <psa30 value="0.0007120010" flag="0"/>
    </comp>
  </station>
  <station code="BODA" name="BODA" netid="KO" insttype="ACEBOX" lat="37.0348" lon="27.4304">
    <comp name="--.HNN">
      <acc value="0.0503571140" flag="0"/>
      <vel value="0.0315738446" flag="0"/>
      <psa03 value="0.1438151324" flag="0"/>
      <psa10 value="0.0191025020" flag="0"/>
      <psa30 value="0.0013083651" flag="0"/>
    </comp>
    <comp name="--.HNZ">
      <acc value="0.0228524036" flag="0"/>
      <vel value="0.0123782913" flag="0"/>
      <psa03 value="0.0574736996" flag="0"/>
      <psa10 value="0.0111862617" flag="0"/>
      <psa30 value="0.0007768065" flag="0"/>
    </comp>
    <comp name="--.HNE">
      <acc value="0.0804144277" flag="0"/>
      <vel value="0.0424086198" flag="0"/>
      <psa03 value="0.2671206114" flag="0"/>
      <psa10 value="0.0130495922" flag="0"/>
      <psa30 value="0.0010464187" flag="0"/>
    </comp>
  </station>
  <station code="BODT" name="BODT" netid="KO" insttype="CMG-3ESP" lat="37.0622" lon="27.3103">
    <comp name="--.HHE">
      <acc value="0.0285886048" flag="0"/>
      <vel value="0.0174820286" flag="0"/>
      <psa03 value="0.0730596078" flag="0"/>
      <psa10 value="0.0177325726" flag="0"/>
      <psa30 value="0.0013998024" flag="0"/>
    </comp>
    <comp name="--.HHN">
      <acc value="0.0294473934" flag="0"/>
      <vel value="0.0145380105" flag="0"/>
      <psa03 value="0.0661759779" flag="0"/>
      <psa10 value="0.0216766505" flag="0"/>
      <psa30 value="0.0009139835" flag="0"/>
    </comp>
    <comp name="--.HHZ">
      <acc value="0.0141620621" flag="0"/>
      <vel value="0.0099891150" flag="0"/>
      <psa03 value="0.0286261237" flag="0"/>
      <psa10 value="0.0123765036" flag="0"/>
      <psa30 value="0.0010089324" flag="0"/>
    </comp>
  </station>
  <station code="CAME" name="CAME" netid="KO" insttype="CMG-5T" lat="36.9435" lon="29.3023">
    <comp name="--.HNE">
      <acc value="0.0143801982" flag="0"/>
      <vel value="0.0078580737" flag="0"/>
      <psa03 value="0.0337080841" flag="0"/>
      <psa10 value="0.0042286830" flag="0"/>
      <psa30 value="0.0005227553" flag="0"/>
    </comp>
    <comp name="--.HNZ">
      <acc value="0.0058733823" flag="0"/>
      <vel value="0.0030131783" flag="0"/>
      <psa03 value="0.0157489205" flag="0"/>
      <psa10 value="0.0027958484" flag="0"/>
      <psa30 value="0.0005677001" flag="0"/>
    </comp>
    <comp name="--.HNN">
      <acc value="0.0105653760" flag="0"/>
      <vel value="0.0049848126" flag="0"/>
      <psa03 value="0.0445814552" flag="0"/>
      <psa10 value="0.0034990694" flag="0"/>
      <psa30 value="0.0002969979" flag="0"/>
    </comp>
  </station>
  <station code="DALY" name="DALY" netid="KO" insttype="CMG-3T" lat="36.8162" lon="28.6532">
    <comp name="--.HHZ">
      <acc value="0.0312612955" flag="0"/>
      <vel value="0.0123755465" flag="0"/>
      <psa03 value="0.0795507502" flag="0"/>
      <psa10 value="0.0092781689" flag="0"/>
      <psa30 value="0.0015222991" flag="0"/>
    </comp>
    <comp name="--.HHE">
      <acc value="0.0630905309" flag="0"/>
      <vel value="0.0291028209" flag="0"/>
      <psa03 value="0.1266285204" flag="0"/>
      <psa10 value="0.0209023702" flag="0"/>
      <psa30 value="0.0012776470" flag="0"/>
    </comp>
  </station>
  <station code="DAT" name="DAT" netid="KO" insttype="CMG-3T" lat="36.7308" lon="27.5767">
    <comp name="--.HHE">
      <acc value="0.0293974886" flag="0"/>
      <vel value="0.0168643040" flag="0"/>
      <psa03 value="0.0769254734" flag="0"/>
      <psa10 value="0.0226954117" flag="0"/>
      <psa30 value="0.0011237130" flag="0"/>
    </comp>
    <comp name="--.HHZ">
      <acc value="0.0000276992" flag="0"/>
      <vel value="0.0000042512" flag="0"/>
      <psa03 value="0.0000101646" flag="0"/>
      <psa10 value="0.0000026193" flag="0"/>
      <psa30 value="0.0000007984" flag="0"/>
    </comp>
    <comp name="--.HHN">
      <acc value="0.0453727995" flag="0"/>
      <vel value="0.0296134214" flag="0"/>
      <psa03 value="0.0967525639" flag="0"/>
      <psa10 value="0.0127496736" flag="0"/>
      <psa30 value="0.0013337665" flag="0"/>
    </comp>
  </station>
  <station code="FETI" name="FETI" netid="KO" insttype="CMG-5T" lat="36.6903" lon="29.096">
    <comp name="--.HNE">
      <acc value="0.0173424709" flag="0"/>
      <vel value="0.0089923288" flag="0"/>
      <psa03 value="0.0508096116" flag="0"/>
      <psa10 value="0.0074400821" flag="0"/>
      <psa30 value="0.0007359470" flag="0"/>
    </comp>
    <comp name="--.HNN">
      <acc value="0.0040165159" flag="0"/>
      <vel value="0.0128756421" flag="0"/>
      <psa03 value="0.0046742094" flag="0"/>
      <psa10 value="0.0028957913" flag="0"/>
      <psa30 value="0.0044184583" flag="0"/>
    </comp>
    <comp name="--.HNZ">
      <acc value="0.0146715376" flag="0"/>
      <vel value="0.0081682708" flag="0"/>
      <psa03 value="0.0424809683" flag="0"/>
      <psa10 value="0.0095402063" flag="0"/>
      <psa30 value="0.0007123395" flag="0"/>
    </comp>
  </station>
  <station code="FETY" name="FETY" netid="KO" insttype="CMG-3ESP" lat="36.6353" lon="29.0835">
    <comp name="--.HHN">
      <acc value="0.0069638434" flag="0"/>
      <vel value="0.0055633465" flag="0"/>
      <psa03 value="0.0229928522" flag="0"/>
      <psa10 value="0.0052208747" flag="0"/>
      <psa30 value="0.0008410255" flag="0"/>
    </comp>
    <comp name="--.HHZ">
      <acc value="0.0121714064" flag="0"/>
      <vel value="0.0068609018" flag="0"/>
      <psa03 value="0.0235962724" flag="0"/>
      <psa10 value="0.0059373141" flag="0"/>
      <psa30 value="0.0007178481" flag="0"/>
    </comp>
  </station>
  <station code="MLSB" name="MLSB" netid="KO" insttype="CMG-3ESP" lat="37.2953" lon="27.7767">
    <comp name="--.HHZ">
      <acc value="0.0121103101" flag="0"/>
      <vel value="0.0061368119" flag="0"/>
      <psa03 value="0.0249359557" flag="0"/>
      <psa10 value="0.0044124856" flag="0"/>
      <psa30 value="0.0008900701" flag="0"/>
    </comp>
  </station>
  <station code="NAZL" name="NAZL" netid="KO" insttype="CMG-5T" lat="37.9641" lon="28.2922">
    <comp name="--.HNZ">
      <acc value="0.0110532015" flag="0"/>
      <vel value="0.0056987122" flag="0"/>
      <psa03 value="0.0254102231" flag="0"/>
      <psa10 value="0.0039634240" flag="0"/>
      <psa30 value="0.0006347875" flag="0"/>
    </comp>
    <comp name="--.HNE">
      <acc value="0.0211293864" flag="0"/>
      <vel value="0.0158411680" flag="0"/>
      <psa03 value="0.0801055266" flag="0"/>
      <psa10 value="0.0192065458" flag="0"/>
      <psa30 value="0.0012705118" flag="0"/>
    </comp>
    <comp name="--.HNN">
      <acc value="0.0318238092" flag="0"/>
      <vel value="0.0185992915" flag="0"/>
      <psa03 value="0.0931492958" flag="0"/>
      <psa10 value="0.0176927018" flag="0"/>
      <psa30 value="0.0011052793" flag="0"/>
    </comp>
  </station>
  <station code="YER" name="YER" netid="KO" insttype="CMG-3T" lat="37.1336" lon="28.284">
    <comp name="--.HHN">
      <acc value="1.0726826360" flag="0"/>
      <vel value="0.2249632891" flag="0"/>
      <psa03 value="0.6915535139" flag="0"/>
      <psa10 value="0.0849258703" flag="0"/>
      <psa30 value="0.0045986772" flag="0"/>
    </comp>
    <comp name="--.HHE">
      <acc value="0.8938150740" flag="0"/>
      <vel value="0.2733062916" flag="0"/>
      <psa03 value="1.1968597077" flag="0"/>
      <psa10 value="0.0712659784" flag="0"/>
      <psa30 value="0.0089520912" flag="0"/>
    </comp>
    <comp name="--.HHZ">
      <acc value="0.5144722136" flag="0"/>
      <vel value="0.1716606221" flag="0"/>
      <psa03 value="0.9281965959" flag="0"/>
      <psa10 value="0.0999348067" flag="0"/>
      <psa30 value="0.0094616769" flag="0"/>
    </comp>
  </station>
  <station code="AYDN" name="AYDN" netid="TU" insttype="T" lat="37.6608" lon="27.8792">
    <comp name="--.HHN">
      <acc value="0.0882782916" flag="0"/>
      <vel value="0.0314860254" flag="0"/>
      <psa03 value="0.1669267275" flag="0"/>
      <psa10 value="0.0558229511" flag="0"/>
      <psa30 value="0.0024023574" flag="0"/>
    </comp>
    <comp name="--.HHZ">
      <acc value="0.0530636028" flag="0"/>
      <vel value="0.0252913199" flag="0"/>
      <psa03 value="0.0887881892" flag="0"/>
      <psa10 value="0.0302826472" flag="0"/>
      <psa30 value="0.0016997621" flag="0"/>
    </comp>
    <comp name="--.HHE">
      <acc value="0.1040011278" flag="0"/>
      <vel value="0.0418149071" flag="0"/>
      <psa03 value="0.2086619311" flag="0"/>
      <psa10 value="0.0259896928" flag="0"/>
      <psa30 value="0.0027388202" flag="0"/>
    </comp>
  </station>
</stationlist>
