<?xml version="1.0" encoding="UTF-8" standalone="yes"?>
<!DOCTYPE earthquake SYSTEM "stationlist.dtd">
<stationlist created="" xmlns="ch.ethz.sed.shakemap.usgs.xml">
  <station code="GAZ" name="GAZ" netid="KO" insttype="CMG-3T" lat="37.1721" lon="37.2096">
    <comp name="--.HHE">
      <acc value="0.0182518627" flag="0"/>
      <vel value="0.0068763100" flag="0"/>
      <psa03 value="0.0345781426" flag="0"/>
      <psa10 value="0.0054828298" flag="0"/>
      <psa30 value="0.0004966848" flag="0"/>
    </comp>
    <comp name="--.HHN">
      <acc value="0.0179637444" flag="0"/>
      <vel value="0.0063886002" flag="0"/>
      <psa03 value="0.0506016354" flag="0"/>
      <psa10 value="0.0039009755" flag="0"/>
      <psa30 value="0.0002974693" flag="0"/>
    </comp>
    <comp name="--.HHZ">
      <acc value="0.0080025354" flag="0"/>
      <vel value="0.0042591168" flag="0"/>
      <psa03 value="0.0282072786" flag="0"/>
      <psa10 value="0.0030726173" flag="0"/>
      <psa30 value="0.0002403112" flag="0"/>
    </comp>
  </station>
  <station code="KHMN" name="KHMN" netid="KO" insttype="CMG-5T" lat="37.3916" lon="37.1574">
    <comp name="--.HNE">
      <acc value="0.0172102046" flag="0"/>
      <vel value="0.0052439033" flag="0"/>
      <psa03 value="0.0457243140" flag="0"/>
      <psa10 value="0.0032481085" flag="0"/>
      <psa30 value="0.0007891009" flag="0"/>
    </comp>
    <comp name="--.HNN">
      <acc value="0.0204387968" flag="0"/>
      <vel value="0.0048644552" flag="0"/>
      <psa03 value="0.0467239257" flag="0"/>
      <psa10 value="0.0034309909" flag="0"/>
      <psa30 value="0.0002878940" flag="0"/>
    </comp>
    <comp name="--.HNZ">
      <acc value="0.0132179484" flag="0"/>
      <vel value="0.0042705666" flag="0"/>
      <psa03 value="0.0209824586" flag="0"/>
      <psa10 value="0.0019548314" flag="0"/>
      <psa30 value="0.0004177935" flag="0"/>
    </comp>
  </station>
  <station code="KMRS" name="KMRS" netid="KO" insttype="CMG-3T" lat="37.5053" lon="36.9">
    <comp name="--.HHN">
      <acc value="0.0162010877" flag="0"/>
      <vel value="0.0106448634" flag="0"/>
      <psa03 value="0.0390292481" flag="0"/>
      <psa10 value="0.0066392042" flag="0"/>
      <psa30 value="0.0005819320" flag="0"/>
    </comp>
    <comp name="--.HHZ">
      <acc value="0.0076711922" flag="0"/>
      <vel value="0.0038181626" flag="0"/>
      <psa03 value="0.0196455968" flag="0"/>
      <psa10 value="0.0041590772" flag="0"/>
      <psa30 value="0.0006479296" flag="0"/>
    </comp>
  </station>
  <station code="SARI" name="SARI" netid="KO" insttype="CMG-3T" lat="38.4072" lon="36.4181">
    <comp name="--.HHZ">
      <acc value="0.0385215507" flag="0"/>
      <vel value="0.0093065244" flag="0"/>
      <psa03 value="0.0351643405" flag="0"/>
      <psa10 value="0.0074035213" flag="0"/>
      <psa30 value="0.0007887905" flag="0"/>
    </comp>
    <comp name="--.HHE">
      <acc value="0.0619757365" flag="0"/>
      <vel value="0.0110089765" flag="0"/>
      <psa03 value="0.0390059203" flag="0"/>
      <psa10 value="0.0087880912" flag="0"/>
      <psa30 value="0.0007237857" flag="0"/>
    </comp>
  </station>
  <station code="ANDN" name="ANDN" netid="TU" insttype="T" lat="37.58" lon="36.3452">
    <comp name="--.HHE">
      <acc value="0.0417341373" flag="0"/>
      <vel value="0.0232859888" flag="0"/>
      <psa03 value="0.1114794314" flag="0"/>
      <psa10 value="0.0275112176" flag="0"/>
      <psa30 value="0.0015641226" flag="0"/>
    </comp>
    <comp name="--.HHZ">
      <acc value="0.0187828262" flag="0"/>
      <vel value="0.0125111484" flag="0"/>
      <psa03 value="0.0520845281" flag="0"/>
      <psa10 value="0.0166002104" flag="0"/>
      <psa30 value="0.0011507933" flag="0"/>
    </comp>
    <comp name="--.HHN">
      <acc value="0.0567394569" flag="0"/>
      <vel value="0.0203837828" flag="0"/>
      <psa03 value="0.1158834658" flag="0"/>
      <psa10 value="0.0289989034" flag="0"/>
      <psa30 value="0.0016277096" flag="0"/>
    </comp>
  </station>
</stationlist>
