<?xml version="1.0" encoding="UTF-8" standalone="yes"?>
<!DOCTYPE earthquake SYSTEM "stationlist.dtd">
<stationlist created="" xmlns="ch.ethz.sed.shakemap.usgs.xml">
  <station code="KBN" name="KBN" netid="AC" insttype="" lat="40.6236" lon="20.7874">
    <comp name="--.HHE">
      <acc value="0.0034132846" flag="0"/>
      <vel value="0.0036148229" flag="0"/>
      <psa03 value="0.0095335458" flag="0"/>
      <psa10 value="0.0068388015" flag="0"/>
      <psa30 value="0.0011001499" flag="0"/>
    </comp>
    <comp name="--.HHN">
      <acc value="0.0064768920" flag="0"/>
      <vel value="0.0073045846" flag="0"/>
      <psa03 value="0.0142363001" flag="0"/>
      <psa10 value="0.0144486005" flag="0"/>
      <psa30 value="0.0019014491" flag="0"/>
    </comp>
    <comp name="--.HHZ">
      <acc value="0.0030224440" flag="0"/>
      <vel value="0.0054632143" flag="0"/>
      <psa03 value="0.0069683020" flag="0"/>
      <psa10 value="0.0056559425" flag="0"/>
      <psa30 value="0.0020828392" flag="0"/>
    </comp>
  </station>
  <station code="ATAL" name="ATAL" netid="HA" insttype="120" lat="38.6926" lon="23.0213">
    <comp name="--.HHN">
      <acc value="0.0051410589" flag="0"/>
      <vel value="0.0071004490" flag="0"/>
      <psa03 value="0.0076115837" flag="0"/>
      <psa10 value="0.0097089441" flag="0"/>
      <psa30 value="0.0022265322" flag="0"/>
    </comp>
    <comp name="--.HHE">
      <acc value="0.0046593777" flag="0"/>
      <vel value="0.0047698767" flag="0"/>
      <psa03 value="0.0084676446" flag="0"/>
      <psa10 value="0.0112539806" flag="0"/>
      <psa30 value="0.0013360269" flag="0"/>
    </comp>
    <comp name="--.HHZ">
      <acc value="0.0033178046" flag="0"/>
      <vel value="0.0028411289" flag="0"/>
      <psa03 value="0.0063823009" flag="0"/>
      <psa10 value="0.0061262927" flag="0"/>
      <psa30 value="0.0011526770" flag="0"/>
    </comp>
  </station>
  <station code="AXAR" name="AXAR" netid="HA" insttype="30" lat="38.7664" lon="22.659">
    <comp name="--.HHN">
      <acc value="0.0038490051" flag="0"/>
      <vel value="0.0033512919" flag="0"/>
      <psa03 value="0.0108959744" flag="0"/>
      <psa10 value="0.0049213872" flag="0"/>
      <psa30 value="0.0006868642" flag="0"/>
    </comp>
    <comp name="--.HHZ">
      <acc value="0.0020711122" flag="0"/>
      <vel value="0.0025571952" flag="0"/>
      <psa03 value="0.0081351939" flag="0"/>
      <psa10 value="0.0037386415" flag="0"/>
      <psa30 value="0.0008346683" flag="0"/>
    </comp>
    <comp name="--.HHE">
      <acc value="0.0034567926" flag="0"/>
      <vel value="0.0032688890" flag="0"/>
      <psa03 value="0.0097665363" flag="0"/>
      <psa10 value="0.0050886558" flag="0"/>
      <psa30 value="0.0008874395" flag="0"/>
    </comp>
  </station>
  <station code="LMS2" name="LMS2" netid="HI" insttype="CMG-5TD,ACCELEROMETER,GURALP" lat="40.835" lon="21.1418">
    <comp name="--.HNN">
      <acc value="0.0115532078" flag="0"/>
      <vel value="0.0071361554" flag="0"/>
      <psa03 value="0.0206587394" flag="0"/>
      <psa10 value="0.0142755810" flag="0"/>
      <psa30 value="0.0010271728" flag="0"/>
    </comp>
    <comp name="--.HNE">
      <acc value="0.0104493570" flag="0"/>
      <vel value="0.0054210210" flag="0"/>
      <psa03 value="0.0186336199" flag="0"/>
      <psa10 value="0.0072050050" flag="0"/>
      <psa30 value="0.0011463155" flag="0"/>
    </comp>
    <comp name="--.HNZ">
      <acc value="0.0043340494" flag="0"/>
      <vel value="0.0062615117" flag="0"/>
      <psa03 value="0.0098176562" flag="0"/>
      <psa10 value="0.0064654285" flag="0"/>
      <psa30 value="0.0020907469" flag="0"/>
    </comp>
  </station>
  <station code="EVR" name="EVR" netid="HL" insttype="DR24" lat="38.9166" lon="21.8105">
    <comp name="--.HHE">
      <acc value="0.0336244545" flag="0"/>
      <vel value="0.0164872750" flag="0"/>
      <psa03 value="0.0574192174" flag="0"/>
      <psa10 value="0.0178547101" flag="0"/>
      <psa30 value="0.0043544033" flag="0"/>
    </comp>
    <comp name="--.HHZ">
      <acc value="0.0185777522" flag="0"/>
      <vel value="0.0157346500" flag="0"/>
      <psa03 value="0.0417240715" flag="0"/>
      <psa10 value="0.0215466253" flag="0"/>
      <psa30 value="0.0034607695" flag="0"/>
    </comp>
    <comp name="--.HHN">
      <acc value="0.0390773866" flag="0"/>
      <vel value="0.0333062440" flag="0"/>
      <psa03 value="0.0624731103" flag="0"/>
      <psa10 value="0.0330574147" flag="0"/>
      <psa30 value="0.0067938590" flag="0"/>
    </comp>
  </station>
  <station code="JAN" name="JAN" netid="HL" insttype="CMG3EPSC60_DR24" lat="39.6562" lon="20.8487">
    <comp name="--.HHE">
      <acc value="0.0142685684" flag="0"/>
      <vel value="0.0072966741" flag="0"/>
      <psa03 value="0.0370970913" flag="0"/>
      <psa10 value="0.0084535112" flag="0"/>
      <psa30 value="0.0040797825" flag="0"/>
    </comp>
    <comp name="--.HHN">
      <acc value="0.0128837437" flag="0"/>
      <vel value="0.0075457293" flag="0"/>
      <psa03 value="0.0387041655" flag="0"/>
      <psa10 value="0.0069032684" flag="0"/>
      <psa30 value="0.0014612956" flag="0"/>
    </comp>
    <comp name="--.HHZ">
      <acc value="0.0091212032" flag="0"/>
      <vel value="0.0048751223" flag="0"/>
      <psa03 value="0.0260821436" flag="0"/>
      <psa10 value="0.0066728958" flag="0"/>
      <psa30 value="0.0024620839" flag="0"/>
    </comp>
  </station>
  <station code="KZN" name="KZN" netid="HL" insttype="120" lat="40.3033" lon="21.7821">
    <comp name="--.HHE">
      <acc value="0.0565405956" flag="0"/>
      <vel value="0.0252310944" flag="0"/>
      <psa03 value="0.1476577264" flag="0"/>
      <psa10 value="0.0155428071" flag="0"/>
      <psa30 value="0.0022806894" flag="0"/>
    </comp>
    <comp name="--.HHZ">
      <acc value="0.0209978116" flag="0"/>
      <vel value="0.0098893151" flag="0"/>
      <psa03 value="0.0677536847" flag="0"/>
      <psa10 value="0.0078035826" flag="0"/>
      <psa30 value="0.0019832733" flag="0"/>
    </comp>
    <comp name="--.HHN">
      <acc value="0.0560883654" flag="0"/>
      <vel value="0.0248717818" flag="0"/>
      <psa03 value="0.1757917931" flag="0"/>
      <psa10 value="0.0198780474" flag="0"/>
      <psa30 value="0.0027646058" flag="0"/>
    </comp>
  </station>
  <station code="NEO" name="NEO" netid="HL" insttype="120" lat="39.3057" lon="23.2219">
    <comp name="--.HHE">
      <acc value="0.0338006848" flag="0"/>
      <vel value="0.0247307223" flag="0"/>
      <psa03 value="0.0789012703" flag="0"/>
      <psa10 value="0.0289030201" flag="0"/>
      <psa30 value="0.0028811304" flag="0"/>
    </comp>
    <comp name="--.HHN">
      <acc value="0.0379128205" flag="0"/>
      <vel value="0.0283579084" flag="0"/>
      <psa03 value="0.0858899924" flag="0"/>
      <psa10 value="0.0466731178" flag="0"/>
      <psa30 value="0.0031364579" flag="0"/>
    </comp>
    <comp name="--.HHZ">
      <acc value="0.0235622768" flag="0"/>
      <vel value="0.0208840859" flag="0"/>
      <psa03 value="0.0387265353" flag="0"/>
      <psa10 value="0.0205048080" flag="0"/>
      <psa30 value="0.0029817576" flag="0"/>
    </comp>
  </station>
  <station code="PENT" name="PENT" netid="HL" insttype="30s-100Hz," lat="40.1959" lon="21.1384">
    <comp name="--.HHE">
      <acc value="0.0111292474" flag="0"/>
      <vel value="0.0071770621" flag="0"/>
      <psa03 value="0.0319753711" flag="0"/>
      <psa10 value="0.0071757527" flag="0"/>
      <psa30 value="0.0014804724" flag="0"/>
    </comp>
    <comp name="--.HHZ">
      <acc value="0.0079089418" flag="0"/>
      <vel value="0.0061321862" flag="0"/>
      <psa03 value="0.0246127186" flag="0"/>
      <psa10 value="0.0116221041" flag="0"/>
      <psa30 value="0.0013196237" flag="0"/>
    </comp>
    <comp name="--.HHN">
      <acc value="0.0103192107" flag="0"/>
      <vel value="0.0067929307" flag="0"/>
      <psa03 value="0.0314398120" flag="0"/>
      <psa10 value="0.0114014910" flag="0"/>
      <psa30 value="0.0010835189" flag="0"/>
    </comp>
  </station>
  <station code="PLG" name="PLG" netid="HL" insttype="CMG3ESPC-120s" lat="40.3733" lon="23.4444">
    <comp name="--.HHE">
      <acc value="0.0121800012" flag="0"/>
      <vel value="0.0154887482" flag="0"/>
      <psa03 value="0.0245693187" flag="0"/>
      <psa10 value="0.0365333610" flag="0"/>
      <psa30 value="0.0027162629" flag="0"/>
    </comp>
    <comp name="--.HHN">
      <acc value="0.0109939717" flag="0"/>
      <vel value="0.0138602167" flag="0"/>
      <psa03 value="0.0235881079" flag="0"/>
      <psa10 value="0.0238157470" flag="0"/>
      <psa30 value="0.0025895339" flag="0"/>
    </comp>
    <comp name="--.HHZ">
      <acc value="0.0077192284" flag="0"/>
      <vel value="0.0073246440" flag="0"/>
      <psa03 value="0.0210472077" flag="0"/>
      <psa10 value="0.0114416233" flag="0"/>
      <psa30 value="0.0028154666" flag="0"/>
    </comp>
  </station>
  <station code="TETR" name="TETR" netid="HL" insttype="60" lat="39.3445" lon="21.2747">
    <comp name="--.HHE">
      <acc value="0.1095112206" flag="0"/>
      <vel value="0.0515698640" flag="0"/>
      <psa03 value="0.5243429528" flag="0"/>
      <psa10 value="0.0344325327" flag="0"/>
      <psa30 value="0.0033797179" flag="0"/>
    </comp>
    <comp name="--.HHN">
      <acc value="0.1282434936" flag="0"/>
      <vel value="0.0489514329" flag="0"/>
      <psa03 value="0.3076006173" flag="0"/>
      <psa10 value="0.0283307682" flag="0"/>
      <psa30 value="0.0026751895" flag="0"/>
    </comp>
    <comp name="--.HHZ">
      <acc value="0.0384842439" flag="0"/>
      <vel value="0.0172618127" flag="0"/>
      <psa03 value="0.0849185849" flag="0"/>
      <psa10 value="0.0236515949" flag="0"/>
      <psa30 value="0.0027337931" flag="0"/>
    </comp>
  </station>
  <station code="AMPL" name="AMPL" netid="HP" insttype="Compact," lat="38.9224" lon="21.2135">
    <comp name="--.HHE">
      <acc value="0.0127405153" flag="0"/>
      <vel value="0.0124762748" flag="0"/>
      <psa03 value="0.0294428871" flag="0"/>
      <psa10 value="0.0127535672" flag="0"/>
      <psa30 value="0.0020986164" flag="0"/>
    </comp>
    <comp name="--.HHN">
      <acc value="0.0109942338" flag="0"/>
      <vel value="0.0085347917" flag="0"/>
      <psa03 value="0.0218825692" flag="0"/>
      <psa10 value="0.0123128605" flag="0"/>
      <psa30 value="0.0024090419" flag="0"/>
    </comp>
    <comp name="--.HHZ">
      <acc value="0.0054683467" flag="0"/>
      <vel value="0.0052637179" flag="0"/>
      <psa03 value="0.0174997350" flag="0"/>
      <psa10 value="0.0101466166" flag="0"/>
      <psa30 value="0.0010800904" flag="0"/>
    </comp>
  </station>
  <station code="ANX" name="ANX" netid="HP" insttype="120" lat="38.5933" lon="21.9209">
    <comp name="--.HHN">
      <acc value="0.0582394771" flag="0"/>
      <vel value="0.0296599232" flag="0"/>
      <psa03 value="0.2164961053" flag="0"/>
      <psa10 value="0.0308086958" flag="0"/>
      <psa30 value="0.0040375000" flag="0"/>
    </comp>
    <comp name="--.HHE">
      <acc value="0.0316234702" flag="0"/>
      <vel value="0.0250667751" flag="0"/>
      <psa03 value="0.0548594994" flag="0"/>
      <psa10 value="0.0542033824" flag="0"/>
      <psa30 value="0.0027176883" flag="0"/>
    </comp>
    <comp name="--.HHZ">
      <acc value="0.0170005042" flag="0"/>
      <vel value="0.0155255956" flag="0"/>
      <psa03 value="0.0690969711" flag="0"/>
      <psa10 value="0.0323656356" flag="0"/>
      <psa30 value="0.0034633020" flag="0"/>
    </comp>
  </station>
  <station code="KANL" name="KANL" netid="HP" insttype="" lat="39.8334" lon="22.0247">
    <comp name="--.HHE">
      <acc value="1.9767614616" flag="0"/>
      <vel value="0.6281473207" flag="0"/>
      <psa03 value="2.7344404522" flag="0"/>
      <psa10 value="0.2692365633" flag="0"/>
      <psa30 value="0.0218382773" flag="0"/>
    </comp>
    <comp name="--.HHZ">
      <acc value="1.4978693122" flag="0"/>
      <vel value="0.3147562903" flag="0"/>
      <psa03 value="1.2299545870" flag="0"/>
      <psa10 value="0.1979243941" flag="0"/>
      <psa30 value="0.0234291129" flag="0"/>
    </comp>
  </station>
  <station code="PRMD" name="PRMD" netid="HP" insttype="120P," lat="39.5299" lon="21.0965">
    <comp name="--.HHZ">
      <acc value="0.0241409137" flag="0"/>
      <vel value="0.0114427902" flag="0"/>
      <psa03 value="0.0561312019" flag="0"/>
      <psa10 value="0.0210429426" flag="0"/>
      <psa30 value="0.0036950005" flag="0"/>
    </comp>
    <comp name="--.HHN">
      <acc value="0.0428478247" flag="0"/>
      <vel value="0.0260145311" flag="0"/>
      <psa03 value="0.1803070243" flag="0"/>
      <psa10 value="0.0228362198" flag="0"/>
      <psa30 value="0.0027940895" flag="0"/>
    </comp>
    <comp name="--.HHE">
      <acc value="0.0358709994" flag="0"/>
      <vel value="0.0209360661" flag="0"/>
      <psa03 value="0.1283233452" flag="0"/>
      <psa10 value="0.0202214872" flag="0"/>
      <psa30 value="0.0027862703" flag="0"/>
    </comp>
  </station>
  <station code="PVO" name="PVO" netid="HP" insttype="120P," lat="38.616" lon="21.525">
    <comp name="--.HHZ">
      <acc value="0.0049822386" flag="0"/>
      <vel value="0.0041562159" flag="0"/>
      <psa03 value="0.0124139411" flag="0"/>
      <psa10 value="0.0041821297" flag="0"/>
      <psa30 value="0.0012035917" flag="0"/>
    </comp>
    <comp name="--.HHE">
      <acc value="0.0089712952" flag="0"/>
      <vel value="0.0115374013" flag="0"/>
      <psa03 value="0.0260078621" flag="0"/>
      <psa10 value="0.0179940229" flag="0"/>
      <psa30 value="0.0017866808" flag="0"/>
    </comp>
    <comp name="--.HHN">
      <acc value="0.0076894571" flag="0"/>
      <vel value="0.0072376425" flag="0"/>
      <psa03 value="0.0195849107" flag="0"/>
      <psa10 value="0.0156938343" flag="0"/>
      <psa30 value="0.0026437896" flag="0"/>
    </comp>
  </station>
  <station code="VRKS" name="VRKS" netid="HP" insttype="" lat="39.784" lon="21.9765">
    <comp name="--.HHZ">
      <acc value="6.6466999006" flag="0"/>
      <vel value="0.9164756515" flag="0"/>
      <psa03 value="2.7887955475" flag="0"/>
      <psa10 value="0.1998876194" flag="0"/>
      <psa30 value="0.0222586177" flag="0"/>
    </comp>
    <comp name="--.HHE">
      <acc value="6.6411785532" flag="0"/>
      <vel value="1.1052177375" flag="0"/>
      <psa03 value="4.7922938443" flag="0"/>
      <psa10 value="0.3022784309" flag="0"/>
      <psa30 value="0.0248220735" flag="0"/>
    </comp>
    <comp name="--.HHN">
      <acc value="5.9280135213" flag="0"/>
      <vel value="1.3943622450" flag="0"/>
      <psa03 value="6.5296859932" flag="0"/>
      <psa10 value="0.4128652114" flag="0"/>
      <psa30 value="0.0266378068" flag="0"/>
    </comp>
  </station>
  <station code="AGG" name="AGG" netid="HT" insttype="120P," lat="39.0211" lon="22.336">
    <comp name="--.HHN">
      <acc value="0.0738753676" flag="0"/>
      <vel value="0.0610226534" flag="0"/>
      <psa03 value="0.1341648000" flag="0"/>
      <psa10 value="0.0289322014" flag="0"/>
      <psa30 value="0.0047575883" flag="0"/>
    </comp>
    <comp name="--.HHE">
      <acc value="0.0587631014" flag="0"/>
      <vel value="0.0384701081" flag="0"/>
      <psa03 value="0.1531531923" flag="0"/>
      <psa10 value="0.0700868889" flag="0"/>
      <psa30 value="0.0031600460" flag="0"/>
    </comp>
    <comp name="--.HHZ">
      <acc value="0.0330659230" flag="0"/>
      <vel value="0.0209363702" flag="0"/>
      <psa03 value="0.0494000990" flag="0"/>
      <psa10 value="0.0363675734" flag="0"/>
      <psa30 value="0.0041766146" flag="0"/>
    </comp>
  </station>
  <station code="GRG" name="GRG" netid="HT" insttype="100" lat="40.957" lon="22.401">
    <comp name="--.HHE">
      <acc value="0.0152622520" flag="0"/>
      <vel value="0.0180664818" flag="0"/>
      <psa03 value="0.0277242124" flag="0"/>
      <psa10 value="0.0291566960" flag="0"/>
      <psa30 value="0.0029711796" flag="0"/>
    </comp>
    <comp name="--.HHN">
      <acc value="0.0163431589" flag="0"/>
      <vel value="0.0184969011" flag="0"/>
      <psa03 value="0.0388712444" flag="0"/>
      <psa10 value="0.0302623092" flag="0"/>
      <psa30 value="0.0048031466" flag="0"/>
    </comp>
    <comp name="--.HHZ">
      <acc value="0.0082585417" flag="0"/>
      <vel value="0.0131670143" flag="0"/>
      <psa03 value="0.0168294047" flag="0"/>
      <psa10 value="0.0128945990" flag="0"/>
      <psa30 value="0.0031286745" flag="0"/>
    </comp>
  </station>
  <station code="KPRO" name="KPRO" netid="HT" insttype="100" lat="39.9549" lon="21.3632">
    <comp name="--.HHN">
      <acc value="0.0422892495" flag="0"/>
      <vel value="0.0219408174" flag="0"/>
      <psa03 value="0.1464690698" flag="0"/>
      <psa10 value="0.0226927396" flag="0"/>
      <psa30 value="0.0033664189" flag="0"/>
    </comp>
    <comp name="--.HHE">
      <acc value="0.0533927643" flag="0"/>
      <vel value="0.0268541933" flag="0"/>
      <psa03 value="0.1478097454" flag="0"/>
      <psa10 value="0.0347216332" flag="0"/>
      <psa30 value="0.0041318756" flag="0"/>
    </comp>
    <comp name="--.HHZ">
      <acc value="0.0240205816" flag="0"/>
      <vel value="0.0152375820" flag="0"/>
      <psa03 value="0.0627364107" flag="0"/>
      <psa10 value="0.0158041553" flag="0"/>
      <psa30 value="0.0029725851" flag="0"/>
    </comp>
  </station>
  <station code="LIT" name="LIT" netid="HT" insttype="100" lat="40.1033" lon="22.4892">
    <comp name="--.HHN">
      <acc value="0.1401214960" flag="0"/>
      <vel value="0.0504756514" flag="0"/>
      <psa03 value="0.2176079189" flag="0"/>
      <psa10 value="0.0443616886" flag="0"/>
      <psa30 value="0.0046335027" flag="0"/>
    </comp>
    <comp name="--.HHE">
      <acc value="0.1429804043" flag="0"/>
      <vel value="0.0489115124" flag="0"/>
      <psa03 value="0.1965618017" flag="0"/>
      <psa10 value="0.0700316763" flag="0"/>
      <psa30 value="0.0056115192" flag="0"/>
    </comp>
    <comp name="--.HHZ">
      <acc value="0.0574883549" flag="0"/>
      <vel value="0.0259696793" flag="0"/>
      <psa03 value="0.1163248143" flag="0"/>
      <psa10 value="0.0437409633" flag="0"/>
      <psa30 value="0.0052208360" flag="0"/>
    </comp>
  </station>
  <station code="NEST" name="NEST" netid="HT" insttype="120P," lat="40.4147" lon="21.0489">
    <comp name="--.HHZ">
      <acc value="0.0086914382" flag="0"/>
      <vel value="0.0064569461" flag="0"/>
      <psa03 value="0.0272406821" flag="0"/>
      <psa10 value="0.0097556879" flag="0"/>
      <psa30 value="0.0018207062" flag="0"/>
    </comp>
    <comp name="--.HHE">
      <acc value="0.0106697603" flag="0"/>
      <vel value="0.0077595175" flag="0"/>
      <psa03 value="0.0356363923" flag="0"/>
      <psa10 value="0.0113238365" flag="0"/>
      <psa30 value="0.0022403506" flag="0"/>
    </comp>
    <comp name="--.HHN">
      <acc value="0.0089047241" flag="0"/>
      <vel value="0.0063837699" flag="0"/>
      <psa03 value="0.0244985295" flag="0"/>
      <psa10 value="0.0107112569" flag="0"/>
      <psa30 value="0.0022214425" flag="0"/>
    </comp>
  </station>
  <station code="PAIG" name="PAIG" netid="HT" insttype="100" lat="39.9363" lon="23.6768">
    <comp name="--.HHE">
      <acc value="0.0018979711" flag="0"/>
      <vel value="0.0012180352" flag="0"/>
      <psa03 value="0.0050537327" flag="0"/>
      <psa10 value="0.0023304402" flag="0"/>
      <psa30 value="0.0002759774" flag="0"/>
    </comp>
    <comp name="--.HHN">
      <acc value="0.0017826225" flag="0"/>
      <vel value="0.0026544352" flag="0"/>
      <psa03 value="0.0033067769" flag="0"/>
      <psa10 value="0.0018758164" flag="0"/>
      <psa30 value="0.0005748370" flag="0"/>
    </comp>
    <comp name="--.HHZ">
      <acc value="0.0013793175" flag="0"/>
      <vel value="0.0012142931" flag="0"/>
      <psa03 value="0.0032845081" flag="0"/>
