<stationlist created="1778136680">
	<station code="ROD3" name="ROD3" netid="CL" source="Corinth Riff Laboratory (CRLNET)" insttype="" lat="38.30811" lon="21.89204">
		<comp name="00.HNE" depth="0.0">
			<acc value="0.0132332291151715" flag="0"/>
			<vel value="0.0144167649820204" flag="0"/>
			<psa03 value="0.0422659197014265" flag="0"/>
			<psa10 value="0.0291630756606568" flag="0"/>
			<psa30 value="0.00304146835735074" flag="0"/>
		</comp>
		<comp name="00.HNN" depth="0.0">
			<acc value="0.0110261949451834" flag="0"/>
			<vel value="0.0122383426996208" flag="0"/>
			<psa03 value="0.0449827403022645" flag="0"/>
			<psa10 value="0.0238625720282829" flag="0"/>
			<psa30 value="0.00229708237876789" flag="0"/>
		</comp>
		<comp name="00.HNZ" depth="0.0">
			<acc value="0.0076356836663341" flag="0"/>
			<vel value="0.0068872384939654" flag="0"/>
			<psa03 value="0.0171558838889632" flag="0"/>
			<psa10 value="0.0116472759498613" flag="0"/>
			<psa30 value="0.00178606623478918" flag="0"/>
		</comp>
	</station>
	<station code="STC" name="STC" netid="EG" source="EUROSEISTEST Strong Motion Network" insttype="" lat="40.64865" lon="23.304856">
		<comp name="--.EN1" depth="0.0">
			<acc value="0.0188566334181999" flag="0"/>
			<vel value="0.0223960175726703" flag="0"/>
			<psa03 value="0.0494472131352387" flag="0"/>
			<psa10 value="0.0254140816831818" flag="0"/>
			<psa30 value="0.00272727587697465" flag="0"/>
		</comp>
		<comp name="--.EN2" depth="0.0">
			<acc value="0.018537510341918" flag="0"/>
			<vel value="0.0179000130058046" flag="0"/>
			<psa03 value="0.0410831199925735" flag="0"/>
			<psa10 value="0.0193033350012103" flag="0"/>
			<psa30 value="0.00245471032084515" flag="0"/>
		</comp>
		<comp name="--.EN3" depth="0.0">
			<acc value="0.0140875753825127" flag="0"/>
			<vel value="0.0103967403918224" flag="0"/>
			<psa03 value="0.0242055800633895" flag="0"/>
			<psa10 value="0.0124136335922988" flag="0"/>
			<psa30 value="0.00291205082574016" flag="0"/>
		</comp>
	</station>
	<station code="AIGS" name="AIGS" netid="HA" source="Hellenic Seismological Network, University of Athens, Seismological Laboratory (HA)" insttype="" lat="38.25001" lon="22.0878">
		<comp name="--.HNE" depth="0.0">
			<acc value="0.0129476377583181" flag="0"/>
			<vel value="0.0179110031884284" flag="0"/>
			<psa03 value="0.0200205046455837" flag="0"/>
			<psa10 value="0.0200396475282925" flag="0"/>
			<psa30 value="0.00309895029024589" flag="0"/>
		</comp>
		<comp name="--.HNN" depth="0.0">
			<acc value="0.0100396827062145" flag="0"/>
			<vel value="0.0128493550067919" flag="0"/>
			<psa03 value="0.0247765397616807" flag="0"/>
			<psa10 value="0.0175872269424744" flag="0"/>
			<psa30 value="0.00484455509464945" flag="0"/>
		</comp>
		<comp name="--.HNZ" depth="0.0">
			<acc value="0.00821143085930245" flag="0"/>
			<vel value="0.0112795701382252" flag="0"/>
			<psa03 value="0.00965887878560074" flag="0"/>
			<psa10 value="0.0175081754557027" flag="0"/>
			<psa30 value="0.00419268732829118" flag="0"/>
		</comp>
	</station>
	<station code="KIAS" name="KIAS" netid="HA" source="Hellenic Seismological Network, University of Athens, Seismological Laboratory (HA)" insttype="" lat="37.9875" lon="22.7543">
		<comp name="--.HNE" depth="0.0">
			<acc value="0.00797094568259871" flag="0"/>
			<vel value="0.0142624951868701" flag="0"/>
			<psa03 value="0.0135655770383328" flag="0"/>
			<psa10 value="0.0255122650623701" flag="0"/>
			<psa30 value="0.00425731077594552" flag="0"/>
		</comp>
		<comp name="--.HNN" depth="0.0">
			<acc value="0.0075791551964114" flag="0"/>
			<vel value="0.0115957505295933" flag="0"/>
			<psa03 value="0.0163295361787343" flag="0"/>
			<psa10 value="0.0214900936132341" flag="0"/>
			<psa30 value="0.00456243890587328" flag="0"/>
		</comp>
		<comp name="--.HNZ" depth="0.0">
			<acc value="0.00553380873353262" flag="0"/>
			<vel value="0.00579488190273207" flag="0"/>
			<psa03 value="0.00857842504939716" flag="0"/>
			<psa10 value="0.0096487610580488" flag="0"/>
			<psa30 value="0.00215677850099171" flag="0"/>
		</comp>
	</station>
	<station code="LTRS" name="LTRS" netid="HA" source="Hellenic Seismological Network, University of Athens, Seismological Laboratory (HA)" insttype="" lat="37.97528" lon="22.9765">
		<comp name="--.HNE" depth="0.0">
			<acc value="0.00934585319622677" flag="0"/>
			<vel value="0.012878550929006" flag="0"/>
			<psa03 value="0.0132486576064713" flag="0"/>
			<psa10 value="0.0180334408769408" flag="0"/>
			<psa30 value="0.00321052955682863" flag="0"/>
		</comp>
		<comp name="--.HNN" depth="0.0">
			<acc value="0.00800505506448989" flag="0"/>
			<vel value="0.00746811683262915" flag="0"/>
			<psa03 value="0.0140704672556657" flag="0"/>
			<psa10 value="0.0126732004748409" flag="0"/>
			<psa30 value="0.00193791421063982" flag="0"/>
		</comp>
		<comp name="--.HNZ" depth="0.0">
			<acc value="0.0178450764979993" flag="0"/>
			<vel value="0.00655567236520114" flag="0"/>
			<psa03 value="0.00927887770096367" flag="0"/>
			<psa10 value="0.0121088912171174" flag="0"/>
			<psa30 value="0.00103105121874844" flag="0"/>
		</comp>
	</station>
	<station code="XLKS" name="XLKS" netid="HA" source="Hellenic Seismological Network, University of Athens, Seismological Laboratory (HA)" insttype="" lat="38.0772" lon="22.6361">
		<comp name="--.HNE" depth="0.0">
			<acc value="0.0107618456288195" flag="0"/>
			<vel value="0.0155003457923849" flag="0"/>
			<psa03 value="0.0260205961326381" flag="0"/>
			<psa10 value="0.0417469030273323" flag="0"/>
			<psa30 value="0.00636915317514784" flag="0"/>
		</comp>
		<comp name="--.HNN" depth="0.0">
			<acc value="0.0153417303427623" flag="0"/>
			<vel value="0.0200585130404837" flag="0"/>
			<psa03 value="0.0339110875889611" flag="0"/>
			<psa10 value="0.0491294433344299" flag="0"/>
			<psa30 value="0.00554019826092491" flag="0"/>
		</comp>
		<comp name="--.HNZ" depth="0.0">
			<acc value="0.0069065817137989" flag="0"/>
			<vel value="0.00733967884110157" flag="0"/>
			<psa03 value="0.0217022579805852" flag="0"/>
			<psa10 value="0.0182429841331719" flag="0"/>
			<psa30 value="0.00165579770930354" flag="0"/>
		</comp>
	</station>
	<station code="ART2" name="ART2" netid="HI" source="ITSAK Strong Motion Network" insttype="" lat="39.1474" lon="20.9937">
		<comp name="--.HNE" depth="0.0">
			<acc value="0.00782863860285066" flag="0"/>
			<vel value="0.00484517894139321" flag="0"/>
			<psa03 value="0.0150406278781898" flag="0"/>
			<psa10 value="0.00607016571244991" flag="0"/>
			<psa30 value="0.00190236831423031" flag="0"/>
		</comp>
		<comp name="--.HNN" depth="0.0">
			<acc value="0.00815013601955595" flag="0"/>
			<vel value="0.00482524364626732" flag="0"/>
			<psa03 value="0.0131703750768685" flag="0"/>
			<psa10 value="0.00692841006692332" flag="0"/>
			<psa30 value="0.00140365215173278" flag="0"/>
		</comp>
		<comp name="--.HNZ" depth="0.0">
			<acc value="0.00527151944054729" flag="0"/>
			<vel value="0.003069532533838" flag="0"/>
			<psa03 value="0.00968125266359782" flag="0"/>
			<psa10 value="0.00501901842283952" flag="0"/>
			<psa30 value="0.00109056859898362" flag="0"/>
		</comp>
	</station>
	<station code="LMS2" name="LMS2" netid="HI" source="ITSAK Strong Motion Network" insttype="" lat="40.834985" lon="21.141815">
		<comp name="--.HNE" depth="0.0">
			<acc value="0.0104361546561641" flag="0"/>
			<vel value="0.0056254101881748" flag="0"/>
			<psa03 value="0.0181605741426461" flag="0"/>
			<psa10 value="0.00724262650719847" flag="0"/>
			<psa30 value="0.00146527196291027" flag="0"/>
		</comp>
		<comp name="--.HNN" depth="0.0">
			<acc value="0.0116588609069438" flag="0"/>
			<vel value="0.00759321923043009" flag="0"/>
			<psa03 value="0.0205731766740703" flag="0"/>
			<psa10 value="0.0142893578498266" flag="0"/>
			<psa30 value="0.00120907592868043" flag="0"/>
		</comp>
		<comp name="--.HNZ" depth="0.0">
			<acc value="0.00437436982034169" flag="0"/>
			<vel value="0.00701271109797572" flag="0"/>
			<psa03 value="0.00976784433738413" flag="0"/>
			<psa10 value="0.00635498067377002" flag="0"/>
			<psa30 value="0.00258035447748566" flag="0"/>
		</comp>
	</station>
	<station code="MSL1" name="MSL1" netid="HI" source="ITSAK Strong Motion Network" insttype="" lat="38.3727" lon="21.4243">
		<comp name="--.HNE" depth="0.0">
			<acc value="0.0204755572335452" flag="0"/>
			<vel value="0.0359822824653435" flag="0"/>
			<psa03 value="0.0439503802469941" flag="0"/>
			<psa10 value="0.0596754269543519" flag="0"/>
			<psa30 value="0.00548752810513296" flag="0"/>
		</comp>
		<comp name="--.HNN" depth="0.0">
			<acc value="0.0289197549809701" flag="0"/>
			<vel value="0.0412743548526952" flag="0"/>
			<psa03 value="0.0400101973542065" flag="0"/>
			<psa10 value="0.0625126399057872" flag="0"/>
			<psa30 value="0.00620374513432629" flag="0"/>
		</comp>
		<comp name="--.HNZ" depth="0.0">
			<acc value="0.010581683839709" flag="0"/>
			<vel value="0.0124973610343146" flag="0"/>
			<psa03 value="0.0199927410876418" flag="0"/>
			<psa10 value="0.027317308387608" flag="0"/>
			<psa30 value="0.00369735284814941" flag="0"/>
		</comp>
	</station>
	<station code="SKO1" name="SKO1" netid="HI" source="ITSAK Strong Motion Network" insttype="" lat="39.123383" lon="23.728705">
		<comp name="--.HNE" depth="0.0">
			<acc value="0.00567642537982796" flag="0"/>
			<vel value="0.00719416169985163" flag="0"/>
			<psa03 value="0.0155616689050109" flag="0"/>
			<psa10 value="0.00925289702153156" flag="0"/>
			<psa30 value="0.00073400200944768" flag="0"/>
		</comp>
		<comp name="--.HNN" depth="0.0">
			<acc value="0.00789996086246999" flag="0"/>
			<vel value="0.00631707679052896" flag="0"/>
			<psa03 value="0.0169488923121846" flag="0"/>
			<psa10 value="0.0118121012437457" flag="0"/>
			<psa30 value="0.000931014591814239" flag="0"/>
		</comp>
		<comp name="--.HNZ" depth="0.0">
			<acc value="0.00510366154788867" flag="0"/>
			<vel value="0.00560971737877975" flag="0"/>
			<psa03 value="0.0131992116225888" flag="0"/>
			<psa10 value="0.00845719462263073" flag="0"/>
			<psa30 value="0.000843250600797021" flag="0"/>
		</comp>
	</station>
	<station code="VAS2" name="VAS2" netid="HI" source="ITSAK Strong Motion Network" insttype="" lat="38.630558" lon="20.608081">
		<comp name="--.HNE" depth="0.0">
			<acc value="0.0329167362987672" flag="0"/>
			<vel value="0.044126214153346" flag="0"/>
			<psa03 value="0.0693411195504193" flag="0"/>
			<psa10 value="0.0902083408599105" flag="0"/>
			<psa30 value="0.00501910540777413" flag="0"/>
		</comp>
		<comp name="--.HNN" depth="0.0">
			<acc value="0.0344789072261886" flag="0"/>
			<vel value="0.0548982947730989" flag="0"/>
			<psa03 value="0.0634837054840482" flag="0"/>
			<psa10 value="0.0785997918502904" flag="0"/>
			<psa30 value="0.01093502772527" flag="0"/>
		</comp>
		<comp name="--.HNZ" depth="0.0">
			<acc value="0.0153233904554759" flag="0"/>
			<vel value="0.0153709862535832" flag="0"/>
			<psa03 value="0.0331019037761616" flag="0"/>
			<psa10 value="0.0309560600620448" flag="0"/>
			<psa30 value="0.00181945657173612" flag="0"/>
		</comp>
	</station>
	<station code="VOL2" name="VOL2" netid="HI" source="ITSAK Strong Motion Network" insttype="" lat="39.366" lon="22.9506">
		<comp name="--.HNE" depth="0.0">
			<acc value="0.0503937024513953" flag="0"/>
			<vel value="0.0267153304541334" flag="0"/>
			<psa03 value="0.114376076853859" flag="0"/>
			<psa10 value="0.028037449843443" flag="0"/>
			<psa30 value="0.00250380315633865" flag="0"/>
		</comp>
		<comp name="--.HNN" depth="0.0">
			<acc value="0.050894019918864" flag="0"/>
			<vel value="0.0295306810962417" flag="0"/>
			<psa03 value="0.141913015623974" flag="0"/>
			<psa10 value="0.0408944865590044" flag="0"/>
			<psa30 value="0.00325048262018666" flag="0"/>
		</comp>
		<comp name="--.HNZ" depth="0.0">
			<acc value="0.0261551081620192" flag="0"/>
			<vel value="0.0159379296839901" flag="0"/>
			<psa03 value="0.041675992600824" flag="0"/>
			<psa10 value="0.0256103528101655" flag="0"/>
			<psa30 value="0.00299832154075249" flag="0"/>
		</comp>
	</station>
	<station code="DLFA" name="DLFA" netid="HL" source="National Observatory of Athens Seismic Network" insttype="" lat="38.47836" lon="22.49583">
		<comp name="00.HNE" depth="0.0">
			<acc value="0.0138463417357195" flag="0"/>
			<vel value="0.020715255787908" flag="0"/>
			<psa03 value="0.0311240487946466" flag="0"/>
			<psa10 value="0.0349569469761938" flag="0"/>
			<psa30 value="0.00500586619738154" flag="0"/>
		</comp>
		<comp name="00.HNN" depth="0.0">
			<acc value="0.0106909413323641" flag="0"/>
			<vel value="0.014230812899528" flag="0"/>
			<psa03 value="0.0215515136195108" flag="0"/>
			<psa10 value="0.0325275135381168" flag="0"/>
			<psa30 value="0.00213145161487486" flag="0"/>
		</comp>
		<comp name="00.HNZ" depth="0.0">
			<acc value="0.00770415993013491" flag="0"/>
			<vel value="0.00900452239431862" flag="0"/>
			<psa03 value="0.0141898553728492" flag="0"/>
			<psa10 value="0.0264246255017617" flag="0"/>
			<psa30 value="0.00147936643826448" flag="0"/>
		</comp>
	</station>
	<station code="PATC" name="PATC" netid="HL" source="National Observatory of Athens Seismic Network" insttype="" lat="38.26933" lon="21.76001">
		<comp name="00.HNE" depth="0.0">
			<acc value="0.0122260491290767" flag="0"/>
			<vel value="0.0251865287087983" flag="0"/>
			<psa03 value="0.0218922809853483" flag="0"/>
			<psa10 value="0.0381607729639167" flag="0"/>
			<psa30 value="0.00604441999649215" flag="0"/>
		</comp>
		<comp name="00.HNN" depth="0.0">
			<acc value="0.0120370649130743" flag="0"/>
			<vel value="0.0255041560199498" flag="0"/>
			<psa03 value="0.0273179607224928" flag="0"/>
			<psa10 value="0.0284144998211461" flag="0"/>
			<psa30 value="0.00967987707769903" flag="0"/>
		</comp>
		<comp name="00.HNZ" depth="0.0">
			<acc value="0.0078301237748581" flag="0"/>
			<vel value="0.0102354539736113" flag="0"/>
			<psa03 value="0.0145499104747501" flag="0"/>
			<psa10 value="0.0201995918738414" flag="0"/>
			<psa30 value="0.00262370589097341" flag="0"/>
		</comp>
	</station>
	<station code="ANX" name="ANX" netid="HP" source="University of Patras, Seismological Laboratory (PSLNET)" insttype="" lat="38.5933" lon="21.9209">
		<comp name="--.HNE" depth="0.0">
			<acc value="0.0389919814145858" flag="0"/>
			<vel value="0.0299787477103198" flag="0"/>
			<psa03 value="0.0695464196088825" flag="0"/>
			<psa10 value="0.066602634597792" flag="0"/>
			<psa30 value="0.00346006025367607" flag="0"/>
		</comp>
		<comp name="--.HNN" depth="0.0">
			<acc value="0.0729288551744762" flag="0"/>
			<vel value="0.037203326180266" flag="0"/>
			<psa03 value="0.271955869908367" flag="0"/>
			<psa10 value="0.0401939626527446" flag="0"/>
			<psa30 value="0.0055090474473411" flag="0"/>
		</comp>
		<comp name="--.HNZ" depth="0.0">
			<acc value="0.0206694123329641" flag="0"/>
			<vel value="0.0185968214906609" flag="0"/>
			<psa03 value="0.0814814289949227" flag="0"/>
			<psa10 value="0.0400445002516292" flag="0"/>
			<psa30 value="0.00489448715240609" flag="0"/>
		</comp>
	</station>
	<station code="LTK" name="LTK" netid="HP" source="University of Patras, Seismological Laboratory (PSLNET)" insttype="" lat="38.0228" lon="22.9673">
		<comp name="--.HNE" depth="0.0">
			<acc value="0.00225697107679475" flag="0"/>
			<vel value="0.00389458845161221" flag="0"/>
			<psa03 value="0.00535550126007207" flag="0"/>
			<psa10 value="0.00683168647197013" flag="0"/>
			<psa30 value="0.000986101157694832" flag="0"/>
		</comp>
		<comp name="--.HNN" depth="0.0">
			<acc value="0.00285633880115885" flag="0"/>
			<vel value="0.00451468276482716" flag="0"/>
			<psa03 value="0.00640552654825749" flag="0"/>
			<psa10 value="0.00461153611665348" flag="0"/>
			<psa30 value="0.000970058115757442" flag="0"/>
		</comp>
		<comp name="--.HNZ" depth="0.0">
			<acc value="0.00176972807575542" flag="0"/>
			<vel value="0.00266465001933568" flag="0"/>
			<psa03 value="0.00547910254700736" flag="0"/>
			<psa10 value="0.00383981468137629" flag="0"/>
			<psa30 value="0.000833336246104134" flag="0"/>
		</comp>
	</station>
	<station code="PDO" name="PDO" netid="HP" source="University of Patras, Seismological Laboratory (PSLNET)" insttype="" lat="38.5986" lon="21.1833">
		<comp name="--.HNE" depth="0.0">
			<acc value="0.011163887848786" flag="0"/>
			<vel value="0.0137319045616866" flag="0"/>
			<psa03 value="0.0403117511848564" flag="0"/>
			<psa10 value="0.0180398950544947" flag="0"/>
			<psa30 value="0.00249185340639014" flag="0"/>
		</comp>
		<comp name="--.HNN" depth="0.0">
			<acc value="0.0142635560727591" flag="0"/>
			<vel value="0.0125173500624707" flag="0"/>
			<psa03 value="0.0575624694809323" flag="0"/>
			<psa10 value="0.0122101910527173" flag="0"/>
			<psa30 value="0.0016406379550474" flag="0"/>
		</comp>
		<comp name="--.HNZ" depth="0.0">
			<acc value="0.00923901602824594" flag="0"/>
			<vel value="0.00735458608537611" flag="0"/>
			<psa03 value="0.0215530736186915" flag="0"/>
			<psa10 value="0.00710778773105876" flag="0"/>
			<psa30 value="0.00164472270480944" flag="0"/>
		</comp>
	</station>
	<station code="PVO" name="PVO" netid="HP" source="University of Patras, Seismological Laboratory (PSLNET)" insttype="" lat="38.616" lon="21.525">
		<comp name="--.HNE" depth="0.0">
			<acc value="0.0080425143681069" flag="0"/>
			<vel value="0.010396706533114" flag="0"/>
			<psa03 value="0.0234979863137704" flag="0"/>
			<psa10 value="0.0159921637773703" flag="0"/>
			<psa30 value="0.00163624214301321" flag="0"/>
		</comp>
		<comp name="--.HNN" depth="0.0">
			<acc value="0.00764759485226561" flag="0"/>
			<vel value="0.00879946807272973" flag="0"/>
			<psa03 value="0.0193685031203496" flag="0"/>
			<psa10 value="0.0153042435185296" flag="0"/>
			<psa30 value="0.00305685833519477" flag="0"/>
		</comp>
		<comp name="--.HNZ" depth="0.0">
			<acc value="0.00665811535388073" flag="0"/>
			<vel value="0.00815649859490101" flag="0"/>
			<psa03 value="0.0169817694901197" flag="0"/>
			<psa10 value="0.0110776685286898" flag="0"/>
			<psa30 value="0.00363921941376009" flag="0"/>
		</comp>
	</station>
	<station code="SERG" name="SERG" netid="HP" source="University of Patras, Seismological Laboratory (PSLNET)" insttype="" lat="38.4133" lon="22.0566">
		<comp name="--.HNE" depth="0.0">
			<acc value="0.030675303464191" flag="0"/>
			<vel value="0.0200170649298795" flag="0"/>
			<psa03 value="0.0786056759900965" flag="0"/>
			<psa10 value="0.0310964581127432" flag="0"/>
			<psa30 value="0.0036241721669547" flag="0"/>
		</comp>
		<comp name="--.HNN" depth="0.0">
			<acc value="0.0213294348455901" flag="0"/>
			<vel value="0.0201421294278276" flag="0"/>
			<psa03 value="0.0669970788525822" flag="0"/>
			<psa10 value="0.0272991871871695" flag="0"/>
			<psa30 value="0.00606208283323829" flag="0"/>
		</comp>
		<comp name="--.HNZ" depth="0.0">
			<acc value="0.0179471386283383" flag="0"/>
			<vel value="0.0145028351338142" flag="0"/>
			<psa03 value="0.0400101478717868" flag="0"/>
			<psa10 value="0.0198117618069729" flag="0"/>
			<psa30 value="0.00452479057848567" flag="0"/>
		</comp>
	</station>
	<station code="VRKS" name="VRKS" netid="HP" source="University of Patras, Seismological Laboratory (PSLNET)" insttype="" lat="39.78398" lon="21.97651">
		<comp name="--.HNE" depth="0.0">
			<acc value="5.44377878752988" flag="0"/>
			<vel value="0.93412247821696" flag="0"/>
			<psa03 value="4.03014731081486" flag="0"/>
			<psa10 value="0.257677139845896" flag="0"/>
			<psa30 value="0.0243557751172345" flag="0"/>
		</comp>
		<comp name="--.HNN" depth="0.0">
			<acc value="5.43672768384464" flag="0"/>
			<vel value="1.30157388769822" flag="0"/>
			<psa03 value="6.01447509611367" flag="0"/>
			<psa10 value="0.372204506721748" flag="0"/>
			<psa30 value="0.0238730731406043" flag="0"/>
		</comp>
		<comp name="--.HNZ" depth="0.0">
			<acc value="5.94141609336973" flag="0"/>
			<vel value="0.858198285732208" flag="0"/>
