<stationlist xmlns:esm="https://esm-db.eu/esmws/shakemap/1/" created="1781229267">
	<station code="SRN" name="SRN" netid="AC" source="Albanian Seismological Network (AC)" insttype="" lat="39.880001" lon="20.0005" esm:processing="manual (Paolucci et al 2011)" esm:quality="good">
		<comp name="--.HNE" depth="0.0">
			<acc value="0.104691735103682" flag="0"/>
			<vel value="0.0670050428055044" flag="0"/>
			<psa03 value="0.214404654114758" flag="0"/>
			<psa10 value="0.0669817678399499" flag="0"/>
			<psa30 value="0.00937751908512357" flag="0"/>
		</comp>
		<comp name="--.HNN" depth="0.0">
			<acc value="0.106039214705056" flag="0"/>
			<vel value="0.0571208349862196" flag="0"/>
			<psa03 value="0.231317208216465" flag="0"/>
			<psa10 value="0.0568060477887564" flag="0"/>
			<psa30 value="0.00930056248974015" flag="0"/>
		</comp>
		<comp name="--.HNZ" depth="0.0">
			<acc value="0.0963564166051265" flag="0"/>
			<vel value="0.0638863211846034" flag="0"/>
			<psa03 value="0.240668329399684" flag="0"/>
			<psa10 value="0.0540396371535486" flag="0"/>
			<psa30 value="0.00921868425162871" flag="0"/>
		</comp>
	</station>
	<station code="ARG2" name="ARG2" netid="HI" source="ITSAK Strong Motion Network" insttype="" lat="38.1783" lon="20.4878" esm:processing="manual (Paolucci et al 2011)" esm:quality="best">
		<comp name="--.HNE" depth="0.0">
			<acc value="0.966717187768762" flag="0"/>
			<vel value="0.32266203718514" flag="0"/>
			<psa03 value="1.50047464115036" flag="0"/>
			<psa10 value="0.112585261935623" flag="0"/>
			<psa30 value="0.00724197356323346" flag="0"/>
		</comp>
		<comp name="--.HNN" depth="0.0">
			<acc value="1.10980831047788" flag="0"/>
			<vel value="0.423149225477017" flag="0"/>
			<psa03 value="1.43304813577663" flag="0"/>
			<psa10 value="0.177646246845451" flag="0"/>
			<psa30 value="0.0167376120738293" flag="0"/>
		</comp>
		<comp name="--.HNZ" depth="0.0">
			<acc value="0.614170733023716" flag="0"/>
			<vel value="0.178916602559485" flag="0"/>
			<psa03 value="1.17408024387007" flag="0"/>
			<psa10 value="0.0649723953407233" flag="0"/>
			<psa30 value="0.00454580819241641" flag="0"/>
		</comp>
	</station>
	<station code="ART2" name="ART2" netid="HI" source="ITSAK Strong Motion Network" insttype="" lat="39.1474" lon="20.9937" esm:processing="manual (Paolucci et al 2011)" esm:quality="best">
		<comp name="--.HNE" depth="0.0">
			<acc value="0.00938573324035231" flag="0"/>
			<vel value="0.0035899828503383" flag="0"/>
			<psa03 value="0.0132415803146979" flag="0"/>
			<psa10 value="0.00562294061720551" flag="0"/>
			<psa30 value="0.000241065370439216" flag="0"/>
		</comp>
		<comp name="--.HNN" depth="0.0">
			<acc value="0.00918111939348753" flag="0"/>
			<vel value="0.00595224925338632" flag="0"/>
			<psa03 value="0.0121759823803371" flag="0"/>
			<psa10 value="0.00891509151857396" flag="0"/>
			<psa30 value="0.000416649736416752" flag="0"/>
		</comp>
		<comp name="--.HNZ" depth="0.0">
			<acc value="0.00603352788750551" flag="0"/>
			<vel value="0.00352430336770231" flag="0"/>
			<psa03 value="0.0120769029001318" flag="0"/>
			<psa10 value="0.00469624204049637" flag="0"/>
			<psa30 value="0.000405631766947181" flag="0"/>
		</comp>
	</station>
	<station code="KLV1" name="KLV1" netid="HI" source="ITSAK Strong Motion Network" insttype="" lat="38.03256" lon="22.10797" esm:processing="manual (Paolucci et al 2011)" esm:quality="good">
		<comp name="--.HNE" depth="0.0">
			<acc value="0.00604814463914572" flag="0"/>
			<vel value="0.0037134415092967" flag="0"/>
			<psa03 value="0.018917593041447" flag="0"/>
			<psa10 value="0.00383858835013746" flag="0"/>
			<psa30 value="0.000577311889913459" flag="0"/>
		</comp>
		<comp name="--.HNN" depth="0.0">
			<acc value="0.00598606843972602" flag="0"/>
			<vel value="0.00317689688898202" flag="0"/>
			<psa03 value="0.0187783077728137" flag="0"/>
			<psa10 value="0.00402247662558432" flag="0"/>
			<psa30 value="0.000429193379871567" flag="0"/>
		</comp>
		<comp name="--.HNZ" depth="0.0">
			<acc value="0.00410493705218178" flag="0"/>
			<vel value="0.00192041740930444" flag="0"/>
			<psa03 value="0.00886088321399932" flag="0"/>
			<psa10 value="0.00321073066389715" flag="0"/>
			<psa30 value="0.000488235572379251" flag="0"/>
		</comp>
	</station>
	<station code="KRI1" name="KRI1" netid="HI" source="ITSAK Strong Motion Network" insttype="" lat="37.6621" lon="20.8172" esm:processing="manual (Paolucci et al 2011)" esm:quality="best">
		<comp name="--.HNE" depth="0.0">
			<acc value="0.0479708347371174" flag="0"/>
			<vel value="0.0242915034236828" flag="0"/>
			<psa03 value="0.113824173636883" flag="0"/>
			<psa10 value="0.0142508402299857" flag="0"/>
			<psa30 value="0.00086934107459302" flag="0"/>
		</comp>
		<comp name="--.HNN" depth="0.0">
			<acc value="0.0367234320644246" flag="0"/>
			<vel value="0.0200628816985842" flag="0"/>
			<psa03 value="0.103443981701444" flag="0"/>
			<psa10 value="0.0136347400448521" flag="0"/>
			<psa30 value="0.00090558226195382" flag="0"/>
		</comp>
		<comp name="--.HNZ" depth="0.0">
			<acc value="0.0231435821149417" flag="0"/>
			<vel value="0.0105604361258693" flag="0"/>
			<psa03 value="0.0592386815625918" flag="0"/>
			<psa10 value="0.00523483817433779" flag="0"/>
			<psa30 value="0.000431762293866322" flag="0"/>
		</comp>
	</station>
	<station code="KRK1" name="KRK1" netid="HI" source="ITSAK Strong Motion Network" insttype="" lat="39.618861" lon="19.9202" esm:processing="manual (Paolucci et al 2011)" esm:quality="good">
		<comp name="--.HNE" depth="0.0">
			<acc value="0.0287487136416893" flag="0"/>
			<vel value="0.00995633340747515" flag="0"/>
			<psa03 value="0.0456484198169264" flag="0"/>
			<psa10 value="0.00653406394341175" flag="0"/>
			<psa30 value="0.000556890016231208" flag="0"/>
		</comp>
		<comp name="--.HNN" depth="0.0">
			<acc value="0.0304195065829591" flag="0"/>
			<vel value="0.0116138767534712" flag="0"/>
			<psa03 value="0.0509713661861262" flag="0"/>
			<psa10 value="0.0061927416450012" flag="0"/>
			<psa30 value="0.000471516339808829" flag="0"/>
		</comp>
		<comp name="--.HNZ" depth="0.0">
			<acc value="0.0129989092837512" flag="0"/>
			<vel value="0.00430410931741048" flag="0"/>
			<psa03 value="0.0263865214150451" flag="0"/>
			<psa10 value="0.00237070876657186" flag="0"/>
			<psa30 value="0.000255306990960354" flag="0"/>
		</comp>
	</station>
	<station code="MSL1" name="MSL1" netid="HI" source="ITSAK Strong Motion Network" insttype="" lat="38.3727" lon="21.4243" esm:processing="manual (Paolucci et al 2011)" esm:quality="best">
		<comp name="--.HNE" depth="0.0">
			<acc value="0.0403409944463404" flag="0"/>
			<vel value="0.0287224168855487" flag="0"/>
			<psa03 value="0.092526883286586" flag="0"/>
			<psa10 value="0.033172766830919" flag="0"/>
			<psa30 value="0.00182145523142984" flag="0"/>
		</comp>
		<comp name="--.HNN" depth="0.0">
			<acc value="0.0791668635490063" flag="0"/>
			<vel value="0.0373316042213126" flag="0"/>
			<psa03 value="0.115076955422195" flag="0"/>
			<psa10 value="0.0517403351554356" flag="0"/>
			<psa30 value="0.0022912484009217" flag="0"/>
		</comp>
		<comp name="--.HNZ" depth="0.0">
			<acc value="0.0266623818766582" flag="0"/>
			<vel value="0.0126335217673517" flag="0"/>
			<psa03 value="0.0597308458353928" flag="0"/>
			<psa10 value="0.024531257044666" flag="0"/>
			<psa30 value="0.000870683340791568" flag="0"/>
		</comp>
	</station>
	<station code="PYL1" name="PYL1" netid="HI" source="ITSAK Strong Motion Network" insttype="" lat="36.914188" lon="21.695161" esm:processing="manual (Paolucci et al 2011)" esm:quality="bad">
		<comp name="--.HNE" depth="0.0">
			<acc value="0.00136139142428361" flag="0"/>
			<vel value="0.00110264106232357" flag="0"/>
			<psa03 value="0.00357995590450991" flag="0"/>
			<psa10 value="0.00186687378841217" flag="0"/>
			<psa30 value="0.000170807721423187" flag="0"/>
		</comp>
		<comp name="--.HNN" depth="0.0">
			<acc value="0.000886778824009257" flag="0"/>
			<vel value="0.000746761878578136" flag="0"/>
			<psa03 value="0.0023782029544285" flag="0"/>
			<psa10 value="0.0014967937646147" flag="0"/>
			<psa30 value="0.000128639810818676" flag="0"/>
		</comp>
		<comp name="--.HNZ" depth="0.0">
			<acc value="0.000686893493338149" flag="0"/>
			<vel value="0.000492200947025417" flag="0"/>
			<psa03 value="0.00174823527815254" flag="0"/>
			<psa10 value="0.000860503879159029" flag="0"/>
			<psa30 value="9.94666477708958e-05" flag="0"/>
		</comp>
	</station>
	<station code="VAS2" name="VAS2" netid="HI" source="ITSAK Strong Motion Network" insttype="" lat="38.630558" lon="20.608081" esm:processing="manual (Paolucci et al 2011)" esm:quality="best">
		<comp name="--.HNE" depth="0.0">
			<acc value="0.100628456863973" flag="0"/>
			<vel value="0.0560941991651872" flag="0"/>
			<psa03 value="0.328139343338405" flag="0"/>
			<psa10 value="0.0612999550214956" flag="0"/>
			<psa30 value="0.00275925188214882" flag="0"/>
		</comp>
		<comp name="--.HNN" depth="0.0">
			<acc value="0.168940573821505" flag="0"/>
			<vel value="0.070723893567761" flag="0"/>
			<psa03 value="0.351673744019616" flag="0"/>
			<psa10 value="0.0592140733489517" flag="0"/>
			<psa30 value="0.00327960374511932" flag="0"/>
		</comp>
		<comp name="--.HNZ" depth="0.0">
			<acc value="0.0712558766484255" flag="0"/>
			<vel value="0.0280274390301393" flag="0"/>
			<psa03 value="0.128454875201058" flag="0"/>
			<psa10 value="0.0414760255351379" flag="0"/>
			<psa30 value="0.00144696296203491" flag="0"/>
		</comp>
	</station>
	<station code="ITM" name="ITM" netid="HL" source="National Observatory of Athens Seismic Network" insttype="" lat="37.17872" lon="21.92522" esm:processing="manual (Paolucci et al 2011)" esm:quality="bad">
		<comp name="00.HNE" depth="0.0">
			<acc value="0.00232220128308323" flag="0"/>
			<vel value="0.00144226548382828" flag="0"/>
			<psa03 value="0.00756143291848793" flag="0"/>
			<psa10 value="0.00219460523462623" flag="0"/>
			<psa30 value="0.000548539453140012" flag="0"/>
		</comp>
		<comp name="00.HNN" depth="0.0">
			<acc value="0.00253217533260472" flag="0"/>
			<vel value="0.00229247342635383" flag="0"/>
			<psa03 value="0.00800885498467064" flag="0"/>
			<psa10 value="0.00169528220876632" flag="0"/>
			<psa30 value="0.000389704619645147" flag="0"/>
		</comp>
		<comp name="00.HNZ" depth="0.0">
			<acc value="0.00173444363132594" flag="0"/>
			<vel value="0.00140411949966132" flag="0"/>
			<psa03 value="0.00496638493462817" flag="0"/>
			<psa10 value="0.00168320181297938" flag="0"/>
			<psa30 value="0.000453685975109275" flag="0"/>
		</comp>
	</station>
	<station code="JAN" name="JAN" netid="HL" source="National Observatory of Athens Seismic Network" insttype="" lat="39.65616" lon="20.84874" esm:processing="manual (Paolucci et al 2011)" esm:quality="bad">
		<comp name="00.HNE" depth="0.0">
			<acc value="0.00773131300938205" flag="0"/>
			<vel value="0.00324670715387463" flag="0"/>
			<psa03 value="0.0176284294075991" flag="0"/>
			<psa10 value="0.00306439373128543" flag="0"/>
			<psa30 value="0.000375834535593483" flag="0"/>
		</comp>
		<comp name="00.HNN" depth="0.0">
			<acc value="0.00715950942355385" flag="0"/>
			<vel value="0.00330555376506926" flag="0"/>
			<psa03 value="0.0181205936804001" flag="0"/>
			<psa10 value="0.00241205235879103" flag="0"/>
			<psa30 value="0.00020581415044405" flag="0"/>
		</comp>
		<comp name="00.HNZ" depth="0.0">
			<acc value="0.00390193503929141" flag="0"/>
			<vel value="0.00196548372334623" flag="0"/>
			<psa03 value="0.00715875305892348" flag="0"/>
			<psa10 value="0.00224292681777396" flag="0"/>
			<psa30 value="0.000374044847328752" flag="0"/>
		</comp>
	</station>
	<station code="KASA" name="KASA" netid="HL" source="National Observatory of Athens Seismic Network" insttype="" lat="39.74628" lon="19.93542" esm:processing="manual (Paolucci et al 2011)" esm:quality="best">
		<comp name="00.HNE" depth="0.0">
			<acc value="0.00855421073273096" flag="0"/>
			<vel value="0.0035258552103973" flag="0"/>
			<psa03 value="0.0237581117143023" flag="0"/>
			<psa10 value="0.00373686909675806" flag="0"/>
			<psa30 value="0.00023713369507684" flag="0"/>
		</comp>
		<comp name="00.HNN" depth="0.0">
			<acc value="0.00744520467230146" flag="0"/>
			<vel value="0.0024389197841435" flag="0"/>
			<psa03 value="0.0194628598789482" flag="0"/>
			<psa10 value="0.00237983797002587" flag="0"/>
			<psa30 value="0.000331987173107576" flag="0"/>
		</comp>
		<comp name="00.HNZ" depth="0.0">
			<acc value="0.00745074706884488" flag="0"/>
			<vel value="0.00343074261277112" flag="0"/>
			<psa03 value="0.0219236812429532" flag="0"/>
			<psa10 value="0.00359190434731486" flag="0"/>
			<psa30 value="0.000253688311525601" flag="0"/>
		</comp>
	</station>
	<station code="LXRA" name="LXRA" netid="HL" source="National Observatory of Athens Seismic Network" insttype="" lat="38.20006" lon="20.43718" esm:processing="manual (Paolucci et al 2011)" esm:quality="best">
		<comp name="00.HNE" depth="0.0">
			<acc value="3.19357529825766" flag="0"/>
			<vel value="1.11126192799303" flag="0"/>
			<psa03 value="5.55250784132753" flag="0"/>
			<psa10 value="0.375511049439633" flag="0"/>
			<psa30 value="0.0319087994939529" flag="0"/>
		</comp>
		<comp name="00.HNN" depth="0.0">
			<acc value="3.17524007873665" flag="0"/>
			<vel value="0.920940572228442" flag="0"/>
			<psa03 value="4.19865341126524" flag="0"/>
			<psa10 value="0.317142603795766" flag="0"/>
			<psa30 value="0.0381463105186061" flag="0"/>
		</comp>
		<comp name="00.HNZ" depth="0.0">
			<acc value="2.09948854655899" flag="0"/>
			<vel value="0.303731671300522" flag="0"/>
			<psa03 value="2.07268272159144" flag="0"/>
			<psa10 value="0.208676756823487" flag="0"/>
			<psa30 value="0.0123282676115986" flag="0"/>
		</comp>
	</station>
	<station code="PATC" name="PATC" netid="HL" source="National Observatory of Athens Seismic Network" insttype="" lat="38.26933" lon="21.76001" esm:processing="automatic (Paolucci et al 2011)" esm:quality="best">
		<comp name="00.HNE" depth="0.0">
			<acc value="0.0121148121962399" flag="0"/>
			<vel value="0.0101046319373606" flag="0"/>
			<psa03 value="0.0303352160871883" flag="0"/>
			<psa10 value="0.0161796767572994" flag="0"/>
			<psa30 value="0.00225948143422272" flag="0"/>
		</comp>
		<comp name="00.HNN" depth="0.0">
			<acc value="0.016063154444664" flag="0"/>
			<vel value="0.0114060478405974" flag="0"/>
			<psa03 value="0.0343172724762144" flag="0"/>
			<psa10 value="0.0209554598917338" flag="0"/>
			<psa30 value="0.00160535037346359" flag="0"/>
		</comp>
		<comp name="00.HNZ" depth="0.0">
			<acc value="0.0123143644730017" flag="0"/>
			<vel value="0.00589567175566813" flag="0"/>
			<psa03 value="0.0238475961275388" flag="0"/>
			<psa10 value="0.00627777901060971" flag="0"/>
			<psa30 value="0.0011494272880234" flag="0"/>
		</comp>
	</station>
	<station code="PATG" name="PATG" netid="HL" source="National Observatory of Athens Seismic Network" insttype="" lat="38.23865" lon="21.72657" esm:processing="manual (Paolucci et al 2011)" esm:quality="good">
		<comp name="00.HNE" depth="0.0">
			<acc value="0.0123748345994101" flag="0"/>
			<vel value="0.00928783060126937" flag="0"/>
			<psa03 value="0.0318393696186444" flag="0"/>
			<psa10 value="0.0166481441078423" flag="0"/>
			<psa30 value="0.00207459034809567" flag="0"/>
		</comp>
		<comp name="00.HNN" depth="0.0">
			<acc value="0.0141940572642669" flag="0"/>
			<vel value="0.0114254530252016" flag="0"/>
			<psa03 value="0.0310018922648798" flag="0"/>
			<psa10 value="0.0195531446748728" flag="0"/>
			<psa30 value="0.00273206869447604" flag="0"/>
		</comp>
		<comp name="00.HNZ" depth="0.0">
			<acc value="0.0250587634244488" flag="0"/>
			<vel value="0.00614466833846742" flag="0"/>
			<psa03 value="0.0220819419869507" flag="0"/>
			<psa10 value="0.00916053965329443" flag="0"/>
			<psa30 value="0.00123095769073912" flag="0"/>
		</comp>
	</station>
</stationlist>
