<?xml version="1.0" encoding="UTF-8" standalone="yes"?>
<!DOCTYPE earthquake SYSTEM "stationlist.dtd">
<stationlist created="" xmlns="ch.ethz.sed.shakemap.usgs.xml">
  <station code="KEF3" name="KEF3" netid="HL" source="NOA" insttype="SMART24" lat="38.2031" lon="20.3482">
    <comp name="--.HHE">
      <acc value="2.8773438585" flag="0"/>
      <vel value="1.7599667987" flag="0"/>
      <psa03 value="9.0867792499" flag="0"/>
      <psa10 value="0.8712361029" flag="0"/>
      <psa30 value="0.1439201483" flag="0"/>
    </comp>
    <comp name="--.HHN">
      <acc value="7.1944095281" flag="0"/>
      <vel value="2.2497709294" flag="0"/>
      <psa03 value="12.3490330451" flag="0"/>
      <psa10 value="1.1711723090" flag="0"/>
      <psa30 value="0.3047243592" flag="0"/>
    </comp>
    <comp name="--.HHZ">
      <acc value="6.9991689462" flag="0"/>
      <vel value="1.8293703667" flag="0"/>
      <psa03 value="8.2519967887" flag="0"/>
      <psa10 value="0.7732740178" flag="0"/>
      <psa30 value="0.3017515513" flag="0"/>
    </comp>
  </station>
  <station code="KEF4" name="KEF4" netid="HL" source="NOA" insttype="SMART24" lat="38.258" lon="20.4244">
    <comp name="--.HHE">
      <acc value="2.9924072993" flag="0"/>
      <vel value="2.0908969536" flag="0"/>
      <psa03 value="10.3247524726" flag="0"/>
      <psa10 value="0.6433429847" flag="0"/>
      <psa30 value="0.2410474651" flag="0"/>
    </comp>
    <comp name="--.HHN">
      <acc value="7.4338432719" flag="0"/>
      <vel value="1.4341833721" flag="0"/>
      <psa03 value="9.8952899104" flag="0"/>
      <psa10 value="0.6161528168" flag="0"/>
      <psa30 value="0.1611974770" flag="0"/>
    </comp>
    <comp name="--.HHZ">
      <acc value="2.8705129348" flag="0"/>
      <vel value="0.7406465140" flag="0"/>
      <psa03 value="5.2765866895" flag="0"/>
      <psa10 value="0.3416846944" flag="0"/>
      <psa30 value="0.0354725320" flag="0"/>
    </comp>
  </station>
  <station code="LXRA" name="LXRA" netid="HL" source="NOA" insttype="CMG-5" lat="38.2001" lon="20.4372">
    <comp name="00.HNE">
      <acc value="3.1460782143" flag="0"/>
      <vel value="1.1069440118" flag="0"/>
      <psa03 value="5.5362896053" flag="0"/>
      <psa10 value="0.3750644591" flag="0"/>
      <psa30 value="0.0325894736" flag="0"/>
    </comp>
    <comp name="00.HNN">
      <acc value="3.0983833374" flag="0"/>
      <vel value="0.9133596600" flag="0"/>
      <psa03 value="4.1938801937" flag="0"/>
      <psa10 value="0.3172455381" flag="0"/>
      <psa30 value="0.0388842674" flag="0"/>
    </comp>
    <comp name="00.HNZ">
      <acc value="2.1154705385" flag="0"/>
      <vel value="0.3020126442" flag="0"/>
      <psa03 value="2.0765560120" flag="0"/>
      <psa10 value="0.2085894919" flag="0"/>
      <psa30 value="0.0121200323" flag="0"/>
    </comp>
  </station>
  <station code="RLS" name="RLS" netid="HL" source="NOA" insttype="120" lat="38.0559" lon="21.4647">
    <comp name="--.HHE">
      <acc value="0.0068877008" flag="0"/>
      <vel value="0.0042840003" flag="0"/>
      <psa03 value="0.0152853649" flag="0"/>
      <psa10 value="0.0047970660" flag="0"/>
      <psa30 value="0.0003964962" flag="0"/>
    </comp>
    <comp name="--.HHN">
      <acc value="0.0062036945" flag="0"/>
      <vel value="0.0036830272" flag="0"/>
      <psa03 value="0.0176903588" flag="0"/>
      <psa10 value="0.0038568156" flag="0"/>
      <psa30 value="0.0003912500" flag="0"/>
    </comp>
    <comp name="--.HHZ">
      <acc value="0.0059740043" flag="0"/>
      <vel value="0.0019798014" flag="0"/>
      <psa03 value="0.0085016031" flag="0"/>
      <psa10 value="0.0028655117" flag="0"/>
      <psa30 value="0.0004067066" flag="0"/>
    </comp>
  </station>
  <station code="VLS" name="VLS" netid="HL" source="NOA" insttype="120P," lat="38.1768" lon="20.5886">
    <comp name="--.HHE">
      <acc value="2.7465557933" flag="0"/>
      <vel value="0.2310410825" flag="0"/>
      <psa03 value="0.6321615083" flag="0"/>
      <psa10 value="0.0356100529" flag="0"/>
      <psa30 value="0.0031067503" flag="0"/>
    </comp>
    <comp name="--.HHN">
      <acc value="1.3845054681" flag="0"/>
      <vel value="0.2107752425" flag="0"/>
      <psa03 value="0.4981627769" flag="0"/>
      <psa10 value="0.0553878179" flag="0"/>
      <psa30 value="0.0046516328" flag="0"/>
    </comp>
    <comp name="--.HHZ">
      <acc value="0.7658205963" flag="0"/>
      <vel value="0.0637575866" flag="0"/>
      <psa03 value="0.2649699487" flag="0"/>
      <psa10 value="0.0368311307" flag="0"/>
      <psa30 value="0.0022104122" flag="0"/>
    </comp>
  </station>
  <station code="FSK" name="FSK" netid="HP" source="NOA" insttype="40," lat="38.4593" lon="20.5623">
    <comp name="--.HHE">
      <acc value="0.2121580760" flag="0"/>
      <vel value="0.0543886794" flag="0"/>
      <psa03 value="0.1898586694" flag="0"/>
      <psa10 value="0.0218804547" flag="0"/>
      <psa30 value="0.0016418964" flag="0"/>
    </comp>
    <comp name="--.HHZ">
      <acc value="0.0931035081" flag="0"/>
      <vel value="0.0214888083" flag="0"/>
      <psa03 value="0.0891259951" flag="0"/>
      <psa10 value="0.0145182981" flag="0"/>
      <psa30 value="0.0016236906" flag="0"/>
    </comp>
  </station>
  <station code="LTHK" name="LTHK" netid="HP" source="NOA" insttype="40," lat="37.7095" lon="20.8367">
    <comp name="--.HHE">
      <acc value="0.0400458560" flag="0"/>
      <vel value="0.0205391929" flag="0"/>
      <psa03 value="0.1079946480" flag="0"/>
      <psa10 value="0.0223011140" flag="0"/>
      <psa30 value="0.0009159991" flag="0"/>
    </comp>
    <comp name="--.HHN">
      <acc value="0.0462062619" flag="0"/>
      <vel value="0.0164018786" flag="0"/>
      <psa03 value="0.0822182653" flag="0"/>
      <psa10 value="0.0143332884" flag="0"/>
      <psa30 value="0.0007831950" flag="0"/>
    </comp>
    <comp name="--.HHZ">
      <acc value="0.0339080501" flag="0"/>
      <vel value="0.0121045060" flag="0"/>
      <psa03 value="0.0820071456" flag="0"/>
      <psa10 value="0.0125216338" flag="0"/>
      <psa30 value="0.0004332228" flag="0"/>
    </comp>
  </station>
  <station code="PVO" name="PVO" netid="HP" source="NOA" insttype="120P," lat="38.616" lon="21.525">
    <comp name="--.HHE">
      <acc value="0.0365810158" flag="0"/>
      <vel value="0.0165540927" flag="0"/>
      <psa03 value="0.1058515943" flag="0"/>
      <psa10 value="0.0146402764" flag="0"/>
      <psa30 value="0.0015271245" flag="0"/>
    </comp>
    <comp name="--.HHN">
      <acc value="0.0391889871" flag="0"/>
      <vel value="0.0191495870" flag="0"/>
      <psa03 value="0.0839810830" flag="0"/>
      <psa10 value="0.0136778270" flag="0"/>
      <psa30 value="0.0011187686" flag="0"/>
    </comp>
    <comp name="--.HHZ">
      <acc value="0.0290062563" flag="0"/>
      <vel value="0.0091073704" flag="0"/>
      <psa03 value="0.0763455860" flag="0"/>
      <psa10 value="0.0106895876" flag="0"/>
      <psa30 value="0.0010743507" flag="0"/>
    </comp>
  </station>
  <station code="LKD2" name="LKD2" netid="HT" source="GFZ" insttype="CMG-3ESP/90" lat="38.7889" lon="20.6578">
    <comp name="--.HHE">
      <acc value="0.0334000617" flag="0"/>
      <vel value="0.0097701731" flag="0"/>
      <psa03 value="0.0494518004" flag="0"/>
      <psa10 value="0.0074875171" flag="0"/>
      <psa30 value="0.0005482416" flag="0"/>
    </comp>
    <comp name="--.HHN">
      <acc value="0.0511843260" flag="0"/>
      <vel value="0.0143363406" flag="0"/>
      <psa03 value="0.0605041302" flag="0"/>
      <psa10 value="0.0094740507" flag="0"/>
      <psa30 value="0.0005666746" flag="0"/>
    </comp>
    <comp name="--.HHZ">
      <acc value="0.0358493259" flag="0"/>
      <vel value="0.0085498601" flag="0"/>
      <psa03 value="0.0352392284" flag="0"/>
      <psa10 value="0.0042746766" flag="0"/>
      <psa30 value="0.0004380369" flag="0"/>
    </comp>
  </station>
</stationlist>
