<?xml version="1.0" encoding="UTF-8" standalone="yes"?>
<!DOCTYPE earthquake SYSTEM "stationlist.dtd">
<stationlist created="" xmlns="ch.ethz.sed.shakemap.usgs.xml">
  <station code="ARGN" name="ARGN" netid="KO" insttype="CMG-6T" commtype="DIG" lat="38.7763" lon="38.2639">
    <comp name="--.HHE">
      <acc value="0.0553830350" flag="0"/>
      <vel value="0.0224075108" flag="0"/>
      <psa03 value="0.1296630409" flag="0"/>
      <psa10 value="0.0086264520" flag="0"/>
      <psa30 value="0.0006519558" flag="0"/>
    </comp>
    <comp name="--.HHN">
      <acc value="0.0556957158" flag="0"/>
      <vel value="0.0165165391" flag="0"/>
      <psa03 value="0.0716367066" flag="0"/>
      <psa10 value="0.0074805007" flag="0"/>
      <psa30 value="0.0005151808" flag="0"/>
    </comp>
    <comp name="--.HHZ">
      <acc value="0.0201821930" flag="0"/>
      <vel value="0.0067824403" flag="0"/>
      <psa03 value="0.0465742669" flag="0"/>
      <psa10 value="0.0045610302" flag="0"/>
      <psa30 value="0.0002023505" flag="0"/>
    </comp>
  </station>
  <station code="DARE" name="DARE" netid="KO" insttype="CMG-3ESP" commtype="DIG" lat="38.5712" lon="37.4832">
    <comp name="--.HHZ">
      <acc value="0.0194722388" flag="0"/>
      <vel value="0.0070408121" flag="0"/>
      <psa03 value="0.0387462147" flag="0"/>
      <psa10 value="0.0044207147" flag="0"/>
      <psa30 value="0.0004952772" flag="0"/>
    </comp>
    <comp name="--.HHN">
      <acc value="0.0194116826" flag="0"/>
      <vel value="0.0065543271" flag="0"/>
      <psa03 value="0.0262034388" flag="0"/>
      <psa10 value="0.0064588478" flag="0"/>
      <psa30 value="0.0003508772" flag="0"/>
    </comp>
    <comp name="--.HHE">
      <acc value="0.0298339772" flag="0"/>
      <vel value="0.0111655604" flag="0"/>
      <psa03 value="0.0426906267" flag="0"/>
      <psa10 value="0.0044500200" flag="0"/>
      <psa30 value="0.0003640134" flag="0"/>
    </comp>
  </station>
  <station code="GAZ" name="GAZ" netid="KO" insttype="CMG-3T" commtype="DIG" lat="37.1721" lon="37.2096">
    <comp name="--.HHN">
      <acc value="0.0146105863" flag="0"/>
      <vel value="0.0048301692" flag="0"/>
      <psa03 value="0.0335468211" flag="0"/>
      <psa10 value="0.0039062059" flag="0"/>
      <psa30 value="0.0003462514" flag="0"/>
    </comp>
  </station>
  <station code="KMRS" name="KMRS" netid="KO" insttype="CMG-3T" commtype="DIG" lat="37.5087" lon="36.9">
    <comp name="--.HHN">
      <acc value="0.0117412404" flag="0"/>
      <vel value="0.0046106818" flag="0"/>
      <psa03 value="0.0244643700" flag="0"/>
      <psa10 value="0.0046011640" flag="0"/>
      <psa30 value="0.0004059283" flag="0"/>
    </comp>
    <comp name="--.HHE">
      <acc value="0.0108234978" flag="0"/>
      <vel value="0.0031469698" flag="0"/>
      <psa03 value="0.0203331292" flag="0"/>
      <psa10 value="0.0033828256" flag="0"/>
      <psa30 value="0.0003815343" flag="0"/>
    </comp>
    <comp name="--.HHZ">
      <acc value="0.0092753837" flag="0"/>
      <vel value="0.0038472967" flag="0"/>
      <psa03 value="0.0233480734" flag="0"/>
      <psa10 value="0.0025860105" flag="0"/>
      <psa30 value="0.0003264457" flag="0"/>
    </comp>
  </station>
  <station code="NURH" name="NURH" netid="KO" insttype="CMG-6T" commtype="DIG" lat="37.9693" lon="37.4363">
    <comp name="--.HHE">
      <acc value="0.7941685941" flag="0"/>
      <vel value="0.1731957906" flag="0"/>
      <psa03 value="0.6898225904" flag="0"/>
      <psa10 value="0.0610101515" flag="0"/>
      <psa30 value="0.0035501397" flag="0"/>
    </comp>
    <comp name="--.HHN">
      <acc value="0.6505000329" flag="0"/>
      <vel value="0.2595922261" flag="0"/>
      <psa03 value="1.2628560926" flag="0"/>
      <psa10 value="0.0843326810" flag="0"/>
      <psa30 value="0.0073845535" flag="0"/>
    </comp>
    <comp name="--.HHZ">
      <acc value="0.3767614463" flag="0"/>
      <vel value="0.0849798880" flag="0"/>
      <psa03 value="0.2375083456" flag="0"/>
      <psa10 value="0.0232714909" flag="0"/>
      <psa30 value="0.0015746890" flag="0"/>
    </comp>
  </station>
  <station code="SARI" name="SARI" netid="KO" insttype="CMG-3T" commtype="DIG" lat="38.4072" lon="36.4181">
    <comp name="--.HHZ">
      <acc value="0.0079609522" flag="0"/>
      <vel value="0.0025337785" flag="0"/>
      <psa03 value="0.0157399386" flag="0"/>
      <psa10 value="0.0033757324" flag="0"/>
      <psa30 value="0.0001461453" flag="0"/>
    </comp>
  </station>
</stationlist>
