<?xml version="1.0" encoding="UTF-8" standalone="yes"?>
<!DOCTYPE earthquake SYSTEM "stationlist.dtd">
<stationlist created="" xmlns="ch.ethz.sed.shakemap.usgs.xml">
  <station code="AVE" name="AVE" netid="WM" insttype="FBA-EST/10.0" commtype="DIG" lat="33.2981" lon="-7.4133">
    <comp name="--.HLN">
      <acc value="0.0249204686" flag="0"/>
      <vel value="0.0075006158" flag="0"/>
      <psa03 value="0.0484791461" flag="0"/>
      <psa10 value="0.0044232556" flag="0"/>
      <psa30 value="0.0003233951" flag="0"/>
    </comp>
    <comp name="--.HLE">
      <acc value="0.0239427442" flag="0"/>
      <vel value="0.0061485115" flag="0"/>
      <psa03 value="0.0383501634" flag="0"/>
      <psa10 value="0.0037022355" flag="0"/>
      <psa30 value="0.0001832812" flag="0"/>
    </comp>
    <comp name="--.HLZ">
      <acc value="0.0284026996" flag="0"/>
      <vel value="0.0069244200" flag="0"/>
      <psa03 value="0.0240470576" flag="0"/>
      <psa10 value="0.0014589540" flag="0"/>
      <psa30 value="0.0001523184" flag="0"/>
    </comp>
  </station>
</stationlist>
