<stationlist created="1775819724">
	<station code="AVE" name="AVE" netid="WM" source="Western Mediterranean Seismic Network" insttype="" lat="33.2981" lon="-7.4133">
		<comp name="--.HLE" depth="0.0">
			<acc value="0.0234140921825157" flag="0"/>
			<vel value="0.00620899769452897" flag="0"/>
			<psa03 value="0.0381597336242553" flag="0"/>
			<psa10 value="0.00370136769744482" flag="0"/>
			<psa30 value="0.000195274719845829" flag="0"/>
		</comp>
		<comp name="--.HLN" depth="0.0">
			<acc value="0.0235689184255345" flag="0"/>
			<vel value="0.00755574310249467" flag="0"/>
			<psa03 value="0.049385787191085" flag="0"/>
			<psa10 value="0.00442996408836785" flag="0"/>
			<psa30 value="0.000347295168058791" flag="0"/>
		</comp>
		<comp name="--.HLZ" depth="0.0">
			<acc value="0.0286622793598902" flag="0"/>
			<vel value="0.00703069993317498" flag="0"/>
			<psa03 value="0.0246621702060929" flag="0"/>
			<psa10 value="0.00146379380509118" flag="0"/>
			<psa30 value="0.000173989755134091" flag="0"/>
		</comp>
	</station>
</stationlist>
