<?xml version="1.0" encoding="UTF-8" standalone="yes"?>
<!DOCTYPE earthquake SYSTEM "stationlist.dtd">
<stationlist created="" xmlns="ch.ethz.sed.shakemap.usgs.xml">
  <station code="BNN" name="BNN" netid="KO" insttype="CMG-3T" lat="38.8521" lon="35.8472">
    <comp name="--.HHE">
      <acc value="0.0179459827" flag="0"/>
      <vel value="0.0080971221" flag="0"/>
      <psa03 value="0.0540329735" flag="0"/>
      <psa10 value="0.0085191309" flag="0"/>
      <psa30 value="0.0008846094" flag="0"/>
    </comp>
    <comp name="--.HHZ">
      <acc value="0.0094250084" flag="0"/>
      <vel value="0.0051638251" flag="0"/>
      <psa03 value="0.0258694354" flag="0"/>
      <psa10 value="0.0107757571" flag="0"/>
      <psa30 value="0.0007431008" flag="0"/>
    </comp>
    <comp name="--.HHN">
      <acc value="0.0163389279" flag="0"/>
      <vel value="0.0069282497" flag="0"/>
      <psa03 value="0.0475420588" flag="0"/>
      <psa10 value="0.0087496076" flag="0"/>
      <psa30 value="0.0009885830" flag="0"/>
    </comp>
  </station>
  <station code="GULA" name="GULA" netid="KO" insttype="CMG-6T" lat="38.3444" lon="34.236">
    <comp name="--.HHE">
      <acc value="0.0101011513" flag="0"/>
      <vel value="0.0044643488" flag="0"/>
      <psa03 value="0.0108447586" flag="0"/>
      <psa10 value="0.0015370334" flag="0"/>
      <psa30 value="0.0001709260" flag="0"/>
    </comp>
    <comp name="--.HHZ">
      <acc value="0.0041190834" flag="0"/>
      <vel value="0.0017973941" flag="0"/>
      <psa03 value="0.0105246726" flag="0"/>
      <psa10 value="0.0014139110" flag="0"/>
      <psa30 value="0.0002376288" flag="0"/>
    </comp>
    <comp name="--.HHN">
      <acc value="0.0067327378" flag="0"/>
      <vel value="0.0032662271" flag="0"/>
      <psa03 value="0.0119799984" flag="0"/>
      <psa10 value="0.0023879406" flag="0"/>
      <psa30 value="0.0001612656" flag="0"/>
    </comp>
  </station>
  <station code="KOZK" name="KOZK" netid="KO" insttype="CMG-5T" lat="39.2101" lon="34.868">
    <comp name="--.HNE">
      <acc value="0.0759050691" flag="0"/>
      <vel value="0.0262355334" flag="0"/>
      <psa03 value="0.0882745000" flag="0"/>
      <psa10 value="0.0189948616" flag="0"/>
      <psa30 value="0.0015252892" flag="0"/>
    </comp>
    <comp name="--.HNN">
      <acc value="0.0842287543" flag="0"/>
      <vel value="0.0195321238" flag="0"/>
      <psa03 value="0.1256451482" flag="0"/>
      <psa10 value="0.0228167650" flag="0"/>
      <psa30 value="0.0016635317" flag="0"/>
    </comp>
    <comp name="--.HNZ">
      <acc value="0.0439736846" flag="0"/>
      <vel value="0.0106473300" flag="0"/>
      <psa03 value="0.0506852091" flag="0"/>
      <psa10 value="0.0056891407" flag="0"/>
      <psa30 value="0.0005165454" flag="0"/>
    </comp>
  </station>
  <station code="SARI" name="SARI" netid="KO" insttype="CMG-3T" lat="38.4072" lon="36.4181">
    <comp name="--.HHN">
      <acc value="0.0074381405" flag="0"/>
      <vel value="0.0043961753" flag="0"/>
      <psa03 value="0.0253174779" flag="0"/>
      <psa10 value="0.0030021300" flag="0"/>
      <psa30 value="0.0005063034" flag="0"/>
    </comp>
    <comp name="--.HHE">
      <acc value="0.0084406059" flag="0"/>
      <vel value="0.0042116540" flag="0"/>
      <psa03 value="0.0166270181" flag="0"/>
      <psa10 value="0.0032386300" flag="0"/>
      <psa30 value="0.0003175609" flag="0"/>
    </comp>
    <comp name="--.HHZ">
      <acc value="0.0063960175" flag="0"/>
      <vel value="0.0032481165" flag="0"/>
      <psa03 value="0.0177972711" flag="0"/>
      <psa10 value="0.0024095657" flag="0"/>
      <psa30 value="0.0002434789" flag="0"/>
    </comp>
  </station>
  <station code="YOZ" name="YOZ" netid="KO" insttype="CMG-3T" lat="39.6376" lon="35.3152">
    <comp name="--.HHN">
      <acc value="0.0287481796" flag="0"/>
      <vel value="0.0089597301" flag="0"/>
      <psa03 value="0.0404213331" flag="0"/>
      <psa10 value="0.0049254239" flag="0"/>
      <psa30 value="0.0003385999" flag="0"/>
    </comp>
    <comp name="--.HHE">
      <acc value="0.0326418385" flag="0"/>
      <vel value="0.0117951471" flag="0"/>
      <psa03 value="0.0737507593" flag="0"/>
      <psa10 value="0.0031368088" flag="0"/>
      <psa30 value="0.0003083030" flag="0"/>
    </comp>
  </station>
</stationlist>
