<?xml version="1.0" encoding="UTF-8" standalone="yes"?>
<!DOCTYPE earthquake SYSTEM "stationlist.dtd">
<stationlist created="" xmlns="ch.ethz.sed.shakemap.usgs.xml">
  <station code="BISRR" name="BISRR" netid="RO" insttype="CMG40T.1to100/Basalt" lat="45.5481" lon="26.7099">
    <comp name="--.HHN">
      <acc value="0.0009520612" flag="0"/>
      <vel value="0.0002663936" flag="0"/>
      <psa03 value="0.0009310697" flag="0"/>
      <psa10 value="0.0001041167" flag="0"/>
      <psa30 value="0.0000091027" flag="0"/>
    </comp>
    <comp name="--.HHE">
      <acc value="0.0501845063" flag="0"/>
      <vel value="0.0260966394" flag="0"/>
      <psa03 value="0.1594701534" flag="0"/>
      <psa10 value="0.0203909632" flag="0"/>
      <psa30 value="0.0010921414" flag="0"/>
    </comp>
    <comp name="--.HHZ">
      <acc value="0.0274980233" flag="0"/>
      <vel value="0.0117538944" flag="0"/>
      <psa03 value="0.0861912832" flag="0"/>
      <psa10 value="0.0088728681" flag="0"/>
      <psa30 value="0.0007287526" flag="0"/>
    </comp>
  </station>
  <station code="GHRR" name="GHRR" netid="RO" insttype="w/attenuator" lat="46.0605" lon="27.408">
    <comp name="--.HHN">
      <acc value="0.0711769573" flag="0"/>
      <vel value="0.0199199434" flag="0"/>
      <psa03 value="0.0965388922" flag="0"/>
      <psa10 value="0.0074157977" flag="0"/>
      <psa30 value="0.0009309073" flag="0"/>
    </comp>
    <comp name="--.HHZ">
      <acc value="0.0347217837" flag="0"/>
      <vel value="0.0107511759" flag="0"/>
      <psa03 value="0.0573352352" flag="0"/>
      <psa10 value="0.0022184257" flag="0"/>
      <psa30 value="0.0001947717" flag="0"/>
    </comp>
    <comp name="--.HHE">
      <acc value="0.0719979097" flag="0"/>
      <vel value="0.0198641077" flag="0"/>
      <psa03 value="0.1140904236" flag="0"/>
      <psa10 value="0.0057836560" flag="0"/>
      <psa30 value="0.0003420138" flag="0"/>
    </comp>
  </station>
  <station code="MLR" name="MLR" netid="RO" insttype="330HR" lat="45.4909" lon="25.945">
    <comp name="--.HHE">
      <acc value="0.1072881072" flag="0"/>
      <vel value="0.0576013857" flag="0"/>
      <psa03 value="0.3432629291" flag="0"/>
      <psa10 value="0.0398785480" flag="0"/>
      <psa30 value="0.0029137570" flag="0"/>
    </comp>
    <comp name="--.HHZ">
      <acc value="0.0068259286" flag="0"/>
      <vel value="0.0043140724" flag="0"/>
      <psa03 value="0.0187330807" flag="0"/>
      <psa10 value="0.0016583157" flag="0"/>
      <psa30 value="0.0001593790" flag="0"/>
    </comp>
    <comp name="--.HHN">
      <acc value="0.0610109146" flag="0"/>
      <vel value="0.0387653613" flag="0"/>
      <psa03 value="0.3126519507" flag="0"/>
      <psa10 value="0.0270368916" flag="0"/>
      <psa30 value="0.0039100170" flag="0"/>
    </comp>
  </station>
  <station code="PLOR" name="PLOR" netid="RO" insttype="330" lat="45.8512" lon="26.6498">
    <comp name="--.HHE">
      <acc value="0.0136729072" flag="0"/>
      <vel value="0.0058291616" flag="0"/>
      <psa03 value="0.0384519805" flag="0"/>
      <psa10 value="0.0034159983" flag="0"/>
      <psa30 value="0.0002124354" flag="0"/>
    </comp>
    <comp name="--.HHN">
      <acc value="0.0077029515" flag="0"/>
      <vel value="0.0040203663" flag="0"/>
      <psa03 value="0.0349313577" flag="0"/>
      <psa10 value="0.0021014527" flag="0"/>
      <psa30 value="0.0001686372" flag="0"/>
    </comp>
    <comp name="--.HHZ">
      <acc value="0.0054081039" flag="0"/>
      <vel value="0.0017429573" flag="0"/>
      <psa03 value="0.0110171515" flag="0"/>
      <psa10 value="0.0008941934" flag="0"/>
      <psa30 value="0.0000638093" flag="0"/>
    </comp>
  </station>
  <station code="PLOR4" name="PLOR4" netid="RO" insttype="330" lat="45.8512" lon="26.6498">
    <comp name="--.HHE">
      <acc value="0.0136729072" flag="0"/>
      <vel value="0.0058291616" flag="0"/>
      <psa03 value="0.0384519805" flag="0"/>
      <psa10 value="0.0034159983" flag="0"/>
      <psa30 value="0.0002124354" flag="0"/>
    </comp>
    <comp name="--.HHN">
      <acc value="0.0077029515" flag="0"/>
      <vel value="0.0040203663" flag="0"/>
      <psa03 value="0.0349313577" flag="0"/>
      <psa10 value="0.0021014527" flag="0"/>
      <psa30 value="0.0001686372" flag="0"/>
    </comp>
    <comp name="--.HHZ">
      <acc value="0.0054081039" flag="0"/>
      <vel value="0.0017429573" flag="0"/>
      <psa03 value="0.0110171515" flag="0"/>
      <psa10 value="0.0008941934" flag="0"/>
      <psa30 value="0.0000638093" flag="0"/>
    </comp>
  </station>
  <station code="SULR" name="SULR" netid="RO" insttype="330" lat="44.6777" lon="26.2526">
    <comp name="--.HHE">
      <acc value="0.0421380744" flag="0"/>
      <vel value="0.0169917008" flag="0"/>
      <psa03 value="0.0707026466" flag="0"/>
      <psa10 value="0.0062214524" flag="0"/>
      <psa30 value="0.0005133330" flag="0"/>
    </comp>
    <comp name="--.HHN">
      <acc value="0.0287306791" flag="0"/>
      <vel value="0.0162318523" flag="0"/>
      <psa03 value="0.1053207183" flag="0"/>
      <psa10 value="0.0063638846" flag="0"/>
      <psa30 value="0.0005811183" flag="0"/>
    </comp>
    <comp name="--.HHZ">
      <acc value="0.0398844865" flag="0"/>
      <vel value="0.0076201372" flag="0"/>
      <psa03 value="0.0338195027" flag="0"/>
      <psa10 value="0.0017958338" flag="0"/>
      <psa30 value="0.0001609916" flag="0"/>
    </comp>
  </station>
  <station code="VRI" name="VRI" netid="RO" insttype="Linear" lat="45.8657" lon="26.7277">
    <comp name="--.HHZ">
      <acc value="0.0186289153" flag="0"/>
      <vel value="0.0049114707" flag="0"/>
      <psa03 value="0.0267035739" flag="0"/>
      <psa10 value="0.0025924495" flag="0"/>
      <psa30 value="0.0001356158" flag="0"/>
    </comp>
    <comp name="--.HHE">
      <acc value="0.0556710085" flag="0"/>
      <vel value="0.0274068285" flag="0"/>
      <psa03 value="0.2051415835" flag="0"/>
      <psa10 value="0.0082273908" flag="0"/>
      <psa30 value="0.0008596923" flag="0"/>
    </comp>
    <comp name="--.HHN">
      <acc value="0.0242303164" flag="0"/>
      <vel value="0.0123880279" flag="0"/>
      <psa03 value="0.1203678044" flag="0"/>
      <psa10 value="0.0071693611" flag="0"/>
      <psa30 value="0.0004485849" flag="0"/>
    </comp>
  </station>
</stationlist>
