<?xml version="1.0" encoding="UTF-8" standalone="yes"?>
<!DOCTYPE earthquake SYSTEM "stationlist.dtd">
<stationlist created="" xmlns="ch.ethz.sed.shakemap.usgs.xml">
  <station code="KYHL" name="KYHL" netid="KO" insttype="CMG-5T" lat="40.3244" lon="37.8955">
    <comp name="--.HNE">
      <acc value="0.0494330572" flag="0"/>
      <vel value="0.0543542620" flag="0"/>
      <psa03 value="0.0804299379" flag="0"/>
      <psa10 value="0.0782693285" flag="0"/>
      <psa30 value="0.0082313858" flag="0"/>
    </comp>
    <comp name="--.HNN">
      <acc value="0.0412265357" flag="0"/>
      <vel value="0.0399103027" flag="0"/>
      <psa03 value="0.0727046359" flag="0"/>
      <psa10 value="0.0449614800" flag="0"/>
      <psa30 value="0.0054243301" flag="0"/>
    </comp>
    <comp name="--.HNZ">
      <acc value="0.0210315510" flag="0"/>
      <vel value="0.0248725950" flag="0"/>
      <psa03 value="0.0353045051" flag="0"/>
      <psa10 value="0.0498278525" flag="0"/>
      <psa30 value="0.0053443990" flag="0"/>
    </comp>
  </station>
</stationlist>
