<?xml version="1.0" encoding="UTF-8" standalone="yes"?>
<!DOCTYPE earthquake SYSTEM "stationlist.dtd">
<stationlist created="" xmlns="ch.ethz.sed.shakemap.usgs.xml">
  <station code="ARPRA" name="ARPRA" netid="KO" insttype="CMG-5T" lat="39.0929" lon="38.3356">
    <comp name="--.HNE">
      <acc value="0.2080218567" flag="0"/>
      <vel value="0.2219549680" flag="0"/>
      <psa03 value="0.3272493443" flag="0"/>
      <psa10 value="0.2920457202" flag="0"/>
      <psa30 value="0.0426521566" flag="0"/>
    </comp>
    <comp name="--.HNZ">
      <acc value="0.0814239600" flag="0"/>
      <vel value="0.1181763140" flag="0"/>
      <psa03 value="0.1835816859" flag="0"/>
      <psa10 value="0.2265815898" flag="0"/>
      <psa30 value="0.0196564353" flag="0"/>
    </comp>
    <comp name="--.HNN">
      <acc value="0.1473852740" flag="0"/>
      <vel value="0.1726731768" flag="0"/>
      <psa03 value="0.3412534872" flag="0"/>
      <psa10 value="0.3346026868" flag="0"/>
      <psa30 value="0.0318254256" flag="0"/>
    </comp>
  </station>
</stationlist>
