<stationlist created="1675692192">
	<station code="ARPRA" name="ARPRA" netid="KO" source="Bogazici University Kandilli Observatory And Earthquake Research Institute (KOERI)" insttype="" lat="39.0929" lon="38.3356">
		<comp name=".HNE" depth="0.0">
			<acc value="0.207937692534" flag="0"/>
			<vel value="0.214232781284" flag="0"/>
			<psa03 value="0.323476595403" flag="0"/>
			<psa10 value="0.292122391675" flag="0"/>
			<psa30 value="0.0429278337583" flag="0"/>
		</comp>
		<comp name=".HNN" depth="0.0">
			<acc value="0.14764145086" flag="0"/>
			<vel value="0.178481975091" flag="0"/>
			<psa03 value="0.342151311678" flag="0"/>
			<psa10 value="0.335117819911" flag="0"/>
			<psa30 value="0.032858916742" flag="0"/>
		</comp>
		<comp name=".HNZ" depth="0.0">
			<acc value="0.0811871543928" flag="0"/>
			<vel value="0.120055189096" flag="0"/>
			<psa03 value="0.18582926861" flag="0"/>
			<psa10 value="0.226931148075" flag="0"/>
			<psa30 value="0.019523146646" flag="0"/>
		</comp>
	</station>
	<station code="CMRD" name="CMRD" netid="KO" source="Bogazici University Kandilli Observatory And Earthquake Research Institute (KOERI)" insttype="" lat="37.6623" lon="34.9902">
		<comp name=".HNE" depth="0.0">
			<acc value="0.00981018194496" flag="0"/>
			<vel value="0.0166462182678" flag="0"/>
			<psa03 value="0.0122053710459" flag="0"/>
			<psa10 value="0.029565027288" flag="0"/>
			<psa30 value="0.00299402271431" flag="0"/>
		</comp>
		<comp name=".HNN" depth="0.0">
			<acc value="0.0113410737" flag="0"/>
			<vel value="0.016634028923" flag="0"/>
			<psa03 value="0.0251770194165" flag="0"/>
			<psa10 value="0.019611581046" flag="0"/>
			<psa30 value="0.00370055055998" flag="0"/>
		</comp>
		<comp name=".HNZ" depth="0.0">
			<acc value="0.00968189033447" flag="0"/>
			<vel value="0.0156343030294" flag="0"/>
			<psa03 value="0.0147265706151" flag="0"/>
			<psa10 value="0.0311248999969" flag="0"/>
			<psa30 value="0.00428831949679" flag="0"/>
		</comp>
	</station>
	<station code="ERBG" name="ERBG" netid="KO" source="Bogazici University Kandilli Observatory And Earthquake Research Institute (KOERI)" insttype="" lat="40.712" lon="36.6768">
		<comp name=".HNE" depth="0.0">
			<acc value="0.00908149301199" flag="0"/>
			<vel value="0.0147313144418" flag="0"/>
			<psa03 value="0.00913936455262" flag="0"/>
			<psa10 value="0.02037562291" flag="0"/>
			<psa30 value="0.00420689285267" flag="0"/>
		</comp>
		<comp name=".HNN" depth="0.0">
			<acc value="0.00926466447957" flag="0"/>
			<vel value="0.0151920099589" flag="0"/>
			<psa03 value="0.0105245572263" flag="0"/>
			<psa10 value="0.0326903230735" flag="0"/>
			<psa30 value="0.003895478473" flag="0"/>
		</comp>
		<comp name=".HNZ" depth="0.0">
			<acc value="0.00470332331534" flag="0"/>
			<vel value="0.00924170981823" flag="0"/>
			<psa03 value="0.00543446156892" flag="0"/>
			<psa10 value="0.0175327545839" flag="0"/>
			<psa30 value="0.00292607050448" flag="0"/>
		</comp>
	</station>
	<station code="GUMT" name="GUMT" netid="KO" source="Bogazici University Kandilli Observatory And Earthquake Research Institute (KOERI)" insttype="" lat="40.4665" lon="39.478">
		<comp name=".HNE" depth="0.0">
			<acc value="0.00558418913365" flag="0"/>
			<vel value="0.0133624338492" flag="0"/>
			<psa03 value="0.00847627440221" flag="0"/>
			<psa10 value="0.0149430983444" flag="0"/>
			<psa30 value="0.00422671916607" flag="0"/>
		</comp>
		<comp name=".HNN" depth="0.0">
			<acc value="0.00436004676563" flag="0"/>
			<vel value="0.0161590697121" flag="0"/>
			<psa03 value="0.0057457823226" flag="0"/>
			<psa10 value="0.0190482149757" flag="0"/>
			<psa30 value="0.00457335421227" flag="0"/>
		</comp>
		<comp name=".HNZ" depth="0.0">
			<acc value="0.00465861985725" flag="0"/>
			<vel value="0.00950003288395" flag="0"/>
			<psa03 value="0.00808001312578" flag="0"/>
			<psa10 value="0.0127991328797" flag="0"/>
			<psa30 value="0.00505855427104" flag="0"/>
		</comp>
	</station>
	<station code="KOZK" name="KOZK" netid="KO" source="Bogazici University Kandilli Observatory And Earthquake Research Institute (KOERI)" insttype="" lat="39.2101" lon="34.868">
		<comp name=".HNE" depth="0.0">
			<acc value="0.0239739385575" flag="0"/>
			<vel value="0.0435399559739" flag="0"/>
			<psa03 value="0.0277143697951" flag="0"/>
			<psa10 value="0.0926974932538" flag="0"/>
			<psa30 value="0.0135168995949" flag="0"/>
		</comp>
		<comp name=".HNN" depth="0.0">
			<acc value="0.0269430363614" flag="0"/>
			<vel value="0.0454757111619" flag="0"/>
			<psa03 value="0.0318630795226" flag="0"/>
			<psa10 value="0.0926631484788" flag="0"/>
			<psa30 value="0.00956069918271" flag="0"/>
		</comp>
		<comp name=".HNZ" depth="0.0">
			<acc value="0.00880579535886" flag="0"/>
			<vel value="0.0158618372419" flag="0"/>
			<psa03 value="0.0209806164254" flag="0"/>
			<psa10 value="0.0250349034395" flag="0"/>
			<psa30 value="0.00388978184562" flag="0"/>
		</comp>
	</station>
	<station code="KRTS" name="KRTS" netid="KO" source="Bogazici University Kandilli Observatory And Earthquake Research Institute (KOERI)" insttype="" lat="36.573" lon="35.375">
		<comp name=".HNE" depth="0.0">
			<acc value="0.0231757789258" flag="0"/>
			<vel value="0.0311455068057" flag="0"/>
			<psa03 value="0.061135164488" flag="0"/>
			<psa10 value="0.045828797183" flag="0"/>
			<psa30 value="0.0119945137443" flag="0"/>
		</comp>
		<comp name=".HNN" depth="0.0">
			<acc value="0.0208305530082" flag="0"/>
			<vel value="0.0322848371641" flag="0"/>
			<psa03 value="0.0469863886594" flag="0"/>
			<psa10 value="0.0453336593824" flag="0"/>
			<psa30 value="0.0110014804608" flag="0"/>
		</comp>
		<comp name=".HNZ" depth="0.0">
			<acc value="0.0120525452287" flag="0"/>
			<vel value="0.0194049506732" flag="0"/>
			<psa03 value="0.0265370391986" flag="0"/>
			<psa10 value="0.0225182523487" flag="0"/>
			<psa30 value="0.00781320091956" flag="0"/>
		</comp>
	</station>
	<station code="KYHL" name="KYHL" netid="KO" source="Bogazici University Kandilli Observatory And Earthquake Research Institute (KOERI)" insttype="" lat="40.3244" lon="37.8955">
		<comp name=".HNE" depth="0.0">
			<acc value="0.0499882899168" flag="0"/>
			<vel value="0.0558360928609" flag="0"/>
			<psa03 value="0.0818151490189" flag="0"/>
			<psa10 value="0.0790376783583" flag="0"/>
			<psa30 value="0.00855208403358" flag="0"/>
		</comp>
		<comp name=".HNN" depth="0.0">
			<acc value="0.0413073458207" flag="0"/>
			<vel value="0.0406357421839" flag="0"/>
			<psa03 value="0.0728273400787" flag="0"/>
			<psa10 value="0.0450470616466" flag="0"/>
			<psa30 value="0.00548223358775" flag="0"/>
		</comp>
		<comp name=".HNZ" depth="0.0">
			<acc value="0.0209489853704" flag="0"/>
			<vel value="0.0250029892022" flag="0"/>
			<psa03 value="0.0358057912288" flag="0"/>
			<psa10 value="0.049881308142" flag="0"/>
			<psa30 value="0.0052007670253" flag="0"/>
		</comp>
	</station>
</stationlist>
