<stationlist xmlns:esm="https://esm-db.eu/esmws/shakemap/1/" created="1782093242">
	<station code="BMR" name="BMR" netid="RO" source="Romanian Seismic Network (NIEP)" insttype="" lat="47.6728" lon="23.4969" esm:processing="manual (Paolucci et al 2011)" esm:quality="best">
		<comp name="--.HNE" depth="0.0">
			<acc value="0.256625588848409" flag="0"/>
			<vel value="0.0679235097268883" flag="0"/>
			<psa03 value="0.368221017835139" flag="0"/>
			<psa10 value="0.0259401834098447" flag="0"/>
			<psa30 value="0.00213995738667637" flag="0"/>
		</comp>
		<comp name="--.HNN" depth="0.0">
			<acc value="0.250250574028703" flag="0"/>
			<vel value="0.0697558673663025" flag="0"/>
			<psa03 value="0.387687515728411" flag="0"/>
			<psa10 value="0.0194970259572757" flag="0"/>
			<psa30 value="0.00141057573538688" flag="0"/>
		</comp>
		<comp name="--.HNZ" depth="0.0">
			<acc value="0.106581270633499" flag="0"/>
			<vel value="0.0361520600545837" flag="0"/>
			<psa03 value="0.227375145820623" flag="0"/>
			<psa10 value="0.010484048266726" flag="0"/>
			<psa30 value="0.000722106013063599" flag="0"/>
		</comp>
	</station>
	<station code="CEIR" name="CEIR" netid="RO" source="Romanian Seismic Network (NIEP)" insttype="" lat="47.6855" lon="22.496" esm:processing="manual (Paolucci et al 2011)" esm:quality="good">
		<comp name="--.HNE" depth="0.0">
			<acc value="0.160975938991439" flag="0"/>
			<vel value="0.0641170434064664" flag="0"/>
			<psa03 value="0.362297875456084" flag="0"/>
			<psa10 value="0.0264914305522567" flag="0"/>
			<psa30 value="0.00270734122306816" flag="0"/>
		</comp>
		<comp name="--.HNN" depth="0.0">
			<acc value="0.0633277068270619" flag="0"/>
			<vel value="0.0440502231402102" flag="0"/>
			<psa03 value="0.106686952903596" flag="0"/>
			<psa10 value="0.0789125475690931" flag="0"/>
			<psa30 value="0.00443917073994125" flag="0"/>
		</comp>
		<comp name="--.HNZ" depth="0.0">
			<acc value="0.0783716605638931" flag="0"/>
			<vel value="0.0340421242670172" flag="0"/>
			<psa03 value="0.197366512062748" flag="0"/>
			<psa10 value="0.0103830278246272" flag="0"/>
			<psa30 value="0.00185359612497752" flag="0"/>
		</comp>
	</station>
	<station code="MARR" name="MARR" netid="RO" source="Romanian Seismic Network (NIEP)" insttype="" lat="46.676" lon="23.1189" esm:processing="manual (Paolucci et al 2011)" esm:quality="best">
		<comp name="--.HNE" depth="0.0">
			<acc value="0.0148004896584288" flag="0"/>
			<vel value="0.00615770463990039" flag="0"/>
			<psa03 value="0.0271492490253212" flag="0"/>
			<psa10 value="0.00449945337920967" flag="0"/>
			<psa30 value="0.000216272048316007" flag="0"/>
		</comp>
		<comp name="--.HNN" depth="0.0">
			<acc value="0.0119202797495047" flag="0"/>
			<vel value="0.00329075073467057" flag="0"/>
			<psa03 value="0.0226751818070259" flag="0"/>
			<psa10 value="0.00214898095318951" flag="0"/>
			<psa30 value="0.000128453561501416" flag="0"/>
		</comp>
		<comp name="--.HNZ" depth="0.0">
			<acc value="0.0101759133154517" flag="0"/>
			<vel value="0.00348749930095433" flag="0"/>
			<psa03 value="0.0221924701422315" flag="0"/>
			<psa10 value="0.00285221371078381" flag="0"/>
			<psa30 value="0.000150713239220975" flag="0"/>
		</comp>
	</station>
</stationlist>
