<stationlist created="1771466527">
	<station code="BMR" name="BMR" netid="RO" source="Romanian Seismic Network (NIEP)" insttype="" lat="47.6728" lon="23.4969">
		<comp name="--.HNE" depth="0.0">
			<acc value="0.2548269973614" flag="0"/>
			<vel value="0.0673413138297" flag="0"/>
			<psa03 value="0.368221017835139" flag="0"/>
			<psa10 value="0.0259401834098447" flag="0"/>
			<psa30 value="0.00213995738667637" flag="0"/>
		</comp>
		<comp name="--.HNN" depth="0.0">
			<acc value="0.24924076680696" flag="0"/>
			<vel value="0.0691626077664" flag="0"/>
			<psa03 value="0.387687515728411" flag="0"/>
			<psa10 value="0.0194970259572757" flag="0"/>
			<psa30 value="0.00141057573538688" flag="0"/>
		</comp>
		<comp name="--.HNZ" depth="0.0">
			<acc value="0.10593390819684" flag="0"/>
			<vel value="0.0358809779099" flag="0"/>
			<psa03 value="0.227375145820623" flag="0"/>
			<psa10 value="0.010484048266726" flag="0"/>
			<psa30 value="0.000722106013063599" flag="0"/>
		</comp>
	</station>
	<station code="CEIR" name="CEIR" netid="RO" source="Romanian Seismic Network (NIEP)" insttype="" lat="47.6855" lon="22.496">
		<comp name="--.HNE" depth="0.0">
			<acc value="0.16062708388746" flag="0"/>
			<vel value="0.0638250128585" flag="0"/>
			<psa03 value="0.362297875456084" flag="0"/>
			<psa10 value="0.0264914305522567" flag="0"/>
			<psa30 value="0.00270734122306816" flag="0"/>
		</comp>
		<comp name="--.HNN" depth="0.0">
			<acc value="0.062979686384868" flag="0"/>
			<vel value="0.0440321213075" flag="0"/>
			<psa03 value="0.106686952903596" flag="0"/>
			<psa10 value="0.0789125475690931" flag="0"/>
			<psa30 value="0.00443917073994125" flag="0"/>
		</comp>
		<comp name="--.HNZ" depth="0.0">
			<acc value="0.078051077618844" flag="0"/>
			<vel value="0.0339600933598" flag="0"/>
			<psa03 value="0.197366512062748" flag="0"/>
			<psa10 value="0.0103830278246272" flag="0"/>
			<psa30 value="0.00185359612497752" flag="0"/>
		</comp>
	</station>
	<station code="MARR" name="MARR" netid="RO" source="Romanian Seismic Network (NIEP)" insttype="" lat="46.676" lon="23.1189">
		<comp name="--.HNE" depth="0.0">
			<acc value="0.014713255515282" flag="0"/>
			<vel value="0.00611995593412" flag="0"/>
			<psa03 value="0.0271492490253212" flag="0"/>
			<psa10 value="0.00449945337920967" flag="0"/>
			<psa30 value="0.000216272048316007" flag="0"/>
		</comp>
		<comp name="--.HNN" depth="0.0">
			<acc value="0.0118282520151" flag="0"/>
			<vel value="0.00326688248136" flag="0"/>
			<psa03 value="0.0226751818070259" flag="0"/>
			<psa10 value="0.00214898095318951" flag="0"/>
			<psa30 value="0.000128453561501416" flag="0"/>
		</comp>
		<comp name="--.HNZ" depth="0.0">
			<acc value="0.0100746960448632" flag="0"/>
			<vel value="0.00348011545552" flag="0"/>
			<psa03 value="0.0221924701422315" flag="0"/>
			<psa10 value="0.00285221371078381" flag="0"/>
			<psa30 value="0.000150713239220975" flag="0"/>
		</comp>
	</station>
	<station code="MESR" name="MESR" netid="RO" source="Romanian Seismic Network (NIEP)" insttype="" lat="47.1499" lon="22.9494">
		<comp name="--.HNE" depth="0.0">
			<acc value="0.04996246481637" flag="0"/>
			<vel value="0.0188609979575" flag="0"/>
			<psa03 value="0.0820892036316796" flag="0"/>
			<psa10 value="0.0155800217874989" flag="0"/>
			<psa30 value="0.00072961104148218" flag="0"/>
		</comp>
		<comp name="--.HNN" depth="0.0">
			<acc value="0.054611595879786" flag="0"/>
			<vel value="0.0255942062571" flag="0"/>
			<psa03 value="0.101960077271191" flag="0"/>
			<psa10 value="0.0161572290871353" flag="0"/>
			<psa30 value="0.00084636992202086" flag="0"/>
		</comp>
		<comp name="--.HNZ" depth="0.0">
			<acc value="0.02695134699318" flag="0"/>
			<vel value="0.00797915582713" flag="0"/>
			<psa03 value="0.0422575311248823" flag="0"/>
			<psa10 value="0.00673263678541232" flag="0"/>
			<psa30 value="0.000373271836802182" flag="0"/>
		</comp>
	</station>
</stationlist>
