<?xml version="1.0" encoding="UTF-8" standalone="yes"?>
<!DOCTYPE earthquake SYSTEM "stationlist.dtd">
<stationlist created="" xmlns="ch.ethz.sed.shakemap.usgs.xml">
  <station code="BMR" name="BMR" netid="RO" insttype="200" commtype="DIG" lat="47.6728" lon="23.4969">
    <comp name="--.HNZ">
      <acc value="0.1048792868" flag="0"/>
      <vel value="0.0356692485" flag="0"/>
      <psa03 value="0.2243672931" flag="0"/>
      <psa10 value="0.0104623652" flag="0"/>
      <psa30 value="0.0007049566" flag="0"/>
    </comp>
    <comp name="--.HNE">
      <acc value="0.2588522215" flag="0"/>
      <vel value="0.0664732930" flag="0"/>
      <psa03 value="0.3676318864" flag="0"/>
      <psa10 value="0.0258091224" flag="0"/>
      <psa30 value="0.0020402597" flag="0"/>
    </comp>
    <comp name="--.HNN">
      <acc value="0.2505602020" flag="0"/>
      <vel value="0.0690634963" flag="0"/>
      <psa03 value="0.3747458770" flag="0"/>
      <psa10 value="0.0193901843" flag="0"/>
      <psa30 value="0.0013597206" flag="0"/>
    </comp>
  </station>
  <station code="CEIR" name="CEIR" netid="RO" insttype="200" commtype="DIG" lat="47.6855" lon="22.496">
    <comp name="--.HNN">
      <acc value="0.0631995981" flag="0"/>
      <vel value="0.0439093566" flag="0"/>
      <psa03 value="0.1043206190" flag="0"/>
      <psa10 value="0.0787483324" flag="0"/>
      <psa30 value="0.0042728742" flag="0"/>
    </comp>
    <comp name="--.HNZ">
      <acc value="0.0785606845" flag="0"/>
      <vel value="0.0339354825" flag="0"/>
      <psa03 value="0.1925947550" flag="0"/>
      <psa10 value="0.0103692160" flag="0"/>
      <psa30 value="0.0009960003" flag="0"/>
    </comp>
    <comp name="--.HNE">
      <acc value="0.1602746863" flag="0"/>
      <vel value="0.0636428575" flag="0"/>
      <psa03 value="0.3604430380" flag="0"/>
      <psa10 value="0.0265051861" flag="0"/>
      <psa30 value="0.0026174154" flag="0"/>
    </comp>
  </station>
  <station code="MESR" name="MESR" netid="RO" insttype="200" commtype="DIG" lat="47.1499" lon="22.9494">
    <comp name="--.HNE">
      <acc value="0.0503100448" flag="0"/>
      <vel value="0.0187476655" flag="0"/>
      <psa03 value="0.0815983886" flag="0"/>
      <psa10 value="0.0155409504" flag="0"/>
      <psa30 value="0.0007383947" flag="0"/>
    </comp>
    <comp name="--.HNN">
      <acc value="0.0543142980" flag="0"/>
      <vel value="0.0253915611" flag="0"/>
      <psa03 value="0.1011449721" flag="0"/>
      <psa10 value="0.0161598627" flag="0"/>
      <psa30 value="0.0008265868" flag="0"/>
    </comp>
    <comp name="--.HNZ">
      <acc value="0.0274113862" flag="0"/>
      <vel value="0.0079643234" flag="0"/>
      <psa03 value="0.0412192032" flag="0"/>
      <psa10 value="0.0067165213" flag="0"/>
      <psa30 value="0.0003430722" flag="0"/>
    </comp>
  </station>
</stationlist>
