<?xml version="1.0" encoding="UTF-8" standalone="yes"?>
<!DOCTYPE earthquake SYSTEM "stationlist.dtd">
<stationlist created="" xmlns="ch.ethz.sed.shakemap.usgs.xml">
  <station code="LTVH" name="LTVH" netid="HU" insttype="" commtype="DIG" lat="47.3849" lon="21.9007">
    <comp name="--.HHZ">
      <acc value="0.0132825369" flag="0"/>
      <vel value="0.0060036925" flag="0"/>
      <psa03 value="0.0375381353" flag="0"/>
      <psa10 value="0.0038099538" flag="0"/>
      <psa30 value="0.0001896946" flag="0"/>
    </comp>
    <comp name="--.HHE">
      <acc value="0.0239912417" flag="0"/>
      <vel value="0.0128461819" flag="0"/>
      <psa03 value="0.0599488513" flag="0"/>
      <psa10 value="0.0074784383" flag="0"/>
      <psa30 value="0.0005025972" flag="0"/>
    </comp>
    <comp name="--.HHN">
      <acc value="0.0451429162" flag="0"/>
      <vel value="0.0287425347" flag="0"/>
      <psa03 value="0.1351942354" flag="0"/>
      <psa10 value="0.0201029504" flag="0"/>
      <psa30 value="0.0015479975" flag="0"/>
    </comp>
  </station>
  <station code="TRPA" name="TRPA" netid="HU" insttype="" commtype="DIG" lat="48.1304" lon="22.5391">
    <comp name="--.HHE">
      <acc value="0.0606866022" flag="0"/>
      <vel value="0.0119153306" flag="0"/>
      <psa03 value="0.0340956755" flag="0"/>
      <psa10 value="0.0064321899" flag="0"/>
      <psa30 value="0.0004489648" flag="0"/>
    </comp>
    <comp name="--.HHZ">
      <acc value="0.0324280800" flag="0"/>
      <vel value="0.0049336015" flag="0"/>
      <psa03 value="0.0169727960" flag="0"/>
      <psa10 value="0.0042763370" flag="0"/>
      <psa30 value="0.0003674845" flag="0"/>
    </comp>
    <comp name="--.HHN">
      <acc value="0.0429189059" flag="0"/>
      <vel value="0.0076290917" flag="0"/>
      <psa03 value="0.0326616670" flag="0"/>
      <psa10 value="0.0054990719" flag="0"/>
      <psa30 value="0.0008436921" flag="0"/>
    </comp>
  </station>
  <station code="BMR" name="BMR" netid="RO" insttype="CMG40T.1to100/Quanterra" commtype="DIG" lat="47.6728" lon="23.4969">
    <comp name="--.HHE">
      <acc value="0.2596585386" flag="0"/>
      <vel value="0.0688691458" flag="0"/>
      <psa03 value="0.3861861258" flag="0"/>
      <psa10 value="0.0265530432" flag="0"/>
      <psa30 value="0.0018010427" flag="0"/>
    </comp>
    <comp name="--.HHN">
      <acc value="0.2422930087" flag="0"/>
      <vel value="0.0669326627" flag="0"/>
      <psa03 value="0.3736812165" flag="0"/>
      <psa10 value="0.0194295928" flag="0"/>
      <psa30 value="0.0013616395" flag="0"/>
    </comp>
    <comp name="--.HHZ">
      <acc value="0.0873325479" flag="0"/>
      <vel value="0.0318246451" flag="0"/>
      <psa03 value="0.2190554772" flag="0"/>
      <psa10 value="0.0100074990" flag="0"/>
      <psa30 value="0.0006833749" flag="0"/>
    </comp>
  </station>
  <station code="BORR" name="BORR" netid="RO" insttype="CMG40T.1to100/Quanterra" commtype="DIG" lat="47.0902" lon="21.7856">
    <comp name="--.HHE">
      <acc value="0.0095100732" flag="0"/>
      <vel value="0.0041048209" flag="0"/>
      <psa03 value="0.0241927573" flag="0"/>
      <psa10 value="0.0083548719" flag="0"/>
      <psa30 value="0.0008265782" flag="0"/>
    </comp>
    <comp name="--.HHZ">
      <acc value="0.0071941191" flag="0"/>
      <vel value="0.0023128124" flag="0"/>
      <psa03 value="0.0109686425" flag="0"/>
      <psa10 value="0.0030552319" flag="0"/>
      <psa30 value="0.0002000535" flag="0"/>
    </comp>
    <comp name="--.HHN">
      <acc value="0.0100438757" flag="0"/>
      <vel value="0.0053009967" flag="0"/>
      <psa03 value="0.0278145749" flag="0"/>
      <psa10 value="0.0074252405" flag="0"/>
      <psa30 value="0.0009320372" flag="0"/>
    </comp>
  </station>
  <station code="CEIR" name="CEIR" netid="RO" insttype="MBB2/Quanterra" commtype="DIG" lat="47.6855" lon="22.496">
    <comp name="--.HHE">
      <acc value="0.1706420007" flag="0"/>
      <vel value="0.0653858901" flag="0"/>
      <psa03 value="0.3552418154" flag="0"/>
      <psa10 value="0.0285156913" flag="0"/>
      <psa30 value="0.0025755138" flag="0"/>
    </comp>
    <comp name="--.HHN">
      <acc value="0.0445444544" flag="0"/>
      <vel value="0.0454159627" flag="0"/>
      <psa03 value="0.1009865295" flag="0"/>
      <psa10 value="0.0770907703" flag="0"/>
      <psa30 value="0.0045265987" flag="0"/>
    </comp>
    <comp name="--.HHZ">
      <acc value="0.0832559450" flag="0"/>
      <vel value="0.0352510461" flag="0"/>
      <psa03 value="0.1914364174" flag="0"/>
      <psa10 value="0.0102775101" flag="0"/>
      <psa30 value="0.0009493422" flag="0"/>
    </comp>
  </station>
  <station code="DRGR" name="DRGR" netid="RO" insttype="330" commtype="DIG" lat="46.7917" lon="22.7111">
    <comp name="--.HHE">
      <acc value="0.0082143086" flag="0"/>
      <vel value="0.0048975732" flag="0"/>
      <psa03 value="0.0242703494" flag="0"/>
      <psa10 value="0.0029654795" flag="0"/>
      <psa30 value="0.0001453521" flag="0"/>
    </comp>
    <comp name="--.HHN">
      <acc value="0.0108233756" flag="0"/>
      <vel value="0.0045870684" flag="0"/>
      <psa03 value="0.0397485238" flag="0"/>
      <psa10 value="0.0014858255" flag="0"/>
      <psa30 value="0.0001177612" flag="0"/>
    </comp>
    <comp name="--.HHZ">
      <acc value="0.0074528679" flag="0"/>
      <vel value="0.0029437883" flag="0"/>
      <psa03 value="0.0273076994" flag="0"/>
      <psa10 value="0.0028875841" flag="0"/>
      <psa30 value="0.0001184676" flag="0"/>
    </comp>
  </station>
  <station code="MESR" name="MESR" netid="RO" insttype="CMG40T.1to100/obsidian" commtype="DIG" lat="47.1499" lon="22.9494">
    <comp name="--.HHE">
      <acc value="0.0520632351" flag="0"/>
      <vel value="0.0192342082" flag="0"/>
      <psa03 value="0.0837133689" flag="0"/>
      <psa10 value="0.0157329078" flag="0"/>
      <psa30 value="0.0007244323" flag="0"/>
    </comp>
    <comp name="--.HHN">
      <acc value="0.0566708099" flag="0"/>
      <vel value="0.0263200593" flag="0"/>
      <psa03 value="0.1045978864" flag="0"/>
      <psa10 value="0.0165764268" flag="0"/>
      <psa30 value="0.0008575001" flag="0"/>
    </comp>
    <comp name="--.HHZ">
      <acc value="0.0282084767" flag="0"/>
      <vel value="0.0081354781" flag="0"/>
      <psa03 value="0.0439348296" flag="0"/>
      <psa10 value="0.0072862539" flag="0"/>
      <psa30 value="0.0003614160" flag="0"/>
    </comp>
  </station>
  <station code="BRIU" name="BRIU" netid="UT" insttype="CMG-3ESP/120" commtype="DIG" lat="48.338" lon="23.0203">
    <comp name="--.HHE">
      <acc value="0.0422643453" flag="0"/>
      <vel value="0.0090023681" flag="0"/>
      <psa03 value="0.0258165328" flag="0"/>
      <psa10 value="0.0029003186" flag="0"/>
      <psa30 value="0.0003735871" flag="0"/>
    </comp>
    <comp name="--.HHN">
      <acc value="0.0472438479" flag="0"/>
      <vel value="0.0093488051" flag="0"/>
      <psa03 value="0.0242724306" flag="0"/>
      <psa10 value="0.0036468925" flag="0"/>
      <psa30 value="0.0002686731" flag="0"/>
    </comp>
    <comp name="--.HHZ">
      <acc value="0.0142862018" flag="0"/>
      <vel value="0.0032769278" flag="0"/>
      <psa03 value="0.0139962703" flag="0"/>
      <psa10 value="0.0019036423" flag="0"/>
      <psa30 value="0.0002620285" flag="0"/>
    </comp>
  </station>
  <station code="MEZ" name="MEZ" netid="UT" insttype="Theta/30" commtype="DIG" lat="48.5121" lon="23.5124">
    <comp name="--.HHN">
      <acc value="0.0243150695" flag="0"/>
      <vel value="0.0052886787" flag="0"/>
      <psa03 value="0.0179303703" flag="0"/>
      <psa10 value="0.0029716191" flag="0"/>
      <psa30 value="0.0001339037" flag="0"/>
    </comp>
    <comp name="--.HHE">
      <acc value="0.0202282728" flag="0"/>
      <vel value="0.0047362767" flag="0"/>
      <psa03 value="0.0227466673" flag="0"/>
      <psa10 value="0.0017612952" flag="0"/>
      <psa30 value="0.0002364418" flag="0"/>
    </comp>
    <comp name="--.HHZ">
      <acc value="0.0202421279" flag="0"/>
      <vel value="0.0056695963" flag="0"/>
      <psa03 value="0.0197548701" flag="0"/>
      <psa10 value="0.0018088042" flag="0"/>
      <psa30 value="0.0001463207" flag="0"/>
    </comp>
  </station>
  <station code="RAKU" name="RAKU" netid="UT" insttype="Theta/30" commtype="DIG" lat="48.026" lon="24.1663">
    <comp name="--.HHE">
      <acc value="0.0206457753" flag="0"/>
      <vel value="0.0089828529" flag="0"/>
      <psa03 value="0.0364792007" flag="0"/>
      <psa10 value="0.0028141890" flag="0"/>
      <psa30 value="0.0002459295" flag="0"/>
    </comp>
    <comp name="--.HHN">
      <acc value="0.0259220481" flag="0"/>
      <vel value="0.0083918588" flag="0"/>
      <psa03 value="0.0385173370" flag="0"/>
      <psa10 value="0.0038577238" flag="0"/>
      <psa30 value="0.0002531917" flag="0"/>
    </comp>
    <comp name="--.HHZ">
      <acc value="0.0142159110" flag="0"/>
      <vel value="0.0050449579" flag="0"/>
      <psa03 value="0.0334933232" flag="0"/>
      <psa10 value="0.0023447451" flag="0"/>
      <psa30 value="0.0001149371" flag="0"/>
    </comp>
  </station>
</stationlist>
