<stationlist created="1778205405">
	<station code="4804" name="4804" netid="TK" source="Turkish National Strong Motion Network (TNSMN)" insttype="" lat="36.96996" lon="28.68684">
		<comp name="00.HNE" depth="None">
			<acc value="0.854673510576503" flag="0"/>
			<vel value="0.208082077169561" flag="0"/>
			<psa03 value="0.767999976602635" flag="0"/>
			<psa10 value="0.0959465301384205" flag="0"/>
			<psa30 value="0.00997840692000697" flag="0"/>
		</comp>
		<comp name="00.HNN" depth="None">
			<acc value="0.669578089404817" flag="0"/>
			<vel value="0.252719059286954" flag="0"/>
			<psa03 value="0.637084280037572" flag="0"/>
			<psa10 value="0.10100418917455" flag="0"/>
			<psa30 value="0.00613147199496796" flag="0"/>
		</comp>
		<comp name="00.HNZ" depth="None">
			<acc value="0.447600637808617" flag="0"/>
			<vel value="0.0981817550850362" flag="0"/>
			<psa03 value="0.417265818922002" flag="0"/>
			<psa10 value="0.0425954755447271" flag="0"/>
			<psa30 value="0.00233464834134142" flag="0"/>
		</comp>
	</station>
	<station code="4805" name="4805" netid="TK" source="Turkish National Strong Motion Network (TNSMN)" insttype="" lat="36.83942" lon="28.24483">
		<comp name="00.HNE" depth="None">
			<acc value="0.678694128" flag="0"/>
			<vel value="0.553382" flag="0"/>
			<psa03 value="1.64481299970091" flag="0"/>
			<psa10 value="0.275968588155302" flag="0"/>
			<psa30 value="0.0236189634517195" flag="0"/>
		</comp>
		<comp name="00.HNN" depth="None">
			<acc value="0.658010976" flag="0"/>
			<vel value="0.475591" flag="0"/>
			<psa03 value="1.29054420769743" flag="0"/>
			<psa10 value="0.30695077655019" flag="0"/>
			<psa30 value="0.0203751534718948" flag="0"/>
		</comp>
		<comp name="00.HNZ" depth="None">
			<acc value="0.402039324" flag="0"/>
			<vel value="0.147357" flag="0"/>
			<psa03 value="0.623035227159434" flag="0"/>
			<psa10 value="0.0949760716768702" flag="0"/>
			<psa30 value="0.0126025373381686" flag="0"/>
		</comp>
	</station>
</stationlist>
