<?xml version="1.0" encoding="UTF-8" standalone="yes"?>
<!DOCTYPE earthquake SYSTEM "stationlist.dtd">
<stationlist created="" xmlns="ch.ethz.sed.shakemap.usgs.xml">
  <station code="BALB" name="BALB" netid="KO" insttype="CMG-5T" commtype="DIG" lat="39.6507" lon="27.8642">
    <comp name="--.HNN">
      <acc value="0.0367882003" flag="0"/>
      <vel value="0.0131644307" flag="0"/>
      <psa03 value="0.0679794467" flag="0"/>
      <psa10 value="0.0050932359" flag="0"/>
      <psa30 value="0.0006565375" flag="0"/>
    </comp>
    <comp name="--.HNZ">
      <acc value="0.0303801590" flag="0"/>
      <vel value="0.0099937178" flag="0"/>
      <psa03 value="0.0379735304" flag="0"/>
      <psa10 value="0.0024492602" flag="0"/>
      <psa30 value="0.0003903442" flag="0"/>
    </comp>
    <comp name="--.HNE">
      <acc value="0.0287165744" flag="0"/>
      <vel value="0.0122866474" flag="0"/>
      <psa03 value="0.0727439899" flag="0"/>
      <psa10 value="0.0088761823" flag="0"/>
      <psa30 value="0.0005122845" flag="0"/>
    </comp>
  </station>
  <station code="DST" name="DST" netid="KO" insttype="CMG-5T" commtype="DIG" lat="39.6041" lon="28.6267">
    <comp name="--.HNN">
      <acc value="0.0636223522" flag="0"/>
      <vel value="0.0135353592" flag="0"/>
      <psa03 value="0.0558772714" flag="0"/>
      <psa10 value="0.0042049627" flag="0"/>
      <psa30 value="0.0008420125" flag="0"/>
    </comp>
    <comp name="--.HNE">
      <acc value="0.0840958152" flag="0"/>
      <vel value="0.0165694350" flag="0"/>
      <psa03 value="0.0921042329" flag="0"/>
      <psa10 value="0.0049619069" flag="0"/>
      <psa30 value="0.0005083506" flag="0"/>
    </comp>
    <comp name="--.HNZ">
      <acc value="0.1184806627" flag="0"/>
      <vel value="0.0222624977" flag="0"/>
      <psa03 value="0.0627182554" flag="0"/>
      <psa10 value="0.0035186925" flag="0"/>
      <psa30 value="0.0004021128" flag="0"/>
    </comp>
  </station>
  <station code="GORD" name="GORD" netid="KO" insttype="CMG-5T" commtype="DIG" lat="38.9088" lon="28.1769">
    <comp name="--.HNE">
      <acc value="0.0486600531" flag="0"/>
      <vel value="0.0206323472" flag="0"/>
      <psa03 value="0.0815719381" flag="0"/>
      <psa10 value="0.0146424451" flag="0"/>
      <psa30 value="0.0010310823" flag="0"/>
    </comp>
    <comp name="--.HNN">
      <acc value="0.0644565034" flag="0"/>
      <vel value="0.0231662699" flag="0"/>
      <psa03 value="0.0765192338" flag="0"/>
      <psa10 value="0.0116439003" flag="0"/>
      <psa30 value="0.0008987383" flag="0"/>
    </comp>
    <comp name="--.HNZ">
      <acc value="0.0864302180" flag="0"/>
      <vel value="0.0200816042" flag="0"/>
      <psa03 value="0.0771525652" flag="0"/>
      <psa10 value="0.0065218291" flag="0"/>
      <psa30 value="0.0006283566" flag="0"/>
    </comp>
  </station>
  <station code="KULA" name="KULA" netid="KO" insttype="CMG-3T" commtype="DIG" lat="38.5145" lon="28.6607">
    <comp name="--.HHE">
      <acc value="0.0381979451" flag="0"/>
      <vel value="0.0081925412" flag="0"/>
      <psa03 value="0.0290438448" flag="0"/>
      <psa10 value="0.0059726404" flag="0"/>
      <psa30 value="0.0003245294" flag="0"/>
    </comp>
  </station>
  <station code="SIMA" name="SIMA" netid="KO" insttype="CMG-6T" commtype="DIG" lat="39.0833" lon="28.9825">
    <comp name="--.HHE">
      <acc value="0.1987256100" flag="0"/>
      <vel value="0.0313371887" flag="0"/>
      <psa03 value="0.0753854434" flag="0"/>
      <psa10 value="0.0042727350" flag="0"/>
      <psa30 value="0.0003122924" flag="0"/>
    </comp>
    <comp name="--.HHN">
      <acc value="0.1401671261" flag="0"/>
      <vel value="0.0288423113" flag="0"/>
      <psa03 value="0.1648848638" flag="0"/>
      <psa10 value="0.0086317196" flag="0"/>
      <psa30 value="0.0005957500" flag="0"/>
    </comp>
    <comp name="--.HHZ">
      <acc value="0.1080498912" flag="0"/>
      <vel value="0.0181478119" flag="0"/>
      <psa03 value="0.0403079751" flag="0"/>
      <psa10 value="0.0035830127" flag="0"/>
      <psa30 value="0.0002235403" flag="0"/>
    </comp>
  </station>
  <station code="SMAA" name="SMAA" netid="KO" insttype="CMG-5T" commtype="DIG" lat="39.1005" lon="28.9805">
    <comp name="--.HNN">
      <acc value="0.0795600533" flag="0"/>
      <vel value="0.0298125723" flag="0"/>
      <psa03 value="0.1451674052" flag="0"/>
      <psa10 value="0.0186183709" flag="0"/>
      <psa30 value="0.0018261070" flag="0"/>
    </comp>
    <comp name="--.HNE">
      <acc value="0.1202785710" flag="0"/>
      <vel value="0.0409336416" flag="0"/>
      <psa03 value="0.2213255210" flag="0"/>
      <psa10 value="0.0457690594" flag="0"/>
      <psa30 value="0.0021556368" flag="0"/>
    </comp>
    <comp name="--.HNZ">
      <acc value="0.0912514929" flag="0"/>
      <vel value="0.0143942047" flag="0"/>
      <psa03 value="0.0545427597" flag="0"/>
      <psa10 value="0.0194895500" flag="0"/>
      <psa30 value="0.0005879896" flag="0"/>
    </comp>
  </station>
  <station code="SOMA" name="SOMA" netid="KO" insttype="CMG-5T" commtype="DIG" lat="39.1564" lon="27.5341">
    <comp name="--.HNE">
      <acc value="0.0222079275" flag="0"/>
      <vel value="0.0074235706" flag="0"/>
      <psa03 value="0.0515851812" flag="0"/>
      <psa10 value="0.0038588750" flag="0"/>
      <psa30 value="0.0002794806" flag="0"/>
    </comp>
    <comp name="--.HNN">
      <acc value="0.0207220716" flag="0"/>
      <vel value="0.0090416827" flag="0"/>
      <psa03 value="0.0560814625" flag="0"/>
      <psa10 value="0.0061481042" flag="0"/>
      <psa30 value="0.0004714281" flag="0"/>
    </comp>
    <comp name="--.HNZ">
      <acc value="0.0205943250" flag="0"/>
      <vel value="0.0057325037" flag="0"/>
      <psa03 value="0.0356115868" flag="0"/>
      <psa10 value="0.0037482686" flag="0"/>
      <psa30 value="0.0002210729" flag="0"/>
    </comp>
  </station>
  <station code="SUSR" name="SUSR" netid="KO" insttype="CMG-5T" commtype="DIG" lat="39.9627" lon="28.0835">
    <comp name="--.HNE">
      <acc value="0.0586699514" flag="0"/>
      <vel value="0.0145430926" flag="0"/>
      <psa03 value="0.0741454090" flag="0"/>
      <psa10 value="0.0050336228" flag="0"/>
      <psa30 value="0.0004421441" flag="0"/>
    </comp>
    <comp name="--.HNZ">
      <acc value="0.0334127972" flag="0"/>
      <vel value="0.0088984026" flag="0"/>
      <psa03 value="0.0364971318" flag="0"/>
      <psa10 value="0.0028966122" flag="0"/>
      <psa30 value="0.0002793341" flag="0"/>
    </comp>
    <comp name="--.HNN">
      <acc value="0.0418356175" flag="0"/>
      <vel value="0.0111375270" flag="0"/>
      <psa03 value="0.0775315710" flag="0"/>
      <psa10 value="0.0026943361" flag="0"/>
      <psa30 value="0.0002281504" flag="0"/>
    </comp>
  </station>
</stationlist>
