<?xml version="1.0" encoding="UTF-8" standalone="yes"?>
<!DOCTYPE earthquake SYSTEM "stationlist.dtd">
<stationlist created="" xmlns="ch.ethz.sed.shakemap.usgs.xml">
  <station code="BALB" name="BALB" netid="KO" insttype="CMG-5T" commtype="DIG" lat="39.6507" lon="27.8642">
    <comp name="--.HNE">
      <acc value="0.0287165722" flag="0"/>
      <vel value="0.0122866474" flag="0"/>
      <psa03 value="0.0727439899" flag="0"/>
      <psa10 value="0.0088761823" flag="0"/>
      <psa30 value="0.0005122845" flag="0"/>
    </comp>
    <comp name="--.HNN">
      <acc value="0.0367882001" flag="0"/>
      <vel value="0.0131644308" flag="0"/>
      <psa03 value="0.0679794467" flag="0"/>
      <psa10 value="0.0050932359" flag="0"/>
      <psa30 value="0.0006565375" flag="0"/>
    </comp>
    <comp name="--.HNZ">
      <acc value="0.0303801500" flag="0"/>
      <vel value="0.0099937180" flag="0"/>
      <psa03 value="0.0379735304" flag="0"/>
      <psa10 value="0.0024492602" flag="0"/>
      <psa30 value="0.0003903442" flag="0"/>
    </comp>
  </station>
  <station code="DST" name="DST" netid="KO" insttype="CMG-5T" commtype="DIG" lat="39.6041" lon="28.6267">
    <comp name="--.HNE">
      <acc value="0.0840957367" flag="0"/>
      <vel value="0.0165694347" flag="0"/>
      <psa03 value="0.0921042329" flag="0"/>
      <psa10 value="0.0049619069" flag="0"/>
      <psa30 value="0.0005083506" flag="0"/>
    </comp>
    <comp name="--.HNZ">
      <acc value="0.1184806265" flag="0"/>
      <vel value="0.0222624984" flag="0"/>
      <psa03 value="0.0627182554" flag="0"/>
      <psa10 value="0.0035186925" flag="0"/>
      <psa30 value="0.0004021128" flag="0"/>
    </comp>
    <comp name="--.HNN">
      <acc value="0.0636223601" flag="0"/>
      <vel value="0.0135353596" flag="0"/>
      <psa03 value="0.0558772714" flag="0"/>
      <psa10 value="0.0042049628" flag="0"/>
      <psa30 value="0.0008420075" flag="0"/>
    </comp>
  </station>
  <station code="GEDZ" name="GEDZ" netid="KO" insttype="CMG-6T" commtype="DIG" lat="39.0445" lon="29.4105">
    <comp name="--.HHE">
      <acc value="0.1082725338" flag="0"/>
      <vel value="0.0330119071" flag="0"/>
      <psa03 value="0.1994373403" flag="0"/>
      <psa10 value="0.0236228833" flag="0"/>
      <psa30 value="0.0009237823" flag="0"/>
    </comp>
    <comp name="--.HHN">
      <acc value="0.1507637426" flag="0"/>
      <vel value="0.0391976296" flag="0"/>
      <psa03 value="0.1990932197" flag="0"/>
      <psa10 value="0.0237661009" flag="0"/>
      <psa30 value="0.0012038349" flag="0"/>
    </comp>
    <comp name="--.HHZ">
      <acc value="0.0536956696" flag="0"/>
      <vel value="0.0143322759" flag="0"/>
      <psa03 value="0.0540355385" flag="0"/>
      <psa10 value="0.0071458736" flag="0"/>
      <psa30 value="0.0003982420" flag="0"/>
    </comp>
  </station>
  <station code="GONE" name="GONE" netid="KO" insttype="CMG-5T" commtype="DIG" lat="40.0466" lon="27.686">
    <comp name="--.HNN">
      <acc value="0.0377989145" flag="0"/>
      <vel value="0.0156664238" flag="0"/>
      <psa03 value="0.0922255016" flag="0"/>
      <psa10 value="0.0096037042" flag="0"/>
      <psa30 value="0.0005188804" flag="0"/>
    </comp>
    <comp name="--.HNE">
      <acc value="0.0200967529" flag="0"/>
      <vel value="0.0065855443" flag="0"/>
      <psa03 value="0.0398685549" flag="0"/>
      <psa10 value="0.0058829187" flag="0"/>
      <psa30 value="0.0003932790" flag="0"/>
    </comp>
    <comp name="--.HNZ">
      <acc value="0.0194790068" flag="0"/>
      <vel value="0.0042035872" flag="0"/>
      <psa03 value="0.0231192523" flag="0"/>
      <psa10 value="0.0013192219" flag="0"/>
      <psa30 value="0.0001043697" flag="0"/>
    </comp>
  </station>
  <station code="GORD" name="GORD" netid="KO" insttype="CMG-5T" commtype="DIG" lat="38.9088" lon="28.1769">
    <comp name="--.HNE">
      <acc value="0.0486600412" flag="0"/>
      <vel value="0.0206323472" flag="0"/>
      <psa03 value="0.0815719381" flag="0"/>
      <psa10 value="0.0146424451" flag="0"/>
      <psa30 value="0.0010310823" flag="0"/>
    </comp>
    <comp name="--.HNN">
      <acc value="0.0644564941" flag="0"/>
      <vel value="0.0231662697" flag="0"/>
      <psa03 value="0.0765192338" flag="0"/>
      <psa10 value="0.0116439003" flag="0"/>
      <psa30 value="0.0008987383" flag="0"/>
    </comp>
    <comp name="--.HNZ">
      <acc value="0.0864302204" flag="0"/>
      <vel value="0.0200816047" flag="0"/>
      <psa03 value="0.0771525652" flag="0"/>
      <psa10 value="0.0065218291" flag="0"/>
      <psa30 value="0.0006283566" flag="0"/>
    </comp>
  </station>
  <station code="KCTX" name="KCTX" netid="KO" insttype="CMG-3ESP" commtype="DIG" lat="40.2626" lon="28.3353">
    <comp name="--.HHE">
      <acc value="0.0352818492" flag="0"/>
      <vel value="0.0077837939" flag="0"/>
      <psa03 value="0.0272085336" flag="0"/>
      <psa10 value="0.0027229007" flag="0"/>
      <psa30 value="0.0002557875" flag="0"/>
    </comp>
    <comp name="--.HHN">
      <acc value="0.0291650738" flag="0"/>
      <vel value="0.0093954175" flag="0"/>
      <psa03 value="0.0689564010" flag="0"/>
      <psa10 value="0.0023042137" flag="0"/>
      <psa30 value="0.0002512705" flag="0"/>
    </comp>
    <comp name="--.HHZ">
      <acc value="0.0237764230" flag="0"/>
      <vel value="0.0056533507" flag="0"/>
      <psa03 value="0.0310327177" flag="0"/>
      <psa10 value="0.0013473468" flag="0"/>
      <psa30 value="0.0001111929" flag="0"/>
    </comp>
  </station>
  <station code="KULA" name="KULA" netid="KO" insttype="CMG-3T" commtype="DIG" lat="38.5145" lon="28.6607">
    <comp name="--.HHE">
      <acc value="0.0381979450" flag="0"/>
      <vel value="0.0081925412" flag="0"/>
      <psa03 value="0.0290438448" flag="0"/>
      <psa10 value="0.0059726404" flag="0"/>
      <psa30 value="0.0003245294" flag="0"/>
    </comp>
  </station>
  <station code="ORLT" name="ORLT" netid="KO" insttype="CMG-5T" commtype="DIG" lat="40.0452" lon="28.8914">
    <comp name="--.HNE">
      <acc value="0.0419643849" flag="0"/>
      <vel value="0.0181609025" flag="0"/>
      <psa03 value="0.1611857341" flag="0"/>
      <psa10 value="0.0067831765" flag="0"/>
      <psa30 value="0.0004109549" flag="0"/>
    </comp>
    <comp name="--.HNN">
      <acc value="0.0684602227" flag="0"/>
      <vel value="0.0169391145" flag="0"/>
      <psa03 value="0.1363215412" flag="0"/>
      <psa10 value="0.0094469095" flag="0"/>
      <psa30 value="0.0004741192" flag="0"/>
    </comp>
    <comp name="--.HNZ">
      <acc value="0.0262954565" flag="0"/>
      <vel value="0.0079639066" flag="0"/>
      <psa03 value="0.0541638409" flag="0"/>
      <psa10 value="0.0058459521" flag="0"/>
      <psa30 value="0.0002682395" flag="0"/>
    </comp>
  </station>
  <station code="SIMA" name="SIMA" netid="KO" insttype="CMG-6T" commtype="DIG" lat="39.0833" lon="28.9825">
    <comp name="--.HHN">
      <acc value="0.1401671266" flag="0"/>
      <vel value="0.0288423113" flag="0"/>
      <psa03 value="0.1648848638" flag="0"/>
      <psa10 value="0.0086317196" flag="0"/>
      <psa30 value="0.0005957500" flag="0"/>
    </comp>
    <comp name="--.HHE">
      <acc value="0.1987256333" flag="0"/>
      <vel value="0.0313371885" flag="0"/>
      <psa03 value="0.0753854434" flag="0"/>
      <psa10 value="0.0042727350" flag="0"/>
      <psa30 value="0.0003122924" flag="0"/>
    </comp>
    <comp name="--.HHZ">
      <acc value="0.1080499196" flag="0"/>
      <vel value="0.0181478120" flag="0"/>
      <psa03 value="0.0403079751" flag="0"/>
      <psa10 value="0.0035830127" flag="0"/>
      <psa30 value="0.0002235403" flag="0"/>
    </comp>
  </station>
  <station code="SMAA" name="SMAA" netid="KO" insttype="CMG-5T" commtype="DIG" lat="39.1005" lon="28.9805">
    <comp name="--.HNE">
      <acc value="0.1202785348" flag="0"/>
      <vel value="0.0409336410" flag="0"/>
      <psa03 value="0.2213255210" flag="0"/>
      <psa10 value="0.0457690594" flag="0"/>
      <psa30 value="0.0021556368" flag="0"/>
    </comp>
    <comp name="--.HNN">
      <acc value="0.0795600917" flag="0"/>
      <vel value="0.0298125734" flag="0"/>
      <psa03 value="0.1451674051" flag="0"/>
      <psa10 value="0.0186183709" flag="0"/>
      <psa30 value="0.0018261069" flag="0"/>
    </comp>
    <comp name="--.HNZ">
      <acc value="0.0912515197" flag="0"/>
      <vel value="0.0143942087" flag="0"/>
      <psa03 value="0.0545427597" flag="0"/>
      <psa10 value="0.0194895501" flag="0"/>
      <psa30 value="0.0005879897" flag="0"/>
    </comp>
  </station>
  <station code="SOMA" name="SOMA" netid="KO" insttype="CMG-5T" commtype="DIG" lat="39.1564" lon="27.5341">
    <comp name="--.HNE">
      <acc value="0.0222079367" flag="0"/>
      <vel value="0.0074235707" flag="0"/>
      <psa03 value="0.0515851812" flag="0"/>
      <psa10 value="0.0038588750" flag="0"/>
      <psa30 value="0.0002794806" flag="0"/>
    </comp>
    <comp name="--.HNN">
      <acc value="0.0207220714" flag="0"/>
      <vel value="0.0090416829" flag="0"/>
      <psa03 value="0.0560814625" flag="0"/>
      <psa10 value="0.0061481042" flag="0"/>
      <psa30 value="0.0004714281" flag="0"/>
    </comp>
    <comp name="--.HNZ">
      <acc value="0.0205943089" flag="0"/>
      <vel value="0.0057325039" flag="0"/>
      <psa03 value="0.0356115868" flag="0"/>
      <psa10 value="0.0037482686" flag="0"/>
      <psa30 value="0.0002210729" flag="0"/>
    </comp>
  </station>
  <station code="SUSR" name="SUSR" netid="KO" insttype="CMG-5T" commtype="DIG" lat="39.9627" lon="28.0835">
    <comp name="--.HNE">
      <acc value="0.0586699467" flag="0"/>
      <vel value="0.0145430927" flag="0"/>
      <psa03 value="0.0741454091" flag="0"/>
      <psa10 value="0.0050336228" flag="0"/>
      <psa30 value="0.0004421441" flag="0"/>
    </comp>
    <comp name="--.HNN">
      <acc value="0.0418356152" flag="0"/>
      <vel value="0.0111375269" flag="0"/>
      <psa03 value="0.0775315710" flag="0"/>
      <psa10 value="0.0026943361" flag="0"/>
      <psa30 value="0.0002281504" flag="0"/>
    </comp>
    <comp name="--.HNZ">
      <acc value="0.0334127850" flag="0"/>
      <vel value="0.0088984030" flag="0"/>
      <psa03 value="0.0364971318" flag="0"/>
      <psa10 value="0.0028966122" flag="0"/>
      <psa30 value="0.0002793341" flag="0"/>
    </comp>
  </station>
  <station code="TVSB" name="TVSB" netid="KO" insttype="CMG-3T" commtype="DIG" lat="39.4497" lon="29.4615">
    <comp name="--.HHE">
      <acc value="0.0427853008" flag="0"/>
      <vel value="0.0179825811" flag="0"/>
      <psa03 value="0.0961137192" flag="0"/>
      <psa10 value="0.0059396622" flag="0"/>
      <psa30 value="0.0005114640" flag="0"/>
    </comp>
    <comp name="--.HHN">
      <acc value="0.0692603408" flag="0"/>
      <vel value="0.0176330649" flag="0"/>
      <psa03 value="0.0925408553" flag="0"/>
      <psa10 value="0.0087683865" flag="0"/>
      <psa30 value="0.0005080686" flag="0"/>
    </comp>
    <comp name="--.HHZ">
      <acc value="0.0387938133" flag="0"/>
      <vel value="0.0095505508" flag="0"/>
      <psa03 value="0.0283920402" flag="0"/>
      <psa10 value="0.0025979604" flag="0"/>
      <psa30 value="0.0001703440" flag="0"/>
    </comp>
  </station>
  <station code="YAYO" name="YAYO" netid="KO" insttype="CMG-6T" commtype="DIG" lat="39.6113" lon="27.0726">
    <comp name="--.HHE">
      <acc value="0.0074733834" flag="0"/>
      <vel value="0.0063675918" flag="0"/>
      <psa03 value="0.0194519288" flag="0"/>
      <psa10 value="0.0041250254" flag="0"/>
      <psa30 value="0.0002525251" flag="0"/>
    </comp>
    <comp name="--.HHZ">
      <acc value="0.0134971875" flag="0"/>
      <vel value="0.0050255034" flag="0"/>
      <psa03 value="0.0317647305" flag="0"/>
      <psa10 value="0.0026007799" flag="0"/>
      <psa30 value="0.0001864849" flag="0"/>
    </comp>
    <comp name="--.HHN">
      <acc value="0.0083002006" flag="0"/>
      <vel value="0.0050909594" flag="0"/>
      <psa03 value="0.0231646949" flag="0"/>
      <psa10 value="0.0035414450" flag="0"/>
      <psa30 value="0.0001617296" flag="0"/>
    </comp>
  </station>
  <station code="YENI" name="YENI" netid="KO" insttype="CMG-5T" commtype="DIG" lat="39.9364" lon="27.2422">
    <comp name="--.HNE">
      <acc value="0.0139114108" flag="0"/>
      <vel value="0.0063046437" flag="0"/>
      <psa03 value="0.0352393694" flag="0"/>
      <psa10 value="0.0029767441" flag="0"/>
      <psa30 value="0.0003225672" flag="0"/>
    </comp>
    <comp name="--.HNZ">
      <acc value="0.0126242417" flag="0"/>
      <vel value="0.0028471271" flag="0"/>
      <psa03 value="0.0208362319" flag="0"/>
      <psa10 value="0.0010204539" flag="0"/>
      <psa30 value="0.0003765831" flag="0"/>
    </comp>
    <comp name="--.HNN">
      <acc value="0.0145528914" flag="0"/>
      <vel value="0.0046870552" flag="0"/>
      <psa03 value="0.0223540088" flag="0"/>
      <psa10 value="0.0031597679" flag="0"/>
      <psa30 value="0.0004743031" flag="0"/>
    </comp>
  </station>
</stationlist>
