<?xml version="1.0" encoding="UTF-8" standalone="yes"?>
<!DOCTYPE earthquake SYSTEM "stationlist.dtd">
<stationlist created="" xmlns="ch.ethz.sed.shakemap.usgs.xml">
  <station code="KRK1" name="KRK1" netid="HI" insttype="CMG-5TD,ACCELEROMETER,GURALP" lat="39.6189" lon="19.9202">
    <comp name="--.HNE">
      <acc value="0.1991646875" flag="0"/>
      <vel value="0.0725726277" flag="0"/>
      <psa03 value="0.4381755317" flag="0"/>
      <psa10 value="0.0170356307" flag="0"/>
      <psa30 value="0.0016403331" flag="0"/>
    </comp>
    <comp name="--.HNN">
      <acc value="0.2095436663" flag="0"/>
      <vel value="0.0530359876" flag="0"/>
      <psa03 value="0.2215026040" flag="0"/>
      <psa10 value="0.0144442934" flag="0"/>
      <psa30 value="0.0010880744" flag="0"/>
    </comp>
    <comp name="--.HNZ">
      <acc value="0.1492394568" flag="0"/>
      <vel value="0.0248389154" flag="0"/>
      <psa03 value="0.1029696740" flag="0"/>
      <psa10 value="0.0075294412" flag="0"/>
      <psa30 value="0.0006184243" flag="0"/>
    </comp>
  </station>
  <station code="JAN" name="JAN" netid="HL" insttype="CMG3EPSC60_DR24" lat="39.6562" lon="20.8487">
    <comp name="--.HHE">
      <acc value="0.0960147562" flag="0"/>
      <vel value="0.0230989045" flag="0"/>
      <psa03 value="0.1481239513" flag="0"/>
      <psa10 value="0.0065468285" flag="0"/>
      <psa30 value="0.0011656167" flag="0"/>
    </comp>
    <comp name="--.HHN">
      <acc value="0.0680544928" flag="0"/>
      <vel value="0.0243739791" flag="0"/>
      <psa03 value="0.1888958552" flag="0"/>
      <psa10 value="0.0131797035" flag="0"/>
      <psa30 value="0.0011062883" flag="0"/>
    </comp>
    <comp name="--.HHZ">
      <acc value="0.0000727154" flag="0"/>
      <vel value="0.0000069542" flag="0"/>
      <psa03 value="0.0000429105" flag="0"/>
      <psa10 value="0.0000095444" flag="0"/>
      <psa30 value="0.0000006938" flag="0"/>
    </comp>
  </station>
  <station code="KEK" name="KEK" netid="HL" insttype="120" lat="39.7127" lon="19.7962">
    <comp name="--.HHE">
      <acc value="0.0482912321" flag="0"/>
      <vel value="0.0116599308" flag="0"/>
      <psa03 value="0.0887281302" flag="0"/>
      <psa10 value="0.0048482751" flag="0"/>
      <psa30 value="0.0003501751" flag="0"/>
    </comp>
    <comp name="--.HHN">
      <acc value="0.0243858651" flag="0"/>
      <vel value="0.0105985055" flag="0"/>
      <psa03 value="0.0522182544" flag="0"/>
      <psa10 value="0.0032176902" flag="0"/>
      <psa30 value="0.0003062976" flag="0"/>
    </comp>
    <comp name="--.HHZ">
      <acc value="0.0255285102" flag="0"/>
      <vel value="0.0068401240" flag="0"/>
      <psa03 value="0.0521691248" flag="0"/>
      <psa10 value="0.0058538855" flag="0"/>
      <psa30 value="0.0002606995" flag="0"/>
    </comp>
  </station>
  <station code="OTHN" name="OTHN" netid="HL" insttype="30" lat="39.8416" lon="19.4057">
    <comp name="--.HHE">
      <acc value="0.0678023081" flag="0"/>
      <vel value="0.0190636015" flag="0"/>
      <psa03 value="0.0636441813" flag="0"/>
      <psa10 value="0.0051065585" flag="0"/>
      <psa30 value="0.0003675345" flag="0"/>
    </comp>
    <comp name="--.HHN">
      <acc value="0.0792820106" flag="0"/>
      <vel value="0.0164880533" flag="0"/>
      <psa03 value="0.0602421039" flag="0"/>
      <psa10 value="0.0036247641" flag="0"/>
      <psa30 value="0.0002567408" flag="0"/>
    </comp>
    <comp name="--.HHZ">
      <acc value="0.0331036132" flag="0"/>
      <vel value="0.0065717234" flag="0"/>
      <psa03 value="0.0479977360" flag="0"/>
      <psa10 value="0.0017569393" flag="0"/>
      <psa30 value="0.0001847988" flag="0"/>
    </comp>
  </station>
  <station code="PENT" name="PENT" netid="HL" insttype="30s-100Hz," lat="40.1959" lon="21.1384">
    <comp name="--.HHE">
      <acc value="0.0044670406" flag="0"/>
      <vel value="0.0025099673" flag="0"/>
      <psa03 value="0.0158515786" flag="0"/>
      <psa10 value="0.0031876348" flag="0"/>
      <psa30 value="0.0001187998" flag="0"/>
    </comp>
    <comp name="--.HHZ">
      <acc value="0.0058329990" flag="0"/>
      <vel value="0.0022373703" flag="0"/>
      <psa03 value="0.0131980783" flag="0"/>
      <psa10 value="0.0022947616" flag="0"/>
      <psa30 value="0.0001426324" flag="0"/>
    </comp>
    <comp name="--.HHN">
      <acc value="0.0058295732" flag="0"/>
      <vel value="0.0029968166" flag="0"/>
      <psa03 value="0.0314764862" flag="0"/>
      <psa10 value="0.0037451274" flag="0"/>
      <psa30 value="0.0001612943" flag="0"/>
    </comp>
  </station>
  <station code="TETR" name="TETR" netid="HL" insttype="60" lat="39.3445" lon="21.2747">
    <comp name="--.HHN">
      <acc value="0.0177195959" flag="0"/>
      <vel value="0.0058922176" flag="0"/>
      <psa03 value="0.0378763496" flag="0"/>
      <psa10 value="0.0045742675" flag="0"/>
      <psa30 value="0.0004735724" flag="0"/>
    </comp>
    <comp name="--.HHZ">
      <acc value="0.0090886957" flag="0"/>
      <vel value="0.0035187243" flag="0"/>
      <psa03 value="0.0187241462" flag="0"/>
      <psa10 value="0.0022573221" flag="0"/>
      <psa30 value="0.0001576281" flag="0"/>
    </comp>
    <comp name="--.HHE">
      <acc value="0.0178881787" flag="0"/>
      <vel value="0.0075044404" flag="0"/>
      <psa03 value="0.0695065814" flag="0"/>
      <psa10 value="0.0067406745" flag="0"/>
      <psa30 value="0.0003469903" flag="0"/>
    </comp>
  </station>
  <station code="KSTR" name="KSTR" netid="HP" insttype="Compact," lat="39.2492" lon="20.576">
    <comp name="--.HHE">
      <acc value="0.0218710338" flag="0"/>
      <vel value="0.0074224894" flag="0"/>
      <psa03 value="0.0542901381" flag="0"/>
      <psa10 value="0.0036765334" flag="0"/>
      <psa30 value="0.0004210261" flag="0"/>
    </comp>
    <comp name="--.HHN">
      <acc value="0.0226795350" flag="0"/>
      <vel value="0.0062067173" flag="0"/>
      <psa03 value="0.0317317841" flag="0"/>
      <psa10 value="0.0045125733" flag="0"/>
      <psa30 value="0.0003021337" flag="0"/>
    </comp>
    <comp name="--.HHZ">
      <acc value="0.0120472769" flag="0"/>
      <vel value="0.0039897576" flag="0"/>
      <psa03 value="0.0257490738" flag="0"/>
      <psa10 value="0.0029099420" flag="0"/>
      <psa30 value="0.0002398765" flag="0"/>
    </comp>
  </station>
  <station code="PRMD" name="PRMD" netid="HP" insttype="120P," lat="39.5299" lon="21.0965">
    <comp name="--.HHE">
      <acc value="0.0153007804" flag="0"/>
      <vel value="0.0123474762" flag="0"/>
      <psa03 value="0.0353475606" flag="0"/>
      <psa10 value="0.0126567591" flag="0"/>
      <psa30 value="0.0005685605" flag="0"/>
    </comp>
    <comp name="--.HHN">
      <acc value="0.0148135260" flag="0"/>
      <vel value="0.0071629793" flag="0"/>
      <psa03 value="0.0373787801" flag="0"/>
      <psa10 value="0.0058180280" flag="0"/>
      <psa30 value="0.0003866127" flag="0"/>
    </comp>
    <comp name="--.HHZ">
      <acc value="0.0081788929" flag="0"/>
      <vel value="0.0045649323" flag="0"/>
      <psa03 value="0.0296388981" flag="0"/>
      <psa10 value="0.0036567337" flag="0"/>
      <psa30 value="0.0002883836" flag="0"/>
    </comp>
  </station>
  <station code="KPRO" name="KPRO" netid="HT" insttype="100" lat="39.9549" lon="21.3632">
    <comp name="--.HHE">
      <acc value="0.0123156496" flag="0"/>
      <vel value="0.0088873716" flag="0"/>
      <psa03 value="0.0518012640" flag="0"/>
      <psa10 value="0.0042157349" flag="0"/>
      <psa30 value="0.0003676434" flag="0"/>
    </comp>
    <comp name="--.HHN">
      <acc value="0.0144561058" flag="0"/>
      <vel value="0.0078453468" flag="0"/>
      <psa03 value="0.0368770418" flag="0"/>
      <psa10 value="0.0065599045" flag="0"/>
      <psa30 value="0.0003053561" flag="0"/>
    </comp>
    <comp name="--.HHZ">
      <acc value="0.0061204324" flag="0"/>
      <vel value="0.0024463565" flag="0"/>
      <psa03 value="0.0143457392" flag="0"/>
      <psa10 value="0.0030831610" flag="0"/>
      <psa30 value="0.0001937891" flag="0"/>
    </comp>
  </station>
  <station code="NEST" name="NEST" netid="HT" insttype="120P," lat="40.4147" lon="21.0489">
    <comp name="--.HHZ">
      <acc value="0.0042777761" flag="0"/>
      <vel value="0.0017330740" flag="0"/>
      <psa03 value="0.0126409849" flag="0"/>
      <psa10 value="0.0012950707" flag="0"/>
      <psa30 value="0.0001360503" flag="0"/>
    </comp>
    <comp name="--.HHN">
      <acc value="0.0047325771" flag="0"/>
      <vel value="0.0017247519" flag="0"/>
      <psa03 value="0.0107503065" flag="0"/>
      <psa10 value="0.0013694399" flag="0"/>
      <psa30 value="0.0001066072" flag="0"/>
    </comp>
    <comp name="--.HHE">
      <acc value="0.0051655734" flag="0"/>
      <vel value="0.0021194140" flag="0"/>
      <psa03 value="0.0125474035" flag="0"/>
      <psa10 value="0.0013053052" flag="0"/>
      <psa30 value="0.0001991306" flag="0"/>
    </comp>
  </station>
  <station code="KEK" name="KEK" netid="MN" insttype="" lat="39.7127" lon="19.7962">
    <comp name="--.HHN">
      <acc value="0.0243858482" flag="0"/>
      <vel value="0.0105984981" flag="0"/>
      <psa03 value="0.0522182182" flag="0"/>
      <psa10 value="0.0032176880" flag="0"/>
      <psa30 value="0.0003062974" flag="0"/>
    </comp>
    <comp name="--.HHZ">
      <acc value="0.0255284925" flag="0"/>
      <vel value="0.0068401193" flag="0"/>
      <psa03 value="0.0521690886" flag="0"/>
      <psa10 value="0.0058538814" flag="0"/>
      <psa30 value="0.0002606993" flag="0"/>
    </comp>
    <comp name="--.HHE">
      <acc value="0.0482911987" flag="0"/>
      <vel value="0.0116599228" flag="0"/>
      <psa03 value="0.0887280688" flag="0"/>
      <psa10 value="0.0048482718" flag="0"/>
      <psa30 value="0.0003501748" flag="0"/>
    </comp>
  </station>
</stationlist>
