<stationlist created="1778118968">
	<station code="ART2" name="ART2" netid="HI" source="ITSAK Strong Motion Network" insttype="" lat="39.1474" lon="20.9937">
		<comp name="--.HNE" depth="0.0">
			<acc value="0.00632128902121553" flag="0"/>
			<vel value="0.00291597096762568" flag="0"/>
			<psa03 value="0.0148357484205401" flag="0"/>
			<psa10 value="0.00258077635439434" flag="0"/>
			<psa30 value="0.000209267274388019" flag="0"/>
		</comp>
		<comp name="--.HNN" depth="0.0">
			<acc value="0.0114120509932067" flag="0"/>
			<vel value="0.00453470704492843" flag="0"/>
			<psa03 value="0.024272644401898" flag="0"/>
			<psa10 value="0.00211938024228945" flag="0"/>
			<psa30 value="0.000191052526084064" flag="0"/>
		</comp>
		<comp name="--.HNZ" depth="0.0">
			<acc value="0.00634194512432754" flag="0"/>
			<vel value="0.0022380801939691" flag="0"/>
			<psa03 value="0.0111285861725343" flag="0"/>
			<psa10 value="0.00292556388237567" flag="0"/>
			<psa30 value="0.000134443958335954" flag="0"/>
		</comp>
	</station>
	<station code="JAN2" name="JAN2" netid="HI" source="ITSAK Strong Motion Network" insttype="" lat="39.664" lon="20.85222">
		<comp name="--.HNE" depth="0.0">
			<acc value="0.147043160486575" flag="0"/>
			<vel value="0.0624369837990484" flag="0"/>
			<psa03 value="0.363451576883437" flag="0"/>
			<psa10 value="0.0140465592655949" flag="0"/>
			<psa30 value="0.00124937453576461" flag="0"/>
		</comp>
		<comp name="--.HNN" depth="0.0">
			<acc value="0.270590514199824" flag="0"/>
			<vel value="0.0809697031510554" flag="0"/>
			<psa03 value="0.741699883975807" flag="0"/>
			<psa10 value="0.0225940579954478" flag="0"/>
			<psa30 value="0.00183359396660236" flag="0"/>
		</comp>
		<comp name="--.HNZ" depth="0.0">
			<acc value="0.112548633303321" flag="0"/>
			<vel value="0.02665183032221" flag="0"/>
			<psa03 value="0.165899885886451" flag="0"/>
			<psa10 value="0.00907175345915325" flag="0"/>
			<psa30 value="0.000705969423261562" flag="0"/>
		</comp>
	</station>
	<station code="JAN3" name="JAN3" netid="HI" source="ITSAK Strong Motion Network" insttype="" lat="39.684" lon="20.8379">
		<comp name="--.HNE" depth="0.0">
			<acc value="0.170833090450911" flag="0"/>
			<vel value="0.0571355551143865" flag="0"/>
			<psa03 value="0.244409003396959" flag="0"/>
			<psa10 value="0.0104806711680438" flag="0"/>
			<psa30 value="0.00117013147379912" flag="0"/>
		</comp>
		<comp name="--.HNN" depth="0.0">
			<acc value="0.144064250698732" flag="0"/>
			<vel value="0.0433528569657375" flag="0"/>
			<psa03 value="0.173941804041023" flag="0"/>
			<psa10 value="0.0149389327559951" flag="0"/>
			<psa30 value="0.0014550548277411" flag="0"/>
		</comp>
		<comp name="--.HNZ" depth="0.0">
			<acc value="0.125430529832778" flag="0"/>
			<vel value="0.0300580009630922" flag="0"/>
			<psa03 value="0.094840157695072" flag="0"/>
			<psa10 value="0.00454477513153631" flag="0"/>
			<psa30 value="0.000532896343434329" flag="0"/>
		</comp>
	</station>
	<station code="KRK1" name="KRK1" netid="HI" source="ITSAK Strong Motion Network" insttype="" lat="39.618861" lon="19.9202">
		<comp name="--.HNE" depth="0.0">
			<acc value="0.200429993820225" flag="0"/>
			<vel value="0.0729492833567837" flag="0"/>
			<psa03 value="0.440510931687436" flag="0"/>
			<psa10 value="0.0171805143747458" flag="0"/>
			<psa30 value="0.0016591362638007" flag="0"/>
		</comp>
		<comp name="--.HNN" depth="0.0">
			<acc value="0.208363585054353" flag="0"/>
			<vel value="0.0536604351531344" flag="0"/>
			<psa03 value="0.225615695932395" flag="0"/>
			<psa10 value="0.0145885142299829" flag="0"/>
			<psa30 value="0.0011053789550978" flag="0"/>
		</comp>
		<comp name="--.HNZ" depth="0.0">
			<acc value="0.151525713943075" flag="0"/>
			<vel value="0.025439030955473" flag="0"/>
			<psa03 value="0.104257604471246" flag="0"/>
			<psa10 value="0.00753805514040655" flag="0"/>
			<psa30 value="0.000624843371973652" flag="0"/>
		</comp>
	</station>
	<station code="LEF2" name="LEF2" netid="HI" source="ITSAK Strong Motion Network" insttype="" lat="38.830093" lon="20.708346">
		<comp name="--.HNE" depth="0.0">
			<acc value="0.0142890112948572" flag="0"/>
			<vel value="0.00804722250263637" flag="0"/>
			<psa03 value="0.0467283663582498" flag="0"/>
			<psa10 value="0.00742125037142855" flag="0"/>
			<psa30 value="0.000519911056137999" flag="0"/>
		</comp>
		<comp name="--.HNN" depth="0.0">
			<acc value="0.0138011627082052" flag="0"/>
			<vel value="0.00841854569298625" flag="0"/>
			<psa03 value="0.0404297590022813" flag="0"/>
			<psa10 value="0.0113448071627904" flag="0"/>
			<psa30 value="0.00054749356042771" flag="0"/>
		</comp>
		<comp name="--.HNZ" depth="0.0">
			<acc value="0.00784626689740603" flag="0"/>
			<vel value="0.00452648085931162" flag="0"/>
			<psa03 value="0.0248243632422357" flag="0"/>
			<psa10 value="0.00826825804400355" flag="0"/>
			<psa30 value="0.00037949672833757" flag="0"/>
		</comp>
	</station>
	<station code="PRE2" name="PRE2" netid="HI" source="ITSAK Strong Motion Network" insttype="" lat="38.9577" lon="20.7548">
		<comp name="--.HNE" depth="0.0">
			<acc value="0.0164629718134576" flag="0"/>
			<vel value="0.00838621388913389" flag="0"/>
			<psa03 value="0.0545380451695003" flag="0"/>
			<psa10 value="0.00931517927241027" flag="0"/>
			<psa30 value="0.00043307517347982" flag="0"/>
		</comp>
		<comp name="--.HNN" depth="0.0">
			<acc value="0.0162397652336916" flag="0"/>
			<vel value="0.00846173878281396" flag="0"/>
			<psa03 value="0.0694070405841399" flag="0"/>
			<psa10 value="0.00639440797314609" flag="0"/>
			<psa30 value="0.00075636645973257" flag="0"/>
		</comp>
		<comp name="--.HNZ" depth="0.0">
			<acc value="0.0105432364618958" flag="0"/>
			<vel value="0.00370330582486905" flag="0"/>
			<psa03 value="0.0241319371640704" flag="0"/>
			<psa10 value="0.0034594131535185" flag="0"/>
			<psa30 value="0.000208658054342893" flag="0"/>
		</comp>
	</station>
	<station code="ARTB" name="ARTB" netid="HL" source="National Observatory of Athens Seismic Network" insttype="" lat="39.15702" lon="20.9785">
		<comp name="00.HNE" depth="0.0">
			<acc value="0.0424726444142753" flag="0"/>
			<vel value="0.0171736592741854" flag="0"/>
			<psa03 value="0.125488583836024" flag="0"/>
			<psa10 value="0.00597439702446209" flag="0"/>
			<psa30 value="0.000384301942492838" flag="0"/>
		</comp>
		<comp name="00.HNN" depth="0.0">
			<acc value="0.0318526996215819" flag="0"/>
			<vel value="0.0117843328280206" flag="0"/>
			<psa03 value="0.0841645442381047" flag="0"/>
			<psa10 value="0.00372108322225128" flag="0"/>
			<psa30 value="0.000292929952046533" flag="0"/>
		</comp>
		<comp name="00.HNZ" depth="0.0">
			<acc value="0.0176690612694978" flag="0"/>
			<vel value="0.00563441989188893" flag="0"/>
			<psa03 value="0.050047127876792" flag="0"/>
			<psa10 value="0.00318535882688843" flag="0"/>
			<psa30 value="0.000160857452891687" flag="0"/>
		</comp>
	</station>
	<station code="JAN" name="JAN" netid="HL" source="National Observatory of Athens Seismic Network" insttype="" lat="39.65616" lon="20.84874">
		<comp name="00.HNE" depth="0.0">
			<acc value="0.0962580251542211" flag="0"/>
			<vel value="0.0225561686955461" flag="0"/>
			<psa03 value="0.0800734971845236" flag="0"/>
			<psa10 value="0.00422882326380326" flag="0"/>
			<psa30 value="0.000277053561772126" flag="0"/>
		</comp>
		<comp name="00.HNN" depth="0.0">
			<acc value="0.0687493987152767" flag="0"/>
			<vel value="0.0240947999323008" flag="0"/>
			<psa03 value="0.0662627229133677" flag="0"/>
			<psa10 value="0.00408072501548976" flag="0"/>
			<psa30 value="0.000554179263737736" flag="0"/>
		</comp>
		<comp name="00.HNZ" depth="0.0">
			<acc value="0.0451366963091959" flag="0"/>
			<vel value="0.011995266656356" flag="0"/>
			<psa03 value="0.0263462661441527" flag="0"/>
			<psa10 value="0.00431418454356061" flag="0"/>
			<psa30 value="0.00024283402927087" flag="0"/>
		</comp>
	</station>
	<station code="PRGA" name="PRGA" netid="HL" source="National Observatory of Athens Seismic Network" insttype="" lat="39.28557" lon="20.40157">
		<comp name="00.HNE" depth="0.0">
			<acc value="0.129581478258546" flag="0"/>
			<vel value="0.0463208704032041" flag="0"/>
			<psa03 value="0.362121863796407" flag="0"/>
			<psa10 value="0.01327478157665" flag="0"/>
			<psa30 value="0.000912927039434644" flag="0"/>
		</comp>
		<comp name="00.HNN" depth="0.0">
			<acc value="0.091401002961471" flag="0"/>
			<vel value="0.0320863221042422" flag="0"/>
			<psa03 value="0.192666054847445" flag="0"/>
			<psa10 value="0.0142983462577616" flag="0"/>
			<psa30 value="0.000942768495451119" flag="0"/>
		</comp>
		<comp name="00.HNZ" depth="0.0">
			<acc value="0.0366305920385066" flag="0"/>
			<vel value="0.0110001071443297" flag="0"/>
			<psa03 value="0.0497923714171183" flag="0"/>
			<psa10 value="0.0056538496960518" flag="0"/>
			<psa30 value="0.000477061394641027" flag="0"/>
		</comp>
	</station>
</stationlist>
