<?xml version="1.0" encoding="UTF-8" standalone="yes"?>
<!DOCTYPE earthquake SYSTEM "stationlist.dtd">
<stationlist created="" xmlns="ch.ethz.sed.shakemap.usgs.xml">
  <station code="APE" name="APE" netid="GE" insttype="STS-2/N" lat="37.0727" lon="25.523">
    <comp name="--.HHZ">
      <acc value="0.1440762620" flag="0"/>
      <vel value="0.0242948743" flag="0"/>
      <psa03 value="0.1091276839" flag="0"/>
      <psa10 value="0.0134220788" flag="0"/>
      <psa30 value="0.0020761030" flag="0"/>
    </comp>
    <comp name="--.HHE">
      <acc value="0.4696352898" flag="0"/>
      <vel value="0.0983071977" flag="0"/>
      <psa03 value="0.2674123346" flag="0"/>
      <psa10 value="0.0168958763" flag="0"/>
      <psa30 value="0.0025892012" flag="0"/>
    </comp>
    <comp name="--.HHN">
      <acc value="0.3934368206" flag="0"/>
      <vel value="0.0910095630" flag="0"/>
      <psa03 value="0.2612401152" flag="0"/>
      <psa10 value="0.0152778475" flag="0"/>
      <psa30 value="0.0020586838" flag="0"/>
    </comp>
  </station>
  <station code="THERA" name="THERA" netid="GE" insttype="STS-2/N" lat="36.367" lon="25.4753">
    <comp name="--.HHN">
      <acc value="0.1434995456" flag="0"/>
      <vel value="0.0385273661" flag="0"/>
      <psa03 value="0.2019465415" flag="0"/>
      <psa10 value="0.0091355795" flag="0"/>
      <psa30 value="0.0008050977" flag="0"/>
    </comp>
    <comp name="--.HHE">
      <acc value="0.2531234390" flag="0"/>
      <vel value="0.0507529270" flag="0"/>
      <psa03 value="0.2846345896" flag="0"/>
      <psa10 value="0.0229690407" flag="0"/>
      <psa30 value="0.0022072980" flag="0"/>
    </comp>
    <comp name="--.HHZ">
      <acc value="0.1568080886" flag="0"/>
      <vel value="0.0325439340" flag="0"/>
      <psa03 value="0.1956724349" flag="0"/>
      <psa10 value="0.0152852062" flag="0"/>
      <psa30 value="0.0019155870" flag="0"/>
    </comp>
  </station>
  <station code="NAX1" name="NAX1" netid="HI" insttype="CMG-5TD,ACCELEROMETER,GURALP" lat="37.1014" lon="25.3741">
    <comp name="--.HNE">
      <acc value="0.3176631667" flag="0"/>
      <vel value="0.0847525227" flag="0"/>
      <psa03 value="0.4209969909" flag="0"/>
      <psa10 value="0.0322358554" flag="0"/>
      <psa30 value="0.0020940618" flag="0"/>
    </comp>
    <comp name="--.HNN">
      <acc value="0.3464629056" flag="0"/>
      <vel value="0.0830076202" flag="0"/>
      <psa03 value="0.3410082287" flag="0"/>
      <psa10 value="0.0252432630" flag="0"/>
      <psa30 value="0.0018808396" flag="0"/>
    </comp>
    <comp name="--.HNZ">
      <acc value="0.1653488996" flag="0"/>
      <vel value="0.0457996560" flag="0"/>
      <psa03 value="0.2256932300" flag="0"/>
      <psa10 value="0.0187666993" flag="0"/>
      <psa30 value="0.0019355520" flag="0"/>
    </comp>
  </station>
  <station code="APE" name="APE" netid="HL" insttype="120" lat="37.0727" lon="25.523">
    <comp name="--.HHN">
      <acc value="0.3558804446" flag="0"/>
      <vel value="0.0860694704" flag="0"/>
      <psa03 value="0.2511598151" flag="0"/>
      <psa10 value="0.0149156901" flag="0"/>
      <psa30 value="0.0020476997" flag="0"/>
    </comp>
    <comp name="--.HHE">
      <acc value="0.4153888502" flag="0"/>
      <vel value="0.0945805628" flag="0"/>
      <psa03 value="0.2597195714" flag="0"/>
      <psa10 value="0.0162741271" flag="0"/>
      <psa30 value="0.0025758519" flag="0"/>
    </comp>
    <comp name="--.HHZ">
      <acc value="0.1279216152" flag="0"/>
      <vel value="0.0223893012" flag="0"/>
      <psa03 value="0.1054995287" flag="0"/>
      <psa10 value="0.0132998403" flag="0"/>
      <psa30 value="0.0020671579" flag="0"/>
    </comp>
  </station>
  <station code="MHLO" name="MHLO" netid="HL" insttype="20" lat="36.6898" lon="24.4017">
    <comp name="--.HHE">
      <acc value="0.1941985534" flag="0"/>
      <vel value="0.0765078788" flag="0"/>
      <psa03 value="0.6209866630" flag="0"/>
      <psa10 value="0.0591325327" flag="0"/>
      <psa30 value="0.0035254603" flag="0"/>
    </comp>
    <comp name="--.HHZ">
      <acc value="0.0986246694" flag="0"/>
      <vel value="0.0432210763" flag="0"/>
      <psa03 value="0.3012869528" flag="0"/>
      <psa10 value="0.0378634498" flag="0"/>
      <psa30 value="0.0026233096" flag="0"/>
    </comp>
    <comp name="--.HHN">
      <acc value="0.1733818359" flag="0"/>
      <vel value="0.0788781184" flag="0"/>
      <psa03 value="0.5810235562" flag="0"/>
      <psa10 value="0.0728357502" flag="0"/>
      <psa30 value="0.0031713846" flag="0"/>
    </comp>
  </station>
  <station code="SAP3" name="SAP3" netid="HL" insttype="LE3D20_SMART24" lat="36.4356" lon="25.3454">
    <comp name="--.HHN">
      <acc value="0.8952582666" flag="0"/>
      <vel value="0.3196186967" flag="0"/>
      <psa03 value="1.1384156186" flag="0"/>
      <psa10 value="0.0879543951" flag="0"/>
      <psa30 value="0.0106738034" flag="0"/>
    </comp>
    <comp name="--.HHE">
      <acc value="1.1504970693" flag="0"/>
      <vel value="0.2887440141" flag="0"/>
      <psa03 value="1.6159744345" flag="0"/>
      <psa10 value="0.0971881626" flag="0"/>
      <psa30 value="0.0146500012" flag="0"/>
    </comp>
    <comp name="--.HHZ">
      <acc value="0.8086753345" flag="0"/>
      <vel value="0.2624335588" flag="0"/>
      <psa03 value="0.9767873227" flag="0"/>
      <psa10 value="0.0482691366" flag="0"/>
      <psa30 value="0.0078681340" flag="0"/>
    </comp>
  </station>
  <station code="THERA" name="THERA" netid="HL" insttype="120" lat="36.367" lon="25.4753">
    <comp name="--.HHZ">
      <acc value="0.1574476541" flag="0"/>
      <vel value="0.0323583405" flag="0"/>
      <psa03 value="0.1905372851" flag="0"/>
      <psa10 value="0.0152303853" flag="0"/>
      <psa30 value="0.0019115265" flag="0"/>
    </comp>
    <comp name="--.HHE">
      <acc value="0.2566254575" flag="0"/>
      <vel value="0.0491456671" flag="0"/>
      <psa03 value="0.2769698281" flag="0"/>
      <psa10 value="0.0226885714" flag="0"/>
      <psa30 value="0.0022074328" flag="0"/>
    </comp>
    <comp name="--.HHN">
      <acc value="0.1462020266" flag="0"/>
      <vel value="0.0378164140" flag="0"/>
      <psa03 value="0.1956326667" flag="0"/>
      <psa10 value="0.0089695711" flag="0"/>
      <psa30 value="0.0007872295" flag="0"/>
    </comp>
  </station>
  <station code="THRA" name="THRA" netid="HL" insttype="CMG-5" lat="36.415" lon="25.4324">
    <comp name="00.HNN">
      <acc value="0.5351782532" flag="0"/>
      <vel value="0.2292994597" flag="0"/>
      <psa03 value="1.2584587621" flag="0"/>
      <psa10 value="0.1565563376" flag="0"/>
      <psa30 value="0.0096313166" flag="0"/>
    </comp>
    <comp name="00.HNE">
      <acc value="0.8994955445" flag="0"/>
      <vel value="0.2678850209" flag="0"/>
      <psa03 value="1.6128760797" flag="0"/>
      <psa10 value="0.0900357901" flag="0"/>
      <psa30 value="0.0116613196" flag="0"/>
    </comp>
    <comp name="00.HNZ">
      <acc value="0.4445500480" flag="0"/>
      <vel value="0.1562487690" flag="0"/>
      <psa03 value="0.8887341834" flag="0"/>
      <psa10 value="0.0629330977" flag="0"/>
      <psa30 value="0.0044782119" flag="0"/>
    </comp>
  </station>
  <station code="TNSA" name="TNSA" netid="HL" insttype="CMG-5" lat="37.5394" lon="25.1631">
    <comp name="00.HNN">
      <acc value="0.2705008137" flag="0"/>
      <vel value="0.0862469052" flag="0"/>
      <psa03 value="0.3296587232" flag="0"/>
      <psa10 value="0.0269833086" flag="0"/>
      <psa30 value="0.0024216172" flag="0"/>
    </comp>
    <comp name="00.HNE">
      <acc value="0.1447457818" flag="0"/>
      <vel value="0.0679496699" flag="0"/>
      <psa03 value="0.2797495730" flag="0"/>
      <psa10 value="0.0173464501" flag="0"/>
      <psa30 value="0.0013869752" flag="0"/>
    </comp>
    <comp name="00.HNZ">
      <acc value="0.1257342907" flag="0"/>
      <vel value="0.0724229253" flag="0"/>
      <psa03 value="0.3098848881" flag="0"/>
      <psa10 value="0.0378016138" flag="0"/>
      <psa30 value="0.0037079119" flag="0"/>
    </comp>
  </station>
  <station code="CMBO" name="CMBO" netid="HT" insttype="120P," lat="36.4709" lon="25.4056">
    <comp name="--.HHZ">
      <acc value="1.2568793221" flag="0"/>
      <vel value="0.2882396752" flag="0"/>
      <psa03 value="1.7124104587" flag="0"/>
      <psa10 value="0.0662862974" flag="0"/>
      <psa30 value="0.0081074383" flag="0"/>
    </comp>
    <comp name="--.HHN">
      <acc value="1.4842809854" flag="0"/>
      <vel value="0.5190162545" flag="0"/>
      <psa03 value="1.7332447930" flag="0"/>
      <psa10 value="0.2499491260" flag="0"/>
      <psa30 value="0.0176351120" flag="0"/>
    </comp>
    <comp name="--.HHE">
      <acc value="0.9211940359" flag="0"/>
      <vel value="0.2764031795" flag="0"/>
      <psa03 value="1.6814444462" flag="0"/>
      <psa10 value="0.1432915869" flag="0"/>
      <psa30 value="0.0149482280" flag="0"/>
    </comp>
  </station>
</stationlist>
