<?xml version="1.0" encoding="UTF-8" standalone="yes"?>
<!DOCTYPE earthquake SYSTEM "stationlist.dtd">
<stationlist created="" xmlns="ch.ethz.sed.shakemap.usgs.xml">
  <station code="APE" name="APE" netid="GE" insttype="STS-2/N" lat="37.0727" lon="25.523">
    <comp name="--.HHE">
      <acc value="0.4696352895" flag="0"/>
      <vel value="0.0983071975" flag="0"/>
      <psa03 value="0.2674123346" flag="0"/>
      <psa10 value="0.0168958762" flag="0"/>
      <psa30 value="0.0025891874" flag="0"/>
    </comp>
    <comp name="--.HHN">
      <acc value="0.3934368206" flag="0"/>
      <vel value="0.0910095626" flag="0"/>
      <psa03 value="0.2612401152" flag="0"/>
      <psa10 value="0.0152778485" flag="0"/>
      <psa30 value="0.0020586686" flag="0"/>
    </comp>
    <comp name="--.HHZ">
      <acc value="0.1440762621" flag="0"/>
      <vel value="0.0242948742" flag="0"/>
      <psa03 value="0.1091276839" flag="0"/>
      <psa10 value="0.0134220792" flag="0"/>
      <psa30 value="0.0020761304" flag="0"/>
    </comp>
  </station>
  <station code="THERA" name="THERA" netid="GE" insttype="STS-2/N" lat="36.367" lon="25.4753">
    <comp name="--.HHE">
      <acc value="0.2531234391" flag="0"/>
      <vel value="0.0507529266" flag="0"/>
      <psa03 value="0.2846345896" flag="0"/>
      <psa10 value="0.0229690415" flag="0"/>
      <psa30 value="0.0022072963" flag="0"/>
    </comp>
    <comp name="--.HHN">
      <acc value="0.1434995455" flag="0"/>
      <vel value="0.0385273659" flag="0"/>
      <psa03 value="0.2019465415" flag="0"/>
      <psa10 value="0.0091355797" flag="0"/>
      <psa30 value="0.0008051028" flag="0"/>
    </comp>
    <comp name="--.HHZ">
      <acc value="0.1568080886" flag="0"/>
      <vel value="0.0325439334" flag="0"/>
      <psa03 value="0.1956724349" flag="0"/>
      <psa10 value="0.0152852063" flag="0"/>
      <psa30 value="0.0019155892" flag="0"/>
    </comp>
  </station>
</stationlist>
