<?xml version="1.0" encoding="UTF-8" standalone="yes"?>
<!DOCTYPE earthquake SYSTEM "stationlist.dtd">
<stationlist created="" xmlns="ch.ethz.sed.shakemap.usgs.xml">
  <station code="APE" name="APE" netid="GE" insttype="STS-2/N" lat="37.0727" lon="25.523">
    <comp name="--.HHZ">
      <acc value="0.1440762620" flag="0"/>
      <vel value="0.0242948743" flag="0"/>
      <psa03 value="0.1091276839" flag="0"/>
      <psa10 value="0.0134220788" flag="0"/>
      <psa30 value="0.0020761030" flag="0"/>
    </comp>
    <comp name="--.HHE">
      <acc value="0.4696352898" flag="0"/>
      <vel value="0.0983071977" flag="0"/>
      <psa03 value="0.2674123346" flag="0"/>
      <psa10 value="0.0168958763" flag="0"/>
      <psa30 value="0.0025892012" flag="0"/>
    </comp>
    <comp name="--.HHN">
      <acc value="0.3934368206" flag="0"/>
      <vel value="0.0910095630" flag="0"/>
      <psa03 value="0.2612401152" flag="0"/>
      <psa10 value="0.0152778475" flag="0"/>
      <psa30 value="0.0020586838" flag="0"/>
    </comp>
  </station>
  <station code="THERA" name="THERA" netid="GE" insttype="STS-2/N" lat="36.367" lon="25.4753">
    <comp name="--.HHN">
      <acc value="0.1434995456" flag="0"/>
      <vel value="0.0385273661" flag="0"/>
      <psa03 value="0.2019465415" flag="0"/>
      <psa10 value="0.0091355795" flag="0"/>
      <psa30 value="0.0008050977" flag="0"/>
    </comp>
    <comp name="--.HHE">
      <acc value="0.2531234390" flag="0"/>
      <vel value="0.0507529270" flag="0"/>
      <psa03 value="0.2846345896" flag="0"/>
      <psa10 value="0.0229690407" flag="0"/>
      <psa30 value="0.0022072980" flag="0"/>
    </comp>
    <comp name="--.HHZ">
      <acc value="0.1568080886" flag="0"/>
      <vel value="0.0325439340" flag="0"/>
      <psa03 value="0.1956724349" flag="0"/>
      <psa10 value="0.0152852062" flag="0"/>
      <psa30 value="0.0019155870" flag="0"/>
    </comp>
  </station>
</stationlist>
