<stationlist created="1778069339">
	<station code="ARG2" name="ARG2" netid="HI" source="ITSAK Strong Motion Network" insttype="" lat="38.1783" lon="20.4878">
		<comp name="--.HNE" depth="0.0">
			<acc value="2.11572178136019" flag="0"/>
			<vel value="0.691602798235545" flag="0"/>
			<psa03 value="2.90860136784061" flag="0"/>
			<psa10 value="0.15452436930926" flag="0"/>
			<psa30 value="0.0160655841304228" flag="0"/>
		</comp>
		<comp name="--.HNN" depth="0.0">
			<acc value="1.67019705721655" flag="0"/>
			<vel value="0.511421606449315" flag="0"/>
			<psa03 value="2.09773835729767" flag="0"/>
			<psa10 value="0.0865479822161863" flag="0"/>
			<psa30 value="0.0109399169402336" flag="0"/>
		</comp>
		<comp name="--.HNZ" depth="0.0">
			<acc value="0.949966527996378" flag="0"/>
			<vel value="0.214672961543081" flag="0"/>
			<psa03 value="0.970682172583406" flag="0"/>
			<psa10 value="0.0319526468564388" flag="0"/>
			<psa30 value="0.00543528325998765" flag="0"/>
		</comp>
	</station>
	<station code="ARS1" name="ARS1" netid="HI" source="ITSAK Strong Motion Network" insttype="" lat="37.6349" lon="22.7293">
		<comp name="--.HNE" depth="0.0">
			<acc value="0.00323127253217393" flag="0"/>
			<vel value="0.00208107116987337" flag="0"/>
			<psa03 value="0.0118353543466526" flag="0"/>
			<psa10 value="0.00218196274745007" flag="0"/>
			<psa30 value="0.000124201613164208" flag="0"/>
		</comp>
		<comp name="--.HNN" depth="0.0">
			<acc value="0.00505730500740527" flag="0"/>
			<vel value="0.00269186558056837" flag="0"/>
			<psa03 value="0.0213099416269767" flag="0"/>
			<psa10 value="0.0037452711527081" flag="0"/>
			<psa30 value="0.000144188041333429" flag="0"/>
		</comp>
		<comp name="--.HNZ" depth="0.0">
			<acc value="0.00249311481315359" flag="0"/>
			<vel value="0.00117856995021678" flag="0"/>
			<psa03 value="0.00667007206789089" flag="0"/>
			<psa10 value="0.00092954671462852" flag="0"/>
			<psa30 value="7.97295460142693e-05" flag="0"/>
		</comp>
	</station>
	<station code="ART2" name="ART2" netid="HI" source="ITSAK Strong Motion Network" insttype="" lat="39.1474" lon="20.9937">
		<comp name="--.HNE" depth="0.0">
			<acc value="0.00377564789905766" flag="0"/>
			<vel value="0.00191171825753273" flag="0"/>
			<psa03 value="0.00972598153811233" flag="0"/>
			<psa10 value="0.00215485337346044" flag="0"/>
			<psa30 value="0.000172958931638589" flag="0"/>
		</comp>
		<comp name="--.HNN" depth="0.0">
			<acc value="0.00397947559706922" flag="0"/>
			<vel value="0.00190645578596152" flag="0"/>
			<psa03 value="0.00951426569008076" flag="0"/>
			<psa10 value="0.00206692950205997" flag="0"/>
			<psa30 value="0.000148674080699245" flag="0"/>
		</comp>
		<comp name="--.HNZ" depth="0.0">
			<acc value="0.0026489744590648" flag="0"/>
			<vel value="0.00135488609143165" flag="0"/>
			<psa03 value="0.00774604113201111" flag="0"/>
			<psa10 value="0.00156569297728954" flag="0"/>
			<psa30 value="0.000207609443211093" flag="0"/>
		</comp>
	</station>
	<station code="KLV1" name="KLV1" netid="HI" source="ITSAK Strong Motion Network" insttype="" lat="38.03256" lon="22.10797">
		<comp name="--.HNE" depth="0.0">
			<acc value="0.00832177604765559" flag="0"/>
			<vel value="0.00360548188492691" flag="0"/>
			<psa03 value="0.0251223881932607" flag="0"/>
			<psa10 value="0.00373468513893462" flag="0"/>
			<psa30 value="0.000140050827159227" flag="0"/>
		</comp>
		<comp name="--.HNN" depth="0.0">
			<acc value="0.00775449406183678" flag="0"/>
			<vel value="0.003268648633474" flag="0"/>
			<psa03 value="0.0178869857062826" flag="0"/>
			<psa10 value="0.00290694999304598" flag="0"/>
			<psa30 value="0.000164067053532898" flag="0"/>
		</comp>
		<comp name="--.HNZ" depth="0.0">
			<acc value="0.00406992117183009" flag="0"/>
			<vel value="0.00204474334137401" flag="0"/>
			<psa03 value="0.0115681947215399" flag="0"/>
			<psa10 value="0.00223314731004849" flag="0"/>
			<psa30 value="0.000129552787965606" flag="0"/>
		</comp>
	</station>
	<station code="KRK1" name="KRK1" netid="HI" source="ITSAK Strong Motion Network" insttype="" lat="39.618861" lon="19.9202">
		<comp name="--.HNE" depth="0.0">
			<acc value="0.0100763830660681" flag="0"/>
			<vel value="0.00347048988571505" flag="0"/>
			<psa03 value="0.0165040503436012" flag="0"/>
			<psa10 value="0.00211096702870465" flag="0"/>
			<psa30 value="0.000200425868375924" flag="0"/>
		</comp>
		<comp name="--.HNN" depth="0.0">
			<acc value="0.0119890024145537" flag="0"/>
			<vel value="0.00560285122125365" flag="0"/>
			<psa03 value="0.0167283191065528" flag="0"/>
			<psa10 value="0.00297159302533104" flag="0"/>
			<psa30 value="0.000149739203341709" flag="0"/>
		</comp>
		<comp name="--.HNZ" depth="0.0">
			<acc value="0.00532562445539685" flag="0"/>
			<vel value="0.00154428207302967" flag="0"/>
			<psa03 value="0.00963032546180672" flag="0"/>
			<psa10 value="0.0008465473882018" flag="0"/>
			<psa30 value="0.00012028803359625" flag="0"/>
		</comp>
	</station>
	<station code="MSL1" name="MSL1" netid="HI" source="ITSAK Strong Motion Network" insttype="" lat="38.3727" lon="21.4243">
		<comp name="--.HNE" depth="0.0">
			<acc value="0.0388039500061732" flag="0"/>
			<vel value="0.0179142504478115" flag="0"/>
			<psa03 value="0.0881691011870932" flag="0"/>
			<psa10 value="0.0132225059261375" flag="0"/>
			<psa30 value="0.000970073533443102" flag="0"/>
		</comp>
		<comp name="--.HNN" depth="0.0">
			<acc value="0.0368805002761283" flag="0"/>
			<vel value="0.0184758042823823" flag="0"/>
			<psa03 value="0.109298459236573" flag="0"/>
			<psa10 value="0.01922333470159" flag="0"/>
			<psa30 value="0.00113185852173983" flag="0"/>
		</comp>
		<comp name="--.HNZ" depth="0.0">
			<acc value="0.0168732276881721" flag="0"/>
			<vel value="0.00773785188282067" flag="0"/>
			<psa03 value="0.0325317045449149" flag="0"/>
			<psa10 value="0.00715534650659429" flag="0"/>
			<psa30 value="0.000416560121105268" flag="0"/>
		</comp>
	</station>
	<station code="PYL1" name="PYL1" netid="HI" source="ITSAK Strong Motion Network" insttype="" lat="36.914188" lon="21.695161">
		<comp name="--.HNE" depth="0.0">
			<acc value="0.00139260471757823" flag="0"/>
			<vel value="0.000666274951707731" flag="0"/>
			<psa03 value="0.00397411840907036" flag="0"/>
			<psa10 value="0.00102742005372465" flag="0"/>
			<psa30 value="8.18472774494129e-05" flag="0"/>
		</comp>
		<comp name="--.HNN" depth="0.0">
			<acc value="0.00122210188604867" flag="0"/>
			<vel value="0.000595885449257693" flag="0"/>
			<psa03 value="0.00311005400758577" flag="0"/>
			<psa10 value="0.000597552866194004" flag="0"/>
			<psa30 value="7.10405459313541e-05" flag="0"/>
		</comp>
		<comp name="--.HNZ" depth="0.0">
			<acc value="0.000773598174454291" flag="0"/>
			<vel value="0.00048100517518725" flag="0"/>
			<psa03 value="0.00184172877632589" flag="0"/>
			<psa10 value="0.000537364308684223" flag="0"/>
			<psa30 value="5.79459740530972e-05" flag="0"/>
		</comp>
	</station>
	<station code="VAS2" name="VAS2" netid="HI" source="ITSAK Strong Motion Network" insttype="" lat="38.630558" lon="20.608081">
		<comp name="--.HNE" depth="0.0">
			<acc value="0.0949048190032697" flag="0"/>
			<vel value="0.0448776133695196" flag="0"/>
			<psa03 value="0.214717849561086" flag="0"/>
			<psa10 value="0.0334868571213793" flag="0"/>
			<psa30 value="0.002216081493803" flag="0"/>
		</comp>
		<comp name="--.HNN" depth="0.0">
			<acc value="0.0927085140379332" flag="0"/>
			<vel value="0.0423734984088552" flag="0"/>
			<psa03 value="0.198476428558654" flag="0"/>
			<psa10 value="0.0527430080057511" flag="0"/>
			<psa30 value="0.0023946028982099" flag="0"/>
		</comp>
		<comp name="--.HNZ" depth="0.0">
			<acc value="0.0424929751216226" flag="0"/>
			<vel value="0.0225176710280943" flag="0"/>
			<psa03 value="0.0960615176094295" flag="0"/>
			<psa10 value="0.015539415780592" flag="0"/>
			<psa30 value="0.00111497578892733" flag="0"/>
		</comp>
	</station>
	<station code="PATC" name="PATC" netid="HL" source="National Observatory of Athens Seismic Network" insttype="" lat="38.26933" lon="21.76001">
		<comp name="00.HNE" depth="0.0">
			<acc value="0.0152190095001992" flag="0"/>
			<vel value="0.00906527230132317" flag="0"/>
			<psa03 value="0.0466213792962392" flag="0"/>
			<psa10 value="0.0085327862241706" flag="0"/>
			<psa30 value="0.000915872969476023" flag="0"/>
		</comp>
		<comp name="00.HNN" depth="0.0">
			<acc value="0.0128405905831546" flag="0"/>
			<vel value="0.00645267265513139" flag="0"/>
			<psa03 value="0.0332882017239942" flag="0"/>
			<psa10 value="0.00718783549322536" flag="0"/>
			<psa30 value="0.000702900065973049" flag="0"/>
		</comp>
		<comp name="00.HNZ" depth="0.0">
			<acc value="0.0090299052742726" flag="0"/>
			<vel value="0.00468382072611194" flag="0"/>
			<psa03 value="0.0165993586553788" flag="0"/>
			<psa10 value="0.00495698907123833" flag="0"/>
			<psa30 value="0.000323486153850105" flag="0"/>
		</comp>
	</station>
	<station code="PATG" name="PATG" netid="HL" source="National Observatory of Athens Seismic Network" insttype="" lat="38.23865" lon="21.72657">
		<comp name="00.HNE" depth="0.0">
			<acc value="0.0140544349105261" flag="0"/>
			<vel value="0.00910965700355808" flag="0"/>
			<psa03 value="0.0393731418240791" flag="0"/>
			<psa10 value="0.0151125751294536" flag="0"/>
			<psa30 value="0.000947192514108813" flag="0"/>
		</comp>
		<comp name="00.HNN" depth="0.0">
			<acc value="0.0143739339884224" flag="0"/>
			<vel value="0.00853217095336158" flag="0"/>
			<psa03 value="0.0404022125762994" flag="0"/>
			<psa10 value="0.0115770459624778" flag="0"/>
			<psa30 value="0.000863524587732645" flag="0"/>
		</comp>
		<comp name="00.HNZ" depth="0.0">
			<acc value="0.00704294008095654" flag="0"/>
			<vel value="0.00356077870449481" flag="0"/>
			<psa03 value="0.0242950181937216" flag="0"/>
			<psa10 value="0.00536772252799406" flag="0"/>
			<psa30 value="0.000557935316529849" flag="0"/>
		</comp>
	</station>
	<station code="RIOA" name="RIOA" netid="HL" source="National Observatory of Athens Seismic Network" insttype="" lat="38.29585" lon="21.79118">
		<comp name="00.HNE" depth="0.0">
			<acc value="0.00969927282075693" flag="0"/>
			<vel value="0.00525499975216604" flag="0"/>
			<psa03 value="0.0300667628474786" flag="0"/>
			<psa10 value="0.00473551514847788" flag="0"/>
			<psa30 value="0.000770908220032822" flag="0"/>
		</comp>
		<comp name="00.HNN" depth="0.0">
			<acc value="0.00871065385287561" flag="0"/>
			<vel value="0.00469366648741912" flag="0"/>
			<psa03 value="0.0184785313333462" flag="0"/>
			<psa10 value="0.00713146031288633" flag="0"/>
			<psa30 value="0.000415207677417562" flag="0"/>
		</comp>
		<comp name="00.HNZ" depth="0.0">
			<acc value="0.00758811649175426" flag="0"/>
			<vel value="0.00279944343301988" flag="0"/>
			<psa03 value="0.0167783274818519" flag="0"/>
			<psa10 value="0.0019650777146745" flag="0"/>
			<psa30 value="0.0003753871135273" flag="0"/>
		</comp>
	</station>
	<station code="ANX" name="ANX" netid="HP" source="University of Patras, Seismological Laboratory (PSLNET)" insttype="" lat="38.5933" lon="21.9209">
		<comp name="--.HNE" depth="0.0">
			<acc value="0.00590326997468835" flag="0"/>
			<vel value="0.00370341619891911" flag="0"/>
			<psa03 value="0.0239654313421926" flag="0"/>
			<psa10 value="0.00602847560691906" flag="0"/>
			<psa30 value="0.000259505394083715" flag="0"/>
		</comp>
		<comp name="--.HNN" depth="0.0">
			<acc value="0.00951925584942858" flag="0"/>
			<vel value="0.00524873706609838" flag="0"/>
			<psa03 value="0.0245406517393894" flag="0"/>
			<psa10 value="0.00382899263634406" flag="0"/>
			<psa30 value="0.000278980616513543" flag="0"/>
		</comp>
		<comp name="--.HNZ" depth="0.0">
			<acc value="0.00590962665334895" flag="0"/>
			<vel value="0.00380294252348652" flag="0"/>
			<psa03 value="0.0191447617360692" flag="0"/>
			<psa10 value="0.00522883685353378" flag="0"/>
			<psa30 value="0.000309037503467893" flag="0"/>
		</comp>
	</station>
	<station code="LTHK" name="LTHK" netid="HP" source="University of Patras, Seismological Laboratory (PSLNET)" insttype="" lat="37.7095" lon="20.8367">
		<comp name="--.HNE" depth="0.0">
			<acc value="0.0556739941118401" flag="0"/>
			<vel value="0.0183343489440043" flag="0"/>
			<psa03 value="0.084294317268824" flag="0"/>
			<psa10 value="0.005742214797389" flag="0"/>
			<psa30 value="0.000381203600387675" flag="0"/>
		</comp>
		<comp name="--.HNN" depth="0.0">
			<acc value="0.0460265802301567" flag="0"/>
			<vel value="0.0156009465620655" flag="0"/>
			<psa03 value="0.0951219312704458" flag="0"/>
			<psa10 value="0.00546436569428953" flag="0"/>
			<psa30 value="0.000563751803390224" flag="0"/>
		</comp>
		<comp name="--.HNZ" depth="0.0">
			<acc value="0.0326134612129727" flag="0"/>
			<vel value="0.00822716689661993" flag="0"/>
			<psa03 value="0.0349436633688702" flag="0"/>
			<psa10 value="0.00491672108528188" flag="0"/>
			<psa30 value="0.000277401681033285" flag="0"/>
		</comp>
	</station>
	<station code="PVO" name="PVO" netid="HP" source="University of Patras, Seismological Laboratory (PSLNET)" insttype="" lat="38.616" lon="21.525">
		<comp name="--.HNE" depth="0.0">
			<acc value="0.0101581201794848" flag="0"/>
			<vel value="0.00492863823360114" flag="0"/>
			<psa03 value="0.0314090290460268" flag="0"/>
			<psa10 value="0.00314090290460268" flag="0"/>
			<psa30 value="0.000343172724762144" flag="0"/>
		</comp>
		<comp name="--.HNN" depth="0.0">
			<acc value="0.00862214809992012" flag="0"/>
			<vel value="0.00367325640740389" flag="0"/>
			<psa03 value="0.0287692388555487" flag="0"/>
			<psa10 value="0.00288318779448143" flag="0"/>
			<psa30 value="0.000423261274608851" flag="0"/>
		</comp>
		<comp name="--.HNZ" depth="0.0">
			<acc value="0.00540307228987124" flag="0"/>
			<vel value="0.00213547485682061" flag="0"/>
			<psa03 value="0.0105591607619121" flag="0"/>
			<psa10 value="0.00175568418770098" flag="0"/>
			<psa30 value="0.000161966787958144" flag="0"/>
		</comp>
	</station>
	<station code="SERG" name="SERG" netid="HP" source="University of Patras, Seismological Laboratory (PSLNET)" insttype="" lat="38.4133" lon="22.0566">
		<comp name="--.HNE" depth="0.0">
			<acc value="0.00880370493513292" flag="0"/>
			<vel value="0.00330751332648924" flag="0"/>
			<psa03 value="0.0216552280032435" flag="0"/>
			<psa10 value="0.00183219336101823" flag="0"/>
			<psa30 value="0.000223711033091359" flag="0"/>
		</comp>
		<comp name="--.HNN" depth="0.0">
			<acc value="0.00719430012649316" flag="0"/>
			<vel value="0.00266019743052836" flag="0"/>
			<psa03 value="0.0207156416642598" flag="0"/>
			<psa10 value="0.00193689012450498" flag="0"/>
			<psa30 value="0.00020089250771604" flag="0"/>
		</comp>
		<comp name="--.HNZ" depth="0.0">
			<acc value="0.00438410009957977" flag="0"/>
			<vel value="0.00192524379169468" flag="0"/>
			<psa03 value="0.00970905883616497" flag="0"/>
			<psa10 value="0.00137313832111476" flag="0"/>
			<psa30 value="0.00019104922226002" flag="0"/>
		</comp>
	</station>
</stationlist>
