<?xml version="1.0" encoding="UTF-8" standalone="yes"?>
<!DOCTYPE earthquake SYSTEM "stationlist.dtd">
<stationlist created="" xmlns="ch.ethz.sed.shakemap.usgs.xml">
  <station code="ORTH" name="ORTH" netid="HL" insttype="30" lat="37.8511" lon="20.6963">
    <comp name="--.HHE">
      <acc value="0.1049136674" flag="0"/>
      <vel value="0.0373574581" flag="0"/>
      <psa03 value="0.2539909602" flag="0"/>
      <psa10 value="0.0089015446" flag="0"/>
      <psa30 value="0.0006875109" flag="0"/>
    </comp>
    <comp name="--.HHN">
      <acc value="0.0821541551" flag="0"/>
      <vel value="0.0260524127" flag="0"/>
      <psa03 value="0.1823282726" flag="0"/>
      <psa10 value="0.0112469245" flag="0"/>
      <psa30 value="0.0006196520" flag="0"/>
    </comp>
    <comp name="--.HHZ">
      <acc value="0.0487743875" flag="0"/>
      <vel value="0.0192635075" flag="0"/>
      <psa03 value="0.1270300819" flag="0"/>
      <psa10 value="0.0042464804" flag="0"/>
      <psa30 value="0.0003788812" flag="0"/>
    </comp>
  </station>
  <station code="RLS" name="RLS" netid="HL" insttype="120" lat="38.0559" lon="21.4647">
    <comp name="--.HHE">
      <acc value="0.0089677636" flag="0"/>
      <vel value="0.0037725510" flag="0"/>
      <psa03 value="0.0228986480" flag="0"/>
      <psa10 value="0.0020467203" flag="0"/>
      <psa30 value="0.0001418822" flag="0"/>
    </comp>
    <comp name="--.HHZ">
      <acc value="0.0043477406" flag="0"/>
      <vel value="0.0015388309" flag="0"/>
      <psa03 value="0.0091899880" flag="0"/>
      <psa10 value="0.0012266733" flag="0"/>
      <psa30 value="0.0001567458" flag="0"/>
    </comp>
    <comp name="--.HHN">
      <acc value="0.0091299046" flag="0"/>
      <vel value="0.0034700000" flag="0"/>
      <psa03 value="0.0173302677" flag="0"/>
      <psa10 value="0.0030071281" flag="0"/>
      <psa30 value="0.0001568304" flag="0"/>
    </comp>
  </station>
  <station code="VLS" name="VLS" netid="HL" insttype="120P," lat="38.1768" lon="20.5886">
    <comp name="--.HHE">
      <acc value="2.4906202617" flag="0"/>
      <vel value="0.4420126045" flag="0"/>
      <psa03 value="0.8269022848" flag="0"/>
      <psa10 value="0.0716680071" flag="0"/>
      <psa30 value="0.0078250848" flag="0"/>
    </comp>
    <comp name="--.HHN">
      <acc value="1.5142836997" flag="0"/>
      <vel value="0.3256300049" flag="0"/>
      <psa03 value="1.1103484302" flag="0"/>
      <psa10 value="0.0620446988" flag="0"/>
      <psa30 value="0.0069571434" flag="0"/>
    </comp>
    <comp name="--.HHZ">
      <acc value="1.1082481477" flag="0"/>
      <vel value="0.2114465589" flag="0"/>
      <psa03 value="0.8634370675" flag="0"/>
      <psa10 value="0.0440346538" flag="0"/>
      <psa30 value="0.0044648922" flag="0"/>
    </comp>
  </station>
  <station code="AMPL" name="AMPL" netid="HP" insttype="Compact," lat="38.9224" lon="21.2135">
    <comp name="--.HHZ">
      <acc value="0.0043703856" flag="0"/>
      <vel value="0.0019642708" flag="0"/>
      <psa03 value="0.0163849189" flag="0"/>
      <psa10 value="0.0015643186" flag="0"/>
      <psa30 value="0.0002227770" flag="0"/>
    </comp>
    <comp name="--.HHE">
      <acc value="0.0107243157" flag="0"/>
      <vel value="0.0037874900" flag="0"/>
      <psa03 value="0.0205018979" flag="0"/>
      <psa10 value="0.0038726273" flag="0"/>
      <psa30 value="0.0002205611" flag="0"/>
    </comp>
    <comp name="--.HHN">
      <acc value="0.0085087005" flag="0"/>
      <vel value="0.0046649529" flag="0"/>
      <psa03 value="0.0170004692" flag="0"/>
      <psa10 value="0.0033564039" flag="0"/>
      <psa30 value="0.0002505656" flag="0"/>
    </comp>
  </station>
  <station code="AXS" name="AXS" netid="HP" insttype="40," lat="38.1962" lon="21.3763">
    <comp name="--.HHE">
      <acc value="0.0070922226" flag="0"/>
      <vel value="0.0023395285" flag="0"/>
      <psa03 value="0.0112529418" flag="0"/>
      <psa10 value="0.0021745946" flag="0"/>
      <psa30 value="0.0001548167" flag="0"/>
    </comp>
    <comp name="--.HHN">
      <acc value="0.0076041082" flag="0"/>
      <vel value="0.0031710102" flag="0"/>
      <psa03 value="0.0156466553" flag="0"/>
      <psa10 value="0.0041881075" flag="0"/>
      <psa30 value="0.0002250270" flag="0"/>
    </comp>
    <comp name="--.HHZ">
      <acc value="0.0051365318" flag="0"/>
      <vel value="0.0018603913" flag="0"/>
      <psa03 value="0.0093362815" flag="0"/>
      <psa10 value="0.0015720158" flag="0"/>
      <psa30 value="0.0001282517" flag="0"/>
    </comp>
  </station>
  <station code="DRO" name="DRO" netid="HP" insttype="120P," lat="37.952" lon="21.71">
    <comp name="--.HHE">
      <acc value="0.0214179785" flag="0"/>
      <vel value="0.0103466319" flag="0"/>
      <psa03 value="0.0784550706" flag="0"/>
      <psa10 value="0.0093417851" flag="0"/>
      <psa30 value="0.0006467770" flag="0"/>
    </comp>
    <comp name="--.HHN">
      <acc value="0.0140485980" flag="0"/>
      <vel value="0.0080399830" flag="0"/>
      <psa03 value="0.0438884998" flag="0"/>
      <psa10 value="0.0072636603" flag="0"/>
      <psa30 value="0.0004121999" flag="0"/>
    </comp>
    <comp name="--.HHZ">
      <acc value="0.0083419750" flag="0"/>
      <vel value="0.0034930981" flag="0"/>
      <psa03 value="0.0266390586" flag="0"/>
      <psa10 value="0.0036405325" flag="0"/>
      <psa30 value="0.0002374111" flag="0"/>
    </comp>
  </station>
  <station code="FSK" name="FSK" netid="HP" insttype="40," lat="38.4593" lon="20.5623">
    <comp name="--.HHE">
      <acc value="0.0953606864" flag="0"/>
      <vel value="0.0266797897" flag="0"/>
      <psa03 value="0.1175757460" flag="0"/>
      <psa10 value="0.0106979371" flag="0"/>
      <psa30 value="0.0007290905" flag="0"/>
    </comp>
    <comp name="--.HHN">
      <acc value="0.0650789493" flag="0"/>
      <vel value="0.0161508002" flag="0"/>
      <psa03 value="0.0652899615" flag="0"/>
      <psa10 value="0.0125495716" flag="0"/>
      <psa30 value="0.0006763850" flag="0"/>
    </comp>
    <comp name="--.HHZ">
      <acc value="0.0692929072" flag="0"/>
      <vel value="0.0161663938" flag="0"/>
      <psa03 value="0.0974277830" flag="0"/>
      <psa10 value="0.0066849172" flag="0"/>
      <psa30 value="0.0007372409" flag="0"/>
    </comp>
  </station>
  <station code="LTHK" name="LTHK" netid="HP" insttype="40," lat="37.7095" lon="20.8367">
    <comp name="--.HHE">
      <acc value="0.0570460872" flag="0"/>
      <vel value="0.0180886231" flag="0"/>
      <psa03 value="0.0856205294" flag="0"/>
      <psa10 value="0.0057382265" flag="0"/>
      <psa30 value="0.0003988109" flag="0"/>
    </comp>
    <comp name="--.HHN">
      <acc value="0.0471590128" flag="0"/>
      <vel value="0.0154714900" flag="0"/>
      <psa03 value="0.0960440699" flag="0"/>
      <psa10 value="0.0054963375" flag="0"/>
      <psa30 value="0.0005718417" flag="0"/>
    </comp>
    <comp name="--.HHZ">
      <acc value="0.0330783496" flag="0"/>
      <vel value="0.0082526806" flag="0"/>
      <psa03 value="0.0352485309" flag="0"/>
      <psa10 value="0.0048559349" flag="0"/>
      <psa30 value="0.0002788087" flag="0"/>
    </comp>
  </station>
  <station code="PVO" name="PVO" netid="HP" insttype="120P," lat="38.616" lon="21.525">
    <comp name="--.HHE">
      <acc value="0.0199150683" flag="0"/>
      <vel value="0.0105233234" flag="0"/>
      <psa03 value="0.0677843173" flag="0"/>
      <psa10 value="0.0073322619" flag="0"/>
      <psa30 value="0.0006095815" flag="0"/>
    </comp>
    <comp name="--.HHN">
      <acc value="0.0168103837" flag="0"/>
      <vel value="0.0072438212" flag="0"/>
      <psa03 value="0.0502354170" flag="0"/>
      <psa10 value="0.0060668252" flag="0"/>
      <psa30 value="0.0007035143" flag="0"/>
    </comp>
    <comp name="--.HHZ">
      <acc value="0.0108040070" flag="0"/>
      <vel value="0.0041430791" flag="0"/>
      <psa03 value="0.0219366616" flag="0"/>
      <psa10 value="0.0036429572" flag="0"/>
      <psa30 value="0.0002766021" flag="0"/>
    </comp>
  </station>
  <station code="DMLN" name="DMLN" netid="HT" insttype="1s-100Hz," lat="38.2385" lon="20.3734">
    <comp name="--.HHZ">
      <acc value="0.5180870723" flag="0"/>
      <vel value="0.0943137892" flag="0"/>
      <psa03 value="0.5474961075" flag="0"/>
      <psa10 value="0.0321374940" flag="0"/>
      <psa30 value="0.0025677877" flag="0"/>
    </comp>
    <comp name="--.HHE">
      <acc value="0.8835224434" flag="0"/>
      <vel value="0.2186593823" flag="0"/>
      <psa03 value="0.7072956652" flag="0"/>
      <psa10 value="0.1014735504" flag="0"/>
      <psa30 value="0.0043223537" flag="0"/>
    </comp>
    <comp name="--.HHN">
      <acc value="0.6314758812" flag="0"/>
      <vel value="0.2093880259" flag="0"/>
      <psa03 value="0.8427276720" flag="0"/>
      <psa10 value="0.1216941159" flag="0"/>
      <psa30 value="0.0061042287" flag="0"/>
    </comp>
  </station>
  <station code="DRAG" name="DRAG" netid="HT" insttype="1s-100Hz," lat="38.6839" lon="20.5746">
    <comp name="--.HHE">
      <acc value="0.0000000000" flag="0"/>
      <vel value="-100.0000000000" flag="0"/>
      <psa03 value="0.0000000000" flag="0"/>
      <psa10 value="0.0000000000" flag="0"/>
      <psa30 value="0.0000000000" flag="0"/>
    </comp>
    <comp name="--.HHN">
      <acc value="0.0740490952" flag="0"/>
      <vel value="0.0195108436" flag="0"/>
      <psa03 value="0.1585635418" flag="0"/>
      <psa10 value="0.0091366584" flag="0"/>
      <psa30 value="0.0014340099" flag="0"/>
    </comp>
    <comp name="--.HHZ">
      <acc value="0.0500579659" flag="0"/>
      <vel value="0.0126767822" flag="0"/>
      <psa03 value="0.0520905519" flag="0"/>
      <psa10 value="0.0055581316" flag="0"/>
      <psa30 value="0.0004783817" flag="0"/>
    </comp>
  </station>
  <station code="EVGI" name="EVGI" netid="HT" insttype="30" lat="38.621" lon="20.656">
    <comp name="--.HHE">
      <acc value="0.1126442975" flag="0"/>
      <vel value="0.0243320607" flag="0"/>
      <psa03 value="0.0885757703" flag="0"/>
      <psa10 value="0.0043749359" flag="0"/>
      <psa30 value="0.0005701690" flag="0"/>
    </comp>
    <comp name="--.HHZ">
      <acc value="0.0696341730" flag="0"/>
      <vel value="0.0126383401" flag="0"/>
      <psa03 value="0.0767052993" flag="0"/>
      <psa10 value="0.0051057260" flag="0"/>
      <psa30 value="0.0003696579" flag="0"/>
    </comp>
  </station>
  <station code="LKD2" name="LKD2" netid="HT" insttype="100" lat="38.7889" lon="20.6578">
    <comp name="--.HHE">
      <acc value="0.0316498179" flag="0"/>
      <vel value="0.0077935543" flag="0"/>
      <psa03 value="0.0374337605" flag="0"/>
      <psa10 value="0.0035263745" flag="0"/>
      <psa30 value="0.0002146642" flag="0"/>
    </comp>
    <comp name="--.HHN">
      <acc value="0.0319587690" flag="0"/>
      <vel value="0.0101747474" flag="0"/>
      <psa03 value="0.0557240778" flag="0"/>
      <psa10 value="0.0033914880" flag="0"/>
      <psa30 value="0.0003567085" flag="0"/>
    </comp>
    <comp name="--.HHZ">
      <acc value="0.0140327061" flag="0"/>
      <vel value="0.0044401839" flag="0"/>
      <psa03 value="0.0330637550" flag="0"/>
      <psa10 value="0.0030605961" flag="0"/>
      <psa30 value="0.0002558785" flag="0"/>
    </comp>
  </station>
  <station code="NYDR" name="NYDR" netid="HT" insttype="1s-100Hz," lat="38.7135" lon="20.6983">
    <comp name="--.HHE">
      <acc value="0.0457358423" flag="0"/>
      <vel value="0.0130399315" flag="0"/>
      <psa03 value="0.0571169064" flag="0"/>
      <psa10 value="0.0063864083" flag="0"/>
      <psa30 value="0.0006159163" flag="0"/>
    </comp>
    <comp name="--.HHN">
      <acc value="0.0500424660" flag="0"/>
      <vel value="0.0229445823" flag="0"/>
      <psa03 value="0.1262157008" flag="0"/>
      <psa10 value="0.0112745738" flag="0"/>
      <psa30 value="0.0008312073" flag="0"/>
    </comp>
    <comp name="--.HHZ">
      <acc value="0.0349844288" flag="0"/>
      <vel value="0.0131917578" flag="0"/>
      <psa03 value="0.0539615312" flag="0"/>
      <psa10 value="0.0038897052" flag="0"/>
      <psa30 value="0.0004152931" flag="0"/>
    </comp>
  </station>
  <station code="RTZL" name="RTZL" netid="HT" insttype="Compact," lat="38.076" lon="20.7715">
    <comp name="--.HHE">
      <acc value="0.2383374560" flag="0"/>
      <vel value="0.0478069902" flag="0"/>
      <psa03 value="0.1718758597" flag="0"/>
      <psa10 value="0.0127032336" flag="0"/>
      <psa30 value="0.0012701009" flag="0"/>
    </comp>
    <comp name="--.HHZ">
      <acc value="0.1012228554" flag="0"/>
      <vel value="0.0283178168" flag="0"/>
      <psa03 value="0.1156505689" flag="0"/>
      <psa10 value="0.0115392543" flag="0"/>
      <psa30 value="0.0006177921" flag="0"/>
    </comp>
    <comp name="--.HHN">
      <acc value="0.3115550265" flag="0"/>
      <vel value="0.0533237656" flag="0"/>
      <psa03 value="0.1519586143" flag="0"/>
      <psa10 value="0.0098563247" flag="0"/>
      <psa30 value="0.0008508472" flag="0"/>
    </comp>
  </station>
  <station code="TSLK" name="TSLK" netid="HT" insttype="1s-100Hz," lat="38.8249" lon="20.6554">
    <comp name="--.HHZ">
      <acc value="0.0169566626" flag="0"/>
      <vel value="0.0065388134" flag="0"/>
      <psa03 value="0.0341087992" flag="0"/>
      <psa10 value="0.0032562705" flag="0"/>
      <psa30 value="0.0003819367" flag="0"/>
    </comp>
    <comp name="--.HHE">
      <acc value="0.0402305290" flag="0"/>
      <vel value="0.0157431874" flag="0"/>
      <psa03 value="0.0844879729" flag="0"/>
      <psa10 value="0.0056562862" flag="0"/>
      <psa30 value="0.0003518431" flag="0"/>
    </comp>
    <comp name="--.HHN">
      <acc value="0.0244092238" flag="0"/>
      <vel value="0.0112227576" flag="0"/>
      <psa03 value="0.0515981698" flag="0"/>
      <psa10 value="0.0086548859" flag="0"/>
      <psa30 value="0.0005521254" flag="0"/>
    </comp>
  </station>
</stationlist>
