<?xml version="1.0" encoding="UTF-8" standalone="yes"?>
<!DOCTYPE earthquake SYSTEM "stationlist.dtd">
<stationlist created="" xmlns="ch.ethz.sed.shakemap.usgs.xml">
  <station code="ZKR" name="ZKR" netid="GE" insttype="STS-2/N" lat="35.1147" lon="26.2169">
    <comp name="--.HHN">
      <acc value="0.0209618008" flag="0"/>
      <vel value="0.0140099239" flag="0"/>
      <psa03 value="0.0694025010" flag="0"/>
      <psa10 value="0.0146234785" flag="0"/>
      <psa30 value="0.0016836518" flag="0"/>
    </comp>
    <comp name="--.HHZ">
      <acc value="0.0265833374" flag="0"/>
      <vel value="0.0203135494" flag="0"/>
      <psa03 value="0.0793652173" flag="0"/>
      <psa10 value="0.0349336219" flag="0"/>
      <psa30 value="0.0030739393" flag="0"/>
    </comp>
    <comp name="--.HHE">
      <acc value="0.0325644281" flag="0"/>
      <vel value="0.0343914517" flag="0"/>
      <psa03 value="0.1135330129" flag="0"/>
      <psa10 value="0.0482781696" flag="0"/>
      <psa30 value="0.0084658063" flag="0"/>
    </comp>
  </station>
</stationlist>
