<?xml version="1.0" encoding="UTF-8" standalone="yes"?>
<!DOCTYPE earthquake SYSTEM "stationlist.dtd">
<stationlist created="" xmlns="ch.ethz.sed.shakemap.usgs.xml">
  <station code="ZKR" name="ZKR" netid="GE" insttype="STS-2/N" lat="35.1147" lon="26.2169">
    <comp name="--.HHN">
      <acc value="0.0209618004" flag="0"/>
      <vel value="0.0140099233" flag="0"/>
      <psa03 value="0.0694025010" flag="0"/>
      <psa10 value="0.0146234785" flag="0"/>
      <psa30 value="0.0016836434" flag="0"/>
    </comp>
    <comp name="--.HHZ">
      <acc value="0.0265833376" flag="0"/>
      <vel value="0.0203135496" flag="0"/>
      <psa03 value="0.0793652173" flag="0"/>
      <psa10 value="0.0349336219" flag="0"/>
      <psa30 value="0.0030737868" flag="0"/>
    </comp>
    <comp name="--.HHE">
      <acc value="0.0325644274" flag="0"/>
      <vel value="0.0343914515" flag="0"/>
      <psa03 value="0.1135330129" flag="0"/>
      <psa10 value="0.0482781696" flag="0"/>
      <psa30 value="0.0084657435" flag="0"/>
    </comp>
  </station>
  <station code="PFKS" name="PFKS" netid="HC" insttype="120" lat="35.0429" lon="25.4733">
    <comp name="--.HHE">
      <acc value="0.0273225604" flag="0"/>
      <vel value="0.0207099920" flag="0"/>
      <psa03 value="0.1040673594" flag="0"/>
      <psa10 value="0.0313796349" flag="0"/>
      <psa30 value="0.0025431296" flag="0"/>
    </comp>
    <comp name="--.HHZ">
      <acc value="0.0168874044" flag="0"/>
      <vel value="0.0142018323" flag="0"/>
      <psa03 value="0.0570773361" flag="0"/>
      <psa10 value="0.0164179910" flag="0"/>
      <psa30 value="0.0023394429" flag="0"/>
    </comp>
    <comp name="--.HHN">
      <acc value="0.0344436949" flag="0"/>
      <vel value="0.0243262145" flag="0"/>
      <psa03 value="0.0872289931" flag="0"/>
      <psa10 value="0.0315111743" flag="0"/>
      <psa30 value="0.0025439509" flag="0"/>
    </comp>
  </station>
  <station code="STIA" name="STIA" netid="HC" insttype="120" lat="35.2021" lon="26.0909">
    <comp name="--.HHE">
      <acc value="0.0499763894" flag="0"/>
      <vel value="0.0425358188" flag="0"/>
      <psa03 value="0.1703974845" flag="0"/>
      <psa10 value="0.0613313187" flag="0"/>
      <psa30 value="0.0072393270" flag="0"/>
    </comp>
    <comp name="--.HHN">
      <acc value="0.0503022422" flag="0"/>
      <vel value="0.0488355906" flag="0"/>
      <psa03 value="0.1168958467" flag="0"/>
      <psa10 value="0.0585558969" flag="0"/>
      <psa30 value="0.0045407166" flag="0"/>
    </comp>
    <comp name="--.HHZ">
      <acc value="0.0415517469" flag="0"/>
      <vel value="0.0245221555" flag="0"/>
      <psa03 value="0.0796021890" flag="0"/>
      <psa10 value="0.0321246647" flag="0"/>
      <psa30 value="0.0033970666" flag="0"/>
    </comp>
  </station>
  <station code="TEFL" name="TEFL" netid="HC" insttype="GEOtiny," lat="35.0933" lon="25.1634">
    <comp name="--.HHE">
      <acc value="0.0244933357" flag="0"/>
      <vel value="0.0237120557" flag="0"/>
      <psa03 value="0.0578722451" flag="0"/>
      <psa10 value="0.0374024702" flag="0"/>
      <psa30 value="0.0059502736" flag="0"/>
    </comp>
    <comp name="--.HHZ">
      <acc value="0.0134964543" flag="0"/>
      <vel value="0.0136185434" flag="0"/>
      <psa03 value="0.0261359563" flag="0"/>
      <psa10 value="0.0223827151" flag="0"/>
      <psa30 value="0.0024846809" flag="0"/>
    </comp>
    <comp name="--.HHN">
      <acc value="0.0254334531" flag="0"/>
      <vel value="0.0268347068" flag="0"/>
      <psa03 value="0.0538064967" flag="0"/>
      <psa10 value="0.0608737531" flag="0"/>
      <psa30 value="0.0068671399" flag="0"/>
    </comp>
  </station>
  <station code="KSTE" name="KSTE" netid="HL" insttype="60" lat="35.1801" lon="25.3372">
    <comp name="--.HHE">
      <acc value="0.0070904149" flag="0"/>
      <vel value="0.0101579849" flag="0"/>
      <psa03 value="0.0183919021" flag="0"/>
      <psa10 value="0.0250404568" flag="0"/>
      <psa30 value="0.0028516253" flag="0"/>
    </comp>
    <comp name="--.HHN">
      <acc value="0.0519366758" flag="0"/>
      <vel value="0.0158681031" flag="0"/>
      <psa03 value="0.0226891123" flag="0"/>
      <psa10 value="0.0247016434" flag="0"/>
      <psa30 value="0.0020893284" flag="0"/>
    </comp>
    <comp name="--.HHZ">
      <acc value="0.0062393920" flag="0"/>
      <vel value="0.0056666602" flag="0"/>
      <psa03 value="0.0185475721" flag="0"/>
      <psa10 value="0.0109158254" flag="0"/>
      <psa30 value="0.0016322721" flag="0"/>
    </comp>
  </station>
  <station code="NPS" name="NPS" netid="HL" insttype="CMG3ESPC-120s" lat="35.2613" lon="25.6104">
    <comp name="--.HHE">
      <acc value="0.0076159435" flag="0"/>
      <vel value="0.0078739647" flag="0"/>
      <psa03 value="0.0192466757" flag="0"/>
      <psa10 value="0.0139666031" flag="0"/>
      <psa30 value="0.0017050215" flag="0"/>
    </comp>
    <comp name="--.HHN">
      <acc value="0.0135310043" flag="0"/>
      <vel value="0.0143347988" flag="0"/>
      <psa03 value="0.0333374813" flag="0"/>
      <psa10 value="0.0287602105" flag="0"/>
      <psa30 value="0.0019141732" flag="0"/>
    </comp>
    <comp name="--.HHZ">
      <acc value="0.0086864788" flag="0"/>
      <vel value="0.0114005104" flag="0"/>
      <psa03 value="0.0265303752" flag="0"/>
      <psa10 value="0.0251171267" flag="0"/>
      <psa30 value="0.0016054941" flag="0"/>
    </comp>
  </station>
  <station code="ZKR" name="ZKR" netid="HL" insttype="120" lat="35.1147" lon="26.2169">
    <comp name="--.HHZ">
      <acc value="0.0259096909" flag="0"/>
      <vel value="0.0202493783" flag="0"/>
      <psa03 value="0.0772206784" flag="0"/>
      <psa10 value="0.0347437643" flag="0"/>
      <psa30 value="0.0030706551" flag="0"/>
    </comp>
    <comp name="--.HHN">
      <acc value="0.0205459007" flag="0"/>
      <vel value="0.0138095491" flag="0"/>
      <psa03 value="0.0675456437" flag="0"/>
      <psa10 value="0.0145121113" flag="0"/>
      <psa30 value="0.0016813127" flag="0"/>
    </comp>
    <comp name="--.HHE">
      <acc value="0.0319436788" flag="0"/>
      <vel value="0.0339482121" flag="0"/>
      <psa03 value="0.1107483993" flag="0"/>
      <psa10 value="0.0479800138" flag="0"/>
      <psa30 value="0.0084635040" flag="0"/>
    </comp>
  </station>
</stationlist>
