<?xml version="1.0" encoding="UTF-8" standalone="yes"?>
<!DOCTYPE earthquake SYSTEM "stationlist.dtd">
<stationlist created="" xmlns="ch.ethz.sed.shakemap.usgs.xml">
  <station code="CEYT" name="CEYT" netid="KO" insttype="CMG-3ESP" lat="37.0105" lon="35.7478">
    <comp name="--.HHN">
      <acc value="0.0048763516" flag="0"/>
      <vel value="0.0043794885" flag="0"/>
      <psa03 value="0.0140684564" flag="0"/>
      <psa10 value="0.0054663066" flag="0"/>
      <psa30 value="0.0009691749" flag="0"/>
    </comp>
    <comp name="--.HHE">
      <acc value="0.0063586639" flag="0"/>
      <vel value="0.0046550434" flag="0"/>
      <psa03 value="0.0146573648" flag="0"/>
      <psa10 value="0.0074347515" flag="0"/>
      <psa30 value="0.0006967458" flag="0"/>
    </comp>
    <comp name="--.HHZ">
      <acc value="0.0030939984" flag="0"/>
      <vel value="0.0033319071" flag="0"/>
      <psa03 value="0.0068271118" flag="0"/>
      <psa10 value="0.0063078600" flag="0"/>
      <psa30 value="0.0009757314" flag="0"/>
    </comp>
  </station>
  <station code="GAZ" name="GAZ" netid="KO" insttype="CMG-3T" lat="37.1721" lon="37.2096">
    <comp name="--.HHE">
      <acc value="0.0157475981" flag="0"/>
      <vel value="0.0073821479" flag="0"/>
      <psa03 value="0.0355543392" flag="0"/>
      <psa10 value="0.0054890366" flag="0"/>
      <psa30 value="0.0006404968" flag="0"/>
    </comp>
    <comp name="--.HHN">
      <acc value="0.0196214205" flag="0"/>
      <vel value="0.0118014549" flag="0"/>
      <psa03 value="0.0706758384" flag="0"/>
      <psa10 value="0.0076079764" flag="0"/>
      <psa30 value="0.0008459571" flag="0"/>
    </comp>
    <comp name="--.HHZ">
      <acc value="0.0113956754" flag="0"/>
      <vel value="0.0062174625" flag="0"/>
      <psa03 value="0.0403067688" flag="0"/>
      <psa10 value="0.0047162494" flag="0"/>
      <psa30 value="0.0009456320" flag="0"/>
    </comp>
  </station>
  <station code="KMRS" name="KMRS" netid="KO" insttype="CMG-3T" lat="37.5053" lon="36.9">
    <comp name="--.HHE">
      <acc value="0.0122382571" flag="0"/>
      <vel value="0.0063590513" flag="0"/>
      <psa03 value="0.0358051998" flag="0"/>
      <psa10 value="0.0068605444" flag="0"/>
      <psa30 value="0.0018684259" flag="0"/>
    </comp>
  </station>
  <station code="SARI" name="SARI" netid="KO" insttype="CMG-3T" lat="38.4072" lon="36.4181">
    <comp name="--.HHZ">
      <acc value="0.0368516402" flag="0"/>
      <vel value="0.0129974679" flag="0"/>
      <psa03 value="0.0742532369" flag="0"/>
      <psa10 value="0.0075899944" flag="0"/>
      <psa30 value="0.0023799687" flag="0"/>
    </comp>
    <comp name="--.HHE">
      <acc value="0.0832050848" flag="0"/>
      <vel value="0.0178085414" flag="0"/>
      <psa03 value="0.0770868750" flag="0"/>
      <psa10 value="0.0131292866" flag="0"/>
      <psa30 value="0.0011241069" flag="0"/>
    </comp>
    <comp name="--.HHN">
      <acc value="0.0593822185" flag="0"/>
      <vel value="0.0191928670" flag="0"/>
      <psa03 value="0.0994709542" flag="0"/>
      <psa10 value="0.0106838249" flag="0"/>
      <psa30 value="0.0019394096" flag="0"/>
    </comp>
  </station>
  <station code="ANDN" name="ANDN" netid="TU" insttype="T" lat="37.58" lon="36.3452">
    <comp name="--.HHZ">
      <acc value="0.1224431716" flag="0"/>
      <vel value="0.0574563413" flag="0"/>
      <psa03 value="0.2486617752" flag="0"/>
      <psa10 value="0.0564686614" flag="0"/>
      <psa30 value="0.0049614643" flag="0"/>
    </comp>
    <comp name="--.HHE">
      <acc value="0.2111554205" flag="0"/>
      <vel value="0.0923937198" flag="0"/>
      <psa03 value="0.5159177691" flag="0"/>
      <psa10 value="0.0915055965" flag="0"/>
      <psa30 value="0.0060763310" flag="0"/>
    </comp>
    <comp name="--.HHN">
      <acc value="0.2295011187" flag="0"/>
      <vel value="0.0911740165" flag="0"/>
      <psa03 value="0.5822426586" flag="0"/>
      <psa10 value="0.0481163648" flag="0"/>
      <psa30 value="0.0050883425" flag="0"/>
    </comp>
  </station>
</stationlist>
