<?xml version="1.0" encoding="UTF-8" standalone="yes"?>
<!DOCTYPE earthquake SYSTEM "stationlist.dtd">
<stationlist created="" xmlns="ch.ethz.sed.shakemap.usgs.xml">
  <station code="KNS1" name="KNS1" netid="HI" insttype="unknown" commtype="DIG" lat="40.048" lon="20.7524">
    <comp name="--.HNE">
      <acc value="0.0089123810" flag="0"/>
      <vel value="0.0073530118" flag="0"/>
      <psa03 value="0.0207650203" flag="0"/>
      <psa10 value="0.0107561643" flag="0"/>
      <psa30 value="0.0030612196" flag="0"/>
    </comp>
    <comp name="--.HNZ">
      <acc value="0.0060544314" flag="0"/>
      <vel value="0.0049570595" flag="0"/>
      <psa03 value="0.0135487773" flag="0"/>
      <psa10 value="0.0073520741" flag="0"/>
      <psa30 value="0.0018388188" flag="0"/>
    </comp>
    <comp name="--.HNN">
      <acc value="0.0089845392" flag="0"/>
      <vel value="0.0101138816" flag="0"/>
      <psa03 value="0.0244335247" flag="0"/>
      <psa10 value="0.0099910396" flag="0"/>
      <psa30 value="0.0038091143" flag="0"/>
    </comp>
  </station>
  <station code="JAN" name="JAN" netid="HL" insttype="CMG3EPSC60_DR24" commtype="DIG" lat="39.6562" lon="20.8487">
    <comp name="--.HHZ">
      <acc value="0.0000802865" flag="0"/>
      <vel value="0.0000057166" flag="0"/>
      <psa03 value="0.0000233756" flag="0"/>
      <psa10 value="0.0000059225" flag="0"/>
      <psa30 value="0.0000006724" flag="0"/>
    </comp>
    <comp name="--.HHN">
      <acc value="0.0085037886" flag="0"/>
      <vel value="0.0066802198" flag="0"/>
      <psa03 value="0.0221938506" flag="0"/>
      <psa10 value="0.0097681774" flag="0"/>
      <psa30 value="0.0021877403" flag="0"/>
    </comp>
    <comp name="--.HHE">
      <acc value="0.0070170477" flag="0"/>
      <vel value="0.0054141171" flag="0"/>
      <psa03 value="0.0271368043" flag="0"/>
      <psa10 value="0.0074216283" flag="0"/>
      <psa30 value="0.0011973377" flag="0"/>
    </comp>
  </station>
  <station code="KEK" name="KEK" netid="HL" insttype="120" commtype="DIG" lat="39.7127" lon="19.7962">
    <comp name="--.HHE">
      <acc value="0.0117799690" flag="0"/>
      <vel value="0.0067366989" flag="0"/>
      <psa03 value="0.0218563269" flag="0"/>
      <psa10 value="0.0095076025" flag="0"/>
      <psa30 value="0.0010967373" flag="0"/>
    </comp>
    <comp name="--.HHN">
      <acc value="0.0066025298" flag="0"/>
      <vel value="0.0072718965" flag="0"/>
      <psa03 value="0.0153239198" flag="0"/>
      <psa10 value="0.0102191920" flag="0"/>
      <psa30 value="0.0015544855" flag="0"/>
    </comp>
    <comp name="--.HHZ">
      <acc value="0.0089675472" flag="0"/>
      <vel value="0.0055578256" flag="0"/>
      <psa03 value="0.0133974403" flag="0"/>
      <psa10 value="0.0077439169" flag="0"/>
      <psa30 value="0.0007280013" flag="0"/>
    </comp>
  </station>
  <station code="OTHN" name="OTHN" netid="HL" insttype="30" commtype="DIG" lat="39.8416" lon="19.4057">
    <comp name="--.HHZ">
      <acc value="0.0156658243" flag="0"/>
      <vel value="0.0057185134" flag="0"/>
      <psa03 value="0.0471156835" flag="0"/>
      <psa10 value="0.0079986240" flag="0"/>
      <psa30 value="0.0007966844" flag="0"/>
    </comp>
    <comp name="--.HHE">
      <acc value="0.0342525626" flag="0"/>
      <vel value="0.0110910250" flag="0"/>
      <psa03 value="0.0386961619" flag="0"/>
      <psa10 value="0.0120231389" flag="0"/>
      <psa30 value="0.0016128691" flag="0"/>
    </comp>
    <comp name="--.HHN">
      <acc value="0.0404102532" flag="0"/>
      <vel value="0.0115114233" flag="0"/>
      <psa03 value="0.0446243335" flag="0"/>
      <psa10 value="0.0083810395" flag="0"/>
      <psa30 value="0.0011755761" flag="0"/>
    </comp>
  </station>
  <station code="PENT" name="PENT" netid="HL" insttype="Horizon,120s,1200" commtype="DIG" lat="40.1961" lon="21.1381">
    <comp name="--.HHE">
      <acc value="0.0010801911" flag="0"/>
      <vel value="0.0010936731" flag="0"/>
      <psa03 value="0.0034556582" flag="0"/>
      <psa10 value="0.0020268991" flag="0"/>
      <psa30 value="0.0001214210" flag="0"/>
    </comp>
    <comp name="--.HHN">
      <acc value="0.0020088889" flag="0"/>
      <vel value="0.0018343697" flag="0"/>
      <psa03 value="0.0043514403" flag="0"/>
      <psa10 value="0.0046332843" flag="0"/>
      <psa30 value="0.0007191856" flag="0"/>
    </comp>
    <comp name="--.HHZ">
      <acc value="0.0010199911" flag="0"/>
      <vel value="0.0013496900" flag="0"/>
      <psa03 value="0.0031381095" flag="0"/>
      <psa10 value="0.0011812068" flag="0"/>
      <psa30 value="0.0005212310" flag="0"/>
    </comp>
  </station>
  <station code="KSTR" name="KSTR" netid="HP" insttype="Compact," commtype="DIG" lat="39.2492" lon="20.576">
    <comp name="--.HHN">
      <acc value="0.0021074932" flag="0"/>
      <vel value="0.0024580640" flag="0"/>
      <psa03 value="0.0038297000" flag="0"/>
      <psa10 value="0.0026318967" flag="0"/>
      <psa30 value="0.0004947327" flag="0"/>
    </comp>
    <comp name="--.HHE">
      <acc value="0.0022683414" flag="0"/>
      <vel value="0.0024015897" flag="0"/>
      <psa03 value="0.0043452906" flag="0"/>
      <psa10 value="0.0059309910" flag="0"/>
      <psa30 value="0.0006056202" flag="0"/>
    </comp>
    <comp name="--.HHZ">
      <acc value="0.0014177641" flag="0"/>
      <vel value="0.0017032390" flag="0"/>
      <psa03 value="0.0027348391" flag="0"/>
      <psa10 value="0.0033145428" flag="0"/>
      <psa30 value="0.0006857708" flag="0"/>
    </comp>
  </station>
  <station code="PRMD" name="PRMD" netid="HP" insttype="120P," commtype="DIG" lat="39.5299" lon="21.0965">
    <comp name="--.HHE">
      <acc value="0.0057508901" flag="0"/>
      <vel value="0.0070783624" flag="0"/>
      <psa03 value="0.0107078142" flag="0"/>
      <psa10 value="0.0139591053" flag="0"/>
      <psa30 value="0.0012466938" flag="0"/>
    </comp>
    <comp name="--.HHZ">
      <acc value="0.0029856037" flag="0"/>
      <vel value="0.0032931813" flag="0"/>
      <psa03 value="0.0045821506" flag="0"/>
      <psa10 value="0.0054478316" flag="0"/>
      <psa30 value="0.0010374653" flag="0"/>
    </comp>
    <comp name="--.HHN">
      <acc value="0.0044363336" flag="0"/>
      <vel value="0.0055399745" flag="0"/>
      <psa03 value="0.0077921886" flag="0"/>
      <psa10 value="0.0088277323" flag="0"/>
      <psa30 value="0.0011671724" flag="0"/>
    </comp>
  </station>
  <station code="IGT" name="IGT" netid="HT" insttype="Compact," commtype="DIG" lat="39.5315" lon="20.3299">
    <comp name="--.HHZ">
      <acc value="0.0076365747" flag="0"/>
      <vel value="0.0089378435" flag="0"/>
      <psa03 value="0.0202115102" flag="0"/>
      <psa10 value="0.0089170813" flag="0"/>
      <psa30 value="0.0034621902" flag="0"/>
    </comp>
    <comp name="--.HHE">
      <acc value="0.0094217921" flag="0"/>
      <vel value="0.0126633387" flag="0"/>
      <psa03 value="0.0174885419" flag="0"/>
      <psa10 value="0.0180612724" flag="0"/>
      <psa30 value="0.0021882440" flag="0"/>
    </comp>
    <comp name="--.HHN">
      <acc value="0.0120175233" flag="0"/>
      <vel value="0.0093722123" flag="0"/>
      <psa03 value="0.0291920418" flag="0"/>
      <psa10 value="0.0140947373" flag="0"/>
      <psa30 value="0.0028057291" flag="0"/>
    </comp>
  </station>
  <station code="KPRO" name="KPRO" netid="HT" insttype="100" commtype="DIG" lat="39.9549" lon="21.3632">
    <comp name="--.HHZ">
      <acc value="0.0012425898" flag="0"/>
      <vel value="0.0020984115" flag="0"/>
      <psa03 value="0.0028014006" flag="0"/>
      <psa10 value="0.0019727895" flag="0"/>
      <psa30 value="0.0006628387" flag="0"/>
    </comp>
    <comp name="--.HHE">
      <acc value="0.0024322563" flag="0"/>
      <vel value="0.0025056736" flag="0"/>
      <psa03 value="0.0053285561" flag="0"/>
      <psa10 value="0.0051525151" flag="0"/>
      <psa30 value="0.0008596675" flag="0"/>
    </comp>
    <comp name="--.HHN">
      <acc value="0.0022733978" flag="0"/>
      <vel value="0.0028053183" flag="0"/>
      <psa03 value="0.0067581556" flag="0"/>
      <psa10 value="0.0036958369" flag="0"/>
      <psa30 value="0.0007398225" flag="0"/>
    </comp>
  </station>
  <station code="NEST" name="NEST" netid="HT" insttype="120P," commtype="DIG" lat="40.4147" lon="21.0489">
    <comp name="--.HHE">
      <acc value="0.0018713670" flag="0"/>
      <vel value="0.0022679358" flag="0"/>
      <psa03 value="0.0059067269" flag="0"/>
      <psa10 value="0.0026720703" flag="0"/>
      <psa30 value="0.0011505403" flag="0"/>
    </comp>
    <comp name="--.HHN">
      <acc value="0.0019098961" flag="0"/>
      <vel value="0.0019719601" flag="0"/>
      <psa03 value="0.0048092005" flag="0"/>
      <psa10 value="0.0030079892" flag="0"/>
      <psa30 value="0.0014460170" flag="0"/>
    </comp>
    <comp name="--.HHZ">
      <acc value="0.0016237817" flag="0"/>
      <vel value="0.0014868628" flag="0"/>
      <psa03 value="0.0042405765" flag="0"/>
      <psa10 value="0.0023500189" flag="0"/>
      <psa30 value="0.0008501062" flag="0"/>
    </comp>
  </station>
  <station code="KEK" name="KEK" netid="MN" insttype="" commtype="DIG" lat="39.7127" lon="19.7962">
    <comp name="--.HHN">
      <acc value="0.0066025252" flag="0"/>
      <vel value="0.0072718914" flag="0"/>
      <psa03 value="0.0153239092" flag="0"/>
      <psa10 value="0.0102191849" flag="0"/>
      <psa30 value="0.0015544844" flag="0"/>
    </comp>
    <comp name="--.HHE">
      <acc value="0.0117799608" flag="0"/>
      <vel value="0.0067366942" flag="0"/>
      <psa03 value="0.0218563118" flag="0"/>
      <psa10 value="0.0095075959" flag="0"/>
      <psa30 value="0.0010967366" flag="0"/>
    </comp>
    <comp name="--.HHZ">
      <acc value="0.0089675410" flag="0"/>
      <vel value="0.0055578217" flag="0"/>
      <psa03 value="0.0133974311" flag="0"/>
      <psa10 value="0.0077439115" flag="0"/>
      <psa30 value="0.0007280008" flag="0"/>
    </comp>
  </station>
</stationlist>
