<?xml version="1.0" encoding="UTF-8" standalone="yes"?>
<!DOCTYPE earthquake SYSTEM "stationlist.dtd">
<stationlist created="" xmlns="ch.ethz.sed.shakemap.usgs.xml">
  <station code="AKS" name="AKS" netid="KO" insttype="CMG-5T" commtype="DIG" lat="38.8785" lon="27.8129">
    <comp name="--.HNZ">
      <acc value="0.0594104800" flag="0"/>
      <vel value="0.0145263490" flag="0"/>
      <psa03 value="0.1028597747" flag="0"/>
      <psa10 value="0.0070224426" flag="0"/>
      <psa30 value="0.0008832645" flag="0"/>
    </comp>
    <comp name="--.HNN">
      <acc value="0.1423850056" flag="0"/>
      <vel value="0.0534571427" flag="0"/>
      <psa03 value="0.2625158563" flag="0"/>
      <psa10 value="0.0207560198" flag="0"/>
      <psa30 value="0.0015388730" flag="0"/>
    </comp>
  </station>
  <station code="BALB" name="BALB" netid="KO" insttype="CMG-5T" commtype="DIG" lat="39.6507" lon="27.8642">
    <comp name="--.HNZ">
      <acc value="0.0181698302" flag="0"/>
      <vel value="0.0070623091" flag="0"/>
      <psa03 value="0.0297395453" flag="0"/>
      <psa10 value="0.0083769881" flag="0"/>
      <psa30 value="0.0009624644" flag="0"/>
    </comp>
    <comp name="--.HNN">
      <acc value="0.0283014878" flag="0"/>
      <vel value="0.0149612900" flag="0"/>
      <psa03 value="0.0454191962" flag="0"/>
      <psa10 value="0.0196830683" flag="0"/>
      <psa30 value="0.0014506415" flag="0"/>
    </comp>
    <comp name="--.HNE">
      <acc value="0.0216274693" flag="0"/>
      <vel value="0.0096415452" flag="0"/>
      <psa03 value="0.0472305582" flag="0"/>
      <psa10 value="0.0121207677" flag="0"/>
      <psa30 value="0.0009081646" flag="0"/>
    </comp>
  </station>
  <station code="DST" name="DST" netid="KO" insttype="CMG-5T" commtype="DIG" lat="39.6041" lon="28.6267">
    <comp name="--.HNE">
      <acc value="0.0364525646" flag="0"/>
      <vel value="0.0110867528" flag="0"/>
      <psa03 value="0.0505834466" flag="0"/>
      <psa10 value="0.0112203169" flag="0"/>
      <psa30 value="0.0008048491" flag="0"/>
    </comp>
    <comp name="--.HNN">
      <acc value="0.0318559303" flag="0"/>
      <vel value="0.0096059511" flag="0"/>
      <psa03 value="0.0348735194" flag="0"/>
      <psa10 value="0.0097394750" flag="0"/>
      <psa30 value="0.0007902508" flag="0"/>
    </comp>
    <comp name="--.HNZ">
      <acc value="0.0340140482" flag="0"/>
      <vel value="0.0090897353" flag="0"/>
      <psa03 value="0.0625883528" flag="0"/>
      <psa10 value="0.0076788073" flag="0"/>
      <psa30 value="0.0008291546" flag="0"/>
    </comp>
  </station>
  <station code="GOMA" name="GOMA" netid="KO" insttype="CMG-5T" commtype="DIG" lat="38.7077" lon="27.9175">
    <comp name="--.HNZ">
      <acc value="0.0706395745" flag="0"/>
      <vel value="0.0287285504" flag="0"/>
      <psa03 value="0.1221989379" flag="0"/>
      <psa10 value="0.0065550418" flag="0"/>
      <psa30 value="0.0010060734" flag="0"/>
    </comp>
    <comp name="--.HNN">
      <acc value="0.1304448488" flag="0"/>
      <vel value="0.0562598757" flag="0"/>
      <psa03 value="0.3138572333" flag="0"/>
      <psa10 value="0.0242082381" flag="0"/>
      <psa30 value="0.0018966211" flag="0"/>
    </comp>
  </station>
  <station code="GONE" name="GONE" netid="KO" insttype="CMG-5T" commtype="DIG" lat="40.0466" lon="27.686">
    <comp name="--.HNZ">
      <acc value="0.0095332010" flag="0"/>
      <vel value="0.0044236162" flag="0"/>
      <psa03 value="0.0185296802" flag="0"/>
      <psa10 value="0.0051761463" flag="0"/>
      <psa30 value="0.0004099468" flag="0"/>
    </comp>
    <comp name="--.HNN">
      <acc value="0.0250657642" flag="0"/>
      <vel value="0.0173865175" flag="0"/>
      <psa03 value="0.0554435417" flag="0"/>
      <psa10 value="0.0131047638" flag="0"/>
      <psa30 value="0.0008599679" flag="0"/>
    </comp>
    <comp name="--.HNE">
      <acc value="0.0180010404" flag="0"/>
      <vel value="0.0119930542" flag="0"/>
      <psa03 value="0.0406598948" flag="0"/>
      <psa10 value="0.0143991999" flag="0"/>
      <psa30 value="0.0008824496" flag="0"/>
    </comp>
  </station>
  <station code="GORD" name="GORD" netid="KO" insttype="CMG-5T" commtype="DIG" lat="38.9088" lon="28.1769">
    <comp name="--.HNZ">
      <acc value="0.1508760785" flag="0"/>
      <vel value="0.0375241561" flag="0"/>
      <psa03 value="0.1805345519" flag="0"/>
      <psa10 value="0.0204834092" flag="0"/>
      <psa30 value="0.0034039463" flag="0"/>
    </comp>
    <comp name="--.HNN">
      <acc value="0.0592431420" flag="0"/>
      <vel value="0.0292278844" flag="0"/>
      <psa03 value="0.1880103889" flag="0"/>
      <psa10 value="0.0318374952" flag="0"/>
      <psa30 value="0.0047951851" flag="0"/>
    </comp>
    <comp name="--.HNE">
      <acc value="0.0645678395" flag="0"/>
      <vel value="0.0310351425" flag="0"/>
      <psa03 value="0.1143609406" flag="0"/>
      <psa10 value="0.0364733666" flag="0"/>
      <psa30 value="0.0037259862" flag="0"/>
    </comp>
  </station>
  <station code="KCTX" name="KCTX" netid="KO" insttype="CMG-3ESP" commtype="DIG" lat="40.2626" lon="28.3353">
    <comp name="--.HHE">
      <acc value="0.0194819036" flag="0"/>
      <vel value="0.0094146570" flag="0"/>
      <psa03 value="0.0233243330" flag="0"/>
      <psa10 value="0.0155720447" flag="0"/>
      <psa30 value="0.0008458807" flag="0"/>
    </comp>
    <comp name="--.HHZ">
      <acc value="0.0118920533" flag="0"/>
      <vel value="0.0047076083" flag="0"/>
      <psa03 value="0.0211106640" flag="0"/>
      <psa10 value="0.0057577320" flag="0"/>
      <psa30 value="0.0003928483" flag="0"/>
    </comp>
    <comp name="--.HHN">
      <acc value="0.0163564315" flag="0"/>
      <vel value="0.0065253956" flag="0"/>
      <psa03 value="0.0320077019" flag="0"/>
      <psa10 value="0.0092487137" flag="0"/>
      <psa30 value="0.0006199318" flag="0"/>
    </comp>
  </station>
  <station code="KULA" name="KULA" netid="KO" insttype="CMG-3T" commtype="DIG" lat="38.5145" lon="28.6607">
    <comp name="--.HHE">
      <acc value="0.0719044628" flag="0"/>
      <vel value="0.0143440773" flag="0"/>
      <psa03 value="0.0488017103" flag="0"/>
      <psa10 value="0.0085700614" flag="0"/>
      <psa30 value="0.0004985103" flag="0"/>
    </comp>
  </station>
  <station code="ORLT" name="ORLT" netid="KO" insttype="CMG-5T" commtype="DIG" lat="40.0452" lon="28.8914">
    <comp name="--.HNE">
      <acc value="0.0461161102" flag="0"/>
      <vel value="0.0175537996" flag="0"/>
      <psa03 value="0.1250287182" flag="0"/>
      <psa10 value="0.0242736830" flag="0"/>
      <psa30 value="0.0009466821" flag="0"/>
    </comp>
    <comp name="--.HNN">
      <acc value="0.0415708672" flag="0"/>
      <vel value="0.0210984037" flag="0"/>
      <psa03 value="0.1031301606" flag="0"/>
      <psa10 value="0.0273759445" flag="0"/>
      <psa30 value="0.0012735397" flag="0"/>
    </comp>
    <comp name="--.HNZ">
      <acc value="0.0211210710" flag="0"/>
      <vel value="0.0136623342" flag="0"/>
      <psa03 value="0.0404498884" flag="0"/>
      <psa10 value="0.0225959457" flag="0"/>
      <psa30 value="0.0009298212" flag="0"/>
    </comp>
  </station>
  <station code="SHAP" name="SHAP" netid="KO" insttype="CMG-5T" commtype="DIG" lat="39.0231" lon="29.222">
    <comp name="--.HNN">
      <acc value="0.0565846071" flag="0"/>
      <vel value="0.0191952402" flag="0"/>
      <psa03 value="0.0806283290" flag="0"/>
      <psa10 value="0.0088983022" flag="0"/>
      <psa30 value="0.0004230723" flag="0"/>
    </comp>
    <comp name="--.HNE">
      <acc value="0.0923909300" flag="0"/>
      <vel value="0.0149654681" flag="0"/>
      <psa03 value="0.0789387676" flag="0"/>
      <psa10 value="0.0065126167" flag="0"/>
      <psa30 value="0.0004469898" flag="0"/>
    </comp>
    <comp name="--.HNZ">
      <acc value="0.0496400242" flag="0"/>
      <vel value="0.0115009054" flag="0"/>
      <psa03 value="0.0340884353" flag="0"/>
      <psa10 value="0.0050521846" flag="0"/>
      <psa30 value="0.0003236547" flag="0"/>
    </comp>
  </station>
  <station code="SIMA" name="SIMA" netid="KO" insttype="CMG-6T" commtype="DIG" lat="39.0833" lon="28.9825">
    <comp name="--.HHE">
      <acc value="0.0707524787" flag="0"/>
      <vel value="0.0126209602" flag="0"/>
      <psa03 value="0.0633857884" flag="0"/>
      <psa10 value="0.0049424209" flag="0"/>
      <psa30 value="0.0005953335" flag="0"/>
    </comp>
    <comp name="--.HHZ">
      <acc value="0.0491947486" flag="0"/>
      <vel value="0.0069825706" flag="0"/>
      <psa03 value="0.0289331607" flag="0"/>
      <psa10 value="0.0030727767" flag="0"/>
      <psa30 value="0.0004761147" flag="0"/>
    </comp>
    <comp name="--.HHN">
      <acc value="0.0587640900" flag="0"/>
      <vel value="0.0156834904" flag="0"/>
      <psa03 value="0.0815559952" flag="0"/>
      <psa10 value="0.0059718000" flag="0"/>
      <psa30 value="0.0005295042" flag="0"/>
    </comp>
  </station>
  <station code="SMAA" name="SMAA" netid="KO" insttype="CMG-5T" commtype="DIG" lat="39.1005" lon="28.9805">
    <comp name="--.HNN">
      <acc value="0.0474461533" flag="0"/>
      <vel value="0.0204680165" flag="0"/>
      <psa03 value="0.1380551766" flag="0"/>
      <psa10 value="0.0217871554" flag="0"/>
      <psa30 value="0.0018904201" flag="0"/>
    </comp>
    <comp name="--.HNE">
      <acc value="0.0777511871" flag="0"/>
      <vel value="0.0208444247" flag="0"/>
      <psa03 value="0.1138630529" flag="0"/>
      <psa10 value="0.0314733644" flag="0"/>
      <psa30 value="0.0026476446" flag="0"/>
    </comp>
    <comp name="--.HNZ">
      <acc value="0.0434520257" flag="0"/>
      <vel value="0.0087268893" flag="0"/>
      <psa03 value="0.0299661518" flag="0"/>
      <psa10 value="0.0211386726" flag="0"/>
      <psa30 value="0.0009361221" flag="0"/>
    </comp>
  </station>
  <station code="SOMA" name="SOMA" netid="KO" insttype="CMG-5T" commtype="DIG" lat="39.1564" lon="27.5341">
    <comp name="--.HNE">
      <acc value="0.0328298876" flag="0"/>
      <vel value="0.0138427989" flag="0"/>
      <psa03 value="0.0589213461" flag="0"/>
      <psa10 value="0.0154325171" flag="0"/>
      <psa30 value="0.0010106272" flag="0"/>
    </comp>
    <comp name="--.HNN">
      <acc value="0.0354603357" flag="0"/>
      <vel value="0.0181665825" flag="0"/>
      <psa03 value="0.0613637099" flag="0"/>
      <psa10 value="0.0143826986" flag="0"/>
      <psa30 value="0.0009532828" flag="0"/>
    </comp>
    <comp name="--.HNZ">
      <acc value="0.0269450843" flag="0"/>
      <vel value="0.0096122910" flag="0"/>
      <psa03 value="0.0266569319" flag="0"/>
      <psa10 value="0.0104261137" flag="0"/>
      <psa30 value="0.0007198758" flag="0"/>
    </comp>
  </station>
  <station code="SUSR" name="SUSR" netid="KO" insttype="CMG-5T" commtype="DIG" lat="39.9627" lon="28.0835">
    <comp name="--.HNE">
      <acc value="0.0250039158" flag="0"/>
      <vel value="0.0052604687" flag="0"/>
      <psa03 value="0.0338803590" flag="0"/>
      <psa10 value="0.0047799592" flag="0"/>
      <psa30 value="0.0003364591" flag="0"/>
    </comp>
    <comp name="--.HNN">
      <acc value="0.0221351331" flag="0"/>
      <vel value="0.0059665951" flag="0"/>
      <psa03 value="0.0304747031" flag="0"/>
      <psa10 value="0.0028373403" flag="0"/>
      <psa30 value="0.0005502800" flag="0"/>
    </comp>
    <comp name="--.HNZ">
      <acc value="0.0271627741" flag="0"/>
      <vel value="0.0048081891" flag="0"/>
      <psa03 value="0.0248844756" flag="0"/>
      <psa10 value="0.0026330717" flag="0"/>
      <psa30 value="0.0007656162" flag="0"/>
    </comp>
  </station>
  <station code="TVSB" name="TVSB" netid="KO" insttype="CMG-3T" commtype="DIG" lat="39.4497" lon="29.4615">
    <comp name="--.HHN">
      <acc value="0.0296410111" flag="0"/>
      <vel value="0.0101520448" flag="0"/>
      <psa03 value="0.0628677775" flag="0"/>
      <psa10 value="0.0063818386" flag="0"/>
      <psa30 value="0.0005023341" flag="0"/>
    </comp>
    <comp name="--.HHE">
      <acc value="0.0276796536" flag="0"/>
      <vel value="0.0118540777" flag="0"/>
      <psa03 value="0.0903192760" flag="0"/>
      <psa10 value="0.0067521883" flag="0"/>
      <psa30 value="0.0004433365" flag="0"/>
    </comp>
    <comp name="--.HHZ">
      <acc value="0.0238019974" flag="0"/>
      <vel value="0.0073541609" flag="0"/>
      <psa03 value="0.0273396294" flag="0"/>
      <psa10 value="0.0037240973" flag="0"/>
      <psa30 value="0.0003786923" flag="0"/>
    </comp>
  </station>
  <station code="YAYO" name="YAYO" netid="KO" insttype="CMG-6T" commtype="DIG" lat="39.6113" lon="27.0726">
    <comp name="--.HHE">
      <acc value="0.0125526681" flag="0"/>
      <vel value="0.0082929289" flag="0"/>
      <psa03 value="0.0299268284" flag="0"/>
      <psa10 value="0.0081960465" flag="0"/>
      <psa30 value="0.0004774022" flag="0"/>
    </comp>
    <comp name="--.HHZ">
      <acc value="0.0082207509" flag="0"/>
      <vel value="0.0063367851" flag="0"/>
      <psa03 value="0.0185061486" flag="0"/>
      <psa10 value="0.0048376078" flag="0"/>
      <psa30 value="0.0003941736" flag="0"/>
    </comp>
    <comp name="--.HHN">
      <acc value="0.0090027434" flag="0"/>
      <vel value="0.0051133548" flag="0"/>
      <psa03 value="0.0332315116" flag="0"/>
      <psa10 value="0.0042751938" flag="0"/>
      <psa30 value="0.0002434199" flag="0"/>
    </comp>
  </station>
  <station code="YENI" name="YENI" netid="KO" insttype="CMG-5T" commtype="DIG" lat="39.9364" lon="27.2422">
    <comp name="--.HNZ">
      <acc value="0.0107390101" flag="0"/>
      <vel value="0.0041335002" flag="0"/>
      <psa03 value="0.0144474374" flag="0"/>
      <psa10 value="0.0066762696" flag="0"/>
      <psa30 value="0.0005298959" flag="0"/>
    </comp>
    <comp name="--.HNN">
      <acc value="0.0246495403" flag="0"/>
      <vel value="0.0134285975" flag="0"/>
      <psa03 value="0.0457706042" flag="0"/>
      <psa10 value="0.0163333419" flag="0"/>
      <psa30 value="0.0008321208" flag="0"/>
    </comp>
    <comp name="--.HNE">
      <acc value="0.0223767950" flag="0"/>
      <vel value="0.0171588543" flag="0"/>
      <psa03 value="0.0597828545" flag="0"/>
      <psa10 value="0.0237004399" flag="0"/>
      <psa30 value="0.0011058521" flag="0"/>
    </comp>
  </station>
</stationlist>
