<?xml version="1.0" encoding="UTF-8" standalone="yes"?>
<!DOCTYPE earthquake SYSTEM "stationlist.dtd">
<stationlist created="" xmlns="ch.ethz.sed.shakemap.usgs.xml">
  <station code="DARE" name="DARE" netid="KO" insttype="CMG-3ESP" lat="38.5712" lon="37.4832">
    <comp name="--.HHZ">
      <acc value="0.0852987092" flag="0"/>
      <vel value="0.0278630861" flag="0"/>
      <psa03 value="0.1779928665" flag="0"/>
      <psa10 value="0.0175341447" flag="0"/>
      <psa30 value="0.0009729540" flag="0"/>
    </comp>
    <comp name="--.HHN">
      <acc value="0.0946744075" flag="0"/>
      <vel value="0.0290833232" flag="0"/>
      <psa03 value="0.1302648222" flag="0"/>
      <psa10 value="0.0246377094" flag="0"/>
      <psa30 value="0.0010497861" flag="0"/>
    </comp>
  </station>
  <station code="GAZ" name="GAZ" netid="KO" insttype="CMG-3T" lat="37.1721" lon="37.2096">
    <comp name="--.HHE">
      <acc value="0.0300489393" flag="0"/>
      <vel value="0.0157522126" flag="0"/>
      <psa03 value="0.0978063015" flag="0"/>
      <psa10 value="0.0126093124" flag="0"/>
      <psa30 value="0.0009226011" flag="0"/>
    </comp>
    <comp name="--.HHN">
      <acc value="0.0245130347" flag="0"/>
      <vel value="0.0115860992" flag="0"/>
      <psa03 value="0.0929463136" flag="0"/>
      <psa10 value="0.0073384373" flag="0"/>
      <psa30 value="0.0007523425" flag="0"/>
    </comp>
    <comp name="--.HHZ">
      <acc value="0.0226998116" flag="0"/>
      <vel value="0.0106322606" flag="0"/>
      <psa03 value="0.0701552751" flag="0"/>
      <psa10 value="0.0064564660" flag="0"/>
      <psa30 value="0.0006474375" flag="0"/>
    </comp>
  </station>
  <station code="KHMN" name="KHMN" netid="KO" insttype="CMG-5T" lat="37.3916" lon="37.1574">
    <comp name="--.HNN">
      <acc value="0.0420572585" flag="0"/>
      <vel value="0.0114617144" flag="0"/>
      <psa03 value="0.0486643601" flag="0"/>
      <psa10 value="0.0098927976" flag="0"/>
      <psa30 value="0.0009492108" flag="0"/>
    </comp>
    <comp name="--.HNE">
      <acc value="0.0469408250" flag="0"/>
      <vel value="0.0153970638" flag="0"/>
      <psa03 value="0.0539307749" flag="0"/>
      <psa10 value="0.0042812342" flag="0"/>
      <psa30 value="0.0011049906" flag="0"/>
    </comp>
    <comp name="--.HNZ">
      <acc value="0.0302502990" flag="0"/>
      <vel value="0.0095383789" flag="0"/>
      <psa03 value="0.0398606939" flag="0"/>
      <psa10 value="0.0058375347" flag="0"/>
      <psa30 value="0.0013018393" flag="0"/>
    </comp>
  </station>
  <station code="KMRS" name="KMRS" netid="KO" insttype="CMG-3T" lat="37.5087" lon="36.9">
    <comp name="--.HHE">
      <acc value="0.0380915860" flag="0"/>
      <vel value="0.0192293742" flag="0"/>
      <psa03 value="0.1321611359" flag="0"/>
      <psa10 value="0.0102800432" flag="0"/>
      <psa30 value="0.0008519415" flag="0"/>
    </comp>
    <comp name="--.HHZ">
      <acc value="0.0229945762" flag="0"/>
      <vel value="0.0095631370" flag="0"/>
      <psa03 value="0.0417772739" flag="0"/>
      <psa10 value="0.0058939574" flag="0"/>
      <psa30 value="0.0007227687" flag="0"/>
    </comp>
    <comp name="--.HHN">
      <acc value="0.0564817778" flag="0"/>
      <vel value="0.0246515567" flag="0"/>
      <psa03 value="0.1847193445" flag="0"/>
      <psa10 value="0.0135058399" flag="0"/>
      <psa30 value="0.0018722911" flag="0"/>
    </comp>
  </station>
  <station code="SARI" name="SARI" netid="KO" insttype="CMG-3T" lat="38.4072" lon="36.4181">
    <comp name="--.HHE">
      <acc value="0.0372136083" flag="0"/>
      <vel value="0.0155280260" flag="0"/>
      <psa03 value="0.1261980796" flag="0"/>
      <psa10 value="0.0053516026" flag="0"/>
      <psa30 value="0.0005726963" flag="0"/>
    </comp>
    <comp name="--.HHN">
      <acc value="0.0291303196" flag="0"/>
      <vel value="0.0103038399" flag="0"/>
      <psa03 value="0.0681341328" flag="0"/>
      <psa10 value="0.0105892966" flag="0"/>
      <psa30 value="0.0005712557" flag="0"/>
    </comp>
    <comp name="--.HHZ">
      <acc value="0.0179770113" flag="0"/>
      <vel value="0.0087187387" flag="0"/>
      <psa03 value="0.0430062331" flag="0"/>
      <psa10 value="0.0081862903" flag="0"/>
      <psa30 value="0.0004845171" flag="0"/>
    </comp>
  </station>
  <station code="URFA" name="URFA" netid="KO" insttype="CMG-3ESP" lat="37.4409" lon="38.8213">
    <comp name="--.HHZ">
      <acc value="0.0943664124" flag="0"/>
      <vel value="0.0249638647" flag="0"/>
      <psa03 value="0.0707456456" flag="0"/>
      <psa10 value="0.0100183560" flag="0"/>
      <psa30 value="0.0010167808" flag="0"/>
    </comp>
    <comp name="--.HHN">
      <acc value="0.0607054438" flag="0"/>
      <vel value="0.0198126780" flag="0"/>
      <psa03 value="0.0828446883" flag="0"/>
      <psa10 value="0.0146440541" flag="0"/>
      <psa30 value="0.0008424034" flag="0"/>
    </comp>
    <comp name="--.HHE">
      <acc value="0.0709995077" flag="0"/>
      <vel value="0.0214286545" flag="0"/>
      <psa03 value="0.0708846715" flag="0"/>
      <psa10 value="0.0179789301" flag="0"/>
      <psa30 value="0.0010116584" flag="0"/>
    </comp>
  </station>
</stationlist>
