<?xml version="1.0" encoding="UTF-8" standalone="yes"?>
<!DOCTYPE earthquake SYSTEM "stationlist.dtd">
<stationlist created="" xmlns="ch.ethz.sed.shakemap.usgs.xml">
  <station code="APE" name="APE" netid="GE" insttype="STS-2/N" lat="37.0727" lon="25.523">
    <comp name="--.HHE">
      <acc value="0.1664957260" flag="0"/>
      <vel value="0.0503556905" flag="0"/>
      <psa03 value="0.1236976187" flag="0"/>
      <psa10 value="0.0445539672" flag="0"/>
      <psa30 value="0.0179185079" flag="0"/>
    </comp>
    <comp name="--.HHN">
      <acc value="0.1338765191" flag="0"/>
      <vel value="0.0504621373" flag="0"/>
      <psa03 value="0.1403862452" flag="0"/>
      <psa10 value="0.0418248825" flag="0"/>
      <psa30 value="0.0226485924" flag="0"/>
    </comp>
    <comp name="--.HHZ">
      <acc value="0.0896358268" flag="0"/>
      <vel value="0.0392135811" flag="0"/>
      <psa03 value="0.0843626721" flag="0"/>
      <psa10 value="0.0304806990" flag="0"/>
      <psa30 value="0.0275142181" flag="0"/>
    </comp>
  </station>
  <station code="THERA" name="THERA" netid="GE" insttype="STS-2/N" lat="36.367" lon="25.4753">
    <comp name="--.HHE">
      <acc value="0.2707936440" flag="0"/>
      <vel value="0.1320171027" flag="0"/>
      <psa03 value="0.3193943879" flag="0"/>
      <psa10 value="0.1339013795" flag="0"/>
      <psa30 value="0.0394534263" flag="0"/>
    </comp>
    <comp name="--.HHN">
      <acc value="0.1409499087" flag="0"/>
      <vel value="0.0844607026" flag="0"/>
      <psa03 value="0.3214585054" flag="0"/>
      <psa10 value="0.0975110289" flag="0"/>
      <psa30 value="0.0209562460" flag="0"/>
    </comp>
    <comp name="--.HHZ">
      <acc value="0.2051251983" flag="0"/>
      <vel value="0.0839081043" flag="0"/>
      <psa03 value="0.2769277371" flag="0"/>
      <psa10 value="0.1245734523" flag="0"/>
      <psa30 value="0.0305835568" flag="0"/>
    </comp>
  </station>
  <station code="ZKR" name="ZKR" netid="GE" insttype="STS-2/N" lat="35.1147" lon="26.2169">
    <comp name="--.HHN">
      <acc value="0.0069022301" flag="0"/>
      <vel value="0.0062962555" flag="0"/>
      <psa03 value="0.0136378963" flag="0"/>
      <psa10 value="0.0065842899" flag="0"/>
      <psa30 value="0.0017830402" flag="0"/>
    </comp>
    <comp name="--.HHE">
      <acc value="0.0160697717" flag="0"/>
      <vel value="0.0136831633" flag="0"/>
      <psa03 value="0.0502947881" flag="0"/>
      <psa10 value="0.0160977067" flag="0"/>
      <psa30 value="0.0027111192" flag="0"/>
    </comp>
    <comp name="--.HHZ">
      <acc value="0.0098082328" flag="0"/>
      <vel value="0.0090032424" flag="0"/>
      <psa03 value="0.0276689194" flag="0"/>
      <psa10 value="0.0067907427" flag="0"/>
      <psa30 value="0.0024585576" flag="0"/>
    </comp>
  </station>
  <station code="SERI" name="SERI" netid="HA" insttype="30" lat="37.1609" lon="24.4853">
    <comp name="--.HHZ">
      <acc value="0.0732696698" flag="0"/>
      <vel value="0.0654848484" flag="0"/>
      <psa03 value="0.1417637433" flag="0"/>
      <psa10 value="0.0822777013" flag="0"/>
      <psa30 value="0.0139531355" flag="0"/>
    </comp>
    <comp name="--.HHE">
      <acc value="0.0607466186" flag="0"/>
      <vel value="0.0675921515" flag="0"/>
      <psa03 value="0.1877243957" flag="0"/>
      <psa10 value="0.0427692463" flag="0"/>
      <psa30 value="0.0045632204" flag="0"/>
    </comp>
    <comp name="--.HHN">
      <acc value="0.0903337845" flag="0"/>
      <vel value="0.0642381955" flag="0"/>
      <psa03 value="0.2183228932" flag="0"/>
      <psa10 value="0.0972260666" flag="0"/>
      <psa30 value="0.0057393408" flag="0"/>
    </comp>
  </station>
  <station code="SNT5" name="SNT5" netid="HA" insttype="1s-100Hz," lat="36.4037" lon="25.3953">
    <comp name="--.HHN">
      <acc value="0.4201815519" flag="0"/>
      <vel value="0.2290166940" flag="0"/>
      <psa03 value="1.0224714092" flag="0"/>
      <psa10 value="0.2323773094" flag="0"/>
      <psa30 value="0.1007409854" flag="0"/>
    </comp>
    <comp name="--.HHZ">
      <acc value="0.2200011308" flag="0"/>
      <vel value="0.0923547014" flag="0"/>
      <psa03 value="0.3689666643" flag="0"/>
      <psa10 value="0.1628434436" flag="0"/>
      <psa30 value="0.0146114365" flag="0"/>
    </comp>
    <comp name="--.HHE">
      <acc value="0.6023168144" flag="0"/>
      <vel value="0.3705230764" flag="0"/>
      <psa03 value="1.7156398639" flag="0"/>
      <psa10 value="0.4661360855" flag="0"/>
      <psa30 value="0.1195325407" flag="0"/>
    </comp>
  </station>
  <station code="IPPL" name="IPPL" netid="HC" insttype="60" lat="35.3486" lon="24.4632">
    <comp name="--.HHE">
      <acc value="0.0000000000" flag="0"/>
      <vel value="-100.0000000000" flag="0"/>
      <psa03 value="0.0000000000" flag="0"/>
      <psa10 value="0.0000000000" flag="0"/>
      <psa30 value="0.0000000000" flag="0"/>
    </comp>
    <comp name="--.HHN">
      <acc value="0.0000000000" flag="0"/>
      <vel value="-100.0000000000" flag="0"/>
      <psa03 value="0.0000000000" flag="0"/>
      <psa10 value="0.0000000000" flag="0"/>
      <psa30 value="0.0000000000" flag="0"/>
    </comp>
    <comp name="--.HHZ">
      <acc value="0.0159024069" flag="0"/>
      <vel value="0.0083540772" flag="0"/>
      <psa03 value="0.0390786328" flag="0"/>
      <psa10 value="0.0071962061" flag="0"/>
      <psa30 value="0.0008784339" flag="0"/>
    </comp>
  </station>
  <station code="KNSS" name="KNSS" netid="HC" insttype="60" lat="35.3042" lon="25.1802">
    <comp name="--.HHE">
      <acc value="0.0000000000" flag="0"/>
      <vel value="-100.0000000000" flag="0"/>
      <psa03 value="0.0000000000" flag="0"/>
      <psa10 value="0.0000000000" flag="0"/>
      <psa30 value="0.0000000000" flag="0"/>
    </comp>
    <comp name="--.HHN">
      <acc value="0.0279552414" flag="0"/>
      <vel value="0.0197117179" flag="0"/>
      <psa03 value="0.0696083706" flag="0"/>
      <psa10 value="0.0221020124" flag="0"/>
      <psa30 value="0.0037413634" flag="0"/>
    </comp>
  </station>
  <station code="PFKS" name="PFKS" netid="HC" insttype="120" lat="35.0429" lon="25.4733">
    <comp name="--.HHE">
      <acc value="0.0332565760" flag="0"/>
      <vel value="0.0199952525" flag="0"/>
      <psa03 value="0.0560098783" flag="0"/>
      <psa10 value="0.0188799043" flag="0"/>
      <psa30 value="0.0018555449" flag="0"/>
    </comp>
    <comp name="--.HHZ">
      <acc value="0.0173870053" flag="0"/>
      <vel value="0.0113309256" flag="0"/>
      <psa03 value="0.0347489417" flag="0"/>
      <psa10 value="0.0094228819" flag="0"/>
      <psa30 value="0.0024984709" flag="0"/>
    </comp>
  </station>
  <station code="STIA" name="STIA" netid="HC" insttype="120" lat="35.2021" lon="26.0909">
    <comp name="--.HHE">
      <acc value="0.0185501756" flag="0"/>
      <vel value="0.0177990064" flag="0"/>
      <psa03 value="0.0523393873" flag="0"/>
      <psa10 value="0.0189248386" flag="0"/>
      <psa30 value="0.0033062464" flag="0"/>
    </comp>
    <comp name="--.HHZ">
      <acc value="0.0191473579" flag="0"/>
      <vel value="0.0111194551" flag="0"/>
      <psa03 value="0.0559942815" flag="0"/>
      <psa10 value="0.0084305780" flag="0"/>
      <psa30 value="0.0026369878" flag="0"/>
    </comp>
  </station>
  <station code="TEFL" name="TEFL" netid="HC" insttype="GEOtiny," lat="35.0933" lon="25.1634">
    <comp name="--.HHN">
      <acc value="0.0591802655" flag="0"/>
      <vel value="0.0307362338" flag="0"/>
      <psa03 value="0.1353633791" flag="0"/>
      <psa10 value="0.0357047996" flag="0"/>
      <psa30 value="0.0048130676" flag="0"/>
    </comp>
    <comp name="--.HHZ">
      <acc value="0.0233994920" flag="0"/>
      <vel value="0.0136607937" flag="0"/>
      <psa03 value="0.0627464778" flag="0"/>
      <psa10 value="0.0196695646" flag="0"/>
      <psa30 value="0.0021974533" flag="0"/>
    </comp>
  </station>
  <station code="HER1" name="HER1" netid="HI" insttype="unknown" lat="35.3177" lon="25.1022">
    <comp name="--.HNZ">
      <acc value="0.0579736539" flag="0"/>
      <vel value="0.0525187587" flag="0"/>
      <psa03 value="0.1207551404" flag="0"/>
      <psa10 value="0.0861334209" flag="0"/>
      <psa30 value="0.0044148765" flag="0"/>
    </comp>
  </station>
  <station code="NAX1" name="NAX1" netid="HI" insttype="CMG-5TD,ACCELEROMETER,GURALP" lat="37.1014" lon="25.3741">
    <comp name="--.HNE">
      <acc value="0.2250064927" flag="0"/>
      <vel value="0.0881878481" flag="0"/>
      <psa03 value="0.2460195678" flag="0"/>
      <psa10 value="0.0697303417" flag="0"/>
      <psa30 value="0.0088783239" flag="0"/>
    </comp>
    <comp name="--.HNN">
      <acc value="0.2357036617" flag="0"/>
      <vel value="0.0644583101" flag="0"/>
      <psa03 value="0.1720027636" flag="0"/>
      <psa10 value="0.0343850848" flag="0"/>
      <psa30 value="0.0178169688" flag="0"/>
    </comp>
    <comp name="--.HNZ">
      <acc value="0.0751817071" flag="0"/>
      <vel value="0.0472952255" flag="0"/>
      <psa03 value="0.1122957105" flag="0"/>
      <psa10 value="0.0534043524" flag="0"/>
      <psa30 value="0.0192786961" flag="0"/>
    </comp>
  </station>
  <station code="SFR2" name="SFR2" netid="HI" insttype="unknown" lat="36.3998" lon="25.4382">
    <comp name="--.HNZ">
      <acc value="0.4762603306" flag="0"/>
      <vel value="0.3065752062" flag="0"/>
      <psa03 value="1.5187329663" flag="0"/>
      <psa10 value="0.3858042708" flag="0"/>
      <psa30 value="0.0395685002" flag="0"/>
    </comp>
  </station>
  <station code="AMGA" name="AMGA" netid="HL" insttype="SMART24" lat="36.8316" lon="25.8938">
    <comp name="--.HHE">
      <acc value="0.6328627584" flag="0"/>
      <vel value="0.1366919235" flag="0"/>
      <psa03 value="0.6240632029" flag="0"/>
      <psa10 value="0.0850095538" flag="0"/>
      <psa30 value="0.0545214312" flag="0"/>
    </comp>
    <comp name="--.HHN">
      <acc value="0.4454696820" flag="0"/>
      <vel value="0.1352960056" flag="0"/>
      <psa03 value="0.4975933261" flag="0"/>
      <psa10 value="0.2014464812" flag="0"/>
      <psa30 value="0.0553397773" flag="0"/>
    </comp>
    <comp name="--.HHZ">
      <acc value="0.3571031925" flag="0"/>
      <vel value="0.1277451665" flag="0"/>
      <psa03 value="0.2367516644" flag="0"/>
      <psa10 value="0.1466312904" flag="0"/>
      <psa30 value="0.0708664530" flag="0"/>
    </comp>
  </station>
  <station code="APE" name="APE" netid="HL" insttype="120" lat="37.0727" lon="25.523">
    <comp name="--.HHE">
      <acc value="0.1386984337" flag="0"/>
      <vel value="0.0484112411" flag="0"/>
      <psa03 value="0.1205490759" flag="0"/>
      <psa10 value="0.0442451973" flag="0"/>
      <psa30 value="0.0178857960" flag="0"/>
    </comp>
    <comp name="--.HHN">
      <acc value="0.1282181195" flag="0"/>
      <vel value="0.0500883045" flag="0"/>
      <psa03 value="0.1377166291" flag="0"/>
      <psa10 value="0.0415722351" flag="0"/>
      <psa30 value="0.0226228556" flag="0"/>
    </comp>
    <comp name="--.HHZ">
      <acc value="0.0812143476" flag="0"/>
      <vel value="0.0390713854" flag="0"/>
      <psa03 value="0.0822480043" flag="0"/>
      <psa10 value="0.0302832771" flag="0"/>
      <psa30 value="0.0274749847" flag="0"/>
    </comp>
  </station>
  <station code="IACM" name="IACM" netid="HL" insttype="120" lat="35.3058" lon="25.0709">
    <comp name="--.HHE">
      <acc value="0.1131771279" flag="0"/>
      <vel value="0.0898390059" flag="0"/>
      <psa03 value="0.2742395061" flag="0"/>
      <psa10 value="0.1333866426" flag="0"/>
      <psa30 value="0.0096653162" flag="0"/>
    </comp>
    <comp name="--.HHZ">
      <acc value="0.0590038281" flag="0"/>
      <vel value="0.0513010327" flag="0"/>
      <psa03 value="0.1667325808" flag="0"/>
      <psa10 value="0.0356088418" flag="0"/>
      <psa30 value="0.0030371776" flag="0"/>
    </comp>
  </station>
  <station code="IDI" name="IDI" netid="HL" insttype="120" lat="35.288" lon="24.89">
    <comp name="--.HHE">
      <acc value="0.0272585600" flag="0"/>
      <vel value="0.0189408869" flag="0"/>
      <psa03 value="0.0590726691" flag="0"/>
      <psa10 value="0.0135129422" flag="0"/>
      <psa30 value="0.0023098169" flag="0"/>
    </comp>
    <comp name="--.HHZ">
      <acc value="0.0144484003" flag="0"/>
      <vel value="0.0125226082" flag="0"/>
      <psa03 value="0.0329118746" flag="0"/>
      <psa10 value="0.0136041014" flag="0"/>
      <psa30 value="0.0018143275" flag="0"/>
    </comp>
  </station>
  <station code="MHLO" name="MHLO" netid="HL" insttype="20" lat="36.6898" lon="24.4017">
    <comp name="--.HHN">
      <acc value="0.3462641554" flag="0"/>
      <vel value="0.2856066238" flag="0"/>
      <psa03 value="0.7082945105" flag="0"/>
      <psa10 value="0.4914668794" flag="0"/>
      <psa30 value="0.0200977346" flag="0"/>
    </comp>
    <comp name="--.HHZ">
      <acc value="0.2308293837" flag="0"/>
      <vel value="0.1825511231" flag="0"/>
      <psa03 value="0.4503580404" flag="0"/>
      <psa10 value="0.2841370537" flag="0"/>
      <psa30 value="0.0143699478" flag="0"/>
    </comp>
  </station>
  <station code="MILA" name="MILA" netid="HL" insttype="CMG-5" lat="36.7429" lon="24.4282">
    <comp name="00.HNZ">
      <acc value="0.2014840734" flag="0"/>
      <vel value="0.1571189465" flag="0"/>
      <psa03 value="0.4118246487" flag="0"/>
      <psa10 value="0.3832551419" flag="0"/>
      <psa30 value="0.0136701483" flag="0"/>
    </comp>
    <comp name="00.HNE">
      <acc value="0.3583805161" flag="0"/>
      <vel value="0.2570586530" flag="0"/>
      <psa03 value="0.5464676471" flag="0"/>
      <psa10 value="0.2310888270" flag="0"/>
      <psa30 value="0.0205545485" flag="0"/>
    </comp>
    <comp name="00.HNN">
      <acc value="0.3860691540" flag="0"/>
      <vel value="0.3393825503" flag="0"/>
      <psa03 value="0.7667479179" flag="0"/>
      <psa10 value="0.3145986886" flag="0"/>
      <psa30 value="0.0186615670" flag="0"/>
    </comp>
  </station>
  <station code="NISR" name="NISR" netid="HL" insttype="65535" lat="36.6106" lon="27.131">
    <comp name="--.HHE">
      <acc value="0.0000000000" flag="0"/>
      <vel value="-100.0000000000" flag="0"/>
      <psa03 value="0.0000000000" flag="0"/>
      <psa10 value="0.0000000000" flag="0"/>
      <psa30 value="0.0000000000" flag="0"/>
    </comp>
    <comp name="--.HHN">
      <acc value="0.0255823212" flag="0"/>
      <vel value="0.0365597925" flag="0"/>
      <psa03 value="0.0689977188" flag="0"/>
      <psa10 value="0.0241048640" flag="0"/>
      <psa30 value="0.0107950573" flag="0"/>
    </comp>
  </station>
  <station code="NISR2" name="NISR2" netid="HL" insttype="120" lat="36.5744" lon="27.1767">
    <comp name="--.HHZ">
      <acc value="0.0239937154" flag="0"/>
      <vel value="0.0159681273" flag="0"/>
      <psa03 value="0.0660856445" flag="0"/>
      <psa10 value="0.0220307102" flag="0"/>
      <psa30 value="0.0035736285" flag="0"/>
    </comp>
  </station>
  <station code="NPS" name="NPS" netid="HL" insttype="CMG3ESPC-120s" lat="35.2613" lon="25.6104">
    <comp name="--.HHE">
      <acc value="0.0158774556" flag="0"/>
      <vel value="0.0099042234" flag="0"/>
      <psa03 value="0.0453609019" flag="0"/>
      <psa10 value="0.0161865745" flag="0"/>
      <psa30 value="0.0019133487" flag="0"/>
    </comp>
    <comp name="--.HHZ">
      <acc value="0.0228453899" flag="0"/>
      <vel value="0.0164687263" flag="0"/>
      <psa03 value="0.0444326035" flag="0"/>
      <psa10 value="0.0156991330" flag="0"/>
      <psa30 value="0.0046816544" flag="0"/>
    </comp>
    <comp name="--.HHN">
      <acc value="0.0283621307" flag="0"/>
      <vel value="0.0213058789" flag="0"/>
      <psa03 value="0.0776752100" flag="0"/>
      <psa10 value="0.0260526080" flag="0"/>
      <psa30 value="0.0032463081" flag="0"/>
    </comp>
  </station>
  <station code="SAP3" name="SAP3" netid="HL" insttype="65535" lat="36.4356" lon="25.3454">
    <comp name="--.HHE">
      <acc value="0.6945268727" flag="0"/>
      <vel value="0.2777010630" flag="0"/>
      <psa03 value="2.2488383843" flag="0"/>
      <psa10 value="0.4268244353" flag="0"/>
      <psa30 value="0.1091756478" flag="0"/>
    </comp>
    <comp name="--.HHZ">
      <acc value="0.3756171187" flag="0"/>
      <vel value="0.1710738886" flag="0"/>
      <psa03 value="0.9003161826" flag="0"/>
      <psa10 value="0.1619098396" flag="0"/>
      <psa30 value="0.0243240929" flag="0"/>
    </comp>
    <comp name="--.HHN">
      <acc value="0.5424266861" flag="0"/>
      <vel value="0.2944169862" flag="0"/>
      <psa03 value="1.5186679376" flag="0"/>
      <psa10 value="0.3394165600" flag="0"/>
      <psa30 value="0.0760275391" flag="0"/>
    </comp>
  </station>
  <station code="SMG" name="SMG" netid="HL" insttype="120" lat="37.7043" lon="26.8377">
    <comp name="--.HHN">
      <acc value="0.0183038810" flag="0"/>
      <vel value="0.0123613690" flag="0"/>
      <psa03 value="0.0337706442" flag="0"/>
      <psa10 value="0.0218273376" flag="0"/>
      <psa30 value="0.0022151797" flag="0"/>
    </comp>
  </station>
  <station code="THERA" name="THERA" netid="HL" insttype="120" lat="36.367" lon="25.4753">
    <comp name="--.HHE">
      <acc value="0.2647587203" flag="0"/>
      <vel value="0.1302212927" flag="0"/>
      <psa03 value="0.3096345079" flag="0"/>
      <psa10 value="0.1329426642" flag="0"/>
      <psa30 value="0.0394677828" flag="0"/>
    </comp>
    <comp name="--.HHN">
      <acc value="0.2807160503" flag="0"/>
      <vel value="0.1662161845" flag="0"/>
      <psa03 value="0.6259905240" flag="0"/>
      <psa10 value="0.1931659261" flag="0"/>
      <psa30 value="0.0419395203" flag="0"/>
    </comp>
    <comp name="--.HHZ">
      <acc value="0.2015535745" flag="0"/>
      <vel value="0.0828789247" flag="0"/>
      <psa03 value="0.2688363052" flag="0"/>
      <psa10 value="0.1237969035" flag="0"/>
      <psa30 value="0.0305889711" flag="0"/>
    </comp>
  </station>
  <station code="THRA" name="THRA" netid="HL" insttype="CMG-5" lat="36.415" lon="25.4324">
    <comp name="00.HNZ">
      <acc value="0.6434660638" flag="0"/>
      <vel value="0.4367220397" flag="0"/>
      <psa03 value="1.6094530409" flag="0"/>
      <psa10 value="0.6473029789" flag="0"/>
      <psa30 value="0.0507673538" flag="0"/>
    </comp>
  </station>
  <station code="TNSA" name="TNSA" netid="HL" insttype="CMG-5" lat="37.5394" lon="25.1631">
    <comp name="00.HNE">
      <acc value="0.0627964239" flag="0"/>
      <vel value="0.0297750109" flag="0"/>
      <psa03 value="0.1066748787" flag="0"/>
      <psa10 value="0.0205359269" flag="0"/>
      <psa30 value="0.0063561246" flag="0"/>
    </comp>
    <comp name="00.HNN">
      <acc value="0.1072507358" flag="0"/>
      <vel value="0.0711875276" flag="0"/>
      <psa03 value="0.1171402946" flag="0"/>
      <psa10 value="0.0467153873" flag="0"/>
      <psa30 value="0.0059407552" flag="0"/>
    </comp>
    <comp name="00.HNZ">
      <acc value="0.0909434239" flag="0"/>
      <vel value="0.0913998902" flag="0"/>
      <psa03 value="0.1377666725" flag="0"/>
      <psa10 value="0.0738318437" flag="0"/>
      <psa30 value="0.0095414427" flag="0"/>
    </comp>
  </station>
  <station code="ZKR" name="ZKR" netid="HL" insttype="120" lat="35.1147" lon="26.2169">
    <comp name="--.HHE">
      <acc value="0.0156490945" flag="0"/>
      <vel value="0.0134707821" flag="0"/>
      <psa03 value="0.0490548027" flag="0"/>
      <psa10 value="0.0159780736" flag="0"/>
      <psa30 value="0.0027143622" flag="0"/>
    </comp>
    <comp name="--.HHN">
      <acc value="0.0134700670" flag="0"/>
      <vel value="0.0124312324" flag="0"/>
      <psa03 value="0.0265078936" flag="0"/>
      <psa10 value="0.0130889329" flag="0"/>
      <psa30 value="0.0035675010" flag="0"/>
    </comp>
    <comp name="--.HHZ">
      <acc value="0.0095069883" flag="0"/>
      <vel value="0.0089080392" flag="0"/>
