<?xml version="1.0" encoding="UTF-8" standalone="yes"?>
<!DOCTYPE earthquake SYSTEM "stationlist.dtd">
<stationlist created="" xmlns="ch.ethz.sed.shakemap.usgs.xml">
  <station code="APE" name="APE" netid="GE" insttype="STS-2/N" lat="37.0727" lon="25.523">
    <comp name="--.HHE">
      <acc value="0.1664957254" flag="0"/>
      <vel value="0.0503556869" flag="0"/>
      <psa03 value="0.1236976187" flag="0"/>
      <psa10 value="0.0445539662" flag="0"/>
      <psa30 value="0.0179183560" flag="0"/>
    </comp>
    <comp name="--.HHN">
      <acc value="0.1338765199" flag="0"/>
      <vel value="0.0504621359" flag="0"/>
      <psa03 value="0.1403862452" flag="0"/>
      <psa10 value="0.0418248827" flag="0"/>
      <psa30 value="0.0226484991" flag="0"/>
    </comp>
    <comp name="--.HHZ">
      <acc value="0.0896358278" flag="0"/>
      <vel value="0.0392135820" flag="0"/>
      <psa03 value="0.0843626721" flag="0"/>
      <psa10 value="0.0304806990" flag="0"/>
      <psa30 value="0.0275142482" flag="0"/>
    </comp>
  </station>
  <station code="THERA" name="THERA" netid="GE" insttype="STS-2/N" lat="36.367" lon="25.4753">
    <comp name="--.HHZ">
      <acc value="0.2051251988" flag="0"/>
      <vel value="0.0839081041" flag="0"/>
      <psa03 value="0.2769277371" flag="0"/>
      <psa10 value="0.1245734529" flag="0"/>
      <psa30 value="0.0305835113" flag="0"/>
    </comp>
    <comp name="--.HHN">
      <acc value="0.1409499093" flag="0"/>
      <vel value="0.0844607025" flag="0"/>
      <psa03 value="0.3214585054" flag="0"/>
      <psa10 value="0.0975110288" flag="0"/>
      <psa30 value="0.0209563126" flag="0"/>
    </comp>
    <comp name="--.HHE">
      <acc value="0.2707936435" flag="0"/>
      <vel value="0.1320171059" flag="0"/>
      <psa03 value="0.3193943879" flag="0"/>
      <psa10 value="0.1339013777" flag="0"/>
      <psa30 value="0.0394535622" flag="0"/>
    </comp>
  </station>
  <station code="ZKR" name="ZKR" netid="GE" insttype="STS-2/N" lat="35.1147" lon="26.2169">
    <comp name="--.HHZ">
      <acc value="0.0098082328" flag="0"/>
      <vel value="0.0090032429" flag="0"/>
      <psa03 value="0.0276689194" flag="0"/>
      <psa10 value="0.0067907427" flag="0"/>
      <psa30 value="0.0024585574" flag="0"/>
    </comp>
    <comp name="--.HHN">
      <acc value="0.0069022300" flag="0"/>
      <vel value="0.0062962554" flag="0"/>
      <psa03 value="0.0136378963" flag="0"/>
      <psa10 value="0.0065842899" flag="0"/>
      <psa30 value="0.0017830402" flag="0"/>
    </comp>
    <comp name="--.HHE">
      <acc value="0.0160697718" flag="0"/>
      <vel value="0.0136831620" flag="0"/>
      <psa03 value="0.0502947881" flag="0"/>
      <psa10 value="0.0160977067" flag="0"/>
      <psa30 value="0.0027111197" flag="0"/>
    </comp>
  </station>
  <station code="IDI" name="IDI" netid="MN" insttype="" lat="35.288" lon="24.89">
    <comp name="--.HHE">
      <acc value="0.0273077348" flag="0"/>
      <vel value="0.0189380357" flag="0"/>
      <psa03 value="0.0597520490" flag="0"/>
      <psa10 value="0.0134531636" flag="0"/>
      <psa30 value="0.0022832028" flag="0"/>
    </comp>
    <comp name="--.HHZ">
      <acc value="0.0145595807" flag="0"/>
      <vel value="0.0124785131" flag="0"/>
      <psa03 value="0.0331056354" flag="0"/>
      <psa10 value="0.0135048643" flag="0"/>
      <psa30 value="0.0017942718" flag="0"/>
    </comp>
    <comp name="--.HHN">
      <acc value="0.0281647600" flag="0"/>
      <vel value="0.0159286681" flag="0"/>
      <psa03 value="0.0556142736" flag="0"/>
      <psa10 value="0.0089894791" flag="0"/>
      <psa30 value="0.0015709573" flag="0"/>
    </comp>
  </station>
</stationlist>
