<?xml version="1.0" encoding="UTF-8" standalone="yes"?>
<!DOCTYPE earthquake SYSTEM "stationlist.dtd">
<stationlist created="" xmlns="ch.ethz.sed.shakemap.usgs.xml">
  <station code="APE" name="APE" netid="GE" insttype="STS-2/N" lat="37.0727" lon="25.523">
    <comp name="--.HHE">
      <acc value="0.1664957254" flag="0"/>
      <vel value="0.0503556869" flag="0"/>
      <psa03 value="0.1236976187" flag="0"/>
      <psa10 value="0.0445539662" flag="0"/>
      <psa30 value="0.0179183560" flag="0"/>
    </comp>
    <comp name="--.HHN">
      <acc value="0.1338765199" flag="0"/>
      <vel value="0.0504621359" flag="0"/>
      <psa03 value="0.1403862452" flag="0"/>
      <psa10 value="0.0418248827" flag="0"/>
      <psa30 value="0.0226484991" flag="0"/>
    </comp>
    <comp name="--.HHZ">
      <acc value="0.0896358278" flag="0"/>
      <vel value="0.0392135820" flag="0"/>
      <psa03 value="0.0843626721" flag="0"/>
      <psa10 value="0.0304806990" flag="0"/>
      <psa30 value="0.0275142482" flag="0"/>
    </comp>
  </station>
  <station code="THERA" name="THERA" netid="GE" insttype="STS-2/N" lat="36.367" lon="25.4753">
    <comp name="--.HHZ">
      <acc value="0.2051251988" flag="0"/>
      <vel value="0.0839081041" flag="0"/>
      <psa03 value="0.2769277371" flag="0"/>
      <psa10 value="0.1245734529" flag="0"/>
      <psa30 value="0.0305835113" flag="0"/>
    </comp>
    <comp name="--.HHN">
      <acc value="0.1409499093" flag="0"/>
      <vel value="0.0844607025" flag="0"/>
      <psa03 value="0.3214585054" flag="0"/>
      <psa10 value="0.0975110288" flag="0"/>
      <psa30 value="0.0209563126" flag="0"/>
    </comp>
    <comp name="--.HHE">
      <acc value="0.2707936435" flag="0"/>
      <vel value="0.1320171059" flag="0"/>
      <psa03 value="0.3193943879" flag="0"/>
      <psa10 value="0.1339013777" flag="0"/>
      <psa30 value="0.0394535622" flag="0"/>
    </comp>
  </station>
  <station code="ZKR" name="ZKR" netid="GE" insttype="STS-2/N" lat="35.1147" lon="26.2169">
    <comp name="--.HHZ">
      <acc value="0.0098082328" flag="0"/>
      <vel value="0.0090032429" flag="0"/>
      <psa03 value="0.0276689194" flag="0"/>
      <psa10 value="0.0067907427" flag="0"/>
      <psa30 value="0.0024585574" flag="0"/>
    </comp>
    <comp name="--.HHN">
      <acc value="0.0069022300" flag="0"/>
      <vel value="0.0062962554" flag="0"/>
      <psa03 value="0.0136378963" flag="0"/>
      <psa10 value="0.0065842899" flag="0"/>
      <psa30 value="0.0017830402" flag="0"/>
    </comp>
    <comp name="--.HHE">
      <acc value="0.0160697718" flag="0"/>
      <vel value="0.0136831620" flag="0"/>
      <psa03 value="0.0502947881" flag="0"/>
      <psa10 value="0.0160977067" flag="0"/>
      <psa30 value="0.0027111197" flag="0"/>
    </comp>
  </station>
  <station code="SERI" name="SERI" netid="HA" insttype="30" lat="37.1609" lon="24.4853">
    <comp name="--.HHE">
      <acc value="0.0607466199" flag="0"/>
      <vel value="0.0675921576" flag="0"/>
      <psa03 value="0.1877243957" flag="0"/>
      <psa10 value="0.0427692463" flag="0"/>
      <psa30 value="0.0045632925" flag="0"/>
    </comp>
    <comp name="--.HHN">
      <acc value="0.0903337847" flag="0"/>
      <vel value="0.0642381862" flag="0"/>
      <psa03 value="0.2183228932" flag="0"/>
      <psa10 value="0.0972260666" flag="0"/>
      <psa30 value="0.0057393284" flag="0"/>
    </comp>
    <comp name="--.HHZ">
      <acc value="0.0732696697" flag="0"/>
      <vel value="0.0654848461" flag="0"/>
      <psa03 value="0.1417637433" flag="0"/>
      <psa10 value="0.0822777013" flag="0"/>
      <psa30 value="0.0139530737" flag="0"/>
    </comp>
  </station>
  <station code="SNT5" name="SNT5" netid="HA" insttype="1s-100Hz," lat="36.4037" lon="25.3953">
    <comp name="--.HHN">
      <acc value="0.4201815723" flag="0"/>
      <vel value="0.2290029385" flag="0"/>
      <psa03 value="1.0224713889" flag="0"/>
      <psa10 value="0.2323773313" flag="0"/>
      <psa30 value="0.1007408752" flag="0"/>
    </comp>
    <comp name="--.HHZ">
      <acc value="0.2200011366" flag="0"/>
      <vel value="0.0923517491" flag="0"/>
      <psa03 value="0.3689666702" flag="0"/>
      <psa10 value="0.1628434489" flag="0"/>
      <psa30 value="0.0146114136" flag="0"/>
    </comp>
  </station>
  <station code="KNSS" name="KNSS" netid="HC" insttype="60" lat="35.3042" lon="25.1802">
    <comp name="--.HHZ">
      <acc value="0.0262281681" flag="0"/>
      <vel value="0.0186643141" flag="0"/>
      <psa03 value="0.0548179731" flag="0"/>
      <psa10 value="0.0272984810" flag="0"/>
      <psa30 value="0.0022704282" flag="0"/>
    </comp>
  </station>
  <station code="PFKS" name="PFKS" netid="HC" insttype="120" lat="35.0429" lon="25.4733">
    <comp name="--.HHN">
      <acc value="0.0249292265" flag="0"/>
      <vel value="0.0225411921" flag="0"/>
      <psa03 value="0.0480779174" flag="0"/>
      <psa10 value="0.0150670279" flag="0"/>
      <psa30 value="0.0022859353" flag="0"/>
    </comp>
  </station>
  <station code="STIA" name="STIA" netid="HC" insttype="120" lat="35.2021" lon="26.0909">
    <comp name="--.HHE">
      <acc value="0.0185501756" flag="0"/>
      <vel value="0.0177990078" flag="0"/>
      <psa03 value="0.0523393873" flag="0"/>
      <psa10 value="0.0189248386" flag="0"/>
      <psa30 value="0.0033062467" flag="0"/>
    </comp>
    <comp name="--.HHZ">
      <acc value="0.0191473579" flag="0"/>
      <vel value="0.0111194555" flag="0"/>
      <psa03 value="0.0559942815" flag="0"/>
      <psa10 value="0.0084305780" flag="0"/>
      <psa30 value="0.0026369635" flag="0"/>
    </comp>
  </station>
  <station code="TEFL" name="TEFL" netid="HC" insttype="GEOtiny," lat="35.0933" lon="25.1634">
    <comp name="--.HHE">
      <acc value="0.0688772663" flag="0"/>
      <vel value="0.0383720105" flag="0"/>
      <psa03 value="0.0921401136" flag="0"/>
      <psa10 value="0.0411638469" flag="0"/>
      <psa30 value="0.0043602607" flag="0"/>
    </comp>
    <comp name="--.HHN">
      <acc value="0.0591802536" flag="0"/>
      <vel value="0.0307315568" flag="0"/>
      <psa03 value="0.1353633833" flag="0"/>
      <psa10 value="0.0357048079" flag="0"/>
      <psa30 value="0.0048130693" flag="0"/>
    </comp>
  </station>
  <station code="HER1" name="HER1" netid="HI" insttype="unknown" lat="35.3177" lon="25.1022">
    <comp name="--.HNE">
      <acc value="0.0617894806" flag="0"/>
      <vel value="0.0895616707" flag="0"/>
      <psa03 value="0.1363361547" flag="0"/>
      <psa10 value="0.1507767478" flag="0"/>
      <psa30 value="0.0099493589" flag="0"/>
    </comp>
    <comp name="--.HNN">
      <acc value="0.0582868821" flag="0"/>
      <vel value="0.0701529491" flag="0"/>
      <psa03 value="0.1769699968" flag="0"/>
      <psa10 value="0.1352185070" flag="0"/>
      <psa30 value="0.0082710994" flag="0"/>
    </comp>
    <comp name="--.HNZ">
      <acc value="0.0579736563" flag="0"/>
      <vel value="0.0525187599" flag="0"/>
      <psa03 value="0.1207551404" flag="0"/>
      <psa10 value="0.0861334209" flag="0"/>
      <psa30 value="0.0044148722" flag="0"/>
    </comp>
  </station>
  <station code="NAX1" name="NAX1" netid="HI" insttype="CMG-5TD,ACCELEROMETER,GURALP" lat="37.1014" lon="25.3741">
    <comp name="--.HNN">
      <acc value="0.2357036577" flag="0"/>
      <vel value="0.0644583125" flag="0"/>
      <psa03 value="0.1720027636" flag="0"/>
      <psa10 value="0.0343850843" flag="0"/>
      <psa30 value="0.0178168564" flag="0"/>
    </comp>
  </station>
  <station code="SFR2" name="SFR2" netid="HI" insttype="unknown" lat="36.3998" lon="25.4382">
    <comp name="--.HNE">
      <acc value="0.6774227931" flag="0"/>
      <vel value="0.3433827955" flag="0"/>
      <psa03 value="1.2446081637" flag="0"/>
      <psa10 value="0.4512514413" flag="0"/>
      <psa30 value="0.0897662463" flag="0"/>
    </comp>
    <comp name="--.HNZ">
      <acc value="0.4762604328" flag="0"/>
      <vel value="0.3065752021" flag="0"/>
      <psa03 value="1.5187329662" flag="0"/>
      <psa10 value="0.3858043350" flag="0"/>
      <psa30 value="0.0395681059" flag="0"/>
    </comp>
  </station>
  <station code="AMGA" name="AMGA" netid="HL" insttype="SMART24" lat="36.8316" lon="25.8938">
    <comp name="--.HHZ">
      <acc value="0.3571031918" flag="0"/>
      <vel value="0.1277451769" flag="0"/>
      <psa03 value="0.2367516644" flag="0"/>
      <psa10 value="0.1466312882" flag="0"/>
      <psa30 value="0.0708667006" flag="0"/>
    </comp>
  </station>
  <station code="APE" name="APE" netid="HL" insttype="120" lat="37.0727" lon="25.523">
    <comp name="--.HHN">
      <acc value="0.1282181196" flag="0"/>
      <vel value="0.0500883029" flag="0"/>
      <psa03 value="0.1377166291" flag="0"/>
      <psa10 value="0.0415722353" flag="0"/>
      <psa30 value="0.0226228214" flag="0"/>
    </comp>
    <comp name="--.HHE">
      <acc value="0.1386984337" flag="0"/>
      <vel value="0.0484112407" flag="0"/>
      <psa03 value="0.1205490759" flag="0"/>
      <psa10 value="0.0442451974" flag="0"/>
      <psa30 value="0.0178856983" flag="0"/>
    </comp>
  </station>
  <station code="IDI" name="IDI" netid="HL" insttype="120" lat="35.288" lon="24.89">
    <comp name="--.HHE">
      <acc value="0.0272585600" flag="0"/>
      <vel value="0.0189408870" flag="0"/>
      <psa03 value="0.0590726691" flag="0"/>
      <psa10 value="0.0135129422" flag="0"/>
      <psa30 value="0.0023098230" flag="0"/>
    </comp>
  </station>
  <station code="MHLO" name="MHLO" netid="HL" insttype="20" lat="36.6898" lon="24.4017">
    <comp name="--.HHZ">
      <acc value="0.2308293837" flag="0"/>
      <vel value="0.1825511295" flag="0"/>
      <psa03 value="0.4503580404" flag="0"/>
      <psa10 value="0.2841370536" flag="0"/>
      <psa30 value="0.0143699589" flag="0"/>
    </comp>
    <comp name="--.HHN">
      <acc value="0.3462641556" flag="0"/>
      <vel value="0.2856066438" flag="0"/>
      <psa03 value="0.7082945105" flag="0"/>
      <psa10 value="0.4914668796" flag="0"/>
      <psa30 value="0.0200977851" flag="0"/>
    </comp>
  </station>
  <station code="MILA" name="MILA" netid="HL" insttype="CMG-5" lat="36.7429" lon="24.4282">
    <comp name="00.HNE">
      <acc value="0.3583805166" flag="0"/>
      <vel value="0.2570586526" flag="0"/>
      <psa03 value="0.5464676471" flag="0"/>
      <psa10 value="0.2310888267" flag="0"/>
      <psa30 value="0.0205544831" flag="0"/>
    </comp>
    <comp name="00.HNN">
      <acc value="0.3860691505" flag="0"/>
      <vel value="0.3393825498" flag="0"/>
      <psa03 value="0.7667479179" flag="0"/>
      <psa10 value="0.3145986876" flag="0"/>
      <psa30 value="0.0186617169" flag="0"/>
    </comp>
  </station>
  <station code="NISR" name="NISR" netid="HL" insttype="65535" lat="36.6106" lon="27.131">
    <comp name="--.HHE">
      <acc value="0.0000000000" flag="0"/>
      <vel value="-100.0000000000" flag="0"/>
      <psa03 value="0.0000000000" flag="0"/>
      <psa10 value="0.0000000000" flag="0"/>
      <psa30 value="0.0000000000" flag="0"/>
    </comp>
    <comp name="--.HHN">
      <acc value="0.0255823207" flag="0"/>
      <vel value="0.0365597943" flag="0"/>
      <psa03 value="0.0689977188" flag="0"/>
      <psa10 value="0.0241048641" flag="0"/>
      <psa30 value="0.0107950201" flag="0"/>
    </comp>
    <comp name="--.HHZ">
      <acc value="0.0213740462" flag="0"/>
      <vel value="0.0183043566" flag="0"/>
      <psa03 value="0.0462107924" flag="0"/>
      <psa10 value="0.0194523080" flag="0"/>
      <psa30 value="0.0036299050" flag="0"/>
    </comp>
  </station>
  <station code="NISR2" name="NISR2" netid="HL" insttype="120" lat="36.5744" lon="27.1767">
    <comp name="--.HHN">
      <acc value="0.0564928382" flag="0"/>
      <vel value="0.0619608313" flag="0"/>
      <psa03 value="0.1878588140" flag="0"/>
      <psa10 value="0.0887741073" flag="0"/>
      <psa30 value="0.0107030605" flag="0"/>
    </comp>
  </station>
  <station code="NPS" name="NPS" netid="HL" insttype="CMG3ESPC-120s" lat="35.2613" lon="25.6104">
    <comp name="--.HHN">
      <acc value="0.0283621306" flag="0"/>
      <vel value="0.0213058773" flag="0"/>
      <psa03 value="0.0776752100" flag="0"/>
      <psa10 value="0.0260526080" flag="0"/>
      <psa30 value="0.0032462826" flag="0"/>
    </comp>
  </station>
  <station code="SAP3" name="SAP3" netid="HL" insttype="65535" lat="36.4356" lon="25.3454">
    <comp name="--.HHE">
      <acc value="0.6945268727" flag="0"/>
      <vel value="0.2777010429" flag="0"/>
      <psa03 value="2.2488383843" flag="0"/>
      <psa10 value="0.4268244359" flag="0"/>
      <psa30 value="0.1091756300" flag="0"/>
    </comp>
    <comp name="--.HHN">
      <acc value="0.5424266862" flag="0"/>
      <vel value="0.2944169888" flag="0"/>
      <psa03 value="1.5186679376" flag="0"/>
      <psa10 value="0.3394165573" flag="0"/>
      <psa30 value="0.0760275352" flag="0"/>
    </comp>
    <comp name="--.HHZ">
      <acc value="0.3756171187" flag="0"/>
      <vel value="0.1710738842" flag="0"/>
      <psa03 value="0.9003161826" flag="0"/>
      <psa10 value="0.1619098396" flag="0"/>
      <psa30 value="0.0243245927" flag="0"/>
    </comp>
  </station>
  <station code="SMG" name="SMG" netid="HL" insttype="120" lat="37.7043" lon="26.8377">
    <comp name="--.HHN">
      <acc value="0.0183038807" flag="0"/>
      <vel value="0.0123613692" flag="0"/>
      <psa03 value="0.0337706442" flag="0"/>
      <psa10 value="0.0218273376" flag="0"/>
      <psa30 value="0.0022152049" flag="0"/>
    </comp>
    <comp name="--.HHE">
      <acc value="0.0175365427" flag="0"/>
      <vel value="0.0163743906" flag="0"/>
      <psa03 value="0.0485147917" flag="0"/>
      <psa10 value="0.0300204156" flag="0"/>
      <psa30 value="0.0034671191" flag="0"/>
    </comp>
    <comp name="--.HHZ">
      <acc value="0.0098441444" flag="0"/>
      <vel value="0.0060353956" flag="0"/>
      <psa03 value="0.0183924422" flag="0"/>
      <psa10 value="0.0153501131" flag="0"/>
      <psa30 value="0.0032372342" flag="0"/>
    </comp>
  </station>
  <station code="THERA" name="THERA" netid="HL" insttype="120" lat="36.367" lon="25.4753">
    <comp name="--.HHZ">
      <acc value="0.2015535752" flag="0"/>
      <vel value="0.0828789247" flag="0"/>
      <psa03 value="0.2688363052" flag="0"/>
      <psa10 value="0.1237969040" flag="0"/>
      <psa30 value="0.0305889270" flag="0"/>
    </comp>
  </station>
  <station code="THRA" name="THRA" netid="HL" insttype="CMG-5" lat="36.415" lon="25.4324">
    <comp name="00.HNE">
      <acc value="1.4156389546" flag="0"/>
      <vel value="0.7482893016" flag="0"/>
      <psa03 value="4.4456620393" flag="0"/>
      <psa10 value="1.0492658951" flag="0"/>
      <psa30 value="0.1302695342" flag="0"/>
    </comp>
    <comp name="00.HNN">
      <acc value="0.8164375573" flag="0"/>
      <vel value="0.6223778377" flag="0"/>
      <psa03 value="2.2923541669" flag="0"/>
      <psa10 value="1.9167382873" flag="0"/>
      <psa30 value="0.1434962763" flag="0"/>
    </comp>
    <comp name="00.HNZ">
      <acc value="0.6434660641" flag="0"/>
      <vel value="0.4367220395" flag="0"/>
      <psa03 value="1.6094530409" flag="0"/>
      <psa10 value="0.6473029884" flag="0"/>
      <psa30 value="0.0507667048" flag="0"/>
    </comp>
  </station>
  <station code="TNSA" name="TNSA" netid="HL" insttype="CMG-5" lat="37.5394" lon="25.1631">
    <comp name="00.HNE">
      <acc value="0.0627964240" flag="0"/>
      <vel value="0.0297750069" flag="0"/>
      <psa03 value="0.1066748787" flag="0"/>
      <psa10 value="0.0205359270" flag="0"/>
      <psa30 value="0.0063561892" flag="0"/>
    </comp>
    <comp name="00.HNN">
      <acc value="0.1072507418" flag="0"/>
      <vel value="0.0711875288" flag="0"/>
      <psa03 value="0.1171402946" flag="0"/>
      <psa10 value="0.0467153873" flag="0"/>
      <psa30 value="0.0059404067" flag="0"/>
    </comp>
  </station>
  <station code="ZKR" name="ZKR" netid="HL" insttype="120" lat="35.1147" lon="26.2169">
    <comp name="--.HHE">
      <acc value="0.0156490949" flag="0"/>
      <vel value="0.0134707783" flag="0"/>
      <psa03 value="0.0490548027" flag="0"/>
      <psa10 value="0.0159780736" flag="0"/>
      <psa30 value="0.0027143643" flag="0"/>
    </comp>
    <comp name="--.HHN">
      <acc value="0.0134700666" flag="0"/>
      <vel value="0.0124312314" flag="0"/>
      <psa03 value="0.0265078936" flag="0"/>
      <psa10 value="0.0130889328" flag="0"/>
      <psa30 value="0.0035675006" flag="0"/>
    </comp>
  </station>
  <station code="IDI" name="IDI" netid="MN" insttype="" lat="35.288" lon="24.89">
    <comp name="--.HHE">
      <acc value="0.0273077348" flag="0"/>
      <vel value="0.0189380357" flag="0"/>
      <psa03 value="0.0597520490" flag="0"/>
      <psa10 value="0.0134531636" flag="0"/>
      <psa30 value="0.0022832028" flag="0"/>
    </comp>
    <comp name="--.HHZ">
      <acc value="0.0145595807" flag="0"/>
      <vel value="0.0124785131" flag="0"/>
      <psa03 value="0.0331056354" flag="0"/>
      <psa10 value="0.0135048643" flag="0"/>
      <psa30 value="0.0017942718" flag="0"/>
    </comp>
    <comp name="--.HHN">
      <acc value="0.0281647600" flag="0"/>
      <vel value="0.0159286681" flag="0"/>
      <psa03 value="0.0556142736" flag="0"/>
      <psa10 value="0.0089894791" flag="0"/>
      <psa30 value="0.0015709573" flag="0"/>
    </comp>
  </station>
</stationlist>
