<?xml version="1.0" encoding="UTF-8" standalone="yes"?>
<!DOCTYPE earthquake SYSTEM "stationlist.dtd">
<stationlist created="" xmlns="ch.ethz.sed.shakemap.usgs.xml">
  <station code="BGDS" name="BGDS" netid="BW" insttype="" lat="47.6353" lon="13.0275">
    <comp name="--.HHE">
      <acc value="0.0157550639" flag="0"/>
      <vel value="0.0110334316" flag="0"/>
      <psa03 value="0.0555995551" flag="0"/>
      <psa10 value="0.0115805787" flag="0"/>
      <psa30 value="0.0010937869" flag="0"/>
    </comp>
    <comp name="--.HHN">
      <acc value="0.0194743327" flag="0"/>
      <vel value="0.0093588331" flag="0"/>
      <psa03 value="0.0633225051" flag="0"/>
      <psa10 value="0.0089065344" flag="0"/>
      <psa30 value="0.0006501957" flag="0"/>
    </comp>
    <comp name="--.HHZ">
      <acc value="0.0203725569" flag="0"/>
      <vel value="0.0108830343" flag="0"/>
      <psa03 value="0.0463858390" flag="0"/>
      <psa10 value="0.0096403646" flag="0"/>
      <psa30 value="0.0009952242" flag="0"/>
    </comp>
  </station>
  <station code="BHG" name="BHG" netid="BW" insttype="" lat="47.7205" lon="12.8773">
    <comp name="--.HHZ">
      <acc value="0.0256476942" flag="0"/>
      <vel value="0.0137380146" flag="0"/>
      <psa03 value="0.0934075603" flag="0"/>
      <psa10 value="0.0099304955" flag="0"/>
      <psa30 value="0.0011198811" flag="0"/>
    </comp>
    <comp name="--.HHN">
      <acc value="0.0376146822" flag="0"/>
      <vel value="0.0204210129" flag="0"/>
      <psa03 value="0.1176239476" flag="0"/>
      <psa10 value="0.0115223279" flag="0"/>
      <psa30 value="0.0011574673" flag="0"/>
    </comp>
    <comp name="--.HHE">
      <acc value="0.0315286850" flag="0"/>
      <vel value="0.0204965446" flag="0"/>
      <psa03 value="0.1203135366" flag="0"/>
      <psa10 value="0.0142780533" flag="0"/>
      <psa30 value="0.0011668613" flag="0"/>
    </comp>
  </station>
  <station code="RJOB" name="RJOB" netid="BW" insttype="Trillium Compact 120s" lat="47.7373" lon="12.7956">
    <comp name="--.HHE">
      <acc value="0.0208611275" flag="0"/>
      <vel value="0.0120143435" flag="0"/>
      <psa03 value="0.1019403157" flag="0"/>
      <psa10 value="0.0073114075" flag="0"/>
      <psa30 value="0.0005513999" flag="0"/>
    </comp>
    <comp name="--.HHN">
      <acc value="0.0151118752" flag="0"/>
      <vel value="0.0110306069" flag="0"/>
      <psa03 value="0.0604352071" flag="0"/>
      <psa10 value="0.0074782486" flag="0"/>
      <psa30 value="0.0007868275" flag="0"/>
    </comp>
    <comp name="--.HHZ">
      <acc value="0.0199372787" flag="0"/>
      <vel value="0.0110467486" flag="0"/>
      <psa03 value="0.0597087280" flag="0"/>
      <psa10 value="0.0065380325" flag="0"/>
      <psa30 value="0.0006053961" flag="0"/>
    </comp>
  </station>
  <station code="RMOA" name="RMOA" netid="BW" insttype="Trillium Compact 120s" lat="47.7617" lon="12.8645">
    <comp name="--.HHE">
      <acc value="0.0206318032" flag="0"/>
      <vel value="0.0135369336" flag="0"/>
      <psa03 value="0.0497882559" flag="0"/>
      <psa10 value="0.0106194772" flag="0"/>
      <psa30 value="0.0011532742" flag="0"/>
    </comp>
    <comp name="--.HHZ">
      <acc value="0.0156554859" flag="0"/>
      <vel value="0.0092156959" flag="0"/>
      <psa03 value="0.0417934185" flag="0"/>
      <psa10 value="0.0050049640" flag="0"/>
      <psa30 value="0.0013971406" flag="0"/>
    </comp>
    <comp name="--.HHN">
      <acc value="0.0223212854" flag="0"/>
      <vel value="0.0175993619" flag="0"/>
      <psa03 value="0.0768411281" flag="0"/>
      <psa10 value="0.0088991033" flag="0"/>
      <psa30 value="0.0021308701" flag="0"/>
    </comp>
  </station>
  <station code="RNHA" name="RNHA" netid="BW" insttype="" lat="47.8057" lon="12.8188">
    <comp name="--.HHE">
      <acc value="0.0357451968" flag="0"/>
      <vel value="0.0251427932" flag="0"/>
      <psa03 value="0.0852763652" flag="0"/>
      <psa10 value="0.0219369672" flag="0"/>
      <psa30 value="0.0020096275" flag="0"/>
    </comp>
    <comp name="--.HHZ">
      <acc value="0.0201347932" flag="0"/>
      <vel value="0.0106168914" flag="0"/>
      <psa03 value="0.0460421323" flag="0"/>
      <psa10 value="0.0138088027" flag="0"/>
      <psa30 value="0.0018790800" flag="0"/>
    </comp>
    <comp name="--.HHN">
      <acc value="0.0283421426" flag="0"/>
      <vel value="0.0155614759" flag="0"/>
      <psa03 value="0.0920935798" flag="0"/>
      <psa10 value="0.0148284789" flag="0"/>
      <psa30 value="0.0023282493" flag="0"/>
    </comp>
  </station>
  <station code="RTBE" name="RTBE" netid="BW" insttype="Trillium Compact 120s" lat="47.7451" lon="12.8241">
    <comp name="--.HHN">
      <acc value="0.0462832814" flag="0"/>
      <vel value="0.0191440833" flag="0"/>
      <psa03 value="0.0912578980" flag="0"/>
      <psa10 value="0.0114786971" flag="0"/>
      <psa30 value="0.0010496450" flag="0"/>
    </comp>
    <comp name="--.HHE">
      <acc value="0.0373023522" flag="0"/>
      <vel value="0.0173189846" flag="0"/>
      <psa03 value="0.1151968617" flag="0"/>
      <psa10 value="0.0125579850" flag="0"/>
      <psa30 value="0.0007811226" flag="0"/>
    </comp>
    <comp name="--.HHZ">
      <acc value="0.0146655863" flag="0"/>
      <vel value="0.0087874417" flag="0"/>
      <psa03 value="0.0487966508" flag="0"/>
      <psa10 value="0.0066336144" flag="0"/>
      <psa30 value="0.0006727202" flag="0"/>
    </comp>
  </station>
  <station code="RTSA" name="RTSA" netid="BW" insttype="Trillium Compact 120s" lat="47.7683" lon="12.8417">
    <comp name="--.HHN">
      <acc value="0.0176374204" flag="0"/>
      <vel value="0.0106276339" flag="0"/>
      <psa03 value="0.0543486525" flag="0"/>
      <psa10 value="0.0160177006" flag="0"/>
      <psa30 value="0.0021340054" flag="0"/>
    </comp>
    <comp name="--.HHE">
      <acc value="0.0094180077" flag="0"/>
      <vel value="0.0035344486" flag="0"/>
      <psa03 value="0.0198100608" flag="0"/>
      <psa10 value="0.0031282731" flag="0"/>
      <psa30 value="0.0003723874" flag="0"/>
    </comp>
    <comp name="--.HHZ">
      <acc value="0.0091652937" flag="0"/>
      <vel value="0.0082599648" flag="0"/>
      <psa03 value="0.0312554517" flag="0"/>
      <psa10 value="0.0106273174" flag="0"/>
      <psa30 value="0.0013523983" flag="0"/>
    </comp>
  </station>
  <station code="RTSH" name="RTSH" netid="BW" insttype="Trillium Compact 120s" lat="47.7545" lon="12.8499">
    <comp name="--.HHZ">
      <acc value="0.0117198648" flag="0"/>
      <vel value="0.0109940269" flag="0"/>
      <psa03 value="0.0423654775" flag="0"/>
      <psa10 value="0.0084965342" flag="0"/>
      <psa30 value="0.0015127136" flag="0"/>
    </comp>
    <comp name="--.HHE">
      <acc value="0.0269038252" flag="0"/>
      <vel value="0.0155094706" flag="0"/>
      <psa03 value="0.0747868483" flag="0"/>
      <psa10 value="0.0309514457" flag="0"/>
      <psa30 value="0.0021712270" flag="0"/>
    </comp>
    <comp name="--.HHN">
      <acc value="0.0412833052" flag="0"/>
      <vel value="0.0314024740" flag="0"/>
      <psa03 value="0.1944075088" flag="0"/>
      <psa10 value="0.0307392760" flag="0"/>
      <psa30 value="0.0052123542" flag="0"/>
    </comp>
  </station>
  <station code="SCE" name="SCE" netid="BW" insttype="" lat="47.0378" lon="11.709">
    <comp name="--.HHN">
      <acc value="0.0073496800" flag="0"/>
      <vel value="0.0036627989" flag="0"/>
      <psa03 value="0.0203991210" flag="0"/>
      <psa10 value="0.0015030914" flag="0"/>
      <psa30 value="0.0001610338" flag="0"/>
    </comp>
    <comp name="--.HHZ">
      <acc value="0.0069074611" flag="0"/>
      <vel value="0.0030481339" flag="0"/>
      <psa03 value="0.0185089275" flag="0"/>
      <psa10 value="0.0019055217" flag="0"/>
      <psa30 value="0.0001645159" flag="0"/>
    </comp>
    <comp name="--.HHE">
      <acc value="0.0064233062" flag="0"/>
      <vel value="0.0024551908" flag="0"/>
      <psa03 value="0.0124648823" flag="0"/>
      <psa10 value="0.0021233119" flag="0"/>
      <psa30 value="0.0001821068" flag="0"/>
    </comp>
  </station>
  <station code="CRND" name="CRND" netid="IV" insttype="" lat="45.8361" lon="12.0131">
    <comp name="--.HNE">
      <acc value="0.0480093440" flag="0"/>
      <vel value="0.0129932236" flag="0"/>
      <psa03 value="0.0634869034" flag="0"/>
      <psa10 value="0.0087063041" flag="0"/>
      <psa30 value="0.0009514257" flag="0"/>
    </comp>
    <comp name="--.HNN">
      <acc value="0.0741451746" flag="0"/>
      <vel value="0.0165180783" flag="0"/>
      <psa03 value="0.0587689532" flag="0"/>
      <psa10 value="0.0082410650" flag="0"/>
      <psa30 value="0.0012180163" flag="0"/>
    </comp>
    <comp name="--.HNZ">
      <acc value="0.0273968181" flag="0"/>
      <vel value="0.0060825928" flag="0"/>
      <psa03 value="0.0218610807" flag="0"/>
      <psa10 value="0.0044495689" flag="0"/>
      <psa30 value="0.0011986588" flag="0"/>
    </comp>
  </station>
  <station code="CTI" name="CTI" netid="IV" insttype="" lat="46.0482" lon="11.6497">
    <comp name="--.HHE">
      <acc value="0.1293022396" flag="0"/>
      <vel value="0.0244054479" flag="0"/>
      <psa03 value="0.1232632749" flag="0"/>
      <psa10 value="0.0072476015" flag="0"/>
      <psa30 value="0.0014056191" flag="0"/>
    </comp>
    <comp name="--.HHN">
      <acc value="0.0915730852" flag="0"/>
      <vel value="0.0262602343" flag="0"/>
      <psa03 value="0.1528979689" flag="0"/>
      <psa10 value="0.0090887251" flag="0"/>
      <psa30 value="0.0017136850" flag="0"/>
    </comp>
    <comp name="--.HHZ">
      <acc value="0.0402101429" flag="0"/>
      <vel value="0.0099134420" flag="0"/>
      <psa03 value="0.0453355419" flag="0"/>
      <psa10 value="0.0064131547" flag="0"/>
      <psa30 value="0.0011729207" flag="0"/>
    </comp>
  </station>
  <station code="FVI" name="FVI" netid="IV" insttype="" lat="46.5966" lon="12.7804">
    <comp name="--.HHE">
      <acc value="2.4868905746" flag="0"/>
      <vel value="0.6821015107" flag="0"/>
      <psa03 value="1.8231760249" flag="0"/>
      <psa10 value="0.1200431103" flag="0"/>
      <psa30 value="0.0118373472" flag="0"/>
    </comp>
    <comp name="--.HHZ">
      <acc value="0.6803881636" flag="0"/>
      <vel value="0.2021732885" flag="0"/>
      <psa03 value="0.9203502559" flag="0"/>
      <psa10 value="0.0737376395" flag="0"/>
      <psa30 value="0.0057358664" flag="0"/>
    </comp>
    <comp name="--.HHN">
      <acc value="1.2146278672" flag="0"/>
      <vel value="0.2799192275" flag="0"/>
      <psa03 value="0.7863503808" flag="0"/>
      <psa10 value="0.1318049781" flag="0"/>
      <psa30 value="0.0107126050" flag="0"/>
    </comp>
  </station>
  <station code="MBAL" name="MBAL" netid="IV" insttype="" lat="45.6975" lon="10.8589">
    <comp name="--.HHE">
      <acc value="0.0368834245" flag="0"/>
      <vel value="0.0096894775" flag="0"/>
      <psa03 value="0.0324108707" flag="0"/>
      <psa10 value="0.0095698236" flag="0"/>
      <psa30 value="0.0006854951" flag="0"/>
    </comp>
    <comp name="--.HHN">
      <acc value="0.0359832764" flag="0"/>
      <vel value="0.0086070273" flag="0"/>
      <psa03 value="0.0340893277" flag="0"/>
      <psa10 value="0.0064018084" flag="0"/>
      <psa30 value="0.0009820421" flag="0"/>
    </comp>
    <comp name="--.HHZ">
      <acc value="0.0117868825" flag="0"/>
      <vel value="0.0064362499" flag="0"/>
      <psa03 value="0.0179095383" flag="0"/>
      <psa10 value="0.0076009580" flag="0"/>
      <psa30 value="0.0011303461" flag="0"/>
    </comp>
  </station>
  <station code="PTCC" name="PTCC" netid="IV" insttype="" lat="46.4075" lon="13.354">
    <comp name="--.HHE">
      <acc value="0.1747409111" flag="0"/>
      <vel value="0.0544106433" flag="0"/>
      <psa03 value="0.1669544330" flag="0"/>
      <psa10 value="0.0293296304" flag="0"/>
      <psa30 value="0.0028585642" flag="0"/>
    </comp>
    <comp name="--.HHN">
      <acc value="0.2060569192" flag="0"/>
      <vel value="0.0539234516" flag="0"/>
      <psa03 value="0.1747498053" flag="0"/>
      <psa10 value="0.0461656274" flag="0"/>
      <psa30 value="0.0029055424" flag="0"/>
    </comp>
    <comp name="--.HHZ">
      <acc value="0.1127655257" flag="0"/>
      <vel value="0.0371115129" flag="0"/>
      <psa03 value="0.1859900221" flag="0"/>
      <psa10 value="0.0558667450" flag="0"/>
      <psa30 value="0.0038975324" flag="0"/>
    </comp>
  </station>
  <station code="STAL" name="STAL" netid="IV" insttype="" lat="46.2601" lon="12.7104">
    <comp name="--.HHE">
      <acc value="1.9023332973" flag="0"/>
      <vel value="0.5708548150" flag="0"/>
      <psa03 value="2.3707633080" flag="0"/>
      <psa10 value="0.2916786297" flag="0"/>
      <psa30 value="0.0210902588" flag="0"/>
    </comp>
    <comp name="--.HHN">
      <acc value="2.4814537878" flag="0"/>
      <vel value="0.6610915766" flag="0"/>
      <psa03 value="2.0764471745" flag="0"/>
      <psa10 value="0.4193735010" flag="0"/>
      <psa30 value="0.0239011616" flag="0"/>
    </comp>
    <comp name="--.HHZ">
      <acc value="1.2761114564" flag="0"/>
      <vel value="0.2809784498" flag="0"/>
      <psa03 value="0.6347866065" flag="0"/>
      <psa10 value="0.1496546998" flag="0"/>
      <psa30 value="0.0129379008" flag="0"/>
    </comp>
  </station>
  <station code="TEOL" name="TEOL" netid="IV" insttype="" lat="45.3617" lon="11.6739">
    <comp name="--.HHN">
      <acc value="0.0484638647" flag="0"/>
      <vel value="0.0301745610" flag="0"/>
      <psa03 value="0.1341005296" flag="0"/>
      <psa10 value="0.0475347494" flag="0"/>
      <psa30 value="0.0021138615" flag="0"/>
    </comp>
    <comp name="--.HHE">
      <acc value="0.0483631111" flag="0"/>
      <vel value="0.0355396915" flag="0"/>
      <psa03 value="0.0994634276" flag="0"/>
      <psa10 value="0.0573932876" flag="0"/>
      <psa30 value="0.0026368360" flag="0"/>
    </comp>
    <comp name="--.HHZ">
      <acc value="0.0330075008" flag="0"/>
      <vel value="0.0118606833" flag="0"/>
      <psa03 value="0.0574361811" flag="0"/>
      <psa10 value="0.0131603857" flag="0"/>
      <psa30 value="0.0007551887" flag="0"/>
    </comp>
  </station>
  <station code="TRI" name="TRI" netid="MN" insttype="" lat="45.709" lon="13.764">
    <comp name="--.HHN">
      <acc value="0.0333492409" flag="0"/>
      <vel value="0.0064704410" flag="0"/>
      <psa03 value="0.0303124338" flag="0"/>
      <psa10 value="0.0043379174" flag="0"/>
      <psa30 value="0.0011283271" flag="0"/>
    </comp>
    <comp name="--.HHE">
      <acc value="0.0771101834" flag="0"/>
      <vel value="0.0138258530" flag="0"/>
      <psa03 value="0.0566560309" flag="0"/>
      <psa10 value="0.0095122290" flag="0"/>
      <psa30 value="0.0015503067" flag="0"/>
    </comp>
    <comp name="--.HHZ">
      <acc value="0.1409020047" flag="0"/>
      <vel value="0.0218164150" flag="0"/>
      <psa03 value="0.0659940760" flag="0"/>
      <psa10 value="0.0042019057" flag="0"/>
      <psa30 value="0.0014964780" flag="0"/>
    </comp>
  </station>
  <station code="DST2" name="DST2" netid="NI" insttype="" lat="45.6589" lon="13.8013">
    <comp name="--.HHE">
      <acc value="0.1351603186" flag="0"/>
      <vel value="0.0383857437" flag="0"/>
      <psa03 value="0.1752978719" flag="0"/>
      <psa10 value="0.0159321550" flag="0"/>
      <psa30 value="0.0013895257" flag="0"/>
    </comp>
    <comp name="--.HHN">
      <acc value="0.0725458881" flag="0"/>
      <vel value="0.0146990534" flag="0"/>
      <psa03 value="0.0777755300" flag="0"/>
      <psa10 value="0.0087053081" flag="0"/>
      <psa30 value="0.0007895482" flag="0"/>
    </comp>
    <comp name="--.HHZ">
      <acc value="0.0445311763" flag="0"/>
      <vel value="0.0153847032" flag="0"/>
      <psa03 value="0.0685210110" flag="0"/>
      <psa10 value="0.0068157533" flag="0"/>
      <psa30 value="0.0011631712" flag="0"/>
    </comp>
  </station>
  <station code="PALA" name="PALA" netid="NI" insttype="" lat="46.245" lon="12.924">
    <comp name="--.HHE">
      <acc value="1.5592168722" flag="0"/>
      <vel value="0.7011406237" flag="0"/>
      <psa03 value="1.5164339474" flag="0"/>
      <psa10 value="1.0237969083" flag="0"/>
      <psa30 value="0.0480353124" flag="0"/>
    </comp>
    <comp name="--.HHN">
      <acc value="1.3285719308" flag="0"/>
      <vel value="0.5327758062" flag="0"/>
      <psa03 value="1.9585694112" flag="0"/>
      <psa10 value="0.6135756470" flag="0"/>
      <psa30 value="0.0344263789" flag="0"/>
    </comp>
    <comp name="--.HHZ">
      <acc value="0.7536890218" flag="0"/>
      <vel value="0.2993049288" flag="0"/>
      <psa03 value="0.6343528993" flag="0"/>
      <psa10 value="0.4751427227" flag="0"/>
      <psa30 value="0.0214992941" flag="0"/>
    </comp>
  </station>
  <station code="POLC" name="POLC" netid="NI" insttype="" lat="46.0266" lon="12.5005">
    <comp name="--.HHN">
      <acc value="0.2426583141" flag="0"/>
      <vel value="0.0967024067" flag="0"/>
      <psa03 value="0.6557316452" flag="0"/>
      <psa10 value="0.0637914833" flag="0"/>
      <psa30 value="0.0040322074" flag="0"/>
    </comp>
    <comp name="--.HHZ">
      <acc value="0.1648226350" flag="0"/>
      <vel value="0.0484519103" flag="0"/>
      <psa03 value="0.2624379667" flag="0"/>
      <psa10 value="0.0516264640" flag="0"/>
      <psa30 value="0.0019169712" flag="0"/>
    </comp>
    <comp name="--.HHE">
      <acc value="0.2868285091" flag="0"/>
      <vel value="0.1100291208" flag="0"/>
      <psa03 value="0.3655642417" flag="0"/>
      <psa10 value="0.0959052314" flag="0"/>
      <psa30 value="0.0054302229" flag="0"/>
    </comp>
  </station>
  <station code="PURA" name="PURA" netid="NI" insttype="" lat="46.4258" lon="12.7419">
    <comp name="--.HHE">
      <acc value="2.7988510567" flag="0"/>
      <vel value="0.7336394559" flag="0"/>
      <psa03 value="2.4157504408" flag="0"/>
      <psa10 value="0.3982312056" flag="0"/>
      <psa30 value="0.0290830141" flag="0"/>
    </comp>
    <comp name="--.HHN">
      <acc value="3.3782991469" flag="0"/>
      <vel value="1.6038895960" flag="0"/>
      <psa03 value="6.3889954734" flag="0"/>
      <psa10 value="0.6310481502" flag="0"/>
      <psa30 value="0.0505701258" flag="0"/>
    </comp>
    <comp name="--.HHZ">
      <acc value="1.7155301852" flag="0"/>
      <vel value="0.5190249222" flag="0"/>
      <psa03 value="2.6118030609" flag="0"/>
      <psa10 value="0.4718850292" flag="0"/>
      <psa30 value="0.0335555436" flag="0"/>
    </comp>
  </station>
  <station code="VINO" name="VINO" netid="NI" insttype="" lat="46.2538" lon="13.2755">
    <comp name="--.HHE">
      <acc value="0.2227440562" flag="0"/>
      <vel value="0.1114024505" flag="0"/>
      <psa03 value="0.4897667700" flag="0"/>
      <psa10 value="0.1470714947" flag="0"/>
      <psa30 value="0.0062963850" flag="0"/>
    </comp>
    <comp name="--.HHN">
      <acc value="0.2279922574" flag="0"/>
      <vel value="0.1229661836" flag="0"/>
      <psa03 value="0.5272012879" flag="0"/>
      <psa10 value="0.1628007128" flag="0"/>
      <psa30 value="0.0087822834" flag="0"/>
    </comp>
    <comp name="--.HHZ">
      <acc value="0.2079171627" flag="0"/>
      <vel value="0.1326323660" flag="0"/>
      <psa03 value="0.4931322811" flag="0"/>
      <psa10 value="0.0931899466" flag="0"/>
      <psa30 value="0.0050099382" flag="0"/>
    </comp>
  </station>
  <station code="ACOM" name="ACOM" netid="OX" insttype="" lat="46.548" lon="13.5137">
    <comp name="--.HHE">
      <acc value="0.2306566987" flag="0"/>
      <vel value="0.1008311695" flag="0"/>
      <psa03 value="0.8174931140" flag="0"/>
      <psa10 value="0.0471530968" flag="0"/>
      <psa30 value="0.0054043419" flag="0"/>
    </comp>
    <comp name="--.HHZ">
      <acc value="0.1225884732" flag="0"/>
      <vel value="0.0496855758" flag="0"/>
      <psa03 value="0.2790583354" flag="0"/>
