<stationlist xmlns:esm="https://esm-db.eu/esmws/shakemap/1/" created="1781661327">
	<station code="FUORN" name="FUORN" netid="CH" source="Switzerland Seismological Network" insttype="" lat="46.620334" lon="10.263551" esm:processing="manual (Paolucci et al 2011)" esm:quality="best">
		<comp name="--.HGE" depth="0.0">
			<acc value="0.00754246863080238" flag="0"/>
			<vel value="0.00552287736573713" flag="0"/>
			<psa03 value="0.0185166055405014" flag="0"/>
			<psa10 value="0.00714043270612257" flag="0"/>
			<psa30 value="0.000739912244720696" flag="0"/>
		</comp>
		<comp name="--.HGN" depth="0.0">
			<acc value="0.00833130995724781" flag="0"/>
			<vel value="0.00738950465892721" flag="0"/>
			<psa03 value="0.0226204542232335" flag="0"/>
			<psa10 value="0.00887975761536574" flag="0"/>
			<psa30 value="0.00115297835832426" flag="0"/>
		</comp>
		<comp name="--.HGZ" depth="0.0">
			<acc value="0.00924881601799762" flag="0"/>
			<vel value="0.0055149674975674" flag="0"/>
			<psa03 value="0.0178973171198617" flag="0"/>
			<psa10 value="0.0042253285010191" flag="0"/>
			<psa30 value="0.000676844837648974" flag="0"/>
		</comp>
	</station>
	<station code="STSP" name="STSP" netid="CH" source="Switzerland Seismological Network" insttype="" lat="46.62645" lon="10.33317" esm:processing="manual (Paolucci et al 2011)" esm:quality="best">
		<comp name="--.HGE" depth="1.0">
			<acc value="0.0161002940652306" flag="0"/>
			<vel value="0.00857001101471778" flag="0"/>
			<psa03 value="0.0412475840125217" flag="0"/>
			<psa10 value="0.00758670195676155" flag="0"/>
			<psa30 value="0.000436676167236326" flag="0"/>
		</comp>
		<comp name="--.HGN" depth="1.0">
			<acc value="0.0151932013021196" flag="0"/>
			<vel value="0.00900993970782861" flag="0"/>
			<psa03 value="0.0338138676069433" flag="0"/>
			<psa10 value="0.00668769849593484" flag="0"/>
			<psa30 value="0.000757221308029222" flag="0"/>
		</comp>
		<comp name="--.HGZ" depth="1.0">
			<acc value="0.0106792551827896" flag="0"/>
			<vel value="0.00597187753564392" flag="0"/>
			<psa03 value="0.023226525622483" flag="0"/>
			<psa10 value="0.00538309675998625" flag="0"/>
			<psa30 value="0.000614893546178367" flag="0"/>
		</comp>
	</station>
	<station code="AVI" name="AVI" netid="IT" source="Italian Strong Motion Network (RAN)" insttype="" lat="46.0643" lon="12.6023" esm:processing="manual (Paolucci et al 2011)" esm:quality="good">
		<comp name="--.HNE" depth="0.0">
			<acc value="0.66967007847648" flag="0"/>
			<vel value="0.202628418575" flag="0"/>
			<psa03 value="0.837329385629904" flag="0"/>
			<psa10 value="0.136080329654138" flag="0"/>
			<psa30 value="0.0105035766437411" flag="0"/>
		</comp>
		<comp name="--.HNN" depth="0.0">
			<acc value="0.6733545969375" flag="0"/>
			<vel value="0.126284312117" flag="0"/>
			<psa03 value="0.614522792451428" flag="0"/>
			<psa10 value="0.0892867698103341" flag="0"/>
			<psa30 value="0.00936148181887263" flag="0"/>
		</comp>
		<comp name="--.HNZ" depth="0.0">
			<acc value="0.25521845161704" flag="0"/>
			<vel value="0.0776498648041" flag="0"/>
			<psa03 value="0.33495104302931" flag="0"/>
			<psa10 value="0.0430036525308111" flag="0"/>
			<psa30 value="0.007694191369096" flag="0"/>
		</comp>
	</station>
	<station code="AVS" name="AVS" netid="IT" source="Italian Strong Motion Network (RAN)" insttype="" lat="46.2946" lon="13.0497" esm:processing="manual (Paolucci et al 2011)" esm:quality="good">
		<comp name="--.HNE" depth="0.0">
			<acc value="0.55457808467772" flag="0"/>
			<vel value="0.116976982831" flag="0"/>
			<psa03 value="0.319294755877122" flag="0"/>
			<psa10 value="0.0889984432100377" flag="0"/>
			<psa30 value="0.0101494181824846" flag="0"/>
		</comp>
		<comp name="--.HNN" depth="0.0">
			<acc value="0.72356264131794" flag="0"/>
			<vel value="0.150774728395" flag="0"/>
			<psa03 value="0.284208077390172" flag="0"/>
			<psa10 value="0.143275796318483" flag="0"/>
			<psa30 value="0.00825556272382982" flag="0"/>
		</comp>
		<comp name="--.HNZ" depth="0.0">
			<acc value="0.26494229265786" flag="0"/>
			<vel value="0.113854580931" flag="0"/>
			<psa03 value="0.251895124315616" flag="0"/>
			<psa10 value="0.0857247313427101" flag="0"/>
			<psa30 value="0.0100376924478679" flag="0"/>
		</comp>
	</station>
	<station code="BLL" name="BLL" netid="IT" source="Italian Strong Motion Network (RAN)" insttype="" lat="46.1594" lon="12.2364" esm:processing="manual (Paolucci et al 2011)" esm:quality="good">
		<comp name="--.HNE" depth="0.0">
			<acc value="0.085028557474242" flag="0"/>
			<vel value="0.0314151425272" flag="0"/>
			<psa03 value="0.113522134867827" flag="0"/>
			<psa10 value="0.0191934714733043" flag="0"/>
			<psa30 value="0.00355834738971934" flag="0"/>
		</comp>
		<comp name="--.HNN" depth="0.0">
			<acc value="0.095928933233772" flag="0"/>
			<vel value="0.0297570137822" flag="0"/>
			<psa03 value="0.152629152599036" flag="0"/>
			<psa10 value="0.0353076889611253" flag="0"/>
			<psa30 value="0.00252345508318114" flag="0"/>
		</comp>
		<comp name="--.HNZ" depth="0.0">
			<acc value="0.082752771245556" flag="0"/>
			<vel value="0.024729379465" flag="0"/>
			<psa03 value="0.0628568514581004" flag="0"/>
			<psa10 value="0.0181490197834879" flag="0"/>
			<psa30 value="0.00267054295203188" flag="0"/>
		</comp>
	</station>
	<station code="BRC" name="BRC" netid="IT" source="Italian Strong Motion Network (RAN)" insttype="" lat="46.1857" lon="12.5518" esm:processing="manual (Paolucci et al 2011)" esm:quality="good">
		<comp name="--.HGE" depth="0.0">
			<acc value="0.65302245868704" flag="0"/>
			<vel value="0.162280114972" flag="0"/>
			<psa03 value="0.430920671379772" flag="0"/>
			<psa10 value="0.0877569984703156" flag="0"/>
			<psa30 value="0.00486186624145489" flag="0"/>
		</comp>
		<comp name="--.HGN" depth="0.0">
			<acc value="0.39687332754486" flag="0"/>
			<vel value="0.0748468726099" flag="0"/>
			<psa03 value="0.330319277864328" flag="0"/>
			<psa10 value="0.0638212928474826" flag="0"/>
			<psa30 value="0.00350971541809025" flag="0"/>
		</comp>
		<comp name="--.HGZ" depth="0.0">
			<acc value="0.31951031875386" flag="0"/>
			<vel value="0.0486540129549" flag="0"/>
			<psa03 value="0.162401268703474" flag="0"/>
			<psa10 value="0.0451151061542823" flag="0"/>
			<psa30 value="0.00419817935878085" flag="0"/>
		</comp>
	</station>
	<station code="CDN" name="CDN" netid="IT" source="Italian Strong Motion Network (RAN)" insttype="" lat="45.9643" lon="12.9918" esm:processing="manual (Paolucci et al 2011)" esm:quality="good">
		<comp name="--.HGE" depth="0.0">
			<acc value="0.33771516481476" flag="0"/>
			<vel value="0.0851673728948" flag="0"/>
			<psa03 value="0.567770236991868" flag="0"/>
			<psa10 value="0.0791540635683217" flag="0"/>
			<psa30 value="0.0144226754314732" flag="0"/>
		</comp>
		<comp name="--.HGN" depth="0.0">
			<acc value="0.28068045496158" flag="0"/>
			<vel value="0.090601529283" flag="0"/>
			<psa03 value="0.657057110142382" flag="0"/>
			<psa10 value="0.115899177751535" flag="0"/>
			<psa30 value="0.0161022516951292" flag="0"/>
		</comp>
		<comp name="--.HGZ" depth="0.0">
			<acc value="0.20463844709244" flag="0"/>
			<vel value="0.0621118312835" flag="0"/>
			<psa03 value="0.289334771175079" flag="0"/>
			<psa10 value="0.0565423419028489" flag="0"/>
			<psa30 value="0.00879125071054866" flag="0"/>
		</comp>
	</station>
	<station code="CHF" name="CHF" netid="IT" source="Italian Strong Motion Network (RAN)" insttype="" lat="46.3887" lon="13.4737" esm:processing="manual (Paolucci et al 2011)" esm:quality="good">
		<comp name="--.HGE" depth="0.0">
			<acc value="0.10556294633382" flag="0"/>
			<vel value="0.039479220916" flag="0"/>
			<psa03 value="0.208330655050169" flag="0"/>
			<psa10 value="0.0296684422636996" flag="0"/>
			<psa30 value="0.0016405726382176" flag="0"/>
		</comp>
		<comp name="--.HGN" depth="0.0">
			<acc value="0.13251838019568" flag="0"/>
			<vel value="0.0475298842612" flag="0"/>
			<psa03 value="0.160517373071733" flag="0"/>
			<psa10 value="0.0208611488237378" flag="0"/>
			<psa30 value="0.00161065003099255" flag="0"/>
		</comp>
		<comp name="--.HGZ" depth="0.0">
			<acc value="0.2232791086176" flag="0"/>
			<vel value="0.0555116309623" flag="0"/>
			<psa03 value="0.216071501176516" flag="0"/>
			<psa10 value="0.0560817738924323" flag="0"/>
			<psa30 value="0.00294708585497232" flag="0"/>
		</comp>
	</station>
	<station code="CLA" name="CLA" netid="IT" source="Italian Strong Motion Network (RAN)" insttype="" lat="46.2713" lon="12.5141" esm:processing="manual (Paolucci et al 2011)" esm:quality="good">
		<comp name="--.HNE" depth="0.0">
			<acc value="0.31908573531948" flag="0"/>
			<vel value="0.0852587845205" flag="0"/>
			<psa03 value="0.373810888136635" flag="0"/>
			<psa10 value="0.0478088721029733" flag="0"/>
			<psa30 value="0.00517109172610706" flag="0"/>
		</comp>
		<comp name="--.HNN" depth="0.0">
			<acc value="0.29471044766268" flag="0"/>
			<vel value="0.144968301569" flag="0"/>
			<psa03 value="0.908082489340697" flag="0"/>
			<psa10 value="0.083599015524645" flag="0"/>
			<psa30 value="0.00678885389493129" flag="0"/>
		</comp>
		<comp name="--.HNZ" depth="0.0">
			<acc value="0.27148635770886" flag="0"/>
			<vel value="0.106281193852" flag="0"/>
			<psa03 value="0.373181638118543" flag="0"/>
			<psa10 value="0.0747648403039167" flag="0"/>
			<psa30 value="0.00668278978536" flag="0"/>
		</comp>
	</station>
	<station code="CMO" name="CMO" netid="IT" source="Italian Strong Motion Network (RAN)" insttype="" lat="46.0941" lon="13.5207" esm:processing="manual (Paolucci et al 2011)" esm:quality="good">
		<comp name="--.HNE" depth="0.0">
			<acc value="0.065466647040186" flag="0"/>
			<vel value="0.0214389972139" flag="0"/>
			<psa03 value="0.104994330359061" flag="0"/>
			<psa10 value="0.0157835693339879" flag="0"/>
			<psa30 value="0.00267805261617707" flag="0"/>
		</comp>
		<comp name="--.HNN" depth="0.0">
			<acc value="0.12602103174648" flag="0"/>
			<vel value="0.0603519276883" flag="0"/>
			<psa03 value="0.417343355282425" flag="0"/>
			<psa10 value="0.0339646124888886" flag="0"/>
			<psa30 value="0.00311331770035346" flag="0"/>
		</comp>
		<comp name="--.HNZ" depth="0.0">
			<acc value="0.10619140071984" flag="0"/>
			<vel value="0.0475696137662" flag="0"/>
			<psa03 value="0.280519062177775" flag="0"/>
			<psa10 value="0.0291555395364002" flag="0"/>
			<psa30 value="0.00337128187254497" flag="0"/>
		</comp>
	</station>
	<station code="CNG" name="CNG" netid="IT" source="Italian Strong Motion Network (RAN)" insttype="" lat="45.8815" lon="12.2881" esm:processing="manual (Paolucci et al 2011)" esm:quality="good">
		<comp name="--.HGE" depth="0.0">
			<acc value="0.080132776419996" flag="0"/>
			<vel value="0.0403698006407" flag="0"/>
			<psa03 value="0.197492853765767" flag="0"/>
			<psa10 value="0.0271603961179531" flag="0"/>
			<psa30 value="0.00310920555294279" flag="0"/>
		</comp>
		<comp name="--.HGN" depth="0.0">
			<acc value="0.059796459394368" flag="0"/>
			<vel value="0.0256915004262" flag="0"/>
			<psa03 value="0.145527994682039" flag="0"/>
			<psa10 value="0.0294012258119174" flag="0"/>
			<psa30 value="0.00289866160544007" flag="0"/>
		</comp>
		<comp name="--.HGZ" depth="0.0">
			<acc value="0.060183493045998" flag="0"/>
			<vel value="0.0167991527702" flag="0"/>
			<psa03 value="0.0694067749413605" flag="0"/>
			<psa10 value="0.0190943992852376" flag="0"/>
			<psa30 value="0.00297610381894011" flag="0"/>
		</comp>
	</station>
	<station code="CRD" name="CRD" netid="IT" source="Italian Strong Motion Network (RAN)" insttype="" lat="46.5248" lon="12.1172" esm:processing="manual (Paolucci et al 2011)" esm:quality="good">
		<comp name="--.HGE" depth="0.0">
			<acc value="0.067021726075986" flag="0"/>
			<vel value="0.0613972686849" flag="0"/>
			<psa03 value="0.144320008408763" flag="0"/>
			<psa10 value="0.115424681318598" flag="0"/>
			<psa30 value="0.00544441691588137" flag="0"/>
		</comp>
		<comp name="--.HGN" depth="0.0">
			<acc value="0.063563599984128" flag="0"/>
			<vel value="0.0623429572346" flag="0"/>
			<psa03 value="0.103005240258237" flag="0"/>
			<psa10 value="0.120568417065805" flag="0"/>
			<psa30 value="0.00516875240448698" flag="0"/>
		</comp>
		<comp name="--.HGZ" depth="0.0">
			<acc value="0.044136217986042" flag="0"/>
			<vel value="0.0312581399358" flag="0"/>
			<psa03 value="0.0832828556222997" flag="0"/>
			<psa10 value="0.0511721661549232" flag="0"/>
			<psa30 value="0.00323160761981157" flag="0"/>
		</comp>
	</station>
	<station code="CVF" name="CVF" netid="IT" source="Italian Strong Motion Network (RAN)" insttype="" lat="46.0918" lon="13.429" esm:processing="manual (Paolucci et al 2011)" esm:quality="good">
		<comp name="--.HNE" depth="0.0">
			<acc value="0.1532264245164" flag="0"/>
			<vel value="0.060140385981" flag="0"/>
			<psa03 value="0.474821704608707" flag="0"/>
			<psa10 value="0.0485078959099791" flag="0"/>
			<psa30 value="0.00365013222001032" flag="0"/>
		</comp>
		<comp name="--.HNN" depth="0.0">
			<acc value="0.1984735502502" flag="0"/>
			<vel value="0.0707391981801" flag="0"/>
			<psa03 value="0.48001008997896" flag="0"/>
			<psa10 value="0.0578660070891679" flag="0"/>
			<psa30 value="0.00601581268473822" flag="0"/>
		</comp>
		<comp name="--.HNZ" depth="0.0">
			<acc value="0.10200623359332" flag="0"/>
			<vel value="0.0460743950193" flag="0"/>
			<psa03 value="0.243360975637115" flag="0"/>
			<psa10 value="0.0526217571831693" flag="0"/>
			<psa30 value="0.004039727195433" flag="0"/>
		</comp>
	</station>
	<station code="DANT" name="DANT" netid="IT" source="Italian Strong Motion Network (RAN)" insttype="" lat="46.5675" lon="12.5199" esm:processing="manual (Paolucci et al 2011)" esm:quality="good">
		<comp name="--.HNE" depth="0.0">
			<acc value="0.399481932417" flag="0"/>
			<vel value="0.16140634235" flag="0"/>
			<psa03 value="0.986929629242398" flag="0"/>
			<psa10 value="0.131469984241253" flag="0"/>
			<psa30 value="0.00743410080600943" flag="0"/>
		</comp>
		<comp name="--.HNN" depth="0.0">
			<acc value="0.39667564019532" flag="0"/>
			<vel value="0.169583130331" flag="0"/>
			<psa03 value="0.81490940041307" flag="0"/>
			<psa10 value="0.170442565983509" flag="0"/>
			<psa30 value="0.00890765425503711" flag="0"/>
		</comp>
		<comp name="--.HNZ" depth="0.0">
			<acc value="0.13851252355338" flag="0"/>
			<vel value="0.0930262325897" flag="0"/>
			<psa03 value="0.313586002700461" flag="0"/>
			<psa10 value="0.0844736709663266" flag="0"/>
			<psa30 value="0.00775881981709014" flag="0"/>
		</comp>
	</station>
	<station code="DRN" name="DRN" netid="IT" source="Italian Strong Motion Network (RAN)" insttype="" lat="46.1666" lon="13.6417" esm:processing="manual (Paolucci et al 2011)" esm:quality="good">
		<comp name="--.HNE" depth="0.0">
			<acc value="0.075266852182734" flag="0"/>
			<vel value="0.0302965077792" flag="0"/>
			<psa03 value="0.18067455213569" flag="0"/>
			<psa10 value="0.0264382745309416" flag="0"/>
			<psa30 value="0.00229552665070959" flag="0"/>
		</comp>
		<comp name="--.HNN" depth="0.0">
			<acc value="0.069608471086896" flag="0"/>
			<vel value="0.0236224813775" flag="0"/>
			<psa03 value="0.153970731055283" flag="0"/>
			<psa10 value="0.0404986740883411" flag="0"/>
			<psa30 value="0.0015745225335564" flag="0"/>
		</comp>
		<comp name="--.HNZ" depth="0.0">
			<acc value="0.04954524395058" flag="0"/>
			<vel value="0.017322459731" flag="0"/>
			<psa03 value="0.104554863746697" flag="0"/>
			<psa10 value="0.0144671740042576" flag="0"/>
			<psa30 value="0.00217562995813847" flag="0"/>
		</comp>
	</station>
	<station code="FAG" name="FAG" netid="IT" source="Italian Strong Motion Network (RAN)" insttype="" lat="46.098" lon="13.0914" esm:processing="manual (Paolucci et al 2011)" esm:quality="good">
		<comp name="--.HNE" depth="0.0">
			<acc value="0.39384234233736" flag="0"/>
			<vel value="0.100748802177" flag="0"/>
			<psa03 value="0.514518917684947" flag="0"/>
			<psa10 value="0.0714107456114777" flag="0"/>
			<psa30 value="0.00872751148813955" flag="0"/>
		</comp>
		<comp name="--.HNN" depth="0.0">
			<acc value="0.54718270535298" flag="0"/>
			<vel value="0.104638900955" flag="0"/>
			<psa03 value="0.80873149115746" flag="0"/>
			<psa10 value="0.0609858462629289" flag="0"/>
			<psa30 value="0.00600731045484612" flag="0"/>
		</comp>
		<comp name="--.HNZ" depth="0.0">
			<acc value="0.29894275875468" flag="0"/>
			<vel value="0.0891373339963" flag="0"/>
			<psa03 value="0.616868947875343" flag="0"/>
			<psa10 value="0.063392564446451" flag="0"/>
			<psa30 value="0.0167827067719449" flag="0"/>
		</comp>
	</station>
	<station code="FDS" name="FDS" netid="IT" source="Italian Strong Motion Network (RAN)" insttype="" lat="46.4513" lon="12.5627" esm:processing="manual (Paolucci et al 2011)" esm:quality="good">
		<comp name="--.HNE" depth="0.0">
			<acc value="0.44128386815682" flag="0"/>
			<vel value="0.191417331105" flag="0"/>
			<psa03 value="0.445597435310086" flag="0"/>
			<psa10 value="0.159909558223544" flag="0"/>
			<psa30 value="0.0155406411578652" flag="0"/>
		</comp>
		<comp name="--.HNN" depth="0.0">
			<acc value="0.53043521424336" flag="0"/>
			<vel value="0.234840792728" flag="0"/>
			<psa03 value="0.808879500963053" flag="0"/>
			<psa10 value="0.227349555792099" flag="0"/>
			<psa30 value="0.0127713918753717" flag="0"/>
		</comp>
		<comp name="--.HNZ" depth="0.0">
			<acc value="0.35844901087392" flag="0"/>
			<vel value="0.166644716402" flag="0"/>
			<psa03 value="0.547633819719819" flag="0"/>
			<psa10 value="0.162272604763556" flag="0"/>
			<psa30 value="0.012255940229205" flag="0"/>
		</comp>
	</station>
	<station code="FLP" name="FLP" netid="IT" source="Italian Strong Motion Network (RAN)" insttype="" lat="46.0266" lon="11.9225" esm:processing="manual (Paolucci et al 2011)" esm:quality="good">
		<comp name="--.HGE" depth="0.0">
			<acc value="0.11866077381348" flag="0"/>
			<vel value="0.0249358174208" flag="0"/>
			<psa03 value="0.0670727661580958" flag="0"/>
			<psa10 value="0.00652566291814497" flag="0"/>
			<psa30 value="0.00190920397539475" flag="0"/>
		</comp>
		<comp name="--.HGN" depth="0.0">
			<acc value="0.0986200155654" flag="0"/>
			<vel value="0.0188350338756" flag="0"/>
			<psa03 value="0.0495986398333531" flag="0"/>
			<psa10 value="0.00621449402347578" flag="0"/>
			<psa30 value="0.000937226565826259" flag="0"/>
		</comp>
		<comp name="--.HGZ" depth="0.0">
			<acc value="0.068218565617782" flag="0"/>
			<vel value="0.00912795430022" flag="0"/>
			<psa03 value="0.0270492866741771" flag="0"/>
			<psa10 value="0.00555798209527319" flag="0"/>
			<psa30 value="0.0015300599006251" flag="0"/>
		</comp>
	</station>
	<station code="LTSN" name="LTSN" netid="IT" source="Italian Strong Motion Network (RAN)" insttype="" lat="45.7929" lon="13.0191" esm:processing="manual (Paolucci et al 2011)" esm:quality="good">
		<comp name="--.HNE" depth="0.0">
			<acc value="0.58545760651812" flag="0"/>
			<vel value="0.190476715084" flag="0"/>
			<psa03 value="1.0302474155033" flag="0"/>
			<psa10 value="0.157461831073594" flag="0"/>
			<psa30 value="0.0426543456410653" flag="0"/>
		</comp>
		<comp name="--.HNN" depth="0.0">
			<acc value="0.4927105223697" flag="0"/>
			<vel value="0.180657965676" flag="0"/>
			<psa03 value="1.04734521481453" flag="0"/>
			<psa10 value="0.200237284737523" flag="0"/>
			<psa30 value="0.0389856959443556" flag="0"/>
		</comp>
		<comp name="--.HNZ" depth="0.0">
			<acc value="0.18627590035134" flag="0"/>
			<vel value="0.075126106012" flag="0"/>
			<psa03 value="0.534853889778374" flag="0"/>
			<psa10 value="0.126923588064922" flag="0"/>
			<psa30 value="0.0141027359037075" flag="0"/>
		</comp>
	</station>
	<station code="MAI" name="MAI" netid="IT" source="Italian Strong Motion Network (RAN)" insttype="" lat="46.1853" lon="13.0692" esm:processing="manual (Paolucci et al 2011)" esm:quality="good">
		<comp name="--.HGE" depth="0.0">
