<stationlist created="1711618270">
	<station code="FUORN" name="FUORN" netid="CH" source="Switzerland Seismological Network" insttype="" lat="46.620334" lon="10.263551">
		<comp name=".HGE" depth="0.0">
			<acc value="0.0075424688661042" flag="0"/>
			<vel value="0.0055228243951" flag="0"/>
			<psa03 value="0.0185166055405014" flag="0"/>
			<psa10 value="0.00714043270612257" flag="0"/>
			<psa30 value="0.000739912244720696" flag="0"/>
		</comp>
		<comp name=".HGN" depth="0.0">
			<acc value="0.0083313098584932" flag="0"/>
			<vel value="0.00738948575868" flag="0"/>
			<psa03 value="0.0226204542232335" flag="0"/>
			<psa10 value="0.00887975761536574" flag="0"/>
			<psa30 value="0.00115297835832426" flag="0"/>
		</comp>
		<comp name=".HGZ" depth="0.0">
			<acc value="0.009248815451121" flag="0"/>
			<vel value="0.00551498928988" flag="0"/>
			<psa03 value="0.0178973171198617" flag="0"/>
			<psa10 value="0.0042253285010191" flag="0"/>
			<psa30 value="0.000676844837648974" flag="0"/>
		</comp>
	</station>
	<station code="SARD" name="SARD" netid="CH" source="Switzerland Seismological Network" insttype="" lat="46.776631" lon="10.204926">
		<comp name=".HGE" depth="0.0">
			<acc value="0.034383929888088" flag="0"/>
			<vel value="0.0039620108354" flag="0"/>
			<psa03 value="0.0183339723482008" flag="0"/>
			<psa10 value="0.00601251548712705" flag="0"/>
			<psa30 value="0.000592418255218365" flag="0"/>
		</comp>
		<comp name=".HGN" depth="0.0">
			<acc value="0.056032147654554" flag="0"/>
			<vel value="0.00646423619416" flag="0"/>
			<psa03 value="0.0175974326706493" flag="0"/>
			<psa10 value="0.00975486402438316" flag="0"/>
			<psa30 value="0.000738224320403602" flag="0"/>
		</comp>
		<comp name=".HGZ" depth="0.0">
			<acc value="0.077741564393064" flag="0"/>
			<vel value="0.00715995770682" flag="0"/>
			<psa03 value="0.0111313454699193" flag="0"/>
			<psa10 value="0.00354941349059896" flag="0"/>
			<psa30 value="0.000696941481452779" flag="0"/>
		</comp>
	</station>
	<station code="SCUC" name="SCUC" netid="CH" source="Switzerland Seismological Network" insttype="" lat="46.798" lon="10.3038">
		<comp name=".HGE" depth="0.0">
			<acc value="0.014635347197304" flag="0"/>
			<vel value="0.00704522387644" flag="0"/>
			<psa03 value="0.0365449756127744" flag="0"/>
			<psa10 value="0.00550920026998532" flag="0"/>
			<psa30 value="0.000635664088794103" flag="0"/>
		</comp>
		<comp name=".HGN" depth="0.0">
			<acc value="0.014263832356584" flag="0"/>
			<vel value="0.00746793844751" flag="0"/>
			<psa03 value="0.0455426315592556" flag="0"/>
			<psa10 value="0.00637475010838965" flag="0"/>
			<psa30 value="0.000605328016676647" flag="0"/>
		</comp>
		<comp name=".HGZ" depth="0.0">
			<acc value="0.0082927591761816" flag="0"/>
			<vel value="0.00672855975617" flag="0"/>
			<psa03 value="0.0222492551539796" flag="0"/>
			<psa10 value="0.00395310921783407" flag="0"/>
			<psa30 value="0.000678536355955402" flag="0"/>
		</comp>
	</station>
	<station code="STSP" name="STSP" netid="CH" source="Switzerland Seismological Network" insttype="" lat="46.62645" lon="10.33317">
		<comp name=".HGE" depth="1.0">
			<acc value="0.016080151542672" flag="0"/>
			<vel value="0.0085681369831" flag="0"/>
			<psa03 value="0.0412475840125217" flag="0"/>
			<psa10 value="0.00758670195676155" flag="0"/>
			<psa30 value="0.000436676167236326" flag="0"/>
		</comp>
		<comp name=".HGN" depth="1.0">
			<acc value="0.01521060826233" flag="0"/>
			<vel value="0.0090101385312" flag="0"/>
			<psa03 value="0.0338138676069433" flag="0"/>
			<psa10 value="0.00668769849593484" flag="0"/>
			<psa30 value="0.000757221308029222" flag="0"/>
		</comp>
		<comp name=".HGZ" depth="1.0">
			<acc value="0.01063266475464" flag="0"/>
			<vel value="0.00596460110466" flag="0"/>
			<psa03 value="0.023226525622483" flag="0"/>
			<psa10 value="0.00538309675998625" flag="0"/>
			<psa30 value="0.000614893546178367" flag="0"/>
		</comp>
	</station>
	<station code="SZER" name="SZER" netid="CH" source="Switzerland Seismological Network" insttype="" lat="46.69749" lon="10.09768">
		<comp name=".HGE" depth="0.0">
			<acc value="0.0099066117044016" flag="0"/>
			<vel value="0.00448189192179" flag="0"/>
			<psa03 value="0.0257654672524382" flag="0"/>
			<psa10 value="0.00748392030425775" flag="0"/>
			<psa30 value="0.000440893477862296" flag="0"/>
		</comp>
		<comp name=".HGN" depth="0.0">
			<acc value="0.0096297388154358" flag="0"/>
			<vel value="0.00656914244065" flag="0"/>
			<psa03 value="0.0241130765396511" flag="0"/>
			<psa10 value="0.00704839129632341" flag="0"/>
			<psa30 value="0.000605243479825299" flag="0"/>
		</comp>
		<comp name=".HGZ" depth="0.0">
			<acc value="0.0056148852468846" flag="0"/>
			<vel value="0.00392253937761" flag="0"/>
			<psa03 value="0.011127000129989" flag="0"/>
			<psa10 value="0.00618876638165586" flag="0"/>
			<psa30 value="0.000744667351389742" flag="0"/>
		</comp>
	</station>
	<station code="AVI" name="AVI" netid="IT" source="Italian Strong Motion Network (RAN)" insttype="" lat="46.0643" lon="12.6023">
		<comp name="00.HNE" depth="0.0">
			<acc value="0.66964663088682" flag="0"/>
			<vel value="0.203635272681" flag="0"/>
			<psa03 value="0.837448643529772" flag="0"/>
			<psa10 value="0.136212023378079" flag="0"/>
			<psa30 value="0.0106024315257201" flag="0"/>
		</comp>
		<comp name="00.HNN" depth="0.0">
			<acc value="0.67344972001896" flag="0"/>
			<vel value="0.126182644624" flag="0"/>
			<psa03 value="0.614533418157274" flag="0"/>
			<psa10 value="0.0892303885753007" flag="0"/>
			<psa30 value="0.00910906093057203" flag="0"/>
		</comp>
		<comp name="00.HNZ" depth="0.0">
			<acc value="0.255224525613" flag="0"/>
			<vel value="0.0770410412729" flag="0"/>
			<psa03 value="0.334847744519735" flag="0"/>
			<psa10 value="0.0430182034947833" flag="0"/>
			<psa30 value="0.00752783618220275" flag="0"/>
		</comp>
	</station>
	<station code="AVS" name="AVS" netid="IT" source="Italian Strong Motion Network (RAN)" insttype="" lat="46.291933" lon="13.0558">
		<comp name="00.HNE" depth="0.0">
			<acc value="0.553249026936" flag="0"/>
			<vel value="0.116678024102" flag="0"/>
			<psa03 value="0.319490268828892" flag="0"/>
			<psa10 value="0.088871842323245" flag="0"/>
			<psa30 value="0.00987195813546645" flag="0"/>
		</comp>
		<comp name="00.HNN" depth="0.0">
			<acc value="0.71171006975292" flag="0"/>
			<vel value="0.148257828999" flag="0"/>
			<psa03 value="0.283828614752891" flag="0"/>
			<psa10 value="0.143232893476193" flag="0"/>
			<psa30 value="0.00814216021148624" flag="0"/>
		</comp>
		<comp name="00.HNZ" depth="0.0">
			<acc value="0.26336323669116" flag="0"/>
			<vel value="0.113484345783" flag="0"/>
			<psa03 value="0.25193266846941" flag="0"/>
			<psa10 value="0.085637575569205" flag="0"/>
			<psa30 value="0.00982982701114136" flag="0"/>
		</comp>
	</station>
	<station code="BLL" name="BLL" netid="IT" source="Italian Strong Motion Network (RAN)" insttype="" lat="46.1594009399414" lon="12.2363996505737">
		<comp name="00.HNE" depth="0.0">
			<acc value="0.085028557474242" flag="0"/>
			<vel value="0.0314151425272" flag="0"/>
			<psa03 value="0.113522134867827" flag="0"/>
			<psa10 value="0.0191934714733043" flag="0"/>
			<psa30 value="0.00355834738971934" flag="0"/>
		</comp>
		<comp name="00.HNN" depth="0.0">
			<acc value="0.095928933233772" flag="0"/>
			<vel value="0.0297570137822" flag="0"/>
			<psa03 value="0.152629152599036" flag="0"/>
			<psa10 value="0.0353076889611253" flag="0"/>
			<psa30 value="0.00252345508318114" flag="0"/>
		</comp>
		<comp name="00.HNZ" depth="0.0">
			<acc value="0.082752771245556" flag="0"/>
			<vel value="0.024729379465" flag="0"/>
			<psa03 value="0.0628568514581004" flag="0"/>
			<psa10 value="0.0181490197834879" flag="0"/>
			<psa30 value="0.00267054295203188" flag="0"/>
		</comp>
	</station>
	<station code="BRC" name="BRC" netid="IT" source="Italian Strong Motion Network (RAN)" insttype="" lat="46.185738" lon="12.551873">
		<comp name="00.HGE" depth="0.0">
			<acc value="0.65302245868704" flag="0"/>
			<vel value="0.162280114972" flag="0"/>
			<psa03 value="0.430920671379772" flag="0"/>
			<psa10 value="0.0877569984703156" flag="0"/>
			<psa30 value="0.00486186624145489" flag="0"/>
		</comp>
		<comp name="00.HGN" depth="0.0">
			<acc value="0.39687332754486" flag="0"/>
			<vel value="0.0748468726099" flag="0"/>
			<psa03 value="0.330319277864328" flag="0"/>
			<psa10 value="0.0638212928474826" flag="0"/>
			<psa30 value="0.00350971541809025" flag="0"/>
		</comp>
		<comp name="00.HGZ" depth="0.0">
			<acc value="0.31951031875386" flag="0"/>
			<vel value="0.0486540129549" flag="0"/>
			<psa03 value="0.162401268703474" flag="0"/>
			<psa10 value="0.0451151061542823" flag="0"/>
			<psa30 value="0.00419817935878085" flag="0"/>
		</comp>
	</station>
	<station code="CDN" name="CDN" netid="IT" source="Italian Strong Motion Network (RAN)" insttype="" lat="45.964305" lon="12.991846">
		<comp name="00.HGE" depth="0.0">
			<acc value="0.33771516481476" flag="0"/>
			<vel value="0.0851673728948" flag="0"/>
			<psa03 value="0.567770236991868" flag="0"/>
			<psa10 value="0.0791540635683217" flag="0"/>
			<psa30 value="0.0144226754314732" flag="0"/>
		</comp>
		<comp name="00.HGN" depth="0.0">
			<acc value="0.28068045496158" flag="0"/>
			<vel value="0.090601529283" flag="0"/>
			<psa03 value="0.657057110142382" flag="0"/>
			<psa10 value="0.115899177751535" flag="0"/>
			<psa30 value="0.0161022516951292" flag="0"/>
		</comp>
		<comp name="00.HGZ" depth="0.0">
			<acc value="0.20463844709244" flag="0"/>
			<vel value="0.0621118312835" flag="0"/>
			<psa03 value="0.289334771175079" flag="0"/>
			<psa10 value="0.0565423419028489" flag="0"/>
			<psa30 value="0.00879125071054866" flag="0"/>
		</comp>
	</station>
	<station code="CHF" name="CHF" netid="IT" source="Italian Strong Motion Network (RAN)" insttype="" lat="46.3888" lon="13.4738">
		<comp name="00.HGE" depth="0.0">
			<acc value="0.10556294633382" flag="0"/>
			<vel value="0.039479220916" flag="0"/>
			<psa03 value="0.208330655050169" flag="0"/>
			<psa10 value="0.0296684422636996" flag="0"/>
			<psa30 value="0.0016405726382176" flag="0"/>
		</comp>
		<comp name="00.HGN" depth="0.0">
			<acc value="0.13251838019568" flag="0"/>
			<vel value="0.0475298842612" flag="0"/>
			<psa03 value="0.160517373071733" flag="0"/>
			<psa10 value="0.0208611488237378" flag="0"/>
			<psa30 value="0.00161065003099255" flag="0"/>
		</comp>
		<comp name="00.HGZ" depth="0.0">
			<acc value="0.2232791086176" flag="0"/>
			<vel value="0.0555116309623" flag="0"/>
			<psa03 value="0.216071501176516" flag="0"/>
			<psa10 value="0.0560817738924323" flag="0"/>
			<psa30 value="0.00294708585497232" flag="0"/>
		</comp>
	</station>
	<station code="CLA" name="CLA" netid="IT" source="Italian Strong Motion Network (RAN)" insttype="" lat="46.272179" lon="12.51455">
		<comp name="00.HNE" depth="0.0">
			<acc value="0.31352935729986" flag="0"/>
			<vel value="0.0848588947954" flag="0"/>
			<psa03 value="0.373786219836001" flag="0"/>
			<psa10 value="0.0478115347796526" flag="0"/>
			<psa30 value="0.00512233932982663" flag="0"/>
		</comp>
		<comp name="00.HNN" depth="0.0">
			<acc value="0.29273257937964" flag="0"/>
			<vel value="0.144627334332" flag="0"/>
			<psa03 value="0.908059154463412" flag="0"/>
			<psa10 value="0.0836112938379855" flag="0"/>
			<psa30 value="0.00666050289229753" flag="0"/>
		</comp>
		<comp name="00.HNZ" depth="0.0">
			<acc value="0.26215243067778" flag="0"/>
			<vel value="0.105647122534" flag="0"/>
			<psa03 value="0.373175846068534" flag="0"/>
			<psa10 value="0.0746221808531801" flag="0"/>
			<psa30 value="0.00647262211279936" flag="0"/>
		</comp>
	</station>
	<station code="CMO" name="CMO" netid="IT" source="Italian Strong Motion Network (RAN)" insttype="" lat="46.09115" lon="13.514766">
		<comp name="00.HNE" depth="0.0">
			<acc value="0.06551053295604" flag="0"/>
			<vel value="0.021502005197" flag="0"/>
			<psa03 value="0.105023676052927" flag="0"/>
			<psa10 value="0.0157352305068" flag="0"/>
			<psa30 value="0.00261757652660035" flag="0"/>
		</comp>
		<comp name="00.HNN" depth="0.0">
			<acc value="0.12603384955608" flag="0"/>
			<vel value="0.0602256097228" flag="0"/>
			<psa03 value="0.417350689101448" flag="0"/>
			<psa10 value="0.0339561219264262" flag="0"/>
			<psa30 value="0.00305369437559755" flag="0"/>
		</comp>
		<comp name="00.HNZ" depth="0.0">
			<acc value="0.10620095123484" flag="0"/>
			<vel value="0.0478260739372" flag="0"/>
			<psa03 value="0.280548876652742" flag="0"/>
			<psa10 value="0.0291467452038086" flag="0"/>
			<psa30 value="0.0032596155168633" flag="0"/>
		</comp>
	</station>
	<station code="CNG" name="CNG" netid="IT" source="Italian Strong Motion Network (RAN)" insttype="" lat="45.881569" lon="12.288142">
		<comp name="00.HGE" depth="0.0">
			<acc value="0.080132776419996" flag="0"/>
			<vel value="0.0403698006407" flag="0"/>
			<psa03 value="0.197492853765767" flag="0"/>
			<psa10 value="0.0271603961179531" flag="0"/>
			<psa30 value="0.00310920555294279" flag="0"/>
		</comp>
		<comp name="00.HGN" depth="0.0">
			<acc value="0.059796459394368" flag="0"/>
			<vel value="0.0256915004262" flag="0"/>
			<psa03 value="0.145527994682039" flag="0"/>
			<psa10 value="0.0294012258119174" flag="0"/>
			<psa30 value="0.00289866160544007" flag="0"/>
		</comp>
		<comp name="00.HGZ" depth="0.0">
			<acc value="0.060183493045998" flag="0"/>
			<vel value="0.0167991527702" flag="0"/>
			<psa03 value="0.0694067749413605" flag="0"/>
			<psa10 value="0.0190943992852376" flag="0"/>
			<psa30 value="0.00297610381894011" flag="0"/>
		</comp>
	</station>
	<station code="CRD" name="CRD" netid="IT" source="Italian Strong Motion Network (RAN)" insttype="" lat="46.524823" lon="12.1172">
		<comp name="00.HGE" depth="0.0">
			<acc value="0.067021726075986" flag="0"/>
			<vel value="0.0613972686849" flag="0"/>
			<psa03 value="0.144320008408763" flag="0"/>
			<psa10 value="0.115424681318598" flag="0"/>
			<psa30 value="0.00544441691588137" flag="0"/>
		</comp>
		<comp name="00.HGN" depth="0.0">
			<acc value="0.063563599984128" flag="0"/>
			<vel value="0.0623429572346" flag="0"/>
			<psa03 value="0.103005240258237" flag="0"/>
			<psa10 value="0.120568417065805" flag="0"/>
			<psa30 value="0.00516875240448698" flag="0"/>
		</comp>
		<comp name="00.HGZ" depth="0.0">
			<acc value="0.044136217986042" flag="0"/>
			<vel value="0.0312581399358" flag="0"/>
			<psa03 value="0.0832828556222997" flag="0"/>
			<psa10 value="0.0511721661549232" flag="0"/>
			<psa30 value="0.00323160761981157" flag="0"/>
		</comp>
	</station>
	<station code="CVF" name="CVF" netid="IT" source="Italian Strong Motion Network (RAN)" insttype="" lat="46.0918" lon="13.429">
		<comp name="00.HNE" depth="0.0">
			<acc value="0.1532842682982" flag="0"/>
			<vel value="0.0597933577518" flag="0"/>
			<psa03 value="0.474826913286113" flag="0"/>
			<psa10 value="0.0484793865214213" flag="0"/>
			<psa30 value="0.00356293686041287" flag="0"/>
		</comp>
		<comp name="00.HNN" depth="0.0">
			<acc value="0.19844296204752" flag="0"/>
			<vel value="0.0706760837582" flag="0"/>
			<psa03 value="0.479965503694458" flag="0"/>
			<psa10 value="0.0578119360071468" flag="0"/>
			<psa30 value="0.00585668922691938" flag="0"/>
		</comp>
		<comp name="00.HNZ" depth="0.0">
			<acc value="0.10207620999666" flag="0"/>
			<vel value="0.0464180447329" flag="0"/>
			<psa03 value="0.243369934563775" flag="0"/>
			<psa10 value="0.052679240991094" flag="0"/>
			<psa30 value="0.00395862515615541" flag="0"/>
		</comp>
	</station>
	<station code="DANT" name="DANT" netid="IT" source="Italian Strong Motion Network (RAN)" insttype="" lat="46.567501" lon="12.5199">
		<comp name="00.HNE" depth="0.0">
			<acc value="0.39956982965118" flag="0"/>
			<vel value="0.16176761688" flag="0"/>
			<psa03 value="0.986972715432568" flag="0"/>
			<psa10 value="0.131533723463751" flag="0"/>
			<psa30 value="0.0073618351854447" flag="0"/>
		</comp>
		<comp name="00.HNN" depth="0.0">
			<acc value="0.39675475180026" flag="0"/>
			<vel value="0.169864533028" flag="0"/>
			<psa03 value="0.814925901508891" flag="0"/>
			<psa10 value="0.170364290798071" flag="0"/>
			<psa30 value="0.00885992525991071" flag="0"/>
		</comp>
		<comp name="00.HNZ" depth="0.0">
			<acc value="0.1384617115557" flag="0"/>
			<vel value="0.0931559372491" flag="0"/>
			<psa03 value="0.313607608298171" flag="0"/>
			<psa10 value="0.0844313756644564" flag="0"/>
			<psa30 value="0.0075609567095992" flag="0"/>
		</comp>
	</station>
	<station code="DRN" name="DRN" netid="IT" source="Italian Strong Motion Network (RAN)" insttype="" lat="46.1667" lon="13.6417">
		<comp name="00.HNE" depth="0.0">
			<acc value="0.075266852182734" flag="0"/>
			<vel value="0.0302965077792" flag="0"/>
			<psa03 value="0.18067455213569" flag="0"/>
			<psa10 value="0.0264382745309416" flag="0"/>
			<psa30 value="0.00229552665070959" flag="0"/>
		</comp>
		<comp name="00.HNN" depth="0.0">
			<acc value="0.069608471086896" flag="0"/>
			<vel value="0.0236224813775" flag="0"/>
			<psa03 value="0.153970731055283" flag="0"/>
			<psa10 value="0.0404986740883411" flag="0"/>
			<psa30 value="0.0015745225335564" flag="0"/>
		</comp>
		<comp name="00.HNZ" depth="0.0">
			<acc value="0.04954524395058" flag="0"/>
			<vel value="0.017322459731" flag="0"/>
			<psa03 value="0.104554863746697" flag="0"/>
			<psa10 value="0.0144671740042576" flag="0"/>
			<psa30 value="0.00217562995813847" flag="0"/>
		</comp>
	</station>
	<station code="FAG" name="FAG" netid="IT" source="Italian Strong Motion Network (RAN)" insttype="" lat="46.0979995728" lon="13.0914001465">
		<comp name="00.HNE" depth="0.0">
			<acc value="0.39404124189978" flag="0"/>
			<vel value="0.100255223454" flag="0"/>
			<psa03 value="0.514552211559982" flag="0"/>
			<psa10 value="0.0713095264061573" flag="0"/>
			<psa30 value="0.00855931617934255" flag="0"/>
		</comp>
		<comp name="00.HNN" depth="0.0">
			<acc value="0.54736581357018" flag="0"/>
			<vel value="0.104543712446" flag="0"/>
			<psa03 value="0.808739908383513" flag="0"/>
			<psa10 value="0.0608748501601465" flag="0"/>
			<psa30 value="0.00591625358942003" flag="0"/>
		</comp>
		<comp name="00.HNZ" depth="0.0">
			<acc value="0.29896466279568" flag="0"/>
			<vel value="0.0899687370131" flag="0"/>
			<psa03 value="0.61678823419186" flag="0"/>
			<psa10 value="0.0633235598751278" flag="0"/>
			<psa30 value="0.0164380006035308" flag="0"/>
		</comp>
	</station>
	<station code="FDS" name="FDS" netid="IT" source="Italian Strong Motion Network (RAN)" insttype="" lat="46.451317" lon="12.562712">
		<comp name="00.HNE" depth="0.0">
			<acc value="0.44130900305394" flag="0"/>
			<vel value="0.190156900109" flag="0"/>
			<psa03 value="0.445555515866465" flag="0"/>
			<psa10 value="0.159960576603241" flag="0"/>
			<psa30 value="0.015077438806322" flag="0"/>
		</comp>
		<comp name="00.HNN" depth="0.0">
			<acc value="0.53050013289204" flag="0"/>
			<vel value="0.235062957674" flag="0"/>
			<psa03 value="0.808863666579801" flag="0"/>
			<psa10 value="0.22734237031631" flag="0"/>
			<psa30 value="0.0127965585425325" flag="0"/>
		</comp>
		<comp name="00.HNZ" depth="0.0">
			<acc value="0.35849408160576" flag="0"/>
			<vel value="0.165962178282" flag="0"/>
			<psa03 value="0.547582149629928" flag="0"/>
			<psa10 value="0.16211203412676" flag="0"/>
			<psa30 value="0.0122048518448674" flag="0"/>
		</comp>
	</station>
	<station code="FLP" name="FLP" netid="IT" source="Italian Strong Motion Network (RAN)" insttype="" lat="46.026695" lon="11.922518">
		<comp name="00.HGE" depth="0.0">
			<acc value="0.11866077381348" flag="0"/>
			<vel value="0.0249358174208" flag="0"/>
			<psa03 value="0.0670727661580958" flag="0"/>
			<psa10 value="0.00652566291814497" flag="0"/>
			<psa30 value="0.00190920397539475" flag="0"/>
		</comp>
		<comp name="00.HGN" depth="0.0">
			<acc value="0.0986200155654" flag="0"/>
