<?xml version="1.0" encoding="UTF-8" standalone="yes"?>
<!DOCTYPE earthquake SYSTEM "stationlist.dtd">
<stationlist created="" xmlns="ch.ethz.sed.shakemap.usgs.xml">
  <station code="BGDS" name="BGDS" netid="BW" insttype="" lat="47.6353" lon="13.0275">
    <comp name="--.HHE">
      <acc value="0.0157818525" flag="0"/>
      <vel value="0.0111241011" flag="0"/>
      <psa03 value="0.0555736365" flag="0"/>
      <psa10 value="0.0115952722" flag="0"/>
      <psa30 value="0.0010047982" flag="0"/>
    </comp>
    <comp name="--.HHZ">
      <acc value="0.0203558748" flag="0"/>
      <vel value="0.0107321575" flag="0"/>
      <psa03 value="0.0463589034" flag="0"/>
      <psa10 value="0.0096832162" flag="0"/>
      <psa30 value="0.0009906380" flag="0"/>
    </comp>
    <comp name="--.HHN">
      <acc value="0.0194852868" flag="0"/>
      <vel value="0.0094289262" flag="0"/>
      <psa03 value="0.0633347542" flag="0"/>
      <psa10 value="0.0089252322" flag="0"/>
      <psa30 value="0.0005677165" flag="0"/>
    </comp>
  </station>
  <station code="SCE" name="SCE" netid="BW" insttype="" lat="47.0378" lon="11.709">
    <comp name="--.HHN">
      <acc value="0.0073438081" flag="0"/>
      <vel value="0.0036251997" flag="0"/>
      <psa03 value="0.0204022563" flag="0"/>
      <psa10 value="0.0015023658" flag="0"/>
      <psa30 value="0.0001638501" flag="0"/>
    </comp>
    <comp name="--.HHE">
      <acc value="0.0064247255" flag="0"/>
      <vel value="0.0024564228" flag="0"/>
      <psa03 value="0.0124663763" flag="0"/>
      <psa10 value="0.0021219597" flag="0"/>
      <psa30 value="0.0001619996" flag="0"/>
    </comp>
    <comp name="--.HHZ">
      <acc value="0.0069066320" flag="0"/>
      <vel value="0.0030419724" flag="0"/>
      <psa03 value="0.0185079570" flag="0"/>
      <psa10 value="0.0019157402" flag="0"/>
      <psa30 value="0.0001435684" flag="0"/>
    </comp>
  </station>
  <station code="CRND" name="CRND" netid="IV" insttype="" lat="45.8361" lon="12.0131">
    <comp name="--.HNE">
      <acc value="0.0479526628" flag="0"/>
      <vel value="0.0129935469" flag="0"/>
      <psa03 value="0.0635056353" flag="0"/>
      <psa10 value="0.0086900859" flag="0"/>
      <psa30 value="0.0008401178" flag="0"/>
    </comp>
    <comp name="--.HNZ">
      <acc value="0.0274136641" flag="0"/>
      <vel value="0.0054170276" flag="0"/>
      <psa03 value="0.0218313648" flag="0"/>
      <psa10 value="0.0044602778" flag="0"/>
      <psa30 value="0.0009856511" flag="0"/>
    </comp>
    <comp name="--.HNN">
      <acc value="0.0741290426" flag="0"/>
      <vel value="0.0162900132" flag="0"/>
      <psa03 value="0.0587709052" flag="0"/>
      <psa10 value="0.0081863093" flag="0"/>
      <psa30 value="0.0009420387" flag="0"/>
    </comp>
  </station>
  <station code="CTI" name="CTI" netid="IV" insttype="" lat="46.0482" lon="11.6497">
    <comp name="--.HHE">
      <acc value="0.1292310637" flag="0"/>
      <vel value="0.0237168102" flag="0"/>
      <psa03 value="0.1233610186" flag="0"/>
      <psa10 value="0.0072501707" flag="0"/>
      <psa30 value="0.0012475579" flag="0"/>
    </comp>
    <comp name="--.HHN">
      <acc value="0.0916057461" flag="0"/>
      <vel value="0.0265188907" flag="0"/>
      <psa03 value="0.1529261879" flag="0"/>
      <psa10 value="0.0090459766" flag="0"/>
      <psa30 value="0.0014832994" flag="0"/>
    </comp>
    <comp name="--.HHZ">
      <acc value="0.0402667554" flag="0"/>
      <vel value="0.0094154749" flag="0"/>
      <psa03 value="0.0453174019" flag="0"/>
      <psa10 value="0.0064792697" flag="0"/>
      <psa30 value="0.0009698053" flag="0"/>
    </comp>
  </station>
  <station code="FREG" name="FREG" netid="IV" insttype="" lat="46.0111" lon="12.313">
    <comp name="--.HNE">
      <acc value="0.0962516620" flag="0"/>
      <vel value="0.0364832304" flag="0"/>
      <psa03 value="0.2485829427" flag="0"/>
      <psa10 value="0.0230354851" flag="0"/>
      <psa30 value="0.0021875229" flag="0"/>
    </comp>
    <comp name="--.HNZ">
      <acc value="0.0597856491" flag="0"/>
      <vel value="0.0199540280" flag="0"/>
      <psa03 value="0.1024546850" flag="0"/>
      <psa10 value="0.0167419676" flag="0"/>
      <psa30 value="0.0026795543" flag="0"/>
    </comp>
    <comp name="--.HNN">
      <acc value="0.0957071272" flag="0"/>
      <vel value="0.0399106946" flag="0"/>
      <psa03 value="0.2211823609" flag="0"/>
      <psa10 value="0.0190389061" flag="0"/>
      <psa30 value="0.0026554141" flag="0"/>
    </comp>
  </station>
  <station code="FVI" name="FVI" netid="IV" insttype="" lat="46.5966" lon="12.7804">
    <comp name="--.HHN">
      <acc value="1.2148753041" flag="0"/>
      <vel value="0.2762952119" flag="0"/>
      <psa03 value="0.7859879593" flag="0"/>
      <psa10 value="0.1318278219" flag="0"/>
      <psa30 value="0.0097941679" flag="0"/>
    </comp>
    <comp name="--.HHZ">
      <acc value="0.6802411570" flag="0"/>
      <vel value="0.2028973612" flag="0"/>
      <psa03 value="0.9204916302" flag="0"/>
      <psa10 value="0.0737996143" flag="0"/>
      <psa30 value="0.0055309063" flag="0"/>
    </comp>
    <comp name="--.HHE">
      <acc value="2.4866882674" flag="0"/>
      <vel value="0.6794669497" flag="0"/>
      <psa03 value="1.8232787514" flag="0"/>
      <psa10 value="0.1198813534" flag="0"/>
      <psa30 value="0.0112868329" flag="0"/>
    </comp>
  </station>
  <station code="PTCC" name="PTCC" netid="IV" insttype="" lat="46.4075" lon="13.354">
    <comp name="--.HHE">
      <acc value="0.1748876352" flag="0"/>
      <vel value="0.0549328046" flag="0"/>
      <psa03 value="0.1668222866" flag="0"/>
      <psa10 value="0.0292612173" flag="0"/>
      <psa30 value="0.0024928006" flag="0"/>
    </comp>
    <comp name="--.HHN">
      <acc value="0.2061174371" flag="0"/>
      <vel value="0.0542390370" flag="0"/>
      <psa03 value="0.1747783945" flag="0"/>
      <psa10 value="0.0461684524" flag="0"/>
      <psa30 value="0.0028316693" flag="0"/>
    </comp>
    <comp name="--.HHZ">
      <acc value="0.1130245148" flag="0"/>
      <vel value="0.0384115322" flag="0"/>
      <psa03 value="0.1859853136" flag="0"/>
      <psa10 value="0.0555883427" flag="0"/>
      <psa30 value="0.0031864360" flag="0"/>
    </comp>
  </station>
  <station code="STAL" name="STAL" netid="IV" insttype="" lat="46.2601" lon="12.7104">
    <comp name="--.HHE">
      <acc value="1.9018896506" flag="0"/>
      <vel value="0.5726158531" flag="0"/>
      <psa03 value="2.3703817780" flag="0"/>
      <psa10 value="0.2921545627" flag="0"/>
      <psa30 value="0.0214256822" flag="0"/>
    </comp>
    <comp name="--.HHN">
      <acc value="2.4812744935" flag="0"/>
      <vel value="0.6630017945" flag="0"/>
      <psa03 value="2.0765449674" flag="0"/>
      <psa10 value="0.4194003428" flag="0"/>
      <psa30 value="0.0233735901" flag="0"/>
    </comp>
    <comp name="--.HHZ">
      <acc value="1.2760976941" flag="0"/>
      <vel value="0.2771663514" flag="0"/>
      <psa03 value="0.6342030984" flag="0"/>
      <psa10 value="0.1494627838" flag="0"/>
      <psa30 value="0.0125101889" flag="0"/>
    </comp>
  </station>
  <station code="TEOL" name="TEOL" netid="IV" insttype="" lat="45.3617" lon="11.6739">
    <comp name="--.HHE">
      <acc value="0.0483621422" flag="0"/>
      <vel value="0.0356432404" flag="0"/>
      <psa03 value="0.0994380776" flag="0"/>
      <psa10 value="0.0574185650" flag="0"/>
      <psa30 value="0.0024955177" flag="0"/>
    </comp>
    <comp name="--.HHN">
      <acc value="0.0484508090" flag="0"/>
      <vel value="0.0303453034" flag="0"/>
      <psa03 value="0.1340929038" flag="0"/>
      <psa10 value="0.0475404653" flag="0"/>
      <psa30 value="0.0020483001" flag="0"/>
    </comp>
    <comp name="--.HHZ">
      <acc value="0.0329673169" flag="0"/>
      <vel value="0.0120569725" flag="0"/>
      <psa03 value="0.0574720832" flag="0"/>
      <psa10 value="0.0131589982" flag="0"/>
      <psa30 value="0.0006842895" flag="0"/>
    </comp>
  </station>
  <station code="TRI" name="TRI" netid="MN" insttype="" lat="45.709" lon="13.764">
    <comp name="--.HHE">
      <acc value="0.0771007379" flag="0"/>
      <vel value="0.0137097230" flag="0"/>
      <psa03 value="0.0566863314" flag="0"/>
      <psa10 value="0.0094799422" flag="0"/>
      <psa30 value="0.0013317535" flag="0"/>
    </comp>
    <comp name="--.HHN">
      <acc value="0.0333392308" flag="0"/>
      <vel value="0.0062773536" flag="0"/>
      <psa03 value="0.0303205527" flag="0"/>
      <psa10 value="0.0043479410" flag="0"/>
      <psa30 value="0.0009325832" flag="0"/>
    </comp>
    <comp name="--.HHZ">
      <acc value="0.1409064311" flag="0"/>
      <vel value="0.0218277719" flag="0"/>
      <psa03 value="0.0659890299" flag="0"/>
      <psa10 value="0.0042152733" flag="0"/>
      <psa30 value="0.0012261106" flag="0"/>
    </comp>
  </station>
  <station code="DST2" name="DST2" netid="NI" insttype="" lat="45.6589" lon="13.8013">
    <comp name="--.HHE">
      <acc value="0.1351667941" flag="0"/>
      <vel value="0.0384325643" flag="0"/>
      <psa03 value="0.1752912842" flag="0"/>
      <psa10 value="0.0159243000" flag="0"/>
      <psa30 value="0.0013193931" flag="0"/>
    </comp>
    <comp name="--.HHN">
      <acc value="0.0725406889" flag="0"/>
      <vel value="0.0147429376" flag="0"/>
      <psa03 value="0.0777961245" flag="0"/>
      <psa10 value="0.0086867226" flag="0"/>
      <psa30 value="0.0006425238" flag="0"/>
    </comp>
    <comp name="--.HHZ">
      <acc value="0.0445351762" flag="0"/>
      <vel value="0.0153932214" flag="0"/>
      <psa03 value="0.0685162573" flag="0"/>
      <psa10 value="0.0068792014" flag="0"/>
      <psa30 value="0.0009716338" flag="0"/>
    </comp>
  </station>
  <station code="PALA" name="PALA" netid="NI" insttype="" lat="46.245" lon="12.924">
    <comp name="--.HHE">
      <acc value="1.5601049623" flag="0"/>
      <vel value="0.7055170895" flag="0"/>
      <psa03 value="1.5162019615" flag="0"/>
      <psa10 value="1.0240674573" flag="0"/>
      <psa30 value="0.0453936472" flag="0"/>
    </comp>
    <comp name="--.HHN">
      <acc value="1.3280096754" flag="0"/>
      <vel value="0.5322830833" flag="0"/>
      <psa03 value="1.9581844426" flag="0"/>
      <psa10 value="0.6136891488" flag="0"/>
      <psa30 value="0.0323299113" flag="0"/>
    </comp>
    <comp name="--.HHZ">
      <acc value="0.7535843512" flag="0"/>
      <vel value="0.3004674820" flag="0"/>
      <psa03 value="0.6342429664" flag="0"/>
      <psa10 value="0.4752496612" flag="0"/>
      <psa30 value="0.0215172450" flag="0"/>
    </comp>
  </station>
  <station code="POLC" name="POLC" netid="NI" insttype="" lat="46.0266" lon="12.5005">
    <comp name="--.HHN">
      <acc value="0.2426501166" flag="0"/>
      <vel value="0.0966970908" flag="0"/>
      <psa03 value="0.6557259048" flag="0"/>
      <psa10 value="0.0637965765" flag="0"/>
      <psa30 value="0.0040145499" flag="0"/>
    </comp>
    <comp name="--.HHE">
      <acc value="0.2868380741" flag="0"/>
      <vel value="0.1099227991" flag="0"/>
      <psa03 value="0.3655864647" flag="0"/>
      <psa10 value="0.0958826932" flag="0"/>
      <psa30 value="0.0054722001" flag="0"/>
    </comp>
    <comp name="--.HHZ">
      <acc value="0.1648419961" flag="0"/>
      <vel value="0.0485556117" flag="0"/>
      <psa03 value="0.2624295244" flag="0"/>
      <psa10 value="0.0516028232" flag="0"/>
      <psa30 value="0.0018837029" flag="0"/>
    </comp>
  </station>
  <station code="PURA" name="PURA" netid="NI" insttype="" lat="46.4258" lon="12.7419">
    <comp name="--.HHN">
      <acc value="3.3784053646" flag="0"/>
      <vel value="1.6051298355" flag="0"/>
      <psa03 value="6.3891226561" flag="0"/>
      <psa10 value="0.6312241572" flag="0"/>
      <psa30 value="0.0505982925" flag="0"/>
    </comp>
    <comp name="--.HHE">
      <acc value="2.7993031393" flag="0"/>
      <vel value="0.7313871713" flag="0"/>
      <psa03 value="2.4161955472" flag="0"/>
      <psa10 value="0.3981864891" flag="0"/>
      <psa30 value="0.0291160546" flag="0"/>
    </comp>
    <comp name="--.HHZ">
      <acc value="1.7144073692" flag="0"/>
      <vel value="0.5142267187" flag="0"/>
      <psa03 value="2.6114226444" flag="0"/>
      <psa10 value="0.4725581407" flag="0"/>
      <psa30 value="0.0343194508" flag="0"/>
    </comp>
  </station>
  <station code="VINO" name="VINO" netid="NI" insttype="" lat="46.2538" lon="13.2755">
    <comp name="--.HHE">
      <acc value="0.2227268468" flag="0"/>
      <vel value="0.1103311215" flag="0"/>
      <psa03 value="0.4895876085" flag="0"/>
      <psa10 value="0.1472607290" flag="0"/>
      <psa30 value="0.0064570426" flag="0"/>
    </comp>
    <comp name="--.HHN">
      <acc value="0.2277835536" flag="0"/>
      <vel value="0.1232323569" flag="0"/>
      <psa03 value="0.5273178284" flag="0"/>
      <psa10 value="0.1626941229" flag="0"/>
      <psa30 value="0.0082085755" flag="0"/>
    </comp>
    <comp name="--.HHZ">
      <acc value="0.2077899703" flag="0"/>
      <vel value="0.1307145176" flag="0"/>
      <psa03 value="0.4929681595" flag="0"/>
      <psa10 value="0.0934899244" flag="0"/>
      <psa30 value="0.0049787379" flag="0"/>
    </comp>
  </station>
  <station code="ACOM" name="ACOM" netid="OX" insttype="" lat="46.548" lon="13.5137">
    <comp name="--.HHN">
      <acc value="0.2383858147" flag="0"/>
      <vel value="0.1363849279" flag="0"/>
      <psa03 value="0.4330691732" flag="0"/>
      <psa10 value="0.1067515382" flag="0"/>
      <psa30 value="0.0057679798" flag="0"/>
    </comp>
    <comp name="--.HHE">
      <acc value="0.2307972015" flag="0"/>
      <vel value="0.1016409039" flag="0"/>
      <psa03 value="0.8174040713" flag="0"/>
      <psa10 value="0.0472711943" flag="0"/>
      <psa30 value="0.0048611827" flag="0"/>
    </comp>
    <comp name="--.HHZ">
      <acc value="0.1225419304" flag="0"/>
      <vel value="0.0490045747" flag="0"/>
      <psa03 value="0.2788841406" flag="0"/>
      <psa10 value="0.0344381143" flag="0"/>
      <psa30 value="0.0039392146" flag="0"/>
    </comp>
  </station>
  <station code="AGOR" name="AGOR" netid="OX" insttype="" lat="46.2329" lon="12.0472">
    <comp name="--.HHE">
      <acc value="0.0720609801" flag="0"/>
      <vel value="0.0524160204" flag="0"/>
      <psa03 value="0.1446123753" flag="0"/>
      <psa10 value="0.0500931875" flag="0"/>
      <psa30 value="0.0024520761" flag="0"/>
    </comp>
    <comp name="--.HHZ">
      <acc value="0.0391333463" flag="0"/>
      <vel value="0.0229445095" flag="0"/>
      <psa03 value="0.0805953439" flag="0"/>
      <psa10 value="0.0329392960" flag="0"/>
      <psa30 value="0.0020290563" flag="0"/>
    </comp>
    <comp name="--.HHN">
      <acc value="0.0675327013" flag="0"/>
      <vel value="0.0369577434" flag="0"/>
      <psa03 value="0.1856335840" flag="0"/>
      <psa10 value="0.0234088928" flag="0"/>
      <psa30 value="0.0017489717" flag="0"/>
    </comp>
  </station>
  <station code="BAD" name="BAD" netid="OX" insttype="" lat="46.234" lon="13.2438">
    <comp name="--.HHZ">
      <acc value="0.2511036914" flag="0"/>
      <vel value="0.1184689856" flag="0"/>
      <psa03 value="0.6749279084" flag="0"/>
      <psa10 value="0.0656632782" flag="0"/>
      <psa30 value="0.0050664984" flag="0"/>
    </comp>
    <comp name="--.HHN">
      <acc value="0.3671128918" flag="0"/>
      <vel value="0.2824093194" flag="0"/>
      <psa03 value="0.9469342800" flag="0"/>
      <psa10 value="0.1732338638" flag="0"/>
      <psa30 value="0.0094285740" flag="0"/>
    </comp>
    <comp name="--.HHE">
      <acc value="0.2846789283" flag="0"/>
      <vel value="0.1278635989" flag="0"/>
      <psa03 value="0.5003204734" flag="0"/>
      <psa10 value="0.0968993083" flag="0"/>
      <psa30 value="0.0049402929" flag="0"/>
    </comp>
  </station>
  <station code="BOO" name="BOO" netid="OX" insttype="" lat="46.3195" lon="13.0984">
    <comp name="--.HHE">
      <acc value="0.9103071463" flag="0"/>
      <vel value="0.1514515685" flag="0"/>
      <psa03 value="0.7197980815" flag="0"/>
      <psa10 value="0.0683022881" flag="0"/>
      <psa30 value="0.0055157497" flag="0"/>
    </comp>
    <comp name="--.HHN">
      <acc value="2.4181434740" flag="0"/>
      <vel value="0.4761082381" flag="0"/>
      <psa03 value="0.9512077626" flag="0"/>
      <psa10 value="0.0770388375" flag="0"/>
      <psa30 value="0.0077107559" flag="0"/>
    </comp>
    <comp name="--.HHZ">
      <acc value="1.1277973317" flag="0"/>
      <vel value="0.2163106658" flag="0"/>
      <psa03 value="0.4672621148" flag="0"/>
      <psa10 value="0.0678760837" flag="0"/>
      <psa30 value="0.0063625104" flag="0"/>
    </comp>
  </station>
  <station code="CAE" name="CAE" netid="OX" insttype="" lat="46.009" lon="12.4379">
    <comp name="--.HHE">
      <acc value="0.1074696639" flag="0"/>
      <vel value="0.0393149231" flag="0"/>
      <psa03 value="0.2174722778" flag="0"/>
      <psa10 value="0.0368652228" flag="0"/>
      <psa30 value="0.0027908818" flag="0"/>
    </comp>
    <comp name="--.HHN">
      <acc value="0.0716891616" flag="0"/>
      <vel value="0.0279611491" flag="0"/>
      <psa03 value="0.1207349900" flag="0"/>
      <psa10 value="0.0243056003" flag="0"/>
      <psa30 value="0.0022830477" flag="0"/>
    </comp>
    <comp name="--.HHZ">
      <acc value="0.0455593406" flag="0"/>
      <vel value="0.0180092101" flag="0"/>
      <psa03 value="0.1195541806" flag="0"/>
      <psa10 value="0.0166561721" flag="0"/>
      <psa30 value="0.0031501016" flag="0"/>
    </comp>
  </station>
  <station code="CIMO" name="CIMO" netid="OX" insttype="" lat="46.3116" lon="12.4448">
    <comp name="--.HHE">
      <acc value="0.1328439404" flag="0"/>
      <vel value="0.0368777757" flag="0"/>
      <psa03 value="0.0976355826" flag="0"/>
      <psa10 value="0.0364205154" flag="0"/>
      <psa30 value="0.0023378496" flag="0"/>
    </comp>
    <comp name="--.HHN">
      <acc value="0.1211940038" flag="0"/>
      <vel value="0.0347516507" flag="0"/>
      <psa03 value="0.0870796520" flag="0"/>
      <psa10 value="0.0329038538" flag="0"/>
      <psa30 value="0.0032712892" flag="0"/>
    </comp>
    <comp name="--.HHZ">
      <acc value="0.1521565865" flag="0"/>
      <vel value="0.0459753590" flag="0"/>
      <psa03 value="0.1257812358" flag="0"/>
      <psa10 value="0.0566720649" flag="0"/>
      <psa30 value="0.0042134419" flag="0"/>
    </comp>
  </station>
  <station code="CLUD" name="CLUD" netid="OX" insttype="" lat="46.4569" lon="12.8814">
    <comp name="--.HHN">
      <acc value="1.0163969163" flag="0"/>
      <vel value="0.3353833721" flag="0"/>
      <psa03 value="0.7980235001" flag="0"/>
      <psa10 value="0.1994665087" flag="0"/>
      <psa30 value="0.0137649563" flag="0"/>
    </comp>
    <comp name="--.HHZ">
      <acc value="1.5086526768" flag="0"/>
      <vel value="0.6735633711" flag="0"/>
      <psa03 value="3.3272163704" flag="0"/>
      <psa10 value="0.2587268302" flag="0"/>
      <psa30 value="0.0177917806" flag="0"/>
    </comp>
    <comp name="--.HHE">
      <acc value="1.1342996784" flag="0"/>
      <vel value="0.3049058160" flag="0"/>
      <psa03 value="1.1447885275" flag="0"/>
      <psa10 value="0.2188247115" flag="0"/>
      <psa30 value="0.0164317802" flag="0"/>
    </comp>
  </station>
  <station code="DRE" name="DRE" netid="OX" insttype="" lat="46.1733" lon="13.645">
    <comp name="--.HHE">
      <acc value="0.2278701292" flag="0"/>
      <vel value="0.0561211324" flag="0"/>
      <psa03 value="0.2598790473" flag="0"/>
      <psa10 value="0.0269895582" flag="0"/>
      <psa30 value="0.0020470662" flag="0"/>
    </comp>
    <comp name="--.HHN">
      <acc value="0.1398850817" flag="0"/>
      <vel value="0.0445221728" flag="0"/>
      <psa03 value="0.2696247025" flag="0"/>
      <psa10 value="0.0292811323" flag="0"/>
      <psa30 value="0.0020390272" flag="0"/>
    </comp>
    <comp name="--.HHZ">
