<?xml version="1.0" encoding="UTF-8" standalone="yes"?>
<!DOCTYPE earthquake SYSTEM "stationlist.dtd">
<stationlist created="" xmlns="ch.ethz.sed.shakemap.usgs.xml">
  <station code="GAZ" name="GAZ" netid="KO" insttype="CMG-3T" lat="37.1721" lon="37.2096">
    <comp name="--.HHE">
      <acc value="0.0072935577" flag="0"/>
      <vel value="0.0039285140" flag="0"/>
      <psa03 value="0.0144846666" flag="0"/>
      <psa10 value="0.0073239970" flag="0"/>
      <psa30 value="0.0009332724" flag="0"/>
    </comp>
    <comp name="--.HHZ">
      <acc value="0.0035042561" flag="0"/>
      <vel value="0.0017622793" flag="0"/>
      <psa03 value="0.0077619777" flag="0"/>
      <psa10 value="0.0024837053" flag="0"/>
      <psa30 value="0.0002835857" flag="0"/>
    </comp>
    <comp name="--.HHN">
      <acc value="0.0053416253" flag="0"/>
      <vel value="0.0034614806" flag="0"/>
      <psa03 value="0.0107863655" flag="0"/>
      <psa10 value="0.0051451717" flag="0"/>
      <psa30 value="0.0003794699" flag="0"/>
    </comp>
  </station>
  <station code="KMRS" name="KMRS" netid="KO" insttype="CMG-3T" lat="37.5053" lon="36.9">
    <comp name="--.HHN">
      <acc value="0.0115880846" flag="0"/>
      <vel value="0.0052252403" flag="0"/>
      <psa03 value="0.0296041430" flag="0"/>
      <psa10 value="0.0042020837" flag="0"/>
      <psa30 value="0.0006112058" flag="0"/>
    </comp>
    <comp name="--.HHZ">
      <acc value="0.0050265683" flag="0"/>
      <vel value="0.0028518722" flag="0"/>
      <psa03 value="0.0169853935" flag="0"/>
      <psa10 value="0.0033155205" flag="0"/>
      <psa30 value="0.0002643012" flag="0"/>
    </comp>
  </station>
  <station code="ANDN" name="ANDN" netid="TU" insttype="T" lat="37.58" lon="36.3452">
    <comp name="--.HHE">
      <acc value="0.0275650980" flag="0"/>
      <vel value="0.0092970621" flag="0"/>
      <psa03 value="0.0542259819" flag="0"/>
      <psa10 value="0.0063045352" flag="0"/>
      <psa30 value="0.0006726517" flag="0"/>
    </comp>
    <comp name="--.HHZ">
      <acc value="0.0117958397" flag="0"/>
      <vel value="0.0055563829" flag="0"/>
      <psa03 value="0.0270662797" flag="0"/>
      <psa10 value="0.0072898184" flag="0"/>
      <psa30 value="0.0007961925" flag="0"/>
    </comp>
    <comp name="--.HHN">
      <acc value="0.0343116502" flag="0"/>
      <vel value="0.0129049794" flag="0"/>
      <psa03 value="0.0612211208" flag="0"/>
      <psa10 value="0.0116426201" flag="0"/>
      <psa30 value="0.0011555213" flag="0"/>
    </comp>
  </station>
</stationlist>
