<stationlist xmlns:esm="https://esm-db.eu/esmws/shakemap/1/" created="1781488455">
	<station code="ATHU" name="ATHU" netid="HA" source="Hellenic Seismological Network, University of Athens, Seismological Laboratory (HA)" insttype="" lat="37.9665" lon="23.7845" esm:processing="automatic (Paolucci et al 2011)" esm:quality="best">
		<comp name="--.HNE" depth="0.0">
			<acc value="0.00259142000214782" flag="0"/>
			<vel value="0.000672294147403973" flag="0"/>
			<psa03 value="0.00358220377477329" flag="0"/>
			<psa10 value="0.00038248692967863" flag="0"/>
			<psa30 value="8.13800524875025e-05" flag="0"/>
		</comp>
		<comp name="--.HNN" depth="0.0">
			<acc value="0.0016577740697345" flag="0"/>
			<vel value="0.000517000019815918" flag="0"/>
			<psa03 value="0.0017678363487614" flag="0"/>
			<psa10 value="0.000342735614708604" flag="0"/>
			<psa30 value="5.07778299280432e-05" flag="0"/>
		</comp>
		<comp name="--.HNZ" depth="0.0">
			<acc value="0.00385010128811582" flag="0"/>
			<vel value="0.0012141385654517" flag="0"/>
			<psa03 value="0.0077387314029978" flag="0"/>
			<psa10 value="0.000452349692510624" flag="0"/>
			<psa30 value="6.6568003553724e-05" flag="0"/>
		</comp>
	</station>
	<station code="AKR1" name="AKR1" netid="HI" source="ITSAK Strong Motion Network" insttype="" lat="38.153583" lon="22.31326" esm:processing="automatic (Paolucci et al 2011)" esm:quality="best">
		<comp name="--.HNE" depth="0.0">
			<acc value="0.0122170837618894" flag="0"/>
			<vel value="0.00603577641083877" flag="0"/>
			<psa03 value="0.0248825624101256" flag="0"/>
			<psa10 value="0.0058392718231047" flag="0"/>
			<psa30 value="0.00107161578095386" flag="0"/>
		</comp>
		<comp name="--.HNN" depth="0.0">
			<acc value="0.00896947462419233" flag="0"/>
			<vel value="0.00425827203738814" flag="0"/>
			<psa03 value="0.0237414607760705" flag="0"/>
			<psa10 value="0.00444512353011758" flag="0"/>
			<psa30 value="0.000823526169150545" flag="0"/>
		</comp>
		<comp name="--.HNZ" depth="0.0">
			<acc value="0.00421125381250789" flag="0"/>
			<vel value="0.00276429265302586" flag="0"/>
			<psa03 value="0.0141424655147453" flag="0"/>
			<psa10 value="0.00309138627354461" flag="0"/>
			<psa30 value="0.000565328387732848" flag="0"/>
		</comp>
	</station>
	<station code="ATH5" name="ATH5" netid="HI" source="ITSAK Strong Motion Network" insttype="" lat="37.975421" lon="23.737098" esm:processing="automatic (Paolucci et al 2011)" esm:quality="best">
		<comp name="--.HNE" depth="0.0">
			<acc value="0.0526692951749304" flag="0"/>
			<vel value="0.0164948712446631" flag="0"/>
			<psa03 value="0.103544025950155" flag="0"/>
			<psa10 value="0.00983273512046126" flag="0"/>
			<psa30 value="0.00168467962259225" flag="0"/>
		</comp>
		<comp name="--.HNN" depth="0.0">
			<acc value="0.0660131345246862" flag="0"/>
			<vel value="0.0229887653776331" flag="0"/>
			<psa03 value="0.0968303937051036" flag="0"/>
			<psa10 value="0.0103834122251165" flag="0"/>
			<psa30 value="0.00370521920258851" flag="0"/>
		</comp>
		<comp name="--.HNZ" depth="0.0">
			<acc value="0.0329682814717581" flag="0"/>
			<vel value="0.0101486109801968" flag="0"/>
			<psa03 value="0.0572685541771547" flag="0"/>
			<psa10 value="0.00565912348291207" flag="0"/>
			<psa30 value="0.00145987295941885" flag="0"/>
		</comp>
	</station>
	<station code="KIF1" name="KIF1" netid="HI" source="ITSAK Strong Motion Network" insttype="" lat="38.077273" lon="23.814551" esm:processing="automatic (Paolucci et al 2011)" esm:quality="best">
		<comp name="--.HNE" depth="0.0">
			<acc value="0.0736876287960718" flag="0"/>
			<vel value="0.0316710582428649" flag="0"/>
			<psa03 value="0.213103429556216" flag="0"/>
			<psa10 value="0.0151841896280455" flag="0"/>
			<psa30 value="0.00294740795964343" flag="0"/>
		</comp>
		<comp name="--.HNN" depth="0.0">
			<acc value="0.110483426096456" flag="0"/>
			<vel value="0.0447093108739386" flag="0"/>
			<psa03 value="0.25273801348625" flag="0"/>
			<psa10 value="0.0170812584245305" flag="0"/>
			<psa30 value="0.00384080026750183" flag="0"/>
		</comp>
		<comp name="--.HNZ" depth="0.0">
			<acc value="0.0618557106937265" flag="0"/>
			<vel value="0.0204992524358024" flag="0"/>
			<psa03 value="0.0560639275017679" flag="0"/>
			<psa10 value="0.0124476558461186" flag="0"/>
			<psa30 value="0.00188113503263113" flag="0"/>
		</comp>
	</station>
	<station code="KOR2" name="KOR2" netid="HI" source="ITSAK Strong Motion Network" insttype="" lat="37.9401" lon="22.9495" esm:processing="automatic (Paolucci et al 2011)" esm:quality="best">
		<comp name="--.HNE" depth="0.0">
			<acc value="0.0556844126905554" flag="0"/>
			<vel value="0.0364567783615924" flag="0"/>
			<psa03 value="0.103508127738653" flag="0"/>
			<psa10 value="0.0200701951769181" flag="0"/>
			<psa30 value="0.00235322838983334" flag="0"/>
		</comp>
		<comp name="--.HNN" depth="0.0">
			<acc value="0.0648286544624759" flag="0"/>
			<vel value="0.0261204315826546" flag="0"/>
			<psa03 value="0.10785255095215" flag="0"/>
			<psa10 value="0.0269768252072604" flag="0"/>
			<psa30 value="0.00243494838671509" flag="0"/>
		</comp>
		<comp name="--.HNZ" depth="0.0">
			<acc value="0.0377772114108779" flag="0"/>
			<vel value="0.0149232508972697" flag="0"/>
			<psa03 value="0.102105878596544" flag="0"/>
			<psa10 value="0.0140010246866539" flag="0"/>
			<psa30 value="0.0012286638929547" flag="0"/>
		</comp>
	</station>
	<station code="LEO1" name="LEO1" netid="HI" source="ITSAK Strong Motion Network" insttype="" lat="37.1689" lon="22.8637" esm:processing="automatic (Paolucci et al 2011)" esm:quality="best">
		<comp name="--.HNE" depth="0.0">
			<acc value="0.00576217155377395" flag="0"/>
			<vel value="0.00293221725516997" flag="0"/>
			<psa03 value="0.0151612465456958" flag="0"/>
			<psa10 value="0.00198058940745278" flag="0"/>
			<psa30 value="0.000777766783650078" flag="0"/>
		</comp>
		<comp name="--.HNN" depth="0.0">
			<acc value="0.0063046995936258" flag="0"/>
			<vel value="0.0033135790460012" flag="0"/>
			<psa03 value="0.0106137564947169" flag="0"/>
			<psa10 value="0.00265593672402297" flag="0"/>
			<psa30 value="0.000415658134269768" flag="0"/>
		</comp>
		<comp name="--.HNZ" depth="0.0">
			<acc value="0.00416339976884943" flag="0"/>
			<vel value="0.00189969405872519" flag="0"/>
			<psa03 value="0.00741586626475639" flag="0"/>
			<psa10 value="0.00114569796717896" flag="0"/>
			<psa30 value="0.000474857915340048" flag="0"/>
		</comp>
	</station>
	<station code="MOS1" name="MOS1" netid="HI" source="ITSAK Strong Motion Network" insttype="" lat="37.953107" lon="23.681947" esm:processing="automatic (Paolucci et al 2011)" esm:quality="best">
		<comp name="--.HNE" depth="0.0">
			<acc value="0.112654758877865" flag="0"/>
			<vel value="0.0603569939792994" flag="0"/>
			<psa03 value="0.193204298836519" flag="0"/>
			<psa10 value="0.0237672538389114" flag="0"/>
			<psa30 value="0.00221792692677221" flag="0"/>
		</comp>
		<comp name="--.HNN" depth="0.0">
			<acc value="0.102385908804441" flag="0"/>
			<vel value="0.0725738712437023" flag="0"/>
			<psa03 value="0.233498238945689" flag="0"/>
			<psa10 value="0.0329465025441072" flag="0"/>
			<psa30 value="0.00405093960486777" flag="0"/>
		</comp>
		<comp name="--.HNZ" depth="0.0">
			<acc value="0.0825462131631613" flag="0"/>
			<vel value="0.0232762687063272" flag="0"/>
			<psa03 value="0.140709383806317" flag="0"/>
			<psa10 value="0.00798181031825439" flag="0"/>
			<psa30 value="0.00243474087296928" flag="0"/>
		</comp>
	</station>
	<station code="PER1" name="PER1" netid="HI" source="ITSAK Strong Motion Network" insttype="" lat="38.0119" lon="23.7027" esm:processing="automatic (Paolucci et al 2011)" esm:quality="best">
		<comp name="--.HNE" depth="0.0">
			<acc value="0.0860642877721495" flag="0"/>
			<vel value="0.0192717939744257" flag="0"/>
			<psa03 value="0.0824135740781075" flag="0"/>
			<psa10 value="0.0106734198741771" flag="0"/>
			<psa30 value="0.00169192072727972" flag="0"/>
		</comp>
		<comp name="--.HNN" depth="0.0">
			<acc value="0.0719792136198802" flag="0"/>
			<vel value="0.0238356133669747" flag="0"/>
			<psa03 value="0.107713770925533" flag="0"/>
			<psa10 value="0.0103215706283957" flag="0"/>
			<psa30 value="0.00341306151524012" flag="0"/>
		</comp>
		<comp name="--.HNZ" depth="0.0">
			<acc value="0.0479274944008801" flag="0"/>
			<vel value="0.0104412743008965" flag="0"/>
			<psa03 value="0.0358104477872457" flag="0"/>
			<psa10 value="0.00681088759414179" flag="0"/>
			<psa30 value="0.00171342058903982" flag="0"/>
		</comp>
	</station>
	<station code="PIR1" name="PIR1" netid="HI" source="ITSAK Strong Motion Network" insttype="" lat="37.93723" lon="23.642595" esm:processing="automatic (Paolucci et al 2011)" esm:quality="best">
		<comp name="--.HNE" depth="0.0">
			<acc value="0.130049453728959" flag="0"/>
			<vel value="0.0362413355094332" flag="0"/>
			<psa03 value="0.233006998070155" flag="0"/>
			<psa10 value="0.0133850323176835" flag="0"/>
			<psa30 value="0.002478666699505" flag="0"/>
		</comp>
		<comp name="--.HNN" depth="0.0">
			<acc value="0.131683159547072" flag="0"/>
			<vel value="0.0383318933323601" flag="0"/>
			<psa03 value="0.199617119487887" flag="0"/>
			<psa10 value="0.017523343335488" flag="0"/>
			<psa30 value="0.002541111252815" flag="0"/>
		</comp>
		<comp name="--.HNZ" depth="0.0">
			<acc value="0.0642023342371225" flag="0"/>
			<vel value="0.0188292423932453" flag="0"/>
			<psa03 value="0.0914123993728968" flag="0"/>
			<psa10 value="0.0105733819971502" flag="0"/>
			<psa30 value="0.00193727166807455" flag="0"/>
		</comp>
	</station>
	<station code="SKY1" name="SKY1" netid="HI" source="ITSAK Strong Motion Network" insttype="" lat="38.904483" lon="24.564572" esm:processing="automatic (Paolucci et al 2011)" esm:quality="best">
		<comp name="--.HNE" depth="0.0">
			<acc value="0.210961372695175" flag="0"/>
			<vel value="0.0935809033448887" flag="0"/>
			<psa03 value="0.395715505877012" flag="0"/>
			<psa10 value="0.0648404453613864" flag="0"/>
			<psa30 value="0.00658597712198423" flag="0"/>
		</comp>
		<comp name="--.HNN" depth="0.0">
			<acc value="0.258088261653765" flag="0"/>
			<vel value="0.101802262755563" flag="0"/>
			<psa03 value="0.830782451924692" flag="0"/>
			<psa10 value="0.0466675702475884" flag="0"/>
			<psa30 value="0.00313162787164467" flag="0"/>
		</comp>
		<comp name="--.HNZ" depth="0.0">
			<acc value="0.179534287734312" flag="0"/>
			<vel value="0.0780696600908778" flag="0"/>
			<psa03 value="0.68577034558506" flag="0"/>
			<psa10 value="0.0324594352782944" flag="0"/>
			<psa30 value="0.00288466338646025" flag="0"/>
		</comp>
	</station>
	<station code="THV2" name="THV2" netid="HI" source="ITSAK Strong Motion Network" insttype="" lat="38.316117" lon="23.319807" esm:processing="automatic (Paolucci et al 2011)" esm:quality="best">
		<comp name="--.HNE" depth="0.0">
			<acc value="0.0743692093926992" flag="0"/>
			<vel value="0.0287521252643461" flag="0"/>
			<psa03 value="0.148909031158977" flag="0"/>
			<psa10 value="0.0272091549729724" flag="0"/>
			<psa30 value="0.00234513306189018" flag="0"/>
		</comp>
		<comp name="--.HNN" depth="0.0">
			<acc value="0.0951331718026341" flag="0"/>
			<vel value="0.035686265433371" flag="0"/>
			<psa03 value="0.202935860171326" flag="0"/>
			<psa10 value="0.032609448965936" flag="0"/>
			<psa30 value="0.00336956655057926" flag="0"/>
		</comp>
		<comp name="--.HNZ" depth="0.0">
			<acc value="0.05870956615544" flag="0"/>
			<vel value="0.0216486380844396" flag="0"/>
			<psa03 value="0.1641259454552" flag="0"/>
			<psa10 value="0.0223803107107453" flag="0"/>
			<psa30 value="0.00178333480384377" flag="0"/>
		</comp>
	</station>
	<station code="TRP1" name="TRP1" netid="HI" source="ITSAK Strong Motion Network" insttype="" lat="37.511219" lon="22.363399" esm:processing="automatic (Paolucci et al 2011)" esm:quality="best">
		<comp name="--.HNE" depth="0.0">
			<acc value="0.004308019268174" flag="0"/>
			<vel value="0.00262566659852091" flag="0"/>
			<psa03 value="0.0097075727665457" flag="0"/>
			<psa10 value="0.00198233889834773" flag="0"/>
			<psa30 value="0.000554949627270619" flag="0"/>
		</comp>
		<comp name="--.HNN" depth="0.0">
			<acc value="0.00595554326810954" flag="0"/>
			<vel value="0.00306424795478934" flag="0"/>
			<psa03 value="0.00930782623320566" flag="0"/>
			<psa10 value="0.00271423433595205" flag="0"/>
			<psa30 value="0.000413879552905709" flag="0"/>
		</comp>
		<comp name="--.HNZ" depth="0.0">
			<acc value="0.00331679473785348" flag="0"/>
			<vel value="0.0012711203758887" flag="0"/>
			<psa03 value="0.00604446812469948" flag="0"/>
			<psa10 value="0.00131746907273694" flag="0"/>
			<psa30 value="0.00032982479198196" flag="0"/>
		</comp>
	</station>
	<station code="ACHA" name="ACHA" netid="HL" source="National Observatory of Athens Seismic Network" insttype="" lat="38.07458" lon="23.74127" esm:processing="automatic (Paolucci et al 2011)" esm:quality="best">
		<comp name="00.HNE" depth="0.0">
			<acc value="0.124412299260024" flag="0"/>
			<vel value="0.0449160455840688" flag="0"/>
			<psa03 value="0.250462216892737" flag="0"/>
			<psa10 value="0.0173572335815218" flag="0"/>
			<psa30 value="0.00423738778947767" flag="0"/>
		</comp>
		<comp name="00.HNN" depth="0.0">
			<acc value="0.0969621077904805" flag="0"/>
			<vel value="0.0619427162264828" flag="0"/>
			<psa03 value="0.235249396618038" flag="0"/>
			<psa10 value="0.0253526376128238" flag="0"/>
			<psa30 value="0.00412300354541721" flag="0"/>
		</comp>
		<comp name="00.HNZ" depth="0.0">
			<acc value="0.079371060710704" flag="0"/>
			<vel value="0.0248054533535778" flag="0"/>
			<psa03 value="0.109206796914551" flag="0"/>
			<psa10 value="0.0154718271201237" flag="0"/>
			<psa30 value="0.00289550972997461" flag="0"/>
		</comp>
	</station>
	<station code="ALNA" name="ALNA" netid="HL" source="National Observatory of Athens Seismic Network" insttype="" lat="39.14804" lon="23.86669" esm:processing="automatic (Paolucci et al 2011)" esm:quality="best">
		<comp name="00.HNE" depth="0.0">
			<acc value="0.0342077312395942" flag="0"/>
			<vel value="0.0311267441014088" flag="0"/>
			<psa03 value="0.0677918867133247" flag="0"/>
			<psa10 value="0.0662243020350051" flag="0"/>
			<psa30 value="0.00221152358591748" flag="0"/>
		</comp>
		<comp name="00.HNN" depth="0.0">
			<acc value="0.0296689323822492" flag="0"/>
			<vel value="0.0240127570974011" flag="0"/>
			<psa03 value="0.0800679343161769" flag="0"/>
			<psa10 value="0.0304423435308699" flag="0"/>
			<psa30 value="0.00128354888297986" flag="0"/>
		</comp>
		<comp name="00.HNZ" depth="0.0">
			<acc value="0.0242979981874383" flag="0"/>
			<vel value="0.0178099359352235" flag="0"/>
			<psa03 value="0.0565144521384171" flag="0"/>
			<psa10 value="0.0192562468818409" flag="0"/>
			<psa30 value="0.00102394887325426" flag="0"/>
		</comp>
	</station>
	<station code="DRPA" name="DRPA" netid="HL" source="National Observatory of Athens Seismic Network" insttype="" lat="37.94738" lon="23.63024" esm:processing="automatic (Paolucci et al 2011)" esm:quality="best">
		<comp name="00.HNE" depth="0.0">
			<acc value="0.0676767626634171" flag="0"/>
			<vel value="0.024019087507033" flag="0"/>
			<psa03 value="0.0983104396676803" flag="0"/>
			<psa10 value="0.0089433890181172" flag="0"/>
			<psa30 value="0.00204034828805865" flag="0"/>
		</comp>
		<comp name="00.HNN" depth="0.0">
			<acc value="0.083971385926894" flag="0"/>
			<vel value="0.0270075362333018" flag="0"/>
			<psa03 value="0.13560509775561" flag="0"/>
			<psa10 value="0.0111976511644493" flag="0"/>
			<psa30 value="0.00289804739808293" flag="0"/>
		</comp>
		<comp name="00.HNZ" depth="0.0">
			<acc value="0.0488115653413884" flag="0"/>
			<vel value="0.0162268491947753" flag="0"/>
			<psa03 value="0.0613799046593186" flag="0"/>
			<psa10 value="0.00812922039594953" flag="0"/>
			<psa30 value="0.00137462554136042" flag="0"/>
		</comp>
	</station>
	<station code="ELFA" name="ELFA" netid="HL" source="National Observatory of Athens Seismic Network" insttype="" lat="38.04472" lon="23.5405" esm:processing="automatic (Paolucci et al 2011)" esm:quality="best">
		<comp name="00.HNE" depth="0.0">
			<acc value="0.0693068462324315" flag="0"/>
			<vel value="0.0294965204944407" flag="0"/>
			<psa03 value="0.142875037686542" flag="0"/>
			<psa10 value="0.0447246790403034" flag="0"/>
			<psa30 value="0.0028308571137259" flag="0"/>
		</comp>
		<comp name="00.HNN" depth="0.0">
			<acc value="0.0674846440919401" flag="0"/>
			<vel value="0.0413467308548499" flag="0"/>
			<psa03 value="0.119625737118129" flag="0"/>
			<psa10 value="0.0285439677727941" flag="0"/>
			<psa30 value="0.00223438051674123" flag="0"/>
		</comp>
		<comp name="00.HNZ" depth="0.0">
			<acc value="0.0406165519086546" flag="0"/>
			<vel value="0.0166780799262277" flag="0"/>
			<psa03 value="0.0770365407926644" flag="0"/>
			<psa10 value="0.0237655587266335" flag="0"/>
			<psa30 value="0.00152602640425983" flag="0"/>
		</comp>
	</station>
	<station code="KRYO" name="KRYO" netid="HL" source="National Observatory of Athens Seismic Network" insttype="" lat="37.971151" lon="22.617961" esm:processing="automatic (Paolucci et al 2011)" esm:quality="best">
		<comp name="--.HNE" depth="0.0">
			<acc value="0.0171260390050159" flag="0"/>
			<vel value="0.0105260364744872" flag="0"/>
			<psa03 value="0.0302019668779285" flag="0"/>
			<psa10 value="0.00835222704405266" flag="0"/>
			<psa30 value="0.00230229397401018" flag="0"/>
		</comp>
		<comp name="--.HNN" depth="0.0">
			<acc value="0.0196932621106542" flag="0"/>
			<vel value="0.00784308383295997" flag="0"/>
			<psa03 value="0.0564950237680681" flag="0"/>
			<psa10 value="0.0131703212191398" flag="0"/>
			<psa30 value="0.00148337534966864" flag="0"/>
		</comp>
		<comp name="--.HNZ" depth="0.0">
			<acc value="0.011541852747624" flag="0"/>
			<vel value="0.00648163057412504" flag="0"/>
			<psa03 value="0.0288369024907697" flag="0"/>
			<psa10 value="0.00852644108487309" flag="0"/>
			<psa30 value="0.00078460270524549" flag="0"/>
		</comp>
	</station>
	<station code="LKR" name="LKR" netid="HL" source="National Observatory of Athens Seismic Network" insttype="" lat="38.64957" lon="22.998812" esm:processing="automatic (Paolucci et al 2011)" esm:quality="best">
		<comp name="--.HNE" depth="0.0">
			<acc value="0.0236831143822744" flag="0"/>
			<vel value="0.00693050364241097" flag="0"/>
			<psa03 value="0.0264665709887924" flag="0"/>
			<psa10 value="0.00155945854085044" flag="0"/>
			<psa30 value="0.000375194125602856" flag="0"/>
		</comp>
		<comp name="--.HNN" depth="0.0">
			<acc value="0.0230514533206824" flag="0"/>
			<vel value="0.00493337767095316" flag="0"/>
			<psa03 value="0.0316986806112026" flag="0"/>
			<psa10 value="0.00215376673897621" flag="0"/>
			<psa30 value="0.000251834625516336" flag="0"/>
		</comp>
		<comp name="--.HNZ" depth="0.0">
			<acc value="0.0205787572163661" flag="0"/>
			<vel value="0.00525201872125439" flag="0"/>
			<psa03 value="0.0154524259911433" flag="0"/>
			<psa10 value="0.00224586276176019" flag="0"/>
			<psa30 value="0.000411371444047594" flag="0"/>
		</comp>
	</station>
	<station code="NOAC" name="NOAC" netid="HL" source="National Observatory of Athens Seismic Network" insttype="" lat="37.97384" lon="23.71767" esm:processing="automatic (Paolucci et al 2011)" esm:quality="best">
		<comp name="00.HNE" depth="0.0">
			<acc value="0.121896630416415" flag="0"/>
			<vel value="0.0364417031900453" flag="0"/>
			<psa03 value="0.153456509490719" flag="0"/>
			<psa10 value="0.0137655165854008" flag="0"/>
			<psa30 value="0.00174180382345622" flag="0"/>
		</comp>
		<comp name="00.HNN" depth="0.0">
			<acc value="0.100294166549685" flag="0"/>
			<vel value="0.0312451872920865" flag="0"/>
			<psa03 value="0.198855069005539" flag="0"/>
			<psa10 value="0.0117576045085763" flag="0"/>
			<psa30 value="0.00414420953354105" flag="0"/>
		</comp>
		<comp name="00.HNZ" depth="0.0">
