<?xml version="1.0" encoding="UTF-8" standalone="yes"?>
<!DOCTYPE earthquake SYSTEM "stationlist.dtd">
<stationlist created="" xmlns="ch.ethz.sed.shakemap.usgs.xml">
  <station code="ACOR" name="ACOR" netid="HA" insttype="Horizon,120s,1200" commtype="DIG" lat="37.8905" lon="22.8694">
    <comp name="--.HHZ">
      <acc value="0.0107276802" flag="0"/>
      <vel value="0.0039537032" flag="0"/>
      <psa03 value="0.0179500652" flag="0"/>
      <psa10 value="0.0045224794" flag="0"/>
      <psa30 value="0.0006413557" flag="0"/>
    </comp>
    <comp name="--.HHE">
      <acc value="0.0095101826" flag="0"/>
      <vel value="0.0059551124" flag="0"/>
      <psa03 value="0.0207579200" flag="0"/>
      <psa10 value="0.0064978813" flag="0"/>
      <psa30 value="0.0005249894" flag="0"/>
    </comp>
    <comp name="--.HHN">
      <acc value="0.0105132817" flag="0"/>
      <vel value="0.0061996925" flag="0"/>
      <psa03 value="0.0158339406" flag="0"/>
      <psa10 value="0.0093293262" flag="0"/>
      <psa30 value="0.0009013440" flag="0"/>
    </comp>
  </station>
  <station code="ALIO" name="ALIO" netid="HA" insttype="25" commtype="DIG" lat="38.0657" lon="23.6727">
    <comp name="--.HHN">
      <acc value="0.0394894849" flag="0"/>
      <vel value="0.0089961782" flag="0"/>
      <psa03 value="0.0272826225" flag="0"/>
      <psa10 value="0.0033620252" flag="0"/>
      <psa30 value="0.0003585500" flag="0"/>
    </comp>
    <comp name="--.HHE">
      <acc value="0.0626014795" flag="0"/>
      <vel value="0.0137392584" flag="0"/>
      <psa03 value="0.0460554939" flag="0"/>
      <psa10 value="0.0033289754" flag="0"/>
      <psa30 value="0.0005595521" flag="0"/>
    </comp>
    <comp name="--.HHZ">
      <acc value="0.0446826011" flag="0"/>
      <vel value="0.0082617812" flag="0"/>
      <psa03 value="0.0343259225" flag="0"/>
      <psa10 value="0.0028711833" flag="0"/>
      <psa30 value="0.0009658483" flag="0"/>
    </comp>
  </station>
  <station code="AMPE" name="AMPE" netid="HA" insttype="1s-100Hz," commtype="DIG" lat="38.3015" lon="23.2688">
    <comp name="--.HHN">
      <acc value="0.0396539786" flag="0"/>
      <vel value="0.0150997473" flag="0"/>
      <psa03 value="0.0653562098" flag="0"/>
      <psa10 value="0.0189602969" flag="0"/>
      <psa30 value="0.0022986294" flag="0"/>
    </comp>
    <comp name="--.HHE">
      <acc value="0.0381007115" flag="0"/>
      <vel value="0.0191392251" flag="0"/>
      <psa03 value="0.0792278127" flag="0"/>
      <psa10 value="0.0199931558" flag="0"/>
      <psa30 value="0.0037332310" flag="0"/>
    </comp>
    <comp name="--.HHZ">
      <acc value="0.0272424989" flag="0"/>
      <vel value="0.0088366854" flag="0"/>
      <psa03 value="0.0436346313" flag="0"/>
      <psa10 value="0.0095932804" flag="0"/>
      <psa30 value="0.0015256149" flag="0"/>
    </comp>
  </station>
  <station code="ANTK" name="ANTK" netid="HA" insttype="25" commtype="DIG" lat="38.3605" lon="22.6385">
    <comp name="--.HHE">
      <acc value="0.0041255999" flag="0"/>
      <vel value="0.0017882946" flag="0"/>
      <psa03 value="0.0060282431" flag="0"/>
      <psa10 value="0.0021437892" flag="0"/>
      <psa30 value="0.0003368756" flag="0"/>
    </comp>
    <comp name="--.HHZ">
      <acc value="0.0024930343" flag="0"/>
      <vel value="0.0014658500" flag="0"/>
      <psa03 value="0.0059586447" flag="0"/>
      <psa10 value="0.0025333230" flag="0"/>
      <psa30 value="0.0001986503" flag="0"/>
    </comp>
    <comp name="--.HHN">
      <acc value="0.0034381649" flag="0"/>
      <vel value="0.0022542046" flag="0"/>
      <psa03 value="0.0075554546" flag="0"/>
      <psa10 value="0.0027180837" flag="0"/>
      <psa30 value="0.0002983964" flag="0"/>
    </comp>
  </station>
  <station code="ATAL" name="ATAL" netid="HA" insttype="120s," commtype="DIG" lat="38.6926" lon="23.0213">
    <comp name="--.HHN">
      <acc value="0.0188380735" flag="0"/>
      <vel value="0.0057270331" flag="0"/>
      <psa03 value="0.0340596513" flag="0"/>
      <psa10 value="0.0028090130" flag="0"/>
      <psa30 value="0.0005157094" flag="0"/>
    </comp>
    <comp name="--.HHE">
      <acc value="0.0145176610" flag="0"/>
      <vel value="0.0053495332" flag="0"/>
      <psa03 value="0.0387714491" flag="0"/>
      <psa10 value="0.0029211314" flag="0"/>
      <psa30 value="0.0004900652" flag="0"/>
    </comp>
    <comp name="--.HHZ">
      <acc value="0.0229464489" flag="0"/>
      <vel value="0.0054829523" flag="0"/>
      <psa03 value="0.0351435624" flag="0"/>
      <psa10 value="0.0030415146" flag="0"/>
      <psa30 value="0.0006637859" flag="0"/>
    </comp>
  </station>
  <station code="ATHU" name="ATHU" netid="HA" insttype="60s," commtype="DIG" lat="37.9665" lon="23.7845">
    <comp name="--.HHN">
      <acc value="0.0492981637" flag="0"/>
      <vel value="0.0120350332" flag="0"/>
      <psa03 value="0.0646507084" flag="0"/>
      <psa10 value="0.0069768585" flag="0"/>
      <psa30 value="0.0015654392" flag="0"/>
    </comp>
    <comp name="--.HHZ">
      <acc value="0.0290811842" flag="0"/>
      <vel value="0.0094114798" flag="0"/>
      <psa03 value="0.0336454136" flag="0"/>
      <psa10 value="0.0058120219" flag="0"/>
      <psa30 value="0.0007503312" flag="0"/>
    </comp>
    <comp name="--.HHE">
      <acc value="0.0686342888" flag="0"/>
      <vel value="0.0212803032" flag="0"/>
      <psa03 value="0.1358766086" flag="0"/>
      <psa10 value="0.0079212603" flag="0"/>
      <psa30 value="0.0013341203" flag="0"/>
    </comp>
  </station>
  <station code="AXAR" name="AXAR" netid="HA" insttype="Horizon,120s,1200" commtype="DIG" lat="38.7664" lon="22.659">
    <comp name="--.HHE">
      <acc value="0.0202115818" flag="0"/>
      <vel value="0.0109226929" flag="0"/>
      <psa03 value="0.0552638422" flag="0"/>
      <psa10 value="0.0134223681" flag="0"/>
      <psa30 value="0.0020930178" flag="0"/>
    </comp>
    <comp name="--.HHN">
      <acc value="0.0189497940" flag="0"/>
      <vel value="0.0101696590" flag="0"/>
      <psa03 value="0.0664825660" flag="0"/>
      <psa10 value="0.0095651144" flag="0"/>
      <psa30 value="0.0010333544" flag="0"/>
    </comp>
    <comp name="--.HHZ">
      <acc value="0.0093537713" flag="0"/>
      <vel value="0.0050906324" flag="0"/>
      <psa03 value="0.0291898793" flag="0"/>
      <psa10 value="0.0099421057" flag="0"/>
      <psa30 value="0.0006966409" flag="0"/>
    </comp>
  </station>
  <station code="DOMV" name="DOMV" netid="HA" insttype="60" commtype="DIG" lat="38.2569" lon="22.9795">
    <comp name="--.HHE">
      <acc value="0.1106301416" flag="0"/>
      <vel value="0.0250838483" flag="0"/>
      <psa03 value="0.1177054505" flag="0"/>
      <psa10 value="0.0097851561" flag="0"/>
      <psa30 value="0.0008529952" flag="0"/>
    </comp>
    <comp name="--.HHZ">
      <acc value="0.0670194760" flag="0"/>
      <vel value="0.0173841951" flag="0"/>
      <psa03 value="0.0484012939" flag="0"/>
      <psa10 value="0.0061211522" flag="0"/>
      <psa30 value="0.0004301797" flag="0"/>
    </comp>
    <comp name="--.HHN">
      <acc value="0.1409332888" flag="0"/>
      <vel value="0.0301158465" flag="0"/>
      <psa03 value="0.1219273430" flag="0"/>
      <psa10 value="0.0086693985" flag="0"/>
      <psa30 value="0.0009236561" flag="0"/>
    </comp>
  </station>
  <station code="EPID" name="EPID" netid="HA" insttype="30" commtype="DIG" lat="37.6144" lon="23.1189">
    <comp name="--.HHE">
      <acc value="0.0454004087" flag="0"/>
      <vel value="0.0210981803" flag="0"/>
      <psa03 value="0.1066733837" flag="0"/>
      <psa10 value="0.0084241877" flag="0"/>
      <psa30 value="0.0010835517" flag="0"/>
    </comp>
    <comp name="--.HHN">
      <acc value="0.0447208599" flag="0"/>
      <vel value="0.0207413064" flag="0"/>
      <psa03 value="0.0549851448" flag="0"/>
      <psa10 value="0.0071604912" flag="0"/>
      <psa30 value="0.0009486724" flag="0"/>
    </comp>
    <comp name="--.HHZ">
      <acc value="0.0252002121" flag="0"/>
      <vel value="0.0127969599" flag="0"/>
      <psa03 value="0.0462538986" flag="0"/>
      <psa10 value="0.0056875539" flag="0"/>
      <psa30 value="0.0011186370" flag="0"/>
    </comp>
  </station>
  <station code="ERTR" name="ERTR" netid="HA" insttype="Horizon,120s,1200" commtype="DIG" lat="38.4066" lon="23.7865">
    <comp name="--.HHE">
      <acc value="0.8450488667" flag="0"/>
      <vel value="0.1963242346" flag="0"/>
      <psa03 value="0.9413974306" flag="0"/>
      <psa10 value="0.0796292790" flag="0"/>
      <psa30 value="0.0076584095" flag="0"/>
    </comp>
    <comp name="--.HHZ">
      <acc value="0.5717537998" flag="0"/>
      <vel value="0.2241314467" flag="0"/>
      <psa03 value="0.9170186988" flag="0"/>
      <psa10 value="0.1334604228" flag="0"/>
      <psa30 value="0.0091007703" flag="0"/>
    </comp>
    <comp name="--.HHN">
      <acc value="0.8086291148" flag="0"/>
      <vel value="0.2617858291" flag="0"/>
      <psa03 value="1.1756162310" flag="0"/>
      <psa10 value="0.1628653585" flag="0"/>
      <psa30 value="0.0172952518" flag="0"/>
    </comp>
  </station>
  <station code="KARY" name="KARY" netid="HA" insttype="60" commtype="DIG" lat="38.0321" lon="24.437">
    <comp name="--.HHE">
      <acc value="0.0753409329" flag="0"/>
      <vel value="0.0117692872" flag="0"/>
      <psa03 value="0.0608468634" flag="0"/>
      <psa10 value="0.0042820998" flag="0"/>
      <psa30 value="0.0006026300" flag="0"/>
    </comp>
    <comp name="--.HHN">
      <acc value="0.0649721226" flag="0"/>
      <vel value="0.0207694766" flag="0"/>
      <psa03 value="0.0553306401" flag="0"/>
      <psa10 value="0.0071464847" flag="0"/>
      <psa30 value="0.0005242798" flag="0"/>
    </comp>
    <comp name="--.HHZ">
      <acc value="0.0536292537" flag="0"/>
      <vel value="0.0119691705" flag="0"/>
      <psa03 value="0.0448548892" flag="0"/>
      <psa10 value="0.0059214746" flag="0"/>
      <psa30 value="0.0008479440" flag="0"/>
    </comp>
  </station>
  <station code="LOUT" name="LOUT" netid="HA" insttype="30" commtype="DIG" lat="37.9879" lon="22.9743">
    <comp name="--.HHZ">
      <acc value="0.0564283939" flag="0"/>
      <vel value="0.0118370688" flag="0"/>
      <psa03 value="0.0709409332" flag="0"/>
      <psa10 value="0.0047839382" flag="0"/>
      <psa30 value="0.0005157857" flag="0"/>
    </comp>
    <comp name="--.HHN">
      <acc value="0.0737298110" flag="0"/>
      <vel value="0.0199089502" flag="0"/>
      <psa03 value="0.1304406716" flag="0"/>
      <psa10 value="0.0089447129" flag="0"/>
      <psa30 value="0.0009283502" flag="0"/>
    </comp>
    <comp name="--.HHE">
      <acc value="0.1126339325" flag="0"/>
      <vel value="0.0399773483" flag="0"/>
      <psa03 value="0.1828306587" flag="0"/>
      <psa10 value="0.0118906139" flag="0"/>
      <psa30 value="0.0014832023" flag="0"/>
    </comp>
  </station>
  <station code="MDRA" name="MDRA" netid="HA" insttype="60" commtype="DIG" lat="38.0606" lon="23.4662">
    <comp name="--.HHE">
      <acc value="0.0613453860" flag="0"/>
      <vel value="0.0267421176" flag="0"/>
      <psa03 value="0.1100329539" flag="0"/>
      <psa10 value="0.0140716866" flag="0"/>
      <psa30 value="0.0014537287" flag="0"/>
    </comp>
    <comp name="--.HHZ">
      <acc value="0.0807339658" flag="0"/>
      <vel value="0.0312371713" flag="0"/>
      <psa03 value="0.1071928733" flag="0"/>
      <psa10 value="0.0261743697" flag="0"/>
      <psa30 value="0.0014959275" flag="0"/>
    </comp>
    <comp name="--.HHN">
      <acc value="0.0943444098" flag="0"/>
      <vel value="0.0386271343" flag="0"/>
      <psa03 value="0.1572616437" flag="0"/>
      <psa10 value="0.0140749973" flag="0"/>
      <psa30 value="0.0014062960" flag="0"/>
    </comp>
  </station>
  <station code="MRKA" name="MRKA" netid="HA" insttype="Horizon,120s,1200" commtype="DIG" lat="38.7047" lon="23.5863">
    <comp name="--.HHN">
      <acc value="0.2093351156" flag="0"/>
      <vel value="0.0557024367" flag="0"/>
      <psa03 value="0.1381827339" flag="0"/>
      <psa10 value="0.0320960734" flag="0"/>
      <psa30 value="0.0020835142" flag="0"/>
    </comp>
    <comp name="--.HHE">
      <acc value="0.2296154815" flag="0"/>
      <vel value="0.0576338513" flag="0"/>
      <psa03 value="0.1795816301" flag="0"/>
      <psa10 value="0.0269423021" flag="0"/>
      <psa30 value="0.0041563057" flag="0"/>
    </comp>
    <comp name="--.HHZ">
      <acc value="0.0875124773" flag="0"/>
      <vel value="0.0244273934" flag="0"/>
      <psa03 value="0.1047242542" flag="0"/>
      <psa10 value="0.0234067537" flag="0"/>
      <psa30 value="0.0030036550" flag="0"/>
    </comp>
  </station>
  <station code="MRTH" name="MRTH" netid="HA" insttype="S100," commtype="DIG" lat="38.1225" lon="23.9409">
    <comp name="--.HHE">
      <acc value="0.2756556140" flag="0"/>
      <vel value="0.1050090606" flag="0"/>
      <psa03 value="0.3108726041" flag="0"/>
      <psa10 value="0.0762801778" flag="0"/>
      <psa30 value="0.0053247502" flag="0"/>
    </comp>
    <comp name="--.HHN">
      <acc value="0.2542298372" flag="0"/>
      <vel value="0.1016728278" flag="0"/>
      <psa03 value="0.5662012112" flag="0"/>
      <psa10 value="0.0190028960" flag="0"/>
      <psa30 value="0.0025279122" flag="0"/>
    </comp>
    <comp name="--.HHZ">
      <acc value="0.1705542347" flag="0"/>
      <vel value="0.0428812724" flag="0"/>
      <psa03 value="0.2593349988" flag="0"/>
      <psa10 value="0.0138799402" flag="0"/>
      <psa30 value="0.0020445948" flag="0"/>
    </comp>
  </station>
  <station code="PRDM" name="PRDM" netid="HA" insttype="25" commtype="DIG" lat="38.2804" lon="22.847">
    <comp name="--.HHN">
      <acc value="0.0191094117" flag="0"/>
      <vel value="0.0046092612" flag="0"/>
      <psa03 value="0.0235078563" flag="0"/>
      <psa10 value="0.0027944460" flag="0"/>
      <psa30 value="0.0002502739" flag="0"/>
    </comp>
    <comp name="--.HHE">
      <acc value="0.0154260053" flag="0"/>
      <vel value="0.0046545188" flag="0"/>
      <psa03 value="0.0115220510" flag="0"/>
      <psa10 value="0.0040689755" flag="0"/>
      <psa30 value="0.0006000455" flag="0"/>
    </comp>
    <comp name="--.HHZ">
      <acc value="0.0074291299" flag="0"/>
      <vel value="0.0020932690" flag="0"/>
      <psa03 value="0.0092844796" flag="0"/>
      <psa10 value="0.0014762592" flag="0"/>
      <psa30 value="0.0002968280" flag="0"/>
    </comp>
  </station>
  <station code="PSAH" name="PSAH" netid="HA" insttype="25" commtype="DIG" lat="38.5694" lon="23.6473">
    <comp name="--.HHE">
      <acc value="0.0922893363" flag="0"/>
      <vel value="0.0210679963" flag="0"/>
      <psa03 value="0.0626223827" flag="0"/>
      <psa10 value="0.0173466198" flag="0"/>
      <psa30 value="0.0017920040" flag="0"/>
    </comp>
    <comp name="--.HHN">
      <acc value="0.0886946379" flag="0"/>
      <vel value="0.0208056676" flag="0"/>
      <psa03 value="0.0585520033" flag="0"/>
      <psa10 value="0.0121105988" flag="0"/>
      <psa30 value="0.0016684372" flag="0"/>
    </comp>
    <comp name="--.HHZ">
      <acc value="0.0773791861" flag="0"/>
      <vel value="0.0239479469" flag="0"/>
      <psa03 value="0.0724551623" flag="0"/>
      <psa10 value="0.0169233456" flag="0"/>
      <psa30 value="0.0015200164" flag="0"/>
    </comp>
  </station>
  <station code="THAL" name="THAL" netid="HA" insttype="30" commtype="DIG" lat="38.0357" lon="22.6634">
    <comp name="--.HHZ">
      <acc value="0.0225765089" flag="0"/>
      <vel value="0.0072685941" flag="0"/>
      <psa03 value="0.0390306719" flag="0"/>
      <psa10 value="0.0048325128" flag="0"/>
      <psa30 value="0.0006482888" flag="0"/>
    </comp>
    <comp name="--.HHN">
      <acc value="0.0359687943" flag="0"/>
      <vel value="0.0170080129" flag="0"/>
      <psa03 value="0.0814246493" flag="0"/>
      <psa10 value="0.0128287728" flag="0"/>
      <psa30 value="0.0013863812" flag="0"/>
    </comp>
    <comp name="--.HHE">
      <acc value="0.0360577535" flag="0"/>
      <vel value="0.0145550713" flag="0"/>
      <psa03 value="0.0694260476" flag="0"/>
      <psa10 value="0.0119975410" flag="0"/>
      <psa30 value="0.0008917120" flag="0"/>
    </comp>
  </station>
  <station code="THIV" name="THIV" netid="HA" insttype="25" commtype="DIG" lat="38.299" lon="23.332">
    <comp name="--.HHE">
      <acc value="0.0871633529" flag="0"/>
      <vel value="0.0275102128" flag="0"/>
      <psa03 value="0.1010014584" flag="0"/>
      <psa10 value="0.0217442557" flag="0"/>
      <psa30 value="0.0017084494" flag="0"/>
    </comp>
    <comp name="--.HHZ">
      <acc value="0.0528709316" flag="0"/>
      <vel value="0.0198386758" flag="0"/>
      <psa03 value="0.1198741391" flag="0"/>
      <psa10 value="0.0072386688" flag="0"/>
      <psa30 value="0.0009621341" flag="0"/>
    </comp>
    <comp name="--.HHN">
      <acc value="0.0879067256" flag="0"/>
      <vel value="0.0388646493" flag="0"/>
      <psa03 value="0.1951457296" flag="0"/>
      <psa10 value="0.0178086441" flag="0"/>
      <psa30 value="0.0011992204" flag="0"/>
    </comp>
  </station>
  <station code="VILL" name="VILL" netid="HA" insttype="Horizon,120s,1200" commtype="DIG" lat="38.1642" lon="23.3122">
    <comp name="--.HHE">
      <acc value="0.0306449206" flag="0"/>
      <vel value="0.0149837139" flag="0"/>
      <psa03 value="0.0640463839" flag="0"/>
      <psa10 value="0.0149183803" flag="0"/>
      <psa30 value="0.0012872839" flag="0"/>
    </comp>
    <comp name="--.HHZ">
      <acc value="0.0278659279" flag="0"/>
      <vel value="0.0111619379" flag="0"/>
      <psa03 value="0.0360204209" flag="0"/>
      <psa10 value="0.0068766629" flag="0"/>
      <psa30 value="0.0006248280" flag="0"/>
    </comp>
    <comp name="--.HHN">
      <acc value="0.0417750924" flag="0"/>
      <vel value="0.0152306048" flag="0"/>
      <psa03 value="0.0457795610" flag="0"/>
      <psa10 value="0.0090757656" flag="0"/>
      <psa30 value="0.0010749127" flag="0"/>
    </comp>
  </station>
  <station code="KIF1" name="KIF1" netid="HI" insttype="unknown" commtype="DIG" lat="38.0773" lon="23.8146">
    <comp name="--.HNE">
      <acc value="0.0730790601" flag="0"/>
      <vel value="0.0324084658" flag="0"/>
      <psa03 value="0.2150418946" flag="0"/>
      <psa10 value="0.0152849529" flag="0"/>
      <psa30 value="0.0026431207" flag="0"/>
    </comp>
    <comp name="--.HNZ">
      <acc value="0.0610131353" flag="0"/>
      <vel value="0.0200651503" flag="0"/>
      <psa03 value="0.0543224321" flag="0"/>
      <psa10 value="0.0125098154" flag="0"/>
      <psa30 value="0.0016587808" flag="0"/>
    </comp>
    <comp name="--.HNN">
      <acc value="0.1109850101" flag="0"/>
      <vel value="0.0440227112" flag="0"/>
      <psa03 value="0.2510418581" flag="0"/>
      <psa10 value="0.0168360144" flag="0"/>
      <psa30 value="0.0035924296" flag="0"/>
    </comp>
  </station>
  <station code="MOS1" name="MOS1" netid="HI" insttype="unknown" commtype="DIG" lat="37.9531" lon="23.6819">
    <comp name="--.HNZ">
      <acc value="0.0824075122" flag="0"/>
      <vel value="0.0223682639" flag="0"/>
      <psa03 value="0.1401349955" flag="0"/>
      <psa10 value="0.0079655903" flag="0"/>
      <psa30 value="0.0021740095" flag="0"/>
    </comp>
    <comp name="--.HNN">
      <acc value="0.1030962348" flag="0"/>
      <vel value="0.0706283464" flag="0"/>
      <psa03 value="0.2297897758" flag="0"/>
      <psa10 value="0.0328283846" flag="0"/>
      <psa30 value="0.0035057586" flag="0"/>
    </comp>
    <comp name="--.HNE">
      <acc value="0.1127897416" flag="0"/>
      <vel value="0.0596258189" flag="0"/>
      <psa03 value="0.1920777673" flag="0"/>
      <psa10 value="0.0237442639" flag="0"/>
      <psa30 value="0.0021288610" flag="0"/>
    </comp>
  </station>
  <station code="PER1" name="PER1" netid="HI" insttype="unknown" commtype="DIG" lat="38.0119" lon="23.7027">
    <comp name="--.HNE">
