<?xml version="1.0" encoding="UTF-8" standalone="yes"?>
<!DOCTYPE earthquake SYSTEM "stationlist.dtd">
<stationlist created="" xmlns="ch.ethz.sed.shakemap.usgs.xml">
  <station code="CEYT" name="CEYT" netid="KO" insttype="CMG-3ESP" lat="37.0105" lon="35.7478">
    <comp name="--.HHN">
      <acc value="0.0059348675" flag="0"/>
      <vel value="0.0049996883" flag="0"/>
      <psa03 value="0.0202331992" flag="0"/>
      <psa10 value="0.0060738155" flag="0"/>
      <psa30 value="0.0014672622" flag="0"/>
    </comp>
    <comp name="--.HHZ">
      <acc value="0.0053605095" flag="0"/>
      <vel value="0.0059132330" flag="0"/>
      <psa03 value="0.0126763239" flag="0"/>
      <psa10 value="0.0142787896" flag="0"/>
      <psa30 value="0.0012537909" flag="0"/>
    </comp>
    <comp name="--.HHE">
      <acc value="0.0067813102" flag="0"/>
      <vel value="0.0063287362" flag="0"/>
      <psa03 value="0.0244733283" flag="0"/>
      <psa10 value="0.0114333073" flag="0"/>
      <psa30 value="0.0024649862" flag="0"/>
    </comp>
  </station>
  <station code="DARE" name="DARE" netid="KO" insttype="CMG-3ESP" lat="38.5712" lon="37.4832">
    <comp name="--.HHZ">
      <acc value="0.0046661051" flag="0"/>
      <vel value="0.0049959606" flag="0"/>
      <psa03 value="0.0111253328" flag="0"/>
      <psa10 value="0.0081308520" flag="0"/>
      <psa30 value="0.0005594558" flag="0"/>
    </comp>
    <comp name="--.HHN">
      <acc value="0.0077701858" flag="0"/>
      <vel value="0.0092874383" flag="0"/>
      <psa03 value="0.0195851157" flag="0"/>
      <psa10 value="0.0171041724" flag="0"/>
      <psa30 value="0.0015789435" flag="0"/>
    </comp>
    <comp name="--.HHE">
      <acc value="0.0069135733" flag="0"/>
      <vel value="0.0046498067" flag="0"/>
      <psa03 value="0.0196576585" flag="0"/>
      <psa10 value="0.0100026652" flag="0"/>
      <psa30 value="0.0016386039" flag="0"/>
    </comp>
  </station>
  <station code="GAZ" name="GAZ" netid="KO" insttype="CMG-3T" lat="37.1721" lon="37.2096">
    <comp name="--.HHZ">
      <acc value="0.0193268773" flag="0"/>
      <vel value="0.0137359661" flag="0"/>
      <psa03 value="0.0543751926" flag="0"/>
      <psa10 value="0.0115989092" flag="0"/>
      <psa30 value="0.0052374193" flag="0"/>
    </comp>
    <comp name="--.HHN">
      <acc value="0.0286809933" flag="0"/>
      <vel value="0.0136732688" flag="0"/>
      <psa03 value="0.0864143097" flag="0"/>
      <psa10 value="0.0173239405" flag="0"/>
      <psa30 value="0.0023377406" flag="0"/>
    </comp>
    <comp name="--.HHE">
      <acc value="0.0434344661" flag="0"/>
      <vel value="0.0229936754" flag="0"/>
      <psa03 value="0.0874072707" flag="0"/>
      <psa10 value="0.0257500280" flag="0"/>
      <psa30 value="0.0016481477" flag="0"/>
    </comp>
  </station>
  <station code="KHMN" name="KHMN" netid="KO" insttype="CMG-5T" lat="37.3916" lon="37.1574">
    <comp name="--.HNN">
      <acc value="0.0415601056" flag="0"/>
      <vel value="0.0153668874" flag="0"/>
      <psa03 value="0.0498022114" flag="0"/>
      <psa10 value="0.0239063140" flag="0"/>
      <psa30 value="0.0027231263" flag="0"/>
    </comp>
    <comp name="--.HNZ">
      <acc value="0.0414424605" flag="0"/>
      <vel value="0.0114982462" flag="0"/>
      <psa03 value="0.0548390384" flag="0"/>
      <psa10 value="0.0091330836" flag="0"/>
      <psa30 value="0.0029932200" flag="0"/>
    </comp>
    <comp name="--.HNE">
      <acc value="0.0531182479" flag="0"/>
      <vel value="0.0219975210" flag="0"/>
      <psa03 value="0.0993856184" flag="0"/>
      <psa10 value="0.0189243810" flag="0"/>
      <psa30 value="0.0051589735" flag="0"/>
    </comp>
  </station>
  <station code="KMRS" name="KMRS" netid="KO" insttype="CMG-3T" lat="37.5053" lon="36.9">
    <comp name="--.HHE">
      <acc value="0.1161444385" flag="0"/>
      <vel value="0.0611462714" flag="0"/>
      <psa03 value="0.2151725423" flag="0"/>
      <psa10 value="0.0480639954" flag="0"/>
      <psa30 value="0.0065038988" flag="0"/>
    </comp>
    <comp name="--.HHN">
      <acc value="0.1122829798" flag="0"/>
      <vel value="0.0699658066" flag="0"/>
      <psa03 value="0.2901257264" flag="0"/>
      <psa10 value="0.0541521658" flag="0"/>
      <psa30 value="0.0067375358" flag="0"/>
    </comp>
    <comp name="--.HHZ">
      <acc value="0.0852436518" flag="0"/>
      <vel value="0.0384318464" flag="0"/>
      <psa03 value="0.1864805767" flag="0"/>
      <psa10 value="0.0228264054" flag="0"/>
      <psa30 value="0.0089138555" flag="0"/>
    </comp>
  </station>
  <station code="SARI" name="SARI" netid="KO" insttype="CMG-3T" lat="38.4072" lon="36.4181">
    <comp name="--.HHN">
      <acc value="0.0567729709" flag="0"/>
      <vel value="0.0168907751" flag="0"/>
      <psa03 value="0.0802136379" flag="0"/>
      <psa10 value="0.0175223044" flag="0"/>
      <psa30 value="0.0021331795" flag="0"/>
    </comp>
    <comp name="--.HHE">
      <acc value="0.0482995037" flag="0"/>
      <vel value="0.0150405365" flag="0"/>
      <psa03 value="0.0655571609" flag="0"/>
      <psa10 value="0.0209591854" flag="0"/>
      <psa30 value="0.0028787431" flag="0"/>
    </comp>
    <comp name="--.HHZ">
      <acc value="0.0294582100" flag="0"/>
      <vel value="0.0136546455" flag="0"/>
      <psa03 value="0.0376224251" flag="0"/>
      <psa10 value="0.0236502571" flag="0"/>
      <psa30 value="0.0034887022" flag="0"/>
    </comp>
  </station>
  <station code="ANDN" name="ANDN" netid="TU" insttype="T" lat="37.58" lon="36.3452">
    <comp name="--.HHN">
      <acc value="0.3613249955" flag="0"/>
      <vel value="0.0992507809" flag="0"/>
      <psa03 value="0.7673513386" flag="0"/>
      <psa10 value="0.1410921861" flag="0"/>
      <psa30 value="0.0152390051" flag="0"/>
    </comp>
    <comp name="--.HHE">
      <acc value="0.1709083693" flag="0"/>
      <vel value="0.0928527172" flag="0"/>
      <psa03 value="0.5396143154" flag="0"/>
      <psa10 value="0.2319004394" flag="0"/>
      <psa30 value="0.0118070407" flag="0"/>
    </comp>
    <comp name="--.HHZ">
      <acc value="0.1149542609" flag="0"/>
      <vel value="0.1107075249" flag="0"/>
      <psa03 value="0.2196395409" flag="0"/>
      <psa10 value="0.2011468279" flag="0"/>
      <psa30 value="0.0127004749" flag="0"/>
    </comp>
  </station>
</stationlist>
