<?xml version="1.0" encoding="UTF-8" standalone="yes"?>
<!DOCTYPE earthquake SYSTEM "stationlist.dtd">
<stationlist created="" xmlns="ch.ethz.sed.shakemap.usgs.xml">
  <station code="BNN" name="BNN" netid="KO" insttype="CMG-3T" lat="38.8521" lon="35.8472">
    <comp name="--.HHE">
      <acc value="0.0065175119" flag="0"/>
      <vel value="0.0085145740" flag="0"/>
      <psa03 value="0.0145960675" flag="0"/>
      <psa10 value="0.0182229549" flag="0"/>
      <psa30 value="0.0019657932" flag="0"/>
    </comp>
    <comp name="--.HHZ">
      <acc value="0.0048423903" flag="0"/>
      <vel value="0.0053171188" flag="0"/>
      <psa03 value="0.0096278860" flag="0"/>
      <psa10 value="0.0115969369" flag="0"/>
      <psa30 value="0.0014855453" flag="0"/>
    </comp>
    <comp name="--.HHN">
      <acc value="0.0073836877" flag="0"/>
      <vel value="0.0105420508" flag="0"/>
      <psa03 value="0.0167126225" flag="0"/>
      <psa10 value="0.0237050205" flag="0"/>
      <psa30 value="0.0010509814" flag="0"/>
    </comp>
  </station>
  <station code="CEYT" name="CEYT" netid="KO" insttype="CMG-3ESP" lat="37.0105" lon="35.7478">
    <comp name="--.HHE">
      <acc value="0.0067813098" flag="0"/>
      <vel value="0.0063287319" flag="0"/>
      <psa03 value="0.0244733283" flag="0"/>
      <psa10 value="0.0114333073" flag="0"/>
      <psa30 value="0.0024649841" flag="0"/>
    </comp>
    <comp name="--.HHN">
      <acc value="0.0059348676" flag="0"/>
      <vel value="0.0049996892" flag="0"/>
      <psa03 value="0.0202331992" flag="0"/>
      <psa10 value="0.0060738155" flag="0"/>
      <psa30 value="0.0014672618" flag="0"/>
    </comp>
    <comp name="--.HHZ">
      <acc value="0.0053605090" flag="0"/>
      <vel value="0.0059132330" flag="0"/>
      <psa03 value="0.0126763239" flag="0"/>
      <psa10 value="0.0142787896" flag="0"/>
      <psa30 value="0.0012537902" flag="0"/>
    </comp>
  </station>
  <station code="DARE" name="DARE" netid="KO" insttype="CMG-3ESP" lat="38.5712" lon="37.4832">
    <comp name="--.HHZ">
      <acc value="0.0046661053" flag="0"/>
      <vel value="0.0049959625" flag="0"/>
      <psa03 value="0.0111253328" flag="0"/>
      <psa10 value="0.0081308520" flag="0"/>
      <psa30 value="0.0005594558" flag="0"/>
    </comp>
    <comp name="--.HHE">
      <acc value="0.0069135728" flag="0"/>
      <vel value="0.0046498061" flag="0"/>
      <psa03 value="0.0196576585" flag="0"/>
      <psa10 value="0.0100026652" flag="0"/>
      <psa30 value="0.0016386053" flag="0"/>
    </comp>
    <comp name="--.HHN">
      <acc value="0.0077701855" flag="0"/>
      <vel value="0.0092874382" flag="0"/>
      <psa03 value="0.0195851157" flag="0"/>
      <psa10 value="0.0171041724" flag="0"/>
      <psa30 value="0.0015789412" flag="0"/>
    </comp>
  </station>
  <station code="GAZ" name="GAZ" netid="KO" insttype="CMG-3T" lat="37.1721" lon="37.2096">
    <comp name="--.HHE">
      <acc value="0.0434344657" flag="0"/>
      <vel value="0.0229936754" flag="0"/>
      <psa03 value="0.0874072707" flag="0"/>
      <psa10 value="0.0257500280" flag="0"/>
      <psa30 value="0.0016481525" flag="0"/>
    </comp>
    <comp name="--.HHN">
      <acc value="0.0286809939" flag="0"/>
      <vel value="0.0136732690" flag="0"/>
      <psa03 value="0.0864143097" flag="0"/>
      <psa10 value="0.0173239405" flag="0"/>
      <psa30 value="0.0023377418" flag="0"/>
    </comp>
    <comp name="--.HHZ">
      <acc value="0.0193268765" flag="0"/>
      <vel value="0.0137359660" flag="0"/>
      <psa03 value="0.0543751926" flag="0"/>
      <psa10 value="0.0115989099" flag="0"/>
      <psa30 value="0.0052374217" flag="0"/>
    </comp>
  </station>
  <station code="KMRS" name="KMRS" netid="KO" insttype="CMG-3T" lat="37.5053" lon="36.9">
    <comp name="--.HHE">
      <acc value="0.1161444385" flag="0"/>
      <vel value="0.0611462717" flag="0"/>
      <psa03 value="0.2151725423" flag="0"/>
      <psa10 value="0.0480639957" flag="0"/>
      <psa30 value="0.0065038993" flag="0"/>
    </comp>
    <comp name="--.HHN">
      <acc value="0.1122829797" flag="0"/>
      <vel value="0.0699658066" flag="0"/>
      <psa03 value="0.2901257264" flag="0"/>
      <psa10 value="0.0541521658" flag="0"/>
      <psa30 value="0.0067375377" flag="0"/>
    </comp>
    <comp name="--.HHZ">
      <acc value="0.0852436516" flag="0"/>
      <vel value="0.0384318463" flag="0"/>
      <psa03 value="0.1864805767" flag="0"/>
      <psa10 value="0.0228264054" flag="0"/>
      <psa30 value="0.0089138736" flag="0"/>
    </comp>
  </station>
  <station code="ANDN" name="ANDN" netid="TU" insttype="T" lat="37.58" lon="36.3452">
    <comp name="--.HHN">
      <acc value="0.3613249958" flag="0"/>
      <vel value="0.0992507810" flag="0"/>
      <psa03 value="0.7673513386" flag="0"/>
      <psa10 value="0.1410921861" flag="0"/>
      <psa30 value="0.0152390148" flag="0"/>
    </comp>
    <comp name="--.HHZ">
      <acc value="0.1149542602" flag="0"/>
      <vel value="0.1107075250" flag="0"/>
      <psa03 value="0.2196395409" flag="0"/>
      <psa10 value="0.2011468274" flag="0"/>
      <psa30 value="0.0127005104" flag="0"/>
    </comp>
    <comp name="--.HHE">
      <acc value="0.1709083697" flag="0"/>
      <vel value="0.0928527173" flag="0"/>
      <psa03 value="0.5396143154" flag="0"/>
      <psa10 value="0.2319004394" flag="0"/>
      <psa30 value="0.0118070326" flag="0"/>
    </comp>
  </station>
</stationlist>
