<?xml version="1.0" encoding="UTF-8" standalone="yes"?>
<!DOCTYPE earthquake SYSTEM "stationlist.dtd">
<stationlist created="" xmlns="ch.ethz.sed.shakemap.usgs.xml">
  <station code="GVD" name="GVD" netid="GE" source="GFZ" insttype="STS-2/N" lat="34.8391" lon="24.0874">
    <comp name="--.HHE">
      <acc value="0.0342681664" flag="0"/>
      <vel value="0.0154209865" flag="0"/>
      <psa03 value="0.0699655401" flag="0"/>
      <psa10 value="0.0133737735" flag="0"/>
      <psa30 value="0.0005755520" flag="0"/>
    </comp>
    <comp name="--.HHN">
      <acc value="0.0439684442" flag="0"/>
      <vel value="0.0250688436" flag="0"/>
      <psa03 value="0.0932914218" flag="0"/>
      <psa10 value="0.0144340631" flag="0"/>
      <psa30 value="0.0011150175" flag="0"/>
    </comp>
    <comp name="--.HHZ">
      <acc value="0.0265626846" flag="0"/>
      <vel value="0.0075474730" flag="0"/>
      <psa03 value="0.0358561743" flag="0"/>
      <psa10 value="0.0051083596" flag="0"/>
      <psa30 value="0.0004492271" flag="0"/>
    </comp>
  </station>
  <station code="IMMV" name="IMMV" netid="GE" source="GFZ" insttype="STS-2/N" lat="35.4606" lon="23.9811">
    <comp name="--.HHE">
      <acc value="0.0194881597" flag="0"/>
      <vel value="0.0125247408" flag="0"/>
      <psa03 value="0.0554630843" flag="0"/>
      <psa10 value="0.0121235744" flag="0"/>
      <psa30 value="0.0007203875" flag="0"/>
    </comp>
    <comp name="--.HHN">
      <acc value="0.0190739612" flag="0"/>
      <vel value="0.0134232114" flag="0"/>
      <psa03 value="0.0605304081" flag="0"/>
      <psa10 value="0.0111485835" flag="0"/>
      <psa30 value="0.0008267508" flag="0"/>
    </comp>
    <comp name="--.HHZ">
      <acc value="0.0157827245" flag="0"/>
      <vel value="0.0093178180" flag="0"/>
      <psa03 value="0.0446188136" flag="0"/>
      <psa10 value="0.0047280137" flag="0"/>
      <psa30 value="0.0003847601" flag="0"/>
    </comp>
  </station>
  <station code="CHAN" name="CHAN" netid="HC" source="NOA" insttype="120" lat="35.5193" lon="24.0428">
    <comp name="--.HHE">
      <acc value="0.0253338273" flag="0"/>
      <vel value="0.0164539986" flag="0"/>
      <psa03 value="0.0859450074" flag="0"/>
      <psa10 value="0.0312470875" flag="0"/>
      <psa30 value="0.0013635304" flag="0"/>
    </comp>
    <comp name="--.HHN">
      <acc value="0.0313759254" flag="0"/>
      <vel value="0.0275546964" flag="0"/>
      <psa03 value="0.0862136783" flag="0"/>
      <psa10 value="0.0422288839" flag="0"/>
      <psa30 value="0.0029443610" flag="0"/>
    </comp>
    <comp name="--.HHZ">
      <acc value="0.0193224915" flag="0"/>
      <vel value="0.0122725018" flag="0"/>
      <psa03 value="0.0582940193" flag="0"/>
      <psa10 value="0.0121484468" flag="0"/>
      <psa30 value="0.0006289668" flag="0"/>
    </comp>
  </station>
  <station code="GVDS" name="GVDS" netid="HC" source="NOA" insttype="60" lat="34.8389" lon="24.0585">
    <comp name="--.HHE">
      <acc value="0.0255360589" flag="0"/>
      <vel value="0.0103861761" flag="0"/>
      <psa03 value="0.0551019145" flag="0"/>
      <psa10 value="0.0064682994" flag="0"/>
      <psa30 value="0.0003867027" flag="0"/>
    </comp>
  </station>
  <station code="PRNS" name="PRNS" netid="HC" source="NOA" insttype="120" lat="35.3445" lon="24.4266">
    <comp name="--.HHE">
      <acc value="0.0189430145" flag="0"/>
      <vel value="0.0123047726" flag="0"/>
      <psa03 value="0.0571735951" flag="0"/>
      <psa10 value="0.0257476764" flag="0"/>
      <psa30 value="0.0015269368" flag="0"/>
    </comp>
    <comp name="--.HHN">
      <acc value="0.0215524472" flag="0"/>
      <vel value="0.0165850725" flag="0"/>
      <psa03 value="0.0553833904" flag="0"/>
      <psa10 value="0.0165051524" flag="0"/>
      <psa30 value="0.0010132801" flag="0"/>
    </comp>
    <comp name="--.HHZ">
      <acc value="0.0188473550" flag="0"/>
      <vel value="0.0099438124" flag="0"/>
      <psa03 value="0.0448622499" flag="0"/>
      <psa10 value="0.0111365570" flag="0"/>
      <psa30 value="0.0009926184" flag="0"/>
    </comp>
  </station>
  <station code="GVD" name="GVD" netid="HL" source="NOA" insttype="120" lat="34.8391" lon="24.0874">
    <comp name="--.HHE">
      <acc value="0.0332250271" flag="0"/>
      <vel value="0.0149753681" flag="0"/>
      <psa03 value="0.0680915155" flag="0"/>
      <psa10 value="0.0132252068" flag="0"/>
      <psa30 value="0.0005679455" flag="0"/>
    </comp>
    <comp name="--.HHN">
      <acc value="0.0430388035" flag="0"/>
      <vel value="0.0245549484" flag="0"/>
      <psa03 value="0.0909389288" flag="0"/>
      <psa10 value="0.0142931978" flag="0"/>
      <psa30 value="0.0010980411" flag="0"/>
    </comp>
    <comp name="--.HHZ">
      <acc value="0.0258845440" flag="0"/>
      <vel value="0.0074150412" flag="0"/>
      <psa03 value="0.0348179175" flag="0"/>
      <psa10 value="0.0050441780" flag="0"/>
      <psa30 value="0.0004483700" flag="0"/>
    </comp>
  </station>
  <station code="IMMV" name="IMMV" netid="HL" source="NOA" insttype="120" lat="35.4606" lon="23.9811">
    <comp name="--.HHE">
      <acc value="0.0189798457" flag="0"/>
      <vel value="0.0123129488" flag="0"/>
      <psa03 value="0.0538506053" flag="0"/>
      <psa10 value="0.0120343715" flag="0"/>
      <psa30 value="0.0007155804" flag="0"/>
    </comp>
    <comp name="--.HHN">
      <acc value="0.0184589752" flag="0"/>
      <vel value="0.0131790096" flag="0"/>
      <psa03 value="0.0589325815" flag="0"/>
      <psa10 value="0.0110914653" flag="0"/>
      <psa30 value="0.0008182549" flag="0"/>
    </comp>
    <comp name="--.HHZ">
      <acc value="0.0153180022" flag="0"/>
      <vel value="0.0091311194" flag="0"/>
      <psa03 value="0.0433594309" flag="0"/>
      <psa10 value="0.0046701226" flag="0"/>
      <psa30 value="0.0003807436" flag="0"/>
    </comp>
  </station>
</stationlist>
