<stationlist xmlns:esm="https://esm-db.eu/esmws/shakemap/1/" created="1780710883">
	<station code="IMMV" name="IMMV" netid="GE" source="GEOFON" insttype="" lat="35.4606" lon="23.9811" esm:processing="manual (Paolucci et al 2011)" esm:quality="best">
		<comp name="--.HNE" depth="0.0">
			<acc value="0.0190898449441338" flag="0"/>
			<vel value="0.0123856507430094" flag="0"/>
			<psa03 value="0.0553461095868022" flag="0"/>
			<psa10 value="0.01202804740519" flag="0"/>
			<psa30 value="0.000699320689443587" flag="0"/>
		</comp>
		<comp name="--.HNN" depth="0.0">
			<acc value="0.0185158602112261" flag="0"/>
			<vel value="0.0133096471713846" flag="0"/>
			<psa03 value="0.0591491971493553" flag="0"/>
			<psa10 value="0.0112226876860611" flag="0"/>
			<psa30 value="0.000850996769879529" flag="0"/>
		</comp>
		<comp name="--.HNZ" depth="0.0">
			<acc value="0.0154588270155394" flag="0"/>
			<vel value="0.00936357079716544" flag="0"/>
			<psa03 value="0.0444290111719439" flag="0"/>
			<psa10 value="0.00481202432179513" flag="0"/>
			<psa30 value="0.000397758216836436" flag="0"/>
		</comp>
	</station>
	<station code="CH01" name="CH01" netid="HI" source="ITSAK Strong Motion Network" insttype="" lat="35.517" lon="24.0208" esm:processing="manual (Paolucci et al 2011)" esm:quality="best">
		<comp name="--.HNE" depth="0.0">
			<acc value="0.0133689494661053" flag="0"/>
			<vel value="0.0113395810752792" flag="0"/>
			<psa03 value="0.0425050962873582" flag="0"/>
			<psa10 value="0.0223285982128485" flag="0"/>
			<psa30 value="0.00125680858390725" flag="0"/>
		</comp>
		<comp name="--.HNN" depth="0.0">
			<acc value="0.0174259256036382" flag="0"/>
			<vel value="0.0134979473430039" flag="0"/>
			<psa03 value="0.0550776563470925" flag="0"/>
			<psa10 value="0.0147904312418021" flag="0"/>
			<psa30 value="0.00171228424728126" flag="0"/>
		</comp>
		<comp name="--.HNZ" depth="0.0">
			<acc value="0.011191938687848" flag="0"/>
			<vel value="0.00665415190585575" flag="0"/>
			<psa03 value="0.0283665589959843" flag="0"/>
			<psa10 value="0.0100669964891111" flag="0"/>
			<psa30 value="0.000581648686037533" flag="0"/>
		</comp>
	</station>
	<station code="CH02" name="CH02" netid="HI" source="ITSAK Strong Motion Network" insttype="" lat="35.5145" lon="24.0315" esm:processing="manual (Paolucci et al 2011)" esm:quality="good">
		<comp name="--.HNE" depth="0.0">
			<acc value="0.0120393373084656" flag="0"/>
			<vel value="0.00984034420290401" flag="0"/>
			<psa03 value="0.037066984151618" flag="0"/>
			<psa10 value="0.00931219407465556" flag="0"/>
			<psa30 value="0.000748122736543033" flag="0"/>
		</comp>
		<comp name="--.HNN" depth="0.0">
			<acc value="0.0174138441175998" flag="0"/>
			<vel value="0.0105307467335252" flag="0"/>
			<psa03 value="0.0365106608395956" flag="0"/>
			<psa10 value="0.0189939713823865" flag="0"/>
			<psa30 value="0.00195323689235813" flag="0"/>
		</comp>
		<comp name="--.HNZ" depth="0.0">
			<acc value="0.0100172704629501" flag="0"/>
			<vel value="0.00615267608904676" flag="0"/>
			<psa03 value="0.0265592411902162" flag="0"/>
			<psa10 value="0.009483827006995" flag="0"/>
			<psa30 value="0.000386817708108092" flag="0"/>
		</comp>
	</station>
	<station code="GOR1" name="GOR1" netid="HI" source="ITSAK Strong Motion Network" insttype="" lat="35.0582" lon="24.9628" esm:processing="manual (Paolucci et al 2011)" esm:quality="good">
		<comp name="--.HNE" depth="0.0">
			<acc value="0.00254077161062551" flag="0"/>
			<vel value="0.00250758001632307" flag="0"/>
			<psa03 value="0.00698601357036346" flag="0"/>
			<psa10 value="0.00470315702982133" flag="0"/>
			<psa30 value="0.000458045864123859" flag="0"/>
		</comp>
		<comp name="--.HNN" depth="0.0">
			<acc value="0.00310368026634272" flag="0"/>
			<vel value="0.00288558596732545" flag="0"/>
			<psa03 value="0.00770983235313883" flag="0"/>
			<psa10 value="0.00645683742129064" flag="0"/>
			<psa30 value="0.000565996765341269" flag="0"/>
		</comp>
		<comp name="--.HNZ" depth="0.0">
			<acc value="0.00276682012279507" flag="0"/>
			<vel value="0.00200463753432258" flag="0"/>
			<psa03 value="0.00645573885893295" flag="0"/>
			<psa10 value="0.00384953837239962" flag="0"/>
			<psa30 value="0.000338440597111912" flag="0"/>
		</comp>
	</station>
	<station code="NPS1" name="NPS1" netid="HI" source="ITSAK Strong Motion Network" insttype="" lat="36.51263" lon="23.06248" esm:processing="manual (Paolucci et al 2011)" esm:quality="bad">
		<comp name="--.HNE" depth="0.0">
			<acc value="0.0039943507153127" flag="0"/>
			<vel value="0.00361814653475685" flag="0"/>
			<psa03 value="0.013068212059084" flag="0"/>
			<psa10 value="0.00374012581185602" flag="0"/>
			<psa30 value="0.000190284649694832" flag="0"/>
		</comp>
		<comp name="--.HNN" depth="0.0">
			<acc value="0.00439339892668824" flag="0"/>
			<vel value="0.00273978169157604" flag="0"/>
			<psa03 value="0.0152518489018007" flag="0"/>
			<psa10 value="0.00342666598418089" flag="0"/>
			<psa30 value="0.000231036060213649" flag="0"/>
		</comp>
		<comp name="--.HNZ" depth="0.0">
			<acc value="0.00365982929935713" flag="0"/>
			<vel value="0.00154267578569635" flag="0"/>
			<psa03 value="0.00821812709288363" flag="0"/>
			<psa10 value="0.00188365111076616" flag="0"/>
			<psa30 value="0.000122822498367051" flag="0"/>
		</comp>
	</station>
	<station code="IMMV" name="IMMV" netid="HL" source="National Observatory of Athens Seismic Network" insttype="" lat="35.4606" lon="23.9811" esm:processing="manual (Paolucci et al 2011)" esm:quality="best">
		<comp name="--.HNE" depth="0.0">
			<acc value="0.0187040591262239" flag="0"/>
			<vel value="0.012134294009389" flag="0"/>
			<psa03 value="0.0542275544213454" flag="0"/>
			<psa10 value="0.0117864394894513" flag="0"/>
			<psa30 value="0.000685450605391923" flag="0"/>
		</comp>
		<comp name="--.HNN" depth="0.0">
			<acc value="0.0181511858069103" flag="0"/>
			<vel value="0.0130396670417687" flag="0"/>
			<psa03 value="0.0579411575706619" flag="0"/>
			<psa10 value="0.0109931601661094" flag="0"/>
			<psa30 value="0.000833547309298403" flag="0"/>
		</comp>
		<comp name="--.HNZ" depth="0.0">
			<acc value="0.0151419329234362" flag="0"/>
			<vel value="0.00917205072896327" flag="0"/>
			<psa03 value="0.0435341670395784" flag="0"/>
			<psa10 value="0.00471135435690402" flag="0"/>
			<psa30 value="0.000389704619645147" flag="0"/>
		</comp>
	</station>
</stationlist>
