<stationlist created="1778136601">
	<station code="KRL1" name="KRL1" netid="HI" source="ITSAK Strong Motion Network" insttype="" lat="37.7951" lon="26.7065">
		<comp name="--.HNE" depth="0.0">
			<acc value="0.00771527067414431" flag="0"/>
			<vel value="0.00388503076029743" flag="0"/>
			<psa03 value="0.0183166001036304" flag="0"/>
			<psa10 value="0.0040134347766078" flag="0"/>
			<psa30 value="0.00066506556774467" flag="0"/>
		</comp>
		<comp name="--.HNN" depth="0.0">
			<acc value="0.00525082584617993" flag="0"/>
			<vel value="0.00352849404518888" flag="0"/>
			<psa03 value="0.0126810366710104" flag="0"/>
			<psa10 value="0.0066462371556107" flag="0"/>
			<psa30 value="0.000371688554834446" flag="0"/>
		</comp>
		<comp name="--.HNZ" depth="0.0">
			<acc value="0.00316313695595483" flag="0"/>
			<vel value="0.00258377942855201" flag="0"/>
			<psa03 value="0.00903305086923166" flag="0"/>
			<psa10 value="0.00310879398922147" flag="0"/>
			<psa30 value="0.000229980860103143" flag="0"/>
		</comp>
	</station>
	<station code="KSS1" name="KSS1" netid="HI" source="ITSAK Strong Motion Network" insttype="" lat="35.4189" lon="26.9207">
		<comp name="--.HNE" depth="0.0">
			<acc value="0.0077296177081144" flag="0"/>
			<vel value="0.00311288568156451" flag="0"/>
			<psa03 value="0.0263444561284297" flag="0"/>
			<psa10 value="0.00224650921083508" flag="0"/>
			<psa30 value="0.000233573754365068" flag="0"/>
		</comp>
		<comp name="--.HNN" depth="0.0">
			<acc value="0.00662411885285703" flag="0"/>
			<vel value="0.00369035797120012" flag="0"/>
			<psa03 value="0.0218552681167564" flag="0"/>
			<psa10 value="0.00215698726482044" flag="0"/>
			<psa30 value="0.000215557573902026" flag="0"/>
		</comp>
		<comp name="--.HNZ" depth="0.0">
			<acc value="0.00496826164062361" flag="0"/>
			<vel value="0.00171262950609958" flag="0"/>
			<psa03 value="0.00595207528535032" flag="0"/>
			<psa10 value="0.00167093244888861" flag="0"/>
			<psa30 value="0.000197796215007517" flag="0"/>
		</comp>
	</station>
	<station code="NAX1" name="NAX1" netid="HI" source="ITSAK Strong Motion Network" insttype="" lat="37.101394" lon="25.374103">
		<comp name="--.HNE" depth="0.0">
			<acc value="0.00328916087320032" flag="0"/>
			<vel value="0.00169352469475309" flag="0"/>
			<psa03 value="0.00979680263591024" flag="0"/>
			<psa10 value="0.00169412023496222" flag="0"/>
			<psa30 value="0.000203782874615468" flag="0"/>
		</comp>
		<comp name="--.HNN" depth="0.0">
			<acc value="0.00519659857932917" flag="0"/>
			<vel value="0.00292571170698715" flag="0"/>
			<psa03 value="0.0130171227371734" flag="0"/>
			<psa10 value="0.0017773654370508" flag="0"/>
			<psa30 value="0.000258464387622161" flag="0"/>
		</comp>
		<comp name="--.HNZ" depth="0.0">
			<acc value="0.00306055277111586" flag="0"/>
			<vel value="0.00204512779739069" flag="0"/>
			<psa03 value="0.0122184005549105" flag="0"/>
			<psa10 value="0.00277857523884718" flag="0"/>
			<psa30 value="0.000211798887407795" flag="0"/>
		</comp>
	</station>
	<station code="RDI1" name="RDI1" netid="HI" source="ITSAK Strong Motion Network" insttype="" lat="36.4514" lon="28.224">
		<comp name="--.HNE" depth="0.0">
			<acc value="0.00954958060039934" flag="0"/>
			<vel value="0.0107461243844318" flag="0"/>
			<psa03 value="0.0335903501958406" flag="0"/>
			<psa10 value="0.0130770947308494" flag="0"/>
			<psa30 value="0.00265642243328169" flag="0"/>
		</comp>
		<comp name="--.HNN" depth="0.0">
			<acc value="0.0106064231539986" flag="0"/>
			<vel value="0.00921924497769861" flag="0"/>
			<psa03 value="0.0322900791634295" flag="0"/>
			<psa10 value="0.0134874187877838" flag="0"/>
			<psa30 value="0.00270865193489707" flag="0"/>
		</comp>
		<comp name="--.HNZ" depth="0.0">
			<acc value="0.00820863635012255" flag="0"/>
			<vel value="0.00620695861399298" flag="0"/>
			<psa03 value="0.0200048017824508" flag="0"/>
			<psa10 value="0.0115620084262972" flag="0"/>
			<psa30 value="0.00110214967867526" flag="0"/>
		</comp>
	</station>
	<station code="SIT2" name="SIT2" netid="HI" source="ITSAK Strong Motion Network" insttype="" lat="35.2059" lon="26.107">
		<comp name="--.HNE" depth="0.0">
			<acc value="0.0108976321813625" flag="0"/>
			<vel value="0.00799678748584117" flag="0"/>
			<psa03 value="0.0300781201320263" flag="0"/>
			<psa10 value="0.00563207200338973" flag="0"/>
			<psa30 value="0.000377260825011348" flag="0"/>
		</comp>
		<comp name="--.HNN" depth="0.0">
			<acc value="0.0120540644700496" flag="0"/>
			<vel value="0.00905950079738271" flag="0"/>
			<psa03 value="0.0498286602790899" flag="0"/>
			<psa10 value="0.00874462116325388" flag="0"/>
			<psa30 value="0.000365381600571379" flag="0"/>
		</comp>
		<comp name="--.HNZ" depth="0.0">
			<acc value="0.00967314808568495" flag="0"/>
			<vel value="0.00369955370605986" flag="0"/>
			<psa03 value="0.0234565669032785" flag="0"/>
			<psa10 value="0.00164467121702167" flag="0"/>
			<psa30 value="0.000163364585122732" flag="0"/>
		</comp>
	</station>
	<station code="KARP" name="KARP" netid="HL" source="National Observatory of Athens Seismic Network" insttype="" lat="35.5471" lon="27.16106">
		<comp name="--.HNE" depth="0.0">
			<acc value="0.0237617054542171" flag="0"/>
			<vel value="0.00883882795216864" flag="0"/>
			<psa03 value="0.0502588085658607" flag="0"/>
			<psa10 value="0.00931334915118237" flag="0"/>
			<psa30 value="0.0004887412829636" flag="0"/>
		</comp>
		<comp name="--.HNN" depth="0.0">
			<acc value="0.0237527633238232" flag="0"/>
			<vel value="0.0103099083900748" flag="0"/>
			<psa03 value="0.0460107563200503" flag="0"/>
			<psa10 value="0.00766594376863873" flag="0"/>
			<psa30 value="0.000561735962250682" flag="0"/>
		</comp>
		<comp name="--.HNZ" depth="0.0">
			<acc value="0.0158159223157206" flag="0"/>
			<vel value="0.0050689540443148" flag="0"/>
			<psa03 value="0.0327846588019287" flag="0"/>
			<psa10 value="0.00410335729604755" flag="0"/>
			<psa30 value="0.000401268769586467" flag="0"/>
		</comp>
	</station>
	<station code="KLNA" name="KLNA" netid="HL" source="National Observatory of Athens Seismic Network" insttype="" lat="36.95708" lon="26.97274">
		<comp name="00.HNE" depth="0.0">
			<acc value="0.0551594010313079" flag="0"/>
			<vel value="0.0201011489969038" flag="0"/>
			<psa03 value="0.19654622855644" flag="0"/>
			<psa10 value="0.00903136797129433" flag="0"/>
			<psa30 value="0.000827428146385588" flag="0"/>
		</comp>
		<comp name="00.HNN" depth="0.0">
			<acc value="0.0484929062175681" flag="0"/>
			<vel value="0.0161383068805162" flag="0"/>
			<psa03 value="0.117297447463578" flag="0"/>
			<psa10 value="0.00674954149901501" flag="0"/>
			<psa30 value="0.000399402630339238" flag="0"/>
		</comp>
		<comp name="00.HNZ" depth="0.0">
			<acc value="0.0778500663540369" flag="0"/>
			<vel value="0.0146727787741944" flag="0"/>
			<psa03 value="0.0550271192350173" flag="0"/>
			<psa10 value="0.00340625127242974" flag="0"/>
			<psa30 value="0.000409500747206628" flag="0"/>
		</comp>
	</station>
	<station code="NISR" name="NISR" netid="HL" source="National Observatory of Athens Seismic Network" insttype="" lat="36.6106" lon="27.131">
		<comp name="--.HNE" depth="0.0">
			<acc value="0.73272009023429" flag="0"/>
			<vel value="0.254945323317226" flag="0"/>
			<psa03 value="0.852765491530136" flag="0"/>
			<psa10 value="0.228392964912833" flag="0"/>
			<psa30 value="0.0125031257707019" flag="0"/>
		</comp>
		<comp name="--.HNN" depth="0.0">
			<acc value="0.902602065503614" flag="0"/>
			<vel value="0.168940093225013" flag="0"/>
			<psa03 value="0.51256845514629" flag="0"/>
			<psa10 value="0.0730549820341559" flag="0"/>
			<psa30 value="0.00996760863850384" flag="0"/>
		</comp>
		<comp name="--.HNZ" depth="0.0">
			<acc value="0.6193311450273" flag="0"/>
			<vel value="0.109001336545006" flag="0"/>
			<psa03 value="0.330399887370953" flag="0"/>
			<psa10 value="0.0676618622663479" flag="0"/>
			<psa30 value="0.00368609918597956" flag="0"/>
		</comp>
	</station>
	<station code="RODB" name="RODB" netid="HL" source="National Observatory of Athens Seismic Network" insttype="" lat="36.4471" lon="28.22116">
		<comp name="00.HNE" depth="0.0">
			<acc value="0.0142301109144439" flag="0"/>
			<vel value="0.0124969403698715" flag="0"/>
			<psa03 value="0.0329567717660326" flag="0"/>
			<psa10 value="0.0163516325904068" flag="0"/>
			<psa30 value="0.00203584194787048" flag="0"/>
		</comp>
		<comp name="00.HNN" depth="0.0">
			<acc value="0.0142520728936316" flag="0"/>
			<vel value="0.0128217590861106" flag="0"/>
			<psa03 value="0.048764173095422" flag="0"/>
			<psa10 value="0.0156915832403613" flag="0"/>
			<psa30 value="0.0021733004288201" flag="0"/>
		</comp>
		<comp name="00.HNZ" depth="0.0">
			<acc value="0.00708466671585124" flag="0"/>
			<vel value="0.00524858499450565" flag="0"/>
			<psa03 value="0.0268564457744138" flag="0"/>
			<psa10 value="0.0105886211317005" flag="0"/>
			<psa30 value="0.00110988633702324" flag="0"/>
		</comp>
	</station>
	<station code="SMG" name="SMG" netid="HL" source="National Observatory of Athens Seismic Network" insttype="" lat="37.70425" lon="26.83772">
		<comp name="00.HNE" depth="0.0">
			<acc value="0.00482243221022181" flag="0"/>
			<vel value="0.00266565924119265" flag="0"/>
			<psa03 value="0.0153151616897284" flag="0"/>
			<psa10 value="0.0024110068267461" flag="0"/>
			<psa30 value="0.000345227557131194" flag="0"/>
		</comp>
		<comp name="00.HNN" depth="0.0">
			<acc value="0.00691744982986768" flag="0"/>
			<vel value="0.00390725877345081" flag="0"/>
			<psa03 value="0.0195213309527891" flag="0"/>
			<psa10 value="0.00242680896730849" flag="0"/>
			<psa30 value="0.000198184665219893" flag="0"/>
		</comp>
		<comp name="00.HNZ" depth="0.0">
			<acc value="0.00368669798758746" flag="0"/>
			<vel value="0.00174878049823922" flag="0"/>
			<psa03 value="0.0132930733092081" flag="0"/>
			<psa10 value="0.00194192153339677" flag="0"/>
			<psa30 value="0.000116303017004222" flag="0"/>
		</comp>
	</station>
	<station code="THRA" name="THRA" netid="HL" source="National Observatory of Athens Seismic Network" insttype="" lat="36.41502" lon="25.43244">
		<comp name="00.HNE" depth="0.0">
			<acc value="0.0226276617830166" flag="0"/>
			<vel value="0.0120590864308525" flag="0"/>
			<psa03 value="0.0524344214398094" flag="0"/>
			<psa10 value="0.0185843936248591" flag="0"/>
			<psa30 value="0.00199323704217194" flag="0"/>
		</comp>
		<comp name="00.HNN" depth="0.0">
			<acc value="0.0178161656369947" flag="0"/>
			<vel value="0.012201241035529" flag="0"/>
			<psa03 value="0.0426361369348125" flag="0"/>
			<psa10 value="0.0189906955403918" flag="0"/>
			<psa30 value="0.0013623132674009" flag="0"/>
		</comp>
		<comp name="00.HNZ" depth="0.0">
			<acc value="0.0136658679747833" flag="0"/>
			<vel value="0.00916823279275971" flag="0"/>
			<psa03 value="0.0506604862169989" flag="0"/>
			<psa10 value="0.00608420242355724" flag="0"/>
			<psa30 value="0.000617668625848767" flag="0"/>
		</comp>
	</station>
	<station code="DATC" name="DATC" netid="KO" source="Bogazici University Kandilli Observatory And Earthquake Research Institute (KOERI)" insttype="" lat="36.7584" lon="27.6602">
		<comp name="--.HNE" depth="0.0">
			<acc value="0.111417865816053" flag="0"/>
			<vel value="0.0434311069069608" flag="0"/>
			<psa03 value="0.252685864198378" flag="0"/>
			<psa10 value="0.0407026501006167" flag="0"/>
			<psa30 value="0.00432742458730812" flag="0"/>
		</comp>
		<comp name="--.HNN" depth="0.0">
			<acc value="0.140382767839929" flag="0"/>
			<vel value="0.024999849198975" flag="0"/>
			<psa03 value="0.126827828804542" flag="0"/>
			<psa10 value="0.049192721276277" flag="0"/>
			<psa30 value="0.00237705434318463" flag="0"/>
		</comp>
		<comp name="--.HNZ" depth="0.0">
			<acc value="0.152785124789183" flag="0"/>
			<vel value="0.0296185776859997" flag="0"/>
			<psa03 value="0.126612210354316" flag="0"/>
			<psa10 value="0.0319781471452905" flag="0"/>
			<psa30 value="0.00204084102903612" flag="0"/>
		</comp>
	</station>
	<station code="DIDI" name="DIDI" netid="KO" source="Bogazici University Kandilli Observatory And Earthquake Research Institute (KOERI)" insttype="" lat="37.3767" lon="27.2398">
		<comp name="--.HNE" depth="0.0">
			<acc value="0.0200343251845637" flag="0"/>
			<vel value="0.0106493065932633" flag="0"/>
			<psa03 value="0.0732238611381414" flag="0"/>
			<psa10 value="0.0128768474029609" flag="0"/>
			<psa30 value="0.000911790505812549" flag="0"/>
		</comp>
		<comp name="--.HNN" depth="0.0">
			<acc value="0.0128680444978155" flag="0"/>
			<vel value="0.00922318638449709" flag="0"/>
			<psa03 value="0.0405751123812336" flag="0"/>
			<psa10 value="0.0129212597200594" flag="0"/>
			<psa30 value="0.00110278409570234" flag="0"/>
		</comp>
		<comp name="--.HNZ" depth="0.0">
			<acc value="0.0180461419840565" flag="0"/>
			<vel value="0.00619824996904763" flag="0"/>
			<psa03 value="0.0437200420715462" flag="0"/>
			<psa10 value="0.00864197592600209" flag="0"/>
			<psa30 value="0.000563180849635174" flag="0"/>
		</comp>
	</station>
	<station code="FETI" name="FETI" netid="KO" source="Bogazici University Kandilli Observatory And Earthquake Research Institute (KOERI)" insttype="" lat="36.6903" lon="29.096">
		<comp name="--.HNE" depth="0.0">
			<acc value="0.00223959282280503" flag="0"/>
			<vel value="0.00158815987482189" flag="0"/>
			<psa03 value="0.00435885418238682" flag="0"/>
			<psa10 value="0.00234429178220231" flag="0"/>
			<psa30 value="0.000408991572851111" flag="0"/>
		</comp>
		<comp name="--.HNN" depth="0.0">
			<acc value="0.00144437408928018" flag="0"/>
			<vel value="0.00123351543287041" flag="0"/>
			<psa03 value="0.00942108634032248" flag="0"/>
			<psa10 value="0.00247691697421771" flag="0"/>
			<psa30 value="0.000727937701468982" flag="0"/>
		</comp>
		<comp name="--.HNZ" depth="0.0">
			<acc value="0.00281716572131317" flag="0"/>
			<vel value="0.00234158354841616" flag="0"/>
			<psa03 value="0.00645537164711948" flag="0"/>
			<psa10 value="0.00334099413696574" flag="0"/>
			<psa30 value="0.000834650864442225" flag="0"/>
		</comp>
	</station>
	<station code="KUSD" name="KUSD" netid="KO" source="Bogazici University Kandilli Observatory And Earthquake Research Institute (KOERI)" insttype="" lat="37.8606" lon="27.2868">
		<comp name="--.HNE" depth="0.0">
			<acc value="0.00173706853627071" flag="0"/>
			<vel value="0.000893674320862314" flag="0"/>
			<psa03 value="0.00301638471651753" flag="0"/>
			<psa10 value="0.00170107085165756" flag="0"/>
			<psa30 value="0.000263573267727029" flag="0"/>
		</comp>
		<comp name="--.HNN" depth="0.0">
			<acc value="0.00305243679842658" flag="0"/>
			<vel value="0.00120880923805888" flag="0"/>
			<psa03 value="0.00320917190178525" flag="0"/>
			<psa10 value="0.00283016764096705" flag="0"/>
			<psa30 value="0.000338824632969134" flag="0"/>
		</comp>
		<comp name="--.HNZ" depth="0.0">
			<acc value="0.00124924005696576" flag="0"/>
			<vel value="0.000884310176605808" flag="0"/>
			<psa03 value="0.00171624455215258" flag="0"/>
			<psa10 value="0.00112906081036335" flag="0"/>
			<psa30 value="0.000226045651498374" flag="0"/>
		</comp>
	</station>
	<station code="NAZL" name="NAZL" netid="KO" source="Bogazici University Kandilli Observatory And Earthquake Research Institute (KOERI)" insttype="" lat="37.9641" lon="28.2922">
		<comp name="--.HNE" depth="0.0">
			<acc value="0.00275650371376876" flag="0"/>
			<vel value="0.00384159563413004" flag="0"/>
			<psa03 value="0.00750441640156955" flag="0"/>
			<psa10 value="0.00639737254455237" flag="0"/>
			<psa30 value="0.000565484856428437" flag="0"/>
		</comp>
		<comp name="--.HNN" depth="0.0">
			<acc value="0.00244563124821442" flag="0"/>
			<vel value="0.00278034032633198" flag="0"/>
			<psa03 value="0.00862125210523428" flag="0"/>
			<psa10 value="0.00408999187940673" flag="0"/>
			<psa30 value="0.000355071803014472" flag="0"/>
		</comp>
		<comp name="--.HNZ" depth="0.0">
			<acc value="0.00104711076021048" flag="0"/>
			<vel value="0.0013716907306468" flag="0"/>
			<psa03 value="0.00370474151469245" flag="0"/>
			<psa10 value="0.00162813508251986" flag="0"/>
			<psa30 value="0.000198819889591904" flag="0"/>
		</comp>
	</station>
	<station code="YKAV" name="YKAV" netid="KO" source="Bogazici University Kandilli Observatory And Earthquake Research Institute (KOERI)" insttype="" lat="37.1246" lon="27.2801">
		<comp name="--.HNE" depth="0.0">
			<acc value="0.0210820376206813" flag="0"/>
			<vel value="0.013529868375871" flag="0"/>
			<psa03 value="0.0689665218187217" flag="0"/>
			<psa10 value="0.0176731301331225" flag="0"/>
			<psa30 value="0.000925497872190172" flag="0"/>
		</comp>
		<comp name="--.HNN" depth="0.0">
			<acc value="0.0119238739620577" flag="0"/>
			<vel value="0.00666222006589972" flag="0"/>
			<psa03 value="0.0246279778368108" flag="0"/>
			<psa10 value="0.0079511773514711" flag="0"/>
			<psa30 value="0.000518037702873032" flag="0"/>
		</comp>
		<comp name="--.HNZ" depth="0.0">
			<acc value="0.0133164435611047" flag="0"/>
			<vel value="0.0059501364382242" flag="0"/>
			<psa03 value="0.0254489957668873" flag="0"/>
			<psa10 value="0.00723566463977685" flag="0"/>
			<psa30 value="0.000418667812812955" flag="0"/>
		</comp>
	</station>
</stationlist>
