<?xml version="1.0" encoding="UTF-8" standalone="yes"?>
<!DOCTYPE earthquake SYSTEM "stationlist.dtd">
<stationlist created="" xmlns="ch.ethz.sed.shakemap.usgs.xml">
  <station code="KARP" name="KARP" netid="GE" insttype="STS-2/N" lat="35.5471" lon="27.1611">
    <comp name="--.HHN">
      <acc value="0.0302724822" flag="0"/>
      <vel value="0.0120583605" flag="0"/>
      <psa03 value="0.0502148374" flag="0"/>
      <psa10 value="0.0097202922" flag="0"/>
      <psa30 value="0.0006695688" flag="0"/>
    </comp>
    <comp name="--.HHE">
      <acc value="0.0287264985" flag="0"/>
      <vel value="0.0099941868" flag="0"/>
      <psa03 value="0.0631363882" flag="0"/>
      <psa10 value="0.0103525978" flag="0"/>
      <psa30 value="0.0005541693" flag="0"/>
    </comp>
    <comp name="--.HHZ">
      <acc value="0.0199335370" flag="0"/>
      <vel value="0.0063187306" flag="0"/>
      <psa03 value="0.0421036446" flag="0"/>
      <psa10 value="0.0050587646" flag="0"/>
      <psa30 value="0.0004724235" flag="0"/>
    </comp>
  </station>
  <station code="ARG" name="ARG" netid="HL" insttype="LE3D20_DR24" lat="36.2136" lon="28.1212">
    <comp name="--.HHN">
      <acc value="0.0297689611" flag="0"/>
      <vel value="0.0119519371" flag="0"/>
      <psa03 value="0.0570661336" flag="0"/>
      <psa10 value="0.0113933722" flag="0"/>
      <psa30 value="0.0008765081" flag="0"/>
    </comp>
    <comp name="--.HHE">
      <acc value="0.0420707022" flag="0"/>
      <vel value="0.0245499572" flag="0"/>
      <psa03 value="0.0807364890" flag="0"/>
      <psa10 value="0.0161388786" flag="0"/>
      <psa30 value="0.0014381231" flag="0"/>
    </comp>
    <comp name="--.HHZ">
      <acc value="0.0150850386" flag="0"/>
      <vel value="0.0068320058" flag="0"/>
      <psa03 value="0.0362206792" flag="0"/>
      <psa10 value="0.0117661074" flag="0"/>
      <psa30 value="0.0008315505" flag="0"/>
    </comp>
  </station>
  <station code="KARP" name="KARP" netid="HL" insttype="120" lat="35.5471" lon="27.1611">
    <comp name="--.HHN">
      <acc value="0.0288951239" flag="0"/>
      <vel value="0.0117377528" flag="0"/>
      <psa03 value="0.0489938096" flag="0"/>
      <psa10 value="0.0096638788" flag="0"/>
      <psa30 value="0.0006623773" flag="0"/>
    </comp>
    <comp name="--.HHE">
      <acc value="0.0271414038" flag="0"/>
      <vel value="0.0098533597" flag="0"/>
      <psa03 value="0.0618174343" flag="0"/>
      <psa10 value="0.0102849846" flag="0"/>
      <psa30 value="0.0005486298" flag="0"/>
    </comp>
    <comp name="--.HHZ">
      <acc value="0.0172689401" flag="0"/>
      <vel value="0.0062049406" flag="0"/>
      <psa03 value="0.0409653143" flag="0"/>
      <psa10 value="0.0050277490" flag="0"/>
      <psa30 value="0.0004709799" flag="0"/>
    </comp>
  </station>
  <station code="KLNA" name="KLNA" netid="HL" insttype="CMG-5" lat="36.9571" lon="26.9727">
    <comp name="00.HNN">
      <acc value="0.0490780679" flag="0"/>
      <vel value="0.0161396588" flag="0"/>
      <psa03 value="0.1169246739" flag="0"/>
      <psa10 value="0.0067507455" flag="0"/>
      <psa30 value="0.0003923318" flag="0"/>
    </comp>
    <comp name="00.HNZ">
      <acc value="0.0775762917" flag="0"/>
      <vel value="0.0145851900" flag="0"/>
      <psa03 value="0.0544919530" flag="0"/>
      <psa10 value="0.0034102834" flag="0"/>
      <psa30 value="0.0003883743" flag="0"/>
    </comp>
    <comp name="00.HNE">
      <acc value="0.0550911583" flag="0"/>
      <vel value="0.0200268695" flag="0"/>
      <psa03 value="0.1962513185" flag="0"/>
      <psa10 value="0.0090224724" flag="0"/>
      <psa30 value="0.0007777108" flag="0"/>
    </comp>
  </station>
  <station code="NISR" name="NISR" netid="HL" insttype="65535" lat="36.6106" lon="27.131">
    <comp name="--.HHN">
      <acc value="0.9966379381" flag="0"/>
      <vel value="0.2180306868" flag="0"/>
      <psa03 value="0.5093571085" flag="0"/>
      <psa10 value="0.0941972454" flag="0"/>
      <psa30 value="0.0633170511" flag="0"/>
    </comp>
    <comp name="--.HHE">
      <acc value="0.8344956139" flag="0"/>
      <vel value="0.2641733707" flag="0"/>
      <psa03 value="0.8987522588" flag="0"/>
      <psa10 value="0.2230417532" flag="0"/>
      <psa30 value="0.0121881024" flag="0"/>
    </comp>
    <comp name="--.HHZ">
      <acc value="0.6320174243" flag="0"/>
      <vel value="0.1044775254" flag="0"/>
      <psa03 value="0.3123623133" flag="0"/>
      <psa10 value="0.0720996703" flag="0"/>
      <psa30 value="0.0038736650" flag="0"/>
    </comp>
  </station>
</stationlist>
