<?xml version="1.0" encoding="UTF-8" standalone="yes"?>
<!DOCTYPE earthquake SYSTEM "stationlist.dtd">
<stationlist created="" xmlns="ch.ethz.sed.shakemap.usgs.xml">
  <station code="NAX1" name="NAX1" netid="HI" insttype="CMG-5TD,ACCELEROMETER,GURALP" lat="37.1014" lon="25.3741">
    <comp name="--.HNN">
      <acc value="0.1354427648" flag="0"/>
      <vel value="0.0355445633" flag="0"/>
      <psa03 value="0.1489891805" flag="0"/>
      <psa10 value="0.0121518577" flag="0"/>
      <psa30 value="0.0018340073" flag="0"/>
    </comp>
    <comp name="--.HNZ">
      <acc value="0.0620100292" flag="0"/>
      <vel value="0.0133317869" flag="0"/>
      <psa03 value="0.0735895031" flag="0"/>
      <psa10 value="0.0062266767" flag="0"/>
      <psa30 value="0.0014232182" flag="0"/>
    </comp>
    <comp name="--.HNE">
      <acc value="0.1225835482" flag="0"/>
      <vel value="0.0349489704" flag="0"/>
      <psa03 value="0.2284137511" flag="0"/>
      <psa10 value="0.0098999387" flag="0"/>
      <psa30 value="0.0010621449" flag="0"/>
    </comp>
  </station>
  <station code="TNSA" name="TNSA" netid="HL" insttype="CMG-5" lat="37.5394" lon="25.1631">
    <comp name="00.HNE">
      <acc value="0.0847569635" flag="0"/>
      <vel value="0.0281985049" flag="0"/>
      <psa03 value="0.1625211975" flag="0"/>
      <psa10 value="0.0081131377" flag="0"/>
      <psa30 value="0.0006252920" flag="0"/>
    </comp>
    <comp name="00.HNN">
      <acc value="0.0850125514" flag="0"/>
      <vel value="0.0295109220" flag="0"/>
      <psa03 value="0.1573363109" flag="0"/>
      <psa10 value="0.0090453949" flag="0"/>
      <psa30 value="0.0009326438" flag="0"/>
    </comp>
    <comp name="00.HNZ">
      <acc value="0.0390245273" flag="0"/>
      <vel value="0.0197366469" flag="0"/>
      <psa03 value="0.1279047725" flag="0"/>
      <psa10 value="0.0075834850" flag="0"/>
      <psa30 value="0.0012661605" flag="0"/>
    </comp>
  </station>
</stationlist>
