<?xml version="1.0" encoding="UTF-8" standalone="yes"?>
<!DOCTYPE earthquake SYSTEM "stationlist.dtd">
<stationlist created="" xmlns="ch.ethz.sed.shakemap.usgs.xml">
  <station code="ARPRA" name="ARPRA" netid="KO" insttype="CMG-5T" lat="39.0929" lon="38.3356">
    <comp name="--.HNN">
      <acc value="0.0320187513" flag="0"/>
      <vel value="0.0156495442" flag="0"/>
      <psa03 value="0.0756586459" flag="0"/>
      <psa10 value="0.0080486903" flag="0"/>
      <psa30 value="0.0006326159" flag="0"/>
    </comp>
    <comp name="--.HNZ">
      <acc value="0.0126316076" flag="0"/>
      <vel value="0.0056457114" flag="0"/>
      <psa03 value="0.0236109172" flag="0"/>
      <psa10 value="0.0042630945" flag="0"/>
      <psa30 value="0.0003642686" flag="0"/>
    </comp>
    <comp name="--.HNE">
      <acc value="0.0194500791" flag="0"/>
      <vel value="0.0098901183" flag="0"/>
      <psa03 value="0.0518889261" flag="0"/>
      <psa10 value="0.0071350824" flag="0"/>
      <psa30 value="0.0006131570" flag="0"/>
    </comp>
  </station>
  <station code="DARE" name="DARE" netid="KO" insttype="CMG-3ESP" lat="38.5712" lon="37.4832">
    <comp name="--.HHE">
      <acc value="0.0024009262" flag="0"/>
      <vel value="0.0011637172" flag="0"/>
      <psa03 value="0.0040095141" flag="0"/>
      <psa10 value="0.0025224763" flag="0"/>
      <psa30 value="0.0001384568" flag="0"/>
    </comp>
    <comp name="--.HHN">
      <acc value="0.0030105632" flag="0"/>
      <vel value="0.0017007662" flag="0"/>
      <psa03 value="0.0057470463" flag="0"/>
      <psa10 value="0.0026528364" flag="0"/>
      <psa30 value="0.0001372196" flag="0"/>
    </comp>
    <comp name="--.HHZ">
      <acc value="0.0017440635" flag="0"/>
      <vel value="0.0014581441" flag="0"/>
      <psa03 value="0.0044323212" flag="0"/>
      <psa10 value="0.0017661837" flag="0"/>
      <psa30 value="0.0001149922" flag="0"/>
    </comp>
  </station>
  <station code="DYBB" name="DYBB" netid="KO" insttype="CMG-3T" lat="37.9532" lon="40.1393">
    <comp name="--.HHE">
      <acc value="0.0096439286" flag="0"/>
      <vel value="0.0045471285" flag="0"/>
      <psa03 value="0.0240855714" flag="0"/>
      <psa10 value="0.0062158979" flag="0"/>
      <psa30 value="0.0005950522" flag="0"/>
    </comp>
    <comp name="--.HHN">
      <acc value="0.0083885119" flag="0"/>
      <vel value="0.0041099533" flag="0"/>
      <psa03 value="0.0200745138" flag="0"/>
      <psa10 value="0.0039356787" flag="0"/>
      <psa30 value="0.0004519632" flag="0"/>
    </comp>
  </station>
  <station code="SINE" name="SINE" netid="KO" insttype="CMG-6T" lat="39.1636" lon="39.3871">
    <comp name="--.HHE">
      <acc value="0.0047527373" flag="0"/>
      <vel value="0.0021377790" flag="0"/>
      <psa03 value="0.0079535587" flag="0"/>
      <psa10 value="0.0012131530" flag="0"/>
      <psa30 value="0.0000662602" flag="0"/>
    </comp>
    <comp name="--.HHN">
      <acc value="0.0042118181" flag="0"/>
      <vel value="0.0018887961" flag="0"/>
      <psa03 value="0.0083647526" flag="0"/>
      <psa10 value="0.0019670117" flag="0"/>
      <psa30 value="0.0000614627" flag="0"/>
    </comp>
    <comp name="--.HHZ">
      <acc value="0.0029638292" flag="0"/>
      <vel value="0.0011294238" flag="0"/>
      <psa03 value="0.0049485001" flag="0"/>
      <psa10 value="0.0011189244" flag="0"/>
      <psa30 value="0.0000475372" flag="0"/>
    </comp>
  </station>
  <station code="URFA" name="URFA" netid="KO" insttype="CMG-3ESP" lat="37.4409" lon="38.8213">
    <comp name="--.HHE">
      <acc value="0.0657167684" flag="0"/>
      <vel value="0.0179994090" flag="0"/>
      <psa03 value="0.0787539014" flag="0"/>
      <psa10 value="0.0103221730" flag="0"/>
      <psa30 value="0.0010413119" flag="0"/>
    </comp>
    <comp name="--.HHN">
      <acc value="0.0497003337" flag="0"/>
      <vel value="0.0094897141" flag="0"/>
      <psa03 value="0.0425836091" flag="0"/>
      <psa10 value="0.0071421410" flag="0"/>
      <psa30 value="0.0004870781" flag="0"/>
    </comp>
  </station>
</stationlist>
