<?xml version="1.0" encoding="UTF-8" standalone="yes"?>
<!DOCTYPE earthquake SYSTEM "stationlist.dtd">
<stationlist created="" xmlns="ch.ethz.sed.shakemap.usgs.xml">
  <station code="RP03B" name="RP03B" netid="5B" insttype="Compact" commtype="DIG" lat="37.2463" lon="21.832">
    <comp name="--.HHN">
      <acc value="0.3050402911" flag="0"/>
      <vel value="0.1226520691" flag="0"/>
      <psa03 value="0.4747046391" flag="0"/>
      <psa10 value="0.0888621141" flag="0"/>
      <psa30 value="0.0067893760" flag="0"/>
    </comp>
    <comp name="--.HHE">
      <acc value="0.3684233868" flag="0"/>
      <vel value="0.1133774878" flag="0"/>
      <psa03 value="0.4748586513" flag="0"/>
      <psa10 value="0.0486676436" flag="0"/>
      <psa30 value="0.0038589751" flag="0"/>
    </comp>
    <comp name="--.HHZ">
      <acc value="0.1292375719" flag="0"/>
      <vel value="0.0703883504" flag="0"/>
      <psa03 value="0.2052306733" flag="0"/>
      <psa10 value="0.0369236475" flag="0"/>
      <psa30 value="0.0029570464" flag="0"/>
    </comp>
  </station>
  <station code="RP05B" name="RP05B" netid="5B" insttype="Compact" commtype="DIG" lat="37.6182" lon="21.6541">
    <comp name="--.HHN">
      <acc value="2.4473102293" flag="0"/>
      <vel value="0.7147385196" flag="0"/>
      <psa03 value="2.9130882195" flag="0"/>
      <psa10 value="0.1376625624" flag="0"/>
      <psa30 value="0.0118864955" flag="0"/>
    </comp>
    <comp name="--.HHE">
      <acc value="1.7178003884" flag="0"/>
      <vel value="0.5470182878" flag="0"/>
      <psa03 value="3.0568642499" flag="0"/>
      <psa10 value="0.1545995844" flag="0"/>
      <psa30 value="0.0139316686" flag="0"/>
    </comp>
    <comp name="--.HHZ">
      <acc value="1.1408690385" flag="0"/>
      <vel value="0.3054350003" flag="0"/>
      <psa03 value="1.5209430594" flag="0"/>
      <psa10 value="0.0611162116" flag="0"/>
      <psa30 value="0.0067143794" flag="0"/>
    </comp>
  </station>
  <station code="RP08B" name="RP08B" netid="5B" insttype="Compact" commtype="DIG" lat="37.5664" lon="21.9493">
    <comp name="--.HHE">
      <acc value="0.2693550899" flag="0"/>
      <vel value="0.1043941251" flag="0"/>
      <psa03 value="1.1834156448" flag="0"/>
      <psa10 value="0.0543117633" flag="0"/>
      <psa30 value="0.0039700545" flag="0"/>
    </comp>
    <comp name="--.HHZ">
      <acc value="0.1505400292" flag="0"/>
      <vel value="0.0641766863" flag="0"/>
      <psa03 value="0.4402242857" flag="0"/>
      <psa10 value="0.0141860214" flag="0"/>
      <psa30 value="0.0026378633" flag="0"/>
    </comp>
    <comp name="--.HHN">
      <acc value="0.2044738070" flag="0"/>
      <vel value="0.0821642794" flag="0"/>
      <psa03 value="0.4276897154" flag="0"/>
      <psa10 value="0.0599070061" flag="0"/>
      <psa30 value="0.0021577512" flag="0"/>
    </comp>
  </station>
  <station code="AGRP" name="AGRP" netid="CL" insttype="CMG40-T" commtype="DIG" lat="38.3959" lon="21.7228">
    <comp name="00.HHN">
      <acc value="0.0194991689" flag="0"/>
      <vel value="0.0093311050" flag="0"/>
      <psa03 value="0.0480948152" flag="0"/>
      <psa10 value="0.0081530690" flag="0"/>
      <psa30 value="0.0007807219" flag="0"/>
    </comp>
    <comp name="00.HHE">
      <acc value="0.0176778382" flag="0"/>
      <vel value="0.0084421989" flag="0"/>
      <psa03 value="0.0579971192" flag="0"/>
      <psa10 value="0.0067417814" flag="0"/>
      <psa30 value="0.0008873566" flag="0"/>
    </comp>
    <comp name="00.HHZ">
      <acc value="0.0086583760" flag="0"/>
      <vel value="0.0052913456" flag="0"/>
      <psa03 value="0.0224307576" flag="0"/>
      <psa10 value="0.0050361248" flag="0"/>
      <psa30 value="0.0005578970" flag="0"/>
    </comp>
  </station>
  <station code="MALA" name="MALA" netid="CL" insttype="TRILLIUM-40" commtype="DIG" lat="38.3934" lon="21.8726">
    <comp name="01.HHE">
      <acc value="0.0287259940" flag="0"/>
      <vel value="0.0297070525" flag="0"/>
      <psa03 value="0.0659593835" flag="0"/>
      <psa10 value="0.0573642592" flag="0"/>
      <psa30 value="0.0023941638" flag="0"/>
    </comp>
    <comp name="01.HHZ">
      <acc value="0.0086923636" flag="0"/>
      <vel value="0.0077303349" flag="0"/>
      <psa03 value="0.0217027419" flag="0"/>
      <psa10 value="0.0081798650" flag="0"/>
      <psa30 value="0.0009900803" flag="0"/>
    </comp>
    <comp name="01.HHN">
      <acc value="0.0272322513" flag="0"/>
      <vel value="0.0152876390" flag="0"/>
      <psa03 value="0.0465379591" flag="0"/>
      <psa10 value="0.0413895748" flag="0"/>
      <psa30 value="0.0015481180" flag="0"/>
    </comp>
  </station>
  <station code="MG06" name="MG06" netid="CL" insttype="TRILLIUM-40" commtype="DIG" lat="38.4129" lon="21.9462">
    <comp name="06.HHE">
      <acc value="0.0204420536" flag="0"/>
      <vel value="0.0114570492" flag="0"/>
      <psa03 value="0.0682675938" flag="0"/>
      <psa10 value="0.0102287083" flag="0"/>
      <psa30 value="0.0006337336" flag="0"/>
    </comp>
    <comp name="06.HHN">
      <acc value="0.0193018828" flag="0"/>
      <vel value="0.0081034621" flag="0"/>
      <psa03 value="0.0394825793" flag="0"/>
      <psa10 value="0.0057027544" flag="0"/>
      <psa30 value="0.0006165051" flag="0"/>
    </comp>
    <comp name="06.HHZ">
      <acc value="0.0043966146" flag="0"/>
      <vel value="0.0022640348" flag="0"/>
      <psa03 value="0.0084368261" flag="0"/>
      <psa10 value="0.0030928024" flag="0"/>
      <psa30 value="0.0001465337" flag="0"/>
    </comp>
  </station>
  <station code="PSAM" name="PSAM" netid="CL" insttype="CMG40-T" commtype="DIG" lat="38.3218" lon="22.1842">
    <comp name="00.HHN">
      <acc value="0.0116749213" flag="0"/>
      <vel value="0.0063579766" flag="0"/>
      <psa03 value="0.0280834695" flag="0"/>
      <psa10 value="0.0097371856" flag="0"/>
      <psa30 value="0.0007870430" flag="0"/>
    </comp>
    <comp name="00.HHE">
      <acc value="0.0146781700" flag="0"/>
      <vel value="0.0092066158" flag="0"/>
      <psa03 value="0.0440352087" flag="0"/>
      <psa10 value="0.0107472077" flag="0"/>
      <psa30 value="0.0006961929" flag="0"/>
    </comp>
    <comp name="00.HHZ">
      <acc value="0.0054083874" flag="0"/>
      <vel value="0.0039340162" flag="0"/>
      <psa03 value="0.0170968719" flag="0"/>
      <psa10 value="0.0065869328" flag="0"/>
      <psa30 value="0.0006103088" flag="0"/>
    </comp>
  </station>
  <station code="ROD3" name="ROD3" netid="CL" insttype="CMG40-T" commtype="DIG" lat="38.3081" lon="21.892">
    <comp name="00.HHE">
      <acc value="0.0892169583" flag="0"/>
      <vel value="0.0330887202" flag="0"/>
      <psa03 value="0.1535444279" flag="0"/>
      <psa10 value="0.0161125539" flag="0"/>
      <psa30 value="0.0016897798" flag="0"/>
    </comp>
    <comp name="00.HHN">
      <acc value="0.1122731609" flag="0"/>
      <vel value="0.0593383102" flag="0"/>
      <psa03 value="0.3455692106" flag="0"/>
      <psa10 value="0.0260701167" flag="0"/>
      <psa30 value="0.0019901687" flag="0"/>
    </comp>
    <comp name="00.HHZ">
      <acc value="0.0513670603" flag="0"/>
      <vel value="0.0163166569" flag="0"/>
      <psa03 value="0.0839523022" flag="0"/>
      <psa10 value="0.0135426696" flag="0"/>
      <psa30 value="0.0018006639" flag="0"/>
    </comp>
  </station>
  <station code="TRIZ" name="TRIZ" netid="CL" insttype="STS-2" commtype="DIG" lat="38.3654" lon="22.0727">
    <comp name="00.HH2">
      <acc value="0.0154722756" flag="0"/>
      <vel value="0.0113969951" flag="0"/>
      <psa03 value="0.0681296745" flag="0"/>
      <psa10 value="0.0133270514" flag="0"/>
      <psa30 value="0.0008876819" flag="0"/>
    </comp>
    <comp name="00.HH3">
      <acc value="0.0216277165" flag="0"/>
      <vel value="0.0131115713" flag="0"/>
      <psa03 value="0.0749074716" flag="0"/>
      <psa10 value="0.0128163982" flag="0"/>
      <psa30 value="0.0012216288" flag="0"/>
    </comp>
    <comp name="00.HHZ">
      <acc value="0.0122616830" flag="0"/>
      <vel value="0.0051705152" flag="0"/>
      <psa03 value="0.0323344691" flag="0"/>
      <psa10 value="0.0047358686" flag="0"/>
      <psa30 value="0.0005528569" flag="0"/>
    </comp>
  </station>
  <station code="ZIRI" name="ZIRI" netid="CL" insttype="TRILLIUM-40" commtype="DIG" lat="38.3051" lon="21.9476">
    <comp name="01.HHE">
      <acc value="0.0763869136" flag="0"/>
      <vel value="0.0463493631" flag="0"/>
      <psa03 value="0.2144517544" flag="0"/>
      <psa10 value="0.0173211491" flag="0"/>
      <psa30 value="0.0017892358" flag="0"/>
    </comp>
    <comp name="01.HHN">
      <acc value="0.1214975400" flag="0"/>
      <vel value="0.0570881759" flag="0"/>
      <psa03 value="0.3305221686" flag="0"/>
      <psa10 value="0.0174731399" flag="0"/>
      <psa30 value="0.0015088834" flag="0"/>
    </comp>
    <comp name="01.HHZ">
      <acc value="0.0567240350" flag="0"/>
      <vel value="0.0195697810" flag="0"/>
      <psa03 value="0.1462751649" flag="0"/>
      <psa10 value="0.0048444911" flag="0"/>
      <psa30 value="0.0011743053" flag="0"/>
    </comp>
  </station>
  <station code="ACOR" name="ACOR" netid="HA" insttype="Horizon,120s,1200" commtype="DIG" lat="37.8905" lon="22.8694">
    <comp name="--.HHZ">
      <acc value="0.0055362468" flag="0"/>
      <vel value="0.0038301633" flag="0"/>
      <psa03 value="0.0189357964" flag="0"/>
      <psa10 value="0.0063546719" flag="0"/>
      <psa30 value="0.0005804776" flag="0"/>
    </comp>
    <comp name="--.HHN">
      <acc value="0.0082193675" flag="0"/>
      <vel value="0.0080309592" flag="0"/>
      <psa03 value="0.0169401686" flag="0"/>
      <psa10 value="0.0161882973" flag="0"/>
      <psa30 value="0.0009213980" flag="0"/>
    </comp>
    <comp name="--.HHE">
      <acc value="0.0062516235" flag="0"/>
      <vel value="0.0048040205" flag="0"/>
      <psa03 value="0.0193870460" flag="0"/>
      <psa10 value="0.0085223218" flag="0"/>
      <psa30 value="0.0007514659" flag="0"/>
    </comp>
  </station>
  <station code="EPID" name="EPID" netid="HA" insttype="30" commtype="DIG" lat="37.6144" lon="23.1189">
    <comp name="--.HHZ">
      <acc value="0.0045157130" flag="0"/>
      <vel value="0.0021136958" flag="0"/>
      <psa03 value="0.0090715379" flag="0"/>
      <psa10 value="0.0018867144" flag="0"/>
      <psa30 value="0.0001282067" flag="0"/>
    </comp>
    <comp name="--.HHE">
      <acc value="0.0091280142" flag="0"/>
      <vel value="0.0039147052" flag="0"/>
      <psa03 value="0.0241094755" flag="0"/>
      <psa10 value="0.0059315092" flag="0"/>
      <psa30 value="0.0005819778" flag="0"/>
    </comp>
    <comp name="--.HHN">
      <acc value="0.0082343830" flag="0"/>
      <vel value="0.0037532530" flag="0"/>
      <psa03 value="0.0254764573" flag="0"/>
      <psa10 value="0.0031734081" flag="0"/>
      <psa30 value="0.0003155307" flag="0"/>
    </comp>
  </station>
  <station code="KALE" name="KALE" netid="HA" insttype="40," commtype="DIG" lat="38.3911" lon="22.1398">
    <comp name="--.HHE">
      <acc value="0.0210853825" flag="0"/>
      <vel value="0.0096013768" flag="0"/>
      <psa03 value="0.0531635447" flag="0"/>
      <psa10 value="0.0093890896" flag="0"/>
      <psa30 value="0.0005807491" flag="0"/>
    </comp>
    <comp name="--.HHN">
      <acc value="0.0215751744" flag="0"/>
      <vel value="0.0089159896" flag="0"/>
      <psa03 value="0.0766343650" flag="0"/>
      <psa10 value="0.0066228604" flag="0"/>
      <psa30 value="0.0005504615" flag="0"/>
    </comp>
    <comp name="--.HHZ">
      <acc value="0.0117849365" flag="0"/>
      <vel value="0.0047938510" flag="0"/>
      <psa03 value="0.0462415615" flag="0"/>
      <psa10 value="0.0042740167" flag="0"/>
      <psa30 value="0.0006322220" flag="0"/>
    </comp>
  </station>
  <station code="LAKA" name="LAKA" netid="HA" insttype="120s," commtype="DIG" lat="38.2401" lon="21.9785">
    <comp name="--.HHE">
      <acc value="0.0198681323" flag="0"/>
      <vel value="0.0076615424" flag="0"/>
      <psa03 value="0.0620226592" flag="0"/>
      <psa10 value="0.0070382675" flag="0"/>
      <psa30 value="0.0007008209" flag="0"/>
    </comp>
    <comp name="--.HHZ">
      <acc value="0.0141294615" flag="0"/>
      <vel value="0.0068463473" flag="0"/>
      <psa03 value="0.0596947758" flag="0"/>
      <psa10 value="0.0063582455" flag="0"/>
      <psa30 value="0.0009354774" flag="0"/>
    </comp>
    <comp name="--.HHN">
      <acc value="0.0196635819" flag="0"/>
      <vel value="0.0090571298" flag="0"/>
      <psa03 value="0.0457325221" flag="0"/>
      <psa10 value="0.0122166698" flag="0"/>
      <psa30 value="0.0008917376" flag="0"/>
    </comp>
  </station>
  <station code="THAL" name="THAL" netid="HA" insttype="30" commtype="DIG" lat="38.0357" lon="22.6634">
    <comp name="--.HHZ">
      <acc value="0.0266705527" flag="0"/>
      <vel value="0.0149361210" flag="0"/>
      <psa03 value="0.0657137283" flag="0"/>
      <psa10 value="0.0315148864" flag="0"/>
      <psa30 value="0.0009394578" flag="0"/>
    </comp>
    <comp name="--.HHE">
      <acc value="0.0453424929" flag="0"/>
      <vel value="0.0242103060" flag="0"/>
      <psa03 value="0.1297033862" flag="0"/>
      <psa10 value="0.0442170824" flag="0"/>
      <psa30 value="0.0028554810" flag="0"/>
    </comp>
    <comp name="--.HHN">
      <acc value="0.0438082659" flag="0"/>
      <vel value="0.0262150081" flag="0"/>
      <psa03 value="0.1277052323" flag="0"/>
      <psa10 value="0.0495770534" flag="0"/>
      <psa30 value="0.0018956148" flag="0"/>
    </comp>
  </station>
  <station code="AKR1" name="AKR1" netid="HI" insttype="unknown" commtype="DIG" lat="38.1536" lon="22.3133">
    <comp name="--.HNN">
      <acc value="0.0413606027" flag="0"/>
      <vel value="0.0180751311" flag="0"/>
      <psa03 value="0.1369787447" flag="0"/>
      <psa10 value="0.0227191268" flag="0"/>
      <psa30 value="0.0012004831" flag="0"/>
    </comp>
    <comp name="--.HNE">
      <acc value="0.0520196668" flag="0"/>
      <vel value="0.0199830269" flag="0"/>
      <psa03 value="0.1460275547" flag="0"/>
      <psa10 value="0.0275031914" flag="0"/>
      <psa30 value="0.0014981402" flag="0"/>
    </comp>
    <comp name="--.HNZ">
      <acc value="0.0217542476" flag="0"/>
      <vel value="0.0153529988" flag="0"/>
      <psa03 value="0.0673086936" flag="0"/>
      <psa10 value="0.0122344216" flag="0"/>
      <psa30 value="0.0007939421" flag="0"/>
    </comp>
  </station>
  <station code="ARE2" name="ARE2" netid="HI" insttype="unknown" commtype="DIG" lat="36.6663" lon="22.3826">
    <comp name="--.HNN">
      <acc value="0.0306803654" flag="0"/>
      <vel value="0.0116947341" flag="0"/>
      <psa03 value="0.0923314026" flag="0"/>
      <psa10 value="0.0087044658" flag="0"/>
      <psa30 value="0.0006468656" flag="0"/>
    </comp>
    <comp name="--.HNE">
      <acc value="0.0325891478" flag="0"/>
      <vel value="0.0139304200" flag="0"/>
      <psa03 value="0.0568818514" flag="0"/>
      <psa10 value="0.0225777489" flag="0"/>
      <psa30 value="0.0010623609" flag="0"/>
    </comp>
    <comp name="--.HNZ">
      <acc value="0.0196920137" flag="0"/>
      <vel value="0.0080249959" flag="0"/>
      <psa03 value="0.0287424055" flag="0"/>
      <psa10 value="0.0114706821" flag="0"/>
      <psa30 value="0.0005092993" flag="0"/>
    </comp>
  </station>
  <station code="GTH2" name="GTH2" netid="HI" insttype="unknown" commtype="DIG" lat="36.7603" lon="22.5659">
    <comp name="--.HNE">
      <acc value="0.0318844050" flag="0"/>
      <vel value="0.0212553019" flag="0"/>
      <psa03 value="0.0725434986" flag="0"/>
      <psa10 value="0.0201762886" flag="0"/>
      <psa30 value="0.0012486114" flag="0"/>
    </comp>
    <comp name="--.HNZ">
      <acc value="0.0223254461" flag="0"/>
      <vel value="0.0085605177" flag="0"/>
      <psa03 value="0.0364779846" flag="0"/>
      <psa10 value="0.0094159201" flag="0"/>
      <psa30 value="0.0006386447" flag="0"/>
    </comp>
    <comp name="--.HNN">
      <acc value="0.0412651478" flag="0"/>
      <vel value="0.0215835178" flag="0"/>
      <psa03 value="0.1154910942" flag="0"/>
      <psa10 value="0.0176587069" flag="0"/>
      <psa30 value="0.0010945984" flag="0"/>
    </comp>
  </station>
  <station code="KAL3" name="KAL3" netid="HI" insttype="unknown" commtype="DIG" lat="37.0246" lon="22.103">
    <comp name="--.HNZ">
      <acc value="0.0662965151" flag="0"/>
      <vel value="0.0374167764" flag="0"/>
      <psa03 value="0.1286908096" flag="0"/>
      <psa10 value="0.0535862873" flag="0"/>
      <psa30 value="0.0044827084" flag="0"/>
    </comp>
    <comp name="--.HNN">
      <acc value="0.1225196410" flag="0"/>
      <vel value="0.1027415180" flag="0"/>
      <psa03 value="0.2556600777" flag="0"/>
      <psa10 value="0.0975084961" flag="0"/>
      <psa30 value="0.0097808232" flag="0"/>
    </comp>
    <comp name="--.HNE">
      <acc value="0.1374770061" flag="0"/>
      <vel value="0.0864542609" flag="0"/>
      <psa03 value="0.2125724673" flag="0"/>
      <psa10 value="0.1341932323" flag="0"/>
      <psa30 value="0.0105225083" flag="0"/>
    </comp>
  </station>
  <station code="KLV1" name="KLV1" netid="HI" insttype="CMG-5TD,ACCELEROMETER,GURALP" commtype="DIG" lat="38.0326" lon="22.108">
    <comp name="--.HNN">
      <acc value="0.0960454091" flag="0"/>
      <vel value="0.0463303084" flag="0"/>
      <psa03 value="0.2631528037" flag="0"/>
      <psa10 value="0.0209108937" flag="0"/>
      <psa30 value="0.0015471310" flag="0"/>
    </comp>
    <comp name="--.HNZ">
      <acc value="0.0355847460" flag="0"/>
      <vel value="0.0166111821" flag="0"/>
      <psa03 value="0.0585822937" flag="0"/>
      <psa10 value="0.0175496774" flag="0"/>
      <psa30 value="0.0007849023" flag="0"/>
    </comp>
    <comp name="--.HNE">
      <acc value="0.0656610313" flag="0"/>
      <vel value="0.0305249102" flag="0"/>
      <psa03 value="0.2233455115" flag="0"/>
      <psa10 value="0.0256270019" flag="0"/>
      <psa30 value="0.0015576503" flag="0"/>
    </comp>
  </station>
  <station code="KRI1" name="KRI1" netid="HI" insttype="CMG-5TD,ACCELEROMETER,GURALP" commtype="DIG" lat="37.6621" lon="20.8172">
    <comp name="--.HNE">
      <acc value="0.0414092452" flag="0"/>
      <vel value="0.0184137632" flag="0"/>
      <psa03 value="0.1107701037" flag="0"/>
      <psa10 value="0.0222879434" flag="0"/>
      <psa30 value="0.0015787584" flag="0"/>
    </comp>
    <comp name="--.HNN">
      <acc value="0.0424642645" flag="0"/>
      <vel value="0.0283293016" flag="0"/>
      <psa03 value="0.0975488202" flag="0"/>
      <psa10 value="0.0276730520" flag="0"/>
      <psa30 value="0.0023241546" flag="0"/>
    </comp>
    <comp name="--.HNZ">
      <acc value="0.0244458044" flag="0"/>
      <vel value="0.0107329003" flag="0"/>
      <psa03 value="0.0738647000" flag="0"/>
      <psa10 value="0.0084433666" flag="0"/>
      <psa30 value="0.0009973738" flag="0"/>
    </comp>
  </station>
  <station code="KYP2" name="KYP2" netid="HI" insttype="unknown" commtype="DIG" lat="37.2497" lon="21.667">
    <comp name="--.HNN">
      <acc value="1.4071733895" flag="0"/>
      <vel value="0.2677825567" flag="0"/>
      <psa03 value="1.3690748565" flag="0"/>
      <psa10 value="0.0946368365" flag="0"/>
      <psa30 value="0.0108700920" flag="0"/>
    </comp>
    <comp name="--.HNZ">
      <acc value="0.8416218324" flag="0"/>
      <vel value="0.1655376293" flag="0"/>
      <psa03 value="0.9560846986" flag="0"/>
      <psa10 value="0.0591802771" flag="0"/>
      <psa30 value="0.0041411648" flag="0"/>
    </comp>
    <comp name="--.HNE">
      <acc value="1.2794440134" flag="0"/>
      <vel value="0.2869302496" flag="0"/>
      <psa03 value="1.0882460527" flag="0"/>
      <psa10 value="0.0613350838" flag="0"/>
      <psa30 value="0.0075495489" flag="0"/>
    </comp>
  </station>
