<stationlist xmlns:esm="https://esm-db.eu/esmws/shakemap/1/" created="1781488478">
	<station code="AGRP" name="AGRP" netid="CL" source="Corinth Riff Laboratory (CRLNET)" insttype="" lat="38.3959" lon="21.72277" esm:processing="automatic (Paolucci et al 2011)" esm:quality="best">
		<comp name="00.HNE" depth="0.0">
			<acc value="0.0172232321236615" flag="0"/>
			<vel value="0.00841519962301573" flag="0"/>
			<psa03 value="0.0582785221244079" flag="0"/>
			<psa10 value="0.00662172881328612" flag="0"/>
			<psa30 value="0.000961885595199992" flag="0"/>
		</comp>
		<comp name="00.HNN" depth="0.0">
			<acc value="0.0188861794599265" flag="0"/>
			<vel value="0.00859095425262609" flag="0"/>
			<psa03 value="0.0453169343161611" flag="0"/>
			<psa10 value="0.00773420110286557" flag="0"/>
			<psa30 value="0.000798325072618084" flag="0"/>
		</comp>
		<comp name="00.HNZ" depth="0.0">
			<acc value="0.00841446632618391" flag="0"/>
			<vel value="0.00579427234677421" flag="0"/>
			<psa03 value="0.0218951040890236" flag="0"/>
			<psa10 value="0.00472049255321467" flag="0"/>
			<psa30 value="0.000692816416520761" flag="0"/>
		</comp>
	</station>
	<station code="TRIZ" name="TRIZ" netid="CL" source="Corinth Riff Laboratory (CRLNET)" insttype="" lat="38.36543" lon="22.07272" esm:processing="automatic (Paolucci et al 2011)" esm:quality="best">
		<comp name="00.HNE" depth="0.0">
			<acc value="0.0159729715749865" flag="0"/>
			<vel value="0.00917878370518624" flag="0"/>
			<psa03 value="0.0540683630136959" flag="0"/>
			<psa10 value="0.0115695745525336" flag="0"/>
			<psa30 value="0.000800978998427644" flag="0"/>
		</comp>
		<comp name="00.HNN" depth="0.0">
			<acc value="0.0252209747298456" flag="0"/>
			<vel value="0.0138235309155264" flag="0"/>
			<psa03 value="0.0779155417305833" flag="0"/>
			<psa10 value="0.0142436141945364" flag="0"/>
			<psa30 value="0.00116933912964519" flag="0"/>
		</comp>
		<comp name="00.HNZ" depth="0.0">
			<acc value="0.0123250457029526" flag="0"/>
			<vel value="0.00515518838477031" flag="0"/>
			<psa03 value="0.0328815818892591" flag="0"/>
			<psa10 value="0.00474095015843062" flag="0"/>
			<psa30 value="0.000544215374514357" flag="0"/>
		</comp>
	</station>
	<station code="AIG2" name="AIG2" netid="HI" source="ITSAK Strong Motion Network" insttype="" lat="38.2417" lon="22.0726" esm:processing="automatic (Paolucci et al 2011)" esm:quality="best">
		<comp name="--.HNE" depth="0.0">
			<acc value="0.037653988891183" flag="0"/>
			<vel value="0.0183541814661277" flag="0"/>
			<psa03 value="0.123911521030142" flag="0"/>
			<psa10 value="0.0102148657472238" flag="0"/>
			<psa30 value="0.00179119574126046" flag="0"/>
		</comp>
		<comp name="--.HNN" depth="0.0">
			<acc value="0.0344770034844391" flag="0"/>
			<vel value="0.0220792120437464" flag="0"/>
			<psa03 value="0.0963219641907373" flag="0"/>
			<psa10 value="0.0168417638091973" flag="0"/>
			<psa30 value="0.00109432353523021" flag="0"/>
		</comp>
		<comp name="--.HNZ" depth="0.0">
			<acc value="0.0209429866872581" flag="0"/>
			<vel value="0.00879501685250592" flag="0"/>
			<psa03 value="0.0523836368255208" flag="0"/>
			<psa10 value="0.0098640140675219" flag="0"/>
			<psa30 value="0.000992652529191706" flag="0"/>
		</comp>
	</station>
	<station code="AKR1" name="AKR1" netid="HI" source="ITSAK Strong Motion Network" insttype="" lat="38.153583" lon="22.31326" esm:processing="automatic (Paolucci et al 2011)" esm:quality="best">
		<comp name="--.HNE" depth="0.0">
			<acc value="0.0522927621114407" flag="0"/>
			<vel value="0.0204817268287695" flag="0"/>
			<psa03 value="0.146023673351713" flag="0"/>
			<psa10 value="0.0275518226730347" flag="0"/>
			<psa30 value="0.00166396772969576" flag="0"/>
		</comp>
		<comp name="--.HNN" depth="0.0">
			<acc value="0.0415231432754986" flag="0"/>
			<vel value="0.0179779811379729" flag="0"/>
			<psa03 value="0.142840983347453" flag="0"/>
			<psa10 value="0.0227412421206823" flag="0"/>
			<psa30 value="0.00126681964975123" flag="0"/>
		</comp>
		<comp name="--.HNZ" depth="0.0">
			<acc value="0.0217971868395543" flag="0"/>
			<vel value="0.0155063231610093" flag="0"/>
			<psa03 value="0.0666778806240199" flag="0"/>
			<psa10 value="0.0122988975541031" flag="0"/>
			<psa30 value="0.000878566846575136" flag="0"/>
		</comp>
	</station>
	<station code="ARE2" name="ARE2" netid="HI" source="ITSAK Strong Motion Network" insttype="" lat="36.66629" lon="22.382635" esm:processing="automatic (Paolucci et al 2011)" esm:quality="best">
		<comp name="--.HNE" depth="0.0">
			<acc value="0.0322995481600048" flag="0"/>
			<vel value="0.0141196815178933" flag="0"/>
			<psa03 value="0.0585818130492765" flag="0"/>
			<psa10 value="0.0225974182180546" flag="0"/>
			<psa30 value="0.00111538472209715" flag="0"/>
		</comp>
		<comp name="--.HNN" depth="0.0">
			<acc value="0.0309413969620248" flag="0"/>
			<vel value="0.011894482769225" flag="0"/>
			<psa03 value="0.0929654085020627" flag="0"/>
			<psa10 value="0.00873944863308095" flag="0"/>
			<psa30 value="0.000727146919914792" flag="0"/>
		</comp>
		<comp name="--.HNZ" depth="0.0">
			<acc value="0.0196102387674818" flag="0"/>
			<vel value="0.00812073226003888" flag="0"/>
			<psa03 value="0.0283460001792302" flag="0"/>
			<psa10 value="0.0114563057990346" flag="0"/>
			<psa30 value="0.000529595187248703" flag="0"/>
		</comp>
	</station>
	<station code="ARG2" name="ARG2" netid="HI" source="ITSAK Strong Motion Network" insttype="" lat="38.1783" lon="20.4878" esm:processing="automatic (Paolucci et al 2011)" esm:quality="best">
		<comp name="--.HNE" depth="0.0">
			<acc value="0.0220774964592792" flag="0"/>
			<vel value="0.011160040105223" flag="0"/>
			<psa03 value="0.0570550869111627" flag="0"/>
			<psa10 value="0.00744865249917198" flag="0"/>
			<psa30 value="0.000766647453297937" flag="0"/>
		</comp>
		<comp name="--.HNN" depth="0.0">
			<acc value="0.0336511600648738" flag="0"/>
			<vel value="0.0137744697262321" flag="0"/>
			<psa03 value="0.0547822228034035" flag="0"/>
			<psa10 value="0.0114223491745748" flag="0"/>
			<psa30 value="0.000772539197763759" flag="0"/>
		</comp>
		<comp name="--.HNZ" depth="0.0">
			<acc value="0.0150385288662444" flag="0"/>
			<vel value="0.00810504325906025" flag="0"/>
			<psa03 value="0.0541232624838497" flag="0"/>
			<psa10 value="0.00818386526590954" flag="0"/>
			<psa30 value="0.00085205555908245" flag="0"/>
		</comp>
	</station>
	<station code="ARS1" name="ARS1" netid="HI" source="ITSAK Strong Motion Network" insttype="" lat="37.6349" lon="22.7293" esm:processing="automatic (Paolucci et al 2011)" esm:quality="best">
		<comp name="--.HNE" depth="0.0">
			<acc value="0.027486994074979" flag="0"/>
			<vel value="0.0228280341614411" flag="0"/>
			<psa03 value="0.0803667093167395" flag="0"/>
			<psa10 value="0.0173698962953825" flag="0"/>
			<psa30 value="0.00169206323671855" flag="0"/>
		</comp>
		<comp name="--.HNN" depth="0.0">
			<acc value="0.0281024086118248" flag="0"/>
			<vel value="0.0227098146560956" flag="0"/>
			<psa03 value="0.113666863205173" flag="0"/>
			<psa10 value="0.0261613149337213" flag="0"/>
			<psa30 value="0.00131580122787373" flag="0"/>
		</comp>
		<comp name="--.HNZ" depth="0.0">
			<acc value="0.0151614954328486" flag="0"/>
			<vel value="0.00833985181809653" flag="0"/>
			<psa03 value="0.0617156404416279" flag="0"/>
			<psa10 value="0.00913373475260131" flag="0"/>
			<psa30 value="0.00110899627806075" flag="0"/>
		</comp>
	</station>
	<station code="KAL3" name="KAL3" netid="HI" source="ITSAK Strong Motion Network" insttype="" lat="37.0246" lon="22.103" esm:processing="automatic (Paolucci et al 2011)" esm:quality="best">
		<comp name="--.HNE" depth="0.0">
			<acc value="0.136006793385975" flag="0"/>
			<vel value="0.0863465138519652" flag="0"/>
			<psa03 value="0.215624742414287" flag="0"/>
			<psa10 value="0.134382487180261" flag="0"/>
			<psa30 value="0.0115449822984174" flag="0"/>
		</comp>
		<comp name="--.HNN" depth="0.0">
			<acc value="0.122264136524533" flag="0"/>
			<vel value="0.103087006820073" flag="0"/>
			<psa03 value="0.259144792070658" flag="0"/>
			<psa10 value="0.0976318526310845" flag="0"/>
			<psa30 value="0.0107290315790201" flag="0"/>
		</comp>
		<comp name="--.HNZ" depth="0.0">
			<acc value="0.060868383356845" flag="0"/>
			<vel value="0.0371062931088535" flag="0"/>
			<psa03 value="0.12892137374163" flag="0"/>
			<psa10 value="0.0536965633837951" flag="0"/>
			<psa30 value="0.00462747738099934" flag="0"/>
		</comp>
	</station>
	<station code="KLV1" name="KLV1" netid="HI" source="ITSAK Strong Motion Network" insttype="" lat="38.03256" lon="22.10797" esm:processing="automatic (Paolucci et al 2011)" esm:quality="best">
		<comp name="--.HNE" depth="0.0">
			<acc value="0.0656275592362033" flag="0"/>
			<vel value="0.0307197858273243" flag="0"/>
			<psa03 value="0.22678291908873" flag="0"/>
			<psa10 value="0.0256778122790433" flag="0"/>
			<psa30 value="0.00162346390068254" flag="0"/>
		</comp>
		<comp name="--.HNN" depth="0.0">
			<acc value="0.0968198983712642" flag="0"/>
			<vel value="0.046439717322388" flag="0"/>
			<psa03 value="0.266467902190763" flag="0"/>
			<psa10 value="0.0209855708160747" flag="0"/>
			<psa30 value="0.00153720193625075" flag="0"/>
		</comp>
		<comp name="--.HNZ" depth="0.0">
			<acc value="0.0350822498540539" flag="0"/>
			<vel value="0.0168916726678266" flag="0"/>
			<psa03 value="0.0590395152448007" flag="0"/>
			<psa10 value="0.0175694676410047" flag="0"/>
			<psa30 value="0.000861575148041833" flag="0"/>
		</comp>
	</station>
	<station code="KRI1" name="KRI1" netid="HI" source="ITSAK Strong Motion Network" insttype="" lat="37.6621" lon="20.8172" esm:processing="automatic (Paolucci et al 2011)" esm:quality="best">
		<comp name="--.HNE" depth="0.0">
			<acc value="0.041114207780413" flag="0"/>
			<vel value="0.018335494938367" flag="0"/>
			<psa03 value="0.111267714690025" flag="0"/>
			<psa10 value="0.0222952457006083" flag="0"/>
			<psa30 value="0.00163444150289481" flag="0"/>
		</comp>
		<comp name="--.HNN" depth="0.0">
			<acc value="0.0425627597136581" flag="0"/>
			<vel value="0.0290721322482643" flag="0"/>
			<psa03 value="0.098880602437964" flag="0"/>
			<psa10 value="0.0276918832013574" flag="0"/>
			<psa30 value="0.00242481979907796" flag="0"/>
		</comp>
		<comp name="--.HNZ" depth="0.0">
			<acc value="0.0245888701291913" flag="0"/>
			<vel value="0.0108317257182047" flag="0"/>
			<psa03 value="0.0743165272718718" flag="0"/>
			<psa10 value="0.00845613986526549" flag="0"/>
			<psa30 value="0.00109186160130584" flag="0"/>
		</comp>
	</station>
	<station code="LEO1" name="LEO1" netid="HI" source="ITSAK Strong Motion Network" insttype="" lat="37.1689" lon="22.8637" esm:processing="automatic (Paolucci et al 2011)" esm:quality="best">
		<comp name="--.HNE" depth="0.0">
			<acc value="0.0149689104819486" flag="0"/>
			<vel value="0.00760191121634384" flag="0"/>
			<psa03 value="0.0464786310645361" flag="0"/>
			<psa10 value="0.00836063416348146" flag="0"/>
			<psa30 value="0.000618495451454907" flag="0"/>
		</comp>
		<comp name="--.HNN" depth="0.0">
			<acc value="0.0123735917953747" flag="0"/>
			<vel value="0.00617690009261471" flag="0"/>
			<psa03 value="0.0382226492504258" flag="0"/>
			<psa10 value="0.00973867982724359" flag="0"/>
			<psa30 value="0.000472371865234457" flag="0"/>
		</comp>
		<comp name="--.HNZ" depth="0.0">
			<acc value="0.00887508234034965" flag="0"/>
			<vel value="0.00490651409873716" flag="0"/>
			<psa03 value="0.0288620447813192" flag="0"/>
			<psa10 value="0.00551803960554273" flag="0"/>
			<psa30 value="0.000442446289061903" flag="0"/>
		</comp>
	</station>
	<station code="NMA1" name="NMA1" netid="HI" source="ITSAK Strong Motion Network" insttype="" lat="37.81873" lon="22.662702" esm:processing="automatic (Paolucci et al 2011)" esm:quality="best">
		<comp name="--.HNE" depth="0.0">
			<acc value="0.0332866144082298" flag="0"/>
			<vel value="0.0189508999399612" flag="0"/>
			<psa03 value="0.104710947003011" flag="0"/>
			<psa10 value="0.0269030146926902" flag="0"/>
			<psa30 value="0.00176078601843223" flag="0"/>
		</comp>
		<comp name="--.HNN" depth="0.0">
			<acc value="0.0274187048993591" flag="0"/>
			<vel value="0.0181593797758564" flag="0"/>
			<psa03 value="0.0972323474158247" flag="0"/>
			<psa10 value="0.0179676596442707" flag="0"/>
			<psa30 value="0.00143628139659362" flag="0"/>
		</comp>
		<comp name="--.HNZ" depth="0.0">
			<acc value="0.0465384584287789" flag="0"/>
			<vel value="0.0111500493748276" flag="0"/>
			<psa03 value="0.0531992481474347" flag="0"/>
			<psa10 value="0.0112731539786253" flag="0"/>
			<psa30 value="0.000886023903068531" flag="0"/>
		</comp>
	</station>
	<station code="PET1" name="PET1" netid="HI" source="ITSAK Strong Motion Network" insttype="" lat="36.963862" lon="21.92538" esm:processing="automatic (Paolucci et al 2011)" esm:quality="best">
		<comp name="--.HNE" depth="0.0">
			<acc value="0.139581185600569" flag="0"/>
			<vel value="0.0978110686445546" flag="0"/>
			<psa03 value="0.228863431912494" flag="0"/>
			<psa10 value="0.141517979871632" flag="0"/>
			<psa30 value="0.00779366545875398" flag="0"/>
		</comp>
		<comp name="--.HNN" depth="0.0">
			<acc value="0.122336393756368" flag="0"/>
			<vel value="0.0750978777549244" flag="0"/>
			<psa03 value="0.300522241456943" flag="0"/>
			<psa10 value="0.132120427329897" flag="0"/>
			<psa30 value="0.00589448839759436" flag="0"/>
		</comp>
		<comp name="--.HNZ" depth="0.0">
			<acc value="0.0804015508696399" flag="0"/>
			<vel value="0.0315524705428408" flag="0"/>
			<psa03 value="0.151188463410373" flag="0"/>
			<psa10 value="0.0493725306878502" flag="0"/>
			<psa30 value="0.0035765702635604" flag="0"/>
		</comp>
	</station>
	<station code="PYR2" name="PYR2" netid="HI" source="ITSAK Strong Motion Network" insttype="" lat="37.6671" lon="21.4506" esm:processing="automatic (Paolucci et al 2011)" esm:quality="best">
		<comp name="--.HNE" depth="0.0">
			<acc value="0.518406185792529" flag="0"/>
			<vel value="0.231162159175685" flag="0"/>
			<psa03 value="0.935598145452125" flag="0"/>
			<psa10 value="0.0876524790465607" flag="0"/>
			<psa30 value="0.00607245768718636" flag="0"/>
		</comp>
		<comp name="--.HNN" depth="0.0">
			<acc value="0.550127645755178" flag="0"/>
			<vel value="0.184293721871056" flag="0"/>
			<psa03 value="1.34711807329438" flag="0"/>
			<psa10 value="0.0722916264654644" flag="0"/>
			<psa30 value="0.00609473749644772" flag="0"/>
		</comp>
		<comp name="--.HNZ" depth="0.0">
			<acc value="0.355633485054205" flag="0"/>
			<vel value="0.0955239562058358" flag="0"/>
			<psa03 value="0.287137917311155" flag="0"/>
			<psa10 value="0.0582019993468161" flag="0"/>
			<psa30 value="0.00377026934517393" flag="0"/>
		</comp>
	</station>
	<station code="TRP1" name="TRP1" netid="HI" source="ITSAK Strong Motion Network" insttype="" lat="37.511219" lon="22.363399" esm:processing="automatic (Paolucci et al 2011)" esm:quality="best">
		<comp name="--.HNE" depth="0.0">
			<acc value="0.0734638002231474" flag="0"/>
			<vel value="0.0456230234354469" flag="0"/>
			<psa03 value="0.274046154212768" flag="0"/>
			<psa10 value="0.0388144037637581" flag="0"/>
			<psa30 value="0.00193607242196287" flag="0"/>
		</comp>
		<comp name="--.HNN" depth="0.0">
			<acc value="0.0563797016325446" flag="0"/>
			<vel value="0.0356139993623663" flag="0"/>
			<psa03 value="0.182949119481298" flag="0"/>
			<psa10 value="0.0290994208188167" flag="0"/>
			<psa30 value="0.00216467944105594" flag="0"/>
		</comp>
		<comp name="--.HNZ" depth="0.0">
			<acc value="0.044905325344623" flag="0"/>
			<vel value="0.0231180268227524" flag="0"/>
			<psa03 value="0.165509109999594" flag="0"/>
			<psa10 value="0.0234238942180334" flag="0"/>
			<psa30 value="0.00115446981129249" flag="0"/>
		</comp>
	</station>
	<station code="ZAK2" name="ZAK2" netid="HI" source="ITSAK Strong Motion Network" insttype="" lat="37.787501" lon="20.899999" esm:processing="automatic (Paolucci et al 2011)" esm:quality="best">
		<comp name="--.HNE" depth="0.0">
			<acc value="0.078234986922293" flag="0"/>
			<vel value="0.0410450476270852" flag="0"/>
			<psa03 value="0.174721855715451" flag="0"/>
			<psa10 value="0.0577946961149759" flag="0"/>
			<psa30 value="0.00386697700158155" flag="0"/>
		</comp>
		<comp name="--.HNN" depth="0.0">
			<acc value="0.0858626273595827" flag="0"/>
			<vel value="0.0648612498413471" flag="0"/>
			<psa03 value="0.290859184660188" flag="0"/>
			<psa10 value="0.102939669247886" flag="0"/>
			<psa30 value="0.00527453649549007" flag="0"/>
		</comp>
		<comp name="--.HNZ" depth="0.0">
			<acc value="0.0401873506807151" flag="0"/>
			<vel value="0.0293483049443754" flag="0"/>
			<psa03 value="0.0871750353349247" flag="0"/>
			<psa10 value="0.0310532833776221" flag="0"/>
			<psa30 value="0.00245970190151272" flag="0"/>
		</comp>
	</station>
	<station code="KRYO" name="KRYO" netid="HL" source="National Observatory of Athens Seismic Network" insttype="" lat="37.971151" lon="22.617961" esm:processing="automatic (Paolucci et al 2011)" esm:quality="best">
		<comp name="--.HNE" depth="0.0">
			<acc value="0.048099470017487" flag="0"/>
			<vel value="0.035321467316389" flag="0"/>
			<psa03 value="0.121471411468192" flag="0"/>
			<psa10 value="0.073616094204952" flag="0"/>
			<psa30 value="0.00293538487150828" flag="0"/>
		</comp>
		<comp name="--.HNN" depth="0.0">
			<acc value="0.0453293567871912" flag="0"/>
			<vel value="0.0238652180289611" flag="0"/>
			<psa03 value="0.142094829751772" flag="0"/>
			<psa10 value="0.0333125380421558" flag="0"/>
			<psa30 value="0.00309916592953291" flag="0"/>
		</comp>
		<comp name="--.HNZ" depth="0.0">
			<acc value="0.0222994115923558" flag="0"/>
			<vel value="0.0155083427860201" flag="0"/>
			<psa03 value="0.0965913153672641" flag="0"/>
			<psa10 value="0.0297380618756524" flag="0"/>
			<psa30 value="0.00236154060714205" flag="0"/>
		</comp>
	</station>
	<station code="LXRA" name="LXRA" netid="HL" source="National Observatory of Athens Seismic Network" insttype="" lat="38.20006" lon="20.43718" esm:processing="automatic (Paolucci et al 2011)" esm:quality="best">
		<comp name="00.HNE" depth="0.0">
			<acc value="0.0329991516164568" flag="0"/>
			<vel value="0.012392606496706" flag="0"/>
			<psa03 value="0.0722438535090738" flag="0"/>
			<psa10 value="0.0196220779913668" flag="0"/>
			<psa30 value="0.00205272514963358" flag="0"/>
		</comp>
		<comp name="00.HNN" depth="0.0">
			<acc value="0.0219093869580455" flag="0"/>
			<vel value="0.0141001517030044" flag="0"/>
			<psa03 value="0.0655169339253321" flag="0"/>
			<psa10 value="0.022111723543166" flag="0"/>
			<psa30 value="0.00172033292194646" flag="0"/>
		</comp>
		<comp name="00.HNZ" depth="0.0">
			<acc value="0.017537727699167" flag="0"/>
			<vel value="0.00694783215163606" flag="0"/>
			<psa03 value="0.0371014213287454" flag="0"/>
			<psa10 value="0.0174275282382159" flag="0"/>
			<psa30 value="0.00119940393379091" flag="0"/>
		</comp>
	</station>
	<station code="PATC" name="PATC" netid="HL" source="National Observatory of Athens Seismic Network" insttype="" lat="38.26933" lon="21.76001" esm:processing="automatic (Paolucci et al 2011)" esm:quality="best">
		<comp name="00.HNE" depth="0.0">
			<acc value="0.0655753066339939" flag="0"/>
			<vel value="0.0501699777303869" flag="0"/>
			<psa03 value="0.217316521152992" flag="0"/>
			<psa10 value="0.0429739318120774" flag="0"/>
			<psa30 value="0.0036778928090151" flag="0"/>
		</comp>
		<comp name="00.HNN" depth="0.0">
			<acc value="0.0931880231215222" flag="0"/>
			<vel value="0.0564850549842918" flag="0"/>
			<psa03 value="0.31624107441915" flag="0"/>
			<psa10 value="0.0547047801732093" flag="0"/>
			<psa30 value="0.00404608469992088" flag="0"/>
		</comp>
		<comp name="00.HNZ" depth="0.0">
			<acc value="0.0412534021329885" flag="0"/>
			<vel value="0.0201753945171979" flag="0"/>
			<psa03 value="0.161780894273599" flag="0"/>
