<?xml version="1.0" encoding="UTF-8" standalone="yes"?>
<!DOCTYPE earthquake SYSTEM "stationlist.dtd">
<stationlist created="" xmlns="ch.ethz.sed.shakemap.usgs.xml">
  <station code="AGRP" name="AGRP" netid="CL" insttype="CMG40-T" commtype="DIG" lat="38.3959" lon="21.7228">
    <comp name="00.HHE">
      <acc value="0.0176778378" flag="0"/>
      <vel value="0.0084421982" flag="0"/>
      <psa03 value="0.0579971192" flag="0"/>
      <psa10 value="0.0067417814" flag="0"/>
      <psa30 value="0.0008873780" flag="0"/>
    </comp>
    <comp name="00.HHZ">
      <acc value="0.0086583753" flag="0"/>
      <vel value="0.0052913399" flag="0"/>
      <psa03 value="0.0224307576" flag="0"/>
      <psa10 value="0.0050361248" flag="0"/>
      <psa30 value="0.0005578793" flag="0"/>
    </comp>
    <comp name="00.HHN">
      <acc value="0.0194991690" flag="0"/>
      <vel value="0.0093311020" flag="0"/>
      <psa03 value="0.0480948152" flag="0"/>
      <psa10 value="0.0081530690" flag="0"/>
      <psa30 value="0.0007807395" flag="0"/>
    </comp>
  </station>
  <station code="MALA" name="MALA" netid="CL" insttype="TRILLIUM-40" commtype="DIG" lat="38.3934" lon="21.8726">
    <comp name="01.HHE">
      <acc value="0.0287259940" flag="0"/>
      <vel value="0.0297070553" flag="0"/>
      <psa03 value="0.0659593835" flag="0"/>
      <psa10 value="0.0573642592" flag="0"/>
      <psa30 value="0.0023941938" flag="0"/>
    </comp>
    <comp name="01.HHN">
      <acc value="0.0272322515" flag="0"/>
      <vel value="0.0152876436" flag="0"/>
      <psa03 value="0.0465379591" flag="0"/>
      <psa10 value="0.0413895748" flag="0"/>
      <psa30 value="0.0015480976" flag="0"/>
    </comp>
    <comp name="01.HHZ">
      <acc value="0.0086923637" flag="0"/>
      <vel value="0.0077303346" flag="0"/>
      <psa03 value="0.0217027419" flag="0"/>
      <psa10 value="0.0081798650" flag="0"/>
      <psa30 value="0.0009900862" flag="0"/>
    </comp>
  </station>
  <station code="MG06" name="MG06" netid="CL" insttype="TRILLIUM-40" commtype="DIG" lat="38.4129" lon="21.9462">
    <comp name="06.HHE">
      <acc value="0.0204420536" flag="0"/>
      <vel value="0.0114570499" flag="0"/>
      <psa03 value="0.0682675938" flag="0"/>
      <psa10 value="0.0102287083" flag="0"/>
      <psa30 value="0.0006337452" flag="0"/>
    </comp>
    <comp name="06.HHN">
      <acc value="0.0193018829" flag="0"/>
      <vel value="0.0081034635" flag="0"/>
      <psa03 value="0.0394825793" flag="0"/>
      <psa10 value="0.0057027544" flag="0"/>
      <psa30 value="0.0006165157" flag="0"/>
    </comp>
    <comp name="06.HHZ">
      <acc value="0.0043966144" flag="0"/>
      <vel value="0.0022640353" flag="0"/>
      <psa03 value="0.0084368261" flag="0"/>
      <psa10 value="0.0030928024" flag="0"/>
      <psa30 value="0.0001466182" flag="0"/>
    </comp>
  </station>
  <station code="PSAM" name="PSAM" netid="CL" insttype="CMG40-T" commtype="DIG" lat="38.3218" lon="22.1842">
    <comp name="00.HHE">
      <acc value="0.0146781698" flag="0"/>
      <vel value="0.0092066141" flag="0"/>
      <psa03 value="0.0440352087" flag="0"/>
      <psa10 value="0.0107472077" flag="0"/>
      <psa30 value="0.0006961730" flag="0"/>
    </comp>
    <comp name="00.HHN">
      <acc value="0.0116749211" flag="0"/>
      <vel value="0.0063579766" flag="0"/>
      <psa03 value="0.0280834695" flag="0"/>
      <psa10 value="0.0097371856" flag="0"/>
      <psa30 value="0.0007870334" flag="0"/>
    </comp>
    <comp name="00.HHZ">
      <acc value="0.0054083871" flag="0"/>
      <vel value="0.0039340187" flag="0"/>
      <psa03 value="0.0170968719" flag="0"/>
      <psa10 value="0.0065869365" flag="0"/>
      <psa30 value="0.0006103098" flag="0"/>
    </comp>
  </station>
  <station code="ROD3" name="ROD3" netid="CL" insttype="CMG40-T" commtype="DIG" lat="38.3081" lon="21.892">
    <comp name="00.HHE">
      <acc value="0.0892169583" flag="0"/>
      <vel value="0.0330887198" flag="0"/>
      <psa03 value="0.1535444279" flag="0"/>
      <psa10 value="0.0161125539" flag="0"/>
      <psa30 value="0.0016897703" flag="0"/>
    </comp>
    <comp name="00.HHN">
      <acc value="0.1122731609" flag="0"/>
      <vel value="0.0593383084" flag="0"/>
      <psa03 value="0.3455692106" flag="0"/>
      <psa10 value="0.0260701167" flag="0"/>
      <psa30 value="0.0019901572" flag="0"/>
    </comp>
    <comp name="00.HHZ">
      <acc value="0.0513670604" flag="0"/>
      <vel value="0.0163166563" flag="0"/>
      <psa03 value="0.0839523022" flag="0"/>
      <psa10 value="0.0135426696" flag="0"/>
      <psa30 value="0.0018006424" flag="0"/>
    </comp>
  </station>
  <station code="TRIZ" name="TRIZ" netid="CL" insttype="STS-2" commtype="DIG" lat="38.3654" lon="22.0727">
    <comp name="00.HH2">
      <acc value="0.0154722756" flag="0"/>
      <vel value="0.0113969975" flag="0"/>
      <psa03 value="0.0681296745" flag="0"/>
      <psa10 value="0.0133270514" flag="0"/>
      <psa30 value="0.0008876324" flag="0"/>
    </comp>
    <comp name="00.HH3">
      <acc value="0.0216277165" flag="0"/>
      <vel value="0.0131115714" flag="0"/>
      <psa03 value="0.0749074716" flag="0"/>
      <psa10 value="0.0128163982" flag="0"/>
      <psa30 value="0.0012216411" flag="0"/>
    </comp>
    <comp name="00.HHZ">
      <acc value="0.0122616830" flag="0"/>
      <vel value="0.0051705145" flag="0"/>
      <psa03 value="0.0323344691" flag="0"/>
      <psa10 value="0.0047358686" flag="0"/>
      <psa30 value="0.0005528431" flag="0"/>
    </comp>
  </station>
  <station code="ZIRI" name="ZIRI" netid="CL" insttype="TRILLIUM-40" commtype="DIG" lat="38.3051" lon="21.9476">
    <comp name="01.HHE">
      <acc value="0.0763869134" flag="0"/>
      <vel value="0.0463493627" flag="0"/>
      <psa03 value="0.2144517544" flag="0"/>
      <psa10 value="0.0173211491" flag="0"/>
      <psa30 value="0.0017892399" flag="0"/>
    </comp>
    <comp name="01.HHZ">
      <acc value="0.0567240350" flag="0"/>
      <vel value="0.0195697802" flag="0"/>
      <psa03 value="0.1462751649" flag="0"/>
      <psa10 value="0.0048444911" flag="0"/>
      <psa30 value="0.0011742951" flag="0"/>
    </comp>
    <comp name="01.HHN">
      <acc value="0.1214975403" flag="0"/>
      <vel value="0.0570881753" flag="0"/>
      <psa03 value="0.3305221686" flag="0"/>
      <psa10 value="0.0174731399" flag="0"/>
      <psa30 value="0.0015088592" flag="0"/>
    </comp>
  </station>
  <station code="KLV" name="KLV" netid="MN" insttype="" commtype="DIG" lat="38.0437" lon="22.1504">
    <comp name="--.HHE">
      <acc value="0.0266233346" flag="0"/>
      <vel value="0.0099553739" flag="0"/>
      <psa03 value="0.0487327577" flag="0"/>
      <psa10 value="0.0118462159" flag="0"/>
      <psa30 value="0.0008440491" flag="0"/>
    </comp>
    <comp name="--.HHN">
      <acc value="0.0184404285" flag="0"/>
      <vel value="0.0072882200" flag="0"/>
      <psa03 value="0.0389904738" flag="0"/>
      <psa10 value="0.0078437691" flag="0"/>
      <psa30 value="0.0005297877" flag="0"/>
    </comp>
    <comp name="--.HHZ">
      <acc value="0.0237345903" flag="0"/>
      <vel value="0.0101564822" flag="0"/>
      <psa03 value="0.0488769029" flag="0"/>
      <psa10 value="0.0067141372" flag="0"/>
      <psa30 value="0.0009064577" flag="0"/>
    </comp>
  </station>
</stationlist>
