<stationlist created="1775808398">
	<station code="AGRP" name="AGRP" netid="CL" source="Corinth Riff Laboratory (CRLNET)" insttype="" lat="38.3959" lon="21.72277">
		<comp name="00.HNE" depth="0.0">
			<acc value="0.0172232321236615" flag="0"/>
			<vel value="0.00841519962301573" flag="0"/>
			<psa03 value="0.0582785221244079" flag="0"/>
			<psa10 value="0.00662172881328612" flag="0"/>
			<psa30 value="0.000961885595199992" flag="0"/>
		</comp>
		<comp name="00.HNN" depth="0.0">
			<acc value="0.0188861794599265" flag="0"/>
			<vel value="0.00859095425262609" flag="0"/>
			<psa03 value="0.0453169343161611" flag="0"/>
			<psa10 value="0.00773420110286557" flag="0"/>
			<psa30 value="0.000798325072618084" flag="0"/>
		</comp>
		<comp name="00.HNZ" depth="0.0">
			<acc value="0.00841446632618391" flag="0"/>
			<vel value="0.00579427234677421" flag="0"/>
			<psa03 value="0.0218951040890236" flag="0"/>
			<psa10 value="0.00472049255321467" flag="0"/>
			<psa30 value="0.000692816416520761" flag="0"/>
		</comp>
	</station>
	<station code="MALA" name="MALA" netid="CL" source="Corinth Riff Laboratory (CRLNET)" insttype="" lat="38.39341" lon="21.87263">
		<comp name="01.HNE" depth="0.0">
			<acc value="0.0413410925239846" flag="0"/>
			<vel value="0.0339481220535599" flag="0"/>
			<psa03 value="0.0845370376638589" flag="0"/>
			<psa10 value="0.0620038099481101" flag="0"/>
			<psa30 value="0.00301201557291617" flag="0"/>
		</comp>
		<comp name="01.HNN" depth="0.0">
			<acc value="0.034973847791857" flag="0"/>
			<vel value="0.0261983306030991" flag="0"/>
			<psa03 value="0.069762137024203" flag="0"/>
			<psa10 value="0.0516748944581506" flag="0"/>
			<psa30 value="0.00207617691153104" flag="0"/>
		</comp>
		<comp name="01.HNZ" depth="0.0">
			<acc value="0.012120657595429" flag="0"/>
			<vel value="0.00989931563991701" flag="0"/>
			<psa03 value="0.0295903404231645" flag="0"/>
			<psa10 value="0.0106272102505235" flag="0"/>
			<psa30 value="0.00146695290759736" flag="0"/>
		</comp>
	</station>
	<station code="ROD3" name="ROD3" netid="CL" source="Corinth Riff Laboratory (CRLNET)" insttype="" lat="38.30811" lon="21.89204">
		<comp name="00.HNE" depth="0.0">
			<acc value="0.0738529259897313" flag="0"/>
			<vel value="0.0273236290509835" flag="0"/>
			<psa03 value="0.126072716282054" flag="0"/>
			<psa10 value="0.0130802777542065" flag="0"/>
			<psa30 value="0.00154362632016799" flag="0"/>
		</comp>
		<comp name="00.HNN" depth="0.0">
			<acc value="0.0924459421676002" flag="0"/>
			<vel value="0.0503781100710344" flag="0"/>
			<psa03 value="0.286939779185477" flag="0"/>
			<psa10 value="0.0221796536682034" flag="0"/>
			<psa30 value="0.00170287957824809" flag="0"/>
		</comp>
		<comp name="00.HNZ" depth="0.0">
			<acc value="0.0398448502368305" flag="0"/>
			<vel value="0.0136886574328881" flag="0"/>
			<psa03 value="0.0718998619713227" flag="0"/>
			<psa10 value="0.0109974244628981" flag="0"/>
			<psa30 value="0.00166803674924834" flag="0"/>
		</comp>
	</station>
	<station code="TRIZ" name="TRIZ" netid="CL" source="Corinth Riff Laboratory (CRLNET)" insttype="" lat="38.36543" lon="22.07272">
		<comp name="00.HNE" depth="0.0">
			<acc value="0.0159729715749865" flag="0"/>
			<vel value="0.00917878370518624" flag="0"/>
			<psa03 value="0.0540683630136959" flag="0"/>
			<psa10 value="0.0115695745525336" flag="0"/>
			<psa30 value="0.000800978998427644" flag="0"/>
		</comp>
		<comp name="00.HNN" depth="0.0">
			<acc value="0.0252209747298456" flag="0"/>
			<vel value="0.0138235309155264" flag="0"/>
			<psa03 value="0.0779155417305833" flag="0"/>
			<psa10 value="0.0142436141945364" flag="0"/>
			<psa30 value="0.00116933912964519" flag="0"/>
		</comp>
		<comp name="00.HNZ" depth="0.0">
			<acc value="0.0123250457029526" flag="0"/>
			<vel value="0.00515518838477031" flag="0"/>
			<psa03 value="0.0328815818892591" flag="0"/>
			<psa10 value="0.00474095015843062" flag="0"/>
			<psa30 value="0.000544215374514357" flag="0"/>
		</comp>
	</station>
	<station code="KTHA" name="KTHA" netid="GE" source="GEOFON" insttype="" lat="36.2566" lon="23.0621">
		<comp name="--.HNE" depth="0.0">
			<acc value="0.00536512211998302" flag="0"/>
			<vel value="0.00443919481797473" flag="0"/>
			<psa03 value="0.0124630196243014" flag="0"/>
			<psa10 value="0.010966702427714" flag="0"/>
			<psa30 value="0.00159924083769016" flag="0"/>
		</comp>
		<comp name="--.HNN" depth="0.0">
			<acc value="0.00404001594648811" flag="0"/>
			<vel value="0.00425355664408797" flag="0"/>
			<psa03 value="0.00938552929733749" flag="0"/>
			<psa10 value="0.00485231191060016" flag="0"/>
			<psa30 value="0.0027435229949339" flag="0"/>
		</comp>
		<comp name="--.HNZ" depth="0.0">
			<acc value="0.00735814835295348" flag="0"/>
			<vel value="0.0171412273190542" flag="0"/>
			<psa03 value="0.0163661089139782" flag="0"/>
			<psa10 value="0.0183195642062209" flag="0"/>
			<psa30 value="0.0104667883733614" flag="0"/>
		</comp>
	</station>
	<station code="AIG2" name="AIG2" netid="HI" source="ITSAK Strong Motion Network" insttype="" lat="38.2417" lon="22.0726">
		<comp name="--.HNE" depth="0.0">
			<acc value="0.037653988891183" flag="0"/>
			<vel value="0.0183541814661277" flag="0"/>
			<psa03 value="0.123911521030142" flag="0"/>
			<psa10 value="0.0102148657472238" flag="0"/>
			<psa30 value="0.00179119574126046" flag="0"/>
		</comp>
		<comp name="--.HNN" depth="0.0">
			<acc value="0.0344770034844391" flag="0"/>
			<vel value="0.0220792120437464" flag="0"/>
			<psa03 value="0.0963219641907373" flag="0"/>
			<psa10 value="0.0168417638091973" flag="0"/>
			<psa30 value="0.00109432353523021" flag="0"/>
		</comp>
		<comp name="--.HNZ" depth="0.0">
			<acc value="0.0209429866872581" flag="0"/>
			<vel value="0.00879501685250592" flag="0"/>
			<psa03 value="0.0523836368255208" flag="0"/>
			<psa10 value="0.0098640140675219" flag="0"/>
			<psa30 value="0.000992652529191706" flag="0"/>
		</comp>
	</station>
	<station code="AKR1" name="AKR1" netid="HI" source="ITSAK Strong Motion Network" insttype="" lat="38.153583" lon="22.31326">
		<comp name="--.HNE" depth="0.0">
			<acc value="0.0522927621114407" flag="0"/>
			<vel value="0.0204817268287695" flag="0"/>
			<psa03 value="0.146023673351713" flag="0"/>
			<psa10 value="0.0275518226730347" flag="0"/>
			<psa30 value="0.00166396772969576" flag="0"/>
		</comp>
		<comp name="--.HNN" depth="0.0">
			<acc value="0.0415231432754986" flag="0"/>
			<vel value="0.0179779811379729" flag="0"/>
			<psa03 value="0.142840983347453" flag="0"/>
			<psa10 value="0.0227412421206823" flag="0"/>
			<psa30 value="0.00126681964975123" flag="0"/>
		</comp>
		<comp name="--.HNZ" depth="0.0">
			<acc value="0.0217971868395543" flag="0"/>
			<vel value="0.0155063231610093" flag="0"/>
			<psa03 value="0.0666778806240199" flag="0"/>
			<psa10 value="0.0122988975541031" flag="0"/>
			<psa30 value="0.000878566846575136" flag="0"/>
		</comp>
	</station>
	<station code="ARE2" name="ARE2" netid="HI" source="ITSAK Strong Motion Network" insttype="" lat="36.66629" lon="22.382635">
		<comp name="--.HNE" depth="0.0">
			<acc value="0.0322995481600048" flag="0"/>
			<vel value="0.0141196815178933" flag="0"/>
			<psa03 value="0.0585818130492765" flag="0"/>
			<psa10 value="0.0225974182180546" flag="0"/>
			<psa30 value="0.00111538472209715" flag="0"/>
		</comp>
		<comp name="--.HNN" depth="0.0">
			<acc value="0.0309413969620248" flag="0"/>
			<vel value="0.011894482769225" flag="0"/>
			<psa03 value="0.0929654085020627" flag="0"/>
			<psa10 value="0.00873944863308095" flag="0"/>
			<psa30 value="0.000727146919914792" flag="0"/>
		</comp>
		<comp name="--.HNZ" depth="0.0">
			<acc value="0.0196102387674818" flag="0"/>
			<vel value="0.00812073226003888" flag="0"/>
			<psa03 value="0.0283460001792302" flag="0"/>
			<psa10 value="0.0114563057990346" flag="0"/>
			<psa30 value="0.000529595187248703" flag="0"/>
		</comp>
	</station>
	<station code="ARG2" name="ARG2" netid="HI" source="ITSAK Strong Motion Network" insttype="" lat="38.1783" lon="20.4878">
		<comp name="--.HNE" depth="0.0">
			<acc value="0.0220774964592792" flag="0"/>
			<vel value="0.011160040105223" flag="0"/>
			<psa03 value="0.0570550869111627" flag="0"/>
			<psa10 value="0.00744865249917198" flag="0"/>
			<psa30 value="0.000766647453297937" flag="0"/>
		</comp>
		<comp name="--.HNN" depth="0.0">
			<acc value="0.0336511600648738" flag="0"/>
			<vel value="0.0137744697262321" flag="0"/>
			<psa03 value="0.0547822228034035" flag="0"/>
			<psa10 value="0.0114223491745748" flag="0"/>
			<psa30 value="0.000772539197763759" flag="0"/>
		</comp>
		<comp name="--.HNZ" depth="0.0">
			<acc value="0.0150385288662444" flag="0"/>
			<vel value="0.00810504325906025" flag="0"/>
			<psa03 value="0.0541232624838497" flag="0"/>
			<psa10 value="0.00818386526590954" flag="0"/>
			<psa30 value="0.00085205555908245" flag="0"/>
		</comp>
	</station>
	<station code="ARS1" name="ARS1" netid="HI" source="ITSAK Strong Motion Network" insttype="" lat="37.6349" lon="22.7293">
		<comp name="--.HNE" depth="0.0">
			<acc value="0.027486994074979" flag="0"/>
			<vel value="0.0228280341614411" flag="0"/>
			<psa03 value="0.0803667093167395" flag="0"/>
			<psa10 value="0.0173698962953825" flag="0"/>
			<psa30 value="0.00169206323671855" flag="0"/>
		</comp>
		<comp name="--.HNN" depth="0.0">
			<acc value="0.0281024086118248" flag="0"/>
			<vel value="0.0227098146560956" flag="0"/>
			<psa03 value="0.113666863205173" flag="0"/>
			<psa10 value="0.0261613149337213" flag="0"/>
			<psa30 value="0.00131580122787373" flag="0"/>
		</comp>
		<comp name="--.HNZ" depth="0.0">
			<acc value="0.0151614954328486" flag="0"/>
			<vel value="0.00833985181809653" flag="0"/>
			<psa03 value="0.0617156404416279" flag="0"/>
			<psa10 value="0.00913373475260131" flag="0"/>
			<psa30 value="0.00110899627806075" flag="0"/>
		</comp>
	</station>
	<station code="GTH2" name="GTH2" netid="HI" source="ITSAK Strong Motion Network" insttype="" lat="36.7603" lon="22.5659">
		<comp name="--.HNE" depth="0.0">
			<acc value="0.0317356575036635" flag="0"/>
			<vel value="0.0214302637415945" flag="0"/>
			<psa03 value="0.0731278339434393" flag="0"/>
			<psa10 value="0.020233514746051" flag="0"/>
			<psa30 value="0.00137579530635366" flag="0"/>
		</comp>
		<comp name="--.HNN" depth="0.0">
			<acc value="0.0412854965988118" flag="0"/>
			<vel value="0.0217198015066247" flag="0"/>
			<psa03 value="0.117417444996143" flag="0"/>
			<psa10 value="0.0176733870251539" flag="0"/>
			<psa30 value="0.00117693390359502" flag="0"/>
		</comp>
		<comp name="--.HNZ" depth="0.0">
			<acc value="0.0224542171208827" flag="0"/>
			<vel value="0.00866977150741509" flag="0"/>
			<psa03 value="0.0370535249266771" flag="0"/>
			<psa10 value="0.00943217108504369" flag="0"/>
			<psa30 value="0.000719623348598449" flag="0"/>
		</comp>
	</station>
	<station code="KAL3" name="KAL3" netid="HI" source="ITSAK Strong Motion Network" insttype="" lat="37.0246" lon="22.103">
		<comp name="--.HNE" depth="0.0">
			<acc value="0.136006793385975" flag="0"/>
			<vel value="0.0863465138519652" flag="0"/>
			<psa03 value="0.215624742414287" flag="0"/>
			<psa10 value="0.134382487180261" flag="0"/>
			<psa30 value="0.0115449822984174" flag="0"/>
		</comp>
		<comp name="--.HNN" depth="0.0">
			<acc value="0.122264136524533" flag="0"/>
			<vel value="0.103087006820073" flag="0"/>
			<psa03 value="0.259144792070658" flag="0"/>
			<psa10 value="0.0976318526310845" flag="0"/>
			<psa30 value="0.0107290315790201" flag="0"/>
		</comp>
		<comp name="--.HNZ" depth="0.0">
			<acc value="0.060868383356845" flag="0"/>
			<vel value="0.0371062931088535" flag="0"/>
			<psa03 value="0.12892137374163" flag="0"/>
			<psa10 value="0.0536965633837951" flag="0"/>
			<psa30 value="0.00462747738099934" flag="0"/>
		</comp>
	</station>
	<station code="KLV1" name="KLV1" netid="HI" source="ITSAK Strong Motion Network" insttype="" lat="38.03256" lon="22.10797">
		<comp name="--.HNE" depth="0.0">
			<acc value="0.0656275592362033" flag="0"/>
			<vel value="0.0307197858273243" flag="0"/>
			<psa03 value="0.22678291908873" flag="0"/>
			<psa10 value="0.0256778122790433" flag="0"/>
			<psa30 value="0.00162346390068254" flag="0"/>
		</comp>
		<comp name="--.HNN" depth="0.0">
			<acc value="0.0968198983712642" flag="0"/>
			<vel value="0.046439717322388" flag="0"/>
			<psa03 value="0.266467902190763" flag="0"/>
			<psa10 value="0.0209855708160747" flag="0"/>
			<psa30 value="0.00153720193625075" flag="0"/>
		</comp>
		<comp name="--.HNZ" depth="0.0">
			<acc value="0.0350822498540539" flag="0"/>
			<vel value="0.0168916726678266" flag="0"/>
			<psa03 value="0.0590395152448007" flag="0"/>
			<psa10 value="0.0175694676410047" flag="0"/>
			<psa30 value="0.000861575148041833" flag="0"/>
		</comp>
	</station>
	<station code="KOR2" name="KOR2" netid="HI" source="ITSAK Strong Motion Network" insttype="" lat="37.9401" lon="22.9495">
		<comp name="--.HNE" depth="0.0">
			<acc value="0.0282909236577411" flag="0"/>
			<vel value="0.0273298481356367" flag="0"/>
			<psa03 value="0.0676374233556834" flag="0"/>
			<psa10 value="0.0410360884394644" flag="0"/>
			<psa30 value="0.00220829733052705" flag="0"/>
		</comp>
		<comp name="--.HNN" depth="0.0">
			<acc value="0.0287838570965542" flag="0"/>
			<vel value="0.0252113275433863" flag="0"/>
			<psa03 value="0.0837804042072725" flag="0"/>
			<psa10 value="0.0468331549666713" flag="0"/>
			<psa30 value="0.00219543585351732" flag="0"/>
		</comp>
		<comp name="--.HNZ" depth="0.0">
			<acc value="0.0159280179290212" flag="0"/>
			<vel value="0.0105136490426167" flag="0"/>
			<psa03 value="0.0520275871973137" flag="0"/>
			<psa10 value="0.025793023661232" flag="0"/>
			<psa30 value="0.00110041883484723" flag="0"/>
		</comp>
	</station>
	<station code="KRI1" name="KRI1" netid="HI" source="ITSAK Strong Motion Network" insttype="" lat="37.6621" lon="20.8172">
		<comp name="--.HNE" depth="0.0">
			<acc value="0.041114207780413" flag="0"/>
			<vel value="0.018335494938367" flag="0"/>
			<psa03 value="0.111267714690025" flag="0"/>
			<psa10 value="0.0222952457006083" flag="0"/>
			<psa30 value="0.00163444150289481" flag="0"/>
		</comp>
		<comp name="--.HNN" depth="0.0">
			<acc value="0.0425627597136581" flag="0"/>
			<vel value="0.0290721322482643" flag="0"/>
			<psa03 value="0.098880602437964" flag="0"/>
			<psa10 value="0.0276918832013574" flag="0"/>
			<psa30 value="0.00242481979907796" flag="0"/>
		</comp>
		<comp name="--.HNZ" depth="0.0">
			<acc value="0.0245888701291913" flag="0"/>
			<vel value="0.0108317257182047" flag="0"/>
			<psa03 value="0.0743165272718718" flag="0"/>
			<psa10 value="0.00845613986526549" flag="0"/>
			<psa30 value="0.00109186160130584" flag="0"/>
		</comp>
	</station>
	<station code="KYP2" name="KYP2" netid="HI" source="ITSAK Strong Motion Network" insttype="" lat="37.2497" lon="21.667">
		<comp name="--.HNE" depth="0.0">
			<acc value="1.24683323910142" flag="0"/>
			<vel value="0.289796538129558" flag="0"/>
			<psa03 value="1.09230944347319" flag="0"/>
			<psa10 value="0.0620537632572717" flag="0"/>
			<psa30 value="0.00751364940906494" flag="0"/>
		</comp>
		<comp name="--.HNN" depth="0.0">
			<acc value="1.32151136439683" flag="0"/>
			<vel value="0.27006123545115" flag="0"/>
			<psa03 value="1.38979431705275" flag="0"/>
			<psa10 value="0.0952191753030523" flag="0"/>
			<psa30 value="0.0109844443321948" flag="0"/>
		</comp>
		<comp name="--.HNZ" depth="0.0">
			<acc value="0.808719864404313" flag="0"/>
			<vel value="0.170845469850035" flag="0"/>
			<psa03 value="0.961773212755207" flag="0"/>
			<psa10 value="0.0598532337329904" flag="0"/>
			<psa30 value="0.00414447080085055" flag="0"/>
		</comp>
	</station>
	<station code="LEO1" name="LEO1" netid="HI" source="ITSAK Strong Motion Network" insttype="" lat="37.1689" lon="22.8637">
		<comp name="--.HNE" depth="0.0">
			<acc value="0.0149689104819486" flag="0"/>
			<vel value="0.00760191121634384" flag="0"/>
			<psa03 value="0.0464786310645361" flag="0"/>
			<psa10 value="0.00836063416348146" flag="0"/>
			<psa30 value="0.000618495451454907" flag="0"/>
		</comp>
		<comp name="--.HNN" depth="0.0">
			<acc value="0.0123735917953747" flag="0"/>
			<vel value="0.00617690009261471" flag="0"/>
			<psa03 value="0.0382226492504258" flag="0"/>
			<psa10 value="0.00973867982724359" flag="0"/>
			<psa30 value="0.000472371865234457" flag="0"/>
		</comp>
		<comp name="--.HNZ" depth="0.0">
			<acc value="0.00887508234034965" flag="0"/>
			<vel value="0.00490651409873716" flag="0"/>
			<psa03 value="0.0288620447813192" flag="0"/>
			<psa10 value="0.00551803960554273" flag="0"/>
			<psa30 value="0.000442446289061903" flag="0"/>
		</comp>
	</station>
	<station code="MSL1" name="MSL1" netid="HI" source="ITSAK Strong Motion Network" insttype="" lat="38.3727" lon="21.4243">
		<comp name="--.HNE" depth="0.0">
			<acc value="0.0214371711610744" flag="0"/>
			<vel value="0.0305182963193482" flag="0"/>
			<psa03 value="0.0650193436707531" flag="0"/>
			<psa10 value="0.0438042255649637" flag="0"/>
			<psa30 value="0.00350260744722014" flag="0"/>
		</comp>
		<comp name="--.HNN" depth="0.0">
			<acc value="0.025722363070383" flag="0"/>
			<vel value="0.0299811216630745" flag="0"/>
			<psa03 value="0.0656320769696604" flag="0"/>
			<psa10 value="0.0505020680141546" flag="0"/>
			<psa30 value="0.00287036327247979" flag="0"/>
		</comp>
		<comp name="--.HNZ" depth="0.0">
			<acc value="0.0192422579875385" flag="0"/>
			<vel value="0.00904398727462563" flag="0"/>
			<psa03 value="0.0366497403654316" flag="0"/>
			<psa10 value="0.0184883647634294" flag="0"/>
			<psa30 value="0.000738381674578818" flag="0"/>
		</comp>
	</station>
	<station code="NMA1" name="NMA1" netid="HI" source="ITSAK Strong Motion Network" insttype="" lat="37.81873" lon="22.662702">
		<comp name="--.HNE" depth="0.0">
			<acc value="0.0332866144082298" flag="0"/>
			<vel value="0.0189508999399612" flag="0"/>
			<psa03 value="0.104710947003011" flag="0"/>
			<psa10 value="0.0269030146926902" flag="0"/>
			<psa30 value="0.00176078601843223" flag="0"/>
		</comp>
		<comp name="--.HNN" depth="0.0">
			<acc value="0.0274187048993591" flag="0"/>
			<vel value="0.0181593797758564" flag="0"/>
			<psa03 value="0.0972323474158247" flag="0"/>
			<psa10 value="0.0179676596442707" flag="0"/>
			<psa30 value="0.00143628139659362" flag="0"/>
		</comp>
		<comp name="--.HNZ" depth="0.0">
			<acc value="0.0465384584287789" flag="0"/>
			<vel value="0.0111500493748276" flag="0"/>
			<psa03 value="0.0531992481474347" flag="0"/>
			<psa10 value="0.0112731539786253" flag="0"/>
			<psa30 value="0.000886023903068531" flag="0"/>
		</comp>
	</station>
	<station code="NPS1" name="NPS1" netid="HI" source="ITSAK Strong Motion Network" insttype="" lat="36.51263" lon="23.06248">
		<comp name="--.HNE" depth="0.0">
			<acc value="0.0100933837193651" flag="0"/>
			<vel value="0.00840460530542091" flag="0"/>
			<psa03 value="0.0250141258130721" flag="0"/>
			<psa10 value="0.00909600912846386" flag="0"/>
			<psa30 value="0.00110721751439305" flag="0"/>
		</comp>
		<comp name="--.HNN" depth="0.0">
			<acc value="0.0118052741287417" flag="0"/>
			<vel value="0.0068154106240477" flag="0"/>
			<psa03 value="0.0300987855634931" flag="0"/>
			<psa10 value="0.00695341859860655" flag="0"/>
			<psa30 value="0.000657174315823179" flag="0"/>
		</comp>
		<comp name="--.HNZ" depth="0.0">
			<acc value="0.0073335279458289" flag="0"/>
			<vel value="0.00337569008925552" flag="0"/>
			<psa03 value="0.0163322980804264" flag="0"/>
			<psa10 value="0.00516068499505359" flag="0"/>
			<psa30 value="0.000439869972560245" flag="0"/>
		</comp>
	</station>
	<station code="PAT5" name="PAT5" netid="HI" source="ITSAK Strong Motion Network" insttype="" lat="38.29595" lon="21.795083">
		<comp name="--.HNE" depth="0.0">
			<acc value="0.0379332382799273" flag="0"/>
			<vel value="0.0178828618076742" flag="0"/>
			<psa03 value="0.105086690644183" flag="0"/>
