<?xml version="1.0" encoding="UTF-8" standalone="yes"?>
<!DOCTYPE earthquake SYSTEM "stationlist.dtd">
<stationlist created="" xmlns="ch.ethz.sed.shakemap.usgs.xml">
  <station code="ACOR" name="ACOR" netid="HA" insttype="Horizon,120s,1200" lat="37.8905" lon="22.8694">
    <comp name="--.HHE">
      <acc value="0.0194006008" flag="0"/>
      <vel value="0.0124795852" flag="0"/>
      <psa03 value="0.0512570383" flag="0"/>
      <psa10 value="0.0253078730" flag="0"/>
      <psa30 value="0.0019099122" flag="0"/>
    </comp>
    <comp name="--.HHN">
      <acc value="0.0174351842" flag="0"/>
      <vel value="0.0211084560" flag="0"/>
      <psa03 value="0.0571493369" flag="0"/>
      <psa10 value="0.0267398878" flag="0"/>
      <psa30 value="0.0036369683" flag="0"/>
    </comp>
    <comp name="--.HHZ">
      <acc value="0.0141172473" flag="0"/>
      <vel value="0.0085905840" flag="0"/>
      <psa03 value="0.0298462170" flag="0"/>
      <psa10 value="0.0150908361" flag="0"/>
      <psa30 value="0.0014470865" flag="0"/>
    </comp>
  </station>
  <station code="AMPE" name="AMPE" netid="HA" insttype="1s-100Hz," lat="38.3015" lon="23.2688">
    <comp name="--.HHE">
      <acc value="0.0465340449" flag="0"/>
      <vel value="0.0273898749" flag="0"/>
      <psa03 value="0.1214392079" flag="0"/>
      <psa10 value="0.0326120599" flag="0"/>
      <psa30 value="0.0041884274" flag="0"/>
    </comp>
    <comp name="--.HHZ">
      <acc value="0.0268957813" flag="0"/>
      <vel value="0.0136053067" flag="0"/>
      <psa03 value="0.0712436529" flag="0"/>
      <psa10 value="0.0145972181" flag="0"/>
      <psa30 value="0.0015338252" flag="0"/>
    </comp>
    <comp name="--.HHN">
      <acc value="0.0305738868" flag="0"/>
      <vel value="0.0175037678" flag="0"/>
      <psa03 value="0.0886970164" flag="0"/>
      <psa10 value="0.0200084583" flag="0"/>
      <psa30 value="0.0053429217" flag="0"/>
    </comp>
  </station>
  <station code="ATHU" name="ATHU" netid="HA" insttype="60" lat="37.9665" lon="23.7845">
    <comp name="--.HHE">
      <acc value="0.0705777019" flag="0"/>
      <vel value="0.0220349969" flag="0"/>
      <psa03 value="0.0470410528" flag="0"/>
      <psa10 value="0.0217895551" flag="0"/>
      <psa30 value="0.0037133731" flag="0"/>
    </comp>
    <comp name="--.HHZ">
      <acc value="0.0597686604" flag="0"/>
      <vel value="0.0112383506" flag="0"/>
      <psa03 value="0.0452553892" flag="0"/>
      <psa10 value="0.0087990607" flag="0"/>
      <psa30 value="0.0009430725" flag="0"/>
    </comp>
    <comp name="--.HHN">
      <acc value="0.0557005051" flag="0"/>
      <vel value="0.0165019146" flag="0"/>
      <psa03 value="0.0373285127" flag="0"/>
      <psa10 value="0.0173911256" flag="0"/>
      <psa30 value="0.0028611874" flag="0"/>
    </comp>
  </station>
  <station code="AXAR" name="AXAR" netid="HA" insttype="Horizon,120s,1200" lat="38.7664" lon="22.659">
    <comp name="--.HHN">
      <acc value="0.0261555745" flag="0"/>
      <vel value="0.0208172291" flag="0"/>
      <psa03 value="0.0711153572" flag="0"/>
      <psa10 value="0.0259040066" flag="0"/>
      <psa30 value="0.0038627102" flag="0"/>
    </comp>
    <comp name="--.HHE">
      <acc value="0.0239377047" flag="0"/>
      <vel value="0.0284464301" flag="0"/>
      <psa03 value="0.0904004492" flag="0"/>
      <psa10 value="0.0239077604" flag="0"/>
      <psa30 value="0.0071365396" flag="0"/>
    </comp>
    <comp name="--.HHZ">
      <acc value="0.0142943710" flag="0"/>
      <vel value="0.0137977887" flag="0"/>
      <psa03 value="0.0429261901" flag="0"/>
      <psa10 value="0.0150485504" flag="0"/>
      <psa30 value="0.0021673417" flag="0"/>
    </comp>
  </station>
  <station code="DOMV" name="DOMV" netid="HA" insttype="60" lat="38.2569" lon="22.9795">
    <comp name="--.HHN">
      <acc value="0.0563782470" flag="0"/>
      <vel value="0.0144984715" flag="0"/>
      <psa03 value="0.0785628293" flag="0"/>
      <psa10 value="0.0100140150" flag="0"/>
      <psa30 value="0.0006013434" flag="0"/>
    </comp>
    <comp name="--.HHE">
      <acc value="0.0505320069" flag="0"/>
      <vel value="0.0119472943" flag="0"/>
      <psa03 value="0.0536198961" flag="0"/>
      <psa10 value="0.0051352341" flag="0"/>
      <psa30 value="0.0003789902" flag="0"/>
    </comp>
    <comp name="--.HHZ">
      <acc value="0.0277868567" flag="0"/>
      <vel value="0.0092016498" flag="0"/>
      <psa03 value="0.0485674448" flag="0"/>
      <psa10 value="0.0056773026" flag="0"/>
      <psa30 value="0.0008011509" flag="0"/>
    </comp>
  </station>
  <station code="EPID" name="EPID" netid="HA" insttype="30" lat="37.6144" lon="23.1189">
    <comp name="--.HHE">
      <acc value="0.0891874729" flag="0"/>
      <vel value="0.0415023261" flag="0"/>
      <psa03 value="0.1880220741" flag="0"/>
      <psa10 value="0.0328307485" flag="0"/>
      <psa30 value="0.0034721180" flag="0"/>
    </comp>
    <comp name="--.HHN">
      <acc value="0.0885004030" flag="0"/>
      <vel value="0.0333804688" flag="0"/>
      <psa03 value="0.1128282309" flag="0"/>
      <psa10 value="0.0234710541" flag="0"/>
      <psa30 value="0.0046033331" flag="0"/>
    </comp>
    <comp name="--.HHZ">
      <acc value="0.0514497803" flag="0"/>
      <vel value="0.0241806738" flag="0"/>
      <psa03 value="0.0511466227" flag="0"/>
      <psa10 value="0.0108538687" flag="0"/>
      <psa30 value="0.0025319108" flag="0"/>
    </comp>
  </station>
  <station code="ERTR" name="ERTR" netid="HA" insttype="Horizon,120s,1200" lat="38.4066" lon="23.7865">
    <comp name="--.HHE">
      <acc value="0.0895486768" flag="0"/>
      <vel value="0.0302319150" flag="0"/>
      <psa03 value="0.0796924878" flag="0"/>
      <psa10 value="0.0356983300" flag="0"/>
      <psa30 value="0.0026558261" flag="0"/>
    </comp>
    <comp name="--.HHN">
      <acc value="0.1267454470" flag="0"/>
      <vel value="0.0487660833" flag="0"/>
      <psa03 value="0.1349031878" flag="0"/>
      <psa10 value="0.0474725060" flag="0"/>
      <psa30 value="0.0067721092" flag="0"/>
    </comp>
    <comp name="--.HHZ">
      <acc value="0.0634248161" flag="0"/>
      <vel value="0.0212404529" flag="0"/>
      <psa03 value="0.0898614432" flag="0"/>
      <psa10 value="0.0175357793" flag="0"/>
      <psa30 value="0.0013239847" flag="0"/>
    </comp>
  </station>
  <station code="KARY" name="KARY" netid="HA" insttype="60" lat="38.0321" lon="24.437">
    <comp name="--.HHE">
      <acc value="2.1457341082" flag="0"/>
      <vel value="0.3099947268" flag="0"/>
      <psa03 value="1.0475075897" flag="0"/>
      <psa10 value="0.0748406308" flag="0"/>
      <psa30 value="0.0068702132" flag="0"/>
    </comp>
    <comp name="--.HHN">
      <acc value="2.6485121924" flag="0"/>
      <vel value="0.4628004229" flag="0"/>
      <psa03 value="0.9470328629" flag="0"/>
      <psa10 value="0.0887860237" flag="0"/>
      <psa30 value="0.0073329784" flag="0"/>
    </comp>
    <comp name="--.HHZ">
      <acc value="2.2635519308" flag="0"/>
      <vel value="0.3300680884" flag="0"/>
      <psa03 value="0.6107305068" flag="0"/>
      <psa10 value="0.0693154092" flag="0"/>
      <psa30 value="0.0063979202" flag="0"/>
    </comp>
  </station>
  <station code="LOUT" name="LOUT" netid="HA" insttype="30" lat="37.9879" lon="22.9743">
    <comp name="--.HHZ">
      <acc value="0.0729604953" flag="0"/>
      <vel value="0.0376991681" flag="0"/>
      <psa03 value="0.1522383607" flag="0"/>
      <psa10 value="0.0241049382" flag="0"/>
      <psa30 value="0.0018653550" flag="0"/>
    </comp>
    <comp name="--.HHE">
      <acc value="0.1204911356" flag="0"/>
      <vel value="0.0529229111" flag="0"/>
      <psa03 value="0.2162601899" flag="0"/>
      <psa10 value="0.0522177169" flag="0"/>
      <psa30 value="0.0039627536" flag="0"/>
    </comp>
    <comp name="--.HHN">
      <acc value="0.1136336484" flag="0"/>
      <vel value="0.0503160960" flag="0"/>
      <psa03 value="0.2320775544" flag="0"/>
      <psa10 value="0.0389973892" flag="0"/>
      <psa30 value="0.0038013214" flag="0"/>
    </comp>
  </station>
  <station code="LTRS" name="LTRS" netid="HA" insttype="DC" lat="37.9753" lon="22.9765">
    <comp name="--.HNE">
      <acc value="0.1250909182" flag="0"/>
      <vel value="0.0952609321" flag="0"/>
      <psa03 value="0.3555897244" flag="0"/>
      <psa10 value="0.1027534027" flag="0"/>
      <psa30 value="0.0083233315" flag="0"/>
    </comp>
    <comp name="--.HNZ">
      <acc value="0.0622991055" flag="0"/>
      <vel value="0.0427061745" flag="0"/>
      <psa03 value="0.1384300158" flag="0"/>
      <psa10 value="0.0429599314" flag="0"/>
      <psa30 value="0.0038069452" flag="0"/>
    </comp>
    <comp name="--.HNN">
      <acc value="0.0920918495" flag="0"/>
      <vel value="0.0628304458" flag="0"/>
      <psa03 value="0.2643065700" flag="0"/>
      <psa10 value="0.0577561102" flag="0"/>
      <psa30 value="0.0056992455" flag="0"/>
    </comp>
  </station>
  <station code="MDRA" name="MDRA" netid="HA" insttype="60" lat="38.0606" lon="23.4662">
    <comp name="--.HHE">
      <acc value="0.0374191910" flag="0"/>
      <vel value="0.0089730777" flag="0"/>
      <psa03 value="0.0530097558" flag="0"/>
      <psa10 value="0.0047298707" flag="0"/>
      <psa30 value="0.0005150969" flag="0"/>
    </comp>
    <comp name="--.HHN">
      <acc value="0.0439567921" flag="0"/>
      <vel value="0.0120943161" flag="0"/>
      <psa03 value="0.0551230493" flag="0"/>
      <psa10 value="0.0121236824" flag="0"/>
      <psa30 value="0.0011365020" flag="0"/>
    </comp>
    <comp name="--.HHZ">
      <acc value="0.0389422293" flag="0"/>
      <vel value="0.0142006363" flag="0"/>
      <psa03 value="0.0603515069" flag="0"/>
      <psa10 value="0.0062639211" flag="0"/>
      <psa30 value="0.0008133658" flag="0"/>
    </comp>
  </station>
  <station code="MRKA" name="MRKA" netid="HA" insttype="Horizon,120s,1200" lat="38.7047" lon="23.5863">
    <comp name="--.HHE">
      <acc value="0.1781094990" flag="0"/>
      <vel value="0.0679750729" flag="0"/>
      <psa03 value="0.2497047600" flag="0"/>
      <psa10 value="0.0458361797" flag="0"/>
      <psa30 value="0.0045755029" flag="0"/>
    </comp>
    <comp name="--.HHN">
      <acc value="0.1309400580" flag="0"/>
      <vel value="0.0582281963" flag="0"/>
      <psa03 value="0.1527624542" flag="0"/>
      <psa10 value="0.0723358327" flag="0"/>
      <psa30 value="0.0069204033" flag="0"/>
    </comp>
    <comp name="--.HHZ">
      <acc value="0.0665223577" flag="0"/>
      <vel value="0.0309993463" flag="0"/>
      <psa03 value="0.0845939455" flag="0"/>
      <psa10 value="0.0329661156" flag="0"/>
      <psa30 value="0.0026559264" flag="0"/>
    </comp>
  </station>
  <station code="MRTH" name="MRTH" netid="HA" insttype="S100," lat="38.1225" lon="23.9409">
    <comp name="--.HHE">
      <acc value="0.5203890205" flag="0"/>
      <vel value="0.2586898871" flag="0"/>
      <psa03 value="1.1320791720" flag="0"/>
      <psa10 value="0.1307044185" flag="0"/>
      <psa30 value="0.0129184157" flag="0"/>
    </comp>
    <comp name="--.HHN">
      <acc value="0.7628339731" flag="0"/>
      <vel value="0.2702645152" flag="0"/>
      <psa03 value="1.4700528796" flag="0"/>
      <psa10 value="0.1172652203" flag="0"/>
      <psa30 value="0.0112514088" flag="0"/>
    </comp>
    <comp name="--.HHZ">
      <acc value="0.5724535905" flag="0"/>
      <vel value="0.1655981953" flag="0"/>
      <psa03 value="1.1451217087" flag="0"/>
      <psa10 value="0.0658990018" flag="0"/>
      <psa30 value="0.0080805283" flag="0"/>
    </comp>
  </station>
  <station code="PSAH" name="PSAH" netid="HA" insttype="25" lat="38.5694" lon="23.6473">
    <comp name="--.HHE">
      <acc value="0.0418893880" flag="0"/>
      <vel value="0.0077947463" flag="0"/>
      <psa03 value="0.0292559783" flag="0"/>
      <psa10 value="0.0092175798" flag="0"/>
      <psa30 value="0.0012286044" flag="0"/>
    </comp>
    <comp name="--.HHN">
      <acc value="0.0472035748" flag="0"/>
      <vel value="0.0112352335" flag="0"/>
      <psa03 value="0.0449048852" flag="0"/>
      <psa10 value="0.0073621809" flag="0"/>
      <psa30 value="0.0007447153" flag="0"/>
    </comp>
    <comp name="--.HHZ">
      <acc value="0.0216218864" flag="0"/>
      <vel value="0.0062086827" flag="0"/>
      <psa03 value="0.0133716015" flag="0"/>
      <psa10 value="0.0077001180" flag="0"/>
      <psa30 value="0.0004685430" flag="0"/>
    </comp>
  </station>
  <station code="SERI" name="SERI" netid="HA" insttype="30" lat="37.1609" lon="24.4853">
    <comp name="--.HHE">
      <acc value="0.0739779927" flag="0"/>
      <vel value="0.0309030674" flag="0"/>
      <psa03 value="0.0877559390" flag="0"/>
      <psa10 value="0.0463280260" flag="0"/>
      <psa30 value="0.0042412304" flag="0"/>
    </comp>
    <comp name="--.HHN">
      <acc value="0.0669999649" flag="0"/>
      <vel value="0.0135423191" flag="0"/>
      <psa03 value="0.0824680729" flag="0"/>
      <psa10 value="0.0104247611" flag="0"/>
      <psa30 value="0.0014662701" flag="0"/>
    </comp>
    <comp name="--.HHZ">
      <acc value="0.0626126235" flag="0"/>
      <vel value="0.0146519498" flag="0"/>
      <psa03 value="0.0543087323" flag="0"/>
      <psa10 value="0.0165879767" flag="0"/>
      <psa30 value="0.0009326271" flag="0"/>
    </comp>
  </station>
  <station code="STFN" name="STFN" netid="HA" insttype="1s-100Hz," lat="38.1766" lon="23.544">
    <comp name="--.HHN">
      <acc value="0.1413397458" flag="0"/>
      <vel value="0.0410654894" flag="0"/>
      <psa03 value="0.1410929037" flag="0"/>
      <psa10 value="0.0276753663" flag="0"/>
      <psa30 value="0.0029076602" flag="0"/>
    </comp>
    <comp name="--.HHE">
      <acc value="0.1364250751" flag="0"/>
      <vel value="0.0451226680" flag="0"/>
      <psa03 value="0.2725972281" flag="0"/>
      <psa10 value="0.0344991992" flag="0"/>
      <psa30 value="0.0023709560" flag="0"/>
    </comp>
    <comp name="--.HHZ">
      <acc value="0.0777280311" flag="0"/>
      <vel value="0.0201058646" flag="0"/>
      <psa03 value="0.1032559982" flag="0"/>
      <psa10 value="0.0165997164" flag="0"/>
      <psa30 value="0.0013574028" flag="0"/>
    </comp>
  </station>
  <station code="THAL" name="THAL" netid="HA" insttype="30" lat="38.0357" lon="22.6634">
    <comp name="--.HHE">
      <acc value="0.0755362908" flag="0"/>
      <vel value="0.0231523573" flag="0"/>
      <psa03 value="0.1893539334" flag="0"/>
      <psa10 value="0.0247287421" flag="0"/>
      <psa30 value="0.0023396213" flag="0"/>
    </comp>
    <comp name="--.HHZ">
      <acc value="0.0270572848" flag="0"/>
      <vel value="0.0138376425" flag="0"/>
      <psa03 value="0.0575763538" flag="0"/>
      <psa10 value="0.0111731741" flag="0"/>
      <psa30 value="0.0014781224" flag="0"/>
    </comp>
    <comp name="--.HHN">
      <acc value="0.0555080778" flag="0"/>
      <vel value="0.0303543903" flag="0"/>
      <psa03 value="0.2154354694" flag="0"/>
      <psa10 value="0.0202568225" flag="0"/>
      <psa30 value="0.0024819008" flag="0"/>
    </comp>
  </station>
  <station code="THIV" name="THIV" netid="HA" insttype="25" lat="38.299" lon="23.332">
    <comp name="--.HHE">
      <acc value="0.0261487581" flag="0"/>
      <vel value="0.0087235080" flag="0"/>
      <psa03 value="0.0637910112" flag="0"/>
      <psa10 value="0.0075916331" flag="0"/>
      <psa30 value="0.0007627213" flag="0"/>
    </comp>
    <comp name="--.HHN">
      <acc value="0.0271069170" flag="0"/>
      <vel value="0.0103138730" flag="0"/>
      <psa03 value="0.0672627335" flag="0"/>
      <psa10 value="0.0065794062" flag="0"/>
      <psa30 value="0.0009307812" flag="0"/>
    </comp>
    <comp name="--.HHZ">
      <acc value="0.0240726866" flag="0"/>
      <vel value="0.0066916265" flag="0"/>
      <psa03 value="0.0422884984" flag="0"/>
      <psa10 value="0.0044719579" flag="0"/>
      <psa30 value="0.0009561467" flag="0"/>
    </comp>
  </station>
  <station code="VILL" name="VILL" netid="HA" insttype="Horizon,120s,1200" lat="38.1642" lon="23.3122">
    <comp name="--.HHE">
      <acc value="0.0707774398" flag="0"/>
      <vel value="0.0314036289" flag="0"/>
      <psa03 value="0.2043050163" flag="0"/>
      <psa10 value="0.0361475502" flag="0"/>
      <psa30 value="0.0038258887" flag="0"/>
    </comp>
    <comp name="--.HHN">
      <acc value="0.0596322608" flag="0"/>
      <vel value="0.0253362904" flag="0"/>
      <psa03 value="0.1742955020" flag="0"/>
      <psa10 value="0.0226430019" flag="0"/>
      <psa30 value="0.0016201147" flag="0"/>
    </comp>
    <comp name="--.HHZ">
      <acc value="0.0355134177" flag="0"/>
      <vel value="0.0185214898" flag="0"/>
      <psa03 value="0.0970081608" flag="0"/>
      <psa10 value="0.0175500953" flag="0"/>
      <psa30 value="0.0020127750" flag="0"/>
    </comp>
  </station>
  <station code="ATH5" name="ATH5" netid="HI" insttype="CMG-5TD,ACCELEROMETER,GURALP" lat="37.9754" lon="23.7371">
    <comp name="--.HNZ">
      <acc value="0.0583136080" flag="0"/>
      <vel value="0.0218691148" flag="0"/>
      <psa03 value="0.1026157883" flag="0"/>
      <psa10 value="0.0285426763" flag="0"/>
      <psa30 value="0.0016696497" flag="0"/>
    </comp>
    <comp name="--.HNN">
      <acc value="0.1202717224" flag="0"/>
      <vel value="0.0541096559" flag="0"/>
      <psa03 value="0.1653751305" flag="0"/>
      <psa10 value="0.0449439368" flag="0"/>
      <psa30 value="0.0064087069" flag="0"/>
    </comp>
    <comp name="--.HNE">
      <acc value="0.1158351088" flag="0"/>
      <vel value="0.0516885936" flag="0"/>
      <psa03 value="0.1537876483" flag="0"/>
      <psa10 value="0.0280526062" flag="0"/>
      <psa30 value="0.0057174339" flag="0"/>
    </comp>
  </station>
  <station code="SKY1" name="SKY1" netid="HI" insttype="CMG-5TD,ACCELEROMETER,GURALP" lat="38.9045" lon="24.5646">
    <comp name="--.HNZ">
      <acc value="0.0883662791" flag="0"/>
      <vel value="0.0424663561" flag="0"/>
      <psa03 value="0.2268084468" flag="0"/>
      <psa10 value="0.0298706486" flag="0"/>
      <psa30 value="0.0030032278" flag="0"/>
    </comp>
    <comp name="--.HNN">
      <acc value="0.1501291142" flag="0"/>
      <vel value="0.0914283522" flag="0"/>
      <psa03 value="0.5278028883" flag="0"/>
      <psa10 value="0.0307112862" flag="0"/>
      <psa30 value="0.0036297433" flag="0"/>
    </comp>
    <comp name="--.HNE">
      <acc value="0.1692550446" flag="0"/>
      <vel value="0.0803832984" flag="0"/>
      <psa03 value="0.3741735671" flag="0"/>
      <psa10 value="0.0390144764" flag="0"/>
      <psa30 value="0.0066221092" flag="0"/>
    </comp>
  </station>
  <station code="ATH" name="ATH" netid="HL" insttype="DR24" lat="37.9738" lon="23.7177">
    <comp name="--.HHE">
      <acc value="0.1642163311" flag="0"/>
      <vel value="0.0737266765" flag="0"/>
      <psa03 value="0.2255001568" flag="0"/>
      <psa10 value="0.0301133584" flag="0"/>
      <psa30 value="0.0048563766" flag="0"/>
    </comp>
    <comp name="--.HHN">
      <acc value="0.1532461852" flag="0"/>
      <vel value="0.0659901199" flag="0"/>
      <psa03 value="0.2091468666" flag="0"/>
      <psa10 value="0.0501809487" flag="0"/>
      <psa30 value="0.0062252878" flag="0"/>
    </comp>
    <comp name="--.HHZ">
      <acc value="0.1114385995" flag="0"/>
      <vel value="0.0247150558" flag="0"/>
      <psa03 value="0.0937846049" flag="0"/>
      <psa10 value="0.0281364870" flag="0"/>
      <psa30 value="0.0020197670" flag="0"/>
    </comp>
  </station>
  <station code="ATHP" name="ATHP" netid="HL" insttype="CMG-5" lat="38.0008" lon="23.7735">
    <comp name="00.HNZ">
      <acc value="0.1367418944" flag="0"/>
      <vel value="0.0467485975" flag="0"/>
      <psa03 value="0.1151484153" flag="0"/>
      <psa10 value="0.0244722623" flag="0"/>
      <psa30 value="0.0028624477" flag="0"/>
    </comp>
    <comp name="00.HNE">
      <acc value="0.1405398648" flag="0"/>
