<stationlist created="1739419357">
	<station code="ABEA" name="ABEA" netid="HC" source="Seismological Network of Crete (HC)" insttype="" lat="35.5163" lon="24.0113">
		<comp name=".HNE" depth="0.0">
			<acc value="0.0022649740975038" flag="0"/>
			<vel value="0.00255960431794" flag="0"/>
			<psa03 value="0.00161539737673213" flag="0"/>
			<psa10 value="0.00133371936798872" flag="0"/>
			<psa30 value="0.000959577629807978" flag="0"/>
		</comp>
		<comp name=".HNN" depth="0.0">
			<acc value="0.0031538472876756" flag="0"/>
			<vel value="0.00216765865672" flag="0"/>
			<psa03 value="0.00147668197006798" flag="0"/>
			<psa10 value="0.0013711866937651" flag="0"/>
			<psa30 value="0.00105220512009375" flag="0"/>
		</comp>
		<comp name=".HNZ" depth="0.0">
			<acc value="0.004637128393089" flag="0"/>
			<vel value="0.0012203958734" flag="0"/>
			<psa03 value="0.00120185305436611" flag="0"/>
			<psa10 value="0.00149783164587115" flag="0"/>
			<psa30 value="0.000481078014890253" flag="0"/>
		</comp>
	</station>
	<station code="ATEI" name="ATEI" netid="HC" source="Seismological Network of Crete (HC)" insttype="" lat="35.5193" lon="24.0432">
		<comp name=".HNE" depth="0.0">
			<acc value="0.0082869514581984" flag="0"/>
			<vel value="0.00844780619364" flag="0"/>
			<psa03 value="0.0280695573870984" flag="0"/>
			<psa10 value="0.0159146517675939" flag="0"/>
			<psa30 value="0.00219356239607512" flag="0"/>
		</comp>
		<comp name=".HNN" depth="0.0">
			<acc value="0.0091501420487148" flag="0"/>
			<vel value="0.00833447438208" flag="0"/>
			<psa03 value="0.0372373157477484" flag="0"/>
			<psa10 value="0.018458165887922" flag="0"/>
			<psa30 value="0.00237760854656266" flag="0"/>
		</comp>
		<comp name=".HNZ" depth="0.0">
			<acc value="0.0054319447370442" flag="0"/>
			<vel value="0.00614534266203" flag="0"/>
			<psa03 value="0.0138038115701691" flag="0"/>
			<psa10 value="0.0147404283560407" flag="0"/>
			<psa30 value="0.0011702110624085" flag="0"/>
		</comp>
	</station>
	<station code="G0LD" name="G0LD" netid="HC" source="Seismological Network of Crete (HC)" insttype="" lat="35.4955" lon="24.0306">
		<comp name=".HNE" depth="0.0">
			<acc value="0.0064174701491832" flag="0"/>
			<vel value="0.00272622813676" flag="0"/>
			<psa03 value="0.0026887977485606" flag="0"/>
			<psa10 value="0.00187345289612407" flag="0"/>
			<psa30 value="0.0015260313004174" flag="0"/>
		</comp>
		<comp name=".HNN" depth="0.0">
			<acc value="0.0051241824206712" flag="0"/>
			<vel value="0.00206614553718" flag="0"/>
			<psa03 value="0.00223203278960413" flag="0"/>
			<psa10 value="0.00141076540940865" flag="0"/>
			<psa30 value="0.00125140967058033" flag="0"/>
		</comp>
		<comp name=".HNZ" depth="0.0">
			<acc value="0.0094155705057546" flag="0"/>
			<vel value="0.00476338047754" flag="0"/>
			<psa03 value="0.00260652716182014" flag="0"/>
			<psa10 value="0.00235933168477135" flag="0"/>
			<psa30 value="0.00164949510428766" flag="0"/>
		</comp>
	</station>
	<station code="PASK" name="PASK" netid="HC" source="Seismological Network of Crete (HC)" insttype="" lat="35.4996" lon="24.0121">
		<comp name=".HNE" depth="0.0">
			<acc value="0.0533581069563" flag="0"/>
			<vel value="0.0231212547361" flag="0"/>
			<psa03 value="0.0813386070334224" flag="0"/>
			<psa10 value="0.0384248617084925" flag="0"/>
			<psa30 value="0.00399896116154989" flag="0"/>
		</comp>
		<comp name=".HNN" depth="0.0">
			<acc value="0.058960765984272" flag="0"/>
			<vel value="0.0238832948005" flag="0"/>
			<psa03 value="0.0810342379121713" flag="0"/>
			<psa10 value="0.0358838133765397" flag="0"/>
			<psa30 value="0.00361232054850856" flag="0"/>
		</comp>
		<comp name=".HNZ" depth="0.0">
			<acc value="0.019167544601064" flag="0"/>
			<vel value="0.0154907758443" flag="0"/>
			<psa03 value="0.049064505491124" flag="0"/>
			<psa10 value="0.0318104022830165" flag="0"/>
			<psa30 value="0.00192968012350336" flag="0"/>
		</comp>
	</station>
	<station code="POLY" name="POLY" netid="HC" source="Seismological Network of Crete (HC)" insttype="" lat="35.5226" lon="24.0602">
		<comp name=".HNE" depth="0.0">
			<acc value="0.0018387679644324" flag="0"/>
			<vel value="0.00213790772506" flag="0"/>
			<psa03 value="0.00141267382359244" flag="0"/>
			<psa10 value="0.00128895347277783" flag="0"/>
			<psa30 value="0.00127117504244204" flag="0"/>
		</comp>
		<comp name=".HNN" depth="0.0">
			<acc value="0.0016488658108842" flag="0"/>
			<vel value="0.00195327019403" flag="0"/>
			<psa03 value="0.00162797861382249" flag="0"/>
			<psa10 value="0.00174561747452937" flag="0"/>
			<psa30 value="0.00113963768290224" flag="0"/>
		</comp>
		<comp name=".HNZ" depth="0.0">
			<acc value="0.0038075496275442" flag="0"/>
			<vel value="0.00163431260393" flag="0"/>
			<psa03 value="0.00158704816800773" flag="0"/>
			<psa10 value="0.000820508885938256" flag="0"/>
			<psa30 value="0.000794934170904522" flag="0"/>
		</comp>
	</station>
	<station code="ARK1" name="ARK1" netid="HI" source="ITSAK Strong Motion Network" insttype="" lat="35.148777" lon="25.264194">
		<comp name=".HNE" depth="0.0">
			<acc value="0.020201035019778" flag="0"/>
			<vel value="0.0154439520604" flag="0"/>
			<psa03 value="0.0546404113257778" flag="0"/>
			<psa10 value="0.0230229870349005" flag="0"/>
			<psa30 value="0.00439758465173216" flag="0"/>
		</comp>
		<comp name=".HNN" depth="0.0">
			<acc value="0.01566589261194" flag="0"/>
			<vel value="0.011839955565" flag="0"/>
			<psa03 value="0.0566663684522882" flag="0"/>
			<psa10 value="0.0170742060823537" flag="0"/>
			<psa30 value="0.00367593767949834" flag="0"/>
		</comp>
		<comp name=".HNZ" depth="0.0">
			<acc value="0.010607170598322" flag="0"/>
			<vel value="0.00897729592124" flag="0"/>
			<psa03 value="0.0256231479286454" flag="0"/>
			<psa10 value="0.0228537852011103" flag="0"/>
			<psa30 value="0.00236124746272101" flag="0"/>
		</comp>
	</station>
	<station code="CH01" name="CH01" netid="HI" source="ITSAK Strong Motion Network" insttype="" lat="35.517" lon="24.0208">
		<comp name=".HNE" depth="0.0">
			<acc value="0.0095694520386738" flag="0"/>
			<vel value="0.0137968194212" flag="0"/>
			<psa03 value="0.0303674830508649" flag="0"/>
			<psa10 value="0.0203827896347993" flag="0"/>
			<psa30 value="0.00227734877984596" flag="0"/>
		</comp>
		<comp name=".HNN" depth="0.0">
			<acc value="0.010593237073656" flag="0"/>
			<vel value="0.0123478985509" flag="0"/>
			<psa03 value="0.0292081432294697" flag="0"/>
			<psa10 value="0.0294660638571095" flag="0"/>
			<psa30 value="0.00252169705005443" flag="0"/>
		</comp>
		<comp name=".HNZ" depth="0.0">
			<acc value="0.011033140089384" flag="0"/>
			<vel value="0.0090174122991" flag="0"/>
			<psa03 value="0.0129505649426356" flag="0"/>
			<psa10 value="0.025840996839235" flag="0"/>
			<psa30 value="0.00139310259871098" flag="0"/>
		</comp>
	</station>
	<station code="CH02" name="CH02" netid="HI" source="ITSAK Strong Motion Network" insttype="" lat="35.5145" lon="24.0315">
		<comp name=".HNE" depth="0.0">
			<acc value="0.010213333678986" flag="0"/>
			<vel value="0.0150038177611" flag="0"/>
			<psa03 value="0.0419497190671633" flag="0"/>
			<psa10 value="0.02030206178694" flag="0"/>
			<psa30 value="0.00275270006120316" flag="0"/>
		</comp>
		<comp name=".HNN" depth="0.0">
			<acc value="0.011636536162026" flag="0"/>
			<vel value="0.00927758025449" flag="0"/>
			<psa03 value="0.0359797871301498" flag="0"/>
			<psa10 value="0.0204780271938107" flag="0"/>
			<psa30 value="0.00304591406852459" flag="0"/>
		</comp>
		<comp name=".HNZ" depth="0.0">
			<acc value="0.0069312076760742" flag="0"/>
			<vel value="0.00570606610027" flag="0"/>
			<psa03 value="0.0167402873472741" flag="0"/>
			<psa10 value="0.0132299792337052" flag="0"/>
			<psa30 value="0.00142258684356267" flag="0"/>
		</comp>
	</station>
	<station code="CH03" name="CH03" netid="HI" source="ITSAK Strong Motion Network" insttype="" lat="35.53303" lon="24.0705">
		<comp name=".HNE" depth="0.0">
			<acc value="0.0065588024601366" flag="0"/>
			<vel value="0.00783495180694" flag="0"/>
			<psa03 value="0.019983498287833" flag="0"/>
			<psa10 value="0.01325614002923" flag="0"/>
			<psa30 value="0.00192734934410116" flag="0"/>
		</comp>
		<comp name=".HNN" depth="0.0">
			<acc value="0.0080561914174878" flag="0"/>
			<vel value="0.0077036734492" flag="0"/>
			<psa03 value="0.0158033020995594" flag="0"/>
			<psa10 value="0.0146641839302346" flag="0"/>
			<psa30 value="0.00173819858462486" flag="0"/>
		</comp>
		<comp name=".HNZ" depth="0.0">
			<acc value="0.0046594013661408" flag="0"/>
			<vel value="0.00499639241428" flag="0"/>
			<psa03 value="0.0111614985090743" flag="0"/>
			<psa10 value="0.00829770218205755" flag="0"/>
			<psa30 value="0.00134150730577612" flag="0"/>
		</comp>
	</station>
	<station code="GOR1" name="GOR1" netid="HI" source="ITSAK Strong Motion Network" insttype="" lat="35.0582" lon="24.9628">
		<comp name=".HNE" depth="0.0">
			<acc value="0.010062097720995" flag="0"/>
			<vel value="0.0187193428134" flag="0"/>
			<psa03 value="0.0274608451878715" flag="0"/>
			<psa10 value="0.0316524043164611" flag="0"/>
			<psa30 value="0.00290168409732976" flag="0"/>
		</comp>
		<comp name=".HNN" depth="0.0">
			<acc value="0.008450129886249" flag="0"/>
			<vel value="0.010259981413" flag="0"/>
			<psa03 value="0.0223259060650594" flag="0"/>
			<psa10 value="0.0276409960803385" flag="0"/>
			<psa30 value="0.00457778617253395" flag="0"/>
		</comp>
		<comp name=".HNZ" depth="0.0">
			<acc value="0.0073488018005316" flag="0"/>
			<vel value="0.00667093263081" flag="0"/>
			<psa03 value="0.0190967299083731" flag="0"/>
			<psa10 value="0.0159663376915192" flag="0"/>
			<psa30 value="0.00252280837367126" flag="0"/>
		</comp>
	</station>
	<station code="HER3" name="HER3" netid="HI" source="ITSAK Strong Motion Network" insttype="" lat="35.3296" lon="25.1065">
		<comp name=".HNE" depth="0.0">
			<acc value="0.051125610906348" flag="0"/>
			<vel value="0.048893408947" flag="0"/>
			<psa03 value="0.128594904197871" flag="0"/>
			<psa10 value="0.111162441466316" flag="0"/>
			<psa30 value="0.00511087357030457" flag="0"/>
		</comp>
		<comp name=".HNN" depth="0.0">
			<acc value="0.042604303539984" flag="0"/>
			<vel value="0.0347374914201" flag="0"/>
			<psa03 value="0.102123181826171" flag="0"/>
			<psa10 value="0.0776028258063269" flag="0"/>
			<psa30 value="0.00324232916339238" flag="0"/>
		</comp>
		<comp name=".HNZ" depth="0.0">
			<acc value="0.039391646126466" flag="0"/>
			<vel value="0.0253676025968" flag="0"/>
			<psa03 value="0.0717387054621032" flag="0"/>
			<psa10 value="0.0397241465297625" flag="0"/>
			<psa30 value="0.00194366125802057" flag="0"/>
		</comp>
	</station>
	<station code="KIS1" name="KIS1" netid="HI" source="ITSAK Strong Motion Network" insttype="" lat="35.493933" lon="23.658993">
		<comp name=".HNE" depth="0.0">
			<acc value="0.01024646804565" flag="0"/>
			<vel value="0.00918750541494" flag="0"/>
			<psa03 value="0.0198087940062162" flag="0"/>
			<psa10 value="0.0277143003113651" flag="0"/>
			<psa30 value="0.00176365329170932" flag="0"/>
		</comp>
		<comp name=".HNN" depth="0.0">
			<acc value="0.0090675348401778" flag="0"/>
			<vel value="0.0106114764784" flag="0"/>
			<psa03 value="0.0203776858591789" flag="0"/>
			<psa10 value="0.0203877718398444" flag="0"/>
			<psa30 value="0.00155616621337253" flag="0"/>
		</comp>
		<comp name=".HNZ" depth="0.0">
			<acc value="0.0080405227865706" flag="0"/>
			<vel value="0.00605357230328" flag="0"/>
			<psa03 value="0.0156090144893591" flag="0"/>
			<psa10 value="0.0120082036095733" flag="0"/>
			<psa30 value="0.00111793801624141" flag="0"/>
		</comp>
	</station>
	<station code="KRL1" name="KRL1" netid="HI" source="ITSAK Strong Motion Network" insttype="" lat="37.7951" lon="26.7065">
		<comp name=".HNE" depth="0.0">
			<acc value="0.012134986255164" flag="0"/>
			<vel value="0.0108076395829" flag="0"/>
			<psa03 value="0.0276233767881575" flag="0"/>
			<psa10 value="0.0153921990326383" flag="0"/>
			<psa30 value="0.00219034509961106" flag="0"/>
		</comp>
		<comp name=".HNN" depth="0.0">
			<acc value="0.012218263218294" flag="0"/>
			<vel value="0.00990346816665" flag="0"/>
			<psa03 value="0.0197565561706981" flag="0"/>
			<psa10 value="0.018829933640689" flag="0"/>
			<psa30 value="0.001850222776511" flag="0"/>
		</comp>
		<comp name=".HNZ" depth="0.0">
			<acc value="0.0083312418209232" flag="0"/>
			<vel value="0.00814997689986" flag="0"/>
			<psa03 value="0.0164587439568623" flag="0"/>
			<psa10 value="0.00913601209095312" flag="0"/>
			<psa30 value="0.00135116898747895" flag="0"/>
		</comp>
	</station>
	<station code="KTL1" name="KTL1" netid="HI" source="ITSAK Strong Motion Network" insttype="" lat="35.20778" lon="25.34272">
		<comp name=".HNE" depth="0.0">
			<acc value="0.011066725496478" flag="0"/>
			<vel value="0.00876866163779" flag="0"/>
			<psa03 value="0.0517951186724896" flag="0"/>
			<psa10 value="0.0181260888894387" flag="0"/>
			<psa30 value="0.0027850586631337" flag="0"/>
		</comp>
		<comp name=".HNN" depth="0.0">
			<acc value="0.015373719718884" flag="0"/>
			<vel value="0.0103132605615" flag="0"/>
			<psa03 value="0.0416255725940473" flag="0"/>
			<psa10 value="0.0185885582757504" flag="0"/>
			<psa30 value="0.00159243413677894" flag="0"/>
		</comp>
		<comp name=".HNZ" depth="0.0">
			<acc value="0.0078908021467302" flag="0"/>
			<vel value="0.00476566095904" flag="0"/>
			<psa03 value="0.0149534033500069" flag="0"/>
			<psa10 value="0.00814588837510975" flag="0"/>
			<psa30 value="0.0013541532476721" flag="0"/>
		</comp>
	</station>
	<station code="NAX1" name="NAX1" netid="HI" source="ITSAK Strong Motion Network" insttype="" lat="37.101394" lon="25.374103">
		<comp name=".HNE" depth="0.0">
			<acc value="0.18511717913958" flag="0"/>
			<vel value="0.0354690469718" flag="0"/>
			<psa03 value="0.136056263059495" flag="0"/>
			<psa10 value="0.0135555823658042" flag="0"/>
			<psa30 value="0.0020322192078834" flag="0"/>
		</comp>
		<comp name=".HNN" depth="0.0">
			<acc value="0.15202704830274" flag="0"/>
			<vel value="0.034470568391" flag="0"/>
			<psa03 value="0.0735556591595437" flag="0"/>
			<psa10 value="0.00936354247624924" flag="0"/>
			<psa30 value="0.0015937716212168" flag="0"/>
		</comp>
		<comp name=".HNZ" depth="0.0">
			<acc value="0.093384336116652" flag="0"/>
			<vel value="0.0227630103549" flag="0"/>
			<psa03 value="0.072848690451616" flag="0"/>
			<psa10 value="0.0123804213921567" flag="0"/>
			<psa30 value="0.00143347391894571" flag="0"/>
		</comp>
	</station>
	<station code="RTH1" name="RTH1" netid="HI" source="ITSAK Strong Motion Network" insttype="" lat="35.365393" lon="24.471773">
		<comp name=".HNE" depth="0.0">
			<acc value="0.0078414508444362" flag="0"/>
			<vel value="0.00536637917405" flag="0"/>
			<psa03 value="0.0227461865107326" flag="0"/>
			<psa10 value="0.00966615002249102" flag="0"/>
			<psa30 value="0.00305729961442891" flag="0"/>
		</comp>
		<comp name=".HNN" depth="0.0">
			<acc value="0.0079719939808782" flag="0"/>
			<vel value="0.00665827606693" flag="0"/>
			<psa03 value="0.0185653743961868" flag="0"/>
			<psa10 value="0.00827967942561003" flag="0"/>
			<psa30 value="0.00197060033426543" flag="0"/>
		</comp>
		<comp name=".HNZ" depth="0.0">
			<acc value="0.0080234650656036" flag="0"/>
			<vel value="0.00393319309323" flag="0"/>
			<psa03 value="0.0104214716213439" flag="0"/>
			<psa10 value="0.00691526966517062" flag="0"/>
			<psa30 value="0.00119319060552246" flag="0"/>
		</comp>
	</station>
	<station code="SFR2" name="SFR2" netid="HI" source="ITSAK Strong Motion Network" insttype="" lat="36.399841" lon="25.438209">
		<comp name=".HNE" depth="0.0">
			<acc value="0.3687957942942" flag="0"/>
			<vel value="0.131214755934" flag="0"/>
			<psa03 value="0.672580638497836" flag="0"/>
			<psa10 value="0.110048610180483" flag="0"/>
			<psa30 value="0.0156002201046697" flag="0"/>
		</comp>
		<comp name=".HNN" depth="0.0">
			<acc value="0.44031725175912" flag="0"/>
			<vel value="0.174338775055" flag="0"/>
			<psa03 value="0.743449166524646" flag="0"/>
			<psa10 value="0.173459220821887" flag="0"/>
			<psa30 value="0.0114437605929694" flag="0"/>
		</comp>
		<comp name=".HNZ" depth="0.0">
			<acc value="0.31306134774492" flag="0"/>
			<vel value="0.0991055565919" flag="0"/>
			<psa03 value="0.458403616990043" flag="0"/>
			<psa10 value="0.0573713455699251" flag="0"/>
			<psa30 value="0.00652858206984593" flag="0"/>
		</comp>
	</station>
	<station code="AMGA" name="AMGA" netid="HL" source="National Observatory of Athens Seismic Network" insttype="" lat="36.831561" lon="25.893836">
		<comp name="00.HNE" depth="0.0">
			<acc value="0.15695809304964" flag="0"/>
			<vel value="0.0395118579331" flag="0"/>
			<psa03 value="0.139525315784271" flag="0"/>
			<psa10 value="0.0175715265273934" flag="0"/>
			<psa30 value="0.00536334987894207" flag="0"/>
		</comp>
		<comp name="00.HNN" depth="0.0">
			<acc value="0.15411863579418" flag="0"/>
			<vel value="0.053851706555" flag="0"/>
			<psa03 value="0.132743356095825" flag="0"/>
			<psa10 value="0.0229092607510731" flag="0"/>
			<psa30 value="0.00400284016851637" flag="0"/>
		</comp>
		<comp name="00.HNZ" depth="0.0">
			<acc value="0.092011138682466" flag="0"/>
			<vel value="0.0340592194657" flag="0"/>
			<psa03 value="0.114697806500265" flag="0"/>
			<psa10 value="0.0289983103707426" flag="0"/>
			<psa30 value="0.00472888409869493" flag="0"/>
		</comp>
	</station>
	<station code="ANAF" name="ANAF" netid="HL" source="National Observatory of Athens Seismic Network" insttype="" lat="36.35675" lon="25.77262">
		<comp name=".HNE" depth="0.0">
			<acc value="0.9742197582051" flag="0"/>
			<vel value="0.367182232126" flag="0"/>
			<psa03 value="2.26138030534619" flag="0"/>
			<psa10 value="0.1425556286107" flag="0"/>
			<psa30 value="0.0180242573519071" flag="0"/>
		</comp>
		<comp name=".HNN" depth="0.0">
			<acc value="1.5172758610494" flag="0"/>
			<vel value="0.423012023306" flag="0"/>
			<psa03 value="1.66330451909281" flag="0"/>
			<psa10 value="0.0898333685196138" flag="0"/>
			<psa30 value="0.0161013833042896" flag="0"/>
		</comp>
		<comp name=".HNZ" depth="0.0">
			<acc value="0.73651935115806" flag="0"/>
			<vel value="0.195444187814" flag="0"/>
			<psa03 value="0.690527410718923" flag="0"/>
			<psa10 value="0.0383839164960717" flag="0"/>
			<psa30 value="0.00640629396886725" flag="0"/>
		</comp>
	</station>
	<station code="ASTA" name="ASTA" netid="HL" source="National Observatory of Athens Seismic Network" insttype="" lat="36.54552" lon="26.35295">
		<comp name="00.HNE" depth="0.0">
			<acc value="0.027695549557524" flag="0"/>
			<vel value="0.0122149697932" flag="0"/>
			<psa03 value="0.0658541802247549" flag="0"/>
			<psa10 value="0.0154469001563058" flag="0"/>
			<psa30 value="0.00165548425104149" flag="0"/>
		</comp>
		<comp name="00.HNN" depth="0.0">
			<acc value="0.035143723684566" flag="0"/>
			<vel value="0.0129493348548" flag="0"/>
			<psa03 value="0.0753874940513716" flag="0"/>
			<psa10 value="0.0111183634119947" flag="0"/>
			<psa30 value="0.00233037583429628" flag="0"/>
		</comp>
		<comp name="00.HNZ" depth="0.0">
			<acc value="0.021980713242198" flag="0"/>
			<vel value="0.012193386178" flag="0"/>
			<psa03 value="0.0375657072937334" flag="0"/>
			<psa10 value="0.0128527914343504" flag="0"/>
			<psa30 value="0.00368601334695998" flag="0"/>
		</comp>
	</station>
	<station code="CHNB" name="CHNB" netid="HL" source="National Observatory of Athens Seismic Network" insttype="" lat="35.48765" lon="24.06605">
		<comp name="00.HNE" depth="0.0">
			<acc value="0.029107538283066" flag="0"/>
			<vel value="0.0289416475435" flag="0"/>
			<psa03 value="0.0670145383425764" flag="0"/>
			<psa10 value="0.0345673149149807" flag="0"/>
			<psa30 value="0.00192240922517736" flag="0"/>
		</comp>
		<comp name="00.HNN" depth="0.0">
			<acc value="0.02035653368787" flag="0"/>
			<vel value="0.0216104846123" flag="0"/>
