<?xml version="1.0" encoding="UTF-8" standalone="yes"?>
<!DOCTYPE earthquake SYSTEM "stationlist.dtd">
<stationlist created="" xmlns="ch.ethz.sed.shakemap.usgs.xml">
  <station code="NAX1" name="NAX1" netid="HI" insttype="CMG-5TD,ACCELEROMETER,GURALP" lat="37.1014" lon="25.3741">
    <comp name="--.HNZ">
      <acc value="0.0923647764" flag="0"/>
      <vel value="0.0228689322" flag="0"/>
      <psa03 value="0.0734462932" flag="0"/>
      <psa10 value="0.0123488634" flag="0"/>
      <psa30 value="0.0012210443" flag="0"/>
    </comp>
    <comp name="--.HNE">
      <acc value="0.1862402592" flag="0"/>
      <vel value="0.0340335586" flag="0"/>
      <psa03 value="0.1345238276" flag="0"/>
      <psa10 value="0.0133505322" flag="0"/>
      <psa30 value="0.0016912589" flag="0"/>
    </comp>
    <comp name="--.HNN">
      <acc value="0.1575010403" flag="0"/>
      <vel value="0.0337764442" flag="0"/>
      <psa03 value="0.0719742511" flag="0"/>
      <psa10 value="0.0096883452" flag="0"/>
      <psa30 value="0.0014003551" flag="0"/>
    </comp>
  </station>
  <station code="SFR2" name="SFR2" netid="HI" insttype="unknown" lat="36.3998" lon="25.4382">
    <comp name="--.HNE">
      <acc value="0.3712114097" flag="0"/>
      <vel value="0.1258585248" flag="0"/>
      <psa03 value="0.6692498842" flag="0"/>
      <psa10 value="0.1105713071" flag="0"/>
      <psa30 value="0.0140614656" flag="0"/>
    </comp>
    <comp name="--.HNZ">
      <acc value="0.3118056293" flag="0"/>
      <vel value="0.1000435514" flag="0"/>
      <psa03 value="0.4617141736" flag="0"/>
      <psa10 value="0.0603606482" flag="0"/>
      <psa30 value="0.0059259341" flag="0"/>
    </comp>
    <comp name="--.HNN">
      <acc value="0.4371172456" flag="0"/>
      <vel value="0.1706220744" flag="0"/>
      <psa03 value="0.7236319798" flag="0"/>
      <psa10 value="0.1730812452" flag="0"/>
      <psa30 value="0.0115849006" flag="0"/>
    </comp>
  </station>
  <station code="THERA" name="THERA" netid="HL" insttype="DC" lat="37.5785" lon="23.3859">
    <comp name="00.HNE">
      <acc value="0.1602430636" flag="0"/>
      <vel value="0.0384528496" flag="0"/>
      <psa03 value="0.1337575449" flag="0"/>
      <psa10 value="0.0192619498" flag="0"/>
      <psa30 value="0.0051339537" flag="0"/>
    </comp>
    <comp name="00.HNN">
      <acc value="0.1997326299" flag="0"/>
      <vel value="0.0418278352" flag="0"/>
      <psa03 value="0.1830318007" flag="0"/>
      <psa10 value="0.0194095905" flag="0"/>
      <psa30 value="0.0064789224" flag="0"/>
    </comp>
    <comp name="00.HNZ">
      <acc value="0.0929670718" flag="0"/>
      <vel value="0.0292336698" flag="0"/>
      <psa03 value="0.0972937097" flag="0"/>
      <psa10 value="0.0123945872" flag="0"/>
      <psa30 value="0.0039618487" flag="0"/>
    </comp>
  </station>
</stationlist>
