<stationlist created="1774513540">
	<station code="ARPRA" name="ARPRA" netid="KO" source="Bogazici University Kandilli Observatory And Earthquake Research Institute (KOERI)" insttype="" lat="39.0929" lon="38.3356">
		<comp name="--.HNE" depth="0.0">
			<acc value="0.0659850225752713" flag="0"/>
			<vel value="0.0446929751348545" flag="0"/>
			<psa03 value="0.101917689046713" flag="0"/>
			<psa10 value="0.0558197327833478" flag="0"/>
			<psa30 value="0.00219116327881355" flag="0"/>
		</comp>
		<comp name="--.HNN" depth="0.0">
			<acc value="0.0657727839225382" flag="0"/>
			<vel value="0.0422868662152937" flag="0"/>
			<psa03 value="0.15556037802826" flag="0"/>
			<psa10 value="0.0297118513893363" flag="0"/>
			<psa30 value="0.00172451038618296" flag="0"/>
		</comp>
		<comp name="--.HNZ" depth="0.0">
			<acc value="0.0308604327932369" flag="0"/>
			<vel value="0.0202427027758583" flag="0"/>
			<psa03 value="0.0934559201627196" flag="0"/>
			<psa10 value="0.0276661752483316" flag="0"/>
			<psa30 value="0.00113754775278916" flag="0"/>
		</comp>
	</station>
	<station code="RFHY" name="RFHY" netid="KO" source="Bogazici University Kandilli Observatory And Earthquake Research Institute (KOERI)" insttype="" lat="39.927" lon="38.833">
		<comp name="--.HNE" depth="0.0">
			<acc value="0.00143575593641782" flag="0"/>
			<vel value="0.000903213402905843" flag="0"/>
			<psa03 value="0.00150826348927274" flag="0"/>
			<psa10 value="0.000817633207155988" flag="0"/>
			<psa30 value="0.000495697420854708" flag="0"/>
		</comp>
		<comp name="--.HNN" depth="0.0">
			<acc value="0.00441136499049134" flag="0"/>
			<vel value="0.00443962511035423" flag="0"/>
			<psa03 value="0.0151617934569063" flag="0"/>
			<psa10 value="0.0074943122426559" flag="0"/>
			<psa30 value="0.000839813706453127" flag="0"/>
		</comp>
		<comp name="--.HNZ" depth="0.0">
			<acc value="0.00309204056259298" flag="0"/>
			<vel value="0.00391071318153224" flag="0"/>
			<psa03 value="0.00888585492032062" flag="0"/>
			<psa10 value="0.00678989792241427" flag="0"/>
			<psa30 value="0.000541734897694942" flag="0"/>
		</comp>
	</station>
</stationlist>
