<?xml version="1.0" encoding="UTF-8" standalone="yes"?>
<!DOCTYPE earthquake SYSTEM "stationlist.dtd">
<stationlist created="" xmlns="ch.ethz.sed.shakemap.usgs.xml">
  <station code="AKDG" name="AKDG" netid="KO" insttype="CMG-6T" commtype="DIG" lat="38.3618" lon="37.9703">
    <comp name="--.HHN">
      <acc value="0.0176232979" flag="0"/>
      <vel value="0.0178547186" flag="0"/>
      <psa03 value="0.0437278625" flag="0"/>
      <psa10 value="0.0378662080" flag="0"/>
      <psa30 value="0.0012639549" flag="0"/>
    </comp>
    <comp name="--.HHE">
      <acc value="0.0131542074" flag="0"/>
      <vel value="0.0107079702" flag="0"/>
      <psa03 value="0.0335399469" flag="0"/>
      <psa10 value="0.0201038725" flag="0"/>
      <psa30 value="0.0010625206" flag="0"/>
    </comp>
    <comp name="--.HHZ">
      <acc value="0.0134220985" flag="0"/>
      <vel value="0.0104667190" flag="0"/>
      <psa03 value="0.0366791333" flag="0"/>
      <psa10 value="0.0204414118" flag="0"/>
      <psa30 value="0.0006088890" flag="0"/>
    </comp>
  </station>
  <station code="ARGN" name="ARGN" netid="KO" insttype="CMG-6T" commtype="DIG" lat="38.7763" lon="38.2639">
    <comp name="--.HHZ">
      <acc value="0.0242488741" flag="0"/>
      <vel value="0.0102899271" flag="0"/>
      <psa03 value="0.0414444544" flag="0"/>
      <psa10 value="0.0153149567" flag="0"/>
      <psa30 value="0.0004059648" flag="0"/>
    </comp>
    <comp name="--.HHE">
      <acc value="0.0694071274" flag="0"/>
      <vel value="0.0210128592" flag="0"/>
      <psa03 value="0.0640945802" flag="0"/>
      <psa10 value="0.0228725438" flag="0"/>
      <psa30 value="0.0006253075" flag="0"/>
    </comp>
    <comp name="--.HHN">
      <acc value="0.0342455663" flag="0"/>
      <vel value="0.0135235279" flag="0"/>
      <psa03 value="0.0442734666" flag="0"/>
      <psa10 value="0.0275736764" flag="0"/>
      <psa30 value="0.0008664086" flag="0"/>
    </comp>
  </station>
  <station code="ARPRA" name="ARPRA" netid="KO" insttype="CMG-5T" commtype="DIG" lat="39.0929" lon="38.3356">
    <comp name="--.HNE">
      <acc value="0.0657763989" flag="0"/>
      <vel value="0.0447133670" flag="0"/>
      <psa03 value="0.1001918858" flag="0"/>
      <psa10 value="0.0558007516" flag="0"/>
      <psa30 value="0.0021930851" flag="0"/>
    </comp>
    <comp name="--.HNN">
      <acc value="0.0657054397" flag="0"/>
      <vel value="0.0421610614" flag="0"/>
      <psa03 value="0.1551490702" flag="0"/>
      <psa10 value="0.0296617905" flag="0"/>
      <psa30 value="0.0017171487" flag="0"/>
    </comp>
    <comp name="--.HNZ">
      <acc value="0.0311243281" flag="0"/>
      <vel value="0.0202268076" flag="0"/>
      <psa03 value="0.0929401186" flag="0"/>
      <psa10 value="0.0276577491" flag="0"/>
      <psa30 value="0.0011308717" flag="0"/>
    </comp>
  </station>
  <station code="DYBB" name="DYBB" netid="KO" insttype="CMG-3T" commtype="DIG" lat="37.9532" lon="40.1393">
    <comp name="--.HHE">
      <acc value="0.0241537144" flag="0"/>
      <vel value="0.0086981543" flag="0"/>
      <psa03 value="0.0578207195" flag="0"/>
      <psa10 value="0.0089966694" flag="0"/>
      <psa30 value="0.0020744466" flag="0"/>
    </comp>
    <comp name="--.HHZ">
      <acc value="0.0220341451" flag="0"/>
      <vel value="0.0052870129" flag="0"/>
      <psa03 value="0.0229289560" flag="0"/>
      <psa10 value="0.0085856648" flag="0"/>
      <psa30 value="0.0009734312" flag="0"/>
    </comp>
    <comp name="--.HHN">
      <acc value="0.0341792157" flag="0"/>
      <vel value="0.0111147415" flag="0"/>
      <psa03 value="0.0997724763" flag="0"/>
      <psa10 value="0.0160074809" flag="0"/>
      <psa30 value="0.0036512238" flag="0"/>
    </comp>
  </station>
  <station code="KBAN" name="KBAN" netid="KO" insttype="CMG-6T" commtype="DIG" lat="38.797" lon="38.7278">
    <comp name="--.HHE">
      <acc value="0.0718381851" flag="0"/>
      <vel value="0.0274613006" flag="0"/>
      <psa03 value="0.1132357020" flag="0"/>
      <psa10 value="0.0245161943" flag="0"/>
      <psa30 value="0.0013993101" flag="0"/>
    </comp>
    <comp name="--.HHN">
      <acc value="0.0662212815" flag="0"/>
      <vel value="0.0186038904" flag="0"/>
      <psa03 value="0.0531522835" flag="0"/>
      <psa10 value="0.0190506840" flag="0"/>
      <psa30 value="0.0009981511" flag="0"/>
    </comp>
    <comp name="--.HHZ">
      <acc value="0.0394858944" flag="0"/>
      <vel value="0.0121563230" flag="0"/>
      <psa03 value="0.0579538472" flag="0"/>
      <psa10 value="0.0116764635" flag="0"/>
      <psa30 value="0.0005697321" flag="0"/>
    </comp>
  </station>
  <station code="LICE" name="LICE" netid="KO" insttype="CMG-3ESPC" commtype="DIG" lat="38.4532" lon="40.6446">
    <comp name="--.HHE">
      <acc value="0.0171645181" flag="0"/>
      <vel value="0.0073714700" flag="0"/>
      <psa03 value="0.0528122668" flag="0"/>
      <psa10 value="0.0069411799" flag="0"/>
      <psa30 value="0.0006445760" flag="0"/>
    </comp>
    <comp name="--.HHN">
      <acc value="0.0210987653" flag="0"/>
      <vel value="0.0091217676" flag="0"/>
      <psa03 value="0.0434412929" flag="0"/>
      <psa10 value="0.0093711654" flag="0"/>
      <psa30 value="0.0008913473" flag="0"/>
    </comp>
    <comp name="--.HHZ">
      <acc value="0.0135859228" flag="0"/>
      <vel value="0.0053208420" flag="0"/>
      <psa03 value="0.0275953291" flag="0"/>
      <psa10 value="0.0069081333" flag="0"/>
      <psa30 value="0.0008525221" flag="0"/>
    </comp>
  </station>
  <station code="MLTY" name="MLTY" netid="KO" insttype="CMG-6T" commtype="DIG" lat="38.3223" lon="38.4407">
    <comp name="--.HHE">
      <acc value="0.0474964695" flag="0"/>
      <vel value="0.0158597800" flag="0"/>
      <psa03 value="0.1028980983" flag="0"/>
      <psa10 value="0.0153238353" flag="0"/>
      <psa30 value="0.0012117666" flag="0"/>
    </comp>
    <comp name="--.HHN">
      <acc value="0.0423102418" flag="0"/>
      <vel value="0.0192022247" flag="0"/>
      <psa03 value="0.1037741159" flag="0"/>
      <psa10 value="0.0160299589" flag="0"/>
      <psa30 value="0.0007929716" flag="0"/>
    </comp>
    <comp name="--.HHZ">
      <acc value="0.0303164393" flag="0"/>
      <vel value="0.0133376363" flag="0"/>
      <psa03 value="0.0635524219" flag="0"/>
      <psa10 value="0.0131326932" flag="0"/>
      <psa30 value="0.0008209063" flag="0"/>
    </comp>
  </station>
  <station code="SINE" name="SINE" netid="KO" insttype="CMG-6T" commtype="DIG" lat="39.1636" lon="39.3871">
    <comp name="--.HHN">
      <acc value="0.0153021599" flag="0"/>
      <vel value="0.0055928406" flag="0"/>
      <psa03 value="0.0262087033" flag="0"/>
      <psa10 value="0.0031317721" flag="0"/>
      <psa30 value="0.0002068569" flag="0"/>
    </comp>
    <comp name="--.HHE">
      <acc value="0.0144178080" flag="0"/>
      <vel value="0.0054897900" flag="0"/>
      <psa03 value="0.0302970876" flag="0"/>
      <psa10 value="0.0045171399" flag="0"/>
      <psa30 value="0.0002209245" flag="0"/>
    </comp>
    <comp name="--.HHZ">
      <acc value="0.0096408091" flag="0"/>
      <vel value="0.0049340086" flag="0"/>
      <psa03 value="0.0303401372" flag="0"/>
      <psa10 value="0.0033249456" flag="0"/>
      <psa30 value="0.0001962486" flag="0"/>
    </comp>
  </station>
  <station code="URFA" name="URFA" netid="KO" insttype="CMG-3ESP" commtype="DIG" lat="37.4409" lon="38.8213">
    <comp name="--.HHE">
      <acc value="0.0461931324" flag="0"/>
      <vel value="0.0158051569" flag="0"/>
      <psa03 value="0.0765833902" flag="0"/>
      <psa10 value="0.0179150774" flag="0"/>
      <psa30 value="0.0015993787" flag="0"/>
    </comp>
    <comp name="--.HHN">
      <acc value="0.0393794208" flag="0"/>
      <vel value="0.0179522408" flag="0"/>
      <psa03 value="0.0432045007" flag="0"/>
      <psa10 value="0.0178043588" flag="0"/>
      <psa30 value="0.0018735328" flag="0"/>
    </comp>
    <comp name="--.HHZ">
      <acc value="0.0260774035" flag="0"/>
      <vel value="0.0071064769" flag="0"/>
      <psa03 value="0.0554134834" flag="0"/>
      <psa10 value="0.0059735498" flag="0"/>
      <psa30 value="0.0007640252" flag="0"/>
    </comp>
  </station>
</stationlist>
