<?xml version="1.0" encoding="UTF-8" standalone="yes"?>
<!DOCTYPE earthquake SYSTEM "stationlist.dtd">
<stationlist created="" xmlns="ch.ethz.sed.shakemap.usgs.xml">
  <station code="BE1" name="BE1" netid="BW" insttype="" lat="47.9108" lon="11.2213">
    <comp name="--.HHE">
      <acc value="0.0198729769" flag="0"/>
      <vel value="0.0070231160" flag="0"/>
      <psa03 value="0.0446965833" flag="0"/>
      <psa10 value="0.0025940536" flag="0"/>
      <psa30 value="0.0003240351" flag="0"/>
    </comp>
    <comp name="--.HHN">
      <acc value="0.0160784050" flag="0"/>
      <vel value="0.0058707703" flag="0"/>
      <psa03 value="0.0364516221" flag="0"/>
      <psa10 value="0.0024452630" flag="0"/>
      <psa30 value="0.0003892097" flag="0"/>
    </comp>
    <comp name="--.HHZ">
      <acc value="0.0155270891" flag="0"/>
      <vel value="0.0036468375" flag="0"/>
      <psa03 value="0.0194172225" flag="0"/>
      <psa10 value="0.0022396006" flag="0"/>
      <psa30 value="0.0002897158" flag="0"/>
    </comp>
  </station>
  <station code="BGDS" name="BGDS" netid="BW" insttype="" lat="47.6353" lon="13.0275">
    <comp name="--.HHE">
      <acc value="0.0069724048" flag="0"/>
      <vel value="0.0016018108" flag="0"/>
      <psa03 value="0.0054581655" flag="0"/>
      <psa10 value="0.0021561137" flag="0"/>
      <psa30 value="0.0000752025" flag="0"/>
    </comp>
    <comp name="--.HHN">
      <acc value="0.0080575839" flag="0"/>
      <vel value="0.0015338226" flag="0"/>
      <psa03 value="0.0065117631" flag="0"/>
      <psa10 value="0.0013396819" flag="0"/>
      <psa30 value="0.0000847923" flag="0"/>
    </comp>
    <comp name="--.HHZ">
      <acc value="0.0094467571" flag="0"/>
      <vel value="0.0015986029" flag="0"/>
      <psa03 value="0.0044244903" flag="0"/>
      <psa10 value="0.0022931400" flag="0"/>
      <psa30 value="0.0001081163" flag="0"/>
    </comp>
  </station>
  <station code="BHG" name="BHG" netid="BW" insttype="" lat="47.7205" lon="12.8773">
    <comp name="--.HHZ">
      <acc value="0.0007092946" flag="0"/>
      <vel value="0.0000796536" flag="0"/>
      <psa03 value="0.0004931728" flag="0"/>
      <psa10 value="0.0000127661" flag="0"/>
      <psa30 value="0.0000087568" flag="0"/>
    </comp>
    <comp name="--.HHN">
      <acc value="0.0129332042" flag="0"/>
      <vel value="0.0048117490" flag="0"/>
      <psa03 value="0.0294310476" flag="0"/>
      <psa10 value="0.0051658074" flag="0"/>
      <psa30 value="0.0001819230" flag="0"/>
    </comp>
    <comp name="--.HHE">
      <acc value="0.0147172220" flag="0"/>
      <vel value="0.0072407988" flag="0"/>
      <psa03 value="0.0256493398" flag="0"/>
      <psa10 value="0.0056029863" flag="0"/>
      <psa30 value="0.0003442095" flag="0"/>
    </comp>
  </station>
  <station code="KW1" name="KW1" netid="BW" insttype="" lat="48.1219" lon="12.5972">
    <comp name="--.HHE">
      <acc value="0.0231546191" flag="0"/>
      <vel value="0.0080296407" flag="0"/>
      <psa03 value="0.0533289573" flag="0"/>
      <psa10 value="0.0051890558" flag="0"/>
      <psa30 value="0.0008092924" flag="0"/>
    </comp>
    <comp name="--.HHZ">
      <acc value="0.0211951652" flag="0"/>
      <vel value="0.0044645981" flag="0"/>
      <psa03 value="0.0292962191" flag="0"/>
      <psa10 value="0.0029395910" flag="0"/>
      <psa30 value="0.0005239195" flag="0"/>
    </comp>
    <comp name="--.HHN">
      <acc value="0.0282584146" flag="0"/>
      <vel value="0.0060043240" flag="0"/>
      <psa03 value="0.0476362104" flag="0"/>
      <psa10 value="0.0082192869" flag="0"/>
      <psa30 value="0.0012944816" flag="0"/>
    </comp>
  </station>
  <station code="MGS01" name="MGS01" netid="BW" insttype="" lat="48.0675" lon="11.5101">
    <comp name="--.HHZ">
      <acc value="0.0512440669" flag="0"/>
      <vel value="0.0121165289" flag="0"/>
      <psa03 value="0.0298602520" flag="0"/>
      <psa10 value="0.0023204699" flag="0"/>
      <psa30 value="0.0004048759" flag="0"/>
    </comp>
    <comp name="--.HHE">
      <acc value="0.0283940893" flag="0"/>
      <vel value="0.0107839496" flag="0"/>
      <psa03 value="0.0464044889" flag="0"/>
      <psa10 value="0.0078917150" flag="0"/>
      <psa30 value="0.0004854506" flag="0"/>
    </comp>
    <comp name="--.HHN">
      <acc value="0.0397946374" flag="0"/>
      <vel value="0.0108822818" flag="0"/>
      <psa03 value="0.0678146051" flag="0"/>
      <psa10 value="0.0081090169" flag="0"/>
      <psa30 value="0.0007713346" flag="0"/>
    </comp>
  </station>
  <station code="MGS03" name="MGS03" netid="BW" insttype="" lat="48.0709" lon="11.7074">
    <comp name="--.HHE">
      <acc value="0.0512528815" flag="0"/>
      <vel value="0.0122212792" flag="0"/>
      <psa03 value="0.0436366566" flag="0"/>
      <psa10 value="0.0064711477" flag="0"/>
      <psa30 value="0.0004559631" flag="0"/>
    </comp>
    <comp name="--.HHZ">
      <acc value="0.0675436379" flag="0"/>
      <vel value="0.0132684248" flag="0"/>
      <psa03 value="0.0426191656" flag="0"/>
      <psa10 value="0.0046213819" flag="0"/>
      <psa30 value="0.0004741235" flag="0"/>
    </comp>
    <comp name="--.HHN">
      <acc value="0.0614915196" flag="0"/>
      <vel value="0.0100377999" flag="0"/>
      <psa03 value="0.0362905004" flag="0"/>
      <psa10 value="0.0152860742" flag="0"/>
      <psa30 value="0.0008777157" flag="0"/>
    </comp>
  </station>
  <station code="MGS05" name="MGS05" netid="BW" insttype="Trillium Compact 120s" lat="48" lon="11.5171">
    <comp name="--.HHE">
      <acc value="0.0236018034" flag="0"/>
      <vel value="0.0085979193" flag="0"/>
      <psa03 value="0.0415444854" flag="0"/>
      <psa10 value="0.0065678335" flag="0"/>
      <psa30 value="0.0004829667" flag="0"/>
    </comp>
    <comp name="--.HHN">
      <acc value="0.0286956372" flag="0"/>
      <vel value="0.0103632824" flag="0"/>
      <psa03 value="0.0465525708" flag="0"/>
      <psa10 value="0.0044959539" flag="0"/>
      <psa30 value="0.0005145042" flag="0"/>
    </comp>
    <comp name="--.HHZ">
      <acc value="0.0373121736" flag="0"/>
      <vel value="0.0102981022" flag="0"/>
      <psa03 value="0.0309967218" flag="0"/>
      <psa10 value="0.0044305663" flag="0"/>
      <psa30 value="0.0005999262" flag="0"/>
    </comp>
  </station>
  <station code="RJOB" name="RJOB" netid="BW" insttype="Trillium Compact 120s" lat="47.7373" lon="12.7956">
    <comp name="--.HHZ">
      <acc value="0.0189374421" flag="0"/>
      <vel value="0.0048493357" flag="0"/>
      <psa03 value="0.0229946313" flag="0"/>
      <psa10 value="0.0055509599" flag="0"/>
      <psa30 value="0.0003530450" flag="0"/>
    </comp>
    <comp name="--.HHN">
      <acc value="0.0106381162" flag="0"/>
      <vel value="0.0042077780" flag="0"/>
      <psa03 value="0.0140030503" flag="0"/>
      <psa10 value="0.0057783517" flag="0"/>
      <psa30 value="0.0002833252" flag="0"/>
    </comp>
    <comp name="--.HHE">
      <acc value="0.0163806973" flag="0"/>
      <vel value="0.0057335136" flag="0"/>
      <psa03 value="0.0374256947" flag="0"/>
      <psa10 value="0.0044549125" flag="0"/>
      <psa30 value="0.0003033829" flag="0"/>
    </comp>
  </station>
  <station code="RNON" name="RNON" netid="BW" insttype="Trillium Compact 120s" lat="47.7405" lon="12.8671">
    <comp name="--.HHE">
      <acc value="0.0084072034" flag="0"/>
      <vel value="0.0025195523" flag="0"/>
      <psa03 value="0.0114514077" flag="0"/>
      <psa10 value="0.0022781011" flag="0"/>
      <psa30 value="0.0001518786" flag="0"/>
    </comp>
    <comp name="--.HHZ">
      <acc value="0.0072556257" flag="0"/>
      <vel value="0.0025370474" flag="0"/>
      <psa03 value="0.0106362502" flag="0"/>
      <psa10 value="0.0046384040" flag="0"/>
      <psa30 value="0.0002684393" flag="0"/>
    </comp>
    <comp name="--.HHN">
      <acc value="0.0086395597" flag="0"/>
      <vel value="0.0025760706" flag="0"/>
      <psa03 value="0.0113470616" flag="0"/>
      <psa10 value="0.0025579138" flag="0"/>
      <psa30 value="0.0002267879" flag="0"/>
    </comp>
  </station>
  <station code="RTBE" name="RTBE" netid="BW" insttype="Trillium Compact 120s" lat="47.7451" lon="12.8241">
    <comp name="--.HHE">
      <acc value="0.0366990935" flag="0"/>
      <vel value="0.0097251771" flag="0"/>
      <psa03 value="0.0430078767" flag="0"/>
      <psa10 value="0.0042825434" flag="0"/>
      <psa30 value="0.0002840391" flag="0"/>
    </comp>
    <comp name="--.HHN">
      <acc value="0.0347723411" flag="0"/>
      <vel value="0.0073278970" flag="0"/>
      <psa03 value="0.0320178668" flag="0"/>
      <psa10 value="0.0052258681" flag="0"/>
      <psa30 value="0.0003818916" flag="0"/>
    </comp>
    <comp name="--.HHZ">
      <acc value="0.0156570963" flag="0"/>
      <vel value="0.0041340355" flag="0"/>
      <psa03 value="0.0134203650" flag="0"/>
      <psa10 value="0.0025805014" flag="0"/>
      <psa30 value="0.0002860090" flag="0"/>
    </comp>
  </station>
  <station code="RTSA" name="RTSA" netid="BW" insttype="Trillium Compact 120s" lat="47.7683" lon="12.8417">
    <comp name="--.HHE">
      <acc value="0.0133480325" flag="0"/>
      <vel value="0.0042971584" flag="0"/>
      <psa03 value="0.0088828858" flag="0"/>
      <psa10 value="0.0034423353" flag="0"/>
      <psa30 value="0.0003171110" flag="0"/>
    </comp>
    <comp name="--.HHN">
      <acc value="0.0196796112" flag="0"/>
      <vel value="0.0055522862" flag="0"/>
      <psa03 value="0.0224665293" flag="0"/>
      <psa10 value="0.0056280644" flag="0"/>
      <psa30 value="0.0006700025" flag="0"/>
    </comp>
    <comp name="--.HHZ">
      <acc value="0.0065294501" flag="0"/>
      <vel value="0.0041435770" flag="0"/>
      <psa03 value="0.0084602699" flag="0"/>
      <psa10 value="0.0045663369" flag="0"/>
      <psa30 value="0.0005084894" flag="0"/>
    </comp>
  </station>
  <station code="SCE" name="SCE" netid="BW" insttype="" lat="47.0378" lon="11.709">
    <comp name="--.HHZ">
      <acc value="0.0446352142" flag="0"/>
      <vel value="0.0117801142" flag="0"/>
      <psa03 value="0.0515370177" flag="0"/>
      <psa10 value="0.0043589137" flag="0"/>
      <psa30 value="0.0003815822" flag="0"/>
    </comp>
    <comp name="--.HHE">
      <acc value="0.0541212498" flag="0"/>
      <vel value="0.0123458973" flag="0"/>
      <psa03 value="0.0547436914" flag="0"/>
      <psa10 value="0.0053948144" flag="0"/>
      <psa30 value="0.0004730090" flag="0"/>
    </comp>
    <comp name="--.HHN">
      <acc value="0.0735344796" flag="0"/>
      <vel value="0.0107228686" flag="0"/>
      <psa03 value="0.0541631646" flag="0"/>
      <psa10 value="0.0052834058" flag="0"/>
      <psa30 value="0.0004119998" flag="0"/>
    </comp>
  </station>
  <station code="UH3" name="UH3" netid="BW" insttype="Trillium Compact 120s" lat="48.0302" lon="11.6389">
    <comp name="--.HHN">
      <acc value="0.0114597748" flag="0"/>
      <vel value="0.0058023469" flag="0"/>
      <psa03 value="0.0291571501" flag="0"/>
      <psa10 value="0.0059934895" flag="0"/>
      <psa30 value="0.0003520599" flag="0"/>
    </comp>
    <comp name="--.HHE">
      <acc value="0.0236891535" flag="0"/>
      <vel value="0.0060712970" flag="0"/>
      <psa03 value="0.0191964344" flag="0"/>
      <psa10 value="0.0036719594" flag="0"/>
      <psa30 value="0.0002197953" flag="0"/>
    </comp>
    <comp name="--.HHZ">
      <acc value="0.0210516516" flag="0"/>
      <vel value="0.0040609760" flag="0"/>
      <psa03 value="0.0132112433" flag="0"/>
      <psa10 value="0.0030439911" flag="0"/>
      <psa30 value="0.0003232864" flag="0"/>
    </comp>
  </station>
  <station code="ZUGS" name="ZUGS" netid="BW" insttype="" lat="47.4168" lon="10.9769">
    <comp name="--.HHE">
      <acc value="0.0170762868" flag="0"/>
      <vel value="0.0039376943" flag="0"/>
      <psa03 value="0.0215005021" flag="0"/>
      <psa10 value="0.0027532031" flag="0"/>
      <psa30 value="0.0002512302" flag="0"/>
    </comp>
    <comp name="--.HHN">
      <acc value="0.0440542882" flag="0"/>
      <vel value="0.0062444477" flag="0"/>
      <psa03 value="0.0131040920" flag="0"/>
      <psa10 value="0.0028313270" flag="0"/>
      <psa30 value="0.0001558850" flag="0"/>
    </comp>
    <comp name="--.HHZ">
      <acc value="0.0128199967" flag="0"/>
      <vel value="0.0036232406" flag="0"/>
      <psa03 value="0.0136088825" flag="0"/>
      <psa10 value="0.0028472506" flag="0"/>
      <psa30 value="0.0001726810" flag="0"/>
    </comp>
  </station>
  <station code="ABTA" name="ABTA" netid="OE" source="ODC" insttype="STS-2" lat="46.7474" lon="12.5123">
    <comp name="--.HHE">
      <acc value="0.0135001308" flag="0"/>
      <vel value="0.0047401169" flag="0"/>
      <psa03 value="0.0202014085" flag="0"/>
      <psa10 value="0.0059303733" flag="0"/>
      <psa30 value="0.0001827325" flag="0"/>
    </comp>
    <comp name="--.HHZ">
      <acc value="0.0061618073" flag="0"/>
      <vel value="0.0029079741" flag="0"/>
      <psa03 value="0.0202520041" flag="0"/>
      <psa10 value="0.0031658503" flag="0"/>
      <psa30 value="0.0002064198" flag="0"/>
    </comp>
    <comp name="--.HHN">
      <acc value="0.0080823385" flag="0"/>
      <vel value="0.0036249386" flag="0"/>
      <psa03 value="0.0211422564" flag="0"/>
      <psa10 value="0.0022060707" flag="0"/>
      <psa30 value="0.0001221673" flag="0"/>
    </comp>
  </station>
  <station code="LESA" name="LESA" netid="OE" source="ODC" insttype="STS-2.5/Quanterra" lat="47.4243" lon="12.677">
    <comp name="--.HHZ">
      <acc value="0.0114475838" flag="0"/>
      <vel value="0.0061613711" flag="0"/>
      <psa03 value="0.0365123792" flag="0"/>
      <psa10 value="0.0037689083" flag="0"/>
      <psa30 value="0.0002158983" flag="0"/>
    </comp>
    <comp name="--.HHN">
      <acc value="0.0140936720" flag="0"/>
      <vel value="0.0049293832" flag="0"/>
      <psa03 value="0.0282121891" flag="0"/>
      <psa10 value="0.0034565657" flag="0"/>
      <psa30 value="0.0003594253" flag="0"/>
    </comp>
    <comp name="--.HHE">
      <acc value="0.0094736546" flag="0"/>
      <vel value="0.0032827762" flag="0"/>
      <psa03 value="0.0168351278" flag="0"/>
      <psa10 value="0.0031962556" flag="0"/>
      <psa30 value="0.0001290511" flag="0"/>
    </comp>
  </station>
  <station code="MOTA" name="MOTA" netid="OE" source="ODC" insttype="STS-2.5/Quanterra" lat="47.3448" lon="11.1037">
    <comp name="--.HHE">
      <acc value="0.0095187430" flag="0"/>
      <vel value="0.0024822728" flag="0"/>
      <psa03 value="0.0128672917" flag="0"/>
      <psa10 value="0.0013598151" flag="0"/>
      <psa30 value="0.0001135197" flag="0"/>
    </comp>
    <comp name="--.HHN">
      <acc value="0.0101837634" flag="0"/>
      <vel value="0.0026735989" flag="0"/>
      <psa03 value="0.0109220846" flag="0"/>
      <psa10 value="0.0016760606" flag="0"/>
      <psa30 value="0.0001297435" flag="0"/>
    </comp>
    <comp name="--.HHZ">
      <acc value="0.0103987672" flag="0"/>
      <vel value="0.0024873566" flag="0"/>
      <psa03 value="0.0108086110" flag="0"/>
      <psa10 value="0.0010511929" flag="0"/>
      <psa30 value="0.0000892608" flag="0"/>
    </comp>
  </station>
  <station code="RETA" name="RETA" netid="OE" source="ODC" insttype="STS-2" lat="47.4871" lon="10.7623">
    <comp name="--.HHE">
      <acc value="0.0087460887" flag="0"/>
      <vel value="0.0030599068" flag="0"/>
      <psa03 value="0.0109021942" flag="0"/>
      <psa10 value="0.0019114990" flag="0"/>
      <psa30 value="0.0000875900" flag="0"/>
    </comp>
    <comp name="--.HHZ">
      <acc value="0.0068277576" flag="0"/>
      <vel value="0.0021585479" flag="0"/>
      <psa03 value="0.0142315848" flag="0"/>
      <psa10 value="0.0019361543" flag="0"/>
      <psa30 value="0.0001061930" flag="0"/>
    </comp>
    <comp name="--.HHN">
      <acc value="0.0119711448" flag="0"/>
      <vel value="0.0034973794" flag="0"/>
      <psa03 value="0.0162310074" flag="0"/>
      <psa10 value="0.0024959110" flag="0"/>
      <psa30 value="0.0001509536" flag="0"/>
    </comp>
  </station>
  <station code="SQTA" name="SQTA" netid="OE" source="ODC" insttype="STS-2.5/Quanterra" lat="47.2205" lon="11.2087">
    <comp name="--.HHE">
      <acc value="0.0178287810" flag="0"/>
      <vel value="0.0045643015" flag="0"/>
      <psa03 value="0.0210701603" flag="0"/>
      <psa10 value="0.0022993212" flag="0"/>
      <psa30 value="0.0001119969" flag="0"/>
    </comp>
    <comp name="--.HHZ">
      <acc value="0.0105119494" flag="0"/>
      <vel value="0.0035751160" flag="0"/>
      <psa03 value="0.0187928902" flag="0"/>
      <psa10 value="0.0017881156" flag="0"/>
      <psa30 value="0.0001459201" flag="0"/>
    </comp>
    <comp name="--.HHN">
      <acc value="0.0159991425" flag="0"/>
      <vel value="0.0046024562" flag="0"/>
      <psa03 value="0.0152357833" flag="0"/>
      <psa10 value="0.0021997670" flag="0"/>
      <psa30 value="0.0001165995" flag="0"/>
    </comp>
  </station>
  <station code="WATA" name="WATA" netid="OE" source="ODC" insttype="STS-2.5/Quanterra" lat="47.3357" lon="11.5763">
    <comp name="--.HHE">
      <acc value="0.0469752121" flag="0"/>
      <vel value="0.0104077839" flag="0"/>
      <psa03 value="0.0426359750" flag="0"/>
      <psa10 value="0.0031134288" flag="0"/>
      <psa30 value="0.0002984763" flag="0"/>
    </comp>
    <comp name="--.HHZ">
      <acc value="0.0582140285" flag="0"/>
      <vel value="0.0122007499" flag="0"/>
      <psa03 value="0.0218119940" flag="0"/>
      <psa10 value="0.0021444635" flag="0"/>
      <psa30 value="0.0002292417" flag="0"/>
    </comp>
    <comp name="--.HHN">
      <acc value="0.0477021286" flag="0"/>
      <vel value="0.0118424949" flag="0"/>
      <psa03 value="0.0409639819" flag="0"/>
      <psa10 value="0.0038537667" flag="0"/>
      <psa30 value="0.0003068473" flag="0"/>
    </comp>
  </station>
  <station code="ABSI" name="ABSI" netid="SI" insttype="" lat="46.7285" lon="11.3205">
    <comp name="--.HHN">
      <acc value="0.0203781470" flag="0"/>
      <vel value="0.0111351574" flag="0"/>
      <psa03 value="0.0408465494" flag="0"/>
      <psa10 value="0.0083126201" flag="0"/>
      <psa30 value="0.0003661910" flag="0"/>
    </comp>
    <comp name="--.HHZ">
      <acc value="0.0089288007" flag="0"/>
      <vel value="0.0034956647" flag="0"/>
      <psa03 value="0.0250285497" flag="0"/>
      <psa10 value="0.0016687529" flag="0"/>
      <psa30 value="0.0001385291" flag="0"/>
    </comp>
    <comp name="--.HHE">
      <acc value="0.0107131833" flag="0"/>
      <vel value="0.0057873626" flag="0"/>
      <psa03 value="0.0263460697" flag="0"/>
      <psa10 value="0.0053049071" flag="0"/>
      <psa30 value="0.0002669330" flag="0"/>
    </comp>
  </station>
  <station code="ROSI" name="ROSI" netid="SI" insttype="" lat="46.9281" lon="11.4118">
    <comp name="--.HHE">
      <acc value="0.0340157373" flag="0"/>
      <vel value="0.0209663912" flag="0"/>
      <psa03 value="0.1431947876" flag="0"/>
      <psa10 value="0.0131891593" flag="0"/>
      <psa30 value="0.0009655272" flag="0"/>
    </comp>
    <comp name="--.HHN">
      <acc value="0.0305612625" flag="0"/>
      <vel value="0.0161535901" flag="0"/>
      <psa03 value="0.1008352793" flag="0"/>
      <psa10 value="0.0096450605" flag="0"/>
      <psa30 value="0.0006881040" flag="0"/>
    </comp>
    <comp name="--.HHZ">
      <acc value="0.0204624507" flag="0"/>
      <vel value="0.0083088740" flag="0"/>
      <psa03 value="0.0280821513" flag="0"/>
      <psa10 value="0.0063421229" flag="0"/>
      <psa30 value="0.0002798438" flag="0"/>
    </comp>
  </station>
</stationlist>
