<?xml version="1.0" encoding="UTF-8" standalone="yes"?>
<!DOCTYPE earthquake SYSTEM "stationlist.dtd">
<stationlist created="" xmlns="ch.ethz.sed.shakemap.usgs.xml">
  <station code="GVD" name="GVD" netid="GE" insttype="STS-2/N" lat="34.8391" lon="24.0874">
    <comp name="--.HHE">
      <acc value="0.3636938329" flag="0"/>
      <vel value="0.1057381793" flag="0"/>
      <psa03 value="0.8541716903" flag="0"/>
      <psa10 value="0.0450013158" flag="0"/>
      <psa30 value="0.0051919360" flag="0"/>
    </comp>
    <comp name="--.HHN">
      <acc value="0.1922707713" flag="0"/>
      <vel value="0.0829223508" flag="0"/>
      <psa03 value="0.6236064507" flag="0"/>
      <psa10 value="0.0384585149" flag="0"/>
      <psa30 value="0.0026538276" flag="0"/>
    </comp>
    <comp name="--.HHZ">
      <acc value="0.1564218579" flag="0"/>
      <vel value="0.0706111106" flag="0"/>
      <psa03 value="0.5807802277" flag="0"/>
      <psa10 value="0.0268273873" flag="0"/>
      <psa30 value="0.0021245768" flag="0"/>
    </comp>
  </station>
  <station code="IMMV" name="IMMV" netid="GE" insttype="STS-2/N" lat="35.4606" lon="23.9811">
    <comp name="--.HHN">
      <acc value="0.0555867892" flag="0"/>
      <vel value="0.0262055287" flag="0"/>
      <psa03 value="0.1510913835" flag="0"/>
      <psa10 value="0.0200464488" flag="0"/>
      <psa30 value="0.0016440906" flag="0"/>
    </comp>
    <comp name="--.HHZ">
      <acc value="0.0427840842" flag="0"/>
      <vel value="0.0208814615" flag="0"/>
      <psa03 value="0.1471175599" flag="0"/>
      <psa10 value="0.0164964141" flag="0"/>
      <psa30 value="0.0011027545" flag="0"/>
    </comp>
    <comp name="--.HHE">
      <acc value="0.0517307048" flag="0"/>
      <vel value="0.0197552930" flag="0"/>
      <psa03 value="0.1064955233" flag="0"/>
      <psa10 value="0.0337459002" flag="0"/>
      <psa30 value="0.0009292738" flag="0"/>
    </comp>
  </station>
  <station code="ABEA" name="ABEA" netid="HC" insttype="DC" lat="35.5163" lon="24.0113">
    <comp name="--.HNZ">
      <acc value="0.0121293496" flag="0"/>
      <vel value="0.0097309793" flag="0"/>
      <psa03 value="0.0370669437" flag="0"/>
      <psa10 value="0.0150586758" flag="0"/>
      <psa30 value="0.0012230091" flag="0"/>
    </comp>
    <comp name="--.HNN">
      <acc value="0.0553649479" flag="0"/>
      <vel value="0.0169829238" flag="0"/>
      <psa03 value="0.0537686816" flag="0"/>
      <psa10 value="0.0167469894" flag="0"/>
      <psa30 value="0.0019234153" flag="0"/>
    </comp>
    <comp name="--.HNE">
      <acc value="0.0180721499" flag="0"/>
      <vel value="0.0174749542" flag="0"/>
      <psa03 value="0.0434226666" flag="0"/>
      <psa10 value="0.0202518590" flag="0"/>
      <psa30 value="0.0013783863" flag="0"/>
    </comp>
  </station>
  <station code="ATEI" name="ATEI" netid="HC" insttype="DC" lat="35.5193" lon="24.0432">
    <comp name="--.HNZ">
      <acc value="0.0174468197" flag="0"/>
      <vel value="0.0076616780" flag="0"/>
      <psa03 value="0.0614472284" flag="0"/>
      <psa10 value="0.0107146795" flag="0"/>
      <psa30 value="0.0008174525" flag="0"/>
    </comp>
    <comp name="--.HNE">
      <acc value="0.0199399245" flag="0"/>
      <vel value="0.0154241105" flag="0"/>
      <psa03 value="0.0382338847" flag="0"/>
      <psa10 value="0.0227044211" flag="0"/>
      <psa30 value="0.0011515567" flag="0"/>
    </comp>
    <comp name="--.HNN">
      <acc value="0.0176042400" flag="0"/>
      <vel value="0.0161606539" flag="0"/>
      <psa03 value="0.0421162948" flag="0"/>
      <psa10 value="0.0277087568" flag="0"/>
      <psa30 value="0.0014057893" flag="0"/>
    </comp>
  </station>
  <station code="CHAN" name="CHAN" netid="HC" insttype="120" lat="35.5193" lon="24.0428">
    <comp name="--.HHE">
      <acc value="0.0364769575" flag="0"/>
      <vel value="0.0327586216" flag="0"/>
      <psa03 value="0.0757745936" flag="0"/>
      <psa10 value="0.0400555799" flag="0"/>
      <psa30 value="0.0025668010" flag="0"/>
    </comp>
    <comp name="--.HHZ">
      <acc value="0.0333206425" flag="0"/>
      <vel value="0.0139289231" flag="0"/>
      <psa03 value="0.1182257559" flag="0"/>
      <psa10 value="0.0197348375" flag="0"/>
      <psa30 value="0.0015469275" flag="0"/>
    </comp>
    <comp name="--.HHN">
      <acc value="0.0320221628" flag="0"/>
      <vel value="0.0284783914" flag="0"/>
      <psa03 value="0.0763935487" flag="0"/>
      <psa10 value="0.0560701884" flag="0"/>
      <psa30 value="0.0025910741" flag="0"/>
    </comp>
  </station>
  <station code="DEYA" name="DEYA" netid="HC" insttype="DC" lat="35.4825" lon="24.014">
    <comp name="--.HNE">
      <acc value="0.0044881041" flag="0"/>
      <vel value="0.0032591302" flag="0"/>
      <psa03 value="0.0123944728" flag="0"/>
      <psa10 value="0.0033574967" flag="0"/>
      <psa30 value="0.0001982709" flag="0"/>
    </comp>
    <comp name="--.HNN">
      <acc value="0.0050880931" flag="0"/>
      <vel value="0.0030076488" flag="0"/>
      <psa03 value="0.0131895467" flag="0"/>
      <psa10 value="0.0043559673" flag="0"/>
      <psa30 value="0.0002187434" flag="0"/>
    </comp>
    <comp name="--.HNZ">
      <acc value="0.0051502379" flag="0"/>
      <vel value="0.0031990836" flag="0"/>
      <psa03 value="0.0087546207" flag="0"/>
      <psa10 value="0.0025676298" flag="0"/>
      <psa30 value="0.0008941317" flag="0"/>
    </comp>
  </station>
  <station code="GVDS" name="GVDS" netid="HC" insttype="60" lat="34.8389" lon="24.0585">
    <comp name="--.HHE">
      <acc value="0.1519895185" flag="0"/>
      <vel value="0.0522016593" flag="0"/>
      <psa03 value="0.4016100901" flag="0"/>
      <psa10 value="0.0188254976" flag="0"/>
      <psa30 value="0.0011338817" flag="0"/>
    </comp>
    <comp name="--.HHZ">
      <acc value="0.1033700594" flag="0"/>
      <vel value="0.0351153222" flag="0"/>
      <psa03 value="0.2238193986" flag="0"/>
      <psa10 value="0.0159332080" flag="0"/>
      <psa30 value="0.0015106264" flag="0"/>
    </comp>
    <comp name="--.HHN">
      <acc value="0.1936752050" flag="0"/>
      <vel value="0.0757452864" flag="0"/>
      <psa03 value="0.3917896540" flag="0"/>
      <psa10 value="0.0198860095" flag="0"/>
      <psa30 value="0.0016632233" flag="0"/>
    </comp>
  </station>
  <station code="IMOD" name="IMOD" netid="HC" insttype="120" lat="34.9731" lon="24.7995">
    <comp name="--.HHE">
      <acc value="0.0158013245" flag="0"/>
      <vel value="0.0130638739" flag="0"/>
      <psa03 value="0.0694828825" flag="0"/>
      <psa10 value="0.0140738741" flag="0"/>
      <psa30 value="0.0012623301" flag="0"/>
    </comp>
    <comp name="--.HHN">
      <acc value="0.0363091360" flag="0"/>
      <vel value="0.0254604562" flag="0"/>
      <psa03 value="0.1366336660" flag="0"/>
      <psa10 value="0.0166216192" flag="0"/>
      <psa30 value="0.0017047458" flag="0"/>
    </comp>
    <comp name="--.HHZ">
      <acc value="0.0151822090" flag="0"/>
      <vel value="0.0092839239" flag="0"/>
      <psa03 value="0.0424264415" flag="0"/>
      <psa10 value="0.0070650260" flag="0"/>
      <psa30 value="0.0005799523" flag="0"/>
    </comp>
  </station>
  <station code="IPPL" name="IPPL" netid="HC" insttype="60" lat="35.3486" lon="24.4632">
    <comp name="--.HHZ">
      <acc value="0.0232657692" flag="0"/>
      <vel value="0.0083944626" flag="0"/>
      <psa03 value="0.0402187495" flag="0"/>
      <psa10 value="0.0079412908" flag="0"/>
      <psa30 value="0.0005805581" flag="0"/>
    </comp>
    <comp name="--.HHN">
      <acc value="0.0202807599" flag="0"/>
      <vel value="0.0150565014" flag="0"/>
      <psa03 value="0.0897036270" flag="0"/>
      <psa10 value="0.0342468525" flag="0"/>
      <psa30 value="0.0010799904" flag="0"/>
    </comp>
    <comp name="--.HHE">
      <acc value="0.0203171819" flag="0"/>
      <vel value="0.0177917656" flag="0"/>
      <psa03 value="0.0616469127" flag="0"/>
      <psa10 value="0.0174383538" flag="0"/>
      <psa30 value="0.0013706118" flag="0"/>
    </comp>
  </station>
  <station code="KNDR" name="KNDR" netid="HC" insttype="120" lat="35.2348" lon="23.6248">
    <comp name="--.HHN">
      <acc value="0.0317104905" flag="0"/>
      <vel value="0.0227997415" flag="0"/>
      <psa03 value="0.1125253285" flag="0"/>
      <psa10 value="0.0254236173" flag="0"/>
      <psa30 value="0.0015667080" flag="0"/>
    </comp>
    <comp name="--.HHZ">
      <acc value="0.0214251099" flag="0"/>
      <vel value="0.0138902587" flag="0"/>
      <psa03 value="0.0703217377" flag="0"/>
      <psa10 value="0.0170281418" flag="0"/>
      <psa30 value="0.0010968833" flag="0"/>
    </comp>
    <comp name="--.HHE">
      <acc value="0.0355409974" flag="0"/>
      <vel value="0.0209740229" flag="0"/>
      <psa03 value="0.1302830025" flag="0"/>
      <psa10 value="0.0212002172" flag="0"/>
      <psa30 value="0.0013164346" flag="0"/>
    </comp>
  </station>
  <station code="PASK" name="PASK" netid="HC" insttype="DC" lat="35.4996" lon="24.0121">
    <comp name="--.HNN">
      <acc value="0.0344462726" flag="0"/>
      <vel value="0.0291981808" flag="0"/>
      <psa03 value="0.1035096308" flag="0"/>
      <psa10 value="0.0258413352" flag="0"/>
      <psa30 value="0.0017399375" flag="0"/>
    </comp>
    <comp name="--.HNE">
      <acc value="0.0391629758" flag="0"/>
      <vel value="0.0284712325" flag="0"/>
      <psa03 value="0.1082757458" flag="0"/>
      <psa10 value="0.0311266312" flag="0"/>
      <psa30 value="0.0018420944" flag="0"/>
    </comp>
    <comp name="--.HNZ">
      <acc value="0.0160775049" flag="0"/>
      <vel value="0.0125401455" flag="0"/>
      <psa03 value="0.0641381355" flag="0"/>
      <psa10 value="0.0145194650" flag="0"/>
      <psa30 value="0.0017412283" flag="0"/>
    </comp>
  </station>
  <station code="POLY" name="POLY" netid="HC" insttype="DC" lat="35.5226" lon="24.0602">
    <comp name="--.HNZ">
      <acc value="0.0183968186" flag="0"/>
      <vel value="0.0108146078" flag="0"/>
      <psa03 value="0.0478429771" flag="0"/>
      <psa10 value="0.0122724561" flag="0"/>
      <psa30 value="0.0005789269" flag="0"/>
    </comp>
    <comp name="--.HNN">
      <acc value="0.0177598068" flag="0"/>
      <vel value="0.0216927237" flag="0"/>
      <psa03 value="0.0440620886" flag="0"/>
      <psa10 value="0.0276909827" flag="0"/>
      <psa30 value="0.0013878388" flag="0"/>
    </comp>
    <comp name="--.HNE">
      <acc value="0.0137185949" flag="0"/>
      <vel value="0.0121737406" flag="0"/>
      <psa03 value="0.0346445300" flag="0"/>
      <psa10 value="0.0208979471" flag="0"/>
      <psa30 value="0.0010611911" flag="0"/>
    </comp>
  </station>
  <station code="RODP" name="RODP" netid="HC" insttype="120" lat="35.5604" lon="23.7577">
    <comp name="--.HHZ">
      <acc value="0.0085104272" flag="0"/>
      <vel value="0.0046867785" flag="0"/>
      <psa03 value="0.0348393008" flag="0"/>
      <psa10 value="0.0057763002" flag="0"/>
      <psa30 value="0.0005030259" flag="0"/>
    </comp>
    <comp name="--.HHN">
      <acc value="0.0153516763" flag="0"/>
      <vel value="0.0121948442" flag="0"/>
      <psa03 value="0.0499626115" flag="0"/>
      <psa10 value="0.0117520257" flag="0"/>
      <psa30 value="0.0006429627" flag="0"/>
    </comp>
    <comp name="--.HHE">
      <acc value="0.0154064253" flag="0"/>
      <vel value="0.0108403773" flag="0"/>
      <psa03 value="0.0466943626" flag="0"/>
      <psa10 value="0.0177119507" flag="0"/>
      <psa30 value="0.0007699495" flag="0"/>
    </comp>
  </station>
  <station code="TEFL" name="TEFL" netid="HC" insttype="GEOtiny," lat="35.0933" lon="25.1634">
    <comp name="--.HHE">
      <acc value="0.0115285908" flag="0"/>
      <vel value="0.0065249837" flag="0"/>
      <psa03 value="0.0372665350" flag="0"/>
      <psa10 value="0.0082815071" flag="0"/>
      <psa30 value="0.0005335476" flag="0"/>
    </comp>
    <comp name="--.HHN">
      <acc value="0.0106082781" flag="0"/>
      <vel value="0.0090867077" flag="0"/>
      <psa03 value="0.0350723755" flag="0"/>
      <psa10 value="0.0120375254" flag="0"/>
      <psa30 value="0.0008603138" flag="0"/>
    </comp>
    <comp name="--.HHZ">
      <acc value="0.0056372257" flag="0"/>
      <vel value="0.0035824515" flag="0"/>
      <psa03 value="0.0175573848" flag="0"/>
      <psa10 value="0.0056451182" flag="0"/>
      <psa30 value="0.0003863079" flag="0"/>
    </comp>
  </station>
  <station code="CH01" name="CH01" netid="HI" insttype="CMG-5TD,ACCELEROMETER,GURALP" lat="35.517" lon="24.0208">
    <comp name="--.HNZ">
      <acc value="0.0138315847" flag="0"/>
      <vel value="0.0108057903" flag="0"/>
      <psa03 value="0.0396579052" flag="0"/>
      <psa10 value="0.0287941251" flag="0"/>
      <psa30 value="0.0012616964" flag="0"/>
    </comp>
    <comp name="--.HNN">
      <acc value="0.0158831532" flag="0"/>
      <vel value="0.0133141333" flag="0"/>
      <psa03 value="0.0682101632" flag="0"/>
      <psa10 value="0.0186389705" flag="0"/>
      <psa30 value="0.0013301395" flag="0"/>
    </comp>
    <comp name="--.HNE">
      <acc value="0.0233402773" flag="0"/>
      <vel value="0.0172166676" flag="0"/>
      <psa03 value="0.0677026396" flag="0"/>
      <psa10 value="0.0230918524" flag="0"/>
      <psa30 value="0.0013647080" flag="0"/>
    </comp>
  </station>
  <station code="GVD" name="GVD" netid="HL" insttype="120" lat="34.8391" lon="24.0874">
    <comp name="--.HHZ">
      <acc value="0.1509794764" flag="0"/>
      <vel value="0.0690574330" flag="0"/>
      <psa03 value="0.5648997382" flag="0"/>
      <psa10 value="0.0262754744" flag="0"/>
      <psa30 value="0.0020941443" flag="0"/>
    </comp>
    <comp name="--.HHN">
      <acc value="0.1879730418" flag="0"/>
      <vel value="0.0808276822" flag="0"/>
      <psa03 value="0.6054300131" flag="0"/>
      <psa10 value="0.0378295204" flag="0"/>
      <psa30 value="0.0025966857" flag="0"/>
    </comp>
    <comp name="--.HHE">
      <acc value="0.3802809401" flag="0"/>
      <vel value="0.1026525851" flag="0"/>
      <psa03 value="0.8301184571" flag="0"/>
      <psa10 value="0.0447216161" flag="0"/>
      <psa30 value="0.0051857672" flag="0"/>
    </comp>
  </station>
  <station code="IDI" name="IDI" netid="HL" insttype="120" lat="35.288" lon="24.89">
    <comp name="--.HHN">
      <acc value="0.0049995529" flag="0"/>
      <vel value="0.0031555994" flag="0"/>
      <psa03 value="0.0176064164" flag="0"/>
      <psa10 value="0.0029932984" flag="0"/>
      <psa30 value="0.0003796655" flag="0"/>
    </comp>
    <comp name="--.HHE">
      <acc value="0.0046169399" flag="0"/>
      <vel value="0.0030163449" flag="0"/>
      <psa03 value="0.0174248375" flag="0"/>
      <psa10 value="0.0040396359" flag="0"/>
      <psa30 value="0.0001968235" flag="0"/>
    </comp>
    <comp name="--.HHZ">
      <acc value="0.0040070751" flag="0"/>
      <vel value="0.0024566245" flag="0"/>
      <psa03 value="0.0086970141" flag="0"/>
      <psa10 value="0.0034214078" flag="0"/>
      <psa30 value="0.0003370696" flag="0"/>
    </comp>
  </station>
  <station code="IMMV" name="IMMV" netid="HL" insttype="120" lat="35.4606" lon="23.9811">
    <comp name="--.HHE">
      <acc value="0.0500817944" flag="0"/>
      <vel value="0.0194446066" flag="0"/>
      <psa03 value="0.1034895256" flag="0"/>
      <psa10 value="0.0334641560" flag="0"/>
      <psa30 value="0.0009252393" flag="0"/>
    </comp>
    <comp name="--.HHN">
      <acc value="0.0539090431" flag="0"/>
      <vel value="0.0259114062" flag="0"/>
      <psa03 value="0.1469872445" flag="0"/>
      <psa10 value="0.0198311793" flag="0"/>
      <psa30 value="0.0016284334" flag="0"/>
    </comp>
    <comp name="--.HHZ">
      <acc value="0.0415209163" flag="0"/>
      <vel value="0.0204897269" flag="0"/>
      <psa03 value="0.1427870625" flag="0"/>
      <psa10 value="0.0163859897" flag="0"/>
      <psa30 value="0.0010994162" flag="0"/>
    </comp>
  </station>
  <station code="SIVA" name="SIVA" netid="HL" insttype="60" lat="35.0178" lon="24.812">
    <comp name="--.HHE">
      <acc value="0.0356180087" flag="0"/>
      <vel value="0.0178903990" flag="0"/>
      <psa03 value="0.0839992506" flag="0"/>
      <psa10 value="0.0270853956" flag="0"/>
      <psa30 value="0.0010728641" flag="0"/>
    </comp>
    <comp name="--.HHN">
      <acc value="0.0325015286" flag="0"/>
      <vel value="0.0262560618" flag="0"/>
      <psa03 value="0.0827394493" flag="0"/>
      <psa10 value="0.0276414055" flag="0"/>
      <psa30 value="0.0015044614" flag="0"/>
    </comp>
    <comp name="--.HHZ">
      <acc value="0.0148033483" flag="0"/>
      <vel value="0.0087774926" flag="0"/>
      <psa03 value="0.0406370902" flag="0"/>
      <psa10 value="0.0088443995" flag="0"/>
      <psa30 value="0.0006380341" flag="0"/>
    </comp>
  </station>
  <station code="VAM" name="VAM" netid="HL" insttype="CMG3ESPC-120s" lat="35.407" lon="24.1997">
    <comp name="--.HHN">
      <acc value="0.0256074159" flag="0"/>
      <vel value="0.0112140019" flag="0"/>
      <psa03 value="0.0497857627" flag="0"/>
      <psa10 value="0.0179230772" flag="0"/>
      <psa30 value="0.0010533155" flag="0"/>
    </comp>
    <comp name="--.HHE">
      <acc value="0.0268720388" flag="0"/>
      <vel value="0.0124219180" flag="0"/>
      <psa03 value="0.0489006409" flag="0"/>
      <psa10 value="0.0132816437" flag="0"/>
      <psa30 value="0.0006218072" flag="0"/>
    </comp>
    <comp name="--.HHZ">
      <acc value="0.0193078951" flag="0"/>
      <vel value="0.0093480310" flag="0"/>
      <psa03 value="0.0368542214" flag="0"/>
      <psa10 value="0.0087256667" flag="0"/>
      <psa30 value="0.0011916241" flag="0"/>
    </comp>
  </station>
  <station code="IDI" name="IDI" netid="MN" insttype="" lat="35.288" lon="24.89">
    <comp name="--.HHE">
      <acc value="0.0047080715" flag="0"/>
      <vel value="0.0030177767" flag="0"/>
      <psa03 value="0.0177183263" flag="0"/>
      <psa10 value="0.0040244891" flag="0"/>
      <psa30 value="0.0001947868" flag="0"/>
    </comp>
    <comp name="--.HHN">
      <acc value="0.0051138989" flag="0"/>
      <vel value="0.0031567656" flag="0"/>
      <psa03 value="0.0178125612" flag="0"/>
      <psa10 value="0.0029680247" flag="0"/>
      <psa30 value="0.0003758811" flag="0"/>
    </comp>
    <comp name="--.HHZ">
      <acc value="0.0041246792" flag="0"/>
      <vel value="0.0024512074" flag="0"/>
      <psa03 value="0.0087424222" flag="0"/>
      <psa10 value="0.0033942036" flag="0"/>
      <psa30 value="0.0003336759" flag="0"/>
    </comp>
  </station>
</stationlist>
