<?xml version="1.0" encoding="UTF-8" standalone="yes"?>
<!DOCTYPE earthquake SYSTEM "stationlist.dtd">
<stationlist created="" xmlns="ch.ethz.sed.shakemap.usgs.xml">
  <station code="GVD" name="GVD" netid="GE" insttype="STS-2/N" lat="34.8391" lon="24.0874">
    <comp name="--.HHE">
      <acc value="0.3636938329" flag="0"/>
      <vel value="0.1057381793" flag="0"/>
      <psa03 value="0.8541716903" flag="0"/>
      <psa10 value="0.0450013158" flag="0"/>
      <psa30 value="0.0051919360" flag="0"/>
    </comp>
    <comp name="--.HHN">
      <acc value="0.1922707713" flag="0"/>
      <vel value="0.0829223508" flag="0"/>
      <psa03 value="0.6236064507" flag="0"/>
      <psa10 value="0.0384585149" flag="0"/>
      <psa30 value="0.0026538276" flag="0"/>
    </comp>
    <comp name="--.HHZ">
      <acc value="0.1564218579" flag="0"/>
      <vel value="0.0706111106" flag="0"/>
      <psa03 value="0.5807802277" flag="0"/>
      <psa10 value="0.0268273873" flag="0"/>
      <psa30 value="0.0021245768" flag="0"/>
    </comp>
  </station>
  <station code="IMMV" name="IMMV" netid="GE" insttype="STS-2/N" lat="35.4606" lon="23.9811">
    <comp name="--.HHN">
      <acc value="0.0555867892" flag="0"/>
      <vel value="0.0262055287" flag="0"/>
      <psa03 value="0.1510913835" flag="0"/>
      <psa10 value="0.0200464488" flag="0"/>
      <psa30 value="0.0016440906" flag="0"/>
    </comp>
    <comp name="--.HHZ">
      <acc value="0.0427840842" flag="0"/>
      <vel value="0.0208814615" flag="0"/>
      <psa03 value="0.1471175599" flag="0"/>
      <psa10 value="0.0164964141" flag="0"/>
      <psa30 value="0.0011027545" flag="0"/>
    </comp>
    <comp name="--.HHE">
      <acc value="0.0517307048" flag="0"/>
      <vel value="0.0197552930" flag="0"/>
      <psa03 value="0.1064955233" flag="0"/>
      <psa10 value="0.0337459002" flag="0"/>
      <psa30 value="0.0009292738" flag="0"/>
    </comp>
  </station>
  <station code="IDI" name="IDI" netid="MN" insttype="" lat="35.288" lon="24.89">
    <comp name="--.HHE">
      <acc value="0.0047080715" flag="0"/>
      <vel value="0.0030177767" flag="0"/>
      <psa03 value="0.0177183263" flag="0"/>
      <psa10 value="0.0040244891" flag="0"/>
      <psa30 value="0.0001947868" flag="0"/>
    </comp>
    <comp name="--.HHN">
      <acc value="0.0051138989" flag="0"/>
      <vel value="0.0031567656" flag="0"/>
      <psa03 value="0.0178125612" flag="0"/>
      <psa10 value="0.0029680247" flag="0"/>
      <psa30 value="0.0003758811" flag="0"/>
    </comp>
    <comp name="--.HHZ">
      <acc value="0.0041246792" flag="0"/>
      <vel value="0.0024512074" flag="0"/>
      <psa03 value="0.0087424222" flag="0"/>
      <psa10 value="0.0033942036" flag="0"/>
      <psa30 value="0.0003336759" flag="0"/>
    </comp>
  </station>
</stationlist>
