<stationlist created="1778069542">
	<station code="IMMV" name="IMMV" netid="GE" source="GEOFON" insttype="" lat="35.4606" lon="23.9811">
		<comp name="--.HNE" depth="0.0">
			<acc value="0.000656702259417992" flag="0"/>
			<vel value="0.000819965122420532" flag="0"/>
			<psa03 value="0.00192391488458569" flag="0"/>
			<psa10 value="0.00154226386213183" flag="0"/>
			<psa30 value="0.000191496644326203" flag="0"/>
		</comp>
		<comp name="--.HNN" depth="0.0">
			<acc value="0.000623432926858114" flag="0"/>
			<vel value="0.000624936715906633" flag="0"/>
			<psa03 value="0.00201339929782223" flag="0"/>
			<psa10 value="0.00152212986915361" flag="0"/>
			<psa30 value="0.000285007856158391" flag="0"/>
		</comp>
		<comp name="--.HNZ" depth="0.0">
			<acc value="0.000466808603809189" flag="0"/>
			<vel value="0.000489229406390785" flag="0"/>
			<psa03 value="0.00138700840516642" flag="0"/>
			<psa10 value="0.0012322003702672" flag="0"/>
			<psa30 value="0.000105591607619121" flag="0"/>
		</comp>
	</station>
</stationlist>
