<?xml version="1.0" encoding="UTF-8" standalone="yes"?>
<!DOCTYPE earthquake SYSTEM "stationlist.dtd">
<stationlist created="" xmlns="ch.ethz.sed.shakemap.usgs.xml">
  <station code="APE" name="APE" netid="GE" insttype="STS-2/N" lat="37.0727" lon="25.523">
    <comp name="--.HHZ">
      <acc value="0.0445537477" flag="0"/>
      <vel value="0.0053953864" flag="0"/>
      <psa03 value="0.0191587474" flag="0"/>
      <psa10 value="0.0040523112" flag="0"/>
      <psa30 value="0.0012492458" flag="0"/>
    </comp>
    <comp name="--.HHE">
      <acc value="0.1257451353" flag="0"/>
      <vel value="0.0110593461" flag="0"/>
      <psa03 value="0.0318239883" flag="0"/>
      <psa10 value="0.0028753315" flag="0"/>
      <psa30 value="0.0009450431" flag="0"/>
    </comp>
    <comp name="--.HHN">
      <acc value="0.1131664985" flag="0"/>
      <vel value="0.0110596090" flag="0"/>
      <psa03 value="0.0277459489" flag="0"/>
      <psa10 value="0.0040470460" flag="0"/>
      <psa30 value="0.0009769060" flag="0"/>
    </comp>
  </station>
  <station code="THERA" name="THERA" netid="GE" insttype="STS-2/N" lat="36.367" lon="25.4753">
    <comp name="--.HHZ">
      <acc value="0.0577204694" flag="0"/>
      <vel value="0.0169130140" flag="0"/>
      <psa03 value="0.0917353891" flag="0"/>
      <psa10 value="0.0101120064" flag="0"/>
      <psa30 value="0.0008660090" flag="0"/>
    </comp>
    <comp name="--.HHE">
      <acc value="0.0604653534" flag="0"/>
      <vel value="0.0188173923" flag="0"/>
      <psa03 value="0.0881778002" flag="0"/>
      <psa10 value="0.0081299951" flag="0"/>
      <psa30 value="0.0017570183" flag="0"/>
    </comp>
    <comp name="--.HHN">
      <acc value="0.0386243029" flag="0"/>
      <vel value="0.0129126501" flag="0"/>
      <psa03 value="0.0820582472" flag="0"/>
      <psa10 value="0.0072728368" flag="0"/>
      <psa30 value="0.0006416647" flag="0"/>
    </comp>
  </station>
  <station code="SNT1" name="SNT1" netid="HA" insttype="30" lat="36.4159" lon="25.4282">
    <comp name="--.HHZ">
      <acc value="0.0921839990" flag="0"/>
      <vel value="0.0274174117" flag="0"/>
      <psa03 value="0.1331136141" flag="0"/>
      <psa10 value="0.0163132695" flag="0"/>
      <psa30 value="0.0015331233" flag="0"/>
    </comp>
    <comp name="--.HHN">
      <acc value="0.1549651382" flag="0"/>
      <vel value="0.0657963838" flag="0"/>
      <psa03 value="0.1774243920" flag="0"/>
      <psa10 value="0.0304550185" flag="0"/>
      <psa30 value="0.0033815270" flag="0"/>
    </comp>
    <comp name="--.HHE">
      <acc value="0.1320774150" flag="0"/>
      <vel value="0.0435710984" flag="0"/>
      <psa03 value="0.2645990496" flag="0"/>
      <psa10 value="0.0378344588" flag="0"/>
      <psa30 value="0.0043887151" flag="0"/>
    </comp>
  </station>
  <station code="NAX1" name="NAX1" netid="HI" insttype="CMG-5TD,ACCELEROMETER,GURALP" lat="37.1014" lon="25.3741">
    <comp name="--.HNE">
      <acc value="0.0541439699" flag="0"/>
      <vel value="0.0092656132" flag="0"/>
      <psa03 value="0.0412195404" flag="0"/>
      <psa10 value="0.0045033046" flag="0"/>
      <psa30 value="0.0006484617" flag="0"/>
    </comp>
    <comp name="--.HNN">
      <acc value="0.0529367556" flag="0"/>
      <vel value="0.0117204645" flag="0"/>
      <psa03 value="0.0342675058" flag="0"/>
      <psa10 value="0.0028930483" flag="0"/>
      <psa30 value="0.0008414486" flag="0"/>
    </comp>
    <comp name="--.HNZ">
      <acc value="0.0333844214" flag="0"/>
      <vel value="0.0064961886" flag="0"/>
      <psa03 value="0.0192542763" flag="0"/>
      <psa10 value="0.0058600220" flag="0"/>
      <psa30 value="0.0009595808" flag="0"/>
    </comp>
  </station>
  <station code="APE" name="APE" netid="HL" insttype="120" lat="37.0727" lon="25.523">
    <comp name="--.HHE">
      <acc value="0.0997001639" flag="0"/>
      <vel value="0.0093794344" flag="0"/>
      <psa03 value="0.0308477804" flag="0"/>
      <psa10 value="0.0028479102" flag="0"/>
      <psa30 value="0.0009420514" flag="0"/>
    </comp>
    <comp name="--.HHN">
      <acc value="0.0889741005" flag="0"/>
      <vel value="0.0106161415" flag="0"/>
      <psa03 value="0.0268042645" flag="0"/>
      <psa10 value="0.0040059830" flag="0"/>
      <psa30 value="0.0009732588" flag="0"/>
    </comp>
    <comp name="--.HHZ">
      <acc value="0.0374703525" flag="0"/>
      <vel value="0.0051263204" flag="0"/>
      <psa03 value="0.0186315853" flag="0"/>
      <psa10 value="0.0040120632" flag="0"/>
      <psa30 value="0.0012460159" flag="0"/>
    </comp>
  </station>
  <station code="SAP3" name="SAP3" netid="HL" insttype="LE3D20_SMART24" lat="36.4356" lon="25.3454">
    <comp name="--.HHZ">
      <acc value="0.4235666651" flag="0"/>
      <vel value="0.1247319216" flag="0"/>
      <psa03 value="0.3703539955" flag="0"/>
      <psa10 value="0.0304611489" flag="0"/>
      <psa30 value="0.0028644164" flag="0"/>
    </comp>
    <comp name="--.HHN">
      <acc value="0.5271138944" flag="0"/>
      <vel value="0.1883195468" flag="0"/>
      <psa03 value="0.9510885754" flag="0"/>
      <psa10 value="0.0535063905" flag="0"/>
      <psa30 value="0.0139263907" flag="0"/>
    </comp>
    <comp name="--.HHE">
      <acc value="0.5026606949" flag="0"/>
      <vel value="0.1865995323" flag="0"/>
      <psa03 value="0.9789207551" flag="0"/>
      <psa10 value="0.0660497459" flag="0"/>
      <psa30 value="0.0092320440" flag="0"/>
    </comp>
  </station>
  <station code="THERA" name="THERA" netid="HL" insttype="120" lat="36.367" lon="25.4753">
    <comp name="--.HHE">
      <acc value="0.0608861617" flag="0"/>
      <vel value="0.0185568486" flag="0"/>
      <psa03 value="0.0856494837" flag="0"/>
      <psa10 value="0.0080235154" flag="0"/>
      <psa30 value="0.0017565304" flag="0"/>
    </comp>
    <comp name="--.HHN">
      <acc value="0.0395925899" flag="0"/>
      <vel value="0.0126802734" flag="0"/>
      <psa03 value="0.0796532847" flag="0"/>
      <psa10 value="0.0072328705" flag="0"/>
      <psa30 value="0.0006415252" flag="0"/>
    </comp>
    <comp name="--.HHZ">
      <acc value="0.0580817967" flag="0"/>
      <vel value="0.0164983500" flag="0"/>
      <psa03 value="0.0891588151" flag="0"/>
      <psa10 value="0.0099880043" flag="0"/>
      <psa30 value="0.0008597969" flag="0"/>
    </comp>
  </station>
  <station code="THRA" name="THRA" netid="HL" insttype="CMG-5" lat="36.415" lon="25.4324">
    <comp name="00.HNN">
      <acc value="0.4113990477" flag="0"/>
      <vel value="0.1873245060" flag="0"/>
      <psa03 value="0.8178513407" flag="0"/>
      <psa10 value="0.1435475787" flag="0"/>
      <psa30 value="0.0066375612" flag="0"/>
    </comp>
    <comp name="00.HNZ">
      <acc value="0.3330178532" flag="0"/>
      <vel value="0.1002374615" flag="0"/>
      <psa03 value="0.6603626142" flag="0"/>
      <psa10 value="0.0436468260" flag="0"/>
      <psa30 value="0.0029747669" flag="0"/>
    </comp>
    <comp name="00.HNE">
      <acc value="0.4757545774" flag="0"/>
      <vel value="0.1669736817" flag="0"/>
      <psa03 value="0.9396578744" flag="0"/>
      <psa10 value="0.0786182758" flag="0"/>
      <psa30 value="0.0080035230" flag="0"/>
    </comp>
  </station>
</stationlist>
