<?xml version="1.0" encoding="UTF-8" standalone="yes"?>
<!DOCTYPE earthquake SYSTEM "stationlist.dtd">
<stationlist created="" xmlns="ch.ethz.sed.shakemap.usgs.xml">
  <station code="APE" name="APE" netid="GE" insttype="STS-2/N" lat="37.0727" lon="25.523">
    <comp name="--.HHZ">
      <acc value="0.0445537477" flag="0"/>
      <vel value="0.0053953864" flag="0"/>
      <psa03 value="0.0191587474" flag="0"/>
      <psa10 value="0.0040523112" flag="0"/>
      <psa30 value="0.0012492458" flag="0"/>
    </comp>
    <comp name="--.HHE">
      <acc value="0.1257451353" flag="0"/>
      <vel value="0.0110593461" flag="0"/>
      <psa03 value="0.0318239883" flag="0"/>
      <psa10 value="0.0028753315" flag="0"/>
      <psa30 value="0.0009450431" flag="0"/>
    </comp>
    <comp name="--.HHN">
      <acc value="0.1131664985" flag="0"/>
      <vel value="0.0110596090" flag="0"/>
      <psa03 value="0.0277459489" flag="0"/>
      <psa10 value="0.0040470460" flag="0"/>
      <psa30 value="0.0009769060" flag="0"/>
    </comp>
  </station>
  <station code="THERA" name="THERA" netid="GE" insttype="STS-2/N" lat="36.367" lon="25.4753">
    <comp name="--.HHZ">
      <acc value="0.0577204694" flag="0"/>
      <vel value="0.0169130140" flag="0"/>
      <psa03 value="0.0917353891" flag="0"/>
      <psa10 value="0.0101120064" flag="0"/>
      <psa30 value="0.0008660090" flag="0"/>
    </comp>
    <comp name="--.HHE">
      <acc value="0.0604653534" flag="0"/>
      <vel value="0.0188173923" flag="0"/>
      <psa03 value="0.0881778002" flag="0"/>
      <psa10 value="0.0081299951" flag="0"/>
      <psa30 value="0.0017570183" flag="0"/>
    </comp>
    <comp name="--.HHN">
      <acc value="0.0386243029" flag="0"/>
      <vel value="0.0129126501" flag="0"/>
      <psa03 value="0.0820582472" flag="0"/>
      <psa10 value="0.0072728368" flag="0"/>
      <psa30 value="0.0006416647" flag="0"/>
    </comp>
  </station>
</stationlist>
