<stationlist created="1738787533">
	<station code="BODA" name="BODA" netid="KO" source="Bogazici University Kandilli Observatory And Earthquake Research Institute (KOERI)" insttype="" lat="37.0348" lon="27.4304">
		<comp name=".HNE" depth="0.0">
			<acc value="0.0068051875122702" flag="0"/>
			<vel value="0.00266061461126" flag="0"/>
			<psa03 value="0.0167919014435464" flag="0"/>
			<psa10 value="0.00217109944968231" flag="0"/>
			<psa30 value="0.00026211166048596" flag="0"/>
		</comp>
		<comp name=".HNN" depth="0.0">
			<acc value="0.0060953059573554" flag="0"/>
			<vel value="0.00273835424567" flag="0"/>
			<psa03 value="0.0199702005319498" flag="0"/>
			<psa10 value="0.00270196047599702" flag="0"/>
			<psa30 value="0.000351436796588135" flag="0"/>
		</comp>
		<comp name=".HNZ" depth="0.0">
			<acc value="0.010877568627156" flag="0"/>
			<vel value="0.00171677598141" flag="0"/>
			<psa03 value="0.00446298998712033" flag="0"/>
			<psa10 value="0.00146384115197968" flag="0"/>
			<psa30 value="0.000292634932503307" flag="0"/>
		</comp>
	</station>
	<station code="BODM" name="BODM" netid="KO" source="Bogazici University Kandilli Observatory And Earthquake Research Institute (KOERI)" insttype="" lat="37.031" lon="27.4247">
		<comp name=".HNE" depth="0.0">
			<acc value="0.018500429198802" flag="0"/>
			<vel value="0.00336063133586" flag="0"/>
			<psa03 value="0.0149785860078087" flag="0"/>
			<psa10 value="0.00280679046734348" flag="0"/>
			<psa30 value="0.000278005708180487" flag="0"/>
		</comp>
		<comp name=".HNN" depth="0.0">
			<acc value="0.020189355613002" flag="0"/>
			<vel value="0.00571050778438" flag="0"/>
			<psa03 value="0.0242620134893121" flag="0"/>
			<psa10 value="0.00389495692803281" flag="0"/>
			<psa30 value="0.000381935223208931" flag="0"/>
		</comp>
		<comp name=".HNZ" depth="0.0">
			<acc value="0.010355636281494" flag="0"/>
			<vel value="0.00124358309603" flag="0"/>
			<psa03 value="0.00303133199576145" flag="0"/>
			<psa10 value="0.00102816752511333" flag="0"/>
			<psa30 value="0.000286184166629898" flag="0"/>
		</comp>
	</station>
	<station code="CESE" name="CESE" netid="KO" source="Bogazici University Kandilli Observatory And Earthquake Research Institute (KOERI)" insttype="" lat="38.3306" lon="26.2997">
		<comp name=".HNE" depth="0.0">
			<acc value="0.092342389314804" flag="0"/>
			<vel value="0.00468849380705" flag="0"/>
			<psa03 value="0.00403393226727827" flag="0"/>
			<psa10 value="0.00279788245535647" flag="0"/>
			<psa30 value="0.000970878378425514" flag="0"/>
		</comp>
		<comp name=".HNN" depth="0.0">
			<acc value="0.070609885859166" flag="0"/>
			<vel value="0.00423391670735" flag="0"/>
			<psa03 value="0.00557714354695066" flag="0"/>
			<psa10 value="0.0024596855202173" flag="0"/>
			<psa30 value="0.000797699301997631" flag="0"/>
		</comp>
		<comp name=".HNZ" depth="0.0">
			<acc value="0.013046464705032" flag="0"/>
			<vel value="0.00173305542644" flag="0"/>
			<psa03 value="0.00321885743923624" flag="0"/>
			<psa10 value="0.00207399707962922" flag="0"/>
			<psa30 value="0.000595914320148384" flag="0"/>
		</comp>
	</station>
	<station code="DATC" name="DATC" netid="KO" source="Bogazici University Kandilli Observatory And Earthquake Research Institute (KOERI)" insttype="" lat="36.7584" lon="27.6602">
		<comp name=".HNE" depth="0.0">
			<acc value="0.17441191187328" flag="0"/>
			<vel value="0.0165532797015" flag="0"/>
			<psa03 value="0.0314951723381161" flag="0"/>
			<psa10 value="0.00514011675752492" flag="0"/>
			<psa30 value="0.000972032725732124" flag="0"/>
		</comp>
		<comp name=".HNN" depth="0.0">
			<acc value="0.18146393406216" flag="0"/>
			<vel value="0.017413081021" flag="0"/>
			<psa03 value="0.0320622802187204" flag="0"/>
			<psa10 value="0.00678867065361782" flag="0"/>
			<psa30 value="0.00108698898685065" flag="0"/>
		</comp>
		<comp name=".HNZ" depth="0.0">
			<acc value="0.19279320945798" flag="0"/>
			<vel value="0.0277004048534" flag="0"/>
			<psa03 value="0.0306510591280897" flag="0"/>
			<psa10 value="0.00633749654677509" flag="0"/>
			<psa30 value="0.000896585540223271" flag="0"/>
		</comp>
	</station>
	<station code="DIDI" name="DIDI" netid="KO" source="Bogazici University Kandilli Observatory And Earthquake Research Institute (KOERI)" insttype="" lat="37.3767" lon="27.2398">
		<comp name=".HNE" depth="0.0">
			<acc value="0.1040403426486" flag="0"/>
			<vel value="0.00984845298249" flag="0"/>
			<psa03 value="0.038930180495897" flag="0"/>
			<psa10 value="0.0114968253582364" flag="0"/>
			<psa30 value="0.00152123577440398" flag="0"/>
		</comp>
		<comp name=".HNN" depth="0.0">
			<acc value="0.092075354947212" flag="0"/>
			<vel value="0.00929942527478" flag="0"/>
			<psa03 value="0.0280292682597782" flag="0"/>
			<psa10 value="0.0124088492128755" flag="0"/>
			<psa30 value="0.00214500292925002" flag="0"/>
		</comp>
		<comp name=".HNZ" depth="0.0">
			<acc value="0.1295360211636" flag="0"/>
			<vel value="0.0157967690238" flag="0"/>
			<psa03 value="0.0232069071353841" flag="0"/>
			<psa10 value="0.00601974924761397" flag="0"/>
			<psa30 value="0.000962232284831513" flag="0"/>
		</comp>
	</station>
	<station code="GMLD" name="GMLD" netid="KO" source="Bogazici University Kandilli Observatory And Earthquake Research Institute (KOERI)" insttype="" lat="38.0766" lon="26.9157">
		<comp name=".HNE" depth="0.0">
			<acc value="0.013153066307022" flag="0"/>
			<vel value="0.00627483438157" flag="0"/>
			<psa03 value="0.0295594008735628" flag="0"/>
			<psa10 value="0.0051484985627612" flag="0"/>
			<psa30 value="0.00048727873815675" flag="0"/>
		</comp>
		<comp name=".HNN" depth="0.0">
			<acc value="0.014867781520146" flag="0"/>
			<vel value="0.00794450728512" flag="0"/>
			<psa03 value="0.0277417153566625" flag="0"/>
			<psa10 value="0.00899454615702526" flag="0"/>
			<psa30 value="0.000678144142470212" flag="0"/>
		</comp>
		<comp name=".HNZ" depth="0.0">
			<acc value="0.0096238526007516" flag="0"/>
			<vel value="0.00344431171928" flag="0"/>
			<psa03 value="0.0191425024718584" flag="0"/>
			<psa10 value="0.00207439460596375" flag="0"/>
			<psa30 value="0.000517904516965852" flag="0"/>
		</comp>
	</station>
	<station code="KUSD" name="KUSD" netid="KO" source="Bogazici University Kandilli Observatory And Earthquake Research Institute (KOERI)" insttype="" lat="37.8606" lon="27.2868">
		<comp name=".HNE" depth="0.0">
			<acc value="0.019925281324068" flag="0"/>
			<vel value="0.00246755660234" flag="0"/>
			<psa03 value="0.0073666585779111" flag="0"/>
			<psa10 value="0.00202586498486247" flag="0"/>
			<psa30 value="0.000439293111429266" flag="0"/>
		</comp>
		<comp name=".HNN" depth="0.0">
			<acc value="0.056124730441416" flag="0"/>
			<vel value="0.00343872824187" flag="0"/>
			<psa03 value="0.00641370612657211" flag="0"/>
			<psa10 value="0.00341014473347568" flag="0"/>
			<psa30 value="0.000350840689390468" flag="0"/>
		</comp>
		<comp name=".HNZ" depth="0.0">
			<acc value="0.010986750339138" flag="0"/>
			<vel value="0.00175382271612" flag="0"/>
			<psa03 value="0.00343872975209406" flag="0"/>
			<psa10 value="0.00164443272466014" flag="0"/>
			<psa30 value="0.000308941950262914" flag="0"/>
		</comp>
	</station>
	<station code="YKAV" name="YKAV" netid="KO" source="Bogazici University Kandilli Observatory And Earthquake Research Institute (KOERI)" insttype="" lat="37.1246" lon="27.2801">
		<comp name=".HNE" depth="0.0">
			<acc value="0.007689977276976" flag="0"/>
			<vel value="0.00141197380546" flag="0"/>
			<psa03 value="0.00285069763378802" flag="0"/>
			<psa10 value="0.00140250689357503" flag="0"/>
			<psa30 value="0.000143478059404774" flag="0"/>
		</comp>
		<comp name=".HNN" depth="0.0">
			<acc value="0.010770414588576" flag="0"/>
			<vel value="0.000953421899425" flag="0"/>
			<psa03 value="0.0026870668396271" flag="0"/>
			<psa10 value="0.000703711031464722" flag="0"/>
			<psa30 value="0.0005298116078333" flag="0"/>
		</comp>
		<comp name=".HNZ" depth="0.0">
			<acc value="0.01030286573418" flag="0"/>
			<vel value="0.00149469617518" flag="0"/>
			<psa03 value="0.00374928287679797" flag="0"/>
			<psa10 value="0.00143440181895544" flag="0"/>
			<psa30 value="0.000388400937989134" flag="0"/>
		</comp>
	</station>
</stationlist>
