<?xml version="1.0" encoding="UTF-8" standalone="yes"?>
<!DOCTYPE earthquake SYSTEM "stationlist.dtd">
<stationlist created="" xmlns="ch.ethz.sed.shakemap.usgs.xml">
  <station code="NISR" name="NISR" netid="HL" insttype="0" lat="36.6106" lon="27.131">
    <comp name="--.HNZ">
      <acc value="0.9706446268" flag="0"/>
      <vel value="0.1340954930" flag="0"/>
      <psa03 value="0.5015710058" flag="0"/>
      <psa10 value="0.2175710485" flag="0"/>
      <psa30 value="0.0115248450" flag="0"/>
    </comp>
    <comp name="--.HNN">
      <acc value="1.2646492555" flag="0"/>
      <vel value="0.3165580153" flag="0"/>
      <psa03 value="1.0174957451" flag="0"/>
      <psa10 value="0.2332346860" flag="0"/>
      <psa30 value="0.0314498409" flag="0"/>
    </comp>
    <comp name="--.HNE">
      <acc value="0.9443401098" flag="0"/>
      <vel value="0.4534379474" flag="0"/>
      <psa03 value="1.8087692546" flag="0"/>
      <psa10 value="0.5277968772" flag="0"/>
      <psa30 value="0.0482357050" flag="0"/>
    </comp>
  </station>
</stationlist>
