<?xml version="1.0" encoding="UTF-8" standalone="yes"?>
<!DOCTYPE earthquake SYSTEM "stationlist.dtd">
<stationlist created="" xmlns="ch.ethz.sed.shakemap.usgs.xml">
  <station code="FX12" name="FX12" netid="1J" insttype="" lat="38.0895" lon="15.7176">
    <comp name="00.HHE">
      <acc value="0.0040820914" flag="0"/>
      <vel value="0.0024744535" flag="0"/>
      <psa03 value="0.0224701333" flag="0"/>
      <psa10 value="0.0023443441" flag="0"/>
      <psa30 value="0.0002728666" flag="0"/>
    </comp>
    <comp name="00.HHN">
      <acc value="0.0033418468" flag="0"/>
      <vel value="0.0018366643" flag="0"/>
      <psa03 value="0.0171057088" flag="0"/>
      <psa10 value="0.0012653798" flag="0"/>
      <psa30 value="0.0003978793" flag="0"/>
    </comp>
    <comp name="00.HHZ">
      <acc value="0.0014516418" flag="0"/>
      <vel value="0.0008872558" flag="0"/>
      <psa03 value="0.0025606799" flag="0"/>
      <psa10 value="0.0009907768" flag="0"/>
      <psa30 value="0.0001791112" flag="0"/>
    </comp>
  </station>
  <station code="FX14" name="FX14" netid="1J" insttype="" lat="37.9286" lon="15.907">
    <comp name="00.HHE">
      <acc value="0.0087589934" flag="0"/>
      <vel value="0.0081995336" flag="0"/>
      <psa03 value="0.0185377573" flag="0"/>
      <psa10 value="0.0087793479" flag="0"/>
      <psa30 value="0.0026086195" flag="0"/>
    </comp>
    <comp name="00.HHN">
      <acc value="0.0048845292" flag="0"/>
      <vel value="0.0047086087" flag="0"/>
      <psa03 value="0.0088344460" flag="0"/>
      <psa10 value="0.0089843523" flag="0"/>
      <psa30 value="0.0015927783" flag="0"/>
    </comp>
    <comp name="00.HHZ">
      <acc value="0.0019177789" flag="0"/>
      <vel value="0.0026037265" flag="0"/>
      <psa03 value="0.0065939605" flag="0"/>
      <psa10 value="0.0047611895" flag="0"/>
      <psa30 value="0.0005888464" flag="0"/>
    </comp>
  </station>
  <station code="OEM4" name="OEM4" netid="3D" insttype="" lat="38.4095" lon="14.9422">
    <comp name="--.HHE">
      <acc value="0.0581612218" flag="0"/>
      <vel value="0.0332647724" flag="0"/>
      <psa03 value="0.1889726139" flag="0"/>
      <psa10 value="0.0509096028" flag="0"/>
      <psa30 value="0.0025914885" flag="0"/>
    </comp>
    <comp name="--.HHN">
      <acc value="0.0374624417" flag="0"/>
      <vel value="0.0249725908" flag="0"/>
      <psa03 value="0.0955943207" flag="0"/>
      <psa10 value="0.0245724258" flag="0"/>
      <psa30 value="0.0028770512" flag="0"/>
    </comp>
    <comp name="--.HHZ">
      <acc value="0.0268231865" flag="0"/>
      <vel value="0.0148072704" flag="0"/>
      <psa03 value="0.0577526578" flag="0"/>
      <psa10 value="0.0373821755" flag="0"/>
      <psa30 value="0.0011900126" flag="0"/>
    </comp>
  </station>
  <station code="OEM5" name="OEM5" netid="3D" insttype="" lat="38.4223" lon="14.9661">
    <comp name="--.HHE">
      <acc value="0.0187806861" flag="0"/>
      <vel value="0.0196465219" flag="0"/>
      <psa03 value="0.0592229416" flag="0"/>
      <psa10 value="0.0266051983" flag="0"/>
      <psa30 value="0.0044109040" flag="0"/>
    </comp>
    <comp name="--.HHN">
      <acc value="0.0229690397" flag="0"/>
      <vel value="0.0218833597" flag="0"/>
      <psa03 value="0.0741792514" flag="0"/>
      <psa10 value="0.0384798744" flag="0"/>
      <psa30 value="0.0025792271" flag="0"/>
    </comp>
    <comp name="--.HHZ">
      <acc value="0.0150023340" flag="0"/>
      <vel value="0.0123693554" flag="0"/>
      <psa03 value="0.0490818673" flag="0"/>
      <psa10 value="0.0177377806" flag="0"/>
      <psa30 value="0.0016855992" flag="0"/>
    </comp>
  </station>
  <station code="OEM7" name="OEM7" netid="3D" insttype="" lat="38.4825" lon="14.9707">
    <comp name="--.HHE">
      <acc value="0.0545558293" flag="0"/>
      <vel value="0.0342818766" flag="0"/>
      <psa03 value="0.1671336018" flag="0"/>
      <psa10 value="0.0363346798" flag="0"/>
      <psa30 value="0.0039979083" flag="0"/>
    </comp>
    <comp name="--.HHN">
      <acc value="0.0491229596" flag="0"/>
      <vel value="0.0337052735" flag="0"/>
      <psa03 value="0.1527743877" flag="0"/>
      <psa10 value="0.0275199400" flag="0"/>
      <psa30 value="0.0025039723" flag="0"/>
    </comp>
    <comp name="--.HHZ">
      <acc value="0.0286917958" flag="0"/>
      <vel value="0.0166489891" flag="0"/>
      <psa03 value="0.1147666888" flag="0"/>
      <psa10 value="0.0118996708" flag="0"/>
      <psa30 value="0.0007487640" flag="0"/>
    </comp>
  </station>
  <station code="OEM8" name="OEM8" netid="3D" insttype="" lat="38.4689" lon="14.9168">
    <comp name="--.HHE">
      <acc value="0.0266909418" flag="0"/>
      <vel value="0.0141435378" flag="0"/>
      <psa03 value="0.0935680185" flag="0"/>
      <psa10 value="0.0135250258" flag="0"/>
      <psa30 value="0.0012400669" flag="0"/>
    </comp>
    <comp name="--.HHN">
      <acc value="0.0350706908" flag="0"/>
      <vel value="0.0167643540" flag="0"/>
      <psa03 value="0.1060651715" flag="0"/>
      <psa10 value="0.0166499182" flag="0"/>
      <psa30 value="0.0009888207" flag="0"/>
    </comp>
    <comp name="--.HHZ">
      <acc value="0.0076902861" flag="0"/>
      <vel value="0.0041906178" flag="0"/>
      <psa03 value="0.0260689905" flag="0"/>
      <psa10 value="0.0031881601" flag="0"/>
      <psa30 value="0.0002617264" flag="0"/>
    </comp>
  </station>
  <station code="OEM9" name="OEM9" netid="3D" insttype="" lat="38.3879" lon="14.9908">
    <comp name="--.HHE">
      <acc value="0.0692392134" flag="0"/>
      <vel value="0.0411680886" flag="0"/>
      <psa03 value="0.3222206775" flag="0"/>
      <psa10 value="0.0439668558" flag="0"/>
      <psa30 value="0.0029327610" flag="0"/>
    </comp>
    <comp name="--.HHN">
      <acc value="0.0702279079" flag="0"/>
      <vel value="0.0367800121" flag="0"/>
      <psa03 value="0.2253864453" flag="0"/>
      <psa10 value="0.0258783159" flag="0"/>
      <psa30 value="0.0013556435" flag="0"/>
    </comp>
    <comp name="--.HHZ">
      <acc value="0.0254600984" flag="0"/>
      <vel value="0.0133353669" flag="0"/>
      <psa03 value="0.0826454848" flag="0"/>
      <psa10 value="0.0103655869" flag="0"/>
      <psa30 value="0.0006437613" flag="0"/>
    </comp>
  </station>
  <station code="SPAOL" name="SPAOL" netid="7C" insttype="" lat="37.5495" lon="15.0715">
    <comp name="--.HH1">
      <acc value="0.4796572333" flag="0"/>
      <vel value="0.2207679707" flag="0"/>
      <psa03 value="1.0445635776" flag="0"/>
      <psa10 value="0.2084142795" flag="0"/>
      <psa30 value="0.0200959915" flag="0"/>
    </comp>
    <comp name="--.HH2">
      <acc value="0.3068872779" flag="0"/>
      <vel value="0.1493439760" flag="0"/>
      <psa03 value="0.6218813207" flag="0"/>
      <psa10 value="0.1449806632" flag="0"/>
      <psa30 value="0.0160905998" flag="0"/>
    </comp>
    <comp name="--.HHZ">
      <acc value="0.2748540866" flag="0"/>
      <vel value="0.1198439271" flag="0"/>
      <psa03 value="0.5908949576" flag="0"/>
      <psa10 value="0.0862434144" flag="0"/>
      <psa30 value="0.0077467991" flag="0"/>
    </comp>
  </station>
  <station code="AIO" name="AIO" netid="IV" insttype="" lat="37.9712" lon="15.233">
    <comp name="--.HHE">
      <acc value="0.0603259187" flag="0"/>
      <vel value="0.0375808246" flag="0"/>
      <psa03 value="0.2533479555" flag="0"/>
      <psa10 value="0.0287465512" flag="0"/>
      <psa30 value="0.0028954085" flag="0"/>
    </comp>
    <comp name="--.HHN">
      <acc value="0.0677800131" flag="0"/>
      <vel value="0.0363118555" flag="0"/>
      <psa03 value="0.2497041701" flag="0"/>
      <psa10 value="0.0180148619" flag="0"/>
      <psa30 value="0.0014438837" flag="0"/>
    </comp>
    <comp name="--.HHZ">
      <acc value="0.0367175839" flag="0"/>
      <vel value="0.0166887985" flag="0"/>
      <psa03 value="0.1185336427" flag="0"/>
      <psa10 value="0.0115331387" flag="0"/>
      <psa30 value="0.0007573808" flag="0"/>
    </comp>
  </station>
  <station code="CPTP" name="CPTP" netid="IV" insttype="" lat="37.4075" lon="14.1625">
    <comp name="--.HHE">
      <acc value="0.0575621471" flag="0"/>
      <vel value="0.0430427789" flag="0"/>
      <psa03 value="0.2244830402" flag="0"/>
      <psa10 value="0.0542358471" flag="0"/>
      <psa30 value="0.0026622923" flag="0"/>
    </comp>
    <comp name="--.HHN">
      <acc value="0.0508892887" flag="0"/>
      <vel value="0.0387044863" flag="0"/>
      <psa03 value="0.1955615223" flag="0"/>
      <psa10 value="0.0609482626" flag="0"/>
      <psa30 value="0.0042599310" flag="0"/>
    </comp>
    <comp name="--.HHZ">
      <acc value="0.0368447982" flag="0"/>
      <vel value="0.0193999696" flag="0"/>
      <psa03 value="0.1014915117" flag="0"/>
      <psa10 value="0.0300131693" flag="0"/>
      <psa30 value="0.0024560310" flag="0"/>
    </comp>
  </station>
  <station code="CROCE" name="CROCE" netid="IV" insttype="" lat="36.8326" lon="14.5345">
    <comp name="--.HHE">
      <acc value="0.0870148981" flag="0"/>
      <vel value="0.0281928585" flag="0"/>
      <psa03 value="0.1874744671" flag="0"/>
      <psa10 value="0.0202918475" flag="0"/>
      <psa30 value="0.0011058076" flag="0"/>
    </comp>
    <comp name="--.HHN">
      <acc value="0.1217173408" flag="0"/>
      <vel value="0.0439042275" flag="0"/>
      <psa03 value="0.2298868787" flag="0"/>
      <psa10 value="0.0215952595" flag="0"/>
      <psa30 value="0.0015731520" flag="0"/>
    </comp>
    <comp name="--.HHZ">
      <acc value="0.0802729133" flag="0"/>
      <vel value="0.0267698180" flag="0"/>
      <psa03 value="0.1436782651" flag="0"/>
      <psa10 value="0.0108279192" flag="0"/>
      <psa30 value="0.0008506191" flag="0"/>
    </comp>
  </station>
  <station code="ECBD" name="ECBD" netid="IV" insttype="" lat="37.7802" lon="15.0865">
    <comp name="--.HHE">
      <acc value="0.3173919466" flag="0"/>
      <vel value="0.1452725963" flag="0"/>
      <psa03 value="0.6971645806" flag="0"/>
      <psa10 value="0.1501787127" flag="0"/>
      <psa30 value="0.0078957572" flag="0"/>
    </comp>
    <comp name="--.HHN">
      <acc value="0.2662514778" flag="0"/>
      <vel value="0.1031491816" flag="0"/>
      <psa03 value="0.7075857169" flag="0"/>
      <psa10 value="0.1275810885" flag="0"/>
      <psa30 value="0.0070426217" flag="0"/>
    </comp>
    <comp name="--.HHZ">
      <acc value="0.1548114955" flag="0"/>
      <vel value="0.0749062583" flag="0"/>
      <psa03 value="0.4633874427" flag="0"/>
      <psa10 value="0.0750302688" flag="0"/>
      <psa30 value="0.0038546939" flag="0"/>
    </comp>
  </station>
  <station code="ECHR" name="ECHR" netid="IV" insttype="" lat="37.6863" lon="14.9129">
    <comp name="--.HHN">
      <acc value="0.2072038282" flag="0"/>
      <vel value="0.0961357327" flag="0"/>
      <psa03 value="0.6140547031" flag="0"/>
      <psa10 value="0.0613874095" flag="0"/>
      <psa30 value="0.0059265893" flag="0"/>
    </comp>
    <comp name="--.HHE">
      <acc value="0.1636255231" flag="0"/>
      <vel value="0.0926811891" flag="0"/>
      <psa03 value="0.5756191721" flag="0"/>
      <psa10 value="0.0946446369" flag="0"/>
      <psa30 value="0.0065135689" flag="0"/>
    </comp>
    <comp name="--.HHZ">
      <acc value="0.2826534210" flag="0"/>
      <vel value="0.1397705126" flag="0"/>
      <psa03 value="0.7224508518" flag="0"/>
      <psa10 value="0.0425184886" flag="0"/>
      <psa30 value="0.0046844830" flag="0"/>
    </comp>
  </station>
  <station code="ECNE" name="ECNE" netid="IV" insttype="" lat="37.7653" lon="15.0018">
    <comp name="--.HHE">
      <acc value="0.2016144735" flag="0"/>
      <vel value="0.0939862701" flag="0"/>
      <psa03 value="0.6814934716" flag="0"/>
      <psa10 value="0.1445129269" flag="0"/>
      <psa30 value="0.0062969060" flag="0"/>
    </comp>
    <comp name="--.HHN">
      <acc value="0.1574979937" flag="0"/>
      <vel value="0.0887975252" flag="0"/>
      <psa03 value="0.4570677245" flag="0"/>
      <psa10 value="0.0714056552" flag="0"/>
      <psa30 value="0.0047896811" flag="0"/>
    </comp>
    <comp name="--.HHZ">
      <acc value="0.1433522676" flag="0"/>
      <vel value="0.0753290429" flag="0"/>
      <psa03 value="0.3517134555" flag="0"/>
      <psa10 value="0.0796518272" flag="0"/>
      <psa30 value="0.0033523204" flag="0"/>
    </comp>
  </station>
  <station code="ECTS" name="ECTS" netid="IV" insttype="" lat="37.882" lon="15.121">
    <comp name="--.HHE">
      <acc value="0.2459660758" flag="0"/>
      <vel value="0.1708705806" flag="0"/>
      <psa03 value="0.6578730740" flag="0"/>
      <psa10 value="0.1073446119" flag="0"/>
      <psa30 value="0.0097418034" flag="0"/>
    </comp>
    <comp name="--.HHN">
      <acc value="0.1272598746" flag="0"/>
      <vel value="0.0793662628" flag="0"/>
      <psa03 value="0.3213598044" flag="0"/>
      <psa10 value="0.0729013023" flag="0"/>
      <psa30 value="0.0040582196" flag="0"/>
    </comp>
    <comp name="--.HHZ">
      <acc value="0.0812216949" flag="0"/>
      <vel value="0.0554033715" flag="0"/>
      <psa03 value="0.1959130296" flag="0"/>
      <psa10 value="0.0261875445" flag="0"/>
      <psa30 value="0.0022599498" flag="0"/>
    </comp>
  </station>
  <station code="ECZM" name="ECZM" netid="IV" insttype="" lat="37.7313" lon="14.9041">
    <comp name="--.HHE">
      <acc value="0.1379141535" flag="0"/>
      <vel value="0.0778738248" flag="0"/>
      <psa03 value="0.6009594350" flag="0"/>
      <psa10 value="0.0504551128" flag="0"/>
      <psa30 value="0.0031498538" flag="0"/>
    </comp>
    <comp name="--.HHN">
      <acc value="0.1755674724" flag="0"/>
      <vel value="0.0945919301" flag="0"/>
      <psa03 value="0.6475549457" flag="0"/>
      <psa10 value="0.0844490786" flag="0"/>
      <psa30 value="0.0042518305" flag="0"/>
    </comp>
    <comp name="--.HHZ">
      <acc value="0.1087944015" flag="0"/>
      <vel value="0.0622599890" flag="0"/>
      <psa03 value="0.3845069010" flag="0"/>
      <psa10 value="0.0489360286" flag="0"/>
      <psa30 value="0.0027140427" flag="0"/>
    </comp>
  </station>
  <station code="EFIU" name="EFIU" netid="IV" insttype="" lat="37.7896" lon="15.2103">
    <comp name="--.HHE">
      <acc value="0.1404584129" flag="0"/>
      <vel value="0.1455100148" flag="0"/>
      <psa03 value="0.2704537256" flag="0"/>
      <psa10 value="0.1430667814" flag="0"/>
      <psa30 value="0.0201743896" flag="0"/>
    </comp>
    <comp name="--.HHN">
      <acc value="0.1034715557" flag="0"/>
      <vel value="0.0921398323" flag="0"/>
      <psa03 value="0.3394342853" flag="0"/>
      <psa10 value="0.1005891064" flag="0"/>
      <psa30 value="0.0099434851" flag="0"/>
    </comp>
    <comp name="--.HHZ">
      <acc value="0.1125359373" flag="0"/>
      <vel value="0.0801870988" flag="0"/>
      <psa03 value="0.2526103514" flag="0"/>
      <psa10 value="0.1063375965" flag="0"/>
      <psa30 value="0.0054972589" flag="0"/>
    </comp>
  </station>
  <station code="EMAS" name="EMAS" netid="IV" insttype="" lat="37.5792" lon="15.0526">
    <comp name="--.HHE">
      <acc value="0.8725128872" flag="0"/>
      <vel value="0.2302018393" flag="0"/>
      <psa03 value="1.1398007090" flag="0"/>
      <psa10 value="0.0976341096" flag="0"/>
      <psa30 value="0.0104036592" flag="0"/>
    </comp>
    <comp name="--.HHN">
      <acc value="0.7617678422" flag="0"/>
      <vel value="0.2054272280" flag="0"/>
      <psa03 value="0.8483918857" flag="0"/>
      <psa10 value="0.1666618071" flag="0"/>
      <psa30 value="0.0143104517" flag="0"/>
    </comp>
    <comp name="--.HHZ">
      <acc value="0.9121105914" flag="0"/>
      <vel value="0.1572038693" flag="0"/>
      <psa03 value="0.9395112301" flag="0"/>
      <psa10 value="0.0789465161" flag="0"/>
      <psa30 value="0.0069808827" flag="0"/>
    </comp>
  </station>
  <station code="EMCN" name="EMCN" netid="IV" insttype="" lat="37.7912" lon="15.0336">
    <comp name="--.HHE">
      <acc value="0.2870090147" flag="0"/>
      <vel value="0.1179124507" flag="0"/>
      <psa03 value="0.5068030372" flag="0"/>
      <psa10 value="0.1341828549" flag="0"/>
      <psa30 value="0.0099544279" flag="0"/>
    </comp>
    <comp name="--.HHN">
      <acc value="0.2196929506" flag="0"/>
      <vel value="0.0945815875" flag="0"/>
      <psa03 value="0.5345720455" flag="0"/>
      <psa10 value="0.0876129277" flag="0"/>
      <psa30 value="0.0057449912" flag="0"/>
    </comp>
    <comp name="--.HHZ">
      <acc value="0.1767610770" flag="0"/>
      <vel value="0.0659207418" flag="0"/>
      <psa03 value="0.3487467201" flag="0"/>
      <psa10 value="0.0627109853" flag="0"/>
      <psa30 value="0.0042461670" flag="0"/>
    </comp>
  </station>
  <station code="EMFO" name="EMFO" netid="IV" insttype="" lat="37.7357" lon="15.0902">
    <comp name="--.HHE">
      <acc value="0.6186441115" flag="0"/>
      <vel value="0.2993398462" flag="0"/>
      <psa03 value="1.8401531750" flag="0"/>
      <psa10 value="0.2197704128" flag="0"/>
      <psa30 value="0.0104651468" flag="0"/>
    </comp>
    <comp name="--.HHN">
      <acc value="0.6005129296" flag="0"/>
      <vel value="0.2726315909" flag="0"/>
      <psa03 value="1.1634024052" flag="0"/>
      <psa10 value="0.1687214671" flag="0"/>
      <psa30 value="0.0099803927" flag="0"/>
    </comp>
    <comp name="--.HHZ">
      <acc value="0.2225106485" flag="0"/>
      <vel value="0.0989470159" flag="0"/>
      <psa03 value="0.4850879599" flag="0"/>
      <psa10 value="0.0632846359" flag="0"/>
      <psa30 value="0.0043514440" flag="0"/>
    </comp>
  </station>
  <station code="EMFS" name="EMFS" netid="IV" insttype="" lat="37.7196" lon="14.9979">
    <comp name="--.HHE">
      <acc value="0.4300253269" flag="0"/>
      <vel value="0.1348852545" flag="0"/>
      <psa03 value="0.7053669231" flag="0"/>
      <psa10 value="0.1456123299" flag="0"/>
      <psa30 value="0.0071363682" flag="0"/>
    </comp>
    <comp name="--.HHN">
      <acc value="0.6760811430" flag="0"/>
      <vel value="0.1736548524" flag="0"/>
      <psa03 value="0.7557017802" flag="0"/>
      <psa10 value="0.0976225257" flag="0"/>
      <psa30 value="0.0057956557" flag="0"/>
    </comp>
    <comp name="--.HHZ">
      <acc value="0.4466073889" flag="0"/>
      <vel value="0.0818823575" flag="0"/>
      <psa03 value="0.3700534764" flag="0"/>
      <psa10 value="0.0435551127" flag="0"/>
      <psa30 value="0.0025602424" flag="0"/>
    </comp>
  </station>
  <station code="EMNR" name="EMNR" netid="IV" insttype="" lat="37.8168" lon="15.026">
    <comp name="--.HHE">
      <acc value="0.2637602060" flag="0"/>
      <vel value="0.1526769084" flag="0"/>
      <psa03 value="0.6977243854" flag="0"/>
      <psa10 value="0.1382557259" flag="0"/>
      <psa30 value="0.0067699264" flag="0"/>
    </comp>
    <comp name="--.HHN">
      <acc value="0.2269540883" flag="0"/>
      <vel value="0.1162410634" flag="0"/>
      <psa03 value="0.4653698796" flag="0"/>
      <psa10 value="0.1362716312" flag="0"/>
      <psa30 value="0.0063998955" flag="0"/>
    </comp>
    <comp name="--.HHZ">
      <acc value="0.1546938218" flag="0"/>
      <vel value="0.0690191707" flag="0"/>
      <psa03 value="0.3320993274" flag="0"/>
      <psa10 value="0.1358898050" flag="0"/>
      <psa30 value="0.0035893544" flag="0"/>
    </comp>
  </station>
  <station code="EMSA" name="EMSA" netid="IV" insttype="" lat="37.498" lon="14.945">
    <comp name="--.HHE">
      <acc value="0.5278572911" flag="0"/>
      <vel value="0.3308043335" flag="0"/>
      <psa03 value="1.5811422246" flag="0"/>
      <psa10 value="0.3395844794" flag="0"/>
      <psa30 value="0.0202910633" flag="0"/>
    </comp>
    <comp name="--.HHN">
      <acc value="1.1155390766" flag="0"/>
      <vel value="0.5587159059" flag="0"/>
      <psa03 value="2.3349307015" flag="0"/>
      <psa10 value="0.5602943931" flag="0"/>
      <psa30 value="0.0359748343" flag="0"/>
    </comp>
