<?xml version="1.0" encoding="UTF-8" standalone="yes"?>
<!DOCTYPE earthquake SYSTEM "stationlist.dtd">
<stationlist created="" xmlns="ch.ethz.sed.shakemap.usgs.xml">
  <station code="FX12" name="FX12" netid="1J" insttype="" lat="38.0895" lon="15.7176">
    <comp name="00.HHE">
      <acc value="0.0040820914" flag="0"/>
      <vel value="0.0024744569" flag="0"/>
      <psa03 value="0.0224701333" flag="0"/>
      <psa10 value="0.0023443442" flag="0"/>
      <psa30 value="0.0002728822" flag="0"/>
    </comp>
    <comp name="00.HHN">
      <acc value="0.0033418468" flag="0"/>
      <vel value="0.0018366672" flag="0"/>
      <psa03 value="0.0171057088" flag="0"/>
      <psa10 value="0.0012653798" flag="0"/>
      <psa30 value="0.0003978502" flag="0"/>
    </comp>
    <comp name="00.HHZ">
      <acc value="0.0014516418" flag="0"/>
      <vel value="0.0008872583" flag="0"/>
      <psa03 value="0.0025606799" flag="0"/>
      <psa10 value="0.0009907768" flag="0"/>
      <psa30 value="0.0001790913" flag="0"/>
    </comp>
  </station>
  <station code="FX14" name="FX14" netid="1J" insttype="" lat="37.9286" lon="15.907">
    <comp name="00.HHN">
      <acc value="0.0048845292" flag="0"/>
      <vel value="0.0047086086" flag="0"/>
      <psa03 value="0.0088344460" flag="0"/>
      <psa10 value="0.0089843525" flag="0"/>
      <psa30 value="0.0015927862" flag="0"/>
    </comp>
    <comp name="00.HHE">
      <acc value="0.0087589934" flag="0"/>
      <vel value="0.0081995009" flag="0"/>
      <psa03 value="0.0185377573" flag="0"/>
      <psa10 value="0.0087793476" flag="0"/>
      <psa30 value="0.0026086593" flag="0"/>
    </comp>
    <comp name="00.HHZ">
      <acc value="0.0019177789" flag="0"/>
      <vel value="0.0026037398" flag="0"/>
      <psa03 value="0.0065939605" flag="0"/>
      <psa10 value="0.0047611896" flag="0"/>
      <psa30 value="0.0005888616" flag="0"/>
    </comp>
  </station>
  <station code="OEM4" name="OEM4" netid="3D" insttype="" lat="38.4095" lon="14.9422">
    <comp name="--.HHE">
      <acc value="0.0581612214" flag="0"/>
      <vel value="0.0332647726" flag="0"/>
      <psa03 value="0.1889726139" flag="0"/>
      <psa10 value="0.0509096027" flag="0"/>
      <psa30 value="0.0025914869" flag="0"/>
    </comp>
    <comp name="--.HHN">
      <acc value="0.0374624418" flag="0"/>
      <vel value="0.0249725910" flag="0"/>
      <psa03 value="0.0955943207" flag="0"/>
      <psa10 value="0.0245724258" flag="0"/>
      <psa30 value="0.0028770774" flag="0"/>
    </comp>
    <comp name="--.HHZ">
      <acc value="0.0268231875" flag="0"/>
      <vel value="0.0148072705" flag="0"/>
      <psa03 value="0.0577526578" flag="0"/>
      <psa10 value="0.0373821755" flag="0"/>
      <psa30 value="0.0011900125" flag="0"/>
    </comp>
  </station>
  <station code="OEM5" name="OEM5" netid="3D" insttype="" lat="38.4223" lon="14.9661">
    <comp name="--.HHE">
      <acc value="0.0187806861" flag="0"/>
      <vel value="0.0196465224" flag="0"/>
      <psa03 value="0.0592229416" flag="0"/>
      <psa10 value="0.0266051983" flag="0"/>
      <psa30 value="0.0044108832" flag="0"/>
    </comp>
    <comp name="--.HHZ">
      <acc value="0.0150023341" flag="0"/>
      <vel value="0.0123693576" flag="0"/>
      <psa03 value="0.0490818673" flag="0"/>
      <psa10 value="0.0177377806" flag="0"/>
      <psa30 value="0.0016855930" flag="0"/>
    </comp>
    <comp name="--.HHN">
      <acc value="0.0229690397" flag="0"/>
      <vel value="0.0218833598" flag="0"/>
      <psa03 value="0.0741792514" flag="0"/>
      <psa10 value="0.0384798744" flag="0"/>
      <psa30 value="0.0025792304" flag="0"/>
    </comp>
  </station>
  <station code="OEM7" name="OEM7" netid="3D" insttype="" lat="38.4825" lon="14.9707">
    <comp name="--.HHE">
      <acc value="0.0545558292" flag="0"/>
      <vel value="0.0342818765" flag="0"/>
      <psa03 value="0.1671336018" flag="0"/>
      <psa10 value="0.0363346798" flag="0"/>
      <psa30 value="0.0039979132" flag="0"/>
    </comp>
    <comp name="--.HHN">
      <acc value="0.0491229596" flag="0"/>
      <vel value="0.0337052596" flag="0"/>
      <psa03 value="0.1527743878" flag="0"/>
      <psa10 value="0.0275199401" flag="0"/>
      <psa30 value="0.0025040005" flag="0"/>
    </comp>
    <comp name="--.HHZ">
      <acc value="0.0286917958" flag="0"/>
      <vel value="0.0166489890" flag="0"/>
      <psa03 value="0.1147666888" flag="0"/>
      <psa10 value="0.0118996708" flag="0"/>
      <psa30 value="0.0007487657" flag="0"/>
    </comp>
  </station>
  <station code="OEM8" name="OEM8" netid="3D" insttype="" lat="38.4689" lon="14.9168">
    <comp name="--.HHE">
      <acc value="0.0266909418" flag="0"/>
      <vel value="0.0141435379" flag="0"/>
      <psa03 value="0.0935680185" flag="0"/>
      <psa10 value="0.0135250258" flag="0"/>
      <psa30 value="0.0012400664" flag="0"/>
    </comp>
    <comp name="--.HHN">
      <acc value="0.0350706908" flag="0"/>
      <vel value="0.0167643542" flag="0"/>
      <psa03 value="0.1060651715" flag="0"/>
      <psa10 value="0.0166499182" flag="0"/>
      <psa30 value="0.0009888180" flag="0"/>
    </comp>
    <comp name="--.HHZ">
      <acc value="0.0076902861" flag="0"/>
      <vel value="0.0041906177" flag="0"/>
      <psa03 value="0.0260689905" flag="0"/>
      <psa10 value="0.0031881601" flag="0"/>
      <psa30 value="0.0002617270" flag="0"/>
    </comp>
  </station>
  <station code="OEM9" name="OEM9" netid="3D" insttype="" lat="38.3879" lon="14.9908">
    <comp name="--.HHE">
      <acc value="0.0692392135" flag="0"/>
      <vel value="0.0411680884" flag="0"/>
      <psa03 value="0.3222206775" flag="0"/>
      <psa10 value="0.0439668558" flag="0"/>
      <psa30 value="0.0029327818" flag="0"/>
    </comp>
    <comp name="--.HHN">
      <acc value="0.0702279082" flag="0"/>
      <vel value="0.0367800120" flag="0"/>
      <psa03 value="0.2253864453" flag="0"/>
      <psa10 value="0.0258783159" flag="0"/>
      <psa30 value="0.0013556389" flag="0"/>
    </comp>
    <comp name="--.HHZ">
      <acc value="0.0254600985" flag="0"/>
      <vel value="0.0133353670" flag="0"/>
      <psa03 value="0.0826454848" flag="0"/>
      <psa10 value="0.0103655869" flag="0"/>
      <psa30 value="0.0006437543" flag="0"/>
    </comp>
  </station>
  <station code="SPAOL" name="SPAOL" netid="7C" insttype="" lat="37.5495" lon="15.0715">
    <comp name="--.HH1">
      <acc value="0.4796572336" flag="0"/>
      <vel value="0.2207679777" flag="0"/>
      <psa03 value="1.0445635776" flag="0"/>
      <psa10 value="0.2084142811" flag="0"/>
      <psa30 value="0.0200998645" flag="0"/>
    </comp>
    <comp name="--.HHZ">
      <acc value="0.2748540876" flag="0"/>
      <vel value="0.1198439262" flag="0"/>
      <psa03 value="0.5908949576" flag="0"/>
      <psa10 value="0.0862433686" flag="0"/>
      <psa30 value="0.0077474272" flag="0"/>
    </comp>
    <comp name="--.HH2">
      <acc value="0.3068872793" flag="0"/>
      <vel value="0.1493439657" flag="0"/>
      <psa03 value="0.6218813207" flag="0"/>
      <psa10 value="0.1449806621" flag="0"/>
      <psa30 value="0.0160941677" flag="0"/>
    </comp>
  </station>
  <station code="ACATE" name="ACATE" netid="IV" insttype="" lat="37.024" lon="14.5006">
    <comp name="--.HNE">
      <acc value="0.1467344514" flag="0"/>
      <vel value="0.0561233660" flag="0"/>
      <psa03 value="0.3856740951" flag="0"/>
      <psa10 value="0.0421604786" flag="0"/>
      <psa30 value="0.0025931030" flag="0"/>
    </comp>
    <comp name="--.HNN">
      <acc value="0.1573107991" flag="0"/>
      <vel value="0.0844392372" flag="0"/>
      <psa03 value="0.4239228017" flag="0"/>
      <psa10 value="0.0535200546" flag="0"/>
      <psa30 value="0.0044030234" flag="0"/>
    </comp>
    <comp name="--.HNZ">
      <acc value="0.3482847248" flag="0"/>
      <vel value="0.1519461123" flag="0"/>
      <psa03 value="0.7122068178" flag="0"/>
      <psa10 value="0.0347347341" flag="0"/>
      <psa30 value="0.0033435775" flag="0"/>
    </comp>
  </station>
  <station code="AIO" name="AIO" netid="IV" insttype="" lat="37.9712" lon="15.233">
    <comp name="--.HHE">
      <acc value="0.0603259186" flag="0"/>
      <vel value="0.0375808261" flag="0"/>
      <psa03 value="0.2533479555" flag="0"/>
      <psa10 value="0.0287465513" flag="0"/>
      <psa30 value="0.0028953988" flag="0"/>
    </comp>
    <comp name="--.HHN">
      <acc value="0.0677800128" flag="0"/>
      <vel value="0.0363118544" flag="0"/>
      <psa03 value="0.2497041701" flag="0"/>
      <psa10 value="0.0180148614" flag="0"/>
      <psa30 value="0.0014438799" flag="0"/>
    </comp>
    <comp name="--.HHZ">
      <acc value="0.0367175838" flag="0"/>
      <vel value="0.0166887986" flag="0"/>
      <psa03 value="0.1185336427" flag="0"/>
      <psa10 value="0.0115331386" flag="0"/>
      <psa30 value="0.0007574021" flag="0"/>
    </comp>
  </station>
  <station code="CPTP" name="CPTP" netid="IV" insttype="" lat="37.4075" lon="14.1625">
    <comp name="--.HHE">
      <acc value="0.0575621471" flag="0"/>
      <vel value="0.0430427808" flag="0"/>
      <psa03 value="0.2244830402" flag="0"/>
      <psa10 value="0.0542358471" flag="0"/>
      <psa30 value="0.0026622525" flag="0"/>
    </comp>
    <comp name="--.HHZ">
      <acc value="0.0368447983" flag="0"/>
      <vel value="0.0193999698" flag="0"/>
      <psa03 value="0.1014915117" flag="0"/>
      <psa10 value="0.0300131693" flag="0"/>
      <psa30 value="0.0024560123" flag="0"/>
    </comp>
    <comp name="--.HHN">
      <acc value="0.0508892889" flag="0"/>
      <vel value="0.0387044890" flag="0"/>
      <psa03 value="0.1955615223" flag="0"/>
      <psa10 value="0.0609482625" flag="0"/>
      <psa30 value="0.0042598705" flag="0"/>
    </comp>
  </station>
  <station code="CROCE" name="CROCE" netid="IV" insttype="" lat="36.8326" lon="14.5345">
    <comp name="--.HHE">
      <acc value="0.0870148980" flag="0"/>
      <vel value="0.0281928580" flag="0"/>
      <psa03 value="0.1874744671" flag="0"/>
      <psa10 value="0.0202918470" flag="0"/>
      <psa30 value="0.0011057307" flag="0"/>
    </comp>
    <comp name="--.HHN">
      <acc value="0.1217173408" flag="0"/>
      <vel value="0.0439042249" flag="0"/>
      <psa03 value="0.2298868787" flag="0"/>
      <psa10 value="0.0215952596" flag="0"/>
      <psa30 value="0.0015731029" flag="0"/>
    </comp>
    <comp name="--.HHZ">
      <acc value="0.0802729134" flag="0"/>
      <vel value="0.0267698186" flag="0"/>
      <psa03 value="0.1436782651" flag="0"/>
      <psa10 value="0.0108279192" flag="0"/>
      <psa30 value="0.0008500972" flag="0"/>
    </comp>
  </station>
  <station code="ECBD" name="ECBD" netid="IV" insttype="" lat="37.7802" lon="15.0865">
    <comp name="--.HHE">
      <acc value="0.3173919465" flag="0"/>
      <vel value="0.1452725959" flag="0"/>
      <psa03 value="0.6971645806" flag="0"/>
      <psa10 value="0.1501787130" flag="0"/>
      <psa30 value="0.0078959154" flag="0"/>
    </comp>
    <comp name="--.HHZ">
      <acc value="0.1548114949" flag="0"/>
      <vel value="0.0749062537" flag="0"/>
      <psa03 value="0.4633874428" flag="0"/>
      <psa10 value="0.0750302627" flag="0"/>
      <psa30 value="0.0038546697" flag="0"/>
    </comp>
    <comp name="--.HHN">
      <acc value="0.2662514787" flag="0"/>
      <vel value="0.1031491831" flag="0"/>
      <psa03 value="0.7075857169" flag="0"/>
      <psa10 value="0.1275810818" flag="0"/>
      <psa30 value="0.0070424561" flag="0"/>
    </comp>
  </station>
  <station code="ECHR" name="ECHR" netid="IV" insttype="" lat="37.6863" lon="14.9129">
    <comp name="--.HHE">
      <acc value="0.1636255234" flag="0"/>
      <vel value="0.0926811931" flag="0"/>
      <psa03 value="0.5756191721" flag="0"/>
      <psa10 value="0.0946445563" flag="0"/>
      <psa30 value="0.0065125969" flag="0"/>
    </comp>
    <comp name="--.HHN">
      <acc value="0.2072038283" flag="0"/>
      <vel value="0.0961357308" flag="0"/>
      <psa03 value="0.6140547031" flag="0"/>
      <psa10 value="0.0613874095" flag="0"/>
      <psa30 value="0.0059264240" flag="0"/>
    </comp>
    <comp name="--.HHZ">
      <acc value="0.2826534210" flag="0"/>
      <vel value="0.1397705184" flag="0"/>
      <psa03 value="0.7224508517" flag="0"/>
      <psa10 value="0.0425188273" flag="0"/>
      <psa30 value="0.0046861832" flag="0"/>
    </comp>
  </station>
  <station code="ECNE" name="ECNE" netid="IV" insttype="" lat="37.7653" lon="15.0018">
    <comp name="--.HHE">
      <acc value="0.2016144735" flag="0"/>
      <vel value="0.0939862450" flag="0"/>
      <psa03 value="0.6814934716" flag="0"/>
      <psa10 value="0.1445129270" flag="0"/>
      <psa30 value="0.0062958360" flag="0"/>
    </comp>
    <comp name="--.HHN">
      <acc value="0.1574979943" flag="0"/>
      <vel value="0.0887977863" flag="0"/>
      <psa03 value="0.4570677241" flag="0"/>
      <psa10 value="0.0714056556" flag="0"/>
      <psa30 value="0.0047895341" flag="0"/>
    </comp>
    <comp name="--.HHZ">
      <acc value="0.1433522675" flag="0"/>
      <vel value="0.0753290414" flag="0"/>
      <psa03 value="0.3517134555" flag="0"/>
      <psa10 value="0.0796518267" flag="0"/>
      <psa30 value="0.0033526913" flag="0"/>
    </comp>
  </station>
  <station code="ECTS" name="ECTS" netid="IV" insttype="" lat="37.882" lon="15.121">
    <comp name="--.HHE">
      <acc value="0.2459660759" flag="0"/>
      <vel value="0.1708705819" flag="0"/>
      <psa03 value="0.6578730740" flag="0"/>
      <psa10 value="0.1073446105" flag="0"/>
      <psa30 value="0.0097420777" flag="0"/>
    </comp>
    <comp name="--.HHN">
      <acc value="0.1272598744" flag="0"/>
      <vel value="0.0793663061" flag="0"/>
      <psa03 value="0.3213598044" flag="0"/>
      <psa10 value="0.0729013084" flag="0"/>
      <psa30 value="0.0040582641" flag="0"/>
    </comp>
    <comp name="--.HHZ">
      <acc value="0.0812216943" flag="0"/>
      <vel value="0.0554033714" flag="0"/>
      <psa03 value="0.1959130296" flag="0"/>
      <psa10 value="0.0261875401" flag="0"/>
      <psa30 value="0.0022597101" flag="0"/>
    </comp>
  </station>
  <station code="ECZM" name="ECZM" netid="IV" insttype="" lat="37.7313" lon="14.9041">
    <comp name="--.HHE">
      <acc value="0.1379141534" flag="0"/>
      <vel value="0.0778738217" flag="0"/>
      <psa03 value="0.6009594350" flag="0"/>
      <psa10 value="0.0504551122" flag="0"/>
      <psa30 value="0.0031495543" flag="0"/>
    </comp>
    <comp name="--.HHN">
      <acc value="0.1755674722" flag="0"/>
      <vel value="0.0945919308" flag="0"/>
      <psa03 value="0.6475549457" flag="0"/>
      <psa10 value="0.0844490790" flag="0"/>
      <psa30 value="0.0042523722" flag="0"/>
    </comp>
    <comp name="--.HHZ">
      <acc value="0.1087944006" flag="0"/>
      <vel value="0.0622599852" flag="0"/>
      <psa03 value="0.3845069010" flag="0"/>
      <psa10 value="0.0489360288" flag="0"/>
      <psa30 value="0.0027141703" flag="0"/>
    </comp>
  </station>
  <station code="EFIU" name="EFIU" netid="IV" insttype="" lat="37.7896" lon="15.2103">
    <comp name="--.HHE">
      <acc value="0.1404584139" flag="0"/>
      <vel value="0.1455100101" flag="0"/>
      <psa03 value="0.2704537256" flag="0"/>
      <psa10 value="0.1430667736" flag="0"/>
      <psa30 value="0.0201728839" flag="0"/>
    </comp>
    <comp name="--.HHN">
      <acc value="0.1034715565" flag="0"/>
      <vel value="0.0921398462" flag="0"/>
      <psa03 value="0.3394342853" flag="0"/>
      <psa10 value="0.1005891076" flag="0"/>
      <psa30 value="0.0099450986" flag="0"/>
    </comp>
    <comp name="--.HHZ">
      <acc value="0.1125359384" flag="0"/>
      <vel value="0.0801871008" flag="0"/>
      <psa03 value="0.2526103514" flag="0"/>
      <psa10 value="0.1063375974" flag="0"/>
      <psa30 value="0.0054970165" flag="0"/>
    </comp>
  </station>
  <station code="EMAS" name="EMAS" netid="IV" insttype="" lat="37.5792" lon="15.0526">
    <comp name="--.HHE">
      <acc value="0.8725128854" flag="0"/>
      <vel value="0.2302018509" flag="0"/>
      <psa03 value="1.1398007090" flag="0"/>
      <psa10 value="0.0976340827" flag="0"/>
      <psa30 value="0.0103975232" flag="0"/>
    </comp>
    <comp name="--.HHN">
      <acc value="0.7617678446" flag="0"/>
      <vel value="0.2054272253" flag="0"/>
      <psa03 value="0.8483918857" flag="0"/>
      <psa10 value="0.1666618080" flag="0"/>
      <psa30 value="0.0143085199" flag="0"/>
    </comp>
    <comp name="--.HHZ">
      <acc value="0.9121105904" flag="0"/>
      <vel value="0.1572038604" flag="0"/>
      <psa03 value="0.9395112300" flag="0"/>
      <psa10 value="0.0789465194" flag="0"/>
      <psa30 value="0.0069830236" flag="0"/>
    </comp>
  </station>
  <station code="EMCN" name="EMCN" netid="IV" insttype="" lat="37.7912" lon="15.0336">
    <comp name="--.HHN">
      <acc value="0.2196929494" flag="0"/>
      <vel value="0.0945814397" flag="0"/>
      <psa03 value="0.5345720457" flag="0"/>
      <psa10 value="0.0876129290" flag="0"/>
      <psa30 value="0.0057448423" flag="0"/>
    </comp>
    <comp name="--.HHE">
      <acc value="0.2870090155" flag="0"/>
      <vel value="0.1179124025" flag="0"/>
      <psa03 value="0.5068030372" flag="0"/>
      <psa10 value="0.1341828547" flag="0"/>
      <psa30 value="0.0099558243" flag="0"/>
    </comp>
    <comp name="--.HHZ">
      <acc value="0.1767610761" flag="0"/>
      <vel value="0.0659207262" flag="0"/>
      <psa03 value="0.3487467201" flag="0"/>
      <psa10 value="0.0627109853" flag="0"/>
      <psa30 value="0.0042455613" flag="0"/>
    </comp>
  </station>
  <station code="EMFO" name="EMFO" netid="IV" insttype="" lat="37.7357" lon="15.0902">
    <comp name="--.HHE">
      <acc value="0.6186441114" flag="0"/>
      <vel value="0.2993398446" flag="0"/>
      <psa03 value="1.8401531750" flag="0"/>
      <psa10 value="0.2197704020" flag="0"/>
      <psa30 value="0.0104660839" flag="0"/>
    </comp>
    <comp name="--.HHN">
      <acc value="0.6005129286" flag="0"/>
      <vel value="0.2726319693" flag="0"/>
      <psa03 value="1.1634024058" flag="0"/>
      <psa10 value="0.1687214087" flag="0"/>
      <psa30 value="0.0099756045" flag="0"/>
    </comp>
    <comp name="--.HHZ">
      <acc value="0.2225106489" flag="0"/>
      <vel value="0.0989470108" flag="0"/>
      <psa03 value="0.4850879599" flag="0"/>
      <psa10 value="0.0632846204" flag="0"/>
      <psa30 value="0.0043510420" flag="0"/>
    </comp>
  </station>
  <station code="EMFS" name="EMFS" netid="IV" insttype="" lat="37.7196" lon="14.9979">
    <comp name="--.HHE">
      <acc value="0.4300253268" flag="0"/>
      <vel value="0.1348852535" flag="0"/>
      <psa03 value="0.7053669232" flag="0"/>
      <psa10 value="0.1456123282" flag="0"/>
      <psa30 value="0.0071370176" flag="0"/>
    </comp>
    <comp name="--.HHN">
      <acc value="0.6760811422" flag="0"/>
      <vel value="0.1736548574" flag="0"/>
      <psa03 value="0.7557017802" flag="0"/>
      <psa10 value="0.0976225256" flag="0"/>
      <psa30 value="0.0057963205" flag="0"/>
    </comp>
    <comp name="--.HHZ">
      <acc value="0.4466073894" flag="0"/>
      <vel value="0.0818823508" flag="0"/>
      <psa03 value="0.3700534764" flag="0"/>
      <psa10 value="0.0435551122" flag="0"/>
      <psa30 value="0.0025603658" flag="0"/>
    </comp>
  </station>
  <station code="EMNR" name="EMNR" netid="IV" insttype="" lat="37.8168" lon="15.026">
    <comp name="--.HHE">
      <acc value="0.2637602056" flag="0"/>
      <vel value="0.1526769272" flag="0"/>
      <psa03 value="0.6977243854" flag="0"/>
      <psa10 value="0.1382557271" flag="0"/>
      <psa30 value="0.0067700264" flag="0"/>
    </comp>
    <comp name="--.HHN">
      <acc value="0.2269540883" flag="0"/>
      <vel value="0.1162410645" flag="0"/>
      <psa03 value="0.4653698796" flag="0"/>
      <psa10 value="0.1362716313" flag="0"/>
      <psa30 value="0.0063999764" flag="0"/>
    </comp>
