<stationlist xmlns:esm="https://esm-db.eu/esmws/shakemap/1/" created="1780711032">
	<station code="SPAOL" name="SPAOL" netid="7C" source="Urban Seismic Network (RUSN-CAL-INGV)" insttype="" lat="37.54939" lon="15.071367" esm:processing="manual (Paolucci et al 2011)" esm:quality="good">
		<comp name="--.HNE" depth="0.0">
			<acc value="0.865048771491404" flag="0"/>
			<vel value="0.309681501558735" flag="0"/>
			<psa03 value="2.05229362104758" flag="0"/>
			<psa10 value="0.369764925111674" flag="0"/>
			<psa30 value="0.0236521951751771" flag="0"/>
		</comp>
		<comp name="--.HNN" depth="0.0">
			<acc value="0.961632200997724" flag="0"/>
			<vel value="0.479825884211522" flag="0"/>
			<psa03 value="2.10639103806752" flag="0"/>
			<psa10 value="0.331070821817245" flag="0"/>
			<psa30 value="0.0270677747738997" flag="0"/>
		</comp>
		<comp name="--.HNZ" depth="0.0">
			<acc value="0.664060067865592" flag="0"/>
			<vel value="0.181680497964839" flag="0"/>
			<psa03 value="0.920692241341786" flag="0"/>
			<psa10 value="0.125351828943602" flag="0"/>
			<psa30 value="0.00954305884749358" flag="0"/>
		</comp>
	</station>
	<station code="ARMO" name="ARMO" netid="IT" source="Italian Strong Motion Network (RAN)" insttype="" lat="38.0761" lon="15.7125" esm:processing="manual (Paolucci et al 2011)" esm:quality="good">
		<comp name="--.HNE" depth="0.0">
			<acc value="0.15621836412186" flag="0"/>
			<vel value="0.0665327146076" flag="0"/>
			<psa03 value="0.389343958793141" flag="0"/>
			<psa10 value="0.0599676538127087" flag="0"/>
			<psa30 value="0.00184188264068501" flag="0"/>
		</comp>
		<comp name="--.HNN" depth="0.0">
			<acc value="0.088419410989572" flag="0"/>
			<vel value="0.0362065705134" flag="0"/>
			<psa03 value="0.255823988750203" flag="0"/>
			<psa10 value="0.0278460352881667" flag="0"/>
			<psa30 value="0.00273109029632876" flag="0"/>
		</comp>
		<comp name="--.HNZ" depth="0.0">
			<acc value="0.073724039993334" flag="0"/>
			<vel value="0.0320718140777" flag="0"/>
			<psa03 value="0.26793618695756" flag="0"/>
			<psa10 value="0.0249388820785538" flag="0"/>
			<psa30 value="0.00118829288523981" flag="0"/>
		</comp>
	</station>
	<station code="AUG1" name="AUG1" netid="IT" source="Italian Strong Motion Network (RAN)" insttype="" lat="37.2432" lon="15.2555" esm:processing="manual (Paolucci et al 2011)" esm:quality="good">
		<comp name="--.HNE" depth="0.0">
			<acc value="1.3052280696072" flag="0"/>
			<vel value="0.439403806836" flag="0"/>
			<psa03 value="2.33533287100903" flag="0"/>
			<psa10 value="0.179815846917562" flag="0"/>
			<psa30 value="0.017499030891565" flag="0"/>
		</comp>
		<comp name="--.HNN" depth="0.0">
			<acc value="0.63314277275262" flag="0"/>
			<vel value="0.325272032075" flag="0"/>
			<psa03 value="1.64184859774557" flag="0"/>
			<psa10 value="0.109722563581243" flag="0"/>
			<psa30 value="0.0101689994796376" flag="0"/>
		</comp>
		<comp name="--.HNZ" depth="0.0">
			<acc value="0.40406077566006" flag="0"/>
			<vel value="0.104118686518" flag="0"/>
			<psa03 value="0.71285588987276" flag="0"/>
			<psa10 value="0.0329789271920805" flag="0"/>
			<psa30 value="0.00222908308247936" flag="0"/>
		</comp>
	</station>
	<station code="BAG" name="BAG" netid="IT" source="Italian Strong Motion Network (RAN)" insttype="" lat="38.028912" lon="15.822113" esm:processing="manual (Paolucci et al 2011)" esm:quality="good">
		<comp name="--.HGE" depth="0.0">
			<acc value="0.073988033163606" flag="0"/>
			<vel value="0.0438088377874" flag="0"/>
			<psa03 value="0.196429700003659" flag="0"/>
			<psa10 value="0.0249905211243825" flag="0"/>
			<psa30 value="0.00218926815327048" flag="0"/>
		</comp>
		<comp name="--.HGN" depth="0.0">
			<acc value="0.06781650836463" flag="0"/>
			<vel value="0.041339728922" flag="0"/>
			<psa03 value="0.120847297206882" flag="0"/>
			<psa10 value="0.0324563413233111" flag="0"/>
			<psa30 value="0.00167538161081096" flag="0"/>
		</comp>
		<comp name="--.HGZ" depth="0.0">
			<acc value="0.036334414989702" flag="0"/>
			<vel value="0.0201658765923" flag="0"/>
			<psa03 value="0.147721150384605" flag="0"/>
			<psa10 value="0.0108784572068863" flag="0"/>
			<psa30 value="0.000824971316966" flag="0"/>
		</comp>
	</station>
	<station code="BCL" name="BCL" netid="IT" source="Italian Strong Motion Network (RAN)" insttype="" lat="38.1827" lon="15.2316" esm:processing="manual (Paolucci et al 2011)" esm:quality="good">
		<comp name="--.HGE" depth="0.0">
			<acc value="0.100063573800228" flag="0"/>
			<vel value="0.0692272622286" flag="0"/>
			<psa03 value="0.232025620558535" flag="0"/>
			<psa10 value="0.0497536121826191" flag="0"/>
			<psa30 value="0.00467331291737505" flag="0"/>
		</comp>
		<comp name="--.HGN" depth="0.0">
			<acc value="0.086108803245678" flag="0"/>
			<vel value="0.0673126461219" flag="0"/>
			<psa03 value="0.278543347963197" flag="0"/>
			<psa10 value="0.0415468947779662" flag="0"/>
			<psa30 value="0.00379857205342059" flag="0"/>
		</comp>
		<comp name="--.HGZ" depth="0.0">
			<acc value="0.051525415741746" flag="0"/>
			<vel value="0.0239990870415" flag="0"/>
			<psa03 value="0.115238633993833" flag="0"/>
			<psa10 value="0.0355864449273353" flag="0"/>
			<psa30 value="0.00232262844606918" flag="0"/>
		</comp>
	</station>
	<station code="BNT" name="BNT" netid="IT" source="Italian Strong Motion Network (RAN)" insttype="" lat="37.7805" lon="14.8444" esm:processing="manual (Paolucci et al 2011)" esm:quality="good">
		<comp name="--.HNE" depth="0.0">
			<acc value="0.1541439508539" flag="0"/>
			<vel value="0.0892963906579" flag="0"/>
			<psa03 value="0.346930419937755" flag="0"/>
			<psa10 value="0.050754024705112" flag="0"/>
			<psa30 value="0.00384751112872825" flag="0"/>
		</comp>
		<comp name="--.HNN" depth="0.0">
			<acc value="0.12759189082794" flag="0"/>
			<vel value="0.0488762545617" flag="0"/>
			<psa03 value="0.317636687705202" flag="0"/>
			<psa10 value="0.0586282600843622" flag="0"/>
			<psa30 value="0.004274971112524" flag="0"/>
		</comp>
		<comp name="--.HNZ" depth="0.0">
			<acc value="0.090841034036412" flag="0"/>
			<vel value="0.0298284945204" flag="0"/>
			<psa03 value="0.210448003647279" flag="0"/>
			<psa10 value="0.0469394745098012" flag="0"/>
			<psa30 value="0.00214121121973351" flag="0"/>
		</comp>
	</station>
	<station code="BVM" name="BVM" netid="IT" source="Italian Strong Motion Network (RAN)" insttype="" lat="37.931" lon="15.936" esm:processing="manual (Paolucci et al 2011)" esm:quality="good">
		<comp name="--.HNE" depth="0.0">
			<acc value="0.052394240323968" flag="0"/>
			<vel value="0.034156329696" flag="0"/>
			<psa03 value="0.228635541815865" flag="0"/>
			<psa10 value="0.0246197771894269" flag="0"/>
			<psa30 value="0.00179564332755626" flag="0"/>
		</comp>
		<comp name="--.HNN" depth="0.0">
			<acc value="0.04918729761345" flag="0"/>
			<vel value="0.0269749580733" flag="0"/>
			<psa03 value="0.178658564419784" flag="0"/>
			<psa10 value="0.0293883399582782" flag="0"/>
			<psa30 value="0.001786881913824" flag="0"/>
		</comp>
		<comp name="--.HNZ" depth="0.0">
			<acc value="0.028400254134324" flag="0"/>
			<vel value="0.0186218502534" flag="0"/>
			<psa03 value="0.118105500993296" flag="0"/>
			<psa10 value="0.01204653958661" flag="0"/>
			<psa30 value="0.00114726360474969" flag="0"/>
		</comp>
	</station>
	<station code="CAT" name="CAT" netid="IT" source="Italian Strong Motion Network (RAN)" insttype="" lat="37.4473" lon="15.0463" esm:processing="manual (Paolucci et al 2011)" esm:quality="bad">
		<comp name="--.HGE" depth="0.0">
			<acc value="2.6725820892882" flag="0"/>
			<vel value="0.864442914707" flag="0"/>
			<psa03 value="2.64110779376112" flag="0"/>
			<psa10 value="0.455623202801649" flag="0"/>
			<psa30 value="0.0225033824052991" flag="0"/>
		</comp>
		<comp name="--.HGN" depth="0.0">
			<acc value="4.7224679396514" flag="0"/>
			<vel value="1.95763756224" flag="0"/>
			<psa03 value="7.63881803418967" flag="0"/>
			<psa10 value="1.27269186959104" flag="0"/>
			<psa30 value="0.0909880675130319" flag="0"/>
		</comp>
		<comp name="--.HGZ" depth="0.0">
			<acc value="1.9896524357886" flag="0"/>
			<vel value="0.514664427611" flag="0"/>
			<psa03 value="1.46896114480125" flag="0"/>
			<psa10 value="0.131036800544752" flag="0"/>
			<psa30 value="0.0128544165420143" flag="0"/>
		</comp>
	</station>
	<station code="CDI1" name="CDI1" netid="IT" source="Italian Strong Motion Network (RAN)" insttype="" lat="37.5032" lon="14.6473" esm:processing="manual (Paolucci et al 2011)" esm:quality="good">
		<comp name="--.HNE" depth="0.0">
			<acc value="0.235808437911" flag="0"/>
			<vel value="0.120691660782" flag="0"/>
			<psa03 value="0.318835017088607" flag="0"/>
			<psa10 value="0.0531457681463911" flag="0"/>
			<psa30 value="0.00334505826035801" flag="0"/>
		</comp>
		<comp name="--.HNN" depth="0.0">
			<acc value="0.20468985317382" flag="0"/>
			<vel value="0.0897361511477" flag="0"/>
			<psa03 value="0.380310652047481" flag="0"/>
			<psa10 value="0.0793656000814013" flag="0"/>
			<psa30 value="0.00518305543533768" flag="0"/>
		</comp>
		<comp name="--.HNZ" depth="0.0">
			<acc value="0.1083208508163" flag="0"/>
			<vel value="0.0459491339645" flag="0"/>
			<psa03 value="0.272904766101454" flag="0"/>
			<psa10 value="0.03899860471617" flag="0"/>
			<psa30 value="0.00500652249087789" flag="0"/>
		</comp>
	</station>
	<station code="CLG1" name="CLG1" netid="IT" source="Italian Strong Motion Network (RAN)" insttype="" lat="37.2214" lon="14.5182" esm:processing="manual (Paolucci et al 2011)" esm:quality="good">
		<comp name="--.HNE" depth="0.0">
			<acc value="0.3392520216393" flag="0"/>
			<vel value="0.131826604757" flag="0"/>
			<psa03 value="0.653105140010382" flag="0"/>
			<psa10 value="0.0567224550840965" flag="0"/>
			<psa30 value="0.0046108075266818" flag="0"/>
		</comp>
		<comp name="--.HNN" depth="0.0">
			<acc value="0.47234579354334" flag="0"/>
			<vel value="0.201497975264" flag="0"/>
			<psa03 value="0.674993173316315" flag="0"/>
			<psa10 value="0.0918096369379185" flag="0"/>
			<psa30 value="0.00664797914598522" flag="0"/>
		</comp>
		<comp name="--.HNZ" depth="0.0">
			<acc value="0.211072812243" flag="0"/>
			<vel value="0.0572769404011" flag="0"/>
			<psa03 value="0.339513761953926" flag="0"/>
			<psa10 value="0.0390493605784773" flag="0"/>
			<psa30 value="0.00446656547137311" flag="0"/>
		</comp>
	</station>
	<station code="ENNA" name="ENNA" netid="IT" source="Italian Strong Motion Network (RAN)" insttype="" lat="37.5671" lon="14.2697" esm:processing="manual (Paolucci et al 2011)" esm:quality="good">
		<comp name="--.HNE" depth="0.0">
			<acc value="0.0265771965611928" flag="0"/>
			<vel value="0.0239216010267303" flag="0"/>
			<psa03 value="0.0998646572100965" flag="0"/>
			<psa10 value="0.0272438053934016" flag="0"/>
			<psa30 value="0.00337843442970047" flag="0"/>
		</comp>
		<comp name="--.HNN" depth="0.0">
			<acc value="0.0353947633005151" flag="0"/>
			<vel value="0.0270295556347266" flag="0"/>
			<psa03 value="0.125766675174999" flag="0"/>
			<psa10 value="0.0328552589996635" flag="0"/>
			<psa30 value="0.00336506375229204" flag="0"/>
		</comp>
		<comp name="--.HNZ" depth="0.0">
			<acc value="0.024359850715347" flag="0"/>
			<vel value="0.0194744479957972" flag="0"/>
			<psa03 value="0.0531282174003297" flag="0"/>
			<psa10 value="0.0280860380621825" flag="0"/>
			<psa30 value="0.00190694090880976" flag="0"/>
		</comp>
	</station>
	<station code="GMB" name="GMB" netid="IT" source="Italian Strong Motion Network (RAN)" insttype="" lat="38.1666" lon="15.8363" esm:processing="manual (Paolucci et al 2011)" esm:quality="good">
		<comp name="--.HGE" depth="0.0">
			<acc value="0.047707543848648" flag="0"/>
			<vel value="0.021635692051" flag="0"/>
			<psa03 value="0.145210911176881" flag="0"/>
			<psa10 value="0.0182022770615127" flag="0"/>
			<psa30 value="0.0012613723097248" flag="0"/>
		</comp>
		<comp name="--.HGN" depth="0.0">
			<acc value="0.044019268910208" flag="0"/>
			<vel value="0.0164148271938" flag="0"/>
			<psa03 value="0.160005047465781" flag="0"/>
			<psa10 value="0.00717523032379713" flag="0"/>
			<psa30 value="0.000997227207243622" flag="0"/>
		</comp>
		<comp name="--.HGZ" depth="0.0">
			<acc value="0.028530802549266" flag="0"/>
			<vel value="0.0101812607147" flag="0"/>
			<psa03 value="0.0708157589050162" flag="0"/>
			<psa10 value="0.00832491398470025" flag="0"/>
			<psa30 value="0.000930197558522311" flag="0"/>
		</comp>
	</station>
	<station code="GSM" name="GSM" netid="IT" source="Italian Strong Motion Network (RAN)" insttype="" lat="38.172" lon="14.8985" esm:processing="manual (Paolucci et al 2011)" esm:quality="good">
		<comp name="--.HNE" depth="0.0">
			<acc value="0.029247968034912" flag="0"/>
			<vel value="0.0270369045393" flag="0"/>
			<psa03 value="0.0807471928552034" flag="0"/>
			<psa10 value="0.0254052292217392" flag="0"/>
			<psa30 value="0.00134942324683505" flag="0"/>
		</comp>
		<comp name="--.HNN" depth="0.0">
			<acc value="0.018481398108366" flag="0"/>
			<vel value="0.0128517219597" flag="0"/>
			<psa03 value="0.0595912340851597" flag="0"/>
			<psa10 value="0.0217919529849276" flag="0"/>
			<psa30 value="0.000925305463614665" flag="0"/>
		</comp>
		<comp name="--.HNZ" depth="0.0">
			<acc value="0.018477239605596" flag="0"/>
			<vel value="0.012545569292" flag="0"/>
			<psa03 value="0.0639609037625577" flag="0"/>
			<psa10 value="0.011336337226718" flag="0"/>
			<psa30 value="0.000792880753626772" flag="0"/>
		</comp>
	</station>
	<station code="ISI" name="ISI" netid="IT" source="Italian Strong Motion Network (RAN)" insttype="" lat="36.7977" lon="14.8923" esm:processing="manual (Paolucci et al 2011)" esm:quality="good">
		<comp name="--.HGE" depth="0.0">
			<acc value="0.73371102388338" flag="0"/>
			<vel value="0.256238313465" flag="0"/>
			<psa03 value="0.869100656985524" flag="0"/>
			<psa10 value="0.0879031831545005" flag="0"/>
			<psa30 value="0.00637304509961442" flag="0"/>
		</comp>
		<comp name="--.HGN" depth="0.0">
			<acc value="0.76403293348446" flag="0"/>
			<vel value="0.2046493219" flag="0"/>
			<psa03 value="0.978020039026398" flag="0"/>
			<psa10 value="0.0501017514950428" flag="0"/>
			<psa30 value="0.00309956345586575" flag="0"/>
		</comp>
		<comp name="--.HGZ" depth="0.0">
			<acc value="0.34251264224262" flag="0"/>
			<vel value="0.104943991999" flag="0"/>
			<psa03 value="0.402608629179125" flag="0"/>
			<psa10 value="0.0269780852907546" flag="0"/>
			<psa30 value="0.00219612423245144" flag="0"/>
		</comp>
	</station>
	<station code="LAZR" name="LAZR" netid="IT" source="Italian Strong Motion Network (RAN)" insttype="" lat="37.9778" lon="15.6659" esm:processing="manual (Paolucci et al 2011)" esm:quality="good">
		<comp name="--.HNE" depth="0.0">
			<acc value="0.06107658448086" flag="0"/>
			<vel value="0.036401490435" flag="0"/>
			<psa03 value="0.193820047960429" flag="0"/>
			<psa10 value="0.027686060940673" flag="0"/>
			<psa30 value="0.0022006045292481" flag="0"/>
		</comp>
		<comp name="--.HNN" depth="0.0">
			<acc value="0.053009493605196" flag="0"/>
			<vel value="0.0333729197483" flag="0"/>
			<psa03 value="0.1538259297961" flag="0"/>
			<psa10 value="0.0357763012543856" flag="0"/>
			<psa30 value="0.00252436285165021" flag="0"/>
		</comp>
		<comp name="--.HNZ" depth="0.0">
			<acc value="0.029903746113612" flag="0"/>
			<vel value="0.0140558801632" flag="0"/>
			<psa03 value="0.11472696468178" flag="0"/>
			<psa10 value="0.0121449273543367" flag="0"/>
			<psa30 value="0.00101803243965097" flag="0"/>
		</comp>
	</station>
	<station code="LNT" name="LNT" netid="IT" source="Italian Strong Motion Network (RAN)" insttype="" lat="37.28841" lon="15.002259" esm:processing="manual (Paolucci et al 2011)" esm:quality="good">
		<comp name="--.HGE" depth="0.0">
			<acc value="0.50136938066592" flag="0"/>
			<vel value="0.180718695151" flag="0"/>
			<psa03 value="0.922461275199037" flag="0"/>
			<psa10 value="0.0707796613052845" flag="0"/>
			<psa30 value="0.00746393361561685" flag="0"/>
		</comp>
		<comp name="--.HGN" depth="0.0">
			<acc value="1.1470006942104" flag="0"/>
			<vel value="0.410198482228" flag="0"/>
			<psa03 value="2.33344174573244" flag="0"/>
			<psa10 value="0.126149656795686" flag="0"/>
			<psa30 value="0.0140677502527307" flag="0"/>
		</comp>
		<comp name="--.HGZ" depth="0.0">
			<acc value="0.50172677449608" flag="0"/>
			<vel value="0.145358529446" flag="0"/>
			<psa03 value="0.667972708248145" flag="0"/>
			<psa10 value="0.0460272490795035" flag="0"/>
			<psa30 value="0.00578669042318416" flag="0"/>
		</comp>
	</station>
	<station code="NAS" name="NAS" netid="IT" source="Italian Strong Motion Network (RAN)" insttype="" lat="38.1183" lon="14.7863" esm:processing="manual (Paolucci et al 2011)" esm:quality="good">
		<comp name="--.HGE" depth="0.0">
			<acc value="0.068219032724334" flag="0"/>
			<vel value="0.0364174201608" flag="0"/>
			<psa03 value="0.254424625215994" flag="0"/>
			<psa10 value="0.0365610819922313" flag="0"/>
			<psa30 value="0.00186930466559221" flag="0"/>
		</comp>
		<comp name="--.HGN" depth="0.0">
			<acc value="0.11158609601598" flag="0"/>
			<vel value="0.0615981330317" flag="0"/>
			<psa03 value="0.348805439981908" flag="0"/>
			<psa10 value="0.044181271792398" flag="0"/>
			<psa30 value="0.00340203724327192" flag="0"/>
		</comp>
		<comp name="--.HGZ" depth="0.0">
			<acc value="0.08207486309508" flag="0"/>
			<vel value="0.0384250135869" flag="0"/>
			<psa03 value="0.17000316812551" flag="0"/>
			<psa10 value="0.0184237479828988" flag="0"/>
			<psa30 value="0.00153551599123038" flag="0"/>
		</comp>
	</station>
	<station code="NCS" name="NCS" netid="IT" source="Italian Strong Motion Network (RAN)" insttype="" lat="37.7492" lon="14.4013" esm:processing="manual (Paolucci et al 2011)" esm:quality="good">
		<comp name="--.HGE" depth="0.0">
			<acc value="0.043005369754506" flag="0"/>
			<vel value="0.0298123434482" flag="0"/>
			<psa03 value="0.181372390030822" flag="0"/>
			<psa10 value="0.0364729924067493" flag="0"/>
			<psa30 value="0.0029759058891584" flag="0"/>
		</comp>
		<comp name="--.HGN" depth="0.0">
			<acc value="0.070362367788258" flag="0"/>
			<vel value="0.0443298053089" flag="0"/>
			<psa03 value="0.256171199251509" flag="0"/>
			<psa10 value="0.0324142822871237" flag="0"/>
			<psa30 value="0.00379738697491594" flag="0"/>
		</comp>
		<comp name="--.HGZ" depth="0.0">
			<acc value="0.033823831741998" flag="0"/>
			<vel value="0.0223638351464" flag="0"/>
			<psa03 value="0.135277503137452" flag="0"/>
			<psa10 value="0.0227360480265954" flag="0"/>
			<psa30 value="0.00352496559500371" flag="0"/>
		</comp>
	</station>
	<station code="NSA" name="NSA" netid="IT" source="Italian Strong Motion Network (RAN)" insttype="" lat="37.7667" lon="14.411" esm:processing="manual (Paolucci et al 2011)" esm:quality="good">
		<comp name="--.HNE" depth="0.0">
			<acc value="0.056628288371418" flag="0"/>
			<vel value="0.0396727724492" flag="0"/>
			<psa03 value="0.160910878306039" flag="0"/>
			<psa10 value="0.0428870423060973" flag="0"/>
			<psa30 value="0.00377506424614683" flag="0"/>
		</comp>
		<comp name="--.HNN" depth="0.0">
			<acc value="0.06208332822783" flag="0"/>
			<vel value="0.0473819792265" flag="0"/>
			<psa03 value="0.155792226720245" flag="0"/>
			<psa10 value="0.0448738414216486" flag="0"/>
			<psa30 value="0.00306783489567113" flag="0"/>
		</comp>
		<comp name="--.HNZ" depth="0.0">
			<acc value="0.026266992840504" flag="0"/>
			<vel value="0.0180777384759" flag="0"/>
			<psa03 value="0.105490769495568" flag="0"/>
			<psa10 value="0.0246188958810245" flag="0"/>
			<psa30 value="0.00171362414418758" flag="0"/>
		</comp>
	</station>
	<station code="NSC" name="NSC" netid="IT" source="Italian Strong Motion Network (RAN)" insttype="" lat="37.151" lon="14.3915" esm:processing="manual (Paolucci et al 2011)" esm:quality="good">
		<comp name="--.HGE" depth="0.0">
			<acc value="0.125268347546318" flag="0"/>
