<stationlist xmlns:esm="https://esm-db.eu/esmws/shakemap/1/" created="1781661264">
	<station code="LMS2" name="LMS2" netid="HI" source="ITSAK Strong Motion Network" insttype="" lat="40.834985" lon="21.141815" esm:processing="manual (Paolucci et al 2011)" esm:quality="good">
		<comp name="--.HNE" depth="0.0">
			<acc value="0.123569067843813" flag="0"/>
			<vel value="0.0359945239370844" flag="0"/>
			<psa03 value="0.167022657306008" flag="0"/>
			<psa10 value="0.0195017855987061" flag="0"/>
			<psa30 value="0.00112123969785389" flag="0"/>
		</comp>
		<comp name="--.HNN" depth="0.0">
			<acc value="0.133709876327187" flag="0"/>
			<vel value="0.039168107530258" flag="0"/>
			<psa03 value="0.160937717205924" flag="0"/>
			<psa10 value="0.017158188816041" flag="0"/>
			<psa30 value="0.00129081266093714" flag="0"/>
		</comp>
		<comp name="--.HNZ" depth="0.0">
			<acc value="0.0433005317799703" flag="0"/>
			<vel value="0.0110138649631508" flag="0"/>
			<psa03 value="0.0604914633479034" flag="0"/>
			<psa10 value="0.00722004988199051" flag="0"/>
			<psa30 value="0.000882763736578501" flag="0"/>
		</comp>
	</station>
	<station code="JAN" name="JAN" netid="HL" source="National Observatory of Athens Seismic Network" insttype="" lat="39.65616" lon="20.84874" esm:processing="manual (Paolucci et al 2011)" esm:quality="best">
		<comp name="00.HNE" depth="0.0">
			<acc value="0.00776897142390513" flag="0"/>
			<vel value="0.00370844399940114" flag="0"/>
			<psa03 value="0.0272927460371458" flag="0"/>
			<psa10 value="0.00521873097995522" flag="0"/>
			<psa30 value="0.000453685975109275" flag="0"/>
		</comp>
		<comp name="00.HNN" depth="0.0">
			<acc value="0.00671817838380671" flag="0"/>
			<vel value="0.00342371645651211" flag="0"/>
			<psa03 value="0.0262189330783073" flag="0"/>
			<psa10 value="0.00405498618581397" flag="0"/>
			<psa30 value="0.000303352160871882" flag="0"/>
		</comp>
		<comp name="00.HNZ" depth="0.0">
			<acc value="0.00533623999821496" flag="0"/>
			<vel value="0.00279935669498618" flag="0"/>
			<psa03 value="0.0137358574318094" flag="0"/>
			<psa10 value="0.00277849103099468" flag="0"/>
			<psa30 value="0.000293956297482045" flag="0"/>
		</comp>
	</station>
</stationlist>
