<?xml version="1.0" encoding="UTF-8" standalone="yes"?>
<!DOCTYPE earthquake SYSTEM "stationlist.dtd">
<stationlist created="" xmlns="ch.ethz.sed.shakemap.usgs.xml">
  <station code="LMS2" name="LMS2" netid="HI" source="NOA" insttype="CMG-5TD,ACCELEROMETER,GURALP" lat="40.835" lon="21.1418">
    <comp name="--.HNE">
      <acc value="0.1219688426" flag="0"/>
      <vel value="0.0353902608" flag="0"/>
      <psa03 value="0.1668153788" flag="0"/>
      <psa10 value="0.0194715167" flag="0"/>
      <psa30 value="0.0010526281" flag="0"/>
    </comp>
    <comp name="--.HNN">
      <acc value="0.1346368926" flag="0"/>
      <vel value="0.0384015246" flag="0"/>
      <psa03 value="0.1575637699" flag="0"/>
      <psa10 value="0.0171073173" flag="0"/>
      <psa30 value="0.0012493820" flag="0"/>
    </comp>
    <comp name="--.HNZ">
      <acc value="0.0437045472" flag="0"/>
      <vel value="0.0107345574" flag="0"/>
      <psa03 value="0.0590222706" flag="0"/>
      <psa10 value="0.0071616561" flag="0"/>
      <psa30 value="0.0008060467" flag="0"/>
    </comp>
  </station>
  <station code="JAN" name="JAN" netid="HL" source="NOA" insttype="CMG3EPSC60_DR24" lat="39.6562" lon="20.8487">
    <comp name="--.HHE">
      <acc value="0.0075999823" flag="0"/>
      <vel value="0.0036701046" flag="0"/>
      <psa03 value="0.0265593664" flag="0"/>
      <psa10 value="0.0051994538" flag="0"/>
      <psa30 value="0.0003954884" flag="0"/>
    </comp>
    <comp name="--.HHN">
      <acc value="0.0067512378" flag="0"/>
      <vel value="0.0032948034" flag="0"/>
      <psa03 value="0.0266240040" flag="0"/>
      <psa10 value="0.0041025612" flag="0"/>
      <psa30 value="0.0002802932" flag="0"/>
    </comp>
    <comp name="--.HHZ">
      <acc value="0.0053757000" flag="0"/>
      <vel value="0.0027259855" flag="0"/>
      <psa03 value="0.0140232588" flag="0"/>
      <psa10 value="0.0029200583" flag="0"/>
      <psa30 value="0.0002995066" flag="0"/>
    </comp>
  </station>
  <station code="KEK" name="KEK" netid="HL" source="NOA" insttype="120" lat="39.7127" lon="19.7962">
    <comp name="--.HHE">
      <acc value="0.0039994644" flag="0"/>
      <vel value="0.0029142710" flag="0"/>
      <psa03 value="0.0143931926" flag="0"/>
      <psa10 value="0.0039336039" flag="0"/>
      <psa30 value="0.0002025586" flag="0"/>
    </comp>
    <comp name="--.HHN">
      <acc value="0.0045555871" flag="0"/>
      <vel value="0.0028781044" flag="0"/>
      <psa03 value="0.0137595523" flag="0"/>
      <psa10 value="0.0038616662" flag="0"/>
      <psa30 value="0.0002109548" flag="0"/>
    </comp>
    <comp name="--.HHZ">
      <acc value="0.0027632389" flag="0"/>
      <vel value="0.0021030895" flag="0"/>
      <psa03 value="0.0068574251" flag="0"/>
      <psa10 value="0.0028897705" flag="0"/>
      <psa30 value="0.0001707812" flag="0"/>
    </comp>
  </station>
  <station code="KZN" name="KZN" netid="HL" source="NOA" insttype="120" lat="40.3033" lon="21.7821">
    <comp name="--.HHE">
      <acc value="0.0283548777" flag="0"/>
      <vel value="0.0097657151" flag="0"/>
      <psa03 value="0.0701413485" flag="0"/>
      <psa10 value="0.0047009546" flag="0"/>
      <psa30 value="0.0007180339" flag="0"/>
    </comp>
    <comp name="--.HHN">
      <acc value="0.0304357919" flag="0"/>
      <vel value="0.0133245469" flag="0"/>
      <psa03 value="0.0845900666" flag="0"/>
      <psa10 value="0.0070210432" flag="0"/>
      <psa30 value="0.0003678664" flag="0"/>
    </comp>
    <comp name="--.HHZ">
      <acc value="0.0171455377" flag="0"/>
      <vel value="0.0066142218" flag="0"/>
      <psa03 value="0.0278789809" flag="0"/>
      <psa10 value="0.0040485881" flag="0"/>
      <psa30 value="0.0005881141" flag="0"/>
    </comp>
  </station>
  <station code="PENT" name="PENT" netid="HL" source="NOA" insttype="30" lat="40.1959" lon="21.1384">
    <comp name="--.HHE">
      <acc value="0.0335534279" flag="0"/>
      <vel value="0.0151836019" flag="0"/>
      <psa03 value="0.0748029978" flag="0"/>
      <psa10 value="0.0166553365" flag="0"/>
      <psa30 value="0.0009656623" flag="0"/>
    </comp>
    <comp name="--.HHN">
      <acc value="0.0020817317" flag="0"/>
      <vel value="0.0007884159" flag="0"/>
      <psa03 value="0.0041868602" flag="0"/>
      <psa10 value="0.0006885210" flag="0"/>
      <psa30 value="0.0001339071" flag="0"/>
    </comp>
    <comp name="--.HHZ">
      <acc value="0.0271244102" flag="0"/>
      <vel value="0.0155535683" flag="0"/>
      <psa03 value="0.0695009336" flag="0"/>
      <psa10 value="0.0170600497" flag="0"/>
      <psa30 value="0.0010633886" flag="0"/>
    </comp>
  </station>
  <station code="IGT" name="IGT" netid="HT" source="NOA" insttype="100" lat="39.5315" lon="20.3299">
    <comp name="--.HHE">
      <acc value="0.0032365587" flag="0"/>
      <vel value="0.0022407794" flag="0"/>
      <psa03 value="0.0106534060" flag="0"/>
      <psa10 value="0.0027768352" flag="0"/>
      <psa30 value="0.0002536092" flag="0"/>
    </comp>
    <comp name="--.HHN">
      <acc value="0.0028411533" flag="0"/>
      <vel value="0.0020822826" flag="0"/>
      <psa03 value="0.0119241259" flag="0"/>
      <psa10 value="0.0026261847" flag="0"/>
      <psa30 value="0.0002169122" flag="0"/>
    </comp>
    <comp name="--.HHZ">
      <acc value="0.0028610088" flag="0"/>
      <vel value="0.0018185726" flag="0"/>
      <psa03 value="0.0117344604" flag="0"/>
      <psa10 value="0.0021740311" flag="0"/>
      <psa30 value="0.0001799569" flag="0"/>
    </comp>
  </station>
  <station code="KPRO" name="KPRO" netid="HT" source="NOA" insttype="100" lat="39.9549" lon="21.3632">
    <comp name="--.HHE">
      <acc value="0.0173957396" flag="0"/>
      <vel value="0.0083263842" flag="0"/>
      <psa03 value="0.0691182837" flag="0"/>
      <psa10 value="0.0110881381" flag="0"/>
      <psa30 value="0.0008994384" flag="0"/>
    </comp>
    <comp name="--.HHN">
      <acc value="0.0216054776" flag="0"/>
      <vel value="0.0133663647" flag="0"/>
      <psa03 value="0.0666929176" flag="0"/>
      <psa10 value="0.0100493045" flag="0"/>
      <psa30 value="0.0013829267" flag="0"/>
    </comp>
    <comp name="--.HHZ">
      <acc value="0.0131743545" flag="0"/>
      <vel value="0.0043877405" flag="0"/>
      <psa03 value="0.0266692126" flag="0"/>
      <psa10 value="0.0051362174" flag="0"/>
      <psa30 value="0.0007641964" flag="0"/>
    </comp>
  </station>
  <station code="NEST" name="NEST" netid="HT" source="NOA" insttype="120P," lat="40.4147" lon="21.0489">
    <comp name="--.HHE">
      <acc value="0.1221941168" flag="0"/>
      <vel value="0.0518677309" flag="0"/>
      <psa03 value="0.3169363966" flag="0"/>
      <psa10 value="0.0626535470" flag="0"/>
      <psa30 value="0.0051298630" flag="0"/>
    </comp>
    <comp name="--.HHN">
      <acc value="0.1293474219" flag="0"/>
      <vel value="0.0583300932" flag="0"/>
      <psa03 value="0.4415914367" flag="0"/>
      <psa10 value="0.0486955039" flag="0"/>
      <psa30 value="0.0026088481" flag="0"/>
    </comp>
    <comp name="--.HHZ">
      <acc value="0.1341640702" flag="0"/>
      <vel value="0.0409752902" flag="0"/>
      <psa03 value="0.2375378971" flag="0"/>
      <psa10 value="0.0266565380" flag="0"/>
      <psa30 value="0.0031734119" flag="0"/>
    </comp>
  </station>
  <station code="KEK" name="KEK" netid="MN" source="INGV" insttype="" lat="39.7127" lon="19.7962">
    <comp name="--.HHE">
      <acc value="0.0039994616" flag="0"/>
      <vel value="0.0029142690" flag="0"/>
      <psa03 value="0.0143931826" flag="0"/>
      <psa10 value="0.0039336011" flag="0"/>
      <psa30 value="0.0002025585" flag="0"/>
    </comp>
    <comp name="--.HHN">
      <acc value="0.0045555840" flag="0"/>
      <vel value="0.0028781024" flag="0"/>
      <psa03 value="0.0137595428" flag="0"/>
      <psa10 value="0.0038616636" flag="0"/>
      <psa30 value="0.0002109546" flag="0"/>
    </comp>
    <comp name="--.HHZ">
      <acc value="0.0027632370" flag="0"/>
      <vel value="0.0021030880" flag="0"/>
      <psa03 value="0.0068574204" flag="0"/>
      <psa10 value="0.0028897685" flag="0"/>
      <psa30 value="0.0001707810" flag="0"/>
    </comp>
  </station>
  <station code="TIR" name="TIR" netid="MN" source="INGV" insttype="" lat="41.3472" lon="19.8631">
    <comp name="--.HHE">
      <acc value="0.0077990298" flag="0"/>
      <vel value="0.0049725511" flag="0"/>
      <psa03 value="0.0210909156" flag="0"/>
      <psa10 value="0.0057541829" flag="0"/>
      <psa30 value="0.0006372715" flag="0"/>
    </comp>
    <comp name="--.HHN">
      <acc value="0.0091079233" flag="0"/>
      <vel value="0.0071391133" flag="0"/>
      <psa03 value="0.0183990521" flag="0"/>
      <psa10 value="0.0074476973" flag="0"/>
      <psa30 value="0.0005250813" flag="0"/>
    </comp>
    <comp name="--.HHZ">
      <acc value="0.0039088903" flag="0"/>
      <vel value="0.0016821896" flag="0"/>
      <psa03 value="0.0084747221" flag="0"/>
      <psa10 value="0.0015706476" flag="0"/>
      <psa30 value="0.0001133402" flag="0"/>
    </comp>
  </station>
</stationlist>
