<?xml version="1.0" encoding="UTF-8" standalone="yes"?>
<!DOCTYPE earthquake SYSTEM "stationlist.dtd">
<stationlist created="" xmlns="ch.ethz.sed.shakemap.usgs.xml">
  <station code="RP05B" name="RP05B" netid="5B" insttype="Compact" commtype="DIG" lat="37.6182" lon="21.6541">
    <comp name="--.HHE">
      <acc value="2.7820380925" flag="0"/>
      <vel value="1.2802703203" flag="0"/>
      <psa03 value="4.1124002803" flag="0"/>
      <psa10 value="1.6851973094" flag="0"/>
      <psa30 value="0.2226878375" flag="0"/>
    </comp>
    <comp name="--.HHN">
      <acc value="2.4302776259" flag="0"/>
      <vel value="1.5308867752" flag="0"/>
      <psa03 value="4.8420375922" flag="0"/>
      <psa10 value="1.3181183033" flag="0"/>
      <psa30 value="0.1987264381" flag="0"/>
    </comp>
    <comp name="--.HHZ">
      <acc value="1.7515203225" flag="0"/>
      <vel value="0.4442473800" flag="0"/>
      <psa03 value="2.2241921837" flag="0"/>
      <psa10 value="0.4165732998" flag="0"/>
      <psa30 value="0.0519322352" flag="0"/>
    </comp>
  </station>
  <station code="AGRP" name="AGRP" netid="CL" insttype="CMG40-T" commtype="DIG" lat="38.3959" lon="21.7228">
    <comp name="00.HHE">
      <acc value="0.0185746346" flag="0"/>
      <vel value="0.0180939398" flag="0"/>
      <psa03 value="0.0597553931" flag="0"/>
      <psa10 value="0.0154417873" flag="0"/>
      <psa30 value="0.0062168022" flag="0"/>
    </comp>
    <comp name="00.HHN">
      <acc value="0.0254795556" flag="0"/>
      <vel value="0.0176400604" flag="0"/>
      <psa03 value="0.0546409198" flag="0"/>
      <psa10 value="0.0198120688" flag="0"/>
      <psa30 value="0.0039955933" flag="0"/>
    </comp>
    <comp name="00.HHZ">
      <acc value="0.0127690023" flag="0"/>
      <vel value="0.0119304763" flag="0"/>
      <psa03 value="0.0269929518" flag="0"/>
      <psa10 value="0.0206428797" flag="0"/>
      <psa30 value="0.0023476156" flag="0"/>
    </comp>
  </station>
  <station code="ALIK" name="ALIK" netid="CL" insttype="TRILLIUM-40" commtype="DIG" lat="38.2605" lon="22.1114">
    <comp name="02.HHE">
      <acc value="0.0950640208" flag="0"/>
      <vel value="0.0578300090" flag="0"/>
      <psa03 value="0.2814086029" flag="0"/>
      <psa10 value="0.0685616224" flag="0"/>
      <psa30 value="0.0094654656" flag="0"/>
    </comp>
    <comp name="02.HHZ">
      <acc value="0.0314897505" flag="0"/>
      <vel value="0.0171057177" flag="0"/>
      <psa03 value="0.1162749720" flag="0"/>
      <psa10 value="0.0325152103" flag="0"/>
      <psa30 value="0.0037156365" flag="0"/>
    </comp>
    <comp name="02.HHN">
      <acc value="0.0521294466" flag="0"/>
      <vel value="0.0322903427" flag="0"/>
      <psa03 value="0.1373080586" flag="0"/>
      <psa10 value="0.0396242598" flag="0"/>
      <psa30 value="0.0049657210" flag="0"/>
    </comp>
  </station>
  <station code="MALA" name="MALA" netid="CL" insttype="TRILLIUM-40" commtype="DIG" lat="38.3934" lon="21.8726">
    <comp name="01.HHZ">
      <acc value="0.0198727916" flag="0"/>
      <vel value="0.0192536667" flag="0"/>
      <psa03 value="0.0465666693" flag="0"/>
      <psa10 value="0.0247148332" flag="0"/>
      <psa30 value="0.0044097094" flag="0"/>
    </comp>
    <comp name="01.HHN">
      <acc value="0.0462457555" flag="0"/>
      <vel value="0.0357301807" flag="0"/>
      <psa03 value="0.0988621713" flag="0"/>
      <psa10 value="0.0718750129" flag="0"/>
      <psa30 value="0.0109334487" flag="0"/>
    </comp>
    <comp name="01.HHE">
      <acc value="0.0576953544" flag="0"/>
      <vel value="0.0539004131" flag="0"/>
      <psa03 value="0.1222465809" flag="0"/>
      <psa10 value="0.0725676610" flag="0"/>
      <psa30 value="0.0168227277" flag="0"/>
    </comp>
  </station>
  <station code="MG06" name="MG06" netid="CL" insttype="TRILLIUM-40" commtype="DIG" lat="38.4129" lon="21.9462">
    <comp name="06.HHZ">
      <acc value="0.0151041594" flag="0"/>
      <vel value="0.0087512774" flag="0"/>
      <psa03 value="0.0330077413" flag="0"/>
      <psa10 value="0.0099449935" flag="0"/>
      <psa30 value="0.0020288434" flag="0"/>
    </comp>
    <comp name="06.HHE">
      <acc value="0.0258663904" flag="0"/>
      <vel value="0.0169525522" flag="0"/>
      <psa03 value="0.0650972929" flag="0"/>
      <psa10 value="0.0250503712" flag="0"/>
      <psa30 value="0.0042913843" flag="0"/>
    </comp>
    <comp name="06.HHN">
      <acc value="0.0239079596" flag="0"/>
      <vel value="0.0166695146" flag="0"/>
      <psa03 value="0.0477617675" flag="0"/>
      <psa10 value="0.0185796616" flag="0"/>
      <psa30 value="0.0039547629" flag="0"/>
    </comp>
  </station>
  <station code="PANR" name="PANR" netid="CL" insttype="TRILLIUM-40" commtype="DIG" lat="38.3735" lon="22.2497">
    <comp name="01.HHN">
      <acc value="0.0128068111" flag="0"/>
      <vel value="0.0166378798" flag="0"/>
      <psa03 value="0.0302009487" flag="0"/>
      <psa10 value="0.0185288848" flag="0"/>
      <psa30 value="0.0038715499" flag="0"/>
    </comp>
    <comp name="01.HHZ">
      <acc value="0.0069064661" flag="0"/>
      <vel value="0.0084188083" flag="0"/>
      <psa03 value="0.0183362280" flag="0"/>
      <psa10 value="0.0123398793" flag="0"/>
      <psa30 value="0.0026818654" flag="0"/>
    </comp>
    <comp name="01.HHE">
      <acc value="0.0118208023" flag="0"/>
      <vel value="0.0137271981" flag="0"/>
      <psa03 value="0.0310227764" flag="0"/>
      <psa10 value="0.0182293869" flag="0"/>
      <psa30 value="0.0031515351" flag="0"/>
    </comp>
  </station>
  <station code="PSAM" name="PSAM" netid="CL" insttype="CMG40-T" commtype="DIG" lat="38.3218" lon="22.1842">
    <comp name="00.HHZ">
      <acc value="0.0147962619" flag="0"/>
      <vel value="0.0115500669" flag="0"/>
      <psa03 value="0.0330129223" flag="0"/>
      <psa10 value="0.0158707157" flag="0"/>
      <psa30 value="0.0023706167" flag="0"/>
    </comp>
    <comp name="00.HHN">
      <acc value="0.0177803340" flag="0"/>
      <vel value="0.0187265221" flag="0"/>
      <psa03 value="0.0555581455" flag="0"/>
      <psa10 value="0.0295352378" flag="0"/>
      <psa30 value="0.0047848225" flag="0"/>
    </comp>
    <comp name="00.HHE">
      <acc value="0.0217210603" flag="0"/>
      <vel value="0.0224402682" flag="0"/>
      <psa03 value="0.0611301555" flag="0"/>
      <psa10 value="0.0434101174" flag="0"/>
      <psa30 value="0.0043497525" flag="0"/>
    </comp>
  </station>
  <station code="ZIRI" name="ZIRI" netid="CL" insttype="TRILLIUM-40" commtype="DIG" lat="38.3051" lon="21.9476">
    <comp name="01.HHZ">
      <acc value="0.0655421430" flag="0"/>
      <vel value="0.0252298760" flag="0"/>
      <psa03 value="0.1263059814" flag="0"/>
      <psa10 value="0.0208195654" flag="0"/>
      <psa30 value="0.0029287689" flag="0"/>
    </comp>
    <comp name="01.HHN">
      <acc value="0.0873430022" flag="0"/>
      <vel value="0.0423101243" flag="0"/>
      <psa03 value="0.3440384932" flag="0"/>
      <psa10 value="0.0336969322" flag="0"/>
      <psa30 value="0.0042327554" flag="0"/>
    </comp>
    <comp name="01.HHE">
      <acc value="0.1045581562" flag="0"/>
      <vel value="0.0710262392" flag="0"/>
      <psa03 value="0.3140790076" flag="0"/>
      <psa10 value="0.0461381049" flag="0"/>
      <psa30 value="0.0045274790" flag="0"/>
    </comp>
  </station>
  <station code="ACOR" name="ACOR" netid="HA" insttype="Horizon,120s,1200" commtype="DIG" lat="37.8905" lon="22.8694">
    <comp name="--.HHN">
      <acc value="0.0329761722" flag="0"/>
      <vel value="0.0372635858" flag="0"/>
      <psa03 value="0.0588063546" flag="0"/>
      <psa10 value="0.0342321954" flag="0"/>
      <psa30 value="0.0091683133" flag="0"/>
    </comp>
    <comp name="--.HHZ">
      <acc value="0.0246341521" flag="0"/>
      <vel value="0.0229834751" flag="0"/>
      <psa03 value="0.0629118838" flag="0"/>
      <psa10 value="0.0308591254" flag="0"/>
      <psa30 value="0.0035700908" flag="0"/>
    </comp>
    <comp name="--.HHE">
      <acc value="0.0384377985" flag="0"/>
      <vel value="0.0247803550" flag="0"/>
      <psa03 value="0.0938516368" flag="0"/>
      <psa10 value="0.0314133923" flag="0"/>
      <psa30 value="0.0060065016" flag="0"/>
    </comp>
  </station>
  <station code="AMPE" name="AMPE" netid="HA" insttype="1s-100Hz," commtype="DIG" lat="38.3015" lon="23.2688">
    <comp name="--.HHE">
      <acc value="0.0185714905" flag="0"/>
      <vel value="0.0226046962" flag="0"/>
      <psa03 value="0.0419275293" flag="0"/>
      <psa10 value="0.0485853197" flag="0"/>
      <psa30 value="0.0058663365" flag="0"/>
    </comp>
    <comp name="--.HHN">
      <acc value="0.0145550482" flag="0"/>
      <vel value="0.0213831872" flag="0"/>
      <psa03 value="0.0292123055" flag="0"/>
      <psa10 value="0.0315130279" flag="0"/>
      <psa30 value="0.0085103172" flag="0"/>
    </comp>
    <comp name="--.HHZ">
      <acc value="0.0088201922" flag="0"/>
      <vel value="0.0104328036" flag="0"/>
      <psa03 value="0.0268348269" flag="0"/>
      <psa10 value="0.0177286717" flag="0"/>
      <psa30 value="0.0043916543" flag="0"/>
    </comp>
  </station>
  <station code="ANTK" name="ANTK" netid="HA" insttype="25" commtype="DIG" lat="38.3605" lon="22.6385">
    <comp name="--.HHE">
      <acc value="0.0045321011" flag="0"/>
      <vel value="0.0055895428" flag="0"/>
      <psa03 value="0.0117076966" flag="0"/>
      <psa10 value="0.0079329658" flag="0"/>
      <psa30 value="0.0011873054" flag="0"/>
    </comp>
    <comp name="--.HHZ">
      <acc value="0.0043904947" flag="0"/>
      <vel value="0.0038289246" flag="0"/>
      <psa03 value="0.0139504641" flag="0"/>
      <psa10 value="0.0070077986" flag="0"/>
      <psa30 value="0.0011227160" flag="0"/>
    </comp>
    <comp name="--.HHN">
      <acc value="0.0075278084" flag="0"/>
      <vel value="0.0073425561" flag="0"/>
      <psa03 value="0.0207756811" flag="0"/>
      <psa10 value="0.0087712525" flag="0"/>
      <psa30 value="0.0025057633" flag="0"/>
    </comp>
  </station>
  <station code="ATHR" name="ATHR" netid="HA" insttype="GEOtiny," commtype="DIG" lat="38.3172" lon="20.4165">
    <comp name="--.HHE">
      <acc value="0.0106628045" flag="0"/>
      <vel value="0.0151432257" flag="0"/>
      <psa03 value="0.0291507636" flag="0"/>
      <psa10 value="0.0271724110" flag="0"/>
      <psa30 value="0.0050450188" flag="0"/>
    </comp>
    <comp name="--.HHN">
      <acc value="0.0115357516" flag="0"/>
      <vel value="0.0189665199" flag="0"/>
      <psa03 value="0.0298208910" flag="0"/>
      <psa10 value="0.0199276626" flag="0"/>
      <psa30 value="0.0062598003" flag="0"/>
    </comp>
    <comp name="--.HHZ">
      <acc value="0.0102991495" flag="0"/>
      <vel value="0.0094244235" flag="0"/>
      <psa03 value="0.0193749710" flag="0"/>
      <psa10 value="0.0172971120" flag="0"/>
      <psa30 value="0.0051529169" flag="0"/>
    </comp>
  </station>
  <station code="AXAR" name="AXAR" netid="HA" insttype="Horizon,120s,1200" commtype="DIG" lat="38.7664" lon="22.659">
    <comp name="--.HHZ">
      <acc value="0.0145814226" flag="0"/>
      <vel value="0.0156481145" flag="0"/>
      <psa03 value="0.0434691217" flag="0"/>
      <psa10 value="0.0202308176" flag="0"/>
      <psa30 value="0.0030398695" flag="0"/>
    </comp>
    <comp name="--.HHE">
      <acc value="0.0239902862" flag="0"/>
      <vel value="0.0197618262" flag="0"/>
      <psa03 value="0.0732684257" flag="0"/>
      <psa10 value="0.0387034725" flag="0"/>
      <psa30 value="0.0066206441" flag="0"/>
    </comp>
    <comp name="--.HHN">
      <acc value="0.0225751883" flag="0"/>
      <vel value="0.0260148211" flag="0"/>
      <psa03 value="0.0752276142" flag="0"/>
      <psa10 value="0.0486214245" flag="0"/>
      <psa30 value="0.0059246854" flag="0"/>
    </comp>
  </station>
  <station code="DOMV" name="DOMV" netid="HA" insttype="60" commtype="DIG" lat="38.2569" lon="22.9795">
    <comp name="--.HHE">
      <acc value="0.0355836466" flag="0"/>
      <vel value="0.0228392659" flag="0"/>
      <psa03 value="0.1140270088" flag="0"/>
      <psa10 value="0.0242256359" flag="0"/>
      <psa30 value="0.0040394025" flag="0"/>
    </comp>
    <comp name="--.HHN">
      <acc value="0.0396313702" flag="0"/>
      <vel value="0.0211256593" flag="0"/>
      <psa03 value="0.0966405532" flag="0"/>
      <psa10 value="0.0225907871" flag="0"/>
      <psa30 value="0.0076585688" flag="0"/>
    </comp>
    <comp name="--.HHZ">
      <acc value="0.0236888156" flag="0"/>
      <vel value="0.0171792243" flag="0"/>
      <psa03 value="0.0567369315" flag="0"/>
      <psa10 value="0.0269499952" flag="0"/>
      <psa30 value="0.0031424606" flag="0"/>
    </comp>
  </station>
  <station code="EPID" name="EPID" netid="HA" insttype="30" commtype="DIG" lat="37.6144" lon="23.1189">
    <comp name="--.HHE">
      <acc value="0.0608351665" flag="0"/>
      <vel value="0.0322148324" flag="0"/>
      <psa03 value="0.1288811524" flag="0"/>
      <psa10 value="0.0351968221" flag="0"/>
      <psa30 value="0.0041593707" flag="0"/>
    </comp>
    <comp name="--.HHZ">
      <acc value="0.0354301546" flag="0"/>
      <vel value="0.0255154733" flag="0"/>
      <psa03 value="0.0653951342" flag="0"/>
      <psa10 value="0.0406606226" flag="0"/>
      <psa30 value="0.0043049450" flag="0"/>
    </comp>
    <comp name="--.HHN">
      <acc value="0.0564310093" flag="0"/>
      <vel value="0.0381279854" flag="0"/>
      <psa03 value="0.1246038209" flag="0"/>
      <psa10 value="0.0514856200" flag="0"/>
      <psa30 value="0.0066136237" flag="0"/>
    </comp>
  </station>
  <station code="HAVD" name="HAVD" netid="HA" insttype="GEOtiny," commtype="DIG" lat="38.2036" lon="20.3848">
    <comp name="--.HHN">
      <acc value="0.0185772480" flag="0"/>
      <vel value="0.0190081749" flag="0"/>
      <psa03 value="0.0469308045" flag="0"/>
      <psa10 value="0.0381001556" flag="0"/>
      <psa30 value="0.0042755966" flag="0"/>
    </comp>
    <comp name="--.HHE">
      <acc value="0.0140191282" flag="0"/>
      <vel value="0.0155532861" flag="0"/>
      <psa03 value="0.0378331155" flag="0"/>
      <psa10 value="0.0288952030" flag="0"/>
      <psa30 value="0.0037514889" flag="0"/>
    </comp>
    <comp name="--.HHZ">
      <acc value="0.0122926200" flag="0"/>
      <vel value="0.0098772426" flag="0"/>
      <psa03 value="0.0353699064" flag="0"/>
      <psa10 value="0.0113850691" flag="0"/>
      <psa30 value="0.0029894386" flag="0"/>
    </comp>
  </station>
  <station code="KALE" name="KALE" netid="HA" insttype="40," commtype="DIG" lat="38.3911" lon="22.1398">
    <comp name="--.HHN">
      <acc value="0.0306406040" flag="0"/>
      <vel value="0.0199995623" flag="0"/>
      <psa03 value="0.0807586580" flag="0"/>
      <psa10 value="0.0229945113" flag="0"/>
      <psa30 value="0.0033051615" flag="0"/>
    </comp>
    <comp name="--.HHE">
      <acc value="0.0295518079" flag="0"/>
      <vel value="0.0215055338" flag="0"/>
      <psa03 value="0.0908557657" flag="0"/>
      <psa10 value="0.0244673868" flag="0"/>
      <psa30 value="0.0038924993" flag="0"/>
    </comp>
    <comp name="--.HHZ">
      <acc value="0.0137333195" flag="0"/>
      <vel value="0.0097253229" flag="0"/>
      <psa03 value="0.0394082043" flag="0"/>
      <psa10 value="0.0128702105" flag="0"/>
      <psa30 value="0.0030253823" flag="0"/>
    </comp>
  </station>
  <station code="KIAS" name="KIAS" netid="HA" insttype="DC" commtype="DIG" lat="37.9875" lon="22.7543">
    <comp name="--.HNE">
      <acc value="0.0992325655" flag="0"/>
      <vel value="0.0825193531" flag="0"/>
      <psa03 value="0.2679430031" flag="0"/>
      <psa10 value="0.1561893849" flag="0"/>
      <psa30 value="0.0274097306" flag="0"/>
    </comp>
    <comp name="--.HNZ">
      <acc value="0.0424479988" flag="0"/>
      <vel value="0.0442984232" flag="0"/>
      <psa03 value="0.1306217627" flag="0"/>
      <psa10 value="0.0858801772" flag="0"/>
      <psa30 value="0.0165660112" flag="0"/>
    </comp>
    <comp name="--.HNN">
      <acc value="0.1329583905" flag="0"/>
      <vel value="0.0681997113" flag="0"/>
      <psa03 value="0.3017525007" flag="0"/>
      <psa10 value="0.1139724670" flag="0"/>
      <psa30 value="0.0233897872" flag="0"/>
    </comp>
  </station>
  <station code="LOUT" name="LOUT" netid="HA" insttype="30" commtype="DIG" lat="37.9879" lon="22.9743">
    <comp name="--.HHE">
      <acc value="0.0600919984" flag="0"/>
      <vel value="0.0519679362" flag="0"/>
      <psa03 value="0.1682646543" flag="0"/>
      <psa10 value="0.0759899836" flag="0"/>
      <psa30 value="0.0090405908" flag="0"/>
    </comp>
    <comp name="--.HHZ">
      <acc value="0.0231223138" flag="0"/>
      <vel value="0.0172878543" flag="0"/>
      <psa03 value="0.0830165563" flag="0"/>
      <psa10 value="0.0263679502" flag="0"/>
      <psa30 value="0.0029553475" flag="0"/>
    </comp>
    <comp name="--.HHN">
      <acc value="0.0415304820" flag="0"/>
      <vel value="0.0422964855" flag="0"/>
      <psa03 value="0.1074134850" flag="0"/>
      <psa10 value="0.1131405969" flag="0"/>
      <psa30 value="0.0045183096" flag="0"/>
    </comp>
  </station>
  <station code="MDRA" name="MDRA" netid="HA" insttype="60" commtype="DIG" lat="38.0606" lon="23.4662">
    <comp name="--.HHE">
      <acc value="0.0128875176" flag="0"/>
      <vel value="0.0152724432" flag="0"/>
      <psa03 value="0.0410096029" flag="0"/>
      <psa10 value="0.0190755789" flag="0"/>
      <psa30 value="0.0033210588" flag="0"/>
    </comp>
    <comp name="--.HHN">
      <acc value="0.0199314653" flag="0"/>
      <vel value="0.0254962264" flag="0"/>
      <psa03 value="0.0553272418" flag="0"/>
      <psa10 value="0.0311133137" flag="0"/>
      <psa30 value="0.0066927687" flag="0"/>
    </comp>
    <comp name="--.HHZ">
      <acc value="0.0124963153" flag="0"/>
      <vel value="0.0123103238" flag="0"/>
      <psa03 value="0.0412148062" flag="0"/>
      <psa10 value="0.0190708817" flag="0"/>
      <psa30 value="0.0031697086" flag="0"/>
    </comp>
  </station>
  <station code="PRDM" name="PRDM" netid="HA" insttype="25" commtype="DIG" lat="38.2804" lon="22.847">
    <comp name="--.HHE">
      <acc value="0.0100102435" flag="0"/>
      <vel value="0.0095457312" flag="0"/>
      <psa03 value="0.0232413910" flag="0"/>
      <psa10 value="0.0153485414" flag="0"/>
      <psa30 value="0.0023501764" flag="0"/>
    </comp>
    <comp name="--.HHN">
      <acc value="0.0108456149" flag="0"/>
      <vel value="0.0078410836" flag="0"/>
      <psa03 value="0.0216417590" flag="0"/>
      <psa10 value="0.0127058667" flag="0"/>
      <psa30 value="0.0025955209" flag="0"/>
    </comp>
    <comp name="--.HHZ">
      <acc value="0.0058633340" flag="0"/>
      <vel value="0.0054502998" flag="0"/>
      <psa03 value="0.0159898939" flag="0"/>
      <psa10 value="0.0094916736" flag="0"/>
      <psa30 value="0.0018613588" flag="0"/>
    </comp>
  </station>
  <station code="THAL" name="THAL" netid="HA" insttype="30" commtype="DIG" lat="38.0357" lon="22.6634">
    <comp name="--.HHN">
      <acc value="0.1259853935" flag="0"/>
      <vel value="0.0712995480" flag="0"/>
      <psa03 value="0.3171136110" flag="0"/>
      <psa10 value="0.0909687925" flag="0"/>
      <psa30 value="0.0157959789" flag="0"/>
    </comp>
    <comp name="--.HHZ">
      <acc value="0.0772388861" flag="0"/>
      <vel value="0.0439587655" flag="0"/>
      <psa03 value="0.2363688941" flag="0"/>
      <psa10 value="0.0872647289" flag="0"/>
      <psa30 value="0.0077985839" flag="0"/>
    </comp>
    <comp name="--.HHE">
      <acc value="0.1390881730" flag="0"/>
      <vel value="0.0794272566" flag="0"/>
      <psa03 value="0.4267620600" flag="0"/>
      <psa10 value="0.1335921591" flag="0"/>
      <psa30 value="0.0189738320" flag="0"/>
    </comp>
  </station>
  <station code="THIV" name="THIV" netid="HA" insttype="25" commtype="DIG" lat="38.299" lon="23.332">
