<stationlist xmlns:esm="https://esm-db.eu/esmws/shakemap/1/" created="1784080657">
	<station code="AGRP" name="AGRP" netid="CL" source="Corinth Riff Laboratory (CRLNET)" insttype="" lat="38.3959" lon="21.72277" esm:processing="automatic (Paolucci et al 2011)" esm:quality="best">
		<comp name="00.HNE" depth="0.0">
			<acc value="0.0184225724930024" flag="0"/>
			<vel value="0.0190516097578078" flag="0"/>
			<psa03 value="0.0580430690266425" flag="0"/>
			<psa10 value="0.0150130939187961" flag="0"/>
			<psa30 value="0.00598747705764039" flag="0"/>
		</comp>
		<comp name="00.HNN" depth="0.0">
			<acc value="0.0247235000138163" flag="0"/>
			<vel value="0.0169083124828407" flag="0"/>
			<psa03 value="0.0532203276689723" flag="0"/>
			<psa10 value="0.0187569275543942" flag="0"/>
			<psa30 value="0.00385021880809879" flag="0"/>
		</comp>
		<comp name="00.HNZ" depth="0.0">
			<acc value="0.0132500519598683" flag="0"/>
			<vel value="0.0122096898775349" flag="0"/>
			<psa03 value="0.0259118884104602" flag="0"/>
			<psa10 value="0.0194337948935253" flag="0"/>
			<psa30 value="0.00229385654007253" flag="0"/>
		</comp>
	</station>
	<station code="MALA" name="MALA" netid="CL" source="Corinth Riff Laboratory (CRLNET)" insttype="" lat="38.39341" lon="21.87263" esm:processing="automatic (Paolucci et al 2011)" esm:quality="good">
		<comp name="01.HNE" depth="0.0">
			<acc value="0.0595608842612152" flag="0"/>
			<vel value="0.0552990784755506" flag="0"/>
			<psa03 value="0.121867823145278" flag="0"/>
			<psa10 value="0.075166799431364" flag="0"/>
			<psa30 value="0.0170817182466576" flag="0"/>
		</comp>
		<comp name="01.HNN" depth="0.0">
			<acc value="0.0460056412896465" flag="0"/>
			<vel value="0.0376596743310799" flag="0"/>
			<psa03 value="0.101589146449229" flag="0"/>
			<psa10 value="0.0733575145754753" flag="0"/>
			<psa30 value="0.0112525745944996" flag="0"/>
		</comp>
		<comp name="01.HNZ" depth="0.0">
			<acc value="0.0203819474763551" flag="0"/>
			<vel value="0.0194200836541323" flag="0"/>
			<psa03 value="0.047202616524891" flag="0"/>
			<psa10 value="0.0248298211038091" flag="0"/>
			<psa30 value="0.00442074618607129" flag="0"/>
		</comp>
	</station>
	<station code="TRIZ" name="TRIZ" netid="CL" source="Corinth Riff Laboratory (CRLNET)" insttype="" lat="38.36543" lon="22.07272" esm:processing="automatic (Paolucci et al 2011)" esm:quality="best">
		<comp name="00.HNE" depth="0.0">
			<acc value="0.0230408400338542" flag="0"/>
			<vel value="0.0187567527901134" flag="0"/>
			<psa03 value="0.0594072114779049" flag="0"/>
			<psa10 value="0.028262177855571" flag="0"/>
			<psa30 value="0.00343500234371452" flag="0"/>
		</comp>
		<comp name="00.HNN" depth="0.0">
			<acc value="0.0341158198725018" flag="0"/>
			<vel value="0.0228796586912093" flag="0"/>
			<psa03 value="0.128789417083471" flag="0"/>
			<psa10 value="0.0291740863900271" flag="0"/>
			<psa30 value="0.00365413415178685" flag="0"/>
		</comp>
		<comp name="00.HNZ" depth="0.0">
			<acc value="0.0164836091586823" flag="0"/>
			<vel value="0.0112583138947999" flag="0"/>
			<psa03 value="0.03173962342762" flag="0"/>
			<psa10 value="0.0117915292559245" flag="0"/>
			<psa30 value="0.00212527078875847" flag="0"/>
		</comp>
	</station>
	<station code="KTHA" name="KTHA" netid="GE" source="GEOFON" insttype="" lat="36.2566" lon="23.0621" esm:processing="automatic (Paolucci et al 2011)" esm:quality="best">
		<comp name="--.HNE" depth="0.0">
			<acc value="0.0499850881295567" flag="0"/>
			<vel value="0.0546604365649843" flag="0"/>
			<psa03 value="0.141821238710897" flag="0"/>
			<psa10 value="0.163384643430599" flag="0"/>
			<psa30 value="0.0124587986676012" flag="0"/>
		</comp>
		<comp name="--.HNN" depth="0.0">
			<acc value="0.0278300227333" flag="0"/>
			<vel value="0.0377877319004264" flag="0"/>
			<psa03 value="0.0689311028056487" flag="0"/>
			<psa10 value="0.0761126495895214" flag="0"/>
			<psa30 value="0.00892312444652572" flag="0"/>
		</comp>
		<comp name="--.HNZ" depth="0.0">
			<acc value="0.0217366560279512" flag="0"/>
			<vel value="0.0269264439761757" flag="0"/>
			<psa03 value="0.0598511263018385" flag="0"/>
			<psa10 value="0.0441763889689033" flag="0"/>
			<psa30 value="0.00846245142919272" flag="0"/>
		</comp>
	</station>
	<station code="ATHU" name="ATHU" netid="HA" source="Hellenic Seismological Network, University of Athens, Seismological Laboratory (HA)" insttype="" lat="37.9665" lon="23.7845" esm:processing="manual (Paolucci et al 2011)" esm:quality="good">
		<comp name="--.HNE" depth="0.0">
			<acc value="0.000344709771668262" flag="0"/>
			<vel value="0.000428073578267346" flag="0"/>
			<psa03 value="0.00094779390648644" flag="0"/>
			<psa10 value="0.000687809392121634" flag="0"/>
			<psa30 value="0.000161708707199893" flag="0"/>
		</comp>
		<comp name="--.HNN" depth="0.0">
			<acc value="0.000236374288891907" flag="0"/>
			<vel value="0.000319593523191756" flag="0"/>
			<psa03 value="0.000683585974320099" flag="0"/>
			<psa10 value="0.000479893245650455" flag="0"/>
			<psa30 value="0.000125189868735237" flag="0"/>
		</comp>
		<comp name="--.HNZ" depth="0.0">
			<acc value="0.000276588091541198" flag="0"/>
			<vel value="0.000404445950295231" flag="0"/>
			<psa03 value="0.000823949764919857" flag="0"/>
			<psa10 value="0.000515890913522409" flag="0"/>
			<psa30 value="0.000104637459061879" flag="0"/>
		</comp>
	</station>
	<station code="KIAS" name="KIAS" netid="HA" source="Hellenic Seismological Network, University of Athens, Seismological Laboratory (HA)" insttype="" lat="37.9875" lon="22.7543" esm:processing="manual (Paolucci et al 2011)" esm:quality="good">
		<comp name="--.HNE" depth="0.0">
			<acc value="0.0988548014656359" flag="0"/>
			<vel value="0.075351903196208" flag="0"/>
			<psa03 value="0.268178432171646" flag="0"/>
			<psa10 value="0.154667475961214" flag="0"/>
			<psa30 value="0.0177611732572276" flag="0"/>
		</comp>
		<comp name="--.HNN" depth="0.0">
			<acc value="0.132188568325924" flag="0"/>
			<vel value="0.0639158078669241" flag="0"/>
			<psa03 value="0.303474895389109" flag="0"/>
			<psa10 value="0.113210819661193" flag="0"/>
			<psa30 value="0.0154393077783681" flag="0"/>
		</comp>
		<comp name="--.HNZ" depth="0.0">
			<acc value="0.0419845180060127" flag="0"/>
			<vel value="0.0407856782687303" flag="0"/>
			<psa03 value="0.131836098077813" flag="0"/>
			<psa10 value="0.084732753129048" flag="0"/>
			<psa30 value="0.0117874333596103" flag="0"/>
		</comp>
	</station>
	<station code="ABEA" name="ABEA" netid="HC" source="Seismological Network of Crete (HC)" insttype="" lat="35.5163" lon="24.0113" esm:processing="manual (Paolucci et al 2011)" esm:quality="good">
		<comp name="--.HNE" depth="0.0">
			<acc value="0.0116549172523442" flag="0"/>
			<vel value="0.0151724106498409" flag="0"/>
			<psa03 value="0.0236788524619325" flag="0"/>
			<psa10 value="0.029371388835363" flag="0"/>
			<psa30 value="0.00152547897216191" flag="0"/>
		</comp>
		<comp name="--.HNN" depth="0.0">
			<acc value="0.0127078517081426" flag="0"/>
			<vel value="0.0107151566790243" flag="0"/>
			<psa03 value="0.0288814575256516" flag="0"/>
			<psa10 value="0.016415362437199" flag="0"/>
			<psa30 value="0.00208349031267464" flag="0"/>
		</comp>
		<comp name="--.HNZ" depth="0.0">
			<acc value="0.00723398660604396" flag="0"/>
			<vel value="0.00863194815770243" flag="0"/>
			<psa03 value="0.0164240723891906" flag="0"/>
			<psa10 value="0.0167790934075907" flag="0"/>
			<psa30 value="0.00104765919394662" flag="0"/>
		</comp>
	</station>
	<station code="ATEI" name="ATEI" netid="HC" source="Seismological Network of Crete (HC)" insttype="" lat="35.5193" lon="24.0432" esm:processing="manual (Paolucci et al 2011)" esm:quality="good">
		<comp name="--.HNE" depth="0.0">
			<acc value="0.0138590577877503" flag="0"/>
			<vel value="0.0166330334633153" flag="0"/>
			<psa03 value="0.0358975290767921" flag="0"/>
			<psa10 value="0.0259402209123274" flag="0"/>
			<psa30 value="0.00441983820925659" flag="0"/>
		</comp>
		<comp name="--.HNN" depth="0.0">
			<acc value="0.0158007732289244" flag="0"/>
			<vel value="0.0173616852154839" flag="0"/>
			<psa03 value="0.0437907290458855" flag="0"/>
			<psa10 value="0.0362028170089526" flag="0"/>
			<psa30 value="0.0046232675187833" flag="0"/>
		</comp>
		<comp name="--.HNZ" depth="0.0">
			<acc value="0.00835631119763667" flag="0"/>
			<vel value="0.0124221038290293" flag="0"/>
			<psa03 value="0.0198494685757103" flag="0"/>
			<psa10 value="0.0292850018626501" flag="0"/>
			<psa30 value="0.00302590045105453" flag="0"/>
		</comp>
	</station>
	<station code="PASK" name="PASK" netid="HC" source="Seismological Network of Crete (HC)" insttype="" lat="35.4996" lon="24.0121" esm:processing="manual (Paolucci et al 2011)" esm:quality="good">
		<comp name="--.HNE" depth="0.0">
			<acc value="0.0312568555747599" flag="0"/>
			<vel value="0.0360275291063306" flag="0"/>
			<psa03 value="0.0631355522121475" flag="0"/>
			<psa10 value="0.0601084906425079" flag="0"/>
			<psa30 value="0.00725531896260734" flag="0"/>
		</comp>
		<comp name="--.HNN" depth="0.0">
			<acc value="0.0254569994409014" flag="0"/>
			<vel value="0.0395064818682458" flag="0"/>
			<psa03 value="0.051556785175657" flag="0"/>
			<psa10 value="0.0842180015292808" flag="0"/>
			<psa30 value="0.00789576722249474" flag="0"/>
		</comp>
		<comp name="--.HNZ" depth="0.0">
			<acc value="0.0124563282954181" flag="0"/>
			<vel value="0.0182054039546541" flag="0"/>
			<psa03 value="0.0356137134003964" flag="0"/>
			<psa10 value="0.0407101355966883" flag="0"/>
			<psa30 value="0.00463445534325509" flag="0"/>
		</comp>
	</station>
	<station code="AGR3" name="AGR3" netid="HI" source="ITSAK Strong Motion Network" insttype="" lat="38.5893" lon="21.4162" esm:processing="manual (Paolucci et al 2011)" esm:quality="good">
		<comp name="--.HNE" depth="0.0">
			<acc value="0.0324517841721503" flag="0"/>
			<vel value="0.0458750682686168" flag="0"/>
			<psa03 value="0.0923121568940163" flag="0"/>
			<psa10 value="0.0632628283519004" flag="0"/>
			<psa30 value="0.0255746341940015" flag="0"/>
		</comp>
		<comp name="--.HNN" depth="0.0">
			<acc value="0.0326357737215384" flag="0"/>
			<vel value="0.04304573334679" flag="0"/>
			<psa03 value="0.0875851875054931" flag="0"/>
			<psa10 value="0.0509473162596657" flag="0"/>
			<psa30 value="0.0171074032815086" flag="0"/>
		</comp>
		<comp name="--.HNZ" depth="0.0">
			<acc value="0.0166533465443576" flag="0"/>
			<vel value="0.0223277075821785" flag="0"/>
			<psa03 value="0.0373759603489414" flag="0"/>
			<psa10 value="0.0349270649966429" flag="0"/>
			<psa30 value="0.0079392284349201" flag="0"/>
		</comp>
	</station>
	<station code="AIA1" name="AIA1" netid="HI" source="ITSAK Strong Motion Network" insttype="" lat="40.1641" lon="21.8202" esm:processing="manual (Paolucci et al 2011)" esm:quality="good">
		<comp name="--.HNE" depth="0.0">
			<acc value="0.00149363231979152" flag="0"/>
			<vel value="0.00265576198534488" flag="0"/>
			<psa03 value="0.00371235888128574" flag="0"/>
			<psa10 value="0.00287013333537258" flag="0"/>
			<psa30 value="0.00123201932356708" flag="0"/>
		</comp>
		<comp name="--.HNN" depth="0.0">
			<acc value="0.0011577721865292" flag="0"/>
			<vel value="0.00249824228470242" flag="0"/>
			<psa03 value="0.00280773352460803" flag="0"/>
			<psa10 value="0.00250876877174373" flag="0"/>
			<psa30 value="0.00123323450823377" flag="0"/>
		</comp>
		<comp name="--.HNZ" depth="0.0">
			<acc value="0.000995332322537403" flag="0"/>
			<vel value="0.00187822864229049" flag="0"/>
			<psa03 value="0.00218197332106562" flag="0"/>
			<psa10 value="0.00239932480286791" flag="0"/>
			<psa30 value="0.00108477081907632" flag="0"/>
		</comp>
	</station>
	<station code="AIG2" name="AIG2" netid="HI" source="ITSAK Strong Motion Network" insttype="" lat="38.2417" lon="22.0726" esm:processing="automatic (Paolucci et al 2011)" esm:quality="best">
		<comp name="--.HNE" depth="0.0">
			<acc value="0.0540398151878052" flag="0"/>
			<vel value="0.0232504842085538" flag="0"/>
			<psa03 value="0.119316122857706" flag="0"/>
			<psa10 value="0.0317206550877179" flag="0"/>
			<psa30 value="0.00951025917464861" flag="0"/>
		</comp>
		<comp name="--.HNN" depth="0.0">
			<acc value="0.0457783287495349" flag="0"/>
			<vel value="0.0337795765811952" flag="0"/>
			<psa03 value="0.113560960356094" flag="0"/>
			<psa10 value="0.0702964942979348" flag="0"/>
			<psa30 value="0.00670905194178124" flag="0"/>
		</comp>
		<comp name="--.HNZ" depth="0.0">
			<acc value="0.0344232631074164" flag="0"/>
			<vel value="0.0158512573589043" flag="0"/>
			<psa03 value="0.0628675761265485" flag="0"/>
			<psa10 value="0.0253720038957236" flag="0"/>
			<psa30 value="0.00373489950209391" flag="0"/>
		</comp>
	</station>
	<station code="AOL1" name="AOL1" netid="HI" source="ITSAK Strong Motion Network" insttype="" lat="37.642378" lon="21.624555" esm:processing="manual (Paolucci et al 2011)" esm:quality="good">
		<comp name="--.HNE" depth="0.0">
			<acc value="1.67822986255765" flag="0"/>
			<vel value="0.70789214299657" flag="0"/>
			<psa03 value="3.08183482310079" flag="0"/>
			<psa10 value="0.443593485889788" flag="0"/>
			<psa30 value="0.165086269488387" flag="0"/>
		</comp>
		<comp name="--.HNN" depth="0.0">
			<acc value="1.13905563723313" flag="0"/>
			<vel value="0.39754344189699" flag="0"/>
			<psa03 value="1.48468535311657" flag="0"/>
			<psa10 value="0.65033286135961" flag="0"/>
			<psa30 value="0.0745492985252337" flag="0"/>
		</comp>
		<comp name="--.HNZ" depth="0.0">
			<acc value="0.977987787695315" flag="0"/>
			<vel value="0.245874302066625" flag="0"/>
			<psa03 value="1.12996577135471" flag="0"/>
			<psa10 value="0.205939357471779" flag="0"/>
			<psa30 value="0.0251357301187397" flag="0"/>
		</comp>
	</station>
	<station code="ARG2" name="ARG2" netid="HI" source="ITSAK Strong Motion Network" insttype="" lat="38.1783" lon="20.4878" esm:processing="automatic (Paolucci et al 2011)" esm:quality="best">
		<comp name="--.HNE" depth="0.0">
			<acc value="0.0500706956737798" flag="0"/>
			<vel value="0.0222982183399231" flag="0"/>
			<psa03 value="0.124816778915515" flag="0"/>
			<psa10 value="0.0279001963761028" flag="0"/>
			<psa30 value="0.00418757740645173" flag="0"/>
		</comp>
		<comp name="--.HNN" depth="0.0">
			<acc value="0.0355550222225611" flag="0"/>
			<vel value="0.0285797845386007" flag="0"/>
			<psa03 value="0.0892260982909241" flag="0"/>
			<psa10 value="0.0387273679980648" flag="0"/>
			<psa30 value="0.00480950943972039" flag="0"/>
		</comp>
		<comp name="--.HNZ" depth="0.0">
			<acc value="0.0311711376469279" flag="0"/>
			<vel value="0.0127574773256823" flag="0"/>
			<psa03 value="0.0790651908058368" flag="0"/>
			<psa10 value="0.0191442869650563" flag="0"/>
			<psa30 value="0.00361113255314314" flag="0"/>
		</comp>
	</station>
	<station code="ARS1" name="ARS1" netid="HI" source="ITSAK Strong Motion Network" insttype="" lat="37.6349" lon="22.7293" esm:processing="automatic (Paolucci et al 2011)" esm:quality="best">
		<comp name="--.HNE" depth="0.0">
			<acc value="0.118500980887351" flag="0"/>
			<vel value="0.0938557935110558" flag="0"/>
			<psa03 value="0.305165153193677" flag="0"/>
			<psa10 value="0.142575009894753" flag="0"/>
			<psa30 value="0.00990317937037523" flag="0"/>
		</comp>
		<comp name="--.HNN" depth="0.0">
			<acc value="0.139324658847137" flag="0"/>
			<vel value="0.0855864500849067" flag="0"/>
			<psa03 value="0.419961737070652" flag="0"/>
			<psa10 value="0.180910814453563" flag="0"/>
			<psa30 value="0.010284640473616" flag="0"/>
		</comp>
		<comp name="--.HNZ" depth="0.0">
			<acc value="0.0699403285132413" flag="0"/>
			<vel value="0.0445559730651976" flag="0"/>
			<psa03 value="0.242584570037009" flag="0"/>
			<psa10 value="0.0440069152422894" flag="0"/>
			<psa30 value="0.00825207749295668" flag="0"/>
		</comp>
	</station>
	<station code="ATH5" name="ATH5" netid="HI" source="ITSAK Strong Motion Network" insttype="" lat="37.975421" lon="23.737098" esm:processing="manual (Paolucci et al 2011)" esm:quality="good">
		<comp name="--.HNE" depth="0.0">
			<acc value="0.0120521062409155" flag="0"/>
			<vel value="0.0191024526159565" flag="0"/>
			<psa03 value="0.0494686885161678" flag="0"/>
			<psa10 value="0.0334402490023802" flag="0"/>
			<psa30 value="0.00314944696873833" flag="0"/>
		</comp>
		<comp name="--.HNN" depth="0.0">
			<acc value="0.0132675244609349" flag="0"/>
			<vel value="0.0169160515334207" flag="0"/>
			<psa03 value="0.0425701247493413" flag="0"/>
			<psa10 value="0.0263170158731444" flag="0"/>
			<psa30 value="0.00509658720722306" flag="0"/>
		</comp>
		<comp name="--.HNZ" depth="0.0">
			<acc value="0.00792222217221417" flag="0"/>
			<vel value="0.00983066408728041" flag="0"/>
			<psa03 value="0.0182910684643512" flag="0"/>
			<psa10 value="0.0134540922050793" flag="0"/>
			<psa30 value="0.00332095083002744" flag="0"/>
		</comp>
	</station>
	<station code="CH01" name="CH01" netid="HI" source="ITSAK Strong Motion Network" insttype="" lat="35.517" lon="24.0208" esm:processing="automatic (Paolucci et al 2011)" esm:quality="best">
		<comp name="--.HNE" depth="0.0">
			<acc value="0.0142775041074486" flag="0"/>
			<vel value="0.0323956497091461" flag="0"/>
			<psa03 value="0.0323090205223761" flag="0"/>
			<psa10 value="0.0376324454648396" flag="0"/>
			<psa30 value="0.00696837578738182" flag="0"/>
		</comp>
		<comp name="--.HNN" depth="0.0">
			<acc value="0.0158532226058905" flag="0"/>
			<vel value="0.0226722242611726" flag="0"/>
			<psa03 value="0.0307333041597238" flag="0"/>
			<psa10 value="0.045076024815537" flag="0"/>
			<psa30 value="0.00722491861540373" flag="0"/>
		</comp>
		<comp name="--.HNZ" depth="0.0">
			<acc value="0.0107874064976641" flag="0"/>
			<vel value="0.0167429209427012" flag="0"/>
			<psa03 value="0.0181426914476183" flag="0"/>
			<psa10 value="0.034722545198191" flag="0"/>
			<psa30 value="0.00354165420054042" flag="0"/>
		</comp>
	</station>
	<station code="CH03" name="CH03" netid="HI" source="ITSAK Strong Motion Network" insttype="" lat="35.53303" lon="24.0705" esm:processing="automatic (Paolucci et al 2011)" esm:quality="best">
		<comp name="--.HNE" depth="0.0">
			<acc value="0.0128632141900304" flag="0"/>
			<vel value="0.0161586813044409" flag="0"/>
			<psa03 value="0.0229663521372779" flag="0"/>
			<psa10 value="0.0282892471488047" flag="0"/>
			<psa30 value="0.00528585849553323" flag="0"/>
		</comp>
		<comp name="--.HNN" depth="0.0">
			<acc value="0.013158939369464" flag="0"/>
			<vel value="0.0156977908044607" flag="0"/>
			<psa03 value="0.0325623367824987" flag="0"/>
			<psa10 value="0.0302297606982686" flag="0"/>
			<psa30 value="0.00457979838916102" flag="0"/>
		</comp>
		<comp name="--.HNZ" depth="0.0">
			<acc value="0.00821384051969768" flag="0"/>
			<vel value="0.011692674720457" flag="0"/>
			<psa03 value="0.0170632149896623" flag="0"/>
			<psa10 value="0.0190305081777751" flag="0"/>
			<psa30 value="0.00293973661812525" flag="0"/>
		</comp>
	</station>
	<station code="FRS1" name="FRS1" netid="HI" source="ITSAK Strong Motion Network" insttype="" lat="39.2934" lon="22.3844" esm:processing="manual (Paolucci et al 2011)" esm:quality="good">
		<comp name="--.HNE" depth="0.0">
			<acc value="0.00226696525283768" flag="0"/>
			<vel value="0.00463338378852031" flag="0"/>
			<psa03 value="0.00628341494331926" flag="0"/>
			<psa10 value="0.00478736604575536" flag="0"/>
			<psa30 value="0.00151203662333894" flag="0"/>
		</comp>
		<comp name="--.HNN" depth="0.0">
			<acc value="0.00308412729005158" flag="0"/>
			<vel value="0.00359716499951342" flag="0"/>
			<psa03 value="0.00600011167065949" flag="0"/>
			<psa10 value="0.00540842640670626" flag="0"/>
			<psa30 value="0.00148510150568625" flag="0"/>
		</comp>
		<comp name="--.HNZ" depth="0.0">
			<acc value="0.00219181963261109" flag="0"/>
			<vel value="0.00249280623056041" flag="0"/>
			<psa03 value="0.00576325222988399" flag="0"/>
