<?xml version="1.0" encoding="UTF-8" standalone="yes"?>
<!DOCTYPE earthquake SYSTEM "stationlist.dtd">
<stationlist created="" xmlns="ch.ethz.sed.shakemap.usgs.xml">
  <station code="RP05B" name="RP05B" netid="5B" insttype="Compact" commtype="DIG" lat="37.6182" lon="21.6541">
    <comp name="--.HHE">
      <acc value="2.7821189660" flag="0"/>
      <vel value="1.2709217103" flag="0"/>
      <psa03 value="4.1129061799" flag="0"/>
      <psa10 value="1.6814373868" flag="0"/>
      <psa30 value="0.2067240065" flag="0"/>
    </comp>
    <comp name="--.HHZ">
      <acc value="1.7513187626" flag="0"/>
      <vel value="0.4444006137" flag="0"/>
      <psa03 value="2.2251355443" flag="0"/>
      <psa10 value="0.4170513788" flag="0"/>
      <psa30 value="0.0466029815" flag="0"/>
    </comp>
    <comp name="--.HHN">
      <acc value="2.4283232796" flag="0"/>
      <vel value="1.5151334235" flag="0"/>
      <psa03 value="4.8473236462" flag="0"/>
      <psa10 value="1.3134847998" flag="0"/>
      <psa30 value="0.1738485598" flag="0"/>
    </comp>
  </station>
  <station code="AGRP" name="AGRP" netid="CL" insttype="CMG40-T" commtype="DIG" lat="38.3959" lon="21.7228">
    <comp name="00.HHZ">
      <acc value="0.0127754958" flag="0"/>
      <vel value="0.0111014231" flag="0"/>
      <psa03 value="0.0270187497" flag="0"/>
      <psa10 value="0.0206589750" flag="0"/>
      <psa30 value="0.0020683350" flag="0"/>
    </comp>
    <comp name="00.HHN">
      <acc value="0.0255368378" flag="0"/>
      <vel value="0.0165749003" flag="0"/>
      <psa03 value="0.0547671999" flag="0"/>
      <psa10 value="0.0197416021" flag="0"/>
      <psa30 value="0.0035307292" flag="0"/>
    </comp>
    <comp name="00.HHE">
      <acc value="0.0186481459" flag="0"/>
      <vel value="0.0170523863" flag="0"/>
      <psa03 value="0.0598649239" flag="0"/>
      <psa10 value="0.0155563840" flag="0"/>
      <psa30 value="0.0051279985" flag="0"/>
    </comp>
  </station>
  <station code="ALIK" name="ALIK" netid="CL" insttype="TRILLIUM-40" commtype="DIG" lat="38.2605" lon="22.1114">
    <comp name="02.HHZ">
      <acc value="0.0315598282" flag="0"/>
      <vel value="0.0172283500" flag="0"/>
      <psa03 value="0.1162840079" flag="0"/>
      <psa10 value="0.0325044764" flag="0"/>
      <psa30 value="0.0036578831" flag="0"/>
    </comp>
    <comp name="02.HHE">
      <acc value="0.0952934124" flag="0"/>
      <vel value="0.0579510116" flag="0"/>
      <psa03 value="0.2812274023" flag="0"/>
      <psa10 value="0.0685391368" flag="0"/>
      <psa30 value="0.0085372756" flag="0"/>
    </comp>
    <comp name="02.HHN">
      <acc value="0.0521167668" flag="0"/>
      <vel value="0.0318201070" flag="0"/>
      <psa03 value="0.1373828213" flag="0"/>
      <psa10 value="0.0396295697" flag="0"/>
      <psa30 value="0.0045715127" flag="0"/>
    </comp>
  </station>
  <station code="MALA" name="MALA" netid="CL" insttype="TRILLIUM-40" commtype="DIG" lat="38.3934" lon="21.8726">
    <comp name="01.HHN">
      <acc value="0.0461976191" flag="0"/>
      <vel value="0.0349453585" flag="0"/>
      <psa03 value="0.0987857985" flag="0"/>
      <psa10 value="0.0718631933" flag="0"/>
      <psa30 value="0.0102288058" flag="0"/>
    </comp>
    <comp name="01.HHZ">
      <acc value="0.0198322680" flag="0"/>
      <vel value="0.0188552926" flag="0"/>
      <psa03 value="0.0465480419" flag="0"/>
      <psa10 value="0.0246276728" flag="0"/>
      <psa30 value="0.0040810465" flag="0"/>
    </comp>
    <comp name="01.HHE">
      <acc value="0.0576944311" flag="0"/>
      <vel value="0.0530445425" flag="0"/>
      <psa03 value="0.1222101451" flag="0"/>
      <psa10 value="0.0727360556" flag="0"/>
      <psa30 value="0.0155306497" flag="0"/>
    </comp>
  </station>
  <station code="MG06" name="MG06" netid="CL" insttype="TRILLIUM-40" commtype="DIG" lat="38.4129" lon="21.9462">
    <comp name="06.HHE">
      <acc value="0.0258721891" flag="0"/>
      <vel value="0.0160602172" flag="0"/>
      <psa03 value="0.0651010563" flag="0"/>
      <psa10 value="0.0250305292" flag="0"/>
      <psa30 value="0.0036454266" flag="0"/>
    </comp>
    <comp name="06.HHZ">
      <acc value="0.0151062152" flag="0"/>
      <vel value="0.0085010236" flag="0"/>
      <psa03 value="0.0329996374" flag="0"/>
      <psa10 value="0.0099643847" flag="0"/>
      <psa30 value="0.0018181197" flag="0"/>
    </comp>
    <comp name="06.HHN">
      <acc value="0.0238961072" flag="0"/>
      <vel value="0.0165357263" flag="0"/>
      <psa03 value="0.0478009085" flag="0"/>
      <psa10 value="0.0186059183" flag="0"/>
      <psa30 value="0.0036018060" flag="0"/>
    </comp>
  </station>
  <station code="PANR" name="PANR" netid="CL" insttype="TRILLIUM-40" commtype="DIG" lat="38.3735" lon="22.2497">
    <comp name="01.HHE">
      <acc value="0.0117458438" flag="0"/>
      <vel value="0.0135513185" flag="0"/>
      <psa03 value="0.0310508206" flag="0"/>
      <psa10 value="0.0181917565" flag="0"/>
      <psa30 value="0.0027976153" flag="0"/>
    </comp>
    <comp name="01.HHN">
      <acc value="0.0127620632" flag="0"/>
      <vel value="0.0164388204" flag="0"/>
      <psa03 value="0.0301489225" flag="0"/>
      <psa10 value="0.0183923687" flag="0"/>
      <psa30 value="0.0037146887" flag="0"/>
    </comp>
    <comp name="01.HHZ">
      <acc value="0.0069140324" flag="0"/>
      <vel value="0.0083681251" flag="0"/>
      <psa03 value="0.0182520221" flag="0"/>
      <psa10 value="0.0123261954" flag="0"/>
      <psa30 value="0.0024210549" flag="0"/>
    </comp>
  </station>
  <station code="PSAM" name="PSAM" netid="CL" insttype="CMG40-T" commtype="DIG" lat="38.3218" lon="22.1842">
    <comp name="00.HHE">
      <acc value="0.0216751740" flag="0"/>
      <vel value="0.0224514037" flag="0"/>
      <psa03 value="0.0610485296" flag="0"/>
      <psa10 value="0.0432552105" flag="0"/>
      <psa30 value="0.0036414027" flag="0"/>
    </comp>
    <comp name="00.HHN">
      <acc value="0.0177988355" flag="0"/>
      <vel value="0.0186873271" flag="0"/>
      <psa03 value="0.0556121177" flag="0"/>
      <psa10 value="0.0295577448" flag="0"/>
      <psa30 value="0.0044959365" flag="0"/>
    </comp>
    <comp name="00.HHZ">
      <acc value="0.0148006741" flag="0"/>
      <vel value="0.0112578999" flag="0"/>
      <psa03 value="0.0330386950" flag="0"/>
      <psa10 value="0.0158910500" flag="0"/>
      <psa30 value="0.0020576429" flag="0"/>
    </comp>
  </station>
  <station code="ZIRI" name="ZIRI" netid="CL" insttype="TRILLIUM-40" commtype="DIG" lat="38.3051" lon="21.9476">
    <comp name="01.HHE">
      <acc value="0.1046434863" flag="0"/>
      <vel value="0.0705913062" flag="0"/>
      <psa03 value="0.3139811529" flag="0"/>
      <psa10 value="0.0460427694" flag="0"/>
      <psa30 value="0.0041169667" flag="0"/>
    </comp>
    <comp name="01.HHZ">
      <acc value="0.0655394471" flag="0"/>
      <vel value="0.0246890364" flag="0"/>
      <psa03 value="0.1262523687" flag="0"/>
      <psa10 value="0.0207402009" flag="0"/>
      <psa30 value="0.0026815006" flag="0"/>
    </comp>
    <comp name="01.HHN">
      <acc value="0.0874348312" flag="0"/>
      <vel value="0.0422590655" flag="0"/>
      <psa03 value="0.3440289933" flag="0"/>
      <psa10 value="0.0337455534" flag="0"/>
      <psa30 value="0.0038669200" flag="0"/>
    </comp>
  </station>
  <station code="ACOR" name="ACOR" netid="HA" insttype="Horizon,120s,1200" commtype="DIG" lat="37.8905" lon="22.8694">
    <comp name="--.HHN">
      <acc value="0.0328396772" flag="0"/>
      <vel value="0.0379709369" flag="0"/>
      <psa03 value="0.0589791952" flag="0"/>
      <psa10 value="0.0341932850" flag="0"/>
      <psa30 value="0.0083302609" flag="0"/>
    </comp>
    <comp name="--.HHE">
      <acc value="0.0385421866" flag="0"/>
      <vel value="0.0247632238" flag="0"/>
      <psa03 value="0.0936910630" flag="0"/>
      <psa10 value="0.0314558756" flag="0"/>
      <psa30 value="0.0051580008" flag="0"/>
    </comp>
    <comp name="--.HHZ">
      <acc value="0.0245157058" flag="0"/>
      <vel value="0.0221854389" flag="0"/>
      <psa03 value="0.0628641682" flag="0"/>
      <psa10 value="0.0308424047" flag="0"/>
      <psa30 value="0.0035364061" flag="0"/>
    </comp>
  </station>
  <station code="ANTK" name="ANTK" netid="HA" insttype="25" commtype="DIG" lat="38.3605" lon="22.6385">
    <comp name="--.HHE">
      <acc value="0.0045389709" flag="0"/>
      <vel value="0.0055823149" flag="0"/>
      <psa03 value="0.0116860715" flag="0"/>
      <psa10 value="0.0079323031" flag="0"/>
      <psa30 value="0.0010742501" flag="0"/>
    </comp>
    <comp name="--.HHN">
      <acc value="0.0075350040" flag="0"/>
      <vel value="0.0071836708" flag="0"/>
      <psa03 value="0.0207652895" flag="0"/>
      <psa10 value="0.0087673924" flag="0"/>
      <psa30 value="0.0022282666" flag="0"/>
    </comp>
    <comp name="--.HHZ">
      <acc value="0.0044242645" flag="0"/>
      <vel value="0.0034736158" flag="0"/>
      <psa03 value="0.0139346037" flag="0"/>
      <psa10 value="0.0070288753" flag="0"/>
      <psa30 value="0.0009727213" flag="0"/>
    </comp>
  </station>
  <station code="DOMV" name="DOMV" netid="HA" insttype="60" commtype="DIG" lat="38.2569" lon="22.9795">
    <comp name="--.HHN">
      <acc value="0.0395708619" flag="0"/>
      <vel value="0.0214948479" flag="0"/>
      <psa03 value="0.0966845109" flag="0"/>
      <psa10 value="0.0225795472" flag="0"/>
      <psa30 value="0.0067642299" flag="0"/>
    </comp>
    <comp name="--.HHE">
      <acc value="0.0356160016" flag="0"/>
      <vel value="0.0224911241" flag="0"/>
      <psa03 value="0.1139693157" flag="0"/>
      <psa10 value="0.0241583259" flag="0"/>
      <psa30 value="0.0036633167" flag="0"/>
    </comp>
    <comp name="--.HHZ">
      <acc value="0.0236621889" flag="0"/>
      <vel value="0.0181023642" flag="0"/>
      <psa03 value="0.0569199312" flag="0"/>
      <psa10 value="0.0270263380" flag="0"/>
      <psa30 value="0.0028272707" flag="0"/>
    </comp>
  </station>
  <station code="EPID" name="EPID" netid="HA" insttype="30" commtype="DIG" lat="37.6144" lon="23.1189">
    <comp name="--.HHN">
      <acc value="0.0565625837" flag="0"/>
      <vel value="0.0389065941" flag="0"/>
      <psa03 value="0.1245147714" flag="0"/>
      <psa10 value="0.0514590126" flag="0"/>
      <psa30 value="0.0057219186" flag="0"/>
    </comp>
    <comp name="--.HHE">
      <acc value="0.0607896869" flag="0"/>
      <vel value="0.0317977328" flag="0"/>
      <psa03 value="0.1289421081" flag="0"/>
      <psa10 value="0.0352689971" flag="0"/>
      <psa30 value="0.0036238594" flag="0"/>
    </comp>
    <comp name="--.HHZ">
      <acc value="0.0354583726" flag="0"/>
      <vel value="0.0238430149" flag="0"/>
      <psa03 value="0.0652512800" flag="0"/>
      <psa10 value="0.0406504719" flag="0"/>
      <psa30 value="0.0035989092" flag="0"/>
    </comp>
  </station>
  <station code="HAVD" name="HAVD" netid="HA" insttype="GEOtiny," commtype="DIG" lat="38.2036" lon="20.3848">
    <comp name="--.HHZ">
      <acc value="0.0121803752" flag="0"/>
      <vel value="0.0099338719" flag="0"/>
      <psa03 value="0.0355101474" flag="0"/>
      <psa10 value="0.0114166024" flag="0"/>
      <psa30 value="0.0027006388" flag="0"/>
    </comp>
    <comp name="--.HHN">
      <acc value="0.0186447684" flag="0"/>
      <vel value="0.0183170085" flag="0"/>
      <psa03 value="0.0469365325" flag="0"/>
      <psa10 value="0.0379834788" flag="0"/>
      <psa30 value="0.0040302315" flag="0"/>
    </comp>
    <comp name="--.HHE">
      <acc value="0.0139337445" flag="0"/>
      <vel value="0.0149632949" flag="0"/>
      <psa03 value="0.0377708466" flag="0"/>
      <psa10 value="0.0288991027" flag="0"/>
      <psa30 value="0.0033288479" flag="0"/>
    </comp>
  </station>
  <station code="KALE" name="KALE" netid="HA" insttype="40," commtype="DIG" lat="38.3911" lon="22.1398">
    <comp name="--.HHE">
      <acc value="0.0295331251" flag="0"/>
      <vel value="0.0215633156" flag="0"/>
      <psa03 value="0.0909007942" flag="0"/>
      <psa10 value="0.0244800027" flag="0"/>
      <psa30 value="0.0034705756" flag="0"/>
    </comp>
    <comp name="--.HHN">
      <acc value="0.0306439532" flag="0"/>
      <vel value="0.0193738665" flag="0"/>
      <psa03 value="0.0807576591" flag="0"/>
      <psa10 value="0.0229248259" flag="0"/>
      <psa30 value="0.0028479415" flag="0"/>
    </comp>
    <comp name="--.HHZ">
      <acc value="0.0137428277" flag="0"/>
      <vel value="0.0092231821" flag="0"/>
      <psa03 value="0.0393443388" flag="0"/>
      <psa10 value="0.0128999626" flag="0"/>
      <psa30 value="0.0025734787" flag="0"/>
    </comp>
  </station>
  <station code="KIAS" name="KIAS" netid="HA" insttype="DC" commtype="DIG" lat="37.9875" lon="22.7543">
    <comp name="--.HNE">
      <acc value="0.0992426651" flag="0"/>
      <vel value="0.0806740378" flag="0"/>
      <psa03 value="0.2668384435" flag="0"/>
      <psa10 value="0.1560243271" flag="0"/>
      <psa30 value="0.0237990669" flag="0"/>
    </comp>
    <comp name="--.HNZ">
      <acc value="0.0422488009" flag="0"/>
      <vel value="0.0432332996" flag="0"/>
      <psa03 value="0.1307963301" flag="0"/>
      <psa10 value="0.0856718986" flag="0"/>
      <psa30 value="0.0151140819" flag="0"/>
    </comp>
    <comp name="--.HNN">
      <acc value="0.1326953556" flag="0"/>
      <vel value="0.0657735492" flag="0"/>
      <psa03 value="0.3021685253" flag="0"/>
      <psa10 value="0.1138693105" flag="0"/>
      <psa30 value="0.0203349236" flag="0"/>
    </comp>
  </station>
  <station code="LAKA" name="LAKA" netid="HA" insttype="120s," commtype="DIG" lat="38.2401" lon="21.9785">
    <comp name="--.HHE">
      <acc value="0.0233302924" flag="0"/>
      <vel value="0.0168620420" flag="0"/>
      <psa03 value="0.0429764137" flag="0"/>
      <psa10 value="0.0244144057" flag="0"/>
      <psa30 value="0.0043699034" flag="0"/>
    </comp>
    <comp name="--.HHN">
      <acc value="0.0274379503" flag="0"/>
      <vel value="0.0187392508" flag="0"/>
      <psa03 value="0.0601784304" flag="0"/>
      <psa10 value="0.0208326471" flag="0"/>
      <psa30 value="0.0047862518" flag="0"/>
    </comp>
    <comp name="--.HHZ">
      <acc value="0.0155599933" flag="0"/>
      <vel value="0.0123199789" flag="0"/>
      <psa03 value="0.0388979228" flag="0"/>
      <psa10 value="0.0155615154" flag="0"/>
      <psa30 value="0.0024357811" flag="0"/>
    </comp>
  </station>
  <station code="LOUT" name="LOUT" netid="HA" insttype="30" commtype="DIG" lat="37.9879" lon="22.9743">
    <comp name="--.HHE">
      <acc value="0.0602403780" flag="0"/>
      <vel value="0.0510196994" flag="0"/>
      <psa03 value="0.1683964364" flag="0"/>
      <psa10 value="0.0758556056" flag="0"/>
      <psa30 value="0.0083325812" flag="0"/>
    </comp>
    <comp name="--.HHZ">
      <acc value="0.0230280164" flag="0"/>
      <vel value="0.0167308967" flag="0"/>
      <psa03 value="0.0829232694" flag="0"/>
      <psa10 value="0.0262838404" flag="0"/>
      <psa30 value="0.0025523115" flag="0"/>
    </comp>
    <comp name="--.HHN">
      <acc value="0.0416530513" flag="0"/>
      <vel value="0.0419414389" flag="0"/>
      <psa03 value="0.1075353890" flag="0"/>
      <psa10 value="0.1132334782" flag="0"/>
      <psa30 value="0.0041309371" flag="0"/>
    </comp>
  </station>
  <station code="PRDM" name="PRDM" netid="HA" insttype="25" commtype="DIG" lat="38.2804" lon="22.847">
    <comp name="--.HHE">
      <acc value="0.0100204318" flag="0"/>
      <vel value="0.0098162266" flag="0"/>
      <psa03 value="0.0232442178" flag="0"/>
      <psa10 value="0.0153736097" flag="0"/>
      <psa30 value="0.0020578350" flag="0"/>
    </comp>
    <comp name="--.HHN">
      <acc value="0.0108442432" flag="0"/>
      <vel value="0.0078067211" flag="0"/>
      <psa03 value="0.0215979373" flag="0"/>
      <psa10 value="0.0126990837" flag="0"/>
      <psa30 value="0.0023293465" flag="0"/>
    </comp>
    <comp name="--.HHZ">
      <acc value="0.0059561092" flag="0"/>
      <vel value="0.0052733629" flag="0"/>
      <psa03 value="0.0160674296" flag="0"/>
      <psa10 value="0.0094916250" flag="0"/>
      <psa30 value="0.0015219318" flag="0"/>
    </comp>
  </station>
  <station code="THAL" name="THAL" netid="HA" insttype="30" commtype="DIG" lat="38.0357" lon="22.6634">
    <comp name="--.HHE">
      <acc value="0.1392756476" flag="0"/>
      <vel value="0.0799971478" flag="0"/>
      <psa03 value="0.4271250874" flag="0"/>
      <psa10 value="0.1335163958" flag="0"/>
      <psa30 value="0.0169112394" flag="0"/>
    </comp>
    <comp name="--.HHN">
      <acc value="0.1261319648" flag="0"/>
      <vel value="0.0716778133" flag="0"/>
      <psa03 value="0.3169799648" flag="0"/>
      <psa10 value="0.0910548921" flag="0"/>
      <psa30 value="0.0140309448" flag="0"/>
    </comp>
    <comp name="--.HHZ">
      <acc value="0.0772210145" flag="0"/>
      <vel value="0.0433908387" flag="0"/>
      <psa03 value="0.2363995254" flag="0"/>
      <psa10 value="0.0872924039" flag="0"/>
      <psa30 value="0.0073654306" flag="0"/>
    </comp>
  </station>
  <station code="AOL1" name="AOL1" netid="HI" insttype="unknown" commtype="DIG" lat="37.6424" lon="21.6246">
    <comp name="--.HNE">
      <acc value="1.6936229081" flag="0"/>
      <vel value="0.6678983949" flag="0"/>
      <psa03 value="3.0714899176" flag="0"/>
      <psa10 value="0.4350602440" flag="0"/>
      <psa30 value="0.1450191911" flag="0"/>
    </comp>
    <comp name="--.HNN">
      <acc value="1.1562468128" flag="0"/>
      <vel value="0.3850361786" flag="0"/>
      <psa03 value="1.4698511462" flag="0"/>
      <psa10 value="0.6512116688" flag="0"/>
      <psa30 value="0.0658710126" flag="0"/>
    </comp>
    <comp name="--.HNZ">
      <acc value="0.9678325102" flag="0"/>
      <vel value="0.2423309448" flag="0"/>
      <psa03 value="1.1311454441" flag="0"/>
      <psa10 value="0.2058572398" flag="0"/>
      <psa30 value="0.0227023561" flag="0"/>
    </comp>
  </station>
  <station code="ARS1" name="ARS1" netid="HI" insttype="CMG-5TD,ACCELEROMETER,GURALP" commtype="DIG" lat="37.6349" lon="22.7293">
    <comp name="--.HNE">
      <acc value="0.1180192504" flag="0"/>
      <vel value="0.0937385323" flag="0"/>
      <psa03 value="0.2941969206" flag="0"/>
      <psa10 value="0.1421163661" flag="0"/>
      <psa30 value="0.0094680209" flag="0"/>
    </comp>
    <comp name="--.HNZ">
      <acc value="0.0693611790" flag="0"/>
      <vel value="0.0438995359" flag="0"/>
      <psa03 value="0.2429711952" flag="0"/>
      <psa10 value="0.0438410416" flag="0"/>
      <psa30 value="0.0075076198" flag="0"/>
    </comp>
    <comp name="--.HNN">
      <acc value="0.1387343729" flag="0"/>
      <vel value="0.0797978327" flag="0"/>
      <psa03 value="0.4062633697" flag="0"/>
      <psa10 value="0.1809916725" flag="0"/>
      <psa30 value="0.0090654402" flag="0"/>
    </comp>
  </station>
  <station code="GTH2" name="GTH2" netid="HI" insttype="unknown" commtype="DIG" lat="36.7603" lon="22.5659">
    <comp name="--.HNE">
      <acc value="0.4202892654" flag="0"/>
      <vel value="0.2921706333" flag="0"/>
      <psa03 value="1.0102975027" flag="0"/>
      <psa10 value="0.3952856835" flag="0"/>
      <psa30 value="0.0282498748" flag="0"/>
    </comp>
    <comp name="--.HNN">
      <acc value="0.3650399830" flag="0"/>
      <vel value="0.2632057356" flag="0"/>
      <psa03 value="1.3277398482" flag="0"/>
      <psa10 value="0.3180153048" flag="0"/>
      <psa30 value="0.0168309590" flag="0"/>
    </comp>
    <comp name="--.HNZ">
      <acc value="0.2304916527" flag="0"/>
      <vel value="0.1102331772" flag="0"/>
      <psa03 value="0.3363093115" flag="0"/>
      <psa10 value="0.1402952937" flag="0"/>
      <psa30 value="0.0119957712" flag="0"/>
    </comp>
  </station>
  <station code="KOR2" name="KOR2" netid="HI" insttype="unknown" commtype="DIG" lat="37.9401" lon="22.9495">
