<?xml version="1.0" encoding="UTF-8" standalone="yes"?>
<!DOCTYPE earthquake SYSTEM "stationlist.dtd">
<stationlist created="" xmlns="ch.ethz.sed.shakemap.usgs.xml">
  <station code="AGRP" name="AGRP" netid="CL" insttype="CMG40-T" commtype="DIG" lat="38.3959" lon="21.7228">
    <comp name="00.HHZ">
      <acc value="0.0127754958" flag="0"/>
      <vel value="0.0111014231" flag="0"/>
      <psa03 value="0.0270187497" flag="0"/>
      <psa10 value="0.0206589750" flag="0"/>
      <psa30 value="0.0020683350" flag="0"/>
    </comp>
    <comp name="00.HHN">
      <acc value="0.0255368378" flag="0"/>
      <vel value="0.0165749003" flag="0"/>
      <psa03 value="0.0547671999" flag="0"/>
      <psa10 value="0.0197416021" flag="0"/>
      <psa30 value="0.0035307292" flag="0"/>
    </comp>
    <comp name="00.HHE">
      <acc value="0.0186481459" flag="0"/>
      <vel value="0.0170523863" flag="0"/>
      <psa03 value="0.0598649239" flag="0"/>
      <psa10 value="0.0155563840" flag="0"/>
      <psa30 value="0.0051279985" flag="0"/>
    </comp>
  </station>
  <station code="ALIK" name="ALIK" netid="CL" insttype="TRILLIUM-40" commtype="DIG" lat="38.2605" lon="22.1114">
    <comp name="02.HHZ">
      <acc value="0.0315598282" flag="0"/>
      <vel value="0.0172283500" flag="0"/>
      <psa03 value="0.1162840079" flag="0"/>
      <psa10 value="0.0325044764" flag="0"/>
      <psa30 value="0.0036578831" flag="0"/>
    </comp>
    <comp name="02.HHE">
      <acc value="0.0952934124" flag="0"/>
      <vel value="0.0579510116" flag="0"/>
      <psa03 value="0.2812274023" flag="0"/>
      <psa10 value="0.0685391368" flag="0"/>
      <psa30 value="0.0085372756" flag="0"/>
    </comp>
    <comp name="02.HHN">
      <acc value="0.0521167668" flag="0"/>
      <vel value="0.0318201070" flag="0"/>
      <psa03 value="0.1373828213" flag="0"/>
      <psa10 value="0.0396295697" flag="0"/>
      <psa30 value="0.0045715127" flag="0"/>
    </comp>
  </station>
  <station code="MALA" name="MALA" netid="CL" insttype="TRILLIUM-40" commtype="DIG" lat="38.3934" lon="21.8726">
    <comp name="01.HHN">
      <acc value="0.0461976191" flag="0"/>
      <vel value="0.0349453585" flag="0"/>
      <psa03 value="0.0987857985" flag="0"/>
      <psa10 value="0.0718631933" flag="0"/>
      <psa30 value="0.0102288058" flag="0"/>
    </comp>
    <comp name="01.HHZ">
      <acc value="0.0198322680" flag="0"/>
      <vel value="0.0188552926" flag="0"/>
      <psa03 value="0.0465480419" flag="0"/>
      <psa10 value="0.0246276728" flag="0"/>
      <psa30 value="0.0040810465" flag="0"/>
    </comp>
    <comp name="01.HHE">
      <acc value="0.0576944311" flag="0"/>
      <vel value="0.0530445425" flag="0"/>
      <psa03 value="0.1222101451" flag="0"/>
      <psa10 value="0.0727360556" flag="0"/>
      <psa30 value="0.0155306497" flag="0"/>
    </comp>
  </station>
  <station code="MG06" name="MG06" netid="CL" insttype="TRILLIUM-40" commtype="DIG" lat="38.4129" lon="21.9462">
    <comp name="06.HHE">
      <acc value="0.0258721891" flag="0"/>
      <vel value="0.0160602172" flag="0"/>
      <psa03 value="0.0651010563" flag="0"/>
      <psa10 value="0.0250305292" flag="0"/>
      <psa30 value="0.0036454266" flag="0"/>
    </comp>
    <comp name="06.HHZ">
      <acc value="0.0151062152" flag="0"/>
      <vel value="0.0085010236" flag="0"/>
      <psa03 value="0.0329996374" flag="0"/>
      <psa10 value="0.0099643847" flag="0"/>
      <psa30 value="0.0018181197" flag="0"/>
    </comp>
    <comp name="06.HHN">
      <acc value="0.0238961072" flag="0"/>
      <vel value="0.0165357263" flag="0"/>
      <psa03 value="0.0478009085" flag="0"/>
      <psa10 value="0.0186059183" flag="0"/>
      <psa30 value="0.0036018060" flag="0"/>
    </comp>
  </station>
  <station code="PANR" name="PANR" netid="CL" insttype="TRILLIUM-40" commtype="DIG" lat="38.3735" lon="22.2497">
    <comp name="01.HHE">
      <acc value="0.0117458438" flag="0"/>
      <vel value="0.0135513185" flag="0"/>
      <psa03 value="0.0310508206" flag="0"/>
      <psa10 value="0.0181917565" flag="0"/>
      <psa30 value="0.0027976153" flag="0"/>
    </comp>
    <comp name="01.HHN">
      <acc value="0.0127620632" flag="0"/>
      <vel value="0.0164388204" flag="0"/>
      <psa03 value="0.0301489225" flag="0"/>
      <psa10 value="0.0183923687" flag="0"/>
      <psa30 value="0.0037146887" flag="0"/>
    </comp>
    <comp name="01.HHZ">
      <acc value="0.0069140324" flag="0"/>
      <vel value="0.0083681251" flag="0"/>
      <psa03 value="0.0182520221" flag="0"/>
      <psa10 value="0.0123261954" flag="0"/>
      <psa30 value="0.0024210549" flag="0"/>
    </comp>
  </station>
  <station code="PSAM" name="PSAM" netid="CL" insttype="CMG40-T" commtype="DIG" lat="38.3218" lon="22.1842">
    <comp name="00.HHE">
      <acc value="0.0216751740" flag="0"/>
      <vel value="0.0224514037" flag="0"/>
      <psa03 value="0.0610485296" flag="0"/>
      <psa10 value="0.0432552105" flag="0"/>
      <psa30 value="0.0036414027" flag="0"/>
    </comp>
    <comp name="00.HHN">
      <acc value="0.0177988355" flag="0"/>
      <vel value="0.0186873271" flag="0"/>
      <psa03 value="0.0556121177" flag="0"/>
      <psa10 value="0.0295577448" flag="0"/>
      <psa30 value="0.0044959365" flag="0"/>
    </comp>
    <comp name="00.HHZ">
      <acc value="0.0148006741" flag="0"/>
      <vel value="0.0112578999" flag="0"/>
      <psa03 value="0.0330386950" flag="0"/>
      <psa10 value="0.0158910500" flag="0"/>
      <psa30 value="0.0020576429" flag="0"/>
    </comp>
  </station>
  <station code="ZIRI" name="ZIRI" netid="CL" insttype="TRILLIUM-40" commtype="DIG" lat="38.3051" lon="21.9476">
    <comp name="01.HHE">
      <acc value="0.1046434863" flag="0"/>
      <vel value="0.0705913062" flag="0"/>
      <psa03 value="0.3139811529" flag="0"/>
      <psa10 value="0.0460427694" flag="0"/>
      <psa30 value="0.0041169667" flag="0"/>
    </comp>
    <comp name="01.HHZ">
      <acc value="0.0655394471" flag="0"/>
      <vel value="0.0246890364" flag="0"/>
      <psa03 value="0.1262523687" flag="0"/>
      <psa10 value="0.0207402009" flag="0"/>
      <psa30 value="0.0026815006" flag="0"/>
    </comp>
    <comp name="01.HHN">
      <acc value="0.0874348312" flag="0"/>
      <vel value="0.0422590655" flag="0"/>
      <psa03 value="0.3440289933" flag="0"/>
      <psa10 value="0.0337455534" flag="0"/>
      <psa30 value="0.0038669200" flag="0"/>
    </comp>
  </station>
  <station code="KLV" name="KLV" netid="MN" insttype="" commtype="DIG" lat="38.0437" lon="22.1504">
    <comp name="--.HHN">
      <acc value="0.0363969329" flag="0"/>
      <vel value="0.0191394416" flag="0"/>
      <psa03 value="0.0832558685" flag="0"/>
      <psa10 value="0.0362035593" flag="0"/>
      <psa30 value="0.0038103788" flag="0"/>
    </comp>
    <comp name="--.HHE">
      <acc value="0.0437209335" flag="0"/>
      <vel value="0.0215321805" flag="0"/>
      <psa03 value="0.0665451397" flag="0"/>
      <psa10 value="0.0329346516" flag="0"/>
      <psa30 value="0.0039032832" flag="0"/>
    </comp>
    <comp name="--.HHZ">
      <acc value="0.0366840644" flag="0"/>
      <vel value="0.0196049232" flag="0"/>
      <psa03 value="0.0772378681" flag="0"/>
      <psa10 value="0.0323695886" flag="0"/>
      <psa30 value="0.0043185372" flag="0"/>
    </comp>
  </station>
</stationlist>
