<stationlist created="1778136106">
	<station code="MYT1" name="MYT1" netid="HI" source="ITSAK Strong Motion Network" insttype="" lat="39.085" lon="26.5694">
		<comp name="--.HNE" depth="0.0">
			<acc value="0.0553845586516823" flag="0"/>
			<vel value="0.0176039988363769" flag="0"/>
			<psa03 value="0.0561962115125493" flag="0"/>
			<psa10 value="0.0199809746315878" flag="0"/>
			<psa30 value="0.00276104157041355" flag="0"/>
		</comp>
		<comp name="--.HNN" depth="0.0">
			<acc value="0.0285552673388194" flag="0"/>
			<vel value="0.0172826506420953" flag="0"/>
			<psa03 value="0.039686337270407" flag="0"/>
			<psa10 value="0.0269191486118832" flag="0"/>
			<psa30 value="0.00312971735294811" flag="0"/>
		</comp>
		<comp name="--.HNZ" depth="0.0">
			<acc value="0.0377187955056256" flag="0"/>
			<vel value="0.0163210498687353" flag="0"/>
			<psa03 value="0.0401337593365898" flag="0"/>
			<psa10 value="0.0169326880946849" flag="0"/>
			<psa30 value="0.00155613394618349" flag="0"/>
		</comp>
	</station>
	<station code="EFSA" name="EFSA" netid="HL" source="National Observatory of Athens Seismic Network" insttype="" lat="39.54015" lon="24.98864">
		<comp name="00.HNE" depth="0.0">
			<acc value="0.0133381562718244" flag="0"/>
			<vel value="0.0071076607240095" flag="0"/>
			<psa03 value="0.0320801621453009" flag="0"/>
			<psa10 value="0.00688582559855202" flag="0"/>
			<psa30 value="0.000691714514318481" flag="0"/>
		</comp>
		<comp name="00.HNN" depth="0.0">
			<acc value="0.0128865510547785" flag="0"/>
			<vel value="0.00705719743568322" flag="0"/>
			<psa03 value="0.0314985134592633" flag="0"/>
			<psa10 value="0.00807775798286278" flag="0"/>
			<psa30 value="0.00125412405151016" flag="0"/>
		</comp>
		<comp name="00.HNZ" depth="0.0">
			<acc value="0.00771846798257332" flag="0"/>
			<vel value="0.00486513159044456" flag="0"/>
			<psa03 value="0.0217447124164801" flag="0"/>
			<psa10 value="0.00488450669651673" flag="0"/>
			<psa30 value="0.000375834535593483" flag="0"/>
		</comp>
	</station>
	<station code="PRK" name="PRK" netid="HL" source="National Observatory of Athens Seismic Network" insttype="" lat="39.24565" lon="26.26499">
		<comp name="--.HNE" depth="0.0">
			<acc value="0.0513256384909271" flag="0"/>
			<vel value="0.0410538898769039" flag="0"/>
			<psa03 value="0.106173256305159" flag="0"/>
			<psa10 value="0.100142454275082" flag="0"/>
			<psa30 value="0.00350286735614449" flag="0"/>
		</comp>
		<comp name="--.HNN" depth="0.0">
			<acc value="0.122848567672256" flag="0"/>
			<vel value="0.059383632190717" flag="0"/>
			<psa03 value="0.15972967762723" flag="0"/>
			<psa10 value="0.0438880778939289" flag="0"/>
			<psa30 value="0.00395163168852576" flag="0"/>
		</comp>
		<comp name="--.HNZ" depth="0.0">
			<acc value="0.0499110476224979" flag="0"/>
			<vel value="0.0275169052163366" flag="0"/>
			<psa03 value="0.106173256305159" flag="0"/>
			<psa10 value="0.029198316617018" flag="0"/>
			<psa30 value="0.00190825511226929" flag="0"/>
		</comp>
	</station>
	<station code="EZNE" name="EZNE" netid="KO" source="Bogazici University Kandilli Observatory And Earthquake Research Institute (KOERI)" insttype="" lat="39.756" lon="26.3655">
		<comp name="--.HNE" depth="0.0">
			<acc value="0.204450953878381" flag="0"/>
			<vel value="0.0662372736937272" flag="0"/>
			<psa03 value="0.356282191301298" flag="0"/>
			<psa10 value="0.0828916490913412" flag="0"/>
			<psa30 value="0.00372299901270639" flag="0"/>
		</comp>
		<comp name="--.HNN" depth="0.0">
			<acc value="0.21874971210537" flag="0"/>
			<vel value="0.132814143163172" flag="0"/>
			<psa03 value="0.481336658799368" flag="0"/>
			<psa10 value="0.16467592856888" flag="0"/>
			<psa30 value="0.0105184453538895" flag="0"/>
		</comp>
		<comp name="--.HNZ" depth="0.0">
			<acc value="0.133488515142289" flag="0"/>
			<vel value="0.0465344990981146" flag="0"/>
			<psa03 value="0.251316974574832" flag="0"/>
			<psa10 value="0.0578087206390718" flag="0"/>
			<psa30 value="0.00413686442392541" flag="0"/>
		</comp>
	</station>
	<station code="GONE" name="GONE" netid="KO" source="Bogazici University Kandilli Observatory And Earthquake Research Institute (KOERI)" insttype="" lat="40.0466" lon="27.686">
		<comp name="--.HNE" depth="0.0">
			<acc value="0.0208975915425025" flag="0"/>
			<vel value="0.0180628915169863" flag="0"/>
			<psa03 value="0.028813981062167" flag="0"/>
			<psa10 value="0.0294801925187131" flag="0"/>
			<psa30 value="0.00234717615919454" flag="0"/>
		</comp>
		<comp name="--.HNN" depth="0.0">
			<acc value="0.0189087606193142" flag="0"/>
			<vel value="0.0232380110301458" flag="0"/>
			<psa03 value="0.0403574703696811" flag="0"/>
			<psa10 value="0.0326372026176983" flag="0"/>
			<psa30 value="0.00255164804344004" flag="0"/>
		</comp>
		<comp name="--.HNZ" depth="0.0">
			<acc value="0.0132106219690396" flag="0"/>
			<vel value="0.00668371467303585" flag="0"/>
			<psa03 value="0.0173599761678894" flag="0"/>
			<psa10 value="0.01499579797018" flag="0"/>
			<psa30 value="0.00145412171509383" flag="0"/>
		</comp>
	</station>
	<station code="GORD" name="GORD" netid="KO" source="Bogazici University Kandilli Observatory And Earthquake Research Institute (KOERI)" insttype="" lat="38.9088" lon="28.1769">
		<comp name="--.HNE" depth="0.0">
			<acc value="0.0102654134614934" flag="0"/>
			<vel value="0.0131684766362216" flag="0"/>
			<psa03 value="0.016465132035524" flag="0"/>
			<psa10 value="0.028698993591158" flag="0"/>
			<psa30 value="0.00212749192469882" flag="0"/>
		</comp>
		<comp name="--.HNN" depth="0.0">
			<acc value="0.00926006022073024" flag="0"/>
			<vel value="0.011015499587151" flag="0"/>
			<psa03 value="0.0111855516545679" flag="0"/>
			<psa10 value="0.0210561298566249" flag="0"/>
			<psa30 value="0.00158611122461773" flag="0"/>
		</comp>
		<comp name="--.HNZ" depth="0.0">
			<acc value="0.00542327394651216" flag="0"/>
			<vel value="0.00600273152718186" flag="0"/>
			<psa03 value="0.00885895691041781" flag="0"/>
			<psa10 value="0.0109770529717268" flag="0"/>
			<psa30 value="0.0018612757953201" flag="0"/>
		</comp>
	</station>
	<station code="SOMA" name="SOMA" netid="KO" source="Bogazici University Kandilli Observatory And Earthquake Research Institute (KOERI)" insttype="" lat="39.1564" lon="27.5341">
		<comp name="--.HNE" depth="0.0">
			<acc value="0.019080107149153" flag="0"/>
			<vel value="0.0131101033259437" flag="0"/>
			<psa03 value="0.0382545866586224" flag="0"/>
			<psa10 value="0.0209796206833076" flag="0"/>
			<psa30 value="0.00272703749338366" flag="0"/>
		</comp>
		<comp name="--.HNN" depth="0.0">
			<acc value="0.0214231219220191" flag="0"/>
			<vel value="0.0116422958529315" flag="0"/>
			<psa03 value="0.0461292150234382" flag="0"/>
			<psa10 value="0.0189621945868898" flag="0"/>
			<psa30 value="0.00155344941378639" flag="0"/>
		</comp>
		<comp name="--.HNZ" depth="0.0">
			<acc value="0.0170004983642223" flag="0"/>
			<vel value="0.00919754897237471" flag="0"/>
			<psa03 value="0.0216552280032435" flag="0"/>
			<psa10 value="0.0159340420429651" flag="0"/>
			<psa30 value="0.00187604072350413" flag="0"/>
		</comp>
	</station>
</stationlist>
