<?xml version="1.0" encoding="UTF-8" standalone="yes"?>
<!DOCTYPE earthquake SYSTEM "stationlist.dtd">
<stationlist created="" xmlns="ch.ethz.sed.shakemap.usgs.xml">
  <station code="PRK" name="PRK" netid="HL" insttype="120" lat="39.2456" lon="26.265">
    <comp name="--.HHN">
      <acc value="0.1056622556" flag="0"/>
      <vel value="0.0503310472" flag="0"/>
      <psa03 value="0.1401433960" flag="0"/>
      <psa10 value="0.0362076362" flag="0"/>
      <psa30 value="0.0029630829" flag="0"/>
    </comp>
    <comp name="--.HHE">
      <acc value="0.0615589199" flag="0"/>
      <vel value="0.0429258512" flag="0"/>
      <psa03 value="0.1123157399" flag="0"/>
      <psa10 value="0.1078713483" flag="0"/>
      <psa30 value="0.0038513439" flag="0"/>
    </comp>
    <comp name="--.HHZ">
      <acc value="0.0495196089" flag="0"/>
      <vel value="0.0281844751" flag="0"/>
      <psa03 value="0.1052916958" flag="0"/>
      <psa10 value="0.0293497420" flag="0"/>
      <psa30 value="0.0018244387" flag="0"/>
    </comp>
  </station>
  <station code="CHOS" name="CHOS" netid="HT" insttype="100" lat="38.3869" lon="26.0506">
    <comp name="--.HHN">
      <acc value="0.0531935308" flag="0"/>
      <vel value="0.0209057673" flag="0"/>
      <psa03 value="0.0394617076" flag="0"/>
      <psa10 value="0.0157752007" flag="0"/>
      <psa30 value="0.0008602397" flag="0"/>
    </comp>
    <comp name="--.HHZ">
      <acc value="0.0576986053" flag="0"/>
      <vel value="0.0152799233" flag="0"/>
      <psa03 value="0.0458744842" flag="0"/>
      <psa10 value="0.0086647630" flag="0"/>
      <psa30 value="0.0008601328" flag="0"/>
    </comp>
    <comp name="--.HHE">
      <acc value="0.0951853945" flag="0"/>
      <vel value="0.0202546658" flag="0"/>
      <psa03 value="0.0726757840" flag="0"/>
      <psa10 value="0.0147928591" flag="0"/>
      <psa30 value="0.0010120080" flag="0"/>
    </comp>
  </station>
  <station code="EZN" name="EZN" netid="KO" insttype="120s," lat="39.8255" lon="26.3247">
    <comp name="--.HHE">
      <acc value="0.0623556994" flag="0"/>
      <vel value="0.0215468670" flag="0"/>
      <psa03 value="0.0465372380" flag="0"/>
      <psa10 value="0.0207930323" flag="0"/>
      <psa30 value="0.0012359159" flag="0"/>
    </comp>
    <comp name="--.HHN">
      <acc value="0.0480499304" flag="0"/>
      <vel value="0.0296404780" flag="0"/>
      <psa03 value="0.0606011780" flag="0"/>
      <psa10 value="0.0296226425" flag="0"/>
      <psa30 value="0.0019288546" flag="0"/>
    </comp>
    <comp name="--.HHZ">
      <acc value="0.0261254430" flag="0"/>
      <vel value="0.0155161854" flag="0"/>
      <psa03 value="0.0310066882" flag="0"/>
      <psa10 value="0.0178814338" flag="0"/>
      <psa30 value="0.0011062871" flag="0"/>
    </comp>
  </station>
</stationlist>
