<?xml version="1.0" encoding="UTF-8" standalone="yes"?>
<!DOCTYPE earthquake SYSTEM "stationlist.dtd">
<stationlist created="" xmlns="ch.ethz.sed.shakemap.usgs.xml">
  <station code="MORF" name="MORF" netid="LX" insttype="REFT" lat="37.3043" lon="-8.65267">
    <comp name="--.HHE">
      <acc value="0.1068249385" flag="0"/>
      <vel value="0.0302598092" flag="0"/>
      <psa03 value="0.1270098501" flag="0"/>
      <psa10 value="0.0168804655" flag="0"/>
      <psa30 value="0.0016766063" flag="0"/>
    </comp>
    <comp name="--.HHN">
      <acc value="0.0963878753" flag="0"/>
      <vel value="0.0317613683" flag="0"/>
      <psa03 value="0.1894087675" flag="0"/>
      <psa10 value="0.0178223773" flag="0"/>
      <psa30 value="0.0021244087" flag="0"/>
    </comp>
    <comp name="--.HHZ">
      <acc value="0.0791365894" flag="0"/>
      <vel value="0.0162268283" flag="0"/>
      <psa03 value="0.0831290487" flag="0"/>
      <psa10 value="0.0058080314" flag="0"/>
      <psa30 value="0.0015695177" flag="0"/>
    </comp>
  </station>
</stationlist>
