<?xml version="1.0" encoding="UTF-8" standalone="yes"?>
<!DOCTYPE earthquake SYSTEM "stationlist.dtd">
<stationlist created="" xmlns="ch.ethz.sed.shakemap.usgs.xml">
  <station code="AOI" name="AOI" netid="IV" insttype="" lat="43.5502" lon="13.602">
    <comp name="--.HHE">
      <acc value="0.0830378182" flag="0"/>
      <vel value="0.0219012043" flag="0"/>
      <psa03 value="0.1117360562" flag="0"/>
      <psa10 value="0.0069248832" flag="0"/>
      <psa30 value="0.0015209474" flag="0"/>
    </comp>
    <comp name="--.HHN">
      <acc value="0.1142197533" flag="0"/>
      <vel value="0.0191822714" flag="0"/>
      <psa03 value="0.1111914382" flag="0"/>
      <psa10 value="0.0116295171" flag="0"/>
      <psa30 value="0.0016366566" flag="0"/>
    </comp>
    <comp name="--.HHZ">
      <acc value="0.0587401777" flag="0"/>
      <vel value="0.0139641215" flag="0"/>
      <psa03 value="0.0475976502" flag="0"/>
      <psa10 value="0.0081306548" flag="0"/>
      <psa30 value="0.0013039865" flag="0"/>
    </comp>
  </station>
  <station code="APEC" name="APEC" netid="IV" insttype="" lat="43.5585" lon="12.4199">
    <comp name="--.HHE">
      <acc value="0.0117761474" flag="0"/>
      <vel value="0.0057994483" flag="0"/>
      <psa03 value="0.0342015282" flag="0"/>
      <psa10 value="0.0068112272" flag="0"/>
      <psa30 value="0.0007271762" flag="0"/>
    </comp>
    <comp name="--.HHN">
      <acc value="0.0100354728" flag="0"/>
      <vel value="0.0068788359" flag="0"/>
      <psa03 value="0.0294217396" flag="0"/>
      <psa10 value="0.0091120495" flag="0"/>
      <psa30 value="0.0005728959" flag="0"/>
    </comp>
    <comp name="--.HHZ">
      <acc value="0.0067455674" flag="0"/>
      <vel value="0.0038509290" flag="0"/>
      <psa03 value="0.0162296125" flag="0"/>
      <psa10 value="0.0055998962" flag="0"/>
      <psa30 value="0.0008898648" flag="0"/>
    </comp>
  </station>
  <station code="ARVD" name="ARVD" netid="IV" insttype="" lat="43.4981" lon="12.9415">
    <comp name="--.HHE">
      <acc value="0.0682074134" flag="0"/>
      <vel value="0.0085812993" flag="0"/>
      <psa03 value="0.0198096026" flag="0"/>
      <psa10 value="0.0119194108" flag="0"/>
      <psa30 value="0.0008309045" flag="0"/>
    </comp>
    <comp name="--.HHN">
      <acc value="0.0491318130" flag="0"/>
      <vel value="0.0069127197" flag="0"/>
      <psa03 value="0.0191712933" flag="0"/>
      <psa10 value="0.0060702074" flag="0"/>
      <psa30 value="0.0009367302" flag="0"/>
    </comp>
    <comp name="--.HHZ">
      <acc value="0.0339043330" flag="0"/>
      <vel value="0.0073746154" flag="0"/>
      <psa03 value="0.0169897029" flag="0"/>
      <psa10 value="0.0073118233" flag="0"/>
      <psa30 value="0.0009393784" flag="0"/>
    </comp>
  </station>
  <station code="ATBU" name="ATBU" netid="IV" insttype="" lat="43.4757" lon="12.5483">
    <comp name="--.HNE">
      <acc value="0.0353429550" flag="0"/>
      <vel value="0.0169850727" flag="0"/>
      <psa03 value="0.0731240142" flag="0"/>
      <psa10 value="0.0113823484" flag="0"/>
      <psa30 value="0.0025532530" flag="0"/>
    </comp>
    <comp name="--.HNN">
      <acc value="0.0285405841" flag="0"/>
      <vel value="0.0181340739" flag="0"/>
      <psa03 value="0.0918356920" flag="0"/>
      <psa10 value="0.0168725879" flag="0"/>
      <psa30 value="0.0013420888" flag="0"/>
    </comp>
    <comp name="--.HNZ">
      <acc value="0.0093776167" flag="0"/>
      <vel value="0.0060599238" flag="0"/>
      <psa03 value="0.0182078357" flag="0"/>
      <psa10 value="0.0094916000" flag="0"/>
      <psa30 value="0.0020972916" flag="0"/>
    </comp>
  </station>
  <station code="ATCC" name="ATCC" netid="IV" insttype="" lat="43.1851" lon="12.6399">
    <comp name="--.HNE">
      <acc value="0.0360721027" flag="0"/>
      <vel value="0.0135591847" flag="0"/>
      <psa03 value="0.0841969110" flag="0"/>
      <psa10 value="0.0199998863" flag="0"/>
      <psa30 value="0.0030539888" flag="0"/>
    </comp>
    <comp name="--.HNN">
      <acc value="0.0268365781" flag="0"/>
      <vel value="0.0149977442" flag="0"/>
      <psa03 value="0.0817972887" flag="0"/>
      <psa10 value="0.0126679415" flag="0"/>
      <psa30 value="0.0013421142" flag="0"/>
    </comp>
    <comp name="--.HNZ">
      <acc value="0.0165083752" flag="0"/>
      <vel value="0.0121535014" flag="0"/>
      <psa03 value="0.0655711086" flag="0"/>
      <psa10 value="0.0097618553" flag="0"/>
      <psa30 value="0.0025207193" flag="0"/>
    </comp>
  </station>
  <station code="ATFO" name="ATFO" netid="IV" insttype="" lat="43.3666" lon="12.5715">
    <comp name="--.HHE">
      <acc value="0.0278470039" flag="0"/>
      <vel value="0.0140022611" flag="0"/>
      <psa03 value="0.0541874132" flag="0"/>
      <psa10 value="0.0110328625" flag="0"/>
      <psa30 value="0.0029135250" flag="0"/>
    </comp>
    <comp name="--.HHN">
      <acc value="0.0242172002" flag="0"/>
      <vel value="0.0140525554" flag="0"/>
      <psa03 value="0.0697003353" flag="0"/>
      <psa10 value="0.0070481802" flag="0"/>
      <psa30 value="0.0016966241" flag="0"/>
    </comp>
    <comp name="--.HHZ">
      <acc value="0.0108619186" flag="0"/>
      <vel value="0.0083116646" flag="0"/>
      <psa03 value="0.0206232249" flag="0"/>
      <psa10 value="0.0077557816" flag="0"/>
      <psa30 value="0.0018498712" flag="0"/>
    </comp>
  </station>
  <station code="ATMI" name="ATMI" netid="IV" insttype="" lat="43.3342" lon="12.268">
    <comp name="--.HHN">
      <acc value="0.0110741770" flag="0"/>
      <vel value="0.0077676759" flag="0"/>
      <psa03 value="0.0231570761" flag="0"/>
      <psa10 value="0.0081561602" flag="0"/>
      <psa30 value="0.0019702261" flag="0"/>
    </comp>
    <comp name="--.HHE">
      <acc value="0.0108469589" flag="0"/>
      <vel value="0.0065409275" flag="0"/>
      <psa03 value="0.0397093252" flag="0"/>
      <psa10 value="0.0081936810" flag="0"/>
      <psa30 value="0.0022376428" flag="0"/>
    </comp>
    <comp name="--.HHZ">
      <acc value="0.0056829414" flag="0"/>
      <vel value="0.0027821497" flag="0"/>
      <psa03 value="0.0136435511" flag="0"/>
      <psa10 value="0.0025562961" flag="0"/>
      <psa30 value="0.0011218272" flag="0"/>
    </comp>
  </station>
  <station code="ATPC" name="ATPC" netid="IV" insttype="" lat="43.4807" lon="12.457">
    <comp name="--.HHE">
      <acc value="0.0193138440" flag="0"/>
      <vel value="0.0089008977" flag="0"/>
      <psa03 value="0.0318586765" flag="0"/>
      <psa10 value="0.0123393181" flag="0"/>
      <psa30 value="0.0018554591" flag="0"/>
    </comp>
    <comp name="--.HHN">
      <acc value="0.0190414400" flag="0"/>
      <vel value="0.0102828796" flag="0"/>
      <psa03 value="0.0353934136" flag="0"/>
      <psa10 value="0.0083345367" flag="0"/>
      <psa30 value="0.0008749218" flag="0"/>
    </comp>
    <comp name="--.HHZ">
      <acc value="0.0096678799" flag="0"/>
      <vel value="0.0055244928" flag="0"/>
      <psa03 value="0.0198124092" flag="0"/>
      <psa10 value="0.0110986152" flag="0"/>
      <psa30 value="0.0020930736" flag="0"/>
    </comp>
  </station>
  <station code="ATVO" name="ATVO" netid="IV" insttype="" lat="43.3821" lon="12.4066">
    <comp name="--.HHE">
      <acc value="0.0108472555" flag="0"/>
      <vel value="0.0067871298" flag="0"/>
      <psa03 value="0.0426847454" flag="0"/>
      <psa10 value="0.0065015140" flag="0"/>
      <psa30 value="0.0012457034" flag="0"/>
    </comp>
    <comp name="--.HHN">
      <acc value="0.0108864666" flag="0"/>
      <vel value="0.0068467203" flag="0"/>
      <psa03 value="0.0301736780" flag="0"/>
      <psa10 value="0.0055682913" flag="0"/>
      <psa30 value="0.0010710409" flag="0"/>
    </comp>
    <comp name="--.HHZ">
      <acc value="0.0054906669" flag="0"/>
      <vel value="0.0030487292" flag="0"/>
      <psa03 value="0.0132895957" flag="0"/>
      <psa10 value="0.0041802870" flag="0"/>
      <psa30 value="0.0018237260" flag="0"/>
    </comp>
  </station>
  <station code="CADA" name="CADA" netid="IV" insttype="" lat="43.1942" lon="13.7614">
    <comp name="--.HNN">
      <acc value="0.1238114482" flag="0"/>
      <vel value="0.0512457152" flag="0"/>
      <psa03 value="0.2704449716" flag="0"/>
      <psa10 value="0.1054659279" flag="0"/>
      <psa30 value="0.0077076752" flag="0"/>
    </comp>
    <comp name="--.HNZ">
      <acc value="0.0913584533" flag="0"/>
      <vel value="0.0296841462" flag="0"/>
      <psa03 value="0.1953485087" flag="0"/>
      <psa10 value="0.0459990159" flag="0"/>
      <psa30 value="0.0051901898" flag="0"/>
    </comp>
    <comp name="--.HNE">
      <acc value="0.1342722822" flag="0"/>
      <vel value="0.0759591906" flag="0"/>
      <psa03 value="0.3133529708" flag="0"/>
      <psa10 value="0.1224495808" flag="0"/>
      <psa30 value="0.0147083360" flag="0"/>
    </comp>
  </station>
  <station code="CAFI" name="CAFI" netid="IV" insttype="" lat="43.3292" lon="11.9663">
    <comp name="--.HHE">
      <acc value="0.0033899709" flag="0"/>
      <vel value="0.0032466904" flag="0"/>
      <psa03 value="0.0093444708" flag="0"/>
      <psa10 value="0.0056139092" flag="0"/>
      <psa30 value="0.0004356204" flag="0"/>
    </comp>
    <comp name="--.HHN">
      <acc value="0.0028737952" flag="0"/>
      <vel value="0.0016534930" flag="0"/>
      <psa03 value="0.0096258925" flag="0"/>
      <psa10 value="0.0021347569" flag="0"/>
      <psa30 value="0.0003326566" flag="0"/>
    </comp>
    <comp name="--.HHZ">
      <acc value="0.0024834138" flag="0"/>
      <vel value="0.0019712856" flag="0"/>
      <psa03 value="0.0059562166" flag="0"/>
      <psa10 value="0.0024728196" flag="0"/>
      <psa30 value="0.0004086127" flag="0"/>
    </comp>
  </station>
  <station code="CESI" name="CESI" netid="IV" insttype="" lat="43.0049" lon="12.9046">
    <comp name="--.HHE">
      <acc value="0.0593293788" flag="0"/>
      <vel value="0.0254440526" flag="0"/>
      <psa03 value="0.1150472435" flag="0"/>
      <psa10 value="0.0178381334" flag="0"/>
      <psa30 value="0.0023789593" flag="0"/>
    </comp>
    <comp name="--.HHZ">
      <acc value="0.0318989193" flag="0"/>
      <vel value="0.0116853053" flag="0"/>
      <psa03 value="0.0822156517" flag="0"/>
      <psa10 value="0.0074824684" flag="0"/>
      <psa30 value="0.0022958405" flag="0"/>
    </comp>
    <comp name="--.HHN">
      <acc value="0.0568795939" flag="0"/>
      <vel value="0.0201199957" flag="0"/>
      <psa03 value="0.1296132239" flag="0"/>
      <psa10 value="0.0159287903" flag="0"/>
      <psa30 value="0.0016553720" flag="0"/>
    </comp>
  </station>
  <station code="CESX" name="CESX" netid="IV" insttype="" lat="42.6085" lon="12.5868">
    <comp name="--.HHE">
      <acc value="0.0064141233" flag="0"/>
      <vel value="0.0048594983" flag="0"/>
      <psa03 value="0.0308976129" flag="0"/>
      <psa10 value="0.0066964271" flag="0"/>
      <psa30 value="0.0008331700" flag="0"/>
    </comp>
    <comp name="--.HHN">
      <acc value="0.0105055299" flag="0"/>
      <vel value="0.0047062648" flag="0"/>
      <psa03 value="0.0314508817" flag="0"/>
      <psa10 value="0.0072154825" flag="0"/>
      <psa30 value="0.0009512327" flag="0"/>
    </comp>
    <comp name="--.HHZ">
      <acc value="0.0044244356" flag="0"/>
      <vel value="0.0022381575" flag="0"/>
      <psa03 value="0.0176369298" flag="0"/>
      <psa10 value="0.0029514904" flag="0"/>
      <psa30 value="0.0008039327" flag="0"/>
    </comp>
  </station>
  <station code="CIMA" name="CIMA" netid="IV" insttype="" lat="43.3053" lon="13.6701">
    <comp name="--.HNE">
      <acc value="0.1073160673" flag="0"/>
      <vel value="0.1064457650" flag="0"/>
      <psa03 value="0.2196898033" flag="0"/>
      <psa10 value="0.1408272400" flag="0"/>
      <psa30 value="0.0170852207" flag="0"/>
    </comp>
    <comp name="--.HNN">
      <acc value="0.0988485591" flag="0"/>
      <vel value="0.0930232820" flag="0"/>
      <psa03 value="0.2274482662" flag="0"/>
      <psa10 value="0.2252358005" flag="0"/>
      <psa30 value="0.0097384939" flag="0"/>
    </comp>
    <comp name="--.HNZ">
      <acc value="0.1765203383" flag="0"/>
      <vel value="0.0810068302" flag="0"/>
      <psa03 value="0.3022198224" flag="0"/>
      <psa10 value="0.1835678361" flag="0"/>
      <psa30 value="0.0141771156" flag="0"/>
    </comp>
  </station>
  <station code="CING" name="CING" netid="IV" insttype="" lat="43.3756" lon="13.1954">
    <comp name="--.HHE">
      <acc value="0.2678889012" flag="0"/>
      <vel value="0.0536314986" flag="0"/>
      <psa03 value="0.1281264217" flag="0"/>
      <psa10 value="0.0281766413" flag="0"/>
      <psa30 value="0.0043534991" flag="0"/>
    </comp>
    <comp name="--.HHN">
      <acc value="0.3133948803" flag="0"/>
      <vel value="0.0486163119" flag="0"/>
      <psa03 value="0.1537199485" flag="0"/>
      <psa10 value="0.0442877838" flag="0"/>
      <psa30 value="0.0029723528" flag="0"/>
    </comp>
    <comp name="--.HHZ">
      <acc value="0.2152405197" flag="0"/>
      <vel value="0.0417211812" flag="0"/>
      <psa03 value="0.1316439406" flag="0"/>
      <psa10 value="0.0285156067" flag="0"/>
      <psa30 value="0.0040642957" flag="0"/>
    </comp>
  </station>
  <station code="CRE" name="CRE" netid="IV" insttype="" lat="43.6189" lon="11.9517">
    <comp name="--.HHE">
      <acc value="0.0033509229" flag="0"/>
      <vel value="0.0024991119" flag="0"/>
      <psa03 value="0.0077965183" flag="0"/>
      <psa10 value="0.0029396338" flag="0"/>
      <psa30 value="0.0006586781" flag="0"/>
    </comp>
    <comp name="--.HHN">
      <acc value="0.0028938502" flag="0"/>
      <vel value="0.0021528633" flag="0"/>
      <psa03 value="0.0078872793" flag="0"/>
      <psa10 value="0.0038946294" flag="0"/>
      <psa30 value="0.0004729481" flag="0"/>
    </comp>
    <comp name="--.HHZ">
      <acc value="0.0018126223" flag="0"/>
      <vel value="0.0011442322" flag="0"/>
      <psa03 value="0.0052428847" flag="0"/>
      <psa10 value="0.0016062104" flag="0"/>
      <psa30 value="0.0003746431" flag="0"/>
    </comp>
  </station>
  <station code="FAGN" name="FAGN" netid="IV" insttype="" lat="42.2657" lon="13.5838">
    <comp name="--.HHN">
      <acc value="0.0305325765" flag="0"/>
      <vel value="0.0145107139" flag="0"/>
      <psa03 value="0.0704511588" flag="0"/>
      <psa10 value="0.0065741005" flag="0"/>
      <psa30 value="0.0005186893" flag="0"/>
    </comp>
    <comp name="--.HHE">
      <acc value="0.0322752929" flag="0"/>
      <vel value="0.0151619476" flag="0"/>
      <psa03 value="0.0925715473" flag="0"/>
      <psa10 value="0.0064398863" flag="0"/>
      <psa30 value="0.0005918090" flag="0"/>
    </comp>
    <comp name="--.HHZ">
      <acc value="0.0315392141" flag="0"/>
      <vel value="0.0133175479" flag="0"/>
      <psa03 value="0.1121192722" flag="0"/>
      <psa10 value="0.0034096307" flag="0"/>
      <psa30 value="0.0004605245" flag="0"/>
    </comp>
  </station>
  <station code="FDMO" name="FDMO" netid="IV" insttype="" lat="43.0365" lon="13.0873">
    <comp name="--.HHE">
      <acc value="0.1311183994" flag="0"/>
      <vel value="0.0452943547" flag="0"/>
      <psa03 value="0.2242634220" flag="0"/>
      <psa10 value="0.0195791325" flag="0"/>
      <psa30 value="0.0018690742" flag="0"/>
    </comp>
    <comp name="--.HHN">
      <acc value="0.1045458809" flag="0"/>
      <vel value="0.0260753509" flag="0"/>
      <psa03 value="0.1634545310" flag="0"/>
      <psa10 value="0.0166369457" flag="0"/>
      <psa30 value="0.0020285037" flag="0"/>
    </comp>
    <comp name="--.HHZ">
      <acc value="0.0710388378" flag="0"/>
      <vel value="0.0199965258" flag="0"/>
      <psa03 value="0.1133538440" flag="0"/>
      <psa10 value="0.0204053464" flag="0"/>
      <psa30 value="0.0025569761" flag="0"/>
    </comp>
  </station>
  <station code="FIAM" name="FIAM" netid="IV" insttype="" lat="42.268" lon="13.1172">
    <comp name="--.HHE">
      <acc value="0.0067111480" flag="0"/>
      <vel value="0.0050586491" flag="0"/>
      <psa03 value="0.0222875515" flag="0"/>
      <psa10 value="0.0065578587" flag="0"/>
      <psa30 value="0.0004429729" flag="0"/>
    </comp>
    <comp name="--.HHZ">
      <acc value="0.0071380340" flag="0"/>
      <vel value="0.0039599364" flag="0"/>
      <psa03 value="0.0253845159" flag="0"/>
      <psa10 value="0.0030155704" flag="0"/>
      <psa30 value="0.0003628367" flag="0"/>
    </comp>
    <comp name="--.HHN">
      <acc value="0.0079388834" flag="0"/>
      <vel value="0.0041817163" flag="0"/>
      <psa03 value="0.0186647396" flag="0"/>
      <psa10 value="0.0057473589" flag="0"/>
      <psa30 value="0.0004705626" flag="0"/>
    </comp>
  </station>
  <station code="FIU1" name="FIU1" netid="IV" insttype="" lat="43.1886" lon="12.9316">
    <comp name="--.HNE">
      <acc value="0.0613541012" flag="0"/>
      <vel value="0.0191636411" flag="0"/>
      <psa03 value="0.0742983658" flag="0"/>
      <psa10 value="0.0119718983" flag="0"/>
      <psa30 value="0.0026234808" flag="0"/>
    </comp>
    <comp name="--.HNN">
      <acc value="0.0463132106" flag="0"/>
      <vel value="0.0160718997" flag="0"/>
      <psa03 value="0.1110311832" flag="0"/>
      <psa10 value="0.0085653408" flag="0"/>
      <psa30 value="0.0022120099" flag="0"/>
    </comp>
    <comp name="--.HNZ">
      <acc value="0.0308030231" flag="0"/>
      <vel value="0.0137814673" flag="0"/>
      <psa03 value="0.0470743263" flag="0"/>
      <psa10 value="0.0103494408" flag="0"/>
      <psa30 value="0.0032868877" flag="0"/>
    </comp>
  </station>
  <station code="FOSV" name="FOSV" netid="IV" insttype="" lat="43.2948" lon="12.7612">
    <comp name="--.HNN">
      <acc value="0.0246550067" flag="0"/>
      <vel value="0.0095901669" flag="0"/>
      <psa03 value="0.0677335794" flag="0"/>
      <psa10 value="0.0067267698" flag="0"/>
      <psa30 value="0.0007838948" flag="0"/>
    </comp>
    <comp name="--.HNE">
      <acc value="0.0277943675" flag="0"/>
      <vel value="0.0128688788" flag="0"/>
      <psa03 value="0.0480084489" flag="0"/>
      <psa10 value="0.0092683188" flag="0"/>
      <psa30 value="0.0023264212" flag="0"/>
    </comp>
    <comp name="--.HNZ">
      <acc value="0.0224083176" flag="0"/>
      <vel value="0.0129088152" flag="0"/>
      <psa03 value="0.0693364559" flag="0"/>
      <psa10 value="0.0092196888" flag="0"/>
      <psa30 value="0.0025255815" flag="0"/>
    </comp>
  </station>
  <station code="GAG1" name="GAG1" netid="IV" insttype="" lat="43.2381" lon="13.0674">
    <comp name="--.HNN">
      <acc value="0.1710515037" flag="0"/>
      <vel value="0.0691716823" flag="0"/>
      <psa03 value="0.3518155323" flag="0"/>
      <psa10 value="0.0717266356" flag="0"/>
      <psa30 value="0.0036194745" flag="0"/>
    </comp>
    <comp name="--.HNE">
      <acc value="0.1310819743" flag="0"/>
      <vel value="0.0643771068" flag="0"/>
      <psa03 value="0.2984793506" flag="0"/>
      <psa10 value="0.0719487054" flag="0"/>
      <psa30 value="0.0049160172" flag="0"/>
    </comp>
    <comp name="--.HNZ">
      <acc value="0.1527417873" flag="0"/>
      <vel value="0.1012068021" flag="0"/>
      <psa03 value="0.2746800599" flag="0"/>
      <psa10 value="0.0907704478" flag="0"/>
      <psa30 value="0.0063935617" flag="0"/>
    </comp>
  </station>
  <station code="GUMA" name="GUMA" netid="IV" insttype="" lat="43.0627" lon="13.3352">
    <comp name="--.HHN">
      <acc value="0.1881901226" flag="0"/>
      <vel value="0.0810272415" flag="0"/>
      <psa03 value="0.4956089910" flag="0"/>
      <psa10 value="0.0664782641" flag="0"/>
      <psa30 value="0.0080758564" flag="0"/>
    </comp>
    <comp name="--.HHE">
      <acc value="0.2936072094" flag="0"/>
      <vel value="0.1216410077" flag="0"/>
      <psa03 value="0.6959248689" flag="0"/>
      <psa10 value="0.0712336666" flag="0"/>
      <psa30 value="0.0047529092" flag="0"/>
    </comp>
