<stationlist xmlns:esm="https://esm-db.eu/esmws/shakemap/1/" created="1781661248">
	<station code="DURR" name="DURR" netid="AC" source="Albanian Seismological Network (AC)" insttype="" lat="41.3199" lon="19.4573" esm:processing="manual (Paolucci et al 2011)" esm:quality="good">
		<comp name="00.HNE" depth="None">
			<acc value="0.216451560763191" flag="0"/>
			<vel value="1.22209947966303" flag="0"/>
			<psa03 value="0.429256730295699" flag="0"/>
			<psa10 value="0.713882935431636" flag="0"/>
			<psa30 value="0.356305457248739" flag="0"/>
		</comp>
		<comp name="00.HNN" depth="None">
			<acc value="0.261943593565941" flag="0"/>
			<vel value="0.930037178623494" flag="0"/>
			<psa03 value="0.399234709654839" flag="0"/>
			<psa10 value="0.567573235257491" flag="0"/>
			<psa30 value="0.391839270322905" flag="0"/>
		</comp>
		<comp name="00.HNZ" depth="None">
			<acc value="0.110106277974084" flag="0"/>
			<vel value="0.402685302635708" flag="0"/>
			<psa03 value="0.231898856902503" flag="0"/>
			<psa10 value="0.292087862933666" flag="0"/>
			<psa30 value="0.186069414663407" flag="0"/>
		</comp>
	</station>
	<station code="FIER" name="FIER" netid="AC" source="Albanian Seismological Network (AC)" insttype="" lat="40.7174" lon="19.5669" esm:processing="manual (Paolucci et al 2011)" esm:quality="bad">
		<comp name="00.HNE" depth="None">
			<acc value="0.179494279734852" flag="0"/>
			<vel value="0.572321245042906" flag="0"/>
			<psa03 value="0.414715513144761" flag="0"/>
			<psa10 value="0.572292643211586" flag="0"/>
			<psa30 value="0.247436930416896" flag="0"/>
		</comp>
		<comp name="00.HNN" depth="None">
			<acc value="0.188190324514454" flag="0"/>
			<vel value="0.955574301267667" flag="0"/>
			<psa03 value="0.441605579322342" flag="0"/>
			<psa10 value="0.408007314106483" flag="0"/>
			<psa30 value="0.286634235368965" flag="0"/>
		</comp>
		<comp name="00.HNZ" depth="None">
			<acc value="0.119550305325928" flag="0"/>
			<vel value="0.401763982918737" flag="0"/>
			<psa03 value="0.194583856582864" flag="0"/>
			<psa10 value="0.291878469406693" flag="0"/>
			<psa30 value="0.122469262799666" flag="0"/>
		</comp>
	</station>
	<station code="HIMA" name="HIMA" netid="AC" source="Albanian Seismological Network (AC)" insttype="" lat="40.089" lon="19.7582" esm:processing="manual (Paolucci et al 2011)" esm:quality="best">
		<comp name="00.HNE" depth="None">
			<acc value="0.242053707841401" flag="0"/>
			<vel value="0.585393456528799" flag="0"/>
			<psa03 value="0.810415588476756" flag="0"/>
			<psa10 value="0.408538851521108" flag="0"/>
			<psa30 value="0.136780505008586" flag="0"/>
		</comp>
		<comp name="00.HNN" depth="None">
			<acc value="0.214342190317545" flag="0"/>
			<vel value="0.266227531398737" flag="0"/>
			<psa03 value="0.673146498571899" flag="0"/>
			<psa10 value="0.313707744593682" flag="0"/>
			<psa30 value="0.125416431949611" flag="0"/>
		</comp>
		<comp name="00.HNZ" depth="None">
			<acc value="0.167697926287185" flag="0"/>
			<vel value="0.344859861119332" flag="0"/>
			<psa03 value="0.32308347399054" flag="0"/>
			<psa10 value="0.262756661962992" flag="0"/>
			<psa30 value="0.122134591094161" flag="0"/>
		</comp>
	</station>
	<station code="KBN" name="KBN" netid="AC" source="Albanian Seismological Network (AC)" insttype="" lat="40.6236" lon="20.7874" esm:processing="manual (Paolucci et al 2011)" esm:quality="good">
		<comp name="00.HNE" depth="0.0">
			<acc value="0.0778861428463262" flag="0"/>
			<vel value="0.415384926342186" flag="0"/>
			<psa03 value="0.103980888180864" flag="0"/>
			<psa10 value="0.260952656192143" flag="0"/>
			<psa30 value="0.0940736213693796" flag="0"/>
		</comp>
		<comp name="00.HNN" depth="0.0">
			<acc value="0.0743365192035617" flag="0"/>
			<vel value="0.291859770312192" flag="0"/>
			<psa03 value="0.146485984468222" flag="0"/>
			<psa10 value="0.233638881317887" flag="0"/>
			<psa30 value="0.0871403690318122" flag="0"/>
		</comp>
		<comp name="00.HNZ" depth="0.0">
			<acc value="0.0579702014753608" flag="0"/>
			<vel value="0.15160942457138" flag="0"/>
			<psa03 value="0.0851444191945711" flag="0"/>
			<psa10 value="0.188671621400325" flag="0"/>
			<psa30 value="0.0632399771004638" flag="0"/>
		</comp>
	</station>
	<station code="LACI" name="LACI" netid="AC" source="Albanian Seismological Network (AC)" insttype="" lat="41.636682" lon="19.717809" esm:processing="manual (Paolucci et al 2011)" esm:quality="good">
		<comp name="00.HNE" depth="0.0">
			<acc value="0.0263553099408129" flag="0"/>
			<vel value="0.124282844544703" flag="0"/>
			<psa03 value="0.0909161638483282" flag="0"/>
			<psa10 value="0.0455430921167388" flag="0"/>
			<psa30 value="0.0373145528975725" flag="0"/>
		</comp>
		<comp name="00.HNN" depth="0.0">
			<acc value="0.0246091006691929" flag="0"/>
			<vel value="0.100158236036634" flag="0"/>
			<psa03 value="0.102370168742606" flag="0"/>
			<psa10 value="0.0512168513380019" flag="0"/>
			<psa30 value="0.0403870002260492" flag="0"/>
		</comp>
		<comp name="00.HNZ" depth="0.0">
			<acc value="0.0271194450047114" flag="0"/>
			<vel value="0.0695746296479699" flag="0"/>
			<psa03 value="0.0631312535383814" flag="0"/>
			<psa10 value="0.0443390793366411" flag="0"/>
			<psa30 value="0.0276032569510766" flag="0"/>
		</comp>
	</station>
	<station code="TIR1" name="TIR1" netid="AC" source="Albanian Seismological Network (AC)" insttype="" lat="41.3357" lon="19.8078" esm:processing="manual (Paolucci et al 2011)" esm:quality="good">
		<comp name="00.HNE" depth="None">
			<acc value="0.149080005001034" flag="0"/>
			<vel value="0.300804991823455" flag="0"/>
			<psa03 value="0.246663785086532" flag="0"/>
			<psa10 value="0.451814856028499" flag="0"/>
			<psa30 value="0.129749267238525" flag="0"/>
		</comp>
		<comp name="00.HNN" depth="None">
			<acc value="0.107214143155556" flag="0"/>
			<vel value="0.436882808145146" flag="0"/>
			<psa03 value="0.17422615257155" flag="0"/>
			<psa10 value="0.337437668717814" flag="0"/>
			<psa30 value="0.146019770675259" flag="0"/>
		</comp>
		<comp name="00.HNZ" depth="None">
			<acc value="0.063099313012267" flag="0"/>
			<vel value="0.232502703892271" flag="0"/>
			<psa03 value="0.0778961817224111" flag="0"/>
			<psa10 value="0.160403495258901" flag="0"/>
			<psa30 value="0.103411767312679" flag="0"/>
		</comp>
	</station>
	<station code="TPE" name="TPE" netid="AC" source="Albanian Seismological Network (AC)" insttype="" lat="40.2947" lon="20.0094" esm:processing="manual (Paolucci et al 2011)" esm:quality="good">
		<comp name="00.HNE" depth="0.0">
			<acc value="0.245168272605186" flag="0"/>
			<vel value="0.542240426598078" flag="0"/>
			<psa03 value="0.414447059905051" flag="0"/>
			<psa10 value="0.4221373503786" flag="0"/>
			<psa30 value="0.147905654684219" flag="0"/>
		</comp>
		<comp name="00.HNN" depth="0.0">
			<acc value="0.160288260066924" flag="0"/>
			<vel value="0.33836299796941" flag="0"/>
			<psa03 value="0.317848635816203" flag="0"/>
			<psa10 value="0.633471794275212" flag="0"/>
			<psa30 value="0.0955165575328189" flag="0"/>
		</comp>
		<comp name="00.HNZ" depth="0.0">
			<acc value="0.111560569187069" flag="0"/>
			<vel value="0.341947371141346" flag="0"/>
			<psa03 value="0.276954258967102" flag="0"/>
			<psa10 value="0.281795365723199" flag="0"/>
			<psa30 value="0.0953903845101554" flag="0"/>
		</comp>
	</station>
	<station code="AGRP" name="AGRP" netid="CL" source="Corinth Riff Laboratory (CRLNET)" insttype="" lat="38.3959" lon="21.72277" esm:processing="manual (Paolucci et al 2011)" esm:quality="good">
		<comp name="00.HNE" depth="0.0">
			<acc value="0.511358792029586" flag="0"/>
			<vel value="0.640271711970453" flag="0"/>
			<psa03 value="1.08450634622029" flag="0"/>
			<psa10 value="0.812789162537855" flag="0"/>
			<psa30 value="0.299167869708942" flag="0"/>
		</comp>
		<comp name="00.HNN" depth="0.0">
			<acc value="0.541424634665297" flag="0"/>
			<vel value="1.33637643603979" flag="0"/>
			<psa03 value="1.21797234856259" flag="0"/>
			<psa10 value="0.803700678107486" flag="0"/>
			<psa30 value="0.337287782325643" flag="0"/>
		</comp>
		<comp name="00.HNZ" depth="0.0">
			<acc value="0.285866044438355" flag="0"/>
			<vel value="0.520824864062816" flag="0"/>
			<psa03 value="0.625317079696966" flag="0"/>
			<psa10 value="0.456026887359544" flag="0"/>
			<psa30 value="0.208125085415884" flag="0"/>
		</comp>
	</station>
	<station code="ROD3" name="ROD3" netid="CL" source="Corinth Riff Laboratory (CRLNET)" insttype="" lat="38.30811" lon="21.89204" esm:processing="manual (Paolucci et al 2011)" esm:quality="good">
		<comp name="00.HNE" depth="0.0">
			<acc value="1.12799780021533" flag="0"/>
			<vel value="1.28839980484884" flag="0"/>
			<psa03 value="3.94747066331026" flag="0"/>
			<psa10 value="1.22660312021926" flag="0"/>
			<psa30 value="0.234149389895402" flag="0"/>
		</comp>
		<comp name="00.HNN" depth="0.0">
			<acc value="1.0728981259187" flag="0"/>
			<vel value="1.67265249928483" flag="0"/>
			<psa03 value="3.92975274948943" flag="0"/>
			<psa10 value="1.60285510060049" flag="0"/>
			<psa30 value="0.312776211851889" flag="0"/>
		</comp>
		<comp name="00.HNZ" depth="0.0">
			<acc value="0.380993238467855" flag="0"/>
			<vel value="0.441536244906104" flag="0"/>
			<psa03 value="0.768984305148237" flag="0"/>
			<psa10 value="0.826109812292247" flag="0"/>
			<psa30 value="0.105832768112794" flag="0"/>
		</comp>
	</station>
	<station code="TRIZ" name="TRIZ" netid="CL" source="Corinth Riff Laboratory (CRLNET)" insttype="" lat="38.36543" lon="22.07272" esm:processing="manual (Paolucci et al 2011)" esm:quality="good">
		<comp name="00.HNE" depth="0.0">
			<acc value="0.736566363422554" flag="0"/>
			<vel value="0.677720187017809" flag="0"/>
			<psa03 value="2.18928091203866" flag="0"/>
			<psa10 value="0.778488892100156" flag="0"/>
			<psa30 value="0.327863731345636" flag="0"/>
		</comp>
		<comp name="00.HNN" depth="0.0">
			<acc value="0.255512807996112" flag="0"/>
			<vel value="0.754469441285055" flag="0"/>
			<psa03 value="0.751758555600202" flag="0"/>
			<psa10 value="0.435844572798174" flag="0"/>
			<psa30 value="0.229823713359547" flag="0"/>
		</comp>
		<comp name="00.HNZ" depth="0.0">
			<acc value="0.229846310394203" flag="0"/>
			<vel value="0.495096307346166" flag="0"/>
			<psa03 value="0.704600269824544" flag="0"/>
			<psa10 value="0.588436078781525" flag="0"/>
			<psa30 value="0.150502044934278" flag="0"/>
		</comp>
	</station>
	<station code="KTHA" name="KTHA" netid="GE" source="GEOFON" insttype="" lat="36.2566" lon="23.0621" esm:processing="manual (Paolucci et al 2011)" esm:quality="good">
		<comp name="--.HNE" depth="0.0">
			<acc value="0.0608657958342063" flag="0"/>
			<vel value="0.288210121425925" flag="0"/>
			<psa03 value="0.0961062598160477" flag="0"/>
			<psa10 value="0.136379614837287" flag="0"/>
			<psa30 value="0.0925371739941082" flag="0"/>
		</comp>
		<comp name="--.HNN" depth="0.0">
			<acc value="0.0366109843408724" flag="0"/>
			<vel value="0.254376661021899" flag="0"/>
			<psa03 value="0.0530642570492703" flag="0"/>
			<psa10 value="0.118774451377129" flag="0"/>
			<psa30 value="0.0463072890057789" flag="0"/>
		</comp>
		<comp name="--.HNZ" depth="0.0">
			<acc value="0.027147046567238" flag="0"/>
			<vel value="0.194953509257351" flag="0"/>
			<psa03 value="0.0621021827861612" flag="0"/>
			<psa10 value="0.0724582139300264" flag="0"/>
			<psa30 value="0.0515680776599553" flag="0"/>
		</comp>
	</station>
	<station code="ARG2" name="ARG2" netid="HI" source="ITSAK Strong Motion Network" insttype="" lat="38.1783" lon="20.4878" esm:processing="manual (Paolucci et al 2011)" esm:quality="good">
		<comp name="--.HNE" depth="0.0">
			<acc value="10.0958665819073" flag="0"/>
			<vel value="6.70852744984871" flag="0"/>
			<psa03 value="15.8216048777334" flag="0"/>
			<psa10 value="2.93502074600457" flag="0"/>
			<psa30 value="1.35193498939836" flag="0"/>
		</comp>
		<comp name="--.HNN" depth="0.0">
			<acc value="8.69709383093589" flag="0"/>
			<vel value="5.65094784808724" flag="0"/>
			<psa03 value="22.9063543269103" flag="0"/>
			<psa10 value="4.73197156571371" flag="0"/>
			<psa30 value="0.934879458847464" flag="0"/>
		</comp>
		<comp name="--.HNZ" depth="0.0">
			<acc value="5.60808326817445" flag="0"/>
			<vel value="2.81354937079338" flag="0"/>
			<psa03 value="17.9852485053798" flag="0"/>
			<psa10 value="2.01443418506131" flag="0"/>
			<psa30 value="0.739132304892526" flag="0"/>
		</comp>
	</station>
	<station code="ARS1" name="ARS1" netid="HI" source="ITSAK Strong Motion Network" insttype="" lat="37.6349" lon="22.7293" esm:processing="manual (Paolucci et al 2011)" esm:quality="good">
		<comp name="--.HNE" depth="0.0">
			<acc value="0.26899256802282" flag="0"/>
			<vel value="0.437911410991521" flag="0"/>
			<psa03 value="0.486213559320759" flag="0"/>
			<psa10 value="0.622764536809394" flag="0"/>
			<psa30 value="0.142125409011205" flag="0"/>
		</comp>
		<comp name="--.HNN" depth="0.0">
			<acc value="0.424067898513085" flag="0"/>
			<vel value="0.872254674357792" flag="0"/>
			<psa03 value="0.842182555175729" flag="0"/>
			<psa10 value="0.735567245869182" flag="0"/>
			<psa30 value="0.195298837044624" flag="0"/>
		</comp>
		<comp name="--.HNZ" depth="0.0">
			<acc value="0.182139773938643" flag="0"/>
			<vel value="0.277283823144209" flag="0"/>
			<psa03 value="0.311405758063171" flag="0"/>
			<psa10 value="0.317633873224435" flag="0"/>
			<psa30 value="0.118782952396386" flag="0"/>
		</comp>
	</station>
	<station code="KLV1" name="KLV1" netid="HI" source="ITSAK Strong Motion Network" insttype="" lat="38.03256" lon="22.10797" esm:processing="manual (Paolucci et al 2011)" esm:quality="good">
		<comp name="--.HNE" depth="0.0">
			<acc value="0.517292505707871" flag="0"/>
			<vel value="0.627204978844251" flag="0"/>
			<psa03 value="1.36226596490652" flag="0"/>
			<psa10 value="0.754473065275733" flag="0"/>
			<psa30 value="0.205145701877173" flag="0"/>
		</comp>
		<comp name="--.HNN" depth="0.0">
			<acc value="0.491143579512592" flag="0"/>
			<vel value="0.814982626176508" flag="0"/>
			<psa03 value="1.13810750974898" flag="0"/>
			<psa10 value="0.822389050389872" flag="0"/>
			<psa30 value="0.183180857804131" flag="0"/>
		</comp>
		<comp name="--.HNZ" depth="0.0">
			<acc value="0.333048748008553" flag="0"/>
			<vel value="0.390091034922077" flag="0"/>
			<psa03 value="0.397758216836436" flag="0"/>
			<psa10 value="0.725258641464332" flag="0"/>
			<psa30 value="0.0974109425610365" flag="0"/>
		</comp>
	</station>
	<station code="KRK1" name="KRK1" netid="HI" source="ITSAK Strong Motion Network" insttype="" lat="39.618861" lon="19.9202" esm:processing="manual (Paolucci et al 2011)" esm:quality="good">
		<comp name="--.HNE" depth="0.0">
			<acc value="0.803176378482537" flag="0"/>
			<vel value="0.777631903397707" flag="0"/>
			<psa03 value="1.92624147932984" flag="0"/>
			<psa10 value="1.01716529846119" flag="0"/>
			<psa30 value="0.265894432913131" flag="0"/>
		</comp>
		<comp name="--.HNN" depth="0.0">
			<acc value="1.21389961036146" flag="0"/>
			<vel value="0.742409762760762" flag="0"/>
			<psa03 value="1.64691588341197" flag="0"/>
			<psa10 value="1.53799948241904" flag="0"/>
			<psa30 value="0.11736193991419" flag="0"/>
		</comp>
		<comp name="--.HNZ" depth="0.0">
			<acc value="0.352074073438098" flag="0"/>
			<vel value="0.444373166073321" flag="0"/>
			<psa03 value="0.816142590923895" flag="0"/>
			<psa10 value="0.33084982621534" flag="0"/>
			<psa30 value="0.123936359754679" flag="0"/>
		</comp>
	</station>
	<station code="LAM2" name="LAM2" netid="HI" source="ITSAK Strong Motion Network" insttype="" lat="38.90203" lon="22.431301" esm:processing="manual (Paolucci et al 2011)" esm:quality="good">
		<comp name="--.HNE" depth="0.0">
			<acc value="0.198007209295719" flag="0"/>
			<vel value="0.582231609344214" flag="0"/>
			<psa03 value="0.515519704655727" flag="0"/>
			<psa10 value="0.38708809540211" flag="0"/>
			<psa30 value="0.306110070487833" flag="0"/>
		</comp>
		<comp name="--.HNN" depth="0.0">
			<acc value="0.350996587249099" flag="0"/>
			<vel value="0.940758797431934" flag="0"/>
			<psa03 value="0.54106750463476" flag="0"/>
			<psa10 value="0.491378152230706" flag="0"/>
			<psa30 value="0.620167251715203" flag="0"/>
		</comp>
		<comp name="--.HNZ" depth="0.0">
			<acc value="0.140293828586593" flag="0"/>
			<vel value="0.381627193812292" flag="0"/>
			<psa03 value="0.271629936379528" flag="0"/>
			<psa10 value="0.247974284318381" flag="0"/>
			<psa30 value="0.210608277883198" flag="0"/>
		</comp>
	</station>
	<station code="LMS2" name="LMS2" netid="HI" source="ITSAK Strong Motion Network" insttype="" lat="40.834985" lon="21.141815" esm:processing="manual (Paolucci et al 2011)" esm:quality="good">
		<comp name="--.HNE" depth="0.0">
			<acc value="0.0624842066638909" flag="0"/>
			<vel value="0.311544265126512" flag="0"/>
			<psa03 value="0.144159389724072" flag="0"/>
			<psa10 value="0.193068885466769" flag="0"/>
			<psa30 value="0.0474088421327207" flag="0"/>
		</comp>
		<comp name="--.HNN" depth="0.0">
			<acc value="0.0624408110999153" flag="0"/>
			<vel value="0.129989620013592" flag="0"/>
			<psa03 value="0.15015484541092" flag="0"/>
			<psa10 value="0.122358302127252" flag="0"/>
			<psa30 value="0.0536382995601827" flag="0"/>
		</comp>
		<comp name="--.HNZ" depth="0.0">
			<acc value="0.0335563315431764" flag="0"/>
			<vel value="0.118847454193777" flag="0"/>
			<psa03 value="0.081654527078346" flag="0"/>
			<psa10 value="0.063333488312296" flag="0"/>
			<psa30 value="0.03973286916529" flag="0"/>
		</comp>
	</station>
	<station code="MSL1" name="MSL1" netid="HI" source="ITSAK Strong Motion Network" insttype="" lat="38.3727" lon="21.4243" esm:processing="manual (Paolucci et al 2011)" esm:quality="good">
		<comp name="--.HNE" depth="0.0">
			<acc value="2.89384928881224" flag="0"/>
			<vel value="6.46308135116185" flag="0"/>
			<psa03 value="7.69905994604573" flag="0"/>
			<psa10 value="7.11958125702918" flag="0"/>
			<psa30 value="1.84146394622953" flag="0"/>
		</comp>
		<comp name="--.HNN" depth="0.0">
			<acc value="3.45738603228992" flag="0"/>
			<vel value="5.95185100100748" flag="0"/>
			<psa03 value="8.69694538025305" flag="0"/>
			<psa10 value="4.60069793149571" flag="0"/>
			<psa30 value="2.31187008395206" flag="0"/>
		</comp>
		<comp name="--.HNZ" depth="0.0">
			<acc value="0.886827668643451" flag="0"/>
			<vel value="1.57191130337839" flag="0"/>
			<psa03 value="2.18189844794664" flag="0"/>
			<psa10 value="2.67977003662386" flag="0"/>
			<psa30 value="0.40708294011775" flag="0"/>
		</comp>
	</station>
	<station code="NPS1" name="NPS1" netid="HI" source="ITSAK Strong Motion Network" insttype="" lat="36.51263" lon="23.06248" esm:processing="manual (Paolucci et al 2011)" esm:quality="good">
		<comp name="--.HNE" depth="0.0">
			<acc value="0.0710983465927983" flag="0"/>
			<vel value="0.396161083357077" flag="0"/>
			<psa03 value="0.135971565912928" flag="0"/>
			<psa10 value="0.145552662038165" flag="0"/>
			<psa30 value="0.0499273809432633" flag="0"/>
		</comp>
		<comp name="--.HNN" depth="0.0">
			<acc value="0.0949297100978574" flag="0"/>
			<vel value="0.239089148320847" flag="0"/>
			<psa03 value="0.17525522332377" flag="0"/>
			<psa10 value="0.256917803999308" flag="0"/>
			<psa30 value="0.0594726833032054" flag="0"/>
		</comp>
		<comp name="--.HNZ" depth="0.0">
			<acc value="0.0400728185248989" flag="0"/>
			<vel value="0.156454426854186" flag="0"/>
			<psa03 value="0.0895291554431618" flag="0"/>
			<psa10 value="0.0753977769048468" flag="0"/>
			<psa30 value="0.0759865843439433" flag="0"/>
		</comp>
	</station>
	<station code="SKO1" name="SKO1" netid="HI" source="ITSAK Strong Motion Network" insttype="" lat="39.123383" lon="23.728705" esm:processing="manual (Paolucci et al 2011)" esm:quality="good">
		<comp name="--.HNE" depth="0.0">
			<acc value="0.0431985599009932" flag="0"/>
			<vel value="0.129513172027301" flag="0"/>
