<?xml version="1.0" encoding="UTF-8" standalone="yes"?>
<!DOCTYPE earthquake SYSTEM "stationlist.dtd">
<stationlist created="" xmlns="ch.ethz.sed.shakemap.usgs.xml">
  <station code="SRN" name="SRN" netid="AC" source="INGV" insttype="" lat="39.88" lon="20.0005">
    <comp name="--.HHE">
      <acc value="0.1345778425" flag="0"/>
      <vel value="0.3236033108" flag="0"/>
      <psa03 value="0.2497828263" flag="0"/>
      <psa10 value="0.1884515919" flag="0"/>
      <psa30 value="0.1102581329" flag="0"/>
    </comp>
    <comp name="--.HHN">
      <acc value="0.1141631907" flag="0"/>
      <vel value="0.4195642459" flag="0"/>
      <psa03 value="0.3076628614" flag="0"/>
      <psa10 value="0.1352254528" flag="0"/>
      <psa30 value="0.0977929094" flag="0"/>
    </comp>
    <comp name="--.HHZ">
      <acc value="0.1098200370" flag="0"/>
      <vel value="0.3558976738" flag="0"/>
      <psa03 value="0.2300160047" flag="0"/>
      <psa10 value="0.1917260852" flag="0"/>
      <psa30 value="0.1221285295" flag="0"/>
    </comp>
  </station>
  <station code="VLO" name="VLO" netid="AC" source="INGV" insttype="" lat="40.4686" lon="19.4955">
    <comp name="--.HHE">
      <acc value="7.4717089149" flag="0"/>
      <vel value="0.8156240384" flag="0"/>
      <psa03 value="3.2067336226" flag="0"/>
      <psa10 value="0.8820658732" flag="0"/>
      <psa30 value="0.3104572967" flag="0"/>
    </comp>
    <comp name="--.HHN">
      <acc value="0.2195624278" flag="0"/>
      <vel value="0.5686770669" flag="0"/>
      <psa03 value="0.4429889600" flag="0"/>
      <psa10 value="0.5572094082" flag="0"/>
      <psa30 value="0.1205000936" flag="0"/>
    </comp>
    <comp name="--.HHZ">
      <acc value="1.0181592099" flag="0"/>
      <vel value="0.3310463586" flag="0"/>
      <psa03 value="0.3072813641" flag="0"/>
      <psa10 value="0.2398288978" flag="0"/>
      <psa30 value="0.1422488268" flag="0"/>
    </comp>
  </station>
  <station code="AGRP" name="AGRP" netid="CL" source="RESIF" insttype="60" lat="38.3959" lon="21.7228">
    <comp name="00.HHE">
      <acc value="0.5287082723" flag="0"/>
      <vel value="0.6980185347" flag="0"/>
      <psa03 value="1.0836721258" flag="0"/>
      <psa10 value="0.8576451021" flag="0"/>
      <psa30 value="0.2996785866" flag="0"/>
    </comp>
    <comp name="00.HHN">
      <acc value="0.5289493550" flag="0"/>
      <vel value="1.2421468802" flag="0"/>
      <psa03 value="1.2131498055" flag="0"/>
      <psa10 value="0.7901504578" flag="0"/>
      <psa30 value="0.3443020247" flag="0"/>
    </comp>
    <comp name="00.HHZ">
      <acc value="0.3131883776" flag="0"/>
      <vel value="0.5466099041" flag="0"/>
      <psa03 value="0.7064074650" flag="0"/>
      <psa10 value="0.5078138770" flag="0"/>
      <psa30 value="0.2136723079" flag="0"/>
    </comp>
  </station>
  <station code="ROD3" name="ROD3" netid="CL" source="RESIF" insttype="60" lat="38.3081" lon="21.892">
    <comp name="00.HHE">
      <acc value="1.4326804602" flag="0"/>
      <vel value="1.2604400904" flag="0"/>
      <psa03 value="4.6974377866" flag="0"/>
      <psa10 value="1.6705330940" flag="0"/>
      <psa30 value="0.2313723092" flag="0"/>
    </comp>
    <comp name="00.HHN">
      <acc value="1.2750655777" flag="0"/>
      <vel value="1.4261147419" flag="0"/>
      <psa03 value="4.3876483597" flag="0"/>
      <psa10 value="1.7554765426" flag="0"/>
      <psa30 value="0.3769380289" flag="0"/>
    </comp>
    <comp name="00.HHZ">
      <acc value="0.5470033141" flag="0"/>
      <vel value="0.5550939407" flag="0"/>
      <psa03 value="1.0015041760" flag="0"/>
      <psa10 value="1.0421517483" flag="0"/>
      <psa30 value="0.1419448775" flag="0"/>
    </comp>
  </station>
  <station code="TRIZ" name="TRIZ" netid="CL" source="RESIF" insttype="generation" lat="38.3654" lon="22.0727">
    <comp name="00.HH2">
      <acc value="0.4676277543" flag="0"/>
      <vel value="0.2350164381" flag="0"/>
      <psa03 value="0.7444099287" flag="0"/>
      <psa10 value="0.2855442013" flag="0"/>
      <psa30 value="0.1187559336" flag="0"/>
    </comp>
    <comp name="00.HH3">
      <acc value="0.7945141703" flag="0"/>
      <vel value="0.4744816356" flag="0"/>
      <psa03 value="0.5336080440" flag="0"/>
      <psa10 value="0.2369163421" flag="0"/>
      <psa30 value="0.1224886405" flag="0"/>
    </comp>
    <comp name="00.HHZ">
      <acc value="0.0617106394" flag="0"/>
      <vel value="0.1293607438" flag="0"/>
      <psa03 value="0.1863602730" flag="0"/>
      <psa10 value="0.1511060999" flag="0"/>
      <psa30 value="0.0402262919" flag="0"/>
    </comp>
  </station>
  <station code="LAKA" name="LAKA" netid="HA" source="NOA" insttype="120" lat="38.2401" lon="21.9785">
    <comp name="--.HHE">
      <acc value="0.2581169945" flag="0"/>
      <vel value="0.4331023454" flag="0"/>
      <psa03 value="0.5496013695" flag="0"/>
      <psa10 value="0.4242733410" flag="0"/>
      <psa30 value="0.1520456747" flag="0"/>
    </comp>
    <comp name="--.HHN">
      <acc value="0.2410128017" flag="0"/>
      <vel value="0.3599341762" flag="0"/>
      <psa03 value="0.5302832565" flag="0"/>
      <psa10 value="0.3793754187" flag="0"/>
      <psa30 value="0.1538716426" flag="0"/>
    </comp>
    <comp name="--.HHZ">
      <acc value="0.2188609634" flag="0"/>
      <vel value="0.2951944695" flag="0"/>
      <psa03 value="0.4085169371" flag="0"/>
      <psa10 value="0.4620744316" flag="0"/>
      <psa30 value="0.1829250080" flag="0"/>
    </comp>
  </station>
  <station code="KLMT" name="KLMT" netid="HC" source="NOA" insttype="120" lat="37.0613" lon="22.0597">
    <comp name="--.HHE">
      <acc value="45.7686522536" flag="0"/>
      <vel value="1.6972695565" flag="0"/>
      <psa03 value="5.2004896806" flag="0"/>
      <psa10 value="2.9898338119" flag="0"/>
      <psa30 value="0.6361399610" flag="0"/>
    </comp>
    <comp name="--.HHN">
      <acc value="45.8973630910" flag="0"/>
      <vel value="1.5176671880" flag="0"/>
      <psa03 value="6.0899928318" flag="0"/>
      <psa10 value="2.8147690869" flag="0"/>
      <psa30 value="0.4192387820" flag="0"/>
    </comp>
    <comp name="--.HHZ">
      <acc value="0.4985674775" flag="0"/>
      <vel value="0.7333793401" flag="0"/>
      <psa03 value="1.1496330634" flag="0"/>
      <psa10 value="1.2260820163" flag="0"/>
      <psa30 value="0.3193576370" flag="0"/>
    </comp>
  </station>
  <station code="DLFA" name="DLFA" netid="HL" source="NOA" insttype="CMG-5" lat="38.4784" lon="22.4958">
    <comp name="00.HNE">
      <acc value="0.1630985577" flag="0"/>
      <vel value="0.6482318322" flag="0"/>
      <psa03 value="0.3942300586" flag="0"/>
      <psa10 value="0.5673884318" flag="0"/>
      <psa30 value="0.3283658840" flag="0"/>
    </comp>
    <comp name="00.HNN">
      <acc value="0.1527755756" flag="0"/>
      <vel value="0.4409966741" flag="0"/>
      <psa03 value="0.2777157512" flag="0"/>
      <psa10 value="0.3083327601" flag="0"/>
      <psa30 value="0.1879015751" flag="0"/>
    </comp>
    <comp name="00.HNZ">
      <acc value="0.1360631617" flag="0"/>
      <vel value="0.3338584850" flag="0"/>
      <psa03 value="0.2274746614" flag="0"/>
      <psa10 value="0.3696878400" flag="0"/>
      <psa30 value="0.1335147762" flag="0"/>
    </comp>
  </station>
  <station code="EVR" name="EVR" netid="HL" source="NOA" insttype="DR24" lat="38.9166" lon="21.8105">
    <comp name="--.HHE">
      <acc value="0.2974473858" flag="0"/>
      <vel value="0.5073496743" flag="0"/>
      <psa03 value="0.8280830095" flag="0"/>
      <psa10 value="0.6592561663" flag="0"/>
      <psa30 value="0.1461023920" flag="0"/>
    </comp>
    <comp name="--.HHN">
      <acc value="0.3187001282" flag="0"/>
      <vel value="0.5360527909" flag="0"/>
      <psa03 value="0.5265938900" flag="0"/>
      <psa10 value="0.8340254507" flag="0"/>
      <psa30 value="0.1963399373" flag="0"/>
    </comp>
    <comp name="--.HHZ">
      <acc value="0.2256817898" flag="0"/>
      <vel value="0.4355199643" flag="0"/>
      <psa03 value="0.5369030260" flag="0"/>
      <psa10 value="0.7424626029" flag="0"/>
      <psa30 value="0.1896396533" flag="0"/>
    </comp>
  </station>
  <station code="ITM" name="ITM" netid="HL" source="NOA" insttype="STS2gen3_DR24" lat="37.1787" lon="21.9252">
    <comp name="--.HHE">
      <acc value="0.2124029819" flag="0"/>
      <vel value="0.5254414730" flag="0"/>
      <psa03 value="0.3822401547" flag="0"/>
      <psa10 value="0.3892644412" flag="0"/>
      <psa30 value="0.2483939873" flag="0"/>
    </comp>
    <comp name="--.HHN">
      <acc value="0.1888905138" flag="0"/>
      <vel value="0.3527033580" flag="0"/>
      <psa03 value="0.6174458170" flag="0"/>
      <psa10 value="0.4866657182" flag="0"/>
      <psa30 value="0.1072637532" flag="0"/>
    </comp>
    <comp name="--.HHZ">
      <acc value="0.1721487116" flag="0"/>
      <vel value="0.3045746013" flag="0"/>
      <psa03 value="0.4021016884" flag="0"/>
      <psa10 value="0.4215603372" flag="0"/>
      <psa30 value="0.1719667632" flag="0"/>
    </comp>
  </station>
  <station code="JAN" name="JAN" netid="HL" source="NOA" insttype="CMG3EPSC60_DR24" lat="39.6562" lon="20.8487">
    <comp name="--.HHE">
      <acc value="0.4145514851" flag="0"/>
      <vel value="0.7217917096" flag="0"/>
      <psa03 value="1.2253013097" flag="0"/>
      <psa10 value="1.2374792334" flag="0"/>
      <psa30 value="0.1838061956" flag="0"/>
    </comp>
    <comp name="--.HHN">
      <acc value="0.3397873264" flag="0"/>
      <vel value="0.4388152498" flag="0"/>
      <psa03 value="0.7454743882" flag="0"/>
      <psa10 value="0.5717162002" flag="0"/>
      <psa30 value="0.1894638064" flag="0"/>
    </comp>
    <comp name="--.HHZ">
      <acc value="0.2177056115" flag="0"/>
      <vel value="0.4167138951" flag="0"/>
      <psa03 value="0.4618099702" flag="0"/>
      <psa10 value="0.3767770868" flag="0"/>
      <psa30 value="0.0991747972" flag="0"/>
    </comp>
  </station>
  <station code="KASA" name="KASA" netid="HL" source="NOA" insttype="CMG-5" lat="39.7463" lon="19.9354">
    <comp name="00.HNE">
      <acc value="0.3342000976" flag="0"/>
      <vel value="0.4774074754" flag="0"/>
      <psa03 value="0.9033740169" flag="0"/>
      <psa10 value="0.7172207565" flag="0"/>
      <psa30 value="0.1547952005" flag="0"/>
    </comp>
    <comp name="00.HNN">
      <acc value="0.2894859832" flag="0"/>
      <vel value="0.3555810340" flag="0"/>
      <psa03 value="0.7753665575" flag="0"/>
      <psa10 value="0.3490921330" flag="0"/>
      <psa30 value="0.0939400771" flag="0"/>
    </comp>
    <comp name="00.HNZ">
      <acc value="0.2219236569" flag="0"/>
      <vel value="0.3699023454" flag="0"/>
      <psa03 value="0.7347912141" flag="0"/>
      <psa10 value="0.3237209814" flag="0"/>
      <psa30 value="0.1039726261" flag="0"/>
    </comp>
  </station>
  <station code="KEK" name="KEK" netid="HL" source="NOA" insttype="120" lat="39.7127" lon="19.7962">
    <comp name="--.HHE">
      <acc value="0.2904102404" flag="0"/>
      <vel value="0.5004017995" flag="0"/>
      <psa03 value="0.7588493256" flag="0"/>
      <psa10 value="0.3262113993" flag="0"/>
      <psa30 value="0.1178756092" flag="0"/>
    </comp>
    <comp name="--.HHN">
      <acc value="0.1901247567" flag="0"/>
      <vel value="0.3701390813" flag="0"/>
      <psa03 value="0.4480618240" flag="0"/>
      <psa10 value="0.2608108638" flag="0"/>
      <psa30 value="0.1008717772" flag="0"/>
    </comp>
    <comp name="--.HHZ">
      <acc value="0.2167300561" flag="0"/>
      <vel value="0.3897162080" flag="0"/>
      <psa03 value="0.4802772742" flag="0"/>
      <psa10 value="0.4534785672" flag="0"/>
      <psa30 value="0.1050883034" flag="0"/>
    </comp>
  </station>
  <station code="KLV" name="KLV" netid="HL" source="NOA" insttype="120" lat="38.0435" lon="22.1504">
    <comp name="--.HHE">
      <acc value="0.1628172026" flag="0"/>
      <vel value="0.3348082166" flag="0"/>
      <psa03 value="0.2592457892" flag="0"/>
      <psa10 value="0.3768780676" flag="0"/>
      <psa30 value="0.0965030672" flag="0"/>
    </comp>
    <comp name="--.HHN">
      <acc value="0.1493860549" flag="0"/>
      <vel value="0.4260069827" flag="0"/>
      <psa03 value="0.2892642271" flag="0"/>
      <psa10 value="0.3638485006" flag="0"/>
      <psa30 value="0.2294548917" flag="0"/>
    </comp>
    <comp name="--.HHZ">
      <acc value="0.1982543246" flag="0"/>
      <vel value="0.3294789030" flag="0"/>
      <psa03 value="0.4327590268" flag="0"/>
      <psa10 value="0.3965820439" flag="0"/>
      <psa30 value="0.0861896967" flag="0"/>
    </comp>
  </station>
  <station code="KZN" name="KZN" netid="HL" source="NOA" insttype="120" lat="40.3033" lon="21.7821">
    <comp name="--.HHE">
      <acc value="0.1106758915" flag="0"/>
      <vel value="0.3225723034" flag="0"/>
      <psa03 value="0.2521186605" flag="0"/>
      <psa10 value="0.1358170938" flag="0"/>
      <psa30 value="0.0825404893" flag="0"/>
    </comp>
    <comp name="--.HHN">
      <acc value="0.0771266820" flag="0"/>
      <vel value="0.1811474546" flag="0"/>
      <psa03 value="0.1412555712" flag="0"/>
      <psa10 value="0.1850527164" flag="0"/>
      <psa30 value="0.0546943466" flag="0"/>
    </comp>
    <comp name="--.HHZ">
      <acc value="0.0475914978" flag="0"/>
      <vel value="0.1597249361" flag="0"/>
      <psa03 value="0.1222203783" flag="0"/>
      <psa10 value="0.0859570518" flag="0"/>
      <psa30 value="0.0852082769" flag="0"/>
    </comp>
  </station>
  <station code="LXRA" name="LXRA" netid="HL" source="NOA" insttype="CMG-5" lat="38.2001" lon="20.4372">
    <comp name="00.HNE">
      <acc value="9.5029756000" flag="0"/>
      <vel value="9.4150422666" flag="0"/>
      <psa03 value="29.0468045513" flag="0"/>
      <psa10 value="6.7059826393" flag="0"/>
      <psa30 value="1.8832322677" flag="0"/>
    </comp>
    <comp name="00.HNN">
      <acc value="10.0817014593" flag="0"/>
      <vel value="6.4824042561" flag="0"/>
      <psa03 value="22.2338961976" flag="0"/>
      <psa10 value="6.1460708436" flag="0"/>
      <psa30 value="1.5104265076" flag="0"/>
    </comp>
    <comp name="00.HNZ">
      <acc value="5.3108032045" flag="0"/>
      <vel value="3.3605916398" flag="0"/>
      <psa03 value="11.0548318663" flag="0"/>
      <psa10 value="6.1214530777" flag="0"/>
      <psa30 value="0.9729294160" flag="0"/>
    </comp>
  </station>
  <station code="NEO" name="NEO" netid="HL" source="NOA" insttype="120" lat="39.3057" lon="23.2219">
    <comp name="--.HHE">
      <acc value="0.0695453183" flag="0"/>
      <vel value="0.1818133532" flag="0"/>
      <psa03 value="0.1916563493" flag="0"/>
      <psa10 value="0.1576740982" flag="0"/>
      <psa30 value="0.0771755595" flag="0"/>
    </comp>
    <comp name="--.HHN">
      <acc value="0.1127279342" flag="0"/>
      <vel value="0.2900441122" flag="0"/>
      <psa03 value="0.2762211862" flag="0"/>
      <psa10 value="0.2070683619" flag="0"/>
      <psa30 value="0.0956438127" flag="0"/>
    </comp>
    <comp name="--.HHZ">
      <acc value="0.0667866089" flag="0"/>
      <vel value="0.1454753884" flag="0"/>
      <psa03 value="0.1287388930" flag="0"/>
      <psa10 value="0.1291974859" flag="0"/>
      <psa30 value="0.1279617081" flag="0"/>
    </comp>
  </station>
  <station code="PENT" name="PENT" netid="HL" source="NOA" insttype="30" lat="40.1959" lon="21.1384">
    <comp name="--.HHE">
      <acc value="0.0933937387" flag="0"/>
      <vel value="0.4440524732" flag="0"/>
      <psa03 value="0.2344710298" flag="0"/>
      <psa10 value="0.1432454553" flag="0"/>
      <psa30 value="0.1149438360" flag="0"/>
    </comp>
    <comp name="--.HHN">
      <acc value="0.0995174374" flag="0"/>
      <vel value="0.2606635944" flag="0"/>
      <psa03 value="0.2406345772" flag="0"/>
      <psa10 value="0.2103162903" flag="0"/>
      <psa30 value="0.1287005700" flag="0"/>
    </comp>
    <comp name="--.HHZ">
      <acc value="0.1124287829" flag="0"/>
      <vel value="0.3688333672" flag="0"/>
      <psa03 value="0.1811058046" flag="0"/>
      <psa10 value="0.2568940440" flag="0"/>
      <psa30 value="0.2069724484" flag="0"/>
    </comp>
  </station>
  <station code="RLS" name="RLS" netid="HL" source="NOA" insttype="120" lat="38.0559" lon="21.4647">
    <comp name="--.HHE">
      <acc value="0.5853608479" flag="0"/>
      <vel value="0.8348062817" flag="0"/>
      <psa03 value="1.5183948633" flag="0"/>
      <psa10 value="0.6094858673" flag="0"/>
      <psa30 value="0.2647052510" flag="0"/>
    </comp>
    <comp name="--.HHN">
      <acc value="0.6052408101" flag="0"/>
      <vel value="1.1730714132" flag="0"/>
      <psa03 value="1.5467226076" flag="0"/>
      <psa10 value="0.7751537996" flag="0"/>
      <psa30 value="0.2542051367" flag="0"/>
    </comp>
    <comp name="--.HHZ">
      <acc value="0.2709486955" flag="0"/>
      <vel value="0.4360726746" flag="0"/>
      <psa03 value="0.6995446278" flag="0"/>
      <psa10 value="0.4418411915" flag="0"/>
      <psa30 value="0.1904279436" flag="0"/>
    </comp>
  </station>
  <station code="THL" name="THL" netid="HL" source="NOA" insttype="120" lat="39.5647" lon="22.0144">
    <comp name="--.HHE">
      <acc value="0.2208237870" flag="0"/>
      <vel value="0.3318448765" flag="0"/>
      <psa03 value="0.4118016652" flag="0"/>
      <psa10 value="0.4226908884" flag="0"/>
      <psa30 value="0.1358755494" flag="0"/>
    </comp>
    <comp name="--.HHN">
      <acc value="0.2243946338" flag="0"/>
      <vel value="0.3364138818" flag="0"/>
      <psa03 value="0.3410932188" flag="0"/>
      <psa10 value="0.4604042867" flag="0"/>
      <psa30 value="0.1085867310" flag="0"/>
    </comp>
    <comp name="--.HHZ">
      <acc value="0.1437320488" flag="0"/>
      <vel value="0.3697611927" flag="0"/>
      <psa03 value="0.1965720683" flag="0"/>
      <psa10 value="0.3914611720" flag="0"/>
      <psa30 value="0.2191897722" flag="0"/>
    </comp>
  </station>
  <station code="VLS" name="VLS" netid="HL" source="NOA" insttype="120P," lat="38.1768" lon="20.5886">
    <comp name="--.HHE">
      <acc value="2.9845055156" flag="0"/>
      <vel value="2.5301602984" flag="0"/>
      <psa03 value="5.0586115713" flag="0"/>
      <psa10 value="1.4053677044" flag="0"/>
      <psa30 value="0.5801221846" flag="0"/>
    </comp>
    <comp name="--.HHN">
      <acc value="2.9035680444" flag="0"/>
      <vel value="1.6453756811" flag="0"/>
      <psa03 value="3.9070213469" flag="0"/>
      <psa10 value="1.9121608223" flag="0"/>
      <psa30 value="0.5964839201" flag="0"/>
    </comp>
    <comp name="--.HHZ">
      <acc value="3.0525138727" flag="0"/>
      <vel value="1.8225841473" flag="0"/>
      <psa03 value="4.3378654925" flag="0"/>
      <psa10 value="1.2273452816" flag="0"/>
      <psa30 value="0.4828050726" flag="0"/>
    </comp>
  </station>
  <station code="ANX" name="ANX" netid="HP" source="NOA" insttype="120" lat="38.5933" lon="21.9209">
    <comp name="--.HHE">
      <acc value="0.5447165251" flag="0"/>
      <vel value="0.7172370138" flag="0"/>
      <psa03 value="1.7913712893" flag="0"/>
      <psa10 value="1.6127677368" flag="0"/>
      <psa30 value="0.1518565607" flag="0"/>
    </comp>
    <comp name="--.HHN">
      <acc value="0.9030426445" flag="0"/>
      <vel value="0.9754870312" flag="0"/>
      <psa03 value="1.6127889679" flag="0"/>
      <psa10 value="1.7199518893" flag="0"/>
      <psa30 value="0.2628893228" flag="0"/>
    </comp>
    <comp name="--.HHZ">
      <acc value="0.3935421116" flag="0"/>
      <vel value="0.5405571217" flag="0"/>
      <psa03 value="1.0560113211" flag="0"/>
      <psa10 value="1.2239591490" flag="0"/>
      <psa30 value="0.1432973687" flag="0"/>
    </comp>
  </station>
  <station code="DRO" name="DRO" netid="HP" source="NOA" insttype="120P," lat="37.952" lon="21.71">
    <comp name="--.HHE">
      <acc value="1.3153042438" flag="0"/>
      <vel value="0.9048676104" flag="0"/>
