<?xml version="1.0" encoding="UTF-8" standalone="yes"?>
<!DOCTYPE earthquake SYSTEM "stationlist.dtd">
<stationlist created="" xmlns="ch.ethz.sed.shakemap.usgs.xml">
  <station code="DARE" name="DARE" netid="KO" insttype="CMG-3ESP" lat="38.5712" lon="37.4832">
    <comp name="--.HHN">
      <acc value="0.0075747054" flag="0"/>
      <vel value="0.0041792686" flag="0"/>
      <psa03 value="0.0166793442" flag="0"/>
      <psa10 value="0.0046725808" flag="0"/>
      <psa30 value="0.0002113930" flag="0"/>
    </comp>
    <comp name="--.HHE">
      <acc value="0.0094089268" flag="0"/>
      <vel value="0.0058686535" flag="0"/>
      <psa03 value="0.0277469405" flag="0"/>
      <psa10 value="0.0051242047" flag="0"/>
      <psa30 value="0.0002437738" flag="0"/>
    </comp>
    <comp name="--.HHZ">
      <acc value="0.0103102106" flag="0"/>
      <vel value="0.0041436842" flag="0"/>
      <psa03 value="0.0401979899" flag="0"/>
      <psa10 value="0.0034114910" flag="0"/>
      <psa30 value="0.0003801569" flag="0"/>
    </comp>
  </station>
  <station code="GAZ" name="GAZ" netid="KO" insttype="CMG-3T" lat="37.1721" lon="37.2096">
    <comp name="--.HHN">
      <acc value="0.0573986879" flag="0"/>
      <vel value="0.0366198502" flag="0"/>
      <psa03 value="0.0752245343" flag="0"/>
      <psa10 value="0.0507194185" flag="0"/>
      <psa30 value="0.0017333365" flag="0"/>
    </comp>
    <comp name="--.HHZ">
      <acc value="0.0438189641" flag="0"/>
      <vel value="0.0205061769" flag="0"/>
      <psa03 value="0.0757052563" flag="0"/>
      <psa10 value="0.0140262021" flag="0"/>
      <psa30 value="0.0009770558" flag="0"/>
    </comp>
    <comp name="--.HHE">
      <acc value="0.0632154108" flag="0"/>
      <vel value="0.0261102794" flag="0"/>
      <psa03 value="0.1288379704" flag="0"/>
      <psa10 value="0.0191926495" flag="0"/>
      <psa30 value="0.0014683347" flag="0"/>
    </comp>
  </station>
  <station code="KHMN" name="KHMN" netid="KO" insttype="CMG-5T" lat="37.3916" lon="37.1574">
    <comp name="--.HNE">
      <acc value="0.8463164947" flag="0"/>
      <vel value="0.1241705088" flag="0"/>
      <psa03 value="0.3215312356" flag="0"/>
      <psa10 value="0.0516551008" flag="0"/>
      <psa30 value="0.0039660538" flag="0"/>
    </comp>
    <comp name="--.HNN">
      <acc value="0.9534336270" flag="0"/>
      <vel value="0.1768718636" flag="0"/>
      <psa03 value="0.3174039952" flag="0"/>
      <psa10 value="0.1006477466" flag="0"/>
      <psa30 value="0.0085141208" flag="0"/>
    </comp>
    <comp name="--.HNZ">
      <acc value="0.4066843935" flag="0"/>
      <vel value="0.0582242767" flag="0"/>
      <psa03 value="0.1512962791" flag="0"/>
      <psa10 value="0.0387318700" flag="0"/>
      <psa30 value="0.0024680093" flag="0"/>
    </comp>
  </station>
  <station code="KMRS" name="KMRS" netid="KO" insttype="CMG-3T" lat="37.5053" lon="36.9">
    <comp name="--.HHE">
      <acc value="0.1065668982" flag="0"/>
      <vel value="0.0214710487" flag="0"/>
      <psa03 value="0.0711223822" flag="0"/>
      <psa10 value="0.0095285048" flag="0"/>
      <psa30 value="0.0008111601" flag="0"/>
    </comp>
    <comp name="--.HHN">
      <acc value="0.1140984431" flag="0"/>
      <vel value="0.0244948504" flag="0"/>
      <psa03 value="0.1036049750" flag="0"/>
      <psa10 value="0.0100599911" flag="0"/>
      <psa30 value="0.0006437532" flag="0"/>
    </comp>
    <comp name="--.HHZ">
      <acc value="0.0732333307" flag="0"/>
      <vel value="0.0230675182" flag="0"/>
      <psa03 value="0.1218115953" flag="0"/>
      <psa10 value="0.0083538119" flag="0"/>
      <psa30 value="0.0006623881" flag="0"/>
    </comp>
  </station>
  <station code="SARI" name="SARI" netid="KO" insttype="CMG-3T" lat="38.4072" lon="36.4181">
    <comp name="--.HHE">
      <acc value="0.0513893471" flag="0"/>
      <vel value="0.0104510050" flag="0"/>
      <psa03 value="0.0722233950" flag="0"/>
      <psa10 value="0.0060514380" flag="0"/>
      <psa30 value="0.0004326224" flag="0"/>
    </comp>
    <comp name="--.HHN">
      <acc value="0.0601991869" flag="0"/>
      <vel value="0.0197294912" flag="0"/>
      <psa03 value="0.0581608753" flag="0"/>
      <psa10 value="0.0066209604" flag="0"/>
      <psa30 value="0.0004091293" flag="0"/>
    </comp>
    <comp name="--.HHZ">
      <acc value="0.0291244589" flag="0"/>
      <vel value="0.0109020746" flag="0"/>
      <psa03 value="0.0612328119" flag="0"/>
      <psa10 value="0.0051754878" flag="0"/>
      <psa30 value="0.0003442182" flag="0"/>
    </comp>
  </station>
  <station code="ANDN" name="ANDN" netid="TU" insttype="T" lat="37.58" lon="36.3452">
    <comp name="--.HHN">
      <acc value="0.2921516635" flag="0"/>
      <vel value="0.0573305160" flag="0"/>
      <psa03 value="0.2138024548" flag="0"/>
      <psa10 value="0.0160647345" flag="0"/>
      <psa30 value="0.0009558729" flag="0"/>
    </comp>
    <comp name="--.HHZ">
      <acc value="0.0895813651" flag="0"/>
      <vel value="0.0216900009" flag="0"/>
      <psa03 value="0.1237525801" flag="0"/>
      <psa10 value="0.0087641572" flag="0"/>
      <psa30 value="0.0004339555" flag="0"/>
    </comp>
    <comp name="--.HHE">
      <acc value="0.1796334498" flag="0"/>
      <vel value="0.0386728329" flag="0"/>
      <psa03 value="0.2024326778" flag="0"/>
      <psa10 value="0.0101441985" flag="0"/>
      <psa30 value="0.0011121498" flag="0"/>
    </comp>
  </station>
</stationlist>
