<?xml version="1.0" encoding="UTF-8" standalone="yes"?>
<!DOCTYPE earthquake SYSTEM "stationlist.dtd">
<stationlist created="" xmlns="ch.ethz.sed.shakemap.usgs.xml">
  <station code="SNT5" name="SNT5" netid="HA" insttype="1s-100Hz," lat="36.4037" lon="25.3953">
    <comp name="--.HHN">
      <acc value="0.1166105794" flag="0"/>
      <vel value="0.0338511273" flag="0"/>
      <psa03 value="0.1477537314" flag="0"/>
      <psa10 value="0.0146169914" flag="0"/>
      <psa30 value="0.0036227680" flag="0"/>
    </comp>
    <comp name="--.HHZ">
      <acc value="0.0381162902" flag="0"/>
      <vel value="0.0116265885" flag="0"/>
      <psa03 value="0.0375507469" flag="0"/>
      <psa10 value="0.0131564485" flag="0"/>
      <psa30 value="0.0013479854" flag="0"/>
    </comp>
    <comp name="--.HHE">
      <acc value="0.1501254439" flag="0"/>
      <vel value="0.0356424129" flag="0"/>
      <psa03 value="0.2899206111" flag="0"/>
      <psa10 value="0.0143406015" flag="0"/>
      <psa30 value="0.0064189844" flag="0"/>
    </comp>
  </station>
  <station code="KNSS" name="KNSS" netid="HC" insttype="60" lat="35.3042" lon="25.1802">
    <comp name="--.HHE">
      <acc value="0.0397702290" flag="0"/>
      <vel value="0.0129351284" flag="0"/>
      <psa03 value="0.0890974710" flag="0"/>
      <psa10 value="0.0122913595" flag="0"/>
      <psa30 value="0.0016571390" flag="0"/>
    </comp>
    <comp name="--.HHN">
      <acc value="0.0413226009" flag="0"/>
      <vel value="0.0134884496" flag="0"/>
      <psa03 value="0.0923120069" flag="0"/>
      <psa10 value="0.0098273782" flag="0"/>
      <psa30 value="0.0019391783" flag="0"/>
    </comp>
    <comp name="--.HHZ">
      <acc value="0.0342689535" flag="0"/>
      <vel value="0.0081585347" flag="0"/>
      <psa03 value="0.0418743942" flag="0"/>
      <psa10 value="0.0079902705" flag="0"/>
      <psa30 value="0.0009493580" flag="0"/>
    </comp>
  </station>
  <station code="STIA" name="STIA" netid="HC" insttype="120" lat="35.2021" lon="26.0909">
    <comp name="--.HHE">
      <acc value="0.0465593440" flag="0"/>
      <vel value="0.0211711151" flag="0"/>
      <psa03 value="0.0990261276" flag="0"/>
      <psa10 value="0.0258931688" flag="0"/>
      <psa30 value="0.0042831243" flag="0"/>
    </comp>
    <comp name="--.HHN">
      <acc value="0.0426725770" flag="0"/>
      <vel value="0.0226354414" flag="0"/>
      <psa03 value="0.0602727608" flag="0"/>
      <psa10 value="0.0283552965" flag="0"/>
      <psa30 value="0.0026332379" flag="0"/>
    </comp>
    <comp name="--.HHZ">
      <acc value="0.0765154936" flag="0"/>
      <vel value="0.0146507268" flag="0"/>
      <psa03 value="0.0562116702" flag="0"/>
      <psa10 value="0.0143198563" flag="0"/>
      <psa30 value="0.0014757912" flag="0"/>
    </comp>
  </station>
  <station code="TEFL" name="TEFL" netid="HC" insttype="GEOtiny," lat="35.0933" lon="25.1634">
    <comp name="--.HHE">
      <acc value="0.0816217624" flag="0"/>
      <vel value="0.0224326382" flag="0"/>
      <psa03 value="0.1366723294" flag="0"/>
      <psa10 value="0.0206107880" flag="0"/>
      <psa30 value="0.0022212060" flag="0"/>
    </comp>
    <comp name="--.HHZ">
      <acc value="0.0421923212" flag="0"/>
      <vel value="0.0110282254" flag="0"/>
      <psa03 value="0.0794105326" flag="0"/>
      <psa10 value="0.0117536465" flag="0"/>
      <psa30 value="0.0010550108" flag="0"/>
    </comp>
    <comp name="--.HHN">
      <acc value="0.1064787630" flag="0"/>
      <vel value="0.0234546487" flag="0"/>
      <psa03 value="0.2095913407" flag="0"/>
      <psa10 value="0.0295099556" flag="0"/>
      <psa30 value="0.0021455823" flag="0"/>
    </comp>
  </station>
  <station code="IACM" name="IACM" netid="HL" insttype="120" lat="35.3058" lon="25.0709">
    <comp name="--.HHN">
      <acc value="0.1035513290" flag="0"/>
      <vel value="0.0580370157" flag="0"/>
      <psa03 value="0.3171882312" flag="0"/>
      <psa10 value="0.0644300019" flag="0"/>
      <psa30 value="0.0027601624" flag="0"/>
    </comp>
    <comp name="--.HHE">
      <acc value="0.1042040035" flag="0"/>
      <vel value="0.0492831817" flag="0"/>
      <psa03 value="0.3948444869" flag="0"/>
      <psa10 value="0.0756159240" flag="0"/>
      <psa30 value="0.0044685828" flag="0"/>
    </comp>
    <comp name="--.HHZ">
      <acc value="0.0864570405" flag="0"/>
      <vel value="0.0260949888" flag="0"/>
      <psa03 value="0.1385108157" flag="0"/>
      <psa10 value="0.0185307670" flag="0"/>
      <psa30 value="0.0011872054" flag="0"/>
    </comp>
  </station>
  <station code="NPS" name="NPS" netid="HL" insttype="CMG3ESPC-120s" lat="35.2613" lon="25.6104">
    <comp name="--.HHZ">
      <acc value="0.0533468950" flag="0"/>
      <vel value="0.0124489649" flag="0"/>
      <psa03 value="0.0468239252" flag="0"/>
      <psa10 value="0.0198706315" flag="0"/>
      <psa30 value="0.0020345816" flag="0"/>
    </comp>
    <comp name="--.HHN">
      <acc value="0.0592606844" flag="0"/>
      <vel value="0.0162906883" flag="0"/>
      <psa03 value="0.0703495811" flag="0"/>
      <psa10 value="0.0302693239" flag="0"/>
      <psa30 value="0.0019247593" flag="0"/>
    </comp>
    <comp name="--.HHE">
      <acc value="0.0221426763" flag="0"/>
      <vel value="0.0093206620" flag="0"/>
      <psa03 value="0.0469446135" flag="0"/>
      <psa10 value="0.0183341754" flag="0"/>
      <psa30 value="0.0015700003" flag="0"/>
    </comp>
  </station>
  <station code="SAP3" name="SAP3" netid="HL" insttype="LE3D20_SMART24" lat="36.4356" lon="25.3454">
    <comp name="--.HHE">
      <acc value="0.0927889108" flag="0"/>
      <vel value="0.0557629665" flag="0"/>
      <psa03 value="0.1592916861" flag="0"/>
      <psa10 value="0.0585768181" flag="0"/>
      <psa30 value="0.0115795038" flag="0"/>
    </comp>
    <comp name="--.HHZ">
      <acc value="0.0871239769" flag="0"/>
      <vel value="0.0285060180" flag="0"/>
      <psa03 value="0.1356139677" flag="0"/>
      <psa10 value="0.0254107235" flag="0"/>
      <psa30 value="0.0031467036" flag="0"/>
    </comp>
    <comp name="--.HHN">
      <acc value="0.1077607273" flag="0"/>
      <vel value="0.0473695481" flag="0"/>
      <psa03 value="0.2112631861" flag="0"/>
      <psa10 value="0.0424416445" flag="0"/>
      <psa30 value="0.0097296748" flag="0"/>
    </comp>
  </station>
  <station code="THERA" name="THERA" netid="HL" insttype="120" lat="36.367" lon="25.4753">
    <comp name="--.HHE">
      <acc value="0.0355551873" flag="0"/>
      <vel value="0.0161194286" flag="0"/>
      <psa03 value="0.0676815625" flag="0"/>
      <psa10 value="0.0110554465" flag="0"/>
      <psa30 value="0.0015800488" flag="0"/>
    </comp>
    <comp name="--.HHN">
      <acc value="0.0238911668" flag="0"/>
      <vel value="0.0068542988" flag="0"/>
      <psa03 value="0.0385390664" flag="0"/>
      <psa10 value="0.0064671486" flag="0"/>
      <psa30 value="0.0005385717" flag="0"/>
    </comp>
    <comp name="--.HHZ">
      <acc value="0.0349963852" flag="0"/>
      <vel value="0.0125713411" flag="0"/>
      <psa03 value="0.0553805033" flag="0"/>
      <psa10 value="0.0100577966" flag="0"/>
      <psa30 value="0.0008166927" flag="0"/>
    </comp>
  </station>
  <station code="THRA" name="THRA" netid="HL" insttype="CMG-5" lat="36.415" lon="25.4324">
    <comp name="00.HNN">
      <acc value="0.1164034209" flag="0"/>
      <vel value="0.0471543367" flag="0"/>
      <psa03 value="0.1946933453" flag="0"/>
      <psa10 value="0.0869117233" flag="0"/>
      <psa30 value="0.0050180538" flag="0"/>
    </comp>
    <comp name="00.HNZ">
      <acc value="0.0720191495" flag="0"/>
      <vel value="0.0283063588" flag="0"/>
      <psa03 value="0.1121894288" flag="0"/>
      <psa10 value="0.0240127753" flag="0"/>
      <psa30 value="0.0018273086" flag="0"/>
    </comp>
    <comp name="00.HNE">
      <acc value="0.0918765709" flag="0"/>
      <vel value="0.0563506590" flag="0"/>
      <psa03 value="0.2231252440" flag="0"/>
      <psa10 value="0.1182764577" flag="0"/>
      <psa30 value="0.0096064021" flag="0"/>
    </comp>
  </station>
  <station code="CMBO" name="CMBO" netid="HT" insttype="120P," lat="36.4709" lon="25.4056">
    <comp name="--.HHN">
      <acc value="0.1209877411" flag="0"/>
      <vel value="0.0562290496" flag="0"/>
      <psa03 value="0.2154392551" flag="0"/>
      <psa10 value="0.0642233635" flag="0"/>
      <psa30 value="0.0049681129" flag="0"/>
    </comp>
    <comp name="--.HHZ">
      <acc value="0.1326002366" flag="0"/>
      <vel value="0.0362120934" flag="0"/>
      <psa03 value="0.2231787444" flag="0"/>
      <psa10 value="0.0157849018" flag="0"/>
      <psa30 value="0.0045877422" flag="0"/>
    </comp>
    <comp name="--.HHE">
      <acc value="0.1175018883" flag="0"/>
      <vel value="0.0522371672" flag="0"/>
      <psa03 value="0.1860684988" flag="0"/>
      <psa10 value="0.0570032521" flag="0"/>
      <psa30 value="0.0045130013" flag="0"/>
    </comp>
  </station>
</stationlist>
