<?xml version="1.0" encoding="UTF-8" standalone="yes"?>
<!DOCTYPE earthquake SYSTEM "stationlist.dtd">
<stationlist created="" xmlns="ch.ethz.sed.shakemap.usgs.xml">
  <station code="SNT5" name="SNT5" netid="HA" insttype="1s-100Hz," lat="36.4037" lon="25.3953">
    <comp name="--.HHN">
      <acc value="0.1166106010" flag="0"/>
      <vel value="0.0338425717" flag="0"/>
      <psa03 value="0.1477537543" flag="0"/>
      <psa10 value="0.0146169689" flag="0"/>
      <psa30 value="0.0036228291" flag="0"/>
    </comp>
    <comp name="--.HHE">
      <acc value="0.1501253891" flag="0"/>
      <vel value="0.0356622587" flag="0"/>
      <psa03 value="0.2899206650" flag="0"/>
      <psa10 value="0.0143405463" flag="0"/>
      <psa30 value="0.0064205629" flag="0"/>
    </comp>
    <comp name="--.HHZ">
      <acc value="0.0381162846" flag="0"/>
      <vel value="0.0116283460" flag="0"/>
      <psa03 value="0.0375507402" flag="0"/>
      <psa10 value="0.0131564430" flag="0"/>
      <psa30 value="0.0013476339" flag="0"/>
    </comp>
  </station>
  <station code="KNSS" name="KNSS" netid="HC" insttype="60" lat="35.3042" lon="25.1802">
    <comp name="--.HHN">
      <acc value="0.0413226013" flag="0"/>
      <vel value="0.0134884452" flag="0"/>
      <psa03 value="0.0923120069" flag="0"/>
      <psa10 value="0.0098273782" flag="0"/>
      <psa30 value="0.0019395021" flag="0"/>
    </comp>
    <comp name="--.HHE">
      <acc value="0.0397702293" flag="0"/>
      <vel value="0.0129351308" flag="0"/>
      <psa03 value="0.0890974710" flag="0"/>
      <psa10 value="0.0122913596" flag="0"/>
      <psa30 value="0.0013473572" flag="0"/>
    </comp>
    <comp name="--.HHZ">
      <acc value="0.0342689529" flag="0"/>
      <vel value="0.0081585394" flag="0"/>
      <psa03 value="0.0418743942" flag="0"/>
      <psa10 value="0.0079902708" flag="0"/>
      <psa30 value="0.0009496897" flag="0"/>
    </comp>
  </station>
  <station code="PFKS" name="PFKS" netid="HC" insttype="120" lat="35.0429" lon="25.4733">
    <comp name="--.HHN">
      <acc value="0.0472190230" flag="0"/>
      <vel value="0.0160890444" flag="0"/>
      <psa03 value="0.0712165777" flag="0"/>
      <psa10 value="0.0103096799" flag="0"/>
      <psa30 value="0.0011731033" flag="0"/>
    </comp>
    <comp name="--.HHZ">
      <acc value="0.0312089485" flag="0"/>
      <vel value="0.0078189559" flag="0"/>
      <psa03 value="0.0275713373" flag="0"/>
      <psa10 value="0.0105909350" flag="0"/>
      <psa30 value="0.0011375381" flag="0"/>
    </comp>
    <comp name="--.HHE">
      <acc value="0.0525627403" flag="0"/>
      <vel value="0.0147239875" flag="0"/>
      <psa03 value="0.0658359820" flag="0"/>
      <psa10 value="0.0202189169" flag="0"/>
      <psa30 value="0.0019023225" flag="0"/>
    </comp>
  </station>
  <station code="STIA" name="STIA" netid="HC" insttype="120" lat="35.2021" lon="26.0909">
    <comp name="--.HHN">
      <acc value="0.0426725771" flag="0"/>
      <vel value="0.0226354373" flag="0"/>
      <psa03 value="0.0602727608" flag="0"/>
      <psa10 value="0.0283552953" flag="0"/>
      <psa30 value="0.0026330488" flag="0"/>
    </comp>
    <comp name="--.HHE">
      <acc value="0.0465593440" flag="0"/>
      <vel value="0.0211711078" flag="0"/>
      <psa03 value="0.0990261276" flag="0"/>
      <psa10 value="0.0258931688" flag="0"/>
      <psa30 value="0.0042828648" flag="0"/>
    </comp>
    <comp name="--.HHZ">
      <acc value="0.0765154938" flag="0"/>
      <vel value="0.0146507296" flag="0"/>
      <psa03 value="0.0562116702" flag="0"/>
      <psa10 value="0.0143198566" flag="0"/>
      <psa30 value="0.0014757243" flag="0"/>
    </comp>
  </station>
  <station code="TEFL" name="TEFL" netid="HC" insttype="GEOtiny," lat="35.0933" lon="25.1634">
    <comp name="--.HHN">
      <acc value="0.1064787709" flag="0"/>
      <vel value="0.0234524155" flag="0"/>
      <psa03 value="0.2095913388" flag="0"/>
      <psa10 value="0.0295099586" flag="0"/>
      <psa30 value="0.0021455117" flag="0"/>
    </comp>
    <comp name="--.HHE">
      <acc value="0.0816217629" flag="0"/>
      <vel value="0.0224324442" flag="0"/>
      <psa03 value="0.1366723284" flag="0"/>
      <psa10 value="0.0206107922" flag="0"/>
      <psa30 value="0.0022206299" flag="0"/>
    </comp>
    <comp name="--.HHZ">
      <acc value="0.0421923234" flag="0"/>
      <vel value="0.0110282508" flag="0"/>
      <psa03 value="0.0794105324" flag="0"/>
      <psa10 value="0.0117536473" flag="0"/>
      <psa30 value="0.0010548238" flag="0"/>
    </comp>
  </station>
  <station code="IACM" name="IACM" netid="HL" insttype="120" lat="35.3058" lon="25.0709">
    <comp name="--.HHZ">
      <acc value="0.0864570404" flag="0"/>
      <vel value="0.0260949859" flag="0"/>
      <psa03 value="0.1385108157" flag="0"/>
      <psa10 value="0.0185307668" flag="0"/>
      <psa30 value="0.0011872241" flag="0"/>
    </comp>
    <comp name="--.HHN">
      <acc value="0.1035513289" flag="0"/>
      <vel value="0.0580370053" flag="0"/>
      <psa03 value="0.3171882312" flag="0"/>
      <psa10 value="0.0644300027" flag="0"/>
      <psa30 value="0.0027605429" flag="0"/>
    </comp>
    <comp name="--.HHE">
      <acc value="0.1042040035" flag="0"/>
      <vel value="0.0492831910" flag="0"/>
      <psa03 value="0.3948444869" flag="0"/>
      <psa10 value="0.0756159238" flag="0"/>
      <psa30 value="0.0044686505" flag="0"/>
    </comp>
  </station>
  <station code="NPS" name="NPS" netid="HL" insttype="CMG3ESPC-120s" lat="35.2613" lon="25.6104">
    <comp name="--.HHZ">
      <acc value="0.0533468926" flag="0"/>
      <vel value="0.0124489629" flag="0"/>
      <psa03 value="0.0468239252" flag="0"/>
      <psa10 value="0.0198706318" flag="0"/>
      <psa30 value="0.0020351269" flag="0"/>
    </comp>
    <comp name="--.HHN">
      <acc value="0.0592606849" flag="0"/>
      <vel value="0.0162906820" flag="0"/>
      <psa03 value="0.0703495811" flag="0"/>
      <psa10 value="0.0302693242" flag="0"/>
      <psa30 value="0.0019227466" flag="0"/>
    </comp>
    <comp name="--.HHE">
      <acc value="0.0221426762" flag="0"/>
      <vel value="0.0093206615" flag="0"/>
      <psa03 value="0.0469446135" flag="0"/>
      <psa10 value="0.0183341755" flag="0"/>
      <psa30 value="0.0015699669" flag="0"/>
    </comp>
  </station>
  <station code="SAP3" name="SAP3" netid="HL" insttype="LE3D20_SMART24" lat="36.4356" lon="25.3454">
    <comp name="--.HHZ">
      <acc value="0.0871239773" flag="0"/>
      <vel value="0.0285061542" flag="0"/>
      <psa03 value="0.1356139679" flag="0"/>
      <psa10 value="0.0254107239" flag="0"/>
      <psa30 value="0.0031470877" flag="0"/>
    </comp>
    <comp name="--.HHN">
      <acc value="0.1077607302" flag="0"/>
      <vel value="0.0473695558" flag="0"/>
      <psa03 value="0.2112631861" flag="0"/>
      <psa10 value="0.0424416427" flag="0"/>
      <psa30 value="0.0097308502" flag="0"/>
    </comp>
    <comp name="--.HHE">
      <acc value="0.0927889104" flag="0"/>
      <vel value="0.0557631596" flag="0"/>
      <psa03 value="0.1592916865" flag="0"/>
      <psa10 value="0.0585768179" flag="0"/>
      <psa30 value="0.0115768256" flag="0"/>
    </comp>
  </station>
  <station code="THERA" name="THERA" netid="HL" insttype="120" lat="36.367" lon="25.4753">
    <comp name="--.HHE">
      <acc value="0.0355551879" flag="0"/>
      <vel value="0.0161194311" flag="0"/>
      <psa03 value="0.0676815625" flag="0"/>
      <psa10 value="0.0110554467" flag="0"/>
      <psa30 value="0.0015802591" flag="0"/>
    </comp>
    <comp name="--.HHN">
      <acc value="0.0238911661" flag="0"/>
      <vel value="0.0068542994" flag="0"/>
      <psa03 value="0.0385390664" flag="0"/>
      <psa10 value="0.0064671487" flag="0"/>
      <psa30 value="0.0005384800" flag="0"/>
    </comp>
    <comp name="--.HHZ">
      <acc value="0.0349963852" flag="0"/>
      <vel value="0.0125713404" flag="0"/>
      <psa03 value="0.0553805033" flag="0"/>
      <psa10 value="0.0100577968" flag="0"/>
      <psa30 value="0.0008162853" flag="0"/>
    </comp>
  </station>
  <station code="THRA" name="THRA" netid="HL" insttype="CMG-5" lat="36.415" lon="25.4324">
    <comp name="00.HNN">
      <acc value="0.1164034193" flag="0"/>
      <vel value="0.0471543379" flag="0"/>
      <psa03 value="0.1946933453" flag="0"/>
      <psa10 value="0.0869117231" flag="0"/>
      <psa30 value="0.0050182700" flag="0"/>
    </comp>
    <comp name="00.HNZ">
      <acc value="0.0720191481" flag="0"/>
      <vel value="0.0283063533" flag="0"/>
      <psa03 value="0.1121894288" flag="0"/>
      <psa10 value="0.0240127755" flag="0"/>
      <psa30 value="0.0018268380" flag="0"/>
    </comp>
    <comp name="00.HNE">
      <acc value="0.0918765716" flag="0"/>
      <vel value="0.0563506508" flag="0"/>
      <psa03 value="0.2231252440" flag="0"/>
      <psa10 value="0.1182764608" flag="0"/>
      <psa30 value="0.0096064399" flag="0"/>
    </comp>
  </station>
  <station code="CMBO" name="CMBO" netid="HT" insttype="120P," lat="36.4709" lon="25.4056">
    <comp name="--.HHE">
      <acc value="0.1175018886" flag="0"/>
      <vel value="0.0522370754" flag="0"/>
      <psa03 value="0.1860684988" flag="0"/>
      <psa10 value="0.0570032554" flag="0"/>
      <psa30 value="0.0045178907" flag="0"/>
    </comp>
    <comp name="--.HHN">
      <acc value="0.1209877425" flag="0"/>
      <vel value="0.0562290520" flag="0"/>
      <psa03 value="0.2154392551" flag="0"/>
      <psa10 value="0.0642233625" flag="0"/>
      <psa30 value="0.0049681297" flag="0"/>
    </comp>
    <comp name="--.HHZ">
      <acc value="0.1326002373" flag="0"/>
      <vel value="0.0362121101" flag="0"/>
      <psa03 value="0.2231787444" flag="0"/>
      <psa10 value="0.0157849007" flag="0"/>
      <psa30 value="0.0045864488" flag="0"/>
    </comp>
  </station>
</stationlist>
