<?xml version="1.0" encoding="UTF-8" standalone="yes"?>
<!DOCTYPE earthquake SYSTEM "stationlist.dtd">
<stationlist created="" xmlns="ch.ethz.sed.shakemap.usgs.xml">
  <station code="SNT5" name="SNT5" netid="HA" insttype="1s-100Hz," lat="36.4037" lon="25.3953">
    <comp name="--.HHZ">
      <acc value="0.0381162872" flag="0"/>
      <vel value="0.0116281872" flag="0"/>
      <psa03 value="0.0375507436" flag="0"/>
      <psa10 value="0.0131564454" flag="0"/>
      <psa30 value="0.0013500568" flag="0"/>
    </comp>
    <comp name="--.HHE">
      <acc value="0.1501252409" flag="0"/>
      <vel value="0.0357123147" flag="0"/>
      <psa03 value="0.2899208127" flag="0"/>
      <psa10 value="0.0143403978" flag="0"/>
      <psa30 value="0.0064174980" flag="0"/>
    </comp>
    <comp name="--.HHN">
      <acc value="0.1166105782" flag="0"/>
      <vel value="0.0338509416" flag="0"/>
      <psa03 value="0.1477537315" flag="0"/>
      <psa10 value="0.0146169916" flag="0"/>
      <psa30 value="0.0036228441" flag="0"/>
    </comp>
  </station>
  <station code="KNSS" name="KNSS" netid="HC" insttype="60" lat="35.3042" lon="25.1802">
    <comp name="--.HHE">
      <acc value="0.0397702290" flag="0"/>
      <vel value="0.0129351207" flag="0"/>
      <psa03 value="0.0890974710" flag="0"/>
      <psa10 value="0.0122913596" flag="0"/>
      <psa30 value="0.0013473068" flag="0"/>
    </comp>
    <comp name="--.HHZ">
      <acc value="0.0342689529" flag="0"/>
      <vel value="0.0081585347" flag="0"/>
      <psa03 value="0.0418743942" flag="0"/>
      <psa10 value="0.0079902703" flag="0"/>
      <psa30 value="0.0009494008" flag="0"/>
    </comp>
    <comp name="--.HHN">
      <acc value="0.0413226014" flag="0"/>
      <vel value="0.0134884481" flag="0"/>
      <psa03 value="0.0923120069" flag="0"/>
      <psa10 value="0.0098273782" flag="0"/>
      <psa30 value="0.0019392430" flag="0"/>
    </comp>
  </station>
  <station code="PFKS" name="PFKS" netid="HC" insttype="120" lat="35.0429" lon="25.4733">
    <comp name="--.HHN">
      <acc value="0.0472190231" flag="0"/>
      <vel value="0.0160890516" flag="0"/>
      <psa03 value="0.0712165777" flag="0"/>
      <psa10 value="0.0103096801" flag="0"/>
      <psa30 value="0.0011729049" flag="0"/>
    </comp>
    <comp name="--.HHE">
      <acc value="0.0525627402" flag="0"/>
      <vel value="0.0147239931" flag="0"/>
      <psa03 value="0.0658359820" flag="0"/>
      <psa10 value="0.0202189169" flag="0"/>
      <psa30 value="0.0019021626" flag="0"/>
    </comp>
    <comp name="--.HHZ">
      <acc value="0.0312089487" flag="0"/>
      <vel value="0.0078189556" flag="0"/>
      <psa03 value="0.0275713373" flag="0"/>
      <psa10 value="0.0105909351" flag="0"/>
      <psa30 value="0.0011375955" flag="0"/>
    </comp>
  </station>
  <station code="STIA" name="STIA" netid="HC" insttype="120" lat="35.2021" lon="26.0909">
    <comp name="--.HHN">
      <acc value="0.0426725771" flag="0"/>
      <vel value="0.0226354341" flag="0"/>
      <psa03 value="0.0602727608" flag="0"/>
      <psa10 value="0.0283552948" flag="0"/>
      <psa30 value="0.0026333259" flag="0"/>
    </comp>
    <comp name="--.HHZ">
      <acc value="0.0765154940" flag="0"/>
      <vel value="0.0146507246" flag="0"/>
      <psa03 value="0.0562116702" flag="0"/>
      <psa10 value="0.0143198566" flag="0"/>
      <psa30 value="0.0014757429" flag="0"/>
    </comp>
    <comp name="--.HHE">
      <acc value="0.0465593439" flag="0"/>
      <vel value="0.0211711154" flag="0"/>
      <psa03 value="0.0990261276" flag="0"/>
      <psa10 value="0.0258931688" flag="0"/>
      <psa30 value="0.0042829086" flag="0"/>
    </comp>
  </station>
  <station code="TEFL" name="TEFL" netid="HC" insttype="GEOtiny," lat="35.0933" lon="25.1634">
    <comp name="--.HHN">
      <acc value="0.1064787671" flag="0"/>
      <vel value="0.0234583852" flag="0"/>
      <psa03 value="0.2095913413" flag="0"/>
      <psa10 value="0.0295099536" flag="0"/>
      <psa30 value="0.0021455687" flag="0"/>
    </comp>
    <comp name="--.HHE">
      <acc value="0.0816217549" flag="0"/>
      <vel value="0.0224308602" flag="0"/>
      <psa03 value="0.1366723308" flag="0"/>
      <psa10 value="0.0206107856" flag="0"/>
      <psa30 value="0.0022210978" flag="0"/>
    </comp>
    <comp name="--.HHZ">
      <acc value="0.0421923245" flag="0"/>
      <vel value="0.0110276075" flag="0"/>
      <psa03 value="0.0794105328" flag="0"/>
      <psa10 value="0.0117536447" flag="0"/>
      <psa30 value="0.0010549127" flag="0"/>
    </comp>
  </station>
  <station code="IACM" name="IACM" netid="HL" insttype="120" lat="35.3058" lon="25.0709">
    <comp name="--.HHZ">
      <acc value="0.0864570403" flag="0"/>
      <vel value="0.0260949886" flag="0"/>
      <psa03 value="0.1385108157" flag="0"/>
      <psa10 value="0.0185307669" flag="0"/>
      <psa30 value="0.0011872148" flag="0"/>
    </comp>
    <comp name="--.HHN">
      <acc value="0.1035513290" flag="0"/>
      <vel value="0.0580370157" flag="0"/>
      <psa03 value="0.3171882312" flag="0"/>
      <psa10 value="0.0644300022" flag="0"/>
      <psa30 value="0.0027602249" flag="0"/>
    </comp>
    <comp name="--.HHE">
      <acc value="0.1042040035" flag="0"/>
      <vel value="0.0492831892" flag="0"/>
      <psa03 value="0.3948444869" flag="0"/>
      <psa10 value="0.0756159240" flag="0"/>
      <psa30 value="0.0044685740" flag="0"/>
    </comp>
  </station>
  <station code="NPS" name="NPS" netid="HL" insttype="CMG3ESPC-120s" lat="35.2613" lon="25.6104">
    <comp name="--.HHE">
      <acc value="0.0221426763" flag="0"/>
      <vel value="0.0093206603" flag="0"/>
      <psa03 value="0.0469446135" flag="0"/>
      <psa10 value="0.0183341754" flag="0"/>
      <psa30 value="0.0015700702" flag="0"/>
    </comp>
    <comp name="--.HHZ">
      <acc value="0.0533468933" flag="0"/>
      <vel value="0.0124489587" flag="0"/>
      <psa03 value="0.0468239252" flag="0"/>
      <psa10 value="0.0198706318" flag="0"/>
      <psa30 value="0.0020350728" flag="0"/>
    </comp>
    <comp name="--.HHN">
      <acc value="0.0592606844" flag="0"/>
      <vel value="0.0162906903" flag="0"/>
      <psa03 value="0.0703495811" flag="0"/>
      <psa10 value="0.0302693240" flag="0"/>
      <psa30 value="0.0019238016" flag="0"/>
    </comp>
  </station>
  <station code="SAP3" name="SAP3" netid="HL" insttype="LE3D20_SMART24" lat="36.4356" lon="25.3454">
    <comp name="--.HHN">
      <acc value="0.1077607303" flag="0"/>
      <vel value="0.0473697190" flag="0"/>
      <psa03 value="0.2112631864" flag="0"/>
      <psa10 value="0.0424416417" flag="0"/>
      <psa30 value="0.0097282950" flag="0"/>
    </comp>
    <comp name="--.HHZ">
      <acc value="0.0871239773" flag="0"/>
      <vel value="0.0285062787" flag="0"/>
      <psa03 value="0.1356139682" flag="0"/>
      <psa10 value="0.0254107230" flag="0"/>
      <psa30 value="0.0031465568" flag="0"/>
    </comp>
    <comp name="--.HHE">
      <acc value="0.0927889104" flag="0"/>
      <vel value="0.0557629327" flag="0"/>
      <psa03 value="0.1592916861" flag="0"/>
      <psa10 value="0.0585768170" flag="0"/>
      <psa30 value="0.0115800370" flag="0"/>
    </comp>
  </station>
  <station code="THERA" name="THERA" netid="HL" insttype="120" lat="36.367" lon="25.4753">
    <comp name="--.HHZ">
      <acc value="0.0349963860" flag="0"/>
      <vel value="0.0125713482" flag="0"/>
      <psa03 value="0.0553805033" flag="0"/>
      <psa10 value="0.0100577968" flag="0"/>
      <psa30 value="0.0008170437" flag="0"/>
    </comp>
    <comp name="--.HHN">
      <acc value="0.0238911663" flag="0"/>
      <vel value="0.0068542985" flag="0"/>
      <psa03 value="0.0385390664" flag="0"/>
      <psa10 value="0.0064671486" flag="0"/>
      <psa30 value="0.0005385598" flag="0"/>
    </comp>
    <comp name="--.HHE">
      <acc value="0.0355551880" flag="0"/>
      <vel value="0.0161194264" flag="0"/>
      <psa03 value="0.0676815625" flag="0"/>
      <psa10 value="0.0110554464" flag="0"/>
      <psa30 value="0.0015796579" flag="0"/>
    </comp>
  </station>
  <station code="THRA" name="THRA" netid="HL" insttype="CMG-5" lat="36.415" lon="25.4324">
    <comp name="00.HNN">
      <acc value="0.1164034188" flag="0"/>
      <vel value="0.0471543414" flag="0"/>
      <psa03 value="0.1946933453" flag="0"/>
      <psa10 value="0.0869117236" flag="0"/>
      <psa30 value="0.0050177585" flag="0"/>
    </comp>
    <comp name="00.HNE">
      <acc value="0.0918765717" flag="0"/>
      <vel value="0.0563506570" flag="0"/>
      <psa03 value="0.2231252440" flag="0"/>
      <psa10 value="0.1182764554" flag="0"/>
      <psa30 value="0.0096062377" flag="0"/>
    </comp>
    <comp name="00.HNZ">
      <acc value="0.0720191494" flag="0"/>
      <vel value="0.0283063577" flag="0"/>
      <psa03 value="0.1121894288" flag="0"/>
      <psa10 value="0.0240127751" flag="0"/>
      <psa30 value="0.0018276976" flag="0"/>
    </comp>
  </station>
  <station code="CMBO" name="CMBO" netid="HT" insttype="120P," lat="36.4709" lon="25.4056">
    <comp name="--.HHE">
      <acc value="0.1175018886" flag="0"/>
      <vel value="0.0522372238" flag="0"/>
      <psa03 value="0.1860684988" flag="0"/>
      <psa10 value="0.0570032504" flag="0"/>
      <psa30 value="0.0045097789" flag="0"/>
    </comp>
    <comp name="--.HHN">
      <acc value="0.1209877425" flag="0"/>
      <vel value="0.0562290503" flag="0"/>
      <psa03 value="0.2154392551" flag="0"/>
      <psa10 value="0.0642233643" flag="0"/>
      <psa30 value="0.0049681172" flag="0"/>
    </comp>
    <comp name="--.HHZ">
      <acc value="0.1326002374" flag="0"/>
      <vel value="0.0362120810" flag="0"/>
      <psa03 value="0.2231787444" flag="0"/>
      <psa10 value="0.0157849017" flag="0"/>
      <psa30 value="0.0045888882" flag="0"/>
    </comp>
  </station>
</stationlist>
