<?xml version="1.0" encoding="UTF-8" standalone="yes"?>
<!DOCTYPE earthquake SYSTEM "stationlist.dtd">
<stationlist created="" xmlns="ch.ethz.sed.shakemap.usgs.xml">
  <station code="SNT5" name="SNT5" netid="HA" insttype="1s-100Hz," lat="36.4037" lon="25.3953">
    <comp name="--.HHE">
      <acc value="0.1501253916" flag="0"/>
      <vel value="0.0356596747" flag="0"/>
      <psa03 value="0.2899206625" flag="0"/>
      <psa10 value="0.0143405493" flag="0"/>
      <psa30 value="0.0064175294" flag="0"/>
    </comp>
    <comp name="--.HHZ">
      <acc value="0.0381162848" flag="0"/>
      <vel value="0.0116290349" flag="0"/>
      <psa03 value="0.0375507410" flag="0"/>
      <psa10 value="0.0131564431" flag="0"/>
      <psa30 value="0.0013513553" flag="0"/>
    </comp>
    <comp name="--.HHN">
      <acc value="0.1166106321" flag="0"/>
      <vel value="0.0338322746" flag="0"/>
      <psa03 value="0.1477537854" flag="0"/>
      <psa10 value="0.0146169384" flag="0"/>
      <psa30 value="0.0036227223" flag="0"/>
    </comp>
  </station>
  <station code="KNSS" name="KNSS" netid="HC" insttype="60" lat="35.3042" lon="25.1802">
    <comp name="--.HHZ">
      <acc value="0.0342689529" flag="0"/>
      <vel value="0.0081585347" flag="0"/>
      <psa03 value="0.0418743942" flag="0"/>
      <psa10 value="0.0079902703" flag="0"/>
      <psa30 value="0.0009494008" flag="0"/>
    </comp>
    <comp name="--.HHE">
      <acc value="0.0397702290" flag="0"/>
      <vel value="0.0129351207" flag="0"/>
      <psa03 value="0.0890974710" flag="0"/>
      <psa10 value="0.0122913596" flag="0"/>
      <psa30 value="0.0013473068" flag="0"/>
    </comp>
    <comp name="--.HHN">
      <acc value="0.0413226014" flag="0"/>
      <vel value="0.0134884481" flag="0"/>
      <psa03 value="0.0923120069" flag="0"/>
      <psa10 value="0.0098273782" flag="0"/>
      <psa30 value="0.0019392430" flag="0"/>
    </comp>
  </station>
  <station code="PFKS" name="PFKS" netid="HC" insttype="120" lat="35.0429" lon="25.4733">
    <comp name="--.HHE">
      <acc value="0.0525627401" flag="0"/>
      <vel value="0.0147239922" flag="0"/>
      <psa03 value="0.0658359820" flag="0"/>
      <psa10 value="0.0202189169" flag="0"/>
      <psa30 value="0.0019021251" flag="0"/>
    </comp>
    <comp name="--.HHZ">
      <acc value="0.0312089487" flag="0"/>
      <vel value="0.0078189597" flag="0"/>
      <psa03 value="0.0275713373" flag="0"/>
      <psa10 value="0.0105909351" flag="0"/>
      <psa30 value="0.0011375746" flag="0"/>
    </comp>
    <comp name="--.HHN">
      <acc value="0.0472190232" flag="0"/>
      <vel value="0.0160890502" flag="0"/>
      <psa03 value="0.0712165777" flag="0"/>
      <psa10 value="0.0103096802" flag="0"/>
      <psa30 value="0.0011728357" flag="0"/>
    </comp>
  </station>
  <station code="STIA" name="STIA" netid="HC" insttype="120" lat="35.2021" lon="26.0909">
    <comp name="--.HHZ">
      <acc value="0.0765154944" flag="0"/>
      <vel value="0.0146507315" flag="0"/>
      <psa03 value="0.0562116702" flag="0"/>
      <psa10 value="0.0143198566" flag="0"/>
      <psa30 value="0.0014757523" flag="0"/>
    </comp>
    <comp name="--.HHE">
      <acc value="0.0465593440" flag="0"/>
      <vel value="0.0211711101" flag="0"/>
      <psa03 value="0.0990261276" flag="0"/>
      <psa10 value="0.0258931688" flag="0"/>
      <psa30 value="0.0042829787" flag="0"/>
    </comp>
    <comp name="--.HHN">
      <acc value="0.0426725771" flag="0"/>
      <vel value="0.0226354346" flag="0"/>
      <psa03 value="0.0602727608" flag="0"/>
      <psa10 value="0.0283552953" flag="0"/>
      <psa30 value="0.0026333172" flag="0"/>
    </comp>
  </station>
  <station code="TEFL" name="TEFL" netid="HC" insttype="GEOtiny," lat="35.0933" lon="25.1634">
    <comp name="--.HHN">
      <acc value="0.1064787743" flag="0"/>
      <vel value="0.0234564931" flag="0"/>
      <psa03 value="0.2095913411" flag="0"/>
      <psa10 value="0.0295099543" flag="0"/>
      <psa30 value="0.0021455659" flag="0"/>
    </comp>
    <comp name="--.HHZ">
      <acc value="0.0421923241" flag="0"/>
      <vel value="0.0110281323" flag="0"/>
      <psa03 value="0.0794105326" flag="0"/>
      <psa10 value="0.0117536455" flag="0"/>
      <psa30 value="0.0010549203" flag="0"/>
    </comp>
    <comp name="--.HHE">
      <acc value="0.0816217598" flag="0"/>
      <vel value="0.0224309344" flag="0"/>
      <psa03 value="0.1366723311" flag="0"/>
      <psa10 value="0.0206107845" flag="0"/>
      <psa30 value="0.0022211303" flag="0"/>
    </comp>
  </station>
  <station code="IACM" name="IACM" netid="HL" insttype="120" lat="35.3058" lon="25.0709">
    <comp name="--.HHE">
      <acc value="0.1042040035" flag="0"/>
      <vel value="0.0492831893" flag="0"/>
      <psa03 value="0.3948444869" flag="0"/>
      <psa10 value="0.0756159240" flag="0"/>
      <psa30 value="0.0044685729" flag="0"/>
    </comp>
    <comp name="--.HHZ">
      <acc value="0.0864570403" flag="0"/>
      <vel value="0.0260949886" flag="0"/>
      <psa03 value="0.1385108157" flag="0"/>
      <psa10 value="0.0185307669" flag="0"/>
      <psa30 value="0.0011872152" flag="0"/>
    </comp>
    <comp name="--.HHN">
      <acc value="0.1035513290" flag="0"/>
      <vel value="0.0580370158" flag="0"/>
      <psa03 value="0.3171882312" flag="0"/>
      <psa10 value="0.0644300022" flag="0"/>
      <psa30 value="0.0027602286" flag="0"/>
    </comp>
  </station>
  <station code="NPS" name="NPS" netid="HL" insttype="CMG3ESPC-120s" lat="35.2613" lon="25.6104">
    <comp name="--.HHE">
      <acc value="0.0221426763" flag="0"/>
      <vel value="0.0093206602" flag="0"/>
      <psa03 value="0.0469446135" flag="0"/>
      <psa10 value="0.0183341754" flag="0"/>
      <psa30 value="0.0015700846" flag="0"/>
    </comp>
    <comp name="--.HHN">
      <acc value="0.0592606843" flag="0"/>
      <vel value="0.0162906901" flag="0"/>
      <psa03 value="0.0703495811" flag="0"/>
      <psa10 value="0.0302693240" flag="0"/>
      <psa30 value="0.0019239708" flag="0"/>
    </comp>
    <comp name="--.HHZ">
      <acc value="0.0533468934" flag="0"/>
      <vel value="0.0124489605" flag="0"/>
      <psa03 value="0.0468239252" flag="0"/>
      <psa10 value="0.0198706318" flag="0"/>
      <psa30 value="0.0020350192" flag="0"/>
    </comp>
  </station>
  <station code="SAP3" name="SAP3" netid="HL" insttype="LE3D20_SMART24" lat="36.4356" lon="25.3454">
    <comp name="--.HHE">
      <acc value="0.0927889105" flag="0"/>
      <vel value="0.0557628804" flag="0"/>
      <psa03 value="0.1592916861" flag="0"/>
      <psa10 value="0.0585768159" flag="0"/>
      <psa30 value="0.0115801723" flag="0"/>
    </comp>
    <comp name="--.HHZ">
      <acc value="0.0871239768" flag="0"/>
      <vel value="0.0285060640" flag="0"/>
      <psa03 value="0.1356139678" flag="0"/>
      <psa10 value="0.0254107234" flag="0"/>
      <psa30 value="0.0031460444" flag="0"/>
    </comp>
    <comp name="--.HHN">
      <acc value="0.1077607307" flag="0"/>
      <vel value="0.0473695311" flag="0"/>
      <psa03 value="0.2112631861" flag="0"/>
      <psa10 value="0.0424416385" flag="0"/>
      <psa30 value="0.0097271176" flag="0"/>
    </comp>
  </station>
  <station code="THERA" name="THERA" netid="HL" insttype="120" lat="36.367" lon="25.4753">
    <comp name="--.HHZ">
      <acc value="0.0349963860" flag="0"/>
      <vel value="0.0125713492" flag="0"/>
      <psa03 value="0.0553805033" flag="0"/>
      <psa10 value="0.0100577968" flag="0"/>
      <psa30 value="0.0008171237" flag="0"/>
    </comp>
    <comp name="--.HHN">
      <acc value="0.0238911664" flag="0"/>
      <vel value="0.0068542983" flag="0"/>
      <psa03 value="0.0385390664" flag="0"/>
      <psa10 value="0.0064671486" flag="0"/>
      <psa30 value="0.0005385540" flag="0"/>
    </comp>
    <comp name="--.HHE">
      <acc value="0.0355551881" flag="0"/>
      <vel value="0.0161194267" flag="0"/>
      <psa03 value="0.0676815625" flag="0"/>
      <psa10 value="0.0110554464" flag="0"/>
      <psa30 value="0.0015795773" flag="0"/>
    </comp>
  </station>
  <station code="THRA" name="THRA" netid="HL" insttype="CMG-5" lat="36.415" lon="25.4324">
    <comp name="00.HNN">
      <acc value="0.1164034192" flag="0"/>
      <vel value="0.0471543455" flag="0"/>
      <psa03 value="0.1946933453" flag="0"/>
      <psa10 value="0.0869117238" flag="0"/>
      <psa30 value="0.0050176183" flag="0"/>
    </comp>
    <comp name="00.HNZ">
      <acc value="0.0720191498" flag="0"/>
      <vel value="0.0283063563" flag="0"/>
      <psa03 value="0.1121894288" flag="0"/>
      <psa10 value="0.0240127751" flag="0"/>
      <psa30 value="0.0018279597" flag="0"/>
    </comp>
    <comp name="00.HNE">
      <acc value="0.0918765714" flag="0"/>
      <vel value="0.0563506515" flag="0"/>
      <psa03 value="0.2231252440" flag="0"/>
      <psa10 value="0.1182764544" flag="0"/>
      <psa30 value="0.0096058939" flag="0"/>
    </comp>
  </station>
  <station code="CMBO" name="CMBO" netid="HT" insttype="120P," lat="36.4709" lon="25.4056">
    <comp name="--.HHZ">
      <acc value="0.1326002374" flag="0"/>
      <vel value="0.0362120655" flag="0"/>
      <psa03 value="0.2231787444" flag="0"/>
      <psa10 value="0.0157849011" flag="0"/>
      <psa30 value="0.0045905946" flag="0"/>
    </comp>
    <comp name="--.HHE">
      <acc value="0.1175018886" flag="0"/>
      <vel value="0.0522372384" flag="0"/>
      <psa03 value="0.1860684988" flag="0"/>
      <psa10 value="0.0570032510" flag="0"/>
      <psa30 value="0.0045059890" flag="0"/>
    </comp>
    <comp name="--.HHN">
      <acc value="0.1209877424" flag="0"/>
      <vel value="0.0562290537" flag="0"/>
      <psa03 value="0.2154392551" flag="0"/>
      <psa10 value="0.0642233652" flag="0"/>
      <psa30 value="0.0049681188" flag="0"/>
    </comp>
  </station>
</stationlist>
