<?xml version="1.0" encoding="UTF-8" standalone="yes"?>
<!DOCTYPE earthquake SYSTEM "stationlist.dtd">
<stationlist created="" xmlns="ch.ethz.sed.shakemap.usgs.xml">
  <station code="KBN" name="KBN" netid="AC" insttype="" lat="40.6236" lon="20.7874">
    <comp name="--.HHN">
      <acc value="0.0049052502" flag="0"/>
      <vel value="0.0036818607" flag="0"/>
      <psa03 value="0.0115125387" flag="0"/>
      <psa10 value="0.0070497932" flag="0"/>
      <psa30 value="0.0003181601" flag="0"/>
    </comp>
    <comp name="--.HHE">
      <acc value="0.0059904810" flag="0"/>
      <vel value="0.0040298148" flag="0"/>
      <psa03 value="0.0158748783" flag="0"/>
      <psa10 value="0.0077037858" flag="0"/>
      <psa30 value="0.0003758336" flag="0"/>
    </comp>
    <comp name="--.HHZ">
      <acc value="0.0033433357" flag="0"/>
      <vel value="0.0024564626" flag="0"/>
      <psa03 value="0.0080505384" flag="0"/>
      <psa10 value="0.0039364022" flag="0"/>
      <psa30 value="0.0002349636" flag="0"/>
    </comp>
  </station>
  <station code="VLO" name="VLO" netid="AC" insttype="" lat="40.4686" lon="19.4955">
    <comp name="--.HHN">
      <acc value="0.1349051087" flag="0"/>
      <vel value="0.0549734342" flag="0"/>
      <psa03 value="0.2877332232" flag="0"/>
      <psa10 value="0.0301864232" flag="0"/>
      <psa30 value="0.0021806814" flag="0"/>
    </comp>
    <comp name="--.HHE">
      <acc value="0.0821671278" flag="0"/>
      <vel value="0.0332144370" flag="0"/>
      <psa03 value="0.2354259049" flag="0"/>
      <psa10 value="0.0282608701" flag="0"/>
      <psa30 value="0.0021397116" flag="0"/>
    </comp>
    <comp name="--.HHZ">
      <acc value="0.0455291215" flag="0"/>
      <vel value="0.0212759118" flag="0"/>
      <psa03 value="0.1809337426" flag="0"/>
      <psa10 value="0.0141725101" flag="0"/>
      <psa30 value="0.0016094571" flag="0"/>
    </comp>
  </station>
  <station code="JAN" name="JAN" netid="HL" insttype="CMG3EPSC60_DR24" lat="39.6562" lon="20.8487">
    <comp name="--.HHN">
      <acc value="0.0193051210" flag="0"/>
      <vel value="0.0083313738" flag="0"/>
      <psa03 value="0.0475116942" flag="0"/>
      <psa10 value="0.0161431624" flag="0"/>
      <psa30 value="0.0007898473" flag="0"/>
    </comp>
    <comp name="--.HHZ">
      <acc value="0.0095926046" flag="0"/>
      <vel value="0.0041455951" flag="0"/>
      <psa03 value="0.0239859009" flag="0"/>
      <psa10 value="0.0043708978" flag="0"/>
      <psa30 value="0.0003081620" flag="0"/>
    </comp>
    <comp name="--.HHE">
      <acc value="0.0179907655" flag="0"/>
      <vel value="0.0093495262" flag="0"/>
      <psa03 value="0.0515777134" flag="0"/>
      <psa10 value="0.0132913179" flag="0"/>
      <psa30 value="0.0007551560" flag="0"/>
    </comp>
  </station>
  <station code="KEK" name="KEK" netid="HL" insttype="120" lat="39.7127" lon="19.7962">
    <comp name="--.HHE">
      <acc value="0.0745823572" flag="0"/>
      <vel value="0.0220684900" flag="0"/>
      <psa03 value="0.0978106666" flag="0"/>
      <psa10 value="0.0174907373" flag="0"/>
      <psa30 value="0.0016870734" flag="0"/>
    </comp>
    <comp name="--.HHZ">
      <acc value="0.0500797818" flag="0"/>
      <vel value="0.0247251600" flag="0"/>
      <psa03 value="0.0451161093" flag="0"/>
      <psa10 value="0.0275656062" flag="0"/>
      <psa30 value="0.0014255422" flag="0"/>
    </comp>
    <comp name="--.HHN">
      <acc value="0.0637740374" flag="0"/>
      <vel value="0.0290891901" flag="0"/>
      <psa03 value="0.1274484648" flag="0"/>
      <psa10 value="0.0246381496" flag="0"/>
      <psa30 value="0.0011113531" flag="0"/>
    </comp>
  </station>
  <station code="PRMD" name="PRMD" netid="HP" insttype="120P," lat="39.5299" lon="21.0965">
    <comp name="--.HHZ">
      <acc value="0.0061205355" flag="0"/>
      <vel value="0.0045383497" flag="0"/>
      <psa03 value="0.0132430503" flag="0"/>
      <psa10 value="0.0056290053" flag="0"/>
      <psa30 value="0.0003346505" flag="0"/>
    </comp>
    <comp name="--.HHE">
      <acc value="0.0099218978" flag="0"/>
      <vel value="0.0081299287" flag="0"/>
      <psa03 value="0.0310343694" flag="0"/>
      <psa10 value="0.0118450789" flag="0"/>
      <psa30 value="0.0006681072" flag="0"/>
    </comp>
    <comp name="--.HHN">
      <acc value="0.0086482054" flag="0"/>
      <vel value="0.0049587262" flag="0"/>
      <psa03 value="0.0256313490" flag="0"/>
      <psa10 value="0.0068514966" flag="0"/>
      <psa30 value="0.0006295144" flag="0"/>
    </comp>
  </station>
  <station code="IGT" name="IGT" netid="HT" insttype="100" lat="39.5315" lon="20.3299">
    <comp name="--.HHN">
      <acc value="0.0208801913" flag="0"/>
      <vel value="0.0084648021" flag="0"/>
      <psa03 value="0.0256089712" flag="0"/>
      <psa10 value="0.0064677912" flag="0"/>
      <psa30 value="0.0005848587" flag="0"/>
    </comp>
    <comp name="--.HHE">
      <acc value="0.0166136709" flag="0"/>
      <vel value="0.0099226671" flag="0"/>
      <psa03 value="0.0609045298" flag="0"/>
      <psa10 value="0.0065874694" flag="0"/>
      <psa30 value="0.0008018434" flag="0"/>
    </comp>
    <comp name="--.HHZ">
      <acc value="0.0162686858" flag="0"/>
      <vel value="0.0063863424" flag="0"/>
      <psa03 value="0.0295224369" flag="0"/>
      <psa10 value="0.0040029693" flag="0"/>
      <psa30 value="0.0004399664" flag="0"/>
    </comp>
  </station>
  <station code="NEST" name="NEST" netid="HT" insttype="120P," lat="40.4147" lon="21.0489">
    <comp name="--.HHN">
      <acc value="0.0025530947" flag="0"/>
      <vel value="0.0020284913" flag="0"/>
      <psa03 value="0.0074998734" flag="0"/>
      <psa10 value="0.0032112827" flag="0"/>
      <psa30 value="0.0001690953" flag="0"/>
    </comp>
    <comp name="--.HHE">
      <acc value="0.0038473857" flag="0"/>
      <vel value="0.0019384165" flag="0"/>
      <psa03 value="0.0074734290" flag="0"/>
      <psa10 value="0.0016571671" flag="0"/>
      <psa30 value="0.0001614365" flag="0"/>
    </comp>
    <comp name="--.HHZ">
      <acc value="0.0026178039" flag="0"/>
      <vel value="0.0015425433" flag="0"/>
      <psa03 value="0.0078603129" flag="0"/>
      <psa10 value="0.0013881038" flag="0"/>
      <psa30 value="0.0001725732" flag="0"/>
    </comp>
  </station>
  <station code="SCTE" name="SCTE" netid="IV" insttype="" lat="40.0724" lon="18.4675">
    <comp name="--.HHE">
      <acc value="0.0392322917" flag="0"/>
      <vel value="0.0103901405" flag="0"/>
      <psa03 value="0.0487314071" flag="0"/>
      <psa10 value="0.0051881619" flag="0"/>
      <psa30 value="0.0003378106" flag="0"/>
    </comp>
    <comp name="--.HHN">
      <acc value="0.0357487854" flag="0"/>
      <vel value="0.0104480399" flag="0"/>
      <psa03 value="0.0681120655" flag="0"/>
      <psa10 value="0.0035093626" flag="0"/>
      <psa30 value="0.0003993735" flag="0"/>
    </comp>
    <comp name="--.HHZ">
      <acc value="0.0174072540" flag="0"/>
      <vel value="0.0047328246" flag="0"/>
      <psa03 value="0.0386702753" flag="0"/>
      <psa10 value="0.0019147409" flag="0"/>
      <psa30 value="0.0002315868" flag="0"/>
    </comp>
  </station>
  <station code="KEK" name="KEK" netid="MN" insttype="" lat="39.7127" lon="19.7962">
    <comp name="--.HHE">
      <acc value="0.0745823056" flag="0"/>
      <vel value="0.0220684750" flag="0"/>
      <psa03 value="0.0978105988" flag="0"/>
      <psa10 value="0.0174907257" flag="0"/>
      <psa30 value="0.0016871098" flag="0"/>
    </comp>
    <comp name="--.HHN">
      <acc value="0.0637739931" flag="0"/>
      <vel value="0.0290891701" flag="0"/>
      <psa03 value="0.1274483765" flag="0"/>
      <psa10 value="0.0246381317" flag="0"/>
      <psa30 value="0.0011112319" flag="0"/>
    </comp>
    <comp name="--.HHZ">
      <acc value="0.0500797471" flag="0"/>
      <vel value="0.0247251426" flag="0"/>
      <psa03 value="0.0451160780" flag="0"/>
      <psa10 value="0.0275655911" flag="0"/>
      <psa30 value="0.0014255542" flag="0"/>
    </comp>
  </station>
</stationlist>
