<stationlist created="1778069976">
	<station code="VAS2" name="VAS2" netid="HI" source="ITSAK Strong Motion Network" insttype="" lat="38.630558" lon="20.608081">
		<comp name="--.HNE" depth="0.0">
			<acc value="0.0152431905293038" flag="0"/>
			<vel value="0.0113650235735264" flag="0"/>
			<psa03 value="0.0487690052139162" flag="0"/>
			<psa10 value="0.0198158758891664" flag="0"/>
			<psa30 value="0.000727955701679281" flag="0"/>
		</comp>
		<comp name="--.HNN" depth="0.0">
			<acc value="0.013573175055133" flag="0"/>
			<vel value="0.010306235755194" flag="0"/>
			<psa03 value="0.0565988913721138" flag="0"/>
			<psa10 value="0.0146172789021894" flag="0"/>
			<psa30 value="0.000727508279613099" flag="0"/>
		</comp>
		<comp name="--.HNZ" depth="0.0">
			<acc value="0.00920837298265563" flag="0"/>
			<vel value="0.00681486023247213" flag="0"/>
			<psa03 value="0.0233106896481196" flag="0"/>
			<psa10 value="0.00699857595923007" flag="0"/>
			<psa30 value="0.000364201561872732" flag="0"/>
		</comp>
	</station>
	<station code="JAN" name="JAN" netid="HL" source="National Observatory of Athens Seismic Network" insttype="" lat="39.65616" lon="20.84874">
		<comp name="00.HNE" depth="0.0">
			<acc value="0.0183846928010347" flag="0"/>
			<vel value="0.00950976685964738" flag="0"/>
			<psa03 value="0.0534221947022165" flag="0"/>
			<psa10 value="0.0137917851900823" flag="0"/>
			<psa30 value="0.000890817333769791" flag="0"/>
		</comp>
		<comp name="00.HNN" depth="0.0">
			<acc value="0.0187754168367661" flag="0"/>
			<vel value="0.00852917267793672" flag="0"/>
			<psa03 value="0.0470688013624219" flag="0"/>
			<psa10 value="0.0159058544527956" flag="0"/>
			<psa30 value="0.000827283400371845" flag="0"/>
		</comp>
		<comp name="00.HNZ" depth="0.0">
			<acc value="0.00976731102578689" flag="0"/>
			<vel value="0.00425095410031942" flag="0"/>
			<psa03 value="0.0236238850944475" flag="0"/>
			<psa10 value="0.00430464769874393" flag="0"/>
			<psa30 value="0.000346304679225423" flag="0"/>
		</comp>
	</station>
	<station code="PDO" name="PDO" netid="HP" source="University of Patras, Seismological Laboratory (PSLNET)" insttype="" lat="38.5986" lon="21.1833">
		<comp name="--.HNE" depth="0.0">
			<acc value="0.00408583896885218" flag="0"/>
			<vel value="0.00205103270613166" flag="0"/>
			<psa03 value="0.0107381295883852" flag="0"/>
			<psa10 value="0.00275030344082516" flag="0"/>
			<psa30 value="0.000203129618046954" flag="0"/>
		</comp>
		<comp name="--.HNN" depth="0.0">
			<acc value="0.00385803867863156" flag="0"/>
			<vel value="0.00278894435490458" flag="0"/>
			<psa03 value="0.0192838910524751" flag="0"/>
			<psa10 value="0.00261339228857325" flag="0"/>
			<psa30 value="0.000167335852752336" flag="0"/>
		</comp>
		<comp name="--.HNZ" depth="0.0">
			<acc value="0.00270696517412184" flag="0"/>
			<vel value="0.0012175727196643" flag="0"/>
			<psa03 value="0.00747194850525138" flag="0"/>
			<psa10 value="0.00107515522503707" flag="0"/>
			<psa30 value="0.000228632675819369" flag="0"/>
		</comp>
	</station>
	<station code="MESG" name="MESG" netid="IV" source="Italian National Seismic Network (INSN)" insttype="" lat="40.589408" lon="17.850423">
		<comp name="--.HNE" depth="0.0">
			<acc value="0.0136510544669306" flag="0"/>
			<vel value="0.00624291342803866" flag="0"/>
			<psa03 value="0.0272282776981089" flag="0"/>
			<psa10 value="0.00420373410174596" flag="0"/>
			<psa30 value="0.000333907822879523" flag="0"/>
		</comp>
		<comp name="--.HNN" depth="0.0">
			<acc value="0.012533695757845" flag="0"/>
			<vel value="0.00460597797929076" flag="0"/>
			<psa03 value="0.0373483152884325" flag="0"/>
			<psa10 value="0.00418396044808837" flag="0"/>
			<psa30 value="0.000358649618151884" flag="0"/>
		</comp>
		<comp name="--.HNZ" depth="0.0">
			<acc value="0.00573927789001482" flag="0"/>
			<vel value="0.0027919995490884" flag="0"/>
			<psa03 value="0.015347844844382" flag="0"/>
			<psa10 value="0.00248029501049569" flag="0"/>
			<psa30 value="0.000276685985338717" flag="0"/>
		</comp>
	</station>
</stationlist>
