<?xml version="1.0" encoding="UTF-8" standalone="yes"?>
<!DOCTYPE earthquake SYSTEM "stationlist.dtd">
<stationlist created="" xmlns="ch.ethz.sed.shakemap.usgs.xml">
  <station code="ARPRA" name="ARPRA" netid="KO" insttype="CMG-5T" lat="39.0929" lon="38.3356">
    <comp name="--.HNE">
      <acc value="0.0219032382" flag="0"/>
      <vel value="0.0079906784" flag="0"/>
      <psa03 value="0.0598030247" flag="0"/>
      <psa10 value="0.0055649421" flag="0"/>
      <psa30 value="0.0004078802" flag="0"/>
    </comp>
    <comp name="--.HNN">
      <acc value="0.0165652449" flag="0"/>
      <vel value="0.0074412626" flag="0"/>
      <psa03 value="0.0578836546" flag="0"/>
      <psa10 value="0.0050425421" flag="0"/>
      <psa30 value="0.0003447484" flag="0"/>
    </comp>
    <comp name="--.HNZ">
      <acc value="0.0092535251" flag="0"/>
      <vel value="0.0034548079" flag="0"/>
      <psa03 value="0.0243946654" flag="0"/>
      <psa10 value="0.0026576614" flag="0"/>
      <psa30 value="0.0002531822" flag="0"/>
    </comp>
  </station>
  <station code="DARE" name="DARE" netid="KO" insttype="CMG-3ESP" lat="38.5712" lon="37.4832">
    <comp name="--.HHN">
      <acc value="0.0024399615" flag="0"/>
      <vel value="0.0018409446" flag="0"/>
      <psa03 value="0.0056602655" flag="0"/>
      <psa10 value="0.0024597932" flag="0"/>
      <psa30 value="0.0001603321" flag="0"/>
    </comp>
    <comp name="--.HHZ">
      <acc value="0.0023185651" flag="0"/>
      <vel value="0.0013193388" flag="0"/>
      <psa03 value="0.0055404013" flag="0"/>
      <psa10 value="0.0022235022" flag="0"/>
      <psa30 value="0.0002065858" flag="0"/>
    </comp>
    <comp name="--.HHE">
      <acc value="0.0025529320" flag="0"/>
      <vel value="0.0020218253" flag="0"/>
      <psa03 value="0.0052211014" flag="0"/>
      <psa10 value="0.0022253838" flag="0"/>
      <psa30 value="0.0001580669" flag="0"/>
    </comp>
  </station>
  <station code="SVRC" name="SVRC" netid="KO" insttype="CMG-3T" lat="38.3775" lon="39.306">
    <comp name="--.HHE">
      <acc value="0.0348048048" flag="0"/>
      <vel value="0.0147617423" flag="0"/>
      <psa03 value="0.1094849666" flag="0"/>
      <psa10 value="0.0053132330" flag="0"/>
      <psa30 value="0.0004680609" flag="0"/>
    </comp>
  </station>
  <station code="URFA" name="URFA" netid="KO" insttype="CMG-3ESP" lat="37.4409" lon="38.8213">
    <comp name="--.HHE">
      <acc value="0.0352139705" flag="0"/>
      <vel value="0.0074601599" flag="0"/>
      <psa03 value="0.0308114349" flag="0"/>
      <psa10 value="0.0060288397" flag="0"/>
      <psa30 value="0.0005871138" flag="0"/>
    </comp>
  </station>
</stationlist>
