<?xml version="1.0" encoding="UTF-8" standalone="yes"?>
<!DOCTYPE earthquake SYSTEM "stationlist.dtd">
<stationlist created="" xmlns="ch.ethz.sed.shakemap.usgs.xml">
  <station code="BH03A" name="BH03A" netid="Y5" insttype="STS2_gen3" lat="43.8212" lon="17.6885">
    <comp name="--.HH2">
      <acc value="0.0173962034" flag="0"/>
      <vel value="0.0091832964" flag="0"/>
      <psa03 value="0.0772304829" flag="0"/>
      <psa10 value="0.0055377561" flag="0"/>
      <psa30 value="0.0006277123" flag="0"/>
    </comp>
    <comp name="--.HHZ">
      <acc value="0.0086907105" flag="0"/>
      <vel value="0.0049654563" flag="0"/>
      <psa03 value="0.0349016150" flag="0"/>
      <psa10 value="0.0022810167" flag="0"/>
      <psa30 value="0.0005899708" flag="0"/>
    </comp>
    <comp name="--.HH1">
      <acc value="0.0156883375" flag="0"/>
      <vel value="0.0072186829" flag="0"/>
      <psa03 value="0.0572989040" flag="0"/>
      <psa10 value="0.0049358127" flag="0"/>
      <psa30 value="0.0007294706" flag="0"/>
    </comp>
  </station>
  <station code="BH04A" name="BH04A" netid="Y5" insttype="STS2_gen2" lat="43.3483" lon="17.7935">
    <comp name="--.HHZ">
      <acc value="0.0402164377" flag="0"/>
      <vel value="0.0180671953" flag="0"/>
      <psa03 value="0.1136446691" flag="0"/>
      <psa10 value="0.0248497241" flag="0"/>
      <psa30 value="0.0012729889" flag="0"/>
    </comp>
    <comp name="--.HH2">
      <acc value="0.0461238025" flag="0"/>
      <vel value="0.0235050501" flag="0"/>
      <psa03 value="0.1287696419" flag="0"/>
      <psa10 value="0.0223558140" flag="0"/>
      <psa30 value="0.0020386806" flag="0"/>
    </comp>
    <comp name="--.HH1">
      <acc value="0.0457203101" flag="0"/>
      <vel value="0.0295004040" flag="0"/>
      <psa03 value="0.1515000652" flag="0"/>
      <psa10 value="0.0225610458" flag="0"/>
      <psa30 value="0.0021562556" flag="0"/>
    </comp>
  </station>
  <station code="BH06A" name="BH06A" netid="Y5" insttype="STS2_gen3" lat="43.5022" lon="18.4463">
    <comp name="--.HH2">
      <acc value="0.0060160837" flag="0"/>
      <vel value="0.0040387055" flag="0"/>
      <psa03 value="0.0236663895" flag="0"/>
      <psa10 value="0.0029488005" flag="0"/>
      <psa30 value="0.0005812781" flag="0"/>
    </comp>
    <comp name="--.HHZ">
      <acc value="0.0054697027" flag="0"/>
      <vel value="0.0039822626" flag="0"/>
      <psa03 value="0.0123391772" flag="0"/>
      <psa10 value="0.0021516464" flag="0"/>
      <psa30 value="0.0006289824" flag="0"/>
    </comp>
    <comp name="--.HH1">
      <acc value="0.0082788394" flag="0"/>
      <vel value="0.0040648387" flag="0"/>
      <psa03 value="0.0167571414" flag="0"/>
      <psa10 value="0.0032621723" flag="0"/>
      <psa30 value="0.0003722852" flag="0"/>
    </comp>
  </station>
</stationlist>
