<?xml version="1.0" encoding="UTF-8" standalone="yes"?>
<!DOCTYPE earthquake SYSTEM "stationlist.dtd">
<stationlist created="" xmlns="ch.ethz.sed.shakemap.usgs.xml">
  <station code="URFA" name="URFA" netid="KO" insttype="CMG-3ESP" lat="37.4409" lon="38.8213">
    <comp name="--.HHE">
      <acc value="0.0588885836" flag="0"/>
      <vel value="0.0151124837" flag="0"/>
      <psa03 value="0.0589647824" flag="0"/>
      <psa10 value="0.0162934150" flag="0"/>
      <psa30 value="0.0023754217" flag="0"/>
    </comp>
    <comp name="--.HHN">
      <acc value="0.0502053327" flag="0"/>
      <vel value="0.0133253601" flag="0"/>
      <psa03 value="0.0523379936" flag="0"/>
      <psa10 value="0.0163147312" flag="0"/>
      <psa30 value="0.0015549909" flag="0"/>
    </comp>
    <comp name="--.HHZ">
      <acc value="0.0261627111" flag="0"/>
      <vel value="0.0074548899" flag="0"/>
      <psa03 value="0.0364937996" flag="0"/>
      <psa10 value="0.0102100516" flag="0"/>
      <psa30 value="0.0013146928" flag="0"/>
    </comp>
  </station>
</stationlist>
