<?xml version="1.0" encoding="UTF-8" standalone="yes"?>
<!DOCTYPE earthquake SYSTEM "stationlist.dtd">
<stationlist created="" xmlns="ch.ethz.sed.shakemap.usgs.xml">
  <station code="URFA" name="URFA" netid="KO" insttype="CMG-3ESP" lat="37.4409" lon="38.8213">
    <comp name="--.HHE">
      <acc value="0.0588885836" flag="0"/>
      <vel value="0.0151124819" flag="0"/>
      <psa03 value="0.0589647824" flag="0"/>
      <psa10 value="0.0162934155" flag="0"/>
      <psa30 value="0.0023755675" flag="0"/>
    </comp>
    <comp name="--.HHZ">
      <acc value="0.0261627111" flag="0"/>
      <vel value="0.0074548835" flag="0"/>
      <psa03 value="0.0364937997" flag="0"/>
      <psa10 value="0.0102100515" flag="0"/>
      <psa30 value="0.0013146922" flag="0"/>
    </comp>
    <comp name="--.HHN">
      <acc value="0.0502053326" flag="0"/>
      <vel value="0.0133253515" flag="0"/>
      <psa03 value="0.0523379936" flag="0"/>
      <psa10 value="0.0163147311" flag="0"/>
      <psa30 value="0.0015549870" flag="0"/>
    </comp>
  </station>
</stationlist>
