<stationlist xmlns:esm="https://esm-db.eu/esmws/shakemap/1/" created="1784080436">
	<station code="AOL1" name="AOL1" netid="HI" source="ITSAK Strong Motion Network" insttype="" lat="37.642378" lon="21.624555" esm:processing="automatic (Paolucci et al 2011)" esm:quality="best">
		<comp name="--.HNE" depth="0.0">
			<acc value="0.00659695780341849" flag="0"/>
			<vel value="0.003489105421812" flag="0"/>
			<psa03 value="0.0101124531035138" flag="0"/>
			<psa10 value="0.00462283186492337" flag="0"/>
			<psa30 value="0.000665212817084436" flag="0"/>
		</comp>
		<comp name="--.HNN" depth="0.0">
			<acc value="0.00894428580933555" flag="0"/>
			<vel value="0.00265700206168373" flag="0"/>
			<psa03 value="0.0121742166383543" flag="0"/>
			<psa10 value="0.00381418595235029" flag="0"/>
			<psa30 value="0.000430097971046437" flag="0"/>
		</comp>
		<comp name="--.HNZ" depth="0.0">
			<acc value="0.00545406184188159" flag="0"/>
			<vel value="0.00153925882901255" flag="0"/>
			<psa03 value="0.00686373203231169" flag="0"/>
			<psa10 value="0.00230170607048098" flag="0"/>
			<psa30 value="0.000191244023144623" flag="0"/>
		</comp>
	</station>
	<station code="KAC1" name="KAC1" netid="HI" source="ITSAK Strong Motion Network" insttype="" lat="38.143412" lon="21.549694" esm:processing="manual (Paolucci et al 2011)" esm:quality="good">
		<comp name="--.HNE" depth="0.0">
			<acc value="0.00203066355552005" flag="0"/>
			<vel value="0.0021670942520226" flag="0"/>
			<psa03 value="0.0078697478946753" flag="0"/>
			<psa10 value="0.00350543010816591" flag="0"/>
			<psa30 value="0.000392296013727287" flag="0"/>
		</comp>
		<comp name="--.HNN" depth="0.0">
			<acc value="0.00232410693408249" flag="0"/>
			<vel value="0.00185142989846208" flag="0"/>
			<psa03 value="0.00844361859308433" flag="0"/>
			<psa10 value="0.00299192476283193" flag="0"/>
			<psa30 value="0.000372069126920304" flag="0"/>
		</comp>
		<comp name="--.HNZ" depth="0.0">
			<acc value="0.00227994564618844" flag="0"/>
			<vel value="0.0011296618348916" flag="0"/>
			<psa03 value="0.00321202853633505" flag="0"/>
			<psa10 value="0.00157960675056992" flag="0"/>
			<psa30 value="0.000195308615320573" flag="0"/>
		</comp>
	</station>
	<station code="PET1" name="PET1" netid="HI" source="ITSAK Strong Motion Network" insttype="" lat="36.963862" lon="21.92538" esm:processing="manual (Paolucci et al 2011)" esm:quality="good">
		<comp name="--.HNE" depth="0.0">
			<acc value="0.00271187215500243" flag="0"/>
			<vel value="0.00171394264932343" flag="0"/>
			<psa03 value="0.00987503177655772" flag="0"/>
			<psa10 value="0.00195459327127407" flag="0"/>
			<psa30 value="0.000111635832826044" flag="0"/>
		</comp>
		<comp name="--.HNN" depth="0.0">
			<acc value="0.00269658098974211" flag="0"/>
			<vel value="0.00172225601842976" flag="0"/>
			<psa03 value="0.00735335496221952" flag="0"/>
			<psa10 value="0.00206522899878555" flag="0"/>
			<psa30 value="0.000172656216272809" flag="0"/>
		</comp>
		<comp name="--.HNZ" depth="0.0">
			<acc value="0.00115524779759992" flag="0"/>
			<vel value="0.000755323656592191" flag="0"/>
			<psa03 value="0.00397735071954868" flag="0"/>
			<psa10 value="0.00113708727957674" flag="0"/>
			<psa30 value="0.000107187536846184" flag="0"/>
		</comp>
	</station>
	<station code="PYL1" name="PYL1" netid="HI" source="ITSAK Strong Motion Network" insttype="" lat="36.914188" lon="21.695161" esm:processing="manual (Paolucci et al 2011)" esm:quality="bad">
		<comp name="--.HNE" depth="0.0">
			<acc value="0.00156262157118912" flag="0"/>
			<vel value="0.00140055095602146" flag="0"/>
			<psa03 value="0.00517282574723687" flag="0"/>
			<psa10 value="0.00179734594034964" flag="0"/>
			<psa30 value="0.000136301190743163" flag="0"/>
		</comp>
		<comp name="--.HNN" depth="0.0">
			<acc value="0.00160316801462643" flag="0"/>
			<vel value="0.00121293090407603" flag="0"/>
			<psa03 value="0.00532036677110249" flag="0"/>
			<psa10 value="0.0014794411307145" flag="0"/>
			<psa30 value="0.000215074846611598" flag="0"/>
		</comp>
		<comp name="--.HNZ" depth="0.0">
			<acc value="0.000987471072953967" flag="0"/>
			<vel value="0.000423131384616612" flag="0"/>
			<psa03 value="0.00236478702662833" flag="0"/>
			<psa10 value="0.00072156010450232" flag="0"/>
			<psa30 value="8.31176024874985e-05" flag="0"/>
		</comp>
	</station>
	<station code="PYR2" name="PYR2" netid="HI" source="ITSAK Strong Motion Network" insttype="" lat="37.6671" lon="21.4506" esm:processing="manual (Paolucci et al 2011)" esm:quality="good">
		<comp name="--.HNE" depth="0.0">
			<acc value="0.00731906227966105" flag="0"/>
			<vel value="0.00373591133021389" flag="0"/>
			<psa03 value="0.0195592839878222" flag="0"/>
			<psa10 value="0.00360554931869724" flag="0"/>
			<psa30 value="0.000407954681245495" flag="0"/>
		</comp>
		<comp name="--.HNN" depth="0.0">
			<acc value="0.00970735101754742" flag="0"/>
			<vel value="0.00335486890560414" flag="0"/>
			<psa03 value="0.0137096087151274" flag="0"/>
			<psa10 value="0.00362439595781959" flag="0"/>
			<psa30 value="0.000641159817441256" flag="0"/>
		</comp>
		<comp name="--.HNZ" depth="0.0">
			<acc value="0.00627712293492529" flag="0"/>
			<vel value="0.00218154881832594" flag="0"/>
			<psa03 value="0.00657730615696149" flag="0"/>
			<psa10 value="0.00216521765379323" flag="0"/>
			<psa30 value="0.000282258802427073" flag="0"/>
		</comp>
	</station>
	<station code="VAS2" name="VAS2" netid="HI" source="ITSAK Strong Motion Network" insttype="" lat="38.630558" lon="20.608081" esm:processing="manual (Paolucci et al 2011)" esm:quality="bad">
		<comp name="--.HNE" depth="0.0">
			<acc value="0.00303791869392325" flag="0"/>
			<vel value="0.00347155140098646" flag="0"/>
			<psa03 value="0.00724481977750015" flag="0"/>
			<psa10 value="0.00800195946552538" flag="0"/>
			<psa30 value="0.000305385126099073" flag="0"/>
		</comp>
		<comp name="--.HNN" depth="0.0">
			<acc value="0.00444664689851466" flag="0"/>
			<vel value="0.00401463554282556" flag="0"/>
			<psa03 value="0.0105957090751705" flag="0"/>
			<psa10 value="0.00911840842481776" flag="0"/>
			<psa30 value="0.000464090066604441" flag="0"/>
		</comp>
		<comp name="--.HNZ" depth="0.0">
			<acc value="0.00246154964494263" flag="0"/>
			<vel value="0.00178983670302762" flag="0"/>
			<psa03 value="0.00601693179533343" flag="0"/>
			<psa10 value="0.00251095188511513" flag="0"/>
			<psa30 value="0.000199822052334532" flag="0"/>
		</comp>
	</station>
	<station code="VSK1" name="VSK1" netid="HI" source="ITSAK Strong Motion Network" insttype="" lat="38.4091" lon="20.564" esm:processing="automatic (Paolucci et al 2011)" esm:quality="best">
		<comp name="--.HNE" depth="0.0">
			<acc value="0.00215078724626239" flag="0"/>
			<vel value="0.00144074172379815" flag="0"/>
			<psa03 value="0.00360921109773047" flag="0"/>
			<psa10 value="0.00292090138600678" flag="0"/>
			<psa30 value="0.000141829577805133" flag="0"/>
		</comp>
		<comp name="--.HNN" depth="0.0">
			<acc value="0.00188980018056411" flag="0"/>
			<vel value="0.00138149951954026" flag="0"/>
			<psa03 value="0.0039416380673024" flag="0"/>
			<psa10 value="0.00291222026405006" flag="0"/>
			<psa30 value="0.00019789478924607" flag="0"/>
		</comp>
		<comp name="--.HNZ" depth="0.0">
			<acc value="0.00118261540045647" flag="0"/>
			<vel value="0.000865420162734339" flag="0"/>
			<psa03 value="0.00256779770816273" flag="0"/>
			<psa10 value="0.00202284158145218" flag="0"/>
			<psa30 value="0.000128270268109078" flag="0"/>
		</comp>
	</station>
	<station code="PATG" name="PATG" netid="HL" source="National Observatory of Athens Seismic Network" insttype="" lat="38.23865" lon="21.72657" esm:processing="manual (Paolucci et al 2011)" esm:quality="bad">
		<comp name="00.HNE" depth="0.0">
			<acc value="0.00224555126529973" flag="0"/>
			<vel value="0.00192509851793396" flag="0"/>
			<psa03 value="0.00469329137628659" flag="0"/>
			<psa10 value="0.003067522036407" flag="0"/>
			<psa30 value="0.00074408184385393" flag="0"/>
		</comp>
		<comp name="00.HNN" depth="0.0">
			<acc value="0.00361635596266739" flag="0"/>
			<vel value="0.00229740595067748" flag="0"/>
			<psa03 value="0.0049533776161127" flag="0"/>
			<psa10 value="0.00387695854822535" flag="0"/>
			<psa30 value="0.000873444475993997" flag="0"/>
		</comp>
		<comp name="00.HNZ" depth="0.0">
			<acc value="0.019102041256335" flag="0"/>
			<vel value="0.00275972894058319" flag="0"/>
			<psa03 value="0.00337509793263159" flag="0"/>
			<psa10 value="0.00233095800827775" flag="0"/>
			<psa30 value="0.000420735189349555" flag="0"/>
		</comp>
	</station>
	<station code="ANX" name="ANX" netid="HP" source="University of Patras, Seismological Laboratory (PSLNET)" insttype="" lat="38.5933" lon="21.9209" esm:processing="manual (Paolucci et al 2011)" esm:quality="good">
		<comp name="--.HNE" depth="0.0">
			<acc value="0.000882295370074995" flag="0"/>
			<vel value="0.000783497703226779" flag="0"/>
			<psa03 value="0.0020576454234931" flag="0"/>
			<psa10 value="0.000975472374163271" flag="0"/>
			<psa30 value="0.000104219176144335" flag="0"/>
		</comp>
		<comp name="--.HNN" depth="0.0">
			<acc value="0.000926291002228653" flag="0"/>
			<vel value="0.000961924211496583" flag="0"/>
			<psa03 value="0.00210217229896249" flag="0"/>
			<psa10 value="0.00179004936323414" flag="0"/>
			<psa30 value="8.14367229082404e-05" flag="0"/>
		</comp>
		<comp name="--.HNZ" depth="0.0">
			<acc value="0.000574922915756981" flag="0"/>
			<vel value="0.000375611512140358" flag="0"/>
			<psa03 value="0.00112029898644528" flag="0"/>
			<psa10 value="0.000669022112402199" flag="0"/>
			<psa30 value="0.000102221869353371" flag="0"/>
		</comp>
	</station>
	<station code="LTHK" name="LTHK" netid="HP" source="University of Patras, Seismological Laboratory (PSLNET)" insttype="" lat="37.7095" lon="20.8367" esm:processing="manual (Paolucci et al 2011)" esm:quality="best">
		<comp name="--.HNE" depth="0.0">
			<acc value="0.0400216074075403" flag="0"/>
			<vel value="0.00679358114037327" flag="0"/>
			<psa03 value="0.0177548558595615" flag="0"/>
			<psa10 value="0.00336864612502181" flag="0"/>
			<psa30 value="0.000364966833511633" flag="0"/>
		</comp>
		<comp name="--.HNN" depth="0.0">
			<acc value="0.0280132278738894" flag="0"/>
			<vel value="0.00619451193147113" flag="0"/>
			<psa03 value="0.0227276149679578" flag="0"/>
			<psa10 value="0.00477314463489544" flag="0"/>
			<psa30 value="0.000495627572476195" flag="0"/>
		</comp>
		<comp name="--.HNZ" depth="0.0">
			<acc value="0.0199696515296441" flag="0"/>
			<vel value="0.0032653257975672" flag="0"/>
			<psa03 value="0.014602036323657" flag="0"/>
			<psa10 value="0.00212071814342087" flag="0"/>
			<psa30 value="0.000357734505446904" flag="0"/>
		</comp>
	</station>
	<station code="PDO" name="PDO" netid="HP" source="University of Patras, Seismological Laboratory (PSLNET)" insttype="" lat="38.5986" lon="21.1833" esm:processing="manual (Paolucci et al 2011)" esm:quality="best">
		<comp name="--.HNE" depth="0.0">
			<acc value="0.00163299645447551" flag="0"/>
			<vel value="0.000847073127392639" flag="0"/>
			<psa03 value="0.00394340608807316" flag="0"/>
			<psa10 value="0.0013024919868287" flag="0"/>
			<psa30 value="8.7794526894048e-05" flag="0"/>
		</comp>
		<comp name="--.HNN" depth="0.0">
			<acc value="0.00165438019992021" flag="0"/>
			<vel value="0.00100230517902845" flag="0"/>
			<psa03 value="0.00584612686055734" flag="0"/>
			<psa10 value="0.00153716272792573" flag="0"/>
			<psa30 value="8.22197956161426e-05" flag="0"/>
		</comp>
		<comp name="--.HNZ" depth="0.0">
			<acc value="0.00122726554068806" flag="0"/>
			<vel value="0.000529626625398246" flag="0"/>
			<psa03 value="0.00254201247136955" flag="0"/>
			<psa10 value="0.000499917140493833" flag="0"/>
			<psa30 value="6.01861159409892e-05" flag="0"/>
		</comp>
	</station>
	<station code="PYL" name="PYL" netid="HP" source="University of Patras, Seismological Laboratory (PSLNET)" insttype="" lat="36.8955" lon="21.742" esm:processing="manual (Paolucci et al 2011)" esm:quality="bad">
		<comp name="--.HNE" depth="0.0">
			<acc value="0.00257480917183966" flag="0"/>
			<vel value="0.00107597492094989" flag="0"/>
			<psa03 value="0.00504589806806502" flag="0"/>
			<psa10 value="0.00118580499907208" flag="0"/>
			<psa30 value="0.000135068856502871" flag="0"/>
		</comp>
		<comp name="--.HNN" depth="0.0">
			<acc value="0.00197575868850501" flag="0"/>
			<vel value="0.00181147892774237" flag="0"/>
			<psa03 value="0.00584587489074922" flag="0"/>
			<psa10 value="0.00289969302793081" flag="0"/>
			<psa30 value="0.000159462581842803" flag="0"/>
		</comp>
		<comp name="--.HNZ" depth="0.0">
			<acc value="0.00134959345229781" flag="0"/>
			<vel value="0.000509920845476826" flag="0"/>
			<psa03 value="0.00231572843819783" flag="0"/>
			<psa10 value="0.000484246024234345" flag="0"/>
			<psa30 value="5.98842404747231e-05" flag="0"/>
		</comp>
	</station>
	<station code="ROD3" name="ROD3" netid="CL" source="Corinth Riff Laboratory (CRLNET)" insttype="" lat="38.30811" lon="21.89204" esm:processing="automatic (Paolucci et al 2011)" esm:quality="bad">
		<comp name="00.HNE" depth="0.0">
			<acc value="0" flag="1"/>
			<vel value="0" flag="1"/>
			<psa03 value="0" flag="1"/>
			<psa10 value="0" flag="1"/>
			<psa30 value="0" flag="1"/>
		</comp>
		<comp name="00.HNN" depth="0.0">
			<acc value="0" flag="1"/>
			<vel value="0" flag="1"/>
			<psa03 value="0" flag="1"/>
			<psa10 value="0" flag="1"/>
			<psa30 value="0" flag="1"/>
		</comp>
		<comp name="00.HNZ" depth="0.0">
			<acc value="0" flag="1"/>
			<vel value="0" flag="1"/>
			<psa03 value="0" flag="1"/>
			<psa10 value="0" flag="1"/>
			<psa30 value="0" flag="1"/>
		</comp>
	</station>
	<station code="AIGS" name="AIGS" netid="HA" source="Hellenic Seismological Network, University of Athens, Seismological Laboratory (HA)" insttype="" lat="38.25001" lon="22.0878" esm:processing="automatic (Paolucci et al 2011)" esm:quality="bad">
		<comp name="--.HNE" depth="0.0">
			<acc value="0" flag="1"/>
			<vel value="0" flag="1"/>
			<psa03 value="0" flag="1"/>
			<psa10 value="0" flag="1"/>
			<psa30 value="0" flag="1"/>
		</comp>
		<comp name="--.HNN" depth="0.0">
			<acc value="0" flag="1"/>
			<vel value="0" flag="1"/>
			<psa03 value="0" flag="1"/>
			<psa10 value="0" flag="1"/>
			<psa30 value="0" flag="1"/>
		</comp>
		<comp name="--.HNZ" depth="0.0">
			<acc value="0" flag="1"/>
			<vel value="0" flag="1"/>
			<psa03 value="0" flag="1"/>
			<psa10 value="0" flag="1"/>
			<psa30 value="0" flag="1"/>
		</comp>
	</station>
	<station code="CORS" name="CORS" netid="HA" source="Hellenic Seismological Network, University of Athens, Seismological Laboratory (HA)" insttype="" lat="38.2562" lon="22.0748" esm:processing="automatic (Paolucci et al 2011)" esm:quality="bad">
		<comp name="00.HNE" depth="0.0">
			<acc value="0" flag="1"/>
			<vel value="0" flag="1"/>
			<psa03 value="0" flag="1"/>
			<psa10 value="0" flag="1"/>
			<psa30 value="0" flag="1"/>
		</comp>
		<comp name="00.HNN" depth="0.0">
			<acc value="0" flag="1"/>
			<vel value="0" flag="1"/>
			<psa03 value="0" flag="1"/>
			<psa10 value="0" flag="1"/>
			<psa30 value="0" flag="1"/>
		</comp>
		<comp name="00.HNZ" depth="0.0">
			<acc value="0" flag="1"/>
			<vel value="0" flag="1"/>
			<psa03 value="0" flag="1"/>
			<psa10 value="0" flag="1"/>
			<psa30 value="0" flag="1"/>
		</comp>
	</station>
	<station code="DRES" name="DRES" netid="HA" source="Hellenic Seismological Network, University of Athens, Seismological Laboratory (HA)" insttype="" lat="38.319719" lon="21.853176" esm:processing="automatic (Paolucci et al 2011)" esm:quality="bad">
		<comp name="--.HNE" depth="0.0">
			<acc value="0" flag="1"/>
			<vel value="0" flag="1"/>
			<psa03 value="0" flag="1"/>
			<psa10 value="0" flag="1"/>
			<psa30 value="0" flag="1"/>
		</comp>
		<comp name="--.HNN" depth="0.0">
			<acc value="0" flag="1"/>
			<vel value="0" flag="1"/>
			<psa03 value="0" flag="1"/>
			<psa10 value="0" flag="1"/>
			<psa30 value="0" flag="1"/>
		</comp>
		<comp name="--.HNZ" depth="0.0">
			<acc value="0" flag="1"/>
			<vel value="0" flag="1"/>
			<psa03 value="0" flag="1"/>
			<psa10 value="0" flag="1"/>
			<psa30 value="0" flag="1"/>
		</comp>
	</station>
	<station code="ARG2" name="ARG2" netid="HI" source="ITSAK Strong Motion Network" insttype="" lat="38.1783" lon="20.4878" esm:processing="discarded" esm:quality="bad">
		<comp name="--.HNE" depth="0.0">
			<acc value="0" flag="1"/>
			<vel value="0" flag="1"/>
			<psa03 value="0" flag="1"/>
			<psa10 value="0" flag="1"/>
			<psa30 value="0" flag="1"/>
		</comp>
		<comp name="--.HNN" depth="0.0">
			<acc value="0" flag="1"/>
			<vel value="0" flag="1"/>
			<psa03 value="0" flag="1"/>
			<psa10 value="0" flag="1"/>
			<psa30 value="0" flag="1"/>
		</comp>
		<comp name="--.HNZ" depth="0.0">
			<acc value="0" flag="1"/>
			<vel value="0" flag="1"/>
			<psa03 value="0" flag="1"/>
			<psa10 value="0" flag="1"/>
			<psa30 value="0" flag="1"/>
		</comp>
	</station>
	<station code="ARS1" name="ARS1" netid="HI" source="ITSAK Strong Motion Network" insttype="" lat="37.6349" lon="22.7293" esm:processing="discarded" esm:quality="bad">
		<comp name="--.HNE" depth="0.0">
			<acc value="0" flag="1"/>
			<vel value="0" flag="1"/>
			<psa03 value="0" flag="1"/>
			<psa10 value="0" flag="1"/>
			<psa30 value="0" flag="1"/>
		</comp>
		<comp name="--.HNN" depth="0.0">
			<acc value="0" flag="1"/>
			<vel value="0" flag="1"/>
			<psa03 value="0" flag="1"/>
			<psa10 value="0" flag="1"/>
			<psa30 value="0" flag="1"/>
		</comp>
		<comp name="--.HNZ" depth="0.0">
			<acc value="0" flag="1"/>
			<vel value="0" flag="1"/>
			<psa03 value="0" flag="1"/>
			<psa10 value="0" flag="1"/>
			<psa30 value="0" flag="1"/>
		</comp>
	</station>
	<station code="AST1" name="AST1" netid="HI" source="ITSAK Strong Motion Network" insttype="" lat="38.5416" lon="21.0895" esm:processing="automatic (Paolucci et al 2011)" esm:quality="bad">
		<comp name="--.HNE" depth="0.0">
			<acc value="0" flag="1"/>
			<vel value="0" flag="1"/>
			<psa03 value="0" flag="1"/>
			<psa10 value="0" flag="1"/>
			<psa30 value="0" flag="1"/>
		</comp>
		<comp name="--.HNN" depth="0.0">
			<acc value="0" flag="1"/>
			<vel value="0" flag="1"/>
			<psa03 value="0" flag="1"/>
			<psa10 value="0" flag="1"/>
			<psa30 value="0" flag="1"/>
		</comp>
		<comp name="--.HNZ" depth="0.0">
			<acc value="0" flag="1"/>
			<vel value="0" flag="1"/>
			<psa03 value="0" flag="1"/>
			<psa10 value="0" flag="1"/>
			<psa30 value="0" flag="1"/>
		</comp>
	</station>
	<station code="KLV1" name="KLV1" netid="HI" source="ITSAK Strong Motion Network" insttype="" lat="38.03256" lon="22.10797" esm:processing="discarded" esm:quality="bad">
		<comp name="--.HNE" depth="0.0">
			<acc value="0" flag="1"/>
			<vel value="0" flag="1"/>
			<psa03 value="0" flag="1"/>
			<psa10 value="0" flag="1"/>
			<psa30 value="0" flag="1"/>
		</comp>
		<comp name="--.HNN" depth="0.0">
			<acc value="0" flag="1"/>
			<vel value="0" flag="1"/>
			<psa03 value="0" flag="1"/>
			<psa10 value="0" flag="1"/>
			<psa30 value="0" flag="1"/>
		</comp>
		<comp name="--.HNZ" depth="0.0">
			<acc value="0" flag="1"/>
			<vel value="0" flag="1"/>
			<psa03 value="0" flag="1"/>
			<psa10 value="0" flag="1"/>
			<psa30 value="0" flag="1"/>
		</comp>
	</station>
	<station code="KYP2" name="KYP2" netid="HI" source="ITSAK Strong Motion Network" insttype="" lat="37.2497" lon="21.667" esm:processing="automatic (Paolucci et al 2011)" esm:quality="bad">
		<comp name="--.HNE" depth="0.0">
			<acc value="0" flag="1"/>
			<vel value="0" flag="1"/>
			<psa03 value="0" flag="1"/>
			<psa10 value="0" flag="1"/>
			<psa30 value="0" flag="1"/>
		</comp>
		<comp name="--.HNN" depth="0.0">
			<acc value="0" flag="1"/>
			<vel value="0" flag="1"/>
			<psa03 value="0" flag="1"/>
			<psa10 value="0" flag="1"/>
			<psa30 value="0" flag="1"/>
		</comp>
		<comp name="--.HNZ" depth="0.0">
