<stationlist created="1778138638">
	<station code="ROD3" name="ROD3" netid="CL" source="Corinth Riff Laboratory (CRLNET)" insttype="" lat="38.30811" lon="21.89204">
		<comp name="00.HNE" depth="0.0">
			<acc value="0.00170098384021897" flag="0"/>
			<vel value="0.00101511700112505" flag="0"/>
			<psa03 value="0.00664542395069015" flag="0"/>
			<psa10 value="0.000805742985893096" flag="0"/>
			<psa30 value="0.000295354722050937" flag="0"/>
		</comp>
		<comp name="00.HNN" depth="0.0">
			<acc value="0.00177761601948896" flag="0"/>
			<vel value="0.00101934176323" flag="0"/>
			<psa03 value="0.00555165032168083" flag="0"/>
			<psa10 value="0.00136245775614114" flag="0"/>
			<psa30 value="0.000282603096068325" flag="0"/>
		</comp>
		<comp name="00.HNZ" depth="0.0">
			<acc value="0.00131151671233658" flag="0"/>
			<vel value="0.000577277653909204" flag="0"/>
			<psa03 value="0.0027540916247408" flag="0"/>
			<psa10 value="0.000973524413088904" flag="0"/>
			<psa30 value="0.000123005166717643" flag="0"/>
		</comp>
	</station>
	<station code="AIGS" name="AIGS" netid="HA" source="Hellenic Seismological Network, University of Athens, Seismological Laboratory (HA)" insttype="" lat="38.25001" lon="22.0878">
		<comp name="--.HNE" depth="0.0">
			<acc value="0.00529768679585949" flag="0"/>
			<vel value="0.00169802008357644" flag="0"/>
			<psa03 value="0.00317195622028297" flag="0"/>
			<psa10 value="0.00246052323196519" flag="0"/>
			<psa30 value="0.000713015827547957" flag="0"/>
		</comp>
		<comp name="--.HNN" depth="0.0">
			<acc value="0.00817006755644315" flag="0"/>
			<vel value="0.00174258006992534" flag="0"/>
			<psa03 value="0.00388632646047371" flag="0"/>
			<psa10 value="0.00283098800781153" flag="0"/>
			<psa30 value="0.000830761231769905" flag="0"/>
		</comp>
		<comp name="--.HNZ" depth="0.0">
			<acc value="0.00609091201549541" flag="0"/>
			<vel value="0.00180751946226307" flag="0"/>
			<psa03 value="0.00359068773523228" flag="0"/>
			<psa10 value="0.00276037176733364" flag="0"/>
			<psa30 value="0.000731564035445402" flag="0"/>
		</comp>
	</station>
	<station code="CORS" name="CORS" netid="HA" source="Hellenic Seismological Network, University of Athens, Seismological Laboratory (HA)" insttype="" lat="38.2562" lon="22.0748">
		<comp name="00.HNE" depth="0.0">
			<acc value="0.00634254713273171" flag="0"/>
			<vel value="0.00144824704554066" flag="0"/>
			<psa03 value="0.00200599779636425" flag="0"/>
			<psa10 value="0.00365996401715581" flag="0"/>
			<psa30 value="0.000325633993529043" flag="0"/>
		</comp>
		<comp name="00.HNN" depth="0.0">
			<acc value="0.00389141931828208" flag="0"/>
			<vel value="0.000778619938548398" flag="0"/>
			<psa03 value="0.00218869137678256" flag="0"/>
			<psa10 value="0.00150885280565647" flag="0"/>
			<psa30 value="0.000247136345528394" flag="0"/>
		</comp>
		<comp name="00.HNZ" depth="0.0">
			<acc value="0.00719723740048105" flag="0"/>
			<vel value="0.00103080244930869" flag="0"/>
			<psa03 value="0.00147842915612229" flag="0"/>
			<psa10 value="0.000886914476385746" flag="0"/>
			<psa30 value="0.000142871639024232" flag="0"/>
		</comp>
	</station>
	<station code="DRES" name="DRES" netid="HA" source="Hellenic Seismological Network, University of Athens, Seismological Laboratory (HA)" insttype="" lat="38.319719" lon="21.853176">
		<comp name="--.HNE" depth="0.0">
			<acc value="0.00226961330468324" flag="0"/>
			<vel value="0.00153116032446528" flag="0"/>
			<psa03 value="0.00293169518697975" flag="0"/>
			<psa10 value="0.00255883435396584" flag="0"/>
			<psa30 value="0.000671830130451116" flag="0"/>
		</comp>
		<comp name="--.HNN" depth="0.0">
			<acc value="0.0016570367879514" flag="0"/>
			<vel value="0.0010655509594971" flag="0"/>
			<psa03 value="0.00252474814410216" flag="0"/>
			<psa10 value="0.00212092018805249" flag="0"/>
			<psa30 value="0.000535642567025724" flag="0"/>
		</comp>
		<comp name="--.HNZ" depth="0.0">
			<acc value="0.00205141864649559" flag="0"/>
			<vel value="0.00125071733064886" flag="0"/>
			<psa03 value="0.00280289563901777" flag="0"/>
			<psa10 value="0.00250962312521517" flag="0"/>
			<psa30 value="0.000769042351530529" flag="0"/>
		</comp>
	</station>
	<station code="PYL1" name="PYL1" netid="HI" source="ITSAK Strong Motion Network" insttype="" lat="36.914188" lon="21.695161">
		<comp name="--.HNE" depth="0.0">
			<acc value="0.00156262157118912" flag="0"/>
			<vel value="0.00140055095602146" flag="0"/>
			<psa03 value="0.00517282574723687" flag="0"/>
			<psa10 value="0.00179734594034964" flag="0"/>
			<psa30 value="0.000136301190743163" flag="0"/>
		</comp>
		<comp name="--.HNN" depth="0.0">
			<acc value="0.00160316801462643" flag="0"/>
			<vel value="0.00121293090407603" flag="0"/>
			<psa03 value="0.00532036677110249" flag="0"/>
			<psa10 value="0.0014794411307145" flag="0"/>
			<psa30 value="0.000215074846611598" flag="0"/>
		</comp>
		<comp name="--.HNZ" depth="0.0">
			<acc value="0.000987471072953967" flag="0"/>
			<vel value="0.000423131384616612" flag="0"/>
			<psa03 value="0.00236478702662833" flag="0"/>
			<psa10 value="0.00072156010450232" flag="0"/>
			<psa30 value="8.31176024874985e-05" flag="0"/>
		</comp>
	</station>
	<station code="VAS2" name="VAS2" netid="HI" source="ITSAK Strong Motion Network" insttype="" lat="38.630558" lon="20.608081">
		<comp name="--.HNE" depth="0.0">
			<acc value="0.00303791869392325" flag="0"/>
			<vel value="0.00347155140098646" flag="0"/>
			<psa03 value="0.00724481977750015" flag="0"/>
			<psa10 value="0.00800195946552538" flag="0"/>
			<psa30 value="0.000305385126099073" flag="0"/>
		</comp>
		<comp name="--.HNN" depth="0.0">
			<acc value="0.00444664689851466" flag="0"/>
			<vel value="0.00401463554282556" flag="0"/>
			<psa03 value="0.0105957090751705" flag="0"/>
			<psa10 value="0.00911840842481776" flag="0"/>
			<psa30 value="0.000464090066604441" flag="0"/>
		</comp>
		<comp name="--.HNZ" depth="0.0">
			<acc value="0.00246154964494263" flag="0"/>
			<vel value="0.00178983670302762" flag="0"/>
			<psa03 value="0.00601693179533343" flag="0"/>
			<psa10 value="0.00251095188511513" flag="0"/>
			<psa30 value="0.000199822052334532" flag="0"/>
		</comp>
	</station>
	<station code="PATG" name="PATG" netid="HL" source="National Observatory of Athens Seismic Network" insttype="" lat="38.23865" lon="21.72657">
		<comp name="00.HNE" depth="0.0">
			<acc value="0.00224555126529973" flag="0"/>
			<vel value="0.00192509851793396" flag="0"/>
			<psa03 value="0.00469329137628659" flag="0"/>
			<psa10 value="0.003067522036407" flag="0"/>
			<psa30 value="0.00074408184385393" flag="0"/>
		</comp>
		<comp name="00.HNN" depth="0.0">
			<acc value="0.00361635596266739" flag="0"/>
			<vel value="0.00229740595067748" flag="0"/>
			<psa03 value="0.0049533776161127" flag="0"/>
			<psa10 value="0.00387695854822535" flag="0"/>
			<psa30 value="0.000873444475993997" flag="0"/>
		</comp>
		<comp name="00.HNZ" depth="0.0">
			<acc value="0.019102041256335" flag="0"/>
			<vel value="0.00275972894058319" flag="0"/>
			<psa03 value="0.00337509793263159" flag="0"/>
			<psa10 value="0.00233095800827775" flag="0"/>
			<psa30 value="0.000420735189349555" flag="0"/>
		</comp>
	</station>
	<station code="ANX" name="ANX" netid="HP" source="University of Patras, Seismological Laboratory (PSLNET)" insttype="" lat="38.5933" lon="21.9209">
		<comp name="--.HNE" depth="0.0">
			<acc value="0.000882295370074995" flag="0"/>
			<vel value="0.000783497703226779" flag="0"/>
			<psa03 value="0.0020576454234931" flag="0"/>
			<psa10 value="0.000975472374163271" flag="0"/>
			<psa30 value="0.000104219176144335" flag="0"/>
		</comp>
		<comp name="--.HNN" depth="0.0">
			<acc value="0.000926291002228653" flag="0"/>
			<vel value="0.000961924211496583" flag="0"/>
			<psa03 value="0.00210217229896249" flag="0"/>
			<psa10 value="0.00179004936323414" flag="0"/>
			<psa30 value="8.14367229082404e-05" flag="0"/>
		</comp>
		<comp name="--.HNZ" depth="0.0">
			<acc value="0.000574922915756981" flag="0"/>
			<vel value="0.000375611512140358" flag="0"/>
			<psa03 value="0.00112029898644528" flag="0"/>
			<psa10 value="0.000669022112402199" flag="0"/>
			<psa30 value="0.000102221869353371" flag="0"/>
		</comp>
	</station>
	<station code="LTHK" name="LTHK" netid="HP" source="University of Patras, Seismological Laboratory (PSLNET)" insttype="" lat="37.7095" lon="20.8367">
		<comp name="--.HNE" depth="0.0">
			<acc value="0.0400216074075403" flag="0"/>
			<vel value="0.00679358114037327" flag="0"/>
			<psa03 value="0.0177548558595615" flag="0"/>
			<psa10 value="0.00336864612502181" flag="0"/>
			<psa30 value="0.000364966833511633" flag="0"/>
		</comp>
		<comp name="--.HNN" depth="0.0">
			<acc value="0.0280132278738894" flag="0"/>
			<vel value="0.00619451193147113" flag="0"/>
			<psa03 value="0.0227276149679578" flag="0"/>
			<psa10 value="0.00477314463489544" flag="0"/>
			<psa30 value="0.000495627572476195" flag="0"/>
		</comp>
		<comp name="--.HNZ" depth="0.0">
			<acc value="0.0199696515296441" flag="0"/>
			<vel value="0.0032653257975672" flag="0"/>
			<psa03 value="0.014602036323657" flag="0"/>
			<psa10 value="0.00212071814342087" flag="0"/>
			<psa30 value="0.000357734505446904" flag="0"/>
		</comp>
	</station>
	<station code="PDO" name="PDO" netid="HP" source="University of Patras, Seismological Laboratory (PSLNET)" insttype="" lat="38.5986" lon="21.1833">
		<comp name="--.HNE" depth="0.0">
			<acc value="0.00163299645447551" flag="0"/>
			<vel value="0.000847073127392639" flag="0"/>
			<psa03 value="0.00394340608807316" flag="0"/>
			<psa10 value="0.0013024919868287" flag="0"/>
			<psa30 value="8.7794526894048e-05" flag="0"/>
		</comp>
		<comp name="--.HNN" depth="0.0">
			<acc value="0.00165438019992021" flag="0"/>
			<vel value="0.00100230517902845" flag="0"/>
			<psa03 value="0.00584612686055734" flag="0"/>
			<psa10 value="0.00153716272792573" flag="0"/>
			<psa30 value="8.22197956161426e-05" flag="0"/>
		</comp>
		<comp name="--.HNZ" depth="0.0">
			<acc value="0.00122726554068806" flag="0"/>
			<vel value="0.000529626625398246" flag="0"/>
			<psa03 value="0.00254201247136955" flag="0"/>
			<psa10 value="0.000499917140493833" flag="0"/>
			<psa30 value="6.01861159409892e-05" flag="0"/>
		</comp>
	</station>
	<station code="PYL" name="PYL" netid="HP" source="University of Patras, Seismological Laboratory (PSLNET)" insttype="" lat="36.8955" lon="21.742">
		<comp name="--.HNE" depth="0.0">
			<acc value="0.00257480917183966" flag="0"/>
			<vel value="0.00107597492094989" flag="0"/>
			<psa03 value="0.00504589806806502" flag="0"/>
			<psa10 value="0.00118580499907208" flag="0"/>
			<psa30 value="0.000135068856502871" flag="0"/>
		</comp>
		<comp name="--.HNN" depth="0.0">
			<acc value="0.00197575868850501" flag="0"/>
			<vel value="0.00181147892774237" flag="0"/>
			<psa03 value="0.00584587489074922" flag="0"/>
			<psa10 value="0.00289969302793081" flag="0"/>
			<psa30 value="0.000159462581842803" flag="0"/>
		</comp>
		<comp name="--.HNZ" depth="0.0">
			<acc value="0.00134959345229781" flag="0"/>
			<vel value="0.000509920845476826" flag="0"/>
			<psa03 value="0.00231572843819783" flag="0"/>
			<psa10 value="0.000484246024234345" flag="0"/>
			<psa30 value="5.98842404747231e-05" flag="0"/>
		</comp>
	</station>
</stationlist>
