<?xml version="1.0" encoding="UTF-8" standalone="yes"?>
<!DOCTYPE earthquake SYSTEM "stationlist.dtd">
<stationlist created="" xmlns="ch.ethz.sed.shakemap.usgs.xml">
  <station code="AMT" name="AMT" netid="HP" insttype="CMG-3T," lat="37.5324" lon="21.7089">
    <comp name="00.HHE">
      <acc value="0.8888888" flag="0"/>
      <vel value="0.0021200738" flag="0"/>
      <psa03 value="0.0081252436" flag="0"/>
      <psa10 value="0.0042316579" flag="0"/>
      <psa30 value="0.0002810613" flag="0"/>
    </comp>
    <comp name="00.HHN">
      <acc value="0.0027686214" flag="0"/>
      <vel value="0.0025434724" flag="0"/>
      <psa03 value="0.0082765048" flag="0"/>
      <psa10 value="0.0037955209" flag="0"/>
      <psa30 value="0.0002464026" flag="0"/>
    </comp>
    <comp name="00.HHZ">
      <acc value="0.0021838295" flag="0"/>
      <vel value="0.0014771398" flag="0"/>
      <psa03 value="0.0055019456" flag="0"/>
      <psa10 value="0.0018795569" flag="0"/>
      <psa30 value="0.0001400407" flag="0"/>
    </comp>
  </station>
  <station code="LTHK" name="LTHK" netid="HP" insttype="40," lat="37.7095" lon="20.8367">
    <comp name="--.HHE">
      <acc value="0.0397521349" flag="0"/>
      <vel value="0.0066537087" flag="0"/>
      <psa03 value="0.0173131431" flag="0"/>
      <psa10 value="0.0034507634" flag="0"/>
      <psa30 value="0.0003513083" flag="0"/>
    </comp>
    <comp name="--.HHZ">
      <acc value="0.0201825473" flag="0"/>
      <vel value="0.0033145829" flag="0"/>
      <psa03 value="0.0145150757" flag="0"/>
      <psa10 value="0.0020459298" flag="0"/>
      <psa30 value="0.0003571330" flag="0"/>
    </comp>
    <comp name="--.HHN">
      <acc value="0.0287718215" flag="0"/>
      <vel value="0.0059434829" flag="0"/>
      <psa03 value="0.0223336258" flag="0"/>
      <psa10 value="0.0047940505" flag="0"/>
      <psa30 value="0.0005057207" flag="0"/>
    </comp>
  </station>
  <station code="DMLN" name="DMLN" netid="HT" insttype="1s-100Hz," lat="38.2385" lon="20.3734">
    <comp name="--.HHZ">
      <acc value="0.0037231745" flag="0"/>
      <vel value="0.0016496276" flag="0"/>
      <psa03 value="0.0068064178" flag="0"/>
      <psa10 value="0.0022228884" flag="0"/>
      <psa30 value="0.0001275207" flag="0"/>
    </comp>
    <comp name="--.HHN">
      <acc value="0.0065930503" flag="0"/>
      <vel value="0.0040480858" flag="0"/>
      <psa03 value="0.0153706543" flag="0"/>
      <psa10 value="0.0045077870" flag="0"/>
      <psa30 value="0.0003286679" flag="0"/>
    </comp>
    <comp name="--.HHE">
      <acc value="0.0063215420" flag="0"/>
      <vel value="0.0041741802" flag="0"/>
      <psa03 value="0.0120664945" flag="0"/>
      <psa10 value="0.0044245667" flag="0"/>
      <psa30 value="0.0003021739" flag="0"/>
    </comp>
  </station>
  <station code="PSDA" name="PSDA" netid="HT" insttype="30" lat="38.114" lon="20.5841">
    <comp name="--.HHE">
      <acc value="0.0098187741" flag="0"/>
      <vel value="0.0028156409" flag="0"/>
      <psa03 value="0.0145574637" flag="0"/>
      <psa10 value="0.0025778176" flag="0"/>
      <psa30 value="0.0002412484" flag="0"/>
    </comp>
    <comp name="--.HHZ">
      <acc value="0.0057528145" flag="0"/>
      <vel value="0.0014524817" flag="0"/>
      <psa03 value="0.0044235975" flag="0"/>
      <psa10 value="0.0013466558" flag="0"/>
      <psa30 value="0.0001613233" flag="0"/>
    </comp>
    <comp name="--.HHN">
      <acc value="0.0067058210" flag="0"/>
      <vel value="0.0019841335" flag="0"/>
      <psa03 value="0.0072073113" flag="0"/>
      <psa10 value="0.0027786588" flag="0"/>
      <psa30 value="0.0002419769" flag="0"/>
    </comp>
  </station>
  <station code="RTZL" name="RTZL" netid="HT" insttype="Compact," lat="38.076" lon="20.7715">
    <comp name="--.HHE">
      <acc value="0.0049259345" flag="0"/>
      <vel value="0.0012230601" flag="0"/>
      <psa03 value="0.0039955152" flag="0"/>
      <psa10 value="0.0017457247" flag="0"/>
      <psa30 value="0.0001381119" flag="0"/>
    </comp>
    <comp name="--.HHN">
      <acc value="0.0045105218" flag="0"/>
      <vel value="0.0013624339" flag="0"/>
      <psa03 value="0.0041288807" flag="0"/>
      <psa10 value="0.0022192272" flag="0"/>
      <psa30 value="0.0001470274" flag="0"/>
    </comp>
    <comp name="--.HHZ">
      <acc value="0.0030306010" flag="0"/>
      <vel value="0.0008380094" flag="0"/>
      <psa03 value="0.0041717847" flag="0"/>
      <psa10 value="0.0012480833" flag="0"/>
      <psa30 value="0.0000905317" flag="0"/>
    </comp>
  </station>
</stationlist>
