<stationlist created="1775808334">
	<station code="KSS1" name="KSS1" netid="HI" source="ITSAK Strong Motion Network" insttype="" lat="35.4189" lon="26.9207">
		<comp name="--.HNE" depth="0.0">
			<acc value="0.00562653322407945" flag="0"/>
			<vel value="0.00389580476540548" flag="0"/>
			<psa03 value="0.0218475254163367" flag="0"/>
			<psa10 value="0.00234162629312481" flag="0"/>
			<psa30 value="0.000886856145700521" flag="0"/>
		</comp>
		<comp name="--.HNN" depth="0.0">
			<acc value="0.010927302624458" flag="0"/>
			<vel value="0.00693275156141896" flag="0"/>
			<psa03 value="0.0466448920785123" flag="0"/>
			<psa10 value="0.00233716115358123" flag="0"/>
			<psa30 value="0.000716801651258182" flag="0"/>
		</comp>
		<comp name="--.HNZ" depth="0.0">
			<acc value="0.00329552494744007" flag="0"/>
			<vel value="0.00136381669741263" flag="0"/>
			<psa03 value="0.00668595072392251" flag="0"/>
			<psa10 value="0.00167321236554502" flag="0"/>
			<psa30 value="0.000526787188732583" flag="0"/>
		</comp>
	</station>
	<station code="RDI1" name="RDI1" netid="HI" source="ITSAK Strong Motion Network" insttype="" lat="36.4514" lon="28.224">
		<comp name="--.HNE" depth="0.0">
			<acc value="0.00583325878554098" flag="0"/>
			<vel value="0.0083825894442249" flag="0"/>
			<psa03 value="0.0108796172056205" flag="0"/>
			<psa10 value="0.0113142820156559" flag="0"/>
			<psa30 value="0.00449226259034973" flag="0"/>
		</comp>
		<comp name="--.HNN" depth="0.0">
			<acc value="0.0044605303318229" flag="0"/>
			<vel value="0.00799852706100295" flag="0"/>
			<psa03 value="0.0115079758885911" flag="0"/>
			<psa10 value="0.00942154569366365" flag="0"/>
			<psa30 value="0.00497128890682559" flag="0"/>
		</comp>
		<comp name="--.HNZ" depth="0.0">
			<acc value="0.0112661054316252" flag="0"/>
			<vel value="0.00349456405180164" flag="0"/>
			<psa03 value="0.00766666868646609" flag="0"/>
			<psa10 value="0.00527297962152148" flag="0"/>
			<psa30 value="0.00182075499108236" flag="0"/>
		</comp>
	</station>
	<station code="RKL1" name="RKL1" netid="HI" source="ITSAK Strong Motion Network" insttype="" lat="36.336699" lon="28.171224">
		<comp name="--.HNE" depth="0.0">
			<acc value="0.00935488892663132" flag="0"/>
			<vel value="0.00535726164660501" flag="0"/>
			<psa03 value="0.0229199245825184" flag="0"/>
			<psa10 value="0.00905350006244686" flag="0"/>
			<psa30 value="0.00141536396925005" flag="0"/>
		</comp>
		<comp name="--.HNN" depth="0.0">
			<acc value="0.00858560490945491" flag="0"/>
			<vel value="0.00668911708190941" flag="0"/>
			<psa03 value="0.0130666442468869" flag="0"/>
			<psa10 value="0.00933913398429236" flag="0"/>
			<psa30 value="0.00288129524666943" flag="0"/>
		</comp>
		<comp name="--.HNZ" depth="0.0">
			<acc value="0.0126614497509395" flag="0"/>
			<vel value="0.00265809028515359" flag="0"/>
			<psa03 value="0.011892412813984" flag="0"/>
			<psa10 value="0.00342212326137115" flag="0"/>
			<psa30 value="0.000873845335881558" flag="0"/>
		</comp>
	</station>
	<station code="RLN1" name="RLN1" netid="HI" source="ITSAK Strong Motion Network" insttype="" lat="36.089085" lon="28.086909">
		<comp name="--.HNE" depth="0.0">
			<acc value="0.0051678725945556" flag="0"/>
			<vel value="0.00499129413102258" flag="0"/>
			<psa03 value="0.0145192352655796" flag="0"/>
			<psa10 value="0.0100249578542579" flag="0"/>
			<psa30 value="0.00261186281475979" flag="0"/>
		</comp>
		<comp name="--.HNN" depth="0.0">
			<acc value="0.00403366600545753" flag="0"/>
			<vel value="0.00519813775376287" flag="0"/>
			<psa03 value="0.0147194086823361" flag="0"/>
			<psa10 value="0.00635797946618629" flag="0"/>
			<psa30 value="0.00168303524282493" flag="0"/>
		</comp>
		<comp name="--.HNZ" depth="0.0">
			<acc value="0.00419445661996606" flag="0"/>
			<vel value="0.002753469083503" flag="0"/>
			<psa03 value="0.00970441174985998" flag="0"/>
			<psa10 value="0.00573733350768751" flag="0"/>
			<psa30 value="0.00123567039876623" flag="0"/>
		</comp>
	</station>
	<station code="RPN1" name="RPN1" netid="HI" source="ITSAK Strong Motion Network" insttype="" lat="36.448678" lon="28.218047">
		<comp name="--.HNE" depth="0.0">
			<acc value="0.00654210557041415" flag="0"/>
			<vel value="0.010127113365705" flag="0"/>
			<psa03 value="0.0200794512588511" flag="0"/>
			<psa10 value="0.00859934497690132" flag="0"/>
			<psa30 value="0.00489739109479155" flag="0"/>
		</comp>
		<comp name="--.HNN" depth="0.0">
			<acc value="0.00882168815559771" flag="0"/>
			<vel value="0.00807558621303776" flag="0"/>
			<psa03 value="0.020899751693479" flag="0"/>
			<psa10 value="0.00866942305673018" flag="0"/>
			<psa30 value="0.00560393414980141" flag="0"/>
		</comp>
		<comp name="--.HNZ" depth="0.0">
			<acc value="0.0119215138877407" flag="0"/>
			<vel value="0.00534933179713079" flag="0"/>
			<psa03 value="0.00645369184832854" flag="0"/>
			<psa10 value="0.00671529282394264" flag="0"/>
			<psa30 value="0.00190659317744093" flag="0"/>
		</comp>
	</station>
	<station code="RSO1" name="RSO1" netid="HI" source="ITSAK Strong Motion Network" insttype="" lat="36.3632" lon="28.0016">
		<comp name="--.HNE" depth="0.0">
			<acc value="0.011500882613258" flag="0"/>
			<vel value="0.00586539684693146" flag="0"/>
			<psa03 value="0.0267458394889377" flag="0"/>
			<psa10 value="0.00747797522290852" flag="0"/>
			<psa30 value="0.00321504527263735" flag="0"/>
		</comp>
		<comp name="--.HNN" depth="0.0">
			<acc value="0.00814495002720297" flag="0"/>
			<vel value="0.00604816153389346" flag="0"/>
			<psa03 value="0.0206550167309889" flag="0"/>
			<psa10 value="0.00742936262756265" flag="0"/>
			<psa30 value="0.00284639460133962" flag="0"/>
		</comp>
		<comp name="--.HNZ" depth="0.0">
			<acc value="0.00507908471365182" flag="0"/>
			<vel value="0.00367741784573646" flag="0"/>
			<psa03 value="0.0107077151929558" flag="0"/>
			<psa10 value="0.00586346139429099" flag="0"/>
			<psa30 value="0.00155860595832883" flag="0"/>
		</comp>
	</station>
	<station code="KARP" name="KARP" netid="HL" source="National Observatory of Athens Seismic Network" insttype="" lat="35.5471" lon="27.16106">
		<comp name="--.HNE" depth="0.0">
			<acc value="0.00796614113829443" flag="0"/>
			<vel value="0.0024322458891336" flag="0"/>
			<psa03 value="0.00859183934948201" flag="0"/>
			<psa10 value="0.00392540050726874" flag="0"/>
			<psa30 value="0.00107385457509539" flag="0"/>
		</comp>
		<comp name="--.HNN" depth="0.0">
			<acc value="0.00706452777981794" flag="0"/>
			<vel value="0.00340613534023243" flag="0"/>
			<psa03 value="0.00761446405629054" flag="0"/>
			<psa10 value="0.00329425525949357" flag="0"/>
			<psa30 value="0.000900285993695374" flag="0"/>
		</comp>
		<comp name="--.HNZ" depth="0.0">
			<acc value="0.00529109406088591" flag="0"/>
			<vel value="0.00227256835521155" flag="0"/>
			<psa03 value="0.00778641750465426" flag="0"/>
			<psa10 value="0.00258960936141105" flag="0"/>
			<psa30 value="0.000714659634360075" flag="0"/>
		</comp>
	</station>
	<station code="RODB" name="RODB" netid="HL" source="National Observatory of Athens Seismic Network" insttype="" lat="36.4471" lon="28.22116">
		<comp name="00.HNE" depth="0.0">
			<acc value="0.00766456264736242" flag="0"/>
			<vel value="0.00704145557905004" flag="0"/>
			<psa03 value="0.0113386287326731" flag="0"/>
			<psa10 value="0.0069100971350222" flag="0"/>
			<psa30 value="0.00437944386666297" flag="0"/>
		</comp>
		<comp name="00.HNN" depth="0.0">
			<acc value="0.0101155030342499" flag="0"/>
			<vel value="0.00764903212932553" flag="0"/>
			<psa03 value="0.0130685766665669" flag="0"/>
			<psa10 value="0.00815620530857311" flag="0"/>
			<psa30 value="0.00476799210607693" flag="0"/>
		</comp>
		<comp name="00.HNZ" depth="0.0">
			<acc value="0.0124183560459248" flag="0"/>
			<vel value="0.00434720005013576" flag="0"/>
			<psa03 value="0.00750908598176027" flag="0"/>
			<psa10 value="0.00727696471944917" flag="0"/>
			<psa30 value="0.00192696994396838" flag="0"/>
		</comp>
	</station>
	<station code="DEMR" name="DEMR" netid="KO" source="Bogazici University Kandilli Observatory And Earthquake Research Institute (KOERI)" insttype="" lat="36.2365" lon="29.9056">
		<comp name="--.HNE" depth="0.0">
			<acc value="0.0224833701530525" flag="0"/>
			<vel value="0.00641978578957968" flag="0"/>
			<psa03 value="0.0193710644879541" flag="0"/>
			<psa10 value="0.00490390360954702" flag="0"/>
			<psa30 value="0.00238872303284435" flag="0"/>
		</comp>
		<comp name="--.HNN" depth="0.0">
			<acc value="0.0123280601145118" flag="0"/>
			<vel value="0.00458612549765436" flag="0"/>
			<psa03 value="0.0114026420878271" flag="0"/>
			<psa10 value="0.00608163959752619" flag="0"/>
			<psa30 value="0.00151371621377023" flag="0"/>
		</comp>
		<comp name="--.HNZ" depth="0.0">
			<acc value="0.00599801486883532" flag="0"/>
			<vel value="0.00296903976797179" flag="0"/>
			<psa03 value="0.00837459383824141" flag="0"/>
			<psa10 value="0.00522219000695878" flag="0"/>
			<psa30 value="0.00138469454171766" flag="0"/>
		</comp>
	</station>
	<station code="FETI" name="FETI" netid="KO" source="Bogazici University Kandilli Observatory And Earthquake Research Institute (KOERI)" insttype="" lat="36.6903" lon="29.096">
		<comp name="--.HNE" depth="0.0">
			<acc value="0.00798960663686054" flag="0"/>
			<vel value="0.0023873968277243" flag="0"/>
			<psa03 value="0.00556920682324479" flag="0"/>
			<psa10 value="0.00306770908004602" flag="0"/>
			<psa30 value="0.00110290712468422" flag="0"/>
		</comp>
		<comp name="--.HNN" depth="0.0">
			<acc value="0.00631119713058737" flag="0"/>
			<vel value="0.00258034663661299" flag="0"/>
			<psa03 value="0.00597479358721072" flag="0"/>
			<psa10 value="0.00320605105702304" flag="0"/>
			<psa30 value="0.000917618287708123" flag="0"/>
		</comp>
		<comp name="--.HNZ" depth="0.0">
			<acc value="0.0187711868780625" flag="0"/>
			<vel value="0.00320981196250505" flag="0"/>
			<psa03 value="0.00462229025352344" flag="0"/>
			<psa10 value="0.00425596896830694" flag="0"/>
			<psa30 value="0.00102904077306761" flag="0"/>
		</comp>
	</station>
</stationlist>
