<?xml version="1.0" encoding="UTF-8" standalone="yes"?>
<!DOCTYPE earthquake SYSTEM "stationlist.dtd">
<stationlist created="" xmlns="ch.ethz.sed.shakemap.usgs.xml">
  <station code="APE" name="APE" netid="GE" insttype="STS-2/N" lat="37.0727" lon="25.523">
    <comp name="--.HHN">
      <acc value="0.1784504123" flag="0"/>
      <vel value="0.0399656970" flag="0"/>
      <psa03 value="0.0999858729" flag="0"/>
      <psa10 value="0.0124873729" flag="0"/>
      <psa30 value="0.0031979562" flag="0"/>
    </comp>
    <comp name="--.HHE">
      <acc value="0.1115399857" flag="0"/>
      <vel value="0.0256446629" flag="0"/>
      <psa03 value="0.0860337584" flag="0"/>
      <psa10 value="0.0106288729" flag="0"/>
      <psa30 value="0.0028960177" flag="0"/>
    </comp>
    <comp name="--.HHZ">
      <acc value="0.0523098611" flag="0"/>
      <vel value="0.0237472051" flag="0"/>
      <psa03 value="0.0446159165" flag="0"/>
      <psa10 value="0.0116817305" flag="0"/>
      <psa30 value="0.0033940239" flag="0"/>
    </comp>
  </station>
  <station code="THERA" name="THERA" netid="GE" insttype="STS-2/N" lat="36.367" lon="25.4753">
    <comp name="--.HHE">
      <acc value="0.3381096149" flag="0"/>
      <vel value="0.0815426905" flag="0"/>
      <psa03 value="0.3826904810" flag="0"/>
      <psa10 value="0.0330152608" flag="0"/>
      <psa30 value="0.0058312214" flag="0"/>
    </comp>
    <comp name="--.HHN">
      <acc value="0.2577839382" flag="0"/>
      <vel value="0.0797492335" flag="0"/>
      <psa03 value="0.3431615146" flag="0"/>
      <psa10 value="0.0315205070" flag="0"/>
      <psa30 value="0.0025750949" flag="0"/>
    </comp>
    <comp name="--.HHZ">
      <acc value="0.2542058378" flag="0"/>
      <vel value="0.0848020716" flag="0"/>
      <psa03 value="0.2846773513" flag="0"/>
      <psa10 value="0.0561914490" flag="0"/>
      <psa30 value="0.0041693143" flag="0"/>
    </comp>
  </station>
  <station code="SERI" name="SERI" netid="HA" insttype="30" lat="37.1609" lon="24.4853">
    <comp name="--.HHN">
      <acc value="0.0631742595" flag="0"/>
      <vel value="0.0197899714" flag="0"/>
      <psa03 value="0.0800833600" flag="0"/>
      <psa10 value="0.0185525163" flag="0"/>
      <psa30 value="0.0013426634" flag="0"/>
    </comp>
    <comp name="--.HHZ">
      <acc value="0.0370357811" flag="0"/>
      <vel value="0.0206560283" flag="0"/>
      <psa03 value="0.0508943320" flag="0"/>
      <psa10 value="0.0124332911" flag="0"/>
      <psa30 value="0.0019498404" flag="0"/>
    </comp>
    <comp name="--.HHE">
      <acc value="0.0407604665" flag="0"/>
      <vel value="0.0168712310" flag="0"/>
      <psa03 value="0.0940813339" flag="0"/>
      <psa10 value="0.0080464682" flag="0"/>
      <psa30 value="0.0011800069" flag="0"/>
    </comp>
  </station>
  <station code="SNT1" name="SNT1" netid="HA" insttype="30" lat="36.4159" lon="25.4282">
    <comp name="--.HHN">
      <acc value="0.1994469936" flag="0"/>
      <vel value="0.1449473287" flag="0"/>
      <psa03 value="0.3685982854" flag="0"/>
      <psa10 value="0.1447205541" flag="0"/>
      <psa30 value="0.0124649587" flag="0"/>
    </comp>
    <comp name="--.HHZ">
      <acc value="0.1921817306" flag="0"/>
      <vel value="0.0551841263" flag="0"/>
      <psa03 value="0.3744916404" flag="0"/>
      <psa10 value="0.0475337637" flag="0"/>
      <psa30 value="0.0051951105" flag="0"/>
    </comp>
    <comp name="--.HHE">
      <acc value="0.1734552624" flag="0"/>
      <vel value="0.0852479670" flag="0"/>
      <psa03 value="0.2885419708" flag="0"/>
      <psa10 value="0.0956160489" flag="0"/>
      <psa30 value="0.0110655703" flag="0"/>
    </comp>
  </station>
  <station code="KNSS" name="KNSS" netid="HC" insttype="60" lat="35.3042" lon="25.1802">
    <comp name="--.HHE">
      <acc value="0.0000000000" flag="0"/>
      <vel value="-100.0000000000" flag="0"/>
      <psa03 value="0.0000000000" flag="0"/>
      <psa10 value="0.0000000000" flag="0"/>
      <psa30 value="0.0000000000" flag="0"/>
    </comp>
    <comp name="--.HHN">
      <acc value="0.0467192940" flag="0"/>
      <vel value="0.0185418297" flag="0"/>
      <psa03 value="0.0532333498" flag="0"/>
      <psa10 value="0.0098600493" flag="0"/>
      <psa30 value="0.0010655817" flag="0"/>
    </comp>
    <comp name="--.HHZ">
      <acc value="0.0578460288" flag="0"/>
      <vel value="0.0253945393" flag="0"/>
      <psa03 value="0.1022635670" flag="0"/>
      <psa10 value="0.0104955392" flag="0"/>
      <psa30 value="0.0007620446" flag="0"/>
    </comp>
  </station>
  <station code="NAX1" name="NAX1" netid="HI" insttype="CMG-5TD,ACCELEROMETER,GURALP" lat="37.1014" lon="25.3741">
    <comp name="--.HNE">
      <acc value="0.1224710026" flag="0"/>
      <vel value="0.0451367039" flag="0"/>
      <psa03 value="0.2991647793" flag="0"/>
      <psa10 value="0.0153873271" flag="0"/>
      <psa30 value="0.0023484004" flag="0"/>
    </comp>
    <comp name="--.HNN">
      <acc value="0.1041340942" flag="0"/>
      <vel value="0.0372186450" flag="0"/>
      <psa03 value="0.1032184202" flag="0"/>
      <psa10 value="0.0132136761" flag="0"/>
      <psa30 value="0.0026799531" flag="0"/>
    </comp>
    <comp name="--.HNZ">
      <acc value="0.0637460937" flag="0"/>
      <vel value="0.0253424057" flag="0"/>
      <psa03 value="0.1417217089" flag="0"/>
      <psa10 value="0.0191428751" flag="0"/>
      <psa30 value="0.0029698424" flag="0"/>
    </comp>
  </station>
  <station code="SFR2" name="SFR2" netid="HI" insttype="unknown" lat="36.3998" lon="25.4382">
    <comp name="--.HNZ">
      <acc value="0.5911242767" flag="0"/>
      <vel value="0.2019453978" flag="0"/>
      <psa03 value="0.7158362456" flag="0"/>
      <psa10 value="0.1034778008" flag="0"/>
      <psa30 value="0.0084969593" flag="0"/>
    </comp>
    <comp name="--.HNN">
      <acc value="0.7109962630" flag="0"/>
      <vel value="0.2816177499" flag="0"/>
      <psa03 value="1.5827950575" flag="0"/>
      <psa10 value="0.2519042398" flag="0"/>
      <psa30 value="0.0125519765" flag="0"/>
    </comp>
    <comp name="--.HNE">
      <acc value="0.4784731754" flag="0"/>
      <vel value="0.2582463089" flag="0"/>
      <psa03 value="1.4165836914" flag="0"/>
      <psa10 value="0.1101497069" flag="0"/>
      <psa30 value="0.0122780973" flag="0"/>
    </comp>
  </station>
  <station code="AMGA" name="AMGA" netid="HL" insttype="SMART24" lat="36.8316" lon="25.8938">
    <comp name="--.HHE">
      <acc value="0.5258031269" flag="0"/>
      <vel value="0.1098777494" flag="0"/>
      <psa03 value="0.3259922302" flag="0"/>
      <psa10 value="0.0392159318" flag="0"/>
      <psa30 value="0.0095660484" flag="0"/>
    </comp>
    <comp name="--.HHN">
      <acc value="0.4237074554" flag="0"/>
      <vel value="0.1322518742" flag="0"/>
      <psa03 value="0.4966133932" flag="0"/>
      <psa10 value="0.0284135354" flag="0"/>
      <psa30 value="0.0059674362" flag="0"/>
    </comp>
    <comp name="--.HHZ">
      <acc value="0.3235132386" flag="0"/>
      <vel value="0.0920818380" flag="0"/>
      <psa03 value="0.3743026676" flag="0"/>
      <psa10 value="0.0581862407" flag="0"/>
      <psa30 value="0.0079002476" flag="0"/>
    </comp>
  </station>
  <station code="APE" name="APE" netid="HL" insttype="120" lat="37.0727" lon="25.523">
    <comp name="--.HHE">
      <acc value="0.1001578000" flag="0"/>
      <vel value="0.0248292444" flag="0"/>
      <psa03 value="0.0838794331" flag="0"/>
      <psa10 value="0.0104686869" flag="0"/>
      <psa30 value="0.0028871669" flag="0"/>
    </comp>
    <comp name="--.HHZ">
      <acc value="0.0493188232" flag="0"/>
      <vel value="0.0229907880" flag="0"/>
      <psa03 value="0.0434117170" flag="0"/>
      <psa10 value="0.0116413517" flag="0"/>
      <psa30 value="0.0033889547" flag="0"/>
    </comp>
    <comp name="--.HHN">
      <acc value="0.1571429319" flag="0"/>
      <vel value="0.0377339919" flag="0"/>
      <psa03 value="0.0972068075" flag="0"/>
      <psa10 value="0.0122821096" flag="0"/>
      <psa30 value="0.0031936132" flag="0"/>
    </comp>
  </station>
  <station code="MHLO" name="MHLO" netid="HL" insttype="20" lat="36.6898" lon="24.4017">
    <comp name="--.HHN">
      <acc value="0.1450350811" flag="0"/>
      <vel value="0.0820089647" flag="0"/>
      <psa03 value="0.4494807096" flag="0"/>
      <psa10 value="0.1487968457" flag="0"/>
      <psa30 value="0.0056996368" flag="0"/>
    </comp>
    <comp name="--.HHE">
      <acc value="0.1453223470" flag="0"/>
      <vel value="0.0921981598" flag="0"/>
      <psa03 value="0.5778555704" flag="0"/>
      <psa10 value="0.1237015070" flag="0"/>
      <psa30 value="0.0053224322" flag="0"/>
    </comp>
    <comp name="--.HHZ">
      <acc value="0.0635605101" flag="0"/>
      <vel value="0.0437735623" flag="0"/>
      <psa03 value="0.1346056638" flag="0"/>
      <psa10 value="0.0498544095" flag="0"/>
      <psa30 value="0.0035902873" flag="0"/>
    </comp>
  </station>
  <station code="MILA" name="MILA" netid="HL" insttype="CMG-5" lat="36.7429" lon="24.4282">
    <comp name="00.HNN">
      <acc value="0.3016503836" flag="0"/>
      <vel value="0.1879812509" flag="0"/>
      <psa03 value="0.6830125797" flag="0"/>
      <psa10 value="0.0927274436" flag="0"/>
      <psa30 value="0.0081780605" flag="0"/>
    </comp>
    <comp name="00.HNE">
      <acc value="0.2188032286" flag="0"/>
      <vel value="0.0989920421" flag="0"/>
      <psa03 value="0.3943436203" flag="0"/>
      <psa10 value="0.0791963816" flag="0"/>
      <psa30 value="0.0050799842" flag="0"/>
    </comp>
    <comp name="00.HNZ">
      <acc value="0.1263674395" flag="0"/>
      <vel value="0.0813556768" flag="0"/>
      <psa03 value="0.2928192905" flag="0"/>
      <psa10 value="0.0635394794" flag="0"/>
      <psa30 value="0.0042708001" flag="0"/>
    </comp>
  </station>
  <station code="NISR" name="NISR" netid="HL" insttype="65535" lat="36.6106" lon="27.131">
    <comp name="--.HHZ">
      <acc value="0.0196170295" flag="0"/>
      <vel value="0.0124721734" flag="0"/>
      <psa03 value="0.0357705110" flag="0"/>
      <psa10 value="0.0120045453" flag="0"/>
      <psa30 value="0.0009754957" flag="0"/>
    </comp>
    <comp name="--.HHN">
      <acc value="0.0277307750" flag="0"/>
      <vel value="0.0137340095" flag="0"/>
      <psa03 value="0.0536098013" flag="0"/>
      <psa10 value="0.0160669776" flag="0"/>
      <psa30 value="0.0032287717" flag="0"/>
    </comp>
    <comp name="--.HHE">
      <acc value="0.0000000000" flag="0"/>
      <vel value="-100.0000000000" flag="0"/>
      <psa03 value="0.0000000000" flag="0"/>
      <psa10 value="0.0000000000" flag="0"/>
      <psa30 value="0.0000000000" flag="0"/>
    </comp>
  </station>
  <station code="NISR2" name="NISR2" netid="HL" insttype="120" lat="36.5744" lon="27.1767">
    <comp name="--.HHZ">
      <acc value="0.0156387678" flag="0"/>
      <vel value="0.0117060654" flag="0"/>
      <psa03 value="0.0517867437" flag="0"/>
      <psa10 value="0.0115875936" flag="0"/>
      <psa30 value="0.0009954397" flag="0"/>
    </comp>
    <comp name="--.HHN">
      <acc value="0.0638061237" flag="0"/>
      <vel value="0.0371620733" flag="0"/>
      <psa03 value="0.1328992279" flag="0"/>
      <psa10 value="0.0736053669" flag="0"/>
      <psa30 value="0.0036841412" flag="0"/>
    </comp>
    <comp name="--.HHE">
      <acc value="0.0473242201" flag="0"/>
      <vel value="0.0390128979" flag="0"/>
      <psa03 value="0.1203854413" flag="0"/>
      <psa10 value="0.0647251005" flag="0"/>
      <psa30 value="0.0033151347" flag="0"/>
    </comp>
  </station>
  <station code="NPS" name="NPS" netid="HL" insttype="CMG3ESPC-120s" lat="35.2613" lon="25.6104">
    <comp name="--.HHE">
      <acc value="0.0189190229" flag="0"/>
      <vel value="0.0096927605" flag="0"/>
      <psa03 value="0.0572557149" flag="0"/>
      <psa10 value="0.0110305018" flag="0"/>
      <psa30 value="0.0004646646" flag="0"/>
    </comp>
    <comp name="--.HHN">
      <acc value="0.0397102219" flag="0"/>
      <vel value="0.0168483458" flag="0"/>
      <psa03 value="0.1082555588" flag="0"/>
      <psa10 value="0.0219638954" flag="0"/>
      <psa30 value="0.0009803630" flag="0"/>
    </comp>
    <comp name="--.HHZ">
      <acc value="0.0380222436" flag="0"/>
      <vel value="0.0203791357" flag="0"/>
      <psa03 value="0.0643464332" flag="0"/>
      <psa10 value="0.0114214853" flag="0"/>
      <psa30 value="0.0007891421" flag="0"/>
    </comp>
  </station>
  <station code="SANT" name="SANT" netid="HL" insttype="30" lat="36.3705" lon="25.4593">
    <comp name="--.HHN">
      <acc value="0.3960588032" flag="0"/>
      <vel value="0.1021921228" flag="0"/>
      <psa03 value="0.4265441739" flag="0"/>
      <psa10 value="0.0651590716" flag="0"/>
      <psa30 value="0.0056007492" flag="0"/>
    </comp>
    <comp name="--.HHE">
      <acc value="0.7425872646" flag="0"/>
      <vel value="0.1956859856" flag="0"/>
      <psa03 value="0.9398033710" flag="0"/>
      <psa10 value="0.0618085516" flag="0"/>
      <psa30 value="0.0063052609" flag="0"/>
    </comp>
    <comp name="--.HHZ">
      <acc value="0.3930333399" flag="0"/>
      <vel value="0.0810597491" flag="0"/>
      <psa03 value="0.3172582822" flag="0"/>
      <psa10 value="0.0463071909" flag="0"/>
      <psa30 value="0.0047053990" flag="0"/>
    </comp>
  </station>
  <station code="SAP3" name="SAP3" netid="HL" insttype="65535" lat="36.4356" lon="25.3454">
    <comp name="--.HHE">
      <acc value="0.8728126032" flag="0"/>
      <vel value="0.2609786699" flag="0"/>
      <psa03 value="0.8526324280" flag="0"/>
      <psa10 value="0.0903109223" flag="0"/>
      <psa30 value="0.0114982532" flag="0"/>
    </comp>
    <comp name="--.HHZ">
      <acc value="0.4757376674" flag="0"/>
      <vel value="0.1346533914" flag="0"/>
      <psa03 value="0.6652998927" flag="0"/>
      <psa10 value="0.0430715322" flag="0"/>
      <psa30 value="0.0048056728" flag="0"/>
    </comp>
    <comp name="--.HHN">
      <acc value="0.7558310550" flag="0"/>
      <vel value="0.2192491252" flag="0"/>
      <psa03 value="1.0830708293" flag="0"/>
      <psa10 value="0.0737780881" flag="0"/>
      <psa30 value="0.0107229183" flag="0"/>
    </comp>
  </station>
  <station code="THERA" name="THERA" netid="HL" insttype="120" lat="36.367" lon="25.4753">
    <comp name="--.HHE">
      <acc value="0.3354528868" flag="0"/>
      <vel value="0.0790986999" flag="0"/>
      <psa03 value="0.3727111628" flag="0"/>
      <psa10 value="0.0326675151" flag="0"/>
      <psa30 value="0.0058309511" flag="0"/>
    </comp>
    <comp name="--.HHN">
      <acc value="0.5175817512" flag="0"/>
      <vel value="0.1545730818" flag="0"/>
      <psa03 value="0.6672220978" flag="0"/>
      <psa10 value="0.0625013027" flag="0"/>
      <psa30 value="0.0051391637" flag="0"/>
    </comp>
    <comp name="--.HHZ">
      <acc value="0.2491784409" flag="0"/>
      <vel value="0.0831201770" flag="0"/>
      <psa03 value="0.2770401639" flag="0"/>
      <psa10 value="0.0558082730" flag="0"/>
      <psa30 value="0.0041554760" flag="0"/>
    </comp>
  </station>
  <station code="THRA" name="THRA" netid="HL" insttype="CMG-5" lat="36.415" lon="25.4324">
    <comp name="00.HNE">
      <acc value="0.8734663044" flag="0"/>
      <vel value="0.3855094905" flag="0"/>
      <psa03 value="1.7731407159" flag="0"/>
      <psa10 value="0.2407214257" flag="0"/>
      <psa30 value="0.0247297144" flag="0"/>
    </comp>
    <comp name="00.HNN">
      <acc value="0.7471182527" flag="0"/>
      <vel value="0.2889671084" flag="0"/>
      <psa03 value="1.6169838456" flag="0"/>
      <psa10 value="0.4516364761" flag="0"/>
      <psa30 value="0.0202492008" flag="0"/>
    </comp>
    <comp name="00.HNZ">
      <acc value="0.6096012146" flag="0"/>
      <vel value="0.2081603730" flag="0"/>
      <psa03 value="0.9255176951" flag="0"/>
      <psa10 value="0.1123967827" flag="0"/>
      <psa30 value="0.0096793786" flag="0"/>
    </comp>
  </station>
  <station code="TNSA" name="TNSA" netid="HL" insttype="CMG-5" lat="37.5394" lon="25.1631">
    <comp name="00.HNE">
      <acc value="0.0374684822" flag="0"/>
      <vel value="0.0161464586" flag="0"/>
      <psa03 value="0.0625001446" flag="0"/>
      <psa10 value="0.0121017433" flag="0"/>
      <psa30 value="0.0010524451" flag="0"/>
    </comp>
    <comp name="00.HNZ">
      <acc value="0.0475943167" flag="0"/>
      <vel value="0.0333864110" flag="0"/>
      <psa03 value="0.0963408530" flag="0"/>
      <psa10 value="0.0183786121" flag="0"/>
      <psa30 value="0.0027184876" flag="0"/>
    </comp>
    <comp name="00.HNN">
      <acc value="0.0862987045" flag="0"/>
      <vel value="0.0344598995" flag="0"/>
      <psa03 value="0.1622773261" flag="0"/>
      <psa10 value="0.0175333137" flag="0"/>
      <psa30 value="0.0024706644" flag="0"/>
    </comp>
  </station>
  <station code="AKRO" name="AKRO" netid="HT" insttype="Compact," lat="36.3584" lon="25.3967">
    <comp name="--.HHE">
      <acc value="1.0685757945" flag="0"/>
      <vel value="0.3073268247" flag="0"/>
      <psa03 value="1.1631965895" flag="0"/>
      <psa10 value="0.1811586446" flag="0"/>
      <psa30 value="0.0102714566" flag="0"/>
    </comp>
    <comp name="--.HHN">
      <acc value="0.7781493456" flag="0"/>
      <vel value="0.2066193184" flag="0"/>
      <psa03 value="0.7453239093" flag="0"/>
      <psa10 value="0.1332998705" flag="0"/>
      <psa30 value="0.0077720858" flag="0"/>
    </comp>
    <comp name="--.HHZ">
      <acc value="0.4439602670" flag="0"/>
      <vel value="0.1736646086" flag="0"/>
      <psa03 value="0.4573061404" flag="0"/>
      <psa10 value="0.0616457400" flag="0"/>
      <psa30 value="0.0074584236" flag="0"/>
    </comp>
  </station>
  <station code="CMBO" name="CMBO" netid="HT" insttype="120P," lat="36.4709" lon="25.4056">
    <comp name="--.HHE">
      <acc value="0.4325088561" flag="0"/>
      <vel value="0.1577074545" flag="0"/>
      <psa03 value="0.5628020590" flag="0"/>
      <psa10 value="0.1501612285" flag="0"/>
      <psa30 value="0.0089787907" flag="0"/>
    </comp>
    <comp name="--.HHN">
      <acc value="0.6744968633" flag="0"/>
      <vel value="0.3475539950" flag="0"/>
      <psa03 value="0.7203077115" flag="0"/>
      <psa10 value="0.2468271213" flag="0"/>
      <psa30 value="0.0143040823" flag="0"/>
    </comp>
    <comp name="--.HHZ">
      <acc value="0.4203875280" flag="0"/>
      <vel value="0.1342261523" flag="0"/>
      <psa03 value="0.9153838789" flag="0"/>
      <psa10 value="0.0599407365" flag="0"/>
      <psa30 value="0.0088513133" flag="0"/>
    </comp>
  </station>
  <station code="IDI" name="IDI" netid="MN" insttype="" lat="35.288" lon="24.89">
    <comp name="--.HHN">
      <acc value="0.0200663485" flag="0"/>
      <vel value="0.0101471633" flag="0"/>
      <psa03 value="0.0477054010" flag="0"/>
      <psa10 value="0.0067667496" flag="0"/>
      <psa30 value="0.0005272545" flag="0"/>
    </comp>
    <comp name="--.HHZ">
      <acc value="0.0194837050" flag="0"/>
      <vel value="0.0081092255" flag="0"/>
      <psa03 value="0.0403183970" flag="0"/>
      <psa10 value="0.0090659404" flag="0"/>
      <psa30 value="0.0004947847" flag="0"/>
    </comp>
    <comp name="--.HHE">
      <acc value="0.0192934040" flag="0"/>
      <vel value="0.0086862486" flag="0"/>
      <psa03 value="0.0493426905" flag="0"/>
      <psa10 value="0.0082244078" flag="0"/>
      <psa30 value="0.0007325233" flag="0"/>
    </comp>
  </station>
</stationlist>
