<?xml version="1.0" encoding="UTF-8" standalone="yes"?>
<!DOCTYPE earthquake SYSTEM "stationlist.dtd">
<stationlist created="" xmlns="ch.ethz.sed.shakemap.usgs.xml">
  <station code="BH02A" name="BH02A" netid="Y5" insttype="STS2_gen3" lat="43.8746" lon="18.4241">
    <comp name="--.HHZ">
      <acc value="0.3071633576" flag="0"/>
      <vel value="0.0715642597" flag="0"/>
      <psa03 value="0.1963788925" flag="0"/>
      <psa10 value="0.0412748992" flag="0"/>
      <psa30 value="0.0033797689" flag="0"/>
    </comp>
    <comp name="--.HH2">
      <acc value="0.2509551502" flag="0"/>
      <vel value="0.0941976780" flag="0"/>
      <psa03 value="0.2877092338" flag="0"/>
      <psa10 value="0.0547090969" flag="0"/>
      <psa30 value="0.0036937727" flag="0"/>
    </comp>
    <comp name="--.HH1">
      <acc value="0.2191889780" flag="0"/>
      <vel value="0.1029375639" flag="0"/>
      <psa03 value="0.2496543501" flag="0"/>
      <psa10 value="0.0775276472" flag="0"/>
      <psa30 value="0.0052878197" flag="0"/>
    </comp>
  </station>
  <station code="BH03A" name="BH03A" netid="Y5" insttype="STS2_gen3" lat="43.8212" lon="17.6885">
    <comp name="--.HH1">
      <acc value="0.2238182996" flag="0"/>
      <vel value="0.0548261185" flag="0"/>
      <psa03 value="0.1908536632" flag="0"/>
      <psa10 value="0.0173841507" flag="0"/>
      <psa30 value="0.0013790167" flag="0"/>
    </comp>
    <comp name="--.HH2">
      <acc value="0.2510496305" flag="0"/>
      <vel value="0.0955465624" flag="0"/>
      <psa03 value="0.3770375445" flag="0"/>
      <psa10 value="0.0290273267" flag="0"/>
      <psa30 value="0.0024635108" flag="0"/>
    </comp>
    <comp name="--.HHZ">
      <acc value="0.0779305778" flag="0"/>
      <vel value="0.0292067640" flag="0"/>
      <psa03 value="0.1214749082" flag="0"/>
      <psa10 value="0.0096281013" flag="0"/>
      <psa30 value="0.0006619880" flag="0"/>
    </comp>
  </station>
  <station code="BH04A" name="BH04A" netid="Y5" insttype="STS2_gen2" lat="43.3483" lon="17.7935">
    <comp name="--.HHZ">
      <acc value="0.0158326911" flag="0"/>
      <vel value="0.0070495122" flag="0"/>
      <psa03 value="0.0364734931" flag="0"/>
      <psa10 value="0.0061535435" flag="0"/>
      <psa30 value="0.0003131692" flag="0"/>
    </comp>
    <comp name="--.HH2">
      <acc value="0.0247228943" flag="0"/>
      <vel value="0.0118025343" flag="0"/>
      <psa03 value="0.0630857153" flag="0"/>
      <psa10 value="0.0059398216" flag="0"/>
      <psa30 value="0.0003718254" flag="0"/>
    </comp>
    <comp name="--.HH1">
      <acc value="0.0280434480" flag="0"/>
      <vel value="0.0127952500" flag="0"/>
      <psa03 value="0.0550006089" flag="0"/>
      <psa10 value="0.0133768096" flag="0"/>
      <psa30 value="0.0005812077" flag="0"/>
    </comp>
  </station>
  <station code="BH05A" name="BH05A" netid="Y5" insttype="STS2_gen2" lat="43.1695" lon="18.5854">
    <comp name="--.HHZ">
      <acc value="0.0122490464" flag="0"/>
      <vel value="0.0032061246" flag="0"/>
      <psa03 value="0.0212081044" flag="0"/>
      <psa10 value="0.0027340329" flag="0"/>
      <psa30 value="0.0001645747" flag="0"/>
    </comp>
    <comp name="--.HH2">
      <acc value="0.0285193185" flag="0"/>
      <vel value="0.0056395877" flag="0"/>
      <psa03 value="0.0203817306" flag="0"/>
      <psa10 value="0.0023894624" flag="0"/>
      <psa30 value="0.0003204382" flag="0"/>
    </comp>
    <comp name="--.HH1">
      <acc value="0.0146364538" flag="0"/>
      <vel value="0.0029630648" flag="0"/>
      <psa03 value="0.0114900385" flag="0"/>
      <psa10 value="0.0019549850" flag="0"/>
      <psa30 value="0.0001283480" flag="0"/>
    </comp>
  </station>
  <station code="BH07A" name="BH07A" netid="Y5" insttype="STS2_gen3" lat="43.7511" lon="18.0361">
    <comp name="--.HHZ">
      <acc value="0.2736569260" flag="0"/>
      <vel value="0.0270596613" flag="0"/>
      <psa03 value="0.1044907328" flag="0"/>
      <psa10 value="0.0069417852" flag="0"/>
      <psa30 value="0.0006181026" flag="0"/>
    </comp>
    <comp name="--.HH2">
      <acc value="0.2448877089" flag="0"/>
      <vel value="0.0492055539" flag="0"/>
      <psa03 value="0.1407774305" flag="0"/>
      <psa10 value="0.0131438425" flag="0"/>
      <psa30 value="0.0007754169" flag="0"/>
    </comp>
    <comp name="--.HH1">
      <acc value="0.1952598067" flag="0"/>
      <vel value="0.0433255512" flag="0"/>
      <psa03 value="0.2193201940" flag="0"/>
      <psa10 value="0.0104700886" flag="0"/>
      <psa30 value="0.0011912338" flag="0"/>
    </comp>
  </station>
  <station code="BH08A" name="BH08A" netid="Y5" insttype="STS2_gen2" lat="44.2357" lon="18.0082">
    <comp name="--.HH1">
      <acc value="0.1279014885" flag="0"/>
      <vel value="0.0232266530" flag="0"/>
      <psa03 value="0.0990123790" flag="0"/>
      <psa10 value="0.0079309463" flag="0"/>
      <psa30 value="0.0006150108" flag="0"/>
    </comp>
    <comp name="--.HH2">
      <acc value="0.1783227290" flag="0"/>
      <vel value="0.0190336779" flag="0"/>
      <psa03 value="0.0679475773" flag="0"/>
      <psa10 value="0.0142411596" flag="0"/>
      <psa30 value="0.0007495994" flag="0"/>
    </comp>
    <comp name="--.HHZ">
      <acc value="0.0937897565" flag="0"/>
      <vel value="0.0164861674" flag="0"/>
      <psa03 value="0.0457013870" flag="0"/>
      <psa10 value="0.0119495144" flag="0"/>
      <psa30 value="0.0008368924" flag="0"/>
    </comp>
  </station>
  <station code="BH10A" name="BH10A" netid="Y5" insttype="STS2_gen3" lat="44.0685" lon="17.1657">
    <comp name="--.HH2">
      <acc value="0.0292029049" flag="0"/>
      <vel value="0.0079411591" flag="0"/>
      <psa03 value="0.0531980715" flag="0"/>
      <psa10 value="0.0046885275" flag="0"/>
      <psa30 value="0.0003765992" flag="0"/>
    </comp>
    <comp name="--.HHZ">
      <acc value="0.0219986780" flag="0"/>
      <vel value="0.0031970882" flag="0"/>
      <psa03 value="0.0185602195" flag="0"/>
      <psa10 value="0.0025397910" flag="0"/>
      <psa30 value="0.0002962481" flag="0"/>
    </comp>
    <comp name="--.HH1">
      <acc value="0.0375756304" flag="0"/>
      <vel value="0.0091422982" flag="0"/>
      <psa03 value="0.0388505647" flag="0"/>
      <psa10 value="0.0053985711" flag="0"/>
      <psa30 value="0.0002667300" flag="0"/>
    </comp>
  </station>
</stationlist>
