<?xml version="1.0" encoding="UTF-8" standalone="yes"?>
<!DOCTYPE earthquake SYSTEM "stationlist.dtd">
<stationlist created="" xmlns="ch.ethz.sed.shakemap.usgs.xml">
  <station code="MYT1" name="MYT1" netid="HI" insttype="CMG-5TD,ACCELEROMETER,GURALP" lat="39.085" lon="26.5694">
    <comp name="--.HNN">
      <acc value="0.0452790962" flag="0"/>
      <vel value="0.0378721961" flag="0"/>
      <psa03 value="0.1016707770" flag="0"/>
      <psa10 value="0.0485846457" flag="0"/>
      <psa30 value="0.0042209100" flag="0"/>
    </comp>
    <comp name="--.HNE">
      <acc value="0.0499085344" flag="0"/>
      <vel value="0.0239955655" flag="0"/>
      <psa03 value="0.0813177012" flag="0"/>
      <psa10 value="0.0481708899" flag="0"/>
      <psa30 value="0.0037592004" flag="0"/>
    </comp>
    <comp name="--.HNZ">
      <acc value="0.0521256730" flag="0"/>
      <vel value="0.0255524425" flag="0"/>
      <psa03 value="0.0777724269" flag="0"/>
      <psa10 value="0.0301614881" flag="0"/>
      <psa30 value="0.0019978061" flag="0"/>
    </comp>
  </station>
  <station code="LIA" name="LIA" netid="HL" insttype="P6C" lat="39.8972" lon="25.1806">
    <comp name="--.HHN">
      <acc value="0.0076028529" flag="0"/>
      <vel value="0.0034610677" flag="0"/>
      <psa03 value="0.0168467815" flag="0"/>
      <psa10 value="0.0034865487" flag="0"/>
      <psa30 value="0.0004267269" flag="0"/>
    </comp>
    <comp name="--.HHZ">
      <acc value="0.0086603331" flag="0"/>
      <vel value="0.0023362628" flag="0"/>
      <psa03 value="0.0122576646" flag="0"/>
      <psa10 value="0.0030650849" flag="0"/>
      <psa30 value="0.0003145728" flag="0"/>
    </comp>
    <comp name="--.HHE">
      <acc value="0.0077437286" flag="0"/>
      <vel value="0.0037352476" flag="0"/>
      <psa03 value="0.0129115118" flag="0"/>
      <psa10 value="0.0030805873" flag="0"/>
      <psa30 value="0.0002810546" flag="0"/>
    </comp>
  </station>
  <station code="PRK" name="PRK" netid="HL" insttype="120" lat="39.2456" lon="26.265">
    <comp name="--.HHN">
      <acc value="0.2536732392" flag="0"/>
      <vel value="0.1465700792" flag="0"/>
      <psa03 value="0.2769749917" flag="0"/>
      <psa10 value="0.1292401722" flag="0"/>
      <psa30 value="0.0091037211" flag="0"/>
    </comp>
    <comp name="--.HHE">
      <acc value="0.4683432259" flag="0"/>
      <vel value="0.1728273657" flag="0"/>
      <psa03 value="0.6432035458" flag="0"/>
      <psa10 value="0.1819874495" flag="0"/>
      <psa30 value="0.0154268490" flag="0"/>
    </comp>
    <comp name="--.HHZ">
      <acc value="0.3100577003" flag="0"/>
      <vel value="0.1092550315" flag="0"/>
      <psa03 value="0.2625609460" flag="0"/>
      <psa10 value="0.0871429618" flag="0"/>
      <psa30 value="0.0069637097" flag="0"/>
    </comp>
  </station>
  <station code="SIGR" name="SIGR" netid="HT" insttype="100" lat="39.2114" lon="25.8553">
    <comp name="--.HHN">
      <acc value="0.0820000913" flag="0"/>
      <vel value="0.0358047732" flag="0"/>
      <psa03 value="0.1633227881" flag="0"/>
      <psa10 value="0.0223020800" flag="0"/>
      <psa30 value="0.0028213735" flag="0"/>
    </comp>
    <comp name="--.HHE">
      <acc value="0.0474286005" flag="0"/>
      <vel value="0.0168575384" flag="0"/>
      <psa03 value="0.0530447998" flag="0"/>
      <psa10 value="0.0094801203" flag="0"/>
      <psa30 value="0.0016404275" flag="0"/>
    </comp>
    <comp name="--.HHZ">
      <acc value="0.0656758477" flag="0"/>
      <vel value="0.0184969928" flag="0"/>
      <psa03 value="0.0503237807" flag="0"/>
      <psa10 value="0.0079938894" flag="0"/>
      <psa30 value="0.0004963071" flag="0"/>
    </comp>
  </station>
  <station code="CANM" name="CANM" netid="KO" insttype="CMG-5T" lat="40.0113" lon="27.0529">
    <comp name="--.HNE">
      <acc value="0.0479708666" flag="0"/>
      <vel value="0.0185229237" flag="0"/>
      <psa03 value="0.0686954836" flag="0"/>
      <psa10 value="0.0131597056" flag="0"/>
      <psa30 value="0.0009107935" flag="0"/>
    </comp>
    <comp name="--.HNN">
      <acc value="0.0555915579" flag="0"/>
      <vel value="0.0208329120" flag="0"/>
      <psa03 value="0.0776337941" flag="0"/>
      <psa10 value="0.0195485131" flag="0"/>
      <psa30 value="0.0011223647" flag="0"/>
    </comp>
    <comp name="--.HNZ">
      <acc value="0.0381104241" flag="0"/>
      <vel value="0.0119928360" flag="0"/>
      <psa03 value="0.0683527195" flag="0"/>
      <psa10 value="0.0088205664" flag="0"/>
      <psa30 value="0.0004697371" flag="0"/>
    </comp>
  </station>
  <station code="EZN" name="EZN" netid="KO" insttype="120s," lat="39.8255" lon="26.3247">
    <comp name="--.HHN">
      <acc value="0.1241270162" flag="0"/>
      <vel value="0.0218427911" flag="0"/>
      <psa03 value="0.0757016043" flag="0"/>
      <psa10 value="0.0209619926" flag="0"/>
      <psa30 value="0.0011439069" flag="0"/>
    </comp>
    <comp name="--.HHE">
      <acc value="0.1149624689" flag="0"/>
      <vel value="0.0228601383" flag="0"/>
      <psa03 value="0.0418633135" flag="0"/>
      <psa10 value="0.0170160563" flag="0"/>
      <psa30 value="0.0011484098" flag="0"/>
    </comp>
    <comp name="--.HHZ">
      <acc value="0.0659325132" flag="0"/>
      <vel value="0.0109163537" flag="0"/>
      <psa03 value="0.0361168255" flag="0"/>
      <psa10 value="0.0089518878" flag="0"/>
      <psa30 value="0.0008650059" flag="0"/>
    </comp>
  </station>
  <station code="EZNE" name="EZNE" netid="KO" insttype="CMG-5T" lat="39.756" lon="26.3655">
    <comp name="--.HNE">
      <acc value="0.0789104718" flag="0"/>
      <vel value="0.0175386349" flag="0"/>
      <psa03 value="0.0895893065" flag="0"/>
      <psa10 value="0.0133809360" flag="0"/>
      <psa30 value="0.0014782072" flag="0"/>
    </comp>
    <comp name="--.HNN">
      <acc value="0.1203238064" flag="0"/>
      <vel value="0.0273629108" flag="0"/>
      <psa03 value="0.1173593661" flag="0"/>
      <psa10 value="0.0178269087" flag="0"/>
      <psa30 value="0.0015047831" flag="0"/>
    </comp>
    <comp name="--.HNZ">
      <acc value="0.0846497535" flag="0"/>
      <vel value="0.0186169971" flag="0"/>
      <psa03 value="0.0748458833" flag="0"/>
      <psa10 value="0.0099616606" flag="0"/>
      <psa30 value="0.0009826316" flag="0"/>
    </comp>
  </station>
  <station code="FOCM" name="FOCM" netid="KO" insttype="CMG-5T" lat="38.7131" lon="26.7309">
    <comp name="--.HNE">
      <acc value="0.0583854595" flag="0"/>
      <vel value="0.0318091533" flag="0"/>
      <psa03 value="0.1137913123" flag="0"/>
      <psa10 value="0.0290020211" flag="0"/>
      <psa30 value="0.0022586146" flag="0"/>
    </comp>
    <comp name="--.HNN">
      <acc value="0.0597221983" flag="0"/>
      <vel value="0.0278967581" flag="0"/>
      <psa03 value="0.1153512531" flag="0"/>
      <psa10 value="0.0390899840" flag="0"/>
      <psa30 value="0.0024981209" flag="0"/>
    </comp>
    <comp name="--.HNZ">
      <acc value="0.0515411110" flag="0"/>
      <vel value="0.0178052618" flag="0"/>
      <psa03 value="0.0872779147" flag="0"/>
      <psa10 value="0.0079670029" flag="0"/>
      <psa30 value="0.0005769448" flag="0"/>
    </comp>
  </station>
  <station code="GELI" name="GELI" netid="KO" insttype="30s," lat="40.398" lon="26.4742">
    <comp name="--.HHN">
      <acc value="0.0071938116" flag="0"/>
      <vel value="0.0035557851" flag="0"/>
      <psa03 value="0.0160949979" flag="0"/>
      <psa10 value="0.0033312085" flag="0"/>
      <psa30 value="0.0003891610" flag="0"/>
    </comp>
    <comp name="--.HHE">
      <acc value="0.0069378096" flag="0"/>
      <vel value="0.0044263759" flag="0"/>
      <psa03 value="0.0252097066" flag="0"/>
      <psa10 value="0.0057823090" flag="0"/>
      <psa30 value="0.0004384345" flag="0"/>
    </comp>
    <comp name="--.HHZ">
      <acc value="0.0058336351" flag="0"/>
      <vel value="0.0023777578" flag="0"/>
      <psa03 value="0.0141946469" flag="0"/>
      <psa10 value="0.0022849826" flag="0"/>
      <psa30 value="0.0003846339" flag="0"/>
    </comp>
  </station>
  <station code="GPNR" name="GPNR" netid="KO" insttype="CMG-5T" lat="39.456" lon="26.1331">
    <comp name="--.HNZ">
      <acc value="0.3017676768" flag="0"/>
      <vel value="0.0746291678" flag="0"/>
      <psa03 value="0.4918785591" flag="0"/>
      <psa10 value="0.0468364896" flag="0"/>
      <psa30 value="0.0024352482" flag="0"/>
    </comp>
    <comp name="--.HNE">
      <acc value="0.3408469268" flag="0"/>
      <vel value="0.1465543075" flag="0"/>
      <psa03 value="0.5208474795" flag="0"/>
      <psa10 value="0.1126316230" flag="0"/>
      <psa30 value="0.0124175165" flag="0"/>
    </comp>
    <comp name="--.HNN">
      <acc value="0.3261933777" flag="0"/>
      <vel value="0.0907432900" flag="0"/>
      <psa03 value="0.5717470643" flag="0"/>
      <psa10 value="0.0353926123" flag="0"/>
      <psa30 value="0.0076862473" flag="0"/>
    </comp>
  </station>
  <station code="LAP" name="LAP" netid="KO" insttype="30s," lat="40.3703" lon="26.7593">
    <comp name="--.HHE">
      <acc value="0.0149263074" flag="0"/>
      <vel value="0.0075695284" flag="0"/>
      <psa03 value="0.0270928943" flag="0"/>
      <psa10 value="0.0155790691" flag="0"/>
      <psa30 value="0.0006688941" flag="0"/>
    </comp>
    <comp name="--.HHZ">
      <acc value="0.0123658521" flag="0"/>
      <vel value="0.0079643665" flag="0"/>
      <psa03 value="0.0293330894" flag="0"/>
      <psa10 value="0.0085926761" flag="0"/>
      <psa30 value="0.0005260499" flag="0"/>
    </comp>
    <comp name="--.HHN">
      <acc value="0.0226847987" flag="0"/>
      <vel value="0.0155849075" flag="0"/>
      <psa03 value="0.0362672001" flag="0"/>
      <psa10 value="0.0188591742" flag="0"/>
      <psa30 value="0.0012573387" flag="0"/>
    </comp>
  </station>
  <station code="SOMA" name="SOMA" netid="KO" insttype="CMG-5T" lat="39.1564" lon="27.5341">
    <comp name="--.HNE">
      <acc value="0.0228252949" flag="0"/>
      <vel value="0.0129009187" flag="0"/>
      <psa03 value="0.0430779172" flag="0"/>
      <psa10 value="0.0181566616" flag="0"/>
      <psa30 value="0.0011728037" flag="0"/>
    </comp>
    <comp name="--.HNZ">
      <acc value="0.0174022358" flag="0"/>
      <vel value="0.0084960269" flag="0"/>
      <psa03 value="0.0282679339" flag="0"/>
      <psa10 value="0.0082910005" flag="0"/>
      <psa30 value="0.0008601949" flag="0"/>
    </comp>
    <comp name="--.HNN">
      <acc value="0.0261086487" flag="0"/>
      <vel value="0.0121889422" flag="0"/>
      <psa03 value="0.0556768065" flag="0"/>
      <psa10 value="0.0104615618" flag="0"/>
      <psa30 value="0.0008522996" flag="0"/>
    </comp>
  </station>
  <station code="YAYO" name="YAYO" netid="KO" insttype="CMG-6T" lat="39.6113" lon="27.0726">
    <comp name="--.HHE">
      <acc value="0.1111336821" flag="0"/>
      <vel value="0.0459305692" flag="0"/>
      <psa03 value="0.2286784898" flag="0"/>
      <psa10 value="0.0215909195" flag="0"/>
      <psa30 value="0.0018237205" flag="0"/>
    </comp>
    <comp name="--.HHN">
      <acc value="0.1360104387" flag="0"/>
      <vel value="0.0462898219" flag="0"/>
      <psa03 value="0.3405989025" flag="0"/>
      <psa10 value="0.0215234601" flag="0"/>
      <psa30 value="0.0015760849" flag="0"/>
    </comp>
    <comp name="--.HHZ">
      <acc value="0.0618573894" flag="0"/>
      <vel value="0.0241993081" flag="0"/>
      <psa03 value="0.1673092864" flag="0"/>
      <psa10 value="0.0078450246" flag="0"/>
      <psa30 value="0.0006409191" flag="0"/>
    </comp>
  </station>
</stationlist>
