<?xml version="1.0" encoding="UTF-8" standalone="yes"?>
<!DOCTYPE earthquake SYSTEM "stationlist.dtd">
<stationlist created="" xmlns="ch.ethz.sed.shakemap.usgs.xml">
  <station code="ARPRA" name="ARPRA" netid="KO" insttype="CMG-5T" lat="39.0929" lon="38.3356">
    <comp name="--.HNZ">
      <acc value="0.0189120197" flag="0"/>
      <vel value="0.0071072260" flag="0"/>
      <psa03 value="0.0502855035" flag="0"/>
      <psa10 value="0.0065395775" flag="0"/>
      <psa30 value="0.0005595577" flag="0"/>
    </comp>
    <comp name="--.HNN">
      <acc value="0.0648297032" flag="0"/>
      <vel value="0.0237674606" flag="0"/>
      <psa03 value="0.1266009533" flag="0"/>
      <psa10 value="0.0133750496" flag="0"/>
      <psa30 value="0.0011809123" flag="0"/>
    </comp>
    <comp name="--.HNE">
      <acc value="0.0562236157" flag="0"/>
      <vel value="0.0200830050" flag="0"/>
      <psa03 value="0.1029063762" flag="0"/>
      <psa10 value="0.0186481786" flag="0"/>
      <psa30 value="0.0014243187" flag="0"/>
    </comp>
  </station>
</stationlist>
