<?xml version="1.0" encoding="UTF-8" standalone="yes"?>
<!DOCTYPE earthquake SYSTEM "stationlist.dtd">
<stationlist created="" xmlns="ch.ethz.sed.shakemap.usgs.xml">
  <station code="GAZ" name="GAZ" netid="KO" insttype="CMG-3T" lat="37.1721" lon="37.2096">
    <comp name="--.HHE">
      <acc value="0.0367508668" flag="0"/>
      <vel value="0.0308761299" flag="0"/>
      <psa03 value="0.0793973939" flag="0"/>
      <psa10 value="0.0547467289" flag="0"/>
      <psa30 value="0.0051660107" flag="0"/>
    </comp>
    <comp name="--.HHN">
      <acc value="0.0317393242" flag="0"/>
      <vel value="0.0153355780" flag="0"/>
      <psa03 value="0.0496105697" flag="0"/>
      <psa10 value="0.0202234798" flag="0"/>
      <psa30 value="0.0028635438" flag="0"/>
    </comp>
    <comp name="--.HHZ">
      <acc value="0.0254108116" flag="0"/>
      <vel value="0.0181153611" flag="0"/>
      <psa03 value="0.0602097393" flag="0"/>
      <psa10 value="0.0201323025" flag="0"/>
      <psa30 value="0.0055149273" flag="0"/>
    </comp>
  </station>
  <station code="ANDN" name="ANDN" netid="TU" insttype="T" lat="37.58" lon="36.3452">
    <comp name="--.HHE">
      <acc value="0.0671148770" flag="0"/>
      <vel value="0.0244386291" flag="0"/>
      <psa03 value="0.1407047611" flag="0"/>
      <psa10 value="0.0242236793" flag="0"/>
      <psa30 value="0.0023319703" flag="0"/>
    </comp>
    <comp name="--.HHN">
      <acc value="0.1026433014" flag="0"/>
      <vel value="0.0324320616" flag="0"/>
      <psa03 value="0.1918926677" flag="0"/>
      <psa10 value="0.0321206719" flag="0"/>
      <psa30 value="0.0028790985" flag="0"/>
    </comp>
    <comp name="--.HHZ">
      <acc value="0.0327815557" flag="0"/>
      <vel value="0.0137894711" flag="0"/>
      <psa03 value="0.0591253633" flag="0"/>
      <psa10 value="0.0272030099" flag="0"/>
      <psa30 value="0.0018354045" flag="0"/>
    </comp>
  </station>
</stationlist>
