<stationlist created="1778136569">
	<station code="KRL1" name="KRL1" netid="HI" source="ITSAK Strong Motion Network" insttype="" lat="37.7951" lon="26.7065">
		<comp name="--.HNE" depth="0.0">
			<acc value="0.00473128064373162" flag="0"/>
			<vel value="0.00397421130807938" flag="0"/>
			<psa03 value="0.0153690246328835" flag="0"/>
			<psa10 value="0.00398730445185185" flag="0"/>
			<psa30 value="0.000660544278648366" flag="0"/>
		</comp>
		<comp name="--.HNN" depth="0.0">
			<acc value="0.00298172735501989" flag="0"/>
			<vel value="0.0031569147049934" flag="0"/>
			<psa03 value="0.00965672760142486" flag="0"/>
			<psa10 value="0.00749233398659815" flag="0"/>
			<psa30 value="0.000575554481826434" flag="0"/>
		</comp>
		<comp name="--.HNZ" depth="0.0">
			<acc value="0.00214562746631577" flag="0"/>
			<vel value="0.0015513850704632" flag="0"/>
			<psa03 value="0.00543374993320232" flag="0"/>
			<psa10 value="0.00258741452851286" flag="0"/>
			<psa30 value="0.000375477998574733" flag="0"/>
		</comp>
	</station>
	<station code="NAX1" name="NAX1" netid="HI" source="ITSAK Strong Motion Network" insttype="" lat="37.101394" lon="25.374103">
		<comp name="--.HNE" depth="0.0">
			<acc value="0.00151686276542971" flag="0"/>
			<vel value="0.00128850267626367" flag="0"/>
			<psa03 value="0.00478560608540754" flag="0"/>
			<psa10 value="0.00188083912761099" flag="0"/>
			<psa30 value="0.000198915169341465" flag="0"/>
		</comp>
		<comp name="--.HNN" depth="0.0">
			<acc value="0.00371031624502346" flag="0"/>
			<vel value="0.0019054710952594" flag="0"/>
			<psa03 value="0.0114540855998672" flag="0"/>
			<psa10 value="0.00262205885477954" flag="0"/>
			<psa30 value="0.000366685150466515" flag="0"/>
		</comp>
		<comp name="--.HNZ" depth="0.0">
			<acc value="0.00213594328263742" flag="0"/>
			<vel value="0.00150482538707234" flag="0"/>
			<psa03 value="0.00501194562358631" flag="0"/>
			<psa10 value="0.00140565721945411" flag="0"/>
			<psa30 value="0.000282563874719806" flag="0"/>
		</comp>
	</station>
	<station code="SIT2" name="SIT2" netid="HI" source="ITSAK Strong Motion Network" insttype="" lat="35.2059" lon="26.107">
		<comp name="--.HNE" depth="0.0">
			<acc value="0.00993164780151164" flag="0"/>
			<vel value="0.00793426878860033" flag="0"/>
			<psa03 value="0.0239585923475011" flag="0"/>
			<psa10 value="0.00719489287634994" flag="0"/>
			<psa30 value="0.000503552420375141" flag="0"/>
		</comp>
		<comp name="--.HNN" depth="0.0">
			<acc value="0.0120520402440604" flag="0"/>
			<vel value="0.00916488951482994" flag="0"/>
			<psa03 value="0.0505301390404142" flag="0"/>
			<psa10 value="0.00692699012910866" flag="0"/>
			<psa30 value="0.000531122475924374" flag="0"/>
		</comp>
		<comp name="--.HNZ" depth="0.0">
			<acc value="0.00395790828746055" flag="0"/>
			<vel value="0.0020938655705579" flag="0"/>
			<psa03 value="0.0168728377947641" flag="0"/>
			<psa10 value="0.00233574895065388" flag="0"/>
			<psa30 value="0.000229719202144676" flag="0"/>
		</comp>
	</station>
	<station code="IACM" name="IACM" netid="HL" source="National Observatory of Athens Seismic Network" insttype="" lat="35.3058" lon="25.0709">
		<comp name="--.HNE" depth="0.0">
			<acc value="0.00794099772956341" flag="0"/>
			<vel value="0.00704302711961307" flag="0"/>
			<psa03 value="0.0169966441734421" flag="0"/>
			<psa10 value="0.0117813904592808" flag="0"/>
			<psa30 value="0.000897309129828305" flag="0"/>
		</comp>
		<comp name="--.HNN" depth="0.0">
			<acc value="0.0108292779395578" flag="0"/>
			<vel value="0.00630882858312241" flag="0"/>
			<psa03 value="0.0255036139684229" flag="0"/>
			<psa10 value="0.00745933273795144" flag="0"/>
			<psa30 value="0.000625657384231521" flag="0"/>
		</comp>
		<comp name="--.HNZ" depth="0.0">
			<acc value="0.00994776782330669" flag="0"/>
			<vel value="0.00301866666925027" flag="0"/>
			<psa03 value="0.0100002269190607" flag="0"/>
			<psa10 value="0.00366899860002392" flag="0"/>
			<psa30 value="0.000331637177668783" flag="0"/>
		</comp>
	</station>
	<station code="KLNA" name="KLNA" netid="HL" source="National Observatory of Athens Seismic Network" insttype="" lat="36.95708" lon="26.97274">
		<comp name="00.HNE" depth="0.0">
			<acc value="0.0295720984385965" flag="0"/>
			<vel value="0.00946115804933323" flag="0"/>
			<psa03 value="0.0511320070361066" flag="0"/>
			<psa10 value="0.00288053933721726" flag="0"/>
			<psa30 value="0.000772931619594132" flag="0"/>
		</comp>
		<comp name="00.HNN" depth="0.0">
			<acc value="0.0193629024867142" flag="0"/>
			<vel value="0.00660834381775253" flag="0"/>
			<psa03 value="0.0552191736240582" flag="0"/>
			<psa10 value="0.00334252869174747" flag="0"/>
			<psa30 value="0.000391632506231433" flag="0"/>
		</comp>
		<comp name="00.HNZ" depth="0.0">
			<acc value="0.0390335420196082" flag="0"/>
			<vel value="0.00840470058696002" flag="0"/>
			<psa03 value="0.0317213201317787" flag="0"/>
			<psa10 value="0.00245400412823151" flag="0"/>
			<psa30 value="0.000776761456633901" flag="0"/>
		</comp>
	</station>
	<station code="NISR" name="NISR" netid="HL" source="National Observatory of Athens Seismic Network" insttype="" lat="36.6106" lon="27.131">
		<comp name="--.HNE" depth="0.0">
			<acc value="1.15900150831743" flag="0"/>
			<vel value="0.318588675771425" flag="0"/>
			<psa03 value="1.37861724329224" flag="0"/>
			<psa10 value="0.106393258031292" flag="0"/>
			<psa30 value="0.0146627079991278" flag="0"/>
		</comp>
		<comp name="--.HNN" depth="0.0">
			<acc value="1.43585008983951" flag="0"/>
			<vel value="0.279362289587217" flag="0"/>
			<psa03 value="0.832875090551856" flag="0"/>
			<psa10 value="0.0608566427039909" flag="0"/>
			<psa30 value="0.00804988409864817" flag="0"/>
		</comp>
		<comp name="--.HNZ" depth="0.0">
			<acc value="0.574175235554851" flag="0"/>
			<vel value="0.104992474392454" flag="0"/>
			<psa03 value="0.428271995917702" flag="0"/>
			<psa10 value="0.0631634017653244" flag="0"/>
			<psa30 value="0.00494985665371067" flag="0"/>
		</comp>
	</station>
	<station code="RODB" name="RODB" netid="HL" source="National Observatory of Athens Seismic Network" insttype="" lat="36.4471" lon="28.22116">
		<comp name="00.HNE" depth="0.0">
			<acc value="0.00461853818902171" flag="0"/>
			<vel value="0.00474655948806367" flag="0"/>
			<psa03 value="0.0154143609695185" flag="0"/>
			<psa10 value="0.00669227098634351" flag="0"/>
			<psa30 value="0.0019192971440166" flag="0"/>
		</comp>
		<comp name="00.HNN" depth="0.0">
			<acc value="0.00514067105883237" flag="0"/>
			<vel value="0.00501262989666249" flag="0"/>
			<psa03 value="0.0131884986733327" flag="0"/>
			<psa10 value="0.00805142711751267" flag="0"/>
			<psa30 value="0.00174148567737868" flag="0"/>
		</comp>
		<comp name="00.HNZ" depth="0.0">
			<acc value="0.00435655840040355" flag="0"/>
			<vel value="0.00302138559776946" flag="0"/>
			<psa03 value="0.0080927515998741" flag="0"/>
			<psa10 value="0.00455096866681966" flag="0"/>
			<psa30 value="0.000705309431620498" flag="0"/>
		</comp>
	</station>
	<station code="SMG" name="SMG" netid="HL" source="National Observatory of Athens Seismic Network" insttype="" lat="37.70425" lon="26.83772">
		<comp name="00.HNE" depth="0.0">
			<acc value="0.00408921109025546" flag="0"/>
			<vel value="0.00293551894008256" flag="0"/>
			<psa03 value="0.0188555589840843" flag="0"/>
			<psa10 value="0.00291108698585095" flag="0"/>
			<psa30 value="0.000421735177469265" flag="0"/>
		</comp>
		<comp name="00.HNN" depth="0.0">
			<acc value="0.00412543450978847" flag="0"/>
			<vel value="0.00210630352976382" flag="0"/>
			<psa03 value="0.0140195185680405" flag="0"/>
			<psa10 value="0.00158168614613305" flag="0"/>
			<psa30 value="0.000399872244781958" flag="0"/>
		</comp>
		<comp name="00.HNZ" depth="0.0">
			<acc value="0.00202441006467644" flag="0"/>
			<vel value="0.00129675143831908" flag="0"/>
			<psa03 value="0.00574525494388677" flag="0"/>
			<psa10 value="0.00145704042802587" flag="0"/>
			<psa30 value="0.000238017564370526" flag="0"/>
		</comp>
	</station>
	<station code="CESE" name="CESE" netid="KO" source="Bogazici University Kandilli Observatory And Earthquake Research Institute (KOERI)" insttype="" lat="38.3306" lon="26.2997">
		<comp name="--.HNE" depth="0.0">
			<acc value="0.000861662843876352" flag="0"/>
			<vel value="0.00104974454367767" flag="0"/>
			<psa03 value="0.000787187319821034" flag="0"/>
			<psa10 value="0.000972998206354287" flag="0"/>
			<psa30 value="0.000515513889846699" flag="0"/>
		</comp>
		<comp name="--.HNN" depth="0.0">
			<acc value="0.000804008583623455" flag="0"/>
			<vel value="0.0012625996507889" flag="0"/>
			<psa03 value="0.00120513973042682" flag="0"/>
			<psa10 value="0.00098417089961634" flag="0"/>
			<psa30 value="0.000479333159721459" flag="0"/>
		</comp>
		<comp name="--.HNZ" depth="0.0">
			<acc value="0.000541258727393013" flag="0"/>
			<vel value="0.00074712047046953" flag="0"/>
			<psa03 value="0.000621632570082493" flag="0"/>
			<psa10 value="0.000549884923270706" flag="0"/>
			<psa30 value="0.000329796977639331" flag="0"/>
		</comp>
	</station>
	<station code="DATC" name="DATC" netid="KO" source="Bogazici University Kandilli Observatory And Earthquake Research Institute (KOERI)" insttype="" lat="36.7584" lon="27.6602">
		<comp name="--.HNE" depth="0.0">
			<acc value="0.0450211866186376" flag="0"/>
			<vel value="0.0238954813782676" flag="0"/>
			<psa03 value="0.0928270972563784" flag="0"/>
			<psa10 value="0.0284148992226279" flag="0"/>
			<psa30 value="0.00224684259229301" flag="0"/>
		</comp>
		<comp name="--.HNN" depth="0.0">
			<acc value="0.0410054899904726" flag="0"/>
			<vel value="0.0158392115706832" flag="0"/>
			<psa03 value="0.0685236435218291" flag="0"/>
			<psa10 value="0.0157586883107474" flag="0"/>
			<psa30 value="0.00134868423954435" flag="0"/>
		</comp>
		<comp name="--.HNZ" depth="0.0">
			<acc value="0.0448535275368876" flag="0"/>
			<vel value="0.0167461417480285" flag="0"/>
			<psa03 value="0.057940838296092" flag="0"/>
			<psa10 value="0.0149170650573376" flag="0"/>
			<psa30 value="0.00105950310354852" flag="0"/>
		</comp>
	</station>
	<station code="FETI" name="FETI" netid="KO" source="Bogazici University Kandilli Observatory And Earthquake Research Institute (KOERI)" insttype="" lat="36.6903" lon="29.096">
		<comp name="--.HNE" depth="0.0">
			<acc value="0.0100602677983392" flag="0"/>
			<vel value="0.00133014894208081" flag="0"/>
			<psa03 value="0.00205707100393066" flag="0"/>
			<psa10 value="0.00140604068235562" flag="0"/>
			<psa30 value="0.000368228846478806" flag="0"/>
		</comp>
		<comp name="--.HNN" depth="0.0">
			<acc value="0.00839864379481293" flag="0"/>
			<vel value="0.0017375947666964" flag="0"/>
			<psa03 value="0.00240885732888117" flag="0"/>
			<psa10 value="0.00110137471848422" flag="0"/>
			<psa30 value="0.000618671296435127" flag="0"/>
		</comp>
		<comp name="--.HNZ" depth="0.0">
			<acc value="0.0277446233626312" flag="0"/>
			<vel value="0.00218697270939213" flag="0"/>
			<psa03 value="0.00234632193622074" flag="0"/>
			<psa10 value="0.00163692109423949" flag="0"/>
			<psa30 value="0.000564573650232183" flag="0"/>
		</comp>
	</station>
	<station code="KUSD" name="KUSD" netid="KO" source="Bogazici University Kandilli Observatory And Earthquake Research Institute (KOERI)" insttype="" lat="37.8606" lon="27.2868">
		<comp name="--.HNE" depth="0.0">
			<acc value="0.00860590141149383" flag="0"/>
			<vel value="0.000812649420601786" flag="0"/>
			<psa03 value="0.00191834013400644" flag="0"/>
			<psa10 value="0.00131478705912921" flag="0"/>
			<psa30 value="0.000256568871428634" flag="0"/>
		</comp>
		<comp name="--.HNN" depth="0.0">
			<acc value="0.0277970742748815" flag="0"/>
			<vel value="0.00208653802391659" flag="0"/>
			<psa03 value="0.00398358973962332" flag="0"/>
			<psa10 value="0.00161944060030278" flag="0"/>
			<psa30 value="0.000358001632517766" flag="0"/>
		</comp>
		<comp name="--.HNZ" depth="0.0">
			<acc value="0.00476335947344891" flag="0"/>
			<vel value="0.000640069439202155" flag="0"/>
			<psa03 value="0.00131282061050214" flag="0"/>
			<psa10 value="0.000639645127254977" flag="0"/>
			<psa30 value="0.000344325049427953" flag="0"/>
		</comp>
	</station>
	<station code="NAZL" name="NAZL" netid="KO" source="Bogazici University Kandilli Observatory And Earthquake Research Institute (KOERI)" insttype="" lat="37.9641" lon="28.2922">
		<comp name="--.HNE" depth="0.0">
			<acc value="0.00128608156182328" flag="0"/>
			<vel value="0.00170086542514413" flag="0"/>
			<psa03 value="0.00459116254042937" flag="0"/>
			<psa10 value="0.00146266568348759" flag="0"/>
			<psa30 value="0.000529860934017687" flag="0"/>
		</comp>
		<comp name="--.HNN" depth="0.0">
			<acc value="0.00145231078756258" flag="0"/>
			<vel value="0.0014310066481997" flag="0"/>
			<psa03 value="0.004223672701235" flag="0"/>
			<psa10 value="0.00196013027869971" flag="0"/>
			<psa30 value="0.000352745138467558" flag="0"/>
		</comp>
		<comp name="--.HNZ" depth="0.0">
			<acc value="0.000467833056108051" flag="0"/>
			<vel value="0.000556255091991132" flag="0"/>
			<psa03 value="0.00139501217182575" flag="0"/>
			<psa10 value="0.000554665728257883" flag="0"/>
			<psa30 value="0.000210991294846294" flag="0"/>
		</comp>
	</station>
	<station code="ODEM" name="ODEM" netid="KO" source="Bogazici University Kandilli Observatory And Earthquake Research Institute (KOERI)" insttype="" lat="38.2762" lon="28.0747">
		<comp name="--.HNE" depth="0.0">
			<acc value="0.000331662728640861" flag="0"/>
			<vel value="0.000599102574303427" flag="0"/>
			<psa03 value="0.00093882220212976" flag="0"/>
			<psa10 value="0.000767338976972004" flag="0"/>
			<psa30 value="0.000395737700055319" flag="0"/>
		</comp>
		<comp name="--.HNN" depth="0.0">
			<acc value="0.000314289388077559" flag="0"/>
			<vel value="0.000406331082933122" flag="0"/>
			<psa03 value="0.000830062637313589" flag="0"/>
			<psa10 value="0.000559864861735237" flag="0"/>
			<psa30 value="0.000144675052762176" flag="0"/>
		</comp>
		<comp name="--.HNZ" depth="0.0">
			<acc value="0.000276507527978887" flag="0"/>
			<vel value="0.000354598428928997" flag="0"/>
			<psa03 value="0.000534561697894284" flag="0"/>
			<psa10 value="0.000753946546822609" flag="0"/>
			<psa30 value="0.000178110965643798" flag="0"/>
		</comp>
	</station>
	<station code="YKAV" name="YKAV" netid="KO" source="Bogazici University Kandilli Observatory And Earthquake Research Institute (KOERI)" insttype="" lat="37.1246" lon="27.2801">
		<comp name="--.HNE" depth="0.0">
			<acc value="0.00831338644050032" flag="0"/>
			<vel value="0.00315799360384213" flag="0"/>
			<psa03 value="0.0180670484157709" flag="0"/>
			<psa10 value="0.00292804607805866" flag="0"/>
			<psa30 value="0.00046352961281174" flag="0"/>
		</comp>
		<comp name="--.HNN" depth="0.0">
			<acc value="0.00801979329874705" flag="0"/>
			<vel value="0.00241599523437251" flag="0"/>
			<psa03 value="0.00862652719425831" flag="0"/>
			<psa10 value="0.00402923363570786" flag="0"/>
			<psa30 value="0.000483704751398775" flag="0"/>
		</comp>
		<comp name="--.HNZ" depth="0.0">
			<acc value="0.00768036594490409" flag="0"/>
			<vel value="0.00264106937689318" flag="0"/>
			<psa03 value="0.00647757103435858" flag="0"/>
			<psa10 value="0.00352193635787201" flag="0"/>
			<psa30 value="0.000370415788228015" flag="0"/>
		</comp>
	</station>
</stationlist>
