<?xml version="1.0" encoding="UTF-8" standalone="yes"?>
<!DOCTYPE earthquake SYSTEM "stationlist.dtd">
<stationlist created="" xmlns="ch.ethz.sed.shakemap.usgs.xml">
  <station code="KARP" name="KARP" netid="GE" insttype="STS-2/N" lat="35.5471" lon="27.1611">
    <comp name="--.HHE">
      <acc value="0.0232795336" flag="0"/>
      <vel value="0.0083827837" flag="0"/>
      <psa03 value="0.0380869098" flag="0"/>
      <psa10 value="0.0145080973" flag="0"/>
      <psa30 value="0.0005598430" flag="0"/>
    </comp>
    <comp name="--.HHZ">
      <acc value="0.0135000659" flag="0"/>
      <vel value="0.0051230808" flag="0"/>
      <psa03 value="0.0205039041" flag="0"/>
      <psa10 value="0.0056421658" flag="0"/>
      <psa30 value="0.0005178550" flag="0"/>
    </comp>
    <comp name="--.HHN">
      <acc value="0.0187317896" flag="0"/>
      <vel value="0.0092805655" flag="0"/>
      <psa03 value="0.0285784754" flag="0"/>
      <psa10 value="0.0152338550" flag="0"/>
      <psa30 value="0.0006830641" flag="0"/>
    </comp>
  </station>
</stationlist>
