<?xml version="1.0" encoding="UTF-8" standalone="yes"?>
<!DOCTYPE earthquake SYSTEM "stationlist.dtd">
<stationlist created="" xmlns="ch.ethz.sed.shakemap.usgs.xml">
  <station code="BNN" name="BNN" netid="KO" insttype="CMG-3T" lat="38.8521" lon="35.8472">
    <comp name="--.HHN">
      <acc value="0.0231155613" flag="0"/>
      <vel value="0.0244341589" flag="0"/>
      <psa03 value="0.0509935159" flag="0"/>
      <psa10 value="0.0494385507" flag="0"/>
      <psa30 value="0.0043767306" flag="0"/>
    </comp>
  </station>
  <station code="DARE" name="DARE" netid="KO" insttype="CMG-3ESP" lat="38.5712" lon="37.4832">
    <comp name="--.HHE">
      <acc value="0.2248353812" flag="0"/>
      <vel value="0.1240874851" flag="0"/>
      <psa03 value="0.7255931706" flag="0"/>
      <psa10 value="0.1356583727" flag="0"/>
      <psa30 value="0.0104717215" flag="0"/>
    </comp>
    <comp name="--.HHZ">
      <acc value="0.1638139431" flag="0"/>
      <vel value="0.0953979286" flag="0"/>
      <psa03 value="0.6348824515" flag="0"/>
      <psa10 value="0.1266900962" flag="0"/>
      <psa30 value="0.0092871222" flag="0"/>
    </comp>
    <comp name="--.HHN">
      <acc value="0.2185646824" flag="0"/>
      <vel value="0.1357193727" flag="0"/>
      <psa03 value="0.5686928316" flag="0"/>
      <psa10 value="0.1329233764" flag="0"/>
      <psa30 value="0.0079745112" flag="0"/>
    </comp>
  </station>
  <station code="GAZ" name="GAZ" netid="KO" insttype="CMG-3T" lat="37.1721" lon="37.2096">
    <comp name="--.HHE">
      <acc value="0.1555930368" flag="0"/>
      <vel value="0.0804229621" flag="0"/>
      <psa03 value="0.3708815866" flag="0"/>
      <psa10 value="0.0439114768" flag="0"/>
      <psa30 value="0.0069822550" flag="0"/>
    </comp>
    <comp name="--.HHN">
      <acc value="0.0926302056" flag="0"/>
      <vel value="0.0575481676" flag="0"/>
      <psa03 value="0.3056104662" flag="0"/>
      <psa10 value="0.0431585963" flag="0"/>
      <psa30 value="0.0054940743" flag="0"/>
    </comp>
    <comp name="--.HHZ">
      <acc value="0.0673550710" flag="0"/>
      <vel value="0.0463358956" flag="0"/>
      <psa03 value="0.2165300015" flag="0"/>
      <psa10 value="0.0371744861" flag="0"/>
      <psa30 value="0.0040718106" flag="0"/>
    </comp>
  </station>
  <station code="SARI" name="SARI" netid="KO" insttype="CMG-3T" lat="38.4072" lon="36.4181">
    <comp name="--.HHE">
      <acc value="0.1867002395" flag="0"/>
      <vel value="0.0464462399" flag="0"/>
      <psa03 value="0.2972897747" flag="0"/>
      <psa10 value="0.0647775895" flag="0"/>
      <psa30 value="0.0051352874" flag="0"/>
    </comp>
    <comp name="--.HHZ">
      <acc value="0.1113391626" flag="0"/>
      <vel value="0.0447086652" flag="0"/>
      <psa03 value="0.2308839789" flag="0"/>
      <psa10 value="0.0382458652" flag="0"/>
      <psa30 value="0.0038371676" flag="0"/>
    </comp>
    <comp name="--.HHN">
      <acc value="0.1241094388" flag="0"/>
      <vel value="0.0537410635" flag="0"/>
      <psa03 value="0.3333717481" flag="0"/>
      <psa10 value="0.0553016888" flag="0"/>
      <psa30 value="0.0043804003" flag="0"/>
    </comp>
  </station>
  <station code="ANDN" name="ANDN" netid="TU" insttype="T" lat="37.58" lon="36.3452">
    <comp name="--.HHZ">
      <acc value="0.1900870812" flag="0"/>
      <vel value="0.1333729725" flag="0"/>
      <psa03 value="0.4275532681" flag="0"/>
      <psa10 value="0.1390683455" flag="0"/>
      <psa30 value="0.0122456423" flag="0"/>
    </comp>
    <comp name="--.HHN">
      <acc value="0.6315503408" flag="0"/>
      <vel value="0.2613400270" flag="0"/>
      <psa03 value="0.9283755988" flag="0"/>
      <psa10 value="0.1677808251" flag="0"/>
      <psa30 value="0.0216740742" flag="0"/>
    </comp>
    <comp name="--.HHE">
      <acc value="0.4397001911" flag="0"/>
      <vel value="0.1814216663" flag="0"/>
      <psa03 value="1.0585958024" flag="0"/>
      <psa10 value="0.1114418630" flag="0"/>
      <psa30 value="0.0176229991" flag="0"/>
    </comp>
  </station>
</stationlist>
