<?xml version="1.0" encoding="UTF-8" standalone="yes"?>
<!DOCTYPE earthquake SYSTEM "stationlist.dtd">
<stationlist created="" xmlns="ch.ethz.sed.shakemap.usgs.xml">
  <station code="BNN" name="BNN" netid="KO" insttype="CMG-3T" lat="38.8521" lon="35.8472">
    <comp name="--.HHN">
      <acc value="0.0231155614" flag="0"/>
      <vel value="0.0244341595" flag="0"/>
      <psa03 value="0.0509935159" flag="0"/>
      <psa10 value="0.0494385503" flag="0"/>
      <psa30 value="0.0043766162" flag="0"/>
    </comp>
    <comp name="--.HHE">
      <acc value="0.1255359265" flag="0"/>
      <vel value="0.0236573974" flag="0"/>
      <psa03 value="0.0874000771" flag="0"/>
      <psa10 value="0.0339754445" flag="0"/>
      <psa30 value="0.0031355452" flag="0"/>
    </comp>
    <comp name="--.HHZ">
      <acc value="0.0307913901" flag="0"/>
      <vel value="0.0157591135" flag="0"/>
      <psa03 value="0.0728435417" flag="0"/>
      <psa10 value="0.0295352892" flag="0"/>
      <psa30 value="0.0037906181" flag="0"/>
    </comp>
  </station>
  <station code="DARE" name="DARE" netid="KO" insttype="CMG-3ESP" lat="38.5712" lon="37.4832">
    <comp name="--.HHE">
      <acc value="0.2248353812" flag="0"/>
      <vel value="0.1240874922" flag="0"/>
      <psa03 value="0.7255931706" flag="0"/>
      <psa10 value="0.1356583729" flag="0"/>
      <psa30 value="0.0104717306" flag="0"/>
    </comp>
    <comp name="--.HHZ">
      <acc value="0.1638139431" flag="0"/>
      <vel value="0.0953979192" flag="0"/>
      <psa03 value="0.6348824514" flag="0"/>
      <psa10 value="0.1266900962" flag="0"/>
      <psa30 value="0.0092874415" flag="0"/>
    </comp>
    <comp name="--.HHN">
      <acc value="0.2185646823" flag="0"/>
      <vel value="0.1357193652" flag="0"/>
      <psa03 value="0.5686928316" flag="0"/>
      <psa10 value="0.1329233736" flag="0"/>
      <psa30 value="0.0079744603" flag="0"/>
    </comp>
  </station>
  <station code="GAZ" name="GAZ" netid="KO" insttype="CMG-3T" lat="37.1721" lon="37.2096">
    <comp name="--.HHZ">
      <acc value="0.0673550711" flag="0"/>
      <vel value="0.0463358968" flag="0"/>
      <psa03 value="0.2165300015" flag="0"/>
      <psa10 value="0.0371744869" flag="0"/>
      <psa30 value="0.0040718153" flag="0"/>
    </comp>
    <comp name="--.HHN">
      <acc value="0.0926302057" flag="0"/>
      <vel value="0.0575481694" flag="0"/>
      <psa03 value="0.3056104662" flag="0"/>
      <psa10 value="0.0431585963" flag="0"/>
      <psa30 value="0.0054940497" flag="0"/>
    </comp>
    <comp name="--.HHE">
      <acc value="0.1555930368" flag="0"/>
      <vel value="0.0804229674" flag="0"/>
      <psa03 value="0.3708815866" flag="0"/>
      <psa10 value="0.0439114768" flag="0"/>
      <psa30 value="0.0069826381" flag="0"/>
    </comp>
  </station>
  <station code="SARI" name="SARI" netid="KO" insttype="CMG-3T" lat="38.4072" lon="36.4181">
    <comp name="--.HHZ">
      <acc value="0.1113391628" flag="0"/>
      <vel value="0.0447086669" flag="0"/>
      <psa03 value="0.2308839789" flag="0"/>
      <psa10 value="0.0382458651" flag="0"/>
      <psa30 value="0.0038371353" flag="0"/>
    </comp>
    <comp name="--.HHN">
      <acc value="0.1241094388" flag="0"/>
      <vel value="0.0537410505" flag="0"/>
      <psa03 value="0.3333717481" flag="0"/>
      <psa10 value="0.0553016862" flag="0"/>
      <psa30 value="0.0043804582" flag="0"/>
    </comp>
    <comp name="--.HHE">
      <acc value="0.1867002398" flag="0"/>
      <vel value="0.0464462424" flag="0"/>
      <psa03 value="0.2972897747" flag="0"/>
      <psa10 value="0.0647775784" flag="0"/>
      <psa30 value="0.0051354033" flag="0"/>
    </comp>
  </station>
  <station code="ANDN" name="ANDN" netid="TU" insttype="T" lat="37.58" lon="36.3452">
    <comp name="--.HHE">
      <acc value="0.4397001912" flag="0"/>
      <vel value="0.1814216482" flag="0"/>
      <psa03 value="1.0585958024" flag="0"/>
      <psa10 value="0.1114418657" flag="0"/>
      <psa30 value="0.0176228120" flag="0"/>
    </comp>
    <comp name="--.HHN">
      <acc value="0.6315503409" flag="0"/>
      <vel value="0.2613400302" flag="0"/>
      <psa03 value="0.9283755988" flag="0"/>
      <psa10 value="0.1677808244" flag="0"/>
      <psa30 value="0.0216741715" flag="0"/>
    </comp>
    <comp name="--.HHZ">
      <acc value="0.1900870812" flag="0"/>
      <vel value="0.1333729711" flag="0"/>
      <psa03 value="0.4275532681" flag="0"/>
      <psa10 value="0.1390683417" flag="0"/>
      <psa30 value="0.0122454900" flag="0"/>
    </comp>
  </station>
</stationlist>
