<stationlist created="1778136001">
	<station code="AUG1" name="AUG1" netid="IT" source="Italian Strong Motion Network (RAN)" insttype="" lat="37.2432" lon="15.2555">
		<comp name="--.HNE" depth="0.0">
			<acc value="0.048167766" flag="0"/>
			<vel value="0.018633" flag="0"/>
			<psa03 value="0.0747642272591321" flag="0"/>
			<psa10 value="0.012696495972067" flag="0"/>
			<psa30 value="0.000867998808394472" flag="0"/>
		</comp>
		<comp name="--.HNN" depth="0.0">
			<acc value="0.040139142" flag="0"/>
			<vel value="0.017085" flag="0"/>
			<psa03 value="0.0832205043099855" flag="0"/>
			<psa10 value="0.0100992108778763" flag="0"/>
			<psa30 value="0.000697531001178857" flag="0"/>
		</comp>
		<comp name="--.HNZ" depth="0.0">
			<acc value="0.032379288" flag="0"/>
			<vel value="0.008138" flag="0"/>
			<psa03 value="0.0429077761469226" flag="0"/>
			<psa10 value="0.00360801154169743" flag="0"/>
			<psa30 value="0.000289929498886401" flag="0"/>
		</comp>
	</station>
	<station code="BNT" name="BNT" netid="IT" source="Italian Strong Motion Network (RAN)" insttype="" lat="37.7805" lon="14.8444">
		<comp name="--.HNE" depth="0.0">
			<acc value="0.369700836" flag="0"/>
			<vel value="0.137323" flag="0"/>
			<psa03 value="0.821645882337943" flag="0"/>
			<psa10 value="0.101612235762492" flag="0"/>
			<psa30 value="0.00641871696145726" flag="0"/>
		</comp>
		<comp name="--.HNN" depth="0.0">
			<acc value="0.36309705" flag="0"/>
			<vel value="0.164722" flag="0"/>
			<psa03 value="0.809207548898063" flag="0"/>
			<psa10 value="0.0990874330430232" flag="0"/>
			<psa30 value="0.00699678627096533" flag="0"/>
		</comp>
		<comp name="--.HNZ" depth="0.0">
			<acc value="0.319386174" flag="0"/>
			<vel value="0.097937" flag="0"/>
			<psa03 value="0.538427714444282" flag="0"/>
			<psa10 value="0.055654383390402" flag="0"/>
			<psa30 value="0.00373597425262569" flag="0"/>
		</comp>
	</station>
	<station code="CAT" name="CAT" netid="IT" source="Italian Strong Motion Network (RAN)" insttype="" lat="37.4473" lon="15.0463">
		<comp name="--.HGE" depth="0.0">
			<acc value="0.156207492" flag="0"/>
			<vel value="0.061393" flag="0"/>
			<psa03 value="0.144830522823346" flag="0"/>
			<psa10 value="0.065145547680336" flag="0"/>
			<psa30 value="0.00369078462394124" flag="0"/>
		</comp>
		<comp name="--.HGN" depth="0.0">
			<acc value="0.161036682" flag="0"/>
			<vel value="0.0468" flag="0"/>
			<psa03 value="0.152436697948452" flag="0"/>
			<psa10 value="0.0585295175876922" flag="0"/>
			<psa30 value="0.00357669199706464" flag="0"/>
		</comp>
		<comp name="--.HGZ" depth="0.0">
			<acc value="0.09300513" flag="0"/>
			<vel value="0.018789" flag="0"/>
			<psa03 value="0.0703347488039232" flag="0"/>
			<psa10 value="0.0154790138016573" flag="0"/>
			<psa30 value="0.00205858892650668" flag="0"/>
		</comp>
	</station>
	<station code="CDI1" name="CDI1" netid="IT" source="Italian Strong Motion Network (RAN)" insttype="" lat="37.5032" lon="14.6473">
		<comp name="--.HNE" depth="0.0">
			<acc value="0.043352346" flag="0"/>
			<vel value="0.016844" flag="0"/>
			<psa03 value="0.1040703725941" flag="0"/>
			<psa10 value="0.0111461785127439" flag="0"/>
			<psa30 value="0.00336506135976022" flag="0"/>
		</comp>
		<comp name="--.HNN" depth="0.0">
			<acc value="0.066490944" flag="0"/>
			<vel value="0.022525" flag="0"/>
			<psa03 value="0.125994053837053" flag="0"/>
			<psa10 value="0.0220789366999186" flag="0"/>
			<psa30 value="0.00573729315466099" flag="0"/>
		</comp>
		<comp name="--.HNZ" depth="0.0">
			<acc value="0.018872754" flag="0"/>
			<vel value="0.009981" flag="0"/>
			<psa03 value="0.0517219908507221" flag="0"/>
			<psa10 value="0.0154508262114878" flag="0"/>
			<psa30 value="0.00323530896056723" flag="0"/>
		</comp>
	</station>
	<station code="CLG1" name="CLG1" netid="IT" source="Italian Strong Motion Network (RAN)" insttype="" lat="37.2214" lon="14.5182">
		<comp name="--.HNE" depth="0.0">
			<acc value="0.092003184" flag="0"/>
			<vel value="0.039602" flag="0"/>
			<psa03 value="0.261831393130126" flag="0"/>
			<psa10 value="0.0314533238305789" flag="0"/>
			<psa30 value="0.00178073982340722" flag="0"/>
		</comp>
		<comp name="--.HNN" depth="0.0">
			<acc value="0.075195318" flag="0"/>
			<vel value="0.028437" flag="0"/>
			<psa03 value="0.120088082563441" flag="0"/>
			<psa10 value="0.0389794104058383" flag="0"/>
			<psa30 value="0.00167470079372191" flag="0"/>
		</comp>
		<comp name="--.HNZ" depth="0.0">
			<acc value="0.065455644" flag="0"/>
			<vel value="0.022241" flag="0"/>
			<psa03 value="0.124472818812032" flag="0"/>
			<psa10 value="0.0174803327036926" flag="0"/>
			<psa30 value="0.00112392423025099" flag="0"/>
		</comp>
	</station>
	<station code="CTU" name="CTU" netid="IT" source="Italian Strong Motion Network (RAN)" insttype="" lat="37.8232" lon="13.8904">
		<comp name="--.HNE" depth="0.0">
			<acc value="0.004497894" flag="0"/>
			<vel value="0.002747" flag="0"/>
			<psa03 value="0.0172257495480346" flag="0"/>
			<psa10 value="0.00380935147147966" flag="0"/>
			<psa30 value="0.000250556357062322" flag="0"/>
		</comp>
		<comp name="--.HNN" depth="0.0">
			<acc value="0.005384172" flag="0"/>
			<vel value="0.002632" flag="0"/>
			<psa03 value="0.0147649281840297" flag="0"/>
			<psa10 value="0.00602006390048846" flag="0"/>
			<psa30 value="0.000504692090654105" flag="0"/>
		</comp>
		<comp name="--.HNZ" depth="0.0">
			<acc value="0.003470958" flag="0"/>
			<vel value="0.002244" flag="0"/>
			<psa03 value="0.00993276986925633" flag="0"/>
			<psa10 value="0.00255701710823423" flag="0"/>
			<psa30 value="0.000267110973511082" flag="0"/>
		</comp>
	</station>
	<station code="GEA" name="GEA" netid="IT" source="Italian Strong Motion Network (RAN)" insttype="" lat="37.0562" lon="14.3146">
		<comp name="--.HNE" depth="0.0">
			<acc value="0.038179416" flag="0"/>
			<vel value="0.012304" flag="0"/>
			<psa03 value="0.0680976384730096" flag="0"/>
			<psa10 value="0.0167877233452417" flag="0"/>
			<psa30 value="0.00147604539633678" flag="0"/>
		</comp>
		<comp name="--.HNN" depth="0.0">
			<acc value="0.032316966" flag="0"/>
			<vel value="0.023072" flag="0"/>
			<psa03 value="0.0739141253333849" flag="0"/>
			<psa10 value="0.0186642114908121" flag="0"/>
			<psa30 value="0.00172570690926674" flag="0"/>
		</comp>
		<comp name="--.HNZ" depth="0.0">
			<acc value="0.03106002" flag="0"/>
			<vel value="0.008812" flag="0"/>
			<psa03 value="0.0417892209814658" flag="0"/>
			<psa10 value="0.00662408368983513" flag="0"/>
			<psa30 value="0.000873367873188664" flag="0"/>
		</comp>
	</station>
	<station code="ISI" name="ISI" netid="IT" source="Italian Strong Motion Network (RAN)" insttype="" lat="36.7977" lon="14.8923">
		<comp name="--.HGE" depth="0.0">
			<acc value="0.05275899" flag="0"/>
			<vel value="0.023318" flag="0"/>
			<psa03 value="0.104920474519847" flag="0"/>
			<psa10 value="0.0157327021131829" flag="0"/>
			<psa30 value="0.0011234768081848" flag="0"/>
		</comp>
		<comp name="--.HGN" depth="0.0">
			<acc value="0.052896894" flag="0"/>
			<vel value="0.013688" flag="0"/>
			<psa03 value="0.069976811150977" flag="0"/>
			<psa10 value="0.0102361220301282" flag="0"/>
			<psa30 value="0.000761512356642985" flag="0"/>
		</comp>
		<comp name="--.HGZ" depth="0.0">
			<acc value="0.04825569" flag="0"/>
			<vel value="0.009283" flag="0"/>
			<psa03 value="0.0272480038305275" flag="0"/>
			<psa10 value="0.00456638960746081" flag="0"/>
			<psa30 value="0.000331539751041394" flag="0"/>
		</comp>
	</station>
	<station code="LIC" name="LIC" netid="IT" source="Italian Strong Motion Network (RAN)" insttype="" lat="37.1053" lon="13.9074">
		<comp name="--.HNE" depth="0.0">
			<acc value="0.018465366" flag="0"/>
			<vel value="0.006477" flag="0"/>
			<psa03 value="0.0407154080226273" flag="0"/>
			<psa10 value="0.00727642506232954" flag="0"/>
			<psa30 value="0.000604467211412851" flag="0"/>
		</comp>
		<comp name="--.HNN" depth="0.0">
			<acc value="0.018460266" flag="0"/>
			<vel value="0.009429" flag="0"/>
			<psa03 value="0.0517667330573404" flag="0"/>
			<psa10 value="0.00865359018203994" flag="0"/>
			<psa30 value="0.000818782381114373" flag="0"/>
		</comp>
		<comp name="--.HNZ" depth="0.0">
			<acc value="0.019824822" flag="0"/>
			<vel value="0.007063" flag="0"/>
			<psa03 value="0.0383888132784772" flag="0"/>
			<psa10 value="0.00398250381109237" flag="0"/>
			<psa30 value="0.00029798309607769" flag="0"/>
		</comp>
	</station>
	<station code="LNT" name="LNT" netid="IT" source="Italian Strong Motion Network (RAN)" insttype="" lat="37.28841" lon="15.002259">
		<comp name="--.HGE" depth="0.0">
			<acc value="0.074214792" flag="0"/>
			<vel value="0.02972" flag="0"/>
			<psa03 value="0.150378556444011" flag="0"/>
			<psa10 value="0.0265084151551275" flag="0"/>
			<psa30 value="0.00199908179170438" flag="0"/>
		</comp>
		<comp name="--.HGN" depth="0.0">
			<acc value="0.05953893" flag="0"/>
			<vel value="0.028621" flag="0"/>
			<psa03 value="0.107605006916944" flag="0"/>
			<psa10 value="0.0159783368275172" flag="0"/>
			<psa30 value="0.00102459653155842" flag="0"/>
		</comp>
		<comp name="--.HGZ" depth="0.0">
			<acc value="0.046509756" flag="0"/>
			<vel value="0.018008" flag="0"/>
			<psa03 value="0.0427288073204495" flag="0"/>
			<psa10 value="0.0113797328312912" flag="0"/>
			<psa30 value="0.000666658878612249" flag="0"/>
		</comp>
	</station>
	<station code="NAS" name="NAS" netid="IT" source="Italian Strong Motion Network (RAN)" insttype="" lat="38.1183" lon="14.7863">
		<comp name="--.HGE" depth="0.0">
			<acc value="0.03343764" flag="0"/>
			<vel value="0.017625" flag="0"/>
			<psa03 value="0.106799647197815" flag="0"/>
			<psa10 value="0.0190910521419504" flag="0"/>
			<psa30 value="0.00175120996703916" flag="0"/>
		</comp>
		<comp name="--.HGN" depth="0.0">
			<acc value="0.02865231" flag="0"/>
			<vel value="0.014777" flag="0"/>
			<psa03 value="0.077046079796664" flag="0"/>
			<psa10 value="0.0160628995980257" flag="0"/>
			<psa30 value="0.00140758982021083" flag="0"/>
		</comp>
		<comp name="--.HGZ" depth="0.0">
			<acc value="0.022936332" flag="0"/>
			<vel value="0.008506" flag="0"/>
			<psa03 value="0.0509166311315933" flag="0"/>
			<psa10 value="0.0132078993937138" flag="0"/>
			<psa30 value="0.000841153484423509" flag="0"/>
		</comp>
	</station>
	<station code="NTE" name="NTE" netid="IT" source="Italian Strong Motion Network (RAN)" insttype="" lat="36.9095" lon="15.0692">
		<comp name="--.HGE" depth="0.0">
			<acc value="0.057918558" flag="0"/>
			<vel value="0.017922" flag="0"/>
			<psa03 value="0.0910951326748013" flag="0"/>
			<psa10 value="0.0137394368083389" flag="0"/>
			<psa30 value="0.00145009491649819" flag="0"/>
		</comp>
		<comp name="--.HGN" depth="0.0">
			<acc value="0.043173948" flag="0"/>
			<vel value="0.016788" flag="0"/>
			<psa03 value="0.0751669071186966" flag="0"/>
			<psa10 value="0.0125636116184107" flag="0"/>
			<psa30 value="0.000870683340791568" flag="0"/>
		</comp>
		<comp name="--.HGZ" depth="0.0">
			<acc value="0.02718861" flag="0"/>
			<vel value="0.009425" flag="0"/>
			<psa03 value="0.0379413912122945" flag="0"/>
			<psa10 value="0.0175769758699881" flag="0"/>
			<psa30 value="0.000587017750831725" flag="0"/>
		</comp>
	</station>
	<station code="PLZ" name="PLZ" netid="IT" source="Italian Strong Motion Network (RAN)" insttype="" lat="37.0682" lon="14.9097">
		<comp name="--.HNE" depth="0.0">
			<acc value="0.072350844" flag="0"/>
			<vel value="0.019506" flag="0"/>
			<psa03 value="0.105054701139702" flag="0"/>
			<psa10 value="0.0168400717269851" flag="0"/>
			<psa30 value="0.00128007453134875" flag="0"/>
		</comp>
		<comp name="--.HNN" depth="0.0">
			<acc value="0.058036674" flag="0"/>
			<vel value="0.018167" flag="0"/>
			<psa03 value="0.127515288862075" flag="0"/>
			<psa10 value="0.0113193308523566" flag="0"/>
			<psa30 value="0.000538696167683992" flag="0"/>
		</comp>
		<comp name="--.HNZ" depth="0.0">
			<acc value="0.040415664" flag="0"/>
			<vel value="0.013077" flag="0"/>
			<psa03 value="0.0805359719128892" flag="0"/>
			<psa10 value="0.0070831387297386" flag="0"/>
			<psa30 value="0.000496638493462816" flag="0"/>
		</comp>
	</station>
	<station code="PPL1" name="PPL1" netid="IT" source="Italian Strong Motion Network (RAN)" insttype="" lat="36.6857" lon="15.1328">
		<comp name="--.HNE" depth="0.0">
			<acc value="0.018892032" flag="0"/>
			<vel value="0.012192" flag="0"/>
			<psa03 value="0.0425498384939764" flag="0"/>
			<psa10 value="0.0103528991894019" flag="0"/>
			<psa30 value="0.000817887536982007" flag="0"/>
		</comp>
		<comp name="--.HNN" depth="0.0">
			<acc value="0.015291024" flag="0"/>
			<vel value="0.00546" flag="0"/>
			<psa03 value="0.0340040770298865" flag="0"/>
			<psa10 value="0.00472746155128659" flag="0"/>
			<psa30 value="0.000417892209814658" flag="0"/>
		</comp>
		<comp name="--.HNZ" depth="0.0">
			<acc value="0.016304904" flag="0"/>
			<vel value="0.005364" flag="0"/>
			<psa03 value="0.0291271765084949" flag="0"/>
			<psa10 value="0.00314090290460268" flag="0"/>
			<psa30 value="0.000282770745827477" flag="0"/>
		</comp>
	</station>
	<station code="PTR" name="PTR" netid="IT" source="Italian Strong Motion Network (RAN)" insttype="" lat="37.562" lon="14.9077">
		<comp name="--.HGE" depth="0.0">
			<acc value="0.122374194" flag="0"/>
			<vel value="0.103647" flag="0"/>
			<psa03 value="0.388496580066454" flag="0"/>
			<psa10 value="0.0911667202053905" flag="0"/>
			<psa30 value="0.0107824243729373" flag="0"/>
		</comp>
		<comp name="--.HGN" depth="0.0">
			<acc value="0.119273802" flag="0"/>
			<vel value="0.109532" flag="0"/>
			<psa03 value="0.223218868818558" flag="0"/>
			<psa10 value="0.0808339550089669" flag="0"/>
			<psa30 value="0.00838692663059504" flag="0"/>
		</comp>
		<comp name="--.HGZ" depth="0.0">
			<acc value="0.091613952" flag="0"/>
			<vel value="0.044388" flag="0"/>
			<psa03 value="0.336998300248823" flag="0"/>
			<psa10 value="0.0518852999048788" flag="0"/>
			<psa30 value="0.0050379724652174" flag="0"/>
		</comp>
	</station>
	<station code="PTT" name="PTT" netid="IT" source="Italian Strong Motion Network (RAN)" insttype="" lat="38.1343" lon="14.9751">
		<comp name="--.HGE" depth="0.0">
			<acc value="0.033634296" flag="0"/>
			<vel value="0.027113" flag="0"/>
			<psa03 value="0.0621021827861612" flag="0"/>
			<psa10 value="0.0439283458798854" flag="0"/>
			<psa30 value="0.00368899493567651" flag="0"/>
		</comp>
		<comp name="--.HGN" depth="0.0">
			<acc value="0.033791172" flag="0"/>
			<vel value="0.033874" flag="0"/>
			<psa03 value="0.0764196889040082" flag="0"/>
			<psa10 value="0.043094798570587" flag="0"/>
			<psa30 value="0.00314448228113214" flag="0"/>
		</comp>
		<comp name="--.HGZ" depth="0.0">
			<acc value="0.023045778" flag="0"/>
			<vel value="0.015961" flag="0"/>
			<psa03 value="0.0637576444310373" flag="0"/>
			<psa10 value="0.0272251853051522" flag="0"/>
			<psa30 value="0.00120714473456097" flag="0"/>
		</comp>
	</station>
	<station code="RGS" name="RGS" netid="IT" source="Italian Strong Motion Network (RAN)" insttype="" lat="36.9248" lon="14.7032">
		<comp name="--.HNE" depth="0.0">
			<acc value="0.057558498" flag="0"/>
			<vel value="0.024259" flag="0"/>
			<psa03 value="0.0925716254932043" flag="0"/>
			<psa10 value="0.0284412784810368" flag="0"/>
			<psa30 value="0.00166754204066299" flag="0"/>
		</comp>
		<comp name="--.HNN" depth="0.0">
			<acc value="0.051790194" flag="0"/>
			<vel value="0.020355" flag="0"/>
			<psa03 value="0.0850996769879529" flag="0"/>
			<psa10 value="0.017645431446114" flag="0"/>
			<psa30 value="0.000922584300468763" flag="0"/>
		</comp>
		<comp name="--.HNZ" depth="0.0">
			<acc value="0.019428348" flag="0"/>
			<vel value="0.009211" flag="0"/>
			<psa03 value="0.0423708696675034" flag="0"/>
			<psa10 value="0.00871399216097461" flag="0"/>
			<psa30 value="0.000481873565278787" flag="0"/>
		</comp>
	</station>
	<station code="SCR" name="SCR" netid="IT" source="Italian Strong Motion Network (RAN)" insttype="" lat="36.8296" lon="14.5275">
		<comp name="--.HNE" depth="0.0">
			<acc value="0.039426264" flag="0"/>
			<vel value="0.015676" flag="0"/>
			<psa03 value="0.0749431960856052" flag="0"/>
			<psa10 value="0.0143354030004943" flag="0"/>
			<psa30 value="0.000757038135981158" flag="0"/>
		</comp>
		<comp name="--.HNN" depth="0.0">
			<acc value="0.051462774" flag="0"/>
			<vel value="0.020145" flag="0"/>
			<psa03 value="0.138387645070315" flag="0"/>
			<psa10 value="0.0089394928823307" flag="0"/>
			<psa30 value="0.000879631782115222" flag="0"/>
		</comp>
		<comp name="--.HNZ" depth="0.0">
			<acc value="0.020289738" flag="0"/>
			<vel value="0.005419" flag="0"/>
			<psa03 value="0.0272032616239092" flag="0"/>
			<psa10 value="0.00491672108528188" flag="0"/>
			<psa30 value="0.0003029047388057" flag="0"/>
		</comp>
	</station>
	<station code="SRC" name="SRC" netid="IT" source="Italian Strong Motion Network (RAN)" insttype="" lat="37.0896" lon="15.2924">
		<comp name="--.HNE" depth="0.0">
			<acc value="0.041923326" flag="0"/>
			<vel value="0.015016" flag="0"/>
			<psa03 value="0.0445184955851804" flag="0"/>
			<psa10 value="0.00818648154494518" flag="0"/>
			<psa30 value="0.000676054742002086" flag="0"/>
		</comp>
		<comp name="--.HNN" depth="0.0">
			<acc value="0.042912012" flag="0"/>
			<vel value="0.012758" flag="0"/>
			<psa03 value="0.0438473624859063" flag="0"/>
			<psa10 value="0.00676904843927833" flag="0"/>
			<psa30 value="0.000604019789346669" flag="0"/>
		</comp>
		<comp name="--.HNZ" depth="0.0">
			<acc value="0.03603507" flag="0"/>
			<vel value="0.009588" flag="0"/>
			<psa03 value="0.0290376920952584" flag="0"/>
			<psa10 value="0.00493282827966446" flag="0"/>
			<psa30 value="0.000342277880629779" flag="0"/>
		</comp>
	</station>
	<station code="SRT" name="SRT" netid="IT" source="Italian Strong Motion Network (RAN)" insttype="" lat="37.1665" lon="15.0542">
		<comp name="--.HGE" depth="0.0">
			<acc value="0.279074448" flag="0"/>
			<vel value="0.120212" flag="0"/>
			<psa03 value="0.645585299295043" flag="0"/>
			<psa10 value="0.0470773023816794" flag="0"/>
			<psa30 value="0.00288855685927562" flag="0"/>
		</comp>
		<comp name="--.HGN" depth="0.0">
			<acc value="0.300549324" flag="0"/>
			<vel value="0.081954" flag="0"/>
			<psa03 value="0.415386646244035" flag="0"/>
			<psa10 value="0.0334707499269967" flag="0"/>
			<psa30 value="0.00181116452390764" flag="0"/>
		</comp>
		<comp name="--.HGZ" depth="0.0">
			<acc value="0.100084848" flag="0"/>
			<vel value="0.025658" flag="0"/>
			<psa03 value="0.17087048707518" flag="0"/>
			<psa10 value="0.0115810727610735" flag="0"/>
			<psa30 value="0.000911398748814196" flag="0"/>
		</comp>
	</station>
	<station code="STC" name="STC" netid="IT" source="Italian Strong Motion Network (RAN)" insttype="" lat="38.0063" lon="14.353">
		<comp name="--.HNE" depth="0.0">
			<acc value="0.015627318" flag="0"/>
			<vel value="0.007676" flag="0"/>
			<psa03 value="0.0502454980323192" flag="0"/>
			<psa10 value="0.0100065945101765" flag="0"/>
			<psa30 value="0.000765091733172447" flag="0"/>
		</comp>
		<comp name="--.HNN" depth="0.0">
			<acc value="0.013685442" flag="0"/>
			<vel value="0.010327" flag="0"/>
			<psa03 value="0.0582096108103716" flag="0"/>
			<psa10 value="0.0081703743505626" flag="0"/>
			<psa30 value="0.000916767813608388" flag="0"/>
		</comp>
		<comp name="--.HNZ" depth="0.0">
			<acc value="0.008077074" flag="0"/>
			<vel value="0.00436" flag="0"/>
			<psa03 value="0.0135568886053363" flag="0"/>
			<psa10 value="0.00479994392600819" flag="0"/>
			<psa30 value="0.000519009596771952" flag="0"/>
		</comp>
	</station>
	<station code="TOR" name="TOR" netid="IT" source="Italian Strong Motion Network (RAN)" insttype="" lat="38.0443" lon="14.8146">
		<comp name="--.HNE" depth="0.0">
			<acc value="0.030841332" flag="0"/>
			<vel value="0.017138" flag="0"/>
			<psa03 value="0.0606704321743765" flag="0"/>
