<?xml version="1.0" encoding="UTF-8" standalone="yes"?>
<!DOCTYPE earthquake SYSTEM "stationlist.dtd">
<stationlist created="" xmlns="ch.ethz.sed.shakemap.usgs.xml">
  <station code="ACATE" name="ACATE" netid="IV" insttype="" lat="37.024" lon="14.5006">
    <comp name="--.HNE">
      <acc value="0.0579278291" flag="0"/>
      <vel value="0.0167672260" flag="0"/>
      <psa03 value="0.0702127893" flag="0"/>
      <psa10 value="0.0123453890" flag="0"/>
      <psa30 value="0.0010713293" flag="0"/>
    </comp>
    <comp name="--.HNN">
      <acc value="0.0357439295" flag="0"/>
      <vel value="0.0133429143" flag="0"/>
      <psa03 value="0.0736880287" flag="0"/>
      <psa10 value="0.0122171096" flag="0"/>
      <psa30 value="0.0011281039" flag="0"/>
    </comp>
    <comp name="--.HNZ">
      <acc value="0.0369189223" flag="0"/>
      <vel value="0.0111942921" flag="0"/>
      <psa03 value="0.0413417222" flag="0"/>
      <psa10 value="0.0090436674" flag="0"/>
      <psa30 value="0.0007206339" flag="0"/>
    </comp>
  </station>
  <station code="AIO" name="AIO" netid="IV" insttype="" lat="37.9712" lon="15.233">
    <comp name="--.HHE">
      <acc value="0.0162345237" flag="0"/>
      <vel value="0.0086584026" flag="0"/>
      <psa03 value="0.0486309529" flag="0"/>
      <psa10 value="0.0102239297" flag="0"/>
      <psa30 value="0.0011938491" flag="0"/>
    </comp>
    <comp name="--.HHN">
      <acc value="0.0164717925" flag="0"/>
      <vel value="0.0080512788" flag="0"/>
      <psa03 value="0.0423521211" flag="0"/>
      <psa10 value="0.0074078405" flag="0"/>
      <psa30 value="0.0007639183" flag="0"/>
    </comp>
    <comp name="--.HHZ">
      <acc value="0.0097445056" flag="0"/>
      <vel value="0.0050124303" flag="0"/>
      <psa03 value="0.0187395674" flag="0"/>
      <psa10 value="0.0071201650" flag="0"/>
      <psa30 value="0.0005071152" flag="0"/>
    </comp>
  </station>
  <station code="ALJA" name="ALJA" netid="IV" insttype="" lat="37.749" lon="13.7537">
    <comp name="--.HHE">
      <acc value="0.0032711640" flag="0"/>
      <vel value="0.0025050726" flag="0"/>
      <psa03 value="0.0108357021" flag="0"/>
      <psa10 value="0.0045916904" flag="0"/>
      <psa30 value="0.0003984294" flag="0"/>
    </comp>
    <comp name="--.HHN">
      <acc value="0.0018224854" flag="0"/>
      <vel value="0.0015306351" flag="0"/>
      <psa03 value="0.0062140905" flag="0"/>
      <psa10 value="0.0027801248" flag="0"/>
      <psa30 value="0.0002771847" flag="0"/>
    </comp>
    <comp name="--.HHZ">
      <acc value="0.0022181117" flag="0"/>
      <vel value="0.0016783771" flag="0"/>
      <psa03 value="0.0066261138" flag="0"/>
      <psa10 value="0.0023343334" flag="0"/>
      <psa30 value="0.0002483070" flag="0"/>
    </comp>
  </station>
  <station code="CAGR" name="CAGR" netid="IV" insttype="" lat="37.622" lon="14.4999">
    <comp name="--.HHE">
      <acc value="0.0418472316" flag="0"/>
      <vel value="0.0347658641" flag="0"/>
      <psa03 value="0.1031055408" flag="0"/>
      <psa10 value="0.0354715947" flag="0"/>
      <psa30 value="0.0028174749" flag="0"/>
    </comp>
    <comp name="--.HHN">
      <acc value="0.0431379952" flag="0"/>
      <vel value="0.0298018553" flag="0"/>
      <psa03 value="0.1534224317" flag="0"/>
      <psa10 value="0.0403673200" flag="0"/>
      <psa30 value="0.0034811748" flag="0"/>
    </comp>
    <comp name="--.HHZ">
      <acc value="0.0248630936" flag="0"/>
      <vel value="0.0166085830" flag="0"/>
      <psa03 value="0.0658845127" flag="0"/>
      <psa10 value="0.0429464453" flag="0"/>
      <psa30 value="0.0020879939" flag="0"/>
    </comp>
  </station>
  <station code="CSLB" name="CSLB" netid="IV" insttype="" lat="37.9374" lon="14.0579">
    <comp name="--.HHE">
      <acc value="0.0030499239" flag="0"/>
      <vel value="0.0016697916" flag="0"/>
      <psa03 value="0.0085354233" flag="0"/>
      <psa10 value="0.0020798998" flag="0"/>
      <psa30 value="0.0001649386" flag="0"/>
    </comp>
    <comp name="--.HHN">
      <acc value="0.0030606690" flag="0"/>
      <vel value="0.0020902778" flag="0"/>
      <psa03 value="0.0110159590" flag="0"/>
      <psa10 value="0.0029178071" flag="0"/>
      <psa30 value="0.0002984643" flag="0"/>
    </comp>
    <comp name="--.HHZ">
      <acc value="0.0023969234" flag="0"/>
      <vel value="0.0014626883" flag="0"/>
      <psa03 value="0.0073677398" flag="0"/>
      <psa10 value="0.0021071136" flag="0"/>
      <psa30 value="0.0001858098" flag="0"/>
    </comp>
  </station>
  <station code="ECBD" name="ECBD" netid="IV" insttype="" lat="37.7802" lon="15.0865">
    <comp name="--.HHE">
      <acc value="0.1383690297" flag="0"/>
      <vel value="0.0478168035" flag="0"/>
      <psa03 value="0.1954623984" flag="0"/>
      <psa10 value="0.0374227800" flag="0"/>
      <psa30 value="0.0020683812" flag="0"/>
    </comp>
    <comp name="--.HHN">
      <acc value="0.1257053157" flag="0"/>
      <vel value="0.0527792811" flag="0"/>
      <psa03 value="0.2249465705" flag="0"/>
      <psa10 value="0.0589503701" flag="0"/>
      <psa30 value="0.0021848594" flag="0"/>
    </comp>
    <comp name="--.HHZ">
      <acc value="0.1043168109" flag="0"/>
      <vel value="0.0252297293" flag="0"/>
      <psa03 value="0.1645570516" flag="0"/>
      <psa10 value="0.0225474339" flag="0"/>
      <psa30 value="0.0016982291" flag="0"/>
    </comp>
  </station>
  <station code="ECHR" name="ECHR" netid="IV" insttype="" lat="37.6863" lon="14.9129">
    <comp name="--.HHE">
      <acc value="0.4495413460" flag="0"/>
      <vel value="0.2363159997" flag="0"/>
      <psa03 value="1.0401291414" flag="0"/>
      <psa10 value="0.2036643562" flag="0"/>
      <psa30 value="0.0095320112" flag="0"/>
    </comp>
    <comp name="--.HHN">
      <acc value="0.4045263590" flag="0"/>
      <vel value="0.2374468051" flag="0"/>
      <psa03 value="1.2378295696" flag="0"/>
      <psa10 value="0.1744426470" flag="0"/>
      <psa30 value="0.0187133821" flag="0"/>
    </comp>
    <comp name="--.HHZ">
      <acc value="0.4658044089" flag="0"/>
      <vel value="0.1826304990" flag="0"/>
      <psa03 value="1.0106597712" flag="0"/>
      <psa10 value="0.0636466986" flag="0"/>
      <psa30 value="0.0052242628" flag="0"/>
    </comp>
  </station>
  <station code="ECNE" name="ECNE" netid="IV" insttype="" lat="37.7653" lon="15.0018">
    <comp name="--.HHE">
      <acc value="0.1878916946" flag="0"/>
      <vel value="0.0945972648" flag="0"/>
      <psa03 value="0.6239203071" flag="0"/>
      <psa10 value="0.1086632019" flag="0"/>
      <psa30 value="0.0072176425" flag="0"/>
    </comp>
    <comp name="--.HHN">
      <acc value="0.2011512350" flag="0"/>
      <vel value="0.0866110183" flag="0"/>
      <psa03 value="0.5588026623" flag="0"/>
      <psa10 value="0.0645650015" flag="0"/>
      <psa30 value="0.0044459005" flag="0"/>
    </comp>
    <comp name="--.HHZ">
      <acc value="0.1189552092" flag="0"/>
      <vel value="0.0593892209" flag="0"/>
      <psa03 value="0.3889508454" flag="0"/>
      <psa10 value="0.0442691833" flag="0"/>
      <psa30 value="0.0023790716" flag="0"/>
    </comp>
  </station>
  <station code="ECPN" name="ECPN" netid="IV" insttype="" lat="37.7437" lon="14.9865">
    <comp name="--.HHE">
      <acc value="0.3194707444" flag="0"/>
      <vel value="0.1522862987" flag="0"/>
      <psa03 value="0.8048264241" flag="0"/>
      <psa10 value="0.1885694667" flag="0"/>
      <psa30 value="0.0073843679" flag="0"/>
    </comp>
    <comp name="--.HHZ">
      <acc value="0.3407035918" flag="0"/>
      <vel value="0.1025042312" flag="0"/>
      <psa03 value="0.8380625882" flag="0"/>
      <psa10 value="0.0429107017" flag="0"/>
      <psa30 value="0.0028208588" flag="0"/>
    </comp>
    <comp name="--.HHN">
      <acc value="0.4508176179" flag="0"/>
      <vel value="0.1542617045" flag="0"/>
      <psa03 value="0.9935168641" flag="0"/>
      <psa10 value="0.1436382627" flag="0"/>
      <psa30 value="0.0069081181" flag="0"/>
    </comp>
  </station>
  <station code="ECTS" name="ECTS" netid="IV" insttype="" lat="37.882" lon="15.121">
    <comp name="--.HHN">
      <acc value="0.0308586003" flag="0"/>
      <vel value="0.0149600660" flag="0"/>
      <psa03 value="0.0651778401" flag="0"/>
      <psa10 value="0.0229846884" flag="0"/>
      <psa30 value="0.0012068902" flag="0"/>
    </comp>
    <comp name="--.HHE">
      <acc value="0.0270245775" flag="0"/>
      <vel value="0.0118946866" flag="0"/>
      <psa03 value="0.0626611308" flag="0"/>
      <psa10 value="0.0173738673" flag="0"/>
      <psa30 value="0.0008535833" flag="0"/>
    </comp>
    <comp name="--.HHZ">
      <acc value="0.0633530583" flag="0"/>
      <vel value="0.0286817800" flag="0"/>
    </comp>
  </station>
  <station code="EFIU" name="EFIU" netid="IV" insttype="" lat="37.7896" lon="15.2103">
    <comp name="--.HHE">
      <acc value="0.0213496658" flag="0"/>
      <vel value="0.0170740436" flag="0"/>
      <psa03 value="0.0309901791" flag="0"/>
      <psa10 value="0.0234646165" flag="0"/>
      <psa30 value="0.0030792252" flag="0"/>
    </comp>
    <comp name="--.HHZ">
      <acc value="0.0158348967" flag="0"/>
      <vel value="0.0145462163" flag="0"/>
      <psa03 value="0.0286267815" flag="0"/>
      <psa10 value="0.0303493740" flag="0"/>
      <psa30 value="0.0020622975" flag="0"/>
    </comp>
    <comp name="--.HHN">
      <acc value="0.0277728773" flag="0"/>
      <vel value="0.0344784944" flag="0"/>
      <psa03 value="0.0350304654" flag="0"/>
      <psa10 value="0.0584427459" flag="0"/>
      <psa30 value="0.0057397526" flag="0"/>
    </comp>
  </station>
  <station code="EMCN" name="EMCN" netid="IV" insttype="" lat="37.7912" lon="15.0336">
    <comp name="--.HHE">
      <acc value="0.1528778436" flag="0"/>
      <vel value="0.0547825244" flag="0"/>
      <psa03 value="0.2381572857" flag="0"/>
      <psa10 value="0.0544360850" flag="0"/>
      <psa30 value="0.0023851058" flag="0"/>
    </comp>
    <comp name="--.HHN">
      <acc value="0.1970805190" flag="0"/>
      <vel value="0.0553802248" flag="0"/>
      <psa03 value="0.2406666176" flag="0"/>
      <psa10 value="0.0605339461" flag="0"/>
      <psa30 value="0.0036752990" flag="0"/>
    </comp>
    <comp name="--.HHZ">
      <acc value="0.1332239116" flag="0"/>
      <vel value="0.0434744353" flag="0"/>
      <psa03 value="0.2575962263" flag="0"/>
      <psa10 value="0.0379403473" flag="0"/>
      <psa30 value="0.0020163618" flag="0"/>
    </comp>
  </station>
  <station code="EMSG" name="EMSG" netid="IV" insttype="" lat="37.8208" lon="14.9498">
    <comp name="--.HHE">
      <acc value="0.1711090330" flag="0"/>
      <vel value="0.1103665661" flag="0"/>
      <psa03 value="0.6652990170" flag="0"/>
      <psa10 value="0.1374471899" flag="0"/>
      <psa30 value="0.0058551185" flag="0"/>
    </comp>
    <comp name="--.HHN">
      <acc value="0.2020066521" flag="0"/>
      <vel value="0.0979883627" flag="0"/>
      <psa03 value="0.6568087161" flag="0"/>
      <psa10 value="0.1406576307" flag="0"/>
      <psa30 value="0.0097598302" flag="0"/>
    </comp>
    <comp name="--.HHZ">
      <acc value="0.1418138439" flag="0"/>
      <vel value="0.0536393367" flag="0"/>
      <psa03 value="0.3686982024" flag="0"/>
      <psa10 value="0.0429904584" flag="0"/>
      <psa30 value="0.0027021480" flag="0"/>
    </comp>
  </station>
  <station code="ENIC" name="ENIC" netid="IV" insttype="" lat="37.6314" lon="15.0216">
    <comp name="--.HHE">
      <acc value="0.3949452539" flag="0"/>
      <vel value="0.1329578307" flag="0"/>
      <psa03 value="0.9210860985" flag="0"/>
      <psa10 value="0.1079596511" flag="0"/>
      <psa30 value="0.0058058872" flag="0"/>
    </comp>
    <comp name="--.HHN">
      <acc value="0.4818625492" flag="0"/>
      <vel value="0.1543836955" flag="0"/>
      <psa03 value="0.8454682602" flag="0"/>
      <psa10 value="0.0761335085" flag="0"/>
      <psa30 value="0.0039991115" flag="0"/>
    </comp>
    <comp name="--.HHZ">
      <acc value="0.4989901276" flag="0"/>
      <vel value="0.1183342741" flag="0"/>
      <psa03 value="0.6370899270" flag="0"/>
      <psa10 value="0.0663743670" flag="0"/>
      <psa30 value="0.0035292915" flag="0"/>
    </comp>
  </station>
  <station code="EPIT" name="EPIT" netid="IV" insttype="" lat="37.8113" lon="15.0567">
    <comp name="--.HHZ">
      <acc value="0.0962449469" flag="0"/>
      <vel value="0.0296835044" flag="0"/>
      <psa03 value="0.1520339300" flag="0"/>
      <psa10 value="0.0309329381" flag="0"/>
      <psa30 value="0.0015651574" flag="0"/>
    </comp>
    <comp name="--.HHE">
      <acc value="0.1100723877" flag="0"/>
      <vel value="0.0399226722" flag="0"/>
      <psa03 value="0.2592386130" flag="0"/>
      <psa10 value="0.0368744675" flag="0"/>
      <psa30 value="0.0021882816" flag="0"/>
    </comp>
    <comp name="--.HHN">
      <acc value="0.1107739085" flag="0"/>
      <vel value="0.0622593404" flag="0"/>
      <psa03 value="0.2890716686" flag="0"/>
      <psa10 value="0.1153586466" flag="0"/>
      <psa30 value="0.0041700628" flag="0"/>
    </comp>
  </station>
  <station code="EPOZ" name="EPOZ" netid="IV" insttype="" lat="37.6719" lon="15.1885">
    <comp name="--.HHE">
      <acc value="0.0845924416" flag="0"/>
      <vel value="0.0630163035" flag="0"/>
      <psa03 value="0.1509476071" flag="0"/>
      <psa10 value="0.0741179300" flag="0"/>
      <psa30 value="0.0035515636" flag="0"/>
    </comp>
    <comp name="--.HHN">
      <acc value="0.0911919018" flag="0"/>
      <vel value="0.0371598721" flag="0"/>
      <psa03 value="0.1237305313" flag="0"/>
      <psa10 value="0.0465063874" flag="0"/>
      <psa30 value="0.0050036976" flag="0"/>
    </comp>
    <comp name="--.HHZ">
      <acc value="0.0688074748" flag="0"/>
      <vel value="0.0141919206" flag="0"/>
      <psa03 value="0.0845747239" flag="0"/>
      <psa10 value="0.0157606392" flag="0"/>
      <psa30 value="0.0014600756" flag="0"/>
    </comp>
  </station>
  <station code="EPZF" name="EPZF" netid="IV" insttype="" lat="37.824" lon="14.857">
    <comp name="--.HHE">
      <acc value="0.2638515197" flag="0"/>
      <vel value="0.1314088099" flag="0"/>
      <psa03 value="0.8770838672" flag="0"/>
      <psa10 value="0.0934462831" flag="0"/>
      <psa30 value="0.0081120608" flag="0"/>
    </comp>
    <comp name="--.HHZ">
      <acc value="0.0978845153" flag="0"/>
      <vel value="0.0579486978" flag="0"/>
      <psa03 value="0.4057349005" flag="0"/>
      <psa10 value="0.0337812368" flag="0"/>
      <psa30 value="0.0029545883" flag="0"/>
    </comp>
    <comp name="--.HHN">
      <acc value="0.2613387714" flag="0"/>
      <vel value="0.1364286701" flag="0"/>
      <psa03 value="1.0295416971" flag="0"/>
      <psa10 value="0.0894429609" flag="0"/>
      <psa30 value="0.0103195890" flag="0"/>
    </comp>
  </station>
  <station code="ESLN" name="ESLN" netid="IV" insttype="" lat="37.6934" lon="14.9744">
    <comp name="--.HHE">
      <acc value="0.4435885097" flag="0"/>
      <vel value="0.1563770545" flag="0"/>
      <psa03 value="0.8087468143" flag="0"/>
      <psa10 value="0.0849147553" flag="0"/>
      <psa30 value="0.0068068480" flag="0"/>
    </comp>
    <comp name="--.HHN">
      <acc value="0.3100689639" flag="0"/>
      <vel value="0.1271700786" flag="0"/>
      <psa03 value="0.4097529189" flag="0"/>
      <psa10 value="0.1091886945" flag="0"/>
      <psa30 value="0.0057834774" flag="0"/>
    </comp>
    <comp name="--.HHZ">
      <acc value="0.5052736602" flag="0"/>
      <vel value="0.0909452167" flag="0"/>
      <psa03 value="0.4778727493" flag="0"/>
      <psa10 value="0.0674398956" flag="0"/>
      <psa30 value="0.0032955566" flag="0"/>
    </comp>
  </station>
  <station code="ESML" name="ESML" netid="IV" insttype="" lat="37.6181" lon="14.8794">
    <comp name="--.HHE">
      <acc value="0.3087521503" flag="0"/>
      <vel value="0.1437899490" flag="0"/>
      <psa03 value="0.7120643493" flag="0"/>
      <psa10 value="0.0981989122" flag="0"/>
      <psa30 value="0.0093840142" flag="0"/>
    </comp>
    <comp name="--.HHN">
      <acc value="0.3118258248" flag="0"/>
      <vel value="0.1422411665" flag="0"/>
      <psa03 value="0.5284544086" flag="0"/>
      <psa10 value="0.1129350276" flag="0"/>
      <psa30 value="0.0092853297" flag="0"/>
    </comp>
    <comp name="--.HHZ">
      <acc value="0.3831948758" flag="0"/>
      <vel value="0.0916703559" flag="0"/>
      <psa03 value="0.4712899882" flag="0"/>
      <psa10 value="0.0573302056" flag="0"/>
      <psa30 value="0.0043919790" flag="0"/>
    </comp>
  </station>
  <station code="EVRN" name="EVRN" netid="IV" insttype="" lat="37.6892" lon="15.1356">
    <comp name="--.HHZ">
      <acc value="0.0601780711" flag="0"/>
      <vel value="0.0180827339" flag="0"/>
      <psa03 value="0.1011637870" flag="0"/>
      <psa10 value="0.0122868269" flag="0"/>
      <psa30 value="0.0007646145" flag="0"/>
    </comp>
    <comp name="--.HHE">
      <acc value="0.1392760284" flag="0"/>
      <vel value="0.0442927896" flag="0"/>
      <psa03 value="0.2623197947" flag="0"/>
      <psa10 value="0.0368050642" flag="0"/>
      <psa30 value="0.0026851918" flag="0"/>
    </comp>
    <comp name="--.HHN">
      <acc value="0.1899474223" flag="0"/>
      <vel value="0.0536749233" flag="0"/>
      <psa03 value="0.1973973073" flag="0"/>
      <psa10 value="0.0355987222" flag="0"/>
      <psa30 value="0.0034297172" flag="0"/>
    </comp>
  </station>
  <station code="GALF" name="GALF" netid="IV" insttype="" lat="37.7107" lon="14.5665">
    <comp name="--.HHE">
      <acc value="0.1253336056" flag="0"/>
      <vel value="0.0800471439" flag="0"/>
      <psa03 value="0.3701821285" flag="0"/>
      <psa10 value="0.0967329289" flag="0"/>
      <psa30 value="0.0049584309" flag="0"/>
    </comp>
    <comp name="--.HHN">
      <acc value="0.1223999536" flag="0"/>
      <vel value="0.0735811196" flag="0"/>
      <psa03 value="0.4056080708" flag="0"/>
      <psa10 value="0.0626288848" flag="0"/>
      <psa30 value="0.0051231755" flag="0"/>
    </comp>
    <comp name="--.HHZ">
      <acc value="0.0778523160" flag="0"/>
      <vel value="0.0438856765" flag="0"/>
      <psa03 value="0.2240917261" flag="0"/>
      <psa10 value="0.0235824859" flag="0"/>
      <psa30 value="0.0028853907" flag="0"/>
    </comp>
  </station>
  <station code="GIB" name="GIB" netid="IV" insttype="" lat="37.9901" lon="14.026">
    <comp name="--.HHE">
      <acc value="0.0128078735" flag="0"/>
      <vel value="0.0101378527" flag="0"/>
      <psa03 value="0.0291728842" flag="0"/>
      <psa10 value="0.0158210899" flag="0"/>
      <psa30 value="0.0008732470" flag="0"/>
    </comp>
    <comp name="--.HHN">
      <acc value="0.0140712708" flag="0"/>
      <vel value="0.0125993150" flag="0"/>
      <psa03 value="0.0278265155" flag="0"/>
      <psa10 value="0.0216924023" flag="0"/>
      <psa30 value="0.0013915402" flag="0"/>
    </comp>
    <comp name="--.HHZ">
      <acc value="0.0047513380" flag="0"/>
      <vel value="0.0038399386" flag="0"/>
      <psa03 value="0.0169721394" flag="0"/>
      <psa10 value="0.0075456357" flag="0"/>
      <psa30 value="0.0004149468" flag="0"/>
    </comp>
  </station>
  <station code="HAGA" name="HAGA" netid="IV" insttype="" lat="37.285" lon="15.155">
    <comp name="--.HHN">
      <acc value="0.0492206837" flag="0"/>
      <vel value="0.0131525439" flag="0"/>
      <psa03 value="0.0566988378" flag="0"/>
      <psa10 value="0.0117443011" flag="0"/>
      <psa30 value="0.0006028255" flag="0"/>
    </comp>
    <comp name="--.HHE">
      <acc value="0.0611769458" flag="0"/>
      <vel value="0.0190547625" flag="0"/>
      <psa03 value="0.0730495642" flag="0"/>
      <psa10 value="0.0156971347" flag="0"/>
      <psa30 value="0.0014724666" flag="0"/>
    </comp>
    <comp name="--.HHZ">
      <acc value="0.0515879880" flag="0"/>
      <vel value="0.0103139294" flag="0"/>
