<?xml version="1.0" encoding="UTF-8" standalone="yes"?>
<!DOCTYPE earthquake SYSTEM "stationlist.dtd">
<stationlist created="" xmlns="ch.ethz.sed.shakemap.usgs.xml">
  <station code="BLY" name="BLY" netid="MN" insttype="" lat="44.7488" lon="17.1839">
    <comp name="--.HHZ">
      <acc value="0.0067420787" flag="0"/>
      <vel value="0.0032953486" flag="0"/>
      <psa03 value="0.0205454216" flag="0"/>
      <psa10 value="0.0031398870" flag="0"/>
      <psa30 value="0.0003335565" flag="0"/>
    </comp>
    <comp name="--.HHE">
      <acc value="0.0097135608" flag="0"/>
      <vel value="0.0065431061" flag="0"/>
      <psa03 value="0.0293623693" flag="0"/>
      <psa10 value="0.0044921951" flag="0"/>
      <psa30 value="0.0005981538" flag="0"/>
    </comp>
    <comp name="--.HHN">
      <acc value="0.0073257986" flag="0"/>
      <vel value="0.0044310654" flag="0"/>
      <psa03 value="0.0305530818" flag="0"/>
      <psa10 value="0.0038511466" flag="0"/>
      <psa30 value="0.0005027776" flag="0"/>
    </comp>
  </station>
</stationlist>
