<stationlist created="1778205339">
	<station code="BLY" name="BLY" netid="MN" source="Mediterranean Very Broadband Seismographic Network (MedNet)" insttype="" lat="44.7488" lon="17.1839">
		<comp name="--.HNE" depth="1.0">
			<acc value="0.00946977732076391" flag="0"/>
			<vel value="0.00644349564691085" flag="0"/>
			<psa03 value="0.0283194541498528" flag="0"/>
			<psa10 value="0.00456539352865427" flag="0"/>
			<psa30 value="0.000648912414346422" flag="0"/>
		</comp>
		<comp name="--.HNN" depth="1.0">
			<acc value="0.00732659437018392" flag="0"/>
			<vel value="0.00436826503863984" flag="0"/>
			<psa03 value="0.0322173295524562" flag="0"/>
			<psa10 value="0.00379143436704487" flag="0"/>
			<psa30 value="0.000586068042879441" flag="0"/>
		</comp>
		<comp name="--.HNZ" depth="1.0">
			<acc value="0.00654615256470264" flag="0"/>
			<vel value="0.00338117780636024" flag="0"/>
			<psa03 value="0.0204460940367087" flag="0"/>
			<psa10 value="0.00317081067564713" flag="0"/>
			<psa30 value="0.000403997882668578" flag="0"/>
		</comp>
	</station>
	<station code="BOJS" name="BOJS" netid="SL" source="Seismic Network of the Republic of Slovenia (SNRS)" insttype="" lat="45.5043" lon="15.2518">
		<comp name="--.HNE" depth="0.0">
			<acc value="0.0141043658900624" flag="0"/>
			<vel value="0.00284748340904713" flag="0"/>
			<psa03 value="0.0162473484424935" flag="0"/>
			<psa10 value="0.0015908758955321" flag="0"/>
			<psa30 value="0.000374106032688691" flag="0"/>
		</comp>
		<comp name="--.HNN" depth="0.0">
			<acc value="0.0133644088574198" flag="0"/>
			<vel value="0.00267956938904433" flag="0"/>
			<psa03 value="0.0132103269422227" flag="0"/>
			<psa10 value="0.00261126329587817" flag="0"/>
			<psa30 value="0.00039555076058818" flag="0"/>
		</comp>
		<comp name="--.HNZ" depth="0.0">
			<acc value="0.010499902657497" flag="0"/>
			<vel value="0.00247473750273662" flag="0"/>
			<psa03 value="0.0140505961476253" flag="0"/>
			<psa10 value="0.0017730337829105" flag="0"/>
			<psa30 value="0.000402300608774354" flag="0"/>
		</comp>
	</station>
	<station code="CEY" name="CEY" netid="SL" source="Seismic Network of the Republic of Slovenia (SNRS)" insttype="" lat="45.7381" lon="14.4221">
		<comp name="--.HNE" depth="0.0">
			<acc value="0.00286027541094171" flag="0"/>
			<vel value="0.0015695692117183" flag="0"/>
			<psa03 value="0.00602295302754242" flag="0"/>
			<psa10 value="0.00229249663227516" flag="0"/>
			<psa30 value="0.000105335571714887" flag="0"/>
		</comp>
		<comp name="--.HNN" depth="0.0">
			<acc value="0.00353619459267592" flag="0"/>
			<vel value="0.00233174174110568" flag="0"/>
			<psa03 value="0.00705991039273021" flag="0"/>
			<psa10 value="0.00409164105114746" flag="0"/>
			<psa30 value="0.000193708183779107" flag="0"/>
		</comp>
		<comp name="--.HNZ" depth="0.0">
			<acc value="0.00263521425346537" flag="0"/>
			<vel value="0.00151456297463853" flag="0"/>
			<psa03 value="0.0057336871202774" flag="0"/>
			<psa10 value="0.00248495328783373" flag="0"/>
			<psa30 value="0.000214659636814294" flag="0"/>
		</comp>
	</station>
	<station code="CRES" name="CRES" netid="SL" source="Seismic Network of the Republic of Slovenia (SNRS)" insttype="" lat="45.826" lon="15.4569">
		<comp name="--.HNE" depth="0.0">
			<acc value="0.0150229087642062" flag="0"/>
			<vel value="0.0041685009608361" flag="0"/>
			<psa03 value="0.0191448763270348" flag="0"/>
			<psa10 value="0.00189041245711153" flag="0"/>
			<psa30 value="0.00051699414416031" flag="0"/>
		</comp>
		<comp name="--.HNN" depth="0.0">
			<acc value="0.0112754758846345" flag="0"/>
			<vel value="0.00300085428321167" flag="0"/>
			<psa03 value="0.0138993986315316" flag="0"/>
			<psa10 value="0.00201967519982121" flag="0"/>
			<psa30 value="0.00024112560880485" flag="0"/>
		</comp>
		<comp name="--.HNZ" depth="0.0">
			<acc value="0.00748731237907372" flag="0"/>
			<vel value="0.00168265167563596" flag="0"/>
			<psa03 value="0.00797066864267339" flag="0"/>
			<psa10 value="0.000872394920790253" flag="0"/>
			<psa30 value="0.000421354188688739" flag="0"/>
		</comp>
	</station>
	<station code="CRNS" name="CRNS" netid="SL" source="Seismic Network of the Republic of Slovenia (SNRS)" insttype="" lat="46.0807" lon="14.2613">
		<comp name="--.HNE" depth="0.0">
			<acc value="0.00494229003542582" flag="0"/>
			<vel value="0.00178032214728225" flag="0"/>
			<psa03 value="0.0130961618272891" flag="0"/>
			<psa10 value="0.00211653145982056" flag="0"/>
			<psa30 value="0.000121941645743717" flag="0"/>
		</comp>
		<comp name="--.HNN" depth="0.0">
			<acc value="0.00471505976556347" flag="0"/>
			<vel value="0.00176741073742368" flag="0"/>
			<psa03 value="0.00761454609299705" flag="0"/>
			<psa10 value="0.00134652916188554" flag="0"/>
			<psa30 value="7.23858043186605e-05" flag="0"/>
		</comp>
		<comp name="--.HNZ" depth="0.0">
			<acc value="0.002065286179408" flag="0"/>
			<vel value="0.00100875534475456" flag="0"/>
			<psa03 value="0.00428033758781824" flag="0"/>
			<psa10 value="0.000884372335326545" flag="0"/>
			<psa30 value="6.97321389430719e-05" flag="0"/>
		</comp>
	</station>
	<station code="DOBS" name="DOBS" netid="SL" source="Seismic Network of the Republic of Slovenia (SNRS)" insttype="" lat="46.1495" lon="15.4695">
		<comp name="--.HNE" depth="0.0">
			<acc value="0.0106462420989997" flag="0"/>
			<vel value="0.00329869204532512" flag="0"/>
			<psa03 value="0.0123343704769479" flag="0"/>
			<psa10 value="0.00287320596079206" flag="0"/>
			<psa30 value="0.000238256720838393" flag="0"/>
		</comp>
		<comp name="--.HNN" depth="0.0">
			<acc value="0.0129230127445939" flag="0"/>
			<vel value="0.0033582958241526" flag="0"/>
			<psa03 value="0.0145183172359993" flag="0"/>
			<psa10 value="0.00302789128606127" flag="0"/>
			<psa30 value="0.000545156738957393" flag="0"/>
		</comp>
		<comp name="--.HNZ" depth="0.0">
			<acc value="0.00602563906734151" flag="0"/>
			<vel value="0.00197872812427722" flag="0"/>
			<psa03 value="0.00652826449673262" flag="0"/>
			<psa10 value="0.00241618123202375" flag="0"/>
			<psa30 value="0.000366900841838484" flag="0"/>
		</comp>
	</station>
	<station code="GROS" name="GROS" netid="SL" source="Seismic Network of the Republic of Slovenia (SNRS)" insttype="" lat="46.461" lon="15.5018">
		<comp name="--.HNE" depth="0.0">
			<acc value="0.00650185418335256" flag="0"/>
			<vel value="0.00159010260885872" flag="0"/>
			<psa03 value="0.00484544533592731" flag="0"/>
			<psa10 value="0.00150843875479015" flag="0"/>
			<psa30 value="0.000230158736469895" flag="0"/>
		</comp>
		<comp name="--.HNN" depth="0.0">
			<acc value="0.00486813989797795" flag="0"/>
			<vel value="0.00187562848523878" flag="0"/>
			<psa03 value="0.00534225200997574" flag="0"/>
			<psa10 value="0.00156063447812631" flag="0"/>
			<psa30 value="0.000223773313467142" flag="0"/>
		</comp>
		<comp name="--.HNZ" depth="0.0">
			<acc value="0.0030557090004672" flag="0"/>
			<vel value="0.00178227390229204" flag="0"/>
			<psa03 value="0.00877576624728046" flag="0"/>
			<psa10 value="0.00235270991798465" flag="0"/>
			<psa30 value="0.000317145540585619" flag="0"/>
		</comp>
	</station>
	<station code="KNDS" name="KNDS" netid="SL" source="Seismic Network of the Republic of Slovenia (SNRS)" insttype="" lat="45.5278" lon="14.3807">
		<comp name="--.HNE" depth="0.0">
			<acc value="0.00349889924852241" flag="0"/>
			<vel value="0.00252330393476106" flag="0"/>
			<psa03 value="0.00802110948415073" flag="0"/>
			<psa10 value="0.00264149990827834" flag="0"/>
			<psa30 value="0.00020944034574916" flag="0"/>
		</comp>
		<comp name="--.HNN" depth="0.0">
			<acc value="0.00443871863554277" flag="0"/>
			<vel value="0.00220956743948819" flag="0"/>
			<psa03 value="0.00852942375642708" flag="0"/>
			<psa10 value="0.00194320376677583" flag="0"/>
			<psa30 value="0.000217284328916275" flag="0"/>
		</comp>
		<comp name="--.HNZ" depth="0.0">
			<acc value="0.00221148030096895" flag="0"/>
			<vel value="0.00153705564741612" flag="0"/>
			<psa03 value="0.00482636985353636" flag="0"/>
			<psa10 value="0.00223634228732541" flag="0"/>
			<psa30 value="0.000279592662266847" flag="0"/>
		</comp>
	</station>
	<station code="KOGS" name="KOGS" netid="SL" source="Seismic Network of the Republic of Slovenia (SNRS)" insttype="" lat="46.4481" lon="16.2504">
		<comp name="--.HNE" depth="0.0">
			<acc value="0.0308932613858052" flag="0"/>
			<vel value="0.0110323765166241" flag="0"/>
			<psa03 value="0.0489659833396204" flag="0"/>
			<psa10 value="0.00757225693737718" flag="0"/>
			<psa30 value="0.000787731662522306" flag="0"/>
		</comp>
		<comp name="--.HNN" depth="0.0">
			<acc value="0.0347571545900041" flag="0"/>
			<vel value="0.0105580807673989" flag="0"/>
			<psa03 value="0.0509233942584015" flag="0"/>
			<psa10 value="0.00955723999523124" flag="0"/>
			<psa30 value="0.000997265647286727" flag="0"/>
		</comp>
		<comp name="--.HNZ" depth="0.0">
			<acc value="0.0151460929289423" flag="0"/>
			<vel value="0.00704791546816778" flag="0"/>
			<psa03 value="0.0246926279529187" flag="0"/>
			<psa10 value="0.00401778740869766" flag="0"/>
			<psa30 value="0.000725851990380575" flag="0"/>
		</comp>
	</station>
	<station code="LJU" name="LJU" netid="SL" source="Seismic Network of the Republic of Slovenia (SNRS)" insttype="" lat="46.0438" lon="14.5278">
		<comp name="--.HNE" depth="0.0">
			<acc value="0.00540822604528134" flag="0"/>
			<vel value="0.00286884928326505" flag="0"/>
			<psa03 value="0.0068545608518473" flag="0"/>
			<psa10 value="0.0032388624493669" flag="0"/>
			<psa30 value="0.000341772119892101" flag="0"/>
		</comp>
		<comp name="--.HNN" depth="0.0">
			<acc value="0.00559411097033386" flag="0"/>
			<vel value="0.00290167888717855" flag="0"/>
			<psa03 value="0.0172302351685185" flag="0"/>
			<psa10 value="0.00261707477461137" flag="0"/>
			<psa30 value="0.000191095549767134" flag="0"/>
		</comp>
		<comp name="--.HNZ" depth="0.0">
			<acc value="0.00286028053664812" flag="0"/>
			<vel value="0.00167529085143376" flag="0"/>
			<psa03 value="0.00512022200207849" flag="0"/>
			<psa10 value="0.00215693944915219" flag="0"/>
			<psa30 value="0.000396608174386919" flag="0"/>
		</comp>
	</station>
	<station code="MOZS" name="MOZS" netid="SL" source="Seismic Network of the Republic of Slovenia (SNRS)" insttype="" lat="46.2941" lon="14.4433">
		<comp name="--.HNE" depth="0.0">
			<acc value="0.00258531254697898" flag="0"/>
			<vel value="0.0014465449888372" flag="0"/>
			<psa03 value="0.00528405414421832" flag="0"/>
			<psa10 value="0.0016499322296003" flag="0"/>
			<psa30 value="0.000125171495122426" flag="0"/>
		</comp>
		<comp name="--.HNN" depth="0.0">
			<acc value="0.00220260087783769" flag="0"/>
			<vel value="0.000881921796063768" flag="0"/>
			<psa03 value="0.005645528936514" flag="0"/>
			<psa10 value="0.00110183318635246" flag="0"/>
			<psa30 value="0.000270934172017666" flag="0"/>
		</comp>
		<comp name="--.HNZ" depth="0.0">
			<acc value="0.00138995585767534" flag="0"/>
			<vel value="0.000669319187598894" flag="0"/>
			<psa03 value="0.00264034027416817" flag="0"/>
			<psa10 value="0.00094835274558874" flag="0"/>
			<psa30 value="0.000180210570878615" flag="0"/>
		</comp>
	</station>
	<station code="PDKS" name="PDKS" netid="SL" source="Seismic Network of the Republic of Slovenia (SNRS)" insttype="" lat="46.0612" lon="14.9977">
		<comp name="--.HNE" depth="0.0">
			<acc value="0.00438440467907348" flag="0"/>
			<vel value="0.00220027698283345" flag="0"/>
			<psa03 value="0.00812729750815809" flag="0"/>
			<psa10 value="0.00308867601587892" flag="0"/>
			<psa30 value="0.000213795725417658" flag="0"/>
		</comp>
		<comp name="--.HNN" depth="0.0">
			<acc value="0.004275488889893" flag="0"/>
			<vel value="0.00159910298244104" flag="0"/>
			<psa03 value="0.00894726784277708" flag="0"/>
			<psa10 value="0.0018117633016759" flag="0"/>
			<psa30 value="0.000218584245758551" flag="0"/>
		</comp>
		<comp name="--.HNZ" depth="0.0">
			<acc value="0.00634199587740291" flag="0"/>
			<vel value="0.00220448654192194" flag="0"/>
			<psa03 value="0.00917141745723253" flag="0"/>
			<psa10 value="0.00211579875503252" flag="0"/>
			<psa30 value="0.000352695942500442" flag="0"/>
		</comp>
	</station>
	<station code="SKDS" name="SKDS" netid="SL" source="Seismic Network of the Republic of Slovenia (SNRS)" insttype="" lat="45.5464" lon="14.0143">
		<comp name="--.HNE" depth="0.0">
			<acc value="0.00240142949061877" flag="0"/>
			<vel value="0.000911437314564673" flag="0"/>
			<psa03 value="0.00376425912931864" flag="0"/>
			<psa10 value="0.000651243942497369" flag="0"/>
			<psa30 value="0.000153130313402532" flag="0"/>
		</comp>
		<comp name="--.HNN" depth="0.0">
			<acc value="0.00316557831049872" flag="0"/>
			<vel value="0.00150439699470427" flag="0"/>
			<psa03 value="0.00466557046437888" flag="0"/>
			<psa10 value="0.00132067576954004" flag="0"/>
			<psa30 value="0.000226694053826953" flag="0"/>
		</comp>
		<comp name="--.HNZ" depth="0.0">
			<acc value="0.00191265560973363" flag="0"/>
			<vel value="0.00117640934725684" flag="0"/>
			<psa03 value="0.00391150716502759" flag="0"/>
			<psa10 value="0.00191887027979929" flag="0"/>
			<psa30 value="0.000235449243190321" flag="0"/>
		</comp>
	</station>
	<station code="VISS" name="VISS" netid="SL" source="Seismic Network of the Republic of Slovenia (SNRS)" insttype="" lat="45.8033" lon="14.8393">
		<comp name="--.HNE" depth="0.0">
			<acc value="0.00462596855352237" flag="0"/>
			<vel value="0.00297882106004974" flag="0"/>
			<psa03 value="0.0100272801435112" flag="0"/>
			<psa10 value="0.00177835339312405" flag="0"/>
			<psa30 value="0.000173741210023332" flag="0"/>
		</comp>
		<comp name="--.HNN" depth="0.0">
			<acc value="0.0059714947335019" flag="0"/>
			<vel value="0.00238899119596566" flag="0"/>
			<psa03 value="0.00912328275812082" flag="0"/>
			<psa10 value="0.00138553444110595" flag="0"/>
			<psa30 value="0.000156274597216631" flag="0"/>
		</comp>
		<comp name="--.HNZ" depth="0.0">
			<acc value="0.0036020997460867" flag="0"/>
			<vel value="0.00207773245857037" flag="0"/>
			<psa03 value="0.00716794814868565" flag="0"/>
			<psa10 value="0.00280397848418831" flag="0"/>
			<psa30 value="0.00020545075854207" flag="0"/>
		</comp>
	</station>
</stationlist>
