<stationlist xmlns:esm="https://esm-db.eu/esmws/shakemap/1/" created="1784339662">
	<station code="BLY" name="BLY" netid="MN" source="Mediterranean Very Broadband Seismographic Network (MedNet)" insttype="" lat="44.7488" lon="17.1839" esm:processing="automatic (Paolucci et al 2011)" esm:quality="best">
		<comp name="--.HNE" depth="1.0">
			<acc value="0.00946977732076391" flag="0"/>
			<vel value="0.00644349564691085" flag="0"/>
			<psa03 value="0.0283194541498528" flag="0"/>
			<psa10 value="0.00456539352865427" flag="0"/>
			<psa30 value="0.000648912414346422" flag="0"/>
		</comp>
		<comp name="--.HNN" depth="1.0">
			<acc value="0.00732659437018392" flag="0"/>
			<vel value="0.00436826503863984" flag="0"/>
			<psa03 value="0.0322173295524562" flag="0"/>
			<psa10 value="0.00379143436704487" flag="0"/>
			<psa30 value="0.000586068042879441" flag="0"/>
		</comp>
		<comp name="--.HNZ" depth="1.0">
			<acc value="0.00654615256470264" flag="0"/>
			<vel value="0.00338117780636024" flag="0"/>
			<psa03 value="0.0204460940367087" flag="0"/>
			<psa10 value="0.00317081067564713" flag="0"/>
			<psa30 value="0.000403997882668578" flag="0"/>
		</comp>
	</station>
	<station code="BOJS" name="BOJS" netid="SL" source="Seismic Network of the Republic of Slovenia (SNRS)" insttype="" lat="45.5043" lon="15.2518" esm:processing="manual (Paolucci et al 2011)" esm:quality="good">
		<comp name="--.HNE" depth="0.0">
			<acc value="0.0141043658900624" flag="0"/>
			<vel value="0.00284748340904713" flag="0"/>
			<psa03 value="0.0162473484424935" flag="0"/>
			<psa10 value="0.0015908758955321" flag="0"/>
			<psa30 value="0.000374106032688691" flag="0"/>
		</comp>
		<comp name="--.HNN" depth="0.0">
			<acc value="0.0133644088574198" flag="0"/>
			<vel value="0.00267956938904433" flag="0"/>
			<psa03 value="0.0132103269422227" flag="0"/>
			<psa10 value="0.00261126329587817" flag="0"/>
			<psa30 value="0.00039555076058818" flag="0"/>
		</comp>
		<comp name="--.HNZ" depth="0.0">
			<acc value="0.010499902657497" flag="0"/>
			<vel value="0.00247473750273662" flag="0"/>
			<psa03 value="0.0140505961476253" flag="0"/>
			<psa10 value="0.0017730337829105" flag="0"/>
			<psa30 value="0.000402300608774354" flag="0"/>
		</comp>
	</station>
	<station code="CESS" name="CESS" netid="SL" source="Seismic Network of the Republic of Slovenia (SNRS)" insttype="" lat="45.9733" lon="15.4632" esm:processing="manual (Paolucci et al 2011)" esm:quality="best">
		<comp name="--.HNE" depth="0.0">
			<acc value="0.0119111746683008" flag="0"/>
			<vel value="0.00583198568532173" flag="0"/>
			<psa03 value="0.0311886806803623" flag="0"/>
			<psa10 value="0.00438885902162078" flag="0"/>
			<psa30 value="0.000241681843569357" flag="0"/>
		</comp>
		<comp name="--.HNN" depth="0.0">
			<acc value="0.0111853943724996" flag="0"/>
			<vel value="0.00440180730295086" flag="0"/>
			<psa03 value="0.0341573356725195" flag="0"/>
			<psa10 value="0.00353781209706375" flag="0"/>
			<psa30 value="0.000401899384278455" flag="0"/>
		</comp>
		<comp name="--.HNZ" depth="0.0">
			<acc value="0.00870455276737099" flag="0"/>
			<vel value="0.00455237703215898" flag="0"/>
			<psa03 value="0.0182718653693237" flag="0"/>
			<psa10 value="0.00290193778601135" flag="0"/>
			<psa30 value="0.000300720884824425" flag="0"/>
		</comp>
	</station>
	<station code="CEY" name="CEY" netid="SL" source="Seismic Network of the Republic of Slovenia (SNRS)" insttype="" lat="45.7381" lon="14.4221" esm:processing="manual (Paolucci et al 2011)" esm:quality="good">
		<comp name="--.HNE" depth="0.0">
			<acc value="0.00286027541094171" flag="0"/>
			<vel value="0.0015695692117183" flag="0"/>
			<psa03 value="0.00602295302754242" flag="0"/>
			<psa10 value="0.00229249663227516" flag="0"/>
			<psa30 value="0.000105335571714887" flag="0"/>
		</comp>
		<comp name="--.HNN" depth="0.0">
			<acc value="0.00353619459267592" flag="0"/>
			<vel value="0.00233174174110568" flag="0"/>
			<psa03 value="0.00705991039273021" flag="0"/>
			<psa10 value="0.00409164105114746" flag="0"/>
			<psa30 value="0.000193708183779107" flag="0"/>
		</comp>
		<comp name="--.HNZ" depth="0.0">
			<acc value="0.00263521425346537" flag="0"/>
			<vel value="0.00151456297463853" flag="0"/>
			<psa03 value="0.0057336871202774" flag="0"/>
			<psa10 value="0.00248495328783373" flag="0"/>
			<psa30 value="0.000214659636814294" flag="0"/>
		</comp>
	</station>
	<station code="CRES" name="CRES" netid="SL" source="Seismic Network of the Republic of Slovenia (SNRS)" insttype="" lat="45.826" lon="15.4569" esm:processing="manual (Paolucci et al 2011)" esm:quality="good">
		<comp name="--.HNE" depth="0.0">
			<acc value="0.0150229087642062" flag="0"/>
			<vel value="0.0041685009608361" flag="0"/>
			<psa03 value="0.0191448763270348" flag="0"/>
			<psa10 value="0.00189041245711153" flag="0"/>
			<psa30 value="0.00051699414416031" flag="0"/>
		</comp>
		<comp name="--.HNN" depth="0.0">
			<acc value="0.0112754758846345" flag="0"/>
			<vel value="0.00300085428321167" flag="0"/>
			<psa03 value="0.0138993986315316" flag="0"/>
			<psa10 value="0.00201967519982121" flag="0"/>
			<psa30 value="0.00024112560880485" flag="0"/>
		</comp>
		<comp name="--.HNZ" depth="0.0">
			<acc value="0.00748731237907372" flag="0"/>
			<vel value="0.00168265167563596" flag="0"/>
			<psa03 value="0.00797066864267339" flag="0"/>
			<psa10 value="0.000872394920790253" flag="0"/>
			<psa30 value="0.000421354188688739" flag="0"/>
		</comp>
	</station>
	<station code="CRNS" name="CRNS" netid="SL" source="Seismic Network of the Republic of Slovenia (SNRS)" insttype="" lat="46.0807" lon="14.2613" esm:processing="manual (Paolucci et al 2011)" esm:quality="good">
		<comp name="--.HNE" depth="0.0">
			<acc value="0.00494229003542582" flag="0"/>
			<vel value="0.00178032214728225" flag="0"/>
			<psa03 value="0.0130961618272891" flag="0"/>
			<psa10 value="0.00211653145982056" flag="0"/>
			<psa30 value="0.000121941645743717" flag="0"/>
		</comp>
		<comp name="--.HNN" depth="0.0">
			<acc value="0.00471505976556347" flag="0"/>
			<vel value="0.00176741073742368" flag="0"/>
			<psa03 value="0.00761454609299705" flag="0"/>
			<psa10 value="0.00134652916188554" flag="0"/>
			<psa30 value="7.23858043186605e-05" flag="0"/>
		</comp>
		<comp name="--.HNZ" depth="0.0">
			<acc value="0.002065286179408" flag="0"/>
			<vel value="0.00100875534475456" flag="0"/>
			<psa03 value="0.00428033758781824" flag="0"/>
			<psa10 value="0.000884372335326545" flag="0"/>
			<psa30 value="6.97321389430719e-05" flag="0"/>
		</comp>
	</station>
	<station code="DOBS" name="DOBS" netid="SL" source="Seismic Network of the Republic of Slovenia (SNRS)" insttype="" lat="46.1495" lon="15.4695" esm:processing="manual (Paolucci et al 2011)" esm:quality="good">
		<comp name="--.HNE" depth="0.0">
			<acc value="0.0106462420989997" flag="0"/>
			<vel value="0.00329869204532512" flag="0"/>
			<psa03 value="0.0123343704769479" flag="0"/>
			<psa10 value="0.00287320596079206" flag="0"/>
			<psa30 value="0.000238256720838393" flag="0"/>
		</comp>
		<comp name="--.HNN" depth="0.0">
			<acc value="0.0129230127445939" flag="0"/>
			<vel value="0.0033582958241526" flag="0"/>
			<psa03 value="0.0145183172359993" flag="0"/>
			<psa10 value="0.00302789128606127" flag="0"/>
			<psa30 value="0.000545156738957393" flag="0"/>
		</comp>
		<comp name="--.HNZ" depth="0.0">
			<acc value="0.00602563906734151" flag="0"/>
			<vel value="0.00197872812427722" flag="0"/>
			<psa03 value="0.00652826449673262" flag="0"/>
			<psa10 value="0.00241618123202375" flag="0"/>
			<psa30 value="0.000366900841838484" flag="0"/>
		</comp>
	</station>
	<station code="GBRS" name="GBRS" netid="SL" source="Seismic Network of the Republic of Slovenia (SNRS)" insttype="" lat="45.5311" lon="14.8101" esm:processing="manual (Paolucci et al 2011)" esm:quality="best">
		<comp name="--.HNE" depth="0.0">
			<acc value="0.00934674301855191" flag="0"/>
			<vel value="0.00260301979362686" flag="0"/>
			<psa03 value="0.00718078688980664" flag="0"/>
			<psa10 value="0.00180658233346335" flag="0"/>
			<psa30 value="0.000199612741593649" flag="0"/>
		</comp>
		<comp name="--.HNN" depth="0.0">
			<acc value="0.0117214018486828" flag="0"/>
			<vel value="0.00237933579544214" flag="0"/>
			<psa03 value="0.00677568778835429" flag="0"/>
			<psa10 value="0.00274450470059208" flag="0"/>
			<psa30 value="0.000275364048808483" flag="0"/>
		</comp>
		<comp name="--.HNZ" depth="0.0">
			<acc value="0.00594383334688897" flag="0"/>
			<vel value="0.00166736521506151" flag="0"/>
			<psa03 value="0.00931318986978877" flag="0"/>
			<psa10 value="0.00106580947183429" flag="0"/>
			<psa30 value="0.000285300227864915" flag="0"/>
		</comp>
	</station>
	<station code="GCIS" name="GCIS" netid="SL" source="Seismic Network of the Republic of Slovenia (SNRS)" insttype="" lat="45.8672" lon="15.6275" esm:processing="manual (Paolucci et al 2011)" esm:quality="best">
		<comp name="--.HNE" depth="0.0">
			<acc value="0.0178354819408067" flag="0"/>
			<vel value="0.00282369472897315" flag="0"/>
			<psa03 value="0.0123843373286522" flag="0"/>
			<psa10 value="0.00246757323024128" flag="0"/>
			<psa30 value="0.000438312056855976" flag="0"/>
		</comp>
		<comp name="--.HNN" depth="0.0">
			<acc value="0.0124858851163567" flag="0"/>
			<vel value="0.00356497495723065" flag="0"/>
			<psa03 value="0.0139306246584323" flag="0"/>
			<psa10 value="0.00406518914257978" flag="0"/>
			<psa30 value="0.000289843940321899" flag="0"/>
		</comp>
		<comp name="--.HNZ" depth="0.0">
			<acc value="0.00913504448162117" flag="0"/>
			<vel value="0.00172881313720318" flag="0"/>
			<psa03 value="0.00857594767173635" flag="0"/>
			<psa10 value="0.00173100299076532" flag="0"/>
			<psa30 value="0.000414153112694491" flag="0"/>
		</comp>
	</station>
	<station code="GROS" name="GROS" netid="SL" source="Seismic Network of the Republic of Slovenia (SNRS)" insttype="" lat="46.461" lon="15.5018" esm:processing="manual (Paolucci et al 2011)" esm:quality="best">
		<comp name="--.HNE" depth="0.0">
			<acc value="0.00650185418335256" flag="0"/>
			<vel value="0.00159010260885872" flag="0"/>
			<psa03 value="0.00484544533592731" flag="0"/>
			<psa10 value="0.00150843875479015" flag="0"/>
			<psa30 value="0.000230158736469895" flag="0"/>
		</comp>
		<comp name="--.HNN" depth="0.0">
			<acc value="0.00486813989797795" flag="0"/>
			<vel value="0.00187562848523878" flag="0"/>
			<psa03 value="0.00534225200997574" flag="0"/>
			<psa10 value="0.00156063447812631" flag="0"/>
			<psa30 value="0.000223773313467142" flag="0"/>
		</comp>
		<comp name="--.HNZ" depth="0.0">
			<acc value="0.0030557090004672" flag="0"/>
			<vel value="0.00178227390229204" flag="0"/>
			<psa03 value="0.00877576624728046" flag="0"/>
			<psa10 value="0.00235270991798465" flag="0"/>
			<psa30 value="0.000317145540585619" flag="0"/>
		</comp>
	</station>
	<station code="JAVS" name="JAVS" netid="SL" source="Seismic Network of the Republic of Slovenia (SNRS)" insttype="" lat="45.8934" lon="14.0643" esm:processing="manual (Paolucci et al 2011)" esm:quality="best">
		<comp name="--.HNE" depth="0.0">
			<acc value="0.00264686030274117" flag="0"/>
			<vel value="0.00200058862481692" flag="0"/>
			<psa03 value="0.00514711798953523" flag="0"/>
			<psa10 value="0.00138180880367668" flag="0"/>
			<psa30 value="8.61184327881082e-05" flag="0"/>
		</comp>
		<comp name="--.HNN" depth="0.0">
			<acc value="0.00239742576837137" flag="0"/>
			<vel value="0.00120349705570977" flag="0"/>
			<psa03 value="0.00505193622848152" flag="0"/>
			<psa10 value="0.00110907175181052" flag="0"/>
			<psa30 value="0.000102324460785011" flag="0"/>
		</comp>
		<comp name="--.HNZ" depth="0.0">
			<acc value="0.00110578884175377" flag="0"/>
			<vel value="0.000774221636172036" flag="0"/>
			<psa03 value="0.00252021984933184" flag="0"/>
			<psa10 value="0.00132859277837617" flag="0"/>
			<psa30 value="9.70534996305366e-05" flag="0"/>
		</comp>
	</station>
	<station code="KNDS" name="KNDS" netid="SL" source="Seismic Network of the Republic of Slovenia (SNRS)" insttype="" lat="45.5278" lon="14.3807" esm:processing="manual (Paolucci et al 2011)" esm:quality="best">
		<comp name="--.HNE" depth="0.0">
			<acc value="0.00349889924852241" flag="0"/>
			<vel value="0.00252330393476106" flag="0"/>
			<psa03 value="0.00802110948415073" flag="0"/>
			<psa10 value="0.00264149990827834" flag="0"/>
			<psa30 value="0.00020944034574916" flag="0"/>
		</comp>
		<comp name="--.HNN" depth="0.0">
			<acc value="0.00443871863554277" flag="0"/>
			<vel value="0.00220956743948819" flag="0"/>
			<psa03 value="0.00852942375642708" flag="0"/>
			<psa10 value="0.00194320376677583" flag="0"/>
			<psa30 value="0.000217284328916275" flag="0"/>
		</comp>
		<comp name="--.HNZ" depth="0.0">
			<acc value="0.00221148030096895" flag="0"/>
			<vel value="0.00153705564741612" flag="0"/>
			<psa03 value="0.00482636985353636" flag="0"/>
			<psa10 value="0.00223634228732541" flag="0"/>
			<psa30 value="0.000279592662266847" flag="0"/>
		</comp>
	</station>
	<station code="KOGS" name="KOGS" netid="SL" source="Seismic Network of the Republic of Slovenia (SNRS)" insttype="" lat="46.4481" lon="16.2504" esm:processing="manual (Paolucci et al 2011)" esm:quality="best">
		<comp name="--.HNE" depth="0.0">
			<acc value="0.0308932613858052" flag="0"/>
			<vel value="0.0110323765166241" flag="0"/>
			<psa03 value="0.0489659833396204" flag="0"/>
			<psa10 value="0.00757225693737718" flag="0"/>
			<psa30 value="0.000787731662522306" flag="0"/>
		</comp>
		<comp name="--.HNN" depth="0.0">
			<acc value="0.0347571545900041" flag="0"/>
			<vel value="0.0105580807673989" flag="0"/>
			<psa03 value="0.0509233942584015" flag="0"/>
			<psa10 value="0.00955723999523124" flag="0"/>
			<psa30 value="0.000997265647286727" flag="0"/>
		</comp>
		<comp name="--.HNZ" depth="0.0">
			<acc value="0.0151460929289423" flag="0"/>
			<vel value="0.00704791546816778" flag="0"/>
			<psa03 value="0.0246926279529187" flag="0"/>
			<psa10 value="0.00401778740869766" flag="0"/>
			<psa30 value="0.000725851990380575" flag="0"/>
		</comp>
	</station>
	<station code="LEGS" name="LEGS" netid="SL" source="Seismic Network of the Republic of Slovenia (SNRS)" insttype="" lat="45.9488" lon="15.3177" esm:processing="manual (Paolucci et al 2011)" esm:quality="best">
		<comp name="--.HNE" depth="0.0">
			<acc value="0.00999653421285105" flag="0"/>
			<vel value="0.00501938521651397" flag="0"/>
			<psa03 value="0.0247874050647686" flag="0"/>
			<psa10 value="0.00321448700648829" flag="0"/>
			<psa30 value="0.00043470999532041" flag="0"/>
		</comp>
		<comp name="--.HNN" depth="0.0">
			<acc value="0.00890046448696716" flag="0"/>
			<vel value="0.00403946482815577" flag="0"/>
			<psa03 value="0.018406042226632" flag="0"/>
			<psa10 value="0.00379096628916156" flag="0"/>
			<psa30 value="0.000211494609438247" flag="0"/>
		</comp>
		<comp name="--.HNZ" depth="0.0">
			<acc value="0.00763689348550006" flag="0"/>
			<vel value="0.00234246057086216" flag="0"/>
			<psa03 value="0.0106378967657443" flag="0"/>
			<psa10 value="0.00200897105322276" flag="0"/>
			<psa30 value="0.000238685421112741" flag="0"/>
		</comp>
	</station>
	<station code="LJU" name="LJU" netid="SL" source="Seismic Network of the Republic of Slovenia (SNRS)" insttype="" lat="46.0438" lon="14.5278" esm:processing="manual (Paolucci et al 2011)" esm:quality="bad">
		<comp name="--.HNE" depth="0.0">
			<acc value="0.00540822604528134" flag="0"/>
			<vel value="0.00286884928326505" flag="0"/>
			<psa03 value="0.0068545608518473" flag="0"/>
			<psa10 value="0.0032388624493669" flag="0"/>
			<psa30 value="0.000341772119892101" flag="0"/>
		</comp>
		<comp name="--.HNN" depth="0.0">
			<acc value="0.00559411097033386" flag="0"/>
			<vel value="0.00290167888717855" flag="0"/>
			<psa03 value="0.0172302351685185" flag="0"/>
			<psa10 value="0.00261707477461137" flag="0"/>
			<psa30 value="0.000191095549767134" flag="0"/>
		</comp>
		<comp name="--.HNZ" depth="0.0">
			<acc value="0.00286028053664812" flag="0"/>
			<vel value="0.00167529085143376" flag="0"/>
			<psa03 value="0.00512022200207849" flag="0"/>
			<psa10 value="0.00215693944915219" flag="0"/>
			<psa30 value="0.000396608174386919" flag="0"/>
		</comp>
	</station>
	<station code="MOZS" name="MOZS" netid="SL" source="Seismic Network of the Republic of Slovenia (SNRS)" insttype="" lat="46.2941" lon="14.4433" esm:processing="manual (Paolucci et al 2011)" esm:quality="best">
		<comp name="--.HNE" depth="0.0">
			<acc value="0.00258531254697898" flag="0"/>
			<vel value="0.0014465449888372" flag="0"/>
			<psa03 value="0.00528405414421832" flag="0"/>
			<psa10 value="0.0016499322296003" flag="0"/>
			<psa30 value="0.000125171495122426" flag="0"/>
		</comp>
		<comp name="--.HNN" depth="0.0">
			<acc value="0.00220260087783769" flag="0"/>
			<vel value="0.000881921796063768" flag="0"/>
			<psa03 value="0.005645528936514" flag="0"/>
			<psa10 value="0.00110183318635246" flag="0"/>
			<psa30 value="0.000270934172017666" flag="0"/>
		</comp>
		<comp name="--.HNZ" depth="0.0">
			<acc value="0.00138995585767534" flag="0"/>
			<vel value="0.000669319187598894" flag="0"/>
			<psa03 value="0.00264034027416817" flag="0"/>
			<psa10 value="0.00094835274558874" flag="0"/>
			<psa30 value="0.000180210570878615" flag="0"/>
		</comp>
	</station>
	<station code="PDKS" name="PDKS" netid="SL" source="Seismic Network of the Republic of Slovenia (SNRS)" insttype="" lat="46.0612" lon="14.9977" esm:processing="manual (Paolucci et al 2011)" esm:quality="best">
		<comp name="--.HNE" depth="0.0">
			<acc value="0.00438440467907348" flag="0"/>
			<vel value="0.00220027698283345" flag="0"/>
			<psa03 value="0.00812729750815809" flag="0"/>
			<psa10 value="0.00308867601587892" flag="0"/>
			<psa30 value="0.000213795725417658" flag="0"/>
		</comp>
		<comp name="--.HNN" depth="0.0">
			<acc value="0.004275488889893" flag="0"/>
			<vel value="0.00159910298244104" flag="0"/>
			<psa03 value="0.00894726784277708" flag="0"/>
			<psa10 value="0.0018117633016759" flag="0"/>
			<psa30 value="0.000218584245758551" flag="0"/>
		</comp>
		<comp name="--.HNZ" depth="0.0">
			<acc value="0.00634199587740291" flag="0"/>
			<vel value="0.00220448654192194" flag="0"/>
			<psa03 value="0.00917141745723253" flag="0"/>
			<psa10 value="0.00211579875503252" flag="0"/>
			<psa30 value="0.000352695942500442" flag="0"/>
		</comp>
	</station>
	<station code="SKDS" name="SKDS" netid="SL" source="Seismic Network of the Republic of Slovenia (SNRS)" insttype="" lat="45.5464" lon="14.0143" esm:processing="manual (Paolucci et al 2011)" esm:quality="good">
		<comp name="--.HNE" depth="0.0">
			<acc value="0.00240142949061877" flag="0"/>
			<vel value="0.000911437314564673" flag="0"/>
			<psa03 value="0.00376425912931864" flag="0"/>
			<psa10 value="0.000651243942497369" flag="0"/>
			<psa30 value="0.000153130313402532" flag="0"/>
		</comp>
		<comp name="--.HNN" depth="0.0">
			<acc value="0.00316557831049872" flag="0"/>
			<vel value="0.00150439699470427" flag="0"/>
			<psa03 value="0.00466557046437888" flag="0"/>
			<psa10 value="0.00132067576954004" flag="0"/>
			<psa30 value="0.000226694053826953" flag="0"/>
		</comp>
		<comp name="--.HNZ" depth="0.0">
			<acc value="0.00191265560973363" flag="0"/>
			<vel value="0.00117640934725684" flag="0"/>
			<psa03 value="0.00391150716502759" flag="0"/>
			<psa10 value="0.00191887027979929" flag="0"/>
			<psa30 value="0.000235449243190321" flag="0"/>
		</comp>
	</station>
	<station code="VISS" name="VISS" netid="SL" source="Seismic Network of the Republic of Slovenia (SNRS)" insttype="" lat="45.8033" lon="14.8393" esm:processing="manual (Paolucci et al 2011)" esm:quality="good">
		<comp name="--.HNE" depth="0.0">
			<acc value="0.00462596855352237" flag="0"/>
			<vel value="0.00297882106004974" flag="0"/>
			<psa03 value="0.0100272801435112" flag="0"/>
			<psa10 value="0.00177835339312405" flag="0"/>
