<stationlist created="1777836294">
	<station code="DPC" name="DPC" netid="CZ" source="Czech Regional Seismic Network (CZ)" insttype="" lat="50.3502" lon="16.3222">
		<comp name="--.HNE" depth="0.0">
			<acc value="0.000244495130658652" flag="0"/>
			<vel value="0.000176223935800426" flag="0"/>
			<psa03 value="0.000480290280415602" flag="0"/>
			<psa10 value="0.000316175593518861" flag="0"/>
			<psa30 value="1.88288693905023e-05" flag="0"/>
		</comp>
		<comp name="--.HNN" depth="0.0">
			<acc value="0.000461713007533108" flag="0"/>
			<vel value="0.00019923358288823" flag="0"/>
			<psa03 value="0.000600700519372781" flag="0"/>
			<psa10 value="0.000292337490924056" flag="0"/>
			<psa30 value="2.73553408029085e-05" flag="0"/>
		</comp>
		<comp name="--.HNZ" depth="0.0">
			<acc value="0.000241083079384977" flag="0"/>
			<vel value="0.000172168510791238" flag="0"/>
			<psa03 value="0.00048532886289488" flag="0"/>
			<psa10 value="0.000313065172624992" flag="0"/>
			<psa30 value="2.14229979445169e-05" flag="0"/>
		</comp>
	</station>
</stationlist>
