<?xml version="1.0" encoding="UTF-8" standalone="yes"?>
<!DOCTYPE earthquake SYSTEM "stationlist.dtd">
<stationlist created="" xmlns="ch.ethz.sed.shakemap.usgs.xml">
  <station code="UPC" name="UPC" netid="CZ" insttype="" commtype="DIG" lat="50.5074" lon="16.0121">
    <comp name="--.HHN">
      <acc value="0.0048626055" flag="0"/>
      <vel value="0.0030434833" flag="0"/>
      <psa03 value="0.0086976995" flag="0"/>
      <psa10 value="0.0037227685" flag="0"/>
      <psa30 value="0.0002326501" flag="0"/>
    </comp>
    <comp name="--.HHE">
      <acc value="0.0035872619" flag="0"/>
      <vel value="0.0022584104" flag="0"/>
      <psa03 value="0.0073285836" flag="0"/>
      <psa10 value="0.0036742558" flag="0"/>
      <psa30 value="0.0001710323" flag="0"/>
    </comp>
    <comp name="--.HHZ">
      <acc value="0.0039339926" flag="0"/>
      <vel value="0.0023496495" flag="0"/>
      <psa03 value="0.0069372443" flag="0"/>
      <psa10 value="0.0021190692" flag="0"/>
      <psa30 value="0.0001384940" flag="0"/>
    </comp>
  </station>
  <station code="KSP" name="KSP" netid="PL" insttype="STS-2/N" commtype="DIG" lat="50.8428" lon="16.2931">
    <comp name="--.HHE">
      <acc value="0.0024369056" flag="0"/>
      <vel value="0.0005899390" flag="0"/>
      <psa03 value="0.0030299285" flag="0"/>
      <psa10 value="0.0005750893" flag="0"/>
      <psa30 value="0.0001939435" flag="0"/>
    </comp>
    <comp name="--.HHZ">
      <acc value="0.0015116368" flag="0"/>
      <vel value="0.0016587399" flag="0"/>
      <psa03 value="0.0029313449" flag="0"/>
      <psa10 value="0.0009284388" flag="0"/>
      <psa30 value="0.0004612870" flag="0"/>
    </comp>
    <comp name="--.HHN">
      <acc value="0.0014574759" flag="0"/>
      <vel value="0.0016434307" flag="0"/>
      <psa03 value="0.0034748896" flag="0"/>
      <psa10 value="0.0010781758" flag="0"/>
      <psa30 value="0.0004563985" flag="0"/>
    </comp>
  </station>
</stationlist>
