<?xml version="1.0" encoding="UTF-8" standalone="yes"?>
<!DOCTYPE earthquake SYSTEM "stationlist.dtd">
<stationlist created="" xmlns="ch.ethz.sed.shakemap.usgs.xml">
  <station code="KARP" name="KARP" netid="GE" insttype="STS-2/N" lat="35.5471" lon="27.1611">
    <comp name="--.HHE">
      <acc value="0.0259071319" flag="0"/>
      <vel value="0.0077038914" flag="0"/>
      <psa03 value="0.0354675334" flag="0"/>
      <psa10 value="0.0076126146" flag="0"/>
      <psa30 value="0.0006892246" flag="0"/>
    </comp>
    <comp name="--.HHZ">
      <acc value="0.0165724852" flag="0"/>
      <vel value="0.0047813486" flag="0"/>
      <psa03 value="0.0213318896" flag="0"/>
      <psa10 value="0.0042341958" flag="0"/>
      <psa30 value="0.0002756229" flag="0"/>
    </comp>
    <comp name="--.HHN">
      <acc value="0.0291981927" flag="0"/>
      <vel value="0.0068720514" flag="0"/>
      <psa03 value="0.0251372832" flag="0"/>
      <psa10 value="0.0090014153" flag="0"/>
      <psa30 value="0.0005253838" flag="0"/>
    </comp>
  </station>
</stationlist>
