<?xml version="1.0" encoding="UTF-8" standalone="yes"?>
<!DOCTYPE earthquake SYSTEM "stationlist.dtd">
<stationlist created="" xmlns="ch.ethz.sed.shakemap.usgs.xml">
  <station code="FAG" name="FAG" netid="VI" source="ODC" insttype="CMG-3T" lat="63.8748" lon="-16.6536">
    <comp name="--.HHZ">
      <acc value="0.0012487424" flag="0"/>
      <vel value="0.0039173709" flag="0"/>
      <psa03 value="0.0034132643" flag="0"/>
      <psa10 value="0.0021172564" flag="0"/>
      <psa30 value="0.0036758507" flag="0"/>
    </comp>
    <comp name="--.HHE">
      <acc value="0.0023697721" flag="0"/>
      <vel value="0.0025094417" flag="0"/>
      <psa03 value="0.0060701948" flag="0"/>
      <psa10 value="0.0025071222" flag="0"/>
      <psa30 value="0.0016869403" flag="0"/>
    </comp>
    <comp name="--.HHN">
      <acc value="0.0013392412" flag="0"/>
      <vel value="0.0036775951" flag="0"/>
      <psa03 value="0.0025800715" flag="0"/>
      <psa10 value="0.0033616737" flag="0"/>
      <psa30 value="0.0028428695" flag="0"/>
    </comp>
  </station>
  <station code="SKR" name="SKR" netid="VI" source="ODC" insttype="LE-3D/5s" lat="64.5601" lon="-18.3865">
    <comp name="--.HHZ">
      <acc value="0.0057624872" flag="0"/>
      <vel value="0.0080979586" flag="0"/>
      <psa03 value="0.0178569310" flag="0"/>
      <psa10 value="0.0073883751" flag="0"/>
      <psa30 value="0.0030519129" flag="0"/>
    </comp>
    <comp name="--.HHN">
      <acc value="0.0047473069" flag="0"/>
      <vel value="0.0090024948" flag="0"/>
      <psa03 value="0.0101452881" flag="0"/>
      <psa10 value="0.0079726559" flag="0"/>
      <psa30 value="0.0070040142" flag="0"/>
    </comp>
    <comp name="--.HHE">
      <acc value="0.0042213683" flag="0"/>
      <vel value="0.0065413007" flag="0"/>
      <psa03 value="0.0096394286" flag="0"/>
      <psa10 value="0.0134178929" flag="0"/>
      <psa30 value="0.0045366449" flag="0"/>
    </comp>
  </station>
</stationlist>
