<?xml version="1.0" encoding="UTF-8" standalone="yes"?>
<!DOCTYPE earthquake SYSTEM "stationlist.dtd">
<stationlist created="" xmlns="ch.ethz.sed.shakemap.usgs.xml">
  <station code="BALB" name="BALB" netid="KO" insttype="CMG-5T" commtype="DIG" lat="39.6507" lon="27.8642">
    <comp name="--.HNN">
      <acc value="0.0956393431" flag="0"/>
      <vel value="0.0293329295" flag="0"/>
      <psa03 value="0.0767831379" flag="0"/>
      <psa10 value="0.0164251538" flag="0"/>
      <psa30 value="0.0009083334" flag="0"/>
    </comp>
    <comp name="--.HNE">
      <acc value="0.0861578043" flag="0"/>
      <vel value="0.0276939741" flag="0"/>
      <psa03 value="0.1289118319" flag="0"/>
      <psa10 value="0.0145602979" flag="0"/>
      <psa30 value="0.0008715792" flag="0"/>
    </comp>
    <comp name="--.HNZ">
      <acc value="0.0507290403" flag="0"/>
      <vel value="0.0127082514" flag="0"/>
      <psa03 value="0.0567766066" flag="0"/>
      <psa10 value="0.0068486371" flag="0"/>
      <psa30 value="0.0005854304" flag="0"/>
    </comp>
  </station>
  <station code="DST" name="DST" netid="KO" insttype="CMG-5T" commtype="DIG" lat="39.6041" lon="28.6267">
    <comp name="--.HNE">
      <acc value="0.0629516842" flag="0"/>
      <vel value="0.0145874727" flag="0"/>
      <psa03 value="0.1078004128" flag="0"/>
      <psa10 value="0.0064083023" flag="0"/>
      <psa30 value="0.0009997834" flag="0"/>
    </comp>
    <comp name="--.HNN">
      <acc value="0.0604199894" flag="0"/>
      <vel value="0.0138645424" flag="0"/>
      <psa03 value="0.0843145476" flag="0"/>
      <psa10 value="0.0061910326" flag="0"/>
      <psa30 value="0.0008927367" flag="0"/>
    </comp>
    <comp name="--.HNZ">
      <acc value="0.0563726778" flag="0"/>
      <vel value="0.0168374936" flag="0"/>
      <psa03 value="0.0902217163" flag="0"/>
      <psa10 value="0.0040930006" flag="0"/>
      <psa30 value="0.0007575016" flag="0"/>
    </comp>
  </station>
  <station code="GOMA" name="GOMA" netid="KO" insttype="CMG-5T" commtype="DIG" lat="38.7077" lon="27.9175">
    <comp name="--.HNE">
      <acc value="0.0713550567" flag="0"/>
      <vel value="0.0441074466" flag="0"/>
      <psa03 value="0.1227474703" flag="0"/>
      <psa10 value="0.0167949940" flag="0"/>
      <psa30 value="0.0014513413" flag="0"/>
    </comp>
    <comp name="--.HNN">
      <acc value="0.0784164650" flag="0"/>
      <vel value="0.0355971351" flag="0"/>
      <psa03 value="0.1806334269" flag="0"/>
      <psa10 value="0.0120803558" flag="0"/>
      <psa30 value="0.0013700050" flag="0"/>
    </comp>
    <comp name="--.HNZ">
      <acc value="0.0744058746" flag="0"/>
      <vel value="0.0221941259" flag="0"/>
      <psa03 value="0.0777251061" flag="0"/>
      <psa10 value="0.0084270846" flag="0"/>
      <psa30 value="0.0009587303" flag="0"/>
    </comp>
  </station>
  <station code="GONE" name="GONE" netid="KO" insttype="CMG-5T" commtype="DIG" lat="40.0466" lon="27.686">
    <comp name="--.HNZ">
      <acc value="0.0167641281" flag="0"/>
      <vel value="0.0051188064" flag="0"/>
      <psa03 value="0.0270080851" flag="0"/>
      <psa10 value="0.0031736763" flag="0"/>
      <psa30 value="0.0003950410" flag="0"/>
    </comp>
    <comp name="--.HNN">
      <acc value="0.0307345746" flag="0"/>
      <vel value="0.0203439949" flag="0"/>
      <psa03 value="0.1000073981" flag="0"/>
      <psa10 value="0.0106394994" flag="0"/>
      <psa30 value="0.0008499711" flag="0"/>
    </comp>
    <comp name="--.HNE">
      <acc value="0.0213075667" flag="0"/>
      <vel value="0.0072759640" flag="0"/>
      <psa03 value="0.0458136065" flag="0"/>
      <psa10 value="0.0052205816" flag="0"/>
      <psa30 value="0.0005570493" flag="0"/>
    </comp>
  </station>
  <station code="GORD" name="GORD" netid="KO" insttype="CMG-5T" commtype="DIG" lat="38.9088" lon="28.1769">
    <comp name="--.HNE">
      <acc value="0.1196182886" flag="0"/>
      <vel value="0.0617306868" flag="0"/>
      <psa03 value="0.1270800070" flag="0"/>
      <psa10 value="0.0946868483" flag="0"/>
      <psa30 value="0.0045907517" flag="0"/>
    </comp>
    <comp name="--.HNZ">
      <acc value="0.1764855037" flag="0"/>
      <vel value="0.0383113089" flag="0"/>
      <psa03 value="0.1592339364" flag="0"/>
      <psa10 value="0.0310351567" flag="0"/>
      <psa30 value="0.0041882450" flag="0"/>
    </comp>
    <comp name="--.HNN">
      <acc value="0.1359122835" flag="0"/>
      <vel value="0.0665974384" flag="0"/>
      <psa03 value="0.1242257429" flag="0"/>
      <psa10 value="0.1056515811" flag="0"/>
      <psa30 value="0.0049055010" flag="0"/>
    </comp>
  </station>
  <station code="KCTX" name="KCTX" netid="KO" insttype="CMG-5T" commtype="DIG" lat="40.2626" lon="28.3353">
    <comp name="--.HNE">
      <acc value="0.0289594296" flag="0"/>
      <vel value="0.0119763300" flag="0"/>
      <psa03 value="0.0698678274" flag="0"/>
      <psa10 value="0.0111376592" flag="0"/>
      <psa30 value="0.0009995232" flag="0"/>
    </comp>
    <comp name="--.HNN">
      <acc value="0.0403416085" flag="0"/>
      <vel value="0.0115073332" flag="0"/>
      <psa03 value="0.0601550181" flag="0"/>
      <psa10 value="0.0051174404" flag="0"/>
      <psa30 value="0.0006664615" flag="0"/>
    </comp>
    <comp name="--.HNZ">
      <acc value="0.0183593192" flag="0"/>
      <vel value="0.0071855966" flag="0"/>
      <psa03 value="0.0420240124" flag="0"/>
      <psa10 value="0.0052894667" flag="0"/>
      <psa30 value="0.0004265028" flag="0"/>
    </comp>
  </station>
  <station code="ORLT" name="ORLT" netid="KO" insttype="CMG-5T" commtype="DIG" lat="40.0452" lon="28.8914">
    <comp name="--.HNN">
      <acc value="0.0753639641" flag="0"/>
      <vel value="0.0394569973" flag="0"/>
      <psa03 value="0.2828088917" flag="0"/>
      <psa10 value="0.0414211974" flag="0"/>
      <psa30 value="0.0025243683" flag="0"/>
    </comp>
    <comp name="--.HNZ">
      <acc value="0.0271319140" flag="0"/>
      <vel value="0.0134802553" flag="0"/>
      <psa03 value="0.0739587458" flag="0"/>
      <psa10 value="0.0180110636" flag="0"/>
      <psa30 value="0.0012145987" flag="0"/>
    </comp>
    <comp name="--.HNE">
      <acc value="0.0592303400" flag="0"/>
      <vel value="0.0309789823" flag="0"/>
      <psa03 value="0.1485142397" flag="0"/>
      <psa10 value="0.0263601000" flag="0"/>
      <psa30 value="0.0011801191" flag="0"/>
    </comp>
  </station>
  <station code="SHAP" name="SHAP" netid="KO" insttype="CMG-5T" commtype="DIG" lat="39.0231" lon="29.222">
    <comp name="--.HNZ">
      <acc value="0.1157516179" flag="0"/>
      <vel value="0.0287730100" flag="0"/>
      <psa03 value="0.0819536191" flag="0"/>
      <psa10 value="0.0090419378" flag="0"/>
      <psa30 value="0.0007238276" flag="0"/>
    </comp>
    <comp name="--.HNN">
      <acc value="0.1699106793" flag="0"/>
      <vel value="0.0460619220" flag="0"/>
      <psa03 value="0.2323541227" flag="0"/>
      <psa10 value="0.0149824809" flag="0"/>
      <psa30 value="0.0010213031" flag="0"/>
    </comp>
    <comp name="--.HNE">
      <acc value="0.1709968449" flag="0"/>
      <vel value="0.0375801985" flag="0"/>
      <psa03 value="0.3126488487" flag="0"/>
      <psa10 value="0.0163921291" flag="0"/>
      <psa30 value="0.0008546144" flag="0"/>
    </comp>
  </station>
  <station code="SMAA" name="SMAA" netid="KO" insttype="CMG-5T" commtype="DIG" lat="39.1005" lon="28.9805">
    <comp name="--.HNE">
      <acc value="0.1341675470" flag="0"/>
      <vel value="0.0675566056" flag="0"/>
      <psa03 value="0.2757879074" flag="0"/>
      <psa10 value="0.0767049931" flag="0"/>
      <psa30 value="0.0048151758" flag="0"/>
    </comp>
    <comp name="--.HNN">
      <acc value="0.1212635885" flag="0"/>
      <vel value="0.0640918312" flag="0"/>
      <psa03 value="0.3813603876" flag="0"/>
      <psa10 value="0.0627971168" flag="0"/>
      <psa30 value="0.0046098048" flag="0"/>
    </comp>
    <comp name="--.HNZ">
      <acc value="0.0848843494" flag="0"/>
      <vel value="0.0228241382" flag="0"/>
      <psa03 value="0.0464212320" flag="0"/>
      <psa10 value="0.0417905216" flag="0"/>
      <psa30 value="0.0019108563" flag="0"/>
    </comp>
  </station>
  <station code="SOMA" name="SOMA" netid="KO" insttype="CMG-5T" commtype="DIG" lat="39.1564" lon="27.5341">
    <comp name="--.HNE">
      <acc value="0.0906495470" flag="0"/>
      <vel value="0.0290769302" flag="0"/>
      <psa03 value="0.2700114473" flag="0"/>
      <psa10 value="0.0073148608" flag="0"/>
      <psa30 value="0.0008488920" flag="0"/>
    </comp>
    <comp name="--.HNZ">
      <acc value="0.0454450200" flag="0"/>
      <vel value="0.0167206493" flag="0"/>
      <psa03 value="0.1120100203" flag="0"/>
      <psa10 value="0.0075015116" flag="0"/>
      <psa30 value="0.0005510399" flag="0"/>
    </comp>
    <comp name="--.HNN">
      <acc value="0.0954035033" flag="0"/>
      <vel value="0.0340439207" flag="0"/>
      <psa03 value="0.2592448266" flag="0"/>
      <psa10 value="0.0192108443" flag="0"/>
      <psa30 value="0.0011566941" flag="0"/>
    </comp>
  </station>
  <station code="SUSR" name="SUSR" netid="KO" insttype="CMG-5T" commtype="DIG" lat="39.9627" lon="28.0835">
    <comp name="--.HNN">
      <acc value="0.0475777636" flag="0"/>
      <vel value="0.0122801711" flag="0"/>
      <psa03 value="0.0725435636" flag="0"/>
      <psa10 value="0.0035840831" flag="0"/>
      <psa30 value="0.0002941400" flag="0"/>
    </comp>
    <comp name="--.HNE">
      <acc value="0.0449524029" flag="0"/>
      <vel value="0.0131512209" flag="0"/>
      <psa03 value="0.0782066975" flag="0"/>
      <psa10 value="0.0042935210" flag="0"/>
      <psa30 value="0.0004247131" flag="0"/>
    </comp>
    <comp name="--.HNZ">
      <acc value="0.0483560320" flag="0"/>
      <vel value="0.0120078112" flag="0"/>
      <psa03 value="0.0557601147" flag="0"/>
      <psa10 value="0.0028184737" flag="0"/>
      <psa30 value="0.0002766059" flag="0"/>
    </comp>
  </station>
  <station code="YENI" name="YENI" netid="KO" insttype="CMG-5T" commtype="DIG" lat="39.9364" lon="27.2422">
    <comp name="--.HNE">
      <acc value="0.0287772436" flag="0"/>
      <vel value="0.0125829007" flag="0"/>
      <psa03 value="0.0534119752" flag="0"/>
      <psa10 value="0.0104112003" flag="0"/>
      <psa30 value="0.0007447151" flag="0"/>
    </comp>
    <comp name="--.HNN">
      <acc value="0.0567671925" flag="0"/>
      <vel value="0.0225399811" flag="0"/>
      <psa03 value="0.1077354121" flag="0"/>
      <psa10 value="0.0094273247" flag="0"/>
      <psa30 value="0.0005932184" flag="0"/>
    </comp>
    <comp name="--.HNZ">
      <acc value="0.0201126281" flag="0"/>
      <vel value="0.0060314612" flag="0"/>
      <psa03 value="0.0272454844" flag="0"/>
      <psa10 value="0.0021438840" flag="0"/>
      <psa30 value="0.0004479701" flag="0"/>
    </comp>
  </station>
</stationlist>
