<stationlist xmlns:esm="https://esm-db.eu/esmws/shakemap/1/" created="1781229284">
	<station code="ARK1" name="ARK1" netid="HI" source="ITSAK Strong Motion Network" insttype="" lat="35.148777" lon="25.264194" esm:processing="manual (Paolucci et al 2011)" esm:quality="good">
		<comp name="--.HNE" depth="0.0">
			<acc value="0.0154187378491315" flag="0"/>
			<vel value="0.0136555021220786" flag="0"/>
			<psa03 value="0.0677406385265152" flag="0"/>
			<psa10 value="0.015477631567131" flag="0"/>
			<psa30 value="0.00138966257915909" flag="0"/>
		</comp>
		<comp name="--.HNN" depth="0.0">
			<acc value="0.01894418893384" flag="0"/>
			<vel value="0.0146250539194803" flag="0"/>
			<psa03 value="0.0574913814385339" flag="0"/>
			<psa10 value="0.0217730667338144" flag="0"/>
			<psa30 value="0.00141432942154967" flag="0"/>
		</comp>
		<comp name="--.HNZ" depth="0.0">
			<acc value="0.00917446380342728" flag="0"/>
			<vel value="0.00681216362687347" flag="0"/>
			<psa03 value="0.0255085830476039" flag="0"/>
			<psa10 value="0.0141380062610291" flag="0"/>
			<psa30 value="0.000936571418260005" flag="0"/>
		</comp>
	</station>
	<station code="CH01" name="CH01" netid="HI" source="ITSAK Strong Motion Network" insttype="" lat="35.517" lon="24.0208" esm:processing="manual (Paolucci et al 2011)" esm:quality="best">
		<comp name="--.HNE" depth="0.0">
			<acc value="0.0448709957193782" flag="0"/>
			<vel value="0.0539299056258617" flag="0"/>
			<psa03 value="0.137805996384277" flag="0"/>
			<psa10 value="0.0832701681593317" flag="0"/>
			<psa30 value="0.00291808671564368" flag="0"/>
		</comp>
		<comp name="--.HNN" depth="0.0">
			<acc value="0.0486065472151388" flag="0"/>
			<vel value="0.0308600700923679" flag="0"/>
			<psa03 value="0.210512082138969" flag="0"/>
			<psa10 value="0.0473229370960137" flag="0"/>
			<psa30 value="0.00242771213110743" flag="0"/>
		</comp>
		<comp name="--.HNZ" depth="0.0">
			<acc value="0.0426108766742111" flag="0"/>
			<vel value="0.025669643385676" flag="0"/>
			<psa03 value="0.109349952975056" flag="0"/>
			<psa10 value="0.0422290368725234" flag="0"/>
			<psa30 value="0.00173689246092131" flag="0"/>
		</comp>
	</station>
	<station code="GOR1" name="GOR1" netid="HI" source="ITSAK Strong Motion Network" insttype="" lat="35.0582" lon="24.9628" esm:processing="manual (Paolucci et al 2011)" esm:quality="good">
		<comp name="--.HNE" depth="0.0">
			<acc value="0.023149132890702" flag="0"/>
			<vel value="0.0234675912250348" flag="0"/>
			<psa03 value="0.0905226425141378" flag="0"/>
			<psa10 value="0.0469980196381467" flag="0"/>
			<psa30 value="0.00259643658451441" flag="0"/>
		</comp>
		<comp name="--.HNN" depth="0.0">
			<acc value="0.0251417153181626" flag="0"/>
			<vel value="0.0234805527231673" flag="0"/>
			<psa03 value="0.0843179762771172" flag="0"/>
			<psa10 value="0.0476414385114893" flag="0"/>
			<psa30 value="0.00312101925220829" flag="0"/>
		</comp>
		<comp name="--.HNZ" depth="0.0">
			<acc value="0.0213459587152719" flag="0"/>
			<vel value="0.0208377961708214" flag="0"/>
			<psa03 value="0.0563224550445638" flag="0"/>
			<psa10 value="0.0267950319143611" flag="0"/>
			<psa30 value="0.00135752388762851" flag="0"/>
		</comp>
	</station>
	<station code="HER1" name="HER1" netid="HI" source="ITSAK Strong Motion Network" insttype="" lat="35.317672" lon="25.10217" esm:processing="manual (Paolucci et al 2011)" esm:quality="good">
		<comp name="--.HNE" depth="0.0">
			<acc value="0.0339667853260343" flag="0"/>
			<vel value="0.0361672788295411" flag="0"/>
			<psa03 value="0.108974573197322" flag="0"/>
			<psa10 value="0.078014573082591" flag="0"/>
			<psa30 value="0.00451570956026308" flag="0"/>
		</comp>
		<comp name="--.HNN" depth="0.0">
			<acc value="0.0336723893264699" flag="0"/>
			<vel value="0.0309621367325281" flag="0"/>
			<psa03 value="0.0683866604889664" flag="0"/>
			<psa10 value="0.0614027988840767" flag="0"/>
			<psa30 value="0.00314674908168322" flag="0"/>
		</comp>
		<comp name="--.HNZ" depth="0.0">
			<acc value="0.0357773362749898" flag="0"/>
			<vel value="0.0357160111281433" flag="0"/>
			<psa03 value="0.0697011486090198" flag="0"/>
			<psa10 value="0.046244707234897" flag="0"/>
			<psa30 value="0.00192424372170286" flag="0"/>
		</comp>
	</station>
	<station code="HER2" name="HER2" netid="HI" source="ITSAK Strong Motion Network" insttype="" lat="35.337866" lon="25.135624" esm:processing="manual (Paolucci et al 2011)" esm:quality="good">
		<comp name="--.HNE" depth="0.0">
			<acc value="0.0258064496169763" flag="0"/>
			<vel value="0.0202977704909735" flag="0"/>
			<psa03 value="0.0672695812796178" flag="0"/>
			<psa10 value="0.0304580083185709" flag="0"/>
			<psa30 value="0.00118945389964998" flag="0"/>
		</comp>
		<comp name="--.HNN" depth="0.0">
			<acc value="0.0222665721852626" flag="0"/>
			<vel value="0.0165526929921834" flag="0"/>
			<psa03 value="0.0751089599749827" flag="0"/>
			<psa10 value="0.025370387538663" flag="0"/>
			<psa30 value="0.001300538445956" flag="0"/>
		</comp>
		<comp name="--.HNZ" depth="0.0">
			<acc value="0.0175417088805358" flag="0"/>
			<vel value="0.0111345323939407" flag="0"/>
			<psa03 value="0.0505143723709245" flag="0"/>
			<psa10 value="0.00909431120348466" flag="0"/>
			<psa30 value="0.000530589992733018" flag="0"/>
		</comp>
	</station>
	<station code="RTH1" name="RTH1" netid="HI" source="ITSAK Strong Motion Network" insttype="" lat="35.365393" lon="24.471773" esm:processing="automatic (Paolucci et al 2011)" esm:quality="best">
		<comp name="--.HNE" depth="0.0">
			<acc value="0.0445953525043971" flag="0"/>
			<vel value="0.0323589171266303" flag="0"/>
			<psa03 value="0.124216270384958" flag="0"/>
			<psa10 value="0.0274166037154424" flag="0"/>
			<psa30 value="0.0018271487479707" flag="0"/>
		</comp>
		<comp name="--.HNN" depth="0.0">
			<acc value="0.0414700221770861" flag="0"/>
			<vel value="0.0241673190396706" flag="0"/>
			<psa03 value="0.119513385925276" flag="0"/>
			<psa10 value="0.0127168346153823" flag="0"/>
			<psa30 value="0.00109295188186491" flag="0"/>
		</comp>
		<comp name="--.HNZ" depth="0.0">
			<acc value="0.0203929905407717" flag="0"/>
			<vel value="0.00913437290447301" flag="0"/>
			<psa03 value="0.0455981612794006" flag="0"/>
			<psa10 value="0.00907271164762009" flag="0"/>
			<psa30 value="0.000505075385848864" flag="0"/>
		</comp>
	</station>
	<station code="IACM" name="IACM" netid="HL" source="National Observatory of Athens Seismic Network" insttype="" lat="35.3058" lon="25.0709" esm:processing="manual (Paolucci et al 2011)" esm:quality="good">
		<comp name="--.HNE" depth="0.0">
			<acc value="0.0425880913126925" flag="0"/>
			<vel value="0.0426904957909415" flag="0"/>
			<psa03 value="0.128857555060623" flag="0"/>
			<psa10 value="0.067332099317771" flag="0"/>
			<psa30 value="0.00257357172468299" flag="0"/>
		</comp>
		<comp name="--.HNN" depth="0.0">
			<acc value="0.061923783610627" flag="0"/>
			<vel value="0.0424145436641837" flag="0"/>
			<psa03 value="0.186530259391575" flag="0"/>
			<psa10 value="0.0498839810028435" flag="0"/>
			<psa30 value="0.00317088018303692" flag="0"/>
		</comp>
		<comp name="--.HNZ" depth="0.0">
			<acc value="0.0346664012487325" flag="0"/>
			<vel value="0.0228719175788383" flag="0"/>
			<psa03 value="0.11055799255375" flag="0"/>
			<psa10 value="0.028155375780746" flag="0"/>
			<psa30 value="0.00132750127036412" flag="0"/>
		</comp>
	</station>
</stationlist>
