<?xml version="1.0" encoding="UTF-8" standalone="yes"?>
<!DOCTYPE earthquake SYSTEM "stationlist.dtd">
<stationlist created="" xmlns="ch.ethz.sed.shakemap.usgs.xml">
  <station code="GVD" name="GVD" netid="GE" source="GFZ" insttype="STS-2/N" lat="34.8391" lon="24.0874">
    <comp name="--.HHE">
      <acc value="0.2320993325" flag="0"/>
      <vel value="0.1453488196" flag="0"/>
      <psa03 value="0.5623613867" flag="0"/>
      <psa10 value="0.0897734345" flag="0"/>
      <psa30 value="0.0063729632" flag="0"/>
    </comp>
    <comp name="--.HHN">
      <acc value="0.2757222377" flag="0"/>
      <vel value="0.1129197806" flag="0"/>
      <psa03 value="0.5722933677" flag="0"/>
      <psa10 value="0.0962228779" flag="0"/>
      <psa30 value="0.0069998096" flag="0"/>
    </comp>
    <comp name="--.HHZ">
      <acc value="0.2119684179" flag="0"/>
      <vel value="0.0651718196" flag="0"/>
      <psa03 value="0.2529684948" flag="0"/>
      <psa10 value="0.0231491417" flag="0"/>
      <psa30 value="0.0015887052" flag="0"/>
    </comp>
  </station>
  <station code="CHAN" name="CHAN" netid="HC" source="NOA" insttype="120" lat="35.5193" lon="24.0428">
    <comp name="--.HHE">
      <acc value="0.0802402166" flag="0"/>
      <vel value="0.0602194431" flag="0"/>
      <psa03 value="0.3945407462" flag="0"/>
      <psa10 value="0.1252811365" flag="0"/>
      <psa30 value="0.0045195155" flag="0"/>
    </comp>
    <comp name="--.HHN">
      <acc value="0.0852390691" flag="0"/>
      <vel value="0.0666614595" flag="0"/>
      <psa03 value="0.2209848891" flag="0"/>
      <psa10 value="0.1264630773" flag="0"/>
      <psa30 value="0.0048412334" flag="0"/>
    </comp>
    <comp name="--.HHZ">
      <acc value="0.0704102135" flag="0"/>
      <vel value="0.0462884749" flag="0"/>
      <psa03 value="0.2310332455" flag="0"/>
      <psa10 value="0.0287508896" flag="0"/>
      <psa30 value="0.0021100416" flag="0"/>
    </comp>
  </station>
  <station code="PRNS" name="PRNS" netid="HC" source="NOA" insttype="120" lat="35.3445" lon="24.4266">
    <comp name="--.HHE">
      <acc value="0.0791101533" flag="0"/>
      <vel value="0.0559320864" flag="0"/>
      <psa03 value="0.2467344345" flag="0"/>
      <psa10 value="0.0717054871" flag="0"/>
      <psa30 value="0.0050336594" flag="0"/>
    </comp>
    <comp name="--.HHN">
      <acc value="0.0000000000" flag="0"/>
      <vel value="-100.0000000000" flag="0"/>
      <psa03 value="0.0000000000" flag="0"/>
      <psa10 value="0.0000000000" flag="0"/>
      <psa30 value="0.0000000000" flag="0"/>
    </comp>
    <comp name="--.HHZ">
      <acc value="0.0577309241" flag="0"/>
      <vel value="0.0333391355" flag="0"/>
      <psa03 value="0.1486237069" flag="0"/>
      <psa10 value="0.0392744327" flag="0"/>
      <psa30 value="0.0017740252" flag="0"/>
    </comp>
  </station>
  <station code="TMBK" name="TMBK" netid="HC" source="NOA" insttype="120" lat="35.0724" lon="24.7662">
    <comp name="--.HHE">
      <acc value="0.2068820512" flag="0"/>
      <vel value="0.1319587859" flag="0"/>
      <psa03 value="0.6162562853" flag="0"/>
      <psa10 value="0.1078836766" flag="0"/>
      <psa30 value="0.0127229525" flag="0"/>
    </comp>
    <comp name="--.HHN">
      <acc value="0.0000000000" flag="0"/>
      <vel value="-100.0000000000" flag="0"/>
      <psa03 value="0.0000000000" flag="0"/>
      <psa10 value="0.0000000000" flag="0"/>
      <psa30 value="0.0000000000" flag="0"/>
    </comp>
    <comp name="--.HHZ">
      <acc value="0.0818889461" flag="0"/>
      <vel value="0.0507532780" flag="0"/>
      <psa03 value="0.1791676100" flag="0"/>
      <psa10 value="0.0817140458" flag="0"/>
      <psa30 value="0.0050424505" flag="0"/>
    </comp>
  </station>
  <station code="CH01" name="CH01" netid="HI" source="NOA" insttype="CMG-5TD,ACCELEROMETER,GURALP" lat="35.517" lon="24.0208">
    <comp name="--.HNE">
      <acc value="0.0449661201" flag="0"/>
      <vel value="0.0536302856" flag="0"/>
      <psa03 value="0.1405164339" flag="0"/>
      <psa10 value="0.0833267205" flag="0"/>
      <psa30 value="0.0027971139" flag="0"/>
    </comp>
    <comp name="--.HNN">
      <acc value="0.0489029456" flag="0"/>
      <vel value="0.0308057324" flag="0"/>
      <psa03 value="0.2097480298" flag="0"/>
      <psa10 value="0.0473642299" flag="0"/>
      <psa30 value="0.0024110856" flag="0"/>
    </comp>
    <comp name="--.HNZ">
      <acc value="0.0426881561" flag="0"/>
      <vel value="0.0255120670" flag="0"/>
      <psa03 value="0.1078155869" flag="0"/>
      <psa10 value="0.0421807580" flag="0"/>
      <psa30 value="0.0016958944" flag="0"/>
    </comp>
  </station>
  <station code="GVD" name="GVD" netid="HL" source="NOA" insttype="120" lat="34.8391" lon="24.0874">
    <comp name="--.HHE">
      <acc value="0.2302429494" flag="0"/>
      <vel value="0.1433766278" flag="0"/>
      <psa03 value="0.5474094003" flag="0"/>
      <psa10 value="0.0885437998" flag="0"/>
      <psa30 value="0.0063032545" flag="0"/>
    </comp>
    <comp name="--.HHN">
      <acc value="0.2690653486" flag="0"/>
      <vel value="0.1095581916" flag="0"/>
      <psa03 value="0.5566740302" flag="0"/>
      <psa10 value="0.0954120358" flag="0"/>
      <psa30 value="0.0069434153" flag="0"/>
    </comp>
    <comp name="--.HHZ">
      <acc value="0.2062331683" flag="0"/>
      <vel value="0.0635314875" flag="0"/>
      <psa03 value="0.2446921108" flag="0"/>
      <psa10 value="0.0228606297" flag="0"/>
      <psa30 value="0.0015608857" flag="0"/>
    </comp>
  </station>
  <station code="IDI" name="IDI" netid="HL" source="NOA" insttype="120" lat="35.288" lon="24.89">
    <comp name="--.HHE">
      <acc value="0.0111655789" flag="0"/>
      <vel value="0.0083064923" flag="0"/>
      <psa03 value="0.0329847039" flag="0"/>
      <psa10 value="0.0100079124" flag="0"/>
      <psa30 value="0.0008058190" flag="0"/>
    </comp>
    <comp name="--.HHN">
      <acc value="0.0121640687" flag="0"/>
      <vel value="0.0110257049" flag="0"/>
      <psa03 value="0.0363665483" flag="0"/>
      <psa10 value="0.0116717152" flag="0"/>
      <psa30 value="0.0013558734" flag="0"/>
    </comp>
    <comp name="--.HHZ">
      <acc value="0.0094886032" flag="0"/>
      <vel value="0.0062946088" flag="0"/>
      <psa03 value="0.0279234504" flag="0"/>
      <psa10 value="0.0058389002" flag="0"/>
      <psa30 value="0.0005258809" flag="0"/>
    </comp>
  </station>
  <station code="IDI" name="IDI" netid="MN" source="INGV" insttype="" lat="35.288" lon="24.89">
    <comp name="--.HHE">
      <acc value="0.0113993327" flag="0"/>
      <vel value="0.0083024589" flag="0"/>
      <psa03 value="0.0333648048" flag="0"/>
      <psa10 value="0.0099406475" flag="0"/>
      <psa30 value="0.0007973125" flag="0"/>
    </comp>
    <comp name="--.HHN">
      <acc value="0.0121932283" flag="0"/>
      <vel value="0.0110617245" flag="0"/>
      <psa03 value="0.0367835117" flag="0"/>
      <psa10 value="0.0115888261" flag="0"/>
      <psa30 value="0.0013423927" flag="0"/>
    </comp>
    <comp name="--.HHZ">
      <acc value="0.0099343260" flag="0"/>
      <vel value="0.0063331364" flag="0"/>
      <psa03 value="0.0283345569" flag="0"/>
      <psa10 value="0.0058003580" flag="0"/>
      <psa30 value="0.0005208108" flag="0"/>
    </comp>
  </station>
</stationlist>
