<?xml version="1.0" encoding="UTF-8" standalone="yes"?>
<!DOCTYPE earthquake SYSTEM "stationlist.dtd">
<stationlist created="" xmlns="ch.ethz.sed.shakemap.usgs.xml">
  <station code="KARS" name="KARS" netid="KO" insttype="120s," lat="40.6152" lon="43.0937">
    <comp name="--.HHZ">
      <acc value="0.0453254972" flag="0"/>
      <vel value="0.0370905756" flag="0"/>
      <psa03 value="0.1541730539" flag="0"/>
      <psa10 value="0.0900729231" flag="0"/>
      <psa30 value="0.0061251171" flag="0"/>
    </comp>
    <comp name="--.HHE">
      <acc value="0.1336641299" flag="0"/>
      <vel value="0.0789786910" flag="0"/>
      <psa03 value="0.2078751183" flag="0"/>
      <psa10 value="0.0682054930" flag="0"/>
      <psa30 value="0.0097008674" flag="0"/>
    </comp>
    <comp name="--.HHN">
      <acc value="0.1113500800" flag="0"/>
      <vel value="0.0454331021" flag="0"/>
      <psa03 value="0.2110478996" flag="0"/>
      <psa10 value="0.0460309323" flag="0"/>
      <psa30 value="0.0122090978" flag="0"/>
    </comp>
  </station>
</stationlist>
