<?xml version="1.0" encoding="UTF-8" standalone="yes"?>
<!DOCTYPE earthquake SYSTEM "stationlist.dtd">
<stationlist created="" xmlns="ch.ethz.sed.shakemap.usgs.xml">
  <station code="DARE" name="DARE" netid="KO" insttype="CMG-3ESP" lat="38.5712" lon="37.4832">
    <comp name="--.HHE">
      <acc value="0.0195876449" flag="0"/>
      <vel value="0.0077425043" flag="0"/>
      <psa03 value="0.0434733384" flag="0"/>
      <psa10 value="0.0111691470" flag="0"/>
      <psa30 value="0.0007792985" flag="0"/>
    </comp>
    <comp name="--.HHN">
      <acc value="0.0215252162" flag="0"/>
      <vel value="0.0065093669" flag="0"/>
      <psa03 value="0.0324033574" flag="0"/>
      <psa10 value="0.0064664552" flag="0"/>
      <psa30 value="0.0008245908" flag="0"/>
    </comp>
    <comp name="--.HHZ">
      <acc value="0.0172550634" flag="0"/>
      <vel value="0.0073153692" flag="0"/>
      <psa03 value="0.0413575050" flag="0"/>
      <psa10 value="0.0064629056" flag="0"/>
      <psa30 value="0.0007512362" flag="0"/>
    </comp>
  </station>
  <station code="KMRS" name="KMRS" netid="KO" insttype="CMG-3T" lat="37.5053" lon="36.9">
    <comp name="--.HHE">
      <acc value="0.0264337306" flag="0"/>
      <vel value="0.0116633166" flag="0"/>
      <psa03 value="0.0408998005" flag="0"/>
      <psa10 value="0.0088472828" flag="0"/>
      <psa30 value="0.0011228362" flag="0"/>
    </comp>
    <comp name="--.HHN">
      <acc value="0.0314881281" flag="0"/>
      <vel value="0.0122846095" flag="0"/>
      <psa03 value="0.0474743361" flag="0"/>
      <psa10 value="0.0213243492" flag="0"/>
      <psa30 value="0.0012854452" flag="0"/>
    </comp>
    <comp name="--.HHZ">
      <acc value="0.0161935926" flag="0"/>
      <vel value="0.0089140767" flag="0"/>
      <psa03 value="0.0470297467" flag="0"/>
      <psa10 value="0.0063157837" flag="0"/>
      <psa30 value="0.0008859634" flag="0"/>
    </comp>
  </station>
  <station code="SARI" name="SARI" netid="KO" insttype="CMG-3T" lat="38.4072" lon="36.4181">
    <comp name="--.HHZ">
      <acc value="0.0276446261" flag="0"/>
      <vel value="0.0093763056" flag="0"/>
      <psa03 value="0.0366444205" flag="0"/>
      <psa10 value="0.0126420493" flag="0"/>
      <psa30 value="0.0008394205" flag="0"/>
    </comp>
    <comp name="--.HHN">
      <acc value="0.0362243438" flag="0"/>
      <vel value="0.0105185933" flag="0"/>
      <psa03 value="0.0478090566" flag="0"/>
      <psa10 value="0.0144943065" flag="0"/>
      <psa30 value="0.0009678796" flag="0"/>
    </comp>
  </station>
  <station code="ANDN" name="ANDN" netid="TU" insttype="T" lat="37.58" lon="36.3452">
    <comp name="--.HHE">
      <acc value="0.0794210486" flag="0"/>
      <vel value="0.0242222939" flag="0"/>
      <psa03 value="0.1648405406" flag="0"/>
      <psa10 value="0.0181772554" flag="0"/>
      <psa30 value="0.0018639267" flag="0"/>
    </comp>
    <comp name="--.HHN">
      <acc value="0.1004546337" flag="0"/>
      <vel value="0.0414823239" flag="0"/>
      <psa03 value="0.1531223772" flag="0"/>
      <psa10 value="0.0478820437" flag="0"/>
      <psa30 value="0.0037242063" flag="0"/>
    </comp>
    <comp name="--.HHZ">
      <acc value="0.0536264366" flag="0"/>
      <vel value="0.0229249427" flag="0"/>
      <psa03 value="0.1031958687" flag="0"/>
      <psa10 value="0.0289934078" flag="0"/>
      <psa30 value="0.0015298669" flag="0"/>
    </comp>
  </station>
</stationlist>
