<?xml version="1.0" encoding="UTF-8" standalone="yes"?>
<!DOCTYPE earthquake SYSTEM "stationlist.dtd">
<stationlist created="" xmlns="ch.ethz.sed.shakemap.usgs.xml">
  <station code="APE" name="APE" netid="GE" insttype="STS-2/N" lat="37.0727" lon="25.523">
    <comp name="--.HHN">
      <acc value="0.1632275229" flag="0"/>
      <vel value="0.0391488747" flag="0"/>
      <psa03 value="0.1333361178" flag="0"/>
      <psa10 value="0.0097993290" flag="0"/>
      <psa30 value="0.0009878609" flag="0"/>
    </comp>
    <comp name="--.HHE">
      <acc value="0.1349334159" flag="0"/>
      <vel value="0.0272025099" flag="0"/>
      <psa03 value="0.1271301025" flag="0"/>
      <psa10 value="0.0080899419" flag="0"/>
      <psa30 value="0.0019918491" flag="0"/>
    </comp>
    <comp name="--.HHZ">
      <acc value="0.0789716993" flag="0"/>
      <vel value="0.0123823338" flag="0"/>
      <psa03 value="0.0662321002" flag="0"/>
      <psa10 value="0.0057865445" flag="0"/>
      <psa30 value="0.0007668371" flag="0"/>
    </comp>
  </station>
  <station code="THERA" name="THERA" netid="GE" insttype="STS-2/N" lat="36.367" lon="25.4753">
    <comp name="--.HHE">
      <acc value="0.2327977097" flag="0"/>
      <vel value="0.0527679006" flag="0"/>
      <psa03 value="0.2014371055" flag="0"/>
      <psa10 value="0.0277589480" flag="0"/>
      <psa30 value="0.0033664749" flag="0"/>
    </comp>
    <comp name="--.HHN">
      <acc value="0.1705193726" flag="0"/>
      <vel value="0.0288682734" flag="0"/>
      <psa03 value="0.1310778966" flag="0"/>
      <psa10 value="0.0206718124" flag="0"/>
      <psa30 value="0.0013214312" flag="0"/>
    </comp>
    <comp name="--.HHZ">
      <acc value="0.2029482173" flag="0"/>
      <vel value="0.0464523683" flag="0"/>
      <psa03 value="0.1369396519" flag="0"/>
      <psa10 value="0.0184068531" flag="0"/>
      <psa30 value="0.0021511098" flag="0"/>
    </comp>
  </station>
  <station code="SNT1" name="SNT1" netid="HA" insttype="30" lat="36.4159" lon="25.4282">
    <comp name="--.HHN">
      <acc value="0.1571089724" flag="0"/>
      <vel value="0.0756981801" flag="0"/>
      <psa03 value="0.2477699377" flag="0"/>
      <psa10 value="0.0758624904" flag="0"/>
      <psa30 value="0.0053514027" flag="0"/>
    </comp>
    <comp name="--.HHZ">
      <acc value="0.1232613866" flag="0"/>
      <vel value="0.0347590013" flag="0"/>
      <psa03 value="0.1346288833" flag="0"/>
      <psa10 value="0.0367775615" flag="0"/>
      <psa30 value="0.0025232625" flag="0"/>
    </comp>
    <comp name="--.HHE">
      <acc value="0.1694891111" flag="0"/>
      <vel value="0.0413486288" flag="0"/>
      <psa03 value="0.1448400107" flag="0"/>
      <psa10 value="0.0438797233" flag="0"/>
      <psa30 value="0.0064061704" flag="0"/>
    </comp>
  </station>
  <station code="APE" name="APE" netid="HL" insttype="120" lat="37.0727" lon="25.523">
    <comp name="--.HHZ">
      <acc value="0.0730940349" flag="0"/>
      <vel value="0.0119484574" flag="0"/>
      <psa03 value="0.0640358470" flag="0"/>
      <psa10 value="0.0057234026" flag="0"/>
      <psa30 value="0.0007631836" flag="0"/>
    </comp>
    <comp name="--.HHE">
      <acc value="0.1229409225" flag="0"/>
      <vel value="0.0259898987" flag="0"/>
      <psa03 value="0.1230566627" flag="0"/>
      <psa10 value="0.0079260020" flag="0"/>
      <psa30 value="0.0019844867" flag="0"/>
    </comp>
    <comp name="--.HHN">
      <acc value="0.1536113419" flag="0"/>
      <vel value="0.0372089393" flag="0"/>
      <psa03 value="0.1294240153" flag="0"/>
      <psa10 value="0.0097234351" flag="0"/>
      <psa30 value="0.0009827724" flag="0"/>
    </comp>
  </station>
  <station code="MHLO" name="MHLO" netid="HL" insttype="20" lat="36.6898" lon="24.4017">
    <comp name="--.HHE">
      <acc value="0.1119694098" flag="0"/>
      <vel value="0.0449995342" flag="0"/>
      <psa03 value="0.3664908935" flag="0"/>
      <psa10 value="0.0298493500" flag="0"/>
      <psa30 value="0.0023589691" flag="0"/>
    </comp>
    <comp name="--.HHN">
      <acc value="0.1079985580" flag="0"/>
      <vel value="0.0454674868" flag="0"/>
      <psa03 value="0.5067851168" flag="0"/>
      <psa10 value="0.0437057098" flag="0"/>
      <psa30 value="0.0029859599" flag="0"/>
    </comp>
    <comp name="--.HHZ">
      <acc value="0.0503604196" flag="0"/>
      <vel value="0.0197782484" flag="0"/>
      <psa03 value="0.1656512889" flag="0"/>
      <psa10 value="0.0147878429" flag="0"/>
      <psa30 value="0.0018047573" flag="0"/>
    </comp>
  </station>
  <station code="SAP3" name="SAP3" netid="HL" insttype="LE3D20_SMART24" lat="36.4356" lon="25.3454">
    <comp name="--.HHE">
      <acc value="0.6026746695" flag="0"/>
      <vel value="0.1957908831" flag="0"/>
      <psa03 value="0.7642684290" flag="0"/>
      <psa10 value="0.1501833057" flag="0"/>
      <psa30 value="0.0208962151" flag="0"/>
    </comp>
    <comp name="--.HHZ">
      <acc value="0.5359718652" flag="0"/>
      <vel value="0.1136151682" flag="0"/>
      <psa03 value="0.3980984921" flag="0"/>
      <psa10 value="0.0537856354" flag="0"/>
      <psa30 value="0.0062014516" flag="0"/>
    </comp>
    <comp name="--.HHN">
      <acc value="0.7336383581" flag="0"/>
      <vel value="0.1832050874" flag="0"/>
      <psa03 value="0.7531512329" flag="0"/>
      <psa10 value="0.1090744968" flag="0"/>
      <psa30 value="0.0183029961" flag="0"/>
    </comp>
  </station>
  <station code="THERA" name="THERA" netid="HL" insttype="120" lat="36.367" lon="25.4753">
    <comp name="--.HHE">
      <acc value="0.2283946458" flag="0"/>
      <vel value="0.0523715379" flag="0"/>
      <psa03 value="0.1966024161" flag="0"/>
      <psa10 value="0.0275698864" flag="0"/>
      <psa30 value="0.0033429865" flag="0"/>
    </comp>
    <comp name="--.HHN">
      <acc value="0.1649936547" flag="0"/>
      <vel value="0.0282050061" flag="0"/>
      <psa03 value="0.1270018206" flag="0"/>
      <psa10 value="0.0204965229" flag="0"/>
      <psa30 value="0.0013099496" flag="0"/>
    </comp>
    <comp name="--.HHZ">
      <acc value="0.1951670289" flag="0"/>
      <vel value="0.0453193867" flag="0"/>
      <psa03 value="0.1329501629" flag="0"/>
      <psa10 value="0.0181947114" flag="0"/>
      <psa30 value="0.0021506211" flag="0"/>
    </comp>
  </station>
  <station code="THRA" name="THRA" netid="HL" insttype="CMG-5" lat="36.415" lon="25.4324">
    <comp name="00.HNE">
      <acc value="0.6857422707" flag="0"/>
      <vel value="0.1597327625" flag="0"/>
      <psa03 value="0.9060331773" flag="0"/>
      <psa10 value="0.2066127890" flag="0"/>
      <psa30 value="0.0130510818" flag="0"/>
    </comp>
    <comp name="00.HNN">
      <acc value="0.5546395413" flag="0"/>
      <vel value="0.1638823638" flag="0"/>
      <psa03 value="0.7117963696" flag="0"/>
      <psa10 value="0.2433001932" flag="0"/>
      <psa30 value="0.0143303054" flag="0"/>
    </comp>
    <comp name="00.HNZ">
      <acc value="0.3719341507" flag="0"/>
      <vel value="0.1042879964" flag="0"/>
      <psa03 value="0.4630639952" flag="0"/>
      <psa10 value="0.0588878498" flag="0"/>
      <psa30 value="0.0045449275" flag="0"/>
    </comp>
  </station>
  <station code="TNSA" name="TNSA" netid="HL" insttype="CMG-5" lat="37.5394" lon="25.1631">
    <comp name="00.HNE">
      <acc value="0.0516965191" flag="0"/>
      <vel value="0.0162364737" flag="0"/>
      <psa03 value="0.0840379378" flag="0"/>
      <psa10 value="0.0045289666" flag="0"/>
      <psa30 value="0.0005842124" flag="0"/>
    </comp>
    <comp name="00.HNN">
      <acc value="0.1238490327" flag="0"/>
      <vel value="0.0431359696" flag="0"/>
      <psa03 value="0.1133045177" flag="0"/>
      <psa10 value="0.0125659767" flag="0"/>
      <psa30 value="0.0011824479" flag="0"/>
    </comp>
    <comp name="00.HNZ">
      <acc value="0.0400706928" flag="0"/>
      <vel value="0.0149298635" flag="0"/>
      <psa03 value="0.0733856521" flag="0"/>
      <psa10 value="0.0059581635" flag="0"/>
      <psa30 value="0.0008785059" flag="0"/>
    </comp>
  </station>
  <station code="CMBO" name="CMBO" netid="HT" insttype="120P," lat="36.4709" lon="25.4056">
    <comp name="--.HHE">
      <acc value="0.5681593918" flag="0"/>
      <vel value="0.1998136070" flag="0"/>
      <psa03 value="0.6710901044" flag="0"/>
      <psa10 value="0.1649205820" flag="0"/>
      <psa30 value="0.0166554695" flag="0"/>
    </comp>
    <comp name="--.HHZ">
      <acc value="0.9357166552" flag="0"/>
      <vel value="0.2276896520" flag="0"/>
      <psa03 value="0.8477661698" flag="0"/>
      <psa10 value="0.0557046078" flag="0"/>
      <psa30 value="0.0072117429" flag="0"/>
    </comp>
    <comp name="--.HHN">
      <acc value="0.8707564921" flag="0"/>
      <vel value="0.2386602748" flag="0"/>
      <psa03 value="0.6605277857" flag="0"/>
      <psa10 value="0.1986566154" flag="0"/>
      <psa30 value="0.0140870174" flag="0"/>
    </comp>
  </station>
</stationlist>
