<?xml version="1.0" encoding="UTF-8" standalone="yes"?>
<!DOCTYPE earthquake SYSTEM "stationlist.dtd">
<stationlist created="" xmlns="ch.ethz.sed.shakemap.usgs.xml">
  <station code="APE" name="APE" netid="GE" insttype="STS-2/N" lat="37.0727" lon="25.523">
    <comp name="--.HHE">
      <acc value="0.1349334158" flag="0"/>
      <vel value="0.0272025112" flag="0"/>
      <psa03 value="0.1271301025" flag="0"/>
      <psa10 value="0.0080899404" flag="0"/>
      <psa30 value="0.0019918870" flag="0"/>
    </comp>
    <comp name="--.HHN">
      <acc value="0.1632275229" flag="0"/>
      <vel value="0.0391488830" flag="0"/>
      <psa03 value="0.1333361178" flag="0"/>
      <psa10 value="0.0097993290" flag="0"/>
      <psa30 value="0.0009877355" flag="0"/>
    </comp>
    <comp name="--.HHZ">
      <acc value="0.0789716991" flag="0"/>
      <vel value="0.0123823349" flag="0"/>
      <psa03 value="0.0662321002" flag="0"/>
      <psa10 value="0.0057865447" flag="0"/>
      <psa30 value="0.0007668793" flag="0"/>
    </comp>
  </station>
  <station code="THERA" name="THERA" netid="GE" insttype="STS-2/N" lat="36.367" lon="25.4753">
    <comp name="--.HHN">
      <acc value="0.1705193729" flag="0"/>
      <vel value="0.0288682720" flag="0"/>
      <psa03 value="0.1310778966" flag="0"/>
      <psa10 value="0.0206718087" flag="0"/>
      <psa30 value="0.0013219031" flag="0"/>
    </comp>
    <comp name="--.HHZ">
      <acc value="0.2029482176" flag="0"/>
      <vel value="0.0464523722" flag="0"/>
      <psa03 value="0.1369396519" flag="0"/>
      <psa10 value="0.0184068492" flag="0"/>
      <psa30 value="0.0021510094" flag="0"/>
    </comp>
    <comp name="--.HHE">
      <acc value="0.2327977102" flag="0"/>
      <vel value="0.0527678894" flag="0"/>
      <psa03 value="0.2014371055" flag="0"/>
      <psa10 value="0.0277589704" flag="0"/>
      <psa30 value="0.0033673464" flag="0"/>
    </comp>
  </station>
</stationlist>
