<?xml version="1.0" encoding="UTF-8" standalone="yes"?>
<!DOCTYPE earthquake SYSTEM "stationlist.dtd">
<stationlist created="" xmlns="ch.ethz.sed.shakemap.usgs.xml">
  <station code="APE" name="APE" netid="GE" insttype="STS-2/N" lat="37.0727" lon="25.523">
    <comp name="--.HHN">
      <acc value="0.1632275229" flag="0"/>
      <vel value="0.0391488747" flag="0"/>
      <psa03 value="0.1333361178" flag="0"/>
      <psa10 value="0.0097993290" flag="0"/>
      <psa30 value="0.0009878609" flag="0"/>
    </comp>
    <comp name="--.HHE">
      <acc value="0.1349334159" flag="0"/>
      <vel value="0.0272025099" flag="0"/>
      <psa03 value="0.1271301025" flag="0"/>
      <psa10 value="0.0080899419" flag="0"/>
      <psa30 value="0.0019918491" flag="0"/>
    </comp>
    <comp name="--.HHZ">
      <acc value="0.0789716993" flag="0"/>
      <vel value="0.0123823338" flag="0"/>
      <psa03 value="0.0662321002" flag="0"/>
      <psa10 value="0.0057865445" flag="0"/>
      <psa30 value="0.0007668371" flag="0"/>
    </comp>
  </station>
  <station code="THERA" name="THERA" netid="GE" insttype="STS-2/N" lat="36.367" lon="25.4753">
    <comp name="--.HHE">
      <acc value="0.2327977097" flag="0"/>
      <vel value="0.0527679006" flag="0"/>
      <psa03 value="0.2014371055" flag="0"/>
      <psa10 value="0.0277589480" flag="0"/>
      <psa30 value="0.0033664749" flag="0"/>
    </comp>
    <comp name="--.HHN">
      <acc value="0.1705193726" flag="0"/>
      <vel value="0.0288682734" flag="0"/>
      <psa03 value="0.1310778966" flag="0"/>
      <psa10 value="0.0206718124" flag="0"/>
      <psa30 value="0.0013214312" flag="0"/>
    </comp>
    <comp name="--.HHZ">
      <acc value="0.2029482173" flag="0"/>
      <vel value="0.0464523683" flag="0"/>
      <psa03 value="0.1369396519" flag="0"/>
      <psa10 value="0.0184068531" flag="0"/>
      <psa30 value="0.0021511098" flag="0"/>
    </comp>
  </station>
</stationlist>
