<?xml version="1.0" encoding="UTF-8" standalone="yes"?>
<!DOCTYPE earthquake SYSTEM "stationlist.dtd">
<stationlist created="" xmlns="ch.ethz.sed.shakemap.usgs.xml">
  <station code="APE" name="APE" netid="GE" insttype="STS-2/N" lat="37.0727" lon="25.523">
    <comp name="--.HHZ">
      <acc value="0.0789716995" flag="0"/>
      <vel value="0.0123823336" flag="0"/>
      <psa03 value="0.0662321002" flag="0"/>
      <psa10 value="0.0057865442" flag="0"/>
      <psa30 value="0.0007668435" flag="0"/>
    </comp>
    <comp name="--.HHE">
      <acc value="0.1349334160" flag="0"/>
      <vel value="0.0272025079" flag="0"/>
      <psa03 value="0.1271301025" flag="0"/>
      <psa10 value="0.0080899452" flag="0"/>
      <psa30 value="0.0019917664" flag="0"/>
    </comp>
    <comp name="--.HHN">
      <acc value="0.1632275227" flag="0"/>
      <vel value="0.0391488744" flag="0"/>
      <psa03 value="0.1333361178" flag="0"/>
      <psa10 value="0.0097993289" flag="0"/>
      <psa30 value="0.0009879356" flag="0"/>
    </comp>
  </station>
  <station code="THERA" name="THERA" netid="GE" insttype="STS-2/N" lat="36.367" lon="25.4753">
    <comp name="--.HHN">
      <acc value="0.1705193728" flag="0"/>
      <vel value="0.0288682693" flag="0"/>
      <psa03 value="0.1310778967" flag="0"/>
      <psa10 value="0.0206718079" flag="0"/>
      <psa30 value="0.0013216885" flag="0"/>
    </comp>
    <comp name="--.HHE">
      <acc value="0.2327977100" flag="0"/>
      <vel value="0.0527679011" flag="0"/>
      <psa03 value="0.2014371055" flag="0"/>
      <psa10 value="0.0277589629" flag="0"/>
      <psa30 value="0.0033665520" flag="0"/>
    </comp>
    <comp name="--.HHZ">
      <acc value="0.2029482176" flag="0"/>
      <vel value="0.0464523723" flag="0"/>
      <psa03 value="0.1369396519" flag="0"/>
      <psa10 value="0.0184068494" flag="0"/>
      <psa30 value="0.0021510316" flag="0"/>
    </comp>
  </station>
  <station code="SNT1" name="SNT1" netid="HA" insttype="30" lat="36.4159" lon="25.4282">
    <comp name="--.HHN">
      <acc value="0.1571089725" flag="0"/>
      <vel value="0.0756981905" flag="0"/>
      <psa03 value="0.2477699377" flag="0"/>
      <psa10 value="0.0758625337" flag="0"/>
      <psa30 value="0.0053511191" flag="0"/>
    </comp>
    <comp name="--.HHE">
      <acc value="0.1694891109" flag="0"/>
      <vel value="0.0413486275" flag="0"/>
      <psa03 value="0.1448400107" flag="0"/>
      <psa10 value="0.0438797227" flag="0"/>
      <psa30 value="0.0064055472" flag="0"/>
    </comp>
    <comp name="--.HHZ">
      <acc value="0.1232613868" flag="0"/>
      <vel value="0.0347590545" flag="0"/>
      <psa03 value="0.1346288832" flag="0"/>
      <psa10 value="0.0367775557" flag="0"/>
      <psa30 value="0.0025233959" flag="0"/>
    </comp>
  </station>
  <station code="APE" name="APE" netid="HL" insttype="120" lat="37.0727" lon="25.523">
    <comp name="--.HHE">
      <acc value="0.1229409224" flag="0"/>
      <vel value="0.0259898963" flag="0"/>
      <psa03 value="0.1230566627" flag="0"/>
      <psa10 value="0.0079260009" flag="0"/>
      <psa30 value="0.0019845277" flag="0"/>
    </comp>
    <comp name="--.HHN">
      <acc value="0.1536113419" flag="0"/>
      <vel value="0.0372089429" flag="0"/>
      <psa03 value="0.1294240153" flag="0"/>
      <psa10 value="0.0097234352" flag="0"/>
      <psa30 value="0.0009827940" flag="0"/>
    </comp>
    <comp name="--.HHZ">
      <acc value="0.0730940349" flag="0"/>
      <vel value="0.0119484597" flag="0"/>
      <psa03 value="0.0640358470" flag="0"/>
      <psa10 value="0.0057234027" flag="0"/>
      <psa30 value="0.0007631598" flag="0"/>
    </comp>
  </station>
  <station code="MHLO" name="MHLO" netid="HL" insttype="20" lat="36.6898" lon="24.4017">
    <comp name="--.HHE">
      <acc value="0.1119694097" flag="0"/>
      <vel value="0.0449996127" flag="0"/>
      <psa03 value="0.3664908936" flag="0"/>
      <psa10 value="0.0298493498" flag="0"/>
      <psa30 value="0.0023589774" flag="0"/>
    </comp>
    <comp name="--.HHN">
      <acc value="0.1079985581" flag="0"/>
      <vel value="0.0454675041" flag="0"/>
      <psa03 value="0.5067851168" flag="0"/>
      <psa10 value="0.0437057092" flag="0"/>
      <psa30 value="0.0029858659" flag="0"/>
    </comp>
    <comp name="--.HHZ">
      <acc value="0.0503604197" flag="0"/>
      <vel value="0.0197782348" flag="0"/>
      <psa03 value="0.1656512889" flag="0"/>
      <psa10 value="0.0147878430" flag="0"/>
      <psa30 value="0.0018047395" flag="0"/>
    </comp>
  </station>
  <station code="SAP3" name="SAP3" netid="HL" insttype="LE3D20_SMART24" lat="36.4356" lon="25.3454">
    <comp name="--.HHE">
      <acc value="0.6026746695" flag="0"/>
      <vel value="0.1957908800" flag="0"/>
      <psa03 value="0.7642684289" flag="0"/>
      <psa10 value="0.1501833095" flag="0"/>
      <psa30 value="0.0208957508" flag="0"/>
    </comp>
    <comp name="--.HHN">
      <acc value="0.7336383581" flag="0"/>
      <vel value="0.1832050878" flag="0"/>
      <psa03 value="0.7531512329" flag="0"/>
      <psa10 value="0.1090745077" flag="0"/>
      <psa30 value="0.0183027535" flag="0"/>
    </comp>
    <comp name="--.HHZ">
      <acc value="0.5359718651" flag="0"/>
      <vel value="0.1136151233" flag="0"/>
      <psa03 value="0.3980984920" flag="0"/>
      <psa10 value="0.0537856348" flag="0"/>
      <psa30 value="0.0062013595" flag="0"/>
    </comp>
  </station>
  <station code="THERA" name="THERA" netid="HL" insttype="120" lat="36.367" lon="25.4753">
    <comp name="--.HHE">
      <acc value="0.2283946456" flag="0"/>
      <vel value="0.0523715437" flag="0"/>
      <psa03 value="0.1966024161" flag="0"/>
      <psa10 value="0.0275698776" flag="0"/>
      <psa30 value="0.0033425940" flag="0"/>
    </comp>
    <comp name="--.HHZ">
      <acc value="0.1951670289" flag="0"/>
      <vel value="0.0453193890" flag="0"/>
      <psa03 value="0.1329501629" flag="0"/>
      <psa10 value="0.0181947116" flag="0"/>
      <psa30 value="0.0021506283" flag="0"/>
    </comp>
    <comp name="--.HHN">
      <acc value="0.1649936546" flag="0"/>
      <vel value="0.0282050078" flag="0"/>
      <psa03 value="0.1270018206" flag="0"/>
      <psa10 value="0.0204965214" flag="0"/>
      <psa30 value="0.0013100016" flag="0"/>
    </comp>
  </station>
  <station code="THRA" name="THRA" netid="HL" insttype="CMG-5" lat="36.415" lon="25.4324">
    <comp name="00.HNN">
      <acc value="0.5546395413" flag="0"/>
      <vel value="0.1638823646" flag="0"/>
      <psa03 value="0.7117963696" flag="0"/>
      <psa10 value="0.2433002578" flag="0"/>
      <psa30 value="0.0143309388" flag="0"/>
    </comp>
    <comp name="00.HNE">
      <acc value="0.6857422710" flag="0"/>
      <vel value="0.1597327525" flag="0"/>
      <psa03 value="0.9060331773" flag="0"/>
      <psa10 value="0.2066127637" flag="0"/>
      <psa30 value="0.0130521602" flag="0"/>
    </comp>
    <comp name="00.HNZ">
      <acc value="0.3719341511" flag="0"/>
      <vel value="0.1042879988" flag="0"/>
      <psa03 value="0.4630639952" flag="0"/>
      <psa10 value="0.0588878466" flag="0"/>
      <psa30 value="0.0045454737" flag="0"/>
    </comp>
  </station>
  <station code="TNSA" name="TNSA" netid="HL" insttype="CMG-5" lat="37.5394" lon="25.1631">
    <comp name="00.HNE">
      <acc value="0.0516965194" flag="0"/>
      <vel value="0.0162364736" flag="0"/>
      <psa03 value="0.0840379378" flag="0"/>
      <psa10 value="0.0045289667" flag="0"/>
      <psa30 value="0.0005842250" flag="0"/>
    </comp>
    <comp name="00.HNZ">
      <acc value="0.0400706934" flag="0"/>
      <vel value="0.0149298632" flag="0"/>
      <psa03 value="0.0733856521" flag="0"/>
      <psa10 value="0.0059581635" flag="0"/>
      <psa30 value="0.0008787583" flag="0"/>
    </comp>
    <comp name="00.HNN">
      <acc value="0.1238490329" flag="0"/>
      <vel value="0.0431359700" flag="0"/>
      <psa03 value="0.1133045177" flag="0"/>
      <psa10 value="0.0125659767" flag="0"/>
      <psa30 value="0.0011825026" flag="0"/>
    </comp>
  </station>
  <station code="CMBO" name="CMBO" netid="HT" insttype="120P," lat="36.4709" lon="25.4056">
    <comp name="--.HHE">
      <acc value="0.5681593918" flag="0"/>
      <vel value="0.1998136080" flag="0"/>
      <psa03 value="0.6710901044" flag="0"/>
      <psa10 value="0.1649206945" flag="0"/>
      <psa30 value="0.0166554797" flag="0"/>
    </comp>
    <comp name="--.HHN">
      <acc value="0.8707564922" flag="0"/>
      <vel value="0.2386602604" flag="0"/>
      <psa03 value="0.6605277856" flag="0"/>
      <psa10 value="0.1986565360" flag="0"/>
      <psa30 value="0.0140866470" flag="0"/>
    </comp>
    <comp name="--.HHZ">
      <acc value="0.9357166553" flag="0"/>
      <vel value="0.2276895821" flag="0"/>
      <psa03 value="0.8477661698" flag="0"/>
      <psa10 value="0.0557046270" flag="0"/>
      <psa30 value="0.0072116729" flag="0"/>
    </comp>
  </station>
</stationlist>
