<?xml version="1.0" encoding="UTF-8" standalone="yes"?>
<!DOCTYPE earthquake SYSTEM "stationlist.dtd">
<stationlist created="" xmlns="ch.ethz.sed.shakemap.usgs.xml">
  <station code="ALT" name="ALT" netid="KO" insttype="CMG-5T" commtype="DIG" lat="39.0541" lon="30.1104">
    <comp name="--.HNN">
      <acc value="0.0120359138" flag="0"/>
      <vel value="0.0057654289" flag="0"/>
      <psa03 value="0.0204530853" flag="0"/>
      <psa10 value="0.0037218367" flag="0"/>
      <psa30 value="0.0005368814" flag="0"/>
    </comp>
    <comp name="--.HNE">
      <acc value="0.0095772231" flag="0"/>
      <vel value="0.0028106904" flag="0"/>
      <psa03 value="0.0118835229" flag="0"/>
      <psa10 value="0.0023615293" flag="0"/>
      <psa30 value="0.0003987445" flag="0"/>
    </comp>
    <comp name="--.HNZ">
      <acc value="0.0079343060" flag="0"/>
      <vel value="0.0043323480" flag="0"/>
      <psa03 value="0.0110587140" flag="0"/>
      <psa10 value="0.0024836085" flag="0"/>
      <psa30 value="0.0006510032" flag="0"/>
    </comp>
  </station>
  <station code="BALB" name="BALB" netid="KO" insttype="CMG-5T" commtype="DIG" lat="39.6507" lon="27.8642">
    <comp name="--.HNZ">
      <acc value="0.0320135210" flag="0"/>
      <vel value="0.0078872613" flag="0"/>
      <psa03 value="0.0446647677" flag="0"/>
      <psa10 value="0.0036889283" flag="0"/>
      <psa30 value="0.0006487603" flag="0"/>
    </comp>
    <comp name="--.HNN">
      <acc value="0.0501934344" flag="0"/>
      <vel value="0.0170169212" flag="0"/>
      <psa03 value="0.1427788695" flag="0"/>
      <psa10 value="0.0175496163" flag="0"/>
      <psa30 value="0.0008731134" flag="0"/>
    </comp>
    <comp name="--.HNE">
      <acc value="0.0582158638" flag="0"/>
      <vel value="0.0183450324" flag="0"/>
      <psa03 value="0.0671814607" flag="0"/>
      <psa10 value="0.0118957992" flag="0"/>
      <psa30 value="0.0008344581" flag="0"/>
    </comp>
  </station>
  <station code="DST" name="DST" netid="KO" insttype="CMG-5T" commtype="DIG" lat="39.6041" lon="28.6267">
    <comp name="--.HNN">
      <acc value="0.1057299582" flag="0"/>
      <vel value="0.0317923145" flag="0"/>
      <psa03 value="0.1626574516" flag="0"/>
      <psa10 value="0.0207853709" flag="0"/>
      <psa30 value="0.0017035222" flag="0"/>
    </comp>
    <comp name="--.HNZ">
      <acc value="0.0631404379" flag="0"/>
      <vel value="0.0185061610" flag="0"/>
      <psa03 value="0.0977031173" flag="0"/>
      <psa10 value="0.0105576256" flag="0"/>
      <psa30 value="0.0012436097" flag="0"/>
    </comp>
    <comp name="--.HNE">
      <acc value="0.0983905062" flag="0"/>
      <vel value="0.0300391418" flag="0"/>
      <psa03 value="0.1770648900" flag="0"/>
      <psa10 value="0.0196576828" flag="0"/>
      <psa30 value="0.0010927477" flag="0"/>
    </comp>
  </station>
  <station code="GOMA" name="GOMA" netid="KO" insttype="CMG-5T" commtype="DIG" lat="38.7077" lon="27.9175">
    <comp name="--.HNE">
      <acc value="0.0463788684" flag="0"/>
      <vel value="0.0241667318" flag="0"/>
      <psa03 value="0.1531056084" flag="0"/>
      <psa10 value="0.0102745607" flag="0"/>
      <psa30 value="0.0008767026" flag="0"/>
    </comp>
    <comp name="--.HNZ">
      <acc value="0.0382401856" flag="0"/>
      <vel value="0.0127480237" flag="0"/>
      <psa03 value="0.0607979845" flag="0"/>
      <psa10 value="0.0083403981" flag="0"/>
      <psa30 value="0.0009165803" flag="0"/>
    </comp>
    <comp name="--.HNN">
      <acc value="0.0469969451" flag="0"/>
      <vel value="0.0264510356" flag="0"/>
      <psa03 value="0.1380200050" flag="0"/>
      <psa10 value="0.0116833988" flag="0"/>
      <psa30 value="0.0010905240" flag="0"/>
    </comp>
  </station>
  <station code="GORD" name="GORD" netid="KO" insttype="CMG-5T" commtype="DIG" lat="38.9088" lon="28.1769">
    <comp name="--.HNZ">
      <acc value="0.0417044747" flag="0"/>
      <vel value="0.0140005739" flag="0"/>
      <psa03 value="0.0640933348" flag="0"/>
      <psa10 value="0.0117223057" flag="0"/>
      <psa30 value="0.0008803802" flag="0"/>
    </comp>
    <comp name="--.HNN">
      <acc value="0.0371391945" flag="0"/>
      <vel value="0.0242009623" flag="0"/>
      <psa03 value="0.1040610423" flag="0"/>
      <psa10 value="0.0296758813" flag="0"/>
      <psa30 value="0.0019935559" flag="0"/>
    </comp>
    <comp name="--.HNE">
      <acc value="0.0393637848" flag="0"/>
      <vel value="0.0280776366" flag="0"/>
      <psa03 value="0.0946532671" flag="0"/>
      <psa10 value="0.0296055376" flag="0"/>
      <psa30 value="0.0012595819" flag="0"/>
    </comp>
  </station>
  <station code="KCTX" name="KCTX" netid="KO" insttype="CMG-3ESP" commtype="DIG" lat="40.2626" lon="28.3353">
    <comp name="--.HHN">
      <acc value="0.0351206463" flag="0"/>
      <vel value="0.0131216902" flag="0"/>
      <psa03 value="0.0878638847" flag="0"/>
      <psa10 value="0.0099275479" flag="0"/>
      <psa30 value="0.0008139322" flag="0"/>
    </comp>
    <comp name="--.HHZ">
      <acc value="0.0206467423" flag="0"/>
      <vel value="0.0086744931" flag="0"/>
      <psa03 value="0.0307970428" flag="0"/>
      <psa10 value="0.0051107053" flag="0"/>
      <psa30 value="0.0005293820" flag="0"/>
    </comp>
    <comp name="--.HHE">
      <acc value="0.0347688020" flag="0"/>
      <vel value="0.0122896575" flag="0"/>
      <psa03 value="0.0577632931" flag="0"/>
      <psa10 value="0.0101069148" flag="0"/>
      <psa30 value="0.0010347938" flag="0"/>
    </comp>
  </station>
  <station code="KULA" name="KULA" netid="KO" insttype="CMG-3T" commtype="DIG" lat="38.5145" lon="28.6607">
    <comp name="--.HHZ">
      <acc value="0.0354120885" flag="0"/>
      <vel value="0.0149906523" flag="0"/>
      <psa03 value="0.0528042458" flag="0"/>
      <psa10 value="0.0179360159" flag="0"/>
      <psa30 value="0.0009349162" flag="0"/>
    </comp>
  </station>
  <station code="MDNY" name="MDNY" netid="KO" insttype="CMG-5T" commtype="DIG" lat="40.3709" lon="28.8846">
    <comp name="--.HNN">
      <acc value="0.1920965728" flag="0"/>
      <vel value="0.0657812756" flag="0"/>
      <psa03 value="0.4017806241" flag="0"/>
      <psa10 value="0.0207244396" flag="0"/>
      <psa30 value="0.0015435945" flag="0"/>
    </comp>
    <comp name="--.HNE">
      <acc value="0.1382909943" flag="0"/>
      <vel value="0.0452032960" flag="0"/>
      <psa03 value="0.4071873061" flag="0"/>
      <psa10 value="0.0125367907" flag="0"/>
      <psa30 value="0.0014900743" flag="0"/>
    </comp>
    <comp name="--.HNZ">
      <acc value="0.0756791310" flag="0"/>
      <vel value="0.0267109884" flag="0"/>
      <psa03 value="0.1184117891" flag="0"/>
      <psa10 value="0.0073707144" flag="0"/>
      <psa30 value="0.0007954467" flag="0"/>
    </comp>
  </station>
  <station code="ORLT" name="ORLT" netid="KO" insttype="CMG-5T" commtype="DIG" lat="40.0452" lon="28.8914">
    <comp name="--.HNE">
      <acc value="0.0886866654" flag="0"/>
      <vel value="0.0379204511" flag="0"/>
      <psa03 value="0.2424123391" flag="0"/>
      <psa10 value="0.0116423523" flag="0"/>
      <psa30 value="0.0009277431" flag="0"/>
    </comp>
    <comp name="--.HNN">
      <acc value="0.0951146009" flag="0"/>
      <vel value="0.0328332149" flag="0"/>
      <psa03 value="0.2415580877" flag="0"/>
      <psa10 value="0.0175502792" flag="0"/>
      <psa30 value="0.0012145143" flag="0"/>
    </comp>
    <comp name="--.HNZ">
      <acc value="0.0309987215" flag="0"/>
      <vel value="0.0106594824" flag="0"/>
      <psa03 value="0.0388992885" flag="0"/>
      <psa10 value="0.0101060803" flag="0"/>
      <psa30 value="0.0010412523" flag="0"/>
    </comp>
  </station>
  <station code="SHAP" name="SHAP" netid="KO" insttype="CMG-5T" commtype="DIG" lat="39.0231" lon="29.222">
    <comp name="--.HNE">
      <acc value="0.4334716618" flag="0"/>
      <vel value="0.0724753559" flag="0"/>
      <psa03 value="0.2408999964" flag="0"/>
      <psa10 value="0.0148966620" flag="0"/>
      <psa30 value="0.0023043457" flag="0"/>
    </comp>
    <comp name="--.HNZ">
      <acc value="0.2089964651" flag="0"/>
      <vel value="0.0385672623" flag="0"/>
      <psa03 value="0.1046638974" flag="0"/>
      <psa10 value="0.0165953671" flag="0"/>
      <psa30 value="0.0012946639" flag="0"/>
    </comp>
    <comp name="--.HNN">
      <acc value="0.4573260733" flag="0"/>
      <vel value="0.1279207964" flag="0"/>
      <psa03 value="0.3623630796" flag="0"/>
      <psa10 value="0.0341645846" flag="0"/>
      <psa30 value="0.0031925088" flag="0"/>
    </comp>
  </station>
  <station code="SIMA" name="SIMA" netid="KO" insttype="CMG-6T" commtype="DIG" lat="39.0833" lon="28.9825">
    <comp name="--.HHE">
      <acc value="0.3062442815" flag="0"/>
      <vel value="0.0704325986" flag="0"/>
      <psa03 value="0.2879323072" flag="0"/>
      <psa10 value="0.0505102214" flag="0"/>
      <psa30 value="0.0035657062" flag="0"/>
    </comp>
    <comp name="--.HHN">
      <acc value="0.4289981176" flag="0"/>
      <vel value="0.1899311267" flag="0"/>
      <psa03 value="0.8849254561" flag="0"/>
      <psa10 value="0.0898632223" flag="0"/>
      <psa30 value="0.0064703653" flag="0"/>
    </comp>
    <comp name="--.HHZ">
      <acc value="0.3688862294" flag="0"/>
      <vel value="0.1058501271" flag="0"/>
      <psa03 value="0.3501285609" flag="0"/>
      <psa10 value="0.0324775798" flag="0"/>
      <psa30 value="0.0031645789" flag="0"/>
    </comp>
  </station>
  <station code="SMAA" name="SMAA" netid="KO" insttype="CMG-5T" commtype="DIG" lat="39.1005" lon="28.9805">
    <comp name="--.HNE">
      <acc value="0.5642388981" flag="0"/>
      <vel value="0.2648112175" flag="0"/>
      <psa03 value="1.8288907309" flag="0"/>
      <psa10 value="0.3484637588" flag="0"/>
      <psa30 value="0.0215340200" flag="0"/>
    </comp>
    <comp name="--.HNN">
      <acc value="0.6249657163" flag="0"/>
      <vel value="0.4170787874" flag="0"/>
      <psa03 value="1.9280521088" flag="0"/>
      <psa10 value="0.3741420643" flag="0"/>
      <psa30 value="0.0181740149" flag="0"/>
    </comp>
    <comp name="--.HNZ">
      <acc value="1.0274944902" flag="0"/>
      <vel value="0.1496033518" flag="0"/>
      <psa03 value="0.6365535289" flag="0"/>
      <psa10 value="0.2205463103" flag="0"/>
      <psa30 value="0.0091363453" flag="0"/>
    </comp>
  </station>
  <station code="SOMA" name="SOMA" netid="KO" insttype="CMG-5T" commtype="DIG" lat="39.1564" lon="27.5341">
    <comp name="--.HNE">
      <acc value="0.0265766682" flag="0"/>
      <vel value="0.0113439175" flag="0"/>
      <psa03 value="0.0815199652" flag="0"/>
      <psa10 value="0.0117325800" flag="0"/>
      <psa30 value="0.0009533669" flag="0"/>
    </comp>
    <comp name="--.HNZ">
      <acc value="0.0246386049" flag="0"/>
      <vel value="0.0086223066" flag="0"/>
      <psa03 value="0.0327364849" flag="0"/>
      <psa10 value="0.0081734637" flag="0"/>
      <psa30 value="0.0004540152" flag="0"/>
    </comp>
    <comp name="--.HNN">
      <acc value="0.0262372186" flag="0"/>
      <vel value="0.0127799851" flag="0"/>
      <psa03 value="0.0760925448" flag="0"/>
      <psa10 value="0.0096633956" flag="0"/>
      <psa30 value="0.0005545675" flag="0"/>
    </comp>
  </station>
  <station code="SUSR" name="SUSR" netid="KO" insttype="CMG-5T" commtype="DIG" lat="39.9627" lon="28.0835">
    <comp name="--.HNN">
      <acc value="0.1062490244" flag="0"/>
      <vel value="0.0341878026" flag="0"/>
      <psa03 value="0.3622740179" flag="0"/>
      <psa10 value="0.0138186590" flag="0"/>
      <psa30 value="0.0014540277" flag="0"/>
    </comp>
    <comp name="--.HNE">
      <acc value="0.1079253499" flag="0"/>
      <vel value="0.0386043859" flag="0"/>
      <psa03 value="0.2418924392" flag="0"/>
      <psa10 value="0.0089197382" flag="0"/>
      <psa30 value="0.0010694501" flag="0"/>
    </comp>
    <comp name="--.HNZ">
      <acc value="0.0672801969" flag="0"/>
      <vel value="0.0181408325" flag="0"/>
      <psa03 value="0.0695225411" flag="0"/>
      <psa10 value="0.0055015719" flag="0"/>
      <psa30 value="0.0004831618" flag="0"/>
    </comp>
  </station>
  <station code="TVSB" name="TVSB" netid="KO" insttype="CMG-3T" commtype="DIG" lat="39.4497" lon="29.4615">
    <comp name="--.HHE">
      <acc value="0.0838249518" flag="0"/>
      <vel value="0.0225018074" flag="0"/>
      <psa03 value="0.0809551367" flag="0"/>
      <psa10 value="0.0156865868" flag="0"/>
      <psa30 value="0.0010267373" flag="0"/>
    </comp>
    <comp name="--.HHN">
      <acc value="0.1645965750" flag="0"/>
      <vel value="0.0361370360" flag="0"/>
      <psa03 value="0.0510523681" flag="0"/>
      <psa10 value="0.0154159351" flag="0"/>
      <psa30 value="0.0014947000" flag="0"/>
    </comp>
    <comp name="--.HHZ">
      <acc value="0.0998833497" flag="0"/>
      <vel value="0.0188164645" flag="0"/>
      <psa03 value="0.0469699674" flag="0"/>
      <psa10 value="0.0294792978" flag="0"/>
      <psa30 value="0.0016314129" flag="0"/>
    </comp>
  </station>
</stationlist>
