<?xml version="1.0" encoding="UTF-8" standalone="yes"?>
<!DOCTYPE earthquake SYSTEM "stationlist.dtd">
<stationlist created="" xmlns="ch.ethz.sed.shakemap.usgs.xml">
  <station code="ARPRA" name="ARPRA" netid="KO" insttype="CMG-5T" lat="39.0929" lon="38.3356">
    <comp name="--.HNE">
      <acc value="0.0347842912" flag="0"/>
      <vel value="0.0304000553" flag="0"/>
      <psa03 value="0.0623607817" flag="0"/>
      <psa10 value="0.0293645614" flag="0"/>
      <psa30 value="0.0042865564" flag="0"/>
    </comp>
    <comp name="--.HNN">
      <acc value="0.0385048422" flag="0"/>
      <vel value="0.0238707632" flag="0"/>
      <psa03 value="0.1020688778" flag="0"/>
      <psa10 value="0.0292165690" flag="0"/>
      <psa30 value="0.0029601386" flag="0"/>
    </comp>
    <comp name="--.HNZ">
      <acc value="0.0194294750" flag="0"/>
      <vel value="0.0105543623" flag="0"/>
      <psa03 value="0.0421447194" flag="0"/>
      <psa10 value="0.0186564898" flag="0"/>
      <psa30 value="0.0012331945" flag="0"/>
    </comp>
  </station>
  <station code="DARE" name="DARE" netid="KO" insttype="CMG-3ESP" lat="38.5712" lon="37.4832">
    <comp name="--.HHE">
      <acc value="0.0550563344" flag="0"/>
      <vel value="0.0216590528" flag="0"/>
      <psa03 value="0.1185648958" flag="0"/>
      <psa10 value="0.0225055550" flag="0"/>
      <psa30 value="0.0014561819" flag="0"/>
    </comp>
  </station>
  <station code="GAZ" name="GAZ" netid="KO" insttype="CMG-3T" lat="37.1721" lon="37.2096">
    <comp name="--.HHE">
      <acc value="0.0310850071" flag="0"/>
      <vel value="0.0185612671" flag="0"/>
      <psa03 value="0.0863020018" flag="0"/>
      <psa10 value="0.0220773511" flag="0"/>
      <psa30 value="0.0019832368" flag="0"/>
    </comp>
    <comp name="--.HHN">
      <acc value="0.0186942519" flag="0"/>
      <vel value="0.0116594369" flag="0"/>
      <psa03 value="0.0686149225" flag="0"/>
      <psa10 value="0.0118540689" flag="0"/>
      <psa30 value="0.0011849273" flag="0"/>
    </comp>
    <comp name="--.HHZ">
      <acc value="0.0191572396" flag="0"/>
      <vel value="0.0114211380" flag="0"/>
      <psa03 value="0.0271734758" flag="0"/>
      <psa10 value="0.0101525091" flag="0"/>
      <psa30 value="0.0016600971" flag="0"/>
    </comp>
  </station>
  <station code="KMRS" name="KMRS" netid="KO" insttype="CMG-3T" lat="37.5053" lon="36.9">
    <comp name="--.HHE">
      <acc value="0.0369715049" flag="0"/>
      <vel value="0.0236877577" flag="0"/>
      <psa03 value="0.1204213068" flag="0"/>
      <psa10 value="0.0142689305" flag="0"/>
      <psa30 value="0.0016234802" flag="0"/>
    </comp>
    <comp name="--.HHN">
      <acc value="0.0549491681" flag="0"/>
      <vel value="0.0282455041" flag="0"/>
      <psa03 value="0.1600606212" flag="0"/>
      <psa10 value="0.0183370455" flag="0"/>
      <psa30 value="0.0021499365" flag="0"/>
    </comp>
    <comp name="--.HHZ">
      <acc value="0.0197039155" flag="0"/>
      <vel value="0.0092305584" flag="0"/>
      <psa03 value="0.0460191657" flag="0"/>
      <psa10 value="0.0079387239" flag="0"/>
      <psa30 value="0.0019214308" flag="0"/>
    </comp>
  </station>
  <station code="SARI" name="SARI" netid="KO" insttype="CMG-3T" lat="38.4072" lon="36.4181">
    <comp name="--.HHE">
      <acc value="0.0310139568" flag="0"/>
      <vel value="0.0155575092" flag="0"/>
      <psa03 value="0.0920771872" flag="0"/>
      <psa10 value="0.0150566192" flag="0"/>
      <psa30 value="0.0008577376" flag="0"/>
    </comp>
    <comp name="--.HHZ">
      <acc value="0.0243564656" flag="0"/>
      <vel value="0.0129993486" flag="0"/>
      <psa03 value="0.0482620903" flag="0"/>
      <psa10 value="0.0170722852" flag="0"/>
      <psa30 value="0.0014692322" flag="0"/>
    </comp>
  </station>
  <station code="SVRC" name="SVRC" netid="KO" insttype="CMG-3T" lat="38.3775" lon="39.306">
    <comp name="--.HHZ">
      <acc value="0.0158683292" flag="0"/>
      <vel value="0.0072621279" flag="0"/>
      <psa03 value="0.0481326134" flag="0"/>
      <psa10 value="0.0059946475" flag="0"/>
      <psa30 value="0.0005004907" flag="0"/>
    </comp>
    <comp name="--.HHN">
      <acc value="0.0137461160" flag="0"/>
      <vel value="0.0061654279" flag="0"/>
      <psa03 value="0.0461333647" flag="0"/>
      <psa10 value="0.0051207668" flag="0"/>
      <psa30 value="0.0005424788" flag="0"/>
    </comp>
    <comp name="--.HHE">
      <acc value="0.0153112927" flag="0"/>
      <vel value="0.0074536084" flag="0"/>
      <psa03 value="0.0837358469" flag="0"/>
      <psa10 value="0.0074394868" flag="0"/>
      <psa30 value="0.0004884934" flag="0"/>
    </comp>
  </station>
  <station code="URFA" name="URFA" netid="KO" insttype="CMG-3ESP" lat="37.4409" lon="38.8213">
    <comp name="--.HHN">
      <acc value="0.0428781790" flag="0"/>
      <vel value="0.0220191858" flag="0"/>
      <psa03 value="0.1148723832" flag="0"/>
      <psa10 value="0.0213960118" flag="0"/>
      <psa30 value="0.0025445842" flag="0"/>
    </comp>
    <comp name="--.HHZ">
      <acc value="0.0577710443" flag="0"/>
      <vel value="0.0203529286" flag="0"/>
      <psa03 value="0.0863671215" flag="0"/>
      <psa10 value="0.0181209939" flag="0"/>
      <psa30 value="0.0010238131" flag="0"/>
    </comp>
    <comp name="--.HHE">
      <acc value="0.0580210424" flag="0"/>
      <vel value="0.0194798241" flag="0"/>
      <psa03 value="0.0854511126" flag="0"/>
      <psa10 value="0.0167411298" flag="0"/>
      <psa30 value="0.0020479079" flag="0"/>
    </comp>
  </station>
</stationlist>
