<?xml version="1.0" encoding="UTF-8" standalone="yes"?>
<!DOCTYPE earthquake SYSTEM "stationlist.dtd">
<stationlist created="" xmlns="ch.ethz.sed.shakemap.usgs.xml">
  <station code="ARPRA" name="ARPRA" netid="KO" insttype="CMG-5T" lat="39.0929" lon="38.3356">
    <comp name="--.HNZ">
      <acc value="0.0194294721" flag="0"/>
      <vel value="0.0105543636" flag="0"/>
      <psa03 value="0.0421447194" flag="0"/>
      <psa10 value="0.0186564898" flag="0"/>
      <psa30 value="0.0012334134" flag="0"/>
    </comp>
    <comp name="--.HNE">
      <acc value="0.0347842901" flag="0"/>
      <vel value="0.0304000622" flag="0"/>
      <psa03 value="0.0623607817" flag="0"/>
      <psa10 value="0.0293645614" flag="0"/>
      <psa30 value="0.0042869024" flag="0"/>
    </comp>
    <comp name="--.HNN">
      <acc value="0.0385048410" flag="0"/>
      <vel value="0.0238707647" flag="0"/>
      <psa03 value="0.1020688778" flag="0"/>
      <psa10 value="0.0292165690" flag="0"/>
      <psa30 value="0.0029601001" flag="0"/>
    </comp>
  </station>
  <station code="GAZ" name="GAZ" netid="KO" insttype="CMG-3T" lat="37.1721" lon="37.2096">
    <comp name="--.HHE">
      <acc value="0.0310850069" flag="0"/>
      <vel value="0.0185612678" flag="0"/>
      <psa03 value="0.0863020018" flag="0"/>
      <psa10 value="0.0220773511" flag="0"/>
      <psa30 value="0.0019832230" flag="0"/>
    </comp>
    <comp name="--.HHZ">
      <acc value="0.0191572395" flag="0"/>
      <vel value="0.0114211381" flag="0"/>
      <psa03 value="0.0271734758" flag="0"/>
      <psa10 value="0.0101525091" flag="0"/>
      <psa30 value="0.0016600981" flag="0"/>
    </comp>
    <comp name="--.HHN">
      <acc value="0.0186942513" flag="0"/>
      <vel value="0.0116594373" flag="0"/>
      <psa03 value="0.0686149225" flag="0"/>
      <psa10 value="0.0118540689" flag="0"/>
      <psa30 value="0.0011849227" flag="0"/>
    </comp>
  </station>
  <station code="KMRS" name="KMRS" netid="KO" insttype="CMG-3T" lat="37.5053" lon="36.9">
    <comp name="--.HHE">
      <acc value="0.0369715051" flag="0"/>
      <vel value="0.0236877580" flag="0"/>
      <psa03 value="0.1204213068" flag="0"/>
      <psa10 value="0.0142689304" flag="0"/>
      <psa30 value="0.0016234896" flag="0"/>
    </comp>
    <comp name="--.HHN">
      <acc value="0.0549491676" flag="0"/>
      <vel value="0.0282455037" flag="0"/>
      <psa03 value="0.1600606212" flag="0"/>
      <psa10 value="0.0183370456" flag="0"/>
      <psa30 value="0.0021499382" flag="0"/>
    </comp>
    <comp name="--.HHZ">
      <acc value="0.0197039158" flag="0"/>
      <vel value="0.0092305586" flag="0"/>
      <psa03 value="0.0460191657" flag="0"/>
      <psa10 value="0.0079387239" flag="0"/>
      <psa30 value="0.0019214391" flag="0"/>
    </comp>
  </station>
  <station code="SARI" name="SARI" netid="KO" insttype="CMG-3T" lat="38.4072" lon="36.4181">
    <comp name="--.HHZ">
      <acc value="0.0243564654" flag="0"/>
      <vel value="0.0129993488" flag="0"/>
      <psa03 value="0.0482620903" flag="0"/>
      <psa10 value="0.0170722851" flag="0"/>
      <psa30 value="0.0014692406" flag="0"/>
    </comp>
    <comp name="--.HHE">
      <acc value="0.0310139568" flag="0"/>
      <vel value="0.0155575095" flag="0"/>
      <psa03 value="0.0920771872" flag="0"/>
      <psa10 value="0.0150566192" flag="0"/>
      <psa30 value="0.0008576884" flag="0"/>
    </comp>
    <comp name="--.HHN">
      <acc value="0.0653588355" flag="0"/>
      <vel value="0.0148414258" flag="0"/>
      <psa03 value="0.0552981052" flag="0"/>
      <psa10 value="0.0109445275" flag="0"/>
      <psa30 value="0.0011696646" flag="0"/>
    </comp>
  </station>
  <station code="SVRC" name="SVRC" netid="KO" insttype="CMG-3T" lat="38.3775" lon="39.306">
    <comp name="--.HHZ">
      <acc value="0.0158683293" flag="0"/>
      <vel value="0.0072621277" flag="0"/>
      <psa03 value="0.0481326134" flag="0"/>
      <psa10 value="0.0059946475" flag="0"/>
      <psa30 value="0.0005004927" flag="0"/>
    </comp>
    <comp name="--.HHE">
      <acc value="0.0153112925" flag="0"/>
      <vel value="0.0074536084" flag="0"/>
      <psa03 value="0.0837358469" flag="0"/>
      <psa10 value="0.0074394868" flag="0"/>
      <psa30 value="0.0004884969" flag="0"/>
    </comp>
    <comp name="--.HHN">
      <acc value="0.0137461158" flag="0"/>
      <vel value="0.0061654274" flag="0"/>
      <psa03 value="0.0461333647" flag="0"/>
      <psa10 value="0.0051207668" flag="0"/>
      <psa30 value="0.0005424777" flag="0"/>
    </comp>
  </station>
  <station code="URFA" name="URFA" netid="KO" insttype="CMG-3ESP" lat="37.4409" lon="38.8213">
    <comp name="--.HHN">
      <acc value="0.0428781790" flag="0"/>
      <vel value="0.0220191847" flag="0"/>
      <psa03 value="0.1148723832" flag="0"/>
      <psa10 value="0.0213960117" flag="0"/>
      <psa30 value="0.0025446037" flag="0"/>
    </comp>
    <comp name="--.HHZ">
      <acc value="0.0577710442" flag="0"/>
      <vel value="0.0203529285" flag="0"/>
      <psa03 value="0.0863671215" flag="0"/>
      <psa10 value="0.0181209939" flag="0"/>
      <psa30 value="0.0010236346" flag="0"/>
    </comp>
    <comp name="--.HHE">
      <acc value="0.0580210424" flag="0"/>
      <vel value="0.0194798252" flag="0"/>
      <psa03 value="0.0854511126" flag="0"/>
      <psa10 value="0.0167411297" flag="0"/>
      <psa30 value="0.0020479279" flag="0"/>
    </comp>
  </station>
  <station code="ANDN" name="ANDN" netid="TU" insttype="T" lat="37.58" lon="36.3452">
    <comp name="--.HHZ">
      <acc value="0.0344315421" flag="0"/>
      <vel value="0.0277884296" flag="0"/>
      <psa03 value="0.1185597001" flag="0"/>
      <psa10 value="0.0279217092" flag="0"/>
      <psa30 value="0.0020009032" flag="0"/>
    </comp>
    <comp name="--.HHN">
      <acc value="0.0664003310" flag="0"/>
      <vel value="0.0320303169" flag="0"/>
      <psa03 value="0.2308617050" flag="0"/>
      <psa10 value="0.0400664644" flag="0"/>
      <psa30 value="0.0021730315" flag="0"/>
    </comp>
    <comp name="--.HHE">
      <acc value="0.0548793585" flag="0"/>
      <vel value="0.0390623482" flag="0"/>
      <psa03 value="0.1101594916" flag="0"/>
      <psa10 value="0.0612031092" flag="0"/>
      <psa30 value="0.0021673332" flag="0"/>
    </comp>
  </station>
</stationlist>
