<stationlist created="1739408569">
	<station code="ABEA" name="ABEA" netid="HC" source="Seismological Network of Crete (HC)" insttype="" lat="35.5163" lon="24.0113">
		<comp name=".HNE" depth="0.0">
			<acc value="0.0011346567184398" flag="0"/>
			<vel value="0.00169573832355" flag="0"/>
			<psa03 value="0.00132172354402633" flag="0"/>
			<psa10 value="0.00138824235486883" flag="0"/>
			<psa30 value="0.00094245493301579" flag="0"/>
		</comp>
		<comp name=".HNN" depth="0.0">
			<acc value="0.0013501613896278" flag="0"/>
			<vel value="0.0019921377384" flag="0"/>
			<psa03 value="0.00145641630465035" flag="0"/>
			<psa10 value="0.00150725285591522" flag="0"/>
			<psa30 value="0.00101240665030332" flag="0"/>
		</comp>
		<comp name=".HNZ" depth="0.0">
			<acc value="0.0013567441884444" flag="0"/>
			<vel value="0.00124675140407" flag="0"/>
			<psa03 value="0.00115432345719665" flag="0"/>
			<psa10 value="0.00104991709091741" flag="0"/>
			<psa30 value="0.000472522812735557" flag="0"/>
		</comp>
	</station>
	<station code="ATEI" name="ATEI" netid="HC" source="Seismological Network of Crete (HC)" insttype="" lat="35.5193" lon="24.0432">
		<comp name=".HNE" depth="0.0">
			<acc value="0.009255903154395" flag="0"/>
			<vel value="0.00630075568293" flag="0"/>
			<psa03 value="0.0304761543123055" flag="0"/>
			<psa10 value="0.00729302047056574" flag="0"/>
			<psa30 value="0.000880387904709327" flag="0"/>
		</comp>
		<comp name=".HNN" depth="0.0">
			<acc value="0.0070133160944826" flag="0"/>
			<vel value="0.00474782141983" flag="0"/>
			<psa03 value="0.0198335274155301" flag="0"/>
			<psa10 value="0.00753003242143171" flag="0"/>
			<psa30 value="0.000713116563391273" flag="0"/>
		</comp>
		<comp name=".HNZ" depth="0.0">
			<acc value="0.0074580123646008" flag="0"/>
			<vel value="0.00380777824033" flag="0"/>
			<psa03 value="0.014597670149026" flag="0"/>
			<psa10 value="0.00400791769237636" flag="0"/>
			<psa30 value="0.000737752049535985" flag="0"/>
		</comp>
	</station>
	<station code="G0LD" name="G0LD" netid="HC" source="Seismological Network of Crete (HC)" insttype="" lat="35.4955" lon="24.0306">
		<comp name=".HNE" depth="0.0">
			<acc value="0.0021419620759002" flag="0"/>
			<vel value="0.00430724323514" flag="0"/>
			<psa03 value="0.00204305493871637" flag="0"/>
			<psa10 value="0.00166031479239484" flag="0"/>
			<psa30 value="0.00165023077802445" flag="0"/>
		</comp>
		<comp name=".HNN" depth="0.0">
			<acc value="0.0022395876801342" flag="0"/>
			<vel value="0.00242522417363" flag="0"/>
			<psa03 value="0.00147410692969378" flag="0"/>
			<psa10 value="0.00124771070158488" flag="0"/>
			<psa30 value="0.00120538745517043" flag="0"/>
		</comp>
		<comp name=".HNZ" depth="0.0">
			<acc value="0.0026264913267054" flag="0"/>
			<vel value="0.00405792079265" flag="0"/>
			<psa03 value="0.00223862616257891" flag="0"/>
			<psa10 value="0.00265218694436965" flag="0"/>
			<psa30 value="0.00159191212303382" flag="0"/>
		</comp>
	</station>
	<station code="PASK" name="PASK" netid="HC" source="Seismological Network of Crete (HC)" insttype="" lat="35.4996" lon="24.0121">
		<comp name=".HNE" depth="0.0">
			<acc value="0.011933647260846" flag="0"/>
			<vel value="0.00764383592231" flag="0"/>
			<psa03 value="0.0275844731693048" flag="0"/>
			<psa10 value="0.0125152015706857" flag="0"/>
			<psa30 value="0.00115617294495071" flag="0"/>
		</comp>
		<comp name=".HNN" depth="0.0">
			<acc value="0.01194158552631" flag="0"/>
			<vel value="0.00916431225507" flag="0"/>
			<psa03 value="0.0321391551029779" flag="0"/>
			<psa10 value="0.0150170082406117" flag="0"/>
			<psa30 value="0.00125734027178992" flag="0"/>
		</comp>
		<comp name=".HNZ" depth="0.0">
			<acc value="0.0078998117813832" flag="0"/>
			<vel value="0.003893580093" flag="0"/>
			<psa03 value="0.0181199503578036" flag="0"/>
			<psa10 value="0.00612745732023068" flag="0"/>
			<psa30 value="0.000917122109004108" flag="0"/>
		</comp>
	</station>
	<station code="POLY" name="POLY" netid="HC" source="Seismological Network of Crete (HC)" insttype="" lat="35.5226" lon="24.0602">
		<comp name=".HNE" depth="0.0">
			<acc value="0.001115365092678" flag="0"/>
			<vel value="0.00188624627649" flag="0"/>
			<psa03 value="0.00128669282171924" flag="0"/>
			<psa10 value="0.00105073499666313" flag="0"/>
			<psa30 value="0.000831745671987581" flag="0"/>
		</comp>
		<comp name=".HNN" depth="0.0">
			<acc value="0.0012987856067256" flag="0"/>
			<vel value="0.00233107518273" flag="0"/>
			<psa03 value="0.0014338140586634" flag="0"/>
			<psa10 value="0.00138671260509272" flag="0"/>
			<psa30 value="0.00123904364306085" flag="0"/>
		</comp>
		<comp name=".HNZ" depth="0.0">
			<acc value="0.0013209520659918" flag="0"/>
			<vel value="0.00133448878058" flag="0"/>
			<psa03 value="0.00151548987944377" flag="0"/>
			<psa10 value="0.000936780768065038" flag="0"/>
			<psa30 value="0.000684953291461161" flag="0"/>
		</comp>
	</station>
	<station code="ARK1" name="ARK1" netid="HI" source="ITSAK Strong Motion Network" insttype="" lat="35.148777" lon="25.264194">
		<comp name=".HNE" depth="0.0">
			<acc value="0.042213471944262" flag="0"/>
			<vel value="0.0199081229733" flag="0"/>
			<psa03 value="0.15809799404954" flag="0"/>
			<psa10 value="0.015402136253422" flag="0"/>
			<psa30 value="0.00119536689552138" flag="0"/>
		</comp>
		<comp name=".HNN" depth="0.0">
			<acc value="0.022773096027354" flag="0"/>
			<vel value="0.0138304458121" flag="0"/>
			<psa03 value="0.0704352128620475" flag="0"/>
			<psa10 value="0.0174882897633808" flag="0"/>
			<psa30 value="0.000789146652094998" flag="0"/>
		</comp>
		<comp name=".HNZ" depth="0.0">
			<acc value="0.015042290847564" flag="0"/>
			<vel value="0.00746019789495" flag="0"/>
			<psa03 value="0.0529833588457949" flag="0"/>
			<psa10 value="0.010427375449958" flag="0"/>
			<psa30 value="0.00079486770816865" flag="0"/>
		</comp>
	</station>
	<station code="CH01" name="CH01" netid="HI" source="ITSAK Strong Motion Network" insttype="" lat="35.517" lon="24.0208">
		<comp name=".HNE" depth="0.0">
			<acc value="0.010888793347002" flag="0"/>
			<vel value="0.00505347951196" flag="0"/>
			<psa03 value="0.017808871156552" flag="0"/>
			<psa10 value="0.00766931992980171" flag="0"/>
			<psa30 value="0.000631584756056022" flag="0"/>
		</comp>
		<comp name=".HNN" depth="0.0">
			<acc value="0.0100290998359308" flag="0"/>
			<vel value="0.00532448984526" flag="0"/>
			<psa03 value="0.0259051353589257" flag="0"/>
			<psa10 value="0.00788259937101671" flag="0"/>
			<psa30 value="0.000725570513400394" flag="0"/>
		</comp>
		<comp name=".HNZ" depth="0.0">
			<acc value="0.0085547369427846" flag="0"/>
			<vel value="0.00274890651611" flag="0"/>
			<psa03 value="0.0106619523957535" flag="0"/>
			<psa10 value="0.00487809815008075" flag="0"/>
			<psa30 value="0.00031732745367792" flag="0"/>
		</comp>
	</station>
	<station code="CH02" name="CH02" netid="HI" source="ITSAK Strong Motion Network" insttype="" lat="35.5145" lon="24.0315">
		<comp name=".HNE" depth="0.0">
			<acc value="0.0101183419378668" flag="0"/>
			<vel value="0.0047419285917" flag="0"/>
			<psa03 value="0.0223729169917959" flag="0"/>
			<psa10 value="0.00703317841356041" flag="0"/>
			<psa30 value="0.000669363560800797" flag="0"/>
		</comp>
		<comp name=".HNN" depth="0.0">
			<acc value="0.012494900136288" flag="0"/>
			<vel value="0.00656766461891" flag="0"/>
			<psa03 value="0.0291332762907482" flag="0"/>
			<psa10 value="0.00878872877266373" flag="0"/>
			<psa30 value="0.000683939786822396" flag="0"/>
		</comp>
		<comp name=".HNZ" depth="0.0">
			<acc value="0.0052647931013106" flag="0"/>
			<vel value="0.0028007682636" flag="0"/>
			<psa03 value="0.0100582255528727" flag="0"/>
			<psa10 value="0.00588055455787777" flag="0"/>
			<psa30 value="0.000275188880954391" flag="0"/>
		</comp>
	</station>
	<station code="CH03" name="CH03" netid="HI" source="ITSAK Strong Motion Network" insttype="" lat="35.53303" lon="24.0705">
		<comp name=".HNE" depth="0.0">
			<acc value="0.0071479128201666" flag="0"/>
			<vel value="0.00424411772754" flag="0"/>
			<psa03 value="0.0259544328954597" flag="0"/>
			<psa10 value="0.00635482691360655" flag="0"/>
			<psa30 value="0.000430472813586241" flag="0"/>
		</comp>
		<comp name=".HNN" depth="0.0">
			<acc value="0.007488112486938" flag="0"/>
			<vel value="0.00494866789441" flag="0"/>
			<psa03 value="0.0247381309672486" flag="0"/>
			<psa10 value="0.00562545844027498" flag="0"/>
			<psa30 value="0.000604193566524619" flag="0"/>
		</comp>
		<comp name=".HNZ" depth="0.0">
			<acc value="0.005620547883852" flag="0"/>
			<vel value="0.00280221636692" flag="0"/>
			<psa03 value="0.013148455656068" flag="0"/>
			<psa10 value="0.00308628734201346" flag="0"/>
			<psa30 value="0.000301930053467802" flag="0"/>
		</comp>
	</station>
	<station code="GOR1" name="GOR1" netid="HI" source="ITSAK Strong Motion Network" insttype="" lat="35.0582" lon="24.9628">
		<comp name=".HNE" depth="0.0">
			<acc value="0.014323618778466" flag="0"/>
			<vel value="0.00971500955277" flag="0"/>
			<psa03 value="0.0534872932705799" flag="0"/>
			<psa10 value="0.00905480233621353" flag="0"/>
			<psa30 value="0.00089971210151018" flag="0"/>
		</comp>
		<comp name=".HNN" depth="0.0">
			<acc value="0.0092933007664662" flag="0"/>
			<vel value="0.00735848273097" flag="0"/>
			<psa03 value="0.0411480513772971" flag="0"/>
			<psa10 value="0.00937279152645486" flag="0"/>
			<psa30 value="0.000907220932269129" flag="0"/>
		</comp>
		<comp name=".HNZ" depth="0.0">
			<acc value="0.008737015006842" flag="0"/>
			<vel value="0.00492809580748" flag="0"/>
			<psa03 value="0.024213518089224" flag="0"/>
			<psa10 value="0.00624522309037131" flag="0"/>
			<psa30 value="0.000461243211347483" flag="0"/>
		</comp>
	</station>
	<station code="KRL1" name="KRL1" netid="HI" source="ITSAK Strong Motion Network" insttype="" lat="37.7951" lon="26.7065">
		<comp name=".HNE" depth="0.0">
			<acc value="0.01706752709961" flag="0"/>
			<vel value="0.00862195373769" flag="0"/>
			<psa03 value="0.0554956919422567" flag="0"/>
			<psa10 value="0.00817634976805849" flag="0"/>
			<psa30 value="0.000481597007605791" flag="0"/>
		</comp>
		<comp name=".HNN" depth="0.0">
			<acc value="0.012500049985932" flag="0"/>
			<vel value="0.00641933970427" flag="0"/>
			<psa03 value="0.0262720112251271" flag="0"/>
			<psa10 value="0.0135522877725608" flag="0"/>
			<psa30 value="0.000790364753618785" flag="0"/>
		</comp>
		<comp name=".HNZ" depth="0.0">
			<acc value="0.007673780400258" flag="0"/>
			<vel value="0.00396254878937" flag="0"/>
			<psa03 value="0.0152811125591309" flag="0"/>
			<psa10 value="0.00324053927919795" flag="0"/>
			<psa30 value="0.000298186654444196" flag="0"/>
		</comp>
	</station>
	<station code="KTL1" name="KTL1" netid="HI" source="ITSAK Strong Motion Network" insttype="" lat="35.20778" lon="25.34272">
		<comp name=".HNE" depth="0.0">
			<acc value="0.026326473440988" flag="0"/>
			<vel value="0.0134840364759" flag="0"/>
			<psa03 value="0.0781897942735733" flag="0"/>
			<psa10 value="0.0103670780180302" flag="0"/>
			<psa30 value="0.000872509987004861" flag="0"/>
		</comp>
		<comp name=".HNN" depth="0.0">
			<acc value="0.025661393898546" flag="0"/>
			<vel value="0.0127374825254" flag="0"/>
			<psa03 value="0.0997713593628664" flag="0"/>
			<psa10 value="0.0109948452295516" flag="0"/>
			<psa30 value="0.000518369756116956" flag="0"/>
		</comp>
		<comp name=".HNZ" depth="0.0">
			<acc value="0.010399538754192" flag="0"/>
			<vel value="0.00607596668751" flag="0"/>
			<psa03 value="0.0290047834037317" flag="0"/>
			<psa10 value="0.00917536251024623" flag="0"/>
			<psa30 value="0.000412373880245641" flag="0"/>
		</comp>
	</station>
	<station code="RKL1" name="RKL1" netid="HI" source="ITSAK Strong Motion Network" insttype="" lat="36.336699" lon="28.171224">
		<comp name=".HNE" depth="0.0">
			<acc value="0.0039848667965802" flag="0"/>
			<vel value="0.00365097801888" flag="0"/>
			<psa03 value="0.00993932574926866" flag="0"/>
			<psa10 value="0.00668896795506447" flag="0"/>
			<psa30 value="0.000668517463083305" flag="0"/>
		</comp>
		<comp name=".HNN" depth="0.0">
			<acc value="0.00329439023496" flag="0"/>
			<vel value="0.00353790233797" flag="0"/>
			<psa03 value="0.00977009383535556" flag="0"/>
			<psa10 value="0.0056942520600223" flag="0"/>
			<psa30 value="0.000517566004956217" flag="0"/>
		</comp>
		<comp name=".HNZ" depth="0.0">
			<acc value="0.002201138945262" flag="0"/>
			<vel value="0.00174800139007" flag="0"/>
			<psa03 value="0.0089249200081894" flag="0"/>
			<psa10 value="0.00149534569993802" flag="0"/>
			<psa30 value="0.00037562785225185" flag="0"/>
		</comp>
	</station>
	<station code="RTH1" name="RTH1" netid="HI" source="ITSAK Strong Motion Network" insttype="" lat="35.365393" lon="24.471773">
		<comp name=".HNE" depth="0.0">
			<acc value="0.010644389652702" flag="0"/>
			<vel value="0.00431517107782" flag="0"/>
			<psa03 value="0.0420562756052101" flag="0"/>
			<psa10 value="0.00272608160515101" flag="0"/>
			<psa30 value="0.000587826753139173" flag="0"/>
		</comp>
		<comp name=".HNN" depth="0.0">
			<acc value="0.0080345011093482" flag="0"/>
			<vel value="0.00430173707803" flag="0"/>
			<psa03 value="0.027918628117938" flag="0"/>
			<psa10 value="0.00333594864647605" flag="0"/>
			<psa30 value="0.000601007574218349" flag="0"/>
		</comp>
		<comp name=".HNZ" depth="0.0">
			<acc value="0.0089542143617016" flag="0"/>
			<vel value="0.0029415921824" flag="0"/>
			<psa03 value="0.0158715735492905" flag="0"/>
			<psa10 value="0.00269278854027711" flag="0"/>
			<psa30 value="0.000289980954606537" flag="0"/>
		</comp>
	</station>
	<station code="SFR2" name="SFR2" netid="HI" source="ITSAK Strong Motion Network" insttype="" lat="36.399841" lon="25.438209">
		<comp name=".HNE" depth="0.0">
			<acc value="0.40375125336546" flag="0"/>
			<vel value="0.117291038431" flag="0"/>
			<psa03 value="0.521708685638818" flag="0"/>
			<psa10 value="0.0867926745887776" flag="0"/>
			<psa30 value="0.00521262447746721" flag="0"/>
		</comp>
		<comp name=".HNN" depth="0.0">
			<acc value="0.38322462428532" flag="0"/>
			<vel value="0.117239087205" flag="0"/>
			<psa03 value="0.4628905808945" flag="0"/>
			<psa10 value="0.0895031741458756" flag="0"/>
			<psa30 value="0.0049350877586826" flag="0"/>
		</comp>
		<comp name=".HNZ" depth="0.0">
			<acc value="0.39170714590668" flag="0"/>
			<vel value="0.103725776255" flag="0"/>
			<psa03 value="0.365107436576012" flag="0"/>
			<psa10 value="0.0373071601662626" flag="0"/>
			<psa30 value="0.00365157981590903" flag="0"/>
		</comp>
	</station>
	<station code="AMGA" name="AMGA" netid="HL" source="National Observatory of Athens Seismic Network" insttype="" lat="36.831561" lon="25.893836">
		<comp name="00.HNE" depth="0.0">
			<acc value="0.23925421272912" flag="0"/>
			<vel value="0.0355334771605" flag="0"/>
			<psa03 value="0.136810240090297" flag="0"/>
			<psa10 value="0.0327173848661596" flag="0"/>
			<psa30 value="0.00282530987124588" flag="0"/>
		</comp>
		<comp name="00.HNN" depth="0.0">
			<acc value="0.19335111525534" flag="0"/>
			<vel value="0.0509166051749" flag="0"/>
			<psa03 value="0.232111813768609" flag="0"/>
			<psa10 value="0.0361048380183072" flag="0"/>
			<psa30 value="0.00440236080146186" flag="0"/>
		</comp>
		<comp name="00.HNZ" depth="0.0">
			<acc value="0.13616473697442" flag="0"/>
			<vel value="0.031896778291" flag="0"/>
			<psa03 value="0.176310263023175" flag="0"/>
			<psa10 value="0.0239051992271483" flag="0"/>
			<psa30 value="0.00292394765551495" flag="0"/>
		</comp>
	</station>
	<station code="ANAF" name="ANAF" netid="HL" source="National Observatory of Athens Seismic Network" insttype="" lat="36.35675" lon="25.77262">
		<comp name=".HNE" depth="0.0">
			<acc value="1.4988798340272" flag="0"/>
			<vel value="0.46371491568" flag="0"/>
			<psa03 value="2.77789368849198" flag="0"/>
			<psa10 value="0.178296156245417" flag="0"/>
			<psa30 value="0.013088632891038" flag="0"/>
		</comp>
		<comp name=".HNN" depth="0.0">
			<acc value="1.721292153387" flag="0"/>
			<vel value="0.532465195552" flag="0"/>
			<psa03 value="3.06003337885937" flag="0"/>
			<psa10 value="0.108087800286421" flag="0"/>
			<psa30 value="0.0109832567535258" flag="0"/>
		</comp>
		<comp name=".HNZ" depth="0.0">
			<acc value="0.93756286815714" flag="0"/>
			<vel value="0.226249373216" flag="0"/>
			<psa03 value="1.14117501390925" flag="0"/>
			<psa10 value="0.0541436417506248" flag="0"/>
			<psa30 value="0.00559430392849276" flag="0"/>
		</comp>
	</station>
	<station code="ASTA" name="ASTA" netid="HL" source="National Observatory of Athens Seismic Network" insttype="" lat="36.54552" lon="26.35295">
		<comp name="00.HNE" depth="0.0">
			<acc value="0.038583534165804" flag="0"/>
			<vel value="0.0157038171473" flag="0"/>
			<psa03 value="0.0573708369947925" flag="0"/>
			<psa10 value="0.014175815328188" flag="0"/>
			<psa30 value="0.000959420431894957" flag="0"/>
		</comp>
		<comp name="00.HNN" depth="0.0">
			<acc value="0.041650674047178" flag="0"/>
			<vel value="0.0163958124819" flag="0"/>
			<psa03 value="0.101374132205367" flag="0"/>
			<psa10 value="0.00996052202318384" flag="0"/>
			<psa30 value="0.00131271748192615" flag="0"/>
		</comp>
		<comp name="00.HNZ" depth="0.0">
			<acc value="0.032439081895524" flag="0"/>
			<vel value="0.00909851155102" flag="0"/>
			<psa03 value="0.043226030179032" flag="0"/>
			<psa10 value="0.00685282287215076" flag="0"/>
			<psa30 value="0.00159658743274693" flag="0"/>
		</comp>
	</station>
	<station code="CHNB" name="CHNB" netid="HL" source="National Observatory of Athens Seismic Network" insttype="" lat="35.48765" lon="24.06605">
		<comp name="00.HNE" depth="0.0">
			<acc value="0.015350366956788" flag="0"/>
			<vel value="0.0134397115102" flag="0"/>
			<psa03 value="0.0403612414424946" flag="0"/>
			<psa10 value="0.0235728428351638" flag="0"/>
			<psa30 value="0.00100273059264762" flag="0"/>
		</comp>
		<comp name="00.HNN" depth="0.0">
			<acc value="0.016148589098328" flag="0"/>
			<vel value="0.0117980133346" flag="0"/>
			<psa03 value="0.0381940119366945" flag="0"/>
			<psa10 value="0.0257495226545141" flag="0"/>
			<psa30 value="0.000970849939044103" flag="0"/>
		</comp>
		<comp name="00.HNZ" depth="0.0">
			<acc value="0.011015664802704" flag="0"/>
			<vel value="0.00646204026716" flag="0"/>
			<psa03 value="0.0463490078942487" flag="0"/>
			<psa10 value="0.00766198678776437" flag="0"/>
			<psa30 value="0.000359638563873077" flag="0"/>
		</comp>
	</station>
	<station code="HERG" name="HERG" netid="HL" source="National Observatory of Athens Seismic Network" insttype="" lat="35.32622" lon="25.06586">
		<comp name="00.HNE" depth="0.0">
			<acc value="0.037064558155056" flag="0"/>
			<vel value="0.0179523021138" flag="0"/>
			<psa03 value="0.0988458918052528" flag="0"/>
			<psa10 value="0.0255841404487464" flag="0"/>
			<psa30 value="0.00208355240012179" flag="0"/>
		</comp>
		<comp name="00.HNN" depth="0.0">
			<acc value="0.028975943687376" flag="0"/>
			<vel value="0.0160095964721" flag="0"/>
			<psa03 value="0.11880562028907" flag="0"/>
			<psa10 value="0.0205669549598365" flag="0"/>
			<psa30 value="0.00157586720596845" flag="0"/>
		</comp>
		<comp name="00.HNZ" depth="0.0">
			<acc value="0.024896291393136" flag="0"/>
			<vel value="0.0166187193476" flag="0"/>
			<psa03 value="0.0539125506086712" flag="0"/>
			<psa10 value="0.0119177138650432" flag="0"/>
			<psa30 value="0.000866220820377844" flag="0"/>
		</comp>
	</station>
	<station code="IACM" name="IACM" netid="HL" source="National Observatory of Athens Seismic Network" insttype="" lat="35.3058" lon="25.0709">
		<comp name=".HNE" depth="0.0">
			<acc value="0.066818681056902" flag="0"/>
			<vel value="0.0335656692987" flag="0"/>
			<psa03 value="0.152697334198944" flag="0"/>
			<psa10 value="0.0372920391645738" flag="0"/>
			<psa30 value="0.00222393732493327" flag="0"/>
		</comp>
