<?xml version="1.0" encoding="UTF-8" standalone="yes"?>
<!DOCTYPE earthquake SYSTEM "stationlist.dtd">
<stationlist created="" xmlns="ch.ethz.sed.shakemap.usgs.xml">
  <station code="APE" name="APE" netid="GE" insttype="STS-2/N" lat="37.0727" lon="25.523">
    <comp name="--.HHE">
      <acc value="0.1181723075" flag="0"/>
      <vel value="0.0217283080" flag="0"/>
      <psa03 value="0.1033499150" flag="0"/>
      <psa10 value="0.0126442534" flag="0"/>
      <psa30 value="0.0020911749" flag="0"/>
    </comp>
    <comp name="--.HHZ">
      <acc value="0.0706748040" flag="0"/>
      <vel value="0.0140713361" flag="0"/>
      <psa03 value="0.0760236815" flag="0"/>
      <psa10 value="0.0102161707" flag="0"/>
      <psa30 value="0.0027277111" flag="0"/>
    </comp>
    <comp name="--.HHN">
      <acc value="0.1484610488" flag="0"/>
      <vel value="0.0351099391" flag="0"/>
      <psa03 value="0.0934303728" flag="0"/>
      <psa10 value="0.0165764096" flag="0"/>
      <psa30 value="0.0025803652" flag="0"/>
    </comp>
  </station>
  <station code="THERA" name="THERA" netid="GE" insttype="STS-2/N" lat="36.367" lon="25.4753">
    <comp name="--.HHE">
      <acc value="0.1850754410" flag="0"/>
      <vel value="0.0675052866" flag="0"/>
      <psa03 value="0.3275916873" flag="0"/>
      <psa10 value="0.0198347648" flag="0"/>
      <psa30 value="0.0028516687" flag="0"/>
    </comp>
    <comp name="--.HHN">
      <acc value="0.1292309880" flag="0"/>
      <vel value="0.0440657831" flag="0"/>
      <psa03 value="0.1514755500" flag="0"/>
      <psa10 value="0.0144579018" flag="0"/>
      <psa30 value="0.0014051398" flag="0"/>
    </comp>
    <comp name="--.HHZ">
      <acc value="0.2285250574" flag="0"/>
      <vel value="0.0627456665" flag="0"/>
      <psa03 value="0.2332010373" flag="0"/>
      <psa10 value="0.0138409440" flag="0"/>
      <psa30 value="0.0015245155" flag="0"/>
    </comp>
  </station>
</stationlist>
