<?xml version="1.0" encoding="UTF-8" standalone="yes"?>
<!DOCTYPE earthquake SYSTEM "stationlist.dtd">
<stationlist created="" xmlns="ch.ethz.sed.shakemap.usgs.xml">
  <station code="APE" name="APE" netid="GE" insttype="STS-2/N" lat="37.0727" lon="25.523">
    <comp name="--.HHZ">
      <acc value="0.0706748041" flag="0"/>
      <vel value="0.0140713388" flag="0"/>
      <psa03 value="0.0760236815" flag="0"/>
      <psa10 value="0.0102161706" flag="0"/>
      <psa30 value="0.0027276989" flag="0"/>
    </comp>
    <comp name="--.HHE">
      <acc value="0.1181723076" flag="0"/>
      <vel value="0.0217283084" flag="0"/>
      <psa03 value="0.1033499150" flag="0"/>
      <psa10 value="0.0126442529" flag="0"/>
      <psa30 value="0.0020911900" flag="0"/>
    </comp>
    <comp name="--.HHN">
      <acc value="0.1484610488" flag="0"/>
      <vel value="0.0351099453" flag="0"/>
      <psa03 value="0.0934303728" flag="0"/>
      <psa10 value="0.0165764096" flag="0"/>
      <psa30 value="0.0025804808" flag="0"/>
    </comp>
  </station>
  <station code="THERA" name="THERA" netid="GE" insttype="STS-2/N" lat="36.367" lon="25.4753">
    <comp name="--.HHE">
      <acc value="0.1850754410" flag="0"/>
      <vel value="0.0675052861" flag="0"/>
      <psa03 value="0.3275916873" flag="0"/>
      <psa10 value="0.0198347767" flag="0"/>
      <psa30 value="0.0028516695" flag="0"/>
    </comp>
    <comp name="--.HHN">
      <acc value="0.1292309881" flag="0"/>
      <vel value="0.0440657835" flag="0"/>
      <psa03 value="0.1514755500" flag="0"/>
      <psa10 value="0.0144579022" flag="0"/>
      <psa30 value="0.0014051693" flag="0"/>
    </comp>
    <comp name="--.HHZ">
      <acc value="0.2285250575" flag="0"/>
      <vel value="0.0627456706" flag="0"/>
      <psa03 value="0.2332010373" flag="0"/>
      <psa10 value="0.0138409458" flag="0"/>
      <psa30 value="0.0015245251" flag="0"/>
    </comp>
  </station>
  <station code="SERI" name="SERI" netid="HA" insttype="30" lat="37.1609" lon="24.4853">
    <comp name="--.HHE">
      <acc value="0.0291247961" flag="0"/>
      <vel value="0.0076569932" flag="0"/>
      <psa03 value="0.0448289688" flag="0"/>
      <psa10 value="0.0056926849" flag="0"/>
      <psa30 value="0.0005876042" flag="0"/>
    </comp>
    <comp name="--.HHN">
      <acc value="0.0461574107" flag="0"/>
      <vel value="0.0125451157" flag="0"/>
      <psa03 value="0.0640869661" flag="0"/>
      <psa10 value="0.0072871470" flag="0"/>
      <psa30 value="0.0009680750" flag="0"/>
    </comp>
    <comp name="--.HHZ">
      <acc value="0.0360996001" flag="0"/>
      <vel value="0.0099296860" flag="0"/>
      <psa03 value="0.0310133557" flag="0"/>
      <psa10 value="0.0047764121" flag="0"/>
      <psa30 value="0.0007905212" flag="0"/>
    </comp>
  </station>
  <station code="SNT1" name="SNT1" netid="HA" insttype="30" lat="36.4159" lon="25.4282">
    <comp name="--.HHE">
      <acc value="0.1341832829" flag="0"/>
      <vel value="0.0363865748" flag="0"/>
      <psa03 value="0.1734027769" flag="0"/>
      <psa10 value="0.0304931295" flag="0"/>
      <psa30 value="0.0041557484" flag="0"/>
    </comp>
    <comp name="--.HHN">
      <acc value="0.1134572350" flag="0"/>
      <vel value="0.0378638700" flag="0"/>
      <psa03 value="0.1222070635" flag="0"/>
      <psa10 value="0.0254237515" flag="0"/>
      <psa30 value="0.0043003872" flag="0"/>
    </comp>
    <comp name="--.HHZ">
      <acc value="0.1211750839" flag="0"/>
      <vel value="0.0281439406" flag="0"/>
      <psa03 value="0.0924414066" flag="0"/>
      <psa10 value="0.0225030928" flag="0"/>
      <psa30 value="0.0020416472" flag="0"/>
    </comp>
  </station>
  <station code="NAX1" name="NAX1" netid="HI" insttype="CMG-5TD,ACCELEROMETER,GURALP" lat="37.1014" lon="25.3741">
    <comp name="--.HNE">
      <acc value="0.1073764159" flag="0"/>
      <vel value="0.0216579075" flag="0"/>
      <psa03 value="0.1125117555" flag="0"/>
      <psa10 value="0.0062189908" flag="0"/>
      <psa30 value="0.0010294883" flag="0"/>
    </comp>
    <comp name="--.HNN">
      <acc value="0.0859027941" flag="0"/>
      <vel value="0.0249259925" flag="0"/>
      <psa03 value="0.0746268517" flag="0"/>
      <psa10 value="0.0129962289" flag="0"/>
      <psa30 value="0.0015421664" flag="0"/>
    </comp>
    <comp name="--.HNZ">
      <acc value="0.0488598201" flag="0"/>
      <vel value="0.0118954086" flag="0"/>
      <psa03 value="0.0401963915" flag="0"/>
      <psa10 value="0.0110463839" flag="0"/>
      <psa30 value="0.0020984842" flag="0"/>
    </comp>
  </station>
  <station code="SFR2" name="SFR2" netid="HI" insttype="unknown" lat="36.3998" lon="25.4382">
    <comp name="--.HNE">
      <acc value="0.4042970148" flag="0"/>
      <vel value="0.1168236732" flag="0"/>
      <psa03 value="0.5297519015" flag="0"/>
      <psa10 value="0.0868215124" flag="0"/>
      <psa30 value="0.0046232516" flag="0"/>
    </comp>
    <comp name="--.HNN">
      <acc value="0.3821568014" flag="0"/>
      <vel value="0.1172790785" flag="0"/>
      <psa03 value="0.4601907015" flag="0"/>
      <psa10 value="0.0892788387" flag="0"/>
      <psa30 value="0.0046958565" flag="0"/>
    </comp>
    <comp name="--.HNZ">
      <acc value="0.3905500288" flag="0"/>
      <vel value="0.1031185806" flag="0"/>
      <psa03 value="0.3576175271" flag="0"/>
      <psa10 value="0.0370989767" flag="0"/>
      <psa30 value="0.0034239217" flag="0"/>
    </comp>
  </station>
  <station code="AMGA" name="AMGA" netid="HL" insttype="SMART24" lat="36.8316" lon="25.8938">
    <comp name="--.HHE">
      <acc value="0.4063480310" flag="0"/>
      <vel value="0.0566763440" flag="0"/>
      <psa03 value="0.2199212280" flag="0"/>
      <psa10 value="0.0505636637" flag="0"/>
      <psa30 value="0.0039894836" flag="0"/>
    </comp>
    <comp name="--.HHN">
      <acc value="0.3268782591" flag="0"/>
      <vel value="0.0832548358" flag="0"/>
      <psa03 value="0.3830433403" flag="0"/>
      <psa10 value="0.0601257070" flag="0"/>
      <psa30 value="0.0066276567" flag="0"/>
    </comp>
    <comp name="--.HHZ">
      <acc value="0.2208001686" flag="0"/>
      <vel value="0.0496739802" flag="0"/>
      <psa03 value="0.2853049695" flag="0"/>
      <psa10 value="0.0394169352" flag="0"/>
      <psa30 value="0.0041710705" flag="0"/>
    </comp>
  </station>
  <station code="APE" name="APE" netid="HL" insttype="120" lat="37.0727" lon="25.523">
    <comp name="--.HHE">
      <acc value="0.1048505730" flag="0"/>
      <vel value="0.0205074243" flag="0"/>
      <psa03 value="0.1005551058" flag="0"/>
      <psa10 value="0.0124813402" flag="0"/>
      <psa30 value="0.0020858185" flag="0"/>
    </comp>
    <comp name="--.HHN">
      <acc value="0.1408696047" flag="0"/>
      <vel value="0.0335821378" flag="0"/>
      <psa03 value="0.0912555728" flag="0"/>
      <psa10 value="0.0164419805" flag="0"/>
      <psa30 value="0.0025767887" flag="0"/>
    </comp>
  </station>
  <station code="MHLO" name="MHLO" netid="HL" insttype="20" lat="36.6898" lon="24.4017">
    <comp name="--.HHE">
      <acc value="0.1088649476" flag="0"/>
      <vel value="0.0412243049" flag="0"/>
      <psa03 value="0.1419434880" flag="0"/>
      <psa10 value="0.0727264864" flag="0"/>
      <psa30 value="0.0031449195" flag="0"/>
    </comp>
    <comp name="--.HHN">
      <acc value="0.0925126120" flag="0"/>
      <vel value="0.0354953273" flag="0"/>
      <psa03 value="0.0846328189" flag="0"/>
      <psa10 value="0.0657260280" flag="0"/>
      <psa30 value="0.0023670035" flag="0"/>
    </comp>
    <comp name="--.HHZ">
      <acc value="0.0367260496" flag="0"/>
      <vel value="0.0246295788" flag="0"/>
      <psa03 value="0.0638403302" flag="0"/>
      <psa10 value="0.0412851484" flag="0"/>
      <psa30 value="0.0019519198" flag="0"/>
    </comp>
  </station>
  <station code="MILA" name="MILA" netid="HL" insttype="CMG-5" lat="36.7429" lon="24.4282">
    <comp name="00.HNE">
      <acc value="0.1091619531" flag="0"/>
      <vel value="0.0370504538" flag="0"/>
      <psa03 value="0.2076616286" flag="0"/>
      <psa10 value="0.0312364291" flag="0"/>
      <psa30 value="0.0016812198" flag="0"/>
    </comp>
    <comp name="00.HNN">
      <acc value="0.1340702641" flag="0"/>
      <vel value="0.0536219852" flag="0"/>
      <psa03 value="0.2702231148" flag="0"/>
      <psa10 value="0.0459455784" flag="0"/>
      <psa30 value="0.0030804495" flag="0"/>
    </comp>
    <comp name="00.HNZ">
      <acc value="0.0947657269" flag="0"/>
      <vel value="0.0339045703" flag="0"/>
      <psa03 value="0.1271528071" flag="0"/>
      <psa10 value="0.0313206488" flag="0"/>
      <psa30 value="0.0016000104" flag="0"/>
    </comp>
  </station>
  <station code="SANT" name="SANT" netid="HL" insttype="30" lat="36.3705" lon="25.4593">
    <comp name="--.HHE">
      <acc value="0.4746727658" flag="0"/>
      <vel value="0.1422089093" flag="0"/>
      <psa03 value="0.8288108945" flag="0"/>
      <psa10 value="0.0408712024" flag="0"/>
      <psa30 value="0.0034440314" flag="0"/>
    </comp>
    <comp name="--.HHN">
      <acc value="0.2992333573" flag="0"/>
      <vel value="0.0767524924" flag="0"/>
      <psa03 value="0.3071208957" flag="0"/>
      <psa10 value="0.0166373023" flag="0"/>
      <psa30 value="0.0024891687" flag="0"/>
    </comp>
    <comp name="--.HHZ">
      <acc value="0.4315311341" flag="0"/>
      <vel value="0.1052105225" flag="0"/>
      <psa03 value="0.4652672189" flag="0"/>
      <psa10 value="0.0201868250" flag="0"/>
      <psa30 value="0.0016944965" flag="0"/>
    </comp>
  </station>
  <station code="SAP3" name="SAP3" netid="HL" insttype="65535" lat="36.4356" lon="25.3454">
    <comp name="--.HHE">
      <acc value="0.2277365377" flag="0"/>
      <vel value="0.0614321276" flag="0"/>
      <psa03 value="0.1529973312" flag="0"/>
      <psa10 value="0.0256968089" flag="0"/>
      <psa30 value="0.0033517091" flag="0"/>
    </comp>
    <comp name="--.HHN">
      <acc value="0.1977702923" flag="0"/>
      <vel value="0.0427968311" flag="0"/>
      <psa03 value="0.1727108617" flag="0"/>
      <psa10 value="0.0302111601" flag="0"/>
      <psa30 value="0.0031572415" flag="0"/>
    </comp>
    <comp name="--.HHZ">
      <acc value="0.1764169100" flag="0"/>
      <vel value="0.0354060380" flag="0"/>
      <psa03 value="0.1730324472" flag="0"/>
      <psa10 value="0.0131463277" flag="0"/>
      <psa30 value="0.0020602489" flag="0"/>
    </comp>
  </station>
  <station code="THERA" name="THERA" netid="HL" insttype="120" lat="36.367" lon="25.4753">
    <comp name="--.HHE">
      <acc value="0.1802656416" flag="0"/>
      <vel value="0.0656828433" flag="0"/>
      <psa03 value="0.3185719684" flag="0"/>
      <psa10 value="0.0195498314" flag="0"/>
      <psa30 value="0.0028479011" flag="0"/>
    </comp>
    <comp name="--.HHN">
      <acc value="0.2515439107" flag="0"/>
      <vel value="0.0855776712" flag="0"/>
      <psa03 value="0.2941405199" flag="0"/>
      <psa10 value="0.0286688444" flag="0"/>
      <psa30 value="0.0028013621" flag="0"/>
    </comp>
    <comp name="--.HHZ">
      <acc value="0.2224852250" flag="0"/>
      <vel value="0.0607404963" flag="0"/>
      <psa03 value="0.2264158814" flag="0"/>
      <psa10 value="0.0136213655" flag="0"/>
      <psa30 value="0.0015090914" flag="0"/>
    </comp>
  </station>
  <station code="THRA" name="THRA" netid="HL" insttype="CMG-5" lat="36.415" lon="25.4324">
    <comp name="00.HNE">
      <acc value="0.5491252868" flag="0"/>
      <vel value="0.1479944173" flag="0"/>
      <psa03 value="0.9106970274" flag="0"/>
      <psa10 value="0.0844943118" flag="0"/>
      <psa30 value="0.0082751291" flag="0"/>
    </comp>
    <comp name="00.HNN">
      <acc value="0.4176621072" flag="0"/>
      <vel value="0.1336225379" flag="0"/>
      <psa03 value="0.5490116040" flag="0"/>
      <psa10 value="0.0958246171" flag="0"/>
      <psa30 value="0.0061739618" flag="0"/>
    </comp>
    <comp name="00.HNZ">
      <acc value="0.3187584790" flag="0"/>
      <vel value="0.0815373395" flag="0"/>
      <psa03 value="0.4690340118" flag="0"/>
      <psa10 value="0.0449619170" flag="0"/>
      <psa30 value="0.0046638871" flag="0"/>
    </comp>
  </station>
  <station code="TNSA" name="TNSA" netid="HL" insttype="CMG-5" lat="37.5394" lon="25.1631">
    <comp name="00.HNE">
      <acc value="0.0305716064" flag="0"/>
      <vel value="0.0109251788" flag="0"/>
      <psa03 value="0.0350973348" flag="0"/>
      <psa10 value="0.0066411323" flag="0"/>
      <psa30 value="0.0006929982" flag="0"/>
    </comp>
    <comp name="00.HNN">
      <acc value="0.0422037635" flag="0"/>
      <vel value="0.0158128142" flag="0"/>
      <psa03 value="0.0654039109" flag="0"/>
      <psa10 value="0.0076161703" flag="0"/>
      <psa30 value="0.0008347033" flag="0"/>
    </comp>
    <comp name="00.HNZ">
      <acc value="0.0290554704" flag="0"/>
      <vel value="0.0092955258" flag="0"/>
      <psa03 value="0.0662512445" flag="0"/>
      <psa10 value="0.0078733264" flag="0"/>
      <psa30 value="0.0014756702" flag="0"/>
    </comp>
  </station>
  <station code="AKRO" name="AKRO" netid="HT" insttype="Compact," lat="36.3584" lon="25.3967">
    <comp name="--.HHN">
      <acc value="0.6686158211" flag="0"/>
      <vel value="0.1648565330" flag="0"/>
      <psa03 value="0.4732501070" flag="0"/>
      <psa10 value="0.0591615026" flag="0"/>
      <psa30 value="0.0028085172" flag="0"/>
    </comp>
    <comp name="--.HHE">
      <acc value="0.8303821186" flag="0"/>
      <vel value="0.2287199395" flag="0"/>
      <psa03 value="1.0247485552" flag="0"/>
      <psa10 value="0.0675206741" flag="0"/>
      <psa30 value="0.0046448521" flag="0"/>
    </comp>
    <comp name="--.HHZ">
      <acc value="0.3692036223" flag="0"/>
      <vel value="0.0940187018" flag="0"/>
      <psa03 value="0.5533198208" flag="0"/>
      <psa10 value="0.0308198944" flag="0"/>
      <psa30 value="0.0021495563" flag="0"/>
    </comp>
  </station>
  <station code="CMBO" name="CMBO" netid="HT" insttype="120P," lat="36.4709" lon="25.4056">
    <comp name="--.HHE">
      <acc value="0.2419076879" flag="0"/>
      <vel value="0.0603283874" flag="0"/>
      <psa03 value="0.2214367906" flag="0"/>
      <psa10 value="0.0384959687" flag="0"/>
      <psa30 value="0.0033783251" flag="0"/>
    </comp>
    <comp name="--.HHN">
      <acc value="0.2410824024" flag="0"/>
      <vel value="0.0772594692" flag="0"/>
      <psa03 value="0.2612508858" flag="0"/>
      <psa10 value="0.0618485869" flag="0"/>
      <psa30 value="0.0039053350" flag="0"/>
    </comp>
    <comp name="--.HHZ">
      <acc value="0.2307402049" flag="0"/>
      <vel value="0.0610083575" flag="0"/>
      <psa03 value="0.2686314715" flag="0"/>
      <psa10 value="0.0159254636" flag="0"/>
      <psa30 value="0.0027835602" flag="0"/>
    </comp>
  </station>
</stationlist>
