<?xml version="1.0" encoding="UTF-8" standalone="yes"?>
<!DOCTYPE earthquake SYSTEM "stationlist.dtd">
<stationlist created="" xmlns="ch.ethz.sed.shakemap.usgs.xml">
  <station code="GVD" name="GVD" netid="GE" insttype="STS-2/N" lat="34.8391" lon="24.0874">
    <comp name="--.HHE">
      <acc value="0.2386714680" flag="0"/>
      <vel value="0.0380028709" flag="0"/>
      <psa03 value="0.1146541677" flag="0"/>
      <psa10 value="0.0469087177" flag="0"/>
      <psa30 value="0.0100750363" flag="0"/>
    </comp>
    <comp name="--.HHN">
      <acc value="0.0268177905" flag="0"/>
      <vel value="0.0115607008" flag="0"/>
      <psa03 value="0.0991817457" flag="0"/>
      <psa10 value="0.0082848845" flag="0"/>
      <psa30 value="0.0007927411" flag="0"/>
    </comp>
    <comp name="--.HHZ">
      <acc value="0.0150707393" flag="0"/>
      <vel value="0.0044795134" flag="0"/>
      <psa03 value="0.0362906086" flag="0"/>
      <psa10 value="0.0032482445" flag="0"/>
      <psa30 value="0.0001846173" flag="0"/>
    </comp>
  </station>
  <station code="ZKR" name="ZKR" netid="GE" insttype="STS-2/N" lat="35.1147" lon="26.2169">
    <comp name="--.HHE">
      <acc value="0.0209541092" flag="0"/>
      <vel value="0.0116488007" flag="0"/>
      <psa03 value="0.0655663133" flag="0"/>
      <psa10 value="0.0120606091" flag="0"/>
      <psa30 value="0.0007728193" flag="0"/>
    </comp>
    <comp name="--.HHN">
      <acc value="0.0086270711" flag="0"/>
      <vel value="0.0042919059" flag="0"/>
      <psa03 value="0.0273757668" flag="0"/>
      <psa10 value="0.0044586825" flag="0"/>
      <psa30 value="0.0004033336" flag="0"/>
    </comp>
    <comp name="--.HHZ">
      <acc value="0.0175511030" flag="0"/>
      <vel value="0.0066584945" flag="0"/>
      <psa03 value="0.0418105784" flag="0"/>
      <psa10 value="0.0074407986" flag="0"/>
      <psa30 value="0.0006119761" flag="0"/>
    </comp>
  </station>
  <station code="CHAN" name="CHAN" netid="HC" insttype="120" lat="35.5193" lon="24.0428">
    <comp name="--.HHN">
      <acc value="0.0455855580" flag="0"/>
      <vel value="0.0187053040" flag="0"/>
      <psa03 value="0.1032606140" flag="0"/>
      <psa10 value="0.0388994058" flag="0"/>
      <psa30 value="0.0023411310" flag="0"/>
    </comp>
    <comp name="--.HHE">
      <acc value="0.0380225297" flag="0"/>
      <vel value="0.0292990301" flag="0"/>
      <psa03 value="0.1396539161" flag="0"/>
      <psa10 value="0.0281250402" flag="0"/>
      <psa30 value="0.0025065870" flag="0"/>
    </comp>
    <comp name="--.HHZ">
      <acc value="0.0272833385" flag="0"/>
      <vel value="0.0138470842" flag="0"/>
      <psa03 value="0.0590715204" flag="0"/>
      <psa10 value="0.0236562398" flag="0"/>
      <psa30 value="0.0012682711" flag="0"/>
    </comp>
  </station>
  <station code="GVDS" name="GVDS" netid="HC" insttype="60" lat="34.8389" lon="24.0585">
    <comp name="--.HHN">
      <acc value="0.0185362939" flag="0"/>
      <vel value="0.0072214267" flag="0"/>
      <psa03 value="0.0653274068" flag="0"/>
      <psa10 value="0.0051178758" flag="0"/>
      <psa30 value="0.0006355846" flag="0"/>
    </comp>
    <comp name="--.HHE">
      <acc value="0.0242735949" flag="0"/>
      <vel value="0.0084720567" flag="0"/>
      <psa03 value="0.0885686589" flag="0"/>
      <psa10 value="0.0046365907" flag="0"/>
      <psa30 value="0.0003122715" flag="0"/>
    </comp>
    <comp name="--.HHZ">
      <acc value="0.0091735708" flag="0"/>
      <vel value="0.0033747062" flag="0"/>
      <psa03 value="0.0201770337" flag="0"/>
      <psa10 value="0.0036334919" flag="0"/>
      <psa30 value="0.0001694580" flag="0"/>
    </comp>
  </station>
  <station code="IMOD" name="IMOD" netid="HC" insttype="120" lat="34.9731" lon="24.7995">
    <comp name="--.HHE">
      <acc value="0.1385477832" flag="0"/>
      <vel value="0.0874143299" flag="0"/>
      <psa03 value="0.4250267437" flag="0"/>
      <psa10 value="0.0410225014" flag="0"/>
      <psa30 value="0.0027507041" flag="0"/>
    </comp>
    <comp name="--.HHN">
      <acc value="0.1426759739" flag="0"/>
      <vel value="0.1050223723" flag="0"/>
      <psa03 value="0.3682786679" flag="0"/>
      <psa10 value="0.0694614401" flag="0"/>
      <psa30 value="0.0047462842" flag="0"/>
    </comp>
    <comp name="--.HHZ">
      <acc value="0.0951145446" flag="0"/>
      <vel value="0.0386112161" flag="0"/>
      <psa03 value="0.1697883964" flag="0"/>
      <psa10 value="0.0333974502" flag="0"/>
      <psa30 value="0.0012423761" flag="0"/>
    </comp>
  </station>
  <station code="KNSS" name="KNSS" netid="HC" insttype="60" lat="35.3042" lon="25.1802">
    <comp name="--.HHE">
      <acc value="0.2759543098" flag="0"/>
      <vel value="0.1306615584" flag="0"/>
      <psa03 value="0.6135695199" flag="0"/>
      <psa10 value="0.0799820664" flag="0"/>
      <psa30 value="0.0076823498" flag="0"/>
    </comp>
    <comp name="--.HHN">
      <acc value="0.3086356624" flag="0"/>
      <vel value="0.1299101077" flag="0"/>
      <psa03 value="0.5323431462" flag="0"/>
      <psa10 value="0.0668294575" flag="0"/>
      <psa30 value="0.0043090077" flag="0"/>
    </comp>
    <comp name="--.HHZ">
      <acc value="0.3251254141" flag="0"/>
      <vel value="0.0672662312" flag="0"/>
      <psa03 value="0.4421998108" flag="0"/>
      <psa10 value="0.0392160460" flag="0"/>
      <psa30 value="0.0029979223" flag="0"/>
    </comp>
  </station>
  <station code="PFKS" name="PFKS" netid="HC" insttype="120" lat="35.0429" lon="25.4733">
    <comp name="--.HHE">
      <acc value="0.7152181291" flag="0"/>
      <vel value="0.2320653699" flag="0"/>
      <psa03 value="0.8987213198" flag="0"/>
      <psa10 value="0.0847465698" flag="0"/>
      <psa30 value="0.0050028433" flag="0"/>
    </comp>
    <comp name="--.HHZ">
      <acc value="0.4774455561" flag="0"/>
      <vel value="0.1346997934" flag="0"/>
      <psa03 value="0.5837130427" flag="0"/>
      <psa10 value="0.0432644207" flag="0"/>
      <psa30 value="0.0027152152" flag="0"/>
    </comp>
    <comp name="--.HHN">
      <acc value="0.8943009016" flag="0"/>
      <vel value="0.2996400380" flag="0"/>
      <psa03 value="1.5993371958" flag="0"/>
      <psa10 value="0.0603540741" flag="0"/>
      <psa30 value="0.0055287442" flag="0"/>
    </comp>
  </station>
  <station code="STIA" name="STIA" netid="HC" insttype="120" lat="35.2021" lon="26.0909">
    <comp name="--.HHN">
      <acc value="0.0000000000" flag="0"/>
      <vel value="-100.0000000000" flag="0"/>
      <psa03 value="0.0000000000" flag="0"/>
      <psa10 value="0.0000000000" flag="0"/>
      <psa30 value="0.0000000000" flag="0"/>
    </comp>
    <comp name="--.HHE">
      <acc value="0.0470596985" flag="0"/>
      <vel value="0.0204847240" flag="0"/>
      <psa03 value="0.1025568158" flag="0"/>
      <psa10 value="0.0182247129" flag="0"/>
      <psa30 value="0.0008843135" flag="0"/>
    </comp>
    <comp name="--.HHZ">
      <acc value="0.0322146769" flag="0"/>
      <vel value="0.0144923203" flag="0"/>
      <psa03 value="0.0745347759" flag="0"/>
      <psa10 value="0.0085115501" flag="0"/>
      <psa30 value="0.0008550321" flag="0"/>
    </comp>
  </station>
  <station code="GVD" name="GVD" netid="HL" insttype="120" lat="34.8391" lon="24.0874">
    <comp name="--.HHE">
      <acc value="0.2488704721" flag="0"/>
      <vel value="0.0368923700" flag="0"/>
      <psa03 value="0.1118053947" flag="0"/>
      <psa10 value="0.0466130004" flag="0"/>
      <psa30 value="0.0100804423" flag="0"/>
    </comp>
    <comp name="--.HHZ">
      <acc value="0.0146470475" flag="0"/>
      <vel value="0.0043715368" flag="0"/>
      <psa03 value="0.0352625965" flag="0"/>
      <psa10 value="0.0032138309" flag="0"/>
      <psa30 value="0.0001821090" flag="0"/>
    </comp>
    <comp name="--.HHN">
      <acc value="0.0261147550" flag="0"/>
      <vel value="0.0112060519" flag="0"/>
      <psa03 value="0.0963214822" flag="0"/>
      <psa10 value="0.0082285794" flag="0"/>
      <psa30 value="0.0007879835" flag="0"/>
    </comp>
  </station>
  <station code="IACM" name="IACM" netid="HL" insttype="120" lat="35.3058" lon="25.0709">
    <comp name="--.HHE">
      <acc value="0.6406401165" flag="0"/>
      <vel value="0.2471522160" flag="0"/>
      <psa03 value="1.3450112680" flag="0"/>
      <psa10 value="0.3183158550" flag="0"/>
      <psa30 value="0.0128082334" flag="0"/>
    </comp>
    <comp name="--.HHN">
      <acc value="0.6209748227" flag="0"/>
      <vel value="0.2532515997" flag="0"/>
      <psa03 value="1.1646927751" flag="0"/>
      <psa10 value="0.3333786193" flag="0"/>
      <psa30 value="0.0099536506" flag="0"/>
    </comp>
    <comp name="--.HHZ">
      <acc value="0.7518137386" flag="0"/>
      <vel value="0.1963471963" flag="0"/>
      <psa03 value="0.6117437221" flag="0"/>
      <psa10 value="0.0802957947" flag="0"/>
      <psa30 value="0.0048574242" flag="0"/>
    </comp>
  </station>
  <station code="IDI" name="IDI" netid="HL" insttype="120" lat="35.288" lon="24.89">
    <comp name="--.HHZ">
      <acc value="0.0809343043" flag="0"/>
      <vel value="0.0270222108" flag="0"/>
      <psa03 value="0.1830840117" flag="0"/>
      <psa10 value="0.0173727649" flag="0"/>
      <psa30 value="0.0013774477" flag="0"/>
    </comp>
    <comp name="--.HHE">
      <acc value="0.1100040418" flag="0"/>
      <vel value="0.0403117188" flag="0"/>
      <psa03 value="0.2080955593" flag="0"/>
      <psa10 value="0.0197540086" flag="0"/>
      <psa30 value="0.0013411300" flag="0"/>
    </comp>
    <comp name="--.HHN">
      <acc value="0.1346601240" flag="0"/>
      <vel value="0.0283426919" flag="0"/>
      <psa03 value="0.1721410094" flag="0"/>
      <psa10 value="0.0081523464" flag="0"/>
      <psa30 value="0.0010003091" flag="0"/>
    </comp>
  </station>
  <station code="SIVA" name="SIVA" netid="HL" insttype="60" lat="35.0178" lon="24.812">
    <comp name="--.HHZ">
      <acc value="0.2106352936" flag="0"/>
      <vel value="0.0777750634" flag="0"/>
      <psa03 value="0.4966362836" flag="0"/>
      <psa10 value="0.0301696745" flag="0"/>
      <psa30 value="0.0023412623" flag="0"/>
    </comp>
    <comp name="--.HHE">
      <acc value="0.4771181127" flag="0"/>
      <vel value="0.1728650756" flag="0"/>
      <psa03 value="0.7986016389" flag="0"/>
      <psa10 value="0.0661441169" flag="0"/>
      <psa30 value="0.0050220496" flag="0"/>
    </comp>
    <comp name="--.HHN">
      <acc value="0.5082307212" flag="0"/>
      <vel value="0.2054173002" flag="0"/>
      <psa03 value="0.9303295015" flag="0"/>
      <psa10 value="0.0628396569" flag="0"/>
      <psa30 value="0.0041381281" flag="0"/>
    </comp>
  </station>
  <station code="VAM" name="VAM" netid="HL" insttype="CMG3ESPC-120s" lat="35.407" lon="24.1997">
    <comp name="--.HHZ">
      <acc value="0.0331739234" flag="0"/>
      <vel value="0.0126105683" flag="0"/>
      <psa03 value="0.0727661851" flag="0"/>
      <psa10 value="0.0086221889" flag="0"/>
      <psa30 value="0.0005524165" flag="0"/>
    </comp>
    <comp name="--.HHN">
      <acc value="0.0656439646" flag="0"/>
      <vel value="0.0243414021" flag="0"/>
      <psa03 value="0.1534048737" flag="0"/>
      <psa10 value="0.0158010330" flag="0"/>
      <psa30 value="0.0007403434" flag="0"/>
    </comp>
    <comp name="--.HHE">
      <acc value="0.0634032271" flag="0"/>
      <vel value="0.0233319761" flag="0"/>
      <psa03 value="0.1130659664" flag="0"/>
      <psa10 value="0.0143001431" flag="0"/>
      <psa30 value="0.0008121440" flag="0"/>
    </comp>
  </station>
  <station code="ZKR" name="ZKR" netid="HL" insttype="120" lat="35.1147" lon="26.2169">
    <comp name="--.HHE">
      <acc value="0.0203998712" flag="0"/>
      <vel value="0.0114533183" flag="0"/>
      <psa03 value="0.0638338062" flag="0"/>
      <psa10 value="0.0119849928" flag="0"/>
      <psa30 value="0.0007684663" flag="0"/>
    </comp>
    <comp name="--.HHN">
      <acc value="0.0083956270" flag="0"/>
      <vel value="0.0041867325" flag="0"/>
      <psa03 value="0.0266288317" flag="0"/>
      <psa10 value="0.0044290099" flag="0"/>
      <psa30 value="0.0004019670" flag="0"/>
    </comp>
    <comp name="--.HHZ">
      <acc value="0.0173186617" flag="0"/>
      <vel value="0.0064583158" flag="0"/>
      <psa03 value="0.0405615119" flag="0"/>
      <psa10 value="0.0073840997" flag="0"/>
      <psa30 value="0.0006115373" flag="0"/>
    </comp>
  </station>
  <station code="IDI" name="IDI" netid="MN" insttype="" lat="35.288" lon="24.89">
    <comp name="--.HHE">
      <acc value="0.1205707823" flag="0"/>
      <vel value="0.0406246329" flag="0"/>
      <psa03 value="0.2105345526" flag="0"/>
      <psa10 value="0.0196271015" flag="0"/>
      <psa30 value="0.0013368476" flag="0"/>
    </comp>
    <comp name="--.HHN">
      <acc value="0.1335752598" flag="0"/>
      <vel value="0.0284825779" flag="0"/>
      <psa03 value="0.1732424495" flag="0"/>
      <psa10 value="0.0083045970" flag="0"/>
      <psa30 value="0.0009914176" flag="0"/>
    </comp>
    <comp name="--.HHZ">
      <acc value="0.0857876658" flag="0"/>
      <vel value="0.0273724365" flag="0"/>
      <psa03 value="0.1862492478" flag="0"/>
      <psa10 value="0.0172834339" flag="0"/>
      <psa30 value="0.0013648084" flag="0"/>
    </comp>
  </station>
</stationlist>
