<?xml version="1.0" encoding="UTF-8" standalone="yes"?>
<!DOCTYPE earthquake SYSTEM "stationlist.dtd">
<stationlist created="" xmlns="ch.ethz.sed.shakemap.usgs.xml">
  <station code="IDI" name="IDI" netid="MN" insttype="" lat="35.288" lon="24.89">
    <comp name="--.HHE">
      <acc value="0.1205707823" flag="0"/>
      <vel value="0.0406246329" flag="0"/>
      <psa03 value="0.2105345526" flag="0"/>
      <psa10 value="0.0196271015" flag="0"/>
      <psa30 value="0.0013368476" flag="0"/>
    </comp>
    <comp name="--.HHN">
      <acc value="0.1335752598" flag="0"/>
      <vel value="0.0284825779" flag="0"/>
      <psa03 value="0.1732424495" flag="0"/>
      <psa10 value="0.0083045970" flag="0"/>
      <psa30 value="0.0009914176" flag="0"/>
    </comp>
    <comp name="--.HHZ">
      <acc value="0.0857876658" flag="0"/>
      <vel value="0.0273724365" flag="0"/>
      <psa03 value="0.1862492478" flag="0"/>
      <psa10 value="0.0172834339" flag="0"/>
      <psa30 value="0.0013648084" flag="0"/>
    </comp>
  </station>
</stationlist>
