<?xml version="1.0" encoding="UTF-8" standalone="yes"?>
<!DOCTYPE earthquake SYSTEM "stationlist.dtd">
<stationlist created="" xmlns="ch.ethz.sed.shakemap.usgs.xml">
  <station code="GVD" name="GVD" netid="GE" insttype="STS-2/N" lat="34.8391" lon="24.0874">
    <comp name="--.HHE">
      <acc value="0.2386714667" flag="0"/>
      <vel value="0.0380026840" flag="0"/>
      <psa03 value="0.1146541676" flag="0"/>
      <psa10 value="0.0469088083" flag="0"/>
      <psa30 value="0.0100962552" flag="0"/>
    </comp>
    <comp name="--.HHN">
      <acc value="0.0268177905" flag="0"/>
      <vel value="0.0115607008" flag="0"/>
      <psa03 value="0.0991817457" flag="0"/>
      <psa10 value="0.0082848845" flag="0"/>
      <psa30 value="0.0007927419" flag="0"/>
    </comp>
    <comp name="--.HHZ">
      <acc value="0.0150707393" flag="0"/>
      <vel value="0.0044795132" flag="0"/>
      <psa03 value="0.0362906086" flag="0"/>
      <psa10 value="0.0032482445" flag="0"/>
      <psa30 value="0.0001846537" flag="0"/>
    </comp>
  </station>
  <station code="IDI" name="IDI" netid="MN" insttype="" lat="35.288" lon="24.89">
    <comp name="--.HHE">
      <acc value="0.1205707823" flag="0"/>
      <vel value="0.0406246328" flag="0"/>
      <psa03 value="0.2105345526" flag="0"/>
      <psa10 value="0.0196271016" flag="0"/>
      <psa30 value="0.0013368237" flag="0"/>
    </comp>
    <comp name="--.HHN">
      <acc value="0.1335752599" flag="0"/>
      <vel value="0.0284825779" flag="0"/>
      <psa03 value="0.1732424495" flag="0"/>
      <psa10 value="0.0083045933" flag="0"/>
      <psa30 value="0.0009913771" flag="0"/>
    </comp>
    <comp name="--.HHZ">
      <acc value="0.0857876658" flag="0"/>
      <vel value="0.0273724365" flag="0"/>
      <psa03 value="0.1862492478" flag="0"/>
      <psa10 value="0.0172834342" flag="0"/>
      <psa30 value="0.0013647494" flag="0"/>
    </comp>
  </station>
</stationlist>
