<stationlist created="1778069286">
	<station code="ERCV" name="ERCV" netid="KO" source="Bogazici University Kandilli Observatory And Earthquake Research Institute (KOERI)" insttype="" lat="39.0198" lon="43.3381">
		<comp name="--.HNE" depth="0.0">
			<acc value="5.10220440937829" flag="0"/>
			<vel value="3.12127233545356" flag="0"/>
			<psa03 value="16.4557361721342" flag="0"/>
			<psa10 value="4.93061354043686" flag="0"/>
			<psa30 value="0.518821679504156" flag="0"/>
		</comp>
		<comp name="--.HNN" depth="0.0">
			<acc value="6.64153908455875" flag="0"/>
			<vel value="4.39481074595912" flag="0"/>
			<psa03 value="17.2800665868692" flag="0"/>
			<psa10 value="6.20654494345276" flag="0"/>
			<psa30 value="0.86050001456525" flag="0"/>
		</comp>
		<comp name="--.HNZ" depth="0.0">
			<acc value="4.5148107282926" flag="0"/>
			<vel value="1.92029798896626" flag="0"/>
			<psa03 value="4.88021144468137" flag="0"/>
			<psa10 value="2.35036180430576" flag="0"/>
			<psa30 value="0.240250884611935" flag="0"/>
		</comp>
	</station>
</stationlist>
