<?xml version="1.0" encoding="UTF-8" standalone="yes"?>
<!DOCTYPE earthquake SYSTEM "stationlist.dtd">
<stationlist created="" xmlns="ch.ethz.sed.shakemap.usgs.xml">
  <station code="AGRB" name="AGRB" netid="KO" insttype="120s," lat="39.5755" lon="42.992">
    <comp name="--.HHN">
      <acc value="0.0361391389" flag="0"/>
      <vel value="0.0347728519" flag="0"/>
      <psa03 value="0.1640045054" flag="0"/>
      <psa10 value="0.0387410629" flag="0"/>
      <psa30 value="0.0046317935" flag="0"/>
    </comp>
    <comp name="--.HHZ">
      <acc value="0.0444823463" flag="0"/>
      <vel value="0.0323161469" flag="0"/>
      <psa03 value="0.1158068497" flag="0"/>
      <psa10 value="0.0400700847" flag="0"/>
      <psa30 value="0.0082894620" flag="0"/>
    </comp>
    <comp name="--.HHE">
      <acc value="0.0681518708" flag="0"/>
      <vel value="0.0379612793" flag="0"/>
      <psa03 value="0.1632101628" flag="0"/>
      <psa10 value="0.0535554589" flag="0"/>
      <psa30 value="0.0041362114" flag="0"/>
    </comp>
  </station>
  <station code="AKDM" name="AKDM" netid="KO" insttype="30s," lat="38.3285" lon="42.98">
    <comp name="--.HHN">
      <acc value="0.0272573501" flag="0"/>
      <vel value="0.0383353560" flag="0"/>
      <psa03 value="0.0502148575" flag="0"/>
      <psa10 value="0.0738989912" flag="0"/>
      <psa30 value="0.0099599476" flag="0"/>
    </comp>
    <comp name="--.HHZ">
      <acc value="0.0238401458" flag="0"/>
      <vel value="0.0264122078" flag="0"/>
      <psa03 value="0.0496073983" flag="0"/>
      <psa10 value="0.0325768161" flag="0"/>
      <psa30 value="0.0098878710" flag="0"/>
    </comp>
    <comp name="--.HHE">
      <acc value="0.0235014764" flag="0"/>
      <vel value="0.0284224110" flag="0"/>
      <psa03 value="0.0463201851" flag="0"/>
      <psa10 value="0.0557100784" flag="0"/>
      <psa30 value="0.0109921625" flag="0"/>
    </comp>
  </station>
  <station code="ERCV" name="ERCV" netid="KO" insttype="100" lat="39.0198" lon="43.3381">
    <comp name="--.HNE">
      <acc value="5.0698349188" flag="0"/>
      <vel value="3.0501446155" flag="0"/>
      <psa03 value="16.4405664645" flag="0"/>
      <psa10 value="4.9301556276" flag="0"/>
      <psa30 value="0.4843618544" flag="0"/>
    </comp>
    <comp name="--.HNN">
      <acc value="6.6497078573" flag="0"/>
      <vel value="4.3341093817" flag="0"/>
      <psa03 value="17.5090268431" flag="0"/>
      <psa10 value="6.1939688112" flag="0"/>
      <psa30 value="0.7923130399" flag="0"/>
    </comp>
    <comp name="--.HNZ">
      <acc value="4.6509901236" flag="0"/>
      <vel value="1.9147226356" flag="0"/>
      <psa03 value="4.7736784521" flag="0"/>
      <psa10 value="2.3416122294" flag="0"/>
      <psa30 value="0.2315273987" flag="0"/>
    </comp>
  </station>
  <station code="GURO" name="GURO" netid="KO" insttype="120s," lat="38.5509" lon="42.0322">
    <comp name="--.HHE">
      <acc value="0.0443637669" flag="0"/>
      <vel value="0.0236427291" flag="0"/>
      <psa03 value="0.1762916446" flag="0"/>
      <psa10 value="0.0250401475" flag="0"/>
      <psa30 value="0.0026179267" flag="0"/>
    </comp>
    <comp name="--.HHN">
      <acc value="0.0392630671" flag="0"/>
      <vel value="0.0255406876" flag="0"/>
      <psa03 value="0.1151615412" flag="0"/>
      <psa10 value="0.0223312064" flag="0"/>
      <psa30 value="0.0016191097" flag="0"/>
    </comp>
    <comp name="--.HHZ">
      <acc value="0.0358945091" flag="0"/>
      <vel value="0.0230768403" flag="0"/>
      <psa03 value="0.1552854916" flag="0"/>
      <psa10 value="0.0228196733" flag="0"/>
      <psa30 value="0.0016170348" flag="0"/>
    </comp>
  </station>
  <station code="MLAZ" name="MLAZ" netid="KO" insttype="120s," lat="39.141" lon="42.5496">
    <comp name="--.HHZ">
      <acc value="0.0540406848" flag="0"/>
      <vel value="0.0762116183" flag="0"/>
      <psa03 value="0.1499064072" flag="0"/>
      <psa10 value="0.1279113741" flag="0"/>
      <psa30 value="0.0193147282" flag="0"/>
    </comp>
    <comp name="--.HHE">
      <acc value="0.1242441974" flag="0"/>
      <vel value="0.1639156963" flag="0"/>
      <psa03 value="0.3065612664" flag="0"/>
      <psa10 value="0.1645615032" flag="0"/>
      <psa30 value="0.0345012141" flag="0"/>
    </comp>
    <comp name="--.HHN">
      <acc value="0.1050423415" flag="0"/>
      <vel value="0.1730456588" flag="0"/>
      <psa03 value="0.3074127306" flag="0"/>
      <psa10 value="0.2086246047" flag="0"/>
      <psa30 value="0.0554620371" flag="0"/>
    </comp>
  </station>
</stationlist>
