<?xml version="1.0" encoding="UTF-8" standalone="yes"?>
<!DOCTYPE earthquake SYSTEM "stationlist.dtd">
<stationlist created="" xmlns="ch.ethz.sed.shakemap.usgs.xml">
  <station code="BNN" name="BNN" netid="KO" insttype="CMG-3T" lat="38.8521" lon="35.8472">
    <comp name="--.HHZ">
      <acc value="0.0041856063" flag="0"/>
      <vel value="0.0036137709" flag="0"/>
      <psa03 value="0.0091654904" flag="0"/>
      <psa10 value="0.0057703101" flag="0"/>
      <psa30 value="0.0002663788" flag="0"/>
    </comp>
    <comp name="--.HHE">
      <acc value="0.0091792489" flag="0"/>
      <vel value="0.0068369873" flag="0"/>
      <psa03 value="0.0202374959" flag="0"/>
      <psa10 value="0.0106379272" flag="0"/>
      <psa30 value="0.0006491709" flag="0"/>
    </comp>
    <comp name="--.HHN">
      <acc value="0.0105323618" flag="0"/>
      <vel value="0.0060995876" flag="0"/>
      <psa03 value="0.0205570752" flag="0"/>
      <psa10 value="0.0091735833" flag="0"/>
      <psa30 value="0.0004369848" flag="0"/>
    </comp>
  </station>
  <station code="CEYT" name="CEYT" netid="KO" insttype="CMG-3ESP" lat="37.0105" lon="35.7478">
    <comp name="--.HHE">
      <acc value="0.0124971889" flag="0"/>
      <vel value="0.0064135057" flag="0"/>
      <psa03 value="0.0344317439" flag="0"/>
      <psa10 value="0.0047480121" flag="0"/>
      <psa30 value="0.0007947752" flag="0"/>
    </comp>
    <comp name="--.HHZ">
      <acc value="0.0068649475" flag="0"/>
      <vel value="0.0054469769" flag="0"/>
      <psa03 value="0.0142783154" flag="0"/>
      <psa10 value="0.0064344238" flag="0"/>
      <psa30 value="0.0005319929" flag="0"/>
    </comp>
    <comp name="--.HHN">
      <acc value="0.0103946099" flag="0"/>
      <vel value="0.0049660390" flag="0"/>
      <psa03 value="0.0211514866" flag="0"/>
      <psa10 value="0.0095413809" flag="0"/>
      <psa30 value="0.0004703673" flag="0"/>
    </comp>
  </station>
  <station code="CMRD" name="CMRD" netid="KO" insttype="CMG-5T" lat="37.6623" lon="34.9902">
    <comp name="--.HNZ">
      <acc value="0.0046571591" flag="0"/>
      <vel value="0.0032046431" flag="0"/>
      <psa03 value="0.0109400176" flag="0"/>
      <psa10 value="0.0048170000" flag="0"/>
      <psa30 value="0.0004388402" flag="0"/>
    </comp>
    <comp name="--.HNN">
      <acc value="0.0091349918" flag="0"/>
      <vel value="0.0060154185" flag="0"/>
      <psa03 value="0.0227133469" flag="0"/>
      <psa10 value="0.0032946581" flag="0"/>
      <psa30 value="0.0003544514" flag="0"/>
    </comp>
    <comp name="--.HNE">
      <acc value="0.0065908922" flag="0"/>
      <vel value="0.0028125690" flag="0"/>
      <psa03 value="0.0120342061" flag="0"/>
      <psa10 value="0.0041202655" flag="0"/>
      <psa30 value="0.0002494655" flag="0"/>
    </comp>
  </station>
  <station code="GAZ" name="GAZ" netid="KO" insttype="CMG-3T" lat="37.1721" lon="37.2096">
    <comp name="--.HHZ">
      <acc value="0.0268575169" flag="0"/>
      <vel value="0.0139154987" flag="0"/>
      <psa03 value="0.0945593871" flag="0"/>
      <psa10 value="0.0098607077" flag="0"/>
      <psa30 value="0.0005971170" flag="0"/>
    </comp>
    <comp name="--.HHN">
      <acc value="0.0290244633" flag="0"/>
      <vel value="0.0168648242" flag="0"/>
      <psa03 value="0.1462767590" flag="0"/>
      <psa10 value="0.0108602020" flag="0"/>
      <psa30 value="0.0011802584" flag="0"/>
    </comp>
  </station>
  <station code="KMRS" name="KMRS" netid="KO" insttype="CMG-3T" lat="37.5053" lon="36.9">
    <comp name="--.HHN">
      <acc value="0.0334643273" flag="0"/>
      <vel value="0.0235492954" flag="0"/>
      <psa03 value="0.0741491473" flag="0"/>
      <psa10 value="0.0245694993" flag="0"/>
      <psa30 value="0.0016013882" flag="0"/>
    </comp>
    <comp name="--.HHZ">
      <acc value="0.0294975815" flag="0"/>
      <vel value="0.0122591097" flag="0"/>
      <psa03 value="0.0459553317" flag="0"/>
      <psa10 value="0.0081827527" flag="0"/>
      <psa30 value="0.0009049657" flag="0"/>
    </comp>
    <comp name="--.HHE">
      <acc value="0.0227122477" flag="0"/>
      <vel value="0.0124916782" flag="0"/>
      <psa03 value="0.0847441861" flag="0"/>
      <psa10 value="0.0163428665" flag="0"/>
      <psa30 value="0.0017768496" flag="0"/>
    </comp>
  </station>
  <station code="SARI" name="SARI" netid="KO" insttype="CMG-3T" lat="38.4072" lon="36.4181">
    <comp name="--.HHZ">
      <acc value="0.0493218287" flag="0"/>
      <vel value="0.0202514319" flag="0"/>
      <psa03 value="0.0981922299" flag="0"/>
      <psa10 value="0.0173819010" flag="0"/>
      <psa30 value="0.0011461620" flag="0"/>
    </comp>
    <comp name="--.HHN">
      <acc value="0.0971634604" flag="0"/>
      <vel value="0.0300584290" flag="0"/>
      <psa03 value="0.1045789643" flag="0"/>
      <psa10 value="0.0143970687" flag="0"/>
      <psa30 value="0.0009357626" flag="0"/>
    </comp>
    <comp name="--.HHE">
      <acc value="0.0942161889" flag="0"/>
      <vel value="0.0325978425" flag="0"/>
      <psa03 value="0.1122297324" flag="0"/>
      <psa10 value="0.0179384493" flag="0"/>
      <psa30 value="0.0010452659" flag="0"/>
    </comp>
  </station>
  <station code="ANDN" name="ANDN" netid="TU" insttype="T" lat="37.58" lon="36.3452">
    <comp name="--.HHZ">
      <acc value="0.2101522982" flag="0"/>
      <vel value="0.0713558076" flag="0"/>
      <psa03 value="0.6064523141" flag="0"/>
      <psa10 value="0.0736875823" flag="0"/>
      <psa30 value="0.0037213186" flag="0"/>
    </comp>
    <comp name="--.HHE">
      <acc value="0.3456683868" flag="0"/>
      <vel value="0.1147409955" flag="0"/>
      <psa03 value="0.7045400154" flag="0"/>
      <psa10 value="0.0841006640" flag="0"/>
      <psa30 value="0.0046049936" flag="0"/>
    </comp>
    <comp name="--.HHN">
      <acc value="0.6543578452" flag="0"/>
      <vel value="0.1741292864" flag="0"/>
      <psa03 value="0.6217626536" flag="0"/>
      <psa10 value="0.0839553606" flag="0"/>
      <psa30 value="0.0054037446" flag="0"/>
    </comp>
  </station>
</stationlist>
