<stationlist created="1775820685">
	<station code="RFHY" name="RFHY" netid="KO" source="Bogazici University Kandilli Observatory And Earthquake Research Institute (KOERI)" insttype="" lat="39.927" lon="38.833">
		<comp name="--.HNE" depth="0.0">
			<acc value="0.00580270678959258" flag="0"/>
			<vel value="0.00711318344074206" flag="0"/>
			<psa03 value="0.0125581873870127" flag="0"/>
			<psa10 value="0.0120356394895446" flag="0"/>
			<psa30 value="0.000966324951785186" flag="0"/>
		</comp>
		<comp name="--.HNN" depth="0.0">
			<acc value="0.00747446412546835" flag="0"/>
			<vel value="0.00771701988555492" flag="0"/>
			<psa03 value="0.0154414864643551" flag="0"/>
			<psa10 value="0.0136247463225674" flag="0"/>
			<psa30 value="0.00106429925460161" flag="0"/>
		</comp>
		<comp name="--.HNZ" depth="0.0">
			<acc value="0.00427197564147297" flag="0"/>
			<vel value="0.00412011063285292" flag="0"/>
			<psa03 value="0.00670437512151755" flag="0"/>
			<psa10 value="0.00630196106774723" flag="0"/>
			<psa30 value="0.00100372430430956" flag="0"/>
		</comp>
	</station>
</stationlist>
