<?xml version="1.0" encoding="UTF-8" standalone="yes"?>
<!DOCTYPE earthquake SYSTEM "stationlist.dtd">
<stationlist created="" xmlns="ch.ethz.sed.shakemap.usgs.xml">
  <station code="KARO" name="KARO" netid="KO" insttype="120s," lat="39.3089" lon="41.0493">
    <comp name="--.HHN">
      <acc value="0.0047152147" flag="0"/>
      <vel value="0.0044816785" flag="0"/>
      <psa03 value="0.0167378989" flag="0"/>
      <psa10 value="0.0077091697" flag="0"/>
      <psa30 value="0.0007904182" flag="0"/>
    </comp>
    <comp name="--.HHZ">
      <acc value="0.0033806718" flag="0"/>
      <vel value="0.0020519848" flag="0"/>
      <psa03 value="0.0096071642" flag="0"/>
      <psa10 value="0.0032349342" flag="0"/>
      <psa30 value="0.0004224086" flag="0"/>
    </comp>
    <comp name="--.HHE">
      <acc value="0.0053910950" flag="0"/>
      <vel value="0.0052698215" flag="0"/>
      <psa03 value="0.0151588556" flag="0"/>
      <psa10 value="0.0098330107" flag="0"/>
      <psa30 value="0.0010970962" flag="0"/>
    </comp>
  </station>
</stationlist>
