<?xml version="1.0" encoding="UTF-8" standalone="yes"?>
<!DOCTYPE earthquake SYSTEM "stationlist.dtd">
<stationlist created="" xmlns="ch.ethz.sed.shakemap.usgs.xml">
  <station code="CET2" name="CET2" netid="IV" insttype="" lat="39.5288" lon="15.9546">
    <comp name="--.HHE">
      <acc value="0.0067591461" flag="0"/>
      <vel value="0.0007251922" flag="0"/>
      <psa03 value="0.0012768462" flag="0"/>
      <psa10 value="0.0002250938" flag="0"/>
      <psa30 value="0.0000386862" flag="0"/>
    </comp>
    <comp name="--.HHN">
      <acc value="0.0049787398" flag="0"/>
      <vel value="0.0006972675" flag="0"/>
      <psa03 value="0.0025311884" flag="0"/>
      <psa10 value="0.0005490395" flag="0"/>
      <psa30 value="0.0000545308" flag="0"/>
    </comp>
    <comp name="--.HHZ">
      <acc value="0.0070921668" flag="0"/>
      <vel value="0.0010161807" flag="0"/>
      <psa03 value="0.0017181188" flag="0"/>
      <psa10 value="0.0000898217" flag="0"/>
      <psa30 value="0.0000194699" flag="0"/>
    </comp>
  </station>
</stationlist>
