<?xml version="1.0" encoding="UTF-8" standalone="yes"?>
<!DOCTYPE earthquake SYSTEM "stationlist.dtd">
<stationlist created="" xmlns="ch.ethz.sed.shakemap.usgs.xml">
  <station code="APE" name="APE" netid="GE" insttype="STS-2/N" lat="37.0727" lon="25.523">
    <comp name="--.HHN">
      <acc value="0.4286753205" flag="0"/>
      <vel value="0.0874423516" flag="0"/>
      <psa03 value="0.2310275223" flag="0"/>
      <psa10 value="0.0236274517" flag="0"/>
      <psa30 value="0.0082536051" flag="0"/>
    </comp>
    <comp name="--.HHZ">
      <acc value="0.1629572460" flag="0"/>
      <vel value="0.0348182135" flag="0"/>
      <psa03 value="0.1005210312" flag="0"/>
      <psa10 value="0.0476060011" flag="0"/>
      <psa30 value="0.0070006970" flag="0"/>
    </comp>
    <comp name="--.HHE">
      <acc value="0.5456614620" flag="0"/>
      <vel value="0.1085213700" flag="0"/>
      <psa03 value="0.2499026869" flag="0"/>
      <psa10 value="0.0504656914" flag="0"/>
      <psa30 value="0.0068026399" flag="0"/>
    </comp>
  </station>
  <station code="THERA" name="THERA" netid="GE" insttype="STS-2/N" lat="36.367" lon="25.4753">
    <comp name="--.HHZ">
      <acc value="0.4221042656" flag="0"/>
      <vel value="0.1019160588" flag="0"/>
      <psa03 value="0.6194558690" flag="0"/>
      <psa10 value="0.0425449828" flag="0"/>
      <psa30 value="0.0075633058" flag="0"/>
    </comp>
    <comp name="--.HHE">
      <acc value="0.5391958130" flag="0"/>
      <vel value="0.1742845538" flag="0"/>
      <psa03 value="1.1896260140" flag="0"/>
      <psa10 value="0.1037077960" flag="0"/>
      <psa30 value="0.0095433207" flag="0"/>
    </comp>
    <comp name="--.HHN">
      <acc value="0.6236454898" flag="0"/>
      <vel value="0.1629249810" flag="0"/>
      <psa03 value="1.0072201250" flag="0"/>
      <psa10 value="0.0633286001" flag="0"/>
      <psa30 value="0.0032658825" flag="0"/>
    </comp>
  </station>
  <station code="SERI" name="SERI" netid="HA" insttype="30" lat="37.1609" lon="24.4853">
    <comp name="--.HHE">
      <acc value="0.0750287369" flag="0"/>
      <vel value="0.0247518714" flag="0"/>
      <psa03 value="0.1161814995" flag="0"/>
      <psa10 value="0.0154174194" flag="0"/>
      <psa30 value="0.0020125610" flag="0"/>
    </comp>
    <comp name="--.HHN">
      <acc value="0.0874375141" flag="0"/>
      <vel value="0.0543421803" flag="0"/>
      <psa03 value="0.0913708669" flag="0"/>
      <psa10 value="0.0598938900" flag="0"/>
      <psa30 value="0.0049416772" flag="0"/>
    </comp>
    <comp name="--.HHZ">
      <acc value="0.0759575712" flag="0"/>
      <vel value="0.0297562537" flag="0"/>
      <psa03 value="0.0718873399" flag="0"/>
      <psa10 value="0.0196325584" flag="0"/>
      <psa30 value="0.0025882098" flag="0"/>
    </comp>
  </station>
  <station code="SNT1" name="SNT1" netid="HA" insttype="30" lat="36.4159" lon="25.4282">
    <comp name="--.HHE">
      <acc value="0.4390461374" flag="0"/>
      <vel value="0.2243201294" flag="0"/>
      <psa03 value="0.7346064515" flag="0"/>
      <psa10 value="0.2086568431" flag="0"/>
      <psa30 value="0.0207679650" flag="0"/>
    </comp>
    <comp name="--.HHN">
      <acc value="0.3829996915" flag="0"/>
      <vel value="0.1897916329" flag="0"/>
      <psa03 value="0.9916287726" flag="0"/>
      <psa10 value="0.1723642274" flag="0"/>
      <psa30 value="0.0170402576" flag="0"/>
    </comp>
    <comp name="--.HHZ">
      <acc value="0.3987236548" flag="0"/>
      <vel value="0.1627562871" flag="0"/>
      <psa03 value="0.7296748949" flag="0"/>
      <psa10 value="0.1309360558" flag="0"/>
      <psa30 value="0.0098604498" flag="0"/>
    </comp>
  </station>
  <station code="NAX1" name="NAX1" netid="HI" insttype="CMG-5TD,ACCELEROMETER,GURALP" lat="37.1014" lon="25.3741">
    <comp name="--.HNE">
      <acc value="0.2596264679" flag="0"/>
      <vel value="0.0659192141" flag="0"/>
      <psa03 value="0.3376779875" flag="0"/>
      <psa10 value="0.0471279669" flag="0"/>
      <psa30 value="0.0040546751" flag="0"/>
    </comp>
    <comp name="--.HNN">
      <acc value="0.3945268447" flag="0"/>
      <vel value="0.0740053613" flag="0"/>
      <psa03 value="0.1949284884" flag="0"/>
      <psa10 value="0.0469294218" flag="0"/>
      <psa30 value="0.0071769120" flag="0"/>
    </comp>
    <comp name="--.HNZ">
      <acc value="0.1811412987" flag="0"/>
      <vel value="0.0536566940" flag="0"/>
      <psa03 value="0.1663262439" flag="0"/>
      <psa10 value="0.0469611368" flag="0"/>
      <psa30 value="0.0086948773" flag="0"/>
    </comp>
  </station>
  <station code="SFR2" name="SFR2" netid="HI" insttype="unknown" lat="36.3998" lon="25.4382">
    <comp name="--.HNE">
      <acc value="1.8029111093" flag="0"/>
      <vel value="0.5367666907" flag="0"/>
      <psa03 value="4.1234273866" flag="0"/>
      <psa10 value="0.3144741358" flag="0"/>
      <psa30 value="0.0275460389" flag="0"/>
    </comp>
    <comp name="--.HNZ">
      <acc value="1.4166666992" flag="0"/>
      <vel value="0.3937910729" flag="0"/>
      <psa03 value="2.4027233860" flag="0"/>
      <psa10 value="0.1834144179" flag="0"/>
      <psa30 value="0.0106607660" flag="0"/>
    </comp>
    <comp name="--.HNN">
      <acc value="1.2249437135" flag="0"/>
      <vel value="0.4568118621" flag="0"/>
      <psa03 value="2.7297004121" flag="0"/>
      <psa10 value="0.3563596900" flag="0"/>
      <psa30 value="0.0165882785" flag="0"/>
    </comp>
  </station>
  <station code="AMGA" name="AMGA" netid="HL" insttype="SMART24" lat="36.8316" lon="25.8938">
    <comp name="--.HHZ">
      <acc value="1.0531702851" flag="0"/>
      <vel value="0.2221114848" flag="0"/>
      <psa03 value="0.9860122758" flag="0"/>
      <psa10 value="0.0959747794" flag="0"/>
      <psa30 value="0.0101506331" flag="0"/>
    </comp>
    <comp name="--.HHN">
      <acc value="2.0602857613" flag="0"/>
      <vel value="0.3615061801" flag="0"/>
      <psa03 value="0.9039131834" flag="0"/>
      <psa10 value="0.2208335276" flag="0"/>
      <psa30 value="0.0188768178" flag="0"/>
    </comp>
    <comp name="--.HHE">
      <acc value="1.7646429915" flag="0"/>
      <vel value="0.3097487015" flag="0"/>
      <psa03 value="1.1722320515" flag="0"/>
      <psa10 value="0.1436277895" flag="0"/>
      <psa30 value="0.0139021855" flag="0"/>
    </comp>
  </station>
  <station code="APE" name="APE" netid="HL" insttype="120" lat="37.0727" lon="25.523">
    <comp name="--.HHE">
      <acc value="0.4886057557" flag="0"/>
      <vel value="0.1030548619" flag="0"/>
      <psa03 value="0.2396641301" flag="0"/>
      <psa10 value="0.0498197457" flag="0"/>
      <psa30 value="0.0067899154" flag="0"/>
    </comp>
    <comp name="--.HHZ">
      <acc value="0.1450113591" flag="0"/>
      <vel value="0.0327290515" flag="0"/>
      <psa03 value="0.0983376675" flag="0"/>
      <psa10 value="0.0472837542" flag="0"/>
      <psa30 value="0.0069819283" flag="0"/>
    </comp>
    <comp name="--.HHN">
      <acc value="0.3731150524" flag="0"/>
      <vel value="0.0812688226" flag="0"/>
      <psa03 value="0.2234655008" flag="0"/>
      <psa10 value="0.0234554883" flag="0"/>
      <psa30 value="0.0082220267" flag="0"/>
    </comp>
  </station>
  <station code="ASTA" name="ASTA" netid="HL" insttype="CMG-5" lat="36.5455" lon="26.3529">
    <comp name="00.HNE">
      <acc value="0.2466640061" flag="0"/>
      <vel value="0.0515968163" flag="0"/>
      <psa03 value="0.1932993057" flag="0"/>
      <psa10 value="0.0336068930" flag="0"/>
      <psa30 value="0.0021360546" flag="0"/>
    </comp>
    <comp name="00.HNZ">
      <acc value="0.1599850796" flag="0"/>
      <vel value="0.0377005292" flag="0"/>
      <psa03 value="0.2071952496" flag="0"/>
      <psa10 value="0.0174109917" flag="0"/>
      <psa30 value="0.0016941254" flag="0"/>
    </comp>
    <comp name="00.HNN">
      <acc value="0.2209247621" flag="0"/>
      <vel value="0.0531959707" flag="0"/>
      <psa03 value="0.2846717281" flag="0"/>
      <psa10 value="0.0262288283" flag="0"/>
      <psa30 value="0.0019571499" flag="0"/>
    </comp>
  </station>
  <station code="MHLO" name="MHLO" netid="HL" insttype="20" lat="36.6898" lon="24.4017">
    <comp name="--.HHZ">
      <acc value="0.1976050550" flag="0"/>
      <vel value="0.0998350096" flag="0"/>
      <psa03 value="0.9071162649" flag="0"/>
      <psa10 value="0.1162419855" flag="0"/>
      <psa30 value="0.0066971372" flag="0"/>
    </comp>
    <comp name="--.HHN">
      <acc value="0.4670506924" flag="0"/>
      <vel value="0.2410309958" flag="0"/>
      <psa03 value="2.1320898518" flag="0"/>
      <psa10 value="0.1593079731" flag="0"/>
      <psa30 value="0.0105269964" flag="0"/>
    </comp>
    <comp name="--.HHE">
      <acc value="0.5698796046" flag="0"/>
      <vel value="0.2511350388" flag="0"/>
      <psa03 value="2.0680787822" flag="0"/>
      <psa10 value="0.1800380004" flag="0"/>
      <psa30 value="0.0115463778" flag="0"/>
    </comp>
  </station>
  <station code="MILA" name="MILA" netid="HL" insttype="CMG-5" lat="36.7429" lon="24.4282">
    <comp name="00.HNE">
      <acc value="0.3493641483" flag="0"/>
      <vel value="0.1609765592" flag="0"/>
      <psa03 value="1.2452158251" flag="0"/>
      <psa10 value="0.1189811610" flag="0"/>
      <psa30 value="0.0088889343" flag="0"/>
    </comp>
    <comp name="00.HNN">
      <acc value="0.4228504937" flag="0"/>
      <vel value="0.1721587288" flag="0"/>
      <psa03 value="1.0342244776" flag="0"/>
      <psa10 value="0.1542136553" flag="0"/>
      <psa30 value="0.0101912167" flag="0"/>
    </comp>
    <comp name="00.HNZ">
      <acc value="0.3359299157" flag="0"/>
      <vel value="0.1842190364" flag="0"/>
      <psa03 value="1.1542109450" flag="0"/>
      <psa10 value="0.1053230167" flag="0"/>
      <psa30 value="0.0072759035" flag="0"/>
    </comp>
  </station>
  <station code="NISR" name="NISR" netid="HL" insttype="65535" lat="36.6106" lon="27.131">
    <comp name="--.HHE">
      <acc value="0.0000000000" flag="0"/>
      <vel value="-100.0000000000" flag="0"/>
      <psa03 value="0.0000000000" flag="0"/>
      <psa10 value="0.0000000000" flag="0"/>
      <psa30 value="0.0000000000" flag="0"/>
    </comp>
    <comp name="--.HHN">
      <acc value="0.0963855007" flag="0"/>
      <vel value="0.0425011904" flag="0"/>
      <psa03 value="0.2795434069" flag="0"/>
      <psa10 value="0.0236426973" flag="0"/>
      <psa30 value="0.0047433925" flag="0"/>
    </comp>
    <comp name="--.HHZ">
      <acc value="0.0696436803" flag="0"/>
      <vel value="0.0215560471" flag="0"/>
      <psa03 value="0.1350960363" flag="0"/>
      <psa10 value="0.0185526938" flag="0"/>
      <psa30 value="0.0012913431" flag="0"/>
    </comp>
  </station>
  <station code="NISR2" name="NISR2" netid="HL" insttype="120" lat="36.5744" lon="27.1767">
    <comp name="--.HHE">
      <acc value="0.1036633956" flag="0"/>
      <vel value="0.0639031051" flag="0"/>
      <psa03 value="0.4002383858" flag="0"/>
      <psa10 value="0.0792445210" flag="0"/>
      <psa30 value="0.0032533020" flag="0"/>
    </comp>
    <comp name="--.HHN">
      <acc value="0.1262479228" flag="0"/>
      <vel value="0.0754438574" flag="0"/>
      <psa03 value="0.5540147713" flag="0"/>
      <psa10 value="0.0855222490" flag="0"/>
      <psa30 value="0.0052189923" flag="0"/>
    </comp>
    <comp name="--.HHZ">
      <acc value="0.0462297221" flag="0"/>
      <vel value="0.0221588760" flag="0"/>
      <psa03 value="0.1424685929" flag="0"/>
      <psa10 value="0.0151815718" flag="0"/>
      <psa30 value="0.0018061210" flag="0"/>
    </comp>
  </station>
  <station code="SANT" name="SANT" netid="HL" insttype="30" lat="36.3705" lon="25.4593">
    <comp name="--.HHE">
      <acc value="1.3686524378" flag="0"/>
      <vel value="0.2972982589" flag="0"/>
      <psa03 value="2.3743693426" flag="0"/>
      <psa10 value="0.1694277242" flag="0"/>
      <psa30 value="0.0113005955" flag="0"/>
    </comp>
    <comp name="--.HHN">
      <acc value="0.7680953176" flag="0"/>
      <vel value="0.1534655353" flag="0"/>
      <psa03 value="0.9587718111" flag="0"/>
      <psa10 value="0.0801798175" flag="0"/>
      <psa30 value="0.0066486242" flag="0"/>
    </comp>
    <comp name="--.HHZ">
      <acc value="1.0687238493" flag="0"/>
      <vel value="0.1883795268" flag="0"/>
      <psa03 value="1.2685497925" flag="0"/>
      <psa10 value="0.1028938065" flag="0"/>
      <psa30 value="0.0074700776" flag="0"/>
    </comp>
  </station>
  <station code="SAP3" name="SAP3" netid="HL" insttype="65535" lat="36.4356" lon="25.3454">
    <comp name="--.HHE">
      <acc value="0.7196295288" flag="0"/>
      <vel value="0.2563914538" flag="0"/>
      <psa03 value="1.5444938901" flag="0"/>
      <psa10 value="0.1466041757" flag="0"/>
      <psa30 value="0.0154550043" flag="0"/>
    </comp>
    <comp name="--.HHN">
      <acc value="0.8237720468" flag="0"/>
      <vel value="0.2054066344" flag="0"/>
      <psa03 value="1.2030702507" flag="0"/>
      <psa10 value="0.1309360721" flag="0"/>
      <psa30 value="0.0179427973" flag="0"/>
    </comp>
    <comp name="--.HHZ">
      <acc value="0.8119984626" flag="0"/>
      <vel value="0.2212278576" flag="0"/>
      <psa03 value="1.0707120073" flag="0"/>
      <psa10 value="0.0592039940" flag="0"/>
      <psa30 value="0.0100727796" flag="0"/>
    </comp>
  </station>
  <station code="SMG" name="SMG" netid="HL" insttype="120" lat="37.7043" lon="26.8377">
    <comp name="--.HHE">
      <acc value="0.0364341184" flag="0"/>
      <vel value="0.0178659756" flag="0"/>
      <psa03 value="0.1587338627" flag="0"/>
      <psa10 value="0.0131484712" flag="0"/>
      <psa30 value="0.0029580923" flag="0"/>
    </comp>
    <comp name="--.HHZ">
      <acc value="0.0227145845" flag="0"/>
      <vel value="0.0095730423" flag="0"/>
      <psa03 value="0.0843777005" flag="0"/>
      <psa10 value="0.0102133889" flag="0"/>
      <psa30 value="0.0012894995" flag="0"/>
    </comp>
    <comp name="--.HHN">
      <acc value="0.0471787686" flag="0"/>
      <vel value="0.0178665678" flag="0"/>
      <psa03 value="0.1041270849" flag="0"/>
      <psa10 value="0.0114077826" flag="0"/>
      <psa30 value="0.0017168873" flag="0"/>
    </comp>
  </station>
  <station code="THERA" name="THERA" netid="HL" insttype="120" lat="36.367" lon="25.4753">
    <comp name="--.HHN">
      <acc value="1.2167292805" flag="0"/>
      <vel value="0.3174654132" flag="0"/>
      <psa03 value="1.9532595415" flag="0"/>
      <psa10 value="0.1257757066" flag="0"/>
      <psa30 value="0.0064597829" flag="0"/>
    </comp>
    <comp name="--.HHZ">
      <acc value="0.4222465841" flag="0"/>
      <vel value="0.0998454484" flag="0"/>
      <psa03 value="0.6007151862" flag="0"/>
      <psa10 value="0.0424664449" flag="0"/>
      <psa30 value="0.0075566074" flag="0"/>
    </comp>
    <comp name="--.HHE">
      <acc value="0.5390204133" flag="0"/>
      <vel value="0.1695828482" flag="0"/>
      <psa03 value="1.1549633625" flag="0"/>
      <psa10 value="0.1027766251" flag="0"/>
      <psa30 value="0.0094750639" flag="0"/>
    </comp>
  </station>
  <station code="THRA" name="THRA" netid="HL" insttype="CMG-5" lat="36.415" lon="25.4324">
    <comp name="00.HNE">
      <acc value="1.7068263126" flag="0"/>
      <vel value="0.8035733822" flag="0"/>
      <psa03 value="4.2265112869" flag="0"/>
      <psa10 value="0.4522500391" flag="0"/>
      <psa30 value="0.0452626778" flag="0"/>
    </comp>
    <comp name="00.HNN">
      <acc value="1.3740809424" flag="0"/>
      <vel value="0.7029040130" flag="0"/>
      <psa03 value="2.4708898641" flag="0"/>
      <psa10 value="0.5514523135" flag="0"/>
      <psa30 value="0.0382827194" flag="0"/>
    </comp>
    <comp name="00.HNZ">
      <acc value="1.0073233112" flag="0"/>
      <vel value="0.4064126781" flag="0"/>
      <psa03 value="1.9165773572" flag="0"/>
      <psa10 value="0.1843296554" flag="0"/>
      <psa30 value="0.0191648936" flag="0"/>
    </comp>
  </station>
  <station code="TNSA" name="TNSA" netid="HL" insttype="CMG-5" lat="37.5394" lon="25.1631">
    <comp name="00.HNE">
      <acc value="0.0863620964" flag="0"/>
      <vel value="0.0195181539" flag="0"/>
      <psa03 value="0.0935165648" flag="0"/>
      <psa10 value="0.0198565297" flag="0"/>
      <psa30 value="0.0024030422" flag="0"/>
    </comp>
    <comp name="00.HNZ">
      <acc value="0.0728485441" flag="0"/>
      <vel value="0.0381067263" flag="0"/>
      <psa03 value="0.1099457660" flag="0"/>
      <psa10 value="0.0268904967" flag="0"/>
      <psa30 value="0.0052296703" flag="0"/>
    </comp>
    <comp name="00.HNN">
      <acc value="0.1102451348" flag="0"/>
      <vel value="0.0343282706" flag="0"/>
      <psa03 value="0.1560468843" flag="0"/>
      <psa10 value="0.0284900124" flag="0"/>
      <psa30 value="0.0020458165" flag="0"/>
    </comp>
  </station>
  <station code="AKRO" name="AKRO" netid="HT" insttype="Compact," lat="36.3584" lon="25.3967">
    <comp name="--.HHE">
      <acc value="2.3480638218" flag="0"/>
      <vel value="0.5786750356" flag="0"/>
      <psa03 value="3.2703313776" flag="0"/>
      <psa10 value="0.2182357498" flag="0"/>
      <psa30 value="0.0247216536" flag="0"/>
    </comp>
    <comp name="--.HHN">
      <acc value="1.8013138319" flag="0"/>
      <vel value="0.4349330746" flag="0"/>
      <psa03 value="2.2691279346" flag="0"/>
      <psa10 value="0.1887478981" flag="0"/>
      <psa30 value="0.0201117458" flag="0"/>
    </comp>
    <comp name="--.HHZ">
      <acc value="0.9165500613" flag="0"/>
      <vel value="0.2448473550" flag="0"/>
      <psa03 value="0.9990442169" flag="0"/>
      <psa10 value="0.1463512368" flag="0"/>
      <psa30 value="0.0103610044" flag="0"/>
    </comp>
  </station>
  <station code="CMBO" name="CMBO" netid="HT" insttype="120P," lat="36.4709" lon="25.4056">
    <comp name="--.HHE">
      <acc value="0.7285053966" flag="0"/>
      <vel value="0.3009906078" flag="0"/>
      <psa03 value="2.5149542467" flag="0"/>
      <psa10 value="0.1738044714" flag="0"/>
      <psa30 value="0.0163948914" flag="0"/>
    </comp>
    <comp name="--.HHN">
      <acc value="1.3847283781" flag="0"/>
      <vel value="0.4648361231" flag="0"/>
      <psa03 value="1.7118761761" flag="0"/>
      <psa10 value="0.2447117727" flag="0"/>
      <psa30 value="0.0150998138" flag="0"/>
    </comp>
    <comp name="--.HHZ">
      <acc value="0.7557683969" flag="0"/>
      <vel value="0.2437233699" flag="0"/>
      <psa03 value="1.4132866320" flag="0"/>
      <psa10 value="0.0968279031" flag="0"/>
      <psa30 value="0.0106165350" flag="0"/>
    </comp>
  </station>
</stationlist>
