<stationlist created="1739289450">
	<station code="ABEA" name="ABEA" netid="HC" source="Seismological Network of Crete (HC)" insttype="" lat="35.5163" lon="24.0113">
		<comp name=".HNE" depth="0.0">
			<acc value="0.003614914620993" flag="0"/>
			<vel value="0.00343762441401" flag="0"/>
			<psa03 value="0.00184975795405301" flag="0"/>
			<psa10 value="0.00130603315891365" flag="0"/>
			<psa30 value="0.00105311715967624" flag="0"/>
		</comp>
		<comp name=".HNN" depth="0.0">
			<acc value="0.006099402364851" flag="0"/>
			<vel value="0.00245671027074" flag="0"/>
			<psa03 value="0.00257466762940612" flag="0"/>
			<psa10 value="0.00132256425401795" flag="0"/>
			<psa30 value="0.00106159959659598" flag="0"/>
		</comp>
		<comp name=".HNZ" depth="0.0">
			<acc value="0.006854261158008" flag="0"/>
			<vel value="0.00224668585572" flag="0"/>
			<psa03 value="0.00179502385943732" flag="0"/>
			<psa10 value="0.00136822716177122" flag="0"/>
			<psa30 value="0.00103561047911032" flag="0"/>
		</comp>
	</station>
	<station code="ATEI" name="ATEI" netid="HC" source="Seismological Network of Crete (HC)" insttype="" lat="35.5193" lon="24.0432">
		<comp name=".HNE" depth="0.0">
			<acc value="0.04473199106808" flag="0"/>
			<vel value="0.0266097356224" flag="0"/>
			<psa03 value="0.13410440459218" flag="0"/>
			<psa10 value="0.0273796637683534" flag="0"/>
			<psa30 value="0.0035654161913235" flag="0"/>
		</comp>
		<comp name=".HNN" depth="0.0">
			<acc value="0.037476963779244" flag="0"/>
			<vel value="0.0207544262449" flag="0"/>
			<psa03 value="0.11067788395002" flag="0"/>
			<psa10 value="0.027029195551566" flag="0"/>
			<psa30 value="0.00223969857737064" flag="0"/>
		</comp>
		<comp name=".HNZ" depth="0.0">
			<acc value="0.022767959132832" flag="0"/>
			<vel value="0.0128662501404" flag="0"/>
			<psa03 value="0.0468737405718134" flag="0"/>
			<psa10 value="0.0130316529705422" flag="0"/>
			<psa30 value="0.00154880478821595" flag="0"/>
		</comp>
	</station>
	<station code="G0LD" name="G0LD" netid="HC" source="Seismological Network of Crete (HC)" insttype="" lat="35.4955" lon="24.0306">
		<comp name=".HNE" depth="0.0">
			<acc value="0.0100395053322402" flag="0"/>
			<vel value="0.00346554180341" flag="0"/>
			<psa03 value="0.00266522733948126" flag="0"/>
			<psa10 value="0.00185762356625515" flag="0"/>
			<psa30 value="0.00126412342947377" flag="0"/>
		</comp>
		<comp name=".HNN" depth="0.0">
			<acc value="0.013969581793704" flag="0"/>
			<vel value="0.0037294066839" flag="0"/>
			<psa03 value="0.00220093502640282" flag="0"/>
			<psa10 value="0.00148745048941991" flag="0"/>
			<psa30 value="0.0013864177808716" flag="0"/>
		</comp>
		<comp name=".HNZ" depth="0.0">
			<acc value="0.010722448728516" flag="0"/>
			<vel value="0.0062429128899" flag="0"/>
			<psa03 value="0.0032324452534266" flag="0"/>
			<psa10 value="0.00210836646580446" flag="0"/>
			<psa30 value="0.00188664060568295" flag="0"/>
		</comp>
	</station>
	<station code="PASK" name="PASK" netid="HC" source="Seismological Network of Crete (HC)" insttype="" lat="35.4996" lon="24.0121">
		<comp name=".HNE" depth="0.0">
			<acc value="0.071771604363978" flag="0"/>
			<vel value="0.0416431838991" flag="0"/>
			<psa03 value="0.157592387638918" flag="0"/>
			<psa10 value="0.0773555569261168" flag="0"/>
			<psa30 value="0.00634150050995964" flag="0"/>
		</comp>
		<comp name=".HNN" depth="0.0">
			<acc value="0.074858159798268" flag="0"/>
			<vel value="0.0321197850324" flag="0"/>
			<psa03 value="0.123340847809119" flag="0"/>
			<psa10 value="0.0484222364855705" flag="0"/>
			<psa30 value="0.00438127732145495" flag="0"/>
		</comp>
		<comp name=".HNZ" depth="0.0">
			<acc value="0.035245917338502" flag="0"/>
			<vel value="0.0151173488207" flag="0"/>
			<psa03 value="0.0986431075384286" flag="0"/>
			<psa10 value="0.0209947683003633" flag="0"/>
			<psa30 value="0.00201972608860927" flag="0"/>
		</comp>
	</station>
	<station code="POLY" name="POLY" netid="HC" source="Seismological Network of Crete (HC)" insttype="" lat="35.5226" lon="24.0602">
		<comp name=".HNE" depth="0.0">
			<acc value="0.0024138101915898" flag="0"/>
			<vel value="0.00277525863705" flag="0"/>
			<psa03 value="0.00137291646980938" flag="0"/>
			<psa10 value="0.00151197312955048" flag="0"/>
			<psa30 value="0.000835913448081709" flag="0"/>
		</comp>
		<comp name=".HNN" depth="0.0">
			<acc value="0.002446342359036" flag="0"/>
			<vel value="0.00227609580465" flag="0"/>
			<psa03 value="0.00171512761618521" flag="0"/>
			<psa10 value="0.00144031396841863" flag="0"/>
			<psa30 value="0.000765653429116185" flag="0"/>
		</comp>
		<comp name=".HNZ" depth="0.0">
			<acc value="0.0043297945510638" flag="0"/>
			<vel value="0.00231706193537" flag="0"/>
			<psa03 value="0.00164159328526062" flag="0"/>
			<psa10 value="0.0009759039457229" flag="0"/>
			<psa30 value="0.000712817220642175" flag="0"/>
		</comp>
	</station>
	<station code="ARK1" name="ARK1" netid="HI" source="ITSAK Strong Motion Network" insttype="" lat="35.148777" lon="25.264194">
		<comp name=".HNE" depth="0.0">
			<acc value="0.069736264347912" flag="0"/>
			<vel value="0.0624014927304" flag="0"/>
			<psa03 value="0.25423538351311" flag="0"/>
			<psa10 value="0.0876490213176343" flag="0"/>
			<psa30 value="0.00623363669783346" flag="0"/>
		</comp>
		<comp name=".HNN" depth="0.0">
			<acc value="0.072222611258622" flag="0"/>
			<vel value="0.0498229156084" flag="0"/>
			<psa03 value="0.180097722256892" flag="0"/>
			<psa10 value="0.0372374918010698" flag="0"/>
			<psa30 value="0.0054515803070964" flag="0"/>
		</comp>
		<comp name=".HNZ" depth="0.0">
			<acc value="0.043715312734188" flag="0"/>
			<vel value="0.0316670826695" flag="0"/>
			<psa03 value="0.123155970978733" flag="0"/>
			<psa10 value="0.0429160692288777" flag="0"/>
			<psa30 value="0.00497399991976221" flag="0"/>
		</comp>
	</station>
	<station code="CH01" name="CH01" netid="HI" source="ITSAK Strong Motion Network" insttype="" lat="35.517" lon="24.0208">
		<comp name=".HNE" depth="0.0">
			<acc value="0.052138505016678" flag="0"/>
			<vel value="0.0281534454668" flag="0"/>
			<psa03 value="0.12698857903669" flag="0"/>
			<psa10 value="0.0298200910596892" flag="0"/>
			<psa30 value="0.0036071889585643" flag="0"/>
		</comp>
		<comp name=".HNN" depth="0.0">
			<acc value="0.04737259225698" flag="0"/>
			<vel value="0.0200461425422" flag="0"/>
			<psa03 value="0.124335611623865" flag="0"/>
			<psa10 value="0.0279429379575112" flag="0"/>
			<psa30 value="0.00361732588008441" flag="0"/>
		</comp>
		<comp name=".HNZ" depth="0.0">
			<acc value="0.02361826536189" flag="0"/>
			<vel value="0.0136692119201" flag="0"/>
			<psa03 value="0.0450157737409692" flag="0"/>
			<psa10 value="0.0221912494363802" flag="0"/>
			<psa30 value="0.00175350761960687" flag="0"/>
		</comp>
	</station>
	<station code="CH02" name="CH02" netid="HI" source="ITSAK Strong Motion Network" insttype="" lat="35.5145" lon="24.0315">
		<comp name=".HNE" depth="0.0">
			<acc value="0.037969861709238" flag="0"/>
			<vel value="0.0208403637883" flag="0"/>
			<psa03 value="0.128550755439801" flag="0"/>
			<psa10 value="0.0337163797946763" flag="0"/>
			<psa30 value="0.00344156319500659" flag="0"/>
		</comp>
		<comp name=".HNN" depth="0.0">
			<acc value="0.058952553026586" flag="0"/>
			<vel value="0.0226283692809" flag="0"/>
			<psa03 value="0.1251296954783" flag="0"/>
			<psa10 value="0.0334760113714777" flag="0"/>
			<psa30 value="0.00273047067194766" flag="0"/>
		</comp>
		<comp name=".HNZ" depth="0.0">
			<acc value="0.02005518105726" flag="0"/>
			<vel value="0.0109079553723" flag="0"/>
			<psa03 value="0.0508221010896051" flag="0"/>
			<psa10 value="0.01911988034822" flag="0"/>
			<psa30 value="0.00149891262893728" flag="0"/>
		</comp>
	</station>
	<station code="CH03" name="CH03" netid="HI" source="ITSAK Strong Motion Network" insttype="" lat="35.53303" lon="24.0705">
		<comp name=".HNE" depth="0.0">
			<acc value="0.028171663644966" flag="0"/>
			<vel value="0.0154030653648" flag="0"/>
			<psa03 value="0.077715710784627" flag="0"/>
			<psa10 value="0.0296570846363013" flag="0"/>
			<psa30 value="0.00234727820399348" flag="0"/>
		</comp>
		<comp name=".HNN" depth="0.0">
			<acc value="0.027773761100286" flag="0"/>
			<vel value="0.0186743524401" flag="0"/>
			<psa03 value="0.0748063409698351" flag="0"/>
			<psa10 value="0.0218537927065293" flag="0"/>
			<psa30 value="0.00149486350653979" flag="0"/>
		</comp>
		<comp name=".HNZ" depth="0.0">
			<acc value="0.02353870170009" flag="0"/>
			<vel value="0.0139031884328" flag="0"/>
			<psa03 value="0.0510509131226133" flag="0"/>
			<psa10 value="0.0113497640536481" flag="0"/>
			<psa30 value="0.000858883615573655" flag="0"/>
		</comp>
	</station>
	<station code="GOR1" name="GOR1" netid="HI" source="ITSAK Strong Motion Network" insttype="" lat="35.0582" lon="24.9628">
		<comp name=".HNE" depth="0.0">
			<acc value="0.02760552599544" flag="0"/>
			<vel value="0.0228606882738" flag="0"/>
			<psa03 value="0.0891632503776998" flag="0"/>
			<psa10 value="0.0451314684882346" flag="0"/>
			<psa30 value="0.00358298318838389" flag="0"/>
		</comp>
		<comp name=".HNN" depth="0.0">
			<acc value="0.026588450578608" flag="0"/>
			<vel value="0.0288041310319" flag="0"/>
			<psa03 value="0.0852961296164404" flag="0"/>
			<psa10 value="0.0391691022607966" flag="0"/>
			<psa30 value="0.0040174598870008" flag="0"/>
		</comp>
		<comp name=".HNZ" depth="0.0">
			<acc value="0.027998734405464" flag="0"/>
			<vel value="0.018955228744" flag="0"/>
			<psa03 value="0.0529340430787357" flag="0"/>
			<psa10 value="0.0236436400251157" flag="0"/>
			<psa30 value="0.00177230553154472" flag="0"/>
		</comp>
	</station>
	<station code="HER3" name="HER3" netid="HI" source="ITSAK Strong Motion Network" insttype="" lat="35.3296" lon="25.1065">
		<comp name=".HNE" depth="0.0">
			<acc value="0.13758811948848" flag="0"/>
			<vel value="0.0760994965284" flag="0"/>
			<psa03 value="0.338814382290227" flag="0"/>
			<psa10 value="0.105642105770981" flag="0"/>
			<psa30 value="0.00852469888612069" flag="0"/>
		</comp>
		<comp name=".HNN" depth="0.0">
			<acc value="0.2053069413663" flag="0"/>
			<vel value="0.119481709972" flag="0"/>
			<psa03 value="0.393286761651027" flag="0"/>
			<psa10 value="0.265026816726039" flag="0"/>
			<psa30 value="0.0096821880641244" flag="0"/>
		</comp>
		<comp name=".HNZ" depth="0.0">
			<acc value="0.10945454384946" flag="0"/>
			<vel value="0.0594819679407" flag="0"/>
			<psa03 value="0.200507636813528" flag="0"/>
			<psa10 value="0.0801785189334308" flag="0"/>
			<psa30 value="0.0031799877419156" flag="0"/>
		</comp>
	</station>
	<station code="KRL1" name="KRL1" netid="HI" source="ITSAK Strong Motion Network" insttype="" lat="37.7951" lon="26.7065">
		<comp name=".HNE" depth="0.0">
			<acc value="0.064349585448828" flag="0"/>
			<vel value="0.0240199846964" flag="0"/>
			<psa03 value="0.156237016602412" flag="0"/>
			<psa10 value="0.0178626958159171" flag="0"/>
			<psa30 value="0.00223481408713031" flag="0"/>
		</comp>
		<comp name=".HNN" depth="0.0">
			<acc value="0.04246426732668" flag="0"/>
			<vel value="0.0179472333038" flag="0"/>
			<psa03 value="0.0973675230374004" flag="0"/>
			<psa10 value="0.018632859960544" flag="0"/>
			<psa30 value="0.00228473010215713" flag="0"/>
		</comp>
		<comp name=".HNZ" depth="0.0">
			<acc value="0.025638567829464" flag="0"/>
			<vel value="0.0177468143646" flag="0"/>
			<psa03 value="0.0476141698302347" flag="0"/>
			<psa10 value="0.0118800501200326" flag="0"/>
			<psa30 value="0.00147106693012942" flag="0"/>
		</comp>
	</station>
	<station code="KTL1" name="KTL1" netid="HI" source="ITSAK Strong Motion Network" insttype="" lat="35.20778" lon="25.34272">
		<comp name=".HNE" depth="0.0">
			<acc value="0.06285480332706" flag="0"/>
			<vel value="0.0491160252493" flag="0"/>
			<psa03 value="0.19947465171688" flag="0"/>
			<psa10 value="0.041673120639744" flag="0"/>
			<psa30 value="0.00456617081972591" flag="0"/>
		</comp>
		<comp name=".HNN" depth="0.0">
			<acc value="0.081586855682892" flag="0"/>
			<vel value="0.0468171471479" flag="0"/>
			<psa03 value="0.220027450738984" flag="0"/>
			<psa10 value="0.0506387045655956" flag="0"/>
			<psa30 value="0.00343950597538847" flag="0"/>
		</comp>
		<comp name=".HNZ" depth="0.0">
			<acc value="0.031242011137782" flag="0"/>
			<vel value="0.0217809391781" flag="0"/>
			<psa03 value="0.0638707415397898" flag="0"/>
			<psa10 value="0.0164509804216964" flag="0"/>
			<psa30 value="0.00271905241554404" flag="0"/>
		</comp>
	</station>
	<station code="NAX1" name="NAX1" netid="HI" source="ITSAK Strong Motion Network" insttype="" lat="37.101394" lon="25.374103">
		<comp name=".HNE" depth="0.0">
			<acc value="0.24994458807396" flag="0"/>
			<vel value="0.0647360620788" flag="0"/>
			<psa03 value="0.335846852372324" flag="0"/>
			<psa10 value="0.0475850197741724" flag="0"/>
			<psa30 value="0.00358753390651448" flag="0"/>
		</comp>
		<comp name=".HNN" depth="0.0">
			<acc value="0.37727426986014" flag="0"/>
			<vel value="0.0752440476537" flag="0"/>
			<psa03 value="0.193901865880229" flag="0"/>
			<psa10 value="0.0474753587596859" flag="0"/>
			<psa30 value="0.00766356350680789" flag="0"/>
		</comp>
		<comp name=".HNZ" depth="0.0">
			<acc value="0.1630230171735" flag="0"/>
			<vel value="0.0492586364379" flag="0"/>
			<psa03 value="0.166655342181851" flag="0"/>
			<psa10 value="0.0474401739288435" flag="0"/>
			<psa30 value="0.00980866894283355" flag="0"/>
		</comp>
	</station>
	<station code="RDI1" name="RDI1" netid="HI" source="ITSAK Strong Motion Network" insttype="" lat="36.4514" lon="28.224">
		<comp name=".HNE" depth="0.0">
			<acc value="0.0052003270361574" flag="0"/>
			<vel value="0.0089667963025" flag="0"/>
			<psa03 value="0.0149134007000112" flag="0"/>
			<psa10 value="0.0129912852963946" flag="0"/>
			<psa30 value="0.00319753682112267" flag="0"/>
		</comp>
		<comp name=".HNN" depth="0.0">
			<acc value="0.0040230074786616" flag="0"/>
			<vel value="0.00886664086985" flag="0"/>
			<psa03 value="0.0128992151867652" flag="0"/>
			<psa10 value="0.00873607715973793" flag="0"/>
			<psa30 value="0.00486941757502827" flag="0"/>
		</comp>
		<comp name=".HNZ" depth="0.0">
			<acc value="0.0047737428135762" flag="0"/>
			<vel value="0.00451014921405" flag="0"/>
			<psa03 value="0.0102694205330741" flag="0"/>
			<psa10 value="0.00587578705456607" flag="0"/>
			<psa30 value="0.00174671362787062" flag="0"/>
		</comp>
	</station>
	<station code="RKL1" name="RKL1" netid="HI" source="ITSAK Strong Motion Network" insttype="" lat="36.336699" lon="28.171224">
		<comp name=".HNE" depth="0.0">
			<acc value="0.011541754031376" flag="0"/>
			<vel value="0.0115384020183" flag="0"/>
			<psa03 value="0.0293852955899595" flag="0"/>
			<psa10 value="0.0257816754094624" flag="0"/>
			<psa30 value="0.00156413757477284" flag="0"/>
		</comp>
		<comp name=".HNN" depth="0.0">
			<acc value="0.010066632768087" flag="0"/>
			<vel value="0.00959565884347" flag="0"/>
			<psa03 value="0.0349111043559879" flag="0"/>
			<psa10 value="0.0143560157030747" flag="0"/>
			<psa30 value="0.00159067120749467" flag="0"/>
		</comp>
		<comp name=".HNZ" depth="0.0">
			<acc value="0.0066865842419196" flag="0"/>
			<vel value="0.00468187346952" flag="0"/>
			<psa03 value="0.0208818273289724" flag="0"/>
			<psa10 value="0.00522703954698669" flag="0"/>
			<psa30 value="0.000720138955671828" flag="0"/>
		</comp>
	</station>
	<station code="RPN1" name="RPN1" netid="HI" source="ITSAK Strong Motion Network" insttype="" lat="36.448678" lon="28.218047">
		<comp name=".HNE" depth="0.0">
			<acc value="0.0098107281613602" flag="0"/>
			<vel value="0.0076879393259" flag="0"/>
			<psa03 value="0.0202424242945913" flag="0"/>
			<psa10 value="0.00809216794139499" flag="0"/>
			<psa30 value="0.00310614889211893" flag="0"/>
		</comp>
		<comp name=".HNN" depth="0.0">
			<acc value="0.008924003778342" flag="0"/>
			<vel value="0.0105236002209" flag="0"/>
			<psa03 value="0.0191602106761729" flag="0"/>
			<psa10 value="0.0112062711104471" flag="0"/>
			<psa30 value="0.00508592316746294" flag="0"/>
		</comp>
		<comp name=".HNZ" depth="0.0">
			<acc value="0.02033195638089" flag="0"/>
			<vel value="0.00416030450163" flag="0"/>
			<psa03 value="0.00943827172354118" flag="0"/>
			<psa10 value="0.00801445716843724" flag="0"/>
			<psa30 value="0.00184682775994413" flag="0"/>
		</comp>
	</station>
	<station code="RTH1" name="RTH1" netid="HI" source="ITSAK Strong Motion Network" insttype="" lat="35.365393" lon="24.471773">
		<comp name=".HNE" depth="0.0">
			<acc value="0.024706440817326" flag="0"/>
			<vel value="0.013578215873" flag="0"/>
			<psa03 value="0.10454485266678" flag="0"/>
			<psa10 value="0.013137434353036" flag="0"/>
			<psa30 value="0.00410785170834821" flag="0"/>
		</comp>
		<comp name=".HNN" depth="0.0">
			<acc value="0.0226975564107" flag="0"/>
			<vel value="0.0143163472998" flag="0"/>
			<psa03 value="0.0777497130370697" flag="0"/>
			<psa10 value="0.0206651364638654" flag="0"/>
			<psa30 value="0.00360185027157183" flag="0"/>
		</comp>
		<comp name=".HNZ" depth="0.0">
			<acc value="0.018326074015008" flag="0"/>
			<vel value="0.00959258112596" flag="0"/>
			<psa03 value="0.0472330768759817" flag="0"/>
			<psa10 value="0.0112367296906771" flag="0"/>
			<psa30 value="0.00194337686417961" flag="0"/>
		</comp>
	</station>
	<station code="SFR2" name="SFR2" netid="HI" source="ITSAK Strong Motion Network" insttype="" lat="36.399841" lon="25.438209">
		<comp name=".HNE" depth="0.0">
			<acc value="1.8019371119748" flag="0"/>
			<vel value="0.54124056329" flag="0"/>
			<psa03 value="4.16519492372296" flag="0"/>
			<psa10 value="0.316491446004881" flag="0"/>
			<psa30 value="0.0303157816050986" flag="0"/>
		</comp>
		<comp name=".HNN" depth="0.0">
			<acc value="1.2192142505454" flag="0"/>
			<vel value="0.458654470918" flag="0"/>
			<psa03 value="2.75200347339007" flag="0"/>
			<psa10 value="0.355495499832226" flag="0"/>
			<psa30 value="0.0168967743283761" flag="0"/>
		</comp>
		<comp name=".HNZ" depth="0.0">
			<acc value="1.4052471652248" flag="0"/>
			<vel value="0.389628243022" flag="0"/>
			<psa03 value="2.44835269134903" flag="0"/>
			<psa10 value="0.184067983600624" flag="0"/>
			<psa30 value="0.0123413750555216" flag="0"/>
		</comp>
	</station>
	<station code="AMGA" name="AMGA" netid="HL" source="National Observatory of Athens Seismic Network" insttype="" lat="36.831561" lon="25.893836">
		<comp name="00.HNE" depth="0.0">
			<acc value="1.0242554590536" flag="0"/>
			<vel value="0.210297548028" flag="0"/>
			<psa03 value="0.735215954447318" flag="0"/>
			<psa10 value="0.0955824093655816" flag="0"/>
			<psa30 value="0.0105894206638009" flag="0"/>
		</comp>
		<comp name="00.HNN" depth="0.0">
			<acc value="1.1783259092328" flag="0"/>
			<vel value="0.216690843892" flag="0"/>
			<psa03 value="0.527805339512574" flag="0"/>
			<psa10 value="0.132678779317831" flag="0"/>
			<psa30 value="0.0113142703482083" flag="0"/>
		</comp>
		<comp name="00.HNZ" depth="0.0">
			<acc value="0.5877756705888" flag="0"/>
			<vel value="0.140608959406" flag="0"/>
			<psa03 value="0.612297228352519" flag="0"/>
			<psa10 value="0.061192267437512" flag="0"/>
			<psa30 value="0.0072135153599837" flag="0"/>
		</comp>
	</station>
	<station code="ANAF" name="ANAF" netid="HL" source="National Observatory of Athens Seismic Network" insttype="" lat="36.35675" lon="25.77262">
		<comp name=".HNE" depth="0.0">
			<acc value="5.2890502366248" flag="0"/>
			<vel value="1.20357638567" flag="0"/>
			<psa03 value="4.40235030077022" flag="0"/>
			<psa10 value="0.226292450764249" flag="0"/>
			<psa30 value="0.0311569906643986" flag="0"/>
		</comp>
		<comp name=".HNN" depth="0.0">
			<acc value="6.0511435213068" flag="0"/>
			<vel value="1.25498380286" flag="0"/>
			<psa03 value="5.31199789379124" flag="0"/>
			<psa10 value="0.205415267753236" flag="0"/>
