<?xml version="1.0" encoding="UTF-8" standalone="yes"?>
<!DOCTYPE earthquake SYSTEM "stationlist.dtd">
<stationlist created="" xmlns="ch.ethz.sed.shakemap.usgs.xml">
  <station code="VANB" name="VANB" netid="KO" insttype="360s," lat="38.509" lon="43.4058">
    <comp name="--.HHZ">
      <acc value="0.0574566589" flag="0"/>
      <vel value="0.1101197716" flag="0"/>
      <psa03 value="0.1204835479" flag="0"/>
      <psa10 value="0.1080320914" flag="0"/>
      <psa30 value="0.0616456653" flag="0"/>
    </comp>
    <comp name="--.HHE">
      <acc value="0.1063953588" flag="0"/>
      <vel value="0.2057807166" flag="0"/>
      <psa03 value="0.2393152176" flag="0"/>
      <psa10 value="0.1674105304" flag="0"/>
      <psa30 value="0.0862046897" flag="0"/>
    </comp>
    <comp name="--.HHN">
      <acc value="0.0785401626" flag="0"/>
      <vel value="0.1560852030" flag="0"/>
      <psa03 value="0.1154172494" flag="0"/>
      <psa10 value="0.1697057394" flag="0"/>
      <psa30 value="0.1230597518" flag="0"/>
    </comp>
  </station>
</stationlist>
