<?xml version="1.0" encoding="UTF-8" standalone="yes"?>
<!DOCTYPE earthquake SYSTEM "stationlist.dtd">
<stationlist created="" xmlns="ch.ethz.sed.shakemap.usgs.xml">
  <station code="VANB" name="VANB" netid="KO" insttype="360s," lat="38.509" lon="43.4058">
    <comp name="--.HHE">
      <acc value="0.1063953588" flag="0"/>
      <vel value="0.2057807815" flag="0"/>
      <psa03 value="0.2393152177" flag="0"/>
      <psa10 value="0.1674105305" flag="0"/>
      <psa30 value="0.0862043510" flag="0"/>
    </comp>
    <comp name="--.HHN">
      <acc value="0.0785401626" flag="0"/>
      <vel value="0.1560852116" flag="0"/>
      <psa03 value="0.1154172494" flag="0"/>
      <psa10 value="0.1697057394" flag="0"/>
      <psa30 value="0.1230597550" flag="0"/>
    </comp>
    <comp name="--.HHZ">
      <acc value="0.0574566593" flag="0"/>
      <vel value="0.1101197907" flag="0"/>
      <psa03 value="0.1204835479" flag="0"/>
      <psa10 value="0.1080320914" flag="0"/>
      <psa30 value="0.0616456739" flag="0"/>
    </comp>
  </station>
</stationlist>
