<?xml version="1.0" encoding="UTF-8" standalone="yes"?>
<!DOCTYPE earthquake SYSTEM "stationlist.dtd">
<stationlist created="" xmlns="ch.ethz.sed.shakemap.usgs.xml">
  <station code="THERA" name="THERA" netid="GE" insttype="STS-2/N" commtype="DIG" lat="36.367" lon="25.4753">
    <comp name="--.HHE">
      <acc value="0.0342754197" flag="0"/>
      <vel value="0.0061515959" flag="0"/>
      <psa03 value="0.0212137953" flag="0"/>
      <psa10 value="0.0012142932" flag="0"/>
      <psa30 value="0.0001272937" flag="0"/>
    </comp>
    <comp name="--.HHN">
      <acc value="0.0168598009" flag="0"/>
      <vel value="0.0041841034" flag="0"/>
      <psa03 value="0.0280829320" flag="0"/>
      <psa10 value="0.0008606503" flag="0"/>
      <psa30 value="0.0000808531" flag="0"/>
    </comp>
    <comp name="--.HHZ">
      <acc value="0.0362901559" flag="0"/>
      <vel value="0.0072921747" flag="0"/>
      <psa03 value="0.0330767040" flag="0"/>
      <psa10 value="0.0010794962" flag="0"/>
      <psa30 value="0.0001201977" flag="0"/>
    </comp>
  </station>
  <station code="ZKR" name="ZKR" netid="GE" insttype="STS-2/N" commtype="DIG" lat="35.1147" lon="26.2169">
    <comp name="--.HHE">
      <acc value="0.0235056955" flag="0"/>
      <vel value="0.0048036985" flag="0"/>
      <psa03 value="0.0177937975" flag="0"/>
      <psa10 value="0.0016302353" flag="0"/>
      <psa30 value="0.0001582397" flag="0"/>
    </comp>
    <comp name="--.HHN">
      <acc value="0.0087995733" flag="0"/>
      <vel value="0.0028620060" flag="0"/>
      <psa03 value="0.0147544645" flag="0"/>
      <psa10 value="0.0007874047" flag="0"/>
      <psa30 value="0.0000851415" flag="0"/>
    </comp>
    <comp name="--.HHZ">
      <acc value="0.0302523086" flag="0"/>
      <vel value="0.0065036652" flag="0"/>
      <psa03 value="0.0246824389" flag="0"/>
      <psa10 value="0.0012307282" flag="0"/>
      <psa30 value="0.0001311158" flag="0"/>
    </comp>
  </station>
  <station code="IDI" name="IDI" netid="MN" insttype="" commtype="DIG" lat="35.288" lon="24.89">
    <comp name="--.HHE">
      <acc value="0.0229338001" flag="0"/>
      <vel value="0.0048912156" flag="0"/>
      <psa03 value="0.0204610793" flag="0"/>
      <psa10 value="0.0019539599" flag="0"/>
      <psa30 value="0.0001475222" flag="0"/>
    </comp>
    <comp name="--.HHN">
      <acc value="0.0251631592" flag="0"/>
      <vel value="0.0044026746" flag="0"/>
      <psa03 value="0.0157909491" flag="0"/>
      <psa10 value="0.0013417046" flag="0"/>
      <psa30 value="0.0000879209" flag="0"/>
    </comp>
    <comp name="--.HHZ">
      <acc value="0.0199024967" flag="0"/>
      <vel value="0.0045480586" flag="0"/>
      <psa03 value="0.0159883171" flag="0"/>
      <psa10 value="0.0015514868" flag="0"/>
      <psa30 value="0.0000819021" flag="0"/>
    </comp>
  </station>
</stationlist>
