<?xml version="1.0" encoding="UTF-8" standalone="yes"?>
<!DOCTYPE earthquake SYSTEM "stationlist.dtd">
<stationlist created="" xmlns="ch.ethz.sed.shakemap.usgs.xml">
  <station code="THERA" name="THERA" netid="GE" insttype="STS-2/N" commtype="DIG" lat="36.367" lon="25.4753">
    <comp name="--.HHE">
      <acc value="0.0342754197" flag="0"/>
      <vel value="0.0061515959" flag="0"/>
      <psa03 value="0.0212137953" flag="0"/>
      <psa10 value="0.0012142932" flag="0"/>
      <psa30 value="0.0001272937" flag="0"/>
    </comp>
    <comp name="--.HHN">
      <acc value="0.0168598009" flag="0"/>
      <vel value="0.0041841034" flag="0"/>
      <psa03 value="0.0280829320" flag="0"/>
      <psa10 value="0.0008606503" flag="0"/>
      <psa30 value="0.0000808531" flag="0"/>
    </comp>
    <comp name="--.HHZ">
      <acc value="0.0362901559" flag="0"/>
      <vel value="0.0072921747" flag="0"/>
      <psa03 value="0.0330767040" flag="0"/>
      <psa10 value="0.0010794962" flag="0"/>
      <psa30 value="0.0001201977" flag="0"/>
    </comp>
  </station>
  <station code="ZKR" name="ZKR" netid="GE" insttype="STS-2/N" commtype="DIG" lat="35.1147" lon="26.2169">
    <comp name="--.HHE">
      <acc value="0.0235056955" flag="0"/>
      <vel value="0.0048036985" flag="0"/>
      <psa03 value="0.0177937975" flag="0"/>
      <psa10 value="0.0016302353" flag="0"/>
      <psa30 value="0.0001582397" flag="0"/>
    </comp>
    <comp name="--.HHN">
      <acc value="0.0087995733" flag="0"/>
      <vel value="0.0028620060" flag="0"/>
      <psa03 value="0.0147544645" flag="0"/>
      <psa10 value="0.0007874047" flag="0"/>
      <psa30 value="0.0000851415" flag="0"/>
    </comp>
    <comp name="--.HHZ">
      <acc value="0.0302523086" flag="0"/>
      <vel value="0.0065036652" flag="0"/>
      <psa03 value="0.0246824389" flag="0"/>
      <psa10 value="0.0012307282" flag="0"/>
      <psa30 value="0.0001311158" flag="0"/>
    </comp>
  </station>
  <station code="SNT1" name="SNT1" netid="HA" insttype="30" commtype="DIG" lat="36.4159" lon="25.4282">
    <comp name="--.HHE">
      <acc value="0.0089077382" flag="0"/>
      <vel value="0.0023566572" flag="0"/>
      <psa03 value="0.0071106542" flag="0"/>
      <psa10 value="0.0012077846" flag="0"/>
      <psa30 value="0.0001444758" flag="0"/>
    </comp>
    <comp name="--.HHN">
      <acc value="0.0093874176" flag="0"/>
      <vel value="0.0021752672" flag="0"/>
      <psa03 value="0.0135178404" flag="0"/>
      <psa10 value="0.0009689463" flag="0"/>
      <psa30 value="0.0000799098" flag="0"/>
    </comp>
    <comp name="--.HHZ">
      <acc value="0.0093490818" flag="0"/>
      <vel value="0.0019540215" flag="0"/>
      <psa03 value="0.0092117543" flag="0"/>
      <psa10 value="0.0005911275" flag="0"/>
      <psa30 value="0.0000431347" flag="0"/>
    </comp>
  </station>
  <station code="SNT5" name="SNT5" netid="HA" insttype="1s-100Hz," commtype="DIG" lat="36.4037" lon="25.3953">
    <comp name="--.HHZ">
      <acc value="0.0211576394" flag="0"/>
      <vel value="0.0029552391" flag="0"/>
      <psa03 value="0.0087683671" flag="0"/>
      <psa10 value="0.0004686795" flag="0"/>
      <psa30 value="0.0000543802" flag="0"/>
    </comp>
    <comp name="--.HHN">
      <acc value="0.0330519622" flag="0"/>
      <vel value="0.0067366360" flag="0"/>
      <psa03 value="0.0323838121" flag="0"/>
      <psa10 value="0.0009497667" flag="0"/>
      <psa30 value="0.0001106080" flag="0"/>
    </comp>
    <comp name="--.HHE">
      <acc value="0.0639183882" flag="0"/>
      <vel value="0.0095885284" flag="0"/>
      <psa03 value="0.0535558386" flag="0"/>
      <psa10 value="0.0018767227" flag="0"/>
      <psa30 value="0.0001987581" flag="0"/>
    </comp>
  </station>
  <station code="IMOD" name="IMOD" netid="HC" insttype="120" commtype="DIG" lat="34.9731" lon="24.7995">
    <comp name="--.HHE">
      <acc value="0.0072004155" flag="0"/>
      <vel value="0.0028715343" flag="0"/>
      <psa03 value="0.0164009190" flag="0"/>
      <psa10 value="0.0013503605" flag="0"/>
      <psa30 value="0.0001067670" flag="0"/>
    </comp>
    <comp name="--.HHN">
      <acc value="0.0055613826" flag="0"/>
      <vel value="0.0028052655" flag="0"/>
      <psa03 value="0.0202380167" flag="0"/>
      <psa10 value="0.0016828115" flag="0"/>
      <psa30 value="0.0000794043" flag="0"/>
    </comp>
    <comp name="--.HHZ">
      <acc value="0.0055024281" flag="0"/>
      <vel value="0.0016887861" flag="0"/>
      <psa03 value="0.0107302689" flag="0"/>
      <psa10 value="0.0009432908" flag="0"/>
      <psa30 value="0.0000489088" flag="0"/>
    </comp>
  </station>
  <station code="KNSS" name="KNSS" netid="HC" insttype="60" commtype="DIG" lat="35.3042" lon="25.1802">
    <comp name="--.HHE">
      <acc value="0.0000000000" flag="0"/>
      <vel value="-100.0000000000" flag="0"/>
      <psa03 value="0.0000000000" flag="0"/>
      <psa10 value="0.0000000000" flag="0"/>
      <psa30 value="0.0000000000" flag="0"/>
    </comp>
    <comp name="--.HHZ">
      <acc value="0.0328383351" flag="0"/>
      <vel value="0.0077244281" flag="0"/>
      <psa03 value="0.0254595153" flag="0"/>
      <psa10 value="0.0012574037" flag="0"/>
      <psa30 value="0.0001093826" flag="0"/>
    </comp>
    <comp name="--.HHN">
      <acc value="0.0290217913" flag="0"/>
      <vel value="0.0082181995" flag="0"/>
      <psa03 value="0.0362950800" flag="0"/>
      <psa10 value="0.0024611538" flag="0"/>
      <psa30 value="0.0001741692" flag="0"/>
    </comp>
  </station>
  <station code="PFKS" name="PFKS" netid="HC" insttype="120" commtype="DIG" lat="35.0429" lon="25.4733">
    <comp name="--.HHE">
      <acc value="0.0436699742" flag="0"/>
      <vel value="0.0096824896" flag="0"/>
      <psa03 value="0.0574862288" flag="0"/>
      <psa10 value="0.0064066824" flag="0"/>
      <psa30 value="0.0003120589" flag="0"/>
    </comp>
    <comp name="--.HHN">
      <acc value="0.0682456466" flag="0"/>
      <vel value="0.0154345839" flag="0"/>
      <psa03 value="0.0523703215" flag="0"/>
      <psa10 value="0.0034066886" flag="0"/>
      <psa30 value="0.0003481186" flag="0"/>
    </comp>
    <comp name="--.HHZ">
      <acc value="0.0309837044" flag="0"/>
      <vel value="0.0082739983" flag="0"/>
      <psa03 value="0.0230688485" flag="0"/>
      <psa10 value="0.0019157103" flag="0"/>
      <psa30 value="0.0001604958" flag="0"/>
    </comp>
  </station>
  <station code="STIA" name="STIA" netid="HC" insttype="120" commtype="DIG" lat="35.2021" lon="26.0909">
    <comp name="--.HHE">
      <acc value="0.0674223277" flag="0"/>
      <vel value="0.0162273190" flag="0"/>
      <psa03 value="0.0438993650" flag="0"/>
      <psa10 value="0.0027443628" flag="0"/>
      <psa30 value="0.0003002753" flag="0"/>
    </comp>
    <comp name="--.HHZ">
      <acc value="0.0567095487" flag="0"/>
      <vel value="0.0106015001" flag="0"/>
      <psa03 value="0.0397747774" flag="0"/>
      <psa10 value="0.0024078804" flag="0"/>
      <psa30 value="0.0001539405" flag="0"/>
    </comp>
    <comp name="--.HHN">
      <acc value="0.0000000000" flag="0"/>
      <vel value="-100.0000000000" flag="0"/>
      <psa03 value="0.0000000000" flag="0"/>
      <psa10 value="0.0000000000" flag="0"/>
      <psa30 value="0.0000000000" flag="0"/>
    </comp>
  </station>
  <station code="TEFL" name="TEFL" netid="HC" insttype="GEOtiny," commtype="DIG" lat="35.0933" lon="25.1634">
    <comp name="--.HHN">
      <acc value="0.0678306728" flag="0"/>
      <vel value="0.0162642165" flag="0"/>
      <psa03 value="0.0961550416" flag="0"/>
      <psa10 value="0.0040632165" flag="0"/>
      <psa30 value="0.0002531034" flag="0"/>
    </comp>
    <comp name="--.HHE">
      <acc value="0.0716541422" flag="0"/>
      <vel value="0.0165352161" flag="0"/>
      <psa03 value="0.0463960155" flag="0"/>
      <psa10 value="0.0054225567" flag="0"/>
      <psa30 value="0.0002778131" flag="0"/>
    </comp>
    <comp name="--.HHZ">
      <acc value="0.0304513911" flag="0"/>
      <vel value="0.0059003378" flag="0"/>
      <psa03 value="0.0292266662" flag="0"/>
      <psa10 value="0.0020740474" flag="0"/>
      <psa30 value="0.0001418483" flag="0"/>
    </comp>
  </station>
  <station code="AGN1" name="AGN1" netid="HI" insttype="unknown" commtype="DIG" lat="35.1879" lon="25.7155">
    <comp name="--.HNZ">
      <acc value="0.0443541622" flag="0"/>
      <vel value="0.0085248755" flag="0"/>
      <psa03 value="0.0307755669" flag="0"/>
      <psa10 value="0.0027309990" flag="0"/>
      <psa30 value="0.0001898987" flag="0"/>
    </comp>
    <comp name="--.HNE">
      <acc value="0.1046454307" flag="0"/>
      <vel value="0.0256466027" flag="0"/>
      <psa03 value="0.0795119560" flag="0"/>
      <psa10 value="0.0063479050" flag="0"/>
      <psa30 value="0.0005983719" flag="0"/>
    </comp>
    <comp name="--.HNN">
      <acc value="0.0669275242" flag="0"/>
      <vel value="0.0148082535" flag="0"/>
      <psa03 value="0.0876888785" flag="0"/>
      <psa10 value="0.0051344188" flag="0"/>
      <psa30 value="0.0003492720" flag="0"/>
    </comp>
  </station>
  <station code="ARK1" name="ARK1" netid="HI" insttype="unknown" commtype="DIG" lat="35.1488" lon="25.2642">
    <comp name="--.HNN">
      <acc value="0.0310871564" flag="0"/>
      <vel value="0.0099524659" flag="0"/>
      <psa03 value="0.0596607081" flag="0"/>
      <psa10 value="0.0038085198" flag="0"/>
      <psa30 value="0.0002993667" flag="0"/>
    </comp>
    <comp name="--.HNE">
      <acc value="0.0352275270" flag="0"/>
      <vel value="0.0102264919" flag="0"/>
      <psa03 value="0.0502592679" flag="0"/>
      <psa10 value="0.0026328824" flag="0"/>
      <psa30 value="0.0002158303" flag="0"/>
    </comp>
    <comp name="--.HNZ">
      <acc value="0.0268729894" flag="0"/>
      <vel value="0.0062881150" flag="0"/>
      <psa03 value="0.0501715527" flag="0"/>
      <psa10 value="0.0028908617" flag="0"/>
      <psa30 value="0.0001645090" flag="0"/>
    </comp>
  </station>
  <station code="GOR1" name="GOR1" netid="HI" insttype="unknown" commtype="DIG" lat="35.0582" lon="24.9628">
    <comp name="--.HNE">
      <acc value="0.0113146684" flag="0"/>
      <vel value="0.0043135729" flag="0"/>
      <psa03 value="0.0214859368" flag="0"/>
      <psa10 value="0.0025523742" flag="0"/>
      <psa30 value="0.0001839023" flag="0"/>
    </comp>
    <comp name="--.HNN">
      <acc value="0.0091431987" flag="0"/>
      <vel value="0.0028118182" flag="0"/>
      <psa03 value="0.0214291717" flag="0"/>
      <psa10 value="0.0026734294" flag="0"/>
      <psa30 value="0.0001490724" flag="0"/>
    </comp>
    <comp name="--.HNZ">
      <acc value="0.0093774470" flag="0"/>
      <vel value="0.0026307148" flag="0"/>
      <psa03 value="0.0137532334" flag="0"/>
      <psa10 value="0.0012718248" flag="0"/>
      <psa30 value="0.0000874390" flag="0"/>
    </comp>
  </station>
  <station code="HER1" name="HER1" netid="HI" insttype="unknown" commtype="DIG" lat="35.3177" lon="25.1022">
    <comp name="--.HNE">
      <acc value="0.0442199276" flag="0"/>
      <vel value="0.0165115434" flag="0"/>
      <psa03 value="0.1113679021" flag="0"/>
      <psa10 value="0.0094187919" flag="0"/>
      <psa30 value="0.0004585080" flag="0"/>
    </comp>
    <comp name="--.HNN">
      <acc value="0.0387949266" flag="0"/>
      <vel value="0.0130794101" flag="0"/>
      <psa03 value="0.0709597403" flag="0"/>
      <psa10 value="0.0158030093" flag="0"/>
      <psa30 value="0.0006044074" flag="0"/>
    </comp>
    <comp name="--.HNZ">
      <acc value="0.0545998124" flag="0"/>
      <vel value="0.0181476408" flag="0"/>
      <psa03 value="0.0787315306" flag="0"/>
      <psa10 value="0.0095135600" flag="0"/>
      <psa30 value="0.0005423276" flag="0"/>
    </comp>
  </station>
  <station code="KSS1" name="KSS1" netid="HI" insttype="CMG-5TD,ACCELEROMETER,GURALP" commtype="DIG" lat="35.4189" lon="26.9207">
    <comp name="--.HNE">
      <acc value="0.0171682510" flag="0"/>
      <vel value="0.0045482488" flag="0"/>
      <psa03 value="0.0299328984" flag="0"/>
      <psa10 value="0.0017898929" flag="0"/>
      <psa30 value="0.0001165791" flag="0"/>
    </comp>
    <comp name="--.HNN">
      <acc value="0.0242251549" flag="0"/>
      <vel value="0.0063414825" flag="0"/>
      <psa03 value="0.0535444727" flag="0"/>
      <psa10 value="0.0018278238" flag="0"/>
      <psa30 value="0.0001452430" flag="0"/>
    </comp>
    <comp name="--.HNZ">
      <acc value="0.0156562819" flag="0"/>
      <vel value="0.0028621361" flag="0"/>
      <psa03 value="0.0107182566" flag="0"/>
      <psa10 value="0.0012166386" flag="0"/>
      <psa30 value="0.0000920973" flag="0"/>
    </comp>
  </station>
  <station code="KTL1" name="KTL1" netid="HI" insttype="unknown" commtype="DIG" lat="35.2078" lon="25.3427">
    <comp name="--.HNZ">
      <acc value="0.0278884004" flag="0"/>
      <vel value="0.0059976238" flag="0"/>
      <psa03 value="0.0261426258" flag="0"/>
      <psa10 value="0.0025705429" flag="0"/>
      <psa30 value="0.0001949799" flag="0"/>
    </comp>
    <comp name="--.HNE">
      <acc value="0.0495109634" flag="0"/>
      <vel value="0.0139754002" flag="0"/>
      <psa03 value="0.0955603020" flag="0"/>
      <psa10 value="0.0041050001" flag="0"/>
      <psa30 value="0.0003249523" flag="0"/>
    </comp>
    <comp name="--.HNN">
      <acc value="0.0597770882" flag="0"/>
      <vel value="0.0176583801" flag="0"/>
      <psa03 value="0.0857057674" flag="0"/>
      <psa10 value="0.0060248185" flag="0"/>
      <psa30 value="0.0003586893" flag="0"/>
    </comp>
  </station>
  <station code="SFR2" name="SFR2" netid="HI" insttype="unknown" commtype="DIG" lat="36.3998" lon="25.4382">
    <comp name="--.HNN">
      <acc value="0.0644074485" flag="0"/>
      <vel value="0.0147303221" flag="0"/>
      <psa03 value="0.0791764929" flag="0"/>
      <psa10 value="0.0053577642" flag="0"/>
      <psa30 value="0.0003527918" flag="0"/>
    </comp>
    <comp name="--.HNZ">
      <acc value="0.0695109140" flag="0"/>
      <vel value="0.0139546944" flag="0"/>
      <psa03 value="0.0669334416" flag="0"/>
      <psa10 value="0.0030878087" flag="0"/>
      <psa30 value="0.0003606413" flag="0"/>
    </comp>
    <comp name="--.HNE">
      <acc value="0.0678521616" flag="0"/>
      <vel value="0.0141997683" flag="0"/>
      <psa03 value="0.0855644856" flag="0"/>
      <psa10 value="0.0040648054" flag="0"/>
      <psa30 value="0.0004646383" flag="0"/>
    </comp>
  </station>
  <station code="ANAF" name="ANAF" netid="HL" insttype="LE3D20_SMART24" commtype="DIG" lat="36.3567" lon="25.7726">
    <comp name="--.HHE">
      <acc value="0.3769277264" flag="0"/>
      <vel value="0.0669737376" flag="0"/>
      <psa03 value="0.2788534406" flag="0"/>
      <psa10 value="0.0106098198" flag="0"/>
      <psa30 value="0.0009498839" flag="0"/>
    </comp>
    <comp name="--.HHN">
      <acc value="0.3229497826" flag="0"/>
      <vel value="0.0378115398" flag="0"/>
      <psa03 value="0.2110142086" flag="0"/>
      <psa10 value="0.0066347429" flag="0"/>
      <psa30 value="0.0006080570" flag="0"/>
    </comp>
    <comp name="--.HHZ">
      <acc value="0.3373878480" flag="0"/>
      <vel value="0.0572067986" flag="0"/>
      <psa03 value="0.0978724269" flag="0"/>
      <psa10 value="0.0061558136" flag="0"/>
      <psa30 value="0.0005017791" flag="0"/>
    </comp>
  </station>
  <station code="ASTA" name="ASTA" netid="HL" insttype="LE3D20_SMART24" commtype="DIG" lat="36.5475" lon="26.3471">
    <comp name="--.HHE">
      <acc value="0.0253751273" flag="0"/>
      <vel value="0.0042228886" flag="0"/>
      <psa03 value="0.0178475245" flag="0"/>
      <psa10 value="0.0016420485" flag="0"/>
      <psa30 value="0.0001035853" flag="0"/>
    </comp>
    <comp name="--.HHN">
      <acc value="0.0163556571" flag="0"/>
      <vel value="0.0029097396" flag="0"/>
      <psa03 value="0.0174760674" flag="0"/>
      <psa10 value="0.0013491618" flag="0"/>
      <psa30 value="0.0000940554" flag="0"/>
    </comp>
    <comp name="--.HHZ">
      <acc value="0.0152636434" flag="0"/>
      <vel value="0.0022214803" flag="0"/>
      <psa03 value="0.0143834959" flag="0"/>
      <psa10 value="0.0006371850" flag="0"/>
      <psa30 value="0.0000481855" flag="0"/>
    </comp>
  </station>
  <station code="IDI" name="IDI" netid="HL" insttype="120" commtype="DIG" lat="35.288" lon="24.89">
    <comp name="--.HHN">
      <acc value="0.0238763381" flag="0"/>
      <vel value="0.0043528436" flag="0"/>
      <psa03 value="0.0157205925" flag="0"/>
      <psa10 value="0.0013426296" flag="0"/>
      <psa30 value="0.0000884352" flag="0"/>
    </comp>
    <comp name="--.HHE">
      <acc value="0.0203579904" flag="0"/>
      <vel value="0.0045656620" flag="0"/>
      <psa03 value="0.0202019442" flag="0"/>
      <psa10 value="0.0019520623" flag="0"/>
      <psa30 value="0.0001470160" flag="0"/>
    </comp>
    <comp name="--.HHZ">
      <acc value="0.0182512587" flag="0"/>
      <vel value="0.0045282542" flag="0"/>
      <psa03 value="0.0156828207" flag="0"/>
      <psa10 value="0.0015517714" flag="0"/>
      <psa30 value="0.0000809185" flag="0"/>
    </comp>
  </station>
  <station code="NPS" name="NPS" netid="HL" insttype="CMG3ESPC-120s" commtype="DIG" lat="35.2613" lon="25.6104">
    <comp name="--.HHE">
      <acc value="0.0245132424" flag="0"/>
      <vel value="0.0060183779" flag="0"/>
      <psa03 value="0.0279118224" flag="0"/>
      <psa10 value="0.0018086842" flag="0"/>
      <psa30 value="0.0001615673" flag="0"/>
    </comp>
    <comp name="--.HHN">
      <acc value="0.0663598985" flag="0"/>
      <vel value="0.0130572495" flag="0"/>
      <psa03 value="0.0361692969" flag="0"/>
      <psa10 value="0.0026901818" flag="0"/>
      <psa30 value="0.0002519141" flag="0"/>
    </comp>
    <comp name="--.HHZ">
      <acc value="0.0752254228" flag="0"/>
      <vel value="0.0156146091" flag="0"/>
      <psa03 value="0.0410118682" flag="0"/>
      <psa10 value="0.0026014034" flag="0"/>
      <psa30 value="0.0002008430" flag="0"/>
    </comp>
  </station>
  <station code="SANT" name="SANT" netid="HL" insttype="30" commtype="DIG" lat="36.3705" lon="25.4593">
    <comp name="--.HHZ">
      <acc value="0.0612349363" flag="0"/>
      <vel value="0.0105397870" flag="0"/>
      <psa03 value="0.0321650634" flag="0"/>
      <psa10 value="0.0013510265" flag="0"/>
      <psa30 value="0.0002716353" flag="0"/>
    </comp>
    <comp name="--.HHN">
      <acc value="0.0590047862" flag="0"/>
      <vel value="0.0090927415" flag="0"/>
      <psa03 value="0.0371986319" flag="0"/>
      <psa10 value="0.0015993403" flag="0"/>
      <psa30 value="0.0001364756" flag="0"/>
    </comp>
    <comp name="--.HHE">
      <acc value="0.0842803678" flag="0"/>
      <vel value="0.0137510955" flag="0"/>
      <psa03 value="0.0894899382" flag="0"/>
      <psa10 value="0.0024332881" flag="0"/>
      <psa30 value="0.0002295150" flag="0"/>
    </comp>
  </station>
  <station code="SAP3" name="SAP3" netid="HL" insttype="65535" commtype="DIG" lat="36.4356" lon="25.3454">
    <comp name="--.HHZ">
      <acc value="0.0459376986" flag="0"/>
      <vel value="0.0089169473" flag="0"/>
      <psa03 value="0.0337303291" flag="0"/>
      <psa10 value="0.0013880739" flag="0"/>
      <psa30 value="0.0001573191" flag="0"/>
    </comp>
    <comp name="--.HHN">
      <acc value="0.0287214095" flag="0"/>
      <vel value="0.0078123263" flag="0"/>
      <psa03 value="0.0435854188" flag="0"/>
      <psa10 value="0.0020987906" flag="0"/>
      <psa30 value="0.0002556895" flag="0"/>
    </comp>
    <comp name="--.HHE">
      <acc value="0.0350135402" flag="0"/>
      <vel value="0.0089110513" flag="0"/>
      <psa03 value="0.0415096923" flag="0"/>
      <psa10 value="0.0026185559" flag="0"/>
      <psa30 value="0.0004663254" flag="0"/>
    </comp>
  </station>
  <station code="SIVA" name="SIVA" netid="HL" insttype="60" commtype="DIG" lat="35.0178" lon="24.812">
