<?xml version="1.0" encoding="UTF-8" standalone="yes"?>
<!DOCTYPE earthquake SYSTEM "stationlist.dtd">
<stationlist created="" xmlns="ch.ethz.sed.shakemap.usgs.xml">
  <station code="ADVT" name="ADVT" netid="KO" insttype="CMG-3ESP" commtype="DIG" lat="40.4332" lon="29.7383">
    <comp name="--.HHN">
      <acc value="0.0051676752" flag="0"/>
      <vel value="0.0032056068" flag="0"/>
      <psa03 value="0.0106992975" flag="0"/>
      <psa10 value="0.0027292067" flag="0"/>
      <psa30 value="0.0002342809" flag="0"/>
    </comp>
    <comp name="--.HHE">
      <acc value="0.0097189444" flag="0"/>
      <vel value="0.0060190550" flag="0"/>
      <psa03 value="0.0197164936" flag="0"/>
      <psa10 value="0.0043331434" flag="0"/>
      <psa30 value="0.0003117519" flag="0"/>
    </comp>
  </station>
  <station code="ARMT" name="ARMT" netid="KO" insttype="CMG-3ESP" commtype="DIG" lat="40.5683" lon="28.866">
    <comp name="--.HHZ">
      <acc value="0.0573299623" flag="0"/>
      <vel value="0.0067007460" flag="0"/>
      <psa03 value="0.0179603147" flag="0"/>
      <psa10 value="0.0011665726" flag="0"/>
      <psa30 value="0.0001549444" flag="0"/>
    </comp>
    <comp name="--.HHN">
      <acc value="0.0531360642" flag="0"/>
      <vel value="0.0132485401" flag="0"/>
      <psa03 value="0.0398986095" flag="0"/>
      <psa10 value="0.0032124536" flag="0"/>
      <psa30 value="0.0002909559" flag="0"/>
    </comp>
    <comp name="--.HHE">
      <acc value="0.0566962195" flag="0"/>
      <vel value="0.0126927674" flag="0"/>
      <psa03 value="0.0298329082" flag="0"/>
      <psa10 value="0.0037625551" flag="0"/>
      <psa30 value="0.0001994249" flag="0"/>
    </comp>
  </station>
  <station code="BGKT" name="BGKT" netid="KO" insttype="CMG-3ESP" commtype="DIG" lat="41.181" lon="28.773">
    <comp name="--.HHN">
      <acc value="0.1302512384" flag="0"/>
      <vel value="0.0135771984" flag="0"/>
      <psa03 value="0.0732745061" flag="0"/>
      <psa10 value="0.0063841999" flag="0"/>
      <psa30 value="0.0006037264" flag="0"/>
    </comp>
    <comp name="--.HHZ">
      <acc value="0.0463701867" flag="0"/>
      <vel value="0.0091732473" flag="0"/>
      <psa03 value="0.0432457511" flag="0"/>
      <psa10 value="0.0066312218" flag="0"/>
      <psa30 value="0.0002767295" flag="0"/>
    </comp>
    <comp name="--.HHE">
      <acc value="0.1690633715" flag="0"/>
      <vel value="0.0192062865" flag="0"/>
      <psa03 value="0.0849542153" flag="0"/>
      <psa10 value="0.0048922517" flag="0"/>
      <psa30 value="0.0003754561" flag="0"/>
    </comp>
  </station>
  <station code="BIGA" name="BIGA" netid="KO" insttype="CMG-5T" commtype="DIG" lat="40.2813" lon="27.1505">
    <comp name="--.HNZ">
      <acc value="0.0080890931" flag="0"/>
      <vel value="0.0018953899" flag="0"/>
      <psa03 value="0.0054175382" flag="0"/>
      <psa10 value="0.0009899317" flag="0"/>
      <psa30 value="0.0002330000" flag="0"/>
    </comp>
    <comp name="--.HNE">
      <acc value="0.0185682262" flag="0"/>
      <vel value="0.0062027110" flag="0"/>
      <psa03 value="0.0305037330" flag="0"/>
      <psa10 value="0.0017064503" flag="0"/>
      <psa30 value="0.0002603417" flag="0"/>
    </comp>
    <comp name="--.HNN">
      <acc value="0.0148147964" flag="0"/>
      <vel value="0.0047913060" flag="0"/>
      <psa03 value="0.0305030322" flag="0"/>
      <psa10 value="0.0021814361" flag="0"/>
      <psa30 value="0.0003467145" flag="0"/>
    </comp>
  </station>
  <station code="BOTS" name="BOTS" netid="KO" insttype="CMG-5T" commtype="DIG" lat="40.9902" lon="27.981">
    <comp name="--.HNE">
      <acc value="0.0341938381" flag="0"/>
      <vel value="0.0101900241" flag="0"/>
      <psa03 value="0.0582180653" flag="0"/>
      <psa10 value="0.0075430645" flag="0"/>
      <psa30 value="0.0003356479" flag="0"/>
    </comp>
    <comp name="--.HNN">
      <acc value="0.0368714287" flag="0"/>
      <vel value="0.0122263386" flag="0"/>
      <psa03 value="0.0637862265" flag="0"/>
      <psa10 value="0.0066376622" flag="0"/>
      <psa30 value="0.0005364104" flag="0"/>
    </comp>
    <comp name="--.HNZ">
      <acc value="0.0657013438" flag="0"/>
      <vel value="0.0101756538" flag="0"/>
      <psa03 value="0.0131282726" flag="0"/>
      <psa10 value="0.0019340982" flag="0"/>
      <psa30 value="0.0002319673" flag="0"/>
    </comp>
  </station>
  <station code="BRGA" name="BRGA" netid="KO" insttype="CMG-5T" commtype="DIG" lat="40.8846" lon="29.065">
    <comp name="--.HNE">
      <acc value="0.0358451383" flag="0"/>
      <vel value="0.0096272560" flag="0"/>
      <psa03 value="0.0264014331" flag="0"/>
      <psa10 value="0.0023373948" flag="0"/>
      <psa30 value="0.0002592924" flag="0"/>
    </comp>
    <comp name="--.HNN">
      <acc value="0.0391438425" flag="0"/>
      <vel value="0.0076398268" flag="0"/>
      <psa03 value="0.0350100862" flag="0"/>
      <psa10 value="0.0029874421" flag="0"/>
      <psa30 value="0.0004698432" flag="0"/>
    </comp>
    <comp name="--.HNZ">
      <acc value="0.0412273820" flag="0"/>
      <vel value="0.0056943396" flag="0"/>
      <psa03 value="0.0189236652" flag="0"/>
      <psa10 value="0.0015456780" flag="0"/>
      <psa30 value="0.0004670884" flag="0"/>
    </comp>
  </station>
  <station code="BUYA" name="BUYA" netid="KO" insttype="CMG-5T" commtype="DIG" lat="40.8694" lon="29.1278">
    <comp name="--.HNZ">
      <acc value="0.0330868195" flag="0"/>
      <vel value="0.0048589177" flag="0"/>
      <psa03 value="0.0202315407" flag="0"/>
      <psa10 value="0.0011991857" flag="0"/>
      <psa30 value="0.0001956387" flag="0"/>
    </comp>
  </station>
  <station code="BUYK" name="BUYK" netid="KO" insttype="ACEBOX" commtype="DIG" lat="41.0168" lon="28.5828">
    <comp name="--.HNN">
      <acc value="0.2486726679" flag="0"/>
      <vel value="0.0974610050" flag="0"/>
      <psa03 value="0.3072016450" flag="0"/>
      <psa10 value="0.0613049784" flag="0"/>
      <psa30 value="0.0034335830" flag="0"/>
    </comp>
  </station>
  <station code="CTYL" name="CTYL" netid="KO" insttype="CMG-3T" commtype="DIG" lat="41.476" lon="28.2897">
    <comp name="--.HHZ">
      <acc value="0.0410356084" flag="0"/>
      <vel value="0.0135760011" flag="0"/>
      <psa03 value="0.1023520093" flag="0"/>
      <psa10 value="0.0052238375" flag="0"/>
      <psa30 value="0.0003780996" flag="0"/>
    </comp>
    <comp name="--.HHE">
      <acc value="0.0430183308" flag="0"/>
      <vel value="0.0110642500" flag="0"/>
      <psa03 value="0.0923997142" flag="0"/>
      <psa10 value="0.0045632292" flag="0"/>
      <psa30 value="0.0004115605" flag="0"/>
    </comp>
  </station>
  <station code="EDC" name="EDC" netid="KO" insttype="CMG-3T" commtype="DIG" lat="40.3465" lon="27.8618">
    <comp name="--.HHE">
      <acc value="0.0206611431" flag="0"/>
      <vel value="0.0059522155" flag="0"/>
      <psa03 value="0.0341210530" flag="0"/>
      <psa10 value="0.0029481708" flag="0"/>
      <psa30 value="0.0002274942" flag="0"/>
    </comp>
    <comp name="--.HHN">
      <acc value="0.0196290708" flag="0"/>
      <vel value="0.0070095549" flag="0"/>
      <psa03 value="0.0318306767" flag="0"/>
      <psa10 value="0.0028552741" flag="0"/>
      <psa30 value="0.0002017987" flag="0"/>
    </comp>
    <comp name="--.HHZ">
      <acc value="0.0112617770" flag="0"/>
      <vel value="0.0022890030" flag="0"/>
      <psa03 value="0.0074035406" flag="0"/>
      <psa10 value="0.0013932486" flag="0"/>
      <psa30 value="0.0001323040" flag="0"/>
    </comp>
  </station>
  <station code="GAZK" name="GAZK" netid="KO" insttype="CMG-6T" commtype="DIG" lat="40.7479" lon="27.3275">
    <comp name="--.HHE">
      <acc value="0.0237720324" flag="0"/>
      <vel value="0.0059922294" flag="0"/>
      <psa03 value="0.0254574334" flag="0"/>
      <psa10 value="0.0019199887" flag="0"/>
      <psa30 value="0.0001863321" flag="0"/>
    </comp>
    <comp name="--.HHN">
      <acc value="0.0228134564" flag="0"/>
      <vel value="0.0060149064" flag="0"/>
      <psa03 value="0.0225269026" flag="0"/>
      <psa10 value="0.0025344380" flag="0"/>
      <psa30 value="0.0001275066" flag="0"/>
    </comp>
    <comp name="--.HHZ">
      <acc value="0.0103047342" flag="0"/>
      <vel value="0.0041930838" flag="0"/>
      <psa03 value="0.0205858962" flag="0"/>
      <psa10 value="0.0015993913" flag="0"/>
      <psa30 value="0.0001067914" flag="0"/>
    </comp>
  </station>
  <station code="GEML" name="GEML" netid="KO" insttype="CMG-3T" commtype="DIG" lat="40.4646" lon="29.2116">
    <comp name="--.HHE">
      <acc value="0.0527955244" flag="0"/>
      <vel value="0.0140390194" flag="0"/>
      <psa03 value="0.0369081083" flag="0"/>
      <psa10 value="0.0039114223" flag="0"/>
      <psa30 value="0.0002792695" flag="0"/>
    </comp>
    <comp name="--.HHN">
      <acc value="0.0562796905" flag="0"/>
      <vel value="0.0119547648" flag="0"/>
      <psa03 value="0.0594317588" flag="0"/>
      <psa10 value="0.0044191809" flag="0"/>
      <psa30 value="0.0002524677" flag="0"/>
    </comp>
    <comp name="--.HHZ">
      <acc value="0.0502877711" flag="0"/>
      <vel value="0.0087167952" flag="0"/>
      <psa03 value="0.0264773191" flag="0"/>
      <psa10 value="0.0029835955" flag="0"/>
      <psa30 value="0.0001318915" flag="0"/>
    </comp>
  </station>
  <station code="GONE" name="GONE" netid="KO" insttype="CMG-5T" commtype="DIG" lat="40.0466" lon="27.686">
    <comp name="--.HNE">
      <acc value="0.0087982331" flag="0"/>
      <vel value="0.0049002437" flag="0"/>
      <psa03 value="0.0243862980" flag="0"/>
      <psa10 value="0.0061480971" flag="0"/>
      <psa30 value="0.0003866038" flag="0"/>
    </comp>
    <comp name="--.HNN">
      <acc value="0.0129494411" flag="0"/>
      <vel value="0.0054402997" flag="0"/>
      <psa03 value="0.0209044204" flag="0"/>
      <psa10 value="0.0051049224" flag="0"/>
      <psa30 value="0.0002730293" flag="0"/>
    </comp>
    <comp name="--.HNZ">
      <acc value="0.0068319875" flag="0"/>
      <vel value="0.0023156981" flag="0"/>
      <psa03 value="0.0085408262" flag="0"/>
      <psa10 value="0.0029556661" flag="0"/>
      <psa30 value="0.0001261793" flag="0"/>
    </comp>
  </station>
  <station code="ISK" name="ISK" netid="KO" insttype="CMG-3T" commtype="DIG" lat="41.0615" lon="29.0592">
    <comp name="--.HHE">
      <acc value="0.0335989705" flag="0"/>
      <vel value="0.0048996948" flag="0"/>
      <psa03 value="0.0163405956" flag="0"/>
      <psa10 value="0.0009796748" flag="0"/>
      <psa30 value="0.0000774059" flag="0"/>
    </comp>
    <comp name="--.HHN">
      <acc value="0.0373446281" flag="0"/>
      <vel value="0.0064278605" flag="0"/>
      <psa03 value="0.0159855374" flag="0"/>
      <psa10 value="0.0027215570" flag="0"/>
      <psa30 value="0.0001323311" flag="0"/>
    </comp>
    <comp name="--.HHZ">
      <acc value="0.0243736975" flag="0"/>
      <vel value="0.0032562170" flag="0"/>
      <psa03 value="0.0084502011" flag="0"/>
      <psa10 value="0.0022615459" flag="0"/>
      <psa30 value="0.0001255110" flag="0"/>
    </comp>
  </station>
  <station code="IZI" name="IZI" netid="KO" insttype="CMG-5T" commtype="DIG" lat="40.3483" lon="29.4612">
    <comp name="--.HNE">
      <acc value="0.0145094528" flag="0"/>
      <vel value="0.0045413367" flag="0"/>
      <psa03 value="0.0206957018" flag="0"/>
      <psa10 value="0.0022769857" flag="0"/>
      <psa30 value="0.0004963050" flag="0"/>
    </comp>
    <comp name="--.HNN">
      <acc value="0.0129404543" flag="0"/>
      <vel value="0.0032099359" flag="0"/>
      <psa03 value="0.0145142343" flag="0"/>
      <psa10 value="0.0016937371" flag="0"/>
      <psa30 value="0.0003580738" flag="0"/>
    </comp>
    <comp name="--.HNZ">
      <acc value="0.0081746325" flag="0"/>
      <vel value="0.0024873557" flag="0"/>
      <psa03 value="0.0112189943" flag="0"/>
      <psa10 value="0.0014254812" flag="0"/>
      <psa30 value="0.0002954544" flag="0"/>
    </comp>
  </station>
  <station code="KAVV" name="KAVV" netid="KO" insttype="CMG-3ESPC" commtype="DIG" lat="41.0638" lon="29.06">
    <comp name="--.HHE">
      <acc value="0.0430495942" flag="0"/>
      <vel value="0.0076407544" flag="0"/>
      <psa03 value="0.0280366030" flag="0"/>
      <psa10 value="0.0012021536" flag="0"/>
      <psa30 value="0.0001242986" flag="0"/>
    </comp>
    <comp name="--.HHZ">
      <acc value="0.0441229569" flag="0"/>
      <vel value="0.0059553879" flag="0"/>
      <psa03 value="0.0130719095" flag="0"/>
      <psa10 value="0.0029148671" flag="0"/>
      <psa30 value="0.0001585223" flag="0"/>
    </comp>
    <comp name="--.HHN">
      <acc value="0.0643344263" flag="0"/>
      <vel value="0.0129085157" flag="0"/>
      <psa03 value="0.0396241869" flag="0"/>
      <psa10 value="0.0031562149" flag="0"/>
      <psa30 value="0.0001903918" flag="0"/>
    </comp>
  </station>
  <station code="KCTX" name="KCTX" netid="KO" insttype="CMG-3ESP" commtype="DIG" lat="40.2626" lon="28.3353">
    <comp name="--.HHE">
      <acc value="0.0207604931" flag="0"/>
      <vel value="0.0058694714" flag="0"/>
      <psa03 value="0.0263746026" flag="0"/>
      <psa10 value="0.0030371497" flag="0"/>
      <psa30 value="0.0002095238" flag="0"/>
    </comp>
    <comp name="--.HHN">
      <acc value="0.0150707766" flag="0"/>
      <vel value="0.0037912700" flag="0"/>
      <psa03 value="0.0282117423" flag="0"/>
      <psa10 value="0.0025621425" flag="0"/>
      <psa30 value="0.0001402037" flag="0"/>
    </comp>
    <comp name="--.HHZ">
      <acc value="0.0177726628" flag="0"/>
      <vel value="0.0061612421" flag="0"/>
      <psa03 value="0.0232740116" flag="0"/>
      <psa10 value="0.0025247485" flag="0"/>
      <psa30 value="0.0002658270" flag="0"/>
    </comp>
  </station>
  <station code="KRBG" name="KRBG" netid="KO" insttype="CMG-5T" commtype="DIG" lat="40.3932" lon="27.2977">
    <comp name="--.HNE">
      <acc value="0.0113518778" flag="0"/>
      <vel value="0.0044757049" flag="0"/>
      <psa03 value="0.0162861191" flag="0"/>
      <psa10 value="0.0026571020" flag="0"/>
      <psa30 value="0.0001744897" flag="0"/>
    </comp>
    <comp name="--.HNZ">
      <acc value="0.0063826044" flag="0"/>
      <vel value="0.0013087681" flag="0"/>
      <psa03 value="0.0065093831" flag="0"/>
      <psa10 value="0.0007452937" flag="0"/>
      <psa30 value="0.0000669029" flag="0"/>
    </comp>
    <comp name="--.HNN">
      <acc value="0.0119995605" flag="0"/>
      <vel value="0.0049311431" flag="0"/>
      <psa03 value="0.0347467827" flag="0"/>
      <psa10 value="0.0027766007" flag="0"/>
      <psa30 value="0.0001585769" flag="0"/>
    </comp>
  </station>
  <station code="KUMB" name="KUMB" netid="KO" insttype="CMG-5T" commtype="DIG" lat="40.8626" lon="27.4592">
    <comp name="--.HNN">
      <acc value="0.0170822059" flag="0"/>
      <vel value="0.0032249958" flag="0"/>
      <psa03 value="0.0083231414" flag="0"/>
      <psa10 value="0.0016484452" flag="0"/>
      <psa30 value="0.0003883455" flag="0"/>
    </comp>
    <comp name="--.HNE">
      <acc value="0.0200327221" flag="0"/>
      <vel value="0.0041463612" flag="0"/>
      <psa03 value="0.0113743668" flag="0"/>
      <psa10 value="0.0013805216" flag="0"/>
      <psa30 value="0.0004960300" flag="0"/>
    </comp>
    <comp name="--.HNZ">
      <acc value="0.0006032774" flag="0"/>
      <vel value="0.0005665738" flag="0"/>
      <psa03 value="0.0008966579" flag="0"/>
      <psa10 value="0.0007372174" flag="0"/>
      <psa30 value="0.0003915554" flag="0"/>
    </comp>
  </station>
  <station code="MDNY" name="MDNY" netid="KO" insttype="CMG-5T" commtype="DIG" lat="40.3709" lon="28.8846">
    <comp name="--.HNZ">
      <acc value="0.0213381709" flag="0"/>
      <vel value="0.0043012102" flag="0"/>
      <psa03 value="0.0116290421" flag="0"/>
      <psa10 value="0.0013293393" flag="0"/>
      <psa30 value="0.0001391451" flag="0"/>
    </comp>
    <comp name="--.HNN">
      <acc value="0.0311042775" flag="0"/>
      <vel value="0.0082210888" flag="0"/>
      <psa03 value="0.0504205409" flag="0"/>
      <psa10 value="0.0018036383" flag="0"/>
      <psa30 value="0.0001580834" flag="0"/>
    </comp>
    <comp name="--.HNE">
      <acc value="0.0490688710" flag="0"/>
      <vel value="0.0109758444" flag="0"/>
      <psa03 value="0.0467535425" flag="0"/>
      <psa10 value="0.0032443825" flag="0"/>
      <psa30 value="0.0001809221" flag="0"/>
    </comp>
  </station>
  <station code="MRMT" name="MRMT" netid="KO" insttype="CMG-3T" commtype="DIG" lat="40.609" lon="27.5832">
    <comp name="--.HHZ">
      <acc value="0.0000292533" flag="0"/>
      <vel value="0.0000028749" flag="0"/>
      <psa03 value="0.0000113102" flag="0"/>
      <psa10 value="0.0000022894" flag="0"/>
      <psa30 value="0.0000006684" flag="0"/>
    </comp>
    <comp name="--.HHN">
      <acc value="0.0000319141" flag="0"/>
      <vel value="0.0000033147" flag="0"/>
      <psa03 value="0.0000117691" flag="0"/>
      <psa10 value="0.0000034337" flag="0"/>
      <psa30 value="0.0000006877" flag="0"/>
    </comp>
    <comp name="--.HHE">
      <acc value="0.0140695180" flag="0"/>
      <vel value="0.0035029461" flag="0"/>
      <psa03 value="0.0123720190" flag="0"/>
      <psa10 value="0.0008590757" flag="0"/>
      <psa30 value="0.0000756068" flag="0"/>
    </comp>
  </station>
  <station code="ORLT" name="ORLT" netid="KO" insttype="CMG-5T" commtype="DIG" lat="40.0452" lon="28.8914">
    <comp name="--.HNE">
      <acc value="0.0211990832" flag="0"/>
      <vel value="0.0105212588" flag="0"/>
      <psa03 value="0.0871430168" flag="0"/>
      <psa10 value="0.0039989798" flag="0"/>
      <psa30 value="0.0003001821" flag="0"/>
    </comp>
    <comp name="--.HNN">
      <acc value="0.0182771978" flag="0"/>
      <vel value="0.0066675924" flag="0"/>
      <psa03 value="0.0467331941" flag="0"/>
      <psa10 value="0.0036001280" flag="0"/>
      <psa30 value="0.0004714725" flag="0"/>
    </comp>
    <comp name="--.HNZ">
      <acc value="0.0130623563" flag="0"/>
      <vel value="0.0048596093" flag="0"/>
      <psa03 value="0.0289727162" flag="0"/>
      <psa10 value="0.0015968558" flag="0"/>
      <psa30 value="0.0002459660" flag="0"/>
    </comp>
  </station>
  <station code="SILT" name="SILT" netid="KO" insttype="CMG-3ESP" commtype="DIG" lat="41.153" lon="29.643">
    <comp name="--.HHE">
      <acc value="0.0096658606" flag="0"/>
      <vel value="0.0037284889" flag="0"/>
      <psa03 value="0.0328973256" flag="0"/>
      <psa10 value="0.0014048941" flag="0"/>
      <psa30 value="0.0001763956" flag="0"/>
    </comp>
    <comp name="--.HHN">
      <acc value="0.0120933627" flag="0"/>
      <vel value="0.0071501286" flag="0"/>
      <psa03 value="0.0393676923" flag="0"/>
      <psa10 value="0.0043585858" flag="0"/>
      <psa30 value="0.0002853080" flag="0"/>
    </comp>
    <comp name="--.HHZ">
      <acc value="0.0165020025" flag="0"/>
      <vel value="0.0068514662" flag="0"/>
      <psa03 value="0.0557834479" flag="0"/>
      <psa10 value="0.0022445428" flag="0"/>
      <psa30 value="0.0001763401" flag="0"/>
    </comp>
  </station>
  <station code="SILV" name="SILV" netid="KO" insttype="ACEBOX" commtype="DIG" lat="41.0723" lon="28.239">
    <comp name="--.HNE">
      <acc value="0.1606186838" flag="0"/>
      <vel value="0.0395326779" flag="0"/>
      <psa03 value="0.1728280739" flag="0"/>
      <psa10 value="0.0149270220" flag="0"/>
      <psa30 value="0.0010685586" flag="0"/>
    </comp>
    <comp name="--.HNN">
      <acc value="0.0996767733" flag="0"/>
      <vel value="0.0442322274" flag="0"/>
      <psa03 value="0.1717794842" flag="0"/>
      <psa10 value="0.0247177311" flag="0"/>
      <psa30 value="0.0017654470" flag="0"/>
    </comp>
    <comp name="--.HNZ">
      <acc value="0.0917803029" flag="0"/>
      <vel value="0.0132478827" flag="0"/>
      <psa03 value="0.0590176157" flag="0"/>
