<?xml version="1.0" encoding="UTF-8" standalone="yes"?>
<!DOCTYPE earthquake SYSTEM "stationlist.dtd">
<stationlist created="" xmlns="ch.ethz.sed.shakemap.usgs.xml">
  <station code="ARMT" name="ARMT" netid="KO" insttype="CMG-3ESP" commtype="DIG" lat="40.5683" lon="28.866">
    <comp name="--.HHE">
      <acc value="0.0566962200" flag="0"/>
      <vel value="0.0126927679" flag="0"/>
      <psa03 value="0.0298329082" flag="0"/>
      <psa10 value="0.0037625563" flag="0"/>
      <psa30 value="0.0001993118" flag="0"/>
    </comp>
    <comp name="--.HHZ">
      <acc value="0.0573299630" flag="0"/>
      <vel value="0.0067007491" flag="0"/>
      <psa03 value="0.0179603147" flag="0"/>
      <psa10 value="0.0011665855" flag="0"/>
      <psa30 value="0.0001549716" flag="0"/>
    </comp>
    <comp name="--.HHN">
      <acc value="0.0531360638" flag="0"/>
      <vel value="0.0132485405" flag="0"/>
      <psa03 value="0.0398986095" flag="0"/>
      <psa10 value="0.0032124542" flag="0"/>
      <psa30 value="0.0002909913" flag="0"/>
    </comp>
  </station>
  <station code="AVCI" name="AVCI" netid="KO" insttype="CMG-5T" commtype="DIG" lat="40.9958" lon="28.7225">
    <comp name="--.HNE">
      <acc value="0.1240791215" flag="0"/>
      <vel value="0.0421091043" flag="0"/>
      <psa03 value="0.1544589407" flag="0"/>
      <psa10 value="0.0183378975" flag="0"/>
      <psa30 value="0.0012016882" flag="0"/>
    </comp>
    <comp name="--.HNZ">
      <acc value="0.1064005121" flag="0"/>
      <vel value="0.0180457552" flag="0"/>
      <psa03 value="0.0781857272" flag="0"/>
      <psa10 value="0.0088270903" flag="0"/>
      <psa30 value="0.0010174404" flag="0"/>
    </comp>
    <comp name="--.HNN">
      <acc value="0.0944033654" flag="0"/>
      <vel value="0.0252452070" flag="0"/>
      <psa03 value="0.0823949606" flag="0"/>
      <psa10 value="0.0205127593" flag="0"/>
      <psa30 value="0.0016118347" flag="0"/>
    </comp>
  </station>
  <station code="BGKT" name="BGKT" netid="KO" insttype="CMG-3ESP" commtype="DIG" lat="41.181" lon="28.773">
    <comp name="--.HHE">
      <acc value="0.1690633715" flag="0"/>
      <vel value="0.0192062847" flag="0"/>
      <psa03 value="0.0849542153" flag="0"/>
      <psa10 value="0.0048922510" flag="0"/>
      <psa30 value="0.0003753689" flag="0"/>
    </comp>
    <comp name="--.HHN">
      <acc value="0.1302512384" flag="0"/>
      <vel value="0.0135771984" flag="0"/>
      <psa03 value="0.0732745061" flag="0"/>
      <psa10 value="0.0063841982" flag="0"/>
      <psa30 value="0.0006036142" flag="0"/>
    </comp>
    <comp name="--.HHZ">
      <acc value="0.0463701867" flag="0"/>
      <vel value="0.0091732471" flag="0"/>
      <psa03 value="0.0432457511" flag="0"/>
      <psa10 value="0.0066312223" flag="0"/>
      <psa30 value="0.0002768892" flag="0"/>
    </comp>
  </station>
  <station code="BOTS" name="BOTS" netid="KO" insttype="CMG-5T" commtype="DIG" lat="40.9902" lon="27.981">
    <comp name="--.HNE">
      <acc value="0.0341938001" flag="0"/>
      <vel value="0.0101900332" flag="0"/>
      <psa03 value="0.0582180653" flag="0"/>
      <psa10 value="0.0075431017" flag="0"/>
      <psa30 value="0.0003371904" flag="0"/>
    </comp>
    <comp name="--.HNZ">
      <acc value="0.0657013628" flag="0"/>
      <vel value="0.0101756505" flag="0"/>
      <psa03 value="0.0131282726" flag="0"/>
      <psa10 value="0.0019340990" flag="0"/>
      <psa30 value="0.0002315380" flag="0"/>
    </comp>
    <comp name="--.HNN">
      <acc value="0.0368714116" flag="0"/>
      <vel value="0.0122263342" flag="0"/>
      <psa03 value="0.0637862265" flag="0"/>
      <psa10 value="0.0066376644" flag="0"/>
      <psa30 value="0.0005439379" flag="0"/>
    </comp>
  </station>
  <station code="BRGA" name="BRGA" netid="KO" insttype="CMG-5T" commtype="DIG" lat="40.8846" lon="29.065">
    <comp name="--.HNN">
      <acc value="0.0391438488" flag="0"/>
      <vel value="0.0076398117" flag="0"/>
      <psa03 value="0.0350100862" flag="0"/>
      <psa10 value="0.0029874404" flag="0"/>
      <psa30 value="0.0004703802" flag="0"/>
    </comp>
    <comp name="--.HNE">
      <acc value="0.0358451809" flag="0"/>
      <vel value="0.0096272368" flag="0"/>
      <psa03 value="0.0264014331" flag="0"/>
      <psa10 value="0.0023373878" flag="0"/>
      <psa30 value="0.0002592042" flag="0"/>
    </comp>
    <comp name="--.HNZ">
      <acc value="0.0412273479" flag="0"/>
      <vel value="0.0056943822" flag="0"/>
      <psa03 value="0.0189236652" flag="0"/>
      <psa10 value="0.0015456734" flag="0"/>
      <psa30 value="0.0004664844" flag="0"/>
    </comp>
  </station>
  <station code="BUYK" name="BUYK" netid="KO" insttype="ACEBOX" commtype="DIG" lat="41.0168" lon="28.5828">
    <comp name="--.HNZ">
      <acc value="0.1386934550" flag="0"/>
      <vel value="0.0375407735" flag="0"/>
      <psa03 value="0.1370332215" flag="0"/>
      <psa10 value="0.0395858691" flag="0"/>
      <psa30 value="0.0014368677" flag="0"/>
    </comp>
  </station>
  <station code="CTYL" name="CTYL" netid="KO" insttype="CMG-3T" commtype="DIG" lat="41.476" lon="28.2897">
    <comp name="--.HHE">
      <acc value="0.0430183304" flag="0"/>
      <vel value="0.0110642498" flag="0"/>
      <psa03 value="0.0923997142" flag="0"/>
      <psa10 value="0.0045632291" flag="0"/>
      <psa30 value="0.0004116939" flag="0"/>
    </comp>
    <comp name="--.HHZ">
      <acc value="0.0410356083" flag="0"/>
      <vel value="0.0135760012" flag="0"/>
      <psa03 value="0.1023520093" flag="0"/>
      <psa10 value="0.0052238376" flag="0"/>
      <psa30 value="0.0003779521" flag="0"/>
    </comp>
    <comp name="--.HHN">
      <acc value="0.0558698801" flag="0"/>
      <vel value="0.0247803323" flag="0"/>
      <psa03 value="0.1216291307" flag="0"/>
      <psa10 value="0.0062126624" flag="0"/>
      <psa30 value="0.0004376726" flag="0"/>
    </comp>
  </station>
  <station code="EDC" name="EDC" netid="KO" insttype="CMG-3T" commtype="DIG" lat="40.3465" lon="27.8618">
    <comp name="--.HHE">
      <acc value="0.0206611421" flag="0"/>
      <vel value="0.0059522152" flag="0"/>
      <psa03 value="0.0341210530" flag="0"/>
      <psa10 value="0.0029481717" flag="0"/>
      <psa30 value="0.0002272914" flag="0"/>
    </comp>
    <comp name="--.HHN">
      <acc value="0.0196290708" flag="0"/>
      <vel value="0.0070095548" flag="0"/>
      <psa03 value="0.0318306767" flag="0"/>
      <psa10 value="0.0028552753" flag="0"/>
      <psa30 value="0.0002018598" flag="0"/>
    </comp>
    <comp name="--.HHZ">
      <acc value="0.0112617763" flag="0"/>
      <vel value="0.0022890027" flag="0"/>
      <psa03 value="0.0074035406" flag="0"/>
      <psa10 value="0.0013932483" flag="0"/>
      <psa30 value="0.0001322099" flag="0"/>
    </comp>
  </station>
  <station code="GAZK" name="GAZK" netid="KO" insttype="CMG-6T" commtype="DIG" lat="40.7479" lon="27.3275">
    <comp name="--.HHE">
      <acc value="0.0237720950" flag="0"/>
      <vel value="0.0059922290" flag="0"/>
      <psa03 value="0.0254574334" flag="0"/>
      <psa10 value="0.0019199891" flag="0"/>
      <psa30 value="0.0001859473" flag="0"/>
    </comp>
    <comp name="--.HHN">
      <acc value="0.0228135184" flag="0"/>
      <vel value="0.0060149079" flag="0"/>
      <psa03 value="0.0225269026" flag="0"/>
      <psa10 value="0.0025344365" flag="0"/>
      <psa30 value="0.0001274118" flag="0"/>
    </comp>
    <comp name="--.HHZ">
      <acc value="0.0103047968" flag="0"/>
      <vel value="0.0041930879" flag="0"/>
      <psa03 value="0.0205858962" flag="0"/>
      <psa10 value="0.0015993902" flag="0"/>
      <psa30 value="0.0001063596" flag="0"/>
    </comp>
  </station>
  <station code="GEML" name="GEML" netid="KO" insttype="CMG-3T" commtype="DIG" lat="40.4646" lon="29.2116">
    <comp name="--.HHE">
      <acc value="0.0527955248" flag="0"/>
      <vel value="0.0140390186" flag="0"/>
      <psa03 value="0.0369081083" flag="0"/>
      <psa10 value="0.0039114222" flag="0"/>
      <psa30 value="0.0002792644" flag="0"/>
    </comp>
    <comp name="--.HHN">
      <acc value="0.0562796902" flag="0"/>
      <vel value="0.0119547648" flag="0"/>
      <psa03 value="0.0594317588" flag="0"/>
      <psa10 value="0.0044191806" flag="0"/>
      <psa30 value="0.0002523695" flag="0"/>
    </comp>
    <comp name="--.HHZ">
      <acc value="0.0502877710" flag="0"/>
      <vel value="0.0087167947" flag="0"/>
      <psa03 value="0.0264773191" flag="0"/>
      <psa10 value="0.0029835954" flag="0"/>
      <psa30 value="0.0001318146" flag="0"/>
    </comp>
  </station>
  <station code="ISK" name="ISK" netid="KO" insttype="CMG-3T" commtype="DIG" lat="41.0615" lon="29.0592">
    <comp name="--.HHE">
      <acc value="0.0335989710" flag="0"/>
      <vel value="0.0048996953" flag="0"/>
      <psa03 value="0.0163405956" flag="0"/>
      <psa10 value="0.0009796745" flag="0"/>
      <psa30 value="0.0000774158" flag="0"/>
    </comp>
    <comp name="--.HHN">
      <acc value="0.0373446280" flag="0"/>
      <vel value="0.0064278600" flag="0"/>
      <psa03 value="0.0159855374" flag="0"/>
      <psa10 value="0.0027215574" flag="0"/>
      <psa30 value="0.0001323061" flag="0"/>
    </comp>
    <comp name="--.HHZ">
      <acc value="0.0243736975" flag="0"/>
      <vel value="0.0032562167" flag="0"/>
      <psa03 value="0.0084502011" flag="0"/>
      <psa10 value="0.0022615463" flag="0"/>
      <psa30 value="0.0001253381" flag="0"/>
    </comp>
  </station>
  <station code="KAVV" name="KAVV" netid="KO" insttype="CMG-3ESPC" commtype="DIG" lat="41.0638" lon="29.06">
    <comp name="--.HHE">
      <acc value="0.0430495946" flag="0"/>
      <vel value="0.0076407550" flag="0"/>
      <psa03 value="0.0280366030" flag="0"/>
      <psa10 value="0.0012021539" flag="0"/>
      <psa30 value="0.0001242167" flag="0"/>
    </comp>
    <comp name="--.HHZ">
      <acc value="0.0441229578" flag="0"/>
      <vel value="0.0059553876" flag="0"/>
      <psa03 value="0.0130719095" flag="0"/>
      <psa10 value="0.0029148676" flag="0"/>
      <psa30 value="0.0001586725" flag="0"/>
    </comp>
    <comp name="--.HHN">
      <acc value="0.0643344261" flag="0"/>
      <vel value="0.0129085133" flag="0"/>
      <psa03 value="0.0396241869" flag="0"/>
      <psa10 value="0.0031562155" flag="0"/>
      <psa30 value="0.0001903887" flag="0"/>
    </comp>
  </station>
  <station code="KCTX" name="KCTX" netid="KO" insttype="CMG-3ESP" commtype="DIG" lat="40.2626" lon="28.3353">
    <comp name="--.HHN">
      <acc value="0.0150707763" flag="0"/>
      <vel value="0.0037912718" flag="0"/>
      <psa03 value="0.0282117423" flag="0"/>
      <psa10 value="0.0025621428" flag="0"/>
      <psa30 value="0.0001401913" flag="0"/>
    </comp>
    <comp name="--.HHE">
      <acc value="0.0207604935" flag="0"/>
      <vel value="0.0058694714" flag="0"/>
      <psa03 value="0.0263746026" flag="0"/>
      <psa10 value="0.0030371498" flag="0"/>
      <psa30 value="0.0002095651" flag="0"/>
    </comp>
    <comp name="--.HHZ">
      <acc value="0.0177726622" flag="0"/>
      <vel value="0.0061612423" flag="0"/>
      <psa03 value="0.0232740116" flag="0"/>
      <psa10 value="0.0025247491" flag="0"/>
      <psa30 value="0.0002658303" flag="0"/>
    </comp>
  </station>
  <station code="KUMB" name="KUMB" netid="KO" insttype="CMG-5T" commtype="DIG" lat="40.8626" lon="27.4592">
    <comp name="--.HNN">
      <acc value="0.0170802895" flag="0"/>
      <vel value="0.0032250311" flag="0"/>
      <psa03 value="0.0083231414" flag="0"/>
      <psa10 value="0.0016264414" flag="0"/>
      <psa30 value="0.0003889833" flag="0"/>
    </comp>
    <comp name="--.HNE">
      <acc value="0.0200322458" flag="0"/>
      <vel value="0.0041463757" flag="0"/>
      <psa03 value="0.0113743668" flag="0"/>
      <psa10 value="0.0013742855" flag="0"/>
      <psa30 value="0.0003519730" flag="0"/>
    </comp>
    <comp name="--.HNZ">
      <acc value="0.0006024637" flag="0"/>
      <vel value="0.0005665699" flag="0"/>
      <psa03 value="0.0008966578" flag="0"/>
      <psa10 value="0.0007371437" flag="0"/>
      <psa30 value="0.0003903602" flag="0"/>
    </comp>
  </station>
  <station code="MDNY" name="MDNY" netid="KO" insttype="CMG-3ESP" commtype="DIG" lat="40.3709" lon="28.8846">
    <comp name="--.HHZ">
      <acc value="0.0225702936" flag="0"/>
      <vel value="0.0045510640" flag="0"/>
      <psa03 value="0.0123055295" flag="0"/>
      <psa10 value="0.0013853439" flag="0"/>
      <psa30 value="0.0001285893" flag="0"/>
    </comp>
  </station>
  <station code="MRMT" name="MRMT" netid="KO" insttype="CMG-3T" commtype="DIG" lat="40.609" lon="27.5832">
    <comp name="--.HHE">
      <acc value="0.0140695187" flag="0"/>
      <vel value="0.0035029466" flag="0"/>
      <psa03 value="0.0123720190" flag="0"/>
      <psa10 value="0.0008590759" flag="0"/>
      <psa30 value="0.0000756509" flag="0"/>
    </comp>
    <comp name="--.HHN">
      <acc value="0.0000315268" flag="0"/>
      <vel value="0.0000031063" flag="0"/>
      <psa03 value="0.0000112072" flag="0"/>
      <psa10 value="0.0000034337" flag="0"/>
      <psa30 value="0.0000006858" flag="0"/>
    </comp>
    <comp name="--.HHZ">
      <acc value="0.0000292501" flag="0"/>
      <vel value="0.0000024574" flag="0"/>
      <psa03 value="0.0000113102" flag="0"/>
      <psa10 value="0.0000022676" flag="0"/>
      <psa30 value="0.0000004915" flag="0"/>
    </comp>
  </station>
  <station code="ORLT" name="ORLT" netid="KO" insttype="CMG-5T" commtype="DIG" lat="40.0452" lon="28.8914">
    <comp name="--.HNN">
      <acc value="0.0182771968" flag="0"/>
      <vel value="0.0066675996" flag="0"/>
      <psa03 value="0.0467331941" flag="0"/>
      <psa10 value="0.0036001279" flag="0"/>
      <psa30 value="0.0004642065" flag="0"/>
    </comp>
    <comp name="--.HNE">
      <acc value="0.0211990867" flag="0"/>
      <vel value="0.0105212617" flag="0"/>
      <psa03 value="0.0871430168" flag="0"/>
      <psa10 value="0.0039989781" flag="0"/>
      <psa30 value="0.0002977124" flag="0"/>
    </comp>
    <comp name="--.HNZ">
      <acc value="0.0130623561" flag="0"/>
      <vel value="0.0048596167" flag="0"/>
      <psa03 value="0.0289727162" flag="0"/>
      <psa10 value="0.0015966953" flag="0"/>
      <psa30 value="0.0002475994" flag="0"/>
    </comp>
  </station>
  <station code="SILV" name="SILV" netid="KO" insttype="ACEBOX" commtype="DIG" lat="41.0723" lon="28.239">
    <comp name="--.HNE">
      <acc value="0.1606186886" flag="0"/>
      <vel value="0.0395326811" flag="0"/>
      <psa03 value="0.1728280739" flag="0"/>
      <psa10 value="0.0149270196" flag="0"/>
      <psa30 value="0.0010694265" flag="0"/>
    </comp>
    <comp name="--.HNN">
      <acc value="0.0996767759" flag="0"/>
      <vel value="0.0442322240" flag="0"/>
      <psa03 value="0.1717794842" flag="0"/>
      <psa10 value="0.0247177296" flag="0"/>
      <psa30 value="0.0017640614" flag="0"/>
    </comp>
    <comp name="--.HNZ">
      <acc value="0.0917803125" flag="0"/>
      <vel value="0.0132478815" flag="0"/>
      <psa03 value="0.0590176157" flag="0"/>
      <psa10 value="0.0058547049" flag="0"/>
      <psa30 value="0.0005825770" flag="0"/>
    </comp>
  </station>
  <station code="SINB" name="SINB" netid="KO" insttype="CMG-5T" commtype="DIG" lat="40.9998" lon="28.5392">
    <comp name="--.HNZ">
      <acc value="0.3381487281" flag="0"/>
      <vel value="0.0507600983" flag="0"/>
      <psa03 value="0.1627831311" flag="0"/>
      <psa10 value="0.0179540841" flag="0"/>
      <psa30 value="0.0011374526" flag="0"/>
    </comp>
    <comp name="--.HNE">
      <acc value="0.6054031895" flag="0"/>
      <vel value="0.1331587232" flag="0"/>
      <psa03 value="0.5455391067" flag="0"/>
      <psa10 value="0.0509460239" flag="0"/>
      <psa30 value="0.0059237817" flag="0"/>
    </comp>
  </station>
  <station code="SLVT" name="SLVT" netid="KO" insttype="CMG-3ESP" commtype="DIG" lat="41.2288" lon="28.2098">
    <comp name="--.HHE">
      <acc value="0.0806342937" flag="0"/>
      <vel value="0.0284575583" flag="0"/>
      <psa03 value="0.1653843766" flag="0"/>
      <psa10 value="0.0114755400" flag="0"/>
      <psa30 value="0.0012252889" flag="0"/>
    </comp>
    <comp name="--.HHZ">
      <acc value="0.0540313283" flag="0"/>
      <vel value="0.0120620631" flag="0"/>
      <psa03 value="0.0786038694" flag="0"/>
      <psa10 value="0.0060711997" flag="0"/>
      <psa30 value="0.0007187100" flag="0"/>
    </comp>
    <comp name="--.HHN">
      <acc value="0.0686055500" flag="0"/>
      <vel value="0.0215302416" flag="0"/>
      <psa03 value="0.1009125310" flag="0"/>
      <psa10 value="0.0134391406" flag="0"/>
      <psa30 value="0.0017605906" flag="0"/>
    </comp>
  </station>
  <station code="TZLA" name="TZLA" netid="KO" insttype="ACEBOX" commtype="DIG" lat="40.8123" lon="29.2968">
    <comp name="--.HNE">
      <acc value="0.0152023307" flag="0"/>
      <vel value="0.0213537944" flag="0"/>
      <psa03 value="0.0197264840" flag="0"/>
      <psa10 value="0.0445816558" flag="0"/>
      <psa30 value="0.0088305225" flag="0"/>
    </comp>
    <comp name="--.HNN">
      <acc value="0.0133895220" flag="0"/>
      <vel value="0.0115740731" flag="0"/>
      <psa03 value="0.0264645689" flag="0"/>
      <psa10 value="0.0131836767" flag="0"/>
      <psa30 value="0.0015516280" flag="0"/>
    </comp>
    <comp name="--.HNZ">
      <acc value="0.0385215018" flag="0"/>
      <vel value="0.0050121450" flag="0"/>
      <psa03 value="0.0143199637" flag="0"/>
      <psa10 value="0.0013848129" flag="0"/>
      <psa30 value="0.0000965094" flag="0"/>
    </comp>
  </station>
  <station code="YKBL" name="YKBL" netid="KO" insttype="CMG-5T" commtype="DIG" lat="40.9908" lon="28.6678">
    <comp name="--.HNN">
      <acc value="0.0838783433" flag="0"/>
      <vel value="0.0496031909" flag="0"/>
      <psa03 value="0.1705917272" flag="0"/>
      <psa10 value="0.0327748876" flag="0"/>
      <psa30 value="0.0021575137" flag="0"/>
    </comp>
    <comp name="--.HNZ">
      <acc value="0.1262444433" flag="0"/>
      <vel value="0.0266486973" flag="0"/>
      <psa03 value="0.1035147197" flag="0"/>
      <psa10 value="0.0108666982" flag="0"/>
      <psa30 value="0.0008836584" flag="0"/>
    </comp>
    <comp name="--.HNE">
      <acc value="0.1345485091" flag="0"/>
      <vel value="0.0476161250" flag="0"/>
      <psa03 value="0.1674810863" flag="0"/>
      <psa10 value="0.0152677818" flag="0"/>
      <psa30 value="0.0014336762" flag="0"/>
    </comp>
  </station>
  <station code="YLV" name="YLV" netid="KO" insttype="CMG-3ESPC" commtype="DIG" lat="40.5658" lon="29.3708">
    <comp name="--.HHN">
      <acc value="0.0041589544" flag="0"/>
      <vel value="0.0006141440" flag="0"/>
      <psa03 value="0.0012243554" flag="0"/>
      <psa10 value="0.0000856379" flag="0"/>
      <psa30 value="0.0000107077" flag="0"/>
    </comp>
    <comp name="--.HHE">
      <acc value="0.0172549132" flag="0"/>
      <vel value="0.0049980815" flag="0"/>
      <psa03 value="0.0177256469" flag="0"/>
      <psa10 value="0.0049939351" flag="0"/>
      <psa30 value="0.0001682793" flag="0"/>
    </comp>
    <comp name="--.HHZ">
      <acc value="0.0094942514" flag="0"/>
      <vel value="0.0030037654" flag="0"/>
      <psa03 value="0.0112734257" flag="0"/>
      <psa10 value="0.0018673654" flag="0"/>
      <psa30 value="0.0001082624" flag="0"/>
    </comp>
  </station>
</stationlist>
