<stationlist created="1778136370">
	<station code="S2114" name="S2114" netid="S2" source="IceSMN Icelandic Strong Motion Network (IceSMN)" insttype="" lat="63.7515" lon="-20.2168">
		<comp name="00.HN1" depth="0.0">
			<acc value="0.0460594627235567" flag="0"/>
			<vel value="0.0280421449261185" flag="0"/>
			<psa03 value="0.158659197892987" flag="0"/>
			<psa10 value="0.0304676858346411" flag="0"/>
			<psa30 value="0.0191686664967638" flag="0"/>
		</comp>
		<comp name="00.HN2" depth="0.0">
			<acc value="0.0462124883690708" flag="0"/>
			<vel value="0.0225857474519302" flag="0"/>
			<psa03 value="0.117690890193916" flag="0"/>
			<psa10 value="0.0273544695993483" flag="0"/>
			<psa30 value="0.0129715376340486" flag="0"/>
		</comp>
		<comp name="00.HNZ" depth="0.0">
			<acc value="0.0216650669281634" flag="0"/>
			<vel value="0.0143951977929214" flag="0"/>
			<psa03 value="0.0490313470444837" flag="0"/>
			<psa10 value="0.0201474821718064" flag="0"/>
			<psa30 value="0.015783143889146" flag="0"/>
		</comp>
	</station>
	<station code="S2119" name="S2119" netid="S2" source="IceSMN Icelandic Strong Motion Network (IceSMN)" insttype="" lat="64.1301" lon="-20.32">
		<comp name="00.HN1" depth="0.0">
			<acc value="0.0203660393892029" flag="0"/>
			<vel value="0.0154522822656642" flag="0"/>
			<psa03 value="0.0684709733657687" flag="0"/>
			<psa10 value="0.0116350417018985" flag="0"/>
			<psa30 value="0.0120981089403624" flag="0"/>
		</comp>
		<comp name="00.HN2" depth="0.0">
			<acc value="0.0327026809665106" flag="0"/>
			<vel value="0.0225042813953342" flag="0"/>
			<psa03 value="0.0659263985502122" flag="0"/>
			<psa10 value="0.0169409635057011" flag="0"/>
			<psa30 value="0.0099236440594007" flag="0"/>
		</comp>
		<comp name="00.HNZ" depth="0.0">
			<acc value="0.0136368894788846" flag="0"/>
			<vel value="0.00853471306601935" flag="0"/>
			<psa03 value="0.0223046442398876" flag="0"/>
			<psa10 value="0.0103601569345482" flag="0"/>
			<psa30 value="0.00446973734816195" flag="0"/>
		</comp>
	</station>
	<station code="S2405" name="S2405" netid="S2" source="IceSMN Icelandic Strong Motion Network (IceSMN)" insttype="" lat="64.0447" lon="-21.9848">
		<comp name="00.HN1" depth="0.0">
			<acc value="0.332383644679722" flag="0"/>
			<vel value="0.151340601271515" flag="0"/>
			<psa03 value="0.61344538774484" flag="0"/>
			<psa10 value="0.140774320607711" flag="0"/>
			<psa30 value="0.0336443787749578" flag="0"/>
		</comp>
		<comp name="00.HN2" depth="0.0">
			<acc value="0.253663435923165" flag="0"/>
			<vel value="0.158704799503039" flag="0"/>
			<psa03 value="0.597380740207502" flag="0"/>
			<psa10 value="0.143833278248676" flag="0"/>
			<psa30 value="0.0449232792801226" flag="0"/>
		</comp>
		<comp name="00.HNZ" depth="0.0">
			<acc value="0.19111740074876" flag="0"/>
			<vel value="0.0640707053086697" flag="0"/>
			<psa03 value="0.246126158816864" flag="0"/>
			<psa10 value="0.0592495862442837" flag="0"/>
			<psa30 value="0.0228952483645273" flag="0"/>
		</comp>
	</station>
	<station code="S2602" name="S2602" netid="S2" source="IceSMN Icelandic Strong Motion Network (IceSMN)" insttype="" lat="63.8464" lon="-22.4268">
		<comp name="00.HN1" depth="0.0">
			<acc value="4.29656907702023" flag="0"/>
			<vel value="5.54674249061786" flag="0"/>
			<psa03 value="6.52724706477061" flag="0"/>
			<psa10 value="6.82380276343846" flag="0"/>
			<psa30 value="0.562536305267791" flag="0"/>
		</comp>
		<comp name="00.HN2" depth="0.0">
			<acc value="5.21988380708348" flag="0"/>
			<vel value="2.99323944603481" flag="0"/>
			<psa03 value="7.1721651207196" flag="0"/>
			<psa10 value="3.11949169101368" flag="0"/>
			<psa30 value="0.270259050002575" flag="0"/>
		</comp>
		<comp name="00.HNZ" depth="0.0">
			<acc value="3.80890105466857" flag="0"/>
			<vel value="1.08711759146002" flag="0"/>
			<psa03 value="4.37972746878214" flag="0"/>
			<psa10 value="1.59197086025457" flag="0"/>
			<psa30 value="0.0861730818772856" flag="0"/>
		</comp>
	</station>
	<station code="S2604" name="S2604" netid="S2" source="IceSMN Icelandic Strong Motion Network (IceSMN)" insttype="" lat="63.9843" lon="-21.6486">
		<comp name="00.HN1" depth="0.0">
			<acc value="0.0820352022785373" flag="0"/>
			<vel value="0.0920056570827905" flag="0"/>
			<psa03 value="0.271628473219887" flag="0"/>
			<psa10 value="0.110769422930664" flag="0"/>
			<psa30 value="0.0458326728563885" flag="0"/>
		</comp>
		<comp name="00.HN2" depth="0.0">
			<acc value="0.0892669360201215" flag="0"/>
			<vel value="0.0761226137554847" flag="0"/>
			<psa03 value="0.158137757100456" flag="0"/>
			<psa10 value="0.109917696507832" flag="0"/>
			<psa30 value="0.0345262538615597" flag="0"/>
		</comp>
		<comp name="00.HNZ" depth="0.0">
			<acc value="0.0923796487455419" flag="0"/>
			<vel value="0.0623248382314593" flag="0"/>
			<psa03 value="0.178809303572015" flag="0"/>
			<psa10 value="0.067328360173533" flag="0"/>
			<psa30 value="0.0437652792349773" flag="0"/>
		</comp>
	</station>
</stationlist>
