<?xml version="1.0" encoding="UTF-8" standalone="yes"?>
<!DOCTYPE earthquake SYSTEM "stationlist.dtd">
<stationlist created="" xmlns="ch.ethz.sed.shakemap.usgs.xml">
  <station code="ASB" name="ASB" netid="VI" source="ODC" insttype="STS-2.5" lat="64.7482" lon="-21.3254">
    <comp name="--.HHE">
      <acc value="0.0368188694" flag="0"/>
      <vel value="0.0221914999" flag="0"/>
      <psa03 value="0.0514917047" flag="0"/>
      <psa10 value="0.0292701499" flag="0"/>
      <psa30 value="0.0217980860" flag="0"/>
    </comp>
    <comp name="--.HHN">
      <acc value="0.0330319331" flag="0"/>
      <vel value="0.0199297676" flag="0"/>
      <psa03 value="0.0764719692" flag="0"/>
      <psa10 value="0.0262532072" flag="0"/>
      <psa30 value="0.0177912789" flag="0"/>
    </comp>
    <comp name="--.HHZ">
      <acc value="0.0277570945" flag="0"/>
      <vel value="0.0109075228" flag="0"/>
      <psa03 value="0.0551257396" flag="0"/>
      <psa10 value="0.0211241657" flag="0"/>
      <psa30 value="0.0037929731" flag="0"/>
    </comp>
  </station>
</stationlist>
