<?xml version="1.0" encoding="UTF-8" standalone="yes"?>
<!DOCTYPE earthquake SYSTEM "stationlist.dtd">
<stationlist created="" xmlns="ch.ethz.sed.shakemap.usgs.xml">
  <station code="CMRD" name="CMRD" netid="KO" insttype="CMG-5T" lat="37.6623" lon="34.9902">
    <comp name="--.HNE">
      <acc value="0.1573197702" flag="0"/>
      <vel value="0.0268029169" flag="0"/>
      <psa03 value="0.0561260697" flag="0"/>
      <psa10 value="0.0069795615" flag="0"/>
      <psa30 value="0.0009769642" flag="0"/>
    </comp>
    <comp name="--.HNN">
      <acc value="0.0974837292" flag="0"/>
      <vel value="0.0261938188" flag="0"/>
      <psa03 value="0.0874233240" flag="0"/>
      <psa10 value="0.0090002773" flag="0"/>
      <psa30 value="0.0007301570" flag="0"/>
    </comp>
    <comp name="--.HNZ">
      <acc value="0.1430323221" flag="0"/>
      <vel value="0.0266099819" flag="0"/>
      <psa03 value="0.0454315145" flag="0"/>
      <psa10 value="0.0148306172" flag="0"/>
      <psa30 value="0.0013226372" flag="0"/>
    </comp>
  </station>
  <station code="GULA" name="GULA" netid="KO" insttype="CMG-6T" lat="38.3444" lon="34.236">
    <comp name="--.HHE">
      <acc value="0.0120647198" flag="0"/>
      <vel value="0.0048473840" flag="0"/>
      <psa03 value="0.0273699583" flag="0"/>
      <psa10 value="0.0026513612" flag="0"/>
      <psa30 value="0.0002095083" flag="0"/>
    </comp>
    <comp name="--.HHN">
      <acc value="0.0197070762" flag="0"/>
      <vel value="0.0098352437" flag="0"/>
      <psa03 value="0.0324131679" flag="0"/>
      <psa10 value="0.0036150488" flag="0"/>
      <psa30 value="0.0002448021" flag="0"/>
    </comp>
    <comp name="--.HHZ">
      <acc value="0.0086921117" flag="0"/>
      <vel value="0.0030218821" flag="0"/>
      <psa03 value="0.0200018475" flag="0"/>
      <psa10 value="0.0016214824" flag="0"/>
      <psa30 value="0.0002506759" flag="0"/>
    </comp>
  </station>
  <station code="SARI" name="SARI" netid="KO" insttype="CMG-3T" lat="38.4072" lon="36.4181">
    <comp name="--.HHZ">
      <acc value="0.0095745593" flag="0"/>
      <vel value="0.0042556878" flag="0"/>
      <psa03 value="0.0174758438" flag="0"/>
      <psa10 value="0.0019823780" flag="0"/>
      <psa30 value="0.0002645562" flag="0"/>
    </comp>
    <comp name="--.HHN">
      <acc value="0.0118762127" flag="0"/>
      <vel value="0.0053836486" flag="0"/>
      <psa03 value="0.0278201812" flag="0"/>
      <psa10 value="0.0064972035" flag="0"/>
      <psa30 value="0.0002577070" flag="0"/>
    </comp>
  </station>
  <station code="ANDN" name="ANDN" netid="TU" insttype="T" lat="37.58" lon="36.3452">
    <comp name="--.HHN">
      <acc value="0.0140763075" flag="0"/>
      <vel value="0.0106033726" flag="0"/>
      <psa03 value="0.0392124684" flag="0"/>
      <psa10 value="0.0141747973" flag="0"/>
      <psa30 value="0.0006373973" flag="0"/>
    </comp>
    <comp name="--.HHZ">
      <acc value="0.0072632516" flag="0"/>
      <vel value="0.0061508926" flag="0"/>
      <psa03 value="0.0176331720" flag="0"/>
      <psa10 value="0.0112642882" flag="0"/>
      <psa30 value="0.0010620240" flag="0"/>
    </comp>
    <comp name="--.HHE">
      <acc value="0.0116145661" flag="0"/>
      <vel value="0.0101107969" flag="0"/>
      <psa03 value="0.0336323416" flag="0"/>
      <psa10 value="0.0150446023" flag="0"/>
      <psa30 value="0.0017235325" flag="0"/>
    </comp>
  </station>
</stationlist>
