<?xml version="1.0" encoding="UTF-8" standalone="yes"?>
<!DOCTYPE earthquake SYSTEM "stationlist.dtd">
<stationlist created="" xmlns="ch.ethz.sed.shakemap.usgs.xml">
  <station code="IMMV" name="IMMV" netid="GE" insttype="STS-2/N" lat="35.4606" lon="23.9811">
    <comp name="--.HHE">
      <acc value="0.1023200281" flag="0"/>
      <vel value="0.1252288924" flag="0"/>
      <psa03 value="0.2899493726" flag="0"/>
      <psa10 value="0.1265565751" flag="0"/>
      <psa30 value="0.0364401394" flag="0"/>
    </comp>
    <comp name="--.HHZ">
      <acc value="0.0646071111" flag="0"/>
      <vel value="0.0759376358" flag="0"/>
      <psa03 value="0.2266972747" flag="0"/>
      <psa10 value="0.0913868865" flag="0"/>
      <psa30 value="0.0175143354" flag="0"/>
    </comp>
    <comp name="--.HHN">
      <acc value="0.1147779951" flag="0"/>
      <vel value="0.1280452244" flag="0"/>
      <psa03 value="0.2591974023" flag="0"/>
      <psa10 value="0.1930604236" flag="0"/>
      <psa30 value="0.0371319612" flag="0"/>
    </comp>
  </station>
  <station code="IDI" name="IDI" netid="MN" insttype="" lat="35.288" lon="24.89">
    <comp name="--.HHZ">
      <acc value="0.0167702499" flag="0"/>
      <vel value="0.0217153943" flag="0"/>
      <psa03 value="0.0342269254" flag="0"/>
      <psa10 value="0.0310621472" flag="0"/>
      <psa30 value="0.0099308828" flag="0"/>
    </comp>
    <comp name="--.HHN">
      <acc value="0.0167348835" flag="0"/>
      <vel value="0.0284314290" flag="0"/>
      <psa03 value="0.0328147217" flag="0"/>
      <psa10 value="0.0377457082" flag="0"/>
      <psa30 value="0.0082683781" flag="0"/>
    </comp>
    <comp name="--.HHE">
      <acc value="0.0166322574" flag="0"/>
      <vel value="0.0242985306" flag="0"/>
      <psa03 value="0.0451436652" flag="0"/>
      <psa10 value="0.0235678188" flag="0"/>
      <psa30 value="0.0067607528" flag="0"/>
    </comp>
  </station>
</stationlist>
