<?xml version="1.0" encoding="UTF-8" standalone="yes"?>
<!DOCTYPE earthquake SYSTEM "stationlist.dtd">
<stationlist created="" xmlns="ch.ethz.sed.shakemap.usgs.xml">
  <station code="IMMV" name="IMMV" netid="GE" insttype="STS-2/N" lat="35.4606" lon="23.9811">
    <comp name="--.HHN">
      <acc value="0.1147779950" flag="0"/>
      <vel value="0.1280452251" flag="0"/>
      <psa03 value="0.2591974023" flag="0"/>
      <psa10 value="0.1930604236" flag="0"/>
      <psa30 value="0.0371319792" flag="0"/>
    </comp>
    <comp name="--.HHE">
      <acc value="0.1023200282" flag="0"/>
      <vel value="0.1252288923" flag="0"/>
      <psa03 value="0.2899493726" flag="0"/>
      <psa10 value="0.1265565751" flag="0"/>
      <psa30 value="0.0364401383" flag="0"/>
    </comp>
    <comp name="--.HHZ">
      <acc value="0.0646071110" flag="0"/>
      <vel value="0.0759376352" flag="0"/>
      <psa03 value="0.2266972747" flag="0"/>
      <psa10 value="0.0913868865" flag="0"/>
      <psa30 value="0.0175143345" flag="0"/>
    </comp>
  </station>
  <station code="ATEI" name="ATEI" netid="HC" insttype="DC" lat="35.5193" lon="24.0432">
    <comp name="--.HNE">
      <acc value="0.1055440203" flag="0"/>
      <vel value="0.1797790903" flag="0"/>
      <psa03 value="0.1546452181" flag="0"/>
      <psa10 value="0.2331301710" flag="0"/>
      <psa30 value="0.0495453568" flag="0"/>
    </comp>
    <comp name="--.HNN">
      <acc value="0.0875026424" flag="0"/>
      <vel value="0.1524732919" flag="0"/>
      <psa03 value="0.1643191359" flag="0"/>
      <psa10 value="0.1821995794" flag="0"/>
      <psa30 value="0.0355129476" flag="0"/>
    </comp>
    <comp name="--.HNZ">
      <acc value="0.0491251337" flag="0"/>
      <vel value="0.0666590120" flag="0"/>
      <psa03 value="0.1394209161" flag="0"/>
      <psa10 value="0.1030174208" flag="0"/>
      <psa30 value="0.0144813225" flag="0"/>
    </comp>
  </station>
  <station code="CHAN" name="CHAN" netid="HC" insttype="120" lat="35.5193" lon="24.0428">
    <comp name="--.HHZ">
      <acc value="0.0918892044" flag="0"/>
      <vel value="0.1274743660" flag="0"/>
      <psa03 value="0.2614550503" flag="0"/>
      <psa10 value="0.1962087498" flag="0"/>
      <psa30 value="0.0271502201" flag="0"/>
    </comp>
    <comp name="--.HHN">
      <acc value="0.1537243537" flag="0"/>
      <vel value="0.2886234476" flag="0"/>
      <psa03 value="0.2964144862" flag="0"/>
      <psa10 value="0.3212357327" flag="0"/>
      <psa30 value="0.0754440251" flag="0"/>
    </comp>
    <comp name="--.HHE">
      <acc value="0.2179169270" flag="0"/>
      <vel value="0.3480750629" flag="0"/>
      <psa03 value="0.3304372142" flag="0"/>
      <psa10 value="0.4738804216" flag="0"/>
      <psa30 value="0.0938181706" flag="0"/>
    </comp>
  </station>
  <station code="GVDS" name="GVDS" netid="HC" insttype="60" lat="34.8389" lon="24.0585">
    <comp name="--.HHE">
      <acc value="0.1285018805" flag="0"/>
      <vel value="0.0943795954" flag="0"/>
      <psa03 value="0.3467388438" flag="0"/>
      <psa10 value="0.0777373424" flag="0"/>
      <psa30 value="0.0142247671" flag="0"/>
    </comp>
    <comp name="--.HHN">
      <acc value="0.1945481066" flag="0"/>
      <vel value="0.0862413544" flag="0"/>
      <psa03 value="0.7991214732" flag="0"/>
      <psa10 value="0.1634034895" flag="0"/>
      <psa30 value="0.0261308660" flag="0"/>
    </comp>
    <comp name="--.HHZ">
      <acc value="0.0945419451" flag="0"/>
      <vel value="0.0754957122" flag="0"/>
      <psa03 value="0.2296116660" flag="0"/>
      <psa10 value="0.0653406320" flag="0"/>
      <psa30 value="0.0135110155" flag="0"/>
    </comp>
  </station>
  <station code="IMOD" name="IMOD" netid="HC" insttype="120" lat="34.9731" lon="24.7995">
    <comp name="--.HHE">
      <acc value="0.0440533477" flag="0"/>
      <vel value="0.0580375390" flag="0"/>
      <psa03 value="0.1224463640" flag="0"/>
      <psa10 value="0.1152871318" flag="0"/>
      <psa30 value="0.0090207032" flag="0"/>
    </comp>
    <comp name="--.HHN">
      <acc value="0.0564234894" flag="0"/>
      <vel value="0.0815823167" flag="0"/>
      <psa03 value="0.1228279868" flag="0"/>
      <psa10 value="0.0861875170" flag="0"/>
      <psa30 value="0.0218444128" flag="0"/>
    </comp>
    <comp name="--.HHZ">
      <acc value="0.0317065052" flag="0"/>
      <vel value="0.0377709669" flag="0"/>
      <psa03 value="0.0804653781" flag="0"/>
      <psa10 value="0.0396530396" flag="0"/>
      <psa30 value="0.0140401754" flag="0"/>
    </comp>
  </station>
  <station code="IPPL" name="IPPL" netid="HC" insttype="60" lat="35.3486" lon="24.4632">
    <comp name="--.HHE">
      <acc value="0.0000000000" flag="0"/>
      <vel value="-100.0000000000" flag="0"/>
      <psa03 value="0.0000000000" flag="0"/>
      <psa10 value="0.0000000000" flag="0"/>
      <psa30 value="0.0000000000" flag="0"/>
    </comp>
    <comp name="--.HHN">
      <acc value="0.0000000000" flag="0"/>
      <vel value="-100.0000000000" flag="0"/>
      <psa03 value="0.0000000000" flag="0"/>
      <psa10 value="0.0000000000" flag="0"/>
      <psa30 value="0.0000000000" flag="0"/>
    </comp>
    <comp name="--.HHZ">
      <acc value="0.0339483897" flag="0"/>
      <vel value="0.0434059170" flag="0"/>
      <psa03 value="0.0915228873" flag="0"/>
      <psa10 value="0.0625501987" flag="0"/>
      <psa30 value="0.0087793207" flag="0"/>
    </comp>
  </station>
  <station code="KNDR" name="KNDR" netid="HC" insttype="120" lat="35.2348" lon="23.6248">
    <comp name="--.HHN">
      <acc value="0.2904546177" flag="0"/>
      <vel value="0.2989248757" flag="0"/>
      <psa03 value="0.8793489338" flag="0"/>
      <psa10 value="0.8954680998" flag="0"/>
      <psa30 value="0.0626648006" flag="0"/>
    </comp>
    <comp name="--.HHE">
      <acc value="0.2688986492" flag="0"/>
      <vel value="0.3663620000" flag="0"/>
      <psa03 value="0.8463903617" flag="0"/>
      <psa10 value="0.4942021854" flag="0"/>
      <psa30 value="0.0724378947" flag="0"/>
    </comp>
    <comp name="--.HHZ">
      <acc value="0.1926877164" flag="0"/>
      <vel value="0.1590803616" flag="0"/>
      <psa03 value="0.5650720885" flag="0"/>
      <psa10 value="0.1469333931" flag="0"/>
      <psa30 value="0.0559445097" flag="0"/>
    </comp>
  </station>
  <station code="KNSS" name="KNSS" netid="HC" insttype="60" lat="35.3042" lon="25.1802">
    <comp name="--.HHZ">
      <acc value="0.0156361377" flag="0"/>
      <vel value="0.0266646375" flag="0"/>
      <psa03 value="0.0439364416" flag="0"/>
      <psa10 value="0.0278270503" flag="0"/>
      <psa30 value="0.0117961260" flag="0"/>
    </comp>
    <comp name="--.HHN">
      <acc value="0.0254872252" flag="0"/>
      <vel value="0.0380970975" flag="0"/>
      <psa03 value="0.0575182991" flag="0"/>
      <psa10 value="0.0548871401" flag="0"/>
      <psa30 value="0.0125082124" flag="0"/>
    </comp>
    <comp name="--.HHE">
      <acc value="0.0205605122" flag="0"/>
      <vel value="0.0311083490" flag="0"/>
      <psa03 value="0.0568423617" flag="0"/>
      <psa10 value="0.0488390642" flag="0"/>
      <psa30 value="0.0123213310" flag="0"/>
    </comp>
  </station>
  <station code="PASK" name="PASK" netid="HC" insttype="DC" lat="35.4996" lon="24.0121">
    <comp name="--.HNE">
      <acc value="0.1846378169" flag="0"/>
      <vel value="0.2324350369" flag="0"/>
      <psa03 value="0.4465974035" flag="0"/>
      <psa10 value="0.3389848848" flag="0"/>
      <psa30 value="0.0639523825" flag="0"/>
    </comp>
    <comp name="--.HNZ">
      <acc value="0.0960146839" flag="0"/>
      <vel value="0.1246615485" flag="0"/>
      <psa03 value="0.2982162479" flag="0"/>
      <psa10 value="0.1955768370" flag="0"/>
      <psa30 value="0.0294362245" flag="0"/>
    </comp>
    <comp name="--.HNN">
      <acc value="0.2238159839" flag="0"/>
      <vel value="0.2546029358" flag="0"/>
      <psa03 value="0.4260752384" flag="0"/>
      <psa10 value="0.3036178295" flag="0"/>
      <psa30 value="0.0562218919" flag="0"/>
    </comp>
  </station>
  <station code="TEFL" name="TEFL" netid="HC" insttype="GEOtiny," lat="35.0933" lon="25.1634">
    <comp name="--.HHE">
      <acc value="0.0322204885" flag="0"/>
      <vel value="0.0643522953" flag="0"/>
      <psa03 value="0.0772840771" flag="0"/>
      <psa10 value="0.0676665100" flag="0"/>
      <psa30 value="0.0211963502" flag="0"/>
    </comp>
    <comp name="--.HHZ">
      <acc value="0.0230792551" flag="0"/>
      <vel value="0.0316985942" flag="0"/>
      <psa03 value="0.0378306628" flag="0"/>
      <psa10 value="0.0534137290" flag="0"/>
      <psa30 value="0.0150535345" flag="0"/>
    </comp>
    <comp name="--.HHN">
      <acc value="0.0346160466" flag="0"/>
      <vel value="0.0552197744" flag="0"/>
      <psa03 value="0.0707812786" flag="0"/>
      <psa10 value="0.0917711444" flag="0"/>
      <psa30 value="0.0216871767" flag="0"/>
    </comp>
  </station>
  <station code="CH01" name="CH01" netid="HI" insttype="CMG-5TD,ACCELEROMETER,GURALP" lat="35.517" lon="24.0208">
    <comp name="--.HNE">
      <acc value="0.1344808266" flag="0"/>
      <vel value="0.1964737206" flag="0"/>
      <psa03 value="0.2240306297" flag="0"/>
      <psa10 value="0.3214803455" flag="0"/>
      <psa30 value="0.0624125637" flag="0"/>
    </comp>
    <comp name="--.HNN">
      <acc value="0.0978148727" flag="0"/>
      <vel value="0.1288627434" flag="0"/>
      <psa03 value="0.2583141011" flag="0"/>
      <psa10 value="0.2408149155" flag="0"/>
      <psa30 value="0.0418636199" flag="0"/>
    </comp>
    <comp name="--.HNZ">
      <acc value="0.1038688668" flag="0"/>
      <vel value="0.1406464174" flag="0"/>
      <psa03 value="0.1695387194" flag="0"/>
      <psa10 value="0.3131931185" flag="0"/>
      <psa30 value="0.0225753446" flag="0"/>
    </comp>
  </station>
  <station code="ANKY" name="ANKY" netid="HL" insttype="60" lat="35.867" lon="23.3012">
    <comp name="--.HHN">
      <acc value="0.0866295183" flag="0"/>
      <vel value="0.0825669088" flag="0"/>
      <psa03 value="0.1906210590" flag="0"/>
      <psa10 value="0.1411460933" flag="0"/>
      <psa30 value="0.0244159148" flag="0"/>
    </comp>
    <comp name="--.HHZ">
      <acc value="0.0490470919" flag="0"/>
      <vel value="0.1052184606" flag="0"/>
      <psa03 value="0.1483802683" flag="0"/>
      <psa10 value="0.1189522315" flag="0"/>
      <psa30 value="0.0403734899" flag="0"/>
    </comp>
    <comp name="--.HHE">
      <acc value="0.0866853742" flag="0"/>
      <vel value="0.1289670425" flag="0"/>
      <psa03 value="0.2101635306" flag="0"/>
      <psa10 value="0.1878750758" flag="0"/>
      <psa30 value="0.0299751259" flag="0"/>
    </comp>
  </station>
  <station code="IACM" name="IACM" netid="HL" insttype="120" lat="35.3058" lon="25.0709">
    <comp name="--.HHE">
      <acc value="0.1058749623" flag="0"/>
      <vel value="0.1668344181" flag="0"/>
      <psa03 value="0.2171952612" flag="0"/>
      <psa10 value="0.3621728165" flag="0"/>
      <psa30 value="0.0261341722" flag="0"/>
    </comp>
    <comp name="--.HHN">
      <acc value="0.1139615193" flag="0"/>
      <vel value="0.1978413168" flag="0"/>
      <psa03 value="0.2514797040" flag="0"/>
      <psa10 value="0.2810098439" flag="0"/>
      <psa30 value="0.0340986528" flag="0"/>
    </comp>
    <comp name="--.HHZ">
      <acc value="0.0607653274" flag="0"/>
      <vel value="0.0500155615" flag="0"/>
      <psa03 value="0.1246030126" flag="0"/>
      <psa10 value="0.1091567048" flag="0"/>
      <psa30 value="0.0090084939" flag="0"/>
    </comp>
  </station>
  <station code="IDI" name="IDI" netid="HL" insttype="120" lat="35.288" lon="24.89">
    <comp name="--.HHE">
      <acc value="0.0160058918" flag="0"/>
      <vel value="0.0245486138" flag="0"/>
      <psa03 value="0.0448500261" flag="0"/>
      <psa10 value="0.0237477381" flag="0"/>
      <psa30 value="0.0068385968" flag="0"/>
    </comp>
    <comp name="--.HHN">
      <acc value="0.0166881783" flag="0"/>
      <vel value="0.0286894430" flag="0"/>
      <psa03 value="0.0322391408" flag="0"/>
      <psa10 value="0.0380551761" flag="0"/>
      <psa30 value="0.0083717147" flag="0"/>
    </comp>
    <comp name="--.HHZ">
      <acc value="0.0168020594" flag="0"/>
      <vel value="0.0218885959" flag="0"/>
      <psa03 value="0.0339382933" flag="0"/>
      <psa10 value="0.0313526475" flag="0"/>
      <psa30 value="0.0100519050" flag="0"/>
    </comp>
  </station>
  <station code="IMMV" name="IMMV" netid="HL" insttype="120" lat="35.4606" lon="23.9811">
    <comp name="--.HHE">
      <acc value="0.1010294127" flag="0"/>
      <vel value="0.1244960967" flag="0"/>
      <psa03 value="0.2825566708" flag="0"/>
      <psa10 value="0.1256061714" flag="0"/>
      <psa30 value="0.0363997739" flag="0"/>
    </comp>
    <comp name="--.HHN">
      <acc value="0.1135075230" flag="0"/>
      <vel value="0.1275842743" flag="0"/>
      <psa03 value="0.2528070070" flag="0"/>
      <psa10 value="0.1920558594" flag="0"/>
      <psa30 value="0.0371143503" flag="0"/>
    </comp>
    <comp name="--.HHZ">
      <acc value="0.0635652124" flag="0"/>
      <vel value="0.0754917213" flag="0"/>
      <psa03 value="0.2204291366" flag="0"/>
      <psa10 value="0.0909420309" flag="0"/>
      <psa30 value="0.0175214878" flag="0"/>
    </comp>
  </station>
  <station code="KTHA" name="KTHA" netid="HL" insttype="120" lat="36.2566" lon="23.0621">
    <comp name="--.HHN">
      <acc value="0.0246625368" flag="0"/>
      <vel value="0.0422078442" flag="0"/>
      <psa03 value="0.0709465742" flag="0"/>
      <psa10 value="0.0553642081" flag="0"/>
      <psa30 value="0.0180812635" flag="0"/>
    </comp>
    <comp name="--.HHZ">
      <acc value="0.0200605577" flag="0"/>
      <vel value="0.0363782643" flag="0"/>
      <psa03 value="0.0505051904" flag="0"/>
      <psa10 value="0.0534485633" flag="0"/>
      <psa30 value="0.0144968016" flag="0"/>
    </comp>
    <comp name="--.HHE">
      <acc value="0.0536997725" flag="0"/>
      <vel value="0.1106483680" flag="0"/>
      <psa03 value="0.1029745329" flag="0"/>
      <psa10 value="0.1158111501" flag="0"/>
      <psa30 value="0.0339243689" flag="0"/>
    </comp>
  </station>
  <station code="SIVA" name="SIVA" netid="HL" insttype="60" lat="35.0178" lon="24.812">
    <comp name="--.HHN">
      <acc value="0.0532632165" flag="0"/>
      <vel value="0.0688187935" flag="0"/>
      <psa03 value="0.1116142858" flag="0"/>
      <psa10 value="0.1123113205" flag="0"/>
      <psa30 value="0.0165968946" flag="0"/>
    </comp>
    <comp name="--.HHE">
      <acc value="0.0786100084" flag="0"/>
      <vel value="0.0824722079" flag="0"/>
      <psa03 value="0.1880548210" flag="0"/>
      <psa10 value="0.1776456190" flag="0"/>
      <psa30 value="0.0171465155" flag="0"/>
    </comp>
    <comp name="--.HHZ">
      <acc value="0.0331404315" flag="0"/>
      <vel value="0.0416666517" flag="0"/>
      <psa03 value="0.0842591459" flag="0"/>
      <psa10 value="0.0495839380" flag="0"/>
      <psa30 value="0.0097514768" flag="0"/>
    </comp>
  </station>
  <station code="VAM" name="VAM" netid="HL" insttype="CMG3ESPC-120s" lat="35.407" lon="24.1997">
    <comp name="--.HHN">
      <acc value="0.1057985270" flag="0"/>
      <vel value="0.1342081921" flag="0"/>
      <psa03 value="0.2293376429" flag="0"/>
      <psa10 value="0.2277701851" flag="0"/>
      <psa30 value="0.0317503720" flag="0"/>
    </comp>
    <comp name="--.HHE">
      <acc value="0.0721540910" flag="0"/>
      <vel value="0.0944530639" flag="0"/>
      <psa03 value="0.1905327362" flag="0"/>
      <psa10 value="0.1375401936" flag="0"/>
      <psa30 value="0.0265755392" flag="0"/>
    </comp>
    <comp name="--.HHZ">
      <acc value="0.0473319715" flag="0"/>
      <vel value="0.0769606588" flag="0"/>
      <psa03 value="0.1778088451" flag="0"/>
      <psa10 value="0.1176543924" flag="0"/>
      <psa30 value="0.0166886915" flag="0"/>
    </comp>
  </station>
  <station code="IDI" name="IDI" netid="MN" insttype="" lat="35.288" lon="24.89">
    <comp name="--.HHE">
      <acc value="0.0166322574" flag="0"/>
      <vel value="0.0242985300" flag="0"/>
      <psa03 value="0.0451436652" flag="0"/>
      <psa10 value="0.0235678188" flag="0"/>
      <psa30 value="0.0067607535" flag="0"/>
    </comp>
    <comp name="--.HHZ">
      <acc value="0.0167702499" flag="0"/>
      <vel value="0.0217153947" flag="0"/>
      <psa03 value="0.0342269254" flag="0"/>
      <psa10 value="0.0310621472" flag="0"/>
      <psa30 value="0.0099308816" flag="0"/>
    </comp>
    <comp name="--.HHN">
      <acc value="0.0167348835" flag="0"/>
      <vel value="0.0284314298" flag="0"/>
      <psa03 value="0.0328147217" flag="0"/>
      <psa10 value="0.0377457082" flag="0"/>
      <psa30 value="0.0082683779" flag="0"/>
    </comp>
  </station>
</stationlist>
