<stationlist created="1721539909">
	<station code="ABEA" name="ABEA" netid="HC" source="Seismological Network of Crete (HC)" insttype="" lat="35.5163" lon="24.0113">
		<comp name=".HNE" depth="0.0">
			<acc value="0.0016312844205708" flag="0"/>
			<vel value="0.00183954394667" flag="0"/>
			<psa03 value="0.00113139282031672" flag="0"/>
			<psa10 value="0.000846514163348329" flag="0"/>
			<psa30 value="0.000782940615973341" flag="0"/>
		</comp>
		<comp name=".HNN" depth="0.0">
			<acc value="0.001047058305969" flag="0"/>
			<vel value="0.00183691943914" flag="0"/>
			<psa03 value="0.00132034625552104" flag="0"/>
			<psa10 value="0.000967749792267405" flag="0"/>
			<psa30 value="0.000722323162862379" flag="0"/>
		</comp>
		<comp name=".HNZ" depth="0.0">
			<acc value="0.0012323801240274" flag="0"/>
			<vel value="0.0017058291951" flag="0"/>
			<psa03 value="0.00100677982899009" flag="0"/>
			<psa10 value="0.000882326750596666" flag="0"/>
			<psa30 value="0.000575572243417597" flag="0"/>
		</comp>
	</station>
	<station code="ATEI" name="ATEI" netid="HC" source="Seismological Network of Crete (HC)" insttype="" lat="35.5193" lon="24.0432">
		<comp name=".HNE" depth="0.0">
			<acc value="0.1052442790701" flag="0"/>
			<vel value="0.181352955725" flag="0"/>
			<psa03 value="0.155058542700698" flag="0"/>
			<psa10 value="0.233479441867205" flag="0"/>
			<psa30 value="0.0497757107298729" flag="0"/>
		</comp>
		<comp name=".HNN" depth="0.0">
			<acc value="0.08786401043808" flag="0"/>
			<vel value="0.152185391652" flag="0"/>
			<psa03 value="0.165100395424036" flag="0"/>
			<psa10 value="0.182238147382941" flag="0"/>
			<psa30 value="0.0354739399744212" flag="0"/>
		</comp>
		<comp name=".HNZ" depth="0.0">
			<acc value="0.049330959375444" flag="0"/>
			<vel value="0.0688503932867" flag="0"/>
			<psa03 value="0.139212263795775" flag="0"/>
			<psa10 value="0.103157378670051" flag="0"/>
			<psa30 value="0.0142364897642529" flag="0"/>
		</comp>
	</station>
	<station code="G0LD" name="G0LD" netid="HC" source="Seismological Network of Crete (HC)" insttype="" lat="35.4955" lon="24.0306">
		<comp name=".HNE" depth="0.0">
			<acc value="0.0020749349999694" flag="0"/>
			<vel value="0.00452047868884" flag="0"/>
			<psa03 value="0.00227395548865044" flag="0"/>
			<psa10 value="0.00165560119889229" flag="0"/>
			<psa30 value="0.00132292409556275" flag="0"/>
		</comp>
		<comp name=".HNN" depth="0.0">
			<acc value="0.002189607289362" flag="0"/>
			<vel value="0.0040353977677" flag="0"/>
			<psa03 value="0.0014968364627575" flag="0"/>
			<psa10 value="0.0014387552714129" flag="0"/>
			<psa30 value="0.00124527551422298" flag="0"/>
		</comp>
		<comp name=".HNZ" depth="0.0">
			<acc value="0.0031067837541222" flag="0"/>
			<vel value="0.00559190762644" flag="0"/>
			<psa03 value="0.00232154571809145" flag="0"/>
			<psa10 value="0.0021241111806914" flag="0"/>
			<psa30 value="0.00245163886737531" flag="0"/>
		</comp>
	</station>
	<station code="LENT" name="LENT" netid="HC" source="Seismological Network of Crete (HC)" insttype="" lat="35.5074" lon="24.0402">
		<comp name=".HNE" depth="0.0">
			<acc value="0.0021661094265642" flag="0"/>
			<vel value="0.00254075066583" flag="0"/>
			<psa03 value="0.00106992585780553" flag="0"/>
			<psa10 value="0.000938857468137461" flag="0"/>
			<psa30 value="0.00090066403957064" flag="0"/>
		</comp>
		<comp name=".HNN" depth="0.0">
			<acc value="0.0013245379259922" flag="0"/>
			<vel value="0.00166155278211" flag="0"/>
			<psa03 value="0.0010642212155804" flag="0"/>
			<psa10 value="0.00123884042647514" flag="0"/>
			<psa30 value="0.000828840739963899" flag="0"/>
		</comp>
		<comp name=".HNZ" depth="0.0">
			<acc value="0.0024789302862714" flag="0"/>
			<vel value="0.00182184832419" flag="0"/>
			<psa03 value="0.00114194071958156" flag="0"/>
			<psa10 value="0.000791793702446299" flag="0"/>
			<psa30 value="0.000617375481429943" flag="0"/>
		</comp>
	</station>
	<station code="PASK" name="PASK" netid="HC" source="Seismological Network of Crete (HC)" insttype="" lat="35.4996" lon="24.0121">
		<comp name=".HNE" depth="0.0">
			<acc value="0.1832107721667" flag="0"/>
			<vel value="0.230348940823" flag="0"/>
			<psa03 value="0.446487827627345" flag="0"/>
			<psa10 value="0.33924786350616" flag="0"/>
			<psa30 value="0.0642187808457308" flag="0"/>
		</comp>
		<comp name=".HNN" depth="0.0">
			<acc value="0.22408920565932" flag="0"/>
			<vel value="0.256565817776" flag="0"/>
			<psa03 value="0.426949741658524" flag="0"/>
			<psa10 value="0.303670606687299" flag="0"/>
			<psa30 value="0.0564285781165602" flag="0"/>
		</comp>
		<comp name=".HNZ" depth="0.0">
			<acc value="0.095235335367" flag="0"/>
			<vel value="0.12350500987" flag="0"/>
			<psa03 value="0.296647880633015" flag="0"/>
			<psa10 value="0.19550552128119" flag="0"/>
			<psa30 value="0.0296939170762539" flag="0"/>
		</comp>
	</station>
	<station code="POLY" name="POLY" netid="HC" source="Seismological Network of Crete (HC)" insttype="" lat="35.5226" lon="24.0602">
		<comp name=".HNE" depth="0.0">
			<acc value="0.00092974899845064" flag="0"/>
			<vel value="0.00219280525281" flag="0"/>
			<psa03 value="0.00122677934753861" flag="0"/>
			<psa10 value="0.00115327053913734" flag="0"/>
			<psa30 value="0.000674834339878777" flag="0"/>
		</comp>
		<comp name=".HNN" depth="0.0">
			<acc value="0.0010796464349298" flag="0"/>
			<vel value="0.0034389900792" flag="0"/>
			<psa03 value="0.00154987415593365" flag="0"/>
			<psa10 value="0.00152021758195511" flag="0"/>
			<psa30 value="0.00106566913701893" flag="0"/>
		</comp>
		<comp name=".HNZ" depth="0.0">
			<acc value="0.0010645194378234" flag="0"/>
			<vel value="0.00198193220945" flag="0"/>
			<psa03 value="0.00132738090121997" flag="0"/>
			<psa10 value="0.00112169063462443" flag="0"/>
			<psa30 value="0.000516947057703672" flag="0"/>
		</comp>
	</station>
	<station code="AGN1" name="AGN1" netid="HI" source="ITSAK Strong Motion Network" insttype="" lat="35.1879" lon="25.7155">
		<comp name=".HNE" depth="0.0">
			<acc value="0.010809493448022" flag="0"/>
			<vel value="0.0207818691211" flag="0"/>
			<psa03 value="0.0264120387304586" flag="0"/>
			<psa10 value="0.0245345096658628" flag="0"/>
			<psa30 value="0.00955896656796484" flag="0"/>
		</comp>
		<comp name=".HNN" depth="0.0">
			<acc value="0.0098176145895234" flag="0"/>
			<vel value="0.0253551548284" flag="0"/>
			<psa03 value="0.0229627242927688" flag="0"/>
			<psa10 value="0.0285412582183" flag="0"/>
			<psa30 value="0.00906770735778982" flag="0"/>
		</comp>
		<comp name=".HNZ" depth="0.0">
			<acc value="0.008192944377894" flag="0"/>
			<vel value="0.0176022577626" flag="0"/>
			<psa03 value="0.0150395223362056" flag="0"/>
			<psa10 value="0.0224154711649596" flag="0"/>
			<psa30 value="0.0073848117075425" flag="0"/>
		</comp>
	</station>
	<station code="ARK1" name="ARK1" netid="HI" source="ITSAK Strong Motion Network" insttype="" lat="35.148777" lon="25.264194">
		<comp name=".HNE" depth="0.0">
			<acc value="0.033846901382388" flag="0"/>
			<vel value="0.0581916851571" flag="0"/>
			<psa03 value="0.0507617689680199" flag="0"/>
			<psa10 value="0.0576005007503339" flag="0"/>
			<psa30 value="0.0250072232724679" flag="0"/>
		</comp>
		<comp name=".HNN" depth="0.0">
			<acc value="0.02381960228418" flag="0"/>
			<vel value="0.0705066872607" flag="0"/>
			<psa03 value="0.0435113251200692" flag="0"/>
			<psa10 value="0.0885253268684954" flag="0"/>
			<psa30 value="0.0292409804047848" flag="0"/>
		</comp>
		<comp name=".HNZ" depth="0.0">
			<acc value="0.020483326924872" flag="0"/>
			<vel value="0.0404737369784" flag="0"/>
			<psa03 value="0.0403572281558217" flag="0"/>
			<psa10 value="0.0617283504501753" flag="0"/>
			<psa30 value="0.0175405086392724" flag="0"/>
		</comp>
	</station>
	<station code="ARS1" name="ARS1" netid="HI" source="ITSAK Strong Motion Network" insttype="" lat="37.6349" lon="22.7293">
		<comp name=".HNE" depth="0.0">
			<acc value="0.01189064123055" flag="0"/>
			<vel value="0.0196639507938" flag="0"/>
			<psa03 value="0.0259452890605797" flag="0"/>
			<psa10 value="0.0231620087444025" flag="0"/>
			<psa30 value="0.00947727948990211" flag="0"/>
		</comp>
		<comp name=".HNN" depth="0.0">
			<acc value="0.013285651495398" flag="0"/>
			<vel value="0.0232573918127" flag="0"/>
			<psa03 value="0.0316993421133629" flag="0"/>
			<psa10 value="0.0314276706789357" flag="0"/>
			<psa30 value="0.0144088795175618" flag="0"/>
		</comp>
		<comp name=".HNZ" depth="0.0">
			<acc value="0.0079539180318756" flag="0"/>
			<vel value="0.0138913565308" flag="0"/>
			<psa03 value="0.0250644728983409" flag="0"/>
			<psa10 value="0.0202214351958307" flag="0"/>
			<psa30 value="0.00795685126901266" flag="0"/>
		</comp>
	</station>
	<station code="CH01" name="CH01" netid="HI" source="ITSAK Strong Motion Network" insttype="" lat="35.517" lon="24.0208">
		<comp name=".HNE" depth="0.0">
			<acc value="0.13467759042618" flag="0"/>
			<vel value="0.196249278661" flag="0"/>
			<psa03 value="0.224682967477054" flag="0"/>
			<psa10 value="0.321077309795847" flag="0"/>
			<psa30 value="0.0624690716025469" flag="0"/>
		</comp>
		<comp name=".HNN" depth="0.0">
			<acc value="0.097992650669022" flag="0"/>
			<vel value="0.12848781398" flag="0"/>
			<psa03 value="0.256453592958788" flag="0"/>
			<psa10 value="0.241533550412386" flag="0"/>
			<psa30 value="0.0422284274260861" flag="0"/>
		</comp>
		<comp name=".HNZ" depth="0.0">
			<acc value="0.1035706066845" flag="0"/>
			<vel value="0.142714033416" flag="0"/>
			<psa03 value="0.172908641848904" flag="0"/>
			<psa10 value="0.313248951205486" flag="0"/>
			<psa30 value="0.0223104612918868" flag="0"/>
		</comp>
	</station>
	<station code="GOR1" name="GOR1" netid="HI" source="ITSAK Strong Motion Network" insttype="" lat="35.0582" lon="24.9628">
		<comp name=".HNE" depth="0.0">
			<acc value="0.048605777426442" flag="0"/>
			<vel value="0.0803259132619" flag="0"/>
			<psa03 value="0.0649006743512905" flag="0"/>
			<psa10 value="0.153934302391947" flag="0"/>
			<psa30 value="0.0324944759328926" flag="0"/>
		</comp>
		<comp name=".HNN" depth="0.0">
			<acc value="0.03720350155668" flag="0"/>
			<vel value="0.0840696928815" flag="0"/>
			<psa03 value="0.0484235880334951" flag="0"/>
			<psa10 value="0.0911683294542419" flag="0"/>
			<psa30 value="0.0316663610743593" flag="0"/>
		</comp>
		<comp name=".HNZ" depth="0.0">
			<acc value="0.022344106800894" flag="0"/>
			<vel value="0.0405215849013" flag="0"/>
			<psa03 value="0.0492794884825541" flag="0"/>
			<psa10 value="0.0610744121298939" flag="0"/>
			<psa30 value="0.0147847827526212" flag="0"/>
		</comp>
	</station>
	<station code="HER1" name="HER1" netid="HI" source="ITSAK Strong Motion Network" insttype="" lat="35.317672" lon="25.10217">
		<comp name=".HNE" depth="0.0">
			<acc value="0.13527311425296" flag="0"/>
			<vel value="0.271438235523" flag="0"/>
			<psa03 value="0.157117606186761" flag="0"/>
			<psa10 value="0.384956731494054" flag="0"/>
			<psa30 value="0.0432340873794474" flag="0"/>
		</comp>
		<comp name=".HNN" depth="0.0">
			<acc value="0.1216538278536" flag="0"/>
			<vel value="0.183917163604" flag="0"/>
			<psa03 value="0.169782351414311" flag="0"/>
			<psa10 value="0.400991113693414" flag="0"/>
			<psa30 value="0.0341028224779761" flag="0"/>
		</comp>
		<comp name=".HNZ" depth="0.0">
			<acc value="0.06089616855315" flag="0"/>
			<vel value="0.0704879256159" flag="0"/>
			<psa03 value="0.112074351459001" flag="0"/>
			<psa10 value="0.139686328533845" flag="0"/>
			<psa30 value="0.00981722034266577" flag="0"/>
		</comp>
	</station>
	<station code="HER3" name="HER3" netid="HI" source="ITSAK Strong Motion Network" insttype="" lat="35.3296" lon="25.1065">
		<comp name=".HNE" depth="0.0">
			<acc value="0.11251437778632" flag="0"/>
			<vel value="0.168270005116" flag="0"/>
			<psa03 value="0.144777997081706" flag="0"/>
			<psa10 value="0.39614672277631" flag="0"/>
			<psa30 value="0.027242528017137" flag="0"/>
		</comp>
		<comp name=".HNN" depth="0.0">
			<acc value="0.097995373150818" flag="0"/>
			<vel value="0.14375415009" flag="0"/>
			<psa03 value="0.159797950413098" flag="0"/>
			<psa10 value="0.255030604525984" flag="0"/>
			<psa30 value="0.0348274404803474" flag="0"/>
		</comp>
		<comp name=".HNZ" depth="0.0">
			<acc value="0.04083481610625" flag="0"/>
			<vel value="0.0485506178234" flag="0"/>
			<psa03 value="0.107680987503595" flag="0"/>
			<psa10 value="0.11671484178532" flag="0"/>
			<psa30 value="0.0111222017912792" flag="0"/>
		</comp>
	</station>
	<station code="KSS1" name="KSS1" netid="HI" source="ITSAK Strong Motion Network" insttype="" lat="35.4189" lon="26.9207">
		<comp name=".HNE" depth="0.0">
			<acc value="0.0048470141471208" flag="0"/>
			<vel value="0.00709633211934" flag="0"/>
			<psa03 value="0.0276760156918761" flag="0"/>
			<psa10 value="0.00541763701686869" flag="0"/>
			<psa30 value="0.00432691080326998" flag="0"/>
		</comp>
		<comp name=".HNN" depth="0.0">
			<acc value="0.005075915566608" flag="0"/>
			<vel value="0.00851383359402" flag="0"/>
			<psa03 value="0.0168964643599167" flag="0"/>
			<psa10 value="0.00678283573583629" flag="0"/>
			<psa30 value="0.00533459839097535" flag="0"/>
		</comp>
		<comp name=".HNZ" depth="0.0">
			<acc value="0.0047910091456674" flag="0"/>
			<vel value="0.00563253550605" flag="0"/>
			<psa03 value="0.00765999832273008" flag="0"/>
			<psa10 value="0.00448158625808492" flag="0"/>
			<psa30 value="0.00264520273169945" flag="0"/>
		</comp>
	</station>
	<station code="KTL1" name="KTL1" netid="HI" source="ITSAK Strong Motion Network" insttype="" lat="35.20778" lon="25.34272">
		<comp name=".HNE" depth="0.0">
			<acc value="0.021284365919934" flag="0"/>
			<vel value="0.0337645916181" flag="0"/>
			<psa03 value="0.0396032146644612" flag="0"/>
			<psa10 value="0.0403923507949968" flag="0"/>
			<psa30 value="0.00874922042625359" flag="0"/>
		</comp>
		<comp name=".HNN" depth="0.0">
			<acc value="0.02392298345088" flag="0"/>
			<vel value="0.04727552954" flag="0"/>
			<psa03 value="0.0464921684195791" flag="0"/>
			<psa10 value="0.0773547618733914" flag="0"/>
			<psa30 value="0.0123828411358038" flag="0"/>
		</comp>
		<comp name=".HNZ" depth="0.0">
			<acc value="0.01666827809169" flag="0"/>
			<vel value="0.0207028885804" flag="0"/>
			<psa03 value="0.0226134016726923" flag="0"/>
			<psa10 value="0.0296990555416927" flag="0"/>
			<psa30 value="0.00574658818325564" flag="0"/>
		</comp>
	</station>
	<station code="NAX1" name="NAX1" netid="HI" source="ITSAK Strong Motion Network" insttype="" lat="37.101394" lon="25.374103">
		<comp name=".HNE" depth="0.0">
			<acc value="0.0029122967476776" flag="0"/>
			<vel value="0.00727027054395" flag="0"/>
			<psa03 value="0.00536116699996867" flag="0"/>
			<psa10 value="0.00648572370986445" flag="0"/>
			<psa30 value="0.00381814793356311" flag="0"/>
		</comp>
		<comp name=".HNN" depth="0.0">
			<acc value="0.0039072032142708" flag="0"/>
			<vel value="0.00688255970804" flag="0"/>
			<psa03 value="0.00743660331556652" flag="0"/>
			<psa10 value="0.0101900344147754" flag="0"/>
			<psa30 value="0.00302607775446703" flag="0"/>
		</comp>
		<comp name=".HNZ" depth="0.0">
			<acc value="0.0036766683968634" flag="0"/>
			<vel value="0.00613656393068" flag="0"/>
			<psa03 value="0.00611392389764204" flag="0"/>
			<psa10 value="0.0063864719786871" flag="0"/>
			<psa30 value="0.00357590188595037" flag="0"/>
		</comp>
	</station>
	<station code="RTH1" name="RTH1" netid="HI" source="ITSAK Strong Motion Network" insttype="" lat="35.365393" lon="24.471773">
		<comp name=".HNE" depth="0.0">
			<acc value="0.046124276705766" flag="0"/>
			<vel value="0.0725416902513" flag="0"/>
			<psa03 value="0.124894440310271" flag="0"/>
			<psa10 value="0.0750377908854498" flag="0"/>
			<psa30 value="0.0237672161280768" flag="0"/>
		</comp>
		<comp name=".HNN" depth="0.0">
			<acc value="0.044786758705116" flag="0"/>
			<vel value="0.0517074951172" flag="0"/>
			<psa03 value="0.117878215103085" flag="0"/>
			<psa10 value="0.0478652758397573" flag="0"/>
			<psa30 value="0.0201369289727377" flag="0"/>
		</comp>
		<comp name=".HNZ" depth="0.0">
			<acc value="0.02373948896223" flag="0"/>
			<vel value="0.0405163338143" flag="0"/>
			<psa03 value="0.0563555405698008" flag="0"/>
			<psa10 value="0.0621309808727334" flag="0"/>
			<psa30 value="0.0122120014851469" flag="0"/>
		</comp>
	</station>
	<station code="ANKY" name="ANKY" netid="HL" source="National Observatory of Athens Seismic Network" insttype="" lat="35.86704" lon="23.30117">
		<comp name="00.HNE" depth="0.0">
			<acc value="0.092272286369652" flag="0"/>
			<vel value="0.137878689174" flag="0"/>
			<psa03 value="0.216185467059459" flag="0"/>
			<psa10 value="0.213952168281154" flag="0"/>
			<psa30 value="0.0312425930017783" flag="0"/>
		</comp>
		<comp name="00.HNN" depth="0.0">
			<acc value="0.089281905916914" flag="0"/>
			<vel value="0.0988688361843" flag="0"/>
			<psa03 value="0.2002858721228" flag="0"/>
			<psa10 value="0.168468660222033" flag="0"/>
			<psa30 value="0.0276927178399794" flag="0"/>
		</comp>
		<comp name="00.HNZ" depth="0.0">
			<acc value="0.048172767899766" flag="0"/>
			<vel value="0.105576439678" flag="0"/>
			<psa03 value="0.144551044547332" flag="0"/>
			<psa10 value="0.119198736331144" flag="0"/>
			<psa30 value="0.0399380356988702" flag="0"/>
		</comp>
	</station>
	<station code="IACM" name="IACM" netid="HL" source="National Observatory of Athens Seismic Network" insttype="" lat="35.3058" lon="25.0709">
		<comp name=".HNE" depth="0.0">
			<acc value="0.10305428070366" flag="0"/>
			<vel value="0.164196523115" flag="0"/>
			<psa03 value="0.206906727388605" flag="0"/>
			<psa10 value="0.368850404528994" flag="0"/>
			<psa30 value="0.0260150583699489" flag="0"/>
		</comp>
		<comp name=".HNN" depth="0.0">
			<acc value="0.11068780629606" flag="0"/>
			<vel value="0.202483721107" flag="0"/>
			<psa03 value="0.26054980181247" flag="0"/>
			<psa10 value="0.286933307923591" flag="0"/>
			<psa30 value="0.0351771569806548" flag="0"/>
		</comp>
		<comp name=".HNZ" depth="0.0">
			<acc value="0.061585063976346" flag="0"/>
			<vel value="0.0500358067119" flag="0"/>
			<psa03 value="0.125237358860374" flag="0"/>
			<psa10 value="0.10609906604247" flag="0"/>
			<psa30 value="0.00888735957726937" flag="0"/>
		</comp>
	</station>
	<station code="IMMV" name="IMMV" netid="HL" source="National Observatory of Athens Seismic Network" insttype="" lat="35.4606" lon="23.9811">
		<comp name=".HNE" depth="0.0">
			<acc value="0.098265804579042" flag="0"/>
			<vel value="0.122211778809" flag="0"/>
			<psa03 value="0.274925358288849" flag="0"/>
			<psa10 value="0.121456543399915" flag="0"/>
			<psa30 value="0.0356769167539852" flag="0"/>
		</comp>
		<comp name=".HNN" depth="0.0">
			<acc value="0.11129402476878" flag="0"/>
			<vel value="0.126420879918" flag="0"/>
			<psa03 value="0.24589760200951" flag="0"/>
			<psa10 value="0.187599277531439" flag="0"/>
			<psa30 value="0.0366414873187264" flag="0"/>
		</comp>
		<comp name=".HNZ" depth="0.0">
			<acc value="0.063386493573204" flag="0"/>
			<vel value="0.079304567978" flag="0"/>
			<psa03 value="0.220177689858131" flag="0"/>
			<psa10 value="0.0917698318010516" flag="0"/>
			<psa30 value="0.0174779511618051" flag="0"/>
		</comp>
	</station>
	<station code="KTHA" name="KTHA" netid="HL" source="National Observatory of Athens Seismic Network" insttype="" lat="36.2566" lon="23.0621">
		<comp name=".HNE" depth="0.0">
			<acc value="0.46383768237924" flag="0"/>
			<vel value="0.425603566509" flag="0"/>
			<psa03 value="0.790334022416273" flag="0"/>
			<psa10 value="0.6891967759053" flag="0"/>
			<psa30 value="0.0957467894217232" flag="0"/>
		</comp>
		<comp name=".HNN" depth="0.0">
			<acc value="0.2432794804716" flag="0"/>
			<vel value="0.21223625758" flag="0"/>
			<psa03 value="0.479897540855305" flag="0"/>
			<psa10 value="0.413497982212965" flag="0"/>
