<stationlist xmlns:esm="https://esm-db.eu/esmws/shakemap/1/" created="1784080606">
	<station code="ABEA" name="ABEA" netid="HC" source="Seismological Network of Crete (HC)" insttype="" lat="35.5163" lon="24.0113" esm:processing="manual (Paolucci et al 2011)" esm:quality="good">
		<comp name="--.HNE" depth="0.0">
			<acc value="0.108273942277226" flag="0"/>
			<vel value="0.161874003218145" flag="0"/>
			<psa03 value="0.28808595928095" flag="0"/>
			<psa10 value="0.244433872544437" flag="0"/>
			<psa30 value="0.0575492456884231" flag="0"/>
		</comp>
		<comp name="--.HNN" depth="0.0">
			<acc value="0.157280686843452" flag="0"/>
			<vel value="0.195388918235488" flag="0"/>
			<psa03 value="0.38522785278798" flag="0"/>
			<psa10 value="0.246626612802717" flag="0"/>
			<psa30 value="0.052854338007164" flag="0"/>
		</comp>
		<comp name="--.HNZ" depth="0.0">
			<acc value="0.102635493920196" flag="0"/>
			<vel value="0.114923277680212" flag="0"/>
			<psa03 value="0.217122695813015" flag="0"/>
			<psa10 value="0.216623125218915" flag="0"/>
			<psa30 value="0.0224365246429782" flag="0"/>
		</comp>
	</station>
	<station code="ATEI" name="ATEI" netid="HC" source="Seismological Network of Crete (HC)" insttype="" lat="35.5193" lon="24.0432" esm:processing="automatic (Paolucci et al 2011)" esm:quality="best">
		<comp name="--.HNE" depth="0.0">
			<acc value="0.105284944611783" flag="0"/>
			<vel value="0.180995900230949" flag="0"/>
			<psa03 value="0.155058542700698" flag="0"/>
			<psa10 value="0.233479441867205" flag="0"/>
			<psa30 value="0.0497757107298729" flag="0"/>
		</comp>
		<comp name="--.HNN" depth="0.0">
			<acc value="0.0880375600851074" flag="0"/>
			<vel value="0.152841114330022" flag="0"/>
			<psa03 value="0.165100395424036" flag="0"/>
			<psa10 value="0.182238147382941" flag="0"/>
			<psa30 value="0.0354739399744212" flag="0"/>
		</comp>
		<comp name="--.HNZ" depth="0.0">
			<acc value="0.0490802687783866" flag="0"/>
			<vel value="0.0698516962411803" flag="0"/>
			<psa03 value="0.139212263795775" flag="0"/>
			<psa10 value="0.103157378670051" flag="0"/>
			<psa30 value="0.0142364897642529" flag="0"/>
		</comp>
	</station>
	<station code="G0LD" name="G0LD" netid="HC" source="Seismological Network of Crete (HC)" insttype="" lat="35.4955" lon="24.0306" esm:processing="manual (Paolucci et al 2011)" esm:quality="good">
		<comp name="--.HNE" depth="0.0">
			<acc value="0.265996385041158" flag="0"/>
			<vel value="0.5095121354894" flag="0"/>
			<psa03 value="0.642567275261763" flag="0"/>
			<psa10 value="0.781409984576517" flag="0"/>
			<psa30 value="0.0899273105763186" flag="0"/>
		</comp>
		<comp name="--.HNN" depth="0.0">
			<acc value="0.330422921130353" flag="0"/>
			<vel value="0.459967587454131" flag="0"/>
			<psa03 value="0.461955810638627" flag="0"/>
			<psa10 value="0.875474735904646" flag="0"/>
			<psa30 value="0.089824443761897" flag="0"/>
		</comp>
		<comp name="--.HNZ" depth="0.0">
			<acc value="0.191460676550579" flag="0"/>
			<vel value="0.238080069188598" flag="0"/>
			<psa03 value="0.463514955590994" flag="0"/>
			<psa10 value="0.631456090866994" flag="0"/>
			<psa30 value="0.0208474043715592" flag="0"/>
		</comp>
	</station>
	<station code="LENT" name="LENT" netid="HC" source="Seismological Network of Crete (HC)" insttype="" lat="35.5074" lon="24.0402" esm:processing="manual (Paolucci et al 2011)" esm:quality="good">
		<comp name="--.HNE" depth="0.0">
			<acc value="0.144448871041689" flag="0"/>
			<vel value="0.179235948984816" flag="0"/>
			<psa03 value="0.257274689018842" flag="0"/>
			<psa10 value="0.314375645843661" flag="0"/>
			<psa30 value="0.042759382599245" flag="0"/>
		</comp>
		<comp name="--.HNN" depth="0.0">
			<acc value="0.117651576489057" flag="0"/>
			<vel value="0.155531330616466" flag="0"/>
			<psa03 value="0.215933762885377" flag="0"/>
			<psa10 value="0.232263941346222" flag="0"/>
			<psa30 value="0.0299518274949089" flag="0"/>
		</comp>
		<comp name="--.HNZ" depth="0.0">
			<acc value="0.0623873882476629" flag="0"/>
			<vel value="0.0896919013365588" flag="0"/>
			<psa03 value="0.311056168444575" flag="0"/>
			<psa10 value="0.147862350155027" flag="0"/>
			<psa30 value="0.0133032271068403" flag="0"/>
		</comp>
	</station>
	<station code="PASK" name="PASK" netid="HC" source="Seismological Network of Crete (HC)" insttype="" lat="35.4996" lon="24.0121" esm:processing="automatic (Paolucci et al 2011)" esm:quality="best">
		<comp name="--.HNE" depth="0.0">
			<acc value="0.183293861436015" flag="0"/>
			<vel value="0.229829958781483" flag="0"/>
			<psa03 value="0.446487827627345" flag="0"/>
			<psa10 value="0.33924786350616" flag="0"/>
			<psa30 value="0.0642187808457308" flag="0"/>
		</comp>
		<comp name="--.HNN" depth="0.0">
			<acc value="0.224112556736974" flag="0"/>
			<vel value="0.257543708961122" flag="0"/>
			<psa03 value="0.426949741658524" flag="0"/>
			<psa10 value="0.303670606687299" flag="0"/>
			<psa30 value="0.0564285781165602" flag="0"/>
		</comp>
		<comp name="--.HNZ" depth="0.0">
			<acc value="0.094966216791794" flag="0"/>
			<vel value="0.123727206699741" flag="0"/>
			<psa03 value="0.296647880633015" flag="0"/>
			<psa10 value="0.19550552128119" flag="0"/>
			<psa30 value="0.0296939170762539" flag="0"/>
		</comp>
	</station>
	<station code="POLY" name="POLY" netid="HC" source="Seismological Network of Crete (HC)" insttype="" lat="35.5226" lon="24.0602" esm:processing="manual (Paolucci et al 2011)" esm:quality="good">
		<comp name="--.HNE" depth="0.0">
			<acc value="0.0873378072926123" flag="0"/>
			<vel value="0.153860184082829" flag="0"/>
			<psa03 value="0.143066904563625" flag="0"/>
			<psa10 value="0.227889501561055" flag="0"/>
			<psa30 value="0.0388682514975729" flag="0"/>
		</comp>
		<comp name="--.HNN" depth="0.0">
			<acc value="0.102073027016641" flag="0"/>
			<vel value="0.13607207778721" flag="0"/>
			<psa03 value="0.287542256596649" flag="0"/>
			<psa10 value="0.197898149781189" flag="0"/>
			<psa30 value="0.0290160655052696" flag="0"/>
		</comp>
		<comp name="--.HNZ" depth="0.0">
			<acc value="0.0473411753890547" flag="0"/>
			<vel value="0.0610930782001909" flag="0"/>
			<psa03 value="0.132664017506745" flag="0"/>
			<psa10 value="0.127455658311843" flag="0"/>
			<psa30 value="0.0146591927662438" flag="0"/>
		</comp>
	</station>
	<station code="AGN1" name="AGN1" netid="HI" source="ITSAK Strong Motion Network" insttype="" lat="35.1879" lon="25.7155" esm:processing="manual (Paolucci et al 2011)" esm:quality="good">
		<comp name="--.HNE" depth="0.0">
			<acc value="0.0107623522754263" flag="0"/>
			<vel value="0.0208296488760173" flag="0"/>
			<psa03 value="0.0261933992466496" flag="0"/>
			<psa10 value="0.0245382674147887" flag="0"/>
			<psa30 value="0.00958117303902521" flag="0"/>
		</comp>
		<comp name="--.HNN" depth="0.0">
			<acc value="0.00936506090344735" flag="0"/>
			<vel value="0.0254109078777384" flag="0"/>
			<psa03 value="0.0227050587862139" flag="0"/>
			<psa10 value="0.0285517626641517" flag="0"/>
			<psa30 value="0.00908507934191914" flag="0"/>
		</comp>
		<comp name="--.HNZ" depth="0.0">
			<acc value="0.00681565112777838" flag="0"/>
			<vel value="0.0175866283903554" flag="0"/>
			<psa03 value="0.0149181679429116" flag="0"/>
			<psa10 value="0.0224218653385379" flag="0"/>
			<psa30 value="0.00739926683178055" flag="0"/>
		</comp>
	</station>
	<station code="ARK1" name="ARK1" netid="HI" source="ITSAK Strong Motion Network" insttype="" lat="35.148777" lon="25.264194" esm:processing="automatic (Paolucci et al 2011)" esm:quality="best">
		<comp name="--.HNE" depth="0.0">
			<acc value="0.0339352400271803" flag="0"/>
			<vel value="0.0582003117735951" flag="0"/>
			<psa03 value="0.0507617689680199" flag="0"/>
			<psa10 value="0.0576005007503339" flag="0"/>
			<psa30 value="0.0250072232724679" flag="0"/>
		</comp>
		<comp name="--.HNN" depth="0.0">
			<acc value="0.0238108052528231" flag="0"/>
			<vel value="0.0715475795147617" flag="0"/>
			<psa03 value="0.0435113251200692" flag="0"/>
			<psa10 value="0.0885253268684954" flag="0"/>
			<psa30 value="0.0292409804047848" flag="0"/>
		</comp>
		<comp name="--.HNZ" depth="0.0">
			<acc value="0.0204813560151351" flag="0"/>
			<vel value="0.0414570258425543" flag="0"/>
			<psa03 value="0.0403572281558217" flag="0"/>
			<psa10 value="0.0617283504501753" flag="0"/>
			<psa30 value="0.0175405086392724" flag="0"/>
		</comp>
	</station>
	<station code="ARS1" name="ARS1" netid="HI" source="ITSAK Strong Motion Network" insttype="" lat="37.6349" lon="22.7293" esm:processing="manual (Paolucci et al 2011)" esm:quality="good">
		<comp name="--.HNE" depth="0.0">
			<acc value="0.0112450542122257" flag="0"/>
			<vel value="0.0196757922027789" flag="0"/>
			<psa03 value="0.0258433213682082" flag="0"/>
			<psa10 value="0.0231659408798907" flag="0"/>
			<psa30 value="0.00949531485134164" flag="0"/>
		</comp>
		<comp name="--.HNN" depth="0.0">
			<acc value="0.0129703836974406" flag="0"/>
			<vel value="0.0232848942333608" flag="0"/>
			<psa03 value="0.0315442016277136" flag="0"/>
			<psa10 value="0.031436630022456" flag="0"/>
			<psa30 value="0.0144416783569817" flag="0"/>
		</comp>
		<comp name="--.HNZ" depth="0.0">
			<acc value="0.00772647879227241" flag="0"/>
			<vel value="0.0138743938886947" flag="0"/>
			<psa03 value="0.0249604764257302" flag="0"/>
			<psa10 value="0.0202219677311179" flag="0"/>
			<psa30 value="0.00797338819783674" flag="0"/>
		</comp>
	</station>
	<station code="CH01" name="CH01" netid="HI" source="ITSAK Strong Motion Network" insttype="" lat="35.517" lon="24.0208" esm:processing="automatic (Paolucci et al 2011)" esm:quality="best">
		<comp name="--.HNE" depth="0.0">
			<acc value="0.13477868584871" flag="0"/>
			<vel value="0.197884143956735" flag="0"/>
			<psa03 value="0.224682967477054" flag="0"/>
			<psa10 value="0.321077309795847" flag="0"/>
			<psa30 value="0.0624690716025469" flag="0"/>
		</comp>
		<comp name="--.HNN" depth="0.0">
			<acc value="0.0980111999534647" flag="0"/>
			<vel value="0.126923307090599" flag="0"/>
			<psa03 value="0.256453592958788" flag="0"/>
			<psa10 value="0.241533550412386" flag="0"/>
			<psa30 value="0.0422284274260861" flag="0"/>
		</comp>
		<comp name="--.HNZ" depth="0.0">
			<acc value="0.103319677185707" flag="0"/>
			<vel value="0.141903105192345" flag="0"/>
			<psa03 value="0.172908641848904" flag="0"/>
			<psa10 value="0.313248951205486" flag="0"/>
			<psa30 value="0.0223104612918868" flag="0"/>
		</comp>
	</station>
	<station code="CH02" name="CH02" netid="HI" source="ITSAK Strong Motion Network" insttype="" lat="35.5145" lon="24.0315" esm:processing="automatic (Paolucci et al 2011)" esm:quality="best">
		<comp name="--.HNE" depth="0.0">
			<acc value="0.115076948781026" flag="0"/>
			<vel value="0.180816289118895" flag="0"/>
			<psa03 value="0.214025261456526" flag="0"/>
			<psa10 value="0.285161210530585" flag="0"/>
			<psa30 value="0.059930856791886" flag="0"/>
		</comp>
		<comp name="--.HNN" depth="0.0">
			<acc value="0.115649888141158" flag="0"/>
			<vel value="0.15094221546436" flag="0"/>
			<psa03 value="0.221001994464219" flag="0"/>
			<psa10 value="0.187691083613034" flag="0"/>
			<psa30 value="0.0418436786050115" flag="0"/>
		</comp>
		<comp name="--.HNZ" depth="0.0">
			<acc value="0.0713536207076931" flag="0"/>
			<vel value="0.0690938729144196" flag="0"/>
			<psa03 value="0.149887960591814" flag="0"/>
			<psa10 value="0.185998521489404" flag="0"/>
			<psa30 value="0.0134449739968635" flag="0"/>
		</comp>
	</station>
	<station code="CH03" name="CH03" netid="HI" source="ITSAK Strong Motion Network" insttype="" lat="35.53303" lon="24.0705" esm:processing="automatic (Paolucci et al 2011)" esm:quality="best">
		<comp name="--.HNE" depth="0.0">
			<acc value="0.0782595980319115" flag="0"/>
			<vel value="0.114084730579661" flag="0"/>
			<psa03 value="0.161104474464093" flag="0"/>
			<psa10 value="0.149841191243732" flag="0"/>
			<psa30 value="0.0535598647449317" flag="0"/>
		</comp>
		<comp name="--.HNN" depth="0.0">
			<acc value="0.101885650993881" flag="0"/>
			<vel value="0.168050955943608" flag="0"/>
			<psa03 value="0.191372552492202" flag="0"/>
			<psa10 value="0.182735355320356" flag="0"/>
			<psa30 value="0.0270161213521361" flag="0"/>
		</comp>
		<comp name="--.HNZ" depth="0.0">
			<acc value="0.0522450052651127" flag="0"/>
			<vel value="0.0705391631667718" flag="0"/>
			<psa03 value="0.196732490895472" flag="0"/>
			<psa10 value="0.140570757122831" flag="0"/>
			<psa30 value="0.01975592873333" flag="0"/>
		</comp>
	</station>
	<station code="GOR1" name="GOR1" netid="HI" source="ITSAK Strong Motion Network" insttype="" lat="35.0582" lon="24.9628" esm:processing="automatic (Paolucci et al 2011)" esm:quality="best">
		<comp name="--.HNE" depth="0.0">
			<acc value="0.0486504261327739" flag="0"/>
			<vel value="0.0823660710774859" flag="0"/>
			<psa03 value="0.0649006743512905" flag="0"/>
			<psa10 value="0.153934302391947" flag="0"/>
			<psa30 value="0.0324944759328926" flag="0"/>
		</comp>
		<comp name="--.HNN" depth="0.0">
			<acc value="0.0372461857906684" flag="0"/>
			<vel value="0.0843865728908503" flag="0"/>
			<psa03 value="0.0484235880334951" flag="0"/>
			<psa10 value="0.0911683294542419" flag="0"/>
			<psa30 value="0.0316663610743593" flag="0"/>
		</comp>
		<comp name="--.HNZ" depth="0.0">
			<acc value="0.0222616915755954" flag="0"/>
			<vel value="0.0401247072360495" flag="0"/>
			<psa03 value="0.0492794884825541" flag="0"/>
			<psa10 value="0.0610744121298939" flag="0"/>
			<psa30 value="0.0147847827526212" flag="0"/>
		</comp>
	</station>
	<station code="HER1" name="HER1" netid="HI" source="ITSAK Strong Motion Network" insttype="" lat="35.317672" lon="25.10217" esm:processing="manual (Paolucci et al 2011)" esm:quality="good">
		<comp name="--.HNE" depth="0.0">
			<acc value="0.135202216999755" flag="0"/>
			<vel value="0.271432473024266" flag="0"/>
			<psa03 value="0.156790438680408" flag="0"/>
			<psa10 value="0.384817312258352" flag="0"/>
			<psa30 value="0.0419413150729529" flag="0"/>
		</comp>
		<comp name="--.HNN" depth="0.0">
			<acc value="0.121514516466169" flag="0"/>
			<vel value="0.182713127233736" flag="0"/>
			<psa03 value="0.169285224731996" flag="0"/>
			<psa10 value="0.400988473518421" flag="0"/>
			<psa30 value="0.0329045297636098" flag="0"/>
		</comp>
		<comp name="--.HNZ" depth="0.0">
			<acc value="0.0606262679961293" flag="0"/>
			<vel value="0.0705817694304575" flag="0"/>
			<psa03 value="0.112177181187717" flag="0"/>
			<psa10 value="0.139855854764001" flag="0"/>
			<psa30 value="0.00934522657539662" flag="0"/>
		</comp>
	</station>
	<station code="HER3" name="HER3" netid="HI" source="ITSAK Strong Motion Network" insttype="" lat="35.3296" lon="25.1065" esm:processing="manual (Paolucci et al 2011)" esm:quality="good">
		<comp name="--.HNE" depth="0.0">
			<acc value="0.111913337154784" flag="0"/>
			<vel value="0.168588019523074" flag="0"/>
			<psa03 value="0.144584182159152" flag="0"/>
			<psa10 value="0.395996772842749" flag="0"/>
			<psa30 value="0.0263218636942887" flag="0"/>
		</comp>
		<comp name="--.HNN" depth="0.0">
			<acc value="0.0976958807304759" flag="0"/>
			<vel value="0.142018203899324" flag="0"/>
			<psa03 value="0.159350118663312" flag="0"/>
			<psa10 value="0.254876394310254" flag="0"/>
			<psa30 value="0.0336747441198642" flag="0"/>
		</comp>
		<comp name="--.HNZ" depth="0.0">
			<acc value="0.0389523900859206" flag="0"/>
			<vel value="0.0482162220931988" flag="0"/>
			<psa03 value="0.10728178397501" flag="0"/>
			<psa10 value="0.11665007499498" flag="0"/>
			<psa30 value="0.0104759848159139" flag="0"/>
		</comp>
	</station>
	<station code="KIS1" name="KIS1" netid="HI" source="ITSAK Strong Motion Network" insttype="" lat="35.493933" lon="23.658993" esm:processing="manual (Paolucci et al 2011)" esm:quality="good">
		<comp name="--.HNE" depth="0.0">
			<acc value="0.2410582253039" flag="0"/>
			<vel value="0.371467828788569" flag="0"/>
			<psa03 value="0.662683732878353" flag="0"/>
			<psa10 value="0.323500720335063" flag="0"/>
			<psa30 value="0.0397486898222909" flag="0"/>
		</comp>
		<comp name="--.HNN" depth="0.0">
			<acc value="0.313688023036487" flag="0"/>
			<vel value="0.458396987235414" flag="0"/>
			<psa03 value="0.691477932019398" flag="0"/>
			<psa10 value="0.625358846954508" flag="0"/>
			<psa30 value="0.0902250903027641" flag="0"/>
		</comp>
		<comp name="--.HNZ" depth="0.0">
			<acc value="0.164283472593616" flag="0"/>
			<vel value="0.208470585908879" flag="0"/>
			<psa03 value="0.531166312161352" flag="0"/>
			<psa10 value="0.253604910080664" flag="0"/>
			<psa30 value="0.0552824721924704" flag="0"/>
		</comp>
	</station>
	<station code="KOR2" name="KOR2" netid="HI" source="ITSAK Strong Motion Network" insttype="" lat="37.9401" lon="22.9495" esm:processing="manual (Paolucci et al 2011)" esm:quality="good">
		<comp name="--.HNE" depth="0.0">
			<acc value="0.0266121852790258" flag="0"/>
			<vel value="0.0503393618488879" flag="0"/>
			<psa03 value="0.0339820011408006" flag="0"/>
			<psa10 value="0.0669617433868682" flag="0"/>
			<psa30 value="0.0154335307290003" flag="0"/>
		</comp>
		<comp name="--.HNN" depth="0.0">
			<acc value="0.0179568517320236" flag="0"/>
			<vel value="0.0403325712654439" flag="0"/>
			<psa03 value="0.029346063824372" flag="0"/>
			<psa10 value="0.0795670934294446" flag="0"/>
			<psa30 value="0.0138837555640015" flag="0"/>
		</comp>
		<comp name="--.HNZ" depth="0.0">
			<acc value="0.00965120664919841" flag="0"/>
			<vel value="0.0198625876742414" flag="0"/>
			<psa03 value="0.0204518991087766" flag="0"/>
			<psa10 value="0.0348677810693736" flag="0"/>
			<psa30 value="0.00673200429557895" flag="0"/>
		</comp>
	</station>
	<station code="KSS1" name="KSS1" netid="HI" source="ITSAK Strong Motion Network" insttype="" lat="35.4189" lon="26.9207" esm:processing="automatic (Paolucci et al 2011)" esm:quality="best">
		<comp name="--.HNE" depth="0.0">
			<acc value="0.00486151735437372" flag="0"/>
			<vel value="0.00649108592360613" flag="0"/>
			<psa03 value="0.0276760156918761" flag="0"/>
			<psa10 value="0.00541763701686869" flag="0"/>
			<psa30 value="0.00432691080326998" flag="0"/>
		</comp>
		<comp name="--.HNN" depth="0.0">
			<acc value="0.00507243144032494" flag="0"/>
			<vel value="0.00931413556631392" flag="0"/>
			<psa03 value="0.0168964643599167" flag="0"/>
			<psa10 value="0.00678283573583629" flag="0"/>
			<psa30 value="0.00533459839097535" flag="0"/>
		</comp>
		<comp name="--.HNZ" depth="0.0">
			<acc value="0.00466288493089434" flag="0"/>
			<vel value="0.00610537367836967" flag="0"/>
			<psa03 value="0.00765999832273008" flag="0"/>
			<psa10 value="0.00448158625808492" flag="0"/>
			<psa30 value="0.00264520273169945" flag="0"/>
		</comp>
	</station>
	<station code="KTL1" name="KTL1" netid="HI" source="ITSAK Strong Motion Network" insttype="" lat="35.20778" lon="25.34272" esm:processing="manual (Paolucci et al 2011)" esm:quality="good">
		<comp name="--.HNE" depth="0.0">
			<acc value="0.021143343008151" flag="0"/>
			<vel value="0.0322027663024488" flag="0"/>
			<psa03 value="0.039671966614755" flag="0"/>
			<psa10 value="0.040222592049321" flag="0"/>
			<psa30 value="0.00789497633676911" flag="0"/>
		</comp>
		<comp name="--.HNN" depth="0.0">
			<acc value="0.0239388009107209" flag="0"/>
			<vel value="0.0480434038889992" flag="0"/>
			<psa03 value="0.0464189031495215" flag="0"/>
			<psa10 value="0.0773369481932677" flag="0"/>
			<psa30 value="0.0112977025840166" flag="0"/>
		</comp>
		<comp name="--.HNZ" depth="0.0">
			<acc value="0.016597840585604" flag="0"/>
			<vel value="0.0194363512588642" flag="0"/>
			<psa03 value="0.0226073023103272" flag="0"/>
			<psa10 value="0.0296534656465674" flag="0"/>
			<psa30 value="0.005334329623158" flag="0"/>
		</comp>
	</station>
