<?xml version="1.0" encoding="UTF-8" standalone="yes"?>
<!DOCTYPE earthquake SYSTEM "stationlist.dtd">
<stationlist created="" xmlns="ch.ethz.sed.shakemap.usgs.xml">
  <station code="KTHA" name="KTHA" netid="GE" insttype="STS-2/N" lat="36.2566" lon="23.0621">
    <comp name="--.HHE">
      <acc value="0.2703011365" flag="0"/>
      <vel value="0.0633423365" flag="0"/>
      <psa03 value="0.3166329609" flag="0"/>
      <psa10 value="0.0361619290" flag="0"/>
      <psa30 value="0.0025684093" flag="0"/>
    </comp>
    <comp name="--.HHN">
      <acc value="0.1276209623" flag="0"/>
      <vel value="0.0293976278" flag="0"/>
      <psa03 value="0.1611707287" flag="0"/>
      <psa10 value="0.0107598469" flag="0"/>
      <psa30 value="0.0007457555" flag="0"/>
    </comp>
    <comp name="--.HHZ">
      <acc value="0.1321747094" flag="0"/>
      <vel value="0.0249941944" flag="0"/>
      <psa03 value="0.1220679288" flag="0"/>
      <psa10 value="0.0104196389" flag="0"/>
      <psa30 value="0.0004955923" flag="0"/>
    </comp>
  </station>
</stationlist>
