<stationlist created="1778069439">
	<station code="SIT2" name="SIT2" netid="HI" source="ITSAK Strong Motion Network" insttype="" lat="35.2059" lon="26.107">
		<comp name="--.HNE" depth="0.0">
			<acc value="0.00967120267813539" flag="0"/>
			<vel value="0.0102352980347353" flag="0"/>
			<psa03 value="0.0291719187151132" flag="0"/>
			<psa10 value="0.0147018416726979" flag="0"/>
			<psa30 value="0.0011986437153035" flag="0"/>
		</comp>
		<comp name="--.HNN" depth="0.0">
			<acc value="0.0205826868460146" flag="0"/>
			<vel value="0.0179332696553366" flag="0"/>
			<psa03 value="0.0446974644116535" flag="0"/>
			<psa10 value="0.00900392165986101" flag="0"/>
			<psa30 value="0.00109394695181674" flag="0"/>
		</comp>
		<comp name="--.HNZ" depth="0.0">
			<acc value="0.00467460328984084" flag="0"/>
			<vel value="0.00300191631231238" flag="0"/>
			<psa03 value="0.01087235620824" flag="0"/>
			<psa10 value="0.00386572665181868" flag="0"/>
			<psa30 value="0.0006420506649722" flag="0"/>
		</comp>
	</station>
</stationlist>
