<?xml version="1.0" encoding="UTF-8" standalone="yes"?>
<!DOCTYPE earthquake SYSTEM "stationlist.dtd">
<stationlist created="" xmlns="ch.ethz.sed.shakemap.usgs.xml">
  <station code="ZKR" name="ZKR" netid="GE" insttype="STS-2/N" lat="35.1147" lon="26.2169">
    <comp name="--.HHE">
      <acc value="0.0044998166" flag="0"/>
      <vel value="0.0046980727" flag="0"/>
      <psa03 value="0.0087044623" flag="0"/>
      <psa10 value="0.0076762230" flag="0"/>
      <psa30 value="0.0017322896" flag="0"/>
    </comp>
    <comp name="--.HHN">
      <acc value="0.0021522720" flag="0"/>
      <vel value="0.0021826738" flag="0"/>
      <psa03 value="0.0043585861" flag="0"/>
      <psa10 value="0.0027181041" flag="0"/>
      <psa30 value="0.0003947908" flag="0"/>
    </comp>
    <comp name="--.HHZ">
      <acc value="0.0030432203" flag="0"/>
      <vel value="0.0038323659" flag="0"/>
      <psa03 value="0.0062275374" flag="0"/>
      <psa10 value="0.0059909877" flag="0"/>
      <psa30 value="0.0008884365" flag="0"/>
    </comp>
  </station>
  <station code="ZKR" name="ZKR" netid="HL" insttype="120" lat="35.1147" lon="26.2169">
    <comp name="--.HHE">
      <acc value="0.0045271989" flag="0"/>
      <vel value="0.0046859925" flag="0"/>
      <psa03 value="0.0084902170" flag="0"/>
      <psa10 value="0.0076313561" flag="0"/>
      <psa30 value="0.0017316201" flag="0"/>
    </comp>
    <comp name="--.HHZ">
      <acc value="0.0031371477" flag="0"/>
      <vel value="0.0038148965" flag="0"/>
      <psa03 value="0.0060965743" flag="0"/>
      <psa10 value="0.0059513380" flag="0"/>
      <psa30 value="0.0008884053" flag="0"/>
    </comp>
    <comp name="--.HHN">
      <acc value="0.0021132690" flag="0"/>
      <vel value="0.0021605813" flag="0"/>
      <psa03 value="0.0042438570" flag="0"/>
      <psa10 value="0.0026999684" flag="0"/>
      <psa30 value="0.0003946035" flag="0"/>
    </comp>
  </station>
</stationlist>
