<?xml version="1.0" encoding="UTF-8" standalone="yes"?>
<!DOCTYPE earthquake SYSTEM "stationlist.dtd">
<stationlist created="" xmlns="ch.ethz.sed.shakemap.usgs.xml">
  <station code="CEYT" name="CEYT" netid="KO" insttype="CMG-3ESP" lat="37.0105" lon="35.7478">
    <comp name="--.HHE">
      <acc value="0.0292200318" flag="0"/>
      <vel value="0.0132078281" flag="0"/>
      <psa03 value="0.0813091334" flag="0"/>
      <psa10 value="0.0103285242" flag="0"/>
      <psa30 value="0.0013071488" flag="0"/>
    </comp>
    <comp name="--.HHZ">
      <acc value="0.0180507165" flag="0"/>
      <vel value="0.0080900776" flag="0"/>
      <psa03 value="0.0647796912" flag="0"/>
      <psa10 value="0.0052005004" flag="0"/>
      <psa30 value="0.0007253527" flag="0"/>
    </comp>
    <comp name="--.HHN">
      <acc value="0.0198174009" flag="0"/>
      <vel value="0.0110812707" flag="0"/>
      <psa03 value="0.0885704187" flag="0"/>
      <psa10 value="0.0093552509" flag="0"/>
      <psa30 value="0.0006757775" flag="0"/>
    </comp>
  </station>
  <station code="CMRD" name="CMRD" netid="KO" insttype="CMG-5T" lat="37.6623" lon="34.9902">
    <comp name="--.HNE">
      <acc value="0.1598103597" flag="0"/>
      <vel value="0.0236201730" flag="0"/>
      <psa03 value="0.0628128874" flag="0"/>
      <psa10 value="0.0156698029" flag="0"/>
      <psa30 value="0.0018580917" flag="0"/>
    </comp>
    <comp name="--.HNZ">
      <acc value="0.1320564866" flag="0"/>
      <vel value="0.0180376061" flag="0"/>
      <psa03 value="0.0388438454" flag="0"/>
      <psa10 value="0.0192530028" flag="0"/>
      <psa30 value="0.0022717402" flag="0"/>
    </comp>
    <comp name="--.HNN">
      <acc value="0.0900090095" flag="0"/>
      <vel value="0.0237237520" flag="0"/>
      <psa03 value="0.0694263591" flag="0"/>
      <psa10 value="0.0199091033" flag="0"/>
      <psa30 value="0.0011959186" flag="0"/>
    </comp>
  </station>
  <station code="KARA" name="KARA" netid="KO" insttype="CMG-3ESP" lat="37.2607" lon="35.0547">
    <comp name="--.HHN">
      <acc value="0.0400661742" flag="0"/>
      <vel value="0.0072310785" flag="0"/>
      <psa03 value="0.0269539776" flag="0"/>
      <psa10 value="0.0057250249" flag="0"/>
      <psa30 value="0.0009569368" flag="0"/>
    </comp>
    <comp name="--.HHZ">
      <acc value="0.0188215436" flag="0"/>
      <vel value="0.0051610934" flag="0"/>
      <psa03 value="0.0153636821" flag="0"/>
      <psa10 value="0.0095843568" flag="0"/>
      <psa30 value="0.0007668895" flag="0"/>
    </comp>
    <comp name="--.HHE">
      <acc value="0.0340081621" flag="0"/>
      <vel value="0.0060517133" flag="0"/>
      <psa03 value="0.0293470688" flag="0"/>
      <psa10 value="0.0100620116" flag="0"/>
      <psa30 value="0.0006318887" flag="0"/>
    </comp>
  </station>
  <station code="SARI" name="SARI" netid="KO" insttype="CMG-3T" lat="38.4072" lon="36.4181">
    <comp name="--.HHZ">
      <acc value="0.0065383008" flag="0"/>
      <vel value="0.0039703687" flag="0"/>
      <psa03 value="0.0114624526" flag="0"/>
      <psa10 value="0.0027090957" flag="0"/>
      <psa30 value="0.0002907175" flag="0"/>
    </comp>
    <comp name="--.HHN">
      <acc value="0.0093049025" flag="0"/>
      <vel value="0.0043412809" flag="0"/>
      <psa03 value="0.0183102408" flag="0"/>
      <psa10 value="0.0054216950" flag="0"/>
      <psa30 value="0.0004045536" flag="0"/>
    </comp>
    <comp name="--.HHE">
      <acc value="0.0122925865" flag="0"/>
      <vel value="0.0037785544" flag="0"/>
      <psa03 value="0.0212523655" flag="0"/>
      <psa10 value="0.0058428496" flag="0"/>
      <psa30 value="0.0004044356" flag="0"/>
    </comp>
  </station>
  <station code="ANDN" name="ANDN" netid="TU" insttype="T" lat="37.58" lon="36.3452">
    <comp name="--.HHE">
      <acc value="0.0160393587" flag="0"/>
      <vel value="0.0093341954" flag="0"/>
      <psa03 value="0.0436813576" flag="0"/>
      <psa10 value="0.0149804097" flag="0"/>
      <psa30 value="0.0028161655" flag="0"/>
    </comp>
    <comp name="--.HHN">
      <acc value="0.0200243987" flag="0"/>
      <vel value="0.0106651347" flag="0"/>
      <psa03 value="0.0601518472" flag="0"/>
      <psa10 value="0.0141238348" flag="0"/>
      <psa30 value="0.0016416398" flag="0"/>
    </comp>
    <comp name="--.HHZ">
      <acc value="0.0091053756" flag="0"/>
      <vel value="0.0064384773" flag="0"/>
      <psa03 value="0.0160726613" flag="0"/>
      <psa10 value="0.0122762256" flag="0"/>
      <psa30 value="0.0020815297" flag="0"/>
    </comp>
  </station>
</stationlist>
