<?xml version="1.0" encoding="UTF-8" standalone="yes"?>
<!DOCTYPE earthquake SYSTEM "stationlist.dtd">
<stationlist created="" xmlns="ch.ethz.sed.shakemap.usgs.xml">
  <station code="VANB" name="VANB" netid="KO" insttype="360s," lat="38.509" lon="43.4058">
    <comp name="--.HHE">
      <acc value="0.0000241217" flag="0"/>
      <vel value="0.0000018942" flag="0"/>
      <psa03 value="0.0000058543" flag="0"/>
      <psa10 value="0.0000012703" flag="0"/>
      <psa30 value="0.0000002721" flag="0"/>
    </comp>
    <comp name="--.HHZ">
      <acc value="0.0035984476" flag="0"/>
      <vel value="0.0005895412" flag="0"/>
      <psa03 value="0.0016801297" flag="0"/>
      <psa10 value="0.0004713495" flag="0"/>
      <psa30 value="0.0000452785" flag="0"/>
    </comp>
    <comp name="--.HHN">
      <acc value="0.0018487451" flag="0"/>
      <vel value="0.0004031182" flag="0"/>
      <psa03 value="0.0022609030" flag="0"/>
      <psa10 value="0.0003684738" flag="0"/>
      <psa30 value="0.0000381357" flag="0"/>
    </comp>
  </station>
</stationlist>
