<?xml version="1.0" encoding="UTF-8" standalone="yes"?>
<!DOCTYPE earthquake SYSTEM "stationlist.dtd">
<stationlist created="" xmlns="ch.ethz.sed.shakemap.usgs.xml">
  <station code="CHBY" name="CHBY" netid="KO" insttype="CMG-6T" commtype="DIG" lat="38.5823" lon="32.8902">
    <comp name="--.HHN">
      <acc value="0.0149149736" flag="0"/>
      <vel value="0.0057694480" flag="0"/>
      <psa03 value="0.0364170943" flag="0"/>
      <psa10 value="0.0068564233" flag="0"/>
      <psa30 value="0.0006292476" flag="0"/>
    </comp>
    <comp name="--.HHE">
      <acc value="0.0143312808" flag="0"/>
      <vel value="0.0064547385" flag="0"/>
      <psa03 value="0.0328051697" flag="0"/>
      <psa10 value="0.0060376853" flag="0"/>
      <psa30 value="0.0004897901" flag="0"/>
    </comp>
    <comp name="--.HHZ">
      <acc value="0.0095152164" flag="0"/>
      <vel value="0.0045965066" flag="0"/>
      <psa03 value="0.0240085061" flag="0"/>
      <psa10 value="0.0030386556" flag="0"/>
      <psa30 value="0.0003524064" flag="0"/>
    </comp>
  </station>
  <station code="SDAG" name="SDAG" netid="KO" insttype="CMG-6T" commtype="DIG" lat="38.4396" lon="30.9175">
    <comp name="--.HHE">
      <acc value="0.0134589786" flag="0"/>
      <vel value="0.0083726771" flag="0"/>
      <psa03 value="0.0194294357" flag="0"/>
      <psa10 value="0.0078044716" flag="0"/>
      <psa30 value="0.0007348577" flag="0"/>
    </comp>
    <comp name="--.HHZ">
      <acc value="0.0050983714" flag="0"/>
      <vel value="0.0044383168" flag="0"/>
      <psa03 value="0.0111299773" flag="0"/>
      <psa10 value="0.0059771016" flag="0"/>
      <psa30 value="0.0002955841" flag="0"/>
    </comp>
  </station>
  <station code="SEYD" name="SEYD" netid="KO" insttype="CMG-5T" commtype="DIG" lat="37.4056" lon="31.8379">
    <comp name="--.HNZ">
      <acc value="0.0165709581" flag="0"/>
      <vel value="0.0050264705" flag="0"/>
      <psa03 value="0.0307825727" flag="0"/>
      <psa10 value="0.0084762484" flag="0"/>
      <psa30 value="0.0004886266" flag="0"/>
    </comp>
    <comp name="--.HNE">
      <acc value="0.0242396218" flag="0"/>
      <vel value="0.0095611255" flag="0"/>
      <psa03 value="0.0405849330" flag="0"/>
      <psa10 value="0.0034045227" flag="0"/>
      <psa30 value="0.0003483285" flag="0"/>
    </comp>
    <comp name="--.HNN">
      <acc value="0.0285024042" flag="0"/>
      <vel value="0.0089346182" flag="0"/>
      <psa03 value="0.0556331746" flag="0"/>
      <psa10 value="0.0041509207" flag="0"/>
      <psa30 value="0.0005185755" flag="0"/>
    </comp>
  </station>
</stationlist>
