<?xml version="1.0" encoding="UTF-8" standalone="yes"?>
<!DOCTYPE earthquake SYSTEM "stationlist.dtd">
<stationlist created="" xmlns="ch.ethz.sed.shakemap.usgs.xml">
  <station code="CHBY" name="CHBY" netid="KO" insttype="CMG-6T" commtype="DIG" lat="38.5823" lon="32.8902">
    <comp name="--.HHN">
      <acc value="0.0149149718" flag="0"/>
      <vel value="0.0057694436" flag="0"/>
      <psa03 value="0.0364170943" flag="0"/>
      <psa10 value="0.0068564233" flag="0"/>
      <psa30 value="0.0006292440" flag="0"/>
    </comp>
    <comp name="--.HHE">
      <acc value="0.0143312814" flag="0"/>
      <vel value="0.0064547463" flag="0"/>
      <psa03 value="0.0328051697" flag="0"/>
      <psa10 value="0.0060376853" flag="0"/>
      <psa30 value="0.0004897915" flag="0"/>
    </comp>
    <comp name="--.HHZ">
      <acc value="0.0095152188" flag="0"/>
      <vel value="0.0045964950" flag="0"/>
      <psa03 value="0.0240085062" flag="0"/>
      <psa10 value="0.0030386556" flag="0"/>
      <psa30 value="0.0003524108" flag="0"/>
    </comp>
  </station>
  <station code="SDAG" name="SDAG" netid="KO" insttype="CMG-6T" commtype="DIG" lat="38.4396" lon="30.9175">
    <comp name="--.HHE">
      <acc value="0.0134589784" flag="0"/>
      <vel value="0.0083726745" flag="0"/>
      <psa03 value="0.0194294357" flag="0"/>
      <psa10 value="0.0078044716" flag="0"/>
      <psa30 value="0.0007348697" flag="0"/>
    </comp>
    <comp name="--.HHZ">
      <acc value="0.0050983721" flag="0"/>
      <vel value="0.0044383167" flag="0"/>
      <psa03 value="0.0111299773" flag="0"/>
      <psa10 value="0.0059771016" flag="0"/>
      <psa30 value="0.0002955821" flag="0"/>
    </comp>
  </station>
  <station code="SEYD" name="SEYD" netid="KO" insttype="CMG-5T" commtype="DIG" lat="37.4056" lon="31.8379">
    <comp name="--.HNZ">
      <acc value="0.0165709587" flag="0"/>
      <vel value="0.0050264710" flag="0"/>
      <psa03 value="0.0307825727" flag="0"/>
      <psa10 value="0.0084762486" flag="0"/>
      <psa30 value="0.0004888209" flag="0"/>
    </comp>
    <comp name="--.HNN">
      <acc value="0.0285024053" flag="0"/>
      <vel value="0.0089346176" flag="0"/>
      <psa03 value="0.0556331746" flag="0"/>
      <psa10 value="0.0041509207" flag="0"/>
      <psa30 value="0.0005185664" flag="0"/>
    </comp>
    <comp name="--.HNE">
      <acc value="0.0242396221" flag="0"/>
      <vel value="0.0095611240" flag="0"/>
      <psa03 value="0.0405849330" flag="0"/>
      <psa10 value="0.0034045225" flag="0"/>
      <psa30 value="0.0003479605" flag="0"/>
    </comp>
  </station>
</stationlist>
