<?xml version="1.0" encoding="UTF-8" standalone="yes"?>
<!DOCTYPE earthquake SYSTEM "stationlist.dtd">
<stationlist created="" xmlns="ch.ethz.sed.shakemap.usgs.xml">
  <station code="GAZ" name="GAZ" netid="KO" insttype="CMG-3T" lat="37.1721" lon="37.2096">
    <comp name="--.HHN">
      <acc value="0.0955891027" flag="0"/>
      <vel value="0.0437235725" flag="0"/>
      <psa03 value="0.1327179396" flag="0"/>
      <psa10 value="0.0487690825" flag="0"/>
      <psa30 value="0.0048063687" flag="0"/>
    </comp>
    <comp name="--.HHE">
      <acc value="0.1044064563" flag="0"/>
      <vel value="0.0694693986" flag="0"/>
      <psa03 value="0.1967261160" flag="0"/>
      <psa10 value="0.0446523007" flag="0"/>
      <psa30 value="0.0086069490" flag="0"/>
    </comp>
    <comp name="--.HHZ">
      <acc value="0.0760546732" flag="0"/>
      <vel value="0.0359726832" flag="0"/>
      <psa03 value="0.1282884548" flag="0"/>
      <psa10 value="0.0370948578" flag="0"/>
      <psa30 value="0.0040082557" flag="0"/>
    </comp>
  </station>
  <station code="KHMN" name="KHMN" netid="KO" insttype="CMG-5T" lat="37.3916" lon="37.1574">
    <comp name="--.HNE">
      <acc value="0.4778719227" flag="0"/>
      <vel value="0.1068520529" flag="0"/>
      <psa03 value="0.4290075784" flag="0"/>
      <psa10 value="0.0854251114" flag="0"/>
      <psa30 value="0.0119938061" flag="0"/>
    </comp>
    <comp name="--.HNN">
      <acc value="0.2771509644" flag="0"/>
      <vel value="0.0593952359" flag="0"/>
      <psa03 value="0.3342816930" flag="0"/>
      <psa10 value="0.0262350639" flag="0"/>
      <psa30 value="0.0038880619" flag="0"/>
    </comp>
    <comp name="--.HNZ">
      <acc value="0.2509814368" flag="0"/>
      <vel value="0.0613395529" flag="0"/>
      <psa03 value="0.2123949806" flag="0"/>
      <psa10 value="0.0312296794" flag="0"/>
      <psa30 value="0.0039843702" flag="0"/>
    </comp>
  </station>
  <station code="KMRS" name="KMRS" netid="KO" insttype="CMG-3T" lat="37.5087" lon="36.9">
    <comp name="--.HHE">
      <acc value="0.0229329600" flag="0"/>
      <vel value="0.0188300232" flag="0"/>
      <psa03 value="0.0427562933" flag="0"/>
      <psa10 value="0.0204305356" flag="0"/>
      <psa30 value="0.0045919320" flag="0"/>
    </comp>
    <comp name="--.HHZ">
      <acc value="0.0229968408" flag="0"/>
      <vel value="0.0165347480" flag="0"/>
      <psa03 value="0.0520337754" flag="0"/>
      <psa10 value="0.0215163015" flag="0"/>
      <psa30 value="0.0024135898" flag="0"/>
    </comp>
    <comp name="--.HHN">
      <acc value="0.0260835356" flag="0"/>
      <vel value="0.0219281322" flag="0"/>
      <psa03 value="0.0481236279" flag="0"/>
      <psa10 value="0.0185799085" flag="0"/>
      <psa30 value="0.0032595547" flag="0"/>
    </comp>
  </station>
  <station code="ANDN" name="ANDN" netid="TU" insttype="T" lat="37.58" lon="36.3452">
    <comp name="--.HHN">
      <acc value="0.0211045497" flag="0"/>
      <vel value="0.0107201622" flag="0"/>
      <psa03 value="0.0691563956" flag="0"/>
      <psa10 value="0.0097400382" flag="0"/>
      <psa30 value="0.0020312193" flag="0"/>
    </comp>
    <comp name="--.HHZ">
      <acc value="0.0079410308" flag="0"/>
      <vel value="0.0060520255" flag="0"/>
      <psa03 value="0.0223266261" flag="0"/>
      <psa10 value="0.0070135187" flag="0"/>
      <psa30 value="0.0013827662" flag="0"/>
    </comp>
    <comp name="--.HHE">
      <acc value="0.0150124042" flag="0"/>
      <vel value="0.0113422231" flag="0"/>
      <psa03 value="0.0292936775" flag="0"/>
      <psa10 value="0.0080102451" flag="0"/>
      <psa30 value="0.0016186490" flag="0"/>
    </comp>
  </station>
</stationlist>
