<stationlist created="1775820644">
	<station code="MACI" name="MACI" netid="IU" source="Global Seismograph Network - IRIS/USGS (GSN)" insttype="" lat="28.2502" lon="-16.508199">
		<comp name="--.HNE" depth="0.0">
			<acc value="0.00414817425911422" flag="0"/>
			<vel value="0.00100894842519905" flag="0"/>
			<psa03 value="0.00760976778165949" flag="0"/>
			<psa10 value="0.000590713409209469" flag="0"/>
			<psa30 value="5.31925243946711e-05" flag="0"/>
		</comp>
		<comp name="--.HNN" depth="0.0">
			<acc value="0.00457759263874175" flag="0"/>
			<vel value="0.00123671849638881" flag="0"/>
			<psa03 value="0.00878128223769605" flag="0"/>
			<psa10 value="0.00123731337218969" flag="0"/>
			<psa30 value="5.97671689170989e-05" flag="0"/>
		</comp>
		<comp name="--.HNZ" depth="0.0">
			<acc value="0.00434690259265176" flag="0"/>
			<vel value="0.00180216612843865" flag="0"/>
			<psa03 value="0.010630768038311" flag="0"/>
			<psa10 value="0.000607046854497927" flag="0"/>
			<psa30 value="4.71460821808633e-05" flag="0"/>
		</comp>
	</station>
</stationlist>
