<?xml version="1.0" encoding="UTF-8" standalone="yes"?>
<!DOCTYPE earthquake SYSTEM "stationlist.dtd">
<stationlist created="" xmlns="ch.ethz.sed.shakemap.usgs.xml">
  <station code="AKS" name="AKS" netid="KO" insttype="CMG-5T" commtype="DIG" lat="38.8785" lon="27.8129">
    <comp name="--.HNE">
      <acc value="0.1106483728" flag="0"/>
      <vel value="0.0270016720" flag="0"/>
      <psa03 value="0.1858221087" flag="0"/>
      <psa10 value="0.0134657981" flag="0"/>
      <psa30 value="0.0010409194" flag="0"/>
    </comp>
    <comp name="--.HNN">
      <acc value="0.1075443369" flag="0"/>
      <vel value="0.0329154869" flag="0"/>
      <psa03 value="0.1569882654" flag="0"/>
      <psa10 value="0.0104094556" flag="0"/>
      <psa30 value="0.0007028093" flag="0"/>
    </comp>
  </station>
  <station code="BALB" name="BALB" netid="KO" insttype="CMG-5T" commtype="DIG" lat="39.6507" lon="27.8642">
    <comp name="--.HNE">
      <acc value="0.0430687175" flag="0"/>
      <vel value="0.0162525792" flag="0"/>
      <psa03 value="0.0808884023" flag="0"/>
      <psa10 value="0.0137108876" flag="0"/>
      <psa30 value="0.0008331682" flag="0"/>
    </comp>
    <comp name="--.HNN">
      <acc value="0.0416716279" flag="0"/>
      <vel value="0.0137002467" flag="0"/>
      <psa03 value="0.0833140775" flag="0"/>
      <psa10 value="0.0099096114" flag="0"/>
      <psa30 value="0.0007674805" flag="0"/>
    </comp>
    <comp name="--.HNZ">
      <acc value="0.0395783690" flag="0"/>
      <vel value="0.0077575494" flag="0"/>
      <psa03 value="0.0325223163" flag="0"/>
      <psa10 value="0.0052501512" flag="0"/>
      <psa30 value="0.0004115010" flag="0"/>
    </comp>
  </station>
  <station code="DKL" name="DKL" netid="KO" insttype="CMG-3ESPC" commtype="DIG" lat="39.0713" lon="26.9053">
    <comp name="--.HHZ">
      <acc value="0.0295211815" flag="0"/>
      <vel value="0.0021051888" flag="0"/>
      <psa03 value="0.0153770406" flag="0"/>
      <psa10 value="0.0024725797" flag="0"/>
      <psa30 value="0.0003226599" flag="0"/>
    </comp>
    <comp name="--.HHN">
      <acc value="0.0236188106" flag="0"/>
      <vel value="0.0038531086" flag="0"/>
      <psa03 value="0.0194781284" flag="0"/>
      <psa10 value="0.0045837831" flag="0"/>
      <psa30 value="0.0004910095" flag="0"/>
    </comp>
  </station>
  <station code="DST" name="DST" netid="KO" insttype="CMG-5T" commtype="DIG" lat="39.6041" lon="28.6267">
    <comp name="--.HNN">
      <acc value="0.1007163772" flag="0"/>
      <vel value="0.0252562661" flag="0"/>
      <psa03 value="0.0802408627" flag="0"/>
      <psa10 value="0.0071363751" flag="0"/>
      <psa30 value="0.0006703890" flag="0"/>
    </comp>
    <comp name="--.HNE">
      <acc value="0.0666894699" flag="0"/>
      <vel value="0.0178659972" flag="0"/>
      <psa03 value="0.1078169810" flag="0"/>
      <psa10 value="0.0074548297" flag="0"/>
      <psa30 value="0.0007431226" flag="0"/>
    </comp>
    <comp name="--.HNZ">
      <acc value="0.0543916118" flag="0"/>
      <vel value="0.0158943436" flag="0"/>
      <psa03 value="0.1119819140" flag="0"/>
      <psa10 value="0.0047266522" flag="0"/>
      <psa30 value="0.0009136144" flag="0"/>
    </comp>
  </station>
  <station code="GEDZ" name="GEDZ" netid="KO" insttype="CMG-6T" commtype="DIG" lat="39.0445" lon="29.4105">
    <comp name="--.HHN">
      <acc value="0.0585897864" flag="0"/>
      <vel value="0.0251083464" flag="0"/>
      <psa03 value="0.1424856752" flag="0"/>
      <psa10 value="0.0203339083" flag="0"/>
      <psa30 value="0.0008667458" flag="0"/>
    </comp>
    <comp name="--.HHZ">
      <acc value="0.0387170462" flag="0"/>
      <vel value="0.0107902527" flag="0"/>
      <psa03 value="0.0438224676" flag="0"/>
      <psa10 value="0.0060407875" flag="0"/>
      <psa30 value="0.0003874550" flag="0"/>
    </comp>
    <comp name="--.HHE">
      <acc value="0.0760634632" flag="0"/>
      <vel value="0.0235618625" flag="0"/>
      <psa03 value="0.1294409701" flag="0"/>
      <psa10 value="0.0173882513" flag="0"/>
      <psa30 value="0.0009835263" flag="0"/>
    </comp>
  </station>
  <station code="GOMA" name="GOMA" netid="KO" insttype="CMG-5T" commtype="DIG" lat="38.7077" lon="27.9175">
    <comp name="--.HNE">
      <acc value="0.0679248561" flag="0"/>
      <vel value="0.0308924534" flag="0"/>
      <psa03 value="0.1942463407" flag="0"/>
      <psa10 value="0.0116860448" flag="0"/>
      <psa30 value="0.0008618751" flag="0"/>
    </comp>
    <comp name="--.HNN">
      <acc value="0.0589479462" flag="0"/>
      <vel value="0.0349801126" flag="0"/>
      <psa03 value="0.2110427348" flag="0"/>
      <psa10 value="0.0089201440" flag="0"/>
      <psa30 value="0.0012667362" flag="0"/>
    </comp>
    <comp name="--.HNZ">
      <acc value="0.0668062637" flag="0"/>
      <vel value="0.0198767453" flag="0"/>
      <psa03 value="0.1216861699" flag="0"/>
      <psa10 value="0.0061987766" flag="0"/>
      <psa30 value="0.0008933473" flag="0"/>
    </comp>
  </station>
  <station code="GONE" name="GONE" netid="KO" insttype="CMG-5T" commtype="DIG" lat="40.0466" lon="27.686">
    <comp name="--.HNE">
      <acc value="0.0412160238" flag="0"/>
      <vel value="0.0166523067" flag="0"/>
      <psa03 value="0.1035479558" flag="0"/>
      <psa10 value="0.0136040247" flag="0"/>
      <psa30 value="0.0006389729" flag="0"/>
    </comp>
    <comp name="--.HNZ">
      <acc value="0.0184594648" flag="0"/>
      <vel value="0.0060491494" flag="0"/>
      <psa03 value="0.0505298342" flag="0"/>
      <psa10 value="0.0040415282" flag="0"/>
      <psa30 value="0.0003256787" flag="0"/>
    </comp>
    <comp name="--.HNN">
      <acc value="0.1005070934" flag="0"/>
      <vel value="0.0451287552" flag="0"/>
      <psa03 value="0.3087986170" flag="0"/>
      <psa10 value="0.0129280944" flag="0"/>
      <psa30 value="0.0012187462" flag="0"/>
    </comp>
  </station>
  <station code="GORD" name="GORD" netid="KO" insttype="CMG-5T" commtype="DIG" lat="38.9088" lon="28.1769">
    <comp name="--.HNN">
      <acc value="0.0879483594" flag="0"/>
      <vel value="0.0393025725" flag="0"/>
      <psa03 value="0.1799810512" flag="0"/>
      <psa10 value="0.0453496965" flag="0"/>
      <psa30 value="0.0022100009" flag="0"/>
    </comp>
    <comp name="--.HNE">
      <acc value="0.0744676284" flag="0"/>
      <vel value="0.0338239931" flag="0"/>
      <psa03 value="0.1575110827" flag="0"/>
      <psa10 value="0.0404861020" flag="0"/>
      <psa30 value="0.0016587818" flag="0"/>
    </comp>
    <comp name="--.HNZ">
      <acc value="0.0794562424" flag="0"/>
      <vel value="0.0301869412" flag="0"/>
      <psa03 value="0.1915074876" flag="0"/>
      <psa10 value="0.0205091642" flag="0"/>
      <psa30 value="0.0024835023" flag="0"/>
    </comp>
  </station>
  <station code="KCTX" name="KCTX" netid="KO" insttype="CMG-3ESP" commtype="DIG" lat="40.2626" lon="28.3353">
    <comp name="--.HHE">
      <acc value="0.0226184697" flag="0"/>
      <vel value="0.0099272384" flag="0"/>
      <psa03 value="0.0600839514" flag="0"/>
      <psa10 value="0.0105859683" flag="0"/>
      <psa30 value="0.0006113448" flag="0"/>
    </comp>
    <comp name="--.HHZ">
      <acc value="0.0272357564" flag="0"/>
      <vel value="0.0081623377" flag="0"/>
      <psa03 value="0.0500124683" flag="0"/>
      <psa10 value="0.0039718705" flag="0"/>
      <psa30 value="0.0005429832" flag="0"/>
    </comp>
    <comp name="--.HHN">
      <acc value="0.0418657403" flag="0"/>
      <vel value="0.0114184574" flag="0"/>
      <psa03 value="0.0875987342" flag="0"/>
      <psa10 value="0.0068077605" flag="0"/>
      <psa30 value="0.0005206024" flag="0"/>
    </comp>
  </station>
  <station code="KULA" name="KULA" netid="KO" insttype="CMG-3T" commtype="DIG" lat="38.5145" lon="28.6607">
    <comp name="--.HHN">
      <acc value="0.0458735798" flag="0"/>
      <vel value="0.0098319669" flag="0"/>
      <psa03 value="0.0500492427" flag="0"/>
      <psa10 value="0.0043572306" flag="0"/>
      <psa30 value="0.0002666059" flag="0"/>
    </comp>
  </station>
  <station code="ORLT" name="ORLT" netid="KO" insttype="CMG-5T" commtype="DIG" lat="40.0452" lon="28.8914">
    <comp name="--.HNZ">
      <acc value="0.0415047318" flag="0"/>
      <vel value="0.0151327073" flag="0"/>
      <psa03 value="0.0734802814" flag="0"/>
      <psa10 value="0.0187767748" flag="0"/>
      <psa30 value="0.0012259172" flag="0"/>
    </comp>
    <comp name="--.HNN">
      <acc value="0.1197369231" flag="0"/>
      <vel value="0.0435038958" flag="0"/>
      <psa03 value="0.3042165030" flag="0"/>
      <psa10 value="0.0282071999" flag="0"/>
      <psa30 value="0.0016886870" flag="0"/>
    </comp>
    <comp name="--.HNE">
      <acc value="0.0662273152" flag="0"/>
      <vel value="0.0302278017" flag="0"/>
      <psa03 value="0.1504975140" flag="0"/>
      <psa10 value="0.0188952259" flag="0"/>
      <psa30 value="0.0011984285" flag="0"/>
    </comp>
  </station>
  <station code="SIMA" name="SIMA" netid="KO" insttype="CMG-6T" commtype="DIG" lat="39.0833" lon="28.9825">
    <comp name="--.HHN">
      <acc value="0.0656506684" flag="0"/>
      <vel value="0.0276668462" flag="0"/>
      <psa03 value="0.1418173777" flag="0"/>
      <psa10 value="0.0083084339" flag="0"/>
      <psa30 value="0.0007468043" flag="0"/>
    </comp>
    <comp name="--.HHE">
      <acc value="0.1141932327" flag="0"/>
      <vel value="0.0147366161" flag="0"/>
      <psa03 value="0.1496370407" flag="0"/>
      <psa10 value="0.0046952075" flag="0"/>
      <psa30 value="0.0004172610" flag="0"/>
    </comp>
    <comp name="--.HHZ">
      <acc value="0.0429633305" flag="0"/>
      <vel value="0.0107178472" flag="0"/>
      <psa03 value="0.0697758990" flag="0"/>
      <psa10 value="0.0031464258" flag="0"/>
      <psa30 value="0.0002338529" flag="0"/>
    </comp>
  </station>
  <station code="SMAA" name="SMAA" netid="KO" insttype="CMG-5T" commtype="DIG" lat="39.1005" lon="28.9805">
    <comp name="--.HNE">
      <acc value="0.0876370383" flag="0"/>
      <vel value="0.0466921706" flag="0"/>
      <psa03 value="0.2446398257" flag="0"/>
      <psa10 value="0.0273510004" flag="0"/>
      <psa30 value="0.0017009202" flag="0"/>
    </comp>
    <comp name="--.HNZ">
      <acc value="0.0404984899" flag="0"/>
      <vel value="0.0108329251" flag="0"/>
      <psa03 value="0.0449913175" flag="0"/>
      <psa10 value="0.0161301540" flag="0"/>
      <psa30 value="0.0006267604" flag="0"/>
    </comp>
    <comp name="--.HNN">
      <acc value="0.0609768094" flag="0"/>
      <vel value="0.0264432001" flag="0"/>
      <psa03 value="0.1357841857" flag="0"/>
      <psa10 value="0.0149937707" flag="0"/>
      <psa30 value="0.0012749329" flag="0"/>
    </comp>
  </station>
  <station code="SOMA" name="SOMA" netid="KO" insttype="CMG-5T" commtype="DIG" lat="39.1564" lon="27.5341">
    <comp name="--.HNZ">
      <acc value="0.0331747371" flag="0"/>
      <vel value="0.0086393326" flag="0"/>
      <psa03 value="0.0595217365" flag="0"/>
      <psa10 value="0.0051602138" flag="0"/>
      <psa30 value="0.0004547761" flag="0"/>
    </comp>
    <comp name="--.HNE">
      <acc value="0.0468176995" flag="0"/>
      <vel value="0.0150786961" flag="0"/>
      <psa03 value="0.1057203942" flag="0"/>
      <psa10 value="0.0062791370" flag="0"/>
      <psa30 value="0.0003880474" flag="0"/>
    </comp>
    <comp name="--.HNN">
      <acc value="0.0644816205" flag="0"/>
      <vel value="0.0178941595" flag="0"/>
      <psa03 value="0.0832390078" flag="0"/>
      <psa10 value="0.0125092268" flag="0"/>
      <psa30 value="0.0006814435" flag="0"/>
    </comp>
  </station>
  <station code="SUSR" name="SUSR" netid="KO" insttype="CMG-5T" commtype="DIG" lat="39.9627" lon="28.0835">
    <comp name="--.HNE">
      <acc value="0.0311435044" flag="0"/>
      <vel value="0.0096423819" flag="0"/>
      <psa03 value="0.0768329482" flag="0"/>
      <psa10 value="0.0043712822" flag="0"/>
      <psa30 value="0.0003678926" flag="0"/>
    </comp>
    <comp name="--.HNZ">
      <acc value="0.0347169964" flag="0"/>
      <vel value="0.0073608711" flag="0"/>
      <psa03 value="0.0368117647" flag="0"/>
      <psa10 value="0.0024878314" flag="0"/>
      <psa30 value="0.0002580402" flag="0"/>
    </comp>
    <comp name="--.HNN">
      <acc value="0.0499297718" flag="0"/>
      <vel value="0.0162624849" flag="0"/>
      <psa03 value="0.1217700851" flag="0"/>
      <psa10 value="0.0035017516" flag="0"/>
      <psa30 value="0.0003149839" flag="0"/>
    </comp>
  </station>
  <station code="TVSB" name="TVSB" netid="KO" insttype="CMG-3T" commtype="DIG" lat="39.4497" lon="29.4615">
    <comp name="--.HHE">
      <acc value="0.0383839993" flag="0"/>
      <vel value="0.0223354180" flag="0"/>
      <psa03 value="0.0874244531" flag="0"/>
      <psa10 value="0.0126715673" flag="0"/>
      <psa30 value="0.0008597124" flag="0"/>
    </comp>
    <comp name="--.HHN">
      <acc value="0.0409509836" flag="0"/>
      <vel value="0.0117157720" flag="0"/>
      <psa03 value="0.0681871432" flag="0"/>
      <psa10 value="0.0041409755" flag="0"/>
      <psa30 value="0.0003307960" flag="0"/>
    </comp>
    <comp name="--.HHZ">
      <acc value="0.0255775786" flag="0"/>
      <vel value="0.0073569110" flag="0"/>
      <psa03 value="0.0333222426" flag="0"/>
      <psa10 value="0.0057675546" flag="0"/>
      <psa30 value="0.0002777909" flag="0"/>
    </comp>
  </station>
  <station code="YAYO" name="YAYO" netid="KO" insttype="CMG-6T" commtype="DIG" lat="39.6113" lon="27.0726">
    <comp name="--.HHE">
      <acc value="0.0156720494" flag="0"/>
      <vel value="0.0070036732" flag="0"/>
      <psa03 value="0.0325360652" flag="0"/>
      <psa10 value="0.0070418279" flag="0"/>
      <psa30 value="0.0004315640" flag="0"/>
    </comp>
    <comp name="--.HHN">
      <acc value="0.0151383613" flag="0"/>
      <vel value="0.0091567167" flag="0"/>
      <psa03 value="0.0459207881" flag="0"/>
      <psa10 value="0.0041356104" flag="0"/>
      <psa30 value="0.0002451676" flag="0"/>
    </comp>
    <comp name="--.HHZ">
      <acc value="0.0093987134" flag="0"/>
      <vel value="0.0057065768" flag="0"/>
      <psa03 value="0.0266165975" flag="0"/>
      <psa10 value="0.0028788723" flag="0"/>
      <psa30 value="0.0002310800" flag="0"/>
    </comp>
  </station>
  <station code="YENI" name="YENI" netid="KO" insttype="CMG-5T" commtype="DIG" lat="39.9364" lon="27.2422">
    <comp name="--.HNZ">
      <acc value="0.0167307380" flag="0"/>
      <vel value="0.0062035693" flag="0"/>
      <psa03 value="0.0363855791" flag="0"/>
      <psa10 value="0.0045522352" flag="0"/>
      <psa30 value="0.0003163396" flag="0"/>
    </comp>
    <comp name="--.HNE">
      <acc value="0.0347552490" flag="0"/>
      <vel value="0.0180759620" flag="0"/>
      <psa03 value="0.0899708746" flag="0"/>
      <psa10 value="0.0184217640" flag="0"/>
      <psa30 value="0.0010705155" flag="0"/>
    </comp>
    <comp name="--.HNN">
      <acc value="0.0525710046" flag="0"/>
      <vel value="0.0243890891" flag="0"/>
      <psa03 value="0.1307670557" flag="0"/>
      <psa10 value="0.0114095898" flag="0"/>
      <psa30 value="0.0007663409" flag="0"/>
    </comp>
  </station>
</stationlist>
