<?xml version="1.0" encoding="UTF-8" standalone="yes"?>
<!DOCTYPE earthquake SYSTEM "stationlist.dtd">
<stationlist created="" xmlns="ch.ethz.sed.shakemap.usgs.xml">
  <station code="AKS" name="AKS" netid="KO" insttype="CMG-5T" commtype="DIG" lat="38.8785" lon="27.8129">
    <comp name="--.HNN">
      <acc value="0.1075443350" flag="0"/>
      <vel value="0.0329154871" flag="0"/>
      <psa03 value="0.1569882654" flag="0"/>
      <psa10 value="0.0104094558" flag="0"/>
      <psa30 value="0.0007027892" flag="0"/>
    </comp>
  </station>
  <station code="BALB" name="BALB" netid="KO" insttype="CMG-5T" commtype="DIG" lat="39.6507" lon="27.8642">
    <comp name="--.HNN">
      <acc value="0.0416716291" flag="0"/>
      <vel value="0.0137002462" flag="0"/>
      <psa03 value="0.0833140775" flag="0"/>
      <psa10 value="0.0099096114" flag="0"/>
      <psa30 value="0.0007675772" flag="0"/>
    </comp>
    <comp name="--.HNZ">
      <acc value="0.0395783706" flag="0"/>
      <vel value="0.0077575503" flag="0"/>
      <psa03 value="0.0325223163" flag="0"/>
      <psa10 value="0.0052501515" flag="0"/>
      <psa30 value="0.0004114801" flag="0"/>
    </comp>
    <comp name="--.HNE">
      <acc value="0.0430687166" flag="0"/>
      <vel value="0.0162525794" flag="0"/>
      <psa03 value="0.0808884023" flag="0"/>
      <psa10 value="0.0137108878" flag="0"/>
      <psa30 value="0.0008330505" flag="0"/>
    </comp>
  </station>
  <station code="DKL" name="DKL" netid="KO" insttype="CMG-3ESPC" commtype="DIG" lat="39.0713" lon="26.9053">
    <comp name="--.HHN">
      <acc value="0.0236188107" flag="0"/>
      <vel value="0.0038531085" flag="0"/>
      <psa03 value="0.0194781284" flag="0"/>
      <psa10 value="0.0045837831" flag="0"/>
      <psa30 value="0.0004909879" flag="0"/>
    </comp>
    <comp name="--.HHZ">
      <acc value="0.0295211814" flag="0"/>
      <vel value="0.0021051890" flag="0"/>
      <psa03 value="0.0153770406" flag="0"/>
      <psa10 value="0.0024725797" flag="0"/>
      <psa30 value="0.0003226681" flag="0"/>
    </comp>
  </station>
  <station code="DST" name="DST" netid="KO" insttype="CMG-5T" commtype="DIG" lat="39.6041" lon="28.6267">
    <comp name="--.HNN">
      <acc value="0.1007163879" flag="0"/>
      <vel value="0.0252562669" flag="0"/>
      <psa03 value="0.0802408627" flag="0"/>
      <psa10 value="0.0071363760" flag="0"/>
      <psa30 value="0.0006691395" flag="0"/>
    </comp>
    <comp name="--.HNZ">
      <acc value="0.0543916090" flag="0"/>
      <vel value="0.0158943166" flag="0"/>
      <psa03 value="0.1119819140" flag="0"/>
      <psa10 value="0.0047266450" flag="0"/>
      <psa30 value="0.0009138631" flag="0"/>
    </comp>
    <comp name="--.HNE">
      <acc value="0.0666894666" flag="0"/>
      <vel value="0.0178660022" flag="0"/>
      <psa03 value="0.1078169810" flag="0"/>
      <psa10 value="0.0074548268" flag="0"/>
      <psa30 value="0.0007432835" flag="0"/>
    </comp>
  </station>
  <station code="GEDZ" name="GEDZ" netid="KO" insttype="CMG-6T" commtype="DIG" lat="39.0445" lon="29.4105">
    <comp name="--.HHE">
      <acc value="0.0760634540" flag="0"/>
      <vel value="0.0235618611" flag="0"/>
      <psa03 value="0.1294409701" flag="0"/>
      <psa10 value="0.0173882515" flag="0"/>
      <psa30 value="0.0009835510" flag="0"/>
    </comp>
    <comp name="--.HHN">
      <acc value="0.0585897928" flag="0"/>
      <vel value="0.0251083450" flag="0"/>
      <psa03 value="0.1424856752" flag="0"/>
      <psa10 value="0.0203339082" flag="0"/>
      <psa30 value="0.0008667743" flag="0"/>
    </comp>
    <comp name="--.HHZ">
      <acc value="0.0387170475" flag="0"/>
      <vel value="0.0107902534" flag="0"/>
      <psa03 value="0.0438224676" flag="0"/>
      <psa10 value="0.0060407875" flag="0"/>
      <psa30 value="0.0003874976" flag="0"/>
    </comp>
  </station>
  <station code="GOMA" name="GOMA" netid="KO" insttype="CMG-5T" commtype="DIG" lat="38.7077" lon="27.9175">
    <comp name="--.HNE">
      <acc value="0.0679248558" flag="0"/>
      <vel value="0.0308924536" flag="0"/>
      <psa03 value="0.1942463407" flag="0"/>
      <psa10 value="0.0116860448" flag="0"/>
      <psa30 value="0.0008617739" flag="0"/>
    </comp>
    <comp name="--.HNZ">
      <acc value="0.0668062637" flag="0"/>
      <vel value="0.0198767450" flag="0"/>
      <psa03 value="0.1216861699" flag="0"/>
      <psa10 value="0.0061987768" flag="0"/>
      <psa30 value="0.0008928763" flag="0"/>
    </comp>
    <comp name="--.HNN">
      <acc value="0.0589479469" flag="0"/>
      <vel value="0.0349801129" flag="0"/>
      <psa03 value="0.2110427348" flag="0"/>
      <psa10 value="0.0089201440" flag="0"/>
      <psa30 value="0.0012666763" flag="0"/>
    </comp>
  </station>
  <station code="GONE" name="GONE" netid="KO" insttype="CMG-5T" commtype="DIG" lat="40.0466" lon="27.686">
    <comp name="--.HNZ">
      <acc value="0.0184594639" flag="0"/>
      <vel value="0.0060491534" flag="0"/>
      <psa03 value="0.0505298342" flag="0"/>
      <psa10 value="0.0040415282" flag="0"/>
      <psa30 value="0.0003258293" flag="0"/>
    </comp>
    <comp name="--.HNE">
      <acc value="0.0412160229" flag="0"/>
      <vel value="0.0166523073" flag="0"/>
      <psa03 value="0.1035479558" flag="0"/>
      <psa10 value="0.0136040247" flag="0"/>
      <psa30 value="0.0006387986" flag="0"/>
    </comp>
    <comp name="--.HNN">
      <acc value="0.1005070948" flag="0"/>
      <vel value="0.0451287591" flag="0"/>
      <psa03 value="0.3087986170" flag="0"/>
      <psa10 value="0.0129280941" flag="0"/>
      <psa30 value="0.0012185320" flag="0"/>
    </comp>
  </station>
  <station code="GORD" name="GORD" netid="KO" insttype="CMG-5T" commtype="DIG" lat="38.9088" lon="28.1769">
    <comp name="--.HNE">
      <acc value="0.0744676284" flag="0"/>
      <vel value="0.0338239928" flag="0"/>
      <psa03 value="0.1575110827" flag="0"/>
      <psa10 value="0.0404861022" flag="0"/>
      <psa30 value="0.0016587848" flag="0"/>
    </comp>
    <comp name="--.HNZ">
      <acc value="0.0794562424" flag="0"/>
      <vel value="0.0301869413" flag="0"/>
      <psa03 value="0.1915074876" flag="0"/>
      <psa10 value="0.0205091640" flag="0"/>
      <psa30 value="0.0024835012" flag="0"/>
    </comp>
    <comp name="--.HNN">
      <acc value="0.0879483593" flag="0"/>
      <vel value="0.0393025724" flag="0"/>
      <psa03 value="0.1799810512" flag="0"/>
      <psa10 value="0.0453496965" flag="0"/>
      <psa30 value="0.0022100156" flag="0"/>
    </comp>
  </station>
  <station code="KCTX" name="KCTX" netid="KO" insttype="CMG-3ESP" commtype="DIG" lat="40.2626" lon="28.3353">
    <comp name="--.HHZ">
      <acc value="0.0272357563" flag="0"/>
      <vel value="0.0081623392" flag="0"/>
      <psa03 value="0.0500124683" flag="0"/>
      <psa10 value="0.0039718706" flag="0"/>
      <psa30 value="0.0005430195" flag="0"/>
    </comp>
    <comp name="--.HHN">
      <acc value="0.0418657403" flag="0"/>
      <vel value="0.0114184603" flag="0"/>
      <psa03 value="0.0875987342" flag="0"/>
      <psa10 value="0.0068077603" flag="0"/>
      <psa30 value="0.0005207198" flag="0"/>
    </comp>
    <comp name="--.HHE">
      <acc value="0.0226184696" flag="0"/>
      <vel value="0.0099272389" flag="0"/>
      <psa03 value="0.0600839514" flag="0"/>
      <psa10 value="0.0105859682" flag="0"/>
      <psa30 value="0.0006113048" flag="0"/>
    </comp>
  </station>
  <station code="KULA" name="KULA" netid="KO" insttype="CMG-3T" commtype="DIG" lat="38.5145" lon="28.6607">
    <comp name="--.HHN">
      <acc value="0.0458735798" flag="0"/>
      <vel value="0.0098319669" flag="0"/>
      <psa03 value="0.0500492427" flag="0"/>
      <psa10 value="0.0043572306" flag="0"/>
      <psa30 value="0.0002666044" flag="0"/>
    </comp>
  </station>
  <station code="ORLT" name="ORLT" netid="KO" insttype="CMG-5T" commtype="DIG" lat="40.0452" lon="28.8914">
    <comp name="--.HNE">
      <acc value="0.0662273142" flag="0"/>
      <vel value="0.0302278118" flag="0"/>
      <psa03 value="0.1504975140" flag="0"/>
      <psa10 value="0.0188952262" flag="0"/>
      <psa30 value="0.0011977887" flag="0"/>
    </comp>
    <comp name="--.HNZ">
      <acc value="0.0415047233" flag="0"/>
      <vel value="0.0151326993" flag="0"/>
      <psa03 value="0.0734802814" flag="0"/>
      <psa10 value="0.0187767744" flag="0"/>
      <psa30 value="0.0012259983" flag="0"/>
    </comp>
    <comp name="--.HNN">
      <acc value="0.1197369195" flag="0"/>
      <vel value="0.0435038993" flag="0"/>
      <psa03 value="0.3042165030" flag="0"/>
      <psa10 value="0.0282071994" flag="0"/>
      <psa30 value="0.0016901095" flag="0"/>
    </comp>
  </station>
  <station code="SIMA" name="SIMA" netid="KO" insttype="CMG-6T" commtype="DIG" lat="39.0833" lon="28.9825">
    <comp name="--.HHN">
      <acc value="0.0656506699" flag="0"/>
      <vel value="0.0276668510" flag="0"/>
      <psa03 value="0.1418173777" flag="0"/>
      <psa10 value="0.0083084339" flag="0"/>
      <psa30 value="0.0007468270" flag="0"/>
    </comp>
    <comp name="--.HHE">
      <acc value="0.1141932368" flag="0"/>
      <vel value="0.0147366221" flag="0"/>
      <psa03 value="0.1496370407" flag="0"/>
      <psa10 value="0.0046952074" flag="0"/>
      <psa30 value="0.0004172864" flag="0"/>
    </comp>
    <comp name="--.HHZ">
      <acc value="0.0429633302" flag="0"/>
      <vel value="0.0107178497" flag="0"/>
      <psa03 value="0.0697758990" flag="0"/>
      <psa10 value="0.0031464257" flag="0"/>
      <psa30 value="0.0002339051" flag="0"/>
    </comp>
  </station>
  <station code="SMAA" name="SMAA" netid="KO" insttype="CMG-5T" commtype="DIG" lat="39.1005" lon="28.9805">
    <comp name="--.HNN">
      <acc value="0.0609768102" flag="0"/>
      <vel value="0.0264431927" flag="0"/>
      <psa03 value="0.1357841857" flag="0"/>
      <psa10 value="0.0149937702" flag="0"/>
      <psa30 value="0.0012753509" flag="0"/>
    </comp>
    <comp name="--.HNZ">
      <acc value="0.0404984909" flag="0"/>
      <vel value="0.0108329168" flag="0"/>
      <psa03 value="0.0449913175" flag="0"/>
      <psa10 value="0.0161301542" flag="0"/>
      <psa30 value="0.0006277462" flag="0"/>
    </comp>
    <comp name="--.HNE">
      <acc value="0.0876370400" flag="0"/>
      <vel value="0.0466921745" flag="0"/>
      <psa03 value="0.2446398257" flag="0"/>
      <psa10 value="0.0273510008" flag="0"/>
      <psa30 value="0.0017010630" flag="0"/>
    </comp>
  </station>
  <station code="SOMA" name="SOMA" netid="KO" insttype="CMG-5T" commtype="DIG" lat="39.1564" lon="27.5341">
    <comp name="--.HNE">
      <acc value="0.0468176990" flag="0"/>
      <vel value="0.0150786963" flag="0"/>
      <psa03 value="0.1057203942" flag="0"/>
      <psa10 value="0.0062791370" flag="0"/>
      <psa30 value="0.0003880512" flag="0"/>
    </comp>
    <comp name="--.HNN">
      <acc value="0.0644816204" flag="0"/>
      <vel value="0.0178941599" flag="0"/>
      <psa03 value="0.0832390078" flag="0"/>
      <psa10 value="0.0125092263" flag="0"/>
      <psa30 value="0.0006814600" flag="0"/>
    </comp>
    <comp name="--.HNZ">
      <acc value="0.0331747372" flag="0"/>
      <vel value="0.0086393322" flag="0"/>
      <psa03 value="0.0595217365" flag="0"/>
      <psa10 value="0.0051602139" flag="0"/>
      <psa30 value="0.0004547831" flag="0"/>
    </comp>
  </station>
  <station code="SUSR" name="SUSR" netid="KO" insttype="CMG-5T" commtype="DIG" lat="39.9627" lon="28.0835">
    <comp name="--.HNZ">
      <acc value="0.0347169976" flag="0"/>
      <vel value="0.0073608693" flag="0"/>
      <psa03 value="0.0368117647" flag="0"/>
      <psa10 value="0.0024878284" flag="0"/>
      <psa30 value="0.0002581985" flag="0"/>
    </comp>
    <comp name="--.HNN">
      <acc value="0.0499297714" flag="0"/>
      <vel value="0.0162624852" flag="0"/>
      <psa03 value="0.1217700851" flag="0"/>
      <psa10 value="0.0035017502" flag="0"/>
      <psa30 value="0.0003150913" flag="0"/>
    </comp>
    <comp name="--.HNE">
      <acc value="0.0311435068" flag="0"/>
      <vel value="0.0096423867" flag="0"/>
      <psa03 value="0.0768329482" flag="0"/>
      <psa10 value="0.0043712834" flag="0"/>
      <psa30 value="0.0003680453" flag="0"/>
    </comp>
  </station>
  <station code="TVSB" name="TVSB" netid="KO" insttype="CMG-3T" commtype="DIG" lat="39.4497" lon="29.4615">
    <comp name="--.HHE">
      <acc value="0.0383839996" flag="0"/>
      <vel value="0.0223354179" flag="0"/>
      <psa03 value="0.0874244531" flag="0"/>
      <psa10 value="0.0126715673" flag="0"/>
      <psa30 value="0.0008597348" flag="0"/>
    </comp>
    <comp name="--.HHZ">
      <acc value="0.0255775786" flag="0"/>
      <vel value="0.0073569108" flag="0"/>
      <psa03 value="0.0333222426" flag="0"/>
      <psa10 value="0.0057675546" flag="0"/>
      <psa30 value="0.0002777623" flag="0"/>
    </comp>
    <comp name="--.HHN">
      <acc value="0.0409509837" flag="0"/>
      <vel value="0.0117157717" flag="0"/>
      <psa03 value="0.0681871432" flag="0"/>
      <psa10 value="0.0041409755" flag="0"/>
      <psa30 value="0.0003307981" flag="0"/>
    </comp>
  </station>
  <station code="YAYO" name="YAYO" netid="KO" insttype="CMG-6T" commtype="DIG" lat="39.6113" lon="27.0726">
    <comp name="--.HHZ">
      <acc value="0.0093987136" flag="0"/>
      <vel value="0.0057065767" flag="0"/>
      <psa03 value="0.0266165975" flag="0"/>
      <psa10 value="0.0028788722" flag="0"/>
      <psa30 value="0.0002310958" flag="0"/>
    </comp>
    <comp name="--.HHN">
      <acc value="0.0151383613" flag="0"/>
      <vel value="0.0091567166" flag="0"/>
      <psa03 value="0.0459207881" flag="0"/>
      <psa10 value="0.0041356104" flag="0"/>
      <psa30 value="0.0002451840" flag="0"/>
    </comp>
    <comp name="--.HHE">
      <acc value="0.0156720494" flag="0"/>
      <vel value="0.0070036745" flag="0"/>
      <psa03 value="0.0325360652" flag="0"/>
      <psa10 value="0.0070418279" flag="0"/>
      <psa30 value="0.0004315667" flag="0"/>
    </comp>
  </station>
  <station code="YENI" name="YENI" netid="KO" insttype="CMG-5T" commtype="DIG" lat="39.9364" lon="27.2422">
    <comp name="--.HNN">
      <acc value="0.0525710057" flag="0"/>
      <vel value="0.0243890753" flag="0"/>
      <psa03 value="0.1307670557" flag="0"/>
      <psa10 value="0.0114095901" flag="0"/>
      <psa30 value="0.0007666404" flag="0"/>
    </comp>
    <comp name="--.HNE">
      <acc value="0.0347552474" flag="0"/>
      <vel value="0.0180759589" flag="0"/>
      <psa03 value="0.0899708746" flag="0"/>
      <psa10 value="0.0184217647" flag="0"/>
      <psa30 value="0.0010698775" flag="0"/>
    </comp>
    <comp name="--.HNZ">
      <acc value="0.0167307383" flag="0"/>
      <vel value="0.0062035694" flag="0"/>
      <psa03 value="0.0363855791" flag="0"/>
      <psa10 value="0.0045522351" flag="0"/>
      <psa30 value="0.0003167363" flag="0"/>
    </comp>
  </station>
</stationlist>
