<stationlist created="1778205399">
	<station code="3502" name="3502" netid="TK" source="Turkish National Strong Motion Network (TNSMN)" insttype="" lat="38.45514" lon="27.22673">
		<comp name="00.HNE" depth="None">
			<acc value="0.114033226534634" flag="0"/>
			<vel value="0.087925177966907" flag="0"/>
			<psa03 value="0.343709631241564" flag="0"/>
			<psa10 value="0.116124817901195" flag="0"/>
			<psa30 value="0.0040540913416816" flag="0"/>
		</comp>
		<comp name="00.HNN" depth="None">
			<acc value="0.171250724236541" flag="0"/>
			<vel value="0.0996098330798986" flag="0"/>
			<psa03 value="0.340488192365048" flag="0"/>
			<psa10 value="0.087933200933088" flag="0"/>
			<psa30 value="0.0054236502862669" flag="0"/>
		</comp>
		<comp name="00.HNZ" depth="None">
			<acc value="0.0811602646921406" flag="0"/>
			<vel value="0.028367770473815" flag="0"/>
			<psa03 value="0.130915696565063" flag="0"/>
			<psa10 value="0.0330519628730497" flag="0"/>
			<psa30 value="0.00194404887756391" flag="0"/>
		</comp>
	</station>
</stationlist>
