<?xml version="1.0" encoding="UTF-8" standalone="yes"?>
<!DOCTYPE earthquake SYSTEM "stationlist.dtd">
<stationlist created="" xmlns="ch.ethz.sed.shakemap.usgs.xml">
  <station code="APE" name="APE" netid="GE" insttype="STS-2/N" lat="37.0727" lon="25.523">
    <comp name="--.HHE">
      <acc value="0.3809106476" flag="0"/>
      <vel value="0.1295368425" flag="0"/>
      <psa03 value="0.3956911488" flag="0"/>
      <psa10 value="0.0861670629" flag="0"/>
      <psa30 value="0.0299275288" flag="0"/>
    </comp>
    <comp name="--.HHN">
      <acc value="0.4942433824" flag="0"/>
      <vel value="0.1686747108" flag="0"/>
      <psa03 value="0.4277981527" flag="0"/>
      <psa10 value="0.1245027860" flag="0"/>
      <psa30 value="0.0370270295" flag="0"/>
    </comp>
    <comp name="--.HHZ">
      <acc value="0.2011363640" flag="0"/>
      <vel value="0.0792461207" flag="0"/>
      <psa03 value="0.3569796601" flag="0"/>
      <psa10 value="0.0802512469" flag="0"/>
      <psa30 value="0.0372951180" flag="0"/>
    </comp>
  </station>
  <station code="THERA" name="THERA" netid="GE" insttype="STS-2/N" lat="36.367" lon="25.4753">
    <comp name="--.HHE">
      <acc value="0.4835277466" flag="0"/>
      <vel value="0.2253281060" flag="0"/>
      <psa03 value="1.0783909496" flag="0"/>
      <psa10 value="0.1761486051" flag="0"/>
      <psa30 value="0.0345293071" flag="0"/>
    </comp>
    <comp name="--.HHN">
      <acc value="0.5249254699" flag="0"/>
      <vel value="0.1874262243" flag="0"/>
      <psa03 value="0.9247448681" flag="0"/>
      <psa10 value="0.1222673540" flag="0"/>
      <psa30 value="0.0132760702" flag="0"/>
    </comp>
    <comp name="--.HHZ">
      <acc value="0.4591101532" flag="0"/>
      <vel value="0.1917203072" flag="0"/>
      <psa03 value="0.6285506060" flag="0"/>
      <psa10 value="0.1983914236" flag="0"/>
      <psa30 value="0.0179943209" flag="0"/>
    </comp>
  </station>
  <station code="ZKR" name="ZKR" netid="GE" insttype="STS-2/N" lat="35.1147" lon="26.2169">
    <comp name="--.HHN">
      <acc value="0.0103901787" flag="0"/>
      <vel value="0.0112010632" flag="0"/>
      <psa03 value="0.0256630031" flag="0"/>
      <psa10 value="0.0220695967" flag="0"/>
      <psa30 value="0.0029981409" flag="0"/>
    </comp>
    <comp name="--.HHE">
      <acc value="0.0306266659" flag="0"/>
      <vel value="0.0259834545" flag="0"/>
      <psa03 value="0.0640938320" flag="0"/>
      <psa10 value="0.0502627008" flag="0"/>
      <psa30 value="0.0047567304" flag="0"/>
    </comp>
    <comp name="--.HHZ">
      <acc value="0.0170176225" flag="0"/>
      <vel value="0.0153266318" flag="0"/>
      <psa03 value="0.0402787129" flag="0"/>
      <psa10 value="0.0208221346" flag="0"/>
      <psa30 value="0.0042488272" flag="0"/>
    </comp>
  </station>
  <station code="SERI" name="SERI" netid="HA" insttype="30" lat="37.1609" lon="24.4853">
    <comp name="--.HHE">
      <acc value="0.0865578324" flag="0"/>
      <vel value="0.0443857273" flag="0"/>
      <psa03 value="0.1779167787" flag="0"/>
      <psa10 value="0.0299102487" flag="0"/>
      <psa30 value="0.0097381010" flag="0"/>
    </comp>
    <comp name="--.HHN">
      <acc value="0.0937515588" flag="0"/>
      <vel value="0.0539142014" flag="0"/>
      <psa03 value="0.1887704964" flag="0"/>
      <psa10 value="0.0539092817" flag="0"/>
      <psa30 value="0.0125509669" flag="0"/>
    </comp>
    <comp name="--.HHZ">
      <acc value="0.0551412638" flag="0"/>
      <vel value="0.0327007828" flag="0"/>
      <psa03 value="0.0777347045" flag="0"/>
      <psa10 value="0.0317922691" flag="0"/>
      <psa30 value="0.0116052929" flag="0"/>
    </comp>
  </station>
  <station code="SNT1" name="SNT1" netid="HA" insttype="30" lat="36.4159" lon="25.4282">
    <comp name="--.HHN">
      <acc value="1.0239191704" flag="0"/>
      <vel value="0.6935851445" flag="0"/>
      <psa03 value="1.8164904858" flag="0"/>
      <psa10 value="0.4940633119" flag="0"/>
      <psa30 value="0.0413719835" flag="0"/>
    </comp>
    <comp name="--.HHE">
      <acc value="0.5814341934" flag="0"/>
      <vel value="0.3609830700" flag="0"/>
      <psa03 value="0.9022506312" flag="0"/>
      <psa10 value="0.3985984515" flag="0"/>
      <psa30 value="0.0581516393" flag="0"/>
    </comp>
    <comp name="--.HHZ">
      <acc value="0.5012885295" flag="0"/>
      <vel value="0.2525643920" flag="0"/>
      <psa03 value="0.7450457226" flag="0"/>
      <psa10 value="0.3171861646" flag="0"/>
      <psa30 value="0.0249683215" flag="0"/>
    </comp>
  </station>
  <station code="SNT5" name="SNT5" netid="HA" insttype="1s-100Hz," lat="36.4037" lon="25.3953">
    <comp name="--.HHZ">
      <acc value="0.6833976616" flag="0"/>
      <vel value="0.2488773326" flag="0"/>
      <psa03 value="1.2002341652" flag="0"/>
      <psa10 value="0.2281711803" flag="0"/>
      <psa30 value="0.0193085806" flag="0"/>
    </comp>
    <comp name="--.HHE">
      <acc value="2.3302631199" flag="0"/>
      <vel value="0.7906547182" flag="0"/>
      <psa03 value="4.6963534883" flag="0"/>
      <psa10 value="0.7143085503" flag="0"/>
      <psa30 value="0.0639427702" flag="0"/>
    </comp>
    <comp name="--.HHN">
      <acc value="1.3014169314" flag="0"/>
      <vel value="0.4311170083" flag="0"/>
      <psa03 value="2.7705647093" flag="0"/>
      <psa10 value="0.2696812204" flag="0"/>
      <psa30 value="0.0404512443" flag="0"/>
    </comp>
  </station>
  <station code="KNSS" name="KNSS" netid="HC" insttype="60" lat="35.3042" lon="25.1802">
    <comp name="--.HHN">
      <acc value="0.0422853611" flag="0"/>
      <vel value="0.0393474044" flag="0"/>
      <psa03 value="0.1165072542" flag="0"/>
      <psa10 value="0.0412096621" flag="0"/>
      <psa30 value="0.0063421913" flag="0"/>
    </comp>
    <comp name="--.HHZ">
      <acc value="0.0483128923" flag="0"/>
      <vel value="0.0323769109" flag="0"/>
      <psa03 value="0.1092891192" flag="0"/>
      <psa10 value="0.0398017986" flag="0"/>
      <psa30 value="0.0060539505" flag="0"/>
    </comp>
    <comp name="--.HHE">
      <acc value="0.0000000000" flag="0"/>
      <vel value="-100.0000000000" flag="0"/>
      <psa03 value="0.0000000000" flag="0"/>
      <psa10 value="0.0000000000" flag="0"/>
      <psa30 value="0.0000000000" flag="0"/>
    </comp>
  </station>
  <station code="PFKS" name="PFKS" netid="HC" insttype="120" lat="35.0429" lon="25.4733">
    <comp name="--.HHE">
      <acc value="0.0407054204" flag="0"/>
      <vel value="0.0376452695" flag="0"/>
      <psa03 value="0.1128882531" flag="0"/>
      <psa10 value="0.0642778600" flag="0"/>
      <psa30 value="0.0045586087" flag="0"/>
    </comp>
    <comp name="--.HHN">
      <acc value="0.0709559457" flag="0"/>
      <vel value="0.0410160819" flag="0"/>
      <psa03 value="0.1478267268" flag="0"/>
      <psa10 value="0.0399981944" flag="0"/>
      <psa30 value="0.0045275438" flag="0"/>
    </comp>
    <comp name="--.HHZ">
      <acc value="0.0277389578" flag="0"/>
      <vel value="0.0191233196" flag="0"/>
      <psa03 value="0.0665020249" flag="0"/>
      <psa10 value="0.0230444124" flag="0"/>
      <psa30 value="0.0025179601" flag="0"/>
    </comp>
  </station>
  <station code="STIA" name="STIA" netid="HC" insttype="120" lat="35.2021" lon="26.0909">
    <comp name="--.HHE">
      <acc value="0.0492016330" flag="0"/>
      <vel value="0.0592425160" flag="0"/>
      <psa03 value="0.1002166459" flag="0"/>
      <psa10 value="0.1064482980" flag="0"/>
      <psa30 value="0.0089804420" flag="0"/>
    </comp>
    <comp name="--.HHN">
      <acc value="0.0483198060" flag="0"/>
      <vel value="0.0562749156" flag="0"/>
      <psa03 value="0.1097437571" flag="0"/>
      <psa10 value="0.0808775153" flag="0"/>
      <psa30 value="0.0088677671" flag="0"/>
    </comp>
    <comp name="--.HHZ">
      <acc value="0.0341947375" flag="0"/>
      <vel value="0.0219778361" flag="0"/>
      <psa03 value="0.0850094224" flag="0"/>
      <psa10 value="0.0289735832" flag="0"/>
      <psa30 value="0.0060787435" flag="0"/>
    </comp>
  </station>
  <station code="TEFL" name="TEFL" netid="HC" insttype="GEOtiny," lat="35.0933" lon="25.1634">
    <comp name="--.HHE">
      <acc value="0.0997463781" flag="0"/>
      <vel value="0.0696003067" flag="0"/>
      <psa03 value="0.2438421492" flag="0"/>
      <psa10 value="0.1386050823" flag="0"/>
      <psa30 value="0.0076388355" flag="0"/>
    </comp>
    <comp name="--.HHZ">
      <acc value="0.0474062044" flag="0"/>
      <vel value="0.0298074707" flag="0"/>
      <psa03 value="0.0926519812" flag="0"/>
      <psa10 value="0.0536014932" flag="0"/>
      <psa30 value="0.0036467001" flag="0"/>
    </comp>
    <comp name="--.HHN">
      <acc value="0.0978230630" flag="0"/>
      <vel value="0.0877695558" flag="0"/>
      <psa03 value="0.2754559438" flag="0"/>
      <psa10 value="0.1185763428" flag="0"/>
      <psa30 value="0.0103864707" flag="0"/>
    </comp>
  </station>
  <station code="HER1" name="HER1" netid="HI" insttype="unknown" lat="35.3177" lon="25.1022">
    <comp name="--.HNN">
      <acc value="0.1128194083" flag="0"/>
      <vel value="0.1550240552" flag="0"/>
      <psa03 value="0.3156853221" flag="0"/>
      <psa10 value="0.2752948839" flag="0"/>
      <psa30 value="0.0158712845" flag="0"/>
    </comp>
    <comp name="--.HNE">
      <acc value="0.0969683810" flag="0"/>
      <vel value="0.1665643230" flag="0"/>
      <psa03 value="0.2469958991" flag="0"/>
      <psa10 value="0.3119632384" flag="0"/>
      <psa30 value="0.0244649160" flag="0"/>
    </comp>
    <comp name="--.HNZ">
      <acc value="0.1295251482" flag="0"/>
      <vel value="0.1137145685" flag="0"/>
      <psa03 value="0.2493975613" flag="0"/>
      <psa10 value="0.1767166339" flag="0"/>
      <psa30 value="0.0099914515" flag="0"/>
    </comp>
  </station>
  <station code="NAX1" name="NAX1" netid="HI" insttype="CMG-5TD,ACCELEROMETER,GURALP" lat="37.1014" lon="25.3741">
    <comp name="--.HNE">
      <acc value="0.3751436042" flag="0"/>
      <vel value="0.1603541066" flag="0"/>
      <psa03 value="0.6458619182" flag="0"/>
      <psa10 value="0.1017612208" flag="0"/>
      <psa30 value="0.0138967420" flag="0"/>
    </comp>
    <comp name="--.HNZ">
      <acc value="0.1921084254" flag="0"/>
      <vel value="0.0737132691" flag="0"/>
      <psa03 value="0.2126192752" flag="0"/>
      <psa10 value="0.0767744170" flag="0"/>
      <psa30 value="0.0317702623" flag="0"/>
    </comp>
    <comp name="--.HNN">
      <acc value="0.3166198498" flag="0"/>
      <vel value="0.0968024214" flag="0"/>
      <psa03 value="0.5182254042" flag="0"/>
      <psa10 value="0.0571217655" flag="0"/>
      <psa30 value="0.0259528541" flag="0"/>
    </comp>
  </station>
  <station code="SFR2" name="SFR2" netid="HI" insttype="unknown" lat="36.3998" lon="25.4382">
    <comp name="--.HNN">
      <acc value="1.2386499300" flag="0"/>
      <vel value="0.8028394643" flag="0"/>
      <psa03 value="2.4477480882" flag="0"/>
      <psa10 value="0.9271694994" flag="0"/>
      <psa30 value="0.0539026694" flag="0"/>
    </comp>
    <comp name="--.HNZ">
      <acc value="1.3622824965" flag="0"/>
      <vel value="0.6497683366" flag="0"/>
      <psa03 value="2.9702411223" flag="0"/>
      <psa10 value="0.3788268594" flag="0"/>
      <psa30 value="0.0285814134" flag="0"/>
    </comp>
    <comp name="--.HNE">
      <acc value="1.8409019181" flag="0"/>
      <vel value="0.6942700762" flag="0"/>
      <psa03 value="2.9206380809" flag="0"/>
      <psa10 value="0.6602874475" flag="0"/>
      <psa30 value="0.0533439414" flag="0"/>
    </comp>
  </station>
  <station code="AMGA" name="AMGA" netid="HL" insttype="SMART24" lat="36.8316" lon="25.8938">
    <comp name="--.HHZ">
      <acc value="2.2786952910" flag="0"/>
      <vel value="0.5646027720" flag="0"/>
      <psa03 value="1.8215738094" flag="0"/>
      <psa10 value="0.2155785749" flag="0"/>
      <psa30 value="0.0601648387" flag="0"/>
    </comp>
    <comp name="--.HHN">
      <acc value="2.4760862330" flag="0"/>
      <vel value="0.5405265231" flag="0"/>
      <psa03 value="2.4699969952" flag="0"/>
      <psa10 value="0.4130512761" flag="0"/>
      <psa30 value="0.0804194959" flag="0"/>
    </comp>
    <comp name="--.HHE">
      <acc value="2.5161344030" flag="0"/>
      <vel value="0.5110554417" flag="0"/>
      <psa03 value="2.1224368114" flag="0"/>
      <psa10 value="0.4701626462" flag="0"/>
      <psa30 value="0.0392630335" flag="0"/>
    </comp>
  </station>
  <station code="APE" name="APE" netid="HL" insttype="120" lat="37.0727" lon="25.523">
    <comp name="--.HHE">
      <acc value="0.3455322541" flag="0"/>
      <vel value="0.1278086545" flag="0"/>
      <psa03 value="0.3859586114" flag="0"/>
      <psa10 value="0.0852020530" flag="0"/>
      <psa30 value="0.0298741990" flag="0"/>
    </comp>
    <comp name="--.HHN">
      <acc value="0.4677990220" flag="0"/>
      <vel value="0.1643446633" flag="0"/>
      <psa03 value="0.4165946538" flag="0"/>
      <psa10 value="0.1232818950" flag="0"/>
      <psa30 value="0.0369746035" flag="0"/>
    </comp>
    <comp name="--.HHZ">
      <acc value="0.1746396849" flag="0"/>
      <vel value="0.0774168073" flag="0"/>
      <psa03 value="0.3463388699" flag="0"/>
      <psa10 value="0.0796601119" flag="0"/>
      <psa30 value="0.0372339607" flag="0"/>
    </comp>
  </station>
  <station code="ASTA" name="ASTA" netid="HL" insttype="CMG-5" lat="36.5455" lon="26.3529">
    <comp name="00.HNZ">
      <acc value="0.0934098830" flag="0"/>
      <vel value="0.0578587721" flag="0"/>
      <psa03 value="0.2292320538" flag="0"/>
      <psa10 value="0.0729594238" flag="0"/>
      <psa30 value="0.0198922337" flag="0"/>
    </comp>
    <comp name="00.HNE">
      <acc value="0.1484268102" flag="0"/>
      <vel value="0.0652152225" flag="0"/>
      <psa03 value="0.1982126610" flag="0"/>
      <psa10 value="0.0932156965" flag="0"/>
      <psa30 value="0.0125159882" flag="0"/>
    </comp>
    <comp name="00.HNN">
      <acc value="0.1573437595" flag="0"/>
      <vel value="0.0727868924" flag="0"/>
      <psa03 value="0.2676221134" flag="0"/>
      <psa10 value="0.0987893205" flag="0"/>
      <psa30 value="0.0150402660" flag="0"/>
    </comp>
  </station>
  <station code="HERG" name="HERG" netid="HL" insttype="CMG-5" lat="35.3262" lon="25.0659">
    <comp name="00.HNE">
      <acc value="0.0866839525" flag="0"/>
      <vel value="0.1180943975" flag="0"/>
      <psa03 value="0.2750824458" flag="0"/>
      <psa10 value="0.1639674141" flag="0"/>
      <psa30 value="0.0225103435" flag="0"/>
    </comp>
    <comp name="00.HNN">
      <acc value="0.0896218015" flag="0"/>
      <vel value="0.1171035266" flag="0"/>
      <psa03 value="0.2422160362" flag="0"/>
      <psa10 value="0.1708951270" flag="0"/>
      <psa30 value="0.0248575635" flag="0"/>
    </comp>
    <comp name="00.HNZ">
      <acc value="0.1070206956" flag="0"/>
      <vel value="0.0919935739" flag="0"/>
      <psa03 value="0.2536737952" flag="0"/>
      <psa10 value="0.1085603524" flag="0"/>
      <psa30 value="0.0051572838" flag="0"/>
    </comp>
  </station>
  <station code="IACM" name="IACM" netid="HL" insttype="120" lat="35.3058" lon="25.0709">
    <comp name="--.HHE">
      <acc value="0.2010193825" flag="0"/>
      <vel value="0.1851508018" flag="0"/>
      <psa03 value="0.4531093423" flag="0"/>
      <psa10 value="0.4201117601" flag="0"/>
      <psa30 value="0.0314224904" flag="0"/>
    </comp>
    <comp name="--.HHN">
      <acc value="0.1548421196" flag="0"/>
      <vel value="0.1366900318" flag="0"/>
      <psa03 value="0.5203285062" flag="0"/>
      <psa10 value="0.2974867994" flag="0"/>
      <psa30 value="0.0152002345" flag="0"/>
    </comp>
    <comp name="--.HHZ">
      <acc value="0.1190378121" flag="0"/>
      <vel value="0.0680824894" flag="0"/>
      <psa03 value="0.2911958985" flag="0"/>
      <psa10 value="0.0993615268" flag="0"/>
      <psa30 value="0.0052165213" flag="0"/>
    </comp>
  </station>
  <station code="IDI" name="IDI" netid="HL" insttype="120" lat="35.288" lon="24.89">
    <comp name="--.HHN">
      <acc value="0.0405425933" flag="0"/>
      <vel value="0.0238403370" flag="0"/>
      <psa03 value="0.0809271676" flag="0"/>
      <psa10 value="0.0229055417" flag="0"/>
      <psa30 value="0.0033764173" flag="0"/>
    </comp>
    <comp name="--.HHE">
      <acc value="0.0425900851" flag="0"/>
      <vel value="0.0304277598" flag="0"/>
      <psa03 value="0.0941906970" flag="0"/>
      <psa10 value="0.0400500616" flag="0"/>
      <psa30 value="0.0038612882" flag="0"/>
    </comp>
    <comp name="--.HHZ">
      <acc value="0.0268042652" flag="0"/>
      <vel value="0.0221639663" flag="0"/>
      <psa03 value="0.0658984153" flag="0"/>
      <psa10 value="0.0328381453" flag="0"/>
      <psa30 value="0.0022580444" flag="0"/>
    </comp>
  </station>
  <station code="MHLO" name="MHLO" netid="HL" insttype="20" lat="36.6898" lon="24.4017">
    <comp name="--.HHZ">
      <acc value="0.2039728393" flag="0"/>
      <vel value="0.2559364931" flag="0"/>
      <psa03 value="0.5486187794" flag="0"/>
      <psa10 value="0.3980902842" flag="0"/>
      <psa30 value="0.0251898688" flag="0"/>
    </comp>
    <comp name="--.HHN">
      <acc value="0.3792609631" flag="0"/>
      <vel value="0.4133299187" flag="0"/>
      <psa03 value="1.4099962727" flag="0"/>
      <psa10 value="0.9703708731" flag="0"/>
      <psa30 value="0.0398689224" flag="0"/>
    </comp>
    <comp name="--.HHE">
      <acc value="0.3406156797" flag="0"/>
      <vel value="0.3642777137" flag="0"/>
      <psa03 value="1.6433428439" flag="0"/>
      <psa10 value="0.7618044171" flag="0"/>
      <psa30 value="0.0363602758" flag="0"/>
    </comp>
  </station>
  <station code="MILA" name="MILA" netid="HL" insttype="CMG-5" lat="36.7429" lon="24.4282">
    <comp name="00.HNN">
      <acc value="0.4651232992" flag="0"/>
      <vel value="0.3982510568" flag="0"/>
      <psa03 value="1.5775685921" flag="0"/>
      <psa10 value="0.4148764932" flag="0"/>
      <psa30 value="0.0333235089" flag="0"/>
    </comp>
    <comp name="00.HNE">
      <acc value="0.3878015505" flag="0"/>
      <vel value="0.3018589251" flag="0"/>
      <psa03 value="0.7477209915" flag="0"/>
      <psa10 value="0.3067682657" flag="0"/>
      <psa30 value="0.0248471466" flag="0"/>
    </comp>
    <comp name="00.HNZ">
      <acc value="0.2759218228" flag="0"/>
      <vel value="0.2870937618" flag="0"/>
      <psa03 value="0.7763836596" flag="0"/>
      <psa10 value="0.3469297256" flag="0"/>
      <psa30 value="0.0273745066" flag="0"/>
    </comp>
  </station>
  <station code="NISR" name="NISR" netid="HL" insttype="65535" lat="36.6106" lon="27.131">
    <comp name="--.HHE">
      <acc value="0.0000000000" flag="0"/>
      <vel value="-100.0000000000" flag="0"/>
      <psa03 value="0.0000000000" flag="0"/>
      <psa10 value="0.0000000000" flag="0"/>
      <psa30 value="0.0000000000" flag="0"/>
    </comp>
    <comp name="--.HHN">
      <acc value="0.0849338542" flag="0"/>
      <vel value="0.0860379356" flag="0"/>
      <psa03 value="0.3549266467" flag="0"/>
      <psa10 value="0.0760691742" flag="0"/>
      <psa30 value="0.0242563024" flag="0"/>
    </comp>
    <comp name="--.HHZ">
      <acc value="0.0715208723" flag="0"/>
      <vel value="0.0375959100" flag="0"/>
      <psa03 value="0.1866683824" flag="0"/>
      <psa10 value="0.0408018363" flag="0"/>
      <psa30 value="0.0053374786" flag="0"/>
    </comp>
  </station>
  <station code="NISR2" name="NISR2" netid="HL" insttype="120" lat="36.5744" lon="27.1767">
    <comp name="--.HHE">
      <acc value="0.1258566761" flag="0"/>
      <vel value="0.1547117026" flag="0"/>
      <psa03 value="0.3484573142" flag="0"/>
      <psa10 value="0.2099594560" flag="0"/>
      <psa30 value="0.0183069023" flag="0"/>
    </comp>
    <comp name="--.HHN">
      <acc value="0.1613986357" flag="0"/>
      <vel value="0.1517305849" flag="0"/>
