<?xml version="1.0" encoding="UTF-8" standalone="yes"?>
<!DOCTYPE earthquake SYSTEM "stationlist.dtd">
<stationlist created="" xmlns="ch.ethz.sed.shakemap.usgs.xml">
  <station code="APE" name="APE" netid="GE" insttype="STS-2/N" lat="37.0727" lon="25.523">
    <comp name="--.HHE">
      <acc value="0.3809106485" flag="0"/>
      <vel value="0.1295368367" flag="0"/>
      <psa03 value="0.3956911488" flag="0"/>
      <psa10 value="0.0861670609" flag="0"/>
      <psa30 value="0.0299261995" flag="0"/>
    </comp>
    <comp name="--.HHN">
      <acc value="0.4942433815" flag="0"/>
      <vel value="0.1686747139" flag="0"/>
      <psa03 value="0.4277981527" flag="0"/>
      <psa10 value="0.1245027793" flag="0"/>
      <psa30 value="0.0370254632" flag="0"/>
    </comp>
    <comp name="--.HHZ">
      <acc value="0.2011363645" flag="0"/>
      <vel value="0.0792461178" flag="0"/>
      <psa03 value="0.3569796601" flag="0"/>
      <psa10 value="0.0802512439" flag="0"/>
      <psa30 value="0.0372950219" flag="0"/>
    </comp>
  </station>
  <station code="THERA" name="THERA" netid="GE" insttype="STS-2/N" lat="36.367" lon="25.4753">
    <comp name="--.HHE">
      <acc value="0.4835277466" flag="0"/>
      <vel value="0.2253281063" flag="0"/>
      <psa03 value="1.0783909496" flag="0"/>
      <psa10 value="0.1761485989" flag="0"/>
      <psa30 value="0.0345292364" flag="0"/>
    </comp>
    <comp name="--.HHN">
      <acc value="0.5249254699" flag="0"/>
      <vel value="0.1874262272" flag="0"/>
      <psa03 value="0.9247448681" flag="0"/>
      <psa10 value="0.1222673527" flag="0"/>
      <psa30 value="0.0132761009" flag="0"/>
    </comp>
    <comp name="--.HHZ">
      <acc value="0.4591101534" flag="0"/>
      <vel value="0.1917203046" flag="0"/>
      <psa03 value="0.6285506060" flag="0"/>
      <psa10 value="0.1983914216" flag="0"/>
      <psa30 value="0.0179941719" flag="0"/>
    </comp>
  </station>
  <station code="ZKR" name="ZKR" netid="GE" insttype="STS-2/N" lat="35.1147" lon="26.2169">
    <comp name="--.HHE">
      <acc value="0.0306266660" flag="0"/>
      <vel value="0.0259834601" flag="0"/>
      <psa03 value="0.0640938320" flag="0"/>
      <psa10 value="0.0502627008" flag="0"/>
      <psa30 value="0.0047567290" flag="0"/>
    </comp>
    <comp name="--.HHN">
      <acc value="0.0103901788" flag="0"/>
      <vel value="0.0112010629" flag="0"/>
      <psa03 value="0.0256630031" flag="0"/>
      <psa10 value="0.0220695967" flag="0"/>
      <psa30 value="0.0029981427" flag="0"/>
    </comp>
    <comp name="--.HHZ">
      <acc value="0.0170176224" flag="0"/>
      <vel value="0.0153266299" flag="0"/>
      <psa03 value="0.0402787129" flag="0"/>
      <psa10 value="0.0208221346" flag="0"/>
      <psa30 value="0.0042488289" flag="0"/>
    </comp>
  </station>
  <station code="IDI" name="IDI" netid="MN" insttype="" lat="35.288" lon="24.89">
    <comp name="--.HHN">
      <acc value="0.0407639394" flag="0"/>
      <vel value="0.0240343071" flag="0"/>
      <psa03 value="0.0817011756" flag="0"/>
      <psa10 value="0.0227744784" flag="0"/>
      <psa30 value="0.0033348256" flag="0"/>
    </comp>
    <comp name="--.HHZ">
      <acc value="0.0272819763" flag="0"/>
      <vel value="0.0220678978" flag="0"/>
      <psa03 value="0.0665741904" flag="0"/>
      <psa10 value="0.0326268153" flag="0"/>
      <psa30 value="0.0022359397" flag="0"/>
    </comp>
    <comp name="--.HHE">
      <acc value="0.0437621060" flag="0"/>
      <vel value="0.0304745205" flag="0"/>
      <psa03 value="0.0946572124" flag="0"/>
      <psa10 value="0.0398430064" flag="0"/>
      <psa30 value="0.0038159771" flag="0"/>
    </comp>
  </station>
</stationlist>
