<?xml version="1.0" encoding="UTF-8" standalone="yes"?>
<!DOCTYPE earthquake SYSTEM "stationlist.dtd">
<stationlist created="" xmlns="ch.ethz.sed.shakemap.usgs.xml">
  <station code="ACOR" name="ACOR" netid="HA" insttype="Horizon,120s,1200" lat="37.8905" lon="22.8694">
    <comp name="--.HHE">
      <acc value="0.0474788902" flag="0"/>
      <vel value="0.0224835544" flag="0"/>
      <psa03 value="0.1192725519" flag="0"/>
      <psa10 value="0.0440484524" flag="0"/>
      <psa30 value="0.0035774879" flag="0"/>
    </comp>
    <comp name="--.HHZ">
      <acc value="0.0319644097" flag="0"/>
      <vel value="0.0223997147" flag="0"/>
      <psa03 value="0.0993523581" flag="0"/>
      <psa10 value="0.0217164143" flag="0"/>
      <psa30 value="0.0024345395" flag="0"/>
    </comp>
    <comp name="--.HHN">
      <acc value="0.0349308364" flag="0"/>
      <vel value="0.0350089526" flag="0"/>
      <psa03 value="0.0771000005" flag="0"/>
      <psa10 value="0.0426150834" flag="0"/>
      <psa30 value="0.0063018428" flag="0"/>
    </comp>
  </station>
  <station code="AMPE" name="AMPE" netid="HA" insttype="1s-100Hz," lat="38.3015" lon="23.2688">
    <comp name="--.HHE">
      <acc value="0.0920330811" flag="0"/>
      <vel value="0.0677440888" flag="0"/>
      <psa03 value="0.2140624416" flag="0"/>
      <psa10 value="0.0723474409" flag="0"/>
      <psa30 value="0.0097108297" flag="0"/>
    </comp>
    <comp name="--.HHN">
      <acc value="0.0683088326" flag="0"/>
      <vel value="0.0511548321" flag="0"/>
      <psa03 value="0.1527686836" flag="0"/>
      <psa10 value="0.0528998489" flag="0"/>
      <psa30 value="0.0124375579" flag="0"/>
    </comp>
    <comp name="--.HHZ">
      <acc value="0.0559926832" flag="0"/>
      <vel value="0.0275318671" flag="0"/>
      <psa03 value="0.1196397006" flag="0"/>
      <psa10 value="0.0271949009" flag="0"/>
      <psa30 value="0.0023637665" flag="0"/>
    </comp>
  </station>
  <station code="ATAL" name="ATAL" netid="HA" insttype="120" lat="38.6926" lon="23.0213">
    <comp name="--.HHE">
      <acc value="0.0602073209" flag="0"/>
      <vel value="0.0404862845" flag="0"/>
      <psa03 value="0.2165035613" flag="0"/>
      <psa10 value="0.0529828143" flag="0"/>
      <psa30 value="0.0045885676" flag="0"/>
    </comp>
    <comp name="--.HHN">
      <acc value="0.0643071010" flag="0"/>
      <vel value="0.0433713431" flag="0"/>
      <psa03 value="0.1525110982" flag="0"/>
      <psa10 value="0.0533292309" flag="0"/>
      <psa30 value="0.0066887321" flag="0"/>
    </comp>
    <comp name="--.HHZ">
      <acc value="0.0587443488" flag="0"/>
      <vel value="0.0257693418" flag="0"/>
      <psa03 value="0.1138189726" flag="0"/>
      <psa10 value="0.0197462102" flag="0"/>
      <psa30 value="0.0019657568" flag="0"/>
    </comp>
  </station>
  <station code="ATHU" name="ATHU" netid="HA" insttype="60" lat="37.9665" lon="23.7845">
    <comp name="--.HHE">
      <acc value="0.1004519244" flag="0"/>
      <vel value="0.0529201124" flag="0"/>
      <psa03 value="0.1110706384" flag="0"/>
      <psa10 value="0.0418225276" flag="0"/>
      <psa30 value="0.0078047084" flag="0"/>
    </comp>
    <comp name="--.HHZ">
      <acc value="0.0992409117" flag="0"/>
      <vel value="0.0407784798" flag="0"/>
      <psa03 value="0.1621935144" flag="0"/>
      <psa10 value="0.0251360903" flag="0"/>
      <psa30 value="0.0041716341" flag="0"/>
    </comp>
    <comp name="--.HHN">
      <acc value="0.0840279595" flag="0"/>
      <vel value="0.0388430884" flag="0"/>
      <psa03 value="0.1200081185" flag="0"/>
      <psa10 value="0.0536105349" flag="0"/>
      <psa30 value="0.0061767378" flag="0"/>
    </comp>
  </station>
  <station code="DOMV" name="DOMV" netid="HA" insttype="60" lat="38.2569" lon="22.9795">
    <comp name="--.HHN">
      <acc value="0.1028890693" flag="0"/>
      <vel value="0.0345144738" flag="0"/>
      <psa03 value="0.1736766204" flag="0"/>
      <psa10 value="0.0144388409" flag="0"/>
      <psa30 value="0.0015346807" flag="0"/>
    </comp>
    <comp name="--.HHZ">
      <acc value="0.0739665603" flag="0"/>
      <vel value="0.0213546792" flag="0"/>
      <psa03 value="0.1740204970" flag="0"/>
      <psa10 value="0.0123999222" flag="0"/>
      <psa30 value="0.0021015466" flag="0"/>
    </comp>
    <comp name="--.HHE">
      <acc value="0.0795760294" flag="0"/>
      <vel value="0.0264447184" flag="0"/>
      <psa03 value="0.2074486896" flag="0"/>
      <psa10 value="0.0117579981" flag="0"/>
      <psa30 value="0.0011921471" flag="0"/>
    </comp>
  </station>
  <station code="EPID" name="EPID" netid="HA" insttype="30" lat="37.6144" lon="23.1189">
    <comp name="--.HHE">
      <acc value="0.1505137474" flag="0"/>
      <vel value="0.0874664930" flag="0"/>
      <psa03 value="0.3918044386" flag="0"/>
      <psa10 value="0.0943804258" flag="0"/>
      <psa30 value="0.0079792301" flag="0"/>
    </comp>
    <comp name="--.HHZ">
      <acc value="0.1066752479" flag="0"/>
      <vel value="0.0695007984" flag="0"/>
      <psa03 value="0.1528582259" flag="0"/>
      <psa10 value="0.0314548183" flag="0"/>
      <psa30 value="0.0035509994" flag="0"/>
    </comp>
    <comp name="--.HHN">
      <acc value="0.1506679115" flag="0"/>
      <vel value="0.0925248357" flag="0"/>
      <psa03 value="0.2577027405" flag="0"/>
      <psa10 value="0.0637094793" flag="0"/>
      <psa30 value="0.0066084228" flag="0"/>
    </comp>
  </station>
  <station code="ERTR" name="ERTR" netid="HA" insttype="Horizon,120s,1200" lat="38.4066" lon="23.7865">
    <comp name="--.HHN">
      <acc value="0.3103307582" flag="0"/>
      <vel value="0.1366667025" flag="0"/>
      <psa03 value="0.4884782153" flag="0"/>
      <psa10 value="0.1567488412" flag="0"/>
      <psa30 value="0.0196891710" flag="0"/>
    </comp>
    <comp name="--.HHZ">
      <acc value="0.1642031404" flag="0"/>
      <vel value="0.0681150828" flag="0"/>
      <psa03 value="0.2919139305" flag="0"/>
      <psa10 value="0.0414759511" flag="0"/>
      <psa30 value="0.0051441344" flag="0"/>
    </comp>
    <comp name="--.HHE">
      <acc value="0.2213862693" flag="0"/>
      <vel value="0.1075750354" flag="0"/>
      <psa03 value="0.3230939654" flag="0"/>
      <psa10 value="0.0499529346" flag="0"/>
      <psa30 value="0.0077089396" flag="0"/>
    </comp>
  </station>
  <station code="KARY" name="KARY" netid="HA" insttype="60" lat="38.0321" lon="24.437">
    <comp name="--.HHE">
      <acc value="1.7997851156" flag="0"/>
      <vel value="0.2841651205" flag="0"/>
      <psa03 value="0.5576451782" flag="0"/>
      <psa10 value="0.1098364747" flag="0"/>
      <psa30 value="0.0091616717" flag="0"/>
    </comp>
    <comp name="--.HHN">
      <acc value="1.6302981687" flag="0"/>
      <vel value="0.3133055801" flag="0"/>
      <psa03 value="0.7120834190" flag="0"/>
      <psa10 value="0.1536856674" flag="0"/>
      <psa30 value="0.0082328381" flag="0"/>
    </comp>
    <comp name="--.HHZ">
      <acc value="1.2330144520" flag="0"/>
      <vel value="0.2064642648" flag="0"/>
      <psa03 value="0.3431793505" flag="0"/>
      <psa10 value="0.0816279183" flag="0"/>
      <psa30 value="0.0065902516" flag="0"/>
    </comp>
  </station>
  <station code="KIAS" name="KIAS" netid="HA" insttype="DC" lat="37.9875" lon="22.7543">
    <comp name="--.HNE">
      <acc value="0.0737555358" flag="0"/>
      <vel value="0.0652152805" flag="0"/>
      <psa03 value="0.1820782726" flag="0"/>
      <psa10 value="0.0519562800" flag="0"/>
      <psa30 value="0.0117492930" flag="0"/>
    </comp>
    <comp name="--.HNN">
      <acc value="0.0800515586" flag="0"/>
      <vel value="0.0450954713" flag="0"/>
      <psa03 value="0.1628396265" flag="0"/>
      <psa10 value="0.1005873787" flag="0"/>
      <psa30 value="0.0118776785" flag="0"/>
    </comp>
    <comp name="--.HNZ">
      <acc value="0.0489575911" flag="0"/>
      <vel value="0.0384803328" flag="0"/>
      <psa03 value="0.1063497068" flag="0"/>
      <psa10 value="0.0358401383" flag="0"/>
      <psa30 value="0.0072999663" flag="0"/>
    </comp>
  </station>
  <station code="LOUT" name="LOUT" netid="HA" insttype="30" lat="37.9879" lon="22.9743">
    <comp name="--.HHN">
      <acc value="0.1943275773" flag="0"/>
      <vel value="0.0895741819" flag="0"/>
      <psa03 value="0.5859010482" flag="0"/>
      <psa10 value="0.0962546546" flag="0"/>
      <psa30 value="0.0062599950" flag="0"/>
    </comp>
    <comp name="--.HHE">
      <acc value="0.1678297868" flag="0"/>
      <vel value="0.0924014985" flag="0"/>
      <psa03 value="0.5608334101" flag="0"/>
      <psa10 value="0.0558776483" flag="0"/>
      <psa30 value="0.0050384971" flag="0"/>
    </comp>
    <comp name="--.HHZ">
      <acc value="0.1234554416" flag="0"/>
      <vel value="0.0712347191" flag="0"/>
      <psa03 value="0.4717248610" flag="0"/>
      <psa10 value="0.0553181673" flag="0"/>
      <psa30 value="0.0059260970" flag="0"/>
    </comp>
  </station>
  <station code="LTRS" name="LTRS" netid="HA" insttype="DC" lat="37.9753" lon="22.9765">
    <comp name="--.HNZ">
      <acc value="0.1414523343" flag="0"/>
      <vel value="0.0802600375" flag="0"/>
      <psa03 value="0.4316414475" flag="0"/>
      <psa10 value="0.0837849313" flag="0"/>
      <psa30 value="0.0055763151" flag="0"/>
    </comp>
    <comp name="--.HNN">
      <acc value="0.1566285208" flag="0"/>
      <vel value="0.1110773652" flag="0"/>
      <psa03 value="0.4354607365" flag="0"/>
      <psa10 value="0.0908466552" flag="0"/>
      <psa30 value="0.0099357778" flag="0"/>
    </comp>
    <comp name="--.HNE">
      <acc value="0.2857068119" flag="0"/>
      <vel value="0.1988266345" flag="0"/>
      <psa03 value="0.6759969514" flag="0"/>
      <psa10 value="0.1314173202" flag="0"/>
      <psa30 value="0.0116435457" flag="0"/>
    </comp>
  </station>
  <station code="MDRA" name="MDRA" netid="HA" insttype="60" lat="38.0606" lon="23.4662">
    <comp name="--.HHZ">
      <acc value="0.0416310812" flag="0"/>
      <vel value="0.0136790917" flag="0"/>
      <psa03 value="0.0973934104" flag="0"/>
      <psa10 value="0.0056283861" flag="0"/>
      <psa30 value="0.0017183115" flag="0"/>
    </comp>
    <comp name="--.HHE">
      <acc value="0.0494855378" flag="0"/>
      <vel value="0.0153108709" flag="0"/>
      <psa03 value="0.0925654332" flag="0"/>
      <psa10 value="0.0066742075" flag="0"/>
      <psa30 value="0.0010714072" flag="0"/>
    </comp>
    <comp name="--.HHN">
      <acc value="0.1018674955" flag="0"/>
      <vel value="0.0386532796" flag="0"/>
      <psa03 value="0.1778528503" flag="0"/>
      <psa10 value="0.0238231648" flag="0"/>
      <psa30 value="0.0026751211" flag="0"/>
    </comp>
  </station>
  <station code="MRTH" name="MRTH" netid="HA" insttype="S100," lat="38.1225" lon="23.9409">
    <comp name="--.HHE">
      <acc value="0.7222627545" flag="0"/>
      <vel value="0.3482115124" flag="0"/>
      <psa03 value="1.3701730951" flag="0"/>
      <psa10 value="0.1994786632" flag="0"/>
      <psa30 value="0.0190390534" flag="0"/>
    </comp>
    <comp name="--.HHN">
      <acc value="0.8006622683" flag="0"/>
      <vel value="0.3869018325" flag="0"/>
      <psa03 value="1.5125924301" flag="0"/>
      <psa10 value="0.2084797915" flag="0"/>
      <psa30 value="0.0226236611" flag="0"/>
    </comp>
    <comp name="--.HHZ">
      <acc value="0.8247125150" flag="0"/>
      <vel value="0.2595314187" flag="0"/>
      <psa03 value="1.5252719759" flag="0"/>
      <psa10 value="0.0969546815" flag="0"/>
      <psa30 value="0.0128370611" flag="0"/>
    </comp>
  </station>
  <station code="SERI" name="SERI" netid="HA" insttype="30" lat="37.1609" lon="24.4853">
    <comp name="--.HHZ">
      <acc value="0.0576615372" flag="0"/>
      <vel value="0.0135982586" flag="0"/>
      <psa03 value="0.0541985277" flag="0"/>
      <psa10 value="0.0251010648" flag="0"/>
      <psa30 value="0.0012897712" flag="0"/>
    </comp>
    <comp name="--.HHE">
      <acc value="0.0622722960" flag="0"/>
      <vel value="0.0205012091" flag="0"/>
      <psa03 value="0.0477629327" flag="0"/>
      <psa10 value="0.0314954170" flag="0"/>
      <psa30 value="0.0042644134" flag="0"/>
    </comp>
    <comp name="--.HHN">
      <acc value="0.0698269412" flag="0"/>
      <vel value="0.0134176670" flag="0"/>
      <psa03 value="0.0471664291" flag="0"/>
      <psa10 value="0.0156824516" flag="0"/>
      <psa30 value="0.0019926465" flag="0"/>
    </comp>
  </station>
  <station code="STFN" name="STFN" netid="HA" insttype="1s-100Hz," lat="38.1766" lon="23.544">
    <comp name="--.HHZ">
      <acc value="0.0917297835" flag="0"/>
      <vel value="0.0444188380" flag="0"/>
      <psa03 value="0.1946264301" flag="0"/>
      <psa10 value="0.0321117485" flag="0"/>
      <psa30 value="0.0034899529" flag="0"/>
    </comp>
    <comp name="--.HHN">
      <acc value="0.1462458003" flag="0"/>
      <vel value="0.0728227011" flag="0"/>
      <psa03 value="0.2723800903" flag="0"/>
      <psa10 value="0.0442903027" flag="0"/>
      <psa30 value="0.0049309163" flag="0"/>
    </comp>
    <comp name="--.HHE">
      <acc value="0.1571109499" flag="0"/>
      <vel value="0.0697090604" flag="0"/>
      <psa03 value="0.3506565207" flag="0"/>
      <psa10 value="0.0540938965" flag="0"/>
      <psa30 value="0.0048315862" flag="0"/>
    </comp>
  </station>
  <station code="THAL" name="THAL" netid="HA" insttype="30" lat="38.0357" lon="22.6634">
    <comp name="--.HHZ">
      <acc value="0.0464806924" flag="0"/>
      <vel value="0.0255885128" flag="0"/>
      <psa03 value="0.0946526485" flag="0"/>
      <psa10 value="0.0159018667" flag="0"/>
      <psa30 value="0.0026852535" flag="0"/>
    </comp>
    <comp name="--.HHN">
      <acc value="0.1280483948" flag="0"/>
      <vel value="0.0580299993" flag="0"/>
      <psa03 value="0.3458010098" flag="0"/>
      <psa10 value="0.0432602419" flag="0"/>
      <psa30 value="0.0053582365" flag="0"/>
    </comp>
    <comp name="--.HHE">
      <acc value="0.1005989027" flag="0"/>
      <vel value="0.0479116556" flag="0"/>
      <psa03 value="0.2636725174" flag="0"/>
      <psa10 value="0.0296979803" flag="0"/>
      <psa30 value="0.0058081753" flag="0"/>
    </comp>
  </station>
  <station code="THIV" name="THIV" netid="HA" insttype="25" lat="38.299" lon="23.332">
    <comp name="--.HHN">
      <acc value="0.0459033506" flag="0"/>
      <vel value="0.0254154319" flag="0"/>
      <psa03 value="0.1166735571" flag="0"/>
      <psa10 value="0.0245335562" flag="0"/>
      <psa30 value="0.0020284674" flag="0"/>
    </comp>
    <comp name="--.HHZ">
      <acc value="0.0315362807" flag="0"/>
      <vel value="0.0147541774" flag="0"/>
      <psa03 value="0.0879072728" flag="0"/>
      <psa10 value="0.0100946571" flag="0"/>
      <psa30 value="0.0018441181" flag="0"/>
    </comp>
    <comp name="--.HHE">
      <acc value="0.0502273264" flag="0"/>
      <vel value="0.0195956088" flag="0"/>
      <psa03 value="0.1123329520" flag="0"/>
      <psa10 value="0.0148040470" flag="0"/>
      <psa30 value="0.0018107473" flag="0"/>
    </comp>
  </station>
  <station code="VILL" name="VILL" netid="HA" insttype="Horizon,120s,1200" lat="38.1642" lon="23.3122">
    <comp name="--.HHZ">
      <acc value="0.0597862471" flag="0"/>
      <vel value="0.0513899497" flag="0"/>
      <psa03 value="0.2111343842" flag="0"/>
      <psa10 value="0.0313105855" flag="0"/>
      <psa30 value="0.0031226938" flag="0"/>
    </comp>
    <comp name="--.HHE">
      <acc value="0.1066997912" flag="0"/>
      <vel value="0.0536378264" flag="0"/>
      <psa03 value="0.2531283429" flag="0"/>
      <psa10 value="0.0448921385" flag="0"/>
      <psa30 value="0.0055426033" flag="0"/>
    </comp>
    <comp name="--.HHN">
      <acc value="0.1108347878" flag="0"/>
      <vel value="0.0705657065" flag="0"/>
      <psa03 value="0.1905577929" flag="0"/>
      <psa10 value="0.0541754601" flag="0"/>
      <psa30 value="0.0044833399" flag="0"/>
    </comp>
  </station>
  <station code="THNO" name="THNO" netid="HC" insttype="60" lat="37.6541" lon="25.0221">
    <comp name="--.HHN">
      <acc value="0.0000000000" flag="0"/>
      <vel value="-100.0000000000" flag="0"/>
      <psa03 value="0.0000000000" flag="0"/>
      <psa10 value="0.0000000000" flag="0"/>
      <psa30 value="0.0000000000" flag="0"/>
    </comp>
    <comp name="--.HHZ">
      <acc value="0.1691661976" flag="0"/>
      <vel value="0.0492653087" flag="0"/>
      <psa03 value="0.2878181077" flag="0"/>
      <psa10 value="0.0431773998" flag="0"/>
      <psa30 value="0.0027520408" flag="0"/>
    </comp>
    <comp name="--.HHE">
      <acc value="0.0000000000" flag="0"/>
      <vel value="-100.0000000000" flag="0"/>
      <psa03 value="0.0000000000" flag="0"/>
      <psa10 value="0.0000000000" flag="0"/>
      <psa30 value="0.0000000000" flag="0"/>
    </comp>
  </station>
  <station code="ATH5" name="ATH5" netid="HI" insttype="CMG-5TD,ACCELEROMETER,GURALP" lat="37.9754" lon="23.7371">
    <comp name="--.HNE">
      <acc value="0.2047533372" flag="0"/>
      <vel value="0.0827388768" flag="0"/>
      <psa03 value="0.2865602983" flag="0"/>
      <psa10 value="0.0712891821" flag="0"/>
      <psa30 value="0.0106115108" flag="0"/>
    </comp>
    <comp name="--.HNN">
      <acc value="0.1450381964" flag="0"/>
      <vel value="0.0645950877" flag="0"/>
      <psa03 value="0.1947708215" flag="0"/>
      <psa10 value="0.0805857759" flag="0"/>
      <psa30 value="0.0110108209" flag="0"/>
    </comp>
    <comp name="--.HNZ">
      <acc value="0.0776541809" flag="0"/>
      <vel value="0.0393304005" flag="0"/>
      <psa03 value="0.1760271381" flag="0"/>
      <psa10 value="0.0521767962" flag="0"/>
      <psa30 value="0.0041829088" flag="0"/>
    </comp>
  </station>
  <station code="ATH" name="ATH" netid="HL" insttype="DR24" lat="37.9738" lon="23.7177">
    <comp name="--.HHE">
      <acc value="0.1873743198" flag="0"/>
      <vel value="0.0688521927" flag="0"/>
      <psa03 value="0.2657007940" flag="0"/>
      <psa10 value="0.0679544992" flag="0"/>
      <psa30 value="0.0094711104" flag="0"/>
    </comp>
    <comp name="--.HHN">
      <acc value="0.1863971007" flag="0"/>
      <vel value="0.1118416131" flag="0"/>
      <psa03 value="0.4108306153" flag="0"/>
      <psa10 value="0.1064247851" flag="0"/>
      <psa30 value="0.0113338228" flag="0"/>
    </comp>
    <comp name="--.HHZ">
      <acc value="0.1327272204" flag="0"/>
      <vel value="0.0432776491" flag="0"/>
      <psa03 value="0.1833487193" flag="0"/>
      <psa10 value="0.0509202084" flag="0"/>
      <psa30 value="0.0039896586" flag="0"/>
    </comp>
  </station>
  <station code="ATHP" name="ATHP" netid="HL" insttype="CMG-5" lat="38.0008" lon="23.7735">
    <comp name="00.HNN">
      <acc value="0.2797758203" flag="0"/>
      <vel value="0.1364105346" flag="0"/>
      <psa03 value="0.4870882333" flag="0"/>
      <psa10 value="0.1389482317" flag="0"/>
      <psa30 value="0.0079698901" flag="0"/>
    </comp>
    <comp name="00.HNE">
      <acc value="0.2465301108" flag="0"/>
      <vel value="0.1321321356" flag="0"/>
      <psa03 value="0.4795778021" flag="0"/>
      <psa10 value="0.1074613775" flag="0"/>
      <psa30 value="0.0128458279" flag="0"/>
    </comp>
    <comp name="00.HNZ">
      <acc value="0.2086195461" flag="0"/>
      <vel value="0.0769909730" flag="0"/>
      <psa03 value="0.2261688575" flag="0"/>
      <psa10 value="0.0563009123" flag="0"/>
      <psa30 value="0.0055621592" flag="0"/>
    </comp>
  </station>
  <station code="LKR" name="LKR" netid="HL" insttype="65535" lat="38.6496" lon="22.9988">
    <comp name="--.HHE">
      <acc value="0.1468860708" flag="0"/>
      <vel value="0.0622439370" flag="0"/>
      <psa03 value="0.4062457257" flag="0"/>
      <psa10 value="0.0242688468" flag="0"/>
      <psa30 value="0.0031616900" flag="0"/>
    </comp>
    <comp name="--.HHZ">
      <acc value="0.0504391835" flag="0"/>
      <vel value="0.0213698947" flag="0"/>
