<?xml version="1.0" encoding="UTF-8" standalone="yes"?>
<!DOCTYPE earthquake SYSTEM "stationlist.dtd">
<stationlist created="" xmlns="ch.ethz.sed.shakemap.usgs.xml">
  <station code="APE" name="APE" netid="GE" insttype="STS-2/N" lat="37.0727" lon="25.523">
    <comp name="--.HHE">
      <acc value="0.0317221234" flag="0"/>
      <vel value="0.0077480695" flag="0"/>
      <psa03 value="0.0208053303" flag="0"/>
      <psa10 value="0.0010454456" flag="0"/>
      <psa30 value="0.0001132746" flag="0"/>
    </comp>
    <comp name="--.HHZ">
      <acc value="0.0194193524" flag="0"/>
      <vel value="0.0025036356" flag="0"/>
      <psa03 value="0.0107683617" flag="0"/>
      <psa10 value="0.0010349933" flag="0"/>
      <psa30 value="0.0001538594" flag="0"/>
    </comp>
    <comp name="--.HHN">
      <acc value="0.0381672040" flag="0"/>
      <vel value="0.0102299592" flag="0"/>
      <psa03 value="0.0288243353" flag="0"/>
      <psa10 value="0.0018539606" flag="0"/>
      <psa30 value="0.0001583847" flag="0"/>
    </comp>
  </station>
  <station code="THERA" name="THERA" netid="GE" insttype="STS-2/N" lat="36.367" lon="25.4753">
    <comp name="--.HHE">
      <acc value="0.0186278425" flag="0"/>
      <vel value="0.0039809029" flag="0"/>
      <psa03 value="0.0235343301" flag="0"/>
      <psa10 value="0.0014099241" flag="0"/>
      <psa30 value="0.0001689889" flag="0"/>
    </comp>
    <comp name="--.HHN">
      <acc value="0.0138067563" flag="0"/>
      <vel value="0.0028924472" flag="0"/>
      <psa03 value="0.0119229178" flag="0"/>
      <psa10 value="0.0006039503" flag="0"/>
      <psa30 value="0.0001061067" flag="0"/>
    </comp>
    <comp name="--.HHZ">
      <acc value="0.0183578923" flag="0"/>
      <vel value="0.0039965313" flag="0"/>
      <psa03 value="0.0135150819" flag="0"/>
      <psa10 value="0.0009500239" flag="0"/>
      <psa30 value="0.0001096891" flag="0"/>
    </comp>
  </station>
  <station code="SNT1" name="SNT1" netid="HA" insttype="30" lat="36.4159" lon="25.4282">
    <comp name="--.HHN">
      <acc value="0.0142862601" flag="0"/>
      <vel value="0.0042422113" flag="0"/>
      <psa03 value="0.0148401344" flag="0"/>
      <psa10 value="0.0018479318" flag="0"/>
      <psa30 value="0.0003760109" flag="0"/>
    </comp>
    <comp name="--.HHE">
      <acc value="0.0198066666" flag="0"/>
      <vel value="0.0047147410" flag="0"/>
      <psa03 value="0.0133333270" flag="0"/>
      <psa10 value="0.0022199709" flag="0"/>
      <psa30 value="0.0003540883" flag="0"/>
    </comp>
    <comp name="--.HHZ">
      <acc value="0.0140645623" flag="0"/>
      <vel value="0.0031865793" flag="0"/>
      <psa03 value="0.0137906157" flag="0"/>
      <psa10 value="0.0012097624" flag="0"/>
      <psa30 value="0.0001382731" flag="0"/>
    </comp>
  </station>
  <station code="SNT5" name="SNT5" netid="HA" insttype="1s-100Hz," lat="36.4037" lon="25.3953">
    <comp name="--.HHN">
      <acc value="0.0536157487" flag="0"/>
      <vel value="0.0121615959" flag="0"/>
      <psa03 value="0.0310107047" flag="0"/>
      <psa10 value="0.0017807663" flag="0"/>
      <psa30 value="0.0006099027" flag="0"/>
    </comp>
    <comp name="--.HHZ">
      <acc value="0.0322130787" flag="0"/>
      <vel value="0.0043955206" flag="0"/>
      <psa03 value="0.0130256653" flag="0"/>
      <psa10 value="0.0009638887" flag="0"/>
      <psa30 value="0.0001570317" flag="0"/>
    </comp>
    <comp name="--.HHE">
      <acc value="0.0896113058" flag="0"/>
      <vel value="0.0204006267" flag="0"/>
      <psa03 value="0.0482843763" flag="0"/>
      <psa10 value="0.0044761797" flag="0"/>
      <psa30 value="0.0003623510" flag="0"/>
    </comp>
  </station>
  <station code="NAX1" name="NAX1" netid="HI" insttype="CMG-5TD,ACCELEROMETER,GURALP" lat="37.1014" lon="25.3741">
    <comp name="--.HNE">
      <acc value="0.0221530652" flag="0"/>
      <vel value="0.0046855515" flag="0"/>
      <psa03 value="0.0211570119" flag="0"/>
      <psa10 value="0.0007144905" flag="0"/>
      <psa30 value="0.0001063131" flag="0"/>
    </comp>
    <comp name="--.HNN">
      <acc value="0.0250064310" flag="0"/>
      <vel value="0.0052905556" flag="0"/>
      <psa03 value="0.0132824668" flag="0"/>
      <psa10 value="0.0006465848" flag="0"/>
      <psa30 value="0.0001067889" flag="0"/>
    </comp>
    <comp name="--.HNZ">
      <acc value="0.0129570725" flag="0"/>
      <vel value="0.0022615133" flag="0"/>
      <psa03 value="0.0068628165" flag="0"/>
      <psa10 value="0.0008514779" flag="0"/>
      <psa30 value="0.0001391560" flag="0"/>
    </comp>
  </station>
  <station code="AMGA" name="AMGA" netid="HL" insttype="SMART24" lat="36.8316" lon="25.8938">
    <comp name="--.HHN">
      <acc value="0.2110361948" flag="0"/>
      <vel value="0.0447669878" flag="0"/>
      <psa03 value="0.0742902028" flag="0"/>
      <psa10 value="0.0080207489" flag="0"/>
      <psa30 value="0.0006918930" flag="0"/>
    </comp>
    <comp name="--.HHE">
      <acc value="0.2036126899" flag="0"/>
      <vel value="0.0289174635" flag="0"/>
      <psa03 value="0.0925449327" flag="0"/>
      <psa10 value="0.0059348120" flag="0"/>
      <psa30 value="0.0004987001" flag="0"/>
    </comp>
    <comp name="--.HHZ">
      <acc value="0.1285333445" flag="0"/>
      <vel value="0.0306410487" flag="0"/>
      <psa03 value="0.1195176726" flag="0"/>
      <psa10 value="0.0057180308" flag="0"/>
      <psa30 value="0.0006370001" flag="0"/>
    </comp>
  </station>
  <station code="APE" name="APE" netid="HL" insttype="120" lat="37.0727" lon="25.523">
    <comp name="--.HHN">
      <acc value="0.0357262024" flag="0"/>
      <vel value="0.0097450510" flag="0"/>
      <psa03 value="0.0277078624" flag="0"/>
      <psa10 value="0.0017987021" flag="0"/>
      <psa30 value="0.0001571679" flag="0"/>
    </comp>
    <comp name="--.HHE">
      <acc value="0.0274117383" flag="0"/>
      <vel value="0.0073609144" flag="0"/>
      <psa03 value="0.0201653157" flag="0"/>
      <psa10 value="0.0010151339" flag="0"/>
      <psa30 value="0.0001120878" flag="0"/>
    </comp>
    <comp name="--.HHZ">
      <acc value="0.0170625044" flag="0"/>
      <vel value="0.0023342452" flag="0"/>
      <psa03 value="0.0105480506" flag="0"/>
      <psa10 value="0.0010243397" flag="0"/>
      <psa30 value="0.0001534971" flag="0"/>
    </comp>
  </station>
  <station code="SAP3" name="SAP3" netid="HL" insttype="65535" lat="36.4356" lon="25.3454">
    <comp name="--.HHE">
      <acc value="0.0341787455" flag="0"/>
      <vel value="0.0086483715" flag="0"/>
      <psa03 value="0.0345370138" flag="0"/>
      <psa10 value="0.0029800752" flag="0"/>
      <psa30 value="0.0005653909" flag="0"/>
    </comp>
    <comp name="--.HHN">
      <acc value="0.0339886902" flag="0"/>
      <vel value="0.0104952448" flag="0"/>
      <psa03 value="0.0425907605" flag="0"/>
      <psa10 value="0.0020121229" flag="0"/>
      <psa30 value="0.0003701733" flag="0"/>
    </comp>
    <comp name="--.HHZ">
      <acc value="0.0272358076" flag="0"/>
      <vel value="0.0058331347" flag="0"/>
      <psa03 value="0.0228913557" flag="0"/>
      <psa10 value="0.0013069670" flag="0"/>
      <psa30 value="0.0001344795" flag="0"/>
    </comp>
  </station>
  <station code="THERA" name="THERA" netid="HL" insttype="120" lat="36.367" lon="25.4753">
    <comp name="--.HHE">
      <acc value="0.0182234135" flag="0"/>
      <vel value="0.0038931217" flag="0"/>
      <psa03 value="0.0228552411" flag="0"/>
      <psa10 value="0.0013810799" flag="0"/>
      <psa30 value="0.0001684553" flag="0"/>
    </comp>
    <comp name="--.HHN">
      <acc value="0.0267914443" flag="0"/>
      <vel value="0.0057040642" flag="0"/>
      <psa03 value="0.0231407458" flag="0"/>
      <psa10 value="0.0011877016" flag="0"/>
      <psa30 value="0.0002109992" flag="0"/>
    </comp>
    <comp name="--.HHZ">
      <acc value="0.0179803271" flag="0"/>
      <vel value="0.0039048578" flag="0"/>
      <psa03 value="0.0131688926" flag="0"/>
      <psa10 value="0.0009418291" flag="0"/>
      <psa30 value="0.0001092892" flag="0"/>
    </comp>
  </station>
  <station code="AKRO" name="AKRO" netid="HT" insttype="Compact," lat="36.3584" lon="25.3967">
    <comp name="--.HHN">
      <acc value="0.0835503870" flag="0"/>
      <vel value="0.0155313447" flag="0"/>
      <psa03 value="0.0438698159" flag="0"/>
      <psa10 value="0.0040792112" flag="0"/>
      <psa30 value="0.0003747705" flag="0"/>
    </comp>
    <comp name="--.HHZ">
      <acc value="0.0455379248" flag="0"/>
      <vel value="0.0086362751" flag="0"/>
      <psa03 value="0.0497966628" flag="0"/>
      <psa10 value="0.0020928988" flag="0"/>
      <psa30 value="0.0002436824" flag="0"/>
    </comp>
    <comp name="--.HHE">
      <acc value="0.0849934499" flag="0"/>
      <vel value="0.0191948844" flag="0"/>
      <psa03 value="0.0684401273" flag="0"/>
      <psa10 value="0.0044398145" flag="0"/>
      <psa30 value="0.0004828452" flag="0"/>
    </comp>
  </station>
  <station code="CMBO" name="CMBO" netid="HT" insttype="120P," lat="36.4709" lon="25.4056">
    <comp name="--.HHZ">
      <acc value="0.0220040264" flag="0"/>
      <vel value="0.0049890624" flag="0"/>
      <psa03 value="0.0269155693" flag="0"/>
      <psa10 value="0.0014468507" flag="0"/>
      <psa30 value="0.0001838972" flag="0"/>
    </comp>
    <comp name="--.HHE">
      <acc value="0.0249759648" flag="0"/>
      <vel value="0.0064125291" flag="0"/>
      <psa03 value="0.0298693530" flag="0"/>
      <psa10 value="0.0032993927" flag="0"/>
      <psa30 value="0.0005144398" flag="0"/>
    </comp>
    <comp name="--.HHN">
      <acc value="0.0312127711" flag="0"/>
      <vel value="0.0072380043" flag="0"/>
      <psa03 value="0.0425130086" flag="0"/>
      <psa10 value="0.0028137787" flag="0"/>
      <psa30 value="0.0002847963" flag="0"/>
    </comp>
  </station>
</stationlist>
