<?xml version="1.0" encoding="UTF-8" standalone="yes"?>
<!DOCTYPE earthquake SYSTEM "stationlist.dtd">
<stationlist created="" xmlns="ch.ethz.sed.shakemap.usgs.xml">
  <station code="APE" name="APE" netid="GE" insttype="STS-2/N" lat="37.0727" lon="25.523">
    <comp name="--.HHE">
      <acc value="0.0317221234" flag="0"/>
      <vel value="0.0077480695" flag="0"/>
      <psa03 value="0.0208053303" flag="0"/>
      <psa10 value="0.0010454456" flag="0"/>
      <psa30 value="0.0001132746" flag="0"/>
    </comp>
    <comp name="--.HHZ">
      <acc value="0.0194193524" flag="0"/>
      <vel value="0.0025036356" flag="0"/>
      <psa03 value="0.0107683617" flag="0"/>
      <psa10 value="0.0010349933" flag="0"/>
      <psa30 value="0.0001538594" flag="0"/>
    </comp>
    <comp name="--.HHN">
      <acc value="0.0381672040" flag="0"/>
      <vel value="0.0102299592" flag="0"/>
      <psa03 value="0.0288243353" flag="0"/>
      <psa10 value="0.0018539606" flag="0"/>
      <psa30 value="0.0001583847" flag="0"/>
    </comp>
  </station>
  <station code="THERA" name="THERA" netid="GE" insttype="STS-2/N" lat="36.367" lon="25.4753">
    <comp name="--.HHE">
      <acc value="0.0186278425" flag="0"/>
      <vel value="0.0039809029" flag="0"/>
      <psa03 value="0.0235343301" flag="0"/>
      <psa10 value="0.0014099241" flag="0"/>
      <psa30 value="0.0001689889" flag="0"/>
    </comp>
    <comp name="--.HHN">
      <acc value="0.0138067563" flag="0"/>
      <vel value="0.0028924472" flag="0"/>
      <psa03 value="0.0119229178" flag="0"/>
      <psa10 value="0.0006039503" flag="0"/>
      <psa30 value="0.0001061067" flag="0"/>
    </comp>
    <comp name="--.HHZ">
      <acc value="0.0183578923" flag="0"/>
      <vel value="0.0039965313" flag="0"/>
      <psa03 value="0.0135150819" flag="0"/>
      <psa10 value="0.0009500239" flag="0"/>
      <psa30 value="0.0001096891" flag="0"/>
    </comp>
  </station>
</stationlist>
