<stationlist created="1778136391">
	<station code="ARPRA" name="ARPRA" netid="KO" source="Bogazici University Kandilli Observatory And Earthquake Research Institute (KOERI)" insttype="" lat="39.0929" lon="38.3356">
		<comp name="--.HNE" depth="0.0">
			<acc value="0.0064651331828481" flag="0"/>
			<vel value="0.0051535085657071" flag="0"/>
			<psa03 value="0.0101117386957294" flag="0"/>
			<psa10 value="0.00786836445588927" flag="0"/>
			<psa30 value="0.000798200966069968" flag="0"/>
		</comp>
		<comp name="--.HNN" depth="0.0">
			<acc value="0.0101683079659531" flag="0"/>
			<vel value="0.00920962514817564" flag="0"/>
			<psa03 value="0.0196418287054213" flag="0"/>
			<psa10 value="0.0127166299650452" flag="0"/>
			<psa30 value="0.00110200054900803" flag="0"/>
		</comp>
		<comp name="--.HNZ" depth="0.0">
			<acc value="0.00434544007610115" flag="0"/>
			<vel value="0.00419287019629186" flag="0"/>
			<psa03 value="0.00693504202583212" flag="0"/>
			<psa10 value="0.0113072504565696" flag="0"/>
			<psa30 value="0.000695293890847943" flag="0"/>
		</comp>
	</station>
	<station code="GUMT" name="GUMT" netid="KO" source="Bogazici University Kandilli Observatory And Earthquake Research Institute (KOERI)" insttype="" lat="40.4665" lon="39.478">
		<comp name="--.HNE" depth="0.0">
			<acc value="0.000938984441167696" flag="0"/>
			<vel value="0.00216364601568558" flag="0"/>
			<psa03 value="0.00161071943825778" flag="0"/>
			<psa10 value="0.00159058544527956" flag="0"/>
			<psa30 value="0.000933769852123331" flag="0"/>
		</comp>
		<comp name="--.HNN" depth="0.0">
			<acc value="0.000544683664134077" flag="0"/>
			<vel value="0.00103545049798825" flag="0"/>
			<psa03 value="0.000536906479419261" flag="0"/>
			<psa10 value="0.000487242630072979" flag="0"/>
			<psa30 value="0.000542275544213454" flag="0"/>
		</comp>
		<comp name="--.HNZ" depth="0.0">
			<acc value="0.000579562665998113" flag="0"/>
			<vel value="0.000709900899672854" flag="0"/>
			<psa03 value="0.000536906479419261" flag="0"/>
			<psa10 value="0.000459055039903468" flag="0"/>
			<psa30 value="0.000347199523357789" flag="0"/>
		</comp>
	</station>
</stationlist>
