<?xml version="1.0" encoding="UTF-8" standalone="yes"?>
<!DOCTYPE earthquake SYSTEM "stationlist.dtd">
<stationlist created="" xmlns="ch.ethz.sed.shakemap.usgs.xml">
  <station code="KARO" name="KARO" netid="KO" insttype="120s," lat="39.3089" lon="41.0493">
    <comp name="--.HHN">
      <acc value="0.1209868944" flag="0"/>
      <vel value="0.0879905036" flag="0"/>
      <psa03 value="0.3614439956" flag="0"/>
      <psa10 value="0.1408160062" flag="0"/>
      <psa30 value="0.0051348074" flag="0"/>
    </comp>
    <comp name="--.HHE">
      <acc value="0.1478859757" flag="0"/>
      <vel value="0.0771690739" flag="0"/>
      <psa03 value="0.3179913498" flag="0"/>
      <psa10 value="0.0692829721" flag="0"/>
      <psa30 value="0.0045204481" flag="0"/>
    </comp>
    <comp name="--.HHZ">
      <acc value="0.0875876975" flag="0"/>
      <vel value="0.0331019031" flag="0"/>
      <psa03 value="0.1437107042" flag="0"/>
      <psa10 value="0.0292062449" flag="0"/>
      <psa30 value="0.0034608868" flag="0"/>
    </comp>
  </station>
</stationlist>
