<?xml version="1.0" encoding="UTF-8" standalone="yes"?>
<!DOCTYPE earthquake SYSTEM "stationlist.dtd">
<stationlist created="" xmlns="ch.ethz.sed.shakemap.usgs.xml">
  <station code="UPC" name="UPC" netid="CZ" insttype="" lat="50.5074" lon="16.0121">
    <comp name="--.HHE">
      <acc value="0.0016123133" flag="0"/>
      <vel value="0.0008261976" flag="0"/>
      <psa03 value="0.0032679000" flag="0"/>
      <psa10 value="0.0006473126" flag="0"/>
      <psa30 value="0.0001667874" flag="0"/>
    </comp>
    <comp name="--.HHN">
      <acc value="0.0050195467" flag="0"/>
      <vel value="0.0019465972" flag="0"/>
      <psa03 value="0.0154484627" flag="0"/>
      <psa10 value="0.0017785973" flag="0"/>
      <psa30 value="0.0001440112" flag="0"/>
    </comp>
    <comp name="--.HHZ">
      <acc value="0.0052064479" flag="0"/>
      <vel value="0.0029440878" flag="0"/>
      <psa03 value="0.0117413983" flag="0"/>
      <psa10 value="0.0026113362" flag="0"/>
      <psa30 value="0.0001682898" flag="0"/>
    </comp>
  </station>
  <station code="KSP" name="KSP" netid="PL" insttype="STS-2/N" lat="50.8428" lon="16.2931">
    <comp name="--.HHE">
      <acc value="0.0018061318" flag="0"/>
      <vel value="0.0008122071" flag="0"/>
      <psa03 value="0.0042792543" flag="0"/>
      <psa10 value="0.0004517147" flag="0"/>
      <psa30 value="0.0001327067" flag="0"/>
    </comp>
    <comp name="--.HHZ">
      <acc value="0.0020477386" flag="0"/>
      <vel value="0.0016945316" flag="0"/>
      <psa03 value="0.0053408745" flag="0"/>
      <psa10 value="0.0015327213" flag="0"/>
      <psa30 value="0.0003036489" flag="0"/>
    </comp>
    <comp name="--.HHN">
      <acc value="0.0041435404" flag="0"/>
      <vel value="0.0017982967" flag="0"/>
      <psa03 value="0.0117061534" flag="0"/>
      <psa10 value="0.0014342768" flag="0"/>
      <psa30 value="0.0002795369" flag="0"/>
    </comp>
  </station>
</stationlist>
