<?xml version="1.0" encoding="UTF-8" standalone="yes"?>
<!DOCTYPE earthquake SYSTEM "stationlist.dtd">
<stationlist created="" xmlns="ch.ethz.sed.shakemap.usgs.xml">
  <station code="GVD" name="GVD" netid="GE" source="GFZ" insttype="STS-2/N" lat="34.8391" lon="24.0874">
    <comp name="--.HHE">
      <acc value="0.3824964407" flag="0"/>
      <vel value="0.1577683190" flag="0"/>
      <psa03 value="1.5652951348" flag="0"/>
      <psa10 value="0.0587135658" flag="0"/>
      <psa30 value="0.0036058062" flag="0"/>
    </comp>
    <comp name="--.HHN">
      <acc value="0.4096848827" flag="0"/>
      <vel value="0.1599870494" flag="0"/>
      <psa03 value="1.1592316298" flag="0"/>
      <psa10 value="0.0522469136" flag="0"/>
      <psa30 value="0.0045360472" flag="0"/>
    </comp>
    <comp name="--.HHZ">
      <acc value="0.1658898501" flag="0"/>
      <vel value="0.0688729993" flag="0"/>
      <psa03 value="0.4241574723" flag="0"/>
      <psa10 value="0.0404696654" flag="0"/>
      <psa30 value="0.0025415310" flag="0"/>
    </comp>
  </station>
  <station code="IMMV" name="IMMV" netid="GE" source="GFZ" insttype="STS-2/N" lat="35.4606" lon="23.9811">
    <comp name="--.HHE">
      <acc value="0.3769356593" flag="0"/>
      <vel value="0.1076900130" flag="0"/>
      <psa03 value="0.4610629873" flag="0"/>
      <psa10 value="0.0584302749" flag="0"/>
      <psa30 value="0.0061084230" flag="0"/>
    </comp>
    <comp name="--.HHN">
      <acc value="0.2798041050" flag="0"/>
      <vel value="0.0765300845" flag="0"/>
      <psa03 value="0.4917481536" flag="0"/>
      <psa10 value="0.0486580004" flag="0"/>
      <psa30 value="0.0053072612" flag="0"/>
    </comp>
    <comp name="--.HHZ">
      <acc value="0.1927743677" flag="0"/>
      <vel value="0.0568355092" flag="0"/>
      <psa03 value="0.4029934015" flag="0"/>
      <psa10 value="0.0373807669" flag="0"/>
      <psa30 value="0.0047827449" flag="0"/>
    </comp>
  </station>
  <station code="CHAN" name="CHAN" netid="HC" source="NOA" insttype="120" lat="35.5193" lon="24.0428">
    <comp name="--.HHE">
      <acc value="0.2302886448" flag="0"/>
      <vel value="0.1264907439" flag="0"/>
      <psa03 value="0.4003472815" flag="0"/>
      <psa10 value="0.1624375643" flag="0"/>
      <psa30 value="0.0190538638" flag="0"/>
    </comp>
    <comp name="--.HHN">
      <acc value="0.1774076301" flag="0"/>
      <vel value="0.0739618814" flag="0"/>
      <psa03 value="0.3409393443" flag="0"/>
      <psa10 value="0.0995045050" flag="0"/>
      <psa30 value="0.0094152034" flag="0"/>
    </comp>
    <comp name="--.HHZ">
      <acc value="0.1636333849" flag="0"/>
      <vel value="0.0477957552" flag="0"/>
      <psa03 value="0.2820839710" flag="0"/>
      <psa10 value="0.0568380130" flag="0"/>
      <psa30 value="0.0060822742" flag="0"/>
    </comp>
  </station>
  <station code="KNDR" name="KNDR" netid="HC" source="NOA" insttype="60" lat="35.2348" lon="23.6248">
    <comp name="--.HHE">
      <acc value="1.6476868299" flag="0"/>
      <vel value="0.6559672124" flag="0"/>
      <psa03 value="3.1572297211" flag="0"/>
      <psa10 value="0.4612174099" flag="0"/>
      <psa30 value="0.0222105112" flag="0"/>
    </comp>
    <comp name="--.HHZ">
      <acc value="1.3579718010" flag="0"/>
      <vel value="0.2674331548" flag="0"/>
      <psa03 value="1.4487747616" flag="0"/>
      <psa10 value="0.1172528779" flag="0"/>
      <psa30 value="0.0107677045" flag="0"/>
    </comp>
    <comp name="--.HHN">
      <acc value="0.9181955268" flag="0"/>
      <vel value="0.4514015405" flag="0"/>
      <psa03 value="1.7851690346" flag="0"/>
      <psa10 value="0.3384631908" flag="0"/>
      <psa30 value="0.0237455612" flag="0"/>
    </comp>
  </station>
  <station code="ANKY" name="ANKY" netid="HL" source="NOA" insttype="60" lat="35.867" lon="23.3012">
    <comp name="--.HHE">
      <acc value="0.0130146439" flag="0"/>
      <vel value="0.0108680955" flag="0"/>
      <psa03 value="0.0301706927" flag="0"/>
      <psa10 value="0.0132849568" flag="0"/>
      <psa30 value="0.0008403499" flag="0"/>
    </comp>
    <comp name="--.HHN">
      <acc value="0.0147925230" flag="0"/>
      <vel value="0.0114274092" flag="0"/>
      <psa03 value="0.0428031689" flag="0"/>
      <psa10 value="0.0105036041" flag="0"/>
      <psa30 value="0.0005995106" flag="0"/>
    </comp>
    <comp name="--.HHZ">
      <acc value="0.0118724305" flag="0"/>
      <vel value="0.0049801135" flag="0"/>
      <psa03 value="0.0346656663" flag="0"/>
      <psa10 value="0.0038948295" flag="0"/>
      <psa30 value="0.0005227534" flag="0"/>
    </comp>
  </station>
  <station code="GVD" name="GVD" netid="HL" source="NOA" insttype="120" lat="34.8391" lon="24.0874">
    <comp name="--.HHE">
      <acc value="0.3740552640" flag="0"/>
      <vel value="0.1534714798" flag="0"/>
      <psa03 value="1.5209201705" flag="0"/>
      <psa10 value="0.0580099847" flag="0"/>
      <psa30 value="0.0035294256" flag="0"/>
    </comp>
    <comp name="--.HHN">
      <acc value="0.3979371397" flag="0"/>
      <vel value="0.1563716152" flag="0"/>
      <psa03 value="1.1261366285" flag="0"/>
      <psa10 value="0.0515984174" flag="0"/>
      <psa30 value="0.0044719937" flag="0"/>
    </comp>
    <comp name="--.HHZ">
      <acc value="0.1657212436" flag="0"/>
      <vel value="0.0671165991" flag="0"/>
      <psa03 value="0.4117213545" flag="0"/>
      <psa10 value="0.0402120471" flag="0"/>
      <psa30 value="0.0025154426" flag="0"/>
    </comp>
  </station>
  <station code="IACM" name="IACM" netid="HL" source="NOA" insttype="120" lat="35.3058" lon="25.0709">
    <comp name="--.HHE">
      <acc value="0.0409237680" flag="0"/>
      <vel value="0.0386314394" flag="0"/>
      <psa03 value="0.1136877444" flag="0"/>
      <psa10 value="0.0809880971" flag="0"/>
      <psa30 value="0.0024846552" flag="0"/>
    </comp>
    <comp name="--.HHN">
      <acc value="0.0439268719" flag="0"/>
      <vel value="0.0363979065" flag="0"/>
      <psa03 value="0.1270660624" flag="0"/>
      <psa10 value="0.0696130443" flag="0"/>
      <psa30 value="0.0029751392" flag="0"/>
    </comp>
    <comp name="--.HHZ">
      <acc value="0.0386056476" flag="0"/>
      <vel value="0.0211248791" flag="0"/>
      <psa03 value="0.0545591666" flag="0"/>
      <psa10 value="0.0380994782" flag="0"/>
      <psa30 value="0.0014065863" flag="0"/>
    </comp>
  </station>
  <station code="IDI" name="IDI" netid="HL" source="NOA" insttype="120" lat="35.288" lon="24.89">
    <comp name="--.HHN">
      <acc value="0.0114756238" flag="0"/>
      <vel value="0.0064247515" flag="0"/>
      <psa03 value="0.0198854197" flag="0"/>
      <psa10 value="0.0090123924" flag="0"/>
      <psa30 value="0.0005185626" flag="0"/>
    </comp>
    <comp name="--.HHZ">
      <acc value="0.0097090958" flag="0"/>
      <vel value="0.0040763579" flag="0"/>
      <psa03 value="0.0188156101" flag="0"/>
      <psa10 value="0.0044906627" flag="0"/>
      <psa30 value="0.0004568195" flag="0"/>
    </comp>
    <comp name="--.HHE">
      <acc value="0.0111192257" flag="0"/>
      <vel value="0.0041933229" flag="0"/>
      <psa03 value="0.0195454202" flag="0"/>
      <psa10 value="0.0067178260" flag="0"/>
      <psa30 value="0.0003678351" flag="0"/>
    </comp>
  </station>
  <station code="IMMV" name="IMMV" netid="HL" source="NOA" insttype="120" lat="35.4606" lon="23.9811">
    <comp name="--.HHE">
      <acc value="0.3746252010" flag="0"/>
      <vel value="0.1050230386" flag="0"/>
      <psa03 value="0.4471575407" flag="0"/>
      <psa10 value="0.0579854212" flag="0"/>
      <psa30 value="0.0060776134" flag="0"/>
    </comp>
    <comp name="--.HHZ">
      <acc value="0.1898250490" flag="0"/>
      <vel value="0.0552476804" flag="0"/>
      <psa03 value="0.3916005243" flag="0"/>
      <psa10 value="0.0370799718" flag="0"/>
      <psa30 value="0.0047711287" flag="0"/>
    </comp>
    <comp name="--.HHN">
      <acc value="0.2757143997" flag="0"/>
      <vel value="0.0740231775" flag="0"/>
      <psa03 value="0.4770993738" flag="0"/>
      <psa10 value="0.0483862273" flag="0"/>
      <psa30 value="0.0053096352" flag="0"/>
    </comp>
  </station>
  <station code="VAM" name="VAM" netid="HL" source="NOA" insttype="CMG3ESPC-120s" lat="35.407" lon="24.1997">
    <comp name="--.HHE">
      <acc value="0.1294386850" flag="0"/>
      <vel value="0.0453565393" flag="0"/>
      <psa03 value="0.1334931413" flag="0"/>
      <psa10 value="0.0638419541" flag="0"/>
      <psa30 value="0.0030737155" flag="0"/>
    </comp>
    <comp name="--.HHN">
      <acc value="0.1852802982" flag="0"/>
      <vel value="0.0623538340" flag="0"/>
      <psa03 value="0.2824172428" flag="0"/>
      <psa10 value="0.0539119678" flag="0"/>
      <psa30 value="0.0044759254" flag="0"/>
    </comp>
    <comp name="--.HHZ">
      <acc value="0.1170893339" flag="0"/>
      <vel value="0.0269072470" flag="0"/>
      <psa03 value="0.1407090519" flag="0"/>
      <psa10 value="0.0320077879" flag="0"/>
      <psa30 value="0.0018453492" flag="0"/>
    </comp>
  </station>
  <station code="IDI" name="IDI" netid="MN" source="INGV" insttype="" lat="35.288" lon="24.89">
    <comp name="--.HHE">
      <acc value="0.0115363479" flag="0"/>
      <vel value="0.0042828811" flag="0"/>
      <psa03 value="0.0199114113" flag="0"/>
      <psa10 value="0.0066702157" flag="0"/>
      <psa30 value="0.0003634953" flag="0"/>
    </comp>
    <comp name="--.HHN">
      <acc value="0.0116893840" flag="0"/>
      <vel value="0.0064359762" flag="0"/>
      <psa03 value="0.0201774300" flag="0"/>
      <psa10 value="0.0089496403" flag="0"/>
      <psa30 value="0.0005141660" flag="0"/>
    </comp>
    <comp name="--.HHZ">
      <acc value="0.0104177774" flag="0"/>
      <vel value="0.0040772637" flag="0"/>
      <psa03 value="0.0191951532" flag="0"/>
      <psa10 value="0.0044628177" flag="0"/>
      <psa30 value="0.0004514930" flag="0"/>
    </comp>
  </station>
</stationlist>
