<stationlist xmlns:esm="https://esm-db.eu/esmws/shakemap/1/" created="1783994263">
	<station code="IMMV" name="IMMV" netid="GE" source="GEOFON" insttype="" lat="35.4606" lon="23.9811" esm:processing="automatic (Paolucci et al 2011)" esm:quality="best">
		<comp name="--.HNE" depth="0.0">
			<acc value="0.364724687201113" flag="0"/>
			<vel value="0.106928418311191" flag="0"/>
			<psa03 value="0.461873798920419" flag="0"/>
			<psa10 value="0.0579254977983455" flag="0"/>
			<psa30 value="0.00654265287378988" flag="0"/>
		</comp>
		<comp name="--.HNN" depth="0.0">
			<acc value="0.270617324112234" flag="0"/>
			<vel value="0.0761539995451057" flag="0"/>
			<psa03 value="0.487018919039888" flag="0"/>
			<psa10 value="0.0488652009581455" flag="0"/>
			<psa30 value="0.005969952629076" flag="0"/>
		</comp>
		<comp name="--.HNZ" depth="0.0">
			<acc value="0.191438052419469" flag="0"/>
			<vel value="0.0580602281383804" flag="0"/>
			<psa03 value="0.394894715612867" flag="0"/>
			<psa10 value="0.0378438532018666" flag="0"/>
			<psa30 value="0.0051364053197776" flag="0"/>
		</comp>
	</station>
	<station code="KTHA" name="KTHA" netid="GE" source="GEOFON" insttype="" lat="36.2566" lon="23.0621" esm:processing="automatic (Paolucci et al 2011)" esm:quality="good">
		<comp name="--.HNE" depth="0.0">
			<acc value="0.0105399946735227" flag="0"/>
			<vel value="0.00834088571462368" flag="0"/>
			<psa03 value="0.0229974942017917" flag="0"/>
			<psa10 value="0.0160588727994301" flag="0"/>
			<psa30 value="0.00251182747954978" flag="0"/>
		</comp>
		<comp name="--.HNN" depth="0.0">
			<acc value="0.00560045304200624" flag="0"/>
			<vel value="0.00320833928617841" flag="0"/>
			<psa03 value="0.01449647494432" flag="0"/>
			<psa10 value="0.00417981694227895" flag="0"/>
			<psa30 value="0.000773592752429919" flag="0"/>
		</comp>
		<comp name="--.HNZ" depth="0.0">
			<acc value="0.00341361224451757" flag="0"/>
			<vel value="0.00256802128600599" flag="0"/>
			<psa03 value="0.00899318353027262" flag="0"/>
			<psa10 value="0.00552879447181984" flag="0"/>
			<psa30 value="0.00206932705609507" flag="0"/>
		</comp>
	</station>
	<station code="NPS1" name="NPS1" netid="HI" source="ITSAK Strong Motion Network" insttype="" lat="36.51263" lon="23.06248" esm:processing="manual (Paolucci et al 2011)" esm:quality="best">
		<comp name="--.HNE" depth="0.0">
			<acc value="0.00640803035878393" flag="0"/>
			<vel value="0.00388132284708582" flag="0"/>
			<psa03 value="0.016957296308325" flag="0"/>
			<psa10 value="0.00541201731254615" flag="0"/>
			<psa30 value="0.000603124945214303" flag="0"/>
		</comp>
		<comp name="--.HNN" depth="0.0">
			<acc value="0.00579384065743473" flag="0"/>
			<vel value="0.00470535726730918" flag="0"/>
			<psa03 value="0.0158834833494865" flag="0"/>
			<psa10 value="0.00361606513888872" flag="0"/>
			<psa30 value="0.000294403719548228" flag="0"/>
		</comp>
		<comp name="--.HNZ" depth="0.0">
			<acc value="0.00384644013051479" flag="0"/>
			<vel value="0.00168962702032818" flag="0"/>
			<psa03 value="0.0101564809023477" flag="0"/>
			<psa10 value="0.00336640362595877" flag="0"/>
			<psa30 value="0.000216104857966253" flag="0"/>
		</comp>
	</station>
	<station code="CHNB" name="CHNB" netid="HL" source="National Observatory of Athens Seismic Network" insttype="" lat="35.48765" lon="24.06605" esm:processing="manual (Paolucci et al 2011)" esm:quality="best">
		<comp name="00.HNE" depth="0.0">
			<acc value="0.429853147519102" flag="0"/>
			<vel value="0.164462349062137" flag="0"/>
			<psa03 value="0.725909171251726" flag="0"/>
			<psa10 value="0.169331367371888" flag="0"/>
			<psa30 value="0.00936708719021272" flag="0"/>
		</comp>
		<comp name="00.HNN" depth="0.0">
			<acc value="0.351607935503686" flag="0"/>
			<vel value="0.218699911698242" flag="0"/>
			<psa03 value="0.779699067904453" flag="0"/>
			<psa10 value="0.240282182515434" flag="0"/>
			<psa30 value="0.0102340429551323" flag="0"/>
		</comp>
		<comp name="00.HNZ" depth="0.0">
			<acc value="0.228851293201751" flag="0"/>
			<vel value="0.0962240940694129" flag="0"/>
			<psa03 value="0.572780193878329" flag="0"/>
			<psa10 value="0.0571406452871637" flag="0"/>
			<psa30 value="0.00411065356062307" flag="0"/>
		</comp>
	</station>
	<station code="HERG" name="HERG" netid="HL" source="National Observatory of Athens Seismic Network" insttype="" lat="35.32622" lon="25.06586" esm:processing="manual (Paolucci et al 2011)" esm:quality="best">
		<comp name="00.HNE" depth="0.0">
			<acc value="0.0221761387586351" flag="0"/>
			<vel value="0.027094898873315" flag="0"/>
			<psa03 value="0.0721080424288599" flag="0"/>
			<psa10 value="0.0554314020585401" flag="0"/>
			<psa30 value="0.00249834258626892" flag="0"/>
		</comp>
		<comp name="00.HNN" depth="0.0">
			<acc value="0.0218964545303157" flag="0"/>
			<vel value="0.02983719837238" flag="0"/>
			<psa03 value="0.04123733593779" flag="0"/>
			<psa10 value="0.0481767639743078" flag="0"/>
			<psa30 value="0.00352561147112287" flag="0"/>
		</comp>
		<comp name="00.HNZ" depth="0.0">
			<acc value="0.0186397744953888" flag="0"/>
			<vel value="0.0166889782293962" flag="0"/>
			<psa03 value="0.0382758897565111" flag="0"/>
			<psa10 value="0.0223157914366748" flag="0"/>
			<psa30 value="0.00113624995848285" flag="0"/>
		</comp>
	</station>
	<station code="IACM" name="IACM" netid="HL" source="National Observatory of Athens Seismic Network" insttype="" lat="35.3058" lon="25.0709" esm:processing="manual (Paolucci et al 2011)" esm:quality="good">
		<comp name="--.HNE" depth="0.0">
			<acc value="0.0411775906000729" flag="0"/>
			<vel value="0.0387406671777413" flag="0"/>
			<psa03 value="0.112193473933605" flag="0"/>
			<psa10 value="0.0825195365141461" flag="0"/>
			<psa30 value="0.00242869693091822" flag="0"/>
		</comp>
		<comp name="--.HNN" depth="0.0">
			<acc value="0.0443930179616628" flag="0"/>
			<vel value="0.0378904942140938" flag="0"/>
			<psa03 value="0.128388213422321" flag="0"/>
			<psa10 value="0.0665652596217971" flag="0"/>
			<psa30 value="0.00300083733241391" flag="0"/>
		</comp>
		<comp name="--.HNZ" depth="0.0">
			<acc value="0.0393137082930605" flag="0"/>
			<vel value="0.0205970699850696" flag="0"/>
			<psa03 value="0.0535572666562675" flag="0"/>
			<psa10 value="0.0369501627669586" flag="0"/>
			<psa30 value="0.00141875669400306" flag="0"/>
		</comp>
	</station>
	<station code="IMMV" name="IMMV" netid="HL" source="National Observatory of Athens Seismic Network" insttype="" lat="35.4606" lon="23.9811" esm:processing="manual (Paolucci et al 2011)" esm:quality="best">
		<comp name="--.HNE" depth="0.0">
			<acc value="0.361794406510569" flag="0"/>
			<vel value="0.105548101754825" flag="0"/>
			<psa03 value="0.452477935530582" flag="0"/>
			<psa10 value="0.0567657798027999" flag="0"/>
			<psa30 value="0.00654757451651789" flag="0"/>
		</comp>
		<comp name="--.HNN" depth="0.0">
			<acc value="0.266718992081018" flag="0"/>
			<vel value="0.0751849057720041" flag="0"/>
			<psa03 value="0.477175633583868" flag="0"/>
			<psa10 value="0.0478826621008083" flag="0"/>
			<psa30 value="0.00602319585495174" flag="0"/>
		</comp>
		<comp name="--.HNZ" depth="0.0">
			<acc value="0.193403725093426" flag="0"/>
			<vel value="0.056784483709613" flag="0"/>
			<psa03 value="0.386841118421578" flag="0"/>
			<psa10 value="0.0371351366490332" flag="0"/>
			<psa30 value="0.00514043211837324" flag="0"/>
		</comp>
	</station>
	<station code="SIT2" name="SIT2" netid="HI" source="ITSAK Strong Motion Network" insttype="" lat="35.2059" lon="26.107" esm:processing="discarded" esm:quality="good">
		<comp name="--.HNE" depth="0.0">
			<acc value="0" flag="1"/>
			<vel value="0" flag="1"/>
			<psa03 value="0" flag="1"/>
			<psa10 value="0" flag="1"/>
			<psa30 value="0" flag="1"/>
		</comp>
		<comp name="--.HNN" depth="0.0">
			<acc value="0" flag="1"/>
			<vel value="0" flag="1"/>
			<psa03 value="0" flag="1"/>
			<psa10 value="0" flag="1"/>
			<psa30 value="0" flag="1"/>
		</comp>
		<comp name="--.HNZ" depth="0.0">
			<acc value="0" flag="1"/>
			<vel value="0" flag="1"/>
			<psa03 value="0" flag="1"/>
			<psa10 value="0" flag="1"/>
			<psa30 value="0" flag="1"/>
		</comp>
	</station>
	<station code="KTHA" name="KTHA" netid="HL" source="National Observatory of Athens Seismic Network" insttype="" lat="36.2566" lon="23.0621" esm:processing="discarded" esm:quality="bad">
		<comp name="--.HNE" depth="0.0">
			<acc value="0" flag="1"/>
			<vel value="0" flag="1"/>
			<psa03 value="0" flag="1"/>
			<psa10 value="0" flag="1"/>
			<psa30 value="0" flag="1"/>
		</comp>
		<comp name="--.HNN" depth="0.0">
			<acc value="0" flag="1"/>
			<vel value="0" flag="1"/>
			<psa03 value="0" flag="1"/>
			<psa10 value="0" flag="1"/>
			<psa30 value="0" flag="1"/>
		</comp>
		<comp name="--.HNZ" depth="0.0">
			<acc value="0" flag="1"/>
			<vel value="0" flag="1"/>
			<psa03 value="0" flag="1"/>
			<psa10 value="0" flag="1"/>
			<psa30 value="0" flag="1"/>
		</comp>
	</station>
	<station code="MILA" name="MILA" netid="HL" source="National Observatory of Athens Seismic Network" insttype="" lat="36.74288" lon="24.4282" esm:processing="discarded" esm:quality="bad">
		<comp name="00.HNE" depth="0.0">
			<acc value="0" flag="1"/>
			<vel value="0" flag="1"/>
			<psa03 value="0" flag="1"/>
			<psa10 value="0" flag="1"/>
			<psa30 value="0" flag="1"/>
		</comp>
		<comp name="00.HNN" depth="0.0">
			<acc value="0" flag="1"/>
			<vel value="0" flag="1"/>
			<psa03 value="0" flag="1"/>
			<psa10 value="0" flag="1"/>
			<psa30 value="0" flag="1"/>
		</comp>
		<comp name="00.HNZ" depth="0.0">
			<acc value="0" flag="1"/>
			<vel value="0" flag="1"/>
			<psa03 value="0" flag="1"/>
			<psa10 value="0" flag="1"/>
			<psa30 value="0" flag="1"/>
		</comp>
	</station>
	<station code="MNVA" name="MNVA" netid="HL" source="National Observatory of Athens Seismic Network" insttype="" lat="36.68709" lon="23.03734" esm:processing="discarded" esm:quality="bad">
		<comp name="00.HNE" depth="0.0">
			<acc value="0" flag="1"/>
			<vel value="0" flag="1"/>
			<psa03 value="0" flag="1"/>
			<psa10 value="0" flag="1"/>
			<psa30 value="0" flag="1"/>
		</comp>
		<comp name="00.HNN" depth="0.0">
			<acc value="0" flag="1"/>
			<vel value="0" flag="1"/>
			<psa03 value="0" flag="1"/>
			<psa10 value="0" flag="1"/>
			<psa30 value="0" flag="1"/>
		</comp>
		<comp name="00.HNZ" depth="0.0">
			<acc value="0" flag="1"/>
			<vel value="0" flag="1"/>
			<psa03 value="0" flag="1"/>
			<psa10 value="0" flag="1"/>
			<psa30 value="0" flag="1"/>
		</comp>
	</station>
	<station code="THRA" name="THRA" netid="HL" source="National Observatory of Athens Seismic Network" insttype="" lat="36.41502" lon="25.43244" esm:processing="discarded" esm:quality="bad">
		<comp name="00.HNE" depth="0.0">
			<acc value="0" flag="1"/>
			<vel value="0" flag="1"/>
			<psa03 value="0" flag="1"/>
			<psa10 value="0" flag="1"/>
			<psa30 value="0" flag="1"/>
		</comp>
		<comp name="00.HNN" depth="0.0">
			<acc value="0" flag="1"/>
			<vel value="0" flag="1"/>
			<psa03 value="0" flag="1"/>
			<psa10 value="0" flag="1"/>
			<psa30 value="0" flag="1"/>
		</comp>
		<comp name="00.HNZ" depth="0.0">
			<acc value="0" flag="1"/>
			<vel value="0" flag="1"/>
			<psa03 value="0" flag="1"/>
			<psa10 value="0" flag="1"/>
			<psa30 value="0" flag="1"/>
		</comp>
	</station>
</stationlist>
