<?xml version="1.0" encoding="UTF-8" standalone="yes"?>
<!DOCTYPE earthquake SYSTEM "stationlist.dtd">
<stationlist created="" xmlns="ch.ethz.sed.shakemap.usgs.xml">
  <station code="DYBB" name="DYBB" netid="KO" insttype="CMG-3T" lat="37.9532" lon="40.1393">
    <comp name="--.HHZ">
      <acc value="0.0118879973" flag="0"/>
      <vel value="0.0039794044" flag="0"/>
      <psa03 value="0.0223114839" flag="0"/>
      <psa10 value="0.0035341211" flag="0"/>
      <psa30 value="0.0005011250" flag="0"/>
    </comp>
    <comp name="--.HHE">
      <acc value="0.0126979543" flag="0"/>
      <vel value="0.0068330371" flag="0"/>
      <psa03 value="0.0215706023" flag="0"/>
      <psa10 value="0.0065309078" flag="0"/>
      <psa30 value="0.0010174823" flag="0"/>
    </comp>
    <comp name="--.HHN">
      <acc value="0.0218244002" flag="0"/>
      <vel value="0.0068815429" flag="0"/>
      <psa03 value="0.0501700277" flag="0"/>
      <psa10 value="0.0053016341" flag="0"/>
      <psa30 value="0.0017017269" flag="0"/>
    </comp>
  </station>
</stationlist>
