<?xml version="1.0" encoding="UTF-8" standalone="yes"?>
<!DOCTYPE earthquake SYSTEM "stationlist.dtd">
<stationlist created="" xmlns="ch.ethz.sed.shakemap.usgs.xml">
  <station code="THERA" name="THERA" netid="GE" insttype="STS-2/N" lat="36.367" lon="25.4753">
    <comp name="--.HHE">
      <acc value="0.6429867008" flag="0"/>
      <vel value="0.1645214145" flag="0"/>
      <psa03 value="1.2100873678" flag="0"/>
      <psa10 value="0.0460786315" flag="0"/>
      <psa30 value="0.0042694640" flag="0"/>
    </comp>
    <comp name="--.HHN">
      <acc value="0.6435660710" flag="0"/>
      <vel value="0.1397989299" flag="0"/>
      <psa03 value="0.6860747075" flag="0"/>
      <psa10 value="0.0282065441" flag="0"/>
      <psa30 value="0.0024875610" flag="0"/>
    </comp>
    <comp name="--.HHZ">
      <acc value="0.6825033438" flag="0"/>
      <vel value="0.1551061546" flag="0"/>
      <psa03 value="0.5121408990" flag="0"/>
      <psa10 value="0.0490453778" flag="0"/>
      <psa30 value="0.0032340664" flag="0"/>
    </comp>
  </station>
</stationlist>
