<?xml version="1.0" encoding="UTF-8" standalone="yes"?>
<!DOCTYPE earthquake SYSTEM "stationlist.dtd">
<stationlist created="" xmlns="ch.ethz.sed.shakemap.usgs.xml">
  <station code="APE" name="APE" netid="GE" insttype="STS-2/N" lat="37.0727" lon="25.523">
    <comp name="--.HHN">
      <acc value="0.4091668901" flag="0"/>
      <vel value="0.0716842608" flag="0"/>
      <psa03 value="0.1784713972" flag="0"/>
      <psa10 value="0.0183725468" flag="0"/>
      <psa30 value="0.0055060474" flag="0"/>
    </comp>
    <comp name="--.HHE">
      <acc value="0.2998651302" flag="0"/>
      <vel value="0.0588327346" flag="0"/>
      <psa03 value="0.2961491824" flag="0"/>
      <psa10 value="0.0163065176" flag="0"/>
      <psa30 value="0.0053210087" flag="0"/>
    </comp>
    <comp name="--.HHZ">
      <acc value="0.1312384076" flag="0"/>
      <vel value="0.0270420900" flag="0"/>
      <psa03 value="0.1110377800" flag="0"/>
      <psa10 value="0.0148504178" flag="0"/>
      <psa30 value="0.0058640740" flag="0"/>
    </comp>
  </station>
  <station code="THERA" name="THERA" netid="GE" insttype="STS-2/N" lat="36.367" lon="25.4753">
    <comp name="--.HHZ">
      <acc value="0.6825033445" flag="0"/>
      <vel value="0.1551061547" flag="0"/>
      <psa03 value="0.5121408990" flag="0"/>
      <psa10 value="0.0490453448" flag="0"/>
      <psa30 value="0.0032337389" flag="0"/>
    </comp>
    <comp name="--.HHN">
      <acc value="0.6435660715" flag="0"/>
      <vel value="0.1397989352" flag="0"/>
      <psa03 value="0.6860747075" flag="0"/>
      <psa10 value="0.0282064966" flag="0"/>
      <psa30 value="0.0024900512" flag="0"/>
    </comp>
    <comp name="--.HHE">
      <acc value="0.6429867009" flag="0"/>
      <vel value="0.1645214199" flag="0"/>
      <psa03 value="1.2100873678" flag="0"/>
      <psa10 value="0.0460785643" flag="0"/>
      <psa30 value="0.0042691901" flag="0"/>
    </comp>
  </station>
</stationlist>
