<stationlist xmlns:esm="https://esm-db.eu/esmws/shakemap/1/" created="1783994073">
	<station code="ARG2" name="ARG2" netid="HI" source="ITSAK Strong Motion Network" insttype="" lat="38.1783" lon="20.4878" esm:processing="manual (Paolucci et al 2011)" esm:quality="good">
		<comp name="--.HNE" depth="0.0">
			<acc value="0.303391322636279" flag="0"/>
			<vel value="0.113152298129043" flag="0"/>
			<psa03 value="0.410912425582208" flag="0"/>
			<psa10 value="0.0414719987365423" flag="0"/>
			<psa30 value="0.00824643610181366" flag="0"/>
		</comp>
		<comp name="--.HNN" depth="0.0">
			<acc value="0.233310529411223" flag="0"/>
			<vel value="0.0927874719683437" flag="0"/>
			<psa03 value="0.325186357701599" flag="0"/>
			<psa10 value="0.0684434957301688" flag="0"/>
			<psa30 value="0.00686166480697816" flag="0"/>
		</comp>
		<comp name="--.HNZ" depth="0.0">
			<acc value="0.189587087227907" flag="0"/>
			<vel value="0.0456281830249955" flag="0"/>
			<psa03 value="0.27337488243764" flag="0"/>
			<psa10 value="0.0197393667158491" flag="0"/>
			<psa30 value="0.00527197420583096" flag="0"/>
		</comp>
	</station>
	<station code="KLV1" name="KLV1" netid="HI" source="ITSAK Strong Motion Network" insttype="" lat="38.03256" lon="22.10797" esm:processing="manual (Paolucci et al 2011)" esm:quality="good">
		<comp name="--.HNE" depth="0.0">
			<acc value="0.024296035961009" flag="0"/>
			<vel value="0.0136496729066437" flag="0"/>
			<psa03 value="0.0941376027248438" flag="0"/>
			<psa10 value="0.0133891053305178" flag="0"/>
			<psa30 value="0.00293732586448954" flag="0"/>
		</comp>
		<comp name="--.HNN" depth="0.0">
			<acc value="0.0330760804762746" flag="0"/>
			<vel value="0.0162045661697462" flag="0"/>
			<psa03 value="0.0924373988733495" flag="0"/>
			<psa10 value="0.0126683083818975" flag="0"/>
			<psa30 value="0.00188677885309252" flag="0"/>
		</comp>
		<comp name="--.HNZ" depth="0.0">
			<acc value="0.0116284910584045" flag="0"/>
			<vel value="0.00857988083606884" flag="0"/>
			<psa03 value="0.0288587232687853" flag="0"/>
			<psa10 value="0.00990592454528537" flag="0"/>
			<psa30 value="0.00291853413770987" flag="0"/>
		</comp>
	</station>
	<station code="MSL1" name="MSL1" netid="HI" source="ITSAK Strong Motion Network" insttype="" lat="38.3727" lon="21.4243" esm:processing="manual (Paolucci et al 2011)" esm:quality="good">
		<comp name="--.HNE" depth="0.0">
			<acc value="0.0335136744674256" flag="0"/>
			<vel value="0.0419891318056465" flag="0"/>
			<psa03 value="0.0931980163858601" flag="0"/>
			<psa10 value="0.0578852298123891" flag="0"/>
			<psa30 value="0.0112146340888698" flag="0"/>
		</comp>
		<comp name="--.HNN" depth="0.0">
			<acc value="0.0489835352503207" flag="0"/>
			<vel value="0.042231034691805" flag="0"/>
			<psa03 value="0.137090121078385" flag="0"/>
			<psa10 value="0.0522275777855086" flag="0"/>
			<psa30 value="0.00716904376644568" flag="0"/>
		</comp>
		<comp name="--.HNZ" depth="0.0">
			<acc value="0.0154220523560124" flag="0"/>
			<vel value="0.0132914655439726" flag="0"/>
			<psa03 value="0.0364648983938915" flag="0"/>
			<psa10 value="0.0261902980660716" flag="0"/>
			<psa30 value="0.00276596321314156" flag="0"/>
		</comp>
	</station>
	<station code="NPS1" name="NPS1" netid="HI" source="ITSAK Strong Motion Network" insttype="" lat="36.51263" lon="23.06248" esm:processing="manual (Paolucci et al 2011)" esm:quality="best">
		<comp name="--.HNE" depth="0.0">
			<acc value="0.00835242290326892" flag="0"/>
			<vel value="0.00640494936234214" flag="0"/>
			<psa03 value="0.027067980620891" flag="0"/>
			<psa10 value="0.00931694470187635" flag="0"/>
			<psa30 value="0.00128305457940319" flag="0"/>
		</comp>
		<comp name="--.HNN" depth="0.0">
			<acc value="0.00684076405692841" flag="0"/>
			<vel value="0.00566261719561871" flag="0"/>
			<psa03 value="0.021436183062756" flag="0"/>
			<psa10 value="0.00931593494745776" flag="0"/>
			<psa30 value="0.0012859832109084" flag="0"/>
		</comp>
		<comp name="--.HNZ" depth="0.0">
			<acc value="0.00361305579025914" flag="0"/>
			<vel value="0.00276843617334095" flag="0"/>
			<psa03 value="0.0101570804088117" flag="0"/>
			<psa10 value="0.00332573414169003" flag="0"/>
			<psa30 value="0.00114213149393902" flag="0"/>
		</comp>
	</station>
	<station code="PYL1" name="PYL1" netid="HI" source="ITSAK Strong Motion Network" insttype="" lat="36.914188" lon="21.695161" esm:processing="manual (Paolucci et al 2011)" esm:quality="best">
		<comp name="--.HNE" depth="0.0">
			<acc value="0.0769055522771269" flag="0"/>
			<vel value="0.0302715117117141" flag="0"/>
			<psa03 value="0.227021956381111" flag="0"/>
			<psa10 value="0.0298184436007472" flag="0"/>
			<psa30 value="0.00436012803495058" flag="0"/>
		</comp>
		<comp name="--.HNN" depth="0.0">
			<acc value="0.0419370695024836" flag="0"/>
			<vel value="0.0259038979521614" flag="0"/>
			<psa03 value="0.0982986279403431" flag="0"/>
			<psa10 value="0.0214910241049545" flag="0"/>
			<psa30 value="0.00731848273655071" flag="0"/>
		</comp>
		<comp name="--.HNZ" depth="0.0">
			<acc value="0.0363084830160356" flag="0"/>
			<vel value="0.0110257917043276" flag="0"/>
			<psa03 value="0.0706032020436328" flag="0"/>
			<psa10 value="0.00640663656567033" flag="0"/>
			<psa30 value="0.00137179605491621" flag="0"/>
		</comp>
	</station>
	<station code="ARTB" name="ARTB" netid="HL" source="National Observatory of Athens Seismic Network" insttype="" lat="39.15702" lon="20.9785" esm:processing="automatic (Paolucci et al 2011)" esm:quality="good">
		<comp name="00.HNE" depth="0.0">
			<acc value="0.0177072762537353" flag="0"/>
			<vel value="0.00961989442574422" flag="0"/>
			<psa03 value="0.0775529916716769" flag="0"/>
			<psa10 value="0.00712851347904343" flag="0"/>
			<psa30 value="0.0015701987054598" flag="0"/>
		</comp>
		<comp name="00.HNN" depth="0.0">
			<acc value="0.0172620230638179" flag="0"/>
			<vel value="0.00953056005577023" flag="0"/>
			<psa03 value="0.0510876863919014" flag="0"/>
			<psa10 value="0.00671352505058581" flag="0"/>
			<psa30 value="0.0018535782071242" flag="0"/>
		</comp>
		<comp name="00.HNZ" depth="0.0">
			<acc value="0.00804976930958799" flag="0"/>
			<vel value="0.00609568957705596" flag="0"/>
			<psa03 value="0.0147660706276409" flag="0"/>
			<psa10 value="0.00409531723216125" flag="0"/>
			<psa30 value="0.00261455278462235" flag="0"/>
		</comp>
	</station>
	<station code="ITM" name="ITM" netid="HL" source="National Observatory of Athens Seismic Network" insttype="" lat="37.17872" lon="21.92522" esm:processing="manual (Paolucci et al 2011)" esm:quality="best">
		<comp name="--.HNE" depth="0.0">
			<acc value="0.0433060567197011" flag="0"/>
			<vel value="0.0210645214313944" flag="0"/>
			<psa03 value="0.0685450605391923" flag="0"/>
			<psa10 value="0.0210037814748815" flag="0"/>
			<psa30 value="0.00650283230989962" flag="0"/>
		</comp>
		<comp name="--.HNN" depth="0.0">
			<acc value="0.0622432118117181" flag="0"/>
			<vel value="0.0296272390112198" flag="0"/>
			<psa03 value="0.116553448240598" flag="0"/>
			<psa10 value="0.0201098321866484" flag="0"/>
			<psa30 value="0.00783570264505793" flag="0"/>
		</comp>
		<comp name="--.HNZ" depth="0.0">
			<acc value="0.0287705272781203" flag="0"/>
			<vel value="0.0148927631233371" flag="0"/>
			<psa03 value="0.0602230101081938" flag="0"/>
			<psa10 value="0.0160910871881953" flag="0"/>
			<psa30 value="0.0029149547611804" flag="0"/>
		</comp>
	</station>
	<station code="KIAA" name="KIAA" netid="HL" source="National Observatory of Athens Seismic Network" insttype="" lat="38.0139" lon="22.7495" esm:processing="manual (Paolucci et al 2011)" esm:quality="good">
		<comp name="00.HNE" depth="0.0">
			<acc value="0.0221184722186976" flag="0"/>
			<vel value="0.0413761642268615" flag="0"/>
			<psa03 value="0.0683590753282515" flag="0"/>
			<psa10 value="0.0462257722305459" flag="0"/>
			<psa30 value="0.0117401977304817" flag="0"/>
		</comp>
		<comp name="00.HNN" depth="0.0">
			<acc value="0.0216453225719004" flag="0"/>
			<vel value="0.0268016766814763" flag="0"/>
			<psa03 value="0.0499447356769559" flag="0"/>
			<psa10 value="0.0301923388442721" flag="0"/>
			<psa30 value="0.0141647116759651" flag="0"/>
		</comp>
		<comp name="00.HNZ" depth="0.0">
			<acc value="0.0167527505654905" flag="0"/>
			<vel value="0.0162457014287242" flag="0"/>
			<psa03 value="0.0482663692850861" flag="0"/>
			<psa10 value="0.0209308621918969" flag="0"/>
			<psa30 value="0.00573785427135221" flag="0"/>
		</comp>
	</station>
	<station code="LXRA" name="LXRA" netid="HL" source="National Observatory of Athens Seismic Network" insttype="" lat="38.20006" lon="20.43718" esm:processing="manual (Paolucci et al 2011)" esm:quality="good">
		<comp name="00.HNE" depth="0.0">
			<acc value="0.302647411207271" flag="0"/>
			<vel value="0.106520532099215" flag="0"/>
			<psa03 value="0.444379596132675" flag="0"/>
			<psa10 value="0.079235315966496" flag="0"/>
			<psa30 value="0.0175120996703916" flag="0"/>
		</comp>
		<comp name="00.HNN" depth="0.0">
			<acc value="0.267978995315296" flag="0"/>
			<vel value="0.0907848851651231" flag="0"/>
			<psa03 value="0.573550346639626" flag="0"/>
			<psa10 value="0.110366495909423" flag="0"/>
			<psa30 value="0.0138369748187667" flag="0"/>
		</comp>
		<comp name="00.HNZ" depth="0.0">
			<acc value="0.194051937734612" flag="0"/>
			<vel value="0.0453388118857374" flag="0"/>
			<psa03 value="0.259907478245541" flag="0"/>
			<psa10 value="0.054216816291757" flag="0"/>
			<psa30 value="0.00907685145664879" flag="0"/>
		</comp>
	</station>
	<station code="PATC" name="PATC" netid="HL" source="National Observatory of Athens Seismic Network" insttype="" lat="38.26933" lon="21.76001" esm:processing="manual (Paolucci et al 2011)" esm:quality="best">
		<comp name="00.HNE" depth="0.0">
			<acc value="0.0416921818351725" flag="0"/>
			<vel value="0.0418793908996058" flag="0"/>
			<psa03 value="0.0933769852123332" flag="0"/>
			<psa10 value="0.0452451090206611" flag="0"/>
			<psa30 value="0.0243813706524948" flag="0"/>
		</comp>
		<comp name="00.HNN" depth="0.0">
			<acc value="0.0471420838621372" flag="0"/>
			<vel value="0.0451372943555495" flag="0"/>
			<psa03 value="0.122235708481118" flag="0"/>
			<psa10 value="0.0427082259054051" flag="0"/>
			<psa30 value="0.016350144564515" flag="0"/>
		</comp>
		<comp name="00.HNZ" depth="0.0">
			<acc value="0.0217931758707679" flag="0"/>
			<vel value="0.0223865770279613" flag="0"/>
			<psa03 value="0.0597308458353928" flag="0"/>
			<psa10 value="0.0279943038369203" flag="0"/>
			<psa30 value="0.00889833005224188" flag="0"/>
		</comp>
	</station>
	<station code="PATG" name="PATG" netid="HL" source="National Observatory of Athens Seismic Network" insttype="" lat="38.23865" lon="21.72657" esm:processing="manual (Paolucci et al 2011)" esm:quality="good">
		<comp name="00.HNE" depth="0.0">
			<acc value="0.042171499650464" flag="0"/>
			<vel value="0.0408229798033996" flag="0"/>
			<psa03 value="0.130870954358445" flag="0"/>
			<psa10 value="0.0453377253883609" flag="0"/>
			<psa30 value="0.0214878921504912" flag="0"/>
		</comp>
		<comp name="00.HNN" depth="0.0">
			<acc value="0.0462550366731976" flag="0"/>
			<vel value="0.0623225892879432" flag="0"/>
			<psa03 value="0.140266817748282" flag="0"/>
			<psa10 value="0.0638046237479864" flag="0"/>
			<psa30 value="0.0235728789789027" flag="0"/>
		</comp>
		<comp name="00.HNZ" depth="0.0">
			<acc value="0.0205045033625805" flag="0"/>
			<vel value="0.0451858774042714" flag="0"/>
			<psa03 value="0.074093094159858" flag="0"/>
			<psa10 value="0.0346385215197336" flag="0"/>
			<psa30 value="0.0145940129547479" flag="0"/>
		</comp>
	</station>
	<station code="SMHA" name="SMHA" netid="HL" source="National Observatory of Athens Seismic Network" insttype="" lat="38.25123" lon="20.6477" esm:processing="manual (Paolucci et al 2011)" esm:quality="good">
		<comp name="00.HNE" depth="0.0">
			<acc value="0.203960183746815" flag="0"/>
			<vel value="0.0990206156402017" flag="0"/>
			<psa03 value="0.655024642167849" flag="0"/>
			<psa10 value="0.0602504600472842" flag="0"/>
			<psa30 value="0.00761712709728727" flag="0"/>
		</comp>
		<comp name="00.HNN" depth="0.0">
			<acc value="0.227367059212009" flag="0"/>
			<vel value="0.105536245432904" flag="0"/>
			<psa03 value="0.474579313550408" flag="0"/>
			<psa10 value="0.0783953583077434" flag="0"/>
			<psa30 value="0.00595602330731346" flag="0"/>
		</comp>
		<comp name="00.HNZ" depth="0.0">
			<acc value="0.145379704621271" flag="0"/>
			<vel value="0.04801336841955" flag="0"/>
			<psa03 value="0.272051855433595" flag="0"/>
			<psa10 value="0.0312340922303213" flag="0"/>
			<psa30 value="0.00346149743221673" flag="0"/>
		</comp>
	</station>
	<station code="ZARA" name="ZARA" netid="HL" source="National Observatory of Athens Seismic Network" insttype="" lat="37.4865" lon="21.6491" esm:processing="manual (Paolucci et al 2011)" esm:quality="good">
		<comp name="00.HNE" depth="0.0">
			<acc value="0.285975566700028" flag="0"/>
			<vel value="0.148065271968336" flag="0"/>
			<psa03 value="0.824347608983407" flag="0"/>
			<psa10 value="0.0587163646709945" flag="0"/>
			<psa30 value="0.00519462828529665" flag="0"/>
		</comp>
		<comp name="00.HNN" depth="0.0">
			<acc value="0.262882361534983" flag="0"/>
			<vel value="0.110528807462134" flag="0"/>
			<psa03 value="1.03424068003593" flag="0"/>
			<psa10 value="0.0412817034602541" flag="0"/>
			<psa30 value="0.00505166089774221" flag="0"/>
		</comp>
		<comp name="00.HNZ" depth="0.0">
			<acc value="0.100295495976996" flag="0"/>
			<vel value="0.0332784304227256" flag="0"/>
			<psa03 value="0.307805723951913" flag="0"/>
			<psa10 value="0.03595195914085" flag="0"/>
			<psa30 value="0.00309070870261647" flag="0"/>
		</comp>
	</station>
	<station code="ANX" name="ANX" netid="HP" source="University of Patras, Seismological Laboratory (PSLNET)" insttype="" lat="38.5933" lon="21.9209" esm:processing="manual (Paolucci et al 2011)" esm:quality="good">
		<comp name="--.HNE" depth="0.0">
			<acc value="0.0182108897866006" flag="0"/>
			<vel value="0.0198139731838872" flag="0"/>
			<psa03 value="0.0366385286852128" flag="0"/>
			<psa10 value="0.0140133845679535" flag="0"/>
			<psa30 value="0.00510574989753966" flag="0"/>
		</comp>
		<comp name="--.HNN" depth="0.0">
			<acc value="0.0222969657238702" flag="0"/>
			<vel value="0.0165093313450178" flag="0"/>
			<psa03 value="0.0464170176079469" flag="0"/>
			<psa10 value="0.0153311215490614" flag="0"/>
			<psa30 value="0.0035458090591149" flag="0"/>
		</comp>
		<comp name="--.HNZ" depth="0.0">
			<acc value="0.00883899997693852" flag="0"/>
			<vel value="0.0110581100614569" flag="0"/>
			<psa03 value="0.0248323715852466" flag="0"/>
			<psa10 value="0.00841368236516448" flag="0"/>
			<psa30 value="0.00406822408321304" flag="0"/>
		</comp>
	</station>
	<station code="FSK" name="FSK" netid="HP" source="University of Patras, Seismological Laboratory (PSLNET)" insttype="" lat="38.4593" lon="20.5623" esm:processing="manual (Paolucci et al 2011)" esm:quality="good">
		<comp name="--.HNE" depth="0.0">
			<acc value="0.10350682419578" flag="0"/>
			<vel value="0.0295665694143576" flag="0"/>
			<psa03 value="0.0698926873391874" flag="0"/>
			<psa10 value="0.0240016743681328" flag="0"/>
			<psa30 value="0.0099511558819061" flag="0"/>
		</comp>
		<comp name="--.HNN" depth="0.0">
			<acc value="0.0382911759918063" flag="0"/>
			<vel value="0.015350654928085" flag="0"/>
			<psa03 value="0.0700187946515112" flag="0"/>
			<psa10 value="0.0196744033326638" flag="0"/>
			<psa30 value="0.00538502589820408" flag="0"/>
		</comp>
		<comp name="--.HNZ" depth="0.0">
			<acc value="0.039069644720893" flag="0"/>
			<vel value="0.0162231498070006" flag="0"/>
			<psa03 value="0.064946651355244" flag="0"/>
			<psa10 value="0.0108916843331335" flag="0"/>
			<psa30 value="0.00215372704884704" flag="0"/>
		</comp>
	</station>
	<station code="ROD3" name="ROD3" netid="CL" source="Corinth Riff Laboratory (CRLNET)" insttype="" lat="38.30811" lon="21.89204" esm:processing="discarded" esm:quality="good">
		<comp name="00.HNE" depth="0.0">
			<acc value="0" flag="1"/>
			<vel value="0" flag="1"/>
			<psa03 value="0" flag="1"/>
			<psa10 value="0" flag="1"/>
			<psa30 value="0" flag="1"/>
		</comp>
		<comp name="00.HNN" depth="0.0">
			<acc value="0" flag="1"/>
			<vel value="0" flag="1"/>
			<psa03 value="0" flag="1"/>
			<psa10 value="0" flag="1"/>
			<psa30 value="0" flag="1"/>
		</comp>
		<comp name="00.HNZ" depth="0.0">
			<acc value="0" flag="1"/>
			<vel value="0" flag="1"/>
			<psa03 value="0" flag="1"/>
			<psa10 value="0" flag="1"/>
			<psa30 value="0" flag="1"/>
		</comp>
	</station>
	<station code="ARS1" name="ARS1" netid="HI" source="ITSAK Strong Motion Network" insttype="" lat="37.6349" lon="22.7293" esm:processing="discarded" esm:quality="best">
		<comp name="--.HNE" depth="0.0">
			<acc value="0" flag="1"/>
			<vel value="0" flag="1"/>
			<psa03 value="0" flag="1"/>
			<psa10 value="0" flag="1"/>
			<psa30 value="0" flag="1"/>
		</comp>
		<comp name="--.HNN" depth="0.0">
			<acc value="0" flag="1"/>
			<vel value="0" flag="1"/>
			<psa03 value="0" flag="1"/>
			<psa10 value="0" flag="1"/>
			<psa30 value="0" flag="1"/>
		</comp>
		<comp name="--.HNZ" depth="0.0">
			<acc value="0" flag="1"/>
			<vel value="0" flag="1"/>
			<psa03 value="0" flag="1"/>
			<psa10 value="0" flag="1"/>
			<psa30 value="0" flag="1"/>
		</comp>
	</station>
	<station code="ART2" name="ART2" netid="HI" source="ITSAK Strong Motion Network" insttype="" lat="39.1474" lon="20.9937" esm:processing="discarded" esm:quality="good">
		<comp name="--.HNE" depth="0.0">
			<acc value="0" flag="1"/>
			<vel value="0" flag="1"/>
			<psa03 value="0" flag="1"/>
			<psa10 value="0" flag="1"/>
			<psa30 value="0" flag="1"/>
		</comp>
		<comp name="--.HNN" depth="0.0">
			<acc value="0" flag="1"/>
			<vel value="0" flag="1"/>
			<psa03 value="0" flag="1"/>
			<psa10 value="0" flag="1"/>
			<psa30 value="0" flag="1"/>
		</comp>
		<comp name="--.HNZ" depth="0.0">
			<acc value="0" flag="1"/>
			<vel value="0" flag="1"/>
			<psa03 value="0" flag="1"/>
			<psa10 value="0" flag="1"/>
			<psa30 value="0" flag="1"/>
		</comp>
	</station>
	<station code="KRI1" name="KRI1" netid="HI" source="ITSAK Strong Motion Network" insttype="" lat="37.6621" lon="20.8172" esm:processing="discarded" esm:quality="good">
		<comp name="--.HNE" depth="0.0">
			<acc value="0" flag="1"/>
			<vel value="0" flag="1"/>
			<psa03 value="0" flag="1"/>
			<psa10 value="0" flag="1"/>
			<psa30 value="0" flag="1"/>
		</comp>
		<comp name="--.HNN" depth="0.0">
			<acc value="0" flag="1"/>
			<vel value="0" flag="1"/>
			<psa03 value="0" flag="1"/>
			<psa10 value="0" flag="1"/>
			<psa30 value="0" flag="1"/>
		</comp>
		<comp name="--.HNZ" depth="0.0">
			<acc value="0" flag="1"/>
			<vel value="0" flag="1"/>
			<psa03 value="0" flag="1"/>
			<psa10 value="0" flag="1"/>
			<psa30 value="0" flag="1"/>
		</comp>
	</station>
	<station code="LAM2" name="LAM2" netid="HI" source="ITSAK Strong Motion Network" insttype="" lat="38.90203" lon="22.431301" esm:processing="discarded" esm:quality="bad">
		<comp name="--.HNE" depth="0.0">
			<acc value="0" flag="1"/>
			<vel value="0" flag="1"/>
			<psa03 value="0" flag="1"/>
			<psa10 value="0" flag="1"/>
			<psa30 value="0" flag="1"/>
		</comp>
		<comp name="--.HNN" depth="0.0">
			<acc value="0" flag="1"/>
			<vel value="0" flag="1"/>
			<psa03 value="0" flag="1"/>
			<psa10 value="0" flag="1"/>
			<psa30 value="0" flag="1"/>
		</comp>
		<comp name="--.HNZ" depth="0.0">
			<acc value="0" flag="1"/>
			<vel value="0" flag="1"/>
			<psa03 value="0" flag="1"/>
			<psa10 value="0" flag="1"/>
			<psa30 value="0" flag="1"/>
		</comp>
	</station>
	<station code="DLFA" name="DLFA" netid="HL" source="National Observatory of Athens Seismic Network" insttype="" lat="38.47836" lon="22.49583" esm:processing="discarded" esm:quality="bad">
