<?xml version="1.0" encoding="UTF-8" standalone="yes"?>
<!DOCTYPE earthquake SYSTEM "stationlist.dtd">
<stationlist created="" xmlns="ch.ethz.sed.shakemap.usgs.xml">
  <station code="AGRP" name="AGRP" netid="CL" source="RESIF" insttype="30" lat="38.3959" lon="21.7228">
    <comp name="00.HHE">
      <acc value="0.0108189201" flag="0"/>
      <vel value="0.0087773253" flag="0"/>
      <psa03 value="0.0288684815" flag="0"/>
      <psa10 value="0.0078008442" flag="0"/>
      <psa30 value="0.0030210929" flag="0"/>
    </comp>
    <comp name="00.HHN">
      <acc value="0.0103412883" flag="0"/>
      <vel value="0.0089976652" flag="0"/>
      <psa03 value="0.0298659973" flag="0"/>
      <psa10 value="0.0130403106" flag="0"/>
      <psa30 value="0.0033516794" flag="0"/>
    </comp>
    <comp name="00.HHZ">
      <acc value="0.0063568293" flag="0"/>
      <vel value="0.0062674977" flag="0"/>
      <psa03 value="0.0171366603" flag="0"/>
      <psa10 value="0.0069452125" flag="0"/>
      <psa30 value="0.0026834526" flag="0"/>
    </comp>
  </station>
  <station code="MALA" name="MALA" netid="CL" source="RESIF" insttype="30" lat="38.3935" lon="21.8726">
    <comp name="00.HH2">
      <acc value="0.0161106136" flag="0"/>
      <vel value="0.0133296263" flag="0"/>
      <psa03 value="0.0345734495" flag="0"/>
      <psa10 value="0.0099725767" flag="0"/>
      <psa30 value="0.0049710851" flag="0"/>
    </comp>
    <comp name="00.HH3">
      <acc value="0.0134596649" flag="0"/>
      <vel value="0.0112824186" flag="0"/>
      <psa03 value="0.0320091970" flag="0"/>
      <psa10 value="0.0075258281" flag="0"/>
      <psa30 value="0.0069738432" flag="0"/>
    </comp>
    <comp name="00.HHZ">
      <acc value="0.0058482237" flag="0"/>
      <vel value="0.0063982021" flag="0"/>
      <psa03 value="0.0143998141" flag="0"/>
      <psa10 value="0.0085471828" flag="0"/>
      <psa30 value="0.0029851120" flag="0"/>
    </comp>
  </station>
  <station code="MG06" name="MG06" netid="CL" source="RESIF" insttype="40" lat="38.4129" lon="21.9462">
    <comp name="06.HHE">
      <acc value="0.0109386928" flag="0"/>
      <vel value="0.0081363598" flag="0"/>
      <psa03 value="0.0353914084" flag="0"/>
      <psa10 value="0.0076583443" flag="0"/>
      <psa30 value="0.0024346545" flag="0"/>
    </comp>
    <comp name="06.HHN">
      <acc value="0.0122799216" flag="0"/>
      <vel value="0.0080429164" flag="0"/>
      <psa03 value="0.0320907237" flag="0"/>
      <psa10 value="0.0082977439" flag="0"/>
      <psa30 value="0.0036091800" flag="0"/>
    </comp>
    <comp name="06.HHZ">
      <acc value="0.0101267191" flag="0"/>
      <vel value="0.0047792172" flag="0"/>
      <psa03 value="0.0145301642" flag="0"/>
      <psa10 value="0.0044653261" flag="0"/>
      <psa30 value="0.0028230700" flag="0"/>
    </comp>
  </station>
  <station code="ROD3" name="ROD3" netid="CL" source="RESIF" insttype="30" lat="38.3081" lon="21.892">
    <comp name="00.HHE">
      <acc value="0.0448223310" flag="0"/>
      <vel value="0.0304251499" flag="0"/>
      <psa03 value="0.1875027646" flag="0"/>
      <psa10 value="0.0214076089" flag="0"/>
      <psa30 value="0.0089620654" flag="0"/>
    </comp>
    <comp name="00.HHN">
      <acc value="0.0485575322" flag="0"/>
      <vel value="0.0370880286" flag="0"/>
      <psa03 value="0.1946952914" flag="0"/>
      <psa10 value="0.0231725823" flag="0"/>
      <psa30 value="0.0056008552" flag="0"/>
    </comp>
    <comp name="00.HHZ">
      <acc value="0.0257431717" flag="0"/>
      <vel value="0.0181394705" flag="0"/>
      <psa03 value="0.0464178186" flag="0"/>
      <psa10 value="0.0180966394" flag="0"/>
      <psa30 value="0.0048824235" flag="0"/>
    </comp>
  </station>
  <station code="ITM" name="ITM" netid="HL" source="NOA" insttype="DR24" lat="37.1787" lon="21.9252">
    <comp name="--.HHE">
      <acc value="0.0431693770" flag="0"/>
      <vel value="0.0215687975" flag="0"/>
      <psa03 value="0.0682814225" flag="0"/>
      <psa10 value="0.0215294583" flag="0"/>
      <psa30 value="0.0057921700" flag="0"/>
    </comp>
    <comp name="--.HHN">
      <acc value="0.0629759594" flag="0"/>
      <vel value="0.0288252333" flag="0"/>
      <psa03 value="0.1213029866" flag="0"/>
      <psa10 value="0.0203013500" flag="0"/>
      <psa30 value="0.0077230197" flag="0"/>
    </comp>
    <comp name="--.HHZ">
      <acc value="0.0301709606" flag="0"/>
      <vel value="0.0155847532" flag="0"/>
      <psa03 value="0.0646392137" flag="0"/>
      <psa10 value="0.0170846077" flag="0"/>
      <psa30 value="0.0028347098" flag="0"/>
    </comp>
  </station>
  <station code="GUR" name="GUR" netid="HP" source="NOA" insttype="40," lat="37.9363" lon="22.3423">
    <comp name="--.HHE">
      <acc value="0.0202608604" flag="0"/>
      <vel value="0.0125586805" flag="0"/>
      <psa03 value="0.0650393870" flag="0"/>
      <psa10 value="0.0102128781" flag="0"/>
      <psa30 value="0.0016752745" flag="0"/>
    </comp>
    <comp name="--.HHN">
      <acc value="0.0286452269" flag="0"/>
      <vel value="0.0188715183" flag="0"/>
      <psa03 value="0.0901262922" flag="0"/>
      <psa10 value="0.0103141670" flag="0"/>
      <psa30 value="0.0024393759" flag="0"/>
    </comp>
    <comp name="--.HHZ">
      <acc value="0.0144246628" flag="0"/>
      <vel value="0.0100580613" flag="0"/>
      <psa03 value="0.0408092320" flag="0"/>
      <psa10 value="0.0084392473" flag="0"/>
      <psa30 value="0.0013265849" flag="0"/>
    </comp>
  </station>
  <station code="PVO" name="PVO" netid="HP" source="NOA" insttype="120P," lat="38.616" lon="21.525">
    <comp name="--.HHE">
      <acc value="0.0272076050" flag="0"/>
      <vel value="0.0136888505" flag="0"/>
      <psa03 value="0.0599234089" flag="0"/>
      <psa10 value="0.0076686756" flag="0"/>
      <psa30 value="0.0031535811" flag="0"/>
    </comp>
    <comp name="--.HHN">
      <acc value="0.0204397687" flag="0"/>
      <vel value="0.0142642910" flag="0"/>
      <psa03 value="0.0534854784" flag="0"/>
      <psa10 value="0.0094495267" flag="0"/>
      <psa30 value="0.0027396989" flag="0"/>
    </comp>
    <comp name="--.HHZ">
      <acc value="0.0246166905" flag="0"/>
      <vel value="0.0082521293" flag="0"/>
      <psa03 value="0.0357275346" flag="0"/>
      <psa10 value="0.0108667811" flag="0"/>
      <psa30 value="0.0032447120" flag="0"/>
    </comp>
  </station>
</stationlist>
