<?xml version="1.0" encoding="UTF-8" standalone="yes"?>
<!DOCTYPE earthquake SYSTEM "stationlist.dtd">
<stationlist created="" xmlns="ch.ethz.sed.shakemap.usgs.xml">
  <station code="APE" name="APE" netid="GE" insttype="STS-2/N" lat="37.0727" lon="25.523">
    <comp name="--.HHE">
      <acc value="0.3757196955" flag="0"/>
      <vel value="0.0778790229" flag="0"/>
      <psa03 value="0.3224281401" flag="0"/>
      <psa10 value="0.0325012320" flag="0"/>
      <psa30 value="0.0037846263" flag="0"/>
    </comp>
    <comp name="--.HHZ">
      <acc value="0.1708131140" flag="0"/>
      <vel value="0.0449618148" flag="0"/>
      <psa03 value="0.2423158552" flag="0"/>
      <psa10 value="0.0316005433" flag="0"/>
      <psa30 value="0.0031102965" flag="0"/>
    </comp>
    <comp name="--.HHN">
      <acc value="0.5534363586" flag="0"/>
      <vel value="0.0998716881" flag="0"/>
      <psa03 value="0.2748878422" flag="0"/>
      <psa10 value="0.0350233748" flag="0"/>
      <psa30 value="0.0048975940" flag="0"/>
    </comp>
  </station>
  <station code="THERA" name="THERA" netid="GE" insttype="STS-2/N" lat="36.367" lon="25.4753">
    <comp name="--.HHZ">
      <acc value="0.4164266206" flag="0"/>
      <vel value="0.1211834441" flag="0"/>
      <psa03 value="1.0099157482" flag="0"/>
      <psa10 value="0.0357488582" flag="0"/>
      <psa30 value="0.0058924733" flag="0"/>
    </comp>
    <comp name="--.HHE">
      <acc value="0.4700495935" flag="0"/>
      <vel value="0.1986266233" flag="0"/>
      <psa03 value="0.8250194743" flag="0"/>
      <psa10 value="0.1047853294" flag="0"/>
      <psa30 value="0.0127880872" flag="0"/>
    </comp>
    <comp name="--.HHN">
      <acc value="0.2838809519" flag="0"/>
      <vel value="0.1129973805" flag="0"/>
      <psa03 value="0.5700844777" flag="0"/>
      <psa10 value="0.0499944562" flag="0"/>
      <psa30 value="0.0037666199" flag="0"/>
    </comp>
  </station>
</stationlist>
