<?xml version="1.0" encoding="UTF-8" standalone="yes"?>
<!DOCTYPE earthquake SYSTEM "stationlist.dtd">
<stationlist created="" xmlns="ch.ethz.sed.shakemap.usgs.xml">
  <station code="ANDN" name="ANDN" netid="TU" insttype="T" lat="37.58" lon="36.3452">
    <comp name="--.HHZ">
      <acc value="0.3886608468" flag="0"/>
      <vel value="0.2921051805" flag="0"/>
      <psa03 value="1.1256265872" flag="0"/>
      <psa10 value="0.4582809021" flag="0"/>
      <psa30 value="0.0253303435" flag="0"/>
    </comp>
    <comp name="--.HHN">
      <acc value="0.9939051545" flag="0"/>
      <vel value="0.4510139723" flag="0"/>
      <psa03 value="2.2099348254" flag="0"/>
      <psa10 value="0.4825044774" flag="0"/>
      <psa30 value="0.0210338870" flag="0"/>
    </comp>
    <comp name="--.HHE">
      <acc value="0.6837414550" flag="0"/>
      <vel value="0.5313957244" flag="0"/>
      <psa03 value="2.2663253895" flag="0"/>
      <psa10 value="0.4469784965" flag="0"/>
      <psa30 value="0.0537223885" flag="0"/>
    </comp>
  </station>
</stationlist>
