<?xml version="1.0" encoding="UTF-8" standalone="yes"?>
<!DOCTYPE earthquake SYSTEM "stationlist.dtd">
<stationlist created="" xmlns="ch.ethz.sed.shakemap.usgs.xml">
  <station code="EGYH" name="EGYH" netid="HU" insttype="" lat="47.4162" lon="17.3317">
    <comp name="--.HHN">
      <acc value="0.0186526634" flag="0"/>
      <vel value="0.0141039793" flag="0"/>
      <psa03 value="0.0524352715" flag="0"/>
      <psa10 value="0.0227289289" flag="0"/>
      <psa30 value="0.0012353203" flag="0"/>
    </comp>
    <comp name="--.HHE">
      <acc value="0.0201616789" flag="0"/>
      <vel value="0.0136054520" flag="0"/>
      <psa03 value="0.0542819453" flag="0"/>
      <psa10 value="0.0150823582" flag="0"/>
      <psa30 value="0.0008663479" flag="0"/>
    </comp>
    <comp name="--.HHZ">
      <acc value="0.0165686903" flag="0"/>
      <vel value="0.0064383922" flag="0"/>
      <psa03 value="0.0335846632" flag="0"/>
      <psa10 value="0.0082267611" flag="0"/>
      <psa30 value="0.0005646544" flag="0"/>
    </comp>
  </station>
  <station code="MPLH" name="MPLH" netid="HU" insttype="" lat="47.1712" lon="17.5348">
    <comp name="--.HHN">
      <acc value="0.0080519564" flag="0"/>
      <vel value="0.0057344005" flag="0"/>
      <psa03 value="0.0343345928" flag="0"/>
      <psa10 value="0.0050861861" flag="0"/>
      <psa30 value="0.0006197342" flag="0"/>
    </comp>
    <comp name="--.HHE">
      <acc value="0.0084086997" flag="0"/>
      <vel value="0.0049970045" flag="0"/>
      <psa03 value="0.0217513270" flag="0"/>
      <psa10 value="0.0038200014" flag="0"/>
      <psa30 value="0.0003849729" flag="0"/>
    </comp>
    <comp name="--.HHZ">
      <acc value="0.0049161059" flag="0"/>
      <vel value="0.0022930453" flag="0"/>
      <psa03 value="0.0155556093" flag="0"/>
      <psa10 value="0.0030658349" flag="0"/>
      <psa30 value="0.0002847893" flag="0"/>
    </comp>
  </station>
  <station code="SOP" name="SOP" netid="HU" insttype="" lat="47.6807" lon="16.5567">
    <comp name="--.HHN">
      <acc value="0.0718053743" flag="0"/>
      <vel value="0.0267804139" flag="0"/>
      <psa03 value="0.0784517844" flag="0"/>
      <psa10 value="0.0209964141" flag="0"/>
      <psa30 value="0.0015891442" flag="0"/>
    </comp>
    <comp name="--.HHZ">
      <acc value="0.0496231117" flag="0"/>
      <vel value="0.0156980130" flag="0"/>
      <psa03 value="0.0652728176" flag="0"/>
      <psa10 value="0.0086900355" flag="0"/>
      <psa30 value="0.0004958019" flag="0"/>
    </comp>
    <comp name="--.HHE">
      <acc value="0.0572442405" flag="0"/>
      <vel value="0.0233660781" flag="0"/>
      <psa03 value="0.0810419198" flag="0"/>
      <psa10 value="0.0172642693" flag="0"/>
      <psa30 value="0.0013700986" flag="0"/>
    </comp>
  </station>
  <station code="ARSA" name="ARSA" netid="OE" source="ODC" insttype="STS-2" lat="47.2505" lon="15.5232">
    <comp name="--.HHE">
      <acc value="0.0245485108" flag="0"/>
      <vel value="0.0093676713" flag="0"/>
      <psa03 value="0.0418540080" flag="0"/>
      <psa10 value="0.0073546449" flag="0"/>
      <psa30 value="0.0005627807" flag="0"/>
    </comp>
    <comp name="--.HHN">
      <acc value="0.0297188024" flag="0"/>
      <vel value="0.0093546963" flag="0"/>
      <psa03 value="0.0374085986" flag="0"/>
      <psa10 value="0.0059764862" flag="0"/>
      <psa30 value="0.0005061353" flag="0"/>
    </comp>
    <comp name="--.HHZ">
      <acc value="0.0334531240" flag="0"/>
      <vel value="0.0143035584" flag="0"/>
      <psa03 value="0.0768991434" flag="0"/>
      <psa10 value="0.0069477629" flag="0"/>
      <psa30 value="0.0006776570" flag="0"/>
    </comp>
  </station>
  <station code="CONA" name="CONA" netid="OE" source="ODC" insttype="STS-2" lat="47.9282" lon="15.8618">
    <comp name="--.HHZ">
      <acc value="0.0533889394" flag="0"/>
      <vel value="0.0202549508" flag="0"/>
      <psa03 value="0.0939007151" flag="0"/>
      <psa10 value="0.0149055189" flag="0"/>
      <psa30 value="0.0011849481" flag="0"/>
    </comp>
    <comp name="--.HHE">
      <acc value="0.0623279767" flag="0"/>
      <vel value="0.0260655367" flag="0"/>
      <psa03 value="0.1240003322" flag="0"/>
      <psa10 value="0.0261659659" flag="0"/>
      <psa30 value="0.0016713815" flag="0"/>
    </comp>
    <comp name="--.HHN">
      <acc value="0.0653306324" flag="0"/>
      <vel value="0.0236151114" flag="0"/>
      <psa03 value="0.1351311259" flag="0"/>
      <psa10 value="0.0282247850" flag="0"/>
      <psa30 value="0.0015144379" flag="0"/>
    </comp>
  </station>
  <station code="CSNA" name="CSNA" netid="OE" source="ODC" insttype="STS-2" lat="47.9282" lon="15.8588">
    <comp name="--.HHE">
      <acc value="0.1155507015" flag="0"/>
      <vel value="0.0264436080" flag="0"/>
      <psa03 value="0.1141728481" flag="0"/>
      <psa10 value="0.0282142450" flag="0"/>
      <psa30 value="0.0018912759" flag="0"/>
    </comp>
    <comp name="--.HHN">
      <acc value="0.1220974415" flag="0"/>
      <vel value="0.0288549500" flag="0"/>
      <psa03 value="0.1061996492" flag="0"/>
      <psa10 value="0.0308130057" flag="0"/>
      <psa30 value="0.0015293212" flag="0"/>
    </comp>
    <comp name="--.HHZ">
      <acc value="0.0775213148" flag="0"/>
      <vel value="0.0209011786" flag="0"/>
      <psa03 value="0.0779817523" flag="0"/>
      <psa10 value="0.0145560993" flag="0"/>
      <psa30 value="0.0011498656" flag="0"/>
    </comp>
  </station>
  <station code="RONA" name="RONA" netid="OE" source="ODC" insttype="STS-2.5/Quanterra" lat="47.6997" lon="16.2963">
    <comp name="--.HHZ">
      <acc value="0.2917233010" flag="0"/>
      <vel value="0.0454083230" flag="0"/>
      <psa03 value="0.1139130913" flag="0"/>
      <psa10 value="0.0191590725" flag="0"/>
      <psa30 value="0.0020280927" flag="0"/>
    </comp>
    <comp name="--.HHE">
      <acc value="0.8726350315" flag="0"/>
      <vel value="0.1717401126" flag="0"/>
      <psa03 value="0.2569289852" flag="0"/>
      <psa10 value="0.0752985652" flag="0"/>
      <psa30 value="0.0065455172" flag="0"/>
    </comp>
    <comp name="--.HHN">
      <acc value="0.8019921775" flag="0"/>
      <vel value="0.1246196138" flag="0"/>
      <psa03 value="0.3311926674" flag="0"/>
      <psa10 value="0.0706170011" flag="0"/>
      <psa30 value="0.0064194893" flag="0"/>
    </comp>
  </station>
  <station code="VIE" name="VIE" netid="OE" source="ODC" insttype="STS-2" lat="48.2483" lon="16.3617">
    <comp name="--.HHN">
      <acc value="0.1539716630" flag="0"/>
      <vel value="0.1176344275" flag="0"/>
      <psa03 value="0.3170810604" flag="0"/>
      <psa10 value="0.1650625146" flag="0"/>
      <psa30 value="0.0079939891" flag="0"/>
    </comp>
    <comp name="--.HHZ">
      <acc value="0.1001878526" flag="0"/>
      <vel value="0.0601125849" flag="0"/>
      <psa03 value="0.2960039904" flag="0"/>
      <psa10 value="0.0700095597" flag="0"/>
      <psa30 value="0.0037461493" flag="0"/>
    </comp>
    <comp name="--.HHE">
      <acc value="0.2674855553" flag="0"/>
      <vel value="0.1007827420" flag="0"/>
      <psa03 value="0.5011387857" flag="0"/>
      <psa10 value="0.1431924823" flag="0"/>
      <psa30 value="0.0075450821" flag="0"/>
    </comp>
  </station>
</stationlist>
