<stationlist xmlns:esm="https://esm-db.eu/esmws/shakemap/1/" created="1784339643">
	<station code="CRES" name="CRES" netid="SL" source="Seismic Network of the Republic of Slovenia (SNRS)" insttype="" lat="45.826" lon="15.4569" esm:processing="manual (Paolucci et al 2011)" esm:quality="best">
		<comp name="--.HNE" depth="0.0">
			<acc value="0.00126714658918939" flag="0"/>
			<vel value="0.00118443663031632" flag="0"/>
			<psa03 value="0.00320269784009721" flag="0"/>
			<psa10 value="0.00165697296945222" flag="0"/>
			<psa30 value="0.000337292422092618" flag="0"/>
		</comp>
		<comp name="--.HNN" depth="0.0">
			<acc value="0.00138526910994936" flag="0"/>
			<vel value="0.000801046388216431" flag="0"/>
			<psa03 value="0.00235826152924215" flag="0"/>
			<psa10 value="0.00115826165102493" flag="0"/>
			<psa30 value="0.000199401191121135" flag="0"/>
		</comp>
		<comp name="--.HNZ" depth="0.0">
			<acc value="0.000953107516159539" flag="0"/>
			<vel value="0.000569812940210158" flag="0"/>
			<psa03 value="0.00102327725975272" flag="0"/>
			<psa10 value="0.00133985371967077" flag="0"/>
			<psa30 value="0.000268238316347013" flag="0"/>
		</comp>
	</station>
	<station code="DOBS" name="DOBS" netid="SL" source="Seismic Network of the Republic of Slovenia (SNRS)" insttype="" lat="46.1495" lon="15.4695" esm:processing="manual (Paolucci et al 2011)" esm:quality="best">
		<comp name="--.HNE" depth="0.0">
			<acc value="0.00283608844159864" flag="0"/>
			<vel value="0.00188424244046426" flag="0"/>
			<psa03 value="0.00334637076918199" flag="0"/>
			<psa10 value="0.00280840166782757" flag="0"/>
			<psa30 value="0.000431240859257172" flag="0"/>
		</comp>
		<comp name="--.HNN" depth="0.0">
			<acc value="0.00368513478219755" flag="0"/>
			<vel value="0.00183075537967936" flag="0"/>
			<psa03 value="0.0033722207889106" flag="0"/>
			<psa10 value="0.00311454851105345" flag="0"/>
			<psa30 value="0.000226368094733652" flag="0"/>
		</comp>
		<comp name="--.HNZ" depth="0.0">
			<acc value="0.0014777908558921" flag="0"/>
			<vel value="0.0012122755825372" flag="0"/>
			<psa03 value="0.00153459303295496" flag="0"/>
			<psa10 value="0.0023998774957311" flag="0"/>
			<psa30 value="0.000204892531457982" flag="0"/>
		</comp>
	</station>
	<station code="GROS" name="GROS" netid="SL" source="Seismic Network of the Republic of Slovenia (SNRS)" insttype="" lat="46.461" lon="15.5018" esm:processing="manual (Paolucci et al 2011)" esm:quality="bad">
		<comp name="--.HNE" depth="0.0">
			<acc value="0.00737654364404027" flag="0"/>
			<vel value="0.00290151453234641" flag="0"/>
			<psa03 value="0.00618553345915959" flag="0"/>
			<psa10 value="0.00346130304433917" flag="0"/>
			<psa30 value="0.000438655829629389" flag="0"/>
		</comp>
		<comp name="--.HNN" depth="0.0">
			<acc value="0.00737994376814823" flag="0"/>
			<vel value="0.00204148714693635" flag="0"/>
			<psa03 value="0.00594070539155398" flag="0"/>
			<psa10 value="0.00296263930719073" flag="0"/>
			<psa30 value="0.000247076862421052" flag="0"/>
		</comp>
		<comp name="--.HNZ" depth="0.0">
			<acc value="0.00311904296596049" flag="0"/>
			<vel value="0.00126591467176475" flag="0"/>
			<psa03 value="0.00444604322646073" flag="0"/>
			<psa10 value="0.00320478628573798" flag="0"/>
			<psa30 value="0.000118132356939066" flag="0"/>
		</comp>
	</station>
	<station code="KOGS" name="KOGS" netid="SL" source="Seismic Network of the Republic of Slovenia (SNRS)" insttype="" lat="46.4481" lon="16.2504" esm:processing="manual (Paolucci et al 2011)" esm:quality="best">
		<comp name="--.HNE" depth="0.0">
			<acc value="0.010480884725423" flag="0"/>
			<vel value="0.00794645803550517" flag="0"/>
			<psa03 value="0.0219192619393679" flag="0"/>
			<psa10 value="0.0143334588963198" flag="0"/>
			<psa30 value="0.00104672652799742" flag="0"/>
		</comp>
		<comp name="--.HNN" depth="0.0">
			<acc value="0.0155302353633485" flag="0"/>
			<vel value="0.00866622512603059" flag="0"/>
			<psa03 value="0.0275109005871402" flag="0"/>
			<psa10 value="0.0112431791804334" flag="0"/>
			<psa30 value="0.000769525873143669" flag="0"/>
		</comp>
		<comp name="--.HNZ" depth="0.0">
			<acc value="0.0077751351154866" flag="0"/>
			<vel value="0.00334211890553261" flag="0"/>
			<psa03 value="0.0115417684917781" flag="0"/>
			<psa10 value="0.00371463724836126" flag="0"/>
			<psa30 value="0.000293569369404908" flag="0"/>
		</comp>
	</station>
	<station code="MOZS" name="MOZS" netid="SL" source="Seismic Network of the Republic of Slovenia (SNRS)" insttype="" lat="46.2941" lon="14.4433" esm:processing="manual (Paolucci et al 2011)" esm:quality="best">
		<comp name="--.HNE" depth="0.0">
			<acc value="0.00375529422786937" flag="0"/>
			<vel value="0.00224556184250107" flag="0"/>
			<psa03 value="0.0113972966816322" flag="0"/>
			<psa10 value="0.00470233150639146" flag="0"/>
			<psa30 value="0.000180630064813789" flag="0"/>
		</comp>
		<comp name="--.HNN" depth="0.0">
			<acc value="0.00360114697938828" flag="0"/>
			<vel value="0.00164582673981767" flag="0"/>
			<psa03 value="0.011048311323477" flag="0"/>
			<psa10 value="0.00303641185050875" flag="0"/>
			<psa30 value="0.000129946603116202" flag="0"/>
		</comp>
		<comp name="--.HNZ" depth="0.0">
			<acc value="0.00235613763346523" flag="0"/>
			<vel value="0.00137151685826361" flag="0"/>
			<psa03 value="0.00575704022983265" flag="0"/>
			<psa10 value="0.00272288592470243" flag="0"/>
			<psa30 value="0.00016380134582711" flag="0"/>
		</comp>
	</station>
	<station code="PERS" name="PERS" netid="SL" source="Seismic Network of the Republic of Slovenia (SNRS)" insttype="" lat="46.6365" lon="15.1139" esm:processing="manual (Paolucci et al 2011)" esm:quality="best">
		<comp name="--.HNE" depth="0.0">
			<acc value="0.00626965694731866" flag="0"/>
			<vel value="0.0040338115815473" flag="0"/>
			<psa03 value="0.0232141289679299" flag="0"/>
			<psa10 value="0.00233624914004144" flag="0"/>
			<psa30 value="0.00029422248558759" flag="0"/>
		</comp>
		<comp name="--.HNN" depth="0.0">
			<acc value="0.00883700107411737" flag="0"/>
			<vel value="0.00501388559677204" flag="0"/>
			<psa03 value="0.0202491812526125" flag="0"/>
			<psa10 value="0.00386744721502204" flag="0"/>
			<psa30 value="0.000267091677887728" flag="0"/>
		</comp>
		<comp name="--.HNZ" depth="0.0">
			<acc value="0.00521319788709588" flag="0"/>
			<vel value="0.00240229357966397" flag="0"/>
			<psa03 value="0.0158853843599854" flag="0"/>
			<psa10 value="0.00235824411272358" flag="0"/>
			<psa30 value="0.000285573240742259" flag="0"/>
		</comp>
	</station>
	<station code="VNDS" name="VNDS" netid="SL" source="Seismic Network of the Republic of Slovenia (SNRS)" insttype="" lat="46.1016" lon="14.7014" esm:processing="manual (Paolucci et al 2011)" esm:quality="bad">
		<comp name="--.HNE" depth="0.0">
			<acc value="0.00181115753356278" flag="0"/>
			<vel value="0.00165931119349765" flag="0"/>
			<psa03 value="0.00611800619934342" flag="0"/>
			<psa10 value="0.00263646941878487" flag="0"/>
			<psa30 value="0.000251048635948382" flag="0"/>
		</comp>
		<comp name="--.HNN" depth="0.0">
			<acc value="0.00232346720174263" flag="0"/>
			<vel value="0.00238046411045959" flag="0"/>
			<psa03 value="0.0035004870984241" flag="0"/>
			<psa10 value="0.00385799283871652" flag="0"/>
			<psa30 value="0.000174920637112909" flag="0"/>
		</comp>
		<comp name="--.HNZ" depth="0.0">
			<acc value="0.00118076379728683" flag="0"/>
			<vel value="0.000861943107571827" flag="0"/>
			<psa03 value="0.0030697342793097" flag="0"/>
			<psa10 value="0.00119694757315241" flag="0"/>
			<psa30 value="0.000148043140464831" flag="0"/>
		</comp>
	</station>
	<station code="ZAVS" name="ZAVS" netid="SL" source="Seismic Network of the Republic of Slovenia (SNRS)" insttype="" lat="46.4342" lon="15.0246" esm:processing="manual (Paolucci et al 2011)" esm:quality="best">
		<comp name="--.HNE" depth="0.0">
			<acc value="0.00496242937259116" flag="0"/>
			<vel value="0.00250867101710169" flag="0"/>
			<psa03 value="0.0141639083415162" flag="0"/>
			<psa10 value="0.00325999767759613" flag="0"/>
			<psa30 value="0.000146264181471901" flag="0"/>
		</comp>
		<comp name="--.HNN" depth="0.0">
			<acc value="0.00591537344047586" flag="0"/>
			<vel value="0.00251684664191033" flag="0"/>
			<psa03 value="0.0136411562638115" flag="0"/>
			<psa10 value="0.00442390649957687" flag="0"/>
			<psa30 value="0.000146106254343238" flag="0"/>
		</comp>
		<comp name="--.HNZ" depth="0.0">
			<acc value="0.00283865776090628" flag="0"/>
			<vel value="0.00161378585265274" flag="0"/>
			<psa03 value="0.0070221787265399" flag="0"/>
			<psa10 value="0.0034043731011347" flag="0"/>
			<psa30 value="0.000151927720715911" flag="0"/>
		</comp>
	</station>
</stationlist>
