<?xml version="1.0" encoding="UTF-8" standalone="yes"?>
<!DOCTYPE earthquake SYSTEM "stationlist.dtd">
<stationlist created="" xmlns="ch.ethz.sed.shakemap.usgs.xml">
  <station code="ARMT" name="ARMT" netid="KO" insttype="CMG-3ESP" commtype="DIG" lat="40.5683" lon="28.866">
    <comp name="--.HHN">
      <acc value="0.0398542283" flag="0"/>
      <vel value="0.0073610110" flag="0"/>
      <psa03 value="0.0435568280" flag="0"/>
      <psa10 value="0.0042024625" flag="0"/>
      <psa30 value="0.0003461812" flag="0"/>
    </comp>
  </station>
  <station code="AVCI" name="AVCI" netid="KO" insttype="CMG-5T" commtype="DIG" lat="40.9958" lon="28.7225">
    <comp name="--.HNN">
      <acc value="0.1275465905" flag="0"/>
      <vel value="0.0275679847" flag="0"/>
      <psa03 value="0.1316199115" flag="0"/>
      <psa10 value="0.0212942705" flag="0"/>
      <psa30 value="0.0030089818" flag="0"/>
    </comp>
    <comp name="--.HNZ">
      <acc value="0.2261076119" flag="0"/>
      <vel value="0.0453067235" flag="0"/>
      <psa03 value="0.1149838154" flag="0"/>
      <psa10 value="0.0101562231" flag="0"/>
      <psa30 value="0.0011615693" flag="0"/>
    </comp>
    <comp name="--.HNE">
      <acc value="0.0915468011" flag="0"/>
      <vel value="0.0353166669" flag="0"/>
      <psa03 value="0.0938186389" flag="0"/>
      <psa10 value="0.0395219256" flag="0"/>
      <psa30 value="0.0033701444" flag="0"/>
    </comp>
  </station>
  <station code="BGKT" name="BGKT" netid="KO" insttype="CMG-3ESP" commtype="DIG" lat="41.181" lon="28.773">
    <comp name="--.HHE">
      <acc value="0.2289542501" flag="0"/>
      <vel value="0.0134709087" flag="0"/>
      <psa03 value="0.0360757404" flag="0"/>
      <psa10 value="0.0028474231" flag="0"/>
      <psa30 value="0.0002468470" flag="0"/>
    </comp>
    <comp name="--.HHN">
      <acc value="0.1983534929" flag="0"/>
      <vel value="0.0100296226" flag="0"/>
      <psa03 value="0.0366121470" flag="0"/>
      <psa10 value="0.0035491098" flag="0"/>
      <psa30 value="0.0003376949" flag="0"/>
    </comp>
    <comp name="--.HHZ">
      <acc value="0.1391718904" flag="0"/>
      <vel value="0.0200194625" flag="0"/>
      <psa03 value="0.0341623296" flag="0"/>
      <psa10 value="0.0043880883" flag="0"/>
      <psa30 value="0.0003938546" flag="0"/>
    </comp>
  </station>
  <station code="BIGA" name="BIGA" netid="KO" insttype="CMG-5T" commtype="DIG" lat="40.2813" lon="27.1505">
    <comp name="--.HNE">
      <acc value="0.0765414594" flag="0"/>
      <vel value="0.0286761422" flag="0"/>
      <psa03 value="0.1921494746" flag="0"/>
      <psa10 value="0.0086906028" flag="0"/>
      <psa30 value="0.0007908187" flag="0"/>
    </comp>
    <comp name="--.HNZ">
      <acc value="0.0537557380" flag="0"/>
      <vel value="0.0096949857" flag="0"/>
      <psa03 value="0.0477597390" flag="0"/>
      <psa10 value="0.0031082784" flag="0"/>
      <psa30 value="0.0005168533" flag="0"/>
    </comp>
    <comp name="--.HNN">
      <acc value="0.0806935223" flag="0"/>
      <vel value="0.0267899610" flag="0"/>
      <psa03 value="0.1669500505" flag="0"/>
      <psa10 value="0.0078637308" flag="0"/>
      <psa30 value="0.0005510757" flag="0"/>
    </comp>
  </station>
  <station code="BOTS" name="BOTS" netid="KO" insttype="CMG-5T" commtype="DIG" lat="40.9902" lon="27.981">
    <comp name="--.HNZ">
      <acc value="0.5312768620" flag="0"/>
      <vel value="0.0489073194" flag="0"/>
      <psa03 value="0.1208584902" flag="0"/>
      <psa10 value="0.0088642485" flag="0"/>
      <psa30 value="0.0009597344" flag="0"/>
    </comp>
    <comp name="--.HNE">
      <acc value="0.1778001023" flag="0"/>
      <vel value="0.0346999049" flag="0"/>
      <psa03 value="0.1515059902" flag="0"/>
      <psa10 value="0.0077247836" flag="0"/>
      <psa30 value="0.0005996845" flag="0"/>
    </comp>
    <comp name="--.HNN">
      <acc value="0.1089333571" flag="0"/>
      <vel value="0.0362858744" flag="0"/>
      <psa03 value="0.1297179427" flag="0"/>
      <psa10 value="0.0175916245" flag="0"/>
      <psa30 value="0.0012544177" flag="0"/>
    </comp>
  </station>
  <station code="BRGA" name="BRGA" netid="KO" insttype="CMG-5T" commtype="DIG" lat="40.8846" lon="29.065">
    <comp name="--.HNE">
      <acc value="0.0706908738" flag="0"/>
      <vel value="0.0139106683" flag="0"/>
      <psa03 value="0.0605767787" flag="0"/>
      <psa10 value="0.0056965604" flag="0"/>
      <psa30 value="0.0004853367" flag="0"/>
    </comp>
    <comp name="--.HNN">
      <acc value="0.0959408448" flag="0"/>
      <vel value="0.0209585363" flag="0"/>
      <psa03 value="0.0567642384" flag="0"/>
      <psa10 value="0.0080610402" flag="0"/>
      <psa30 value="0.0009647263" flag="0"/>
    </comp>
    <comp name="--.HNZ">
      <acc value="0.0570137250" flag="0"/>
      <vel value="0.0105181623" flag="0"/>
      <psa03 value="0.0310600045" flag="0"/>
      <psa10 value="0.0046248822" flag="0"/>
      <psa30 value="0.0004254616" flag="0"/>
    </comp>
  </station>
  <station code="BUYK" name="BUYK" netid="KO" insttype="ACEBOX" commtype="DIG" lat="41.0168" lon="28.5828">
    <comp name="--.HNE">
      <acc value="0.0696379114" flag="0"/>
      <vel value="0.0258439492" flag="0"/>
      <psa03 value="0.0881100425" flag="0"/>
      <psa10 value="0.0277470596" flag="0"/>
      <psa30 value="0.0021604053" flag="0"/>
    </comp>
    <comp name="--.HNZ">
      <acc value="0.4018486435" flag="0"/>
      <vel value="0.0715390256" flag="0"/>
      <psa03 value="0.1648815488" flag="0"/>
      <psa10 value="0.0244032559" flag="0"/>
      <psa30 value="0.0015746987" flag="0"/>
    </comp>
  </station>
  <station code="CRLU" name="CRLU" netid="KO" insttype="ACEBOX" commtype="DIG" lat="41.1428" lon="27.8215">
    <comp name="--.HNE">
      <acc value="0.4667890147" flag="0"/>
      <vel value="0.1755824731" flag="0"/>
      <psa03 value="0.7200783643" flag="0"/>
      <psa10 value="0.1405642421" flag="0"/>
      <psa30 value="0.0108954295" flag="0"/>
    </comp>
    <comp name="--.HNN">
      <acc value="0.5849713817" flag="0"/>
      <vel value="0.2366219600" flag="0"/>
      <psa03 value="1.0159235358" flag="0"/>
      <psa10 value="0.1152599738" flag="0"/>
      <psa30 value="0.0114492018" flag="0"/>
    </comp>
    <comp name="--.HNZ">
      <acc value="2.1729448535" flag="0"/>
      <vel value="0.4465197107" flag="0"/>
      <psa03 value="1.9357111040" flag="0"/>
      <psa10 value="0.0988262417" flag="0"/>
      <psa30 value="0.0115465340" flag="0"/>
    </comp>
  </station>
  <station code="CTKS" name="CTKS" netid="KO" insttype="CMG-3ESP" commtype="DIG" lat="41.2373" lon="28.5072">
    <comp name="--.HHZ">
      <acc value="0.0000139590" flag="0"/>
      <vel value="0.0000020473" flag="0"/>
      <psa03 value="0.0000058839" flag="0"/>
      <psa10 value="0.0000016851" flag="0"/>
      <psa30 value="0.0000005791" flag="0"/>
    </comp>
    <comp name="--.HHE">
      <acc value="0.1663687348" flag="0"/>
      <vel value="0.0270404928" flag="0"/>
      <psa03 value="0.0721999613" flag="0"/>
      <psa10 value="0.0093141738" flag="0"/>
      <psa30 value="0.0010242389" flag="0"/>
    </comp>
  </station>
  <station code="CTYL" name="CTYL" netid="KO" insttype="CMG-3T" commtype="DIG" lat="41.476" lon="28.2897">
    <comp name="--.HHN">
      <acc value="0.1203724926" flag="0"/>
      <vel value="0.0259339549" flag="0"/>
      <psa03 value="0.1899590917" flag="0"/>
      <psa10 value="0.0074169307" flag="0"/>
      <psa30 value="0.0006775818" flag="0"/>
    </comp>
  </station>
  <station code="EDC" name="EDC" netid="KO" insttype="CMG-3T" commtype="DIG" lat="40.3465" lon="27.8618">
    <comp name="--.HHN">
      <acc value="0.0987000146" flag="0"/>
      <vel value="0.0247939791" flag="0"/>
      <psa03 value="0.1455953359" flag="0"/>
      <psa10 value="0.0059745720" flag="0"/>
      <psa30 value="0.0004250635" flag="0"/>
    </comp>
    <comp name="--.HHZ">
      <acc value="0.0347427697" flag="0"/>
      <vel value="0.0069763919" flag="0"/>
      <psa03 value="0.0276782206" flag="0"/>
      <psa10 value="0.0024058360" flag="0"/>
      <psa30 value="0.0002469049" flag="0"/>
    </comp>
  </station>
  <station code="ESKY" name="ESKY" netid="KO" insttype="CMG-5T" commtype="DIG" lat="40.5918" lon="28.9071">
    <comp name="--.HNZ">
      <acc value="0.0874557062" flag="0"/>
      <vel value="0.0160614561" flag="0"/>
      <psa03 value="0.0416990303" flag="0"/>
      <psa10 value="0.0076879270" flag="0"/>
      <psa30 value="0.0004356187" flag="0"/>
    </comp>
    <comp name="--.HNE">
      <acc value="0.0292981565" flag="0"/>
      <vel value="0.0158390423" flag="0"/>
      <psa03 value="0.0571177003" flag="0"/>
      <psa10 value="0.0154094956" flag="0"/>
      <psa30 value="0.0008397819" flag="0"/>
    </comp>
    <comp name="--.HNN">
      <acc value="0.0414871391" flag="0"/>
      <vel value="0.0154247759" flag="0"/>
      <psa03 value="0.0600832307" flag="0"/>
      <psa10 value="0.0151370003" flag="0"/>
      <psa30 value="0.0007892855" flag="0"/>
    </comp>
  </station>
  <station code="GAZK" name="GAZK" netid="KO" insttype="CMG-6T" commtype="DIG" lat="40.7479" lon="27.3275">
    <comp name="--.HHE">
      <acc value="0.0974150077" flag="0"/>
      <vel value="0.0386889386" flag="0"/>
      <psa03 value="0.2286987671" flag="0"/>
      <psa10 value="0.0134308377" flag="0"/>
      <psa30 value="0.0009121718" flag="0"/>
    </comp>
    <comp name="--.HHN">
      <acc value="0.1209871381" flag="0"/>
      <vel value="0.0382707562" flag="0"/>
      <psa03 value="0.1771404723" flag="0"/>
      <psa10 value="0.0121829682" flag="0"/>
      <psa30 value="0.0010623789" flag="0"/>
    </comp>
    <comp name="--.HHZ">
      <acc value="0.0519096811" flag="0"/>
      <vel value="0.0206883519" flag="0"/>
      <psa03 value="0.1532738591" flag="0"/>
      <psa10 value="0.0069351731" flag="0"/>
      <psa30 value="0.0005014266" flag="0"/>
    </comp>
  </station>
  <station code="GEML" name="GEML" netid="KO" insttype="CMG-3T" commtype="DIG" lat="40.4646" lon="29.2116">
    <comp name="--.HHE">
      <acc value="0.0679094614" flag="0"/>
      <vel value="0.0158333510" flag="0"/>
      <psa03 value="0.0393554218" flag="0"/>
      <psa10 value="0.0044817258" flag="0"/>
      <psa30 value="0.0002580299" flag="0"/>
    </comp>
    <comp name="--.HHN">
      <acc value="0.0779310530" flag="0"/>
      <vel value="0.0153541390" flag="0"/>
      <psa03 value="0.0548195394" flag="0"/>
      <psa10 value="0.0051777083" flag="0"/>
      <psa30 value="0.0002914371" flag="0"/>
    </comp>
    <comp name="--.HHZ">
      <acc value="0.0512392807" flag="0"/>
      <vel value="0.0094842095" flag="0"/>
      <psa03 value="0.0188186372" flag="0"/>
      <psa10 value="0.0030974653" flag="0"/>
      <psa30 value="0.0002108552" flag="0"/>
    </comp>
  </station>
  <station code="GONE" name="GONE" netid="KO" insttype="CMG-5T" commtype="DIG" lat="40.0466" lon="27.686">
    <comp name="--.HNZ">
      <acc value="0.0168110061" flag="0"/>
      <vel value="0.0055067264" flag="0"/>
      <psa03 value="0.0312317565" flag="0"/>
      <psa10 value="0.0049531283" flag="0"/>
      <psa30 value="0.0002850095" flag="0"/>
    </comp>
    <comp name="--.HNE">
      <acc value="0.0285433815" flag="0"/>
      <vel value="0.0150363250" flag="0"/>
      <psa03 value="0.0786118924" flag="0"/>
      <psa10 value="0.0105267421" flag="0"/>
      <psa30 value="0.0008756466" flag="0"/>
    </comp>
    <comp name="--.HNN">
      <acc value="0.0619101542" flag="0"/>
      <vel value="0.0204753496" flag="0"/>
      <psa03 value="0.1444517298" flag="0"/>
      <psa10 value="0.0091828469" flag="0"/>
      <psa30 value="0.0007874957" flag="0"/>
    </comp>
  </station>
  <station code="ISK" name="ISK" netid="KO" insttype="CMG-3T" commtype="DIG" lat="41.0615" lon="29.0592">
    <comp name="--.HHN">
      <acc value="0.0562547255" flag="0"/>
      <vel value="0.0085015241" flag="0"/>
      <psa03 value="0.0270692165" flag="0"/>
      <psa10 value="0.0045831434" flag="0"/>
      <psa30 value="0.0003172612" flag="0"/>
    </comp>
    <comp name="--.HHE">
      <acc value="0.0614805592" flag="0"/>
      <vel value="0.0094257952" flag="0"/>
      <psa03 value="0.0195563619" flag="0"/>
      <psa10 value="0.0016595079" flag="0"/>
      <psa30 value="0.0001637909" flag="0"/>
    </comp>
    <comp name="--.HHZ">
      <acc value="0.0409184176" flag="0"/>
      <vel value="0.0045205376" flag="0"/>
      <psa03 value="0.0192733953" flag="0"/>
      <psa10 value="0.0024142091" flag="0"/>
      <psa30 value="0.0001034406" flag="0"/>
    </comp>
  </station>
  <station code="IZI" name="IZI" netid="KO" insttype="CMG-5T" commtype="DIG" lat="40.3483" lon="29.4612">
    <comp name="--.HNN">
      <acc value="0.0108737768" flag="0"/>
      <vel value="0.0036408476" flag="0"/>
      <psa03 value="0.0225316497" flag="0"/>
      <psa10 value="0.0043222350" flag="0"/>
      <psa30 value="0.0002600425" flag="0"/>
    </comp>
    <comp name="--.HNZ">
      <acc value="0.0096226504" flag="0"/>
      <vel value="0.0025044862" flag="0"/>
      <psa03 value="0.0147663117" flag="0"/>
      <psa10 value="0.0035471288" flag="0"/>
      <psa30 value="0.0003364348" flag="0"/>
    </comp>
    <comp name="--.HNE">
      <acc value="0.0143971325" flag="0"/>
      <vel value="0.0057164727" flag="0"/>
      <psa03 value="0.0219955150" flag="0"/>
      <psa10 value="0.0024425952" flag="0"/>
      <psa30 value="0.0003251884" flag="0"/>
    </comp>
  </station>
  <station code="KAVV" name="KAVV" netid="KO" insttype="CMG-3ESPC" commtype="DIG" lat="41.0638" lon="29.06">
    <comp name="--.HHE">
      <acc value="0.0776519419" flag="0"/>
      <vel value="0.0140324459" flag="0"/>
      <psa03 value="0.0563924986" flag="0"/>
      <psa10 value="0.0024190543" flag="0"/>
      <psa30 value="0.0002474589" flag="0"/>
    </comp>
    <comp name="--.HHZ">
      <acc value="0.0631851658" flag="0"/>
      <vel value="0.0090155889" flag="0"/>
      <psa03 value="0.0406459932" flag="0"/>
      <psa10 value="0.0030492087" flag="0"/>
      <psa30 value="0.0001303545" flag="0"/>
    </comp>
    <comp name="--.HHN">
      <acc value="0.0724179741" flag="0"/>
      <vel value="0.0149994426" flag="0"/>
      <psa03 value="0.0519573166" flag="0"/>
      <psa10 value="0.0054903717" flag="0"/>
      <psa30 value="0.0003491699" flag="0"/>
    </comp>
  </station>
  <station code="KCTX" name="KCTX" netid="KO" insttype="CMG-3ESP" commtype="DIG" lat="40.2626" lon="28.3353">
    <comp name="--.HHE">
      <acc value="0.0441031605" flag="0"/>
      <vel value="0.0308712599" flag="0"/>
      <psa03 value="0.0536766431" flag="0"/>
      <psa10 value="0.0233023000" flag="0"/>
      <psa30 value="0.0015440285" flag="0"/>
    </comp>
    <comp name="--.HHN">
      <acc value="0.0337898056" flag="0"/>
      <vel value="0.0136152605" flag="0"/>
      <psa03 value="0.0357667521" flag="0"/>
      <psa10 value="0.0070213901" flag="0"/>
      <psa30 value="0.0005190149" flag="0"/>
    </comp>
    <comp name="--.HHZ">
      <acc value="0.0265886116" flag="0"/>
      <vel value="0.0084624129" flag="0"/>
      <psa03 value="0.0371523952" flag="0"/>
      <psa10 value="0.0040963750" flag="0"/>
      <psa30 value="0.0002292328" flag="0"/>
    </comp>
  </station>
  <station code="KLYT" name="KLYT" netid="KO" insttype="CMG-3T" commtype="DIG" lat="41.253" lon="29.042">
    <comp name="--.HHZ">
      <acc value="0.0497530621" flag="0"/>
      <vel value="0.0105993731" flag="0"/>
      <psa03 value="0.0223231967" flag="0"/>
      <psa10 value="0.0034829433" flag="0"/>
      <psa30 value="0.0002074647" flag="0"/>
    </comp>
  </station>
  <station code="KOUK" name="KOUK" netid="KO" insttype="CMG-5T" commtype="DIG" lat="40.6572" lon="29.1918">
    <comp name="--.HNN">
      <acc value="0.0303094756" flag="0"/>
      <vel value="0.0220560608" flag="0"/>
      <psa03 value="0.0645245955" flag="0"/>
      <psa10 value="0.0409624329" flag="0"/>
      <psa30 value="0.0020432745" flag="0"/>
    </comp>
    <comp name="--.HNZ">
      <acc value="0.0201520568" flag="0"/>
      <vel value="0.0067229077" flag="0"/>
      <psa03 value="0.0464332742" flag="0"/>
      <psa10 value="0.0082713848" flag="0"/>
      <psa30 value="0.0008675898" flag="0"/>
    </comp>
    <comp name="--.HNE">
      <acc value="0.0325388168" flag="0"/>
      <vel value="0.0178292601" flag="0"/>
      <psa03 value="0.0608565383" flag="0"/>
      <psa10 value="0.0248741558" flag="0"/>
      <psa30 value="0.0010380364" flag="0"/>
    </comp>
  </station>
  <station code="KRBG" name="KRBG" netid="KO" insttype="CMG-5T" commtype="DIG" lat="40.3932" lon="27.2977">
    <comp name="--.HNE">
      <acc value="0.0771974331" flag="0"/>
      <vel value="0.0297430134" flag="0"/>
      <psa03 value="0.1166692442" flag="0"/>
      <psa10 value="0.0143634807" flag="0"/>
      <psa30 value="0.0010464638" flag="0"/>
    </comp>
    <comp name="--.HNN">
      <acc value="0.0613264544" flag="0"/>
      <vel value="0.0162310574" flag="0"/>
      <psa03 value="0.1162928355" flag="0"/>
      <psa10 value="0.0050186444" flag="0"/>
      <psa30 value="0.0005490359" flag="0"/>
    </comp>
    <comp name="--.HNZ">
      <acc value="0.0457466640" flag="0"/>
      <vel value="0.0122396141" flag="0"/>
      <psa03 value="0.0559354033" flag="0"/>
      <psa10 value="0.0044622666" flag="0"/>
      <psa30 value="0.0002923913" flag="0"/>
    </comp>
  </station>
  <station code="KRTL" name="KRTL" netid="KO" insttype="CMG-5T" commtype="DIG" lat="40.9089" lon="29.1987">
    <comp name="--.HNN">
      <acc value="0.0848721640" flag="0"/>
      <vel value="0.0128846011" flag="0"/>
      <psa03 value="0.0359467455" flag="0"/>
      <psa10 value="0.0070530986" flag="0"/>
      <psa30 value="0.0005314711" flag="0"/>
    </comp>
    <comp name="--.HNE">
      <acc value="0.1196316432" flag="0"/>
      <vel value="0.0148935713" flag="0"/>
      <psa03 value="0.0282678968" flag="0"/>
      <psa10 value="0.0029969600" flag="0"/>
      <psa30 value="0.0002773124" flag="0"/>
    </comp>
    <comp name="--.HNZ">
      <acc value="0.0283681057" flag="0"/>
      <vel value="0.0059914179" flag="0"/>
      <psa03 value="0.0224669900" flag="0"/>
      <psa10 value="0.0019509386" flag="0"/>
      <psa30 value="0.0006193719" flag="0"/>
    </comp>
  </station>
  <station code="KUMB" name="KUMB" netid="KO" insttype="CMG-5T" commtype="DIG" lat="40.8626" lon="27.4592">
    <comp name="--.HNE">
      <acc value="0.0855409713" flag="0"/>
      <vel value="0.0259783590" flag="0"/>
      <psa03 value="0.1460287600" flag="0"/>
      <psa10 value="0.0119214820" flag="0"/>
      <psa30 value="0.0010926144" flag="0"/>
    </comp>
    <comp name="--.HNZ">
      <acc value="0.0006219497" flag="0"/>
      <vel value="0.0005046350" flag="0"/>
      <psa03 value="0.0008172729" flag="0"/>
      <psa10 value="0.0006050852" flag="0"/>
      <psa30 value="0.0002452037" flag="0"/>
    </comp>
    <comp name="--.HNN">
      <acc value="0.0751386562" flag="0"/>
      <vel value="0.0237819974" flag="0"/>
      <psa03 value="0.0955113208" flag="0"/>
      <psa10 value="0.0089522158" flag="0"/>
      <psa30 value="0.0006214019" flag="0"/>
    </comp>
  </station>
  <station code="MAEG" name="MAEG" netid="KO" insttype="CMG-5T" commtype="DIG" lat="40.9653" lon="27.9448">
    <comp name="--.HNN">
      <acc value="0.1977475845" flag="0"/>
      <vel value="0.0491368459" flag="0"/>
      <psa03 value="0.1696429322" flag="0"/>
      <psa10 value="0.0143169848" flag="0"/>
      <psa30 value="0.0019029852" flag="0"/>
    </comp>
    <comp name="--.HNZ">
      <acc value="0.3079148585" flag="0"/>
      <vel value="0.0359235721" flag="0"/>
      <psa03 value="0.0947579388" flag="0"/>
      <psa10 value="0.0074804924" flag="0"/>
      <psa30 value="0.0009409131" flag="0"/>
    </comp>
    <comp name="--.HNE">
