<stationlist created="1778069629">
	<station code="IMMV" name="IMMV" netid="GE" source="GEOFON" insttype="" lat="35.4606" lon="23.9811">
		<comp name="--.HNE" depth="0.0">
			<acc value="0.000944279868313018" flag="0"/>
			<vel value="0.00116219046056644" flag="0"/>
			<psa03 value="0.00223711033091359" flag="0"/>
			<psa10 value="0.00362009193748437" flag="0"/>
			<psa30 value="0.00021565743590007" flag="0"/>
		</comp>
		<comp name="--.HNN" depth="0.0">
			<acc value="0.000911753980381582" flag="0"/>
			<vel value="0.00109651884830994" flag="0"/>
			<psa03 value="0.00255030577724149" flag="0"/>
			<psa10 value="0.00165904102140552" flag="0"/>
			<psa30 value="0.000302009894673334" flag="0"/>
		</comp>
		<comp name="--.HNZ" depth="0.0">
			<acc value="0.000701549312487671" flag="0"/>
			<vel value="0.000746155305788458" flag="0"/>
			<psa03 value="0.00250556357062322" flag="0"/>
			<psa10 value="0.00128052195341494" flag="0"/>
			<psa30 value="0.000152570924568307" flag="0"/>
		</comp>
	</station>
</stationlist>
