<stationlist xmlns:esm="https://esm-db.eu/esmws/shakemap/1/" created="1783994369">
	<station code="ABEA" name="ABEA" netid="HC" source="Seismological Network of Crete (HC)" insttype="" lat="35.5163" lon="24.0113" esm:processing="manual (Paolucci et al 2011)" esm:quality="good">
		<comp name="--.HNE" depth="0.0">
			<acc value="0.062377470149462" flag="0"/>
			<vel value="0.0171146193345109" flag="0"/>
			<psa03 value="0.106041628904156" flag="0"/>
			<psa10 value="0.00719642532160933" flag="0"/>
			<psa30 value="0.000738006024693857" flag="0"/>
		</comp>
		<comp name="--.HNN" depth="0.0">
			<acc value="0.0607487881102644" flag="0"/>
			<vel value="0.0230613553330013" flag="0"/>
			<psa03 value="0.0967247512900725" flag="0"/>
			<psa10 value="0.00773591871664906" flag="0"/>
			<psa30 value="0.000581218971654397" flag="0"/>
		</comp>
		<comp name="--.HNZ" depth="0.0">
			<acc value="0.048476107002398" flag="0"/>
			<vel value="0.0084017161162585" flag="0"/>
			<psa03 value="0.0372874180251137" flag="0"/>
			<psa10 value="0.0055005001623907" flag="0"/>
			<psa30 value="0.000408535188451248" flag="0"/>
		</comp>
	</station>
	<station code="ATEI" name="ATEI" netid="HC" source="Seismological Network of Crete (HC)" insttype="" lat="35.5193" lon="24.0432" esm:processing="manual (Paolucci et al 2011)" esm:quality="good">
		<comp name="--.HNE" depth="0.0">
			<acc value="0.0405304000822945" flag="0"/>
			<vel value="0.0150640893542033" flag="0"/>
			<psa03 value="0.0803954039259499" flag="0"/>
			<psa10 value="0.00966151471543364" flag="0"/>
			<psa30 value="0.00052645044767514" flag="0"/>
		</comp>
		<comp name="--.HNN" depth="0.0">
			<acc value="0.0557368610962079" flag="0"/>
			<vel value="0.0189445106625116" flag="0"/>
			<psa03 value="0.138188581398657" flag="0"/>
			<psa10 value="0.00748295367770671" flag="0"/>
			<psa30 value="0.0006756780416042" flag="0"/>
		</comp>
		<comp name="--.HNZ" depth="0.0">
			<acc value="0.0528722522861497" flag="0"/>
			<vel value="0.0108464748314516" flag="0"/>
			<psa03 value="0.0504382839971099" flag="0"/>
			<psa10 value="0.00505675014112961" flag="0"/>
			<psa30 value="0.000384398433259674" flag="0"/>
		</comp>
	</station>
	<station code="DEYA" name="DEYA" netid="HC" source="Seismological Network of Crete (HC)" insttype="" lat="35.4825" lon="24.014" esm:processing="manual (Paolucci et al 2011)" esm:quality="good">
		<comp name="--.HNE" depth="0.0">
			<acc value="0.0696974180306534" flag="0"/>
			<vel value="0.0237205623334528" flag="0"/>
			<psa03 value="0.130627934709586" flag="0"/>
			<psa10 value="0.019591849113852" flag="0"/>
			<psa30 value="0.00116885472255559" flag="0"/>
		</comp>
		<comp name="--.HNN" depth="0.0">
			<acc value="0.0954488646275524" flag="0"/>
			<vel value="0.0390355648666221" flag="0"/>
			<psa03 value="0.245754675874509" flag="0"/>
			<psa10 value="0.0202551536795241" flag="0"/>
			<psa30 value="0.000925583919558807" flag="0"/>
		</comp>
		<comp name="--.HNZ" depth="0.0">
			<acc value="0.0675217556959095" flag="0"/>
			<vel value="0.0195329424854792" flag="0"/>
			<psa03 value="0.114571568970823" flag="0"/>
			<psa10 value="0.0101958688637735" flag="0"/>
			<psa30 value="0.000643304282418203" flag="0"/>
		</comp>
	</station>
	<station code="G0LD" name="G0LD" netid="HC" source="Seismological Network of Crete (HC)" insttype="" lat="35.4955" lon="24.0306" esm:processing="manual (Paolucci et al 2011)" esm:quality="good">
		<comp name="--.HNE" depth="0.0">
			<acc value="0.0936461843811278" flag="0"/>
			<vel value="0.0312873902386837" flag="0"/>
			<psa03 value="0.207663860878288" flag="0"/>
			<psa10 value="0.022818069710133" flag="0"/>
			<psa30 value="0.00130951310298298" flag="0"/>
		</comp>
		<comp name="--.HNN" depth="0.0">
			<acc value="0.131804768002475" flag="0"/>
			<vel value="0.0528517299301743" flag="0"/>
			<psa03 value="0.328852451527656" flag="0"/>
			<psa10 value="0.0275599363355251" flag="0"/>
			<psa30 value="0.00107580564184399" flag="0"/>
		</comp>
		<comp name="--.HNZ" depth="0.0">
			<acc value="0.0861148354961768" flag="0"/>
			<vel value="0.0338032478018697" flag="0"/>
			<psa03 value="0.146545510004163" flag="0"/>
			<psa10 value="0.0183230500621417" flag="0"/>
			<psa30 value="0.000941894062525732" flag="0"/>
		</comp>
	</station>
	<station code="LENT" name="LENT" netid="HC" source="Seismological Network of Crete (HC)" insttype="" lat="35.5074" lon="24.0402" esm:processing="manual (Paolucci et al 2011)" esm:quality="good">
		<comp name="--.HNE" depth="0.0">
			<acc value="0.0640290792826644" flag="0"/>
			<vel value="0.013182427330744" flag="0"/>
			<psa03 value="0.0722986800577303" flag="0"/>
			<psa10 value="0.00730400588579373" flag="0"/>
			<psa30 value="0.000358190238762078" flag="0"/>
		</comp>
		<comp name="--.HNN" depth="0.0">
			<acc value="0.0886587929171161" flag="0"/>
			<vel value="0.022620454609214" flag="0"/>
			<psa03 value="0.116644893818419" flag="0"/>
			<psa10 value="0.0115751567973299" flag="0"/>
			<psa30 value="0.00083435469898734" flag="0"/>
		</comp>
		<comp name="--.HNZ" depth="0.0">
			<acc value="0.0889211975772187" flag="0"/>
			<vel value="0.0248093988490079" flag="0"/>
			<psa03 value="0.142935510442742" flag="0"/>
			<psa10 value="0.00562121878440695" flag="0"/>
			<psa30 value="0.000604494367701822" flag="0"/>
		</comp>
	</station>
	<station code="NERO" name="NERO" netid="HC" source="Seismological Network of Crete (HC)" insttype="" lat="35.474" lon="24.0423" esm:processing="manual (Paolucci et al 2011)" esm:quality="good">
		<comp name="--.HNE" depth="0.0">
			<acc value="0.0331098385910026" flag="0"/>
			<vel value="0.016119256284398" flag="0"/>
			<psa03 value="0.0624764408409206" flag="0"/>
			<psa10 value="0.00808468619578289" flag="0"/>
			<psa30 value="0.000540571018510324" flag="0"/>
		</comp>
		<comp name="--.HNN" depth="0.0">
			<acc value="0.0401084145398001" flag="0"/>
			<vel value="0.0118310833257173" flag="0"/>
			<psa03 value="0.0792706419159868" flag="0"/>
			<psa10 value="0.0121623088182697" flag="0"/>
			<psa30 value="0.000639067908029191" flag="0"/>
		</comp>
		<comp name="--.HNZ" depth="0.0">
			<acc value="0.0315387330929097" flag="0"/>
			<vel value="0.00932993955815077" flag="0"/>
			<psa03 value="0.0379354140766719" flag="0"/>
			<psa10 value="0.00828654144270234" flag="0"/>
			<psa30 value="0.00048742468532658" flag="0"/>
		</comp>
	</station>
	<station code="PASK" name="PASK" netid="HC" source="Seismological Network of Crete (HC)" insttype="" lat="35.4996" lon="24.0121" esm:processing="manual (Paolucci et al 2011)" esm:quality="good">
		<comp name="--.HNE" depth="0.0">
			<acc value="0.0727642914001838" flag="0"/>
			<vel value="0.0225484965721668" flag="0"/>
			<psa03 value="0.136947238749132" flag="0"/>
			<psa10 value="0.0117096388311046" flag="0"/>
			<psa30 value="0.000684346897123334" flag="0"/>
		</comp>
		<comp name="--.HNN" depth="0.0">
			<acc value="0.0509867964595643" flag="0"/>
			<vel value="0.0182278671966815" flag="0"/>
			<psa03 value="0.0961018975290676" flag="0"/>
			<psa10 value="0.0162133946828265" flag="0"/>
			<psa30 value="0.000941786659577481" flag="0"/>
		</comp>
		<comp name="--.HNZ" depth="0.0">
			<acc value="0.05293608691366" flag="0"/>
			<vel value="0.0141096044359991" flag="0"/>
			<psa03 value="0.104547269493513" flag="0"/>
			<psa10 value="0.00517533299666181" flag="0"/>
			<psa30 value="0.000524621993215672" flag="0"/>
		</comp>
	</station>
	<station code="POLY" name="POLY" netid="HC" source="Seismological Network of Crete (HC)" insttype="" lat="35.5226" lon="24.0602" esm:processing="manual (Paolucci et al 2011)" esm:quality="good">
		<comp name="--.HNE" depth="0.0">
			<acc value="0.0289810096009943" flag="0"/>
			<vel value="0.0118869468893138" flag="0"/>
			<psa03 value="0.0504531287305006" flag="0"/>
			<psa10 value="0.00499798093545815" flag="0"/>
			<psa30 value="0.000394863319215342" flag="0"/>
		</comp>
		<comp name="--.HNN" depth="0.0">
			<acc value="0.0520033523627141" flag="0"/>
			<vel value="0.0133361103907454" flag="0"/>
			<psa03 value="0.0707797825632256" flag="0"/>
			<psa10 value="0.00663422229716811" flag="0"/>
			<psa30 value="0.000567607340783988" flag="0"/>
		</comp>
		<comp name="--.HNZ" depth="0.0">
			<acc value="0.0329950070954982" flag="0"/>
			<vel value="0.00838182848764133" flag="0"/>
			<psa03 value="0.0534281539363198" flag="0"/>
			<psa10 value="0.00414178187272226" flag="0"/>
			<psa30 value="0.000392619342437894" flag="0"/>
		</comp>
	</station>
	<station code="CH01" name="CH01" netid="HI" source="ITSAK Strong Motion Network" insttype="" lat="35.517" lon="24.0208" esm:processing="manual (Paolucci et al 2011)" esm:quality="best">
		<comp name="--.HNE" depth="0.0">
			<acc value="0.0897972982071425" flag="0"/>
			<vel value="0.0263147463948891" flag="0"/>
			<psa03 value="0.11145584173602" flag="0"/>
			<psa10 value="0.0068368908792248" flag="0"/>
			<psa30 value="0.000705844935847842" flag="0"/>
		</comp>
		<comp name="--.HNN" depth="0.0">
			<acc value="0.0960149850078346" flag="0"/>
			<vel value="0.0302394630094314" flag="0"/>
			<psa03 value="0.103239912054111" flag="0"/>
			<psa10 value="0.00845098233611677" flag="0"/>
			<psa30 value="0.000666396645505691" flag="0"/>
		</comp>
		<comp name="--.HNZ" depth="0.0">
			<acc value="0.046362127013699" flag="0"/>
			<vel value="0.00949352040655206" flag="0"/>
			<psa03 value="0.0342472947568862" flag="0"/>
			<psa10 value="0.00589898562260232" flag="0"/>
			<psa30 value="0.000423236526926146" flag="0"/>
		</comp>
	</station>
	<station code="KSS1" name="KSS1" netid="HI" source="ITSAK Strong Motion Network" insttype="" lat="35.4189" lon="26.9207" esm:processing="manual (Paolucci et al 2011)" esm:quality="good">
		<comp name="--.HNE" depth="0.0">
			<acc value="0.0091602667410514" flag="0"/>
			<vel value="0.00218893898535335" flag="0"/>
			<psa03 value="0.0210294621090582" flag="0"/>
			<psa10 value="0.000922759936911795" flag="0"/>
			<psa30 value="6.34982168617267e-05" flag="0"/>
		</comp>
		<comp name="--.HNN" depth="0.0">
			<acc value="0.0100654535998065" flag="0"/>
			<vel value="0.00272861818928946" flag="0"/>
			<psa03 value="0.019528074889128" flag="0"/>
			<psa10 value="0.00103327419153265" flag="0"/>
			<psa30 value="8.53710785918768e-05" flag="0"/>
		</comp>
		<comp name="--.HNZ" depth="0.0">
			<acc value="0.00692812155335193" flag="0"/>
			<vel value="0.00149487328540152" flag="0"/>
			<psa03 value="0.00600165474163328" flag="0"/>
			<psa10 value="0.000559897090435244" flag="0"/>
			<psa30 value="8.14992791353867e-05" flag="0"/>
		</comp>
	</station>
	<station code="NAX1" name="NAX1" netid="HI" source="ITSAK Strong Motion Network" insttype="" lat="37.101394" lon="25.374103" esm:processing="manual (Paolucci et al 2011)" esm:quality="best">
		<comp name="--.HNE" depth="0.0">
			<acc value="0.013351987109322" flag="0"/>
			<vel value="0.00446921725328284" flag="0"/>
			<psa03 value="0.0142820711171308" flag="0"/>
			<psa10 value="0.000884666202450572" flag="0"/>
			<psa30 value="8.56840290110895e-05" flag="0"/>
		</comp>
		<comp name="--.HNN" depth="0.0">
			<acc value="0.0269580170018247" flag="0"/>
			<vel value="0.00691666837978575" flag="0"/>
			<psa03 value="0.042326355996694" flag="0"/>
			<psa10 value="0.00284579820766669" flag="0"/>
			<psa30 value="0.000182357679259609" flag="0"/>
		</comp>
		<comp name="--.HNZ" depth="0.0">
			<acc value="0.0150565843766835" flag="0"/>
			<vel value="0.00472974817809017" flag="0"/>
			<psa03 value="0.0282314118591427" flag="0"/>
			<psa10 value="0.00263099241533386" flag="0"/>
			<psa30 value="0.000152837754959413" flag="0"/>
		</comp>
	</station>
	<station code="NPS1" name="NPS1" netid="HI" source="ITSAK Strong Motion Network" insttype="" lat="36.51263" lon="23.06248" esm:processing="manual (Paolucci et al 2011)" esm:quality="best">
		<comp name="--.HNE" depth="0.0">
			<acc value="0.00867568678465046" flag="0"/>
			<vel value="0.00340459756482826" flag="0"/>
			<psa03 value="0.0229527965517894" flag="0"/>
			<psa10 value="0.00161450105433247" flag="0"/>
			<psa30 value="0.000102796803273109" flag="0"/>
		</comp>
		<comp name="--.HNN" depth="0.0">
			<acc value="0.00916458064460597" flag="0"/>
			<vel value="0.00388757011371982" flag="0"/>
			<psa03 value="0.0290478513609157" flag="0"/>
			<psa10 value="0.0026240394547357" flag="0"/>
			<psa30 value="0.000194517768660063" flag="0"/>
		</comp>
		<comp name="--.HNZ" depth="0.0">
			<acc value="0.00996681224715903" flag="0"/>
			<vel value="0.00297698572880665" flag="0"/>
			<psa03 value="0.0150194350680507" flag="0"/>
			<psa10 value="0.00146003289188739" flag="0"/>
			<psa30 value="7.72277136134805e-05" flag="0"/>
		</comp>
	</station>
	<station code="SIT2" name="SIT2" netid="HI" source="ITSAK Strong Motion Network" insttype="" lat="35.2059" lon="26.107" esm:processing="manual (Paolucci et al 2011)" esm:quality="best">
		<comp name="--.HNE" depth="0.0">
			<acc value="0.0525552843298978" flag="0"/>
			<vel value="0.0308344381505892" flag="0"/>
			<psa03 value="0.155686084272529" flag="0"/>
			<psa10 value="0.0120034314184238" flag="0"/>
			<psa30 value="0.000981823478486406" flag="0"/>
		</comp>
		<comp name="--.HNN" depth="0.0">
			<acc value="0.0748225065980113" flag="0"/>
			<vel value="0.0333067200121521" flag="0"/>
			<psa03 value="0.209138166877042" flag="0"/>
			<psa10 value="0.0172556393514281" flag="0"/>
			<psa30 value="0.00123498170730969" flag="0"/>
		</comp>
		<comp name="--.HNZ" depth="0.0">
			<acc value="0.0649640816559463" flag="0"/>
			<vel value="0.0198175191019817" flag="0"/>
			<psa03 value="0.129185630830655" flag="0"/>
			<psa10 value="0.00519057775653859" flag="0"/>
			<psa30 value="0.000401833416366874" flag="0"/>
		</comp>
	</station>
	<station code="IACM" name="IACM" netid="HL" source="National Observatory of Athens Seismic Network" insttype="" lat="35.3058" lon="25.0709" esm:processing="automatic (Paolucci et al 2011)" esm:quality="best">
		<comp name="--.HNE" depth="0.0">
			<acc value="0.381030828823709" flag="0"/>
			<vel value="0.0982124958596138" flag="0"/>
			<psa03 value="0.329699445136669" flag="0"/>
			<psa10 value="0.0637894007346841" flag="0"/>
			<psa30 value="0.00247496395421542" flag="0"/>
		</comp>
		<comp name="--.HNN" depth="0.0">
			<acc value="0.287803720010954" flag="0"/>
			<vel value="0.0895358731831236" flag="0"/>
			<psa03 value="0.401026482702821" flag="0"/>
			<psa10 value="0.0599679688335924" flag="0"/>
			<psa30 value="0.00261625977270331" flag="0"/>
		</comp>
		<comp name="--.HNZ" depth="0.0">
			<acc value="0.329504442034123" flag="0"/>
			<vel value="0.075525044154275" flag="0"/>
			<psa03 value="0.337559340816325" flag="0"/>
			<psa10 value="0.0213540608517273" flag="0"/>
			<psa30 value="0.0014376120055746" flag="0"/>
		</comp>
	</station>
	<station code="IMMV" name="IMMV" netid="HL" source="National Observatory of Athens Seismic Network" insttype="" lat="35.4606" lon="23.9811" esm:processing="automatic (Paolucci et al 2011)" esm:quality="best">
		<comp name="--.HNE" depth="0.0">
			<acc value="0.0308810584840232" flag="0"/>
			<vel value="0.0136156012540046" flag="0"/>
			<psa03 value="0.0741298221952226" flag="0"/>
			<psa10 value="0.00896602458011316" flag="0"/>
			<psa30 value="0.000595321207940785" flag="0"/>
		</comp>
		<comp name="--.HNN" depth="0.0">
			<acc value="0.0351108491193004" flag="0"/>
			<vel value="0.010313245043618" flag="0"/>
			<psa03 value="0.0677964390981741" flag="0"/>
			<psa10 value="0.00688568864306472" flag="0"/>
			<psa30 value="0.000433391756951832" flag="0"/>
		</comp>
		<comp name="--.HNZ" depth="0.0">
			<acc value="0.0280338447042299" flag="0"/>
			<vel value="0.00941140304607335" flag="0"/>
			<psa03 value="0.0646610491023228" flag="0"/>
			<psa10 value="0.00470460087546409" flag="0"/>
			<psa30 value="0.000319943798872937" flag="0"/>
		</comp>
	</station>
	<station code="KTHA" name="KTHA" netid="HL" source="National Observatory of Athens Seismic Network" insttype="" lat="36.2566" lon="23.0621" esm:processing="manual (Paolucci et al 2011)" esm:quality="good">
		<comp name="--.HNE" depth="0.0">
			<acc value="0.133088008141316" flag="0"/>
			<vel value="0.0411439282504427" flag="0"/>
			<psa03 value="0.177475569385467" flag="0"/>
			<psa10 value="0.0241036679997103" flag="0"/>
			<psa30 value="0.0013725159224439" flag="0"/>
		</comp>
		<comp name="--.HNN" depth="0.0">
			<acc value="0.0701694397858361" flag="0"/>
			<vel value="0.029962881021562" flag="0"/>
			<psa03 value="0.189306540629248" flag="0"/>
			<psa10 value="0.0218852704167578" flag="0"/>
			<psa30 value="0.00140611168966527" flag="0"/>
		</comp>
		<comp name="--.HNZ" depth="0.0">
			<acc value="0.0503646840142881" flag="0"/>
			<vel value="0.0145663642145758" flag="0"/>
			<psa03 value="0.104218758147915" flag="0"/>
			<psa10 value="0.0192749924986563" flag="0"/>
			<psa30 value="0.0011462368700672" flag="0"/>
		</comp>
	</station>
	<station code="MNVA" name="MNVA" netid="HL" source="National Observatory of Athens Seismic Network" insttype="" lat="36.68709" lon="23.03734" esm:processing="manual (Paolucci et al 2011)" esm:quality="good">
		<comp name="00.HNE" depth="0.0">
			<acc value="0.00368397136973638" flag="0"/>
			<vel value="0.00195272462468749" flag="0"/>
			<psa03 value="0.010684630981466" flag="0"/>
			<psa10 value="0.00141024435926749" flag="0"/>
			<psa30 value="9.04469421867013e-05" flag="0"/>
		</comp>
		<comp name="00.HNN" depth="0.0">
			<acc value="0.00417936249193538" flag="0"/>
			<vel value="0.00128916096391552" flag="0"/>
			<psa03 value="0.00982127170482234" flag="0"/>
			<psa10 value="0.00129829698236451" flag="0"/>
			<psa30 value="0.00011534443787772" flag="0"/>
		</comp>
		<comp name="00.HNZ" depth="0.0">
			<acc value="0.00305332639482237" flag="0"/>
			<vel value="0.0012480073426645" flag="0"/>
			<psa03 value="0.00551182997541666" flag="0"/>
			<psa10 value="0.000771088873821267" flag="0"/>
			<psa30 value="9.72761771421069e-05" flag="0"/>
		</comp>
	</station>
	<station code="SIVA" name="SIVA" netid="HL" source="National Observatory of Athens Seismic Network" insttype="" lat="35.01777" lon="24.81204" esm:processing="automatic (Paolucci et al 2011)" esm:quality="best">
		<comp name="00.HNE" depth="0.0">
			<acc value="0.0366646606764847" flag="0"/>
			<vel value="0.0135285872953948" flag="0"/>
			<psa03 value="0.0728775881990374" flag="0"/>
			<psa10 value="0.00989856510636061" flag="0"/>
			<psa30 value="0.000469514957229685" flag="0"/>
		</comp>
		<comp name="00.HNN" depth="0.0">
			<acc value="0.0294348201247743" flag="0"/>
			<vel value="0.0104825555708481" flag="0"/>
			<psa03 value="0.0653705179761213" flag="0"/>
			<psa10 value="0.0089299246886856" flag="0"/>
			<psa30 value="0.000503104057340085" flag="0"/>
		</comp>
		<comp name="00.HNZ" depth="0.0">
			<acc value="0.0232162077650059" flag="0"/>
			<vel value="0.00764766322501271" flag="0"/>
			<psa03 value="0.0391196565894205" flag="0"/>
			<psa10 value="0.00267243969226525" flag="0"/>
			<psa30 value="0.000202644452846303" flag="0"/>
		</comp>
	</station>
	<station code="THRA" name="THRA" netid="HL" source="National Observatory of Athens Seismic Network" insttype="" lat="36.41502" lon="25.43244" esm:processing="automatic (Paolucci et al 2011)" esm:quality="best">
		<comp name="00.HNE" depth="0.0">
			<acc value="0.103489922344308" flag="0"/>
			<vel value="0.0376985452731366" flag="0"/>
			<psa03 value="0.147617935213654" flag="0"/>
			<psa10 value="0.0306614255439624" flag="0"/>
			<psa30 value="0.00152603369641178" flag="0"/>
		</comp>
		<comp name="00.HNN" depth="0.0">
			<acc value="0.0810774872725458" flag="0"/>
			<vel value="0.0261037167223459" flag="0"/>
			<psa03 value="0.14248208457196" flag="0"/>
			<psa10 value="0.0121600605443394" flag="0"/>
			<psa30 value="0.000854649168397095" flag="0"/>
		</comp>
		<comp name="00.HNZ" depth="0.0">
			<acc value="0.0550819858321388" flag="0"/>
