<?xml version="1.0" encoding="UTF-8" standalone="yes"?>
<!DOCTYPE earthquake SYSTEM "stationlist.dtd">
<stationlist created="" xmlns="ch.ethz.sed.shakemap.usgs.xml">
  <station code="GVD" name="GVD" netid="GE" insttype="STS-2/N" lat="34.8391" lon="24.0874">
    <comp name="--.HHE">
      <acc value="0.0427307153" flag="0"/>
      <vel value="0.0111234828" flag="0"/>
      <psa03 value="0.0516275365" flag="0"/>
      <psa10 value="0.0053302909" flag="0"/>
      <psa30 value="0.0004151664" flag="0"/>
    </comp>
    <comp name="--.HHN">
      <acc value="0.0352456181" flag="0"/>
      <vel value="0.0115843026" flag="0"/>
      <psa03 value="0.0693089676" flag="0"/>
      <psa10 value="0.0060109885" flag="0"/>
      <psa30 value="0.0004187615" flag="0"/>
    </comp>
    <comp name="--.HHZ">
      <acc value="0.0230835845" flag="0"/>
      <vel value="0.0065580284" flag="0"/>
      <psa03 value="0.0240057130" flag="0"/>
      <psa10 value="0.0031357829" flag="0"/>
      <psa30 value="0.0002050139" flag="0"/>
    </comp>
  </station>
  <station code="IMMV" name="IMMV" netid="GE" insttype="STS-2/N" lat="35.4606" lon="23.9811">
    <comp name="--.HHN">
      <acc value="0.0368228521" flag="0"/>
      <vel value="0.0107057206" flag="0"/>
      <psa03 value="0.0705102070" flag="0"/>
      <psa10 value="0.0070335545" flag="0"/>
      <psa30 value="0.0004279171" flag="0"/>
    </comp>
    <comp name="--.HHE">
      <acc value="0.0322272307" flag="0"/>
      <vel value="0.0143565421" flag="0"/>
      <psa03 value="0.0776536571" flag="0"/>
      <psa10 value="0.0093977707" flag="0"/>
      <psa30 value="0.0006012724" flag="0"/>
    </comp>
    <comp name="--.HHZ">
      <acc value="0.0295425143" flag="0"/>
      <vel value="0.0096562799" flag="0"/>
      <psa03 value="0.0665893610" flag="0"/>
      <psa10 value="0.0048293992" flag="0"/>
      <psa30 value="0.0003225280" flag="0"/>
    </comp>
  </station>
  <station code="THERA" name="THERA" netid="GE" insttype="STS-2/N" lat="36.367" lon="25.4753">
    <comp name="--.HHN">
      <acc value="0.0287124451" flag="0"/>
      <vel value="0.0111513188" flag="0"/>
      <psa03 value="0.0878491697" flag="0"/>
      <psa10 value="0.0034044932" flag="0"/>
      <psa30 value="0.0002688991" flag="0"/>
    </comp>
    <comp name="--.HHE">
      <acc value="0.0382223186" flag="0"/>
      <vel value="0.0160684936" flag="0"/>
      <psa03 value="0.0702230427" flag="0"/>
      <psa10 value="0.0067355116" flag="0"/>
      <psa30 value="0.0006281191" flag="0"/>
    </comp>
    <comp name="--.HHZ">
      <acc value="0.0367262971" flag="0"/>
      <vel value="0.0127602875" flag="0"/>
      <psa03 value="0.0750463450" flag="0"/>
      <psa10 value="0.0026203012" flag="0"/>
      <psa30 value="0.0002078806" flag="0"/>
    </comp>
  </station>
  <station code="ABEA" name="ABEA" netid="HC" insttype="DC" lat="35.5163" lon="24.0113">
    <comp name="--.HNN">
      <acc value="0.0926516437" flag="0"/>
      <vel value="0.0344935611" flag="0"/>
      <psa03 value="0.1432956805" flag="0"/>
      <psa10 value="0.0116729995" flag="0"/>
      <psa30 value="0.0013642955" flag="0"/>
    </comp>
    <comp name="--.HNE">
      <acc value="0.0911443873" flag="0"/>
      <vel value="0.0246663909" flag="0"/>
      <psa03 value="0.1531330205" flag="0"/>
      <psa10 value="0.0104354145" flag="0"/>
      <psa30 value="0.0014819397" flag="0"/>
    </comp>
    <comp name="--.HNZ">
      <acc value="0.0749292723" flag="0"/>
      <vel value="0.0125408776" flag="0"/>
      <psa03 value="0.0543368750" flag="0"/>
      <psa10 value="0.0082368332" flag="0"/>
      <psa30 value="0.0011972304" flag="0"/>
    </comp>
  </station>
  <station code="ATEI" name="ATEI" netid="HC" insttype="DC" lat="35.5193" lon="24.0432">
    <comp name="--.HNN">
      <acc value="0.0796658671" flag="0"/>
      <vel value="0.0268011757" flag="0"/>
      <psa03 value="0.1966434823" flag="0"/>
      <psa10 value="0.0108161700" flag="0"/>
      <psa30 value="0.0010396914" flag="0"/>
    </comp>
    <comp name="--.HNZ">
      <acc value="0.0783194551" flag="0"/>
      <vel value="0.0162823046" flag="0"/>
      <psa03 value="0.0740767776" flag="0"/>
      <psa10 value="0.0075983810" flag="0"/>
      <psa30 value="0.0010727325" flag="0"/>
    </comp>
    <comp name="--.HNE">
      <acc value="0.0611402674" flag="0"/>
      <vel value="0.0225490460" flag="0"/>
      <psa03 value="0.1187434596" flag="0"/>
      <psa10 value="0.0144437862" flag="0"/>
      <psa30 value="0.0009733221" flag="0"/>
    </comp>
  </station>
  <station code="CHAN" name="CHAN" netid="HC" insttype="120" lat="35.5193" lon="24.0428">
    <comp name="--.HHZ">
      <acc value="0.1084688450" flag="0"/>
      <vel value="0.0212633590" flag="0"/>
      <psa03 value="0.0956139003" flag="0"/>
      <psa10 value="0.0093054548" flag="0"/>
      <psa30 value="0.0007619749" flag="0"/>
    </comp>
    <comp name="--.HHN">
      <acc value="0.1060586475" flag="0"/>
      <vel value="0.0319565284" flag="0"/>
      <psa03 value="0.2550580938" flag="0"/>
      <psa10 value="0.0122680019" flag="0"/>
      <psa30 value="0.0012867096" flag="0"/>
    </comp>
    <comp name="--.HHE">
      <acc value="0.0784012943" flag="0"/>
      <vel value="0.0317282098" flag="0"/>
      <psa03 value="0.1566676440" flag="0"/>
      <psa10 value="0.0204592921" flag="0"/>
      <psa30 value="0.0010586591" flag="0"/>
    </comp>
  </station>
  <station code="GVDS" name="GVDS" netid="HC" insttype="60" lat="34.8389" lon="24.0585">
    <comp name="--.HHZ">
      <acc value="0.0182214692" flag="0"/>
      <vel value="0.0044742357" flag="0"/>
      <psa03 value="0.0204960736" flag="0"/>
      <psa10 value="0.0024319844" flag="0"/>
      <psa30 value="0.0001316081" flag="0"/>
    </comp>
    <comp name="--.HHE">
      <acc value="0.0284685851" flag="0"/>
      <vel value="0.0081588338" flag="0"/>
      <psa03 value="0.0565312180" flag="0"/>
      <psa10 value="0.0033653222" flag="0"/>
      <psa30 value="0.0003064342" flag="0"/>
    </comp>
    <comp name="--.HHN">
      <acc value="0.0465051556" flag="0"/>
      <vel value="0.0132727508" flag="0"/>
      <psa03 value="0.0722007822" flag="0"/>
      <psa10 value="0.0043870336" flag="0"/>
      <psa30 value="0.0003283477" flag="0"/>
    </comp>
  </station>
  <station code="IMOD" name="IMOD" netid="HC" insttype="120" lat="34.9731" lon="24.7995">
    <comp name="--.HHE">
      <acc value="0.0261348744" flag="0"/>
      <vel value="0.0102037891" flag="0"/>
      <psa03 value="0.0628018055" flag="0"/>
      <psa10 value="0.0073206737" flag="0"/>
      <psa30 value="0.0003882912" flag="0"/>
    </comp>
    <comp name="--.HHN">
      <acc value="0.0269031734" flag="0"/>
      <vel value="0.0125241879" flag="0"/>
      <psa03 value="0.1078284472" flag="0"/>
      <psa10 value="0.0077502759" flag="0"/>
      <psa30 value="0.0005360317" flag="0"/>
    </comp>
    <comp name="--.HHZ">
      <acc value="0.0207940297" flag="0"/>
      <vel value="0.0074458539" flag="0"/>
      <psa03 value="0.0453495141" flag="0"/>
      <psa10 value="0.0028815012" flag="0"/>
      <psa30 value="0.0003008679" flag="0"/>
    </comp>
  </station>
  <station code="KNDR" name="KNDR" netid="HC" insttype="120" lat="35.2348" lon="23.6248">
    <comp name="--.HHE">
      <acc value="0.0183484067" flag="0"/>
      <vel value="0.0065446087" flag="0"/>
      <psa03 value="0.0527588890" flag="0"/>
      <psa10 value="0.0066062282" flag="0"/>
      <psa30 value="0.0004555449" flag="0"/>
    </comp>
    <comp name="--.HHN">
      <acc value="0.0166533420" flag="0"/>
      <vel value="0.0059066948" flag="0"/>
      <psa03 value="0.0411213529" flag="0"/>
      <psa10 value="0.0043523721" flag="0"/>
      <psa30 value="0.0002615882" flag="0"/>
    </comp>
    <comp name="--.HHZ">
      <acc value="0.0169740783" flag="0"/>
      <vel value="0.0052598816" flag="0"/>
      <psa03 value="0.0401519279" flag="0"/>
      <psa10 value="0.0026916871" flag="0"/>
      <psa30 value="0.0001912130" flag="0"/>
    </comp>
  </station>
  <station code="KNSS" name="KNSS" netid="HC" insttype="60" lat="35.3042" lon="25.1802">
    <comp name="--.HHE">
      <acc value="0.2003507724" flag="0"/>
      <vel value="0.0549333311" flag="0"/>
      <psa03 value="0.2369043317" flag="0"/>
      <psa10 value="0.0103913709" flag="0"/>
      <psa30 value="0.0013432648" flag="0"/>
    </comp>
    <comp name="--.HHN">
      <acc value="0.2043647992" flag="0"/>
      <vel value="0.0447525486" flag="0"/>
      <psa03 value="0.1560378004" flag="0"/>
      <psa10 value="0.0270090699" flag="0"/>
      <psa30 value="0.0018924437" flag="0"/>
    </comp>
    <comp name="--.HHZ">
      <acc value="0.1408129132" flag="0"/>
      <vel value="0.0301664233" flag="0"/>
      <psa03 value="0.1273242225" flag="0"/>
      <psa10 value="0.0074270288" flag="0"/>
      <psa30 value="0.0005560699" flag="0"/>
    </comp>
  </station>
  <station code="NERO" name="NERO" netid="HC" insttype="DC" lat="35.474" lon="24.0423">
    <comp name="--.HNE">
      <acc value="0.0502885370" flag="0"/>
      <vel value="0.0241224513" flag="0"/>
      <psa03 value="0.0930550514" flag="0"/>
      <psa10 value="0.0121198391" flag="0"/>
      <psa30 value="0.0011158739" flag="0"/>
    </comp>
    <comp name="--.HNZ">
      <acc value="0.0488498113" flag="0"/>
      <vel value="0.0138004455" flag="0"/>
      <psa03 value="0.0560038381" flag="0"/>
      <psa10 value="0.0123829421" flag="0"/>
      <psa30 value="0.0009895103" flag="0"/>
    </comp>
    <comp name="--.HNN">
      <acc value="0.0623020650" flag="0"/>
      <vel value="0.0174987319" flag="0"/>
      <psa03 value="0.1183063347" flag="0"/>
      <psa10 value="0.0183324587" flag="0"/>
      <psa30 value="0.0014392836" flag="0"/>
    </comp>
  </station>
  <station code="PASK" name="PASK" netid="HC" insttype="DC" lat="35.4996" lon="24.0121">
    <comp name="--.HNE">
      <acc value="0.1051310000" flag="0"/>
      <vel value="0.0328752157" flag="0"/>
      <psa03 value="0.1998125039" flag="0"/>
      <psa10 value="0.0175102633" flag="0"/>
      <psa30 value="0.0012670587" flag="0"/>
    </comp>
    <comp name="--.HNN">
      <acc value="0.0753304496" flag="0"/>
      <vel value="0.0270152563" flag="0"/>
      <psa03 value="0.1401935206" flag="0"/>
      <psa10 value="0.0241737738" flag="0"/>
      <psa30 value="0.0025564789" flag="0"/>
    </comp>
    <comp name="--.HNZ">
      <acc value="0.0738001451" flag="0"/>
      <vel value="0.0191278787" flag="0"/>
      <psa03 value="0.1392395284" flag="0"/>
      <psa10 value="0.0069163633" flag="0"/>
      <psa30 value="0.0011663923" flag="0"/>
    </comp>
  </station>
  <station code="POLY" name="POLY" netid="HC" insttype="DC" lat="35.5226" lon="24.0602">
    <comp name="--.HNN">
      <acc value="0.0782817452" flag="0"/>
      <vel value="0.0196078357" flag="0"/>
      <psa03 value="0.1037882474" flag="0"/>
      <psa10 value="0.0096716851" flag="0"/>
      <psa30 value="0.0009473376" flag="0"/>
    </comp>
    <comp name="--.HNZ">
      <acc value="0.0514015630" flag="0"/>
      <vel value="0.0123148073" flag="0"/>
      <psa03 value="0.0776557268" flag="0"/>
      <psa10 value="0.0061645401" flag="0"/>
      <psa30 value="0.0009979459" flag="0"/>
    </comp>
    <comp name="--.HNE">
      <acc value="0.0424775082" flag="0"/>
      <vel value="0.0172257685" flag="0"/>
      <psa03 value="0.0730419433" flag="0"/>
      <psa10 value="0.0073645190" flag="0"/>
      <psa30 value="0.0007735179" flag="0"/>
    </comp>
  </station>
  <station code="RODP" name="RODP" netid="HC" insttype="120" lat="35.5604" lon="23.7577">
    <comp name="--.HHE">
      <acc value="0.0257651315" flag="0"/>
      <vel value="0.0090047403" flag="0"/>
      <psa03 value="0.0499661718" flag="0"/>
      <psa10 value="0.0056644577" flag="0"/>
      <psa30 value="0.0003817336" flag="0"/>
    </comp>
    <comp name="--.HHZ">
      <acc value="0.0127031670" flag="0"/>
      <vel value="0.0047619590" flag="0"/>
      <psa03 value="0.0337761943" flag="0"/>
      <psa10 value="0.0021762488" flag="0"/>
      <psa30 value="0.0002889095" flag="0"/>
    </comp>
    <comp name="--.HHN">
      <acc value="0.0239952839" flag="0"/>
      <vel value="0.0073593887" flag="0"/>
      <psa03 value="0.0620892713" flag="0"/>
      <psa10 value="0.0039719987" flag="0"/>
      <psa30 value="0.0002911384" flag="0"/>
    </comp>
  </station>
  <station code="STIA" name="STIA" netid="HC" insttype="120" lat="35.2021" lon="26.0909">
    <comp name="--.HHN">
      <acc value="0.0312589532" flag="0"/>
      <vel value="0.0103256522" flag="0"/>
      <psa03 value="0.0571968183" flag="0"/>
      <psa10 value="0.0044621416" flag="0"/>
      <psa30 value="0.0002285807" flag="0"/>
    </comp>
    <comp name="--.HHZ">
      <acc value="0.0361164136" flag="0"/>
      <vel value="0.0107333702" flag="0"/>
      <psa03 value="0.0406875518" flag="0"/>
      <psa10 value="0.0031682700" flag="0"/>
      <psa30 value="0.0003063515" flag="0"/>
    </comp>
    <comp name="--.HHE">
      <acc value="0.0257523030" flag="0"/>
      <vel value="0.0102567577" flag="0"/>
      <psa03 value="0.0471232435" flag="0"/>
      <psa10 value="0.0064483448" flag="0"/>
      <psa30 value="0.0003775912" flag="0"/>
    </comp>
  </station>
  <station code="CH01" name="CH01" netid="HI" insttype="CMG-5TD,ACCELEROMETER,GURALP" lat="35.517" lon="24.0208">
    <comp name="--.HNZ">
      <acc value="0.0450349909" flag="0"/>
      <vel value="0.0089088309" flag="0"/>
      <psa03 value="0.0340448238" flag="0"/>
      <psa10 value="0.0058826137" flag="0"/>
      <psa30 value="0.0003962964" flag="0"/>
    </comp>
    <comp name="--.HNE">
      <acc value="0.0931279248" flag="0"/>
      <vel value="0.0260633559" flag="0"/>
      <psa03 value="0.1105932198" flag="0"/>
      <psa10 value="0.0068212799" flag="0"/>
      <psa30 value="0.0006536750" flag="0"/>
    </comp>
    <comp name="--.HNN">
      <acc value="0.0936292918" flag="0"/>
      <vel value="0.0292461026" flag="0"/>
      <psa03 value="0.1022475113" flag="0"/>
      <psa10 value="0.0084253121" flag="0"/>
      <psa30 value="0.0006797916" flag="0"/>
    </comp>
  </station>
  <station code="SIT2" name="SIT2" netid="HI" insttype="CMG-5TD,ACCELEROMETER,GURALP" lat="35.2059" lon="26.107">
    <comp name="--.HNN">
      <acc value="0.0752004432" flag="0"/>
      <vel value="0.0332393357" flag="0"/>
      <psa03 value="0.2105621086" flag="0"/>
      <psa10 value="0.0172157652" flag="0"/>
      <psa30 value="0.0012446517" flag="0"/>
    </comp>
    <comp name="--.HNE">
      <acc value="0.0525310910" flag="0"/>
      <vel value="0.0307674834" flag="0"/>
      <psa03 value="0.1572873647" flag="0"/>
      <psa10 value="0.0119901517" flag="0"/>
      <psa30 value="0.0009807793" flag="0"/>
    </comp>
    <comp name="--.HNZ">
      <acc value="0.0653092073" flag="0"/>
      <vel value="0.0196239090" flag="0"/>
      <psa03 value="0.1278700664" flag="0"/>
      <psa10 value="0.0051465011" flag="0"/>
      <psa30 value="0.0004206496" flag="0"/>
    </comp>
  </station>
  <station code="GVD" name="GVD" netid="HL" insttype="120" lat="34.8391" lon="24.0874">
    <comp name="--.HHZ">
      <acc value="0.0225277493" flag="0"/>
      <vel value="0.0063052783" flag="0"/>
      <psa03 value="0.0233796402" flag="0"/>
      <psa10 value="0.0031089779" flag="0"/>
      <psa30 value="0.0002047087" flag="0"/>
    </comp>
    <comp name="--.HHE">
      <acc value="0.0414135729" flag="0"/>
      <vel value="0.0108920279" flag="0"/>
      <psa03 value="0.0501765509" flag="0"/>
      <psa10 value="0.0052682342" flag="0"/>
      <psa30 value="0.0004099524" flag="0"/>
    </comp>
    <comp name="--.HHN">
      <acc value="0.0341624184" flag="0"/>
      <vel value="0.0111926373" flag="0"/>
      <psa03 value="0.0673738456" flag="0"/>
      <psa10 value="0.0059348649" flag="0"/>
      <psa30 value="0.0004131422" flag="0"/>
    </comp>
  </station>
  <station code="IACM" name="IACM" netid="HL" insttype="120" lat="35.3058" lon="25.0709">
    <comp name="--.HHE">
      <acc value="0.3820143400" flag="0"/>
      <vel value="0.0957168195" flag="0"/>
      <psa03 value="0.3289369320" flag="0"/>
      <psa10 value="0.0621077270" flag="0"/>
      <psa30 value="0.0025264595" flag="0"/>
    </comp>
    <comp name="--.HHN">
      <acc value="0.2861745496" flag="0"/>
      <vel value="0.0852040182" flag="0"/>
      <psa03 value="0.4091791209" flag="0"/>
      <psa10 value="0.0585303957" flag="0"/>
      <psa30 value="0.0025628270" flag="0"/>
    </comp>
    <comp name="--.HHZ">
      <acc value="0.3249672728" flag="0"/>
      <vel value="0.0732589785" flag="0"/>
      <psa03 value="0.3280994261" flag="0"/>
      <psa10 value="0.0210621027" flag="0"/>
      <psa30 value="0.0014676677" flag="0"/>
    </comp>
  </station>
  <station code="IDI" name="IDI" netid="HL" insttype="120" lat="35.288" lon="24.89">
    <comp name="--.HHZ">
      <acc value="0.1768520814" flag="0"/>
      <vel value="0.0413931843" flag="0"/>
      <psa03 value="0.1457740018" flag="0"/>
      <psa10 value="0.0069344361" flag="0"/>
      <psa30 value="0.0005327347" flag="0"/>
    </comp>
    <comp name="--.HHN">
      <acc value="0.2299695743" flag="0"/>
      <vel value="0.0431560685" flag="0"/>
      <psa03 value="0.2736284813" flag="0"/>
      <psa10 value="0.0097812574" flag="0"/>
      <psa30 value="0.0007015655" flag="0"/>
    </comp>
    <comp name="--.HHE">
      <acc value="0.1984947877" flag="0"/>
      <vel value="0.0446927826" flag="0"/>
      <psa03 value="0.3347469457" flag="0"/>
      <psa10 value="0.0089654954" flag="0"/>
      <psa30 value="0.0008084111" flag="0"/>
    </comp>
  </station>
  <station code="IMMV" name="IMMV" netid="HL" insttype="120" lat="35.4606" lon="23.9811">
    <comp name="--.HHZ">
      <acc value="0.0292995832" flag="0"/>
      <vel value="0.0093959434" flag="0"/>
      <psa03 value="0.0645020948" flag="0"/>
      <psa10 value="0.0047729867" flag="0"/>
      <psa30 value="0.0003197404" flag="0"/>
    </comp>
    <comp name="--.HHE">
      <acc value="0.0312997147" flag="0"/>
      <vel value="0.0140743634" flag="0"/>
      <psa03 value="0.0753412475" flag="0"/>
      <psa10 value="0.0093209006" flag="0"/>
      <psa30 value="0.0005980341" flag="0"/>
    </comp>
    <comp name="--.HHN">
      <acc value="0.0355895385" flag="0"/>
      <vel value="0.0104088263" flag="0"/>
      <psa03 value="0.0685735879" flag="0"/>
      <psa10 value="0.0069629529" flag="0"/>
      <psa30 value="0.0004221835" flag="0"/>
    </comp>
  </station>
  <station code="NPS" name="NPS" netid="HL" insttype="CMG3ESPC-120s" lat="35.2613" lon="25.6104">
    <comp name="--.HHN">
      <acc value="0.0912891508" flag="0"/>
      <vel value="0.0180265851" flag="0"/>
      <psa03 value="0.0767595246" flag="0"/>
      <psa10 value="0.0054989637" flag="0"/>
      <psa30 value="0.0003691658" flag="0"/>
    </comp>
    <comp name="--.HHE">
      <acc value="0.0282009294" flag="0"/>
      <vel value="0.0060643044" flag="0"/>
      <psa03 value="0.0330885023" flag="0"/>
      <psa10 value="0.0024893492" flag="0"/>
      <psa30 value="0.0001468657" flag="0"/>
    </comp>
    <comp name="--.HHZ">
      <acc value="0.0487830656" flag="0"/>
      <vel value="0.0098502092" flag="0"/>
      <psa03 value="0.0292484146" flag="0"/>
      <psa10 value="0.0031091707" flag="0"/>
      <psa30 value="0.0002006635" flag="0"/>
    </comp>
  </station>
  <station code="SIVA" name="SIVA" netid="HL" insttype="60" lat="35.0178" lon="24.812">
    <comp name="--.HHN">
      <acc value="0.0317186848" flag="0"/>
      <vel value="0.0093284755" flag="0"/>
      <psa03 value="0.0619013467" flag="0"/>
      <psa10 value="0.0076914131" flag="0"/>
      <psa30 value="0.0005349694" flag="0"/>
    </comp>
    <comp name="--.HHE">
      <acc value="0.0402428881" flag="0"/>
      <vel value="0.0144709227" flag="0"/>
