<?xml version="1.0" encoding="UTF-8" standalone="yes"?>
<!DOCTYPE earthquake SYSTEM "stationlist.dtd">
<stationlist created="" xmlns="ch.ethz.sed.shakemap.usgs.xml">
  <station code="BASIC" name="BASIC" netid="IV" insttype="" commtype="DIG" lat="38.067" lon="15.0688">
    <comp name="--.HHE">
      <acc value="0.0384352734" flag="0"/>
      <vel value="0.0176913852" flag="0"/>
      <psa03 value="0.0730028158" flag="0"/>
      <psa10 value="0.0074346766" flag="0"/>
      <psa30 value="0.0004798033" flag="0"/>
    </comp>
    <comp name="--.HHN">
      <acc value="0.0366723174" flag="0"/>
      <vel value="0.0130553870" flag="0"/>
      <psa03 value="0.0594650000" flag="0"/>
      <psa10 value="0.0071342661" flag="0"/>
      <psa30 value="0.0004857451" flag="0"/>
    </comp>
    <comp name="--.HHZ">
      <acc value="0.0388413073" flag="0"/>
      <vel value="0.0115741646" flag="0"/>
      <psa03 value="0.0487064747" flag="0"/>
      <psa10 value="0.0070993217" flag="0"/>
      <psa30 value="0.0005148576" flag="0"/>
    </comp>
  </station>
  <station code="CAR1" name="CAR1" netid="IV" insttype="" commtype="DIG" lat="39.2534" lon="16.2114">
    <comp name="--.HHE">
      <acc value="0.0309431517" flag="0"/>
      <vel value="0.0253607717" flag="0"/>
      <psa03 value="0.0775071866" flag="0"/>
      <psa10 value="0.0300975313" flag="0"/>
      <psa30 value="0.0014632399" flag="0"/>
    </comp>
    <comp name="--.HHN">
      <acc value="0.0122334063" flag="0"/>
      <vel value="0.0043988232" flag="0"/>
      <psa03 value="0.0367064958" flag="0"/>
      <psa10 value="0.0029628713" flag="0"/>
      <psa30 value="0.0001184244" flag="0"/>
    </comp>
    <comp name="--.HHZ">
      <acc value="0.0189465465" flag="0"/>
      <vel value="0.0087097478" flag="0"/>
      <psa03 value="0.0389980008" flag="0"/>
      <psa10 value="0.0097113911" flag="0"/>
      <psa30 value="0.0005170983" flag="0"/>
    </comp>
  </station>
  <station code="CELI" name="CELI" netid="IV" insttype="SS08" commtype="DIG" lat="39.4027" lon="16.5088">
    <comp name="--.HHE">
      <acc value="0.0039702901" flag="0"/>
      <vel value="0.0019970702" flag="0"/>
      <psa03 value="0.0122285255" flag="0"/>
      <psa10 value="0.0012284248" flag="0"/>
      <psa30 value="0.0000894101" flag="0"/>
    </comp>
    <comp name="--.HHN">
      <acc value="0.0045937692" flag="0"/>
      <vel value="0.0026671764" flag="0"/>
      <psa03 value="0.0122029464" flag="0"/>
      <psa10 value="0.0018543408" flag="0"/>
      <psa30 value="0.0001096936" flag="0"/>
    </comp>
    <comp name="--.HHZ">
      <acc value="0.0141718773" flag="0"/>
      <vel value="0.0062473135" flag="0"/>
      <psa03 value="0.0355791927" flag="0"/>
      <psa10 value="0.0033137149" flag="0"/>
      <psa30 value="0.0003401251" flag="0"/>
    </comp>
  </station>
  <station code="CET2" name="CET2" netid="IV" insttype="" commtype="DIG" lat="39.5288" lon="15.9546">
    <comp name="--.HHE">
      <acc value="0.0223596933" flag="0"/>
      <vel value="0.0082717130" flag="0"/>
      <psa03 value="0.0483146621" flag="0"/>
      <psa10 value="0.0104874422" flag="0"/>
      <psa30 value="0.0005852852" flag="0"/>
    </comp>
    <comp name="--.HHN">
      <acc value="0.0313302856" flag="0"/>
      <vel value="0.0104777462" flag="0"/>
      <psa03 value="0.0635222524" flag="0"/>
      <psa10 value="0.0221937849" flag="0"/>
      <psa30 value="0.0012414186" flag="0"/>
    </comp>
    <comp name="--.HHZ">
      <acc value="0.0232015653" flag="0"/>
      <vel value="0.0043895048" flag="0"/>
      <psa03 value="0.0308694970" flag="0"/>
      <psa10 value="0.0029079758" flag="0"/>
      <psa30 value="0.0003091274" flag="0"/>
    </comp>
  </station>
  <station code="EBDA" name="EBDA" netid="IV" insttype="" commtype="DIG" lat="37.6335" lon="15.1223">
    <comp name="--.HHE">
      <acc value="0.0350831873" flag="0"/>
      <vel value="0.0110436852" flag="0"/>
      <psa03 value="0.0474668905" flag="0"/>
      <psa10 value="0.0051603511" flag="0"/>
      <psa30 value="0.0005204758" flag="0"/>
    </comp>
    <comp name="--.HHN">
      <acc value="0.0384457055" flag="0"/>
      <vel value="0.0102138527" flag="0"/>
      <psa03 value="0.0493491406" flag="0"/>
      <psa10 value="0.0042066343" flag="0"/>
      <psa30 value="0.0004816139" flag="0"/>
    </comp>
    <comp name="--.HHZ">
      <acc value="0.0376676715" flag="0"/>
      <vel value="0.0142561686" flag="0"/>
      <psa03 value="0.0564308412" flag="0"/>
      <psa10 value="0.0088923826" flag="0"/>
      <psa30 value="0.0005638291" flag="0"/>
    </comp>
  </station>
  <station code="ECBD" name="ECBD" netid="IV" insttype="" commtype="DIG" lat="37.7802" lon="15.0865">
    <comp name="--.HHE">
      <acc value="0.0489210781" flag="0"/>
      <vel value="0.0136291365" flag="0"/>
      <psa03 value="0.0868332539" flag="0"/>
      <psa10 value="0.0107725929" flag="0"/>
      <psa30 value="0.0007208434" flag="0"/>
    </comp>
    <comp name="--.HHN">
      <acc value="0.0325391542" flag="0"/>
      <vel value="0.0127946734" flag="0"/>
      <psa03 value="0.0613364781" flag="0"/>
      <psa10 value="0.0081400633" flag="0"/>
      <psa30 value="0.0006545433" flag="0"/>
    </comp>
    <comp name="--.HHZ">
      <acc value="0.0449191845" flag="0"/>
      <vel value="0.0205149875" flag="0"/>
      <psa03 value="0.1062938280" flag="0"/>
      <psa10 value="0.0082241097" flag="0"/>
      <psa30 value="0.0006984567" flag="0"/>
    </comp>
  </station>
  <station code="ECHR" name="ECHR" netid="IV" insttype="" commtype="DIG" lat="37.6863" lon="14.9129">
    <comp name="--.HHE">
      <acc value="0.0193278031" flag="0"/>
      <vel value="0.0106009290" flag="0"/>
      <psa03 value="0.0957361879" flag="0"/>
      <psa10 value="0.0067942531" flag="0"/>
      <psa30 value="0.0004633657" flag="0"/>
    </comp>
    <comp name="--.HHN">
      <acc value="0.0182908703" flag="0"/>
      <vel value="0.0128657144" flag="0"/>
      <psa03 value="0.0844551544" flag="0"/>
      <psa10 value="0.0065889002" flag="0"/>
      <psa30 value="0.0004112930" flag="0"/>
    </comp>
    <comp name="--.HHZ">
      <acc value="0.0356712763" flag="0"/>
      <vel value="0.0216682776" flag="0"/>
      <psa03 value="0.0723269654" flag="0"/>
      <psa10 value="0.0170555487" flag="0"/>
      <psa30 value="0.0011689907" flag="0"/>
    </comp>
  </station>
  <station code="ECTS" name="ECTS" netid="IV" insttype="" commtype="DIG" lat="37.882" lon="15.121">
    <comp name="--.HHE">
      <acc value="0.0142856812" flag="0"/>
      <vel value="0.0044468321" flag="0"/>
      <psa03 value="0.0312235343" flag="0"/>
      <psa10 value="0.0026112436" flag="0"/>
      <psa30 value="0.0001533941" flag="0"/>
    </comp>
    <comp name="--.HHN">
      <acc value="0.0141436843" flag="0"/>
      <vel value="0.0061519511" flag="0"/>
      <psa03 value="0.0374050627" flag="0"/>
      <psa10 value="0.0044889394" flag="0"/>
      <psa30 value="0.0002584730" flag="0"/>
    </comp>
    <comp name="--.HHZ">
      <acc value="0.0313239472" flag="0"/>
      <vel value="0.0132263610" flag="0"/>
      <psa03 value="0.0492642722" flag="0"/>
      <psa10 value="0.0062852216" flag="0"/>
      <psa30 value="0.0004529941" flag="0"/>
    </comp>
  </station>
  <station code="ECZM" name="ECZM" netid="IV" insttype="" commtype="DIG" lat="37.7313" lon="14.9041">
    <comp name="--.HHE">
      <acc value="0.0178550262" flag="0"/>
      <vel value="0.0085863661" flag="0"/>
      <psa03 value="0.0720091478" flag="0"/>
      <psa10 value="0.0054853301" flag="0"/>
      <psa30 value="0.0004415214" flag="0"/>
    </comp>
    <comp name="--.HHN">
      <acc value="0.0246375091" flag="0"/>
      <vel value="0.0137081188" flag="0"/>
      <psa03 value="0.0920961968" flag="0"/>
      <psa10 value="0.0115528412" flag="0"/>
      <psa30 value="0.0005412404" flag="0"/>
    </comp>
    <comp name="--.HHZ">
      <acc value="0.0312166634" flag="0"/>
      <vel value="0.0175690056" flag="0"/>
      <psa03 value="0.0627431250" flag="0"/>
      <psa10 value="0.0126815082" flag="0"/>
      <psa30 value="0.0009663610" flag="0"/>
    </comp>
  </station>
  <station code="EFIU" name="EFIU" netid="IV" insttype="" commtype="DIG" lat="37.7896" lon="15.2103">
    <comp name="--.HHE">
      <acc value="0.0066450174" flag="0"/>
      <vel value="0.0027755308" flag="0"/>
      <psa03 value="0.0106996098" flag="0"/>
      <psa10 value="0.0047688586" flag="0"/>
      <psa30 value="0.0004909319" flag="0"/>
    </comp>
    <comp name="--.HHN">
      <acc value="0.0123039032" flag="0"/>
      <vel value="0.0031041703" flag="0"/>
      <psa03 value="0.0121299484" flag="0"/>
      <psa10 value="0.0037217601" flag="0"/>
      <psa30 value="0.0005000944" flag="0"/>
    </comp>
    <comp name="--.HHZ">
      <acc value="0.0238546288" flag="0"/>
      <vel value="0.0072746403" flag="0"/>
      <psa03 value="0.0342363127" flag="0"/>
      <psa10 value="0.0037839400" flag="0"/>
      <psa30 value="0.0004274176" flag="0"/>
    </comp>
  </station>
  <station code="EMCN" name="EMCN" netid="IV" insttype="" commtype="DIG" lat="37.7912" lon="15.0336">
    <comp name="--.HHN">
      <acc value="0.0338992011" flag="0"/>
      <vel value="0.0110127215" flag="0"/>
      <psa03 value="0.0858983901" flag="0"/>
      <psa10 value="0.0084494538" flag="0"/>
      <psa30 value="0.0009440894" flag="0"/>
    </comp>
    <comp name="--.HHE">
      <acc value="0.0403884540" flag="0"/>
      <vel value="0.0135041191" flag="0"/>
      <psa03 value="0.1045151990" flag="0"/>
      <psa10 value="0.0069287811" flag="0"/>
      <psa30 value="0.0006530036" flag="0"/>
    </comp>
    <comp name="--.HHZ">
      <acc value="0.0360680391" flag="0"/>
      <vel value="0.0112742224" flag="0"/>
      <psa03 value="0.0785535434" flag="0"/>
      <psa10 value="0.0075979146" flag="0"/>
      <psa30 value="0.0006476384" flag="0"/>
    </comp>
  </station>
  <station code="EMCO" name="EMCO" netid="IV" insttype="" commtype="DIG" lat="37.9264" lon="14.9029">
    <comp name="--.HHE">
      <acc value="0.0140469164" flag="0"/>
      <vel value="0.0046161908" flag="0"/>
      <psa03 value="0.0279464934" flag="0"/>
      <psa10 value="0.0030751540" flag="0"/>
      <psa30 value="0.0002139182" flag="0"/>
    </comp>
    <comp name="--.HHN">
      <acc value="0.0113773203" flag="0"/>
      <vel value="0.0041140799" flag="0"/>
      <psa03 value="0.0251236454" flag="0"/>
      <psa10 value="0.0035406966" flag="0"/>
      <psa30 value="0.0002903425" flag="0"/>
    </comp>
    <comp name="--.HHZ">
      <acc value="0.0250324128" flag="0"/>
      <vel value="0.0062551702" flag="0"/>
      <psa03 value="0.0193970383" flag="0"/>
      <psa10 value="0.0015818680" flag="0"/>
      <psa30 value="0.0003368455" flag="0"/>
    </comp>
  </station>
  <station code="EMFO" name="EMFO" netid="IV" insttype="" commtype="DIG" lat="37.7357" lon="15.0902">
    <comp name="--.HHE">
      <acc value="0.0357962992" flag="0"/>
      <vel value="0.0170989202" flag="0"/>
      <psa03 value="0.0997094156" flag="0"/>
      <psa10 value="0.0054694639" flag="0"/>
      <psa30 value="0.0007036968" flag="0"/>
    </comp>
    <comp name="--.HHZ">
      <acc value="0.0567106924" flag="0"/>
      <vel value="0.0281243649" flag="0"/>
      <psa03 value="0.1389594594" flag="0"/>
      <psa10 value="0.0111604798" flag="0"/>
      <psa30 value="0.0008945356" flag="0"/>
    </comp>
  </station>
  <station code="EMFS" name="EMFS" netid="IV" insttype="" commtype="DIG" lat="37.7196" lon="14.9979">
    <comp name="--.HHE">
      <acc value="0.0274166138" flag="0"/>
      <vel value="0.0100431305" flag="0"/>
      <psa03 value="0.0891791610" flag="0"/>
      <psa10 value="0.0092156747" flag="0"/>
      <psa30 value="0.0005773440" flag="0"/>
    </comp>
    <comp name="--.HHZ">
      <acc value="0.0338238475" flag="0"/>
      <vel value="0.0156012028" flag="0"/>
      <psa03 value="0.1112325756" flag="0"/>
      <psa10 value="0.0065413837" flag="0"/>
      <psa30 value="0.0004882121" flag="0"/>
    </comp>
    <comp name="--.HHN">
      <acc value="0.0376600027" flag="0"/>
      <vel value="0.0117272961" flag="0"/>
      <psa03 value="0.0948264088" flag="0"/>
      <psa10 value="0.0104330638" flag="0"/>
      <psa30 value="0.0004717029" flag="0"/>
    </comp>
  </station>
  <station code="EMNR" name="EMNR" netid="IV" insttype="" commtype="DIG" lat="37.8168" lon="15.026">
    <comp name="--.HHE">
      <acc value="0.0384491130" flag="0"/>
      <vel value="0.0135040339" flag="0"/>
      <psa03 value="0.0746080860" flag="0"/>
      <psa10 value="0.0090764507" flag="0"/>
      <psa30 value="0.0007678553" flag="0"/>
    </comp>
    <comp name="--.HHN">
      <acc value="0.0378531604" flag="0"/>
      <vel value="0.0113123151" flag="0"/>
      <psa03 value="0.0924793778" flag="0"/>
      <psa10 value="0.0135433316" flag="0"/>
      <psa30 value="0.0007038739" flag="0"/>
    </comp>
    <comp name="--.HHZ">
      <acc value="0.0586990172" flag="0"/>
      <vel value="0.0204249910" flag="0"/>
      <psa03 value="0.0836476689" flag="0"/>
      <psa10 value="0.0093690562" flag="0"/>
      <psa30 value="0.0007758979" flag="0"/>
    </comp>
  </station>
  <station code="EMPL" name="EMPL" netid="IV" insttype="" commtype="DIG" lat="37.679" lon="14.9703">
    <comp name="--.HHE">
      <acc value="0.0342733143" flag="0"/>
      <vel value="0.0107010359" flag="0"/>
      <psa03 value="0.0883728364" flag="0"/>
      <psa10 value="0.0088166651" flag="0"/>
      <psa30 value="0.0004768532" flag="0"/>
    </comp>
    <comp name="--.HHN">
      <acc value="0.0368260792" flag="0"/>
      <vel value="0.0157308861" flag="0"/>
      <psa03 value="0.0964024037" flag="0"/>
      <psa10 value="0.0073548372" flag="0"/>
      <psa30 value="0.0004695505" flag="0"/>
    </comp>
    <comp name="--.HHZ">
      <acc value="0.0332513190" flag="0"/>
      <vel value="0.0106742269" flag="0"/>
      <psa03 value="0.0684161249" flag="0"/>
      <psa10 value="0.0045830911" flag="0"/>
      <psa30 value="0.0002766488" flag="0"/>
    </comp>
  </station>
  <station code="EMSG" name="EMSG" netid="IV" insttype="" commtype="DIG" lat="37.8208" lon="14.9498">
    <comp name="--.HHN">
      <acc value="0.0277633635" flag="0"/>
      <vel value="0.0106495045" flag="0"/>
      <psa03 value="0.0573826423" flag="0"/>
      <psa10 value="0.0067223465" flag="0"/>
      <psa30 value="0.0003389758" flag="0"/>
    </comp>
    <comp name="--.HHE">
      <acc value="0.0307027688" flag="0"/>
      <vel value="0.0077720683" flag="0"/>
      <psa03 value="0.0512369940" flag="0"/>
      <psa10 value="0.0099669417" flag="0"/>
      <psa30 value="0.0004647073" flag="0"/>
    </comp>
    <comp name="--.HHZ">
      <acc value="0.0339587417" flag="0"/>
      <vel value="0.0148852428" flag="0"/>
      <psa03 value="0.1027320779" flag="0"/>
      <psa10 value="0.0092753786" flag="0"/>
      <psa30 value="0.0006147522" flag="0"/>
    </comp>
  </station>
  <station code="ENIC" name="ENIC" netid="IV" insttype="" commtype="DIG" lat="37.6314" lon="15.0216">
    <comp name="--.HHE">
      <acc value="0.0388526120" flag="0"/>
      <vel value="0.0107776006" flag="0"/>
      <psa03 value="0.0670529669" flag="0"/>
      <psa10 value="0.0062300302" flag="0"/>
      <psa30 value="0.0003555055" flag="0"/>
    </comp>
    <comp name="--.HHZ">
      <acc value="0.0201388624" flag="0"/>
      <vel value="0.0062202977" flag="0"/>
      <psa03 value="0.0514623078" flag="0"/>
      <psa10 value="0.0059972706" flag="0"/>
      <psa30 value="0.0003223936" flag="0"/>
    </comp>
    <comp name="--.HHN">
      <acc value="0.0414972859" flag="0"/>
      <vel value="0.0113036680" flag="0"/>
      <psa03 value="0.0673972681" flag="0"/>
      <psa10 value="0.0092876337" flag="0"/>
      <psa30 value="0.0004411883" flag="0"/>
    </comp>
  </station>
  <station code="EPDN" name="EPDN" netid="IV" insttype="" commtype="DIG" lat="37.7659" lon="15.0168">
    <comp name="--.HHE">
      <acc value="0.0272245667" flag="0"/>
      <vel value="0.0178022101" flag="0"/>
      <psa03 value="0.0814231301" flag="0"/>
      <psa10 value="0.0206531649" flag="0"/>
      <psa30 value="0.0011508518" flag="0"/>
    </comp>
    <comp name="--.HHN">
      <acc value="0.0238313397" flag="0"/>
      <vel value="0.0130499076" flag="0"/>
      <psa03 value="0.1308625691" flag="0"/>
      <psa10 value="0.0153833575" flag="0"/>
      <psa30 value="0.0009925894" flag="0"/>
    </comp>
    <comp name="--.HHZ">
      <acc value="0.0268346973" flag="0"/>
      <vel value="0.0105680093" flag="0"/>
      <psa03 value="0.0765829028" flag="0"/>
      <psa10 value="0.0056682353" flag="0"/>
      <psa30 value="0.0004125935" flag="0"/>
    </comp>
  </station>
  <station code="EPMN" name="EPMN" netid="IV" insttype="" commtype="DIG" lat="37.8204" lon="15.1773">
    <comp name="--.HHN">
      <acc value="0.0000000000" flag="0"/>
      <vel value="-100.0000000000" flag="0"/>
      <psa03 value="0.0000000000" flag="0"/>
      <psa10 value="0.0000000000" flag="0"/>
      <psa30 value="0.0000000000" flag="0"/>
    </comp>
    <comp name="--.HHZ">
      <acc value="0.0292347512" flag="0"/>
      <vel value="0.0091201704" flag="0"/>
      <psa03 value="0.0444805483" flag="0"/>
      <psa10 value="0.0033489351" flag="0"/>
      <psa30 value="0.0003553181" flag="0"/>
    </comp>
    <comp name="--.HHE">
      <acc value="0.0209577450" flag="0"/>
      <vel value="0.0077685374" flag="0"/>
      <psa03 value="0.0387834135" flag="0"/>
      <psa10 value="0.0020978780" flag="0"/>
      <psa30 value="0.0001868803" flag="0"/>
    </comp>
  </station>
  <station code="EPOZ" name="EPOZ" netid="IV" insttype="" commtype="DIG" lat="37.6719" lon="15.1885">
    <comp name="--.HHE">
      <acc value="0.0220738844" flag="0"/>
      <vel value="0.0053916200" flag="0"/>
      <psa03 value="0.0248291600" flag="0"/>
      <psa10 value="0.0056518821" flag="0"/>
      <psa30 value="0.0005847725" flag="0"/>
    </comp>
    <comp name="--.HHN">
      <acc value="0.0327378890" flag="0"/>
      <vel value="0.0062714947" flag="0"/>
      <psa03 value="0.0247724787" flag="0"/>
      <psa10 value="0.0053293057" flag="0"/>
      <psa30 value="0.0004251725" flag="0"/>
    </comp>
    <comp name="--.HHZ">
      <acc value="0.0255060281" flag="0"/>
      <vel value="0.0068336160" flag="0"/>
      <psa03 value="0.0277343996" flag="0"/>
      <psa10 value="0.0027864601" flag="0"/>
      <psa30 value="0.0003302196" flag="0"/>
    </comp>
  </station>
  <station code="EPZF" name="EPZF" netid="IV" insttype="" commtype="DIG" lat="37.824" lon="14.857">
    <comp name="--.HHE">
      <acc value="0.0114208503" flag="0"/>
      <vel value="0.0075282861" flag="0"/>
      <psa03 value="0.0346754329" flag="0"/>
      <psa10 value="0.0039501698" flag="0"/>
      <psa30 value="0.0003611087" flag="0"/>
    </comp>
    <comp name="--.HHN">
      <acc value="0.0170053725" flag="0"/>
      <vel value="0.0091727899" flag="0"/>
      <psa03 value="0.0488469993" flag="0"/>
      <psa10 value="0.0061284168" flag="0"/>
      <psa30 value="0.0003336251" flag="0"/>
    </comp>
    <comp name="--.HHZ">
      <acc value="0.0213720819" flag="0"/>
      <vel value="0.0094052042" flag="0"/>
      <psa03 value="0.0460296903" flag="0"/>
      <psa10 value="0.0078353640" flag="0"/>
      <psa30 value="0.0004999704" flag="0"/>
    </comp>
  </station>
  <station code="ESAL" name="ESAL" netid="IV" insttype="" commtype="DIG" lat="37.7551" lon="15.1345">
    <comp name="--.HHE">
      <acc value="0.0398134193" flag="0"/>
      <vel value="0.0130205587" flag="0"/>
      <psa03 value="0.1053728341" flag="0"/>
      <psa10 value="0.0136110243" flag="0"/>
      <psa30 value="0.0006691351" flag="0"/>
    </comp>
    <comp name="--.HHN">
      <acc value="0.0341120574" flag="0"/>
      <vel value="0.0148323991" flag="0"/>
      <psa03 value="0.0952338407" flag="0"/>
