<?xml version="1.0" encoding="UTF-8" standalone="yes"?>
<!DOCTYPE earthquake SYSTEM "stationlist.dtd">
<stationlist created="" xmlns="ch.ethz.sed.shakemap.usgs.xml">
  <station code="DYBB" name="DYBB" netid="KO" insttype="CMG-3T" lat="37.9532" lon="40.1393">
    <comp name="--.HHN">
      <acc value="0.0146967792" flag="0"/>
      <vel value="0.0065497245" flag="0"/>
      <psa03 value="0.0419088132" flag="0"/>
      <psa10 value="0.0150711532" flag="0"/>
      <psa30 value="0.0017930108" flag="0"/>
    </comp>
    <comp name="--.HHE">
      <acc value="0.0120746270" flag="0"/>
      <vel value="0.0050038153" flag="0"/>
      <psa03 value="0.0251066789" flag="0"/>
      <psa10 value="0.0073530847" flag="0"/>
      <psa30 value="0.0009569632" flag="0"/>
    </comp>
    <comp name="--.HHZ">
      <acc value="0.0102827885" flag="0"/>
      <vel value="0.0037384637" flag="0"/>
      <psa03 value="0.0112819868" flag="0"/>
      <psa10 value="0.0063832960" flag="0"/>
      <psa30 value="0.0007195002" flag="0"/>
    </comp>
  </station>
  <station code="SINE" name="SINE" netid="KO" insttype="CMG-6T" lat="39.1636" lon="39.3871">
    <comp name="--.HHE">
      <acc value="0.0054654239" flag="0"/>
      <vel value="0.0025411661" flag="0"/>
      <psa03 value="0.0107217845" flag="0"/>
      <psa10 value="0.0021275759" flag="0"/>
      <psa30 value="0.0001255954" flag="0"/>
    </comp>
    <comp name="--.HHN">
      <acc value="0.0051891590" flag="0"/>
      <vel value="0.0022242081" flag="0"/>
      <psa03 value="0.0125752217" flag="0"/>
      <psa10 value="0.0025617101" flag="0"/>
      <psa30 value="0.0000900613" flag="0"/>
    </comp>
    <comp name="--.HHZ">
      <acc value="0.0038564878" flag="0"/>
      <vel value="0.0023359109" flag="0"/>
      <psa03 value="0.0072016214" flag="0"/>
      <psa10 value="0.0025205880" flag="0"/>
      <psa30 value="0.0000885446" flag="0"/>
    </comp>
  </station>
</stationlist>
