<stationlist xmlns:esm="https://esm-db.eu/esmws/shakemap/1/" created="1783994215">
	<station code="ARG2" name="ARG2" netid="HI" source="ITSAK Strong Motion Network" insttype="" lat="38.1783" lon="20.4878" esm:processing="manual (Paolucci et al 2011)" esm:quality="best">
		<comp name="--.HNE" depth="0.0">
			<acc value="0.330608076048606" flag="0"/>
			<vel value="0.0533224952722126" flag="0"/>
			<psa03 value="0.185501188639355" flag="0"/>
			<psa10 value="0.0208870043156078" flag="0"/>
			<psa30 value="0.00185501188639355" flag="0"/>
		</comp>
		<comp name="--.HNN" depth="0.0">
			<acc value="0.393924214801431" flag="0"/>
			<vel value="0.0696409574030463" flag="0"/>
			<psa03 value="0.164696062561858" flag="0"/>
			<psa10 value="0.0327580065755677" flag="0"/>
			<psa30 value="0.00162637921057418" flag="0"/>
		</comp>
		<comp name="--.HNZ" depth="0.0">
			<acc value="0.268840481752894" flag="0"/>
			<vel value="0.0386088523447049" flag="0"/>
			<psa03 value="0.108634077669164" flag="0"/>
			<psa10 value="0.0152293522887273" flag="0"/>
			<psa30 value="0.001087235620824" flag="0"/>
		</comp>
	</station>
	<station code="KRI1" name="KRI1" netid="HI" source="ITSAK Strong Motion Network" insttype="" lat="37.6621" lon="20.8172" esm:processing="manual (Paolucci et al 2011)" esm:quality="best">
		<comp name="--.HNE" depth="0.0">
			<acc value="0.920871424764945" flag="0"/>
			<vel value="0.229133354295867" flag="0"/>
			<psa03 value="1.41501702650946" flag="0"/>
			<psa10 value="0.0801171848589421" flag="0"/>
			<psa30 value="0.0127009701927288" flag="0"/>
		</comp>
		<comp name="--.HNN" depth="0.0">
			<acc value="0.661980066848791" flag="0"/>
			<vel value="0.174791481517077" flag="0"/>
			<psa03 value="1.05748205342285" flag="0"/>
			<psa10 value="0.0936834693276683" flag="0"/>
			<psa30 value="0.0193881403938957" flag="0"/>
		</comp>
		<comp name="--.HNZ" depth="0.0">
			<acc value="0.404436295865518" flag="0"/>
			<vel value="0.0890490625164288" flag="0"/>
			<psa03 value="0.467466574747703" flag="0"/>
			<psa10 value="0.0479148764895734" flag="0"/>
			<psa30 value="0.0074093094159858" flag="0"/>
		</comp>
	</station>
	<station code="PYL1" name="PYL1" netid="HI" source="ITSAK Strong Motion Network" insttype="" lat="36.914188" lon="21.695161" esm:processing="manual (Paolucci et al 2011)" esm:quality="best">
		<comp name="--.HNE" depth="0.0">
			<acc value="0.0187242548943701" flag="0"/>
			<vel value="0.00828895027907187" flag="0"/>
			<psa03 value="0.0357937652946174" flag="0"/>
			<psa10 value="0.00653549412073095" flag="0"/>
			<psa30 value="0.00152705151188161" flag="0"/>
		</comp>
		<comp name="--.HNN" depth="0.0">
			<acc value="0.0168909040866302" flag="0"/>
			<vel value="0.00585787783172135" flag="0"/>
			<psa03 value="0.0183890469201097" flag="0"/>
			<psa10 value="0.00453417521869566" flag="0"/>
			<psa30 value="0.00122772614960538" flag="0"/>
		</comp>
		<comp name="--.HNZ" depth="0.0">
			<acc value="0.0096255154478539" flag="0"/>
			<vel value="0.00365620258304665" flag="0"/>
			<psa03 value="0.0114540048942776" flag="0"/>
			<psa10 value="0.00390196783917948" flag="0"/>
			<psa30 value="0.00111273867859642" flag="0"/>
		</comp>
	</station>
	<station code="ARTB" name="ARTB" netid="HL" source="National Observatory of Athens Seismic Network" insttype="" lat="39.15702" lon="20.9785" esm:processing="manual (Paolucci et al 2011)" esm:quality="bad">
		<comp name="00.HNE" depth="0.0">
			<acc value="0.0109795417768872" flag="0"/>
			<vel value="0.00468750572659677" flag="0"/>
			<psa03 value="0.0309021434694986" flag="0"/>
			<psa10 value="0.00473398641586707" flag="0"/>
			<psa30 value="0.000637649272385753" flag="0"/>
		</comp>
		<comp name="00.HNN" depth="0.0">
			<acc value="0.0101416809771887" flag="0"/>
			<vel value="0.00551033904780559" flag="0"/>
			<psa03 value="0.0295127701803709" flag="0"/>
			<psa10 value="0.00303669077523419" flag="0"/>
			<psa30 value="0.000489302726404695" flag="0"/>
		</comp>
		<comp name="00.HNZ" depth="0.0">
			<acc value="0.0219060453524435" flag="0"/>
			<vel value="0.00338239059910208" flag="0"/>
			<psa03 value="0.00680518388295275" flag="0"/>
			<psa10 value="0.00250810755606803" flag="0"/>
			<psa30 value="0.000573504346013704" flag="0"/>
		</comp>
	</station>
	<station code="DLFA" name="DLFA" netid="HL" source="National Observatory of Athens Seismic Network" insttype="" lat="38.47836" lon="22.49583" esm:processing="manual (Paolucci et al 2011)" esm:quality="bad">
		<comp name="00.HNE" depth="0.0">
			<acc value="0.00186024223649541" flag="0"/>
			<vel value="0.00248496788088216" flag="0"/>
			<psa03 value="0.00692540538870025" flag="0"/>
			<psa10 value="0.00552935832409186" flag="0"/>
			<psa30 value="0.000590631782705776" flag="0"/>
		</comp>
		<comp name="00.HNN" depth="0.0">
			<acc value="0.00184352144523278" flag="0"/>
			<vel value="0.00211597051531278" flag="0"/>
			<psa03 value="0.00836691819955042" flag="0"/>
			<psa10 value="0.00377329043072173" flag="0"/>
			<psa30 value="0.000475998615906752" flag="0"/>
		</comp>
		<comp name="00.HNZ" depth="0.0">
			<acc value="0.00183700327288293" flag="0"/>
			<vel value="0.00177717435405954" flag="0"/>
			<psa03 value="0.00341665016443083" flag="0"/>
			<psa10 value="0.00156195280764342" flag="0"/>
			<psa30 value="0.000671076434687722" flag="0"/>
		</comp>
	</station>
	<station code="ITM" name="ITM" netid="HL" source="National Observatory of Athens Seismic Network" insttype="" lat="37.17872" lon="21.92522" esm:processing="manual (Paolucci et al 2011)" esm:quality="best">
		<comp name="--.HNE" depth="0.0">
			<acc value="0.00910787620819488" flag="0"/>
			<vel value="0.00475160278947945" flag="0"/>
			<psa03 value="0.0110191479332081" flag="0"/>
			<psa10 value="0.00555640277189768" flag="0"/>
			<psa30 value="0.001268114943891" flag="0"/>
		</comp>
		<comp name="--.HNN" depth="0.0">
			<acc value="0.00999890028488399" flag="0"/>
			<vel value="0.00480089013199151" flag="0"/>
			<psa03 value="0.0188742242830791" flag="0"/>
			<psa10 value="0.00520753778631386" flag="0"/>
			<psa30 value="0.00137011149232718" flag="0"/>
		</comp>
		<comp name="--.HNZ" depth="0.0">
			<acc value="0.00538136520267344" flag="0"/>
			<vel value="0.0052736424193343" flag="0"/>
			<psa03 value="0.0106828561243032" flag="0"/>
			<psa10 value="0.00532132969946856" flag="0"/>
			<psa30 value="0.00155119609246365" flag="0"/>
		</comp>
	</station>
	<station code="LXRA" name="LXRA" netid="HL" source="National Observatory of Athens Seismic Network" insttype="" lat="38.20006" lon="20.43718" esm:processing="manual (Paolucci et al 2011)" esm:quality="best">
		<comp name="00.HNE" depth="0.0">
			<acc value="0.347484462071003" flag="0"/>
			<vel value="0.0573025966147379" flag="0"/>
			<psa03 value="0.19158612873944" flag="0"/>
			<psa10 value="0.0283245013217631" flag="0"/>
			<psa30 value="0.00475520171938992" flag="0"/>
		</comp>
		<comp name="00.HNN" depth="0.0">
			<acc value="0.375037652250535" flag="0"/>
			<vel value="0.0641889700117107" flag="0"/>
			<psa03 value="0.242010595598232" flag="0"/>
			<psa10 value="0.0662690244885208" flag="0"/>
			<psa30 value="0.00382008960106804" flag="0"/>
		</comp>
		<comp name="00.HNZ" depth="0.0">
			<acc value="0.34527118526102" flag="0"/>
			<vel value="0.049507528910426" flag="0"/>
			<psa03 value="0.109931601661094" flag="0"/>
			<psa10 value="0.0298989795726601" flag="0"/>
			<psa30 value="0.00221697633793537" flag="0"/>
		</comp>
	</station>
	<station code="PATC" name="PATC" netid="HL" source="National Observatory of Athens Seismic Network" insttype="" lat="38.26933" lon="21.76001" esm:processing="manual (Paolucci et al 2011)" esm:quality="best">
		<comp name="00.HNE" depth="0.0">
			<acc value="0.018775767529435" flag="0"/>
			<vel value="0.0132929334797813" flag="0"/>
			<psa03 value="0.0772472109986833" flag="0"/>
			<psa10 value="0.0201642251559696" flag="0"/>
			<psa30 value="0.00423431883617549" flag="0"/>
		</comp>
		<comp name="00.HNN" depth="0.0">
			<acc value="0.017698500386583" flag="0"/>
			<vel value="0.0141406149253902" flag="0"/>
			<psa03 value="0.0456872088452163" flag="0"/>
			<psa10 value="0.0239552406671304" flag="0"/>
			<psa30 value="0.00429423488865262" flag="0"/>
		</comp>
		<comp name="00.HNZ" depth="0.0">
			<acc value="0.0108000053298511" flag="0"/>
			<vel value="0.00660772439579141" flag="0"/>
			<psa03 value="0.0340797419906499" flag="0"/>
			<psa10 value="0.0115643579569703" flag="0"/>
			<psa30 value="0.0010795118248582" flag="0"/>
		</comp>
	</station>
	<station code="PATG" name="PATG" netid="HL" source="National Observatory of Athens Seismic Network" insttype="" lat="38.23865" lon="21.72657" esm:processing="manual (Paolucci et al 2011)" esm:quality="good">
		<comp name="00.HNE" depth="0.0">
			<acc value="0.0171265047692087" flag="0"/>
			<vel value="0.0186156672691134" flag="0"/>
			<psa03 value="0.055082424982212" flag="0"/>
			<psa10 value="0.0341108459261281" flag="0"/>
			<psa30 value="0.00413261793232132" flag="0"/>
		</comp>
		<comp name="00.HNN" depth="0.0">
			<acc value="0.0221733738338996" flag="0"/>
			<vel value="0.026096096977762" flag="0"/>
			<psa03 value="0.0698395536108254" flag="0"/>
			<psa10 value="0.028785191252648" flag="0"/>
			<psa30 value="0.00702353444135091" flag="0"/>
		</comp>
		<comp name="00.HNZ" depth="0.0">
			<acc value="0.0168123238245646" flag="0"/>
			<vel value="0.00971335320595463" flag="0"/>
			<psa03 value="0.0273195024912825" flag="0"/>
			<psa10 value="0.0164582221514593" flag="0"/>
			<psa30 value="0.00312471866394344" flag="0"/>
		</comp>
	</station>
	<station code="PRGA" name="PRGA" netid="HL" source="National Observatory of Athens Seismic Network" insttype="" lat="39.28557" lon="20.40157" esm:processing="manual (Paolucci et al 2011)" esm:quality="good">
		<comp name="00.HNE" depth="0.0">
			<acc value="0.0181902233082257" flag="0"/>
			<vel value="0.00869591128661424" flag="0"/>
			<psa03 value="0.0455126399888183" flag="0"/>
			<psa10 value="0.00945665833219447" flag="0"/>
			<psa30 value="0.000936340673808552" flag="0"/>
		</comp>
		<comp name="00.HNN" depth="0.0">
			<acc value="0.0138234651345996" flag="0"/>
			<vel value="0.00654783537615933" flag="0"/>
			<psa03 value="0.0440400684800867" flag="0"/>
			<psa10 value="0.00965592684524926" flag="0"/>
			<psa30 value="0.000968725631650434" flag="0"/>
		</comp>
		<comp name="00.HNZ" depth="0.0">
			<acc value="0.0105812309463812" flag="0"/>
			<vel value="0.00312037916237053" flag="0"/>
			<psa03 value="0.0088045481018723" flag="0"/>
			<psa10 value="0.0024754637529516" flag="0"/>
			<psa30 value="0.000974977712486983" flag="0"/>
		</comp>
	</station>
	<station code="RIOA" name="RIOA" netid="HL" source="National Observatory of Athens Seismic Network" insttype="" lat="38.29585" lon="21.79118" esm:processing="manual (Paolucci et al 2011)" esm:quality="bad">
		<comp name="00.HNE" depth="0.0">
			<acc value="0.0103071088293452" flag="0"/>
			<vel value="0.00751095581962694" flag="0"/>
			<psa03 value="0.0179609854000571" flag="0"/>
			<psa10 value="0.0128476920340435" flag="0"/>
			<psa30 value="0.00338161693219334" flag="0"/>
		</comp>
		<comp name="00.HNN" depth="0.0">
			<acc value="0.0141973882279594" flag="0"/>
			<vel value="0.00901032443975235" flag="0"/>
			<psa03 value="0.0210672263294991" flag="0"/>
			<psa10 value="0.0188181728616111" flag="0"/>
			<psa30 value="0.00301426030495058" flag="0"/>
		</comp>
		<comp name="00.HNZ" depth="0.0">
			<acc value="0.01476546631388" flag="0"/>
			<vel value="0.00473735669318392" flag="0"/>
			<psa03 value="0.0156677071795372" flag="0"/>
			<psa10 value="0.00752721598487085" flag="0"/>
			<psa30 value="0.00147329739039037" flag="0"/>
		</comp>
	</station>
	<station code="SMHA" name="SMHA" netid="HL" source="National Observatory of Athens Seismic Network" insttype="" lat="38.25123" lon="20.6477" esm:processing="manual (Paolucci et al 2011)" esm:quality="good">
		<comp name="00.HNE" depth="0.0">
			<acc value="0.454952671996764" flag="0"/>
			<vel value="0.0842963927812726" flag="0"/>
			<psa03 value="0.32655784118746" flag="0"/>
			<psa10 value="0.0581327697605734" flag="0"/>
			<psa30 value="0.00259127665936239" flag="0"/>
		</comp>
		<comp name="00.HNN" depth="0.0">
			<acc value="0.36985807675209" flag="0"/>
			<vel value="0.0879042368221367" flag="0"/>
			<psa03 value="0.417237431598596" flag="0"/>
			<psa10 value="0.0242281537462829" flag="0"/>
			<psa30 value="0.00162886123739515" flag="0"/>
		</comp>
		<comp name="00.HNZ" depth="0.0">
			<acc value="0.341286122909499" flag="0"/>
			<vel value="0.0497321384429231" flag="0"/>
			<psa03 value="0.1176689824928" flag="0"/>
			<psa10 value="0.0232190443977506" flag="0"/>
			<psa30 value="0.000859496364500399" flag="0"/>
		</comp>
	</station>
	<station code="ZARA" name="ZARA" netid="HL" source="National Observatory of Athens Seismic Network" insttype="" lat="37.4865" lon="21.6491" esm:processing="manual (Paolucci et al 2011)" esm:quality="best">
		<comp name="00.HNE" depth="0.0">
			<acc value="0.0347512357869474" flag="0"/>
			<vel value="0.0158504267643172" flag="0"/>
			<psa03 value="0.0595255526506748" flag="0"/>
			<psa10 value="0.0135672128237467" flag="0"/>
			<psa30 value="0.0026556005038322" flag="0"/>
		</comp>
		<comp name="00.HNN" depth="0.0">
			<acc value="0.0427640225997626" flag="0"/>
			<vel value="0.0167464098257339" flag="0"/>
			<psa03 value="0.0562345690143368" flag="0"/>
			<psa10 value="0.0137594683722453" flag="0"/>
			<psa30 value="0.00213733929657243" flag="0"/>
		</comp>
		<comp name="00.HNZ" depth="0.0">
			<acc value="0.0164032256828347" flag="0"/>
			<vel value="0.00867717126014656" flag="0"/>
			<psa03 value="0.0428103125356256" flag="0"/>
			<psa10 value="0.0103528317617869" flag="0"/>
			<psa30 value="0.00178304311785533" flag="0"/>
		</comp>
	</station>
	<station code="ANX" name="ANX" netid="HP" source="University of Patras, Seismological Laboratory (PSLNET)" insttype="" lat="38.5933" lon="21.9209" esm:processing="automatic (Paolucci et al 2011)" esm:quality="best">
		<comp name="--.HNE" depth="0.0">
			<acc value="0.00867897627713974" flag="0"/>
			<vel value="0.00745574937573138" flag="0"/>
			<psa03 value="0.0383759510725841" flag="0"/>
			<psa10 value="0.00682887237928792" flag="0"/>
			<psa30 value="0.00140513954193171" flag="0"/>
		</comp>
		<comp name="--.HNN" depth="0.0">
			<acc value="0.00898822984791894" flag="0"/>
			<vel value="0.00725575373503142" flag="0"/>
			<psa03 value="0.0228875760854317" flag="0"/>
			<psa10 value="0.00871326346095053" flag="0"/>
			<psa30 value="0.001611828859087" flag="0"/>
		</comp>
		<comp name="--.HNZ" depth="0.0">
			<acc value="0.00527362854043254" flag="0"/>
			<vel value="0.00374458283011228" flag="0"/>
			<psa03 value="0.0214355879712739" flag="0"/>
			<psa10 value="0.00459158432616417" flag="0"/>
			<psa30 value="0.000863059152601727" flag="0"/>
		</comp>
	</station>
	<station code="FSK" name="FSK" netid="HP" source="University of Patras, Seismological Laboratory (PSLNET)" insttype="" lat="38.4593" lon="20.5623" esm:processing="manual (Paolucci et al 2011)" esm:quality="good">
		<comp name="--.HNE" depth="0.0">
			<acc value="0.160894665779763" flag="0"/>
			<vel value="0.0317925241161042" flag="0"/>
			<psa03 value="0.066290625803622" flag="0"/>
			<psa10 value="0.0333448089299438" flag="0"/>
			<psa30 value="0.00212972316704101" flag="0"/>
		</comp>
		<comp name="--.HNN" depth="0.0">
			<acc value="0.0547460701317694" flag="0"/>
			<vel value="0.0210490278103021" flag="0"/>
			<psa03 value="0.0335953401097382" flag="0"/>
			<psa10 value="0.0277252341606947" flag="0"/>
			<psa30 value="0.00208154122522383" flag="0"/>
		</comp>
		<comp name="--.HNZ" depth="0.0">
			<acc value="0.0733986674173519" flag="0"/>
			<vel value="0.0136297405721722" flag="0"/>
			<psa03 value="0.0269077043783589" flag="0"/>
			<psa10 value="0.0101952819498933" flag="0"/>
			<psa30 value="0.000717175113498223" flag="0"/>
		</comp>
	</station>
	<station code="AGRP" name="AGRP" netid="CL" source="Corinth Riff Laboratory (CRLNET)" insttype="" lat="38.3959" lon="21.72277" esm:processing="discarded" esm:quality="bad">
		<comp name="00.HNE" depth="0.0">
			<acc value="0" flag="1"/>
			<vel value="0" flag="1"/>
			<psa03 value="0" flag="1"/>
			<psa10 value="0" flag="1"/>
			<psa30 value="0" flag="1"/>
		</comp>
		<comp name="00.HNN" depth="0.0">
			<acc value="0" flag="1"/>
			<vel value="0" flag="1"/>
			<psa03 value="0" flag="1"/>
			<psa10 value="0" flag="1"/>
			<psa30 value="0" flag="1"/>
		</comp>
		<comp name="00.HNZ" depth="0.0">
			<acc value="0" flag="1"/>
			<vel value="0" flag="1"/>
			<psa03 value="0" flag="1"/>
			<psa10 value="0" flag="1"/>
			<psa30 value="0" flag="1"/>
		</comp>
	</station>
	<station code="ARS1" name="ARS1" netid="HI" source="ITSAK Strong Motion Network" insttype="" lat="37.6349" lon="22.7293" esm:processing="discarded" esm:quality="bad">
		<comp name="--.HNE" depth="0.0">
			<acc value="0" flag="1"/>
			<vel value="0" flag="1"/>
			<psa03 value="0" flag="1"/>
			<psa10 value="0" flag="1"/>
			<psa30 value="0" flag="1"/>
		</comp>
		<comp name="--.HNN" depth="0.0">
			<acc value="0" flag="1"/>
			<vel value="0" flag="1"/>
			<psa03 value="0" flag="1"/>
			<psa10 value="0" flag="1"/>
			<psa30 value="0" flag="1"/>
		</comp>
		<comp name="--.HNZ" depth="0.0">
			<acc value="0" flag="1"/>
			<vel value="0" flag="1"/>
			<psa03 value="0" flag="1"/>
			<psa10 value="0" flag="1"/>
			<psa30 value="0" flag="1"/>
		</comp>
	</station>
	<station code="ART2" name="ART2" netid="HI" source="ITSAK Strong Motion Network" insttype="" lat="39.1474" lon="20.9937" esm:processing="discarded" esm:quality="bad">
		<comp name="--.HNE" depth="0.0">
			<acc value="0" flag="1"/>
			<vel value="0" flag="1"/>
			<psa03 value="0" flag="1"/>
			<psa10 value="0" flag="1"/>
			<psa30 value="0" flag="1"/>
		</comp>
		<comp name="--.HNN" depth="0.0">
			<acc value="0" flag="1"/>
			<vel value="0" flag="1"/>
			<psa03 value="0" flag="1"/>
			<psa10 value="0" flag="1"/>
			<psa30 value="0" flag="1"/>
		</comp>
		<comp name="--.HNZ" depth="0.0">
			<acc value="0" flag="1"/>
			<vel value="0" flag="1"/>
			<psa03 value="0" flag="1"/>
			<psa10 value="0" flag="1"/>
			<psa30 value="0" flag="1"/>
		</comp>
	</station>
	<station code="KLV1" name="KLV1" netid="HI" source="ITSAK Strong Motion Network" insttype="" lat="38.03256" lon="22.10797" esm:processing="discarded" esm:quality="bad">
		<comp name="--.HNE" depth="0.0">
			<acc value="0" flag="1"/>
			<vel value="0" flag="1"/>
			<psa03 value="0" flag="1"/>
			<psa10 value="0" flag="1"/>
			<psa30 value="0" flag="1"/>
		</comp>
		<comp name="--.HNN" depth="0.0">
			<acc value="0" flag="1"/>
			<vel value="0" flag="1"/>
			<psa03 value="0" flag="1"/>
			<psa10 value="0" flag="1"/>
			<psa30 value="0" flag="1"/>
		</comp>
		<comp name="--.HNZ" depth="0.0">
			<acc value="0" flag="1"/>
			<vel value="0" flag="1"/>
			<psa03 value="0" flag="1"/>
			<psa10 value="0" flag="1"/>
			<psa30 value="0" flag="1"/>
		</comp>
	</station>
	<station code="LAM2" name="LAM2" netid="HI" source="ITSAK Strong Motion Network" insttype="" lat="38.90203" lon="22.431301" esm:processing="discarded" esm:quality="bad">
		<comp name="--.HNE" depth="0.0">
			<acc value="0" flag="1"/>
			<vel value="0" flag="1"/>
			<psa03 value="0" flag="1"/>
			<psa10 value="0" flag="1"/>
			<psa30 value="0" flag="1"/>
		</comp>
		<comp name="--.HNN" depth="0.0">
			<acc value="0" flag="1"/>
			<vel value="0" flag="1"/>
			<psa03 value="0" flag="1"/>
			<psa10 value="0" flag="1"/>
			<psa30 value="0" flag="1"/>
		</comp>
		<comp name="--.HNZ" depth="0.0">
			<acc value="0" flag="1"/>
			<vel value="0" flag="1"/>
			<psa03 value="0" flag="1"/>
			<psa10 value="0" flag="1"/>
			<psa30 value="0" flag="1"/>
		</comp>
	</station>
