<?xml version="1.0" encoding="UTF-8" standalone="yes"?>
<!DOCTYPE earthquake SYSTEM "stationlist.dtd">
<stationlist created="" xmlns="ch.ethz.sed.shakemap.usgs.xml">
  <station code="KARP" name="KARP" netid="GE" insttype="STS-2/N" lat="35.5471" lon="27.1611">
    <comp name="--.HHE">
      <acc value="0.0476274541" flag="0"/>
      <vel value="0.0159311359" flag="0"/>
      <psa03 value="0.0800632554" flag="0"/>
      <psa10 value="0.0246342648" flag="0"/>
      <psa30 value="0.0010685116" flag="0"/>
    </comp>
    <comp name="--.HHZ">
      <acc value="0.0371677636" flag="0"/>
      <vel value="0.0196703031" flag="0"/>
      <psa03 value="0.0742057774" flag="0"/>
      <psa10 value="0.0170134702" flag="0"/>
      <psa30 value="0.0010014861" flag="0"/>
    </comp>
    <comp name="--.HHN">
      <acc value="0.0444106049" flag="0"/>
      <vel value="0.0334550255" flag="0"/>
      <psa03 value="0.0833669625" flag="0"/>
      <psa10 value="0.0490306014" flag="0"/>
      <psa30 value="0.0017350337" flag="0"/>
    </comp>
  </station>
  <station code="ARG" name="ARG" netid="HL" insttype="LE3D20_DR24" lat="36.2136" lon="28.1212">
    <comp name="--.HHE">
      <acc value="0.0418788818" flag="0"/>
      <vel value="0.0251084022" flag="0"/>
      <psa03 value="0.0886366230" flag="0"/>
      <psa10 value="0.0220086059" flag="0"/>
      <psa30 value="0.0035811628" flag="0"/>
    </comp>
    <comp name="--.HHZ">
      <acc value="0.0145402365" flag="0"/>
      <vel value="0.0075387214" flag="0"/>
      <psa03 value="0.0327275621" flag="0"/>
      <psa10 value="0.0191681429" flag="0"/>
      <psa30 value="0.0014112877" flag="0"/>
    </comp>
    <comp name="--.HHN">
      <acc value="0.0291751520" flag="0"/>
      <vel value="0.0120107791" flag="0"/>
      <psa03 value="0.0932677789" flag="0"/>
      <psa10 value="0.0097572919" flag="0"/>
      <psa30 value="0.0010623912" flag="0"/>
    </comp>
  </station>
  <station code="KARP" name="KARP" netid="HL" insttype="120" lat="35.5471" lon="27.1611">
    <comp name="--.HHN">
      <acc value="0.0413188605" flag="0"/>
      <vel value="0.0328537913" flag="0"/>
      <psa03 value="0.0815539419" flag="0"/>
      <psa10 value="0.0486199633" flag="0"/>
      <psa30 value="0.0017235029" flag="0"/>
    </comp>
    <comp name="--.HHE">
      <acc value="0.0445820481" flag="0"/>
      <vel value="0.0154811434" flag="0"/>
      <psa03 value="0.0777478562" flag="0"/>
      <psa10 value="0.0244751181" flag="0"/>
      <psa30 value="0.0010595973" flag="0"/>
    </comp>
    <comp name="--.HHZ">
      <acc value="0.0349115553" flag="0"/>
      <vel value="0.0193204440" flag="0"/>
      <psa03 value="0.0722693979" flag="0"/>
      <psa10 value="0.0169480313" flag="0"/>
      <psa30 value="0.0009901283" flag="0"/>
    </comp>
  </station>
  <station code="NISR" name="NISR" netid="HL" insttype="65535" lat="36.6106" lon="27.131">
    <comp name="--.HHE">
      <acc value="0.4012987501" flag="0"/>
      <vel value="0.0964807789" flag="0"/>
      <psa03 value="0.4006481790" flag="0"/>
      <psa10 value="0.0499957948" flag="0"/>
      <psa30 value="0.0036181962" flag="0"/>
    </comp>
    <comp name="--.HHN">
      <acc value="0.3282781784" flag="0"/>
      <vel value="0.0865143407" flag="0"/>
      <psa03 value="0.2332181832" flag="0"/>
      <psa10 value="0.0452849326" flag="0"/>
      <psa30 value="0.0237247837" flag="0"/>
    </comp>
    <comp name="--.HHZ">
      <acc value="0.1292825453" flag="0"/>
      <vel value="0.0400590385" flag="0"/>
      <psa03 value="0.1198502043" flag="0"/>
      <psa10 value="0.0244224418" flag="0"/>
      <psa30 value="0.0022461101" flag="0"/>
    </comp>
  </station>
</stationlist>
