<stationlist created="1778138274">
	<station code="KSS1" name="KSS1" netid="HI" source="ITSAK Strong Motion Network" insttype="" lat="35.4189" lon="26.9207">
		<comp name="--.HNE" depth="0.0">
			<acc value="0.0107535765893806" flag="0"/>
			<vel value="0.00462674752590662" flag="0"/>
			<psa03 value="0.0407821000514807" flag="0"/>
			<psa10 value="0.00327703200916245" flag="0"/>
			<psa30 value="0.000227147182802752" flag="0"/>
		</comp>
		<comp name="--.HNN" depth="0.0">
			<acc value="0.00958014275733535" flag="0"/>
			<vel value="0.00403406636671727" flag="0"/>
			<psa03 value="0.0261321868583174" flag="0"/>
			<psa10 value="0.00389636233363066" flag="0"/>
			<psa30 value="0.000252388542418959" flag="0"/>
		</comp>
		<comp name="--.HNZ" depth="0.0">
			<acc value="0.00725772046867607" flag="0"/>
			<vel value="0.00260275817040653" flag="0"/>
			<psa03 value="0.0110497046449628" flag="0"/>
			<psa10 value="0.00531908236310498" flag="0"/>
			<psa30 value="0.00025765113062303" flag="0"/>
		</comp>
	</station>
	<station code="NAX1" name="NAX1" netid="HI" source="ITSAK Strong Motion Network" insttype="" lat="37.101394" lon="25.374103">
		<comp name="--.HNE" depth="0.0">
			<acc value="0.00205870523454165" flag="0"/>
			<vel value="0.00171576732054514" flag="0"/>
			<psa03 value="0.00707240015241496" flag="0"/>
			<psa10 value="0.00273792160824559" flag="0"/>
			<psa30 value="0.000201394864859028" flag="0"/>
		</comp>
		<comp name="--.HNN" depth="0.0">
			<acc value="0.00364412018981873" flag="0"/>
			<vel value="0.00196788703142253" flag="0"/>
			<psa03 value="0.0119224395426825" flag="0"/>
			<psa10 value="0.00212471379873605" flag="0"/>
			<psa30 value="0.00025862911207589" flag="0"/>
		</comp>
		<comp name="--.HNZ" depth="0.0">
			<acc value="0.00203118736954561" flag="0"/>
			<vel value="0.00115319259879582" flag="0"/>
			<psa03 value="0.00629514488702187" flag="0"/>
			<psa10 value="0.00201824752711838" flag="0"/>
			<psa30 value="0.000191365645784968" flag="0"/>
		</comp>
	</station>
	<station code="SIT2" name="SIT2" netid="HI" source="ITSAK Strong Motion Network" insttype="" lat="35.2059" lon="26.107">
		<comp name="--.HNE" depth="0.0">
			<acc value="0.0193701092079384" flag="0"/>
			<vel value="0.014641162806407" flag="0"/>
			<psa03 value="0.047968656854588" flag="0"/>
			<psa10 value="0.0113174528506985" flag="0"/>
			<psa30 value="0.000516693968024975" flag="0"/>
		</comp>
		<comp name="--.HNN" depth="0.0">
			<acc value="0.0255535253360133" flag="0"/>
			<vel value="0.0207953430249142" flag="0"/>
			<psa03 value="0.0917857053523471" flag="0"/>
			<psa10 value="0.011763324575015" flag="0"/>
			<psa30 value="0.00067382890868932" flag="0"/>
		</comp>
		<comp name="--.HNZ" depth="0.0">
			<acc value="0.0189134687713588" flag="0"/>
			<vel value="0.00779715827873923" flag="0"/>
			<psa03 value="0.0438792713696946" flag="0"/>
			<psa10 value="0.00283921183385041" flag="0"/>
			<psa30 value="0.00030808639879546" flag="0"/>
		</comp>
	</station>
	<station code="AGNA" name="AGNA" netid="HL" source="National Observatory of Athens Seismic Network" insttype="" lat="35.1895" lon="25.71853">
		<comp name="00.HNE" depth="0.0">
			<acc value="0.00560667160214315" flag="0"/>
			<vel value="0.00285699830562149" flag="0"/>
			<psa03 value="0.011304228016308" flag="0"/>
			<psa10 value="0.00322267122052577" flag="0"/>
			<psa30 value="0.000368064226198804" flag="0"/>
		</comp>
		<comp name="00.HNN" depth="0.0">
			<acc value="0.00697693880924328" flag="0"/>
			<vel value="0.00694907134521128" flag="0"/>
			<psa03 value="0.0153721550485728" flag="0"/>
			<psa10 value="0.00853796278562977" flag="0"/>
			<psa30 value="0.00109461845059855" flag="0"/>
		</comp>
		<comp name="00.HNZ" depth="0.0">
			<acc value="0.0235479504921753" flag="0"/>
			<vel value="0.00233845188518786" flag="0"/>
			<psa03 value="0.00876024568787914" flag="0"/>
			<psa10 value="0.00231755743305438" flag="0"/>
			<psa30 value="0.000293852565248678" flag="0"/>
		</comp>
	</station>
	<station code="KARP" name="KARP" netid="HL" source="National Observatory of Athens Seismic Network" insttype="" lat="35.5471" lon="27.16106">
		<comp name="--.HNE" depth="0.0">
			<acc value="0.0379205828793139" flag="0"/>
			<vel value="0.0136582600005319" flag="0"/>
			<psa03 value="0.0573475906632293" flag="0"/>
			<psa10 value="0.0198261140077638" flag="0"/>
			<psa30 value="0.000779705610002523" flag="0"/>
		</comp>
		<comp name="--.HNN" depth="0.0">
			<acc value="0.0348086908824314" flag="0"/>
			<vel value="0.0276606851916641" flag="0"/>
			<psa03 value="0.0769902460592167" flag="0"/>
			<psa10 value="0.0433257726196803" flag="0"/>
			<psa30 value="0.0015250548815691" flag="0"/>
		</comp>
		<comp name="--.HNZ" depth="0.0">
			<acc value="0.0282366949993538" flag="0"/>
			<vel value="0.0158072027868419" flag="0"/>
			<psa03 value="0.0590120759270742" flag="0"/>
			<psa10 value="0.0134842976435343" flag="0"/>
			<psa30 value="0.000839020112214037" flag="0"/>
		</comp>
	</station>
	<station code="KLNA" name="KLNA" netid="HL" source="National Observatory of Athens Seismic Network" insttype="" lat="36.95708" lon="26.97274">
		<comp name="00.HNE" depth="0.0">
			<acc value="0.0339852172704756" flag="0"/>
			<vel value="0.0100461208998193" flag="0"/>
			<psa03 value="0.0750227719738794" flag="0"/>
			<psa10 value="0.00728278979284785" flag="0"/>
			<psa30 value="0.0010352676438984" flag="0"/>
		</comp>
		<comp name="00.HNN" depth="0.0">
			<acc value="0.0317438837252047" flag="0"/>
			<vel value="0.00992605931893913" flag="0"/>
			<psa03 value="0.0486659790904205" flag="0"/>
			<psa10 value="0.00627701863417716" flag="0"/>
			<psa30 value="0.000624451783532614" flag="0"/>
		</comp>
		<comp name="00.HNZ" depth="0.0">
			<acc value="0.0522592183342276" flag="0"/>
			<vel value="0.0105778752498669" flag="0"/>
			<psa03 value="0.0261641499131955" flag="0"/>
			<psa10 value="0.00309068591464851" flag="0"/>
			<psa30 value="0.000465957117370328" flag="0"/>
		</comp>
	</station>
	<station code="NISR" name="NISR" netid="HL" source="National Observatory of Athens Seismic Network" insttype="" lat="36.6106" lon="27.131">
		<comp name="--.HNE" depth="0.0">
			<acc value="0.343540943089714" flag="0"/>
			<vel value="0.0907060661775145" flag="0"/>
			<psa03 value="0.388340183964648" flag="0"/>
			<psa10 value="0.0488736238876665" flag="0"/>
			<psa30 value="0.00524392696775784" flag="0"/>
		</comp>
		<comp name="--.HNN" depth="0.0">
			<acc value="0.320587306830841" flag="0"/>
			<vel value="0.0778315484767756" flag="0"/>
			<psa03 value="0.232618847357189" flag="0"/>
			<psa10 value="0.0319494539945439" flag="0"/>
			<psa30 value="0.00417436028088392" flag="0"/>
		</comp>
		<comp name="--.HNZ" depth="0.0">
			<acc value="0.105026162865893" flag="0"/>
			<vel value="0.0378194444130964" flag="0"/>
			<psa03 value="0.113727127613997" flag="0"/>
			<psa10 value="0.0249513197774955" flag="0"/>
			<psa30 value="0.00243058851456081" flag="0"/>
		</comp>
	</station>
	<station code="RODB" name="RODB" netid="HL" source="National Observatory of Athens Seismic Network" insttype="" lat="36.4471" lon="28.22116">
		<comp name="00.HNE" depth="0.0">
			<acc value="0.0119833810257265" flag="0"/>
			<vel value="0.00850601782992099" flag="0"/>
			<psa03 value="0.0335354298909886" flag="0"/>
			<psa10 value="0.019344658988723" flag="0"/>
			<psa30 value="0.00235689717453532" flag="0"/>
		</comp>
		<comp name="00.HNN" depth="0.0">
			<acc value="0.0105274299692937" flag="0"/>
			<vel value="0.00995853145205558" flag="0"/>
			<psa03 value="0.0337048994508503" flag="0"/>
			<psa10 value="0.0167390913826595" flag="0"/>
			<psa30 value="0.00238304036472666" flag="0"/>
		</comp>
		<comp name="00.HNZ" depth="0.0">
			<acc value="0.0162510131541142" flag="0"/>
			<vel value="0.00484577424739658" flag="0"/>
			<psa03 value="0.0165848851255803" flag="0"/>
			<psa10 value="0.0105160650751819" flag="0"/>
			<psa30 value="0.000785062683634786" flag="0"/>
		</comp>
	</station>
	<station code="THRA" name="THRA" netid="HL" source="National Observatory of Athens Seismic Network" insttype="" lat="36.41502" lon="25.43244">
		<comp name="00.HNE" depth="0.0">
			<acc value="0.0345722461375839" flag="0"/>
			<vel value="0.0265676191350345" flag="0"/>
			<psa03 value="0.0872106418605342" flag="0"/>
			<psa10 value="0.0303202710691483" flag="0"/>
			<psa30 value="0.00249715771611083" flag="0"/>
		</comp>
		<comp name="00.HNN" depth="0.0">
			<acc value="0.0345849666097702" flag="0"/>
			<vel value="0.0236969160682911" flag="0"/>
			<psa03 value="0.0832328991875572" flag="0"/>
			<psa10 value="0.0252134283908949" flag="0"/>
			<psa30 value="0.00159561882691698" flag="0"/>
		</comp>
		<comp name="00.HNZ" depth="0.0">
			<acc value="0.0273894098061076" flag="0"/>
			<vel value="0.0120977511223058" flag="0"/>
			<psa03 value="0.075526607433825" flag="0"/>
			<psa10 value="0.0112830358832348" flag="0"/>
			<psa30 value="0.00114228848350548" flag="0"/>
		</comp>
	</station>
</stationlist>
