<?xml version="1.0" encoding="UTF-8" standalone="yes"?>
<!DOCTYPE earthquake SYSTEM "stationlist.dtd">
<stationlist created="" xmlns="ch.ethz.sed.shakemap.usgs.xml">
  <station code="KOSP" name="KOSP" netid="HC" insttype="60" lat="36.881" lon="27.281">
    <comp name="--.HHE">
      <acc value="0.0224360949" flag="0"/>
      <vel value="0.0159148627" flag="0"/>
      <psa03 value="0.0443112379" flag="0"/>
      <psa10 value="0.0105698095" flag="0"/>
      <psa30 value="0.0025663840" flag="0"/>
    </comp>
    <comp name="--.HHN">
      <acc value="0.0141676785" flag="0"/>
      <vel value="0.0094932978" flag="0"/>
      <psa03 value="0.0470586956" flag="0"/>
      <psa10 value="0.0170245324" flag="0"/>
      <psa30 value="0.0018135928" flag="0"/>
    </comp>
    <comp name="--.HHZ">
      <acc value="0.0107816966" flag="0"/>
      <vel value="0.0072357833" flag="0"/>
      <psa03 value="0.0302187402" flag="0"/>
      <psa10 value="0.0083422747" flag="0"/>
      <psa30 value="0.0011576096" flag="0"/>
    </comp>
  </station>
  <station code="ARG" name="ARG" netid="HL" insttype="LE3D20_DR24" lat="36.2136" lon="28.1212">
    <comp name="--.HHZ">
      <acc value="0.0130022227" flag="0"/>
      <vel value="0.0068440506" flag="0"/>
      <psa03 value="0.0299002350" flag="0"/>
      <psa10 value="0.0067061870" flag="0"/>
      <psa30 value="0.0005203296" flag="0"/>
    </comp>
    <comp name="--.HHE">
      <acc value="0.0234403917" flag="0"/>
      <vel value="0.0125438836" flag="0"/>
      <psa03 value="0.0705402357" flag="0"/>
      <psa10 value="0.0077537600" flag="0"/>
      <psa30 value="0.0009889452" flag="0"/>
    </comp>
    <comp name="--.HHN">
      <acc value="0.0222768475" flag="0"/>
      <vel value="0.0147955753" flag="0"/>
      <psa03 value="0.0882329437" flag="0"/>
      <psa10 value="0.0106875698" flag="0"/>
      <psa30 value="0.0008241854" flag="0"/>
    </comp>
  </station>
  <station code="APMY" name="APMY" netid="KO" insttype="CMG-6T" lat="37.4717" lon="29.3018">
    <comp name="--.HHE">
      <acc value="0.0124727895" flag="0"/>
      <vel value="0.0078751790" flag="0"/>
      <psa03 value="0.0343625200" flag="0"/>
      <psa10 value="0.0102522259" flag="0"/>
      <psa30 value="0.0007833641" flag="0"/>
    </comp>
    <comp name="--.HHN">
      <acc value="0.0151098043" flag="0"/>
      <vel value="0.0060574500" flag="0"/>
      <psa03 value="0.0414942944" flag="0"/>
      <psa10 value="0.0119640403" flag="0"/>
      <psa30 value="0.0005789029" flag="0"/>
    </comp>
    <comp name="--.HHZ">
      <acc value="0.0126148912" flag="0"/>
      <vel value="0.0110240808" flag="0"/>
      <psa03 value="0.0333869636" flag="0"/>
      <psa10 value="0.0166101409" flag="0"/>
      <psa30 value="0.0005294620" flag="0"/>
    </comp>
  </station>
  <station code="BODA" name="BODA" netid="KO" insttype="ACEBOX" lat="37.0348" lon="27.4304">
    <comp name="--.HNN">
      <acc value="0.0375474989" flag="0"/>
      <vel value="0.0224906316" flag="0"/>
      <psa03 value="0.1218008780" flag="0"/>
      <psa10 value="0.0115971109" flag="0"/>
      <psa30 value="0.0007291054" flag="0"/>
    </comp>
    <comp name="--.HNZ">
      <acc value="0.0193288930" flag="0"/>
      <vel value="0.0073244961" flag="0"/>
      <psa03 value="0.0330945080" flag="0"/>
      <psa10 value="0.0070452087" flag="0"/>
      <psa30 value="0.0003952099" flag="0"/>
    </comp>
    <comp name="--.HNE">
      <acc value="0.0612798756" flag="0"/>
      <vel value="0.0236218037" flag="0"/>
      <psa03 value="0.1844983043" flag="0"/>
      <psa10 value="0.0070535209" flag="0"/>
      <psa30 value="0.0005407879" flag="0"/>
    </comp>
  </station>
  <station code="BODT" name="BODT" netid="KO" insttype="CMG-3ESP" lat="37.0622" lon="27.3103">
    <comp name="--.HHE">
      <acc value="0.0236407907" flag="0"/>
      <vel value="0.0125495963" flag="0"/>
      <psa03 value="0.0617253820" flag="0"/>
      <psa10 value="0.0089025941" flag="0"/>
      <psa30 value="0.0009241172" flag="0"/>
    </comp>
    <comp name="--.HHZ">
      <acc value="0.0125071927" flag="0"/>
      <vel value="0.0076963830" flag="0"/>
      <psa03 value="0.0246827976" flag="0"/>
      <psa10 value="0.0095841451" flag="0"/>
      <psa30 value="0.0007662242" flag="0"/>
    </comp>
    <comp name="--.HHN">
      <acc value="0.0221450109" flag="0"/>
      <vel value="0.0138322263" flag="0"/>
      <psa03 value="0.0652310647" flag="0"/>
      <psa10 value="0.0190161811" flag="0"/>
      <psa30 value="0.0010107017" flag="0"/>
    </comp>
  </station>
  <station code="CAME" name="CAME" netid="KO" insttype="CMG-5T" lat="36.9435" lon="29.3023">
    <comp name="--.HNE">
      <acc value="0.0397092776" flag="0"/>
      <vel value="0.0143468884" flag="0"/>
      <psa03 value="0.0731491871" flag="0"/>
      <psa10 value="0.0054027591" flag="0"/>
      <psa30 value="0.0006066428" flag="0"/>
    </comp>
    <comp name="--.HNN">
      <acc value="0.0401721721" flag="0"/>
      <vel value="0.0145550002" flag="0"/>
      <psa03 value="0.0856521356" flag="0"/>
      <psa10 value="0.0055744622" flag="0"/>
      <psa30 value="0.0005098660" flag="0"/>
    </comp>
    <comp name="--.HNZ">
      <acc value="0.0171223618" flag="0"/>
      <vel value="0.0052660128" flag="0"/>
      <psa03 value="0.0336692296" flag="0"/>
      <psa10 value="0.0039496254" flag="0"/>
      <psa30 value="0.0005210740" flag="0"/>
    </comp>
  </station>
  <station code="DALY" name="DALY" netid="KO" insttype="CMG-3T" lat="36.8162" lon="28.6532">
    <comp name="--.HHE">
      <acc value="0.1732629775" flag="0"/>
      <vel value="0.0605787263" flag="0"/>
      <psa03 value="0.4736960502" flag="0"/>
      <psa10 value="0.0282780406" flag="0"/>
      <psa30 value="0.0014992223" flag="0"/>
    </comp>
  </station>
  <station code="DAT" name="DAT" netid="KO" insttype="CMG-3T" lat="36.7308" lon="27.5767">
    <comp name="--.HHE">
      <acc value="0.0241831439" flag="0"/>
      <vel value="0.0110952347" flag="0"/>
      <psa03 value="0.0589786451" flag="0"/>
      <psa10 value="0.0136891698" flag="0"/>
      <psa30 value="0.0007007922" flag="0"/>
    </comp>
    <comp name="--.HHZ">
      <acc value="0.0000307719" flag="0"/>
      <vel value="0.0000043524" flag="0"/>
      <psa03 value="0.0000128144" flag="0"/>
      <psa10 value="0.0000039090" flag="0"/>
      <psa30 value="0.0000007693" flag="0"/>
    </comp>
    <comp name="--.HHN">
      <acc value="0.0310838026" flag="0"/>
      <vel value="0.0136458188" flag="0"/>
      <psa03 value="0.0590487466" flag="0"/>
      <psa10 value="0.0090222620" flag="0"/>
      <psa30 value="0.0009317227" flag="0"/>
    </comp>
  </station>
  <station code="FETI" name="FETI" netid="KO" insttype="CMG-5T" lat="36.6903" lon="29.096">
    <comp name="--.HNE">
      <acc value="0.0430552185" flag="0"/>
      <vel value="0.0205550244" flag="0"/>
      <psa03 value="0.0963830582" flag="0"/>
      <psa10 value="0.0094745604" flag="0"/>
      <psa30 value="0.0007744254" flag="0"/>
    </comp>
    <comp name="--.HNN">
      <acc value="0.0053017789" flag="0"/>
      <vel value="0.0258065936" flag="0"/>
      <psa03 value="0.0056998737" flag="0"/>
      <psa10 value="0.0061766631" flag="0"/>
      <psa30 value="0.0081690969" flag="0"/>
    </comp>
    <comp name="--.HNZ">
      <acc value="0.0293134781" flag="0"/>
      <vel value="0.0155264282" flag="0"/>
      <psa03 value="0.0789470161" flag="0"/>
      <psa10 value="0.0175543350" flag="0"/>
      <psa30 value="0.0006851616" flag="0"/>
    </comp>
  </station>
  <station code="FETY" name="FETY" netid="KO" insttype="CMG-3ESP" lat="36.6353" lon="29.0835">
    <comp name="--.HHE">
      <acc value="0.0284818728" flag="0"/>
      <vel value="0.0139645811" flag="0"/>
      <psa03 value="0.0574996732" flag="0"/>
      <psa10 value="0.0062948058" flag="0"/>
      <psa30 value="0.0006229874" flag="0"/>
    </comp>
    <comp name="--.HHN">
      <acc value="0.0205539495" flag="0"/>
      <vel value="0.0102311513" flag="0"/>
      <psa03 value="0.0766581574" flag="0"/>
      <psa10 value="0.0107968251" flag="0"/>
      <psa30 value="0.0006835501" flag="0"/>
    </comp>
    <comp name="--.HHZ">
      <acc value="0.0220878246" flag="0"/>
      <vel value="0.0091053441" flag="0"/>
      <psa03 value="0.0401618511" flag="0"/>
      <psa10 value="0.0096799136" flag="0"/>
      <psa30 value="0.0004656166" flag="0"/>
    </comp>
  </station>
  <station code="MLSB" name="MLSB" netid="KO" insttype="CMG-3ESP" lat="37.2953" lon="27.7767">
    <comp name="--.HHE">
      <acc value="0.0106696342" flag="0"/>
      <vel value="0.0059447028" flag="0"/>
      <psa03 value="0.0333563734" flag="0"/>
      <psa10 value="0.0067722026" flag="0"/>
      <psa30 value="0.0004916196" flag="0"/>
    </comp>
    <comp name="--.HHZ">
      <acc value="0.0083617554" flag="0"/>
      <vel value="0.0040295127" flag="0"/>
      <psa03 value="0.0280948405" flag="0"/>
      <psa10 value="0.0033352247" flag="0"/>
      <psa30 value="0.0004146390" flag="0"/>
    </comp>
    <comp name="--.HHN">
      <acc value="0.0117288088" flag="0"/>
      <vel value="0.0073159113" flag="0"/>
      <psa03 value="0.0240105063" flag="0"/>
      <psa10 value="0.0082464094" flag="0"/>
      <psa30 value="0.0004815751" flag="0"/>
    </comp>
  </station>
  <station code="NAZL" name="NAZL" netid="KO" insttype="CMG-5T" lat="37.9641" lon="28.2922">
    <comp name="--.HNE">
      <acc value="0.0243411154" flag="0"/>
      <vel value="0.0137529825" flag="0"/>
      <psa03 value="0.0912558271" flag="0"/>
      <psa10 value="0.0140812888" flag="0"/>
      <psa30 value="0.0008836361" flag="0"/>
    </comp>
    <comp name="--.HNN">
      <acc value="0.0328309592" flag="0"/>
      <vel value="0.0173164074" flag="0"/>
      <psa03 value="0.1129701874" flag="0"/>
      <psa10 value="0.0126689448" flag="0"/>
      <psa30 value="0.0007147551" flag="0"/>
    </comp>
    <comp name="--.HNZ">
      <acc value="0.0168904144" flag="0"/>
      <vel value="0.0049968835" flag="0"/>
      <psa03 value="0.0329519252" flag="0"/>
      <psa10 value="0.0046649097" flag="0"/>
      <psa30 value="0.0003383219" flag="0"/>
    </comp>
  </station>
  <station code="YER" name="YER" netid="KO" insttype="CMG-3T" lat="37.1336" lon="28.284">
    <comp name="--.HHN">
      <acc value="0.5413236643" flag="0"/>
      <vel value="0.1420797911" flag="0"/>
      <psa03 value="0.4869051196" flag="0"/>
      <psa10 value="0.0788166866" flag="0"/>
      <psa30 value="0.0040593020" flag="0"/>
    </comp>
    <comp name="--.HHZ">
      <acc value="0.4132163407" flag="0"/>
      <vel value="0.1110606992" flag="0"/>
      <psa03 value="0.6987865204" flag="0"/>
      <psa10 value="0.0592178898" flag="0"/>
      <psa30 value="0.0066957200" flag="0"/>
    </comp>
    <comp name="--.HHE">
      <acc value="0.6915251065" flag="0"/>
      <vel value="0.1851002515" flag="0"/>
      <psa03 value="1.1059013288" flag="0"/>
      <psa10 value="0.0591125124" flag="0"/>
      <psa30 value="0.0057623106" flag="0"/>
    </comp>
  </station>
  <station code="YKAV" name="YKAV" netid="KO" insttype="CMG-5T" lat="37.1246" lon="27.2801">
    <comp name="--.HNE">
      <acc value="0.0092467205" flag="0"/>
      <vel value="0.0067875200" flag="0"/>
      <psa03 value="0.0359427525" flag="0"/>
      <psa10 value="0.0055721982" flag="0"/>
      <psa30 value="0.0006755240" flag="0"/>
    </comp>
    <comp name="--.HNZ">
      <acc value="0.0108897256" flag="0"/>
      <vel value="0.0049238930" flag="0"/>
      <psa03 value="0.0181825360" flag="0"/>
      <psa10 value="0.0064264043" flag="0"/>
      <psa30 value="0.0006696224" flag="0"/>
    </comp>
    <comp name="--.HNN">
      <acc value="0.0117893721" flag="0"/>
      <vel value="0.0079705551" flag="0"/>
      <psa03 value="0.0461549825" flag="0"/>
      <psa10 value="0.0127118520" flag="0"/>
      <psa30 value="0.0005888332" flag="0"/>
    </comp>
  </station>
  <station code="AYDN" name="AYDN" netid="TU" insttype="T" lat="37.6608" lon="27.8792">
    <comp name="--.HHZ">
      <acc value="0.0367922868" flag="0"/>
      <vel value="0.0157447213" flag="0"/>
      <psa03 value="0.1174881115" flag="0"/>
      <psa10 value="0.0146168057" flag="0"/>
      <psa30 value="0.0010252708" flag="0"/>
    </comp>
    <comp name="--.HHN">
      <acc value="0.0525028214" flag="0"/>
      <vel value="0.0247862975" flag="0"/>
      <psa03 value="0.2100575962" flag="0"/>
      <psa10 value="0.0299137816" flag="0"/>
      <psa30 value="0.0013304074" flag="0"/>
    </comp>
    <comp name="--.HHE">
      <acc value="0.0671238475" flag="0"/>
      <vel value="0.0280827290" flag="0"/>
      <psa03 value="0.1937854317" flag="0"/>
      <psa10 value="0.0192555027" flag="0"/>
      <psa30 value="0.0018820508" flag="0"/>
    </comp>
  </station>
</stationlist>
