<?xml version="1.0" encoding="UTF-8" standalone="yes"?>
<!DOCTYPE earthquake SYSTEM "stationlist.dtd">
<stationlist created="" xmlns="ch.ethz.sed.shakemap.usgs.xml">
  <station code="KOSP" name="KOSP" netid="HC" insttype="60" lat="36.881" lon="27.281">
    <comp name="--.HHE">
      <acc value="0.0224360949" flag="0"/>
      <vel value="0.0159148625" flag="0"/>
      <psa03 value="0.0443112379" flag="0"/>
      <psa10 value="0.0105698095" flag="0"/>
      <psa30 value="0.0025663848" flag="0"/>
    </comp>
    <comp name="--.HHZ">
      <acc value="0.0107816966" flag="0"/>
      <vel value="0.0072357838" flag="0"/>
      <psa03 value="0.0302187402" flag="0"/>
      <psa10 value="0.0083422747" flag="0"/>
      <psa30 value="0.0011575919" flag="0"/>
    </comp>
    <comp name="--.HHN">
      <acc value="0.0141676786" flag="0"/>
      <vel value="0.0094932993" flag="0"/>
      <psa03 value="0.0470586956" flag="0"/>
      <psa10 value="0.0170245324" flag="0"/>
      <psa30 value="0.0018135955" flag="0"/>
    </comp>
  </station>
  <station code="ARG" name="ARG" netid="HL" insttype="LE3D20_DR24" lat="36.2136" lon="28.1212">
    <comp name="--.HHE">
      <acc value="0.0234403911" flag="0"/>
      <vel value="0.0125438843" flag="0"/>
      <psa03 value="0.0705402357" flag="0"/>
      <psa10 value="0.0077537600" flag="0"/>
      <psa30 value="0.0009889668" flag="0"/>
    </comp>
    <comp name="--.HHN">
      <acc value="0.0222768473" flag="0"/>
      <vel value="0.0147955734" flag="0"/>
      <psa03 value="0.0882329437" flag="0"/>
      <psa10 value="0.0106875698" flag="0"/>
      <psa30 value="0.0008241842" flag="0"/>
    </comp>
    <comp name="--.HHZ">
      <acc value="0.0130022227" flag="0"/>
      <vel value="0.0068440511" flag="0"/>
      <psa03 value="0.0299002350" flag="0"/>
      <psa10 value="0.0067061870" flag="0"/>
      <psa30 value="0.0005203332" flag="0"/>
    </comp>
  </station>
  <station code="APMY" name="APMY" netid="KO" insttype="CMG-6T" lat="37.4717" lon="29.3018">
    <comp name="--.HHE">
      <acc value="0.0124727874" flag="0"/>
      <vel value="0.0078751810" flag="0"/>
      <psa03 value="0.0343625200" flag="0"/>
      <psa10 value="0.0102522259" flag="0"/>
      <psa30 value="0.0007833785" flag="0"/>
    </comp>
    <comp name="--.HHN">
      <acc value="0.0151098034" flag="0"/>
      <vel value="0.0060574502" flag="0"/>
      <psa03 value="0.0414942944" flag="0"/>
      <psa10 value="0.0119640402" flag="0"/>
      <psa30 value="0.0005789117" flag="0"/>
    </comp>
    <comp name="--.HHZ">
      <acc value="0.0126148918" flag="0"/>
      <vel value="0.0110240807" flag="0"/>
      <psa03 value="0.0333869636" flag="0"/>
      <psa10 value="0.0166101409" flag="0"/>
      <psa30 value="0.0005294612" flag="0"/>
    </comp>
  </station>
  <station code="BODA" name="BODA" netid="KO" insttype="ACEBOX" lat="37.0348" lon="27.4304">
    <comp name="--.HNZ">
      <acc value="0.0193288934" flag="0"/>
      <vel value="0.0073244954" flag="0"/>
      <psa03 value="0.0330945080" flag="0"/>
      <psa10 value="0.0070452087" flag="0"/>
      <psa30 value="0.0003952731" flag="0"/>
    </comp>
    <comp name="--.HNN">
      <acc value="0.0375474984" flag="0"/>
      <vel value="0.0224906290" flag="0"/>
      <psa03 value="0.1218008780" flag="0"/>
      <psa10 value="0.0115971107" flag="0"/>
      <psa30 value="0.0007289579" flag="0"/>
    </comp>
    <comp name="--.HNE">
      <acc value="0.0612798756" flag="0"/>
      <vel value="0.0236218047" flag="0"/>
      <psa03 value="0.1844983043" flag="0"/>
      <psa10 value="0.0070535211" flag="0"/>
      <psa30 value="0.0005406035" flag="0"/>
    </comp>
  </station>
  <station code="BODT" name="BODT" netid="KO" insttype="CMG-3ESP" lat="37.0622" lon="27.3103">
    <comp name="--.HHE">
      <acc value="0.0236407907" flag="0"/>
      <vel value="0.0125495955" flag="0"/>
      <psa03 value="0.0617253820" flag="0"/>
      <psa10 value="0.0089025941" flag="0"/>
      <psa30 value="0.0009241190" flag="0"/>
    </comp>
    <comp name="--.HHN">
      <acc value="0.0221450110" flag="0"/>
      <vel value="0.0138322260" flag="0"/>
      <psa03 value="0.0652310647" flag="0"/>
      <psa10 value="0.0190161811" flag="0"/>
      <psa30 value="0.0010107014" flag="0"/>
    </comp>
    <comp name="--.HHZ">
      <acc value="0.0125071926" flag="0"/>
      <vel value="0.0076963822" flag="0"/>
      <psa03 value="0.0246827976" flag="0"/>
      <psa10 value="0.0095841451" flag="0"/>
      <psa30 value="0.0007662275" flag="0"/>
    </comp>
  </station>
  <station code="CAME" name="CAME" netid="KO" insttype="CMG-5T" lat="36.9435" lon="29.3023">
    <comp name="--.HNN">
      <acc value="0.0401721755" flag="0"/>
      <vel value="0.0145550020" flag="0"/>
      <psa03 value="0.0856521356" flag="0"/>
      <psa10 value="0.0055744624" flag="0"/>
      <psa30 value="0.0005100071" flag="0"/>
    </comp>
    <comp name="--.HNZ">
      <acc value="0.0171223615" flag="0"/>
      <vel value="0.0052660162" flag="0"/>
      <psa03 value="0.0336692296" flag="0"/>
      <psa10 value="0.0039496254" flag="0"/>
      <psa30 value="0.0005208674" flag="0"/>
    </comp>
    <comp name="--.HNE">
      <acc value="0.0397092778" flag="0"/>
      <vel value="0.0143468817" flag="0"/>
      <psa03 value="0.0731491871" flag="0"/>
      <psa10 value="0.0054027591" flag="0"/>
      <psa30 value="0.0006064244" flag="0"/>
    </comp>
  </station>
  <station code="DALY" name="DALY" netid="KO" insttype="CMG-3T" lat="36.8162" lon="28.6532">
    <comp name="--.HHE">
      <acc value="0.1732629775" flag="0"/>
      <vel value="0.0605787262" flag="0"/>
      <psa03 value="0.4736960502" flag="0"/>
      <psa10 value="0.0282780404" flag="0"/>
      <psa30 value="0.0014992617" flag="0"/>
    </comp>
  </station>
  <station code="DAT" name="DAT" netid="KO" insttype="CMG-3T" lat="36.7308" lon="27.5767">
    <comp name="--.HHE">
      <acc value="0.0241831442" flag="0"/>
      <vel value="0.0110952347" flag="0"/>
      <psa03 value="0.0589786451" flag="0"/>
      <psa10 value="0.0136891698" flag="0"/>
      <psa30 value="0.0007007893" flag="0"/>
    </comp>
    <comp name="--.HHN">
      <acc value="0.0310838026" flag="0"/>
      <vel value="0.0136458182" flag="0"/>
      <psa03 value="0.0590487466" flag="0"/>
      <psa10 value="0.0090222620" flag="0"/>
      <psa30 value="0.0009317112" flag="0"/>
    </comp>
    <comp name="--.HHZ">
      <acc value="0.0000307712" flag="0"/>
      <vel value="0.0000043525" flag="0"/>
      <psa03 value="0.0000128184" flag="0"/>
      <psa10 value="0.0000039091" flag="0"/>
      <psa30 value="0.0000007693" flag="0"/>
    </comp>
  </station>
  <station code="FETI" name="FETI" netid="KO" insttype="CMG-5T" lat="36.6903" lon="29.096">
    <comp name="--.HNE">
      <acc value="0.0430552128" flag="0"/>
      <vel value="0.0205550256" flag="0"/>
      <psa03 value="0.0963830582" flag="0"/>
      <psa10 value="0.0094745610" flag="0"/>
      <psa30 value="0.0007755415" flag="0"/>
    </comp>
    <comp name="--.HNN">
      <acc value="0.0054690767" flag="0"/>
      <vel value="0.0275805110" flag="0"/>
      <psa03 value="0.0052264064" flag="0"/>
      <psa10 value="0.0061277547" flag="0"/>
      <psa30 value="0.0082688050" flag="0"/>
    </comp>
    <comp name="--.HNZ">
      <acc value="0.0293135018" flag="0"/>
      <vel value="0.0155264193" flag="0"/>
      <psa03 value="0.0789470161" flag="0"/>
      <psa10 value="0.0175543326" flag="0"/>
      <psa30 value="0.0006865037" flag="0"/>
    </comp>
  </station>
  <station code="FETY" name="FETY" netid="KO" insttype="CMG-3ESP" lat="36.6353" lon="29.0835">
    <comp name="--.HHE">
      <acc value="0.0284818727" flag="0"/>
      <vel value="0.0139645809" flag="0"/>
      <psa03 value="0.0574996732" flag="0"/>
      <psa10 value="0.0062948058" flag="0"/>
      <psa30 value="0.0006230072" flag="0"/>
    </comp>
    <comp name="--.HHZ">
      <acc value="0.0220878246" flag="0"/>
      <vel value="0.0091053446" flag="0"/>
      <psa03 value="0.0401618512" flag="0"/>
      <psa10 value="0.0096799136" flag="0"/>
      <psa30 value="0.0004656152" flag="0"/>
    </comp>
    <comp name="--.HHN">
      <acc value="0.0205539495" flag="0"/>
      <vel value="0.0102311508" flag="0"/>
      <psa03 value="0.0766581574" flag="0"/>
      <psa10 value="0.0107968250" flag="0"/>
      <psa30 value="0.0006835475" flag="0"/>
    </comp>
  </station>
  <station code="MLSB" name="MLSB" netid="KO" insttype="CMG-3ESP" lat="37.2953" lon="27.7767">
    <comp name="--.HHN">
      <acc value="0.0117288089" flag="0"/>
      <vel value="0.0073159119" flag="0"/>
      <psa03 value="0.0240105063" flag="0"/>
      <psa10 value="0.0082464095" flag="0"/>
      <psa30 value="0.0004815660" flag="0"/>
    </comp>
    <comp name="--.HHZ">
      <acc value="0.0083617553" flag="0"/>
      <vel value="0.0040295120" flag="0"/>
      <psa03 value="0.0280948405" flag="0"/>
      <psa10 value="0.0033352246" flag="0"/>
      <psa30 value="0.0004146416" flag="0"/>
    </comp>
  </station>
  <station code="NAZL" name="NAZL" netid="KO" insttype="CMG-5T" lat="37.9641" lon="28.2922">
    <comp name="--.HNE">
      <acc value="0.0243411135" flag="0"/>
      <vel value="0.0137529848" flag="0"/>
      <psa03 value="0.0912558271" flag="0"/>
      <psa10 value="0.0140812887" flag="0"/>
      <psa30 value="0.0008836647" flag="0"/>
    </comp>
    <comp name="--.HNN">
      <acc value="0.0328309569" flag="0"/>
      <vel value="0.0173164124" flag="0"/>
      <psa03 value="0.1129701874" flag="0"/>
      <psa10 value="0.0126689447" flag="0"/>
      <psa30 value="0.0007145999" flag="0"/>
    </comp>
    <comp name="--.HNZ">
      <acc value="0.0168904146" flag="0"/>
      <vel value="0.0049968822" flag="0"/>
      <psa03 value="0.0329519252" flag="0"/>
      <psa10 value="0.0046649098" flag="0"/>
      <psa30 value="0.0003378841" flag="0"/>
    </comp>
  </station>
  <station code="YER" name="YER" netid="KO" insttype="CMG-3T" lat="37.1336" lon="28.284">
    <comp name="--.HHE">
      <acc value="0.6915251069" flag="0"/>
      <vel value="0.1851002516" flag="0"/>
      <psa03 value="1.1059013288" flag="0"/>
      <psa10 value="0.0591125113" flag="0"/>
      <psa30 value="0.0057622839" flag="0"/>
    </comp>
    <comp name="--.HHN">
      <acc value="0.5413236646" flag="0"/>
      <vel value="0.1420797910" flag="0"/>
      <psa03 value="0.4869051196" flag="0"/>
      <psa10 value="0.0788166872" flag="0"/>
      <psa30 value="0.0040593357" flag="0"/>
    </comp>
    <comp name="--.HHZ">
      <acc value="0.4132163409" flag="0"/>
      <vel value="0.1110606990" flag="0"/>
      <psa03 value="0.6987865204" flag="0"/>
      <psa10 value="0.0592178903" flag="0"/>
      <psa30 value="0.0066956267" flag="0"/>
    </comp>
  </station>
  <station code="YKAV" name="YKAV" netid="KO" insttype="CMG-5T" lat="37.1246" lon="27.2801">
    <comp name="--.HNE">
      <acc value="0.0092465734" flag="0"/>
      <vel value="0.0067875224" flag="0"/>
      <psa03 value="0.0359427525" flag="0"/>
      <psa10 value="0.0055721982" flag="0"/>
      <psa30 value="0.0006749946" flag="0"/>
    </comp>
    <comp name="--.HNZ">
      <acc value="0.0108896881" flag="0"/>
      <vel value="0.0049238889" flag="0"/>
      <psa03 value="0.0181825360" flag="0"/>
      <psa10 value="0.0064264047" flag="0"/>
      <psa30 value="0.0006703029" flag="0"/>
    </comp>
    <comp name="--.HNN">
      <acc value="0.0117894326" flag="0"/>
      <vel value="0.0079705528" flag="0"/>
      <psa03 value="0.0461549825" flag="0"/>
      <psa10 value="0.0127118526" flag="0"/>
      <psa30 value="0.0005890520" flag="0"/>
    </comp>
  </station>
  <station code="AYDN" name="AYDN" netid="TU" insttype="T" lat="37.6608" lon="27.8792">
    <comp name="--.HHZ">
      <acc value="0.0367922868" flag="0"/>
      <vel value="0.0157447213" flag="0"/>
      <psa03 value="0.1174881115" flag="0"/>
      <psa10 value="0.0146168057" flag="0"/>
      <psa30 value="0.0010252575" flag="0"/>
    </comp>
    <comp name="--.HHN">
      <acc value="0.0525028212" flag="0"/>
      <vel value="0.0247862975" flag="0"/>
      <psa03 value="0.2100575962" flag="0"/>
      <psa10 value="0.0299137816" flag="0"/>
      <psa30 value="0.0013304084" flag="0"/>
    </comp>
    <comp name="--.HHE">
      <acc value="0.0671238474" flag="0"/>
      <vel value="0.0280827298" flag="0"/>
      <psa03 value="0.1937854317" flag="0"/>
      <psa10 value="0.0192555027" flag="0"/>
      <psa30 value="0.0018820614" flag="0"/>
    </comp>
  </station>
</stationlist>
