<?xml version="1.0" encoding="UTF-8" standalone="yes"?>
<!DOCTYPE earthquake SYSTEM "stationlist.dtd">
<stationlist created="" xmlns="ch.ethz.sed.shakemap.usgs.xml">
  <station code="KOSP" name="KOSP" netid="HC" insttype="60" lat="36.881" lon="27.281">
    <comp name="--.HHE">
      <acc value="0.0224360949" flag="0"/>
      <vel value="0.0159148627" flag="0"/>
      <psa03 value="0.0443112379" flag="0"/>
      <psa10 value="0.0105698095" flag="0"/>
      <psa30 value="0.0025663844" flag="0"/>
    </comp>
    <comp name="--.HHN">
      <acc value="0.0141676786" flag="0"/>
      <vel value="0.0094932990" flag="0"/>
      <psa03 value="0.0470586956" flag="0"/>
      <psa10 value="0.0170245324" flag="0"/>
      <psa30 value="0.0018135941" flag="0"/>
    </comp>
    <comp name="--.HHZ">
      <acc value="0.0107816966" flag="0"/>
      <vel value="0.0072357806" flag="0"/>
      <psa03 value="0.0302187402" flag="0"/>
      <psa10 value="0.0083422747" flag="0"/>
      <psa30 value="0.0011576037" flag="0"/>
    </comp>
  </station>
  <station code="ARG" name="ARG" netid="HL" insttype="LE3D20_DR24" lat="36.2136" lon="28.1212">
    <comp name="--.HHE">
      <acc value="0.0234403909" flag="0"/>
      <vel value="0.0125438755" flag="0"/>
      <psa03 value="0.0705402357" flag="0"/>
      <psa10 value="0.0077537600" flag="0"/>
      <psa30 value="0.0009889611" flag="0"/>
    </comp>
    <comp name="--.HHN">
      <acc value="0.0222768473" flag="0"/>
      <vel value="0.0147955727" flag="0"/>
      <psa03 value="0.0882329437" flag="0"/>
      <psa10 value="0.0106875698" flag="0"/>
      <psa30 value="0.0008241829" flag="0"/>
    </comp>
    <comp name="--.HHZ">
      <acc value="0.0130022226" flag="0"/>
      <vel value="0.0068440512" flag="0"/>
      <psa03 value="0.0299002350" flag="0"/>
      <psa10 value="0.0067061870" flag="0"/>
      <psa30 value="0.0005203346" flag="0"/>
    </comp>
  </station>
  <station code="APMY" name="APMY" netid="KO" insttype="CMG-6T" lat="37.4717" lon="29.3018">
    <comp name="--.HHE">
      <acc value="0.0124727866" flag="0"/>
      <vel value="0.0078751813" flag="0"/>
      <psa03 value="0.0343625200" flag="0"/>
      <psa10 value="0.0102522259" flag="0"/>
      <psa30 value="0.0007833619" flag="0"/>
    </comp>
    <comp name="--.HHN">
      <acc value="0.0151098027" flag="0"/>
      <vel value="0.0060574501" flag="0"/>
      <psa03 value="0.0414942944" flag="0"/>
      <psa10 value="0.0119640402" flag="0"/>
      <psa30 value="0.0005789379" flag="0"/>
    </comp>
    <comp name="--.HHZ">
      <acc value="0.0126148915" flag="0"/>
      <vel value="0.0110240811" flag="0"/>
      <psa03 value="0.0333869636" flag="0"/>
      <psa10 value="0.0166101409" flag="0"/>
      <psa30 value="0.0005294299" flag="0"/>
    </comp>
  </station>
  <station code="BODA" name="BODA" netid="KO" insttype="ACEBOX" lat="37.0348" lon="27.4304">
    <comp name="--.HNE">
      <acc value="0.0612798757" flag="0"/>
      <vel value="0.0236218037" flag="0"/>
      <psa03 value="0.1844983043" flag="0"/>
      <psa10 value="0.0070535210" flag="0"/>
      <psa30 value="0.0005408041" flag="0"/>
    </comp>
    <comp name="--.HNN">
      <acc value="0.0375474987" flag="0"/>
      <vel value="0.0224906317" flag="0"/>
      <psa03 value="0.1218008780" flag="0"/>
      <psa10 value="0.0115971108" flag="0"/>
      <psa30 value="0.0007291041" flag="0"/>
    </comp>
    <comp name="--.HNZ">
      <acc value="0.0193288928" flag="0"/>
      <vel value="0.0073244960" flag="0"/>
      <psa03 value="0.0330945080" flag="0"/>
      <psa10 value="0.0070452087" flag="0"/>
      <psa30 value="0.0003952571" flag="0"/>
    </comp>
  </station>
  <station code="BODT" name="BODT" netid="KO" insttype="CMG-3ESP" lat="37.0622" lon="27.3103">
    <comp name="--.HHE">
      <acc value="0.0236407907" flag="0"/>
      <vel value="0.0125495975" flag="0"/>
      <psa03 value="0.0617253820" flag="0"/>
      <psa10 value="0.0089025941" flag="0"/>
      <psa30 value="0.0009241168" flag="0"/>
    </comp>
    <comp name="--.HHZ">
      <acc value="0.0125071927" flag="0"/>
      <vel value="0.0076963814" flag="0"/>
      <psa03 value="0.0246827976" flag="0"/>
      <psa10 value="0.0095841451" flag="0"/>
      <psa30 value="0.0007662264" flag="0"/>
    </comp>
    <comp name="--.HHN">
      <acc value="0.0221450109" flag="0"/>
      <vel value="0.0138322251" flag="0"/>
      <psa03 value="0.0652310647" flag="0"/>
      <psa10 value="0.0190161811" flag="0"/>
      <psa30 value="0.0010106999" flag="0"/>
    </comp>
  </station>
  <station code="CAME" name="CAME" netid="KO" insttype="CMG-5T" lat="36.9435" lon="29.3023">
    <comp name="--.HNN">
      <acc value="0.0401721765" flag="0"/>
      <vel value="0.0145549977" flag="0"/>
      <psa03 value="0.0856521356" flag="0"/>
      <psa10 value="0.0055744624" flag="0"/>
      <psa30 value="0.0005100717" flag="0"/>
    </comp>
    <comp name="--.HNE">
      <acc value="0.0397092749" flag="0"/>
      <vel value="0.0143468802" flag="0"/>
      <psa03 value="0.0731491871" flag="0"/>
      <psa10 value="0.0054027591" flag="0"/>
      <psa30 value="0.0006064133" flag="0"/>
    </comp>
    <comp name="--.HNZ">
      <acc value="0.0171223589" flag="0"/>
      <vel value="0.0052660101" flag="0"/>
      <psa03 value="0.0336692296" flag="0"/>
      <psa10 value="0.0039496254" flag="0"/>
      <psa30 value="0.0005214021" flag="0"/>
    </comp>
  </station>
  <station code="DALY" name="DALY" netid="KO" insttype="CMG-3T" lat="36.8162" lon="28.6532">
    <comp name="--.HHE">
      <acc value="0.1732629775" flag="0"/>
      <vel value="0.0605787261" flag="0"/>
      <psa03 value="0.4736960502" flag="0"/>
      <psa10 value="0.0282780400" flag="0"/>
      <psa30 value="0.0014993310" flag="0"/>
    </comp>
  </station>
  <station code="DAT" name="DAT" netid="KO" insttype="CMG-3T" lat="36.7308" lon="27.5767">
    <comp name="--.HHE">
      <acc value="0.0241831440" flag="0"/>
      <vel value="0.0110952347" flag="0"/>
      <psa03 value="0.0589786451" flag="0"/>
      <psa10 value="0.0136891698" flag="0"/>
      <psa30 value="0.0007007916" flag="0"/>
    </comp>
    <comp name="--.HHZ">
      <acc value="0.0000307717" flag="0"/>
      <vel value="0.0000043525" flag="0"/>
      <psa03 value="0.0000128158" flag="0"/>
      <psa10 value="0.0000039091" flag="0"/>
      <psa30 value="0.0000007693" flag="0"/>
    </comp>
    <comp name="--.HHN">
      <acc value="0.0310838026" flag="0"/>
      <vel value="0.0136458189" flag="0"/>
      <psa03 value="0.0590487466" flag="0"/>
      <psa10 value="0.0090222620" flag="0"/>
      <psa30 value="0.0009317240" flag="0"/>
    </comp>
  </station>
  <station code="FETI" name="FETI" netid="KO" insttype="CMG-5T" lat="36.6903" lon="29.096">
    <comp name="--.HNN">
      <acc value="0.0054902551" flag="0"/>
      <vel value="0.0277584799" flag="0"/>
      <psa03 value="0.0054579766" flag="0"/>
      <psa10 value="0.0060471084" flag="0"/>
      <psa30 value="0.0079328791" flag="0"/>
    </comp>
    <comp name="--.HNZ">
      <acc value="0.0293135131" flag="0"/>
      <vel value="0.0155264140" flag="0"/>
      <psa03 value="0.0789470161" flag="0"/>
      <psa10 value="0.0175543317" flag="0"/>
      <psa30 value="0.0006868078" flag="0"/>
    </comp>
    <comp name="--.HNE">
      <acc value="0.0430552070" flag="0"/>
      <vel value="0.0205550272" flag="0"/>
      <psa03 value="0.0963830582" flag="0"/>
      <psa10 value="0.0094745613" flag="0"/>
      <psa30 value="0.0007768244" flag="0"/>
    </comp>
  </station>
  <station code="FETY" name="FETY" netid="KO" insttype="CMG-3ESP" lat="36.6353" lon="29.0835">
    <comp name="--.HHZ">
      <acc value="0.0220878248" flag="0"/>
      <vel value="0.0091053444" flag="0"/>
      <psa03 value="0.0401618512" flag="0"/>
      <psa10 value="0.0096799136" flag="0"/>
      <psa30 value="0.0004656177" flag="0"/>
    </comp>
    <comp name="--.HHE">
      <acc value="0.0284818727" flag="0"/>
      <vel value="0.0139645809" flag="0"/>
      <psa03 value="0.0574996732" flag="0"/>
      <psa10 value="0.0062948057" flag="0"/>
      <psa30 value="0.0006230128" flag="0"/>
    </comp>
    <comp name="--.HHN">
      <acc value="0.0205539494" flag="0"/>
      <vel value="0.0102311499" flag="0"/>
      <psa03 value="0.0766581574" flag="0"/>
      <psa10 value="0.0107968249" flag="0"/>
      <psa30 value="0.0006835422" flag="0"/>
    </comp>
  </station>
  <station code="MLSB" name="MLSB" netid="KO" insttype="CMG-3ESP" lat="37.2953" lon="27.7767">
    <comp name="--.HHE">
      <acc value="0.0106696342" flag="0"/>
      <vel value="0.0059447020" flag="0"/>
      <psa03 value="0.0333563734" flag="0"/>
      <psa10 value="0.0067722026" flag="0"/>
      <psa30 value="0.0004916173" flag="0"/>
    </comp>
    <comp name="--.HHN">
      <acc value="0.0117288088" flag="0"/>
      <vel value="0.0073159119" flag="0"/>
      <psa03 value="0.0240105063" flag="0"/>
      <psa10 value="0.0082464094" flag="0"/>
      <psa30 value="0.0004815740" flag="0"/>
    </comp>
    <comp name="--.HHZ">
      <acc value="0.0083617554" flag="0"/>
      <vel value="0.0040295131" flag="0"/>
      <psa03 value="0.0280948405" flag="0"/>
      <psa10 value="0.0033352247" flag="0"/>
      <psa30 value="0.0004146396" flag="0"/>
    </comp>
  </station>
  <station code="NAZL" name="NAZL" netid="KO" insttype="CMG-5T" lat="37.9641" lon="28.2922">
    <comp name="--.HNN">
      <acc value="0.0328309572" flag="0"/>
      <vel value="0.0173164121" flag="0"/>
      <psa03 value="0.1129701874" flag="0"/>
      <psa10 value="0.0126689448" flag="0"/>
      <psa30 value="0.0007146508" flag="0"/>
    </comp>
    <comp name="--.HNE">
      <acc value="0.0243411135" flag="0"/>
      <vel value="0.0137529847" flag="0"/>
      <psa03 value="0.0912558271" flag="0"/>
      <psa10 value="0.0140812887" flag="0"/>
      <psa30 value="0.0008835812" flag="0"/>
    </comp>
    <comp name="--.HNZ">
      <acc value="0.0168904147" flag="0"/>
      <vel value="0.0049968821" flag="0"/>
      <psa03 value="0.0329519252" flag="0"/>
      <psa10 value="0.0046649098" flag="0"/>
      <psa30 value="0.0003380369" flag="0"/>
    </comp>
  </station>
  <station code="YER" name="YER" netid="KO" insttype="CMG-3T" lat="37.1336" lon="28.284">
    <comp name="--.HHE">
      <acc value="0.6915251070" flag="0"/>
      <vel value="0.1851002514" flag="0"/>
      <psa03 value="1.1059013288" flag="0"/>
      <psa10 value="0.0591125120" flag="0"/>
      <psa30 value="0.0057622849" flag="0"/>
    </comp>
    <comp name="--.HHN">
      <acc value="0.5413236648" flag="0"/>
      <vel value="0.1420797913" flag="0"/>
      <psa03 value="0.4869051196" flag="0"/>
      <psa10 value="0.0788166868" flag="0"/>
      <psa30 value="0.0040592877" flag="0"/>
    </comp>
    <comp name="--.HHZ">
      <acc value="0.4132163406" flag="0"/>
      <vel value="0.1110606989" flag="0"/>
      <psa03 value="0.6987865204" flag="0"/>
      <psa10 value="0.0592178900" flag="0"/>
      <psa30 value="0.0066956919" flag="0"/>
    </comp>
  </station>
  <station code="YKAV" name="YKAV" netid="KO" insttype="CMG-5T" lat="37.1246" lon="27.2801">
    <comp name="--.HNN">
      <acc value="0.0117893770" flag="0"/>
      <vel value="0.0079705551" flag="0"/>
      <psa03 value="0.0461549825" flag="0"/>
      <psa10 value="0.0127118520" flag="0"/>
      <psa30 value="0.0005888490" flag="0"/>
    </comp>
    <comp name="--.HNE">
      <acc value="0.0092467013" flag="0"/>
      <vel value="0.0067875209" flag="0"/>
      <psa03 value="0.0359427525" flag="0"/>
      <psa10 value="0.0055721981" flag="0"/>
      <psa30 value="0.0006758235" flag="0"/>
    </comp>
    <comp name="--.HNZ">
      <acc value="0.0108897185" flag="0"/>
      <vel value="0.0049238919" flag="0"/>
      <psa03 value="0.0181825360" flag="0"/>
      <psa10 value="0.0064264043" flag="0"/>
      <psa30 value="0.0006696300" flag="0"/>
    </comp>
  </station>
  <station code="AYDN" name="AYDN" netid="TU" insttype="T" lat="37.6608" lon="27.8792">
    <comp name="--.HHZ">
      <acc value="0.0367922868" flag="0"/>
      <vel value="0.0157447215" flag="0"/>
      <psa03 value="0.1174881115" flag="0"/>
      <psa10 value="0.0146168057" flag="0"/>
      <psa30 value="0.0010252676" flag="0"/>
    </comp>
    <comp name="--.HHN">
      <acc value="0.0525028214" flag="0"/>
      <vel value="0.0247862976" flag="0"/>
      <psa03 value="0.2100575962" flag="0"/>
      <psa10 value="0.0299137816" flag="0"/>
      <psa30 value="0.0013304062" flag="0"/>
    </comp>
    <comp name="--.HHE">
      <acc value="0.0671238475" flag="0"/>
      <vel value="0.0280827297" flag="0"/>
      <psa03 value="0.1937854317" flag="0"/>
      <psa10 value="0.0192555027" flag="0"/>
      <psa30 value="0.0018820513" flag="0"/>
    </comp>
  </station>
</stationlist>
