<?xml version="1.0" encoding="UTF-8" standalone="yes"?>
<!DOCTYPE earthquake SYSTEM "stationlist.dtd">
<stationlist created="" xmlns="ch.ethz.sed.shakemap.usgs.xml">
  <station code="ANDN" name="ANDN" netid="TU" insttype="T" lat="37.58" lon="36.3452">
    <comp name="--.HHE">
      <acc value="0.0333510574" flag="0"/>
      <vel value="0.0264145126" flag="0"/>
      <psa03 value="0.0939110261" flag="0"/>
      <psa10 value="0.0410516210" flag="0"/>
      <psa30 value="0.0034345579" flag="0"/>
    </comp>
    <comp name="--.HHN">
      <acc value="0.0439884077" flag="0"/>
      <vel value="0.0409665100" flag="0"/>
      <psa03 value="0.1521449114" flag="0"/>
      <psa10 value="0.0302932728" flag="0"/>
      <psa30 value="0.0045740985" flag="0"/>
    </comp>
    <comp name="--.HHZ">
      <acc value="0.0211779286" flag="0"/>
      <vel value="0.0170332805" flag="0"/>
      <psa03 value="0.0340208696" flag="0"/>
      <psa10 value="0.0628038694" flag="0"/>
      <psa30 value="0.0030098061" flag="0"/>
    </comp>
  </station>
</stationlist>
