<?xml version="1.0" encoding="UTF-8" standalone="yes"?>
<!DOCTYPE earthquake SYSTEM "stationlist.dtd">
<stationlist created="" xmlns="ch.ethz.sed.shakemap.usgs.xml">
  <station code="KARP" name="KARP" netid="GE" insttype="STS-2/N" lat="35.5471" lon="27.1611">
    <comp name="--.HHE">
      <acc value="0.0363122715" flag="0"/>
      <vel value="0.0147335200" flag="0"/>
      <psa03 value="0.0606432541" flag="0"/>
      <psa10 value="0.0213696261" flag="0"/>
      <psa30 value="0.0007336365" flag="0"/>
    </comp>
    <comp name="--.HHN">
      <acc value="0.0422674396" flag="0"/>
      <vel value="0.0265320321" flag="0"/>
      <psa03 value="0.0522938329" flag="0"/>
      <psa10 value="0.0348699867" flag="0"/>
      <psa30 value="0.0011131634" flag="0"/>
    </comp>
    <comp name="--.HHZ">
      <acc value="0.0269614117" flag="0"/>
      <vel value="0.0089084002" flag="0"/>
      <psa03 value="0.0374957156" flag="0"/>
      <psa10 value="0.0122742332" flag="0"/>
      <psa30 value="0.0006663963" flag="0"/>
    </comp>
  </station>
  <station code="KARP" name="KARP" netid="HL" insttype="120" lat="35.5471" lon="27.1611">
    <comp name="--.HHE">
      <acc value="0.0346509866" flag="0"/>
      <vel value="0.0145005536" flag="0"/>
      <psa03 value="0.0589280356" flag="0"/>
      <psa10 value="0.0212028104" flag="0"/>
      <psa30 value="0.0007276744" flag="0"/>
    </comp>
    <comp name="--.HHZ">
      <acc value="0.0250460218" flag="0"/>
      <vel value="0.0087561983" flag="0"/>
      <psa03 value="0.0365643112" flag="0"/>
      <psa10 value="0.0121853501" flag="0"/>
      <psa30 value="0.0006627096" flag="0"/>
    </comp>
    <comp name="--.HHN">
      <acc value="0.0391536697" flag="0"/>
      <vel value="0.0260521888" flag="0"/>
      <psa03 value="0.0511205762" flag="0"/>
      <psa10 value="0.0345956922" flag="0"/>
      <psa30 value="0.0011063662" flag="0"/>
    </comp>
  </station>
</stationlist>
