<stationlist created="1778069444">
	<station code="ARG2" name="ARG2" netid="HI" source="ITSAK Strong Motion Network" insttype="" lat="38.1783" lon="20.4878">
		<comp name="--.HNE" depth="0.0">
			<acc value="0.0636499483336401" flag="0"/>
			<vel value="0.0366923526352366" flag="0"/>
			<psa03 value="0.159595451007375" flag="0"/>
			<psa10 value="0.0487403702016805" flag="0"/>
			<psa30 value="0.00688448333235347" flag="0"/>
		</comp>
		<comp name="--.HNN" depth="0.0">
			<acc value="0.0657411341402782" flag="0"/>
			<vel value="0.0466691724251078" flag="0"/>
			<psa03 value="0.12322003702672" flag="0"/>
			<psa10 value="0.0464974433839066" flag="0"/>
			<psa30 value="0.00681960713275698" flag="0"/>
		</comp>
		<comp name="--.HNZ" depth="0.0">
			<acc value="0.028499727910644" flag="0"/>
			<vel value="0.015016664360828" flag="0"/>
			<psa03 value="0.0809386517724536" flag="0"/>
			<psa10 value="0.0273540428602128" flag="0"/>
			<psa30 value="0.00785538921596997" flag="0"/>
		</comp>
	</station>
	<station code="MSL1" name="MSL1" netid="HI" source="ITSAK Strong Motion Network" insttype="" lat="38.3727" lon="21.4243">
		<comp name="--.HNE" depth="0.0">
			<acc value="0.0337793160621471" flag="0"/>
			<vel value="0.0362052368296061" flag="0"/>
			<psa03 value="0.0836231841695499" flag="0"/>
			<psa10 value="0.0692488554492977" flag="0"/>
			<psa30 value="0.00706300473676038" flag="0"/>
		</comp>
		<comp name="--.HNN" depth="0.0">
			<acc value="0.0305537562203995" flag="0"/>
			<vel value="0.0343048563521008" flag="0"/>
			<psa03 value="0.119461691670786" flag="0"/>
			<psa10 value="0.054341647048222" flag="0"/>
			<psa30 value="0.00631894184069852" flag="0"/>
		</comp>
		<comp name="--.HNZ" depth="0.0">
			<acc value="0.0164001341403166" flag="0"/>
			<vel value="0.01720021959908" flag="0"/>
			<psa03 value="0.039015204171133" flag="0"/>
			<psa10 value="0.0387136416985258" flag="0"/>
			<psa30 value="0.00241205235879103" flag="0"/>
		</comp>
	</station>
	<station code="PYL1" name="PYL1" netid="HI" source="ITSAK Strong Motion Network" insttype="" lat="36.914188" lon="21.695161">
		<comp name="--.HNE" depth="0.0">
			<acc value="0.00987748419012804" flag="0"/>
			<vel value="0.0072915931965136" flag="0"/>
			<psa03 value="0.0233554318547379" flag="0"/>
			<psa10 value="0.00821466913511469" flag="0"/>
			<psa30 value="0.00129886625812843" flag="0"/>
		</comp>
		<comp name="--.HNN" depth="0.0">
			<acc value="0.00820852800046691" flag="0"/>
			<vel value="0.00775155880756309" flag="0"/>
			<psa03 value="0.0182548203002549" flag="0"/>
			<psa10 value="0.0104334351613148" flag="0"/>
			<psa30 value="0.00176015840836281" flag="0"/>
		</comp>
		<comp name="--.HNZ" depth="0.0">
			<acc value="0.00674161244949141" flag="0"/>
			<vel value="0.00439476782968831" flag="0"/>
			<psa03 value="0.0119461691670786" flag="0"/>
			<psa10 value="0.00611670706678393" flag="0"/>
			<psa30 value="0.00180803256944436" flag="0"/>
		</comp>
	</station>
	<station code="PATC" name="PATC" netid="HL" source="National Observatory of Athens Seismic Network" insttype="" lat="38.26933" lon="21.76001">
		<comp name="00.HNE" depth="0.0">
			<acc value="0.0234817401490607" flag="0"/>
			<vel value="0.0268941981804134" flag="0"/>
			<psa03 value="0.0492611694867172" flag="0"/>
			<psa10 value="0.0462638890653592" flag="0"/>
			<psa30 value="0.014001626139122" flag="0"/>
		</comp>
		<comp name="00.HNN" depth="0.0">
			<acc value="0.016721492136762" flag="0"/>
			<vel value="0.0222134451082603" flag="0"/>
			<psa03 value="0.054988171933856" flag="0"/>
			<psa10 value="0.0376666740636583" flag="0"/>
			<psa30 value="0.00733861672952893" flag="0"/>
		</comp>
		<comp name="00.HNZ" depth="0.0">
			<acc value="0.0231834918779567" flag="0"/>
			<vel value="0.0147473394110099" flag="0"/>
			<psa03 value="0.0296193407812959" flag="0"/>
			<psa10 value="0.0233755658477161" flag="0"/>
			<psa30 value="0.00480889236733185" flag="0"/>
		</comp>
	</station>
	<station code="LTHK" name="LTHK" netid="HP" source="University of Patras, Seismological Laboratory (PSLNET)" insttype="" lat="37.7095" lon="20.8367">
		<comp name="--.HNE" depth="0.0">
			<acc value="0.289306295256634" flag="0"/>
			<vel value="0.101379351030339" flag="0"/>
			<psa03 value="0.389346681992201" flag="0"/>
			<psa10 value="0.0506973943191637" flag="0"/>
			<psa30 value="0.0133027528717446" flag="0"/>
		</comp>
		<comp name="--.HNN" depth="0.0">
			<acc value="0.267483620863841" flag="0"/>
			<vel value="0.155766233385728" flag="0"/>
			<psa03 value="0.534893080121439" flag="0"/>
			<psa10 value="0.0983344217056377" flag="0"/>
			<psa30 value="0.0280748398088332" flag="0"/>
		</comp>
		<comp name="--.HNZ" depth="0.0">
			<acc value="0.147832808385673" flag="0"/>
			<vel value="0.0658548044123952" flag="0"/>
			<psa03 value="0.301920410260098" flag="0"/>
			<psa10 value="0.0479752784685081" flag="0"/>
			<psa30 value="0.0198695665371083" flag="0"/>
		</comp>
	</station>
	<station code="PVO" name="PVO" netid="HP" source="University of Patras, Seismological Laboratory (PSLNET)" insttype="" lat="38.616" lon="21.525">
		<comp name="--.HNE" depth="0.0">
			<acc value="0.01238736725145" flag="0"/>
			<vel value="0.0110326081050669" flag="0"/>
			<psa03 value="0.0521694129169049" flag="0"/>
			<psa10 value="0.0128293803257232" flag="0"/>
			<psa30 value="0.00236865241837131" flag="0"/>
		</comp>
		<comp name="--.HNN" depth="0.0">
			<acc value="0.0120310569982569" flag="0"/>
			<vel value="0.00830759663570848" flag="0"/>
			<psa03 value="0.0475609656352229" flag="0"/>
			<psa10 value="0.0121327441686768" flag="0"/>
			<psa30 value="0.00269661279288324" flag="0"/>
		</comp>
		<comp name="--.HNZ" depth="0.0">
			<acc value="0.0077468616520476" flag="0"/>
			<vel value="0.00674272253790742" flag="0"/>
			<psa03 value="0.0265321285246352" flag="0"/>
			<psa10 value="0.00724018387496873" flag="0"/>
			<psa30 value="0.0020916981594042" flag="0"/>
		</comp>
	</station>
	<station code="SERG" name="SERG" netid="HP" source="University of Patras, Seismological Laboratory (PSLNET)" insttype="" lat="38.4133" lon="22.0566">
		<comp name="--.HNE" depth="0.0">
			<acc value="0.00774286204785927" flag="0"/>
			<vel value="0.00587807864213924" flag="0"/>
			<psa03 value="0.0212525481436791" flag="0"/>
			<psa10 value="0.00778380168538074" flag="0"/>
			<psa30 value="0.0013409239323496" flag="0"/>
		</comp>
		<comp name="--.HNN" depth="0.0">
			<acc value="0.00823775400494876" flag="0"/>
			<vel value="0.00753313751684958" flag="0"/>
			<psa03 value="0.0199997663583675" flag="0"/>
			<psa10 value="0.0111421517141482" flag="0"/>
			<psa30 value="0.0016205627237138" flag="0"/>
		</comp>
		<comp name="--.HNZ" depth="0.0">
			<acc value="0.00480463100171366" flag="0"/>
			<vel value="0.00373631332929525" flag="0"/>
			<psa03 value="0.0100222542824929" flag="0"/>
			<psa10 value="0.00629388620499229" flag="0"/>
			<psa30 value="0.00197357873393197" flag="0"/>
		</comp>
	</station>
	<station code="VALY" name="VALY" netid="HP" source="University of Patras, Seismological Laboratory (PSLNET)" insttype="" lat="37.1641" lon="21.9836">
		<comp name="--.HNE" depth="0.0">
			<acc value="0.0085119035454294" flag="0"/>
			<vel value="0.00594044960142815" flag="0"/>
			<psa03 value="0.028920335101103" flag="0"/>
			<psa10 value="0.00814274285423225" flag="0"/>
			<psa30 value="0.00115887645737664" flag="0"/>
		</comp>
		<comp name="--.HNN" depth="0.0">
			<acc value="0.00641306249953138" flag="0"/>
			<vel value="0.00527787279721949" flag="0"/>
			<psa03 value="0.0134299013838176" flag="0"/>
			<psa10 value="0.0107793165768137" flag="0"/>
			<psa30 value="0.00165357662466908" flag="0"/>
		</comp>
		<comp name="--.HNZ" depth="0.0">
			<acc value="0.00426809194469048" flag="0"/>
			<vel value="0.00398421493111039" flag="0"/>
			<psa03 value="0.00808721998342183" flag="0"/>
			<psa10 value="0.00712886365846934" flag="0"/>
			<psa30 value="0.00120633210108342" flag="0"/>
		</comp>
	</station>
</stationlist>
