<?xml version="1.0" encoding="UTF-8" standalone="yes"?>
<!DOCTYPE earthquake SYSTEM "stationlist.dtd">
<stationlist created="" xmlns="ch.ethz.sed.shakemap.usgs.xml">
  <station code="PYL1" name="PYL1" netid="HI" insttype="CMG-5TD,ACCELEROMETER,GURALP" lat="36.9142" lon="21.6952">
    <comp name="--.HNE">
      <acc value="0.0097698921" flag="0"/>
      <vel value="0.0072718666" flag="0"/>
      <psa03 value="0.0237316943" flag="0"/>
      <psa10 value="0.0082371252" flag="0"/>
      <psa30 value="0.0011642231" flag="0"/>
    </comp>
    <comp name="--.HNN">
      <acc value="0.0080528146" flag="0"/>
      <vel value="0.0075666629" flag="0"/>
      <psa03 value="0.0180289198" flag="0"/>
      <psa10 value="0.0105256215" flag="0"/>
      <psa30 value="0.0012408601" flag="0"/>
    </comp>
    <comp name="--.HNZ">
      <acc value="0.0067632271" flag="0"/>
      <vel value="0.0042931725" flag="0"/>
      <psa03 value="0.0116960352" flag="0"/>
      <psa10 value="0.0060689281" flag="0"/>
      <psa30 value="0.0007960068" flag="0"/>
    </comp>
  </station>
  <station code="ITM" name="ITM" netid="HL" insttype="DR24" lat="37.1787" lon="21.9252">
    <comp name="--.HHE">
      <acc value="0.0072304574" flag="0"/>
      <vel value="0.0065136699" flag="0"/>
      <psa03 value="0.0197864953" flag="0"/>
      <psa10 value="0.0107952212" flag="0"/>
      <psa30 value="0.0023276042" flag="0"/>
    </comp>
    <comp name="--.HHN">
      <acc value="0.0086668237" flag="0"/>
      <vel value="0.0066976173" flag="0"/>
      <psa03 value="0.0241568378" flag="0"/>
      <psa10 value="0.0091866196" flag="0"/>
      <psa30 value="0.0017017581" flag="0"/>
    </comp>
    <comp name="--.HHZ">
      <acc value="0.0078436747" flag="0"/>
      <vel value="0.0062051161" flag="0"/>
      <psa03 value="0.0141444482" flag="0"/>
      <psa10 value="0.0111928495" flag="0"/>
      <psa30 value="0.0009536481" flag="0"/>
    </comp>
  </station>
  <station code="ORTH" name="ORTH" netid="HL" insttype="30" lat="37.8511" lon="20.6963">
    <comp name="--.HHE">
      <acc value="0.2208200840" flag="0"/>
      <vel value="0.0605566508" flag="0"/>
      <psa03 value="0.4076237962" flag="0"/>
      <psa10 value="0.0733683545" flag="0"/>
      <psa30 value="0.0032272126" flag="0"/>
    </comp>
    <comp name="--.HHN">
      <acc value="0.1291040690" flag="0"/>
      <vel value="0.0558882488" flag="0"/>
      <psa03 value="0.3005785060" flag="0"/>
      <psa10 value="0.0530886080" flag="0"/>
      <psa30 value="0.0024130722" flag="0"/>
    </comp>
    <comp name="--.HHZ">
      <acc value="0.0666640761" flag="0"/>
      <vel value="0.0279797779" flag="0"/>
      <psa03 value="0.1907734637" flag="0"/>
      <psa10 value="0.0319770937" flag="0"/>
      <psa30 value="0.0012629870" flag="0"/>
    </comp>
  </station>
  <station code="RLS" name="RLS" netid="HL" insttype="CMG3ESPC-120s" lat="38.0559" lon="21.4647">
    <comp name="--.HHE">
      <acc value="0.0132747072" flag="0"/>
      <vel value="0.0115962071" flag="0"/>
      <psa03 value="0.0375382328" flag="0"/>
      <psa10 value="0.0140385291" flag="0"/>
      <psa30 value="0.0017841467" flag="0"/>
    </comp>
    <comp name="--.HHN">
      <acc value="0.0143079001" flag="0"/>
      <vel value="0.0122985123" flag="0"/>
      <psa03 value="0.0504078212" flag="0"/>
      <psa10 value="0.0224969705" flag="0"/>
      <psa30 value="0.0022425422" flag="0"/>
    </comp>
    <comp name="--.HHZ">
      <acc value="0.0076217408" flag="0"/>
      <vel value="0.0066097373" flag="0"/>
      <psa03 value="0.0372049249" flag="0"/>
      <psa10 value="0.0159017058" flag="0"/>
      <psa30 value="0.0019736443" flag="0"/>
    </comp>
  </station>
  <station code="VLS" name="VLS" netid="HL" insttype="120P," lat="38.1768" lon="20.5886">
    <comp name="--.HHE">
      <acc value="0.0352472806" flag="0"/>
      <vel value="0.0240774625" flag="0"/>
      <psa03 value="0.0658244851" flag="0"/>
      <psa10 value="0.0359565624" flag="0"/>
      <psa30 value="0.0020129888" flag="0"/>
    </comp>
    <comp name="--.HHN">
      <acc value="0.0445121523" flag="0"/>
      <vel value="0.0246211902" flag="0"/>
      <psa03 value="0.0838910502" flag="0"/>
      <psa10 value="0.0280729661" flag="0"/>
      <psa30 value="0.0019141669" flag="0"/>
    </comp>
    <comp name="--.HHZ">
      <acc value="0.0270345985" flag="0"/>
      <vel value="0.0161692098" flag="0"/>
      <psa03 value="0.0692849991" flag="0"/>
      <psa10 value="0.0273862595" flag="0"/>
      <psa30 value="0.0040954251" flag="0"/>
    </comp>
  </station>
  <station code="AMT" name="AMT" netid="HP" insttype="CMG-3T," lat="37.5324" lon="21.7089">
    <comp name="00.HHE">
      <acc value="0.0177203342" flag="0"/>
      <vel value="0.0185320732" flag="0"/>
      <psa03 value="0.0615569669" flag="0"/>
      <psa10 value="0.0292228553" flag="0"/>
      <psa30 value="0.0022263158" flag="0"/>
    </comp>
    <comp name="00.HHN">
      <acc value="0.0212082165" flag="0"/>
      <vel value="0.0182374848" flag="0"/>
      <psa03 value="0.0847966457" flag="0"/>
      <psa10 value="0.0419959064" flag="0"/>
      <psa30 value="0.0019697188" flag="0"/>
    </comp>
    <comp name="00.HHZ">
      <acc value="0.0144927669" flag="0"/>
      <vel value="0.0132327024" flag="0"/>
      <psa03 value="0.0456651658" flag="0"/>
      <psa10 value="0.0178516484" flag="0"/>
      <psa30 value="0.0017927025" flag="0"/>
    </comp>
  </station>
  <station code="AXS" name="AXS" netid="HP" insttype="40," lat="38.1962" lon="21.3763">
    <comp name="--.HHE">
      <acc value="0.0091356909" flag="0"/>
      <vel value="0.0052896880" flag="0"/>
      <psa03 value="0.0185683860" flag="0"/>
      <psa10 value="0.0130547603" flag="0"/>
      <psa30 value="0.0009949591" flag="0"/>
    </comp>
    <comp name="--.HHN">
      <acc value="0.0136107850" flag="0"/>
      <vel value="0.0133317063" flag="0"/>
      <psa03 value="0.0358511435" flag="0"/>
      <psa10 value="0.0156538345" flag="0"/>
      <psa30 value="0.0015959204" flag="0"/>
    </comp>
    <comp name="--.HHZ">
      <acc value="0.0079380092" flag="0"/>
      <vel value="0.0060764959" flag="0"/>
      <psa03 value="0.0199667612" flag="0"/>
      <psa10 value="0.0073616045" flag="0"/>
      <psa30 value="0.0014136739" flag="0"/>
    </comp>
  </station>
  <station code="DRO" name="DRO" netid="HP" insttype="120P," lat="37.952" lon="21.71">
    <comp name="--.HHE">
      <acc value="0.0262992330" flag="0"/>
      <vel value="0.0180642643" flag="0"/>
      <psa03 value="0.1142272626" flag="0"/>
      <psa10 value="0.0218170480" flag="0"/>
      <psa30 value="0.0027786907" flag="0"/>
    </comp>
    <comp name="--.HHN">
      <acc value="0.0220737488" flag="0"/>
      <vel value="0.0135139320" flag="0"/>
      <psa03 value="0.0819087248" flag="0"/>
      <psa10 value="0.0198744514" flag="0"/>
      <psa30 value="0.0025186237" flag="0"/>
    </comp>
    <comp name="--.HHZ">
      <acc value="0.0155475381" flag="0"/>
      <vel value="0.0079124903" flag="0"/>
      <psa03 value="0.0349205281" flag="0"/>
      <psa10 value="0.0105225854" flag="0"/>
      <psa30 value="0.0031374343" flag="0"/>
    </comp>
  </station>
  <station code="FSK" name="FSK" netid="HP" insttype="40," lat="38.4593" lon="20.5623">
    <comp name="--.HHE">
      <acc value="0.0323983006" flag="0"/>
      <vel value="0.0190717735" flag="0"/>
      <psa03 value="0.0473521016" flag="0"/>
      <psa10 value="0.0216425826" flag="0"/>
      <psa30 value="0.0039030109" flag="0"/>
    </comp>
    <comp name="--.HHN">
      <acc value="0.0152299959" flag="0"/>
      <vel value="0.0156743829" flag="0"/>
      <psa03 value="0.0325027058" flag="0"/>
      <psa10 value="0.0243961104" flag="0"/>
      <psa30 value="0.0024095669" flag="0"/>
    </comp>
    <comp name="--.HHZ">
      <acc value="0.0122551169" flag="0"/>
      <vel value="0.0126679030" flag="0"/>
      <psa03 value="0.0274760941" flag="0"/>
      <psa10 value="0.0148101274" flag="0"/>
      <psa30 value="0.0028883203" flag="0"/>
    </comp>
  </station>
  <station code="LTHK" name="LTHK" netid="HP" insttype="40," lat="37.7095" lon="20.8367">
    <comp name="--.HHE">
      <acc value="0.2952608574" flag="0"/>
      <vel value="0.1007929886" flag="0"/>
      <psa03 value="0.3910402873" flag="0"/>
      <psa10 value="0.0498459747" flag="0"/>
      <psa30 value="0.0074093875" flag="0"/>
    </comp>
    <comp name="--.HHN">
      <acc value="0.2693087969" flag="0"/>
      <vel value="0.1588805358" flag="0"/>
      <psa03 value="0.5238978567" flag="0"/>
      <psa10 value="0.0986524581" flag="0"/>
      <psa30 value="0.0225708944" flag="0"/>
    </comp>
    <comp name="--.HHZ">
      <acc value="0.1442458889" flag="0"/>
      <vel value="0.0625116549" flag="0"/>
      <psa03 value="0.2943878482" flag="0"/>
      <psa10 value="0.0483648838" flag="0"/>
      <psa30 value="0.0177079846" flag="0"/>
    </comp>
  </station>
  <station code="PYL" name="PYL" netid="HP" insttype="120s" lat="36.8955" lon="21.742">
    <comp name="--.HHE">
      <acc value="0.0097161612" flag="0"/>
      <vel value="0.0064672515" flag="0"/>
      <psa03 value="0.0269972743" flag="0"/>
      <psa10 value="0.0067523213" flag="0"/>
      <psa30 value="0.0013341722" flag="0"/>
    </comp>
    <comp name="--.HHN">
      <acc value="0.0114471645" flag="0"/>
      <vel value="0.0121728633" flag="0"/>
      <psa03 value="0.0277966609" flag="0"/>
      <psa10 value="0.0130892895" flag="0"/>
      <psa30 value="0.0013658266" flag="0"/>
    </comp>
    <comp name="--.HHZ">
      <acc value="0.0042515110" flag="0"/>
      <vel value="0.0027735538" flag="0"/>
      <psa03 value="0.0107746339" flag="0"/>
      <psa10 value="0.0053559814" flag="0"/>
      <psa30 value="0.0004241992" flag="0"/>
    </comp>
  </station>
  <station code="DMLN" name="DMLN" netid="HT" insttype="1s-100Hz," lat="38.2385" lon="20.3734">
    <comp name="--.HHE">
      <acc value="0.0744827466" flag="0"/>
      <vel value="0.0530926372" flag="0"/>
      <psa03 value="0.1343678396" flag="0"/>
      <psa10 value="0.0853996084" flag="0"/>
      <psa30 value="0.0095504626" flag="0"/>
    </comp>
    <comp name="--.HHN">
      <acc value="0.0603531123" flag="0"/>
      <vel value="0.0391781155" flag="0"/>
      <psa03 value="0.2368361954" flag="0"/>
      <psa10 value="0.0393077234" flag="0"/>
      <psa30 value="0.0087159179" flag="0"/>
    </comp>
    <comp name="--.HHZ">
      <acc value="0.0295278151" flag="0"/>
      <vel value="0.0196414076" flag="0"/>
      <psa03 value="0.0869308875" flag="0"/>
      <psa10 value="0.0253388925" flag="0"/>
      <psa30 value="0.0026328574" flag="0"/>
    </comp>
  </station>
  <station code="EVGI" name="EVGI" netid="HT" insttype="30" lat="38.621" lon="20.656">
    <comp name="--.HHE">
      <acc value="0.0191266402" flag="0"/>
      <vel value="0.0105424774" flag="0"/>
      <psa03 value="0.0408413309" flag="0"/>
      <psa10 value="0.0221774159" flag="0"/>
      <psa30 value="0.0016103370" flag="0"/>
    </comp>
    <comp name="--.HHZ">
      <acc value="0.0476202307" flag="0"/>
      <vel value="0.0105945175" flag="0"/>
      <psa03 value="0.0409757481" flag="0"/>
      <psa10 value="0.0159604458" flag="0"/>
      <psa30 value="0.0013694287" flag="0"/>
    </comp>
  </station>
  <station code="RTZL" name="RTZL" netid="HT" insttype="Compact," lat="38.076" lon="20.7715">
    <comp name="--.HHZ">
      <acc value="0.0304853417" flag="0"/>
      <vel value="0.0099247478" flag="0"/>
      <psa03 value="0.0371276974" flag="0"/>
      <psa10 value="0.0161842065" flag="0"/>
      <psa30 value="0.0020699094" flag="0"/>
    </comp>
    <comp name="--.HHN">
      <acc value="0.0500594255" flag="0"/>
      <vel value="0.0337896418" flag="0"/>
      <psa03 value="0.1083382436" flag="0"/>
      <psa10 value="0.0594726955" flag="0"/>
      <psa30 value="0.0045618061" flag="0"/>
    </comp>
    <comp name="--.HHE">
      <acc value="0.0401893707" flag="0"/>
      <vel value="0.0225531101" flag="0"/>
      <psa03 value="0.1260609256" flag="0"/>
      <psa10 value="0.0394710797" flag="0"/>
      <psa30 value="0.0024027459" flag="0"/>
    </comp>
  </station>
</stationlist>
