<?xml version="1.0" encoding="UTF-8" standalone="yes"?>
<!DOCTYPE earthquake SYSTEM "stationlist.dtd">
<stationlist created="" xmlns="ch.ethz.sed.shakemap.usgs.xml">
  <station code="DARE" name="DARE" netid="KO" insttype="CMG-3ESP" lat="38.5712" lon="37.4832">
    <comp name="--.HHE">
      <acc value="0.0160229993" flag="0"/>
      <vel value="0.0050902293" flag="0"/>
      <psa03 value="0.0266289514" flag="0"/>
      <psa10 value="0.0030992732" flag="0"/>
      <psa30 value="0.0003979670" flag="0"/>
    </comp>
    <comp name="--.HHN">
      <acc value="0.0220206687" flag="0"/>
      <vel value="0.0073750864" flag="0"/>
      <psa03 value="0.0316755138" flag="0"/>
      <psa10 value="0.0030744488" flag="0"/>
      <psa30 value="0.0002682368" flag="0"/>
    </comp>
    <comp name="--.HHZ">
      <acc value="0.0214207337" flag="0"/>
      <vel value="0.0109644220" flag="0"/>
      <psa03 value="0.0984731952" flag="0"/>
      <psa10 value="0.0033987626" flag="0"/>
      <psa30 value="0.0005608088" flag="0"/>
    </comp>
  </station>
  <station code="URFA" name="URFA" netid="KO" insttype="CMG-3ESP" lat="37.4409" lon="38.8213">
    <comp name="--.HHE">
      <acc value="0.0204000117" flag="0"/>
      <vel value="0.0069154210" flag="0"/>
      <psa03 value="0.0261845732" flag="0"/>
      <psa10 value="0.0062677206" flag="0"/>
      <psa30 value="0.0026050512" flag="0"/>
    </comp>
    <comp name="--.HHN">
      <acc value="0.0176451635" flag="0"/>
      <vel value="0.0060472612" flag="0"/>
      <psa03 value="0.0131838816" flag="0"/>
      <psa10 value="0.0034267968" flag="0"/>
      <psa30 value="0.0010400252" flag="0"/>
    </comp>
    <comp name="--.HHZ">
      <acc value="0.0142495476" flag="0"/>
      <vel value="0.0033169886" flag="0"/>
      <psa03 value="0.0113116901" flag="0"/>
      <psa10 value="0.0043240202" flag="0"/>
      <psa30 value="0.0005601616" flag="0"/>
    </comp>
  </station>
</stationlist>
