<?xml version="1.0" encoding="UTF-8" standalone="yes"?>
<!DOCTYPE earthquake SYSTEM "stationlist.dtd">
<stationlist created="" xmlns="ch.ethz.sed.shakemap.usgs.xml">
  <station code="ARPRA" name="ARPRA" netid="KO" insttype="CMG-5T" lat="39.0929" lon="38.3356">
    <comp name="--.HNZ">
      <acc value="0.0207746977" flag="0"/>
      <vel value="0.0097767717" flag="0"/>
      <psa03 value="0.0561018939" flag="0"/>
      <psa10 value="0.0065190144" flag="0"/>
      <psa30 value="0.0004886697" flag="0"/>
    </comp>
    <comp name="--.HNE">
      <acc value="0.0365742217" flag="0"/>
      <vel value="0.0246877218" flag="0"/>
      <psa03 value="0.1008295524" flag="0"/>
      <psa10 value="0.0164064989" flag="0"/>
      <psa30 value="0.0012345529" flag="0"/>
    </comp>
    <comp name="--.HNN">
      <acc value="0.0456779266" flag="0"/>
      <vel value="0.0233773968" flag="0"/>
      <psa03 value="0.1511121060" flag="0"/>
      <psa10 value="0.0141710366" flag="0"/>
      <psa30 value="0.0010083512" flag="0"/>
    </comp>
  </station>
</stationlist>
