<?xml version="1.0" encoding="UTF-8" standalone="yes"?>
<!DOCTYPE earthquake SYSTEM "stationlist.dtd">
<stationlist created="" xmlns="ch.ethz.sed.shakemap.usgs.xml">
  <station code="MYT1" name="MYT1" netid="HI" insttype="CMG-5TD,ACCELEROMETER,GURALP" lat="39.085" lon="26.5694">
    <comp name="--.HNE">
      <acc value="0.0232173495" flag="0"/>
      <vel value="0.0151130097" flag="0"/>
      <psa03 value="0.0396891750" flag="0"/>
      <psa10 value="0.0268989833" flag="0"/>
      <psa30 value="0.0048517969" flag="0"/>
    </comp>
    <comp name="--.HNN">
      <acc value="0.0189114065" flag="0"/>
      <vel value="0.0121467809" flag="0"/>
      <psa03 value="0.0474960885" flag="0"/>
      <psa10 value="0.0209507969" flag="0"/>
      <psa30 value="0.0025587946" flag="0"/>
    </comp>
    <comp name="--.HNZ">
      <acc value="0.0203001549" flag="0"/>
      <vel value="0.0130378414" flag="0"/>
      <psa03 value="0.0424852269" flag="0"/>
      <psa10 value="0.0198090923" flag="0"/>
      <psa30 value="0.0020089685" flag="0"/>
    </comp>
  </station>
  <station code="PRK" name="PRK" netid="HL" insttype="120" lat="39.2456" lon="26.265">
    <comp name="--.HHN">
      <acc value="0.0364191949" flag="0"/>
      <vel value="0.0331259883" flag="0"/>
      <psa03 value="0.1107919331" flag="0"/>
      <psa10 value="0.0524228729" flag="0"/>
      <psa30 value="0.0127293139" flag="0"/>
    </comp>
    <comp name="--.HHE">
      <acc value="0.0412340059" flag="0"/>
      <vel value="0.0346585402" flag="0"/>
      <psa03 value="0.0994080007" flag="0"/>
      <psa10 value="0.0572778217" flag="0"/>
      <psa30 value="0.0106693576" flag="0"/>
    </comp>
    <comp name="--.HHZ">
      <acc value="0.0323628984" flag="0"/>
      <vel value="0.0251607235" flag="0"/>
      <psa03 value="0.0565637274" flag="0"/>
      <psa10 value="0.0295025174" flag="0"/>
      <psa30 value="0.0063398479" flag="0"/>
    </comp>
  </station>
  <station code="CHOS" name="CHOS" netid="HT" insttype="100" lat="38.3869" lon="26.0506">
    <comp name="--.HHN">
      <acc value="0.0243264717" flag="0"/>
      <vel value="0.0144186466" flag="0"/>
      <psa03 value="0.0777187824" flag="0"/>
      <psa10 value="0.0173123931" flag="0"/>
      <psa30 value="0.0045036343" flag="0"/>
    </comp>
    <comp name="--.HHE">
      <acc value="0.0433595520" flag="0"/>
      <vel value="0.0165962006" flag="0"/>
      <psa03 value="0.1152482934" flag="0"/>
      <psa10 value="0.0239244075" flag="0"/>
      <psa30 value="0.0021813319" flag="0"/>
    </comp>
    <comp name="--.HHZ">
      <acc value="0.0131425188" flag="0"/>
      <vel value="0.0083028764" flag="0"/>
      <psa03 value="0.0437806513" flag="0"/>
      <psa10 value="0.0094207076" flag="0"/>
      <psa30 value="0.0026046184" flag="0"/>
    </comp>
  </station>
  <station code="SIGR" name="SIGR" netid="HT" insttype="100" lat="39.2114" lon="25.8553">
    <comp name="--.HHE">
      <acc value="0.0722755335" flag="0"/>
      <vel value="0.0371732346" flag="0"/>
      <psa03 value="0.1482385193" flag="0"/>
      <psa10 value="0.0194844022" flag="0"/>
      <psa30 value="0.0041268288" flag="0"/>
    </comp>
    <comp name="--.HHN">
      <acc value="0.0504680320" flag="0"/>
      <vel value="0.0237253226" flag="0"/>
      <psa03 value="0.1268177700" flag="0"/>
      <psa10 value="0.0142359822" flag="0"/>
      <psa30 value="0.0059284928" flag="0"/>
    </comp>
    <comp name="--.HHZ">
      <acc value="0.0479220692" flag="0"/>
      <vel value="0.0199575809" flag="0"/>
      <psa03 value="0.0818382603" flag="0"/>
      <psa10 value="0.0090163624" flag="0"/>
      <psa30 value="0.0056564341" flag="0"/>
    </comp>
  </station>
  <station code="EZN" name="EZN" netid="KO" insttype="120s," lat="39.8255" lon="26.3247">
    <comp name="--.HHZ">
      <acc value="0.0096006213" flag="0"/>
      <vel value="0.0076200807" flag="0"/>
      <psa03 value="0.0189301118" flag="0"/>
      <psa10 value="0.0101559172" flag="0"/>
      <psa30 value="0.0009956097" flag="0"/>
    </comp>
    <comp name="--.HHN">
      <acc value="0.0202841197" flag="0"/>
      <vel value="0.0195834037" flag="0"/>
      <psa03 value="0.0561937382" flag="0"/>
      <psa10 value="0.0302694876" flag="0"/>
      <psa30 value="0.0018515953" flag="0"/>
    </comp>
    <comp name="--.HHE">
      <acc value="0.0158990789" flag="0"/>
      <vel value="0.0108118791" flag="0"/>
      <psa03 value="0.0308096252" flag="0"/>
      <psa10 value="0.0180719398" flag="0"/>
      <psa30 value="0.0011146567" flag="0"/>
    </comp>
  </station>
  <station code="YAYO" name="YAYO" netid="KO" insttype="30s," lat="39.6113" lon="27.0726">
    <comp name="--.HHE">
      <acc value="0.0129182037" flag="0"/>
      <vel value="0.0098402664" flag="0"/>
      <psa03 value="0.0407304577" flag="0"/>
      <psa10 value="0.0172256794" flag="0"/>
      <psa30 value="0.0008957955" flag="0"/>
    </comp>
    <comp name="--.HHN">
      <acc value="0.0094915901" flag="0"/>
      <vel value="0.0078672601" flag="0"/>
      <psa03 value="0.0422057546" flag="0"/>
      <psa10 value="0.0132656645" flag="0"/>
      <psa30 value="0.0009352135" flag="0"/>
    </comp>
    <comp name="--.HHZ">
      <acc value="0.0075306517" flag="0"/>
      <vel value="0.0052608834" flag="0"/>
      <psa03 value="0.0229596165" flag="0"/>
      <psa10 value="0.0069011060" flag="0"/>
      <psa30 value="0.0009438472" flag="0"/>
    </comp>
  </station>
</stationlist>
