<?xml version="1.0" encoding="UTF-8" standalone="yes"?>
<!DOCTYPE earthquake SYSTEM "stationlist.dtd">
<stationlist created="" xmlns="ch.ethz.sed.shakemap.usgs.xml">
  <station code="IPPL" name="IPPL" netid="HC" insttype="60" lat="35.3486" lon="24.4632">
    <comp name="--.HHZ">
      <acc value="0.0058131453" flag="0"/>
      <vel value="0.0026893213" flag="0"/>
      <psa03 value="0.0168439620" flag="0"/>
      <psa10 value="0.0026081253" flag="0"/>
      <psa30 value="0.0003048344" flag="0"/>
    </comp>
    <comp name="--.HHE">
      <acc value="0.0074957143" flag="0"/>
      <vel value="0.0070006026" flag="0"/>
      <psa03 value="0.0231971247" flag="0"/>
      <psa10 value="0.0062190784" flag="0"/>
      <psa30 value="0.0009849553" flag="0"/>
    </comp>
    <comp name="--.HHN">
      <acc value="0.0082738849" flag="0"/>
      <vel value="0.0058290772" flag="0"/>
      <psa03 value="0.0232874834" flag="0"/>
      <psa10 value="0.0083519741" flag="0"/>
      <psa30 value="0.0005208250" flag="0"/>
    </comp>
  </station>
  <station code="KNSS" name="KNSS" netid="HC" insttype="60" lat="35.3042" lon="25.1802">
    <comp name="--.HHN">
      <acc value="0.0072650290" flag="0"/>
      <vel value="0.0043082244" flag="0"/>
      <psa03 value="0.0212701587" flag="0"/>
      <psa10 value="0.0051290904" flag="0"/>
      <psa30 value="0.0004809072" flag="0"/>
    </comp>
    <comp name="--.HHZ">
      <acc value="0.0051596011" flag="0"/>
      <vel value="0.0027567525" flag="0"/>
      <psa03 value="0.0118461627" flag="0"/>
      <psa10 value="0.0026512569" flag="0"/>
      <psa30 value="0.0003829038" flag="0"/>
    </comp>
    <comp name="--.HHE">
      <acc value="0.0062149759" flag="0"/>
      <vel value="0.0042196892" flag="0"/>
      <psa03 value="0.0185011811" flag="0"/>
      <psa10 value="0.0048869143" flag="0"/>
      <psa30 value="0.0004234164" flag="0"/>
    </comp>
  </station>
  <station code="PFKS" name="PFKS" netid="HC" insttype="120" lat="35.0429" lon="25.4733">
    <comp name="--.HHE">
      <acc value="0.0114412155" flag="0"/>
      <vel value="0.0062215985" flag="0"/>
      <psa03 value="0.0356521170" flag="0"/>
      <psa10 value="0.0084124699" flag="0"/>
      <psa30 value="0.0005327854" flag="0"/>
    </comp>
    <comp name="--.HHN">
      <acc value="0.0154740934" flag="0"/>
      <vel value="0.0064617194" flag="0"/>
      <psa03 value="0.0459800769" flag="0"/>
      <psa10 value="0.0111646234" flag="0"/>
      <psa30 value="0.0004143135" flag="0"/>
    </comp>
    <comp name="--.HHZ">
      <acc value="0.0077089822" flag="0"/>
      <vel value="0.0033373302" flag="0"/>
      <psa03 value="0.0214339660" flag="0"/>
      <psa10 value="0.0036408636" flag="0"/>
      <psa30 value="0.0007681248" flag="0"/>
    </comp>
  </station>
  <station code="VAM" name="VAM" netid="HL" insttype="CMG3ESPC-120s" lat="35.407" lon="24.1997">
    <comp name="--.HHE">
      <acc value="0.0079576790" flag="0"/>
      <vel value="0.0044622309" flag="0"/>
      <psa03 value="0.0146107666" flag="0"/>
      <psa10 value="0.0095521798" flag="0"/>
      <psa30 value="0.0009444227" flag="0"/>
    </comp>
    <comp name="--.HHN">
      <acc value="0.0099208330" flag="0"/>
      <vel value="0.0036326674" flag="0"/>
      <psa03 value="0.0225129507" flag="0"/>
      <psa10 value="0.0059788569" flag="0"/>
      <psa30 value="0.0008028370" flag="0"/>
    </comp>
    <comp name="--.HHZ">
      <acc value="0.0044883170" flag="0"/>
      <vel value="0.0023237839" flag="0"/>
      <psa03 value="0.0096856780" flag="0"/>
      <psa10 value="0.0042940888" flag="0"/>
      <psa30 value="0.0005499830" flag="0"/>
    </comp>
  </station>
</stationlist>
