<?xml version="1.0" encoding="UTF-8" standalone="yes"?>
<!DOCTYPE earthquake SYSTEM "stationlist.dtd">
<stationlist created="" xmlns="ch.ethz.sed.shakemap.usgs.xml">
  <station code="BISRR" name="BISRR" netid="RO" insttype="CMG40T.1to100/Basalt" lat="45.5481" lon="26.7099">
    <comp name="--.HHE">
      <acc value="0.1539164048" flag="0"/>
      <vel value="0.0190246282" flag="0"/>
      <psa03 value="0.1109188497" flag="0"/>
      <psa10 value="0.0221242053" flag="0"/>
      <psa30 value="0.0010004400" flag="0"/>
    </comp>
    <comp name="--.HHN">
      <acc value="0.1987649001" flag="0"/>
      <vel value="0.0169886941" flag="0"/>
      <psa03 value="0.0860908729" flag="0"/>
      <psa10 value="0.0164037294" flag="0"/>
      <psa30 value="0.0008851867" flag="0"/>
    </comp>
    <comp name="--.HHZ">
      <acc value="0.0827187527" flag="0"/>
      <vel value="0.0118304099" flag="0"/>
      <psa03 value="0.0695836205" flag="0"/>
      <psa10 value="0.0089286965" flag="0"/>
      <psa30 value="0.0004865056" flag="0"/>
    </comp>
  </station>
  <station code="ISR" name="ISR" netid="RO" insttype="CMG3ESP/Quanterra" lat="45.1187" lon="26.5432">
    <comp name="--.HHE">
      <acc value="0.0266424174" flag="0"/>
      <vel value="0.0067019942" flag="0"/>
      <psa03 value="0.0236157483" flag="0"/>
      <psa10 value="0.0093385750" flag="0"/>
      <psa30 value="0.0006026426" flag="0"/>
    </comp>
    <comp name="--.HHZ">
      <acc value="0.0092046747" flag="0"/>
      <vel value="0.0023915287" flag="0"/>
      <psa03 value="0.0142537084" flag="0"/>
      <psa10 value="0.0028586183" flag="0"/>
      <psa30 value="0.0001793070" flag="0"/>
    </comp>
    <comp name="--.HHN">
      <acc value="0.0270018385" flag="0"/>
      <vel value="0.0063620778" flag="0"/>
      <psa03 value="0.0262804959" flag="0"/>
      <psa10 value="0.0078136037" flag="0"/>
      <psa30 value="0.0004356041" flag="0"/>
    </comp>
  </station>
  <station code="IZVR" name="IZVR" netid="RO" insttype="CMG40T.1to100/Quanterra" lat="45.5442" lon="27.7655">
    <comp name="--.HHE">
      <acc value="0.0521643760" flag="0"/>
      <vel value="0.0113540484" flag="0"/>
      <psa03 value="0.0399871901" flag="0"/>
      <psa10 value="0.0056941759" flag="0"/>
      <psa30 value="0.0003777137" flag="0"/>
    </comp>
    <comp name="--.HHN">
      <acc value="0.0478384698" flag="0"/>
      <vel value="0.0164408279" flag="0"/>
      <psa03 value="0.0412106669" flag="0"/>
      <psa10 value="0.0026425467" flag="0"/>
      <psa30 value="0.0002703844" flag="0"/>
    </comp>
    <comp name="--.HHZ">
      <acc value="0.0316960357" flag="0"/>
      <vel value="0.0045575421" flag="0"/>
      <psa03 value="0.0126155316" flag="0"/>
      <psa10 value="0.0014283068" flag="0"/>
      <psa30 value="0.0000970931" flag="0"/>
    </comp>
  </station>
  <station code="LEHL" name="LEHL" netid="RO" insttype="Seismometer/Basalt" lat="44.4739" lon="26.8194">
    <comp name="--.HHE">
      <acc value="0.0145176449" flag="0"/>
      <vel value="0.0043270175" flag="0"/>
      <psa03 value="0.0156520240" flag="0"/>
      <psa10 value="0.0020933670" flag="0"/>
      <psa30 value="0.0003116728" flag="0"/>
    </comp>
    <comp name="--.HHZ">
      <acc value="0.0274175986" flag="0"/>
      <vel value="0.0021830455" flag="0"/>
      <psa03 value="0.0057290259" flag="0"/>
      <psa10 value="0.0004247707" flag="0"/>
      <psa30 value="0.0000488730" flag="0"/>
    </comp>
    <comp name="--.HHN">
      <acc value="0.0157458606" flag="0"/>
      <vel value="0.0069253427" flag="0"/>
      <psa03 value="0.0378421053" flag="0"/>
      <psa10 value="0.0025878877" flag="0"/>
      <psa30 value="0.0001805662" flag="0"/>
    </comp>
  </station>
  <station code="MLR" name="MLR" netid="RO" insttype="330HR" lat="45.4909" lon="25.945">
    <comp name="--.HHN">
      <acc value="0.0090251706" flag="0"/>
      <vel value="0.0062425424" flag="0"/>
      <psa03 value="0.0237874407" flag="0"/>
      <psa10 value="0.0057277547" flag="0"/>
      <psa30 value="0.0005596354" flag="0"/>
    </comp>
    <comp name="--.HHE">
      <acc value="0.0075161901" flag="0"/>
      <vel value="0.0081555311" flag="0"/>
      <psa03 value="0.0169840738" flag="0"/>
      <psa10 value="0.0064421430" flag="0"/>
      <psa30 value="0.0005678776" flag="0"/>
    </comp>
    <comp name="--.HHZ">
      <acc value="0.0053243058" flag="0"/>
      <vel value="0.0025251899" flag="0"/>
      <psa03 value="0.0126140333" flag="0"/>
      <psa10 value="0.0042311968" flag="0"/>
      <psa30 value="0.0002250633" flag="0"/>
    </comp>
  </station>
  <station code="MTUR" name="MTUR" netid="RO" insttype="200" lat="45.2349" lon="25.0739">
    <comp name="--.HNZ">
      <acc value="0.0070251118" flag="0"/>
      <vel value="0.0032467161" flag="0"/>
      <psa03 value="0.0137966388" flag="0"/>
      <psa10 value="0.0033322717" flag="0"/>
      <psa30 value="0.0001909705" flag="0"/>
    </comp>
    <comp name="--.HNN">
      <acc value="0.0165087683" flag="0"/>
      <vel value="0.0099918504" flag="0"/>
      <psa03 value="0.0271142112" flag="0"/>
      <psa10 value="0.0086312534" flag="0"/>
      <psa30 value="0.0007028655" flag="0"/>
    </comp>
    <comp name="--.HNE">
      <acc value="0.0103079977" flag="0"/>
      <vel value="0.0060364315" flag="0"/>
      <psa03 value="0.0212011803" flag="0"/>
      <psa10 value="0.0088566063" flag="0"/>
      <psa30 value="0.0005007760" flag="0"/>
    </comp>
  </station>
  <station code="NEHR" name="NEHR" netid="RO" insttype="Seismometer/Basalt" lat="45.4272" lon="26.2952">
    <comp name="--.HHE">
      <acc value="0.0225880622" flag="0"/>
      <vel value="0.0119129980" flag="0"/>
      <psa03 value="0.0848475945" flag="0"/>
      <psa10 value="0.0109943033" flag="0"/>
      <psa30 value="0.0004818702" flag="0"/>
    </comp>
    <comp name="--.HHZ">
      <acc value="0.0220973213" flag="0"/>
      <vel value="0.0076108055" flag="0"/>
      <psa03 value="0.0406781098" flag="0"/>
      <psa10 value="0.0033656869" flag="0"/>
      <psa30 value="0.0002735556" flag="0"/>
    </comp>
    <comp name="--.HHN">
      <acc value="0.0214166032" flag="0"/>
      <vel value="0.0126575518" flag="0"/>
      <psa03 value="0.0622978069" flag="0"/>
      <psa10 value="0.0089390282" flag="0"/>
      <psa30 value="0.0005412132" flag="0"/>
    </comp>
  </station>
  <station code="ODBI" name="ODBI" netid="RO" insttype="200" lat="45.7633" lon="27.0558">
    <comp name="--.HNZ">
      <acc value="0.0587148685" flag="0"/>
      <vel value="0.0112142192" flag="0"/>
      <psa03 value="0.0325978335" flag="0"/>
      <psa10 value="0.0044533909" flag="0"/>
      <psa30 value="0.0003194503" flag="0"/>
    </comp>
    <comp name="--.HNN">
      <acc value="0.0274660646" flag="0"/>
      <vel value="0.0061176003" flag="0"/>
      <psa03 value="0.0453148472" flag="0"/>
      <psa10 value="0.0054466209" flag="0"/>
      <psa30 value="0.0002941647" flag="0"/>
    </comp>
    <comp name="--.HNE">
      <acc value="0.0354226508" flag="0"/>
      <vel value="0.0069935975" flag="0"/>
      <psa03 value="0.0389851657" flag="0"/>
      <psa10 value="0.0048692214" flag="0"/>
      <psa30 value="0.0004333310" flag="0"/>
    </comp>
  </station>
  <station code="ONER" name="ONER" netid="RO" insttype="CMG40T.1to100/obsidian" lat="46.3349" lon="26.394">
    <comp name="--.HHE">
      <acc value="0.0025043956" flag="0"/>
      <vel value="0.0008927232" flag="0"/>
      <psa03 value="0.0047014119" flag="0"/>
      <psa10 value="0.0006886137" flag="0"/>
      <psa30 value="0.0000428058" flag="0"/>
    </comp>
    <comp name="--.HHZ">
      <acc value="0.0021933085" flag="0"/>
      <vel value="0.0006195103" flag="0"/>
      <psa03 value="0.0028838890" flag="0"/>
      <psa10 value="0.0007195515" flag="0"/>
      <psa30 value="0.0000385823" flag="0"/>
    </comp>
    <comp name="--.HHN">
      <acc value="0.0030911682" flag="0"/>
      <vel value="0.0007160086" flag="0"/>
      <psa03 value="0.0030001197" flag="0"/>
      <psa10 value="0.0006229151" flag="0"/>
      <psa30 value="0.0000357059" flag="0"/>
    </comp>
  </station>
  <station code="PANC" name="PANC" netid="RO" insttype="Seismometer/Basalt" lat="45.8723" lon="27.1477">
    <comp name="--.HHE">
      <acc value="0.0754372506" flag="0"/>
      <vel value="0.0099470202" flag="0"/>
      <psa03 value="0.0604468780" flag="0"/>
      <psa10 value="0.0043861779" flag="0"/>
      <psa30 value="0.0003911770" flag="0"/>
    </comp>
    <comp name="--.HHN">
      <acc value="0.1616691223" flag="0"/>
      <vel value="0.0143696045" flag="0"/>
      <psa03 value="0.0830722952" flag="0"/>
      <psa10 value="0.0069133212" flag="0"/>
      <psa30 value="0.0004352452" flag="0"/>
    </comp>
    <comp name="--.HHZ">
      <acc value="0.1692682958" flag="0"/>
      <vel value="0.0315596659" flag="0"/>
      <psa03 value="0.0480955744" flag="0"/>
      <psa10 value="0.0059728575" flag="0"/>
      <psa30 value="0.0004129660" flag="0"/>
    </comp>
  </station>
  <station code="PGOR" name="PGOR" netid="RO" insttype="CMG40T.1to100/Quanterra" lat="44.9199" lon="26.9768">
    <comp name="--.HHE">
      <acc value="0.0410497834" flag="0"/>
      <vel value="0.0136628844" flag="0"/>
      <psa03 value="0.0665556755" flag="0"/>
      <psa10 value="0.0091921794" flag="0"/>
      <psa30 value="0.0006731122" flag="0"/>
    </comp>
    <comp name="--.HHN">
      <acc value="0.0300099275" flag="0"/>
      <vel value="0.0106230106" flag="0"/>
      <psa03 value="0.0708450417" flag="0"/>
      <psa10 value="0.0061256908" flag="0"/>
      <psa30 value="0.0006358254" flag="0"/>
    </comp>
    <comp name="--.HHZ">
      <acc value="0.1093276581" flag="0"/>
      <vel value="0.0117361201" flag="0"/>
      <psa03 value="0.0165302452" flag="0"/>
      <psa10 value="0.0024805295" flag="0"/>
      <psa30 value="0.0002197991" flag="0"/>
    </comp>
  </station>
  <station code="PLAR" name="PLAR" netid="RO" insttype="200" lat="44.9142" lon="26.0274">
    <comp name="--.HNZ">
      <acc value="0.0915702453" flag="0"/>
      <vel value="0.0164858348" flag="0"/>
      <psa03 value="0.0287590364" flag="0"/>
      <psa10 value="0.0019859319" flag="0"/>
      <psa30 value="0.0002210544" flag="0"/>
    </comp>
    <comp name="--.HNN">
      <acc value="0.0357764783" flag="0"/>
      <vel value="0.0121873270" flag="0"/>
      <psa03 value="0.0542822446" flag="0"/>
      <psa10 value="0.0098853482" flag="0"/>
      <psa30 value="0.0006881953" flag="0"/>
    </comp>
    <comp name="--.HNE">
      <acc value="0.0476643452" flag="0"/>
      <vel value="0.0246249085" flag="0"/>
      <psa03 value="0.0662442238" flag="0"/>
      <psa10 value="0.0212322155" flag="0"/>
      <psa30 value="0.0014380928" flag="0"/>
    </comp>
  </station>
  <station code="PLOR" name="PLOR" netid="RO" insttype="330" lat="45.8512" lon="26.6498">
    <comp name="--.HHE">
      <acc value="0.0115997681" flag="0"/>
      <vel value="0.0070711416" flag="0"/>
      <psa03 value="0.0519601360" flag="0"/>
      <psa10 value="0.0023665234" flag="0"/>
      <psa30 value="0.0001833432" flag="0"/>
    </comp>
    <comp name="--.HHN">
      <acc value="0.0095066549" flag="0"/>
      <vel value="0.0042514860" flag="0"/>
      <psa03 value="0.0310543192" flag="0"/>
      <psa10 value="0.0028405895" flag="0"/>
      <psa30 value="0.0001605272" flag="0"/>
    </comp>
    <comp name="--.HHZ">
      <acc value="0.0058136657" flag="0"/>
      <vel value="0.0022504294" flag="0"/>
      <psa03 value="0.0195081609" flag="0"/>
      <psa10 value="0.0014586583" flag="0"/>
      <psa30 value="0.0000758283" flag="0"/>
    </comp>
  </station>
  <station code="PLOR4" name="PLOR4" netid="RO" insttype="330" lat="45.8512" lon="26.6498">
    <comp name="--.HHE">
      <acc value="0.0115997681" flag="0"/>
      <vel value="0.0070711416" flag="0"/>
      <psa03 value="0.0519601360" flag="0"/>
      <psa10 value="0.0023665234" flag="0"/>
      <psa30 value="0.0001833432" flag="0"/>
    </comp>
    <comp name="--.HHN">
      <acc value="0.0095066549" flag="0"/>
      <vel value="0.0042514860" flag="0"/>
      <psa03 value="0.0310543192" flag="0"/>
      <psa10 value="0.0028405895" flag="0"/>
      <psa30 value="0.0001605272" flag="0"/>
    </comp>
    <comp name="--.HHZ">
      <acc value="0.0058136657" flag="0"/>
      <vel value="0.0022504294" flag="0"/>
      <psa03 value="0.0195081609" flag="0"/>
      <psa10 value="0.0014586583" flag="0"/>
      <psa30 value="0.0000758283" flag="0"/>
    </comp>
  </station>
  <station code="SAHR" name="SAHR" netid="RO" insttype="2.5V" lat="45.7266" lon="26.6855">
    <comp name="--.HNN">
      <acc value="0.0271337315" flag="0"/>
      <vel value="0.0125733308" flag="0"/>
      <psa03 value="0.0900245537" flag="0"/>
      <psa10 value="0.0128756087" flag="0"/>
      <psa30 value="0.0005061061" flag="0"/>
    </comp>
    <comp name="--.HNZ">
      <acc value="0.0291136493" flag="0"/>
      <vel value="0.0071356303" flag="0"/>
      <psa03 value="0.0568907771" flag="0"/>
      <psa10 value="0.0035163928" flag="0"/>
      <psa30 value="0.0003760589" flag="0"/>
    </comp>
    <comp name="--.HNE">
      <acc value="0.0306340937" flag="0"/>
      <vel value="0.0106409168" flag="0"/>
      <psa03 value="0.0562913444" flag="0"/>
      <psa10 value="0.0066336814" flag="0"/>
      <psa30 value="0.0006479728" flag="0"/>
    </comp>
  </station>
  <station code="SCHLR" name="SCHLR" netid="RO" insttype="CMG40T.1to100/Quanterra" lat="45.4702" lon="27.8314">
    <comp name="--.HHE">
      <acc value="0.0364724207" flag="0"/>
      <vel value="0.0075355743" flag="0"/>
      <psa03 value="0.0298051151" flag="0"/>
      <psa10 value="0.0047311497" flag="0"/>
      <psa30 value="0.0002622803" flag="0"/>
    </comp>
    <comp name="--.HHZ">
      <acc value="0.0299014388" flag="0"/>
      <vel value="0.0035805074" flag="0"/>
      <psa03 value="0.0110145962" flag="0"/>
      <psa10 value="0.0010893089" flag="0"/>
      <psa30 value="0.0001053890" flag="0"/>
    </comp>
    <comp name="--.HHN">
      <acc value="0.0350736993" flag="0"/>
      <vel value="0.0092977568" flag="0"/>
      <psa03 value="0.0476942589" flag="0"/>
      <psa10 value="0.0033390000" flag="0"/>
      <psa30 value="0.0001698362" flag="0"/>
    </comp>
  </station>
  <station code="SULR" name="SULR" netid="RO" insttype="330" lat="44.6777" lon="26.2526">
    <comp name="--.HHE">
      <acc value="0.0585231724" flag="0"/>
      <vel value="0.0223495151" flag="0"/>
      <psa03 value="0.0797368402" flag="0"/>
      <psa10 value="0.0185732696" flag="0"/>
      <psa30 value="0.0014541609" flag="0"/>
    </comp>
    <comp name="--.HHZ">
      <acc value="0.0386257993" flag="0"/>
      <vel value="0.0059061272" flag="0"/>
      <psa03 value="0.0279931657" flag="0"/>
      <psa10 value="0.0021983468" flag="0"/>
      <psa30 value="0.0001465942" flag="0"/>
    </comp>
    <comp name="--.HHN">
      <acc value="0.0534433993" flag="0"/>
      <vel value="0.0194754971" flag="0"/>
      <psa03 value="0.0761352902" flag="0"/>
      <psa10 value="0.0067157523" flag="0"/>
      <psa30 value="0.0007352669" flag="0"/>
    </comp>
  </station>
  <station code="TESR" name="TESR" netid="RO" insttype="200" lat="46.5118" lon="26.6489">
    <comp name="--.HNZ">
      <acc value="0.0105481395" flag="0"/>
      <vel value="0.0014816799" flag="0"/>
      <psa03 value="0.0044807773" flag="0"/>
      <psa10 value="0.0005545135" flag="0"/>
      <psa30 value="0.0000736840" flag="0"/>
    </comp>
    <comp name="--.HNE">
      <acc value="0.0091997771" flag="0"/>
      <vel value="0.0023786462" flag="0"/>
      <psa03 value="0.0109912471" flag="0"/>
      <psa10 value="0.0017096517" flag="0"/>
      <psa30 value="0.0001417267" flag="0"/>
    </comp>
    <comp name="--.HNN">
      <acc value="0.0059741239" flag="0"/>
      <vel value="0.0023779859" flag="0"/>
      <psa03 value="0.0144553260" flag="0"/>
      <psa10 value="0.0018808719" flag="0"/>
      <psa30 value="0.0001685369" flag="0"/>
    </comp>
  </station>
  <station code="TUDR" name="TUDR" netid="RO" insttype="CMG40T.1to100/Quanterra" lat="45.5939" lon="27.6687">
    <comp name="--.HHE">
      <acc value="0.0839011160" flag="0"/>
      <vel value="0.0246194404" flag="0"/>
      <psa03 value="0.1194847258" flag="0"/>
      <psa10 value="0.0097511485" flag="0"/>
      <psa30 value="0.0006896197" flag="0"/>
    </comp>
    <comp name="--.HHZ">
      <acc value="0.1408566426" flag="0"/>
      <vel value="0.0145447901" flag="0"/>
      <psa03 value="0.0197175623" flag="0"/>
      <psa10 value="0.0021250468" flag="0"/>
      <psa30 value="0.0001998397" flag="0"/>
    </comp>
    <comp name="--.HHN">
      <acc value="0.0702678430" flag="0"/>
      <vel value="0.0240171120" flag="0"/>
      <psa03 value="0.1055172296" flag="0"/>
      <psa10 value="0.0049653155" flag="0"/>
      <psa30 value="0.0004456040" flag="0"/>
    </comp>
  </station>
  <station code="VOIR" name="VOIR" netid="RO" insttype="330" lat="45.4371" lon="25.0495">
    <comp name="--.HHN">
      <acc value="0.0043427064" flag="0"/>
      <vel value="0.0016678599" flag="0"/>
      <psa03 value="0.0089819320" flag="0"/>
      <psa10 value="0.0012415286" flag="0"/>
      <psa30 value="0.0001339166" flag="0"/>
    </comp>
    <comp name="--.HHE">
      <acc value="0.0048857890" flag="0"/>
      <vel value="0.0024279110" flag="0"/>
      <psa03 value="0.0180011447" flag="0"/>
      <psa10 value="0.0024863653" flag="0"/>
      <psa30 value="0.0001570164" flag="0"/>
    </comp>
    <comp name="--.HHZ">
      <acc value="0.0051639017" flag="0"/>
      <vel value="0.0014493963" flag="0"/>
      <psa03 value="0.0105818202" flag="0"/>
      <psa10 value="0.0011186195" flag="0"/>
      <psa30 value="0.0000818469" flag="0"/>
    </comp>
  </station>
  <station code="VRI" name="VRI" netid="RO" insttype="Linear" lat="45.8657" lon="26.7277">
    <comp name="--.HHE">
      <acc value="0.0453756114" flag="0"/>
      <vel value="0.0175834553" flag="0"/>
      <psa03 value="0.1712459313" flag="0"/>
      <psa10 value="0.0044297551" flag="0"/>
      <psa30 value="0.0005194660" flag="0"/>
    </comp>
    <comp name="--.HHN">
      <acc value="0.0227410808" flag="0"/>
      <vel value="0.0096199217" flag="0"/>
      <psa03 value="0.0758800150" flag="0"/>
      <psa10 value="0.0042524876" flag="0"/>
      <psa30 value="0.0003136378" flag="0"/>
    </comp>
    <comp name="--.HHZ">
      <acc value="0.0195964060" flag="0"/>
      <vel value="0.0034700035" flag="0"/>
      <psa03 value="0.0239670754" flag="0"/>
      <psa10 value="0.0022314458" flag="0"/>
      <psa30 value="0.0001578958" flag="0"/>
    </comp>
  </station>
</stationlist>
