<?xml version="1.0" encoding="UTF-8" standalone="yes"?>
<!DOCTYPE earthquake SYSTEM "stationlist.dtd">
<stationlist created="" xmlns="ch.ethz.sed.shakemap.usgs.xml">
  <station code="BISRR" name="BISRR" netid="RO" insttype="CMG40T.1to100/Basalt" lat="45.5481" lon="26.7099">
    <comp name="--.HHN">
      <acc value="0.1987648998" flag="0"/>
      <vel value="0.0169886901" flag="0"/>
      <psa03 value="0.0860908729" flag="0"/>
      <psa10 value="0.0164037294" flag="0"/>
      <psa30 value="0.0008851740" flag="0"/>
    </comp>
    <comp name="--.HHZ">
      <acc value="0.0827187523" flag="0"/>
      <vel value="0.0118304052" flag="0"/>
      <psa03 value="0.0695836204" flag="0"/>
      <psa10 value="0.0089286965" flag="0"/>
      <psa30 value="0.0004864744" flag="0"/>
    </comp>
    <comp name="--.HHE">
      <acc value="0.1539164046" flag="0"/>
      <vel value="0.0190246531" flag="0"/>
      <psa03 value="0.1109188497" flag="0"/>
      <psa10 value="0.0221242053" flag="0"/>
      <psa30 value="0.0010004350" flag="0"/>
    </comp>
  </station>
  <station code="ISR" name="ISR" netid="RO" insttype="CMG3ESP/Quanterra" lat="45.1187" lon="26.5432">
    <comp name="--.HHE">
      <acc value="0.0266424173" flag="0"/>
      <vel value="0.0067019964" flag="0"/>
      <psa03 value="0.0236157483" flag="0"/>
      <psa10 value="0.0093385750" flag="0"/>
      <psa30 value="0.0006026293" flag="0"/>
    </comp>
    <comp name="--.HHN">
      <acc value="0.0270018385" flag="0"/>
      <vel value="0.0063620758" flag="0"/>
      <psa03 value="0.0262804959" flag="0"/>
      <psa10 value="0.0078136037" flag="0"/>
      <psa30 value="0.0004356064" flag="0"/>
    </comp>
    <comp name="--.HHZ">
      <acc value="0.0092046745" flag="0"/>
      <vel value="0.0023915288" flag="0"/>
      <psa03 value="0.0142537084" flag="0"/>
      <psa10 value="0.0028586183" flag="0"/>
      <psa30 value="0.0001793039" flag="0"/>
    </comp>
  </station>
  <station code="IZVR" name="IZVR" netid="RO" insttype="CMG40T.1to100/Quanterra" lat="45.5442" lon="27.7655">
    <comp name="--.HHN">
      <acc value="0.0478384697" flag="0"/>
      <vel value="0.0164408285" flag="0"/>
      <psa03 value="0.0412106669" flag="0"/>
      <psa10 value="0.0026425467" flag="0"/>
      <psa30 value="0.0002703495" flag="0"/>
    </comp>
    <comp name="--.HHZ">
      <acc value="0.0316960355" flag="0"/>
      <vel value="0.0045575421" flag="0"/>
      <psa03 value="0.0126155316" flag="0"/>
      <psa10 value="0.0014283067" flag="0"/>
      <psa30 value="0.0000971099" flag="0"/>
    </comp>
    <comp name="--.HHE">
      <acc value="0.0521643759" flag="0"/>
      <vel value="0.0113540403" flag="0"/>
      <psa03 value="0.0399871900" flag="0"/>
      <psa10 value="0.0056941759" flag="0"/>
      <psa30 value="0.0003777461" flag="0"/>
    </comp>
  </station>
  <station code="LEHL" name="LEHL" netid="RO" insttype="Seismometer/Basalt" lat="44.4739" lon="26.8194">
    <comp name="--.HHN">
      <acc value="0.0157458607" flag="0"/>
      <vel value="0.0069253430" flag="0"/>
      <psa03 value="0.0378421053" flag="0"/>
      <psa10 value="0.0025878877" flag="0"/>
      <psa30 value="0.0001805813" flag="0"/>
    </comp>
    <comp name="--.HHZ">
      <acc value="0.0274175982" flag="0"/>
      <vel value="0.0021830457" flag="0"/>
      <psa03 value="0.0057290259" flag="0"/>
      <psa10 value="0.0004247738" flag="0"/>
      <psa30 value="0.0000488696" flag="0"/>
    </comp>
    <comp name="--.HHE">
      <acc value="0.0145176448" flag="0"/>
      <vel value="0.0043270173" flag="0"/>
      <psa03 value="0.0156520240" flag="0"/>
      <psa10 value="0.0020933670" flag="0"/>
      <psa30 value="0.0003116692" flag="0"/>
    </comp>
  </station>
  <station code="MLR" name="MLR" netid="RO" insttype="330HR" lat="45.4909" lon="25.945">
    <comp name="--.HHN">
      <acc value="0.0090251704" flag="0"/>
      <vel value="0.0062425424" flag="0"/>
      <psa03 value="0.0237874407" flag="0"/>
      <psa10 value="0.0057277547" flag="0"/>
      <psa30 value="0.0005596248" flag="0"/>
    </comp>
    <comp name="--.HHZ">
      <acc value="0.0053243058" flag="0"/>
      <vel value="0.0025251897" flag="0"/>
      <psa03 value="0.0126140333" flag="0"/>
      <psa10 value="0.0042311968" flag="0"/>
      <psa30 value="0.0002250376" flag="0"/>
    </comp>
    <comp name="--.HHE">
      <acc value="0.0075161902" flag="0"/>
      <vel value="0.0081555310" flag="0"/>
      <psa03 value="0.0169840738" flag="0"/>
      <psa10 value="0.0064421430" flag="0"/>
      <psa30 value="0.0005678634" flag="0"/>
    </comp>
  </station>
  <station code="MTUR" name="MTUR" netid="RO" insttype="200" lat="45.2349" lon="25.0739">
    <comp name="--.HNE">
      <acc value="0.0103079975" flag="0"/>
      <vel value="0.0060364311" flag="0"/>
      <psa03 value="0.0212011803" flag="0"/>
      <psa10 value="0.0088566063" flag="0"/>
      <psa30 value="0.0005008041" flag="0"/>
    </comp>
    <comp name="--.HNN">
      <acc value="0.0165087694" flag="0"/>
      <vel value="0.0099918502" flag="0"/>
      <psa03 value="0.0271142112" flag="0"/>
      <psa10 value="0.0086312534" flag="0"/>
      <psa30 value="0.0007028778" flag="0"/>
    </comp>
    <comp name="--.HNZ">
      <acc value="0.0070251121" flag="0"/>
      <vel value="0.0032467165" flag="0"/>
      <psa03 value="0.0137966388" flag="0"/>
      <psa10 value="0.0033322717" flag="0"/>
      <psa30 value="0.0001910184" flag="0"/>
    </comp>
  </station>
  <station code="NEHR" name="NEHR" netid="RO" insttype="Seismometer/Basalt" lat="45.4272" lon="26.2952">
    <comp name="--.HHN">
      <acc value="0.0214166030" flag="0"/>
      <vel value="0.0126575527" flag="0"/>
      <psa03 value="0.0622978069" flag="0"/>
      <psa10 value="0.0089390282" flag="0"/>
      <psa30 value="0.0005412329" flag="0"/>
    </comp>
    <comp name="--.HHE">
      <acc value="0.0225880623" flag="0"/>
      <vel value="0.0119129981" flag="0"/>
      <psa03 value="0.0848475945" flag="0"/>
      <psa10 value="0.0109943033" flag="0"/>
      <psa30 value="0.0004818685" flag="0"/>
    </comp>
    <comp name="--.HHZ">
      <acc value="0.0220973212" flag="0"/>
      <vel value="0.0076108055" flag="0"/>
      <psa03 value="0.0406781098" flag="0"/>
      <psa10 value="0.0033656869" flag="0"/>
      <psa30 value="0.0002735525" flag="0"/>
    </comp>
  </station>
  <station code="ODBI" name="ODBI" netid="RO" insttype="200" lat="45.7633" lon="27.0558">
    <comp name="--.HNN">
      <acc value="0.0274660641" flag="0"/>
      <vel value="0.0061176009" flag="0"/>
      <psa03 value="0.0453148472" flag="0"/>
      <psa10 value="0.0054466209" flag="0"/>
      <psa30 value="0.0002942409" flag="0"/>
    </comp>
    <comp name="--.HNE">
      <acc value="0.0354226508" flag="0"/>
      <vel value="0.0069935978" flag="0"/>
      <psa03 value="0.0389851657" flag="0"/>
      <psa10 value="0.0048692214" flag="0"/>
      <psa30 value="0.0004330329" flag="0"/>
    </comp>
  </station>
  <station code="ONER" name="ONER" netid="RO" insttype="CMG40T.1to100/obsidian" lat="46.3349" lon="26.394">
    <comp name="--.HHE">
      <acc value="0.0025043992" flag="0"/>
      <vel value="0.0008927222" flag="0"/>
      <psa03 value="0.0047014119" flag="0"/>
      <psa10 value="0.0006886137" flag="0"/>
      <psa30 value="0.0000427993" flag="0"/>
    </comp>
    <comp name="--.HHZ">
      <acc value="0.0021933084" flag="0"/>
      <vel value="0.0006195102" flag="0"/>
      <psa03 value="0.0028838890" flag="0"/>
      <psa10 value="0.0007195515" flag="0"/>
      <psa30 value="0.0000385794" flag="0"/>
    </comp>
    <comp name="--.HHN">
      <acc value="0.0030911708" flag="0"/>
      <vel value="0.0007160121" flag="0"/>
      <psa03 value="0.0030001197" flag="0"/>
      <psa10 value="0.0006229151" flag="0"/>
      <psa30 value="0.0000357191" flag="0"/>
    </comp>
  </station>
  <station code="PANC" name="PANC" netid="RO" insttype="Seismometer/Basalt" lat="45.8723" lon="27.1477">
    <comp name="--.HHE">
      <acc value="0.0754372510" flag="0"/>
      <vel value="0.0099470198" flag="0"/>
      <psa03 value="0.0604468780" flag="0"/>
      <psa10 value="0.0043861779" flag="0"/>
      <psa30 value="0.0003911864" flag="0"/>
    </comp>
    <comp name="--.HHN">
      <acc value="0.1616691222" flag="0"/>
      <vel value="0.0143696030" flag="0"/>
      <psa03 value="0.0830722952" flag="0"/>
      <psa10 value="0.0069133211" flag="0"/>
      <psa30 value="0.0004353327" flag="0"/>
    </comp>
    <comp name="--.HHZ">
      <acc value="0.1692682956" flag="0"/>
      <vel value="0.0315596646" flag="0"/>
      <psa03 value="0.0480955744" flag="0"/>
      <psa10 value="0.0059728599" flag="0"/>
      <psa30 value="0.0004133885" flag="0"/>
    </comp>
  </station>
  <station code="PGOR" name="PGOR" netid="RO" insttype="CMG40T.1to100/Quanterra" lat="44.9199" lon="26.9768">
    <comp name="--.HHE">
      <acc value="0.0410497834" flag="0"/>
      <vel value="0.0136628743" flag="0"/>
      <psa03 value="0.0665556756" flag="0"/>
      <psa10 value="0.0091921793" flag="0"/>
      <psa30 value="0.0006736211" flag="0"/>
    </comp>
    <comp name="--.HHN">
      <acc value="0.0300099278" flag="0"/>
      <vel value="0.0106230164" flag="0"/>
      <psa03 value="0.0708450417" flag="0"/>
      <psa10 value="0.0061256908" flag="0"/>
      <psa30 value="0.0006358727" flag="0"/>
    </comp>
    <comp name="--.HHZ">
      <acc value="0.1093276582" flag="0"/>
      <vel value="0.0117361086" flag="0"/>
      <psa03 value="0.0165302452" flag="0"/>
      <psa10 value="0.0024805121" flag="0"/>
      <psa30 value="0.0002199925" flag="0"/>
    </comp>
  </station>
  <station code="PLAR" name="PLAR" netid="RO" insttype="200" lat="44.9142" lon="26.0274">
    <comp name="--.HNZ">
      <acc value="0.0915702455" flag="0"/>
      <vel value="0.0164858331" flag="0"/>
      <psa03 value="0.0287590364" flag="0"/>
      <psa10 value="0.0019859312" flag="0"/>
      <psa30 value="0.0002217755" flag="0"/>
    </comp>
    <comp name="--.HNN">
      <acc value="0.0357764790" flag="0"/>
      <vel value="0.0121873291" flag="0"/>
      <psa03 value="0.0542822446" flag="0"/>
      <psa10 value="0.0098853480" flag="0"/>
      <psa30 value="0.0006882359" flag="0"/>
    </comp>
  </station>
  <station code="PLOR" name="PLOR" netid="RO" insttype="200" lat="45.8512" lon="26.6498">
    <comp name="--.HNE">
      <acc value="0.0254640037" flag="0"/>
      <vel value="0.0150245475" flag="0"/>
      <psa03 value="0.1115154386" flag="0"/>
      <psa10 value="0.0050766468" flag="0"/>
      <psa30 value="0.0003842314" flag="0"/>
    </comp>
    <comp name="--.HNZ">
      <acc value="0.0119648941" flag="0"/>
      <vel value="0.0045999521" flag="0"/>
      <psa03 value="0.0398690812" flag="0"/>
      <psa10 value="0.0029996046" flag="0"/>
      <psa30 value="0.0001554459" flag="0"/>
    </comp>
    <comp name="--.HNN">
      <acc value="0.0188970959" flag="0"/>
      <vel value="0.0083967377" flag="0"/>
      <psa03 value="0.0498606948" flag="0"/>
      <psa10 value="0.0052489689" flag="0"/>
      <psa30 value="0.0003137227" flag="0"/>
    </comp>
  </station>
  <station code="PLOR4" name="PLOR4" netid="RO" insttype="330" lat="45.8512" lon="26.6498">
    <comp name="--.HHE">
      <acc value="0.0115997680" flag="0"/>
      <vel value="0.0070711414" flag="0"/>
      <psa03 value="0.0519601360" flag="0"/>
      <psa10 value="0.0023665234" flag="0"/>
      <psa30 value="0.0001833313" flag="0"/>
    </comp>
    <comp name="--.HHN">
      <acc value="0.0095066548" flag="0"/>
      <vel value="0.0042514860" flag="0"/>
      <psa03 value="0.0310543192" flag="0"/>
      <psa10 value="0.0028405895" flag="0"/>
      <psa30 value="0.0001605372" flag="0"/>
    </comp>
  </station>
  <station code="SAHR" name="SAHR" netid="RO" insttype="2.5V" lat="45.7266" lon="26.6855">
    <comp name="--.HNE">
      <acc value="0.0306340952" flag="0"/>
      <vel value="0.0106409162" flag="0"/>
      <psa03 value="0.0562913444" flag="0"/>
      <psa10 value="0.0066336814" flag="0"/>
      <psa30 value="0.0006480352" flag="0"/>
    </comp>
    <comp name="--.HNZ">
      <acc value="0.0291136504" flag="0"/>
      <vel value="0.0071356316" flag="0"/>
      <psa03 value="0.0568907771" flag="0"/>
      <psa10 value="0.0035164133" flag="0"/>
      <psa30 value="0.0003771714" flag="0"/>
    </comp>
    <comp name="--.HNN">
      <acc value="0.0271337312" flag="0"/>
      <vel value="0.0125733301" flag="0"/>
      <psa03 value="0.0900245537" flag="0"/>
      <psa10 value="0.0128756088" flag="0"/>
      <psa30 value="0.0005061520" flag="0"/>
    </comp>
  </station>
  <station code="SCHLR" name="SCHLR" netid="RO" insttype="CMG40T.1to100/Quanterra" lat="45.4702" lon="27.8314">
    <comp name="--.HHE">
      <acc value="0.0364724207" flag="0"/>
      <vel value="0.0075355718" flag="0"/>
      <psa03 value="0.0298051151" flag="0"/>
      <psa10 value="0.0047311496" flag="0"/>
      <psa30 value="0.0002623058" flag="0"/>
    </comp>
    <comp name="--.HHN">
      <acc value="0.0350736994" flag="0"/>
      <vel value="0.0092977581" flag="0"/>
      <psa03 value="0.0476942589" flag="0"/>
      <psa10 value="0.0033390000" flag="0"/>
      <psa30 value="0.0001698459" flag="0"/>
    </comp>
    <comp name="--.HHZ">
      <acc value="0.0299014385" flag="0"/>
      <vel value="0.0035805064" flag="0"/>
      <psa03 value="0.0110145962" flag="0"/>
      <psa10 value="0.0010893090" flag="0"/>
      <psa30 value="0.0001053889" flag="0"/>
    </comp>
  </station>
  <station code="SULR" name="SULR" netid="RO" insttype="330" lat="44.6777" lon="26.2526">
    <comp name="--.HHE">
      <acc value="0.0585231725" flag="0"/>
      <vel value="0.0223495147" flag="0"/>
      <psa03 value="0.0797368402" flag="0"/>
      <psa10 value="0.0185732695" flag="0"/>
      <psa30 value="0.0014541701" flag="0"/>
    </comp>
    <comp name="--.HHN">
      <acc value="0.0534433993" flag="0"/>
      <vel value="0.0194754971" flag="0"/>
      <psa03 value="0.0761352902" flag="0"/>
      <psa10 value="0.0067157522" flag="0"/>
      <psa30 value="0.0007352593" flag="0"/>
    </comp>
    <comp name="--.HHZ">
      <acc value="0.0386257996" flag="0"/>
      <vel value="0.0059061269" flag="0"/>
      <psa03 value="0.0279931657" flag="0"/>
      <psa10 value="0.0021983468" flag="0"/>
      <psa30 value="0.0001465869" flag="0"/>
    </comp>
  </station>
  <station code="TUDR" name="TUDR" netid="RO" insttype="CMG40T.1to100/Quanterra" lat="45.5939" lon="27.6687">
    <comp name="--.HHE">
      <acc value="0.0839011161" flag="0"/>
      <vel value="0.0246194355" flag="0"/>
      <psa03 value="0.1194847258" flag="0"/>
      <psa10 value="0.0097511485" flag="0"/>
      <psa30 value="0.0006894559" flag="0"/>
    </comp>
    <comp name="--.HHZ">
      <acc value="0.1408566424" flag="0"/>
      <vel value="0.0145447924" flag="0"/>
      <psa03 value="0.0197175623" flag="0"/>
      <psa10 value="0.0021250467" flag="0"/>
      <psa30 value="0.0001998145" flag="0"/>
    </comp>
    <comp name="--.HHN">
      <acc value="0.0702678429" flag="0"/>
      <vel value="0.0240171123" flag="0"/>
      <psa03 value="0.1055172296" flag="0"/>
      <psa10 value="0.0049653158" flag="0"/>
      <psa30 value="0.0004456810" flag="0"/>
    </comp>
  </station>
  <station code="VOIR" name="VOIR" netid="RO" insttype="330" lat="45.4371" lon="25.0495">
    <comp name="--.HHE">
      <acc value="0.0048857887" flag="0"/>
      <vel value="0.0024279110" flag="0"/>
      <psa03 value="0.0180011447" flag="0"/>
      <psa10 value="0.0024863653" flag="0"/>
      <psa30 value="0.0001570020" flag="0"/>
    </comp>
    <comp name="--.HHZ">
      <acc value="0.0051639015" flag="0"/>
      <vel value="0.0014493962" flag="0"/>
      <psa03 value="0.0105818202" flag="0"/>
      <psa10 value="0.0011186195" flag="0"/>
      <psa30 value="0.0000818430" flag="0"/>
    </comp>
    <comp name="--.HHN">
      <acc value="0.0043427063" flag="0"/>
      <vel value="0.0016678597" flag="0"/>
      <psa03 value="0.0089819320" flag="0"/>
      <psa10 value="0.0012415286" flag="0"/>
      <psa30 value="0.0001339141" flag="0"/>
    </comp>
  </station>
  <station code="VRI" name="VRI" netid="RO" insttype="Linear" lat="45.8657" lon="26.7277">
    <comp name="--.HHE">
      <acc value="0.0453756116" flag="0"/>
      <vel value="0.0175834552" flag="0"/>
      <psa03 value="0.1712459313" flag="0"/>
      <psa10 value="0.0044297551" flag="0"/>
      <psa30 value="0.0005194637" flag="0"/>
    </comp>
    <comp name="--.HHN">
      <acc value="0.0227410805" flag="0"/>
      <vel value="0.0096199215" flag="0"/>
      <psa03 value="0.0758800150" flag="0"/>
      <psa10 value="0.0042524876" flag="0"/>
      <psa30 value="0.0003136467" flag="0"/>
    </comp>
    <comp name="--.HHZ">
      <acc value="0.0195964057" flag="0"/>
      <vel value="0.0034700032" flag="0"/>
      <psa03 value="0.0239670754" flag="0"/>
      <psa10 value="0.0022314458" flag="0"/>
      <psa30 value="0.0001578596" flag="0"/>
    </comp>
  </station>
</stationlist>
