<?xml version="1.0" encoding="UTF-8" standalone="yes"?>
<!DOCTYPE earthquake SYSTEM "stationlist.dtd">
<stationlist created="" xmlns="ch.ethz.sed.shakemap.usgs.xml">
  <station code="IMMV" name="IMMV" netid="GE" insttype="STS-2/N" lat="35.4606" lon="23.9811">
    <comp name="--.HHN">
      <acc value="0.0276773902" flag="0"/>
      <vel value="0.0132943719" flag="0"/>
      <psa03 value="0.0845571083" flag="0"/>
      <psa10 value="0.0165982994" flag="0"/>
      <psa30 value="0.0024675490" flag="0"/>
    </comp>
    <comp name="--.HHE">
      <acc value="0.0271802578" flag="0"/>
      <vel value="0.0201611988" flag="0"/>
      <psa03 value="0.0910804413" flag="0"/>
      <psa10 value="0.0251174233" flag="0"/>
      <psa30 value="0.0038408569" flag="0"/>
    </comp>
    <comp name="--.HHZ">
      <acc value="0.0238145920" flag="0"/>
      <vel value="0.0107755042" flag="0"/>
      <psa03 value="0.0575254919" flag="0"/>
      <psa10 value="0.0090290747" flag="0"/>
      <psa30 value="0.0012234711" flag="0"/>
    </comp>
  </station>
  <station code="CHAN" name="CHAN" netid="HC" insttype="120" lat="35.5193" lon="24.0428">
    <comp name="--.HHN">
      <acc value="0.0350306318" flag="0"/>
      <vel value="0.0380358657" flag="0"/>
      <psa03 value="0.0764568807" flag="0"/>
      <psa10 value="0.0885603973" flag="0"/>
      <psa30 value="0.0058548187" flag="0"/>
    </comp>
    <comp name="--.HHE">
      <acc value="0.0366336223" flag="0"/>
      <vel value="0.0418207620" flag="0"/>
      <psa03 value="0.0900952468" flag="0"/>
      <psa10 value="0.0542408757" flag="0"/>
      <psa30 value="0.0058564298" flag="0"/>
    </comp>
    <comp name="--.HHZ">
      <acc value="0.0266259912" flag="0"/>
      <vel value="0.0156505728" flag="0"/>
      <psa03 value="0.0680476874" flag="0"/>
      <psa10 value="0.0238921319" flag="0"/>
      <psa30 value="0.0028908708" flag="0"/>
    </comp>
  </station>
  <station code="GVDS" name="GVDS" netid="HC" insttype="60" lat="34.8389" lon="24.0585">
    <comp name="--.HHE">
      <acc value="0.2044309492" flag="0"/>
      <vel value="0.0467987498" flag="0"/>
      <psa03 value="0.2033396512" flag="0"/>
      <psa10 value="0.0211706095" flag="0"/>
      <psa30 value="0.0010434116" flag="0"/>
    </comp>
    <comp name="--.HHN">
      <acc value="0.2034355568" flag="0"/>
      <vel value="0.0591604330" flag="0"/>
      <psa03 value="0.4154625579" flag="0"/>
      <psa10 value="0.0297778194" flag="0"/>
      <psa30 value="0.0020836469" flag="0"/>
    </comp>
    <comp name="--.HHZ">
      <acc value="0.1130964937" flag="0"/>
      <vel value="0.0247903166" flag="0"/>
      <psa03 value="0.1544614372" flag="0"/>
      <psa10 value="0.0151366413" flag="0"/>
      <psa30 value="0.0013428994" flag="0"/>
    </comp>
  </station>
  <station code="IPPL" name="IPPL" netid="HC" insttype="60" lat="35.3486" lon="24.4632">
    <comp name="--.HHE">
      <acc value="0.0000000000" flag="0"/>
      <vel value="-100.0000000000" flag="0"/>
      <psa03 value="0.0000000000" flag="0"/>
      <psa10 value="0.0000000000" flag="0"/>
      <psa30 value="0.0000000000" flag="0"/>
    </comp>
    <comp name="--.HHN">
      <acc value="0.0000000000" flag="0"/>
      <vel value="-100.0000000000" flag="0"/>
      <psa03 value="0.0000000000" flag="0"/>
      <psa10 value="0.0000000000" flag="0"/>
      <psa30 value="0.0000000000" flag="0"/>
    </comp>
    <comp name="--.HHZ">
      <acc value="0.0100089404" flag="0"/>
      <vel value="0.0059106393" flag="0"/>
      <psa03 value="0.0302813794" flag="0"/>
      <psa10 value="0.0079424535" flag="0"/>
      <psa30 value="0.0008360532" flag="0"/>
    </comp>
  </station>
  <station code="KNDR" name="KNDR" netid="HC" insttype="120" lat="35.2348" lon="23.6248">
    <comp name="--.HHN">
      <acc value="0.0946685560" flag="0"/>
      <vel value="0.0481530185" flag="0"/>
      <psa03 value="0.2607491763" flag="0"/>
      <psa10 value="0.0446453993" flag="0"/>
      <psa30 value="0.0051197414" flag="0"/>
    </comp>
    <comp name="--.HHE">
      <acc value="0.1318518919" flag="0"/>
      <vel value="0.0539346373" flag="0"/>
      <psa03 value="0.3556010320" flag="0"/>
      <psa10 value="0.0643984536" flag="0"/>
      <psa30 value="0.0054568985" flag="0"/>
    </comp>
    <comp name="--.HHZ">
      <acc value="0.0681310614" flag="0"/>
      <vel value="0.0274603179" flag="0"/>
      <psa03 value="0.1628413887" flag="0"/>
      <psa10 value="0.0261429486" flag="0"/>
      <psa30 value="0.0029364685" flag="0"/>
    </comp>
  </station>
  <station code="ANKY" name="ANKY" netid="HL" insttype="60" lat="35.867" lon="23.3012">
    <comp name="--.HHE">
      <acc value="0.0059291339" flag="0"/>
      <vel value="0.0062842150" flag="0"/>
      <psa03 value="0.0173382156" flag="0"/>
      <psa10 value="0.0174163308" flag="0"/>
      <psa30 value="0.0021045974" flag="0"/>
    </comp>
    <comp name="--.HHZ">
      <acc value="0.0041515930" flag="0"/>
      <vel value="0.0052105262" flag="0"/>
      <psa03 value="0.0103794155" flag="0"/>
      <psa10 value="0.0082457524" flag="0"/>
      <psa30 value="0.0021144544" flag="0"/>
    </comp>
    <comp name="--.HHN">
      <acc value="0.0064563537" flag="0"/>
      <vel value="0.0069295720" flag="0"/>
      <psa03 value="0.0141929264" flag="0"/>
      <psa10 value="0.0124793860" flag="0"/>
      <psa30 value="0.0027974864" flag="0"/>
    </comp>
  </station>
  <station code="IMMV" name="IMMV" netid="HL" insttype="120" lat="35.4606" lon="23.9811">
    <comp name="--.HHE">
      <acc value="0.0267111610" flag="0"/>
      <vel value="0.0199471446" flag="0"/>
      <psa03 value="0.0886113334" flag="0"/>
      <psa10 value="0.0249459942" flag="0"/>
      <psa30 value="0.0038369728" flag="0"/>
    </comp>
    <comp name="--.HHN">
      <acc value="0.0270662782" flag="0"/>
      <vel value="0.0131465543" flag="0"/>
      <psa03 value="0.0823346420" flag="0"/>
      <psa10 value="0.0164784259" flag="0"/>
      <psa30 value="0.0024656432" flag="0"/>
    </comp>
    <comp name="--.HHZ">
      <acc value="0.0231593063" flag="0"/>
      <vel value="0.0105707319" flag="0"/>
      <psa03 value="0.0559486876" flag="0"/>
      <psa10 value="0.0089737114" flag="0"/>
      <psa30 value="0.0012239935" flag="0"/>
    </comp>
  </station>
  <station code="VAM" name="VAM" netid="HL" insttype="CMG3ESPC-120s" lat="35.407" lon="24.1997">
    <comp name="--.HHE">
      <acc value="0.0205212934" flag="0"/>
      <vel value="0.0127961893" flag="0"/>
      <psa03 value="0.0539335110" flag="0"/>
      <psa10 value="0.0249846674" flag="0"/>
      <psa30 value="0.0014470795" flag="0"/>
    </comp>
    <comp name="--.HHZ">
      <acc value="0.0126541236" flag="0"/>
      <vel value="0.0119640093" flag="0"/>
      <psa03 value="0.0327825206" flag="0"/>
      <psa10 value="0.0129106173" flag="0"/>
      <psa30 value="0.0009739359" flag="0"/>
    </comp>
    <comp name="--.HHN">
      <acc value="0.0221432549" flag="0"/>
      <vel value="0.0139846796" flag="0"/>
      <psa03 value="0.0702959661" flag="0"/>
      <psa10 value="0.0331306099" flag="0"/>
      <psa30 value="0.0028738802" flag="0"/>
    </comp>
  </station>
</stationlist>
