<?xml version="1.0" encoding="UTF-8" standalone="yes"?>
<!DOCTYPE earthquake SYSTEM "stationlist.dtd">
<stationlist created="" xmlns="ch.ethz.sed.shakemap.usgs.xml">
  <station code="IMMV" name="IMMV" netid="GE" insttype="STS-2/N" lat="35.4606" lon="23.9811">
    <comp name="--.HHN">
      <acc value="0.0276773909" flag="0"/>
      <vel value="0.0132943729" flag="0"/>
      <psa03 value="0.0845571083" flag="0"/>
      <psa10 value="0.0165982994" flag="0"/>
      <psa30 value="0.0024675214" flag="0"/>
    </comp>
    <comp name="--.HHE">
      <acc value="0.0271802580" flag="0"/>
      <vel value="0.0201611971" flag="0"/>
      <psa03 value="0.0910804413" flag="0"/>
      <psa10 value="0.0251174233" flag="0"/>
      <psa30 value="0.0038408005" flag="0"/>
    </comp>
    <comp name="--.HHZ">
      <acc value="0.0238145908" flag="0"/>
      <vel value="0.0107755042" flag="0"/>
      <psa03 value="0.0575254919" flag="0"/>
      <psa10 value="0.0090290747" flag="0"/>
      <psa30 value="0.0012234541" flag="0"/>
    </comp>
  </station>
  <station code="CHAN" name="CHAN" netid="HC" insttype="120" lat="35.5193" lon="24.0428">
    <comp name="--.HHE">
      <acc value="0.0366336203" flag="0"/>
      <vel value="0.0418207545" flag="0"/>
      <psa03 value="0.0900952468" flag="0"/>
      <psa10 value="0.0542408757" flag="0"/>
      <psa30 value="0.0058564761" flag="0"/>
    </comp>
    <comp name="--.HHZ">
      <acc value="0.0266259907" flag="0"/>
      <vel value="0.0156505742" flag="0"/>
      <psa03 value="0.0680476874" flag="0"/>
      <psa10 value="0.0238921319" flag="0"/>
      <psa30 value="0.0028909215" flag="0"/>
    </comp>
    <comp name="--.HHN">
      <acc value="0.0350306324" flag="0"/>
      <vel value="0.0380358661" flag="0"/>
      <psa03 value="0.0764568807" flag="0"/>
      <psa10 value="0.0885603973" flag="0"/>
      <psa30 value="0.0058547855" flag="0"/>
    </comp>
  </station>
  <station code="GVDS" name="GVDS" netid="HC" insttype="60" lat="34.8389" lon="24.0585">
    <comp name="--.HHE">
      <acc value="0.2044309492" flag="0"/>
      <vel value="0.0467987453" flag="0"/>
      <psa03 value="0.2033396512" flag="0"/>
      <psa10 value="0.0211706094" flag="0"/>
      <psa30 value="0.0010431253" flag="0"/>
    </comp>
    <comp name="--.HHN">
      <acc value="0.2034355564" flag="0"/>
      <vel value="0.0591604342" flag="0"/>
      <psa03 value="0.4154625579" flag="0"/>
      <psa10 value="0.0297778193" flag="0"/>
      <psa30 value="0.0020836691" flag="0"/>
    </comp>
    <comp name="--.HHZ">
      <acc value="0.1130964930" flag="0"/>
      <vel value="0.0247903170" flag="0"/>
      <psa03 value="0.1544614372" flag="0"/>
      <psa10 value="0.0151366413" flag="0"/>
      <psa30 value="0.0013428556" flag="0"/>
    </comp>
  </station>
  <station code="IMOD" name="IMOD" netid="HC" insttype="120" lat="34.9731" lon="24.7995">
    <comp name="--.HHN">
      <acc value="0.0190529713" flag="0"/>
      <vel value="0.0183088387" flag="0"/>
      <psa03 value="0.0647586723" flag="0"/>
      <psa10 value="0.0185326735" flag="0"/>
      <psa30 value="0.0025189707" flag="0"/>
    </comp>
    <comp name="--.HHE">
      <acc value="0.0128465279" flag="0"/>
      <vel value="0.0135377282" flag="0"/>
      <psa03 value="0.0710231089" flag="0"/>
      <psa10 value="0.0216055690" flag="0"/>
      <psa30 value="0.0022414825" flag="0"/>
    </comp>
    <comp name="--.HHZ">
      <acc value="0.0088897656" flag="0"/>
      <vel value="0.0065346510" flag="0"/>
      <psa03 value="0.0194791925" flag="0"/>
      <psa10 value="0.0063049385" flag="0"/>
      <psa30 value="0.0009507462" flag="0"/>
    </comp>
  </station>
  <station code="IPPL" name="IPPL" netid="HC" insttype="60" lat="35.3486" lon="24.4632">
    <comp name="--.HHE">
      <acc value="0.0000000000" flag="0"/>
      <vel value="-100.0000000000" flag="0"/>
      <psa03 value="0.0000000000" flag="0"/>
      <psa10 value="0.0000000000" flag="0"/>
      <psa30 value="0.0000000000" flag="0"/>
    </comp>
    <comp name="--.HHZ">
      <acc value="0.0100089397" flag="0"/>
      <vel value="0.0059106395" flag="0"/>
      <psa03 value="0.0302813794" flag="0"/>
      <psa10 value="0.0079424535" flag="0"/>
      <psa30 value="0.0008360387" flag="0"/>
    </comp>
    <comp name="--.HHN">
      <acc value="0.0000000000" flag="0"/>
      <vel value="-100.0000000000" flag="0"/>
      <psa03 value="0.0000000000" flag="0"/>
      <psa10 value="0.0000000000" flag="0"/>
      <psa30 value="0.0000000000" flag="0"/>
    </comp>
  </station>
  <station code="KNDR" name="KNDR" netid="HC" insttype="120" lat="35.2348" lon="23.6248">
    <comp name="--.HHZ">
      <acc value="0.0681310617" flag="0"/>
      <vel value="0.0274603186" flag="0"/>
      <psa03 value="0.1628413887" flag="0"/>
      <psa10 value="0.0261429486" flag="0"/>
      <psa30 value="0.0029364535" flag="0"/>
    </comp>
    <comp name="--.HHN">
      <acc value="0.0946685561" flag="0"/>
      <vel value="0.0481530191" flag="0"/>
      <psa03 value="0.2607491763" flag="0"/>
      <psa10 value="0.0446453994" flag="0"/>
      <psa30 value="0.0051196774" flag="0"/>
    </comp>
    <comp name="--.HHE">
      <acc value="0.1318518916" flag="0"/>
      <vel value="0.0539346379" flag="0"/>
      <psa03 value="0.3556010320" flag="0"/>
      <psa10 value="0.0643984538" flag="0"/>
      <psa30 value="0.0054568727" flag="0"/>
    </comp>
  </station>
  <station code="ANKY" name="ANKY" netid="HL" insttype="60" lat="35.867" lon="23.3012">
    <comp name="--.HHZ">
      <acc value="0.0041515931" flag="0"/>
      <vel value="0.0052105267" flag="0"/>
      <psa03 value="0.0103794155" flag="0"/>
      <psa10 value="0.0082457524" flag="0"/>
      <psa30 value="0.0021144493" flag="0"/>
    </comp>
    <comp name="--.HHE">
      <acc value="0.0059291327" flag="0"/>
      <vel value="0.0062842155" flag="0"/>
      <psa03 value="0.0173382156" flag="0"/>
      <psa10 value="0.0174163308" flag="0"/>
      <psa30 value="0.0021045974" flag="0"/>
    </comp>
    <comp name="--.HHN">
      <acc value="0.0064563555" flag="0"/>
      <vel value="0.0069295705" flag="0"/>
      <psa03 value="0.0141929264" flag="0"/>
      <psa10 value="0.0124793861" flag="0"/>
      <psa30 value="0.0027974877" flag="0"/>
    </comp>
  </station>
  <station code="IDI" name="IDI" netid="HL" insttype="120" lat="35.288" lon="24.89">
    <comp name="--.HHZ">
      <acc value="0.0033039308" flag="0"/>
      <vel value="0.0028353676" flag="0"/>
      <psa03 value="0.0070626582" flag="0"/>
      <psa10 value="0.0038724643" flag="0"/>
      <psa30 value="0.0005371141" flag="0"/>
    </comp>
    <comp name="--.HHN">
      <acc value="0.0046466193" flag="0"/>
      <vel value="0.0042166932" flag="0"/>
      <psa03 value="0.0105519057" flag="0"/>
      <psa10 value="0.0045839224" flag="0"/>
      <psa30 value="0.0006694564" flag="0"/>
    </comp>
    <comp name="--.HHE">
      <acc value="0.0039823225" flag="0"/>
      <vel value="0.0026120532" flag="0"/>
      <psa03 value="0.0068062529" flag="0"/>
      <psa10 value="0.0053773144" flag="0"/>
      <psa30 value="0.0005350354" flag="0"/>
    </comp>
  </station>
  <station code="IMMV" name="IMMV" netid="HL" insttype="120" lat="35.4606" lon="23.9811">
    <comp name="--.HHE">
      <acc value="0.0267111612" flag="0"/>
      <vel value="0.0199471429" flag="0"/>
      <psa03 value="0.0886113334" flag="0"/>
      <psa10 value="0.0249459943" flag="0"/>
      <psa30 value="0.0038369165" flag="0"/>
    </comp>
    <comp name="--.HHZ">
      <acc value="0.0231593050" flag="0"/>
      <vel value="0.0105707319" flag="0"/>
      <psa03 value="0.0559486876" flag="0"/>
      <psa10 value="0.0089737114" flag="0"/>
      <psa30 value="0.0012239765" flag="0"/>
    </comp>
    <comp name="--.HHN">
      <acc value="0.0270662789" flag="0"/>
      <vel value="0.0131465554" flag="0"/>
      <psa03 value="0.0823346420" flag="0"/>
      <psa10 value="0.0164784259" flag="0"/>
      <psa30 value="0.0024656154" flag="0"/>
    </comp>
  </station>
  <station code="SIVA" name="SIVA" netid="HL" insttype="60" lat="35.0178" lon="24.812">
    <comp name="--.HHE">
      <acc value="0.0255964577" flag="0"/>
      <vel value="0.0237327078" flag="0"/>
      <psa03 value="0.0636603416" flag="0"/>
      <psa10 value="0.0419127100" flag="0"/>
      <psa30 value="0.0020007337" flag="0"/>
    </comp>
    <comp name="--.HHZ">
      <acc value="0.0097641421" flag="0"/>
      <vel value="0.0063605622" flag="0"/>
      <psa03 value="0.0242836742" flag="0"/>
      <psa10 value="0.0093474640" flag="0"/>
      <psa30 value="0.0012521600" flag="0"/>
    </comp>
    <comp name="--.HHN">
      <acc value="0.0155902339" flag="0"/>
      <vel value="0.0121686361" flag="0"/>
      <psa03 value="0.0473122319" flag="0"/>
      <psa10 value="0.0243777959" flag="0"/>
      <psa30 value="0.0015997480" flag="0"/>
    </comp>
  </station>
  <station code="VAM" name="VAM" netid="HL" insttype="CMG3ESPC-120s" lat="35.407" lon="24.1997">
    <comp name="--.HHE">
      <acc value="0.0205212927" flag="0"/>
      <vel value="0.0127961903" flag="0"/>
      <psa03 value="0.0539335110" flag="0"/>
      <psa10 value="0.0249846675" flag="0"/>
      <psa30 value="0.0014471042" flag="0"/>
    </comp>
    <comp name="--.HHN">
      <acc value="0.0221432537" flag="0"/>
      <vel value="0.0139846787" flag="0"/>
      <psa03 value="0.0702959661" flag="0"/>
      <psa10 value="0.0331306099" flag="0"/>
      <psa30 value="0.0028738671" flag="0"/>
    </comp>
    <comp name="--.HHZ">
      <acc value="0.0126541225" flag="0"/>
      <vel value="0.0119640090" flag="0"/>
      <psa03 value="0.0327825206" flag="0"/>
      <psa10 value="0.0129106173" flag="0"/>
      <psa30 value="0.0009739660" flag="0"/>
    </comp>
  </station>
  <station code="IDI" name="IDI" netid="MN" insttype="" lat="35.288" lon="24.89">
    <comp name="--.HHE">
      <acc value="0.0040468672" flag="0"/>
      <vel value="0.0025927613" flag="0"/>
      <psa03 value="0.0068210472" flag="0"/>
      <psa10 value="0.0053396011" flag="0"/>
      <psa30 value="0.0005287029" flag="0"/>
    </comp>
    <comp name="--.HHZ">
      <acc value="0.0033507284" flag="0"/>
      <vel value="0.0028357315" flag="0"/>
      <psa03 value="0.0071531563" flag="0"/>
      <psa10 value="0.0038380434" flag="0"/>
      <psa30 value="0.0005306120" flag="0"/>
    </comp>
    <comp name="--.HHN">
      <acc value="0.0047087783" flag="0"/>
      <vel value="0.0041975271" flag="0"/>
      <psa03 value="0.0106021310" flag="0"/>
      <psa10 value="0.0045552594" flag="0"/>
      <psa30 value="0.0006611483" flag="0"/>
    </comp>
  </station>
</stationlist>
