<stationlist xmlns:esm="https://esm-db.eu/esmws/shakemap/1/" created="1784080600">
	<station code="ABEA" name="ABEA" netid="HC" source="Seismological Network of Crete (HC)" insttype="" lat="35.5163" lon="24.0113" esm:processing="manual (Paolucci et al 2011)" esm:quality="good">
		<comp name="--.HNE" depth="0.0">
			<acc value="0.0173335670785038" flag="0"/>
			<vel value="0.0198474673794765" flag="0"/>
			<psa03 value="0.0591888428453547" flag="0"/>
			<psa10 value="0.0348021517217515" flag="0"/>
			<psa30 value="0.00556632124146416" flag="0"/>
		</comp>
		<comp name="--.HNN" depth="0.0">
			<acc value="0.0318092600129779" flag="0"/>
			<vel value="0.0256825508248288" flag="0"/>
			<psa03 value="0.132396728966858" flag="0"/>
			<psa10 value="0.0500813238919214" flag="0"/>
			<psa30 value="0.00457501390555157" flag="0"/>
		</comp>
		<comp name="--.HNZ" depth="0.0">
			<acc value="0.0111627453074326" flag="0"/>
			<vel value="0.0140154348765446" flag="0"/>
			<psa03 value="0.0303934769603518" flag="0"/>
			<psa10 value="0.0260149502377785" flag="0"/>
			<psa30 value="0.00265888926336454" flag="0"/>
		</comp>
	</station>
	<station code="ATEI" name="ATEI" netid="HC" source="Seismological Network of Crete (HC)" insttype="" lat="35.5193" lon="24.0432" esm:processing="manual (Paolucci et al 2011)" esm:quality="good">
		<comp name="--.HNE" depth="0.0">
			<acc value="0.0207544167601818" flag="0"/>
			<vel value="0.0228327697734913" flag="0"/>
			<psa03 value="0.0461793872827708" flag="0"/>
			<psa10 value="0.0333018535843629" flag="0"/>
			<psa30 value="0.0035225358507124" flag="0"/>
		</comp>
		<comp name="--.HNN" depth="0.0">
			<acc value="0.0173828776346236" flag="0"/>
			<vel value="0.0210452975858539" flag="0"/>
			<psa03 value="0.0445092922721727" flag="0"/>
			<psa10 value="0.0455318262600311" flag="0"/>
			<psa30 value="0.00260069186640595" flag="0"/>
		</comp>
		<comp name="--.HNZ" depth="0.0">
			<acc value="0.0135503058193261" flag="0"/>
			<vel value="0.00853076722825759" flag="0"/>
			<psa03 value="0.0356258392036714" flag="0"/>
			<psa10 value="0.0129575986898206" flag="0"/>
			<psa30 value="0.00161192646971769" flag="0"/>
		</comp>
	</station>
	<station code="LENT" name="LENT" netid="HC" source="Seismological Network of Crete (HC)" insttype="" lat="35.5074" lon="24.0402" esm:processing="manual (Paolucci et al 2011)" esm:quality="good">
		<comp name="--.HNE" depth="0.0">
			<acc value="0.0183618664969742" flag="0"/>
			<vel value="0.0172984423528758" flag="0"/>
			<psa03 value="0.0654810878007023" flag="0"/>
			<psa10 value="0.0327227214697026" flag="0"/>
			<psa30 value="0.00359480897178531" flag="0"/>
		</comp>
		<comp name="--.HNN" depth="0.0">
			<acc value="0.0260697690409364" flag="0"/>
			<vel value="0.0253791045067965" flag="0"/>
			<psa03 value="0.0513092531528753" flag="0"/>
			<psa10 value="0.0352896540163859" flag="0"/>
			<psa30 value="0.00299910763449526" flag="0"/>
		</comp>
		<comp name="--.HNZ" depth="0.0">
			<acc value="0.0172497404133297" flag="0"/>
			<vel value="0.0149525671615912" flag="0"/>
			<psa03 value="0.0513671632391343" flag="0"/>
			<psa10 value="0.0162592002172184" flag="0"/>
			<psa30 value="0.00195855161943271" flag="0"/>
		</comp>
	</station>
	<station code="PASK" name="PASK" netid="HC" source="Seismological Network of Crete (HC)" insttype="" lat="35.4996" lon="24.0121" esm:processing="manual (Paolucci et al 2011)" esm:quality="good">
		<comp name="--.HNE" depth="0.0">
			<acc value="0.0390990514257316" flag="0"/>
			<vel value="0.0284948175967771" flag="0"/>
			<psa03 value="0.122163957345958" flag="0"/>
			<psa10 value="0.0410665254557674" flag="0"/>
			<psa30 value="0.00444310766741066" flag="0"/>
		</comp>
		<comp name="--.HNN" depth="0.0">
			<acc value="0.0317147726312389" flag="0"/>
			<vel value="0.0245167113234547" flag="0"/>
			<psa03 value="0.105148673916937" flag="0"/>
			<psa10 value="0.0458743477003955" flag="0"/>
			<psa30 value="0.00358666843251453" flag="0"/>
		</comp>
		<comp name="--.HNZ" depth="0.0">
			<acc value="0.0191198626603125" flag="0"/>
			<vel value="0.0119340833555805" flag="0"/>
			<psa03 value="0.0969820912542488" flag="0"/>
			<psa10 value="0.0247624253891543" flag="0"/>
			<psa30 value="0.00211158092353975" flag="0"/>
		</comp>
	</station>
	<station code="ARK1" name="ARK1" netid="HI" source="ITSAK Strong Motion Network" insttype="" lat="35.148777" lon="25.264194" esm:processing="manual (Paolucci et al 2011)" esm:quality="good">
		<comp name="--.HNE" depth="0.0">
			<acc value="0.00752509671967913" flag="0"/>
			<vel value="0.00682166689889015" flag="0"/>
			<psa03 value="0.0141430762323064" flag="0"/>
			<psa10 value="0.0110565705685373" flag="0"/>
			<psa30 value="0.0021032776651563" flag="0"/>
		</comp>
		<comp name="--.HNN" depth="0.0">
			<acc value="0.00483793103689633" flag="0"/>
			<vel value="0.00723836454276732" flag="0"/>
			<psa03 value="0.0130558310305644" flag="0"/>
			<psa10 value="0.00858120877546698" flag="0"/>
			<psa30 value="0.00234630126427704" flag="0"/>
		</comp>
		<comp name="--.HNZ" depth="0.0">
			<acc value="0.0031804587689191" flag="0"/>
			<vel value="0.00389380788381451" flag="0"/>
			<psa03 value="0.00944597991647767" flag="0"/>
			<psa10 value="0.00732523322950107" flag="0"/>
			<psa30 value="0.000842402523782903" flag="0"/>
		</comp>
	</station>
	<station code="CH01" name="CH01" netid="HI" source="ITSAK Strong Motion Network" insttype="" lat="35.517" lon="24.0208" esm:processing="automatic (Paolucci et al 2011)" esm:quality="best">
		<comp name="--.HNE" depth="0.0">
			<acc value="0.0215022816657152" flag="0"/>
			<vel value="0.0248476570896911" flag="0"/>
			<psa03 value="0.0603324186014246" flag="0"/>
			<psa10 value="0.0450896982213046" flag="0"/>
			<psa30 value="0.00610708289760484" flag="0"/>
		</comp>
		<comp name="--.HNN" depth="0.0">
			<acc value="0.0202530854261873" flag="0"/>
			<vel value="0.0274627616574519" flag="0"/>
			<psa03 value="0.0579942949624273" flag="0"/>
			<psa10 value="0.0343097591031596" flag="0"/>
			<psa30 value="0.00430297921792228" flag="0"/>
		</comp>
		<comp name="--.HNZ" depth="0.0">
			<acc value="0.0132332495625918" flag="0"/>
			<vel value="0.0128300959123241" flag="0"/>
			<psa03 value="0.0310141873501972" flag="0"/>
			<psa10 value="0.0219501572151808" flag="0"/>
			<psa30 value="0.00232061852125426" flag="0"/>
		</comp>
	</station>
	<station code="CH02" name="CH02" netid="HI" source="ITSAK Strong Motion Network" insttype="" lat="35.5145" lon="24.0315" esm:processing="manual (Paolucci et al 2011)" esm:quality="good">
		<comp name="--.HNE" depth="0.0">
			<acc value="0.019199644221581" flag="0"/>
			<vel value="0.0175315919861188" flag="0"/>
			<psa03 value="0.0643388819268355" flag="0"/>
			<psa10 value="0.029548089290901" flag="0"/>
			<psa30 value="0.00518188369102983" flag="0"/>
		</comp>
		<comp name="--.HNN" depth="0.0">
			<acc value="0.023239920164704" flag="0"/>
			<vel value="0.0198446959039001" flag="0"/>
			<psa03 value="0.0580872073674109" flag="0"/>
			<psa10 value="0.0440853066852084" flag="0"/>
			<psa30 value="0.00338927973148182" flag="0"/>
		</comp>
		<comp name="--.HNZ" depth="0.0">
			<acc value="0.0137989335774431" flag="0"/>
			<vel value="0.0119913875429829" flag="0"/>
			<psa03 value="0.0253402958577368" flag="0"/>
			<psa10 value="0.032558276826052" flag="0"/>
			<psa30 value="0.00193328182043255" flag="0"/>
		</comp>
	</station>
	<station code="CH03" name="CH03" netid="HI" source="ITSAK Strong Motion Network" insttype="" lat="35.53303" lon="24.0705" esm:processing="automatic (Paolucci et al 2011)" esm:quality="best">
		<comp name="--.HNE" depth="0.0">
			<acc value="0.0128547129251842" flag="0"/>
			<vel value="0.0159218549901855" flag="0"/>
			<psa03 value="0.0287847245550889" flag="0"/>
			<psa10 value="0.0235871462826987" flag="0"/>
			<psa30 value="0.0030952423362789" flag="0"/>
		</comp>
		<comp name="--.HNN" depth="0.0">
			<acc value="0.0130896646203035" flag="0"/>
			<vel value="0.0168306400505939" flag="0"/>
			<psa03 value="0.0388827841269519" flag="0"/>
			<psa10 value="0.0371201990310142" flag="0"/>
			<psa30 value="0.00300603955203419" flag="0"/>
		</comp>
		<comp name="--.HNZ" depth="0.0">
			<acc value="0.00975037145252849" flag="0"/>
			<vel value="0.00788869256980405" flag="0"/>
			<psa03 value="0.0210466403303919" flag="0"/>
			<psa10 value="0.0134966537745564" flag="0"/>
			<psa30 value="0.00148368807872221" flag="0"/>
		</comp>
	</station>
	<station code="GOR1" name="GOR1" netid="HI" source="ITSAK Strong Motion Network" insttype="" lat="35.0582" lon="24.9628" esm:processing="manual (Paolucci et al 2011)" esm:quality="good">
		<comp name="--.HNE" depth="0.0">
			<acc value="0.00906790355302403" flag="0"/>
			<vel value="0.0121907285171724" flag="0"/>
			<psa03 value="0.0211141278740156" flag="0"/>
			<psa10 value="0.0166453632986273" flag="0"/>
			<psa30 value="0.00299639370471073" flag="0"/>
		</comp>
		<comp name="--.HNN" depth="0.0">
			<acc value="0.00723255723777315" flag="0"/>
			<vel value="0.00914686344946469" flag="0"/>
			<psa03 value="0.020753438615539" flag="0"/>
			<psa10 value="0.0124697298084015" flag="0"/>
			<psa30 value="0.00451038295740178" flag="0"/>
		</comp>
		<comp name="--.HNZ" depth="0.0">
			<acc value="0.0075637255364583" flag="0"/>
			<vel value="0.00743028031787766" flag="0"/>
			<psa03 value="0.0173901012276101" flag="0"/>
			<psa10 value="0.0109963265776686" flag="0"/>
			<psa30 value="0.00161680335528743" flag="0"/>
		</comp>
	</station>
	<station code="KIS1" name="KIS1" netid="HI" source="ITSAK Strong Motion Network" insttype="" lat="35.493933" lon="23.658993" esm:processing="manual (Paolucci et al 2011)" esm:quality="good">
		<comp name="--.HNE" depth="0.0">
			<acc value="0.0379357121354395" flag="0"/>
			<vel value="0.0277935156345072" flag="0"/>
			<psa03 value="0.100198700172137" flag="0"/>
			<psa10 value="0.0502277598425845" flag="0"/>
			<psa30 value="0.00352420137771206" flag="0"/>
		</comp>
		<comp name="--.HNN" depth="0.0">
			<acc value="0.0389969107367882" flag="0"/>
			<vel value="0.0306098808844956" flag="0"/>
			<psa03 value="0.151943252994812" flag="0"/>
			<psa10 value="0.046066731694891" flag="0"/>
			<psa30 value="0.0030303936653746" flag="0"/>
		</comp>
		<comp name="--.HNZ" depth="0.0">
			<acc value="0.0238091567740722" flag="0"/>
			<vel value="0.0259139919630654" flag="0"/>
			<psa03 value="0.0525571587371625" flag="0"/>
			<psa10 value="0.0325954492885452" flag="0"/>
			<psa30 value="0.00224219353431753" flag="0"/>
		</comp>
	</station>
	<station code="CHNB" name="CHNB" netid="HL" source="National Observatory of Athens Seismic Network" insttype="" lat="35.48765" lon="24.06605" esm:processing="manual (Paolucci et al 2011)" esm:quality="best">
		<comp name="00.HNE" depth="0.0">
			<acc value="0.0792963684176014" flag="0"/>
			<vel value="0.0757827275401176" flag="0"/>
			<psa03 value="0.219073700057641" flag="0"/>
			<psa10 value="0.102117952313259" flag="0"/>
			<psa30 value="0.00405456359493869" flag="0"/>
		</comp>
		<comp name="00.HNN" depth="0.0">
			<acc value="0.0686642900984578" flag="0"/>
			<vel value="0.0528297173877397" flag="0"/>
			<psa03 value="0.227802632473163" flag="0"/>
			<psa10 value="0.0915026566018479" flag="0"/>
			<psa30 value="0.00340129386069006" flag="0"/>
		</comp>
		<comp name="00.HNZ" depth="0.0">
			<acc value="0.0534100172604286" flag="0"/>
			<vel value="0.0366328678125417" flag="0"/>
			<psa03 value="0.242429205578632" flag="0"/>
			<psa10 value="0.0299020039859994" flag="0"/>
			<psa30 value="0.00151328868544943" flag="0"/>
		</comp>
	</station>
	<station code="IMMV" name="IMMV" netid="HL" source="National Observatory of Athens Seismic Network" insttype="" lat="35.4606" lon="23.9811" esm:processing="manual (Paolucci et al 2011)" esm:quality="best">
		<comp name="--.HNE" depth="0.0">
			<acc value="0.0254714676757897" flag="0"/>
			<vel value="0.0194516311920264" flag="0"/>
			<psa03 value="0.0861296848357135" flag="0"/>
			<psa10 value="0.0241295484641442" flag="0"/>
			<psa30 value="0.00401071485684022" flag="0"/>
		</comp>
		<comp name="--.HNN" depth="0.0">
			<acc value="0.0263974015713846" flag="0"/>
			<vel value="0.0128342474125492" flag="0"/>
			<psa03 value="0.0783587481740899" flag="0"/>
			<psa10 value="0.0161801806075744" flag="0"/>
			<psa30 value="0.00264799916695034" flag="0"/>
		</comp>
		<comp name="--.HNZ" depth="0.0">
			<acc value="0.0229008666466183" flag="0"/>
			<vel value="0.0105750517619932" flag="0"/>
			<psa03 value="0.054370971601843" flag="0"/>
			<psa10 value="0.00900266356979319" flag="0"/>
			<psa30 value="0.00135572699776148" flag="0"/>
		</comp>
	</station>
	<station code="SIVA" name="SIVA" netid="HL" source="National Observatory of Athens Seismic Network" insttype="" lat="35.01777" lon="24.81204" esm:processing="manual (Paolucci et al 2011)" esm:quality="best">
		<comp name="00.HNE" depth="0.0">
			<acc value="0.0236365578984618" flag="0"/>
			<vel value="0.0224457648955881" flag="0"/>
			<psa03 value="0.0596804899977099" flag="0"/>
			<psa10 value="0.0389086512571736" flag="0"/>
			<psa30 value="0.00209989035742823" flag="0"/>
		</comp>
		<comp name="00.HNN" depth="0.0">
			<acc value="0.0164945425560477" flag="0"/>
			<vel value="0.0130643669486134" flag="0"/>
			<psa03 value="0.0517877067232834" flag="0"/>
			<psa10 value="0.0282688701739268" flag="0"/>
			<psa30 value="0.00198927677982361" flag="0"/>
		</comp>
		<comp name="00.HNZ" depth="0.0">
			<acc value="0.00946583014571982" flag="0"/>
			<vel value="0.00659619459953502" flag="0"/>
			<psa03 value="0.0237092815610332" flag="0"/>
			<psa10 value="0.00902984068261295" flag="0"/>
			<psa30 value="0.00146914440694223" flag="0"/>
		</comp>
	</station>
	<station code="G0LD" name="G0LD" netid="HC" source="Seismological Network of Crete (HC)" insttype="" lat="35.4955" lon="24.0306" esm:processing="automatic (Paolucci et al 2011)" esm:quality="bad">
		<comp name="--.HNE" depth="0.0">
			<acc value="0" flag="1"/>
			<vel value="0" flag="1"/>
			<psa03 value="0" flag="1"/>
			<psa10 value="0" flag="1"/>
			<psa30 value="0" flag="1"/>
		</comp>
		<comp name="--.HNN" depth="0.0">
			<acc value="0" flag="1"/>
			<vel value="0" flag="1"/>
			<psa03 value="0" flag="1"/>
			<psa10 value="0" flag="1"/>
			<psa30 value="0" flag="1"/>
		</comp>
		<comp name="--.HNZ" depth="0.0">
			<acc value="0" flag="1"/>
			<vel value="0" flag="1"/>
			<psa03 value="0" flag="1"/>
			<psa10 value="0" flag="1"/>
			<psa30 value="0" flag="1"/>
		</comp>
	</station>
	<station code="POLY" name="POLY" netid="HC" source="Seismological Network of Crete (HC)" insttype="" lat="35.5226" lon="24.0602" esm:processing="automatic (Paolucci et al 2011)" esm:quality="bad">
		<comp name="--.HNE" depth="0.0">
			<acc value="0" flag="1"/>
			<vel value="0" flag="1"/>
			<psa03 value="0" flag="1"/>
			<psa10 value="0" flag="1"/>
			<psa30 value="0" flag="1"/>
		</comp>
		<comp name="--.HNN" depth="0.0">
			<acc value="0" flag="1"/>
			<vel value="0" flag="1"/>
			<psa03 value="0" flag="1"/>
			<psa10 value="0" flag="1"/>
			<psa30 value="0" flag="1"/>
		</comp>
		<comp name="--.HNZ" depth="0.0">
			<acc value="0" flag="1"/>
			<vel value="0" flag="1"/>
			<psa03 value="0" flag="1"/>
			<psa10 value="0" flag="1"/>
			<psa30 value="0" flag="1"/>
		</comp>
	</station>
	<station code="TEFL" name="TEFL" netid="HC" source="Seismological Network of Crete (HC)" insttype="" lat="35.093273" lon="25.163418" esm:processing="automatic (Paolucci et al 2011)" esm:quality="bad">
		<comp name="--.HNE" depth="0.0">
			<acc value="0" flag="1"/>
			<vel value="0" flag="1"/>
			<psa03 value="0" flag="1"/>
			<psa10 value="0" flag="1"/>
			<psa30 value="0" flag="1"/>
		</comp>
		<comp name="--.HNN" depth="0.0">
			<acc value="0" flag="1"/>
			<vel value="0" flag="1"/>
			<psa03 value="0" flag="1"/>
			<psa10 value="0" flag="1"/>
			<psa30 value="0" flag="1"/>
		</comp>
		<comp name="--.HNZ" depth="0.0">
			<acc value="0" flag="1"/>
			<vel value="0" flag="1"/>
			<psa03 value="0" flag="1"/>
			<psa10 value="0" flag="1"/>
			<psa30 value="0" flag="1"/>
		</comp>
	</station>
	<station code="AGN1" name="AGN1" netid="HI" source="ITSAK Strong Motion Network" insttype="" lat="35.1879" lon="25.7155" esm:processing="automatic (Paolucci et al 2011)" esm:quality="bad">
		<comp name="--.HNE" depth="0.0">
			<acc value="0" flag="1"/>
			<vel value="0" flag="1"/>
			<psa03 value="0" flag="1"/>
			<psa10 value="0" flag="1"/>
			<psa30 value="0" flag="1"/>
		</comp>
		<comp name="--.HNN" depth="0.0">
			<acc value="0" flag="1"/>
			<vel value="0" flag="1"/>
			<psa03 value="0" flag="1"/>
			<psa10 value="0" flag="1"/>
			<psa30 value="0" flag="1"/>
		</comp>
		<comp name="--.HNZ" depth="0.0">
			<acc value="0" flag="1"/>
			<vel value="0" flag="1"/>
			<psa03 value="0" flag="1"/>
			<psa10 value="0" flag="1"/>
			<psa30 value="0" flag="1"/>
		</comp>
	</station>
	<station code="GTH2" name="GTH2" netid="HI" source="ITSAK Strong Motion Network" insttype="" lat="36.7603" lon="22.5659" esm:processing="automatic (Paolucci et al 2011)" esm:quality="bad">
		<comp name="--.HNE" depth="0.0">
			<acc value="0" flag="1"/>
			<vel value="0" flag="1"/>
			<psa03 value="0" flag="1"/>
			<psa10 value="0" flag="1"/>
			<psa30 value="0" flag="1"/>
		</comp>
		<comp name="--.HNN" depth="0.0">
			<acc value="0" flag="1"/>
			<vel value="0" flag="1"/>
			<psa03 value="0" flag="1"/>
			<psa10 value="0" flag="1"/>
			<psa30 value="0" flag="1"/>
		</comp>
		<comp name="--.HNZ" depth="0.0">
			<acc value="0" flag="1"/>
			<vel value="0" flag="1"/>
			<psa03 value="0" flag="1"/>
			<psa10 value="0" flag="1"/>
			<psa30 value="0" flag="1"/>
		</comp>
	</station>
	<station code="HER1" name="HER1" netid="HI" source="ITSAK Strong Motion Network" insttype="" lat="35.317672" lon="25.10217" esm:processing="automatic (Paolucci et al 2011)" esm:quality="bad">
		<comp name="--.HNE" depth="0.0">
			<acc value="0" flag="1"/>
			<vel value="0" flag="1"/>
			<psa03 value="0" flag="1"/>
			<psa10 value="0" flag="1"/>
			<psa30 value="0" flag="1"/>
		</comp>
		<comp name="--.HNN" depth="0.0">
			<acc value="0" flag="1"/>
			<vel value="0" flag="1"/>
			<psa03 value="0" flag="1"/>
			<psa10 value="0" flag="1"/>
			<psa30 value="0" flag="1"/>
		</comp>
		<comp name="--.HNZ" depth="0.0">
			<acc value="0" flag="1"/>
			<vel value="0" flag="1"/>
			<psa03 value="0" flag="1"/>
			<psa10 value="0" flag="1"/>
			<psa30 value="0" flag="1"/>
		</comp>
	</station>
	<station code="HER3" name="HER3" netid="HI" source="ITSAK Strong Motion Network" insttype="" lat="35.3296" lon="25.1065" esm:processing="automatic (Paolucci et al 2011)" esm:quality="bad">
		<comp name="--.HNE" depth="0.0">
			<acc value="0" flag="1"/>
			<vel value="0" flag="1"/>
			<psa03 value="0" flag="1"/>
			<psa10 value="0" flag="1"/>
			<psa30 value="0" flag="1"/>
		</comp>
		<comp name="--.HNN" depth="0.0">
			<acc value="0" flag="1"/>
			<vel value="0" flag="1"/>
			<psa03 value="0" flag="1"/>
			<psa10 value="0" flag="1"/>
			<psa30 value="0" flag="1"/>
		</comp>
		<comp name="--.HNZ" depth="0.0">
			<acc value="0" flag="1"/>
			<vel value="0" flag="1"/>
			<psa03 value="0" flag="1"/>
			<psa10 value="0" flag="1"/>
			<psa30 value="0" flag="1"/>
		</comp>
	</station>
	<station code="KTL1" name="KTL1" netid="HI" source="ITSAK Strong Motion Network" insttype="" lat="35.20778" lon="25.34272" esm:processing="automatic (Paolucci et al 2011)" esm:quality="bad">
		<comp name="--.HNE" depth="0.0">
			<acc value="0" flag="1"/>
			<vel value="0" flag="1"/>
			<psa03 value="0" flag="1"/>
			<psa10 value="0" flag="1"/>
			<psa30 value="0" flag="1"/>
		</comp>
		<comp name="--.HNN" depth="0.0">
			<acc value="0" flag="1"/>
			<vel value="0" flag="1"/>
			<psa03 value="0" flag="1"/>
			<psa10 value="0" flag="1"/>
			<psa30 value="0" flag="1"/>
		</comp>
		<comp name="--.HNZ" depth="0.0">
			<acc value="0" flag="1"/>
