<?xml version="1.0" encoding="UTF-8" standalone="yes"?>
<!DOCTYPE earthquake SYSTEM "stationlist.dtd">
<stationlist created="" xmlns="ch.ethz.sed.shakemap.usgs.xml">
  <station code="IMMV" name="IMMV" netid="GE" insttype="STS-2/N" lat="35.4606" lon="23.9811">
    <comp name="--.HHZ">
      <acc value="0.0238145921" flag="0"/>
      <vel value="0.0107755041" flag="0"/>
      <psa03 value="0.0575254919" flag="0"/>
      <psa10 value="0.0090290747" flag="0"/>
      <psa30 value="0.0012234536" flag="0"/>
    </comp>
    <comp name="--.HHN">
      <acc value="0.0276773901" flag="0"/>
      <vel value="0.0132943729" flag="0"/>
      <psa03 value="0.0845571083" flag="0"/>
      <psa10 value="0.0165982994" flag="0"/>
      <psa30 value="0.0024675208" flag="0"/>
    </comp>
    <comp name="--.HHE">
      <acc value="0.0271802575" flag="0"/>
      <vel value="0.0201611967" flag="0"/>
      <psa03 value="0.0910804413" flag="0"/>
      <psa10 value="0.0251174233" flag="0"/>
      <psa30 value="0.0038407953" flag="0"/>
    </comp>
  </station>
  <station code="IDI" name="IDI" netid="MN" insttype="" lat="35.288" lon="24.89">
    <comp name="--.HHN">
      <acc value="0.0047087783" flag="0"/>
      <vel value="0.0041975275" flag="0"/>
      <psa03 value="0.0106021310" flag="0"/>
      <psa10 value="0.0045552594" flag="0"/>
      <psa30 value="0.0006611169" flag="0"/>
    </comp>
    <comp name="--.HHE">
      <acc value="0.0040468671" flag="0"/>
      <vel value="0.0025927612" flag="0"/>
      <psa03 value="0.0068210472" flag="0"/>
      <psa10 value="0.0053396011" flag="0"/>
      <psa30 value="0.0005287103" flag="0"/>
    </comp>
    <comp name="--.HHZ">
      <acc value="0.0033507285" flag="0"/>
      <vel value="0.0028357318" flag="0"/>
      <psa03 value="0.0071531563" flag="0"/>
      <psa10 value="0.0038380434" flag="0"/>
      <psa30 value="0.0005306105" flag="0"/>
    </comp>
  </station>
</stationlist>
