<stationlist created="1721545315">
	<station code="ABEA" name="ABEA" netid="HC" source="Seismological Network of Crete (HC)" insttype="" lat="35.5163" lon="24.0113">
		<comp name=".HNE" depth="0.0">
			<acc value="0.0018889490238948" flag="0"/>
			<vel value="0.00174574462831" flag="0"/>
			<psa03 value="0.000949268288011295" flag="0"/>
			<psa10 value="0.00120974728825894" flag="0"/>
			<psa30 value="0.000452119481946303" flag="0"/>
		</comp>
		<comp name=".HNN" depth="0.0">
			<acc value="0.0012007974774474" flag="0"/>
			<vel value="0.0016064276639" flag="0"/>
			<psa03 value="0.00172677015176741" flag="0"/>
			<psa10 value="0.00137018068962082" flag="0"/>
			<psa30 value="0.000814195759389801" flag="0"/>
		</comp>
		<comp name=".HNZ" depth="0.0">
			<acc value="0.0022272763168032" flag="0"/>
			<vel value="0.00151639286586" flag="0"/>
			<psa03 value="0.0011516903075013" flag="0"/>
			<psa10 value="0.00104893417424167" flag="0"/>
			<psa30 value="0.000662665512923573" flag="0"/>
		</comp>
	</station>
	<station code="ATEI" name="ATEI" netid="HC" source="Seismological Network of Crete (HC)" insttype="" lat="35.5193" lon="24.0432">
		<comp name=".HNE" depth="0.0">
			<acc value="0.020771469942156" flag="0"/>
			<vel value="0.0229500778819" flag="0"/>
			<psa03 value="0.0462193534719872" flag="0"/>
			<psa10 value="0.0333580998104094" flag="0"/>
			<psa30 value="0.00370885527679119" flag="0"/>
		</comp>
		<comp name=".HNN" depth="0.0">
			<acc value="0.017416475623938" flag="0"/>
			<vel value="0.0212061397496" flag="0"/>
			<psa03 value="0.0444964528799588" flag="0"/>
			<psa10 value="0.0455234557055987" flag="0"/>
			<psa30 value="0.00269846667684097" flag="0"/>
		</comp>
		<comp name=".HNZ" depth="0.0">
			<acc value="0.014097344361084" flag="0"/>
			<vel value="0.00857403534964" flag="0"/>
			<psa03 value="0.0356397906487296" flag="0"/>
			<psa10 value="0.0129403072318375" flag="0"/>
			<psa30 value="0.00168775170110177" flag="0"/>
		</comp>
	</station>
	<station code="G0LD" name="G0LD" netid="HC" source="Seismological Network of Crete (HC)" insttype="" lat="35.4955" lon="24.0306">
		<comp name=".HNE" depth="0.0">
			<acc value="0.0020616135009054" flag="0"/>
			<vel value="0.00202602573076" flag="0"/>
			<psa03 value="0.00186382154845702" flag="0"/>
			<psa10 value="0.00184598244352579" flag="0"/>
			<psa30 value="0.00109231965248269" flag="0"/>
		</comp>
		<comp name=".HNN" depth="0.0">
			<acc value="0.0022792261433226" flag="0"/>
			<vel value="0.00203261790168" flag="0"/>
			<psa03 value="0.00140990085344102" flag="0"/>
			<psa10 value="0.00125525233399464" flag="0"/>
			<psa30 value="0.000952465075305549" flag="0"/>
		</comp>
		<comp name=".HNZ" depth="0.0">
			<acc value="0.0037170899367162" flag="0"/>
			<vel value="0.00376150713198" flag="0"/>
			<psa03 value="0.00169304314538439" flag="0"/>
			<psa10 value="0.0020597653555947" flag="0"/>
			<psa30 value="0.00216300995546071" flag="0"/>
		</comp>
	</station>
	<station code="LENT" name="LENT" netid="HC" source="Seismological Network of Crete (HC)" insttype="" lat="35.5074" lon="24.0402">
		<comp name=".HNE" depth="0.0">
			<acc value="0.004451513025069" flag="0"/>
			<vel value="0.00176382403763" flag="0"/>
			<psa03 value="0.00117752071330192" flag="0"/>
			<psa10 value="0.0010425517201841" flag="0"/>
			<psa30 value="0.000741142169949756" flag="0"/>
		</comp>
		<comp name=".HNN" depth="0.0">
			<acc value="0.0031789797665694" flag="0"/>
			<vel value="0.00157208377815" flag="0"/>
			<psa03 value="0.00115162381546823" flag="0"/>
			<psa10 value="0.00102797145743874" flag="0"/>
			<psa30 value="0.000722718605728187" flag="0"/>
		</comp>
		<comp name=".HNZ" depth="0.0">
			<acc value="0.0054959182519596" flag="0"/>
			<vel value="0.00120800684161" flag="0"/>
			<psa03 value="0.00107685494637966" flag="0"/>
			<psa10 value="0.000853173608406273" flag="0"/>
			<psa30 value="0.000899493962058533" flag="0"/>
		</comp>
	</station>
	<station code="PASK" name="PASK" netid="HC" source="Seismological Network of Crete (HC)" insttype="" lat="35.4996" lon="24.0121">
		<comp name=".HNE" depth="0.0">
			<acc value="0.039454940958198" flag="0"/>
			<vel value="0.0293345896778" flag="0"/>
			<psa03 value="0.122363043451282" flag="0"/>
			<psa10 value="0.0409561443937377" flag="0"/>
			<psa30 value="0.00594397875944353" flag="0"/>
		</comp>
		<comp name=".HNN" depth="0.0">
			<acc value="0.03190787659257" flag="0"/>
			<vel value="0.0254738366204" flag="0"/>
			<psa03 value="0.105112348593769" flag="0"/>
			<psa10 value="0.0460450365075458" flag="0"/>
			<psa30 value="0.00479409758544736" flag="0"/>
		</comp>
		<comp name=".HNZ" depth="0.0">
			<acc value="0.019390777747584" flag="0"/>
			<vel value="0.0127552111964" flag="0"/>
			<psa03 value="0.0970159789160276" flag="0"/>
			<psa10 value="0.0250969944276925" flag="0"/>
			<psa30 value="0.00245450364048558" flag="0"/>
		</comp>
	</station>
	<station code="POLY" name="POLY" netid="HC" source="Seismological Network of Crete (HC)" insttype="" lat="35.5226" lon="24.0602">
		<comp name=".HNE" depth="0.0">
			<acc value="0.00098743332703398" flag="0"/>
			<vel value="0.00177891606747" flag="0"/>
			<psa03 value="0.00133053117501286" flag="0"/>
			<psa10 value="0.00129626516808182" flag="0"/>
			<psa30 value="0.00107550458023547" flag="0"/>
		</comp>
		<comp name=".HNN" depth="0.0">
			<acc value="0.0010781351689536" flag="0"/>
			<vel value="0.00277943299661" flag="0"/>
			<psa03 value="0.00185451770946864" flag="0"/>
			<psa10 value="0.00143799924476846" flag="0"/>
			<psa30 value="0.00125586850762321" flag="0"/>
		</comp>
		<comp name=".HNZ" depth="0.0">
			<acc value="0.001229292445848" flag="0"/>
			<vel value="0.00140118919232" flag="0"/>
			<psa03 value="0.00110197566975058" flag="0"/>
			<psa10 value="0.000898964434794027" flag="0"/>
			<psa30 value="0.000642243326717009" flag="0"/>
		</comp>
	</station>
	<station code="AGN1" name="AGN1" netid="HI" source="ITSAK Strong Motion Network" insttype="" lat="35.1879" lon="25.7155">
		<comp name=".HNE" depth="0.0">
			<acc value="0.0040228918947198" flag="0"/>
			<vel value="0.00191315089898" flag="0"/>
			<psa03 value="0.00588239228378713" flag="0"/>
			<psa10 value="0.00250705092356889" flag="0"/>
			<psa30 value="0.000730503288092318" flag="0"/>
		</comp>
		<comp name=".HNN" depth="0.0">
			<acc value="0.0065335195649742" flag="0"/>
			<vel value="0.00241455403608" flag="0"/>
			<psa03 value="0.00543306434094311" flag="0"/>
			<psa10 value="0.00385611349546798" flag="0"/>
			<psa30 value="0.000633218926813158" flag="0"/>
		</comp>
		<comp name=".HNZ" depth="0.0">
			<acc value="0.024070779234318" flag="0"/>
			<vel value="0.00201075629615" flag="0"/>
			<psa03 value="0.00312736732898773" flag="0"/>
			<psa10 value="0.00264350816631676" flag="0"/>
			<psa30 value="0.000479065485738865" flag="0"/>
		</comp>
	</station>
	<station code="ARK1" name="ARK1" netid="HI" source="ITSAK Strong Motion Network" insttype="" lat="35.148777" lon="25.264194">
		<comp name=".HNE" depth="0.0">
			<acc value="0.0076098264805728" flag="0"/>
			<vel value="0.00693007929709" flag="0"/>
			<psa03 value="0.0141379079211872" flag="0"/>
			<psa10 value="0.0110500985773048" flag="0"/>
			<psa30 value="0.00206045420331119" flag="0"/>
		</comp>
		<comp name=".HNN" depth="0.0">
			<acc value="0.0048974017803798" flag="0"/>
			<vel value="0.00729875516114" flag="0"/>
			<psa03 value="0.0130293149510724" flag="0"/>
			<psa10 value="0.00855638213084023" flag="0"/>
			<psa30 value="0.0022372367476202" flag="0"/>
		</comp>
		<comp name=".HNZ" depth="0.0">
			<acc value="0.003364128061371" flag="0"/>
			<vel value="0.00384107981113" flag="0"/>
			<psa03 value="0.00941810306975982" flag="0"/>
			<psa10 value="0.00731378231469249" flag="0"/>
			<psa30 value="0.000759188417505395" flag="0"/>
		</comp>
	</station>
	<station code="CH01" name="CH01" netid="HI" source="ITSAK Strong Motion Network" insttype="" lat="35.517" lon="24.0208">
		<comp name=".HNE" depth="0.0">
			<acc value="0.021533564205222" flag="0"/>
			<vel value="0.0247653930053" flag="0"/>
			<psa03 value="0.0603324186014246" flag="0"/>
			<psa10 value="0.0450896982213046" flag="0"/>
			<psa30 value="0.00610708289760484" flag="0"/>
		</comp>
		<comp name=".HNN" depth="0.0">
			<acc value="0.020178524836026" flag="0"/>
			<vel value="0.0275902360936" flag="0"/>
			<psa03 value="0.0579942949624273" flag="0"/>
			<psa10 value="0.0343097591031596" flag="0"/>
			<psa30 value="0.00430297921792228" flag="0"/>
		</comp>
		<comp name=".HNZ" depth="0.0">
			<acc value="0.01334661408081" flag="0"/>
			<vel value="0.0127184734459" flag="0"/>
			<psa03 value="0.0310141873501972" flag="0"/>
			<psa10 value="0.0219501572151808" flag="0"/>
			<psa30 value="0.00232061852125426" flag="0"/>
		</comp>
	</station>
	<station code="GOR1" name="GOR1" netid="HI" source="ITSAK Strong Motion Network" insttype="" lat="35.0582" lon="24.9628">
		<comp name=".HNE" depth="0.0">
			<acc value="0.0090447633258162" flag="0"/>
			<vel value="0.0122326071223" flag="0"/>
			<psa03 value="0.0210824539007795" flag="0"/>
			<psa10 value="0.016629379739798" flag="0"/>
			<psa30 value="0.0029442923365822" flag="0"/>
		</comp>
		<comp name=".HNN" depth="0.0">
			<acc value="0.0072731636703294" flag="0"/>
			<vel value="0.00907605985336" flag="0"/>
			<psa03 value="0.0207432048646766" flag="0"/>
			<psa10 value="0.0124328498652732" flag="0"/>
			<psa30 value="0.0044054530896458" flag="0"/>
		</comp>
		<comp name=".HNZ" depth="0.0">
			<acc value="0.007626592153365" flag="0"/>
			<vel value="0.00743047573282" flag="0"/>
			<psa03 value="0.0173846282088027" flag="0"/>
			<psa10 value="0.0109829344405081" flag="0"/>
			<psa30 value="0.00158425599085026" flag="0"/>
		</comp>
	</station>
	<station code="HER1" name="HER1" netid="HI" source="ITSAK Strong Motion Network" insttype="" lat="35.317672" lon="25.10217">
		<comp name=".HNE" depth="0.0">
			<acc value="0.012656978686068" flag="0"/>
			<vel value="0.0181959497478" flag="0"/>
			<psa03 value="0.0224500965837241" flag="0"/>
			<psa10 value="0.0452200343551996" flag="0"/>
			<psa30 value="0.00274276961169159" flag="0"/>
		</comp>
		<comp name=".HNN" depth="0.0">
			<acc value="0.016091151675348" flag="0"/>
			<vel value="0.0262822136902" flag="0"/>
			<psa03 value="0.0232655256019103" flag="0"/>
			<psa10 value="0.042499214114509" flag="0"/>
			<psa30 value="0.00254267114781792" flag="0"/>
		</comp>
		<comp name=".HNZ" depth="0.0">
			<acc value="0.013949959449354" flag="0"/>
			<vel value="0.0149834885654" flag="0"/>
			<psa03 value="0.023824612117788" flag="0"/>
			<psa10 value="0.0281388734372616" flag="0"/>
			<psa30 value="0.00138923452997019" flag="0"/>
		</comp>
	</station>
	<station code="HER3" name="HER3" netid="HI" source="ITSAK Strong Motion Network" insttype="" lat="35.3296" lon="25.1065">
		<comp name=".HNE" depth="0.0">
			<acc value="0.017925210556596" flag="0"/>
			<vel value="0.0206784817845" flag="0"/>
			<psa03 value="0.0292153963141335" flag="0"/>
			<psa10 value="0.0560904107146223" flag="0"/>
			<psa30 value="0.00215320909786699" flag="0"/>
		</comp>
		<comp name=".HNN" depth="0.0">
			<acc value="0.017346187523286" flag="0"/>
			<vel value="0.0202680255483" flag="0"/>
			<psa03 value="0.0438474671794931" flag="0"/>
			<psa10 value="0.0500549521448502" flag="0"/>
			<psa30 value="0.00299426481368321" flag="0"/>
		</comp>
		<comp name=".HNZ" depth="0.0">
			<acc value="0.015412540407456" flag="0"/>
			<vel value="0.00884476165492" flag="0"/>
			<psa03 value="0.0238873324185434" flag="0"/>
			<psa10 value="0.0168763054724194" flag="0"/>
			<psa30 value="0.000971498106979894" flag="0"/>
		</comp>
	</station>
	<station code="KTL1" name="KTL1" netid="HI" source="ITSAK Strong Motion Network" insttype="" lat="35.20778" lon="25.34272">
		<comp name=".HNE" depth="0.0">
			<acc value="0.0037477004015388" flag="0"/>
			<vel value="0.00355425613278" flag="0"/>
			<psa03 value="0.00941457093473664" flag="0"/>
			<psa10 value="0.00605430966204617" flag="0"/>
			<psa30 value="0.000571673130954456" flag="0"/>
		</comp>
		<comp name=".HNN" depth="0.0">
			<acc value="0.0042907335137208" flag="0"/>
			<vel value="0.00337045781423" flag="0"/>
			<psa03 value="0.0125478937363929" flag="0"/>
			<psa10 value="0.00734771690643568" flag="0"/>
			<psa30 value="0.00127047103747175" flag="0"/>
		</comp>
		<comp name=".HNZ" depth="0.0">
			<acc value="0.0046880930536386" flag="0"/>
			<vel value="0.00246056814605" flag="0"/>
			<psa03 value="0.00523492881958758" flag="0"/>
			<psa10 value="0.00423333621900139" flag="0"/>
			<psa30 value="0.000787271267439892" flag="0"/>
		</comp>
	</station>
	<station code="RTH1" name="RTH1" netid="HI" source="ITSAK Strong Motion Network" insttype="" lat="35.365393" lon="24.471773">
		<comp name=".HNE" depth="0.0">
			<acc value="0.013176173955672" flag="0"/>
			<vel value="0.00728602896416" flag="0"/>
			<psa03 value="0.0437624407135962" flag="0"/>
			<psa10 value="0.0107791234390297" flag="0"/>
			<psa30 value="0.00152123983717531" flag="0"/>
		</comp>
		<comp name=".HNN" depth="0.0">
			<acc value="0.011075848086492" flag="0"/>
			<vel value="0.00779388811481" flag="0"/>
			<psa03 value="0.0324311041306655" flag="0"/>
			<psa10 value="0.0111892618586966" flag="0"/>
			<psa30 value="0.00218636775280012" flag="0"/>
		</comp>
		<comp name=".HNZ" depth="0.0">
			<acc value="0.010971438996432" flag="0"/>
			<vel value="0.00469943009919" flag="0"/>
			<psa03 value="0.0165058929135747" flag="0"/>
			<psa10 value="0.00677476379484587" flag="0"/>
			<psa30 value="0.000718806315307138" flag="0"/>
		</comp>
	</station>
	<station code="IMMV" name="IMMV" netid="HL" source="National Observatory of Athens Seismic Network" insttype="" lat="35.4606" lon="23.9811">
		<comp name=".HNE" depth="0.0">
			<acc value="0.025378015551264" flag="0"/>
			<vel value="0.0194446622263" flag="0"/>
			<psa03 value="0.0861296848357135" flag="0"/>
			<psa10 value="0.0241295484641442" flag="0"/>
			<psa30 value="0.00401071485684022" flag="0"/>
		</comp>
		<comp name=".HNN" depth="0.0">
			<acc value="0.026307836322084" flag="0"/>
			<vel value="0.0128272827203" flag="0"/>
			<psa03 value="0.0783587481740899" flag="0"/>
			<psa10 value="0.0161801806075744" flag="0"/>
			<psa30 value="0.00264799916695034" flag="0"/>
		</comp>
		<comp name=".HNZ" depth="0.0">
			<acc value="0.022805663185788" flag="0"/>
			<vel value="0.0105423172153" flag="0"/>
			<psa03 value="0.054370971601843" flag="0"/>
			<psa10 value="0.00900266356979319" flag="0"/>
			<psa30 value="0.00135572699776148" flag="0"/>
		</comp>
	</station>
	<station code="SIVA" name="SIVA" netid="HL" source="National Observatory of Athens Seismic Network" insttype="" lat="35.01777" lon="24.81204">
		<comp name="00.HNE" depth="0.0">
			<acc value="0.02363655791745" flag="0"/>
			<vel value="0.0224457340571" flag="0"/>
			<psa03 value="0.0596804899977099" flag="0"/>
			<psa10 value="0.0389086512571736" flag="0"/>
			<psa30 value="0.00209989035742823" flag="0"/>
		</comp>
		<comp name="00.HNN" depth="0.0">
			<acc value="0.016494542558508" flag="0"/>
			<vel value="0.0130643552964" flag="0"/>
			<psa03 value="0.0517877067232834" flag="0"/>
			<psa10 value="0.0282688701739268" flag="0"/>
			<psa30 value="0.00198927677982361" flag="0"/>
		</comp>
		<comp name="00.HNZ" depth="0.0">
			<acc value="0.0094658299930068" flag="0"/>
			<vel value="0.00659620400383" flag="0"/>
			<psa03 value="0.0237092815610332" flag="0"/>
			<psa10 value="0.00902984068261295" flag="0"/>
			<psa30 value="0.00146914440694223" flag="0"/>
		</comp>
	</station>
</stationlist>
