<?xml version="1.0" encoding="UTF-8" standalone="yes"?>
<!DOCTYPE earthquake SYSTEM "stationlist.dtd">
<stationlist created="" xmlns="ch.ethz.sed.shakemap.usgs.xml">
  <station code="IMMV" name="IMMV" netid="GE" insttype="STS-2/N" lat="35.4606" lon="23.9811">
    <comp name="--.HHZ">
      <acc value="0.0238145921" flag="0"/>
      <vel value="0.0107755041" flag="0"/>
      <psa03 value="0.0575254919" flag="0"/>
      <psa10 value="0.0090290747" flag="0"/>
      <psa30 value="0.0012234536" flag="0"/>
    </comp>
    <comp name="--.HHN">
      <acc value="0.0276773901" flag="0"/>
      <vel value="0.0132943729" flag="0"/>
      <psa03 value="0.0845571083" flag="0"/>
      <psa10 value="0.0165982994" flag="0"/>
      <psa30 value="0.0024675208" flag="0"/>
    </comp>
    <comp name="--.HHE">
      <acc value="0.0271802575" flag="0"/>
      <vel value="0.0201611967" flag="0"/>
      <psa03 value="0.0910804413" flag="0"/>
      <psa10 value="0.0251174233" flag="0"/>
      <psa30 value="0.0038407953" flag="0"/>
    </comp>
  </station>
  <station code="CHAN" name="CHAN" netid="HC" insttype="120" lat="35.5193" lon="24.0428">
    <comp name="--.HHE">
      <acc value="0.0366336223" flag="0"/>
      <vel value="0.0418207576" flag="0"/>
      <psa03 value="0.0900952468" flag="0"/>
      <psa10 value="0.0542408757" flag="0"/>
      <psa30 value="0.0058564119" flag="0"/>
    </comp>
    <comp name="--.HHN">
      <acc value="0.0350306317" flag="0"/>
      <vel value="0.0380358620" flag="0"/>
      <psa03 value="0.0764568807" flag="0"/>
      <psa10 value="0.0885603973" flag="0"/>
      <psa30 value="0.0058548333" flag="0"/>
    </comp>
    <comp name="--.HHZ">
      <acc value="0.0266259909" flag="0"/>
      <vel value="0.0156505772" flag="0"/>
      <psa03 value="0.0680476874" flag="0"/>
      <psa10 value="0.0238921320" flag="0"/>
      <psa30 value="0.0028908809" flag="0"/>
    </comp>
  </station>
  <station code="GVDS" name="GVDS" netid="HC" insttype="60" lat="34.8389" lon="24.0585">
    <comp name="--.HHN">
      <acc value="0.2034355568" flag="0"/>
      <vel value="0.0591604330" flag="0"/>
      <psa03 value="0.4154625579" flag="0"/>
      <psa10 value="0.0297778194" flag="0"/>
      <psa30 value="0.0020836587" flag="0"/>
    </comp>
    <comp name="--.HHE">
      <acc value="0.2044309493" flag="0"/>
      <vel value="0.0467987484" flag="0"/>
      <psa03 value="0.2033396512" flag="0"/>
      <psa10 value="0.0211706095" flag="0"/>
      <psa30 value="0.0010433993" flag="0"/>
    </comp>
    <comp name="--.HHZ">
      <acc value="0.1130964937" flag="0"/>
      <vel value="0.0247903168" flag="0"/>
      <psa03 value="0.1544614372" flag="0"/>
      <psa10 value="0.0151366413" flag="0"/>
      <psa30 value="0.0013428897" flag="0"/>
    </comp>
  </station>
  <station code="IMOD" name="IMOD" netid="HC" insttype="120" lat="34.9731" lon="24.7995">
    <comp name="--.HHN">
      <acc value="0.0190529718" flag="0"/>
      <vel value="0.0183088387" flag="0"/>
      <psa03 value="0.0647586723" flag="0"/>
      <psa10 value="0.0185326735" flag="0"/>
      <psa30 value="0.0025189703" flag="0"/>
    </comp>
    <comp name="--.HHZ">
      <acc value="0.0088897649" flag="0"/>
      <vel value="0.0065346514" flag="0"/>
      <psa03 value="0.0194791925" flag="0"/>
      <psa10 value="0.0063049385" flag="0"/>
      <psa30 value="0.0009508912" flag="0"/>
    </comp>
    <comp name="--.HHE">
      <acc value="0.0128465285" flag="0"/>
      <vel value="0.0135377286" flag="0"/>
      <psa03 value="0.0710231089" flag="0"/>
      <psa10 value="0.0216055690" flag="0"/>
      <psa30 value="0.0022414883" flag="0"/>
    </comp>
  </station>
  <station code="IPPL" name="IPPL" netid="HC" insttype="60" lat="35.3486" lon="24.4632">
    <comp name="--.HHE">
      <acc value="0.0000000000" flag="0"/>
      <vel value="-100.0000000000" flag="0"/>
      <psa03 value="0.0000000000" flag="0"/>
      <psa10 value="0.0000000000" flag="0"/>
      <psa30 value="0.0000000000" flag="0"/>
    </comp>
    <comp name="--.HHZ">
      <acc value="0.0100089402" flag="0"/>
      <vel value="0.0059106388" flag="0"/>
      <psa03 value="0.0302813794" flag="0"/>
      <psa10 value="0.0079424535" flag="0"/>
      <psa30 value="0.0008360297" flag="0"/>
    </comp>
    <comp name="--.HHN">
      <acc value="0.0000000000" flag="0"/>
      <vel value="-100.0000000000" flag="0"/>
      <psa03 value="0.0000000000" flag="0"/>
      <psa10 value="0.0000000000" flag="0"/>
      <psa30 value="0.0000000000" flag="0"/>
    </comp>
  </station>
  <station code="KNDR" name="KNDR" netid="HC" insttype="120" lat="35.2348" lon="23.6248">
    <comp name="--.HHZ">
      <acc value="0.0681310614" flag="0"/>
      <vel value="0.0274603181" flag="0"/>
      <psa03 value="0.1628413887" flag="0"/>
      <psa10 value="0.0261429486" flag="0"/>
      <psa30 value="0.0029364723" flag="0"/>
    </comp>
    <comp name="--.HHN">
      <acc value="0.0946685560" flag="0"/>
      <vel value="0.0481530179" flag="0"/>
      <psa03 value="0.2607491763" flag="0"/>
      <psa10 value="0.0446453994" flag="0"/>
      <psa30 value="0.0051197483" flag="0"/>
    </comp>
    <comp name="--.HHE">
      <acc value="0.1318518919" flag="0"/>
      <vel value="0.0539346373" flag="0"/>
      <psa03 value="0.3556010320" flag="0"/>
      <psa10 value="0.0643984536" flag="0"/>
      <psa30 value="0.0054569065" flag="0"/>
    </comp>
  </station>
  <station code="ANKY" name="ANKY" netid="HL" insttype="60" lat="35.867" lon="23.3012">
    <comp name="--.HHE">
      <acc value="0.0059291346" flag="0"/>
      <vel value="0.0062842152" flag="0"/>
      <psa03 value="0.0173382156" flag="0"/>
      <psa10 value="0.0174163308" flag="0"/>
      <psa30 value="0.0021045977" flag="0"/>
    </comp>
    <comp name="--.HHZ">
      <acc value="0.0041515931" flag="0"/>
      <vel value="0.0052105268" flag="0"/>
      <psa03 value="0.0103794155" flag="0"/>
      <psa10 value="0.0082457524" flag="0"/>
      <psa30 value="0.0021144544" flag="0"/>
    </comp>
    <comp name="--.HHN">
      <acc value="0.0064563537" flag="0"/>
      <vel value="0.0069295688" flag="0"/>
      <psa03 value="0.0141929264" flag="0"/>
      <psa10 value="0.0124793861" flag="0"/>
      <psa30 value="0.0027974972" flag="0"/>
    </comp>
  </station>
  <station code="IDI" name="IDI" netid="HL" insttype="120" lat="35.288" lon="24.89">
    <comp name="--.HHE">
      <acc value="0.0039823224" flag="0"/>
      <vel value="0.0026120535" flag="0"/>
      <psa03 value="0.0068062529" flag="0"/>
      <psa10 value="0.0053773144" flag="0"/>
      <psa30 value="0.0005350359" flag="0"/>
    </comp>
    <comp name="--.HHN">
      <acc value="0.0046466193" flag="0"/>
      <vel value="0.0042166929" flag="0"/>
      <psa03 value="0.0105519057" flag="0"/>
      <psa10 value="0.0045839224" flag="0"/>
      <psa30 value="0.0006694518" flag="0"/>
    </comp>
    <comp name="--.HHZ">
      <acc value="0.0033039308" flag="0"/>
      <vel value="0.0028353679" flag="0"/>
      <psa03 value="0.0070626582" flag="0"/>
      <psa10 value="0.0038724643" flag="0"/>
      <psa30 value="0.0005371049" flag="0"/>
    </comp>
  </station>
  <station code="IMMV" name="IMMV" netid="HL" insttype="120" lat="35.4606" lon="23.9811">
    <comp name="--.HHE">
      <acc value="0.0267111612" flag="0"/>
      <vel value="0.0199471451" flag="0"/>
      <psa03 value="0.0886113334" flag="0"/>
      <psa10 value="0.0249459942" flag="0"/>
      <psa30 value="0.0038370015" flag="0"/>
    </comp>
    <comp name="--.HHN">
      <acc value="0.0270662784" flag="0"/>
      <vel value="0.0131465528" flag="0"/>
      <psa03 value="0.0823346420" flag="0"/>
      <psa10 value="0.0164784259" flag="0"/>
      <psa30 value="0.0024656815" flag="0"/>
    </comp>
    <comp name="--.HHZ">
      <acc value="0.0231593062" flag="0"/>
      <vel value="0.0105707316" flag="0"/>
      <psa03 value="0.0559486876" flag="0"/>
      <psa10 value="0.0089737114" flag="0"/>
      <psa30 value="0.0012239980" flag="0"/>
    </comp>
  </station>
  <station code="SIVA" name="SIVA" netid="HL" insttype="60" lat="35.0178" lon="24.812">
    <comp name="--.HHE">
      <acc value="0.0255964580" flag="0"/>
      <vel value="0.0237327069" flag="0"/>
      <psa03 value="0.0636603416" flag="0"/>
      <psa10 value="0.0419127100" flag="0"/>
      <psa30 value="0.0020007350" flag="0"/>
    </comp>
    <comp name="--.HHN">
      <acc value="0.0155902318" flag="0"/>
      <vel value="0.0121686357" flag="0"/>
      <psa03 value="0.0473122319" flag="0"/>
      <psa10 value="0.0243777959" flag="0"/>
      <psa30 value="0.0015997456" flag="0"/>
    </comp>
    <comp name="--.HHZ">
      <acc value="0.0097641449" flag="0"/>
      <vel value="0.0063605624" flag="0"/>
      <psa03 value="0.0242836742" flag="0"/>
      <psa10 value="0.0093474640" flag="0"/>
      <psa30 value="0.0012521575" flag="0"/>
    </comp>
  </station>
  <station code="VAM" name="VAM" netid="HL" insttype="CMG3ESPC-120s" lat="35.407" lon="24.1997">
    <comp name="--.HHN">
      <acc value="0.0221432548" flag="0"/>
      <vel value="0.0139846793" flag="0"/>
      <psa03 value="0.0702959661" flag="0"/>
      <psa10 value="0.0331306099" flag="0"/>
      <psa30 value="0.0028738913" flag="0"/>
    </comp>
    <comp name="--.HHE">
      <acc value="0.0205212929" flag="0"/>
      <vel value="0.0127961900" flag="0"/>
      <psa03 value="0.0539335110" flag="0"/>
      <psa10 value="0.0249846674" flag="0"/>
      <psa30 value="0.0014470267" flag="0"/>
    </comp>
    <comp name="--.HHZ">
      <acc value="0.0126541239" flag="0"/>
      <vel value="0.0119640081" flag="0"/>
      <psa03 value="0.0327825206" flag="0"/>
      <psa10 value="0.0129106171" flag="0"/>
      <psa30 value="0.0009739081" flag="0"/>
    </comp>
  </station>
  <station code="IDI" name="IDI" netid="MN" insttype="" lat="35.288" lon="24.89">
    <comp name="--.HHN">
      <acc value="0.0047087783" flag="0"/>
      <vel value="0.0041975275" flag="0"/>
      <psa03 value="0.0106021310" flag="0"/>
      <psa10 value="0.0045552594" flag="0"/>
      <psa30 value="0.0006611169" flag="0"/>
    </comp>
    <comp name="--.HHE">
      <acc value="0.0040468671" flag="0"/>
      <vel value="0.0025927612" flag="0"/>
      <psa03 value="0.0068210472" flag="0"/>
      <psa10 value="0.0053396011" flag="0"/>
      <psa30 value="0.0005287103" flag="0"/>
    </comp>
    <comp name="--.HHZ">
      <acc value="0.0033507285" flag="0"/>
      <vel value="0.0028357318" flag="0"/>
      <psa03 value="0.0071531563" flag="0"/>
      <psa10 value="0.0038380434" flag="0"/>
      <psa30 value="0.0005306105" flag="0"/>
    </comp>
  </station>
</stationlist>
