<stationlist created="1778069450">
	<station code="IMMV" name="IMMV" netid="GE" source="GEOFON" insttype="" lat="35.4606" lon="23.9811">
		<comp name="--.HNE" depth="0.0">
			<acc value="0.00215935862048816" flag="0"/>
			<vel value="0.00220282056355432" flag="0"/>
			<psa03 value="0.00800885498467064" flag="0"/>
			<psa10 value="0.00457041640605646" flag="0"/>
			<psa30 value="0.000598203302486293" flag="0"/>
		</comp>
		<comp name="--.HNN" depth="0.0">
			<acc value="0.00256041552020064" flag="0"/>
			<vel value="0.00180067409577063" flag="0"/>
			<psa03 value="0.00635339333979459" flag="0"/>
			<psa10 value="0.00269392826048614" flag="0"/>
			<psa30 value="0.000702900065973049" flag="0"/>
		</comp>
		<comp name="--.HNZ" depth="0.0">
			<acc value="0.00157513631738459" flag="0"/>
			<vel value="0.00125348022509031" flag="0"/>
			<psa03 value="0.00550329141404743" flag="0"/>
			<psa10 value="0.00313687610600703" flag="0"/>
			<psa30 value="0.000387020087248051" flag="0"/>
		</comp>
	</station>
	<station code="SIT2" name="SIT2" netid="HI" source="ITSAK Strong Motion Network" insttype="" lat="35.2059" lon="26.107">
		<comp name="--.HNE" depth="0.0">
			<acc value="0.0497292629896737" flag="0"/>
			<vel value="0.0342971434694634" flag="0"/>
			<psa03 value="0.136150534739401" flag="0"/>
			<psa10 value="0.0183622015961387" flag="0"/>
			<psa30 value="0.00129841883606225" flag="0"/>
		</comp>
		<comp name="--.HNN" depth="0.0">
			<acc value="0.0446342856733687" flag="0"/>
			<vel value="0.0312547236988889" flag="0"/>
			<psa03 value="0.168946572190594" flag="0"/>
			<psa10 value="0.0213984077372546" flag="0"/>
			<psa30 value="0.00185948610705537" flag="0"/>
		</comp>
		<comp name="--.HNZ" depth="0.0">
			<acc value="0.0219329869301713" flag="0"/>
			<vel value="0.0103548495591643" flag="0"/>
			<psa03 value="0.0572252822647696" flag="0"/>
			<psa10 value="0.00515832900102055" flag="0"/>
			<psa30 value="0.00148275672732953" flag="0"/>
		</comp>
	</station>
	<station code="IMMV" name="IMMV" netid="HL" source="National Observatory of Athens Seismic Network" insttype="" lat="35.4606" lon="23.9811">
		<comp name="--.HNE" depth="0.0">
			<acc value="0.00211550535270594" flag="0"/>
			<vel value="0.00215810991897849" flag="0"/>
			<psa03 value="0.00787462836481583" flag="0"/>
			<psa10 value="0.00447780003835664" flag="0"/>
			<psa30 value="0.00058612290669936" flag="0"/>
		</comp>
		<comp name="--.HNN" depth="0.0">
			<acc value="0.00250846407543807" flag="0"/>
			<vel value="0.00176414500492736" flag="0"/>
			<psa03 value="0.00621916671993977" flag="0"/>
			<psa10 value="0.00264157987874276" flag="0"/>
			<psa30 value="0.000689029981921385" flag="0"/>
		</comp>
		<comp name="--.HNZ" depth="0.0">
			<acc value="0.0015432306722132" flag="0"/>
			<vel value="0.00122810000082611" flag="0"/>
			<psa03 value="0.00536906479419261" flag="0"/>
			<psa10 value="0.00307244732847672" flag="0"/>
			<psa30 value="0.000378966490056762" flag="0"/>
		</comp>
	</station>
</stationlist>
