<?xml version="1.0" encoding="UTF-8" standalone="yes"?>
<!DOCTYPE earthquake SYSTEM "stationlist.dtd">
<stationlist created="" xmlns="ch.ethz.sed.shakemap.usgs.xml">
  <station code="IDI" name="IDI" netid="MN" insttype="" lat="35.288" lon="24.89">
    <comp name="--.HHE">
      <acc value="0.0025994185" flag="0"/>
      <vel value="0.0017916309" flag="0"/>
      <psa03 value="0.0100938798" flag="0"/>
      <psa10 value="0.0026241068" flag="0"/>
      <psa30 value="0.0004322251" flag="0"/>
    </comp>
    <comp name="--.HHN">
      <acc value="0.0024387219" flag="0"/>
      <vel value="0.0014776503" flag="0"/>
      <psa03 value="0.0084624366" flag="0"/>
      <psa10 value="0.0022813505" flag="0"/>
      <psa30 value="0.0004120730" flag="0"/>
    </comp>
  </station>
</stationlist>
