<stationlist created="1675692166">
	<station code="CMRD" name="CMRD" netid="KO" source="Bogazici University Kandilli Observatory And Earthquake Research Institute (KOERI)" insttype="" lat="37.6623" lon="34.9902">
		<comp name=".HNE" depth="0.0">
			<acc value="0.00246551037887" flag="0"/>
			<vel value="0.00351907215473" flag="0"/>
			<psa03 value="0.00645414890986" flag="0"/>
			<psa10 value="0.00411365360309" flag="0"/>
			<psa30 value="0.000560316962" flag="0"/>
		</comp>
		<comp name=".HNN" depth="0.0">
			<acc value="0.00262785943092" flag="0"/>
			<vel value="0.00370447252816" flag="0"/>
			<psa03 value="0.00547038842805" flag="0"/>
			<psa10 value="0.00791624284974" flag="0"/>
			<psa30 value="0.000789374219253" flag="0"/>
		</comp>
		<comp name=".HNZ" depth="0.0">
			<acc value="0.00202414452735" flag="0"/>
			<vel value="0.00243953606543" flag="0"/>
			<psa03 value="0.00492587872416" flag="0"/>
			<psa10 value="0.00351756942796" flag="0"/>
			<psa30 value="0.000758602493276" flag="0"/>
		</comp>
	</station>
</stationlist>
