<?xml version="1.0" encoding="UTF-8" standalone="yes"?>
<!DOCTYPE earthquake SYSTEM "stationlist.dtd">
<stationlist created="" xmlns="ch.ethz.sed.shakemap.usgs.xml">
  <station code="GPA" name="GPA" netid="KO" insttype="CMG-5T" lat="40.2911" lon="30.3171">
    <comp name="--.HNE">
      <acc value="0.0183694973" flag="0"/>
      <vel value="0.0092788159" flag="0"/>
      <psa03 value="0.0569860855" flag="0"/>
      <psa10 value="0.0115741034" flag="0"/>
      <psa30 value="0.0010356210" flag="0"/>
    </comp>
    <comp name="--.HNZ">
      <acc value="0.0144610997" flag="0"/>
      <vel value="0.0083231702" flag="0"/>
      <psa03 value="0.0682723849" flag="0"/>
      <psa10 value="0.0080978475" flag="0"/>
      <psa30 value="0.0007861851" flag="0"/>
    </comp>
  </station>
  <station code="GULT" name="GULT" netid="KO" insttype="CMG-3ESP" lat="40.432" lon="30.5152">
    <comp name="--.HHZ">
      <acc value="0.0560145536" flag="0"/>
      <vel value="0.0233097531" flag="0"/>
      <psa03 value="0.1370935408" flag="0"/>
      <psa10 value="0.0328526962" flag="0"/>
      <psa30 value="0.0016845931" flag="0"/>
    </comp>
    <comp name="--.HHE">
      <acc value="0.1169053379" flag="0"/>
      <vel value="0.0925629782" flag="0"/>
      <psa03 value="0.3344582419" flag="0"/>
      <psa10 value="0.0644933583" flag="0"/>
      <psa30 value="0.0037078392" flag="0"/>
    </comp>
    <comp name="--.HHN">
      <acc value="0.0780370526" flag="0"/>
      <vel value="0.0537785844" flag="0"/>
      <psa03 value="0.3220229705" flag="0"/>
      <psa10 value="0.0790085112" flag="0"/>
      <psa30 value="0.0055906216" flag="0"/>
    </comp>
  </station>
  <station code="KDZE" name="KDZE" netid="KO" insttype="CMG-3T" lat="41.3132" lon="31.443">
    <comp name="--.HHZ">
      <acc value="0.0564116482" flag="0"/>
      <vel value="0.0153914972" flag="0"/>
      <psa03 value="0.0484920282" flag="0"/>
      <psa10 value="0.0162031226" flag="0"/>
      <psa30 value="0.0012165574" flag="0"/>
    </comp>
    <comp name="--.HHE">
      <acc value="0.0872024630" flag="0"/>
      <vel value="0.0147835066" flag="0"/>
      <psa03 value="0.0556992182" flag="0"/>
      <psa10 value="0.0122079268" flag="0"/>
      <psa30 value="0.0015608758" flag="0"/>
    </comp>
    <comp name="--.HHN">
      <acc value="0.0781287239" flag="0"/>
      <vel value="0.0156664612" flag="0"/>
      <psa03 value="0.0662294718" flag="0"/>
      <psa10 value="0.0166795047" flag="0"/>
      <psa30 value="0.0013387839" flag="0"/>
    </comp>
  </station>
  <station code="KURC" name="KURC" netid="KO" insttype="CMG-3T" lat="41.8456" lon="32.743">
    <comp name="--.HHE">
      <acc value="0.0000088493" flag="0"/>
      <vel value="0.0000009657" flag="0"/>
      <psa03 value="0.0000021833" flag="0"/>
      <psa10 value="0.0000007030" flag="0"/>
      <psa30 value="0.0000002203" flag="0"/>
    </comp>
    <comp name="--.HHN">
      <acc value="0.0287917775" flag="0"/>
      <vel value="0.0154658179" flag="0"/>
      <psa03 value="0.0731988151" flag="0"/>
      <psa10 value="0.0220415616" flag="0"/>
      <psa30 value="0.0015546865" flag="0"/>
    </comp>
    <comp name="--.HHZ">
      <acc value="0.0169818568" flag="0"/>
      <vel value="0.0088714620" flag="0"/>
      <psa03 value="0.0347729034" flag="0"/>
      <psa10 value="0.0077294509" flag="0"/>
      <psa30 value="0.0009594157" flag="0"/>
    </comp>
  </station>
  <station code="LOD" name="LOD" netid="KO" insttype="CMG-3T" lat="39.8884" lon="32.7634">
    <comp name="--.HHE">
      <acc value="0.0497820603" flag="0"/>
      <vel value="0.0213202464" flag="0"/>
      <psa03 value="0.0417865929" flag="0"/>
      <psa10 value="0.0341152229" flag="0"/>
      <psa30 value="0.0022517487" flag="0"/>
    </comp>
    <comp name="--.HHN">
      <acc value="0.0174761671" flag="0"/>
      <vel value="0.0091856669" flag="0"/>
      <psa03 value="0.0303885871" flag="0"/>
      <psa10 value="0.0172590009" flag="0"/>
      <psa30 value="0.0012500590" flag="0"/>
    </comp>
    <comp name="--.HHZ">
      <acc value="0.0074746307" flag="0"/>
      <vel value="0.0043621267" flag="0"/>
      <psa03 value="0.0115022891" flag="0"/>
      <psa10 value="0.0059670706" flag="0"/>
      <psa30 value="0.0006954455" flag="0"/>
    </comp>
  </station>
  <station code="MDUB" name="MDUB" netid="KO" insttype="CMG-3T" lat="40.4712" lon="31.1976">
    <comp name="--.HHE">
      <acc value="0.1397046982" flag="0"/>
      <vel value="0.0810459287" flag="0"/>
      <psa03 value="0.3797237248" flag="0"/>
      <psa10 value="0.0892960183" flag="0"/>
      <psa30 value="0.0059364191" flag="0"/>
    </comp>
    <comp name="--.HHN">
      <acc value="0.0000086441" flag="0"/>
      <vel value="0.0000014718" flag="0"/>
      <psa03 value="0.0000056434" flag="0"/>
      <psa10 value="0.0000011856" flag="0"/>
      <psa30 value="0.0000002387" flag="0"/>
    </comp>
    <comp name="--.HHZ">
      <acc value="0.0756557944" flag="0"/>
      <vel value="0.0461440694" flag="0"/>
      <psa03 value="0.2385247928" flag="0"/>
      <psa10 value="0.0468505079" flag="0"/>
      <psa30 value="0.0025050106" flag="0"/>
    </comp>
  </station>
  <station code="POLA" name="POLA" netid="KO" insttype="CMG-6T" lat="39.7005" lon="32.1677">
    <comp name="--.HHZ">
      <acc value="0.0168594197" flag="0"/>
      <vel value="0.0109716183" flag="0"/>
      <psa03 value="0.0340138261" flag="0"/>
      <psa10 value="0.0131930324" flag="0"/>
      <psa30 value="0.0005130836" flag="0"/>
    </comp>
    <comp name="--.HHN">
      <acc value="0.0208388363" flag="0"/>
      <vel value="0.0157507415" flag="0"/>
      <psa03 value="0.0443336149" flag="0"/>
      <psa10 value="0.0199569398" flag="0"/>
      <psa30 value="0.0007166610" flag="0"/>
    </comp>
    <comp name="--.HHE">
      <acc value="0.0199438680" flag="0"/>
      <vel value="0.0133576993" flag="0"/>
      <psa03 value="0.0638125292" flag="0"/>
      <psa10 value="0.0163593355" flag="0"/>
      <psa30 value="0.0007048477" flag="0"/>
    </comp>
  </station>
  <station code="SAFT" name="SAFT" netid="KO" insttype="CMG-5T" lat="41.2398" lon="32.6871">
    <comp name="--.HNE">
      <acc value="0.0682148874" flag="0"/>
      <vel value="0.0114557300" flag="0"/>
      <psa03 value="0.0420824914" flag="0"/>
      <psa10 value="0.0151714177" flag="0"/>
      <psa30 value="0.0011644728" flag="0"/>
    </comp>
    <comp name="--.HNN">
      <acc value="0.0610148010" flag="0"/>
      <vel value="0.0164754573" flag="0"/>
      <psa03 value="0.0487829456" flag="0"/>
      <psa10 value="0.0092538244" flag="0"/>
      <psa30 value="0.0009422176" flag="0"/>
    </comp>
    <comp name="--.HNZ">
      <acc value="0.0472945364" flag="0"/>
      <vel value="0.0096414252" flag="0"/>
      <psa03 value="0.0514586415" flag="0"/>
      <psa10 value="0.0110130861" flag="0"/>
      <psa30 value="0.0010354415" flag="0"/>
    </comp>
  </station>
  <station code="UVEZ" name="UVEZ" netid="KO" insttype="CMG-6T" lat="40.904" lon="30.9032">
    <comp name="--.HHN">
      <acc value="0.1822375130" flag="0"/>
      <vel value="0.1240386724" flag="0"/>
      <psa03 value="0.3882534641" flag="0"/>
      <psa10 value="0.0957389771" flag="0"/>
      <psa30 value="0.0052374933" flag="0"/>
    </comp>
    <comp name="--.HHE">
      <acc value="0.1784659145" flag="0"/>
      <vel value="0.0832125906" flag="0"/>
      <psa03 value="0.3139864107" flag="0"/>
      <psa10 value="0.0671638119" flag="0"/>
      <psa30 value="0.0039064329" flag="0"/>
    </comp>
    <comp name="--.HHZ">
      <acc value="0.0831814491" flag="0"/>
      <vel value="0.0404372544" flag="0"/>
      <psa03 value="0.2038242108" flag="0"/>
      <psa10 value="0.0336649287" flag="0"/>
      <psa30 value="0.0026943498" flag="0"/>
    </comp>
  </station>
  <station code="YUVA" name="YUVA" netid="KO" insttype="CMG-5T" lat="40.391" lon="31.6872">
    <comp name="--.HNZ">
      <acc value="0.1824232675" flag="0"/>
      <vel value="0.0778932246" flag="0"/>
      <psa03 value="0.4121888844" flag="0"/>
      <psa10 value="0.0640057689" flag="0"/>
      <psa30 value="0.0047558754" flag="0"/>
    </comp>
    <comp name="--.HNN">
      <acc value="0.1779448995" flag="0"/>
      <vel value="0.0798597482" flag="0"/>
      <psa03 value="0.5135106347" flag="0"/>
      <psa10 value="0.0500236877" flag="0"/>
      <psa30 value="0.0063112406" flag="0"/>
    </comp>
    <comp name="--.HNE">
      <acc value="0.1927646311" flag="0"/>
      <vel value="0.1329300177" flag="0"/>
      <psa03 value="0.3282699918" flag="0"/>
      <psa10 value="0.1247355308" flag="0"/>
      <psa30 value="0.0103425277" flag="0"/>
    </comp>
  </station>
</stationlist>
