<stationlist created="1778135961">
	<station code="AGRP" name="AGRP" netid="CL" source="Corinth Riff Laboratory (CRLNET)" insttype="" lat="38.3959" lon="21.72277">
		<comp name="00.HNE" depth="0.0">
			<acc value="0.197250883168122" flag="0"/>
			<vel value="0.0888441828154356" flag="0"/>
			<psa03 value="0.394313066926829" flag="0"/>
			<psa10 value="0.0671871345683278" flag="0"/>
			<psa30 value="0.00463260807325586" flag="0"/>
		</comp>
		<comp name="00.HNN" depth="0.0">
			<acc value="0.112442465227957" flag="0"/>
			<vel value="0.0453833734885506" flag="0"/>
			<psa03 value="0.178655631026759" flag="0"/>
			<psa10 value="0.0564959842968917" flag="0"/>
			<psa30 value="0.00595295059056106" flag="0"/>
		</comp>
		<comp name="00.HNZ" depth="0.0">
			<acc value="0.132939614801525" flag="0"/>
			<vel value="0.0425048031241117" flag="0"/>
			<psa03 value="0.224829588256816" flag="0"/>
			<psa10 value="0.0549859348235251" flag="0"/>
			<psa30 value="0.00436504967767859" flag="0"/>
		</comp>
	</station>
	<station code="MALA" name="MALA" netid="CL" source="Corinth Riff Laboratory (CRLNET)" insttype="" lat="38.39341" lon="21.87263">
		<comp name="01.HNE" depth="0.0">
			<acc value="1.66238501949206" flag="0"/>
			<vel value="0.680942075962342" flag="0"/>
			<psa03 value="1.70669147145398" flag="0"/>
			<psa10 value="0.568644363683932" flag="0"/>
			<psa30 value="0.0516092404900441" flag="0"/>
		</comp>
		<comp name="01.HNN" depth="0.0">
			<acc value="1.45534831031091" flag="0"/>
			<vel value="0.376400068339071" flag="0"/>
			<psa03 value="1.4378802940914" flag="0"/>
			<psa10 value="0.317778837973878" flag="0"/>
			<psa30 value="0.0266587489693649" flag="0"/>
		</comp>
		<comp name="01.HNZ" depth="0.0">
			<acc value="0.770573286415525" flag="0"/>
			<vel value="0.231848559331393" flag="0"/>
			<psa03 value="0.931980163858601" flag="0"/>
			<psa10 value="0.166359130381859" flag="0"/>
			<psa30 value="0.01213587612314" flag="0"/>
		</comp>
	</station>
	<station code="AIGS" name="AIGS" netid="HA" source="Hellenic Seismological Network, University of Athens, Seismological Laboratory (HA)" insttype="" lat="38.25001" lon="22.0878">
		<comp name="--.HNE" depth="0.0">
			<acc value="0.589336665046924" flag="0"/>
			<vel value="0.196835674764819" flag="0"/>
			<psa03 value="1.4239207256265" flag="0"/>
			<psa10 value="0.0604865417051754" flag="0"/>
			<psa30 value="0.0085846871838478" flag="0"/>
		</comp>
		<comp name="--.HNN" depth="0.0">
			<acc value="0.791845920686614" flag="0"/>
			<vel value="0.235052804395293" flag="0"/>
			<psa03 value="0.545496983089969" flag="0"/>
			<psa10 value="0.0692528822478934" flag="0"/>
			<psa30 value="0.0123528758252386" flag="0"/>
		</comp>
		<comp name="--.HNZ" depth="0.0">
			<acc value="0.641936755053205" flag="0"/>
			<vel value="0.123625075628582" flag="0"/>
			<psa03 value="0.296059181193104" flag="0"/>
			<psa10 value="0.0483095027519466" flag="0"/>
			<psa30 value="0.00681781744449225" flag="0"/>
		</comp>
	</station>
	<station code="ART2" name="ART2" netid="HI" source="ITSAK Strong Motion Network" insttype="" lat="39.1474" lon="20.9937">
		<comp name="--.HNE" depth="0.0">
			<acc value="0.00185296367751345" flag="0"/>
			<vel value="0.00175452172755398" flag="0"/>
			<psa03 value="0.006099932085348" flag="0"/>
			<psa10 value="0.00320021192021028" flag="0"/>
			<psa30 value="0.000341818529216604" flag="0"/>
		</comp>
		<comp name="--.HNN" depth="0.0">
			<acc value="0.00243394906606045" flag="0"/>
			<vel value="0.00219464796430198" flag="0"/>
			<psa03 value="0.00624348586590532" flag="0"/>
			<psa10 value="0.00452452238363668" flag="0"/>
			<psa30 value="0.000421676736097404" flag="0"/>
		</comp>
		<comp name="--.HNZ" depth="0.0">
			<acc value="0.0017588734589538" flag="0"/>
			<vel value="0.00205473533295561" flag="0"/>
			<psa03 value="0.0047048862198935" flag="0"/>
			<psa10 value="0.00258448581887567" flag="0"/>
			<psa30 value="0.000301120260239392" flag="0"/>
		</comp>
	</station>
	<station code="KLV1" name="KLV1" netid="HI" source="ITSAK Strong Motion Network" insttype="" lat="38.03256" lon="22.10797">
		<comp name="--.HNE" depth="0.0">
			<acc value="0.0601147584852507" flag="0"/>
			<vel value="0.0243999568123798" flag="0"/>
			<psa03 value="0.134808268540853" flag="0"/>
			<psa10 value="0.0185917291160905" flag="0"/>
			<psa30 value="0.00203308586873427" flag="0"/>
		</comp>
		<comp name="--.HNN" depth="0.0">
			<acc value="0.0667903750690674" flag="0"/>
			<vel value="0.0216307939256021" flag="0"/>
			<psa03 value="0.0979406902873969" flag="0"/>
			<psa10 value="0.0189098462051464" flag="0"/>
			<psa30 value="0.00229259066712024" flag="0"/>
		</comp>
		<comp name="--.HNZ" depth="0.0">
			<acc value="0.0431889144624405" flag="0"/>
			<vel value="0.0110915824852468" flag="0"/>
			<psa03 value="0.0470688013624219" flag="0"/>
			<psa10 value="0.0178991197576396" flag="0"/>
			<psa30 value="0.00239281320994517" flag="0"/>
		</comp>
	</station>
	<station code="MSL1" name="MSL1" netid="HI" source="ITSAK Strong Motion Network" insttype="" lat="38.3727" lon="21.4243">
		<comp name="--.HNE" depth="0.0">
			<acc value="0.0500783436261018" flag="0"/>
			<vel value="0.035048909460763" flag="0"/>
			<psa03 value="0.108544593255927" flag="0"/>
			<psa10 value="0.0804030875592329" flag="0"/>
			<psa30 value="0.00458473391217431" flag="0"/>
		</comp>
		<comp name="--.HNN" depth="0.0">
			<acc value="0.0604118148341596" flag="0"/>
			<vel value="0.0606976155840063" flag="0"/>
			<psa03 value="0.200847765509422" flag="0"/>
			<psa10 value="0.103335705561428" flag="0"/>
			<psa30 value="0.00562230568365203" flag="0"/>
		</comp>
		<comp name="--.HNZ" depth="0.0">
			<acc value="0.0484830012827907" flag="0"/>
			<vel value="0.0241251816838695" flag="0"/>
			<psa03 value="0.0790147368878679" flag="0"/>
			<psa10 value="0.0537899756406187" flag="0"/>
			<psa30 value="0.00222055571446483" flag="0"/>
		</comp>
	</station>
	<station code="DLFA" name="DLFA" netid="HL" source="National Observatory of Athens Seismic Network" insttype="" lat="38.47836" lon="22.49583">
		<comp name="00.HNE" depth="0.0">
			<acc value="0.0671010232289067" flag="0"/>
			<vel value="0.0353337295389132" flag="0"/>
			<psa03 value="0.140356302161519" flag="0"/>
			<psa10 value="0.0428652710506352" flag="0"/>
			<psa30 value="0.00230243395257626" flag="0"/>
		</comp>
		<comp name="00.HNN" depth="0.0">
			<acc value="0.0876133354941654" flag="0"/>
			<vel value="0.0467531079879026" flag="0"/>
			<psa03 value="0.0991934720727085" flag="0"/>
			<psa10 value="0.033897590578135" flag="0"/>
			<psa30 value="0.00212525481436791" flag="0"/>
		</comp>
		<comp name="00.HNZ" depth="0.0">
			<acc value="0.0630375107552008" flag="0"/>
			<vel value="0.0243703925890839" flag="0"/>
			<psa03 value="0.0914083281211292" flag="0"/>
			<psa10 value="0.01680785733822" flag="0"/>
			<psa30 value="0.00108902530908873" flag="0"/>
		</comp>
	</station>
	<station code="PATC" name="PATC" netid="HL" source="National Observatory of Athens Seismic Network" insttype="" lat="38.26933" lon="21.76001">
		<comp name="00.HNE" depth="0.0">
			<acc value="0.236343816996997" flag="0"/>
			<vel value="0.147792552478483" flag="0"/>
			<psa03 value="0.35699806660719" flag="0"/>
			<psa10 value="0.200562757653263" flag="0"/>
			<psa30 value="0.0113506503969894" flag="0"/>
		</comp>
		<comp name="00.HNN" depth="0.0">
			<acc value="0.320606273737442" flag="0"/>
			<vel value="0.151303703019986" flag="0"/>
			<psa03 value="0.463081838499113" flag="0"/>
			<psa10 value="0.150884143378798" flag="0"/>
			<psa30 value="0.0173966647773164" flag="0"/>
		</comp>
		<comp name="00.HNZ" depth="0.0">
			<acc value="0.184315416622236" flag="0"/>
			<vel value="0.0665993586972455" flag="0"/>
			<psa03 value="0.378563810197197" flag="0"/>
			<psa10 value="0.12096502981316" flag="0"/>
			<psa30 value="0.0072876106139841" flag="0"/>
		</comp>
	</station>
	<station code="PATG" name="PATG" netid="HL" source="National Observatory of Athens Seismic Network" insttype="" lat="38.23865" lon="21.72657">
		<comp name="00.HNE" depth="0.0">
			<acc value="0.157820028986443" flag="0"/>
			<vel value="0.0969854384313474" flag="0"/>
			<psa03 value="0.265947676139007" flag="0"/>
			<psa10 value="0.122032131441005" flag="0"/>
			<psa30 value="0.0109640777318075" flag="0"/>
		</comp>
		<comp name="00.HNN" depth="0.0">
			<acc value="0.18841608276843" flag="0"/>
			<vel value="0.104872728671216" flag="0"/>
			<psa03 value="0.334179541231872" flag="0"/>
			<psa10 value="0.13862254165506" flag="0"/>
			<psa30 value="0.0246323744316233" flag="0"/>
		</comp>
		<comp name="00.HNZ" depth="0.0">
			<acc value="0.0880186806571897" flag="0"/>
			<vel value="0.0445878540359624" flag="0"/>
			<psa03 value="0.156150301097768" flag="0"/>
			<psa10 value="0.0556745173833803" flag="0"/>
			<psa30 value="0.00715741079272493" flag="0"/>
		</comp>
	</station>
	<station code="RIOA" name="RIOA" netid="HL" source="National Observatory of Athens Seismic Network" insttype="" lat="38.29585" lon="21.79118">
		<comp name="00.HNE" depth="0.0">
			<acc value="0.371912952563284" flag="0"/>
			<vel value="0.175430101060137" flag="0"/>
			<psa03 value="0.52348381743378" flag="0"/>
			<psa10 value="0.128575679158928" flag="0"/>
			<psa30 value="0.012777479366046" flag="0"/>
		</comp>
		<comp name="00.HNN" depth="0.0">
			<acc value="0.434449769355441" flag="0"/>
			<vel value="0.144809797913582" flag="0"/>
			<psa03 value="0.53538524439424" flag="0"/>
			<psa10 value="0.0964096119769196" flag="0"/>
			<psa30 value="0.0101895901352452" flag="0"/>
		</comp>
		<comp name="00.HNZ" depth="0.0">
			<acc value="0.239959684976499" flag="0"/>
			<vel value="0.0936235544928962" flag="0"/>
			<psa03 value="0.378340099164106" flag="0"/>
			<psa10 value="0.0592946093208646" flag="0"/>
			<psa30 value="0.00965715787648777" flag="0"/>
		</comp>
	</station>
	<station code="ANX" name="ANX" netid="HP" source="University of Patras, Seismological Laboratory (PSLNET)" insttype="" lat="38.5933" lon="21.9209">
		<comp name="--.HNE" depth="0.0">
			<acc value="0.902672803981962" flag="0"/>
			<vel value="0.191125816188318" flag="0"/>
			<psa03 value="0.525098576869584" flag="0"/>
			<psa10 value="0.158869134300285" flag="0"/>
			<psa30 value="0.00871606072956081" flag="0"/>
		</comp>
		<comp name="--.HNN" depth="0.0">
			<acc value="0.503798896441118" flag="0"/>
			<vel value="0.202851106811939" flag="0"/>
			<psa03 value="0.546825516173783" flag="0"/>
			<psa10 value="0.172488986548724" flag="0"/>
			<psa30 value="0.00850023476551767" flag="0"/>
		</comp>
		<comp name="--.HNZ" depth="0.0">
			<acc value="0.368587274102912" flag="0"/>
			<vel value="0.134332174863673" flag="0"/>
			<psa03 value="0.356358565339281" flag="0"/>
			<psa10 value="0.136743028554627" flag="0"/>
			<psa30 value="0.00724083967008164" flag="0"/>
		</comp>
	</station>
	<station code="GUR" name="GUR" netid="HP" source="University of Patras, Seismological Laboratory (PSLNET)" insttype="" lat="37.9363" lon="22.3423">
		<comp name="--.HNE" depth="0.0">
			<acc value="0.0286307207861906" flag="0"/>
			<vel value="0.0102387375764246" flag="0"/>
			<psa03 value="0.0457890489248495" flag="0"/>
			<psa10 value="0.0108974597157271" flag="0"/>
			<psa30 value="0.000581375075743975" flag="0"/>
		</comp>
		<comp name="--.HNN" depth="0.0">
			<acc value="0.0228722538217443" flag="0"/>
			<vel value="0.00776410480430925" flag="0"/>
			<psa03 value="0.0675311611081714" flag="0"/>
			<psa10 value="0.00932710975022671" flag="0"/>
			<psa30 value="0.000548107299002848" flag="0"/>
		</comp>
		<comp name="--.HNZ" depth="0.0">
			<acc value="0.0166536504314388" flag="0"/>
			<vel value="0.00502534984700695" flag="0"/>
			<psa03 value="0.0210959756298403" flag="0"/>
			<psa10 value="0.00673974069348332" flag="0"/>
			<psa30 value="0.000399134487575991" flag="0"/>
		</comp>
	</station>
	<station code="LTK" name="LTK" netid="HP" source="University of Patras, Seismological Laboratory (PSLNET)" insttype="" lat="38.0228" lon="22.9673">
		<comp name="--.HNE" depth="0.0">
			<acc value="0.00452146008910144" flag="0"/>
			<vel value="0.00279923194909772" flag="0"/>
			<psa03 value="0.0167066002198749" flag="0"/>
			<psa10 value="0.0046521700584287" flag="0"/>
			<psa30 value="0.000489616445102181" flag="0"/>
		</comp>
		<comp name="--.HNN" depth="0.0">
			<acc value="0.003714147059758" flag="0"/>
			<vel value="0.0028152856065389" flag="0"/>
			<psa03 value="0.0119179418489168" flag="0"/>
			<psa10 value="0.00303182717179414" flag="0"/>
			<psa30 value="0.000482288615920008" flag="0"/>
		</comp>
		<comp name="--.HNZ" depth="0.0">
			<acc value="0.00333014698082279" flag="0"/>
			<vel value="0.00184800138909557" flag="0"/>
			<psa03 value="0.0101069071632239" flag="0"/>
			<psa10 value="0.00213058528144343" flag="0"/>
			<psa30 value="0.000477095771921751" flag="0"/>
		</comp>
	</station>
	<station code="PDO" name="PDO" netid="HP" source="University of Patras, Seismological Laboratory (PSLNET)" insttype="" lat="38.5986" lon="21.1833">
		<comp name="--.HNE" depth="0.0">
			<acc value="0.0283235480788783" flag="0"/>
			<vel value="0.0134809388300169" flag="0"/>
			<psa03 value="0.0731969478968431" flag="0"/>
			<psa10 value="0.00804023168839408" flag="0"/>
			<psa30 value="0.000721150897706924" flag="0"/>
		</comp>
		<comp name="--.HNN" depth="0.0">
			<acc value="0.0467879989312128" flag="0"/>
			<vel value="0.0190052381897137" flag="0"/>
			<psa03 value="0.136953103721109" flag="0"/>
			<psa10 value="0.00979413943867329" flag="0"/>
			<psa30 value="0.000935403111700955" flag="0"/>
		</comp>
		<comp name="--.HNZ" depth="0.0">
			<acc value="0.0225950774444879" flag="0"/>
			<vel value="0.0110002012609776" flag="0"/>
			<psa03 value="0.0580053113174007" flag="0"/>
			<psa10 value="0.0063364267884266" flag="0"/>
			<psa30 value="0.00046410459881946" flag="0"/>
		</comp>
	</station>
	<station code="PVO" name="PVO" netid="HP" source="University of Patras, Seismological Laboratory (PSLNET)" insttype="" lat="38.616" lon="21.525">
		<comp name="--.HNE" depth="0.0">
			<acc value="0.0426228750282289" flag="0"/>
			<vel value="0.0164037348304663" flag="0"/>
			<psa03 value="0.0803653290168912" flag="0"/>
			<psa10 value="0.0292269705183574" flag="0"/>
			<psa30 value="0.00299580824925872" flag="0"/>
		</comp>
		<comp name="--.HNN" depth="0.0">
			<acc value="0.037825767895853" flag="0"/>
			<vel value="0.0222778024286971" flag="0"/>
			<psa03 value="0.0457754021876294" flag="0"/>
			<psa10 value="0.0274824693287256" flag="0"/>
			<psa30 value="0.00339955707897057" flag="0"/>
		</comp>
		<comp name="--.HNZ" depth="0.0">
			<acc value="0.029016601121908" flag="0"/>
			<vel value="0.0121358114061004" flag="0"/>
			<psa03 value="0.0584933696905167" flag="0"/>
			<psa10 value="0.0175706227175224" flag="0"/>
			<psa30 value="0.00330412929901808" flag="0"/>
		</comp>
	</station>
	<station code="PYL" name="PYL" netid="HP" source="University of Patras, Seismological Laboratory (PSLNET)" insttype="" lat="36.8955" lon="21.742">
		<comp name="--.HNE" depth="0.0">
			<acc value="0.00153481825234058" flag="0"/>
			<vel value="0.00131592517552045" flag="0"/>
			<psa03 value="0.00635508375351437" flag="0"/>
			<psa10 value="0.0030571558809483" flag="0"/>
			<psa30 value="0.000200932047741373" flag="0"/>
		</comp>
		<comp name="--.HNN" depth="0.0">
			<acc value="0.00127253858367822" flag="0"/>
			<vel value="0.00116227945260755" flag="0"/>
			<psa03 value="0.00579794007467156" flag="0"/>
			<psa10 value="0.00183990399398523" flag="0"/>
			<psa30 value="0.000118124127227154" flag="0"/>
		</comp>
		<comp name="--.HNZ" depth="0.0">
			<acc value="0.000992252228912679" flag="0"/>
			<vel value="0.00105906086154813" flag="0"/>
			<psa03 value="0.00267662669489316" flag="0"/>
			<psa10 value="0.00136082569489985" flag="0"/>
			<psa30 value="0.000150267845132443" flag="0"/>
		</comp>
	</station>
	<station code="SERG" name="SERG" netid="HP" source="University of Patras, Seismological Laboratory (PSLNET)" insttype="" lat="38.4133" lon="22.0566">
		<comp name="--.HNE" depth="0.0">
			<acc value="2.94611818122632" flag="0"/>
			<vel value="0.619745668177766" flag="0"/>
			<psa03 value="2.39831650135922" flag="0"/>
			<psa10 value="0.293376438484273" flag="0"/>
			<psa30 value="0.024626557944763" flag="0"/>
		</comp>
		<comp name="--.HNN" depth="0.0">
			<acc value="3.76540723985153" flag="0"/>
			<vel value="1.24748152447218" flag="0"/>
			<psa03 value="5.99581362450136" flag="0"/>
			<psa10 value="0.444498162980213" flag="0"/>
			<psa30 value="0.0453717294653908" flag="0"/>
		</comp>
		<comp name="--.HNZ" depth="0.0">
			<acc value="2.08453758399281" flag="0"/>
			<vel value="0.565804380342889" flag="0"/>
			<psa03 value="1.77836848645645" flag="0"/>
			<psa10 value="0.222319550465531" flag="0"/>
			<psa30 value="0.0131859757124709" flag="0"/>
		</comp>
	</station>
	<station code="UPR" name="UPR" netid="HP" source="University of Patras, Seismological Laboratory (PSLNET)" insttype="" lat="38.2836" lon="21.7864">
		<comp name="--.HNE" depth="2.0">
			<acc value="0.274204426535496" flag="0"/>
			<vel value="0.123888883068983" flag="0"/>
			<psa03 value="0.593908050650939" flag="0"/>
			<psa10 value="0.104761192264286" flag="0"/>
			<psa30 value="0.0100061470881103" flag="0"/>
		</comp>
		<comp name="--.HNN" depth="2.0">
			<acc value="0.350503417856255" flag="0"/>
			<vel value="0.191204984131235" flag="0"/>
			<psa03 value="0.63117830876396" flag="0"/>
			<psa10 value="0.199431227247887" flag="0"/>
			<psa30 value="0.0159841533143776" flag="0"/>
		</comp>
		<comp name="--.HNZ" depth="2.0">
			<acc value="0.185707627828784" flag="0"/>
			<vel value="0.0786424341648781" flag="0"/>
			<psa03 value="0.33060016470241" flag="0"/>
			<psa10 value="0.21203913365085" flag="0"/>
			<psa30 value="0.00955693533366284" flag="0"/>
		</comp>
	</station>
	<station code="VALY" name="VALY" netid="HP" source="University of Patras, Seismological Laboratory (PSLNET)" insttype="" lat="37.1641" lon="21.9836">
		<comp name="--.HNE" depth="0.0">
			<acc value="0.0031447628180028" flag="0"/>
			<vel value="0.00184561237191531" flag="0"/>
			<psa03 value="0.00829565892168128" flag="0"/>
			<psa10 value="0.00364004691649347" flag="0"/>
			<psa30 value="0.000339323311837418" flag="0"/>
		</comp>
		<comp name="--.HNN" depth="0.0">
			<acc value="0.00295778700877498" flag="0"/>
			<vel value="0.00164477326683671" flag="0"/>
			<psa03 value="0.00737258540281134" flag="0"/>
			<psa10 value="0.00192741428329913" flag="0"/>
			<psa30 value="0.000229600496364532" flag="0"/>
		</comp>
		<comp name="--.HNZ" depth="0.0">
			<acc value="0.00173589640113449" flag="0"/>
			<vel value="0.00165052723636848" flag="0"/>
			<psa03 value="0.00429149555354004" flag="0"/>
			<psa10 value="0.00328125572646436" flag="0"/>
			<psa30 value="0.000189007846362852" flag="0"/>
		</comp>
	</station>
</stationlist>
