<?xml version="1.0" encoding="UTF-8" standalone="yes"?>
<!DOCTYPE earthquake SYSTEM "stationlist.dtd">
<stationlist created="" xmlns="ch.ethz.sed.shakemap.usgs.xml">
  <station code="AGRP" name="AGRP" netid="CL" insttype="CMG40-T" lat="38.3959" lon="21.7228">
    <comp name="00.HHE">
      <acc value="0.1848396333" flag="0"/>
      <vel value="0.0916319772" flag="0"/>
      <psa03 value="0.3934667689" flag="0"/>
      <psa10 value="0.0728528528" flag="0"/>
      <psa30 value="0.0040893829" flag="0"/>
    </comp>
    <comp name="00.HHN">
      <acc value="0.1099757052" flag="0"/>
      <vel value="0.0453819369" flag="0"/>
      <psa03 value="0.2013685168" flag="0"/>
      <psa10 value="0.0530609036" flag="0"/>
      <psa30 value="0.0053000819" flag="0"/>
    </comp>
    <comp name="00.HHZ">
      <acc value="0.1096558606" flag="0"/>
      <vel value="0.0440424755" flag="0"/>
      <psa03 value="0.2295727661" flag="0"/>
      <psa10 value="0.0561508397" flag="0"/>
      <psa30 value="0.0042849657" flag="0"/>
    </comp>
  </station>
  <station code="MALA" name="MALA" netid="CL" insttype="ES-T" lat="38.3934" lon="21.8726">
    <comp name="01.HNE">
      <acc value="1.6539504885" flag="0"/>
      <vel value="0.6643790749" flag="0"/>
      <psa03 value="1.7148853324" flag="0"/>
      <psa10 value="0.5675692596" flag="0"/>
      <psa30 value="0.0500719659" flag="0"/>
    </comp>
    <comp name="01.HNN">
      <acc value="1.4309567836" flag="0"/>
      <vel value="0.3689058487" flag="0"/>
      <psa03 value="1.4450773667" flag="0"/>
      <psa10 value="0.3178168358" flag="0"/>
      <psa30 value="0.0245730597" flag="0"/>
    </comp>
    <comp name="01.HNZ">
      <acc value="0.7921120533" flag="0"/>
      <vel value="0.2281103265" flag="0"/>
      <psa03 value="0.9276843872" flag="0"/>
      <psa10 value="0.1661881762" flag="0"/>
      <psa30 value="0.0121790338" flag="0"/>
    </comp>
  </station>
  <station code="MG00" name="MG00" netid="CL" insttype="TRILLIUM-40" lat="38.4145" lon="21.9467">
    <comp name="00.HHE">
      <acc value="4.7706212531" flag="0"/>
      <vel value="0.7698199039" flag="0"/>
      <psa03 value="3.3120078720" flag="0"/>
      <psa10 value="0.8361461535" flag="0"/>
      <psa30 value="0.0750170269" flag="0"/>
    </comp>
    <comp name="00.HHN">
      <acc value="3.2373463788" flag="0"/>
      <vel value="0.7094472676" flag="0"/>
      <psa03 value="4.0779379424" flag="0"/>
      <psa10 value="0.7324691592" flag="0"/>
      <psa30 value="0.0538783183" flag="0"/>
    </comp>
    <comp name="00.HHZ">
      <acc value="4.0763118693" flag="0"/>
      <vel value="0.6252048314" flag="0"/>
      <psa03 value="2.5116962966" flag="0"/>
      <psa10 value="0.9719011750" flag="0"/>
      <psa30 value="0.0508577113" flag="0"/>
    </comp>
  </station>
  <station code="MG02" name="MG02" netid="CL" insttype="TRILLIUM-40" lat="38.415" lon="21.947">
    <comp name="02.HHE">
      <acc value="2.9761050300" flag="0"/>
      <vel value="0.8857484568" flag="0"/>
      <psa03 value="1.6855527032" flag="0"/>
      <psa10 value="0.5192885932" flag="0"/>
      <psa30 value="0.0897533185" flag="0"/>
    </comp>
    <comp name="02.HHN">
      <acc value="2.6105814125" flag="0"/>
      <vel value="0.6292892375" flag="0"/>
      <psa03 value="3.0242101067" flag="0"/>
      <psa10 value="0.8878040978" flag="0"/>
      <psa30 value="0.0897973478" flag="0"/>
    </comp>
    <comp name="02.HHZ">
      <acc value="4.0619056328" flag="0"/>
      <vel value="0.5143337715" flag="0"/>
      <psa03 value="3.5629181604" flag="0"/>
      <psa10 value="0.3664173456" flag="0"/>
      <psa30 value="0.0652785660" flag="0"/>
    </comp>
  </station>
  <station code="MG03" name="MG03" netid="CL" insttype="TRILLIUM-40" lat="38.4141" lon="21.946">
    <comp name="03.HHE">
      <acc value="4.8137348356" flag="0"/>
      <vel value="0.6522484006" flag="0"/>
      <psa03 value="3.1309425589" flag="0"/>
      <psa10 value="0.5169397723" flag="0"/>
      <psa30 value="0.0677717841" flag="0"/>
    </comp>
    <comp name="03.HHN">
      <acc value="1.5763216656" flag="0"/>
      <vel value="0.2665784315" flag="0"/>
      <psa03 value="1.6903595994" flag="0"/>
      <psa10 value="0.3308714236" flag="0"/>
      <psa30 value="0.0385861358" flag="0"/>
    </comp>
    <comp name="03.HHZ">
      <acc value="4.6287901198" flag="0"/>
      <vel value="0.5978952968" flag="0"/>
      <psa03 value="2.3735480519" flag="0"/>
      <psa10 value="0.2933273823" flag="0"/>
      <psa30 value="0.0626597157" flag="0"/>
    </comp>
  </station>
  <station code="MG04" name="MG04" netid="CL" insttype="TRILLIUM-40" lat="38.4142" lon="21.9481">
    <comp name="04.HHE">
      <acc value="3.8960200845" flag="0"/>
      <vel value="0.6945152967" flag="0"/>
      <psa03 value="2.4967923585" flag="0"/>
      <psa10 value="0.4564926620" flag="0"/>
      <psa30 value="0.1270638584" flag="0"/>
    </comp>
    <comp name="04.HHN">
      <acc value="2.7798935860" flag="0"/>
      <vel value="0.8172599603" flag="0"/>
      <psa03 value="2.6643000409" flag="0"/>
      <psa10 value="0.3642239405" flag="0"/>
      <psa30 value="0.0583174347" flag="0"/>
    </comp>
    <comp name="04.HHZ">
      <acc value="3.4245110367" flag="0"/>
      <vel value="0.6417937320" flag="0"/>
      <psa03 value="2.1257644306" flag="0"/>
      <psa10 value="0.5177198476" flag="0"/>
      <psa30 value="0.0476965304" flag="0"/>
    </comp>
  </station>
  <station code="MG05" name="MG05" netid="CL" insttype="CMG40-T" lat="38.4155" lon="21.9458">
    <comp name="05.HHE">
      <acc value="5.8314200464" flag="0"/>
      <vel value="1.4614011241" flag="0"/>
      <psa03 value="4.0869108133" flag="0"/>
      <psa10 value="1.4899056458" flag="0"/>
      <psa30 value="0.1143329059" flag="0"/>
    </comp>
    <comp name="05.HHN">
      <acc value="8.2697085278" flag="0"/>
      <vel value="1.1822225391" flag="0"/>
      <psa03 value="6.3124203469" flag="0"/>
      <psa10 value="1.2701990538" flag="0"/>
      <psa30 value="0.2021711095" flag="0"/>
    </comp>
    <comp name="05.HHZ">
      <acc value="5.2715430757" flag="0"/>
      <vel value="1.1588512057" flag="0"/>
      <psa03 value="7.5486772378" flag="0"/>
      <psa10 value="0.7156303659" flag="0"/>
      <psa30 value="0.0954015442" flag="0"/>
    </comp>
  </station>
  <station code="MG06" name="MG06" netid="CL" insttype="TRILLIUM-40" lat="38.4129" lon="21.9462">
    <comp name="06.HHE">
      <acc value="3.6918254710" flag="0"/>
      <vel value="0.6591182180" flag="0"/>
      <psa03 value="2.7008673409" flag="0"/>
      <psa10 value="0.5959567279" flag="0"/>
      <psa30 value="0.0702628610" flag="0"/>
    </comp>
    <comp name="06.HHN">
      <acc value="3.9447349011" flag="0"/>
      <vel value="0.6525025347" flag="0"/>
      <psa03 value="1.7489554317" flag="0"/>
      <psa10 value="0.4177121620" flag="0"/>
      <psa30 value="0.0737660788" flag="0"/>
    </comp>
    <comp name="06.HHZ">
      <acc value="3.6929544253" flag="0"/>
      <vel value="0.4779717438" flag="0"/>
      <psa03 value="1.4935729711" flag="0"/>
      <psa10 value="0.2472018785" flag="0"/>
      <psa30 value="0.0298757508" flag="0"/>
    </comp>
  </station>
  <station code="MG07" name="MG07" netid="CL" insttype="TRILLIUM-40" lat="38.4155" lon="21.9488">
    <comp name="07.HHE">
      <acc value="3.2173054953" flag="0"/>
      <vel value="0.6139789270" flag="0"/>
      <psa03 value="2.9640437959" flag="0"/>
      <psa10 value="0.9500128090" flag="0"/>
      <psa30 value="0.0653482891" flag="0"/>
    </comp>
    <comp name="07.HHN">
      <acc value="2.6499104525" flag="0"/>
      <vel value="0.7061610440" flag="0"/>
      <psa03 value="4.0131732742" flag="0"/>
      <psa10 value="0.7645333380" flag="0"/>
      <psa30 value="0.0574655054" flag="0"/>
    </comp>
    <comp name="07.HHZ">
      <acc value="2.4575887043" flag="0"/>
      <vel value="0.5346344651" flag="0"/>
      <psa03 value="4.6233241524" flag="0"/>
      <psa10 value="0.7265200618" flag="0"/>
      <psa30 value="0.0677549987" flag="0"/>
    </comp>
  </station>
  <station code="TRIZ" name="TRIZ" netid="CL" insttype="STS-2" lat="38.3654" lon="22.0727">
    <comp name="00.HH2">
      <acc value="0.0837174808" flag="0"/>
      <vel value="0.0074301731" flag="0"/>
      <psa03 value="0.0137141257" flag="0"/>
      <psa10 value="0.0007258977" flag="0"/>
      <psa30 value="0.0000695451" flag="0"/>
    </comp>
    <comp name="00.HH3">
      <acc value="0.0982748859" flag="0"/>
      <vel value="0.0083661010" flag="0"/>
      <psa03 value="0.0189311758" flag="0"/>
      <psa10 value="0.0007188501" flag="0"/>
      <psa30 value="0.0000945489" flag="0"/>
    </comp>
    <comp name="00.HHZ">
      <acc value="0.1023675982" flag="0"/>
      <vel value="0.0092054920" flag="0"/>
      <psa03 value="0.0121332065" flag="0"/>
      <psa10 value="0.0008591973" flag="0"/>
      <psa30 value="0.0000704906" flag="0"/>
    </comp>
  </station>
  <station code="ACOR" name="ACOR" netid="HA" insttype="30" lat="37.8902" lon="22.8692">
    <comp name="--.HHE">
      <acc value="0.0017329254" flag="0"/>
      <vel value="0.0016676857" flag="0"/>
      <psa03 value="0.0049076356" flag="0"/>
      <psa10 value="0.0024472211" flag="0"/>
      <psa30 value="0.0007937401" flag="0"/>
    </comp>
    <comp name="--.HHZ">
      <acc value="0.0021607364" flag="0"/>
      <vel value="0.0010524873" flag="0"/>
      <psa03 value="0.0041310400" flag="0"/>
      <psa10 value="0.0015833991" flag="0"/>
      <psa30 value="0.0006327474" flag="0"/>
    </comp>
    <comp name="--.HHN">
      <acc value="0.0103094864" flag="0"/>
      <vel value="0.0083954993" flag="0"/>
      <psa03 value="0.0240310084" flag="0"/>
      <psa10 value="0.0132914036" flag="0"/>
      <psa30 value="0.0023385698" flag="0"/>
    </comp>
  </station>
  <station code="KALE" name="KALE" netid="HA" insttype="40," lat="38.3911" lon="22.1398">
    <comp name="--.HHZ">
      <acc value="0.4034075129" flag="0"/>
      <vel value="0.1036373250" flag="0"/>
      <psa03 value="0.8744466666" flag="0"/>
      <psa10 value="0.0644059730" flag="0"/>
      <psa30 value="0.0049060539" flag="0"/>
    </comp>
    <comp name="--.HHE">
      <acc value="0.4212201061" flag="0"/>
      <vel value="0.1373544493" flag="0"/>
      <psa03 value="0.7146552938" flag="0"/>
      <psa10 value="0.1030794708" flag="0"/>
      <psa30 value="0.0088491275" flag="0"/>
    </comp>
    <comp name="--.HHN">
      <acc value="0.5516439889" flag="0"/>
      <vel value="0.1316081923" flag="0"/>
      <psa03 value="0.7737637478" flag="0"/>
      <psa10 value="0.0690475218" flag="0"/>
      <psa30 value="0.0050898614" flag="0"/>
    </comp>
  </station>
  <station code="LAKA" name="LAKA" netid="HA" insttype="120s" lat="38.2401" lon="21.9785">
    <comp name="--.HHN">
      <acc value="0.2551392448" flag="0"/>
      <vel value="0.0369037459" flag="0"/>
      <psa03 value="0.1272768196" flag="0"/>
      <psa10 value="0.0344191188" flag="0"/>
      <psa30 value="0.0074276882" flag="0"/>
    </comp>
    <comp name="--.HHE">
      <acc value="0.1472596749" flag="0"/>
      <vel value="0.0283036797" flag="0"/>
      <psa03 value="0.0919986985" flag="0"/>
      <psa10 value="0.0266803055" flag="0"/>
      <psa30 value="0.0049110107" flag="0"/>
    </comp>
    <comp name="--.HHZ">
      <acc value="0.1541701163" flag="0"/>
      <vel value="0.0215141965" flag="0"/>
      <psa03 value="0.1233499484" flag="0"/>
      <psa10 value="0.0333584239" flag="0"/>
      <psa30 value="0.0069676659" flag="0"/>
    </comp>
  </station>
  <station code="THAL" name="THAL" netid="HA" insttype="30" lat="38.0357" lon="22.6634">
    <comp name="--.HHN">
      <acc value="0.0369744866" flag="0"/>
      <vel value="0.0109542570" flag="0"/>
      <psa03 value="0.0712454211" flag="0"/>
      <psa10 value="0.0095404909" flag="0"/>
      <psa30 value="0.0012461249" flag="0"/>
    </comp>
    <comp name="--.HHE">
      <acc value="0.0371680744" flag="0"/>
      <vel value="0.0100504411" flag="0"/>
      <psa03 value="0.0645791304" flag="0"/>
      <psa10 value="0.0088352653" flag="0"/>
      <psa30 value="0.0020178652" flag="0"/>
    </comp>
    <comp name="--.HHZ">
      <acc value="0.0198136487" flag="0"/>
      <vel value="0.0060235197" flag="0"/>
      <psa03 value="0.0312229033" flag="0"/>
      <psa10 value="0.0076212454" flag="0"/>
      <psa30 value="0.0006860162" flag="0"/>
    </comp>
  </station>
  <station code="VILL" name="VILL" netid="HA" insttype="30" lat="38.1642" lon="23.3122">
    <comp name="--.HHE">
      <acc value="0.0082101693" flag="0"/>
      <vel value="0.0063404140" flag="0"/>
      <psa03 value="0.0301199213" flag="0"/>
      <psa10 value="0.0089145586" flag="0"/>
      <psa30 value="0.0008463595" flag="0"/>
    </comp>
    <comp name="--.HHN">
      <acc value="0.0071556659" flag="0"/>
      <vel value="0.0056237087" flag="0"/>
      <psa03 value="0.0282833560" flag="0"/>
      <psa10 value="0.0068393766" flag="0"/>
      <psa30 value="0.0007245838" flag="0"/>
    </comp>
    <comp name="--.HHZ">
      <acc value="0.0038504981" flag="0"/>
      <vel value="0.0027829481" flag="0"/>
      <psa03 value="0.0094408012" flag="0"/>
      <psa10 value="0.0036439596" flag="0"/>
      <psa30 value="0.0002271871" flag="0"/>
    </comp>
  </station>
  <station code="KLV1" name="KLV1" netid="HI" insttype="CMG-5TD,ACCELEROMETER,GURALP" lat="38.0326" lon="22.108">
    <comp name="--.HNE">
      <acc value="0.0598993174" flag="0"/>
      <vel value="0.0242268215" flag="0"/>
      <psa03 value="0.1329984342" flag="0"/>
      <psa10 value="0.0185632887" flag="0"/>
      <psa30 value="0.0019275019" flag="0"/>
    </comp>
    <comp name="--.HNZ">
      <acc value="0.0437640132" flag="0"/>
      <vel value="0.0107949177" flag="0"/>
      <psa03 value="0.0471303839" flag="0"/>
      <psa10 value="0.0177383795" flag="0"/>
      <psa30 value="0.0021378024" flag="0"/>
    </comp>
    <comp name="--.HNN">
      <acc value="0.0670031446" flag="0"/>
      <vel value="0.0213988376" flag="0"/>
      <psa03 value="0.0968655992" flag="0"/>
      <psa10 value="0.0187451099" flag="0"/>
      <psa30 value="0.0020209966" flag="0"/>
    </comp>
  </station>
  <station code="MSL1" name="MSL1" netid="HI" insttype="CMG-5TD,ACCELEROMETER,GURALP" lat="38.3727" lon="21.4243">
    <comp name="--.HNE">
      <acc value="0.0498821873" flag="0"/>
      <vel value="0.0351108594" flag="0"/>
      <psa03 value="0.1077803211" flag="0"/>
      <psa10 value="0.0801359696" flag="0"/>
      <psa30 value="0.0043290992" flag="0"/>
    </comp>
    <comp name="--.HNN">
      <acc value="0.0599060277" flag="0"/>
      <vel value="0.0607692145" flag="0"/>
      <psa03 value="0.2019716215" flag="0"/>
      <psa10 value="0.1032635387" flag="0"/>
      <psa30 value="0.0056354955" flag="0"/>
    </comp>
    <comp name="--.HNZ">
      <acc value="0.0484103800" flag="0"/>
      <vel value="0.0239984147" flag="0"/>
      <psa03 value="0.0771873895" flag="0"/>
      <psa10 value="0.0536076288" flag="0"/>
      <psa30 value="0.0021043983" flag="0"/>
    </comp>
  </station>
  <station code="DLFA" name="DLFA" netid="HL" insttype="CMG-5" lat="38.4784" lon="22.4958">
    <comp name="00.HNN">
      <acc value="0.0882413975" flag="0"/>
      <vel value="0.0468788184" flag="0"/>
      <psa03 value="0.0990944510" flag="0"/>
      <psa10 value="0.0338814090" flag="0"/>
      <psa30 value="0.0021432633" flag="0"/>
    </comp>
    <comp name="00.HNE">
      <acc value="0.0667028970" flag="0"/>
      <vel value="0.0348172930" flag="0"/>
      <psa03 value="0.1401970448" flag="0"/>
      <psa10 value="0.0427175945" flag="0"/>
      <psa30 value="0.0020169198" flag="0"/>
    </comp>
    <comp name="00.HNZ">
      <acc value="0.0631271973" flag="0"/>
      <vel value="0.0242167189" flag="0"/>
      <psa03 value="0.0912729515" flag="0"/>
      <psa10 value="0.0168180005" flag="0"/>
      <psa30 value="0.0010734779" flag="0"/>
    </comp>
  </station>
  <station code="EVR" name="EVR" netid="HL" insttype="DR24" lat="38.9166" lon="21.8105">
    <comp name="--.HHZ">
      <acc value="0.0510470837" flag="0"/>
      <vel value="0.0228641230" flag="0"/>
      <psa03 value="0.0482556207" flag="0"/>
      <psa10 value="0.0201886648" flag="0"/>
      <psa30 value="0.0020542466" flag="0"/>
    </comp>
    <comp name="--.HHN">
      <acc value="0.0834423742" flag="0"/>
      <vel value="0.0259982164" flag="0"/>
      <psa03 value="0.0757768428" flag="0"/>
      <psa10 value="0.0328183404" flag="0"/>
      <psa30 value="0.0018125428" flag="0"/>
    </comp>
    <comp name="--.HHE">
      <acc value="0.0968076350" flag="0"/>
      <vel value="0.0318016779" flag="0"/>
      <psa03 value="0.1232917156" flag="0"/>
      <psa10 value="0.0322880798" flag="0"/>
      <psa30 value="0.0035841322" flag="0"/>
    </comp>
  </station>
  <station code="KLV" name="KLV" netid="HL" insttype="120" lat="38.0435" lon="22.1504">
    <comp name="--.HHZ">
      <acc value="0.0227140663" flag="0"/>
      <vel value="0.0075954775" flag="0"/>
      <psa03 value="0.0280505108" flag="0"/>
      <psa10 value="0.0066067718" flag="0"/>
      <psa30 value="0.0016807996" flag="0"/>
    </comp>
    <comp name="--.HHN">
      <acc value="0.0268963455" flag="0"/>
      <vel value="0.0046899832" flag="0"/>
      <psa03 value="0.0249964393" flag="0"/>
      <psa10 value="0.0048019621" flag="0"/>
      <psa30 value="0.0013581735" flag="0"/>
    </comp>
    <comp name="--.HHE">
      <acc value="0.0256990373" flag="0"/>
      <vel value="0.0065607197" flag="0"/>
      <psa03 value="0.0227232508" flag="0"/>
      <psa10 value="0.0061714336" flag="0"/>
      <psa30 value="0.0007239774" flag="0"/>
    </comp>
  </station>
  <station code="LKR" name="LKR" netid="HL" insttype="30" lat="38.6496" lon="22.9989">
    <comp name="--.HHE">
      <acc value="0.0608943918" flag="0"/>
      <vel value="0.0160518805" flag="0"/>
      <psa03 value="0.0756039109" flag="0"/>
      <psa10 value="0.0103474160" flag="0"/>
      <psa30 value="0.0005535339" flag="0"/>
    </comp>
    <comp name="--.HHN">
      <acc value="0.0297341153" flag="0"/>
      <vel value="0.0118062916" flag="0"/>
      <psa03 value="0.0699686276" flag="0"/>
      <psa10 value="0.0055101867" flag="0"/>
      <psa30 value="0.0010477637" flag="0"/>
    </comp>
    <comp name="--.HHZ">
      <acc value="0.0199731671" flag="0"/>
      <vel value="0.0064231666" flag="0"/>
      <psa03 value="0.0217576683" flag="0"/>
      <psa10 value="0.0062010000" flag="0"/>
      <psa30 value="0.0010573337" flag="0"/>
    </comp>
  </station>
  <station code="PATC" name="PATC" netid="HL" insttype="CMG-5" lat="38.2693" lon="21.76">
    <comp name="00.HNE">
      <acc value="0.2356278062" flag="0"/>
      <vel value="0.1481621754" flag="0"/>
      <psa03 value="0.3565397415" flag="0"/>
      <psa10 value="0.2004154018" flag="0"/>
      <psa30 value="0.0114589940" flag="0"/>
    </comp>
    <comp name="00.HNN">
      <acc value="0.3198675724" flag="0"/>
      <vel value="0.1486975486" flag="0"/>
      <psa03 value="0.4629421598" flag="0"/>
      <psa10 value="0.1511708558" flag="0"/>
      <psa30 value="0.0159154178" flag="0"/>
    </comp>
    <comp name="00.HNZ">
      <acc value="0.1822434472" flag="0"/>
      <vel value="0.0667670781" flag="0"/>
      <psa03 value="0.3795374896" flag="0"/>
      <psa10 value="0.1207960839" flag="0"/>
      <psa30 value="0.0069637427" flag="0"/>
    </comp>
  </station>
  <station code="PATG" name="PATG" netid="HL" insttype="CMG-5" lat="38.2386" lon="21.7266">
    <comp name="00.HNN">
      <acc value="0.1878077267" flag="0"/>
      <vel value="0.1016126971" flag="0"/>
      <psa03 value="0.3336784045" flag="0"/>
      <psa10 value="0.1392464981" flag="0"/>
      <psa30 value="0.0231700895" flag="0"/>
    </comp>
    <comp name="00.HNZ">
      <acc value="0.0987060525" flag="0"/>
