<stationlist xmlns:esm="https://esm-db.eu/esmws/shakemap/1/" created="1780710896">
	<station code="AOL1" name="AOL1" netid="HI" source="ITSAK Strong Motion Network" insttype="" lat="37.642378" lon="21.624555" esm:processing="manual (Paolucci et al 2011)" esm:quality="good">
		<comp name="--.HNE" depth="0.0">
			<acc value="0.0577971211723683" flag="0"/>
			<vel value="0.0223432710039255" flag="0"/>
			<psa03 value="0.134606906630281" flag="0"/>
			<psa10 value="0.00847824101685832" flag="0"/>
			<psa30 value="0.00137256780088059" flag="0"/>
		</comp>
		<comp name="--.HNN" depth="0.0">
			<acc value="0.056322612915845" flag="0"/>
			<vel value="0.0173652407681789" flag="0"/>
			<psa03 value="0.127580930777196" flag="0"/>
			<psa10 value="0.0189332886124508" flag="0"/>
			<psa30 value="0.0016284740242453" flag="0"/>
		</comp>
		<comp name="--.HNZ" depth="0.0">
			<acc value="0.0372021570475002" flag="0"/>
			<vel value="0.014003960785005" flag="0"/>
			<psa03 value="0.0642698825642996" flag="0"/>
			<psa10 value="0.00421688575423581" flag="0"/>
			<psa30 value="0.000523061629432563" flag="0"/>
		</comp>
	</station>
	<station code="ITC1" name="ITC1" netid="HI" source="ITSAK Strong Motion Network" insttype="" lat="38.3647" lon="20.7156" esm:processing="manual (Paolucci et al 2011)" esm:quality="good">
		<comp name="--.HNE" depth="0.0">
			<acc value="0.00789364432575572" flag="0"/>
			<vel value="0.00359915348406999" flag="0"/>
			<psa03 value="0.0241940454451059" flag="0"/>
			<psa10 value="0.00333328573569607" flag="0"/>
			<psa30 value="0.000262001939675998" flag="0"/>
		</comp>
		<comp name="--.HNN" depth="0.0">
			<acc value="0.00714488978751892" flag="0"/>
			<vel value="0.00411342840993195" flag="0"/>
			<psa03 value="0.0144115679769002" flag="0"/>
			<psa10 value="0.0062860947041736" flag="0"/>
			<psa30 value="0.000393987948726344" flag="0"/>
		</comp>
		<comp name="--.HNZ" depth="0.0">
			<acc value="0.00649322344242793" flag="0"/>
			<vel value="0.00306785654130056" flag="0"/>
			<psa03 value="0.013657674285143" flag="0"/>
			<psa10 value="0.00294917849360138" flag="0"/>
			<psa30 value="0.000352729746822952" flag="0"/>
		</comp>
	</station>
	<station code="KRI1" name="KRI1" netid="HI" source="ITSAK Strong Motion Network" insttype="" lat="37.6621" lon="20.8172" esm:processing="manual (Paolucci et al 2011)" esm:quality="best">
		<comp name="--.HNE" depth="0.0">
			<acc value="0.405286894906153" flag="0"/>
			<vel value="0.174001978903489" flag="0"/>
			<psa03 value="0.853412849036915" flag="0"/>
			<psa10 value="0.0361364905973134" flag="0"/>
			<psa30 value="0.00409972839243224" flag="0"/>
		</comp>
		<comp name="--.HNN" depth="0.0">
			<acc value="0.346298021445857" flag="0"/>
			<vel value="0.140944600469534" flag="0"/>
			<psa03 value="0.691893483144954" flag="0"/>
			<psa10 value="0.0469444180280231" flag="0"/>
			<psa30 value="0.00549255328445904" flag="0"/>
		</comp>
		<comp name="--.HNZ" depth="0.0">
			<acc value="0.139753907942408" flag="0"/>
			<vel value="0.0523871650971144" flag="0"/>
			<psa03 value="0.375163402494209" flag="0"/>
			<psa10 value="0.01474613645725" flag="0"/>
			<psa30 value="0.00202011062881497" flag="0"/>
		</comp>
	</station>
	<station code="LXR1" name="LXR1" netid="HI" source="ITSAK Strong Motion Network" insttype="" lat="38.201" lon="20.4374" esm:processing="manual (Paolucci et al 2011)" esm:quality="good">
		<comp name="--.HNE" depth="0.0">
			<acc value="0.0277486529253902" flag="0"/>
			<vel value="0.0165822298002747" flag="0"/>
			<psa03 value="0.11347563178703" flag="0"/>
			<psa10 value="0.0215870412855415" flag="0"/>
			<psa30 value="0.0012535327278912" flag="0"/>
		</comp>
		<comp name="--.HNN" depth="0.0">
			<acc value="0.0311010098372034" flag="0"/>
			<vel value="0.0223731023567282" flag="0"/>
			<psa03 value="0.0784483113989592" flag="0"/>
			<psa10 value="0.0220044158095553" flag="0"/>
			<psa30 value="0.00188329788424208" flag="0"/>
		</comp>
		<comp name="--.HNZ" depth="0.0">
			<acc value="0.0243816838393354" flag="0"/>
			<vel value="0.0100129715996206" flag="0"/>
			<psa03 value="0.0491805235933226" flag="0"/>
			<psa10 value="0.00955124616068306" flag="0"/>
			<psa30 value="0.000748775175597252" flag="0"/>
		</comp>
	</station>
	<station code="NMA1" name="NMA1" netid="HI" source="ITSAK Strong Motion Network" insttype="" lat="37.81873" lon="22.662702" esm:processing="manual (Paolucci et al 2011)" esm:quality="good">
		<comp name="--.HNE" depth="0.0">
			<acc value="0.00234120085266919" flag="0"/>
			<vel value="0.0017059213045546" flag="0"/>
			<psa03 value="0.00728225259578669" flag="0"/>
			<psa10 value="0.00265947109878329" flag="0"/>
			<psa30 value="0.000283294704383827" flag="0"/>
		</comp>
		<comp name="--.HNN" depth="0.0">
			<acc value="0.00187947975427144" flag="0"/>
			<vel value="0.00158045403656099" flag="0"/>
			<psa03 value="0.00540960087252969" flag="0"/>
			<psa10 value="0.00220875663178684" flag="0"/>
			<psa30 value="0.000244747046624016" flag="0"/>
		</comp>
		<comp name="--.HNZ" depth="0.0">
			<acc value="0.00163647460118823" flag="0"/>
			<vel value="0.00128883445998087" flag="0"/>
			<psa03 value="0.00368047460765076" flag="0"/>
			<psa10 value="0.00117518910051038" flag="0"/>
			<psa30 value="0.000212373013982404" flag="0"/>
		</comp>
	</station>
	<station code="PRE2" name="PRE2" netid="HI" source="ITSAK Strong Motion Network" insttype="" lat="38.9577" lon="20.7548" esm:processing="manual (Paolucci et al 2011)" esm:quality="good">
		<comp name="--.HNE" depth="0.0">
			<acc value="0.00591284741658315" flag="0"/>
			<vel value="0.00544851495185983" flag="0"/>
			<psa03 value="0.0244925131337921" flag="0"/>
			<psa10 value="0.00633320110599153" flag="0"/>
			<psa30 value="0.000999691537158105" flag="0"/>
		</comp>
		<comp name="--.HNN" depth="0.0">
			<acc value="0.00479766279948296" flag="0"/>
			<vel value="0.00535766137441448" flag="0"/>
			<psa03 value="0.0127397788436581" flag="0"/>
			<psa10 value="0.00789383417777335" flag="0"/>
			<psa30 value="0.00124387521312825" flag="0"/>
		</comp>
		<comp name="--.HNZ" depth="0.0">
			<acc value="0.00310912599520109" flag="0"/>
			<vel value="0.00220152172796975" flag="0"/>
			<psa03 value="0.00589983028792671" flag="0"/>
			<psa10 value="0.00242633526405341" flag="0"/>
			<psa30 value="0.000528202803343436" flag="0"/>
		</comp>
	</station>
	<station code="PYR2" name="PYR2" netid="HI" source="ITSAK Strong Motion Network" insttype="" lat="37.6671" lon="21.4506" esm:processing="manual (Paolucci et al 2011)" esm:quality="good">
		<comp name="--.HNE" depth="0.0">
			<acc value="0.0293443444750065" flag="0"/>
			<vel value="0.0141102766182943" flag="0"/>
			<psa03 value="0.0750798174194314" flag="0"/>
			<psa10 value="0.00731403826913989" flag="0"/>
			<psa30 value="0.00166786955067225" flag="0"/>
		</comp>
		<comp name="--.HNN" depth="0.0">
			<acc value="0.0273319290646796" flag="0"/>
			<vel value="0.0115858677278549" flag="0"/>
			<psa03 value="0.0872347528325825" flag="0"/>
			<psa10 value="0.00851686857574452" flag="0"/>
			<psa30 value="0.00103062035687395" flag="0"/>
		</comp>
		<comp name="--.HNZ" depth="0.0">
			<acc value="0.0131530326411076" flag="0"/>
			<vel value="0.0043268012523759" flag="0"/>
			<psa03 value="0.0267588533718769" flag="0"/>
			<psa10 value="0.00497365916801043" flag="0"/>
			<psa30 value="0.000741870447359559" flag="0"/>
		</comp>
	</station>
	<station code="PYR3" name="PYR3" netid="HI" source="ITSAK Strong Motion Network" insttype="" lat="37.6788" lon="21.46209" esm:processing="manual (Paolucci et al 2011)" esm:quality="good">
		<comp name="--.HNE" depth="0.0">
			<acc value="0.0436642634389748" flag="0"/>
			<vel value="0.017888999659779" flag="0"/>
			<psa03 value="0.0901761195586926" flag="0"/>
			<psa10 value="0.00918164136367918" flag="0"/>
			<psa30 value="0.00164550421491185" flag="0"/>
		</comp>
		<comp name="--.HNN" depth="0.0">
			<acc value="0.0409821756039628" flag="0"/>
			<vel value="0.015579478401326" flag="0"/>
			<psa03 value="0.0720456580879332" flag="0"/>
			<psa10 value="0.0108193232895694" flag="0"/>
			<psa30 value="0.00109802430122113" flag="0"/>
		</comp>
		<comp name="--.HNZ" depth="0.0">
			<acc value="0.0214408008405711" flag="0"/>
			<vel value="0.00799229014988321" flag="0"/>
			<psa03 value="0.0602956661669678" flag="0"/>
			<psa10 value="0.00555779177017855" flag="0"/>
			<psa30 value="0.000974512681682501" flag="0"/>
		</comp>
	</station>
	<station code="VSK1" name="VSK1" netid="HI" source="ITSAK Strong Motion Network" insttype="" lat="38.4091" lon="20.564" esm:processing="manual (Paolucci et al 2011)" esm:quality="good">
		<comp name="--.HNE" depth="0.0">
			<acc value="0.0072295123026383" flag="0"/>
			<vel value="0.00407365915765941" flag="0"/>
			<psa03 value="0.0179387912214627" flag="0"/>
			<psa10 value="0.00623968397344046" flag="0"/>
			<psa30 value="0.000533518363806563" flag="0"/>
		</comp>
		<comp name="--.HNN" depth="0.0">
			<acc value="0.00803521952747823" flag="0"/>
			<vel value="0.00629984146277183" flag="0"/>
			<psa03 value="0.0177332502616329" flag="0"/>
			<psa10 value="0.00912981574298616" flag="0"/>
			<psa30 value="0.000831177717694588" flag="0"/>
		</comp>
		<comp name="--.HNZ" depth="0.0">
			<acc value="0.00416268332796477" flag="0"/>
			<vel value="0.00288920941034911" flag="0"/>
			<psa03 value="0.00979682607498047" flag="0"/>
			<psa10 value="0.00538678419176574" flag="0"/>
			<psa30 value="0.000282513637016947" flag="0"/>
		</comp>
	</station>
	<station code="ZAK2" name="ZAK2" netid="HI" source="ITSAK Strong Motion Network" insttype="" lat="37.787501" lon="20.899999" esm:processing="manual (Paolucci et al 2011)" esm:quality="good">
		<comp name="--.HNE" depth="0.0">
			<acc value="0.127238631620769" flag="0"/>
			<vel value="0.0760169463198211" flag="0"/>
			<psa03 value="0.481720869976806" flag="0"/>
			<psa10 value="0.0433673891266935" flag="0"/>
			<psa30 value="0.00474183579001603" flag="0"/>
		</comp>
		<comp name="--.HNN" depth="0.0">
			<acc value="0.178628688043927" flag="0"/>
			<vel value="0.0974019001294167" flag="0"/>
			<psa03 value="0.394476882157451" flag="0"/>
			<psa10 value="0.0611249317267413" flag="0"/>
			<psa30 value="0.00505829425383616" flag="0"/>
		</comp>
		<comp name="--.HNZ" depth="0.0">
			<acc value="0.0821024308955107" flag="0"/>
			<vel value="0.0373909535596502" flag="0"/>
			<psa03 value="0.164303873908618" flag="0"/>
			<psa10 value="0.0282116170061712" flag="0"/>
			<psa30 value="0.00455265700785015" flag="0"/>
		</comp>
	</station>
	<station code="ITM" name="ITM" netid="HL" source="National Observatory of Athens Seismic Network" insttype="" lat="37.17872" lon="21.92522" esm:processing="manual (Paolucci et al 2011)" esm:quality="bad">
		<comp name="--.HNE" depth="0.0">
			<acc value="0.00400504085150083" flag="0"/>
			<vel value="0.00266984066884866" flag="0"/>
			<psa03 value="0.00735322734958274" flag="0"/>
			<psa10 value="0.00238346265832845" flag="0"/>
			<psa30 value="0.000502698822163616" flag="0"/>
		</comp>
		<comp name="--.HNN" depth="0.0">
			<acc value="0.00542425711534356" flag="0"/>
			<vel value="0.00236050987261435" flag="0"/>
			<psa03 value="0.00766336182679259" flag="0"/>
			<psa10 value="0.00214244942675799" flag="0"/>
			<psa30 value="0.000860099789889531" flag="0"/>
		</comp>
		<comp name="--.HNZ" depth="0.0">
			<acc value="0.00236884498178942" flag="0"/>
			<vel value="0.00145175632008756" flag="0"/>
			<psa03 value="0.00598574939111196" flag="0"/>
			<psa10 value="0.00173912356777515" flag="0"/>
			<psa30 value="0.000279187401045045" flag="0"/>
		</comp>
	</station>
	<station code="PATC" name="PATC" netid="HL" source="National Observatory of Athens Seismic Network" insttype="" lat="38.26933" lon="21.76001" esm:processing="manual (Paolucci et al 2011)" esm:quality="bad">
		<comp name="00.HNE" depth="0.0">
			<acc value="0.00684140411050716" flag="0"/>
			<vel value="0.00584935383077238" flag="0"/>
			<psa03 value="0.0221103162624184" flag="0"/>
			<psa10 value="0.00641660334971941" flag="0"/>
			<psa30 value="0.00133946019099745" flag="0"/>
		</comp>
		<comp name="00.HNN" depth="0.0">
			<acc value="0.00537947248367048" flag="0"/>
			<vel value="0.00466038018561561" flag="0"/>
			<psa03 value="0.0166199173942228" flag="0"/>
			<psa10 value="0.0058025231386793" flag="0"/>
			<psa30 value="0.0012315967955778" flag="0"/>
		</comp>
		<comp name="00.HNZ" depth="0.0">
			<acc value="0.00502377441053742" flag="0"/>
			<vel value="0.00413363606529297" flag="0"/>
			<psa03 value="0.0112139694329208" flag="0"/>
			<psa10 value="0.00430474376189015" flag="0"/>
			<psa30 value="0.000408765307862173" flag="0"/>
		</comp>
	</station>
</stationlist>
