<?xml version="1.0" encoding="UTF-8" standalone="yes"?>
<!DOCTYPE earthquake SYSTEM "stationlist.dtd">
<stationlist created="" xmlns="ch.ethz.sed.shakemap.usgs.xml">
  <station code="PSDA" name="PSDA" netid="HT" source="NOA" insttype="30" lat="38.114" lon="20.5841">
    <comp name="--.HHE">
      <acc value="0.0291908468" flag="0"/>
      <vel value="0.0101053008" flag="0"/>
      <psa03 value="0.0369013404" flag="0"/>
      <psa10 value="0.0054675810" flag="0"/>
      <psa30 value="0.0003951348" flag="0"/>
    </comp>
    <comp name="--.HHN">
      <acc value="0.0446220129" flag="0"/>
      <vel value="0.0099692422" flag="0"/>
      <psa03 value="0.0418094584" flag="0"/>
      <psa10 value="0.0069893647" flag="0"/>
      <psa30 value="0.0005287485" flag="0"/>
    </comp>
  </station>
</stationlist>
