<stationlist xmlns:esm="https://esm-db.eu/esmws/shakemap/1/" created="1780538079">
	<station code="AOL1" name="AOL1" netid="HI" source="ITSAK Strong Motion Network" insttype="" lat="37.642378" lon="21.624555" esm:processing="manual (Paolucci et al 2011)" esm:quality="good">
		<comp name="--.HNE" depth="0.0">
			<acc value="0.0577971211723683" flag="0"/>
			<vel value="0.0223432710039255" flag="0"/>
			<psa03 value="0.134606906630281" flag="0"/>
			<psa10 value="0.00847824101685832" flag="0"/>
			<psa30 value="0.00137256780088059" flag="0"/>
		</comp>
		<comp name="--.HNN" depth="0.0">
			<acc value="0.056322612915845" flag="0"/>
			<vel value="0.0173652407681789" flag="0"/>
			<psa03 value="0.127580930777196" flag="0"/>
			<psa10 value="0.0189332886124508" flag="0"/>
			<psa30 value="0.0016284740242453" flag="0"/>
		</comp>
		<comp name="--.HNZ" depth="0.0">
			<acc value="0.0372021570475002" flag="0"/>
			<vel value="0.014003960785005" flag="0"/>
			<psa03 value="0.0642698825642996" flag="0"/>
			<psa10 value="0.00421688575423581" flag="0"/>
			<psa30 value="0.000523061629432563" flag="0"/>
		</comp>
	</station>
	<station code="KRI1" name="KRI1" netid="HI" source="ITSAK Strong Motion Network" insttype="" lat="37.6621" lon="20.8172" esm:processing="manual (Paolucci et al 2011)" esm:quality="best">
		<comp name="--.HNE" depth="0.0">
			<acc value="0.405286894906153" flag="0"/>
			<vel value="0.174001978903489" flag="0"/>
			<psa03 value="0.853412849036915" flag="0"/>
			<psa10 value="0.0361364905973134" flag="0"/>
			<psa30 value="0.00409972839243224" flag="0"/>
		</comp>
		<comp name="--.HNN" depth="0.0">
			<acc value="0.346298021445857" flag="0"/>
			<vel value="0.140944600469534" flag="0"/>
			<psa03 value="0.691893483144954" flag="0"/>
			<psa10 value="0.0469444180280231" flag="0"/>
			<psa30 value="0.00549255328445904" flag="0"/>
		</comp>
		<comp name="--.HNZ" depth="0.0">
			<acc value="0.139753907942408" flag="0"/>
			<vel value="0.0523871650971144" flag="0"/>
			<psa03 value="0.375163402494209" flag="0"/>
			<psa10 value="0.01474613645725" flag="0"/>
			<psa30 value="0.00202011062881497" flag="0"/>
		</comp>
	</station>
	<station code="ITM" name="ITM" netid="HL" source="National Observatory of Athens Seismic Network" insttype="" lat="37.17872" lon="21.92522" esm:processing="manual (Paolucci et al 2011)" esm:quality="bad">
		<comp name="--.HNE" depth="0.0">
			<acc value="0.00400504085150083" flag="0"/>
			<vel value="0.00266984066884866" flag="0"/>
			<psa03 value="0.00735322734958274" flag="0"/>
			<psa10 value="0.00238346265832845" flag="0"/>
			<psa30 value="0.000502698822163616" flag="0"/>
		</comp>
		<comp name="--.HNN" depth="0.0">
			<acc value="0.00542425711534356" flag="0"/>
			<vel value="0.00236050987261435" flag="0"/>
			<psa03 value="0.00766336182679259" flag="0"/>
			<psa10 value="0.00214244942675799" flag="0"/>
			<psa30 value="0.000860099789889531" flag="0"/>
		</comp>
		<comp name="--.HNZ" depth="0.0">
			<acc value="0.00236884498178942" flag="0"/>
			<vel value="0.00145175632008756" flag="0"/>
			<psa03 value="0.00598574939111196" flag="0"/>
			<psa10 value="0.00173912356777515" flag="0"/>
			<psa30 value="0.000279187401045045" flag="0"/>
		</comp>
	</station>
	<station code="PATC" name="PATC" netid="HL" source="National Observatory of Athens Seismic Network" insttype="" lat="38.26933" lon="21.76001" esm:processing="manual (Paolucci et al 2011)" esm:quality="bad">
		<comp name="00.HNE" depth="0.0">
			<acc value="0.00684140411050716" flag="0"/>
			<vel value="0.00584935383077238" flag="0"/>
			<psa03 value="0.0221103162624184" flag="0"/>
			<psa10 value="0.00641660334971941" flag="0"/>
			<psa30 value="0.00133946019099745" flag="0"/>
		</comp>
		<comp name="00.HNN" depth="0.0">
			<acc value="0.00537947248367048" flag="0"/>
			<vel value="0.00466038018561561" flag="0"/>
			<psa03 value="0.0166199173942228" flag="0"/>
			<psa10 value="0.0058025231386793" flag="0"/>
			<psa30 value="0.0012315967955778" flag="0"/>
		</comp>
		<comp name="00.HNZ" depth="0.0">
			<acc value="0.00502377441053742" flag="0"/>
			<vel value="0.00413363606529297" flag="0"/>
			<psa03 value="0.0112139694329208" flag="0"/>
			<psa10 value="0.00430474376189015" flag="0"/>
			<psa30 value="0.000408765307862173" flag="0"/>
		</comp>
	</station>
</stationlist>
