<stationlist created="1711708277">
	<station code="SRN" name="SRN" netid="AC" source="Albanian Seismological Network (AC)" insttype="" lat="39.880001" lon="20.0005">
		<comp name="00.HHE" depth="0.0">
			<acc value="0.0051371119424256" flag="0"/>
			<vel value="0.00823333553065" flag="0"/>
			<psa03 value="0.00566059829416175" flag="0"/>
			<psa10 value="0.00876735798191929" flag="0"/>
			<psa30 value="0.00444028748058652" flag="0"/>
		</comp>
		<comp name="00.HHN" depth="0.0">
			<acc value="0.004658933074716" flag="0"/>
			<vel value="0.00595173978591" flag="0"/>
			<psa03 value="0.00588149248458961" flag="0"/>
			<psa10 value="0.00598359403997357" flag="0"/>
			<psa30 value="0.00285096761261169" flag="0"/>
		</comp>
		<comp name="00.HHZ" depth="0.0">
			<acc value="0.003673171186236" flag="0"/>
			<vel value="0.00791801196852" flag="0"/>
			<psa03 value="0.0057751345274444" flag="0"/>
			<psa10 value="0.00526970706099186" flag="0"/>
			<psa30 value="0.00301248768752445" flag="0"/>
		</comp>
	</station>
	<station code="MALA" name="MALA" netid="CL" source="Corinth Riff Laboratory (CRLNET)" insttype="" lat="38.39341" lon="21.87263">
		<comp name="00.HNE" depth="0.0">
			<acc value="0.40586113634292" flag="0"/>
			<vel value="0.581438042941" flag="0"/>
			<psa03 value="0.949109040484635" flag="0"/>
			<psa10 value="1.07258509349949" flag="0"/>
			<psa30 value="0.180431899394573" flag="0"/>
		</comp>
		<comp name="00.HNN" depth="0.0">
			<acc value="0.32400753589614" flag="0"/>
			<vel value="0.534918460488" flag="0"/>
			<psa03 value="0.743747686299018" flag="0"/>
			<psa10 value="1.18995022836338" flag="0"/>
			<psa30 value="0.135416277330579" flag="0"/>
		</comp>
		<comp name="00.HNZ" depth="0.0">
			<acc value="0.1311401200989" flag="0"/>
			<vel value="0.185944078311" flag="0"/>
			<psa03 value="0.292865963432988" flag="0"/>
			<psa10 value="0.411122454846273" flag="0"/>
			<psa30 value="0.0581345644629183" flag="0"/>
		</comp>
	</station>
	<station code="TRIZ" name="TRIZ" netid="CL" source="Corinth Riff Laboratory (CRLNET)" insttype="" lat="38.36543" lon="22.07272">
		<comp name="00.HNE" depth="0.0">
			<acc value="0.2726380530576" flag="0"/>
			<vel value="0.229187367869" flag="0"/>
			<psa03 value="0.848755142527559" flag="0"/>
			<psa10 value="0.236149003712479" flag="0"/>
			<psa30 value="0.0510600758128882" flag="0"/>
		</comp>
		<comp name="00.HNN" depth="0.0">
			<acc value="0.27856899449292" flag="0"/>
			<vel value="0.268013027862" flag="0"/>
			<psa03 value="1.00088447034865" flag="0"/>
			<psa10 value="0.357526634384874" flag="0"/>
			<psa30 value="0.0662364211709659" flag="0"/>
		</comp>
		<comp name="00.HNZ" depth="0.0">
			<acc value="0.1088195652201" flag="0"/>
			<vel value="0.145429397443" flag="0"/>
			<psa03 value="0.272110067623326" flag="0"/>
			<psa10 value="0.199881746184693" flag="0"/>
			<psa30 value="0.0236488732884807" flag="0"/>
		</comp>
	</station>
	<station code="AIGS" name="AIGS" netid="HA" source="Hellenic Seismological Network, University of Athens, Seismological Laboratory (HA)" insttype="" lat="38.25001" lon="22.0878">
		<comp name=".HNE" depth="0.0">
			<acc value="0.4011616178097" flag="0"/>
			<vel value="0.395281872403" flag="0"/>
			<psa03 value="1.05611987942555" flag="0"/>
			<psa10 value="0.455207555265388" flag="0"/>
			<psa30 value="0.0757099687472391" flag="0"/>
		</comp>
		<comp name=".HNN" depth="0.0">
			<acc value="0.38610683480508" flag="0"/>
			<vel value="0.392234760801" flag="0"/>
			<psa03 value="0.765709057799652" flag="0"/>
			<psa10 value="0.573519852876397" flag="0"/>
			<psa30 value="0.0773159484686078" flag="0"/>
		</comp>
		<comp name=".HNZ" depth="0.0">
			<acc value="0.18512289578874" flag="0"/>
			<vel value="0.344946209317" flag="0"/>
			<psa03 value="0.556888307785842" flag="0"/>
			<psa10 value="0.507386591870314" flag="0"/>
			<psa30 value="0.0538180218463101" flag="0"/>
		</comp>
	</station>
	<station code="DRES" name="DRES" netid="HA" source="Hellenic Seismological Network, University of Athens, Seismological Laboratory (HA)" insttype="" lat="38.319719" lon="21.853176">
		<comp name=".HNE" depth="0.0">
			<acc value="0.33943294464828" flag="0"/>
			<vel value="0.411852917468" flag="0"/>
			<psa03 value="0.804599050740018" flag="0"/>
			<psa10 value="0.942917043625367" flag="0"/>
			<psa30 value="0.112543722135889" flag="0"/>
		</comp>
		<comp name=".HNN" depth="0.0">
			<acc value="0.27197120013714" flag="0"/>
			<vel value="0.342377786449" flag="0"/>
			<psa03 value="0.668664920770068" flag="0"/>
			<psa10 value="0.443863683789653" flag="0"/>
			<psa30 value="0.117254034171189" flag="0"/>
		</comp>
		<comp name=".HNZ" depth="0.0">
			<acc value="0.13158920599776" flag="0"/>
			<vel value="0.177164713923" flag="0"/>
			<psa03 value="0.340107322107522" flag="0"/>
			<psa10 value="0.419335708932147" flag="0"/>
			<psa30 value="0.0467307356818013" flag="0"/>
		</comp>
	</station>
	<station code="KIAS" name="KIAS" netid="HA" source="Hellenic Seismological Network, University of Athens, Seismological Laboratory (HA)" insttype="" lat="37.9875" lon="22.7543">
		<comp name=".HNE" depth="0.0">
			<acc value="0.24628660511184" flag="0"/>
			<vel value="0.45024374195" flag="0"/>
			<psa03 value="0.572178695697108" flag="0"/>
			<psa10 value="0.629837543646757" flag="0"/>
			<psa30 value="0.152406856206242" flag="0"/>
		</comp>
		<comp name=".HNN" depth="0.0">
			<acc value="0.3242302055253" flag="0"/>
			<vel value="0.555761562866" flag="0"/>
			<psa03 value="0.634016625489794" flag="0"/>
			<psa10 value="0.687594849783108" flag="0"/>
			<psa30 value="0.127397759476242" flag="0"/>
		</comp>
		<comp name=".HNZ" depth="0.0">
			<acc value="0.197456574795" flag="0"/>
			<vel value="0.235100936092" flag="0"/>
			<psa03 value="0.684868160822566" flag="0"/>
			<psa10 value="0.351129760623274" flag="0"/>
			<psa30 value="0.0617396832844941" flag="0"/>
		</comp>
	</station>
	<station code="ABEA" name="ABEA" netid="HC" source="Seismological Network of Crete (HC)" insttype="" lat="35.5163" lon="24.0113">
		<comp name=".HNE" depth="0.0">
			<acc value="0.14020092835386" flag="0"/>
			<vel value="0.171663309956" flag="0"/>
			<psa03 value="0.345504429639438" flag="0"/>
			<psa10 value="0.207868710281786" flag="0"/>
			<psa30 value="0.0883989026599967" flag="0"/>
		</comp>
		<comp name=".HNN" depth="0.0">
			<acc value="0.13818722670072" flag="0"/>
			<vel value="0.112976427207" flag="0"/>
			<psa03 value="0.262794992211854" flag="0"/>
			<psa10 value="0.139062767225672" flag="0"/>
			<psa30 value="0.0622699517452633" flag="0"/>
		</comp>
		<comp name=".HNZ" depth="0.0">
			<acc value="0.22231262165178" flag="0"/>
			<vel value="0.0830382304639" flag="0"/>
			<psa03 value="0.119373449571895" flag="0"/>
			<psa10 value="0.177208554197195" flag="0"/>
			<psa30 value="0.032462370472743" flag="0"/>
		</comp>
	</station>
	<station code="ATEI" name="ATEI" netid="HC" source="Seismological Network of Crete (HC)" insttype="" lat="35.5193" lon="24.0432">
		<comp name=".HNE" depth="0.0">
			<acc value="0.097350732986802" flag="0"/>
			<vel value="0.0838261758771" flag="0"/>
			<psa03 value="0.43363701799089" flag="0"/>
			<psa10 value="0.162428195070749" flag="0"/>
			<psa30 value="0.032729144811887" flag="0"/>
		</comp>
		<comp name=".HNN" depth="0.0">
			<acc value="0.12827062250724" flag="0"/>
			<vel value="0.093610506523" flag="0"/>
			<psa03 value="0.238427148795067" flag="0"/>
			<psa10 value="0.153514529584146" flag="0"/>
			<psa30 value="0.0517482347333971" flag="0"/>
		</comp>
		<comp name=".HNZ" depth="0.0">
			<acc value="0.075585367251336" flag="0"/>
			<vel value="0.0646933044148" flag="0"/>
			<psa03 value="0.151116458640232" flag="0"/>
			<psa10 value="0.0659407232493109" flag="0"/>
			<psa30 value="0.0255249542363024" flag="0"/>
		</comp>
	</station>
	<station code="G0LD" name="G0LD" netid="HC" source="Seismological Network of Crete (HC)" insttype="" lat="35.4955" lon="24.0306">
		<comp name=".HNE" depth="0.0">
			<acc value="0.010563865722306" flag="0"/>
			<vel value="0.00393361871056" flag="0"/>
			<psa03 value="0.00288677098701553" flag="0"/>
			<psa10 value="0.00259369666342426" flag="0"/>
			<psa30 value="0.00129476723030947" flag="0"/>
		</comp>
		<comp name=".HNN" depth="0.0">
			<acc value="0.028873740725838" flag="0"/>
			<vel value="0.00542331227789" flag="0"/>
			<psa03 value="0.00346812785843079" flag="0"/>
			<psa10 value="0.0017128591716378" flag="0"/>
			<psa30 value="0.00100082036193875" flag="0"/>
		</comp>
		<comp name=".HNZ" depth="0.0">
			<acc value="0.0093251570380728" flag="0"/>
			<vel value="0.0102677027038" flag="0"/>
			<psa03 value="0.00274013008787831" flag="0"/>
			<psa10 value="0.0023665558352108" flag="0"/>
			<psa30 value="0.00238990206928261" flag="0"/>
		</comp>
	</station>
	<station code="LENT" name="LENT" netid="HC" source="Seismological Network of Crete (HC)" insttype="" lat="35.5074" lon="24.0402">
		<comp name=".HNE" depth="0.0">
			<acc value="0.072642572677548" flag="0"/>
			<vel value="0.0337206335801" flag="0"/>
			<psa03 value="0.0562157135983682" flag="0"/>
			<psa10 value="0.0752534601723971" flag="0"/>
			<psa30 value="0.00544184299539119" flag="0"/>
		</comp>
		<comp name=".HNN" depth="0.0">
			<acc value="0.031590780165672" flag="0"/>
			<vel value="0.0320751955002" flag="0"/>
			<psa03 value="0.0550295673138008" flag="0"/>
			<psa10 value="0.0515603393694608" flag="0"/>
			<psa30 value="0.0100975364122476" flag="0"/>
		</comp>
		<comp name=".HNZ" depth="0.0">
			<acc value="0.093436611210492" flag="0"/>
			<vel value="0.0310068953059" flag="0"/>
			<psa03 value="0.0676553985046778" flag="0"/>
			<psa10 value="0.0529087186931042" flag="0"/>
			<psa30 value="0.00506996294348871" flag="0"/>
		</comp>
	</station>
	<station code="MULT" name="MULT" netid="HC" source="Seismological Network of Crete (HC)" insttype="" lat="35.5091" lon="24.0118">
		<comp name=".HNE" depth="0.0">
			<acc value="0.12811241257572" flag="0"/>
			<vel value="0.146222749391" flag="0"/>
			<psa03 value="0.308583004609663" flag="0"/>
			<psa10 value="0.158283615512658" flag="0"/>
			<psa30 value="0.0865819689636647" flag="0"/>
		</comp>
		<comp name=".HNN" depth="0.0">
			<acc value="0.14324750625648" flag="0"/>
			<vel value="0.191495730545" flag="0"/>
			<psa03 value="0.345090777236916" flag="0"/>
			<psa10 value="0.19855903356134" flag="0"/>
			<psa30 value="0.071451853334425" flag="0"/>
		</comp>
		<comp name=".HNZ" depth="0.0">
			<acc value="0.082913294887752" flag="0"/>
			<vel value="0.0853134049902" flag="0"/>
			<psa03 value="0.179556853093565" flag="0"/>
			<psa10 value="0.15101219881692" flag="0"/>
			<psa30 value="0.0313752251213343" flag="0"/>
		</comp>
	</station>
	<station code="PASK" name="PASK" netid="HC" source="Seismological Network of Crete (HC)" insttype="" lat="35.4996" lon="24.0121">
		<comp name=".HNE" depth="0.0">
			<acc value="0.14849452947162" flag="0"/>
			<vel value="0.167114987023" flag="0"/>
			<psa03 value="0.407338692522388" flag="0"/>
			<psa10 value="0.208744048268649" flag="0"/>
			<psa30 value="0.0860130979458054" flag="0"/>
		</comp>
		<comp name=".HNN" depth="0.0">
			<acc value="0.17729926433748" flag="0"/>
			<vel value="0.229914228028" flag="0"/>
			<psa03 value="0.4091432704002" flag="0"/>
			<psa10 value="0.359166603024792" flag="0"/>
			<psa30 value="0.0861633078961654" flag="0"/>
		</comp>
		<comp name=".HNZ" depth="0.0">
			<acc value="0.100150615495638" flag="0"/>
			<vel value="0.0930088666634" flag="0"/>
			<psa03 value="0.274796120561049" flag="0"/>
			<psa10 value="0.144491011820594" flag="0"/>
			<psa30 value="0.029203131230795" flag="0"/>
		</comp>
	</station>
	<station code="POLY" name="POLY" netid="HC" source="Seismological Network of Crete (HC)" insttype="" lat="35.5226" lon="24.0602">
		<comp name=".HNE" depth="0.0">
			<acc value="0.093990232256112" flag="0"/>
			<vel value="0.0964387055161" flag="0"/>
			<psa03 value="0.277304870086847" flag="0"/>
			<psa10 value="0.155062527131511" flag="0"/>
			<psa30 value="0.032194059365109" flag="0"/>
		</comp>
		<comp name=".HNN" depth="0.0">
			<acc value="0.095260547222202" flag="0"/>
			<vel value="0.0945417764498" flag="0"/>
			<psa03 value="0.214514502199722" flag="0"/>
			<psa10 value="0.136730142700867" flag="0"/>
			<psa30 value="0.0335578197075467" flag="0"/>
		</comp>
		<comp name=".HNZ" depth="0.0">
			<acc value="0.059188385356008" flag="0"/>
			<vel value="0.0623601159631" flag="0"/>
			<psa03 value="0.16556225935372" flag="0"/>
			<psa10 value="0.091232016173327" flag="0"/>
			<psa30 value="0.0260656900573847" flag="0"/>
		</comp>
	</station>
	<station code="SOUD" name="SOUD" netid="HC" source="Seismological Network of Crete (HC)" insttype="" lat="35.4878" lon="24.0678">
		<comp name=".HNE" depth="0.0">
			<acc value="0.20785330917894" flag="0"/>
			<vel value="0.157343443579" flag="0"/>
			<psa03 value="0.49012350994364" flag="0"/>
			<psa10 value="0.340355506881865" flag="0"/>
			<psa30 value="0.0539849762395366" flag="0"/>
		</comp>
		<comp name=".HNN" depth="0.0">
			<acc value="0.19153110608196" flag="0"/>
			<vel value="0.14407021579" flag="0"/>
			<psa03 value="0.373366192011314" flag="0"/>
			<psa10 value="0.240684629175441" flag="0"/>
			<psa30 value="0.0296991740912161" flag="0"/>
		</comp>
		<comp name=".HNZ" depth="0.0">
			<acc value="0.0061547989833264" flag="0"/>
			<vel value="0.00885959053502" flag="0"/>
			<psa03 value="0.00732746783064529" flag="0"/>
			<psa10 value="0.00445946307379453" flag="0"/>
			<psa30 value="0.00313132826846461" flag="0"/>
		</comp>
	</station>
	<station code="ARG2" name="ARG2" netid="HI" source="ITSAK Strong Motion Network" insttype="" lat="38.1783" lon="20.4878">
		<comp name=".HNE" depth="0.0">
			<acc value="0.58468264557348" flag="0"/>
			<vel value="0.334220314935" flag="0"/>
			<psa03 value="1.45154815794169" flag="0"/>
			<psa10 value="0.406973750013019" flag="0"/>
			<psa30 value="0.0611305629332568" flag="0"/>
		</comp>
		<comp name=".HNN" depth="0.0">
			<acc value="0.58140901702848" flag="0"/>
			<vel value="0.47646267979" flag="0"/>
			<psa03 value="1.95122625916136" flag="0"/>
			<psa10 value="0.495208065103594" flag="0"/>
			<psa30 value="0.0642408156388748" flag="0"/>
		</comp>
		<comp name=".HNZ" depth="0.0">
			<acc value="0.36180121845432" flag="0"/>
			<vel value="0.211524749383" flag="0"/>
			<psa03 value="1.23327711522311" flag="0"/>
			<psa10 value="0.267304027579809" flag="0"/>
			<psa30 value="0.0385531272888132" flag="0"/>
		</comp>
	</station>
	<station code="ARS1" name="ARS1" netid="HI" source="ITSAK Strong Motion Network" insttype="" lat="37.6349" lon="22.7293">
		<comp name=".HNE" depth="0.0">
			<acc value="0.30586923098772" flag="0"/>
			<vel value="0.345772900594" flag="0"/>
			<psa03 value="0.624514746036446" flag="0"/>
			<psa10 value="0.631879418909903" flag="0"/>
			<psa30 value="0.060158805225587" flag="0"/>
		</comp>
		<comp name=".HNN" depth="0.0">
			<acc value="0.2814179892594" flag="0"/>
			<vel value="0.346880135863" flag="0"/>
			<psa03 value="0.740900497690251" flag="0"/>
			<psa10 value="0.785718870017843" flag="0"/>
			<psa30 value="0.0889639134227287" flag="0"/>
		</comp>
		<comp name=".HNZ" depth="0.0">
			<acc value="0.2462409385623" flag="0"/>
			<vel value="0.215694083539" flag="0"/>
			<psa03 value="0.662073817473473" flag="0"/>
			<psa10 value="0.303941704646314" flag="0"/>
			<psa30 value="0.0604549781790528" flag="0"/>
		</comp>
	</station>
	<station code="ART2" name="ART2" netid="HI" source="ITSAK Strong Motion Network" insttype="" lat="39.1474" lon="20.9937">
		<comp name=".HNE" depth="0.0">
			<acc value="0.05436297212643" flag="0"/>
			<vel value="0.0951560144163" flag="0"/>
			<psa03 value="0.16261925189386" flag="0"/>
			<psa10 value="0.0938703459496355" flag="0"/>
			<psa30 value="0.0416491490517316" flag="0"/>
		</comp>
		<comp name=".HNN" depth="0.0">
			<acc value="0.049918675952598" flag="0"/>
			<vel value="0.0559855685937" flag="0"/>
			<psa03 value="0.105156226500417" flag="0"/>
			<psa10 value="0.113664022183512" flag="0"/>
			<psa30 value="0.0195036053514518" flag="0"/>
		</comp>
		<comp name=".HNZ" depth="0.0">
			<acc value="0.034179315313302" flag="0"/>
			<vel value="0.054018428888" flag="0"/>
			<psa03 value="0.0756475425284174" flag="0"/>
			<psa10 value="0.0495503224656818" flag="0"/>
			<psa30 value="0.0192267686790753" flag="0"/>
		</comp>
	</station>
	<station code="ATH5" name="ATH5" netid="HI" source="ITSAK Strong Motion Network" insttype="" lat="37.975421" lon="23.737098">
		<comp name=".HNE" depth="0.0">
			<acc value="0.04987958142891" flag="0"/>
			<vel value="0.0890486395492" flag="0"/>
			<psa03 value="0.104127814623274" flag="0"/>
			<psa10 value="0.142229296993044" flag="0"/>
			<psa30 value="0.0370645186757975" flag="0"/>
		</comp>
		<comp name=".HNN" depth="0.0">
			<acc value="0.055261785941628" flag="0"/>
			<vel value="0.106757466298" flag="0"/>
			<psa03 value="0.10099006509615" flag="0"/>
			<psa10 value="0.128839319972575" flag="0"/>
			<psa30 value="0.0242684693336698" flag="0"/>
		</comp>
		<comp name=".HNZ" depth="0.0">
			<acc value="0.033046797138072" flag="0"/>
			<vel value="0.0471853590075" flag="0"/>
			<psa03 value="0.0736240959851057" flag="0"/>
			<psa10 value="0.117980955659268" flag="0"/>
			<psa30 value="0.0251606901055857" flag="0"/>
		</comp>
	</station>
	<station code="CH01" name="CH01" netid="HI" source="ITSAK Strong Motion Network" insttype="" lat="35.517" lon="24.0208">
		<comp name=".HNE" depth="0.0">
			<acc value="0.10344448567146" flag="0"/>
			<vel value="0.162427840838" flag="0"/>
			<psa03 value="0.262073173561523" flag="0"/>
			<psa10 value="0.186575069682767" flag="0"/>
			<psa30 value="0.0742565324639589" flag="0"/>
		</comp>
		<comp name=".HNN" depth="0.0">
			<acc value="0.1005178636428" flag="0"/>
			<vel value="0.129505586418" flag="0"/>
			<psa03 value="0.304037349315684" flag="0"/>
			<psa10 value="0.188846820175092" flag="0"/>
			<psa30 value="0.0539501205975108" flag="0"/>
		</comp>
		<comp name=".HNZ" depth="0.0">
			<acc value="0.085674602070648" flag="0"/>
			<vel value="0.088021522033" flag="0"/>
			<psa03 value="0.130803362997726" flag="0"/>
			<psa10 value="0.139592737333775" flag="0"/>
			<psa30 value="0.0348730535019828" flag="0"/>
		</comp>
	</station>
	<station code="KLV1" name="KLV1" netid="HI" source="ITSAK Strong Motion Network" insttype="" lat="38.03256" lon="22.10797">
		<comp name=".HNE" depth="0.0">
			<acc value="0.55029055064802" flag="0"/>
			<vel value="0.30626346874" flag="0"/>
			<psa03 value="1.80039976765045" flag="0"/>
			<psa10 value="0.355273755142695" flag="0"/>
			<psa30 value="0.0606790863582876" flag="0"/>
		</comp>
		<comp name=".HNN" depth="0.0">
			<acc value="0.46540589119266" flag="0"/>
			<vel value="0.30719374725" flag="0"/>
			<psa03 value="1.39923152555447" flag="0"/>
			<psa10 value="0.568002787397758" flag="0"/>
			<psa30 value="0.0468079507972071" flag="0"/>
		</comp>
		<comp name=".HNZ" depth="0.0">
			<acc value="0.17260904172114" flag="0"/>
			<vel value="0.157233597571" flag="0"/>
			<psa03 value="0.620189667856017" flag="0"/>
			<psa10 value="0.37189581627277" flag="0"/>
			<psa30 value="0.0408126936406569" flag="0"/>
		</comp>
	</station>
	<station code="KRI1" name="KRI1" netid="HI" source="ITSAK Strong Motion Network" insttype="" lat="37.6621" lon="20.8172">
		<comp name=".HNE" depth="0.0">
			<acc value="1.8137722107552" flag="0"/>
			<vel value="1.44600904533" flag="0"/>
			<psa03 value="5.53203480349578" flag="0"/>
			<psa10 value="1.70395243848551" flag="0"/>
			<psa30 value="0.191300032688387" flag="0"/>
		</comp>
		<comp name=".HNN" depth="0.0">
			<acc value="2.113979943324" flag="0"/>
			<vel value="1.65383589179" flag="0"/>
			<psa03 value="4.97243073245621" flag="0"/>
			<psa10 value="1.93959536867354" flag="0"/>
			<psa30 value="0.293556540013397" flag="0"/>
		</comp>
