<?xml version="1.0" encoding="UTF-8" standalone="yes"?>
<!DOCTYPE earthquake SYSTEM "stationlist.dtd">
<stationlist created="" xmlns="ch.ethz.sed.shakemap.usgs.xml">
  <station code="PSAM" name="PSAM" netid="CL" insttype="CMG40-T" lat="38.3218" lon="22.1842">
    <comp name="00.HHN">
      <acc value="0.2156701207" flag="0"/>
      <vel value="0.2475417177" flag="0"/>
      <psa03 value="0.3232102698" flag="0"/>
      <psa10 value="0.4928446258" flag="0"/>
      <psa30 value="0.0418382025" flag="0"/>
    </comp>
    <comp name="00.HHE">
      <acc value="0.2360705590" flag="0"/>
      <vel value="0.3879754039" flag="0"/>
      <psa03 value="0.4181158536" flag="0"/>
      <psa10 value="0.6405708286" flag="0"/>
      <psa30 value="0.0546120948" flag="0"/>
    </comp>
    <comp name="00.HHZ">
      <acc value="0.0850143682" flag="0"/>
      <vel value="0.1075950939" flag="0"/>
      <psa03 value="0.2283904323" flag="0"/>
      <psa10 value="0.1600768510" flag="0"/>
      <psa30 value="0.0222942910" flag="0"/>
    </comp>
  </station>
  <station code="TRIZ" name="TRIZ" netid="CL" insttype="STS-2" lat="38.3654" lon="22.0727">
    <comp name="00.HHZ">
      <acc value="0.1081813227" flag="0"/>
      <vel value="0.1350558582" flag="0"/>
      <psa03 value="0.2612069826" flag="0"/>
      <psa10 value="0.1971827526" flag="0"/>
      <psa30 value="0.0235331890" flag="0"/>
    </comp>
    <comp name="00.HH3">
      <acc value="0.2581773143" flag="0"/>
      <vel value="0.2521454193" flag="0"/>
      <psa03 value="0.8249754101" flag="0"/>
      <psa10 value="0.3151011216" flag="0"/>
      <psa30 value="0.0663161538" flag="0"/>
    </comp>
    <comp name="00.HH2">
      <acc value="0.3008200205" flag="0"/>
      <vel value="0.2589801165" flag="0"/>
      <psa03 value="1.0796799457" flag="0"/>
      <psa10 value="0.3033982341" flag="0"/>
      <psa30 value="0.0398987933" flag="0"/>
    </comp>
  </station>
  <station code="ZIRI" name="ZIRI" netid="CL" insttype="TRILLIUM-40" lat="38.3051" lon="21.9476">
    <comp name="01.HHE">
      <acc value="1.1357477314" flag="0"/>
      <vel value="0.5811035735" flag="0"/>
      <psa03 value="2.4183949702" flag="0"/>
      <psa10 value="0.5787112568" flag="0"/>
      <psa30 value="0.1388597739" flag="0"/>
    </comp>
    <comp name="01.HHN">
      <acc value="0.6671583424" flag="0"/>
      <vel value="0.4914877047" flag="0"/>
      <psa03 value="1.8636158967" flag="0"/>
      <psa10 value="0.6191935722" flag="0"/>
      <psa30 value="0.0418878669" flag="0"/>
    </comp>
    <comp name="01.HHZ">
      <acc value="0.3244429086" flag="0"/>
      <vel value="0.2111006646" flag="0"/>
      <psa03 value="1.1196654322" flag="0"/>
      <psa10 value="0.2741954089" flag="0"/>
      <psa30 value="0.0529719396" flag="0"/>
    </comp>
  </station>
  <station code="KLV" name="KLV" netid="MN" insttype="" lat="38.0437" lon="22.1504">
    <comp name="--.HHE">
      <acc value="0.1342832667" flag="0"/>
      <vel value="0.1440607389" flag="0"/>
      <psa03 value="0.3920678423" flag="0"/>
      <psa10 value="0.2329623728" flag="0"/>
      <psa30 value="0.0349816241" flag="0"/>
    </comp>
    <comp name="--.HHN">
      <acc value="0.1150441985" flag="0"/>
      <vel value="0.1293653476" flag="0"/>
      <psa03 value="0.3313283441" flag="0"/>
      <psa10 value="0.2229777101" flag="0"/>
      <psa30 value="0.0324721805" flag="0"/>
    </comp>
    <comp name="--.HHZ">
      <acc value="0.1808382984" flag="0"/>
      <vel value="0.1919523067" flag="0"/>
      <psa03 value="0.4233363121" flag="0"/>
      <psa10 value="0.2118514531" flag="0"/>
      <psa30 value="0.0328191271" flag="0"/>
    </comp>
  </station>
</stationlist>
