<stationlist xmlns:esm="https://esm-db.eu/esmws/shakemap/1/" created="1784080564">
	<station code="MALA" name="MALA" netid="CL" source="Corinth Riff Laboratory (CRLNET)" insttype="" lat="38.39341" lon="21.87263" esm:processing="manual (Paolucci et al 2011)" esm:quality="good">
		<comp name="00.HNE" depth="0.0">
			<acc value="0.405861159786854" flag="0"/>
			<vel value="0.581432588296316" flag="0"/>
			<psa03 value="0.949109040484635" flag="0"/>
			<psa10 value="1.07258509349949" flag="0"/>
			<psa30 value="0.180431899394573" flag="0"/>
		</comp>
		<comp name="00.HNN" depth="0.0">
			<acc value="0.324007544000187" flag="0"/>
			<vel value="0.534920764754687" flag="0"/>
			<psa03 value="0.743747686299018" flag="0"/>
			<psa10 value="1.18995022836338" flag="0"/>
			<psa30 value="0.135416277330579" flag="0"/>
		</comp>
		<comp name="00.HNZ" depth="0.0">
			<acc value="0.131140131371889" flag="0"/>
			<vel value="0.185943991618598" flag="0"/>
			<psa03 value="0.292865963432988" flag="0"/>
			<psa10 value="0.411122454846273" flag="0"/>
			<psa30 value="0.0581345644629183" flag="0"/>
		</comp>
	</station>
	<station code="ROD3" name="ROD3" netid="CL" source="Corinth Riff Laboratory (CRLNET)" insttype="" lat="38.30811" lon="21.89204" esm:processing="manual (Paolucci et al 2011)" esm:quality="good">
		<comp name="00.HNE" depth="0.0">
			<acc value="0.687653329880686" flag="0"/>
			<vel value="0.480320443795133" flag="0"/>
			<psa03 value="2.28104777488853" flag="0"/>
			<psa10 value="0.62051340596934" flag="0"/>
			<psa30 value="0.138604941897354" flag="0"/>
		</comp>
		<comp name="00.HNN" depth="0.0">
			<acc value="0.696105462870999" flag="0"/>
			<vel value="0.440018777596409" flag="0"/>
			<psa03 value="1.92830557411596" flag="0"/>
			<psa10 value="0.463730069843111" flag="0"/>
			<psa30 value="0.0888003759224712" flag="0"/>
		</comp>
		<comp name="00.HNZ" depth="0.0">
			<acc value="0.283295583860727" flag="0"/>
			<vel value="0.316893578075778" flag="0"/>
			<psa03 value="0.607662629667171" flag="0"/>
			<psa10 value="0.254090162226261" flag="0"/>
			<psa30 value="0.0503637796867687" flag="0"/>
		</comp>
	</station>
	<station code="TRIZ" name="TRIZ" netid="CL" source="Corinth Riff Laboratory (CRLNET)" insttype="" lat="38.36543" lon="22.07272" esm:processing="manual (Paolucci et al 2011)" esm:quality="best">
		<comp name="00.HNE" depth="0.0">
			<acc value="0.273120884352573" flag="0"/>
			<vel value="0.229417486355572" flag="0"/>
			<psa03 value="0.848755142527559" flag="0"/>
			<psa10 value="0.236149003712479" flag="0"/>
			<psa30 value="0.0510600758128882" flag="0"/>
		</comp>
		<comp name="00.HNN" depth="0.0">
			<acc value="0.279210438942055" flag="0"/>
			<vel value="0.268166953156111" flag="0"/>
			<psa03 value="1.00088447034865" flag="0"/>
			<psa10 value="0.357526634384874" flag="0"/>
			<psa30 value="0.0662364211709659" flag="0"/>
		</comp>
		<comp name="00.HNZ" depth="0.0">
			<acc value="0.109179024509609" flag="0"/>
			<vel value="0.145491194716005" flag="0"/>
			<psa03 value="0.272110067623326" flag="0"/>
			<psa10 value="0.199881746184693" flag="0"/>
			<psa30 value="0.0236488732884807" flag="0"/>
		</comp>
	</station>
	<station code="AIGS" name="AIGS" netid="HA" source="Hellenic Seismological Network, University of Athens, Seismological Laboratory (HA)" insttype="" lat="38.25001" lon="22.0878" esm:processing="manual (Paolucci et al 2011)" esm:quality="good">
		<comp name="--.HNE" depth="0.0">
			<acc value="0.401520457850253" flag="0"/>
			<vel value="0.39576165973825" flag="0"/>
			<psa03 value="1.05611987942555" flag="0"/>
			<psa10 value="0.455207555265388" flag="0"/>
			<psa30 value="0.0757099687472391" flag="0"/>
		</comp>
		<comp name="--.HNN" depth="0.0">
			<acc value="0.386615186962193" flag="0"/>
			<vel value="0.392365272406223" flag="0"/>
			<psa03 value="0.765709057799652" flag="0"/>
			<psa10 value="0.573519852876397" flag="0"/>
			<psa30 value="0.0773159484686078" flag="0"/>
		</comp>
		<comp name="--.HNZ" depth="0.0">
			<acc value="0.185729295717093" flag="0"/>
			<vel value="0.345084404360129" flag="0"/>
			<psa03 value="0.556888307785842" flag="0"/>
			<psa10 value="0.507386591870314" flag="0"/>
			<psa30 value="0.0538180218463101" flag="0"/>
		</comp>
	</station>
	<station code="DRES" name="DRES" netid="HA" source="Hellenic Seismological Network, University of Athens, Seismological Laboratory (HA)" insttype="" lat="38.319719" lon="21.853176" esm:processing="manual (Paolucci et al 2011)" esm:quality="best">
		<comp name="--.HNE" depth="0.0">
			<acc value="0.339799274709141" flag="0"/>
			<vel value="0.412035631538721" flag="0"/>
			<psa03 value="0.804599050740018" flag="0"/>
			<psa10 value="0.942917043625367" flag="0"/>
			<psa30 value="0.112543722135889" flag="0"/>
		</comp>
		<comp name="--.HNN" depth="0.0">
			<acc value="0.272204602041063" flag="0"/>
			<vel value="0.3425548967566" flag="0"/>
			<psa03 value="0.668664920770068" flag="0"/>
			<psa10 value="0.443863683789653" flag="0"/>
			<psa30 value="0.117254034171189" flag="0"/>
		</comp>
		<comp name="--.HNZ" depth="0.0">
			<acc value="0.131823786824832" flag="0"/>
			<vel value="0.177334462921615" flag="0"/>
			<psa03 value="0.340107322107522" flag="0"/>
			<psa10 value="0.419335708932147" flag="0"/>
			<psa30 value="0.0467307356818013" flag="0"/>
		</comp>
	</station>
	<station code="KIAS" name="KIAS" netid="HA" source="Hellenic Seismological Network, University of Athens, Seismological Laboratory (HA)" insttype="" lat="37.9875" lon="22.7543" esm:processing="manual (Paolucci et al 2011)" esm:quality="good">
		<comp name="--.HNE" depth="0.0">
			<acc value="0.246555162822859" flag="0"/>
			<vel value="0.450271771669835" flag="0"/>
			<psa03 value="0.572178695697108" flag="0"/>
			<psa10 value="0.629837543646757" flag="0"/>
			<psa30 value="0.152406856206242" flag="0"/>
		</comp>
		<comp name="--.HNN" depth="0.0">
			<acc value="0.324838825033882" flag="0"/>
			<vel value="0.555845985079516" flag="0"/>
			<psa03 value="0.634016625489794" flag="0"/>
			<psa10 value="0.687594849783108" flag="0"/>
			<psa30 value="0.127397759476242" flag="0"/>
		</comp>
		<comp name="--.HNZ" depth="0.0">
			<acc value="0.197945619826378" flag="0"/>
			<vel value="0.23519767890704" flag="0"/>
			<psa03 value="0.684868160822566" flag="0"/>
			<psa10 value="0.351129760623274" flag="0"/>
			<psa30 value="0.0617396832844941" flag="0"/>
		</comp>
	</station>
	<station code="ATEI" name="ATEI" netid="HC" source="Seismological Network of Crete (HC)" insttype="" lat="35.5193" lon="24.0432" esm:processing="manual (Paolucci et al 2011)" esm:quality="best">
		<comp name="--.HNE" depth="0.0">
			<acc value="0.0973507126817028" flag="0"/>
			<vel value="0.0838291608048894" flag="0"/>
			<psa03 value="0.43363701799089" flag="0"/>
			<psa10 value="0.162428195070749" flag="0"/>
			<psa30 value="0.032729144811887" flag="0"/>
		</comp>
		<comp name="--.HNN" depth="0.0">
			<acc value="0.128270627494672" flag="0"/>
			<vel value="0.0936125604581276" flag="0"/>
			<psa03 value="0.238427148795067" flag="0"/>
			<psa10 value="0.153514529584146" flag="0"/>
			<psa30 value="0.0517482347333971" flag="0"/>
		</comp>
		<comp name="--.HNZ" depth="0.0">
			<acc value="0.0755853915362358" flag="0"/>
			<vel value="0.064693097498645" flag="0"/>
			<psa03 value="0.151116458640232" flag="0"/>
			<psa10 value="0.0659407232493109" flag="0"/>
			<psa30 value="0.0255249542363024" flag="0"/>
		</comp>
	</station>
	<station code="PASK" name="PASK" netid="HC" source="Seismological Network of Crete (HC)" insttype="" lat="35.4996" lon="24.0121" esm:processing="manual (Paolucci et al 2011)" esm:quality="good">
		<comp name="--.HNE" depth="0.0">
			<acc value="0.148494523827001" flag="0"/>
			<vel value="0.167115737086448" flag="0"/>
			<psa03 value="0.407338692522388" flag="0"/>
			<psa10 value="0.208744048268649" flag="0"/>
			<psa30 value="0.0860130979458054" flag="0"/>
		</comp>
		<comp name="--.HNN" depth="0.0">
			<acc value="0.177299273835635" flag="0"/>
			<vel value="0.229914647576423" flag="0"/>
			<psa03 value="0.4091432704002" flag="0"/>
			<psa10 value="0.359166603024792" flag="0"/>
			<psa30 value="0.0861633078961654" flag="0"/>
		</comp>
		<comp name="--.HNZ" depth="0.0">
			<acc value="0.100150622178303" flag="0"/>
			<vel value="0.0930058368790997" flag="0"/>
			<psa03 value="0.274796120561049" flag="0"/>
			<psa10 value="0.144491011820594" flag="0"/>
			<psa30 value="0.029203131230795" flag="0"/>
		</comp>
	</station>
	<station code="POLY" name="POLY" netid="HC" source="Seismological Network of Crete (HC)" insttype="" lat="35.5226" lon="24.0602" esm:processing="manual (Paolucci et al 2011)" esm:quality="good">
		<comp name="--.HNE" depth="0.0">
			<acc value="0.0939900938010643" flag="0"/>
			<vel value="0.0965241471826014" flag="0"/>
			<psa03 value="0.277304870086847" flag="0"/>
			<psa10 value="0.155062137105463" flag="0"/>
			<psa30 value="0.0321943960540616" flag="0"/>
		</comp>
		<comp name="--.HNN" depth="0.0">
			<acc value="0.0952605481557232" flag="0"/>
			<vel value="0.118234990740936" flag="0"/>
			<psa03 value="0.214514502199722" flag="0"/>
			<psa10 value="0.136730142700867" flag="0"/>
			<psa30 value="0.0350419680250623" flag="0"/>
		</comp>
		<comp name="--.HNZ" depth="0.0">
			<acc value="0.0591884058244894" flag="0"/>
			<vel value="0.0617791160540957" flag="0"/>
			<psa03 value="0.165562321858136" flag="0"/>
			<psa10 value="0.0912308460959894" flag="0"/>
			<psa30 value="0.0275518751765198" flag="0"/>
		</comp>
	</station>
	<station code="AGR3" name="AGR3" netid="HI" source="ITSAK Strong Motion Network" insttype="" lat="38.5893" lon="21.4162" esm:processing="manual (Paolucci et al 2011)" esm:quality="good">
		<comp name="--.HNE" depth="0.0">
			<acc value="0.33450569689301" flag="0"/>
			<vel value="0.438512029471531" flag="0"/>
			<psa03 value="1.03345154442623" flag="0"/>
			<psa10 value="0.763037487488752" flag="0"/>
			<psa30 value="0.202060505516829" flag="0"/>
		</comp>
		<comp name="--.HNN" depth="0.0">
			<acc value="0.460445499960884" flag="0"/>
			<vel value="0.404551945144206" flag="0"/>
			<psa03 value="1.42164084339549" flag="0"/>
			<psa10 value="0.878802796372319" flag="0"/>
			<psa30 value="0.153156772551194" flag="0"/>
		</comp>
		<comp name="--.HNZ" depth="0.0">
			<acc value="0.215068123583381" flag="0"/>
			<vel value="0.324491774603088" flag="0"/>
			<psa03 value="0.529583373966131" flag="0"/>
			<psa10 value="0.429033071335391" flag="0"/>
			<psa30 value="0.101230272675419" flag="0"/>
		</comp>
	</station>
	<station code="AIA1" name="AIA1" netid="HI" source="ITSAK Strong Motion Network" insttype="" lat="40.1641" lon="21.8202" esm:processing="manual (Paolucci et al 2011)" esm:quality="good">
		<comp name="--.HNE" depth="0.0">
			<acc value="0.0311068358942447" flag="0"/>
			<vel value="0.0365144727633483" flag="0"/>
			<psa03 value="0.0839458266240291" flag="0"/>
			<psa10 value="0.0405498687297949" flag="0"/>
			<psa30 value="0.0181959120565395" flag="0"/>
		</comp>
		<comp name="--.HNN" depth="0.0">
			<acc value="0.021313730062705" flag="0"/>
			<vel value="0.0342761138390038" flag="0"/>
			<psa03 value="0.0720564140087935" flag="0"/>
			<psa10 value="0.0307726654130592" flag="0"/>
			<psa30 value="0.0122636532401736" flag="0"/>
		</comp>
		<comp name="--.HNZ" depth="0.0">
			<acc value="0.0163230605807235" flag="0"/>
			<vel value="0.0320189624336204" flag="0"/>
			<psa03 value="0.0284472074045456" flag="0"/>
			<psa10 value="0.0349268587329789" flag="0"/>
			<psa30 value="0.0123945835803327" flag="0"/>
		</comp>
	</station>
	<station code="AIG2" name="AIG2" netid="HI" source="ITSAK Strong Motion Network" insttype="" lat="38.2417" lon="22.0726" esm:processing="automatic (Paolucci et al 2011)" esm:quality="best">
		<comp name="--.HNE" depth="0.0">
			<acc value="0.236367313002261" flag="0"/>
			<vel value="0.309099962789977" flag="0"/>
			<psa03 value="0.670805062543253" flag="0"/>
			<psa10 value="0.468672567257455" flag="0"/>
			<psa30 value="0.0795470762700727" flag="0"/>
		</comp>
		<comp name="--.HNN" depth="0.0">
			<acc value="0.2775962554534" flag="0"/>
			<vel value="0.375356973420164" flag="0"/>
			<psa03 value="0.688201965002661" flag="0"/>
			<psa10 value="0.446640607748265" flag="0"/>
			<psa30 value="0.0665584825061473" flag="0"/>
		</comp>
		<comp name="--.HNZ" depth="0.0">
			<acc value="0.14571938097122" flag="0"/>
			<vel value="0.253820112071273" flag="0"/>
			<psa03 value="0.39012359377346" flag="0"/>
			<psa10 value="0.389704275995715" flag="0"/>
			<psa30 value="0.0437393008473531" flag="0"/>
		</comp>
	</station>
	<station code="AKR1" name="AKR1" netid="HI" source="ITSAK Strong Motion Network" insttype="" lat="38.153583" lon="22.31326" esm:processing="automatic (Paolucci et al 2011)" esm:quality="best">
		<comp name="--.HNE" depth="0.0">
			<acc value="0.359470628336186" flag="0"/>
			<vel value="0.328482873034701" flag="0"/>
			<psa03 value="1.00302644557942" flag="0"/>
			<psa10 value="0.529403550387035" flag="0"/>
			<psa30 value="0.0520083486311864" flag="0"/>
		</comp>
		<comp name="--.HNN" depth="0.0">
			<acc value="0.274611041420755" flag="0"/>
			<vel value="0.190093126609473" flag="0"/>
			<psa03 value="0.713451929355546" flag="0"/>
			<psa10 value="0.319630703965471" flag="0"/>
			<psa30 value="0.0462309992434766" flag="0"/>
		</comp>
		<comp name="--.HNZ" depth="0.0">
			<acc value="0.172681542371076" flag="0"/>
			<vel value="0.208919766541718" flag="0"/>
			<psa03 value="0.438238072788228" flag="0"/>
			<psa10 value="0.311366926530773" flag="0"/>
			<psa30 value="0.0542170016102734" flag="0"/>
		</comp>
	</station>
	<station code="AOL1" name="AOL1" netid="HI" source="ITSAK Strong Motion Network" insttype="" lat="37.642378" lon="21.624555" esm:processing="automatic (Paolucci et al 2011)" esm:quality="best">
		<comp name="--.HNE" depth="0.0">
			<acc value="1.77049070180401" flag="0"/>
			<vel value="1.39560201956926" flag="0"/>
			<psa03 value="6.62221668935551" flag="0"/>
			<psa10 value="2.24228686049993" flag="0"/>
			<psa30 value="0.427050690012357" flag="0"/>
		</comp>
		<comp name="--.HNN" depth="0.0">
			<acc value="1.66038113253733" flag="0"/>
			<vel value="1.37613699341627" flag="0"/>
			<psa03 value="4.0210577086722" flag="0"/>
			<psa10 value="2.5230829018596" flag="0"/>
			<psa30 value="0.274222139204243" flag="0"/>
		</comp>
		<comp name="--.HNZ" depth="0.0">
			<acc value="1.06112580048217" flag="0"/>
			<vel value="0.786492553175445" flag="0"/>
			<psa03 value="3.32782278526075" flag="0"/>
			<psa10 value="0.832605976059695" flag="0"/>
			<psa30 value="0.14139854029268" flag="0"/>
		</comp>
	</station>
	<station code="ARG2" name="ARG2" netid="HI" source="ITSAK Strong Motion Network" insttype="" lat="38.1783" lon="20.4878" esm:processing="manual (Paolucci et al 2011)" esm:quality="good">
		<comp name="--.HNE" depth="0.0">
			<acc value="0.587574982268846" flag="0"/>
			<vel value="0.334306221106518" flag="0"/>
			<psa03 value="1.45154815794169" flag="0"/>
			<psa10 value="0.406973750013019" flag="0"/>
			<psa30 value="0.0611305629332568" flag="0"/>
		</comp>
		<comp name="--.HNN" depth="0.0">
			<acc value="0.58210464668023" flag="0"/>
			<vel value="0.477278255475961" flag="0"/>
			<psa03 value="1.95122625916136" flag="0"/>
			<psa10 value="0.495208065103594" flag="0"/>
			<psa30 value="0.0642408156388748" flag="0"/>
		</comp>
		<comp name="--.HNZ" depth="0.0">
			<acc value="0.363438859269652" flag="0"/>
			<vel value="0.212089133066079" flag="0"/>
			<psa03 value="1.23327711522311" flag="0"/>
			<psa10 value="0.267304027579809" flag="0"/>
			<psa30 value="0.0385531272888132" flag="0"/>
		</comp>
	</station>
	<station code="ARS1" name="ARS1" netid="HI" source="ITSAK Strong Motion Network" insttype="" lat="37.6349" lon="22.7293" esm:processing="manual (Paolucci et al 2011)" esm:quality="good">
		<comp name="--.HNE" depth="0.0">
			<acc value="0.306080782643094" flag="0"/>
			<vel value="0.344989228352965" flag="0"/>
			<psa03 value="0.624596501452726" flag="0"/>
			<psa10 value="0.631875158629472" flag="0"/>
			<psa30 value="0.0601073084808745" flag="0"/>
		</comp>
		<comp name="--.HNN" depth="0.0">
			<acc value="0.281671266733814" flag="0"/>
			<vel value="0.348025450433911" flag="0"/>
			<psa03 value="0.74086607874111" flag="0"/>
			<psa10 value="0.785720970158409" flag="0"/>
			<psa30 value="0.0890779609776486" flag="0"/>
		</comp>
		<comp name="--.HNZ" depth="0.0">
			<acc value="0.246529201791529" flag="0"/>
			<vel value="0.215976405396539" flag="0"/>
			<psa03 value="0.661952642781679" flag="0"/>
			<psa10 value="0.303957095665708" flag="0"/>
			<psa30 value="0.0605269296118785" flag="0"/>
		</comp>
	</station>
	<station code="ART2" name="ART2" netid="HI" source="ITSAK Strong Motion Network" insttype="" lat="39.1474" lon="20.9937" esm:processing="manual (Paolucci et al 2011)" esm:quality="good">
		<comp name="--.HNE" depth="0.0">
			<acc value="0.0551086186933319" flag="0"/>
			<vel value="0.0951991107212644" flag="0"/>
			<psa03 value="0.16261925189386" flag="0"/>
			<psa10 value="0.0938703459496355" flag="0"/>
			<psa30 value="0.0416491490517316" flag="0"/>
		</comp>
		<comp name="--.HNN" depth="0.0">
			<acc value="0.0503679006262021" flag="0"/>
			<vel value="0.0559989389730425" flag="0"/>
			<psa03 value="0.105156226500417" flag="0"/>
			<psa10 value="0.113664022183512" flag="0"/>
			<psa30 value="0.0195036053514518" flag="0"/>
		</comp>
		<comp name="--.HNZ" depth="0.0">
			<acc value="0.034411137035481" flag="0"/>
			<vel value="0.0540307576587567" flag="0"/>
			<psa03 value="0.0756475425284174" flag="0"/>
			<psa10 value="0.0495503224656818" flag="0"/>
			<psa30 value="0.0192267686790753" flag="0"/>
		</comp>
	</station>
	<station code="AST1" name="AST1" netid="HI" source="ITSAK Strong Motion Network" insttype="" lat="38.5416" lon="21.0895" esm:processing="manual (Paolucci et al 2011)" esm:quality="good">
		<comp name="--.HNE" depth="0.0">
			<acc value="0.273653618215267" flag="0"/>
			<vel value="0.190076074817083" flag="0"/>
			<psa03 value="0.646961524692555" flag="0"/>
			<psa10 value="0.352605318371845" flag="0"/>
			<psa30 value="0.0414161069471589" flag="0"/>
		</comp>
		<comp name="--.HNN" depth="0.0">
			<acc value="0.286178062108451" flag="0"/>
			<vel value="0.164283382307081" flag="0"/>
			<psa03 value="0.479070361060265" flag="0"/>
			<psa10 value="0.312501841713334" flag="0"/>
			<psa30 value="0.028824492814519" flag="0"/>
		</comp>
		<comp name="--.HNZ" depth="0.0">
			<acc value="0.174254955994143" flag="0"/>
			<vel value="0.133762824016116" flag="0"/>
			<psa03 value="0.54534045946238" flag="0"/>
			<psa10 value="0.216064293199036" flag="0"/>
			<psa30 value="0.0235408961355029" flag="0"/>
		</comp>
	</station>
	<station code="ATH5" name="ATH5" netid="HI" source="ITSAK Strong Motion Network" insttype="" lat="37.975421" lon="23.737098" esm:processing="manual (Paolucci et al 2011)" esm:quality="best">
		<comp name="--.HNE" depth="0.0">
			<acc value="0.0498913034852272" flag="0"/>
			<vel value="0.0890634002118722" flag="0"/>
			<psa03 value="0.104127835457929" flag="0"/>
			<psa10 value="0.142229236988913" flag="0"/>
			<psa30 value="0.037063471939793" flag="0"/>
		</comp>
		<comp name="--.HNN" depth="0.0">
			<acc value="0.0553187746089659" flag="0"/>
			<vel value="0.106780161960271" flag="0"/>
			<psa03 value="0.10099006509615" flag="0"/>
			<psa10 value="0.128839304971542" flag="0"/>
			<psa30 value="0.0242718178888242" flag="0"/>
		</comp>
		<comp name="--.HNZ" depth="0.0">
			<acc value="0.0331822614290547" flag="0"/>
			<vel value="0.0471891443524285" flag="0"/>
			<psa03 value="0.0736395084645616" flag="0"/>
			<psa10 value="0.118061548498033" flag="0"/>
			<psa30 value="0.0251612168071284" flag="0"/>
		</comp>
	</station>
