<?xml version="1.0" encoding="UTF-8" standalone="yes"?>
<!DOCTYPE earthquake SYSTEM "stationlist.dtd">
<stationlist created="" xmlns="ch.ethz.sed.shakemap.usgs.xml">
  <station code="PSAM" name="PSAM" netid="CL" insttype="CMG40-T" lat="38.3218" lon="22.1842">
    <comp name="00.HHZ">
      <acc value="0.0850143682" flag="0"/>
      <vel value="0.1075951576" flag="0"/>
      <psa03 value="0.2283904322" flag="0"/>
      <psa10 value="0.1600768509" flag="0"/>
      <psa30 value="0.0222940337" flag="0"/>
    </comp>
    <comp name="00.HHN">
      <acc value="0.2156701206" flag="0"/>
      <vel value="0.2475416880" flag="0"/>
      <psa03 value="0.3232102698" flag="0"/>
      <psa10 value="0.4928446260" flag="0"/>
      <psa30 value="0.0418382021" flag="0"/>
    </comp>
    <comp name="00.HHE">
      <acc value="0.2360705585" flag="0"/>
      <vel value="0.3879753466" flag="0"/>
      <psa03 value="0.4181158535" flag="0"/>
      <psa10 value="0.6405708286" flag="0"/>
      <psa30 value="0.0546116540" flag="0"/>
    </comp>
  </station>
  <station code="ROD3" name="ROD3" netid="CL" insttype="CMG40-T" lat="38.3081" lon="21.892">
    <comp name="00.HHN">
      <acc value="0.8415229013" flag="0"/>
      <vel value="0.5122934606" flag="0"/>
      <psa03 value="2.3506918427" flag="0"/>
      <psa10 value="0.5570496130" flag="0"/>
      <psa30 value="0.1035572423" flag="0"/>
    </comp>
    <comp name="00.HHE">
      <acc value="0.8619438414" flag="0"/>
      <vel value="0.5464151199" flag="0"/>
      <psa03 value="2.8217370812" flag="0"/>
      <psa10 value="0.7811831560" flag="0"/>
      <psa30 value="0.1729846893" flag="0"/>
    </comp>
    <comp name="00.HHZ">
      <acc value="0.3738691475" flag="0"/>
      <vel value="0.3869347406" flag="0"/>
      <psa03 value="0.7407550337" flag="0"/>
      <psa10 value="0.3089292498" flag="0"/>
      <psa30 value="0.0622895599" flag="0"/>
    </comp>
  </station>
  <station code="TRIZ" name="TRIZ" netid="CL" insttype="STS-2" lat="38.3654" lon="22.0727">
    <comp name="00.HH2">
      <acc value="0.3008200205" flag="0"/>
      <vel value="0.2589801475" flag="0"/>
      <psa03 value="1.0796799457" flag="0"/>
      <psa10 value="0.3033982340" flag="0"/>
      <psa30 value="0.0398987103" flag="0"/>
    </comp>
    <comp name="00.HH3">
      <acc value="0.2581773142" flag="0"/>
      <vel value="0.2521453191" flag="0"/>
      <psa03 value="0.8249754101" flag="0"/>
      <psa10 value="0.3151011218" flag="0"/>
      <psa30 value="0.0663161363" flag="0"/>
    </comp>
    <comp name="00.HHZ">
      <acc value="0.1081813226" flag="0"/>
      <vel value="0.1350558288" flag="0"/>
      <psa03 value="0.2612069826" flag="0"/>
      <psa10 value="0.1971827525" flag="0"/>
      <psa30 value="0.0235330210" flag="0"/>
    </comp>
  </station>
  <station code="ZIRI" name="ZIRI" netid="CL" insttype="TRILLIUM-40" lat="38.3051" lon="21.9476">
    <comp name="01.HHZ">
      <acc value="0.3244429083" flag="0"/>
      <vel value="0.2111007539" flag="0"/>
      <psa03 value="1.1196654323" flag="0"/>
      <psa10 value="0.2741954090" flag="0"/>
      <psa30 value="0.0529719676" flag="0"/>
    </comp>
    <comp name="01.HHE">
      <acc value="1.1357477305" flag="0"/>
      <vel value="0.5811042728" flag="0"/>
      <psa03 value="2.4183949710" flag="0"/>
      <psa10 value="0.5787112544" flag="0"/>
      <psa30 value="0.1388599845" flag="0"/>
    </comp>
    <comp name="01.HHN">
      <acc value="0.6671583423" flag="0"/>
      <vel value="0.4914880154" flag="0"/>
      <psa03 value="1.8636158964" flag="0"/>
      <psa10 value="0.6191935719" flag="0"/>
      <psa30 value="0.0418878790" flag="0"/>
    </comp>
  </station>
  <station code="ACOR" name="ACOR" netid="HA" insttype="Horizon,120s,1200" lat="37.8905" lon="22.8694">
    <comp name="--.HHE">
      <acc value="0.0819944022" flag="0"/>
      <vel value="0.1078676779" flag="0"/>
      <psa03 value="0.1614696836" flag="0"/>
      <psa10 value="0.2005960675" flag="0"/>
      <psa30 value="0.0273961855" flag="0"/>
    </comp>
    <comp name="--.HHN">
      <acc value="0.1094352734" flag="0"/>
      <vel value="0.1504939416" flag="0"/>
      <psa03 value="0.1896366242" flag="0"/>
      <psa10 value="0.1727528476" flag="0"/>
      <psa30 value="0.0826741404" flag="0"/>
    </comp>
    <comp name="--.HHZ">
      <acc value="0.0729917402" flag="0"/>
      <vel value="0.1220264121" flag="0"/>
      <psa03 value="0.2264546317" flag="0"/>
      <psa10 value="0.2310319621" flag="0"/>
      <psa30 value="0.0305582561" flag="0"/>
    </comp>
  </station>
  <station code="AIGS" name="AIGS" netid="HA" insttype="DC" lat="38.25" lon="22.0878">
    <comp name="--.HNE">
      <acc value="0.4037132713" flag="0"/>
      <vel value="0.3596614097" flag="0"/>
      <psa03 value="1.0615708403" flag="0"/>
      <psa10 value="0.4559342559" flag="0"/>
      <psa30 value="0.0742086203" flag="0"/>
    </comp>
    <comp name="--.HNZ">
      <acc value="0.1867298701" flag="0"/>
      <vel value="0.3438976168" flag="0"/>
      <psa03 value="0.5577262963" flag="0"/>
      <psa10 value="0.5076334199" flag="0"/>
      <psa30 value="0.0538557623" flag="0"/>
    </comp>
    <comp name="--.HNN">
      <acc value="0.3869053877" flag="0"/>
      <vel value="0.3627468620" flag="0"/>
      <psa03 value="0.7603240087" flag="0"/>
      <psa10 value="0.5756822557" flag="0"/>
      <psa30 value="0.0762011104" flag="0"/>
    </comp>
  </station>
  <station code="ANTK" name="ANTK" netid="HA" insttype="25" lat="38.3605" lon="22.6385">
    <comp name="--.HHN">
      <acc value="0.0028898816" flag="0"/>
      <vel value="0.0008641382" flag="0"/>
      <psa03 value="0.0050913304" flag="0"/>
      <psa10 value="0.0010176106" flag="0"/>
      <psa30 value="0.0000863023" flag="0"/>
    </comp>
    <comp name="--.HHZ">
      <acc value="0.0284765043" flag="0"/>
      <vel value="0.0411495222" flag="0"/>
      <psa03 value="0.0613180138" flag="0"/>
      <psa10 value="0.0564454250" flag="0"/>
      <psa30 value="0.0095699859" flag="0"/>
    </comp>
    <comp name="--.HHE">
      <acc value="0.0399145906" flag="0"/>
      <vel value="0.0465568720" flag="0"/>
      <psa03 value="0.1423240262" flag="0"/>
      <psa10 value="0.0688154883" flag="0"/>
      <psa30 value="0.0113802150" flag="0"/>
    </comp>
  </station>
  <station code="ATHR" name="ATHR" netid="HA" insttype="GEOtiny," lat="38.3172" lon="20.4165">
    <comp name="--.HHE">
      <acc value="0.1782454059" flag="0"/>
      <vel value="0.1833925267" flag="0"/>
      <psa03 value="0.5049463102" flag="0"/>
      <psa10 value="0.3350191326" flag="0"/>
      <psa30 value="0.0525818533" flag="0"/>
    </comp>
    <comp name="--.HHZ">
      <acc value="0.1397673376" flag="0"/>
      <vel value="0.1289244796" flag="0"/>
      <psa03 value="0.3319525643" flag="0"/>
      <psa10 value="0.2291638117" flag="0"/>
      <psa30 value="0.0321562155" flag="0"/>
    </comp>
    <comp name="--.HHN">
      <acc value="0.2052563977" flag="0"/>
      <vel value="0.1579321796" flag="0"/>
      <psa03 value="0.4327675381" flag="0"/>
      <psa10 value="0.2644088340" flag="0"/>
      <psa30 value="0.0462067680" flag="0"/>
    </comp>
  </station>
  <station code="AXAR" name="AXAR" netid="HA" insttype="Horizon,120s,1200" lat="38.7664" lon="22.659">
    <comp name="--.HHZ">
      <acc value="0.1081213628" flag="0"/>
      <vel value="0.1126642435" flag="0"/>
      <psa03 value="0.3316993928" flag="0"/>
      <psa10 value="0.2359202540" flag="0"/>
      <psa30 value="0.0252830029" flag="0"/>
    </comp>
    <comp name="--.HHE">
      <acc value="0.2172983394" flag="0"/>
      <vel value="0.2470190978" flag="0"/>
      <psa03 value="0.8500087700" flag="0"/>
      <psa10 value="0.3084672634" flag="0"/>
      <psa30 value="0.0649751642" flag="0"/>
    </comp>
    <comp name="--.HHN">
      <acc value="0.2630615322" flag="0"/>
      <vel value="0.2240611718" flag="0"/>
      <psa03 value="0.7811725902" flag="0"/>
      <psa10 value="0.2887496415" flag="0"/>
      <psa30 value="0.0584461145" flag="0"/>
    </comp>
  </station>
  <station code="DOMV" name="DOMV" netid="HA" insttype="60" lat="38.2569" lon="22.9795">
    <comp name="--.HHZ">
      <acc value="0.0956128776" flag="0"/>
      <vel value="0.0860447906" flag="0"/>
      <psa03 value="0.2144192001" flag="0"/>
      <psa10 value="0.1171967392" flag="0"/>
      <psa30 value="0.0260442691" flag="0"/>
    </comp>
    <comp name="--.HHN">
      <acc value="0.2021686867" flag="0"/>
      <vel value="0.1417345657" flag="0"/>
      <psa03 value="0.5932073618" flag="0"/>
      <psa10 value="0.1509082161" flag="0"/>
      <psa30 value="0.0298499290" flag="0"/>
    </comp>
    <comp name="--.HHE">
      <acc value="0.2283808118" flag="0"/>
      <vel value="0.1218570739" flag="0"/>
      <psa03 value="0.4329484076" flag="0"/>
      <psa10 value="0.1568462528" flag="0"/>
      <psa30 value="0.0317668228" flag="0"/>
    </comp>
  </station>
  <station code="DRES" name="DRES" netid="HA" insttype="DC" lat="38.3197" lon="21.8532">
    <comp name="--.HNE">
      <acc value="0.3390890692" flag="0"/>
      <vel value="0.3984263875" flag="0"/>
      <psa03 value="0.8076544513" flag="0"/>
      <psa10 value="0.9429783121" flag="0"/>
      <psa30 value="0.1110275969" flag="0"/>
    </comp>
    <comp name="--.HNN">
      <acc value="0.2712594181" flag="0"/>
      <vel value="0.3205008894" flag="0"/>
      <psa03 value="0.6683962539" flag="0"/>
      <psa10 value="0.4451011614" flag="0"/>
      <psa30 value="0.1136434995" flag="0"/>
    </comp>
    <comp name="--.HNZ">
      <acc value="0.1305858649" flag="0"/>
      <vel value="0.1763232017" flag="0"/>
      <psa03 value="0.3404948847" flag="0"/>
      <psa10 value="0.4184655726" flag="0"/>
      <psa30 value="0.0457175828" flag="0"/>
    </comp>
  </station>
  <station code="EPID" name="EPID" netid="HA" insttype="30" lat="37.6144" lon="23.1189">
    <comp name="--.HHN">
      <acc value="0.1404408526" flag="0"/>
      <vel value="0.1699216985" flag="0"/>
      <psa03 value="0.2675324750" flag="0"/>
      <psa10 value="0.1565220535" flag="0"/>
      <psa30 value="0.0858220733" flag="0"/>
    </comp>
    <comp name="--.HHE">
      <acc value="0.1151483088" flag="0"/>
      <vel value="0.1052491331" flag="0"/>
      <psa03 value="0.2989260139" flag="0"/>
      <psa10 value="0.2131931845" flag="0"/>
      <psa30 value="0.0418067554" flag="0"/>
    </comp>
    <comp name="--.HHZ">
      <acc value="0.0842125866" flag="0"/>
      <vel value="0.1083482731" flag="0"/>
      <psa03 value="0.1890828236" flag="0"/>
      <psa10 value="0.1658764518" flag="0"/>
      <psa30 value="0.0375630420" flag="0"/>
    </comp>
  </station>
  <station code="HAVD" name="HAVD" netid="HA" insttype="GEOtiny," lat="38.2036" lon="20.3848">
    <comp name="--.HHN">
      <acc value="0.3323073698" flag="0"/>
      <vel value="0.3535274650" flag="0"/>
      <psa03 value="0.9227594348" flag="0"/>
      <psa10 value="0.7010769103" flag="0"/>
      <psa30 value="0.0546573487" flag="0"/>
    </comp>
    <comp name="--.HHZ">
      <acc value="0.1872782802" flag="0"/>
      <vel value="0.1122093282" flag="0"/>
      <psa03 value="0.4032092756" flag="0"/>
      <psa10 value="0.1799528546" flag="0"/>
      <psa30 value="0.0275582876" flag="0"/>
    </comp>
    <comp name="--.HHE">
      <acc value="0.2472366681" flag="0"/>
      <vel value="0.2609210667" flag="0"/>
      <psa03 value="0.6222598635" flag="0"/>
      <psa10 value="0.3474594060" flag="0"/>
      <psa30 value="0.0610674664" flag="0"/>
    </comp>
  </station>
  <station code="KALE" name="KALE" netid="HA" insttype="40," lat="38.3911" lon="22.1398">
    <comp name="--.HHE">
      <acc value="0.2466066917" flag="0"/>
      <vel value="0.1899329634" flag="0"/>
      <psa03 value="0.5890792270" flag="0"/>
      <psa10 value="0.3843802028" flag="0"/>
      <psa30 value="0.0446802597" flag="0"/>
    </comp>
    <comp name="--.HHN">
      <acc value="0.4160055081" flag="0"/>
      <vel value="0.2111833918" flag="0"/>
      <psa03 value="0.6799544738" flag="0"/>
      <psa10 value="0.2682809790" flag="0"/>
      <psa30 value="0.0466077526" flag="0"/>
    </comp>
    <comp name="--.HHZ">
      <acc value="0.1533936492" flag="0"/>
      <vel value="0.0914043166" flag="0"/>
      <psa03 value="0.2841610864" flag="0"/>
      <psa10 value="0.1328885595" flag="0"/>
      <psa30 value="0.0342436420" flag="0"/>
    </comp>
  </station>
  <station code="KIAS" name="KIAS" netid="HA" insttype="DC" lat="37.9875" lon="22.7543">
    <comp name="--.HNN">
      <acc value="0.3274911172" flag="0"/>
      <vel value="0.5298207306" flag="0"/>
      <psa03 value="0.6443548117" flag="0"/>
      <psa10 value="0.6870009553" flag="0"/>
      <psa30 value="0.1265259813" flag="0"/>
    </comp>
    <comp name="--.HNZ">
      <acc value="0.1986791544" flag="0"/>
      <vel value="0.2341373246" flag="0"/>
      <psa03 value="0.6886874608" flag="0"/>
      <psa10 value="0.3505204651" flag="0"/>
      <psa30 value="0.0618324366" flag="0"/>
    </comp>
    <comp name="--.HNE">
      <acc value="0.2475605638" flag="0"/>
      <vel value="0.4512146679" flag="0"/>
      <psa03 value="0.5640790570" flag="0"/>
      <psa10 value="0.6280337440" flag="0"/>
      <psa30 value="0.1523108648" flag="0"/>
    </comp>
  </station>
  <station code="LAKA" name="LAKA" netid="HA" insttype="120s," lat="38.2401" lon="21.9785">
    <comp name="--.HHZ">
      <acc value="0.1122657118" flag="0"/>
      <vel value="0.1715398347" flag="0"/>
      <psa03 value="0.2617293697" flag="0"/>
      <psa10 value="0.1918082445" flag="0"/>
      <psa30 value="0.0591753509" flag="0"/>
    </comp>
    <comp name="--.HHN">
      <acc value="0.1672780859" flag="0"/>
      <vel value="0.2421542160" flag="0"/>
      <psa03 value="0.3289151973" flag="0"/>
      <psa10 value="0.2798889039" flag="0"/>
      <psa30 value="0.0325246501" flag="0"/>
    </comp>
    <comp name="--.HHE">
      <acc value="0.1562674912" flag="0"/>
      <vel value="0.1779820681" flag="0"/>
      <psa03 value="0.2899404505" flag="0"/>
      <psa10 value="0.2663949596" flag="0"/>
      <psa30 value="0.0553332447" flag="0"/>
    </comp>
  </station>
  <station code="LOUT" name="LOUT" netid="HA" insttype="30" lat="37.9879" lon="22.9743">
    <comp name="--.HHE">
      <acc value="0.1145228121" flag="0"/>
      <vel value="0.1734133082" flag="0"/>
      <psa03 value="0.2969699763" flag="0"/>
      <psa10 value="0.3383757509" flag="0"/>
      <psa30 value="0.0359467502" flag="0"/>
    </comp>
    <comp name="--.HHN">
      <acc value="0.1322772589" flag="0"/>
      <vel value="0.1439810693" flag="0"/>
      <psa03 value="0.3077059883" flag="0"/>
      <psa10 value="0.3293350035" flag="0"/>
      <psa30 value="0.0275703879" flag="0"/>
    </comp>
    <comp name="--.HHZ">
      <acc value="0.0857421634" flag="0"/>
      <vel value="0.0973161308" flag="0"/>
      <psa03 value="0.2207850774" flag="0"/>
      <psa10 value="0.1813771722" flag="0"/>
      <psa30 value="0.0202741626" flag="0"/>
    </comp>
  </station>
  <station code="PRDM" name="PRDM" netid="HA" insttype="25" lat="38.2804" lon="22.847">
    <comp name="--.HHE">
      <acc value="0.0535744661" flag="0"/>
      <vel value="0.0369429978" flag="0"/>
      <psa03 value="0.1091978343" flag="0"/>
      <psa10 value="0.0559157124" flag="0"/>
      <psa30 value="0.0169698285" flag="0"/>
    </comp>
    <comp name="--.HHZ">
      <acc value="0.0293571119" flag="0"/>
      <vel value="0.0289223266" flag="0"/>
      <psa03 value="0.0661770942" flag="0"/>
      <psa10 value="0.0352735560" flag="0"/>
      <psa30 value="0.0127764090" flag="0"/>
    </comp>
    <comp name="--.HHN">
      <acc value="0.0460533051" flag="0"/>
      <vel value="0.0512428298" flag="0"/>
      <psa03 value="0.0897879767" flag="0"/>
      <psa10 value="0.0963453847" flag="0"/>
      <psa30 value="0.0167285406" flag="0"/>
    </comp>
  </station>
  <station code="THAL" name="THAL" netid="HA" insttype="30" lat="38.0357" lon="22.6634">
    <comp name="--.HHE">
      <acc value="0.4838074863" flag="0"/>
      <vel value="0.4116614685" flag="0"/>
      <psa03 value="0.9025740038" flag="0"/>
      <psa10 value="0.7514094985" flag="0"/>
      <psa30 value="0.0727456424" flag="0"/>
    </comp>
    <comp name="--.HHZ">
      <acc value="0.1911951010" flag="0"/>
      <vel value="0.1998213959" flag="0"/>
      <psa03 value="0.5970700857" flag="0"/>
      <psa10 value="0.3553734006" flag="0"/>
      <psa30 value="0.0517009790" flag="0"/>
    </comp>
    <comp name="--.HHN">
      <acc value="0.3702827316" flag="0"/>
      <vel value="0.4192870237" flag="0"/>
      <psa03 value="1.0310933992" flag="0"/>
      <psa10 value="0.7652266956" flag="0"/>
      <psa30 value="0.0869911836" flag="0"/>
    </comp>
  </station>
  <station code="VILL" name="VILL" netid="HA" insttype="Horizon,120s,1200" lat="38.1642" lon="23.3122">
    <comp name="--.HHE">
      <acc value="0.1170785900" flag="0"/>
      <vel value="0.1777060066" flag="0"/>
      <psa03 value="0.1977366273" flag="0"/>
      <psa10 value="0.2870824427" flag="0"/>
      <psa30 value="0.0336730056" flag="0"/>
    </comp>
    <comp name="--.HHZ">
      <acc value="0.0487528893" flag="0"/>
      <vel value="0.0698818872" flag="0"/>
      <psa03 value="0.1031351883" flag="0"/>
      <psa10 value="0.0863725280" flag="0"/>
      <psa30 value="0.0225499796" flag="0"/>
    </comp>
    <comp name="--.HHN">
      <acc value="0.0666735968" flag="0"/>
      <vel value="0.0934773646" flag="0"/>
      <psa03 value="0.2064864409" flag="0"/>
      <psa10 value="0.1593345661" flag="0"/>
      <psa30 value="0.0226840418" flag="0"/>
    </comp>
  </station>
  <station code="KTHR" name="KTHR" netid="HC" insttype="120s" lat="36.2447" lon="22.9939">
    <comp name="--.HHZ">
      <acc value="0.2429488309" flag="0"/>
      <vel value="0.1503334823" flag="0"/>
      <psa03 value="0.5668002073" flag="0"/>
      <psa10 value="0.1386299607" flag="0"/>
      <psa30 value="0.0293721823" flag="0"/>
    </comp>
    <comp name="--.HHE">
      <acc value="0.6406349313" flag="0"/>
      <vel value="0.3743244329" flag="0"/>
      <psa03 value="1.7026531292" flag="0"/>
      <psa10 value="0.3679094094" flag="0"/>
      <psa30 value="0.0895301480" flag="0"/>
    </comp>
    <comp name="--.HHN">
      <acc value="0.6468159927" flag="0"/>
      <vel value="0.4707460441" flag="0"/>
      <psa03 value="1.5141054826" flag="0"/>
      <psa10 value="0.3698579127" flag="0"/>
      <psa30 value="0.0582971208" flag="0"/>
    </comp>
  </station>
  <station code="ARG2" name="ARG2" netid="HI" insttype="CMG-5TD,ACCELEROMETER,GURALP" lat="38.1783" lon="20.4878">
    <comp name="--.HNN">
      <acc value="0.5805344796" flag="0"/>
      <vel value="0.4677816915" flag="0"/>
      <psa03 value="1.9601512659" flag="0"/>
      <psa10 value="0.4940772824" flag="0"/>
      <psa30 value="0.0621966740" flag="0"/>
    </comp>
    <comp name="--.HNE">
      <acc value="0.5889116751" flag="0"/>
      <vel value="0.3270761006" flag="0"/>
      <psa03 value="1.4514499796" flag="0"/>
      <psa10 value="0.4070467270" flag="0"/>
      <psa30 value="0.0602973240" flag="0"/>
    </comp>
    <comp name="--.HNZ">
      <acc value="0.3614301742" flag="0"/>
      <vel value="0.2162144915" flag="0"/>
      <psa03 value="1.2395945953" flag="0"/>
      <psa10 value="0.2678303109" flag="0"/>
      <psa30 value="0.0336164509" flag="0"/>
    </comp>
  </station>
  <station code="ARS1" name="ARS1" netid="HI" insttype="CMG-5TD,ACCELEROMETER,GURALP" lat="37.6349" lon="22.7293">
    <comp name="--.HNE">
      <acc value="0.3050720523" flag="0"/>
      <vel value="0.3558487282" flag="0"/>
      <psa03 value="0.6156484635" flag="0"/>
      <psa10 value="0.6311541392" flag="0"/>
      <psa30 value="0.0608007320" flag="0"/>
    </comp>
    <comp name="--.HNN">
      <acc value="0.2802265794" flag="0"/>
