<stationlist created="1642764507">
	<station code="MYT1" name="MYT1" netid="HI" source="ITSAK Strong Motion Network" insttype="" lat="39.085" lon="26.5694">
		<comp name=".HNE" depth="0.0">
			<acc value="0.007537902" flag="0"/>
			<vel value="0.005373" flag="0"/>
			<psa03 value="0.0241160493672" flag="0"/>
			<psa10 value="0.00472343475269" flag="0"/>
			<psa30 value="0.000451001442712" flag="0"/>
		</comp>
		<comp name=".HNN" depth="0.0">
			<acc value="0.006049008" flag="0"/>
			<vel value="0.003127" flag="0"/>
			<psa03 value="0.0205814150444" flag="0"/>
			<psa10 value="0.00451001442712" flag="0"/>
			<psa30 value="0.000349436633689" flag="0"/>
		</comp>
		<comp name=".HNZ" depth="0.0">
			<acc value="0.021342684" flag="0"/>
			<vel value="0.002524" flag="0"/>
			<psa03 value="0.0193286332591" flag="0"/>
			<psa10 value="0.00421203133104" flag="0"/>
			<psa30 value="0.000213420325569" flag="0"/>
		</comp>
	</station>
	<station code="NAX1" name="NAX1" netid="HI" source="ITSAK Strong Motion Network" insttype="" lat="37.101394" lon="25.374103">
		<comp name=".HNE" depth="0.0">
			<acc value="0.005690376" flag="0"/>
			<vel value="0.002125" flag="0"/>
			<psa03 value="0.0097985432494" flag="0"/>
			<psa10 value="0.0011999859815" flag="0"/>
			<psa30 value="0.000109618406215" flag="0"/>
		</comp>
		<comp name=".HNN" depth="0.0">
			<acc value="0.0054876" flag="0"/>
			<vel value="0.001786" flag="0"/>
			<psa03 value="0.00894844132365" flag="0"/>
			<psa10 value="0.00105099443346" flag="0"/>
			<psa30 value="9.93276986926e-05" flag="0"/>
		</comp>
		<comp name=".HNZ" depth="0.0">
			<acc value="0.004449546" flag="0"/>
			<vel value="0.001862" flag="0"/>
			<psa03 value="0.012662044473" flag="0"/>
			<psa10 value="0.00100669964891" flag="0"/>
			<psa30 value="9.7985432494e-05" flag="0"/>
		</comp>
	</station>
	<station code="RDI1" name="RDI1" netid="HI" source="ITSAK Strong Motion Network" insttype="" lat="36.4514" lon="28.224">
		<comp name=".HNE" depth="0.0">
			<acc value="0.00192474" flag="0"/>
			<vel value="0.002313" flag="0"/>
			<psa03 value="0.00451896286845" flag="0"/>
			<psa10 value="0.00442545165661" flag="0"/>
			<psa30 value="0.000655025904891" flag="0"/>
		</comp>
		<comp name=".HNN" depth="0.0">
			<acc value="0.001703706" flag="0"/>
			<vel value="0.002109" flag="0"/>
			<psa03 value="0.00335566549637" flag="0"/>
			<psa10 value="0.00310868851584" flag="0"/>
			<psa30 value="0.000753458759452" flag="0"/>
		</comp>
		<comp name=".HNZ" depth="0.0">
			<acc value="0.003119976" flag="0"/>
			<vel value="0.001372" flag="0"/>
			<psa03 value="0.00371360314932" flag="0"/>
			<psa10 value="0.00144562069584" flag="0"/>
			<psa30 value="0.000239818227474" flag="0"/>
		</comp>
	</station>
	<station code="PRK" name="PRK" netid="HL" source="National Observatory of Athens Seismic Network" insttype="" lat="39.24565" lon="26.26499">
		<comp name=".HNE" depth="0.0">
			<acc value="0.007743942" flag="0"/>
			<vel value="0.004546" flag="0"/>
			<psa03 value="0.0215210013834" flag="0"/>
			<psa10 value="0.00365230632625" flag="0"/>
			<psa30 value="0.000266216129379" flag="0"/>
		</comp>
		<comp name=".HNN" depth="0.0">
			<acc value="0.008669388" flag="0"/>
			<vel value="0.00379" flag="0"/>
			<psa03 value="0.0244292448136" flag="0"/>
			<psa10 value="0.00355968995855" flag="0"/>
			<psa30 value="0.000311405758063" flag="0"/>
		</comp>
		<comp name=".HNZ" depth="0.0">
			<acc value="0.005316342" flag="0"/>
			<vel value="0.002335" flag="0"/>
			<psa03 value="0.0151676080436" flag="0"/>
			<psa10 value="0.00192883652731" flag="0"/>
			<psa30 value="0.000204471884246" flag="0"/>
		</comp>
	</station>
	<station code="RODB" name="RODB" netid="HL" source="National Observatory of Athens Seismic Network" insttype="" lat="36.4471" lon="28.22116">
		<comp name="00.HNE" depth="0.0">
			<acc value="0.00615876" flag="0"/>
			<vel value="0.002207" flag="0"/>
			<psa03 value="0.00384782976917" flag="0"/>
			<psa10 value="0.00283889300993" flag="0"/>
			<psa30 value="0.000831757621034" flag="0"/>
		</comp>
		<comp name="00.HNN" depth="0.0">
			<acc value="0.00423708" flag="0"/>
			<vel value="0.001844" flag="0"/>
			<psa03 value="0.00460844728168" flag="0"/>
			<psa10 value="0.00311674211303" flag="0"/>
			<psa30 value="0.00079238447921" flag="0"/>
		</comp>
		<comp name="00.HNZ" depth="0.0">
			<acc value="0.010984686" flag="0"/>
			<vel value="0.001751" flag="0"/>
			<psa03 value="0.00255030577724" flag="0"/>
			<psa10 value="0.00141340630707" flag="0"/>
			<psa30 value="0.000238923383342" flag="0"/>
		</comp>
	</station>
	<station code="THRA" name="THRA" netid="HL" source="National Observatory of Athens Seismic Network" insttype="" lat="36.41502" lon="25.43244">
		<comp name="00.HNE" depth="0.0">
			<acc value="0.006686304" flag="0"/>
			<vel value="0.003432" flag="0"/>
			<psa03 value="0.013825341845" flag="0"/>
			<psa10 value="0.00486437270354" flag="0"/>
			<psa30 value="0.000518562174706" flag="0"/>
		</comp>
		<comp name="00.HNN" depth="0.0">
			<acc value="0.006544116" flag="0"/>
			<vel value="0.004033" flag="0"/>
			<psa03 value="0.0140490528781" flag="0"/>
			<psa10 value="0.0060079835047" flag="0"/>
			<psa30 value="0.000634444489847" flag="0"/>
		</comp>
		<comp name="00.HNZ" depth="0.0">
			<acc value="0.008638788" flag="0"/>
			<vel value="0.002505" flag="0"/>
			<psa03 value="0.0113197782744" flag="0"/>
			<psa10 value="0.00151407627196" flag="0"/>
			<psa30 value="0.000156150301098" flag="0"/>
		</comp>
	</station>
	<station code="TNSA" name="TNSA" netid="HL" source="National Observatory of Athens Seismic Network" insttype="" lat="37.53942" lon="25.1631">
		<comp name="00.HNE" depth="0.0">
			<acc value="0.004216782" flag="0"/>
			<vel value="0.001474" flag="0"/>
			<psa03 value="0.00876947249718" flag="0"/>
			<psa10 value="0.000543617810412" flag="0"/>
			<psa30 value="0.000115434893075" flag="0"/>
		</comp>
		<comp name="00.HNN" depth="0.0">
			<acc value="0.005120604" flag="0"/>
			<vel value="0.001315" flag="0"/>
			<psa03 value="0.00711401085231" flag="0"/>
			<psa10 value="0.000479189032882" flag="0"/>
			<psa30 value="0.000130199821259" flag="0"/>
		</comp>
		<comp name="00.HNZ" depth="0.0">
			<acc value="0.003596826" flag="0"/>
			<vel value="0.000984" flag="0"/>
			<psa03 value="0.00791937057143" flag="0"/>
			<psa10 value="0.000595966192155" flag="0"/>
			<psa30 value="0.000130199821259" flag="0"/>
		</comp>
	</station>
	<station code="AKS" name="AKS" netid="KO" source="Bogazici University Kandilli Observatory And Earthquake Research Institute (KOERI)" insttype="" lat="38.8785" lon="27.8129">
		<comp name=".HNE" depth="0.0">
			<acc value="0.013939932" flag="0"/>
			<vel value="0.006382" flag="0"/>
			<psa03 value="0.0344514990961" flag="0"/>
			<psa10 value="0.00335835002877" flag="0"/>
			<psa30 value="0.0004008901713" flag="0"/>
		</comp>
		<comp name=".HNN" depth="0.0">
			<acc value="0.01986705" flag="0"/>
			<vel value="0.008911" flag="0"/>
			<psa03 value="0.0485900363874" flag="0"/>
			<psa10 value="0.00457847000325" flag="0"/>
			<psa30 value="0.000753458759452" flag="0"/>
		</comp>
		<comp name=".HNZ" depth="0.0">
			<acc value="0.006924576" flag="0"/>
			<vel value="0.00237" flag="0"/>
			<psa03 value="0.0104696763487" flag="0"/>
			<psa10 value="0.00131676314078" flag="0"/>
			<psa30 value="0.000333329439306" flag="0"/>
		</comp>
	</station>
	<station code="DATC" name="DATC" netid="KO" source="Bogazici University Kandilli Observatory And Earthquake Research Institute (KOERI)" insttype="" lat="36.7584" lon="27.6602">
		<comp name=".HNE" depth="0.0">
			<acc value="0.11264064" flag="0"/>
			<vel value="0.026372" flag="0"/>
			<psa03 value="0.109081499735" flag="0"/>
			<psa10 value="0.0329633733039" flag="0"/>
			<psa30 value="0.00288989912547" flag="0"/>
		</comp>
		<comp name=".HNN" depth="0.0">
			<acc value="0.147488838" flag="0"/>
			<vel value="0.052577" flag="0"/>
			<psa03 value="0.137179605492" flag="0"/>
			<psa10 value="0.0393740366682" flag="0"/>
			<psa30 value="0.00343262209175" flag="0"/>
		</comp>
		<comp name=".HNZ" depth="0.0">
			<acc value="0.212612268" flag="0"/>
			<vel value="0.034895" flag="0"/>
			<psa03 value="0.0674712475804" flag="0"/>
			<psa10 value="0.0175850294672" flag="0"/>
			<psa30 value="0.00175165738911" flag="0"/>
		</comp>
	</station>
	<station code="EZNE" name="EZNE" netid="KO" source="Bogazici University Kandilli Observatory And Earthquake Research Institute (KOERI)" insttype="" lat="39.756" lon="26.3655">
		<comp name=".HNE" depth="0.0">
			<acc value="0.013020096" flag="0"/>
			<vel value="0.006342" flag="0"/>
			<psa03 value="0.0432657137999" flag="0"/>
			<psa10 value="0.00396236981811" flag="0"/>
			<psa30 value="0.00128365390788" flag="0"/>
		</comp>
		<comp name=".HNN" depth="0.0">
			<acc value="0.011247744" flag="0"/>
			<vel value="0.006673" flag="0"/>
			<psa03 value="0.0439815891058" flag="0"/>
			<psa10 value="0.00560127684654" flag="0"/>
			<psa30 value="0.0016617255538" flag="0"/>
		</comp>
		<comp name=".HNZ" depth="0.0">
			<acc value="0.008514246" flag="0"/>
			<vel value="0.004295" flag="0"/>
			<psa03 value="0.0192838910525" flag="0"/>
			<psa10 value="0.0024925883307" flag="0"/>
			<psa30 value="0.00153063088841" flag="0"/>
		</comp>
	</station>
	<station code="GMLD" name="GMLD" netid="KO" source="Bogazici University Kandilli Observatory And Earthquake Research Institute (KOERI)" insttype="" lat="38.0766" lon="26.9157">
		<comp name=".HNE" depth="0.0">
			<acc value="2.703187986" flag="0"/>
			<vel value="0.769698" flag="0"/>
			<psa03 value="3.36662733699" flag="0"/>
			<psa10 value="0.209486143341" flag="0"/>
			<psa30 value="0.0167273213663" flag="0"/>
		</comp>
		<comp name=".HNN" depth="0.0">
			<acc value="2.69443047" flag="0"/>
			<vel value="0.737322" flag="0"/>
			<psa03 value="3.08394607558" flag="0"/>
			<psa10 value="0.179490520602" flag="0"/>
			<psa30 value="0.015001614457" flag="0"/>
		</comp>
		<comp name=".HNZ" depth="0.0">
			<acc value="1.464500292" flag="0"/>
			<vel value="0.335226" flag="0"/>
			<psa03 value="1.6677657517" flag="0"/>
			<psa10 value="0.0714716482741" flag="0"/>
			<psa30 value="0.00569076125978" flag="0"/>
		</comp>
	</station>
	<station code="GORD" name="GORD" netid="KO" source="Bogazici University Kandilli Observatory And Earthquake Research Institute (KOERI)" insttype="" lat="38.9088" lon="28.1769">
		<comp name=".HNE" depth="0.0">
			<acc value="0.027912096" flag="0"/>
			<vel value="0.01713" flag="0"/>
			<psa03 value="0.0636681600178" flag="0"/>
			<psa10 value="0.0276922939422" flag="0"/>
			<psa30 value="0.00163353796363" flag="0"/>
		</comp>
		<comp name=".HNN" depth="0.0">
			<acc value="0.020403978" flag="0"/>
			<vel value="0.013493" flag="0"/>
			<psa03 value="0.0497980759661" flag="0"/>
			<psa10 value="0.0115488583723" flag="0"/>
			<psa30 value="0.00112168711992" flag="0"/>
		</comp>
		<comp name=".HNZ" depth="0.0">
			<acc value="0.018978426" flag="0"/>
			<vel value="0.013328" flag="0"/>
			<psa03 value="0.0456817929573" flag="0"/>
			<psa10 value="0.0157206217174" flag="0"/>
			<psa30 value="0.000904687417821" flag="0"/>
		</comp>
	</station>
	<station code="NAZL" name="NAZL" netid="KO" source="Bogazici University Kandilli Observatory And Earthquake Research Institute (KOERI)" insttype="" lat="37.9641" lon="28.2922">
		<comp name=".HNE" depth="0.0">
			<acc value="0.04680984" flag="0"/>
			<vel value="0.018268" flag="0"/>
			<psa03 value="0.131765798491" flag="0"/>
			<psa10 value="0.0125233436325" flag="0"/>
			<psa30 value="0.00100043573998" flag="0"/>
		</comp>
		<comp name=".HNN" depth="0.0">
			<acc value="0.039077832" flag="0"/>
			<vel value="0.017549" flag="0"/>
			<psa03 value="0.0959272909896" flag="0"/>
			<psa10 value="0.0104455155571" flag="0"/>
			<psa30 value="0.000905582261954" flag="0"/>
		</comp>
		<comp name=".HNZ" depth="0.0">
			<acc value="0.017566848" flag="0"/>
			<vel value="0.009548" flag="0"/>
			<psa03 value="0.0453685975109" flag="0"/>
			<psa10 value="0.00570597361003" flag="0"/>
			<psa30 value="0.000470240591558" flag="0"/>
		</comp>
	</station>
	<station code="SOMA" name="SOMA" netid="KO" source="Bogazici University Kandilli Observatory And Earthquake Research Institute (KOERI)" insttype="" lat="39.1564" lon="27.5341">
		<comp name=".HNE" depth="0.0">
			<acc value="0.137728356" flag="0"/>
			<vel value="0.050355" flag="0"/>
			<psa03 value="0.250198419409" flag="0"/>
			<psa10 value="0.0108240346251" flag="0"/>
			<psa30 value="0.00139193004789" flag="0"/>
		</comp>
		<comp name=".HNN" depth="0.0">
			<acc value="0.08537145" flag="0"/>
			<vel value="0.028826" flag="0"/>
			<psa03 value="0.245813683161" flag="0"/>
			<psa10 value="0.014270974223" flag="0"/>
			<psa30 value="0.00125412405151" flag="0"/>
		</comp>
		<comp name=".HNZ" depth="0.0">
			<acc value="0.107606022" flag="0"/>
			<vel value="0.031771" flag="0"/>
			<psa03 value="0.188454174276" flag="0"/>
			<psa10 value="0.00563349123531" flag="0"/>
			<psa30 value="0.000997751207587" flag="0"/>
		</comp>
	</station>
	<station code="YKAV" name="YKAV" netid="KO" source="Bogazici University Kandilli Observatory And Earthquake Research Institute (KOERI)" insttype="" lat="37.1246" lon="27.2801">
		<comp name=".HNE" depth="0.0">
			<acc value="0.014981352" flag="0"/>
			<vel value="0.011344" flag="0"/>
			<psa03 value="0.0455475663374" flag="0"/>
			<psa10 value="0.00815426715618" flag="0"/>
			<psa30 value="0.000777619551026" flag="0"/>
		</comp>
		<comp name=".HNN" depth="0.0">
			<acc value="0.009757116" flag="0"/>
			<vel value="0.004655" flag="0"/>
			<psa03 value="0.0241160493672" flag="0"/>
			<psa10 value="0.00411136136615" flag="0"/>
			<psa30 value="0.000382545866586" flag="0"/>
		</comp>
		<comp name=".HNZ" depth="0.0">
			<acc value="0.005858268" flag="0"/>
			<vel value="0.004399" flag="0"/>
			<psa03 value="0.022147392276" flag="0"/>
			<psa10 value="0.00219460523463" flag="0"/>
			<psa30 value="0.000455475663374" flag="0"/>
		</comp>
	</station>
</stationlist>
