<?xml version="1.0" encoding="UTF-8" standalone="yes"?>
<!DOCTYPE earthquake SYSTEM "stationlist.dtd">
<stationlist created="" xmlns="ch.ethz.sed.shakemap.usgs.xml">
  <station code="EAG2" name="EAG2" netid="HL" insttype="SMART24" lat="38.5438" lon="26.1079">
    <comp name="--.HHZ">
      <acc value="0.0720187881" flag="0"/>
      <vel value="0.0189086098" flag="0"/>
      <psa03 value="0.1216089284" flag="0"/>
      <psa10 value="0.0170321802" flag="0"/>
      <psa30 value="0.0009119226" flag="0"/>
    </comp>
    <comp name="--.HHE">
      <acc value="0.2301432429" flag="0"/>
      <vel value="0.1165567615" flag="0"/>
      <psa03 value="0.7356231828" flag="0"/>
      <psa10 value="0.0333311087" flag="0"/>
      <psa30 value="0.0031000712" flag="0"/>
    </comp>
    <comp name="--.HHN">
      <acc value="0.1987307108" flag="0"/>
      <vel value="0.0992782041" flag="0"/>
      <psa03 value="0.9140002285" flag="0"/>
      <psa10 value="0.0392165431" flag="0"/>
      <psa30 value="0.0031000250" flag="0"/>
    </comp>
  </station>
  <station code="GMLD" name="GMLD" netid="KO" insttype="100" lat="38.0764" lon="26.8747">
    <comp name="--.HNZ">
      <acc value="0.2463548308" flag="0"/>
      <vel value="0.0521036720" flag="0"/>
      <psa03 value="0.2582588637" flag="0"/>
      <psa10 value="0.0113464581" flag="0"/>
      <psa30 value="0.0008763496" flag="0"/>
    </comp>
    <comp name="--.HNE">
      <acc value="0.4367454923" flag="0"/>
      <vel value="0.1221502326" flag="0"/>
      <psa03 value="0.5267619719" flag="0"/>
      <psa10 value="0.0331275677" flag="0"/>
      <psa30 value="0.0026882747" flag="0"/>
    </comp>
    <comp name="--.HNN">
      <acc value="0.4337892122" flag="0"/>
      <vel value="0.1164012030" flag="0"/>
      <psa03 value="0.4939617290" flag="0"/>
      <psa10 value="0.0284788313" flag="0"/>
      <psa30 value="0.0023688175" flag="0"/>
    </comp>
  </station>
</stationlist>
