<stationlist created="1631873508">
	<station code="GMLD" name="GMLD" netid="KO" source="Bogazici University Kandilli Observatory And Earthquake Research Institute (KOERI)" insttype="" lat="38.0766" lon="26.9157">
		<comp name="--.HNE" depth="0.0">
			<acc value="-2.703187986" flag="0"/>
			<vel value="0.769698" flag="0"/>
			<psa03 value="3.36662733699" flag="0"/>
			<psa10 value="0.209486143341" flag="0"/>
			<psa30 value="0.0167273213663" flag="0"/>
		</comp>
		<comp name="--.HNN" depth="0.0">
			<acc value="2.69443047" flag="0"/>
			<vel value="0.737322" flag="0"/>
			<psa03 value="3.08394607558" flag="0"/>
			<psa10 value="0.179490520602" flag="0"/>
			<psa30 value="0.015001614457" flag="0"/>
		</comp>
		<comp name="--.HNZ" depth="0.0">
			<acc value="1.464500292" flag="0"/>
			<vel value="0.335226" flag="0"/>
			<psa03 value="1.6677657517" flag="0"/>
			<psa10 value="0.0714716482741" flag="0"/>
			<psa30 value="0.00569076125978" flag="0"/>
		</comp>
	</station>
</stationlist>
