<stationlist xmlns:esm="https://esm-db.eu/esmws/shakemap/1/" created="1780710970">
	<station code="KOS2" name="KOS2" netid="HI" source="ITSAK Strong Motion Network" insttype="" lat="36.8941" lon="27.2888" esm:processing="manual (Paolucci et al 2011)" esm:quality="good">
		<comp name="--.HNE" depth="0.0">
			<acc value="0.0225355703017791" flag="0"/>
			<vel value="0.0150145655596886" flag="0"/>
			<psa03 value="0.0753673260488004" flag="0"/>
			<psa10 value="0.00892094378124378" flag="0"/>
			<psa30 value="0.00155623319697837" flag="0"/>
		</comp>
		<comp name="--.HNN" depth="0.0">
			<acc value="0.0202543118369513" flag="0"/>
			<vel value="0.0139315480214686" flag="0"/>
			<psa03 value="0.0790775509996612" flag="0"/>
			<psa10 value="0.0092672314085996" flag="0"/>
			<psa30 value="0.00107580262081053" flag="0"/>
		</comp>
		<comp name="--.HNZ" depth="0.0">
			<acc value="0.0080051579150091" flag="0"/>
			<vel value="0.00429753197451439" flag="0"/>
			<psa03 value="0.0239729813215259" flag="0"/>
			<psa10 value="0.00479432556928963" flag="0"/>
			<psa30 value="0.000607834120194034" flag="0"/>
		</comp>
	</station>
	<station code="GMLD" name="GMLD" netid="KO" source="Bogazici University Kandilli Observatory And Earthquake Research Institute (KOERI)" insttype="" lat="38.0766" lon="26.9157" esm:processing="manual (Paolucci et al 2011)" esm:quality="good">
		<comp name="--.HNE" depth="0.0">
			<acc value="2.73448497687457" flag="0"/>
			<vel value="0.771829502658117" flag="0"/>
			<psa03 value="3.36662733699186" flag="0"/>
			<psa10 value="0.209486143341212" flag="0"/>
			<psa30 value="0.0167273213663071" flag="0"/>
		</comp>
		<comp name="--.HNN" depth="0.0">
			<acc value="2.71855562252182" flag="0"/>
			<vel value="0.743408340633147" flag="0"/>
			<psa03 value="3.08394607557762" flag="0"/>
			<psa10 value="0.179490520602256" flag="0"/>
			<psa30 value="0.0150016144570403" flag="0"/>
		</comp>
		<comp name="--.HNZ" depth="0.0">
			<acc value="1.5040438261976" flag="0"/>
			<vel value="0.338344698978777" flag="0"/>
			<psa03 value="1.66776575169608" flag="0"/>
			<psa10 value="0.0714716482740935" flag="0"/>
			<psa30 value="0.00569076125977798" flag="0"/>
		</comp>
	</station>
</stationlist>
