<stationlist created="1778069926">
	<station code="AKS" name="AKS" netid="KO" source="Bogazici University Kandilli Observatory And Earthquake Research Institute (KOERI)" insttype="" lat="38.8785" lon="27.8129">
		<comp name="--.HNE" depth="0.0">
			<acc value="0.014011490750783" flag="0"/>
			<vel value="0.00614523975767633" flag="0"/>
			<psa03 value="0.0344514990960693" flag="0"/>
			<psa10 value="0.00335835002876748" flag="0"/>
			<psa30 value="0.000400890171299715" flag="0"/>
		</comp>
		<comp name="--.HNN" depth="0.0">
			<acc value="0.0198300504956765" flag="0"/>
			<vel value="0.00891494715207223" flag="0"/>
			<psa03 value="0.0485900363874431" flag="0"/>
			<psa10 value="0.00457847000324775" flag="0"/>
			<psa30 value="0.000753458759451696" flag="0"/>
		</comp>
		<comp name="--.HNZ" depth="0.0">
			<acc value="0.00683649285642764" flag="0"/>
			<vel value="0.00228699682483702" flag="0"/>
			<psa03 value="0.0104696763486756" flag="0"/>
			<psa10 value="0.00131676314077574" flag="0"/>
			<psa30 value="0.000333329439306125" flag="0"/>
		</comp>
	</station>
	<station code="DATC" name="DATC" netid="KO" source="Bogazici University Kandilli Observatory And Earthquake Research Institute (KOERI)" insttype="" lat="36.7584" lon="27.6602">
		<comp name="--.HNE" depth="0.0">
			<acc value="0.196330507474701" flag="0"/>
			<vel value="0.0266691516608539" flag="0"/>
			<psa03 value="0.109081499735347" flag="0"/>
			<psa10 value="0.0329633733039455" flag="0"/>
			<psa30 value="0.00288989912547417" flag="0"/>
		</comp>
		<comp name="--.HNN" depth="0.0">
			<acc value="0.218862183106096" flag="0"/>
			<vel value="0.0527489784858088" flag="0"/>
			<psa03 value="0.137179605491621" flag="0"/>
			<psa10 value="0.0393740366682115" flag="0"/>
			<psa30 value="0.00343262209175381" flag="0"/>
		</comp>
		<comp name="--.HNZ" depth="0.0">
			<acc value="0.218814293662845" flag="0"/>
			<vel value="0.0354062982967108" flag="0"/>
			<psa03 value="0.0674712475803538" flag="0"/>
			<psa10 value="0.0175850294671793" flag="0"/>
			<psa30 value="0.00175165738910534" flag="0"/>
		</comp>
	</station>
	<station code="EZNE" name="EZNE" netid="KO" source="Bogazici University Kandilli Observatory And Earthquake Research Institute (KOERI)" insttype="" lat="39.756" lon="26.3655">
		<comp name="--.HNE" depth="0.0">
			<acc value="0.0129777342016806" flag="0"/>
			<vel value="0.00683657873687824" flag="0"/>
			<psa03 value="0.0432657137998688" flag="0"/>
			<psa10 value="0.00396236981811415" flag="0"/>
			<psa30 value="0.00128365390787822" flag="0"/>
		</comp>
		<comp name="--.HNN" depth="0.0">
			<acc value="0.0112800624847358" flag="0"/>
			<vel value="0.00603857270818577" flag="0"/>
			<psa03 value="0.0439815891057611" flag="0"/>
			<psa10 value="0.00560127684654144" flag="0"/>
			<psa30 value="0.00166172555380261" flag="0"/>
		</comp>
		<comp name="--.HNZ" depth="0.0">
			<acc value="0.00883575386980358" flag="0"/>
			<vel value="0.00402058993611388" flag="0"/>
			<psa03 value="0.0192838910524751" flag="0"/>
			<psa10 value="0.00249258833070392" flag="0"/>
			<psa30 value="0.00153063088841108" flag="0"/>
		</comp>
	</station>
	<station code="GMLD" name="GMLD" netid="KO" source="Bogazici University Kandilli Observatory And Earthquake Research Institute (KOERI)" insttype="" lat="38.0766" lon="26.9157">
		<comp name="--.HNE" depth="0.0">
			<acc value="2.73448497687457" flag="0"/>
			<vel value="0.771829502658117" flag="0"/>
			<psa03 value="3.36662733699186" flag="0"/>
			<psa10 value="0.209486143341212" flag="0"/>
			<psa30 value="0.0167273213663071" flag="0"/>
		</comp>
		<comp name="--.HNN" depth="0.0">
			<acc value="2.71855562252182" flag="0"/>
			<vel value="0.743408340633147" flag="0"/>
			<psa03 value="3.08394607557762" flag="0"/>
			<psa10 value="0.179490520602256" flag="0"/>
			<psa30 value="0.0150016144570403" flag="0"/>
		</comp>
		<comp name="--.HNZ" depth="0.0">
			<acc value="1.5040438261976" flag="0"/>
			<vel value="0.338344698978777" flag="0"/>
			<psa03 value="1.66776575169608" flag="0"/>
			<psa10 value="0.0714716482740935" flag="0"/>
			<psa30 value="0.00569076125977798" flag="0"/>
		</comp>
	</station>
	<station code="GORD" name="GORD" netid="KO" source="Bogazici University Kandilli Observatory And Earthquake Research Institute (KOERI)" insttype="" lat="38.9088" lon="28.1769">
		<comp name="--.HNE" depth="0.0">
			<acc value="0.026839541683448" flag="0"/>
			<vel value="0.0167118913184132" flag="0"/>
			<psa03 value="0.0636681600178007" flag="0"/>
			<psa10 value="0.0276922939422469" flag="0"/>
			<psa30 value="0.0016335379636331" flag="0"/>
		</comp>
		<comp name="--.HNN" depth="0.0">
			<acc value="0.0195167574234378" flag="0"/>
			<vel value="0.0104896532975782" flag="0"/>
			<psa03 value="0.0497980759661365" flag="0"/>
			<psa10 value="0.0115488583723083" flag="0"/>
			<psa30 value="0.00112168711992007" flag="0"/>
		</comp>
		<comp name="--.HNZ" depth="0.0">
			<acc value="0.0167907094673932" flag="0"/>
			<vel value="0.0111609958498785" flag="0"/>
			<psa03 value="0.0456817929572555" flag="0"/>
			<psa10 value="0.015720621717396" flag="0"/>
			<psa30 value="0.000904687417821455" flag="0"/>
		</comp>
	</station>
	<station code="NAZL" name="NAZL" netid="KO" source="Bogazici University Kandilli Observatory And Earthquake Research Institute (KOERI)" insttype="" lat="37.9641" lon="28.2922">
		<comp name="--.HNE" depth="0.0">
			<acc value="0.0467476261292121" flag="0"/>
			<vel value="0.0176713163716594" flag="0"/>
			<psa03 value="0.13176579849081" flag="0"/>
			<psa10 value="0.0125233436324543" flag="0"/>
			<psa30 value="0.00100043573998456" flag="0"/>
		</comp>
		<comp name="--.HNN" depth="0.0">
			<acc value="0.039406828579452" flag="0"/>
			<vel value="0.0166801264633536" flag="0"/>
			<psa03 value="0.0959272909895747" flag="0"/>
			<psa10 value="0.0104455155571017" flag="0"/>
			<psa30 value="0.00090558226195382" flag="0"/>
		</comp>
		<comp name="--.HNZ" depth="0.0">
			<acc value="0.0172280150167584" flag="0"/>
			<vel value="0.00884280888579454" flag="0"/>
			<psa03 value="0.0453685975109276" flag="0"/>
			<psa10 value="0.0057059736100282" flag="0"/>
			<psa30 value="0.000470240591558036" flag="0"/>
		</comp>
	</station>
	<station code="SOMA" name="SOMA" netid="KO" source="Bogazici University Kandilli Observatory And Earthquake Research Institute (KOERI)" insttype="" lat="39.1564" lon="27.5341">
		<comp name="--.HNE" depth="0.0">
			<acc value="0.137346039531733" flag="0"/>
			<vel value="0.0498579409166851" flag="0"/>
			<psa03 value="0.250198419409376" flag="0"/>
			<psa10 value="0.0108240346250923" flag="0"/>
			<psa30 value="0.00139193004789443" flag="0"/>
		</comp>
		<comp name="--.HNN" depth="0.0">
			<acc value="0.0842881605593182" flag="0"/>
			<vel value="0.0303872311659584" flag="0"/>
			<psa03 value="0.245813683160785" flag="0"/>
			<psa10 value="0.014270974222964" flag="0"/>
			<psa30 value="0.00125412405151016" flag="0"/>
		</comp>
		<comp name="--.HNZ" depth="0.0">
			<acc value="0.10414655307904" flag="0"/>
			<vel value="0.0304716873256745" flag="0"/>
			<psa03 value="0.188454174276161" flag="0"/>
			<psa10 value="0.0056334912353066" flag="0"/>
			<psa30 value="0.00099775120758746" flag="0"/>
		</comp>
	</station>
	<station code="YKAV" name="YKAV" netid="KO" source="Bogazici University Kandilli Observatory And Earthquake Research Institute (KOERI)" insttype="" lat="37.1246" lon="27.2801">
		<comp name="--.HNE" depth="0.0">
			<acc value="0.0149491220437132" flag="0"/>
			<vel value="0.0110062180908938" flag="0"/>
			<psa03 value="0.0455475663374007" flag="0"/>
			<psa10 value="0.00815426715618003" flag="0"/>
			<psa30 value="0.000777619551025563" flag="0"/>
		</comp>
		<comp name="--.HNN" depth="0.0">
			<acc value="0.00965474252623266" flag="0"/>
			<vel value="0.00462301466665258" flag="0"/>
			<psa03 value="0.0241160493672485" flag="0"/>
			<psa10 value="0.00411136136615299" flag="0"/>
			<psa30 value="0.000382545866586223" flag="0"/>
		</comp>
		<comp name="--.HNZ" depth="0.0">
			<acc value="0.00587497237480777" flag="0"/>
			<vel value="0.0041406748475768" flag="0"/>
			<psa03 value="0.0221473922760445" flag="0"/>
			<psa10 value="0.00219460523462623" flag="0"/>
			<psa30 value="0.000455475663374006" flag="0"/>
		</comp>
	</station>
</stationlist>
