<?xml version="1.0" encoding="UTF-8" standalone="yes"?>
<!DOCTYPE earthquake SYSTEM "stationlist.dtd">
<stationlist created="" xmlns="ch.ethz.sed.shakemap.usgs.xml">
  <station code="KRL1" name="KRL1" netid="HI" insttype="CMG-5TD,ACCELEROMETER,GURALP" lat="37.7951" lon="26.7065">
    <comp name="--.HNE">
      <acc value="0.0585608733" flag="0"/>
      <vel value="0.0419665440" flag="0"/>
      <psa03 value="0.1103941701" flag="0"/>
      <psa10 value="0.0438460269" flag="0"/>
      <psa30 value="0.0179682358" flag="0"/>
    </comp>
    <comp name="--.HNZ">
      <acc value="0.0286654406" flag="0"/>
      <vel value="0.0305768463" flag="0"/>
      <psa03 value="0.0549581194" flag="0"/>
      <psa10 value="0.0398347641" flag="0"/>
      <psa30 value="0.0089672789" flag="0"/>
    </comp>
    <comp name="--.HNN">
      <acc value="0.0497623829" flag="0"/>
      <vel value="0.0575292150" flag="0"/>
      <psa03 value="0.0826969132" flag="0"/>
      <psa10 value="0.0653797257" flag="0"/>
      <psa30 value="0.0190616213" flag="0"/>
    </comp>
  </station>
  <station code="LMN1" name="LMN1" netid="HI" insttype="CMG-5TD,ACCELEROMETER,GURALP" lat="39.875" lon="25.0588">
    <comp name="--.HNE">
      <acc value="0.1163111938" flag="0"/>
      <vel value="0.0798326681" flag="0"/>
      <psa03 value="0.3746273364" flag="0"/>
      <psa10 value="0.0392009820" flag="0"/>
      <psa30 value="0.0138578680" flag="0"/>
    </comp>
    <comp name="--.HNZ">
      <acc value="0.0789283928" flag="0"/>
      <vel value="0.0313105052" flag="0"/>
      <psa03 value="0.1037793033" flag="0"/>
      <psa10 value="0.0217785507" flag="0"/>
      <psa30 value="0.0064609378" flag="0"/>
    </comp>
    <comp name="--.HNN">
      <acc value="0.1300625479" flag="0"/>
      <vel value="0.0659574909" flag="0"/>
      <psa03 value="0.5177533172" flag="0"/>
      <psa10 value="0.0556771154" flag="0"/>
      <psa30 value="0.0107053355" flag="0"/>
    </comp>
  </station>
  <station code="MYT1" name="MYT1" netid="HI" insttype="CMG-5TD,ACCELEROMETER,GURALP" lat="39.085" lon="26.5694">
    <comp name="--.HNE">
      <acc value="0.8646823513" flag="0"/>
      <vel value="0.3419573200" flag="0"/>
      <psa03 value="1.4733490570" flag="0"/>
      <psa10 value="0.2949074563" flag="0"/>
      <psa30 value="0.0800261431" flag="0"/>
    </comp>
    <comp name="--.HNZ">
      <acc value="0.5357085214" flag="0"/>
      <vel value="0.2375719523" flag="0"/>
      <psa03 value="1.0529825147" flag="0"/>
      <psa10 value="0.1981305638" flag="0"/>
      <psa30 value="0.0357981830" flag="0"/>
    </comp>
    <comp name="--.HNN">
      <acc value="0.4825130236" flag="0"/>
      <vel value="0.2376485685" flag="0"/>
      <psa03 value="1.1607596587" flag="0"/>
      <psa10 value="0.3029274686" flag="0"/>
      <psa30 value="0.0620989748" flag="0"/>
    </comp>
  </station>
  <station code="EFSA" name="EFSA" netid="HL" insttype="CMG-5" lat="39.5401" lon="24.9886">
    <comp name="00.HNN">
      <acc value="0.0544700006" flag="0"/>
      <vel value="0.0528781661" flag="0"/>
      <psa03 value="0.2478993362" flag="0"/>
      <psa10 value="0.0551501081" flag="0"/>
      <psa30 value="0.0141867811" flag="0"/>
    </comp>
    <comp name="00.HNZ">
      <acc value="0.0398389225" flag="0"/>
      <vel value="0.0235594136" flag="0"/>
      <psa03 value="0.1536080228" flag="0"/>
      <psa10 value="0.0313159510" flag="0"/>
      <psa30 value="0.0060407069" flag="0"/>
    </comp>
    <comp name="00.HNE">
      <acc value="0.0600571159" flag="0"/>
      <vel value="0.0579021744" flag="0"/>
      <psa03 value="0.2163987930" flag="0"/>
      <psa10 value="0.0586581430" flag="0"/>
      <psa30 value="0.0236954898" flag="0"/>
    </comp>
  </station>
  <station code="LIA" name="LIA" netid="HL" insttype="P6C" lat="39.8972" lon="25.1806">
    <comp name="--.HHE">
      <acc value="0.0925565117" flag="0"/>
      <vel value="0.0578480018" flag="0"/>
      <psa03 value="0.1727445741" flag="0"/>
      <psa10 value="0.0335832152" flag="0"/>
      <psa30 value="0.0071692658" flag="0"/>
    </comp>
    <comp name="--.HHN">
      <acc value="0.0947152126" flag="0"/>
      <vel value="0.0671200541" flag="0"/>
      <psa03 value="0.1678773290" flag="0"/>
      <psa10 value="0.0439166435" flag="0"/>
      <psa30 value="0.0128343597" flag="0"/>
    </comp>
    <comp name="--.HHZ">
      <acc value="0.0477461668" flag="0"/>
      <vel value="0.0501267421" flag="0"/>
      <psa03 value="0.1034038167" flag="0"/>
      <psa10 value="0.0326224305" flag="0"/>
      <psa30 value="0.0087749809" flag="0"/>
    </comp>
  </station>
  <station code="PRK" name="PRK" netid="HL" insttype="120" lat="39.2456" lon="26.265">
    <comp name="--.HHN">
      <acc value="0.9845993103" flag="0"/>
      <vel value="0.4622004343" flag="0"/>
      <psa03 value="3.2922246708" flag="0"/>
      <psa10 value="0.4564607917" flag="0"/>
      <psa30 value="0.0797021767" flag="0"/>
    </comp>
    <comp name="--.HHE">
      <acc value="0.8457838145" flag="0"/>
      <vel value="0.5251451241" flag="0"/>
      <psa03 value="3.4653651380" flag="0"/>
      <psa10 value="0.8822174944" flag="0"/>
      <psa30 value="0.0882011057" flag="0"/>
    </comp>
    <comp name="--.HHZ">
      <acc value="0.8213317117" flag="0"/>
      <vel value="0.3220170738" flag="0"/>
      <psa03 value="1.8491966098" flag="0"/>
      <psa10 value="0.2245032674" flag="0"/>
      <psa30 value="0.0497373179" flag="0"/>
    </comp>
  </station>
  <station code="SKY" name="SKY" netid="HL" insttype="120" lat="38.8831" lon="24.5482">
    <comp name="--.HHZ">
      <acc value="0.0188802606" flag="0"/>
      <vel value="0.0117326262" flag="0"/>
      <psa03 value="0.0409351374" flag="0"/>
      <psa10 value="0.0160502595" flag="0"/>
      <psa30 value="0.0063603837" flag="0"/>
    </comp>
    <comp name="--.HHE">
      <acc value="0.0574194156" flag="0"/>
      <vel value="0.0202956179" flag="0"/>
      <psa03 value="0.0943525975" flag="0"/>
      <psa10 value="0.0134450024" flag="0"/>
      <psa30 value="0.0043247124" flag="0"/>
    </comp>
    <comp name="--.HHN">
      <acc value="0.0458294783" flag="0"/>
      <vel value="0.0238891545" flag="0"/>
      <psa03 value="0.1019873927" flag="0"/>
      <psa10 value="0.0198295042" flag="0"/>
      <psa30 value="0.0061263425" flag="0"/>
    </comp>
  </station>
  <station code="SMG" name="SMG" netid="HL" insttype="120" lat="37.7043" lon="26.8377">
    <comp name="--.HHE">
      <acc value="0.0613628056" flag="0"/>
      <vel value="0.0420992167" flag="0"/>
      <psa03 value="0.1543294234" flag="0"/>
      <psa10 value="0.0679881792" flag="0"/>
      <psa30 value="0.0089084069" flag="0"/>
    </comp>
    <comp name="--.HHZ">
      <acc value="0.0244558881" flag="0"/>
      <vel value="0.0226260884" flag="0"/>
      <psa03 value="0.0577426652" flag="0"/>
      <psa10 value="0.0324124873" flag="0"/>
      <psa30 value="0.0068549434" flag="0"/>
    </comp>
    <comp name="--.HHN">
      <acc value="0.0543866305" flag="0"/>
      <vel value="0.0392106975" flag="0"/>
      <psa03 value="0.0966099592" flag="0"/>
      <psa10 value="0.0410909254" flag="0"/>
      <psa30 value="0.0077814641" flag="0"/>
    </comp>
  </station>
  <station code="SMTH" name="SMTH" netid="HL" insttype="CMG3ESPC60_P6C" lat="40.4709" lon="25.5304">
    <comp name="--.HHN">
      <acc value="0.0305881023" flag="0"/>
      <vel value="0.0209804878" flag="0"/>
      <psa03 value="0.0472740538" flag="0"/>
      <psa10 value="0.0153843534" flag="0"/>
      <psa30 value="0.0060410113" flag="0"/>
    </comp>
    <comp name="--.HHZ">
      <acc value="0.0217302874" flag="0"/>
      <vel value="0.0179554960" flag="0"/>
      <psa03 value="0.0625934285" flag="0"/>
      <psa10 value="0.0085691215" flag="0"/>
      <psa30 value="0.0054234629" flag="0"/>
    </comp>
    <comp name="--.HHE">
      <acc value="0.0277094926" flag="0"/>
      <vel value="0.0228052680" flag="0"/>
      <psa03 value="0.0508918255" flag="0"/>
      <psa10 value="0.0200112139" flag="0"/>
      <psa30 value="0.0062796375" flag="0"/>
    </comp>
  </station>
  <station code="CHOS" name="CHOS" netid="HT" insttype="100" lat="38.3869" lon="26.0506">
    <comp name="--.HHE">
      <acc value="0.4232479633" flag="0"/>
      <vel value="0.1760145549" flag="0"/>
      <psa03 value="0.9346812434" flag="0"/>
      <psa10 value="0.1348959371" flag="0"/>
      <psa30 value="0.0266725110" flag="0"/>
    </comp>
    <comp name="--.HHZ">
      <acc value="0.1638306636" flag="0"/>
      <vel value="0.0511268126" flag="0"/>
      <psa03 value="0.3540389031" flag="0"/>
      <psa10 value="0.0763642308" flag="0"/>
      <psa30 value="0.0229217979" flag="0"/>
    </comp>
    <comp name="--.HHN">
      <acc value="0.2360143660" flag="0"/>
      <vel value="0.0975899171" flag="0"/>
      <psa03 value="0.4423879365" flag="0"/>
      <psa10 value="0.1275963238" flag="0"/>
      <psa30 value="0.0223211254" flag="0"/>
    </comp>
  </station>
  <station code="BALB" name="BALB" netid="KO" insttype="120s," lat="39.6507" lon="27.8642">
    <comp name="--.HHN">
      <acc value="0.1105668769" flag="0"/>
      <vel value="0.0626042869" flag="0"/>
      <psa03 value="0.4464503888" flag="0"/>
      <psa10 value="0.0549512000" flag="0"/>
      <psa30 value="0.0175561352" flag="0"/>
    </comp>
    <comp name="--.HHE">
      <acc value="0.0857874650" flag="0"/>
      <vel value="0.0817905556" flag="0"/>
      <psa03 value="0.3668808362" flag="0"/>
      <psa10 value="0.0594986653" flag="0"/>
      <psa30 value="0.0153953326" flag="0"/>
    </comp>
    <comp name="--.HHZ">
      <acc value="0.0713449931" flag="0"/>
      <vel value="0.0465314975" flag="0"/>
      <psa03 value="0.2942825932" flag="0"/>
      <psa10 value="0.0392623279" flag="0"/>
      <psa30 value="0.0110751477" flag="0"/>
    </comp>
  </station>
  <station code="EZN" name="EZN" netid="KO" insttype="120s," lat="39.8255" lon="26.3247">
    <comp name="--.HHE">
      <acc value="0.3781743885" flag="0"/>
      <vel value="0.2509996292" flag="0"/>
      <psa03 value="0.6950141096" flag="0"/>
      <psa10 value="0.2638280619" flag="0"/>
      <psa30 value="0.0336081498" flag="0"/>
    </comp>
    <comp name="--.HHZ">
      <acc value="0.1468068488" flag="0"/>
      <vel value="0.0815502663" flag="0"/>
      <psa03 value="0.5050761653" flag="0"/>
      <psa10 value="0.1059279273" flag="0"/>
      <psa30 value="0.0204576979" flag="0"/>
    </comp>
    <comp name="--.HHN">
      <acc value="0.2209206294" flag="0"/>
      <vel value="0.1395507948" flag="0"/>
      <psa03 value="0.7250609256" flag="0"/>
      <psa10 value="0.0828597654" flag="0"/>
      <psa30 value="0.0223025945" flag="0"/>
    </comp>
  </station>
  <station code="FOCM" name="FOCM" netid="KO" insttype="100" lat="38.7131" lon="26.7309">
    <comp name="--.HNN">
      <acc value="0.0304776306" flag="0"/>
      <vel value="0.0207560320" flag="0"/>
      <psa03 value="0.0509594828" flag="0"/>
      <psa10 value="0.0263268972" flag="0"/>
      <psa30 value="0.0045832919" flag="0"/>
    </comp>
    <comp name="--.HNE">
      <acc value="0.0345481612" flag="0"/>
      <vel value="0.0141248503" flag="0"/>
      <psa03 value="0.0638762525" flag="0"/>
      <psa10 value="0.0279807931" flag="0"/>
      <psa30 value="0.0023687691" flag="0"/>
    </comp>
    <comp name="--.HNZ">
      <acc value="0.0201459935" flag="0"/>
      <vel value="0.0063198574" flag="0"/>
      <psa03 value="0.0354288187" flag="0"/>
      <psa10 value="0.0086786405" flag="0"/>
      <psa30 value="0.0018784083" flag="0"/>
    </comp>
  </station>
  <station code="GELI" name="GELI" netid="KO" insttype="30s," lat="40.398" lon="26.4742">
    <comp name="--.HHE">
      <acc value="0.0556731484" flag="0"/>
      <vel value="0.0623404017" flag="0"/>
      <psa03 value="0.1866074812" flag="0"/>
      <psa10 value="0.0470953605" flag="0"/>
      <psa30 value="0.0312979257" flag="0"/>
    </comp>
    <comp name="--.HHN">
      <acc value="0.0500163712" flag="0"/>
      <vel value="0.0422509462" flag="0"/>
      <psa03 value="0.1722867711" flag="0"/>
      <psa10 value="0.0581607364" flag="0"/>
      <psa30 value="0.0218770854" flag="0"/>
    </comp>
    <comp name="--.HHZ">
      <acc value="0.0313189070" flag="0"/>
      <vel value="0.0320378126" flag="0"/>
      <psa03 value="0.1223990474" flag="0"/>
      <psa10 value="0.0249930258" flag="0"/>
      <psa30 value="0.0116618915" flag="0"/>
    </comp>
  </station>
  <station code="KRBN" name="KRBN" netid="KO" insttype="100" lat="38.5936" lon="26.5537">
    <comp name="--.HNN">
      <acc value="0.2567926207" flag="0"/>
      <vel value="0.2898413935" flag="0"/>
      <psa03 value="0.3992753379" flag="0"/>
      <psa10 value="0.4645235524" flag="0"/>
      <psa30 value="0.0491795772" flag="0"/>
    </comp>
    <comp name="--.HNE">
      <acc value="0.2554214901" flag="0"/>
      <vel value="0.1214774722" flag="0"/>
      <psa03 value="0.4121941150" flag="0"/>
      <psa10 value="0.1486139846" flag="0"/>
      <psa30 value="0.0169077349" flag="0"/>
    </comp>
    <comp name="--.HNZ">
      <acc value="0.1195577351" flag="0"/>
      <vel value="0.1095629006" flag="0"/>
      <psa03 value="0.3333389988" flag="0"/>
      <psa10 value="0.1216992853" flag="0"/>
      <psa30 value="0.0220261946" flag="0"/>
    </comp>
  </station>
</stationlist>
