<stationlist created="1778136110">
	<station code="KRL1" name="KRL1" netid="HI" source="ITSAK Strong Motion Network" insttype="" lat="37.7951" lon="26.7065">
		<comp name="--.HNE" depth="0.0">
			<acc value="0.0583528573803259" flag="0"/>
			<vel value="0.0468064504176264" flag="0"/>
			<psa03 value="0.11158706330597" flag="0"/>
			<psa10 value="0.0437833811304422" flag="0"/>
			<psa30 value="0.0180409525526195" flag="0"/>
		</comp>
		<comp name="--.HNN" depth="0.0">
			<acc value="0.0498135078218921" flag="0"/>
			<vel value="0.0593608659940341" flag="0"/>
			<psa03 value="0.0829967932768941" flag="0"/>
			<psa10 value="0.0653227268185444" flag="0"/>
			<psa30 value="0.0189205843347348" flag="0"/>
		</comp>
		<comp name="--.HNZ" depth="0.0">
			<acc value="0.0286792344133648" flag="0"/>
			<vel value="0.0311116301923278" flag="0"/>
			<psa03 value="0.0558382738596032" flag="0"/>
			<psa10 value="0.0400183244435146" flag="0"/>
			<psa30 value="0.00913904312384819" flag="0"/>
		</comp>
	</station>
	<station code="LMN1" name="LMN1" netid="HI" source="ITSAK Strong Motion Network" insttype="" lat="39.875" lon="25.0588">
		<comp name="--.HNE" depth="0.0">
			<acc value="0.116904475882387" flag="0"/>
			<vel value="0.0812357254074726" flag="0"/>
			<psa03 value="0.380845662734729" flag="0"/>
			<psa10 value="0.0393861170639984" flag="0"/>
			<psa30 value="0.0139908880095336" flag="0"/>
		</comp>
		<comp name="--.HNN" depth="0.0">
			<acc value="0.129633507550308" flag="0"/>
			<vel value="0.0651519164081748" flag="0"/>
			<psa03 value="0.518920112358716" flag="0"/>
			<psa10 value="0.0556503565918064" flag="0"/>
			<psa30 value="0.0110034508736316" flag="0"/>
		</comp>
		<comp name="--.HNZ" depth="0.0">
			<acc value="0.0799791278934412" flag="0"/>
			<vel value="0.0329885129576755" flag="0"/>
			<psa03 value="0.105725834238976" flag="0"/>
			<psa10 value="0.0220104811237926" flag="0"/>
			<psa30 value="0.00669030215563017" flag="0"/>
		</comp>
	</station>
	<station code="MYT1" name="MYT1" netid="HI" source="ITSAK Strong Motion Network" insttype="" lat="39.085" lon="26.5694">
		<comp name="--.HNE" depth="0.0">
			<acc value="0.86892455349512" flag="0"/>
			<vel value="0.351418662620707" flag="0"/>
			<psa03 value="1.49291320823187" flag="0"/>
			<psa10 value="0.296573716569214" flag="0"/>
			<psa30 value="0.0810675093275142" flag="0"/>
		</comp>
		<comp name="--.HNN" depth="0.0">
			<acc value="0.481106616435605" flag="0"/>
			<vel value="0.224909324437629" flag="0"/>
			<psa03 value="1.16678726419129" flag="0"/>
			<psa10 value="0.301740099167426" flag="0"/>
			<psa30 value="0.0634811375941363" flag="0"/>
		</comp>
		<comp name="--.HNZ" depth="0.0">
			<acc value="0.527225199339392" flag="0"/>
			<vel value="0.228928709907641" flag="0"/>
			<psa03 value="1.07273914587968" flag="0"/>
			<psa10 value="0.19879096627118" flag="0"/>
			<psa30 value="0.0366550527720191" flag="0"/>
		</comp>
	</station>
	<station code="SFL1" name="SFL1" netid="HI" source="ITSAK Strong Motion Network" insttype="" lat="41.189954" lon="26.304374">
		<comp name="--.HNE" depth="0.0">
			<acc value="0.0926308757694291" flag="0"/>
			<vel value="0.0754384377034108" flag="0"/>
			<psa03 value="0.262234072989691" flag="0"/>
			<psa10 value="0.105276622484529" flag="0"/>
			<psa30 value="0.00800035396541317" flag="0"/>
		</comp>
		<comp name="--.HNN" depth="0.0">
			<acc value="0.0728908617849266" flag="0"/>
			<vel value="0.0566197564318951" flag="0"/>
			<psa03 value="0.218655163743494" flag="0"/>
			<psa10 value="0.0606113724616404" flag="0"/>
			<psa30 value="0.00668538051290216" flag="0"/>
		</comp>
		<comp name="--.HNZ" depth="0.0">
			<acc value="0.0341829257085811" flag="0"/>
			<vel value="0.0207523987513995" flag="0"/>
			<psa03 value="0.086262974360028" flag="0"/>
			<psa10 value="0.0160628995980257" flag="0"/>
			<psa30 value="0.00286618575596649" flag="0"/>
		</comp>
	</station>
	<station code="SKY1" name="SKY1" netid="HI" source="ITSAK Strong Motion Network" insttype="" lat="38.904483" lon="24.564572">
		<comp name="--.HNE" depth="0.0">
			<acc value="0.0337304216053046" flag="0"/>
			<vel value="0.0266255662982084" flag="0"/>
			<psa03 value="0.155434425791876" flag="0"/>
			<psa10 value="0.0216279352572064" flag="0"/>
			<psa30 value="0.00425364158319909" flag="0"/>
		</comp>
		<comp name="--.HNN" depth="0.0">
			<acc value="0.0243209467231347" flag="0"/>
			<vel value="0.0230640517245979" flag="0"/>
			<psa03 value="0.106039029685304" flag="0"/>
			<psa10 value="0.0214829705077632" flag="0"/>
			<psa30 value="0.00790818501977953" flag="0"/>
		</comp>
		<comp name="--.HNZ" depth="0.0">
			<acc value="0.016364839696964" flag="0"/>
			<vel value="0.0161785228051618" flag="0"/>
			<psa03 value="0.0697531001178857" flag="0"/>
			<psa10 value="0.0094468695053819" flag="0"/>
			<psa30 value="0.00754622056823771" flag="0"/>
		</comp>
	</station>
	<station code="THS1" name="THS1" netid="HI" source="ITSAK Strong Motion Network" insttype="" lat="40.738476" lon="24.575145">
		<comp name="--.HNE" depth="0.0">
			<acc value="0.0199753829247956" flag="0"/>
			<vel value="0.0123484906113844" flag="0"/>
			<psa03 value="0.0382545866586224" flag="0"/>
			<psa10 value="0.00710327272271682" flag="0"/>
			<psa30 value="0.00292971968936443" flag="0"/>
		</comp>
		<comp name="--.HNN" depth="0.0">
			<acc value="0.0268692280815561" flag="0"/>
			<vel value="0.0147460256264087" flag="0"/>
			<psa03 value="0.0706926864568694" flag="0"/>
			<psa10 value="0.0085045986340011" flag="0"/>
			<psa30 value="0.0031507461900587" flag="0"/>
		</comp>
		<comp name="--.HNZ" depth="0.0">
			<acc value="0.0100481361907671" flag="0"/>
			<vel value="0.00567255157142578" flag="0"/>
			<psa03 value="0.0264873863180169" flag="0"/>
			<psa10 value="0.00563751803390224" flag="0"/>
			<psa30 value="0.00150468040857248" flag="0"/>
		</comp>
	</station>
	<station code="EFSA" name="EFSA" netid="HL" source="National Observatory of Athens Seismic Network" insttype="" lat="39.54015" lon="24.98864">
		<comp name="00.HNE" depth="0.0">
			<acc value="0.0603933169843501" flag="0"/>
			<vel value="0.0619048934641427" flag="0"/>
			<psa03 value="0.217760319611129" flag="0"/>
			<psa10 value="0.0586624019413485" flag="0"/>
			<psa30 value="0.0239352908525107" flag="0"/>
		</comp>
		<comp name="00.HNN" depth="0.0">
			<acc value="0.0539549999307481" flag="0"/>
			<vel value="0.0528354452517152" flag="0"/>
			<psa03 value="0.24724543377257" flag="0"/>
			<psa10 value="0.0552235159406681" flag="0"/>
			<psa30 value="0.0139882034771365" flag="0"/>
		</comp>
		<comp name="00.HNZ" depth="0.0">
			<acc value="0.0393821093739443" flag="0"/>
			<vel value="0.02339681243325" flag="0"/>
			<psa03 value="0.152884120014635" flag="0"/>
			<psa10 value="0.0314774846221527" flag="0"/>
			<psa30 value="0.00616860802646113" flag="0"/>
		</comp>
	</station>
	<station code="KYMI" name="KYMI" netid="HL" source="National Observatory of Athens Seismic Network" insttype="" lat="38.633147" lon="24.100138">
		<comp name="--.HNE" depth="1.0">
			<acc value="0.0065643287048131" flag="0"/>
			<vel value="0.00906189414435917" flag="0"/>
			<psa03 value="0.0188812111929107" flag="0"/>
			<psa10 value="0.00799319521235425" flag="0"/>
			<psa30 value="0.00492880148106882" flag="0"/>
		</comp>
		<comp name="--.HNN" depth="1.0">
			<acc value="0.00599831380924813" flag="0"/>
			<vel value="0.0100564493455484" flag="0"/>
			<psa03 value="0.0216999702098618" flag="0"/>
			<psa10 value="0.00752608657525949" flag="0"/>
			<psa30 value="0.00355879511441733" flag="0"/>
		</comp>
		<comp name="--.HNZ" depth="1.0">
			<acc value="0.00512630901397669" flag="0"/>
			<vel value="0.00690983846578204" flag="0"/>
			<psa03 value="0.0139595684649008" flag="0"/>
			<psa10 value="0.00424021892121361" flag="0"/>
			<psa30 value="0.00250556357062322" flag="0"/>
		</comp>
	</station>
	<station code="PRK" name="PRK" netid="HL" source="National Observatory of Athens Seismic Network" insttype="" lat="39.24565" lon="26.26499">
		<comp name="--.HNE" depth="0.0">
			<acc value="0.741516978942897" flag="0"/>
			<vel value="0.464669575507639" flag="0"/>
			<psa03 value="2.82815488034096" flag="0"/>
			<psa10 value="0.748783198860087" flag="0"/>
			<psa30 value="0.0812943523150688" flag="0"/>
		</comp>
		<comp name="--.HNN" depth="0.0">
			<acc value="1.22649192561672" flag="0"/>
			<vel value="0.615204104133092" flag="0"/>
			<psa03 value="4.14930275736529" flag="0"/>
			<psa10 value="0.60718082624425" flag="0"/>
			<psa30 value="0.103524965095423" flag="0"/>
		</comp>
		<comp name="--.HNZ" depth="0.0">
			<acc value="0.796192572384697" flag="0"/>
			<vel value="0.339293700660515" flag="0"/>
			<psa03 value="1.87152176063569" flag="0"/>
			<psa10 value="0.223680608390858" flag="0"/>
			<psa30 value="0.0521850726892213" flag="0"/>
		</comp>
	</station>
	<station code="SMG" name="SMG" netid="HL" source="National Observatory of Athens Seismic Network" insttype="" lat="37.70425" lon="26.83772">
		<comp name="00.HNE" depth="0.0">
			<acc value="0.0573687888732546" flag="0"/>
			<vel value="0.0441434158656931" flag="0"/>
			<psa03 value="0.144517327377018" flag="0"/>
			<psa10 value="0.0659106394135085" flag="0"/>
			<psa30 value="0.00841242968836745" flag="0"/>
		</comp>
		<comp name="00.HNN" depth="0.0">
			<acc value="0.0503228695445523" flag="0"/>
			<vel value="0.0361788939919593" flag="0"/>
			<psa03 value="0.0890817333769791" flag="0"/>
			<psa10 value="0.0410652920783822" flag="0"/>
			<psa30 value="0.00739275479953704" flag="0"/>
		</comp>
		<comp name="00.HNZ" depth="0.0">
			<acc value="0.022455660836833" flag="0"/>
			<vel value="0.0230884419320643" flag="0"/>
			<psa03 value="0.0538248745617809" flag="0"/>
			<psa10 value="0.0317956017112086" flag="0"/>
			<psa30 value="0.00673772889464554" flag="0"/>
		</comp>
	</station>
	<station code="TNSA" name="TNSA" netid="HL" source="National Observatory of Athens Seismic Network" insttype="" lat="37.53942" lon="25.1631">
		<comp name="00.HNE" depth="0.0">
			<acc value="0.0203196004074915" flag="0"/>
			<vel value="0.0188464316134462" flag="0"/>
			<psa03 value="0.0575832199177157" flag="0"/>
			<psa10 value="0.0178749589660657" flag="0"/>
			<psa30 value="0.00435431154809021" flag="0"/>
		</comp>
		<comp name="00.HNN" depth="0.0">
			<acc value="0.0329679109001576" flag="0"/>
			<vel value="0.0210274274216563" flag="0"/>
			<psa03 value="0.08232566017762" flag="0"/>
			<psa10 value="0.0305835353339197" flag="0"/>
			<psa30 value="0.00355790027028497" flag="0"/>
		</comp>
		<comp name="00.HNZ" depth="0.0">
			<acc value="0.0303918818718561" flag="0"/>
			<vel value="0.0171323016114534" flag="0"/>
			<psa03 value="0.0674712475803538" flag="0"/>
			<psa10 value="0.0211648534187073" flag="0"/>
			<psa30 value="0.00490822006602441" flag="0"/>
		</comp>
	</station>
	<station code="LTK" name="LTK" netid="HP" source="University of Patras, Seismological Laboratory (PSLNET)" insttype="" lat="38.0228" lon="22.9673">
		<comp name="--.HNE" depth="0.0">
			<acc value="0.0058688355283202" flag="0"/>
			<vel value="0.00692461511216332" flag="0"/>
			<psa03 value="0.0145859593575566" flag="0"/>
			<psa10 value="0.0118508682669816" flag="0"/>
			<psa30 value="0.00176642231728937" flag="0"/>
		</comp>
		<comp name="--.HNN" depth="0.0">
			<acc value="0.00400497092055052" flag="0"/>
			<vel value="0.00723238373184275" flag="0"/>
			<psa03 value="0.0175836872009808" flag="0"/>
			<psa10 value="0.00933411914470385" flag="0"/>
			<psa30 value="0.00272793233751603" flag="0"/>
		</comp>
		<comp name="--.HNZ" depth="0.0">
			<acc value="0.00243852324863251" flag="0"/>
			<vel value="0.00572209037661758" flag="0"/>
			<psa03 value="0.00970905883616497" flag="0"/>
			<psa10 value="0.00436102287908295" flag="0"/>
			<psa30 value="0.00265947676139007" flag="0"/>
		</comp>
	</station>
	<station code="BIGA" name="BIGA" netid="KO" source="Bogazici University Kandilli Observatory And Earthquake Research Institute (KOERI)" insttype="" lat="40.28134" lon="27.15048">
		<comp name="--.HNE" depth="0.0">
			<acc value="0.343708715736346" flag="0"/>
			<vel value="0.295366146380508" flag="0"/>
			<psa03 value="0.854978826268555" flag="0"/>
			<psa10 value="0.176643573995135" flag="0"/>
			<psa30 value="0.089637431583178" flag="0"/>
		</comp>
		<comp name="--.HNN" depth="0.0">
			<acc value="0.385484228412897" flag="0"/>
			<vel value="0.236562226720212" flag="0"/>
			<psa03 value="1.03135260475778" flag="0"/>
			<psa10 value="0.195613822179216" flag="0"/>
			<psa30 value="0.0396653084332965" flag="0"/>
		</comp>
		<comp name="--.HNZ" depth="0.0">
			<acc value="0.198853540162465" flag="0"/>
			<vel value="0.135466261194652" flag="0"/>
			<psa03 value="0.410509745722643" flag="0"/>
			<psa10 value="0.0772823186476084" flag="0"/>
			<psa30 value="0.0292063702142092" flag="0"/>
		</comp>
	</station>
	<station code="BOTS" name="BOTS" netid="KO" source="Bogazici University Kandilli Observatory And Earthquake Research Institute (KOERI)" insttype="" lat="40.9902" lon="27.981">
		<comp name="--.HNE" depth="0.0">
			<acc value="0.0320127647825262" flag="0"/>
			<vel value="0.0318147527651926" flag="0"/>
			<psa03 value="0.109394695181674" flag="0"/>
			<psa10 value="0.0214950509035501" flag="0"/>
			<psa30 value="0.0132405612045452" flag="0"/>
		</comp>
		<comp name="--.HNN" depth="0.0">
			<acc value="0.0296637558424576" flag="0"/>
			<vel value="0.0255206016696052" flag="0"/>
			<psa03 value="0.147157117567496" flag="0"/>
			<psa10 value="0.0202789577276655" flag="0"/>
			<psa30 value="0.00661737235884239" flag="0"/>
		</comp>
		<comp name="--.HNZ" depth="0.0">
			<acc value="0.00911744264897225" flag="0"/>
			<vel value="0.0110532918985878" flag="0"/>
			<psa03 value="0.0370912892865473" flag="0"/>
			<psa10 value="0.0055247676732242" flag="0"/>
			<psa30 value="0.0061538430982771" flag="0"/>
		</comp>
	</station>
	<station code="DST" name="DST" netid="KO" source="Bogazici University Kandilli Observatory And Earthquake Research Institute (KOERI)" insttype="" lat="39.6041" lon="28.6267">
		<comp name="--.HNE" depth="0.0">
			<acc value="0.0307831389857923" flag="0"/>
			<vel value="0.018315922718597" flag="0"/>
			<psa03 value="0.141206404087266" flag="0"/>
			<psa10 value="0.017770262202579" flag="0"/>
			<psa30 value="0.0040670665816009" flag="0"/>
		</comp>
		<comp name="--.HNN" depth="0.0">
			<acc value="0.0310359700328132" flag="0"/>
			<vel value="0.0185050112108252" flag="0"/>
			<psa03 value="0.111408094479497" flag="0"/>
			<psa10 value="0.0199004386596749" flag="0"/>
			<psa30 value="0.00689566888400804" flag="0"/>
		</comp>
		<comp name="--.HNZ" depth="0.0">
			<acc value="0.0330728815910733" flag="0"/>
			<vel value="0.0190161091978741" flag="0"/>
			<psa03 value="0.140356302161519" flag="0"/>
			<psa10 value="0.0117179839133254" flag="0"/>
			<psa30 value="0.00548539453140012" flag="0"/>
		</comp>
	</station>
	<station code="ENZZ" name="ENZZ" netid="KO" source="Bogazici University Kandilli Observatory And Earthquake Research Institute (KOERI)" insttype="" lat="40.607" lon="26.1406">
		<comp name="--.HNE" depth="0.0">
			<acc value="0.659984400261151" flag="0"/>
			<vel value="0.512284848394363" flag="0"/>
			<psa03 value="1.8744747462725" flag="0"/>
			<psa10 value="0.414248851929732" flag="0"/>
			<psa30 value="0.104216679609742" flag="0"/>
		</comp>
		<comp name="--.HNN" depth="0.0">
			<acc value="0.679402134750957" flag="0"/>
			<vel value="0.461464468769071" flag="0"/>
			<psa03 value="1.21636162912434" flag="0"/>
			<psa10 value="0.402466439238877" flag="0"/>
			<psa30 value="0.105348657437184" flag="0"/>
		</comp>
		<comp name="--.HNZ" depth="0.0">
			<acc value="0.324674442840287" flag="0"/>
			<vel value="0.227117919339086" flag="0"/>
			<psa03 value="0.938020361752067" flag="0"/>
			<psa10 value="0.132473620199511" flag="0"/>
			<psa30 value="0.0945988948750781" flag="0"/>
		</comp>
	</station>
	<station code="EZNE" name="EZNE" netid="KO" source="Bogazici University Kandilli Observatory And Earthquake Research Institute (KOERI)" insttype="" lat="39.756" lon="26.3655">
		<comp name="--.HNE" depth="0.0">
			<acc value="1.52853920057669" flag="0"/>
			<vel value="0.680623206786505" flag="0"/>
			<psa03 value="4.34540784897317" flag="0"/>
			<psa10 value="0.421569571776614" flag="0"/>
			<psa30 value="0.0640260976707469" flag="0"/>
		</comp>
		<comp name="--.HNN" depth="0.0">
			<acc value="2.61473707939116" flag="0"/>
			<vel value="1.34721726235919" flag="0"/>
			<psa03 value="10.209187221744" flag="0"/>
			<psa10 value="0.500788780548727" flag="0"/>
			<psa30 value="0.0892369888339445" flag="0"/>
		</comp>
		<comp name="--.HNZ" depth="0.0">
			<acc value="1.32718137504679" flag="0"/>
			<vel value="0.588250019588929" flag="0"/>
			<psa03 value="3.66461043306955" flag="0"/>
			<psa10 value="0.237327428831497" flag="0"/>
			<psa30 value="0.0654703761003847" flag="0"/>
		</comp>
	</station>
	<station code="FOCM" name="FOCM" netid="KO" source="Bogazici University Kandilli Observatory And Earthquake Research Institute (KOERI)" insttype="" lat="38.7131" lon="26.7309">
		<comp name="--.HNE" depth="0.0">
			<acc value="0.218596005088629" flag="0"/>
			<vel value="0.0882090981713121" flag="0"/>
			<psa03 value="0.398474092142328" flag="0"/>
			<psa10 value="0.17623284053838" flag="0"/>
			<psa30 value="0.0146526252454178" flag="0"/>
		</comp>
		<comp name="--.HNN" depth="0.0">
			<acc value="0.190238855321812" flag="0"/>
			<vel value="0.133033585820406" flag="0"/>
			<psa03 value="0.31843028450224" flag="0"/>
			<psa10 value="0.165026260046701" flag="0"/>
			<psa30 value="0.0289303107993745" flag="0"/>
		</comp>
		<comp name="--.HNZ" depth="0.0">
			<acc value="0.127558437947508" flag="0"/>
			<vel value="0.0409097327311743" flag="0"/>
			<psa03 value="0.225321752529617" flag="0"/>
			<psa10 value="0.0547845948937428" flag="0"/>
			<psa30 value="0.0120978452475145" flag="0"/>
		</comp>
	</station>
	<station code="GONE" name="GONE" netid="KO" source="Bogazici University Kandilli Observatory And Earthquake Research Institute (KOERI)" insttype="" lat="40.0466" lon="27.686">
		<comp name="--.HNE" depth="0.0">
			<acc value="0.215828451737746" flag="0"/>
			<vel value="0.150803335839062" flag="0"/>
			<psa03 value="0.541559668907561" flag="0"/>
			<psa10 value="0.155450532986259" flag="0"/>
			<psa30 value="0.0429686255479235" flag="0"/>
		</comp>
		<comp name="--.HNN" depth="0.0">
			<acc value="0.299739246594407" flag="0"/>
			<vel value="0.289724425701473" flag="0"/>
			<psa03 value="1.10200054900803" flag="0"/>
			<psa10 value="0.273830358101014" flag="0"/>
			<psa30 value="0.0698515329724459" flag="0"/>
		</comp>
		<comp name="--.HNZ" depth="0.0">
			<acc value="0.128658660389359" flag="0"/>
			<vel value="0.111087384056656" flag="0"/>
			<psa03 value="0.487018919039888" flag="0"/>
			<psa10 value="0.133943401686922" flag="0"/>
			<psa30 value="0.0599482929595576" flag="0"/>
		</comp>
	</station>
	<station code="GORD" name="GORD" netid="KO" source="Bogazici University Kandilli Observatory And Earthquake Research Institute (KOERI)" insttype="" lat="38.9088" lon="28.1769">
		<comp name="--.HNE" depth="0.0">
			<acc value="0.107422459496687" flag="0"/>
			<vel value="0.159656962278311" flag="0"/>
			<psa03 value="0.222458251306047" flag="0"/>
			<psa10 value="0.256978205978242" flag="0"/>
			<psa30 value="0.0696081353684424" flag="0"/>
		</comp>
		<comp name="--.HNN" depth="0.0">
			<acc value="0.0953703202655787" flag="0"/>
			<vel value="0.202520737369817" flag="0"/>
			<psa03 value="0.284157754232644" flag="0"/>
			<psa10 value="0.152140504540639" flag="0"/>
			<psa30 value="0.0462428602282486" flag="0"/>
		</comp>
		<comp name="--.HNZ" depth="0.0">
			<acc value="0.0592783430365021" flag="0"/>
			<vel value="0.0934549569716345" flag="0"/>
			<psa03 value="0.14187753718654" flag="0"/>
			<psa10 value="0.131978323972247" flag="0"/>
