<?xml version="1.0" encoding="UTF-8" standalone="yes"?>
<!DOCTYPE earthquake SYSTEM "stationlist.dtd">
<stationlist created="" xmlns="ch.ethz.sed.shakemap.usgs.xml">
  <station code="MYT1" name="MYT1" netid="HI" insttype="CMG-5TD,ACCELEROMETER,GURALP" commtype="DIG" lat="39.085" lon="26.5694">
    <comp name="--.HNE">
      <acc value="0.0902955434" flag="0"/>
      <vel value="0.0701281985" flag="0"/>
      <psa03 value="0.2974624275" flag="0"/>
      <psa10 value="0.1253844932" flag="0"/>
      <psa30 value="0.0161450298" flag="0"/>
    </comp>
    <comp name="--.HNN">
      <acc value="0.0876101324" flag="0"/>
      <vel value="0.0734847988" flag="0"/>
      <psa03 value="0.2398431331" flag="0"/>
      <psa10 value="0.1309704640" flag="0"/>
      <psa30 value="0.0194742029" flag="0"/>
    </comp>
    <comp name="--.HNZ">
      <acc value="0.0357792087" flag="0"/>
      <vel value="0.0306828101" flag="0"/>
      <psa03 value="0.0996847021" flag="0"/>
      <psa10 value="0.0462349734" flag="0"/>
      <psa30 value="0.0045004824" flag="0"/>
    </comp>
  </station>
</stationlist>
