<?xml version="1.0" encoding="UTF-8" standalone="yes"?>
<!DOCTYPE earthquake SYSTEM "stationlist.dtd">
<stationlist created="" xmlns="ch.ethz.sed.shakemap.usgs.xml">
  <station code="ARPRA" name="ARPRA" netid="KO" insttype="CMG-5T" lat="39.0929" lon="38.3356">
    <comp name="--.HNN">
      <acc value="0.0446185833" flag="0"/>
      <vel value="0.0198242680" flag="0"/>
      <psa03 value="0.1145499106" flag="0"/>
      <psa10 value="0.0183988956" flag="0"/>
      <psa30 value="0.0009578434" flag="0"/>
    </comp>
    <comp name="--.HNZ">
      <acc value="0.0292872427" flag="0"/>
      <vel value="0.0091873204" flag="0"/>
      <psa03 value="0.0415243341" flag="0"/>
      <psa10 value="0.0098491237" flag="0"/>
      <psa30 value="0.0005967603" flag="0"/>
    </comp>
    <comp name="--.HNE">
      <acc value="0.0431480991" flag="0"/>
      <vel value="0.0201974583" flag="0"/>
      <psa03 value="0.0935713561" flag="0"/>
      <psa10 value="0.0222827936" flag="0"/>
      <psa30 value="0.0013372538" flag="0"/>
    </comp>
  </station>
  <station code="DARE" name="DARE" netid="KO" insttype="CMG-3ESP" lat="38.5712" lon="37.4832">
    <comp name="--.HHE">
      <acc value="0.0159976383" flag="0"/>
      <vel value="0.0089993753" flag="0"/>
      <psa03 value="0.0458024265" flag="0"/>
      <psa10 value="0.0051609807" flag="0"/>
      <psa30 value="0.0006063767" flag="0"/>
    </comp>
  </station>
  <station code="SVRC" name="SVRC" netid="KO" insttype="CMG-3T" lat="38.3775" lon="39.306">
    <comp name="--.HHN">
      <acc value="0.0186024969" flag="0"/>
      <vel value="0.0071356415" flag="0"/>
      <psa03 value="0.0428341238" flag="0"/>
      <psa10 value="0.0088028413" flag="0"/>
      <psa30 value="0.0005477312" flag="0"/>
    </comp>
  </station>
  <station code="URFA" name="URFA" netid="KO" insttype="CMG-3ESP" lat="37.4409" lon="38.8213">
    <comp name="--.HHE">
      <acc value="0.0254900750" flag="0"/>
      <vel value="0.0113307378" flag="0"/>
      <psa03 value="0.0358691240" flag="0"/>
      <psa10 value="0.0095216211" flag="0"/>
      <psa30 value="0.0022996410" flag="0"/>
    </comp>
    <comp name="--.HHN">
      <acc value="0.0281933225" flag="0"/>
      <vel value="0.0113311740" flag="0"/>
      <psa03 value="0.0702713218" flag="0"/>
      <psa10 value="0.0088179315" flag="0"/>
      <psa30 value="0.0016166708" flag="0"/>
    </comp>
    <comp name="--.HHZ">
      <acc value="0.0174045110" flag="0"/>
      <vel value="0.0065591767" flag="0"/>
      <psa03 value="0.0255367181" flag="0"/>
      <psa10 value="0.0051402304" flag="0"/>
      <psa30 value="0.0013585401" flag="0"/>
    </comp>
  </station>
</stationlist>
