<?xml version="1.0" encoding="UTF-8" standalone="yes"?>
<!DOCTYPE earthquake SYSTEM "stationlist.dtd">
<stationlist created="" xmlns="ch.ethz.sed.shakemap.usgs.xml">
  <station code="AKS" name="AKS" netid="KO" insttype="CMG-5T" commtype="DIG" lat="38.8785" lon="27.8129">
    <comp name="--.HNZ">
      <acc value="0.1668000581" flag="0"/>
      <vel value="0.0372183983" flag="0"/>
      <psa03 value="0.1230156083" flag="0"/>
      <psa10 value="0.0433492631" flag="0"/>
      <psa30 value="0.0071812204" flag="0"/>
    </comp>
    <comp name="--.HNE">
      <acc value="0.2326624388" flag="0"/>
      <vel value="0.1029999972" flag="0"/>
      <psa03 value="0.3435684407" flag="0"/>
      <psa10 value="0.0610901962" flag="0"/>
      <psa30 value="0.0044094839" flag="0"/>
    </comp>
    <comp name="--.HNN">
      <acc value="0.2390667815" flag="0"/>
      <vel value="0.0950736713" flag="0"/>
      <psa03 value="0.4068828253" flag="0"/>
      <psa10 value="0.0613224569" flag="0"/>
      <psa30 value="0.0087981502" flag="0"/>
    </comp>
  </station>
  <station code="AYVL" name="AYVL" netid="KO" insttype="CMG-6T" commtype="DIG" lat="39.2907" lon="26.69">
    <comp name="--.HHE">
      <acc value="0.0716157909" flag="0"/>
      <vel value="0.0288621116" flag="0"/>
      <psa03 value="0.0980869839" flag="0"/>
      <psa10 value="0.0218627736" flag="0"/>
      <psa30 value="0.0011498805" flag="0"/>
    </comp>
    <comp name="--.HHZ">
      <acc value="0.0466880953" flag="0"/>
      <vel value="0.0149835920" flag="0"/>
      <psa03 value="0.0713733489" flag="0"/>
      <psa10 value="0.0101388533" flag="0"/>
      <psa30 value="0.0004026882" flag="0"/>
    </comp>
    <comp name="--.HHN">
      <acc value="0.0698590361" flag="0"/>
      <vel value="0.0338334304" flag="0"/>
      <psa03 value="0.1484657479" flag="0"/>
      <psa10 value="0.0265143460" flag="0"/>
      <psa30 value="0.0011606470" flag="0"/>
    </comp>
  </station>
  <station code="BALB" name="BALB" netid="KO" insttype="CMG-5T" commtype="DIG" lat="39.6507" lon="27.8642">
    <comp name="--.HNE">
      <acc value="0.0752527816" flag="0"/>
      <vel value="0.0334959225" flag="0"/>
      <psa03 value="0.2081097860" flag="0"/>
      <psa10 value="0.0514631163" flag="0"/>
      <psa30 value="0.0047132411" flag="0"/>
    </comp>
    <comp name="--.HNN">
      <acc value="0.0730981423" flag="0"/>
      <vel value="0.0493881026" flag="0"/>
      <psa03 value="0.2243980860" flag="0"/>
      <psa10 value="0.0426929712" flag="0"/>
      <psa30 value="0.0060214744" flag="0"/>
    </comp>
    <comp name="--.HNZ">
      <acc value="0.0578076928" flag="0"/>
      <vel value="0.0254691883" flag="0"/>
      <psa03 value="0.1335568463" flag="0"/>
      <psa10 value="0.0214178216" flag="0"/>
      <psa30 value="0.0053709205" flag="0"/>
    </comp>
  </station>
  <station code="BLCB" name="BLCB" netid="KO" insttype="CMG-3T" commtype="DIG" lat="38.3853" lon="27.042">
    <comp name="--.HHZ">
      <acc value="0.0434123791" flag="0"/>
      <vel value="0.0159625633" flag="0"/>
      <psa03 value="0.1277257316" flag="0"/>
      <psa10 value="0.0175078563" flag="0"/>
      <psa30 value="0.0016193985" flag="0"/>
    </comp>
    <comp name="--.HHE">
      <acc value="0.0522002204" flag="0"/>
      <vel value="0.0258485914" flag="0"/>
      <psa03 value="0.1196648501" flag="0"/>
      <psa10 value="0.0251291536" flag="0"/>
      <psa30 value="0.0038796337" flag="0"/>
    </comp>
    <comp name="--.HHN">
      <acc value="0.0000380309" flag="0"/>
      <vel value="0.0000156372" flag="0"/>
      <psa03 value="0.0000590852" flag="0"/>
      <psa10 value="0.0000228423" flag="0"/>
      <psa30 value="0.0000025277" flag="0"/>
    </comp>
  </station>
  <station code="CANM" name="CANM" netid="KO" insttype="CMG-5T" commtype="DIG" lat="40.0113" lon="27.0529">
    <comp name="--.HNZ">
      <acc value="0.0258750937" flag="0"/>
      <vel value="0.0098347868" flag="0"/>
      <psa03 value="0.0607244913" flag="0"/>
      <psa10 value="0.0081961432" flag="0"/>
      <psa30 value="0.0021268103" flag="0"/>
    </comp>
    <comp name="--.HNE">
      <acc value="0.0361917423" flag="0"/>
      <vel value="0.0155081990" flag="0"/>
      <psa03 value="0.0559308283" flag="0"/>
      <psa10 value="0.0128268230" flag="0"/>
      <psa30 value="0.0019753374" flag="0"/>
    </comp>
    <comp name="--.HNN">
      <acc value="0.0355672945" flag="0"/>
      <vel value="0.0204998909" flag="0"/>
      <psa03 value="0.0862845047" flag="0"/>
      <psa10 value="0.0309711323" flag="0"/>
      <psa30 value="0.0024117610" flag="0"/>
    </comp>
  </station>
  <station code="GONE" name="GONE" netid="KO" insttype="CMG-5T" commtype="DIG" lat="40.0466" lon="27.686">
    <comp name="--.HNN">
      <acc value="0.1052483278" flag="0"/>
      <vel value="0.0465949041" flag="0"/>
      <psa03 value="0.2738854611" flag="0"/>
      <psa10 value="0.0268040769" flag="0"/>
      <psa30 value="0.0042717500" flag="0"/>
    </comp>
    <comp name="--.HNE">
      <acc value="0.0636714485" flag="0"/>
      <vel value="0.0314366506" flag="0"/>
      <psa03 value="0.1829195985" flag="0"/>
      <psa10 value="0.0233287565" flag="0"/>
      <psa30 value="0.0027954491" flag="0"/>
    </comp>
    <comp name="--.HNZ">
      <acc value="0.0365229322" flag="0"/>
      <vel value="0.0144022224" flag="0"/>
      <psa03 value="0.0719207231" flag="0"/>
      <psa10 value="0.0103147438" flag="0"/>
      <psa30 value="0.0016259927" flag="0"/>
    </comp>
  </station>
  <station code="GORD" name="GORD" netid="KO" insttype="CMG-5T" commtype="DIG" lat="38.9088" lon="28.1769">
    <comp name="--.HNE">
      <acc value="0.2222112731" flag="0"/>
      <vel value="0.1348700968" flag="0"/>
      <psa03 value="0.4106220945" flag="0"/>
      <psa10 value="0.2413564969" flag="0"/>
      <psa30 value="0.0166347855" flag="0"/>
    </comp>
    <comp name="--.HNN">
      <acc value="0.3885363695" flag="0"/>
      <vel value="0.2602306987" flag="0"/>
      <psa03 value="0.7842317010" flag="0"/>
      <psa10 value="0.3076255174" flag="0"/>
      <psa30 value="0.0176780009" flag="0"/>
    </comp>
    <comp name="--.HNZ">
      <acc value="0.2185381785" flag="0"/>
      <vel value="0.1386385406" flag="0"/>
      <psa03 value="0.4724287030" flag="0"/>
      <psa10 value="0.1388130192" flag="0"/>
      <psa30 value="0.0176231179" flag="0"/>
    </comp>
  </station>
  <station code="KCTX" name="KCTX" netid="KO" insttype="CMG-3ESP" commtype="DIG" lat="40.2626" lon="28.3353">
    <comp name="--.HHE">
      <acc value="0.0325231890" flag="0"/>
      <vel value="0.0233908607" flag="0"/>
      <psa03 value="0.0884582463" flag="0"/>
      <psa10 value="0.0285876387" flag="0"/>
      <psa30 value="0.0025797135" flag="0"/>
    </comp>
    <comp name="--.HHZ">
      <acc value="0.0309777356" flag="0"/>
      <vel value="0.0128463526" flag="0"/>
      <psa03 value="0.0491548046" flag="0"/>
      <psa10 value="0.0100319345" flag="0"/>
      <psa30 value="0.0014068708" flag="0"/>
    </comp>
    <comp name="--.HHN">
      <acc value="0.0463366999" flag="0"/>
      <vel value="0.0212663523" flag="0"/>
      <psa03 value="0.1359318910" flag="0"/>
      <psa10 value="0.0206780278" flag="0"/>
      <psa30 value="0.0018911437" flag="0"/>
    </comp>
  </station>
  <station code="ORLT" name="ORLT" netid="KO" insttype="CMG-5T" commtype="DIG" lat="40.0452" lon="28.8914">
    <comp name="--.HNE">
      <acc value="0.1889506745" flag="0"/>
      <vel value="0.0754962827" flag="0"/>
      <psa03 value="0.3894192296" flag="0"/>
      <psa10 value="0.0702936127" flag="0"/>
      <psa30 value="0.0048807451" flag="0"/>
    </comp>
    <comp name="--.HNN">
      <acc value="0.2803836423" flag="0"/>
      <vel value="0.1199838719" flag="0"/>
      <psa03 value="0.7295470635" flag="0"/>
      <psa10 value="0.0834745727" flag="0"/>
      <psa30 value="0.0052983814" flag="0"/>
    </comp>
    <comp name="--.HNZ">
      <acc value="0.0485425521" flag="0"/>
      <vel value="0.0268391185" flag="0"/>
      <psa03 value="0.1507683544" flag="0"/>
      <psa10 value="0.0554307664" flag="0"/>
      <psa30 value="0.0028985186" flag="0"/>
    </comp>
  </station>
  <station code="SHAP" name="SHAP" netid="KO" insttype="CMG-5T" commtype="DIG" lat="39.0231" lon="29.222">
    <comp name="--.HNE">
      <acc value="0.1583235505" flag="0"/>
      <vel value="0.0428405629" flag="0"/>
      <psa03 value="0.2262999589" flag="0"/>
      <psa10 value="0.0289262905" flag="0"/>
      <psa30 value="0.0016740796" flag="0"/>
    </comp>
    <comp name="--.HNN">
      <acc value="0.1495279661" flag="0"/>
      <vel value="0.0567215434" flag="0"/>
      <psa03 value="0.1703487357" flag="0"/>
      <psa10 value="0.0347704042" flag="0"/>
      <psa30 value="0.0023443252" flag="0"/>
    </comp>
    <comp name="--.HNZ">
      <acc value="0.0854296369" flag="0"/>
      <vel value="0.0191561618" flag="0"/>
      <psa03 value="0.1141686452" flag="0"/>
      <psa10 value="0.0208091885" flag="0"/>
      <psa30 value="0.0010483421" flag="0"/>
    </comp>
  </station>
  <station code="SIMA" name="SIMA" netid="KO" insttype="CMG-6T" commtype="DIG" lat="39.0833" lon="28.9825">
    <comp name="--.HHZ">
      <acc value="0.0714714255" flag="0"/>
      <vel value="0.0174149960" flag="0"/>
      <psa03 value="0.0653483256" flag="0"/>
      <psa10 value="0.0136145102" flag="0"/>
      <psa30 value="0.0018181845" flag="0"/>
    </comp>
    <comp name="--.HHE">
      <acc value="0.1290168826" flag="0"/>
      <vel value="0.0333829149" flag="0"/>
      <psa03 value="0.1488983955" flag="0"/>
      <psa10 value="0.0189735443" flag="0"/>
      <psa30 value="0.0019449865" flag="0"/>
    </comp>
    <comp name="--.HHN">
      <acc value="0.0778285732" flag="0"/>
      <vel value="0.0350512855" flag="0"/>
      <psa03 value="0.1504169962" flag="0"/>
      <psa10 value="0.0190834794" flag="0"/>
      <psa30 value="0.0024009019" flag="0"/>
    </comp>
  </station>
  <station code="SMAA" name="SMAA" netid="KO" insttype="CMG-5T" commtype="DIG" lat="39.1005" lon="28.9805">
    <comp name="--.HNN">
      <acc value="0.1234050502" flag="0"/>
      <vel value="0.0714367897" flag="0"/>
      <psa03 value="0.3213099154" flag="0"/>
      <psa10 value="0.0964354792" flag="0"/>
      <psa30 value="0.0080252840" flag="0"/>
    </comp>
    <comp name="--.HNZ">
      <acc value="0.0578962548" flag="0"/>
      <vel value="0.0290911749" flag="0"/>
      <psa03 value="0.0944637471" flag="0"/>
      <psa10 value="0.0759599308" flag="0"/>
      <psa30 value="0.0035055966" flag="0"/>
    </comp>
    <comp name="--.HNE">
      <acc value="0.1116422335" flag="0"/>
      <vel value="0.0659951457" flag="0"/>
      <psa03 value="0.2684207442" flag="0"/>
      <psa10 value="0.1036637128" flag="0"/>
      <psa30 value="0.0120246719" flag="0"/>
    </comp>
  </station>
  <station code="SOMA" name="SOMA" netid="KO" insttype="CMG-5T" commtype="DIG" lat="39.1564" lon="27.5341">
    <comp name="--.HNE">
      <acc value="0.1069206834" flag="0"/>
      <vel value="0.0425314420" flag="0"/>
      <psa03 value="0.2294714754" flag="0"/>
      <psa10 value="0.0641186703" flag="0"/>
      <psa30 value="0.0033026451" flag="0"/>
    </comp>
    <comp name="--.HNN">
      <acc value="0.2128369312" flag="0"/>
      <vel value="0.0587116917" flag="0"/>
      <psa03 value="0.1881276060" flag="0"/>
      <psa10 value="0.0619526635" flag="0"/>
      <psa30 value="0.0051623131" flag="0"/>
    </comp>
    <comp name="--.HNZ">
      <acc value="0.1132494577" flag="0"/>
      <vel value="0.0329840824" flag="0"/>
      <psa03 value="0.1244789799" flag="0"/>
      <psa10 value="0.0548769611" flag="0"/>
      <psa30 value="0.0028786179" flag="0"/>
    </comp>
  </station>
  <station code="SUSR" name="SUSR" netid="KO" insttype="CMG-5T" commtype="DIG" lat="39.9627" lon="28.0835">
    <comp name="--.HNE">
      <acc value="0.0858764886" flag="0"/>
      <vel value="0.0226894589" flag="0"/>
      <psa03 value="0.1925513493" flag="0"/>
      <psa10 value="0.0166571200" flag="0"/>
      <psa30 value="0.0012815183" flag="0"/>
    </comp>
    <comp name="--.HNZ">
      <acc value="0.0676718593" flag="0"/>
      <vel value="0.0155807409" flag="0"/>
      <psa03 value="0.0680159808" flag="0"/>
      <psa10 value="0.0074636937" flag="0"/>
      <psa30 value="0.0023970497" flag="0"/>
    </comp>
    <comp name="--.HNN">
      <acc value="0.0700553019" flag="0"/>
      <vel value="0.0199473875" flag="0"/>
      <psa03 value="0.2253532972" flag="0"/>
      <psa10 value="0.0107743331" flag="0"/>
      <psa30 value="0.0019514333" flag="0"/>
    </comp>
  </station>
  <station code="TVSB" name="TVSB" netid="KO" insttype="CMG-3T" commtype="DIG" lat="39.4497" lon="29.4615">
    <comp name="--.HHN">
      <acc value="0.0392987744" flag="0"/>
      <vel value="0.0218978128" flag="0"/>
      <psa03 value="0.0837290645" flag="0"/>
      <psa10 value="0.0270601513" flag="0"/>
      <psa30 value="0.0021283569" flag="0"/>
    </comp>
    <comp name="--.HHZ">
      <acc value="0.0239297960" flag="0"/>
      <vel value="0.0152476936" flag="0"/>
      <psa03 value="0.0391733983" flag="0"/>
      <psa10 value="0.0181418486" flag="0"/>
      <psa30 value="0.0017706042" flag="0"/>
    </comp>
    <comp name="--.HHE">
      <acc value="0.0455492985" flag="0"/>
      <vel value="0.0273170766" flag="0"/>
      <psa03 value="0.1578558627" flag="0"/>
      <psa10 value="0.0268069365" flag="0"/>
      <psa30 value="0.0016644664" flag="0"/>
    </comp>
  </station>
  <station code="YAYO" name="YAYO" netid="KO" insttype="CMG-6T" commtype="DIG" lat="39.6113" lon="27.0726">
    <comp name="--.HHE">
      <acc value="0.0513948433" flag="0"/>
      <vel value="0.0223826144" flag="0"/>
      <psa03 value="0.0971644681" flag="0"/>
      <psa10 value="0.0186672410" flag="0"/>
      <psa30 value="0.0012937312" flag="0"/>
    </comp>
    <comp name="--.HHN">
      <acc value="0.0433598597" flag="0"/>
      <vel value="0.0199900400" flag="0"/>
      <psa03 value="0.1532606569" flag="0"/>
      <psa10 value="0.0170032534" flag="0"/>
      <psa30 value="0.0011169184" flag="0"/>
    </comp>
    <comp name="--.HHZ">
      <acc value="0.0442370570" flag="0"/>
      <vel value="0.0179195931" flag="0"/>
      <psa03 value="0.0723071661" flag="0"/>
      <psa10 value="0.0097107567" flag="0"/>
      <psa30 value="0.0013961416" flag="0"/>
    </comp>
  </station>
  <station code="YENI" name="YENI" netid="KO" insttype="CMG-5T" commtype="DIG" lat="39.9364" lon="27.2422">
    <comp name="--.HNE">
      <acc value="0.0639833776" flag="0"/>
      <vel value="0.0263249164" flag="0"/>
      <psa03 value="0.0913861000" flag="0"/>
      <psa10 value="0.0233932752" flag="0"/>
      <psa30 value="0.0019198219" flag="0"/>
    </comp>
    <comp name="--.HNN">
      <acc value="0.1268639499" flag="0"/>
      <vel value="0.0303593683" flag="0"/>
      <psa03 value="0.1047876434" flag="0"/>
      <psa10 value="0.0215484576" flag="0"/>
      <psa30 value="0.0017414915" flag="0"/>
    </comp>
    <comp name="--.HNZ">
      <acc value="0.0350149251" flag="0"/>
      <vel value="0.0098879730" flag="0"/>
      <psa03 value="0.0535324498" flag="0"/>
      <psa10 value="0.0092004883" flag="0"/>
      <psa30 value="0.0016809936" flag="0"/>
    </comp>
  </station>
</stationlist>
