<?xml version="1.0" encoding="UTF-8" standalone="yes"?>
<!DOCTYPE earthquake SYSTEM "stationlist.dtd">
<stationlist created="" xmlns="ch.ethz.sed.shakemap.usgs.xml">
  <station code="AKS" name="AKS" netid="KO" insttype="CMG-5T" commtype="DIG" lat="38.8785" lon="27.8129">
    <comp name="--.HNZ">
      <acc value="0.1668000632" flag="0"/>
      <vel value="0.0372184003" flag="0"/>
      <psa03 value="0.1230156083" flag="0"/>
      <psa10 value="0.0433492641" flag="0"/>
      <psa30 value="0.0071773245" flag="0"/>
    </comp>
    <comp name="--.HNN">
      <acc value="0.2390667818" flag="0"/>
      <vel value="0.0950736619" flag="0"/>
      <psa03 value="0.4068828253" flag="0"/>
      <psa10 value="0.0613224633" flag="0"/>
      <psa30 value="0.0087953458" flag="0"/>
    </comp>
    <comp name="--.HNE">
      <acc value="0.2326624347" flag="0"/>
      <vel value="0.1029999964" flag="0"/>
      <psa03 value="0.3435684407" flag="0"/>
      <psa10 value="0.0610901945" flag="0"/>
      <psa30 value="0.0044094454" flag="0"/>
    </comp>
  </station>
  <station code="AYVL" name="AYVL" netid="KO" insttype="CMG-6T" commtype="DIG" lat="39.2907" lon="26.69">
    <comp name="--.HHZ">
      <acc value="0.0466880942" flag="0"/>
      <vel value="0.0149835915" flag="0"/>
      <psa03 value="0.0713733489" flag="0"/>
      <psa10 value="0.0101388533" flag="0"/>
      <psa30 value="0.0004026876" flag="0"/>
    </comp>
    <comp name="--.HHE">
      <acc value="0.0716157895" flag="0"/>
      <vel value="0.0288621118" flag="0"/>
      <psa03 value="0.0980869839" flag="0"/>
      <psa10 value="0.0218627735" flag="0"/>
      <psa30 value="0.0011499039" flag="0"/>
    </comp>
    <comp name="--.HHN">
      <acc value="0.0698590304" flag="0"/>
      <vel value="0.0338334315" flag="0"/>
      <psa03 value="0.1484657479" flag="0"/>
      <psa10 value="0.0265143460" flag="0"/>
      <psa30 value="0.0011606380" flag="0"/>
    </comp>
  </station>
  <station code="BALB" name="BALB" netid="KO" insttype="CMG-5T" commtype="DIG" lat="39.6507" lon="27.8642">
    <comp name="--.HNE">
      <acc value="0.0752527814" flag="0"/>
      <vel value="0.0334959223" flag="0"/>
      <psa03 value="0.2081097860" flag="0"/>
      <psa10 value="0.0514631159" flag="0"/>
      <psa30 value="0.0047131645" flag="0"/>
    </comp>
    <comp name="--.HNN">
      <acc value="0.0730981426" flag="0"/>
      <vel value="0.0493881030" flag="0"/>
      <psa03 value="0.2243980860" flag="0"/>
      <psa10 value="0.0426929700" flag="0"/>
      <psa30 value="0.0060216682" flag="0"/>
    </comp>
    <comp name="--.HNZ">
      <acc value="0.0578076910" flag="0"/>
      <vel value="0.0254691894" flag="0"/>
      <psa03 value="0.1335568463" flag="0"/>
      <psa10 value="0.0214178217" flag="0"/>
      <psa30 value="0.0053707889" flag="0"/>
    </comp>
  </station>
  <station code="BLCB" name="BLCB" netid="KO" insttype="CMG-3T" commtype="DIG" lat="38.3853" lon="27.042">
    <comp name="--.HHE">
      <acc value="0.0522002204" flag="0"/>
      <vel value="0.0258485909" flag="0"/>
      <psa03 value="0.1196648501" flag="0"/>
      <psa10 value="0.0251291535" flag="0"/>
      <psa30 value="0.0038796446" flag="0"/>
    </comp>
    <comp name="--.HHN">
      <acc value="0.0000380309" flag="0"/>
      <vel value="0.0000156372" flag="0"/>
      <psa03 value="0.0000590852" flag="0"/>
      <psa10 value="0.0000228423" flag="0"/>
      <psa30 value="0.0000025263" flag="0"/>
    </comp>
    <comp name="--.HHZ">
      <acc value="0.0434123791" flag="0"/>
      <vel value="0.0159625626" flag="0"/>
      <psa03 value="0.1277257316" flag="0"/>
      <psa10 value="0.0175078563" flag="0"/>
      <psa30 value="0.0016194496" flag="0"/>
    </comp>
  </station>
  <station code="CANM" name="CANM" netid="KO" insttype="CMG-5T" commtype="DIG" lat="40.0113" lon="27.0529">
    <comp name="--.HNZ">
      <acc value="0.0258750927" flag="0"/>
      <vel value="0.0098347878" flag="0"/>
      <psa03 value="0.0607244913" flag="0"/>
      <psa10 value="0.0081961431" flag="0"/>
      <psa30 value="0.0021267242" flag="0"/>
    </comp>
    <comp name="--.HNE">
      <acc value="0.0361917426" flag="0"/>
      <vel value="0.0155081996" flag="0"/>
      <psa03 value="0.0559308283" flag="0"/>
      <psa10 value="0.0128268230" flag="0"/>
      <psa30 value="0.0019753440" flag="0"/>
    </comp>
    <comp name="--.HNN">
      <acc value="0.0355672929" flag="0"/>
      <vel value="0.0204998924" flag="0"/>
      <psa03 value="0.0862845047" flag="0"/>
      <psa10 value="0.0309711321" flag="0"/>
      <psa30 value="0.0024117019" flag="0"/>
    </comp>
  </station>
  <station code="EDC" name="EDC" netid="KO" insttype="CMG-3T" commtype="DIG" lat="40.3465" lon="27.8618">
    <comp name="--.HHE">
      <acc value="0.0390009513" flag="0"/>
      <vel value="0.0308368070" flag="0"/>
      <psa03 value="0.1350249985" flag="0"/>
      <psa10 value="0.0230009696" flag="0"/>
      <psa30 value="0.0031843475" flag="0"/>
    </comp>
    <comp name="--.HHN">
      <acc value="0.0528023220" flag="0"/>
      <vel value="0.0275338587" flag="0"/>
      <psa03 value="0.1894930731" flag="0"/>
      <psa10 value="0.0174835956" flag="0"/>
      <psa30 value="0.0030743615" flag="0"/>
    </comp>
    <comp name="--.HHZ">
      <acc value="0.0194634955" flag="0"/>
      <vel value="0.0108368714" flag="0"/>
      <psa03 value="0.0490912673" flag="0"/>
      <psa10 value="0.0107501637" flag="0"/>
      <psa30 value="0.0017117621" flag="0"/>
    </comp>
  </station>
  <station code="GOMA" name="GOMA" netid="KO" insttype="CMG-5T" commtype="DIG" lat="38.7077" lon="27.9175">
    <comp name="--.HNN">
      <acc value="0.2366081817" flag="0"/>
      <vel value="0.1033904448" flag="0"/>
      <psa03 value="0.7182677510" flag="0"/>
      <psa10 value="0.0449807702" flag="0"/>
      <psa30 value="0.0052798319" flag="0"/>
    </comp>
    <comp name="--.HNE">
      <acc value="0.2630435795" flag="0"/>
      <vel value="0.1059820789" flag="0"/>
      <psa03 value="0.4437057332" flag="0"/>
      <psa10 value="0.0548538395" flag="0"/>
      <psa30 value="0.0035717467" flag="0"/>
    </comp>
    <comp name="--.HNZ">
      <acc value="0.4011731216" flag="0"/>
      <vel value="0.1234095500" flag="0"/>
      <psa03 value="0.2726860567" flag="0"/>
      <psa10 value="0.0309287701" flag="0"/>
      <psa30 value="0.0041581528" flag="0"/>
    </comp>
  </station>
  <station code="GONE" name="GONE" netid="KO" insttype="CMG-5T" commtype="DIG" lat="40.0466" lon="27.686">
    <comp name="--.HNE">
      <acc value="0.0636714479" flag="0"/>
      <vel value="0.0314366513" flag="0"/>
      <psa03 value="0.1829195985" flag="0"/>
      <psa10 value="0.0233287566" flag="0"/>
      <psa30 value="0.0027955451" flag="0"/>
    </comp>
    <comp name="--.HNZ">
      <acc value="0.0365229317" flag="0"/>
      <vel value="0.0144022218" flag="0"/>
      <psa03 value="0.0719207231" flag="0"/>
      <psa10 value="0.0103147439" flag="0"/>
      <psa30 value="0.0016259608" flag="0"/>
    </comp>
    <comp name="--.HNN">
      <acc value="0.1052483289" flag="0"/>
      <vel value="0.0465949035" flag="0"/>
      <psa03 value="0.2738854611" flag="0"/>
      <psa10 value="0.0268040769" flag="0"/>
      <psa30 value="0.0042718485" flag="0"/>
    </comp>
  </station>
  <station code="GORD" name="GORD" netid="KO" insttype="CMG-5T" commtype="DIG" lat="38.9088" lon="28.1769">
    <comp name="--.HNE">
      <acc value="0.2222112715" flag="0"/>
      <vel value="0.1348700954" flag="0"/>
      <psa03 value="0.4106220945" flag="0"/>
      <psa10 value="0.2413564973" flag="0"/>
      <psa30 value="0.0166355728" flag="0"/>
    </comp>
    <comp name="--.HNN">
      <acc value="0.3885363710" flag="0"/>
      <vel value="0.2602306982" flag="0"/>
      <psa03 value="0.7842317010" flag="0"/>
      <psa10 value="0.3076255165" flag="0"/>
      <psa30 value="0.0176779454" flag="0"/>
    </comp>
    <comp name="--.HNZ">
      <acc value="0.2185381789" flag="0"/>
      <vel value="0.1386385377" flag="0"/>
      <psa03 value="0.4724287030" flag="0"/>
      <psa10 value="0.1388130185" flag="0"/>
      <psa30 value="0.0176224722" flag="0"/>
    </comp>
  </station>
  <station code="KCTX" name="KCTX" netid="KO" insttype="CMG-3ESP" commtype="DIG" lat="40.2626" lon="28.3353">
    <comp name="--.HHE">
      <acc value="0.0325231890" flag="0"/>
      <vel value="0.0233908602" flag="0"/>
      <psa03 value="0.0884582463" flag="0"/>
      <psa10 value="0.0285876388" flag="0"/>
      <psa30 value="0.0025797367" flag="0"/>
    </comp>
    <comp name="--.HHZ">
      <acc value="0.0309777357" flag="0"/>
      <vel value="0.0128463521" flag="0"/>
      <psa03 value="0.0491548045" flag="0"/>
      <psa10 value="0.0100319345" flag="0"/>
      <psa30 value="0.0014068539" flag="0"/>
    </comp>
    <comp name="--.HHN">
      <acc value="0.0463366999" flag="0"/>
      <vel value="0.0212663519" flag="0"/>
      <psa03 value="0.1359318910" flag="0"/>
      <psa10 value="0.0206780277" flag="0"/>
      <psa30 value="0.0018911351" flag="0"/>
    </comp>
  </station>
  <station code="KULA" name="KULA" netid="KO" insttype="CMG-3T" commtype="DIG" lat="38.5145" lon="28.6607">
    <comp name="--.HHE">
      <acc value="0.1851229882" flag="0"/>
      <vel value="0.0784153556" flag="0"/>
      <psa03 value="0.2841059710" flag="0"/>
      <psa10 value="0.0488970078" flag="0"/>
      <psa30 value="0.0032156939" flag="0"/>
    </comp>
  </station>
  <station code="MDNY" name="MDNY" netid="KO" insttype="CMG-5T" commtype="DIG" lat="40.3709" lon="28.8846">
    <comp name="--.HNE">
      <acc value="0.1517141755" flag="0"/>
      <vel value="0.0710475790" flag="0"/>
      <psa03 value="0.5637911693" flag="0"/>
      <psa10 value="0.0412985970" flag="0"/>
      <psa30 value="0.0031968477" flag="0"/>
    </comp>
    <comp name="--.HNN">
      <acc value="0.2211386382" flag="0"/>
      <vel value="0.0824881650" flag="0"/>
      <psa03 value="0.9287344863" flag="0"/>
      <psa10 value="0.0545045665" flag="0"/>
      <psa30 value="0.0037970573" flag="0"/>
    </comp>
    <comp name="--.HNZ">
      <acc value="0.0759262631" flag="0"/>
      <vel value="0.0300846151" flag="0"/>
      <psa03 value="0.2125090379" flag="0"/>
      <psa10 value="0.0245955694" flag="0"/>
      <psa30 value="0.0033568746" flag="0"/>
    </comp>
  </station>
  <station code="ORLT" name="ORLT" netid="KO" insttype="CMG-5T" commtype="DIG" lat="40.0452" lon="28.8914">
    <comp name="--.HNZ">
      <acc value="0.0485425600" flag="0"/>
      <vel value="0.0268391262" flag="0"/>
      <psa03 value="0.1507683544" flag="0"/>
      <psa10 value="0.0554307666" flag="0"/>
      <psa30 value="0.0028985057" flag="0"/>
    </comp>
    <comp name="--.HNN">
      <acc value="0.2803836424" flag="0"/>
      <vel value="0.1199838674" flag="0"/>
      <psa03 value="0.7295470635" flag="0"/>
      <psa10 value="0.0834745731" flag="0"/>
      <psa30 value="0.0052991248" flag="0"/>
    </comp>
    <comp name="--.HNE">
      <acc value="0.1889506773" flag="0"/>
      <vel value="0.0754962795" flag="0"/>
      <psa03 value="0.3894192296" flag="0"/>
      <psa10 value="0.0702936129" flag="0"/>
      <psa30 value="0.0048797586" flag="0"/>
    </comp>
  </station>
  <station code="SHAP" name="SHAP" netid="KO" insttype="CMG-5T" commtype="DIG" lat="39.0231" lon="29.222">
    <comp name="--.HNN">
      <acc value="0.1495279670" flag="0"/>
      <vel value="0.0567215450" flag="0"/>
      <psa03 value="0.1703487357" flag="0"/>
      <psa10 value="0.0347704046" flag="0"/>
      <psa30 value="0.0023444505" flag="0"/>
    </comp>
    <comp name="--.HNZ">
      <acc value="0.0854296366" flag="0"/>
      <vel value="0.0191561623" flag="0"/>
      <psa03 value="0.1141686452" flag="0"/>
      <psa10 value="0.0208091886" flag="0"/>
      <psa30 value="0.0010486035" flag="0"/>
    </comp>
    <comp name="--.HNE">
      <acc value="0.1583235494" flag="0"/>
      <vel value="0.0428405633" flag="0"/>
      <psa03 value="0.2262999589" flag="0"/>
      <psa10 value="0.0289262907" flag="0"/>
      <psa30 value="0.0016738473" flag="0"/>
    </comp>
  </station>
  <station code="SIMA" name="SIMA" netid="KO" insttype="CMG-6T" commtype="DIG" lat="39.0833" lon="28.9825">
    <comp name="--.HHE">
      <acc value="0.1290168837" flag="0"/>
      <vel value="0.0333829148" flag="0"/>
      <psa03 value="0.1488983955" flag="0"/>
      <psa10 value="0.0189735442" flag="0"/>
      <psa30 value="0.0019450053" flag="0"/>
    </comp>
    <comp name="--.HHZ">
      <acc value="0.0714714285" flag="0"/>
      <vel value="0.0174149955" flag="0"/>
      <psa03 value="0.0653483256" flag="0"/>
      <psa10 value="0.0136145102" flag="0"/>
      <psa30 value="0.0018181827" flag="0"/>
    </comp>
    <comp name="--.HHN">
      <acc value="0.0778285749" flag="0"/>
      <vel value="0.0350512872" flag="0"/>
      <psa03 value="0.1504169962" flag="0"/>
      <psa10 value="0.0190834794" flag="0"/>
      <psa30 value="0.0024009169" flag="0"/>
    </comp>
  </station>
  <station code="SMAA" name="SMAA" netid="KO" insttype="CMG-5T" commtype="DIG" lat="39.1005" lon="28.9805">
    <comp name="--.HNE">
      <acc value="0.1116422340" flag="0"/>
      <vel value="0.0659951472" flag="0"/>
      <psa03 value="0.2684207442" flag="0"/>
      <psa10 value="0.1036637124" flag="0"/>
      <psa30 value="0.0120251448" flag="0"/>
    </comp>
    <comp name="--.HNN">
      <acc value="0.1234050512" flag="0"/>
      <vel value="0.0714367875" flag="0"/>
      <psa03 value="0.3213099154" flag="0"/>
      <psa10 value="0.0964354789" flag="0"/>
      <psa30 value="0.0080250519" flag="0"/>
    </comp>
    <comp name="--.HNZ">
      <acc value="0.0578962647" flag="0"/>
      <vel value="0.0290911676" flag="0"/>
      <psa03 value="0.0944637471" flag="0"/>
      <psa10 value="0.0759599312" flag="0"/>
      <psa30 value="0.0035038725" flag="0"/>
    </comp>
  </station>
  <station code="SOMA" name="SOMA" netid="KO" insttype="CMG-5T" commtype="DIG" lat="39.1564" lon="27.5341">
    <comp name="--.HNE">
      <acc value="0.1069206836" flag="0"/>
      <vel value="0.0425314375" flag="0"/>
      <psa03 value="0.2294714754" flag="0"/>
      <psa10 value="0.0641186713" flag="0"/>
      <psa30 value="0.0033027934" flag="0"/>
    </comp>
    <comp name="--.HNN">
      <acc value="0.2128369308" flag="0"/>
      <vel value="0.0587116971" flag="0"/>
      <psa03 value="0.1881276060" flag="0"/>
      <psa10 value="0.0619526532" flag="0"/>
      <psa30 value="0.0051620737" flag="0"/>
    </comp>
    <comp name="--.HNZ">
      <acc value="0.1132494577" flag="0"/>
      <vel value="0.0329840847" flag="0"/>
      <psa03 value="0.1244789799" flag="0"/>
      <psa10 value="0.0548769628" flag="0"/>
      <psa30 value="0.0028783016" flag="0"/>
    </comp>
  </station>
  <station code="SUSR" name="SUSR" netid="KO" insttype="CMG-5T" commtype="DIG" lat="39.9627" lon="28.0835">
    <comp name="--.HNE">
      <acc value="0.0858764894" flag="0"/>
      <vel value="0.0226894605" flag="0"/>
      <psa03 value="0.1925513493" flag="0"/>
      <psa10 value="0.0166571204" flag="0"/>
      <psa30 value="0.0012817338" flag="0"/>
    </comp>
    <comp name="--.HNN">
      <acc value="0.0700553006" flag="0"/>
      <vel value="0.0199473889" flag="0"/>
      <psa03 value="0.2253532972" flag="0"/>
      <psa10 value="0.0107743331" flag="0"/>
      <psa30 value="0.0019514974" flag="0"/>
    </comp>
    <comp name="--.HNZ">
      <acc value="0.0676718588" flag="0"/>
      <vel value="0.0155807377" flag="0"/>
      <psa03 value="0.0680159808" flag="0"/>
      <psa10 value="0.0074636939" flag="0"/>
      <psa30 value="0.0023972211" flag="0"/>
    </comp>
  </station>
  <station code="TVSB" name="TVSB" netid="KO" insttype="CMG-3T" commtype="DIG" lat="39.4497" lon="29.4615">
    <comp name="--.HHE">
      <acc value="0.0455492985" flag="0"/>
      <vel value="0.0273170766" flag="0"/>
      <psa03 value="0.1578558627" flag="0"/>
      <psa10 value="0.0268069365" flag="0"/>
      <psa30 value="0.0016644750" flag="0"/>
    </comp>
    <comp name="--.HHN">
      <acc value="0.0392987744" flag="0"/>
      <vel value="0.0218978131" flag="0"/>
      <psa03 value="0.0837290645" flag="0"/>
      <psa10 value="0.0270601513" flag="0"/>
      <psa30 value="0.0021283569" flag="0"/>
    </comp>
    <comp name="--.HHZ">
      <acc value="0.0239297958" flag="0"/>
      <vel value="0.0152476932" flag="0"/>
      <psa03 value="0.0391733983" flag="0"/>
      <psa10 value="0.0181418486" flag="0"/>
      <psa30 value="0.0017706011" flag="0"/>
    </comp>
  </station>
  <station code="YAYO" name="YAYO" netid="KO" insttype="CMG-6T" commtype="DIG" lat="39.6113" lon="27.0726">
    <comp name="--.HHE">
      <acc value="0.0513948442" flag="0"/>
      <vel value="0.0223826149" flag="0"/>
      <psa03 value="0.0971644681" flag="0"/>
      <psa10 value="0.0186672410" flag="0"/>
      <psa30 value="0.0012937311" flag="0"/>
    </comp>
    <comp name="--.HHZ">
      <acc value="0.0442370582" flag="0"/>
      <vel value="0.0179195940" flag="0"/>
      <psa03 value="0.0723071661" flag="0"/>
      <psa10 value="0.0097107567" flag="0"/>
      <psa30 value="0.0013961432" flag="0"/>
    </comp>
    <comp name="--.HHN">
      <acc value="0.0433598598" flag="0"/>
      <vel value="0.0199900401" flag="0"/>
      <psa03 value="0.1532606569" flag="0"/>
      <psa10 value="0.0170032535" flag="0"/>
      <psa30 value="0.0011169170" flag="0"/>
    </comp>
  </station>
  <station code="YENI" name="YENI" netid="KO" insttype="CMG-5T" commtype="DIG" lat="39.9364" lon="27.2422">
    <comp name="--.HNZ">
      <acc value="0.0350149274" flag="0"/>
      <vel value="0.0098879737" flag="0"/>
      <psa03 value="0.0535324498" flag="0"/>
      <psa10 value="0.0092004880" flag="0"/>
      <psa30 value="0.0016810964" flag="0"/>
    </comp>
    <comp name="--.HNN">
      <acc value="0.1268639262" flag="0"/>
      <vel value="0.0303593679" flag="0"/>
      <psa03 value="0.1047876434" flag="0"/>
      <psa10 value="0.0215484537" flag="0"/>
      <psa30 value="0.0017422238" flag="0"/>
    </comp>
    <comp name="--.HNE">
      <acc value="0.0639833785" flag="0"/>
      <vel value="0.0263249073" flag="0"/>
      <psa03 value="0.0913861000" flag="0"/>
      <psa10 value="0.0233932761" flag="0"/>
      <psa30 value="0.0019183491" flag="0"/>
    </comp>
  </station>
</stationlist>
