<?xml version="1.0" encoding="UTF-8" standalone="yes"?>
<!DOCTYPE earthquake SYSTEM "stationlist.dtd">
<stationlist created="" xmlns="ch.ethz.sed.shakemap.usgs.xml">
  <station code="ATHR" name="ATHR" netid="HA" insttype="GEOtiny," commtype="DIG" lat="38.3172" lon="20.4165">
    <comp name="--.HHN">
      <acc value="0.0110533036" flag="0"/>
      <vel value="0.0139068117" flag="0"/>
      <psa03 value="0.0409604399" flag="0"/>
      <psa10 value="0.0247864889" flag="0"/>
      <psa30 value="0.0042634161" flag="0"/>
    </comp>
    <comp name="--.HHE">
      <acc value="0.0109611429" flag="0"/>
      <vel value="0.0110727032" flag="0"/>
      <psa03 value="0.0318433931" flag="0"/>
      <psa10 value="0.0207237413" flag="0"/>
      <psa30 value="0.0024670543" flag="0"/>
    </comp>
    <comp name="--.HHZ">
      <acc value="0.0086390442" flag="0"/>
      <vel value="0.0080843817" flag="0"/>
      <psa03 value="0.0163905599" flag="0"/>
      <psa10 value="0.0101236475" flag="0"/>
      <psa30 value="0.0013101286" flag="0"/>
    </comp>
  </station>
  <station code="AGR3" name="AGR3" netid="HI" insttype="unknown" commtype="DIG" lat="38.5893" lon="21.4162">
    <comp name="--.HNZ">
      <acc value="0.0217548608" flag="0"/>
      <vel value="0.0238178026" flag="0"/>
      <psa03 value="0.0880924070" flag="0"/>
      <psa10 value="0.0507173887" flag="0"/>
      <psa30 value="0.0054098401" flag="0"/>
    </comp>
    <comp name="--.HNE">
      <acc value="0.0442628597" flag="0"/>
      <vel value="0.0460486625" flag="0"/>
      <psa03 value="0.1153019876" flag="0"/>
      <psa10 value="0.0702579243" flag="0"/>
      <psa30 value="0.0204596697" flag="0"/>
    </comp>
    <comp name="--.HNN">
      <acc value="0.0376335371" flag="0"/>
      <vel value="0.0444214125" flag="0"/>
      <psa03 value="0.0955198254" flag="0"/>
      <psa10 value="0.1090127892" flag="0"/>
      <psa30 value="0.0102270091" flag="0"/>
    </comp>
  </station>
  <station code="ART2" name="ART2" netid="HI" insttype="CMG-5TD,ACCELEROMETER,GURALP" commtype="DIG" lat="39.1474" lon="20.9937">
    <comp name="--.HNE">
      <acc value="0.0819331040" flag="0"/>
      <vel value="0.0397209549" flag="0"/>
      <psa03 value="0.2565351250" flag="0"/>
      <psa10 value="0.0387967541" flag="0"/>
      <psa30 value="0.0046605317" flag="0"/>
    </comp>
    <comp name="--.HNN">
      <acc value="0.0912840933" flag="0"/>
      <vel value="0.0397977953" flag="0"/>
      <psa03 value="0.2583558591" flag="0"/>
      <psa10 value="0.0358639065" flag="0"/>
      <psa30 value="0.0038747542" flag="0"/>
    </comp>
    <comp name="--.HNZ">
      <acc value="0.0621085560" flag="0"/>
      <vel value="0.0389162175" flag="0"/>
      <psa03 value="0.1964193868" flag="0"/>
      <psa10 value="0.0252905678" flag="0"/>
      <psa30 value="0.0024798426" flag="0"/>
    </comp>
  </station>
  <station code="JAN2" name="JAN2" netid="HI" insttype="unknown" commtype="DIG" lat="39.664" lon="20.8522">
    <comp name="--.HNZ">
      <acc value="1.4204440910" flag="0"/>
      <vel value="0.3480314250" flag="0"/>
      <psa03 value="1.0870430217" flag="0"/>
      <psa10 value="0.1471496414" flag="0"/>
      <psa30 value="0.0159499292" flag="0"/>
    </comp>
    <comp name="--.HNN">
      <acc value="1.4189887073" flag="0"/>
      <vel value="0.5336870263" flag="0"/>
      <psa03 value="3.5790669173" flag="0"/>
      <psa10 value="0.3060236301" flag="0"/>
      <psa30 value="0.0261636254" flag="0"/>
    </comp>
    <comp name="--.HNE">
      <acc value="1.6618712212" flag="0"/>
      <vel value="0.6763678390" flag="0"/>
      <psa03 value="3.3285415196" flag="0"/>
      <psa10 value="0.3966878580" flag="0"/>
      <psa30 value="0.0283364916" flag="0"/>
    </comp>
  </station>
  <station code="JAN3" name="JAN3" netid="HI" insttype="unknown" commtype="DIG" lat="39.684" lon="20.8379">
    <comp name="--.HNE">
      <acc value="3.6766644732" flag="0"/>
      <vel value="1.3698638006" flag="0"/>
      <psa03 value="5.2807482116" flag="0"/>
      <psa10 value="0.4494342222" flag="0"/>
      <psa30 value="0.0420805455" flag="0"/>
    </comp>
    <comp name="--.HNZ">
      <acc value="2.9032411604" flag="0"/>
      <vel value="0.6253381401" flag="0"/>
      <psa03 value="2.0398785268" flag="0"/>
      <psa10 value="0.1585403989" flag="0"/>
      <psa30 value="0.0174535571" flag="0"/>
    </comp>
  </station>
  <station code="KNS1" name="KNS1" netid="HI" insttype="unknown" commtype="DIG" lat="40.048" lon="20.7524">
    <comp name="--.HNE">
      <acc value="0.1295483188" flag="0"/>
      <vel value="0.0838348672" flag="0"/>
      <psa03 value="0.4130103788" flag="0"/>
      <psa10 value="0.1083302328" flag="0"/>
      <psa30 value="0.0150182856" flag="0"/>
    </comp>
    <comp name="--.HNN">
      <acc value="0.1341406525" flag="0"/>
      <vel value="0.0690145342" flag="0"/>
      <psa03 value="0.2941241696" flag="0"/>
      <psa10 value="0.0585778185" flag="0"/>
      <psa30 value="0.0055836870" flag="0"/>
    </comp>
    <comp name="--.HNZ">
      <acc value="0.0961830113" flag="0"/>
      <vel value="0.0632055236" flag="0"/>
      <psa03 value="0.1959361666" flag="0"/>
      <psa10 value="0.0440834574" flag="0"/>
      <psa30 value="0.0050146958" flag="0"/>
    </comp>
  </station>
  <station code="KRK1" name="KRK1" netid="HI" insttype="CMG-5TD,ACCELEROMETER,GURALP" commtype="DIG" lat="39.6189" lon="19.9202">
    <comp name="--.HNE">
      <acc value="0.1428355220" flag="0"/>
      <vel value="0.0699278547" flag="0"/>
      <psa03 value="0.2610830235" flag="0"/>
      <psa10 value="0.0497353538" flag="0"/>
      <psa30 value="0.0075063792" flag="0"/>
    </comp>
    <comp name="--.HNN">
      <acc value="0.1345508809" flag="0"/>
      <vel value="0.0700887767" flag="0"/>
      <psa03 value="0.1933295030" flag="0"/>
      <psa10 value="0.0698122600" flag="0"/>
      <psa30 value="0.0071391317" flag="0"/>
    </comp>
    <comp name="--.HNZ">
      <acc value="0.0565775470" flag="0"/>
      <vel value="0.0210892572" flag="0"/>
      <psa03 value="0.1061398682" flag="0"/>
      <psa10 value="0.0194767622" flag="0"/>
      <psa30 value="0.0040862978" flag="0"/>
    </comp>
  </station>
  <station code="LEF2" name="LEF2" netid="HI" insttype="unknown" commtype="DIG" lat="38.8301" lon="20.7083">
    <comp name="--.HNN">
      <acc value="0.1188952213" flag="0"/>
      <vel value="0.1111605781" flag="0"/>
      <psa03 value="0.3025027758" flag="0"/>
      <psa10 value="0.1148403705" flag="0"/>
      <psa30 value="0.0102114198" flag="0"/>
    </comp>
    <comp name="--.HNE">
      <acc value="0.1149560927" flag="0"/>
      <vel value="0.0977921542" flag="0"/>
      <psa03 value="0.3314689808" flag="0"/>
      <psa10 value="0.1655144821" flag="0"/>
      <psa30 value="0.0214033150" flag="0"/>
    </comp>
    <comp name="--.HNZ">
      <acc value="0.0508363287" flag="0"/>
      <vel value="0.0585881177" flag="0"/>
      <psa03 value="0.1631793545" flag="0"/>
      <psa10 value="0.1263484194" flag="0"/>
      <psa30 value="0.0059458672" flag="0"/>
    </comp>
  </station>
  <station code="MSL1" name="MSL1" netid="HI" insttype="CMG-5TD,ACCELEROMETER,GURALP" commtype="DIG" lat="38.3727" lon="21.4243">
    <comp name="--.HNN">
      <acc value="0.0602983282" flag="0"/>
      <vel value="0.0637886528" flag="0"/>
      <psa03 value="0.1722597940" flag="0"/>
      <psa10 value="0.1111159724" flag="0"/>
      <psa30 value="0.0056380587" flag="0"/>
    </comp>
    <comp name="--.HNE">
      <acc value="0.0660477765" flag="0"/>
      <vel value="0.0644708072" flag="0"/>
      <psa03 value="0.0998209118" flag="0"/>
      <psa10 value="0.1273294684" flag="0"/>
      <psa30 value="0.0086420020" flag="0"/>
    </comp>
    <comp name="--.HNZ">
      <acc value="0.0014446395" flag="0"/>
      <vel value="-100.0000000000" flag="0"/>
      <psa03 value="0.0028997025" flag="0"/>
      <psa10 value="0.0002309756" flag="0"/>
      <psa30 value="0.0000580968" flag="0"/>
    </comp>
  </station>
  <station code="PRE2" name="PRE2" netid="HI" insttype="unknown" commtype="DIG" lat="38.9577" lon="20.7548">
    <comp name="--.HNN">
      <acc value="0.1124143379" flag="0"/>
      <vel value="0.0925853131" flag="0"/>
      <psa03 value="0.4074630719" flag="0"/>
      <psa10 value="0.1526487089" flag="0"/>
      <psa30 value="0.0162164020" flag="0"/>
    </comp>
    <comp name="--.HNZ">
      <acc value="0.0825378037" flag="0"/>
      <vel value="0.0513081088" flag="0"/>
      <psa03 value="0.2377640394" flag="0"/>
      <psa10 value="0.0497230421" flag="0"/>
      <psa30 value="0.0044682190" flag="0"/>
    </comp>
    <comp name="--.HNE">
      <acc value="0.1412101248" flag="0"/>
      <vel value="0.0937440904" flag="0"/>
      <psa03 value="0.4084577120" flag="0"/>
      <psa10 value="0.1760814814" flag="0"/>
      <psa30 value="0.0149761171" flag="0"/>
    </comp>
  </station>
  <station code="ARTB" name="ARTB" netid="HL" insttype="CMG-5" commtype="DIG" lat="39.157" lon="20.9785">
    <comp name="00.HNE">
      <acc value="0.2867405426" flag="0"/>
      <vel value="0.1352606942" flag="0"/>
      <psa03 value="1.0841835126" flag="0"/>
      <psa10 value="0.0518284718" flag="0"/>
      <psa30 value="0.0050401620" flag="0"/>
    </comp>
    <comp name="00.HNN">
      <acc value="0.2416836159" flag="0"/>
      <vel value="0.0952672753" flag="0"/>
      <psa03 value="0.9149326918" flag="0"/>
      <psa10 value="0.0445773831" flag="0"/>
      <psa30 value="0.0050877945" flag="0"/>
    </comp>
    <comp name="00.HNZ">
      <acc value="0.2229773529" flag="0"/>
      <vel value="0.0754203481" flag="0"/>
      <psa03 value="0.3823108968" flag="0"/>
      <psa10 value="0.0313389020" flag="0"/>
      <psa30 value="0.0027276626" flag="0"/>
    </comp>
  </station>
  <station code="EVR" name="EVR" netid="HL" insttype="DR24" commtype="DIG" lat="38.9166" lon="21.8105">
    <comp name="--.HHE">
      <acc value="0.0234114012" flag="0"/>
      <vel value="0.0135353181" flag="0"/>
      <psa03 value="0.0805511435" flag="0"/>
      <psa10 value="0.0259540972" flag="0"/>
      <psa30 value="0.0015932822" flag="0"/>
    </comp>
    <comp name="--.HHZ">
      <acc value="0.0107912439" flag="0"/>
      <vel value="0.0115260835" flag="0"/>
      <psa03 value="0.0207242707" flag="0"/>
      <psa10 value="0.0204694197" flag="0"/>
      <psa30 value="0.0023875049" flag="0"/>
    </comp>
    <comp name="--.HHN">
      <acc value="0.0163944362" flag="0"/>
      <vel value="0.0142113603" flag="0"/>
      <psa03 value="0.0536581429" flag="0"/>
      <psa10 value="0.0176444758" flag="0"/>
      <psa30 value="0.0027982468" flag="0"/>
    </comp>
  </station>
  <station code="JAN" name="JAN" netid="HL" insttype="CMG3EPSC60_DR24" commtype="DIG" lat="39.6562" lon="20.8487">
    <comp name="--.HHE">
      <acc value="1.2252719318" flag="0"/>
      <vel value="0.3351269437" flag="0"/>
      <psa03 value="1.6700421886" flag="0"/>
      <psa10 value="0.2541636961" flag="0"/>
      <psa30 value="0.0232595581" flag="0"/>
    </comp>
    <comp name="--.HHZ">
      <acc value="0.3861396519" flag="0"/>
      <vel value="0.1424004590" flag="0"/>
      <psa03 value="0.4835422213" flag="0"/>
      <psa10 value="0.1794062241" flag="0"/>
      <psa30 value="0.0198684488" flag="0"/>
    </comp>
    <comp name="--.HHN">
      <acc value="1.0817806042" flag="0"/>
      <vel value="0.4097874369" flag="0"/>
      <psa03 value="1.3511465335" flag="0"/>
      <psa10 value="0.2374367427" flag="0"/>
      <psa30 value="0.0188430063" flag="0"/>
    </comp>
  </station>
  <station code="KEK" name="KEK" netid="HL" insttype="120" commtype="DIG" lat="39.7127" lon="19.7962">
    <comp name="--.HHZ">
      <acc value="0.0311436090" flag="0"/>
      <vel value="0.0248067217" flag="0"/>
      <psa03 value="0.0592085863" flag="0"/>
      <psa10 value="0.0272567092" flag="0"/>
      <psa30 value="0.0037946822" flag="0"/>
    </comp>
    <comp name="--.HHN">
      <acc value="0.0406551217" flag="0"/>
      <vel value="0.0400115850" flag="0"/>
      <psa03 value="0.0838899351" flag="0"/>
      <psa10 value="0.0382778058" flag="0"/>
      <psa30 value="0.0144168654" flag="0"/>
    </comp>
    <comp name="--.HHE">
      <acc value="0.0453908358" flag="0"/>
      <vel value="0.0419431941" flag="0"/>
      <psa03 value="0.1387261552" flag="0"/>
      <psa10 value="0.0351668589" flag="0"/>
      <psa30 value="0.0050174969" flag="0"/>
    </comp>
  </station>
  <station code="KZN" name="KZN" netid="HL" insttype="120" commtype="DIG" lat="40.3033" lon="21.7821">
    <comp name="--.HHE">
      <acc value="0.0116161887" flag="0"/>
      <vel value="0.0102733110" flag="0"/>
      <psa03 value="0.0395242781" flag="0"/>
      <psa10 value="0.0167900632" flag="0"/>
      <psa30 value="0.0013227445" flag="0"/>
    </comp>
    <comp name="--.HHZ">
      <acc value="0.0055615362" flag="0"/>
      <vel value="0.0050679983" flag="0"/>
      <psa03 value="0.0174973525" flag="0"/>
      <psa10 value="0.0072843021" flag="0"/>
      <psa30 value="0.0010630285" flag="0"/>
    </comp>
    <comp name="--.HHN">
      <acc value="0.0127107516" flag="0"/>
      <vel value="0.0110253617" flag="0"/>
      <psa03 value="0.0259788215" flag="0"/>
      <psa10 value="0.0225171216" flag="0"/>
      <psa30 value="0.0015038299" flag="0"/>
    </comp>
  </station>
  <station code="PENT" name="PENT" netid="HL" insttype="Horizon,120s,1200" commtype="DIG" lat="40.1961" lon="21.1381">
    <comp name="--.HHE">
      <acc value="0.0199214468" flag="0"/>
      <vel value="0.0191311305" flag="0"/>
      <psa03 value="0.0585129323" flag="0"/>
      <psa10 value="0.0249947788" flag="0"/>
      <psa30 value="0.0044540447" flag="0"/>
    </comp>
    <comp name="--.HHN">
      <acc value="0.0245898007" flag="0"/>
      <vel value="0.0204195711" flag="0"/>
      <psa03 value="0.0581250858" flag="0"/>
      <psa10 value="0.0321555616" flag="0"/>
      <psa30 value="0.0032807692" flag="0"/>
    </comp>
    <comp name="--.HHZ">
      <acc value="0.0146331697" flag="0"/>
      <vel value="0.0103896176" flag="0"/>
      <psa03 value="0.0311677414" flag="0"/>
      <psa10 value="0.0227930708" flag="0"/>
      <psa30 value="0.0018194994" flag="0"/>
    </comp>
  </station>
  <station code="PRGA" name="PRGA" netid="HL" insttype="CMG-5" commtype="DIG" lat="39.2856" lon="20.4016">
    <comp name="00.HNE">
      <acc value="0.6604541193" flag="0"/>
      <vel value="0.3107927813" flag="0"/>
      <psa03 value="1.5759210805" flag="0"/>
      <psa10 value="0.1621882731" flag="0"/>
      <psa30 value="0.0119202217" flag="0"/>
    </comp>
    <comp name="00.HNN">
      <acc value="0.6352793273" flag="0"/>
      <vel value="0.2899247431" flag="0"/>
      <psa03 value="1.5746549822" flag="0"/>
      <psa10 value="0.2706624685" flag="0"/>
      <psa30 value="0.0193493617" flag="0"/>
    </comp>
    <comp name="00.HNZ">
      <acc value="0.1653752710" flag="0"/>
      <vel value="0.0618477670" flag="0"/>
      <psa03 value="0.2754093159" flag="0"/>
      <psa10 value="0.0658665764" flag="0"/>
      <psa30 value="0.0062718131" flag="0"/>
    </comp>
  </station>
  <station code="TETR" name="TETR" netid="HL" insttype="60" commtype="DIG" lat="39.3445" lon="21.2747">
    <comp name="--.HHZ">
      <acc value="0.1318491804" flag="0"/>
      <vel value="0.0623851539" flag="0"/>
      <psa03 value="0.2241942370" flag="0"/>
      <psa10 value="0.1112879954" flag="0"/>
      <psa30 value="0.0076772563" flag="0"/>
    </comp>
    <comp name="--.HHN">
      <acc value="0.2315978336" flag="0"/>
      <vel value="0.1218428988" flag="0"/>
      <psa03 value="0.6574339327" flag="0"/>
      <psa10 value="0.1825175552" flag="0"/>
      <psa30 value="0.0136017426" flag="0"/>
    </comp>
    <comp name="--.HHE">
      <acc value="0.2987997744" flag="0"/>
      <vel value="0.1469659719" flag="0"/>
      <psa03 value="0.9517548549" flag="0"/>
      <psa10 value="0.1358274964" flag="0"/>
      <psa30 value="0.0155345527" flag="0"/>
    </comp>
  </station>
  <station code="THL" name="THL" netid="HL" insttype="120" commtype="DIG" lat="39.5647" lon="22.0144">
    <comp name="--.HHE">
      <acc value="0.0104905416" flag="0"/>
      <vel value="0.0082107464" flag="0"/>
      <psa03 value="0.0285234545" flag="0"/>
      <psa10 value="0.0096033845" flag="0"/>
      <psa30 value="0.0013917110" flag="0"/>
    </comp>
    <comp name="--.HHN">
      <acc value="0.0068175380" flag="0"/>
      <vel value="0.0079423801" flag="0"/>
      <psa03 value="0.0181948123" flag="0"/>
      <psa10 value="0.0116957745" flag="0"/>
      <psa30 value="0.0029166208" flag="0"/>
    </comp>
    <comp name="--.HHZ">
      <acc value="0.0061319467" flag="0"/>
      <vel value="0.0058178018" flag="0"/>
      <psa03 value="0.0136710075" flag="0"/>
      <psa10 value="0.0103739733" flag="0"/>
      <psa30 value="0.0014041104" flag="0"/>
    </comp>
  </station>
  <station code="AMPL" name="AMPL" netid="HP" insttype="Compact," commtype="DIG" lat="38.9224" lon="21.2135">
    <comp name="--.HHE">
      <acc value="0.0699386071" flag="0"/>
      <vel value="0.0368123953" flag="0"/>
      <psa03 value="0.2123635930" flag="0"/>
      <psa10 value="0.0312228890" flag="0"/>
      <psa30 value="0.0040001003" flag="0"/>
    </comp>
    <comp name="--.HHZ">
      <acc value="0.0219378381" flag="0"/>
      <vel value="0.0172929053" flag="0"/>
      <psa03 value="0.0664983312" flag="0"/>
      <psa10 value="0.0287068172" flag="0"/>
      <psa30 value="0.0014481285" flag="0"/>
    </comp>
    <comp name="--.HHN">
      <acc value="0.0508911661" flag="0"/>
      <vel value="0.0239413322" flag="0"/>
      <psa03 value="0.1355891380" flag="0"/>
      <psa10 value="0.0340742448" flag="0"/>
      <psa30 value="0.0020766133" flag="0"/>
    </comp>
  </station>
  <station code="FSK" name="FSK" netid="HP" insttype="40," commtype="DIG" lat="38.4593" lon="20.5623">
    <comp name="--.HHE">
      <acc value="0.0404807205" flag="0"/>
      <vel value="0.0191099307" flag="0"/>
      <psa03 value="0.0545833371" flag="0"/>
      <psa10 value="0.0229074845" flag="0"/>
      <psa30 value="0.0047875540" flag="0"/>
    </comp>
    <comp name="--.HHZ">
      <acc value="0.0116956311" flag="0"/>
      <vel value="0.0100351059" flag="0"/>
      <psa03 value="0.0305840495" flag="0"/>
      <psa10 value="0.0155602711" flag="0"/>
      <psa30 value="0.0019605696" flag="0"/>
    </comp>
    <comp name="--.HHN">
      <acc value="0.0120743183" flag="0"/>
      <vel value="0.0104974138" flag="0"/>
      <psa03 value="0.0364628711" flag="0"/>
      <psa10 value="0.0140792033" flag="0"/>
      <psa30 value="0.0016827563" flag="0"/>
    </comp>
  </station>
  <station code="KSTR" name="KSTR" netid="HP" insttype="Compact," commtype="DIG" lat="39.2492" lon="20.576">
    <comp name="--.HHE">
      <acc value="0.2966496507" flag="0"/>
      <vel value="0.1922455160" flag="0"/>
      <psa03 value="0.4517978229" flag="0"/>
      <psa10 value="0.1562877829" flag="0"/>
      <psa30 value="0.0147167149" flag="0"/>
    </comp>
    <comp name="--.HHZ">
      <acc value="0.1163843743" flag="0"/>
      <vel value="0.0779136432" flag="0"/>
      <psa03 value="0.2664488253" flag="0"/>
      <psa10 value="0.0706503084" flag="0"/>
      <psa30 value="0.0069960029" flag="0"/>
    </comp>
    <comp name="--.HHN">
      <acc value="0.1992541437" flag="0"/>
      <vel value="0.0965007877" flag="0"/>
      <psa03 value="0.3150075576" flag="0"/>
      <psa10 value="0.1000517767" flag="0"/>
      <psa30 value="0.0064710497" flag="0"/>
    </comp>
  </station>
  <station code="PDO" name="PDO" netid="HP" insttype="120s" commtype="DIG" lat="38.5986" lon="21.1833">
    <comp name="--.HHN">
      <acc value="0.0390923787" flag="0"/>
      <vel value="0.0233816680" flag="0"/>
      <psa03 value="0.0661477156" flag="0"/>
      <psa10 value="0.0336904718" flag="0"/>
