<stationlist created="1774005949">
	<station code="SRN" name="SRN" netid="AC" source="Albanian Seismological Network (AC)" insttype="" lat="39.880001" lon="20.0005">
		<comp name="01.HNE" depth="0.0">
			<acc value="0.072975275592153" flag="0"/>
			<vel value="0.102145141710111" flag="0"/>
			<psa03 value="0.20112588610288" flag="0"/>
			<psa10 value="0.0691807503851915" flag="0"/>
			<psa30 value="0.031773661515805" flag="0"/>
		</comp>
		<comp name="01.HNN" depth="0.0">
			<acc value="0.0786425775570671" flag="0"/>
			<vel value="0.0721690659151577" flag="0"/>
			<psa03 value="0.150711275549019" flag="0"/>
			<psa10 value="0.0765876935588253" flag="0"/>
			<psa30 value="0.0464709284709437" flag="0"/>
		</comp>
		<comp name="01.HNZ" depth="0.0">
			<acc value="0.0971237150767082" flag="0"/>
			<vel value="0.0681784920433455" flag="0"/>
			<psa03 value="0.195918937001389" flag="0"/>
			<psa10 value="0.12830438453579" flag="0"/>
			<psa30 value="0.0180922868585454" flag="0"/>
		</comp>
	</station>
	<station code="AGRP" name="AGRP" netid="CL" source="Corinth Riff Laboratory (CRLNET)" insttype="" lat="38.3959" lon="21.72277">
		<comp name="00.HNE" depth="0.0">
			<acc value="0.00949335711271683" flag="0"/>
			<vel value="0.0122084709557896" flag="0"/>
			<psa03 value="0.0216393514695844" flag="0"/>
			<psa10 value="0.0311519880413217" flag="0"/>
			<psa30 value="0.0019261215544334" flag="0"/>
		</comp>
		<comp name="00.HNN" depth="0.0">
			<acc value="0.0071039406376288" flag="0"/>
			<vel value="0.0102630958080276" flag="0"/>
			<psa03 value="0.01636845412142" flag="0"/>
			<psa10 value="0.01893989467507" flag="0"/>
			<psa30 value="0.0018737882959452" flag="0"/>
		</comp>
		<comp name="00.HNZ" depth="0.0">
			<acc value="0.00579174926046311" flag="0"/>
			<vel value="0.00873644006277024" flag="0"/>
			<psa03 value="0.0127408244858435" flag="0"/>
			<psa10 value="0.0171065857273497" flag="0"/>
			<psa30 value="0.00307439699704603" flag="0"/>
		</comp>
	</station>
	<station code="MALA" name="MALA" netid="CL" source="Corinth Riff Laboratory (CRLNET)" insttype="" lat="38.39341" lon="21.87263">
		<comp name="01.HNE" depth="0.0">
			<acc value="0.0390598052598792" flag="0"/>
			<vel value="0.0508831218875712" flag="0"/>
			<psa03 value="0.0617875358293445" flag="0"/>
			<psa10 value="0.07632591121703" flag="0"/>
			<psa30 value="0.010831874225174" flag="0"/>
		</comp>
		<comp name="01.HNN" depth="0.0">
			<acc value="0.0223516931398674" flag="0"/>
			<vel value="0.03482755993741" flag="0"/>
			<psa03 value="0.0349641182845747" flag="0"/>
			<psa10 value="0.0490327281776016" flag="0"/>
			<psa30 value="0.0063471600515365" flag="0"/>
		</comp>
		<comp name="01.HNZ" depth="0.0">
			<acc value="0.0121792742613653" flag="0"/>
			<vel value="0.0146738915768866" flag="0"/>
			<psa03 value="0.0222791581765554" flag="0"/>
			<psa10 value="0.0255107312107425" flag="0"/>
			<psa30 value="0.00307403426468346" flag="0"/>
		</comp>
	</station>
	<station code="ROD3" name="ROD3" netid="CL" source="Corinth Riff Laboratory (CRLNET)" insttype="" lat="38.30811" lon="21.89204">
		<comp name="00.HNE" depth="0.0">
			<acc value="0.0179225301541738" flag="0"/>
			<vel value="0.033235181516527" flag="0"/>
			<psa03 value="0.0541088656967999" flag="0"/>
			<psa10 value="0.027718193069257" flag="0"/>
			<psa30 value="0.0117961156014329" flag="0"/>
		</comp>
		<comp name="00.HNN" depth="0.0">
			<acc value="0.0139067403770543" flag="0"/>
			<vel value="0.0315069992693977" flag="0"/>
			<psa03 value="0.0558678155519286" flag="0"/>
			<psa10 value="0.0225237464626623" flag="0"/>
			<psa30 value="0.00924292729857159" flag="0"/>
		</comp>
		<comp name="00.HNZ" depth="0.0">
			<acc value="0.00802398642088697" flag="0"/>
			<vel value="0.0304575044513915" flag="0"/>
			<psa03 value="0.0176047703963057" flag="0"/>
			<psa10 value="0.0113616682797634" flag="0"/>
			<psa30 value="0.00870628508199178" flag="0"/>
		</comp>
	</station>
	<station code="AGR3" name="AGR3" netid="HI" source="ITSAK Strong Motion Network" insttype="" lat="38.5893" lon="21.4162">
		<comp name="--.HNE" depth="0.0">
			<acc value="0.0443245567831709" flag="0"/>
			<vel value="0.0461119146908495" flag="0"/>
			<psa03 value="0.116889920466898" flag="0"/>
			<psa10 value="0.0703801398388565" flag="0"/>
			<psa30 value="0.0229490569290601" flag="0"/>
		</comp>
		<comp name="--.HNN" depth="0.0">
			<acc value="0.0379774412758471" flag="0"/>
			<vel value="0.0459506771907844" flag="0"/>
			<psa03 value="0.0953403470800879" flag="0"/>
			<psa10 value="0.109317694260741" flag="0"/>
			<psa30 value="0.0118981815294664" flag="0"/>
		</comp>
		<comp name="--.HNZ" depth="0.0">
			<acc value="0.0211741867712922" flag="0"/>
			<vel value="0.0256288522875815" flag="0"/>
			<psa03 value="0.0889133067368741" flag="0"/>
			<psa10 value="0.0506798147890061" flag="0"/>
			<psa30 value="0.00613749532894428" flag="0"/>
		</comp>
	</station>
	<station code="AIA1" name="AIA1" netid="HI" source="ITSAK Strong Motion Network" insttype="" lat="40.1641" lon="21.8202">
		<comp name="--.HNE" depth="0.0">
			<acc value="0.0114096742969827" flag="0"/>
			<vel value="0.00883591473995856" flag="0"/>
			<psa03 value="0.0310700217781257" flag="0"/>
			<psa10 value="0.0109447184713848" flag="0"/>
			<psa30 value="0.00201819057022051" flag="0"/>
		</comp>
		<comp name="--.HNN" depth="0.0">
			<acc value="0.0124165891609108" flag="0"/>
			<vel value="0.0107152355964895" flag="0"/>
			<psa03 value="0.0285835263308387" flag="0"/>
			<psa10 value="0.0143254877432571" flag="0"/>
			<psa30 value="0.00295977857080447" flag="0"/>
		</comp>
		<comp name="--.HNZ" depth="0.0">
			<acc value="0.00503886831449151" flag="0"/>
			<vel value="0.00593331886409396" flag="0"/>
			<psa03 value="0.0110813408552806" flag="0"/>
			<psa10 value="0.00907873079635916" flag="0"/>
			<psa30 value="0.00126410530327243" flag="0"/>
		</comp>
	</station>
	<station code="AIG2" name="AIG2" netid="HI" source="ITSAK Strong Motion Network" insttype="" lat="38.2417" lon="22.0726">
		<comp name="--.HNE" depth="0.0">
			<acc value="0.00572820747261252" flag="0"/>
			<vel value="0.0099892898314609" flag="0"/>
			<psa03 value="0.0142557529674205" flag="0"/>
			<psa10 value="0.00986579824821512" flag="0"/>
			<psa30 value="0.00304127563625176" flag="0"/>
		</comp>
		<comp name="--.HNN" depth="0.0">
			<acc value="0.00713678663157275" flag="0"/>
			<vel value="0.00919077374432276" flag="0"/>
			<psa03 value="0.0140736159017338" flag="0"/>
			<psa10 value="0.00973478331911905" flag="0"/>
			<psa30 value="0.00425824417111129" flag="0"/>
		</comp>
		<comp name="--.HNZ" depth="0.0">
			<acc value="0.00436487397469385" flag="0"/>
			<vel value="0.00430299052761999" flag="0"/>
			<psa03 value="0.00757342292605875" flag="0"/>
			<psa10 value="0.00997350257059789" flag="0"/>
			<psa30 value="0.0022554629550182" flag="0"/>
		</comp>
	</station>
	<station code="AKR1" name="AKR1" netid="HI" source="ITSAK Strong Motion Network" insttype="" lat="38.153583" lon="22.31326">
		<comp name="--.HNE" depth="0.0">
			<acc value="0.00634391453521257" flag="0"/>
			<vel value="0.00663737844558451" flag="0"/>
			<psa03 value="0.0138377513185294" flag="0"/>
			<psa10 value="0.0132994028951717" flag="0"/>
			<psa30 value="0.00172602121543465" flag="0"/>
		</comp>
		<comp name="--.HNN" depth="0.0">
			<acc value="0.00565252280989037" flag="0"/>
			<vel value="0.00678214373255355" flag="0"/>
			<psa03 value="0.0138855227123164" flag="0"/>
			<psa10 value="0.0134552097791131" flag="0"/>
			<psa30 value="0.00181901966779237" flag="0"/>
		</comp>
		<comp name="--.HNZ" depth="0.0">
			<acc value="0.00334918879486926" flag="0"/>
			<vel value="0.00451397208199678" flag="0"/>
			<psa03 value="0.0084697798313463" flag="0"/>
			<psa10 value="0.00768191935820657" flag="0"/>
			<psa30 value="0.000805485599051152" flag="0"/>
		</comp>
	</station>
	<station code="ARG2" name="ARG2" netid="HI" source="ITSAK Strong Motion Network" insttype="" lat="38.1783" lon="20.4878">
		<comp name="--.HNE" depth="0.0">
			<acc value="0.0274752485428469" flag="0"/>
			<vel value="0.0161483130288473" flag="0"/>
			<psa03 value="0.091164664211591" flag="0"/>
			<psa10 value="0.0178162021109525" flag="0"/>
			<psa30 value="0.00306789552468873" flag="0"/>
		</comp>
		<comp name="--.HNN" depth="0.0">
			<acc value="0.0270273013800515" flag="0"/>
			<vel value="0.0192758129646098" flag="0"/>
			<psa03 value="0.0562459603938352" flag="0"/>
			<psa10 value="0.0331295146677555" flag="0"/>
			<psa30 value="0.00299239198128286" flag="0"/>
		</comp>
		<comp name="--.HNZ" depth="0.0">
			<acc value="0.0210781489729357" flag="0"/>
			<vel value="0.0149336666477676" flag="0"/>
			<psa03 value="0.0691352309114164" flag="0"/>
			<psa10 value="0.0158346045898419" flag="0"/>
			<psa30 value="0.0027841402689623" flag="0"/>
		</comp>
	</station>
	<station code="ART2" name="ART2" netid="HI" source="ITSAK Strong Motion Network" insttype="" lat="39.1474" lon="20.9937">
		<comp name="--.HNE" depth="0.0">
			<acc value="0.0810278844420553" flag="0"/>
			<vel value="0.0399567147682148" flag="0"/>
			<psa03 value="0.260289805422173" flag="0"/>
			<psa10 value="0.0388917563879898" flag="0"/>
			<psa30 value="0.00517324436871712" flag="0"/>
		</comp>
		<comp name="--.HNN" depth="0.0">
			<acc value="0.0917679181916397" flag="0"/>
			<vel value="0.0373779634219465" flag="0"/>
			<psa03 value="0.256558891600776" flag="0"/>
			<psa10 value="0.0360250477326105" flag="0"/>
			<psa30 value="0.00514164894234186" flag="0"/>
		</comp>
		<comp name="--.HNZ" depth="0.0">
			<acc value="0.0610730485057678" flag="0"/>
			<vel value="0.0370937384546601" flag="0"/>
			<psa03 value="0.199591846980316" flag="0"/>
			<psa10 value="0.0252810284940649" flag="0"/>
			<psa30 value="0.00276457501452688" flag="0"/>
		</comp>
	</station>
	<station code="AST1" name="AST1" netid="HI" source="ITSAK Strong Motion Network" insttype="" lat="38.5416" lon="21.0895">
		<comp name="--.HNE" depth="0.0">
			<acc value="0.0273545491085579" flag="0"/>
			<vel value="0.0196444389117152" flag="0"/>
			<psa03 value="0.0530300442301723" flag="0"/>
			<psa10 value="0.0285304725037831" flag="0"/>
			<psa30 value="0.00373285144975533" flag="0"/>
		</comp>
		<comp name="--.HNN" depth="0.0">
			<acc value="0.0266412651768373" flag="0"/>
			<vel value="0.0218196944753721" flag="0"/>
			<psa03 value="0.069644519857643" flag="0"/>
			<psa10 value="0.042666497696076" flag="0"/>
			<psa30 value="0.00208058262005427" flag="0"/>
		</comp>
		<comp name="--.HNZ" depth="0.0">
			<acc value="0.0134531249377732" flag="0"/>
			<vel value="0.015361694040177" flag="0"/>
			<psa03 value="0.0415967113071447" flag="0"/>
			<psa10 value="0.031470674777754" flag="0"/>
			<psa30 value="0.00246466098002733" flag="0"/>
		</comp>
	</station>
	<station code="FRS1" name="FRS1" netid="HI" source="ITSAK Strong Motion Network" insttype="" lat="39.2934" lon="22.3844">
		<comp name="--.HNE" depth="0.0">
			<acc value="0.00740928418054792" flag="0"/>
			<vel value="0.00792450591943737" flag="0"/>
			<psa03 value="0.0147989048339827" flag="0"/>
			<psa10 value="0.0085157172494748" flag="0"/>
			<psa30 value="0.00189163447816718" flag="0"/>
		</comp>
		<comp name="--.HNN" depth="0.0">
			<acc value="0.00974715722377346" flag="0"/>
			<vel value="0.0128243079475334" flag="0"/>
			<psa03 value="0.0169145866541867" flag="0"/>
			<psa10 value="0.0172311952321178" flag="0"/>
			<psa30 value="0.00292483625604761" flag="0"/>
		</comp>
		<comp name="--.HNZ" depth="0.0">
			<acc value="0.00632741051198508" flag="0"/>
			<vel value="0.00612606499095838" flag="0"/>
			<psa03 value="0.0186687966119872" flag="0"/>
			<psa10 value="0.00974071527458199" flag="0"/>
			<psa30 value="0.00178483511156662" flag="0"/>
		</comp>
	</station>
	<station code="GRE3" name="GRE3" netid="HI" source="ITSAK Strong Motion Network" insttype="" lat="40.08481" lon="21.43829">
		<comp name="--.HNE" depth="0.0">
			<acc value="0.0212588545824811" flag="0"/>
			<vel value="0.0263203906527005" flag="0"/>
			<psa03 value="0.052807654497944" flag="0"/>
			<psa10 value="0.0478171038984591" flag="0"/>
			<psa30 value="0.00602783598121734" flag="0"/>
		</comp>
		<comp name="--.HNN" depth="0.0">
			<acc value="0.0251672121305657" flag="0"/>
			<vel value="0.0261949641945737" flag="0"/>
			<psa03 value="0.0564895181950109" flag="0"/>
			<psa10 value="0.0548192152539718" flag="0"/>
			<psa30 value="0.00446668839618488" flag="0"/>
		</comp>
		<comp name="--.HNZ" depth="0.0">
			<acc value="0.0138825984989829" flag="0"/>
			<vel value="0.0154832923031445" flag="0"/>
			<psa03 value="0.0245494700319071" flag="0"/>
			<psa10 value="0.0229103726997531" flag="0"/>
			<psa30 value="0.00371961973988615" flag="0"/>
		</comp>
	</station>
	<station code="JAN2" name="JAN2" netid="HI" source="ITSAK Strong Motion Network" insttype="" lat="39.664" lon="20.85222">
		<comp name="--.HNE" depth="0.0">
			<acc value="1.65503144633286" flag="0"/>
			<vel value="0.676124934696397" flag="0"/>
			<psa03 value="3.33017260759161" flag="0"/>
			<psa10 value="0.398900605207392" flag="0"/>
			<psa30 value="0.0306401697608725" flag="0"/>
		</comp>
		<comp name="--.HNN" depth="0.0">
			<acc value="1.41410188535549" flag="0"/>
			<vel value="0.534293273563224" flag="0"/>
			<psa03 value="3.55156527376921" flag="0"/>
			<psa10 value="0.306451430903312" flag="0"/>
			<psa30 value="0.0273080856933227" flag="0"/>
		</comp>
		<comp name="--.HNZ" depth="0.0">
			<acc value="1.43373933513754" flag="0"/>
			<vel value="0.350782219700447" flag="0"/>
			<psa03 value="1.09823850291094" flag="0"/>
			<psa10 value="0.147130181652457" flag="0"/>
			<psa30 value="0.0175106166590827" flag="0"/>
		</comp>
	</station>
	<station code="JAN3" name="JAN3" netid="HI" source="ITSAK Strong Motion Network" insttype="" lat="39.684" lon="20.8379">
		<comp name="--.HNE" depth="0.0">
			<acc value="3.69604461183318" flag="0"/>
			<vel value="1.38886836788769" flag="0"/>
			<psa03 value="5.40444668473588" flag="0"/>
			<psa10 value="0.453200332297823" flag="0"/>
			<psa30 value="0.0439454245020336" flag="0"/>
		</comp>
		<comp name="--.HNN" depth="0.0">
			<acc value="1.6279692028718" flag="0"/>
			<vel value="0.59365735568142" flag="0"/>
			<psa03 value="1.88406714353507" flag="0"/>
			<psa10 value="0.433243040225168" flag="0"/>
			<psa30 value="0.0361969312023801" flag="0"/>
		</comp>
		<comp name="--.HNZ" depth="0.0">
			<acc value="2.37214708164491" flag="0"/>
			<vel value="0.632257832453584" flag="0"/>
			<psa03 value="2.07498245740432" flag="0"/>
			<psa10 value="0.158960415347379" flag="0"/>
			<psa30 value="0.0187228502969452" flag="0"/>
		</comp>
	</station>
	<station code="KAR2" name="KAR2" netid="HI" source="ITSAK Strong Motion Network" insttype="" lat="39.365759" lon="21.91933">
		<comp name="--.HNE" depth="0.0">
			<acc value="0.0190399721266552" flag="0"/>
			<vel value="0.00212058327291463" flag="0"/>
			<psa03 value="0.00567702972119094" flag="0"/>
			<psa10 value="0.00020114647926395" flag="0"/>
			<psa30 value="1.95456714324114e-05" flag="0"/>
		</comp>
		<comp name="--.HNN" depth="0.0">
			<acc value="0.00898261553911756" flag="0"/>
			<vel value="0.00189288014593402" flag="0"/>
			<psa03 value="0.00613991520279071" flag="0"/>
			<psa10 value="0.000201668598812746" flag="0"/>
			<psa30 value="2.15465201246509e-05" flag="0"/>
		</comp>
		<comp name="--.HNZ" depth="0.0">
			<acc value="0.0597544915797788" flag="0"/>
			<vel value="0.0060656532882569" flag="0"/>
			<psa03 value="0.00366663677689988" flag="0"/>
			<psa10 value="0.00031316701530907" flag="0"/>
			<psa30 value="3.45605088651398e-05" flag="0"/>
		</comp>
	</station>
	<station code="KAS2" name="KAS2" netid="HI" source="ITSAK Strong Motion Network" insttype="" lat="40.504878" lon="21.280507">
		<comp name="--.HNE" depth="0.0">
			<acc value="0.0114753980633957" flag="0"/>
			<vel value="0.0137631522721263" flag="0"/>
			<psa03 value="0.0193873311905433" flag="0"/>
			<psa10 value="0.0307257929329874" flag="0"/>
			<psa30 value="0.00311763506968947" flag="0"/>
		</comp>
		<comp name="--.HNN" depth="0.0">
			<acc value="0.00952212945958643" flag="0"/>
			<vel value="0.00950933015188937" flag="0"/>
			<psa03 value="0.0159987772883941" flag="0"/>
			<psa10 value="0.0182998810273069" flag="0"/>
			<psa30 value="0.00174648163333692" flag="0"/>
		</comp>
		<comp name="--.HNZ" depth="0.0">
			<acc value="0.00511281353680251" flag="0"/>
			<vel value="0.00649887610155535" flag="0"/>
			<psa03 value="0.011678772359269" flag="0"/>
			<psa10 value="0.0128373947894021" flag="0"/>
			<psa30 value="0.00158168321625058" flag="0"/>
		</comp>
	</station>
	<station code="KLV1" name="KLV1" netid="HI" source="ITSAK Strong Motion Network" insttype="" lat="38.03256" lon="22.10797">
		<comp name="--.HNE" depth="0.0">
			<acc value="0.00786956775499481" flag="0"/>
			<vel value="0.00656827380352931" flag="0"/>
			<psa03 value="0.0154111029411861" flag="0"/>
			<psa10 value="0.0160477649606703" flag="0"/>
			<psa30 value="0.00155433734222063" flag="0"/>
		</comp>
		<comp name="--.HNN" depth="0.0">
			<acc value="0.0066003457490748" flag="0"/>
			<vel value="0.00736195577699062" flag="0"/>
			<psa03 value="0.0181453335497117" flag="0"/>
			<psa10 value="0.00960383964474326" flag="0"/>
			<psa30 value="0.00191474038382004" flag="0"/>
		</comp>
		<comp name="--.HNZ" depth="0.0">
			<acc value="0.00615726889733423" flag="0"/>
			<vel value="0.00628981115957353" flag="0"/>
			<psa03 value="0.00869593804238452" flag="0"/>
			<psa10 value="0.0154639937886952" flag="0"/>
			<psa30 value="0.00191288921952282" flag="0"/>
		</comp>
	</station>
	<station code="KMV1" name="KMV1" netid="HI" source="ITSAK Strong Motion Network" insttype="" lat="38.7794" lon="22.7846">
		<comp name="--.HNE" depth="0.0">
			<acc value="0.0100371167904819" flag="0"/>
			<vel value="0.0156433237105358" flag="0"/>
			<psa03 value="0.0274083365011134" flag="0"/>
			<psa10 value="0.0312983546123887" flag="0"/>
			<psa30 value="0.00319550189465114" flag="0"/>
		</comp>
		<comp name="--.HNN" depth="0.0">
			<acc value="0.0132578472695389" flag="0"/>
			<vel value="0.0123035823283651" flag="0"/>
			<psa03 value="0.0284240365987601" flag="0"/>
			<psa10 value="0.0286856859109095" flag="0"/>
			<psa30 value="0.00575116348635572" flag="0"/>
		</comp>
		<comp name="--.HNZ" depth="0.0">
			<acc value="0.00505220898858849" flag="0"/>
			<vel value="0.00655071260665975" flag="0"/>
			<psa03 value="0.0108171137161127" flag="0"/>
			<psa10 value="0.00690628735139273" flag="0"/>
			<psa30 value="0.0018317336350303" flag="0"/>
		</comp>
	</station>
	<station code="KNS1" name="KNS1" netid="HI" source="ITSAK Strong Motion Network" insttype="" lat="40.048" lon="20.7524">
		<comp name="--.HNE" depth="0.0">
			<acc value="0.130554334854815" flag="0"/>
			<vel value="0.0931713909482759" flag="0"/>
			<psa03 value="0.416346997611933" flag="0"/>
			<psa10 value="0.108739683470363" flag="0"/>
			<psa30 value="0.0164919841796801" flag="0"/>
		</comp>
		<comp name="--.HNN" depth="0.0">
			<acc value="0.13407143193772" flag="0"/>
			<vel value="0.067180151907575" flag="0"/>
			<psa03 value="0.297027843303548" flag="0"/>
			<psa10 value="0.0587042626192929" flag="0"/>
			<psa30 value="0.00590599082624047" flag="0"/>
		</comp>
		<comp name="--.HNZ" depth="0.0">
			<acc value="0.0945218877923117" flag="0"/>
			<vel value="0.0639890574129518" flag="0"/>
			<psa03 value="0.196639651411849" flag="0"/>
			<psa10 value="0.0442922753958697" flag="0"/>
			<psa30 value="0.00555941911756566" flag="0"/>
		</comp>
	</station>
	<station code="KOZ2" name="KOZ2" netid="HI" source="ITSAK Strong Motion Network" insttype="" lat="40.295728" lon="21.788123">
		<comp name="--.HNE" depth="0.0">
			<acc value="0.0138185692620153" flag="0"/>
			<vel value="0.00891988905014486" flag="0"/>
			<psa03 value="0.0473567204836506" flag="0"/>
