<?xml version="1.0" encoding="UTF-8" standalone="yes"?>
<!DOCTYPE earthquake SYSTEM "stationlist.dtd">
<stationlist created="" xmlns="ch.ethz.sed.shakemap.usgs.xml">
  <station code="KEK" name="KEK" netid="MN" insttype="" commtype="DIG" lat="39.7127" lon="19.7962">
    <comp name="--.HHZ">
      <acc value="0.0311435875" flag="0"/>
      <vel value="0.0248067051" flag="0"/>
      <psa03 value="0.0592085453" flag="0"/>
      <psa10 value="0.0272566904" flag="0"/>
      <psa30 value="0.0037946682" flag="0"/>
    </comp>
    <comp name="--.HHN">
      <acc value="0.0406550935" flag="0"/>
      <vel value="0.0400115574" flag="0"/>
      <psa03 value="0.0838898770" flag="0"/>
      <psa10 value="0.0382777792" flag="0"/>
      <psa30 value="0.0144167871" flag="0"/>
    </comp>
    <comp name="--.HHE">
      <acc value="0.0453908044" flag="0"/>
      <vel value="0.0419431633" flag="0"/>
      <psa03 value="0.1387260591" flag="0"/>
      <psa10 value="0.0351668347" flag="0"/>
      <psa30 value="0.0050175299" flag="0"/>
    </comp>
  </station>
  <station code="THL" name="THL" netid="MN" insttype="" commtype="DIG" lat="39.5647" lon="22.0144">
    <comp name="--.HHE">
      <acc value="0.0104905416" flag="0"/>
      <vel value="0.0082107492" flag="0"/>
      <psa03 value="0.0285234545" flag="0"/>
      <psa10 value="0.0096033845" flag="0"/>
      <psa30 value="0.0013917250" flag="0"/>
    </comp>
    <comp name="--.HHN">
      <acc value="0.0068175374" flag="0"/>
      <vel value="0.0079423803" flag="0"/>
      <psa03 value="0.0181948123" flag="0"/>
      <psa10 value="0.0116957745" flag="0"/>
      <psa30 value="0.0029166622" flag="0"/>
    </comp>
    <comp name="--.HHZ">
      <acc value="0.0061319466" flag="0"/>
      <vel value="0.0058178008" flag="0"/>
      <psa03 value="0.0136710075" flag="0"/>
      <psa10 value="0.0103739733" flag="0"/>
      <psa30 value="0.0014041281" flag="0"/>
    </comp>
  </station>
</stationlist>
