<stationlist xmlns:esm="https://esm-db.eu/esmws/shakemap/1/" created="1782266065">
	<station code="AGR3" name="AGR3" netid="HI" source="ITSAK Strong Motion Network" insttype="" lat="38.5893" lon="21.4162" esm:processing="manual (Paolucci et al 2011)" esm:quality="good">
		<comp name="--.HNE" depth="0.0">
			<acc value="0.0442705485509576" flag="0"/>
			<vel value="0.0458753703263723" flag="0"/>
			<psa03 value="0.11699030211669" flag="0"/>
			<psa10 value="0.0703553956996787" flag="0"/>
			<psa30 value="0.0228227902311777" flag="0"/>
		</comp>
		<comp name="--.HNN" depth="0.0">
			<acc value="0.0379879907127278" flag="0"/>
			<vel value="0.0456703922621348" flag="0"/>
			<psa03 value="0.0953579003262376" flag="0"/>
			<psa10 value="0.109286409688292" flag="0"/>
			<psa30 value="0.011828232729035" flag="0"/>
		</comp>
		<comp name="--.HNZ" depth="0.0">
			<acc value="0.0212493192445786" flag="0"/>
			<vel value="0.0253251299446818" flag="0"/>
			<psa03 value="0.088946350592534" flag="0"/>
			<psa10 value="0.0506871202729586" flag="0"/>
			<psa30 value="0.00607797930296631" flag="0"/>
		</comp>
	</station>
	<station code="AIA1" name="AIA1" netid="HI" source="ITSAK Strong Motion Network" insttype="" lat="40.1641" lon="21.8202" esm:processing="manual (Paolucci et al 2011)" esm:quality="good">
		<comp name="--.HNE" depth="0.0">
			<acc value="0.0110494450286762" flag="0"/>
			<vel value="0.00863606350771326" flag="0"/>
			<psa03 value="0.0308965858096773" flag="0"/>
			<psa10 value="0.0109380889697129" flag="0"/>
			<psa30 value="0.00202044759473731" flag="0"/>
		</comp>
		<comp name="--.HNN" depth="0.0">
			<acc value="0.0118309906984717" flag="0"/>
			<vel value="0.0107045058527515" flag="0"/>
			<psa03 value="0.028353292328966" flag="0"/>
			<psa10 value="0.0143249327064887" flag="0"/>
			<psa30 value="0.002949981671808" flag="0"/>
		</comp>
		<comp name="--.HNZ" depth="0.0">
			<acc value="0.00499020124991957" flag="0"/>
			<vel value="0.00590633473409295" flag="0"/>
			<psa03 value="0.0109991218670095" flag="0"/>
			<psa10 value="0.00908815892092614" flag="0"/>
			<psa30 value="0.00126048902204488" flag="0"/>
		</comp>
	</station>
	<station code="ARG2" name="ARG2" netid="HI" source="ITSAK Strong Motion Network" insttype="" lat="38.1783" lon="20.4878" esm:processing="automatic (Paolucci et al 2011)" esm:quality="best">
		<comp name="--.HNE" depth="0.0">
			<acc value="0.0274752485428469" flag="0"/>
			<vel value="0.0161483130288473" flag="0"/>
			<psa03 value="0.091164664211591" flag="0"/>
			<psa10 value="0.0178162021109525" flag="0"/>
			<psa30 value="0.00306789552468873" flag="0"/>
		</comp>
		<comp name="--.HNN" depth="0.0">
			<acc value="0.0270273013800515" flag="0"/>
			<vel value="0.0192758129646098" flag="0"/>
			<psa03 value="0.0562459603938352" flag="0"/>
			<psa10 value="0.0331295146677555" flag="0"/>
			<psa30 value="0.00299239198128286" flag="0"/>
		</comp>
		<comp name="--.HNZ" depth="0.0">
			<acc value="0.0210781489729357" flag="0"/>
			<vel value="0.0149336666477676" flag="0"/>
			<psa03 value="0.0691352309114164" flag="0"/>
			<psa10 value="0.0158346045898419" flag="0"/>
			<psa30 value="0.0027841402689623" flag="0"/>
		</comp>
	</station>
	<station code="ART2" name="ART2" netid="HI" source="ITSAK Strong Motion Network" insttype="" lat="39.1474" lon="20.9937" esm:processing="automatic (Paolucci et al 2011)" esm:quality="best">
		<comp name="--.HNE" depth="0.0">
			<acc value="0.0810278844420553" flag="0"/>
			<vel value="0.0399567147682148" flag="0"/>
			<psa03 value="0.260289805422173" flag="0"/>
			<psa10 value="0.0388917563879898" flag="0"/>
			<psa30 value="0.00517324436871712" flag="0"/>
		</comp>
		<comp name="--.HNN" depth="0.0">
			<acc value="0.0917679181916397" flag="0"/>
			<vel value="0.0373779634219465" flag="0"/>
			<psa03 value="0.256558891600776" flag="0"/>
			<psa10 value="0.0360250477326105" flag="0"/>
			<psa30 value="0.00514164894234186" flag="0"/>
		</comp>
		<comp name="--.HNZ" depth="0.0">
			<acc value="0.0610730485057678" flag="0"/>
			<vel value="0.0370937384546601" flag="0"/>
			<psa03 value="0.199591846980316" flag="0"/>
			<psa10 value="0.0252810284940649" flag="0"/>
			<psa30 value="0.00276457501452688" flag="0"/>
		</comp>
	</station>
	<station code="AST1" name="AST1" netid="HI" source="ITSAK Strong Motion Network" insttype="" lat="38.5416" lon="21.0895" esm:processing="manual (Paolucci et al 2011)" esm:quality="good">
		<comp name="--.HNE" depth="0.0">
			<acc value="0.0273441939071187" flag="0"/>
			<vel value="0.0197373183739598" flag="0"/>
			<psa03 value="0.0530225228985876" flag="0"/>
			<psa10 value="0.0285313538121654" flag="0"/>
			<psa30 value="0.00369718408696759" flag="0"/>
		</comp>
		<comp name="--.HNN" depth="0.0">
			<acc value="0.0266427645134994" flag="0"/>
			<vel value="0.0216943600178989" flag="0"/>
			<psa03 value="0.0696789856825014" flag="0"/>
			<psa10 value="0.0426796498173395" flag="0"/>
			<psa30 value="0.00209403601127542" flag="0"/>
		</comp>
		<comp name="--.HNZ" depth="0.0">
			<acc value="0.0134483110946946" flag="0"/>
			<vel value="0.0154338440784057" flag="0"/>
			<psa03 value="0.0416149807465721" flag="0"/>
			<psa10 value="0.0314963902312765" flag="0"/>
			<psa30 value="0.00242522503425613" flag="0"/>
		</comp>
	</station>
	<station code="GRE3" name="GRE3" netid="HI" source="ITSAK Strong Motion Network" insttype="" lat="40.08481" lon="21.43829" esm:processing="manual (Paolucci et al 2011)" esm:quality="good">
		<comp name="--.HNE" depth="0.0">
			<acc value="0.0212842504447087" flag="0"/>
			<vel value="0.0271394671707344" flag="0"/>
			<psa03 value="0.0527824913726771" flag="0"/>
			<psa10 value="0.0478344900502063" flag="0"/>
			<psa30 value="0.00596570978232823" flag="0"/>
		</comp>
		<comp name="--.HNN" depth="0.0">
			<acc value="0.0251326875641656" flag="0"/>
			<vel value="0.026749735589198" flag="0"/>
			<psa03 value="0.0564577973436602" flag="0"/>
			<psa10 value="0.0547896557958028" flag="0"/>
			<psa30 value="0.00441661966271034" flag="0"/>
		</comp>
		<comp name="--.HNZ" depth="0.0">
			<acc value="0.013874208659002" flag="0"/>
			<vel value="0.0157168002707462" flag="0"/>
			<psa03 value="0.0245656742303557" flag="0"/>
			<psa10 value="0.0229140910710769" flag="0"/>
			<psa30 value="0.00370895069978127" flag="0"/>
		</comp>
	</station>
	<station code="JAN2" name="JAN2" netid="HI" source="ITSAK Strong Motion Network" insttype="" lat="39.664" lon="20.85222" esm:processing="automatic (Paolucci et al 2011)" esm:quality="best">
		<comp name="--.HNE" depth="0.0">
			<acc value="1.65503144633286" flag="0"/>
			<vel value="0.676124934696397" flag="0"/>
			<psa03 value="3.33017260759161" flag="0"/>
			<psa10 value="0.398900605207392" flag="0"/>
			<psa30 value="0.0306401697608725" flag="0"/>
		</comp>
		<comp name="--.HNN" depth="0.0">
			<acc value="1.41410188535549" flag="0"/>
			<vel value="0.534293273563224" flag="0"/>
			<psa03 value="3.55156527376921" flag="0"/>
			<psa10 value="0.306451430903312" flag="0"/>
			<psa30 value="0.0273080856933227" flag="0"/>
		</comp>
		<comp name="--.HNZ" depth="0.0">
			<acc value="1.43373933513754" flag="0"/>
			<vel value="0.350782219700447" flag="0"/>
			<psa03 value="1.09823850291094" flag="0"/>
			<psa10 value="0.147130181652457" flag="0"/>
			<psa30 value="0.0175106166590827" flag="0"/>
		</comp>
	</station>
	<station code="JAN3" name="JAN3" netid="HI" source="ITSAK Strong Motion Network" insttype="" lat="39.684" lon="20.8379" esm:processing="manual (Paolucci et al 2011)" esm:quality="good">
		<comp name="--.HNE" depth="0.0">
			<acc value="3.69751875782419" flag="0"/>
			<vel value="1.3795548752916" flag="0"/>
			<psa03 value="5.40521140206132" flag="0"/>
			<psa10 value="0.453255235934919" flag="0"/>
			<psa30 value="0.0413710639632822" flag="0"/>
		</comp>
		<comp name="--.HNN" depth="0.0">
			<acc value="1.6300404105865" flag="0"/>
			<vel value="0.594428071446042" flag="0"/>
			<psa03 value="1.88380479282229" flag="0"/>
			<psa10 value="0.432115565535503" flag="0"/>
			<psa30 value="0.033567863706228" flag="0"/>
		</comp>
		<comp name="--.HNZ" depth="0.0">
			<acc value="2.37783435003881" flag="0"/>
			<vel value="0.633601518630342" flag="0"/>
			<psa03 value="2.07631721249196" flag="0"/>
			<psa10 value="0.158583815399481" flag="0"/>
			<psa30 value="0.0163378289676539" flag="0"/>
		</comp>
	</station>
	<station code="KNS1" name="KNS1" netid="HI" source="ITSAK Strong Motion Network" insttype="" lat="40.048" lon="20.7524" esm:processing="automatic (Paolucci et al 2011)" esm:quality="best">
		<comp name="--.HNE" depth="0.0">
			<acc value="0.130554334854815" flag="0"/>
			<vel value="0.0931713909482759" flag="0"/>
			<psa03 value="0.416346997611933" flag="0"/>
			<psa10 value="0.108739683470363" flag="0"/>
			<psa30 value="0.0164919841796801" flag="0"/>
		</comp>
		<comp name="--.HNN" depth="0.0">
			<acc value="0.13407143193772" flag="0"/>
			<vel value="0.067180151907575" flag="0"/>
			<psa03 value="0.297027843303548" flag="0"/>
			<psa10 value="0.0587042626192929" flag="0"/>
			<psa30 value="0.00590599082624047" flag="0"/>
		</comp>
		<comp name="--.HNZ" depth="0.0">
			<acc value="0.0945218877923117" flag="0"/>
			<vel value="0.0639890574129518" flag="0"/>
			<psa03 value="0.196639651411849" flag="0"/>
			<psa10 value="0.0442922753958697" flag="0"/>
			<psa30 value="0.00555941911756566" flag="0"/>
		</comp>
	</station>
	<station code="KRI1" name="KRI1" netid="HI" source="ITSAK Strong Motion Network" insttype="" lat="37.6621" lon="20.8172" esm:processing="automatic (Paolucci et al 2011)" esm:quality="best">
		<comp name="--.HNE" depth="0.0">
			<acc value="0.00656703126061116" flag="0"/>
			<vel value="0.00824876879101376" flag="0"/>
			<psa03 value="0.019691195070034" flag="0"/>
			<psa10 value="0.0106118820476052" flag="0"/>
			<psa30 value="0.00245776427315435" flag="0"/>
		</comp>
		<comp name="--.HNN" depth="0.0">
			<acc value="0.00570735437493933" flag="0"/>
			<vel value="0.00709875323528998" flag="0"/>
			<psa03 value="0.0187275062303779" flag="0"/>
			<psa10 value="0.00852139981341678" flag="0"/>
			<psa30 value="0.001426019258444" flag="0"/>
		</comp>
		<comp name="--.HNZ" depth="0.0">
			<acc value="0.00358953412250442" flag="0"/>
			<vel value="0.00302091179828538" flag="0"/>
			<psa03 value="0.0103159802580639" flag="0"/>
			<psa10 value="0.00592839413326628" flag="0"/>
			<psa30 value="0.00106591175725603" flag="0"/>
		</comp>
	</station>
	<station code="KRK1" name="KRK1" netid="HI" source="ITSAK Strong Motion Network" insttype="" lat="39.618861" lon="19.9202" esm:processing="automatic (Paolucci et al 2011)" esm:quality="best">
		<comp name="--.HNE" depth="0.0">
			<acc value="0.14349860162128" flag="0"/>
			<vel value="0.0710063073125665" flag="0"/>
			<psa03 value="0.260055331556097" flag="0"/>
			<psa10 value="0.0497768937249169" flag="0"/>
			<psa30 value="0.00823003103249834" flag="0"/>
		</comp>
		<comp name="--.HNN" depth="0.0">
			<acc value="0.134166798652968" flag="0"/>
			<vel value="0.0718949623659768" flag="0"/>
			<psa03 value="0.192620760180028" flag="0"/>
			<psa10 value="0.0696906116609987" flag="0"/>
			<psa30 value="0.00836555417690821" flag="0"/>
		</comp>
		<comp name="--.HNZ" depth="0.0">
			<acc value="0.0561516111536346" flag="0"/>
			<vel value="0.0210556181626932" flag="0"/>
			<psa03 value="0.108783654299882" flag="0"/>
			<psa10 value="0.0194464069790243" flag="0"/>
			<psa30 value="0.0043876189915582" flag="0"/>
		</comp>
	</station>
	<station code="LEF2" name="LEF2" netid="HI" source="ITSAK Strong Motion Network" insttype="" lat="38.830093" lon="20.708346" esm:processing="automatic (Paolucci et al 2011)" esm:quality="best">
		<comp name="--.HNE" depth="0.0">
			<acc value="0.1152122357971" flag="0"/>
			<vel value="0.101845831462623" flag="0"/>
			<psa03 value="0.333253930604044" flag="0"/>
			<psa10 value="0.165502783747178" flag="0"/>
			<psa30 value="0.0235464115008688" flag="0"/>
		</comp>
		<comp name="--.HNN" depth="0.0">
			<acc value="0.118981934011508" flag="0"/>
			<vel value="0.110030123098846" flag="0"/>
			<psa03 value="0.303352053918131" flag="0"/>
			<psa10 value="0.115332747728513" flag="0"/>
			<psa30 value="0.0115672987767746" flag="0"/>
		</comp>
		<comp name="--.HNZ" depth="0.0">
			<acc value="0.0506180962945388" flag="0"/>
			<vel value="0.0603399426289038" flag="0"/>
			<psa03 value="0.165334296335714" flag="0"/>
			<psa10 value="0.126213651034957" flag="0"/>
			<psa30 value="0.00642346552306617" flag="0"/>
		</comp>
	</station>
	<station code="LMS2" name="LMS2" netid="HI" source="ITSAK Strong Motion Network" insttype="" lat="40.834985" lon="21.141815" esm:processing="manual (Paolucci et al 2011)" esm:quality="good">
		<comp name="--.HNE" depth="0.0">
			<acc value="0.0145503811404901" flag="0"/>
			<vel value="0.0168052332543288" flag="0"/>
			<psa03 value="0.0305752728576045" flag="0"/>
			<psa10 value="0.0329938531808478" flag="0"/>
			<psa30 value="0.00252224958665656" flag="0"/>
		</comp>
		<comp name="--.HNN" depth="0.0">
			<acc value="0.0137948221178737" flag="0"/>
			<vel value="0.0142947875719083" flag="0"/>
			<psa03 value="0.0350225414256544" flag="0"/>
			<psa10 value="0.0152065429838428" flag="0"/>
			<psa30 value="0.00186918132408925" flag="0"/>
		</comp>
		<comp name="--.HNZ" depth="0.0">
			<acc value="0.00752370053621794" flag="0"/>
			<vel value="0.0073680871936145" flag="0"/>
			<psa03 value="0.0156120563575304" flag="0"/>
			<psa10 value="0.0124672808961731" flag="0"/>
			<psa30 value="0.00185167099744938" flag="0"/>
		</comp>
	</station>
	<station code="LXR2" name="LXR2" netid="HI" source="ITSAK Strong Motion Network" insttype="" lat="38.206718" lon="20.436386" esm:processing="automatic (Paolucci et al 2011)" esm:quality="best">
		<comp name="--.HNE" depth="0.0">
			<acc value="0.0268210737975892" flag="0"/>
			<vel value="0.0376288846019064" flag="0"/>
			<psa03 value="0.0635811806911805" flag="0"/>
			<psa10 value="0.0388041768362744" flag="0"/>
			<psa30 value="0.00834940894069888" flag="0"/>
		</comp>
		<comp name="--.HNN" depth="0.0">
			<acc value="0.034766725639078" flag="0"/>
			<vel value="0.0298436858821215" flag="0"/>
			<psa03 value="0.0788674277050242" flag="0"/>
			<psa10 value="0.0452939930047452" flag="0"/>
			<psa30 value="0.0083690485750616" flag="0"/>
		</comp>
		<comp name="--.HNZ" depth="0.0">
			<acc value="0.0160598332319792" flag="0"/>
			<vel value="0.021968980790898" flag="0"/>
			<psa03 value="0.0450957477886392" flag="0"/>
			<psa10 value="0.0308470328395362" flag="0"/>
			<psa30 value="0.00421865821540267" flag="0"/>
		</comp>
	</station>
	<station code="MSL1" name="MSL1" netid="HI" source="ITSAK Strong Motion Network" insttype="" lat="38.3727" lon="21.4243" esm:processing="manual (Paolucci et al 2011)" esm:quality="good">
		<comp name="--.HNE" depth="0.0">
			<acc value="0.0653946205308516" flag="0"/>
			<vel value="0.0642417355924796" flag="0"/>
			<psa03 value="0.0991913313555632" flag="0"/>
			<psa10 value="0.12712044610568" flag="0"/>
			<psa30 value="0.00815779041357854" flag="0"/>
		</comp>
		<comp name="--.HNN" depth="0.0">
			<acc value="0.0603223400867894" flag="0"/>
			<vel value="0.0635420234276065" flag="0"/>
			<psa03 value="0.171895928928337" flag="0"/>
			<psa10 value="0.111013421594355" flag="0"/>
			<psa30 value="0.0054252302282103" flag="0"/>
		</comp>
		<comp name="--.HNZ" depth="0.0">
			<acc value="0.0246116411979555" flag="0"/>
			<vel value="0.0297880922430158" flag="0"/>
			<psa03 value="0.0479154970831914" flag="0"/>
			<psa10 value="0.0778413491073528" flag="0"/>
			<psa30 value="0.00315946054875553" flag="0"/>
		</comp>
	</station>
	<station code="PRE2" name="PRE2" netid="HI" source="ITSAK Strong Motion Network" insttype="" lat="38.9577" lon="20.7548" esm:processing="automatic (Paolucci et al 2011)" esm:quality="best">
		<comp name="--.HNE" depth="0.0">
			<acc value="0.140229980446168" flag="0"/>
			<vel value="0.0953643692248605" flag="0"/>
			<psa03 value="0.412333856761047" flag="0"/>
			<psa10 value="0.17595085588068" flag="0"/>
			<psa30 value="0.0162071036410759" flag="0"/>
		</comp>
		<comp name="--.HNN" depth="0.0">
			<acc value="0.112353319380848" flag="0"/>
			<vel value="0.0942634938615403" flag="0"/>
			<psa03 value="0.405764879931905" flag="0"/>
			<psa10 value="0.152813593150576" flag="0"/>
			<psa30 value="0.0183980887830887" flag="0"/>
		</comp>
		<comp name="--.HNZ" depth="0.0">
			<acc value="0.0822076523472945" flag="0"/>
			<vel value="0.0548168426149034" flag="0"/>
			<psa03 value="0.241553043370309" flag="0"/>
			<psa10 value="0.0498950002988978" flag="0"/>
			<psa30 value="0.00407372611436226" flag="0"/>
		</comp>
	</station>
	<station code="SIA1" name="SIA1" netid="HI" source="ITSAK Strong Motion Network" insttype="" lat="40.257308" lon="21.553432" esm:processing="automatic (Paolucci et al 2011)" esm:quality="best">
		<comp name="--.HNE" depth="0.0">
			<acc value="0.01327810423719" flag="0"/>
			<vel value="0.0114321855115974" flag="0"/>
			<psa03 value="0.0400160362826819" flag="0"/>
			<psa10 value="0.013147941611605" flag="0"/>
			<psa30 value="0.00258693949704564" flag="0"/>
		</comp>
		<comp name="--.HNN" depth="0.0">
			<acc value="0.0152147440669379" flag="0"/>
			<vel value="0.0102669116300434" flag="0"/>
			<psa03 value="0.0354945726954094" flag="0"/>
			<psa10 value="0.0125143474516014" flag="0"/>
			<psa30 value="0.00270750706738879" flag="0"/>
		</comp>
		<comp name="--.HNZ" depth="0.0">
			<acc value="0.00648588832880044" flag="0"/>
			<vel value="0.00609578379905419" flag="0"/>
			<psa03 value="0.0197879228319402" flag="0"/>
			<psa10 value="0.00800687041586937" flag="0"/>
			<psa30 value="0.00129182161850896" flag="0"/>
		</comp>
	</station>
	<station code="VSK1" name="VSK1" netid="HI" source="ITSAK Strong Motion Network" insttype="" lat="38.4091" lon="20.564" esm:processing="automatic (Paolucci et al 2011)" esm:quality="best">
		<comp name="--.HNE" depth="0.0">
			<acc value="0.0157771818595002" flag="0"/>
			<vel value="0.0179531665396115" flag="0"/>
			<psa03 value="0.0481519606644098" flag="0"/>
			<psa10 value="0.0252372012157228" flag="0"/>
			<psa30 value="0.00343976390914416" flag="0"/>
		</comp>
		<comp name="--.HNN" depth="0.0">
			<acc value="0.0166493292562177" flag="0"/>
			<vel value="0.0137485742187629" flag="0"/>
			<psa03 value="0.0569817278848205" flag="0"/>
			<psa10 value="0.027111734769371" flag="0"/>
			<psa30 value="0.00238453858897881" flag="0"/>
		</comp>
		<comp name="--.HNZ" depth="0.0">
			<acc value="0.0101984238761359" flag="0"/>
			<vel value="0.008906695001076" flag="0"/>
			<psa03 value="0.0305713767661742" flag="0"/>
			<psa10 value="0.0153635836995195" flag="0"/>
			<psa30 value="0.0019084847610824" flag="0"/>
		</comp>
	</station>
	<station code="ARTB" name="ARTB" netid="HL" source="National Observatory of Athens Seismic Network" insttype="" lat="39.15702" lon="20.9785" esm:processing="automatic (Paolucci et al 2011)" esm:quality="best">
		<comp name="00.HNE" depth="0.0">
			<acc value="0.285835335016166" flag="0"/>
			<vel value="0.135596887359115" flag="0"/>
			<psa03 value="1.08855769493826" flag="0"/>
			<psa10 value="0.0518679722486066" flag="0"/>
			<psa30 value="0.00552034902936406" flag="0"/>
		</comp>
		<comp name="00.HNN" depth="0.0">
			<acc value="0.240480379543768" flag="0"/>
			<vel value="0.0978558175180254" flag="0"/>
			<psa03 value="0.917579868496373" flag="0"/>
			<psa10 value="0.0447113656585429" flag="0"/>
			<psa30 value="0.00622412356763994" flag="0"/>
		</comp>
		<comp name="00.HNZ" depth="0.0">
			<acc value="0.222922034654083" flag="0"/>
			<vel value="0.0775100457295328" flag="0"/>
			<psa03 value="0.38202751578136" flag="0"/>
			<psa10 value="0.0314628367585236" flag="0"/>
			<psa30 value="0.00310018766388447" flag="0"/>
		</comp>
	</station>
