<stationlist created="1675762243">
	<station code="CMRD" name="CMRD" netid="KO" source="Bogazici University Kandilli Observatory And Earthquake Research Institute (KOERI)" insttype="" lat="37.6623" lon="34.9902">
		<comp name=".HNE" depth="0.0">
			<acc value="0.00107668984429" flag="0"/>
			<vel value="0.0011044358987" flag="0"/>
			<psa03 value="0.00318277855179" flag="0"/>
			<psa10 value="0.00190343800749" flag="0"/>
			<psa30 value="0.000234138557405" flag="0"/>
		</comp>
		<comp name=".HNN" depth="0.0">
			<acc value="0.00137189930649" flag="0"/>
			<vel value="0.000986568539338" flag="0"/>
			<psa03 value="0.00279375212966" flag="0"/>
			<psa10 value="0.00180551527059" flag="0"/>
			<psa30 value="0.000190355735133" flag="0"/>
		</comp>
		<comp name=".HNZ" depth="0.0">
			<acc value="0.00100741568745" flag="0"/>
			<vel value="0.000839191803452" flag="0"/>
			<psa03 value="0.00181235248133" flag="0"/>
			<psa10 value="0.00140361638114" flag="0"/>
			<psa30 value="0.000235387520351" flag="0"/>
		</comp>
	</station>
</stationlist>
