<?xml version="1.0" encoding="UTF-8" standalone="yes"?>
<!DOCTYPE earthquake SYSTEM "stationlist.dtd">
<stationlist created="" xmlns="ch.ethz.sed.shakemap.usgs.xml">
  <station code="GAZ" name="GAZ" netid="KO" insttype="CMG-3T" lat="37.1721" lon="37.2096">
    <comp name="--.HHE">
      <acc value="0.0205045601" flag="0"/>
      <vel value="0.0086611704" flag="0"/>
      <psa03 value="0.0519614479" flag="0"/>
      <psa10 value="0.0091106082" flag="0"/>
      <psa30 value="0.0013012861" flag="0"/>
    </comp>
    <comp name="--.HHN">
      <acc value="0.0229449379" flag="0"/>
      <vel value="0.0150423274" flag="0"/>
      <psa03 value="0.0536601476" flag="0"/>
      <psa10 value="0.0130346414" flag="0"/>
      <psa30 value="0.0011517987" flag="0"/>
    </comp>
    <comp name="--.HHZ">
      <acc value="0.0114653506" flag="0"/>
      <vel value="0.0059810587" flag="0"/>
      <psa03 value="0.0260578495" flag="0"/>
      <psa10 value="0.0073970496" flag="0"/>
      <psa30 value="0.0009179310" flag="0"/>
    </comp>
  </station>
</stationlist>
