<stationlist created="1778069965">
	<station code="DAVOX" name="DAVOX" netid="CH" source="Switzerland Seismological Network" insttype="" lat="46.7805" lon="9.87952">
		<comp name="--.HGE" depth="0.0">
			<acc value="0.011162924534083" flag="0"/>
			<vel value="0.00392229382567201" flag="0"/>
			<psa03 value="0.0201339929782223" flag="0"/>
			<psa10 value="0.00348318078523246" flag="0"/>
			<psa30 value="0.000232659474415013" flag="0"/>
		</comp>
		<comp name="--.HGN" depth="0.0">
			<acc value="0.00780160577055543" flag="0"/>
			<vel value="0.00384187265551773" flag="0"/>
			<psa03 value="0.0161966787958144" flag="0"/>
			<psa10 value="0.00489256029370802" flag="0"/>
			<psa30 value="0.000311853180129354" flag="0"/>
		</comp>
		<comp name="--.HGZ" depth="0.0">
			<acc value="0.00647008169962517" flag="0"/>
			<vel value="0.00368927693817362" flag="0"/>
			<psa03 value="0.0180758514737818" flag="0"/>
			<psa10 value="0.00372478870097112" flag="0"/>
			<psa30 value="0.000300667628474786" flag="0"/>
		</comp>
	</station>
	<station code="FUORN" name="FUORN" netid="CH" source="Switzerland Seismological Network" insttype="" lat="46.620334" lon="10.263551">
		<comp name="--.HGE" depth="0.0">
			<acc value="0.0231283924277726" flag="0"/>
			<vel value="0.0131756081930221" flag="0"/>
			<psa03 value="0.0293508875415863" flag="0"/>
			<psa10 value="0.0125193168338586" flag="0"/>
			<psa30 value="0.000564199225456407" flag="0"/>
		</comp>
		<comp name="--.HGN" depth="0.0">
			<acc value="0.0195187300116665" flag="0"/>
			<vel value="0.0117826165295127" flag="0"/>
			<psa03 value="0.0236686273010658" flag="0"/>
			<psa10 value="0.0137756779956997" flag="0"/>
			<psa30 value="0.000669790833075528" flag="0"/>
		</comp>
		<comp name="--.HGZ" depth="0.0">
			<acc value="0.015330440224123" flag="0"/>
			<vel value="0.00854656079025961" flag="0"/>
			<psa03 value="0.018612757953201" flag="0"/>
			<psa10 value="0.0129743450751664" flag="0"/>
			<psa30 value="0.000618784717530698" flag="0"/>
		</comp>
	</station>
	<station code="MUGIO" name="MUGIO" netid="CH" source="Switzerland Seismological Network" insttype="" lat="45.92184" lon="9.04171">
		<comp name="--.HGE" depth="0.0">
			<acc value="0.027336272273233" flag="0"/>
			<vel value="0.0127653476563656" flag="0"/>
			<psa03 value="0.0402679859564446" flag="0"/>
			<psa10 value="0.00419189733806588" flag="0"/>
			<psa30 value="0.000538248745617809" flag="0"/>
		</comp>
		<comp name="--.HGN" depth="0.0">
			<acc value="0.0309825998283571" flag="0"/>
			<vel value="0.0139171434795738" flag="0"/>
			<psa03 value="0.059104454942737" flag="0"/>
			<psa10 value="0.00852875942557496" flag="0"/>
			<psa30 value="0.000491269428668624" flag="0"/>
		</comp>
		<comp name="--.HGZ" depth="0.0">
			<acc value="0.0407236375632837" flag="0"/>
			<vel value="0.0132763865265857" flag="0"/>
			<psa03 value="0.0502454980323192" flag="0"/>
			<psa10 value="0.00538785652097228" flag="0"/>
			<psa30 value="0.000518114752639587" flag="0"/>
		</comp>
	</station>
	<station code="SARD" name="SARD" netid="CH" source="Switzerland Seismological Network" insttype="" lat="46.776631" lon="10.204926">
		<comp name="--.HGE" depth="0.0">
			<acc value="0.0535341424896438" flag="0"/>
			<vel value="0.0124808556597286" flag="0"/>
			<psa03 value="0.0217447124164801" flag="0"/>
			<psa10 value="0.00771937290785043" flag="0"/>
			<psa30 value="0.000365991250137463" flag="0"/>
		</comp>
		<comp name="--.HGN" depth="0.0">
			<acc value="0.0337319058680209" flag="0"/>
			<vel value="0.00875544338514098" flag="0"/>
			<psa03 value="0.016465132035524" flag="0"/>
			<psa10 value="0.00804554359409763" flag="0"/>
			<psa30 value="0.000363754139806549" flag="0"/>
		</comp>
		<comp name="--.HGZ" depth="0.0">
			<acc value="0.0213218174082118" flag="0"/>
			<vel value="0.00544414568627031" flag="0"/>
			<psa03 value="0.0123935912332613" flag="0"/>
			<psa10 value="0.00684958441119122" flag="0"/>
			<psa30 value="0.000379413912122944" flag="0"/>
		</comp>
	</station>
	<station code="SBGN" name="SBGN" netid="CH" source="Switzerland Seismological Network" insttype="" lat="46.628162" lon="9.748359">
		<comp name="--.HGE" depth="0.0">
			<acc value="0.043869293222403" flag="0"/>
			<vel value="0.0140299168427791" flag="0"/>
			<psa03 value="0.0405811814027725" flag="0"/>
			<psa10 value="0.00502141784876864" flag="0"/>
			<psa30 value="0.000400442749233532" flag="0"/>
		</comp>
		<comp name="--.HGN" depth="0.0">
			<acc value="0.027721159446932" flag="0"/>
			<vel value="0.00969088170310474" flag="0"/>
			<psa03 value="0.0493059116933355" flag="0"/>
			<psa10 value="0.00452612162150437" flag="0"/>
			<psa30 value="0.000424156118741216" flag="0"/>
		</comp>
		<comp name="--.HGZ" depth="0.0">
			<acc value="0.0284844327731108" flag="0"/>
			<vel value="0.0096466189959158" flag="0"/>
			<psa03 value="0.0331092328975211" flag="0"/>
			<psa10 value="0.00405095938721832" flag="0"/>
			<psa30 value="0.000419681898079389" flag="0"/>
		</comp>
	</station>
	<station code="SCAS2" name="SCAS2" netid="CH" source="Switzerland Seismological Network" insttype="" lat="46.155187" lon="8.614781">
		<comp name="--.HGE" depth="1.0">
			<acc value="0.0860222483927271" flag="0"/>
			<vel value="0.0128363120583754" flag="0"/>
			<psa03 value="0.059596619215538" flag="0"/>
			<psa10 value="0.00487645309932544" flag="0"/>
			<psa30 value="0.00050871888924975" flag="0"/>
		</comp>
		<comp name="--.HGN" depth="1.0">
			<acc value="0.0904994058617061" flag="0"/>
			<vel value="0.0165799777312246" flag="0"/>
			<psa03 value="0.0457265351638737" flag="0"/>
			<psa10 value="0.00455833601026953" flag="0"/>
			<psa30 value="0.000353463432284347" flag="0"/>
		</comp>
		<comp name="--.HGZ" depth="1.0">
			<acc value="0.0208240756933361" flag="0"/>
			<vel value="0.00549995027842154" flag="0"/>
			<psa03 value="0.0346752101291606" flag="0"/>
			<psa10 value="0.00422411172683104" flag="0"/>
			<psa30 value="0.00019597086498803" flag="0"/>
		</comp>
	</station>
	<station code="SCHK" name="SCHK" netid="CH" source="Switzerland Seismological Network" insttype="" lat="46.788912" lon="9.536332">
		<comp name="--.HGE" depth="0.0">
			<acc value="0.0294427689046683" flag="0"/>
			<vel value="0.00849877134987637" flag="0"/>
			<psa03 value="0.0472925123955132" flag="0"/>
			<psa10 value="0.00455028241307824" flag="0"/>
			<psa30 value="0.000366438672203646" flag="0"/>
		</comp>
		<comp name="--.HGN" depth="0.0">
			<acc value="0.0261197408801557" flag="0"/>
			<vel value="0.00805933644476987" flag="0"/>
			<psa03 value="0.0434446826263419" flag="0"/>
			<psa10 value="0.00531537414625068" flag="0"/>
			<psa30 value="0.000250108934996139" flag="0"/>
		</comp>
		<comp name="--.HGZ" depth="0.0">
			<acc value="0.0159828948225178" flag="0"/>
			<vel value="0.0067142269966707" flag="0"/>
			<psa03 value="0.035570054261526" flag="0"/>
			<psa10 value="0.00331808204281103" flag="0"/>
			<psa30 value="0.000243397604003398" flag="0"/>
		</comp>
	</station>
	<station code="SCUC" name="SCUC" netid="CH" source="Switzerland Seismological Network" insttype="" lat="46.798" lon="10.3038">
		<comp name="--.HGE" depth="0.0">
			<acc value="0.045217488746249" flag="0"/>
			<vel value="0.0158996743412143" flag="0"/>
			<psa03 value="0.0661289813818057" flag="0"/>
			<psa10 value="0.00665629807860029" flag="0"/>
			<psa30 value="0.000552118829669473" flag="0"/>
		</comp>
		<comp name="--.HGN" depth="0.0">
			<acc value="0.0542404217490157" flag="0"/>
			<vel value="0.0147531508976062" flag="0"/>
			<psa03 value="0.0311853180129354" flag="0"/>
			<psa10 value="0.00715159430586456" flag="0"/>
			<psa30 value="0.000304247005004248" flag="0"/>
		</comp>
		<comp name="--.HGZ" depth="0.0">
			<acc value="0.0354074057445126" flag="0"/>
			<vel value="0.00666648010126179" flag="0"/>
			<psa03 value="0.0185232735399645" flag="0"/>
			<psa10 value="0.00676099484208704" flag="0"/>
			<psa30 value="0.000361069607409453" flag="0"/>
		</comp>
	</station>
	<station code="STSP" name="STSP" netid="CH" source="Switzerland Seismological Network" insttype="" lat="46.62645" lon="10.33317">
		<comp name="--.HGE" depth="1.0">
			<acc value="0.0511215208175024" flag="0"/>
			<vel value="0.0207418851431052" flag="0"/>
			<psa03 value="0.0505586934786471" flag="0"/>
			<psa10 value="0.00930995835312999" flag="0"/>
			<psa30 value="0.000526168349830876" flag="0"/>
		</comp>
		<comp name="--.HGN" depth="1.0">
			<acc value="0.0525783347051807" flag="0"/>
			<vel value="0.0167774653643941" flag="0"/>
			<psa03 value="0.0381203600387675" flag="0"/>
			<psa10 value="0.0117179839133254" flag="0"/>
			<psa30 value="0.000592386815625918" flag="0"/>
		</comp>
		<comp name="--.HGZ" depth="1.0">
			<acc value="0.0283299082663048" flag="0"/>
			<vel value="0.0117383906617136" flag="0"/>
			<psa03 value="0.0302009894673334" flag="0"/>
			<psa10 value="0.010940811784366" flag="0"/>
			<psa30 value="0.000405811814027725" flag="0"/>
		</comp>
	</station>
	<station code="SUSI" name="SUSI" netid="CH" source="Switzerland Seismological Network" insttype="" lat="46.01038" lon="8.95869">
		<comp name="--.HGE" depth="0.0">
			<acc value="0.0807912326239738" flag="0"/>
			<vel value="0.0283301192861531" flag="0"/>
			<psa03 value="0.159595451007375" flag="0"/>
			<psa10 value="0.0435095588259384" flag="0"/>
			<psa30 value="0.00163845960636111" flag="0"/>
		</comp>
		<comp name="--.HGN" depth="0.0">
			<acc value="0.0638579442188638" flag="0"/>
			<vel value="0.0254241081203922" flag="0"/>
			<psa03 value="0.0979854324940152" flag="0"/>
			<psa10 value="0.024418506683988" flag="0"/>
			<psa30 value="0.00107649749123562" flag="0"/>
		</comp>
		<comp name="--.HGZ" depth="0.0">
			<acc value="0.0524217296944656" flag="0"/>
			<vel value="0.0178387840573997" flag="0"/>
			<psa03 value="0.0906477106086186" flag="0"/>
			<psa10 value="0.0158575328696479" flag="0"/>
			<psa30 value="0.000625048626457256" flag="0"/>
		</comp>
	</station>
	<station code="SVAM" name="SVAM" netid="CH" source="Switzerland Seismological Network" insttype="" lat="46.693377" lon="9.526099">
		<comp name="--.HGE" depth="0.0">
			<acc value="0.0240110393400542" flag="0"/>
			<vel value="0.00852334125861495" flag="0"/>
			<psa03 value="0.0481873565278787" flag="0"/>
			<psa10 value="0.00747373819351611" flag="0"/>
			<psa30 value="0.000314090290460268" flag="0"/>
		</comp>
		<comp name="--.HGN" depth="0.0">
			<acc value="0.023629177271499" flag="0"/>
			<vel value="0.0108001989694905" flag="0"/>
			<psa03 value="0.0501112714124644" flag="0"/>
			<psa10 value="0.00386975345041432" flag="0"/>
			<psa30 value="0.000304247005004248" flag="0"/>
		</comp>
		<comp name="--.HGZ" depth="0.0">
			<acc value="0.0186894623061158" flag="0"/>
			<vel value="0.00548620734741064" flag="0"/>
			<psa03 value="0.0151676080435941" flag="0"/>
			<psa10 value="0.0046469255793737" flag="0"/>
			<psa30 value="0.000335566549637038" flag="0"/>
		</comp>
	</station>
	<station code="SZER" name="SZER" netid="CH" source="Switzerland Seismological Network" insttype="" lat="46.69749" lon="10.09768">
		<comp name="--.HGE" depth="0.0">
			<acc value="0.0297658233193045" flag="0"/>
			<vel value="0.0114613058556856" flag="0"/>
			<psa03 value="0.0298430518143873" flag="0"/>
			<psa10 value="0.00920123479104759" flag="0"/>
			<psa30 value="0.000382993288652406" flag="0"/>
		</comp>
		<comp name="--.HGN" depth="0.0">
			<acc value="0.031895216733171" flag="0"/>
			<vel value="0.0108743776715174" flag="0"/>
			<psa03 value="0.0287244966489305" flag="0"/>
			<psa10 value="0.00945089630397754" flag="0"/>
			<psa30 value="0.000404916969895359" flag="0"/>
		</comp>
		<comp name="--.HGZ" depth="0.0">
			<acc value="0.0217613193709029" flag="0"/>
			<vel value="0.00712318210641871" flag="0"/>
			<psa03 value="0.0162861632090509" flag="0"/>
			<psa10 value="0.00680528962663913" flag="0"/>
			<psa30 value="0.000534669369088347" flag="0"/>
		</comp>
	</station>
	<station code="FIVI" name="FIVI" netid="GU" source="Regional Seismic Network of North Western Italy (RSNI)" insttype="" lat="44.2394" lon="10.1271">
		<comp name="--.HNE" depth="0.0">
			<acc value="0.0198208186882412" flag="0"/>
			<vel value="0.00863045173416025" flag="0"/>
			<psa03 value="0.0413417989152831" flag="0"/>
			<psa10 value="0.00522678457714651" flag="0"/>
			<psa30 value="0.000470688013624219" flag="0"/>
		</comp>
		<comp name="--.HNN" depth="0.0">
			<acc value="0.0263776488497014" flag="0"/>
			<vel value="0.00808401541158161" flag="0"/>
			<psa03 value="0.0476504500484594" flag="0"/>
			<psa10 value="0.00424424571980926" flag="0"/>
			<psa30 value="0.000429525183535409" flag="0"/>
		</comp>
		<comp name="--.HNZ" depth="0.0">
			<acc value="0.0185200967950721" flag="0"/>
			<vel value="0.0059461854259523" flag="0"/>
			<psa03 value="0.016465132035524" flag="0"/>
			<psa10 value="0.00411136136615299" flag="0"/>
			<psa30 value="0.000422366430476485" flag="0"/>
		</comp>
	</station>
	<station code="ALSD" name="ALSD" netid="IT" source="Italian Strong Motion Network (RAN)" insttype="" lat="44.9387" lon="8.5684">
		<comp name="--.HNE" depth="0.0">
			<acc value="0.026142804" flag="0"/>
			<vel value="0.022644" flag="0"/>
			<psa03 value="0.0696188734980309" flag="0"/>
			<psa10 value="0.0363257501313086" flag="0"/>
			<psa30 value="0.00292345578043788" flag="0"/>
		</comp>
		<comp name="--.HNN" depth="0.0">
			<acc value="0.030377946" flag="0"/>
			<vel value="0.020042" flag="0"/>
			<psa03 value="0.105994287478686" flag="0"/>
			<psa10 value="0.0240158268244235" flag="0"/>
			<psa30 value="0.00275656734975172" flag="0"/>
		</comp>
		<comp name="--.HNZ" depth="0.0">
			<acc value="0.015572544" flag="0"/>
			<vel value="0.011914" flag="0"/>
			<psa03 value="0.0231317208216465" flag="0"/>
			<psa10 value="0.0237983797002587" flag="0"/>
			<psa30 value="0.00137179605491621" flag="0"/>
		</comp>
	</station>
	<station code="ASGO" name="ASGO" netid="IT" source="Italian Strong Motion Network (RAN)" insttype="" lat="45.8667" lon="11.5253">
		<comp name="--.HNE" depth="0.0">
			<acc value="0.164069244" flag="0"/>
			<vel value="0.039697" flag="0"/>
			<psa03 value="0.116911385893544" flag="0"/>
			<psa10 value="0.00684555761259558" flag="0"/>
			<psa30 value="0.000818782381114373" flag="0"/>
		</comp>
		<comp name="--.HNN" depth="0.0">
			<acc value="0.284740446" flag="0"/>
			<vel value="0.060579" flag="0"/>
			<psa03 value="0.143219803385088" flag="0"/>
			<psa10 value="0.00946700349836012" flag="0"/>
			<psa30 value="0.000833547309298403" flag="0"/>
		</comp>
		<comp name="--.HNZ" depth="0.0">
			<acc value="0.142374252" flag="0"/>
			<vel value="0.031801" flag="0"/>
			<psa03 value="0.0826388556239479" flag="0"/>
			<psa10 value="0.00472746155128659" flag="0"/>
			<psa30 value="0.000599098146618659" flag="0"/>
		</comp>
	</station>
	<station code="AUL" name="AUL" netid="IT" source="Italian Strong Motion Network (RAN)" insttype="" lat="44.2087" lon="9.9731">
		<comp name="--.HNE" depth="0.0">
			<acc value="0.03188979" flag="0"/>
			<vel value="0.01672" flag="0"/>
			<psa03 value="0.114540048942776" flag="0"/>
			<psa10 value="0.01268441557628" flag="0"/>
			<psa30 value="0.000831310198967489" flag="0"/>
		</comp>
		<comp name="--.HNN" depth="0.0">
			<acc value="0.027465438" flag="0"/>
			<vel value="0.018351" flag="0"/>
			<psa03 value="0.0909161638483282" flag="0"/>
			<psa10 value="0.0169649024834501" flag="0"/>
			<psa30 value="0.00111229125653024" flag="0"/>
		</comp>
		<comp name="--.HNZ" depth="0.0">
			<acc value="0.013013976" flag="0"/>
			<vel value="0.005882" flag="0"/>
			<psa03 value="0.0351673744019616" flag="0"/>
			<psa10 value="0.00927371716576919" flag="0"/>
			<psa30 value="0.000604914633479034" flag="0"/>
		</comp>
	</station>
	<station code="AVI" name="AVI" netid="IT" source="Italian Strong Motion Network (RAN)" insttype="" lat="46.0643" lon="12.6023">
		<comp name="--.HNE" depth="0.0">
			<acc value="0.03845859" flag="0"/>
			<vel value="0.011615" flag="0"/>
			<psa03 value="0.0534669369088348" flag="0"/>
			<psa10 value="0.00972874540707701" flag="0"/>
			<psa30 value="0.000529300304294155" flag="0"/>
		</comp>
		<comp name="--.HNN" depth="0.0">
			<acc value="0.042261558" flag="0"/>
			<vel value="0.011417" flag="0"/>
			<psa03 value="0.0696636157046491" flag="0"/>
			<psa10 value="0.00819050834354083" flag="0"/>
			<psa30 value="0.000896186398563983" flag="0"/>
		</comp>
		<comp name="--.HNZ" depth="0.0">
			<acc value="0.02567595" flag="0"/>
			<vel value="0.006448" flag="0"/>
			<psa03 value="0.0222816188958993" flag="0"/>
			<psa10 value="0.00277446423239903" flag="0"/>
			<psa30 value="0.000225948143422272" flag="0"/>
		</comp>
	</station>
	<station code="AVS" name="AVS" netid="IT" source="Italian Strong Motion Network (RAN)" insttype="" lat="46.2946" lon="13.0497">
		<comp name="--.HNE" depth="0.0">
			<acc value="0.014201052" flag="0"/>
			<vel value="0.005385" flag="0"/>
			<psa03 value="0.0161071943825778" flag="0"/>
			<psa10 value="0.00580261677632366" flag="0"/>
			<psa30 value="0.000226395565488455" flag="0"/>
		</comp>
		<comp name="--.HNN" depth="0.0">
			<acc value="0.014458806" flag="0"/>
			<vel value="0.0065" flag="0"/>
			<psa03 value="0.018612757953201" flag="0"/>
			<psa10 value="0.00447780003835664" flag="0"/>
			<psa30 value="0.000344514990960692" flag="0"/>
		</comp>
		<comp name="--.HNZ" depth="0.0">
			<acc value="0.01030455" flag="0"/>
			<vel value="0.004165" flag="0"/>
			<psa03 value="0.0147649281840297" flag="0"/>
			<psa10 value="0.00500933745298171" flag="0"/>
			<psa30 value="0.000183443047134914" flag="0"/>
		</comp>
	</station>
	<station code="BGMO" name="BGMO" netid="IT" source="Italian Strong Motion Network (RAN)" insttype="" lat="45.6925" lon="9.6903">
		<comp name="--.HNE" depth="0.0">
			<acc value="0.117864876" flag="0"/>
			<vel value="0.0817" flag="0"/>
			<psa03 value="0.171810073414164" flag="0"/>
			<psa10 value="0.126522011875149" flag="0"/>
			<psa30 value="0.00427824979683914" flag="0"/>
		</comp>
		<comp name="--.HNN" depth="0.0">
			<acc value="0.085284036" flag="0"/>
			<vel value="0.032319" flag="0"/>
			<psa03 value="0.123935912332613" flag="0"/>
			<psa10 value="0.0346264411239467" flag="0"/>
			<psa30 value="0.00134316104268052" flag="0"/>
		</comp>
		<comp name="--.HNZ" depth="0.0">
			<acc value="0.073989576" flag="0"/>
			<vel value="0.041299" flag="0"/>
			<psa03 value="0.0908266794350917" flag="0"/>
			<psa10 value="0.0499282757873956" flag="0"/>
			<psa30 value="0.00376639895312612" flag="0"/>
		</comp>
	</station>
	<station code="BLL" name="BLL" netid="IT" source="Italian Strong Motion Network (RAN)" insttype="" lat="46.1594" lon="12.2364">
		<comp name="--.HGE" depth="0.0">
			<acc value="0.040076514" flag="0"/>
			<vel value="0.012653" flag="0"/>
			<psa03 value="0.0893054444100704" flag="0"/>
			<psa10 value="0.00746165779772918" flag="0"/>
			<psa30 value="0.000577174465375705" flag="0"/>
		</comp>
		<comp name="--.HGN" depth="0.0">
			<acc value="0.058133982" flag="0"/>
			<vel value="0.016944" flag="0"/>
			<psa03 value="0.0795963855739055" flag="0"/>
			<psa10 value="0.0177662354039833" flag="0"/>
			<psa30 value="0.00084294317268824" flag="0"/>
		</comp>
		<comp name="--.HGZ" depth="0.0">
			<acc value="0.01726095" flag="0"/>
			<vel value="0.004271" flag="0"/>
			<psa03 value="0.0111408094479497" flag="0"/>
			<psa10 value="0.00266976746891228" flag="0"/>
			<psa30 value="0.000177179138208356" flag="0"/>
		</comp>
	</station>
	<station code="BLZN" name="BLZN" netid="IT" source="Italian Strong Motion Network (RAN)" insttype="" lat="46.4917" lon="11.392">
		<comp name="--.HNE" depth="0.0">
			<acc value="0.150497838" flag="0"/>
			<vel value="0.036674" flag="0"/>
			<psa03 value="0.143577741038034" flag="0"/>
			<psa10 value="0.0102361220301282" flag="0"/>
			<psa30 value="0.000874710139387213" flag="0"/>
		</comp>
		<comp name="--.HNN" depth="0.0">
