<?xml version="1.0" encoding="UTF-8" standalone="yes"?>
<!DOCTYPE earthquake SYSTEM "stationlist.dtd">
<stationlist created="" xmlns="ch.ethz.sed.shakemap.usgs.xml">
  <station code="GRAM" name="GRAM" netid="GU" insttype="" lat="44.4904" lon="10.065">
    <comp name="--.HHN">
      <acc value="0.0517749422" flag="0"/>
      <vel value="0.0145977323" flag="0"/>
      <psa03 value="0.1517302883" flag="0"/>
      <psa10 value="0.0074413671" flag="0"/>
      <psa30 value="0.0005355591" flag="0"/>
    </comp>
    <comp name="--.HHE">
      <acc value="0.0582183372" flag="0"/>
      <vel value="0.0201945361" flag="0"/>
      <psa03 value="0.1665452955" flag="0"/>
      <psa10 value="0.0084669172" flag="0"/>
      <psa30 value="0.0005597574" flag="0"/>
    </comp>
    <comp name="--.HHZ">
      <acc value="0.0327921140" flag="0"/>
      <vel value="0.0081834387" flag="0"/>
      <psa03 value="0.0367121397" flag="0"/>
      <psa10 value="0.0041768082" flag="0"/>
      <psa30 value="0.0003268204" flag="0"/>
    </comp>
  </station>
  <station code="GSCL" name="GSCL" netid="GU" insttype="" lat="44.3506" lon="10.588">
    <comp name="--.HHE">
      <acc value="0.0468438823" flag="0"/>
      <vel value="0.0240946476" flag="0"/>
      <psa03 value="0.1952273428" flag="0"/>
      <psa10 value="0.0086919722" flag="0"/>
      <psa30 value="0.0010447256" flag="0"/>
    </comp>
    <comp name="--.HHN">
      <acc value="0.0360685128" flag="0"/>
      <vel value="0.0164306866" flag="0"/>
      <psa03 value="0.0967339896" flag="0"/>
      <psa10 value="0.0116527509" flag="0"/>
      <psa30 value="0.0009036900" flag="0"/>
    </comp>
    <comp name="--.HHZ">
      <acc value="0.0121187894" flag="0"/>
      <vel value="0.0070083057" flag="0"/>
      <psa03 value="0.0372897113" flag="0"/>
      <psa10 value="0.0106880014" flag="0"/>
      <psa30 value="0.0005490620" flag="0"/>
    </comp>
  </station>
  <station code="BOZZ" name="BOZZ" netid="IV" insttype="" lat="45.1071" lon="10.482">
    <comp name="--.HNE">
      <acc value="0.1702737272" flag="0"/>
      <vel value="0.0592440529" flag="0"/>
      <psa03 value="0.3488282447" flag="0"/>
      <psa10 value="0.0620457926" flag="0"/>
      <psa30 value="0.0045023408" flag="0"/>
    </comp>
    <comp name="--.HNN">
      <acc value="0.3789660771" flag="0"/>
      <vel value="0.1685117535" flag="0"/>
      <psa03 value="0.6273547313" flag="0"/>
      <psa10 value="0.0935914177" flag="0"/>
      <psa30 value="0.0078486249" flag="0"/>
    </comp>
    <comp name="--.HNZ">
      <acc value="0.1686601518" flag="0"/>
      <vel value="0.0416636960" flag="0"/>
      <psa03 value="0.1857870073" flag="0"/>
      <psa10 value="0.0255169701" flag="0"/>
      <psa30 value="0.0020887602" flag="0"/>
    </comp>
  </station>
  <station code="CADC" name="CADC" netid="IV" insttype="" lat="45.4555" lon="10.1287">
    <comp name="--.HNE">
      <acc value="0.0852366178" flag="0"/>
      <vel value="0.0337781941" flag="0"/>
      <psa03 value="0.1906659558" flag="0"/>
      <psa10 value="0.0425701870" flag="0"/>
      <psa30 value="0.0036674960" flag="0"/>
    </comp>
    <comp name="--.HNN">
      <acc value="0.0722127639" flag="0"/>
      <vel value="0.0338782590" flag="0"/>
      <psa03 value="0.1526269294" flag="0"/>
      <psa10 value="0.0289356793" flag="0"/>
      <psa30 value="0.0018343006" flag="0"/>
    </comp>
    <comp name="--.HNZ">
      <acc value="0.0418875314" flag="0"/>
      <vel value="0.0151572685" flag="0"/>
      <psa03 value="0.0888649764" flag="0"/>
      <psa10 value="0.0137130877" flag="0"/>
      <psa30 value="0.0009427505" flag="0"/>
    </comp>
  </station>
  <station code="CAPR" name="CAPR" netid="IV" insttype="" lat="45.6372" lon="9.9345">
    <comp name="--.HNE">
      <acc value="0.0709130236" flag="0"/>
      <vel value="0.0350367088" flag="0"/>
      <psa03 value="0.1132927837" flag="0"/>
      <psa10 value="0.0212452653" flag="0"/>
      <psa30 value="0.0013902996" flag="0"/>
    </comp>
    <comp name="--.HNN">
      <acc value="0.0996393319" flag="0"/>
      <vel value="0.0318728702" flag="0"/>
      <psa03 value="0.1348339700" flag="0"/>
      <psa10 value="0.0121630238" flag="0"/>
      <psa30 value="0.0010619683" flag="0"/>
    </comp>
    <comp name="--.HNZ">
      <acc value="0.0595766135" flag="0"/>
      <vel value="0.0159469687" flag="0"/>
      <psa03 value="0.0466154119" flag="0"/>
      <psa10 value="0.0155434184" flag="0"/>
      <psa30 value="0.0010444978" flag="0"/>
    </comp>
  </station>
  <station code="CAVE" name="CAVE" netid="IV" insttype="" lat="44.8658" lon="11.0031">
    <comp name="--.HHE">
      <acc value="0.2725688858" flag="0"/>
      <vel value="0.1201742971" flag="0"/>
      <psa03 value="0.5022248407" flag="0"/>
      <psa10 value="0.1119666178" flag="0"/>
      <psa30 value="0.0077228047" flag="0"/>
    </comp>
    <comp name="--.HHN">
      <acc value="0.3890173128" flag="0"/>
      <vel value="0.0903756060" flag="0"/>
      <psa03 value="0.7626447021" flag="0"/>
      <psa10 value="0.0765513033" flag="0"/>
      <psa30 value="0.0051786458" flag="0"/>
    </comp>
    <comp name="--.HHZ">
      <acc value="0.1628382903" flag="0"/>
      <vel value="0.0328785369" flag="0"/>
      <psa03 value="0.1621205158" flag="0"/>
      <psa10 value="0.0474256612" flag="0"/>
      <psa30 value="0.0019651529" flag="0"/>
    </comp>
  </station>
  <station code="CNCS" name="CNCS" netid="IV" insttype="" lat="45.606" lon="10.217">
    <comp name="--.HNE">
      <acc value="0.0480190101" flag="0"/>
      <vel value="0.0155027369" flag="0"/>
      <psa03 value="0.0698241433" flag="0"/>
      <psa10 value="0.0049413762" flag="0"/>
      <psa30 value="0.0003794634" flag="0"/>
    </comp>
    <comp name="--.HNN">
      <acc value="0.1377322230" flag="0"/>
      <vel value="0.0408777908" flag="0"/>
      <psa03 value="0.2391887737" flag="0"/>
      <psa10 value="0.0121724755" flag="0"/>
      <psa30 value="0.0010141106" flag="0"/>
    </comp>
    <comp name="--.HNZ">
      <acc value="0.0876224845" flag="0"/>
      <vel value="0.0187165389" flag="0"/>
      <psa03 value="0.0888397390" flag="0"/>
      <psa10 value="0.0065462824" flag="0"/>
      <psa30 value="0.0004691820" flag="0"/>
    </comp>
  </station>
  <station code="CRND" name="CRND" netid="IV" insttype="" lat="45.8361" lon="12.0131">
    <comp name="--.HNZ">
      <acc value="0.0522590433" flag="0"/>
      <vel value="0.0107366850" flag="0"/>
      <psa03 value="0.0332001103" flag="0"/>
      <psa10 value="0.0056518703" flag="0"/>
      <psa30 value="0.0003778809" flag="0"/>
    </comp>
    <comp name="--.HNN">
      <acc value="0.1487351355" flag="0"/>
      <vel value="0.0449428856" flag="0"/>
      <psa03 value="0.1569649669" flag="0"/>
      <psa10 value="0.0154397179" flag="0"/>
      <psa30 value="0.0009244466" flag="0"/>
    </comp>
    <comp name="--.HNE">
      <acc value="0.1580125354" flag="0"/>
      <vel value="0.0354410476" flag="0"/>
      <psa03 value="0.1263122027" flag="0"/>
      <psa10 value="0.0140133336" flag="0"/>
      <psa30 value="0.0007644704" flag="0"/>
    </comp>
  </station>
  <station code="CTI" name="CTI" netid="IV" insttype="" lat="46.0482" lon="11.6497">
    <comp name="--.HHE">
      <acc value="0.5529767677" flag="0"/>
      <vel value="0.1287198654" flag="0"/>
      <psa03 value="0.2877801681" flag="0"/>
      <psa10 value="0.0137102011" flag="0"/>
      <psa30 value="0.0015923688" flag="0"/>
    </comp>
    <comp name="--.HHN">
      <acc value="0.3207521975" flag="0"/>
      <vel value="0.0661143690" flag="0"/>
      <psa03 value="0.2326189554" flag="0"/>
      <psa10 value="0.0129189181" flag="0"/>
      <psa30 value="0.0011307650" flag="0"/>
    </comp>
    <comp name="--.HHZ">
      <acc value="0.1247726823" flag="0"/>
      <vel value="0.0304595857" flag="0"/>
      <psa03 value="0.0984223540" flag="0"/>
      <psa10 value="0.0050695148" flag="0"/>
      <psa30 value="0.0004173375" flag="0"/>
    </comp>
  </station>
  <station code="CTL8" name="CTL8" netid="IV" insttype="" lat="45.2763" lon="9.7622">
    <comp name="--.HNE">
      <acc value="0.2011041936" flag="0"/>
      <vel value="0.0728074981" flag="0"/>
      <psa03 value="0.8497504254" flag="0"/>
      <psa10 value="0.0325044751" flag="0"/>
      <psa30 value="0.0039299682" flag="0"/>
    </comp>
    <comp name="--.HNN">
      <acc value="0.1313987634" flag="0"/>
      <vel value="0.0512257755" flag="0"/>
      <psa03 value="0.3345505875" flag="0"/>
      <psa10 value="0.0690184548" flag="0"/>
      <psa30 value="0.0026927986" flag="0"/>
    </comp>
    <comp name="--.HNZ">
      <acc value="0.0571443164" flag="0"/>
      <vel value="0.0147879184" flag="0"/>
      <psa03 value="0.0794726600" flag="0"/>
      <psa10 value="0.0078285858" flag="0"/>
      <psa30 value="0.0007353200" flag="0"/>
    </comp>
  </station>
  <station code="FERS" name="FERS" netid="IV" insttype="" lat="44.9035" lon="11.5406">
    <comp name="--.HNN">
      <acc value="0.1875664715" flag="0"/>
      <vel value="0.0561224188" flag="0"/>
      <psa03 value="0.2602814123" flag="0"/>
      <psa10 value="0.0532259604" flag="0"/>
      <psa30 value="0.0028846778" flag="0"/>
    </comp>
    <comp name="--.HNE">
      <acc value="0.2540206885" flag="0"/>
      <vel value="0.0636142442" flag="0"/>
      <psa03 value="0.3591129448" flag="0"/>
      <psa10 value="0.0379696237" flag="0"/>
      <psa30 value="0.0030363775" flag="0"/>
    </comp>
    <comp name="--.HNZ">
      <acc value="0.1676651755" flag="0"/>
      <vel value="0.0275144308" flag="0"/>
      <psa03 value="0.1099069444" flag="0"/>
      <psa10 value="0.0177458374" flag="0"/>
      <psa30 value="0.0011576120" flag="0"/>
    </comp>
  </station>
  <station code="MAGA" name="MAGA" netid="IV" insttype="" lat="45.7753" lon="10.6286">
    <comp name="--.HHE">
      <acc value="0.2913862297" flag="0"/>
      <vel value="0.0909740714" flag="0"/>
      <psa03 value="0.2304654388" flag="0"/>
      <psa10 value="0.0497874118" flag="0"/>
      <psa30 value="0.0020995423" flag="0"/>
    </comp>
    <comp name="--.HHN">
      <acc value="0.3425364399" flag="0"/>
      <vel value="0.1024822695" flag="0"/>
      <psa03 value="0.2290316302" flag="0"/>
      <psa10 value="0.0203313572" flag="0"/>
      <psa30 value="0.0016921987" flag="0"/>
    </comp>
    <comp name="--.HHZ">
      <acc value="0.1464031188" flag="0"/>
      <vel value="0.0346394584" flag="0"/>
      <psa03 value="0.1129395221" flag="0"/>
      <psa10 value="0.0114747933" flag="0"/>
      <psa30 value="0.0005926276" flag="0"/>
    </comp>
  </station>
  <station code="MBAL" name="MBAL" netid="IV" insttype="" lat="45.6975" lon="10.8589">
    <comp name="--.HNE">
      <acc value="0.3957814273" flag="0"/>
      <vel value="0.0688485775" flag="0"/>
      <psa03 value="0.0835497941" flag="0"/>
      <psa10 value="0.0132366938" flag="0"/>
      <psa30 value="0.0024764887" flag="0"/>
    </comp>
    <comp name="--.HNN">
      <acc value="0.4537900926" flag="0"/>
      <vel value="0.0680162107" flag="0"/>
      <psa03 value="0.1077753573" flag="0"/>
      <psa10 value="0.0157064459" flag="0"/>
      <psa30 value="0.0007870195" flag="0"/>
    </comp>
    <comp name="--.HNZ">
      <acc value="0.1350647520" flag="0"/>
      <vel value="0.0225037163" flag="0"/>
      <psa03 value="0.0701793944" flag="0"/>
      <psa10 value="0.0073128209" flag="0"/>
      <psa30 value="0.0006740371" flag="0"/>
    </comp>
  </station>
  <station code="MDI" name="MDI" netid="IV" insttype="" lat="45.7697" lon="9.716">
    <comp name="--.HHE">
      <acc value="0.0881677797" flag="0"/>
      <vel value="0.0322368764" flag="0"/>
      <psa03 value="0.1318366450" flag="0"/>
      <psa10 value="0.0141233514" flag="0"/>
      <psa30 value="0.0008694809" flag="0"/>
    </comp>
    <comp name="--.HHN">
      <acc value="0.1119307502" flag="0"/>
      <vel value="0.0343636726" flag="0"/>
      <psa03 value="0.1122313423" flag="0"/>
      <psa10 value="0.0211718655" flag="0"/>
      <psa30 value="0.0008919639" flag="0"/>
    </comp>
    <comp name="--.HHZ">
      <acc value="0.0671854997" flag="0"/>
      <vel value="0.0226123027" flag="0"/>
      <psa03 value="0.0528797926" flag="0"/>
      <psa10 value="0.0125041267" flag="0"/>
      <psa30 value="0.0011832257" flag="0"/>
    </comp>
  </station>
  <station code="MNTV" name="MNTV" netid="IV" insttype="" lat="45.1495" lon="10.7897">
    <comp name="--.HNE">
      <acc value="0.4914728075" flag="0"/>
      <vel value="0.2519868897" flag="0"/>
      <psa03 value="1.0881870896" flag="0"/>
      <psa10 value="0.1095230886" flag="0"/>
      <psa30 value="0.0094922461" flag="0"/>
    </comp>
    <comp name="--.HNN">
      <acc value="0.5406910376" flag="0"/>
      <vel value="0.3005221689" flag="0"/>
      <psa03 value="0.9581185967" flag="0"/>
      <psa10 value="0.1818871243" flag="0"/>
      <psa30 value="0.0163027855" flag="0"/>
    </comp>
    <comp name="--.HNZ">
      <acc value="0.3505482939" flag="0"/>
      <vel value="0.0988998279" flag="0"/>
      <psa03 value="0.6274814809" flag="0"/>
      <psa10 value="0.0575240010" flag="0"/>
      <psa30 value="0.0039413512" flag="0"/>
    </comp>
  </station>
  <station code="MTRZ" name="MTRZ" netid="IV" insttype="" lat="44.3128" lon="11.4248">
    <comp name="--.HHE">
      <acc value="0.0448916475" flag="0"/>
      <vel value="0.0373859695" flag="0"/>
      <psa03 value="0.1502276614" flag="0"/>
      <psa10 value="0.0360010243" flag="0"/>
      <psa30 value="0.0039170109" flag="0"/>
    </comp>
    <comp name="--.HHN">
      <acc value="0.0431315936" flag="0"/>
      <vel value="0.0303260430" flag="0"/>
      <psa03 value="0.0938231259" flag="0"/>
      <psa10 value="0.0270958608" flag="0"/>
      <psa30 value="0.0036460472" flag="0"/>
    </comp>
    <comp name="--.HHZ">
      <acc value="0.0183342440" flag="0"/>
      <vel value="0.0155685622" flag="0"/>
      <psa03 value="0.0460707280" flag="0"/>
      <psa10 value="0.0243066494" flag="0"/>
      <psa30 value="0.0018446070" flag="0"/>
    </comp>
  </station>
  <station code="NDIM" name="NDIM" netid="IV" insttype="" lat="44.8873" lon="10.8987">
    <comp name="--.HNE">
      <acc value="0.2667201365" flag="0"/>
      <vel value="0.0790980952" flag="0"/>
      <psa03 value="0.3303716390" flag="0"/>
      <psa10 value="0.0553443394" flag="0"/>
      <psa30 value="0.0059050143" flag="0"/>
    </comp>
    <comp name="--.HNN">
      <acc value="0.2092075123" flag="0"/>
      <vel value="0.1157856156" flag="0"/>
      <psa03 value="0.4901045986" flag="0"/>
      <psa10 value="0.0600142810" flag="0"/>
      <psa30 value="0.0051663486" flag="0"/>
    </comp>
    <comp name="--.HNZ">
      <acc value="0.1599681324" flag="0"/>
      <vel value="0.0338899604" flag="0"/>
      <psa03 value="0.1436258954" flag="0"/>
      <psa10 value="0.0301759027" flag="0"/>
      <psa30 value="0.0017025251" flag="0"/>
    </comp>
  </station>
  <station code="NEVI" name="NEVI" netid="IV" insttype="" lat="44.5834" lon="10.3163">
    <comp name="--.HNE">
      <acc value="0.0734840580" flag="0"/>
      <vel value="0.0349719311" flag="0"/>
      <psa03 value="0.2102169992" flag="0"/>
      <psa10 value="0.0121643973" flag="0"/>
      <psa30 value="0.0009799870" flag="0"/>
    </comp>
    <comp name="--.HNN">
      <acc value="0.0813931695" flag="0"/>
      <vel value="0.0372460739" flag="0"/>
      <psa03 value="0.1599976333" flag="0"/>
      <psa10 value="0.0203660790" flag="0"/>
      <psa30 value="0.0016862209" flag="0"/>
    </comp>
    <comp name="--.HNZ">
      <acc value="0.0249992167" flag="0"/>
      <vel value="0.0105708440" flag="0"/>
      <psa03 value="0.0539662202" flag="0"/>
      <psa10 value="0.0075518199" flag="0"/>
      <psa30 value="0.0006430179" flag="0"/>
    </comp>
  </station>
  <station code="OPPE" name="OPPE" netid="IV" insttype="" lat="45.3082" lon="11.1724">
    <comp name="--.HHE">
      <acc value="1.4750621272" flag="0"/>
      <vel value="0.2638729248" flag="0"/>
      <psa03 value="0.4566486192" flag="0"/>
      <psa10 value="0.1040772101" flag="0"/>
      <psa30 value="0.0080509891" flag="0"/>
    </comp>
    <comp name="--.HHN">
      <acc value="1.0675390681" flag="0"/>
      <vel value="0.2845150353" flag="0"/>
      <psa03 value="0.6215016605" flag="0"/>
      <psa10 value="0.1527694254" flag="0"/>
      <psa30 value="0.0131837708" flag="0"/>
    </comp>
    <comp name="--.HHZ">
      <acc value="1.0528178845" flag="0"/>
      <vel value="0.1493091905" flag="0"/>
      <psa03 value="0.2842603401" flag="0"/>
      <psa10 value="0.0642393600" flag="0"/>
      <psa30 value="0.0053453748" flag="0"/>
    </comp>
  </station>
  <station code="ORZI" name="ORZI" netid="IV" insttype="" lat="45.4056" lon="9.9307">
    <comp name="--.HNE">
      <acc value="0.0590151750" flag="0"/>
      <vel value="0.0312614513" flag="0"/>
      <psa03 value="0.1795694437" flag="0"/>
      <psa10 value="0.0378781888" flag="0"/>
      <psa30 value="0.0023806396" flag="0"/>
    </comp>
    <comp name="--.HNN">
      <acc value="0.1236947692" flag="0"/>
      <vel value="0.0760969431" flag="0"/>
      <psa03 value="0.2901099051" flag="0"/>
      <psa10 value="0.0382790305" flag="0"/>
      <psa30 value="0.0025305621" flag="0"/>
    </comp>
    <comp name="--.HNZ">
      <acc value="0.0341132962" flag="0"/>
      <vel value="0.0108753629" flag="0"/>
      <psa03 value="0.1057548319" flag="0"/>
      <psa10 value="0.0094055997" flag="0"/>
      <psa30 value="0.0009444068" flag="0"/>
    </comp>
  </station>
  <station code="SANR" name="SANR" netid="IV" insttype="" lat="45.64" lon="11.6099">
    <comp name="--.HNE">
      <acc value="0.8237314099" flag="0"/>
      <vel value="0.1528911115" flag="0"/>
      <psa03 value="0.3092714918" flag="0"/>
      <psa10 value="0.0416864339" flag="0"/>
      <psa30 value="0.0030549491" flag="0"/>
    </comp>
    <comp name="--.HNN">
      <acc value="0.4984315007" flag="0"/>
      <vel value="0.1106080281" flag="0"/>
      <psa03 value="0.3289789135" flag="0"/>
      <psa10 value="0.0379017730" flag="0"/>
      <psa30 value="0.0024698149" flag="0"/>
    </comp>
    <comp name="--.HNZ">
      <acc value="0.1340189959" flag="0"/>
      <vel value="0.0212339686" flag="0"/>
      <psa03 value="0.0627889993" flag="0"/>
      <psa10 value="0.0233342180" flag="0"/>
      <psa30 value="0.0007844501" flag="0"/>
    </comp>
  </station>
  <station code="SBPO" name="SBPO" netid="IV" insttype="" lat="45.0511" lon="10.9199">
    <comp name="--.HNE">
      <acc value="0.7532175769" flag="0"/>
      <vel value="0.2052793196" flag="0"/>
      <psa03 value="0.7663983656" flag="0"/>
      <psa10 value="0.1004184990" flag="0"/>
      <psa30 value="0.0102021543" flag="0"/>
    </comp>
    <comp name="--.HNN">
      <acc value="0.8268230846" flag="0"/>
      <vel value="0.1636217958" flag="0"/>
      <psa03 value="0.7271925371" flag="0"/>
      <psa10 value="0.1071105637" flag="0"/>
      <psa30 value="0.0076762091" flag="0"/>
    </comp>
    <comp name="--.HNZ">
      <acc value="0.5281251063" flag="0"/>
      <vel value="0.1075245946" flag="0"/>
      <psa03 value="0.5423865363" flag="0"/>
      <psa10 value="0.0515037113" flag="0"/>
      <psa30 value="0.0030844099" flag="0"/>
    </comp>
  </station>
  <station code="SERM" name="SERM" netid="IV" insttype="" lat="45.01" lon="11.2958">
    <comp name="--.HNN">
      <acc value="0.1197835931" flag="0"/>
      <vel value="0.0309511679" flag="0"/>
      <psa03 value="0.1496795827" flag="0"/>
      <psa10 value="0.0231038528" flag="0"/>
      <psa30 value="0.0020356459" flag="0"/>
    </comp>
    <comp name="--.HNE">
      <acc value="0.0716830655" flag="0"/>
      <vel value="0.0247104198" flag="0"/>
      <psa03 value="0.1343323039" flag="0"/>
      <psa10 value="0.0234640695" flag="0"/>
      <psa30 value="0.0019545900" flag="0"/>
    </comp>
