<?xml version="1.0" encoding="UTF-8" standalone="yes"?>
<!DOCTYPE earthquake SYSTEM "stationlist.dtd">
<stationlist created="" xmlns="ch.ethz.sed.shakemap.usgs.xml">
  <station code="CHVC" name="CHVC" netid="CZ" insttype="" lat="50.5881" lon="16.0547">
    <comp name="--.HHN">
      <acc value="0.0092166791" flag="0"/>
      <vel value="0.0046556435" flag="0"/>
      <psa03 value="0.0337113580" flag="0"/>
      <psa10 value="0.0029154575" flag="0"/>
      <psa30 value="0.0013352120" flag="0"/>
    </comp>
    <comp name="--.HHZ">
      <acc value="0.0075059050" flag="0"/>
      <vel value="0.0060633489" flag="0"/>
      <psa03 value="0.0072985680" flag="0"/>
      <psa10 value="0.0030797430" flag="0"/>
      <psa30 value="0.0018842345" flag="0"/>
    </comp>
    <comp name="--.HHE">
      <acc value="0.0122003880" flag="0"/>
      <vel value="0.0049505973" flag="0"/>
      <psa03 value="0.0210558081" flag="0"/>
      <psa10 value="0.0028722054" flag="0"/>
      <psa30 value="0.0010993210" flag="0"/>
    </comp>
  </station>
  <station code="OSTC" name="OSTC" netid="CZ" insttype="" lat="50.5565" lon="16.2156">
    <comp name="--.HHE">
      <acc value="0.0259103790" flag="0"/>
      <vel value="0.0125137831" flag="0"/>
      <psa03 value="0.0867036882" flag="0"/>
      <psa10 value="0.0141484673" flag="0"/>
      <psa30 value="0.0022043140" flag="0"/>
    </comp>
    <comp name="--.HHN">
      <acc value="0.0217774173" flag="0"/>
      <vel value="0.0131721818" flag="0"/>
      <psa03 value="0.0384245489" flag="0"/>
      <psa10 value="0.0348423880" flag="0"/>
      <psa30 value="0.0029259855" flag="0"/>
    </comp>
    <comp name="--.HHZ">
      <acc value="0.0252215851" flag="0"/>
      <vel value="0.0156045081" flag="0"/>
      <psa03 value="0.0780744721" flag="0"/>
      <psa10 value="0.0132765903" flag="0"/>
      <psa30 value="0.0040565878" flag="0"/>
    </comp>
  </station>
  <station code="UPC" name="UPC" netid="CZ" insttype="" lat="50.5074" lon="16.0121">
    <comp name="--.HHE">
      <acc value="0.0150120212" flag="0"/>
      <vel value="0.0077438064" flag="0"/>
      <psa03 value="0.0568728236" flag="0"/>
      <psa10 value="0.0033535031" flag="0"/>
      <psa30 value="0.0002316032" flag="0"/>
    </comp>
    <comp name="--.HHZ">
      <acc value="0.0040770616" flag="0"/>
      <vel value="0.0017657602" flag="0"/>
      <psa03 value="0.0125350356" flag="0"/>
      <psa10 value="0.0016643344" flag="0"/>
      <psa30 value="0.0001378954" flag="0"/>
    </comp>
    <comp name="--.HHN">
      <acc value="0.0119860806" flag="0"/>
      <vel value="0.0051676277" flag="0"/>
      <psa03 value="0.0387746866" flag="0"/>
      <psa10 value="0.0033190282" flag="0"/>
      <psa30 value="0.0002692712" flag="0"/>
    </comp>
  </station>
</stationlist>
