<stationlist created="1694676687">
	<station code="R3BE1" name="R3BE1" netid="AM" source="Raspberry Shake (raspishake)" insttype="" lat="42.3963964" lon="12.85959568">
		<comp name="00.ENE" depth="0.0">
			<acc value="0.1257420683316" flag="0"/>
			<vel value="0.123596305647" flag="0"/>
			<psa03 value="0.167011626200424" flag="0"/>
			<psa10 value="0.0813126165618362" flag="0"/>
			<psa30 value="0.0487803481252537" flag="0"/>
		</comp>
		<comp name="00.ENN" depth="0.0">
			<acc value="0.11399594564448" flag="0"/>
			<vel value="0.141132381955" flag="0"/>
			<psa03 value="0.129510173163218" flag="0"/>
			<psa10 value="0.0786525128429829" flag="0"/>
			<psa30 value="0.0434136559416435" flag="0"/>
		</comp>
		<comp name="00.ENZ" depth="0.0">
			<acc value="0.062758460027148" flag="0"/>
			<vel value="0.0754854891449" flag="0"/>
			<psa03 value="0.0922428710541433" flag="0"/>
			<psa10 value="0.0484014713599653" flag="0"/>
			<psa30 value="0.02602948099202" flag="0"/>
		</comp>
	</station>
	<station code="R4455" name="R4455" netid="AM" source="Raspberry Shake (raspishake)" insttype="" lat="43.10810811" lon="12.37871696">
		<comp name="00.ENE" depth="0.0">
			<acc value="0.1071179184573" flag="0"/>
			<vel value="0.0962742979421" flag="0"/>
			<psa03 value="0.126761689006285" flag="0"/>
			<psa10 value="0.0748656694831894" flag="0"/>
			<psa30 value="0.0331329015587815" flag="0"/>
		</comp>
		<comp name="00.ENN" depth="0.0">
			<acc value="0.10922459074404" flag="0"/>
			<vel value="0.0872639057534" flag="0"/>
			<psa03 value="0.128603508934485" flag="0"/>
			<psa10 value="0.0753849963860979" flag="0"/>
			<psa30 value="0.0378814894627733" flag="0"/>
		</comp>
		<comp name="00.ENZ" depth="0.0">
			<acc value="0.075592494151782" flag="0"/>
			<vel value="0.0654559743806" flag="0"/>
			<psa03 value="0.105117442681462" flag="0"/>
			<psa10 value="0.0513663277669534" flag="0"/>
			<psa30 value="0.031344593092115" flag="0"/>
		</comp>
	</station>
	<station code="APEC" name="APEC" netid="IV" source="Italian National Seismic Network (INSN)" insttype="" lat="43.55846" lon="12.41991">
		<comp name=".HNE" depth="0.0">
			<acc value="0.014005931967612" flag="0"/>
			<vel value="0.0075128837432" flag="0"/>
			<psa03 value="0.0444424388851455" flag="0"/>
			<psa10 value="0.00770912787938743" flag="0"/>
			<psa30 value="0.000814822571745094" flag="0"/>
		</comp>
		<comp name=".HNN" depth="0.0">
			<acc value="0.012939542346498" flag="0"/>
			<vel value="0.00822514149281" flag="0"/>
			<psa03 value="0.0463502006816566" flag="0"/>
			<psa10 value="0.00829974606744218" flag="0"/>
			<psa30 value="0.000877556050449384" flag="0"/>
		</comp>
		<comp name=".HNZ" depth="0.0">
			<acc value="0.0089979310958268" flag="0"/>
			<vel value="0.00458764764651" flag="0"/>
			<psa03 value="0.0200737360364747" flag="0"/>
			<psa10 value="0.005403897044174" flag="0"/>
			<psa30 value="0.00135864917050546" flag="0"/>
		</comp>
	</station>
	<station code="ATCC" name="ATCC" netid="IV" source="Italian National Seismic Network (INSN)" insttype="" lat="43.18514" lon="12.63994">
		<comp name=".HNE" depth="1.0">
			<acc value="0.012421607822394" flag="0"/>
			<vel value="0.00856338207702" flag="0"/>
			<psa03 value="0.0306207967066779" flag="0"/>
			<psa10 value="0.0124381283399713" flag="0"/>
			<psa30 value="0.00407786180499658" flag="0"/>
		</comp>
		<comp name=".HNN" depth="1.0">
			<acc value="0.013266657872316" flag="0"/>
			<vel value="0.00865714963625" flag="0"/>
			<psa03 value="0.0344634965791783" flag="0"/>
			<psa10 value="0.0113671577059281" flag="0"/>
			<psa30 value="0.00176104457722739" flag="0"/>
		</comp>
		<comp name=".HNZ" depth="1.0">
			<acc value="0.0086597510696004" flag="0"/>
			<vel value="0.00510285432214" flag="0"/>
			<psa03 value="0.0172794558770462" flag="0"/>
			<psa10 value="0.00943681389261215" flag="0"/>
			<psa30 value="0.00141284994854162" flag="0"/>
		</comp>
	</station>
	<station code="ATFO" name="ATFO" netid="IV" source="Italian National Seismic Network (INSN)" insttype="" lat="43.3666" lon="12.5715">
		<comp name=".HNE" depth="1.0">
			<acc value="0.011133888123534" flag="0"/>
			<vel value="0.00876283333716" flag="0"/>
			<psa03 value="0.0407765918740834" flag="0"/>
			<psa10 value="0.0151372299546923" flag="0"/>
			<psa30 value="0.00230129890809113" flag="0"/>
		</comp>
		<comp name=".HNN" depth="1.0">
			<acc value="0.0099594645968562" flag="0"/>
			<vel value="0.00543505041889" flag="0"/>
			<psa03 value="0.027952557448906" flag="0"/>
			<psa10 value="0.00925165568926798" flag="0"/>
			<psa30 value="0.00218336734570388" flag="0"/>
		</comp>
		<comp name=".HNZ" depth="1.0">
			<acc value="0.0049604526536118" flag="0"/>
			<vel value="0.0037985207123" flag="0"/>
			<psa03 value="0.0135384619608241" flag="0"/>
			<psa10 value="0.00728226475806867" flag="0"/>
			<psa30 value="0.00141238564695004" flag="0"/>
		</comp>
	</station>
	<station code="ATPC" name="ATPC" netid="IV" source="Italian National Seismic Network (INSN)" insttype="" lat="43.4807" lon="12.457">
		<comp name=".HNE" depth="1.0">
			<acc value="0.015493501278516" flag="0"/>
			<vel value="0.0110340418331" flag="0"/>
			<psa03 value="0.0372122776307637" flag="0"/>
			<psa10 value="0.0189240686266882" flag="0"/>
			<psa30 value="0.00094755641679722" flag="0"/>
		</comp>
		<comp name=".HNN" depth="1.0">
			<acc value="0.0089897971326324" flag="0"/>
			<vel value="0.00677532779961" flag="0"/>
			<psa03 value="0.0266477757010469" flag="0"/>
			<psa10 value="0.0130280489818125" flag="0"/>
			<psa30 value="0.000870774299107049" flag="0"/>
		</comp>
		<comp name=".HNZ" depth="1.0">
			<acc value="0.0062664469009314" flag="0"/>
			<vel value="0.00479801103127" flag="0"/>
			<psa03 value="0.0146258321708588" flag="0"/>
			<psa10 value="0.00739327633076431" flag="0"/>
			<psa30 value="0.000698033220443813" flag="0"/>
		</comp>
	</station>
	<station code="ATPI" name="ATPI" netid="IV" source="Italian National Seismic Network (INSN)" insttype="" lat="43.45068" lon="12.40222">
		<comp name=".HNE" depth="1.0">
			<acc value="0.007170360988806" flag="0"/>
			<vel value="0.00546206502309" flag="0"/>
			<psa03 value="0.0208128266642702" flag="0"/>
			<psa10 value="0.00969661985347541" flag="0"/>
			<psa30 value="0.000654866298344424" flag="0"/>
		</comp>
		<comp name=".HNN" depth="1.0">
			<acc value="0.0071425276762698" flag="0"/>
			<vel value="0.00573462717798" flag="0"/>
			<psa03 value="0.017163187758224" flag="0"/>
			<psa10 value="0.0101429566086009" flag="0"/>
			<psa30 value="0.00103691348209418" flag="0"/>
		</comp>
		<comp name=".HNZ" depth="1.0">
			<acc value="0.0061920830071674" flag="0"/>
			<vel value="0.00355938021557" flag="0"/>
			<psa03 value="0.00984324972323812" flag="0"/>
			<psa10 value="0.00729936073433632" flag="0"/>
			<psa30 value="0.00069945847110916" flag="0"/>
		</comp>
	</station>
	<station code="ATVO" name="ATVO" netid="IV" source="Italian National Seismic Network (INSN)" insttype="" lat="43.38211" lon="12.40663">
		<comp name=".HNE" depth="1.0">
			<acc value="0.0056191651466478" flag="0"/>
			<vel value="0.0048917428082" flag="0"/>
			<psa03 value="0.0185987490029417" flag="0"/>
			<psa10 value="0.00776496767224942" flag="0"/>
			<psa30 value="0.000725958195332259" flag="0"/>
		</comp>
		<comp name=".HNN" depth="1.0">
			<acc value="0.0049922790851796" flag="0"/>
			<vel value="0.0043668689679" flag="0"/>
			<psa03 value="0.0164198898204293" flag="0"/>
			<psa10 value="0.00903787277722323" flag="0"/>
			<psa30 value="0.000758381645310598" flag="0"/>
		</comp>
		<comp name=".HNZ" depth="1.0">
			<acc value="0.002868283728777" flag="0"/>
			<vel value="0.00301405546168" flag="0"/>
			<psa03 value="0.0096547782535488" flag="0"/>
			<psa10 value="0.00500118786665675" flag="0"/>
			<psa30 value="0.000409956454478035" flag="0"/>
		</comp>
	</station>
	<station code="COR1" name="COR1" netid="IV" source="Italian National Seismic Network (INSN)" insttype="" lat="43.63183" lon="13.00033">
		<comp name=".HNE" depth="0.0">
			<acc value="0.053075910007494" flag="0"/>
			<vel value="0.0542514914673" flag="0"/>
			<psa03 value="0.133582578356725" flag="0"/>
			<psa10 value="0.0954126731214976" flag="0"/>
			<psa30 value="0.0192809489348993" flag="0"/>
		</comp>
		<comp name=".HNN" depth="0.0">
			<acc value="0.063968656117656" flag="0"/>
			<vel value="0.0460174705829" flag="0"/>
			<psa03 value="0.136127840718164" flag="0"/>
			<psa10 value="0.087577871604257" flag="0"/>
			<psa30 value="0.0170601684857892" flag="0"/>
		</comp>
		<comp name=".HNZ" depth="0.0">
			<acc value="0.03322977140877" flag="0"/>
			<vel value="0.023563205352" flag="0"/>
			<psa03 value="0.0913530933605772" flag="0"/>
			<psa10 value="0.0406948908366312" flag="0"/>
			<psa30 value="0.0107246896247227" flag="0"/>
		</comp>
	</station>
	<station code="FANO" name="FANO" netid="IV" source="Italian National Seismic Network (INSN)" insttype="" lat="43.843471" lon="13.018354">
		<comp name=".HNE" depth="0.0">
			<acc value="0.1275306906831" flag="0"/>
			<vel value="0.0859755213299" flag="0"/>
			<psa03 value="0.203942926884852" flag="0"/>
			<psa10 value="0.192848320254735" flag="0"/>
			<psa30 value="0.0207599635790543" flag="0"/>
		</comp>
		<comp name=".HNN" depth="0.0">
			<acc value="0.095797423275846" flag="0"/>
			<vel value="0.086159894201" flag="0"/>
			<psa03 value="0.168297482215463" flag="0"/>
			<psa10 value="0.112751346723438" flag="0"/>
			<psa30 value="0.0163284700143214" flag="0"/>
		</comp>
		<comp name=".HNZ" depth="0.0">
			<acc value="0.08776708230699" flag="0"/>
			<vel value="0.0360973226474" flag="0"/>
			<psa03 value="0.120197837517054" flag="0"/>
			<psa10 value="0.0562210731202761" flag="0"/>
			<psa30 value="0.00788648160737274" flag="0"/>
		</comp>
	</station>
	<station code="FEMA" name="FEMA" netid="IV" source="Italian National Seismic Network (INSN)" insttype="" lat="42.9621" lon="13.04976">
		<comp name=".HNE" depth="0.0">
			<acc value="0.01501664465739" flag="0"/>
			<vel value="0.00933268994224" flag="0"/>
			<psa03 value="0.0388728433642453" flag="0"/>
			<psa10 value="0.0108493271521967" flag="0"/>
			<psa30 value="0.00199152109516655" flag="0"/>
		</comp>
		<comp name=".HNN" depth="0.0">
			<acc value="0.011419539642408" flag="0"/>
			<vel value="0.00625592178248" flag="0"/>
			<psa03 value="0.0337471496455517" flag="0"/>
			<psa10 value="0.00887363064696917" flag="0"/>
			<psa30 value="0.00128760633926657" flag="0"/>
		</comp>
		<comp name=".HNZ" depth="0.0">
			<acc value="0.006407127382119" flag="0"/>
			<vel value="0.00491109963594" flag="0"/>
			<psa03 value="0.0131892995076013" flag="0"/>
			<psa10 value="0.00814560616893004" flag="0"/>
			<psa30 value="0.00129751699580132" flag="0"/>
		</comp>
	</station>
	<station code="FIAM" name="FIAM" netid="IV" source="Italian National Seismic Network (INSN)" insttype="" lat="42.26802" lon="13.11718">
		<comp name=".HNE" depth="0.0">
			<acc value="0.0022689567299358" flag="0"/>
			<vel value="0.00291530189133" flag="0"/>
			<psa03 value="0.0046745847333899" flag="0"/>
			<psa10 value="0.0067807932567708" flag="0"/>
			<psa30 value="0.000758104022755187" flag="0"/>
		</comp>
		<comp name=".HNN" depth="0.0">
			<acc value="0.0020507778233088" flag="0"/>
			<vel value="0.00249357611269" flag="0"/>
			<psa03 value="0.0042342192983316" flag="0"/>
			<psa10 value="0.00494723491753747" flag="0"/>
			<psa30 value="0.000948903068506056" flag="0"/>
		</comp>
		<comp name=".HNZ" depth="0.0">
			<acc value="0.0015148494500022" flag="0"/>
			<vel value="0.00182719535718" flag="0"/>
			<psa03 value="0.00404231823947259" flag="0"/>
			<psa10 value="0.00241719309592911" flag="0"/>
			<psa30 value="0.000644914649514508" flag="0"/>
		</comp>
	</station>
	<station code="FOSV" name="FOSV" netid="IV" source="Italian National Seismic Network (INSN)" insttype="" lat="43.29483" lon="12.76117">
		<comp name=".HNE" depth="0.0">
			<acc value="0.008944705591548" flag="0"/>
			<vel value="0.00822734428458" flag="0"/>
			<psa03 value="0.0372042067836173" flag="0"/>
			<psa10 value="0.0135310360522374" flag="0"/>
			<psa30 value="0.00192191710924404" flag="0"/>
		</comp>
		<comp name=".HNN" depth="0.0">
			<acc value="0.0091448185201314" flag="0"/>
			<vel value="0.00626959066381" flag="0"/>
			<psa03 value="0.0185983323086597" flag="0"/>
			<psa10 value="0.00825857302741448" flag="0"/>
			<psa30 value="0.00152937329264173" flag="0"/>
		</comp>
		<comp name=".HNZ" depth="0.0">
			<acc value="0.0061220438884338" flag="0"/>
			<vel value="0.00370317980358" flag="0"/>
			<psa03 value="0.014949470797827" flag="0"/>
			<psa10 value="0.00588475530491111" flag="0"/>
			<psa30 value="0.00151250488352767" flag="0"/>
		</comp>
	</station>
	<station code="GUMA" name="GUMA" netid="IV" source="Italian National Seismic Network (INSN)" insttype="" lat="43.0627" lon="13.3352">
		<comp name=".HNE" depth="0.0">
			<acc value="0.038005286859528" flag="0"/>
			<vel value="0.0264859971505" flag="0"/>
			<psa03 value="0.0852964785980458" flag="0"/>
			<psa10 value="0.0278637064587887" flag="0"/>
			<psa30 value="0.0023385751274589" flag="0"/>
		</comp>
		<comp name=".HNN" depth="0.0">
			<acc value="0.034619461284156" flag="0"/>
			<vel value="0.0193973687745" flag="0"/>
			<psa03 value="0.0897673216442975" flag="0"/>
			<psa10 value="0.026297375822092" flag="0"/>
			<psa30 value="0.00179190537160419" flag="0"/>
		</comp>
		<comp name=".HNZ" depth="0.0">
			<acc value="0.012541137225684" flag="0"/>
			<vel value="0.00743959328605" flag="0"/>
			<psa03 value="0.0427663695204317" flag="0"/>
			<psa10 value="0.0109722565456523" flag="0"/>
			<psa30 value="0.00299069686898888" flag="0"/>
		</comp>
	</station>
	<station code="MDAR" name="MDAR" netid="IV" source="Italian National Seismic Network (INSN)" insttype="" lat="43.1927" lon="13.1427">
		<comp name=".HNE" depth="0.0">
			<acc value="0.011249025305436" flag="0"/>
			<vel value="0.00695332988431" flag="0"/>
			<psa03 value="0.015114637989337" flag="0"/>
			<psa10 value="0.00673793869913863" flag="0"/>
			<psa30 value="0.00148118749640435" flag="0"/>
		</comp>
		<comp name=".HNN" depth="0.0">
			<acc value="0.013192724598684" flag="0"/>
			<vel value="0.00507776802895" flag="0"/>
			<psa03 value="0.0218369947708112" flag="0"/>
			<psa10 value="0.00657877206136338" flag="0"/>
			<psa30 value="0.00206918415662799" flag="0"/>
		</comp>
		<comp name=".HNZ" depth="0.0">
			<acc value="0.006610243692624" flag="0"/>
			<vel value="0.00671441187273" flag="0"/>
			<psa03 value="0.0132154340514194" flag="0"/>
			<psa10 value="0.00482090404873136" flag="0"/>
			<psa30 value="0.00182221779632005" flag="0"/>
		</comp>
	</station>
	<station code="MGAB" name="MGAB" netid="IV" source="Italian National Seismic Network (INSN)" insttype="" lat="42.91263" lon="12.11214">
		<comp name=".HNE" depth="0.0">
			<acc value="0.0075075649649148" flag="0"/>
			<vel value="0.00580461239636" flag="0"/>
			<psa03 value="0.0189214539742846" flag="0"/>
			<psa10 value="0.00611822280221772" flag="0"/>
			<psa30 value="0.00130363104665752" flag="0"/>
		</comp>
		<comp name=".HNN" depth="0.0">
			<acc value="0.010991727949746" flag="0"/>
			<vel value="0.00829312750969" flag="0"/>
			<psa03 value="0.0226229413671535" flag="0"/>
			<psa10 value="0.0116269692921485" flag="0"/>
			<psa30 value="0.00108096108753387" flag="0"/>
		</comp>
		<comp name=".HNZ" depth="0.0">
			<acc value="0.0034109168489178" flag="0"/>
			<vel value="0.00292558646836" flag="0"/>
			<psa03 value="0.008891650226116" flag="0"/>
			<psa10 value="0.00669861500035216" flag="0"/>
			<psa30 value="0.000948899109908006" flag="0"/>
		</comp>
	</station>
	<station code="MML1" name="MML1" netid="IV" source="Italian National Seismic Network (INSN)" insttype="" lat="43.1135" lon="12.9717">
		<comp name=".HNE" depth="0.0">
			<acc value="0.0100344737077362" flag="0"/>
			<vel value="0.00523291482615" flag="0"/>
			<psa03 value="0.035406134545152" flag="0"/>
			<psa10 value="0.00594089371130477" flag="0"/>
			<psa30 value="0.00170462354794301" flag="0"/>
		</comp>
		<comp name=".HNN" depth="0.0">
			<acc value="0.0090000230434578" flag="0"/>
			<vel value="0.00778197336539" flag="0"/>
			<psa03 value="0.0268944352701648" flag="0"/>
			<psa10 value="0.0121603146236531" flag="0"/>
			<psa30 value="0.00337130416568946" flag="0"/>
		</comp>
		<comp name=".HNZ" depth="0.0">
			<acc value="0.0075693229611474" flag="0"/>
			<vel value="0.00465359959261" flag="0"/>
			<psa03 value="0.0125414961771708" flag="0"/>
			<psa10 value="0.00697312334143216" flag="0"/>
			<psa30 value="0.00471228799928559" flag="0"/>
		</comp>
	</station>
	<station code="MNTP" name="MNTP" netid="IV" source="Italian National Seismic Network (INSN)" insttype="" lat="43.137378" lon="13.469252">
		<comp name=".HNE" depth="0.0">
			<acc value="0.04834870376124" flag="0"/>
			<vel value="0.027761469065" flag="0"/>
			<psa03 value="0.164632520680007" flag="0"/>
			<psa10 value="0.0192612065854174" flag="0"/>
			<psa30 value="0.00382197193688132" flag="0"/>
		</comp>
		<comp name=".HNN" depth="0.0">
			<acc value="0.049467794847414" flag="0"/>
			<vel value="0.0198490864897" flag="0"/>
			<psa03 value="0.0855772992843277" flag="0"/>
			<psa10 value="0.0168838622230257" flag="0"/>
			<psa30 value="0.00588050038763364" flag="0"/>
		</comp>
		<comp name=".HNZ" depth="0.0">
			<acc value="0.021766114542558" flag="0"/>
			<vel value="0.00916497379835" flag="0"/>
			<psa03 value="0.0476513337504401" flag="0"/>
			<psa10 value="0.0119940923622629" flag="0"/>
			<psa30 value="0.00267440591626855" flag="0"/>
		</comp>
	</station>
	<station code="MURB" name="MURB" netid="IV" source="Italian National Seismic Network (INSN)" insttype="" lat="43.263" lon="12.5246">
		<comp name=".HNE" depth="0.0">
			<acc value="0.027382557481902" flag="0"/>
			<vel value="0.0172680040727" flag="0"/>
			<psa03 value="0.132013880688409" flag="0"/>
			<psa10 value="0.020475634535279" flag="0"/>
			<psa30 value="0.00250346584232397" flag="0"/>
		</comp>
		<comp name=".HNN" depth="0.0">
			<acc value="0.019762535949288" flag="0"/>
			<vel value="0.0101579717283" flag="0"/>
			<psa03 value="0.0868834899799329" flag="0"/>
			<psa10 value="0.0143186379144819" flag="0"/>
			<psa30 value="0.00350735776190583" flag="0"/>
		</comp>
		<comp name=".HNZ" depth="0.0">
			<acc value="0.0079026656553972" flag="0"/>
			<vel value="0.0065606809" flag="0"/>
			<psa03 value="0.0183015717642954" flag="0"/>
			<psa10 value="0.00897531207037977" flag="0"/>
			<psa30 value="0.00194598849552232" flag="0"/>
		</comp>
	</station>
	<station code="PCRO" name="PCRO" netid="IV" source="Italian National Seismic Network (INSN)" insttype="" lat="43.60768" lon="13.53233">
		<comp name=".HNE" depth="0.0">
			<acc value="0.5358095741106" flag="0"/>
			<vel value="0.0846718732244" flag="0"/>
			<psa03 value="0.33495368903822" flag="0"/>
			<psa10 value="0.0668289845923139" flag="0"/>
			<psa30 value="0.00930842747096934" flag="0"/>
		</comp>
		<comp name=".HNN" depth="0.0">
			<acc value="0.40258643903988" flag="0"/>
			<vel value="0.0758204170932" flag="0"/>
			<psa03 value="0.435218872781116" flag="0"/>
			<psa10 value="0.126546433080191" flag="0"/>
			<psa30 value="0.00622448275810511" flag="0"/>
		</comp>
		<comp name=".HNZ" depth="0.0">
			<acc value="0.20143039637826" flag="0"/>
			<vel value="0.0539851672211" flag="0"/>
			<psa03 value="0.267156176952133" flag="0"/>
			<psa10 value="0.0490912470542042" flag="0"/>
			<psa30 value="0.00402093678399367" flag="0"/>
		</comp>
	</station>
	<station code="PIEI" name="PIEI" netid="IV" source="Italian National Seismic Network (INSN)" insttype="" lat="43.53567" lon="12.535">
		<comp name=".HNE" depth="0.0">
			<acc value="0.016089583724208" flag="0"/>
			<vel value="0.00822782806183" flag="0"/>
			<psa03 value="0.0455696020956341" flag="0"/>
			<psa10 value="0.00623351762746608" flag="0"/>
			<psa30 value="0.000412340727007888" flag="0"/>
