<stationlist created="1694613687">
	<station code="R3BE1" name="R3BE1" netid="AM" source="Raspberry Shake (raspishake)" insttype="" lat="42.3963964" lon="12.85959568">
		<comp name="00.ENE" depth="0.0">
			<acc value="0.1257420683316" flag="0"/>
			<vel value="0.123596305647" flag="0"/>
			<psa03 value="0.167011626200424" flag="0"/>
			<psa10 value="0.0813126165618362" flag="0"/>
			<psa30 value="0.0487803481252537" flag="0"/>
		</comp>
		<comp name="00.ENN" depth="0.0">
			<acc value="0.11399594564448" flag="0"/>
			<vel value="0.141132381955" flag="0"/>
			<psa03 value="0.129510173163218" flag="0"/>
			<psa10 value="0.0786525128429829" flag="0"/>
			<psa30 value="0.0434136559416435" flag="0"/>
		</comp>
		<comp name="00.ENZ" depth="0.0">
			<acc value="0.062758460027148" flag="0"/>
			<vel value="0.0754854891449" flag="0"/>
			<psa03 value="0.0922428710541433" flag="0"/>
			<psa10 value="0.0484014713599653" flag="0"/>
			<psa30 value="0.02602948099202" flag="0"/>
		</comp>
	</station>
	<station code="R4455" name="R4455" netid="AM" source="Raspberry Shake (raspishake)" insttype="" lat="43.10810811" lon="12.37871696">
		<comp name="00.ENE" depth="0.0">
			<acc value="0.1071179184573" flag="0"/>
			<vel value="0.0962742979421" flag="0"/>
			<psa03 value="0.126761689006285" flag="0"/>
			<psa10 value="0.0748656694831894" flag="0"/>
			<psa30 value="0.0331329015587815" flag="0"/>
		</comp>
		<comp name="00.ENN" depth="0.0">
			<acc value="0.10922459074404" flag="0"/>
			<vel value="0.0872639057534" flag="0"/>
			<psa03 value="0.128603508934485" flag="0"/>
			<psa10 value="0.0753849963860979" flag="0"/>
			<psa30 value="0.0378814894627733" flag="0"/>
		</comp>
		<comp name="00.ENZ" depth="0.0">
			<acc value="0.075592494151782" flag="0"/>
			<vel value="0.0654559743806" flag="0"/>
			<psa03 value="0.105117442681462" flag="0"/>
			<psa10 value="0.0513663277669534" flag="0"/>
			<psa30 value="0.031344593092115" flag="0"/>
		</comp>
	</station>
	<station code="APEC" name="APEC" netid="IV" source="Italian National Seismic Network (INSN)" insttype="" lat="43.55846" lon="12.41991">
		<comp name=".HNE" depth="0.0">
			<acc value="0.014005931967612" flag="0"/>
			<vel value="0.0075128837432" flag="0"/>
			<psa03 value="0.0444424388851455" flag="0"/>
			<psa10 value="0.00770912787938743" flag="0"/>
			<psa30 value="0.000814822571745094" flag="0"/>
		</comp>
		<comp name=".HNN" depth="0.0">
			<acc value="0.012939542346498" flag="0"/>
			<vel value="0.00822514149281" flag="0"/>
			<psa03 value="0.0463502006816566" flag="0"/>
			<psa10 value="0.00829974606744218" flag="0"/>
			<psa30 value="0.000877556050449384" flag="0"/>
		</comp>
		<comp name=".HNZ" depth="0.0">
			<acc value="0.0089979310958268" flag="0"/>
			<vel value="0.00458764764651" flag="0"/>
			<psa03 value="0.0200737360364747" flag="0"/>
			<psa10 value="0.005403897044174" flag="0"/>
			<psa30 value="0.00135864917050546" flag="0"/>
		</comp>
	</station>
	<station code="ARCI" name="ARCI" netid="IV" source="Italian National Seismic Network (INSN)" insttype="" lat="42.8519" lon="11.4754">
		<comp name=".HNE" depth="0.0">
			<acc value="0.0007158571265562" flag="0"/>
			<vel value="0.00115031964307" flag="0"/>
			<psa03 value="0.00105831083055522" flag="0"/>
			<psa10 value="0.00258903791730646" flag="0"/>
			<psa30 value="0.000287831411168531" flag="0"/>
		</comp>
		<comp name=".HNN" depth="0.0">
			<acc value="0.0005822722134342" flag="0"/>
			<vel value="0.000742807972696" flag="0"/>
			<psa03 value="0.00126326955780235" flag="0"/>
			<psa10 value="0.00130615609674457" flag="0"/>
			<psa30 value="0.000330044441949294" flag="0"/>
		</comp>
		<comp name=".HNZ" depth="0.0">
			<acc value="0.00034702181842284" flag="0"/>
			<vel value="0.000557075545903" flag="0"/>
			<psa03 value="0.000836385565944402" flag="0"/>
			<psa10 value="0.000754201036334171" flag="0"/>
			<psa30 value="0.000229050381796907" flag="0"/>
		</comp>
	</station>
	<station code="ASCOL" name="ASCOL" netid="IV" source="Italian National Seismic Network (INSN)" insttype="" lat="42.851223" lon="13.58969">
		<comp name=".HNE" depth="0.0">
			<acc value="0.0058696979267202" flag="0"/>
			<vel value="0.00228237255217" flag="0"/>
			<psa03 value="0.00496306413020105" flag="0"/>
			<psa10 value="0.00412633553699327" flag="0"/>
			<psa30 value="0.00038611216657762" flag="0"/>
		</comp>
		<comp name=".HNN" depth="0.0">
			<acc value="0.0045709166002818" flag="0"/>
			<vel value="0.00200463270209" flag="0"/>
			<psa03 value="0.00822449209785511" flag="0"/>
			<psa10 value="0.00388151134982779" flag="0"/>
			<psa30 value="0.000348722137588622" flag="0"/>
		</comp>
		<comp name=".HNZ" depth="0.0">
			<acc value="0.0039297929147748" flag="0"/>
			<vel value="0.00184684971451" flag="0"/>
			<psa03 value="0.00431509640083203" flag="0"/>
			<psa10 value="0.00373293330413684" flag="0"/>
			<psa30 value="0.000208885022503234" flag="0"/>
		</comp>
	</station>
	<station code="ATCC" name="ATCC" netid="IV" source="Italian National Seismic Network (INSN)" insttype="" lat="43.18514" lon="12.63994">
		<comp name=".HNE" depth="1.0">
			<acc value="0.012469329704268" flag="0"/>
			<vel value="0.0085647480963" flag="0"/>
			<psa03 value="0.0306218019816007" flag="0"/>
			<psa10 value="0.0124378151942067" flag="0"/>
			<psa30 value="0.00407703049992954" flag="0"/>
		</comp>
		<comp name=".HNN" depth="1.0">
			<acc value="0.01325817224976" flag="0"/>
			<vel value="0.00865994153537" flag="0"/>
			<psa03 value="0.0344638299346128" flag="0"/>
			<psa10 value="0.01136721395962" flag="0"/>
			<psa30 value="0.00176065038444542" flag="0"/>
		</comp>
		<comp name=".HNZ" depth="1.0">
			<acc value="0.0086176258415466" flag="0"/>
			<vel value="0.00510310692527" flag="0"/>
			<psa03 value="0.0172806512687637" flag="0"/>
			<psa10 value="0.00943652137323748" flag="0"/>
			<psa30 value="0.00141243158749612" flag="0"/>
		</comp>
	</station>
	<station code="ATFO" name="ATFO" netid="IV" source="Italian National Seismic Network (INSN)" insttype="" lat="43.3666" lon="12.5715">
		<comp name=".HNE" depth="1.0">
			<acc value="0.011154068788038" flag="0"/>
			<vel value="0.009173064138" flag="0"/>
			<psa03 value="0.0407534965941336" flag="0"/>
			<psa10 value="0.0151896499897732" flag="0"/>
			<psa30 value="0.00257530018432967" flag="0"/>
		</comp>
		<comp name=".HNN" depth="1.0">
			<acc value="0.0099905862070776" flag="0"/>
			<vel value="0.00566631419065" flag="0"/>
			<psa03 value="0.0279144090884337" flag="0"/>
			<psa10 value="0.00921024638363797" flag="0"/>
			<psa30 value="0.00238918598018056" flag="0"/>
		</comp>
		<comp name=".HNZ" depth="1.0">
			<acc value="0.005001916786128" flag="0"/>
			<vel value="0.00361322576818" flag="0"/>
			<psa03 value="0.013546431238732" flag="0"/>
			<psa10 value="0.00725094549578605" flag="0"/>
			<psa30 value="0.001603046923156" flag="0"/>
		</comp>
	</station>
	<station code="ATLO" name="ATLO" netid="IV" source="Italian National Seismic Network (INSN)" insttype="" lat="43.31516" lon="12.40726">
		<comp name=".HNE" depth="1.0">
			<acc value="0.0053140576641918" flag="0"/>
			<vel value="0.00403299731781" flag="0"/>
			<psa03 value="0.0192060769958336" flag="0"/>
			<psa10 value="0.00660904875456377" flag="0"/>
			<psa30 value="0.00100258329122302" flag="0"/>
		</comp>
		<comp name=".HNN" depth="1.0">
			<acc value="0.0062748355979262" flag="0"/>
			<vel value="0.0057725274732" flag="0"/>
			<psa03 value="0.017383224469989" flag="0"/>
			<psa10 value="0.00668519473633867" flag="0"/>
			<psa30 value="0.00147934789537148" flag="0"/>
		</comp>
		<comp name=".HNZ" depth="1.0">
			<acc value="0.0007581445818003" flag="0"/>
			<vel value="0.000640248461412" flag="0"/>
			<psa03 value="0.00276186883265086" flag="0"/>
			<psa10 value="0.00106254769325926" flag="0"/>
			<psa30 value="0.000191794788796682" flag="0"/>
		</comp>
	</station>
	<station code="ATPC" name="ATPC" netid="IV" source="Italian National Seismic Network (INSN)" insttype="" lat="43.4807" lon="12.457">
		<comp name=".HNE" depth="1.0">
			<acc value="0.015532731442518" flag="0"/>
			<vel value="0.0115407533773" flag="0"/>
			<psa03 value="0.0372404852285295" flag="0"/>
			<psa10 value="0.0190692332430985" flag="0"/>
			<psa30 value="0.00165386924822151" flag="0"/>
		</comp>
		<comp name=".HNN" depth="1.0">
			<acc value="0.0090450723547878" flag="0"/>
			<vel value="0.00712167451386" flag="0"/>
			<psa03 value="0.0266722174243277" flag="0"/>
			<psa10 value="0.0130715406129284" flag="0"/>
			<psa30 value="0.00133249629217226" flag="0"/>
		</comp>
		<comp name=".HNZ" depth="1.0">
			<acc value="0.0063286744158018" flag="0"/>
			<vel value="0.00480748479596" flag="0"/>
			<psa03 value="0.0146294925695738" flag="0"/>
			<psa10 value="0.00739986270457253" flag="0"/>
			<psa30 value="0.00102592004550177" flag="0"/>
		</comp>
	</station>
	<station code="ATPI" name="ATPI" netid="IV" source="Italian National Seismic Network (INSN)" insttype="" lat="43.45068" lon="12.40222">
		<comp name=".HNE" depth="1.0">
			<acc value="0.0072654653707284" flag="0"/>
			<vel value="0.00528926903917" flag="0"/>
			<psa03 value="0.0208261504636075" flag="0"/>
			<psa10 value="0.00978204113720292" flag="0"/>
			<psa30 value="0.000792089763726349" flag="0"/>
		</comp>
		<comp name=".HNN" depth="1.0">
			<acc value="0.0073021644130638" flag="0"/>
			<vel value="0.00611670280738" flag="0"/>
			<psa03 value="0.0172484368951214" flag="0"/>
			<psa10 value="0.0103173609745268" flag="0"/>
			<psa30 value="0.00122370908555373" flag="0"/>
		</comp>
		<comp name=".HNZ" depth="1.0">
			<acc value="0.0061767242083086" flag="0"/>
			<vel value="0.00345675421623" flag="0"/>
			<psa03 value="0.00982967720953568" flag="0"/>
			<psa10 value="0.00738471170089872" flag="0"/>
			<psa30 value="0.00112811171103215" flag="0"/>
		</comp>
	</station>
	<station code="ATVO" name="ATVO" netid="IV" source="Italian National Seismic Network (INSN)" insttype="" lat="43.38211" lon="12.40663">
		<comp name=".HNE" depth="1.0">
			<acc value="0.0056296396822284" flag="0"/>
			<vel value="0.00523917604461" flag="0"/>
			<psa03 value="0.0186917330272413" flag="0"/>
			<psa10 value="0.00778653347589689" flag="0"/>
			<psa30 value="0.00115058069949307" flag="0"/>
		</comp>
		<comp name=".HNN" depth="1.0">
			<acc value="0.0049951766365932" flag="0"/>
			<vel value="0.00403721191966" flag="0"/>
			<psa03 value="0.0164726589411501" flag="0"/>
			<psa10 value="0.00914507362873185" flag="0"/>
			<psa30 value="0.00117796761790658" flag="0"/>
		</comp>
		<comp name=".HNZ" depth="1.0">
			<acc value="0.0028748290404618" flag="0"/>
			<vel value="0.00303475218324" flag="0"/>
			<psa03 value="0.0096653772629727" flag="0"/>
			<psa10 value="0.00502728959577092" flag="0"/>
			<psa30 value="0.000552498787834746" flag="0"/>
		</comp>
	</station>
	<station code="BARO" name="BARO" netid="IV" source="Italian National Seismic Network (INSN)" insttype="" lat="42.24795" lon="12.05123">
		<comp name=".HNE" depth="0.0">
			<acc value="0.00099767309010096" flag="0"/>
			<vel value="0.00152835839632" flag="0"/>
			<psa03 value="0.00176421289909133" flag="0"/>
			<psa10 value="0.00336309739807412" flag="0"/>
			<psa30 value="0.000677440658370793" flag="0"/>
		</comp>
		<comp name=".HNN" depth="0.0">
			<acc value="0.0011363522613186" flag="0"/>
			<vel value="0.00146308629622" flag="0"/>
			<psa03 value="0.00168329738258775" flag="0"/>
			<psa10 value="0.00218882757720799" flag="0"/>
			<psa30 value="0.000572029821252847" flag="0"/>
		</comp>
		<comp name=".HNZ" depth="0.0">
			<acc value="0.00076569459651552" flag="0"/>
			<vel value="0.00135437692802" flag="0"/>
			<psa03 value="0.001730280963769" flag="0"/>
			<psa10 value="0.00169641714493728" flag="0"/>
			<psa30 value="0.000322021228159212" flag="0"/>
		</comp>
	</station>
	<station code="BRSN" name="BRSN" netid="IV" source="Italian National Seismic Network (INSN)" insttype="" lat="44.28418" lon="12.08023">
		<comp name=".HNE" depth="0.0">
			<acc value="0.024634628267412" flag="0"/>
			<vel value="0.00971133432423" flag="0"/>
			<psa03 value="0.0137805886776162" flag="0"/>
			<psa10 value="0.0188111430209031" flag="0"/>
			<psa30 value="0.00270323824293295" flag="0"/>
		</comp>
		<comp name=".HNN" depth="0.0">
			<acc value="0.02915960971728" flag="0"/>
			<vel value="0.0122783391242" flag="0"/>
			<psa03 value="0.0167969017747959" flag="0"/>
			<psa10 value="0.0122389123303703" flag="0"/>
			<psa30 value="0.00706059022944145" flag="0"/>
		</comp>
		<comp name=".HNZ" depth="0.0">
			<acc value="0.0069517267821882" flag="0"/>
			<vel value="0.00367679575064" flag="0"/>
			<psa03 value="0.00811021825175328" flag="0"/>
			<psa10 value="0.00443690251676128" flag="0"/>
			<psa30 value="0.00137361870382945" flag="0"/>
		</comp>
	</station>
	<station code="CAFI" name="CAFI" netid="IV" source="Italian National Seismic Network (INSN)" insttype="" lat="43.3292" lon="11.9663">
		<comp name=".HNE" depth="0.0">
			<acc value="0.0026955876177312" flag="0"/>
			<vel value="0.00370745026358" flag="0"/>
			<psa03 value="0.0060652553090179" flag="0"/>
			<psa10 value="0.00714095399066368" flag="0"/>
			<psa30 value="0.00113866449343457" flag="0"/>
		</comp>
		<comp name=".HNN" depth="0.0">
			<acc value="0.0034429348728894" flag="0"/>
			<vel value="0.00467963658262" flag="0"/>
			<psa03 value="0.00654716744167611" flag="0"/>
			<psa10 value="0.00558682431842601" flag="0"/>
			<psa30 value="0.00148065423190923" flag="0"/>
		</comp>
		<comp name=".HNZ" depth="0.0">
			<acc value="0.00203930195433" flag="0"/>
			<vel value="0.00267868783291" flag="0"/>
			<psa03 value="0.00534578284282174" flag="0"/>
			<psa10 value="0.00309362517186046" flag="0"/>
			<psa30 value="0.00076495473699658" flag="0"/>
		</comp>
	</station>
	<station code="CDCA" name="CDCA" netid="IV" source="Italian National Seismic Network (INSN)" insttype="" lat="43.4584" lon="12.2336">
		<comp name=".HNE" depth="0.0">
			<acc value="0.033245782490754" flag="0"/>
			<vel value="0.011136580142" flag="0"/>
			<psa03 value="0.0234088632223083" flag="0"/>
			<psa10 value="0.0227922680009086" flag="0"/>
			<psa30 value="0.00132244687644869" flag="0"/>
		</comp>
		<comp name=".HNN" depth="0.0">
			<acc value="0.049532841919908" flag="0"/>
			<vel value="0.0155398800114" flag="0"/>
			<psa03 value="0.0530955173176381" flag="0"/>
			<psa10 value="0.0320272678993303" flag="0"/>
			<psa30 value="0.00406288914646525" flag="0"/>
		</comp>
		<comp name=".HNZ" depth="0.0">
			<acc value="0.020062429802316" flag="0"/>
			<vel value="0.00773775186254" flag="0"/>
			<psa03 value="0.0325392571285856" flag="0"/>
			<psa10 value="0.0169366225931374" flag="0"/>
			<psa30 value="0.000733290920676474" flag="0"/>
		</comp>
	</station>
	<station code="CESI" name="CESI" netid="IV" source="Italian National Seismic Network (INSN)" insttype="" lat="43.0049" lon="12.9046">
		<comp name=".HNE" depth="0.0">
			<acc value="0.010536590157306" flag="0"/>
			<vel value="0.00768105756785" flag="0"/>
			<psa03 value="0.0311605720474818" flag="0"/>
			<psa10 value="0.0130890280213616" flag="0"/>
			<psa30 value="0.00216609911843732" flag="0"/>
		</comp>
		<comp name=".HNN" depth="0.0">
			<acc value="0.011455256062164" flag="0"/>
			<vel value="0.00942617934613" flag="0"/>
			<psa03 value="0.026739646370344" flag="0"/>
			<psa10 value="0.0121394951194751" flag="0"/>
			<psa30 value="0.00350779112394835" flag="0"/>
		</comp>
		<comp name=".HNZ" depth="0.0">
			<acc value="0.0056496036831672" flag="0"/>
			<vel value="0.00560169981036" flag="0"/>
			<psa03 value="0.0149709982655778" flag="0"/>
			<psa10 value="0.00760741692279164" flag="0"/>
			<psa30 value="0.00314083389816498" flag="0"/>
		</comp>
	</station>
	<station code="COR1" name="COR1" netid="IV" source="Italian National Seismic Network (INSN)" insttype="" lat="43.63183" lon="13.00033">
		<comp name=".HNE" depth="0.0">
			<acc value="0.053075910007494" flag="0"/>
			<vel value="0.0542514914673" flag="0"/>
			<psa03 value="0.133582578356725" flag="0"/>
			<psa10 value="0.0954126731214976" flag="0"/>
			<psa30 value="0.0192809489348993" flag="0"/>
		</comp>
		<comp name=".HNN" depth="0.0">
			<acc value="0.063968656117656" flag="0"/>
			<vel value="0.0460174705829" flag="0"/>
			<psa03 value="0.136127840718164" flag="0"/>
			<psa10 value="0.087577871604257" flag="0"/>
			<psa30 value="0.0170601684857892" flag="0"/>
		</comp>
		<comp name=".HNZ" depth="0.0">
			<acc value="0.03322977140877" flag="0"/>
			<vel value="0.023563205352" flag="0"/>
			<psa03 value="0.0913530933605772" flag="0"/>
			<psa10 value="0.0406948908366312" flag="0"/>
			<psa30 value="0.0107246896247227" flag="0"/>
		</comp>
	</station>
	<station code="FANO" name="FANO" netid="IV" source="Italian National Seismic Network (INSN)" insttype="" lat="43.843471" lon="13.018354">
		<comp name=".HNE" depth="0.0">
			<acc value="0.1275306906831" flag="0"/>
			<vel value="0.0859755213299" flag="0"/>
			<psa03 value="0.203942926884852" flag="0"/>
			<psa10 value="0.192848320254735" flag="0"/>
			<psa30 value="0.0207599635790543" flag="0"/>
		</comp>
		<comp name=".HNN" depth="0.0">
			<acc value="0.095797423275846" flag="0"/>
			<vel value="0.086159894201" flag="0"/>
			<psa03 value="0.168297482215463" flag="0"/>
			<psa10 value="0.112751346723438" flag="0"/>
			<psa30 value="0.0163284700143214" flag="0"/>
		</comp>
		<comp name=".HNZ" depth="0.0">
			<acc value="0.08776708230699" flag="0"/>
			<vel value="0.0360973226474" flag="0"/>
			<psa03 value="0.120197837517054" flag="0"/>
			<psa10 value="0.0562210731202761" flag="0"/>
			<psa30 value="0.00788648160737274" flag="0"/>
		</comp>
	</station>
	<station code="FEMA" name="FEMA" netid="IV" source="Italian National Seismic Network (INSN)" insttype="" lat="42.9621" lon="13.04976">
		<comp name=".HNE" depth="0.0">
			<acc value="0.01501664465739" flag="0"/>
			<vel value="0.00933268994224" flag="0"/>
			<psa03 value="0.0388728433642453" flag="0"/>
			<psa10 value="0.0108493271521967" flag="0"/>
			<psa30 value="0.00199152109516655" flag="0"/>
		</comp>
		<comp name=".HNN" depth="0.0">
			<acc value="0.011419539642408" flag="0"/>
			<vel value="0.00625592178248" flag="0"/>
			<psa03 value="0.0337471496455517" flag="0"/>
			<psa10 value="0.00887363064696917" flag="0"/>
			<psa30 value="0.00128760633926657" flag="0"/>
		</comp>
		<comp name=".HNZ" depth="0.0">
			<acc value="0.006407127382119" flag="0"/>
			<vel value="0.00491109963594" flag="0"/>
			<psa03 value="0.0131892995076013" flag="0"/>
			<psa10 value="0.00814560616893004" flag="0"/>
			<psa30 value="0.00129751699580132" flag="0"/>
		</comp>
	</station>
	<station code="FIAM" name="FIAM" netid="IV" source="Italian National Seismic Network (INSN)" insttype="" lat="42.26802" lon="13.11718">
		<comp name=".HNE" depth="0.0">
			<acc value="0.0022689567299358" flag="0"/>
			<vel value="0.00291530189133" flag="0"/>
			<psa03 value="0.0046745847333899" flag="0"/>
			<psa10 value="0.0067807932567708" flag="0"/>
			<psa30 value="0.000758104022755187" flag="0"/>
		</comp>
		<comp name=".HNN" depth="0.0">
			<acc value="0.0020507778233088" flag="0"/>
			<vel value="0.00249357611269" flag="0"/>
			<psa03 value="0.0042342192983316" flag="0"/>
			<psa10 value="0.00494723491753747" flag="0"/>
			<psa30 value="0.000948903068506056" flag="0"/>
		</comp>
		<comp name=".HNZ" depth="0.0">
			<acc value="0.0015148494500022" flag="0"/>
			<vel value="0.00182719535718" flag="0"/>
			<psa03 value="0.00404231823947259" flag="0"/>
			<psa10 value="0.00241719309592911" flag="0"/>
			<psa30 value="0.000644914649514508" flag="0"/>
		</comp>
	</station>
	<station code="FOSV" name="FOSV" netid="IV" source="Italian National Seismic Network (INSN)" insttype="" lat="43.29483" lon="12.76117">
		<comp name=".HNE" depth="0.0">
			<acc value="0.008944705591548" flag="0"/>
			<vel value="0.00822734428458" flag="0"/>
			<psa03 value="0.0372042067836173" flag="0"/>
