<?xml version="1.0" encoding="UTF-8" standalone="yes"?>
<!DOCTYPE earthquake SYSTEM "stationlist.dtd">
<stationlist created="" xmlns="ch.ethz.sed.shakemap.usgs.xml">
  <station code="AOI" name="AOI" netid="IV" insttype="" lat="43.5502" lon="13.602">
    <comp name="--.HHE">
      <acc value="0.0604622712" flag="0"/>
      <vel value="0.0142815754" flag="0"/>
      <psa03 value="0.0752099825" flag="0"/>
      <psa10 value="0.0209897111" flag="0"/>
      <psa30 value="0.0022279166" flag="0"/>
    </comp>
    <comp name="--.HHZ">
      <acc value="0.0239401908" flag="0"/>
      <vel value="0.0104639996" flag="0"/>
      <psa03 value="0.0623522058" flag="0"/>
      <psa10 value="0.0196937395" flag="0"/>
      <psa30 value="0.0017579720" flag="0"/>
    </comp>
    <comp name="--.HHN">
      <acc value="0.0452442270" flag="0"/>
      <vel value="0.0172702064" flag="0"/>
      <psa03 value="0.0898630691" flag="0"/>
      <psa10 value="0.0228072274" flag="0"/>
      <psa30 value="0.0015891743" flag="0"/>
    </comp>
  </station>
  <station code="APEC" name="APEC" netid="IV" insttype="" lat="43.5585" lon="12.4199">
    <comp name="--.HHE">
      <acc value="0.0109884619" flag="0"/>
      <vel value="0.0074681867" flag="0"/>
      <psa03 value="0.0394725831" flag="0"/>
      <psa10 value="0.0089985407" flag="0"/>
      <psa30 value="0.0007884958" flag="0"/>
    </comp>
    <comp name="--.HHZ">
      <acc value="0.0096788654" flag="0"/>
      <vel value="0.0052282403" flag="0"/>
      <psa03 value="0.0223770669" flag="0"/>
      <psa10 value="0.0055082950" flag="0"/>
      <psa30 value="0.0012143894" flag="0"/>
    </comp>
    <comp name="--.HHN">
      <acc value="0.0150551119" flag="0"/>
      <vel value="0.0100944490" flag="0"/>
      <psa03 value="0.0604219963" flag="0"/>
      <psa10 value="0.0102221754" flag="0"/>
      <psa30 value="0.0008270373" flag="0"/>
    </comp>
  </station>
  <station code="ARVD" name="ARVD" netid="IV" insttype="" lat="43.4981" lon="12.9415">
    <comp name="--.HHE">
      <acc value="0.0120891594" flag="0"/>
      <vel value="0.0071540101" flag="0"/>
      <psa03 value="0.0229735463" flag="0"/>
      <psa10 value="0.0088424520" flag="0"/>
      <psa30 value="0.0044966811" flag="0"/>
    </comp>
    <comp name="--.HHN">
      <acc value="0.0135500703" flag="0"/>
      <vel value="0.0059271054" flag="0"/>
      <psa03 value="0.0204688677" flag="0"/>
      <psa10 value="0.0062593745" flag="0"/>
      <psa30 value="0.0018969876" flag="0"/>
    </comp>
    <comp name="--.HHZ">
      <acc value="0.0103280837" flag="0"/>
      <vel value="0.0068868055" flag="0"/>
      <psa03 value="0.0189838933" flag="0"/>
      <psa10 value="0.0055403696" flag="0"/>
      <psa30 value="0.0042292191" flag="0"/>
    </comp>
  </station>
  <station code="ASSB" name="ASSB" netid="IV" insttype="" lat="43.0426" lon="12.6587">
    <comp name="--.HHE">
      <acc value="0.0078576824" flag="0"/>
      <vel value="0.0050233783" flag="0"/>
      <psa03 value="0.0423519812" flag="0"/>
      <psa10 value="0.0052738083" flag="0"/>
      <psa30 value="0.0022948469" flag="0"/>
    </comp>
    <comp name="--.HHN">
      <acc value="0.0103595765" flag="0"/>
      <vel value="0.0077067566" flag="0"/>
      <psa03 value="0.0242482519" flag="0"/>
      <psa10 value="0.0105791995" flag="0"/>
      <psa30 value="0.0018465582" flag="0"/>
    </comp>
    <comp name="--.HHZ">
      <acc value="0.0066689337" flag="0"/>
      <vel value="0.0051462120" flag="0"/>
      <psa03 value="0.0145775920" flag="0"/>
      <psa10 value="0.0054631321" flag="0"/>
      <psa30 value="0.0014285143" flag="0"/>
    </comp>
  </station>
  <station code="ATFO" name="ATFO" netid="IV" insttype="" lat="43.3666" lon="12.5715">
    <comp name="--.HHE">
      <acc value="0.0116238241" flag="0"/>
      <vel value="0.0089273031" flag="0"/>
      <psa03 value="0.0431863755" flag="0"/>
      <psa10 value="0.0157339427" flag="0"/>
      <psa30 value="0.0022586429" flag="0"/>
    </comp>
    <comp name="--.HHN">
      <acc value="0.0102337807" flag="0"/>
      <vel value="0.0055528376" flag="0"/>
      <psa03 value="0.0293131356" flag="0"/>
      <psa10 value="0.0095825689" flag="0"/>
      <psa30 value="0.0021289638" flag="0"/>
    </comp>
    <comp name="--.HHZ">
      <acc value="0.0051732178" flag="0"/>
      <vel value="0.0039318098" flag="0"/>
      <psa03 value="0.0141003866" flag="0"/>
      <psa10 value="0.0075224825" flag="0"/>
      <psa30 value="0.0013508649" flag="0"/>
    </comp>
  </station>
  <station code="ATMI" name="ATMI" netid="IV" insttype="" lat="43.3342" lon="12.268">
    <comp name="--.HHN">
      <acc value="0.0077907429" flag="0"/>
      <vel value="0.0080017714" flag="0"/>
      <psa03 value="0.0270775189" flag="0"/>
      <psa10 value="0.0137923315" flag="0"/>
      <psa30 value="0.0015177852" flag="0"/>
    </comp>
    <comp name="--.HHE">
      <acc value="0.0099865702" flag="0"/>
      <vel value="0.0080135753" flag="0"/>
      <psa03 value="0.0254131096" flag="0"/>
      <psa10 value="0.0134058560" flag="0"/>
      <psa30 value="0.0012868226" flag="0"/>
    </comp>
    <comp name="--.HHZ">
      <acc value="0.0037288696" flag="0"/>
      <vel value="0.0035192892" flag="0"/>
      <psa03 value="0.0110057567" flag="0"/>
      <psa10 value="0.0052353077" flag="0"/>
      <psa30 value="0.0007089844" flag="0"/>
    </comp>
  </station>
  <station code="ATPC" name="ATPC" netid="IV" insttype="" lat="43.4807" lon="12.457">
    <comp name="--.HHN">
      <acc value="0.0094283934" flag="0"/>
      <vel value="0.0070619703" flag="0"/>
      <psa03 value="0.0272613367" flag="0"/>
      <psa10 value="0.0131797463" flag="0"/>
      <psa30 value="0.0011484030" flag="0"/>
    </comp>
    <comp name="--.HHE">
      <acc value="0.0163011431" flag="0"/>
      <vel value="0.0115409609" flag="0"/>
      <psa03 value="0.0389999620" flag="0"/>
      <psa10 value="0.0195978124" flag="0"/>
      <psa30 value="0.0013333548" flag="0"/>
    </comp>
    <comp name="--.HHZ">
      <acc value="0.0066535345" flag="0"/>
      <vel value="0.0050821870" flag="0"/>
      <psa03 value="0.0151656501" flag="0"/>
      <psa10 value="0.0075783426" flag="0"/>
      <psa30 value="0.0009178610" flag="0"/>
    </comp>
  </station>
  <station code="ATVO" name="ATVO" netid="IV" insttype="" lat="43.3821" lon="12.4066">
    <comp name="--.HHE">
      <acc value="0.0059471677" flag="0"/>
      <vel value="0.0053486394" flag="0"/>
      <psa03 value="0.0190704123" flag="0"/>
      <psa10 value="0.0081702271" flag="0"/>
      <psa30 value="0.0010125639" flag="0"/>
    </comp>
    <comp name="--.HHN">
      <acc value="0.0053307917" flag="0"/>
      <vel value="0.0043308710" flag="0"/>
      <psa03 value="0.0169971575" flag="0"/>
      <psa10 value="0.0091992690" flag="0"/>
      <psa30 value="0.0010687164" flag="0"/>
    </comp>
    <comp name="--.HHZ">
      <acc value="0.0030628499" flag="0"/>
      <vel value="0.0032199480" flag="0"/>
      <psa03 value="0.0100939614" flag="0"/>
      <psa10 value="0.0052751868" flag="0"/>
      <psa30 value="0.0005070386" flag="0"/>
    </comp>
  </station>
  <station code="CESI" name="CESI" netid="IV" insttype="" lat="43.0049" lon="12.9046">
    <comp name="--.HHE">
      <acc value="0.0112568145" flag="0"/>
      <vel value="0.0077433016" flag="0"/>
      <psa03 value="0.0319084676" flag="0"/>
      <psa10 value="0.0133761901" flag="0"/>
      <psa30 value="0.0019460335" flag="0"/>
    </comp>
    <comp name="--.HHN">
      <acc value="0.0122055785" flag="0"/>
      <vel value="0.0099397319" flag="0"/>
      <psa03 value="0.0293828908" flag="0"/>
      <psa10 value="0.0116489331" flag="0"/>
      <psa30 value="0.0025805589" flag="0"/>
    </comp>
    <comp name="--.HHZ">
      <acc value="0.0058732119" flag="0"/>
      <vel value="0.0059131726" flag="0"/>
      <psa03 value="0.0159022808" flag="0"/>
      <psa10 value="0.0078054392" flag="0"/>
      <psa30 value="0.0025860018" flag="0"/>
    </comp>
  </station>
  <station code="CING" name="CING" netid="IV" insttype="" lat="43.3756" lon="13.1954">
    <comp name="--.HHE">
      <acc value="0.0106817702" flag="0"/>
      <vel value="0.0053172068" flag="0"/>
      <psa03 value="0.0239922276" flag="0"/>
      <psa10 value="0.0067510984" flag="0"/>
      <psa30 value="0.0029130886" flag="0"/>
    </comp>
    <comp name="--.HHN">
      <acc value="0.0150614756" flag="0"/>
      <vel value="0.0047150203" flag="0"/>
      <psa03 value="0.0238283722" flag="0"/>
      <psa10 value="0.0051904843" flag="0"/>
      <psa30 value="0.0025826170" flag="0"/>
    </comp>
    <comp name="--.HHZ">
      <acc value="0.0102792723" flag="0"/>
      <vel value="0.0055628939" flag="0"/>
      <psa03 value="0.0230666882" flag="0"/>
      <psa10 value="0.0065970205" flag="0"/>
      <psa30 value="0.0017060429" flag="0"/>
    </comp>
  </station>
  <station code="CRE" name="CRE" netid="IV" insttype="" lat="43.6189" lon="11.9517">
    <comp name="--.HHZ">
      <acc value="0.0025321818" flag="0"/>
      <vel value="0.0025535288" flag="0"/>
      <psa03 value="0.0049877043" flag="0"/>
      <psa10 value="0.0030834528" flag="0"/>
      <psa30 value="0.0005901869" flag="0"/>
    </comp>
    <comp name="--.HHN">
      <acc value="0.0054016211" flag="0"/>
      <vel value="0.0088285790" flag="0"/>
      <psa03 value="0.0135368563" flag="0"/>
      <psa10 value="0.0087972329" flag="0"/>
      <psa30 value="0.0026432898" flag="0"/>
    </comp>
    <comp name="--.HHE">
      <acc value="0.0038992995" flag="0"/>
      <vel value="0.0053383887" flag="0"/>
      <psa03 value="0.0112909197" flag="0"/>
      <psa10 value="0.0045716056" flag="0"/>
      <psa30 value="0.0015510585" flag="0"/>
    </comp>
  </station>
  <station code="CRTC" name="CRTC" netid="IV" insttype="" lat="43.7685" lon="12.883">
    <comp name="--.HHE">
      <acc value="0.0516491545" flag="0"/>
      <vel value="0.0225759136" flag="0"/>
      <psa03 value="0.1737263806" flag="0"/>
      <psa10 value="0.0334385085" flag="0"/>
      <psa30 value="0.0049237656" flag="0"/>
    </comp>
    <comp name="--.HHN">
      <acc value="0.0568080377" flag="0"/>
      <vel value="0.0320463274" flag="0"/>
      <psa03 value="0.1321071310" flag="0"/>
      <psa10 value="0.0527364839" flag="0"/>
      <psa30 value="0.0103687840" flag="0"/>
    </comp>
    <comp name="--.HHZ">
      <acc value="0.0347408879" flag="0"/>
      <vel value="0.0212530170" flag="0"/>
      <psa03 value="0.0917210473" flag="0"/>
      <psa10 value="0.0283429189" flag="0"/>
      <psa30 value="0.0039634243" flag="0"/>
    </comp>
  </station>
  <station code="FDMO" name="FDMO" netid="IV" insttype="" lat="43.0365" lon="13.0873">
    <comp name="--.HHE">
      <acc value="0.0108023614" flag="0"/>
      <vel value="0.0050622163" flag="0"/>
      <psa03 value="0.0276264073" flag="0"/>
      <psa10 value="0.0057791654" flag="0"/>
      <psa30 value="0.0008010086" flag="0"/>
    </comp>
    <comp name="--.HHZ">
      <acc value="0.0054720408" flag="0"/>
      <vel value="0.0025170212" flag="0"/>
      <psa03 value="0.0125570334" flag="0"/>
      <psa10 value="0.0043942015" flag="0"/>
      <psa30 value="0.0010037064" flag="0"/>
    </comp>
    <comp name="--.HHN">
      <acc value="0.0108128363" flag="0"/>
      <vel value="0.0036610475" flag="0"/>
      <psa03 value="0.0125942412" flag="0"/>
      <psa10 value="0.0044478286" flag="0"/>
      <psa30 value="0.0007367155" flag="0"/>
    </comp>
  </station>
  <station code="GUMA" name="GUMA" netid="IV" insttype="" lat="43.0627" lon="13.3352">
    <comp name="--.HHN">
      <acc value="0.0291868026" flag="0"/>
      <vel value="0.0172073244" flag="0"/>
      <psa03 value="0.0683973333" flag="0"/>
      <psa10 value="0.0345126754" flag="0"/>
      <psa30 value="0.0017446735" flag="0"/>
    </comp>
    <comp name="--.HHZ">
      <acc value="0.0142057248" flag="0"/>
      <vel value="0.0075823199" flag="0"/>
      <psa03 value="0.0424116208" flag="0"/>
      <psa10 value="0.0107534267" flag="0"/>
      <psa30 value="0.0011138312" flag="0"/>
    </comp>
    <comp name="--.HHE">
      <acc value="0.0451053238" flag="0"/>
      <vel value="0.0266964893" flag="0"/>
      <psa03 value="0.1384133967" flag="0"/>
      <psa10 value="0.0206795572" flag="0"/>
      <psa30 value="0.0017249719" flag="0"/>
    </comp>
  </station>
  <station code="MURB" name="MURB" netid="IV" insttype="" lat="43.263" lon="12.5246">
    <comp name="--.HHE">
      <acc value="0.0278422164" flag="0"/>
      <vel value="0.0184281368" flag="0"/>
      <psa03 value="0.1392114818" flag="0"/>
      <psa10 value="0.0224501483" flag="0"/>
      <psa30 value="0.0022373434" flag="0"/>
    </comp>
    <comp name="--.HHN">
      <acc value="0.0253248198" flag="0"/>
      <vel value="0.0120523312" flag="0"/>
      <psa03 value="0.1010263686" flag="0"/>
      <psa10 value="0.0155207127" flag="0"/>
      <psa30 value="0.0029237229" flag="0"/>
    </comp>
    <comp name="--.HHZ">
      <acc value="0.0075927883" flag="0"/>
      <vel value="0.0067328738" flag="0"/>
      <psa03 value="0.0186630967" flag="0"/>
      <psa10 value="0.0093814465" flag="0"/>
      <psa30 value="0.0017685298" flag="0"/>
    </comp>
  </station>
  <station code="OFFI" name="OFFI" netid="IV" insttype="" lat="42.935" lon="13.6857">
    <comp name="--.HHE">
      <acc value="0.0205955947" flag="0"/>
      <vel value="0.0205407028" flag="0"/>
      <psa03 value="0.0485563531" flag="0"/>
      <psa10 value="0.0472983597" flag="0"/>
      <psa30 value="0.0045489797" flag="0"/>
    </comp>
    <comp name="--.HHZ">
      <acc value="0.0088348771" flag="0"/>
      <vel value="0.0092146409" flag="0"/>
      <psa03 value="0.0252633491" flag="0"/>
      <psa10 value="0.0192130380" flag="0"/>
      <psa30 value="0.0013981820" flag="0"/>
    </comp>
    <comp name="--.HHN">
      <acc value="0.0282464604" flag="0"/>
      <vel value="0.0331630204" flag="0"/>
      <psa03 value="0.0382042047" flag="0"/>
      <psa10 value="0.0550506628" flag="0"/>
      <psa30 value="0.0042611369" flag="0"/>
    </comp>
  </station>
  <station code="PARC" name="PARC" netid="IV" insttype="" lat="43.6486" lon="12.2386">
    <comp name="--.HHE">
      <acc value="0.0063146947" flag="0"/>
      <vel value="0.0037845434" flag="0"/>
      <psa03 value="0.0144735164" flag="0"/>
      <psa10 value="0.0047049441" flag="0"/>
      <psa30 value="0.0006498251" flag="0"/>
    </comp>
    <comp name="--.HHZ">
      <acc value="0.0052258022" flag="0"/>
      <vel value="0.0038288024" flag="0"/>
      <psa03 value="0.0101727549" flag="0"/>
      <psa10 value="0.0035493947" flag="0"/>
      <psa30 value="0.0004546643" flag="0"/>
    </comp>
    <comp name="--.HHN">
      <acc value="0.0059576260" flag="0"/>
      <vel value="0.0044092433" flag="0"/>
      <psa03 value="0.0144450204" flag="0"/>
      <psa10 value="0.0057377444" flag="0"/>
      <psa30 value="0.0009873794" flag="0"/>
    </comp>
  </station>
  <station code="PCRO" name="PCRO" netid="IV" insttype="" lat="43.6077" lon="13.5323">
    <comp name="--.HNE">
      <acc value="0.5358719963" flag="0"/>
      <vel value="0.0846289234" flag="0"/>
      <psa03 value="0.3348983775" flag="0"/>
      <psa10 value="0.0669268477" flag="0"/>
      <psa30 value="0.0092319469" flag="0"/>
    </comp>
    <comp name="--.HNN">
      <acc value="0.3991749109" flag="0"/>
      <vel value="0.0751252312" flag="0"/>
      <psa03 value="0.4350400537" flag="0"/>
      <psa10 value="0.1265886735" flag="0"/>
      <psa30 value="0.0058077258" flag="0"/>
    </comp>
    <comp name="--.HNZ">
      <acc value="0.2011827008" flag="0"/>
      <vel value="0.0539864036" flag="0"/>
      <psa03 value="0.2658582907" flag="0"/>
      <psa10 value="0.0491587653" flag="0"/>
      <psa30 value="0.0039802206" flag="0"/>
    </comp>
  </station>
  <station code="PESA" name="PESA" netid="IV" insttype="" lat="43.941" lon="12.8402">
    <comp name="--.HHE">
      <acc value="0.1760564643" flag="0"/>
      <vel value="0.0364628131" flag="0"/>
      <psa03 value="0.1212046160" flag="0"/>
      <psa10 value="0.0469987971" flag="0"/>
      <psa30 value="0.0041152204" flag="0"/>
    </comp>
    <comp name="--.HHN">
      <acc value="0.3674652115" flag="0"/>
      <vel value="0.0475801796" flag="0"/>
      <psa03 value="0.1352505352" flag="0"/>
      <psa10 value="0.0462446791" flag="0"/>
      <psa30 value="0.0082785309" flag="0"/>
    </comp>
    <comp name="--.HHZ">
      <acc value="0.0958328780" flag="0"/>
      <vel value="0.0178946681" flag="0"/>
      <psa03 value="0.0862006190" flag="0"/>
      <psa10 value="0.0143434887" flag="0"/>
      <psa30 value="0.0029241641" flag="0"/>
    </comp>
  </station>
  <station code="PIEI" name="PIEI" netid="IV" insttype="" lat="43.5357" lon="12.535">
    <comp name="--.HHN">
      <acc value="0.0087366637" flag="0"/>
      <vel value="0.0043306285" flag="0"/>
      <psa03 value="0.0211575208" flag="0"/>
      <psa10 value="0.0037078292" flag="0"/>
      <psa30 value="0.0005443197" flag="0"/>
    </comp>
    <comp name="--.HHZ">
      <acc value="0.0096995129" flag="0"/>
      <vel value="0.0040446776" flag="0"/>
      <psa03 value="0.0181717031" flag="0"/>
      <psa10 value="0.0041424013" flag="0"/>
      <psa30 value="0.0007260465" flag="0"/>
    </comp>
    <comp name="--.HHE">
      <acc value="0.0179281681" flag="0"/>
      <vel value="0.0086278078" flag="0"/>
      <psa03 value="0.0477484378" flag="0"/>
      <psa10 value="0.0062987926" flag="0"/>
      <psa30 value="0.0004880063" flag="0"/>
    </comp>
  </station>
  <station code="SENI" name="SENI" netid="IV" insttype="" lat="43.7052" lon="13.2331">
    <comp name="--.HNN">
      <acc value="0.6637093015" flag="0"/>
      <vel value="0.2253821063" flag="0"/>
      <psa03 value="1.1274737008" flag="0"/>
      <psa10 value="0.2767991726" flag="0"/>
      <psa30 value="0.0221661915" flag="0"/>
    </comp>
    <comp name="--.HNZ">
      <acc value="0.1492966309" flag="0"/>
      <vel value="0.0681384312" flag="0"/>
      <psa03 value="0.2727541372" flag="0"/>
      <psa10 value="0.0736684095" flag="0"/>
      <psa30 value="0.0245052153" flag="0"/>
    </comp>
    <comp name="--.HNE">
      <acc value="0.5608004897" flag="0"/>
      <vel value="0.1606797740" flag="0"/>
      <psa03 value="0.8995994306" flag="0"/>
      <psa10 value="0.1588334341" flag="0"/>
      <psa30 value="0.0301732076" flag="0"/>
    </comp>
  </station>
</stationlist>
