<?xml version="1.0" encoding="UTF-8" standalone="yes"?>
<!DOCTYPE earthquake SYSTEM "stationlist.dtd">
<stationlist created="" xmlns="ch.ethz.sed.shakemap.usgs.xml">
  <station code="EAG2" name="EAG2" netid="HL" insttype="SMART24" lat="38.5438" lon="26.1079">
    <comp name="--.HHE">
      <acc value="0.4360860540" flag="0"/>
      <vel value="0.2356145784" flag="0"/>
      <psa03 value="1.6888717251" flag="0"/>
      <psa10 value="0.0785111002" flag="0"/>
      <psa30 value="0.0082498706" flag="0"/>
    </comp>
    <comp name="--.HHZ">
      <acc value="0.1701325442" flag="0"/>
      <vel value="0.0795078989" flag="0"/>
      <psa03 value="0.7139401854" flag="0"/>
      <psa10 value="0.0293481474" flag="0"/>
      <psa30 value="0.0029034397" flag="0"/>
    </comp>
    <comp name="--.HHN">
      <acc value="0.4805508301" flag="0"/>
      <vel value="0.2670827051" flag="0"/>
      <psa03 value="2.2673995091" flag="0"/>
      <psa10 value="0.1073114737" flag="0"/>
      <psa30 value="0.0077630092" flag="0"/>
    </comp>
  </station>
</stationlist>
