<stationlist created="1641587236">
	<station code="MYT1" name="MYT1" netid="HI" source="ITSAK Strong Motion Network" insttype="" lat="39.085" lon="26.5694">
		<comp name=".HNE" depth="0.0">
			<acc value="0.01461864" flag="0"/>
			<vel value="0.005964" flag="0"/>
			<psa03 value="0.0424603540807" flag="0"/>
			<psa10 value="0.00778380168538" flag="0"/>
			<psa30 value="0.00167828017025" flag="0"/>
		</comp>
		<comp name=".HNN" depth="0.0">
			<acc value="0.012903102" flag="0"/>
			<vel value="0.008156" flag="0"/>
			<psa03 value="0.0413865411219" flag="0"/>
			<psa10 value="0.0111059105268" flag="0"/>
			<psa30 value="0.00182279749763" flag="0"/>
		</comp>
		<comp name=".HNZ" depth="0.0">
			<acc value="0.009334122" flag="0"/>
			<vel value="0.007122" flag="0"/>
			<psa03 value="0.0365543828071" flag="0"/>
			<psa10 value="0.0120924761827" flag="0"/>
			<psa30 value="0.00107068100438" flag="0"/>
		</comp>
	</station>
	<station code="NAX1" name="NAX1" netid="HI" source="ITSAK Strong Motion Network" insttype="" lat="37.101394" lon="25.374103">
		<comp name=".HNE" depth="0.0">
			<acc value="0.00687633" flag="0"/>
			<vel value="0.00188" flag="0"/>
			<psa03 value="0.0104249341421" flag="0"/>
			<psa10 value="0.00130065594639" flag="0"/>
			<psa30 value="0.000235791428878" flag="0"/>
		</comp>
		<comp name=".HNN" depth="0.0">
			<acc value="0.007085838" flag="0"/>
			<vel value="0.001565" flag="0"/>
			<psa03 value="0.00680081540598" flag="0"/>
			<psa10 value="0.000982538857337" flag="0"/>
			<psa30 value="0.000288139810622" flag="0"/>
		</comp>
		<comp name=".HNZ" depth="0.0">
			<acc value="0.004111722" flag="0"/>
			<vel value="0.001553" flag="0"/>
			<psa03 value="0.00957483221631" flag="0"/>
			<psa10 value="0.000885895691042" flag="0"/>
			<psa30 value="0.00023086978615" flag="0"/>
		</comp>
	</station>
	<station code="RDI1" name="RDI1" netid="HI" source="ITSAK Strong Motion Network" insttype="" lat="36.4514" lon="28.224">
		<comp name=".HNE" depth="0.0">
			<acc value="0.004989126" flag="0"/>
			<vel value="0.00696" flag="0"/>
			<psa03 value="0.00474267390154" flag="0"/>
			<psa10 value="0.00686971840417" flag="0"/>
			<psa30 value="0.00125859827217" flag="0"/>
		</comp>
		<comp name=".HNN" depth="0.0">
			<acc value="0.003132012" flag="0"/>
			<vel value="0.006018" flag="0"/>
			<psa03 value="0.00496638493463" flag="0"/>
			<psa10 value="0.00626167181623" flag="0"/>
			<psa30 value="0.00183935211408" flag="0"/>
		</comp>
		<comp name=".HNZ" depth="0.0">
			<acc value="0.00376839" flag="0"/>
			<vel value="0.002543" flag="0"/>
			<psa03 value="0.00286350122357" flag="0"/>
			<psa10 value="0.00342680560489" flag="0"/>
			<psa30 value="0.000688135137789" flag="0"/>
		</comp>
	</station>
	<station code="ASTA" name="ASTA" netid="HL" source="National Observatory of Athens Seismic Network" insttype="" lat="36.54543" lon="26.3528">
		<comp name="00.HNE" depth="0.0">
			<acc value="0.003264714" flag="0"/>
			<vel value="0.001912" flag="0"/>
			<psa03 value="0.00756143291849" flag="0"/>
			<psa10 value="0.00335835002877" flag="0"/>
			<psa30 value="0.000316327400791" flag="0"/>
		</comp>
		<comp name="00.HNN" depth="0.0">
			<acc value="0.003265428" flag="0"/>
			<vel value="0.001712" flag="0"/>
			<psa03 value="0.00501112714125" flag="0"/>
			<psa10 value="0.00221071242901" flag="0"/>
			<psa30 value="0.00055793531653" flag="0"/>
		</comp>
		<comp name="00.HNZ" depth="0.0">
			<acc value="0.003994524" flag="0"/>
			<vel value="0.002453" flag="0"/>
			<psa03 value="0.00586122906699" flag="0"/>
			<psa10 value="0.00288721459308" flag="0"/>
			<psa30 value="0.000468003481227" flag="0"/>
		</comp>
	</station>
	<station code="PRK" name="PRK" netid="HL" source="National Observatory of Athens Seismic Network" insttype="" lat="39.24565" lon="26.26499">
		<comp name=".HNE" depth="0.0">
			<acc value="0.011575572" flag="0"/>
			<vel value="0.007489" flag="0"/>
			<psa03 value="0.0476951922551" flag="0"/>
			<psa10 value="0.012547504424" flag="0"/>
			<psa30 value="0.000587017750832" flag="0"/>
		</comp>
		<comp name=".HNN" depth="0.0">
			<acc value="0.013267752" flag="0"/>
			<vel value="0.009409" flag="0"/>
			<psa03 value="0.0519009596772" flag="0"/>
			<psa10 value="0.00997840692001" flag="0"/>
			<psa30 value="0.000992382142793" flag="0"/>
		</comp>
		<comp name=".HNZ" depth="0.0">
			<acc value="0.010663794" flag="0"/>
			<vel value="0.006548" flag="0"/>
			<psa03 value="0.0443842689653" flag="0"/>
			<psa10 value="0.00427646010857" flag="0"/>
			<psa30 value="0.000546302342809" flag="0"/>
		</comp>
	</station>
	<station code="RODB" name="RODB" netid="HL" source="National Observatory of Athens Seismic Network" insttype="" lat="36.4471" lon="28.22116">
		<comp name="00.HNE" depth="0.0">
			<acc value="0.003961374" flag="0"/>
			<vel value="0.004806" flag="0"/>
			<psa03 value="0.00595071348023" flag="0"/>
			<psa10 value="0.0064750921418" flag="0"/>
			<psa30 value="0.00167470079372" flag="0"/>
		</comp>
		<comp name="00.HNN" depth="0.0">
			<acc value="0.003355698" flag="0"/>
			<vel value="0.003936" flag="0"/>
			<psa03 value="0.00487690052139" flag="0"/>
			<psa10 value="0.00699454916063" flag="0"/>
			<psa30 value="0.00208453940635" flag="0"/>
		</comp>
		<comp name="00.HNZ" depth="0.0">
			<acc value="0.009352074" flag="0"/>
			<vel value="0.002098" flag="0"/>
			<psa03 value="0.00263979019048" flag="0"/>
			<psa10 value="0.00344291279928" flag="0"/>
			<psa30 value="0.000615652763067" flag="0"/>
		</comp>
	</station>
	<station code="THRA" name="THRA" netid="HL" source="National Observatory of Athens Seismic Network" insttype="" lat="36.41502" lon="25.43244">
		<comp name="00.HNE" depth="0.0">
			<acc value="0.012006318" flag="0"/>
			<vel value="0.006371" flag="0"/>
			<psa03 value="0.0231764630283" flag="0"/>
			<psa10 value="0.011242821679" flag="0"/>
			<psa30 value="0.00112302938612" flag="0"/>
		</comp>
		<comp name="00.HNN" depth="0.0">
			<acc value="0.010569342" flag="0"/>
			<vel value="0.00783" flag="0"/>
			<psa03 value="0.0185680157466" flag="0"/>
			<psa10 value="0.0182575048327" flag="0"/>
			<psa30 value="0.00149886392171" flag="0"/>
		</comp>
		<comp name="00.HNZ" depth="0.0">
			<acc value="0.03340041" flag="0"/>
			<vel value="0.00346" flag="0"/>
			<psa03 value="0.0174942027877" flag="0"/>
			<psa10 value="0.00216239084586" flag="0"/>
			<psa30 value="0.000397758216836" flag="0"/>
		</comp>
	</station>
	<station code="TNSA" name="TNSA" netid="HL" source="National Observatory of Athens Seismic Network" insttype="" lat="37.53942" lon="25.1631">
		<comp name="00.HNE" depth="0.0">
			<acc value="0.00362916" flag="0"/>
			<vel value="0.001455" flag="0"/>
			<psa03 value="0.00586122906699" flag="0"/>
			<psa10 value="0.00151004947337" flag="0"/>
			<psa30 value="0.000123935912333" flag="0"/>
		</comp>
		<comp name="00.HNN" depth="0.0">
			<acc value="0.005777076" flag="0"/>
			<vel value="0.001608" flag="0"/>
			<psa03 value="0.00774040174496" flag="0"/>
			<psa10 value="0.00056375180339" flag="0"/>
			<psa30 value="0.000119461691671" flag="0"/>
		</comp>
		<comp name="00.HNZ" depth="0.0">
			<acc value="0.005280948" flag="0"/>
			<vel value="0.001039" flag="0"/>
			<psa03 value="0.00604019789347" flag="0"/>
			<psa10 value="0.000672475365473" flag="0"/>
			<psa30 value="0.000155255456965" flag="0"/>
		</comp>
	</station>
	<station code="DATC" name="DATC" netid="KO" source="Bogazici University Kandilli Observatory And Earthquake Research Institute (KOERI)" insttype="" lat="36.7584" lon="27.6602">
		<comp name=".HNE" depth="0.0">
			<acc value="0.071497308" flag="0"/>
			<vel value="0.028097" flag="0"/>
			<psa03 value="0.0931085319726" flag="0"/>
			<psa10 value="0.0539510475844" flag="0"/>
			<psa30 value="0.00608404525595" flag="0"/>
		</comp>
		<comp name=".HNN" depth="0.0">
			<acc value="0.079901802" flag="0"/>
			<vel value="0.049209" flag="0"/>
			<psa03 value="0.1237122013" flag="0"/>
			<psa10 value="0.0690595959153" flag="0"/>
			<psa30 value="0.00874620654974" flag="0"/>
		</comp>
		<comp name=".HNZ" depth="0.0">
			<acc value="0.145326438" flag="0"/>
			<vel value="0.026415" flag="0"/>
			<psa03 value="0.0558830160662" flag="0"/>
			<psa10 value="0.0338573225922" flag="0"/>
			<psa30 value="0.00271406225346" flag="0"/>
		</comp>
	</station>
	<station code="EZNE" name="EZNE" netid="KO" source="Bogazici University Kandilli Observatory And Earthquake Research Institute (KOERI)" insttype="" lat="39.756" lon="26.3655">
		<comp name=".HNE" depth="0.0">
			<acc value="0.019877454" flag="0"/>
			<vel value="0.008879" flag="0"/>
			<psa03 value="0.0669343411009" flag="0"/>
			<psa10 value="0.00852070582838" flag="0"/>
			<psa30 value="0.00123264779233" flag="0"/>
		</comp>
		<comp name=".HNN" depth="0.0">
			<acc value="0.023389314" flag="0"/>
			<vel value="0.009211" flag="0"/>
			<psa03 value="0.0647867151833" flag="0"/>
			<psa10 value="0.00981330817759" flag="0"/>
			<psa30 value="0.0013297383807" flag="0"/>
		</comp>
		<comp name=".HNZ" depth="0.0">
			<acc value="0.02249508" flag="0"/>
			<vel value="0.005461" flag="0"/>
			<psa03 value="0.0577621887442" flag="0"/>
			<psa10 value="0.00414357575492" flag="0"/>
			<psa30 value="0.00138566613897" flag="0"/>
		</comp>
	</station>
	<station code="FOCM" name="FOCM" netid="KO" source="Bogazici University Kandilli Observatory And Earthquake Research Institute (KOERI)" insttype="" lat="38.7131" lon="26.7309">
		<comp name=".HNE" depth="0.0">
			<acc value="0.041455044" flag="0"/>
			<vel value="0.017939" flag="0"/>
			<psa03 value="0.158879575701" flag="0"/>
			<psa10 value="0.00823882992669" flag="0"/>
			<psa30 value="0.000785673148217" flag="0"/>
		</comp>
		<comp name=".HNN" depth="0.0">
			<acc value="0.050981436" flag="0"/>
			<vel value="0.017844" flag="0"/>
			<psa03 value="0.154897519312" flag="0"/>
			<psa10 value="0.00625764501763" flag="0"/>
			<psa30 value="0.00133287033516" flag="0"/>
		</comp>
		<comp name=".HNZ" depth="0.0">
			<acc value="0.02102985" flag="0"/>
			<vel value="0.008808" flag="0"/>
			<psa03 value="0.0895291554432" flag="0"/>
			<psa10 value="0.00451806802431" flag="0"/>
			<psa30 value="0.000618337295465" flag="0"/>
		</comp>
	</station>
	<station code="GOMA" name="GOMA" netid="KO" source="Bogazici University Kandilli Observatory And Earthquake Research Institute (KOERI)" insttype="" lat="38.7077" lon="27.9175">
		<comp name=".HNE" depth="0.0">
			<acc value="0.021229362" flag="0"/>
			<vel value="0.008364" flag="0"/>
			<psa03 value="0.0680528962664" flag="0"/>
			<psa10 value="0.00604422469206" flag="0"/>
			<psa30 value="0.00051453537611" flag="0"/>
		</comp>
		<comp name=".HNN" depth="0.0">
			<acc value="0.015613956" flag="0"/>
			<vel value="0.006185" flag="0"/>
			<psa03 value="0.0301115050541" flag="0"/>
			<psa10 value="0.00775561409521" flag="0"/>
			<psa30 value="0.000497980759661" flag="0"/>
		</comp>
		<comp name=".HNZ" depth="0.0">
			<acc value="0.01624146" flag="0"/>
			<vel value="0.005351" flag="0"/>
			<psa03 value="0.0310958335997" flag="0"/>
			<psa10 value="0.00623751102465" flag="0"/>
			<psa30 value="0.000656815593156" flag="0"/>
		</comp>
	</station>
	<station code="GORD" name="GORD" netid="KO" source="Bogazici University Kandilli Observatory And Earthquake Research Institute (KOERI)" insttype="" lat="38.9088" lon="28.1769">
		<comp name=".HNE" depth="0.0">
			<acc value="0.031356738" flag="0"/>
			<vel value="0.027574" flag="0"/>
			<psa03 value="0.0848312237482" flag="0"/>
			<psa10 value="0.0554006950789" flag="0"/>
			<psa30 value="0.00445050729232" flag="0"/>
		</comp>
		<comp name=".HNN" depth="0.0">
			<acc value="0.019251786" flag="0"/>
			<vel value="0.015209" flag="0"/>
			<psa03 value="0.0530642570493" flag="0"/>
			<psa10 value="0.0260010385321" flag="0"/>
			<psa30 value="0.00339145926166" flag="0"/>
		</comp>
		<comp name=".HNZ" depth="0.0">
			<acc value="0.019372962" flag="0"/>
			<vel value="0.017177" flag="0"/>
			<psa03 value="0.0510061155448" flag="0"/>
			<psa10 value="0.0271889441178" flag="0"/>
			<psa30 value="0.00179326764126" flag="0"/>
		</comp>
	</station>
	<station code="NAZL" name="NAZL" netid="KO" source="Bogazici University Kandilli Observatory And Earthquake Research Institute (KOERI)" insttype="" lat="37.9641" lon="28.2922">
		<comp name=".HNE" depth="0.0">
			<acc value="0.05321595" flag="0"/>
			<vel value="0.027943" flag="0"/>
			<psa03 value="0.15373422194" flag="0"/>
			<psa10 value="0.0392532327103" flag="0"/>
			<psa30 value="0.00229795973191" flag="0"/>
		</comp>
		<comp name=".HNN" depth="0.0">
			<acc value="0.0528258" flag="0"/>
			<vel value="0.027153" flag="0"/>
			<psa03 value="0.127917968722" flag="0"/>
			<psa10 value="0.0307808484651" flag="0"/>
			<psa30 value="0.0019422591893" flag="0"/>
		</comp>
		<comp name=".HNZ" depth="0.0">
			<acc value="0.019939164" flag="0"/>
			<vel value="0.012977" flag="0"/>
			<psa03 value="0.0451896286845" flag="0"/>
			<psa10 value="0.0131112562274" flag="0"/>
			<psa30 value="0.00128141679755" flag="0"/>
		</comp>
	</station>
	<station code="SOMA" name="SOMA" netid="KO" source="Bogazici University Kandilli Observatory And Earthquake Research Institute (KOERI)" insttype="" lat="39.1564" lon="27.5341">
		<comp name=".HNE" depth="0.0">
			<acc value="0.078742674" flag="0"/>
			<vel value="0.032529" flag="0"/>
			<psa03 value="0.144920007237" flag="0"/>
			<psa10 value="0.0213138449667" flag="0"/>
			<psa30 value="0.00225142783703" flag="0"/>
		</comp>
		<comp name=".HNN" depth="0.0">
			<acc value="0.088121778" flag="0"/>
			<vel value="0.033812" flag="0"/>
			<psa03 value="0.193062621558" flag="0"/>
			<psa10 value="0.0124105932718" flag="0"/>
			<psa30 value="0.00396371208431" flag="0"/>
		</comp>
		<comp name=".HNZ" depth="0.0">
			<acc value="0.047167656" flag="0"/>
			<vel value="0.01397" flag="0"/>
			<psa03 value="0.102996559635" flag="0"/>
			<psa10 value="0.00997840692001" flag="0"/>
			<psa30 value="0.0028379981658" flag="0"/>
		</comp>
	</station>
	<station code="YKAV" name="YKAV" netid="KO" source="Bogazici University Kandilli Observatory And Earthquake Research Institute (KOERI)" insttype="" lat="37.1246" lon="27.2801">
		<comp name=".HNE" depth="0.0">
			<acc value="0.019126836" flag="0"/>
			<vel value="0.010902" flag="0"/>
			<psa03 value="0.0258609954254" flag="0"/>
			<psa10 value="0.0194252764254" flag="0"/>
			<psa30 value="0.00115166439835" flag="0"/>
		</comp>
		<comp name=".HNN" depth="0.0">
			<acc value="0.017111928" flag="0"/>
			<vel value="0.010363" flag="0"/>
			<psa03 value="0.0235791428878" flag="0"/>
			<psa10 value="0.0184588447624" flag="0"/>
			<psa30 value="0.0010756026471" flag="0"/>
		</comp>
		<comp name=".HNZ" depth="0.0">
			<acc value="0.010755696" flag="0"/>
			<vel value="0.007368" flag="0"/>
			<psa03 value="0.0144069905311" flag="0"/>
			<psa10 value="0.0110898033324" flag="0"/>
			<psa30 value="0.000995961519323" flag="0"/>
		</comp>
	</station>
</stationlist>
