<?xml version="1.0" encoding="UTF-8" standalone="yes"?>
<!DOCTYPE earthquake SYSTEM "stationlist.dtd">
<stationlist created="" xmlns="ch.ethz.sed.shakemap.usgs.xml">
  <station code="RDI1" name="RDI1" netid="HI" insttype="CMG-5TD,ACCELEROMETER,GURALP" lat="36.4514" lon="28.224">
    <comp name="--.HNE">
      <acc value="0.0129514124" flag="0"/>
      <vel value="0.0042295629" flag="0"/>
      <psa03 value="0.0337859954" flag="0"/>
      <psa10 value="0.0021598141" flag="0"/>
      <psa30 value="0.0002249298" flag="0"/>
    </comp>
    <comp name="--.HNN">
      <acc value="0.0063340208" flag="0"/>
      <vel value="0.0030023109" flag="0"/>
      <psa03 value="0.0133105987" flag="0"/>
      <psa10 value="0.0020995702" flag="0"/>
      <psa30 value="0.0001539666" flag="0"/>
    </comp>
    <comp name="--.HNZ">
      <acc value="0.0069011279" flag="0"/>
      <vel value="0.0024675814" flag="0"/>
      <psa03 value="0.0130985666" flag="0"/>
      <psa10 value="0.0010944692" flag="0"/>
      <psa30 value="0.0001483586" flag="0"/>
    </comp>
  </station>
  <station code="ARG" name="ARG" netid="HL" insttype="LE3D20_DR24" lat="36.2136" lon="28.1212">
    <comp name="--.HHE">
      <acc value="0.0233661458" flag="0"/>
      <vel value="0.0067618484" flag="0"/>
      <psa03 value="0.0335683243" flag="0"/>
      <psa10 value="0.0011991701" flag="0"/>
      <psa30 value="0.0002008448" flag="0"/>
    </comp>
    <comp name="--.HHN">
      <acc value="0.0153592679" flag="0"/>
      <vel value="0.0048370730" flag="0"/>
      <psa03 value="0.0212391701" flag="0"/>
      <psa10 value="0.0026062760" flag="0"/>
      <psa30 value="0.0001461312" flag="0"/>
    </comp>
    <comp name="--.HHZ">
      <acc value="0.0126650067" flag="0"/>
      <vel value="0.0038034956" flag="0"/>
      <psa03 value="0.0117901477" flag="0"/>
      <psa10 value="0.0014825393" flag="0"/>
      <psa30 value="0.0000698207" flag="0"/>
    </comp>
  </station>
  <station code="NISR2" name="NISR2" netid="HL" insttype="120" lat="36.5744" lon="27.1767">
    <comp name="--.HHE">
      <acc value="0.0051288871" flag="0"/>
      <vel value="0.0038681917" flag="0"/>
      <psa03 value="0.0157014295" flag="0"/>
      <psa10 value="0.0066778894" flag="0"/>
      <psa30 value="0.0002720084" flag="0"/>
    </comp>
    <comp name="--.HHZ">
      <acc value="0.0032192729" flag="0"/>
      <vel value="0.0010627268" flag="0"/>
      <psa03 value="0.0064460455" flag="0"/>
      <psa10 value="0.0013604745" flag="0"/>
      <psa30 value="0.0000869965" flag="0"/>
    </comp>
    <comp name="--.HHN">
      <acc value="0.0052474821" flag="0"/>
      <vel value="0.0036526323" flag="0"/>
      <psa03 value="0.0163681198" flag="0"/>
      <psa10 value="0.0041454004" flag="0"/>
      <psa30 value="0.0003489189" flag="0"/>
    </comp>
  </station>
  <station code="BODT" name="BODT" netid="KO" insttype="CMG-3ESP" lat="37.0622" lon="27.3103">
    <comp name="--.HHE">
      <acc value="0.0023317733" flag="0"/>
      <vel value="0.0017741785" flag="0"/>
      <psa03 value="0.0036007159" flag="0"/>
      <psa10 value="0.0012774098" flag="0"/>
      <psa30 value="0.0001120082" flag="0"/>
    </comp>
    <comp name="--.HHN">
      <acc value="0.0028352527" flag="0"/>
      <vel value="0.0028937206" flag="0"/>
      <psa03 value="0.0057739834" flag="0"/>
      <psa10 value="0.0028893102" flag="0"/>
      <psa30 value="0.0002783642" flag="0"/>
    </comp>
    <comp name="--.HHZ">
      <acc value="0.0013417861" flag="0"/>
      <vel value="0.0004503096" flag="0"/>
      <psa03 value="0.0018181388" flag="0"/>
      <psa10 value="0.0003952616" flag="0"/>
      <psa30 value="0.0000469174" flag="0"/>
    </comp>
  </station>
  <station code="DAT" name="DAT" netid="KO" insttype="CMG-3T" lat="36.7308" lon="27.5767">
    <comp name="--.HHE">
      <acc value="0.0106438520" flag="0"/>
      <vel value="0.0033741756" flag="0"/>
      <psa03 value="0.0222818614" flag="0"/>
      <psa10 value="0.0013751710" flag="0"/>
      <psa30 value="0.0001975407" flag="0"/>
    </comp>
    <comp name="--.HHZ">
      <acc value="0.0000302009" flag="0"/>
      <vel value="0.0000032995" flag="0"/>
      <psa03 value="0.0000094790" flag="0"/>
      <psa10 value="0.0000026889" flag="0"/>
      <psa30 value="0.0000008005" flag="0"/>
    </comp>
    <comp name="--.HHN">
      <acc value="0.0122048709" flag="0"/>
      <vel value="0.0037277483" flag="0"/>
      <psa03 value="0.0182269263" flag="0"/>
      <psa10 value="0.0021570689" flag="0"/>
      <psa30 value="0.0001935181" flag="0"/>
    </comp>
  </station>
  <station code="MLSB" name="MLSB" netid="KO" insttype="CMG-3ESP" lat="37.2953" lon="27.7767">
    <comp name="--.HHZ">
      <acc value="0.0014695071" flag="0"/>
      <vel value="0.0006308531" flag="0"/>
      <psa03 value="0.0024226080" flag="0"/>
      <psa10 value="0.0009215740" flag="0"/>
      <psa30 value="0.0000645039" flag="0"/>
    </comp>
    <comp name="--.HHE">
      <acc value="0.0029859805" flag="0"/>
      <vel value="0.0027587389" flag="0"/>
      <psa03 value="0.0067807686" flag="0"/>
      <psa10 value="0.0028833811" flag="0"/>
      <psa30 value="0.0001170275" flag="0"/>
    </comp>
    <comp name="--.HHN">
      <acc value="0.0011310898" flag="0"/>
      <vel value="0.0009986326" flag="0"/>
      <psa03 value="0.0029029562" flag="0"/>
      <psa10 value="0.0008784895" flag="0"/>
      <psa30 value="0.0001487093" flag="0"/>
    </comp>
  </station>
</stationlist>
