<?xml version="1.0" encoding="UTF-8" standalone="yes"?>
<!DOCTYPE earthquake SYSTEM "stationlist.dtd">
<stationlist created="" xmlns="ch.ethz.sed.shakemap.usgs.xml">
  <station code="RDI1" name="RDI1" netid="HI" insttype="CMG-5TD,ACCELEROMETER,GURALP" lat="36.4514" lon="28.224">
    <comp name="--.HNN">
      <acc value="0.0063340196" flag="0"/>
      <vel value="0.0030023140" flag="0"/>
      <psa03 value="0.0133105987" flag="0"/>
      <psa10 value="0.0020995702" flag="0"/>
      <psa30 value="0.0001539574" flag="0"/>
    </comp>
    <comp name="--.HNE">
      <acc value="0.0129514145" flag="0"/>
      <vel value="0.0042295620" flag="0"/>
      <psa03 value="0.0337859954" flag="0"/>
      <psa10 value="0.0021598141" flag="0"/>
      <psa30 value="0.0002249266" flag="0"/>
    </comp>
    <comp name="--.HNZ">
      <acc value="0.0069011250" flag="0"/>
      <vel value="0.0024675780" flag="0"/>
      <psa03 value="0.0130985666" flag="0"/>
      <psa10 value="0.0010877808" flag="0"/>
      <psa30 value="0.0001483523" flag="0"/>
    </comp>
  </station>
  <station code="ARG" name="ARG" netid="HL" insttype="LE3D20_DR24" lat="36.2136" lon="28.1212">
    <comp name="--.HHZ">
      <acc value="0.0126650066" flag="0"/>
      <vel value="0.0038034946" flag="0"/>
      <psa03 value="0.0117901477" flag="0"/>
      <psa10 value="0.0014825393" flag="0"/>
      <psa30 value="0.0000701136" flag="0"/>
    </comp>
    <comp name="--.HHE">
      <acc value="0.0233661453" flag="0"/>
      <vel value="0.0067618404" flag="0"/>
      <psa03 value="0.0335683243" flag="0"/>
      <psa10 value="0.0011991701" flag="0"/>
      <psa30 value="0.0002008212" flag="0"/>
    </comp>
    <comp name="--.HHN">
      <acc value="0.0153592679" flag="0"/>
      <vel value="0.0048370767" flag="0"/>
      <psa03 value="0.0212391701" flag="0"/>
      <psa10 value="0.0026062760" flag="0"/>
      <psa30 value="0.0001459893" flag="0"/>
    </comp>
  </station>
  <station code="NISR2" name="NISR2" netid="HL" insttype="120" lat="36.5744" lon="27.1767">
    <comp name="--.HHZ">
      <acc value="0.0032192730" flag="0"/>
      <vel value="0.0010627276" flag="0"/>
      <psa03 value="0.0064460455" flag="0"/>
      <psa10 value="0.0013604745" flag="0"/>
      <psa30 value="0.0000870576" flag="0"/>
    </comp>
    <comp name="--.HHN">
      <acc value="0.0052474821" flag="0"/>
      <vel value="0.0036526314" flag="0"/>
      <psa03 value="0.0163681198" flag="0"/>
      <psa10 value="0.0041454004" flag="0"/>
      <psa30 value="0.0003489267" flag="0"/>
    </comp>
    <comp name="--.HHE">
      <acc value="0.0051288872" flag="0"/>
      <vel value="0.0038681965" flag="0"/>
      <psa03 value="0.0157014295" flag="0"/>
      <psa10 value="0.0066778894" flag="0"/>
      <psa30 value="0.0002719837" flag="0"/>
    </comp>
  </station>
  <station code="DAT" name="DAT" netid="KO" insttype="CMG-3T" lat="36.7308" lon="27.5767">
    <comp name="--.HHE">
      <acc value="0.0106438516" flag="0"/>
      <vel value="0.0033741763" flag="0"/>
      <psa03 value="0.0222818614" flag="0"/>
      <psa10 value="0.0013751710" flag="0"/>
      <psa30 value="0.0001976494" flag="0"/>
    </comp>
    <comp name="--.HHZ">
      <acc value="0.0000302002" flag="0"/>
      <vel value="0.0000032995" flag="0"/>
      <psa03 value="0.0000094790" flag="0"/>
      <psa10 value="0.0000026880" flag="0"/>
      <psa30 value="0.0000008005" flag="0"/>
    </comp>
    <comp name="--.HHN">
      <acc value="0.0122048709" flag="0"/>
      <vel value="0.0037277490" flag="0"/>
      <psa03 value="0.0182269263" flag="0"/>
      <psa10 value="0.0021570686" flag="0"/>
      <psa30 value="0.0001935237" flag="0"/>
    </comp>
  </station>
  <station code="MLSB" name="MLSB" netid="KO" insttype="CMG-3ESP" lat="37.2953" lon="27.7767">
    <comp name="--.HHZ">
      <acc value="0.0014695073" flag="0"/>
      <vel value="0.0006308531" flag="0"/>
      <psa03 value="0.0024226080" flag="0"/>
      <psa10 value="0.0009215740" flag="0"/>
      <psa30 value="0.0000644666" flag="0"/>
    </comp>
    <comp name="--.HHE">
      <acc value="0.0029859805" flag="0"/>
      <vel value="0.0027587394" flag="0"/>
      <psa03 value="0.0067807686" flag="0"/>
      <psa10 value="0.0028833811" flag="0"/>
      <psa30 value="0.0001170535" flag="0"/>
    </comp>
    <comp name="--.HHN">
      <acc value="0.0011310898" flag="0"/>
      <vel value="0.0009986323" flag="0"/>
      <psa03 value="0.0029029562" flag="0"/>
      <psa10 value="0.0008784895" flag="0"/>
      <psa30 value="0.0001487018" flag="0"/>
    </comp>
  </station>
</stationlist>
