<?xml version="1.0" encoding="UTF-8" standalone="yes"?>
<!DOCTYPE earthquake SYSTEM "stationlist.dtd">
<stationlist created="" xmlns="ch.ethz.sed.shakemap.usgs.xml">
  <station code="KARP" name="KARP" netid="GE" source="GFZ" insttype="STS-2/N" lat="35.5471" lon="27.1611">
    <comp name="--.HHE">
      <acc value="0.1305689120" flag="0"/>
      <vel value="0.0458575272" flag="0"/>
      <psa03 value="0.2234444543" flag="0"/>
      <psa10 value="0.0276776657" flag="0"/>
      <psa30 value="0.0013095691" flag="0"/>
    </comp>
    <comp name="--.HHN">
      <acc value="0.1455088436" flag="0"/>
      <vel value="0.0393599261" flag="0"/>
      <psa03 value="0.1860532666" flag="0"/>
      <psa10 value="0.0347156464" flag="0"/>
      <psa30 value="0.0015278895" flag="0"/>
    </comp>
    <comp name="--.HHZ">
      <acc value="0.0990733264" flag="0"/>
      <vel value="0.0319009955" flag="0"/>
      <psa03 value="0.1610194057" flag="0"/>
      <psa10 value="0.0077697085" flag="0"/>
      <psa30 value="0.0006489385" flag="0"/>
    </comp>
  </station>
  <station code="ZKR" name="ZKR" netid="GE" source="GFZ" insttype="STS-2/N" lat="35.1147" lon="26.2169">
    <comp name="--.HHE">
      <acc value="0.0487959326" flag="0"/>
      <vel value="0.0167262979" flag="0"/>
      <psa03 value="0.1478009369" flag="0"/>
      <psa10 value="0.0099927222" flag="0"/>
      <psa30 value="0.0005782914" flag="0"/>
    </comp>
    <comp name="--.HHN">
      <acc value="0.0292907972" flag="0"/>
      <vel value="0.0068511343" flag="0"/>
      <psa03 value="0.0523243638" flag="0"/>
      <psa10 value="0.0036861411" flag="0"/>
      <psa30 value="0.0004392002" flag="0"/>
    </comp>
    <comp name="--.HHZ">
      <acc value="0.0309121668" flag="0"/>
      <vel value="0.0089361924" flag="0"/>
      <psa03 value="0.0483266245" flag="0"/>
      <psa10 value="0.0070556392" flag="0"/>
      <psa30 value="0.0003974565" flag="0"/>
    </comp>
  </station>
  <station code="FRMA" name="FRMA" netid="HC" source="NOA" insttype="60" lat="35.0187" lon="25.8555">
    <comp name="--.HHE">
      <acc value="0.0247177658" flag="0"/>
      <vel value="0.0080963797" flag="0"/>
      <psa03 value="0.0499200070" flag="0"/>
      <psa10 value="0.0053517041" flag="0"/>
      <psa30 value="0.0005172031" flag="0"/>
    </comp>
    <comp name="--.HHN">
      <acc value="0.0186854299" flag="0"/>
      <vel value="0.0058024516" flag="0"/>
      <psa03 value="0.0355395962" flag="0"/>
      <psa10 value="0.0078453381" flag="0"/>
      <psa30 value="0.0009347097" flag="0"/>
    </comp>
    <comp name="--.HHZ">
      <acc value="0.0146695806" flag="0"/>
      <vel value="0.0040340413" flag="0"/>
      <psa03 value="0.0174868231" flag="0"/>
      <psa10 value="0.0027488014" flag="0"/>
      <psa30 value="0.0004920742" flag="0"/>
    </comp>
  </station>
  <station code="STIA" name="STIA" netid="HC" source="NOA" insttype="120" lat="35.2021" lon="26.0909">
    <comp name="--.HHE">
      <acc value="0.0367776486" flag="0"/>
      <vel value="0.0124663781" flag="0"/>
      <psa03 value="0.0876921610" flag="0"/>
      <psa10 value="0.0110640247" flag="0"/>
      <psa30 value="0.0008979168" flag="0"/>
    </comp>
    <comp name="--.HHN">
      <acc value="0.0388630522" flag="0"/>
      <vel value="0.0141229808" flag="0"/>
      <psa03 value="0.0678273518" flag="0"/>
      <psa10 value="0.0103849559" flag="0"/>
      <psa30 value="0.0008376551" flag="0"/>
    </comp>
    <comp name="--.HHZ">
      <acc value="0.0273567871" flag="0"/>
      <vel value="0.0096229655" flag="0"/>
      <psa03 value="0.0446404103" flag="0"/>
      <psa10 value="0.0046853432" flag="0"/>
      <psa30 value="0.0006683658" flag="0"/>
    </comp>
  </station>
  <station code="KARP" name="KARP" netid="HL" source="NOA" insttype="120" lat="35.5471" lon="27.1611">
    <comp name="--.HHE">
      <acc value="0.1216822761" flag="0"/>
      <vel value="0.0444729270" flag="0"/>
      <psa03 value="0.2166262465" flag="0"/>
      <psa10 value="0.0274156923" flag="0"/>
      <psa30 value="0.0012969466" flag="0"/>
    </comp>
    <comp name="--.HHN">
      <acc value="0.1373211800" flag="0"/>
      <vel value="0.0382573240" flag="0"/>
      <psa03 value="0.1803309325" flag="0"/>
      <psa10 value="0.0344530139" flag="0"/>
      <psa30 value="0.0015151390" flag="0"/>
    </comp>
    <comp name="--.HHZ">
      <acc value="0.0949205362" flag="0"/>
      <vel value="0.0304393941" flag="0"/>
      <psa03 value="0.1569777724" flag="0"/>
      <psa10 value="0.0076933220" flag="0"/>
      <psa30 value="0.0006361528" flag="0"/>
    </comp>
  </station>
  <station code="NPS" name="NPS" netid="HL" source="NOA" insttype="120" lat="35.2613" lon="25.6104">
    <comp name="--.HHE">
      <acc value="0.0125168760" flag="0"/>
      <vel value="0.0061988085" flag="0"/>
      <psa03 value="0.0339574240" flag="0"/>
      <psa10 value="0.0061800218" flag="0"/>
      <psa30 value="0.0007572999" flag="0"/>
    </comp>
    <comp name="--.HHN">
      <acc value="0.0085619448" flag="0"/>
      <vel value="0.0042380749" flag="0"/>
      <psa03 value="0.0201861209" flag="0"/>
      <psa10 value="0.0043221057" flag="0"/>
      <psa30 value="0.0004502324" flag="0"/>
    </comp>
    <comp name="--.HHZ">
      <acc value="0.0097395347" flag="0"/>
      <vel value="0.0027955066" flag="0"/>
      <psa03 value="0.0184841943" flag="0"/>
      <psa10 value="0.0032552904" flag="0"/>
      <psa30 value="0.0002002245" flag="0"/>
    </comp>
  </station>
  <station code="ZKR" name="ZKR" netid="HL" source="NOA" insttype="120" lat="35.1147" lon="26.2169">
    <comp name="--.HHE">
      <acc value="0.0473736931" flag="0"/>
      <vel value="0.0161762917" flag="0"/>
      <psa03 value="0.1436988046" flag="0"/>
      <psa10 value="0.0098938136" flag="0"/>
      <psa30 value="0.0005699592" flag="0"/>
    </comp>
  </station>
</stationlist>
