<stationlist xmlns:esm="https://esm-db.eu/esmws/shakemap/1/" created="1783475675">
	<station code="KARP" name="KARP" netid="GE" source="GEOFON" insttype="" lat="35.5471" lon="27.16106" esm:processing="manual (Paolucci et al 2011)" esm:quality="best">
		<comp name="--.HNE" depth="0.0">
			<acc value="0.11375235021497" flag="0"/>
			<vel value="0.0374977419015167" flag="0"/>
			<psa03 value="0.198207975318944" flag="0"/>
			<psa10 value="0.0265808975298491" flag="0"/>
			<psa30 value="0.00119148496224458" flag="0"/>
		</comp>
		<comp name="--.HNN" depth="0.0">
			<acc value="0.139692102338084" flag="0"/>
			<vel value="0.0431553258055648" flag="0"/>
			<psa03 value="0.189841182681327" flag="0"/>
			<psa10 value="0.0327821673671415" flag="0"/>
			<psa30 value="0.00151855049262414" flag="0"/>
		</comp>
		<comp name="--.HNZ" depth="0.0">
			<acc value="0.0963077930487756" flag="0"/>
			<vel value="0.0322938714195934" flag="0"/>
			<psa03 value="0.163532765189783" flag="0"/>
			<psa10 value="0.00790863244184572" flag="0"/>
			<psa30 value="0.000663079502082787" flag="0"/>
		</comp>
	</station>
	<station code="KSS1" name="KSS1" netid="HI" source="ITSAK Strong Motion Network" insttype="" lat="35.4189" lon="26.9207" esm:processing="manual (Paolucci et al 2011)" esm:quality="best">
		<comp name="--.HNE" depth="0.0">
			<acc value="0.111550444981403" flag="0"/>
			<vel value="0.0361788502865125" flag="0"/>
			<psa03 value="0.121519833175226" flag="0"/>
			<psa10 value="0.022175579866214" flag="0"/>
			<psa30 value="0.00158521638048537" flag="0"/>
		</comp>
		<comp name="--.HNN" depth="0.0">
			<acc value="0.14220946000226" flag="0"/>
			<vel value="0.0474401773556685" flag="0"/>
			<psa03 value="0.209527753593367" flag="0"/>
			<psa10 value="0.0229567787937691" flag="0"/>
			<psa30 value="0.00216731248858908" flag="0"/>
		</comp>
		<comp name="--.HNZ" depth="0.0">
			<acc value="0.121773237074656" flag="0"/>
			<vel value="0.0312317926133935" flag="0"/>
			<psa03 value="0.145680624749093" flag="0"/>
			<psa10 value="0.00763078333874625" flag="0"/>
			<psa30 value="0.00106173256305159" flag="0"/>
		</comp>
	</station>
	<station code="RGE1" name="RGE1" netid="HI" source="ITSAK Strong Motion Network" insttype="" lat="36.0269" lon="27.9306" esm:processing="manual (Paolucci et al 2011)" esm:quality="best">
		<comp name="--.HNE" depth="0.0">
			<acc value="0.00894083061782273" flag="0"/>
			<vel value="0.00590830729243692" flag="0"/>
			<psa03 value="0.0298377396246333" flag="0"/>
			<psa10 value="0.00667369038049345" flag="0"/>
			<psa30 value="0.000334899242723043" flag="0"/>
		</comp>
		<comp name="--.HNN" depth="0.0">
			<acc value="0.00905223540764062" flag="0"/>
			<vel value="0.00502127310857807" flag="0"/>
			<psa03 value="0.0221379430925617" flag="0"/>
			<psa10 value="0.00602068915362707" flag="0"/>
			<psa30 value="0.000459458613962877" flag="0"/>
		</comp>
		<comp name="--.HNZ" depth="0.0">
			<acc value="0.00648511917322448" flag="0"/>
			<vel value="0.00333925393760713" flag="0"/>
			<psa03 value="0.0264676465808356" flag="0"/>
			<psa10 value="0.00486136454155299" flag="0"/>
			<psa30 value="0.000357891807534099" flag="0"/>
		</comp>
	</station>
	<station code="SIT2" name="SIT2" netid="HI" source="ITSAK Strong Motion Network" insttype="" lat="35.2059" lon="26.107" esm:processing="manual (Paolucci et al 2011)" esm:quality="good">
		<comp name="--.HNE" depth="0.0">
			<acc value="0.0827624480565232" flag="0"/>
			<vel value="0.0439064736211435" flag="0"/>
			<psa03 value="0.205635181617577" flag="0"/>
			<psa10 value="0.0202990917206437" flag="0"/>
			<psa30 value="0.00139774653475481" flag="0"/>
		</comp>
		<comp name="--.HNN" depth="0.0">
			<acc value="0.0866119232484022" flag="0"/>
			<vel value="0.0468122803915047" flag="0"/>
			<psa03 value="0.285857958084138" flag="0"/>
			<psa10 value="0.0199890282287791" flag="0"/>
			<psa30 value="0.00152391955741834" flag="0"/>
		</comp>
		<comp name="--.HNZ" depth="0.0">
			<acc value="0.071131521536386" flag="0"/>
			<vel value="0.0179771177913494" flag="0"/>
			<psa03 value="0.100356769444784" flag="0"/>
			<psa10 value="0.00629388620499229" flag="0"/>
			<psa30 value="0.000903792573689089" flag="0"/>
		</comp>
	</station>
	<station code="KARP" name="KARP" netid="HL" source="National Observatory of Athens Seismic Network" insttype="" lat="35.5471" lon="27.16106" esm:processing="manual (Paolucci et al 2011)" esm:quality="best">
		<comp name="--.HNE" depth="0.0">
			<acc value="0.111475364814651" flag="0"/>
			<vel value="0.0367993401490817" flag="0"/>
			<psa03 value="0.194181176723299" flag="0"/>
			<psa10 value="0.0260372797194371" flag="0"/>
			<psa30 value="0.00116374479414125" flag="0"/>
		</comp>
		<comp name="--.HNN" depth="0.0">
			<acc value="0.136881445370048" flag="0"/>
			<vel value="0.0422321283139572" flag="0"/>
			<psa03 value="0.185993352912156" flag="0"/>
			<psa10 value="0.0321177455988602" flag="0"/>
			<psa30 value="0.00147336086393969" flag="0"/>
		</comp>
		<comp name="--.HNZ" depth="0.0">
			<acc value="0.0943702740521269" flag="0"/>
			<vel value="0.0315873801043236" flag="0"/>
			<psa03 value="0.160221841900031" flag="0"/>
			<psa10 value="0.00775158729661558" flag="0"/>
			<psa30 value="0.000653236216626767" flag="0"/>
		</comp>
	</station>
	<station code="NISR" name="NISR" netid="HL" source="National Observatory of Athens Seismic Network" insttype="" lat="36.6106" lon="27.131" esm:processing="manual (Paolucci et al 2011)" esm:quality="good">
		<comp name="00.HNE" depth="0.0">
			<acc value="0.0167841164791032" flag="0"/>
			<vel value="0.00995369404205749" flag="0"/>
			<psa03 value="0.0511058803054222" flag="0"/>
			<psa10 value="0.00510880499575825" flag="0"/>
			<psa30 value="0.000648177209392367" flag="0"/>
		</comp>
		<comp name="00.HNN" depth="0.0">
			<acc value="0.00889834315456427" flag="0"/>
			<vel value="0.00484815234427606" flag="0"/>
			<psa03 value="0.0347853382121056" flag="0"/>
			<psa10 value="0.00327003545192519" flag="0"/>
			<psa30 value="0.000597281285703873" flag="0"/>
		</comp>
		<comp name="00.HNZ" depth="0.0">
			<acc value="0.00476164954042504" flag="0"/>
			<vel value="0.00322064030257814" flag="0"/>
			<psa03 value="0.0202269727501759" flag="0"/>
			<psa10 value="0.00457388502868569" flag="0"/>
			<psa30 value="0.000361235909272802" flag="0"/>
		</comp>
	</station>
	<station code="ZKR" name="ZKR" netid="HL" source="National Observatory of Athens Seismic Network" insttype="" lat="35.1147" lon="26.21691" esm:processing="manual (Paolucci et al 2011)" esm:quality="best">
		<comp name="00.HNE" depth="0.0">
			<acc value="0.0477741680006025" flag="0"/>
			<vel value="0.0170544123170538" flag="0"/>
			<psa03 value="0.149931134377829" flag="0"/>
			<psa10 value="0.0103649795851888" flag="0"/>
			<psa30 value="0.000654131060759133" flag="0"/>
		</comp>
		<comp name="00.HNN" depth="0.0">
			<acc value="0.0554032665960331" flag="0"/>
			<vel value="0.0133219684081281" flag="0"/>
			<psa03 value="0.0898423508894897" flag="0"/>
			<psa10 value="0.00746971139492047" flag="0"/>
			<psa30 value="0.000944955403777899" flag="0"/>
		</comp>
		<comp name="00.HNZ" depth="0.0">
			<acc value="0.0298765961911805" flag="0"/>
			<vel value="0.00852168382167012" flag="0"/>
			<psa03 value="0.0450106598579814" flag="0"/>
			<psa10 value="0.00681737002242607" flag="0"/>
			<psa30 value="0.000394626262373157" flag="0"/>
		</comp>
	</station>
	<station code="RDI1" name="RDI1" netid="HI" source="ITSAK Strong Motion Network" insttype="" lat="36.4514" lon="28.224" esm:processing="discarded" esm:quality="bad">
		<comp name="--.HNE" depth="0.0">
			<acc value="0" flag="1"/>
			<vel value="0" flag="1"/>
			<psa03 value="0" flag="1"/>
			<psa10 value="0" flag="1"/>
			<psa30 value="0" flag="1"/>
		</comp>
		<comp name="--.HNN" depth="0.0">
			<acc value="0" flag="1"/>
			<vel value="0" flag="1"/>
			<psa03 value="0" flag="1"/>
			<psa10 value="0" flag="1"/>
			<psa30 value="0" flag="1"/>
		</comp>
		<comp name="--.HNZ" depth="0.0">
			<acc value="0" flag="1"/>
			<vel value="0" flag="1"/>
			<psa03 value="0" flag="1"/>
			<psa10 value="0" flag="1"/>
			<psa30 value="0" flag="1"/>
		</comp>
	</station>
	<station code="AGNA" name="AGNA" netid="HL" source="National Observatory of Athens Seismic Network" insttype="" lat="35.1895" lon="25.71853" esm:processing="automatic (Paolucci et al 2011)" esm:quality="bad">
		<comp name="00.HNE" depth="0.0">
			<acc value="0" flag="1"/>
			<vel value="0" flag="1"/>
			<psa03 value="0" flag="1"/>
			<psa10 value="0" flag="1"/>
			<psa30 value="0" flag="1"/>
		</comp>
		<comp name="00.HNN" depth="0.0">
			<acc value="0" flag="1"/>
			<vel value="0" flag="1"/>
			<psa03 value="0" flag="1"/>
			<psa10 value="0" flag="1"/>
			<psa30 value="0" flag="1"/>
		</comp>
		<comp name="00.HNZ" depth="0.0">
			<acc value="0" flag="1"/>
			<vel value="0" flag="1"/>
			<psa03 value="0" flag="1"/>
			<psa10 value="0" flag="1"/>
			<psa30 value="0" flag="1"/>
		</comp>
	</station>
	<station code="ASTA" name="ASTA" netid="HL" source="National Observatory of Athens Seismic Network" insttype="" lat="36.54552" lon="26.35295" esm:processing="discarded" esm:quality="bad">
		<comp name="00.HNE" depth="0.0">
			<acc value="0" flag="1"/>
			<vel value="0" flag="1"/>
			<psa03 value="0" flag="1"/>
			<psa10 value="0" flag="1"/>
			<psa30 value="0" flag="1"/>
		</comp>
		<comp name="00.HNN" depth="0.0">
			<acc value="0" flag="1"/>
			<vel value="0" flag="1"/>
			<psa03 value="0" flag="1"/>
			<psa10 value="0" flag="1"/>
			<psa30 value="0" flag="1"/>
		</comp>
		<comp name="00.HNZ" depth="0.0">
			<acc value="0" flag="1"/>
			<vel value="0" flag="1"/>
			<psa03 value="0" flag="1"/>
			<psa10 value="0" flag="1"/>
			<psa30 value="0" flag="1"/>
		</comp>
	</station>
	<station code="KLNA" name="KLNA" netid="HL" source="National Observatory of Athens Seismic Network" insttype="" lat="36.95708" lon="26.97274" esm:processing="discarded" esm:quality="bad">
		<comp name="00.HNE" depth="0.0">
			<acc value="0" flag="1"/>
			<vel value="0" flag="1"/>
			<psa03 value="0" flag="1"/>
			<psa10 value="0" flag="1"/>
			<psa30 value="0" flag="1"/>
		</comp>
		<comp name="00.HNN" depth="0.0">
			<acc value="0" flag="1"/>
			<vel value="0" flag="1"/>
			<psa03 value="0" flag="1"/>
			<psa10 value="0" flag="1"/>
			<psa30 value="0" flag="1"/>
		</comp>
		<comp name="00.HNZ" depth="0.0">
			<acc value="0" flag="1"/>
			<vel value="0" flag="1"/>
			<psa03 value="0" flag="1"/>
			<psa10 value="0" flag="1"/>
			<psa30 value="0" flag="1"/>
		</comp>
	</station>
	<station code="RODB" name="RODB" netid="HL" source="National Observatory of Athens Seismic Network" insttype="" lat="36.4471" lon="28.22116" esm:processing="discarded" esm:quality="bad">
		<comp name="00.HNE" depth="0.0">
			<acc value="0" flag="1"/>
			<vel value="0" flag="1"/>
			<psa03 value="0" flag="1"/>
			<psa10 value="0" flag="1"/>
			<psa30 value="0" flag="1"/>
		</comp>
		<comp name="00.HNN" depth="0.0">
			<acc value="0" flag="1"/>
			<vel value="0" flag="1"/>
			<psa03 value="0" flag="1"/>
			<psa10 value="0" flag="1"/>
			<psa30 value="0" flag="1"/>
		</comp>
		<comp name="00.HNZ" depth="0.0">
			<acc value="0" flag="1"/>
			<vel value="0" flag="1"/>
			<psa03 value="0" flag="1"/>
			<psa10 value="0" flag="1"/>
			<psa30 value="0" flag="1"/>
		</comp>
	</station>
	<station code="THRA" name="THRA" netid="HL" source="National Observatory of Athens Seismic Network" insttype="" lat="36.41502" lon="25.43244" esm:processing="discarded" esm:quality="bad">
		<comp name="00.HNE" depth="0.0">
			<acc value="0" flag="1"/>
			<vel value="0" flag="1"/>
			<psa03 value="0" flag="1"/>
			<psa10 value="0" flag="1"/>
			<psa30 value="0" flag="1"/>
		</comp>
		<comp name="00.HNN" depth="0.0">
			<acc value="0" flag="1"/>
			<vel value="0" flag="1"/>
			<psa03 value="0" flag="1"/>
			<psa10 value="0" flag="1"/>
			<psa30 value="0" flag="1"/>
		</comp>
		<comp name="00.HNZ" depth="0.0">
			<acc value="0" flag="1"/>
			<vel value="0" flag="1"/>
			<psa03 value="0" flag="1"/>
			<psa10 value="0" flag="1"/>
			<psa30 value="0" flag="1"/>
		</comp>
	</station>
	<station code="DATC" name="DATC" netid="KO" source="Bogazici University Kandilli Observatory And Earthquake Research Institute (KOERI)" insttype="" lat="36.7584" lon="27.6602" esm:processing="discarded" esm:quality="bad">
		<comp name="--.HNE" depth="0.0">
			<acc value="0" flag="1"/>
			<vel value="0" flag="1"/>
			<psa03 value="0" flag="1"/>
			<psa10 value="0" flag="1"/>
			<psa30 value="0" flag="1"/>
		</comp>
		<comp name="--.HNN" depth="0.0">
			<acc value="0" flag="1"/>
			<vel value="0" flag="1"/>
			<psa03 value="0" flag="1"/>
			<psa10 value="0" flag="1"/>
			<psa30 value="0" flag="1"/>
		</comp>
		<comp name="--.HNZ" depth="0.0">
			<acc value="0" flag="1"/>
			<vel value="0" flag="1"/>
			<psa03 value="0" flag="1"/>
			<psa10 value="0" flag="1"/>
			<psa30 value="0" flag="1"/>
		</comp>
	</station>
</stationlist>
