<stationlist created="1700818265">
	<station code="TUNC" name="TUNC" netid="KO" source="Bogazici University Kandilli Observatory And Earthquake Research Institute (KOERI)" insttype="" lat="39.6942" lon="37.5388">
		<comp name=".HNE" depth="0.0">
			<acc value="0.024084663534294" flag="0"/>
			<vel value="0.0280299366986" flag="0"/>
			<psa03 value="0.0426546147213671" flag="0"/>
			<psa10 value="0.0339185519376089" flag="0"/>
			<psa30 value="0.00425290506742292" flag="0"/>
		</comp>
		<comp name=".HNN" depth="0.0">
			<acc value="0.019735484283774" flag="0"/>
			<vel value="0.0152286038544" flag="0"/>
			<psa03 value="0.0470563516273255" flag="0"/>
			<psa10 value="0.0276029198079726" flag="0"/>
			<psa30 value="0.0024402631137906" flag="0"/>
		</comp>
		<comp name=".HNZ" depth="0.0">
			<acc value="0.0099106943130924" flag="0"/>
			<vel value="0.0109101429618" flag="0"/>
			<psa03 value="0.0318482321849138" flag="0"/>
			<psa10 value="0.0187350804821265" flag="0"/>
			<psa30 value="0.00294685958998696" flag="0"/>
		</comp>
	</station>
</stationlist>
