<?xml version="1.0" encoding="UTF-8" standalone="yes"?>
<!DOCTYPE earthquake SYSTEM "stationlist.dtd">
<stationlist created="" xmlns="ch.ethz.sed.shakemap.usgs.xml">
  <station code="ARPRA" name="ARPRA" netid="KO" insttype="CMG-5T" lat="39.0929" lon="38.3356">
    <comp name="--.HNN">
      <acc value="0.0526664781" flag="0"/>
      <vel value="0.0220354474" flag="0"/>
      <psa03 value="0.1483034517" flag="0"/>
      <psa10 value="0.0286812021" flag="0"/>
      <psa30 value="0.0026873254" flag="0"/>
    </comp>
    <comp name="--.HNE">
      <acc value="0.0465478884" flag="0"/>
      <vel value="0.0274488753" flag="0"/>
      <psa03 value="0.1656910237" flag="0"/>
      <psa10 value="0.0384165363" flag="0"/>
      <psa30 value="0.0026882633" flag="0"/>
    </comp>
    <comp name="--.HNZ">
      <acc value="0.0265841210" flag="0"/>
      <vel value="0.0129883342" flag="0"/>
      <psa03 value="0.0519819448" flag="0"/>
      <psa10 value="0.0261342313" flag="0"/>
      <psa30 value="0.0017231735" flag="0"/>
    </comp>
  </station>
  <station code="SINE" name="SINE" netid="KO" insttype="CMG-6T" lat="39.1636" lon="39.3871">
    <comp name="--.HHE">
      <acc value="0.0085330329" flag="0"/>
      <vel value="0.0064574892" flag="0"/>
      <psa03 value="0.0213809217" flag="0"/>
      <psa10 value="0.0095168343" flag="0"/>
      <psa30 value="0.0007990896" flag="0"/>
    </comp>
    <comp name="--.HHN">
      <acc value="0.0079463998" flag="0"/>
      <vel value="0.0059061466" flag="0"/>
      <psa03 value="0.0258776415" flag="0"/>
      <psa10 value="0.0126088365" flag="0"/>
      <psa30 value="0.0003206652" flag="0"/>
    </comp>
    <comp name="--.HHZ">
      <acc value="0.0064557984" flag="0"/>
      <vel value="0.0042189149" flag="0"/>
      <psa03 value="0.0156948226" flag="0"/>
      <psa10 value="0.0104229069" flag="0"/>
      <psa30 value="0.0003761763" flag="0"/>
    </comp>
  </station>
  <station code="URFA" name="URFA" netid="KO" insttype="CMG-3ESP" lat="37.4409" lon="38.8213">
    <comp name="--.HHZ">
      <acc value="0.3559822222" flag="0"/>
      <vel value="0.0634495429" flag="0"/>
      <psa03 value="0.1840091925" flag="0"/>
      <psa10 value="0.0291703249" flag="0"/>
      <psa30 value="0.0041249634" flag="0"/>
    </comp>
    <comp name="--.HHE">
      <acc value="0.2099519306" flag="0"/>
      <vel value="0.0471963043" flag="0"/>
      <psa03 value="0.2041009378" flag="0"/>
      <psa10 value="0.0359095442" flag="0"/>
      <psa30 value="0.0072850863" flag="0"/>
    </comp>
    <comp name="--.HHN">
      <acc value="0.2271307881" flag="0"/>
      <vel value="0.0463815008" flag="0"/>
      <psa03 value="0.2339567241" flag="0"/>
      <psa10 value="0.0371603806" flag="0"/>
      <psa30 value="0.0037393364" flag="0"/>
    </comp>
  </station>
</stationlist>
