<?xml version="1.0" encoding="UTF-8" standalone="yes"?>
<!DOCTYPE earthquake SYSTEM "stationlist.dtd">
<stationlist created="" xmlns="ch.ethz.sed.shakemap.usgs.xml">
  <station code="KARO" name="KARO" netid="KO" insttype="120s," lat="39.3089" lon="41.0493">
    <comp name="--.HHN">
      <acc value="5.9028051307" flag="0"/>
      <vel value="1.2090147142" flag="0"/>
      <psa03 value="9.5043747866" flag="0"/>
      <psa10 value="0.9798088345" flag="0"/>
      <psa30 value="0.1274877673" flag="0"/>
    </comp>
    <comp name="--.HHZ">
      <acc value="1.3635168213" flag="0"/>
      <vel value="0.7251188698" flag="0"/>
      <psa03 value="6.5415347979" flag="0"/>
      <psa10 value="0.3883122238" flag="0"/>
      <psa30 value="0.0319207827" flag="0"/>
    </comp>
    <comp name="--.HHE">
      <acc value="6.8095205831" flag="0"/>
      <vel value="1.1866769701" flag="0"/>
      <psa03 value="7.6467362209" flag="0"/>
      <psa10 value="1.1330137191" flag="0"/>
      <psa30 value="0.1236798105" flag="0"/>
    </comp>
  </station>
</stationlist>
