<stationlist created="1770374114">
	<station code="KRL1" name="KRL1" netid="HI" source="ITSAK Strong Motion Network" insttype="" lat="37.7951" lon="26.7065">
		<comp name="--.HNE" depth="0.0">
			<acc value="0.010360613533164" flag="0"/>
			<vel value="0.0035556614576" flag="0"/>
			<psa03 value="0.0224710120317791" flag="0"/>
			<psa10 value="0.00628868378194262" flag="0"/>
			<psa30 value="0.000441241678012443" flag="0"/>
		</comp>
		<comp name="--.HNN" depth="0.0">
			<acc value="0.011643635699748" flag="0"/>
			<vel value="0.00590464556273" flag="0"/>
			<psa03 value="0.0253474109124157" flag="0"/>
			<psa10 value="0.00823189844786495" flag="0"/>
			<psa30 value="0.000541142879311264" flag="0"/>
		</comp>
		<comp name="--.HNZ" depth="0.0">
			<acc value="0.0043445359511646" flag="0"/>
			<vel value="0.00312457090823" flag="0"/>
			<psa03 value="0.00962569950430454" flag="0"/>
			<psa10 value="0.00306729397442429" flag="0"/>
			<psa30 value="0.000200713921312393" flag="0"/>
		</comp>
	</station>
	<station code="MYT1" name="MYT1" netid="HI" source="ITSAK Strong Motion Network" insttype="" lat="39.085" lon="26.5694">
		<comp name="--.HNE" depth="0.0">
			<acc value="0.017035599783912" flag="0"/>
			<vel value="0.0117641168119" flag="0"/>
			<psa03 value="0.0408862423670822" flag="0"/>
			<psa10 value="0.0204030953549526" flag="0"/>
			<psa30 value="0.00111783800961553" flag="0"/>
		</comp>
		<comp name="--.HNN" depth="0.0">
			<acc value="0.012919640923314" flag="0"/>
			<vel value="0.0167453740479" flag="0"/>
			<psa03 value="0.0336683267155954" flag="0"/>
			<psa10 value="0.0241140730639916" flag="0"/>
			<psa30 value="0.00151484660115108" flag="0"/>
		</comp>
		<comp name="--.HNZ" depth="0.0">
			<acc value="0.005758953751443" flag="0"/>
			<vel value="0.00542640739731" flag="0"/>
			<psa03 value="0.0196700283032358" flag="0"/>
			<psa10 value="0.00849048464045432" flag="0"/>
			<psa30 value="0.000710337889731539" flag="0"/>
		</comp>
	</station>
	<station code="PLM1" name="PLM1" netid="HI" source="ITSAK Strong Motion Network" insttype="" lat="38.9751" lon="26.3688">
		<comp name="--.HNE" depth="0.0">
			<acc value="0.010372748850666" flag="0"/>
			<vel value="0.00306180098425" flag="0"/>
			<psa03 value="0.0199163649343366" flag="0"/>
			<psa10 value="0.00263834149592728" flag="0"/>
			<psa30 value="0.000194857061969742" flag="0"/>
		</comp>
		<comp name="--.HNN" depth="0.0">
			<acc value="0.0070360822842708" flag="0"/>
			<vel value="0.00265670233634" flag="0"/>
			<psa03 value="0.0156048436401421" flag="0"/>
			<psa10 value="0.00317951476787544" flag="0"/>
			<psa30 value="0.000329307023307604" flag="0"/>
		</comp>
		<comp name="--.HNZ" depth="0.0">
			<acc value="0.008801645593191" flag="0"/>
			<vel value="0.00204464926327" flag="0"/>
			<psa03 value="0.00508671001643635" flag="0"/>
			<psa10 value="0.00183680195255415" flag="0"/>
			<psa30 value="0.000269138974969415" flag="0"/>
		</comp>
	</station>
	<station code="PRK" name="PRK" netid="HL" source="National Observatory of Athens Seismic Network" insttype="" lat="39.24565" lon="26.26499">
		<comp name="--.HNE" depth="0.0">
			<acc value="0.010652327789544" flag="0"/>
			<vel value="0.00726610882923" flag="0"/>
			<psa03 value="0.0281684936286191" flag="0"/>
			<psa10 value="0.00662412803471306" flag="0"/>
			<psa30 value="0.000549461190774756" flag="0"/>
		</comp>
		<comp name="--.HNN" depth="0.0">
			<acc value="0.005817583734963" flag="0"/>
			<vel value="0.00434750739313" flag="0"/>
			<psa03 value="0.0142497968436961" flag="0"/>
			<psa10 value="0.00553456366894631" flag="0"/>
			<psa30 value="0.000570438882527578" flag="0"/>
		</comp>
		<comp name="--.HNZ" depth="0.0">
			<acc value="0.0054436628708232" flag="0"/>
			<vel value="0.00314477461736" flag="0"/>
			<psa03 value="0.0191932740643711" flag="0"/>
			<psa10 value="0.00393002503236896" flag="0"/>
			<psa30 value="0.000267911081127809" flag="0"/>
		</comp>
	</station>
	<station code="SMG" name="SMG" netid="HL" source="National Observatory of Athens Seismic Network" insttype="" lat="37.70425" lon="26.83772">
		<comp name="00.HNE" depth="0.0">
			<acc value="0.0067168965564786" flag="0"/>
			<vel value="0.0028582251163" flag="0"/>
			<psa03 value="0.025789007874389" flag="0"/>
			<psa10 value="0.0025584644857176" flag="0"/>
			<psa30 value="0.000295714172946161" flag="0"/>
		</comp>
		<comp name="00.HNN" depth="0.0">
			<acc value="0.007630479346284" flag="0"/>
			<vel value="0.00353430743576" flag="0"/>
			<psa03 value="0.0160566730507656" flag="0"/>
			<psa10 value="0.00530891262691677" flag="0"/>
			<psa30 value="0.000257232274750648" flag="0"/>
		</comp>
		<comp name="00.HNZ" depth="0.0">
			<acc value="0.0041226945628512" flag="0"/>
			<vel value="0.00201470775794" flag="0"/>
			<psa03 value="0.00982994154998227" flag="0"/>
			<psa10 value="0.00177325469598478" flag="0"/>
			<psa30 value="0.00025479547269978" flag="0"/>
		</comp>
	</station>
	<station code="LES3" name="LES3" netid="HT" source="Aristotle University of Thessaloniki Seismological Network" insttype="" lat="39.303248" lon="26.180664">
		<comp name="--.HNE" depth="0.0">
			<acc value="0.027585573637842" flag="0"/>
			<vel value="0.017959707276" flag="0"/>
			<psa03 value="0.0386059793316526" flag="0"/>
			<psa10 value="0.0148901982775636" flag="0"/>
			<psa30 value="0.0079346606323201" flag="0"/>
		</comp>
		<comp name="--.HNN" depth="0.0">
			<acc value="0.031059453576456" flag="0"/>
			<vel value="0.0167686094483" flag="0"/>
			<psa03 value="0.0356560599556702" flag="0"/>
			<psa10 value="0.0172273080996215" flag="0"/>
			<psa30 value="0.0072276162940902" flag="0"/>
		</comp>
		<comp name="--.HNZ" depth="0.0">
			<acc value="0.042751868950914" flag="0"/>
			<vel value="0.0243578856146" flag="0"/>
			<psa03 value="0.0568016430384239" flag="0"/>
			<psa10 value="0.0243612313120176" flag="0"/>
			<psa30 value="0.00984330207045656" flag="0"/>
		</comp>
	</station>
	<station code="AKS" name="AKS" netid="KO" source="Bogazici University Kandilli Observatory And Earthquake Research Institute (KOERI)" insttype="" lat="38.8785" lon="27.8129">
		<comp name="--.HNE" depth="0.0">
			<acc value="0.17266862610234" flag="0"/>
			<vel value="0.066407902802" flag="0"/>
			<psa03 value="0.34128000395878" flag="0"/>
			<psa10 value="0.0196806043684445" flag="0"/>
			<psa30 value="0.00137743604004434" flag="0"/>
		</comp>
		<comp name="--.HNN" depth="0.0">
			<acc value="0.17044744244868" flag="0"/>
			<vel value="0.0509078337691" flag="0"/>
			<psa03 value="0.300957311944779" flag="0"/>
			<psa10 value="0.0145220035739816" flag="0"/>
			<psa30 value="0.00217144613931453" flag="0"/>
		</comp>
		<comp name="--.HNZ" depth="0.0">
			<acc value="0.135011378838" flag="0"/>
			<vel value="0.0361205369338" flag="0"/>
			<psa03 value="0.114145509496391" flag="0"/>
			<psa10 value="0.00941429927611603" flag="0"/>
			<psa30 value="0.00138035237907122" flag="0"/>
		</comp>
	</station>
	<station code="ALT" name="ALT" netid="KO" source="Bogazici University Kandilli Observatory And Earthquake Research Institute (KOERI)" insttype="" lat="39.0541" lon="30.1104">
		<comp name="--.HNE" depth="0.0">
			<acc value="0.008687177736819" flag="0"/>
			<vel value="0.00313352178918" flag="0"/>
			<psa03 value="0.0178120744937607" flag="0"/>
			<psa10 value="0.00182187268231014" flag="0"/>
			<psa30 value="0.00042395350150555" flag="0"/>
		</comp>
		<comp name="--.HNN" depth="0.0">
			<acc value="0.012908672813844" flag="0"/>
			<vel value="0.0065887993675" flag="0"/>
			<psa03 value="0.0294120551751558" flag="0"/>
			<psa10 value="0.0022625593365783" flag="0"/>
			<psa30 value="0.000625876669589245" flag="0"/>
		</comp>
		<comp name="--.HNZ" depth="0.0">
			<acc value="0.0045669010525212" flag="0"/>
			<vel value="0.00270680383303" flag="0"/>
			<psa03 value="0.00980594647083493" flag="0"/>
			<psa10 value="0.00229351084008736" flag="0"/>
			<psa30 value="0.000625400179692617" flag="0"/>
		</comp>
	</station>
	<station code="ARMT" name="ARMT" netid="KO" source="Bogazici University Kandilli Observatory And Earthquake Research Institute (KOERI)" insttype="" lat="40.5683" lon="28.866">
		<comp name="--.HNE" depth="0.0">
			<acc value="0.03077859946734" flag="0"/>
			<vel value="0.00952474752948" flag="0"/>
			<psa03 value="0.0748505939011849" flag="0"/>
			<psa10 value="0.0132260067830384" flag="0"/>
			<psa30 value="0.000416128477927684" flag="0"/>
		</comp>
		<comp name="--.HNN" depth="0.0">
			<acc value="0.028452088770132" flag="0"/>
			<vel value="0.0114738784205" flag="0"/>
			<psa03 value="0.0764040457681864" flag="0"/>
			<psa10 value="0.0183873049437216" flag="0"/>
			<psa30 value="0.000856331675685749" flag="0"/>
		</comp>
		<comp name="--.HNZ" depth="0.0">
			<acc value="0.01485206300976" flag="0"/>
			<vel value="0.00643975508825" flag="0"/>
			<psa03 value="0.0363282034401877" flag="0"/>
			<psa10 value="0.00769419298376618" flag="0"/>
			<psa30 value="0.000605486829282214" flag="0"/>
		</comp>
	</station>
	<station code="ASYA" name="ASYA" netid="KO" source="Bogazici University Kandilli Observatory And Earthquake Research Institute (KOERI)" insttype="" lat="40.8956" lon="27.465">
		<comp name="--.HNE" depth="0.0">
			<acc value="0.013159712311638" flag="0"/>
			<vel value="0.00620701271238" flag="0"/>
			<psa03 value="0.0349905627447399" flag="0"/>
			<psa10 value="0.00804763467879663" flag="0"/>
			<psa30 value="0.000537936312721857" flag="0"/>
		</comp>
		<comp name="--.HNN" depth="0.0">
			<acc value="0.017511349343652" flag="0"/>
			<vel value="0.00747061555856" flag="0"/>
			<psa03 value="0.0321252557446821" flag="0"/>
			<psa10 value="0.0128637271587982" flag="0"/>
			<psa30 value="0.000525616434090556" flag="0"/>
		</comp>
		<comp name="--.HNZ" depth="0.0">
			<acc value="0.01679653169727" flag="0"/>
			<vel value="0.00438486180236" flag="0"/>
			<psa03 value="0.0252251215613398" flag="0"/>
			<psa10 value="0.0029494178063304" flag="0"/>
			<psa30 value="0.000214725591704198" flag="0"/>
		</comp>
	</station>
	<station code="AVCI" name="AVCI" netid="KO" source="Bogazici University Kandilli Observatory And Earthquake Research Institute (KOERI)" insttype="" lat="40.9958" lon="28.7225">
		<comp name="--.HNE" depth="0.0">
			<acc value="0.011304501431514" flag="0"/>
			<vel value="0.0140381251003" flag="0"/>
			<psa03 value="0.0279374731163101" flag="0"/>
			<psa10 value="0.0263994875864887" flag="0"/>
			<psa30 value="0.00139416725257324" flag="0"/>
		</comp>
		<comp name="--.HNN" depth="0.0">
			<acc value="0.0099494701509792" flag="0"/>
			<vel value="0.00926669911012" flag="0"/>
			<psa03 value="0.0170260159108073" flag="0"/>
			<psa10 value="0.0206013841155739" flag="0"/>
			<psa30 value="0.00204849674452208" flag="0"/>
		</comp>
		<comp name="--.HNZ" depth="0.0">
			<acc value="0.006754109177127" flag="0"/>
			<vel value="0.00424933261386" flag="0"/>
			<psa03 value="0.015610285406861" flag="0"/>
			<psa10 value="0.00843569351079128" flag="0"/>
			<psa30 value="0.000762012354578187" flag="0"/>
		</comp>
	</station>
	<station code="BALB" name="BALB" netid="KO" source="Bogazici University Kandilli Observatory And Earthquake Research Institute (KOERI)" insttype="" lat="39.6507" lon="27.8642">
		<comp name="--.HNE" depth="0.0">
			<acc value="0.038113635182448" flag="0"/>
			<vel value="0.0111576505129" flag="0"/>
			<psa03 value="0.0581118079556104" flag="0"/>
			<psa10 value="0.019495362722102" flag="0"/>
			<psa30 value="0.00111608831037357" flag="0"/>
		</comp>
		<comp name="--.HNN" depth="0.0">
			<acc value="0.032551386179916" flag="0"/>
			<vel value="0.0174644818018" flag="0"/>
			<psa03 value="0.0683066551891726" flag="0"/>
			<psa10 value="0.0186423574647062" flag="0"/>
			<psa30 value="0.00169292131439602" flag="0"/>
		</comp>
		<comp name="--.HNZ" depth="0.0">
			<acc value="0.027021819350712" flag="0"/>
			<vel value="0.0079526584604" flag="0"/>
			<psa03 value="0.0282824334682425" flag="0"/>
			<psa10 value="0.00895605360710631" flag="0"/>
			<psa30 value="0.000820013540624317" flag="0"/>
		</comp>
	</station>
	<station code="BASM" name="BASM" netid="KO" source="Bogazici University Kandilli Observatory And Earthquake Research Institute (KOERI)" insttype="" lat="37.9194" lon="30.035">
		<comp name="--.HNE" depth="0.0">
			<acc value="0.009015570791523" flag="0"/>
			<vel value="0.00437416689603" flag="0"/>
			<psa03 value="0.013746663253135" flag="0"/>
			<psa10 value="0.00674891848896429" flag="0"/>
			<psa30 value="0.000471535038963983" flag="0"/>
		</comp>
		<comp name="--.HNN" depth="0.0">
			<acc value="0.010885856525874" flag="0"/>
			<vel value="0.0040941146784" flag="0"/>
			<psa03 value="0.0110650442028097" flag="0"/>
			<psa10 value="0.00915705379738093" flag="0"/>
			<psa30 value="0.00054798239489601" flag="0"/>
		</comp>
		<comp name="--.HNZ" depth="0.0">
			<acc value="0.0097839317491326" flag="0"/>
			<vel value="0.00227696960863" flag="0"/>
			<psa03 value="0.00732493250643799" flag="0"/>
			<psa10 value="0.00323304745477545" flag="0"/>
			<psa30 value="0.000229580130431982" flag="0"/>
		</comp>
	</station>
	<station code="BIGA" name="BIGA" netid="KO" source="Bogazici University Kandilli Observatory And Earthquake Research Institute (KOERI)" insttype="" lat="40.28134" lon="27.15048">
		<comp name="--.HNE" depth="0.0">
			<acc value="0.019820650647882" flag="0"/>
			<vel value="0.00625334363036" flag="0"/>
			<psa03 value="0.045019883387814" flag="0"/>
			<psa10 value="0.00618480752566247" flag="0"/>
			<psa30 value="0.000480433232592763" flag="0"/>
		</comp>
		<comp name="--.HNN" depth="0.0">
			<acc value="0.022469821294974" flag="0"/>
			<vel value="0.00790087689723" flag="0"/>
			<psa03 value="0.032079218840795" flag="0"/>
			<psa10 value="0.0050819630613723" flag="0"/>
			<psa30 value="0.00061128398414919" flag="0"/>
		</comp>
		<comp name="--.HNZ" depth="0.0">
			<acc value="0.0075681342172026" flag="0"/>
			<vel value="0.00281094345599" flag="0"/>
			<psa03 value="0.0125112363600686" flag="0"/>
			<psa10 value="0.00225853156975907" flag="0"/>
			<psa30 value="0.000356114111645602" flag="0"/>
		</comp>
	</station>
	<station code="BMYO" name="BMYO" netid="KO" source="Bogazici University Kandilli Observatory And Earthquake Research Institute (KOERI)" insttype="" lat="39.8098" lon="26.6009">
		<comp name="--.HNE" depth="0.0">
			<acc value="0.012870738893076" flag="0"/>
			<vel value="0.00670176751279" flag="0"/>
			<psa03 value="0.0258306330276675" flag="0"/>
			<psa10 value="0.00927484910074702" flag="0"/>
			<psa30 value="0.000702920262936209" flag="0"/>
		</comp>
		<comp name="--.HNN" depth="0.0">
			<acc value="0.018218169879648" flag="0"/>
			<vel value="0.00869993881591" flag="0"/>
			<psa03 value="0.0430687879916742" flag="0"/>
			<psa10 value="0.00908460556052898" flag="0"/>
			<psa30 value="0.000526531755142543" flag="0"/>
		</comp>
		<comp name="--.HNZ" depth="0.0">
			<acc value="0.0053513096800452" flag="0"/>
			<vel value="0.00343634689815" flag="0"/>
			<psa03 value="0.0121565748446888" flag="0"/>
			<psa10 value="0.00694596685496204" flag="0"/>
			<psa30 value="0.000457662088699718" flag="0"/>
		</comp>
	</station>
	<station code="BOTS" name="BOTS" netid="KO" source="Bogazici University Kandilli Observatory And Earthquake Research Institute (KOERI)" insttype="" lat="40.9902" lon="27.981">
		<comp name="--.HNE" depth="0.0">
			<acc value="0.01249075606968" flag="0"/>
			<vel value="0.0088745430623" flag="0"/>
			<psa03 value="0.0350694924525987" flag="0"/>
			<psa10 value="0.00945378189166345" flag="0"/>
			<psa30 value="0.000459099371412423" flag="0"/>
		</comp>
		<comp name="--.HNN" depth="0.0">
			<acc value="0.020477331649452" flag="0"/>
			<vel value="0.00887903607542" flag="0"/>
			<psa03 value="0.0363790922279757" flag="0"/>
			<psa10 value="0.00811368030398892" flag="0"/>
			<psa30 value="0.00079416833892049" flag="0"/>
		</comp>
		<comp name="--.HNZ" depth="0.0">
			<acc value="0.029357070035424" flag="0"/>
			<vel value="0.00284345537912" flag="0"/>
			<psa03 value="0.00691045062197333" flag="0"/>
			<psa10 value="0.00280833556969997" flag="0"/>
			<psa30 value="0.000483599848615324" flag="0"/>
		</comp>
	</station>
	<station code="BRGA" name="BRGA" netid="KO" source="Bogazici University Kandilli Observatory And Earthquake Research Institute (KOERI)" insttype="" lat="40.8846" lon="29.065">
		<comp name="--.HNE" depth="0.0">
			<acc value="0.013702804310256" flag="0"/>
			<vel value="0.00784637927498" flag="0"/>
			<psa03 value="0.0473722423450749" flag="0"/>
			<psa10 value="0.0118811873828677" flag="0"/>
			<psa30 value="0.00069278552905945" flag="0"/>
		</comp>
		<comp name="--.HNN" depth="0.0">
			<acc value="0.016966683506454" flag="0"/>
			<vel value="0.00692601657906" flag="0"/>
			<psa03 value="0.0253834784058772" flag="0"/>
			<psa10 value="0.00948352042417089" flag="0"/>
			<psa30 value="0.000744838873171222" flag="0"/>
		</comp>
		<comp name="--.HNZ" depth="0.0">
			<acc value="0.010366260968796" flag="0"/>
			<vel value="0.00428036744838" flag="0"/>
			<psa03 value="0.0151938919374348" flag="0"/>
			<psa10 value="0.00383489318347701" flag="0"/>
			<psa30 value="0.000469341143631578" flag="0"/>
		</comp>
	</station>
	<station code="BUYK" name="BUYK" netid="KO" source="Bogazici University Kandilli Observatory And Earthquake Research Institute (KOERI)" insttype="" lat="41.0168" lon="28.5828">
		<comp name="--.HNE" depth="0.0">
			<acc value="0.0098774878796646" flag="0"/>
			<vel value="0.0117439346308" flag="0"/>
			<psa03 value="0.0311731588187849" flag="0"/>
			<psa10 value="0.0270508551114068" flag="0"/>
			<psa30 value="0.00143312754183333" flag="0"/>
		</comp>
		<comp name="--.HNN" depth="0.0">
			<acc value="0.015991652927916" flag="0"/>
			<vel value="0.0232358757577" flag="0"/>
			<psa03 value="0.0468774022726607" flag="0"/>
			<psa10 value="0.0295095404872328" flag="0"/>
			<psa30 value="0.00253546442040669" flag="0"/>
		</comp>
		<comp name="--.HNZ" depth="0.0">
			<acc value="0.007665003536388" flag="0"/>
			<vel value="0.00874461984809" flag="0"/>
			<psa03 value="0.0144543781045161" flag="0"/>
			<psa10 value="0.0192103832186235" flag="0"/>
			<psa30 value="0.00098513890645284" flag="0"/>
		</comp>
	</station>
	<station code="CANM" name="CANM" netid="KO" source="Bogazici University Kandilli Observatory And Earthquake Research Institute (KOERI)" insttype="" lat="40.0113" lon="27.0529">
		<comp name="--.HNE" depth="0.0">
			<acc value="0.014941014975348" flag="0"/>
			<vel value="0.0081013971876" flag="0"/>
			<psa03 value="0.0237352364054293" flag="0"/>
			<psa10 value="0.0109339215061349" flag="0"/>
			<psa30 value="0.000562861505562689" flag="0"/>
		</comp>
		<comp name="--.HNN" depth="0.0">
			<acc value="0.013846079733072" flag="0"/>
			<vel value="0.00614980394602" flag="0"/>
			<psa03 value="0.0243360522481783" flag="0"/>
			<psa10 value="0.0100570477925555" flag="0"/>
			<psa30 value="0.00055073153534371" flag="0"/>
		</comp>
		<comp name="--.HNZ" depth="0.0">
			<acc value="0.0099866779120518" flag="0"/>
			<vel value="0.00437724394382" flag="0"/>
			<psa03 value="0.020126519481055" flag="0"/>
			<psa10 value="0.00461454100320074" flag="0"/>
			<psa30 value="0.00046367915396857" flag="0"/>
		</comp>
	</station>
	<station code="CESE" name="CESE" netid="KO" source="Bogazici University Kandilli Observatory And Earthquake Research Institute (KOERI)" insttype="" lat="38.3306" lon="26.2997">
		<comp name="--.HNE" depth="0.0">
			<acc value="0.0021838706628798" flag="0"/>
			<vel value="0.0016916446147" flag="0"/>
			<psa03 value="0.00578064596023985" flag="0"/>
			<psa10 value="0.00135928797584369" flag="0"/>
			<psa30 value="0.000533375333498618" flag="0"/>
		</comp>
		<comp name="--.HNN" depth="0.0">
			<acc value="0.0032536085953782" flag="0"/>
			<vel value="0.002046783329" flag="0"/>
			<psa03 value="0.0115570273150872" flag="0"/>
