<?xml version="1.0" encoding="UTF-8" standalone="yes"?>
<!DOCTYPE earthquake SYSTEM "stationlist.dtd">
<stationlist created="" xmlns="ch.ethz.sed.shakemap.usgs.xml">
  <station code="AKS" name="AKS" netid="KO" insttype="CMG-5T" commtype="DIG" lat="38.8785" lon="27.8129">
    <comp name="--.HNZ">
      <acc value="0.1334022977" flag="0"/>
      <vel value="0.0358213811" flag="0"/>
      <psa03 value="0.1142593223" flag="0"/>
      <psa10 value="0.0093912909" flag="0"/>
      <psa30 value="0.0012389694" flag="0"/>
    </comp>
    <comp name="--.HNN">
      <acc value="0.1721673482" flag="0"/>
      <vel value="0.0513028889" flag="0"/>
      <psa03 value="0.2945136777" flag="0"/>
      <psa10 value="0.0144893217" flag="0"/>
      <psa30 value="0.0018994018" flag="0"/>
    </comp>
    <comp name="--.HNE">
      <acc value="0.1788896605" flag="0"/>
      <vel value="0.0648252878" flag="0"/>
      <psa03 value="0.3385208044" flag="0"/>
      <psa10 value="0.0195950721" flag="0"/>
      <psa30 value="0.0012583121" flag="0"/>
    </comp>
  </station>
  <station code="BALB" name="BALB" netid="KO" insttype="CMG-5T" commtype="DIG" lat="39.6507" lon="27.8642">
    <comp name="--.HNN">
      <acc value="0.0331142934" flag="0"/>
      <vel value="0.0171842177" flag="0"/>
      <psa03 value="0.0674691407" flag="0"/>
      <psa10 value="0.0186110456" flag="0"/>
      <psa30 value="0.0015539834" flag="0"/>
    </comp>
    <comp name="--.HNE">
      <acc value="0.0388180053" flag="0"/>
      <vel value="0.0109898768" flag="0"/>
      <psa03 value="0.0571594662" flag="0"/>
      <psa10 value="0.0195045083" flag="0"/>
      <psa30 value="0.0010509940" flag="0"/>
    </comp>
    <comp name="--.HNZ">
      <acc value="0.0279178464" flag="0"/>
      <vel value="0.0075264814" flag="0"/>
      <psa03 value="0.0277958618" flag="0"/>
      <psa10 value="0.0088992269" flag="0"/>
      <psa30 value="0.0006737695" flag="0"/>
    </comp>
  </station>
  <station code="DKL" name="DKL" netid="KO" insttype="CMG-3ESPC" commtype="DIG" lat="39.0713" lon="26.9053">
    <comp name="--.HHE">
      <acc value="0.0042611349" flag="0"/>
      <vel value="0.0027624191" flag="0"/>
      <psa03 value="0.0089570398" flag="0"/>
      <psa10 value="0.0032598461" flag="0"/>
      <psa30 value="0.0001499458" flag="0"/>
    </comp>
    <comp name="--.HHN">
      <acc value="0.0303319920" flag="0"/>
      <vel value="0.0076356757" flag="0"/>
      <psa03 value="0.0246428666" flag="0"/>
      <psa10 value="0.0083653369" flag="0"/>
      <psa30 value="0.0009145291" flag="0"/>
    </comp>
    <comp name="--.HHZ">
      <acc value="0.0150888210" flag="0"/>
      <vel value="0.0041569627" flag="0"/>
      <psa03 value="0.0158832169" flag="0"/>
      <psa10 value="0.0042370310" flag="0"/>
      <psa30 value="0.0005077662" flag="0"/>
    </comp>
  </station>
  <station code="DST" name="DST" netid="KO" insttype="CMG-5T" commtype="DIG" lat="39.6041" lon="28.6267">
    <comp name="--.HNN">
      <acc value="0.0695281198" flag="0"/>
      <vel value="0.0306792085" flag="0"/>
      <psa03 value="0.1132184084" flag="0"/>
      <psa10 value="0.0204658525" flag="0"/>
      <psa30 value="0.0012996320" flag="0"/>
    </comp>
    <comp name="--.HNE">
      <acc value="0.0665152287" flag="0"/>
      <vel value="0.0184541584" flag="0"/>
      <psa03 value="0.0760384447" flag="0"/>
      <psa10 value="0.0147500001" flag="0"/>
      <psa30 value="0.0009729534" flag="0"/>
    </comp>
    <comp name="--.HNZ">
      <acc value="0.0574196919" flag="0"/>
      <vel value="0.0162730389" flag="0"/>
      <psa03 value="0.0841338396" flag="0"/>
      <psa10 value="0.0095904916" flag="0"/>
      <psa30 value="0.0009816979" flag="0"/>
    </comp>
  </station>
  <station code="GEDZ" name="GEDZ" netid="KO" insttype="CMG-6T" commtype="DIG" lat="39.0445" lon="29.4105">
    <comp name="--.HHE">
      <acc value="0.1417631894" flag="0"/>
      <vel value="0.0537863470" flag="0"/>
      <psa03 value="0.3827742392" flag="0"/>
      <psa10 value="0.0521930985" flag="0"/>
      <psa30 value="0.0028739647" flag="0"/>
    </comp>
    <comp name="--.HHZ">
      <acc value="0.0497859390" flag="0"/>
      <vel value="0.0205976126" flag="0"/>
      <psa03 value="0.0826118603" flag="0"/>
      <psa10 value="0.0152298090" flag="0"/>
      <psa30 value="0.0007878782" flag="0"/>
    </comp>
    <comp name="--.HHN">
      <acc value="0.1001258371" flag="0"/>
      <vel value="0.0500881154" flag="0"/>
      <psa03 value="0.2215207847" flag="0"/>
      <psa10 value="0.0541920039" flag="0"/>
      <psa30 value="0.0024823428" flag="0"/>
    </comp>
  </station>
  <station code="GOMA" name="GOMA" netid="KO" insttype="CMG-5T" commtype="DIG" lat="38.7077" lon="27.9175">
    <comp name="--.HNN">
      <acc value="0.2229779393" flag="0"/>
      <vel value="0.0915343259" flag="0"/>
      <psa03 value="0.8531494176" flag="0"/>
      <psa10 value="0.0191907902" flag="0"/>
      <psa30 value="0.0022897680" flag="0"/>
    </comp>
    <comp name="--.HNZ">
      <acc value="0.1484715061" flag="0"/>
      <vel value="0.0434830535" flag="0"/>
      <psa03 value="0.1983560411" flag="0"/>
      <psa10 value="0.0081857178" flag="0"/>
      <psa30 value="0.0009318651" flag="0"/>
    </comp>
  </station>
  <station code="GONE" name="GONE" netid="KO" insttype="CMG-5T" commtype="DIG" lat="40.0466" lon="27.686">
    <comp name="--.HNZ">
      <acc value="0.0163089136" flag="0"/>
      <vel value="0.0049484395" flag="0"/>
      <psa03 value="0.0161886121" flag="0"/>
      <psa10 value="0.0046269826" flag="0"/>
      <psa30 value="0.0004626948" flag="0"/>
    </comp>
    <comp name="--.HNE">
      <acc value="0.0265524657" flag="0"/>
      <vel value="0.0101306579" flag="0"/>
      <psa03 value="0.0468587810" flag="0"/>
      <psa10 value="0.0113294342" flag="0"/>
      <psa30 value="0.0007180034" flag="0"/>
    </comp>
    <comp name="--.HNN">
      <acc value="0.0603278139" flag="0"/>
      <vel value="0.0218417223" flag="0"/>
      <psa03 value="0.0939532311" flag="0"/>
      <psa10 value="0.0125405571" flag="0"/>
      <psa30 value="0.0008034231" flag="0"/>
    </comp>
  </station>
  <station code="GORD" name="GORD" netid="KO" insttype="CMG-5T" commtype="DIG" lat="38.9088" lon="28.1769">
    <comp name="--.HNE">
      <acc value="0.1122588871" flag="0"/>
      <vel value="0.0544683627" flag="0"/>
      <psa03 value="0.1701692869" flag="0"/>
      <psa10 value="0.0523120192" flag="0"/>
      <psa30 value="0.0027680747" flag="0"/>
    </comp>
    <comp name="--.HNN">
      <acc value="0.1632196061" flag="0"/>
      <vel value="0.0638452771" flag="0"/>
      <psa03 value="0.2852765185" flag="0"/>
      <psa10 value="0.0518737011" flag="0"/>
      <psa30 value="0.0038286225" flag="0"/>
    </comp>
    <comp name="--.HNZ">
      <acc value="0.1523066719" flag="0"/>
      <vel value="0.0503983106" flag="0"/>
      <psa03 value="0.1322761964" flag="0"/>
      <psa10 value="0.0340980831" flag="0"/>
      <psa30 value="0.0044097741" flag="0"/>
    </comp>
  </station>
  <station code="KULA" name="KULA" netid="KO" insttype="CMG-3T" commtype="DIG" lat="38.5145" lon="28.6607">
    <comp name="--.HHE">
      <acc value="0.0696550934" flag="0"/>
      <vel value="0.0255522067" flag="0"/>
      <psa03 value="0.1101801635" flag="0"/>
      <psa10 value="0.0165060819" flag="0"/>
      <psa30 value="0.0013085349" flag="0"/>
    </comp>
    <comp name="--.HHN">
      <acc value="0.0721253328" flag="0"/>
      <vel value="0.0193808365" flag="0"/>
      <psa03 value="0.1375197456" flag="0"/>
      <psa10 value="0.0063071537" flag="0"/>
      <psa30 value="0.0006737804" flag="0"/>
    </comp>
    <comp name="--.HHZ">
      <acc value="0.0604095559" flag="0"/>
      <vel value="0.0163252755" flag="0"/>
      <psa03 value="0.0727310637" flag="0"/>
      <psa10 value="0.0097644018" flag="0"/>
      <psa30 value="0.0009413390" flag="0"/>
    </comp>
  </station>
  <station code="ORLT" name="ORLT" netid="KO" insttype="CMG-5T" commtype="DIG" lat="40.0452" lon="28.8914">
    <comp name="--.HNE">
      <acc value="0.0721052946" flag="0"/>
      <vel value="0.0277445278" flag="0"/>
      <psa03 value="0.1734718942" flag="0"/>
      <psa10 value="0.0270188920" flag="0"/>
      <psa30 value="0.0015322036" flag="0"/>
    </comp>
    <comp name="--.HNN">
      <acc value="0.0668502240" flag="0"/>
      <vel value="0.0364951610" flag="0"/>
      <psa03 value="0.2966950585" flag="0"/>
      <psa10 value="0.0393630564" flag="0"/>
      <psa30 value="0.0016802220" flag="0"/>
    </comp>
    <comp name="--.HNZ">
      <acc value="0.0242660847" flag="0"/>
      <vel value="0.0148764238" flag="0"/>
      <psa03 value="0.0604230627" flag="0"/>
      <psa10 value="0.0242986426" flag="0"/>
      <psa30 value="0.0009489685" flag="0"/>
    </comp>
  </station>
  <station code="SHAP" name="SHAP" netid="KO" insttype="CMG-5T" commtype="DIG" lat="39.0231" lon="29.222">
    <comp name="--.HNN">
      <acc value="0.1291866825" flag="0"/>
      <vel value="0.0473809263" flag="0"/>
      <psa03 value="0.2954665296" flag="0"/>
      <psa10 value="0.0166525231" flag="0"/>
      <psa30 value="0.0013085814" flag="0"/>
    </comp>
    <comp name="--.HNZ">
      <acc value="0.0737023182" flag="0"/>
      <vel value="0.0180183763" flag="0"/>
      <psa03 value="0.0887442519" flag="0"/>
      <psa10 value="0.0103297186" flag="0"/>
      <psa30 value="0.0004529060" flag="0"/>
    </comp>
    <comp name="--.HNE">
      <acc value="0.1586671389" flag="0"/>
      <vel value="0.0525466722" flag="0"/>
      <psa03 value="0.3864518379" flag="0"/>
      <psa10 value="0.0190732440" flag="0"/>
      <psa30 value="0.0014492061" flag="0"/>
    </comp>
  </station>
  <station code="SIMA" name="SIMA" netid="KO" insttype="CMG-6T" commtype="DIG" lat="39.0833" lon="28.9825">
    <comp name="--.HHE">
      <acc value="0.1447461890" flag="0"/>
      <vel value="0.0298672627" flag="0"/>
      <psa03 value="0.1827104725" flag="0"/>
      <psa10 value="0.0106029724" flag="0"/>
      <psa30 value="0.0008608672" flag="0"/>
    </comp>
    <comp name="--.HHN">
      <acc value="0.1156981410" flag="0"/>
      <vel value="0.0412618733" flag="0"/>
      <psa03 value="0.2832784922" flag="0"/>
      <psa10 value="0.0118134002" flag="0"/>
      <psa30 value="0.0012495290" flag="0"/>
    </comp>
    <comp name="--.HHZ">
      <acc value="0.1007326765" flag="0"/>
      <vel value="0.0175725196" flag="0"/>
      <psa03 value="0.0863367669" flag="0"/>
      <psa10 value="0.0065211774" flag="0"/>
      <psa30 value="0.0006281132" flag="0"/>
    </comp>
  </station>
  <station code="SMAA" name="SMAA" netid="KO" insttype="CMG-5T" commtype="DIG" lat="39.1005" lon="28.9805">
    <comp name="--.HNE">
      <acc value="0.1373806167" flag="0"/>
      <vel value="0.0736265638" flag="0"/>
      <psa03 value="0.3146374680" flag="0"/>
      <psa10 value="0.0384325441" flag="0"/>
      <psa30 value="0.0036712847" flag="0"/>
    </comp>
    <comp name="--.HNN">
      <acc value="0.1472274805" flag="0"/>
      <vel value="0.0500199331" flag="0"/>
      <psa03 value="0.3473612524" flag="0"/>
      <psa10 value="0.0551273350" flag="0"/>
      <psa30 value="0.0027007585" flag="0"/>
    </comp>
    <comp name="--.HNZ">
      <acc value="0.0541457566" flag="0"/>
      <vel value="0.0215290744" flag="0"/>
      <psa03 value="0.0795776825" flag="0"/>
      <psa10 value="0.0456806896" flag="0"/>
      <psa30 value="0.0019587421" flag="0"/>
    </comp>
  </station>
  <station code="SOMA" name="SOMA" netid="KO" insttype="CMG-5T" commtype="DIG" lat="39.1564" lon="27.5341">
    <comp name="--.HNE">
      <acc value="0.0829566305" flag="0"/>
      <vel value="0.0205282680" flag="0"/>
      <psa03 value="0.0697043532" flag="0"/>
      <psa10 value="0.0157668918" flag="0"/>
      <psa30 value="0.0009807719" flag="0"/>
    </comp>
    <comp name="--.HNN">
      <acc value="0.0633505077" flag="0"/>
      <vel value="0.0189173005" flag="0"/>
      <psa03 value="0.1120092738" flag="0"/>
      <psa10 value="0.0158583399" flag="0"/>
      <psa30 value="0.0009020539" flag="0"/>
    </comp>
    <comp name="--.HNZ">
      <acc value="0.0578356125" flag="0"/>
      <vel value="0.0150618976" flag="0"/>
      <psa03 value="0.0394971236" flag="0"/>
      <psa10 value="0.0099659949" flag="0"/>
      <psa30 value="0.0007617336" flag="0"/>
    </comp>
  </station>
  <station code="SUSR" name="SUSR" netid="KO" insttype="CMG-5T" commtype="DIG" lat="39.9627" lon="28.0835">
    <comp name="--.HNE">
      <acc value="0.0471494275" flag="0"/>
      <vel value="0.0105922913" flag="0"/>
      <psa03 value="0.0482884679" flag="0"/>
      <psa10 value="0.0055099694" flag="0"/>
      <psa30 value="0.0004571147" flag="0"/>
    </comp>
    <comp name="--.HNN">
      <acc value="0.0386917342" flag="0"/>
      <vel value="0.0080320282" flag="0"/>
      <psa03 value="0.0470650901" flag="0"/>
      <psa10 value="0.0036557884" flag="0"/>
      <psa30 value="0.0005651208" flag="0"/>
    </comp>
    <comp name="--.HNZ">
      <acc value="0.0360651690" flag="0"/>
      <vel value="0.0090011005" flag="0"/>
      <psa03 value="0.0383343387" flag="0"/>
      <psa10 value="0.0044454949" flag="0"/>
      <psa30 value="0.0006260858" flag="0"/>
    </comp>
  </station>
  <station code="TVSB" name="TVSB" netid="KO" insttype="CMG-3T" commtype="DIG" lat="39.4497" lon="29.4615">
    <comp name="--.HHE">
      <acc value="0.0539074491" flag="0"/>
      <vel value="0.0315077331" flag="0"/>
      <psa03 value="0.1711478970" flag="0"/>
      <psa10 value="0.0132747906" flag="0"/>
      <psa30 value="0.0009466652" flag="0"/>
    </comp>
    <comp name="--.HHN">
      <acc value="0.0502216169" flag="0"/>
      <vel value="0.0282180323" flag="0"/>
      <psa03 value="0.1445161240" flag="0"/>
      <psa10 value="0.0103483284" flag="0"/>
      <psa30 value="0.0008528448" flag="0"/>
    </comp>
    <comp name="--.HHZ">
      <acc value="0.0239454678" flag="0"/>
      <vel value="0.0134430106" flag="0"/>
      <psa03 value="0.0748541602" flag="0"/>
      <psa10 value="0.0070708749" flag="0"/>
      <psa30 value="0.0005601506" flag="0"/>
    </comp>
  </station>
  <station code="YAYO" name="YAYO" netid="KO" insttype="CMG-6T" commtype="DIG" lat="39.6113" lon="27.0726">
    <comp name="--.HHE">
      <acc value="0.0213197165" flag="0"/>
      <vel value="0.0150803659" flag="0"/>
      <psa03 value="0.0488056723" flag="0"/>
      <psa10 value="0.0088952738" flag="0"/>
      <psa30 value="0.0007574050" flag="0"/>
    </comp>
    <comp name="--.HHN">
      <acc value="0.0168006107" flag="0"/>
      <vel value="0.0096417245" flag="0"/>
      <psa03 value="0.0536491504" flag="0"/>
      <psa10 value="0.0087026403" flag="0"/>
      <psa30 value="0.0004939465" flag="0"/>
    </comp>
    <comp name="--.HHZ">
      <acc value="0.0156294644" flag="0"/>
      <vel value="0.0083206513" flag="0"/>
      <psa03 value="0.0429988909" flag="0"/>
      <psa10 value="0.0036134757" flag="0"/>
      <psa30 value="0.0003552681" flag="0"/>
    </comp>
  </station>
  <station code="YENI" name="YENI" netid="KO" insttype="CMG-5T" commtype="DIG" lat="39.9364" lon="27.2422">
    <comp name="--.HNE">
      <acc value="0.0475406284" flag="0"/>
      <vel value="0.0240419766" flag="0"/>
      <psa03 value="0.0428797897" flag="0"/>
      <psa10 value="0.0176693696" flag="0"/>
      <psa30 value="0.0012320277" flag="0"/>
    </comp>
    <comp name="--.HNN">
      <acc value="0.0341289695" flag="0"/>
      <vel value="0.0113466426" flag="0"/>
      <psa03 value="0.0381093760" flag="0"/>
      <psa10 value="0.0089025864" flag="0"/>
      <psa30 value="0.0005504264" flag="0"/>
    </comp>
    <comp name="--.HNZ">
      <acc value="0.0138480719" flag="0"/>
      <vel value="0.0048116155" flag="0"/>
      <psa03 value="0.0203845703" flag="0"/>
      <psa10 value="0.0047253978" flag="0"/>
      <psa30 value="0.0005412530" flag="0"/>
    </comp>
  </station>
</stationlist>
