<?xml version="1.0" encoding="UTF-8" standalone="yes"?>
<!DOCTYPE earthquake SYSTEM "stationlist.dtd">
<stationlist created="" xmlns="ch.ethz.sed.shakemap.usgs.xml">
  <station code="RP03B" name="RP03B" netid="5B" insttype="Compact" commtype="DIG" lat="37.2463" lon="21.832">
    <comp name="--.HHZ">
      <acc value="0.0083384873" flag="0"/>
      <vel value="0.0049148273" flag="0"/>
      <psa03 value="0.0280660759" flag="0"/>
      <psa10 value="0.0060545100" flag="0"/>
      <psa30 value="0.0003812374" flag="0"/>
    </comp>
    <comp name="--.HHE">
      <acc value="0.0115974284" flag="0"/>
      <vel value="0.0063425862" flag="0"/>
      <psa03 value="0.0378502135" flag="0"/>
      <psa10 value="0.0064549690" flag="0"/>
      <psa30 value="0.0006671676" flag="0"/>
    </comp>
    <comp name="--.HHN">
      <acc value="0.0087459058" flag="0"/>
      <vel value="0.0040568796" flag="0"/>
      <psa03 value="0.0161465354" flag="0"/>
      <psa10 value="0.0049972819" flag="0"/>
      <psa30 value="0.0004716577" flag="0"/>
    </comp>
  </station>
  <station code="RP05B" name="RP05B" netid="5B" insttype="Compact" commtype="DIG" lat="37.6182" lon="21.6541">
    <comp name="--.HHE">
      <acc value="0.3796786531" flag="0"/>
      <vel value="0.1445794603" flag="0"/>
      <psa03 value="0.7996325227" flag="0"/>
      <psa10 value="0.0582342242" flag="0"/>
      <psa30 value="0.0060206778" flag="0"/>
    </comp>
    <comp name="--.HHN">
      <acc value="0.4502105506" flag="0"/>
      <vel value="0.1628966216" flag="0"/>
      <psa03 value="1.0111420194" flag="0"/>
      <psa10 value="0.0654926793" flag="0"/>
      <psa30 value="0.0048583098" flag="0"/>
    </comp>
    <comp name="--.HHZ">
      <acc value="0.1560716337" flag="0"/>
      <vel value="0.0617210860" flag="0"/>
      <psa03 value="0.4069793045" flag="0"/>
      <psa10 value="0.0308220177" flag="0"/>
      <psa30 value="0.0017516375" flag="0"/>
    </comp>
  </station>
  <station code="RP08B" name="RP08B" netid="5B" insttype="Compact" commtype="DIG" lat="37.5664" lon="21.9493">
    <comp name="--.HHE">
      <acc value="0.0291754616" flag="0"/>
      <vel value="0.0132098599" flag="0"/>
      <psa03 value="0.1559290170" flag="0"/>
      <psa10 value="0.0098898306" flag="0"/>
      <psa30 value="0.0005364149" flag="0"/>
    </comp>
    <comp name="--.HHZ">
      <acc value="0.0173685834" flag="0"/>
      <vel value="0.0077788473" flag="0"/>
      <psa03 value="0.0916999451" flag="0"/>
      <psa10 value="0.0067734799" flag="0"/>
      <psa30 value="0.0004536518" flag="0"/>
    </comp>
    <comp name="--.HHN">
      <acc value="0.0202521984" flag="0"/>
      <vel value="0.0090841972" flag="0"/>
      <psa03 value="0.0814319689" flag="0"/>
      <psa10 value="0.0081750378" flag="0"/>
      <psa30 value="0.0006197793" flag="0"/>
    </comp>
  </station>
  <station code="MALA" name="MALA" netid="CL" insttype="TRILLIUM-40" commtype="DIG" lat="38.3934" lon="21.8726">
    <comp name="01.HHE">
      <acc value="0.0381718454" flag="0"/>
      <vel value="0.0232557854" flag="0"/>
      <psa03 value="0.1065241125" flag="0"/>
      <psa10 value="0.0197575534" flag="0"/>
      <psa30 value="0.0017035796" flag="0"/>
    </comp>
    <comp name="01.HHZ">
      <acc value="0.0128735372" flag="0"/>
      <vel value="0.0059472943" flag="0"/>
      <psa03 value="0.0303010289" flag="0"/>
      <psa10 value="0.0062176190" flag="0"/>
      <psa30 value="0.0003539612" flag="0"/>
    </comp>
    <comp name="01.HHN">
      <acc value="0.0395767243" flag="0"/>
      <vel value="0.0151345587" flag="0"/>
      <psa03 value="0.1260940852" flag="0"/>
      <psa10 value="0.0179658497" flag="0"/>
      <psa30 value="0.0012551530" flag="0"/>
    </comp>
  </station>
  <station code="MG06" name="MG06" netid="CL" insttype="TRILLIUM-40" commtype="DIG" lat="38.4129" lon="21.9462">
    <comp name="06.HHN">
      <acc value="0.0176034786" flag="0"/>
      <vel value="0.0067956665" flag="0"/>
      <psa03 value="0.0359723160" flag="0"/>
      <psa10 value="0.0050108212" flag="0"/>
      <psa30 value="0.0005094185" flag="0"/>
    </comp>
    <comp name="06.HHE">
      <acc value="0.0222506774" flag="0"/>
      <vel value="0.0064024803" flag="0"/>
      <psa03 value="0.0468186342" flag="0"/>
      <psa10 value="0.0037524086" flag="0"/>
      <psa30 value="0.0003346925" flag="0"/>
    </comp>
    <comp name="06.HHZ">
      <acc value="0.0147974787" flag="0"/>
      <vel value="0.0030242183" flag="0"/>
      <psa03 value="0.0194715678" flag="0"/>
      <psa10 value="0.0024312966" flag="0"/>
      <psa30 value="0.0002812054" flag="0"/>
    </comp>
  </station>
  <station code="PSAM" name="PSAM" netid="CL" insttype="CMG40-T" commtype="DIG" lat="38.3218" lon="22.1842">
    <comp name="00.HHE">
      <acc value="0.0152569788" flag="0"/>
      <vel value="0.0086252442" flag="0"/>
      <psa03 value="0.0285136055" flag="0"/>
      <psa10 value="0.0074171393" flag="0"/>
      <psa30 value="0.0004017606" flag="0"/>
    </comp>
    <comp name="00.HHZ">
      <acc value="0.0055425349" flag="0"/>
      <vel value="0.0022627182" flag="0"/>
      <psa03 value="0.0153534601" flag="0"/>
      <psa10 value="0.0023572920" flag="0"/>
      <psa30 value="0.0001799884" flag="0"/>
    </comp>
    <comp name="00.HHN">
      <acc value="0.0111251916" flag="0"/>
      <vel value="0.0067541564" flag="0"/>
      <psa03 value="0.0248413731" flag="0"/>
      <psa10 value="0.0077213330" flag="0"/>
      <psa30 value="0.0003908137" flag="0"/>
    </comp>
  </station>
  <station code="ROD3" name="ROD3" netid="CL" insttype="CMG40-T" commtype="DIG" lat="38.3081" lon="21.892">
    <comp name="00.HHE">
      <acc value="0.1137166418" flag="0"/>
      <vel value="0.0514368011" flag="0"/>
      <psa03 value="0.5182555993" flag="0"/>
      <psa10 value="0.0275522342" flag="0"/>
      <psa30 value="0.0017970684" flag="0"/>
    </comp>
    <comp name="00.HHN">
      <acc value="0.1411237098" flag="0"/>
      <vel value="0.0660331544" flag="0"/>
      <psa03 value="0.4581042361" flag="0"/>
      <psa10 value="0.0214257089" flag="0"/>
      <psa30 value="0.0014668896" flag="0"/>
    </comp>
    <comp name="00.HHZ">
      <acc value="0.0538141813" flag="0"/>
      <vel value="0.0185713432" flag="0"/>
      <psa03 value="0.1135284960" flag="0"/>
      <psa10 value="0.0118985325" flag="0"/>
      <psa30 value="0.0007914445" flag="0"/>
    </comp>
  </station>
  <station code="ZIRI" name="ZIRI" netid="CL" insttype="TRILLIUM-40" commtype="DIG" lat="38.3051" lon="21.9476">
    <comp name="01.HHE">
      <acc value="0.0612335246" flag="0"/>
      <vel value="0.0321638213" flag="0"/>
      <psa03 value="0.1720151755" flag="0"/>
      <psa10 value="0.0146896426" flag="0"/>
      <psa30 value="0.0012591224" flag="0"/>
    </comp>
    <comp name="01.HHN">
      <acc value="0.0492841105" flag="0"/>
      <vel value="0.0272847940" flag="0"/>
      <psa03 value="0.1400348918" flag="0"/>
      <psa10 value="0.0116471450" flag="0"/>
      <psa30 value="0.0008988172" flag="0"/>
    </comp>
    <comp name="01.HHZ">
      <acc value="0.0416268323" flag="0"/>
      <vel value="0.0158918194" flag="0"/>
      <psa03 value="0.1057025575" flag="0"/>
      <psa10 value="0.0052235225" flag="0"/>
      <psa30 value="0.0004297554" flag="0"/>
    </comp>
  </station>
  <station code="ATHR" name="ATHR" netid="HA" insttype="GEOtiny," commtype="DIG" lat="38.3172" lon="20.4165">
    <comp name="--.HHE">
      <acc value="0.0123430087" flag="0"/>
      <vel value="0.0066045527" flag="0"/>
      <psa03 value="0.0269020806" flag="0"/>
      <psa10 value="0.0075578893" flag="0"/>
      <psa30 value="0.0005035736" flag="0"/>
    </comp>
    <comp name="--.HHN">
      <acc value="0.0126244745" flag="0"/>
      <vel value="0.0063826404" flag="0"/>
      <psa03 value="0.0517556429" flag="0"/>
      <psa10 value="0.0071834105" flag="0"/>
      <psa30 value="0.0006192883" flag="0"/>
    </comp>
    <comp name="--.HHZ">
      <acc value="0.0099566599" flag="0"/>
      <vel value="0.0045508386" flag="0"/>
      <psa03 value="0.0224202832" flag="0"/>
      <psa10 value="0.0031296488" flag="0"/>
      <psa30 value="0.0002494903" flag="0"/>
    </comp>
  </station>
  <station code="HAVD" name="HAVD" netid="HA" insttype="GEOtiny," commtype="DIG" lat="38.2036" lon="20.3848">
    <comp name="--.HHN">
      <acc value="0.0302534249" flag="0"/>
      <vel value="0.0110179434" flag="0"/>
      <psa03 value="0.0885100516" flag="0"/>
      <psa10 value="0.0062308937" flag="0"/>
      <psa30 value="0.0005375721" flag="0"/>
    </comp>
    <comp name="--.HHZ">
      <acc value="0.0196408898" flag="0"/>
      <vel value="0.0061650892" flag="0"/>
      <psa03 value="0.0393108196" flag="0"/>
      <psa10 value="0.0027852603" flag="0"/>
      <psa30 value="0.0002601832" flag="0"/>
    </comp>
    <comp name="--.HHE">
      <acc value="0.0209082146" flag="0"/>
      <vel value="0.0104061773" flag="0"/>
      <psa03 value="0.0745795914" flag="0"/>
      <psa10 value="0.0074594655" flag="0"/>
      <psa30 value="0.0003476949" flag="0"/>
    </comp>
  </station>
  <station code="KALE" name="KALE" netid="HA" insttype="40," commtype="DIG" lat="38.3911" lon="22.1398">
    <comp name="--.HHN">
      <acc value="0.0155687095" flag="0"/>
      <vel value="0.0070430754" flag="0"/>
      <psa03 value="0.0485774333" flag="0"/>
      <psa10 value="0.0053678921" flag="0"/>
      <psa30 value="0.0003468051" flag="0"/>
    </comp>
    <comp name="--.HHE">
      <acc value="0.0155429504" flag="0"/>
      <vel value="0.0067961193" flag="0"/>
      <psa03 value="0.0340067667" flag="0"/>
      <psa10 value="0.0050220335" flag="0"/>
      <psa30 value="0.0003732625" flag="0"/>
    </comp>
    <comp name="--.HHZ">
      <acc value="0.0087124963" flag="0"/>
      <vel value="0.0049060950" flag="0"/>
      <psa03 value="0.0318020515" flag="0"/>
      <psa10 value="0.0024083457" flag="0"/>
      <psa30 value="0.0002450660" flag="0"/>
    </comp>
  </station>
  <station code="LAKA" name="LAKA" netid="HA" insttype="120s," commtype="DIG" lat="38.2401" lon="21.9785">
    <comp name="--.HHE">
      <acc value="0.0127173018" flag="0"/>
      <vel value="0.0060292921" flag="0"/>
      <psa03 value="0.0331839497" flag="0"/>
      <psa10 value="0.0072205174" flag="0"/>
      <psa30 value="0.0008039341" flag="0"/>
    </comp>
    <comp name="--.HHN">
      <acc value="0.0111263612" flag="0"/>
      <vel value="0.0090592918" flag="0"/>
      <psa03 value="0.0328114069" flag="0"/>
      <psa10 value="0.0113728696" flag="0"/>
      <psa30 value="0.0006535198" flag="0"/>
    </comp>
    <comp name="--.HHZ">
      <acc value="0.0120751790" flag="0"/>
      <vel value="0.0054797978" flag="0"/>
      <psa03 value="0.0318116649" flag="0"/>
      <psa10 value="0.0036918837" flag="0"/>
      <psa30 value="0.0003818531" flag="0"/>
    </comp>
  </station>
  <station code="AGR3" name="AGR3" netid="HI" insttype="unknown" commtype="DIG" lat="38.5893" lon="21.4162">
    <comp name="--.HNZ">
      <acc value="0.0210500141" flag="0"/>
      <vel value="0.0087912895" flag="0"/>
      <psa03 value="0.0467261025" flag="0"/>
      <psa10 value="0.0104377856" flag="0"/>
      <psa30 value="0.0005513315" flag="0"/>
    </comp>
    <comp name="--.HNE">
      <acc value="0.0326861740" flag="0"/>
      <vel value="0.0150928127" flag="0"/>
      <psa03 value="0.0767072035" flag="0"/>
      <psa10 value="0.0158212736" flag="0"/>
      <psa30 value="0.0013754598" flag="0"/>
    </comp>
    <comp name="--.HNN">
      <acc value="0.0355342088" flag="0"/>
      <vel value="0.0173688151" flag="0"/>
      <psa03 value="0.1275482211" flag="0"/>
      <psa10 value="0.0357064410" flag="0"/>
      <psa30 value="0.0011342351" flag="0"/>
    </comp>
  </station>
  <station code="AKR1" name="AKR1" netid="HI" insttype="unknown" commtype="DIG" lat="38.1536" lon="22.3133">
    <comp name="--.HNN">
      <acc value="0.0228140629" flag="0"/>
      <vel value="0.0087446047" flag="0"/>
      <psa03 value="0.0625358647" flag="0"/>
      <psa10 value="0.0070461697" flag="0"/>
      <psa30 value="0.0003749310" flag="0"/>
    </comp>
    <comp name="--.HNZ">
      <acc value="0.0120827875" flag="0"/>
      <vel value="0.0059552075" flag="0"/>
      <psa03 value="0.0386664986" flag="0"/>
      <psa10 value="0.0047352738" flag="0"/>
      <psa30 value="0.0002508935" flag="0"/>
    </comp>
    <comp name="--.HNE">
      <acc value="0.0227330393" flag="0"/>
      <vel value="0.0119531391" flag="0"/>
      <psa03 value="0.0878302821" flag="0"/>
      <psa10 value="0.0080754797" flag="0"/>
      <psa30 value="0.0005835694" flag="0"/>
    </comp>
  </station>
  <station code="AST1" name="AST1" netid="HI" insttype="unknown" commtype="DIG" lat="38.5416" lon="21.0895">
    <comp name="--.HNE">
      <acc value="0.0745100505" flag="0"/>
      <vel value="0.0208750783" flag="0"/>
      <psa03 value="0.0863442084" flag="0"/>
      <psa10 value="0.0045981283" flag="0"/>
      <psa30 value="0.0003081771" flag="0"/>
    </comp>
    <comp name="--.HNN">
      <acc value="0.0816301799" flag="0"/>
      <vel value="0.0141589487" flag="0"/>
      <psa03 value="0.0597838214" flag="0"/>
      <psa10 value="0.0064742628" flag="0"/>
      <psa30 value="0.0003356935" flag="0"/>
    </comp>
    <comp name="--.HNZ">
      <acc value="0.0348299919" flag="0"/>
      <vel value="0.0087547503" flag="0"/>
      <psa03 value="0.0579991026" flag="0"/>
      <psa10 value="0.0039291939" flag="0"/>
      <psa30 value="0.0003077110" flag="0"/>
    </comp>
  </station>
  <station code="KAC1" name="KAC1" netid="HI" insttype="unknown" commtype="DIG" lat="38.1434" lon="21.5497">
    <comp name="--.HNN">
      <acc value="0.1604124440" flag="0"/>
      <vel value="0.0718995886" flag="0"/>
      <psa03 value="0.7302295061" flag="0"/>
      <psa10 value="0.0424579602" flag="0"/>
      <psa30 value="0.0025603439" flag="0"/>
    </comp>
    <comp name="--.HNE">
      <acc value="0.1566814789" flag="0"/>
      <vel value="0.0723295238" flag="0"/>
      <psa03 value="0.6158700636" flag="0"/>
      <psa10 value="0.0318590612" flag="0"/>
      <psa30 value="0.0027571863" flag="0"/>
    </comp>
    <comp name="--.HNZ">
      <acc value="0.0543018746" flag="0"/>
      <vel value="0.0224318269" flag="0"/>
      <psa03 value="0.1239119675" flag="0"/>
      <psa10 value="0.0172190148" flag="0"/>
      <psa30 value="0.0010972643" flag="0"/>
    </comp>
  </station>
  <station code="KLV1" name="KLV1" netid="HI" insttype="CMG-5TD,ACCELEROMETER,GURALP" commtype="DIG" lat="38.0326" lon="22.108">
    <comp name="--.HNE">
      <acc value="0.0359325731" flag="0"/>
      <vel value="0.0158756988" flag="0"/>
      <psa03 value="0.0952532514" flag="0"/>
      <psa10 value="0.0087116730" flag="0"/>
      <psa30 value="0.0004920902" flag="0"/>
    </comp>
    <comp name="--.HNN">
      <acc value="0.0301086666" flag="0"/>
      <vel value="0.0131692529" flag="0"/>
      <psa03 value="0.0924279067" flag="0"/>
      <psa10 value="0.0088175460" flag="0"/>
      <psa30 value="0.0004895697" flag="0"/>
    </comp>
    <comp name="--.HNZ">
      <acc value="0.0174870118" flag="0"/>
      <vel value="0.0049608174" flag="0"/>
      <psa03 value="0.0309000346" flag="0"/>
      <psa10 value="0.0045054914" flag="0"/>
      <psa30 value="0.0002427117" flag="0"/>
    </comp>
  </station>
  <station code="KRI1" name="KRI1" netid="HI" insttype="CMG-5TD,ACCELEROMETER,GURALP" commtype="DIG" lat="37.6621" lon="20.8172">
    <comp name="--.HNN">
      <acc value="0.2030179789" flag="0"/>
      <vel value="0.0810886701" flag="0"/>
      <psa03 value="0.4489852140" flag="0"/>
      <psa10 value="0.0371395066" flag="0"/>
      <psa30 value="0.0026942180" flag="0"/>
    </comp>
    <comp name="--.HNZ">
      <acc value="0.1424231351" flag="0"/>
      <vel value="0.0449924916" flag="0"/>
      <psa03 value="0.3328908961" flag="0"/>
      <psa10 value="0.0126719711" flag="0"/>
      <psa30 value="0.0013424392" flag="0"/>
    </comp>
    <comp name="--.HNE">
      <acc value="0.4289018007" flag="0"/>
      <vel value="0.1449023865" flag="0"/>
      <psa03 value="1.0393407808" flag="0"/>
      <psa10 value="0.0298420110" flag="0"/>
      <psa30 value="0.0034647293" flag="0"/>
    </comp>
  </station>
  <station code="MSL1" name="MSL1" netid="HI" insttype="CMG-5TD,ACCELEROMETER,GURALP" commtype="DIG" lat="38.3727" lon="21.4243">
    <comp name="--.HNN">
      <acc value="0.0792613913" flag="0"/>
      <vel value="0.0487160954" flag="0"/>
      <psa03 value="0.2234959045" flag="0"/>
      <psa10 value="0.0346558355" flag="0"/>
      <psa30 value="0.0020761675" flag="0"/>
    </comp>
    <comp name="--.HNE">
      <acc value="0.0324484894" flag="0"/>
      <vel value="0.0207910907" flag="0"/>
      <psa03 value="0.1160692682" flag="0"/>
      <psa10 value="0.0219152985" flag="0"/>
      <psa30 value="0.0021865570" flag="0"/>
    </comp>
    <comp name="--.HNZ">
      <acc value="0.0284683622" flag="0"/>
      <vel value="0.0101298227" flag="0"/>
      <psa03 value="0.0775716980" flag="0"/>
      <psa10 value="0.0090714728" flag="0"/>
      <psa30 value="0.0005748915" flag="0"/>
    </comp>
  </station>
  <station code="PYR2" name="PYR2" netid="HI" insttype="unknown" commtype="DIG" lat="37.6671" lon="21.4506">
    <comp name="--.HNE">
      <acc value="0.2511678306" flag="0"/>
      <vel value="0.0951427795" flag="0"/>
      <psa03 value="0.7041483174" flag="0"/>
      <psa10 value="0.0509808306" flag="0"/>
      <psa30 value="0.0048703041" flag="0"/>
    </comp>
    <comp name="--.HNN">
      <acc value="0.2609431907" flag="0"/>
      <vel value="0.0927462353" flag="0"/>
      <psa03 value="0.8252298597" flag="0"/>
      <psa10 value="0.0530553238" flag="0"/>
      <psa30 value="0.0032199717" flag="0"/>
    </comp>
    <comp name="--.HNZ">
      <acc value="0.1477300440" flag="0"/>
      <vel value="0.0580523141" flag="0"/>
      <psa03 value="0.2862041394" flag="0"/>
      <psa10 value="0.0327057905" flag="0"/>
      <psa30 value="0.0030754683" flag="0"/>
    </comp>
  </station>
  <station code="ZAK2" name="ZAK2" netid="HI" insttype="unknown" commtype="DIG" lat="37.7875" lon="20.9">
    <comp name="--.HNN">
      <acc value="0.3387923622" flag="0"/>
      <vel value="0.1232036185" flag="0"/>
      <psa03 value="0.8347095399" flag="0"/>
      <psa10 value="0.0511971342" flag="0"/>
      <psa30 value="0.0040107444" flag="0"/>
    </comp>
    <comp name="--.HNE">
      <acc value="0.3412435540" flag="0"/>
      <vel value="0.1055820669" flag="0"/>
      <psa03 value="0.8195174736" flag="0"/>
      <psa10 value="0.0662050376" flag="0"/>
      <psa30 value="0.0039776708" flag="0"/>
    </comp>
    <comp name="--.HNZ">
      <acc value="0.2825170487" flag="0"/>
      <vel value="0.0504805847" flag="0"/>
      <psa03 value="0.2806603099" flag="0"/>
      <psa10 value="0.0305744849" flag="0"/>
      <psa30 value="0.0020311275" flag="0"/>
    </comp>
  </station>
  <station code="ITM" name="ITM" netid="HL" insttype="DR24" commtype="DIG" lat="37.1787" lon="21.9252">
    <comp name="--.HHZ">
      <acc value="0.0101237509" flag="0"/>
      <vel value="0.0059890440" flag="0"/>
      <psa03 value="0.0348246588" flag="0"/>
      <psa10 value="0.0055289025" flag="0"/>
      <psa30 value="0.0007408439" flag="0"/>
    </comp>
    <comp name="--.HHE">
      <acc value="0.0117442497" flag="0"/>
      <vel value="0.0059433167" flag="0"/>
      <psa03 value="0.0343492776" flag="0"/>
      <psa10 value="0.0065066940" flag="0"/>
      <psa30 value="0.0006983554" flag="0"/>
    </comp>
    <comp name="--.HHN">
      <acc value="0.0123658681" flag="0"/>
      <vel value="0.0077405261" flag="0"/>
      <psa03 value="0.0424236978" flag="0"/>
      <psa10 value="0.0080805186" flag="0"/>
      <psa30 value="0.0006579120" flag="0"/>
    </comp>
  </station>
