<stationlist created="1778069697">
	<station code="KRL1" name="KRL1" netid="HI" source="ITSAK Strong Motion Network" insttype="" lat="37.7951" lon="26.7065">
		<comp name="--.HNE" depth="0.0">
			<acc value="0.384666951080554" flag="0"/>
			<vel value="0.166895137490429" flag="0"/>
			<psa03 value="0.720841690826976" flag="0"/>
			<psa10 value="0.186549498540421" flag="0"/>
			<psa30 value="0.0286350122356939" flag="0"/>
		</comp>
		<comp name="--.HNN" depth="0.0">
			<acc value="0.302996528564879" flag="0"/>
			<vel value="0.138950650436394" flag="0"/>
			<psa03 value="0.872562513469536" flag="0"/>
			<psa10 value="0.14386543342659" flag="0"/>
			<psa30 value="0.0189800914695371" flag="0"/>
		</comp>
		<comp name="--.HNZ" depth="0.0">
			<acc value="0.151616537025171" flag="0"/>
			<vel value="0.0737523010514184" flag="0"/>
			<psa03 value="0.359056208111631" flag="0"/>
			<psa10 value="0.0653227268185444" flag="0"/>
			<psa30 value="0.0191970911716357" flag="0"/>
		</comp>
	</station>
	<station code="KSS1" name="KSS1" netid="HI" source="ITSAK Strong Motion Network" insttype="" lat="35.4189" lon="26.9207">
		<comp name="--.HNE" depth="0.0">
			<acc value="0.0923459796053206" flag="0"/>
			<vel value="0.0365964849843507" flag="0"/>
			<psa03 value="0.208006518568345" flag="0"/>
			<psa10 value="0.032572773840168" flag="0"/>
			<psa30 value="0.00471806568789676" flag="0"/>
		</comp>
		<comp name="--.HNN" depth="0.0">
			<acc value="0.10739933889609" flag="0"/>
			<vel value="0.0555157753267538" flag="0"/>
			<psa03 value="0.270914061073635" flag="0"/>
			<psa10 value="0.0305915889311109" flag="0"/>
			<psa30 value="0.0056827076625867" flag="0"/>
		</comp>
		<comp name="--.HNZ" depth="0.0">
			<acc value="0.134041344280749" flag="0"/>
			<vel value="0.0239229947235524" flag="0"/>
			<psa03 value="0.0779856661356477" flag="0"/>
			<psa10 value="0.0356854891546012" flag="0"/>
			<psa30 value="0.00461829056713801" flag="0"/>
		</comp>
	</station>
	<station code="RDI1" name="RDI1" netid="HI" source="ITSAK Strong Motion Network" insttype="" lat="36.4514" lon="28.224">
		<comp name="--.HNE" depth="0.0">
			<acc value="3.34508834124382" flag="0"/>
			<vel value="3.54535326385069" flag="0"/>
			<psa03 value="6.21791393815446" flag="0"/>
			<psa10 value="4.55523537535088" flag="0"/>
			<psa30 value="0.318676366638641" flag="0"/>
		</comp>
		<comp name="--.HNN" depth="0.0">
			<acc value="4.53225525312443" flag="0"/>
			<vel value="4.42748265304664" flag="0"/>
			<psa03 value="9.2593101752381" flag="0"/>
			<psa10 value="4.58865780369473" flag="0"/>
			<psa30 value="0.346692594156804" flag="0"/>
		</comp>
		<comp name="--.HNZ" depth="0.0">
			<acc value="2.06207297267842" flag="0"/>
			<vel value="1.29829202230967" flag="0"/>
			<psa03 value="3.47620100100001" flag="0"/>
			<psa10 value="1.67847837822669" flag="0"/>
			<psa30 value="0.117459030502552" flag="0"/>
		</comp>
	</station>
	<station code="SIT2" name="SIT2" netid="HI" source="ITSAK Strong Motion Network" insttype="" lat="35.2059" lon="26.107">
		<comp name="--.HNE" depth="0.0">
			<acc value="0.148932560715497" flag="0"/>
			<vel value="0.0930482816154017" flag="0"/>
			<psa03 value="0.440576508570122" flag="0"/>
			<psa10 value="0.0807332850440757" flag="0"/>
			<psa30 value="0.00710282530065064" flag="0"/>
		</comp>
		<comp name="--.HNN" depth="0.0">
			<acc value="0.233455896175454" flag="0"/>
			<vel value="0.143912961011426" flag="0"/>
			<psa03 value="0.690416990326552" flag="0"/>
			<psa10 value="0.110583943033588" flag="0"/>
			<psa30 value="0.0132691962167809" flag="0"/>
		</comp>
		<comp name="--.HNZ" depth="0.0">
			<acc value="0.0983708214195974" flag="0"/>
			<vel value="0.0432770546804723" flag="0"/>
			<psa03 value="0.300354433028458" flag="0"/>
			<psa10 value="0.0280184646284941" flag="0"/>
			<psa30 value="0.00508316209390185" flag="0"/>
		</comp>
	</station>
	<station code="KLNA" name="KLNA" netid="HL" source="National Observatory of Athens Seismic Network" insttype="" lat="36.95708" lon="26.97274">
		<comp name="00.HNE" depth="0.0">
			<acc value="0.469107072713099" flag="0"/>
			<vel value="0.159869882187834" flag="0"/>
			<psa03 value="0.744062896061859" flag="0"/>
			<psa10 value="0.069494490163632" flag="0"/>
			<psa30 value="0.0129859780488872" flag="0"/>
		</comp>
		<comp name="00.HNN" depth="0.0">
			<acc value="0.385964436638063" flag="0"/>
			<vel value="0.205489787316099" flag="0"/>
			<psa03 value="0.612297097571049" flag="0"/>
			<psa10 value="0.159867931045681" flag="0"/>
			<psa30 value="0.0197773975914747" flag="0"/>
		</comp>
		<comp name="00.HNZ" depth="0.0">
			<acc value="0.399332439766311" flag="0"/>
			<vel value="0.128562573060971" flag="0"/>
			<psa03 value="0.380174529635455" flag="0"/>
			<psa10 value="0.0733521632182594" flag="0"/>
			<psa30 value="0.0061744245133215" flag="0"/>
		</comp>
	</station>
	<station code="RODB" name="RODB" netid="HL" source="National Observatory of Athens Seismic Network" insttype="" lat="36.4471" lon="28.22116">
		<comp name="00.HNE" depth="0.0">
			<acc value="5.27833892393027" flag="0"/>
			<vel value="3.75521772956237" flag="0"/>
			<psa03 value="9.45604165773864" flag="0"/>
			<psa10 value="4.09243541275346" flag="0"/>
			<psa30 value="0.27657708216531" flag="0"/>
		</comp>
		<comp name="00.HNN" depth="0.0">
			<acc value="2.16410882739989" flag="0"/>
			<vel value="3.07024906324457" flag="0"/>
			<psa03 value="4.35739876034687" flag="0"/>
			<psa10 value="3.83562230551764" flag="0"/>
			<psa30 value="0.324165787968636" flag="0"/>
		</comp>
		<comp name="00.HNZ" depth="0.0">
			<acc value="1.40730079949486" flag="0"/>
			<vel value="0.771837876875007" flag="0"/>
			<psa03 value="2.64932028048773" flag="0"/>
			<psa10 value="1.01152778042729" flag="0"/>
			<psa30 value="0.0941273120173216" flag="0"/>
		</comp>
	</station>
	<station code="ALT" name="ALT" netid="KO" source="Bogazici University Kandilli Observatory And Earthquake Research Institute (KOERI)" insttype="" lat="39.0541" lon="30.1104">
		<comp name="--.HNE" depth="0.0">
			<acc value="0.0159010872585007" flag="0"/>
			<vel value="0.0396786762247026" flag="0"/>
			<psa03 value="0.0399547905101167" flag="0"/>
			<psa10 value="0.0179877093267438" flag="0"/>
			<psa30 value="0.0188865802577049" flag="0"/>
		</comp>
		<comp name="--.HNN" depth="0.0">
			<acc value="0.0193803701645857" flag="0"/>
			<vel value="0.0222288017218908" flag="0"/>
			<psa03 value="0.0538248745617809" flag="0"/>
			<psa10 value="0.0196346699523624" flag="0"/>
			<psa30 value="0.0102419385169886" flag="0"/>
		</comp>
		<comp name="--.HNZ" depth="0.0">
			<acc value="0.0219651068145267" flag="0"/>
			<vel value="0.0222468682830449" flag="0"/>
			<psa03 value="0.0248766668797591" flag="0"/>
			<psa10 value="0.018007843319722" flag="0"/>
			<psa30 value="0.0125560054432856" flag="0"/>
		</comp>
	</station>
	<station code="BASM" name="BASM" netid="KO" source="Bogazici University Kandilli Observatory And Earthquake Research Institute (KOERI)" insttype="" lat="37.9194" lon="30.035">
		<comp name="--.HNE" depth="0.0">
			<acc value="0.163298542158977" flag="0"/>
			<vel value="0.208477133195266" flag="0"/>
			<psa03 value="0.354850440689513" flag="0"/>
			<psa10 value="0.230465764024519" flag="0"/>
			<psa30 value="0.0857931811905361" flag="0"/>
		</comp>
		<comp name="--.HNN" depth="0.0">
			<acc value="0.163565924100434" flag="0"/>
			<vel value="0.161282240121446" flag="0"/>
			<psa03 value="0.587733626137618" flag="0"/>
			<psa10 value="0.221059162505094" flag="0"/>
			<psa30 value="0.0567778601985869" flag="0"/>
		</comp>
		<comp name="--.HNZ" depth="0.0">
			<acc value="0.139276930301082" flag="0"/>
			<vel value="0.0810157146484997" flag="0"/>
			<psa03 value="0.250511614855704" flag="0"/>
			<psa10 value="0.0725347231033436" flag="0"/>
			<psa30 value="0.0278878173851688" flag="0"/>
		</comp>
	</station>
	<station code="CAME" name="CAME" netid="KO" source="Bogazici University Kandilli Observatory And Earthquake Research Institute (KOERI)" insttype="" lat="36.9435" lon="29.3023">
		<comp name="--.HNE" depth="0.0">
			<acc value="1.57434352160874" flag="0"/>
			<vel value="0.69042264575177" flag="0"/>
			<psa03 value="3.83172257478879" flag="0"/>
			<psa10 value="0.452499411789759" flag="0"/>
			<psa30 value="0.202301887224516" flag="0"/>
		</comp>
		<comp name="--.HNN" depth="0.0">
			<acc value="1.57564151561998" flag="0"/>
			<vel value="0.95959247542824" flag="0"/>
			<psa03 value="3.2986639251387" flag="0"/>
			<psa10 value="0.314058076071503" flag="0"/>
			<psa30 value="0.274793657809506" flag="0"/>
		</comp>
		<comp name="--.HNZ" depth="0.0">
			<acc value="1.06564341852202" flag="0"/>
			<vel value="0.380858046454327" flag="0"/>
			<psa03 value="1.65089793980099" flag="0"/>
			<psa10 value="0.451951767180751" flag="0"/>
			<psa30 value="0.0999259019950496" flag="0"/>
		</comp>
	</station>
	<station code="DATC" name="DATC" netid="KO" source="Bogazici University Kandilli Observatory And Earthquake Research Institute (KOERI)" insttype="" lat="36.7584" lon="27.6602">
		<comp name="--.HNE" depth="0.0">
			<acc value="7.09180514415389" flag="0"/>
			<vel value="5.84445487947345" flag="0"/>
			<psa03 value="13.8922314439403" flag="0"/>
			<psa10 value="5.82428095276823" flag="0"/>
			<psa30 value="0.575340034904356" flag="0"/>
		</comp>
		<comp name="--.HNN" depth="0.0">
			<acc value="8.57896056868161" flag="0"/>
			<vel value="3.62458300408788" flag="0"/>
			<psa03 value="14.853383526514" flag="0"/>
			<psa10 value="2.93168252996878" flag="0"/>
			<psa30 value="0.265647008510532" flag="0"/>
		</comp>
		<comp name="--.HNZ" depth="0.0">
			<acc value="7.21733621628381" flag="0"/>
			<vel value="2.52643304518367" flag="0"/>
			<psa03 value="9.14110126535263" flag="0"/>
			<psa10 value="2.09718086940321" flag="0"/>
			<psa30 value="0.163803008117758" flag="0"/>
		</comp>
	</station>
	<station code="DEMR" name="DEMR" netid="KO" source="Bogazici University Kandilli Observatory And Earthquake Research Institute (KOERI)" insttype="" lat="36.2365" lon="29.9056">
		<comp name="--.HNE" depth="0.0">
			<acc value="0.40461173687833" flag="0"/>
			<vel value="0.219552765484073" flag="0"/>
			<psa03 value="1.70678095586721" flag="0"/>
			<psa10 value="0.227135601585921" flag="0"/>
			<psa30 value="0.0664797602816929" flag="0"/>
		</comp>
		<comp name="--.HNN" depth="0.0">
			<acc value="0.531913622236476" flag="0"/>
			<vel value="0.482830768869782" flag="0"/>
			<psa03 value="1.7579212980319" flag="0"/>
			<psa10 value="0.416548153927845" flag="0"/>
			<psa30 value="0.0656247367132177" flag="0"/>
		</comp>
		<comp name="--.HNZ" depth="0.0">
			<acc value="0.32756317821842" flag="0"/>
			<vel value="0.141426455943022" flag="0"/>
			<psa03 value="0.751400617947256" flag="0"/>
			<psa10 value="0.13874334561293" flag="0"/>
			<psa30 value="0.0937058404309774" flag="0"/>
		</comp>
	</station>
	<station code="DIDI" name="DIDI" netid="KO" source="Bogazici University Kandilli Observatory And Earthquake Research Institute (KOERI)" insttype="" lat="37.3767" lon="27.2398">
		<comp name="--.HNE" depth="0.0">
			<acc value="2.73560199173632" flag="0"/>
			<vel value="1.40343305312983" flag="0"/>
			<psa03 value="13.2110313481771" flag="0"/>
			<psa10 value="0.998493033373191" flag="0"/>
			<psa30 value="0.255954951712882" flag="0"/>
		</comp>
		<comp name="--.HNN" depth="0.0">
			<acc value="2.14514564597421" flag="0"/>
			<vel value="1.27069010240423" flag="0"/>
			<psa03 value="8.83260375071965" flag="0"/>
			<psa10 value="1.08972418235611" flag="0"/>
			<psa30 value="0.47470586377854" flag="0"/>
		</comp>
		<comp name="--.HNZ" depth="0.0">
			<acc value="3.03998489296211" flag="0"/>
			<vel value="1.07618887225794" flag="0"/>
			<psa03 value="6.14927939320203" flag="0"/>
			<psa10 value="1.41459018585832" flag="0"/>
			<psa30 value="0.160955614088571" flag="0"/>
		</comp>
	</station>
	<station code="FETI" name="FETI" netid="KO" source="Bogazici University Kandilli Observatory And Earthquake Research Institute (KOERI)" insttype="" lat="36.6903" lon="29.096">
		<comp name="--.HNE" depth="0.0">
			<acc value="3.5463282692577" flag="0"/>
			<vel value="1.70900919256655" flag="0"/>
			<psa03 value="2.56073071138355" flag="0"/>
			<psa10 value="1.37646445675476" flag="0"/>
			<psa30 value="0.266119486212421" flag="0"/>
		</comp>
		<comp name="--.HNN" depth="0.0">
			<acc value="3.26786012624312" flag="0"/>
			<vel value="0.863170865298807" flag="0"/>
			<psa03 value="3.04036716633142" flag="0"/>
			<psa10 value="0.5942829903424" flag="0"/>
			<psa30 value="0.17907039128211" flag="0"/>
		</comp>
		<comp name="--.HNZ" depth="0.0">
			<acc value="2.35941471795946" flag="0"/>
			<vel value="0.908736477586843" flag="0"/>
			<psa03 value="2.81146603727234" flag="0"/>
			<psa10 value="0.610249246774131" flag="0"/>
			<psa30 value="0.197532815421074" flag="0"/>
		</comp>
	</station>
	<station code="FOCM" name="FOCM" netid="KO" source="Bogazici University Kandilli Observatory And Earthquake Research Institute (KOERI)" insttype="" lat="38.7131" lon="26.7309">
		<comp name="--.HNE" depth="0.0">
			<acc value="0.363843649538178" flag="0"/>
			<vel value="0.20547217292728" flag="0"/>
			<psa03 value="0.942584066827131" flag="0"/>
			<psa10 value="0.168650378782781" flag="0"/>
			<psa30 value="0.0303871170468654" flag="0"/>
		</comp>
		<comp name="--.HNN" depth="0.0">
			<acc value="0.296219481938175" flag="0"/>
			<vel value="0.16271215410399" flag="0"/>
			<psa03 value="0.777753777645418" flag="0"/>
			<psa10 value="0.135763514652153" flag="0"/>
			<psa30 value="0.0269858144997444" flag="0"/>
		</comp>
		<comp name="--.HNZ" depth="0.0">
			<acc value="0.20410271897295" flag="0"/>
			<vel value="0.0984887265162173" flag="0"/>
			<psa03 value="0.485095004155302" flag="0"/>
			<psa10 value="0.0861412755580262" flag="0"/>
			<psa30 value="0.0345544061712913" flag="0"/>
		</comp>
	</station>
	<station code="GOMA" name="GOMA" netid="KO" source="Bogazici University Kandilli Observatory And Earthquake Research Institute (KOERI)" insttype="" lat="38.7077" lon="27.9175">
		<comp name="--.HNE" depth="0.0">
			<acc value="0.243034512301177" flag="0"/>
			<vel value="0.153281613862173" flag="0"/>
			<psa03 value="0.796053340152291" flag="0"/>
			<psa10 value="0.136395722031669" flag="0"/>
			<psa30 value="0.0258721809770156" flag="0"/>
		</comp>
		<comp name="--.HNN" depth="0.0">
			<acc value="0.206389202440294" flag="0"/>
			<vel value="0.122931823840125" flag="0"/>
			<psa03 value="0.407959439945402" flag="0"/>
			<psa10 value="0.106081982203658" flag="0"/>
			<psa30 value="0.0312976209515473" flag="0"/>
		</comp>
		<comp name="--.HNZ" depth="0.0">
			<acc value="0.113672556623879" flag="0"/>
			<vel value="0.0852343485856156" flag="0"/>
			<psa03 value="0.283397136720133" flag="0"/>
			<psa10 value="0.0588677686697263" flag="0"/>
			<psa30 value="0.0262923102971612" flag="0"/>
		</comp>
	</station>
	<station code="GORD" name="GORD" netid="KO" source="Bogazici University Kandilli Observatory And Earthquake Research Institute (KOERI)" insttype="" lat="38.9088" lon="28.1769">
		<comp name="--.HNE" depth="0.0">
			<acc value="0.0702914074447236" flag="0"/>
			<vel value="0.0911844176489596" flag="0"/>
			<psa03 value="0.171944300034018" flag="0"/>
			<psa10 value="0.123739494045559" flag="0"/>
			<psa30 value="0.051990891512498" flag="0"/>
		</comp>
		<comp name="--.HNN" depth="0.0">
			<acc value="0.0821512262039795" flag="0"/>
			<vel value="0.0866450712215288" flag="0"/>
			<psa03 value="0.187290876904086" flag="0"/>
			<psa10 value="0.120421412002748" flag="0"/>
			<psa30 value="0.0494347692483961" flag="0"/>
		</comp>
		<comp name="--.HNZ" depth="0.0">
			<acc value="0.0794313371580551" flag="0"/>
			<vel value="0.072084563059697" flag="0"/>
			<psa03 value="0.152615666774925" flag="0"/>
			<psa10 value="0.0814460283955048" flag="0"/>
			<psa30 value="0.0268175838028597" flag="0"/>
		</comp>
	</station>
	<station code="KEMT" name="KEMT" netid="KO" source="Bogazici University Kandilli Observatory And Earthquake Research Institute (KOERI)" insttype="" lat="36.6037" lon="30.5558">
		<comp name="--.HNE" depth="0.0">
			<acc value="1.00263944602049" flag="0"/>
			<vel value="0.506933316776489" flag="0"/>
			<psa03 value="2.63656875160152" flag="0"/>
			<psa10 value="0.179961656037946" flag="0"/>
			<psa30 value="0.0357494705100653" flag="0"/>
		</comp>
		<comp name="--.HNN" depth="0.0">
			<acc value="0.715673650019396" flag="0"/>
			<vel value="0.351782163761313" flag="0"/>
			<psa03 value="1.8147439004371" flag="0"/>
			<psa10 value="0.172745632954552" flag="0"/>
			<psa30 value="0.0381346775448854" flag="0"/>
		</comp>
		<comp name="--.HNZ" depth="0.0">
			<acc value="0.379615907372252" flag="0"/>
			<vel value="0.133724960173469" flag="0"/>
			<psa03 value="0.542096575386981" flag="0"/>
			<psa10 value="0.0958337797777424" flag="0"/>
			<psa30 value="0.0449976846180621" flag="0"/>
		</comp>
	</station>
	<station code="KUSD" name="KUSD" netid="KO" source="Bogazici University Kandilli Observatory And Earthquake Research Institute (KOERI)" insttype="" lat="37.8606" lon="27.2868">
		<comp name="--.HNE" depth="0.0">
			<acc value="2.55818179491517" flag="0"/>
			<vel value="1.7778407601112" flag="0"/>
			<psa03 value="5.978274679507" flag="0"/>
			<psa10 value="1.57963255309941" flag="0"/>
			<psa30 value="0.227001822388133" flag="0"/>
		</comp>
		<comp name="--.HNN" depth="0.0">
			<acc value="2.50104848436653" flag="0"/>
			<vel value="1.52764414778656" flag="0"/>
			<psa03 value="8.43238471251921" flag="0"/>
			<psa10 value="1.12438283786882" flag="0"/>
			<psa30 value="0.120863912426202" flag="0"/>
		</comp>
		<comp name="--.HNZ" depth="0.0">
			<acc value="1.00364659909279" flag="0"/>
			<vel value="0.615048624422953" flag="0"/>
			<psa03 value="3.81677867777829" flag="0"/>
			<psa10 value="0.498203575850324" flag="0"/>
			<psa30 value="0.0662927378580285" flag="0"/>
		</comp>
	</station>
	<station code="NAZL" name="NAZL" netid="KO" source="Bogazici University Kandilli Observatory And Earthquake Research Institute (KOERI)" insttype="" lat="37.9641" lon="28.2922">
		<comp name="--.HNE" depth="0.0">
			<acc value="0.361892467542729" flag="0"/>
			<vel value="0.276937059976094" flag="0"/>
			<psa03 value="1.18692125716951" flag="0"/>
			<psa10 value="0.326718330856209" flag="0"/>
			<psa30 value="0.0413167432795769" flag="0"/>
		</comp>
		<comp name="--.HNN" depth="0.0">
			<acc value="0.456780256086429" flag="0"/>
			<vel value="0.246003701419006" flag="0"/>
			<psa03 value="1.10848816896768" flag="0"/>
			<psa10 value="0.41198579111898" flag="0"/>
			<psa30 value="0.0517582320380829" flag="0"/>
		</comp>
		<comp name="--.HNZ" depth="0.0">
			<acc value="0.283044084355602" flag="0"/>
			<vel value="0.17925445444412" flag="0"/>
			<psa03 value="0.606480610710674" flag="0"/>
			<psa10 value="0.123880431996406" flag="0"/>
			<psa30 value="0.0620297004114396" flag="0"/>
		</comp>
	</station>
	<station code="ODEM" name="ODEM" netid="KO" source="Bogazici University Kandilli Observatory And Earthquake Research Institute (KOERI)" insttype="" lat="38.2762" lon="28.0747">
		<comp name="--.HNE" depth="0.0">
			<acc value="0.195878730250428" flag="0"/>
			<vel value="0.10355712464384" flag="0"/>
			<psa03 value="0.231227723803228" flag="0"/>
			<psa10 value="0.0979277150474776" flag="0"/>
			<psa30 value="0.0535895305549688" flag="0"/>
		</comp>
		<comp name="--.HNN" depth="0.0">
			<acc value="0.400589933125678" flag="0"/>
			<vel value="0.182928869675071" flag="0"/>
			<psa03 value="0.355834769235115" flag="0"/>
			<psa10 value="0.112979888197997" flag="0"/>
			<psa30 value="0.0556020350086587" flag="0"/>
		</comp>
		<comp name="--.HNZ" depth="0.0">
			<acc value="0.166881155630358" flag="0"/>
			<vel value="0.126166623289944" flag="0"/>
			<psa03 value="0.217402381958182" flag="0"/>
