<?xml version="1.0" encoding="UTF-8" standalone="yes"?>
<!DOCTYPE earthquake SYSTEM "stationlist.dtd">
<stationlist created="" xmlns="ch.ethz.sed.shakemap.usgs.xml">
  <station code="KRL1" name="KRL1" netid="HI" insttype="CMG-5TD,ACCELEROMETER,GURALP" lat="37.7951" lon="26.7065">
    <comp name="--.HNE">
      <acc value="0.3829441208" flag="0"/>
      <vel value="0.1657145811" flag="0"/>
      <psa03 value="0.7307708581" flag="0"/>
      <psa10 value="0.1859738619" flag="0"/>
      <psa30 value="0.0287252055" flag="0"/>
    </comp>
    <comp name="--.HNZ">
      <acc value="0.1499996828" flag="0"/>
      <vel value="0.0725532185" flag="0"/>
      <psa03 value="0.3631417508" flag="0"/>
      <psa10 value="0.0650927935" flag="0"/>
      <psa30 value="0.0190761472" flag="0"/>
    </comp>
    <comp name="--.HNN">
      <acc value="0.3019288213" flag="0"/>
      <vel value="0.1402852401" flag="0"/>
      <psa03 value="0.8687380022" flag="0"/>
      <psa10 value="0.1437054295" flag="0"/>
      <psa30 value="0.0190154855" flag="0"/>
    </comp>
  </station>
  <station code="RDI1" name="RDI1" netid="HI" insttype="CMG-5TD,ACCELEROMETER,GURALP" lat="36.4514" lon="28.224">
    <comp name="--.HNE">
      <acc value="3.3522586595" flag="0"/>
      <vel value="3.5440150667" flag="0"/>
      <psa03 value="6.2250834236" flag="0"/>
      <psa10 value="4.5560061761" flag="0"/>
      <psa30 value="0.3233563100" flag="0"/>
    </comp>
    <comp name="--.HNZ">
      <acc value="2.0557094550" flag="0"/>
      <vel value="1.2955262755" flag="0"/>
      <psa03 value="3.5299414743" flag="0"/>
      <psa10 value="1.6759125244" flag="0"/>
      <psa30 value="0.1173276368" flag="0"/>
    </comp>
    <comp name="--.HNN">
      <acc value="4.5302517537" flag="0"/>
      <vel value="4.4161721023" flag="0"/>
      <psa03 value="9.2237632785" flag="0"/>
      <psa10 value="4.5831015270" flag="0"/>
      <psa30 value="0.3506220328" flag="0"/>
    </comp>
  </station>
  <station code="ARG" name="ARG" netid="HL" insttype="LE3D20_DR24" lat="36.2136" lon="28.1212">
    <comp name="--.HHE">
      <acc value="1.2352360607" flag="0"/>
      <vel value="0.9488760369" flag="0"/>
      <psa03 value="2.6054371566" flag="0"/>
      <psa10 value="0.5950697637" flag="0"/>
      <psa30 value="0.0981402346" flag="0"/>
    </comp>
    <comp name="--.HHZ">
      <acc value="1.1457588818" flag="0"/>
      <vel value="0.4192515660" flag="0"/>
      <psa03 value="1.1311231438" flag="0"/>
      <psa10 value="0.4359523054" flag="0"/>
      <psa30 value="0.0506367632" flag="0"/>
    </comp>
    <comp name="--.HHN">
      <acc value="1.1812140649" flag="0"/>
      <vel value="0.5247136102" flag="0"/>
      <psa03 value="1.5742475852" flag="0"/>
      <psa10 value="0.4884372372" flag="0"/>
      <psa30 value="0.0785658849" flag="0"/>
    </comp>
  </station>
  <station code="KLNA" name="KLNA" netid="HL" insttype="CMG-5" lat="36.9571" lon="26.9727">
    <comp name="00.HNN">
      <acc value="0.3850185701" flag="0"/>
      <vel value="0.2038772132" flag="0"/>
      <psa03 value="0.6117085901" flag="0"/>
      <psa10 value="0.1595539600" flag="0"/>
      <psa30 value="0.0195712343" flag="0"/>
    </comp>
    <comp name="00.HNZ">
      <acc value="0.4017658218" flag="0"/>
      <vel value="0.1291300392" flag="0"/>
      <psa03 value="0.3783362067" flag="0"/>
      <psa10 value="0.0730941392" flag="0"/>
      <psa30 value="0.0063481309" flag="0"/>
    </comp>
  </station>
  <station code="RODB" name="RODB" netid="HL" insttype="CMG-5" lat="36.4471" lon="28.2212">
    <comp name="00.HNN">
      <acc value="2.1642610498" flag="0"/>
      <vel value="3.0648824270" flag="0"/>
      <psa03 value="4.3812323864" flag="0"/>
      <psa10 value="3.8359053933" flag="0"/>
      <psa30 value="0.3250817386" flag="0"/>
    </comp>
    <comp name="00.HNE">
      <acc value="5.2817757932" flag="0"/>
      <vel value="3.7495151415" flag="0"/>
      <psa03 value="9.4436031232" flag="0"/>
      <psa10 value="4.0905749822" flag="0"/>
      <psa30 value="0.2780296158" flag="0"/>
    </comp>
    <comp name="00.HNZ">
      <acc value="1.4085318879" flag="0"/>
      <vel value="0.7717453769" flag="0"/>
      <psa03 value="2.6470302091" flag="0"/>
      <psa10 value="1.0109325086" flag="0"/>
      <psa30 value="0.0944058029" flag="0"/>
    </comp>
  </station>
  <station code="DATC" name="DATC" netid="KO" insttype="100" lat="36.7584" lon="27.6602">
    <comp name="--.HNE">
      <acc value="7.1420082159" flag="0"/>
      <vel value="5.7780018150" flag="0"/>
      <psa03 value="13.9530383871" flag="0"/>
      <psa10 value="5.8160861274" flag="0"/>
      <psa30 value="0.5754493029" flag="0"/>
    </comp>
    <comp name="--.HNZ">
      <acc value="7.2513727448" flag="0"/>
      <vel value="2.5098263260" flag="0"/>
      <psa03 value="8.9773049310" flag="0"/>
      <psa10 value="2.0888686898" flag="0"/>
      <psa30 value="0.1632706455" flag="0"/>
    </comp>
    <comp name="--.HNN">
      <acc value="8.6912778681" flag="0"/>
      <vel value="3.5921188913" flag="0"/>
      <psa03 value="14.7072588176" flag="0"/>
      <psa10 value="2.9277058302" flag="0"/>
      <psa30 value="0.2647076908" flag="0"/>
    </comp>
  </station>
  <station code="DEMR" name="DEMR" netid="KO" insttype="100" lat="36.2365" lon="29.9056">
    <comp name="--.HNZ">
      <acc value="0.3319909984" flag="0"/>
      <vel value="0.1403944849" flag="0"/>
      <psa03 value="0.7373436125" flag="0"/>
      <psa10 value="0.1386466905" flag="0"/>
      <psa30 value="0.0935485117" flag="0"/>
    </comp>
    <comp name="--.HNN">
      <acc value="0.5343854136" flag="0"/>
      <vel value="0.4774948846" flag="0"/>
      <psa03 value="1.7296576346" flag="0"/>
      <psa10 value="0.4174371836" flag="0"/>
      <psa30 value="0.0643106553" flag="0"/>
    </comp>
    <comp name="--.HNE">
      <acc value="0.4046757581" flag="0"/>
      <vel value="0.2156121878" flag="0"/>
      <psa03 value="1.6906197881" flag="0"/>
      <psa10 value="0.2270154161" flag="0"/>
      <psa30 value="0.0665529916" flag="0"/>
    </comp>
  </station>
  <station code="DIDI" name="DIDI" netid="KO" insttype="100" lat="37.3767" lon="27.2398">
    <comp name="--.HNE">
      <acc value="2.7359438526" flag="0"/>
      <vel value="1.4018878235" flag="0"/>
      <psa03 value="13.4476189901" flag="0"/>
      <psa10 value="0.9978875626" flag="0"/>
      <psa30 value="0.2549323017" flag="0"/>
    </comp>
    <comp name="--.HNN">
      <acc value="2.1412368208" flag="0"/>
      <vel value="1.2766018378" flag="0"/>
      <psa03 value="8.9139577343" flag="0"/>
      <psa10 value="1.0855245584" flag="0"/>
      <psa30 value="0.4754389792" flag="0"/>
    </comp>
    <comp name="--.HNZ">
      <acc value="3.0363797595" flag="0"/>
      <vel value="1.0777272816" flag="0"/>
      <psa03 value="6.1042716938" flag="0"/>
      <psa10 value="1.4127543846" flag="0"/>
      <psa30 value="0.1612638171" flag="0"/>
    </comp>
  </station>
  <station code="FETI" name="FETI" netid="KO" insttype="100" lat="36.6903" lon="29.0968">
    <comp name="--.HNN">
      <acc value="3.3962035635" flag="0"/>
      <vel value="0.8438963783" flag="0"/>
      <psa03 value="3.0269391746" flag="0"/>
      <psa10 value="0.5945831925" flag="0"/>
      <psa30 value="0.1791539585" flag="0"/>
    </comp>
    <comp name="--.HNE">
      <acc value="3.6892559248" flag="0"/>
      <vel value="1.7080031261" flag="0"/>
      <psa03 value="2.5669911467" flag="0"/>
      <psa10 value="1.3777713162" flag="0"/>
      <psa30 value="0.2640960688" flag="0"/>
    </comp>
    <comp name="--.HNZ">
      <acc value="2.5999364789" flag="0"/>
      <vel value="0.8936687597" flag="0"/>
      <psa03 value="2.7092665933" flag="0"/>
      <psa10 value="0.6100401880" flag="0"/>
      <psa30 value="0.1958971851" flag="0"/>
    </comp>
  </station>
  <station code="GMLD" name="GMLD" netid="KO" insttype="100" lat="38.0764" lon="26.8747">
    <comp name="--.HNZ">
      <acc value="1.3174193107" flag="0"/>
      <vel value="0.5954864707" flag="0"/>
      <psa03 value="5.6994429669" flag="0"/>
      <psa10 value="0.2845133839" flag="0"/>
      <psa30 value="0.0461076124" flag="0"/>
    </comp>
    <comp name="--.HNE">
      <acc value="5.6824912210" flag="0"/>
      <vel value="3.4320452555" flag="0"/>
      <psa03 value="15.5496637515" flag="0"/>
      <psa10 value="1.4840485345" flag="0"/>
      <psa30 value="0.1527076988" flag="0"/>
    </comp>
    <comp name="--.HNN">
      <acc value="4.4145035897" flag="0"/>
      <vel value="3.1009268029" flag="0"/>
      <psa03 value="11.1631229371" flag="0"/>
      <psa10 value="1.1687145910" flag="0"/>
      <psa30 value="0.1089925708" flag="0"/>
    </comp>
  </station>
  <station code="KUSD" name="KUSD" netid="KO" insttype="100" lat="37.86" lon="27.2815">
    <comp name="--.HNE">
      <acc value="2.5523998605" flag="0"/>
      <vel value="1.7685701931" flag="0"/>
      <psa03 value="5.8939803386" flag="0"/>
      <psa10 value="1.5781043826" flag="0"/>
      <psa30 value="0.2258967595" flag="0"/>
    </comp>
    <comp name="--.HNN">
      <acc value="2.5028640735" flag="0"/>
      <vel value="1.5202399817" flag="0"/>
      <psa03 value="8.2861583986" flag="0"/>
      <psa10 value="1.1217749098" flag="0"/>
      <psa30 value="0.1210887707" flag="0"/>
    </comp>
    <comp name="--.HNZ">
      <acc value="1.0072698065" flag="0"/>
      <vel value="0.6108648542" flag="0"/>
      <psa03 value="3.8271507008" flag="0"/>
      <psa10 value="0.4970153175" flag="0"/>
      <psa30 value="0.0666586562" flag="0"/>
    </comp>
  </station>
  <station code="YKAV" name="YKAV" netid="KO" insttype="100" lat="37.1246" lon="27.2801">
    <comp name="--.HNN">
      <acc value="1.6286136056" flag="0"/>
      <vel value="0.8403329369" flag="0"/>
      <psa03 value="3.1163684477" flag="0"/>
      <psa10 value="0.7496410634" flag="0"/>
      <psa30 value="0.1090158593" flag="0"/>
    </comp>
    <comp name="--.HNE">
      <acc value="3.0147803938" flag="0"/>
      <vel value="1.6166648345" flag="0"/>
      <psa03 value="7.8289358956" flag="0"/>
      <psa10 value="1.4283900822" flag="0"/>
      <psa30 value="0.1423920819" flag="0"/>
    </comp>
    <comp name="--.HNZ">
      <acc value="1.3345815754" flag="0"/>
      <vel value="0.4895651849" flag="0"/>
      <psa03 value="1.7188429390" flag="0"/>
      <psa10 value="0.7933432656" flag="0"/>
      <psa30 value="0.0738846028" flag="0"/>
    </comp>
  </station>
  <station code="AYDN" name="AYDN" netid="TU" source="ODC" insttype="T" lat="37.6608" lon="27.8792">
    <comp name="--.HHZ">
      <acc value="0.8877127486" flag="0"/>
      <vel value="0.4093956663" flag="0"/>
      <psa03 value="1.3523138044" flag="0"/>
      <psa10 value="0.1642806108" flag="0"/>
      <psa30 value="0.0325511688" flag="0"/>
    </comp>
    <comp name="--.HHN">
      <acc value="2.0615525662" flag="0"/>
      <vel value="0.5639132178" flag="0"/>
      <psa03 value="3.3000024616" flag="0"/>
      <psa10 value="0.3692441082" flag="0"/>
      <psa30 value="0.0685438076" flag="0"/>
    </comp>
    <comp name="--.HHE">
      <acc value="2.2413411375" flag="0"/>
      <vel value="0.5727230896" flag="0"/>
      <psa03 value="3.8487350687" flag="0"/>
      <psa10 value="0.6464444624" flag="0"/>
      <psa30 value="0.1177978239" flag="0"/>
    </comp>
  </station>
</stationlist>
