<stationlist xmlns:esm="https://esm-db.eu/esmws/shakemap/1/" created="1783994327">
	<station code="AGN1" name="AGN1" netid="HI" source="ITSAK Strong Motion Network" insttype="" lat="35.1879" lon="25.7155" esm:processing="automatic (Paolucci et al 2011)" esm:quality="good">
		<comp name="--.HNE" depth="0.0">
			<acc value="0.106626186802038" flag="0"/>
			<vel value="0.0607076211440518" flag="0"/>
			<psa03 value="0.484878454151261" flag="0"/>
			<psa10 value="0.046494233764805" flag="0"/>
			<psa30 value="0.00617085503886134" flag="0"/>
		</comp>
		<comp name="--.HNN" depth="0.0">
			<acc value="0.0741262587191526" flag="0"/>
			<vel value="0.0360541870509503" flag="0"/>
			<psa03 value="0.229960733770023" flag="0"/>
			<psa10 value="0.031265311173423" flag="0"/>
			<psa30 value="0.00960250111857247" flag="0"/>
		</comp>
		<comp name="--.HNZ" depth="0.0">
			<acc value="0.0343050834575154" flag="0"/>
			<vel value="0.0158940865374263" flag="0"/>
			<psa03 value="0.137017535072585" flag="0"/>
			<psa10 value="0.0167428960096908" flag="0"/>
			<psa30 value="0.00503851711036413" flag="0"/>
		</comp>
	</station>
	<station code="ARK1" name="ARK1" netid="HI" source="ITSAK Strong Motion Network" insttype="" lat="35.148777" lon="25.264194" esm:processing="automatic (Paolucci et al 2011)" esm:quality="best">
		<comp name="--.HNE" depth="0.0">
			<acc value="0.0339239736593023" flag="0"/>
			<vel value="0.0322407866490789" flag="0"/>
			<psa03 value="0.0874225517316712" flag="0"/>
			<psa10 value="0.0288187240990366" flag="0"/>
			<psa30 value="0.0137829563865507" flag="0"/>
		</comp>
		<comp name="--.HNN" depth="0.0">
			<acc value="0.0344811037740071" flag="0"/>
			<vel value="0.0264182298422658" flag="0"/>
			<psa03 value="0.101195349528599" flag="0"/>
			<psa10 value="0.025313215001263" flag="0"/>
			<psa30 value="0.0109041548467438" flag="0"/>
		</comp>
		<comp name="--.HNZ" depth="0.0">
			<acc value="0.0244405053583807" flag="0"/>
			<vel value="0.0275015677559048" flag="0"/>
			<psa03 value="0.0655787505203781" flag="0"/>
			<psa10 value="0.022470376677176" flag="0"/>
			<psa30 value="0.00999188524669329" flag="0"/>
		</comp>
	</station>
	<station code="HER1" name="HER1" netid="HI" source="ITSAK Strong Motion Network" insttype="" lat="35.317672" lon="25.10217" esm:processing="automatic (Paolucci et al 2011)" esm:quality="good">
		<comp name="--.HNE" depth="0.0">
			<acc value="0.0555633467444751" flag="0"/>
			<vel value="0.0655093190445127" flag="0"/>
			<psa03 value="0.161231826650564" flag="0"/>
			<psa10 value="0.0860158481277945" flag="0"/>
			<psa30 value="0.0100489181915126" flag="0"/>
		</comp>
		<comp name="--.HNN" depth="0.0">
			<acc value="0.0691666304830311" flag="0"/>
			<vel value="0.0635291726134906" flag="0"/>
			<psa03 value="0.229510787296611" flag="0"/>
			<psa10 value="0.0831697170855811" flag="0"/>
			<psa30 value="0.0116141910498242" flag="0"/>
		</comp>
		<comp name="--.HNZ" depth="0.0">
			<acc value="0.0743797176979129" flag="0"/>
			<vel value="0.0713940012360993" flag="0"/>
			<psa03 value="0.168392926038254" flag="0"/>
			<psa10 value="0.090705143770617" flag="0"/>
			<psa30 value="0.00475197646178577" flag="0"/>
		</comp>
	</station>
	<station code="HER2" name="HER2" netid="HI" source="ITSAK Strong Motion Network" insttype="" lat="35.337866" lon="25.135624" esm:processing="automatic (Paolucci et al 2011)" esm:quality="good">
		<comp name="--.HNE" depth="0.0">
			<acc value="0.0788166738416436" flag="0"/>
			<vel value="0.0518201484075052" flag="0"/>
			<psa03 value="0.234025190520336" flag="0"/>
			<psa10 value="0.0612931528705665" flag="0"/>
			<psa30 value="0.00675697136619151" flag="0"/>
		</comp>
		<comp name="--.HNN" depth="0.0">
			<acc value="0.0704418207192815" flag="0"/>
			<vel value="0.0516133490014854" flag="0"/>
			<psa03 value="0.212862538598507" flag="0"/>
			<psa10 value="0.0472889564112801" flag="0"/>
			<psa30 value="0.00573962022167109" flag="0"/>
		</comp>
		<comp name="--.HNZ" depth="0.0">
			<acc value="0.0466985843807788" flag="0"/>
			<vel value="0.0224633612761038" flag="0"/>
			<psa03 value="0.135873490535249" flag="0"/>
			<psa10 value="0.0127285841437309" flag="0"/>
			<psa30 value="0.00279590438161036" flag="0"/>
		</comp>
	</station>
	<station code="KOS2" name="KOS2" netid="HI" source="ITSAK Strong Motion Network" insttype="" lat="36.8941" lon="27.2888" esm:processing="manual (Paolucci et al 2011)" esm:quality="good">
		<comp name="--.HNE" depth="0.0">
			<acc value="1.37953378656742" flag="0"/>
			<vel value="1.1379137792552" flag="0"/>
			<psa03 value="3.3990498370367" flag="0"/>
			<psa10 value="1.0685846284873" flag="0"/>
			<psa30 value="0.0796607371328804" flag="0"/>
		</comp>
		<comp name="--.HNN" depth="0.0">
			<acc value="1.56122931549768" flag="0"/>
			<vel value="1.34689458079908" flag="0"/>
			<psa03 value="3.87811457272431" flag="0"/>
			<psa10 value="0.927565746678461" flag="0"/>
			<psa30 value="0.0910559386757245" flag="0"/>
		</comp>
		<comp name="--.HNZ" depth="0.0">
			<acc value="0.71299925347981" flag="0"/>
			<vel value="0.260857486105736" flag="0"/>
			<psa03 value="1.05191085059801" flag="0"/>
			<psa10 value="0.287296031952141" flag="0"/>
			<psa30 value="0.0486394387907765" flag="0"/>
		</comp>
	</station>
	<station code="KRL1" name="KRL1" netid="HI" source="ITSAK Strong Motion Network" insttype="" lat="37.7951" lon="26.7065" esm:processing="manual (Paolucci et al 2011)" esm:quality="best">
		<comp name="--.HNE" depth="0.0">
			<acc value="0.384666951080554" flag="0"/>
			<vel value="0.166895137490429" flag="0"/>
			<psa03 value="0.720841690826976" flag="0"/>
			<psa10 value="0.186549498540421" flag="0"/>
			<psa30 value="0.0286350122356939" flag="0"/>
		</comp>
		<comp name="--.HNN" depth="0.0">
			<acc value="0.302996528564879" flag="0"/>
			<vel value="0.138950650436394" flag="0"/>
			<psa03 value="0.872562513469536" flag="0"/>
			<psa10 value="0.14386543342659" flag="0"/>
			<psa30 value="0.0189800914695371" flag="0"/>
		</comp>
		<comp name="--.HNZ" depth="0.0">
			<acc value="0.151616537025171" flag="0"/>
			<vel value="0.0737523010514184" flag="0"/>
			<psa03 value="0.359056208111631" flag="0"/>
			<psa10 value="0.0653227268185444" flag="0"/>
			<psa30 value="0.0191970911716357" flag="0"/>
		</comp>
	</station>
	<station code="KSS1" name="KSS1" netid="HI" source="ITSAK Strong Motion Network" insttype="" lat="35.4189" lon="26.9207" esm:processing="manual (Paolucci et al 2011)" esm:quality="best">
		<comp name="--.HNE" depth="0.0">
			<acc value="0.0923459796053206" flag="0"/>
			<vel value="0.0365964849843507" flag="0"/>
			<psa03 value="0.208006518568345" flag="0"/>
			<psa10 value="0.032572773840168" flag="0"/>
			<psa30 value="0.00471806568789676" flag="0"/>
		</comp>
		<comp name="--.HNN" depth="0.0">
			<acc value="0.10739933889609" flag="0"/>
			<vel value="0.0555157753267538" flag="0"/>
			<psa03 value="0.270914061073635" flag="0"/>
			<psa10 value="0.0305915889311109" flag="0"/>
			<psa30 value="0.0056827076625867" flag="0"/>
		</comp>
		<comp name="--.HNZ" depth="0.0">
			<acc value="0.134041344280749" flag="0"/>
			<vel value="0.0239229947235524" flag="0"/>
			<psa03 value="0.0779856661356477" flag="0"/>
			<psa10 value="0.0356854891546012" flag="0"/>
			<psa30 value="0.00461829056713801" flag="0"/>
		</comp>
	</station>
	<station code="PLM1" name="PLM1" netid="HI" source="ITSAK Strong Motion Network" insttype="" lat="38.9751" lon="26.3688" esm:processing="automatic (Paolucci et al 2011)" esm:quality="good">
		<comp name="--.HNE" depth="0.0">
			<acc value="0.0295633296529476" flag="0"/>
			<vel value="0.0162744723347799" flag="0"/>
			<psa03 value="0.0599831037945779" flag="0"/>
			<psa10 value="0.0159286439444876" flag="0"/>
			<psa30 value="0.00396655484812518" flag="0"/>
		</comp>
		<comp name="--.HNN" depth="0.0">
			<acc value="0.0301920104453185" flag="0"/>
			<vel value="0.0155970379637938" flag="0"/>
			<psa03 value="0.0681490874592525" flag="0"/>
			<psa10 value="0.0128889185150961" flag="0"/>
			<psa30 value="0.00688110167254844" flag="0"/>
		</comp>
		<comp name="--.HNZ" depth="0.0">
			<acc value="0.0116086223333646" flag="0"/>
			<vel value="0.00765650373088482" flag="0"/>
			<psa03 value="0.0223473944677082" flag="0"/>
			<psa10 value="0.00986603357630444" flag="0"/>
			<psa30 value="0.00367029688915602" flag="0"/>
		</comp>
	</station>
	<station code="RDI1" name="RDI1" netid="HI" source="ITSAK Strong Motion Network" insttype="" lat="36.4514" lon="28.224" esm:processing="manual (Paolucci et al 2011)" esm:quality="good">
		<comp name="--.HNE" depth="0.0">
			<acc value="3.34508834124382" flag="0"/>
			<vel value="3.54535326385069" flag="0"/>
			<psa03 value="6.21791393815446" flag="0"/>
			<psa10 value="4.55523537535088" flag="0"/>
			<psa30 value="0.318676366638641" flag="0"/>
		</comp>
		<comp name="--.HNN" depth="0.0">
			<acc value="4.53225525312443" flag="0"/>
			<vel value="4.42748265304664" flag="0"/>
			<psa03 value="9.2593101752381" flag="0"/>
			<psa10 value="4.58865780369473" flag="0"/>
			<psa30 value="0.346692594156804" flag="0"/>
		</comp>
		<comp name="--.HNZ" depth="0.0">
			<acc value="2.06207297267842" flag="0"/>
			<vel value="1.29829202230967" flag="0"/>
			<psa03 value="3.47620100100001" flag="0"/>
			<psa10 value="1.67847837822669" flag="0"/>
			<psa30 value="0.117459030502552" flag="0"/>
		</comp>
	</station>
	<station code="RKL1" name="RKL1" netid="HI" source="ITSAK Strong Motion Network" insttype="" lat="36.336699" lon="28.171224" esm:processing="manual (Paolucci et al 2011)" esm:quality="good">
		<comp name="--.HNE" depth="0.0">
			<acc value="2.31102284424137" flag="0"/>
			<vel value="1.92266552461918" flag="0"/>
			<psa03 value="5.33692987874551" flag="0"/>
			<psa10 value="2.15901310402225" flag="0"/>
			<psa30 value="0.171007488406846" flag="0"/>
		</comp>
		<comp name="--.HNN" depth="0.0">
			<acc value="1.83255985766119" flag="0"/>
			<vel value="1.80496396332459" flag="0"/>
			<psa03 value="4.23294674528098" flag="0"/>
			<psa10 value="3.17931517402701" flag="0"/>
			<psa30 value="0.192632534293339" flag="0"/>
		</comp>
		<comp name="--.HNZ" depth="0.0">
			<acc value="1.20262246438215" flag="0"/>
			<vel value="0.869822658111687" flag="0"/>
			<psa03 value="2.05443842979665" flag="0"/>
			<psa10 value="1.13075162674583" flag="0"/>
			<psa30 value="0.0828748833876289" flag="0"/>
		</comp>
	</station>
	<station code="RKT1" name="RKT1" netid="HI" source="ITSAK Strong Motion Network" insttype="" lat="35.954336" lon="27.767327" esm:processing="manual (Paolucci et al 2011)" esm:quality="good">
		<comp name="--.HNE" depth="0.0">
			<acc value="0.662407306031265" flag="0"/>
			<vel value="0.366802981896654" flag="0"/>
			<psa03 value="1.48486919863038" flag="0"/>
			<psa10 value="0.36690645575201" flag="0"/>
			<psa30 value="0.0344862845471013" flag="0"/>
		</comp>
		<comp name="--.HNN" depth="0.0">
			<acc value="0.945211809522965" flag="0"/>
			<vel value="0.526864644973513" flag="0"/>
			<psa03 value="2.11030979766723" flag="0"/>
			<psa10 value="0.416616298785148" flag="0"/>
			<psa30 value="0.0404520530833217" flag="0"/>
		</comp>
		<comp name="--.HNZ" depth="0.0">
			<acc value="1.40908938839922" flag="0"/>
			<vel value="0.279338517247996" flag="0"/>
			<psa03 value="1.03063802471103" flag="0"/>
			<psa10 value="0.170627093207531" flag="0"/>
			<psa30 value="0.017945567139084" flag="0"/>
		</comp>
	</station>
	<station code="RPN1" name="RPN1" netid="HI" source="ITSAK Strong Motion Network" insttype="" lat="36.448678" lon="28.218047" esm:processing="manual (Paolucci et al 2011)" esm:quality="good">
		<comp name="--.HNE" depth="0.0">
			<acc value="3.74973442865666" flag="0"/>
			<vel value="3.64971371154881" flag="0"/>
			<psa03 value="7.9200459975111" flag="0"/>
			<psa10 value="3.97543423300752" flag="0"/>
			<psa30 value="0.28064448465311" flag="0"/>
		</comp>
		<comp name="--.HNN" depth="0.0">
			<acc value="5.51261177135827" flag="0"/>
			<vel value="4.77883637638518" flag="0"/>
			<psa03 value="10.3854406511407" flag="0"/>
			<psa10 value="4.61623780309913" flag="0"/>
			<psa30 value="0.388310550334897" flag="0"/>
		</comp>
		<comp name="--.HNZ" depth="0.0">
			<acc value="1.96303411501871" flag="0"/>
			<vel value="0.958133445439344" flag="0"/>
			<psa03 value="3.02359596506031" flag="0"/>
			<psa10 value="2.01138268423148" flag="0"/>
			<psa30 value="0.111009180480069" flag="0"/>
		</comp>
	</station>
	<station code="SFIR" name="SFIR" netid="HI" source="ITSAK Strong Motion Network" insttype="" lat="36.421468" lon="25.428495" esm:processing="automatic (Paolucci et al 2011)" esm:quality="best">
		<comp name="--.HNE" depth="0.0">
			<acc value="0.0378719240668764" flag="0"/>
			<vel value="0.0439347418711252" flag="0"/>
			<psa03 value="0.0668775761445348" flag="0"/>
			<psa10 value="0.0804284054871413" flag="0"/>
			<psa30 value="0.0237587222320794" flag="0"/>
		</comp>
		<comp name="--.HNN" depth="0.0">
			<acc value="0.0258632342229749" flag="0"/>
			<vel value="0.0375111922015262" flag="0"/>
			<psa03 value="0.075966209471888" flag="0"/>
			<psa10 value="0.0451627680617367" flag="0"/>
			<psa30 value="0.0160241631888354" flag="0"/>
		</comp>
		<comp name="--.HNZ" depth="0.0">
			<acc value="0.0185718676485977" flag="0"/>
			<vel value="0.0207911796204874" flag="0"/>
			<psa03 value="0.03511244321454" flag="0"/>
			<psa10 value="0.0185915547242579" flag="0"/>
			<psa30 value="0.00827855508031169" flag="0"/>
		</comp>
	</station>
	<station code="SIT2" name="SIT2" netid="HI" source="ITSAK Strong Motion Network" insttype="" lat="35.2059" lon="26.107" esm:processing="manual (Paolucci et al 2011)" esm:quality="best">
		<comp name="--.HNE" depth="0.0">
			<acc value="0.148932560715497" flag="0"/>
			<vel value="0.0930482816154017" flag="0"/>
			<psa03 value="0.440576508570122" flag="0"/>
			<psa10 value="0.0807332850440757" flag="0"/>
			<psa30 value="0.00710282530065064" flag="0"/>
		</comp>
		<comp name="--.HNN" depth="0.0">
			<acc value="0.233455896175454" flag="0"/>
			<vel value="0.143912961011426" flag="0"/>
			<psa03 value="0.690416990326552" flag="0"/>
			<psa10 value="0.110583943033588" flag="0"/>
			<psa30 value="0.0132691962167809" flag="0"/>
		</comp>
		<comp name="--.HNZ" depth="0.0">
			<acc value="0.0983708214195974" flag="0"/>
			<vel value="0.0432770546804723" flag="0"/>
			<psa03 value="0.300354433028458" flag="0"/>
			<psa10 value="0.0280184646284941" flag="0"/>
			<psa30 value="0.00508316209390185" flag="0"/>
		</comp>
	</station>
	<station code="KLNA" name="KLNA" netid="HL" source="National Observatory of Athens Seismic Network" insttype="" lat="36.95708" lon="26.97274" esm:processing="manual (Paolucci et al 2011)" esm:quality="good">
		<comp name="00.HNE" depth="0.0">
			<acc value="0.469107072713099" flag="0"/>
			<vel value="0.159869882187834" flag="0"/>
			<psa03 value="0.744062896061859" flag="0"/>
			<psa10 value="0.069494490163632" flag="0"/>
			<psa30 value="0.0129859780488872" flag="0"/>
		</comp>
		<comp name="00.HNN" depth="0.0">
			<acc value="0.385964436638063" flag="0"/>
			<vel value="0.205489787316099" flag="0"/>
			<psa03 value="0.612297097571049" flag="0"/>
			<psa10 value="0.159867931045681" flag="0"/>
			<psa30 value="0.0197773975914747" flag="0"/>
		</comp>
		<comp name="00.HNZ" depth="0.0">
			<acc value="0.399332439766311" flag="0"/>
			<vel value="0.128562573060971" flag="0"/>
			<psa03 value="0.380174529635455" flag="0"/>
			<psa10 value="0.0733521632182594" flag="0"/>
			<psa30 value="0.0061744245133215" flag="0"/>
		</comp>
	</station>
	<station code="RODB" name="RODB" netid="HL" source="National Observatory of Athens Seismic Network" insttype="" lat="36.4471" lon="28.22116" esm:processing="manual (Paolucci et al 2011)" esm:quality="good">
		<comp name="00.HNE" depth="0.0">
			<acc value="5.27833892393027" flag="0"/>
			<vel value="3.75521772956237" flag="0"/>
			<psa03 value="9.45604165773864" flag="0"/>
			<psa10 value="4.09243541275346" flag="0"/>
			<psa30 value="0.27657708216531" flag="0"/>
		</comp>
		<comp name="00.HNN" depth="0.0">
			<acc value="2.16410882739989" flag="0"/>
			<vel value="3.07024906324457" flag="0"/>
			<psa03 value="4.35739876034687" flag="0"/>
			<psa10 value="3.83562230551764" flag="0"/>
			<psa30 value="0.324165787968636" flag="0"/>
		</comp>
		<comp name="00.HNZ" depth="0.0">
			<acc value="1.40730079949486" flag="0"/>
			<vel value="0.771837876875007" flag="0"/>
			<psa03 value="2.64932028048773" flag="0"/>
			<psa10 value="1.01152778042729" flag="0"/>
			<psa30 value="0.0941273120173216" flag="0"/>
		</comp>
	</station>
	<station code="ALT" name="ALT" netid="KO" source="Bogazici University Kandilli Observatory And Earthquake Research Institute (KOERI)" insttype="" lat="39.0541" lon="30.1104" esm:processing="automatic (Paolucci et al 2011)" esm:quality="best">
		<comp name="--.HNE" depth="0.0">
			<acc value="0.0159010872585007" flag="0"/>
			<vel value="0.0396786762247026" flag="0"/>
			<psa03 value="0.0399547905101167" flag="0"/>
			<psa10 value="0.0179877093267438" flag="0"/>
			<psa30 value="0.0188865802577049" flag="0"/>
		</comp>
		<comp name="--.HNN" depth="0.0">
			<acc value="0.0193803701645857" flag="0"/>
			<vel value="0.0222288017218908" flag="0"/>
			<psa03 value="0.0538248745617809" flag="0"/>
			<psa10 value="0.0196346699523624" flag="0"/>
			<psa30 value="0.0102419385169886" flag="0"/>
		</comp>
		<comp name="--.HNZ" depth="0.0">
			<acc value="0.0219651068145267" flag="0"/>
			<vel value="0.0222468682830449" flag="0"/>
			<psa03 value="0.0248766668797591" flag="0"/>
			<psa10 value="0.018007843319722" flag="0"/>
			<psa30 value="0.0125560054432856" flag="0"/>
		</comp>
	</station>
	<station code="BASM" name="BASM" netid="KO" source="Bogazici University Kandilli Observatory And Earthquake Research Institute (KOERI)" insttype="" lat="37.9194" lon="30.035" esm:processing="manual (Paolucci et al 2011)" esm:quality="best">
		<comp name="--.HNE" depth="0.0">
			<acc value="0.163298542158977" flag="0"/>
			<vel value="0.208477133195266" flag="0"/>
			<psa03 value="0.354850440689513" flag="0"/>
			<psa10 value="0.230465764024519" flag="0"/>
			<psa30 value="0.0857931811905361" flag="0"/>
		</comp>
		<comp name="--.HNN" depth="0.0">
			<acc value="0.163565924100434" flag="0"/>
			<vel value="0.161282240121446" flag="0"/>
			<psa03 value="0.587733626137618" flag="0"/>
			<psa10 value="0.221059162505094" flag="0"/>
			<psa30 value="0.0567778601985869" flag="0"/>
		</comp>
		<comp name="--.HNZ" depth="0.0">
			<acc value="0.139276930301082" flag="0"/>
			<vel value="0.0810157146484997" flag="0"/>
			<psa03 value="0.250511614855704" flag="0"/>
			<psa10 value="0.0725347231033436" flag="0"/>
			<psa30 value="0.0278878173851688" flag="0"/>
		</comp>
	</station>
	<station code="CAME" name="CAME" netid="KO" source="Bogazici University Kandilli Observatory And Earthquake Research Institute (KOERI)" insttype="" lat="36.9435" lon="29.3023" esm:processing="manual (Paolucci et al 2011)" esm:quality="best">
		<comp name="--.HNE" depth="0.0">
			<acc value="1.57434352160874" flag="0"/>
			<vel value="0.69042264575177" flag="0"/>
			<psa03 value="3.83172257478879" flag="0"/>
			<psa10 value="0.452499411789759" flag="0"/>
			<psa30 value="0.202301887224516" flag="0"/>
		</comp>
		<comp name="--.HNN" depth="0.0">
			<acc value="1.57564151561998" flag="0"/>
			<vel value="0.95959247542824" flag="0"/>
			<psa03 value="3.2986639251387" flag="0"/>
			<psa10 value="0.314058076071503" flag="0"/>
			<psa30 value="0.274793657809506" flag="0"/>
		</comp>
		<comp name="--.HNZ" depth="0.0">
			<acc value="1.06564341852202" flag="0"/>
			<vel value="0.380858046454327" flag="0"/>
			<psa03 value="1.65089793980099" flag="0"/>
			<psa10 value="0.451951767180751" flag="0"/>
			<psa30 value="0.0999259019950496" flag="0"/>
		</comp>
	</station>
