<stationlist xmlns:esm="https://esm-db.eu/esmws/shakemap/1/" created="1783475633">
	<station code="IMMV" name="IMMV" netid="GE" source="GEOFON" insttype="" lat="35.4606" lon="23.9811" esm:processing="manual (Paolucci et al 2011)" esm:quality="best">
		<comp name="--.HNE" depth="0.0">
			<acc value="0.0212954813222704" flag="0"/>
			<vel value="0.0135535113626893" flag="0"/>
			<psa03 value="0.0711848507296704" flag="0"/>
			<psa10 value="0.0133891053305178" flag="0"/>
			<psa30 value="0.000751669071186965" flag="0"/>
		</comp>
		<comp name="--.HNN" depth="0.0">
			<acc value="0.0178163043985224" flag="0"/>
			<vel value="0.0160557124796261" flag="0"/>
			<psa03 value="0.0618784717530698" flag="0"/>
			<psa10 value="0.0149152619982671" flag="0"/>
			<psa30 value="0.00117090354720017" flag="0"/>
		</comp>
		<comp name="--.HNZ" depth="0.0">
			<acc value="0.0128208995614152" flag="0"/>
			<vel value="0.00742197959933208" flag="0"/>
			<psa03 value="0.0367780938402194" flag="0"/>
			<psa10 value="0.00934217274189514" flag="0"/>
			<psa30 value="0.000404469547829177" flag="0"/>
		</comp>
	</station>
	<station code="CH01" name="CH01" netid="HI" source="ITSAK Strong Motion Network" insttype="" lat="35.517" lon="24.0208" esm:processing="manual (Paolucci et al 2011)" esm:quality="best">
		<comp name="--.HNE" depth="0.0">
			<acc value="0.013373434423617" flag="0"/>
			<vel value="0.0102081676203088" flag="0"/>
			<psa03 value="0.0322023363717262" flag="0"/>
			<psa10 value="0.0146807769044321" flag="0"/>
			<psa30 value="0.000827230685390357" flag="0"/>
		</comp>
		<comp name="--.HNN" depth="0.0">
			<acc value="0.0165234141694453" flag="0"/>
			<vel value="0.0115729067225955" flag="0"/>
			<psa03 value="0.0367406396162465" flag="0"/>
			<psa10 value="0.0176922976528812" flag="0"/>
			<psa30 value="0.000774124563201529" flag="0"/>
		</comp>
		<comp name="--.HNZ" depth="0.0">
			<acc value="0.00835382957695995" flag="0"/>
			<vel value="0.00682900121059296" flag="0"/>
			<psa03 value="0.0254211397549024" flag="0"/>
			<psa10 value="0.0117672407719497" flag="0"/>
			<psa30 value="0.000753393241939681" flag="0"/>
		</comp>
	</station>
	<station code="NPS1" name="NPS1" netid="HI" source="ITSAK Strong Motion Network" insttype="" lat="36.51263" lon="23.06248" esm:processing="manual (Paolucci et al 2011)" esm:quality="good">
		<comp name="--.HNE" depth="0.0">
			<acc value="0.00125577551976581" flag="0"/>
			<vel value="0.00106376448423957" flag="0"/>
			<psa03 value="0.00411794336645526" flag="0"/>
			<psa10 value="0.00129558801384618" flag="0"/>
			<psa30 value="9.48782513641474e-05" flag="0"/>
		</comp>
		<comp name="--.HNN" depth="0.0">
			<acc value="0.00126795338022362" flag="0"/>
			<vel value="0.000981961109680711" flag="0"/>
			<psa03 value="0.00389688673035018" flag="0"/>
			<psa10 value="0.00135970062036671" flag="0"/>
			<psa30 value="7.82712527948877e-05" flag="0"/>
		</comp>
		<comp name="--.HNZ" depth="0.0">
			<acc value="0.000949904531160863" flag="0"/>
			<vel value="0.000443583190362105" flag="0"/>
			<psa03 value="0.00223956372469099" flag="0"/>
			<psa10 value="0.000751716320954446" flag="0"/>
			<psa30 value="4.86447361470863e-05" flag="0"/>
		</comp>
	</station>
	<station code="CHNB" name="CHNB" netid="HL" source="National Observatory of Athens Seismic Network" insttype="" lat="35.48765" lon="24.06605" esm:processing="manual (Paolucci et al 2011)" esm:quality="good">
		<comp name="00.HNE" depth="0.0">
			<acc value="0.0398461698011808" flag="0"/>
			<vel value="0.0324592899207584" flag="0"/>
			<psa03 value="0.125818230673632" flag="0"/>
			<psa10 value="0.0311250893844177" flag="0"/>
			<psa30 value="0.00223135948328149" flag="0"/>
		</comp>
		<comp name="00.HNN" depth="0.0">
			<acc value="0.0486040389112304" flag="0"/>
			<vel value="0.033929635673753" flag="0"/>
			<psa03 value="0.125147644583928" flag="0"/>
			<psa10 value="0.0473009384550317" flag="0"/>
			<psa30 value="0.00191657925563627" flag="0"/>
		</comp>
		<comp name="00.HNZ" depth="0.0">
			<acc value="0.0287475879625371" flag="0"/>
			<vel value="0.0161516478749848" flag="0"/>
			<psa03 value="0.100134393828824" flag="0"/>
			<psa10 value="0.00898405952485204" flag="0"/>
			<psa30 value="0.000623152530796891" flag="0"/>
		</comp>
	</station>
	<station code="GVD" name="GVD" netid="HL" source="National Observatory of Athens Seismic Network" insttype="" lat="34.83914" lon="24.08738" esm:processing="manual (Paolucci et al 2011)" esm:quality="best">
		<comp name="00.HNE" depth="1.0">
			<acc value="0.345544820278364" flag="0"/>
			<vel value="0.085453831066199" flag="0"/>
			<psa03 value="0.565374119927901" flag="0"/>
			<psa10 value="0.0246763721885536" flag="0"/>
			<psa30 value="0.00196945588345171" flag="0"/>
		</comp>
		<comp name="00.HNN" depth="1.0">
			<acc value="0.272184055751667" flag="0"/>
			<vel value="0.0703355421085035" flag="0"/>
			<psa03 value="0.527111210198726" flag="0"/>
			<psa10 value="0.0393548445652903" flag="0"/>
			<psa30 value="0.00277868511591749" flag="0"/>
		</comp>
		<comp name="00.HNZ" depth="1.0">
			<acc value="0.162002347568777" flag="0"/>
			<vel value="0.0483175455190431" flag="0"/>
			<psa03 value="0.169814603550734" flag="0"/>
			<psa10 value="0.0141863169613714" flag="0"/>
			<psa30 value="0.00104344724825747" flag="0"/>
		</comp>
	</station>
	<station code="IMMV" name="IMMV" netid="HL" source="National Observatory of Athens Seismic Network" insttype="" lat="35.4606" lon="23.9811" esm:processing="manual (Paolucci et al 2011)" esm:quality="best">
		<comp name="--.HNE" depth="0.0">
			<acc value="0.0208626045025351" flag="0"/>
			<vel value="0.0132563801537872" flag="0"/>
			<psa03 value="0.0697083579112674" flag="0"/>
			<psa10 value="0.0130991758316314" flag="0"/>
			<psa30 value="0.000718112416223262" flag="0"/>
		</comp>
		<comp name="--.HNN" depth="0.0">
			<acc value="0.0174567263813361" flag="0"/>
			<vel value="0.0156775444013753" flag="0"/>
			<psa03 value="0.0606256899677582" flag="0"/>
			<psa10 value="0.0145850645134242" flag="0"/>
			<psa30 value="0.00112079227578771" flag="0"/>
		</comp>
		<comp name="--.HNZ" depth="0.0">
			<acc value="0.0125685124623615" flag="0"/>
			<vel value="0.00727072351507094" flag="0"/>
			<psa03 value="0.036062218534327" flag="0"/>
			<psa10 value="0.00914888640930421" flag="0"/>
			<psa30 value="0.000388809775512781" flag="0"/>
		</comp>
	</station>
	<station code="AGNA" name="AGNA" netid="HL" source="National Observatory of Athens Seismic Network" insttype="" lat="35.1895" lon="25.71853" esm:processing="automatic (Paolucci et al 2011)" esm:quality="bad">
		<comp name="00.HNE" depth="0.0">
			<acc value="0" flag="1"/>
			<vel value="0" flag="1"/>
			<psa03 value="0" flag="1"/>
			<psa10 value="0" flag="1"/>
			<psa30 value="0" flag="1"/>
		</comp>
		<comp name="00.HNN" depth="0.0">
			<acc value="0" flag="1"/>
			<vel value="0" flag="1"/>
			<psa03 value="0" flag="1"/>
			<psa10 value="0" flag="1"/>
			<psa30 value="0" flag="1"/>
		</comp>
		<comp name="00.HNZ" depth="0.0">
			<acc value="0" flag="1"/>
			<vel value="0" flag="1"/>
			<psa03 value="0" flag="1"/>
			<psa10 value="0" flag="1"/>
			<psa30 value="0" flag="1"/>
		</comp>
	</station>
	<station code="ANKY" name="ANKY" netid="HL" source="National Observatory of Athens Seismic Network" insttype="" lat="35.86704" lon="23.30117" esm:processing="automatic (Paolucci et al 2011)" esm:quality="bad">
		<comp name="00.HNE" depth="0.0">
			<acc value="0" flag="1"/>
			<vel value="0" flag="1"/>
			<psa03 value="0" flag="1"/>
			<psa10 value="0" flag="1"/>
			<psa30 value="0" flag="1"/>
		</comp>
		<comp name="00.HNN" depth="0.0">
			<acc value="0" flag="1"/>
			<vel value="0" flag="1"/>
			<psa03 value="0" flag="1"/>
			<psa10 value="0" flag="1"/>
			<psa30 value="0" flag="1"/>
		</comp>
		<comp name="00.HNZ" depth="0.0">
			<acc value="0" flag="1"/>
			<vel value="0" flag="1"/>
			<psa03 value="0" flag="1"/>
			<psa10 value="0" flag="1"/>
			<psa30 value="0" flag="1"/>
		</comp>
	</station>
	<station code="HERG" name="HERG" netid="HL" source="National Observatory of Athens Seismic Network" insttype="" lat="35.32622" lon="25.06586" esm:processing="automatic (Paolucci et al 2011)" esm:quality="bad">
		<comp name="00.HNE" depth="0.0">
			<acc value="0" flag="1"/>
			<vel value="0" flag="1"/>
			<psa03 value="0" flag="1"/>
			<psa10 value="0" flag="1"/>
			<psa30 value="0" flag="1"/>
		</comp>
		<comp name="00.HNN" depth="0.0">
			<acc value="0" flag="1"/>
			<vel value="0" flag="1"/>
			<psa03 value="0" flag="1"/>
			<psa10 value="0" flag="1"/>
			<psa30 value="0" flag="1"/>
		</comp>
		<comp name="00.HNZ" depth="0.0">
			<acc value="0" flag="1"/>
			<vel value="0" flag="1"/>
			<psa03 value="0" flag="1"/>
			<psa10 value="0" flag="1"/>
			<psa30 value="0" flag="1"/>
		</comp>
	</station>
	<station code="IACM" name="IACM" netid="HL" source="National Observatory of Athens Seismic Network" insttype="" lat="35.3058" lon="25.0709" esm:processing="automatic (Paolucci et al 2011)" esm:quality="bad">
		<comp name="--.HNE" depth="0.0">
			<acc value="0" flag="1"/>
			<vel value="0" flag="1"/>
			<psa03 value="0" flag="1"/>
			<psa10 value="0" flag="1"/>
			<psa30 value="0" flag="1"/>
		</comp>
		<comp name="--.HNN" depth="0.0">
			<acc value="0" flag="1"/>
			<vel value="0" flag="1"/>
			<psa03 value="0" flag="1"/>
			<psa10 value="0" flag="1"/>
			<psa30 value="0" flag="1"/>
		</comp>
		<comp name="--.HNZ" depth="0.0">
			<acc value="0" flag="1"/>
			<vel value="0" flag="1"/>
			<psa03 value="0" flag="1"/>
			<psa10 value="0" flag="1"/>
			<psa30 value="0" flag="1"/>
		</comp>
	</station>
</stationlist>
