<?xml version="1.0" encoding="UTF-8" standalone="yes"?>
<!DOCTYPE earthquake SYSTEM "stationlist.dtd">
<stationlist created="" xmlns="ch.ethz.sed.shakemap.usgs.xml">
  <station code="GVD" name="GVD" netid="GE" source="GFZ" insttype="STS-2/N" lat="34.8391" lon="24.0874">
    <comp name="--.HHE">
      <acc value="0.3686824246" flag="0"/>
      <vel value="0.0884449998" flag="0"/>
      <psa03 value="0.5926305766" flag="0"/>
      <psa10 value="0.0256668113" flag="0"/>
      <psa30 value="0.0020712517" flag="0"/>
    </comp>
    <comp name="--.HHN">
      <acc value="0.2883056762" flag="0"/>
      <vel value="0.0735416329" flag="0"/>
      <psa03 value="0.5577983971" flag="0"/>
      <psa10 value="0.0405527036" flag="0"/>
      <psa30 value="0.0029035702" flag="0"/>
    </comp>
    <comp name="--.HHZ">
      <acc value="0.1608694193" flag="0"/>
      <vel value="0.0500674231" flag="0"/>
      <psa03 value="0.1780211883" flag="0"/>
      <psa10 value="0.0147210566" flag="0"/>
      <psa30 value="0.0010678614" flag="0"/>
    </comp>
  </station>
  <station code="IMMV" name="IMMV" netid="GE" source="GFZ" insttype="STS-2/N" lat="35.4606" lon="23.9811">
    <comp name="--.HHE">
      <acc value="0.0218957599" flag="0"/>
      <vel value="0.0136239850" flag="0"/>
      <psa03 value="0.0743362153" flag="0"/>
      <psa10 value="0.0133686535" flag="0"/>
      <psa30 value="0.0007222634" flag="0"/>
    </comp>
    <comp name="--.HHN">
      <acc value="0.0183266780" flag="0"/>
      <vel value="0.0160297417" flag="0"/>
      <psa03 value="0.0628781294" flag="0"/>
      <psa10 value="0.0149184289" flag="0"/>
      <psa30 value="0.0011397496" flag="0"/>
    </comp>
    <comp name="--.HHZ">
      <acc value="0.0129463938" flag="0"/>
      <vel value="0.0074121676" flag="0"/>
      <psa03 value="0.0375887088" flag="0"/>
      <psa10 value="0.0092299948" flag="0"/>
      <psa30 value="0.0003981632" flag="0"/>
    </comp>
  </station>
  <station code="CHAN" name="CHAN" netid="HC" source="NOA" insttype="120" lat="35.5193" lon="24.0428">
    <comp name="--.HHE">
      <acc value="0.0230344782" flag="0"/>
      <vel value="0.0190746016" flag="0"/>
      <psa03 value="0.0691359563" flag="0"/>
      <psa10 value="0.0197721202" flag="0"/>
      <psa30 value="0.0010989648" flag="0"/>
    </comp>
    <comp name="--.HHN">
      <acc value="0.0289455650" flag="0"/>
      <vel value="0.0280558064" flag="0"/>
      <psa03 value="0.0831558799" flag="0"/>
      <psa10 value="0.0397824214" flag="0"/>
      <psa30 value="0.0019389729" flag="0"/>
    </comp>
    <comp name="--.HHZ">
      <acc value="0.0152585452" flag="0"/>
      <vel value="0.0101612749" flag="0"/>
      <psa03 value="0.0713050316" flag="0"/>
      <psa10 value="0.0154474104" flag="0"/>
      <psa30 value="0.0007709855" flag="0"/>
    </comp>
  </station>
  <station code="KNDR" name="KNDR" netid="HC" source="NOA" insttype="60" lat="35.2348" lon="23.6248">
    <comp name="--.HHE">
      <acc value="0.0357861728" flag="0"/>
      <vel value="0.0151750633" flag="0"/>
      <psa03 value="0.0803957378" flag="0"/>
      <psa10 value="0.0139452903" flag="0"/>
      <psa30 value="0.0013154752" flag="0"/>
    </comp>
    <comp name="--.HHN">
      <acc value="0.0256900115" flag="0"/>
      <vel value="0.0119494170" flag="0"/>
      <psa03 value="0.0779315585" flag="0"/>
      <psa10 value="0.0069540142" flag="0"/>
      <psa30 value="0.0006706283" flag="0"/>
    </comp>
    <comp name="--.HHZ">
      <acc value="0.0247511216" flag="0"/>
      <vel value="0.0088810281" flag="0"/>
      <psa03 value="0.0595606565" flag="0"/>
      <psa10 value="0.0050754760" flag="0"/>
      <psa30 value="0.0004627932" flag="0"/>
    </comp>
  </station>
  <station code="RODP" name="RODP" netid="HC" source="NOA" insttype="120" lat="35.5604" lon="23.7577">
    <comp name="--.HHE">
      <acc value="0.0112486548" flag="0"/>
      <vel value="0.0067477190" flag="0"/>
      <psa03 value="0.0366783659" flag="0"/>
      <psa10 value="0.0050358033" flag="0"/>
      <psa30 value="0.0002261307" flag="0"/>
    </comp>
    <comp name="--.HHN">
      <acc value="0.0212024710" flag="0"/>
      <vel value="0.0116770857" flag="0"/>
      <psa03 value="0.0670850419" flag="0"/>
      <psa10 value="0.0109913590" flag="0"/>
      <psa30 value="0.0004755334" flag="0"/>
    </comp>
    <comp name="--.HHZ">
      <acc value="0.0210094509" flag="0"/>
      <vel value="0.0129308415" flag="0"/>
      <psa03 value="0.0791226972" flag="0"/>
      <psa10 value="0.0112153600" flag="0"/>
      <psa30 value="0.0005128534" flag="0"/>
    </comp>
  </station>
  <station code="TMBK" name="TMBK" netid="HC" source="NOA" insttype="120" lat="35.0724" lon="24.7662">
    <comp name="--.HHE">
      <acc value="0.0367383816" flag="0"/>
      <vel value="0.0300733086" flag="0"/>
      <psa03 value="0.0996851426" flag="0"/>
      <psa10 value="0.0367669115" flag="0"/>
      <psa30 value="0.0042500642" flag="0"/>
    </comp>
    <comp name="--.HHN">
      <acc value="0.0608648662" flag="0"/>
      <vel value="0.0575986644" flag="0"/>
      <psa03 value="0.1676486058" flag="0"/>
      <psa10 value="0.0619072432" flag="0"/>
      <psa30 value="0.0042229931" flag="0"/>
    </comp>
    <comp name="--.HHZ">
      <acc value="0.0343579654" flag="0"/>
      <vel value="0.0108791604" flag="0"/>
      <psa03 value="0.0554039423" flag="0"/>
      <psa10 value="0.0177995582" flag="0"/>
      <psa30 value="0.0024956614" flag="0"/>
    </comp>
  </station>
  <station code="GVD" name="GVD" netid="HL" source="NOA" insttype="120" lat="34.8391" lon="24.0874">
    <comp name="--.HHE">
      <acc value="0.3597138560" flag="0"/>
      <vel value="0.0862020440" flag="0"/>
      <psa03 value="0.5753633136" flag="0"/>
      <psa10 value="0.0251199680" flag="0"/>
      <psa30 value="0.0020381100" flag="0"/>
    </comp>
    <comp name="--.HHN">
      <acc value="0.2785347428" flag="0"/>
      <vel value="0.0718238734" flag="0"/>
      <psa03 value="0.5407746306" flag="0"/>
      <psa10 value="0.0401950582" flag="0"/>
      <psa30 value="0.0028774309" flag="0"/>
    </comp>
    <comp name="--.HHZ">
      <acc value="0.1609347544" flag="0"/>
      <vel value="0.0489899838" flag="0"/>
      <psa03 value="0.1720761504" flag="0"/>
      <psa10 value="0.0143770267" flag="0"/>
      <psa30 value="0.0010539496" flag="0"/>
    </comp>
  </station>
  <station code="IMMV" name="IMMV" netid="HL" source="NOA" insttype="120" lat="35.4606" lon="23.9811">
    <comp name="--.HHE">
      <acc value="0.0212792540" flag="0"/>
      <vel value="0.0134350761" flag="0"/>
      <psa03 value="0.0723218733" flag="0"/>
      <psa10 value="0.0132796821" flag="0"/>
      <psa30 value="0.0007198689" flag="0"/>
    </comp>
    <comp name="--.HHN">
      <acc value="0.0177962009" flag="0"/>
      <vel value="0.0158662574" flag="0"/>
      <psa03 value="0.0610779704" flag="0"/>
      <psa10 value="0.0147865481" flag="0"/>
      <psa30 value="0.0011303161" flag="0"/>
    </comp>
    <comp name="--.HHZ">
      <acc value="0.0126327904" flag="0"/>
      <vel value="0.0072443292" flag="0"/>
      <psa03 value="0.0364600959" flag="0"/>
      <psa10 value="0.0091552472" flag="0"/>
      <psa30 value="0.0003930744" flag="0"/>
    </comp>
  </station>
  <station code="SIVA" name="SIVA" netid="HL" source="NOA" insttype="60" lat="35.0178" lon="24.812">
    <comp name="--.HHE">
      <acc value="0.0275638744" flag="0"/>
      <vel value="0.0168503503" flag="0"/>
      <psa03 value="0.0686142654" flag="0"/>
      <psa10 value="0.0197596057" flag="0"/>
      <psa30 value="0.0010999070" flag="0"/>
    </comp>
    <comp name="--.HHN">
      <acc value="0.0207634341" flag="0"/>
      <vel value="0.0139023454" flag="0"/>
      <psa03 value="0.0604346854" flag="0"/>
      <psa10 value="0.0195017020" flag="0"/>
      <psa30 value="0.0009190444" flag="0"/>
    </comp>
    <comp name="--.HHZ">
      <acc value="0.0108636681" flag="0"/>
      <vel value="0.0070773192" flag="0"/>
      <psa03 value="0.0321493304" flag="0"/>
      <psa10 value="0.0059826646" flag="0"/>
      <psa30 value="0.0004092150" flag="0"/>
    </comp>
  </station>
  <station code="VAM" name="VAM" netid="HL" source="NOA" insttype="120" lat="35.407" lon="24.1997">
    <comp name="--.HHE">
      <acc value="0.0178119969" flag="0"/>
      <vel value="0.0093049503" flag="0"/>
      <psa03 value="0.0478712880" flag="0"/>
      <psa10 value="0.0073417416" flag="0"/>
      <psa30 value="0.0004246507" flag="0"/>
    </comp>
    <comp name="--.HHN">
      <acc value="0.0202361898" flag="0"/>
      <vel value="0.0080758622" flag="0"/>
      <psa03 value="0.0440510698" flag="0"/>
      <psa10 value="0.0110898632" flag="0"/>
      <psa30 value="0.0005161790" flag="0"/>
    </comp>
    <comp name="--.HHZ">
      <acc value="0.0096684009" flag="0"/>
      <vel value="0.0050576634" flag="0"/>
      <psa03 value="0.0285117996" flag="0"/>
      <psa10 value="0.0050518215" flag="0"/>
      <psa30 value="0.0003979897" flag="0"/>
    </comp>
  </station>
</stationlist>
