<stationlist created="1778550955">
	<station code="0904" name="0904" netid="TK" source="Turkish National Strong Motion Network (TNSMN)" insttype="" lat="37.85716" lon="28.05025">
		<comp name="00.HNE" depth="None">
			<acc value="0.193618365245552" flag="0"/>
			<vel value="0.209468998446114" flag="0"/>
			<psa03 value="0.283978785406171" flag="0"/>
			<psa10 value="0.249431985410005" flag="0"/>
			<psa30 value="0.104889154975214" flag="0"/>
		</comp>
		<comp name="00.HNN" depth="None">
			<acc value="0.192448635541505" flag="0"/>
			<vel value="0.198298897460711" flag="0"/>
			<psa03 value="0.372165674650785" flag="0"/>
			<psa10 value="0.187777672112092" flag="0"/>
			<psa30 value="0.0832137929789927" flag="0"/>
		</comp>
		<comp name="00.HNZ" depth="None">
			<acc value="0.191024799352115" flag="0"/>
			<vel value="0.148430261755476" flag="0"/>
			<psa03 value="0.457354836051974" flag="0"/>
			<psa10 value="0.211213639938743" flag="0"/>
			<psa30 value="0.0446482479843734" flag="0"/>
		</comp>
	</station>
	<station code="0908" name="0908" netid="TK" source="Turkish National Strong Motion Network (TNSMN)" insttype="" lat="37.91333" lon="28.34308">
		<comp name="00.HNE" depth="None">
			<acc value="0.442958050956391" flag="0"/>
			<vel value="0.524296131273385" flag="0"/>
			<psa03 value="1.16383427855449" flag="0"/>
			<psa10 value="1.01031168725141" flag="0"/>
			<psa30 value="0.11992298382102" flag="0"/>
		</comp>
		<comp name="00.HNN" depth="None">
			<acc value="0.367807251276534" flag="0"/>
			<vel value="0.440523824101224" flag="0"/>
			<psa03 value="0.827193915958608" flag="0"/>
			<psa10 value="0.612125734919701" flag="0"/>
			<psa30 value="0.181371930390554" flag="0"/>
		</comp>
		<comp name="00.HNZ" depth="None">
			<acc value="0.210212700280663" flag="0"/>
			<vel value="0.340410657993365" flag="0"/>
			<psa03 value="0.481112947766276" flag="0"/>
			<psa10 value="0.427992315536667" flag="0"/>
			<psa30 value="0.130981467608792" flag="0"/>
		</comp>
	</station>
	<station code="0909" name="0909" netid="TK" source="Turkish National Strong Motion Network (TNSMN)" insttype="" lat="37.88405" lon="28.15056">
		<comp name="00.HNE" depth="None">
			<acc value="0.241056840287926" flag="0"/>
			<vel value="0.279486892752208" flag="0"/>
			<psa03 value="0.550284399198124" flag="0"/>
			<psa10 value="0.268301563629195" flag="0"/>
			<psa30 value="0.0978968429249109" flag="0"/>
		</comp>
		<comp name="00.HNN" depth="None">
			<acc value="0.202016432959163" flag="0"/>
			<vel value="0.255957468345924" flag="0"/>
			<psa03 value="0.520128151937409" flag="0"/>
			<psa10 value="0.381957953991259" flag="0"/>
			<psa30 value="0.0823135797818331" flag="0"/>
		</comp>
		<comp name="00.HNZ" depth="None">
			<acc value="0.180984229341483" flag="0"/>
			<vel value="0.240552244279018" flag="0"/>
			<psa03 value="0.498204470694456" flag="0"/>
			<psa10 value="0.298740134213671" flag="0"/>
			<psa30 value="0.0543063007049935" flag="0"/>
		</comp>
	</station>
	<station code="2007" name="2007" netid="TK" source="Turkish National Strong Motion Network (TNSMN)" insttype="" lat="37.93252" lon="28.92294">
		<comp name="00.HNE" depth="None">
			<acc value="0.240944950320592" flag="0"/>
			<vel value="0.378901501714632" flag="0"/>
			<psa03 value="0.907864114491352" flag="0"/>
			<psa10 value="0.739130962626327" flag="0"/>
			<psa30 value="0.104096770496005" flag="0"/>
		</comp>
		<comp name="00.HNN" depth="None">
			<acc value="0.32626528475144" flag="0"/>
			<vel value="0.446863900889329" flag="0"/>
			<psa03 value="0.632610059375744" flag="0"/>
			<psa10 value="0.768417868812449" flag="0"/>
			<psa30 value="0.0991661793266713" flag="0"/>
		</comp>
		<comp name="00.HNZ" depth="None">
			<acc value="0.0919847459404827" flag="0"/>
			<vel value="0.130135355032505" flag="0"/>
			<psa03 value="0.219818461115569" flag="0"/>
			<psa10 value="0.265688171340621" flag="0"/>
			<psa30 value="0.0350098818346653" flag="0"/>
		</comp>
	</station>
	<station code="4802" name="4802" netid="TK" source="Turkish National Strong Motion Network (TNSMN)" insttype="" lat="37.03304" lon="27.43997">
		<comp name="00.HNE" depth="None">
			<acc value="2.78634195126338" flag="0"/>
			<vel value="1.65633246468619" flag="0"/>
			<psa03 value="4.11843063479868" flag="0"/>
			<psa10 value="0.908771933863637" flag="0"/>
			<psa30 value="0.157854531747858" flag="0"/>
		</comp>
		<comp name="00.HNN" depth="None">
			<acc value="1.77641584987082" flag="0"/>
			<vel value="1.78867349019876" flag="0"/>
			<psa03 value="2.72887192385501" flag="0"/>
			<psa10 value="1.57562186169815" flag="0"/>
			<psa30 value="0.18893246846491" flag="0"/>
		</comp>
		<comp name="00.HNZ" depth="None">
			<acc value="1.17274340858868" flag="0"/>
			<vel value="0.817361886551621" flag="0"/>
			<psa03 value="2.60802322377906" flag="0"/>
			<psa10 value="0.888786932433453" flag="0"/>
			<psa30 value="0.267422826691212" flag="0"/>
		</comp>
	</station>
</stationlist>
