<?xml version="1.0" encoding="UTF-8" standalone="yes"?>
<!DOCTYPE earthquake SYSTEM "stationlist.dtd">
<stationlist created="" xmlns="ch.ethz.sed.shakemap.usgs.xml">
  <station code="ATAL" name="ATAL" netid="HA" insttype="120" lat="38.6926" lon="23.0213">
    <comp name="--.HHE">
      <acc value="0.0000312764" flag="0"/>
      <vel value="0.0000027894" flag="0"/>
      <psa03 value="0.0000111130" flag="0"/>
      <psa10 value="0.0000029844" flag="0"/>
      <psa30 value="0.0000006776" flag="0"/>
    </comp>
    <comp name="--.HHN">
      <acc value="0.0000318998" flag="0"/>
      <vel value="0.0000029004" flag="0"/>
      <psa03 value="0.0000114197" flag="0"/>
      <psa10 value="0.0000030672" flag="0"/>
      <psa30 value="0.0000006940" flag="0"/>
    </comp>
    <comp name="--.HHZ">
      <acc value="0.0064272943" flag="0"/>
      <vel value="0.0042427028" flag="0"/>
      <psa03 value="0.0129341026" flag="0"/>
      <psa10 value="0.0055176515" flag="0"/>
      <psa30 value="0.0004184847" flag="0"/>
    </comp>
  </station>
  <station code="AXAR" name="AXAR" netid="HA" insttype="30" lat="38.7664" lon="22.659">
    <comp name="--.HHE">
      <acc value="0.0808203356" flag="0"/>
      <vel value="0.0451714084" flag="0"/>
      <psa03 value="0.3281475575" flag="0"/>
      <psa10 value="0.0312485758" flag="0"/>
      <psa30 value="0.0029619487" flag="0"/>
    </comp>
    <comp name="--.HHN">
      <acc value="0.1157407972" flag="0"/>
      <vel value="0.0467718224" flag="0"/>
      <psa03 value="0.3282917813" flag="0"/>
      <psa10 value="0.0377931179" flag="0"/>
      <psa30 value="0.0035621160" flag="0"/>
    </comp>
    <comp name="--.HHZ">
      <acc value="0.0600577002" flag="0"/>
      <vel value="0.0273478616" flag="0"/>
      <psa03 value="0.1294784674" flag="0"/>
      <psa10 value="0.0174602582" flag="0"/>
      <psa30 value="0.0016211343" flag="0"/>
    </comp>
  </station>
  <station code="KALE" name="KALE" netid="HA" insttype="40," lat="38.3911" lon="22.1398">
    <comp name="--.HHN">
      <acc value="0.0933612441" flag="0"/>
      <vel value="0.0386644021" flag="0"/>
      <psa03 value="0.1317231535" flag="0"/>
      <psa10 value="0.0499324007" flag="0"/>
      <psa30 value="0.0019831885" flag="0"/>
    </comp>
    <comp name="--.HHE">
      <acc value="0.0664510148" flag="0"/>
      <vel value="0.0391207234" flag="0"/>
      <psa03 value="0.1364642355" flag="0"/>
      <psa10 value="0.0377528781" flag="0"/>
      <psa30 value="0.0020061581" flag="0"/>
    </comp>
    <comp name="--.HHZ">
      <acc value="0.0449674444" flag="0"/>
      <vel value="0.0176604624" flag="0"/>
      <psa03 value="0.0835542803" flag="0"/>
      <psa10 value="0.0143673030" flag="0"/>
      <psa30 value="0.0007584984" flag="0"/>
    </comp>
  </station>
  <station code="LAKA" name="LAKA" netid="HA" insttype="120s" lat="38.2401" lon="21.9785">
    <comp name="--.HHE">
      <acc value="0.0163953811" flag="0"/>
      <vel value="0.0079177183" flag="0"/>
      <psa03 value="0.0286456334" flag="0"/>
      <psa10 value="0.0111940016" flag="0"/>
      <psa30 value="0.0009712035" flag="0"/>
    </comp>
    <comp name="--.HHN">
      <acc value="0.0162591631" flag="0"/>
      <vel value="0.0102418279" flag="0"/>
      <psa03 value="0.0411585800" flag="0"/>
      <psa10 value="0.0093932571" flag="0"/>
      <psa30 value="0.0008998095" flag="0"/>
    </comp>
    <comp name="--.HHZ">
      <acc value="0.0099279016" flag="0"/>
      <vel value="0.0082043320" flag="0"/>
      <psa03 value="0.0388410872" flag="0"/>
      <psa10 value="0.0103284772" flag="0"/>
      <psa30 value="0.0010036933" flag="0"/>
    </comp>
  </station>
  <station code="THAL" name="THAL" netid="HA" insttype="30" lat="38.0357" lon="22.6634">
    <comp name="--.HHN">
      <acc value="0.0202910330" flag="0"/>
      <vel value="0.0138567950" flag="0"/>
      <psa03 value="0.0658577699" flag="0"/>
      <psa10 value="0.0167514929" flag="0"/>
      <psa30 value="0.0009951358" flag="0"/>
    </comp>
    <comp name="--.HHE">
      <acc value="0.0282760465" flag="0"/>
      <vel value="0.0156127993" flag="0"/>
      <psa03 value="0.0793727962" flag="0"/>
      <psa10 value="0.0153380614" flag="0"/>
      <psa30 value="0.0012152280" flag="0"/>
    </comp>
    <comp name="--.HHZ">
      <acc value="0.0137268631" flag="0"/>
      <vel value="0.0071886727" flag="0"/>
      <psa03 value="0.0326616662" flag="0"/>
      <psa10 value="0.0126272969" flag="0"/>
      <psa30 value="0.0005929590" flag="0"/>
    </comp>
  </station>
  <station code="KLV1" name="KLV1" netid="HI" insttype="CMG-5TD,ACCELEROMETER,GURALP" lat="38.0326" lon="22.108">
    <comp name="--.HNZ">
      <acc value="0.0151460851" flag="0"/>
      <vel value="0.0093596734" flag="0"/>
      <psa03 value="0.0296142228" flag="0"/>
      <psa10 value="0.0185237490" flag="0"/>
      <psa30 value="0.0010057134" flag="0"/>
    </comp>
    <comp name="--.HNE">
      <acc value="0.0263060646" flag="0"/>
      <vel value="0.0170769406" flag="0"/>
      <psa03 value="0.1202748130" flag="0"/>
      <psa10 value="0.0173017940" flag="0"/>
      <psa30 value="0.0010680971" flag="0"/>
    </comp>
    <comp name="--.HNN">
      <acc value="0.0279543059" flag="0"/>
      <vel value="0.0170207841" flag="0"/>
      <psa03 value="0.0806635786" flag="0"/>
      <psa10 value="0.0286634893" flag="0"/>
      <psa30 value="0.0010925287" flag="0"/>
    </comp>
  </station>
  <station code="MSL1" name="MSL1" netid="HI" insttype="CMG-5TD,ACCELEROMETER,GURALP" lat="38.3727" lon="21.4243">
    <comp name="--.HNE">
      <acc value="0.2221925975" flag="0"/>
      <vel value="0.0904881395" flag="0"/>
      <psa03 value="0.4460740543" flag="0"/>
      <psa10 value="0.1860437214" flag="0"/>
      <psa30 value="0.0083141180" flag="0"/>
    </comp>
    <comp name="--.HNZ">
      <acc value="0.1376585452" flag="0"/>
      <vel value="0.0562285483" flag="0"/>
      <psa03 value="0.1763119672" flag="0"/>
      <psa10 value="0.0930803209" flag="0"/>
      <psa30 value="0.0043293909" flag="0"/>
    </comp>
    <comp name="--.HNN">
      <acc value="0.2478258166" flag="0"/>
      <vel value="0.1256294542" flag="0"/>
      <psa03 value="0.4599794566" flag="0"/>
      <psa10 value="0.1999459841" flag="0"/>
      <psa30 value="0.0126856794" flag="0"/>
    </comp>
  </station>
  <station code="VOL2" name="VOL2" netid="HI" insttype="CMG-5TD,ACCELEROMETER,GURALP" lat="39.366" lon="22.9506">
    <comp name="--.HNN">
      <acc value="0.0371709115" flag="0"/>
      <vel value="0.0229386273" flag="0"/>
      <psa03 value="0.0977425857" flag="0"/>
      <psa10 value="0.0193099670" flag="0"/>
      <psa30 value="0.0015240132" flag="0"/>
    </comp>
    <comp name="--.HNE">
      <acc value="0.0321115402" flag="0"/>
      <vel value="0.0173015099" flag="0"/>
      <psa03 value="0.0836483134" flag="0"/>
      <psa10 value="0.0143962902" flag="0"/>
      <psa30 value="0.0010170111" flag="0"/>
    </comp>
    <comp name="--.HNZ">
      <acc value="0.0238261886" flag="0"/>
      <vel value="0.0084618195" flag="0"/>
      <psa03 value="0.0453442055" flag="0"/>
      <psa10 value="0.0102613304" flag="0"/>
      <psa30 value="0.0008907960" flag="0"/>
    </comp>
  </station>
  <station code="EVR" name="EVR" netid="HL" insttype="DR24" lat="38.9166" lon="21.8105">
    <comp name="--.HHE">
      <acc value="0.7729060045" flag="0"/>
      <vel value="0.2891409687" flag="0"/>
      <psa03 value="0.8256087343" flag="0"/>
      <psa10 value="0.1092906996" flag="0"/>
      <psa30 value="0.0109612956" flag="0"/>
    </comp>
    <comp name="--.HHZ">
      <acc value="0.5117081791" flag="0"/>
      <vel value="0.1545209863" flag="0"/>
      <psa03 value="0.3925785654" flag="0"/>
      <psa10 value="0.1733328600" flag="0"/>
      <psa30 value="0.0132251233" flag="0"/>
    </comp>
    <comp name="--.HHN">
      <acc value="0.9716562754" flag="0"/>
      <vel value="0.2363677596" flag="0"/>
      <psa03 value="0.5354917722" flag="0"/>
      <psa10 value="0.0791215915" flag="0"/>
      <psa30 value="0.0063184715" flag="0"/>
    </comp>
  </station>
  <station code="JAN" name="JAN" netid="HL" insttype="CMG3EPSC60_DR24" lat="39.6562" lon="20.8487">
    <comp name="--.HHN">
      <acc value="0.0229397453" flag="0"/>
      <vel value="0.0118016676" flag="0"/>
      <psa03 value="0.0574309156" flag="0"/>
      <psa10 value="0.0103879674" flag="0"/>
      <psa30 value="0.0011294905" flag="0"/>
    </comp>
    <comp name="--.HHE">
      <acc value="0.0260592653" flag="0"/>
      <vel value="0.0182468060" flag="0"/>
      <psa03 value="0.1087115371" flag="0"/>
      <psa10 value="0.0167382675" flag="0"/>
      <psa30 value="0.0012609718" flag="0"/>
    </comp>
    <comp name="--.HHZ">
      <acc value="0.0131126874" flag="0"/>
      <vel value="0.0072329563" flag="0"/>
      <psa03 value="0.0359734747" flag="0"/>
      <psa10 value="0.0070797831" flag="0"/>
      <psa30 value="0.0009696813" flag="0"/>
    </comp>
  </station>
  <station code="KLV" name="KLV" netid="HL" insttype="120" lat="38.0435" lon="22.1504">
    <comp name="--.HHZ">
      <acc value="0.0100220820" flag="0"/>
      <vel value="0.0068323537" flag="0"/>
      <psa03 value="0.0203508179" flag="0"/>
      <psa10 value="0.0121998166" flag="0"/>
      <psa30 value="0.0005228712" flag="0"/>
    </comp>
    <comp name="--.HHE">
      <acc value="0.0080274583" flag="0"/>
      <vel value="0.0058943741" flag="0"/>
      <psa03 value="0.0218303867" flag="0"/>
      <psa10 value="0.0119303210" flag="0"/>
      <psa30 value="0.0005907934" flag="0"/>
    </comp>
    <comp name="--.HHN">
      <acc value="0.0084813523" flag="0"/>
      <vel value="0.0048961266" flag="0"/>
      <psa03 value="0.0239609432" flag="0"/>
      <psa10 value="0.0068655618" flag="0"/>
      <psa30 value="0.0005098129" flag="0"/>
    </comp>
  </station>
  <station code="PATC" name="PATC" netid="HL" insttype="CMG-5" lat="38.2693" lon="21.76">
    <comp name="00.HNN">
      <acc value="0.0663259558" flag="0"/>
      <vel value="0.0468670248" flag="0"/>
      <psa03 value="0.1730399132" flag="0"/>
      <psa10 value="0.0950897058" flag="0"/>
      <psa30 value="0.0117896241" flag="0"/>
    </comp>
    <comp name="00.HNE">
      <acc value="0.0647236535" flag="0"/>
      <vel value="0.0440910727" flag="0"/>
      <psa03 value="0.2028419572" flag="0"/>
      <psa10 value="0.0703605646" flag="0"/>
      <psa30 value="0.0102375167" flag="0"/>
    </comp>
    <comp name="00.HNZ">
      <acc value="0.0484346922" flag="0"/>
      <vel value="0.0250365401" flag="0"/>
      <psa03 value="0.1101140461" flag="0"/>
      <psa10 value="0.0443088981" flag="0"/>
      <psa30 value="0.0034268428" flag="0"/>
    </comp>
  </station>
  <station code="PATG" name="PATG" netid="HL" insttype="CMG-5" lat="38.2386" lon="21.7266">
    <comp name="00.HNE">
      <acc value="0.1075804585" flag="0"/>
      <vel value="0.1000889207" flag="0"/>
      <psa03 value="0.3326031881" flag="0"/>
      <psa10 value="0.1358411371" flag="0"/>
      <psa30 value="0.0094793486" flag="0"/>
    </comp>
    <comp name="00.HNZ">
      <acc value="0.0416790178" flag="0"/>
      <vel value="0.0360915593" flag="0"/>
      <psa03 value="0.1288591728" flag="0"/>
      <psa10 value="0.0340820212" flag="0"/>
      <psa30 value="0.0043351123" flag="0"/>
    </comp>
    <comp name="00.HNN">
      <acc value="0.1315694423" flag="0"/>
      <vel value="0.0909057813" flag="0"/>
      <psa03 value="0.4441625633" flag="0"/>
      <psa10 value="0.0716219106" flag="0"/>
      <psa30 value="0.0071724426" flag="0"/>
    </comp>
  </station>
  <station code="RIOA" name="RIOA" netid="HL" insttype="CMG-5" lat="38.2959" lon="21.7912">
    <comp name="00.HNE">
      <acc value="0.0558613059" flag="0"/>
      <vel value="0.0378013416" flag="0"/>
      <psa03 value="0.1251147787" flag="0"/>
      <psa10 value="0.0486488045" flag="0"/>
      <psa30 value="0.0041910304" flag="0"/>
    </comp>
    <comp name="00.HNZ">
      <acc value="0.0711966444" flag="0"/>
      <vel value="0.0270045636" flag="0"/>
      <psa03 value="0.0867615942" flag="0"/>
      <psa10 value="0.0279161701" flag="0"/>
      <psa30 value="0.0044464675" flag="0"/>
    </comp>
    <comp name="00.HNN">
      <acc value="0.0903845194" flag="0"/>
      <vel value="0.0445942163" flag="0"/>
      <psa03 value="0.1646598930" flag="0"/>
      <psa10 value="0.0578398171" flag="0"/>
      <psa30 value="0.0063644138" flag="0"/>
    </comp>
  </station>
  <station code="RLS" name="RLS" netid="HL" insttype="CMG3ESPC-120s" lat="38.0559" lon="21.4647">
    <comp name="--.HHE">
      <acc value="0.0224753489" flag="0"/>
      <vel value="0.0118753284" flag="0"/>
      <psa03 value="0.0578924842" flag="0"/>
      <psa10 value="0.0084225522" flag="0"/>
      <psa30 value="0.0007747524" flag="0"/>
    </comp>
    <comp name="--.HHZ">
      <acc value="0.0252681752" flag="0"/>
      <vel value="0.0075064337" flag="0"/>
      <psa03 value="0.0392290382" flag="0"/>
      <psa10 value="0.0074892507" flag="0"/>
      <psa30 value="0.0013091302" flag="0"/>
    </comp>
    <comp name="--.HHN">
      <acc value="0.0249185284" flag="0"/>
      <vel value="0.0118158108" flag="0"/>
      <psa03 value="0.0770071298" flag="0"/>
      <psa10 value="0.0120467826" flag="0"/>
      <psa30 value="0.0009712622" flag="0"/>
    </comp>
  </station>
  <station code="TETR" name="TETR" netid="HL" insttype="60" lat="39.3445" lon="21.2747">
    <comp name="--.HHE">
      <acc value="0.1671908106" flag="0"/>
      <vel value="0.0822623634" flag="0"/>
      <psa03 value="0.4594225446" flag="0"/>
      <psa10 value="0.0550575699" flag="0"/>
      <psa30 value="0.0035293183" flag="0"/>
    </comp>
    <comp name="--.HHN">
      <acc value="0.1710954791" flag="0"/>
      <vel value="0.0559435002" flag="0"/>
      <psa03 value="0.2248663754" flag="0"/>
      <psa10 value="0.0688440145" flag="0"/>
      <psa30 value="0.0022715040" flag="0"/>
    </comp>
    <comp name="--.HHZ">
      <acc value="0.0746330910" flag="0"/>
      <vel value="0.0285624812" flag="0"/>
      <psa03 value="0.1571960324" flag="0"/>
      <psa10 value="0.0289537538" flag="0"/>
      <psa30 value="0.0015803178" flag="0"/>
    </comp>
  </station>
  <station code="THL" name="THL" netid="HL" insttype="120" lat="39.5647" lon="22.0144">
    <comp name="--.HHZ">
      <acc value="0.0170933385" flag="0"/>
      <vel value="0.0104853157" flag="0"/>
      <psa03 value="0.0691831199" flag="0"/>
      <psa10 value="0.0069580231" flag="0"/>
      <psa30 value="0.0016795445" flag="0"/>
    </comp>
    <comp name="--.HHE">
      <acc value="0.0270824292" flag="0"/>
      <vel value="0.0147527410" flag="0"/>
      <psa03 value="0.0704664344" flag="0"/>
      <psa10 value="0.0144254739" flag="0"/>
      <psa30 value="0.0015711573" flag="0"/>
    </comp>
    <comp name="--.HHN">
      <acc value="0.0307475304" flag="0"/>
      <vel value="0.0149829704" flag="0"/>
      <psa03 value="0.0796221072" flag="0"/>
      <psa10 value="0.0092086312" flag="0"/>
      <psa30 value="0.0012988473" flag="0"/>
    </comp>
  </station>
  <station code="VLS" name="VLS" netid="HL" insttype="120P," lat="38.1768" lon="20.5886">
    <comp name="--.HHE">
      <acc value="0.0327593586" flag="0"/>
      <vel value="0.0109621726" flag="0"/>
      <psa03 value="0.0514136517" flag="0"/>
      <psa10 value="0.0142562754" flag="0"/>
      <psa30 value="0.0008087397" flag="0"/>
    </comp>
    <comp name="--.HHN">
      <acc value="0.0221940688" flag="0"/>
      <vel value="0.0154256963" flag="0"/>
      <psa03 value="0.0435607139" flag="0"/>
      <psa10 value="0.0122122959" flag="0"/>
      <psa30 value="0.0009315878" flag="0"/>
    </comp>
    <comp name="--.HHZ">
      <acc value="0.0193194483" flag="0"/>
      <vel value="0.0078557664" flag="0"/>
      <psa03 value="0.0409222195" flag="0"/>
      <psa10 value="0.0092683849" flag="0"/>
      <psa30 value="0.0009703946" flag="0"/>
    </comp>
  </station>
  <station code="AMPL" name="AMPL" netid="HP" insttype="Compact," lat="38.9224" lon="21.2135">
    <comp name="--.HHZ">
      <acc value="0.1216051509" flag="0"/>
      <vel value="0.0398010680" flag="0"/>
      <psa03 value="0.3021134390" flag="0"/>
      <psa10 value="0.0600791592" flag="0"/>
      <psa30 value="0.0026156229" flag="0"/>
    </comp>
    <comp name="--.HHN">
      <acc value="0.2061178559" flag="0"/>
      <vel value="0.0702968148" flag="0"/>
      <psa03 value="0.2562251304" flag="0"/>
      <psa10 value="0.0537716825" flag="0"/>
      <psa30 value="0.0060579708" flag="0"/>
    </comp>
    <comp name="--.HHE">
      <acc value="0.2070263634" flag="0"/>
      <vel value="0.0763731126" flag="0"/>
      <psa03 value="0.4478838955" flag="0"/>
      <psa10 value="0.0786699130" flag="0"/>
      <psa30 value="0.0055119543" flag="0"/>
    </comp>
  </station>
  <station code="AMT" name="AMT" netid="HP" insttype="CMG-3T," lat="37.5324" lon="21.7089">
    <comp name="00.HHE">
      <acc value="0.0110287585" flag="0"/>
      <vel value="0.0125996440" flag="0"/>
      <psa03 value="0.0298357093" flag="0"/>
      <psa10 value="0.0151651625" flag="0"/>
      <psa30 value="0.0012301678" flag="0"/>
    </comp>
    <comp name="00.HHN">
      <acc value="0.0178927330" flag="0"/>
      <vel value="0.0158792219" flag="0"/>
      <psa03 value="0.0423195903" flag="0"/>
      <psa10 value="0.0170522299" flag="0"/>
      <psa30 value="0.0011795429" flag="0"/>
    </comp>
    <comp name="00.HHZ">
      <acc value="0.0078662853" flag="0"/>
      <vel value="0.0061491892" flag="0"/>
      <psa03 value="0.0300902761" flag="0"/>
      <psa10 value="0.0070753120" flag="0"/>
      <psa30 value="0.0006395272" flag="0"/>
    </comp>
  </station>
  <station code="ANX" name="ANX" netid="HP" insttype="120" lat="38.5933" lon="21.9209">
    <comp name="--.HHE">
      <acc value="0.1759724873" flag="0"/>
      <vel value="0.0886398820" flag="0"/>
      <psa03 value="0.6995930563" flag="0"/>
      <psa10 value="0.0524304937" flag="0"/>
      <psa30 value="0.0030417512" flag="0"/>
    </comp>
    <comp name="--.HHN">
      <acc value="0.2337201232" flag="0"/>
      <vel value="0.1143681873" flag="0"/>
      <psa03 value="0.9202574207" flag="0"/>
      <psa10 value="0.0553142515" flag="0"/>
      <psa30 value="0.0036412759" flag="0"/>
    </comp>
    <comp name="--.HHZ">
      <acc value="0.1131502727" flag="0"/>
      <vel value="0.0481609687" flag="0"/>
      <psa03 value="0.4633100123" flag="0"/>
      <psa10 value="0.0264486629" flag="0"/>
      <psa30 value="0.0019585351" flag="0"/>
    </comp>
  </station>
  <station code="AXS" name="AXS" netid="HP" insttype="40," lat="38.1962" lon="21.3763">
    <comp name="--.HHE">
      <acc value="0.0597086776" flag="0"/>
      <vel value="0.0254337358" flag="0"/>
      <psa03 value="0.1575231464" flag="0"/>
      <psa10 value="0.0193591996" flag="0"/>
      <psa30 value="0.0011234038" flag="0"/>
    </comp>
    <comp name="--.HHZ">
      <acc value="0.0258168400" flag="0"/>
      <vel value="0.0154142221" flag="0"/>
      <psa03 value="0.0579210260" flag="0"/>
      <psa10 value="0.0121252709" flag="0"/>
      <psa30 value="0.0009118563" flag="0"/>
    </comp>
    <comp name="--.HHN">
      <acc value="0.0591854174" flag="0"/>
      <vel value="0.0268195064" flag="0"/>
      <psa03 value="0.1221271317" flag="0"/>
      <psa10 value="0.0132354625" flag="0"/>
      <psa30 value="0.0011086045" flag="0"/>
    </comp>
  </station>
  <station code="DRO" name="DRO" netid="HP" insttype="120P," lat="37.952" lon="21.71">
    <comp name="--.HHE">
      <acc value="0.0476007302" flag="0"/>
      <vel value="0.0229283317" flag="0"/>
      <psa03 value="0.1360467067" flag="0"/>
      <psa10 value="0.0217580154" flag="0"/>
      <psa30 value="0.0013639700" flag="0"/>
    </comp>
    <comp name="--.HHN">
      <acc value="0.0296565662" flag="0"/>
