<stationlist created="1631873489">
	<station code="MALA" name="MALA" netid="CL" source="Corinth Riff Laboratory (CRLNET)" insttype="" lat="38.39341" lon="21.87263">
		<comp name="01.HNE" depth="0.0">
			<acc value="0.13117149" flag="0"/>
			<vel value="-0.12359" flag="0"/>
			<psa03 value="0.336685104802" flag="0"/>
			<psa10 value="0.167192677691" flag="0"/>
			<psa30 value="0.0129367616216" flag="0"/>
		</comp>
		<comp name="01.HNN" depth="0.0">
			<acc value="-0.130067952" flag="0"/>
			<vel value="-0.085231" flag="0"/>
			<psa03 value="0.253822538145" flag="0"/>
			<psa10 value="0.128926010637" flag="0"/>
			<psa30 value="0.0070876129504" flag="0"/>
		</comp>
		<comp name="01.HNZ" depth="0.0">
			<acc value="-0.046486704" flag="0"/>
			<vel value="0.042745" flag="0"/>
			<psa03 value="0.123891170126" flag="0"/>
			<psa10 value="0.0709723252482" flag="0"/>
			<psa30 value="0.0036330671774" flag="0"/>
		</comp>
	</station>
	<station code="ROD3" name="ROD3" netid="CL" source="Corinth Riff Laboratory (CRLNET)" insttype="" lat="38.30811" lon="21.89204">
		<comp name="--.HNE" depth="0.0">
			<acc value="0.09223758" flag="0"/>
			<vel value="-0.039077" flag="0"/>
			<psa03 value="0.385498852223" flag="0"/>
			<psa10 value="0.0475081698314" flag="0"/>
			<psa30 value="0.00313821837221" flag="0"/>
		</comp>
		<comp name="--.HNN" depth="0.0">
			<acc value="0.08133174" flag="0"/>
			<vel value="-0.038657" flag="0"/>
			<psa03 value="0.266932004685" flag="0"/>
			<psa10 value="0.0373002353915" flag="0"/>
			<psa30 value="0.00305812982236" flag="0"/>
		</comp>
		<comp name="--.HNZ" depth="0.0">
			<acc value="-0.041525118" flag="0"/>
			<vel value="-0.014276" flag="0"/>
			<psa03 value="0.0659052703487" flag="0"/>
			<psa10 value="0.0207500931634" flag="0"/>
			<psa30 value="0.000897976086829" flag="0"/>
		</comp>
	</station>
	<station code="ART2" name="ART2" netid="HI" source="ITSAK Strong Motion Network" insttype="" lat="39.1474" lon="20.9937">
		<comp name="--.HNE" depth="0.0">
			<acc value="0.043534416" flag="0"/>
			<vel value="0.01151" flag="0"/>
			<psa03 value="0.0637129022244" flag="0"/>
			<psa10 value="0.0164937670478" flag="0"/>
			<psa30 value="0.000902002885424" flag="0"/>
		</comp>
		<comp name="--.HNN" depth="0.0">
			<acc value="-0.037097502" flag="0"/>
			<vel value="0.014494" flag="0"/>
			<psa03 value="0.0556593050331" flag="0"/>
			<psa10 value="0.0129944790681" flag="0"/>
			<psa30 value="0.00109752632835" flag="0"/>
		</comp>
		<comp name="--.HNZ" depth="0.0">
			<acc value="0.0404583" flag="0"/>
			<vel value="-0.010132" flag="0"/>
			<psa03 value="0.0431762293866" flag="0"/>
			<psa10 value="0.0104737031473" flag="0"/>
			<psa30 value="0.000935559540388" flag="0"/>
		</comp>
	</station>
	<station code="KLV1" name="KLV1" netid="HI" source="ITSAK Strong Motion Network" insttype="" lat="38.03256" lon="22.10797">
		<comp name="--.HNE" depth="0.0">
			<acc value="-0.026216448" flag="0"/>
			<vel value="-0.017057" flag="0"/>
			<psa03 value="0.122190966275" flag="0"/>
			<psa10 value="0.0173031535655" flag="0"/>
			<psa30 value="0.00117448292373" flag="0"/>
		</comp>
		<comp name="--.HNN" depth="0.0">
			<acc value="0.027984006" flag="0"/>
			<vel value="0.016892" flag="0"/>
			<psa03 value="0.0800438076401" flag="0"/>
			<psa10 value="0.028630538015" flag="0"/>
			<psa30 value="0.00122280450688" flag="0"/>
		</comp>
		<comp name="--.HNZ" depth="0.0">
			<acc value="0.015208302" flag="0"/>
			<vel value="-0.009389" flag="0"/>
			<psa03 value="0.030245731674" flag="0"/>
			<psa10 value="0.0185434075329" flag="0"/>
			<psa30 value="0.00100177800618" flag="0"/>
		</comp>
	</station>
	<station code="KRK1" name="KRK1" netid="HI" source="ITSAK Strong Motion Network" insttype="" lat="39.618861" lon="19.9202">
		<comp name="--.HNE" depth="0.0">
			<acc value="-0.020030454" flag="0"/>
			<vel value="-0.013774" flag="0"/>
			<psa03 value="0.0538248745618" flag="0"/>
			<psa10 value="0.00645898494741" flag="0"/>
			<psa30 value="0.00093421727419" flag="0"/>
		</comp>
		<comp name="--.HNN" depth="0.0">
			<acc value="0.02014398" flag="0"/>
			<vel value="0.014877" flag="0"/>
			<psa03 value="0.0466213792962" flag="0"/>
			<psa10 value="0.00764286373453" flag="0"/>
			<psa30 value="0.000923926566667" flag="0"/>
		</comp>
		<comp name="--.HNZ" depth="0.0">
			<acc value="-0.008705496" flag="0"/>
			<vel value="0.004522" flag="0"/>
			<psa03 value="0.0334224283438" flag="0"/>
			<psa10 value="0.00273419624644" flag="0"/>
			<psa30 value="0.000278296525166" flag="0"/>
		</comp>
	</station>
	<station code="LMS2" name="LMS2" netid="HI" source="ITSAK Strong Motion Network" insttype="" lat="40.834985" lon="21.141815">
		<comp name="--.HNE" depth="0.0">
			<acc value="-0.006636222" flag="0"/>
			<vel value="-0.004203" flag="0"/>
			<psa03 value="0.0128410132994" flag="0"/>
			<psa10 value="0.00482813151618" flag="0"/>
			<psa30 value="0.000561514693059" flag="0"/>
		</comp>
		<comp name="--.HNN" depth="0.0">
			<acc value="0.005464038" flag="0"/>
			<vel value="-0.003231" flag="0"/>
			<psa03 value="0.0101564809023" flag="0"/>
			<psa10 value="0.00482410471758" flag="0"/>
			<psa30 value="0.000304247005004" flag="0"/>
		</comp>
		<comp name="--.HNZ" depth="0.0">
			<acc value="-0.00265914" flag="0"/>
			<vel value="0.001871" flag="0"/>
			<psa03 value="0.00729297967878" flag="0"/>
			<psa10 value="0.0024039987616" flag="0"/>
			<psa30 value="0.000487690052139" flag="0"/>
		</comp>
	</station>
	<station code="MSL1" name="MSL1" netid="HI" source="ITSAK Strong Motion Network" insttype="" lat="38.3727" lon="21.4243">
		<comp name="--.HNE" depth="0.0">
			<acc value="0.220412004" flag="0"/>
			<vel value="-0.090261" flag="0"/>
			<psa03 value="0.452433193324" flag="0"/>
			<psa10 value="0.186287756632" flag="0"/>
			<psa30 value="0.00858647687211" flag="0"/>
		</comp>
		<comp name="--.HNN" depth="0.0">
			<acc value="0.248805234" flag="0"/>
			<vel value="-0.124766" flag="0"/>
			<psa03 value="0.460263079482" flag="0"/>
			<psa10 value="0.200276854953" flag="0"/>
			<psa30 value="0.0135944720589" flag="0"/>
		</comp>
		<comp name="--.HNZ" depth="0.0">
			<acc value="0.136456212" flag="0"/>
			<vel value="0.058369" flag="0"/>
			<psa03 value="0.18219026535" flag="0"/>
			<psa10 value="0.0932244142878" flag="0"/>
			<psa30 value="0.00469479974046" flag="0"/>
		</comp>
	</station>
	<station code="PYL1" name="PYL1" netid="HI" source="ITSAK Strong Motion Network" insttype="" lat="36.914188" lon="21.695161">
		<comp name="--.HNE" depth="0.0">
			<acc value="-0.003341316" flag="0"/>
			<vel value="0.003421" flag="0"/>
			<psa03 value="0.00859050367071" flag="0"/>
			<psa10 value="0.00691803998732" flag="0"/>
			<psa30 value="0.000431762293866" flag="0"/>
		</comp>
		<comp name="--.HNN" depth="0.0">
			<acc value="-0.00221187" flag="0"/>
			<vel value="-0.002721" flag="0"/>
			<psa03 value="0.0041610252155" flag="0"/>
			<psa10 value="0.0045261216215" flag="0"/>
			<psa30 value="0.000725718591348" flag="0"/>
		</comp>
		<comp name="--.HNZ" depth="0.0">
			<acc value="-0.002145366" flag="0"/>
			<vel value="0.003277" flag="0"/>
			<psa03 value="0.00545854920743" flag="0"/>
			<psa10 value="0.00476772953724" flag="0"/>
			<psa30 value="0.000787462836482" flag="0"/>
		</comp>
	</station>
	<station code="SKO1" name="SKO1" netid="HI" source="ITSAK Strong Motion Network" insttype="" lat="39.123383" lon="23.728705">
		<comp name="--.HNE" depth="0.0">
			<acc value="0.003716064" flag="0"/>
			<vel value="-0.001955" flag="0"/>
			<psa03 value="0.0149438970105" flag="0"/>
			<psa10 value="0.00354760956276" flag="0"/>
			<psa30 value="0.000232212052349" flag="0"/>
		</comp>
		<comp name="--.HNN" depth="0.0">
			<acc value="-0.002828868" flag="0"/>
			<vel value="-0.00241" flag="0"/>
			<psa03 value="0.010201223109" flag="0"/>
			<psa10 value="0.00280265182257" flag="0"/>
			<psa30 value="0.000402232437498" flag="0"/>
		</comp>
		<comp name="--.HNZ" depth="0.0">
			<acc value="-0.002123946" flag="0"/>
			<vel value="-0.001626" flag="0"/>
			<psa03 value="0.00568226024052" flag="0"/>
			<psa10 value="0.00404693258862" flag="0"/>
			<psa30 value="0.000395073684439" flag="0"/>
		</comp>
	</station>
	<station code="VAS2" name="VAS2" netid="HI" source="ITSAK Strong Motion Network" insttype="" lat="38.630558" lon="20.608081">
		<comp name="--.HNE" depth="0.0">
			<acc value="0.148991196" flag="0"/>
			<vel value="0.108187" flag="0"/>
			<psa03 value="0.509211053523" flag="0"/>
			<psa10 value="0.171014109558" flag="0"/>
			<psa30 value="0.00707419028841" flag="0"/>
		</comp>
		<comp name="--.HNN" depth="0.0">
			<acc value="0.189187662" flag="0"/>
			<vel value="0.143644" flag="0"/>
			<psa03 value="0.746881655079" flag="0"/>
			<psa10 value="0.238954255464" flag="0"/>
			<psa30 value="0.00979138449634" flag="0"/>
		</comp>
		<comp name="--.HNZ" depth="0.0">
			<acc value="0.092732076" flag="0"/>
			<vel value="-0.076337" flag="0"/>
			<psa03 value="0.26831901309" flag="0"/>
			<psa10 value="0.0790822976199" flag="0"/>
			<psa30 value="0.00415476130657" flag="0"/>
		</comp>
	</station>
	<station code="VOL2" name="VOL2" netid="HI" source="ITSAK Strong Motion Network" insttype="" lat="39.366" lon="22.9506">
		<comp name="--.HNE" depth="0.0">
			<acc value="-0.032100114" flag="0"/>
			<vel value="-0.017507" flag="0"/>
			<psa03 value="0.0843390594754" flag="0"/>
			<psa10 value="0.0144078853752" flag="0"/>
			<psa30 value="0.00125725600597" flag="0"/>
		</comp>
		<comp name="--.HNN" depth="0.0">
			<acc value="0.037143504" flag="0"/>
			<vel value="-0.023096" flag="0"/>
			<psa03 value="0.0998198629654" flag="0"/>
			<psa10 value="0.0193447404535" flag="0"/>
			<psa30 value="0.00162637921057" flag="0"/>
		</comp>
		<comp name="--.HNZ" depth="0.0">
			<acc value="-0.023717958" flag="0"/>
			<vel value="-0.00853" flag="0"/>
			<psa03 value="0.0464871526764" flag="0"/>
			<psa10 value="0.0102924972105" flag="0"/>
			<psa30 value="0.00108768304289" flag="0"/>
		</comp>
	</station>
	<station code="DLFA" name="DLFA" netid="HL" source="National Observatory of Athens Seismic Network" insttype="" lat="38.47836" lon="22.49583">
		<comp name="--.HNE" depth="0.0">
			<acc value="0.039140052" flag="0"/>
			<vel value="-0.018838" flag="0"/>
			<psa03 value="0.0679634118532" flag="0"/>
			<psa10 value="0.0225178577468" flag="0"/>
			<psa30 value="0.00113958400257" flag="0"/>
		</comp>
		<comp name="--.HNN" depth="0.0">
			<acc value="-0.034343094" flag="0"/>
			<vel value="0.01292" flag="0"/>
			<psa03 value="0.0650999106296" flag="0"/>
			<psa10 value="0.0202346629431" flag="0"/>
			<psa30 value="0.000804912297063" flag="0"/>
		</comp>
		<comp name="--.HNZ" depth="0.0">
			<acc value="0.0290445" flag="0"/>
			<vel value="0.008346" flag="0"/>
			<psa03 value="0.0475162234286" flag="0"/>
			<psa10 value="0.0112669824706" flag="0"/>
			<psa30 value="0.000928400787329" flag="0"/>
		</comp>
	</station>
	<station code="ITM" name="ITM" netid="HL" source="National Observatory of Athens Seismic Network" insttype="" lat="37.17872" lon="21.92522">
		<comp name="--.HNE" depth="0.0">
			<acc value="-0.004475148" flag="0"/>
			<vel value="-0.005049" flag="0"/>
			<psa03 value="0.00966431662955" flag="0"/>
			<psa10 value="0.0061005998724" flag="0"/>
			<psa30 value="0.00142235474839" flag="0"/>
		</comp>
		<comp name="--.HNN" depth="0.0">
			<acc value="-0.004127838" flag="0"/>
			<vel value="0.004949" flag="0"/>
			<psa03 value="0.0093063789766" flag="0"/>
			<psa10 value="0.00769923891487" flag="0"/>
			<psa30 value="0.000782541193754" flag="0"/>
		</comp>
		<comp name="--.HNZ" depth="0.0">
			<acc value="-0.004352952" flag="0"/>
			<vel value="-0.004301" flag="0"/>
			<psa03 value="0.00926163676998" flag="0"/>
			<psa10 value="0.00726837146514" flag="0"/>
			<psa30 value="0.0010134109799" flag="0"/>
		</comp>
	</station>
	<station code="JAN" name="JAN" netid="HL" source="National Observatory of Athens Seismic Network" insttype="" lat="39.65616" lon="20.84874">
		<comp name="--.HNE" depth="0.0">
			<acc value="-0.026508474" flag="0"/>
			<vel value="0.018392" flag="0"/>
			<psa03 value="0.108813046496" flag="0"/>
			<psa10 value="0.0168803397129" flag="0"/>
			<psa30 value="0.0013825341845" flag="0"/>
		</comp>
		<comp name="--.HNN" depth="0.0">
			<acc value="0.022697244" flag="0"/>
			<vel value="0.011846" flag="0"/>
			<psa03 value="0.0577174465376" flag="0"/>
			<psa10 value="0.0102200148357" flag="0"/>
			<psa30 value="0.0013243693159" flag="0"/>
		</comp>
		<comp name="--.HNZ" depth="0.0">
			<acc value="-0.01273266" flag="0"/>
			<vel value="0.007037" flag="0"/>
			<psa03 value="0.0359727341211" flag="0"/>
			<psa10 value="0.00695428117468" flag="0"/>
			<psa30 value="0.00107202327057" flag="0"/>
		</comp>
	</station>
	<station code="KYMI" name="KYMI" netid="HL" source="National Observatory of Athens Seismic Network" insttype="" lat="38.633147" lon="24.100138">
		<comp name="--.HNE" depth="1.0">
			<acc value="0.001729002" flag="0"/>
			<vel value="0.001322" flag="0"/>
			<psa03 value="0.00402679859564" flag="0"/>
			<psa10 value="0.00213420325569" flag="0"/>
			<psa30 value="0.000259952220452" flag="0"/>
		</comp>
		<comp name="--.HNN" depth="1.0">
			<acc value="-0.00166005" flag="0"/>
			<vel value="-0.001427" flag="0"/>
			<psa03 value="0.00653236216627" flag="0"/>
			<psa10 value="0.00210198886693" flag="0"/>
			<psa30 value="0.000254135733592" flag="0"/>
		</comp>
		<comp name="--.HNZ" depth="1.0">
			<acc value="-0.000977976" flag="0"/>
			<vel value="0.000935" flag="0"/>
			<psa03 value="0.00272927460371" flag="0"/>
			<psa10 value="0.0013892455155" flag="0"/>
			<psa30 value="0.000230422364084" flag="0"/>
		</comp>
	</station>
	<station code="PATC" name="PATC" netid="HL" source="National Observatory of Athens Seismic Network" insttype="" lat="38.26933" lon="21.76001">
		<comp name="--.HNE" depth="0.0">
			<acc value="0.064547334" flag="0"/>
			<vel value="-0.045745" flag="0"/>
			<psa03 value="0.20335332908" flag="0"/>
			<psa10 value="0.0708193069016" flag="0"/>
			<psa30 value="0.0110334281521" flag="0"/>
		</comp>
		<comp name="--.HNN" depth="0.0">
			<acc value="0.066245022" flag="0"/>
			<vel value="-0.043546" flag="0"/>
			<psa03 value="0.174315636985" flag="0"/>
			<psa10 value="0.0948673481148" flag="0"/>
			<psa30 value="0.0123224511247" flag="0"/>
		</comp>
		<comp name="--.HNZ" depth="0.0">
			<acc value="-0.0483021" flag="0"/>
			<vel value="0.024812" flag="0"/>
			<psa03 value="0.109976343868" flag="0"/>
			<psa10 value="0.0443390793366" flag="0"/>
			<psa30 value="0.00373731651882" flag="0"/>
		</comp>
	</station>
	<station code="PATG" name="PATG" netid="HL" source="National Observatory of Athens Seismic Network" insttype="" lat="38.23865" lon="21.72657">
		<comp name="--.HNE" depth="0.0">
			<acc value="-0.107458326" flag="0"/>
			<vel value="0.100562" flag="0"/>
			<psa03 value="0.332658306207" flag="0"/>
			<psa10 value="0.136073578144" flag="0"/>
			<psa30 value="0.0113698895458" flag="0"/>
		</comp>
		<comp name="--.HNN" depth="0.0">
			<acc value="-0.131418024" flag="0"/>
			<vel value="-0.089659" flag="0"/>
			<psa03 value="0.444469080546" flag="0"/>
			<psa10 value="0.0711011828033" flag="0"/>
			<psa30 value="0.00824822579008" flag="0"/>
		</comp>
		<comp name="--.HNZ" depth="0.0">
			<acc value="-0.041527464" flag="0"/>
			<vel value="-0.035835" flag="0"/>
			<psa03 value="0.128812812854" flag="0"/>
			<psa10 value="0.0339861801472" flag="0"/>
			<psa30 value="0.00487958505379" flag="0"/>
		</comp>
	</station>
	<station code="RIOA" name="RIOA" netid="HL" source="National Observatory of Athens Seismic Network" insttype="" lat="38.29585" lon="21.79118">
		<comp name="--.HNE" depth="0.0">
			<acc value="-0.056017074" flag="0"/>
			<vel value="-0.038235" flag="0"/>
			<psa03 value="0.125815085011" flag="0"/>
			<psa10 value="0.0485511106677" flag="0"/>
			<psa30 value="0.00468674614326" flag="0"/>
		</comp>
		<comp name="--.HNN" depth="0.0">
			<acc value="-0.090296418" flag="0"/>
			<vel value="-0.042774" flag="0"/>
			<psa03 value="0.163980187256" flag="0"/>
			<psa10 value="0.0583241508593" flag="0"/>
			<psa30 value="0.00725315911489" flag="0"/>
		</comp>
		<comp name="--.HNZ" depth="0.0">
			<acc value="-0.07175853" flag="0"/>
			<vel value="0.026015" flag="0"/>
			<psa03 value="0.0867103964262" flag="0"/>
			<psa10 value="0.0279661162468" flag="0"/>
			<psa30 value="0.00500441581025" flag="0"/>
		</comp>
	</station>
	<station code="ANX" name="ANX" netid="HP" source="University of Patras, Seismological Laboratory (PSLNET)" insttype="" lat="38.5933" lon="21.9209">
		<comp name="--.HNE" depth="0.0">
			<acc value="0.22159755" flag="0"/>
			<vel value="0.108938" flag="0"/>
			<psa03 value="0.842674719449" flag="0"/>
			<psa10 value="0.0647187070292" flag="0"/>
			<psa30 value="0.00414894481971" flag="0"/>
		</comp>
		<comp name="--.HNN" depth="0.0">
			<acc value="0.290167662" flag="0"/>
			<vel value="0.143305" flag="0"/>
			<psa03 value="1.1661608733" flag="0"/>
			<psa10 value="0.0678394759408" flag="0"/>
			<psa30 value="0.00456370507506" flag="0"/>
		</comp>
		<comp name="--.HNZ" depth="0.0">
			<acc value="0.138153696" flag="0"/>
			<vel value="0.058022" flag="0"/>
			<psa03 value="0.559680262588" flag="0"/>
			<psa10 value="0.0324237822921" flag="0"/>
			<psa30 value="0.00230243395258" flag="0"/>
		</comp>
	</station>
	<station code="LTK" name="LTK" netid="HP" source="University of Patras, Seismological Laboratory (PSLNET)" insttype="" lat="38.0228" lon="22.9673">
		<comp name="--.HNE" depth="0.0">
			<acc value="0.006462414" flag="0"/>
			<vel value="0.004636" flag="0"/>
			<psa03 value="0.016644100862" flag="0"/>
			<psa10 value="0.0061932162401" flag="0"/>
			<psa30 value="0.00073377218854" flag="0"/>
		</comp>
		<comp name="--.HNN" depth="0.0">
			<acc value="0.005532582" flag="0"/>
			<vel value="-0.004119" flag="0"/>
			<psa03 value="0.0207603838709" flag="0"/>
			<psa10 value="0.0067489144463" flag="0"/>
			<psa30 value="0.00057672704331" flag="0"/>
		</comp>
		<comp name="--.HNZ" depth="0.0">
			<acc value="0.00414375" flag="0"/>
			<vel value="0.002923" flag="0"/>
			<psa03 value="0.0155702879032" flag="0"/>
			<psa10 value="0.00351942197259" flag="0"/>
			<psa30 value="0.000529300304294" flag="0"/>
		</comp>
	</station>
	<station code="PDO" name="PDO" netid="HP" source="University of Patras, Seismological Laboratory (PSLNET)" insttype="" lat="38.5986" lon="21.1833">
		<comp name="--.HNE" depth="0.0">
			<acc value="0.181322442" flag="0"/>
			<vel value="-0.086676" flag="0"/>
			<psa03 value="0.581022295145" flag="0"/>
			<psa10 value="0.0836084192414" flag="0"/>
			<psa30 value="0.00512298265779" flag="0"/>
		</comp>
		<comp name="--.HNN" depth="0.0">
			<acc value="-0.352486908" flag="0"/>
			<vel value="-0.163118" flag="0"/>
			<psa03 value="0.778559137365" flag="0"/>
			<psa10 value="0.065238164048" flag="0"/>
			<psa30 value="0.00428048690717" flag="0"/>
		</comp>
		<comp name="--.HNZ" depth="0.0">
			<acc value="-0.171298698" flag="0"/>
			<vel value="-0.063279" flag="0"/>
			<psa03 value="0.35140529078" flag="0"/>
			<psa10 value="0.0313929218516" flag="0"/>
			<psa30 value="0.00234807100333" flag="0"/>
		</comp>
	</station>
	<station code="PVO" name="PVO" netid="HP" source="University of Patras, Seismological Laboratory (PSLNET)" insttype="" lat="38.616" lon="21.525">
		<comp name="--.HNE" depth="0.0">
			<acc value="0.260119788" flag="0"/>
			<vel value="0.108118" flag="0"/>
			<psa03 value="0.585093835947" flag="0"/>
			<psa10 value="0.128499169986" flag="0"/>
			<psa30 value="0.0154964632622" flag="0"/>
		</comp>
		<comp name="--.HNN" depth="0.0">
			<acc value="-0.206743902" flag="0"/>
			<vel value="0.102836" flag="0"/>
			<psa03 value="0.450732989472" flag="0"/>
			<psa10 value="0.155998177595" flag="0"/>
			<psa30 value="0.0104437258688" flag="0"/>
		</comp>
		<comp name="--.HNZ" depth="0.0">
