<stationlist created="1778723806">
	<station code="4804" name="4804" netid="TK" source="Turkish National Strong Motion Network (TNSMN)" insttype="" lat="36.96996" lon="28.68684">
		<comp name="00.HNE" depth="None">
			<acc value="0.335182138395679" flag="0"/>
			<vel value="0.067383860223256" flag="0"/>
			<psa03 value="0.230332879670863" flag="0"/>
			<psa10 value="0.0528879727551943" flag="0"/>
			<psa30 value="0.00310018749658005" flag="0"/>
		</comp>
		<comp name="00.HNN" depth="None">
			<acc value="0.448161953934206" flag="0"/>
			<vel value="0.0881086077232366" flag="0"/>
			<psa03 value="0.368317844881613" flag="0"/>
			<psa10 value="0.0544584242074956" flag="0"/>
			<psa30 value="0.00289750530059928" flag="0"/>
		</comp>
		<comp name="00.HNZ" depth="None">
			<acc value="0.193151414110022" flag="0"/>
			<vel value="0.0384063907173762" flag="0"/>
			<psa03 value="0.164875031388331" flag="0"/>
			<psa10 value="0.0201058053880528" flag="0"/>
			<psa30 value="0.00239236578787899" flag="0"/>
		</comp>
	</station>
</stationlist>
