<?xml version="1.0" encoding="UTF-8" standalone="yes"?>
<!DOCTYPE earthquake SYSTEM "stationlist.dtd">
<stationlist created="" xmlns="ch.ethz.sed.shakemap.usgs.xml">
  <station code="KAVV" name="KAVV" netid="KO" insttype="CMG-5T" commtype="DIG" lat="41.0638" lon="29.06">
    <comp name="--.HNE">
      <acc value="0.2858827079" flag="0"/>
      <vel value="0.0830267930" flag="0"/>
      <psa03 value="0.2006581070" flag="0"/>
      <psa10 value="0.0289134079" flag="0"/>
      <psa30 value="0.0522553465" flag="0"/>
    </comp>
    <comp name="--.HNZ">
      <acc value="0.1724042751" flag="0"/>
      <vel value="0.0550002096" flag="0"/>
      <psa03 value="0.1377074593" flag="0"/>
      <psa10 value="0.0251084645" flag="0"/>
      <psa30 value="0.0359880255" flag="0"/>
    </comp>
    <comp name="--.HNN">
      <acc value="0.1771048578" flag="0"/>
      <vel value="0.0768530860" flag="0"/>
      <psa03 value="0.1835934113" flag="0"/>
      <psa10 value="0.0324792114" flag="0"/>
      <psa30 value="0.0372374000" flag="0"/>
    </comp>
  </station>
  <station code="SILV" name="SILV" netid="KO" insttype="ACEBOX" commtype="DIG" lat="41.0723" lon="28.239">
    <comp name="--.HNE">
      <acc value="0.6914309300" flag="0"/>
      <vel value="0.2767372717" flag="0"/>
      <psa03 value="0.7153006133" flag="0"/>
      <psa10 value="0.1977374424" flag="0"/>
      <psa30 value="0.1464800192" flag="0"/>
    </comp>
    <comp name="--.HNN">
      <acc value="0.3523638843" flag="0"/>
      <vel value="0.2027006800" flag="0"/>
      <psa03 value="0.4393177226" flag="0"/>
      <psa10 value="0.1019718855" flag="0"/>
      <psa30 value="0.1415844078" flag="0"/>
    </comp>
    <comp name="--.HNZ">
      <acc value="0.2782986994" flag="0"/>
      <vel value="0.1235367823" flag="0"/>
      <psa03 value="0.1031134186" flag="0"/>
      <psa10 value="0.0830083281" flag="0"/>
      <psa30 value="0.0986710800" flag="0"/>
    </comp>
  </station>
</stationlist>
