<?xml version="1.0" encoding="UTF-8" standalone="yes"?>
<!DOCTYPE earthquake SYSTEM "stationlist.dtd">
<stationlist created="" xmlns="ch.ethz.sed.shakemap.usgs.xml">
  <station code="KAVV" name="KAVV" netid="KO" insttype="CMG-5T" commtype="DIG" lat="41.0638" lon="29.06">
    <comp name="--.HNE">
      <acc value="0.2867552671" flag="0"/>
      <vel value="0.0699869092" flag="0"/>
      <psa03 value="0.2015377735" flag="0"/>
      <psa10 value="0.0239301029" flag="0"/>
      <psa30 value="0.0416766848" flag="0"/>
    </comp>
    <comp name="--.HNN">
      <acc value="0.1768930211" flag="0"/>
      <vel value="0.0483237213" flag="0"/>
      <psa03 value="0.1831656128" flag="0"/>
      <psa10 value="0.0329609036" flag="0"/>
      <psa30 value="0.0278390238" flag="0"/>
    </comp>
    <comp name="--.HNZ">
      <acc value="0.1717501094" flag="0"/>
      <vel value="0.0381560939" flag="0"/>
      <psa03 value="0.1382805668" flag="0"/>
      <psa10 value="0.0246198181" flag="0"/>
      <psa30 value="0.0256859994" flag="0"/>
    </comp>
  </station>
</stationlist>
