<stationlist created="1745476325">
	<station code="ELND" name="ELND" netid="BS" source="National Seismic Network of Bulgaria (BS)" insttype="" lat="42.9287" lon="25.8751">
		<comp name=".HNE" depth="0.0">
			<acc value="0.0060052873343256" flag="0"/>
			<vel value="0.0334261537229" flag="0"/>
			<psa03 value="0.0064952531953085" flag="0"/>
			<psa10 value="0.0106639439339644" flag="0"/>
			<psa30 value="0.0104775924224175" flag="0"/>
		</comp>
		<comp name=".HNN" depth="0.0">
			<acc value="0.007061428165851" flag="0"/>
			<vel value="0.0227695651976" flag="0"/>
			<psa03 value="0.00767818181894185" flag="0"/>
			<psa10 value="0.0152057516814146" flag="0"/>
			<psa30 value="0.00838853653272741" flag="0"/>
		</comp>
		<comp name=".HNZ" depth="0.0">
			<acc value="0.0061968994123752" flag="0"/>
			<vel value="0.021751001042" flag="0"/>
			<psa03 value="0.00602576050516991" flag="0"/>
			<psa10 value="0.0111659784412623" flag="0"/>
			<psa30 value="0.0100877207619945" flag="0"/>
		</comp>
	</station>
	<station code="JMB" name="JMB" netid="BS" source="National Seismic Network of Bulgaria (BS)" insttype="" lat="42.4911" lon="26.5296">
		<comp name=".HNE" depth="0.0">
			<acc value="9.1248862053294" flag="0"/>
			<vel value="81.3123489834" flag="0"/>
			<psa03 value="9.22926072655077" flag="0"/>
			<psa10 value="12.6371741107826" flag="0"/>
			<psa30 value="21.2162893150479" flag="0"/>
		</comp>
		<comp name=".HNN" depth="0.0">
			<acc value="18.850436044734" flag="0"/>
			<vel value="165.154440533" flag="0"/>
			<psa03 value="19.0383358629836" flag="0"/>
			<psa10 value="22.6065714944033" flag="0"/>
			<psa30 value="34.7339096977371" flag="0"/>
		</comp>
		<comp name=".HNZ" depth="0.0">
			<acc value="12.628130602878" flag="0"/>
			<vel value="89.988293679" flag="0"/>
			<psa03 value="12.685843041528" flag="0"/>
			<psa10 value="15.3372003342323" flag="0"/>
			<psa30 value="35.9004322007708" flag="0"/>
		</comp>
	</station>
	<station code="KALB" name="KALB" netid="BS" source="National Seismic Network of Bulgaria (BS)" insttype="" lat="43.4059" lon="28.4162">
		<comp name=".HNE" depth="0.0">
			<acc value="0.00014317968549564" flag="0"/>
			<vel value="0.000168409122248" flag="0"/>
			<psa03 value="0.00019171342435749" flag="0"/>
			<psa10 value="0.000106889947145506" flag="0"/>
			<psa30 value="5.8890222802938e-05" flag="0"/>
		</comp>
		<comp name=".HNN" depth="0.0">
			<acc value="0.00014473160780892" flag="0"/>
			<vel value="0.000142951334312" flag="0"/>
			<psa03 value="0.000157665250050364" flag="0"/>
			<psa10 value="0.000119138265860392" flag="0"/>
			<psa30 value="5.90292163854486e-05" flag="0"/>
		</comp>
		<comp name=".HNZ" depth="0.0">
			<acc value="0.00014625848876724" flag="0"/>
			<vel value="0.000179291485395" flag="0"/>
			<psa03 value="0.000174219813506007" flag="0"/>
			<psa10 value="9.8247375105488e-05" flag="0"/>
			<psa30 value="8.02221046851474e-05" flag="0"/>
		</comp>
	</station>
	<station code="LOZB" name="LOZB" netid="BS" source="National Seismic Network of Bulgaria (BS)" insttype="" lat="43.3701" lon="26.593">
		<comp name=".HNE" depth="0.0">
			<acc value="0.016536781165386" flag="0"/>
			<vel value="0.0342921042426" flag="0"/>
			<psa03 value="0.0559893131837194" flag="0"/>
			<psa10 value="0.0164724037158946" flag="0"/>
			<psa30 value="0.0105492596700173" flag="0"/>
		</comp>
		<comp name=".HNN" depth="0.0">
			<acc value="0.012136557336072" flag="0"/>
			<vel value="0.0359554330463" flag="0"/>
			<psa03 value="0.0531300821071333" flag="0"/>
			<psa10 value="0.018425861247889" flag="0"/>
			<psa30 value="0.0147167332446821" flag="0"/>
		</comp>
		<comp name=".HNZ" depth="0.0">
			<acc value="0.0059793093948024" flag="0"/>
			<vel value="0.0293277382231" flag="0"/>
			<psa03 value="0.00952199927530581" flag="0"/>
			<psa10 value="0.0150260819667044" flag="0"/>
			<psa30 value="0.0118196329926843" flag="0"/>
		</comp>
	</station>
	<station code="MYT1" name="MYT1" netid="HI" source="ITSAK Strong Motion Network" insttype="" lat="39.085" lon="26.5694">
		<comp name=".HNE" depth="0.0">
			<acc value="0.023997171900054" flag="0"/>
			<vel value="0.0982003593182" flag="0"/>
			<psa03 value="0.0296031407502797" flag="0"/>
			<psa10 value="0.0535328312873197" flag="0"/>
			<psa30 value="0.0653252008070924" flag="0"/>
		</comp>
		<comp name=".HNN" depth="0.0">
			<acc value="0.021608570154612" flag="0"/>
			<vel value="0.100283379462" flag="0"/>
			<psa03 value="0.026299346369282" flag="0"/>
			<psa10 value="0.0461352524840929" flag="0"/>
			<psa30 value="0.0426844443016163" flag="0"/>
		</comp>
		<comp name=".HNZ" depth="0.0">
			<acc value="0.014210599530786" flag="0"/>
			<vel value="0.0665229211369" flag="0"/>
			<psa03 value="0.0167370436428412" flag="0"/>
			<psa10 value="0.031664412611936" flag="0"/>
			<psa30 value="0.0323974128362903" flag="0"/>
		</comp>
	</station>
	<station code="PLM1" name="PLM1" netid="HI" source="ITSAK Strong Motion Network" insttype="" lat="38.9751" lon="26.3688">
		<comp name=".HNE" depth="0.0">
			<acc value="0.0082122203094156" flag="0"/>
			<vel value="0.0377793850742" flag="0"/>
			<psa03 value="0.00986814134614003" flag="0"/>
			<psa10 value="0.0146077680054588" flag="0"/>
			<psa30 value="0.0172888419676195" flag="0"/>
		</comp>
		<comp name=".HNN" depth="0.0">
			<acc value="0.0073715524766196" flag="0"/>
			<vel value="0.0343196688486" flag="0"/>
			<psa03 value="0.00766298875517774" flag="0"/>
			<psa10 value="0.0100894996298353" flag="0"/>
			<psa30 value="0.0110120569947485" flag="0"/>
		</comp>
		<comp name=".HNZ" depth="0.0">
			<acc value="0.0078551687280258" flag="0"/>
			<vel value="0.0382834845794" flag="0"/>
			<psa03 value="0.00649446017401346" flag="0"/>
			<psa10 value="0.00981194655578761" flag="0"/>
			<psa30 value="0.0132326299301307" flag="0"/>
		</comp>
	</station>
	<station code="SGR1" name="SGR1" netid="HI" source="ITSAK Strong Motion Network" insttype="" lat="39.211392" lon="25.855221">
		<comp name=".HNE" depth="0.0">
			<acc value="0.0087682793076378" flag="0"/>
			<vel value="0.04272181609" flag="0"/>
			<psa03 value="0.00919365330525374" flag="0"/>
			<psa10 value="0.015885274196467" flag="0"/>
			<psa30 value="0.0157973231618004" flag="0"/>
		</comp>
		<comp name=".HNN" depth="0.0">
			<acc value="0.0056393927490528" flag="0"/>
			<vel value="0.0231096311547" flag="0"/>
			<psa03 value="0.00859933984636348" flag="0"/>
			<psa10 value="0.0129841110711182" flag="0"/>
			<psa30 value="0.0127351069716536" flag="0"/>
		</comp>
		<comp name=".HNZ" depth="0.0">
			<acc value="0.0057270290665392" flag="0"/>
			<vel value="0.026521045555" flag="0"/>
			<psa03 value="0.00666556786323929" flag="0"/>
			<psa10 value="0.00859374210572171" flag="0"/>
			<psa30 value="0.00852102947637008" flag="0"/>
		</comp>
	</station>
	<station code="EFSA" name="EFSA" netid="HL" source="National Observatory of Athens Seismic Network" insttype="" lat="39.54015" lon="24.98864">
		<comp name="00.HNE" depth="0.0">
			<acc value="0.01094789711073" flag="0"/>
			<vel value="0.0548381907348" flag="0"/>
			<psa03 value="0.0117799769802498" flag="0"/>
			<psa10 value="0.0214786066022601" flag="0"/>
			<psa30 value="0.0224180000824856" flag="0"/>
		</comp>
		<comp name="00.HNN" depth="0.0">
			<acc value="0.0093927887843448" flag="0"/>
			<vel value="0.038887997747" flag="0"/>
			<psa03 value="0.0108363558762311" flag="0"/>
			<psa10 value="0.025382326454556" flag="0"/>
			<psa30 value="0.0145574143572447" flag="0"/>
		</comp>
		<comp name="00.HNZ" depth="0.0">
			<acc value="0.0078406913103408" flag="0"/>
			<vel value="0.0369300559572" flag="0"/>
			<psa03 value="0.0078622949269738" flag="0"/>
			<psa10 value="0.0178627820716343" flag="0"/>
			<psa30 value="0.0128906489422294" flag="0"/>
		</comp>
	</station>
	<station code="KOMA" name="KOMA" netid="HL" source="National Observatory of Athens Seismic Network" insttype="" lat="41.11278" lon="25.39647">
		<comp name="00.HNE" depth="0.0">
			<acc value="0.05125054776222" flag="0"/>
			<vel value="0.174154218467" flag="0"/>
			<psa03 value="0.058919762520041" flag="0"/>
			<psa10 value="0.109779889878927" flag="0"/>
			<psa30 value="0.0820029122903131" flag="0"/>
		</comp>
		<comp name="00.HNN" depth="0.0">
			<acc value="0.03742758120834" flag="0"/>
			<vel value="0.217712792435" flag="0"/>
			<psa03 value="0.0565468917871905" flag="0"/>
			<psa10 value="0.0913578745108077" flag="0"/>
			<psa30 value="0.0733482922979323" flag="0"/>
		</comp>
		<comp name="00.HNZ" depth="0.0">
			<acc value="0.060869086018866" flag="0"/>
			<vel value="0.0946144422226" flag="0"/>
			<psa03 value="0.0401314371566039" flag="0"/>
			<psa10 value="0.0547344183867614" flag="0"/>
			<psa30 value="0.0661241470669165" flag="0"/>
		</comp>
	</station>
	<station code="LIA" name="LIA" netid="HL" source="National Observatory of Athens Seismic Network" insttype="" lat="39.89725" lon="25.18055">
		<comp name="00.HNE" depth="0.0">
			<acc value="0.0095623900103094" flag="0"/>
			<vel value="0.0342581131689" flag="0"/>
			<psa03 value="0.00672271357596381" flag="0"/>
			<psa10 value="0.0132386779349441" flag="0"/>
			<psa30 value="0.00832753415825636" flag="0"/>
		</comp>
		<comp name="00.HNN" depth="0.0">
			<acc value="0.0065915999687508" flag="0"/>
			<vel value="0.0331110232256" flag="0"/>
			<psa03 value="0.00603842605774508" flag="0"/>
			<psa10 value="0.0128880812721405" flag="0"/>
			<psa30 value="0.0130479876984814" flag="0"/>
		</comp>
		<comp name="00.HNZ" depth="0.0">
			<acc value="0.0084054895112484" flag="0"/>
			<vel value="0.0201614352574" flag="0"/>
			<psa03 value="0.00501943733078691" flag="0"/>
			<psa10 value="0.00898889265751363" flag="0"/>
			<psa30 value="0.00716351954802779" flag="0"/>
		</comp>
	</station>
	<station code="PRK" name="PRK" netid="HL" source="National Observatory of Athens Seismic Network" insttype="" lat="39.24565" lon="26.26499">
		<comp name=".HNE" depth="0.0">
			<acc value="0.0090720752688102" flag="0"/>
			<vel value="0.0508024216944" flag="0"/>
			<psa03 value="0.01215977948403" flag="0"/>
			<psa10 value="0.0252947787799648" flag="0"/>
			<psa30 value="0.0132913071505566" flag="0"/>
		</comp>
		<comp name=".HNN" depth="0.0">
			<acc value="0.011462453202462" flag="0"/>
			<vel value="0.0582103261039" flag="0"/>
			<psa03 value="0.0121580957787777" flag="0"/>
			<psa10 value="0.0290568705000532" flag="0"/>
			<psa30 value="0.021932689599729" flag="0"/>
		</comp>
		<comp name=".HNZ" depth="0.0">
			<acc value="0.0058751893393068" flag="0"/>
			<vel value="0.0288879142342" flag="0"/>
			<psa03 value="0.00888114041529211" flag="0"/>
			<psa10 value="0.0152200176264883" flag="0"/>
			<psa30 value="0.0125338494726758" flag="0"/>
		</comp>
	</station>
	<station code="LES3" name="LES3" netid="HT" source="Aristotle University of Thessaloniki Seismological Network" insttype="" lat="39.303248" lon="26.180664">
		<comp name=".HNE" depth="0.0">
			<acc value="0.029251992225816" flag="0"/>
			<vel value="0.0513897525525" flag="0"/>
			<psa03 value="0.0378342953988921" flag="0"/>
			<psa10 value="0.0208870424140352" flag="0"/>
			<psa30 value="0.0171716525377258" flag="0"/>
		</comp>
		<comp name=".HNN" depth="0.0">
			<acc value="0.029801740987704" flag="0"/>
			<vel value="0.0560272029022" flag="0"/>
			<psa03 value="0.0366533916489639" flag="0"/>
			<psa10 value="0.0199240048675371" flag="0"/>
			<psa30 value="0.0147362612049638" flag="0"/>
		</comp>
		<comp name=".HNZ" depth="0.0">
			<acc value="0.050721717293442" flag="0"/>
			<vel value="0.0419295014914" flag="0"/>
			<psa03 value="0.0540115467497158" flag="0"/>
			<psa10 value="0.0289405959224519" flag="0"/>
			<psa30 value="0.0206427041445198" flag="0"/>
		</comp>
	</station>
	<station code="AKS" name="AKS" netid="KO" source="Bogazici University Kandilli Observatory And Earthquake Research Institute (KOERI)" insttype="" lat="38.8785" lon="27.8129">
		<comp name=".HNE" depth="0.0">
			<acc value="0.012192434041752" flag="0"/>
			<vel value="0.0728320804987" flag="0"/>
			<psa03 value="0.0152491976844954" flag="0"/>
			<psa10 value="0.0191641464056311" flag="0"/>
			<psa30 value="0.036424636286703" flag="0"/>
		</comp>
		<comp name=".HNN" depth="0.0">
			<acc value="0.013422985322742" flag="0"/>
			<vel value="0.0747967147537" flag="0"/>
			<psa03 value="0.0231595342054941" flag="0"/>
			<psa10 value="0.0184203727592953" flag="0"/>
			<psa30 value="0.0345014322172139" flag="0"/>
		</comp>
		<comp name=".HNZ" depth="0.0">
			<acc value="0.0067436964067794" flag="0"/>
			<vel value="0.0393651300787" flag="0"/>
			<psa03 value="0.00871892719549248" flag="0"/>
			<psa10 value="0.0170981026654034" flag="0"/>
			<psa30 value="0.0138865265809213" flag="0"/>
		</comp>
	</station>
	<station code="ALT" name="ALT" netid="KO" source="Bogazici University Kandilli Observatory And Earthquake Research Institute (KOERI)" insttype="" lat="39.0541" lon="30.1104">
		<comp name=".HNE" depth="0.0">
			<acc value="0.0087225314120064" flag="0"/>
			<vel value="0.0519826274518" flag="0"/>
			<psa03 value="0.0117426620082967" flag="0"/>
			<psa10 value="0.012748802670606" flag="0"/>
			<psa30 value="0.0217937470621254" flag="0"/>
		</comp>
		<comp name=".HNN" depth="0.0">
			<acc value="0.0089037631303002" flag="0"/>
			<vel value="0.0513640223237" flag="0"/>
			<psa03 value="0.0159721648483892" flag="0"/>
			<psa10 value="0.0134948142777102" flag="0"/>
			<psa30 value="0.0161010182800975" flag="0"/>
		</comp>
		<comp name=".HNZ" depth="0.0">
			<acc value="0.0071159731097958" flag="0"/>
			<vel value="0.0373532750152" flag="0"/>
			<psa03 value="0.0083044049437589" flag="0"/>
			<psa10 value="0.0104311444496459" flag="0"/>
			<psa30 value="0.0170840884036669" flag="0"/>
		</comp>
	</station>
	<station code="ARMT" name="ARMT" netid="KO" source="Bogazici University Kandilli Observatory And Earthquake Research Institute (KOERI)" insttype="" lat="40.5683" lon="28.866">
		<comp name=".HNE" depth="0.0">
			<acc value="0.15654834058866" flag="0"/>
			<vel value="0.152668577476" flag="0"/>
			<psa03 value="0.269177831710113" flag="0"/>
			<psa10 value="0.0434085781053487" flag="0"/>
			<psa30 value="0.0876501797275466" flag="0"/>
		</comp>
		<comp name=".HNN" depth="0.0">
			<acc value="0.18169664948772" flag="0"/>
			<vel value="0.140843887334" flag="0"/>
			<psa03 value="0.219450141661758" flag="0"/>
			<psa10 value="0.0304083737805441" flag="0"/>
			<psa30 value="0.0608811064076413" flag="0"/>
		</comp>
		<comp name=".HNZ" depth="0.0">
			<acc value="0.11570123785056" flag="0"/>
			<vel value="0.0996226560207" flag="0"/>
			<psa03 value="0.08861229721316" flag="0"/>
			<psa10 value="0.0256090814759571" flag="0"/>
			<psa30 value="0.0482243012900179" flag="0"/>
		</comp>
	</station>
	<station code="ARMU" name="ARMU" netid="KO" source="Bogazici University Kandilli Observatory And Earthquake Research Institute (KOERI)" insttype="" lat="40.5088" lon="28.838">
		<comp name=".HNE" depth="0.0">
			<acc value="0.38255874163782" flag="0"/>
			<vel value="0.146309500429" flag="0"/>
			<psa03 value="0.959202542462761" flag="0"/>
			<psa10 value="0.0365829834431121" flag="0"/>
			<psa30 value="0.049708942973403" flag="0"/>
		</comp>
		<comp name=".HNN" depth="0.0">
			<acc value="0.33674120500662" flag="0"/>
			<vel value="0.179976522518" flag="0"/>
			<psa03 value="0.619308192793422" flag="0"/>
			<psa10 value="0.0393801812437447" flag="0"/>
			<psa30 value="0.0491979457890686" flag="0"/>
		</comp>
		<comp name=".HNZ" depth="0.0">
			<acc value="0.27630887039208" flag="0"/>
			<vel value="0.0839437873291" flag="0"/>
			<psa03 value="0.264766560318715" flag="0"/>
			<psa10 value="0.0248719701459517" flag="0"/>
			<psa30 value="0.041329994575958" flag="0"/>
		</comp>
	</station>
	<station code="ATAM" name="ATAM" netid="KO" source="Bogazici University Kandilli Observatory And Earthquake Research Institute (KOERI)" insttype="" lat="40.9688" lon="28.875">
		<comp name=".HNE" depth="0.0">
			<acc value="0.50279409603132" flag="0"/>
			<vel value="0.325406304407" flag="0"/>
			<psa03 value="1.30646046325914" flag="0"/>
			<psa10 value="0.143341515672077" flag="0"/>
			<psa30 value="0.186246564587639" flag="0"/>
		</comp>
		<comp name=".HNN" depth="0.0">
			<acc value="0.3261844779678" flag="0"/>
			<vel value="0.288520199135" flag="0"/>
			<psa03 value="1.20906967826575" flag="0"/>
			<psa10 value="0.147368262424301" flag="0"/>
			<psa30 value="0.185409589142102" flag="0"/>
		</comp>
		<comp name=".HNZ" depth="0.0">
			<acc value="0.58158972803964" flag="0"/>
			<vel value="0.128718933479" flag="0"/>
			<psa03 value="0.294142798016952" flag="0"/>
			<psa10 value="0.0667708257395235" flag="0"/>
			<psa30 value="0.0503759704942412" flag="0"/>
		</comp>
	</station>
	<station code="BIGA" name="BIGA" netid="KO" source="Bogazici University Kandilli Observatory And Earthquake Research Institute (KOERI)" insttype="" lat="40.28134" lon="27.15048">
		<comp name=".HNE" depth="0.0">
			<acc value="0.045023185523382" flag="0"/>
			<vel value="0.0579923385351" flag="0"/>
			<psa03 value="0.0625885420171583" flag="0"/>
			<psa10 value="0.033923318503361" flag="0"/>
			<psa30 value="0.020146372931673" flag="0"/>
		</comp>
		<comp name=".HNN" depth="0.0">
			<acc value="0.049081901017938" flag="0"/>
			<vel value="0.0743863936522" flag="0"/>
			<psa03 value="0.0742299954979069" flag="0"/>
			<psa10 value="0.0231432725032297" flag="0"/>
			<psa30 value="0.0260889015950368" flag="0"/>
		</comp>
		<comp name=".HNZ" depth="0.0">
			<acc value="0.033454510918116" flag="0"/>
			<vel value="0.039063562027" flag="0"/>
			<psa03 value="0.0191074207207514" flag="0"/>
			<psa10 value="0.0154225704195915" flag="0"/>
			<psa30 value="0.0244248580269714" flag="0"/>
		</comp>
	</station>
	<station code="BMYO" name="BMYO" netid="KO" source="Bogazici University Kandilli Observatory And Earthquake Research Institute (KOERI)" insttype="" lat="39.8098" lon="26.6009">
		<comp name=".HNE" depth="0.0">
			<acc value="0.023443795235418" flag="0"/>
			<vel value="0.106818246505" flag="0"/>
			<psa03 value="0.0258736619198044" flag="0"/>
			<psa10 value="0.0370412150486888" flag="0"/>
			<psa30 value="0.0403849819735195" flag="0"/>
		</comp>
		<comp name=".HNN" depth="0.0">
			<acc value="0.022392854511456" flag="0"/>
			<vel value="0.107628352365" flag="0"/>
			<psa03 value="0.0274620822489903" flag="0"/>
			<psa10 value="0.0560382297575002" flag="0"/>
			<psa30 value="0.0471341057364347" flag="0"/>
		</comp>
		<comp name=".HNZ" depth="0.0">
			<acc value="0.019317496721112" flag="0"/>
			<vel value="0.0683774378046" flag="0"/>
			<psa03 value="0.0209372932429314" flag="0"/>
			<psa10 value="0.0328041881164809" flag="0"/>
			<psa30 value="0.0237634492119037" flag="0"/>
		</comp>
	</station>
	<station code="BOTS" name="BOTS" netid="KO" source="Bogazici University Kandilli Observatory And Earthquake Research Institute (KOERI)" insttype="" lat="40.9902" lon="27.981">
		<comp name=".HNE" depth="0.0">
			<acc value="0.1486752792234" flag="0"/>
			<vel value="0.133524527029" flag="0"/>
			<psa03 value="0.118843101938896" flag="0"/>
			<psa10 value="0.0668689322383885" flag="0"/>
			<psa30 value="0.0675668959752726" flag="0"/>
		</comp>
		<comp name=".HNN" depth="0.0">
			<acc value="0.093813270825336" flag="0"/>
			<vel value="0.132732726525" flag="0"/>
			<psa03 value="0.0860176357460377" flag="0"/>
			<psa10 value="0.0608085270162902" flag="0"/>
			<psa30 value="0.0603463376486626" flag="0"/>
		</comp>
		<comp name=".HNZ" depth="0.0">
			<acc value="0.34731021559332" flag="0"/>
			<vel value="0.118277629813" flag="0"/>
			<psa03 value="0.0509701629813903" flag="0"/>
			<psa10 value="0.0301553351429591" flag="0"/>
			<psa30 value="0.0588064623062786" flag="0"/>
		</comp>
	</station>
