<?xml version="1.0" encoding="UTF-8" standalone="yes"?>
<!DOCTYPE earthquake SYSTEM "stationlist.dtd">
<stationlist created="" xmlns="ch.ethz.sed.shakemap.usgs.xml">
  <station code="APE" name="APE" netid="GE" insttype="STS-2/N" lat="37.0727" lon="25.523">
    <comp name="--.HHE">
      <acc value="0.0959900460" flag="0"/>
      <vel value="0.0131902576" flag="0"/>
      <psa03 value="0.0457508474" flag="0"/>
      <psa10 value="0.0039565579" flag="0"/>
      <psa30 value="0.0012604091" flag="0"/>
    </comp>
    <comp name="--.HHN">
      <acc value="0.1217091365" flag="0"/>
      <vel value="0.0151431839" flag="0"/>
      <psa03 value="0.0490035573" flag="0"/>
      <psa10 value="0.0058072498" flag="0"/>
      <psa30 value="0.0010343351" flag="0"/>
    </comp>
    <comp name="--.HHZ">
      <acc value="0.0762831404" flag="0"/>
      <vel value="0.0111994111" flag="0"/>
      <psa03 value="0.0278438146" flag="0"/>
      <psa10 value="0.0036366791" flag="0"/>
      <psa30 value="0.0010027674" flag="0"/>
    </comp>
  </station>
  <station code="THERA" name="THERA" netid="GE" insttype="STS-2/N" lat="36.367" lon="25.4753">
    <comp name="--.HHE">
      <acc value="0.1190578918" flag="0"/>
      <vel value="0.0494517486" flag="0"/>
      <psa03 value="0.1467918435" flag="0"/>
      <psa10 value="0.0136998113" flag="0"/>
      <psa30 value="0.0014457331" flag="0"/>
    </comp>
    <comp name="--.HHN">
      <acc value="0.1087959322" flag="0"/>
      <vel value="0.0276913820" flag="0"/>
      <psa03 value="0.2400405023" flag="0"/>
      <psa10 value="0.0116059158" flag="0"/>
      <psa30 value="0.0008476421" flag="0"/>
    </comp>
    <comp name="--.HHZ">
      <acc value="0.1104098448" flag="0"/>
      <vel value="0.0338186781" flag="0"/>
      <psa03 value="0.1302785082" flag="0"/>
      <psa10 value="0.0167163334" flag="0"/>
      <psa30 value="0.0014711203" flag="0"/>
    </comp>
  </station>
</stationlist>
