<?xml version="1.0" encoding="UTF-8" standalone="yes"?>
<!DOCTYPE earthquake SYSTEM "stationlist.dtd">
<stationlist created="" xmlns="ch.ethz.sed.shakemap.usgs.xml">
  <station code="APE" name="APE" netid="GE" insttype="STS-2/N" lat="37.0727" lon="25.523">
    <comp name="--.HHN">
      <acc value="0.1217091366" flag="0"/>
      <vel value="0.0151431797" flag="0"/>
      <psa03 value="0.0490035573" flag="0"/>
      <psa10 value="0.0058072500" flag="0"/>
      <psa30 value="0.0010342798" flag="0"/>
    </comp>
    <comp name="--.HHE">
      <acc value="0.0959900459" flag="0"/>
      <vel value="0.0131902646" flag="0"/>
      <psa03 value="0.0457508474" flag="0"/>
      <psa10 value="0.0039565634" flag="0"/>
      <psa30 value="0.0012601184" flag="0"/>
    </comp>
    <comp name="--.HHZ">
      <acc value="0.0762831407" flag="0"/>
      <vel value="0.0111994137" flag="0"/>
      <psa03 value="0.0278438146" flag="0"/>
      <psa10 value="0.0036366808" flag="0"/>
      <psa30 value="0.0010026494" flag="0"/>
    </comp>
  </station>
  <station code="THERA" name="THERA" netid="GE" insttype="STS-2/N" lat="36.367" lon="25.4753">
    <comp name="--.HHZ">
      <acc value="0.1104098444" flag="0"/>
      <vel value="0.0338186864" flag="0"/>
      <psa03 value="0.1302785082" flag="0"/>
      <psa10 value="0.0167163544" flag="0"/>
      <psa30 value="0.0014688740" flag="0"/>
    </comp>
    <comp name="--.HHN">
      <acc value="0.1087959320" flag="0"/>
      <vel value="0.0276913832" flag="0"/>
      <psa03 value="0.2400405023" flag="0"/>
      <psa10 value="0.0116059158" flag="0"/>
      <psa30 value="0.0008470785" flag="0"/>
    </comp>
    <comp name="--.HHE">
      <acc value="0.1190578918" flag="0"/>
      <vel value="0.0494517503" flag="0"/>
      <psa03 value="0.1467918435" flag="0"/>
      <psa10 value="0.0136998193" flag="0"/>
      <psa30 value="0.0014453410" flag="0"/>
    </comp>
  </station>
</stationlist>
