<stationlist created="1741951620">
	<station code="ATHU" name="ATHU" netid="HA" source="Hellenic Seismological Network, University of Athens, Seismological Laboratory (HA)" insttype="" lat="37.9665" lon="23.7845">
		<comp name=".HNE" depth="0.0">
			<acc value="0.00017072706614424" flag="0"/>
			<vel value="0.000313627752166" flag="0"/>
			<psa03 value="0.000687673891606928" flag="0"/>
			<psa10 value="9.91831866101809e-05" flag="0"/>
			<psa30 value="8.48200980817951e-05" flag="0"/>
		</comp>
		<comp name=".HNN" depth="0.0">
			<acc value="0.00016812022922178" flag="0"/>
			<vel value="0.000335003443726" flag="0"/>
			<psa03 value="0.000283274523196827" flag="0"/>
			<psa10 value="9.92361954927988e-05" flag="0"/>
			<psa30 value="9.22854168412304e-05" flag="0"/>
		</comp>
		<comp name=".HNZ" depth="0.0">
			<acc value="0.00018801986157648" flag="0"/>
			<vel value="0.000301825342053" flag="0"/>
			<psa03 value="0.000533966606389897" flag="0"/>
			<psa10 value="8.16709327592639e-05" flag="0"/>
			<psa30 value="8.74829763072517e-05" flag="0"/>
		</comp>
	</station>
	<station code="ABEA" name="ABEA" netid="HC" source="Seismological Network of Crete (HC)" insttype="" lat="35.5163" lon="24.0113">
		<comp name=".HNE" depth="0.0">
			<acc value="0.0034007664188778" flag="0"/>
			<vel value="0.00222232622349" flag="0"/>
			<psa03 value="0.00191607387059328" flag="0"/>
			<psa10 value="0.00197571806912457" flag="0"/>
			<psa30 value="0.00118177266163868" flag="0"/>
		</comp>
		<comp name=".HNN" depth="0.0">
			<acc value="0.0040442961807222" flag="0"/>
			<vel value="0.00171810713884" flag="0"/>
			<psa03 value="0.00207309143369373" flag="0"/>
			<psa10 value="0.00164969174491976" flag="0"/>
			<psa30 value="0.000956681292108951" flag="0"/>
		</comp>
		<comp name=".HNZ" depth="0.0">
			<acc value="0.0032132357263758" flag="0"/>
			<vel value="0.00111088490749" flag="0"/>
			<psa03 value="0.00142155022541316" flag="0"/>
			<psa10 value="0.00133741746453172" flag="0"/>
			<psa30 value="0.000525527053170518" flag="0"/>
		</comp>
	</station>
	<station code="ATEI" name="ATEI" netid="HC" source="Seismological Network of Crete (HC)" insttype="" lat="35.5193" lon="24.0432">
		<comp name=".HNE" depth="0.0">
			<acc value="0.010997943432048" flag="0"/>
			<vel value="0.0053609493442" flag="0"/>
			<psa03 value="0.0428267485202612" flag="0"/>
			<psa10 value="0.00339190071240228" flag="0"/>
			<psa30 value="0.000902260291151069" flag="0"/>
		</comp>
		<comp name=".HNN" depth="0.0">
			<acc value="0.009351465775479" flag="0"/>
			<vel value="0.00465775633564" flag="0"/>
			<psa03 value="0.029338493010364" flag="0"/>
			<psa10 value="0.00394675348429924" flag="0"/>
			<psa30 value="0.00138375468779004" flag="0"/>
		</comp>
		<comp name=".HNZ" depth="0.0">
			<acc value="0.008198592853161" flag="0"/>
			<vel value="0.00320024585897" flag="0"/>
			<psa03 value="0.0147156389013591" flag="0"/>
			<psa10 value="0.00328137128099496" flag="0"/>
			<psa30 value="0.000840589122403534" flag="0"/>
		</comp>
	</station>
	<station code="G0LD" name="G0LD" netid="HC" source="Seismological Network of Crete (HC)" insttype="" lat="35.4955" lon="24.0306">
		<comp name=".HNE" depth="0.0">
			<acc value="0.002245348979835" flag="0"/>
			<vel value="0.00337306430177" flag="0"/>
			<psa03 value="0.00187869427849578" flag="0"/>
			<psa10 value="0.00201899992071265" flag="0"/>
			<psa30 value="0.00149221010159561" flag="0"/>
		</comp>
		<comp name=".HNN" depth="0.0">
			<acc value="0.00255885550383" flag="0"/>
			<vel value="0.00240512091492" flag="0"/>
			<psa03 value="0.00213771827350084" flag="0"/>
			<psa10 value="0.00190632792549362" flag="0"/>
			<psa30 value="0.00126177587812432" flag="0"/>
		</comp>
		<comp name=".HNZ" depth="0.0">
			<acc value="0.0030504435721008" flag="0"/>
			<vel value="0.00469211296896" flag="0"/>
			<psa03 value="0.0021580967393591" flag="0"/>
			<psa10 value="0.0020868609005432" flag="0"/>
			<psa30 value="0.00225590548433332" flag="0"/>
		</comp>
	</station>
	<station code="PASK" name="PASK" netid="HC" source="Seismological Network of Crete (HC)" insttype="" lat="35.4996" lon="24.0121">
		<comp name=".HNE" depth="0.0">
			<acc value="0.01292230745199" flag="0"/>
			<vel value="0.00713222988788" flag="0"/>
			<psa03 value="0.0355703954266233" flag="0"/>
			<psa10 value="0.00943823336162692" flag="0"/>
			<psa30 value="0.00107364299857795" flag="0"/>
		</comp>
		<comp name=".HNN" depth="0.0">
			<acc value="0.01481333970528" flag="0"/>
			<vel value="0.00663276778516" flag="0"/>
			<psa03 value="0.0464136736363485" flag="0"/>
			<psa10 value="0.00655024626541332" flag="0"/>
			<psa30 value="0.00131686879859287" flag="0"/>
		</comp>
		<comp name=".HNZ" depth="0.0">
			<acc value="0.009001604374152" flag="0"/>
			<vel value="0.00425515088137" flag="0"/>
			<psa03 value="0.0282961713574627" flag="0"/>
			<psa10 value="0.00435813651764769" flag="0"/>
			<psa30 value="0.000791447533680922" flag="0"/>
		</comp>
	</station>
	<station code="POLY" name="POLY" netid="HC" source="Seismological Network of Crete (HC)" insttype="" lat="35.5226" lon="24.0602">
		<comp name=".HNE" depth="0.0">
			<acc value="0.0010233360275244" flag="0"/>
			<vel value="0.00229958126177" flag="0"/>
			<psa03 value="0.00131645732602618" flag="0"/>
			<psa10 value="0.00141956560175322" flag="0"/>
			<psa30 value="0.000938050787092381" flag="0"/>
		</comp>
		<comp name=".HNN" depth="0.0">
			<acc value="0.0011921424030258" flag="0"/>
			<vel value="0.00250333600993" flag="0"/>
			<psa03 value="0.0017871603827901" flag="0"/>
			<psa10 value="0.00153610574384278" flag="0"/>
			<psa30 value="0.00102439546533909" flag="0"/>
		</comp>
		<comp name=".HNZ" depth="0.0">
			<acc value="0.00210377322846" flag="0"/>
			<vel value="0.00152111943254" flag="0"/>
			<psa03 value="0.00171334022564308" flag="0"/>
			<psa10 value="0.00121848630467388" flag="0"/>
			<psa30 value="0.000881249107597112" flag="0"/>
		</comp>
	</station>
	<station code="ARK1" name="ARK1" netid="HI" source="ITSAK Strong Motion Network" insttype="" lat="35.148777" lon="25.264194">
		<comp name=".HNE" depth="0.0">
			<acc value="0.017098215037686" flag="0"/>
			<vel value="0.00825201925299" flag="0"/>
			<psa03 value="0.0772269023616602" flag="0"/>
			<psa10 value="0.00895675396599839" flag="0"/>
			<psa30 value="0.00104115876332314" flag="0"/>
		</comp>
		<comp name=".HNN" depth="0.0">
			<acc value="0.020402398044582" flag="0"/>
			<vel value="0.0110534764927" flag="0"/>
			<psa03 value="0.05529860076105" flag="0"/>
			<psa10 value="0.00904952479911519" flag="0"/>
			<psa30 value="0.000893162292617081" flag="0"/>
		</comp>
		<comp name=".HNZ" depth="0.0">
			<acc value="0.0083514180607998" flag="0"/>
			<vel value="0.00466990386665" flag="0"/>
			<psa03 value="0.0255166304556903" flag="0"/>
			<psa10 value="0.00708000448429985" flag="0"/>
			<psa30 value="0.000639531845010579" flag="0"/>
		</comp>
	</station>
	<station code="CH01" name="CH01" netid="HI" source="ITSAK Strong Motion Network" insttype="" lat="35.517" lon="24.0208">
		<comp name=".HNE" depth="0.0">
			<acc value="0.0095902765062474" flag="0"/>
			<vel value="0.00513616202786" flag="0"/>
			<psa03 value="0.020948627327079" flag="0"/>
			<psa10 value="0.00537189851814883" flag="0"/>
			<psa30 value="0.000676679201677929" flag="0"/>
		</comp>
		<comp name=".HNN" depth="0.0">
			<acc value="0.010987673887326" flag="0"/>
			<vel value="0.00454823287437" flag="0"/>
			<psa03 value="0.0261909746068482" flag="0"/>
			<psa10 value="0.00437781453999293" flag="0"/>
			<psa30 value="0.000662843389288536" flag="0"/>
		</comp>
		<comp name=".HNZ" depth="0.0">
			<acc value="0.0066169687164462" flag="0"/>
			<vel value="0.00248749623816" flag="0"/>
			<psa03 value="0.0126136988769046" flag="0"/>
			<psa10 value="0.00334672943877678" flag="0"/>
			<psa30 value="0.000414337187388606" flag="0"/>
		</comp>
	</station>
	<station code="CH02" name="CH02" netid="HI" source="ITSAK Strong Motion Network" insttype="" lat="35.5145" lon="24.0315">
		<comp name=".HNE" depth="0.0">
			<acc value="0.0085571444349636" flag="0"/>
			<vel value="0.0046409088823" flag="0"/>
			<psa03 value="0.0256741851637819" flag="0"/>
			<psa10 value="0.00501303677657077" flag="0"/>
			<psa30 value="0.000495648407190294" flag="0"/>
		</comp>
		<comp name=".HNN" depth="0.0">
			<acc value="0.01084280264748" flag="0"/>
			<vel value="0.00533763789437" flag="0"/>
			<psa03 value="0.0360989122091087" flag="0"/>
			<psa10 value="0.00353534748067014" flag="0"/>
			<psa30 value="0.000568690485453852" flag="0"/>
		</comp>
		<comp name=".HNZ" depth="0.0">
			<acc value="0.0054762687342894" flag="0"/>
			<vel value="0.00233702011028" flag="0"/>
			<psa03 value="0.0121095053202923" flag="0"/>
			<psa10 value="0.00353301834199911" flag="0"/>
			<psa30 value="0.000353655875882711" flag="0"/>
		</comp>
	</station>
	<station code="CH03" name="CH03" netid="HI" source="ITSAK Strong Motion Network" insttype="" lat="35.53303" lon="24.0705">
		<comp name=".HNE" depth="0.0">
			<acc value="0.0071513041646676" flag="0"/>
			<vel value="0.00386221076561" flag="0"/>
			<psa03 value="0.0184062102064948" flag="0"/>
			<psa10 value="0.00345432289443851" flag="0"/>
			<psa30 value="0.000360230738518475" flag="0"/>
		</comp>
		<comp name=".HNN" depth="0.0">
			<acc value="0.009683151728823" flag="0"/>
			<vel value="0.00403841586241" flag="0"/>
			<psa03 value="0.0305710616411166" flag="0"/>
			<psa10 value="0.00382459406371304" flag="0"/>
			<psa30 value="0.000441495705256922" flag="0"/>
		</comp>
		<comp name=".HNZ" depth="0.0">
			<acc value="0.0056673802079874" flag="0"/>
			<vel value="0.00210840780442" flag="0"/>
			<psa03 value="0.0114696829872748" flag="0"/>
			<psa10 value="0.00129081090051117" flag="0"/>
			<psa30 value="0.000281051456821311" flag="0"/>
		</comp>
	</station>
	<station code="GOR1" name="GOR1" netid="HI" source="ITSAK Strong Motion Network" insttype="" lat="35.0582" lon="24.9628">
		<comp name=".HNE" depth="0.0">
			<acc value="0.007698853652097" flag="0"/>
			<vel value="0.0053112467968" flag="0"/>
			<psa03 value="0.0348973977188411" flag="0"/>
			<psa10 value="0.00600469668793106" flag="0"/>
			<psa30 value="0.000526984545557644" flag="0"/>
		</comp>
		<comp name=".HNN" depth="0.0">
			<acc value="0.006411919947438" flag="0"/>
			<vel value="0.00501083890723" flag="0"/>
			<psa03 value="0.018570922940853" flag="0"/>
			<psa10 value="0.00618269051039391" flag="0"/>
			<psa30 value="0.000786338080623463" flag="0"/>
		</comp>
		<comp name=".HNZ" depth="0.0">
			<acc value="0.0052551521906262" flag="0"/>
			<vel value="0.00327246885288" flag="0"/>
			<psa03 value="0.0135810207697279" flag="0"/>
			<psa10 value="0.00584070254287394" flag="0"/>
			<psa30 value="0.000305288713462523" flag="0"/>
		</comp>
	</station>
	<station code="HER3" name="HER3" netid="HI" source="ITSAK Strong Motion Network" insttype="" lat="35.3296" lon="25.1065">
		<comp name=".HNE" depth="0.0">
			<acc value="0.040163260503942" flag="0"/>
			<vel value="0.0177080700692" flag="0"/>
			<psa03 value="0.143465378877295" flag="0"/>
			<psa10 value="0.0400615526312383" flag="0"/>
			<psa30 value="0.00137812858592254" flag="0"/>
		</comp>
		<comp name=".HNN" depth="0.0">
			<acc value="0.059875790513814" flag="0"/>
			<vel value="0.026286600896" flag="0"/>
			<psa03 value="0.105643310850907" flag="0"/>
			<psa10 value="0.0253266971443895" flag="0"/>
			<psa30 value="0.00111646010583778" flag="0"/>
		</comp>
		<comp name=".HNZ" depth="0.0">
			<acc value="0.04048185471006" flag="0"/>
			<vel value="0.0141921134282" flag="0"/>
			<psa03 value="0.102751796385467" flag="0"/>
			<psa10 value="0.0132204479772796" flag="0"/>
			<psa30 value="0.000609172385931435" flag="0"/>
		</comp>
	</station>
	<station code="KIS1" name="KIS1" netid="HI" source="ITSAK Strong Motion Network" insttype="" lat="35.493933" lon="23.658993">
		<comp name=".HNE" depth="0.0">
			<acc value="0.0058210541153268" flag="0"/>
			<vel value="0.00299996122586" flag="0"/>
			<psa03 value="0.0125710515204894" flag="0"/>
			<psa10 value="0.00436122109699551" flag="0"/>
			<psa30 value="0.000501809544503135" flag="0"/>
		</comp>
		<comp name=".HNN" depth="0.0">
			<acc value="0.006426475617942" flag="0"/>
			<vel value="0.00283251920546" flag="0"/>
			<psa03 value="0.0137305580195796" flag="0"/>
			<psa10 value="0.0036745367794049" flag="0"/>
			<psa30 value="0.000557188525589594" flag="0"/>
		</comp>
		<comp name=".HNZ" depth="0.0">
			<acc value="0.0067510711874418" flag="0"/>
			<vel value="0.00216574591599" flag="0"/>
			<psa03 value="0.00823469134121092" flag="0"/>
			<psa10 value="0.00235146764818973" flag="0"/>
			<psa30 value="0.000351878805035682" flag="0"/>
		</comp>
	</station>
	<station code="KRL1" name="KRL1" netid="HI" source="ITSAK Strong Motion Network" insttype="" lat="37.7951" lon="26.7065">
		<comp name=".HNE" depth="0.0">
			<acc value="0.011429188092606" flag="0"/>
			<vel value="0.00355284414583" flag="0"/>
			<psa03 value="0.0158593878461879" flag="0"/>
			<psa10 value="0.00506231410345262" flag="0"/>
			<psa30 value="0.000365531688638599" flag="0"/>
		</comp>
		<comp name=".HNN" depth="0.0">
			<acc value="0.007356946957053" flag="0"/>
			<vel value="0.00276400809214" flag="0"/>
			<psa03 value="0.0189682812951124" flag="0"/>
			<psa10 value="0.00587850645345518" flag="0"/>
			<psa30 value="0.0005235549954479" flag="0"/>
		</comp>
		<comp name=".HNZ" depth="0.0">
			<acc value="0.0049587405514512" flag="0"/>
			<vel value="0.00205394695442" flag="0"/>
			<psa03 value="0.00750905472971021" flag="0"/>
			<psa10 value="0.00258982382874407" flag="0"/>
			<psa30 value="0.000300398233242054" flag="0"/>
		</comp>
	</station>
	<station code="KTL1" name="KTL1" netid="HI" source="ITSAK Strong Motion Network" insttype="" lat="35.20778" lon="25.34272">
		<comp name=".HNE" depth="0.0">
			<acc value="0.014465582991894" flag="0"/>
			<vel value="0.00906660053297" flag="0"/>
			<psa03 value="0.0573544661184792" flag="0"/>
			<psa10 value="0.00734638697457626" flag="0"/>
			<psa30 value="0.000643884581275059" flag="0"/>
		</comp>
		<comp name=".HNN" depth="0.0">
			<acc value="0.023084658079908" flag="0"/>
			<vel value="0.0106775921997" flag="0"/>
			<psa03 value="0.0779947553113451" flag="0"/>
			<psa10 value="0.0105249428508121" flag="0"/>
			<psa30 value="0.000435164712943129" flag="0"/>
		</comp>
		<comp name=".HNZ" depth="0.0">
			<acc value="0.0071943991166154" flag="0"/>
			<vel value="0.00378240542205" flag="0"/>
			<psa03 value="0.0187976996824253" flag="0"/>
			<psa10 value="0.00438213857640477" flag="0"/>
			<psa30 value="0.000435568437604806" flag="0"/>
		</comp>
	</station>
	<station code="NAX1" name="NAX1" netid="HI" source="ITSAK Strong Motion Network" insttype="" lat="37.101394" lon="25.374103">
		<comp name=".HNE" depth="0.0">
			<acc value="0.071530314299544" flag="0"/>
			<vel value="0.0210299800012" flag="0"/>
			<psa03 value="0.084045734284234" flag="0"/>
			<psa10 value="0.00373662261103621" flag="0"/>
			<psa30 value="0.000701210462167745" flag="0"/>
		</comp>
		<comp name=".HNN" depth="0.0">
			<acc value="0.0998443753143" flag="0"/>
			<vel value="0.0227798680061" flag="0"/>
			<psa03 value="0.0629524150804077" flag="0"/>
			<psa10 value="0.00513538441275551" flag="0"/>
			<psa30 value="0.000645881328136546" flag="0"/>
		</comp>
		<comp name=".HNZ" depth="0.0">
			<acc value="0.04979062143888" flag="0"/>
			<vel value="0.00905981900666" flag="0"/>
			<psa03 value="0.0553385461154287" flag="0"/>
			<psa10 value="0.0047213447971868" flag="0"/>
			<psa30 value="0.00126047068749713" flag="0"/>
		</comp>
	</station>
	<station code="RTH1" name="RTH1" netid="HI" source="ITSAK Strong Motion Network" insttype="" lat="35.365393" lon="24.471773">
		<comp name=".HNE" depth="0.0">
			<acc value="0.0066069656064546" flag="0"/>
			<vel value="0.00308974935026" flag="0"/>
			<psa03 value="0.016611884309991" flag="0"/>
			<psa10 value="0.00233140358467243" flag="0"/>
			<psa30 value="0.000493525922835731" flag="0"/>
		</comp>
		<comp name=".HNN" depth="0.0">
			<acc value="0.006520908984888" flag="0"/>
			<vel value="0.00354574720108" flag="0"/>
			<psa03 value="0.0238836082135045" flag="0"/>
			<psa10 value="0.0023159996736122" flag="0"/>
			<psa30 value="0.00049075172864492" flag="0"/>
		</comp>
		<comp name=".HNZ" depth="0.0">
			<acc value="0.0062173579237878" flag="0"/>
			<vel value="0.00218636702967" flag="0"/>
			<psa03 value="0.00884639657723985" flag="0"/>
			<psa10 value="0.0022155262989936" flag="0"/>
			<psa30 value="0.000357393857880562" flag="0"/>
		</comp>
	</station>
	<station code="SFR2" name="SFR2" netid="HI" source="ITSAK Strong Motion Network" insttype="" lat="36.399841" lon="25.438209">
		<comp name=".HNE" depth="0.0">
			<acc value="0.35753966051778" flag="0"/>
			<vel value="0.156190280742" flag="0"/>
			<psa03 value="0.864666613254788" flag="0"/>
			<psa10 value="0.0655495948389609" flag="0"/>
			<psa30 value="0.00565580466931181" flag="0"/>
		</comp>
		<comp name=".HNN" depth="0.0">
			<acc value="0.34588672184214" flag="0"/>
			<vel value="0.166498579852" flag="0"/>
			<psa03 value="1.24102546184617" flag="0"/>
			<psa10 value="0.103532598526382" flag="0"/>
			<psa30 value="0.0067167245333564" flag="0"/>
		</comp>
		<comp name=".HNZ" depth="0.0">
			<acc value="0.33903279464376" flag="0"/>
			<vel value="0.152527982853" flag="0"/>
			<psa03 value="0.572007767707349" flag="0"/>
			<psa10 value="0.0496680202626568" flag="0"/>
			<psa30 value="0.00476324512493293" flag="0"/>
		</comp>
	</station>
	<station code="AMGA" name="AMGA" netid="HL" source="National Observatory of Athens Seismic Network" insttype="" lat="36.831561" lon="25.893836">
		<comp name="00.HNE" depth="0.0">
			<acc value="0.2413728248829" flag="0"/>
			<vel value="0.0430809209903" flag="0"/>
			<psa03 value="0.0875579877871034" flag="0"/>
			<psa10 value="0.018243481041085" flag="0"/>
			<psa30 value="0.00157920503124817" flag="0"/>
		</comp>
		<comp name="00.HNN" depth="0.0">
			<acc value="0.27070310421114" flag="0"/>
			<vel value="0.0427983819957" flag="0"/>
			<psa03 value="0.129703696399976" flag="0"/>
			<psa10 value="0.0136608349632808" flag="0"/>
			<psa30 value="0.00166525708594246" flag="0"/>
		</comp>
		<comp name="00.HNZ" depth="0.0">
			<acc value="0.16796000323476" flag="0"/>
			<vel value="0.0279635979708" flag="0"/>
			<psa03 value="0.111030709406312" flag="0"/>
			<psa10 value="0.00828300964623587" flag="0"/>
			<psa30 value="0.00138984436203616" flag="0"/>
		</comp>
	</station>
	<station code="ANAF" name="ANAF" netid="HL" source="National Observatory of Athens Seismic Network" insttype="" lat="36.35675" lon="25.77262">
		<comp name=".HNE" depth="0.0">
			<acc value="1.093688953848" flag="0"/>
			<vel value="0.340695707374" flag="0"/>
			<psa03 value="2.43059834854437" flag="0"/>
			<psa10 value="0.0824636128096067" flag="0"/>
			<psa30 value="0.00702224435588506" flag="0"/>
		</comp>
		<comp name=".HNN" depth="0.0">
			<acc value="1.3857085292046" flag="0"/>
			<vel value="0.328409874002" flag="0"/>
			<psa03 value="1.90343209303343" flag="0"/>
			<psa10 value="0.103779934911441" flag="0"/>
			<psa30 value="0.00870503499917117" flag="0"/>
		</comp>
		<comp name=".HNZ" depth="0.0">
			<acc value="0.55653927536304" flag="0"/>
			<vel value="0.1617298309" flag="0"/>
			<psa03 value="1.01346222023143" flag="0"/>
			<psa10 value="0.0597024062415901" flag="0"/>
			<psa30 value="0.00512631417650122" flag="0"/>
		</comp>
	</station>
	<station code="CHNB" name="CHNB" netid="HL" source="National Observatory of Athens Seismic Network" insttype="" lat="35.48765" lon="24.06605">
		<comp name="00.HNE" depth="0.0">
			<acc value="0.021712394757234" flag="0"/>
			<vel value="0.00970406266214" flag="0"/>
			<psa03 value="0.0450415879508114" flag="0"/>
			<psa10 value="0.0100688113843521" flag="0"/>
			<psa30 value="0.000668687995216391" flag="0"/>
		</comp>
