<?xml version="1.0" encoding="UTF-8" standalone="yes"?>
<!DOCTYPE earthquake SYSTEM "stationlist.dtd">
<stationlist created="" xmlns="ch.ethz.sed.shakemap.usgs.xml">
  <station code="APE" name="APE" netid="GE" insttype="STS-2/N" lat="37.0727" lon="25.523">
    <comp name="--.HHE">
      <acc value="0.0959900460" flag="0"/>
      <vel value="0.0131902576" flag="0"/>
      <psa03 value="0.0457508474" flag="0"/>
      <psa10 value="0.0039565579" flag="0"/>
      <psa30 value="0.0012604091" flag="0"/>
    </comp>
    <comp name="--.HHN">
      <acc value="0.1217091365" flag="0"/>
      <vel value="0.0151431839" flag="0"/>
      <psa03 value="0.0490035573" flag="0"/>
      <psa10 value="0.0058072498" flag="0"/>
      <psa30 value="0.0010343351" flag="0"/>
    </comp>
    <comp name="--.HHZ">
      <acc value="0.0762831404" flag="0"/>
      <vel value="0.0111994111" flag="0"/>
      <psa03 value="0.0278438146" flag="0"/>
      <psa10 value="0.0036366791" flag="0"/>
      <psa30 value="0.0010027674" flag="0"/>
    </comp>
  </station>
  <station code="THERA" name="THERA" netid="GE" insttype="STS-2/N" lat="36.367" lon="25.4753">
    <comp name="--.HHE">
      <acc value="0.1190578918" flag="0"/>
      <vel value="0.0494517486" flag="0"/>
      <psa03 value="0.1467918435" flag="0"/>
      <psa10 value="0.0136998113" flag="0"/>
      <psa30 value="0.0014457331" flag="0"/>
    </comp>
    <comp name="--.HHN">
      <acc value="0.1087959322" flag="0"/>
      <vel value="0.0276913820" flag="0"/>
      <psa03 value="0.2400405023" flag="0"/>
      <psa10 value="0.0116059158" flag="0"/>
      <psa30 value="0.0008476421" flag="0"/>
    </comp>
    <comp name="--.HHZ">
      <acc value="0.1104098448" flag="0"/>
      <vel value="0.0338186781" flag="0"/>
      <psa03 value="0.1302785082" flag="0"/>
      <psa10 value="0.0167163334" flag="0"/>
      <psa30 value="0.0014711203" flag="0"/>
    </comp>
  </station>
  <station code="SERI" name="SERI" netid="HA" insttype="30" lat="37.1609" lon="24.4853">
    <comp name="--.HHN">
      <acc value="0.0386366390" flag="0"/>
      <vel value="0.0125961715" flag="0"/>
      <psa03 value="0.0491736536" flag="0"/>
      <psa10 value="0.0064846423" flag="0"/>
      <psa30 value="0.0005060897" flag="0"/>
    </comp>
    <comp name="--.HHE">
      <acc value="0.0319502047" flag="0"/>
      <vel value="0.0081826061" flag="0"/>
      <psa03 value="0.0396417452" flag="0"/>
      <psa10 value="0.0031817892" flag="0"/>
      <psa30 value="0.0003809847" flag="0"/>
    </comp>
    <comp name="--.HHZ">
      <acc value="0.0285708165" flag="0"/>
      <vel value="0.0097036173" flag="0"/>
      <psa03 value="0.0436485433" flag="0"/>
      <psa10 value="0.0056330508" flag="0"/>
      <psa30 value="0.0006208424" flag="0"/>
    </comp>
  </station>
  <station code="SNT1" name="SNT1" netid="HA" insttype="30" lat="36.4159" lon="25.4282">
    <comp name="--.HHN">
      <acc value="0.1575597326" flag="0"/>
      <vel value="0.0749676960" flag="0"/>
      <psa03 value="0.2628857581" flag="0"/>
      <psa10 value="0.0483297475" flag="0"/>
      <psa30 value="0.0028510576" flag="0"/>
    </comp>
    <comp name="--.HHE">
      <acc value="0.1403334957" flag="0"/>
      <vel value="0.0651891450" flag="0"/>
      <psa03 value="0.2834619979" flag="0"/>
      <psa10 value="0.0495080078" flag="0"/>
      <psa30 value="0.0037342212" flag="0"/>
    </comp>
    <comp name="--.HHZ">
      <acc value="0.0940701238" flag="0"/>
      <vel value="0.0389068990" flag="0"/>
      <psa03 value="0.2369815816" flag="0"/>
      <psa10 value="0.0227089906" flag="0"/>
      <psa30 value="0.0017490297" flag="0"/>
    </comp>
  </station>
  <station code="NAX1" name="NAX1" netid="HI" insttype="CMG-5TD,ACCELEROMETER,GURALP" lat="37.1014" lon="25.3741">
    <comp name="--.HNE">
      <acc value="0.0762317283" flag="0"/>
      <vel value="0.0208085837" flag="0"/>
      <psa03 value="0.0826240608" flag="0"/>
      <psa10 value="0.0037239853" flag="0"/>
      <psa30 value="0.0006566079" flag="0"/>
    </comp>
    <comp name="--.HNN">
      <acc value="0.1035629243" flag="0"/>
      <vel value="0.0225325818" flag="0"/>
      <psa03 value="0.0620074418" flag="0"/>
      <psa10 value="0.0050337371" flag="0"/>
      <psa30 value="0.0006868317" flag="0"/>
    </comp>
    <comp name="--.HNZ">
      <acc value="0.0497049884" flag="0"/>
      <vel value="0.0092616425" flag="0"/>
      <psa03 value="0.0547695825" flag="0"/>
      <psa10 value="0.0046954129" flag="0"/>
      <psa30 value="0.0011080277" flag="0"/>
    </comp>
  </station>
  <station code="SFR2" name="SFR2" netid="HI" insttype="unknown" lat="36.3998" lon="25.4382">
    <comp name="--.HNE">
      <acc value="0.3560176674" flag="0"/>
      <vel value="0.1550401731" flag="0"/>
      <psa03 value="0.8528473608" flag="0"/>
      <psa10 value="0.0654043335" flag="0"/>
      <psa30 value="0.0056238551" flag="0"/>
    </comp>
    <comp name="--.HNZ">
      <acc value="0.3437178255" flag="0"/>
      <vel value="0.1524916081" flag="0"/>
      <psa03 value="0.5747293189" flag="0"/>
      <psa10 value="0.0496007759" flag="0"/>
      <psa30 value="0.0045176303" flag="0"/>
    </comp>
    <comp name="--.HNN">
      <acc value="0.3459310834" flag="0"/>
      <vel value="0.1662448621" flag="0"/>
      <psa03 value="1.2318346906" flag="0"/>
      <psa10 value="0.1035965187" flag="0"/>
      <psa30 value="0.0064155524" flag="0"/>
    </comp>
  </station>
  <station code="AMGA" name="AMGA" netid="HL" insttype="SMART24" lat="36.8316" lon="25.8938">
    <comp name="--.HHZ">
      <acc value="0.2822294297" flag="0"/>
      <vel value="0.0453412541" flag="0"/>
      <psa03 value="0.1803059784" flag="0"/>
      <psa10 value="0.0136669658" flag="0"/>
      <psa30 value="0.0020828944" flag="0"/>
    </comp>
    <comp name="--.HHE">
      <acc value="0.4043536612" flag="0"/>
      <vel value="0.0684655298" flag="0"/>
      <psa03 value="0.1406307714" flag="0"/>
      <psa10 value="0.0280863869" flag="0"/>
      <psa30 value="0.0020498507" flag="0"/>
    </comp>
    <comp name="--.HHN">
      <acc value="0.4608510779" flag="0"/>
      <vel value="0.0707324416" flag="0"/>
      <psa03 value="0.2093324819" flag="0"/>
      <psa10 value="0.0237344892" flag="0"/>
      <psa30 value="0.0023653019" flag="0"/>
    </comp>
  </station>
  <station code="APE" name="APE" netid="HL" insttype="120" lat="37.0727" lon="25.523">
    <comp name="--.HHE">
      <acc value="0.0876398486" flag="0"/>
      <vel value="0.0128327812" flag="0"/>
      <psa03 value="0.0443694758" flag="0"/>
      <psa10 value="0.0039202058" flag="0"/>
      <psa30 value="0.0012571775" flag="0"/>
    </comp>
    <comp name="--.HHN">
      <acc value="0.1077562972" flag="0"/>
      <vel value="0.0141038482" flag="0"/>
      <psa03 value="0.0470779121" flag="0"/>
      <psa10 value="0.0057617380" flag="0"/>
      <psa30 value="0.0010298121" flag="0"/>
    </comp>
    <comp name="--.HHZ">
      <acc value="0.0739910642" flag="0"/>
      <vel value="0.0102426091" flag="0"/>
      <psa03 value="0.0269109130" flag="0"/>
      <psa10 value="0.0036137641" flag="0"/>
      <psa30 value="0.0010011746" flag="0"/>
    </comp>
  </station>
  <station code="MHLO" name="MHLO" netid="HL" insttype="20" lat="36.6898" lon="24.4017">
    <comp name="--.HHZ">
      <acc value="0.0413739967" flag="0"/>
      <vel value="0.0227649936" flag="0"/>
      <psa03 value="0.1316858100" flag="0"/>
      <psa10 value="0.0209209309" flag="0"/>
      <psa30 value="0.0012709415" flag="0"/>
    </comp>
    <comp name="--.HHN">
      <acc value="0.1254914974" flag="0"/>
      <vel value="0.0524521766" flag="0"/>
      <psa03 value="0.4914923537" flag="0"/>
      <psa10 value="0.0531501978" flag="0"/>
      <psa30 value="0.0021325758" flag="0"/>
    </comp>
    <comp name="--.HHE">
      <acc value="0.1451504470" flag="0"/>
      <vel value="0.0488800544" flag="0"/>
      <psa03 value="0.2578858657" flag="0"/>
      <psa10 value="0.0423721527" flag="0"/>
      <psa30 value="0.0019178447" flag="0"/>
    </comp>
  </station>
  <station code="MILA" name="MILA" netid="HL" insttype="CMG-5" lat="36.7429" lon="24.4282">
    <comp name="00.HNE">
      <acc value="0.1320569692" flag="0"/>
      <vel value="0.0673369327" flag="0"/>
      <psa03 value="0.3938618923" flag="0"/>
      <psa10 value="0.0223805584" flag="0"/>
      <psa30 value="0.0020839208" flag="0"/>
    </comp>
    <comp name="00.HNZ">
      <acc value="0.0997634523" flag="0"/>
      <vel value="0.0436820868" flag="0"/>
      <psa03 value="0.2847212919" flag="0"/>
      <psa10 value="0.0188747732" flag="0"/>
      <psa30 value="0.0012698408" flag="0"/>
    </comp>
    <comp name="00.HNN">
      <acc value="0.1487306760" flag="0"/>
      <vel value="0.0710440399" flag="0"/>
      <psa03 value="0.4868207414" flag="0"/>
      <psa10 value="0.0314099179" flag="0"/>
      <psa30 value="0.0029671751" flag="0"/>
    </comp>
  </station>
  <station code="SANT" name="SANT" netid="HL" insttype="30" lat="36.3705" lon="25.4593">
    <comp name="--.HHE">
      <acc value="0.3663842847" flag="0"/>
      <vel value="0.1145922819" flag="0"/>
      <psa03 value="0.8039678521" flag="0"/>
      <psa10 value="0.0267377682" flag="0"/>
      <psa30 value="0.0038707200" flag="0"/>
    </comp>
    <comp name="--.HHZ">
      <acc value="0.3219034636" flag="0"/>
      <vel value="0.0760807728" flag="0"/>
      <psa03 value="0.3127520689" flag="0"/>
      <psa10 value="0.0191864566" flag="0"/>
      <psa30 value="0.0016937295" flag="0"/>
    </comp>
    <comp name="--.HHN">
      <acc value="0.2213551672" flag="0"/>
      <vel value="0.0524870611" flag="0"/>
      <psa03 value="0.1950862984" flag="0"/>
      <psa10 value="0.0229648245" flag="0"/>
      <psa30 value="0.0016933353" flag="0"/>
    </comp>
  </station>
  <station code="SAP3" name="SAP3" netid="HL" insttype="65535" lat="36.4356" lon="25.3454">
    <comp name="--.HHE">
      <acc value="0.2675866948" flag="0"/>
      <vel value="0.0880769437" flag="0"/>
      <psa03 value="0.4309924988" flag="0"/>
      <psa10 value="0.0296973550" flag="0"/>
      <psa30 value="0.0034458640" flag="0"/>
    </comp>
    <comp name="--.HHN">
      <acc value="0.2612890667" flag="0"/>
      <vel value="0.0880906017" flag="0"/>
      <psa03 value="0.3763141725" flag="0"/>
      <psa10 value="0.0263447078" flag="0"/>
      <psa30 value="0.0029291697" flag="0"/>
    </comp>
    <comp name="--.HHZ">
      <acc value="0.2186855189" flag="0"/>
      <vel value="0.0627715787" flag="0"/>
      <psa03 value="0.4299702039" flag="0"/>
      <psa10 value="0.0132448260" flag="0"/>
      <psa30 value="0.0013606087" flag="0"/>
    </comp>
  </station>
  <station code="THERA" name="THERA" netid="HL" insttype="120" lat="36.367" lon="25.4753">
    <comp name="--.HHE">
      <acc value="0.1213766704" flag="0"/>
      <vel value="0.0482964267" flag="0"/>
      <psa03 value="0.1422593401" flag="0"/>
      <psa10 value="0.0135766518" flag="0"/>
      <psa30 value="0.0014420770" flag="0"/>
    </comp>
    <comp name="--.HHN">
      <acc value="0.2108543265" flag="0"/>
      <vel value="0.0537766456" flag="0"/>
      <psa03 value="0.4655653895" flag="0"/>
      <psa10 value="0.0230466085" flag="0"/>
      <psa30 value="0.0016691418" flag="0"/>
    </comp>
    <comp name="--.HHZ">
      <acc value="0.1084101804" flag="0"/>
      <vel value="0.0327833661" flag="0"/>
      <psa03 value="0.1263157564" flag="0"/>
      <psa10 value="0.0164594095" flag="0"/>
      <psa30 value="0.0014610224" flag="0"/>
    </comp>
  </station>
  <station code="THRA" name="THRA" netid="HL" insttype="CMG-5" lat="36.415" lon="25.4324">
    <comp name="00.HNE">
      <acc value="0.4837716939" flag="0"/>
      <vel value="0.2265311792" flag="0"/>
      <psa03 value="1.2272496531" flag="0"/>
      <psa10 value="0.0867222267" flag="0"/>
      <psa30 value="0.0074891735" flag="0"/>
    </comp>
    <comp name="00.HNN">
      <acc value="0.5070903806" flag="0"/>
      <vel value="0.1892913757" flag="0"/>
      <psa03 value="1.2549815739" flag="0"/>
      <psa10 value="0.1992837421" flag="0"/>
      <psa30 value="0.0099711154" flag="0"/>
    </comp>
    <comp name="00.HNZ">
      <acc value="0.3904165836" flag="0"/>
      <vel value="0.1507741721" flag="0"/>
      <psa03 value="0.8812910015" flag="0"/>
      <psa10 value="0.0567300872" flag="0"/>
      <psa30 value="0.0049549174" flag="0"/>
    </comp>
  </station>
  <station code="TNSA" name="TNSA" netid="HL" insttype="CMG-5" lat="37.5394" lon="25.1631">
    <comp name="00.HNN">
      <acc value="0.0334330486" flag="0"/>
      <vel value="0.0094610213" flag="0"/>
      <psa03 value="0.0766982668" flag="0"/>
      <psa10 value="0.0045295979" flag="0"/>
      <psa30 value="0.0005255495" flag="0"/>
    </comp>
    <comp name="00.HNE">
      <acc value="0.0253003474" flag="0"/>
      <vel value="0.0064197601" flag="0"/>
      <psa03 value="0.0395306450" flag="0"/>
      <psa10 value="0.0041491115" flag="0"/>
      <psa30 value="0.0003921658" flag="0"/>
    </comp>
    <comp name="00.HNZ">
      <acc value="0.0260809258" flag="0"/>
      <vel value="0.0119746055" flag="0"/>
      <psa03 value="0.0398029193" flag="0"/>
      <psa10 value="0.0048117882" flag="0"/>
      <psa30 value="0.0005724227" flag="0"/>
    </comp>
  </station>
  <station code="AKRO" name="AKRO" netid="HT" insttype="Compact," lat="36.3584" lon="25.3967">
    <comp name="--.HHE">
      <acc value="0.6598913384" flag="0"/>
      <vel value="0.2295024246" flag="0"/>
      <psa03 value="1.1402514944" flag="0"/>
      <psa10 value="0.1117471000" flag="0"/>
      <psa30 value="0.0069875694" flag="0"/>
    </comp>
    <comp name="--.HHN">
      <acc value="0.3437200427" flag="0"/>
      <vel value="0.1176085401" flag="0"/>
      <psa03 value="0.6498177994" flag="0"/>
      <psa10 value="0.0457781776" flag="0"/>
      <psa30 value="0.0031922240" flag="0"/>
    </comp>
    <comp name="--.HHZ">
      <acc value="0.2149288604" flag="0"/>
      <vel value="0.0929675584" flag="0"/>
      <psa03 value="0.5050103833" flag="0"/>
      <psa10 value="0.0378315694" flag="0"/>
      <psa30 value="0.0039236040" flag="0"/>
    </comp>
  </station>
  <station code="CMBO" name="CMBO" netid="HT" insttype="120P," lat="36.4709" lon="25.4056">
    <comp name="--.HHN">
      <acc value="0.3093532089" flag="0"/>
      <vel value="0.1424254508" flag="0"/>
      <psa03 value="0.4604529151" flag="0"/>
      <psa10 value="0.0709781474" flag="0"/>
      <psa30 value="0.0050282218" flag="0"/>
    </comp>
    <comp name="--.HHE">
      <acc value="0.3773379279" flag="0"/>
      <vel value="0.0880483225" flag="0"/>
      <psa03 value="0.3764547650" flag="0"/>
      <psa10 value="0.0490903172" flag="0"/>
      <psa30 value="0.0033334070" flag="0"/>
    </comp>
    <comp name="--.HHZ">
      <acc value="0.2680380134" flag="0"/>
      <vel value="0.0835039911" flag="0"/>
      <psa03 value="0.4557459992" flag="0"/>
      <psa10 value="0.0242673525" flag="0"/>
      <psa30 value="0.0021509918" flag="0"/>
    </comp>
  </station>
</stationlist>
