<stationlist created="1741951782">
	<station code="BODA" name="BODA" netid="KO" source="Bogazici University Kandilli Observatory And Earthquake Research Institute (KOERI)" insttype="" lat="37.0348" lon="27.4304">
		<comp name=".HNE" depth="0.0">
			<acc value="0.0064117084771926" flag="0"/>
			<vel value="0.00288998351153" flag="0"/>
			<psa03 value="0.0128418194574983" flag="0"/>
			<psa10 value="0.00168099225592345" flag="0"/>
			<psa30 value="0.000385488531514963" flag="0"/>
		</comp>
		<comp name=".HNN" depth="0.0">
			<acc value="0.005684422083948" flag="0"/>
			<vel value="0.00303816277211" flag="0"/>
			<psa03 value="0.0149303263004482" flag="0"/>
			<psa10 value="0.00181811001117923" flag="0"/>
			<psa30 value="0.00022871728681437" flag="0"/>
		</comp>
		<comp name=".HNZ" depth="0.0">
			<acc value="0.010212913599432" flag="0"/>
			<vel value="0.00121387362891" flag="0"/>
			<psa03 value="0.00300495589951692" flag="0"/>
			<psa10 value="0.0012998148954185" flag="0"/>
			<psa30 value="0.000355620172674517" flag="0"/>
		</comp>
	</station>
	<station code="BODM" name="BODM" netid="KO" source="Bogazici University Kandilli Observatory And Earthquake Research Institute (KOERI)" insttype="" lat="37.031" lon="27.4247">
		<comp name=".HNE" depth="0.0">
			<acc value="0.0052048545105756" flag="0"/>
			<vel value="0.00287972480356" flag="0"/>
			<psa03 value="0.0115682988951328" flag="0"/>
			<psa10 value="0.00243289233905061" flag="0"/>
			<psa30 value="0.000361610048640867" flag="0"/>
		</comp>
		<comp name=".HNN" depth="0.0">
			<acc value="0.0061877857256964" flag="0"/>
			<vel value="0.00374513352442" flag="0"/>
			<psa03 value="0.0162078015518714" flag="0"/>
			<psa10 value="0.00326796133014824" flag="0"/>
			<psa30 value="0.000233807025026079" flag="0"/>
		</comp>
		<comp name=".HNZ" depth="0.0">
			<acc value="0.0043605907501752" flag="0"/>
			<vel value="0.000757190512895" flag="0"/>
			<psa03 value="0.002155705142126" flag="0"/>
			<psa10 value="0.00100511392761304" flag="0"/>
			<psa30 value="0.000324520039526837" flag="0"/>
		</comp>
	</station>
	<station code="CESE" name="CESE" netid="KO" source="Bogazici University Kandilli Observatory And Earthquake Research Institute (KOERI)" insttype="" lat="38.3306" lon="26.2997">
		<comp name=".HNE" depth="0.0">
			<acc value="0.101206997650626" flag="0"/>
			<vel value="0.00563706142788" flag="0"/>
			<psa03 value="0.0040053411805518" flag="0"/>
			<psa10 value="0.00184846956141033" flag="0"/>
			<psa30 value="0.000765884538174708" flag="0"/>
		</comp>
		<comp name=".HNN" depth="0.0">
			<acc value="0.062638133149608" flag="0"/>
			<vel value="0.00462803681914" flag="0"/>
			<psa03 value="0.00752276592443237" flag="0"/>
			<psa10 value="0.00238728650538898" flag="0"/>
			<psa30 value="0.000520627561937644" flag="0"/>
		</comp>
		<comp name=".HNZ" depth="0.0">
			<acc value="0.012210497554068" flag="0"/>
			<vel value="0.00126512452193" flag="0"/>
			<psa03 value="0.00396583888923871" flag="0"/>
			<psa10 value="0.00105289701488515" flag="0"/>
			<psa30 value="0.000401692677876783" flag="0"/>
		</comp>
	</station>
	<station code="DATC" name="DATC" netid="KO" source="Bogazici University Kandilli Observatory And Earthquake Research Institute (KOERI)" insttype="" lat="36.7584" lon="27.6602">
		<comp name=".HNE" depth="0.0">
			<acc value="0.19550853394152" flag="0"/>
			<vel value="0.0164762960406" flag="0"/>
			<psa03 value="0.0194290969781613" flag="0"/>
			<psa10 value="0.00599654739809928" flag="0"/>
			<psa30 value="0.000921351868374134" flag="0"/>
		</comp>
		<comp name=".HNN" depth="0.0">
			<acc value="0.27088379685618" flag="0"/>
			<vel value="0.0248940492381" flag="0"/>
			<psa03 value="0.0252508133674665" flag="0"/>
			<psa10 value="0.00850681884750032" flag="0"/>
			<psa30 value="0.000932781479696559" flag="0"/>
		</comp>
		<comp name=".HNZ" depth="0.0">
			<acc value="0.20615638693986" flag="0"/>
			<vel value="0.0329514747381" flag="0"/>
			<psa03 value="0.0330685291694515" flag="0"/>
			<psa10 value="0.00588589397410557" flag="0"/>
			<psa30 value="0.000737320093839457" flag="0"/>
		</comp>
	</station>
	<station code="DIDI" name="DIDI" netid="KO" source="Bogazici University Kandilli Observatory And Earthquake Research Institute (KOERI)" insttype="" lat="37.3767" lon="27.2398">
		<comp name=".HNE" depth="0.0">
			<acc value="0.096159201957792" flag="0"/>
			<vel value="0.00935669188132" flag="0"/>
			<psa03 value="0.0311030916771903" flag="0"/>
			<psa10 value="0.00860734050656692" flag="0"/>
			<psa30 value="0.00138071844498716" flag="0"/>
		</comp>
		<comp name=".HNN" depth="0.0">
			<acc value="0.092234887654104" flag="0"/>
			<vel value="0.00918303714014" flag="0"/>
			<psa03 value="0.0348261534159201" flag="0"/>
			<psa10 value="0.00640638486031551" flag="0"/>
			<psa30 value="0.00146811642217284" flag="0"/>
		</comp>
		<comp name=".HNZ" depth="0.0">
			<acc value="0.11282324237676" flag="0"/>
			<vel value="0.0135372946211" flag="0"/>
			<psa03 value="0.0201284532028944" flag="0"/>
			<psa10 value="0.0053027795643632" flag="0"/>
			<psa30 value="0.000889532052131487" flag="0"/>
		</comp>
	</station>
	<station code="GMLD" name="GMLD" netid="KO" source="Bogazici University Kandilli Observatory And Earthquake Research Institute (KOERI)" insttype="" lat="38.0766" lon="26.9157">
		<comp name=".HNE" depth="0.0">
			<acc value="0.016498375057854" flag="0"/>
			<vel value="0.00697042948418" flag="0"/>
			<psa03 value="0.0236436574221206" flag="0"/>
			<psa10 value="0.00543982676808613" flag="0"/>
			<psa30 value="0.000481356054143257" flag="0"/>
		</comp>
		<comp name=".HNN" depth="0.0">
			<acc value="0.023825770458882" flag="0"/>
			<vel value="0.00625672619147" flag="0"/>
			<psa03 value="0.0432940633317259" flag="0"/>
			<psa10 value="0.00689197968481972" flag="0"/>
			<psa30 value="0.000500688532739978" flag="0"/>
		</comp>
		<comp name=".HNZ" depth="0.0">
			<acc value="0.009767562537723" flag="0"/>
			<vel value="0.00445166817786" flag="0"/>
			<psa03 value="0.0227310500913626" flag="0"/>
			<psa10 value="0.00386980166786849" flag="0"/>
			<psa30 value="0.000559698900222581" flag="0"/>
		</comp>
	</station>
	<station code="KUSD" name="KUSD" netid="KO" source="Bogazici University Kandilli Observatory And Earthquake Research Institute (KOERI)" insttype="" lat="37.8606" lon="27.2868">
		<comp name=".HNE" depth="0.0">
			<acc value="0.0044529126385914" flag="0"/>
			<vel value="0.00196787067688" flag="0"/>
			<psa03 value="0.00784169134856415" flag="0"/>
			<psa10 value="0.00304506883024046" flag="0"/>
			<psa30 value="0.000437288343206453" flag="0"/>
		</comp>
		<comp name=".HNN" depth="0.0">
			<acc value="0.013908392441382" flag="0"/>
			<vel value="0.00204223477715" flag="0"/>
			<psa03 value="0.00808905278711129" flag="0"/>
			<psa10 value="0.0032471814379585" flag="0"/>
			<psa30 value="0.000416237209088782" flag="0"/>
		</comp>
		<comp name=".HNZ" depth="0.0">
			<acc value="0.0029489768507142" flag="0"/>
			<vel value="0.00147484865955" flag="0"/>
			<psa03 value="0.00385439758752746" flag="0"/>
			<psa10 value="0.00123708343507989" flag="0"/>
			<psa30 value="0.000359270622832295" flag="0"/>
		</comp>
	</station>
	<station code="YKAV" name="YKAV" netid="KO" source="Bogazici University Kandilli Observatory And Earthquake Research Institute (KOERI)" insttype="" lat="37.1246" lon="27.2801">
		<comp name=".HNE" depth="0.0">
			<acc value="0.0083550892532658" flag="0"/>
			<vel value="0.00325731817206" flag="0"/>
			<psa03 value="0.01692135533173" flag="0"/>
			<psa10 value="0.00437159897196025" flag="0"/>
			<psa30 value="0.000716120616561251" flag="0"/>
		</comp>
		<comp name=".HNN" depth="0.0">
			<acc value="0.0101244369643602" flag="0"/>
			<vel value="0.00215418722915" flag="0"/>
			<psa03 value="0.0157197405744011" flag="0"/>
			<psa10 value="0.00261132751888226" flag="0"/>
			<psa30 value="0.000727494338764773" flag="0"/>
		</comp>
		<comp name=".HNZ" depth="0.0">
			<acc value="0.0096602852968008" flag="0"/>
			<vel value="0.0022509824101" flag="0"/>
			<psa03 value="0.0120473905283917" flag="0"/>
			<psa10 value="0.00289787204792738" flag="0"/>
			<psa30 value="0.0006554949858277" flag="0"/>
		</comp>
	</station>
</stationlist>
