<?xml version="1.0" encoding="UTF-8" standalone="yes"?>
<!DOCTYPE earthquake SYSTEM "stationlist.dtd">
<stationlist created="" xmlns="ch.ethz.sed.shakemap.usgs.xml">
  <station code="THERA" name="THERA" netid="GE" insttype="STS-2/N" lat="36.367" lon="25.4753">
    <comp name="--.HHE">
      <acc value="0.1622573914" flag="0"/>
      <vel value="0.0384551068" flag="0"/>
      <psa03 value="0.1774896418" flag="0"/>
      <psa10 value="0.0335178591" flag="0"/>
      <psa30 value="0.0026791487" flag="0"/>
    </comp>
    <comp name="--.HHN">
      <acc value="0.1533854864" flag="0"/>
      <vel value="0.0328477783" flag="0"/>
      <psa03 value="0.1411949541" flag="0"/>
      <psa10 value="0.0171119082" flag="0"/>
      <psa30 value="0.0010523178" flag="0"/>
    </comp>
    <comp name="--.HHZ">
      <acc value="0.1558791762" flag="0"/>
      <vel value="0.0350297724" flag="0"/>
      <psa03 value="0.1159284185" flag="0"/>
      <psa10 value="0.0194430811" flag="0"/>
      <psa30 value="0.0021073142" flag="0"/>
    </comp>
  </station>
</stationlist>
