<?xml version="1.0" encoding="UTF-8" standalone="yes"?>
<!DOCTYPE earthquake SYSTEM "stationlist.dtd">
<stationlist created="" xmlns="ch.ethz.sed.shakemap.usgs.xml">
  <station code="THERA" name="THERA" netid="GE" insttype="STS-2/N" lat="36.367" lon="25.4753">
    <comp name="--.HHE">
      <acc value="0.1622573913" flag="0"/>
      <vel value="0.0384551357" flag="0"/>
      <psa03 value="0.1774896418" flag="0"/>
      <psa10 value="0.0335179122" flag="0"/>
      <psa30 value="0.0026750131" flag="0"/>
    </comp>
    <comp name="--.HHN">
      <acc value="0.1533854864" flag="0"/>
      <vel value="0.0328477848" flag="0"/>
      <psa03 value="0.1411949541" flag="0"/>
      <psa10 value="0.0171119169" flag="0"/>
      <psa30 value="0.0010523698" flag="0"/>
    </comp>
    <comp name="--.HHZ">
      <acc value="0.1558791764" flag="0"/>
      <vel value="0.0350297668" flag="0"/>
      <psa03 value="0.1159284186" flag="0"/>
      <psa10 value="0.0194430852" flag="0"/>
      <psa30 value="0.0021073364" flag="0"/>
    </comp>
  </station>
  <station code="SNT1" name="SNT1" netid="HA" insttype="30" lat="36.4159" lon="25.4282">
    <comp name="--.HHZ">
      <acc value="0.1520757168" flag="0"/>
      <vel value="0.0400005592" flag="0"/>
      <psa03 value="0.2194200326" flag="0"/>
      <psa10 value="0.0302288783" flag="0"/>
      <psa30 value="0.0024906085" flag="0"/>
    </comp>
    <comp name="--.HHN">
      <acc value="0.1659701411" flag="0"/>
      <vel value="0.0816179416" flag="0"/>
      <psa03 value="0.3042623389" flag="0"/>
      <psa10 value="0.0606720087" flag="0"/>
      <psa30 value="0.0046008769" flag="0"/>
    </comp>
    <comp name="--.HHE">
      <acc value="0.2382948575" flag="0"/>
      <vel value="0.0918227150" flag="0"/>
      <psa03 value="0.2981764046" flag="0"/>
      <psa10 value="0.0719557283" flag="0"/>
      <psa30 value="0.0051955660" flag="0"/>
    </comp>
  </station>
  <station code="THERA" name="THERA" netid="HL" insttype="120" lat="36.367" lon="25.4753">
    <comp name="--.HHE">
      <acc value="0.1607297107" flag="0"/>
      <vel value="0.0374164807" flag="0"/>
      <psa03 value="0.1725383367" flag="0"/>
      <psa10 value="0.0331817872" flag="0"/>
      <psa30 value="0.0026542148" flag="0"/>
    </comp>
    <comp name="--.HHN">
      <acc value="0.1499564644" flag="0"/>
      <vel value="0.0322237263" flag="0"/>
      <psa03 value="0.1369969152" flag="0"/>
      <psa10 value="0.0169780764" flag="0"/>
      <psa30 value="0.0010530944" flag="0"/>
    </comp>
    <comp name="--.HHZ">
      <acc value="0.1508214475" flag="0"/>
      <vel value="0.0339637946" flag="0"/>
      <psa03 value="0.1126178808" flag="0"/>
      <psa10 value="0.0192859186" flag="0"/>
      <psa30 value="0.0021025824" flag="0"/>
    </comp>
  </station>
  <station code="THRA" name="THRA" netid="HL" insttype="CMG-5" lat="36.415" lon="25.4324">
    <comp name="00.HNZ">
      <acc value="0.4601877027" flag="0"/>
      <vel value="0.1242418074" flag="0"/>
      <psa03 value="0.9910049366" flag="0"/>
      <psa10 value="0.0608094799" flag="0"/>
      <psa30 value="0.0044540587" flag="0"/>
    </comp>
    <comp name="00.HNE">
      <acc value="0.5813203623" flag="0"/>
      <vel value="0.1629044350" flag="0"/>
      <psa03 value="1.1307688075" flag="0"/>
      <psa10 value="0.1134453006" flag="0"/>
      <psa30 value="0.0093465127" flag="0"/>
    </comp>
    <comp name="00.HNN">
      <acc value="0.5907090210" flag="0"/>
      <vel value="0.2061803556" flag="0"/>
      <psa03 value="1.0034731463" flag="0"/>
      <psa10 value="0.2270313692" flag="0"/>
      <psa30 value="0.0069150367" flag="0"/>
    </comp>
  </station>
  <station code="TNSA" name="TNSA" netid="HL" insttype="CMG-5" lat="37.5394" lon="25.1631">
    <comp name="00.HNN">
      <acc value="0.1018978537" flag="0"/>
      <vel value="0.0448191213" flag="0"/>
      <psa03 value="0.2659980608" flag="0"/>
      <psa10 value="0.0173165635" flag="0"/>
      <psa30 value="0.0014215674" flag="0"/>
    </comp>
    <comp name="00.HNE">
      <acc value="0.0561757842" flag="0"/>
      <vel value="0.0175990161" flag="0"/>
      <psa03 value="0.1012581056" flag="0"/>
      <psa10 value="0.0119831979" flag="0"/>
      <psa30 value="0.0005844961" flag="0"/>
    </comp>
    <comp name="00.HNZ">
      <acc value="0.0828744323" flag="0"/>
      <vel value="0.0428867208" flag="0"/>
      <psa03 value="0.2191092910" flag="0"/>
      <psa10 value="0.0212290288" flag="0"/>
      <psa30 value="0.0018914189" flag="0"/>
    </comp>
  </station>
  <station code="CMBO" name="CMBO" netid="HT" insttype="120P," lat="36.4709" lon="25.4056">
    <comp name="--.HHE">
      <acc value="0.8524716088" flag="0"/>
      <vel value="0.2520298809" flag="0"/>
      <psa03 value="1.2145999529" flag="0"/>
      <psa10 value="0.1487609923" flag="0"/>
      <psa30 value="0.0126360883" flag="0"/>
    </comp>
    <comp name="--.HHN">
      <acc value="1.4377728099" flag="0"/>
      <vel value="0.3126403773" flag="0"/>
      <psa03 value="1.0126324992" flag="0"/>
      <psa10 value="0.1691159777" flag="0"/>
      <psa30 value="0.0107743894" flag="0"/>
    </comp>
    <comp name="--.HHZ">
      <acc value="0.8766287913" flag="0"/>
      <vel value="0.2064043073" flag="0"/>
      <psa03 value="1.5029730922" flag="0"/>
      <psa10 value="0.0635628442" flag="0"/>
      <psa30 value="0.0103500948" flag="0"/>
    </comp>
  </station>
</stationlist>
