<?xml version="1.0" encoding="UTF-8" standalone="yes"?>
<!DOCTYPE earthquake SYSTEM "stationlist.dtd">
<stationlist created="" xmlns="ch.ethz.sed.shakemap.usgs.xml">
  <station code="ARPRA" name="ARPRA" netid="KO" insttype="CMG-5T" lat="39.0929" lon="38.3356">
    <comp name="--.HNN">
      <acc value="0.0333361096" flag="0"/>
      <vel value="0.0275803577" flag="0"/>
      <psa03 value="0.1085516470" flag="0"/>
      <psa10 value="0.0347028555" flag="0"/>
      <psa30 value="0.0015798515" flag="0"/>
    </comp>
    <comp name="--.HNZ">
      <acc value="0.0260213377" flag="0"/>
      <vel value="0.0151891548" flag="0"/>
      <psa03 value="0.0563651228" flag="0"/>
      <psa10 value="0.0261288685" flag="0"/>
      <psa30 value="0.0013237355" flag="0"/>
    </comp>
    <comp name="--.HNE">
      <acc value="0.0357945980" flag="0"/>
      <vel value="0.0271507144" flag="0"/>
      <psa03 value="0.0751162390" flag="0"/>
      <psa10 value="0.0459364716" flag="0"/>
      <psa30 value="0.0016527881" flag="0"/>
    </comp>
  </station>
  <station code="DARE" name="DARE" netid="KO" insttype="CMG-3ESP" lat="38.5712" lon="37.4832">
    <comp name="--.HHZ">
      <acc value="0.0360072854" flag="0"/>
      <vel value="0.0188623768" flag="0"/>
      <psa03 value="0.0497933821" flag="0"/>
      <psa10 value="0.0108377863" flag="0"/>
      <psa30 value="0.0010934362" flag="0"/>
    </comp>
    <comp name="--.HHE">
      <acc value="0.0362964638" flag="0"/>
      <vel value="0.0123840777" flag="0"/>
      <psa03 value="0.0440240982" flag="0"/>
      <psa10 value="0.0140600401" flag="0"/>
      <psa30 value="0.0007677637" flag="0"/>
    </comp>
    <comp name="--.HHN">
      <acc value="0.0525405703" flag="0"/>
      <vel value="0.0136203630" flag="0"/>
      <psa03 value="0.0384677858" flag="0"/>
      <psa10 value="0.0088268220" flag="0"/>
      <psa30 value="0.0009616157" flag="0"/>
    </comp>
  </station>
  <station code="KMRS" name="KMRS" netid="KO" insttype="CMG-3T" lat="37.5087" lon="36.9">
    <comp name="--.HHN">
      <acc value="0.0154367677" flag="0"/>
      <vel value="0.0056726438" flag="0"/>
      <psa03 value="0.0293309408" flag="0"/>
      <psa10 value="0.0077619788" flag="0"/>
      <psa30 value="0.0006630458" flag="0"/>
    </comp>
    <comp name="--.HHZ">
      <acc value="0.0089086746" flag="0"/>
      <vel value="0.0045860768" flag="0"/>
      <psa03 value="0.0158137272" flag="0"/>
      <psa10 value="0.0020088741" flag="0"/>
      <psa30 value="0.0004500625" flag="0"/>
    </comp>
    <comp name="--.HHE">
      <acc value="0.0090024013" flag="0"/>
      <vel value="0.0047026815" flag="0"/>
      <psa03 value="0.0194059686" flag="0"/>
      <psa10 value="0.0044911176" flag="0"/>
      <psa30 value="0.0004572106" flag="0"/>
    </comp>
  </station>
  <station code="SARI" name="SARI" netid="KO" insttype="CMG-3T" lat="38.4072" lon="36.4181">
    <comp name="--.HHZ">
      <acc value="0.0138144912" flag="0"/>
      <vel value="0.0051611523" flag="0"/>
      <psa03 value="0.0157422760" flag="0"/>
      <psa10 value="0.0052448201" flag="0"/>
      <psa30 value="0.0003107280" flag="0"/>
    </comp>
    <comp name="--.HHN">
      <acc value="0.0139642350" flag="0"/>
      <vel value="0.0045939136" flag="0"/>
      <psa03 value="0.0174687586" flag="0"/>
      <psa10 value="0.0037392805" flag="0"/>
      <psa30 value="0.0002512546" flag="0"/>
    </comp>
    <comp name="--.HHE">
      <acc value="0.0167396009" flag="0"/>
      <vel value="0.0051955448" flag="0"/>
      <psa03 value="0.0214356427" flag="0"/>
      <psa10 value="0.0041792166" flag="0"/>
      <psa30 value="0.0002293431" flag="0"/>
    </comp>
  </station>
</stationlist>
