<?xml version="1.0" encoding="UTF-8" standalone="yes"?>
<!DOCTYPE earthquake SYSTEM "stationlist.dtd">
<stationlist created="" xmlns="ch.ethz.sed.shakemap.usgs.xml">
  <station code="APE" name="APE" netid="GE" insttype="STS-2/N" lat="37.0727" lon="25.523">
    <comp name="--.HHE">
      <acc value="0.0397717301" flag="0"/>
      <vel value="0.0080428124" flag="0"/>
      <psa03 value="0.0333499605" flag="0"/>
      <psa10 value="0.0041481662" flag="0"/>
      <psa30 value="0.0010914710" flag="0"/>
    </comp>
    <comp name="--.HHN">
      <acc value="0.0551678689" flag="0"/>
      <vel value="0.0110896974" flag="0"/>
      <psa03 value="0.0326196778" flag="0"/>
      <psa10 value="0.0038594985" flag="0"/>
      <psa30 value="0.0020952155" flag="0"/>
    </comp>
    <comp name="--.HHZ">
      <acc value="0.0163017531" flag="0"/>
      <vel value="0.0066135395" flag="0"/>
      <psa03 value="0.0257834220" flag="0"/>
      <psa10 value="0.0027671133" flag="0"/>
      <psa30 value="0.0030892246" flag="0"/>
    </comp>
  </station>
  <station code="THERA" name="THERA" netid="GE" insttype="STS-2/N" lat="36.367" lon="25.4753">
    <comp name="--.HHE">
      <acc value="0.0616744015" flag="0"/>
      <vel value="0.0251423755" flag="0"/>
      <psa03 value="0.0829443641" flag="0"/>
      <psa10 value="0.0321293668" flag="0"/>
      <psa30 value="0.0066153792" flag="0"/>
    </comp>
    <comp name="--.HHN">
      <acc value="0.0322079173" flag="0"/>
      <vel value="0.0172516450" flag="0"/>
      <psa03 value="0.0446333994" flag="0"/>
      <psa10 value="0.0254907382" flag="0"/>
      <psa30 value="0.0047198687" flag="0"/>
    </comp>
    <comp name="--.HHZ">
      <acc value="0.0387411346" flag="0"/>
      <vel value="0.0191231325" flag="0"/>
      <psa03 value="0.0761292368" flag="0"/>
      <psa10 value="0.0201514156" flag="0"/>
      <psa30 value="0.0050479615" flag="0"/>
    </comp>
  </station>
  <station code="SNT1" name="SNT1" netid="HA" insttype="30" lat="36.4159" lon="25.4282">
    <comp name="--.HHE">
      <acc value="0.0602170504" flag="0"/>
      <vel value="0.0355428623" flag="0"/>
      <psa03 value="0.1084789450" flag="0"/>
      <psa10 value="0.0640076583" flag="0"/>
      <psa30 value="0.0140066896" flag="0"/>
    </comp>
    <comp name="--.HHN">
      <acc value="0.0668455155" flag="0"/>
      <vel value="0.0289719727" flag="0"/>
      <psa03 value="0.0919194352" flag="0"/>
      <psa10 value="0.0351001505" flag="0"/>
      <psa30 value="0.0168288764" flag="0"/>
    </comp>
    <comp name="--.HHZ">
      <acc value="0.0437152862" flag="0"/>
      <vel value="0.0200784506" flag="0"/>
      <psa03 value="0.0745557244" flag="0"/>
      <psa10 value="0.0188743784" flag="0"/>
      <psa30 value="0.0062124580" flag="0"/>
    </comp>
  </station>
  <station code="KNSS" name="KNSS" netid="HC" insttype="60" lat="35.3042" lon="25.1802">
    <comp name="--.HHN">
      <acc value="0.0061040647" flag="0"/>
      <vel value="0.0038634908" flag="0"/>
      <psa03 value="0.0216021593" flag="0"/>
      <psa10 value="0.0030790419" flag="0"/>
      <psa30 value="0.0006190106" flag="0"/>
    </comp>
    <comp name="--.HHE">
      <acc value="0.0069866065" flag="0"/>
      <vel value="0.0032938152" flag="0"/>
      <psa03 value="0.0193286523" flag="0"/>
      <psa10 value="0.0032615223" flag="0"/>
      <psa30 value="0.0005101243" flag="0"/>
    </comp>
    <comp name="--.HHZ">
      <acc value="0.0070946580" flag="0"/>
      <vel value="0.0034353904" flag="0"/>
      <psa03 value="0.0138065698" flag="0"/>
      <psa10 value="0.0055442410" flag="0"/>
      <psa30 value="0.0003515594" flag="0"/>
    </comp>
  </station>
  <station code="NAX1" name="NAX1" netid="HI" insttype="CMG-5TD,ACCELEROMETER,GURALP" lat="37.1014" lon="25.3741">
    <comp name="--.HNE">
      <acc value="0.0343999747" flag="0"/>
      <vel value="0.0091611038" flag="0"/>
      <psa03 value="0.0395416233" flag="0"/>
      <psa10 value="0.0038924102" flag="0"/>
      <psa30 value="0.0012449214" flag="0"/>
    </comp>
    <comp name="--.HNN">
      <acc value="0.0342244814" flag="0"/>
      <vel value="0.0088950463" flag="0"/>
      <psa03 value="0.0391883515" flag="0"/>
      <psa10 value="0.0023949042" flag="0"/>
      <psa30 value="0.0018230798" flag="0"/>
    </comp>
    <comp name="--.HNZ">
      <acc value="0.0132381309" flag="0"/>
      <vel value="0.0045899650" flag="0"/>
      <psa03 value="0.0147598667" flag="0"/>
      <psa10 value="0.0027987204" flag="0"/>
      <psa30 value="0.0023557593" flag="0"/>
    </comp>
  </station>
  <station code="APE" name="APE" netid="HL" insttype="120" lat="37.0727" lon="25.523">
    <comp name="--.HHE">
      <acc value="0.0345440963" flag="0"/>
      <vel value="0.0076932259" flag="0"/>
      <psa03 value="0.0325202034" flag="0"/>
      <psa10 value="0.0041180295" flag="0"/>
      <psa30 value="0.0010895499" flag="0"/>
    </comp>
    <comp name="--.HHN">
      <acc value="0.0519650743" flag="0"/>
      <vel value="0.0105379171" flag="0"/>
      <psa03 value="0.0317632515" flag="0"/>
      <psa10 value="0.0038278320" flag="0"/>
      <psa30 value="0.0020914883" flag="0"/>
    </comp>
    <comp name="--.HHZ">
      <acc value="0.0154696170" flag="0"/>
      <vel value="0.0065437573" flag="0"/>
      <psa03 value="0.0250935343" flag="0"/>
      <psa10 value="0.0027469792" flag="0"/>
      <psa30 value="0.0030852221" flag="0"/>
    </comp>
  </station>
  <station code="MHLO" name="MHLO" netid="HL" insttype="20" lat="36.6898" lon="24.4017">
    <comp name="--.HHE">
      <acc value="0.0314510648" flag="0"/>
      <vel value="0.0166136396" flag="0"/>
      <psa03 value="0.1115285233" flag="0"/>
      <psa10 value="0.0226639561" flag="0"/>
      <psa30 value="0.0022821833" flag="0"/>
    </comp>
    <comp name="--.HHN">
      <acc value="0.0462735634" flag="0"/>
      <vel value="0.0209787076" flag="0"/>
      <psa03 value="0.0919784978" flag="0"/>
      <psa10 value="0.0294894693" flag="0"/>
      <psa30 value="0.0020735449" flag="0"/>
    </comp>
    <comp name="--.HHZ">
      <acc value="0.0171476669" flag="0"/>
      <vel value="0.0087368545" flag="0"/>
      <psa03 value="0.0455570501" flag="0"/>
      <psa10 value="0.0080490793" flag="0"/>
      <psa30 value="0.0011697479" flag="0"/>
    </comp>
  </station>
  <station code="NISR" name="NISR" netid="HL" insttype="65535" lat="36.6106" lon="27.131">
    <comp name="--.HHE">
      <acc value="0.0000000000" flag="0"/>
      <vel value="-100.0000000000" flag="0"/>
      <psa03 value="0.0000000000" flag="0"/>
      <psa10 value="0.0000000000" flag="0"/>
      <psa30 value="0.0000000000" flag="0"/>
    </comp>
    <comp name="--.HHZ">
      <acc value="0.0062709116" flag="0"/>
      <vel value="0.0052392533" flag="0"/>
      <psa03 value="0.0145135946" flag="0"/>
      <psa10 value="0.0036340288" flag="0"/>
      <psa30 value="0.0003759172" flag="0"/>
    </comp>
  </station>
  <station code="NISR2" name="NISR2" netid="HL" insttype="120" lat="36.5744" lon="27.1767">
    <comp name="--.HHE">
      <acc value="0.0129104803" flag="0"/>
      <vel value="0.0108166028" flag="0"/>
      <psa03 value="0.0551247201" flag="0"/>
      <psa10 value="0.0153354208" flag="0"/>
      <psa30 value="0.0011578666" flag="0"/>
    </comp>
    <comp name="--.HHZ">
      <acc value="0.0053732529" flag="0"/>
      <vel value="0.0038947408" flag="0"/>
      <psa03 value="0.0230560145" flag="0"/>
      <psa10 value="0.0033913283" flag="0"/>
      <psa30 value="0.0003787643" flag="0"/>
    </comp>
  </station>
  <station code="NPS" name="NPS" netid="HL" insttype="CMG3ESPC-120s" lat="35.2613" lon="25.6104">
    <comp name="--.HHN">
      <acc value="0.0055747802" flag="0"/>
      <vel value="0.0031619345" flag="0"/>
      <psa03 value="0.0176061570" flag="0"/>
      <psa10 value="0.0057379282" flag="0"/>
      <psa30 value="0.0005570973" flag="0"/>
    </comp>
    <comp name="--.HHZ">
      <acc value="0.0047726507" flag="0"/>
      <vel value="0.0023467100" flag="0"/>
      <psa03 value="0.0134633235" flag="0"/>
      <psa10 value="0.0029670956" flag="0"/>
      <psa30 value="0.0005945091" flag="0"/>
    </comp>
    <comp name="--.HHE">
      <acc value="0.0028016098" flag="0"/>
      <vel value="0.0015718712" flag="0"/>
      <psa03 value="0.0093427967" flag="0"/>
      <psa10 value="0.0021313072" flag="0"/>
      <psa30 value="0.0001609707" flag="0"/>
    </comp>
  </station>
  <station code="SAP3" name="SAP3" netid="HL" insttype="LE3D20_SMART24" lat="36.4356" lon="25.3454">
    <comp name="--.HHE">
      <acc value="0.3449810644" flag="0"/>
      <vel value="0.1384400421" flag="0"/>
      <psa03 value="0.4953506859" flag="0"/>
      <psa10 value="0.0984878102" flag="0"/>
      <psa30 value="0.0496940718" flag="0"/>
    </comp>
    <comp name="--.HHZ">
      <acc value="0.3449781234" flag="0"/>
      <vel value="0.0901761214" flag="0"/>
      <psa03 value="0.4496345671" flag="0"/>
      <psa10 value="0.0456239052" flag="0"/>
      <psa30 value="0.0104132915" flag="0"/>
    </comp>
  </station>
  <station code="THERA" name="THERA" netid="HL" insttype="120" lat="36.367" lon="25.4753">
    <comp name="--.HHE">
      <acc value="0.0627134343" flag="0"/>
      <vel value="0.0245685285" flag="0"/>
      <psa03 value="0.0805585400" flag="0"/>
      <psa10 value="0.0318713955" flag="0"/>
      <psa30 value="0.0066205385" flag="0"/>
    </comp>
    <comp name="--.HHZ">
      <acc value="0.0377572639" flag="0"/>
      <vel value="0.0187673603" flag="0"/>
      <psa03 value="0.0738897671" flag="0"/>
      <psa10 value="0.0199924839" flag="0"/>
      <psa30 value="0.0050489215" flag="0"/>
    </comp>
    <comp name="--.HHN">
      <acc value="0.0314032322" flag="0"/>
      <vel value="0.0169655761" flag="0"/>
      <psa03 value="0.0434111637" flag="0"/>
      <psa10 value="0.0253137000" flag="0"/>
      <psa30 value="0.0047197282" flag="0"/>
    </comp>
  </station>
  <station code="THRA" name="THRA" netid="HL" insttype="CMG-5" lat="36.415" lon="25.4324">
    <comp name="00.HNZ">
      <acc value="0.1609614502" flag="0"/>
      <vel value="0.0649652892" flag="0"/>
      <psa03 value="0.2797661483" flag="0"/>
      <psa10 value="0.0868636164" flag="0"/>
      <psa30 value="0.0082871722" flag="0"/>
    </comp>
    <comp name="00.HNE">
      <acc value="0.1959781690" flag="0"/>
      <vel value="0.1143555476" flag="0"/>
      <psa03 value="0.4357567071" flag="0"/>
      <psa10 value="0.1545081806" flag="0"/>
      <psa30 value="0.0212871097" flag="0"/>
    </comp>
    <comp name="00.HNN">
      <acc value="0.2542296887" flag="0"/>
      <vel value="0.0986945453" flag="0"/>
      <psa03 value="0.2565400073" flag="0"/>
      <psa10 value="0.1855193751" flag="0"/>
      <psa30 value="0.0271885784" flag="0"/>
    </comp>
  </station>
  <station code="CMBO" name="CMBO" netid="HT" insttype="120P," lat="36.4709" lon="25.4056">
    <comp name="--.HHE">
      <acc value="0.4351461238" flag="0"/>
      <vel value="0.1328082059" flag="0"/>
      <psa03 value="0.4188614495" flag="0"/>
      <psa10 value="0.1476592874" flag="0"/>
      <psa30 value="0.0269921960" flag="0"/>
    </comp>
    <comp name="--.HHN">
      <acc value="0.4305479827" flag="0"/>
      <vel value="0.1936143956" flag="0"/>
      <psa03 value="0.9033516737" flag="0"/>
      <psa10 value="0.2288303678" flag="0"/>
      <psa30 value="0.0244006419" flag="0"/>
    </comp>
    <comp name="--.HHZ">
      <acc value="0.3538866086" flag="0"/>
      <vel value="0.1287427432" flag="0"/>
      <psa03 value="0.5118674694" flag="0"/>
      <psa10 value="0.0870703468" flag="0"/>
      <psa30 value="0.0261719014" flag="0"/>
    </comp>
  </station>
</stationlist>
