<?xml version="1.0" encoding="UTF-8" standalone="yes"?>
<!DOCTYPE earthquake SYSTEM "stationlist.dtd">
<stationlist created="" xmlns="ch.ethz.sed.shakemap.usgs.xml">
  <station code="APE" name="APE" netid="GE" insttype="STS-2/N" lat="37.0727" lon="25.523">
    <comp name="--.HHE">
      <acc value="0.2314110081" flag="0"/>
      <vel value="0.0467014070" flag="0"/>
      <psa03 value="0.1431508751" flag="0"/>
      <psa10 value="0.0087079842" flag="0"/>
      <psa30 value="0.0010798178" flag="0"/>
    </comp>
    <comp name="--.HHZ">
      <acc value="0.1094930646" flag="0"/>
      <vel value="0.0235733028" flag="0"/>
      <psa03 value="0.1010069559" flag="0"/>
      <psa10 value="0.0070238806" flag="0"/>
      <psa30 value="0.0008375400" flag="0"/>
    </comp>
    <comp name="--.HHN">
      <acc value="0.1508237199" flag="0"/>
      <vel value="0.0506990929" flag="0"/>
      <psa03 value="0.2304557284" flag="0"/>
      <psa10 value="0.0089971863" flag="0"/>
      <psa30 value="0.0010120499" flag="0"/>
    </comp>
  </station>
  <station code="THERA" name="THERA" netid="GE" insttype="STS-2/N" lat="36.367" lon="25.4753">
    <comp name="--.HHE">
      <acc value="0.1463956326" flag="0"/>
      <vel value="0.0292776071" flag="0"/>
      <psa03 value="0.0919432373" flag="0"/>
      <psa10 value="0.0237456747" flag="0"/>
      <psa30 value="0.0014927821" flag="0"/>
    </comp>
    <comp name="--.HHN">
      <acc value="0.1478977493" flag="0"/>
      <vel value="0.0219451430" flag="0"/>
      <psa03 value="0.0795757415" flag="0"/>
      <psa10 value="0.0140020192" flag="0"/>
      <psa30 value="0.0007219509" flag="0"/>
    </comp>
    <comp name="--.HHZ">
      <acc value="0.1393887237" flag="0"/>
      <vel value="0.0307898062" flag="0"/>
      <psa03 value="0.0744448077" flag="0"/>
      <psa10 value="0.0181767492" flag="0"/>
      <psa30 value="0.0013272168" flag="0"/>
    </comp>
  </station>
</stationlist>
