<?xml version="1.0" encoding="UTF-8" standalone="yes"?>
<!DOCTYPE earthquake SYSTEM "stationlist.dtd">
<stationlist created="" xmlns="ch.ethz.sed.shakemap.usgs.xml">
  <station code="APE" name="APE" netid="GE" insttype="STS-2/N" lat="37.0727" lon="25.523">
    <comp name="--.HHE">
      <acc value="0.2314110081" flag="0"/>
      <vel value="0.0467014070" flag="0"/>
      <psa03 value="0.1431508751" flag="0"/>
      <psa10 value="0.0087079842" flag="0"/>
      <psa30 value="0.0010798178" flag="0"/>
    </comp>
    <comp name="--.HHZ">
      <acc value="0.1094930646" flag="0"/>
      <vel value="0.0235733028" flag="0"/>
      <psa03 value="0.1010069559" flag="0"/>
      <psa10 value="0.0070238806" flag="0"/>
      <psa30 value="0.0008375400" flag="0"/>
    </comp>
    <comp name="--.HHN">
      <acc value="0.1508237199" flag="0"/>
      <vel value="0.0506990929" flag="0"/>
      <psa03 value="0.2304557284" flag="0"/>
      <psa10 value="0.0089971863" flag="0"/>
      <psa30 value="0.0010120499" flag="0"/>
    </comp>
  </station>
  <station code="THERA" name="THERA" netid="GE" insttype="STS-2/N" lat="36.367" lon="25.4753">
    <comp name="--.HHE">
      <acc value="0.1463956326" flag="0"/>
      <vel value="0.0292776071" flag="0"/>
      <psa03 value="0.0919432373" flag="0"/>
      <psa10 value="0.0237456747" flag="0"/>
      <psa30 value="0.0014927821" flag="0"/>
    </comp>
    <comp name="--.HHN">
      <acc value="0.1478977493" flag="0"/>
      <vel value="0.0219451430" flag="0"/>
      <psa03 value="0.0795757415" flag="0"/>
      <psa10 value="0.0140020192" flag="0"/>
      <psa30 value="0.0007219509" flag="0"/>
    </comp>
    <comp name="--.HHZ">
      <acc value="0.1393887237" flag="0"/>
      <vel value="0.0307898062" flag="0"/>
      <psa03 value="0.0744448077" flag="0"/>
      <psa10 value="0.0181767492" flag="0"/>
      <psa30 value="0.0013272168" flag="0"/>
    </comp>
  </station>
  <station code="SNT1" name="SNT1" netid="HA" insttype="30" lat="36.4159" lon="25.4282">
    <comp name="--.HHE">
      <acc value="0.1758752687" flag="0"/>
      <vel value="0.0408974135" flag="0"/>
      <psa03 value="0.1388866527" flag="0"/>
      <psa10 value="0.0528319467" flag="0"/>
      <psa30 value="0.0037936626" flag="0"/>
    </comp>
    <comp name="--.HHZ">
      <acc value="0.1047311940" flag="0"/>
      <vel value="0.0288664170" flag="0"/>
      <psa03 value="0.1003454612" flag="0"/>
      <psa10 value="0.0194620256" flag="0"/>
      <psa30 value="0.0014428926" flag="0"/>
    </comp>
    <comp name="--.HHN">
      <acc value="0.1250015030" flag="0"/>
      <vel value="0.0471213558" flag="0"/>
      <psa03 value="0.1045416654" flag="0"/>
      <psa10 value="0.0405386098" flag="0"/>
      <psa30 value="0.0028474826" flag="0"/>
    </comp>
  </station>
  <station code="NAX1" name="NAX1" netid="HI" insttype="CMG-5TD,ACCELEROMETER,GURALP" lat="37.1014" lon="25.3741">
    <comp name="--.HNE">
      <acc value="0.1903862402" flag="0"/>
      <vel value="0.0778878488" flag="0"/>
      <psa03 value="0.4056010554" flag="0"/>
      <psa10 value="0.0170252496" flag="0"/>
      <psa30 value="0.0017267132" flag="0"/>
    </comp>
    <comp name="--.HNN">
      <acc value="0.1576993715" flag="0"/>
      <vel value="0.0574564340" flag="0"/>
      <psa03 value="0.2560071476" flag="0"/>
      <psa10 value="0.0122705214" flag="0"/>
      <psa30 value="0.0014063226" flag="0"/>
    </comp>
    <comp name="--.HNZ">
      <acc value="0.1041147069" flag="0"/>
      <vel value="0.0294362496" flag="0"/>
      <psa03 value="0.1526882756" flag="0"/>
      <psa10 value="0.0106157371" flag="0"/>
      <psa30 value="0.0007896889" flag="0"/>
    </comp>
  </station>
  <station code="APE" name="APE" netid="HL" insttype="120" lat="37.0727" lon="25.523">
    <comp name="--.HHN">
      <acc value="0.1417889072" flag="0"/>
      <vel value="0.0479897527" flag="0"/>
      <psa03 value="0.2227567552" flag="0"/>
      <psa10 value="0.0087398578" flag="0"/>
      <psa30 value="0.0009878950" flag="0"/>
    </comp>
    <comp name="--.HHE">
      <acc value="0.2093249055" flag="0"/>
      <vel value="0.0444532433" flag="0"/>
      <psa03 value="0.1384693128" flag="0"/>
      <psa10 value="0.0084446466" flag="0"/>
      <psa30 value="0.0010764231" flag="0"/>
    </comp>
    <comp name="--.HHZ">
      <acc value="0.0980051646" flag="0"/>
      <vel value="0.0226478586" flag="0"/>
      <psa03 value="0.0986805765" flag="0"/>
      <psa10 value="0.0068649498" flag="0"/>
      <psa30 value="0.0008276353" flag="0"/>
    </comp>
  </station>
  <station code="MHLO" name="MHLO" netid="HL" insttype="20" lat="36.6898" lon="24.4017">
    <comp name="--.HHZ">
      <acc value="0.0316122837" flag="0"/>
      <vel value="0.0204339892" flag="0"/>
      <psa03 value="0.1051345710" flag="0"/>
      <psa10 value="0.0141811034" flag="0"/>
      <psa30 value="0.0011702354" flag="0"/>
    </comp>
    <comp name="--.HHE">
      <acc value="0.0676631585" flag="0"/>
      <vel value="0.0273405598" flag="0"/>
      <psa03 value="0.2125024754" flag="0"/>
      <psa10 value="0.0269864253" flag="0"/>
      <psa30 value="0.0015824468" flag="0"/>
    </comp>
    <comp name="--.HHN">
      <acc value="0.0620265741" flag="0"/>
      <vel value="0.0291194354" flag="0"/>
      <psa03 value="0.2276871659" flag="0"/>
      <psa10 value="0.0265148504" flag="0"/>
      <psa30 value="0.0013212300" flag="0"/>
    </comp>
  </station>
  <station code="SAP3" name="SAP3" netid="HL" insttype="LE3D20_SMART24" lat="36.4356" lon="25.3454">
    <comp name="--.HHE">
      <acc value="0.3660276585" flag="0"/>
      <vel value="0.1244417689" flag="0"/>
      <psa03 value="0.4848506529" flag="0"/>
      <psa10 value="0.0985426937" flag="0"/>
      <psa30 value="0.0079784245" flag="0"/>
    </comp>
    <comp name="--.HHN">
      <acc value="0.3317811893" flag="0"/>
      <vel value="0.1104105378" flag="0"/>
      <psa03 value="0.4543717505" flag="0"/>
      <psa10 value="0.0792179810" flag="0"/>
      <psa30 value="0.0081741545" flag="0"/>
    </comp>
    <comp name="--.HHZ">
      <acc value="0.4054229741" flag="0"/>
      <vel value="0.0954708739" flag="0"/>
      <psa03 value="0.2983610652" flag="0"/>
      <psa10 value="0.0411633885" flag="0"/>
      <psa30 value="0.0038647311" flag="0"/>
    </comp>
  </station>
  <station code="THERA" name="THERA" netid="HL" insttype="120" lat="36.367" lon="25.4753">
    <comp name="--.HHE">
      <acc value="0.1497123717" flag="0"/>
      <vel value="0.0289892497" flag="0"/>
      <psa03 value="0.0897278421" flag="0"/>
      <psa10 value="0.0235198294" flag="0"/>
      <psa30 value="0.0014867239" flag="0"/>
    </comp>
    <comp name="--.HHN">
      <acc value="0.1512420541" flag="0"/>
      <vel value="0.0212524549" flag="0"/>
      <psa03 value="0.0771638920" flag="0"/>
      <psa10 value="0.0138843665" flag="0"/>
      <psa30 value="0.0007184478" flag="0"/>
    </comp>
    <comp name="--.HHZ">
      <acc value="0.1340862933" flag="0"/>
      <vel value="0.0301787611" flag="0"/>
      <psa03 value="0.0723651804" flag="0"/>
      <psa10 value="0.0180278208" flag="0"/>
      <psa30 value="0.0013246309" flag="0"/>
    </comp>
  </station>
  <station code="THRA" name="THRA" netid="HL" insttype="CMG-5" lat="36.415" lon="25.4324">
    <comp name="00.HNE">
      <acc value="0.4454034821" flag="0"/>
      <vel value="0.1348821873" flag="0"/>
      <psa03 value="0.4970189109" flag="0"/>
      <psa10 value="0.0820205687" flag="0"/>
      <psa30 value="0.0074315986" flag="0"/>
    </comp>
    <comp name="00.HNN">
      <acc value="0.3739991965" flag="0"/>
      <vel value="0.1521800921" flag="0"/>
      <psa03 value="0.5161668445" flag="0"/>
      <psa10 value="0.1669985313" flag="0"/>
      <psa30 value="0.0063341381" flag="0"/>
    </comp>
    <comp name="00.HNZ">
      <acc value="0.3523504075" flag="0"/>
      <vel value="0.1082818841" flag="0"/>
      <psa03 value="0.4422234607" flag="0"/>
      <psa10 value="0.0375631465" flag="0"/>
      <psa30 value="0.0037111335" flag="0"/>
    </comp>
  </station>
  <station code="TNSA" name="TNSA" netid="HL" insttype="CMG-5" lat="37.5394" lon="25.1631">
    <comp name="00.HNE">
      <acc value="0.0372626947" flag="0"/>
      <vel value="0.0140365379" flag="0"/>
      <psa03 value="0.0818536668" flag="0"/>
      <psa10 value="0.0070550231" flag="0"/>
      <psa30 value="0.0003743965" flag="0"/>
    </comp>
    <comp name="00.HNN">
      <acc value="0.0715166767" flag="0"/>
      <vel value="0.0208929646" flag="0"/>
      <psa03 value="0.1399181799" flag="0"/>
      <psa10 value="0.0105901019" flag="0"/>
      <psa30 value="0.0006265511" flag="0"/>
    </comp>
    <comp name="00.HNZ">
      <acc value="0.0401362221" flag="0"/>
      <vel value="0.0165263412" flag="0"/>
      <psa03 value="0.0868607861" flag="0"/>
      <psa10 value="0.0097164773" flag="0"/>
      <psa30 value="0.0008496536" flag="0"/>
    </comp>
  </station>
  <station code="CMBO" name="CMBO" netid="HT" insttype="120P," lat="36.4709" lon="25.4056">
    <comp name="--.HHE">
      <acc value="0.4014531782" flag="0"/>
      <vel value="0.1411256028" flag="0"/>
      <psa03 value="0.5559789903" flag="0"/>
      <psa10 value="0.0906350110" flag="0"/>
      <psa30 value="0.0074361164" flag="0"/>
    </comp>
    <comp name="--.HHN">
      <acc value="0.6069668713" flag="0"/>
      <vel value="0.1501885822" flag="0"/>
      <psa03 value="0.5395090941" flag="0"/>
      <psa10 value="0.1284144779" flag="0"/>
      <psa30 value="0.0084884530" flag="0"/>
    </comp>
    <comp name="--.HHZ">
      <acc value="0.5773275718" flag="0"/>
      <vel value="0.1157589518" flag="0"/>
      <psa03 value="0.4683984572" flag="0"/>
      <psa10 value="0.0315915755" flag="0"/>
      <psa30 value="0.0051899517" flag="0"/>
    </comp>
  </station>
</stationlist>
