<?xml version="1.0" encoding="UTF-8" standalone="yes"?>
<!DOCTYPE earthquake SYSTEM "stationlist.dtd">
<stationlist created="" xmlns="ch.ethz.sed.shakemap.usgs.xml">
  <station code="BAC" name="BAC" netid="RO" insttype="2.5V" lat="46.5669" lon="26.9124">
    <comp name="--.HNE">
      <acc value="0.0162005314" flag="0"/>
      <vel value="0.0049301970" flag="0"/>
      <psa03 value="0.0268070374" flag="0"/>
      <psa10 value="0.0014032159" flag="0"/>
      <psa30 value="0.0001845170" flag="0"/>
    </comp>
    <comp name="--.HNN">
      <acc value="0.0165640815" flag="0"/>
      <vel value="0.0062410659" flag="0"/>
      <psa03 value="0.0213653631" flag="0"/>
      <psa10 value="0.0022913709" flag="0"/>
      <psa30 value="0.0001316182" flag="0"/>
    </comp>
    <comp name="--.HNZ">
      <acc value="0.0150000495" flag="0"/>
      <vel value="0.0026000636" flag="0"/>
      <psa03 value="0.0130004708" flag="0"/>
      <psa10 value="0.0007546310" flag="0"/>
      <psa30 value="0.0000616084" flag="0"/>
    </comp>
  </station>
  <station code="BOSR" name="BOSR" netid="RO" insttype="Seismometer/Basalt" lat="46.0749" lon="25.6611">
    <comp name="--.HHE">
      <acc value="0.0060731391" flag="0"/>
      <vel value="0.0048977654" flag="0"/>
      <psa03 value="0.0161645643" flag="0"/>
      <psa10 value="0.0041288282" flag="0"/>
      <psa30 value="0.0002496277" flag="0"/>
    </comp>
    <comp name="--.HHN">
      <acc value="0.0061512432" flag="0"/>
      <vel value="0.0035909792" flag="0"/>
      <psa03 value="0.0117915233" flag="0"/>
      <psa10 value="0.0031164524" flag="0"/>
      <psa30 value="0.0002371884" flag="0"/>
    </comp>
  </station>
  <station code="DOPR" name="DOPR" netid="RO" insttype="330" lat="45.9675" lon="25.3886">
    <comp name="--.HHE">
      <acc value="0.0064819287" flag="0"/>
      <vel value="0.0021360789" flag="0"/>
      <psa03 value="0.0094338687" flag="0"/>
      <psa10 value="0.0013051232" flag="0"/>
      <psa30 value="0.0001791808" flag="0"/>
    </comp>
    <comp name="--.HHN">
      <acc value="0.0071838941" flag="0"/>
      <vel value="0.0016744802" flag="0"/>
      <psa03 value="0.0058253388" flag="0"/>
      <psa10 value="0.0024645775" flag="0"/>
      <psa30 value="0.0001892352" flag="0"/>
    </comp>
    <comp name="--.HHZ">
      <acc value="0.0071169587" flag="0"/>
      <vel value="0.0016819186" flag="0"/>
      <psa03 value="0.0042304144" flag="0"/>
      <psa10 value="0.0007982137" flag="0"/>
      <psa30 value="0.0000909561" flag="0"/>
    </comp>
  </station>
  <station code="GRER" name="GRER" netid="RO" insttype="MBB2/Quanterra" lat="45.3801" lon="26.9747">
    <comp name="--.HHE">
      <acc value="0.0345021007" flag="0"/>
      <vel value="0.0087967019" flag="0"/>
      <psa03 value="0.0296427347" flag="0"/>
      <psa10 value="0.0027983743" flag="0"/>
      <psa30 value="0.0001986861" flag="0"/>
    </comp>
    <comp name="--.HHZ">
      <acc value="0.0690327155" flag="0"/>
      <vel value="0.0097749314" flag="0"/>
      <psa03 value="0.0171855036" flag="0"/>
      <psa10 value="0.0017147343" flag="0"/>
      <psa30 value="0.0001962670" flag="0"/>
    </comp>
    <comp name="--.HHN">
      <acc value="0.0423003925" flag="0"/>
      <vel value="0.0115303759" flag="0"/>
      <psa03 value="0.0478566037" flag="0"/>
      <psa10 value="0.0034875726" flag="0"/>
      <psa30 value="0.0004165139" flag="0"/>
    </comp>
  </station>
  <station code="ISR" name="ISR" netid="RO" insttype="CMG3ESP/Quanterra" lat="45.1187" lon="26.5432">
    <comp name="--.HHE">
      <acc value="0.0319482944" flag="0"/>
      <vel value="0.0083207920" flag="0"/>
      <psa03 value="0.0397557051" flag="0"/>
      <psa10 value="0.0057262376" flag="0"/>
      <psa30 value="0.0003493515" flag="0"/>
    </comp>
    <comp name="--.HHN">
      <acc value="0.0287135796" flag="0"/>
      <vel value="0.0080991158" flag="0"/>
      <psa03 value="0.0610274808" flag="0"/>
      <psa10 value="0.0051132483" flag="0"/>
      <psa30 value="0.0002703587" flag="0"/>
    </comp>
    <comp name="--.HHZ">
      <acc value="0.0162779963" flag="0"/>
      <vel value="0.0039380554" flag="0"/>
      <psa03 value="0.0298492908" flag="0"/>
      <psa10 value="0.0018311870" flag="0"/>
      <psa30 value="0.0001066798" flag="0"/>
    </comp>
  </station>
  <station code="IZVR" name="IZVR" netid="RO" insttype="CMG40T.1to100/Quanterra" lat="45.5442" lon="27.7655">
    <comp name="--.HHE">
      <acc value="0.0408214332" flag="0"/>
      <vel value="0.0090664000" flag="0"/>
      <psa03 value="0.0284367738" flag="0"/>
      <psa10 value="0.0029974212" flag="0"/>
      <psa30 value="0.0001698545" flag="0"/>
    </comp>
    <comp name="--.HHN">
      <acc value="0.0690632084" flag="0"/>
      <vel value="0.0160782904" flag="0"/>
      <psa03 value="0.0628094726" flag="0"/>
      <psa10 value="0.0043523166" flag="0"/>
      <psa30 value="0.0003378868" flag="0"/>
    </comp>
    <comp name="--.HHZ">
      <acc value="0.0238472304" flag="0"/>
      <vel value="0.0045894629" flag="0"/>
      <psa03 value="0.0132593486" flag="0"/>
      <psa10 value="0.0007564562" flag="0"/>
      <psa30 value="0.0000837644" flag="0"/>
    </comp>
  </station>
  <station code="LEHL" name="LEHL" netid="RO" insttype="Seismometer/Basalt" lat="44.4739" lon="26.8194">
    <comp name="--.HHE">
      <acc value="0.0153165561" flag="0"/>
      <vel value="0.0052671157" flag="0"/>
      <psa03 value="0.0240635207" flag="0"/>
      <psa10 value="0.0016244977" flag="0"/>
      <psa30 value="0.0002296103" flag="0"/>
    </comp>
    <comp name="--.HHN">
      <acc value="0.0232041009" flag="0"/>
      <vel value="0.0094978277" flag="0"/>
      <psa03 value="0.0390755064" flag="0"/>
      <psa10 value="0.0021512916" flag="0"/>
      <psa30 value="0.0002686462" flag="0"/>
    </comp>
    <comp name="--.HHZ">
      <acc value="0.0277149999" flag="0"/>
      <vel value="0.0025937067" flag="0"/>
      <psa03 value="0.0066912145" flag="0"/>
      <psa10 value="0.0004046943" flag="0"/>
      <psa30 value="0.0000311725" flag="0"/>
    </comp>
  </station>
  <station code="MLR" name="MLR" netid="RO" insttype="200" lat="45.4909" lon="25.945">
    <comp name="--.HNE">
      <acc value="0.0103428477" flag="0"/>
      <vel value="0.0047841040" flag="0"/>
      <psa03 value="0.0196845402" flag="0"/>
      <psa10 value="0.0025571761" flag="0"/>
      <psa30 value="0.0002301000" flag="0"/>
    </comp>
    <comp name="--.HNN">
      <acc value="0.0101353165" flag="0"/>
      <vel value="0.0046242282" flag="0"/>
      <psa03 value="0.0272772873" flag="0"/>
      <psa10 value="0.0020081440" flag="0"/>
      <psa30 value="0.0003028390" flag="0"/>
    </comp>
    <comp name="--.HNZ">
      <acc value="0.0051881295" flag="0"/>
      <vel value="0.0026327997" flag="0"/>
      <psa03 value="0.0130555682" flag="0"/>
      <psa10 value="0.0018670339" flag="0"/>
      <psa30 value="0.0001229189" flag="0"/>
    </comp>
  </station>
  <station code="NEGRR" name="NEGRR" netid="RO" insttype="CMG40T.1to100/Quanterra" lat="45.5373" lon="27.8771">
    <comp name="--.HHE">
      <acc value="0.0734360062" flag="0"/>
      <vel value="0.0128114021" flag="0"/>
      <psa03 value="0.0501002515" flag="0"/>
      <psa10 value="0.0040307825" flag="0"/>
      <psa30 value="0.0003108882" flag="0"/>
    </comp>
    <comp name="--.HHN">
      <acc value="0.0812835109" flag="0"/>
      <vel value="0.0186775335" flag="0"/>
      <psa03 value="0.0338871345" flag="0"/>
      <psa10 value="0.0037492968" flag="0"/>
      <psa30 value="0.0002533735" flag="0"/>
    </comp>
    <comp name="--.HHZ">
      <acc value="0.1093617686" flag="0"/>
      <vel value="0.0082315074" flag="0"/>
      <psa03 value="0.0222544496" flag="0"/>
      <psa10 value="0.0012256554" flag="0"/>
      <psa30 value="0.0001357741" flag="0"/>
    </comp>
  </station>
  <station code="NEHR" name="NEHR" netid="RO" insttype="Seismometer/Basalt" lat="45.4272" lon="26.2952">
    <comp name="--.HHE">
      <acc value="0.0265602103" flag="0"/>
      <vel value="0.0130185576" flag="0"/>
      <psa03 value="0.0971033410" flag="0"/>
      <psa10 value="0.0055907005" flag="0"/>
      <psa30 value="0.0004646749" flag="0"/>
    </comp>
    <comp name="--.HHN">
      <acc value="0.0490015271" flag="0"/>
      <vel value="0.0170149782" flag="0"/>
      <psa03 value="0.1226876029" flag="0"/>
      <psa10 value="0.0060792821" flag="0"/>
      <psa30 value="0.0004081756" flag="0"/>
    </comp>
    <comp name="--.HHZ">
      <acc value="0.0173143896" flag="0"/>
      <vel value="0.0055700361" flag="0"/>
      <psa03 value="0.0297298020" flag="0"/>
      <psa10 value="0.0021839814" flag="0"/>
      <psa30 value="0.0001426944" flag="0"/>
    </comp>
  </station>
  <station code="ODBI" name="ODBI" netid="RO" insttype="PBB.1to100/Quanterra" lat="45.7633" lon="27.0558">
    <comp name="--.HHE">
      <acc value="0.2136587823" flag="0"/>
      <vel value="0.0341672051" flag="0"/>
      <psa03 value="0.1148759398" flag="0"/>
      <psa10 value="0.0085070929" flag="0"/>
      <psa30 value="0.0007331267" flag="0"/>
    </comp>
    <comp name="--.HHZ">
      <acc value="0.0002516159" flag="0"/>
      <vel value="0.0000258096" flag="0"/>
      <psa03 value="0.0000792225" flag="0"/>
      <psa10 value="0.0000160687" flag="0"/>
      <psa30 value="0.0000024293" flag="0"/>
    </comp>
    <comp name="--.HHN">
      <acc value="0.2609388085" flag="0"/>
      <vel value="0.0338684874" flag="0"/>
      <psa03 value="0.1112430671" flag="0"/>
      <psa10 value="0.0097112408" flag="0"/>
      <psa30 value="0.0009459787" flag="0"/>
    </comp>
  </station>
  <station code="PANC" name="PANC" netid="RO" insttype="Seismometer/Basalt" lat="45.8723" lon="27.1477">
    <comp name="--.HHE">
      <acc value="0.1299340364" flag="0"/>
      <vel value="0.0299073708" flag="0"/>
      <psa03 value="0.1017672321" flag="0"/>
      <psa10 value="0.0049637386" flag="0"/>
      <psa30 value="0.0003518331" flag="0"/>
    </comp>
    <comp name="--.HHZ">
      <acc value="0.1826378159" flag="0"/>
      <vel value="0.0316741031" flag="0"/>
      <psa03 value="0.0999401255" flag="0"/>
      <psa10 value="0.0048630857" flag="0"/>
      <psa30 value="0.0004974607" flag="0"/>
    </comp>
    <comp name="--.HHN">
      <acc value="0.1363775909" flag="0"/>
      <vel value="0.0216122945" flag="0"/>
      <psa03 value="0.0345397935" flag="0"/>
      <psa10 value="0.0209283568" flag="0"/>
      <psa30 value="0.0054316730" flag="0"/>
    </comp>
  </station>
  <station code="PGOR" name="PGOR" netid="RO" insttype="CMG40T.1to100/Quanterra" lat="44.9199" lon="26.9768">
    <comp name="--.HHE">
      <acc value="0.0519335291" flag="0"/>
      <vel value="0.0154373675" flag="0"/>
      <psa03 value="0.0651454667" flag="0"/>
      <psa10 value="0.0074059621" flag="0"/>
      <psa30 value="0.0005700130" flag="0"/>
    </comp>
    <comp name="--.HHN">
      <acc value="0.0436608799" flag="0"/>
      <vel value="0.0133614701" flag="0"/>
      <psa03 value="0.0937069473" flag="0"/>
      <psa10 value="0.0038630996" flag="0"/>
      <psa30 value="0.0004287255" flag="0"/>
    </comp>
    <comp name="--.HHZ">
      <acc value="0.1841698238" flag="0"/>
      <vel value="0.0170205567" flag="0"/>
      <psa03 value="0.0203343406" flag="0"/>
      <psa10 value="0.0013263025" flag="0"/>
      <psa30 value="0.0001396591" flag="0"/>
    </comp>
  </station>
  <station code="PLAR" name="PLAR" netid="RO" insttype="200" lat="44.9142" lon="26.0274">
    <comp name="--.HNE">
      <acc value="0.0377430894" flag="0"/>
      <vel value="0.0159437262" flag="0"/>
      <psa03 value="0.0577601476" flag="0"/>
      <psa10 value="0.0078254747" flag="0"/>
      <psa30 value="0.0006835443" flag="0"/>
    </comp>
    <comp name="--.HNN">
      <acc value="0.0386074042" flag="0"/>
      <vel value="0.0136639845" flag="0"/>
      <psa03 value="0.0453993621" flag="0"/>
      <psa10 value="0.0047806457" flag="0"/>
      <psa30 value="0.0002744072" flag="0"/>
    </comp>
    <comp name="--.HNZ">
      <acc value="0.0412298293" flag="0"/>
      <vel value="0.0096096211" flag="0"/>
      <psa03 value="0.0210002104" flag="0"/>
      <psa10 value="0.0011992449" flag="0"/>
      <psa30 value="0.0001604950" flag="0"/>
    </comp>
  </station>
  <station code="PLOR" name="PLOR" netid="RO" insttype="330" lat="45.8512" lon="26.6498">
    <comp name="--.HHE">
      <acc value="0.0098225108" flag="0"/>
      <vel value="0.0038856330" flag="0"/>
      <psa03 value="0.0237260937" flag="0"/>
      <psa10 value="0.0016013442" flag="0"/>
      <psa30 value="0.0001468438" flag="0"/>
    </comp>
    <comp name="--.HHZ">
      <acc value="0.0047098108" flag="0"/>
      <vel value="0.0015144347" flag="0"/>
      <psa03 value="0.0109193696" flag="0"/>
      <psa10 value="0.0005750752" flag="0"/>
      <psa30 value="0.0000356732" flag="0"/>
    </comp>
    <comp name="--.HHN">
      <acc value="0.0106166308" flag="0"/>
      <vel value="0.0038580153" flag="0"/>
      <psa03 value="0.0253372376" flag="0"/>
      <psa10 value="0.0012747998" flag="0"/>
      <psa30 value="0.0000883049" flag="0"/>
    </comp>
  </station>
  <station code="PLOR4" name="PLOR4" netid="RO" insttype="330" lat="45.8512" lon="26.6498">
    <comp name="--.HHN">
      <acc value="0.0106166308" flag="0"/>
      <vel value="0.0038580153" flag="0"/>
      <psa03 value="0.0253372376" flag="0"/>
      <psa10 value="0.0012747998" flag="0"/>
      <psa30 value="0.0000883049" flag="0"/>
    </comp>
    <comp name="--.HHZ">
      <acc value="0.0047098108" flag="0"/>
      <vel value="0.0015144347" flag="0"/>
      <psa03 value="0.0109193696" flag="0"/>
      <psa10 value="0.0005750752" flag="0"/>
      <psa30 value="0.0000356732" flag="0"/>
    </comp>
    <comp name="--.HHE">
      <acc value="0.0098225108" flag="0"/>
      <vel value="0.0038856330" flag="0"/>
      <psa03 value="0.0237260937" flag="0"/>
      <psa10 value="0.0016013442" flag="0"/>
      <psa30 value="0.0001468438" flag="0"/>
    </comp>
  </station>
  <station code="SAHR" name="SAHR" netid="RO" insttype="Seismometer/Basalt" lat="45.7266" lon="26.6855">
    <comp name="--.HHE">
      <acc value="0.0001123473" flag="0"/>
      <vel value="0.0000277115" flag="0"/>
      <psa03 value="0.0000708540" flag="0"/>
      <psa10 value="0.0000146483" flag="0"/>
      <psa30 value="0.0000124314" flag="0"/>
    </comp>
    <comp name="--.HHN">
      <acc value="0.0338400055" flag="0"/>
      <vel value="0.0131210790" flag="0"/>
      <psa03 value="0.1141061665" flag="0"/>
      <psa10 value="0.0042746901" flag="0"/>
      <psa30 value="0.0004137054" flag="0"/>
    </comp>
    <comp name="--.HHZ">
      <acc value="0.0223628319" flag="0"/>
      <vel value="0.0081718049" flag="0"/>
      <psa03 value="0.0709013846" flag="0"/>
      <psa10 value="0.0027896935" flag="0"/>
      <psa30 value="0.0002092554" flag="0"/>
    </comp>
  </station>
  <station code="SCHL" name="SCHL" netid="RO" insttype="CMG40T.1to100/Quanterra" lat="45.5007" lon="27.8302">
    <comp name="--.HHE">
      <acc value="0.0648734686" flag="0"/>
      <vel value="0.0194671320" flag="0"/>
      <psa03 value="0.0717274263" flag="0"/>
      <psa10 value="0.0059762832" flag="0"/>
      <psa30 value="0.0005756995" flag="0"/>
    </comp>
    <comp name="--.HHN">
      <acc value="0.0577631840" flag="0"/>
      <vel value="0.0138497795" flag="0"/>
      <psa03 value="0.0739335153" flag="0"/>
      <psa10 value="0.0040151957" flag="0"/>
      <psa30 value="0.0004585306" flag="0"/>
    </comp>
    <comp name="--.HHZ">
      <acc value="0.0574756920" flag="0"/>
      <vel value="0.0069987842" flag="0"/>
      <psa03 value="0.0324337711" flag="0"/>
      <psa10 value="0.0021283550" flag="0"/>
      <psa30 value="0.0001378964" flag="0"/>
    </comp>
  </station>
  <station code="SCHLR" name="SCHLR" netid="RO" insttype="CMG40T.1to100/Quanterra" lat="45.4702" lon="27.8314">
    <comp name="--.HHZ">
      <acc value="0.0390867692" flag="0"/>
      <vel value="0.0046789917" flag="0"/>
      <psa03 value="0.0099057915" flag="0"/>
      <psa10 value="0.0007720516" flag="0"/>
      <psa30 value="0.0000850328" flag="0"/>
    </comp>
    <comp name="--.HHN">
      <acc value="0.0449238303" flag="0"/>
      <vel value="0.0109710833" flag="0"/>
      <psa03 value="0.0319757130" flag="0"/>
      <psa10 value="0.0037101897" flag="0"/>
      <psa30 value="0.0001960383" flag="0"/>
    </comp>
    <comp name="--.HHE">
      <acc value="0.0328147989" flag="0"/>
      <vel value="0.0054301358" flag="0"/>
      <psa03 value="0.0252545324" flag="0"/>
      <psa10 value="0.0018587165" flag="0"/>
      <psa30 value="0.0001177953" flag="0"/>
    </comp>
  </station>
  <station code="SULR" name="SULR" netid="RO" insttype="330" lat="44.6777" lon="26.2526">
    <comp name="--.HHN">
      <acc value="0.0411994510" flag="0"/>
      <vel value="0.0122858913" flag="0"/>
      <psa03 value="0.0587788344" flag="0"/>
      <psa10 value="0.0040350774" flag="0"/>
      <psa30 value="0.0004508948" flag="0"/>
    </comp>
    <comp name="--.HHZ">
      <acc value="0.0552429398" flag="0"/>
      <vel value="0.0066457042" flag="0"/>
      <psa03 value="0.0219026032" flag="0"/>
      <psa10 value="0.0009448300" flag="0"/>
      <psa30 value="0.0000893450" flag="0"/>
    </comp>
    <comp name="--.HHE">
      <acc value="0.0392808468" flag="0"/>
      <vel value="0.0182481378" flag="0"/>
      <psa03 value="0.0688701591" flag="0"/>
      <psa10 value="0.0066663487" flag="0"/>
      <psa30 value="0.0006109035" flag="0"/>
    </comp>
  </station>
  <station code="TESR" name="TESR" netid="RO" insttype="330" lat="46.5118" lon="26.6489">
    <comp name="--.HHZ">
      <acc value="0.0150359828" flag="0"/>
      <vel value="0.0031761177" flag="0"/>
      <psa03 value="0.0070867490" flag="0"/>
      <psa10 value="0.0005522899" flag="0"/>
      <psa30 value="0.0000610186" flag="0"/>
    </comp>
    <comp name="--.HHN">
      <acc value="0.0056676739" flag="0"/>
      <vel value="0.0022098697" flag="0"/>
      <psa03 value="0.0132282335" flag="0"/>
      <psa10 value="0.0007869982" flag="0"/>
      <psa30 value="0.0000785083" flag="0"/>
    </comp>
    <comp name="--.HHE">
      <acc value="0.0082936716" flag="0"/>
      <vel value="0.0033067300" flag="0"/>
      <psa03 value="0.0200873628" flag="0"/>
      <psa10 value="0.0014879152" flag="0"/>
      <psa30 value="0.0001026565" flag="0"/>
    </comp>
  </station>
  <station code="TUDR" name="TUDR" netid="RO" insttype="CMG40T.1to100/Quanterra" lat="45.5939" lon="27.6687">
    <comp name="--.HHN">
      <acc value="0.0662574611" flag="0"/>
      <vel value="0.0214834317" flag="0"/>
      <psa03 value="0.0725778496" flag="0"/>
      <psa10 value="0.0059219579" flag="0"/>
      <psa30 value="0.0004197815" flag="0"/>
    </comp>
    <comp name="--.HHE">
      <acc value="0.0545998288" flag="0"/>
      <vel value="0.0208626349" flag="0"/>
      <psa03 value="0.1009746436" flag="0"/>
      <psa10 value="0.0054630741" flag="0"/>
      <psa30 value="0.0004560355" flag="0"/>
    </comp>
    <comp name="--.HHZ">
      <acc value="0.1690367233" flag="0"/>
      <vel value="0.0166719819" flag="0"/>
      <psa03 value="0.0385659588" flag="0"/>
      <psa10 value="0.0025046469" flag="0"/>
      <psa30 value="0.0002777661" flag="0"/>
    </comp>
  </station>
  <station code="VARL" name="VARL" netid="RO" insttype="MBB2/Quanterra" lat="45.8996" lon="27.8487">
    <comp name="--.HHE">
      <acc value="0.0578147780" flag="0"/>
      <vel value="0.0142153508" flag="0"/>
      <psa03 value="0.0476638498" flag="0"/>
      <psa10 value="0.0024019923" flag="0"/>
      <psa30 value="0.0002067990" flag="0"/>
    </comp>
    <comp name="--.HHN">
      <acc value="0.0798164303" flag="0"/>
      <vel value="0.0176487394" flag="0"/>
      <psa03 value="0.0636091228" flag="0"/>
      <psa10 value="0.0034883536" flag="0"/>
