<?xml version="1.0" encoding="UTF-8" standalone="yes"?>
<!DOCTYPE earthquake SYSTEM "stationlist.dtd">
<stationlist created="" xmlns="ch.ethz.sed.shakemap.usgs.xml">
  <station code="MMB" name="MMB" netid="BS" insttype="STS-2" commtype="DIG" lat="41.5469" lon="23.7495">
    <comp name="--.HHE">
      <acc value="0.1098966402" flag="0"/>
      <vel value="0.0799086057" flag="0"/>
      <psa03 value="0.1897306244" flag="0"/>
      <psa10 value="0.1004242118" flag="0"/>
      <psa30 value="0.0115077525" flag="0"/>
    </comp>
    <comp name="--.HHN">
      <acc value="0.0639634690" flag="0"/>
      <vel value="0.0524689765" flag="0"/>
      <psa03 value="0.1178520069" flag="0"/>
      <psa10 value="0.0987950111" flag="0"/>
      <psa30 value="0.0101102027" flag="0"/>
    </comp>
    <comp name="--.HHZ">
      <acc value="0.0685391053" flag="0"/>
      <vel value="0.0698464853" flag="0"/>
      <psa03 value="0.1311004111" flag="0"/>
      <psa10 value="0.1062331529" flag="0"/>
      <psa30 value="0.0057786725" flag="0"/>
    </comp>
  </station>
  <station code="RZN" name="RZN" netid="BS" insttype="CMG40T" commtype="DIG" lat="41.6942" lon="24.7388">
    <comp name="--.HHE">
      <acc value="0.0671310977" flag="0"/>
      <vel value="0.0211830123" flag="0"/>
      <psa03 value="0.1262078784" flag="0"/>
      <psa10 value="0.0144040995" flag="0"/>
      <psa30 value="0.0037899607" flag="0"/>
    </comp>
    <comp name="--.HHN">
      <acc value="0.0593947349" flag="0"/>
      <vel value="0.0193558051" flag="0"/>
      <psa03 value="0.1304758795" flag="0"/>
      <psa10 value="0.0141520823" flag="0"/>
      <psa30 value="0.0055835632" flag="0"/>
    </comp>
    <comp name="--.HHZ">
      <acc value="0.0368120370" flag="0"/>
      <vel value="0.0224138035" flag="0"/>
      <psa03 value="0.0894880794" flag="0"/>
      <psa10 value="0.0205482714" flag="0"/>
      <psa30 value="0.0044992519" flag="0"/>
    </comp>
  </station>
</stationlist>
