<?xml version="1.0" encoding="UTF-8" standalone="yes"?>
<!DOCTYPE earthquake SYSTEM "stationlist.dtd">
<stationlist created="" xmlns="ch.ethz.sed.shakemap.usgs.xml">
  <station code="MMB" name="MMB" netid="BS" insttype="STS-2" commtype="DIG" lat="41.5469" lon="23.7495">
    <comp name="--.HHE">
      <acc value="0.1098966402" flag="0"/>
      <vel value="0.0799086057" flag="0"/>
      <psa03 value="0.1897306244" flag="0"/>
      <psa10 value="0.1004242118" flag="0"/>
      <psa30 value="0.0115077525" flag="0"/>
    </comp>
    <comp name="--.HHN">
      <acc value="0.0639634690" flag="0"/>
      <vel value="0.0524689765" flag="0"/>
      <psa03 value="0.1178520069" flag="0"/>
      <psa10 value="0.0987950111" flag="0"/>
      <psa30 value="0.0101102027" flag="0"/>
    </comp>
    <comp name="--.HHZ">
      <acc value="0.0685391053" flag="0"/>
      <vel value="0.0698464853" flag="0"/>
      <psa03 value="0.1311004111" flag="0"/>
      <psa10 value="0.1062331529" flag="0"/>
      <psa30 value="0.0057786725" flag="0"/>
    </comp>
  </station>
  <station code="RZN" name="RZN" netid="BS" insttype="CMG40T" commtype="DIG" lat="41.6942" lon="24.7388">
    <comp name="--.HHE">
      <acc value="0.0671310977" flag="0"/>
      <vel value="0.0211830123" flag="0"/>
      <psa03 value="0.1262078784" flag="0"/>
      <psa10 value="0.0144040995" flag="0"/>
      <psa30 value="0.0037899607" flag="0"/>
    </comp>
    <comp name="--.HHN">
      <acc value="0.0593947349" flag="0"/>
      <vel value="0.0193558051" flag="0"/>
      <psa03 value="0.1304758795" flag="0"/>
      <psa10 value="0.0141520823" flag="0"/>
      <psa30 value="0.0055835632" flag="0"/>
    </comp>
    <comp name="--.HHZ">
      <acc value="0.0368120370" flag="0"/>
      <vel value="0.0224138035" flag="0"/>
      <psa03 value="0.0894880794" flag="0"/>
      <psa10 value="0.0205482714" flag="0"/>
      <psa30 value="0.0044992519" flag="0"/>
    </comp>
  </station>
  <station code="ALX2" name="ALX2" netid="HI" insttype="unknown" commtype="DIG" lat="40.8454" lon="25.8739">
    <comp name="--.HNZ">
      <acc value="0.0635104221" flag="0"/>
      <vel value="0.0476146971" flag="0"/>
      <psa03 value="0.1594912776" flag="0"/>
      <psa10 value="0.0935677387" flag="0"/>
      <psa30 value="0.0055905008" flag="0"/>
    </comp>
    <comp name="--.HNE">
      <acc value="0.1243331654" flag="0"/>
      <vel value="0.1001799616" flag="0"/>
      <psa03 value="0.2398327687" flag="0"/>
      <psa10 value="0.1541389921" flag="0"/>
      <psa30 value="0.0089416732" flag="0"/>
    </comp>
    <comp name="--.HNN">
      <acc value="0.0937130321" flag="0"/>
      <vel value="0.0805874875" flag="0"/>
      <psa03 value="0.1905599430" flag="0"/>
      <psa10 value="0.1904495810" flag="0"/>
      <psa30 value="0.0121572165" flag="0"/>
    </comp>
  </station>
  <station code="DRA2" name="DRA2" netid="HI" insttype="CMG-5TD,ACCELEROMETER,GURALP" commtype="DIG" lat="41.1593" lon="24.1485">
    <comp name="--.HNE">
      <acc value="0.3994524208" flag="0"/>
      <vel value="0.2084600685" flag="0"/>
      <psa03 value="0.6815659548" flag="0"/>
      <psa10 value="0.1018865682" flag="0"/>
      <psa30 value="0.0100642789" flag="0"/>
    </comp>
    <comp name="--.HNN">
      <acc value="0.2955216064" flag="0"/>
      <vel value="0.1048036143" flag="0"/>
      <psa03 value="0.5292463840" flag="0"/>
      <psa10 value="0.0458879835" flag="0"/>
      <psa30 value="0.0037160676" flag="0"/>
    </comp>
    <comp name="--.HNZ">
      <acc value="0.2072133607" flag="0"/>
      <vel value="0.0729830076" flag="0"/>
      <psa03 value="0.2423463296" flag="0"/>
      <psa10 value="0.0458877096" flag="0"/>
      <psa30 value="0.0039701066" flag="0"/>
    </comp>
  </station>
  <station code="ITS1" name="ITS1" netid="HI" insttype="unknown" commtype="DIG" lat="40.605" lon="23.0123">
    <comp name="--.HNE">
      <acc value="0.1402992962" flag="0"/>
      <vel value="0.0938025694" flag="0"/>
      <psa03 value="0.2378736570" flag="0"/>
      <psa10 value="0.0787074888" flag="0"/>
      <psa30 value="0.0080586702" flag="0"/>
    </comp>
    <comp name="--.HNN">
      <acc value="0.1437059785" flag="0"/>
      <vel value="0.1402900972" flag="0"/>
      <psa03 value="0.3810912232" flag="0"/>
      <psa10 value="0.1880455902" flag="0"/>
      <psa30 value="0.0149369127" flag="0"/>
    </comp>
    <comp name="--.HNZ">
      <acc value="0.1211463013" flag="0"/>
      <vel value="0.0602266227" flag="0"/>
      <psa03 value="0.2166455193" flag="0"/>
      <psa10 value="0.0537015360" flag="0"/>
      <psa30 value="0.0039793001" flag="0"/>
    </comp>
  </station>
  <station code="KLR1" name="KLR1" netid="HI" insttype="unknown" commtype="DIG" lat="40.5825" lon="22.9496">
    <comp name="--.HNE">
      <acc value="0.1691860720" flag="0"/>
      <vel value="0.1587139551" flag="0"/>
      <psa03 value="0.3945809845" flag="0"/>
      <psa10 value="0.2239140149" flag="0"/>
      <psa30 value="0.0234357158" flag="0"/>
    </comp>
    <comp name="--.HNN">
      <acc value="0.1820092971" flag="0"/>
      <vel value="0.1562822185" flag="0"/>
      <psa03 value="0.3690210756" flag="0"/>
      <psa10 value="0.1945165716" flag="0"/>
      <psa30 value="0.0476260160" flag="0"/>
    </comp>
    <comp name="--.HNZ">
      <acc value="0.1066618698" flag="0"/>
      <vel value="0.0811323328" flag="0"/>
      <psa03 value="0.1706098538" flag="0"/>
      <psa10 value="0.1050136105" flag="0"/>
      <psa30 value="0.0065850070" flag="0"/>
    </comp>
  </station>
  <station code="KMT1" name="KMT1" netid="HI" insttype="unknown" commtype="DIG" lat="41.1159" lon="25.4066">
    <comp name="--.HNN">
      <acc value="0.1182376866" flag="0"/>
      <vel value="0.0788603738" flag="0"/>
      <psa03 value="0.2597109164" flag="0"/>
      <psa10 value="0.0969491493" flag="0"/>
      <psa30 value="0.0202970545" flag="0"/>
    </comp>
    <comp name="--.HNE">
      <acc value="0.1032847772" flag="0"/>
      <vel value="0.0979513062" flag="0"/>
      <psa03 value="0.1897206503" flag="0"/>
      <psa10 value="0.1224539677" flag="0"/>
      <psa30 value="0.0215469917" flag="0"/>
    </comp>
    <comp name="--.HNZ">
      <acc value="0.0573455565" flag="0"/>
      <vel value="0.0365737705" flag="0"/>
      <psa03 value="0.1224019616" flag="0"/>
      <psa10 value="0.0490842736" flag="0"/>
      <psa30 value="0.0186797581" flag="0"/>
    </comp>
  </station>
  <station code="LMN1" name="LMN1" netid="HI" insttype="CMG-5TD,ACCELEROMETER,GURALP" commtype="DIG" lat="39.875" lon="25.0588">
    <comp name="--.HNZ">
      <acc value="0.4725911291" flag="0"/>
      <vel value="0.1092040359" flag="0"/>
      <psa03 value="0.4015190251" flag="0"/>
      <psa10 value="0.0420285968" flag="0"/>
      <psa30 value="0.0022907102" flag="0"/>
    </comp>
    <comp name="--.HNE">
      <acc value="0.5633896548" flag="0"/>
      <vel value="0.2801717318" flag="0"/>
      <psa03 value="2.3365360453" flag="0"/>
      <psa10 value="0.0555268316" flag="0"/>
      <psa30 value="0.0081261879" flag="0"/>
    </comp>
    <comp name="--.HNN">
      <acc value="0.4099638668" flag="0"/>
      <vel value="0.1697912846" flag="0"/>
      <psa03 value="0.9550271779" flag="0"/>
      <psa10 value="0.0402137499" flag="0"/>
      <psa30 value="0.0054964501" flag="0"/>
    </comp>
  </station>
  <station code="PLA1" name="PLA1" netid="HI" insttype="unknown" commtype="DIG" lat="40.5559" lon="22.9886">
    <comp name="--.HNE">
      <acc value="0.1812700493" flag="0"/>
      <vel value="0.2407631221" flag="0"/>
      <psa03 value="0.5375957108" flag="0"/>
      <psa10 value="0.2616575290" flag="0"/>
      <psa30 value="0.0231933887" flag="0"/>
    </comp>
    <comp name="--.HNN">
      <acc value="0.1788249711" flag="0"/>
      <vel value="0.1050277388" flag="0"/>
      <psa03 value="0.3714974524" flag="0"/>
      <psa10 value="0.1761931206" flag="0"/>
      <psa30 value="0.0376624080" flag="0"/>
    </comp>
    <comp name="--.HNZ">
      <acc value="0.1274335669" flag="0"/>
      <vel value="0.0640387613" flag="0"/>
      <psa03 value="0.2249215075" flag="0"/>
      <psa10 value="0.0899840648" flag="0"/>
      <psa30 value="0.0093659363" flag="0"/>
    </comp>
  </station>
  <station code="PLN1" name="PLN1" netid="HI" insttype="CMG-5TD,ACCELEROMETER,GURALP" commtype="DIG" lat="39.998" lon="23.575">
    <comp name="--.HNN">
      <acc value="0.3918567681" flag="0"/>
      <vel value="0.3097539262" flag="0"/>
      <psa03 value="0.7175301107" flag="0"/>
      <psa10 value="0.3661258550" flag="0"/>
      <psa30 value="0.0371619713" flag="0"/>
    </comp>
    <comp name="--.HNE">
      <acc value="0.3012406165" flag="0"/>
      <vel value="0.2120557813" flag="0"/>
      <psa03 value="0.7176944291" flag="0"/>
      <psa10 value="0.3417731498" flag="0"/>
      <psa30 value="0.0235861659" flag="0"/>
    </comp>
    <comp name="--.HNZ">
      <acc value="0.2916552277" flag="0"/>
      <vel value="0.1363886028" flag="0"/>
      <psa03 value="0.4376813726" flag="0"/>
      <psa10 value="0.0934870008" flag="0"/>
      <psa30 value="0.0103253360" flag="0"/>
    </comp>
  </station>
  <station code="SEIS" name="SEIS" netid="HI" insttype="unknown" commtype="DIG" lat="40.6318" lon="22.9628">
    <comp name="--.HNE">
      <acc value="0.0524870917" flag="0"/>
      <vel value="0.0272268700" flag="0"/>
      <psa03 value="0.0527345229" flag="0"/>
      <psa10 value="0.0305926266" flag="0"/>
      <psa30 value="0.0037360584" flag="0"/>
    </comp>
    <comp name="--.HNN">
      <acc value="0.0533332584" flag="0"/>
      <vel value="0.0422162009" flag="0"/>
      <psa03 value="0.0857333641" flag="0"/>
      <psa10 value="0.0903541118" flag="0"/>
      <psa30 value="0.0087782593" flag="0"/>
    </comp>
    <comp name="--.HNZ">
      <acc value="0.0488429307" flag="0"/>
      <vel value="0.0282127718" flag="0"/>
      <psa03 value="0.0712163270" flag="0"/>
      <psa10 value="0.0374246347" flag="0"/>
      <psa30 value="0.0032196700" flag="0"/>
    </comp>
  </station>
  <station code="SKY1" name="SKY1" netid="HI" insttype="CMG-5TD,ACCELEROMETER,GURALP" commtype="DIG" lat="38.9045" lon="24.5646">
    <comp name="--.HNE">
      <acc value="0.0364363113" flag="0"/>
      <vel value="0.0215368473" flag="0"/>
      <psa03 value="0.1489938410" flag="0"/>
      <psa10 value="0.0218874929" flag="0"/>
      <psa30 value="0.0022051140" flag="0"/>
    </comp>
    <comp name="--.HNN">
      <acc value="0.0493447442" flag="0"/>
      <vel value="0.0307095246" flag="0"/>
      <psa03 value="0.1445249156" flag="0"/>
      <psa10 value="0.0276405728" flag="0"/>
      <psa30 value="0.0014675377" flag="0"/>
    </comp>
    <comp name="--.HNZ">
      <acc value="0.0202128000" flag="0"/>
      <vel value="0.0105989840" flag="0"/>
      <psa03 value="0.0673289540" flag="0"/>
      <psa10 value="0.0074757023" flag="0"/>
      <psa30 value="0.0008837915" flag="0"/>
    </comp>
  </station>
  <station code="SPP1" name="SPP1" netid="HI" insttype="unknown" commtype="DIG" lat="41.0225" lon="25.7013">
    <comp name="--.HNZ">
      <acc value="0.0399836608" flag="0"/>
      <vel value="0.0336944817" flag="0"/>
      <psa03 value="0.0805520101" flag="0"/>
      <psa10 value="0.0545235811" flag="0"/>
      <psa30 value="0.0038463610" flag="0"/>
    </comp>
    <comp name="--.HNE">
      <acc value="0.0763151570" flag="0"/>
      <vel value="0.0698947633" flag="0"/>
      <psa03 value="0.2410508330" flag="0"/>
      <psa10 value="0.1485214929" flag="0"/>
      <psa30 value="0.0108791546" flag="0"/>
    </comp>
    <comp name="--.HNN">
      <acc value="0.0967834205" flag="0"/>
      <vel value="0.1165062148" flag="0"/>
      <psa03 value="0.2492737015" flag="0"/>
      <psa10 value="0.2013405588" flag="0"/>
      <psa30 value="0.0092599234" flag="0"/>
    </comp>
  </station>
  <station code="STL1" name="STL1" netid="HI" insttype="unknown" commtype="DIG" lat="40.6624" lon="22.9353">
    <comp name="--.HNE">
      <acc value="0.1519335085" flag="0"/>
      <vel value="0.0787706034" flag="0"/>
      <psa03 value="0.5267969887" flag="0"/>
      <psa10 value="0.0538776915" flag="0"/>
      <psa30 value="0.0069912096" flag="0"/>
    </comp>
    <comp name="--.HNN">
      <acc value="0.1145463601" flag="0"/>
      <vel value="0.0512587051" flag="0"/>
      <psa03 value="0.2602762046" flag="0"/>
      <psa10 value="0.0744580612" flag="0"/>
      <psa30 value="0.0131134018" flag="0"/>
    </comp>
    <comp name="--.HNZ">
      <acc value="0.0775740835" flag="0"/>
      <vel value="0.0286958313" flag="0"/>
      <psa03 value="0.1646021444" flag="0"/>
      <psa10 value="0.0357129096" flag="0"/>
      <psa30 value="0.0032640164" flag="0"/>
    </comp>
  </station>
  <station code="VOL2" name="VOL2" netid="HI" insttype="CMG-5TD,ACCELEROMETER,GURALP" commtype="DIG" lat="39.366" lon="22.9506">
    <comp name="--.HNE">
      <acc value="0.0614253363" flag="0"/>
      <vel value="0.0403062012" flag="0"/>
      <psa03 value="0.1538813165" flag="0"/>
      <psa10 value="0.0616882127" flag="0"/>
      <psa30 value="0.0047071442" flag="0"/>
    </comp>
    <comp name="--.HNZ">
      <acc value="0.0354367385" flag="0"/>
      <vel value="0.0195279378" flag="0"/>
      <psa03 value="0.0770513851" flag="0"/>
      <psa10 value="0.0181101566" flag="0"/>
      <psa30 value="0.0023560305" flag="0"/>
    </comp>
    <comp name="--.HNN">
      <acc value="0.0629102865" flag="0"/>
      <vel value="0.0402649106" flag="0"/>
      <psa03 value="0.1285645254" flag="0"/>
      <psa10 value="0.0649936556" flag="0"/>
      <psa30 value="0.0062126821" flag="0"/>
    </comp>
  </station>
  <station code="VOL3" name="VOL3" netid="HI" insttype="unknown" commtype="DIG" lat="39.374" lon="22.9354">
    <comp name="--.HNE">
      <acc value="0.0651145117" flag="0"/>
      <vel value="0.0484912227" flag="0"/>
      <psa03 value="0.1237719512" flag="0"/>
      <psa10 value="0.0527825884" flag="0"/>
      <psa30 value="0.0041413831" flag="0"/>
    </comp>
    <comp name="--.HNN">
      <acc value="0.0467367296" flag="0"/>
      <vel value="0.0305170818" flag="0"/>
      <psa03 value="0.1428800293" flag="0"/>
      <psa10 value="0.0538485161" flag="0"/>
      <psa30 value="0.0051481342" flag="0"/>
    </comp>
    <comp name="--.HNZ">
      <acc value="0.0251992917" flag="0"/>
      <vel value="0.0154024782" flag="0"/>
      <psa03 value="0.0757025724" flag="0"/>
      <psa10 value="0.0202044384" flag="0"/>
      <psa30 value="0.0018375897" flag="0"/>
    </comp>
  </station>
  <station code="XAN2" name="XAN2" netid="HI" insttype="unknown" commtype="DIG" lat="41.142" lon="24.8908">
    <comp name="--.HNE">
      <acc value="0.1384194550" flag="0"/>
      <vel value="0.0904803072" flag="0"/>
      <psa03 value="0.4666658262" flag="0"/>
      <psa10 value="0.1134935214" flag="0"/>
      <psa30 value="0.0149329752" flag="0"/>
    </comp>
    <comp name="--.HNN">
      <acc value="0.1095016641" flag="0"/>
      <vel value="0.1063339264" flag="0"/>
      <psa03 value="0.1971929932" flag="0"/>
      <psa10 value="0.1410421724" flag="0"/>
      <psa30 value="0.0143274057" flag="0"/>
    </comp>
    <comp name="--.HNZ">
      <acc value="0.0863691048" flag="0"/>
      <vel value="0.0549786027" flag="0"/>
      <psa03 value="0.1732658588" flag="0"/>
      <psa10 value="0.0571216697" flag="0"/>
      <psa30 value="0.0115980566" flag="0"/>
    </comp>
  </station>
  <station code="AGXA" name="AGXA" netid="HL" insttype="CMG-5" commtype="DIG" lat="39.2765" lon="22.82">
    <comp name="00.HNN">
      <acc value="0.0592154511" flag="0"/>
      <vel value="0.0583930960" flag="0"/>
      <psa03 value="0.1663698061" flag="0"/>
      <psa10 value="0.0970954561" flag="0"/>
      <psa30 value="0.0065689184" flag="0"/>
    </comp>
    <comp name="00.HNZ">
      <acc value="0.0345139104" flag="0"/>
      <vel value="0.0253028358" flag="0"/>
      <psa03 value="0.1206012008" flag="0"/>
      <psa10 value="0.0374724581" flag="0"/>
      <psa30 value="0.0025078094" flag="0"/>
    </comp>
    <comp name="00.HNE">
      <acc value="0.0573582513" flag="0"/>
      <vel value="0.0415151549" flag="0"/>
      <psa03 value="0.2150401827" flag="0"/>
      <psa10 value="0.1011733839" flag="0"/>
      <psa30 value="0.0070562311" flag="0"/>
    </comp>
  </station>
  <station code="EFSA" name="EFSA" netid="HL" insttype="CMG-5" commtype="DIG" lat="39.5401" lon="24.9886">
    <comp name="00.HNE">
      <acc value="0.0963329719" flag="0"/>
      <vel value="0.0738933719" flag="0"/>
      <psa03 value="0.2258339703" flag="0"/>
      <psa10 value="0.0785827085" flag="0"/>
      <psa30 value="0.0083080142" flag="0"/>
    </comp>
    <comp name="00.HNN">
      <acc value="0.0822067948" flag="0"/>
      <vel value="0.0532409819" flag="0"/>
      <psa03 value="0.2543994335" flag="0"/>
      <psa10 value="0.0410349121" flag="0"/>
      <psa30 value="0.0049830600" flag="0"/>
    </comp>
    <comp name="00.HNZ">
      <acc value="0.0714725315" flag="0"/>
      <vel value="0.0399183991" flag="0"/>
      <psa03 value="0.1723703603" flag="0"/>
      <psa10 value="0.0264408072" flag="0"/>
      <psa30 value="0.0019396895" flag="0"/>
    </comp>
  </station>
  <station code="GINA" name="GINA" netid="HL" insttype="CMG-5" commtype="DIG" lat="39.6689" lon="22.389">
    <comp name="00.HNN">
      <acc value="0.0472503193" flag="0"/>
      <vel value="0.0744573595" flag="0"/>
      <psa03 value="0.0794378727" flag="0"/>
      <psa10 value="0.0615723594" flag="0"/>
      <psa30 value="0.0284694394" flag="0"/>
    </comp>
    <comp name="00.HNE">
      <acc value="0.0354694892" flag="0"/>
      <vel value="0.0466556436" flag="0"/>
      <psa03 value="0.0748422900" flag="0"/>
      <psa10 value="0.0473621388" flag="0"/>
      <psa30 value="0.0149778644" flag="0"/>
    </comp>
    <comp name="00.HNZ">
      <acc value="0.0188019709" flag="0"/>
      <vel value="0.0232330053" flag="0"/>
      <psa03 value="0.0208933846" flag="0"/>
      <psa10 value="0.0281018198" flag="0"/>
      <psa30 value="0.0066134643" flag="0"/>
    </comp>
  </station>
  <station code="KOMA" name="KOMA" netid="HL" insttype="CMG-5" commtype="DIG" lat="41.1128" lon="25.3965">
    <comp name="00.HNE">
      <acc value="0.0843677998" flag="0"/>
      <vel value="0.1244758529" flag="0"/>
      <psa03 value="0.2470880682" flag="0"/>
      <psa10 value="0.1428100048" flag="0"/>
      <psa30 value="0.0226715022" flag="0"/>
    </comp>
    <comp name="00.HNN">
      <acc value="0.0842197925" flag="0"/>
      <vel value="0.0703453848" flag="0"/>
      <psa03 value="0.2703152365" flag="0"/>
      <psa10 value="0.1004953742" flag="0"/>
      <psa30 value="0.0180399428" flag="0"/>
    </comp>
    <comp name="00.HNZ">
      <acc value="0.0494962445" flag="0"/>
      <vel value="0.0422409460" flag="0"/>
      <psa03 value="0.1215512269" flag="0"/>
      <psa10 value="0.0571747345" flag="0"/>
      <psa30 value="0.0120623081" flag="0"/>
    </comp>
  </station>
  <station code="KVLA" name="KVLA" netid="HL" insttype="CMG-5" commtype="DIG" lat="40.937" lon="24.3859">
    <comp name="00.HNN">
      <acc value="0.2568205291" flag="0"/>
      <vel value="0.0796219937" flag="0"/>
      <psa03 value="0.4116135663" flag="0"/>
      <psa10 value="0.0215473102" flag="0"/>
      <psa30 value="0.0054922238" flag="0"/>
    </comp>
    <comp name="00.HNE">
      <acc value="0.3042713639" flag="0"/>
      <vel value="0.1331675898" flag="0"/>
      <psa03 value="0.8930315079" flag="0"/>
      <psa10 value="0.0671819426" flag="0"/>
      <psa30 value="0.0079027084" flag="0"/>
    </comp>
    <comp name="00.HNZ">
      <acc value="0.2607037249" flag="0"/>
      <vel value="0.0505591645" flag="0"/>
      <psa03 value="0.2026157835" flag="0"/>
      <psa10 value="0.0243470136" flag="0"/>
      <psa30 value="0.0048424522" flag="0"/>
    </comp>
  </station>
