<?xml version="1.0" encoding="UTF-8" standalone="yes"?>
<!DOCTYPE earthquake SYSTEM "stationlist.dtd">
<stationlist created="" xmlns="ch.ethz.sed.shakemap.usgs.xml">
  <station code="MMB" name="MMB" netid="BS" insttype="STS-2" commtype="DIG" lat="41.5469" lon="23.7495">
    <comp name="--.HHE">
      <acc value="0.1098644217" flag="0"/>
      <vel value="0.0786117758" flag="0"/>
      <psa03 value="0.1898739684" flag="0"/>
      <psa10 value="0.1006343813" flag="0"/>
      <psa30 value="0.0103155040" flag="0"/>
    </comp>
    <comp name="--.HHN">
      <acc value="0.0641502808" flag="0"/>
      <vel value="0.0516527857" flag="0"/>
      <psa03 value="0.1177352117" flag="0"/>
      <psa10 value="0.0987200353" flag="0"/>
      <psa30 value="0.0093289473" flag="0"/>
    </comp>
    <comp name="--.HHZ">
      <acc value="0.0685648818" flag="0"/>
      <vel value="0.0694454142" flag="0"/>
      <psa03 value="0.1312186064" flag="0"/>
      <psa10 value="0.1060234660" flag="0"/>
      <psa30 value="0.0053184654" flag="0"/>
    </comp>
  </station>
  <station code="DRA2" name="DRA2" netid="HI" insttype="CMG-5TD,ACCELEROMETER,GURALP" commtype="DIG" lat="41.1593" lon="24.1485">
    <comp name="--.HNE">
      <acc value="0.3996839250" flag="0"/>
      <vel value="0.2090553656" flag="0"/>
      <psa03 value="0.6813831840" flag="0"/>
      <psa10 value="0.1018049017" flag="0"/>
      <psa30 value="0.0093533115" flag="0"/>
    </comp>
    <comp name="--.HNZ">
      <acc value="0.2072618989" flag="0"/>
      <vel value="0.0728223412" flag="0"/>
      <psa03 value="0.2423589654" flag="0"/>
      <psa10 value="0.0458949464" flag="0"/>
      <psa30 value="0.0033108586" flag="0"/>
    </comp>
    <comp name="--.HNN">
      <acc value="0.2955474315" flag="0"/>
      <vel value="0.1044753677" flag="0"/>
      <psa03 value="0.5291422336" flag="0"/>
      <psa10 value="0.0459387531" flag="0"/>
      <psa30 value="0.0035866460" flag="0"/>
    </comp>
  </station>
  <station code="ITS1" name="ITS1" netid="HI" insttype="unknown" commtype="DIG" lat="40.605" lon="23.0123">
    <comp name="--.HNE">
      <acc value="0.1407901830" flag="0"/>
      <vel value="0.0940798822" flag="0"/>
      <psa03 value="0.2377123927" flag="0"/>
      <psa10 value="0.0781983007" flag="0"/>
      <psa30 value="0.0086928001" flag="0"/>
    </comp>
    <comp name="--.HNN">
      <acc value="0.1442654205" flag="0"/>
      <vel value="0.1383150518" flag="0"/>
      <psa03 value="0.3806089978" flag="0"/>
      <psa10 value="0.1884461382" flag="0"/>
      <psa30 value="0.0132356164" flag="0"/>
    </comp>
    <comp name="--.HNZ">
      <acc value="0.1209907593" flag="0"/>
      <vel value="0.0617903874" flag="0"/>
      <psa03 value="0.2166908448" flag="0"/>
      <psa10 value="0.0540287660" flag="0"/>
      <psa30 value="0.0035271939" flag="0"/>
    </comp>
  </station>
  <station code="KLR1" name="KLR1" netid="HI" insttype="unknown" commtype="DIG" lat="40.5825" lon="22.9496">
    <comp name="--.HNZ">
      <acc value="0.1070231521" flag="0"/>
      <vel value="0.0800451456" flag="0"/>
      <psa03 value="0.1709685983" flag="0"/>
      <psa10 value="0.1051627124" flag="0"/>
      <psa30 value="0.0062568630" flag="0"/>
    </comp>
    <comp name="--.HNN">
      <acc value="0.1818620395" flag="0"/>
      <vel value="0.1502310533" flag="0"/>
      <psa03 value="0.3690126850" flag="0"/>
      <psa10 value="0.1957743356" flag="0"/>
      <psa30 value="0.0407802009" flag="0"/>
    </comp>
    <comp name="--.HNE">
      <acc value="0.1687362401" flag="0"/>
      <vel value="0.1552444740" flag="0"/>
      <psa03 value="0.3949532173" flag="0"/>
      <psa10 value="0.2236129955" flag="0"/>
      <psa30 value="0.0206278422" flag="0"/>
    </comp>
  </station>
  <station code="KMT1" name="KMT1" netid="HI" insttype="unknown" commtype="DIG" lat="41.1159" lon="25.4066">
    <comp name="--.HNE">
      <acc value="0.1045249625" flag="0"/>
      <vel value="0.0911215737" flag="0"/>
      <psa03 value="0.1909225224" flag="0"/>
      <psa10 value="0.1224894951" flag="0"/>
      <psa30 value="0.0187411829" flag="0"/>
    </comp>
    <comp name="--.HNN">
      <acc value="0.1180606471" flag="0"/>
      <vel value="0.0759668370" flag="0"/>
      <psa03 value="0.2594876508" flag="0"/>
      <psa10 value="0.0974068010" flag="0"/>
      <psa30 value="0.0156829157" flag="0"/>
    </comp>
    <comp name="--.HNZ">
      <acc value="0.0572296612" flag="0"/>
      <vel value="0.0358671410" flag="0"/>
      <psa03 value="0.1221600328" flag="0"/>
      <psa10 value="0.0490297805" flag="0"/>
      <psa30 value="0.0172450785" flag="0"/>
    </comp>
  </station>
  <station code="LMN1" name="LMN1" netid="HI" insttype="CMG-5TD,ACCELEROMETER,GURALP" commtype="DIG" lat="39.875" lon="25.0588">
    <comp name="--.HNE">
      <acc value="0.5634676399" flag="0"/>
      <vel value="0.2807097466" flag="0"/>
      <psa03 value="2.3366031649" flag="0"/>
      <psa10 value="0.0556514853" flag="0"/>
      <psa30 value="0.0078395424" flag="0"/>
    </comp>
    <comp name="--.HNN">
      <acc value="0.4099633427" flag="0"/>
      <vel value="0.1694890254" flag="0"/>
      <psa03 value="0.9550392272" flag="0"/>
      <psa10 value="0.0401616639" flag="0"/>
      <psa30 value="0.0056216523" flag="0"/>
    </comp>
    <comp name="--.HNZ">
      <acc value="0.4725469476" flag="0"/>
      <vel value="0.1092668400" flag="0"/>
      <psa03 value="0.4014901546" flag="0"/>
      <psa10 value="0.0420273025" flag="0"/>
      <psa30 value="0.0021422520" flag="0"/>
    </comp>
  </station>
  <station code="PLA1" name="PLA1" netid="HI" insttype="unknown" commtype="DIG" lat="40.5559" lon="22.9886">
    <comp name="--.HNE">
      <acc value="0.1813202491" flag="0"/>
      <vel value="0.2323859707" flag="0"/>
      <psa03 value="0.5371985999" flag="0"/>
      <psa10 value="0.2603561695" flag="0"/>
      <psa30 value="0.0208413387" flag="0"/>
    </comp>
    <comp name="--.HNN">
      <acc value="0.1776061941" flag="0"/>
      <vel value="0.1005234907" flag="0"/>
      <psa03 value="0.3714233292" flag="0"/>
      <psa10 value="0.1758097601" flag="0"/>
      <psa30 value="0.0321505345" flag="0"/>
    </comp>
    <comp name="--.HNZ">
      <acc value="0.1273923512" flag="0"/>
      <vel value="0.0629091862" flag="0"/>
      <psa03 value="0.2249201794" flag="0"/>
      <psa10 value="0.0896253302" flag="0"/>
      <psa30 value="0.0086432240" flag="0"/>
    </comp>
  </station>
  <station code="PLN1" name="PLN1" netid="HI" insttype="CMG-5TD,ACCELEROMETER,GURALP" commtype="DIG" lat="39.998" lon="23.575">
    <comp name="--.HNE">
      <acc value="0.3007008482" flag="0"/>
      <vel value="0.2104595605" flag="0"/>
      <psa03 value="0.7185959856" flag="0"/>
      <psa10 value="0.3396577177" flag="0"/>
      <psa30 value="0.0201079355" flag="0"/>
    </comp>
    <comp name="--.HNN">
      <acc value="0.3913951121" flag="0"/>
      <vel value="0.2877442359" flag="0"/>
      <psa03 value="0.7187413358" flag="0"/>
      <psa10 value="0.3622731403" flag="0"/>
      <psa30 value="0.0283922632" flag="0"/>
    </comp>
    <comp name="--.HNZ">
      <acc value="0.2917170919" flag="0"/>
      <vel value="0.1347921611" flag="0"/>
      <psa03 value="0.4376111712" flag="0"/>
      <psa10 value="0.0932023162" flag="0"/>
      <psa30 value="0.0089349712" flag="0"/>
    </comp>
  </station>
  <station code="SEIS" name="SEIS" netid="HI" insttype="unknown" commtype="DIG" lat="40.6318" lon="22.9628">
    <comp name="--.HNE">
      <acc value="0.0527780739" flag="0"/>
      <vel value="0.0263645513" flag="0"/>
      <psa03 value="0.0530175297" flag="0"/>
      <psa10 value="0.0308407197" flag="0"/>
      <psa30 value="0.0033154286" flag="0"/>
    </comp>
    <comp name="--.HNN">
      <acc value="0.0534472516" flag="0"/>
      <vel value="0.0416401392" flag="0"/>
      <psa03 value="0.0852066683" flag="0"/>
      <psa10 value="0.0901297347" flag="0"/>
      <psa30 value="0.0079245477" flag="0"/>
    </comp>
    <comp name="--.HNZ">
      <acc value="0.0490707886" flag="0"/>
      <vel value="0.0270012136" flag="0"/>
      <psa03 value="0.0711831091" flag="0"/>
      <psa10 value="0.0372988549" flag="0"/>
      <psa30 value="0.0029031213" flag="0"/>
    </comp>
  </station>
  <station code="STL1" name="STL1" netid="HI" insttype="unknown" commtype="DIG" lat="40.6624" lon="22.9353">
    <comp name="--.HNE">
      <acc value="0.1521323839" flag="0"/>
      <vel value="0.0774982010" flag="0"/>
      <psa03 value="0.5268410806" flag="0"/>
      <psa10 value="0.0534927941" flag="0"/>
      <psa30 value="0.0062396127" flag="0"/>
    </comp>
    <comp name="--.HNZ">
      <acc value="0.0774837083" flag="0"/>
      <vel value="0.0290761757" flag="0"/>
      <psa03 value="0.1646757368" flag="0"/>
      <psa10 value="0.0356127614" flag="0"/>
      <psa30 value="0.0026879487" flag="0"/>
    </comp>
    <comp name="--.HNN">
      <acc value="0.1139792883" flag="0"/>
      <vel value="0.0521391305" flag="0"/>
      <psa03 value="0.2607044828" flag="0"/>
      <psa10 value="0.0741054888" flag="0"/>
      <psa30 value="0.0113000993" flag="0"/>
    </comp>
  </station>
  <station code="VOL2" name="VOL2" netid="HI" insttype="CMG-5TD,ACCELEROMETER,GURALP" commtype="DIG" lat="39.366" lon="22.9506">
    <comp name="--.HNE">
      <acc value="0.0613287742" flag="0"/>
      <vel value="0.0398070303" flag="0"/>
      <psa03 value="0.1539737041" flag="0"/>
      <psa10 value="0.0615762566" flag="0"/>
      <psa30 value="0.0042613393" flag="0"/>
    </comp>
    <comp name="--.HNN">
      <acc value="0.0629754927" flag="0"/>
      <vel value="0.0386683045" flag="0"/>
      <psa03 value="0.1286133178" flag="0"/>
      <psa10 value="0.0648998705" flag="0"/>
      <psa30 value="0.0052377305" flag="0"/>
    </comp>
    <comp name="--.HNZ">
      <acc value="0.0353723942" flag="0"/>
      <vel value="0.0192398356" flag="0"/>
      <psa03 value="0.0770997532" flag="0"/>
      <psa10 value="0.0180220113" flag="0"/>
      <psa30 value="0.0020748093" flag="0"/>
    </comp>
  </station>
  <station code="VOL3" name="VOL3" netid="HI" insttype="unknown" commtype="DIG" lat="39.374" lon="22.9354">
    <comp name="--.HNE">
      <acc value="0.0650222520" flag="0"/>
      <vel value="0.0477047328" flag="0"/>
      <psa03 value="0.1236887697" flag="0"/>
      <psa10 value="0.0528842052" flag="0"/>
      <psa30 value="0.0038024693" flag="0"/>
    </comp>
    <comp name="--.HNN">
      <acc value="0.0466674172" flag="0"/>
      <vel value="0.0296725305" flag="0"/>
      <psa03 value="0.1427474827" flag="0"/>
      <psa10 value="0.0536402046" flag="0"/>
      <psa30 value="0.0043039583" flag="0"/>
    </comp>
    <comp name="--.HNZ">
      <acc value="0.0252126132" flag="0"/>
      <vel value="0.0153337984" flag="0"/>
      <psa03 value="0.0756952588" flag="0"/>
      <psa10 value="0.0202393734" flag="0"/>
      <psa30 value="0.0016695089" flag="0"/>
    </comp>
  </station>
  <station code="XAN2" name="XAN2" netid="HI" insttype="unknown" commtype="DIG" lat="41.142" lon="24.8908">
    <comp name="--.HNE">
      <acc value="0.1386022219" flag="0"/>
      <vel value="0.0931019766" flag="0"/>
      <psa03 value="0.4669509598" flag="0"/>
      <psa10 value="0.1137037130" flag="0"/>
      <psa30 value="0.0138888826" flag="0"/>
    </comp>
    <comp name="--.HNZ">
      <acc value="0.0862482547" flag="0"/>
      <vel value="0.0543200483" flag="0"/>
      <psa03 value="0.1736650779" flag="0"/>
      <psa10 value="0.0571907359" flag="0"/>
      <psa30 value="0.0103460870" flag="0"/>
    </comp>
    <comp name="--.HNN">
      <acc value="0.1092839783" flag="0"/>
      <vel value="0.1074450420" flag="0"/>
      <psa03 value="0.1973726936" flag="0"/>
      <psa10 value="0.1407413225" flag="0"/>
      <psa30 value="0.0134578594" flag="0"/>
    </comp>
  </station>
  <station code="ALNA" name="ALNA" netid="HL" insttype="CMG-5" commtype="DIG" lat="39.148" lon="23.8667">
    <comp name="00.HNE">
      <acc value="0.0277904492" flag="0"/>
      <vel value="0.0232777277" flag="0"/>
      <psa03 value="0.0625522590" flag="0"/>
      <psa10 value="0.0434203912" flag="0"/>
      <psa30 value="0.0023025984" flag="0"/>
    </comp>
    <comp name="00.HNZ">
      <acc value="0.0195092640" flag="0"/>
      <vel value="0.0172949625" flag="0"/>
      <psa03 value="0.0542687361" flag="0"/>
      <psa10 value="0.0217334168" flag="0"/>
      <psa30 value="0.0014415640" flag="0"/>
    </comp>
    <comp name="00.HNN">
      <acc value="0.0242311920" flag="0"/>
      <vel value="0.0330145930" flag="0"/>
      <psa03 value="0.0578670382" flag="0"/>
      <psa10 value="0.0488097615" flag="0"/>
      <psa30 value="0.0036033406" flag="0"/>
    </comp>
  </station>
  <station code="EFSA" name="EFSA" netid="HL" insttype="CMG-5" commtype="DIG" lat="39.5401" lon="24.9886">
    <comp name="00.HNE">
      <acc value="0.0966077104" flag="0"/>
      <vel value="0.0740895067" flag="0"/>
      <psa03 value="0.2259576544" flag="0"/>
      <psa10 value="0.0788256897" flag="0"/>
      <psa30 value="0.0076259139" flag="0"/>
    </comp>
    <comp name="00.HNN">
      <acc value="0.0822103707" flag="0"/>
      <vel value="0.0539775811" flag="0"/>
      <psa03 value="0.2544209693" flag="0"/>
      <psa10 value="0.0409142845" flag="0"/>
      <psa30 value="0.0045413724" flag="0"/>
    </comp>
    <comp name="00.HNZ">
      <acc value="0.0714834771" flag="0"/>
      <vel value="0.0398265008" flag="0"/>
      <psa03 value="0.1723863240" flag="0"/>
      <psa10 value="0.0263948071" flag="0"/>
      <psa30 value="0.0018387751" flag="0"/>
    </comp>
  </station>
  <station code="KOMA" name="KOMA" netid="HL" insttype="CMG-5" commtype="DIG" lat="41.1128" lon="25.3965">
    <comp name="00.HNN">
      <acc value="0.0840198158" flag="0"/>
      <vel value="0.0685798445" flag="0"/>
      <psa03 value="0.2703497078" flag="0"/>
      <psa10 value="0.1010420308" flag="0"/>
      <psa30 value="0.0146233549" flag="0"/>
    </comp>
    <comp name="00.HNE">
      <acc value="0.0840957231" flag="0"/>
      <vel value="0.1216336162" flag="0"/>
      <psa03 value="0.2486609766" flag="0"/>
      <psa10 value="0.1438444373" flag="0"/>
      <psa30 value="0.0192225843" flag="0"/>
    </comp>
    <comp name="00.HNZ">
      <acc value="0.0494423158" flag="0"/>
      <vel value="0.0426239725" flag="0"/>
      <psa03 value="0.1215190386" flag="0"/>
      <psa10 value="0.0571326692" flag="0"/>
      <psa30 value="0.0111008752" flag="0"/>
    </comp>
  </station>
  <station code="KVLA" name="KVLA" netid="HL" insttype="CMG-5" commtype="DIG" lat="40.937" lon="24.3859">
    <comp name="00.HNE">
      <acc value="0.3042718911" flag="0"/>
      <vel value="0.1324645365" flag="0"/>
      <psa03 value="0.8930421899" flag="0"/>
      <psa10 value="0.0671606022" flag="0"/>
      <psa30 value="0.0077168110" flag="0"/>
    </comp>
    <comp name="00.HNN">
      <acc value="0.2568605363" flag="0"/>
      <vel value="0.0785033049" flag="0"/>
      <psa03 value="0.4117736474" flag="0"/>
      <psa10 value="0.0216485229" flag="0"/>
      <psa30 value="0.0047595497" flag="0"/>
    </comp>
    <comp name="00.HNZ">
      <acc value="0.2606781929" flag="0"/>
      <vel value="0.0497038238" flag="0"/>
      <psa03 value="0.2026273763" flag="0"/>
      <psa10 value="0.0242936904" flag="0"/>
      <psa30 value="0.0042531186" flag="0"/>
    </comp>
  </station>
  <station code="LIA" name="LIA" netid="HL" insttype="60s" commtype="DIG" lat="39.8972" lon="25.1806">
    <comp name="--.HHE">
      <acc value="0.0000000000" flag="0"/>
      <vel value="-100.0000000000" flag="0"/>
      <psa03 value="0.0000000000" flag="0"/>
      <psa10 value="0.0000000000" flag="0"/>
      <psa30 value="0.0000000000" flag="0"/>
    </comp>
    <comp name="--.HHZ">
      <acc value="0.0000000000" flag="0"/>
      <vel value="-100.0000000000" flag="0"/>
      <psa03 value="0.0000000000" flag="0"/>
      <psa10 value="0.0000000000" flag="0"/>
      <psa30 value="0.0000000000" flag="0"/>
    </comp>
    <comp name="--.HHN">
      <acc value="0.1073515874" flag="0"/>
      <vel value="0.0474287070" flag="0"/>
      <psa03 value="0.2376092515" flag="0"/>
      <psa10 value="0.0381362953" flag="0"/>
      <psa30 value="0.0020777459" flag="0"/>
    </comp>
  </station>
  <station code="NEO" name="NEO" netid="HL" insttype="120" commtype="DIG" lat="39.3057" lon="23.2219">
    <comp name="--.HHN">
      <acc value="0.0464430288" flag="0"/>
      <vel value="0.0378895936" flag="0"/>
      <psa03 value="0.1405326173" flag="0"/>
      <psa10 value="0.0536282826" flag="0"/>
      <psa30 value="0.0055429136" flag="0"/>
    </comp>
    <comp name="--.HHE">
      <acc value="0.0419467072" flag="0"/>
      <vel value="0.0263340342" flag="0"/>
      <psa03 value="0.1932695056" flag="0"/>
      <psa10 value="0.0288091335" flag="0"/>
      <psa30 value="0.0031411483" flag="0"/>
    </comp>
    <comp name="--.HHZ">
      <acc value="0.0428954153" flag="0"/>
      <vel value="0.0179723780" flag="0"/>
      <psa03 value="0.0981944467" flag="0"/>
      <psa10 value="0.0330366781" flag="0"/>
      <psa30 value="0.0024790289" flag="0"/>
    </comp>
  </station>
  <station code="NGRA" name="NGRA" netid="HL" insttype="CMG-5" commtype="DIG" lat="40.9075" lon="23.4993">
    <comp name="00.HNN">
      <acc value="0.3674651892" flag="0"/>
      <vel value="0.2272940723" flag="0"/>
      <psa03 value="0.8628506147" flag="0"/>
      <psa10 value="0.2875900655" flag="0"/>
      <psa30 value="0.0197455484" flag="0"/>
    </comp>
    <comp name="00.HNE">
      <acc value="0.3844888428" flag="0"/>
      <vel value="0.2848955386" flag="0"/>
      <psa03 value="1.0392171115" flag="0"/>
      <psa10 value="0.3766087799" flag="0"/>
      <psa30 value="0.0405442136" flag="0"/>
    </comp>
    <comp name="00.HNZ">
      <acc value="0.3029089756" flag="0"/>
      <vel value="0.1813687554" flag="0"/>
      <psa03 value="0.7070702743" flag="0"/>
      <psa10 value="0.3311351870" flag="0"/>
      <psa30 value="0.0155564125" flag="0"/>
    </comp>
  </station>
  <station code="PLG" name="PLG" netid="HL" insttype="120" commtype="DIG" lat="40.3733" lon="23.4444">
    <comp name="--.HHN">
      <acc value="0.3694761984" flag="0"/>
      <vel value="0.1007783412" flag="0"/>
      <psa03 value="0.6497062660" flag="0"/>
      <psa10 value="0.0986088650" flag="0"/>
      <psa30 value="0.0206922142" flag="0"/>
    </comp>
    <comp name="--.HHZ">
      <acc value="0.3923144811" flag="0"/>
      <vel value="0.1521728326" flag="0"/>
      <psa03 value="1.1400194203" flag="0"/>
      <psa10 value="0.0742690472" flag="0"/>
      <psa30 value="0.0102271404" flag="0"/>
    </comp>
    <comp name="--.HHE">
      <acc value="0.5659674244" flag="0"/>
      <vel value="0.1689360824" flag="0"/>
      <psa03 value="1.2360454134" flag="0"/>
      <psa10 value="0.0505083682" flag="0"/>
      <psa30 value="0.0131865676" flag="0"/>
    </comp>
  </station>
  <station code="PRAS" name="PRAS" netid="HL" insttype="120" commtype="DIG" lat="41.3524" lon="24.55">
    <comp name="--.HHE">
      <acc value="0.0000000000" flag="0"/>
      <vel value="-100.0000000000" flag="0"/>
      <psa03 value="0.0000000000" flag="0"/>
      <psa10 value="0.0000000000" flag="0"/>
      <psa30 value="0.0000000000" flag="0"/>
    </comp>
    <comp name="--.HHN">
      <acc value="0.2065218885" flag="0"/>
      <vel value="0.0874552438" flag="0"/>
      <psa03 value="0.5013816646" flag="0"/>
      <psa10 value="0.0374766578" flag="0"/>
      <psa30 value="0.0041318292" flag="0"/>
    </comp>
    <comp name="--.HHZ">
      <acc value="0.1206853890" flag="0"/>
      <vel value="0.0387601608" flag="0"/>
      <psa03 value="0.2340878779" flag="0"/>
      <psa10 value="0.0301133035" flag="0"/>
      <psa30 value="0.0085190686" flag="0"/>
    </comp>
  </station>
