<?xml version="1.0" encoding="UTF-8" standalone="yes"?>
<!DOCTYPE earthquake SYSTEM "stationlist.dtd">
<stationlist created="" xmlns="ch.ethz.sed.shakemap.usgs.xml">
  <station code="CEYT" name="CEYT" netid="KO" insttype="CMG-3ESP" lat="37.0105" lon="35.7478">
    <comp name="--.HHN">
      <acc value="0.0042069150" flag="0"/>
      <vel value="0.0030468654" flag="0"/>
      <psa03 value="0.0132876718" flag="0"/>
      <psa10 value="0.0030180739" flag="0"/>
      <psa30 value="0.0003295041" flag="0"/>
    </comp>
    <comp name="--.HHZ">
      <acc value="0.0025272458" flag="0"/>
      <vel value="0.0020125014" flag="0"/>
      <psa03 value="0.0083921227" flag="0"/>
      <psa10 value="0.0032963301" flag="0"/>
      <psa30 value="0.0002747613" flag="0"/>
    </comp>
    <comp name="--.HHE">
      <acc value="0.0078445370" flag="0"/>
      <vel value="0.0034447003" flag="0"/>
      <psa03 value="0.0253247369" flag="0"/>
      <psa10 value="0.0045246914" flag="0"/>
      <psa30 value="0.0005551131" flag="0"/>
    </comp>
  </station>
  <station code="KMRS" name="KMRS" netid="KO" insttype="CMG-3T" lat="37.5053" lon="36.9">
    <comp name="--.HHE">
      <acc value="0.0337993794" flag="0"/>
      <vel value="0.0152620509" flag="0"/>
      <psa03 value="0.0574031205" flag="0"/>
      <psa10 value="0.0084299134" flag="0"/>
      <psa30 value="0.0009302072" flag="0"/>
    </comp>
    <comp name="--.HHN">
      <acc value="0.0309134482" flag="0"/>
      <vel value="0.0152074977" flag="0"/>
      <psa03 value="0.1123025440" flag="0"/>
      <psa10 value="0.0053359116" flag="0"/>
      <psa30 value="0.0009740969" flag="0"/>
    </comp>
    <comp name="--.HHZ">
      <acc value="0.0244802684" flag="0"/>
      <vel value="0.0097231231" flag="0"/>
      <psa03 value="0.0474173752" flag="0"/>
      <psa10 value="0.0042468441" flag="0"/>
      <psa30 value="0.0003472647" flag="0"/>
    </comp>
  </station>
  <station code="SARI" name="SARI" netid="KO" insttype="CMG-3T" lat="38.4072" lon="36.4181">
    <comp name="--.HHE">
      <acc value="0.0549698791" flag="0"/>
      <vel value="0.0164221084" flag="0"/>
      <psa03 value="0.0644427074" flag="0"/>
      <psa10 value="0.0079482002" flag="0"/>
      <psa30 value="0.0006184457" flag="0"/>
    </comp>
  </station>
  <station code="ANDN" name="ANDN" netid="TU" insttype="T" lat="37.58" lon="36.3452">
    <comp name="--.HHZ">
      <acc value="0.1463844922" flag="0"/>
      <vel value="0.0533891206" flag="0"/>
      <psa03 value="0.3150491304" flag="0"/>
      <psa10 value="0.0524301274" flag="0"/>
      <psa30 value="0.0028695132" flag="0"/>
    </comp>
    <comp name="--.HHE">
      <acc value="0.4483006889" flag="0"/>
      <vel value="0.1245992258" flag="0"/>
      <psa03 value="0.5070493990" flag="0"/>
      <psa10 value="0.0413862002" flag="0"/>
      <psa30 value="0.0053857896" flag="0"/>
    </comp>
    <comp name="--.HHN">
      <acc value="0.6345316454" flag="0"/>
      <vel value="0.1536660137" flag="0"/>
      <psa03 value="1.0394381716" flag="0"/>
      <psa10 value="0.0731855567" flag="0"/>
      <psa30 value="0.0051399526" flag="0"/>
    </comp>
  </station>
</stationlist>
