<?xml version="1.0" encoding="UTF-8" standalone="yes"?>
<!DOCTYPE earthquake SYSTEM "stationlist.dtd">
<stationlist created="" xmlns="ch.ethz.sed.shakemap.usgs.xml">
  <station code="APE" name="APE" netid="GE" insttype="STS-2/N" lat="37.0727" lon="25.523">
    <comp name="--.HHE">
      <acc value="0.1409294028" flag="0"/>
      <vel value="0.0261054923" flag="0"/>
      <psa03 value="0.1583485734" flag="0"/>
      <psa10 value="0.0069266295" flag="0"/>
      <psa30 value="0.0008032426" flag="0"/>
    </comp>
    <comp name="--.HHN">
      <acc value="0.2028914660" flag="0"/>
      <vel value="0.0361836783" flag="0"/>
      <psa03 value="0.1061353890" flag="0"/>
      <psa10 value="0.0057656648" flag="0"/>
      <psa30 value="0.0009340671" flag="0"/>
    </comp>
    <comp name="--.HHZ">
      <acc value="0.0696976889" flag="0"/>
      <vel value="0.0149753695" flag="0"/>
      <psa03 value="0.0727201701" flag="0"/>
      <psa10 value="0.0060498331" flag="0"/>
      <psa30 value="0.0007734620" flag="0"/>
    </comp>
  </station>
  <station code="THERA" name="THERA" netid="GE" insttype="STS-2/N" lat="36.367" lon="25.4753">
    <comp name="--.HHE">
      <acc value="0.1092786795" flag="0"/>
      <vel value="0.0231266009" flag="0"/>
      <psa03 value="0.1305343154" flag="0"/>
      <psa10 value="0.0068535648" flag="0"/>
      <psa30 value="0.0008305490" flag="0"/>
    </comp>
    <comp name="--.HHZ">
      <acc value="0.0816310393" flag="0"/>
      <vel value="0.0219805122" flag="0"/>
      <psa03 value="0.0576991791" flag="0"/>
      <psa10 value="0.0084069765" flag="0"/>
      <psa30 value="0.0006518475" flag="0"/>
    </comp>
    <comp name="--.HHN">
      <acc value="0.0594889595" flag="0"/>
      <vel value="0.0163080384" flag="0"/>
      <psa03 value="0.0854126502" flag="0"/>
      <psa10 value="0.0047564999" flag="0"/>
      <psa30 value="0.0003453802" flag="0"/>
    </comp>
  </station>
</stationlist>
