<?xml version="1.0" encoding="UTF-8" standalone="yes"?>
<!DOCTYPE earthquake SYSTEM "stationlist.dtd">
<stationlist created="" xmlns="ch.ethz.sed.shakemap.usgs.xml">
  <station code="APE" name="APE" netid="GE" insttype="STS-2/N" lat="37.0727" lon="25.523">
    <comp name="--.HHE">
      <acc value="0.1409294028" flag="0"/>
      <vel value="0.0261054923" flag="0"/>
      <psa03 value="0.1583485734" flag="0"/>
      <psa10 value="0.0069266295" flag="0"/>
      <psa30 value="0.0008032426" flag="0"/>
    </comp>
    <comp name="--.HHN">
      <acc value="0.2028914660" flag="0"/>
      <vel value="0.0361836783" flag="0"/>
      <psa03 value="0.1061353890" flag="0"/>
      <psa10 value="0.0057656648" flag="0"/>
      <psa30 value="0.0009340671" flag="0"/>
    </comp>
    <comp name="--.HHZ">
      <acc value="0.0696976889" flag="0"/>
      <vel value="0.0149753695" flag="0"/>
      <psa03 value="0.0727201701" flag="0"/>
      <psa10 value="0.0060498331" flag="0"/>
      <psa30 value="0.0007734620" flag="0"/>
    </comp>
  </station>
  <station code="THERA" name="THERA" netid="GE" insttype="STS-2/N" lat="36.367" lon="25.4753">
    <comp name="--.HHE">
      <acc value="0.1092786795" flag="0"/>
      <vel value="0.0231266009" flag="0"/>
      <psa03 value="0.1305343154" flag="0"/>
      <psa10 value="0.0068535648" flag="0"/>
      <psa30 value="0.0008305490" flag="0"/>
    </comp>
    <comp name="--.HHZ">
      <acc value="0.0816310393" flag="0"/>
      <vel value="0.0219805122" flag="0"/>
      <psa03 value="0.0576991791" flag="0"/>
      <psa10 value="0.0084069765" flag="0"/>
      <psa30 value="0.0006518475" flag="0"/>
    </comp>
    <comp name="--.HHN">
      <acc value="0.0594889595" flag="0"/>
      <vel value="0.0163080384" flag="0"/>
      <psa03 value="0.0854126502" flag="0"/>
      <psa10 value="0.0047564999" flag="0"/>
      <psa30 value="0.0003453802" flag="0"/>
    </comp>
  </station>
  <station code="SNT1" name="SNT1" netid="HA" insttype="30" lat="36.4159" lon="25.4282">
    <comp name="--.HHE">
      <acc value="0.0634427554" flag="0"/>
      <vel value="0.0208628572" flag="0"/>
      <psa03 value="0.0908874404" flag="0"/>
      <psa10 value="0.0179945308" flag="0"/>
      <psa30 value="0.0012298011" flag="0"/>
    </comp>
    <comp name="--.HHZ">
      <acc value="0.0647393567" flag="0"/>
      <vel value="0.0128699707" flag="0"/>
      <psa03 value="0.0383475814" flag="0"/>
      <psa10 value="0.0081540683" flag="0"/>
      <psa30 value="0.0006524206" flag="0"/>
    </comp>
    <comp name="--.HHN">
      <acc value="0.0545934852" flag="0"/>
      <vel value="0.0247235351" flag="0"/>
      <psa03 value="0.0587181449" flag="0"/>
      <psa10 value="0.0183788556" flag="0"/>
      <psa30 value="0.0015347034" flag="0"/>
    </comp>
  </station>
  <station code="APE" name="APE" netid="HL" insttype="120" lat="37.0727" lon="25.523">
    <comp name="--.HHN">
      <acc value="0.1793489364" flag="0"/>
      <vel value="0.0348203366" flag="0"/>
      <psa03 value="0.1020615207" flag="0"/>
      <psa10 value="0.0056807112" flag="0"/>
      <psa30 value="0.0009289189" flag="0"/>
    </comp>
    <comp name="--.HHE">
      <acc value="0.1249127962" flag="0"/>
      <vel value="0.0244433243" flag="0"/>
      <psa03 value="0.1540948765" flag="0"/>
      <psa10 value="0.0068027512" flag="0"/>
      <psa30 value="0.0007970084" flag="0"/>
    </comp>
    <comp name="--.HHZ">
      <acc value="0.0594154064" flag="0"/>
      <vel value="0.0137577439" flag="0"/>
      <psa03 value="0.0703333975" flag="0"/>
      <psa10 value="0.0059972500" flag="0"/>
      <psa30 value="0.0007717494" flag="0"/>
    </comp>
  </station>
  <station code="MHLO" name="MHLO" netid="HL" insttype="20" lat="36.6898" lon="24.4017">
    <comp name="--.HHE">
      <acc value="0.1406199228" flag="0"/>
      <vel value="0.0581747511" flag="0"/>
      <psa03 value="0.4195967246" flag="0"/>
      <psa10 value="0.0338118399" flag="0"/>
      <psa30 value="0.0015995001" flag="0"/>
    </comp>
    <comp name="--.HHN">
      <acc value="0.1222482566" flag="0"/>
      <vel value="0.0547284168" flag="0"/>
      <psa03 value="0.4465469198" flag="0"/>
      <psa10 value="0.0342245463" flag="0"/>
      <psa30 value="0.0014322834" flag="0"/>
    </comp>
    <comp name="--.HHZ">
      <acc value="0.0351320833" flag="0"/>
      <vel value="0.0207694023" flag="0"/>
      <psa03 value="0.1310079005" flag="0"/>
      <psa10 value="0.0191927997" flag="0"/>
      <psa30 value="0.0010810745" flag="0"/>
    </comp>
  </station>
  <station code="THERA" name="THERA" netid="HL" insttype="120" lat="36.367" lon="25.4753">
    <comp name="--.HHN">
      <acc value="0.0597080185" flag="0"/>
      <vel value="0.0158178096" flag="0"/>
      <psa03 value="0.0827768254" flag="0"/>
      <psa10 value="0.0047206680" flag="0"/>
      <psa30 value="0.0003388488" flag="0"/>
    </comp>
    <comp name="--.HHE">
      <acc value="0.1074198306" flag="0"/>
      <vel value="0.0227294830" flag="0"/>
      <psa03 value="0.1270488502" flag="0"/>
      <psa10 value="0.0068175866" flag="0"/>
      <psa30 value="0.0008205917" flag="0"/>
    </comp>
    <comp name="--.HHZ">
      <acc value="0.0795368550" flag="0"/>
      <vel value="0.0213765666" flag="0"/>
      <psa03 value="0.0559993001" flag="0"/>
      <psa10 value="0.0082778577" flag="0"/>
      <psa30 value="0.0006434595" flag="0"/>
    </comp>
  </station>
  <station code="THRA" name="THRA" netid="HL" insttype="CMG-5" lat="36.415" lon="25.4324">
    <comp name="00.HNE">
      <acc value="0.2213325822" flag="0"/>
      <vel value="0.0714076349" flag="0"/>
      <psa03 value="0.4869404470" flag="0"/>
      <psa10 value="0.0386064395" flag="0"/>
      <psa30 value="0.0027123249" flag="0"/>
    </comp>
    <comp name="00.HNZ">
      <acc value="0.2362939342" flag="0"/>
      <vel value="0.0685958348" flag="0"/>
      <psa03 value="0.3037110052" flag="0"/>
      <psa10 value="0.0234586611" flag="0"/>
      <psa30 value="0.0017955859" flag="0"/>
    </comp>
    <comp name="00.HNN">
      <acc value="0.1524848250" flag="0"/>
      <vel value="0.0607761953" flag="0"/>
      <psa03 value="0.4002406770" flag="0"/>
      <psa10 value="0.0681625233" flag="0"/>
      <psa30 value="0.0023731654" flag="0"/>
    </comp>
  </station>
  <station code="TNSA" name="TNSA" netid="HL" insttype="CMG-5" lat="37.5394" lon="25.1631">
    <comp name="00.HNN">
      <acc value="0.0661305435" flag="0"/>
      <vel value="0.0230124147" flag="0"/>
      <psa03 value="0.1187278650" flag="0"/>
      <psa10 value="0.0063958627" flag="0"/>
      <psa30 value="0.0004574936" flag="0"/>
    </comp>
    <comp name="00.HNZ">
      <acc value="0.0462208455" flag="0"/>
      <vel value="0.0142719081" flag="0"/>
      <psa03 value="0.0605099561" flag="0"/>
      <psa10 value="0.0041551874" flag="0"/>
      <psa30 value="0.0005604995" flag="0"/>
    </comp>
    <comp name="00.HNE">
      <acc value="0.0525094407" flag="0"/>
      <vel value="0.0171949510" flag="0"/>
      <psa03 value="0.0878107945" flag="0"/>
      <psa10 value="0.0047984123" flag="0"/>
      <psa30 value="0.0004529223" flag="0"/>
    </comp>
  </station>
</stationlist>
