<?xml version="1.0" encoding="UTF-8" standalone="yes"?>
<!DOCTYPE earthquake SYSTEM "stationlist.dtd">
<stationlist created="" xmlns="ch.ethz.sed.shakemap.usgs.xml">
  <station code="GVD" name="GVD" netid="GE" insttype="STS-2/N" lat="34.8391" lon="24.0874">
    <comp name="--.HHE">
      <acc value="0.0209831296" flag="0"/>
      <vel value="0.0113136162" flag="0"/>
      <psa03 value="0.0609946951" flag="0"/>
      <psa10 value="0.0081919527" flag="0"/>
      <psa30 value="0.0005120832" flag="0"/>
    </comp>
    <comp name="--.HHZ">
      <acc value="0.0096048877" flag="0"/>
      <vel value="0.0039136124" flag="0"/>
      <psa03 value="0.0295356956" flag="0"/>
      <psa10 value="0.0035432721" flag="0"/>
      <psa30 value="0.0003051723" flag="0"/>
    </comp>
    <comp name="--.HHN">
      <acc value="0.0166800187" flag="0"/>
      <vel value="0.0086454328" flag="0"/>
      <psa03 value="0.0438794226" flag="0"/>
      <psa10 value="0.0071944586" flag="0"/>
      <psa30 value="0.0005339318" flag="0"/>
    </comp>
  </station>
  <station code="GVD" name="GVD" netid="HL" insttype="120" lat="34.8391" lon="24.0874">
    <comp name="--.HHE">
      <acc value="0.0205338133" flag="0"/>
      <vel value="0.0110425113" flag="0"/>
      <psa03 value="0.0591972900" flag="0"/>
      <psa10 value="0.0081420507" flag="0"/>
      <psa30 value="0.0005096436" flag="0"/>
    </comp>
    <comp name="--.HHN">
      <acc value="0.0162567460" flag="0"/>
      <vel value="0.0085032453" flag="0"/>
      <psa03 value="0.0426193431" flag="0"/>
      <psa10 value="0.0071265963" flag="0"/>
      <psa30 value="0.0005278424" flag="0"/>
    </comp>
    <comp name="--.HHZ">
      <acc value="0.0093254913" flag="0"/>
      <vel value="0.0038426878" flag="0"/>
      <psa03 value="0.0286850672" flag="0"/>
      <psa10 value="0.0034953857" flag="0"/>
      <psa30 value="0.0003043511" flag="0"/>
    </comp>
  </station>
  <station code="IACM" name="IACM" netid="HL" insttype="120" lat="35.3058" lon="25.0709">
    <comp name="--.HHE">
      <acc value="0.0297417971" flag="0"/>
      <vel value="0.0229177484" flag="0"/>
      <psa03 value="0.0845367426" flag="0"/>
      <psa10 value="0.0509811660" flag="0"/>
      <psa30 value="0.0021708593" flag="0"/>
    </comp>
    <comp name="--.HHZ">
      <acc value="0.0173605542" flag="0"/>
      <vel value="0.0109172743" flag="0"/>
      <psa03 value="0.0447346159" flag="0"/>
      <psa10 value="0.0110234857" flag="0"/>
      <psa30 value="0.0005590610" flag="0"/>
    </comp>
    <comp name="--.HHN">
      <acc value="0.0215175109" flag="0"/>
      <vel value="0.0213808271" flag="0"/>
      <psa03 value="0.0687442086" flag="0"/>
      <psa10 value="0.0403730924" flag="0"/>
      <psa30 value="0.0015243283" flag="0"/>
    </comp>
  </station>
  <station code="IDI" name="IDI" netid="HL" insttype="120" lat="35.288" lon="24.89">
    <comp name="--.HHE">
      <acc value="0.0044738979" flag="0"/>
      <vel value="0.0035514277" flag="0"/>
      <psa03 value="0.0114889635" flag="0"/>
      <psa10 value="0.0049016995" flag="0"/>
      <psa30 value="0.0002943637" flag="0"/>
    </comp>
    <comp name="--.HHN">
      <acc value="0.0053366373" flag="0"/>
      <vel value="0.0023809633" flag="0"/>
      <psa03 value="0.0135963113" flag="0"/>
      <psa10 value="0.0034436137" flag="0"/>
      <psa30 value="0.0001629649" flag="0"/>
    </comp>
    <comp name="--.HHZ">
      <acc value="0.0043461089" flag="0"/>
      <vel value="0.0025070883" flag="0"/>
      <psa03 value="0.0113468059" flag="0"/>
      <psa10 value="0.0020863356" flag="0"/>
      <psa30 value="0.0002527911" flag="0"/>
    </comp>
  </station>
  <station code="IDI" name="IDI" netid="MN" insttype="" lat="35.288" lon="24.89">
    <comp name="--.HHE">
      <acc value="0.0045544140" flag="0"/>
      <vel value="0.0035791940" flag="0"/>
      <psa03 value="0.0115560411" flag="0"/>
      <psa10 value="0.0048832031" flag="0"/>
      <psa30 value="0.0002914122" flag="0"/>
    </comp>
    <comp name="--.HHN">
      <acc value="0.0055773971" flag="0"/>
      <vel value="0.0023943967" flag="0"/>
      <psa03 value="0.0138089497" flag="0"/>
      <psa10 value="0.0034245201" flag="0"/>
      <psa30 value="0.0001618038" flag="0"/>
    </comp>
    <comp name="--.HHZ">
      <acc value="0.0044051653" flag="0"/>
      <vel value="0.0025162840" flag="0"/>
      <psa03 value="0.0114870356" flag="0"/>
      <psa10 value="0.0020756817" flag="0"/>
      <psa30 value="0.0002499972" flag="0"/>
    </comp>
  </station>
</stationlist>
