<?xml version="1.0" encoding="UTF-8" standalone="yes"?>
<!DOCTYPE earthquake SYSTEM "stationlist.dtd">
<stationlist created="" xmlns="ch.ethz.sed.shakemap.usgs.xml">
  <station code="APE" name="APE" netid="GE" insttype="STS-2/N" commtype="DIG" lat="37.0727" lon="25.523">
    <comp name="--.HHE">
      <acc value="0.1406836577" flag="0"/>
      <vel value="0.0377380848" flag="0"/>
      <psa03 value="0.0672681971" flag="0"/>
      <psa10 value="0.0096456637" flag="0"/>
      <psa30 value="0.0011804686" flag="0"/>
    </comp>
    <comp name="--.HHN">
      <acc value="0.1508266430" flag="0"/>
      <vel value="0.0306898045" flag="0"/>
      <psa03 value="0.0706015154" flag="0"/>
      <psa10 value="0.0110670248" flag="0"/>
      <psa30 value="0.0016165982" flag="0"/>
    </comp>
    <comp name="--.HHZ">
      <acc value="0.0548092225" flag="0"/>
      <vel value="0.0140642872" flag="0"/>
      <psa03 value="0.0679247062" flag="0"/>
      <psa10 value="0.0062364156" flag="0"/>
      <psa30 value="0.0012234304" flag="0"/>
    </comp>
  </station>
  <station code="THERA" name="THERA" netid="GE" insttype="STS-2/N" commtype="DIG" lat="36.367" lon="25.4753">
    <comp name="--.HHN">
      <acc value="0.0450113005" flag="0"/>
      <vel value="0.0100909662" flag="0"/>
      <psa03 value="0.0442098049" flag="0"/>
      <psa10 value="0.0037864573" flag="0"/>
      <psa30 value="0.0005325524" flag="0"/>
    </comp>
    <comp name="--.HHE">
      <acc value="0.0524296361" flag="0"/>
      <vel value="0.0098349803" flag="0"/>
      <psa03 value="0.0711152954" flag="0"/>
      <psa10 value="0.0070879276" flag="0"/>
      <psa30 value="0.0012039806" flag="0"/>
    </comp>
    <comp name="--.HHZ">
      <acc value="0.0645587645" flag="0"/>
      <vel value="0.0184933516" flag="0"/>
      <psa03 value="0.0463219828" flag="0"/>
      <psa10 value="0.0035881770" flag="0"/>
      <psa30 value="0.0010695391" flag="0"/>
    </comp>
  </station>
  <station code="IOSI" name="IOSI" netid="HA" insttype="60s," commtype="DIG" lat="36.7225" lon="25.2887">
    <comp name="--.HHN">
      <acc value="0.0729658669" flag="0"/>
      <vel value="0.0181211168" flag="0"/>
      <psa03 value="0.1073137725" flag="0"/>
      <psa10 value="0.0043846769" flag="0"/>
      <psa30 value="0.0007227889" flag="0"/>
    </comp>
    <comp name="--.HHE">
      <acc value="0.0819712115" flag="0"/>
      <vel value="0.0217174133" flag="0"/>
      <psa03 value="0.0873614935" flag="0"/>
      <psa10 value="0.0207799538" flag="0"/>
      <psa30 value="0.0014932009" flag="0"/>
    </comp>
    <comp name="--.HHZ">
      <acc value="0.0765167589" flag="0"/>
      <vel value="0.0150670518" flag="0"/>
      <psa03 value="0.0563178725" flag="0"/>
      <psa10 value="0.0106946007" flag="0"/>
      <psa30 value="0.0018686297" flag="0"/>
    </comp>
  </station>
  <station code="SERI" name="SERI" netid="HA" insttype="30" commtype="DIG" lat="37.1609" lon="24.4853">
    <comp name="--.HHN">
      <acc value="0.0137014000" flag="0"/>
      <vel value="0.0034396585" flag="0"/>
      <psa03 value="0.0130963415" flag="0"/>
      <psa10 value="0.0023609302" flag="0"/>
      <psa30 value="0.0003187510" flag="0"/>
    </comp>
    <comp name="--.HHE">
      <acc value="0.0113876742" flag="0"/>
      <vel value="0.0027818354" flag="0"/>
      <psa03 value="0.0120705386" flag="0"/>
      <psa10 value="0.0021137904" flag="0"/>
      <psa30 value="0.0004788083" flag="0"/>
    </comp>
    <comp name="--.HHZ">
      <acc value="0.0078312571" flag="0"/>
      <vel value="0.0029811544" flag="0"/>
      <psa03 value="0.0092055676" flag="0"/>
      <psa10 value="0.0026542655" flag="0"/>
      <psa30 value="0.0006523070" flag="0"/>
    </comp>
  </station>
  <station code="SNT1" name="SNT1" netid="HA" insttype="30" commtype="DIG" lat="36.4159" lon="25.4282">
    <comp name="--.HHE">
      <acc value="0.0196996980" flag="0"/>
      <vel value="0.0065122033" flag="0"/>
      <psa03 value="0.0270002383" flag="0"/>
      <psa10 value="0.0088733925" flag="0"/>
      <psa30 value="0.0012060878" flag="0"/>
    </comp>
    <comp name="--.HHN">
      <acc value="0.0177168220" flag="0"/>
      <vel value="0.0063467466" flag="0"/>
      <psa03 value="0.0229852977" flag="0"/>
      <psa10 value="0.0082737337" flag="0"/>
      <psa30 value="0.0015129718" flag="0"/>
    </comp>
    <comp name="--.HHZ">
      <acc value="0.0133773670" flag="0"/>
      <vel value="0.0047012966" flag="0"/>
      <psa03 value="0.0197221713" flag="0"/>
      <psa10 value="0.0030360467" flag="0"/>
      <psa30 value="0.0005551029" flag="0"/>
    </comp>
  </station>
  <station code="SNT5" name="SNT5" netid="HA" insttype="1s-100Hz," commtype="DIG" lat="36.4037" lon="25.3953">
    <comp name="--.HHE">
      <acc value="0.0858175082" flag="0"/>
      <vel value="0.0252557736" flag="0"/>
      <psa03 value="0.0969485711" flag="0"/>
      <psa10 value="0.0068671536" flag="0"/>
      <psa30 value="0.0016030057" flag="0"/>
    </comp>
    <comp name="--.HHN">
      <acc value="0.0619498946" flag="0"/>
      <vel value="0.0151483632" flag="0"/>
      <psa03 value="0.0811107803" flag="0"/>
      <psa10 value="0.0038671346" flag="0"/>
      <psa30 value="0.0013549360" flag="0"/>
    </comp>
    <comp name="--.HHZ">
      <acc value="0.0315730519" flag="0"/>
      <vel value="0.0072531429" flag="0"/>
      <psa03 value="0.0273717397" flag="0"/>
      <psa10 value="0.0023327918" flag="0"/>
      <psa30 value="0.0004474998" flag="0"/>
    </comp>
  </station>
  <station code="NAX1" name="NAX1" netid="HI" insttype="CMG-5TD,ACCELEROMETER,GURALP" commtype="DIG" lat="37.1014" lon="25.3741">
    <comp name="--.HNE">
      <acc value="0.0950117407" flag="0"/>
      <vel value="0.0227611941" flag="0"/>
      <psa03 value="0.0458484915" flag="0"/>
      <psa10 value="0.0075871601" flag="0"/>
      <psa30 value="0.0012878913" flag="0"/>
    </comp>
    <comp name="--.HNZ">
      <acc value="0.0610430697" flag="0"/>
      <vel value="0.0162402412" flag="0"/>
      <psa03 value="0.0666111949" flag="0"/>
      <psa10 value="0.0083791907" flag="0"/>
      <psa30 value="0.0013786766" flag="0"/>
    </comp>
    <comp name="--.HNN">
      <acc value="0.0829971124" flag="0"/>
      <vel value="0.0191989337" flag="0"/>
      <psa03 value="0.0883536493" flag="0"/>
      <psa10 value="0.0068111074" flag="0"/>
      <psa30 value="0.0006697700" flag="0"/>
    </comp>
  </station>
  <station code="SFR2" name="SFR2" netid="HI" insttype="unknown" commtype="DIG" lat="36.3998" lon="25.4382">
    <comp name="--.HNN">
      <acc value="0.1005888957" flag="0"/>
      <vel value="0.0399984807" flag="0"/>
      <psa03 value="0.2703713231" flag="0"/>
      <psa10 value="0.0219994281" flag="0"/>
      <psa30 value="0.0027848670" flag="0"/>
    </comp>
    <comp name="--.HNZ">
      <acc value="0.1119232334" flag="0"/>
      <vel value="0.0331103228" flag="0"/>
      <psa03 value="0.2045664472" flag="0"/>
      <psa10 value="0.0113308999" flag="0"/>
      <psa30 value="0.0016094349" flag="0"/>
    </comp>
  </station>
  <station code="AMGA" name="AMGA" netid="HL" insttype="LE3D20_SMART24" commtype="DIG" lat="36.8316" lon="25.8938">
    <comp name="--.HHE">
      <acc value="0.7463612965" flag="0"/>
      <vel value="0.1854450485" flag="0"/>
      <psa03 value="0.6799709020" flag="0"/>
      <psa10 value="0.0681021893" flag="0"/>
      <psa30 value="0.0069957824" flag="0"/>
    </comp>
    <comp name="--.HHN">
      <acc value="0.8704043839" flag="0"/>
      <vel value="0.1703611696" flag="0"/>
      <psa03 value="0.4694624866" flag="0"/>
      <psa10 value="0.0657751940" flag="0"/>
      <psa30 value="0.0043636464" flag="0"/>
    </comp>
    <comp name="--.HHZ">
      <acc value="0.4210055031" flag="0"/>
      <vel value="0.1055664704" flag="0"/>
      <psa03 value="0.2931218838" flag="0"/>
      <psa10 value="0.0367467915" flag="0"/>
      <psa30 value="0.0090161930" flag="0"/>
    </comp>
  </station>
  <station code="APE" name="APE" netid="HL" insttype="120" commtype="DIG" lat="37.0727" lon="25.523">
    <comp name="--.HHE">
      <acc value="0.1333383343" flag="0"/>
      <vel value="0.0354000695" flag="0"/>
      <psa03 value="0.0657882277" flag="0"/>
      <psa10 value="0.0094190056" flag="0"/>
      <psa30 value="0.0011654228" flag="0"/>
    </comp>
    <comp name="--.HHZ">
      <acc value="0.0513934902" flag="0"/>
      <vel value="0.0135487802" flag="0"/>
      <psa03 value="0.0658926161" flag="0"/>
      <psa10 value="0.0061761127" flag="0"/>
      <psa30 value="0.0012205163" flag="0"/>
    </comp>
    <comp name="--.HHN">
      <acc value="0.1410563434" flag="0"/>
      <vel value="0.0291905445" flag="0"/>
      <psa03 value="0.0680796259" flag="0"/>
      <psa10 value="0.0108766246" flag="0"/>
      <psa30 value="0.0016098530" flag="0"/>
    </comp>
  </station>
  <station code="ASTA" name="ASTA" netid="HL" insttype="LE3D20_SMART24" commtype="DIG" lat="36.5475" lon="26.3471">
    <comp name="--.HHE">
      <acc value="0.0640095497" flag="0"/>
      <vel value="0.0175145620" flag="0"/>
      <psa03 value="0.0975731137" flag="0"/>
      <psa10 value="0.0090869138" flag="0"/>
      <psa30 value="0.0009656314" flag="0"/>
    </comp>
    <comp name="--.HHN">
      <acc value="0.0722464327" flag="0"/>
      <vel value="0.0210848564" flag="0"/>
      <psa03 value="0.1663267890" flag="0"/>
      <psa10 value="0.0159491476" flag="0"/>
      <psa30 value="0.0008029813" flag="0"/>
    </comp>
    <comp name="--.HHZ">
      <acc value="0.0680617640" flag="0"/>
      <vel value="0.0141980375" flag="0"/>
      <psa03 value="0.0519992935" flag="0"/>
      <psa10 value="0.0053892419" flag="0"/>
      <psa30 value="0.0006107746" flag="0"/>
    </comp>
  </station>
  <station code="KLNA" name="KLNA" netid="HL" insttype="CMG-5" commtype="DIG" lat="36.9571" lon="26.9727">
    <comp name="00.HNE">
      <acc value="0.0381326373" flag="0"/>
      <vel value="0.0130907029" flag="0"/>
      <psa03 value="0.0695174297" flag="0"/>
      <psa10 value="0.0046271601" flag="0"/>
      <psa30 value="0.0003134022" flag="0"/>
    </comp>
    <comp name="00.HNZ">
      <acc value="0.0287194090" flag="0"/>
      <vel value="0.0072815311" flag="0"/>
      <psa03 value="0.0279575757" flag="0"/>
      <psa10 value="0.0024287148" flag="0"/>
      <psa30 value="0.0004908416" flag="0"/>
    </comp>
    <comp name="00.HNN">
      <acc value="0.0330719955" flag="0"/>
      <vel value="0.0110411720" flag="0"/>
      <psa03 value="0.0719343781" flag="0"/>
      <psa10 value="0.0043276454" flag="0"/>
      <psa30 value="0.0005197839" flag="0"/>
    </comp>
  </station>
  <station code="MHLO" name="MHLO" netid="HL" insttype="20" commtype="DIG" lat="36.6898" lon="24.4017">
    <comp name="--.HHE">
      <acc value="0.0240267318" flag="0"/>
      <vel value="0.0165098932" flag="0"/>
      <psa03 value="0.0966468438" flag="0"/>
      <psa10 value="0.0237266864" flag="0"/>
      <psa30 value="0.0017347142" flag="0"/>
    </comp>
    <comp name="--.HHZ">
      <acc value="0.0129291515" flag="0"/>
      <vel value="0.0067472862" flag="0"/>
      <psa03 value="0.0322438225" flag="0"/>
      <psa10 value="0.0133142244" flag="0"/>
      <psa30 value="0.0009259391" flag="0"/>
    </comp>
    <comp name="--.HHN">
      <acc value="0.0407565288" flag="0"/>
      <vel value="0.0166026747" flag="0"/>
      <psa03 value="0.1026582834" flag="0"/>
      <psa10 value="0.0166408530" flag="0"/>
      <psa30 value="0.0007376316" flag="0"/>
    </comp>
  </station>
  <station code="MILA" name="MILA" netid="HL" insttype="CMG-5" commtype="DIG" lat="36.7429" lon="24.4282">
    <comp name="00.HNE">
      <acc value="0.0398656750" flag="0"/>
      <vel value="0.0143660616" flag="0"/>
      <psa03 value="0.0902865817" flag="0"/>
      <psa10 value="0.0113261034" flag="0"/>
      <psa30 value="0.0018453836" flag="0"/>
    </comp>
    <comp name="00.HNZ">
      <acc value="0.0361619634" flag="0"/>
      <vel value="0.0148305872" flag="0"/>
      <psa03 value="0.0882443200" flag="0"/>
      <psa10 value="0.0099701386" flag="0"/>
      <psa30 value="0.0006332964" flag="0"/>
    </comp>
    <comp name="00.HNN">
      <acc value="0.0602975688" flag="0"/>
      <vel value="0.0257763255" flag="0"/>
      <psa03 value="0.1230882449" flag="0"/>
      <psa10 value="0.0097197657" flag="0"/>
      <psa30 value="0.0008660096" flag="0"/>
    </comp>
  </station>
  <station code="NISR" name="NISR" netid="HL" insttype="0" commtype="DIG" lat="36.6106" lon="27.131">
    <comp name="--.HNE">
      <acc value="0.0465107268" flag="0"/>
      <vel value="0.0279207127" flag="0"/>
      <psa03 value="0.0937769910" flag="0"/>
      <psa10 value="0.0154013154" flag="0"/>
      <psa30 value="0.0012366393" flag="0"/>
    </comp>
    <comp name="--.HNN">
      <acc value="0.0274948083" flag="0"/>
      <vel value="0.0138631522" flag="0"/>
      <psa03 value="0.0745027966" flag="0"/>
      <psa10 value="0.0112142221" flag="0"/>
      <psa30 value="0.0015837774" flag="0"/>
    </comp>
    <comp name="--.HNZ">
      <acc value="0.0130330811" flag="0"/>
      <vel value="0.0069371818" flag="0"/>
      <psa03 value="0.0284678931" flag="0"/>
      <psa10 value="0.0060923583" flag="0"/>
      <psa30 value="0.0004851438" flag="0"/>
    </comp>
  </station>
  <station code="SANT" name="SANT" netid="HL" insttype="30" commtype="DIG" lat="36.3705" lon="25.4593">
    <comp name="--.HHN">
      <acc value="0.1309848736" flag="0"/>
      <vel value="0.0248381755" flag="0"/>
      <psa03 value="0.0560507827" flag="0"/>
      <psa10 value="0.0081930760" flag="0"/>
      <psa30 value="0.0013223134" flag="0"/>
    </comp>
    <comp name="--.HHE">
      <acc value="0.1693904393" flag="0"/>
      <vel value="0.0401058008" flag="0"/>
      <psa03 value="0.1250796905" flag="0"/>
      <psa10 value="0.0129980994" flag="0"/>
      <psa30 value="0.0015199788" flag="0"/>
    </comp>
    <comp name="--.HHZ">
      <acc value="0.1735194169" flag="0"/>
      <vel value="0.0225259676" flag="0"/>
      <psa03 value="0.0703154534" flag="0"/>
      <psa10 value="0.0052864206" flag="0"/>
      <psa30 value="0.0010105109" flag="0"/>
    </comp>
  </station>
  <station code="SAP3" name="SAP3" netid="HL" insttype="65535" commtype="DIG" lat="36.4356" lon="25.3454">
    <comp name="--.HHE">
      <acc value="0.0518697714" flag="0"/>
      <vel value="0.0180646985" flag="0"/>
      <psa03 value="0.0952102304" flag="0"/>
      <psa10 value="0.0237537294" flag="0"/>
      <psa30 value="0.0035955789" flag="0"/>
    </comp>
    <comp name="--.HHN">
      <acc value="0.0483536103" flag="0"/>
      <vel value="0.0153270603" flag="0"/>
      <psa03 value="0.1000103177" flag="0"/>
      <psa10 value="0.0118720093" flag="0"/>
      <psa30 value="0.0027268951" flag="0"/>
    </comp>
    <comp name="--.HHZ">
      <acc value="0.0597408848" flag="0"/>
      <vel value="0.0145960984" flag="0"/>
      <psa03 value="0.0897941392" flag="0"/>
      <psa10 value="0.0080167056" flag="0"/>
      <psa30 value="0.0007406553" flag="0"/>
    </comp>
  </station>
  <station code="THERA" name="THERA" netid="HL" insttype="120" commtype="DIG" lat="36.367" lon="25.4753">
    <comp name="--.HHE">
      <acc value="0.0519665826" flag="0"/>
      <vel value="0.0095416836" flag="0"/>
      <psa03 value="0.0688988936" flag="0"/>
      <psa10 value="0.0070580063" flag="0"/>
      <psa30 value="0.0012037726" flag="0"/>
    </comp>
    <comp name="--.HHN">
      <acc value="0.0903063439" flag="0"/>
      <vel value="0.0199408740" flag="0"/>
      <psa03 value="0.0855412197" flag="0"/>
      <psa10 value="0.0074939830" flag="0"/>
      <psa30 value="0.0010638846" flag="0"/>
    </comp>
    <comp name="--.HHZ">
      <acc value="0.0627335594" flag="0"/>
      <vel value="0.0180357050" flag="0"/>
      <psa03 value="0.0449557764" flag="0"/>
      <psa10 value="0.0035705434" flag="0"/>
      <psa30 value="0.0010691542" flag="0"/>
    </comp>
  </station>
  <station code="THRA" name="THRA" netid="HL" insttype="CMG-5" commtype="DIG" lat="36.415" lon="25.4324">
    <comp name="00.HNN">
      <acc value="0.1300817966" flag="0"/>
      <vel value="0.0533710805" flag="0"/>
      <psa03 value="0.2964877037" flag="0"/>
      <psa10 value="0.0471845786" flag="0"/>
      <psa30 value="0.0047075903" flag="0"/>
    </comp>
    <comp name="00.HNZ">
      <acc value="0.1081753135" flag="0"/>
      <vel value="0.0323820867" flag="0"/>
      <psa03 value="0.2100084001" flag="0"/>
      <psa10 value="0.0137545771" flag="0"/>
      <psa30 value="0.0018396122" flag="0"/>
    </comp>
    <comp name="00.HNE">
      <acc value="0.1246565460" flag="0"/>
      <vel value="0.0604858839" flag="0"/>
      <psa03 value="0.2826869175" flag="0"/>
      <psa10 value="0.0314422081" flag="0"/>
      <psa30 value="0.0041830694" flag="0"/>
    </comp>
  </station>
  <station code="TNSA" name="TNSA" netid="HL" insttype="CMG-5" commtype="DIG" lat="37.5394" lon="25.1631">
    <comp name="00.HNE">
      <acc value="0.0439865849" flag="0"/>
      <vel value="0.0136511582" flag="0"/>
      <psa03 value="0.0650879981" flag="0"/>
      <psa10 value="0.0087448516" flag="0"/>
      <psa30 value="0.0003882309" flag="0"/>
    </comp>
    <comp name="00.HNN">
      <acc value="0.0471364065" flag="0"/>
      <vel value="0.0148591684" flag="0"/>
      <psa03 value="0.0442539950" flag="0"/>
      <psa10 value="0.0082885994" flag="0"/>
      <psa30 value="0.0006826675" flag="0"/>
    </comp>
    <comp name="00.HNZ">
      <acc value="0.0325597962" flag="0"/>
      <vel value="0.0131485072" flag="0"/>
      <psa03 value="0.0620587323" flag="0"/>
      <psa10 value="0.0115244896" flag="0"/>
      <psa30 value="0.0011075844" flag="0"/>
    </comp>
  </station>
  <station code="AKRO" name="AKRO" netid="HT" insttype="Compact," commtype="DIG" lat="36.3584" lon="25.3967">
    <comp name="--.HHE">
      <acc value="0.2574330447" flag="0"/>
      <vel value="0.0635164619" flag="0"/>
      <psa03 value="0.3028441965" flag="0"/>
      <psa10 value="0.0183624030" flag="0"/>
      <psa30 value="0.0014591915" flag="0"/>
    </comp>
    <comp name="--.HHN">
      <acc value="0.1621610091" flag="0"/>
      <vel value="0.0389346173" flag="0"/>
      <psa03 value="0.2214781149" flag="0"/>
      <psa10 value="0.0156000664" flag="0"/>
      <psa30 value="0.0025092635" flag="0"/>
    </comp>
    <comp name="--.HHZ">
      <acc value="0.1282615274" flag="0"/>
      <vel value="0.0282167060" flag="0"/>
      <psa03 value="0.1124341932" flag="0"/>
      <psa10 value="0.0067979563" flag="0"/>
      <psa30 value="0.0009492897" flag="0"/>
    </comp>
  </station>
  <station code="ANYD" name="ANYD" netid="HT" insttype="120" commtype="DIG" lat="36.63" lon="25.6779">
    <comp name="--.HHE">
      <acc value="0.5474843716" flag="0"/>
      <vel value="0.2350383964" flag="0"/>
      <psa03 value="1.7068765216" flag="0"/>
      <psa10 value="0.0620790142" flag="0"/>
      <psa30 value="0.0078271681" flag="0"/>
    </comp>
    <comp name="--.HHN">
      <acc value="0.3726182905" flag="0"/>
      <vel value="0.1213613188" flag="0"/>
      <psa03 value="1.0194402038" flag="0"/>
      <psa10 value="0.0584399365" flag="0"/>
      <psa30 value="0.0110380947" flag="0"/>
    </comp>
    <comp name="--.HHZ">
      <acc value="0.3416157754" flag="0"/>
      <vel value="0.0854265298" flag="0"/>
      <psa03 value="0.3391868442" flag="0"/>
      <psa10 value="0.0382897245" flag="0"/>
      <psa30 value="0.0037248957" flag="0"/>
    </comp>
  </station>
  <station code="CHRI" name="CHRI" netid="HT" insttype="120s," commtype="DIG" lat="36.2491" lon="25.2076">
    <comp name="--.HHN">
      <acc value="0.0288459566" flag="0"/>
      <vel value="0.0119091667" flag="0"/>
      <psa03 value="0.0587411236" flag="0"/>
      <psa10 value="0.0053949710" flag="0"/>
      <psa30 value="0.0006286472" flag="0"/>
    </comp>
    <comp name="--.HHE">
