<?xml version="1.0" encoding="UTF-8" standalone="yes"?>
<!DOCTYPE earthquake SYSTEM "stationlist.dtd">
<stationlist created="" xmlns="ch.ethz.sed.shakemap.usgs.xml">
  <station code="GVD" name="GVD" netid="GE" insttype="STS-2/N" lat="34.8391" lon="24.0874">
    <comp name="--.HHE">
      <acc value="0.0184375474" flag="0"/>
      <vel value="0.0078023656" flag="0"/>
      <psa03 value="0.0463533429" flag="0"/>
      <psa10 value="0.0096270950" flag="0"/>
      <psa30 value="0.0005155712" flag="0"/>
    </comp>
    <comp name="--.HHN">
      <acc value="0.0157443826" flag="0"/>
      <vel value="0.0071798444" flag="0"/>
      <psa03 value="0.0670210713" flag="0"/>
      <psa10 value="0.0068037799" flag="0"/>
      <psa30 value="0.0010731216" flag="0"/>
    </comp>
    <comp name="--.HHZ">
      <acc value="0.0095192239" flag="0"/>
      <vel value="0.0039815088" flag="0"/>
      <psa03 value="0.0244402423" flag="0"/>
      <psa10 value="0.0035455110" flag="0"/>
      <psa30 value="0.0002835718" flag="0"/>
    </comp>
  </station>
  <station code="IMMV" name="IMMV" netid="GE" insttype="STS-2/N" lat="35.4606" lon="23.9811">
    <comp name="--.HHE">
      <acc value="0.0256981065" flag="0"/>
      <vel value="0.0166076326" flag="0"/>
      <psa03 value="0.0878731590" flag="0"/>
      <psa10 value="0.0251632464" flag="0"/>
      <psa30 value="0.0013789681" flag="0"/>
    </comp>
    <comp name="--.HHN">
      <acc value="0.0231496578" flag="0"/>
      <vel value="0.0145309308" flag="0"/>
      <psa03 value="0.0460551616" flag="0"/>
      <psa10 value="0.0197978754" flag="0"/>
      <psa30 value="0.0011365786" flag="0"/>
    </comp>
    <comp name="--.HHZ">
      <acc value="0.0251412505" flag="0"/>
      <vel value="0.0109008594" flag="0"/>
      <psa03 value="0.0746620495" flag="0"/>
      <psa10 value="0.0117175556" flag="0"/>
      <psa30 value="0.0007368521" flag="0"/>
    </comp>
  </station>
  <station code="ZKR" name="ZKR" netid="GE" insttype="STS-2/N" lat="35.1147" lon="26.2169">
    <comp name="--.HHE">
      <acc value="0.0439148207" flag="0"/>
      <vel value="0.0276597842" flag="0"/>
      <psa03 value="0.0890610203" flag="0"/>
      <psa10 value="0.0377936192" flag="0"/>
      <psa30 value="0.0015132207" flag="0"/>
    </comp>
    <comp name="--.HHZ">
      <acc value="0.0378800671" flag="0"/>
      <vel value="0.0159799149" flag="0"/>
      <psa03 value="0.0881809415" flag="0"/>
      <psa10 value="0.0216411527" flag="0"/>
      <psa30 value="0.0009619688" flag="0"/>
    </comp>
    <comp name="--.HHN">
      <acc value="0.0305663231" flag="0"/>
      <vel value="0.0158080125" flag="0"/>
      <psa03 value="0.1130577693" flag="0"/>
      <psa10 value="0.0117116053" flag="0"/>
      <psa30 value="0.0005876754" flag="0"/>
    </comp>
  </station>
  <station code="GVDS" name="GVDS" netid="HC" insttype="60" lat="34.8389" lon="24.0585">
    <comp name="--.HHN">
      <acc value="0.0175272893" flag="0"/>
      <vel value="0.0059056880" flag="0"/>
      <psa03 value="0.0443117533" flag="0"/>
      <psa10 value="0.0064883955" flag="0"/>
      <psa30 value="0.0008257510" flag="0"/>
    </comp>
    <comp name="--.HHE">
      <acc value="0.0134287310" flag="0"/>
      <vel value="0.0056108876" flag="0"/>
      <psa03 value="0.0352833202" flag="0"/>
      <psa10 value="0.0049378924" flag="0"/>
      <psa30 value="0.0005051944" flag="0"/>
    </comp>
    <comp name="--.HHZ">
      <acc value="0.0094197191" flag="0"/>
      <vel value="0.0030288371" flag="0"/>
      <psa03 value="0.0186108022" flag="0"/>
      <psa10 value="0.0043523061" flag="0"/>
      <psa30 value="0.0004342711" flag="0"/>
    </comp>
  </station>
  <station code="IMOD" name="IMOD" netid="HC" insttype="120" lat="34.9731" lon="24.7995">
    <comp name="--.HHE">
      <acc value="0.1149827299" flag="0"/>
      <vel value="0.0648588454" flag="0"/>
      <psa03 value="0.4330323308" flag="0"/>
      <psa10 value="0.0465462423" flag="0"/>
      <psa30 value="0.0028149712" flag="0"/>
    </comp>
    <comp name="--.HHN">
      <acc value="0.1462004634" flag="0"/>
      <vel value="0.0756556770" flag="0"/>
      <psa03 value="0.5614822572" flag="0"/>
      <psa10 value="0.0691480439" flag="0"/>
      <psa30 value="0.0037461526" flag="0"/>
    </comp>
    <comp name="--.HHZ">
      <acc value="0.0977057704" flag="0"/>
      <vel value="0.0450627820" flag="0"/>
      <psa03 value="0.2290040398" flag="0"/>
      <psa10 value="0.0222035129" flag="0"/>
      <psa30 value="0.0015024575" flag="0"/>
    </comp>
  </station>
  <station code="KNSS" name="KNSS" netid="HC" insttype="60" lat="35.3042" lon="25.1802">
    <comp name="--.HHN">
      <acc value="0.0000000000" flag="0"/>
      <vel value="-100.0000000000" flag="0"/>
      <psa03 value="0.0000000000" flag="0"/>
      <psa10 value="0.0000000000" flag="0"/>
      <psa30 value="0.0000000000" flag="0"/>
    </comp>
    <comp name="--.HHE">
      <acc value="1.1309416800" flag="0"/>
      <vel value="0.4397052176" flag="0"/>
      <psa03 value="1.7066850481" flag="0"/>
      <psa10 value="0.1446615941" flag="0"/>
      <psa30 value="0.0139301899" flag="0"/>
    </comp>
    <comp name="--.HHZ">
      <acc value="0.7365041952" flag="0"/>
      <vel value="0.2108309904" flag="0"/>
      <psa03 value="0.9587934163" flag="0"/>
      <psa10 value="0.1106101698" flag="0"/>
      <psa30 value="0.0104313249" flag="0"/>
    </comp>
  </station>
  <station code="PFKS" name="PFKS" netid="HC" insttype="120" lat="35.0429" lon="25.4733">
    <comp name="--.HHZ">
      <acc value="0.8080187233" flag="0"/>
      <vel value="0.1945300166" flag="0"/>
      <psa03 value="0.7524347602" flag="0"/>
      <psa10 value="0.0896053515" flag="0"/>
      <psa30 value="0.0060510519" flag="0"/>
    </comp>
    <comp name="--.HHE">
      <acc value="2.0126467053" flag="0"/>
      <vel value="0.4008508623" flag="0"/>
      <psa03 value="2.1509972597" flag="0"/>
      <psa10 value="0.1416748029" flag="0"/>
      <psa30 value="0.0111111634" flag="0"/>
    </comp>
    <comp name="--.HHN">
      <acc value="2.0501662308" flag="0"/>
      <vel value="0.5277638214" flag="0"/>
      <psa03 value="1.9121441905" flag="0"/>
      <psa10 value="0.1870644710" flag="0"/>
      <psa30 value="0.0128706712" flag="0"/>
    </comp>
  </station>
  <station code="STIA" name="STIA" netid="HC" insttype="120" lat="35.2021" lon="26.0909">
    <comp name="--.HHE">
      <acc value="0.0951505455" flag="0"/>
      <vel value="0.0370952600" flag="0"/>
      <psa03 value="0.1271574384" flag="0"/>
      <psa10 value="0.0275698490" flag="0"/>
      <psa30 value="0.0017289342" flag="0"/>
    </comp>
    <comp name="--.HHN">
      <acc value="0.0754219067" flag="0"/>
      <vel value="0.0317335196" flag="0"/>
      <psa03 value="0.0891080075" flag="0"/>
      <psa10 value="0.0217589316" flag="0"/>
      <psa30 value="0.0015826119" flag="0"/>
    </comp>
    <comp name="--.HHZ">
      <acc value="0.0821823484" flag="0"/>
      <vel value="0.0228664180" flag="0"/>
      <psa03 value="0.1320787615" flag="0"/>
      <psa10 value="0.0155399005" flag="0"/>
      <psa30 value="0.0012214939" flag="0"/>
    </comp>
  </station>
  <station code="SIT2" name="SIT2" netid="HI" insttype="CMG-5TD,ACCELEROMETER,GURALP" lat="35.2059" lon="26.107">
    <comp name="--.HNN">
      <acc value="0.1265119731" flag="0"/>
      <vel value="0.0861977771" flag="0"/>
      <psa03 value="0.5195857036" flag="0"/>
      <psa10 value="0.0447632724" flag="0"/>
      <psa30 value="0.0030282723" flag="0"/>
    </comp>
    <comp name="--.HNE">
      <acc value="0.1130526457" flag="0"/>
      <vel value="0.0640897277" flag="0"/>
      <psa03 value="0.4027733893" flag="0"/>
      <psa10 value="0.0377400495" flag="0"/>
      <psa30 value="0.0030244930" flag="0"/>
    </comp>
    <comp name="--.HNZ">
      <acc value="0.0913956012" flag="0"/>
      <vel value="0.0380698356" flag="0"/>
      <psa03 value="0.2795736079" flag="0"/>
      <psa10 value="0.0182375121" flag="0"/>
      <psa30 value="0.0014388073" flag="0"/>
    </comp>
  </station>
  <station code="GVD" name="GVD" netid="HL" insttype="120" lat="34.8391" lon="24.0874">
    <comp name="--.HHE">
      <acc value="0.0179438922" flag="0"/>
      <vel value="0.0075819297" flag="0"/>
      <psa03 value="0.0449863072" flag="0"/>
      <psa10 value="0.0095418236" flag="0"/>
      <psa30 value="0.0005123429" flag="0"/>
    </comp>
    <comp name="--.HHN">
      <acc value="0.0153838357" flag="0"/>
      <vel value="0.0070350053" flag="0"/>
      <psa03 value="0.0650439972" flag="0"/>
      <psa10 value="0.0067396654" flag="0"/>
      <psa30 value="0.0010718410" flag="0"/>
    </comp>
    <comp name="--.HHZ">
      <acc value="0.0093501683" flag="0"/>
      <vel value="0.0038915774" flag="0"/>
      <psa03 value="0.0237287239" flag="0"/>
      <psa10 value="0.0035133180" flag="0"/>
      <psa30 value="0.0002834727" flag="0"/>
    </comp>
  </station>
  <station code="IACM" name="IACM" netid="HL" insttype="120" lat="35.3058" lon="25.0709">
    <comp name="--.HHE">
      <acc value="0.9659353803" flag="0"/>
      <vel value="0.6045959360" flag="0"/>
      <psa03 value="1.9292741797" flag="0"/>
      <psa10 value="0.7089318501" flag="0"/>
      <psa30 value="0.0330183157" flag="0"/>
    </comp>
    <comp name="--.HHZ">
      <acc value="0.7883805369" flag="0"/>
      <vel value="0.2536357960" flag="0"/>
      <psa03 value="0.9982346283" flag="0"/>
      <psa10 value="0.2396522745" flag="0"/>
      <psa30 value="0.0114808333" flag="0"/>
    </comp>
    <comp name="--.HHN">
      <acc value="1.0282180071" flag="0"/>
      <vel value="0.6710209165" flag="0"/>
      <psa03 value="2.1688784421" flag="0"/>
      <psa10 value="0.6478801929" flag="0"/>
      <psa30 value="0.0513697805" flag="0"/>
    </comp>
  </station>
  <station code="IDI" name="IDI" netid="HL" insttype="120" lat="35.288" lon="24.89">
    <comp name="--.HHN">
      <acc value="0.2878908500" flag="0"/>
      <vel value="0.0450911429" flag="0"/>
      <psa03 value="0.1692848290" flag="0"/>
      <psa10 value="0.0369367998" flag="0"/>
      <psa30 value="0.0027067657" flag="0"/>
    </comp>
    <comp name="--.HHZ">
      <acc value="0.1771520480" flag="0"/>
      <vel value="0.0471808853" flag="0"/>
      <psa03 value="0.1396991728" flag="0"/>
      <psa10 value="0.0447879062" flag="0"/>
      <psa30 value="0.0033687646" flag="0"/>
    </comp>
    <comp name="--.HHE">
      <acc value="0.3029635711" flag="0"/>
      <vel value="0.0628585790" flag="0"/>
      <psa03 value="0.1440638235" flag="0"/>
      <psa10 value="0.0467352258" flag="0"/>
      <psa30 value="0.0039838343" flag="0"/>
    </comp>
  </station>
  <station code="IMMV" name="IMMV" netid="HL" insttype="120" lat="35.4606" lon="23.9811">
    <comp name="--.HHN">
      <acc value="0.0227428636" flag="0"/>
      <vel value="0.0143164879" flag="0"/>
      <psa03 value="0.0447430498" flag="0"/>
      <psa10 value="0.0196924566" flag="0"/>
      <psa30 value="0.0011350778" flag="0"/>
    </comp>
    <comp name="--.HHE">
      <acc value="0.0251495392" flag="0"/>
      <vel value="0.0162815275" flag="0"/>
      <psa03 value="0.0853230155" flag="0"/>
      <psa10 value="0.0250057163" flag="0"/>
      <psa30 value="0.0013724274" flag="0"/>
    </comp>
    <comp name="--.HHZ">
      <acc value="0.0245136581" flag="0"/>
      <vel value="0.0106099490" flag="0"/>
      <psa03 value="0.0724816808" flag="0"/>
      <psa10 value="0.0116440068" flag="0"/>
      <psa30 value="0.0007340386" flag="0"/>
    </comp>
  </station>
  <station code="NPS" name="NPS" netid="HL" insttype="CMG3ESPC-120s" lat="35.2613" lon="25.6104">
    <comp name="--.HHE">
      <acc value="0.2227034694" flag="0"/>
      <vel value="0.0664300942" flag="0"/>
      <psa03 value="0.3311978356" flag="0"/>
      <psa10 value="0.0250838597" flag="0"/>
      <psa30 value="0.0013708946" flag="0"/>
    </comp>
    <comp name="--.HHN">
      <acc value="0.6495702605" flag="0"/>
      <vel value="0.1894900061" flag="0"/>
      <psa03 value="0.9339742753" flag="0"/>
      <psa10 value="0.0650627908" flag="0"/>
      <psa30 value="0.0041233921" flag="0"/>
    </comp>
    <comp name="--.HHZ">
      <acc value="0.4132382784" flag="0"/>
      <vel value="0.1270090806" flag="0"/>
      <psa03 value="0.4226634321" flag="0"/>
      <psa10 value="0.0633874631" flag="0"/>
      <psa30 value="0.0050664442" flag="0"/>
    </comp>
  </station>
  <station code="SIVA" name="SIVA" netid="HL" insttype="60" lat="35.0178" lon="24.812">
    <comp name="--.HHE">
      <acc value="0.3852378689" flag="0"/>
      <vel value="0.1545872838" flag="0"/>
      <psa03 value="0.8028550547" flag="0"/>
      <psa10 value="0.0734446985" flag="0"/>
      <psa30 value="0.0045176191" flag="0"/>
    </comp>
    <comp name="--.HHZ">
      <acc value="0.2139376502" flag="0"/>
      <vel value="0.1012605884" flag="0"/>
      <psa03 value="0.6911580558" flag="0"/>
      <psa10 value="0.0340394899" flag="0"/>
      <psa30 value="0.0025730566" flag="0"/>
    </comp>
    <comp name="--.HHN">
      <acc value="0.4201811546" flag="0"/>
      <vel value="0.2052644979" flag="0"/>
      <psa03 value="1.2857009953" flag="0"/>
      <psa10 value="0.0672274963" flag="0"/>
      <psa30 value="0.0057010358" flag="0"/>
    </comp>
  </station>
  <station code="VAM" name="VAM" netid="HL" insttype="CMG3ESPC-120s" lat="35.407" lon="24.1997">
    <comp name="--.HHE">
      <acc value="0.0577481201" flag="0"/>
      <vel value="0.0176467385" flag="0"/>
      <psa03 value="0.0860307058" flag="0"/>
      <psa10 value="0.0108215515" flag="0"/>
      <psa30 value="0.0008943654" flag="0"/>
    </comp>
    <comp name="--.HHN">
      <acc value="0.0618574056" flag="0"/>
      <vel value="0.0214185886" flag="0"/>
      <psa03 value="0.0917444140" flag="0"/>
      <psa10 value="0.0170425020" flag="0"/>
      <psa30 value="0.0017420657" flag="0"/>
    </comp>
    <comp name="--.HHZ">
      <acc value="0.0391807913" flag="0"/>
      <vel value="0.0128350043" flag="0"/>
      <psa03 value="0.0671597189" flag="0"/>
      <psa10 value="0.0072551163" flag="0"/>
      <psa30 value="0.0010092012" flag="0"/>
    </comp>
  </station>
  <station code="ZKR" name="ZKR" netid="HL" insttype="120" lat="35.1147" lon="26.2169">
    <comp name="--.HHE">
      <acc value="0.0428650660" flag="0"/>
      <vel value="0.0271632642" flag="0"/>
      <psa03 value="0.0866929612" flag="0"/>
      <psa10 value="0.0375653083" flag="0"/>
      <psa30 value="0.0014978098" flag="0"/>
    </comp>
    <comp name="--.HHN">
      <acc value="0.0297949885" flag="0"/>
      <vel value="0.0154497231" flag="0"/>
      <psa03 value="0.1100790596" flag="0"/>
      <psa10 value="0.0115962851" flag="0"/>
      <psa30 value="0.0005793357" flag="0"/>
    </comp>
    <comp name="--.HHZ">
      <acc value="0.0369513002" flag="0"/>
      <vel value="0.0154683480" flag="0"/>
      <psa03 value="0.0858079512" flag="0"/>
      <psa10 value="0.0215134981" flag="0"/>
      <psa30 value="0.0009599278" flag="0"/>
    </comp>
  </station>
  <station code="IDI" name="IDI" netid="MN" insttype="" lat="35.288" lon="24.89">
    <comp name="--.HHE">
      <acc value="0.3143792510" flag="0"/>
      <vel value="0.0690455847" flag="0"/>
      <psa03 value="0.1458320307" flag="0"/>
      <psa10 value="0.0464992538" flag="0"/>
      <psa30 value="0.0039515416" flag="0"/>
    </comp>
    <comp name="--.HHN">
      <acc value="0.3547628663" flag="0"/>
      <vel value="0.0479877437" flag="0"/>
      <psa03 value="0.1720282861" flag="0"/>
      <psa10 value="0.0366340354" flag="0"/>
      <psa30 value="0.0026867223" flag="0"/>
    </comp>
    <comp name="--.HHZ">
      <acc value="0.2162634279" flag="0"/>
      <vel value="0.0471594844" flag="0"/>
      <psa03 value="0.1426223448" flag="0"/>
      <psa10 value="0.0444693431" flag="0"/>
      <psa30 value="0.0033406978" flag="0"/>
    </comp>
  </station>
</stationlist>
