<?xml version="1.0" encoding="UTF-8" standalone="yes"?>
<!DOCTYPE earthquake SYSTEM "stationlist.dtd">
<stationlist created="" xmlns="ch.ethz.sed.shakemap.usgs.xml">
  <station code="GAZ" name="GAZ" netid="KO" insttype="CMG-3T" lat="37.1721" lon="37.2096">
    <comp name="--.HHE">
      <acc value="0.1485586603" flag="0"/>
      <vel value="0.0653738792" flag="0"/>
      <psa03 value="0.2269455610" flag="0"/>
      <psa10 value="0.0440701778" flag="0"/>
      <psa30 value="0.0051242299" flag="0"/>
    </comp>
    <comp name="--.HHZ">
      <acc value="0.0875856049" flag="0"/>
      <vel value="0.0419544079" flag="0"/>
      <psa03 value="0.2663451509" flag="0"/>
      <psa10 value="0.0372496300" flag="0"/>
      <psa30 value="0.0030456850" flag="0"/>
    </comp>
    <comp name="--.HHN">
      <acc value="0.1357689165" flag="0"/>
      <vel value="0.0582416037" flag="0"/>
      <psa03 value="0.1996621657" flag="0"/>
      <psa10 value="0.0605026470" flag="0"/>
      <psa30 value="0.0034068671" flag="0"/>
    </comp>
  </station>
</stationlist>
