<stationlist created="1675692173">
	<station code="ARPRA" name="ARPRA" netid="KO" source="Bogazici University Kandilli Observatory And Earthquake Research Institute (KOERI)" insttype="" lat="39.0929" lon="38.3356">
		<comp name=".HNE" depth="0.0">
			<acc value="0.0227903822772" flag="0"/>
			<vel value="0.00591492348486" flag="0"/>
			<psa03 value="0.0313901054821" flag="0"/>
			<psa10 value="0.00731456189759" flag="0"/>
			<psa30 value="0.000609055711536" flag="0"/>
		</comp>
		<comp name=".HNN" depth="0.0">
			<acc value="0.0191127907316" flag="0"/>
			<vel value="0.00443338672143" flag="0"/>
			<psa03 value="0.0363438503101" flag="0"/>
			<psa10 value="0.0040280359001" flag="0"/>
			<psa30 value="0.000416045503681" flag="0"/>
		</comp>
		<comp name=".HNZ" depth="0.0">
			<acc value="0.0245890672722" flag="0"/>
			<vel value="0.0031739950462" flag="0"/>
			<psa03 value="0.0111648385741" flag="0"/>
			<psa10 value="0.00244194684512" flag="0"/>
			<psa30 value="0.000293263255377" flag="0"/>
		</comp>
	</station>
</stationlist>
