<?xml version="1.0" encoding="UTF-8" standalone="yes"?>
<!DOCTYPE earthquake SYSTEM "stationlist.dtd">
<stationlist created="" xmlns="ch.ethz.sed.shakemap.usgs.xml">
  <station code="OJC" name="OJC" netid="PL" insttype="STS-2/N" lat="50.2195" lon="19.7984">
    <comp name="--.HHE">
      <acc value="0.0025429302" flag="0"/>
      <vel value="0.0018888403" flag="0"/>
      <psa03 value="0.0061500539" flag="0"/>
      <psa10 value="0.0018392929" flag="0"/>
      <psa30 value="0.0001926737" flag="0"/>
    </comp>
    <comp name="--.HHZ">
      <acc value="0.0022037940" flag="0"/>
      <vel value="0.0012290015" flag="0"/>
      <psa03 value="0.0065385872" flag="0"/>
      <psa10 value="0.0016100301" flag="0"/>
      <psa30 value="0.0002062288" flag="0"/>
    </comp>
    <comp name="--.HHN">
      <acc value="0.0026494988" flag="0"/>
      <vel value="0.0009935573" flag="0"/>
      <psa03 value="0.0038772404" flag="0"/>
      <psa10 value="0.0016579723" flag="0"/>
      <psa30 value="0.0001529956" flag="0"/>
    </comp>
  </station>
</stationlist>
