<?xml version="1.0" encoding="UTF-8" standalone="yes"?>
<!DOCTYPE earthquake SYSTEM "stationlist.dtd">
<stationlist created="" xmlns="ch.ethz.sed.shakemap.usgs.xml">
  <station code="APE" name="APE" netid="GE" insttype="STS-2/N" lat="37.0727" lon="25.523">
    <comp name="--.HHZ">
      <acc value="0.0317646527" flag="0"/>
      <vel value="0.0112343171" flag="0"/>
      <psa03 value="0.0897671060" flag="0"/>
      <psa10 value="0.0034125003" flag="0"/>
      <psa30 value="0.0007622183" flag="0"/>
    </comp>
    <comp name="--.HHN">
      <acc value="0.0781635226" flag="0"/>
      <vel value="0.0218919918" flag="0"/>
      <psa03 value="0.1056781920" flag="0"/>
      <psa10 value="0.0089851449" flag="0"/>
      <psa30 value="0.0010505286" flag="0"/>
    </comp>
    <comp name="--.HHE">
      <acc value="0.0761167510" flag="0"/>
      <vel value="0.0156704698" flag="0"/>
      <psa03 value="0.1127777825" flag="0"/>
      <psa10 value="0.0055950687" flag="0"/>
      <psa30 value="0.0006239600" flag="0"/>
    </comp>
  </station>
  <station code="THERA" name="THERA" netid="GE" insttype="STS-2/N" lat="36.367" lon="25.4753">
    <comp name="--.HHN">
      <acc value="0.0303550378" flag="0"/>
      <vel value="0.0062342478" flag="0"/>
      <psa03 value="0.0316265482" flag="0"/>
      <psa10 value="0.0039978425" flag="0"/>
      <psa30 value="0.0004709548" flag="0"/>
    </comp>
    <comp name="--.HHE">
      <acc value="0.0528530351" flag="0"/>
      <vel value="0.0137265340" flag="0"/>
      <psa03 value="0.0674652927" flag="0"/>
      <psa10 value="0.0072295454" flag="0"/>
      <psa30 value="0.0008602780" flag="0"/>
    </comp>
    <comp name="--.HHZ">
      <acc value="0.0354901027" flag="0"/>
      <vel value="0.0091631587" flag="0"/>
      <psa03 value="0.0566607476" flag="0"/>
      <psa10 value="0.0043096093" flag="0"/>
      <psa30 value="0.0005091469" flag="0"/>
    </comp>
  </station>
  <station code="NAX1" name="NAX1" netid="HI" insttype="CMG-5TD,ACCELEROMETER,GURALP" lat="37.1014" lon="25.3741">
    <comp name="--.HNZ">
      <acc value="0.0371973150" flag="0"/>
      <vel value="0.0052676541" flag="0"/>
      <psa03 value="0.0188390066" flag="0"/>
      <psa10 value="0.0024384891" flag="0"/>
      <psa30 value="0.0003672893" flag="0"/>
    </comp>
    <comp name="--.HNN">
      <acc value="0.0554163089" flag="0"/>
      <vel value="0.0099239003" flag="0"/>
      <psa03 value="0.0307996716" flag="0"/>
      <psa10 value="0.0020343676" flag="0"/>
      <psa30 value="0.0003596130" flag="0"/>
    </comp>
    <comp name="--.HNE">
      <acc value="0.0546169276" flag="0"/>
      <vel value="0.0089340029" flag="0"/>
      <psa03 value="0.0566678767" flag="0"/>
      <psa10 value="0.0026166301" flag="0"/>
      <psa30 value="0.0003451803" flag="0"/>
    </comp>
  </station>
  <station code="AMGA" name="AMGA" netid="HL" insttype="SMART24" lat="36.8316" lon="25.8938">
    <comp name="--.HHZ">
      <acc value="0.2409429852" flag="0"/>
      <vel value="0.0504679192" flag="0"/>
      <psa03 value="0.1745267252" flag="0"/>
      <psa10 value="0.0196500585" flag="0"/>
      <psa30 value="0.0013785448" flag="0"/>
    </comp>
    <comp name="--.HHN">
      <acc value="0.5293630991" flag="0"/>
      <vel value="0.1137068425" flag="0"/>
      <psa03 value="0.2412130176" flag="0"/>
      <psa10 value="0.0336742704" flag="0"/>
      <psa30 value="0.0024994838" flag="0"/>
    </comp>
    <comp name="--.HHE">
      <acc value="0.7431565202" flag="0"/>
      <vel value="0.1196840965" flag="0"/>
      <psa03 value="0.2014182538" flag="0"/>
      <psa10 value="0.0346362569" flag="0"/>
      <psa30 value="0.0027721213" flag="0"/>
    </comp>
  </station>
</stationlist>
