<?xml version="1.0" encoding="UTF-8" standalone="yes"?>
<!DOCTYPE earthquake SYSTEM "stationlist.dtd">
<stationlist created="" xmlns="ch.ethz.sed.shakemap.usgs.xml">
  <station code="BNN" name="BNN" netid="KO" insttype="CMG-3T" lat="38.8521" lon="35.8472">
    <comp name="--.HHZ">
      <acc value="0.0055958203" flag="0"/>
      <vel value="0.0060719663" flag="0"/>
      <psa03 value="0.0125413496" flag="0"/>
      <psa10 value="0.0082307737" flag="0"/>
      <psa30 value="0.0005586983" flag="0"/>
    </comp>
    <comp name="--.HHN">
      <acc value="0.0091845529" flag="0"/>
      <vel value="0.0054568242" flag="0"/>
      <psa03 value="0.0252719458" flag="0"/>
      <psa10 value="0.0079839174" flag="0"/>
      <psa30 value="0.0013022614" flag="0"/>
    </comp>
  </station>
  <station code="CEYT" name="CEYT" netid="KO" insttype="CMG-3ESP" lat="37.0105" lon="35.7478">
    <comp name="--.HHE">
      <acc value="0.0024789934" flag="0"/>
      <vel value="0.0016566035" flag="0"/>
      <psa03 value="0.0056941519" flag="0"/>
      <psa10 value="0.0021022593" flag="0"/>
      <psa30 value="0.0003440027" flag="0"/>
    </comp>
    <comp name="--.HHZ">
      <acc value="0.0015937536" flag="0"/>
      <vel value="0.0013672151" flag="0"/>
      <psa03 value="0.0041376284" flag="0"/>
      <psa10 value="0.0017245318" flag="0"/>
      <psa30 value="0.0005927952" flag="0"/>
    </comp>
    <comp name="--.HHN">
      <acc value="0.0019457444" flag="0"/>
      <vel value="0.0014870393" flag="0"/>
      <psa03 value="0.0043376307" flag="0"/>
      <psa10 value="0.0027136411" flag="0"/>
      <psa30 value="0.0007251599" flag="0"/>
    </comp>
  </station>
  <station code="GAZ" name="GAZ" netid="KO" insttype="CMG-3T" lat="37.1721" lon="37.2096">
    <comp name="--.HHZ">
      <acc value="0.0146421529" flag="0"/>
      <vel value="0.0078159541" flag="0"/>
      <psa03 value="0.0464330078" flag="0"/>
      <psa10 value="0.0038619792" flag="0"/>
      <psa30 value="0.0009614727" flag="0"/>
    </comp>
    <comp name="--.HHE">
      <acc value="0.0218132604" flag="0"/>
      <vel value="0.0111162603" flag="0"/>
      <psa03 value="0.0417158599" flag="0"/>
      <psa10 value="0.0090483934" flag="0"/>
      <psa30 value="0.0009507031" flag="0"/>
    </comp>
    <comp name="--.HHN">
      <acc value="0.0174210595" flag="0"/>
      <vel value="0.0107052197" flag="0"/>
      <psa03 value="0.0698038049" flag="0"/>
      <psa10 value="0.0081801717" flag="0"/>
      <psa30 value="0.0011297212" flag="0"/>
    </comp>
  </station>
  <station code="KMRS" name="KMRS" netid="KO" insttype="CMG-3T" lat="37.5053" lon="36.9">
    <comp name="--.HHE">
      <acc value="0.0103702151" flag="0"/>
      <vel value="0.0078429942" flag="0"/>
      <psa03 value="0.0263812497" flag="0"/>
      <psa10 value="0.0086344120" flag="0"/>
      <psa30 value="0.0025952588" flag="0"/>
    </comp>
    <comp name="--.HHZ">
      <acc value="0.0082012412" flag="0"/>
      <vel value="0.0035299846" flag="0"/>
      <psa03 value="0.0146743943" flag="0"/>
      <psa10 value="0.0036604365" flag="0"/>
      <psa30 value="0.0018030331" flag="0"/>
    </comp>
  </station>
  <station code="ANDN" name="ANDN" netid="TU" insttype="T" lat="37.58" lon="36.3452">
    <comp name="--.HHN">
      <acc value="0.2179831296" flag="0"/>
      <vel value="0.0497301390" flag="0"/>
      <psa03 value="0.2279623593" flag="0"/>
      <psa10 value="0.0367788992" flag="0"/>
      <psa30 value="0.0082761322" flag="0"/>
    </comp>
    <comp name="--.HHZ">
      <acc value="0.0693507506" flag="0"/>
      <vel value="0.0361302969" flag="0"/>
      <psa03 value="0.1637058274" flag="0"/>
      <psa10 value="0.0377891577" flag="0"/>
      <psa30 value="0.0049450278" flag="0"/>
    </comp>
    <comp name="--.HHE">
      <acc value="0.1475239455" flag="0"/>
      <vel value="0.0467066913" flag="0"/>
      <psa03 value="0.2464067966" flag="0"/>
      <psa10 value="0.0256755847" flag="0"/>
      <psa30 value="0.0029270518" flag="0"/>
    </comp>
  </station>
</stationlist>
