<?xml version="1.0" encoding="UTF-8" standalone="yes"?>
<!DOCTYPE earthquake SYSTEM "stationlist.dtd">
<stationlist created="" xmlns="ch.ethz.sed.shakemap.usgs.xml">
  <station code="BNN" name="BNN" netid="KO" insttype="CMG-3T" lat="38.8521" lon="35.8472">
    <comp name="--.HHN">
      <acc value="0.0091845532" flag="0"/>
      <vel value="0.0054568240" flag="0"/>
      <psa03 value="0.0252719458" flag="0"/>
      <psa10 value="0.0079839174" flag="0"/>
      <psa30 value="0.0013022563" flag="0"/>
    </comp>
    <comp name="--.HHZ">
      <acc value="0.0055958207" flag="0"/>
      <vel value="0.0060719662" flag="0"/>
      <psa03 value="0.0125413496" flag="0"/>
      <psa10 value="0.0082307737" flag="0"/>
      <psa30 value="0.0005586932" flag="0"/>
    </comp>
  </station>
  <station code="CEYT" name="CEYT" netid="KO" insttype="CMG-3ESP" lat="37.0105" lon="35.7478">
    <comp name="--.HHE">
      <acc value="0.0024789934" flag="0"/>
      <vel value="0.0016566025" flag="0"/>
      <psa03 value="0.0056941519" flag="0"/>
      <psa10 value="0.0021022593" flag="0"/>
      <psa30 value="0.0003440038" flag="0"/>
    </comp>
    <comp name="--.HHN">
      <acc value="0.0019457443" flag="0"/>
      <vel value="0.0014870398" flag="0"/>
      <psa03 value="0.0043376307" flag="0"/>
      <psa10 value="0.0027136411" flag="0"/>
      <psa30 value="0.0007251586" flag="0"/>
    </comp>
    <comp name="--.HHZ">
      <acc value="0.0015937536" flag="0"/>
      <vel value="0.0013672172" flag="0"/>
      <psa03 value="0.0041376284" flag="0"/>
      <psa10 value="0.0017245318" flag="0"/>
      <psa30 value="0.0005927981" flag="0"/>
    </comp>
  </station>
  <station code="GAZ" name="GAZ" netid="KO" insttype="CMG-3T" lat="37.1721" lon="37.2096">
    <comp name="--.HHE">
      <acc value="0.0218132604" flag="0"/>
      <vel value="0.0111162606" flag="0"/>
      <psa03 value="0.0417158599" flag="0"/>
      <psa10 value="0.0090483935" flag="0"/>
      <psa30 value="0.0009507306" flag="0"/>
    </comp>
    <comp name="--.HHN">
      <acc value="0.0174210594" flag="0"/>
      <vel value="0.0107052235" flag="0"/>
      <psa03 value="0.0698038049" flag="0"/>
      <psa10 value="0.0081801717" flag="0"/>
      <psa30 value="0.0011297087" flag="0"/>
    </comp>
    <comp name="--.HHZ">
      <acc value="0.0146421529" flag="0"/>
      <vel value="0.0078159541" flag="0"/>
      <psa03 value="0.0464330078" flag="0"/>
      <psa10 value="0.0038619792" flag="0"/>
      <psa30 value="0.0009614740" flag="0"/>
    </comp>
  </station>
  <station code="KMRS" name="KMRS" netid="KO" insttype="CMG-3T" lat="37.5053" lon="36.9">
    <comp name="--.HHE">
      <acc value="0.0103702151" flag="0"/>
      <vel value="0.0078429943" flag="0"/>
      <psa03 value="0.0263812497" flag="0"/>
      <psa10 value="0.0086344120" flag="0"/>
      <psa30 value="0.0025952575" flag="0"/>
    </comp>
    <comp name="--.HHZ">
      <acc value="0.0082012413" flag="0"/>
      <vel value="0.0035299844" flag="0"/>
      <psa03 value="0.0146743943" flag="0"/>
      <psa10 value="0.0036604365" flag="0"/>
      <psa30 value="0.0018030255" flag="0"/>
    </comp>
  </station>
  <station code="ANDN" name="ANDN" netid="TU" insttype="T" lat="37.58" lon="36.3452">
    <comp name="--.HHN">
      <acc value="0.2179831297" flag="0"/>
      <vel value="0.0497301381" flag="0"/>
      <psa03 value="0.2279623593" flag="0"/>
      <psa10 value="0.0367788992" flag="0"/>
      <psa30 value="0.0082760569" flag="0"/>
    </comp>
    <comp name="--.HHZ">
      <acc value="0.0693507506" flag="0"/>
      <vel value="0.0361302973" flag="0"/>
      <psa03 value="0.1637058274" flag="0"/>
      <psa10 value="0.0377891577" flag="0"/>
      <psa30 value="0.0049449838" flag="0"/>
    </comp>
    <comp name="--.HHE">
      <acc value="0.1475239453" flag="0"/>
      <vel value="0.0467066910" flag="0"/>
      <psa03 value="0.2464067966" flag="0"/>
      <psa10 value="0.0256755852" flag="0"/>
      <psa30 value="0.0029269953" flag="0"/>
    </comp>
  </station>
</stationlist>
