<?xml version="1.0" encoding="UTF-8" standalone="yes"?>
<!DOCTYPE earthquake SYSTEM "stationlist.dtd">
<stationlist created="" xmlns="ch.ethz.sed.shakemap.usgs.xml">
  <station code="BNN" name="BNN" netid="KO" insttype="CMG-3T" lat="38.8521" lon="35.8472">
    <comp name="--.HHN">
      <acc value="0.0091845532" flag="0"/>
      <vel value="0.0054568240" flag="0"/>
      <psa03 value="0.0252719458" flag="0"/>
      <psa10 value="0.0079839174" flag="0"/>
      <psa30 value="0.0013022563" flag="0"/>
    </comp>
    <comp name="--.HHZ">
      <acc value="0.0055958207" flag="0"/>
      <vel value="0.0060719662" flag="0"/>
      <psa03 value="0.0125413496" flag="0"/>
      <psa10 value="0.0082307737" flag="0"/>
      <psa30 value="0.0005586930" flag="0"/>
    </comp>
  </station>
  <station code="CEYT" name="CEYT" netid="KO" insttype="CMG-3ESP" lat="37.0105" lon="35.7478">
    <comp name="--.HHE">
      <acc value="0.0024789934" flag="0"/>
      <vel value="0.0016566025" flag="0"/>
      <psa03 value="0.0056941519" flag="0"/>
      <psa10 value="0.0021022593" flag="0"/>
      <psa30 value="0.0003440041" flag="0"/>
    </comp>
    <comp name="--.HHZ">
      <acc value="0.0015937535" flag="0"/>
      <vel value="0.0013672162" flag="0"/>
      <psa03 value="0.0041376284" flag="0"/>
      <psa10 value="0.0017245318" flag="0"/>
      <psa30 value="0.0005927986" flag="0"/>
    </comp>
    <comp name="--.HHN">
      <acc value="0.0019457443" flag="0"/>
      <vel value="0.0014870397" flag="0"/>
      <psa03 value="0.0043376307" flag="0"/>
      <psa10 value="0.0027136411" flag="0"/>
      <psa30 value="0.0007251582" flag="0"/>
    </comp>
  </station>
  <station code="GAZ" name="GAZ" netid="KO" insttype="CMG-3T" lat="37.1721" lon="37.2096">
    <comp name="--.HHE">
      <acc value="0.0218132601" flag="0"/>
      <vel value="0.0111162611" flag="0"/>
      <psa03 value="0.0417158599" flag="0"/>
      <psa10 value="0.0090483935" flag="0"/>
      <psa30 value="0.0009507241" flag="0"/>
    </comp>
    <comp name="--.HHN">
      <acc value="0.0174210577" flag="0"/>
      <vel value="0.0107052236" flag="0"/>
      <psa03 value="0.0698038049" flag="0"/>
      <psa10 value="0.0081801717" flag="0"/>
      <psa30 value="0.0011297084" flag="0"/>
    </comp>
    <comp name="--.HHZ">
      <acc value="0.0146421526" flag="0"/>
      <vel value="0.0078159542" flag="0"/>
      <psa03 value="0.0464330078" flag="0"/>
      <psa10 value="0.0038619792" flag="0"/>
      <psa30 value="0.0009614742" flag="0"/>
    </comp>
  </station>
  <station code="KMRS" name="KMRS" netid="KO" insttype="CMG-3T" lat="37.5053" lon="36.9">
    <comp name="--.HHE">
      <acc value="0.0103702152" flag="0"/>
      <vel value="0.0078429943" flag="0"/>
      <psa03 value="0.0263812497" flag="0"/>
      <psa10 value="0.0086344119" flag="0"/>
      <psa30 value="0.0025952580" flag="0"/>
    </comp>
    <comp name="--.HHZ">
      <acc value="0.0082012413" flag="0"/>
      <vel value="0.0035299845" flag="0"/>
      <psa03 value="0.0146743943" flag="0"/>
      <psa10 value="0.0036604365" flag="0"/>
      <psa30 value="0.0018030251" flag="0"/>
    </comp>
  </station>
  <station code="ANDN" name="ANDN" netid="TU" insttype="T" lat="37.58" lon="36.3452">
    <comp name="--.HHE">
      <acc value="0.1475239452" flag="0"/>
      <vel value="0.0467066913" flag="0"/>
      <psa03 value="0.2464067966" flag="0"/>
      <psa10 value="0.0256755853" flag="0"/>
      <psa30 value="0.0029269868" flag="0"/>
    </comp>
    <comp name="--.HHN">
      <acc value="0.2179831297" flag="0"/>
      <vel value="0.0497301382" flag="0"/>
      <psa03 value="0.2279623593" flag="0"/>
      <psa10 value="0.0367788992" flag="0"/>
      <psa30 value="0.0082760496" flag="0"/>
    </comp>
    <comp name="--.HHZ">
      <acc value="0.0693507506" flag="0"/>
      <vel value="0.0361302974" flag="0"/>
      <psa03 value="0.1637058274" flag="0"/>
      <psa10 value="0.0377891577" flag="0"/>
      <psa30 value="0.0049449752" flag="0"/>
    </comp>
  </station>
</stationlist>
