<?xml version="1.0" encoding="UTF-8" standalone="yes"?>
<!DOCTYPE earthquake SYSTEM "stationlist.dtd">
<stationlist created="" xmlns="ch.ethz.sed.shakemap.usgs.xml">
  <station code="HDMB" name="HDMB" netid="KO" insttype="CMG-3T" commtype="DIG" lat="36.9638" lon="32.4857">
    <comp name="--.HHN">
      <acc value="0.0192007109" flag="0"/>
      <vel value="0.0073699660" flag="0"/>
      <psa03 value="0.0359372502" flag="0"/>
      <psa10 value="0.0058269973" flag="0"/>
      <psa30 value="0.0004617223" flag="0"/>
    </comp>
    <comp name="--.HHZ">
      <acc value="0.0118375290" flag="0"/>
      <vel value="0.0075808651" flag="0"/>
      <psa03 value="0.0354039357" flag="0"/>
      <psa10 value="0.0093194822" flag="0"/>
      <psa30 value="0.0004303077" flag="0"/>
    </comp>
    <comp name="--.HHE">
      <acc value="0.0213529128" flag="0"/>
      <vel value="0.0070101778" flag="0"/>
      <psa03 value="0.0333669786" flag="0"/>
      <psa10 value="0.0094721134" flag="0"/>
      <psa30 value="0.0003922129" flag="0"/>
    </comp>
  </station>
  <station code="LMOS" name="LMOS" netid="KO" insttype="CMG-6T" commtype="DIG" lat="36.6021" lon="32.6962">
    <comp name="--.HHE">
      <acc value="0.0078804116" flag="0"/>
      <vel value="0.0037284088" flag="0"/>
      <psa03 value="0.0210280672" flag="0"/>
      <psa10 value="0.0046850614" flag="0"/>
      <psa30 value="0.0002979601" flag="0"/>
    </comp>
    <comp name="--.HHN">
      <acc value="0.0115468974" flag="0"/>
      <vel value="0.0068643736" flag="0"/>
      <psa03 value="0.0299351658" flag="0"/>
      <psa10 value="0.0063571176" flag="0"/>
      <psa30 value="0.0004179915" flag="0"/>
    </comp>
    <comp name="--.HHZ">
      <acc value="0.0073910119" flag="0"/>
      <vel value="0.0033746143" flag="0"/>
      <psa03 value="0.0139834807" flag="0"/>
      <psa10 value="0.0039730466" flag="0"/>
      <psa30 value="0.0001773886" flag="0"/>
    </comp>
  </station>
  <station code="MNVG" name="MNVG" netid="KO" insttype="CMG-5T" commtype="DIG" lat="36.7935" lon="31.4161">
    <comp name="--.HNE">
      <acc value="0.1469200345" flag="0"/>
      <vel value="0.0590953264" flag="0"/>
      <psa03 value="0.3891021041" flag="0"/>
      <psa10 value="0.0420720699" flag="0"/>
      <psa30 value="0.0034004386" flag="0"/>
    </comp>
    <comp name="--.HNZ">
      <acc value="0.0860685200" flag="0"/>
      <vel value="0.0311511126" flag="0"/>
      <psa03 value="0.2431845987" flag="0"/>
      <psa10 value="0.0205057221" flag="0"/>
      <psa30 value="0.0011605945" flag="0"/>
    </comp>
    <comp name="--.HNN">
      <acc value="0.1055767177" flag="0"/>
      <vel value="0.0347307198" flag="0"/>
      <psa03 value="0.2414431296" flag="0"/>
      <psa10 value="0.0207850961" flag="0"/>
      <psa30 value="0.0027391590" flag="0"/>
    </comp>
  </station>
  <station code="SEYD" name="SEYD" netid="KO" insttype="CMG-5T" commtype="DIG" lat="37.4056" lon="31.8379">
    <comp name="--.HNZ">
      <acc value="0.0116328252" flag="0"/>
      <vel value="0.0052335627" flag="0"/>
      <psa03 value="0.0222038899" flag="0"/>
      <psa10 value="0.0043101117" flag="0"/>
      <psa30 value="0.0002620474" flag="0"/>
    </comp>
    <comp name="--.HNE">
      <acc value="0.0122119585" flag="0"/>
      <vel value="0.0056330797" flag="0"/>
      <psa03 value="0.0328786523" flag="0"/>
      <psa10 value="0.0047323502" flag="0"/>
      <psa30 value="0.0002489322" flag="0"/>
    </comp>
    <comp name="--.HNN">
      <acc value="0.0114611206" flag="0"/>
      <vel value="0.0050448073" flag="0"/>
      <psa03 value="0.0257467746" flag="0"/>
      <psa10 value="0.0045446247" flag="0"/>
      <psa30 value="0.0002663236" flag="0"/>
    </comp>
  </station>
  <station code="SUTC" name="SUTC" netid="KO" insttype="CMG-3T" commtype="DIG" lat="37.4765" lon="30.9997">
    <comp name="--.HHE">
      <acc value="0.0058206024" flag="0"/>
      <vel value="0.0071224306" flag="0"/>
      <psa03 value="0.0142813937" flag="0"/>
      <psa10 value="0.0090293237" flag="0"/>
      <psa30 value="0.0004546711" flag="0"/>
    </comp>
    <comp name="--.HHZ">
      <acc value="0.0030381257" flag="0"/>
      <vel value="0.0028629186" flag="0"/>
      <psa03 value="0.0078923985" flag="0"/>
      <psa10 value="0.0034547025" flag="0"/>
      <psa30 value="0.0002263877" flag="0"/>
    </comp>
    <comp name="--.HHN">
      <acc value="0.0040850661" flag="0"/>
      <vel value="0.0037277950" flag="0"/>
      <psa03 value="0.0122525634" flag="0"/>
      <psa10 value="0.0086487190" flag="0"/>
      <psa30 value="0.0003892848" flag="0"/>
    </comp>
  </station>
</stationlist>
