<?xml version="1.0" encoding="UTF-8" standalone="yes"?>
<!DOCTYPE earthquake SYSTEM "stationlist.dtd">
<stationlist created="" xmlns="ch.ethz.sed.shakemap.usgs.xml">
  <station code="HDMB" name="HDMB" netid="KO" insttype="CMG-3T" commtype="DIG" lat="36.9638" lon="32.4857">
    <comp name="--.HHE">
      <acc value="0.0213529128" flag="0"/>
      <vel value="0.0070101780" flag="0"/>
      <psa03 value="0.0333669786" flag="0"/>
      <psa10 value="0.0094721135" flag="0"/>
      <psa30 value="0.0003921983" flag="0"/>
    </comp>
    <comp name="--.HHN">
      <acc value="0.0192007109" flag="0"/>
      <vel value="0.0073699656" flag="0"/>
      <psa03 value="0.0359372502" flag="0"/>
      <psa10 value="0.0058269971" flag="0"/>
      <psa30 value="0.0004617779" flag="0"/>
    </comp>
    <comp name="--.HHZ">
      <acc value="0.0118375295" flag="0"/>
      <vel value="0.0075808647" flag="0"/>
      <psa03 value="0.0354039357" flag="0"/>
      <psa10 value="0.0093194822" flag="0"/>
      <psa30 value="0.0004302283" flag="0"/>
    </comp>
  </station>
  <station code="LMOS" name="LMOS" netid="KO" insttype="CMG-6T" commtype="DIG" lat="36.6021" lon="32.6962">
    <comp name="--.HHE">
      <acc value="0.0078804116" flag="0"/>
      <vel value="0.0037284097" flag="0"/>
      <psa03 value="0.0210280672" flag="0"/>
      <psa10 value="0.0046850613" flag="0"/>
      <psa30 value="0.0002979331" flag="0"/>
    </comp>
    <comp name="--.HHZ">
      <acc value="0.0073910119" flag="0"/>
      <vel value="0.0033746146" flag="0"/>
      <psa03 value="0.0139834807" flag="0"/>
      <psa10 value="0.0039730466" flag="0"/>
      <psa30 value="0.0001774468" flag="0"/>
    </comp>
    <comp name="--.HHN">
      <acc value="0.0115468976" flag="0"/>
      <vel value="0.0068643737" flag="0"/>
      <psa03 value="0.0299351658" flag="0"/>
      <psa10 value="0.0063571176" flag="0"/>
      <psa30 value="0.0004179785" flag="0"/>
    </comp>
  </station>
  <station code="MNVG" name="MNVG" netid="KO" insttype="CMG-5T" commtype="DIG" lat="36.7935" lon="31.4161">
    <comp name="--.HNZ">
      <acc value="0.0860685329" flag="0"/>
      <vel value="0.0311511136" flag="0"/>
      <psa03 value="0.2431845987" flag="0"/>
      <psa10 value="0.0205057284" flag="0"/>
      <psa30 value="0.0011610708" flag="0"/>
    </comp>
    <comp name="--.HNE">
      <acc value="0.1469200450" flag="0"/>
      <vel value="0.0590953230" flag="0"/>
      <psa03 value="0.3891021041" flag="0"/>
      <psa10 value="0.0420720651" flag="0"/>
      <psa30 value="0.0034021780" flag="0"/>
    </comp>
    <comp name="--.HNN">
      <acc value="0.1055767405" flag="0"/>
      <vel value="0.0347306836" flag="0"/>
      <psa03 value="0.2414431296" flag="0"/>
      <psa10 value="0.0207850991" flag="0"/>
      <psa30 value="0.0027529249" flag="0"/>
    </comp>
  </station>
  <station code="SEYD" name="SEYD" netid="KO" insttype="CMG-5T" commtype="DIG" lat="37.4056" lon="31.8379">
    <comp name="--.HNN">
      <acc value="0.0114611210" flag="0"/>
      <vel value="0.0050448099" flag="0"/>
      <psa03 value="0.0257467746" flag="0"/>
      <psa10 value="0.0045446246" flag="0"/>
      <psa30 value="0.0002659135" flag="0"/>
    </comp>
    <comp name="--.HNZ">
      <acc value="0.0116328252" flag="0"/>
      <vel value="0.0052335617" flag="0"/>
      <psa03 value="0.0222038899" flag="0"/>
      <psa10 value="0.0043101117" flag="0"/>
      <psa30 value="0.0002619126" flag="0"/>
    </comp>
    <comp name="--.HNE">
      <acc value="0.0122119585" flag="0"/>
      <vel value="0.0056330812" flag="0"/>
      <psa03 value="0.0328786523" flag="0"/>
      <psa10 value="0.0047323505" flag="0"/>
      <psa30 value="0.0002487193" flag="0"/>
    </comp>
  </station>
  <station code="SUTC" name="SUTC" netid="KO" insttype="CMG-3T" commtype="DIG" lat="37.4765" lon="30.9997">
    <comp name="--.HHE">
      <acc value="0.0058206024" flag="0"/>
      <vel value="0.0071224306" flag="0"/>
      <psa03 value="0.0142813937" flag="0"/>
      <psa10 value="0.0090293237" flag="0"/>
      <psa30 value="0.0004546710" flag="0"/>
    </comp>
    <comp name="--.HHN">
      <acc value="0.0040850661" flag="0"/>
      <vel value="0.0037277949" flag="0"/>
      <psa03 value="0.0122525634" flag="0"/>
      <psa10 value="0.0086487190" flag="0"/>
      <psa30 value="0.0003892851" flag="0"/>
    </comp>
    <comp name="--.HHZ">
      <acc value="0.0030381257" flag="0"/>
      <vel value="0.0028629184" flag="0"/>
      <psa03 value="0.0078923985" flag="0"/>
      <psa10 value="0.0034547025" flag="0"/>
      <psa30 value="0.0002263867" flag="0"/>
    </comp>
  </station>
</stationlist>
