<stationlist created="1675692191">
	<station code="TUNC" name="TUNC" netid="KO" source="Bogazici University Kandilli Observatory And Earthquake Research Institute (KOERI)" insttype="" lat="39.6942" lon="37.5388">
		<comp name=".HNE" depth="0.0">
			<acc value="0.0230157416654" flag="0"/>
			<vel value="0.0256878467426" flag="0"/>
			<psa03 value="0.0613014255019" flag="0"/>
			<psa10 value="0.0308855272646" flag="0"/>
			<psa30 value="0.00548953490473" flag="0"/>
		</comp>
		<comp name=".HNN" depth="0.0">
			<acc value="0.0372958263294" flag="0"/>
			<vel value="0.0299684814873" flag="0"/>
			<psa03 value="0.089166323498" flag="0"/>
			<psa10 value="0.0389662138204" flag="0"/>
			<psa30 value="0.0070945233107" flag="0"/>
		</comp>
		<comp name=".HNZ" depth="0.0">
			<acc value="0.0144373143101" flag="0"/>
			<vel value="0.0164399203452" flag="0"/>
			<psa03 value="0.0485582011173" flag="0"/>
			<psa10 value="0.0166273733569" flag="0"/>
			<psa30 value="0.00453064138275" flag="0"/>
		</comp>
	</station>
</stationlist>
