<?xml version="1.0" encoding="UTF-8" standalone="yes"?>
<!DOCTYPE earthquake SYSTEM "stationlist.dtd">
<stationlist created="" xmlns="ch.ethz.sed.shakemap.usgs.xml">
  <station code="GVD" name="GVD" netid="GE" insttype="STS-2/N" lat="34.8391" lon="24.0874">
    <comp name="--.HHE">
      <acc value="0.4429888675" flag="0"/>
      <vel value="0.1325440826" flag="0"/>
      <psa03 value="0.8587457319" flag="0"/>
      <psa10 value="0.0486420650" flag="0"/>
      <psa30 value="0.0036707292" flag="0"/>
    </comp>
    <comp name="--.HHZ">
      <acc value="0.2633982472" flag="0"/>
      <vel value="0.0963582598" flag="0"/>
      <psa03 value="0.6929834417" flag="0"/>
      <psa10 value="0.0243729460" flag="0"/>
      <psa30 value="0.0023735330" flag="0"/>
    </comp>
    <comp name="--.HHN">
      <acc value="0.3874026074" flag="0"/>
      <vel value="0.1315684363" flag="0"/>
      <psa03 value="1.4534861470" flag="0"/>
      <psa10 value="0.0411015946" flag="0"/>
      <psa30 value="0.0036073345" flag="0"/>
    </comp>
  </station>
  <station code="IMMV" name="IMMV" netid="GE" insttype="STS-2/N" lat="35.4606" lon="23.9811">
    <comp name="--.HHZ">
      <acc value="0.0950665183" flag="0"/>
      <vel value="0.0321001590" flag="0"/>
      <psa03 value="0.2563831036" flag="0"/>
      <psa10 value="0.0183983975" flag="0"/>
      <psa30 value="0.0009129570" flag="0"/>
    </comp>
    <comp name="--.HHE">
      <acc value="0.1044002004" flag="0"/>
      <vel value="0.0425415565" flag="0"/>
      <psa03 value="0.3141171719" flag="0"/>
      <psa10 value="0.0281052283" flag="0"/>
      <psa30 value="0.0016150017" flag="0"/>
    </comp>
    <comp name="--.HHN">
      <acc value="0.1083575553" flag="0"/>
      <vel value="0.0462654316" flag="0"/>
      <psa03 value="0.2115649990" flag="0"/>
      <psa10 value="0.0292668399" flag="0"/>
      <psa30 value="0.0016158200" flag="0"/>
    </comp>
  </station>
  <station code="CHAN" name="CHAN" netid="HC" insttype="120" lat="35.5193" lon="24.0428">
    <comp name="--.HHN">
      <acc value="0.0633260943" flag="0"/>
      <vel value="0.0392853172" flag="0"/>
      <psa03 value="0.1606587919" flag="0"/>
      <psa10 value="0.0439909432" flag="0"/>
      <psa30 value="0.0050034540" flag="0"/>
    </comp>
    <comp name="--.HHE">
      <acc value="0.0663218952" flag="0"/>
      <vel value="0.0444271667" flag="0"/>
      <psa03 value="0.2144739736" flag="0"/>
      <psa10 value="0.0590440047" flag="0"/>
      <psa30 value="0.0044369569" flag="0"/>
    </comp>
    <comp name="--.HHZ">
      <acc value="0.0524814158" flag="0"/>
      <vel value="0.0287451678" flag="0"/>
      <psa03 value="0.1604388215" flag="0"/>
      <psa10 value="0.0357599603" flag="0"/>
      <psa30 value="0.0023100370" flag="0"/>
    </comp>
  </station>
  <station code="GVDS" name="GVDS" netid="HC" insttype="60" lat="34.8389" lon="24.0585">
    <comp name="--.HHE">
      <acc value="0.4360658993" flag="0"/>
      <vel value="0.1317583700" flag="0"/>
      <psa03 value="0.4767655083" flag="0"/>
      <psa10 value="0.0327110186" flag="0"/>
      <psa30 value="0.0027304346" flag="0"/>
    </comp>
    <comp name="--.HHN">
      <acc value="0.4246997169" flag="0"/>
      <vel value="0.1427721013" flag="0"/>
      <psa03 value="0.9676461837" flag="0"/>
      <psa10 value="0.0344289314" flag="0"/>
      <psa30 value="0.0028112397" flag="0"/>
    </comp>
    <comp name="--.HHZ">
      <acc value="0.2305063542" flag="0"/>
      <vel value="0.0539153350" flag="0"/>
      <psa03 value="0.1782561312" flag="0"/>
      <psa10 value="0.0143841545" flag="0"/>
      <psa30 value="0.0011754918" flag="0"/>
    </comp>
  </station>
  <station code="IMOD" name="IMOD" netid="HC" insttype="120" lat="34.9731" lon="24.7995">
    <comp name="--.HHE">
      <acc value="0.5852829112" flag="0"/>
      <vel value="0.1762980046" flag="0"/>
      <psa03 value="0.9772460691" flag="0"/>
      <psa10 value="0.2880509421" flag="0"/>
      <psa30 value="0.0110992186" flag="0"/>
    </comp>
    <comp name="--.HHN">
      <acc value="0.7038428925" flag="0"/>
      <vel value="0.4781662465" flag="0"/>
      <psa03 value="2.3814483742" flag="0"/>
      <psa10 value="0.3034200139" flag="0"/>
      <psa30 value="0.0189600694" flag="0"/>
    </comp>
    <comp name="--.HHZ">
      <acc value="1.5736264914" flag="0"/>
      <vel value="0.2799370012" flag="0"/>
      <psa03 value="0.8677192074" flag="0"/>
      <psa10 value="0.1482022466" flag="0"/>
      <psa30 value="0.0187917034" flag="0"/>
    </comp>
  </station>
  <station code="IPPL" name="IPPL" netid="HC" insttype="60" lat="35.3486" lon="24.4632">
    <comp name="--.HHN">
      <acc value="0.1156227585" flag="0"/>
      <vel value="0.0584629408" flag="0"/>
      <psa03 value="0.2581682005" flag="0"/>
      <psa10 value="0.0334293123" flag="0"/>
      <psa30 value="0.0025881537" flag="0"/>
    </comp>
    <comp name="--.HHZ">
      <acc value="0.0977588199" flag="0"/>
      <vel value="0.0302219722" flag="0"/>
      <psa03 value="0.1811891795" flag="0"/>
      <psa10 value="0.0216735613" flag="0"/>
      <psa30 value="0.0016891594" flag="0"/>
    </comp>
    <comp name="--.HHE">
      <acc value="0.0908045187" flag="0"/>
      <vel value="0.0463417058" flag="0"/>
      <psa03 value="0.2895409926" flag="0"/>
      <psa10 value="0.0500925033" flag="0"/>
      <psa30 value="0.0037619649" flag="0"/>
    </comp>
  </station>
  <station code="KNDR" name="KNDR" netid="HC" insttype="120" lat="35.2348" lon="23.6248">
    <comp name="--.HHE">
      <acc value="0.0766955446" flag="0"/>
      <vel value="0.0279262469" flag="0"/>
      <psa03 value="0.2190515526" flag="0"/>
      <psa10 value="0.0163871538" flag="0"/>
      <psa30 value="0.0009483532" flag="0"/>
    </comp>
    <comp name="--.HHZ">
      <acc value="0.0795277493" flag="0"/>
      <vel value="0.0198267995" flag="0"/>
      <psa03 value="0.1277310737" flag="0"/>
      <psa10 value="0.0079124108" flag="0"/>
      <psa30 value="0.0004533607" flag="0"/>
    </comp>
    <comp name="--.HHN">
      <acc value="0.1107448550" flag="0"/>
      <vel value="0.0365755428" flag="0"/>
      <psa03 value="0.3152830017" flag="0"/>
      <psa10 value="0.0209078382" flag="0"/>
      <psa30 value="0.0011964293" flag="0"/>
    </comp>
  </station>
  <station code="KNSS" name="KNSS" netid="HC" insttype="60" lat="35.3042" lon="25.1802">
    <comp name="--.HHE">
      <acc value="0.0323519213" flag="0"/>
      <vel value="0.0121784832" flag="0"/>
      <psa03 value="0.0649634245" flag="0"/>
      <psa10 value="0.0133501271" flag="0"/>
      <psa30 value="0.0019154738" flag="0"/>
    </comp>
    <comp name="--.HHN">
      <acc value="0.0324209672" flag="0"/>
      <vel value="0.0140793896" flag="0"/>
      <psa03 value="0.0804624289" flag="0"/>
      <psa10 value="0.0219175039" flag="0"/>
      <psa30 value="0.0018911290" flag="0"/>
    </comp>
    <comp name="--.HHZ">
      <acc value="0.0312003441" flag="0"/>
      <vel value="0.0108204028" flag="0"/>
      <psa03 value="0.0301429603" flag="0"/>
      <psa10 value="0.0084064970" flag="0"/>
      <psa30 value="0.0014945822" flag="0"/>
    </comp>
  </station>
  <station code="PFKS" name="PFKS" netid="HC" insttype="120" lat="35.0429" lon="25.4733">
    <comp name="--.HHE">
      <acc value="0.0630533248" flag="0"/>
      <vel value="0.0198195437" flag="0"/>
      <psa03 value="0.1100159586" flag="0"/>
      <psa10 value="0.0088534127" flag="0"/>
      <psa30 value="0.0008066842" flag="0"/>
    </comp>
    <comp name="--.HHN">
      <acc value="0.0576042594" flag="0"/>
      <vel value="0.0243748841" flag="0"/>
      <psa03 value="0.1426125748" flag="0"/>
      <psa10 value="0.0190937588" flag="0"/>
      <psa30 value="0.0012041497" flag="0"/>
    </comp>
    <comp name="--.HHZ">
      <acc value="0.0312841274" flag="0"/>
      <vel value="0.0098412750" flag="0"/>
      <psa03 value="0.0350249630" flag="0"/>
      <psa10 value="0.0118635128" flag="0"/>
      <psa30 value="0.0004775463" flag="0"/>
    </comp>
  </station>
  <station code="TEFL" name="TEFL" netid="HC" insttype="GEOtiny," lat="35.0933" lon="25.1634">
    <comp name="--.HHE">
      <acc value="0.3130771257" flag="0"/>
      <vel value="0.0571360671" flag="0"/>
      <psa03 value="0.3422729104" flag="0"/>
      <psa10 value="0.0364354951" flag="0"/>
      <psa30 value="0.0044185394" flag="0"/>
    </comp>
    <comp name="--.HHN">
      <acc value="0.3048705296" flag="0"/>
      <vel value="0.0674312938" flag="0"/>
      <psa03 value="0.2100004511" flag="0"/>
      <psa10 value="0.0625825410" flag="0"/>
      <psa30 value="0.0055084873" flag="0"/>
    </comp>
    <comp name="--.HHZ">
      <acc value="0.1074181220" flag="0"/>
      <vel value="0.0325592409" flag="0"/>
      <psa03 value="0.1034093670" flag="0"/>
      <psa10 value="0.0215127857" flag="0"/>
      <psa30 value="0.0027718873" flag="0"/>
    </comp>
  </station>
  <station code="GVD" name="GVD" netid="HL" insttype="120" lat="34.8391" lon="24.0874">
    <comp name="--.HHN">
      <acc value="0.3764357393" flag="0"/>
      <vel value="0.1275419752" flag="0"/>
      <psa03 value="1.4101838976" flag="0"/>
      <psa10 value="0.0403659796" flag="0"/>
      <psa30 value="0.0035438777" flag="0"/>
    </comp>
    <comp name="--.HHZ">
      <acc value="0.2568476557" flag="0"/>
      <vel value="0.0932227062" flag="0"/>
      <psa03 value="0.6730009845" flag="0"/>
      <psa10 value="0.0237229531" flag="0"/>
      <psa30 value="0.0023109964" flag="0"/>
    </comp>
    <comp name="--.HHE">
      <acc value="0.4378411266" flag="0"/>
      <vel value="0.1287398755" flag="0"/>
      <psa03 value="0.8341881664" flag="0"/>
      <psa10 value="0.0479572746" flag="0"/>
      <psa30 value="0.0035887270" flag="0"/>
    </comp>
  </station>
  <station code="IACM" name="IACM" netid="HL" insttype="120" lat="35.3058" lon="25.0709">
    <comp name="--.HHE">
      <acc value="0.1171237956" flag="0"/>
      <vel value="0.0571012233" flag="0"/>
      <psa03 value="0.2799976307" flag="0"/>
      <psa10 value="0.0779190848" flag="0"/>
      <psa30 value="0.0052498961" flag="0"/>
    </comp>
    <comp name="--.HHN">
      <acc value="0.1209839191" flag="0"/>
      <vel value="0.0618847095" flag="0"/>
      <psa03 value="0.2597083372" flag="0"/>
      <psa10 value="0.1029977451" flag="0"/>
      <psa30 value="0.0049515925" flag="0"/>
    </comp>
    <comp name="--.HHZ">
      <acc value="0.1028753176" flag="0"/>
      <vel value="0.0439615984" flag="0"/>
      <psa03 value="0.1172015562" flag="0"/>
      <psa10 value="0.0625464342" flag="0"/>
      <psa30 value="0.0029327743" flag="0"/>
    </comp>
  </station>
  <station code="IDI" name="IDI" netid="HL" insttype="120" lat="35.288" lon="24.89">
    <comp name="--.HHN">
      <acc value="0.0797849528" flag="0"/>
      <vel value="0.0246905804" flag="0"/>
      <psa03 value="0.0921324416" flag="0"/>
      <psa10 value="0.0164810650" flag="0"/>
      <psa30 value="0.0016014726" flag="0"/>
    </comp>
    <comp name="--.HHZ">
      <acc value="0.0688569707" flag="0"/>
      <vel value="0.0180985435" flag="0"/>
      <psa03 value="0.0655061911" flag="0"/>
      <psa10 value="0.0222887833" flag="0"/>
      <psa30 value="0.0019200354" flag="0"/>
    </comp>
    <comp name="--.HHE">
      <acc value="0.0930355213" flag="0"/>
      <vel value="0.0238726002" flag="0"/>
      <psa03 value="0.0918472969" flag="0"/>
      <psa10 value="0.0148271339" flag="0"/>
      <psa30 value="0.0023061227" flag="0"/>
    </comp>
  </station>
  <station code="IMMV" name="IMMV" netid="HL" insttype="120" lat="35.4606" lon="23.9811">
    <comp name="--.HHN">
      <acc value="0.1045667658" flag="0"/>
      <vel value="0.0451855739" flag="0"/>
      <psa03 value="0.2051398013" flag="0"/>
      <psa10 value="0.0290708708" flag="0"/>
      <psa30 value="0.0016036997" flag="0"/>
    </comp>
    <comp name="--.HHE">
      <acc value="0.1016770760" flag="0"/>
      <vel value="0.0415738219" flag="0"/>
      <psa03 value="0.3049058169" flag="0"/>
      <psa10 value="0.0279620724" flag="0"/>
      <psa30 value="0.0015997298" flag="0"/>
    </comp>
    <comp name="--.HHZ">
      <acc value="0.0921499307" flag="0"/>
      <vel value="0.0311670890" flag="0"/>
      <psa03 value="0.2487802513" flag="0"/>
      <psa10 value="0.0182379214" flag="0"/>
      <psa30 value="0.0008988335" flag="0"/>
    </comp>
  </station>
  <station code="KSTE" name="KSTE" netid="HL" insttype="60" lat="35.1801" lon="25.3372">
    <comp name="--.HHE">
      <acc value="0.0182105442" flag="0"/>
      <vel value="0.0082129675" flag="0"/>
      <psa03 value="0.0308247344" flag="0"/>
      <psa10 value="0.0080533716" flag="0"/>
      <psa30 value="0.0010525736" flag="0"/>
    </comp>
    <comp name="--.HHN">
      <acc value="0.0918326178" flag="0"/>
      <vel value="0.0134302911" flag="0"/>
      <psa03 value="0.0552530025" flag="0"/>
      <psa10 value="0.0184352119" flag="0"/>
      <psa30 value="0.0036170862" flag="0"/>
    </comp>
    <comp name="--.HHZ">
      <acc value="0.0220418091" flag="0"/>
      <vel value="0.0057127908" flag="0"/>
      <psa03 value="0.0299892759" flag="0"/>
      <psa10 value="0.0051755446" flag="0"/>
      <psa30 value="0.0012723247" flag="0"/>
    </comp>
  </station>
  <station code="NPS" name="NPS" netid="HL" insttype="CMG3ESPC-120s" lat="35.2613" lon="25.6104">
    <comp name="--.HHE">
      <acc value="0.0056885551" flag="0"/>
      <vel value="0.0024212556" flag="0"/>
      <psa03 value="0.0145415914" flag="0"/>
      <psa10 value="0.0041650376" flag="0"/>
      <psa30 value="0.0003324385" flag="0"/>
    </comp>
    <comp name="--.HHN">
      <acc value="0.0121672735" flag="0"/>
      <vel value="0.0053920267" flag="0"/>
      <psa03 value="0.0209588798" flag="0"/>
      <psa10 value="0.0087905068" flag="0"/>
      <psa30 value="0.0008336764" flag="0"/>
    </comp>
    <comp name="--.HHZ">
      <acc value="0.0134923654" flag="0"/>
      <vel value="0.0041379307" flag="0"/>
      <psa03 value="0.0182738749" flag="0"/>
      <psa10 value="0.0037543090" flag="0"/>
      <psa30 value="0.0006228430" flag="0"/>
    </comp>
  </station>
  <station code="SIVA" name="SIVA" netid="HL" insttype="60" lat="35.0178" lon="24.812">
    <comp name="--.HHZ">
      <acc value="1.4107072308" flag="0"/>
      <vel value="0.3569091146" flag="0"/>
      <psa03 value="0.9718272754" flag="0"/>
      <psa10 value="0.3570596348" flag="0"/>
      <psa30 value="0.0184991129" flag="0"/>
    </comp>
    <comp name="--.HHN">
      <acc value="1.6666890588" flag="0"/>
      <vel value="0.8563183842" flag="0"/>
      <psa03 value="1.6523948368" flag="0"/>
      <psa10 value="1.1856511542" flag="0"/>
      <psa30 value="0.0842656606" flag="0"/>
    </comp>
    <comp name="--.HHE">
      <acc value="2.1451058265" flag="0"/>
      <vel value="0.8204113792" flag="0"/>
      <psa03 value="1.8671013315" flag="0"/>
      <psa10 value="0.8529687076" flag="0"/>
      <psa30 value="0.0399514412" flag="0"/>
    </comp>
  </station>
  <station code="VAM" name="VAM" netid="HL" insttype="CMG3ESPC-120s" lat="35.407" lon="24.1997">
    <comp name="--.HHE">
      <acc value="0.1423143163" flag="0"/>
      <vel value="0.0487408782" flag="0"/>
      <psa03 value="0.2577535526" flag="0"/>
      <psa10 value="0.0320908904" flag="0"/>
      <psa30 value="0.0015584872" flag="0"/>
    </comp>
    <comp name="--.HHN">
      <acc value="0.1808543944" flag="0"/>
      <vel value="0.0514525714" flag="0"/>
      <psa03 value="0.2897074903" flag="0"/>
      <psa10 value="0.0281258497" flag="0"/>
      <psa30 value="0.0019238245" flag="0"/>
    </comp>
    <comp name="--.HHZ">
      <acc value="0.0695618253" flag="0"/>
      <vel value="0.0278370650" flag="0"/>
      <psa03 value="0.1960956867" flag="0"/>
      <psa10 value="0.0156086924" flag="0"/>
      <psa30 value="0.0010255428" flag="0"/>
    </comp>
  </station>
  <station code="IDI" name="IDI" netid="MN" insttype="" lat="35.288" lon="24.89">
    <comp name="--.HHN">
      <acc value="0.0848231741" flag="0"/>
      <vel value="0.0254628172" flag="0"/>
      <psa03 value="0.0932193449" flag="0"/>
      <psa10 value="0.0163926233" flag="0"/>
      <psa30 value="0.0015849023" flag="0"/>
    </comp>
    <comp name="--.HHE">
      <acc value="0.1256810243" flag="0"/>
      <vel value="0.0239827133" flag="0"/>
      <psa03 value="0.0938010347" flag="0"/>
      <psa10 value="0.0147260206" flag="0"/>
      <psa30 value="0.0022878639" flag="0"/>
    </comp>
    <comp name="--.HHZ">
      <acc value="0.0888254858" flag="0"/>
      <vel value="0.0179664686" flag="0"/>
      <psa03 value="0.0668772925" flag="0"/>
      <psa10 value="0.0221800246" flag="0"/>
      <psa30 value="0.0019001807" flag="0"/>
    </comp>
  </station>
</stationlist>
