<?xml version="1.0" encoding="UTF-8" standalone="yes"?>
<!DOCTYPE earthquake SYSTEM "stationlist.dtd">
<stationlist created="" xmlns="ch.ethz.sed.shakemap.usgs.xml">
  <station code="GVD" name="GVD" netid="GE" insttype="STS-2/N" lat="34.8391" lon="24.0874">
    <comp name="--.HHE">
      <acc value="0.4429888678" flag="0"/>
      <vel value="0.1325440849" flag="0"/>
      <psa03 value="0.8587457319" flag="0"/>
      <psa10 value="0.0486420647" flag="0"/>
      <psa30 value="0.0036704945" flag="0"/>
    </comp>
    <comp name="--.HHZ">
      <acc value="0.2633982482" flag="0"/>
      <vel value="0.0963582597" flag="0"/>
      <psa03 value="0.6929834417" flag="0"/>
      <psa10 value="0.0243729460" flag="0"/>
      <psa30 value="0.0023735235" flag="0"/>
    </comp>
    <comp name="--.HHN">
      <acc value="0.3874026070" flag="0"/>
      <vel value="0.1315684348" flag="0"/>
      <psa03 value="1.4534861470" flag="0"/>
      <psa10 value="0.0411015946" flag="0"/>
      <psa30 value="0.0036073711" flag="0"/>
    </comp>
  </station>
  <station code="IMMV" name="IMMV" netid="GE" insttype="STS-2/N" lat="35.4606" lon="23.9811">
    <comp name="--.HHE">
      <acc value="0.1044001995" flag="0"/>
      <vel value="0.0425415590" flag="0"/>
      <psa03 value="0.3141171719" flag="0"/>
      <psa10 value="0.0281052283" flag="0"/>
      <psa30 value="0.0016150357" flag="0"/>
    </comp>
    <comp name="--.HHN">
      <acc value="0.1083575553" flag="0"/>
      <vel value="0.0462654320" flag="0"/>
      <psa03 value="0.2115649990" flag="0"/>
      <psa10 value="0.0292668400" flag="0"/>
      <psa30 value="0.0016158132" flag="0"/>
    </comp>
    <comp name="--.HHZ">
      <acc value="0.0950665194" flag="0"/>
      <vel value="0.0321001589" flag="0"/>
      <psa03 value="0.2563831036" flag="0"/>
      <psa10 value="0.0183983975" flag="0"/>
      <psa30 value="0.0009129489" flag="0"/>
    </comp>
  </station>
  <station code="ZKR" name="ZKR" netid="GE" insttype="STS-2/N" lat="35.1147" lon="26.2169">
    <comp name="--.HHE">
      <acc value="0.0041894561" flag="0"/>
      <vel value="0.0042005802" flag="0"/>
      <psa03 value="0.0119131000" flag="0"/>
      <psa10 value="0.0066216261" flag="0"/>
      <psa30 value="0.0005865599" flag="0"/>
    </comp>
    <comp name="--.HHN">
      <acc value="0.0018863433" flag="0"/>
      <vel value="0.0013150270" flag="0"/>
      <psa03 value="0.0056957258" flag="0"/>
      <psa10 value="0.0031503934" flag="0"/>
      <psa30 value="0.0003494145" flag="0"/>
    </comp>
    <comp name="--.HHZ">
      <acc value="0.0020872632" flag="0"/>
      <vel value="0.0020044165" flag="0"/>
      <psa03 value="0.0044328462" flag="0"/>
      <psa10 value="0.0048929604" flag="0"/>
      <psa30 value="0.0004720123" flag="0"/>
    </comp>
  </station>
  <station code="CHAN" name="CHAN" netid="HC" insttype="120" lat="35.5193" lon="24.0428">
    <comp name="--.HHN">
      <acc value="0.0633260947" flag="0"/>
      <vel value="0.0392853158" flag="0"/>
      <psa03 value="0.1606587919" flag="0"/>
      <psa10 value="0.0439909432" flag="0"/>
      <psa30 value="0.0050034561" flag="0"/>
    </comp>
    <comp name="--.HHE">
      <acc value="0.0663218959" flag="0"/>
      <vel value="0.0444271649" flag="0"/>
      <psa03 value="0.2144739737" flag="0"/>
      <psa10 value="0.0590440047" flag="0"/>
      <psa30 value="0.0044369350" flag="0"/>
    </comp>
    <comp name="--.HHZ">
      <acc value="0.0524814164" flag="0"/>
      <vel value="0.0287451677" flag="0"/>
      <psa03 value="0.1604388215" flag="0"/>
      <psa10 value="0.0357599603" flag="0"/>
      <psa30 value="0.0023100305" flag="0"/>
    </comp>
  </station>
  <station code="GVDS" name="GVDS" netid="HC" insttype="60" lat="34.8389" lon="24.0585">
    <comp name="--.HHE">
      <acc value="0.4360659005" flag="0"/>
      <vel value="0.1317583699" flag="0"/>
      <psa03 value="0.4767655083" flag="0"/>
      <psa10 value="0.0327110188" flag="0"/>
      <psa30 value="0.0027301922" flag="0"/>
    </comp>
    <comp name="--.HHN">
      <acc value="0.4246997153" flag="0"/>
      <vel value="0.1427720984" flag="0"/>
      <psa03 value="0.9676461837" flag="0"/>
      <psa10 value="0.0344289315" flag="0"/>
      <psa30 value="0.0028110013" flag="0"/>
    </comp>
    <comp name="--.HHZ">
      <acc value="0.2305063545" flag="0"/>
      <vel value="0.0539153349" flag="0"/>
      <psa03 value="0.1782561312" flag="0"/>
      <psa10 value="0.0143841545" flag="0"/>
      <psa30 value="0.0011750441" flag="0"/>
    </comp>
  </station>
  <station code="IMOD" name="IMOD" netid="HC" insttype="120" lat="34.9731" lon="24.7995">
    <comp name="--.HHN">
      <acc value="0.7038428921" flag="0"/>
      <vel value="0.4781662459" flag="0"/>
      <psa03 value="2.3814483742" flag="0"/>
      <psa10 value="0.3034200154" flag="0"/>
      <psa30 value="0.0189601007" flag="0"/>
    </comp>
    <comp name="--.HHZ">
      <acc value="1.5736264912" flag="0"/>
      <vel value="0.2799370021" flag="0"/>
      <psa03 value="0.8677192074" flag="0"/>
      <psa10 value="0.1482022401" flag="0"/>
      <psa30 value="0.0187914190" flag="0"/>
    </comp>
    <comp name="--.HHE">
      <acc value="0.5852829113" flag="0"/>
      <vel value="0.1762980042" flag="0"/>
      <psa03 value="0.9772460691" flag="0"/>
      <psa10 value="0.2880509402" flag="0"/>
      <psa30 value="0.0110987150" flag="0"/>
    </comp>
  </station>
  <station code="IPPL" name="IPPL" netid="HC" insttype="60" lat="35.3486" lon="24.4632">
    <comp name="--.HHE">
      <acc value="0.0908045181" flag="0"/>
      <vel value="0.0463417048" flag="0"/>
      <psa03 value="0.2895409926" flag="0"/>
      <psa10 value="0.0500925028" flag="0"/>
      <psa30 value="0.0037619205" flag="0"/>
    </comp>
    <comp name="--.HHZ">
      <acc value="0.0977588200" flag="0"/>
      <vel value="0.0302219721" flag="0"/>
      <psa03 value="0.1811891795" flag="0"/>
      <psa10 value="0.0216735614" flag="0"/>
      <psa30 value="0.0016891328" flag="0"/>
    </comp>
    <comp name="--.HHN">
      <acc value="0.1156227587" flag="0"/>
      <vel value="0.0584629418" flag="0"/>
      <psa03 value="0.2581682005" flag="0"/>
      <psa10 value="0.0334293126" flag="0"/>
      <psa30 value="0.0025884825" flag="0"/>
    </comp>
  </station>
  <station code="KNDR" name="KNDR" netid="HC" insttype="120" lat="35.2348" lon="23.6248">
    <comp name="--.HHZ">
      <acc value="0.0795277484" flag="0"/>
      <vel value="0.0198267990" flag="0"/>
      <psa03 value="0.1277310737" flag="0"/>
      <psa10 value="0.0079124109" flag="0"/>
      <psa30 value="0.0004533844" flag="0"/>
    </comp>
    <comp name="--.HHE">
      <acc value="0.0766955446" flag="0"/>
      <vel value="0.0279262485" flag="0"/>
      <psa03 value="0.2190515526" flag="0"/>
      <psa10 value="0.0163871538" flag="0"/>
      <psa30 value="0.0009482321" flag="0"/>
    </comp>
    <comp name="--.HHN">
      <acc value="0.1107448539" flag="0"/>
      <vel value="0.0365755387" flag="0"/>
      <psa03 value="0.3152830017" flag="0"/>
      <psa10 value="0.0209078382" flag="0"/>
      <psa30 value="0.0011963829" flag="0"/>
    </comp>
  </station>
  <station code="KNSS" name="KNSS" netid="HC" insttype="60" lat="35.3042" lon="25.1802">
    <comp name="--.HHE">
      <acc value="0.0323519215" flag="0"/>
      <vel value="0.0121784851" flag="0"/>
      <psa03 value="0.0649634245" flag="0"/>
      <psa10 value="0.0133501271" flag="0"/>
      <psa30 value="0.0019155466" flag="0"/>
    </comp>
    <comp name="--.HHN">
      <acc value="0.0324209668" flag="0"/>
      <vel value="0.0140793898" flag="0"/>
      <psa03 value="0.0804624289" flag="0"/>
      <psa10 value="0.0219175037" flag="0"/>
      <psa30 value="0.0018911358" flag="0"/>
    </comp>
    <comp name="--.HHZ">
      <acc value="0.0312003440" flag="0"/>
      <vel value="0.0108204020" flag="0"/>
      <psa03 value="0.0301429603" flag="0"/>
      <psa10 value="0.0084064970" flag="0"/>
      <psa30 value="0.0014947017" flag="0"/>
    </comp>
  </station>
  <station code="PFKS" name="PFKS" netid="HC" insttype="120" lat="35.0429" lon="25.4733">
    <comp name="--.HHN">
      <acc value="0.0576042596" flag="0"/>
      <vel value="0.0243748838" flag="0"/>
      <psa03 value="0.1426125748" flag="0"/>
      <psa10 value="0.0190937591" flag="0"/>
      <psa30 value="0.0012042473" flag="0"/>
    </comp>
    <comp name="--.HHZ">
      <acc value="0.0312841272" flag="0"/>
      <vel value="0.0098412751" flag="0"/>
      <psa03 value="0.0350249630" flag="0"/>
      <psa10 value="0.0118635143" flag="0"/>
      <psa30 value="0.0004775288" flag="0"/>
    </comp>
    <comp name="--.HHE">
      <acc value="0.0630533251" flag="0"/>
      <vel value="0.0198195437" flag="0"/>
      <psa03 value="0.1100159586" flag="0"/>
      <psa10 value="0.0088534127" flag="0"/>
      <psa30 value="0.0008067035" flag="0"/>
    </comp>
  </station>
  <station code="STIA" name="STIA" netid="HC" insttype="120" lat="35.2021" lon="26.0909">
    <comp name="--.HHE">
      <acc value="0.0042572945" flag="0"/>
      <vel value="0.0051947445" flag="0"/>
      <psa03 value="0.0116509009" flag="0"/>
      <psa10 value="0.0083330213" flag="0"/>
      <psa30 value="0.0008762866" flag="0"/>
    </comp>
    <comp name="--.HHZ">
      <acc value="0.0037882086" flag="0"/>
      <vel value="0.0022831644" flag="0"/>
      <psa03 value="0.0079936316" flag="0"/>
      <psa10 value="0.0042244407" flag="0"/>
      <psa30 value="0.0008737989" flag="0"/>
    </comp>
    <comp name="--.HHN">
      <acc value="0.0041137433" flag="0"/>
      <vel value="0.0039101594" flag="0"/>
      <psa03 value="0.0107009894" flag="0"/>
      <psa10 value="0.0090985655" flag="0"/>
      <psa30 value="0.0005657019" flag="0"/>
    </comp>
  </station>
  <station code="TEFL" name="TEFL" netid="HC" insttype="GEOtiny," lat="35.0933" lon="25.1634">
    <comp name="--.HHE">
      <acc value="0.3130771206" flag="0"/>
      <vel value="0.0571359048" flag="0"/>
      <psa03 value="0.3422729103" flag="0"/>
      <psa10 value="0.0364354945" flag="0"/>
      <psa30 value="0.0044187854" flag="0"/>
    </comp>
    <comp name="--.HHN">
      <acc value="0.3048705256" flag="0"/>
      <vel value="0.0674312538" flag="0"/>
      <psa03 value="0.2100004512" flag="0"/>
      <psa10 value="0.0625825399" flag="0"/>
      <psa30 value="0.0055087394" flag="0"/>
    </comp>
    <comp name="--.HHZ">
      <acc value="0.1074181229" flag="0"/>
      <vel value="0.0325584786" flag="0"/>
      <psa03 value="0.1034093672" flag="0"/>
      <psa10 value="0.0215127852" flag="0"/>
      <psa30 value="0.0027717796" flag="0"/>
    </comp>
  </station>
  <station code="GVD" name="GVD" netid="HL" insttype="120" lat="34.8391" lon="24.0874">
    <comp name="--.HHE">
      <acc value="0.4378411268" flag="0"/>
      <vel value="0.1287399692" flag="0"/>
      <psa03 value="0.8341881664" flag="0"/>
      <psa10 value="0.0479572732" flag="0"/>
      <psa30 value="0.0035875118" flag="0"/>
    </comp>
    <comp name="--.HHN">
      <acc value="0.3764357386" flag="0"/>
      <vel value="0.1275419728" flag="0"/>
      <psa03 value="1.4101838976" flag="0"/>
      <psa10 value="0.0403659796" flag="0"/>
      <psa30 value="0.0035440027" flag="0"/>
    </comp>
    <comp name="--.HHZ">
      <acc value="0.2568476562" flag="0"/>
      <vel value="0.0932227071" flag="0"/>
      <psa03 value="0.6730009845" flag="0"/>
      <psa10 value="0.0237229532" flag="0"/>
      <psa30 value="0.0023112315" flag="0"/>
    </comp>
  </station>
  <station code="IACM" name="IACM" netid="HL" insttype="120" lat="35.3058" lon="25.0709">
    <comp name="--.HHE">
      <acc value="0.1171237957" flag="0"/>
      <vel value="0.0571012254" flag="0"/>
      <psa03 value="0.2799976307" flag="0"/>
      <psa10 value="0.0779190848" flag="0"/>
      <psa30 value="0.0052495620" flag="0"/>
    </comp>
    <comp name="--.HHZ">
      <acc value="0.1028753184" flag="0"/>
      <vel value="0.0439615987" flag="0"/>
      <psa03 value="0.1172015562" flag="0"/>
      <psa10 value="0.0625464339" flag="0"/>
      <psa30 value="0.0029328025" flag="0"/>
    </comp>
    <comp name="--.HHN">
      <acc value="0.1209839194" flag="0"/>
      <vel value="0.0618847103" flag="0"/>
      <psa03 value="0.2597083372" flag="0"/>
      <psa10 value="0.1029977455" flag="0"/>
      <psa30 value="0.0049517076" flag="0"/>
    </comp>
  </station>
  <station code="IDI" name="IDI" netid="HL" insttype="120" lat="35.288" lon="24.89">
    <comp name="--.HHN">
      <acc value="0.0797849528" flag="0"/>
      <vel value="0.0246905805" flag="0"/>
      <psa03 value="0.0921324416" flag="0"/>
      <psa10 value="0.0164810662" flag="0"/>
      <psa30 value="0.0016016336" flag="0"/>
    </comp>
    <comp name="--.HHE">
      <acc value="0.0930355213" flag="0"/>
      <vel value="0.0238726007" flag="0"/>
      <psa03 value="0.0918472969" flag="0"/>
      <psa10 value="0.0148271334" flag="0"/>
      <psa30 value="0.0023063432" flag="0"/>
    </comp>
    <comp name="--.HHZ">
      <acc value="0.0688569708" flag="0"/>
      <vel value="0.0180985437" flag="0"/>
      <psa03 value="0.0655061911" flag="0"/>
      <psa10 value="0.0222887818" flag="0"/>
      <psa30 value="0.0019199131" flag="0"/>
    </comp>
  </station>
  <station code="IMMV" name="IMMV" netid="HL" insttype="120" lat="35.4606" lon="23.9811">
    <comp name="--.HHE">
      <acc value="0.1016770768" flag="0"/>
      <vel value="0.0415738211" flag="0"/>
      <psa03 value="0.3049058169" flag="0"/>
      <psa10 value="0.0279620724" flag="0"/>
      <psa30 value="0.0015997054" flag="0"/>
    </comp>
    <comp name="--.HHN">
      <acc value="0.1045667659" flag="0"/>
      <vel value="0.0451855740" flag="0"/>
      <psa03 value="0.2051398013" flag="0"/>
      <psa10 value="0.0290708708" flag="0"/>
      <psa30 value="0.0016037150" flag="0"/>
    </comp>
    <comp name="--.HHZ">
      <acc value="0.0921499320" flag="0"/>
      <vel value="0.0311670893" flag="0"/>
      <psa03 value="0.2487802513" flag="0"/>
      <psa10 value="0.0182379214" flag="0"/>
      <psa30 value="0.0008988352" flag="0"/>
    </comp>
  </station>
  <station code="KSTE" name="KSTE" netid="HL" insttype="60" lat="35.1801" lon="25.3372">
    <comp name="--.HHE">
      <acc value="0.0182105441" flag="0"/>
      <vel value="0.0082129685" flag="0"/>
      <psa03 value="0.0308247344" flag="0"/>
      <psa10 value="0.0080533716" flag="0"/>
      <psa30 value="0.0010527043" flag="0"/>
    </comp>
    <comp name="--.HHN">
      <acc value="0.0918326177" flag="0"/>
      <vel value="0.0134302951" flag="0"/>
      <psa03 value="0.0552530026" flag="0"/>
      <psa10 value="0.0184352227" flag="0"/>
      <psa30 value="0.0042001608" flag="0"/>
    </comp>
    <comp name="--.HHZ">
      <acc value="0.0220418085" flag="0"/>
      <vel value="0.0057127910" flag="0"/>
      <psa03 value="0.0299892759" flag="0"/>
      <psa10 value="0.0051755446" flag="0"/>
      <psa30 value="0.0012723738" flag="0"/>
    </comp>
  </station>
  <station code="NPS" name="NPS" netid="HL" insttype="CMG3ESPC-120s" lat="35.2613" lon="25.6104">
    <comp name="--.HHE">
      <acc value="0.0056885548" flag="0"/>
      <vel value="0.0024212557" flag="0"/>
      <psa03 value="0.0145415914" flag="0"/>
      <psa10 value="0.0041650376" flag="0"/>
      <psa30 value="0.0003324389" flag="0"/>
    </comp>
    <comp name="--.HHN">
      <acc value="0.0121672738" flag="0"/>
      <vel value="0.0053920257" flag="0"/>
      <psa03 value="0.0209588798" flag="0"/>
      <psa10 value="0.0087905068" flag="0"/>
      <psa30 value="0.0008336599" flag="0"/>
    </comp>
    <comp name="--.HHZ">
      <acc value="0.0134923662" flag="0"/>
      <vel value="0.0041379302" flag="0"/>
      <psa03 value="0.0182738749" flag="0"/>
      <psa10 value="0.0037543090" flag="0"/>
      <psa30 value="0.0006228460" flag="0"/>
    </comp>
  </station>
  <station code="SIVA" name="SIVA" netid="HL" insttype="60" lat="35.0178" lon="24.812">
    <comp name="--.HHN">
      <acc value="1.6666890592" flag="0"/>
      <vel value="0.8563183851" flag="0"/>
      <psa03 value="1.6523948368" flag="0"/>
      <psa10 value="1.1856511399" flag="0"/>
      <psa30 value="0.0842657058" flag="0"/>
    </comp>
    <comp name="--.HHE">
      <acc value="2.1451058268" flag="0"/>
      <vel value="0.8204113772" flag="0"/>
      <psa03 value="1.8671013315" flag="0"/>
      <psa10 value="0.8529687278" flag="0"/>
      <psa30 value="0.0399507011" flag="0"/>
    </comp>
    <comp name="--.HHZ">
      <acc value="1.4107072303" flag="0"/>
      <vel value="0.3569091138" flag="0"/>
      <psa03 value="0.9718272754" flag="0"/>
      <psa10 value="0.3570596448" flag="0"/>
      <psa30 value="0.0184989044" flag="0"/>
    </comp>
  </station>
  <station code="VAM" name="VAM" netid="HL" insttype="CMG3ESPC-120s" lat="35.407" lon="24.1997">
    <comp name="--.HHZ">
      <acc value="0.0695618252" flag="0"/>
      <vel value="0.0278370650" flag="0"/>
      <psa03 value="0.1960956867" flag="0"/>
      <psa10 value="0.0156086924" flag="0"/>
      <psa30 value="0.0010255424" flag="0"/>
    </comp>
    <comp name="--.HHE">
      <acc value="0.1423143175" flag="0"/>
      <vel value="0.0487408784" flag="0"/>
      <psa03 value="0.2577535526" flag="0"/>
      <psa10 value="0.0320908904" flag="0"/>
      <psa30 value="0.0015584861" flag="0"/>
    </comp>
    <comp name="--.HHN">
      <acc value="0.1808543943" flag="0"/>
      <vel value="0.0514525715" flag="0"/>
      <psa03 value="0.2897074903" flag="0"/>
      <psa10 value="0.0281258496" flag="0"/>
      <psa30 value="0.0019238348" flag="0"/>
    </comp>
  </station>
  <station code="ZKR" name="ZKR" netid="HL" insttype="120" lat="35.1147" lon="26.2169">
    <comp name="--.HHE">
      <acc value="0.0040754021" flag="0"/>
      <vel value="0.0041564307" flag="0"/>
      <psa03 value="0.0115997402" flag="0"/>
      <psa10 value="0.0065892704" flag="0"/>
      <psa30 value="0.0005862978" flag="0"/>
    </comp>
    <comp name="--.HHN">
      <acc value="0.0018507894" flag="0"/>
      <vel value="0.0013028108" flag="0"/>
      <psa03 value="0.0055512414" flag="0"/>
      <psa10 value="0.0031305491" flag="0"/>
      <psa30 value="0.0003494822" flag="0"/>
    </comp>
    <comp name="--.HHZ">
      <acc value="0.0020267652" flag="0"/>
      <vel value="0.0019941345" flag="0"/>
      <psa03 value="0.0043140097" flag="0"/>
      <psa10 value="0.0048653714" flag="0"/>
      <psa30 value="0.0004713586" flag="0"/>
    </comp>
  </station>
  <station code="IDI" name="IDI" netid="MN" insttype="" lat="35.288" lon="24.89">
    <comp name="--.HHN">
      <acc value="0.0848231741" flag="0"/>
      <vel value="0.0254628169" flag="0"/>
      <psa03 value="0.0932193449" flag="0"/>
      <psa10 value="0.0163926243" flag="0"/>
      <psa30 value="0.0015850288" flag="0"/>
    </comp>
    <comp name="--.HHE">
      <acc value="0.1256810244" flag="0"/>
      <vel value="0.0239827138" flag="0"/>
      <psa03 value="0.0938010347" flag="0"/>
      <psa10 value="0.0147260203" flag="0"/>
      <psa30 value="0.0022880497" flag="0"/>
    </comp>
    <comp name="--.HHZ">
      <acc value="0.0888254858" flag="0"/>
      <vel value="0.0179664686" flag="0"/>
      <psa03 value="0.0668772925" flag="0"/>
      <psa10 value="0.0221800241" flag="0"/>
      <psa30 value="0.0019000880" flag="0"/>
    </comp>
  </station>
</stationlist>
