<?xml version="1.0" encoding="UTF-8" standalone="yes"?>
<!DOCTYPE earthquake SYSTEM "stationlist.dtd">
<stationlist created="" xmlns="ch.ethz.sed.shakemap.usgs.xml">
  <station code="GVD" name="GVD" netid="GE" insttype="STS-2/N" lat="34.8391" lon="24.0874">
    <comp name="--.HHE">
      <acc value="0.4429888675" flag="0"/>
      <vel value="0.1325440826" flag="0"/>
      <psa03 value="0.8587457319" flag="0"/>
      <psa10 value="0.0486420650" flag="0"/>
      <psa30 value="0.0036707292" flag="0"/>
    </comp>
    <comp name="--.HHZ">
      <acc value="0.2633982472" flag="0"/>
      <vel value="0.0963582598" flag="0"/>
      <psa03 value="0.6929834417" flag="0"/>
      <psa10 value="0.0243729460" flag="0"/>
      <psa30 value="0.0023735330" flag="0"/>
    </comp>
    <comp name="--.HHN">
      <acc value="0.3874026074" flag="0"/>
      <vel value="0.1315684363" flag="0"/>
      <psa03 value="1.4534861470" flag="0"/>
      <psa10 value="0.0411015946" flag="0"/>
      <psa30 value="0.0036073345" flag="0"/>
    </comp>
  </station>
  <station code="IMMV" name="IMMV" netid="GE" insttype="STS-2/N" lat="35.4606" lon="23.9811">
    <comp name="--.HHZ">
      <acc value="0.0950665183" flag="0"/>
      <vel value="0.0321001590" flag="0"/>
      <psa03 value="0.2563831036" flag="0"/>
      <psa10 value="0.0183983975" flag="0"/>
      <psa30 value="0.0009129570" flag="0"/>
    </comp>
    <comp name="--.HHE">
      <acc value="0.1044002004" flag="0"/>
      <vel value="0.0425415565" flag="0"/>
      <psa03 value="0.3141171719" flag="0"/>
      <psa10 value="0.0281052283" flag="0"/>
      <psa30 value="0.0016150017" flag="0"/>
    </comp>
    <comp name="--.HHN">
      <acc value="0.1083575553" flag="0"/>
      <vel value="0.0462654316" flag="0"/>
      <psa03 value="0.2115649990" flag="0"/>
      <psa10 value="0.0292668399" flag="0"/>
      <psa30 value="0.0016158200" flag="0"/>
    </comp>
  </station>
  <station code="IDI" name="IDI" netid="MN" insttype="" lat="35.288" lon="24.89">
    <comp name="--.HHN">
      <acc value="0.0848231741" flag="0"/>
      <vel value="0.0254628172" flag="0"/>
      <psa03 value="0.0932193449" flag="0"/>
      <psa10 value="0.0163926233" flag="0"/>
      <psa30 value="0.0015849023" flag="0"/>
    </comp>
    <comp name="--.HHE">
      <acc value="0.1256810243" flag="0"/>
      <vel value="0.0239827133" flag="0"/>
      <psa03 value="0.0938010347" flag="0"/>
      <psa10 value="0.0147260206" flag="0"/>
      <psa30 value="0.0022878639" flag="0"/>
    </comp>
    <comp name="--.HHZ">
      <acc value="0.0888254858" flag="0"/>
      <vel value="0.0179664686" flag="0"/>
      <psa03 value="0.0668772925" flag="0"/>
      <psa10 value="0.0221800246" flag="0"/>
      <psa30 value="0.0019001807" flag="0"/>
    </comp>
  </station>
</stationlist>
