<?xml version="1.0" encoding="UTF-8" standalone="yes"?>
<!DOCTYPE earthquake SYSTEM "stationlist.dtd">
<stationlist created="" xmlns="ch.ethz.sed.shakemap.usgs.xml">
  <station code="DMLN" name="DMLN" netid="HT" source="NOA" insttype="1s-100Hz," lat="38.2385" lon="20.3734">
    <comp name="--.HHE">
      <acc value="0.0318289599" flag="0"/>
      <vel value="0.0105858720" flag="0"/>
      <psa03 value="0.0403706421" flag="0"/>
      <psa10 value="0.0107015431" flag="0"/>
      <psa30 value="0.0006568886" flag="0"/>
    </comp>
    <comp name="--.HHN">
      <acc value="0.0458366968" flag="0"/>
      <vel value="0.0120569360" flag="0"/>
      <psa03 value="0.0719059003" flag="0"/>
      <psa10 value="0.0164988709" flag="0"/>
      <psa30 value="0.0006497648" flag="0"/>
    </comp>
    <comp name="--.HHZ">
      <acc value="0.0232389394" flag="0"/>
      <vel value="0.0062755138" flag="0"/>
      <psa03 value="0.0287984458" flag="0"/>
      <psa10 value="0.0050133999" flag="0"/>
      <psa30 value="0.0005958186" flag="0"/>
    </comp>
  </station>
</stationlist>
