<?xml version="1.0" encoding="UTF-8" standalone="yes"?>
<!DOCTYPE earthquake SYSTEM "stationlist.dtd">
<stationlist created="" xmlns="ch.ethz.sed.shakemap.usgs.xml">
  <station code="AVCI" name="AVCI" netid="KO" insttype="CMG-5T" lat="40.9958" lon="28.7225">
    <comp name="--.HNE">
      <acc value="0.0584219850" flag="0"/>
      <vel value="0.0493349834" flag="0"/>
      <psa03 value="0.1878720541" flag="0"/>
      <psa10 value="0.0724994354" flag="0"/>
      <psa30 value="0.0040524335" flag="0"/>
    </comp>
    <comp name="--.HNN">
      <acc value="0.0553899547" flag="0"/>
      <vel value="0.0237992669" flag="0"/>
      <psa03 value="0.1285121993" flag="0"/>
      <psa10 value="0.0402268702" flag="0"/>
      <psa30 value="0.0042621415" flag="0"/>
    </comp>
    <comp name="--.HNZ">
      <acc value="0.0366096065" flag="0"/>
      <vel value="0.0200860637" flag="0"/>
      <psa03 value="0.1180019398" flag="0"/>
      <psa10 value="0.0172280245" flag="0"/>
      <psa30 value="0.0017799986" flag="0"/>
    </comp>
  </station>
  <station code="BIGA" name="BIGA" netid="KO" insttype="CMG-5T" lat="40.2813" lon="27.1505">
    <comp name="--.HNZ">
      <acc value="1.3310150905" flag="0"/>
      <vel value="0.2036264101" flag="0"/>
      <psa03 value="0.6808654100" flag="0"/>
      <psa10 value="0.0473195207" flag="0"/>
      <psa30 value="0.0059342581" flag="0"/>
    </comp>
    <comp name="--.HNN">
      <acc value="1.8860250249" flag="0"/>
      <vel value="0.7230865847" flag="0"/>
      <psa03 value="2.7643217956" flag="0"/>
      <psa10 value="0.1617205083" flag="0"/>
      <psa30 value="0.0120706583" flag="0"/>
    </comp>
    <comp name="--.HNE">
      <acc value="1.2975133752" flag="0"/>
      <vel value="0.4157479849" flag="0"/>
      <psa03 value="1.2662491004" flag="0"/>
      <psa10 value="0.1067598303" flag="0"/>
      <psa30 value="0.0126965036" flag="0"/>
    </comp>
  </station>
  <station code="CRLT" name="CRLT" netid="KO" insttype="30s," lat="41.129" lon="27.736">
    <comp name="--.HHZ">
      <acc value="0.0403113827" flag="0"/>
      <vel value="0.0128922608" flag="0"/>
      <psa03 value="0.0717728586" flag="0"/>
      <psa10 value="0.0173076422" flag="0"/>
      <psa30 value="0.0010890902" flag="0"/>
    </comp>
    <comp name="--.HHE">
      <acc value="0.0527612046" flag="0"/>
      <vel value="0.0191798592" flag="0"/>
      <psa03 value="0.0856013923" flag="0"/>
      <psa10 value="0.0102041381" flag="0"/>
      <psa30 value="0.0013819336" flag="0"/>
    </comp>
    <comp name="--.HHN">
      <acc value="0.0529277388" flag="0"/>
      <vel value="0.0232061112" flag="0"/>
      <psa03 value="0.0919463710" flag="0"/>
      <psa10 value="0.0122976848" flag="0"/>
      <psa30 value="0.0027028906" flag="0"/>
    </comp>
  </station>
  <station code="EDC" name="EDC" netid="KO" insttype="120s," lat="40.3465" lon="27.8618">
    <comp name="--.HHE">
      <acc value="0.4569893266" flag="0"/>
      <vel value="0.1129852954" flag="0"/>
      <psa03 value="1.1803977916" flag="0"/>
      <psa10 value="0.0347715467" flag="0"/>
      <psa30 value="0.0030333273" flag="0"/>
    </comp>
    <comp name="--.HHN">
      <acc value="0.3656402320" flag="0"/>
      <vel value="0.1091086542" flag="0"/>
      <psa03 value="0.6447058844" flag="0"/>
      <psa10 value="0.0364038924" flag="0"/>
      <psa30 value="0.0034174989" flag="0"/>
    </comp>
    <comp name="--.HHZ">
      <acc value="0.1784161108" flag="0"/>
      <vel value="0.0374728704" flag="0"/>
      <psa03 value="0.1263045011" flag="0"/>
      <psa10 value="0.0204826007" flag="0"/>
      <psa30 value="0.0011437121" flag="0"/>
    </comp>
  </station>
  <station code="ENEZ" name="ENEZ" netid="KO" insttype="120s," lat="40.7362" lon="26.153">
    <comp name="--.HHE">
      <acc value="0.0565364407" flag="0"/>
      <vel value="0.0211847153" flag="0"/>
      <psa03 value="0.1002829372" flag="0"/>
      <psa10 value="0.0180402128" flag="0"/>
      <psa30 value="0.0014871364" flag="0"/>
    </comp>
    <comp name="--.HHN">
      <acc value="0.0458391381" flag="0"/>
      <vel value="0.0266600020" flag="0"/>
      <psa03 value="0.1330863934" flag="0"/>
      <psa10 value="0.0291815800" flag="0"/>
      <psa30 value="0.0017730369" flag="0"/>
    </comp>
    <comp name="--.HHZ">
      <acc value="0.0352948157" flag="0"/>
      <vel value="0.0096299381" flag="0"/>
      <psa03 value="0.0756294683" flag="0"/>
      <psa10 value="0.0098747108" flag="0"/>
      <psa30 value="0.0006646288" flag="0"/>
    </comp>
  </station>
  <station code="ERIK" name="ERIK" netid="KO" insttype="120s," lat="40.6708" lon="26.5132">
    <comp name="--.HHE">
      <acc value="0.0474275866" flag="0"/>
      <vel value="0.0162287546" flag="0"/>
      <psa03 value="0.0609274661" flag="0"/>
      <psa10 value="0.0141588026" flag="0"/>
      <psa30 value="0.0009184379" flag="0"/>
    </comp>
    <comp name="--.HHN">
      <acc value="0.0458337593" flag="0"/>
      <vel value="0.0188200049" flag="0"/>
      <psa03 value="0.0689000284" flag="0"/>
      <psa10 value="0.0140076049" flag="0"/>
      <psa30 value="0.0011977515" flag="0"/>
    </comp>
    <comp name="--.HHZ">
      <acc value="0.0808407068" flag="0"/>
      <vel value="0.0229094986" flag="0"/>
      <psa03 value="0.1109721763" flag="0"/>
      <psa10 value="0.0099318709" flag="0"/>
      <psa30 value="0.0007516662" flag="0"/>
    </comp>
  </station>
  <station code="EZN" name="EZN" netid="KO" insttype="120s," lat="39.8255" lon="26.3247">
    <comp name="--.HHN">
      <acc value="0.1407516954" flag="0"/>
      <vel value="0.0255526853" flag="0"/>
      <psa03 value="0.0687854266" flag="0"/>
      <psa10 value="0.0347261205" flag="0"/>
      <psa30 value="0.0026966703" flag="0"/>
    </comp>
    <comp name="--.HHZ">
      <acc value="0.1195302397" flag="0"/>
      <vel value="0.0171056262" flag="0"/>
      <psa03 value="0.0723569116" flag="0"/>
      <psa10 value="0.0254351575" flag="0"/>
      <psa30 value="0.0009682286" flag="0"/>
    </comp>
    <comp name="--.HHE">
      <acc value="0.1416802692" flag="0"/>
      <vel value="0.0319602764" flag="0"/>
      <psa03 value="0.1173559029" flag="0"/>
      <psa10 value="0.0130008455" flag="0"/>
      <psa30 value="0.0010461468" flag="0"/>
    </comp>
  </station>
  <station code="EZNE" name="EZNE" netid="KO" insttype="CMG-5T" lat="39.756" lon="26.3655">
    <comp name="--.HNE">
      <acc value="0.0770063127" flag="0"/>
      <vel value="0.0228060169" flag="0"/>
      <psa03 value="0.1649141978" flag="0"/>
      <psa10 value="0.0302580205" flag="0"/>
      <psa30 value="0.0021198961" flag="0"/>
    </comp>
    <comp name="--.HNN">
      <acc value="0.1039122207" flag="0"/>
      <vel value="0.0421293981" flag="0"/>
      <psa03 value="0.2263386147" flag="0"/>
      <psa10 value="0.0285046727" flag="0"/>
      <psa30 value="0.0020921403" flag="0"/>
    </comp>
  </station>
  <station code="GAZK" name="GAZK" netid="KO" insttype="30s," lat="40.7479" lon="27.3275">
    <comp name="--.HHN">
      <acc value="0.2407842992" flag="0"/>
      <vel value="0.0833861163" flag="0"/>
      <psa03 value="0.3583956442" flag="0"/>
      <psa10 value="0.0842806294" flag="0"/>
      <psa30 value="0.0056104301" flag="0"/>
    </comp>
    <comp name="--.HHE">
      <acc value="0.2972061433" flag="0"/>
      <vel value="0.1307352253" flag="0"/>
      <psa03 value="0.3133976942" flag="0"/>
      <psa10 value="0.1450070500" flag="0"/>
      <psa30 value="0.0103025373" flag="0"/>
    </comp>
    <comp name="--.HHZ">
      <acc value="0.1820951400" flag="0"/>
      <vel value="0.0640081179" flag="0"/>
      <psa03 value="0.2296542654" flag="0"/>
      <psa10 value="0.0675458695" flag="0"/>
      <psa30 value="0.0035916774" flag="0"/>
    </comp>
  </station>
  <station code="GELI" name="GELI" netid="KO" insttype="30s," lat="40.398" lon="26.4742">
    <comp name="--.HHZ">
      <acc value="0.0510710643" flag="0"/>
      <vel value="0.0186304566" flag="0"/>
      <psa03 value="0.0950264676" flag="0"/>
      <psa10 value="0.0158347267" flag="0"/>
      <psa30 value="0.0011578990" flag="0"/>
    </comp>
    <comp name="--.HHN">
      <acc value="0.1456702593" flag="0"/>
      <vel value="0.0993353304" flag="0"/>
      <psa03 value="0.2974491632" flag="0"/>
      <psa10 value="0.0520189701" flag="0"/>
      <psa30 value="0.0030776893" flag="0"/>
    </comp>
  </station>
  <station code="KRBG" name="KRBG" netid="KO" insttype="30s," lat="40.3932" lon="27.2977">
    <comp name="--.HHE">
      <acc value="1.0332227570" flag="0"/>
      <vel value="0.2565746532" flag="0"/>
      <psa03 value="0.7519579347" flag="0"/>
      <psa10 value="0.2037878683" flag="0"/>
      <psa30 value="0.0178512376" flag="0"/>
    </comp>
    <comp name="--.HHZ">
      <acc value="0.5530868274" flag="0"/>
      <vel value="0.1262216838" flag="0"/>
      <psa03 value="0.7415608271" flag="0"/>
      <psa10 value="0.0680249299" flag="0"/>
      <psa30 value="0.0035344192" flag="0"/>
    </comp>
    <comp name="--.HHN">
      <acc value="0.5240465966" flag="0"/>
      <vel value="0.1610358673" flag="0"/>
      <psa03 value="0.7868133086" flag="0"/>
      <psa10 value="0.0954723151" flag="0"/>
      <psa30 value="0.0077484337" flag="0"/>
    </comp>
  </station>
  <station code="LAP" name="LAP" netid="KO" insttype="30s," lat="40.3703" lon="26.7593">
    <comp name="--.HHE">
      <acc value="0.1693285170" flag="0"/>
      <vel value="0.0690033691" flag="0"/>
      <psa03 value="0.3535709474" flag="0"/>
      <psa10 value="0.0921429795" flag="0"/>
      <psa30 value="0.0035015749" flag="0"/>
    </comp>
    <comp name="--.HHN">
      <acc value="0.2957929251" flag="0"/>
      <vel value="0.1587467939" flag="0"/>
      <psa03 value="0.6414980154" flag="0"/>
      <psa10 value="0.0911349189" flag="0"/>
      <psa30 value="0.0062875011" flag="0"/>
    </comp>
    <comp name="--.HHZ">
      <acc value="0.1351413600" flag="0"/>
      <vel value="0.0431272885" flag="0"/>
      <psa03 value="0.2514239529" flag="0"/>
      <psa10 value="0.0295319932" flag="0"/>
      <psa30 value="0.0025328126" flag="0"/>
    </comp>
  </station>
  <station code="MDNY" name="MDNY" netid="KO" insttype="30s," lat="40.371" lon="28.8847">
    <comp name="--.HHE">
      <acc value="0.4122119161" flag="0"/>
      <vel value="0.1466151442" flag="0"/>
      <psa03 value="0.9606859162" flag="0"/>
      <psa10 value="0.0481095045" flag="0"/>
      <psa30 value="0.0048301255" flag="0"/>
    </comp>
    <comp name="--.HHN">
      <acc value="0.2468539477" flag="0"/>
      <vel value="0.1103708530" flag="0"/>
      <psa03 value="0.7205118306" flag="0"/>
      <psa10 value="0.0771196749" flag="0"/>
      <psa30 value="0.0048567471" flag="0"/>
    </comp>
  </station>
  <station code="MRMT" name="MRMT" netid="KO" insttype="120s," lat="40.609" lon="27.5832">
    <comp name="--.HHZ">
      <acc value="0.0458500523" flag="0"/>
      <vel value="0.0110262757" flag="0"/>
      <psa03 value="0.0422840155" flag="0"/>
      <psa10 value="0.0066579772" flag="0"/>
      <psa30 value="0.0005471646" flag="0"/>
    </comp>
    <comp name="--.HHN">
      <acc value="0.0527338361" flag="0"/>
      <vel value="0.0123989565" flag="0"/>
      <psa03 value="0.0603582815" flag="0"/>
      <psa10 value="0.0095497805" flag="0"/>
      <psa30 value="0.0007514988" flag="0"/>
    </comp>
    <comp name="--.HHE">
      <acc value="0.0538357402" flag="0"/>
      <vel value="0.0262661654" flag="0"/>
      <psa03 value="0.0809511787" flag="0"/>
      <psa10 value="0.0149597501" flag="0"/>
      <psa30 value="0.0011826385" flag="0"/>
    </comp>
  </station>
  <station code="ORLT" name="ORLT" netid="KO" insttype="CMG-5T" lat="40.0452" lon="28.8914">
    <comp name="--.HNE">
      <acc value="0.2536774829" flag="0"/>
      <vel value="0.1315372137" flag="0"/>
      <psa03 value="1.1801721310" flag="0"/>
      <psa10 value="0.1072232032" flag="0"/>
      <psa30 value="0.0047356544" flag="0"/>
    </comp>
    <comp name="--.HNZ">
      <acc value="0.0799727227" flag="0"/>
      <vel value="0.0300828375" flag="0"/>
      <psa03 value="0.2589220171" flag="0"/>
      <psa10 value="0.0279325550" flag="0"/>
      <psa30 value="0.0032849437" flag="0"/>
    </comp>
    <comp name="--.HNN">
      <acc value="0.1727062927" flag="0"/>
      <vel value="0.0777832623" flag="0"/>
      <psa03 value="0.5966684594" flag="0"/>
      <psa10 value="0.0794840130" flag="0"/>
      <psa30 value="0.0058143084" flag="0"/>
    </comp>
  </station>
  <station code="RKY" name="RKY" netid="KO" insttype="30s," lat="40.6875" lon="27.1777">
    <comp name="--.HHN">
      <acc value="0.2126117160" flag="0"/>
      <vel value="0.0569004814" flag="0"/>
      <psa03 value="0.2458058130" flag="0"/>
      <psa10 value="0.0518298963" flag="0"/>
      <psa30 value="0.0034438896" flag="0"/>
    </comp>
    <comp name="--.HHZ">
      <acc value="0.1152810995" flag="0"/>
      <vel value="0.0275185366" flag="0"/>
      <psa03 value="0.0795468771" flag="0"/>
      <psa10 value="0.0396324627" flag="0"/>
      <psa30 value="0.0012839542" flag="0"/>
    </comp>
  </station>
  <station code="SLVT" name="SLVT" netid="KO" insttype="30s," lat="41.23" lon="28.21">
    <comp name="--.HHN">
      <acc value="0.0639285053" flag="0"/>
      <vel value="0.0387559247" flag="0"/>
      <psa03 value="0.1549765716" flag="0"/>
      <psa10 value="0.0363947750" flag="0"/>
      <psa30 value="0.0021882554" flag="0"/>
    </comp>
    <comp name="--.HHE">
      <acc value="0.0808117044" flag="0"/>
      <vel value="0.0335557261" flag="0"/>
      <psa03 value="0.1695785658" flag="0"/>
      <psa10 value="0.0254592877" flag="0"/>
      <psa30 value="0.0023288078" flag="0"/>
    </comp>
    <comp name="--.HHZ">
      <acc value="0.0380075247" flag="0"/>
      <vel value="0.0214416365" flag="0"/>
      <psa03 value="0.1438794023" flag="0"/>
      <psa10 value="0.0189771005" flag="0"/>
      <psa30 value="0.0017893764" flag="0"/>
    </comp>
  </station>
  <station code="TKR" name="TKR" netid="KO" insttype="CMG-5T" lat="40.9893" lon="27.5351">
    <comp name="--.HNN">
      <acc value="0.3554053518" flag="0"/>
      <vel value="0.1146735768" flag="0"/>
      <psa03 value="0.8173390269" flag="0"/>
      <psa10 value="0.0385392673" flag="0"/>
      <psa30 value="0.0032234263" flag="0"/>
    </comp>
  </station>
  <station code="YENI" name="YENI" netid="KO" insttype="CMG-5T" lat="39.9364" lon="27.2422">
    <comp name="--.HNZ">
      <acc value="1.0898003778" flag="0"/>
      <vel value="0.2789698231" flag="0"/>
      <psa03 value="1.0137542038" flag="0"/>
      <psa10 value="0.1832692909" flag="0"/>
      <psa30 value="0.0119444320" flag="0"/>
    </comp>
    <comp name="--.HNE">
      <acc value="1.0576467842" flag="0"/>
      <vel value="0.2760448686" flag="0"/>
      <psa03 value="0.9473235329" flag="0"/>
      <psa10 value="0.1919410971" flag="0"/>
      <psa30 value="0.0120959726" flag="0"/>
    </comp>
    <comp name="--.HNN">
      <acc value="1.4027321119" flag="0"/>
      <vel value="0.6161288534" flag="0"/>
      <psa03 value="2.1319078540" flag="0"/>
      <psa10 value="0.2859731747" flag="0"/>
      <psa30 value="0.0248163455" flag="0"/>
    </comp>
  </station>
  <station code="YKBL" name="YKBL" netid="KO" insttype="CMG-5T" lat="40.9908" lon="28.6678">
    <comp name="--.HNN">
      <acc value="0.0600356809" flag="0"/>
      <vel value="0.0392619144" flag="0"/>
      <psa03 value="0.1638590420" flag="0"/>
      <psa10 value="0.0303269493" flag="0"/>
      <psa30 value="0.0036530610" flag="0"/>
    </comp>
    <comp name="--.HNZ">
      <acc value="0.0512724654" flag="0"/>
      <vel value="0.0232445797" flag="0"/>
      <psa03 value="0.1456365843" flag="0"/>
      <psa10 value="0.0210373713" flag="0"/>
      <psa30 value="0.0018561773" flag="0"/>
    </comp>
    <comp name="--.HNE">
      <acc value="0.0988744129" flag="0"/>
      <vel value="0.0464228597" flag="0"/>
      <psa03 value="0.3114861865" flag="0"/>
      <psa10 value="0.0440914700" flag="0"/>
      <psa30 value="0.0033725329" flag="0"/>
    </comp>
  </station>
</stationlist>
