<stationlist created="1778138359">
	<station code="MALA" name="MALA" netid="CL" source="Corinth Riff Laboratory (CRLNET)" insttype="" lat="38.39341" lon="21.87263">
		<comp name="01.HNE" depth="0.0">
			<acc value="0.148620487783771" flag="0"/>
			<vel value="0.10158344899288" flag="0"/>
			<psa03 value="0.337008533494824" flag="0"/>
			<psa10 value="0.17530558813504" flag="0"/>
			<psa30 value="0.00582953742822895" flag="0"/>
		</comp>
		<comp name="01.HNN" depth="0.0">
			<acc value="0.146856157835418" flag="0"/>
			<vel value="0.0895273136532916" flag="0"/>
			<psa03 value="0.2845602048837" flag="0"/>
			<psa10 value="0.0498941602431221" flag="0"/>
			<psa30 value="0.0055729850162474" flag="0"/>
		</comp>
		<comp name="01.HNZ" depth="0.0">
			<acc value="0.0508497291254626" flag="0"/>
			<vel value="0.0251813996435855" flag="0"/>
			<psa03 value="0.0868572486583019" flag="0"/>
			<psa10 value="0.035997400901156" flag="0"/>
			<psa30 value="0.00281220900338032" flag="0"/>
		</comp>
	</station>
	<station code="ROD3" name="ROD3" netid="CL" source="Corinth Riff Laboratory (CRLNET)" insttype="" lat="38.30811" lon="21.89204">
		<comp name="00.HNE" depth="0.0">
			<acc value="0.0961046096310009" flag="0"/>
			<vel value="0.0415745648870295" flag="0"/>
			<psa03 value="0.379406217133197" flag="0"/>
			<psa10 value="0.0154661567444603" flag="0"/>
			<psa30 value="0.00160519383621399" flag="0"/>
		</comp>
		<comp name="00.HNN" depth="0.0">
			<acc value="0.110687214243201" flag="0"/>
			<vel value="0.0540328193423236" flag="0"/>
			<psa03 value="0.304666953523821" flag="0"/>
			<psa10 value="0.0205859199661757" flag="0"/>
			<psa30 value="0.00200741089778897" flag="0"/>
		</comp>
		<comp name="00.HNZ" depth="0.0">
			<acc value="0.0359373984270875" flag="0"/>
			<vel value="0.0137312698498061" flag="0"/>
			<psa03 value="0.0744083875239595" flag="0"/>
			<psa10 value="0.0128857917454778" flag="0"/>
			<psa30 value="0.0007694200328007" flag="0"/>
		</comp>
	</station>
	<station code="AIGS" name="AIGS" netid="HA" source="Hellenic Seismological Network, University of Athens, Seismological Laboratory (HA)" insttype="" lat="38.25001" lon="22.0878">
		<comp name="--.HNE" depth="0.0">
			<acc value="0.0129544671726325" flag="0"/>
			<vel value="0.00417487381437877" flag="0"/>
			<psa03 value="0.0301355119547616" flag="0"/>
			<psa10 value="0.00757639580528106" flag="0"/>
			<psa30 value="0.00116619652562934" flag="0"/>
		</comp>
		<comp name="--.HNN" depth="0.0">
			<acc value="0.0154735292024592" flag="0"/>
			<vel value="0.00334372963956071" flag="0"/>
			<psa03 value="0.0280558820019803" flag="0"/>
			<psa10 value="0.00710286834266236" flag="0"/>
			<psa30 value="0.00105576077230528" flag="0"/>
		</comp>
		<comp name="--.HNZ" depth="0.0">
			<acc value="0.0108043572878546" flag="0"/>
			<vel value="0.00226860303228611" flag="0"/>
			<psa03 value="0.014972728848985" flag="0"/>
			<psa10 value="0.00632173706532374" flag="0"/>
			<psa30 value="0.000721782866655221" flag="0"/>
		</comp>
	</station>
	<station code="LTRS" name="LTRS" netid="HA" source="Hellenic Seismological Network, University of Athens, Seismological Laboratory (HA)" insttype="" lat="37.97528" lon="22.9765">
		<comp name="--.HNE" depth="0.0">
			<acc value="0.0107271027329403" flag="0"/>
			<vel value="0.00741677341888375" flag="0"/>
			<psa03 value="0.0331821330492861" flag="0"/>
			<psa10 value="0.012457448682334" flag="0"/>
			<psa30 value="0.000828472121795904" flag="0"/>
		</comp>
		<comp name="--.HNN" depth="0.0">
			<acc value="0.00866329633290058" flag="0"/>
			<vel value="0.00541796118538888" flag="0"/>
			<psa03 value="0.0300175666414835" flag="0"/>
			<psa10 value="0.00817915214118633" flag="0"/>
			<psa30 value="0.000791897876012766" flag="0"/>
		</comp>
		<comp name="--.HNZ" depth="0.0">
			<acc value="0.00748166391333302" flag="0"/>
			<vel value="0.00417285939403939" flag="0"/>
			<psa03 value="0.0185025355980239" flag="0"/>
			<psa10 value="0.00525435213753921" flag="0"/>
			<psa30 value="0.000421133028204823" flag="0"/>
		</comp>
	</station>
	<station code="XLKS" name="XLKS" netid="HA" source="Hellenic Seismological Network, University of Athens, Seismological Laboratory (HA)" insttype="" lat="38.0772" lon="22.6361">
		<comp name="--.HNE" depth="0.0">
			<acc value="0.0319659896946753" flag="0"/>
			<vel value="0.0192298357734831" flag="0"/>
			<psa03 value="0.0993813022735134" flag="0"/>
			<psa10 value="0.0187603271545854" flag="0"/>
			<psa30 value="0.00257126241685099" flag="0"/>
		</comp>
		<comp name="--.HNN" depth="0.0">
			<acc value="0.0273195397115398" flag="0"/>
			<vel value="0.0144356152919534" flag="0"/>
			<psa03 value="0.073303350779101" flag="0"/>
			<psa10 value="0.021055216679776" flag="0"/>
			<psa30 value="0.0017634482781267" flag="0"/>
		</comp>
		<comp name="--.HNZ" depth="0.0">
			<acc value="0.0268054306774467" flag="0"/>
			<vel value="0.0131232670020842" flag="0"/>
			<psa03 value="0.0801032543639631" flag="0"/>
			<psa10 value="0.0130939070945779" flag="0"/>
			<psa30 value="0.00125124007601571" flag="0"/>
		</comp>
	</station>
	<station code="ARG2" name="ARG2" netid="HI" source="ITSAK Strong Motion Network" insttype="" lat="38.1783" lon="20.4878">
		<comp name="--.HNE" depth="0.0">
			<acc value="0.0103469652569333" flag="0"/>
			<vel value="0.00544560999911657" flag="0"/>
			<psa03 value="0.0312971774510908" flag="0"/>
			<psa10 value="0.00689871935003179" flag="0"/>
			<psa30 value="0.000316665404612122" flag="0"/>
		</comp>
		<comp name="--.HNN" depth="0.0">
			<acc value="0.00949951741879989" flag="0"/>
			<vel value="0.00646192487050416" flag="0"/>
			<psa03 value="0.020596768080618" flag="0"/>
			<psa10 value="0.00515788027802102" flag="0"/>
			<psa30 value="0.000443619752214707" flag="0"/>
		</comp>
		<comp name="--.HNZ" depth="0.0">
			<acc value="0.00662307631464711" flag="0"/>
			<vel value="0.0040226080976808" flag="0"/>
			<psa03 value="0.020728758595186" flag="0"/>
			<psa10 value="0.00584599601856461" flag="0"/>
			<psa30 value="0.000510178119715006" flag="0"/>
		</comp>
	</station>
	<station code="ART2" name="ART2" netid="HI" source="ITSAK Strong Motion Network" insttype="" lat="39.1474" lon="20.9937">
		<comp name="--.HNE" depth="0.0">
			<acc value="0.00686993585218248" flag="0"/>
			<vel value="0.00190802124616329" flag="0"/>
			<psa03 value="0.00982877480602853" flag="0"/>
			<psa10 value="0.00171369911009257" flag="0"/>
			<psa30 value="0.000287952044159718" flag="0"/>
		</comp>
		<comp name="--.HNN" depth="0.0">
			<acc value="0.00768779799705117" flag="0"/>
			<vel value="0.00189559704594093" flag="0"/>
			<psa03 value="0.00640884252312133" flag="0"/>
			<psa10 value="0.00207041606115205" flag="0"/>
			<psa30 value="0.000320411277758055" flag="0"/>
		</comp>
		<comp name="--.HNZ" depth="0.0">
			<acc value="0.0043103803135267" flag="0"/>
			<vel value="0.00146585967267949" flag="0"/>
			<psa03 value="0.00526825524605518" flag="0"/>
			<psa10 value="0.0019709505658008" flag="0"/>
			<psa30 value="0.000292512111866983" flag="0"/>
		</comp>
	</station>
	<station code="KLV1" name="KLV1" netid="HI" source="ITSAK Strong Motion Network" insttype="" lat="38.03256" lon="22.10797">
		<comp name="--.HNE" depth="0.0">
			<acc value="0.0536109810829105" flag="0"/>
			<vel value="0.0294513074812736" flag="0"/>
			<psa03 value="0.136423349877595" flag="0"/>
			<psa10 value="0.021481940573124" flag="0"/>
			<psa30 value="0.00114988117398275" flag="0"/>
		</comp>
		<comp name="--.HNN" depth="0.0">
			<acc value="0.0820364353070644" flag="0"/>
			<vel value="0.0350522045335118" flag="0"/>
			<psa03 value="0.210182090198481" flag="0"/>
			<psa10 value="0.0203244601457339" flag="0"/>
			<psa30 value="0.000942173039338016" flag="0"/>
		</comp>
		<comp name="--.HNZ" depth="0.0">
			<acc value="0.0366839949468285" flag="0"/>
			<vel value="0.0157162342327291" flag="0"/>
			<psa03 value="0.0653959519523742" flag="0"/>
			<psa10 value="0.0118912774262553" flag="0"/>
			<psa30 value="0.000610042756090203" flag="0"/>
		</comp>
	</station>
	<station code="KRI1" name="KRI1" netid="HI" source="ITSAK Strong Motion Network" insttype="" lat="37.6621" lon="20.8172">
		<comp name="--.HNE" depth="0.0">
			<acc value="0.00528539770284272" flag="0"/>
			<vel value="0.00326798051296587" flag="0"/>
			<psa03 value="0.0137623661163126" flag="0"/>
			<psa10 value="0.00329414322082259" flag="0"/>
			<psa30 value="0.000336611335307239" flag="0"/>
		</comp>
		<comp name="--.HNN" depth="0.0">
			<acc value="0.00625209993891246" flag="0"/>
			<vel value="0.00610052379304433" flag="0"/>
			<psa03 value="0.0150799052197013" flag="0"/>
			<psa10 value="0.00772771926723234" flag="0"/>
			<psa30 value="0.000405425242849326" flag="0"/>
		</comp>
		<comp name="--.HNZ" depth="0.0">
			<acc value="0.00281301121892551" flag="0"/>
			<vel value="0.00210433361648036" flag="0"/>
			<psa03 value="0.0072705298140179" flag="0"/>
			<psa10 value="0.00263645558974408" flag="0"/>
			<psa30 value="0.000223535667515857" flag="0"/>
		</comp>
	</station>
	<station code="LAM2" name="LAM2" netid="HI" source="ITSAK Strong Motion Network" insttype="" lat="38.90203" lon="22.431301">
		<comp name="--.HNE" depth="0.0">
			<acc value="0.129067673495497" flag="0"/>
			<vel value="0.0388321491505486" flag="0"/>
			<psa03 value="0.155983114365869" flag="0"/>
			<psa10 value="0.012956912394349" flag="0"/>
			<psa30 value="0.00145231745890533" flag="0"/>
		</comp>
		<comp name="--.HNN" depth="0.0">
			<acc value="0.181446838382564" flag="0"/>
			<vel value="0.0558827439727005" flag="0"/>
			<psa03 value="0.232532279122413" flag="0"/>
			<psa10 value="0.0298021067433026" flag="0"/>
			<psa30 value="0.00155992656664685" flag="0"/>
		</comp>
		<comp name="--.HNZ" depth="0.0">
			<acc value="0.136333864419747" flag="0"/>
			<vel value="0.0261521289614987" flag="0"/>
			<psa03 value="0.0545184657472406" flag="0"/>
			<psa10 value="0.00891087998958604" flag="0"/>
			<psa30 value="0.000957634063555648" flag="0"/>
		</comp>
	</station>
	<station code="MSL1" name="MSL1" netid="HI" source="ITSAK Strong Motion Network" insttype="" lat="38.3727" lon="21.4243">
		<comp name="--.HNE" depth="0.0">
			<acc value="0.0367397664608834" flag="0"/>
			<vel value="0.0384341920119972" flag="0"/>
			<psa03 value="0.109614219737499" flag="0"/>
			<psa10 value="0.048285761194804" flag="0"/>
			<psa30 value="0.00427614535697624" flag="0"/>
		</comp>
		<comp name="--.HNN" depth="0.0">
			<acc value="0.0328019440989421" flag="0"/>
			<vel value="0.0419201820015488" flag="0"/>
			<psa03 value="0.117208358228723" flag="0"/>
			<psa10 value="0.0624105993958333" flag="0"/>
			<psa30 value="0.00331682180649983" flag="0"/>
		</comp>
		<comp name="--.HNZ" depth="0.0">
			<acc value="0.0207988541994306" flag="0"/>
			<vel value="0.0158536384438358" flag="0"/>
			<psa03 value="0.0387125488913817" flag="0"/>
			<psa10 value="0.0284561707066465" flag="0"/>
			<psa30 value="0.00118755721150302" flag="0"/>
		</comp>
	</station>
	<station code="SKO1" name="SKO1" netid="HI" source="ITSAK Strong Motion Network" insttype="" lat="39.123383" lon="23.728705">
		<comp name="--.HNE" depth="0.0">
			<acc value="0.00290123703656061" flag="0"/>
			<vel value="0.00216455600828524" flag="0"/>
			<psa03 value="0.00533033357717368" flag="0"/>
			<psa10 value="0.00319480406196458" flag="0"/>
			<psa30 value="0.000291297369937953" flag="0"/>
		</comp>
		<comp name="--.HNN" depth="0.0">
			<acc value="0.00198664339537264" flag="0"/>
			<vel value="0.00184822973382145" flag="0"/>
			<psa03 value="0.00561939829922747" flag="0"/>
			<psa10 value="0.00445151629734192" flag="0"/>
			<psa30 value="0.000306461525530157" flag="0"/>
		</comp>
		<comp name="--.HNZ" depth="0.0">
			<acc value="0.00165939422856385" flag="0"/>
			<vel value="0.00188143845640941" flag="0"/>
			<psa03 value="0.00268623556711002" flag="0"/>
			<psa10 value="0.00341217666495834" flag="0"/>
			<psa30 value="0.000415363739767562" flag="0"/>
		</comp>
	</station>
	<station code="VAS2" name="VAS2" netid="HI" source="ITSAK Strong Motion Network" insttype="" lat="38.630558" lon="20.608081">
		<comp name="--.HNE" depth="0.0">
			<acc value="0.0333220935530081" flag="0"/>
			<vel value="0.0408538707500342" flag="0"/>
			<psa03 value="0.0702175421923958" flag="0"/>
			<psa10 value="0.0774395174880901" flag="0"/>
			<psa30 value="0.00327381041554099" flag="0"/>
		</comp>
		<comp name="--.HNN" depth="0.0">
			<acc value="0.0362176933864044" flag="0"/>
			<vel value="0.0354544912747866" flag="0"/>
			<psa03 value="0.0765136988652711" flag="0"/>
			<psa10 value="0.0848188588330956" flag="0"/>
			<psa30 value="0.00332042412847041" flag="0"/>
		</comp>
		<comp name="--.HNZ" depth="0.0">
			<acc value="0.0132507336042517" flag="0"/>
			<vel value="0.0115964761019531" flag="0"/>
			<psa03 value="0.0322511599185848" flag="0"/>
			<psa10 value="0.0247167586139721" flag="0"/>
			<psa30 value="0.0008993088456305" flag="0"/>
		</comp>
	</station>
	<station code="ATHP" name="ATHP" netid="HL" source="National Observatory of Athens Seismic Network" insttype="" lat="38.000799" lon="23.773487">
		<comp name="00.HNE" depth="0.0">
			<acc value="0.00252009518660336" flag="0"/>
			<vel value="0.00127443701163853" flag="0"/>
			<psa03 value="0.005428474518634" flag="0"/>
			<psa10 value="0.00165136822316699" flag="0"/>
			<psa30 value="0.000283853621617802" flag="0"/>
		</comp>
		<comp name="00.HNN" depth="0.0">
			<acc value="0.0028303674643667" flag="0"/>
			<vel value="0.00141621868024934" flag="0"/>
			<psa03 value="0.00465195074702207" flag="0"/>
			<psa10 value="0.0017060429779117" flag="0"/>
			<psa30 value="0.000275996356320841" flag="0"/>
		</comp>
		<comp name="00.HNZ" depth="0.0">
			<acc value="0.00180011597510917" flag="0"/>
			<vel value="0.00099566891146518" flag="0"/>
			<psa03 value="0.00295635502369906" flag="0"/>
			<psa10 value="0.00120504576586637" flag="0"/>
			<psa30 value="0.000187677002992829" flag="0"/>
		</comp>
	</station>
	<station code="DLFA" name="DLFA" netid="HL" source="National Observatory of Athens Seismic Network" insttype="" lat="38.47836" lon="22.49583">
		<comp name="00.HNE" depth="0.0">
			<acc value="0.0562647434603362" flag="0"/>
			<vel value="0.0126465208888951" flag="0"/>
			<psa03 value="0.0819387092873265" flag="0"/>
			<psa10 value="0.0119411847949044" flag="0"/>
			<psa30 value="0.000733063197256252" flag="0"/>
		</comp>
		<comp name="00.HNN" depth="0.0">
			<acc value="0.0873803140755585" flag="0"/>
			<vel value="0.0150242755565407" flag="0"/>
			<psa03 value="0.0584564662039579" flag="0"/>
			<psa10 value="0.0086273649581" flag="0"/>
			<psa30 value="0.000825865438699646" flag="0"/>
		</comp>
		<comp name="00.HNZ" depth="0.0">
			<acc value="0.0651700624492185" flag="0"/>
			<vel value="0.0125930053682849" flag="0"/>
			<psa03 value="0.0426678994556127" flag="0"/>
			<psa10 value="0.0048823982786645" flag="0"/>
			<psa30 value="0.000688661714210146" flag="0"/>
		</comp>
	</station>
	<station code="ITM" name="ITM" netid="HL" source="National Observatory of Athens Seismic Network" insttype="" lat="37.17872" lon="21.92522">
		<comp name="--.HNE" depth="0.0">
			<acc value="0.00280167543373202" flag="0"/>
			<vel value="0.00205926715763608" flag="0"/>
			<psa03 value="0.00963956630834978" flag="0"/>
			<psa10 value="0.00233925379220889" flag="0"/>
			<psa30 value="0.000383276926673561" flag="0"/>
		</comp>
		<comp name="--.HNN" depth="0.0">
			<acc value="0.00191950992538159" flag="0"/>
			<vel value="0.00182192384200114" flag="0"/>
			<psa03 value="0.00529891222482642" flag="0"/>
			<psa10 value="0.00171661856130637" flag="0"/>
			<psa30 value="0.000377053363351292" flag="0"/>
		</comp>
		<comp name="--.HNZ" depth="0.0">
			<acc value="0.0016695337297753" flag="0"/>
			<vel value="0.00151266970594029" flag="0"/>
			<psa03 value="0.00479678716463114" flag="0"/>
			<psa10 value="0.00227552277346681" flag="0"/>
			<psa30 value="0.000354274328310611" flag="0"/>
		</comp>
	</station>
	<station code="JAN" name="JAN" netid="HL" source="National Observatory of Athens Seismic Network" insttype="" lat="39.65616" lon="20.84874">
		<comp name="00.HNE" depth="0.0">
			<acc value="0.00527105058490278" flag="0"/>
			<vel value="0.0046320261115898" flag="0"/>
			<psa03 value="0.0145291343588483" flag="0"/>
			<psa10 value="0.00655714156594816" flag="0"/>
			<psa30 value="0.000567574526110419" flag="0"/>
		</comp>
		<comp name="00.HNN" depth="0.0">
			<acc value="0.00486418023790494" flag="0"/>
			<vel value="0.00334486697306877" flag="0"/>
			<psa03 value="0.0145185998068369" flag="0"/>
			<psa10 value="0.00482052527363952" flag="0"/>
			<psa30 value="0.000409040221907391" flag="0"/>
		</comp>
		<comp name="00.HNZ" depth="0.0">
			<acc value="0.00300482316500811" flag="0"/>
			<vel value="0.00262592623173767" flag="0"/>
			<psa03 value="0.00679784680835286" flag="0"/>
			<psa10 value="0.00213707133611354" flag="0"/>
			<psa30 value="0.00028627435489621" flag="0"/>
		</comp>
	</station>
	<station code="NOAC" name="NOAC" netid="HL" source="National Observatory of Athens Seismic Network" insttype="" lat="37.97384" lon="23.71767">
		<comp name="00.HNE" depth="0.0">
			<acc value="0.00533918579573022" flag="0"/>
			<vel value="0.0028627725785163" flag="0"/>
			<psa03 value="0.0123015714291516" flag="0"/>
			<psa10 value="0.00333777525185268" flag="0"/>
			<psa30 value="0.00027256052975556" flag="0"/>
		</comp>
		<comp name="00.HNN" depth="0.0">
			<acc value="0.0026096589811163" flag="0"/>
			<vel value="0.00160475481184769" flag="0"/>
			<psa03 value="0.0054462331820459" flag="0"/>
			<psa10 value="0.0018053728783423" flag="0"/>
			<psa30 value="0.000250249754901386" flag="0"/>
		</comp>
		<comp name="00.HNZ" depth="0.0">
			<acc value="0.00212349884122649" flag="0"/>
			<vel value="0.00123175358549929" flag="0"/>
			<psa03 value="0.0060412081430965" flag="0"/>
			<psa10 value="0.00144486817636437" flag="0"/>
			<psa30 value="0.000178310744503226" flag="0"/>
		</comp>
	</station>
	<station code="PATC" name="PATC" netid="HL" source="National Observatory of Athens Seismic Network" insttype="" lat="38.26933" lon="21.76001">
		<comp name="00.HNE" depth="0.0">
			<acc value="0.0364320434296901" flag="0"/>
			<vel value="0.0208869778704327" flag="0"/>
			<psa03 value="0.167139082560668" flag="0"/>
			<psa10 value="0.029001220563537" flag="0"/>
			<psa30 value="0.00386073533810145" flag="0"/>
		</comp>
		<comp name="00.HNN" depth="0.0">
			<acc value="0.033622919217045" flag="0"/>
			<vel value="0.0219619926654297" flag="0"/>
			<psa03 value="0.113679655719357" flag="0"/>
			<psa10 value="0.0281275233103797" flag="0"/>
			<psa30 value="0.00380707845026177" flag="0"/>
		</comp>
		<comp name="00.HNZ" depth="0.0">
			<acc value="0.0271912626419503" flag="0"/>
			<vel value="0.0136560299906862" flag="0"/>
			<psa03 value="0.0749050766772332" flag="0"/>
			<psa10 value="0.0183261646434524" flag="0"/>
			<psa30 value="0.00128907060293477" flag="0"/>
		</comp>
	</station>
	<station code="PATG" name="PATG" netid="HL" source="National Observatory of Athens Seismic Network" insttype="" lat="38.23865" lon="21.72657">
		<comp name="00.HNE" depth="0.0">
			<acc value="0.0571530735542633" flag="0"/>
			<vel value="0.0244174335422499" flag="0"/>
			<psa03 value="0.154117626203204" flag="0"/>
			<psa10 value="0.0323286228625943" flag="0"/>
			<psa30 value="0.00294007955750598" flag="0"/>
		</comp>
		<comp name="00.HNN" depth="0.0">
			<acc value="0.0427213487640487" flag="0"/>
			<vel value="0.0281450215488602" flag="0"/>
			<psa03 value="0.203454269513365" flag="0"/>
			<psa10 value="0.0281984123814462" flag="0"/>
			<psa30 value="0.00289540618144827" flag="0"/>
		</comp>
		<comp name="00.HNZ" depth="0.0">
			<acc value="0.0303918055060153" flag="0"/>
			<vel value="0.0108590311649187" flag="0"/>
			<psa03 value="0.101672922832056" flag="0"/>
			<psa10 value="0.0127935637608113" flag="0"/>
