<?xml version="1.0" encoding="UTF-8" standalone="yes"?>
<!DOCTYPE earthquake SYSTEM "stationlist.dtd">
<stationlist created="" xmlns="ch.ethz.sed.shakemap.usgs.xml">
  <station code="ATAL" name="ATAL" netid="HA" insttype="120" lat="38.6926" lon="23.0213">
    <comp name="--.HHN">
      <acc value="0.0073293315" flag="0"/>
      <vel value="0.0044824988" flag="0"/>
      <psa03 value="0.0072374626" flag="0"/>
      <psa10 value="0.0069911736" flag="0"/>
      <psa30 value="0.0003876296" flag="0"/>
    </comp>
    <comp name="--.HHE">
      <acc value="0.0057276781" flag="0"/>
      <vel value="0.0022986835" flag="0"/>
      <psa03 value="0.0074178194" flag="0"/>
      <psa10 value="0.0030594890" flag="0"/>
      <psa30 value="0.0002763508" flag="0"/>
    </comp>
    <comp name="--.HHZ">
      <acc value="0.0072432739" flag="0"/>
      <vel value="0.0022976043" flag="0"/>
      <psa03 value="0.0072788974" flag="0"/>
      <psa10 value="0.0034461494" flag="0"/>
      <psa30 value="0.0002589413" flag="0"/>
    </comp>
  </station>
  <station code="AXAR" name="AXAR" netid="HA" insttype="30" lat="38.7664" lon="22.659">
    <comp name="--.HHZ">
      <acc value="0.0099661307" flag="0"/>
      <vel value="0.0022853079" flag="0"/>
      <psa03 value="0.0094320000" flag="0"/>
      <psa10 value="0.0012617399" flag="0"/>
      <psa30 value="0.0000932198" flag="0"/>
    </comp>
    <comp name="--.HHN">
      <acc value="0.0117993256" flag="0"/>
      <vel value="0.0036297247" flag="0"/>
      <psa03 value="0.0145754985" flag="0"/>
      <psa10 value="0.0023589124" flag="0"/>
      <psa30 value="0.0002563464" flag="0"/>
    </comp>
    <comp name="--.HHE">
      <acc value="0.0124359711" flag="0"/>
      <vel value="0.0043175403" flag="0"/>
      <psa03 value="0.0245454790" flag="0"/>
      <psa10 value="0.0023721050" flag="0"/>
      <psa30 value="0.0001550234" flag="0"/>
    </comp>
  </station>
  <station code="DOMV" name="DOMV" netid="HA" insttype="60" lat="38.2569" lon="22.9795">
    <comp name="--.HHE">
      <acc value="0.0318710424" flag="0"/>
      <vel value="0.0090369583" flag="0"/>
      <psa03 value="0.0405903094" flag="0"/>
      <psa10 value="0.0039805844" flag="0"/>
      <psa30 value="0.0004226216" flag="0"/>
    </comp>
    <comp name="--.HHN">
      <acc value="0.0223825965" flag="0"/>
      <vel value="0.0072306518" flag="0"/>
      <psa03 value="0.0346995490" flag="0"/>
      <psa10 value="0.0044026765" flag="0"/>
      <psa30 value="0.0004497727" flag="0"/>
    </comp>
    <comp name="--.HHZ">
      <acc value="0.0169397056" flag="0"/>
      <vel value="0.0047052788" flag="0"/>
      <psa03 value="0.0241537439" flag="0"/>
      <psa10 value="0.0042196366" flag="0"/>
      <psa30 value="0.0001543151" flag="0"/>
    </comp>
  </station>
  <station code="KALE" name="KALE" netid="HA" insttype="40," lat="38.3911" lon="22.1398">
    <comp name="--.HHZ">
      <acc value="0.1403608639" flag="0"/>
      <vel value="0.0415117037" flag="0"/>
      <psa03 value="0.1484945468" flag="0"/>
      <psa10 value="0.0186756423" flag="0"/>
      <psa30 value="0.0012973503" flag="0"/>
    </comp>
    <comp name="--.HHN">
      <acc value="0.2678768641" flag="0"/>
      <vel value="0.0781662096" flag="0"/>
      <psa03 value="0.3136834752" flag="0"/>
      <psa10 value="0.0208881322" flag="0"/>
      <psa30 value="0.0018813311" flag="0"/>
    </comp>
    <comp name="--.HHE">
      <acc value="0.2135221923" flag="0"/>
      <vel value="0.0621138196" flag="0"/>
      <psa03 value="0.2330465374" flag="0"/>
      <psa10 value="0.0266663620" flag="0"/>
      <psa30 value="0.0017758028" flag="0"/>
    </comp>
  </station>
  <station code="LAKA" name="LAKA" netid="HA" insttype="120s" lat="38.2401" lon="21.9785">
    <comp name="--.HHZ">
      <acc value="0.0117980216" flag="0"/>
      <vel value="0.0052237621" flag="0"/>
      <psa03 value="0.0295736401" flag="0"/>
      <psa10 value="0.0056246617" flag="0"/>
      <psa30 value="0.0006777125" flag="0"/>
    </comp>
    <comp name="--.HHN">
      <acc value="0.0153845815" flag="0"/>
      <vel value="0.0069204027" flag="0"/>
      <psa03 value="0.0276867468" flag="0"/>
      <psa10 value="0.0059606891" flag="0"/>
      <psa30 value="0.0006913772" flag="0"/>
    </comp>
    <comp name="--.HHE">
      <acc value="0.0183375752" flag="0"/>
      <vel value="0.0092417378" flag="0"/>
      <psa03 value="0.0388173263" flag="0"/>
      <psa10 value="0.0108271548" flag="0"/>
      <psa30 value="0.0005912537" flag="0"/>
    </comp>
  </station>
  <station code="THAL" name="THAL" netid="HA" insttype="30" lat="38.0357" lon="22.6634">
    <comp name="--.HHN">
      <acc value="0.0468970316" flag="0"/>
      <vel value="0.0160974396" flag="0"/>
      <psa03 value="0.0798631616" flag="0"/>
      <psa10 value="0.0129984425" flag="0"/>
      <psa30 value="0.0007070699" flag="0"/>
    </comp>
    <comp name="--.HHE">
      <acc value="0.0402400687" flag="0"/>
      <vel value="0.0154751184" flag="0"/>
      <psa03 value="0.0980185189" flag="0"/>
      <psa10 value="0.0160767332" flag="0"/>
      <psa30 value="0.0007169089" flag="0"/>
    </comp>
    <comp name="--.HHZ">
      <acc value="0.0224003536" flag="0"/>
      <vel value="0.0070133253" flag="0"/>
      <psa03 value="0.0363040541" flag="0"/>
      <psa10 value="0.0079522704" flag="0"/>
      <psa30 value="0.0003350592" flag="0"/>
    </comp>
  </station>
  <station code="KLV1" name="KLV1" netid="HI" insttype="CMG-5TD,ACCELEROMETER,GURALP" lat="38.0326" lon="22.108">
    <comp name="--.HNN">
      <acc value="0.0814725177" flag="0"/>
      <vel value="0.0347111119" flag="0"/>
      <psa03 value="0.2088570204" flag="0"/>
      <psa10 value="0.0203204737" flag="0"/>
      <psa30 value="0.0009429427" flag="0"/>
    </comp>
    <comp name="--.HNZ">
      <acc value="0.0366167284" flag="0"/>
      <vel value="0.0156640648" flag="0"/>
      <psa03 value="0.0635367552" flag="0"/>
      <psa10 value="0.0118480941" flag="0"/>
      <psa30 value="0.0006198581" flag="0"/>
    </comp>
    <comp name="--.HNE">
      <acc value="0.0536650133" flag="0"/>
      <vel value="0.0293701649" flag="0"/>
      <psa03 value="0.1369081378" flag="0"/>
      <psa10 value="0.0214997449" flag="0"/>
      <psa30 value="0.0011659164" flag="0"/>
    </comp>
  </station>
  <station code="LAM2" name="LAM2" netid="HI" insttype="CMG-5TD,ACCELEROMETER,GURALP" lat="38.902" lon="22.4313">
    <comp name="--.HNZ">
      <acc value="0.1435566992" flag="0"/>
      <vel value="0.0258203528" flag="0"/>
      <psa03 value="0.0546164217" flag="0"/>
      <psa10 value="0.0089329436" flag="0"/>
      <psa30 value="0.0009577609" flag="0"/>
    </comp>
    <comp name="--.HNN">
      <acc value="0.1820340437" flag="0"/>
      <vel value="0.0545531396" flag="0"/>
      <psa03 value="0.2273005926" flag="0"/>
      <psa10 value="0.0297969181" flag="0"/>
      <psa30 value="0.0016041262" flag="0"/>
    </comp>
    <comp name="--.HNE">
      <acc value="0.1288392427" flag="0"/>
      <vel value="0.0384241778" flag="0"/>
      <psa03 value="0.1517685766" flag="0"/>
      <psa10 value="0.0128939746" flag="0"/>
      <psa30 value="0.0014612917" flag="0"/>
    </comp>
  </station>
  <station code="MSL1" name="MSL1" netid="HI" insttype="CMG-5TD,ACCELEROMETER,GURALP" lat="38.3727" lon="21.4243">
    <comp name="--.HNN">
      <acc value="0.0326307296" flag="0"/>
      <vel value="0.0419712885" flag="0"/>
      <psa03 value="0.1165676462" flag="0"/>
      <psa10 value="0.0625302909" flag="0"/>
      <psa30 value="0.0033609611" flag="0"/>
    </comp>
    <comp name="--.HNE">
      <acc value="0.0369313953" flag="0"/>
      <vel value="0.0385490773" flag="0"/>
      <psa03 value="0.1095997453" flag="0"/>
      <psa10 value="0.0483791200" flag="0"/>
      <psa30 value="0.0044526012" flag="0"/>
    </comp>
    <comp name="--.HNZ">
      <acc value="0.0211685337" flag="0"/>
      <vel value="0.0158414059" flag="0"/>
      <psa03 value="0.0382628292" flag="0"/>
      <psa10 value="0.0284317817" flag="0"/>
      <psa30 value="0.0012378368" flag="0"/>
    </comp>
  </station>
  <station code="EVR" name="EVR" netid="HL" insttype="DR24" lat="38.9166" lon="21.8105">
    <comp name="--.HHE">
      <acc value="0.1920347843" flag="0"/>
      <vel value="0.0603762845" flag="0"/>
      <psa03 value="0.1263118560" flag="0"/>
      <psa10 value="0.0744288494" flag="0"/>
      <psa30 value="0.0058265706" flag="0"/>
    </comp>
    <comp name="--.HHZ">
      <acc value="0.1391718815" flag="0"/>
      <vel value="0.0361682169" flag="0"/>
      <psa03 value="0.1605975859" flag="0"/>
      <psa10 value="0.0327248831" flag="0"/>
      <psa30 value="0.0036148430" flag="0"/>
    </comp>
    <comp name="--.HHN">
      <acc value="0.1751839506" flag="0"/>
      <vel value="0.0440272125" flag="0"/>
      <psa03 value="0.1369484175" flag="0"/>
      <psa10 value="0.0499616632" flag="0"/>
      <psa30 value="0.0038652537" flag="0"/>
    </comp>
  </station>
  <station code="JAN" name="JAN" netid="HL" insttype="CMG3EPSC60_DR24" lat="39.6562" lon="20.8487">
    <comp name="--.HHZ">
      <acc value="0.0030039023" flag="0"/>
      <vel value="0.0026808681" flag="0"/>
      <psa03 value="0.0067931038" flag="0"/>
      <psa10 value="0.0021380514" flag="0"/>
      <psa30 value="0.0002559834" flag="0"/>
    </comp>
    <comp name="--.HHN">
      <acc value="0.0047624449" flag="0"/>
      <vel value="0.0034110150" flag="0"/>
      <psa03 value="0.0144867526" flag="0"/>
      <psa10 value="0.0048884936" flag="0"/>
      <psa30 value="0.0003858221" flag="0"/>
    </comp>
    <comp name="--.HHE">
      <acc value="0.0053139156" flag="0"/>
      <vel value="0.0045778739" flag="0"/>
      <psa03 value="0.0148043414" flag="0"/>
      <psa10 value="0.0064790625" flag="0"/>
      <psa30 value="0.0005386329" flag="0"/>
    </comp>
  </station>
  <station code="KLV" name="KLV" netid="HL" insttype="120" lat="38.0435" lon="22.1504">
    <comp name="--.HHN">
      <acc value="0.0132452941" flag="0"/>
      <vel value="0.0063583740" flag="0"/>
      <psa03 value="0.0326837582" flag="0"/>
      <psa10 value="0.0103256419" flag="0"/>
      <psa30 value="0.0004661838" flag="0"/>
    </comp>
    <comp name="--.HHZ">
      <acc value="0.0163108522" flag="0"/>
      <vel value="0.0068092152" flag="0"/>
      <psa03 value="0.0274548619" flag="0"/>
      <psa10 value="0.0066943442" flag="0"/>
      <psa30 value="0.0004985952" flag="0"/>
    </comp>
    <comp name="--.HHE">
      <acc value="0.0160467346" flag="0"/>
      <vel value="0.0074274153" flag="0"/>
      <psa03 value="0.0477770634" flag="0"/>
      <psa10 value="0.0053933975" flag="0"/>
      <psa30 value="0.0006031100" flag="0"/>
    </comp>
  </station>
  <station code="NEO" name="NEO" netid="HL" insttype="120" lat="39.3057" lon="23.2219">
    <comp name="--.HHN">
      <acc value="0.0132352124" flag="0"/>
      <vel value="0.0076239430" flag="0"/>
      <psa03 value="0.0321683493" flag="0"/>
      <psa10 value="0.0081822450" flag="0"/>
      <psa30 value="0.0010106956" flag="0"/>
    </comp>
    <comp name="--.HHE">
      <acc value="0.0114176747" flag="0"/>
      <vel value="0.0070680458" flag="0"/>
      <psa03 value="0.0158846492" flag="0"/>
      <psa10 value="0.0080309138" flag="0"/>
      <psa30 value="0.0004582130" flag="0"/>
    </comp>
    <comp name="--.HHZ">
      <acc value="0.0093951949" flag="0"/>
      <vel value="0.0045665310" flag="0"/>
      <psa03 value="0.0101407449" flag="0"/>
      <psa10 value="0.0064464210" flag="0"/>
      <psa30 value="0.0004514186" flag="0"/>
    </comp>
  </station>
  <station code="RLS" name="RLS" netid="HL" insttype="CMG3ESPC-120s" lat="38.0559" lon="21.4647">
    <comp name="--.HHN">
      <acc value="0.0121246508" flag="0"/>
      <vel value="0.0051684778" flag="0"/>
      <psa03 value="0.0473197562" flag="0"/>
      <psa10 value="0.0055802198" flag="0"/>
      <psa30 value="0.0005810544" flag="0"/>
    </comp>
    <comp name="--.HHE">
      <acc value="0.0110764224" flag="0"/>
      <vel value="0.0053352346" flag="0"/>
      <psa03 value="0.0321518764" flag="0"/>
      <psa10 value="0.0118251441" flag="0"/>
      <psa30 value="0.0004147232" flag="0"/>
    </comp>
    <comp name="--.HHZ">
      <acc value="0.0049334185" flag="0"/>
      <vel value="0.0035462971" flag="0"/>
      <psa03 value="0.0168387228" flag="0"/>
      <psa10 value="0.0043494843" flag="0"/>
      <psa30 value="0.0003840208" flag="0"/>
    </comp>
  </station>
  <station code="TETR" name="TETR" netid="HL" insttype="60" lat="39.3445" lon="21.2747">
    <comp name="--.HHE">
      <acc value="0.0822839500" flag="0"/>
      <vel value="0.0157881129" flag="0"/>
      <psa03 value="0.0665547127" flag="0"/>
      <psa10 value="0.0219857643" flag="0"/>
      <psa30 value="0.0007499793" flag="0"/>
    </comp>
    <comp name="--.HHZ">
      <acc value="0.0201490636" flag="0"/>
      <vel value="0.0042803424" flag="0"/>
      <psa03 value="0.0204873329" flag="0"/>
      <psa10 value="0.0068192021" flag="0"/>
      <psa30 value="0.0004633699" flag="0"/>
    </comp>
    <comp name="--.HHN">
      <acc value="0.0769441246" flag="0"/>
      <vel value="0.0144309146" flag="0"/>
      <psa03 value="0.0373532780" flag="0"/>
      <psa10 value="0.0130823277" flag="0"/>
      <psa30 value="0.0008315314" flag="0"/>
    </comp>
  </station>
  <station code="THL" name="THL" netid="HL" insttype="120" lat="39.5647" lon="22.0144">
    <comp name="--.HHZ">
      <acc value="0.0095536316" flag="0"/>
      <vel value="0.0035843576" flag="0"/>
      <psa03 value="0.0144443933" flag="0"/>
      <psa10 value="0.0045406366" flag="0"/>
      <psa30 value="0.0008020306" flag="0"/>
    </comp>
    <comp name="--.HHN">
      <acc value="0.0127637315" flag="0"/>
      <vel value="0.0051167890" flag="0"/>
      <psa03 value="0.0124341582" flag="0"/>
      <psa10 value="0.0047759533" flag="0"/>
      <psa30 value="0.0006703277" flag="0"/>
    </comp>
    <comp name="--.HHE">
      <acc value="0.0127627562" flag="0"/>
      <vel value="0.0050246389" flag="0"/>
      <psa03 value="0.0134946796" flag="0"/>
      <psa10 value="0.0062260569" flag="0"/>
      <psa30 value="0.0005975322" flag="0"/>
    </comp>
  </station>
  <station code="AMPL" name="AMPL" netid="HP" insttype="Compact," lat="38.9224" lon="21.2135">
    <comp name="--.HHE">
      <acc value="0.0255390126" flag="0"/>
      <vel value="0.0119395481" flag="0"/>
      <psa03 value="0.0386643613" flag="0"/>
      <psa10 value="0.0139266487" flag="0"/>
      <psa30 value="0.0011346348" flag="0"/>
    </comp>
    <comp name="--.HHN">
      <acc value="0.0335629366" flag="0"/>
      <vel value="0.0080115924" flag="0"/>
      <psa03 value="0.0288390017" flag="0"/>
      <psa10 value="0.0068205003" flag="0"/>
      <psa30 value="0.0009446757" flag="0"/>
    </comp>
    <comp name="--.HHZ">
      <acc value="0.0146572990" flag="0"/>
      <vel value="0.0054301957" flag="0"/>
      <psa03 value="0.0184682787" flag="0"/>
      <psa10 value="0.0050736020" flag="0"/>
      <psa30 value="0.0010380523" flag="0"/>
    </comp>
  </station>
  <station code="ANX" name="ANX" netid="HP" insttype="120" lat="38.5933" lon="21.9209">
    <comp name="--.HHZ">
      <acc value="0.1685127783" flag="0"/>
      <vel value="0.0729022685" flag="0"/>
      <psa03 value="0.4524242816" flag="0"/>
      <psa10 value="0.0749298397" flag="0"/>
      <psa30 value="0.0034150375" flag="0"/>
    </comp>
    <comp name="--.HHN">
      <acc value="0.3519478594" flag="0"/>
      <vel value="0.1777895558" flag="0"/>
      <psa03 value="1.0401193074" flag="0"/>
      <psa10 value="0.0946065303" flag="0"/>
      <psa30 value="0.0046032490" flag="0"/>
    </comp>
    <comp name="--.HHE">
      <acc value="0.4175230988" flag="0"/>
      <vel value="0.1397079603" flag="0"/>
      <psa03 value="0.7570649515" flag="0"/>
      <psa10 value="0.0854409050" flag="0"/>
      <psa30 value="0.0038280209" flag="0"/>
    </comp>
  </station>
  <station code="AXS" name="AXS" netid="HP" insttype="40," lat="38.1962" lon="21.3763">
    <comp name="--.HHE">
      <acc value="0.0140796497" flag="0"/>
      <vel value="0.0101119090" flag="0"/>
      <psa03 value="0.0523857333" flag="0"/>
      <psa10 value="0.0088333224" flag="0"/>
      <psa30 value="0.0004118241" flag="0"/>
    </comp>
    <comp name="--.HHN">
      <acc value="0.0126923459" flag="0"/>
      <vel value="0.0087347592" flag="0"/>
      <psa03 value="0.0379697044" flag="0"/>
      <psa10 value="0.0080078862" flag="0"/>
      <psa30 value="0.0004872208" flag="0"/>
    </comp>
    <comp name="--.HHZ">
      <acc value="0.0065644063" flag="0"/>
      <vel value="0.0046545980" flag="0"/>
      <psa03 value="0.0224014512" flag="0"/>
      <psa10 value="0.0056188018" flag="0"/>
      <psa30 value="0.0005162569" flag="0"/>
    </comp>
  </station>
  <station code="EFP" name="EFP" netid="HP" insttype="40," lat="38.4269" lon="21.9058">
    <comp name="--.HHN">
      <acc value="0.2531605300" flag="0"/>
      <vel value="0.1004207935" flag="0"/>
      <psa03 value="0.9577528586" flag="0"/>
      <psa10 value="0.0455846052" flag="0"/>
      <psa30 value="0.0027378765" flag="0"/>
    </comp>
    <comp name="--.HHZ">
      <acc value="0.1213009309" flag="0"/>
      <vel value="0.0520021968" flag="0"/>
      <psa03 value="0.4040122217" flag="0"/>
      <psa10 value="0.0257471039" flag="0"/>
      <psa30 value="0.0013547510" flag="0"/>
    </comp>
    <comp name="--.HHE">
      <acc value="0.2261760767" flag="0"/>
      <vel value="0.0786856569" flag="0"/>
      <psa03 value="0.5955419498" flag="0"/>
      <psa10 value="0.0419501112" flag="0"/>
      <psa30 value="0.0037710933" flag="0"/>
    </comp>
  </station>
  <station code="GUR" name="GUR" netid="HP" insttype="40," lat="37.9363" lon="22.3423">
    <comp name="--.HHZ">
      <acc value="0.0130243147" flag="0"/>
      <vel value="0.0060905815" flag="0"/>
      <psa03 value="0.0350496199" flag="0"/>
      <psa10 value="0.0032274618" flag="0"/>
      <psa30 value="0.0002503056" flag="0"/>
    </comp>
    <comp name="--.HHN">
      <acc value="0.0282841628" flag="0"/>
      <vel value="0.0140708291" flag="0"/>
      <psa03 value="0.1205918800" flag="0"/>
      <psa10 value="0.0072821994" flag="0"/>
      <psa30 value="0.0005450968" flag="0"/>
    </comp>
    <comp name="--.HHE">
      <acc value="0.0208322486" flag="0"/>
      <vel value="0.0127354314" flag="0"/>
      <psa03 value="0.0713906543" flag="0"/>
      <psa10 value="0.0060798693" flag="0"/>
      <psa30 value="0.0005241915" flag="0"/>
    </comp>
  </station>
  <station code="KANL" name="KANL" netid="HP" insttype="" lat="39.8334" lon="22.0247">
    <comp name="--.HHZ">
      <acc value="0.0080401388" flag="0"/>
      <vel value="0.0054372887" flag="0"/>
      <psa03 value="0.0154169959" flag="0"/>
      <psa10 value="0.0075778777" flag="0"/>
      <psa30 value="0.0005894176" flag="0"/>
    </comp>
    <comp name="--.HHE">
      <acc value="0.0122106705" flag="0"/>
      <vel value="0.0063867374" flag="0"/>
      <psa03 value="0.0251463226" flag="0"/>
      <psa10 value="0.0086089559" flag="0"/>
      <psa30 value="0.0004759174" flag="0"/>
    </comp>
  </station>
  <station code="PDO" name="PDO" netid="HP" insttype="120s" lat="38.5986" lon="21.1833">
    <comp name="--.HHE">
      <acc value="0.0466157312" flag="0"/>
      <vel value="0.0243075186" flag="0"/>
      <psa03 value="0.1269181319" flag="0"/>
      <psa10 value="0.0110399594" flag="0"/>
      <psa30 value="0.0010648648" flag="0"/>
    </comp>
    <comp name="--.HHZ">
      <acc value="0.0307091605" flag="0"/>
      <vel value="0.0105361585" flag="0"/>
      <psa03 value="0.0465120142" flag="0"/>
      <psa10 value="0.0100739841" flag="0"/>
      <psa30 value="0.0006750249" flag="0"/>
    </comp>
    <comp name="--.HHN">
      <acc value="0.0794537784" flag="0"/>
      <vel value="0.0314290538" flag="0"/>
