<?xml version="1.0" encoding="UTF-8" standalone="yes"?>
<!DOCTYPE earthquake SYSTEM "stationlist.dtd">
<stationlist created="" xmlns="ch.ethz.sed.shakemap.usgs.xml">
  <station code="KBN" name="KBN" netid="AC" source="INGV" insttype="" lat="40.6236" lon="20.7874">
    <comp name="--.HHE">
      <acc value="1.3470376075" flag="0"/>
      <vel value="0.5771954455" flag="0"/>
      <psa03 value="3.1103741031" flag="0"/>
      <psa10 value="0.6065758601" flag="0"/>
      <psa30 value="0.0578875813" flag="0"/>
    </comp>
    <comp name="--.HHN">
      <acc value="1.3042989362" flag="0"/>
      <vel value="0.5368780793" flag="0"/>
      <psa03 value="1.6653609912" flag="0"/>
      <psa10 value="0.6320566630" flag="0"/>
      <psa30 value="0.0485626053" flag="0"/>
    </comp>
    <comp name="--.HHZ">
      <acc value="0.7791325002" flag="0"/>
      <vel value="0.3062683196" flag="0"/>
      <psa03 value="1.2646933666" flag="0"/>
      <psa10 value="0.4571170033" flag="0"/>
      <psa30 value="0.0232660531" flag="0"/>
    </comp>
  </station>
  <station code="VLO" name="VLO" netid="AC" source="INGV" insttype="" lat="40.4686" lon="19.4955">
    <comp name="--.HHN">
      <acc value="0.1172658969" flag="0"/>
      <vel value="0.1200804018" flag="0"/>
      <psa03 value="0.2551308692" flag="0"/>
      <psa10 value="0.1827869397" flag="0"/>
      <psa30 value="0.0119337288" flag="0"/>
    </comp>
    <comp name="--.HHE">
      <acc value="0.0866476858" flag="0"/>
      <vel value="0.0586851702" flag="0"/>
      <psa03 value="0.2890382034" flag="0"/>
      <psa10 value="0.0769957105" flag="0"/>
      <psa30 value="0.0071077336" flag="0"/>
    </comp>
    <comp name="--.HHZ">
      <acc value="0.0517928848" flag="0"/>
      <vel value="0.0347445930" flag="0"/>
      <psa03 value="0.1082812701" flag="0"/>
      <psa10 value="0.0449708715" flag="0"/>
      <psa30 value="0.0088016788" flag="0"/>
    </comp>
  </station>
  <station code="KRK1" name="KRK1" netid="HI" source="NOA" insttype="CMG-5TD,ACCELEROMETER,GURALP" lat="39.6189" lon="19.9202">
    <comp name="--.HNN">
      <acc value="0.1300834508" flag="0"/>
      <vel value="0.0792246639" flag="0"/>
      <psa03 value="0.3073327204" flag="0"/>
      <psa10 value="0.0790205068" flag="0"/>
      <psa30 value="0.0053116217" flag="0"/>
    </comp>
    <comp name="--.HNZ">
      <acc value="0.0984202039" flag="0"/>
      <vel value="0.0406648417" flag="0"/>
      <psa03 value="0.4408319576" flag="0"/>
      <psa10 value="0.0379949868" flag="0"/>
      <psa30 value="0.0039193856" flag="0"/>
    </comp>
    <comp name="--.HNE">
      <acc value="0.1335346037" flag="0"/>
      <vel value="0.0856359477" flag="0"/>
      <psa03 value="0.3649282065" flag="0"/>
      <psa10 value="0.0626451306" flag="0"/>
      <psa30 value="0.0063841993" flag="0"/>
    </comp>
  </station>
  <station code="LMS2" name="LMS2" netid="HI" source="NOA" insttype="CMG-5TD,ACCELEROMETER,GURALP" lat="40.835" lon="21.1418">
    <comp name="--.HNE">
      <acc value="0.5560771709" flag="0"/>
      <vel value="0.1891408423" flag="0"/>
      <psa03 value="0.7174040579" flag="0"/>
      <psa10 value="0.0916589676" flag="0"/>
      <psa30 value="0.0067649233" flag="0"/>
    </comp>
    <comp name="--.HNN">
      <acc value="0.5075807406" flag="0"/>
      <vel value="0.2181499433" flag="0"/>
      <psa03 value="0.7919846142" flag="0"/>
      <psa10 value="0.1738235612" flag="0"/>
      <psa30 value="0.0076800332" flag="0"/>
    </comp>
    <comp name="--.HNZ">
      <acc value="0.2555626141" flag="0"/>
      <vel value="0.1136406062" flag="0"/>
      <psa03 value="0.3411596648" flag="0"/>
      <psa10 value="0.1174016368" flag="0"/>
      <psa30 value="0.0077611258" flag="0"/>
    </comp>
  </station>
  <station code="JAN" name="JAN" netid="HL" source="NOA" insttype="CMG3EPSC60_DR24" lat="39.6562" lon="20.8487">
    <comp name="--.HHE">
      <acc value="0.1294320850" flag="0"/>
      <vel value="0.0580178139" flag="0"/>
      <psa03 value="0.1832381179" flag="0"/>
      <psa10 value="0.0723750268" flag="0"/>
      <psa30 value="0.0054358806" flag="0"/>
    </comp>
    <comp name="--.HHN">
      <acc value="0.1175931441" flag="0"/>
      <vel value="0.0435367277" flag="0"/>
      <psa03 value="0.2056589797" flag="0"/>
      <psa10 value="0.0755813343" flag="0"/>
      <psa30 value="0.0039527095" flag="0"/>
    </comp>
    <comp name="--.HHZ">
      <acc value="0.0516100825" flag="0"/>
      <vel value="0.0250025260" flag="0"/>
      <psa03 value="0.0877066306" flag="0"/>
      <psa10 value="0.0290719683" flag="0"/>
      <psa30 value="0.0034288470" flag="0"/>
    </comp>
  </station>
  <station code="KEK" name="KEK" netid="HL" source="NOA" insttype="120" lat="39.7127" lon="19.7962">
    <comp name="--.HHE">
      <acc value="0.0334472424" flag="0"/>
      <vel value="0.0283920292" flag="0"/>
      <psa03 value="0.1158175302" flag="0"/>
      <psa10 value="0.0526689182" flag="0"/>
      <psa30 value="0.0036943544" flag="0"/>
    </comp>
    <comp name="--.HHN">
      <acc value="0.0346775358" flag="0"/>
      <vel value="0.0299017990" flag="0"/>
      <psa03 value="0.0788235449" flag="0"/>
      <psa10 value="0.0333011084" flag="0"/>
      <psa30 value="0.0030734066" flag="0"/>
    </comp>
    <comp name="--.HHZ">
      <acc value="0.0217684091" flag="0"/>
      <vel value="0.0141406034" flag="0"/>
      <psa03 value="0.0517862498" flag="0"/>
      <psa10 value="0.0171987442" flag="0"/>
      <psa30 value="0.0014133058" flag="0"/>
    </comp>
  </station>
  <station code="KZN" name="KZN" netid="HL" source="NOA" insttype="120" lat="40.3033" lon="21.7821">
    <comp name="--.HHE">
      <acc value="0.1522897675" flag="0"/>
      <vel value="0.0671647110" flag="0"/>
      <psa03 value="0.2123228144" flag="0"/>
      <psa10 value="0.0571317675" flag="0"/>
      <psa30 value="0.0054318902" flag="0"/>
    </comp>
    <comp name="--.HHN">
      <acc value="0.1349873821" flag="0"/>
      <vel value="0.0482695130" flag="0"/>
      <psa03 value="0.1651304913" flag="0"/>
      <psa10 value="0.0449495099" flag="0"/>
      <psa30 value="0.0036297004" flag="0"/>
    </comp>
    <comp name="--.HHZ">
      <acc value="0.0766108285" flag="0"/>
      <vel value="0.0390556199" flag="0"/>
      <psa03 value="0.1040930756" flag="0"/>
      <psa10 value="0.0360945219" flag="0"/>
      <psa30 value="0.0032916071" flag="0"/>
    </comp>
  </station>
  <station code="PENT" name="PENT" netid="HL" source="NOA" insttype="30" lat="40.1959" lon="21.1384">
    <comp name="--.HHE">
      <acc value="0.4133027771" flag="0"/>
      <vel value="0.1459825297" flag="0"/>
      <psa03 value="0.6967558410" flag="0"/>
      <psa10 value="0.0768555122" flag="0"/>
      <psa30 value="0.0106552339" flag="0"/>
    </comp>
    <comp name="--.HHN">
      <acc value="0.0299285049" flag="0"/>
      <vel value="0.0074550460" flag="0"/>
      <psa03 value="0.0384032069" flag="0"/>
      <psa10 value="0.0038076179" flag="0"/>
      <psa30 value="0.0005649083" flag="0"/>
    </comp>
    <comp name="--.HHZ">
      <acc value="0.3333611581" flag="0"/>
      <vel value="0.1255888984" flag="0"/>
      <psa03 value="0.4490807810" flag="0"/>
      <psa10 value="0.0893286817" flag="0"/>
      <psa30 value="0.0094662602" flag="0"/>
    </comp>
  </station>
  <station code="TETR" name="TETR" netid="HL" source="NOA" insttype="60" lat="39.3445" lon="21.2747">
    <comp name="--.HHE">
      <acc value="0.1558362370" flag="0"/>
      <vel value="0.0848341000" flag="0"/>
      <psa03 value="0.2235813752" flag="0"/>
      <psa10 value="0.0918216711" flag="0"/>
      <psa30 value="0.0075664416" flag="0"/>
    </comp>
    <comp name="--.HHN">
      <acc value="0.1517515818" flag="0"/>
      <vel value="0.0605563027" flag="0"/>
      <psa03 value="0.1560658854" flag="0"/>
      <psa10 value="0.1296824835" flag="0"/>
      <psa30 value="0.0083559842" flag="0"/>
    </comp>
    <comp name="--.HHZ">
      <acc value="0.0431198412" flag="0"/>
      <vel value="0.0286621771" flag="0"/>
      <psa03 value="0.0746394704" flag="0"/>
      <psa10 value="0.0443355595" flag="0"/>
      <psa30 value="0.0046879310" flag="0"/>
    </comp>
  </station>
  <station code="THL" name="THL" netid="HL" source="NOA" insttype="120" lat="39.5647" lon="22.0144">
    <comp name="--.HHE">
      <acc value="0.0318766249" flag="0"/>
      <vel value="0.0155139199" flag="0"/>
      <psa03 value="0.0323408289" flag="0"/>
      <psa10 value="0.0303661661" flag="0"/>
      <psa30 value="0.0014689621" flag="0"/>
    </comp>
    <comp name="--.HHN">
      <acc value="0.0294446342" flag="0"/>
      <vel value="0.0181362504" flag="0"/>
      <psa03 value="0.0315894296" flag="0"/>
      <psa10 value="0.0302233441" flag="0"/>
      <psa30 value="0.0015464813" flag="0"/>
    </comp>
    <comp name="--.HHZ">
      <acc value="0.0192853154" flag="0"/>
      <vel value="0.0122260061" flag="0"/>
      <psa03 value="0.0242353544" flag="0"/>
      <psa10 value="0.0162390871" flag="0"/>
      <psa30 value="0.0019218389" flag="0"/>
    </comp>
  </station>
  <station code="PRMD" name="PRMD" netid="HP" source="NOA" insttype="120P," lat="39.5299" lon="21.0965">
    <comp name="--.HHE">
      <acc value="0.0521638043" flag="0"/>
      <vel value="0.0401016500" flag="0"/>
      <psa03 value="0.0997398256" flag="0"/>
      <psa10 value="0.0864968499" flag="0"/>
      <psa30 value="0.0084468246" flag="0"/>
    </comp>
    <comp name="--.HHN">
      <acc value="0.0505037982" flag="0"/>
      <vel value="0.0433253621" flag="0"/>
      <psa03 value="0.1376875088" flag="0"/>
      <psa10 value="0.0546275502" flag="0"/>
      <psa30 value="0.0047759058" flag="0"/>
    </comp>
    <comp name="--.HHZ">
      <acc value="0.0384763831" flag="0"/>
      <vel value="0.0298492378" flag="0"/>
      <psa03 value="0.0626873899" flag="0"/>
      <psa10 value="0.0451892528" flag="0"/>
      <psa30 value="0.0063885346" flag="0"/>
    </comp>
  </station>
  <station code="IGT" name="IGT" netid="HT" source="NOA" insttype="100" lat="39.5315" lon="20.3299">
    <comp name="--.HHE">
      <acc value="0.0401028815" flag="0"/>
      <vel value="0.0380127553" flag="0"/>
      <psa03 value="0.0910869519" flag="0"/>
      <psa10 value="0.0570489898" flag="0"/>
      <psa30 value="0.0037317887" flag="0"/>
    </comp>
    <comp name="--.HHN">
      <acc value="0.0369296065" flag="0"/>
      <vel value="0.0369106792" flag="0"/>
      <psa03 value="0.0726234361" flag="0"/>
      <psa10 value="0.0587117802" flag="0"/>
      <psa30 value="0.0048075156" flag="0"/>
    </comp>
    <comp name="--.HHZ">
      <acc value="0.0319298057" flag="0"/>
      <vel value="0.0314296662" flag="0"/>
      <psa03 value="0.0618647341" flag="0"/>
      <psa10 value="0.0374056216" flag="0"/>
      <psa30 value="0.0041100803" flag="0"/>
    </comp>
  </station>
  <station code="NEST" name="NEST" netid="HT" source="NOA" insttype="120P," lat="40.4147" lon="21.0489">
    <comp name="--.HHE">
      <acc value="0.6565893739" flag="0"/>
      <vel value="0.2998124704" flag="0"/>
      <psa03 value="0.7750590210" flag="0"/>
      <psa10 value="0.1819114020" flag="0"/>
      <psa30 value="0.0217487173" flag="0"/>
    </comp>
    <comp name="--.HHN">
      <acc value="0.7401821414" flag="0"/>
      <vel value="0.4224589417" flag="0"/>
      <psa03 value="1.3704729531" flag="0"/>
      <psa10 value="0.2348588299" flag="0"/>
      <psa30 value="0.0282759356" flag="0"/>
    </comp>
    <comp name="--.HHZ">
      <acc value="0.9634592381" flag="0"/>
      <vel value="0.2401273911" flag="0"/>
      <psa03 value="1.1768471981" flag="0"/>
      <psa10 value="0.1398801925" flag="0"/>
      <psa30 value="0.0147103426" flag="0"/>
    </comp>
  </station>
  <station code="KEK" name="KEK" netid="MN" source="INGV" insttype="" lat="39.7127" lon="19.7962">
    <comp name="--.HHE">
      <acc value="0.0334472192" flag="0"/>
      <vel value="0.0283920095" flag="0"/>
      <psa03 value="0.1158174500" flag="0"/>
      <psa10 value="0.0526688817" flag="0"/>
      <psa30 value="0.0036943518" flag="0"/>
    </comp>
    <comp name="--.HHN">
      <acc value="0.0346775118" flag="0"/>
      <vel value="0.0299017783" flag="0"/>
      <psa03 value="0.0788234903" flag="0"/>
      <psa10 value="0.0333010853" flag="0"/>
      <psa30 value="0.0030734044" flag="0"/>
    </comp>
    <comp name="--.HHZ">
      <acc value="0.0217683940" flag="0"/>
      <vel value="0.0141405936" flag="0"/>
      <psa03 value="0.0517862139" flag="0"/>
      <psa10 value="0.0171987323" flag="0"/>
      <psa30 value="0.0014133048" flag="0"/>
    </comp>
  </station>
  <station code="THL" name="THL" netid="MN" source="INGV" insttype="" lat="39.5647" lon="22.0144">
    <comp name="--.HHE">
      <acc value="0.0066695788" flag="0"/>
      <vel value="0.0032459933" flag="0"/>
      <psa03 value="0.0067667047" flag="0"/>
      <psa10 value="0.0063535440" flag="0"/>
      <psa30 value="0.0003073524" flag="0"/>
    </comp>
    <comp name="--.HHN">
      <acc value="0.0061607309" flag="0"/>
      <vel value="0.0037946662" flag="0"/>
      <psa03 value="0.0066094886" flag="0"/>
      <psa10 value="0.0063236612" flag="0"/>
      <psa30 value="0.0003235719" flag="0"/>
    </comp>
    <comp name="--.HHZ">
      <acc value="0.0040350862" flag="0"/>
      <vel value="0.0025580597" flag="0"/>
      <psa03 value="0.0050707880" flag="0"/>
      <psa10 value="0.0033977208" flag="0"/>
      <psa30 value="0.0004021083" flag="0"/>
    </comp>
  </station>
  <station code="TIR" name="TIR" netid="MN" source="INGV" insttype="" lat="41.3472" lon="19.8631">
    <comp name="--.HHN">
      <acc value="0.0338655465" flag="0"/>
      <vel value="0.0261104591" flag="0"/>
      <psa03 value="0.0740917751" flag="0"/>
      <psa10 value="0.0512405065" flag="0"/>
      <psa30 value="0.0084706131" flag="0"/>
    </comp>
    <comp name="--.HHZ">
      <acc value="0.0220300186" flag="0"/>
      <vel value="0.0231459988" flag="0"/>
      <psa03 value="0.0674039825" flag="0"/>
      <psa10 value="0.0275596311" flag="0"/>
      <psa30 value="0.0099900531" flag="0"/>
    </comp>
    <comp name="--.HHE">
      <acc value="0.0358356567" flag="0"/>
      <vel value="0.0428644916" flag="0"/>
      <psa03 value="0.0953798878" flag="0"/>
      <psa10 value="0.0780217466" flag="0"/>
      <psa30 value="0.0067927951" flag="0"/>
    </comp>
  </station>
</stationlist>
