<stationlist xmlns:esm="https://esm-db.eu/esmws/shakemap/1/" created="1780710914">
	<station code="ROD3" name="ROD3" netid="CL" source="Corinth Riff Laboratory (CRLNET)" insttype="" lat="38.30811" lon="21.89204" esm:processing="manual (Paolucci et al 2011)" esm:quality="good">
		<comp name="00.HNE" depth="0.0">
			<acc value="0.0148196368756397" flag="0"/>
			<vel value="0.0182360949330584" flag="0"/>
			<psa03 value="0.0489927162470076" flag="0"/>
			<psa10 value="0.0311150727485447" flag="0"/>
			<psa30 value="0.00405453876374779" flag="0"/>
		</comp>
		<comp name="00.HNN" depth="0.0">
			<acc value="0.0149603808753146" flag="0"/>
			<vel value="0.0158325070439484" flag="0"/>
			<psa03 value="0.0623258938192526" flag="0"/>
			<psa10 value="0.0226346349061175" flag="0"/>
			<psa30 value="0.00475654398558847" flag="0"/>
		</comp>
		<comp name="00.HNZ" depth="0.0">
			<acc value="0.00841474826488015" flag="0"/>
			<vel value="0.0076951153303421" flag="0"/>
			<psa03 value="0.0188364689862924" flag="0"/>
			<psa10 value="0.0173192607598668" flag="0"/>
			<psa30 value="0.00164114413875821" flag="0"/>
		</comp>
	</station>
	<station code="AIA1" name="AIA1" netid="HI" source="ITSAK Strong Motion Network" insttype="" lat="40.1641" lon="21.8202" esm:processing="automatic (Paolucci et al 2011)" esm:quality="best">
		<comp name="--.HNE" depth="0.0">
			<acc value="0.0620204661894249" flag="0"/>
			<vel value="0.028267657209325" flag="0"/>
			<psa03 value="0.112964993793102" flag="0"/>
			<psa10 value="0.0371722224773073" flag="0"/>
			<psa30 value="0.00972858447097578" flag="0"/>
		</comp>
		<comp name="--.HNN" depth="0.0">
			<acc value="0.0431411746844962" flag="0"/>
			<vel value="0.0398032706964594" flag="0"/>
			<psa03 value="0.0793099466030627" flag="0"/>
			<psa10 value="0.0561945851154752" flag="0"/>
			<psa30 value="0.00706542388299028" flag="0"/>
		</comp>
		<comp name="--.HNZ" depth="0.0">
			<acc value="0.0295208357941277" flag="0"/>
			<vel value="0.024314349245862" flag="0"/>
			<psa03 value="0.0608902888911383" flag="0"/>
			<psa10 value="0.0379666713556465" flag="0"/>
			<psa30 value="0.00364810916932848" flag="0"/>
		</comp>
	</station>
	<station code="FLO2" name="FLO2" netid="HI" source="ITSAK Strong Motion Network" insttype="" lat="40.7801" lon="21.4052" esm:processing="automatic (Paolucci et al 2011)" esm:quality="best">
		<comp name="--.HNE" depth="0.0">
			<acc value="0.62716594164235" flag="0"/>
			<vel value="0.292209604484034" flag="0"/>
			<psa03 value="1.23141374178359" flag="0"/>
			<psa10 value="0.270004356463503" flag="0"/>
			<psa30 value="0.0156997733662683" flag="0"/>
		</comp>
		<comp name="--.HNN" depth="0.0">
			<acc value="0.694491680927003" flag="0"/>
			<vel value="0.355784650402871" flag="0"/>
			<psa03 value="0.89628254098628" flag="0"/>
			<psa10 value="0.166232012054974" flag="0"/>
			<psa30 value="0.00895631914552139" flag="0"/>
		</comp>
		<comp name="--.HNZ" depth="0.0">
			<acc value="0.324913280428714" flag="0"/>
			<vel value="0.147599417296856" flag="0"/>
			<psa03 value="0.604246403358735" flag="0"/>
			<psa10 value="0.063982043496374" flag="0"/>
			<psa30 value="0.00715373556653923" flag="0"/>
		</comp>
	</station>
	<station code="FRS1" name="FRS1" netid="HI" source="ITSAK Strong Motion Network" insttype="" lat="39.2934" lon="22.3844" esm:processing="automatic (Paolucci et al 2011)" esm:quality="best">
		<comp name="--.HNE" depth="0.0">
			<acc value="0.0116432773358563" flag="0"/>
			<vel value="0.00738885811463579" flag="0"/>
			<psa03 value="0.0197336770509234" flag="0"/>
			<psa10 value="0.0108156911739596" flag="0"/>
			<psa30 value="0.00203657803830003" flag="0"/>
		</comp>
		<comp name="--.HNN" depth="0.0">
			<acc value="0.0116748694395559" flag="0"/>
			<vel value="0.00819401156743025" flag="0"/>
			<psa03 value="0.0182340099970078" flag="0"/>
			<psa10 value="0.0138411150309421" flag="0"/>
			<psa30 value="0.00144102306487254" flag="0"/>
		</comp>
		<comp name="--.HNZ" depth="0.0">
			<acc value="0.00677205214112995" flag="0"/>
			<vel value="0.00635711971163091" flag="0"/>
			<psa03 value="0.015931141297425" flag="0"/>
			<psa10 value="0.01228815965527" flag="0"/>
			<psa30 value="0.00176409269581671" flag="0"/>
		</comp>
	</station>
	<station code="GRE3" name="GRE3" netid="HI" source="ITSAK Strong Motion Network" insttype="" lat="40.08481" lon="21.43829" esm:processing="automatic (Paolucci et al 2011)" esm:quality="best">
		<comp name="--.HNE" depth="0.0">
			<acc value="0.0896934683220194" flag="0"/>
			<vel value="0.0936289224077646" flag="0"/>
			<psa03 value="0.188719855930933" flag="0"/>
			<psa10 value="0.141823580116149" flag="0"/>
			<psa30 value="0.0199294335604981" flag="0"/>
		</comp>
		<comp name="--.HNN" depth="0.0">
			<acc value="0.0720227328663281" flag="0"/>
			<vel value="0.0719772451170862" flag="0"/>
			<psa03 value="0.171910054864111" flag="0"/>
			<psa10 value="0.126764982557964" flag="0"/>
			<psa30 value="0.0233332340455753" flag="0"/>
		</comp>
		<comp name="--.HNZ" depth="0.0">
			<acc value="0.0849522432606992" flag="0"/>
			<vel value="0.0520299417895831" flag="0"/>
			<psa03 value="0.136012353900932" flag="0"/>
			<psa10 value="0.132823718919513" flag="0"/>
			<psa30 value="0.0146622363011964" flag="0"/>
		</comp>
	</station>
	<station code="IGM2" name="IGM2" netid="HI" source="ITSAK Strong Motion Network" insttype="" lat="39.486153" lon="20.259241" esm:processing="manual (Paolucci et al 2011)" esm:quality="good">
		<comp name="--.HNE" depth="0.0">
			<acc value="0.29502670882135" flag="0"/>
			<vel value="0.291291397809988" flag="0"/>
			<psa03 value="0.439954603166608" flag="0"/>
			<psa10 value="0.670220818839975" flag="0"/>
			<psa30 value="0.0187002721345861" flag="0"/>
		</comp>
		<comp name="--.HNN" depth="0.0">
			<acc value="0.280795672735546" flag="0"/>
			<vel value="0.28886137420913" flag="0"/>
			<psa03 value="0.388133753622982" flag="0"/>
			<psa10 value="0.688366380894407" flag="0"/>
			<psa30 value="0.0203741546877569" flag="0"/>
		</comp>
		<comp name="--.HNZ" depth="0.0">
			<acc value="0.130217266900411" flag="0"/>
			<vel value="0.0796257742538766" flag="0"/>
			<psa03 value="0.296541998618722" flag="0"/>
			<psa10 value="0.0736780483091073" flag="0"/>
			<psa30 value="0.00607094383690121" flag="0"/>
		</comp>
	</station>
	<station code="ITS1" name="ITS1" netid="HI" source="ITSAK Strong Motion Network" insttype="" lat="40.605" lon="23.0123" esm:processing="automatic (Paolucci et al 2011)" esm:quality="best">
		<comp name="--.HNE" depth="0.0">
			<acc value="0.0168276262682024" flag="0"/>
			<vel value="0.0177943960063346" flag="0"/>
			<psa03 value="0.0441906878328589" flag="0"/>
			<psa10 value="0.0346455825998155" flag="0"/>
			<psa30 value="0.00201271229064471" flag="0"/>
		</comp>
		<comp name="--.HNN" depth="0.0">
			<acc value="0.0206811364908495" flag="0"/>
			<vel value="0.0221038537190229" flag="0"/>
			<psa03 value="0.0478554253954035" flag="0"/>
			<psa10 value="0.0401874784732189" flag="0"/>
			<psa30 value="0.00544775713717413" flag="0"/>
		</comp>
		<comp name="--.HNZ" depth="0.0">
			<acc value="0.0108055630777665" flag="0"/>
			<vel value="0.0115616443604684" flag="0"/>
			<psa03 value="0.0279648108648089" flag="0"/>
			<psa10 value="0.0155994555748737" flag="0"/>
			<psa30 value="0.00268562874305718" flag="0"/>
		</comp>
	</station>
	<station code="JAN2" name="JAN2" netid="HI" source="ITSAK Strong Motion Network" insttype="" lat="39.664" lon="20.85222" esm:processing="automatic (Paolucci et al 2011)" esm:quality="best">
		<comp name="--.HNE" depth="0.0">
			<acc value="0.169949351980263" flag="0"/>
			<vel value="0.0819171151826607" flag="0"/>
			<psa03 value="0.43731638673105" flag="0"/>
			<psa10 value="0.102173133468653" flag="0"/>
			<psa30 value="0.00604737685903792" flag="0"/>
		</comp>
		<comp name="--.HNN" depth="0.0">
			<acc value="0.139032095875985" flag="0"/>
			<vel value="0.0658198114179382" flag="0"/>
			<psa03 value="0.624999653159683" flag="0"/>
			<psa10 value="0.0560625201168171" flag="0"/>
			<psa30 value="0.00470355367068017" flag="0"/>
		</comp>
		<comp name="--.HNZ" depth="0.0">
			<acc value="0.0763121737617279" flag="0"/>
			<vel value="0.0428317890994471" flag="0"/>
			<psa03 value="0.134222839521053" flag="0"/>
			<psa10 value="0.0457367285838044" flag="0"/>
			<psa30 value="0.00416648350908443" flag="0"/>
		</comp>
	</station>
	<station code="JAN3" name="JAN3" netid="HI" source="ITSAK Strong Motion Network" insttype="" lat="39.684" lon="20.8379" esm:processing="automatic (Paolucci et al 2011)" esm:quality="best">
		<comp name="--.HNE" depth="0.0">
			<acc value="0.231757271427157" flag="0"/>
			<vel value="0.0756608414132" flag="0"/>
			<psa03 value="0.375712389101877" flag="0"/>
			<psa10 value="0.0558267832504067" flag="0"/>
			<psa30 value="0.00600099211960991" flag="0"/>
		</comp>
		<comp name="--.HNN" depth="0.0">
			<acc value="0.184189052902347" flag="0"/>
			<vel value="0.0622400017738715" flag="0"/>
			<psa03 value="0.291265315731044" flag="0"/>
			<psa10 value="0.0651667844796498" flag="0"/>
			<psa30 value="0.0063806468532061" flag="0"/>
		</comp>
		<comp name="--.HNZ" depth="0.0">
			<acc value="0.0974666153812268" flag="0"/>
			<vel value="0.0483131346587326" flag="0"/>
			<psa03 value="0.154501943328823" flag="0"/>
			<psa10 value="0.0353723882471227" flag="0"/>
			<psa30 value="0.00387512420796065" flag="0"/>
		</comp>
	</station>
	<station code="KAR2" name="KAR2" netid="HI" source="ITSAK Strong Motion Network" insttype="" lat="39.365759" lon="21.91933" esm:processing="manual (Paolucci et al 2011)" esm:quality="good">
		<comp name="--.HNE" depth="0.0">
			<acc value="0.046048618803919" flag="0"/>
			<vel value="0.0506410358216991" flag="0"/>
			<psa03 value="0.109517015381454" flag="0"/>
			<psa10 value="0.131747427620497" flag="0"/>
			<psa30 value="0.0219410968233166" flag="0"/>
		</comp>
		<comp name="--.HNN" depth="0.0">
			<acc value="0.0645137796784699" flag="0"/>
			<vel value="0.0681958131595686" flag="0"/>
			<psa03 value="0.114648209464546" flag="0"/>
			<psa10 value="0.082240690542132" flag="0"/>
			<psa30 value="0.0342154932751752" flag="0"/>
		</comp>
		<comp name="--.HNZ" depth="0.0">
			<acc value="0.0362969436689122" flag="0"/>
			<vel value="0.0412797110493535" flag="0"/>
			<psa03 value="0.0699404613373136" flag="0"/>
			<psa10 value="0.0662044032167987" flag="0"/>
			<psa30 value="0.00714289818194903" flag="0"/>
		</comp>
	</station>
	<station code="KAS2" name="KAS2" netid="HI" source="ITSAK Strong Motion Network" insttype="" lat="40.504878" lon="21.280507" esm:processing="manual (Paolucci et al 2011)" esm:quality="good">
		<comp name="--.HNE" depth="0.0">
			<acc value="0.157969183567483" flag="0"/>
			<vel value="0.099010501383181" flag="0"/>
			<psa03 value="0.370580757489801" flag="0"/>
			<psa10 value="0.117882391629909" flag="0"/>
			<psa30 value="0.0104872905648643" flag="0"/>
		</comp>
		<comp name="--.HNN" depth="0.0">
			<acc value="0.192734131939287" flag="0"/>
			<vel value="0.11442786090133" flag="0"/>
			<psa03 value="0.325268297428371" flag="0"/>
			<psa10 value="0.170744821006419" flag="0"/>
			<psa30 value="0.0169718676362706" flag="0"/>
		</comp>
		<comp name="--.HNZ" depth="0.0">
			<acc value="0.101772072391222" flag="0"/>
			<vel value="0.0473418497581929" flag="0"/>
			<psa03 value="0.179270646633858" flag="0"/>
			<psa10 value="0.0697816901945046" flag="0"/>
			<psa30 value="0.0105901332110182" flag="0"/>
		</comp>
	</station>
	<station code="KLR1" name="KLR1" netid="HI" source="ITSAK Strong Motion Network" insttype="" lat="40.58251" lon="22.949554" esm:processing="manual (Paolucci et al 2011)" esm:quality="good">
		<comp name="--.HNE" depth="0.0">
			<acc value="0.0124527100523126" flag="0"/>
			<vel value="0.0191126908845281" flag="0"/>
			<psa03 value="0.0333841021579273" flag="0"/>
			<psa10 value="0.0348734514450082" flag="0"/>
			<psa30 value="0.00739782173605005" flag="0"/>
		</comp>
		<comp name="--.HNN" depth="0.0">
			<acc value="0.0161219763471183" flag="0"/>
			<vel value="0.0248276124203358" flag="0"/>
			<psa03 value="0.0371305873233494" flag="0"/>
			<psa10 value="0.0460329344559898" flag="0"/>
			<psa30 value="0.0191493585510238" flag="0"/>
		</comp>
		<comp name="--.HNZ" depth="0.0">
			<acc value="0.00689338952956422" flag="0"/>
			<vel value="0.0113677372789641" flag="0"/>
			<psa03 value="0.0160042099399473" flag="0"/>
			<psa10 value="0.0249174100311262" flag="0"/>
			<psa30 value="0.00289545618476208" flag="0"/>
		</comp>
	</station>
	<station code="KOZ2" name="KOZ2" netid="HI" source="ITSAK Strong Motion Network" insttype="" lat="40.295728" lon="21.788123" esm:processing="automatic (Paolucci et al 2011)" esm:quality="best">
		<comp name="--.HNE" depth="0.0">
			<acc value="0.16811519024489" flag="0"/>
			<vel value="0.0746534166002319" flag="0"/>
			<psa03 value="0.398198753713175" flag="0"/>
			<psa10 value="0.0498636482219766" flag="0"/>
			<psa30 value="0.0056759351695156" flag="0"/>
		</comp>
		<comp name="--.HNN" depth="0.0">
			<acc value="0.135968663682521" flag="0"/>
			<vel value="0.0588631744086076" flag="0"/>
			<psa03 value="0.268322295868577" flag="0"/>
			<psa10 value="0.0415340426764888" flag="0"/>
			<psa30 value="0.00422154048967253" flag="0"/>
		</comp>
		<comp name="--.HNZ" depth="0.0">
			<acc value="0.0830056946755541" flag="0"/>
			<vel value="0.0345101917792307" flag="0"/>
			<psa03 value="0.0964372218259899" flag="0"/>
			<psa10 value="0.0366164694113942" flag="0"/>
			<psa30 value="0.00338873032008601" flag="0"/>
		</comp>
	</station>
	<station code="KRK1" name="KRK1" netid="HI" source="ITSAK Strong Motion Network" insttype="" lat="39.618861" lon="19.9202" esm:processing="manual (Paolucci et al 2011)" esm:quality="best">
		<comp name="--.HNE" depth="0.0">
			<acc value="0.133038271822799" flag="0"/>
			<vel value="0.0869653976990644" flag="0"/>
			<psa03 value="0.360264247690324" flag="0"/>
			<psa10 value="0.0626368521552495" flag="0"/>
			<psa30 value="0.00731893015861689" flag="0"/>
		</comp>
		<comp name="--.HNN" depth="0.0">
			<acc value="0.129800167005196" flag="0"/>
			<vel value="0.079429729618011" flag="0"/>
			<psa03 value="0.311987406749209" flag="0"/>
			<psa10 value="0.0794970578752129" flag="0"/>
			<psa30 value="0.00553461095868022" flag="0"/>
		</comp>
		<comp name="--.HNZ" depth="0.0">
			<acc value="0.098697875640001" flag="0"/>
			<vel value="0.0407777239866414" flag="0"/>
			<psa03 value="0.44424536951282" flag="0"/>
			<psa10 value="0.0379485499653534" flag="0"/>
			<psa30 value="0.0043207548931265" flag="0"/>
		</comp>
	</station>
	<station code="LAR4" name="LAR4" netid="HI" source="ITSAK Strong Motion Network" insttype="" lat="39.6422" lon="22.4219" esm:processing="manual (Paolucci et al 2011)" esm:quality="good">
		<comp name="--.HNE" depth="0.0">
			<acc value="0.0586850223086352" flag="0"/>
			<vel value="0.069090444167166" flag="0"/>
			<psa03 value="0.0990788134851398" flag="0"/>
			<psa10 value="0.190386387163782" flag="0"/>
			<psa30 value="0.0135484708530349" flag="0"/>
		</comp>
		<comp name="--.HNN" depth="0.0">
			<acc value="0.0442727431077455" flag="0"/>
			<vel value="0.0717605762460519" flag="0"/>
			<psa03 value="0.100858723062081" flag="0"/>
			<psa10 value="0.14804932254103" flag="0"/>
			<psa30 value="0.0217655985307493" flag="0"/>
		</comp>
		<comp name="--.HNZ" depth="0.0">
			<acc value="0.0222592774463945" flag="0"/>
			<vel value="0.0400173250887276" flag="0"/>
			<psa03 value="0.0340734759505578" flag="0"/>
			<psa10 value="0.0710578997371235" flag="0"/>
			<psa30 value="0.0118928536765223" flag="0"/>
		</comp>
	</station>
	<station code="LEF2" name="LEF2" netid="HI" source="ITSAK Strong Motion Network" insttype="" lat="38.830093" lon="20.708346" esm:processing="manual (Paolucci et al 2011)" esm:quality="good">
		<comp name="--.HNE" depth="0.0">
			<acc value="0.0663417214740332" flag="0"/>
			<vel value="0.081622596714688" flag="0"/>
			<psa03 value="0.140751219910881" flag="0"/>
			<psa10 value="0.149842061301174" flag="0"/>
			<psa30 value="0.013879956145642" flag="0"/>
		</comp>
		<comp name="--.HNN" depth="0.0">
			<acc value="0.056276228937895" flag="0"/>
			<vel value="0.069780178894426" flag="0"/>
			<psa03 value="0.116396908640618" flag="0"/>
			<psa10 value="0.132150459319369" flag="0"/>
			<psa30 value="0.010440192444845" flag="0"/>
		</comp>
		<comp name="--.HNZ" depth="0.0">
			<acc value="0.0407028946165883" flag="0"/>
			<vel value="0.0700935439698107" flag="0"/>
			<psa03 value="0.0711339310238231" flag="0"/>
			<psa10 value="0.0943448348822905" flag="0"/>
			<psa30 value="0.00999550965345912" flag="0"/>
		</comp>
	</station>
	<station code="LMS2" name="LMS2" netid="HI" source="ITSAK Strong Motion Network" insttype="" lat="40.834985" lon="21.141815" esm:processing="manual (Paolucci et al 2011)" esm:quality="good">
		<comp name="--.HNE" depth="0.0">
			<acc value="0.557913072" flag="0"/>
			<vel value="0.189682" flag="0"/>
			<psa03 value="0.710998405370956" flag="0"/>
			<psa10 value="0.0916982576200156" flag="0"/>
			<psa30 value="0.00803704257484015" flag="0"/>
		</comp>
		<comp name="--.HNN" depth="0.0">
			<acc value="0.506853402" flag="0"/>
			<vel value="0.218292" flag="0"/>
			<psa03 value="0.79193705714341" flag="0"/>
			<psa10 value="0.173704011020315" flag="0"/>
			<psa30 value="0.00700170791369335" flag="0"/>
		</comp>
		<comp name="--.HNZ" depth="0.0">
			<acc value="0.254360868" flag="0"/>
			<vel value="0.118834" flag="0"/>
			<psa03 value="0.345499319506295" flag="0"/>
			<psa10 value="0.117985198852383" flag="0"/>
			<psa30 value="0.0078934200915955" flag="0"/>
		</comp>
	</station>
	<station code="MSL1" name="MSL1" netid="HI" source="ITSAK Strong Motion Network" insttype="" lat="38.3727" lon="21.4243" esm:processing="manual (Paolucci et al 2011)" esm:quality="good">
		<comp name="--.HNE" depth="0.0">
			<acc value="0.0599102434815178" flag="0"/>
			<vel value="0.0964859746125317" flag="0"/>
			<psa03 value="0.0866209120129741" flag="0"/>
			<psa10 value="0.258480201854418" flag="0"/>
			<psa30 value="0.0147416622365882" flag="0"/>
		</comp>
		<comp name="--.HNN" depth="0.0">
			<acc value="0.0508511279464367" flag="0"/>
			<vel value="0.0705577843424733" flag="0"/>
			<psa03 value="0.0734667032672022" flag="0"/>
			<psa10 value="0.214342462447559" flag="0"/>
			<psa30 value="0.00823882992668856" flag="0"/>
		</comp>
		<comp name="--.HNZ" depth="0.0">
			<acc value="0.0318973222864125" flag="0"/>
			<vel value="0.0500573013900833" flag="0"/>
			<psa03 value="0.038030875625531" flag="0"/>
			<psa10 value="0.118746263786959" flag="0"/>
			<psa30 value="0.00521336191516102" flag="0"/>
		</comp>
	</station>
	<station code="PLA1" name="PLA1" netid="HI" source="ITSAK Strong Motion Network" insttype="" lat="40.555907" lon="22.988593" esm:processing="manual (Paolucci et al 2011)" esm:quality="good">
		<comp name="--.HNE" depth="0.0">
			<acc value="0.0115899827051433" flag="0"/>
			<vel value="0.0129102223874274" flag="0"/>
			<psa03 value="0.0356547525773738" flag="0"/>
			<psa10 value="0.0216236362097756" flag="0"/>
			<psa30 value="0.0037238437697074" flag="0"/>
		</comp>
		<comp name="--.HNN" depth="0.0">
			<acc value="0.0169888253080597" flag="0"/>
			<vel value="0.0397272493401569" flag="0"/>
			<psa03 value="0.0309546078825215" flag="0"/>
			<psa10 value="0.0373383959854867" flag="0"/>
			<psa30 value="0.0145570626672927" flag="0"/>
		</comp>
		<comp name="--.HNZ" depth="0.0">
			<acc value="0.00886850501727722" flag="0"/>
			<vel value="0.00901141980814305" flag="0"/>
			<psa03 value="0.0200893985323924" flag="0"/>
			<psa10 value="0.0118263578131644" flag="0"/>
			<psa30 value="0.00220634428448067" flag="0"/>
		</comp>
	</station>
