<?xml version="1.0" encoding="UTF-8" standalone="yes"?>
<!DOCTYPE earthquake SYSTEM "stationlist.dtd">
<stationlist created="" xmlns="ch.ethz.sed.shakemap.usgs.xml">
  <station code="ARPRA" name="ARPRA" netid="KO" insttype="CMG-5T" lat="39.0929" lon="38.3356">
    <comp name="--.HNN">
      <acc value="0.0474826042" flag="0"/>
      <vel value="0.0289906533" flag="0"/>
      <psa03 value="0.1630553081" flag="0"/>
      <psa10 value="0.0348117780" flag="0"/>
      <psa30 value="0.0014324818" flag="0"/>
    </comp>
    <comp name="--.HNZ">
      <acc value="0.0198092488" flag="0"/>
      <vel value="0.0126357013" flag="0"/>
      <psa03 value="0.0429700754" flag="0"/>
      <psa10 value="0.0200028051" flag="0"/>
      <psa30 value="0.0009416768" flag="0"/>
    </comp>
    <comp name="--.HNE">
      <acc value="0.0387519414" flag="0"/>
      <vel value="0.0242015188" flag="0"/>
      <psa03 value="0.0822985451" flag="0"/>
      <psa10 value="0.0355565049" flag="0"/>
      <psa30 value="0.0022139470" flag="0"/>
    </comp>
  </station>
  <station code="URFA" name="URFA" netid="KO" insttype="CMG-3ESP" lat="37.4409" lon="38.8213">
    <comp name="--.HHE">
      <acc value="0.0877394116" flag="0"/>
      <vel value="0.0284951822" flag="0"/>
      <psa03 value="0.1168044005" flag="0"/>
      <psa10 value="0.0204678848" flag="0"/>
      <psa30 value="0.0030875419" flag="0"/>
    </comp>
    <comp name="--.HHZ">
      <acc value="0.0710320768" flag="0"/>
      <vel value="0.0168300106" flag="0"/>
      <psa03 value="0.0750579869" flag="0"/>
      <psa10 value="0.0131820643" flag="0"/>
      <psa30 value="0.0009855985" flag="0"/>
    </comp>
    <comp name="--.HHN">
      <acc value="0.0954989465" flag="0"/>
      <vel value="0.0290460606" flag="0"/>
      <psa03 value="0.0747031688" flag="0"/>
      <psa10 value="0.0253383620" flag="0"/>
      <psa30 value="0.0022141210" flag="0"/>
    </comp>
  </station>
</stationlist>
