<stationlist created="1675760475">
	<station code="ARPRA" name="ARPRA" netid="KO" source="Bogazici University Kandilli Observatory And Earthquake Research Institute (KOERI)" insttype="" lat="39.0929" lon="38.3356">
		<comp name=".HNE" depth="0.0">
			<acc value="0.038788225966" flag="0"/>
			<vel value="0.0240178148197" flag="0"/>
			<psa03 value="0.0811800392375" flag="0"/>
			<psa10 value="0.0354884884382" flag="0"/>
			<psa30 value="0.00235505101057" flag="0"/>
		</comp>
		<comp name=".HNN" depth="0.0">
			<acc value="0.0472835727044" flag="0"/>
			<vel value="0.0288854298148" flag="0"/>
			<psa03 value="0.164999857514" flag="0"/>
			<psa10 value="0.0347690745306" flag="0"/>
			<psa30 value="0.00143830111372" flag="0"/>
		</comp>
		<comp name=".HNZ" depth="0.0">
			<acc value="0.0197192146894" flag="0"/>
			<vel value="0.0130397350667" flag="0"/>
			<psa03 value="0.0434241422613" flag="0"/>
			<psa10 value="0.0200397769119" flag="0"/>
			<psa30 value="0.000952768324559" flag="0"/>
		</comp>
	</station>
	<station code="RFHY" name="RFHY" netid="KO" source="Bogazici University Kandilli Observatory And Earthquake Research Institute (KOERI)" insttype="" lat="39.927" lon="38.833">
		<comp name=".HNE" depth="0.0">
			<acc value="0.00135325525235" flag="0"/>
			<vel value="0.00364345399418" flag="0"/>
			<psa03 value="0.00177192320804" flag="0"/>
			<psa10 value="0.00126664301044" flag="0"/>
			<psa30 value="0.00118217393822" flag="0"/>
		</comp>
		<comp name=".HNN" depth="0.0">
			<acc value="0.00491521889205" flag="0"/>
			<vel value="0.00564615829311" flag="0"/>
			<psa03 value="0.0094737662624" flag="0"/>
			<psa10 value="0.0112739874713" flag="0"/>
			<psa30 value="0.00120731029088" flag="0"/>
		</comp>
		<comp name=".HNZ" depth="0.0">
			<acc value="0.00405251765131" flag="0"/>
			<vel value="0.00431414390232" flag="0"/>
			<psa03 value="0.0084431465566" flag="0"/>
			<psa10 value="0.00669644688799" flag="0"/>
			<psa30 value="0.000675223636503" flag="0"/>
		</comp>
	</station>
	<station code="TUNC" name="TUNC" netid="KO" source="Bogazici University Kandilli Observatory And Earthquake Research Institute (KOERI)" insttype="" lat="39.6942" lon="37.5388">
		<comp name=".HNE" depth="0.0">
			<acc value="0.0157662915525" flag="0"/>
			<vel value="0.011615982253" flag="0"/>
			<psa03 value="0.0383109077013" flag="0"/>
			<psa10 value="0.0199529117825" flag="0"/>
			<psa30 value="0.00136968531826" flag="0"/>
		</comp>
		<comp name=".HNN" depth="0.0">
			<acc value="0.0141715892368" flag="0"/>
			<vel value="0.0108329867003" flag="0"/>
			<psa03 value="0.0486271223497" flag="0"/>
			<psa10 value="0.0116698543206" flag="0"/>
			<psa30 value="0.000893081245582" flag="0"/>
		</comp>
		<comp name=".HNZ" depth="0.0">
			<acc value="0.00939390742211" flag="0"/>
			<vel value="0.00704660274209" flag="0"/>
			<psa03 value="0.0229461450695" flag="0"/>
			<psa10 value="0.00921100955918" flag="0"/>
			<psa30 value="0.0010975620831" flag="0"/>
		</comp>
	</station>
</stationlist>
