<?xml version="1.0" encoding="UTF-8" standalone="yes"?>
<!DOCTYPE earthquake SYSTEM "stationlist.dtd">
<stationlist created="" xmlns="ch.ethz.sed.shakemap.usgs.xml">
  <station code="ARPRA" name="ARPRA" netid="KO" insttype="CMG-5T" lat="39.0929" lon="38.3356">
    <comp name="--.HNE">
      <acc value="0.0387519402" flag="0"/>
      <vel value="0.0242015326" flag="0"/>
      <psa03 value="0.0822985451" flag="0"/>
      <psa10 value="0.0355565055" flag="0"/>
      <psa30 value="0.0022138570" flag="0"/>
    </comp>
    <comp name="--.HNZ">
      <acc value="0.0198092497" flag="0"/>
      <vel value="0.0126356996" flag="0"/>
      <psa03 value="0.0429700754" flag="0"/>
      <psa10 value="0.0200028050" flag="0"/>
      <psa30 value="0.0009423682" flag="0"/>
    </comp>
    <comp name="--.HNN">
      <acc value="0.0474825981" flag="0"/>
      <vel value="0.0289906618" flag="0"/>
      <psa03 value="0.1630553081" flag="0"/>
      <psa10 value="0.0348117766" flag="0"/>
      <psa30 value="0.0014324657" flag="0"/>
    </comp>
  </station>
  <station code="URFA" name="URFA" netid="KO" insttype="CMG-3ESP" lat="37.4409" lon="38.8213">
    <comp name="--.HHE">
      <acc value="0.0877394116" flag="0"/>
      <vel value="0.0284951824" flag="0"/>
      <psa03 value="0.1168044005" flag="0"/>
      <psa10 value="0.0204678826" flag="0"/>
      <psa30 value="0.0030875196" flag="0"/>
    </comp>
    <comp name="--.HHZ">
      <acc value="0.0710320769" flag="0"/>
      <vel value="0.0168300180" flag="0"/>
      <psa03 value="0.0750579869" flag="0"/>
      <psa10 value="0.0131820642" flag="0"/>
      <psa30 value="0.0009855452" flag="0"/>
    </comp>
  </station>
</stationlist>
