<stationlist created="1675764069">
	<station code="ARPRA" name="ARPRA" netid="KO" source="Bogazici University Kandilli Observatory And Earthquake Research Institute (KOERI)" insttype="" lat="39.0929" lon="38.3356">
		<comp name=".HNE" depth="0.0">
			<acc value="0.038788225966" flag="0"/>
			<vel value="0.0240178148197" flag="0"/>
			<psa03 value="0.0811800392375" flag="0"/>
			<psa10 value="0.0354884884382" flag="0"/>
			<psa30 value="0.00235505101057" flag="0"/>
		</comp>
		<comp name=".HNN" depth="0.0">
			<acc value="0.0472835727044" flag="0"/>
			<vel value="0.0288854298148" flag="0"/>
			<psa03 value="0.164999857514" flag="0"/>
			<psa10 value="0.0347690745306" flag="0"/>
			<psa30 value="0.00143830111372" flag="0"/>
		</comp>
		<comp name=".HNZ" depth="0.0">
			<acc value="0.0197192146894" flag="0"/>
			<vel value="0.0130397350667" flag="0"/>
			<psa03 value="0.0434241422613" flag="0"/>
			<psa10 value="0.0200397769119" flag="0"/>
			<psa30 value="0.000952768324559" flag="0"/>
		</comp>
	</station>
	<station code="TUNC" name="TUNC" netid="KO" source="Bogazici University Kandilli Observatory And Earthquake Research Institute (KOERI)" insttype="" lat="39.6942" lon="37.5388">
		<comp name=".HNE" depth="0.0">
			<acc value="0.0157319219804" flag="0"/>
			<vel value="0.0116902715592" flag="0"/>
			<psa03 value="0.0383436520579" flag="0"/>
			<psa10 value="0.0199184976277" flag="0"/>
			<psa30 value="0.00124609004735" flag="0"/>
		</comp>
		<comp name=".HNN" depth="0.0">
			<acc value="0.0141689588015" flag="0"/>
			<vel value="0.0106409401839" flag="0"/>
			<psa03 value="0.0486209604835" flag="0"/>
			<psa10 value="0.0116145953475" flag="0"/>
			<psa30 value="0.000789258430333" flag="0"/>
		</comp>
		<comp name=".HNZ" depth="0.0">
			<acc value="0.00936786498461" flag="0"/>
			<vel value="0.0070098450741" flag="0"/>
			<psa03 value="0.0229530726117" flag="0"/>
			<psa10 value="0.0091972442723" flag="0"/>
			<psa30 value="0.000963526433064" flag="0"/>
		</comp>
	</station>
</stationlist>
