<?xml version="1.0" encoding="UTF-8" standalone="yes"?>
<!DOCTYPE earthquake SYSTEM "stationlist.dtd">
<stationlist created="" xmlns="ch.ethz.sed.shakemap.usgs.xml">
  <station code="APE" name="APE" netid="GE" insttype="STS-2/N" lat="37.0727" lon="25.523">
    <comp name="--.HHE">
      <acc value="0.2678910796" flag="0"/>
      <vel value="0.0496007139" flag="0"/>
      <psa03 value="0.1770079786" flag="0"/>
      <psa10 value="0.0080554493" flag="0"/>
      <psa30 value="0.0009581997" flag="0"/>
    </comp>
    <comp name="--.HHZ">
      <acc value="0.0753344106" flag="0"/>
      <vel value="0.0164979036" flag="0"/>
      <psa03 value="0.0586239421" flag="0"/>
      <psa10 value="0.0072483753" flag="0"/>
      <psa30 value="0.0015064994" flag="0"/>
    </comp>
    <comp name="--.HHN">
      <acc value="0.2615897630" flag="0"/>
      <vel value="0.0477245018" flag="0"/>
      <psa03 value="0.1099504270" flag="0"/>
      <psa10 value="0.0166255321" flag="0"/>
      <psa30 value="0.0024013830" flag="0"/>
    </comp>
  </station>
  <station code="THERA" name="THERA" netid="GE" insttype="STS-2/N" lat="36.367" lon="25.4753">
    <comp name="--.HHE">
      <acc value="0.3467382634" flag="0"/>
      <vel value="0.0742646157" flag="0"/>
      <psa03 value="0.4573790436" flag="0"/>
      <psa10 value="0.0256891359" flag="0"/>
      <psa30 value="0.0029735912" flag="0"/>
    </comp>
    <comp name="--.HHZ">
      <acc value="0.2937838932" flag="0"/>
      <vel value="0.0829131213" flag="0"/>
      <psa03 value="0.2510251347" flag="0"/>
      <psa10 value="0.0174578261" flag="0"/>
      <psa30 value="0.0025278643" flag="0"/>
    </comp>
    <comp name="--.HHN">
      <acc value="0.4592110089" flag="0"/>
      <vel value="0.1346377922" flag="0"/>
      <psa03 value="0.4106853588" flag="0"/>
      <psa10 value="0.0218585668" flag="0"/>
      <psa30 value="0.0014963751" flag="0"/>
    </comp>
  </station>
</stationlist>
