<?xml version="1.0" encoding="UTF-8" standalone="yes"?>
<!DOCTYPE earthquake SYSTEM "stationlist.dtd">
<stationlist created="" xmlns="ch.ethz.sed.shakemap.usgs.xml">
  <station code="APE" name="APE" netid="GE" insttype="STS-2/N" lat="37.0727" lon="25.523">
    <comp name="--.HHE">
      <acc value="0.2678910796" flag="0"/>
      <vel value="0.0496007139" flag="0"/>
      <psa03 value="0.1770079786" flag="0"/>
      <psa10 value="0.0080554493" flag="0"/>
      <psa30 value="0.0009581997" flag="0"/>
    </comp>
    <comp name="--.HHZ">
      <acc value="0.0753344106" flag="0"/>
      <vel value="0.0164979036" flag="0"/>
      <psa03 value="0.0586239421" flag="0"/>
      <psa10 value="0.0072483753" flag="0"/>
      <psa30 value="0.0015064994" flag="0"/>
    </comp>
    <comp name="--.HHN">
      <acc value="0.2615897630" flag="0"/>
      <vel value="0.0477245018" flag="0"/>
      <psa03 value="0.1099504270" flag="0"/>
      <psa10 value="0.0166255321" flag="0"/>
      <psa30 value="0.0024013830" flag="0"/>
    </comp>
  </station>
  <station code="THERA" name="THERA" netid="GE" insttype="STS-2/N" lat="36.367" lon="25.4753">
    <comp name="--.HHE">
      <acc value="0.3467382634" flag="0"/>
      <vel value="0.0742646157" flag="0"/>
      <psa03 value="0.4573790436" flag="0"/>
      <psa10 value="0.0256891359" flag="0"/>
      <psa30 value="0.0029735912" flag="0"/>
    </comp>
    <comp name="--.HHZ">
      <acc value="0.2937838932" flag="0"/>
      <vel value="0.0829131213" flag="0"/>
      <psa03 value="0.2510251347" flag="0"/>
      <psa10 value="0.0174578261" flag="0"/>
      <psa30 value="0.0025278643" flag="0"/>
    </comp>
    <comp name="--.HHN">
      <acc value="0.4592110089" flag="0"/>
      <vel value="0.1346377922" flag="0"/>
      <psa03 value="0.4106853588" flag="0"/>
      <psa10 value="0.0218585668" flag="0"/>
      <psa30 value="0.0014963751" flag="0"/>
    </comp>
  </station>
  <station code="SNT1" name="SNT1" netid="HA" insttype="30" lat="36.4159" lon="25.4282">
    <comp name="--.HHN">
      <acc value="0.1730868512" flag="0"/>
      <vel value="0.0510528298" flag="0"/>
      <psa03 value="0.2621891341" flag="0"/>
      <psa10 value="0.0426916787" flag="0"/>
      <psa30 value="0.0030302296" flag="0"/>
    </comp>
    <comp name="--.HHE">
      <acc value="0.2156313234" flag="0"/>
      <vel value="0.0608201877" flag="0"/>
      <psa03 value="0.3337136123" flag="0"/>
      <psa10 value="0.0581803009" flag="0"/>
      <psa30 value="0.0047291743" flag="0"/>
    </comp>
    <comp name="--.HHZ">
      <acc value="0.1605504921" flag="0"/>
      <vel value="0.0513320809" flag="0"/>
      <psa03 value="0.2382990175" flag="0"/>
      <psa10 value="0.0253809561" flag="0"/>
      <psa30 value="0.0023623991" flag="0"/>
    </comp>
  </station>
  <station code="NAX1" name="NAX1" netid="HI" insttype="CMG-5TD,ACCELEROMETER,GURALP" lat="37.1014" lon="25.3741">
    <comp name="--.HNE">
      <acc value="0.1745040899" flag="0"/>
      <vel value="0.0353082609" flag="0"/>
      <psa03 value="0.0962627841" flag="0"/>
      <psa10 value="0.0098707381" flag="0"/>
      <psa30 value="0.0006771186" flag="0"/>
    </comp>
    <comp name="--.HNZ">
      <acc value="0.0471387192" flag="0"/>
      <vel value="0.0135144086" flag="0"/>
      <psa03 value="0.0552006263" flag="0"/>
      <psa10 value="0.0093150106" flag="0"/>
      <psa30 value="0.0011775257" flag="0"/>
    </comp>
    <comp name="--.HNN">
      <acc value="0.0828391351" flag="0"/>
      <vel value="0.0234475586" flag="0"/>
      <psa03 value="0.0457319389" flag="0"/>
      <psa10 value="0.0143477376" flag="0"/>
      <psa30 value="0.0016732262" flag="0"/>
    </comp>
  </station>
  <station code="APE" name="APE" netid="HL" insttype="120" lat="37.0727" lon="25.523">
    <comp name="--.HHE">
      <acc value="0.2568894424" flag="0"/>
      <vel value="0.0464654899" flag="0"/>
      <psa03 value="0.1704135515" flag="0"/>
      <psa10 value="0.0079832434" flag="0"/>
      <psa30 value="0.0009537645" flag="0"/>
    </comp>
    <comp name="--.HHN">
      <acc value="0.2345513096" flag="0"/>
      <vel value="0.0461275613" flag="0"/>
      <psa03 value="0.1066143343" flag="0"/>
      <psa10 value="0.0165059593" flag="0"/>
      <psa30 value="0.0023764086" flag="0"/>
    </comp>
  </station>
  <station code="MHLO" name="MHLO" netid="HL" insttype="20" lat="36.6898" lon="24.4017">
    <comp name="--.HHE">
      <acc value="0.0845640570" flag="0"/>
      <vel value="0.0452405539" flag="0"/>
      <psa03 value="0.3984369899" flag="0"/>
      <psa10 value="0.0342902541" flag="0"/>
      <psa30 value="0.0021566001" flag="0"/>
    </comp>
    <comp name="--.HHN">
      <acc value="0.0851869232" flag="0"/>
      <vel value="0.0402185016" flag="0"/>
      <psa03 value="0.3870949552" flag="0"/>
      <psa10 value="0.0321711827" flag="0"/>
      <psa30 value="0.0017700710" flag="0"/>
    </comp>
    <comp name="--.HHZ">
      <acc value="0.0341234417" flag="0"/>
      <vel value="0.0221348166" flag="0"/>
      <psa03 value="0.1472471252" flag="0"/>
      <psa10 value="0.0205649858" flag="0"/>
      <psa30 value="0.0009544006" flag="0"/>
    </comp>
  </station>
  <station code="SAP3" name="SAP3" netid="HL" insttype="LE3D20_SMART24" lat="36.4356" lon="25.3454">
    <comp name="--.HHE">
      <acc value="0.7441160313" flag="0"/>
      <vel value="0.2754243987" flag="0"/>
      <psa03 value="1.0999392356" flag="0"/>
      <psa10 value="0.1251782747" flag="0"/>
      <psa30 value="0.0111663432" flag="0"/>
    </comp>
  </station>
  <station code="THERA" name="THERA" netid="HL" insttype="120" lat="36.367" lon="25.4753">
    <comp name="--.HHN">
      <acc value="0.4643021899" flag="0"/>
      <vel value="0.1323729972" flag="0"/>
      <psa03 value="0.3989069783" flag="0"/>
      <psa10 value="0.0214935592" flag="0"/>
      <psa30 value="0.0014590478" flag="0"/>
    </comp>
    <comp name="--.HHZ">
      <acc value="0.2869755268" flag="0"/>
      <vel value="0.0801954262" flag="0"/>
      <psa03 value="0.2445021603" flag="0"/>
      <psa10 value="0.0172698590" flag="0"/>
      <psa30 value="0.0024946643" flag="0"/>
    </comp>
    <comp name="--.HHE">
      <acc value="0.3417350018" flag="0"/>
      <vel value="0.0725461204" flag="0"/>
      <psa03 value="0.4440816070" flag="0"/>
      <psa10 value="0.0251911732" flag="0"/>
      <psa30 value="0.0029418377" flag="0"/>
    </comp>
  </station>
  <station code="THRA" name="THRA" netid="HL" insttype="CMG-5" lat="36.415" lon="25.4324">
    <comp name="00.HNE">
      <acc value="0.7162156701" flag="0"/>
      <vel value="0.2199750015" flag="0"/>
      <psa03 value="1.7702387038" flag="0"/>
      <psa10 value="0.1464749985" flag="0"/>
      <psa30 value="0.0097907214" flag="0"/>
    </comp>
    <comp name="00.HNN">
      <acc value="0.6644584373" flag="0"/>
      <vel value="0.2148049574" flag="0"/>
      <psa03 value="1.3159895348" flag="0"/>
      <psa10 value="0.1441074103" flag="0"/>
      <psa30 value="0.0081039174" flag="0"/>
    </comp>
    <comp name="00.HNZ">
      <acc value="0.5634045504" flag="0"/>
      <vel value="0.1368812298" flag="0"/>
      <psa03 value="1.1081619118" flag="0"/>
      <psa10 value="0.0656102352" flag="0"/>
      <psa30 value="0.0059865597" flag="0"/>
    </comp>
  </station>
  <station code="TNSA" name="TNSA" netid="HL" insttype="CMG-5" lat="37.5394" lon="25.1631">
    <comp name="00.HNE">
      <acc value="0.0440220100" flag="0"/>
      <vel value="0.0146966037" flag="0"/>
      <psa03 value="0.0376207896" flag="0"/>
      <psa10 value="0.0092785084" flag="0"/>
      <psa30 value="0.0005297025" flag="0"/>
    </comp>
    <comp name="00.HNN">
      <acc value="0.0564114602" flag="0"/>
      <vel value="0.0184528079" flag="0"/>
      <psa03 value="0.0750963524" flag="0"/>
      <psa10 value="0.0100363015" flag="0"/>
      <psa30 value="0.0008576579" flag="0"/>
    </comp>
    <comp name="00.HNZ">
      <acc value="0.0254550407" flag="0"/>
      <vel value="0.0101904014" flag="0"/>
      <psa03 value="0.0398861730" flag="0"/>
      <psa10 value="0.0081309801" flag="0"/>
      <psa30 value="0.0010406485" flag="0"/>
    </comp>
  </station>
</stationlist>
