<?xml version="1.0" encoding="UTF-8" standalone="yes"?>
<!DOCTYPE earthquake SYSTEM "stationlist.dtd">
<stationlist created="" xmlns="ch.ethz.sed.shakemap.usgs.xml">
  <station code="APE" name="APE" netid="GE" insttype="STS-2/N" lat="37.0727" lon="25.523">
    <comp name="--.HHZ">
      <acc value="0.0753344106" flag="0"/>
      <vel value="0.0164979036" flag="0"/>
      <psa03 value="0.0586239421" flag="0"/>
      <psa10 value="0.0072483753" flag="0"/>
      <psa30 value="0.0015064998" flag="0"/>
    </comp>
    <comp name="--.HHE">
      <acc value="0.2678910796" flag="0"/>
      <vel value="0.0496007141" flag="0"/>
      <psa03 value="0.1770079786" flag="0"/>
      <psa10 value="0.0080554493" flag="0"/>
      <psa30 value="0.0009582020" flag="0"/>
    </comp>
    <comp name="--.HHN">
      <acc value="0.2615897630" flag="0"/>
      <vel value="0.0477245005" flag="0"/>
      <psa03 value="0.1099504270" flag="0"/>
      <psa10 value="0.0166255320" flag="0"/>
      <psa30 value="0.0024013434" flag="0"/>
    </comp>
  </station>
  <station code="THERA" name="THERA" netid="GE" insttype="STS-2/N" lat="36.367" lon="25.4753">
    <comp name="--.HHZ">
      <acc value="0.2937838932" flag="0"/>
      <vel value="0.0829131213" flag="0"/>
      <psa03 value="0.2510251347" flag="0"/>
      <psa10 value="0.0174578262" flag="0"/>
      <psa30 value="0.0025278648" flag="0"/>
    </comp>
    <comp name="--.HHE">
      <acc value="0.3467382634" flag="0"/>
      <vel value="0.0742646158" flag="0"/>
      <psa03 value="0.4573790436" flag="0"/>
      <psa10 value="0.0256891359" flag="0"/>
      <psa30 value="0.0029735943" flag="0"/>
    </comp>
    <comp name="--.HHN">
      <acc value="0.4592110089" flag="0"/>
      <vel value="0.1346377923" flag="0"/>
      <psa03 value="0.4106853588" flag="0"/>
      <psa10 value="0.0218585669" flag="0"/>
      <psa30 value="0.0014963783" flag="0"/>
    </comp>
  </station>
  <station code="SNT1" name="SNT1" netid="HA" insttype="30" lat="36.4159" lon="25.4282">
    <comp name="--.HHE">
      <acc value="0.2156313234" flag="0"/>
      <vel value="0.0608201886" flag="0"/>
      <psa03 value="0.3337136123" flag="0"/>
      <psa10 value="0.0581803011" flag="0"/>
      <psa30 value="0.0047291734" flag="0"/>
    </comp>
    <comp name="--.HHZ">
      <acc value="0.1605504921" flag="0"/>
      <vel value="0.0513320809" flag="0"/>
      <psa03 value="0.2382990175" flag="0"/>
      <psa10 value="0.0253809563" flag="0"/>
      <psa30 value="0.0023623991" flag="0"/>
    </comp>
    <comp name="--.HHN">
      <acc value="0.1730868513" flag="0"/>
      <vel value="0.0510528298" flag="0"/>
      <psa03 value="0.2621891341" flag="0"/>
      <psa10 value="0.0426916791" flag="0"/>
      <psa30 value="0.0030302216" flag="0"/>
    </comp>
  </station>
  <station code="NAX1" name="NAX1" netid="HI" insttype="CMG-5TD,ACCELEROMETER,GURALP" lat="37.1014" lon="25.3741">
    <comp name="--.HNE">
      <acc value="0.1745040898" flag="0"/>
      <vel value="0.0353082608" flag="0"/>
      <psa03 value="0.0962627841" flag="0"/>
      <psa10 value="0.0098707382" flag="0"/>
      <psa30 value="0.0006771239" flag="0"/>
    </comp>
    <comp name="--.HNN">
      <acc value="0.0828391350" flag="0"/>
      <vel value="0.0234475586" flag="0"/>
      <psa03 value="0.0457319389" flag="0"/>
      <psa10 value="0.0143477376" flag="0"/>
      <psa30 value="0.0016732371" flag="0"/>
    </comp>
    <comp name="--.HNZ">
      <acc value="0.0471387191" flag="0"/>
      <vel value="0.0135144085" flag="0"/>
      <psa03 value="0.0552006263" flag="0"/>
      <psa10 value="0.0093150106" flag="0"/>
      <psa30 value="0.0011775287" flag="0"/>
    </comp>
  </station>
  <station code="APE" name="APE" netid="HL" insttype="120" lat="37.0727" lon="25.523">
    <comp name="--.HHE">
      <acc value="0.2568894424" flag="0"/>
      <vel value="0.0464654898" flag="0"/>
      <psa03 value="0.1704135515" flag="0"/>
      <psa10 value="0.0079832434" flag="0"/>
      <psa30 value="0.0009537651" flag="0"/>
    </comp>
    <comp name="--.HHZ">
      <acc value="0.0660933019" flag="0"/>
      <vel value="0.0160917991" flag="0"/>
      <psa03 value="0.0571182242" flag="0"/>
      <psa10 value="0.0071513391" flag="0"/>
      <psa30 value="0.0015041459" flag="0"/>
    </comp>
    <comp name="--.HHN">
      <acc value="0.2345513096" flag="0"/>
      <vel value="0.0461275600" flag="0"/>
      <psa03 value="0.1066143343" flag="0"/>
      <psa10 value="0.0165059592" flag="0"/>
      <psa30 value="0.0023763687" flag="0"/>
    </comp>
  </station>
  <station code="MHLO" name="MHLO" netid="HL" insttype="20" lat="36.6898" lon="24.4017">
    <comp name="--.HHE">
      <acc value="0.0845640570" flag="0"/>
      <vel value="0.0452405539" flag="0"/>
      <psa03 value="0.3984369899" flag="0"/>
      <psa10 value="0.0342902541" flag="0"/>
      <psa30 value="0.0021566018" flag="0"/>
    </comp>
    <comp name="--.HHN">
      <acc value="0.0851869232" flag="0"/>
      <vel value="0.0402184986" flag="0"/>
      <psa03 value="0.3870949552" flag="0"/>
      <psa10 value="0.0321711827" flag="0"/>
      <psa30 value="0.0017700674" flag="0"/>
    </comp>
    <comp name="--.HHZ">
      <acc value="0.0341234417" flag="0"/>
      <vel value="0.0221348142" flag="0"/>
      <psa03 value="0.1472471252" flag="0"/>
      <psa10 value="0.0205649858" flag="0"/>
      <psa30 value="0.0009543986" flag="0"/>
    </comp>
  </station>
  <station code="SAP3" name="SAP3" netid="HL" insttype="LE3D20_SMART24" lat="36.4356" lon="25.3454">
    <comp name="--.HHE">
      <acc value="0.7441160313" flag="0"/>
      <vel value="0.2754244020" flag="0"/>
      <psa03 value="1.0999392356" flag="0"/>
      <psa10 value="0.1251782748" flag="0"/>
      <psa30 value="0.0111663466" flag="0"/>
    </comp>
    <comp name="--.HHN">
      <acc value="0.6234256970" flag="0"/>
      <vel value="0.2266606595" flag="0"/>
      <psa03 value="1.3627092925" flag="0"/>
      <psa10 value="0.0942660852" flag="0"/>
      <psa30 value="0.0114537467" flag="0"/>
    </comp>
    <comp name="--.HHZ">
      <acc value="0.7388745045" flag="0"/>
      <vel value="0.2185674030" flag="0"/>
      <psa03 value="1.0663959700" flag="0"/>
      <psa10 value="0.0438938797" flag="0"/>
      <psa30 value="0.0070267398" flag="0"/>
    </comp>
  </station>
  <station code="THERA" name="THERA" netid="HL" insttype="120" lat="36.367" lon="25.4753">
    <comp name="--.HHE">
      <acc value="0.3417350018" flag="0"/>
      <vel value="0.0725461205" flag="0"/>
      <psa03 value="0.4440816070" flag="0"/>
      <psa10 value="0.0251911731" flag="0"/>
      <psa30 value="0.0029418408" flag="0"/>
    </comp>
    <comp name="--.HHZ">
      <acc value="0.2869755268" flag="0"/>
      <vel value="0.0801954262" flag="0"/>
      <psa03 value="0.2445021603" flag="0"/>
      <psa10 value="0.0172698591" flag="0"/>
      <psa30 value="0.0024946648" flag="0"/>
    </comp>
    <comp name="--.HHN">
      <acc value="0.4643021899" flag="0"/>
      <vel value="0.1323729972" flag="0"/>
      <psa03 value="0.3989069783" flag="0"/>
      <psa10 value="0.0214935593" flag="0"/>
      <psa30 value="0.0014590509" flag="0"/>
    </comp>
  </station>
  <station code="THRA" name="THRA" netid="HL" insttype="CMG-5" lat="36.415" lon="25.4324">
    <comp name="00.HNN">
      <acc value="0.6644584373" flag="0"/>
      <vel value="0.2148049574" flag="0"/>
      <psa03 value="1.3159895348" flag="0"/>
      <psa10 value="0.1441074101" flag="0"/>
      <psa30 value="0.0081039305" flag="0"/>
    </comp>
    <comp name="00.HNE">
      <acc value="0.7162156701" flag="0"/>
      <vel value="0.2199750015" flag="0"/>
      <psa03 value="1.7702387038" flag="0"/>
      <psa10 value="0.1464749985" flag="0"/>
      <psa30 value="0.0097907410" flag="0"/>
    </comp>
    <comp name="00.HNZ">
      <acc value="0.5634045504" flag="0"/>
      <vel value="0.1368812298" flag="0"/>
      <psa03 value="1.1081619118" flag="0"/>
      <psa10 value="0.0656102350" flag="0"/>
      <psa30 value="0.0059865492" flag="0"/>
    </comp>
  </station>
  <station code="TNSA" name="TNSA" netid="HL" insttype="CMG-5" lat="37.5394" lon="25.1631">
    <comp name="00.HNZ">
      <acc value="0.0254550407" flag="0"/>
      <vel value="0.0101904013" flag="0"/>
      <psa03 value="0.0398861730" flag="0"/>
      <psa10 value="0.0081309801" flag="0"/>
      <psa30 value="0.0010406322" flag="0"/>
    </comp>
    <comp name="00.HNE">
      <acc value="0.0440220100" flag="0"/>
      <vel value="0.0146966036" flag="0"/>
      <psa03 value="0.0376207896" flag="0"/>
      <psa10 value="0.0092785084" flag="0"/>
      <psa30 value="0.0005296904" flag="0"/>
    </comp>
  </station>
</stationlist>
