<?xml version="1.0" encoding="UTF-8" standalone="yes"?>
<!DOCTYPE earthquake SYSTEM "stationlist.dtd">
<stationlist created="" xmlns="ch.ethz.sed.shakemap.usgs.xml">
  <station code="APE" name="APE" netid="GE" insttype="STS-2/N" lat="37.0727" lon="25.523">
    <comp name="--.HHZ">
      <acc value="0.0753344106" flag="0"/>
      <vel value="0.0164979036" flag="0"/>
      <psa03 value="0.0586239421" flag="0"/>
      <psa10 value="0.0072483753" flag="0"/>
      <psa30 value="0.0015064998" flag="0"/>
    </comp>
    <comp name="--.HHE">
      <acc value="0.2678910796" flag="0"/>
      <vel value="0.0496007141" flag="0"/>
      <psa03 value="0.1770079786" flag="0"/>
      <psa10 value="0.0080554493" flag="0"/>
      <psa30 value="0.0009582020" flag="0"/>
    </comp>
    <comp name="--.HHN">
      <acc value="0.2615897630" flag="0"/>
      <vel value="0.0477245005" flag="0"/>
      <psa03 value="0.1099504270" flag="0"/>
      <psa10 value="0.0166255320" flag="0"/>
      <psa30 value="0.0024013434" flag="0"/>
    </comp>
  </station>
  <station code="THERA" name="THERA" netid="GE" insttype="STS-2/N" lat="36.367" lon="25.4753">
    <comp name="--.HHZ">
      <acc value="0.2937838932" flag="0"/>
      <vel value="0.0829131213" flag="0"/>
      <psa03 value="0.2510251347" flag="0"/>
      <psa10 value="0.0174578262" flag="0"/>
      <psa30 value="0.0025278648" flag="0"/>
    </comp>
    <comp name="--.HHE">
      <acc value="0.3467382634" flag="0"/>
      <vel value="0.0742646158" flag="0"/>
      <psa03 value="0.4573790436" flag="0"/>
      <psa10 value="0.0256891359" flag="0"/>
      <psa30 value="0.0029735943" flag="0"/>
    </comp>
    <comp name="--.HHN">
      <acc value="0.4592110089" flag="0"/>
      <vel value="0.1346377923" flag="0"/>
      <psa03 value="0.4106853588" flag="0"/>
      <psa10 value="0.0218585669" flag="0"/>
      <psa30 value="0.0014963783" flag="0"/>
    </comp>
  </station>
</stationlist>
