<?xml version="1.0" encoding="UTF-8" standalone="yes"?>
<!DOCTYPE earthquake SYSTEM "stationlist.dtd">
<stationlist created="" xmlns="ch.ethz.sed.shakemap.usgs.xml">
  <station code="APE" name="APE" netid="GE" insttype="STS-2/N" lat="37.0727" lon="25.523">
    <comp name="--.HHE">
      <acc value="0.2678910794" flag="0"/>
      <vel value="0.0496007143" flag="0"/>
      <psa03 value="0.1770079786" flag="0"/>
      <psa10 value="0.0080554493" flag="0"/>
      <psa30 value="0.0009581965" flag="0"/>
    </comp>
    <comp name="--.HHN">
      <acc value="0.2615897628" flag="0"/>
      <vel value="0.0477245016" flag="0"/>
      <psa03 value="0.1099504270" flag="0"/>
      <psa10 value="0.0166255326" flag="0"/>
      <psa30 value="0.0024013682" flag="0"/>
    </comp>
    <comp name="--.HHZ">
      <acc value="0.0753344104" flag="0"/>
      <vel value="0.0164979034" flag="0"/>
      <psa03 value="0.0586239421" flag="0"/>
      <psa10 value="0.0072483758" flag="0"/>
      <psa30 value="0.0015064988" flag="0"/>
    </comp>
  </station>
  <station code="THERA" name="THERA" netid="GE" insttype="STS-2/N" lat="36.367" lon="25.4753">
    <comp name="--.HHE">
      <acc value="0.3467382635" flag="0"/>
      <vel value="0.0742646172" flag="0"/>
      <psa03 value="0.4573790436" flag="0"/>
      <psa10 value="0.0256891384" flag="0"/>
      <psa30 value="0.0029736687" flag="0"/>
    </comp>
    <comp name="--.HHN">
      <acc value="0.4592110090" flag="0"/>
      <vel value="0.1346377923" flag="0"/>
      <psa03 value="0.4106853588" flag="0"/>
      <psa10 value="0.0218585653" flag="0"/>
      <psa30 value="0.0014963611" flag="0"/>
    </comp>
    <comp name="--.HHZ">
      <acc value="0.2937838932" flag="0"/>
      <vel value="0.0829131216" flag="0"/>
      <psa03 value="0.2510251347" flag="0"/>
      <psa10 value="0.0174578254" flag="0"/>
      <psa30 value="0.0025279064" flag="0"/>
    </comp>
  </station>
</stationlist>
