<?xml version="1.0" encoding="UTF-8" standalone="yes"?>
<!DOCTYPE earthquake SYSTEM "stationlist.dtd">
<stationlist created="" xmlns="ch.ethz.sed.shakemap.usgs.xml">
  <station code="AKDN" name="AKDN" netid="KO" insttype="CMG-5T" commtype="DIG" lat="35.2977" lon="32.9677">
    <comp name="--.HNE">
      <acc value="0.0903226989" flag="0"/>
      <vel value="0.0540850968" flag="0"/>
      <psa03 value="0.2463675734" flag="0"/>
      <psa10 value="0.0602255507" flag="0"/>
      <psa30 value="0.0060391321" flag="0"/>
    </comp>
    <comp name="--.HNZ">
      <acc value="0.0634761846" flag="0"/>
      <vel value="0.0311121507" flag="0"/>
      <psa03 value="0.1462461931" flag="0"/>
      <psa10 value="0.0249107606" flag="0"/>
      <psa30 value="0.0021806921" flag="0"/>
    </comp>
    <comp name="--.HNN">
      <acc value="0.0666613011" flag="0"/>
      <vel value="0.0403300348" flag="0"/>
      <psa03 value="0.1632669000" flag="0"/>
      <psa10 value="0.0456078426" flag="0"/>
      <psa30 value="0.0086030632" flag="0"/>
    </comp>
  </station>
  <station code="AKIN" name="AKIN" netid="KO" insttype="CMG-5T" commtype="DIG" lat="35.0157" lon="33.4662">
    <comp name="--.HNE">
      <acc value="0.0406151977" flag="0"/>
      <vel value="0.0251894132" flag="0"/>
      <psa03 value="0.1061079863" flag="0"/>
      <psa10 value="0.0262198049" flag="0"/>
      <psa30 value="0.0014513392" flag="0"/>
    </comp>
    <comp name="--.HNZ">
      <acc value="0.0320894379" flag="0"/>
      <vel value="0.0201081913" flag="0"/>
      <psa03 value="0.1333065325" flag="0"/>
      <psa10 value="0.0132453684" flag="0"/>
      <psa30 value="0.0009313124" flag="0"/>
    </comp>
    <comp name="--.HNN">
      <acc value="0.0310511214" flag="0"/>
      <vel value="0.0195393168" flag="0"/>
      <psa03 value="0.1157673783" flag="0"/>
      <psa10 value="0.0220050790" flag="0"/>
      <psa30 value="0.0014800893" flag="0"/>
    </comp>
  </station>
  <station code="HSY" name="HSY" netid="KO" insttype="CMG-6T" commtype="DIG" lat="35.2916" lon="33.0974">
    <comp name="--.HHN">
      <acc value="0.6382516866" flag="0"/>
      <vel value="0.1923309539" flag="0"/>
      <psa03 value="0.8534083460" flag="0"/>
      <psa10 value="0.0565915753" flag="0"/>
      <psa30 value="0.0078551722" flag="0"/>
    </comp>
    <comp name="--.HHE">
      <acc value="0.5608969062" flag="0"/>
      <vel value="0.1827066803" flag="0"/>
      <psa03 value="0.9595908543" flag="0"/>
      <psa10 value="0.0568946787" flag="0"/>
      <psa30 value="0.0065335716" flag="0"/>
    </comp>
    <comp name="--.HHZ">
      <acc value="0.1021309973" flag="0"/>
      <vel value="0.0493821245" flag="0"/>
      <psa03 value="0.2570140468" flag="0"/>
      <psa10 value="0.0339311052" flag="0"/>
      <psa30 value="0.0040058389" flag="0"/>
    </comp>
  </station>
  <station code="LEF" name="LEF" netid="KO" insttype="CMG-6T" commtype="DIG" lat="35.1118" lon="32.8433">
    <comp name="--.HHE">
      <acc value="0.2732737063" flag="0"/>
      <vel value="0.1251958885" flag="0"/>
      <psa03 value="0.3410645548" flag="0"/>
      <psa10 value="0.0851238686" flag="0"/>
      <psa30 value="0.0082084511" flag="0"/>
    </comp>
    <comp name="--.HHN">
      <acc value="0.1678558983" flag="0"/>
      <vel value="0.0848392749" flag="0"/>
      <psa03 value="0.3645474392" flag="0"/>
      <psa10 value="0.0945664738" flag="0"/>
      <psa30 value="0.0047049676" flag="0"/>
    </comp>
    <comp name="--.HHZ">
      <acc value="0.1325641047" flag="0"/>
      <vel value="0.0695087069" flag="0"/>
      <psa03 value="0.3500117621" flag="0"/>
      <psa10 value="0.0792246323" flag="0"/>
      <psa30 value="0.0036160575" flag="0"/>
    </comp>
  </station>
  <station code="LFK" name="LFK" netid="KO" insttype="CMG-6T" commtype="DIG" lat="35.2832" lon="33.5335">
    <comp name="--.HHE">
      <acc value="0.6016149495" flag="0"/>
      <vel value="0.3740436595" flag="0"/>
      <psa03 value="1.6546381964" flag="0"/>
      <psa10 value="0.2083883487" flag="0"/>
      <psa30 value="0.0185844404" flag="0"/>
    </comp>
    <comp name="--.HHN">
      <acc value="1.3986225221" flag="0"/>
      <vel value="1.0714855839" flag="0"/>
      <psa03 value="3.2814215179" flag="0"/>
      <psa10 value="0.6089344399" flag="0"/>
      <psa30 value="0.0422475964" flag="0"/>
    </comp>
    <comp name="--.HHZ">
      <acc value="0.2748830467" flag="0"/>
      <vel value="0.1594316930" flag="0"/>
      <psa03 value="0.8361890624" flag="0"/>
      <psa10 value="0.1654984140" flag="0"/>
      <psa30 value="0.0110688077" flag="0"/>
    </comp>
  </station>
  <station code="MAGT" name="MAGT" netid="KO" insttype="CMG-6T" commtype="DIG" lat="35.1696" lon="33.8714">
    <comp name="--.HHE">
      <acc value="0.0137939746" flag="0"/>
      <vel value="0.0107503478" flag="0"/>
      <psa03 value="0.0444349152" flag="0"/>
      <psa10 value="0.0186647141" flag="0"/>
      <psa30 value="0.0016931415" flag="0"/>
    </comp>
    <comp name="--.HHN">
      <acc value="0.0178260013" flag="0"/>
      <vel value="0.0129452640" flag="0"/>
      <psa03 value="0.0612173234" flag="0"/>
      <psa10 value="0.0260216732" flag="0"/>
      <psa30 value="0.0021729323" flag="0"/>
    </comp>
    <comp name="--.HHZ">
      <acc value="0.0144837578" flag="0"/>
      <vel value="0.0124803480" flag="0"/>
      <psa03 value="0.0305124280" flag="0"/>
      <psa10 value="0.0174983484" flag="0"/>
      <psa30 value="0.0018352098" flag="0"/>
    </comp>
  </station>
</stationlist>
