<?xml version="1.0" encoding="UTF-8" standalone="yes"?>
<!DOCTYPE earthquake SYSTEM "stationlist.dtd">
<stationlist created="" xmlns="ch.ethz.sed.shakemap.usgs.xml">
  <station code="ARG2" name="ARG2" netid="HI" insttype="CMG-5TD,ACCELEROMETER,GURALP" lat="38.1783" lon="20.4878">
    <comp name="--.HNE">
      <acc value="0.0313321982" flag="0"/>
      <vel value="0.0090511055" flag="0"/>
      <psa03 value="0.0456187669" flag="0"/>
      <psa10 value="0.0066844933" flag="0"/>
      <psa30 value="0.0002903160" flag="0"/>
    </comp>
    <comp name="--.HNN">
      <acc value="0.0271504058" flag="0"/>
      <vel value="0.0115405782" flag="0"/>
      <psa03 value="0.0405210349" flag="0"/>
      <psa10 value="0.0064481962" flag="0"/>
      <psa30 value="0.0003648626" flag="0"/>
    </comp>
    <comp name="--.HNZ">
      <acc value="0.0215756706" flag="0"/>
      <vel value="0.0050551682" flag="0"/>
      <psa03 value="0.0313483785" flag="0"/>
      <psa10 value="0.0074239367" flag="0"/>
      <psa30 value="0.0002223757" flag="0"/>
    </comp>
  </station>
  <station code="KLV" name="KLV" netid="HL" insttype="120" lat="38.0435" lon="22.1504">
    <comp name="--.HHE">
      <acc value="0.0013128598" flag="0"/>
      <vel value="0.0010706986" flag="0"/>
      <psa03 value="0.0037952491" flag="0"/>
      <psa10 value="0.0022765408" flag="0"/>
      <psa30 value="0.0001088544" flag="0"/>
    </comp>
    <comp name="--.HHN">
      <acc value="0.0017402177" flag="0"/>
      <vel value="0.0014623866" flag="0"/>
      <psa03 value="0.0055239204" flag="0"/>
      <psa10 value="0.0022691982" flag="0"/>
      <psa30 value="0.0001453125" flag="0"/>
    </comp>
    <comp name="--.HHZ">
      <acc value="0.0018039852" flag="0"/>
      <vel value="0.0013184186" flag="0"/>
      <psa03 value="0.0051424778" flag="0"/>
      <psa10 value="0.0018925944" flag="0"/>
      <psa30 value="0.0001216477" flag="0"/>
    </comp>
  </station>
  <station code="ORTH" name="ORTH" netid="HL" insttype="30" lat="37.8511" lon="20.6963">
    <comp name="--.HHE">
      <acc value="0.1622906190" flag="0"/>
      <vel value="0.0420430322" flag="0"/>
      <psa03 value="0.1702924574" flag="0"/>
      <psa10 value="0.0136077377" flag="0"/>
      <psa30 value="0.0010423927" flag="0"/>
    </comp>
    <comp name="--.HHN">
      <acc value="0.1819649897" flag="0"/>
      <vel value="0.0454115750" flag="0"/>
      <psa03 value="0.1484864431" flag="0"/>
      <psa10 value="0.0113217187" flag="0"/>
      <psa30 value="0.0009803276" flag="0"/>
    </comp>
    <comp name="--.HHZ">
      <acc value="0.0749277582" flag="0"/>
      <vel value="0.0188719383" flag="0"/>
      <psa03 value="0.0768241422" flag="0"/>
      <psa10 value="0.0045932275" flag="0"/>
      <psa30 value="0.0003411590" flag="0"/>
    </comp>
  </station>
  <station code="RLS" name="RLS" netid="HL" insttype="120" lat="38.0559" lon="21.4647">
    <comp name="--.HHE">
      <acc value="0.0150262793" flag="0"/>
      <vel value="0.0065065188" flag="0"/>
      <psa03 value="0.0434894166" flag="0"/>
      <psa10 value="0.0030115690" flag="0"/>
      <psa30 value="0.0003466272" flag="0"/>
    </comp>
    <comp name="--.HHN">
      <acc value="0.0146749319" flag="0"/>
      <vel value="0.0048650945" flag="0"/>
      <psa03 value="0.0240147856" flag="0"/>
      <psa10 value="0.0063134577" flag="0"/>
      <psa30 value="0.0003640214" flag="0"/>
    </comp>
    <comp name="--.HHZ">
      <acc value="0.0065250851" flag="0"/>
      <vel value="0.0031202616" flag="0"/>
      <psa03 value="0.0188051157" flag="0"/>
      <psa10 value="0.0040097504" flag="0"/>
      <psa30 value="0.0003622528" flag="0"/>
    </comp>
  </station>
  <station code="VLS" name="VLS" netid="HL" insttype="120P," lat="38.1768" lon="20.5886">
    <comp name="--.HHE">
      <acc value="0.0529663242" flag="0"/>
      <vel value="0.0057134237" flag="0"/>
      <psa03 value="0.0171262824" flag="0"/>
      <psa10 value="0.0020719254" flag="0"/>
      <psa30 value="0.0002165244" flag="0"/>
    </comp>
    <comp name="--.HHN">
      <acc value="0.0211995238" flag="0"/>
      <vel value="0.0040201717" flag="0"/>
      <psa03 value="0.0188440215" flag="0"/>
      <psa10 value="0.0023959494" flag="0"/>
      <psa30 value="0.0001706632" flag="0"/>
    </comp>
    <comp name="--.HHZ">
      <acc value="0.0189454777" flag="0"/>
      <vel value="0.0044254966" flag="0"/>
      <psa03 value="0.0160650747" flag="0"/>
      <psa10 value="0.0024846251" flag="0"/>
      <psa30 value="0.0001136576" flag="0"/>
    </comp>
  </station>
  <station code="AMT" name="AMT" netid="HP" insttype="CMG-3T," lat="37.5324" lon="21.7089">
    <comp name="00.HHE">
      <acc value="0.0199757820" flag="0"/>
      <vel value="0.0100271137" flag="0"/>
      <psa03 value="0.0676495748" flag="0"/>
      <psa10 value="0.0085068508" flag="0"/>
      <psa30 value="0.0003596908" flag="0"/>
    </comp>
    <comp name="00.HHN">
      <acc value="0.0240439202" flag="0"/>
      <vel value="0.0140509031" flag="0"/>
      <psa03 value="0.0647424967" flag="0"/>
      <psa10 value="0.0075389015" flag="0"/>
      <psa30 value="0.0006730800" flag="0"/>
    </comp>
    <comp name="00.HHZ">
      <acc value="0.0172303370" flag="0"/>
      <vel value="0.0088590898" flag="0"/>
      <psa03 value="0.0537823649" flag="0"/>
      <psa10 value="0.0034563067" flag="0"/>
      <psa30 value="0.0002091575" flag="0"/>
    </comp>
  </station>
  <station code="AXS" name="AXS" netid="HP" insttype="40," lat="38.1962" lon="21.3763">
    <comp name="--.HHE">
      <acc value="0.0099184222" flag="0"/>
      <vel value="0.0050007039" flag="0"/>
      <psa03 value="0.0099893558" flag="0"/>
      <psa10 value="0.0048219117" flag="0"/>
      <psa30 value="0.0003593054" flag="0"/>
    </comp>
    <comp name="--.HHN">
      <acc value="0.0083208561" flag="0"/>
      <vel value="0.0049889483" flag="0"/>
      <psa03 value="0.0189539112" flag="0"/>
      <psa10 value="0.0053305630" flag="0"/>
      <psa30 value="0.0003715197" flag="0"/>
    </comp>
    <comp name="--.HHZ">
      <acc value="0.0046266530" flag="0"/>
      <vel value="0.0019852488" flag="0"/>
      <psa03 value="0.0075768525" flag="0"/>
      <psa10 value="0.0030251047" flag="0"/>
      <psa30 value="0.0001971875" flag="0"/>
    </comp>
  </station>
  <station code="DRO" name="DRO" netid="HP" insttype="120P," lat="37.952" lon="21.71">
    <comp name="--.HHE">
      <acc value="0.0170258974" flag="0"/>
      <vel value="0.0080534011" flag="0"/>
      <psa03 value="0.0642211658" flag="0"/>
      <psa10 value="0.0096704725" flag="0"/>
      <psa30 value="0.0003264062" flag="0"/>
    </comp>
    <comp name="--.HHN">
      <acc value="0.0131485934" flag="0"/>
      <vel value="0.0076253115" flag="0"/>
      <psa03 value="0.0458757467" flag="0"/>
      <psa10 value="0.0087364166" flag="0"/>
      <psa30 value="0.0003263557" flag="0"/>
    </comp>
    <comp name="--.HHZ">
      <acc value="0.0071168886" flag="0"/>
      <vel value="0.0033028218" flag="0"/>
      <psa03 value="0.0192988197" flag="0"/>
      <psa10 value="0.0031976720" flag="0"/>
      <psa30 value="0.0002409129" flag="0"/>
    </comp>
  </station>
  <station code="FSK" name="FSK" netid="HP" insttype="40," lat="38.4593" lon="20.5623">
    <comp name="--.HHE">
      <acc value="0.0082465522" flag="0"/>
      <vel value="0.0021834295" flag="0"/>
      <psa03 value="0.0082799605" flag="0"/>
      <psa10 value="0.0024702957" flag="0"/>
      <psa30 value="0.0002004808" flag="0"/>
    </comp>
    <comp name="--.HHN">
      <acc value="0.0032127820" flag="0"/>
      <vel value="0.0013901891" flag="0"/>
      <psa03 value="0.0057882851" flag="0"/>
      <psa10 value="0.0016892114" flag="0"/>
      <psa30 value="0.0002250307" flag="0"/>
    </comp>
    <comp name="--.HHZ">
      <acc value="0.0039941996" flag="0"/>
      <vel value="0.0012268462" flag="0"/>
      <psa03 value="0.0048461603" flag="0"/>
      <psa10 value="0.0012284422" flag="0"/>
      <psa30 value="0.0001451592" flag="0"/>
    </comp>
  </station>
  <station code="LTHK" name="LTHK" netid="HP" insttype="40," lat="37.7095" lon="20.8367">
    <comp name="--.HHZ">
      <acc value="0.5663135670" flag="0"/>
      <vel value="0.1044160055" flag="0"/>
      <psa03 value="0.7680769132" flag="0"/>
      <psa10 value="0.0523878566" flag="0"/>
      <psa30 value="0.0030902805" flag="0"/>
    </comp>
  </station>
  <station code="PVO" name="PVO" netid="HP" insttype="120P," lat="38.616" lon="21.525">
    <comp name="--.HHE">
      <acc value="0.0052148997" flag="0"/>
      <vel value="0.0027155374" flag="0"/>
      <psa03 value="0.0115026699" flag="0"/>
      <psa10 value="0.0027663244" flag="0"/>
      <psa30 value="0.0004114141" flag="0"/>
    </comp>
    <comp name="--.HHN">
      <acc value="0.0058782894" flag="0"/>
      <vel value="0.0034920833" flag="0"/>
      <psa03 value="0.0161541774" flag="0"/>
      <psa10 value="0.0025533867" flag="0"/>
      <psa30 value="0.0002102418" flag="0"/>
    </comp>
    <comp name="--.HHZ">
      <acc value="0.0039368250" flag="0"/>
      <vel value="0.0014578061" flag="0"/>
      <psa03 value="0.0075259619" flag="0"/>
      <psa10 value="0.0012607327" flag="0"/>
      <psa30 value="0.0002057973" flag="0"/>
    </comp>
  </station>
  <station code="PYL" name="PYL" netid="HP" insttype="DC_100" lat="36.8955" lon="21.742">
    <comp name="--.HNE">
      <acc value="0.0122300648" flag="0"/>
      <vel value="0.0043907591" flag="0"/>
      <psa03 value="0.0209024261" flag="0"/>
      <psa10 value="0.0040554535" flag="0"/>
      <psa30 value="0.0004951458" flag="0"/>
    </comp>
    <comp name="--.HNN">
      <acc value="0.0104641657" flag="0"/>
      <vel value="0.0028536020" flag="0"/>
      <psa03 value="0.0151505098" flag="0"/>
      <psa10 value="0.0032853636" flag="0"/>
      <psa30 value="0.0003319327" flag="0"/>
    </comp>
    <comp name="--.HNZ">
      <acc value="0.0054961568" flag="0"/>
      <vel value="0.0018168022" flag="0"/>
      <psa03 value="0.0079883181" flag="0"/>
      <psa10 value="0.0020867796" flag="0"/>
      <psa30 value="0.0002353985" flag="0"/>
    </comp>
  </station>
  <station code="DMLN" name="DMLN" netid="HT" insttype="1s-100Hz," lat="38.2385" lon="20.3734">
    <comp name="--.HHE">
      <acc value="0.0358835656" flag="0"/>
      <vel value="0.0093970780" flag="0"/>
      <psa03 value="0.0459775700" flag="0"/>
      <psa10 value="0.0087517997" flag="0"/>
      <psa30 value="0.0004463524" flag="0"/>
    </comp>
    <comp name="--.HHN">
      <acc value="0.0331486662" flag="0"/>
      <vel value="0.0073979177" flag="0"/>
      <psa03 value="0.0360412377" flag="0"/>
      <psa10 value="0.0063753358" flag="0"/>
      <psa30 value="0.0003617512" flag="0"/>
    </comp>
    <comp name="--.HHZ">
      <acc value="0.0284845041" flag="0"/>
      <vel value="0.0048523048" flag="0"/>
      <psa03 value="0.0187847501" flag="0"/>
      <psa10 value="0.0026343862" flag="0"/>
      <psa30 value="0.0001954058" flag="0"/>
    </comp>
  </station>
  <station code="DRAG" name="DRAG" netid="HT" insttype="1s-100Hz," lat="38.6839" lon="20.5746">
    <comp name="--.HHE">
      <acc value="0.0000000000" flag="0"/>
      <vel value="-100.0000000000" flag="0"/>
      <psa03 value="0.0000000000" flag="0"/>
      <psa10 value="0.0000000000" flag="0"/>
      <psa30 value="0.0000000000" flag="0"/>
    </comp>
    <comp name="--.HHN">
      <acc value="0.0102140741" flag="0"/>
      <vel value="0.0039078158" flag="0"/>
      <psa03 value="0.0175676807" flag="0"/>
      <psa10 value="0.0040895040" flag="0"/>
      <psa30 value="0.0001893211" flag="0"/>
    </comp>
    <comp name="--.HHZ">
      <acc value="0.0056235630" flag="0"/>
      <vel value="0.0015904296" flag="0"/>
      <psa03 value="0.0083026483" flag="0"/>
      <psa10 value="0.0020008848" flag="0"/>
      <psa30 value="0.0002270056" flag="0"/>
    </comp>
  </station>
  <station code="NYDR" name="NYDR" netid="HT" insttype="1s-100Hz," lat="38.7135" lon="20.6983">
    <comp name="--.HHE">
      <acc value="0.0021285202" flag="0"/>
      <vel value="0.0017069995" flag="0"/>
      <psa03 value="0.0045052577" flag="0"/>
      <psa10 value="0.0025260734" flag="0"/>
      <psa30 value="0.0001635157" flag="0"/>
    </comp>
    <comp name="--.HHN">
      <acc value="0.0023498824" flag="0"/>
      <vel value="0.0018999079" flag="0"/>
      <psa03 value="0.0054204198" flag="0"/>
      <psa10 value="0.0032731829" flag="0"/>
      <psa30 value="0.0001426402" flag="0"/>
    </comp>
    <comp name="--.HHZ">
      <acc value="0.0014602147" flag="0"/>
      <vel value="0.0011306010" flag="0"/>
      <psa03 value="0.0034468661" flag="0"/>
      <psa10 value="0.0030241475" flag="0"/>
      <psa30 value="0.0001456002" flag="0"/>
    </comp>
  </station>
  <station code="RTZL" name="RTZL" netid="HT" insttype="Compact," lat="38.076" lon="20.7715">
    <comp name="--.HHE">
      <acc value="0.0499797756" flag="0"/>
      <vel value="0.0087208148" flag="0"/>
      <psa03 value="0.0284614165" flag="0"/>
      <psa10 value="0.0053761471" flag="0"/>
      <psa30 value="0.0004527215" flag="0"/>
    </comp>
    <comp name="--.HHN">
      <acc value="0.0631680532" flag="0"/>
      <vel value="0.0140257385" flag="0"/>
      <psa03 value="0.0625759071" flag="0"/>
      <psa10 value="0.0083037711" flag="0"/>
      <psa30 value="0.0003189503" flag="0"/>
    </comp>
    <comp name="--.HHZ">
      <acc value="0.0257426792" flag="0"/>
      <vel value="0.0064841073" flag="0"/>
      <psa03 value="0.0178498539" flag="0"/>
      <psa10 value="0.0032555433" flag="0"/>
      <psa30 value="0.0003052014" flag="0"/>
    </comp>
  </station>
  <station code="KLV" name="KLV" netid="MN" insttype="" lat="38.0437" lon="22.1504">
    <comp name="--.HHE">
      <acc value="0.0013605968" flag="0"/>
      <vel value="0.0010792540" flag="0"/>
      <psa03 value="0.0039106988" flag="0"/>
      <psa10 value="0.0022909856" flag="0"/>
      <psa30 value="0.0001092018" flag="0"/>
    </comp>
    <comp name="--.HHN">
      <acc value="0.0017955576" flag="0"/>
      <vel value="0.0014799726" flag="0"/>
      <psa03 value="0.0056626057" flag="0"/>
      <psa10 value="0.0022803633" flag="0"/>
      <psa30 value="0.0001456920" flag="0"/>
    </comp>
    <comp name="--.HHZ">
      <acc value="0.0018495124" flag="0"/>
      <vel value="0.0013378017" flag="0"/>
      <psa03 value="0.0052683058" flag="0"/>
      <psa10 value="0.0019046089" flag="0"/>
      <psa30 value="0.0001219026" flag="0"/>
    </comp>
  </station>
</stationlist>
