<stationlist xmlns:esm="https://esm-db.eu/esmws/shakemap/1/" created="1783994277">
	<station code="ARG2" name="ARG2" netid="HI" source="ITSAK Strong Motion Network" insttype="" lat="38.1783" lon="20.4878" esm:processing="manual (Paolucci et al 2011)" esm:quality="best">
		<comp name="--.HNE" depth="0.0">
			<acc value="0.0312304966759842" flag="0"/>
			<vel value="0.00918647149141091" flag="0"/>
			<psa03 value="0.0454133397175458" flag="0"/>
			<psa10 value="0.00670059286315238" flag="0"/>
			<psa30 value="0.000293508875415863" flag="0"/>
		</comp>
		<comp name="--.HNN" depth="0.0">
			<acc value="0.0264211072569298" flag="0"/>
			<vel value="0.0115590067060028" flag="0"/>
			<psa03 value="0.0410286034689552" flag="0"/>
			<psa10 value="0.00647106534320064" flag="0"/>
			<psa30 value="0.000372255159064021" flag="0"/>
		</comp>
		<comp name="--.HNZ" depth="0.0">
			<acc value="0.0211846733248613" flag="0"/>
			<vel value="0.00516915424521533" flag="0"/>
			<psa03 value="0.0320354199386826" flag="0"/>
			<psa10 value="0.00742944340896402" flag="0"/>
			<psa30 value="0.000223263611025176" flag="0"/>
		</comp>
	</station>
	<station code="KLV1" name="KLV1" netid="HI" source="ITSAK Strong Motion Network" insttype="" lat="38.03256" lon="22.10797" esm:processing="manual (Paolucci et al 2011)" esm:quality="best">
		<comp name="--.HNE" depth="0.0">
			<acc value="0.00576084330203013" flag="0"/>
			<vel value="0.00353345712336059" flag="0"/>
			<psa03 value="0.0146754437707931" flag="0"/>
			<psa10 value="0.00382545866586223" flag="0"/>
			<psa30 value="0.000208946104907329" flag="0"/>
		</comp>
		<comp name="--.HNN" depth="0.0">
			<acc value="0.00428544706504688" flag="0"/>
			<vel value="0.00250719665045738" flag="0"/>
			<psa03 value="0.0165993586553788" flag="0"/>
			<psa10 value="0.00331405524421539" flag="0"/>
			<psa30 value="0.000179863670605452" flag="0"/>
		</comp>
		<comp name="--.HNZ" depth="0.0">
			<acc value="0.00217487360790131" flag="0"/>
			<vel value="0.00127151049261229" flag="0"/>
			<psa03 value="0.0076061751251062" flag="0"/>
			<psa10 value="0.00204158688799174" flag="0"/>
			<psa30 value="0.000151676080435941" flag="0"/>
		</comp>
	</station>
	<station code="MSL1" name="MSL1" netid="HI" source="ITSAK Strong Motion Network" insttype="" lat="38.3727" lon="21.4243" esm:processing="manual (Paolucci et al 2011)" esm:quality="best">
		<comp name="--.HNE" depth="0.0">
			<acc value="0.0110368578635315" flag="0"/>
			<vel value="0.00814262739686463" flag="0"/>
			<psa03 value="0.0431762293866323" flag="0"/>
			<psa10 value="0.0190024625728462" flag="0"/>
			<psa30 value="0.000986118233866709" flag="0"/>
		</comp>
		<comp name="--.HNN" depth="0.0">
			<acc value="0.013295757064719" flag="0"/>
			<vel value="0.00898359822672389" flag="0"/>
			<psa03 value="0.0474267390153681" flag="0"/>
			<psa10 value="0.0154266654199139" flag="0"/>
			<psa30 value="0.000837574107894047" flag="0"/>
		</comp>
		<comp name="--.HNZ" depth="0.0">
			<acc value="0.00668523441037786" flag="0"/>
			<vel value="0.00385299034483477" flag="0"/>
			<psa03 value="0.0161071943825778" flag="0"/>
			<psa10 value="0.00761467614436367" flag="0"/>
			<psa30 value="0.000279638791364198" flag="0"/>
		</comp>
	</station>
	<station code="PYL1" name="PYL1" netid="HI" source="ITSAK Strong Motion Network" insttype="" lat="36.914188" lon="21.695161" esm:processing="manual (Paolucci et al 2011)" esm:quality="best">
		<comp name="--.HNE" depth="0.0">
			<acc value="0.00427412226736104" flag="0"/>
			<vel value="0.00160274149960343" flag="0"/>
			<psa03 value="0.00885895691041781" flag="0"/>
			<psa10 value="0.00230735559530427" flag="0"/>
			<psa30 value="0.000300667628474786" flag="0"/>
		</comp>
		<comp name="--.HNN" depth="0.0">
			<acc value="0.00302346111565786" flag="0"/>
			<vel value="0.00129877968570227" flag="0"/>
			<psa03 value="0.00747194850525138" flag="0"/>
			<psa10 value="0.00148991548038845" flag="0"/>
			<psa30 value="0.000214315169701522" flag="0"/>
		</comp>
		<comp name="--.HNZ" depth="0.0">
			<acc value="0.00246772387943803" flag="0"/>
			<vel value="0.000782133092028098" flag="0"/>
			<psa03 value="0.00375834535593483" flag="0"/>
			<psa10 value="0.00173957699331841" flag="0"/>
			<psa30 value="0.000124383334398795" flag="0"/>
		</comp>
	</station>
	<station code="PATG" name="PATG" netid="HL" source="National Observatory of Athens Seismic Network" insttype="" lat="38.23865" lon="21.72657" esm:processing="manual (Paolucci et al 2011)" esm:quality="good">
		<comp name="00.HNE" depth="0.0">
			<acc value="0.0155184966223053" flag="0"/>
			<vel value="0.0103787387824059" flag="0"/>
			<psa03 value="0.0421024164277937" flag="0"/>
			<psa10 value="0.0219541059434536" flag="0"/>
			<psa30 value="0.0012375694350614" flag="0"/>
		</comp>
		<comp name="00.HNN" depth="0.0">
			<acc value="0.0185904455607145" flag="0"/>
			<vel value="0.0111335423655565" flag="0"/>
			<psa03 value="0.0429972605601592" flag="0"/>
			<psa10 value="0.0144723141527462" flag="0"/>
			<psa30 value="0.00131721056284192" flag="0"/>
		</comp>
		<comp name="00.HNZ" depth="0.0">
			<acc value="0.00812636897319038" flag="0"/>
			<vel value="0.00424868810589982" flag="0"/>
			<psa03 value="0.017449460581126" flag="0"/>
			<psa10 value="0.00796903442078038" flag="0"/>
			<psa30 value="0.000710058819031973" flag="0"/>
		</comp>
	</station>
	<station code="AAMF" name="AAMF" netid="HP" source="University of Patras, Seismological Laboratory (PSLNET)" insttype="" lat="37.107022" lon="22.068923" esm:processing="automatic (Paolucci et al 2011)" esm:quality="best">
		<comp name="--.HNE" depth="0.0">
			<acc value="0.00510452962957662" flag="0"/>
			<vel value="0.00484417187355785" flag="0"/>
			<psa03 value="0.00796411277805237" flag="0"/>
			<psa10 value="0.00531537414625068" flag="0"/>
			<psa30 value="0.000316327400791181" flag="0"/>
		</comp>
		<comp name="--.HNN" depth="0.0">
			<acc value="0.00423248696324133" flag="0"/>
			<vel value="0.00254402199109058" flag="0"/>
			<psa03 value="0.00697978423245039" flag="0"/>
			<psa10 value="0.00279459822537725" flag="0"/>
			<psa30 value="0.000243845026069581" flag="0"/>
		</comp>
		<comp name="--.HNZ" depth="0.0">
			<acc value="0.00248799399611013" flag="0"/>
			<vel value="0.00117573530210985" flag="0"/>
			<psa03 value="0.00501112714124644" flag="0"/>
			<psa10 value="0.00177984497927485" flag="0"/>
			<psa30 value="0.000134226619854815" flag="0"/>
		</comp>
	</station>
	<station code="ANX" name="ANX" netid="HP" source="University of Patras, Seismological Laboratory (PSLNET)" insttype="" lat="38.5933" lon="21.9209" esm:processing="manual (Paolucci et al 2011)" esm:quality="good">
		<comp name="--.HNE" depth="0.0">
			<acc value="0.00455609503236496" flag="0"/>
			<vel value="0.00297966196757519" flag="0"/>
			<psa03 value="0.0137782304484765" flag="0"/>
			<psa10 value="0.00496645869102827" flag="0"/>
			<psa30 value="0.000189285104313574" flag="0"/>
		</comp>
		<comp name="--.HNN" depth="0.0">
			<acc value="0.00503523896124576" flag="0"/>
			<vel value="0.00408843852743204" flag="0"/>
			<psa03 value="0.00858811709769379" flag="0"/>
			<psa10 value="0.00388978252275114" flag="0"/>
			<psa30 value="0.000391931093720002" flag="0"/>
		</comp>
		<comp name="--.HNZ" depth="0.0">
			<acc value="0.00179902464386669" flag="0"/>
			<vel value="0.00135834152651489" flag="0"/>
			<psa03 value="0.00472912285147624" flag="0"/>
			<psa10 value="0.00278078694786455" flag="0"/>
			<psa30 value="0.00017343168431042" flag="0"/>
		</comp>
	</station>
	<station code="LTHK" name="LTHK" netid="HP" source="University of Patras, Seismological Laboratory (PSLNET)" insttype="" lat="37.7095" lon="20.8367" esm:processing="manual (Paolucci et al 2011)" esm:quality="best">
		<comp name="--.HNE" depth="0.0">
			<acc value="1.22292719885669" flag="0"/>
			<vel value="0.259115798308937" flag="0"/>
			<psa03 value="0.878334258123293" flag="0"/>
			<psa10 value="0.0794165219033" flag="0"/>
			<psa30 value="0.00636234178111824" flag="0"/>
		</comp>
		<comp name="--.HNN" depth="0.0">
			<acc value="1.00197413222779" flag="0"/>
			<vel value="0.270761039703082" flag="0"/>
			<psa03 value="1.63134559550881" flag="0"/>
			<psa10 value="0.153912295922722" flag="0"/>
			<psa30 value="0.0100772871966333" flag="0"/>
		</comp>
		<comp name="--.HNZ" depth="0.0">
			<acc value="0.550440381161178" flag="0"/>
			<vel value="0.105132644739687" flag="0"/>
			<psa03 value="0.768671109701909" flag="0"/>
			<psa10 value="0.0548449968726775" flag="0"/>
			<psa30 value="0.00326618108313384" flag="0"/>
		</comp>
	</station>
	<station code="PVO" name="PVO" netid="HP" source="University of Patras, Seismological Laboratory (PSLNET)" insttype="" lat="38.616" lon="21.525" esm:processing="manual (Paolucci et al 2011)" esm:quality="good">
		<comp name="--.HNE" depth="0.0">
			<acc value="0.00264429435855882" flag="0"/>
			<vel value="0.00153524059096412" flag="0"/>
			<psa03 value="0.00715875305892348" flag="0"/>
			<psa10 value="0.00137313832111476" flag="0"/>
			<psa30 value="0.000213867747635339" flag="0"/>
		</comp>
		<comp name="--.HNN" depth="0.0">
			<acc value="0.00302701445001057" flag="0"/>
			<vel value="0.00156896735530881" flag="0"/>
			<psa03 value="0.00697978423245039" flag="0"/>
			<psa10 value="0.00115166439835431" flag="0"/>
			<psa30 value="9.53009000969188e-05" flag="0"/>
		</comp>
		<comp name="--.HNZ" depth="0.0">
			<acc value="0.00198076382795532" flag="0"/>
			<vel value="0.000729290263463237" flag="0"/>
			<psa03 value="0.00371360314931656" flag="0"/>
			<psa10 value="0.000748984538789869" flag="0"/>
			<psa30 value="0.000139595684649008" flag="0"/>
		</comp>
	</station>
	<station code="PYL" name="PYL" netid="HP" source="University of Patras, Seismological Laboratory (PSLNET)" insttype="" lat="36.8955" lon="21.742" esm:processing="manual (Paolucci et al 2011)" esm:quality="best">
		<comp name="--.HNE" depth="0.0">
			<acc value="0.012255374464252" flag="0"/>
			<vel value="0.00456828771310526" flag="0"/>
			<psa03 value="0.0208051260774964" flag="0"/>
			<psa10 value="0.00408317377598348" flag="0"/>
			<psa30 value="0.000539591011816357" flag="0"/>
		</comp>
		<comp name="--.HNN" depth="0.0">
			<acc value="0.00996896426345604" flag="0"/>
			<vel value="0.00292417646917248" flag="0"/>
			<psa03 value="0.0153913190766855" flag="0"/>
			<psa10 value="0.00328586765404588" flag="0"/>
			<psa30 value="0.000366438672203646" flag="0"/>
		</comp>
		<comp name="--.HNZ" depth="0.0">
			<acc value="0.00530145109770335" flag="0"/>
			<vel value="0.00191774254358504" flag="0"/>
			<psa03 value="0.00796411277805237" flag="0"/>
			<psa10 value="0.00208588167254383" flag="0"/>
			<psa30 value="0.000248319246731408" flag="0"/>
		</comp>
	</station>
	<station code="ARS1" name="ARS1" netid="HI" source="ITSAK Strong Motion Network" insttype="" lat="37.6349" lon="22.7293" esm:processing="discarded" esm:quality="bad">
		<comp name="--.HNE" depth="0.0">
			<acc value="0" flag="1"/>
			<vel value="0" flag="1"/>
			<psa03 value="0" flag="1"/>
			<psa10 value="0" flag="1"/>
			<psa30 value="0" flag="1"/>
		</comp>
		<comp name="--.HNN" depth="0.0">
			<acc value="0" flag="1"/>
			<vel value="0" flag="1"/>
			<psa03 value="0" flag="1"/>
			<psa10 value="0" flag="1"/>
			<psa30 value="0" flag="1"/>
		</comp>
		<comp name="--.HNZ" depth="0.0">
			<acc value="0" flag="1"/>
			<vel value="0" flag="1"/>
			<psa03 value="0" flag="1"/>
			<psa10 value="0" flag="1"/>
			<psa30 value="0" flag="1"/>
		</comp>
	</station>
	<station code="ART2" name="ART2" netid="HI" source="ITSAK Strong Motion Network" insttype="" lat="39.1474" lon="20.9937" esm:processing="discarded" esm:quality="bad">
		<comp name="--.HNE" depth="0.0">
			<acc value="0" flag="1"/>
			<vel value="0" flag="1"/>
			<psa03 value="0" flag="1"/>
			<psa10 value="0" flag="1"/>
			<psa30 value="0" flag="1"/>
		</comp>
		<comp name="--.HNN" depth="0.0">
			<acc value="0" flag="1"/>
			<vel value="0" flag="1"/>
			<psa03 value="0" flag="1"/>
			<psa10 value="0" flag="1"/>
			<psa30 value="0" flag="1"/>
		</comp>
		<comp name="--.HNZ" depth="0.0">
			<acc value="0" flag="1"/>
			<vel value="0" flag="1"/>
			<psa03 value="0" flag="1"/>
			<psa10 value="0" flag="1"/>
			<psa30 value="0" flag="1"/>
		</comp>
	</station>
	<station code="LAM2" name="LAM2" netid="HI" source="ITSAK Strong Motion Network" insttype="" lat="38.90203" lon="22.431301" esm:processing="discarded" esm:quality="bad">
		<comp name="--.HNE" depth="0.0">
			<acc value="0" flag="1"/>
			<vel value="0" flag="1"/>
			<psa03 value="0" flag="1"/>
			<psa10 value="0" flag="1"/>
			<psa30 value="0" flag="1"/>
		</comp>
		<comp name="--.HNN" depth="0.0">
			<acc value="0" flag="1"/>
			<vel value="0" flag="1"/>
			<psa03 value="0" flag="1"/>
			<psa10 value="0" flag="1"/>
			<psa30 value="0" flag="1"/>
		</comp>
		<comp name="--.HNZ" depth="0.0">
			<acc value="0" flag="1"/>
			<vel value="0" flag="1"/>
			<psa03 value="0" flag="1"/>
			<psa10 value="0" flag="1"/>
			<psa30 value="0" flag="1"/>
		</comp>
	</station>
	<station code="VAS2" name="VAS2" netid="HI" source="ITSAK Strong Motion Network" insttype="" lat="38.630558" lon="20.608081" esm:processing="discarded" esm:quality="good">
		<comp name="--.HNE" depth="0.0">
			<acc value="0" flag="1"/>
			<vel value="0" flag="1"/>
			<psa03 value="0" flag="1"/>
			<psa10 value="0" flag="1"/>
			<psa30 value="0" flag="1"/>
		</comp>
		<comp name="--.HNN" depth="0.0">
			<acc value="0" flag="1"/>
			<vel value="0" flag="1"/>
			<psa03 value="0" flag="1"/>
			<psa10 value="0" flag="1"/>
			<psa30 value="0" flag="1"/>
		</comp>
		<comp name="--.HNZ" depth="0.0">
			<acc value="0" flag="1"/>
			<vel value="0" flag="1"/>
			<psa03 value="0" flag="1"/>
			<psa10 value="0" flag="1"/>
			<psa30 value="0" flag="1"/>
		</comp>
	</station>
	<station code="DLFA" name="DLFA" netid="HL" source="National Observatory of Athens Seismic Network" insttype="" lat="38.47836" lon="22.49583" esm:processing="discarded" esm:quality="bad">
		<comp name="00.HNE" depth="0.0">
			<acc value="0" flag="1"/>
			<vel value="0" flag="1"/>
			<psa03 value="0" flag="1"/>
			<psa10 value="0" flag="1"/>
			<psa30 value="0" flag="1"/>
		</comp>
		<comp name="00.HNN" depth="0.0">
			<acc value="0" flag="1"/>
			<vel value="0" flag="1"/>
			<psa03 value="0" flag="1"/>
			<psa10 value="0" flag="1"/>
			<psa30 value="0" flag="1"/>
		</comp>
		<comp name="00.HNZ" depth="0.0">
			<acc value="0" flag="1"/>
			<vel value="0" flag="1"/>
			<psa03 value="0" flag="1"/>
			<psa10 value="0" flag="1"/>
			<psa30 value="0" flag="1"/>
		</comp>
	</station>
	<station code="ITM" name="ITM" netid="HL" source="National Observatory of Athens Seismic Network" insttype="" lat="37.17872" lon="21.92522" esm:processing="discarded" esm:quality="bad">
		<comp name="--.HNE" depth="0.0">
			<acc value="0" flag="1"/>
			<vel value="0" flag="1"/>
			<psa03 value="0" flag="1"/>
			<psa10 value="0" flag="1"/>
			<psa30 value="0" flag="1"/>
		</comp>
		<comp name="--.HNN" depth="0.0">
			<acc value="0" flag="1"/>
			<vel value="0" flag="1"/>
			<psa03 value="0" flag="1"/>
			<psa10 value="0" flag="1"/>
			<psa30 value="0" flag="1"/>
		</comp>
		<comp name="--.HNZ" depth="0.0">
			<acc value="0" flag="1"/>
			<vel value="0" flag="1"/>
			<psa03 value="0" flag="1"/>
			<psa10 value="0" flag="1"/>
			<psa30 value="0" flag="1"/>
		</comp>
	</station>
	<station code="MNVA" name="MNVA" netid="HL" source="National Observatory of Athens Seismic Network" insttype="" lat="36.68709" lon="23.03734" esm:processing="discarded" esm:quality="bad">
		<comp name="00.HNE" depth="0.0">
			<acc value="0" flag="1"/>
			<vel value="0" flag="1"/>
			<psa03 value="0" flag="1"/>
			<psa10 value="0" flag="1"/>
			<psa30 value="0" flag="1"/>
		</comp>
		<comp name="00.HNN" depth="0.0">
			<acc value="0" flag="1"/>
			<vel value="0" flag="1"/>
			<psa03 value="0" flag="1"/>
			<psa10 value="0" flag="1"/>
			<psa30 value="0" flag="1"/>
		</comp>
		<comp name="00.HNZ" depth="0.0">
			<acc value="0" flag="1"/>
			<vel value="0" flag="1"/>
			<psa03 value="0" flag="1"/>
			<psa10 value="0" flag="1"/>
			<psa30 value="0" flag="1"/>
		</comp>
	</station>
	<station code="PATC" name="PATC" netid="HL" source="National Observatory of Athens Seismic Network" insttype="" lat="38.26933" lon="21.76001" esm:processing="discarded" esm:quality="best">
		<comp name="00.HNE" depth="0.0">
			<acc value="0" flag="1"/>
			<vel value="0" flag="1"/>
			<psa03 value="0" flag="1"/>
			<psa10 value="0" flag="1"/>
			<psa30 value="0" flag="1"/>
		</comp>
		<comp name="00.HNN" depth="0.0">
			<acc value="0" flag="1"/>
			<vel value="0" flag="1"/>
			<psa03 value="0" flag="1"/>
			<psa10 value="0" flag="1"/>
			<psa30 value="0" flag="1"/>
		</comp>
		<comp name="00.HNZ" depth="0.0">
			<acc value="0" flag="1"/>
			<vel value="0" flag="1"/>
			<psa03 value="0" flag="1"/>
			<psa10 value="0" flag="1"/>
			<psa30 value="0" flag="1"/>
		</comp>
	</station>
	<station code="RIOA" name="RIOA" netid="HL" source="National Observatory of Athens Seismic Network" insttype="" lat="38.29585" lon="21.79118" esm:processing="discarded" esm:quality="bad">
		<comp name="00.HNE" depth="0.0">
			<acc value="0" flag="1"/>
			<vel value="0" flag="1"/>
			<psa03 value="0" flag="1"/>
			<psa10 value="0" flag="1"/>
			<psa30 value="0" flag="1"/>
		</comp>
		<comp name="00.HNN" depth="0.0">
			<acc value="0" flag="1"/>
			<vel value="0" flag="1"/>
			<psa03 value="0" flag="1"/>
			<psa10 value="0" flag="1"/>
			<psa30 value="0" flag="1"/>
		</comp>
		<comp name="00.HNZ" depth="0.0">
			<acc value="0" flag="1"/>
			<vel value="0" flag="1"/>
			<psa03 value="0" flag="1"/>
			<psa10 value="0" flag="1"/>
			<psa30 value="0" flag="1"/>
		</comp>
	</station>
	<station code="FSK" name="FSK" netid="HP" source="University of Patras, Seismological Laboratory (PSLNET)" insttype="" lat="38.4593" lon="20.5623" esm:processing="discarded" esm:quality="good">
		<comp name="--.HNE" depth="0.0">
			<acc value="0" flag="1"/>
			<vel value="0" flag="1"/>
			<psa03 value="0" flag="1"/>
			<psa10 value="0" flag="1"/>
			<psa30 value="0" flag="1"/>
		</comp>
		<comp name="--.HNN" depth="0.0">
			<acc value="0" flag="1"/>
			<vel value="0" flag="1"/>
			<psa03 value="0" flag="1"/>
			<psa10 value="0" flag="1"/>
			<psa30 value="0" flag="1"/>
		</comp>
		<comp name="--.HNZ" depth="0.0">
			<acc value="0" flag="1"/>
			<vel value="0" flag="1"/>
			<psa03 value="0" flag="1"/>
			<psa10 value="0" flag="1"/>
			<psa30 value="0" flag="1"/>
		</comp>
	</station>
	<station code="GUR" name="GUR" netid="HP" source="University of Patras, Seismological Laboratory (PSLNET)" insttype="" lat="37.9363" lon="22.3423" esm:processing="discarded" esm:quality="good">
		<comp name="--.HNE" depth="0.0">
			<acc value="0" flag="1"/>
			<vel value="0" flag="1"/>
			<psa03 value="0" flag="1"/>
			<psa10 value="0" flag="1"/>
			<psa30 value="0" flag="1"/>
		</comp>
		<comp name="--.HNN" depth="0.0">
			<acc value="0" flag="1"/>
			<vel value="0" flag="1"/>
			<psa03 value="0" flag="1"/>
			<psa10 value="0" flag="1"/>
			<psa30 value="0" flag="1"/>
		</comp>
		<comp name="--.HNZ" depth="0.0">
			<acc value="0" flag="1"/>
			<vel value="0" flag="1"/>
			<psa03 value="0" flag="1"/>
			<psa10 value="0" flag="1"/>
			<psa30 value="0" flag="1"/>
		</comp>
	</station>
	<station code="LTK" name="LTK" netid="HP" source="University of Patras, Seismological Laboratory (PSLNET)" insttype="" lat="38.0228" lon="22.9673" esm:processing="discarded" esm:quality="bad">
		<comp name="--.HNE" depth="0.0">
			<acc value="0" flag="1"/>
			<vel value="0" flag="1"/>
			<psa03 value="0" flag="1"/>
			<psa10 value="0" flag="1"/>
			<psa30 value="0" flag="1"/>
		</comp>
		<comp name="--.HNN" depth="0.0">
			<acc value="0" flag="1"/>
			<vel value="0" flag="1"/>
			<psa03 value="0" flag="1"/>
			<psa10 value="0" flag="1"/>
			<psa30 value="0" flag="1"/>
		</comp>
