<?xml version="1.0" encoding="UTF-8" standalone="yes"?>
<!DOCTYPE earthquake SYSTEM "stationlist.dtd">
<stationlist created="" xmlns="ch.ethz.sed.shakemap.usgs.xml">
  <station code="KARP" name="KARP" netid="GE" insttype="STS-2/N" lat="35.5471" lon="27.1611">
    <comp name="--.HHE">
      <acc value="0.0000835701" flag="0"/>
      <vel value="0.0000058434" flag="0"/>
      <psa03 value="0.0000134472" flag="0"/>
      <psa10 value="0.0000006987" flag="0"/>
      <psa30 value="0.0000000573" flag="0"/>
    </comp>
    <comp name="--.HHN">
      <acc value="0.0001442522" flag="0"/>
      <vel value="0.0000107373" flag="0"/>
      <psa03 value="0.0000249935" flag="0"/>
      <psa10 value="0.0000011991" flag="0"/>
      <psa30 value="0.0000001105" flag="0"/>
    </comp>
    <comp name="--.HHZ">
      <acc value="0.0001308579" flag="0"/>
      <vel value="0.0000113697" flag="0"/>
      <psa03 value="0.0000294471" flag="0"/>
      <psa10 value="0.0000016273" flag="0"/>
      <psa30 value="0.0000001290" flag="0"/>
    </comp>
  </station>
  <station code="ZKR" name="ZKR" netid="GE" insttype="STS-2/N" lat="35.1147" lon="26.2169">
    <comp name="--.HHE">
      <acc value="1.0510742517" flag="0"/>
      <vel value="0.4239063458" flag="0"/>
      <psa03 value="2.4675561729" flag="0"/>
      <psa10 value="0.2695295030" flag="0"/>
      <psa30 value="0.0421613805" flag="0"/>
    </comp>
    <comp name="--.HHN">
      <acc value="0.6322306609" flag="0"/>
      <vel value="0.2516960036" flag="0"/>
      <psa03 value="1.4563773082" flag="0"/>
      <psa10 value="0.0782097615" flag="0"/>
      <psa30 value="0.0116894537" flag="0"/>
    </comp>
    <comp name="--.HHZ">
      <acc value="0.5468309406" flag="0"/>
      <vel value="0.1876498634" flag="0"/>
      <psa03 value="0.8376056524" flag="0"/>
      <psa10 value="0.1911419008" flag="0"/>
      <psa30 value="0.0211963875" flag="0"/>
    </comp>
  </station>
  <station code="KNSS" name="KNSS" netid="HC" insttype="60" lat="35.3042" lon="25.1802">
    <comp name="--.HHE">
      <acc value="0.0153986476" flag="0"/>
      <vel value="0.0127691619" flag="0"/>
      <psa03 value="0.0571994466" flag="0"/>
      <psa10 value="0.0197253242" flag="0"/>
      <psa30 value="0.0047358093" flag="0"/>
    </comp>
    <comp name="--.HHN">
      <acc value="0.0164500580" flag="0"/>
      <vel value="0.0127552002" flag="0"/>
      <psa03 value="0.0667951654" flag="0"/>
      <psa10 value="0.0209360256" flag="0"/>
      <psa30 value="0.0053204030" flag="0"/>
    </comp>
    <comp name="--.HHZ">
      <acc value="0.0106504781" flag="0"/>
      <vel value="0.0052146566" flag="0"/>
      <psa03 value="0.0335755703" flag="0"/>
      <psa10 value="0.0044864135" flag="0"/>
      <psa30 value="0.0004701998" flag="0"/>
    </comp>
  </station>
  <station code="PFKS" name="PFKS" netid="HC" insttype="120" lat="35.0429" lon="25.4733">
    <comp name="--.HHN">
      <acc value="0.0898196424" flag="0"/>
      <vel value="0.0484125993" flag="0"/>
      <psa03 value="0.1463975623" flag="0"/>
      <psa10 value="0.0327133942" flag="0"/>
      <psa30 value="0.0024191905" flag="0"/>
    </comp>
    <comp name="--.HHZ">
      <acc value="0.0455302215" flag="0"/>
      <vel value="0.0209414403" flag="0"/>
      <psa03 value="0.0950674783" flag="0"/>
      <psa10 value="0.0215498284" flag="0"/>
      <psa30 value="0.0049286669" flag="0"/>
    </comp>
    <comp name="--.HHE">
      <acc value="0.0980966778" flag="0"/>
      <vel value="0.0408167540" flag="0"/>
      <psa03 value="0.2013371316" flag="0"/>
      <psa10 value="0.0301970998" flag="0"/>
      <psa30 value="0.0041415211" flag="0"/>
    </comp>
  </station>
  <station code="STIA" name="STIA" netid="HC" insttype="120" lat="35.2021" lon="26.0909">
    <comp name="--.HHE">
      <acc value="0.0000000000" flag="0"/>
      <vel value="-100.0000000000" flag="0"/>
      <psa03 value="0.0000000000" flag="0"/>
      <psa10 value="0.0000000000" flag="0"/>
      <psa30 value="0.0000000000" flag="0"/>
    </comp>
    <comp name="--.HHN">
      <acc value="0.0000000000" flag="0"/>
      <vel value="-100.0000000000" flag="0"/>
      <psa03 value="0.0000000000" flag="0"/>
      <psa10 value="0.0000000000" flag="0"/>
      <psa30 value="0.0000000000" flag="0"/>
    </comp>
    <comp name="--.HHZ">
      <acc value="0.4399381266" flag="0"/>
      <vel value="0.1108668731" flag="0"/>
      <psa03 value="0.6170663331" flag="0"/>
      <psa10 value="0.1128908934" flag="0"/>
      <psa30 value="0.0105702035" flag="0"/>
    </comp>
  </station>
  <station code="TEFL" name="TEFL" netid="HC" insttype="GEOtiny," lat="35.0933" lon="25.1634">
    <comp name="--.HHE">
      <acc value="0.0513163737" flag="0"/>
      <vel value="0.0363027809" flag="0"/>
      <psa03 value="0.1025705022" flag="0"/>
      <psa10 value="0.0489973750" flag="0"/>
      <psa30 value="0.0064434541" flag="0"/>
    </comp>
    <comp name="--.HHN">
      <acc value="0.0481971141" flag="0"/>
      <vel value="0.0270249957" flag="0"/>
      <psa03 value="0.1502549514" flag="0"/>
      <psa10 value="0.0464274818" flag="0"/>
      <psa30 value="0.0061864107" flag="0"/>
    </comp>
    <comp name="--.HHZ">
      <acc value="0.0398436318" flag="0"/>
      <vel value="0.0163288516" flag="0"/>
      <psa03 value="0.0577649521" flag="0"/>
      <psa10 value="0.0181066697" flag="0"/>
      <psa30 value="0.0039089246" flag="0"/>
    </comp>
  </station>
  <station code="IACM" name="IACM" netid="HL" insttype="120" lat="35.3058" lon="25.0709">
    <comp name="--.HHE">
      <acc value="0.0618854648" flag="0"/>
      <vel value="0.0616026299" flag="0"/>
      <psa03 value="0.1863229918" flag="0"/>
      <psa10 value="0.1229542571" flag="0"/>
      <psa30 value="0.0087886991" flag="0"/>
    </comp>
    <comp name="--.HHZ">
      <acc value="0.0444454454" flag="0"/>
      <vel value="0.0316144133" flag="0"/>
      <psa03 value="0.0750546221" flag="0"/>
      <psa10 value="0.0464929573" flag="0"/>
      <psa30 value="0.0030471652" flag="0"/>
    </comp>
    <comp name="--.HHN">
      <acc value="0.0570790325" flag="0"/>
      <vel value="0.0618781517" flag="0"/>
      <psa03 value="0.1534789082" flag="0"/>
      <psa10 value="0.1579186798" flag="0"/>
      <psa30 value="0.0063996826" flag="0"/>
    </comp>
  </station>
  <station code="IDI" name="IDI" netid="HL" insttype="120" lat="35.288" lon="24.89">
    <comp name="--.HHE">
      <acc value="0.0061232742" flag="0"/>
      <vel value="0.0060135730" flag="0"/>
      <psa03 value="0.0190932520" flag="0"/>
      <psa10 value="0.0098564799" flag="0"/>
      <psa30 value="0.0019103431" flag="0"/>
    </comp>
    <comp name="--.HHN">
      <acc value="0.0066076765" flag="0"/>
      <vel value="0.0072974360" flag="0"/>
      <psa03 value="0.0205175741" flag="0"/>
      <psa10 value="0.0127846742" flag="0"/>
      <psa30 value="0.0022624570" flag="0"/>
    </comp>
    <comp name="--.HHZ">
      <acc value="0.0055444492" flag="0"/>
      <vel value="0.0054347173" flag="0"/>
      <psa03 value="0.0174582840" flag="0"/>
      <psa10 value="0.0070526053" flag="0"/>
      <psa30 value="0.0022774645" flag="0"/>
    </comp>
  </station>
  <station code="KARP" name="KARP" netid="HL" insttype="120" lat="35.5471" lon="27.1611">
    <comp name="--.HHE">
      <acc value="0.0000650932" flag="0"/>
      <vel value="0.0000052942" flag="0"/>
      <psa03 value="0.0000128291" flag="0"/>
      <psa10 value="0.0000006539" flag="0"/>
      <psa30 value="0.0000000560" flag="0"/>
    </comp>
    <comp name="--.HHN">
      <acc value="0.0001165210" flag="0"/>
      <vel value="0.0000082417" flag="0"/>
      <psa03 value="0.0000239385" flag="0"/>
      <psa10 value="0.0000011613" flag="0"/>
      <psa30 value="0.0000001076" flag="0"/>
    </comp>
    <comp name="--.HHZ">
      <acc value="0.0000966408" flag="0"/>
      <vel value="0.0000103067" flag="0"/>
      <psa03 value="0.0000286486" flag="0"/>
      <psa10 value="0.0000015733" flag="0"/>
      <psa30 value="0.0000001251" flag="0"/>
    </comp>
  </station>
  <station code="SIVA" name="SIVA" netid="HL" insttype="60" lat="35.0178" lon="24.812">
    <comp name="--.HHZ">
      <acc value="0.0102931357" flag="0"/>
      <vel value="0.0118173292" flag="0"/>
      <psa03 value="0.0215837685" flag="0"/>
      <psa10 value="0.0241533453" flag="0"/>
      <psa30 value="0.0025599551" flag="0"/>
    </comp>
    <comp name="--.HHE">
      <acc value="0.0213660014" flag="0"/>
      <vel value="0.0207798121" flag="0"/>
      <psa03 value="0.0469705115" flag="0"/>
      <psa10 value="0.0377301833" flag="0"/>
      <psa30 value="0.0021856211" flag="0"/>
    </comp>
    <comp name="--.HHN">
      <acc value="0.0168084118" flag="0"/>
      <vel value="0.0170817132" flag="0"/>
      <psa03 value="0.0303002027" flag="0"/>
      <psa10 value="0.0241376700" flag="0"/>
      <psa30 value="0.0029856263" flag="0"/>
    </comp>
  </station>
  <station code="ZKR" name="ZKR" netid="HL" insttype="120" lat="35.1147" lon="26.2169">
    <comp name="--.HHE">
      <acc value="1.0207427679" flag="0"/>
      <vel value="0.4170553016" flag="0"/>
      <psa03 value="2.3957032525" flag="0"/>
      <psa10 value="0.2664644494" flag="0"/>
      <psa30 value="0.0421716456" flag="0"/>
    </comp>
    <comp name="--.HHN">
      <acc value="0.6193449329" flag="0"/>
      <vel value="0.2453188698" flag="0"/>
      <psa03 value="1.4174841149" flag="0"/>
      <psa10 value="0.0766830172" flag="0"/>
      <psa30 value="0.0116821511" flag="0"/>
    </comp>
    <comp name="--.HHZ">
      <acc value="0.5504333125" flag="0"/>
      <vel value="0.1826953002" flag="0"/>
      <psa03 value="0.8158336865" flag="0"/>
      <psa10 value="0.1902048469" flag="0"/>
      <psa30 value="0.0211572931" flag="0"/>
    </comp>
  </station>
  <station code="IDI" name="IDI" netid="MN" insttype="" lat="35.288" lon="24.89">
    <comp name="--.HHE">
      <acc value="0.0061658549" flag="0"/>
      <vel value="0.0060144492" flag="0"/>
      <psa03 value="0.0193144567" flag="0"/>
      <psa10 value="0.0097823793" flag="0"/>
      <psa30 value="0.0018877605" flag="0"/>
    </comp>
    <comp name="--.HHN">
      <acc value="0.0066984719" flag="0"/>
      <vel value="0.0072334052" flag="0"/>
      <psa03 value="0.0206435080" flag="0"/>
      <psa10 value="0.0126804066" flag="0"/>
      <psa30 value="0.0022364886" flag="0"/>
    </comp>
    <comp name="--.HHZ">
      <acc value="0.0055942855" flag="0"/>
      <vel value="0.0054194133" flag="0"/>
      <psa03 value="0.0176894293" flag="0"/>
      <psa10 value="0.0069963871" flag="0"/>
      <psa30 value="0.0022497010" flag="0"/>
    </comp>
  </station>
</stationlist>
