<?xml version="1.0" encoding="UTF-8" standalone="yes"?>
<!DOCTYPE earthquake SYSTEM "stationlist.dtd">
<stationlist created="" xmlns="ch.ethz.sed.shakemap.usgs.xml">
  <station code="KARP" name="KARP" netid="GE" insttype="STS-2/N" lat="35.5471" lon="27.1611">
    <comp name="--.HHE">
      <acc value="0.0000835701" flag="0"/>
      <vel value="0.0000058434" flag="0"/>
      <psa03 value="0.0000134472" flag="0"/>
      <psa10 value="0.0000006987" flag="0"/>
      <psa30 value="0.0000000574" flag="0"/>
    </comp>
    <comp name="--.HHN">
      <acc value="0.0001442522" flag="0"/>
      <vel value="0.0000107373" flag="0"/>
      <psa03 value="0.0000249935" flag="0"/>
      <psa10 value="0.0000011991" flag="0"/>
      <psa30 value="0.0000001105" flag="0"/>
    </comp>
    <comp name="--.HHZ">
      <acc value="0.0001308579" flag="0"/>
      <vel value="0.0000113697" flag="0"/>
      <psa03 value="0.0000294471" flag="0"/>
      <psa10 value="0.0000016273" flag="0"/>
      <psa30 value="0.0000001291" flag="0"/>
    </comp>
  </station>
  <station code="ZKR" name="ZKR" netid="GE" insttype="STS-2/N" lat="35.1147" lon="26.2169">
    <comp name="--.HHE">
      <acc value="1.0510742517" flag="0"/>
      <vel value="0.4239063451" flag="0"/>
      <psa03 value="2.4675561729" flag="0"/>
      <psa10 value="0.2695295018" flag="0"/>
      <psa30 value="0.0421613648" flag="0"/>
    </comp>
    <comp name="--.HHN">
      <acc value="0.6322306603" flag="0"/>
      <vel value="0.2516960036" flag="0"/>
      <psa03 value="1.4563773082" flag="0"/>
      <psa10 value="0.0782097605" flag="0"/>
      <psa30 value="0.0116894622" flag="0"/>
    </comp>
    <comp name="--.HHZ">
      <acc value="0.5468309400" flag="0"/>
      <vel value="0.1876498634" flag="0"/>
      <psa03 value="0.8376056524" flag="0"/>
      <psa10 value="0.1911419026" flag="0"/>
      <psa30 value="0.0211962881" flag="0"/>
    </comp>
  </station>
  <station code="KNSS" name="KNSS" netid="HC" insttype="60" lat="35.3042" lon="25.1802">
    <comp name="--.HHE">
      <acc value="0.0153986466" flag="0"/>
      <vel value="0.0127691581" flag="0"/>
      <psa03 value="0.0571994466" flag="0"/>
      <psa10 value="0.0197253243" flag="0"/>
      <psa30 value="0.0047332848" flag="0"/>
    </comp>
    <comp name="--.HHN">
      <acc value="0.0164500578" flag="0"/>
      <vel value="0.0127552015" flag="0"/>
      <psa03 value="0.0667951654" flag="0"/>
      <psa10 value="0.0209360256" flag="0"/>
      <psa30 value="0.0053244811" flag="0"/>
    </comp>
    <comp name="--.HHZ">
      <acc value="0.0106504782" flag="0"/>
      <vel value="0.0065765758" flag="0"/>
      <psa03 value="0.0335755703" flag="0"/>
      <psa10 value="0.0079128825" flag="0"/>
      <psa30 value="0.0040069571" flag="0"/>
    </comp>
  </station>
  <station code="PFKS" name="PFKS" netid="HC" insttype="120" lat="35.0429" lon="25.4733">
    <comp name="--.HHE">
      <acc value="0.0980966773" flag="0"/>
      <vel value="0.0408167539" flag="0"/>
      <psa03 value="0.2013371316" flag="0"/>
      <psa10 value="0.0301970998" flag="0"/>
      <psa30 value="0.0041415240" flag="0"/>
    </comp>
    <comp name="--.HHN">
      <acc value="0.0898196418" flag="0"/>
      <vel value="0.0484125991" flag="0"/>
      <psa03 value="0.1463975623" flag="0"/>
      <psa10 value="0.0327133942" flag="0"/>
      <psa30 value="0.0024193897" flag="0"/>
    </comp>
    <comp name="--.HHZ">
      <acc value="0.0455302217" flag="0"/>
      <vel value="0.0209414402" flag="0"/>
      <psa03 value="0.0950674783" flag="0"/>
      <psa10 value="0.0215498284" flag="0"/>
      <psa30 value="0.0049286668" flag="0"/>
    </comp>
  </station>
  <station code="STIA" name="STIA" netid="HC" insttype="120" lat="35.2021" lon="26.0909">
    <comp name="--.HHZ">
      <acc value="0.4399381264" flag="0"/>
      <vel value="0.1108668729" flag="0"/>
      <psa03 value="0.6170663331" flag="0"/>
      <psa10 value="0.1128908934" flag="0"/>
      <psa30 value="0.0105701856" flag="0"/>
    </comp>
    <comp name="--.HHE">
      <acc value="0.0000000000" flag="0"/>
      <vel value="-100.0000000000" flag="0"/>
      <psa03 value="0.0000000000" flag="0"/>
      <psa10 value="0.0000000000" flag="0"/>
      <psa30 value="0.0000000000" flag="0"/>
    </comp>
    <comp name="--.HHN">
      <acc value="0.0000000000" flag="0"/>
      <vel value="-100.0000000000" flag="0"/>
      <psa03 value="0.0000000000" flag="0"/>
      <psa10 value="0.0000000000" flag="0"/>
      <psa30 value="0.0000000000" flag="0"/>
    </comp>
  </station>
  <station code="TEFL" name="TEFL" netid="HC" insttype="GEOtiny," lat="35.0933" lon="25.1634">
    <comp name="--.HHE">
      <acc value="0.0513163685" flag="0"/>
      <vel value="0.0363029268" flag="0"/>
      <psa03 value="0.1025705033" flag="0"/>
      <psa10 value="0.0489973765" flag="0"/>
      <psa30 value="0.0052037956" flag="0"/>
    </comp>
    <comp name="--.HHN">
      <acc value="0.0481971148" flag="0"/>
      <vel value="0.0270253026" flag="0"/>
      <psa03 value="0.1502549497" flag="0"/>
      <psa10 value="0.0464274787" flag="0"/>
      <psa30 value="0.0061864009" flag="0"/>
    </comp>
    <comp name="--.HHZ">
      <acc value="0.0398436360" flag="0"/>
      <vel value="0.0163281384" flag="0"/>
      <psa03 value="0.0577649529" flag="0"/>
      <psa10 value="0.0181066708" flag="0"/>
      <psa30 value="0.0039088466" flag="0"/>
    </comp>
  </station>
  <station code="IACM" name="IACM" netid="HL" insttype="120" lat="35.3058" lon="25.0709">
    <comp name="--.HHZ">
      <acc value="0.0444454459" flag="0"/>
      <vel value="0.0316144157" flag="0"/>
      <psa03 value="0.0750546221" flag="0"/>
      <psa10 value="0.0464929573" flag="0"/>
      <psa30 value="0.0030465144" flag="0"/>
    </comp>
    <comp name="--.HHN">
      <acc value="0.0570790325" flag="0"/>
      <vel value="0.0618781456" flag="0"/>
      <psa03 value="0.1534789082" flag="0"/>
      <psa10 value="0.1579186797" flag="0"/>
      <psa30 value="0.0060013943" flag="0"/>
    </comp>
    <comp name="--.HHE">
      <acc value="0.0618854644" flag="0"/>
      <vel value="0.0616026292" flag="0"/>
      <psa03 value="0.1863229918" flag="0"/>
      <psa10 value="0.1229542571" flag="0"/>
      <psa30 value="0.0083774185" flag="0"/>
    </comp>
  </station>
  <station code="KARP" name="KARP" netid="HL" insttype="120" lat="35.5471" lon="27.1611">
    <comp name="--.HHN">
      <acc value="0.0001165210" flag="0"/>
      <vel value="0.0000082417" flag="0"/>
      <psa03 value="0.0000239385" flag="0"/>
      <psa10 value="0.0000011613" flag="0"/>
      <psa30 value="0.0000001076" flag="0"/>
    </comp>
    <comp name="--.HHE">
      <acc value="0.0000650932" flag="0"/>
      <vel value="0.0000052942" flag="0"/>
      <psa03 value="0.0000128291" flag="0"/>
      <psa10 value="0.0000006539" flag="0"/>
      <psa30 value="0.0000000560" flag="0"/>
    </comp>
    <comp name="--.HHZ">
      <acc value="0.0000966407" flag="0"/>
      <vel value="0.0000103067" flag="0"/>
      <psa03 value="0.0000286486" flag="0"/>
      <psa10 value="0.0000015733" flag="0"/>
      <psa30 value="0.0000001252" flag="0"/>
    </comp>
  </station>
  <station code="ZKR" name="ZKR" netid="HL" insttype="120" lat="35.1147" lon="26.2169">
    <comp name="--.HHN">
      <acc value="0.6193449324" flag="0"/>
      <vel value="0.2453188699" flag="0"/>
      <psa03 value="1.4174841149" flag="0"/>
      <psa10 value="0.0766830162" flag="0"/>
      <psa30 value="0.0116821596" flag="0"/>
    </comp>
    <comp name="--.HHZ">
      <acc value="0.5504333120" flag="0"/>
      <vel value="0.1826953002" flag="0"/>
      <psa03 value="0.8158336865" flag="0"/>
      <psa10 value="0.1902048487" flag="0"/>
      <psa30 value="0.0211571936" flag="0"/>
    </comp>
    <comp name="--.HHE">
      <acc value="1.0207427679" flag="0"/>
      <vel value="0.4170553010" flag="0"/>
      <psa03 value="2.3957032525" flag="0"/>
      <psa10 value="0.2664644481" flag="0"/>
      <psa30 value="0.0421716297" flag="0"/>
    </comp>
  </station>
</stationlist>
