<?xml version="1.0" encoding="UTF-8" standalone="yes"?>
<!DOCTYPE earthquake SYSTEM "stationlist.dtd">
<stationlist created="" xmlns="ch.ethz.sed.shakemap.usgs.xml">
  <station code="KARP" name="KARP" netid="GE" insttype="STS-2/N" lat="35.5471" lon="27.1611">
    <comp name="--.HHE">
      <acc value="0.0000835700" flag="0"/>
      <vel value="0.0000058434" flag="0"/>
      <psa03 value="0.0000134472" flag="0"/>
      <psa10 value="0.0000006987" flag="0"/>
      <psa30 value="0.0000000573" flag="0"/>
    </comp>
    <comp name="--.HHN">
      <acc value="0.0001442521" flag="0"/>
      <vel value="0.0000107373" flag="0"/>
      <psa03 value="0.0000249935" flag="0"/>
      <psa10 value="0.0000011991" flag="0"/>
      <psa30 value="0.0000001105" flag="0"/>
    </comp>
    <comp name="--.HHZ">
      <acc value="0.0001308579" flag="0"/>
      <vel value="0.0000113697" flag="0"/>
      <psa03 value="0.0000294471" flag="0"/>
      <psa10 value="0.0000016273" flag="0"/>
      <psa30 value="0.0000001290" flag="0"/>
    </comp>
  </station>
  <station code="ZKR" name="ZKR" netid="GE" insttype="STS-2/N" lat="35.1147" lon="26.2169">
    <comp name="--.HHN">
      <acc value="0.6322306609" flag="0"/>
      <vel value="0.2516960034" flag="0"/>
      <psa03 value="1.4563773082" flag="0"/>
      <psa10 value="0.0782097615" flag="0"/>
      <psa30 value="0.0116894619" flag="0"/>
    </comp>
    <comp name="--.HHE">
      <acc value="1.0510742515" flag="0"/>
      <vel value="0.4239063456" flag="0"/>
      <psa03 value="2.4675561729" flag="0"/>
      <psa10 value="0.2695295037" flag="0"/>
      <psa30 value="0.0421614008" flag="0"/>
    </comp>
    <comp name="--.HHZ">
      <acc value="0.5468309406" flag="0"/>
      <vel value="0.1876498629" flag="0"/>
      <psa03 value="0.8376056524" flag="0"/>
      <psa10 value="0.1911418984" flag="0"/>
      <psa30 value="0.0211965120" flag="0"/>
    </comp>
  </station>
  <station code="KNSS" name="KNSS" netid="HC" insttype="60" lat="35.3042" lon="25.1802">
    <comp name="--.HHE">
      <acc value="0.0153986477" flag="0"/>
      <vel value="0.0127691580" flag="0"/>
      <psa03 value="0.0571994466" flag="0"/>
      <psa10 value="0.0197253242" flag="0"/>
      <psa30 value="0.0047358104" flag="0"/>
    </comp>
    <comp name="--.HHN">
      <acc value="0.0164500580" flag="0"/>
      <vel value="0.0127551998" flag="0"/>
      <psa03 value="0.0667951654" flag="0"/>
      <psa10 value="0.0209360255" flag="0"/>
      <psa30 value="0.0053204041" flag="0"/>
    </comp>
    <comp name="--.HHZ">
      <acc value="0.0106504779" flag="0"/>
      <vel value="0.0052146546" flag="0"/>
      <psa03 value="0.0335755703" flag="0"/>
      <psa10 value="0.0044864204" flag="0"/>
      <psa30 value="0.0004700000" flag="0"/>
    </comp>
  </station>
  <station code="PFKS" name="PFKS" netid="HC" insttype="120" lat="35.0429" lon="25.4733">
    <comp name="--.HHE">
      <acc value="0.0980966779" flag="0"/>
      <vel value="0.0408167537" flag="0"/>
      <psa03 value="0.2013371316" flag="0"/>
      <psa10 value="0.0301970998" flag="0"/>
      <psa30 value="0.0041415411" flag="0"/>
    </comp>
    <comp name="--.HHN">
      <acc value="0.0898196422" flag="0"/>
      <vel value="0.0484125994" flag="0"/>
      <psa03 value="0.1463975623" flag="0"/>
      <psa10 value="0.0327133942" flag="0"/>
      <psa30 value="0.0024191917" flag="0"/>
    </comp>
    <comp name="--.HHZ">
      <acc value="0.0455302215" flag="0"/>
      <vel value="0.0209414402" flag="0"/>
      <psa03 value="0.0950674783" flag="0"/>
      <psa10 value="0.0215498284" flag="0"/>
      <psa30 value="0.0049286675" flag="0"/>
    </comp>
  </station>
  <station code="STIA" name="STIA" netid="HC" insttype="120" lat="35.2021" lon="26.0909">
    <comp name="--.HHE">
      <acc value="0.0000000000" flag="0"/>
      <vel value="-100.0000000000" flag="0"/>
      <psa03 value="0.0000000000" flag="0"/>
      <psa10 value="0.0000000000" flag="0"/>
      <psa30 value="0.0000000000" flag="0"/>
    </comp>
    <comp name="--.HHN">
      <acc value="0.0000000000" flag="0"/>
      <vel value="-100.0000000000" flag="0"/>
      <psa03 value="0.0000000000" flag="0"/>
      <psa10 value="0.0000000000" flag="0"/>
      <psa30 value="0.0000000000" flag="0"/>
    </comp>
    <comp name="--.HHZ">
      <acc value="0.4399381266" flag="0"/>
      <vel value="0.1108668718" flag="0"/>
      <psa03 value="0.6170663331" flag="0"/>
      <psa10 value="0.1128908935" flag="0"/>
      <psa30 value="0.0105702939" flag="0"/>
    </comp>
  </station>
  <station code="TEFL" name="TEFL" netid="HC" insttype="GEOtiny," lat="35.0933" lon="25.1634">
    <comp name="--.HHN">
      <acc value="0.0481971217" flag="0"/>
      <vel value="0.0270241491" flag="0"/>
      <psa03 value="0.1502549515" flag="0"/>
      <psa10 value="0.0464274820" flag="0"/>
      <psa30 value="0.0061863253" flag="0"/>
    </comp>
    <comp name="--.HHE">
      <acc value="0.0513163598" flag="0"/>
      <vel value="0.0362975117" flag="0"/>
      <psa03 value="0.1025705034" flag="0"/>
      <psa10 value="0.0489973775" flag="0"/>
      <psa30 value="0.0064434316" flag="0"/>
    </comp>
    <comp name="--.HHZ">
      <acc value="0.0398436301" flag="0"/>
      <vel value="0.0163272999" flag="0"/>
      <psa03 value="0.0577649528" flag="0"/>
      <psa10 value="0.0181066705" flag="0"/>
      <psa30 value="0.0039089151" flag="0"/>
    </comp>
  </station>
  <station code="IACM" name="IACM" netid="HL" insttype="120" lat="35.3058" lon="25.0709">
    <comp name="--.HHE">
      <acc value="0.0618854651" flag="0"/>
      <vel value="0.0616026259" flag="0"/>
      <psa03 value="0.1863229918" flag="0"/>
      <psa10 value="0.1229542571" flag="0"/>
      <psa30 value="0.0087886974" flag="0"/>
    </comp>
    <comp name="--.HHN">
      <acc value="0.0570790326" flag="0"/>
      <vel value="0.0618781526" flag="0"/>
      <psa03 value="0.1534789082" flag="0"/>
      <psa10 value="0.1579186798" flag="0"/>
      <psa30 value="0.0063996902" flag="0"/>
    </comp>
    <comp name="--.HHZ">
      <acc value="0.0444454455" flag="0"/>
      <vel value="0.0316144180" flag="0"/>
      <psa03 value="0.0750546221" flag="0"/>
      <psa10 value="0.0464929573" flag="0"/>
      <psa30 value="0.0030471636" flag="0"/>
    </comp>
  </station>
  <station code="IDI" name="IDI" netid="HL" insttype="120" lat="35.288" lon="24.89">
    <comp name="--.HHE">
      <acc value="0.0061232742" flag="0"/>
      <vel value="0.0060135728" flag="0"/>
      <psa03 value="0.0190932520" flag="0"/>
      <psa10 value="0.0098564799" flag="0"/>
      <psa30 value="0.0019103409" flag="0"/>
    </comp>
    <comp name="--.HHN">
      <acc value="0.0066076765" flag="0"/>
      <vel value="0.0072974358" flag="0"/>
      <psa03 value="0.0205175741" flag="0"/>
      <psa10 value="0.0127846742" flag="0"/>
      <psa30 value="0.0022624603" flag="0"/>
    </comp>
    <comp name="--.HHZ">
      <acc value="0.0055444492" flag="0"/>
      <vel value="0.0054347181" flag="0"/>
      <psa03 value="0.0174582840" flag="0"/>
      <psa10 value="0.0070526053" flag="0"/>
      <psa30 value="0.0022774643" flag="0"/>
    </comp>
  </station>
  <station code="KARP" name="KARP" netid="HL" insttype="120" lat="35.5471" lon="27.1611">
    <comp name="--.HHE">
      <acc value="0.0000650931" flag="0"/>
      <vel value="0.0000052942" flag="0"/>
      <psa03 value="0.0000128291" flag="0"/>
      <psa10 value="0.0000006539" flag="0"/>
      <psa30 value="0.0000000559" flag="0"/>
    </comp>
    <comp name="--.HHN">
      <acc value="0.0001165210" flag="0"/>
      <vel value="0.0000082417" flag="0"/>
      <psa03 value="0.0000239385" flag="0"/>
      <psa10 value="0.0000011613" flag="0"/>
      <psa30 value="0.0000001076" flag="0"/>
    </comp>
    <comp name="--.HHZ">
      <acc value="0.0000966408" flag="0"/>
      <vel value="0.0000103067" flag="0"/>
      <psa03 value="0.0000286486" flag="0"/>
      <psa10 value="0.0000015733" flag="0"/>
      <psa30 value="0.0000001251" flag="0"/>
    </comp>
  </station>
  <station code="SIVA" name="SIVA" netid="HL" insttype="60" lat="35.0178" lon="24.812">
    <comp name="--.HHE">
      <acc value="0.0213660015" flag="0"/>
      <vel value="0.0207798153" flag="0"/>
      <psa03 value="0.0469705115" flag="0"/>
      <psa10 value="0.0377301833" flag="0"/>
      <psa30 value="0.0021856227" flag="0"/>
    </comp>
    <comp name="--.HHN">
      <acc value="0.0168084118" flag="0"/>
      <vel value="0.0170817146" flag="0"/>
      <psa03 value="0.0303002027" flag="0"/>
      <psa10 value="0.0241376700" flag="0"/>
      <psa30 value="0.0029871403" flag="0"/>
    </comp>
    <comp name="--.HHZ">
      <acc value="0.0102931363" flag="0"/>
      <vel value="0.0118173290" flag="0"/>
      <psa03 value="0.0215837685" flag="0"/>
      <psa10 value="0.0241533453" flag="0"/>
      <psa30 value="0.0025601284" flag="0"/>
    </comp>
  </station>
  <station code="ZKR" name="ZKR" netid="HL" insttype="120" lat="35.1147" lon="26.2169">
    <comp name="--.HHE">
      <acc value="1.0207427675" flag="0"/>
      <vel value="0.4170553015" flag="0"/>
      <psa03 value="2.3957032525" flag="0"/>
      <psa10 value="0.2664644500" flag="0"/>
      <psa30 value="0.0421716663" flag="0"/>
    </comp>
    <comp name="--.HHN">
      <acc value="0.6193449329" flag="0"/>
      <vel value="0.2453188696" flag="0"/>
      <psa03 value="1.4174841149" flag="0"/>
      <psa10 value="0.0766830172" flag="0"/>
      <psa30 value="0.0116821592" flag="0"/>
    </comp>
    <comp name="--.HHZ">
      <acc value="0.5504333125" flag="0"/>
      <vel value="0.1826952997" flag="0"/>
      <psa03 value="0.8158336865" flag="0"/>
      <psa10 value="0.1902048445" flag="0"/>
      <psa30 value="0.0211574180" flag="0"/>
    </comp>
  </station>
  <station code="IDI" name="IDI" netid="MN" insttype="" lat="35.288" lon="24.89">
    <comp name="--.HHE">
      <acc value="0.0061658549" flag="0"/>
      <vel value="0.0060144490" flag="0"/>
      <psa03 value="0.0193144567" flag="0"/>
      <psa10 value="0.0097823793" flag="0"/>
      <psa30 value="0.0018877583" flag="0"/>
    </comp>
    <comp name="--.HHN">
      <acc value="0.0066984720" flag="0"/>
      <vel value="0.0072334050" flag="0"/>
      <psa03 value="0.0206435080" flag="0"/>
      <psa10 value="0.0126804066" flag="0"/>
      <psa30 value="0.0022364919" flag="0"/>
    </comp>
    <comp name="--.HHZ">
      <acc value="0.0055942855" flag="0"/>
      <vel value="0.0054194141" flag="0"/>
      <psa03 value="0.0176894293" flag="0"/>
      <psa10 value="0.0069963871" flag="0"/>
      <psa30 value="0.0022497007" flag="0"/>
    </comp>
  </station>
</stationlist>
