<?xml version="1.0" encoding="UTF-8" standalone="yes"?>
<!DOCTYPE earthquake SYSTEM "stationlist.dtd">
<stationlist created="" xmlns="ch.ethz.sed.shakemap.usgs.xml">
  <station code="IDI" name="IDI" netid="MN" insttype="" lat="35.288" lon="24.89">
    <comp name="--.HHE">
      <acc value="0.0061658550" flag="0"/>
      <vel value="0.0060144490" flag="0"/>
      <psa03 value="0.0193144567" flag="0"/>
      <psa10 value="0.0097823793" flag="0"/>
      <psa30 value="0.0018877606" flag="0"/>
    </comp>
    <comp name="--.HHN">
      <acc value="0.0066984720" flag="0"/>
      <vel value="0.0072334048" flag="0"/>
      <psa03 value="0.0206435080" flag="0"/>
      <psa10 value="0.0126804066" flag="0"/>
      <psa30 value="0.0022364962" flag="0"/>
    </comp>
    <comp name="--.HHZ">
      <acc value="0.0055942855" flag="0"/>
      <vel value="0.0054194139" flag="0"/>
      <psa03 value="0.0176894293" flag="0"/>
      <psa10 value="0.0069963871" flag="0"/>
      <psa30 value="0.0022497022" flag="0"/>
    </comp>
  </station>
</stationlist>
