<?xml version="1.0" encoding="UTF-8" standalone="yes"?>
<!DOCTYPE earthquake SYSTEM "stationlist.dtd">
<stationlist created="" xmlns="ch.ethz.sed.shakemap.usgs.xml">
  <station code="APE" name="APE" netid="GE" insttype="STS-2/N" lat="37.0727" lon="25.523">
    <comp name="--.HHE">
      <acc value="0.1940320726" flag="0"/>
      <vel value="0.0249454728" flag="0"/>
      <psa03 value="0.0778502772" flag="0"/>
      <psa10 value="0.0100855618" flag="0"/>
      <psa30 value="0.0028551554" flag="0"/>
    </comp>
    <comp name="--.HHN">
      <acc value="0.1839612373" flag="0"/>
      <vel value="0.0292014249" flag="0"/>
      <psa03 value="0.0593972883" flag="0"/>
      <psa10 value="0.0095927978" flag="0"/>
      <psa30 value="0.0028624158" flag="0"/>
    </comp>
    <comp name="--.HHZ">
      <acc value="0.0820386280" flag="0"/>
      <vel value="0.0154428309" flag="0"/>
      <psa03 value="0.0353648305" flag="0"/>
      <psa10 value="0.0095227878" flag="0"/>
      <psa30 value="0.0026304805" flag="0"/>
    </comp>
  </station>
  <station code="THERA" name="THERA" netid="GE" insttype="STS-2/N" lat="36.367" lon="25.4753">
    <comp name="--.HHE">
      <acc value="0.2550390317" flag="0"/>
      <vel value="0.0877502569" flag="0"/>
      <psa03 value="0.7384351342" flag="0"/>
      <psa10 value="0.0437551009" flag="0"/>
      <psa30 value="0.0035131677" flag="0"/>
    </comp>
    <comp name="--.HHZ">
      <acc value="0.2142862567" flag="0"/>
      <vel value="0.0696826499" flag="0"/>
      <psa03 value="0.4512557985" flag="0"/>
      <psa10 value="0.0378921406" flag="0"/>
      <psa30 value="0.0024138385" flag="0"/>
    </comp>
    <comp name="--.HHN">
      <acc value="0.1808382126" flag="0"/>
      <vel value="0.0530133356" flag="0"/>
      <psa03 value="0.5160970466" flag="0"/>
      <psa10 value="0.0130833321" flag="0"/>
      <psa30 value="0.0015889576" flag="0"/>
    </comp>
  </station>
  <station code="SNT1" name="SNT1" netid="HA" insttype="30" lat="36.4159" lon="25.4282">
    <comp name="--.HHZ">
      <acc value="0.1634840320" flag="0"/>
      <vel value="0.0532129754" flag="0"/>
      <psa03 value="0.3463659691" flag="0"/>
      <psa10 value="0.0369587101" flag="0"/>
      <psa30 value="0.0028685766" flag="0"/>
    </comp>
    <comp name="--.HHN">
      <acc value="0.2338244759" flag="0"/>
      <vel value="0.1238387664" flag="0"/>
      <psa03 value="0.4326438564" flag="0"/>
      <psa10 value="0.0580802467" flag="0"/>
      <psa30 value="0.0049586769" flag="0"/>
    </comp>
  </station>
  <station code="SFR2" name="SFR2" netid="HI" insttype="unknown" lat="36.3998" lon="25.4382">
    <comp name="--.HNE">
      <acc value="0.6522980227" flag="0"/>
      <vel value="0.2018621166" flag="0"/>
      <psa03 value="1.0673517361" flag="0"/>
      <psa10 value="0.1015602761" flag="0"/>
      <psa30 value="0.0076954046" flag="0"/>
    </comp>
    <comp name="--.HNN">
      <acc value="0.5069499024" flag="0"/>
      <vel value="0.1953700375" flag="0"/>
      <psa03 value="0.9557907799" flag="0"/>
      <psa10 value="0.1234927548" flag="0"/>
      <psa30 value="0.0065770348" flag="0"/>
    </comp>
    <comp name="--.HNZ">
      <acc value="0.4898177909" flag="0"/>
      <vel value="0.1459692849" flag="0"/>
      <psa03 value="0.8303200243" flag="0"/>
      <psa10 value="0.0602073340" flag="0"/>
      <psa30 value="0.0043484946" flag="0"/>
    </comp>
  </station>
  <station code="AMGA" name="AMGA" netid="HL" insttype="SMART24" lat="36.8316" lon="25.8938">
    <comp name="--.HHE">
      <acc value="0.5458919226" flag="0"/>
      <vel value="0.0818980954" flag="0"/>
      <psa03 value="0.2458198039" flag="0"/>
      <psa10 value="0.0203293970" flag="0"/>
      <psa30 value="0.0032562256" flag="0"/>
    </comp>
    <comp name="--.HHZ">
      <acc value="0.3131274061" flag="0"/>
      <vel value="0.0956567294" flag="0"/>
      <psa03 value="0.3674158425" flag="0"/>
      <psa10 value="0.0186899460" flag="0"/>
      <psa30 value="0.0045147042" flag="0"/>
    </comp>
    <comp name="--.HHN">
      <acc value="0.4079157001" flag="0"/>
      <vel value="0.0962550459" flag="0"/>
      <psa03 value="0.4290677743" flag="0"/>
      <psa10 value="0.0209140715" flag="0"/>
      <psa30 value="0.0061131534" flag="0"/>
    </comp>
  </station>
  <station code="MHLO" name="MHLO" netid="HL" insttype="20" lat="36.6898" lon="24.4017">
    <comp name="--.HHE">
      <acc value="0.2481261365" flag="0"/>
      <vel value="0.0909420174" flag="0"/>
      <psa03 value="0.4174787625" flag="0"/>
      <psa10 value="0.1182925031" flag="0"/>
      <psa30 value="0.0056070167" flag="0"/>
    </comp>
    <comp name="--.HHN">
      <acc value="0.1693977473" flag="0"/>
      <vel value="0.0706892377" flag="0"/>
      <psa03 value="0.3829392270" flag="0"/>
      <psa10 value="0.1024087590" flag="0"/>
      <psa30 value="0.0041878153" flag="0"/>
    </comp>
    <comp name="--.HHZ">
      <acc value="0.0627887063" flag="0"/>
      <vel value="0.0435997663" flag="0"/>
      <psa03 value="0.1484362802" flag="0"/>
      <psa10 value="0.0666328577" flag="0"/>
      <psa30 value="0.0035238758" flag="0"/>
    </comp>
  </station>
  <station code="MILA" name="MILA" netid="HL" insttype="CMG-5" lat="36.7429" lon="24.4282">
    <comp name="00.HNE">
      <acc value="0.1915925608" flag="0"/>
      <vel value="0.0648540412" flag="0"/>
      <psa03 value="0.2284893391" flag="0"/>
      <psa10 value="0.0422039706" flag="0"/>
      <psa30 value="0.0045117239" flag="0"/>
    </comp>
    <comp name="00.HNN">
      <acc value="0.1913584006" flag="0"/>
      <vel value="0.0706670936" flag="0"/>
      <psa03 value="0.3812881864" flag="0"/>
      <psa10 value="0.0628327471" flag="0"/>
      <psa30 value="0.0041323566" flag="0"/>
    </comp>
    <comp name="00.HNZ">
      <acc value="0.1614979567" flag="0"/>
      <vel value="0.0691844099" flag="0"/>
      <psa03 value="0.2281934252" flag="0"/>
      <psa10 value="0.0527919345" flag="0"/>
      <psa30 value="0.0031337748" flag="0"/>
    </comp>
  </station>
  <station code="NISR2" name="NISR2" netid="HL" insttype="120" lat="36.5744" lon="27.1767">
    <comp name="--.HHE">
      <acc value="0.0697621554" flag="0"/>
      <vel value="0.0607150987" flag="0"/>
      <psa03 value="0.2373984095" flag="0"/>
      <psa10 value="0.0875625020" flag="0"/>
      <psa30 value="0.0051093394" flag="0"/>
    </comp>
    <comp name="--.HHN">
      <acc value="0.1241222984" flag="0"/>
      <vel value="0.0717792198" flag="0"/>
      <psa03 value="0.4939425536" flag="0"/>
      <psa10 value="0.0995837252" flag="0"/>
      <psa30 value="0.0057909874" flag="0"/>
    </comp>
    <comp name="--.HHZ">
      <acc value="0.0301775679" flag="0"/>
      <vel value="0.0175268047" flag="0"/>
      <psa03 value="0.0913040591" flag="0"/>
      <psa10 value="0.0134588412" flag="0"/>
      <psa30 value="0.0011165443" flag="0"/>
    </comp>
  </station>
  <station code="SANT" name="SANT" netid="HL" insttype="30" lat="36.3705" lon="25.4593">
    <comp name="--.HHZ">
      <acc value="0.5158623131" flag="0"/>
      <vel value="0.0881526302" flag="0"/>
      <psa03 value="0.2695211738" flag="0"/>
      <psa10 value="0.0296947009" flag="0"/>
      <psa30 value="0.0028193300" flag="0"/>
    </comp>
    <comp name="--.HHN">
      <acc value="0.5392776937" flag="0"/>
      <vel value="0.0906787990" flag="0"/>
      <psa03 value="0.5109948187" flag="0"/>
      <psa10 value="0.0329799911" flag="0"/>
      <psa30 value="0.0025768912" flag="0"/>
    </comp>
    <comp name="--.HHE">
      <acc value="0.6803197339" flag="0"/>
      <vel value="0.2174498370" flag="0"/>
      <psa03 value="1.0160769421" flag="0"/>
      <psa10 value="0.0558681150" flag="0"/>
      <psa30 value="0.0068179722" flag="0"/>
    </comp>
  </station>
  <station code="SAP3" name="SAP3" netid="HL" insttype="65535" lat="36.4356" lon="25.3454">
    <comp name="--.HHE">
      <acc value="0.4578147004" flag="0"/>
      <vel value="0.1599613799" flag="0"/>
      <psa03 value="0.9525794477" flag="0"/>
      <psa10 value="0.0851205200" flag="0"/>
      <psa30 value="0.0150261349" flag="0"/>
    </comp>
    <comp name="--.HHN">
      <acc value="0.4561649490" flag="0"/>
      <vel value="0.1543330468" flag="0"/>
      <psa03 value="1.1278649591" flag="0"/>
      <psa10 value="0.0826209453" flag="0"/>
      <psa30 value="0.0069008537" flag="0"/>
    </comp>
    <comp name="--.HHZ">
      <acc value="0.3892424507" flag="0"/>
      <vel value="0.0919332125" flag="0"/>
      <psa03 value="0.5800296153" flag="0"/>
      <psa10 value="0.0284210367" flag="0"/>
      <psa30 value="0.0031844064" flag="0"/>
    </comp>
  </station>
  <station code="THERA" name="THERA" netid="HL" insttype="120" lat="36.367" lon="25.4753">
    <comp name="--.HHE">
      <acc value="0.2475259173" flag="0"/>
      <vel value="0.0855312208" flag="0"/>
      <psa03 value="0.7171023670" flag="0"/>
      <psa10 value="0.0431724641" flag="0"/>
      <psa30 value="0.0035134728" flag="0"/>
    </comp>
    <comp name="--.HHN">
      <acc value="0.3504444635" flag="0"/>
      <vel value="0.1030925874" flag="0"/>
      <psa03 value="1.0004127853" flag="0"/>
      <psa10 value="0.0256114726" flag="0"/>
      <psa30 value="0.0031769914" flag="0"/>
    </comp>
    <comp name="--.HHZ">
      <acc value="0.2080835401" flag="0"/>
      <vel value="0.0682917441" flag="0"/>
      <psa03 value="0.4387779637" flag="0"/>
      <psa10 value="0.0373898670" flag="0"/>
      <psa30 value="0.0024129810" flag="0"/>
    </comp>
  </station>
  <station code="THRA" name="THRA" netid="HL" insttype="CMG-5" lat="36.415" lon="25.4324">
    <comp name="00.HNE">
      <acc value="0.7727532129" flag="0"/>
      <vel value="0.2361907569" flag="0"/>
      <psa03 value="1.8579169549" flag="0"/>
      <psa10 value="0.1530980659" flag="0"/>
      <psa30 value="0.0123219440" flag="0"/>
    </comp>
    <comp name="00.HNZ">
      <acc value="0.5804069816" flag="0"/>
      <vel value="0.1943371803" flag="0"/>
      <psa03 value="1.2718409346" flag="0"/>
      <psa10 value="0.0945411710" flag="0"/>
      <psa30 value="0.0069452186" flag="0"/>
    </comp>
    <comp name="00.HNN">
      <acc value="0.7203062312" flag="0"/>
      <vel value="0.2766026342" flag="0"/>
      <psa03 value="1.7041813440" flag="0"/>
      <psa10 value="0.2105018750" flag="0"/>
      <psa30 value="0.0095936673" flag="0"/>
    </comp>
  </station>
  <station code="AKRO" name="AKRO" netid="HT" insttype="Compact," lat="36.3584" lon="25.3967">
    <comp name="--.HHE">
      <acc value="0.9656112046" flag="0"/>
      <vel value="0.4001839344" flag="0"/>
      <psa03 value="1.4211544343" flag="0"/>
      <psa10 value="0.1645887310" flag="0"/>
      <psa30 value="0.0107503007" flag="0"/>
    </comp>
    <comp name="--.HHN">
      <acc value="0.6335284839" flag="0"/>
      <vel value="0.1759959158" flag="0"/>
      <psa03 value="0.9237644188" flag="0"/>
      <psa10 value="0.0829869482" flag="0"/>
      <psa30 value="0.0054125798" flag="0"/>
    </comp>
    <comp name="--.HHZ">
      <acc value="0.5867604375" flag="0"/>
      <vel value="0.1821385391" flag="0"/>
      <psa03 value="0.5667617758" flag="0"/>
      <psa10 value="0.0752597775" flag="0"/>
      <psa30 value="0.0059759428" flag="0"/>
    </comp>
  </station>
  <station code="CMBO" name="CMBO" netid="HT" insttype="120P," lat="36.4709" lon="25.4056">
    <comp name="--.HHE">
      <acc value="0.4230318867" flag="0"/>
      <vel value="0.1463695180" flag="0"/>
      <psa03 value="0.7258588400" flag="0"/>
      <psa10 value="0.1091051807" flag="0"/>
      <psa30 value="0.0078230470" flag="0"/>
    </comp>
    <comp name="--.HHN">
      <acc value="0.5480798606" flag="0"/>
      <vel value="0.2787572745" flag="0"/>
      <psa03 value="1.5245406088" flag="0"/>
      <psa10 value="0.1165740059" flag="0"/>
      <psa30 value="0.0062037528" flag="0"/>
    </comp>
    <comp name="--.HHZ">
      <acc value="0.4370386684" flag="0"/>
      <vel value="0.1289656417" flag="0"/>
      <psa03 value="0.8225007812" flag="0"/>
      <psa10 value="0.0447533748" flag="0"/>
      <psa30 value="0.0038492021" flag="0"/>
    </comp>
  </station>
</stationlist>
