<?xml version="1.0" encoding="UTF-8" standalone="yes"?>
<!DOCTYPE earthquake SYSTEM "stationlist.dtd">
<stationlist created="" xmlns="ch.ethz.sed.shakemap.usgs.xml">
  <station code="APE" name="APE" netid="GE" insttype="STS-2/N" lat="37.0727" lon="25.523">
    <comp name="--.HHE">
      <acc value="0.1940320726" flag="0"/>
      <vel value="0.0249454728" flag="0"/>
      <psa03 value="0.0778502772" flag="0"/>
      <psa10 value="0.0100855618" flag="0"/>
      <psa30 value="0.0028551554" flag="0"/>
    </comp>
    <comp name="--.HHN">
      <acc value="0.1839612373" flag="0"/>
      <vel value="0.0292014249" flag="0"/>
      <psa03 value="0.0593972883" flag="0"/>
      <psa10 value="0.0095927978" flag="0"/>
      <psa30 value="0.0028624158" flag="0"/>
    </comp>
    <comp name="--.HHZ">
      <acc value="0.0820386280" flag="0"/>
      <vel value="0.0154428309" flag="0"/>
      <psa03 value="0.0353648305" flag="0"/>
      <psa10 value="0.0095227878" flag="0"/>
      <psa30 value="0.0026304805" flag="0"/>
    </comp>
  </station>
  <station code="THERA" name="THERA" netid="GE" insttype="STS-2/N" lat="36.367" lon="25.4753">
    <comp name="--.HHE">
      <acc value="0.2550390317" flag="0"/>
      <vel value="0.0877502569" flag="0"/>
      <psa03 value="0.7384351342" flag="0"/>
      <psa10 value="0.0437551009" flag="0"/>
      <psa30 value="0.0035131677" flag="0"/>
    </comp>
    <comp name="--.HHZ">
      <acc value="0.2142862567" flag="0"/>
      <vel value="0.0696826499" flag="0"/>
      <psa03 value="0.4512557985" flag="0"/>
      <psa10 value="0.0378921406" flag="0"/>
      <psa30 value="0.0024138385" flag="0"/>
    </comp>
    <comp name="--.HHN">
      <acc value="0.1808382126" flag="0"/>
      <vel value="0.0530133356" flag="0"/>
      <psa03 value="0.5160970466" flag="0"/>
      <psa10 value="0.0130833321" flag="0"/>
      <psa30 value="0.0015889576" flag="0"/>
    </comp>
  </station>
</stationlist>
