<?xml version="1.0" encoding="UTF-8" standalone="yes"?>
<!DOCTYPE earthquake SYSTEM "stationlist.dtd">
<stationlist created="" xmlns="ch.ethz.sed.shakemap.usgs.xml">
  <station code="AKDM" name="AKDM" netid="KO" insttype="CMG-3ESP" lat="38.3285" lon="42.98">
    <comp name="--.HHZ">
      <acc value="0.0539863345" flag="0"/>
      <vel value="0.1117823046" flag="0"/>
      <psa03 value="0.0903104941" flag="0"/>
      <psa10 value="0.1050183907" flag="0"/>
      <psa30 value="0.0481052815" flag="0"/>
    </comp>
    <comp name="--.HHN">
      <acc value="0.1055291381" flag="0"/>
      <vel value="0.2037308013" flag="0"/>
      <psa03 value="0.1381824908" flag="0"/>
      <psa10 value="0.2656784059" flag="0"/>
      <psa30 value="0.0876422746" flag="0"/>
    </comp>
    <comp name="--.HHE">
      <acc value="0.0947775244" flag="0"/>
      <vel value="0.1804410420" flag="0"/>
      <psa03 value="0.1101554169" flag="0"/>
      <psa10 value="0.2857201239" flag="0"/>
      <psa30 value="0.0572333803" flag="0"/>
    </comp>
  </station>
  <station code="TASB" name="TASB" netid="KO" insttype="CMG-3T" lat="39.9838" lon="44.2384">
    <comp name="--.HHE">
      <acc value="0.1120071309" flag="0"/>
      <vel value="0.3656557577" flag="0"/>
      <psa03 value="0.1197714884" flag="0"/>
      <psa10 value="0.1803046346" flag="0"/>
      <psa30 value="0.2632901005" flag="0"/>
    </comp>
    <comp name="--.HHN">
      <acc value="0.0880423700" flag="0"/>
      <vel value="0.3192584988" flag="0"/>
      <psa03 value="0.0957639793" flag="0"/>
      <psa10 value="0.1808208669" flag="0"/>
      <psa30 value="0.2288279805" flag="0"/>
    </comp>
    <comp name="--.HHZ">
      <acc value="0.0610499893" flag="0"/>
      <vel value="0.1756656410" flag="0"/>
      <psa03 value="0.0688271051" flag="0"/>
      <psa10 value="0.1461082837" flag="0"/>
      <psa30 value="0.1422661634" flag="0"/>
    </comp>
  </station>
  <station code="VANB" name="VANB" netid="KO" insttype="CMG-3T" lat="38.509" lon="43.4056">
    <comp name="--.HHE">
      <acc value="0.1239053882" flag="0"/>
      <vel value="0.2203435239" flag="0"/>
      <psa03 value="0.1661668234" flag="0"/>
      <psa10 value="0.3517854906" flag="0"/>
      <psa30 value="0.0951374623" flag="0"/>
    </comp>
    <comp name="--.HHN">
      <acc value="0.1283752834" flag="0"/>
      <vel value="0.2104194651" flag="0"/>
      <psa03 value="0.1551859312" flag="0"/>
      <psa10 value="0.3247934458" flag="0"/>
      <psa30 value="0.1227829374" flag="0"/>
    </comp>
    <comp name="--.HHZ">
      <acc value="0.0701728417" flag="0"/>
      <vel value="0.1879530529" flag="0"/>
      <psa03 value="0.0938665469" flag="0"/>
      <psa10 value="0.1942289183" flag="0"/>
      <psa30 value="0.1367158094" flag="0"/>
    </comp>
  </station>
</stationlist>
