<?xml version="1.0" encoding="UTF-8" standalone="yes"?>
<!DOCTYPE earthquake SYSTEM "stationlist.dtd">
<stationlist created="" xmlns="ch.ethz.sed.shakemap.usgs.xml">
  <station code="AKDM" name="AKDM" netid="KO" insttype="CMG-3ESP" lat="38.3285" lon="42.98">
    <comp name="--.HHN">
      <acc value="0.1055291381" flag="0"/>
      <vel value="0.2037307719" flag="0"/>
      <psa03 value="0.1381824908" flag="0"/>
      <psa10 value="0.2656784059" flag="0"/>
      <psa30 value="0.0876422792" flag="0"/>
    </comp>
    <comp name="--.HHZ">
      <acc value="0.0539863344" flag="0"/>
      <vel value="0.1117822084" flag="0"/>
      <psa03 value="0.0903104940" flag="0"/>
      <psa10 value="0.1050183906" flag="0"/>
      <psa30 value="0.0481052824" flag="0"/>
    </comp>
    <comp name="--.HHE">
      <acc value="0.0947775242" flag="0"/>
      <vel value="0.1804409009" flag="0"/>
      <psa03 value="0.1101554167" flag="0"/>
      <psa10 value="0.2857201241" flag="0"/>
      <psa30 value="0.0572333805" flag="0"/>
    </comp>
  </station>
  <station code="TASB" name="TASB" netid="KO" insttype="CMG-3T" lat="39.9838" lon="44.2384">
    <comp name="--.HHE">
      <acc value="0.1120071308" flag="0"/>
      <vel value="0.3656557688" flag="0"/>
      <psa03 value="0.1197714884" flag="0"/>
      <psa10 value="0.1803046345" flag="0"/>
      <psa30 value="0.2632901003" flag="0"/>
    </comp>
    <comp name="--.HHN">
      <acc value="0.0880423701" flag="0"/>
      <vel value="0.3192584820" flag="0"/>
      <psa03 value="0.0957639793" flag="0"/>
      <psa10 value="0.1808208669" flag="0"/>
      <psa30 value="0.2288279806" flag="0"/>
    </comp>
    <comp name="--.HHZ">
      <acc value="0.0610499893" flag="0"/>
      <vel value="0.1756656252" flag="0"/>
      <psa03 value="0.0688271051" flag="0"/>
      <psa10 value="0.1461082837" flag="0"/>
      <psa30 value="0.1422661633" flag="0"/>
    </comp>
  </station>
  <station code="VANB" name="VANB" netid="KO" insttype="CMG-3T" lat="38.509" lon="43.4056">
    <comp name="--.HHE">
      <acc value="0.1239053882" flag="0"/>
      <vel value="0.2203435279" flag="0"/>
      <psa03 value="0.1661668234" flag="0"/>
      <psa10 value="0.3517854906" flag="0"/>
      <psa30 value="0.0951374622" flag="0"/>
    </comp>
    <comp name="--.HHN">
      <acc value="0.1283752834" flag="0"/>
      <vel value="0.2104194706" flag="0"/>
      <psa03 value="0.1551859312" flag="0"/>
      <psa10 value="0.3247934458" flag="0"/>
      <psa30 value="0.1227829379" flag="0"/>
    </comp>
    <comp name="--.HHZ">
      <acc value="0.0701728417" flag="0"/>
      <vel value="0.1879530587" flag="0"/>
      <psa03 value="0.0938665469" flag="0"/>
      <psa10 value="0.1942289183" flag="0"/>
      <psa30 value="0.1367158094" flag="0"/>
    </comp>
  </station>
</stationlist>
