<?xml version="1.0" encoding="UTF-8" standalone="yes"?>
<!DOCTYPE earthquake SYSTEM "stationlist.dtd">
<stationlist created="" xmlns="ch.ethz.sed.shakemap.usgs.xml">
  <station code="APE" name="APE" netid="GE" insttype="STS-2/N" lat="37.0727" lon="25.523">
    <comp name="--.HHN">
      <acc value="0.2448092228" flag="0"/>
      <vel value="0.0504011867" flag="0"/>
      <psa03 value="0.1953257135" flag="0"/>
      <psa10 value="0.0159691761" flag="0"/>
      <psa30 value="0.0012670583" flag="0"/>
    </comp>
    <comp name="--.HHE">
      <acc value="0.2095441562" flag="0"/>
      <vel value="0.0380104462" flag="0"/>
      <psa03 value="0.2109980550" flag="0"/>
      <psa10 value="0.0094438159" flag="0"/>
      <psa30 value="0.0008722207" flag="0"/>
    </comp>
    <comp name="--.HHZ">
      <acc value="0.0932445269" flag="0"/>
      <vel value="0.0246747564" flag="0"/>
      <psa03 value="0.1411213078" flag="0"/>
      <psa10 value="0.0103710000" flag="0"/>
      <psa30 value="0.0014402440" flag="0"/>
    </comp>
  </station>
  <station code="THERA" name="THERA" netid="GE" insttype="STS-2/N" lat="36.367" lon="25.4753">
    <comp name="--.HHE">
      <acc value="0.1178047734" flag="0"/>
      <vel value="0.0273622666" flag="0"/>
      <psa03 value="0.1162036119" flag="0"/>
      <psa10 value="0.0172964335" flag="0"/>
      <psa30 value="0.0016869066" flag="0"/>
    </comp>
    <comp name="--.HHN">
      <acc value="0.0829275473" flag="0"/>
      <vel value="0.0174040772" flag="0"/>
      <psa03 value="0.1085233399" flag="0"/>
      <psa10 value="0.0103791030" flag="0"/>
      <psa30 value="0.0008335392" flag="0"/>
    </comp>
    <comp name="--.HHZ">
      <acc value="0.0835156465" flag="0"/>
      <vel value="0.0202784669" flag="0"/>
      <psa03 value="0.1010980489" flag="0"/>
      <psa10 value="0.0133756025" flag="0"/>
      <psa30 value="0.0009370163" flag="0"/>
    </comp>
  </station>
</stationlist>
