<stationlist created="1778118918">
	<station code="AVS" name="AVS" netid="IT" source="Italian Strong Motion Network (RAN)" insttype="" lat="46.2946" lon="13.0497">
		<comp name="--.HGE" depth="0.0">
			<acc value="0.688950942" flag="0"/>
			<vel value="0.13265" flag="0"/>
			<psa03 value="0.396505435051124" flag="0"/>
			<psa10 value="0.0870432784434506" flag="0"/>
			<psa30 value="0.00721065401860067" flag="0"/>
		</comp>
		<comp name="--.HGN" depth="0.0">
			<acc value="1.217656008" flag="0"/>
			<vel value="0.251976" flag="0"/>
			<psa03 value="0.582319819136807" flag="0"/>
			<psa10 value="0.0689871135405809" flag="0"/>
			<psa30 value="0.00827462369198318" flag="0"/>
		</comp>
		<comp name="--.HGZ" depth="0.0">
			<acc value="0.402278412" flag="0"/>
			<vel value="0.105574" flag="0"/>
			<psa03 value="0.255075319930767" flag="0"/>
			<psa10 value="0.0730300193306079" flag="0"/>
			<psa30 value="0.00532298032137579" flag="0"/>
		</comp>
	</station>
	<station code="BLL" name="BLL" netid="IT" source="Italian Strong Motion Network (RAN)" insttype="" lat="46.1594" lon="12.2364">
		<comp name="--.HGE" depth="0.0">
			<acc value="0.021713658" flag="0"/>
			<vel value="0.008364" flag="0"/>
			<psa03 value="0.0492611694867172" flag="0"/>
			<psa10 value="0.00835158028736661" flag="0"/>
			<psa30 value="0.000773592752429919" flag="0"/>
		</comp>
		<comp name="--.HGN" depth="0.0">
			<acc value="0.021889098" flag="0"/>
			<vel value="0.006466" flag="0"/>
			<psa03 value="0.0527510616029424" flag="0"/>
			<psa10 value="0.00372478870097112" flag="0"/>
			<psa30 value="0.000910951326748013" flag="0"/>
		</comp>
		<comp name="--.HGZ" depth="0.0">
			<acc value="0.004169352" flag="0"/>
			<vel value="0.001119" flag="0"/>
			<psa03 value="0.00501112714124644" flag="0"/>
			<psa10 value="0.000990592454528537" flag="0"/>
			<psa30 value="0.000227737831687003" flag="0"/>
		</comp>
	</station>
	<station code="BRC" name="BRC" netid="IT" source="Italian Strong Motion Network (RAN)" insttype="" lat="46.1857" lon="12.5518">
		<comp name="--.HGE" depth="0.0">
			<acc value="0.068106624" flag="0"/>
			<vel value="0.011968" flag="0"/>
			<psa03 value="0.0238028539209206" flag="0"/>
			<psa10 value="0.00579053638053673" flag="0"/>
			<psa30 value="0.000753011337385513" flag="0"/>
		</comp>
		<comp name="--.HGN" depth="0.0">
			<acc value="0.036469998" flag="0"/>
			<vel value="0.008516" flag="0"/>
			<psa03 value="0.0201787351848406" flag="0"/>
			<psa10 value="0.00457041640605646" flag="0"/>
			<psa30 value="0.00124204365572322" flag="0"/>
		</comp>
		<comp name="--.HGZ" depth="0.0">
			<acc value="0.021937038" flag="0"/>
			<vel value="0.00514" flag="0"/>
			<psa03 value="0.0143622483244652" flag="0"/>
			<psa10 value="0.00304425973830721" flag="0"/>
			<psa30 value="0.0016491977359495" flag="0"/>
		</comp>
	</station>
	<station code="CHF" name="CHF" netid="IT" source="Italian Strong Motion Network (RAN)" insttype="" lat="46.3887" lon="13.4737">
		<comp name="--.HGE" depth="0.0">
			<acc value="0.21746808" flag="0"/>
			<vel value="0.051145" flag="0"/>
			<psa03 value="0.192570457285042" flag="0"/>
			<psa10 value="0.0107797398405402" flag="0"/>
			<psa30 value="0.00126978382382655" flag="0"/>
		</comp>
		<comp name="--.HGN" depth="0.0">
			<acc value="0.316025784" flag="0"/>
			<vel value="0.098373" flag="0"/>
			<psa03 value="0.524512888186" flag="0"/>
			<psa10 value="0.0276318919633123" flag="0"/>
			<psa30 value="0.00245187292268129" flag="0"/>
		</comp>
		<comp name="--.HGZ" depth="0.0">
			<acc value="0.445155846" flag="0"/>
			<vel value="0.086988" flag="0"/>
			<psa03 value="0.225634947975944" flag="0"/>
			<psa10 value="0.0195460803832582" flag="0"/>
			<psa30 value="0.00146396500054985" flag="0"/>
		</comp>
	</station>
	<station code="CLA" name="CLA" netid="IT" source="Italian Strong Motion Network (RAN)" insttype="" lat="46.2713" lon="12.5141">
		<comp name="--.HNE" depth="0.0">
			<acc value="0.017982396" flag="0"/>
			<vel value="0.007859" flag="0"/>
			<psa03 value="0.0276954258967102" flag="0"/>
			<psa10 value="0.00556503565918064" flag="0"/>
			<psa30 value="0.00144741038410109" flag="0"/>
		</comp>
		<comp name="--.HNN" depth="0.0">
			<acc value="0.015231864" flag="0"/>
			<vel value="0.006753" flag="0"/>
			<psa03 value="0.0238475961275388" flag="0"/>
			<psa10 value="0.00739722902019887" flag="0"/>
			<psa30 value="0.00180266350465017" flag="0"/>
		</comp>
		<comp name="--.HNZ" depth="0.0">
			<acc value="0.014684328" flag="0"/>
			<vel value="0.007325" flag="0"/>
			<psa03 value="0.0201787351848406" flag="0"/>
			<psa10 value="0.00403485219283575" flag="0"/>
			<psa30 value="0.00206351056923469" flag="0"/>
		</comp>
	</station>
	<station code="CVD" name="CVD" netid="IT" source="Italian Strong Motion Network (RAN)" insttype="" lat="46.0888" lon="13.3998">
		<comp name="--.HGE" depth="0.0">
			<acc value="0.076195224" flag="0"/>
			<vel value="0.029489" flag="0"/>
			<psa03 value="0.151139173956522" flag="0"/>
			<psa10 value="0.0155756569679528" flag="0"/>
			<psa30 value="0.00196284060434358" flag="0"/>
		</comp>
		<comp name="--.HGN" depth="0.0">
			<acc value="0.07297335" flag="0"/>
			<vel value="0.033858" flag="0"/>
			<psa03 value="0.139908880095336" flag="0"/>
			<psa10 value="0.0136790348294042" flag="0"/>
			<psa30 value="0.00139998364508572" flag="0"/>
		</comp>
		<comp name="--.HGZ" depth="0.0">
			<acc value="0.05363721" flag="0"/>
			<vel value="0.013902" flag="0"/>
			<psa03 value="0.0614310496868871" flag="0"/>
			<psa10 value="0.0152051914971535" flag="0"/>
			<psa30 value="0.00222860931165612" flag="0"/>
		</comp>
	</station>
	<station code="DANT" name="DANT" netid="IT" source="Italian Strong Motion Network (RAN)" insttype="" lat="46.5675" lon="12.5199">
		<comp name="--.HNE" depth="0.0">
			<acc value="0.026782752" flag="0"/>
			<vel value="0.011185" flag="0"/>
			<psa03 value="0.0379861334189127" flag="0"/>
			<psa10 value="0.0108481954166662" flag="0"/>
			<psa30 value="0.00138521871690169" flag="0"/>
		</comp>
		<comp name="--.HNN" depth="0.0">
			<acc value="0.026008878" flag="0"/>
			<vel value="0.010465" flag="0"/>
			<psa03 value="0.0306931537401344" flag="0"/>
			<psa10 value="0.0145528501246591" flag="0"/>
			<psa30 value="0.00228811644645842" flag="0"/>
		</comp>
		<comp name="--.HNZ" depth="0.0">
			<acc value="0.012387492" flag="0"/>
			<vel value="0.007488" flag="0"/>
			<psa03 value="0.0119461691670786" flag="0"/>
			<psa10 value="0.00914485961070856" flag="0"/>
			<psa30 value="0.00148409899352807" flag="0"/>
		</comp>
	</station>
	<station code="DRN" name="DRN" netid="IT" source="Italian Strong Motion Network (RAN)" insttype="" lat="46.1666" lon="13.6417">
		<comp name="--.HNE" depth="0.0">
			<acc value="0.061683888" flag="0"/>
			<vel value="0.014162" flag="0"/>
			<psa03 value="0.0911398748814196" flag="0"/>
			<psa10 value="0.00544423170131131" flag="0"/>
			<psa30 value="0.000886790535174146" flag="0"/>
		</comp>
		<comp name="--.HNN" depth="0.0">
			<acc value="0.073800366" flag="0"/>
			<vel value="0.018464" flag="0"/>
			<psa03 value="0.0655920749023864" flag="0"/>
			<psa10 value="0.00823882992668856" flag="0"/>
			<psa30 value="0.00148946805832227" flag="0"/>
		</comp>
		<comp name="--.HNZ" depth="0.0">
			<acc value="0.031415796" flag="0"/>
			<vel value="0.00766" flag="0"/>
			<psa03 value="0.0453685975109276" flag="0"/>
			<psa10 value="0.00461471119060855" flag="0"/>
			<psa30 value="0.000804912297062709" flag="0"/>
		</comp>
	</station>
	<station code="FAG" name="FAG" netid="IT" source="Italian Strong Motion Network (RAN)" insttype="" lat="46.098" lon="13.0914">
		<comp name="--.HGE" depth="0.0">
			<acc value="0.173156424" flag="0"/>
			<vel value="0.026957" flag="0"/>
			<psa03 value="0.135479401640127" flag="0"/>
			<psa10 value="0.0142427866327944" flag="0"/>
			<psa30 value="0.00245724198747548" flag="0"/>
		</comp>
		<comp name="--.HGN" depth="0.0">
			<acc value="0.130386192" flag="0"/>
			<vel value="0.027125" flag="0"/>
			<psa03 value="0.120624989042861" flag="0"/>
			<psa10 value="0.020013189020353" flag="0"/>
			<psa30 value="0.00335029643157619" flag="0"/>
		</comp>
		<comp name="--.HGZ" depth="0.0">
			<acc value="0.084724158" flag="0"/>
			<vel value="0.023331" flag="0"/>
			<psa03 value="0.0751221649120783" flag="0"/>
			<psa10 value="0.0354197204472887" flag="0"/>
			<psa30 value="0.00554445424413623" flag="0"/>
		</comp>
	</station>
	<station code="FDS" name="FDS" netid="IT" source="Italian Strong Motion Network (RAN)" insttype="" lat="46.4513" lon="12.5627">
		<comp name="--.HGE" depth="0.0">
			<acc value="0.036403086" flag="0"/>
			<vel value="0.010244" flag="0"/>
			<psa03 value="0.0359279919144722" flag="0"/>
			<psa10 value="0.00935827993627772" flag="0"/>
			<psa30 value="0.00213241356742683" flag="0"/>
		</comp>
		<comp name="--.HGN" depth="0.0">
			<acc value="0.02831622" flag="0"/>
			<vel value="0.008853" flag="0"/>
			<psa03 value="0.0439815891057611" flag="0"/>
			<psa10 value="0.00532745454203762" flag="0"/>
			<psa30 value="0.00190064893714418" flag="0"/>
		</comp>
		<comp name="--.HGZ" depth="0.0">
			<acc value="0.018196086" flag="0"/>
			<vel value="0.007076" flag="0"/>
			<psa03 value="0.035391085435053" flag="0"/>
			<psa10 value="0.00591134033840606" flag="0"/>
			<psa30 value="0.00148454641559426" flag="0"/>
		</comp>
	</station>
	<station code="MAI" name="MAI" netid="IT" source="Italian Strong Motion Network (RAN)" insttype="" lat="46.1853" lon="13.0692">
		<comp name="--.HGE" depth="0.0">
			<acc value="0.243191358" flag="0"/>
			<vel value="0.074673" flag="0"/>
			<psa03 value="0.458070711357866" flag="0"/>
			<psa10 value="0.0561617600134533" flag="0"/>
			<psa30 value="0.00475117492079428" flag="0"/>
		</comp>
		<comp name="--.HGN" depth="0.0">
			<acc value="0.223353378" flag="0"/>
			<vel value="0.110607" flag="0"/>
			<psa03 value="0.401292851159279" flag="0"/>
			<psa10 value="0.102389407891452" flag="0"/>
			<psa30 value="0.00777530066612326" flag="0"/>
		</comp>
		<comp name="--.HGZ" depth="0.0">
			<acc value="0.222038802" flag="0"/>
			<vel value="0.082696" flag="0"/>
			<psa03 value="0.564064998836552" flag="0"/>
			<psa10 value="0.0457001372619689" flag="0"/>
			<psa30 value="0.00827954533471119" flag="0"/>
		</comp>
	</station>
	<station code="OVAR" name="OVAR" netid="IT" source="Italian Strong Motion Network (RAN)" insttype="" lat="46.4847" lon="12.8647">
		<comp name="--.HGE" depth="0.0">
			<acc value="0.50136876" flag="0"/>
			<vel value="0.06219" flag="0"/>
			<psa03 value="0.192302004045332" flag="0"/>
			<psa10 value="0.0190105161700375" flag="0"/>
			<psa30 value="0.00448988043414357" flag="0"/>
		</comp>
		<comp name="--.HGN" depth="0.0">
			<acc value="0.449069178" flag="0"/>
			<vel value="0.067408" flag="0"/>
			<psa03 value="0.309302874352113" flag="0"/>
			<psa10 value="0.0312560106993923" flag="0"/>
			<psa30 value="0.00436147030114913" flag="0"/>
		</comp>
		<comp name="--.HGZ" depth="0.0">
			<acc value="0.47662764" flag="0"/>
			<vel value="0.063006" flag="0"/>
			<psa03 value="0.106844389404433" flag="0"/>
			<psa10 value="0.0300761587108685" flag="0"/>
			<psa30 value="0.00460531532721871" flag="0"/>
		</comp>
	</station>
	<station code="PLZA" name="PLZA" netid="IT" source="Italian Strong Motion Network (RAN)" insttype="" lat="46.5295" lon="13.0155">
		<comp name="--.HGE" depth="0.0">
			<acc value="0.349844802" flag="0"/>
			<vel value="0.069023" flag="0"/>
			<psa03 value="0.379190201089853" flag="0"/>
			<psa10 value="0.0530369643032332" flag="0"/>
			<psa30 value="0.00329436867330335" flag="0"/>
		</comp>
		<comp name="--.HGN" depth="0.0">
			<acc value="0.297710256" flag="0"/>
			<vel value="0.072365" flag="0"/>
			<psa03 value="0.405319649754924" flag="0"/>
			<psa10 value="0.041463945139351" flag="0"/>
			<psa30 value="0.00452701646563674" flag="0"/>
		</comp>
		<comp name="--.HGZ" depth="0.0">
			<acc value="0.375351432" flag="0"/>
			<vel value="0.071441" flag="0"/>
			<psa03 value="0.183308820515059" flag="0"/>
			<psa10 value="0.0335794734890791" flag="0"/>
			<psa30 value="0.00816097848717277" flag="0"/>
		</comp>
	</station>
	<station code="PNAL" name="PNAL" netid="IT" source="Italian Strong Motion Network (RAN)" insttype="" lat="46.1729" lon="12.2987">
		<comp name="--.HNE" depth="0.0">
			<acc value="0.01097214" flag="0"/>
			<vel value="0.00301" flag="0"/>
			<psa03 value="0.0120356535803151" flag="0"/>
			<psa10 value="0.00215836404726543" flag="0"/>
			<psa30 value="0.00121251379935516" flag="0"/>
		</comp>
		<comp name="--.HNN" depth="0.0">
			<acc value="0.00996897" flag="0"/>
			<vel value="0.003029" flag="0"/>
			<psa03 value="0.00961957442292843" flag="0"/>
			<psa10 value="0.00243218635176925" flag="0"/>
			<psa30 value="0.00106262740718395" flag="0"/>
		</comp>
		<comp name="--.HNZ" depth="0.0">
			<acc value="0.006035442" flag="0"/>
			<vel value="0.002026" flag="0"/>
			<psa03 value="0.00630865113317632" flag="0"/>
			<psa10 value="0.00267379426750792" flag="0"/>
			<psa30 value="0.000897528664762531" flag="0"/>
		</comp>
	</station>
	<station code="RST" name="RST" netid="IT" source="Italian Strong Motion Network (RAN)" insttype="" lat="46.3629" lon="13.3537">
		<comp name="--.HNE" depth="0.0">
			<acc value="0.229906572" flag="0"/>
			<vel value="0.055916" flag="0"/>
			<psa03 value="0.107157584850761" flag="0"/>
			<psa10 value="0.0132521941782659" flag="0"/>
			<psa30 value="0.00159550708800757" flag="0"/>
		</comp>
		<comp name="--.HNN" depth="0.0">
			<acc value="0.298381722" flag="0"/>
			<vel value="0.073559" flag="0"/>
			<psa03 value="0.319772550700788" flag="0"/>
			<psa10 value="0.0227957068499433" flag="0"/>
			<psa30 value="0.00225366494736235" flag="0"/>
		</comp>
		<comp name="--.HNZ" depth="0.0">
			<acc value="0.189760698" flag="0"/>
			<vel value="0.057494" flag="0"/>
			<psa03 value="0.186932939251139" flag="0"/>
			<psa10 value="0.0127891123397668" flag="0"/>
			<psa30 value="0.0016205627237138" flag="0"/>
		</comp>
	</station>
	<station code="RVST" name="RVST" netid="IT" source="Italian Strong Motion Network (RAN)" insttype="" lat="46.5232" lon="12.9265">
		<comp name="--.HGE" depth="0.0">
			<acc value="0.222916818" flag="0"/>
			<vel value="0.049997" flag="0"/>
			<psa03 value="0.200355601236621" flag="0"/>
			<psa10 value="0.0516195311975663" flag="0"/>
			<psa30 value="0.00579948482186038" flag="0"/>
		</comp>
		<comp name="--.HGN" depth="0.0">
			<acc value="0.296794296" flag="0"/>
			<vel value="0.089773" flag="0"/>
			<psa03 value="0.340667161191521" flag="0"/>
			<psa10 value="0.0323029783342598" flag="0"/>
			<psa30 value="0.0038988358847162" flag="0"/>
		</comp>
		<comp name="--.HGZ" depth="0.0">
			<acc value="0.247383354" flag="0"/>
			<vel value="0.069899" flag="0"/>
			<psa03 value="0.127738999895166" flag="0"/>
			<psa10 value="0.028529868050141" flag="0"/>
			<psa30 value="0.00536951221625879" flag="0"/>
		</comp>
	</station>
	<station code="SDF" name="SDF" netid="IT" source="Italian Strong Motion Network (RAN)" insttype="" lat="46.1669" lon="13.0075">
		<comp name="--.HGE" depth="0.0">
			<acc value="0.313095222" flag="0"/>
			<vel value="0.091114" flag="0"/>
			<psa03 value="0.400890171299715" flag="0"/>
			<psa10 value="0.0591858857587822" flag="0"/>
			<psa30 value="0.00316148431964708" flag="0"/>
		</comp>
		<comp name="--.HGN" depth="0.0">
			<acc value="0.359383536" flag="0"/>
			<vel value="0.082536" flag="0"/>
			<psa03 value="0.273777562297205" flag="0"/>
			<psa10 value="0.0348680490396854" flag="0"/>
			<psa30 value="0.00658784250247433" flag="0"/>
		</comp>
		<comp name="--.HGZ" depth="0.0">
			<acc value="0.174448866" flag="0"/>
			<vel value="0.051235" flag="0"/>
			<psa03 value="0.139461458029153" flag="0"/>
			<psa10 value="0.0526544184366469" flag="0"/>
			<psa30 value="0.00971800727748862" flag="0"/>
		</comp>
	</station>
	<station code="SPP" name="SPP" netid="IT" source="Italian Strong Motion Network (RAN)" insttype="" lat="46.5725" lon="12.709">
		<comp name="--.HGE" depth="0.0">
			<acc value="0.031048188" flag="0"/>
			<vel value="0.01061" flag="0"/>
			<psa03 value="0.0406259236093908" flag="0"/>
			<psa10 value="0.00526705256310295" flag="0"/>
			<psa30 value="0.00215031045007414" flag="0"/>
		</comp>
		<comp name="--.HGN" depth="0.0">
			<acc value="0.046504248" flag="0"/>
			<vel value="0.012911" flag="0"/>
			<psa03 value="0.0425050962873582" flag="0"/>
			<psa10 value="0.0116616087329863" flag="0"/>
			<psa30 value="0.00259639025005831" flag="0"/>
		</comp>
		<comp name="--.HGZ" depth="0.0">
			<acc value="0.033334416" flag="0"/>
			<vel value="0.011301" flag="0"/>
			<psa03 value="0.0453238553043093" flag="0"/>
			<psa10 value="0.0150763339420928" flag="0"/>
			<psa30 value="0.00100848933717585" flag="0"/>
		</comp>
	</station>
	<station code="TLM2" name="TLM2" netid="IT" source="Italian Strong Motion Network (RAN)" insttype="" lat="46.3814" lon="12.9839">
		<comp name="--.HGE" depth="0.0">
			<acc value="3.83890974" flag="0"/>
			<vel value="0.909967" flag="0"/>
			<psa03 value="3.34935684523721" flag="0"/>
			<psa10 value="0.443982732759971" flag="0"/>
			<psa30 value="0.0347946718208314" flag="0"/>
		</comp>
		<comp name="--.HGN" depth="0.0">
			<acc value="4.11416643" flag="0"/>
			<vel value="0.807235" flag="0"/>
			<psa03 value="2.75191416026342" flag="0"/>
			<psa10 value="0.402756368737763" flag="0"/>
			<psa30 value="0.043986063326423" flag="0"/>
		</comp>
		<comp name="--.HGZ" depth="0.0">
			<acc value="2.960818158" flag="0"/>
			<vel value="0.611555" flag="0"/>
			<psa03 value="1.33304930398479" flag="0"/>
			<psa10 value="0.255516478088023" flag="0"/>
			<psa30 value="0.0266788829623431" flag="0"/>
		</comp>
	</station>
	<station code="TRA" name="TRA" netid="IT" source="Italian Strong Motion Network (RAN)" insttype="" lat="46.186" lon="12.8779">
		<comp name="--.HGE" depth="0.0">
			<acc value="0.148796886" flag="0"/>
			<vel value="0.034363" flag="0"/>
			<psa03 value="0.12943920374666" flag="0"/>
			<psa10 value="0.0178306641815137" flag="0"/>
			<psa30 value="0.00365230632624952" flag="0"/>
		</comp>
		<comp name="--.HGN" depth="0.0">
			<acc value="0.160777194" flag="0"/>
			<vel value="0.041436" flag="0"/>
			<psa03 value="0.190959737846784" flag="0"/>
			<psa10 value="0.0191393737250981" flag="0"/>
			<psa30 value="0.00464334620284424" flag="0"/>
		</comp>
		<comp name="--.HGZ" depth="0.0">
			<acc value="0.062184912" flag="0"/>
			<vel value="0.016162" flag="0"/>
			<psa03 value="0.0594623925956832" flag="0"/>
			<psa10 value="0.0102683364188934" flag="0"/>
			<psa30 value="0.00371584025964747" flag="0"/>
		</comp>
	</station>
	<station code="VNZ" name="VNZ" netid="IT" source="Italian Strong Motion Network (RAN)" insttype="" lat="46.3338012695" lon="13.1401996613">
		<comp name="--.HGE" depth="0.0">
			<acc value="1.986587394" flag="0"/>
			<vel value="0.421761" flag="0"/>
			<psa03 value="1.52714099629485" flag="0"/>
			<psa10 value="0.124983774811613" flag="0"/>
			<psa30 value="0.00763481013734189" flag="0"/>
		</comp>
		<comp name="--.HGN" depth="0.0">
			<acc value="2.550269586" flag="0"/>
			<vel value="0.631953" flag="0"/>
			<psa03 value="2.88108491077037" flag="0"/>
			<psa10 value="0.143434565976856" flag="0"/>
			<psa30 value="0.00970995368029733" flag="0"/>
		</comp>
		<comp name="--.HGZ" depth="0.0">
			<acc value="0.86236716" flag="0"/>
			<vel value="0.140976" flag="0"/>
			<psa03 value="0.325231099908217" flag="0"/>
			<psa10 value="0.0437551935402727" flag="0"/>
			<psa30 value="0.00523707528466871" flag="0"/>
		</comp>
	</station>
	<station code="ASOL" name="ASOL" netid="IV" source="Italian National Seismic Network (INSN)" insttype="" lat="45.8003" lon="11.9023">
		<comp name="--.HNE" depth="0.0">
			<acc value="0.0837036396597283" flag="0"/>
			<vel value="0.0290534937380761" flag="0"/>
			<psa03 value="0.154584323866129" flag="0"/>
