<?xml version="1.0" encoding="UTF-8" standalone="yes"?>
<!DOCTYPE earthquake SYSTEM "stationlist.dtd">
<stationlist created="" xmlns="ch.ethz.sed.shakemap.usgs.xml">
  <station code="ARPRA" name="ARPRA" netid="KO" insttype="CMG-5T" lat="39.0929" lon="38.3356">
    <comp name="--.HNZ">
      <acc value="0.0245977133" flag="0"/>
      <vel value="0.0301493327" flag="0"/>
      <psa03 value="0.0544805244" flag="0"/>
      <psa10 value="0.0637783083" flag="0"/>
      <psa30 value="0.0071347914" flag="0"/>
    </comp>
    <comp name="--.HNN">
      <acc value="0.0394103941" flag="0"/>
      <vel value="0.0494208739" flag="0"/>
      <psa03 value="0.1475419055" flag="0"/>
      <psa10 value="0.0927930153" flag="0"/>
      <psa30 value="0.0070893208" flag="0"/>
    </comp>
    <comp name="--.HNE">
      <acc value="0.0465369212" flag="0"/>
      <vel value="0.0498080238" flag="0"/>
      <psa03 value="0.0887777592" flag="0"/>
      <psa10 value="0.0842955961" flag="0"/>
      <psa30 value="0.0102978885" flag="0"/>
    </comp>
  </station>
  <station code="GAZ" name="GAZ" netid="KO" insttype="CMG-3T" lat="37.1721" lon="37.2096">
    <comp name="--.HHE">
      <acc value="0.0336587527" flag="0"/>
      <vel value="0.0654810303" flag="0"/>
      <psa03 value="0.0575719078" flag="0"/>
      <psa10 value="0.0889387798" flag="0"/>
      <psa30 value="0.0339271304" flag="0"/>
    </comp>
    <comp name="--.HHZ">
      <acc value="0.0224980473" flag="0"/>
      <vel value="0.0380581900" flag="0"/>
      <psa03 value="0.0560025618" flag="0"/>
      <psa10 value="0.0499275622" flag="0"/>
      <psa30 value="0.0215344785" flag="0"/>
    </comp>
    <comp name="--.HHN">
      <acc value="0.0216555120" flag="0"/>
      <vel value="0.0323210042" flag="0"/>
      <psa03 value="0.0479518515" flag="0"/>
      <psa10 value="0.0726517446" flag="0"/>
      <psa30 value="0.0158849387" flag="0"/>
    </comp>
  </station>
  <station code="SARI" name="SARI" netid="KO" insttype="CMG-3T" lat="38.4072" lon="36.4181">
    <comp name="--.HHE">
      <acc value="0.0616522237" flag="0"/>
      <vel value="0.0774107629" flag="0"/>
      <psa03 value="0.1270746831" flag="0"/>
      <psa10 value="0.0851841424" flag="0"/>
      <psa30 value="0.0073806869" flag="0"/>
    </comp>
    <comp name="--.HHN">
      <acc value="0.0615287353" flag="0"/>
      <vel value="0.0586078654" flag="0"/>
      <psa03 value="0.1150261937" flag="0"/>
      <psa10 value="0.1457097397" flag="0"/>
      <psa30 value="0.0075918884" flag="0"/>
    </comp>
    <comp name="--.HHZ">
      <acc value="0.0496591819" flag="0"/>
      <vel value="0.0383355489" flag="0"/>
      <psa03 value="0.0929496909" flag="0"/>
      <psa10 value="0.0512269359" flag="0"/>
      <psa30 value="0.0063896583" flag="0"/>
    </comp>
  </station>
  <station code="URFA" name="URFA" netid="KO" insttype="CMG-3ESP" lat="37.4409" lon="38.8213">
    <comp name="--.HHE">
      <acc value="0.1853163518" flag="0"/>
      <vel value="0.1876213979" flag="0"/>
      <psa03 value="0.2821382628" flag="0"/>
      <psa10 value="0.2701726118" flag="0"/>
      <psa30 value="0.0130765620" flag="0"/>
    </comp>
    <comp name="--.HHN">
      <acc value="0.1272508480" flag="0"/>
      <vel value="0.0926893231" flag="0"/>
      <psa03 value="0.1693125430" flag="0"/>
      <psa10 value="0.1821815299" flag="0"/>
      <psa30 value="0.0167534648" flag="0"/>
    </comp>
  </station>
  <station code="ANDN" name="ANDN" netid="TU" insttype="T" lat="37.58" lon="36.3452">
    <comp name="--.HHN">
      <acc value="0.2568994766" flag="0"/>
      <vel value="0.3449354906" flag="0"/>
      <psa03 value="0.5296671740" flag="0"/>
      <psa10 value="0.7722970195" flag="0"/>
      <psa30 value="0.0436677282" flag="0"/>
    </comp>
    <comp name="--.HHZ">
      <acc value="0.1518948967" flag="0"/>
      <vel value="0.1910136482" flag="0"/>
      <psa03 value="0.2758194612" flag="0"/>
      <psa10 value="0.4379796254" flag="0"/>
      <psa30 value="0.0213912604" flag="0"/>
    </comp>
    <comp name="--.HHE">
      <acc value="0.1973044113" flag="0"/>
      <vel value="0.2656159898" flag="0"/>
      <psa03 value="0.3344423388" flag="0"/>
      <psa10 value="0.3761754014" flag="0"/>
      <psa30 value="0.0338524390" flag="0"/>
    </comp>
  </station>
</stationlist>
