<?xml version="1.0" encoding="UTF-8" standalone="yes"?>
<!DOCTYPE earthquake SYSTEM "stationlist.dtd">
<stationlist created="" xmlns="ch.ethz.sed.shakemap.usgs.xml">
  <station code="ARPRA" name="ARPRA" netid="KO" insttype="CMG-5T" lat="39.0929" lon="38.3356">
    <comp name="--.HNN">
      <acc value="0.0394103934" flag="0"/>
      <vel value="0.0494208826" flag="0"/>
      <psa03 value="0.1475419055" flag="0"/>
      <psa10 value="0.0927930156" flag="0"/>
      <psa30 value="0.0070896182" flag="0"/>
    </comp>
    <comp name="--.HNE">
      <acc value="0.0465369250" flag="0"/>
      <vel value="0.0498080334" flag="0"/>
      <psa03 value="0.0887777592" flag="0"/>
      <psa10 value="0.0842955964" flag="0"/>
      <psa30 value="0.0102979677" flag="0"/>
    </comp>
    <comp name="--.HNZ">
      <acc value="0.0245977066" flag="0"/>
      <vel value="0.0301493343" flag="0"/>
      <psa03 value="0.0544805244" flag="0"/>
      <psa10 value="0.0637783083" flag="0"/>
      <psa30 value="0.0071347924" flag="0"/>
    </comp>
  </station>
  <station code="GAZ" name="GAZ" netid="KO" insttype="CMG-3T" lat="37.1721" lon="37.2096">
    <comp name="--.HHE">
      <acc value="0.0336587525" flag="0"/>
      <vel value="0.0654810297" flag="0"/>
      <psa03 value="0.0575719078" flag="0"/>
      <psa10 value="0.0889387798" flag="0"/>
      <psa30 value="0.0339271334" flag="0"/>
    </comp>
    <comp name="--.HHN">
      <acc value="0.0216555123" flag="0"/>
      <vel value="0.0323210045" flag="0"/>
      <psa03 value="0.0479518515" flag="0"/>
      <psa10 value="0.0726517446" flag="0"/>
      <psa30 value="0.0158849398" flag="0"/>
    </comp>
    <comp name="--.HHZ">
      <acc value="0.0224980469" flag="0"/>
      <vel value="0.0380581900" flag="0"/>
      <psa03 value="0.0560025618" flag="0"/>
      <psa10 value="0.0499275622" flag="0"/>
      <psa30 value="0.0215344784" flag="0"/>
    </comp>
  </station>
  <station code="SARI" name="SARI" netid="KO" insttype="CMG-3T" lat="38.4072" lon="36.4181">
    <comp name="--.HHE">
      <acc value="0.0616522237" flag="0"/>
      <vel value="0.0774107698" flag="0"/>
      <psa03 value="0.1270746831" flag="0"/>
      <psa10 value="0.0851841424" flag="0"/>
      <psa30 value="0.0073807516" flag="0"/>
    </comp>
    <comp name="--.HHN">
      <acc value="0.0615287353" flag="0"/>
      <vel value="0.0586078656" flag="0"/>
      <psa03 value="0.1150261937" flag="0"/>
      <psa10 value="0.1457097397" flag="0"/>
      <psa30 value="0.0075918892" flag="0"/>
    </comp>
    <comp name="--.HHZ">
      <acc value="0.0496591819" flag="0"/>
      <vel value="0.0383355486" flag="0"/>
      <psa03 value="0.0929496909" flag="0"/>
      <psa10 value="0.0512269359" flag="0"/>
      <psa30 value="0.0063896571" flag="0"/>
    </comp>
  </station>
  <station code="URFA" name="URFA" netid="KO" insttype="CMG-3ESP" lat="37.4409" lon="38.8213">
    <comp name="--.HHN">
      <acc value="0.1272508481" flag="0"/>
      <vel value="0.0926893265" flag="0"/>
      <psa03 value="0.1693125430" flag="0"/>
      <psa10 value="0.1821815299" flag="0"/>
      <psa30 value="0.0167534649" flag="0"/>
    </comp>
    <comp name="--.HHE">
      <acc value="0.1853163518" flag="0"/>
      <vel value="0.1876214057" flag="0"/>
      <psa03 value="0.2821382628" flag="0"/>
      <psa10 value="0.2701726118" flag="0"/>
      <psa30 value="0.0130765650" flag="0"/>
    </comp>
  </station>
  <station code="ANDN" name="ANDN" netid="TU" insttype="T" lat="37.58" lon="36.3452">
    <comp name="--.HHZ">
      <acc value="0.1518948967" flag="0"/>
      <vel value="0.1910136484" flag="0"/>
      <psa03 value="0.2758194612" flag="0"/>
      <psa10 value="0.4379796255" flag="0"/>
      <psa30 value="0.0213912577" flag="0"/>
    </comp>
    <comp name="--.HHE">
      <acc value="0.1973044113" flag="0"/>
      <vel value="0.2656159900" flag="0"/>
      <psa03 value="0.3344423388" flag="0"/>
      <psa10 value="0.3761754014" flag="0"/>
      <psa30 value="0.0338524384" flag="0"/>
    </comp>
    <comp name="--.HHN">
      <acc value="0.2568994765" flag="0"/>
      <vel value="0.3449354899" flag="0"/>
      <psa03 value="0.5296671740" flag="0"/>
      <psa10 value="0.7722970194" flag="0"/>
      <psa30 value="0.0436676993" flag="0"/>
    </comp>
  </station>
</stationlist>
