<stationlist created="1658394021">
	<station code="NAX1" name="NAX1" netid="HI" source="ITSAK Strong Motion Network" insttype="" lat="37.101394" lon="25.374103">
		<comp name=".HNE" depth="0.0">
			<acc value="0.00458911542449" flag="0"/>
			<vel value="0.00482642200211" flag="0"/>
			<psa03 value="0.00795081576502" flag="0"/>
			<psa10 value="0.00356267085321" flag="0"/>
			<psa30 value="0.0016890574126" flag="0"/>
		</comp>
		<comp name=".HNN" depth="0.0">
			<acc value="0.00359595088292" flag="0"/>
			<vel value="0.00219073643743" flag="0"/>
			<psa03 value="0.00841938521691" flag="0"/>
			<psa10 value="0.00393346635409" flag="0"/>
			<psa30 value="0.000851523857194" flag="0"/>
		</comp>
		<comp name=".HNZ" depth="0.0">
			<acc value="0.00403729979959" flag="0"/>
			<vel value="0.00237732051871" flag="0"/>
			<psa03 value="0.00805632145217" flag="0"/>
			<psa10 value="0.00352366123776" flag="0"/>
			<psa30 value="0.000706944487853" flag="0"/>
		</comp>
	</station>
	<station code="SIT2" name="SIT2" netid="HI" source="ITSAK Strong Motion Network" insttype="" lat="35.2059" lon="26.107">
		<comp name=".HNE" depth="0.0">
			<acc value="0.150061223258" flag="0"/>
			<vel value="0.10678364921" flag="0"/>
			<psa03 value="0.411911953812" flag="0"/>
			<psa10 value="0.147667052217" flag="0"/>
			<psa30 value="0.00911372123931" flag="0"/>
		</comp>
		<comp name=".HNN" depth="0.0">
			<acc value="0.21207886253" flag="0"/>
			<vel value="0.160321187285" flag="0"/>
			<psa03 value="0.631239358176" flag="0"/>
			<psa10 value="0.144968208432" flag="0"/>
			<psa30 value="0.00900608994258" flag="0"/>
		</comp>
		<comp name=".HNZ" depth="0.0">
			<acc value="0.123701047461" flag="0"/>
			<vel value="0.0542321403386" flag="0"/>
			<psa03 value="0.34374289628" flag="0"/>
			<psa10 value="0.0316786448047" flag="0"/>
			<psa30 value="0.00521194443239" flag="0"/>
		</comp>
	</station>
	<station code="IACM" name="IACM" netid="HL" source="National Observatory of Athens Seismic Network" insttype="" lat="35.3058" lon="25.0709">
		<comp name=".HNE" depth="0.0">
			<acc value="0.556294250753" flag="0"/>
			<vel value="0.358348714137" flag="0"/>
			<psa03 value="1.50658630395" flag="0"/>
			<psa10 value="0.526938287077" flag="0"/>
			<psa30 value="0.060666392184" flag="0"/>
		</comp>
		<comp name=".HNN" depth="0.0">
			<acc value="0.595214888259" flag="0"/>
			<vel value="0.274384117396" flag="0"/>
			<psa03 value="1.53898278339" flag="0"/>
			<psa10 value="0.482986935512" flag="0"/>
			<psa30 value="0.0360415475756" flag="0"/>
		</comp>
		<comp name=".HNZ" depth="0.0">
			<acc value="0.590612169451" flag="0"/>
			<vel value="0.209043602225" flag="0"/>
			<psa03 value="1.04475696002" flag="0"/>
			<psa10 value="0.145898465057" flag="0"/>
			<psa30 value="0.025897712263" flag="0"/>
		</comp>
	</station>
	<station code="IMMV" name="IMMV" netid="HL" source="National Observatory of Athens Seismic Network" insttype="" lat="35.4606" lon="23.9811">
		<comp name=".HNE" depth="0.0">
			<acc value="0.0174010343636" flag="0"/>
			<vel value="0.0135210212746" flag="0"/>
			<psa03 value="0.0514471529129" flag="0"/>
			<psa10 value="0.0231383090494" flag="0"/>
			<psa30 value="0.00316328017679" flag="0"/>
		</comp>
		<comp name=".HNN" depth="0.0">
			<acc value="0.0199666605056" flag="0"/>
			<vel value="0.0134046449193" flag="0"/>
			<psa03 value="0.0429868033939" flag="0"/>
			<psa10 value="0.0201977261252" flag="0"/>
			<psa30 value="0.00420870297258" flag="0"/>
		</comp>
		<comp name=".HNZ" depth="0.0">
			<acc value="0.0141214165069" flag="0"/>
			<vel value="0.00785002477084" flag="0"/>
			<psa03 value="0.0561059719538" flag="0"/>
			<psa10 value="0.00946904634036" flag="0"/>
			<psa30 value="0.00198956867416" flag="0"/>
		</comp>
	</station>
	<station code="KARP" name="KARP" netid="HL" source="National Observatory of Athens Seismic Network" insttype="" lat="35.5471" lon="27.16106">
		<comp name=".HNE" depth="0.0">
			<acc value="0.020952514618" flag="0"/>
			<vel value="0.00988001888974" flag="0"/>
			<psa03 value="0.0538631567114" flag="0"/>
			<psa10 value="0.0167547149176" flag="0"/>
			<psa30 value="0.00200520116807" flag="0"/>
		</comp>
		<comp name=".HNN" depth="0.0">
			<acc value="0.0192740083923" flag="0"/>
			<vel value="0.0108413541593" flag="0"/>
			<psa03 value="0.0272472789568" flag="0"/>
			<psa10 value="0.0190864543839" flag="0"/>
			<psa30 value="0.00153669804871" flag="0"/>
		</comp>
		<comp name=".HNZ" depth="0.0">
			<acc value="0.010477590455" flag="0"/>
			<vel value="0.00912590722977" flag="0"/>
			<psa03 value="0.022686752886" flag="0"/>
			<psa10 value="0.0100215638794" flag="0"/>
			<psa30 value="0.00199594909683" flag="0"/>
		</comp>
	</station>
	<station code="SIVA" name="SIVA" netid="HL" source="National Observatory of Athens Seismic Network" insttype="" lat="35.01777" lon="24.81204">
		<comp name="00.HNE" depth="0.0">
			<acc value="0.110157524932" flag="0"/>
			<vel value="0.0457673090216" flag="0"/>
			<psa03 value="0.219658092937" flag="0"/>
			<psa10 value="0.0360997114287" flag="0"/>
			<psa30 value="0.0092108310057" flag="0"/>
		</comp>
		<comp name="00.HNN" depth="0.0">
			<acc value="0.0878230701064" flag="0"/>
			<vel value="0.045466308854" flag="0"/>
			<psa03 value="0.205619892142" flag="0"/>
			<psa10 value="0.0491615229595" flag="0"/>
			<psa30 value="0.0105918049884" flag="0"/>
		</comp>
		<comp name="00.HNZ" depth="0.0">
			<acc value="0.0572307065877" flag="0"/>
			<vel value="0.0257640786893" flag="0"/>
			<psa03 value="0.0908911252576" flag="0"/>
			<psa10 value="0.0139114256262" flag="0"/>
			<psa30 value="0.00824844558572" flag="0"/>
		</comp>
	</station>
</stationlist>
