<?xml version="1.0" encoding="UTF-8" standalone="yes"?>
<!DOCTYPE earthquake SYSTEM "stationlist.dtd">
<stationlist created="" xmlns="ch.ethz.sed.shakemap.usgs.xml">
  <station code="THERA" name="THERA" netid="GE" insttype="STS-2/N" lat="36.367" lon="25.4753">
    <comp name="--.HHZ">
      <acc value="0.0168391428" flag="0"/>
      <vel value="0.0107265207" flag="0"/>
      <psa03 value="0.0308962229" flag="0"/>
      <psa10 value="0.0095100192" flag="0"/>
      <psa30 value="0.0023236369" flag="0"/>
    </comp>
    <comp name="--.HHE">
      <acc value="0.0226860811" flag="0"/>
      <vel value="0.0158073022" flag="0"/>
      <psa03 value="0.0475033222" flag="0"/>
      <psa10 value="0.0204701763" flag="0"/>
      <psa30 value="0.0029029811" flag="0"/>
    </comp>
    <comp name="--.HHN">
      <acc value="0.0122291130" flag="0"/>
      <vel value="0.0055500530" flag="0"/>
      <psa03 value="0.0248207296" flag="0"/>
      <psa10 value="0.0042439218" flag="0"/>
      <psa30 value="0.0007922954" flag="0"/>
    </comp>
  </station>
  <station code="ZKR" name="ZKR" netid="GE" insttype="STS-2/N" lat="35.1147" lon="26.2169">
    <comp name="--.HHE">
      <acc value="0.0855361824" flag="0"/>
      <vel value="0.0540975345" flag="0"/>
      <psa03 value="0.1841389311" flag="0"/>
      <psa10 value="0.0496962088" flag="0"/>
      <psa30 value="0.0062498282" flag="0"/>
    </comp>
    <comp name="--.HHN">
      <acc value="0.0286284681" flag="0"/>
      <vel value="0.0174318614" flag="0"/>
      <psa03 value="0.0973103596" flag="0"/>
      <psa10 value="0.0275784619" flag="0"/>
      <psa30 value="0.0038804983" flag="0"/>
    </comp>
    <comp name="--.HHZ">
      <acc value="0.0361697621" flag="0"/>
      <vel value="0.0236425596" flag="0"/>
      <psa03 value="0.0990913183" flag="0"/>
      <psa10 value="0.0626686788" flag="0"/>
      <psa30 value="0.0063201901" flag="0"/>
    </comp>
  </station>
  <station code="IDI" name="IDI" netid="MN" insttype="" lat="35.288" lon="24.89">
    <comp name="--.HHN">
      <acc value="0.1294282987" flag="0"/>
      <vel value="0.0235244463" flag="0"/>
      <psa03 value="0.0892730772" flag="0"/>
      <psa10 value="0.0145482998" flag="0"/>
      <psa30 value="0.0053292071" flag="0"/>
    </comp>
    <comp name="--.HHZ">
      <acc value="0.0712511898" flag="0"/>
      <vel value="0.0196164678" flag="0"/>
      <psa03 value="0.0745302080" flag="0"/>
      <psa10 value="0.0165697441" flag="0"/>
      <psa30 value="0.0093564072" flag="0"/>
    </comp>
    <comp name="--.HHE">
      <acc value="0.0816217597" flag="0"/>
      <vel value="0.0209212278" flag="0"/>
      <psa03 value="0.0716389692" flag="0"/>
      <psa10 value="0.0163684923" flag="0"/>
      <psa30 value="0.0067418294" flag="0"/>
    </comp>
  </station>
</stationlist>
