<?xml version="1.0" encoding="UTF-8" standalone="yes"?>
<!DOCTYPE earthquake SYSTEM "stationlist.dtd">
<stationlist created="" xmlns="ch.ethz.sed.shakemap.usgs.xml">
  <station code="THERA" name="THERA" netid="GE" insttype="STS-2/N" lat="36.367" lon="25.4753">
    <comp name="--.HHZ">
      <acc value="0.0168391428" flag="0"/>
      <vel value="0.0107265207" flag="0"/>
      <psa03 value="0.0308962229" flag="0"/>
      <psa10 value="0.0095100192" flag="0"/>
      <psa30 value="0.0023236369" flag="0"/>
    </comp>
    <comp name="--.HHE">
      <acc value="0.0226860811" flag="0"/>
      <vel value="0.0158073022" flag="0"/>
      <psa03 value="0.0475033222" flag="0"/>
      <psa10 value="0.0204701763" flag="0"/>
      <psa30 value="0.0029029811" flag="0"/>
    </comp>
    <comp name="--.HHN">
      <acc value="0.0122291130" flag="0"/>
      <vel value="0.0055500530" flag="0"/>
      <psa03 value="0.0248207296" flag="0"/>
      <psa10 value="0.0042439218" flag="0"/>
      <psa30 value="0.0007922954" flag="0"/>
    </comp>
  </station>
  <station code="ZKR" name="ZKR" netid="GE" insttype="STS-2/N" lat="35.1147" lon="26.2169">
    <comp name="--.HHE">
      <acc value="0.0855361824" flag="0"/>
      <vel value="0.0540975345" flag="0"/>
      <psa03 value="0.1841389311" flag="0"/>
      <psa10 value="0.0496962088" flag="0"/>
      <psa30 value="0.0062498282" flag="0"/>
    </comp>
    <comp name="--.HHN">
      <acc value="0.0286284681" flag="0"/>
      <vel value="0.0174318614" flag="0"/>
      <psa03 value="0.0973103596" flag="0"/>
      <psa10 value="0.0275784619" flag="0"/>
      <psa30 value="0.0038804983" flag="0"/>
    </comp>
    <comp name="--.HHZ">
      <acc value="0.0361697621" flag="0"/>
      <vel value="0.0236425596" flag="0"/>
      <psa03 value="0.0990913183" flag="0"/>
      <psa10 value="0.0626686788" flag="0"/>
      <psa30 value="0.0063201901" flag="0"/>
    </comp>
  </station>
  <station code="SNT5" name="SNT5" netid="HA" insttype="1s-100Hz," lat="36.4037" lon="25.3953">
    <comp name="--.HHN">
      <acc value="0.0072011726" flag="0"/>
      <vel value="0.0003966222" flag="0"/>
      <psa03 value="0.0004786269" flag="0"/>
      <psa10 value="0.0002375426" flag="0"/>
      <psa30 value="0.0006201449" flag="0"/>
    </comp>
    <comp name="--.HHE">
      <acc value="0.0670410484" flag="0"/>
      <vel value="0.0296608527" flag="0"/>
      <psa03 value="0.1712540868" flag="0"/>
      <psa10 value="0.0313698599" flag="0"/>
      <psa30 value="0.0056613317" flag="0"/>
    </comp>
    <comp name="--.HHZ">
      <acc value="0.0208796644" flag="0"/>
      <vel value="0.0083104662" flag="0"/>
      <psa03 value="0.0256929289" flag="0"/>
      <psa10 value="0.0084494180" flag="0"/>
      <psa30 value="0.0022513900" flag="0"/>
    </comp>
  </station>
  <station code="STIA" name="STIA" netid="HC" insttype="120" lat="35.2021" lon="26.0909">
    <comp name="--.HHE">
      <acc value="0.1592978826" flag="0"/>
      <vel value="0.0798593344" flag="0"/>
      <psa03 value="0.3816499273" flag="0"/>
      <psa10 value="0.1291221364" flag="0"/>
      <psa30 value="0.0061101673" flag="0"/>
    </comp>
    <comp name="--.HHZ">
      <acc value="0.1284048616" flag="0"/>
      <vel value="0.0585393075" flag="0"/>
      <psa03 value="0.2538732397" flag="0"/>
      <psa10 value="0.0409719018" flag="0"/>
      <psa30 value="0.0051621726" flag="0"/>
    </comp>
    <comp name="--.HHN">
      <acc value="0.1295058538" flag="0"/>
      <vel value="0.0841708273" flag="0"/>
      <psa03 value="0.2563790767" flag="0"/>
      <psa10 value="0.1341003989" flag="0"/>
      <psa30 value="0.0068372207" flag="0"/>
    </comp>
  </station>
  <station code="SIT2" name="SIT2" netid="HI" insttype="CMG-5TD,ACCELEROMETER,GURALP" lat="35.2059" lon="26.107">
    <comp name="--.HNE">
      <acc value="0.1503560741" flag="0"/>
      <vel value="0.1029949985" flag="0"/>
      <psa03 value="0.4157599570" flag="0"/>
      <psa10 value="0.1478190166" flag="0"/>
      <psa30 value="0.0083090885" flag="0"/>
    </comp>
    <comp name="--.HNZ">
      <acc value="0.1236142455" flag="0"/>
      <vel value="0.0536600158" flag="0"/>
      <psa03 value="0.3402276416" flag="0"/>
      <psa10 value="0.0316439093" flag="0"/>
      <psa30 value="0.0047668656" flag="0"/>
    </comp>
    <comp name="--.HNN">
      <acc value="0.2126861377" flag="0"/>
      <vel value="0.1652140203" flag="0"/>
      <psa03 value="0.6467669347" flag="0"/>
      <psa10 value="0.1447349133" flag="0"/>
      <psa30 value="0.0088766604" flag="0"/>
    </comp>
  </station>
  <station code="IACM" name="IACM" netid="HL" insttype="120" lat="35.3058" lon="25.0709">
    <comp name="--.HHZ">
      <acc value="0.5808045084" flag="0"/>
      <vel value="0.1992930011" flag="0"/>
      <psa03 value="1.0741568657" flag="0"/>
      <psa10 value="0.1465373049" flag="0"/>
      <psa30 value="0.0218378345" flag="0"/>
    </comp>
    <comp name="--.HHN">
      <acc value="0.6053974227" flag="0"/>
      <vel value="0.2784159062" flag="0"/>
      <psa03 value="1.5238947328" flag="0"/>
      <psa10 value="0.4574996374" flag="0"/>
      <psa30 value="0.0321531192" flag="0"/>
    </comp>
    <comp name="--.HHE">
      <acc value="0.5583170227" flag="0"/>
      <vel value="0.3601460623" flag="0"/>
      <psa03 value="1.4800528521" flag="0"/>
      <psa10 value="0.5142290938" flag="0"/>
      <psa30 value="0.0562036714" flag="0"/>
    </comp>
  </station>
  <station code="IDI" name="IDI" netid="HL" insttype="120" lat="35.288" lon="24.89">
    <comp name="--.HHE">
      <acc value="0.0722027916" flag="0"/>
      <vel value="0.0210205401" flag="0"/>
      <psa03 value="0.0707025339" flag="0"/>
      <psa10 value="0.0165179575" flag="0"/>
      <psa30 value="0.0068213289" flag="0"/>
    </comp>
    <comp name="--.HHZ">
      <acc value="0.0646917910" flag="0"/>
      <vel value="0.0193934169" flag="0"/>
      <psa03 value="0.0730172158" flag="0"/>
      <psa10 value="0.0166869010" flag="0"/>
      <psa30 value="0.0094708714" flag="0"/>
    </comp>
    <comp name="--.HHN">
      <acc value="0.1160254501" flag="0"/>
      <vel value="0.0236153158" flag="0"/>
      <psa03 value="0.0878559172" flag="0"/>
      <psa10 value="0.0146170236" flag="0"/>
      <psa30 value="0.0053865971" flag="0"/>
    </comp>
  </station>
  <station code="IMMV" name="IMMV" netid="HL" insttype="DC" lat="35.4606" lon="23.9811">
    <comp name="--.HNZ">
      <acc value="0.0141908922" flag="0"/>
      <vel value="0.0062974451" flag="0"/>
      <psa03 value="0.0562650332" flag="0"/>
      <psa10 value="0.0094444064" flag="0"/>
      <psa30 value="0.0014895950" flag="0"/>
    </comp>
    <comp name="--.HNN">
      <acc value="0.0199419365" flag="0"/>
      <vel value="0.0118050124" flag="0"/>
      <psa03 value="0.0420260841" flag="0"/>
      <psa10 value="0.0201208228" flag="0"/>
      <psa30 value="0.0036008893" flag="0"/>
    </comp>
    <comp name="--.HNE">
      <acc value="0.0174187252" flag="0"/>
      <vel value="0.0134460856" flag="0"/>
      <psa03 value="0.0508535189" flag="0"/>
      <psa10 value="0.0231615260" flag="0"/>
      <psa30 value="0.0023244868" flag="0"/>
    </comp>
  </station>
  <station code="NPS" name="NPS" netid="HL" insttype="CMG3ESPC-120s" lat="35.2613" lon="25.6104">
    <comp name="--.HHZ">
      <acc value="0.5612617594" flag="0"/>
      <vel value="0.1882959199" flag="0"/>
      <psa03 value="0.4754199955" flag="0"/>
      <psa10 value="0.1810893414" flag="0"/>
      <psa30 value="0.0222878920" flag="0"/>
    </comp>
    <comp name="--.HHN">
      <acc value="0.4727403996" flag="0"/>
      <vel value="0.1316799004" flag="0"/>
      <psa03 value="0.5115450682" flag="0"/>
      <psa10 value="0.1463469274" flag="0"/>
      <psa30 value="0.0134280854" flag="0"/>
    </comp>
    <comp name="--.HHE">
      <acc value="0.1704562993" flag="0"/>
      <vel value="0.0640019843" flag="0"/>
      <psa03 value="0.1690923222" flag="0"/>
      <psa10 value="0.0618428008" flag="0"/>
      <psa30 value="0.0105832638" flag="0"/>
    </comp>
  </station>
  <station code="SAP3" name="SAP3" netid="HL" insttype="LE3D20_SMART24" lat="36.4356" lon="25.3454">
    <comp name="--.HHN">
      <acc value="0.0944237441" flag="0"/>
      <vel value="0.0582504327" flag="0"/>
      <psa03 value="0.2300017835" flag="0"/>
      <psa10 value="0.0805647031" flag="0"/>
      <psa30 value="0.0099735023" flag="0"/>
    </comp>
    <comp name="--.HHZ">
      <acc value="0.0499920437" flag="0"/>
      <vel value="0.0230356557" flag="0"/>
      <psa03 value="0.1130542535" flag="0"/>
      <psa10 value="0.0302084932" flag="0"/>
      <psa30 value="0.0041265990" flag="0"/>
    </comp>
    <comp name="--.HHE">
      <acc value="0.0714635226" flag="0"/>
      <vel value="0.0484547103" flag="0"/>
      <psa03 value="0.1601659321" flag="0"/>
      <psa10 value="0.0676350465" flag="0"/>
      <psa30 value="0.0120752674" flag="0"/>
    </comp>
  </station>
  <station code="SIVA" name="SIVA" netid="HL" insttype="60" lat="35.0178" lon="24.812">
    <comp name="--.HHE">
      <acc value="0.1220255028" flag="0"/>
      <vel value="0.0483058367" flag="0"/>
      <psa03 value="0.2308301104" flag="0"/>
      <psa10 value="0.0385831537" flag="0"/>
      <psa30 value="0.0084933849" flag="0"/>
    </comp>
    <comp name="--.HHN">
      <acc value="0.1015389629" flag="0"/>
      <vel value="0.0401088787" flag="0"/>
      <psa03 value="0.1921393223" flag="0"/>
      <psa10 value="0.0410809832" flag="0"/>
      <psa30 value="0.0076780583" flag="0"/>
    </comp>
    <comp name="--.HHZ">
      <acc value="0.0587813988" flag="0"/>
      <vel value="0.0220120974" flag="0"/>
      <psa03 value="0.0915273810" flag="0"/>
      <psa10 value="0.0139059115" flag="0"/>
      <psa30 value="0.0070944666" flag="0"/>
    </comp>
  </station>
  <station code="THERA" name="THERA" netid="HL" insttype="120" lat="36.367" lon="25.4753">
    <comp name="--.HHN">
      <acc value="0.0120071315" flag="0"/>
      <vel value="0.0054752630" flag="0"/>
      <psa03 value="0.0240874663" flag="0"/>
      <psa10 value="0.0042162787" flag="0"/>
      <psa30 value="0.0007920369" flag="0"/>
    </comp>
    <comp name="--.HHE">
      <acc value="0.0222576157" flag="0"/>
      <vel value="0.0155986991" flag="0"/>
      <psa03 value="0.0463900019" flag="0"/>
      <psa10 value="0.0203539197" flag="0"/>
      <psa30 value="0.0028993045" flag="0"/>
    </comp>
    <comp name="--.HHZ">
      <acc value="0.0162547897" flag="0"/>
      <vel value="0.0105313771" flag="0"/>
      <psa03 value="0.0299330467" flag="0"/>
      <psa10 value="0.0094598141" flag="0"/>
      <psa30 value="0.0023223120" flag="0"/>
    </comp>
  </station>
  <station code="VAM" name="VAM" netid="HL" insttype="CMG3ESPC-120s" lat="35.407" lon="24.1997">
    <comp name="--.HHE">
      <acc value="0.0386121586" flag="0"/>
      <vel value="0.0160404741" flag="0"/>
      <psa03 value="0.0982910737" flag="0"/>
      <psa10 value="0.0151857653" flag="0"/>
      <psa30 value="0.0019756432" flag="0"/>
    </comp>
    <comp name="--.HHN">
      <acc value="0.0395210092" flag="0"/>
      <vel value="0.0212940100" flag="0"/>
      <psa03 value="0.1229813545" flag="0"/>
      <psa10 value="0.0204241731" flag="0"/>
      <psa30 value="0.0027217194" flag="0"/>
    </comp>
    <comp name="--.HHZ">
      <acc value="0.0262381444" flag="0"/>
      <vel value="0.0081791923" flag="0"/>
      <psa03 value="0.0556377320" flag="0"/>
      <psa10 value="0.0074439393" flag="0"/>
      <psa30 value="0.0017039634" flag="0"/>
    </comp>
  </station>
  <station code="ZKR" name="ZKR" netid="HL" insttype="120" lat="35.1147" lon="26.2169">
    <comp name="--.HHZ">
      <acc value="0.0352968635" flag="0"/>
      <vel value="0.0234635874" flag="0"/>
      <psa03 value="0.0962911250" flag="0"/>
      <psa10 value="0.0623111852" flag="0"/>
      <psa30 value="0.0063230175" flag="0"/>
    </comp>
    <comp name="--.HHN">
      <acc value="0.0280226754" flag="0"/>
      <vel value="0.0171889285" flag="0"/>
      <psa03 value="0.0946689089" flag="0"/>
      <psa10 value="0.0273831402" flag="0"/>
      <psa30 value="0.0038823703" flag="0"/>
    </comp>
    <comp name="--.HHE">
      <acc value="0.0834995504" flag="0"/>
      <vel value="0.0534824203" flag="0"/>
      <psa03 value="0.1787537059" flag="0"/>
      <psa10 value="0.0493371850" flag="0"/>
      <psa30 value="0.0062544124" flag="0"/>
    </comp>
  </station>
  <station code="CMBO" name="CMBO" netid="HT" insttype="120P," lat="36.4709" lon="25.4056">
    <comp name="--.HHN">
      <acc value="0.0551632385" flag="0"/>
      <vel value="0.0329649960" flag="0"/>
      <psa03 value="0.1201493004" flag="0"/>
      <psa10 value="0.0379824778" flag="0"/>
      <psa30 value="0.0066844601" flag="0"/>
    </comp>
    <comp name="--.HHE">
      <acc value="0.0520339146" flag="0"/>
      <vel value="0.0410621028" flag="0"/>
      <psa03 value="0.0862422733" flag="0"/>
      <psa10 value="0.0583310955" flag="0"/>
      <psa30 value="0.0046331609" flag="0"/>
    </comp>
    <comp name="--.HHZ">
      <acc value="0.0432022825" flag="0"/>
      <vel value="0.0208613560" flag="0"/>
      <psa03 value="0.1565179870" flag="0"/>
      <psa10 value="0.0136597432" flag="0"/>
      <psa30 value="0.0046537847" flag="0"/>
    </comp>
  </station>
  <station code="IDI" name="IDI" netid="MN" insttype="" lat="35.288" lon="24.89">
    <comp name="--.HHN">
      <acc value="0.1294282987" flag="0"/>
      <vel value="0.0235244463" flag="0"/>
      <psa03 value="0.0892730772" flag="0"/>
      <psa10 value="0.0145482998" flag="0"/>
      <psa30 value="0.0053292071" flag="0"/>
    </comp>
    <comp name="--.HHZ">
      <acc value="0.0712511898" flag="0"/>
      <vel value="0.0196164678" flag="0"/>
      <psa03 value="0.0745302080" flag="0"/>
      <psa10 value="0.0165697441" flag="0"/>
      <psa30 value="0.0093564072" flag="0"/>
    </comp>
    <comp name="--.HHE">
      <acc value="0.0816217597" flag="0"/>
      <vel value="0.0209212278" flag="0"/>
      <psa03 value="0.0716389692" flag="0"/>
      <psa10 value="0.0163684923" flag="0"/>
      <psa30 value="0.0067418294" flag="0"/>
    </comp>
  </station>
</stationlist>
