<?xml version="1.0" encoding="UTF-8" standalone="yes"?>
<!DOCTYPE earthquake SYSTEM "stationlist.dtd">
<stationlist created="" xmlns="ch.ethz.sed.shakemap.usgs.xml">
  <station code="XLND" name="XLND" netid="ML" insttype="" lat="36.0323" lon="14.2201">
    <comp name="--.HHE">
      <acc value="0.0189738398" flag="0"/>
      <vel value="0.0159520528" flag="0"/>
      <psa03 value="0.0621875008" flag="0"/>
      <psa10 value="0.0172111621" flag="0"/>
      <psa30 value="0.0024660902" flag="0"/>
    </comp>
    <comp name="--.HHN">
      <acc value="0.0204425184" flag="0"/>
      <vel value="0.0155668326" flag="0"/>
      <psa03 value="0.0643470101" flag="0"/>
      <psa10 value="0.0254518067" flag="0"/>
      <psa30 value="0.0044811258" flag="0"/>
    </comp>
    <comp name="--.HHZ">
      <acc value="0.0199236076" flag="0"/>
      <vel value="0.0137080288" flag="0"/>
      <psa03 value="0.0548013385" flag="0"/>
      <psa10 value="0.0178529781" flag="0"/>
      <psa30 value="0.0061283552" flag="0"/>
    </comp>
  </station>
</stationlist>
