<stationlist created="1778138793">
	<station code="AGRP" name="AGRP" netid="CL" source="Corinth Riff Laboratory (CRLNET)" insttype="" lat="38.3959" lon="21.72277">
		<comp name="00.HNE" depth="0.0">
			<acc value="0.0100611243473964" flag="0"/>
			<vel value="0.00617315904432961" flag="0"/>
			<psa03 value="0.0379183139855565" flag="0"/>
			<psa10 value="0.00894677267979658" flag="0"/>
			<psa30 value="0.0011959106815446" flag="0"/>
		</comp>
		<comp name="00.HNN" depth="0.0">
			<acc value="0.0103151532587397" flag="0"/>
			<vel value="0.00986256693311883" flag="0"/>
			<psa03 value="0.0312798585954716" flag="0"/>
			<psa10 value="0.0130523130891996" flag="0"/>
			<psa30 value="0.00132217977542137" flag="0"/>
		</comp>
		<comp name="00.HNZ" depth="0.0">
			<acc value="0.00492487884571242" flag="0"/>
			<vel value="0.00439062763853687" flag="0"/>
			<psa03 value="0.0105223480955899" flag="0"/>
			<psa10 value="0.00391745654352028" flag="0"/>
			<psa30 value="0.00157027173113019" flag="0"/>
		</comp>
	</station>
	<station code="ROD3" name="ROD3" netid="CL" source="Corinth Riff Laboratory (CRLNET)" insttype="" lat="38.30811" lon="21.89204">
		<comp name="00.HNE" depth="0.0">
			<acc value="0.0576571349442748" flag="0"/>
			<vel value="0.0218462400887755" flag="0"/>
			<psa03 value="0.140758189122516" flag="0"/>
			<psa10 value="0.0161217798637844" flag="0"/>
			<psa30 value="0.00249159609767795" flag="0"/>
		</comp>
		<comp name="00.HNN" depth="0.0">
			<acc value="0.0346821951967437" flag="0"/>
			<vel value="0.0179248576784153" flag="0"/>
			<psa03 value="0.185213102792308" flag="0"/>
			<psa10 value="0.015351959804507" flag="0"/>
			<psa30 value="0.00163486496844842" flag="0"/>
		</comp>
		<comp name="00.HNZ" depth="0.0">
			<acc value="0.0181882586813881" flag="0"/>
			<vel value="0.00924239928882347" flag="0"/>
			<psa03 value="0.0372597104604462" flag="0"/>
			<psa10 value="0.0104912834335321" flag="0"/>
			<psa30 value="0.00152338779196611" flag="0"/>
		</comp>
	</station>
	<station code="AIGS" name="AIGS" netid="HA" source="Hellenic Seismological Network, University of Athens, Seismological Laboratory (HA)" insttype="" lat="38.25001" lon="22.0878">
		<comp name="--.HNE" depth="0.0">
			<acc value="0.0346918897530522" flag="0"/>
			<vel value="0.0148233304369671" flag="0"/>
			<psa03 value="0.0678155289042456" flag="0"/>
			<psa10 value="0.018285174428054" flag="0"/>
			<psa30 value="0.00263459536234636" flag="0"/>
		</comp>
		<comp name="--.HNN" depth="0.0">
			<acc value="0.0238704395617304" flag="0"/>
			<vel value="0.0145086873944862" flag="0"/>
			<psa03 value="0.0700996593833987" flag="0"/>
			<psa10 value="0.0144137526528744" flag="0"/>
			<psa30 value="0.00385091718769855" flag="0"/>
		</comp>
		<comp name="--.HNZ" depth="0.0">
			<acc value="0.020057900550109" flag="0"/>
			<vel value="0.00866039195434426" flag="0"/>
			<psa03 value="0.0405029174945182" flag="0"/>
			<psa10 value="0.0176786298724707" flag="0"/>
			<psa30 value="0.00115440261934121" flag="0"/>
		</comp>
	</station>
	<station code="CORS" name="CORS" netid="HA" source="Hellenic Seismological Network, University of Athens, Seismological Laboratory (HA)" insttype="" lat="38.2562" lon="22.0748">
		<comp name="00.HNE" depth="0.0">
			<acc value="0.0160142521734817" flag="0"/>
			<vel value="0.0192812718396792" flag="0"/>
			<psa03 value="0.0599679986273383" flag="0"/>
			<psa10 value="0.0367422264921692" flag="0"/>
			<psa30 value="0.00301956253119673" flag="0"/>
		</comp>
		<comp name="00.HNN" depth="0.0">
			<acc value="0.0278082149933201" flag="0"/>
			<vel value="0.017206966893576" flag="0"/>
			<psa03 value="0.0728878597130478" flag="0"/>
			<psa10 value="0.0368327874914239" flag="0"/>
			<psa30 value="0.00237724643924477" flag="0"/>
		</comp>
		<comp name="00.HNZ" depth="0.0">
			<acc value="0.013256839022431" flag="0"/>
			<vel value="0.00849939267464222" flag="0"/>
			<psa03 value="0.035822464208299" flag="0"/>
			<psa10 value="0.0128816486584957" flag="0"/>
			<psa30 value="0.000915897444545804" flag="0"/>
		</comp>
	</station>
	<station code="DRES" name="DRES" netid="HA" source="Hellenic Seismological Network, University of Athens, Seismological Laboratory (HA)" insttype="" lat="38.319719" lon="21.853176">
		<comp name="--.HNE" depth="0.0">
			<acc value="0.0141054840946379" flag="0"/>
			<vel value="0.00774932857563239" flag="0"/>
			<psa03 value="0.0613065404242055" flag="0"/>
			<psa10 value="0.0120250075352259" flag="0"/>
			<psa30 value="0.00178937374556399" flag="0"/>
		</comp>
		<comp name="--.HNN" depth="0.0">
			<acc value="0.0202593174411764" flag="0"/>
			<vel value="0.0107977505766998" flag="0"/>
			<psa03 value="0.0531925081174563" flag="0"/>
			<psa10 value="0.0153715857921178" flag="0"/>
			<psa30 value="0.00230227543111718" flag="0"/>
		</comp>
		<comp name="--.HNZ" depth="0.0">
			<acc value="0.00906157187532652" flag="0"/>
			<vel value="0.00738997650139665" flag="0"/>
			<psa03 value="0.0191713064632833" flag="0"/>
			<psa10 value="0.0080772194511406" flag="0"/>
			<psa30 value="0.00139545952567796" flag="0"/>
		</comp>
	</station>
	<station code="KIAS" name="KIAS" netid="HA" source="Hellenic Seismological Network, University of Athens, Seismological Laboratory (HA)" insttype="" lat="37.9875" lon="22.7543">
		<comp name="--.HNE" depth="0.0">
			<acc value="0.201357512432559" flag="0"/>
			<vel value="0.104904921641785" flag="0"/>
			<psa03 value="0.31298185851212" flag="0"/>
			<psa10 value="0.0646424772468448" flag="0"/>
			<psa30 value="0.0120790776796025" flag="0"/>
		</comp>
		<comp name="--.HNN" depth="0.0">
			<acc value="0.163896250514803" flag="0"/>
			<vel value="0.0638990134700246" flag="0"/>
			<psa03 value="0.29649712064568" flag="0"/>
			<psa10 value="0.0519909841477021" flag="0"/>
			<psa30 value="0.0108930407771577" flag="0"/>
		</comp>
		<comp name="--.HNZ" depth="0.0">
			<acc value="0.100536047495663" flag="0"/>
			<vel value="0.0268132007971597" flag="0"/>
			<psa03 value="0.115271386163788" flag="0"/>
			<psa10 value="0.0336580371797776" flag="0"/>
			<psa30 value="0.00848207522920496" flag="0"/>
		</comp>
	</station>
	<station code="LTRS" name="LTRS" netid="HA" source="Hellenic Seismological Network, University of Athens, Seismological Laboratory (HA)" insttype="" lat="37.97528" lon="22.9765">
		<comp name="--.HNE" depth="0.0">
			<acc value="0.162892269514839" flag="0"/>
			<vel value="0.111264004440112" flag="0"/>
			<psa03 value="0.36992521406326" flag="0"/>
			<psa10 value="0.126405573748961" flag="0"/>
			<psa30 value="0.0123615980618671" flag="0"/>
		</comp>
		<comp name="--.HNN" depth="0.0">
			<acc value="0.238513173868433" flag="0"/>
			<vel value="0.105509845498072" flag="0"/>
			<psa03 value="0.661770380705088" flag="0"/>
			<psa10 value="0.11015285208566" flag="0"/>
			<psa30 value="0.0163624439316142" flag="0"/>
		</comp>
		<comp name="--.HNZ" depth="0.0">
			<acc value="0.165828859583839" flag="0"/>
			<vel value="0.0749719726861362" flag="0"/>
			<psa03 value="0.314653240066318" flag="0"/>
			<psa10 value="0.125186622999346" flag="0"/>
			<psa30 value="0.00577912658877248" flag="0"/>
		</comp>
	</station>
	<station code="ARS1" name="ARS1" netid="HI" source="ITSAK Strong Motion Network" insttype="" lat="37.6349" lon="22.7293">
		<comp name="--.HNE" depth="0.0">
			<acc value="0.0483844498286617" flag="0"/>
			<vel value="0.0324544615350996" flag="0"/>
			<psa03 value="0.125079598409406" flag="0"/>
			<psa10 value="0.0330166246893546" flag="0"/>
			<psa30 value="0.00589659812069498" flag="0"/>
		</comp>
		<comp name="--.HNN" depth="0.0">
			<acc value="0.0443009343811467" flag="0"/>
			<vel value="0.0331021814829096" flag="0"/>
			<psa03 value="0.146680143923051" flag="0"/>
			<psa10 value="0.0385354415338829" flag="0"/>
			<psa30 value="0.00546047214612827" flag="0"/>
		</comp>
		<comp name="--.HNZ" depth="0.0">
			<acc value="0.0266296336915586" flag="0"/>
			<vel value="0.0160933577024823" flag="0"/>
			<psa03 value="0.0788916115987276" flag="0"/>
			<psa10 value="0.0116152797677953" flag="0"/>
			<psa30 value="0.00340314898358634" flag="0"/>
		</comp>
	</station>
	<station code="ATH5" name="ATH5" netid="HI" source="ITSAK Strong Motion Network" insttype="" lat="37.975421" lon="23.737098">
		<comp name="--.HNE" depth="0.0">
			<acc value="0.101234815700177" flag="0"/>
			<vel value="0.0386473811615277" flag="0"/>
			<psa03 value="0.101953337241652" flag="0"/>
			<psa10 value="0.0369559606510385" flag="0"/>
			<psa30 value="0.00300754506843299" flag="0"/>
		</comp>
		<comp name="--.HNN" depth="0.0">
			<acc value="0.0632062182634242" flag="0"/>
			<vel value="0.0341727363898396" flag="0"/>
			<psa03 value="0.105445829018783" flag="0"/>
			<psa10 value="0.0317543923226391" flag="0"/>
			<psa30 value="0.0126697043057242" flag="0"/>
		</comp>
		<comp name="--.HNZ" depth="0.0">
			<acc value="0.0539453104776856" flag="0"/>
			<vel value="0.0197262585463644" flag="0"/>
			<psa03 value="0.0690229526400215" flag="0"/>
			<psa10 value="0.0238066108211211" flag="0"/>
			<psa30 value="0.00450606558806283" flag="0"/>
		</comp>
	</station>
	<station code="KLV1" name="KLV1" netid="HI" source="ITSAK Strong Motion Network" insttype="" lat="38.03256" lon="22.10797">
		<comp name="--.HNE" depth="0.0">
			<acc value="0.0656269875610833" flag="0"/>
			<vel value="0.0238382197879949" flag="0"/>
			<psa03 value="0.117597342330163" flag="0"/>
			<psa10 value="0.0144555669853835" flag="0"/>
			<psa30 value="0.0014364348442571" flag="0"/>
		</comp>
		<comp name="--.HNN" depth="0.0">
			<acc value="0.0481465993830529" flag="0"/>
			<vel value="0.0226577553602584" flag="0"/>
			<psa03 value="0.173153210133638" flag="0"/>
			<psa10 value="0.0236540375889109" flag="0"/>
			<psa30 value="0.00210485443627794" flag="0"/>
		</comp>
		<comp name="--.HNZ" depth="0.0">
			<acc value="0.0184369492735288" flag="0"/>
			<vel value="0.0113257911520273" flag="0"/>
			<psa03 value="0.0409763941725221" flag="0"/>
			<psa10 value="0.0220656329898992" flag="0"/>
			<psa30 value="0.00166687531814306" flag="0"/>
		</comp>
	</station>
	<station code="LAM2" name="LAM2" netid="HI" source="ITSAK Strong Motion Network" insttype="" lat="38.90203" lon="22.431301">
		<comp name="--.HNE" depth="0.0">
			<acc value="0.0432700277784658" flag="0"/>
			<vel value="0.0175812203052136" flag="0"/>
			<psa03 value="0.0667111328266231" flag="0"/>
			<psa10 value="0.0177543905162371" flag="0"/>
			<psa30 value="0.00211733338794577" flag="0"/>
		</comp>
		<comp name="--.HNN" depth="0.0">
			<acc value="0.0392789559133497" flag="0"/>
			<vel value="0.0244925878523173" flag="0"/>
			<psa03 value="0.0998226335929525" flag="0"/>
			<psa10 value="0.022600189651642" flag="0"/>
			<psa30 value="0.00433987457872366" flag="0"/>
		</comp>
		<comp name="--.HNZ" depth="0.0">
			<acc value="0.0174345641994183" flag="0"/>
			<vel value="0.0109951496663299" flag="0"/>
			<psa03 value="0.044395664953269" flag="0"/>
			<psa10 value="0.0109450344298147" flag="0"/>
			<psa30 value="0.002539593860631" flag="0"/>
		</comp>
	</station>
	<station code="MSL1" name="MSL1" netid="HI" source="ITSAK Strong Motion Network" insttype="" lat="38.3727" lon="21.4243">
		<comp name="--.HNE" depth="0.0">
			<acc value="0.0130857090424022" flag="0"/>
			<vel value="0.0119606023497654" flag="0"/>
			<psa03 value="0.0472729753526083" flag="0"/>
			<psa10 value="0.0210587794157661" flag="0"/>
			<psa30 value="0.00286157831551868" flag="0"/>
		</comp>
		<comp name="--.HNN" depth="0.0">
			<acc value="0.00946623512007145" flag="0"/>
			<vel value="0.0128192546140914" flag="0"/>
			<psa03 value="0.0336692043778703" flag="0"/>
			<psa10 value="0.0259974872059395" flag="0"/>
			<psa30 value="0.0028920747107565" flag="0"/>
		</comp>
		<comp name="--.HNZ" depth="0.0">
			<acc value="0.0071018715974887" flag="0"/>
			<vel value="0.00647357163639013" flag="0"/>
			<psa03 value="0.015438981090044" flag="0"/>
			<psa10 value="0.0162273643582562" flag="0"/>
			<psa30 value="0.00077615251004305" flag="0"/>
		</comp>
	</station>
	<station code="NAX1" name="NAX1" netid="HI" source="ITSAK Strong Motion Network" insttype="" lat="37.101394" lon="25.374103">
		<comp name="--.HNE" depth="0.0">
			<acc value="0.0019185238199717" flag="0"/>
			<vel value="0.00147226060067182" flag="0"/>
			<psa03 value="0.00371538740222197" flag="0"/>
			<psa10 value="0.00245281483069427" flag="0"/>
			<psa30 value="0.000543757375425868" flag="0"/>
		</comp>
		<comp name="--.HNN" depth="0.0">
			<acc value="0.00204893226851501" flag="0"/>
			<vel value="0.00286811070449758" flag="0"/>
			<psa03 value="0.00334846205355165" flag="0"/>
			<psa10 value="0.00233002466519738" flag="0"/>
			<psa30 value="0.000525227293728302" flag="0"/>
		</comp>
		<comp name="--.HNZ" depth="0.0">
			<acc value="0.0012280653936069" flag="0"/>
			<vel value="0.00159585272438889" flag="0"/>
			<psa03 value="0.00255084687822224" flag="0"/>
			<psa10 value="0.00176095563904223" flag="0"/>
			<psa30 value="0.000543199369707476" flag="0"/>
		</comp>
	</station>
	<station code="NPS1" name="NPS1" netid="HI" source="ITSAK Strong Motion Network" insttype="" lat="36.51263" lon="23.06248">
		<comp name="--.HNE" depth="0.0">
			<acc value="0.00499739387079888" flag="0"/>
			<vel value="0.0049205581410667" flag="0"/>
			<psa03 value="0.0119897187391731" flag="0"/>
			<psa10 value="0.00648562667219269" flag="0"/>
			<psa30 value="0.000580415480927325" flag="0"/>
		</comp>
		<comp name="--.HNN" depth="0.0">
			<acc value="0.0107116244461369" flag="0"/>
			<vel value="0.00776451580786702" flag="0"/>
			<psa03 value="0.022470988592724" flag="0"/>
			<psa10 value="0.00876083536235956" flag="0"/>
			<psa30 value="0.000679208744248067" flag="0"/>
		</comp>
		<comp name="--.HNZ" depth="0.0">
			<acc value="0.00367738014495008" flag="0"/>
			<vel value="0.00311075759913706" flag="0"/>
			<psa03 value="0.00948913381687589" flag="0"/>
			<psa10 value="0.0072264371534804" flag="0"/>
			<psa30 value="0.0004380475080809" flag="0"/>
		</comp>
	</station>
	<station code="SKO1" name="SKO1" netid="HI" source="ITSAK Strong Motion Network" insttype="" lat="39.123383" lon="23.728705">
		<comp name="--.HNE" depth="0.0">
			<acc value="0.0210098180845655" flag="0"/>
			<vel value="0.0182880182640698" flag="0"/>
			<psa03 value="0.0402175548406254" flag="0"/>
			<psa10 value="0.0199405228367719" flag="0"/>
			<psa30 value="0.00174918504158963" flag="0"/>
		</comp>
		<comp name="--.HNN" depth="0.0">
			<acc value="0.0296465774233734" flag="0"/>
			<vel value="0.0303005754835537" flag="0"/>
			<psa03 value="0.0956684417316289" flag="0"/>
			<psa10 value="0.0226721606693709" flag="0"/>
			<psa30 value="0.0021544785569653" flag="0"/>
		</comp>
		<comp name="--.HNZ" depth="0.0">
			<acc value="0.013136531489431" flag="0"/>
			<vel value="0.0103953589025021" flag="0"/>
			<psa03 value="0.0301328919895297" flag="0"/>
			<psa10 value="0.0145241234018885" flag="0"/>
			<psa30 value="0.0021376099395002" flag="0"/>
		</comp>
	</station>
	<station code="SKY1" name="SKY1" netid="HI" source="ITSAK Strong Motion Network" insttype="" lat="38.904483" lon="24.564572">
		<comp name="--.HNE" depth="0.0">
			<acc value="0.0244370087268208" flag="0"/>
			<vel value="0.0131677596545673" flag="0"/>
			<psa03 value="0.0488808006130434" flag="0"/>
			<psa10 value="0.0159084638576677" flag="0"/>
			<psa30 value="0.00220736831065271" flag="0"/>
		</comp>
		<comp name="--.HNN" depth="0.0">
			<acc value="0.0396181058813783" flag="0"/>
			<vel value="0.025062514669047" flag="0"/>
			<psa03 value="0.0713792962361916" flag="0"/>
			<psa10 value="0.0145692885813731" flag="0"/>
			<psa30 value="0.00210846009179794" flag="0"/>
		</comp>
		<comp name="--.HNZ" depth="0.0">
			<acc value="0.0197146929462329" flag="0"/>
			<vel value="0.0117074437467719" flag="0"/>
			<psa03 value="0.0348273201598738" flag="0"/>
			<psa10 value="0.00704959043828793" flag="0"/>
			<psa30 value="0.00193772878168747" flag="0"/>
		</comp>
	</station>
	<station code="VOL2" name="VOL2" netid="HI" source="ITSAK Strong Motion Network" insttype="" lat="39.366" lon="22.9506">
		<comp name="--.HNE" depth="0.0">
			<acc value="0.0374970466312713" flag="0"/>
			<vel value="0.0186097231793725" flag="0"/>
			<psa03 value="0.117834337196437" flag="0"/>
			<psa10 value="0.019801116726821" flag="0"/>
			<psa30 value="0.00367549390010101" flag="0"/>
		</comp>
		<comp name="--.HNN" depth="0.0">
			<acc value="0.0366311825796692" flag="0"/>
			<vel value="0.0168319608533631" flag="0"/>
			<psa03 value="0.101773606585153" flag="0"/>
			<psa10 value="0.0261398185096774" flag="0"/>
			<psa30 value="0.00177296245006284" flag="0"/>
		</comp>
		<comp name="--.HNZ" depth="0.0">
			<acc value="0.0126503006786785" flag="0"/>
			<vel value="0.00829248506121333" flag="0"/>
			<psa03 value="0.0308844261499885" flag="0"/>
			<psa10 value="0.00886850593247479" flag="0"/>
			<psa30 value="0.00126642431106416" flag="0"/>
		</comp>
	</station>
	<station code="DLFA" name="DLFA" netid="HL" source="National Observatory of Athens Seismic Network" insttype="" lat="38.47836" lon="22.49583">
		<comp name="00.HNE" depth="0.0">
			<acc value="0.0528497214005537" flag="0"/>
			<vel value="0.0182870512896632" flag="0"/>
			<psa03 value="0.102925422470776" flag="0"/>
			<psa10 value="0.0234802829535021" flag="0"/>
			<psa30 value="0.00156894518491802" flag="0"/>
		</comp>
		<comp name="00.HNN" depth="0.0">
			<acc value="0.0458627445311238" flag="0"/>
			<vel value="0.0145327245866386" flag="0"/>
			<psa03 value="0.0836523957271756" flag="0"/>
			<psa10 value="0.0177946363073253" flag="0"/>
			<psa30 value="0.00151815911225674" flag="0"/>
		</comp>
		<comp name="00.HNZ" depth="0.0">
			<acc value="0.0335266047336393" flag="0"/>
			<vel value="0.014748092569022" flag="0"/>
			<psa03 value="0.0667978625306537" flag="0"/>
			<psa10 value="0.0113092201178281" flag="0"/>
			<psa30 value="0.00201640816047965" flag="0"/>
		</comp>
	</station>
	<station code="EFSA" name="EFSA" netid="HL" source="National Observatory of Athens Seismic Network" insttype="" lat="39.54015" lon="24.98864">
		<comp name="00.HNE" depth="0.0">
			<acc value="0.00444353314161291" flag="0"/>
			<vel value="0.00375556508988227" flag="0"/>
			<psa03 value="0.00855272282589775" flag="0"/>
			<psa10 value="0.0044894059948807" flag="0"/>
			<psa30 value="0.00122826688748523" flag="0"/>
		</comp>
		<comp name="00.HNN" depth="0.0">
			<acc value="0.00326396794191455" flag="0"/>
			<vel value="0.00335255791749921" flag="0"/>
			<psa03 value="0.0102644495006323" flag="0"/>
			<psa10 value="0.00250159243697236" flag="0"/>
			<psa30 value="0.000802616763172701" flag="0"/>
		</comp>
		<comp name="00.HNZ" depth="0.0">
			<acc value="0.0017517954107759" flag="0"/>
			<vel value="0.00201645591538874" flag="0"/>
			<psa03 value="0.00494220695426181" flag="0"/>
			<psa10 value="0.00201335040583501" flag="0"/>
			<psa30 value="0.000448538463471817" flag="0"/>
		</comp>
	</station>
	<station code="GINA" name="GINA" netid="HL" source="National Observatory of Athens Seismic Network" insttype="" lat="39.66886" lon="22.389">
		<comp name="00.HNE" depth="0.0">
			<acc value="0.00422068391728733" flag="0"/>
			<vel value="0.00564592043190053" flag="0"/>
			<psa03 value="0.0142898190262153" flag="0"/>
			<psa10 value="0.00676593711639059" flag="0"/>
			<psa30 value="0.00165243988270043" flag="0"/>
		</comp>
		<comp name="00.HNN" depth="0.0">
			<acc value="0.0049009662667185" flag="0"/>
			<vel value="0.00461413979934699" flag="0"/>
			<psa03 value="0.0134099664694533" flag="0"/>
			<psa10 value="0.00947355507652114" flag="0"/>
			<psa30 value="0.00156970023493852" flag="0"/>
		</comp>
		<comp name="00.HNZ" depth="0.0">
			<acc value="0.0028417477401908" flag="0"/>
			<vel value="0.00313097003563098" flag="0"/>
			<psa03 value="0.00643375823616687" flag="0"/>
			<psa10 value="0.00405213265265292" flag="0"/>
