<?xml version="1.0" encoding="UTF-8" standalone="yes"?>
<!DOCTYPE earthquake SYSTEM "stationlist.dtd">
<stationlist created="" xmlns="ch.ethz.sed.shakemap.usgs.xml">
  <station code="KLV" name="KLV" netid="MN" insttype="" lat="38.0437" lon="22.1504">
    <comp name="--.HHZ">
      <acc value="0.0173810844" flag="0"/>
      <vel value="0.0097180685" flag="0"/>
      <psa03 value="0.0237075422" flag="0"/>
      <psa10 value="0.0129003785" flag="0"/>
      <psa30 value="0.0013055129" flag="0"/>
    </comp>
    <comp name="--.HHN">
      <acc value="0.0211555237" flag="0"/>
      <vel value="0.0110291741" flag="0"/>
      <psa03 value="0.0348023622" flag="0"/>
      <psa10 value="0.0173904239" flag="0"/>
      <psa30 value="0.0013841859" flag="0"/>
    </comp>
    <comp name="--.HHE">
      <acc value="0.0173733385" flag="0"/>
      <vel value="0.0089263689" flag="0"/>
      <psa03 value="0.0340640376" flag="0"/>
      <psa10 value="0.0097896840" flag="0"/>
      <psa30 value="0.0009474453" flag="0"/>
    </comp>
  </station>
</stationlist>
