<?xml version="1.0" encoding="UTF-8" standalone="yes"?>
<!DOCTYPE earthquake SYSTEM "stationlist.dtd">
<stationlist created="" xmlns="ch.ethz.sed.shakemap.usgs.xml">
  <station code="THERA" name="THERA" netid="GE" insttype="STS-2/N" lat="36.367" lon="25.4753">
    <comp name="--.HHE">
      <acc value="0.3213444710" flag="0"/>
      <vel value="0.1175081581" flag="0"/>
      <psa03 value="0.5505599331" flag="0"/>
      <psa10 value="0.0578331733" flag="0"/>
      <psa30 value="0.0090266105" flag="0"/>
    </comp>
    <comp name="--.HHN">
      <acc value="0.4370026774" flag="0"/>
      <vel value="0.1452902291" flag="0"/>
      <psa03 value="0.6756055623" flag="0"/>
      <psa10 value="0.0540963293" flag="0"/>
      <psa30 value="0.0036409716" flag="0"/>
    </comp>
    <comp name="--.HHZ">
      <acc value="0.3511113921" flag="0"/>
      <vel value="0.1053130533" flag="0"/>
      <psa03 value="0.4232930990" flag="0"/>
      <psa10 value="0.0874859603" flag="0"/>
      <psa30 value="0.0059269258" flag="0"/>
    </comp>
  </station>
</stationlist>
