<?xml version="1.0" encoding="UTF-8" standalone="yes"?>
<!DOCTYPE earthquake SYSTEM "stationlist.dtd">
<stationlist created="" xmlns="ch.ethz.sed.shakemap.usgs.xml">
  <station code="THERA" name="THERA" netid="GE" insttype="STS-2/N" lat="36.367" lon="25.4753">
    <comp name="--.HHN">
      <acc value="0.4370026775" flag="0"/>
      <vel value="0.1452902851" flag="0"/>
      <psa03 value="0.6756055624" flag="0"/>
      <psa10 value="0.0540965178" flag="0"/>
      <psa30 value="0.0036414160" flag="0"/>
    </comp>
    <comp name="--.HHE">
      <acc value="0.3213444705" flag="0"/>
      <vel value="0.1175081655" flag="0"/>
      <psa03 value="0.5505599331" flag="0"/>
      <psa10 value="0.0578333820" flag="0"/>
      <psa30 value="0.0090211235" flag="0"/>
    </comp>
    <comp name="--.HHZ">
      <acc value="0.3511113920" flag="0"/>
      <vel value="0.1053130493" flag="0"/>
      <psa03 value="0.4232930990" flag="0"/>
      <psa10 value="0.0874861036" flag="0"/>
      <psa30 value="0.0059360098" flag="0"/>
    </comp>
  </station>
</stationlist>
