<?xml version="1.0" encoding="UTF-8" standalone="yes"?>
<!DOCTYPE earthquake SYSTEM "stationlist.dtd">
<stationlist created="" xmlns="ch.ethz.sed.shakemap.usgs.xml">
  <station code="CEYT" name="CEYT" netid="KO" insttype="CMG-3ESP" lat="37.0105" lon="35.7478">
    <comp name="--.HHE">
      <acc value="1.6047159189" flag="0"/>
      <vel value="0.2872457211" flag="0"/>
      <psa03 value="1.7018161489" flag="0"/>
      <psa10 value="0.1245983850" flag="0"/>
      <psa30 value="0.0107771100" flag="0"/>
    </comp>
    <comp name="--.HHN">
      <acc value="1.3824365419" flag="0"/>
      <vel value="0.2907496512" flag="0"/>
      <psa03 value="1.7072469326" flag="0"/>
      <psa10 value="0.1699463647" flag="0"/>
      <psa30 value="0.0128634910" flag="0"/>
    </comp>
    <comp name="--.HHZ">
      <acc value="0.7433007702" flag="0"/>
      <vel value="0.1984122363" flag="0"/>
      <psa03 value="1.4752446918" flag="0"/>
      <psa10 value="0.0760561086" flag="0"/>
      <psa30 value="0.0052842544" flag="0"/>
    </comp>
  </station>
  <station code="CMRD" name="CMRD" netid="KO" insttype="CMG-5T" lat="37.6623" lon="34.9902">
    <comp name="--.HNZ">
      <acc value="0.0081837255" flag="0"/>
      <vel value="0.0041376050" flag="0"/>
      <psa03 value="0.0267817572" flag="0"/>
      <psa10 value="0.0026350827" flag="0"/>
      <psa30 value="0.0002935404" flag="0"/>
    </comp>
    <comp name="--.HNE">
      <acc value="0.0162128892" flag="0"/>
      <vel value="0.0062176165" flag="0"/>
      <psa03 value="0.0384401081" flag="0"/>
      <psa10 value="0.0044070984" flag="0"/>
      <psa30 value="0.0002501981" flag="0"/>
    </comp>
    <comp name="--.HNN">
      <acc value="0.0157929327" flag="0"/>
      <vel value="0.0057436632" flag="0"/>
      <psa03 value="0.0378183471" flag="0"/>
      <psa10 value="0.0040498064" flag="0"/>
      <psa30 value="0.0002145464" flag="0"/>
    </comp>
  </station>
  <station code="KMRS" name="KMRS" netid="KO" insttype="CMG-3T" lat="37.5053" lon="36.9">
    <comp name="--.HHE">
      <acc value="0.0051997541" flag="0"/>
      <vel value="0.0029218620" flag="0"/>
      <psa03 value="0.0141220413" flag="0"/>
      <psa10 value="0.0032992258" flag="0"/>
      <psa30 value="0.0002606106" flag="0"/>
    </comp>
    <comp name="--.HHN">
      <acc value="0.0058570314" flag="0"/>
      <vel value="0.0029053966" flag="0"/>
      <psa03 value="0.0135900740" flag="0"/>
      <psa10 value="0.0036296703" flag="0"/>
      <psa30 value="0.0002813238" flag="0"/>
    </comp>
    <comp name="--.HHZ">
      <acc value="0.0041635385" flag="0"/>
      <vel value="0.0026025696" flag="0"/>
      <psa03 value="0.0166546221" flag="0"/>
      <psa10 value="0.0019817886" flag="0"/>
      <psa30 value="0.0002416217" flag="0"/>
    </comp>
  </station>
  <station code="MERS" name="MERS" netid="KO" insttype="CMG-3T" lat="36.8678" lon="34.522">
    <comp name="--.HHE">
      <acc value="0.0227609293" flag="0"/>
      <vel value="0.0106068840" flag="0"/>
      <psa03 value="0.0467932630" flag="0"/>
      <psa10 value="0.0097632965" flag="0"/>
      <psa30 value="0.0004296398" flag="0"/>
    </comp>
    <comp name="--.HHN">
      <acc value="0.0180213142" flag="0"/>
      <vel value="0.0180262844" flag="0"/>
      <psa03 value="0.0622124922" flag="0"/>
      <psa10 value="0.0144988150" flag="0"/>
      <psa30 value="0.0012838005" flag="0"/>
    </comp>
    <comp name="--.HHZ">
      <acc value="0.0169183955" flag="0"/>
      <vel value="0.0076808606" flag="0"/>
      <psa03 value="0.0377244613" flag="0"/>
      <psa10 value="0.0062573696" flag="0"/>
      <psa30 value="0.0003140148" flag="0"/>
    </comp>
  </station>
  <station code="TAHT" name="TAHT" netid="KO" insttype="CMG-3ESPC" lat="36.3755" lon="36.1855">
    <comp name="--.HHE">
      <acc value="0.0670369101" flag="0"/>
      <vel value="0.0174757098" flag="0"/>
      <psa03 value="0.0873966388" flag="0"/>
      <psa10 value="0.0080923854" flag="0"/>
      <psa30 value="0.0004435996" flag="0"/>
    </comp>
    <comp name="--.HHN">
      <acc value="0.0575139273" flag="0"/>
      <vel value="0.0131409013" flag="0"/>
      <psa03 value="0.0602453032" flag="0"/>
      <psa10 value="0.0065522475" flag="0"/>
      <psa30 value="0.0003179284" flag="0"/>
    </comp>
  </station>
  <station code="ANDN" name="ANDN" netid="TU" insttype="T" lat="37.58" lon="36.3452">
    <comp name="--.HHZ">
      <acc value="0.0215235424" flag="0"/>
      <vel value="0.0182265611" flag="0"/>
      <psa03 value="0.0373297411" flag="0"/>
      <psa10 value="0.0342908260" flag="0"/>
      <psa30 value="0.0014067171" flag="0"/>
    </comp>
    <comp name="--.HHE">
      <acc value="0.0292615518" flag="0"/>
      <vel value="0.0217174545" flag="0"/>
      <psa03 value="0.0654036991" flag="0"/>
      <psa10 value="0.0429811151" flag="0"/>
      <psa30 value="0.0017162109" flag="0"/>
    </comp>
    <comp name="--.HHN">
      <acc value="0.0401628111" flag="0"/>
      <vel value="0.0288275108" flag="0"/>
      <psa03 value="0.1079989739" flag="0"/>
      <psa10 value="0.0553619368" flag="0"/>
      <psa30 value="0.0023488076" flag="0"/>
    </comp>
  </station>
</stationlist>
