<?xml version="1.0" encoding="UTF-8" standalone="yes"?>
<!DOCTYPE earthquake SYSTEM "stationlist.dtd">
<stationlist created="" xmlns="ch.ethz.sed.shakemap.usgs.xml">
  <station code="CEYT" name="CEYT" netid="KO" insttype="CMG-3ESP" lat="37.0105" lon="35.7478">
    <comp name="--.HHN">
      <acc value="1.3824365421" flag="0"/>
      <vel value="0.2907496520" flag="0"/>
      <psa03 value="1.7072469326" flag="0"/>
      <psa10 value="0.1699463644" flag="0"/>
      <psa30 value="0.0128636214" flag="0"/>
    </comp>
    <comp name="--.HHE">
      <acc value="1.6047159188" flag="0"/>
      <vel value="0.2872457218" flag="0"/>
      <psa03 value="1.7018161489" flag="0"/>
      <psa10 value="0.1245983840" flag="0"/>
      <psa30 value="0.0107771912" flag="0"/>
    </comp>
    <comp name="--.HHZ">
      <acc value="0.7433007703" flag="0"/>
      <vel value="0.1984122366" flag="0"/>
      <psa03 value="1.4752446918" flag="0"/>
      <psa10 value="0.0760561103" flag="0"/>
      <psa30 value="0.0052840618" flag="0"/>
    </comp>
  </station>
  <station code="KMRS" name="KMRS" netid="KO" insttype="CMG-3T" lat="37.5053" lon="36.9">
    <comp name="--.HHN">
      <acc value="0.0058570316" flag="0"/>
      <vel value="0.0029053966" flag="0"/>
      <psa03 value="0.0135900740" flag="0"/>
      <psa10 value="0.0036296703" flag="0"/>
      <psa30 value="0.0002813237" flag="0"/>
    </comp>
    <comp name="--.HHZ">
      <acc value="0.0041635384" flag="0"/>
      <vel value="0.0026025688" flag="0"/>
      <psa03 value="0.0166546221" flag="0"/>
      <psa10 value="0.0019817886" flag="0"/>
      <psa30 value="0.0002416235" flag="0"/>
    </comp>
    <comp name="--.HHE">
      <acc value="0.0051997540" flag="0"/>
      <vel value="0.0029218628" flag="0"/>
      <psa03 value="0.0141220413" flag="0"/>
      <psa10 value="0.0032992258" flag="0"/>
      <psa30 value="0.0002606092" flag="0"/>
    </comp>
  </station>
  <station code="KRTS" name="KRTS" netid="KO" insttype="CMG-5T" lat="36.573" lon="35.375">
    <comp name="--.HNE">
      <acc value="0.1638699652" flag="0"/>
      <vel value="0.0793920690" flag="0"/>
      <psa03 value="0.4628514657" flag="0"/>
      <psa10 value="0.0335464162" flag="0"/>
      <psa30 value="0.0028813745" flag="0"/>
    </comp>
    <comp name="--.HNN">
      <acc value="0.1479989234" flag="0"/>
      <vel value="0.0707207961" flag="0"/>
      <psa03 value="0.3840776162" flag="0"/>
      <psa10 value="0.0504766879" flag="0"/>
      <psa30 value="0.0024463426" flag="0"/>
    </comp>
    <comp name="--.HNZ">
      <acc value="0.0876736670" flag="0"/>
      <vel value="0.0463493120" flag="0"/>
      <psa03 value="0.3425112022" flag="0"/>
      <psa10 value="0.0170772188" flag="0"/>
      <psa30 value="0.0023454080" flag="0"/>
    </comp>
  </station>
  <station code="MERS" name="MERS" netid="KO" insttype="CMG-3T" lat="36.8678" lon="34.522">
    <comp name="--.HHE">
      <acc value="0.0227609290" flag="0"/>
      <vel value="0.0106068833" flag="0"/>
      <psa03 value="0.0467932630" flag="0"/>
      <psa10 value="0.0097632966" flag="0"/>
      <psa30 value="0.0004296258" flag="0"/>
    </comp>
    <comp name="--.HHN">
      <acc value="0.0180213142" flag="0"/>
      <vel value="0.0180262842" flag="0"/>
      <psa03 value="0.0622124922" flag="0"/>
      <psa10 value="0.0144988151" flag="0"/>
      <psa30 value="0.0012838805" flag="0"/>
    </comp>
    <comp name="--.HHZ">
      <acc value="0.0169183955" flag="0"/>
      <vel value="0.0076808609" flag="0"/>
      <psa03 value="0.0377244613" flag="0"/>
      <psa10 value="0.0062573697" flag="0"/>
      <psa30 value="0.0003140860" flag="0"/>
    </comp>
  </station>
  <station code="TAHT" name="TAHT" netid="KO" insttype="CMG-3ESPC" lat="36.3755" lon="36.1855">
    <comp name="--.HHE">
      <acc value="0.0670369101" flag="0"/>
      <vel value="0.0174757095" flag="0"/>
      <psa03 value="0.0873966388" flag="0"/>
      <psa10 value="0.0080923854" flag="0"/>
      <psa30 value="0.0004436097" flag="0"/>
    </comp>
    <comp name="--.HHN">
      <acc value="0.0575139272" flag="0"/>
      <vel value="0.0131409002" flag="0"/>
      <psa03 value="0.0602453032" flag="0"/>
      <psa10 value="0.0065522475" flag="0"/>
      <psa30 value="0.0003179363" flag="0"/>
    </comp>
  </station>
  <station code="ANDN" name="ANDN" netid="TU" insttype="T" lat="37.58" lon="36.3452">
    <comp name="--.HHE">
      <acc value="0.0292615520" flag="0"/>
      <vel value="0.0217174539" flag="0"/>
      <psa03 value="0.0654036991" flag="0"/>
      <psa10 value="0.0429811151" flag="0"/>
      <psa30 value="0.0017162939" flag="0"/>
    </comp>
    <comp name="--.HHZ">
      <acc value="0.0215235425" flag="0"/>
      <vel value="0.0182265610" flag="0"/>
      <psa03 value="0.0373297411" flag="0"/>
      <psa10 value="0.0342908260" flag="0"/>
      <psa30 value="0.0014068024" flag="0"/>
    </comp>
    <comp name="--.HHN">
      <acc value="0.0401628114" flag="0"/>
      <vel value="0.0288275098" flag="0"/>
      <psa03 value="0.1079989739" flag="0"/>
      <psa10 value="0.0553619368" flag="0"/>
      <psa30 value="0.0023487259" flag="0"/>
    </comp>
  </station>
</stationlist>
