<?xml version="1.0" encoding="UTF-8" standalone="yes"?>
<!DOCTYPE earthquake SYSTEM "stationlist.dtd">
<stationlist created="" xmlns="ch.ethz.sed.shakemap.usgs.xml">
  <station code="CEYT" name="CEYT" netid="KO" insttype="CMG-3ESP" lat="37.0105" lon="35.7478">
    <comp name="--.HHN">
      <acc value="1.3824365421" flag="0"/>
      <vel value="0.2907496552" flag="0"/>
      <psa03 value="1.7072469326" flag="0"/>
      <psa10 value="0.1699463640" flag="0"/>
      <psa30 value="0.0128635590" flag="0"/>
    </comp>
    <comp name="--.HHE">
      <acc value="1.6047159189" flag="0"/>
      <vel value="0.2872457201" flag="0"/>
      <psa03 value="1.7018161489" flag="0"/>
      <psa10 value="0.1245983843" flag="0"/>
      <psa30 value="0.0107771556" flag="0"/>
    </comp>
    <comp name="--.HHZ">
      <acc value="0.7433007702" flag="0"/>
      <vel value="0.1984122370" flag="0"/>
      <psa03 value="1.4752446918" flag="0"/>
      <psa10 value="0.0760561099" flag="0"/>
      <psa30 value="0.0052839739" flag="0"/>
    </comp>
  </station>
  <station code="KMRS" name="KMRS" netid="KO" insttype="CMG-3T" lat="37.5053" lon="36.9">
    <comp name="--.HHZ">
      <acc value="0.0041635385" flag="0"/>
      <vel value="0.0026025690" flag="0"/>
      <psa03 value="0.0166546221" flag="0"/>
      <psa10 value="0.0019817886" flag="0"/>
      <psa30 value="0.0002416248" flag="0"/>
    </comp>
    <comp name="--.HHN">
      <acc value="0.0058570315" flag="0"/>
      <vel value="0.0029053964" flag="0"/>
      <psa03 value="0.0135900740" flag="0"/>
      <psa10 value="0.0036296703" flag="0"/>
      <psa30 value="0.0002813242" flag="0"/>
    </comp>
    <comp name="--.HHE">
      <acc value="0.0051997540" flag="0"/>
      <vel value="0.0029218622" flag="0"/>
      <psa03 value="0.0141220413" flag="0"/>
      <psa10 value="0.0032992258" flag="0"/>
      <psa30 value="0.0002606099" flag="0"/>
    </comp>
  </station>
  <station code="KRTS" name="KRTS" netid="KO" insttype="CMG-5T" lat="36.573" lon="35.375">
    <comp name="--.HNE">
      <acc value="0.1638699653" flag="0"/>
      <vel value="0.0793920581" flag="0"/>
      <psa03 value="0.4628514657" flag="0"/>
      <psa10 value="0.0335464175" flag="0"/>
      <psa30 value="0.0028824585" flag="0"/>
    </comp>
    <comp name="--.HNN">
      <acc value="0.1479989247" flag="0"/>
      <vel value="0.0707207969" flag="0"/>
      <psa03 value="0.3840776162" flag="0"/>
      <psa10 value="0.0504766894" flag="0"/>
      <psa30 value="0.0024471994" flag="0"/>
    </comp>
    <comp name="--.HNZ">
      <acc value="0.0876736670" flag="0"/>
      <vel value="0.0463493073" flag="0"/>
      <psa03 value="0.3425112022" flag="0"/>
      <psa10 value="0.0170772185" flag="0"/>
      <psa30 value="0.0023453118" flag="0"/>
    </comp>
  </station>
  <station code="MERS" name="MERS" netid="KO" insttype="CMG-3T" lat="36.8678" lon="34.522">
    <comp name="--.HHE">
      <acc value="0.0227609290" flag="0"/>
      <vel value="0.0106068831" flag="0"/>
      <psa03 value="0.0467932630" flag="0"/>
      <psa10 value="0.0097632966" flag="0"/>
      <psa30 value="0.0004296249" flag="0"/>
    </comp>
    <comp name="--.HHN">
      <acc value="0.0180213142" flag="0"/>
      <vel value="0.0180262845" flag="0"/>
      <psa03 value="0.0622124922" flag="0"/>
      <psa10 value="0.0144988151" flag="0"/>
      <psa30 value="0.0012838766" flag="0"/>
    </comp>
    <comp name="--.HHZ">
      <acc value="0.0169183955" flag="0"/>
      <vel value="0.0076808609" flag="0"/>
      <psa03 value="0.0377244613" flag="0"/>
      <psa10 value="0.0062573697" flag="0"/>
      <psa30 value="0.0003140871" flag="0"/>
    </comp>
  </station>
  <station code="TAHT" name="TAHT" netid="KO" insttype="CMG-3ESPC" lat="36.3755" lon="36.1855">
    <comp name="--.HHE">
      <acc value="0.0670369101" flag="0"/>
      <vel value="0.0174757098" flag="0"/>
      <psa03 value="0.0873966388" flag="0"/>
      <psa10 value="0.0080923854" flag="0"/>
      <psa30 value="0.0004435996" flag="0"/>
    </comp>
    <comp name="--.HHN">
      <acc value="0.0575139273" flag="0"/>
      <vel value="0.0131409013" flag="0"/>
      <psa03 value="0.0602453032" flag="0"/>
      <psa10 value="0.0065522475" flag="0"/>
      <psa30 value="0.0003179284" flag="0"/>
    </comp>
  </station>
  <station code="ANDN" name="ANDN" netid="TU" insttype="T" lat="37.58" lon="36.3452">
    <comp name="--.HHZ">
      <acc value="0.0215235426" flag="0"/>
      <vel value="0.0182265604" flag="0"/>
      <psa03 value="0.0373297411" flag="0"/>
      <psa10 value="0.0342908260" flag="0"/>
      <psa30 value="0.0014067589" flag="0"/>
    </comp>
    <comp name="--.HHN">
      <acc value="0.0401628113" flag="0"/>
      <vel value="0.0288275098" flag="0"/>
      <psa03 value="0.1079989739" flag="0"/>
      <psa10 value="0.0553619368" flag="0"/>
      <psa30 value="0.0023487532" flag="0"/>
    </comp>
    <comp name="--.HHE">
      <acc value="0.0292615519" flag="0"/>
      <vel value="0.0217174546" flag="0"/>
      <psa03 value="0.0654036991" flag="0"/>
      <psa10 value="0.0429811151" flag="0"/>
      <psa30 value="0.0017162675" flag="0"/>
    </comp>
  </station>
</stationlist>
