<?xml version="1.0" encoding="UTF-8" standalone="yes"?>
<!DOCTYPE earthquake SYSTEM "stationlist.dtd">
<stationlist created="" xmlns="ch.ethz.sed.shakemap.usgs.xml">
  <station code="VLO" name="VLO" netid="AC" source="INGV" insttype="" lat="40.4686" lon="19.4955">
    <comp name="--.HHE">
      <acc value="0.1165961603" flag="0"/>
      <vel value="0.0780528365" flag="0"/>
      <psa03 value="0.3861506117" flag="0"/>
      <psa10 value="0.1215715466" flag="0"/>
      <psa30 value="0.0086154782" flag="0"/>
    </comp>
    <comp name="--.HHN">
      <acc value="0.1277833859" flag="0"/>
      <vel value="0.0665299296" flag="0"/>
      <psa03 value="0.3445021253" flag="0"/>
      <psa10 value="0.0689680688" flag="0"/>
      <psa30 value="0.0047269217" flag="0"/>
    </comp>
    <comp name="--.HHZ">
      <acc value="0.0630157866" flag="0"/>
      <vel value="0.0377509146" flag="0"/>
      <psa03 value="0.1356734354" flag="0"/>
      <psa10 value="0.0634922144" flag="0"/>
      <psa30 value="0.0040687757" flag="0"/>
    </comp>
  </station>
  <station code="PDG" name="PDG" netid="MN" source="INGV" insttype="" lat="42.4297" lon="19.2608">
    <comp name="--.HHE">
      <acc value="0.0317797671" flag="0"/>
      <vel value="0.0109636011" flag="0"/>
      <psa03 value="0.0740824827" flag="0"/>
      <psa10 value="0.0098828076" flag="0"/>
      <psa30 value="0.0033460924" flag="0"/>
    </comp>
    <comp name="--.HHN">
      <acc value="0.0302710468" flag="0"/>
      <vel value="0.0104615059" flag="0"/>
      <psa03 value="0.0549970096" flag="0"/>
      <psa10 value="0.0051089403" flag="0"/>
      <psa30 value="0.0014053319" flag="0"/>
    </comp>
    <comp name="--.HHZ">
      <acc value="0.0354894845" flag="0"/>
      <vel value="0.0102813255" flag="0"/>
      <psa03 value="0.0284856079" flag="0"/>
      <psa10 value="0.0069202503" flag="0"/>
      <psa30 value="0.0013767557" flag="0"/>
    </comp>
  </station>
  <station code="TIR" name="TIR" netid="MN" source="INGV" insttype="" lat="41.3472" lon="19.8631">
    <comp name="--.HHE">
      <acc value="0.6905994100" flag="0"/>
      <vel value="0.3770304809" flag="0"/>
      <psa03 value="1.7115369104" flag="0"/>
      <psa10 value="0.2343859210" flag="0"/>
      <psa30 value="0.0219333345" flag="0"/>
    </comp>
    <comp name="--.HHZ">
      <acc value="0.2630616233" flag="0"/>
      <vel value="0.1018804805" flag="0"/>
      <psa03 value="0.4715386168" flag="0"/>
      <psa10 value="0.1335380922" flag="0"/>
      <psa30 value="0.0085553740" flag="0"/>
    </comp>
    <comp name="--.HHN">
      <acc value="0.5159994791" flag="0"/>
      <vel value="0.1918894663" flag="0"/>
      <psa03 value="0.9505541547" flag="0"/>
      <psa10 value="0.1547925776" flag="0"/>
      <psa30 value="0.0120873664" flag="0"/>
    </comp>
  </station>
</stationlist>
