<stationlist xmlns:esm="https://esm-db.eu/esmws/shakemap/1/" created="1780710925">
	<station code="TIR1" name="TIR1" netid="AC" source="Albanian Seismological Network (AC)" insttype="" lat="41.3357" lon="19.8078" esm:processing="manual (Paolucci et al 2011)" esm:quality="good">
		<comp name="00.HNE" depth="None">
			<acc value="0.649121498811891" flag="0"/>
			<vel value="0.266571779455928" flag="0"/>
			<psa03 value="1.25233436324543" flag="0"/>
			<psa10 value="0.223447054072311" flag="0"/>
			<psa30 value="0.0165013732228848" flag="0"/>
		</comp>
		<comp name="00.HNN" depth="None">
			<acc value="0.680486739775838" flag="0"/>
			<vel value="0.246360052936118" flag="0"/>
			<psa03 value="1.54521684776863" flag="0"/>
			<psa10 value="0.329005552458535" flag="0"/>
			<psa30 value="0.0260068550189366" flag="0"/>
		</comp>
		<comp name="00.HNZ" depth="None">
			<acc value="0.318233365681288" flag="0"/>
			<vel value="0.113704967595196" flag="0"/>
			<psa03 value="0.516906713060894" flag="0"/>
			<psa10 value="0.252435977162355" flag="0"/>
			<psa30 value="0.00850817801053056" flag="0"/>
		</comp>
	</station>
	<station code="FLO2" name="FLO2" netid="HI" source="ITSAK Strong Motion Network" insttype="" lat="40.7801" lon="21.4052" esm:processing="manual (Paolucci et al 2011)" esm:quality="good">
		<comp name="--.HNE" depth="0.0">
			<acc value="0.0432528599372341" flag="0"/>
			<vel value="0.0367997692463935" flag="0"/>
			<psa03 value="0.097028490161282" flag="0"/>
			<psa10 value="0.0359062023596878" flag="0"/>
			<psa30 value="0.0021371657434085" flag="0"/>
		</comp>
		<comp name="--.HNN" depth="0.0">
			<acc value="0.0508933075695338" flag="0"/>
			<vel value="0.0349779102852341" flag="0"/>
			<psa03 value="0.0906818197255135" flag="0"/>
			<psa10 value="0.0298223168321298" flag="0"/>
			<psa30 value="0.00339850992627026" flag="0"/>
		</comp>
		<comp name="--.HNZ" depth="0.0">
			<acc value="0.0186530242122803" flag="0"/>
			<vel value="0.0146483346855533" flag="0"/>
			<psa03 value="0.0676586955981984" flag="0"/>
			<psa10 value="0.0146775666917596" flag="0"/>
			<psa30 value="0.00230267504092052" flag="0"/>
		</comp>
	</station>
	<station code="KAS2" name="KAS2" netid="HI" source="ITSAK Strong Motion Network" insttype="" lat="40.504878" lon="21.280507" esm:processing="automatic (Paolucci et al 2011)" esm:quality="best">
		<comp name="--.HNE" depth="0.0">
			<acc value="0.0181931225099344" flag="0"/>
			<vel value="0.0164562381718757" flag="0"/>
			<psa03 value="0.0497039020145744" flag="0"/>
			<psa10 value="0.0244734274944621" flag="0"/>
			<psa30 value="0.0018748646172462" flag="0"/>
		</comp>
		<comp name="--.HNN" depth="0.0">
			<acc value="0.0135951005268129" flag="0"/>
			<vel value="0.0112290596171708" flag="0"/>
			<psa03 value="0.0517618664696195" flag="0"/>
			<psa10 value="0.0282228321241177" flag="0"/>
			<psa30 value="0.00269779892427195" flag="0"/>
		</comp>
		<comp name="--.HNZ" depth="0.0">
			<acc value="0.0115244779388621" flag="0"/>
			<vel value="0.0109839717128994" flag="0"/>
			<psa03 value="0.0240154841371289" flag="0"/>
			<psa10 value="0.0177581238885553" flag="0"/>
			<psa30 value="0.00197223898448681" flag="0"/>
		</comp>
	</station>
	<station code="KRK1" name="KRK1" netid="HI" source="ITSAK Strong Motion Network" insttype="" lat="39.618861" lon="19.9202" esm:processing="manual (Paolucci et al 2011)" esm:quality="good">
		<comp name="--.HNE" depth="0.0">
			<acc value="0.058692548927477" flag="0"/>
			<vel value="0.034939095499761" flag="0"/>
			<psa03 value="0.11521118204205" flag="0"/>
			<psa10 value="0.0230735559530427" flag="0"/>
			<psa30 value="0.00260220673691868" flag="0"/>
		</comp>
		<comp name="--.HNN" depth="0.0">
			<acc value="0.0772749569322216" flag="0"/>
			<vel value="0.0293808764035954" flag="0"/>
			<psa03 value="0.141251146293884" flag="0"/>
			<psa10 value="0.0214104881330416" flag="0"/>
			<psa30 value="0.00116016541761179" flag="0"/>
		</comp>
		<comp name="--.HNZ" depth="0.0">
			<acc value="0.068857683074611" flag="0"/>
			<vel value="0.0115116326881748" flag="0"/>
			<psa03 value="0.114540048942776" flag="0"/>
			<psa10 value="0.00894754647952199" flag="0"/>
			<psa30 value="0.000655025904891498" flag="0"/>
		</comp>
	</station>
	<station code="LMS2" name="LMS2" netid="HI" source="ITSAK Strong Motion Network" insttype="" lat="40.834985" lon="21.141815" esm:processing="manual (Paolucci et al 2011)" esm:quality="good">
		<comp name="--.HNE" depth="0.0">
			<acc value="0.031951012246515" flag="0"/>
			<vel value="0.0222484341583545" flag="0"/>
			<psa03 value="0.106128514098541" flag="0"/>
			<psa10 value="0.0218051143954147" flag="0"/>
			<psa30 value="0.00165009258008186" flag="0"/>
		</comp>
		<comp name="--.HNN" depth="0.0">
			<acc value="0.0674940908430219" flag="0"/>
			<vel value="0.0210862179782224" flag="0"/>
			<psa03 value="0.14420413193069" flag="0"/>
			<psa10 value="0.0220145079223882" flag="0"/>
			<psa30 value="0.00294314235134992" flag="0"/>
		</comp>
		<comp name="--.HNZ" depth="0.0">
			<acc value="0.0123552021624943" flag="0"/>
			<vel value="0.00986812824277359" flag="0"/>
			<psa03 value="0.0413865411219014" flag="0"/>
			<psa10 value="0.0097367990042683" flag="0"/>
			<psa30 value="0.0013592682370631" flag="0"/>
		</comp>
	</station>
	<station code="AMYA" name="AMYA" netid="HL" source="National Observatory of Athens Seismic Network" insttype="" lat="40.6901" lon="21.67899" esm:processing="manual (Paolucci et al 2011)" esm:quality="bad">
		<comp name="00.HNE" depth="0.0">
			<acc value="0.00606848224320045" flag="0"/>
			<vel value="0.00728011110069567" flag="0"/>
			<psa03 value="0.00711600069697887" flag="0"/>
			<psa10 value="0.0126091293554277" flag="0"/>
			<psa30 value="0.00331206794991462" flag="0"/>
		</comp>
		<comp name="00.HNN" depth="0.0">
			<acc value="0.00513163725321127" flag="0"/>
			<vel value="0.00869550654060641" flag="0"/>
			<psa03 value="0.00612090678210673" flag="0"/>
			<psa10 value="0.0161760422083899" flag="0"/>
			<psa30 value="0.00198898738565181" flag="0"/>
		</comp>
		<comp name="00.HNZ" depth="0.0">
			<acc value="0.00878171749280283" flag="0"/>
			<vel value="0.00398919234180946" flag="0"/>
			<psa03 value="0.00357236132588468" flag="0"/>
			<psa10 value="0.00944704175765149" flag="0"/>
			<psa30 value="0.000654949428849785" flag="0"/>
		</comp>
	</station>
	<station code="JAN" name="JAN" netid="HL" source="National Observatory of Athens Seismic Network" insttype="" lat="39.65616" lon="20.84874" esm:processing="manual (Paolucci et al 2011)" esm:quality="good">
		<comp name="00.HNE" depth="0.0">
			<acc value="0.0117720073691841" flag="0"/>
			<vel value="0.0105096846542608" flag="0"/>
			<psa03 value="0.03391459261665" flag="0"/>
			<psa10 value="0.0145931181106155" flag="0"/>
			<psa30 value="0.00219594750082478" flag="0"/>
		</comp>
		<comp name="00.HNN" depth="0.0">
			<acc value="0.012270475790658" flag="0"/>
			<vel value="0.00721072601304884" flag="0"/>
			<psa03 value="0.0325275842114836" flag="0"/>
			<psa10 value="0.0143112422089204" flag="0"/>
			<psa30 value="0.00172749659753147" flag="0"/>
		</comp>
		<comp name="00.HNZ" depth="0.0">
			<acc value="0.00620871174575299" flag="0"/>
			<vel value="0.00588742730292849" flag="0"/>
			<psa03 value="0.0196865709120396" flag="0"/>
			<psa10 value="0.00893143928513941" flag="0"/>
			<psa30 value="0.00180624288117963" flag="0"/>
		</comp>
	</station>
	<station code="LTRZ" name="LTRZ" netid="IV" source="Italian National Seismic Network (INSN)" insttype="" lat="40.60325" lon="16.8191" esm:processing="manual (Paolucci et al 2011)" esm:quality="best">
		<comp name="--.HNE" depth="0.0">
			<acc value="0.00574463393894707" flag="0"/>
			<vel value="0.00402258853524473" flag="0"/>
			<psa03 value="0.0184785313333462" flag="0"/>
			<psa10 value="0.00730461265249905" flag="0"/>
			<psa30 value="0.000880974048313771" flag="0"/>
		</comp>
		<comp name="--.HNN" depth="0.0">
			<acc value="0.00742390825464611" flag="0"/>
			<vel value="0.00490411603450702" flag="0"/>
			<psa03 value="0.0182100780936366" flag="0"/>
			<psa10 value="0.00823882992668856" flag="0"/>
			<psa30 value="0.000954798689233919" flag="0"/>
		</comp>
		<comp name="--.HNZ" depth="0.0">
			<acc value="0.00495510412589733" flag="0"/>
			<vel value="0.00493161148807457" flag="0"/>
			<psa03 value="0.0128857555060623" flag="0"/>
			<psa10 value="0.00634220778814002" flag="0"/>
			<psa30 value="0.000636681600178007" flag="0"/>
		</comp>
	</station>
	<station code="CEVME" name="CEVME" netid="ME" source="Montenegrin Seismic Network (ME)" insttype="" lat="42.546741" lon="18.917674" esm:processing="manual (Paolucci et al 2011)" esm:quality="best">
		<comp name="00.HLE" depth="0.0">
			<acc value="0.116800735073466" flag="0"/>
			<vel value="0.0444879064295656" flag="0"/>
			<psa03 value="0.165859359933933" flag="0"/>
			<psa10 value="0.0188454174276161" flag="0"/>
			<psa30 value="0.00221205469520735" flag="0"/>
		</comp>
		<comp name="00.HLN" depth="0.0">
			<acc value="0.0839832494754731" flag="0"/>
			<vel value="0.0279475184696215" flag="0"/>
			<psa03 value="0.124070138952468" flag="0"/>
			<psa10 value="0.00987773695511585" flag="0"/>
			<psa30 value="0.00107112842644143" flag="0"/>
		</comp>
		<comp name="00.HLZ" depth="0.0">
			<acc value="0.0559577144038743" flag="0"/>
			<vel value="0.0162350841591476" flag="0"/>
			<psa03 value="0.0913188437078927" flag="0"/>
			<psa10 value="0.00791265924044136" flag="0"/>
			<psa30 value="0.00134942495160708" flag="0"/>
		</comp>
	</station>
	<station code="DAGME" name="DAGME" netid="ME" source="Montenegrin Seismic Network (ME)" insttype="" lat="42.5684" lon="19.0677" esm:processing="manual (Paolucci et al 2011)" esm:quality="good">
		<comp name="00.HLE" depth="0.0">
			<acc value="0.0739062432747039" flag="0"/>
			<vel value="0.0255237332520217" flag="0"/>
			<psa03 value="0.103936145974245" flag="0"/>
			<psa10 value="0.0197393667158491" flag="0"/>
			<psa30 value="0.00378832263436907" flag="0"/>
		</comp>
		<comp name="00.HLN" depth="0.0">
			<acc value="0.0739262595417933" flag="0"/>
			<vel value="0.0243383266314026" flag="0"/>
			<psa03 value="0.11986437153035" flag="0"/>
			<psa10 value="0.0180803256944436" flag="0"/>
			<psa30 value="0.0025449367124473" flag="0"/>
		</comp>
		<comp name="00.HLZ" depth="0.0">
			<acc value="0.0294887483553492" flag="0"/>
			<vel value="0.0105602923606901" flag="0"/>
			<psa03 value="0.0493059116933355" flag="0"/>
			<psa10 value="0.0113877864284825" flag="0"/>
			<psa30 value="0.00134316104268052" flag="0"/>
		</comp>
	</station>
	<station code="KOLME" name="KOLME" netid="ME" source="Montenegrin Seismic Network (ME)" insttype="" lat="42.8505" lon="19.5152" esm:processing="manual (Paolucci et al 2011)" esm:quality="good">
		<comp name="00.HLE" depth="0.0">
			<acc value="0.00934585710190458" flag="0"/>
			<vel value="0.00805477889957917" flag="0"/>
			<psa03 value="0.0189706956061472" flag="0"/>
			<psa10 value="0.0108804098054313" flag="0"/>
			<psa30 value="0.00188588400896015" flag="0"/>
		</comp>
		<comp name="00.HLN" depth="0.0">
			<acc value="0.00840265339025818" flag="0"/>
			<vel value="0.0061552467020218" flag="0"/>
			<psa03 value="0.0263084174915438" flag="0"/>
			<psa10 value="0.00910056482615647" flag="0"/>
			<psa30 value="0.00178476662200286" flag="0"/>
		</comp>
		<comp name="00.HLZ" depth="0.0">
			<acc value="0.00658602600193858" flag="0"/>
			<vel value="0.00653105992987499" flag="0"/>
			<psa03 value="0.0174942027877443" flag="0"/>
			<psa10 value="0.0140857414875643" flag="0"/>
			<psa30 value="0.00145725366955711" flag="0"/>
		</comp>
	</station>
</stationlist>
