<?xml version="1.0" encoding="UTF-8" standalone="yes"?>
<!DOCTYPE earthquake SYSTEM "stationlist.dtd">
<stationlist created="" xmlns="ch.ethz.sed.shakemap.usgs.xml">
  <station code="CRTC" name="CRTC" netid="IV" insttype="" lat="43.7685" lon="12.883">
    <comp name="--.HHE">
      <acc value="0.0640775491" flag="0"/>
      <vel value="0.0279478627" flag="0"/>
      <psa03 value="0.1435695296" flag="0"/>
      <psa10 value="0.0191943368" flag="0"/>
      <psa30 value="0.0015306021" flag="0"/>
    </comp>
    <comp name="--.HHN">
      <acc value="0.0477556066" flag="0"/>
      <vel value="0.0189160694" flag="0"/>
      <psa03 value="0.1193056665" flag="0"/>
      <psa10 value="0.0255037708" flag="0"/>
      <psa30 value="0.0016772647" flag="0"/>
    </comp>
    <comp name="--.HHZ">
      <acc value="0.0557573591" flag="0"/>
      <vel value="0.0171514310" flag="0"/>
      <psa03 value="0.0991262774" flag="0"/>
      <psa10 value="0.0189807136" flag="0"/>
      <psa30 value="0.0012106318" flag="0"/>
    </comp>
  </station>
  <station code="SSFR" name="SSFR" netid="IV" insttype="" lat="43.4363" lon="12.7822">
    <comp name="--.HHE">
      <acc value="0.0294605347" flag="0"/>
      <vel value="0.0093195964" flag="0"/>
      <psa03 value="0.0567627892" flag="0"/>
      <psa10 value="0.0030483593" flag="0"/>
      <psa30 value="0.0004565465" flag="0"/>
    </comp>
    <comp name="--.HHN">
      <acc value="0.0285581578" flag="0"/>
      <vel value="0.0090224371" flag="0"/>
      <psa03 value="0.0462649102" flag="0"/>
      <psa10 value="0.0025844146" flag="0"/>
      <psa30 value="0.0002910316" flag="0"/>
    </comp>
    <comp name="--.HHZ">
      <acc value="0.0219004870" flag="0"/>
      <vel value="0.0068464384" flag="0"/>
      <psa03 value="0.0449068381" flag="0"/>
      <psa10 value="0.0026128726" flag="0"/>
      <psa30 value="0.0006610852" flag="0"/>
    </comp>
  </station>
</stationlist>
