<?xml version="1.0" encoding="UTF-8" standalone="yes"?>
<!DOCTYPE earthquake SYSTEM "stationlist.dtd">
<stationlist created="" xmlns="ch.ethz.sed.shakemap.usgs.xml">
  <station code="ARPRA" name="ARPRA" netid="KO" insttype="CMG-5T" lat="39.0929" lon="38.3356">
    <comp name="--.HNN">
      <acc value="0.2597120917" flag="0"/>
      <vel value="0.4795482835" flag="0"/>
      <psa03 value="0.5487283967" flag="0"/>
      <psa10 value="1.0834658727" flag="0"/>
      <psa30 value="0.1729303313" flag="0"/>
    </comp>
    <comp name="--.HNZ">
      <acc value="0.1573774108" flag="0"/>
      <vel value="0.2232448596" flag="0"/>
      <psa03 value="0.2681862919" flag="0"/>
      <psa10 value="0.3964140724" flag="0"/>
      <psa30 value="0.0691475300" flag="0"/>
    </comp>
    <comp name="--.HNE">
      <acc value="0.2488089781" flag="0"/>
      <vel value="0.3370659365" flag="0"/>
      <psa03 value="0.4732335058" flag="0"/>
      <psa10 value="0.7378204631" flag="0"/>
      <psa30 value="0.0546879881" flag="0"/>
    </comp>
  </station>
  <station code="BNN" name="BNN" netid="KO" insttype="CMG-3T" lat="38.8521" lon="35.8472">
    <comp name="--.HHE">
      <acc value="0.3285468894" flag="0"/>
      <vel value="0.2784839777" flag="0"/>
      <psa03 value="0.4094057603" flag="0"/>
      <psa10 value="0.6500510010" flag="0"/>
      <psa30 value="0.0985889309" flag="0"/>
    </comp>
    <comp name="--.HHZ">
      <acc value="0.1201662827" flag="0"/>
      <vel value="0.2257995253" flag="0"/>
      <psa03 value="0.2180404997" flag="0"/>
      <psa10 value="0.2451821649" flag="0"/>
      <psa30 value="0.0915184314" flag="0"/>
    </comp>
    <comp name="--.HHN">
      <acc value="0.0000103610" flag="0"/>
      <vel value="0.0000057047" flag="0"/>
      <psa03 value="0.0000082953" flag="0"/>
      <psa10 value="0.0000049478" flag="0"/>
      <psa30 value="0.0000011135" flag="0"/>
    </comp>
  </station>
  <station code="CEYT" name="CEYT" netid="KO" insttype="CMG-3ESP" lat="37.0105" lon="35.7478">
    <comp name="--.HHE">
      <acc value="0.2182928180" flag="0"/>
      <vel value="0.2326337950" flag="0"/>
      <psa03 value="0.7045553617" flag="0"/>
      <psa10 value="0.2305812586" flag="0"/>
      <psa30 value="0.1240936078" flag="0"/>
    </comp>
    <comp name="--.HHN">
      <acc value="0.1901658695" flag="0"/>
      <vel value="0.2419250522" flag="0"/>
      <psa03 value="0.5074901146" flag="0"/>
      <psa10 value="0.1759854131" flag="0"/>
      <psa30 value="0.0581466422" flag="0"/>
    </comp>
    <comp name="--.HHZ">
      <acc value="0.1373306598" flag="0"/>
      <vel value="0.2296062601" flag="0"/>
      <psa03 value="0.2971817372" flag="0"/>
      <psa10 value="0.2658074488" flag="0"/>
      <psa30 value="0.1146633966" flag="0"/>
    </comp>
  </station>
  <station code="CMRD" name="CMRD" netid="KO" insttype="CMG-5T" lat="37.6623" lon="34.9902">
    <comp name="--.HNE">
      <acc value="0.2572231336" flag="0"/>
      <vel value="0.2698153717" flag="0"/>
      <psa03 value="0.4299811233" flag="0"/>
      <psa10 value="0.4824212936" flag="0"/>
      <psa30 value="0.0397946057" flag="0"/>
    </comp>
    <comp name="--.HNN">
      <acc value="0.2451939921" flag="0"/>
      <vel value="0.3157284669" flag="0"/>
      <psa03 value="0.3950718265" flag="0"/>
      <psa10 value="0.3295379788" flag="0"/>
      <psa30 value="0.0836613979" flag="0"/>
    </comp>
    <comp name="--.HNZ">
      <acc value="0.1381083231" flag="0"/>
      <vel value="0.1530532952" flag="0"/>
      <psa03 value="0.3909644856" flag="0"/>
      <psa10 value="0.2103067640" flag="0"/>
      <psa30 value="0.0721286191" flag="0"/>
    </comp>
  </station>
  <station code="GAZ" name="GAZ" netid="KO" insttype="CMG-3T" lat="37.1721" lon="37.2096">
    <comp name="--.HHZ">
      <acc value="0.1896139229" flag="0"/>
      <vel value="0.1645429180" flag="0"/>
      <psa03 value="0.4985962085" flag="0"/>
      <psa10 value="0.1800467227" flag="0"/>
      <psa30 value="0.0728617865" flag="0"/>
    </comp>
    <comp name="--.HHE">
      <acc value="0.2385690678" flag="0"/>
      <vel value="0.4046797583" flag="0"/>
      <psa03 value="0.5756817503" flag="0"/>
      <psa10 value="0.3769428267" flag="0"/>
      <psa30 value="0.0873422964" flag="0"/>
    </comp>
  </station>
  <station code="GULA" name="GULA" netid="KO" insttype="CMG-6T" lat="38.3444" lon="34.236">
    <comp name="--.HHE">
      <acc value="0.0737796245" flag="0"/>
      <vel value="0.1058144534" flag="0"/>
      <psa03 value="0.2181923620" flag="0"/>
      <psa10 value="0.1116895665" flag="0"/>
      <psa30 value="0.0447536374" flag="0"/>
    </comp>
    <comp name="--.HHN">
      <acc value="0.1190772321" flag="0"/>
      <vel value="0.1417107006" flag="0"/>
      <psa03 value="0.2865613235" flag="0"/>
      <psa10 value="0.1411173920" flag="0"/>
      <psa30 value="0.0458187628" flag="0"/>
    </comp>
    <comp name="--.HHZ">
      <acc value="0.0439817327" flag="0"/>
      <vel value="0.0709608663" flag="0"/>
      <psa03 value="0.1094000529" flag="0"/>
      <psa10 value="0.1006492899" flag="0"/>
      <psa30 value="0.0377511602" flag="0"/>
    </comp>
  </station>
  <station code="KOZK" name="KOZK" netid="KO" insttype="CMG-5T" lat="39.2101" lon="34.868">
    <comp name="--.HNZ">
      <acc value="0.1444659689" flag="0"/>
      <vel value="0.1436898233" flag="0"/>
      <psa03 value="0.4189745090" flag="0"/>
      <psa10 value="0.1806232416" flag="0"/>
      <psa30 value="0.0358488396" flag="0"/>
    </comp>
    <comp name="--.HNN">
      <acc value="0.3070354997" flag="0"/>
      <vel value="0.3482111082" flag="0"/>
      <psa03 value="0.7412276672" flag="0"/>
      <psa10 value="0.6459812120" flag="0"/>
      <psa30 value="0.0559492943" flag="0"/>
    </comp>
    <comp name="--.HNE">
      <acc value="0.2717153895" flag="0"/>
      <vel value="0.3108837928" flag="0"/>
      <psa03 value="0.6182274148" flag="0"/>
      <psa10 value="0.6846351136" flag="0"/>
      <psa30 value="0.0655025527" flag="0"/>
    </comp>
  </station>
  <station code="MERS" name="MERS" netid="KO" insttype="CMG-3T" lat="36.8678" lon="34.522">
    <comp name="--.HHZ">
      <acc value="0.0834548787" flag="0"/>
      <vel value="0.1109911647" flag="0"/>
      <psa03 value="0.1441389019" flag="0"/>
      <psa10 value="0.2305373871" flag="0"/>
      <psa30 value="0.0354129411" flag="0"/>
    </comp>
    <comp name="--.HHN">
      <acc value="0.1233662873" flag="0"/>
      <vel value="0.1859022571" flag="0"/>
      <psa03 value="0.2652514980" flag="0"/>
      <psa10 value="0.2396513337" flag="0"/>
      <psa30 value="0.0506534814" flag="0"/>
    </comp>
    <comp name="--.HHE">
      <acc value="0.1350633280" flag="0"/>
      <vel value="0.1944502513" flag="0"/>
      <psa03 value="0.2907696767" flag="0"/>
      <psa10 value="0.2402865841" flag="0"/>
      <psa30 value="0.0566218110" flag="0"/>
    </comp>
  </station>
  <station code="SARI" name="SARI" netid="KO" insttype="CMG-3T" lat="38.4072" lon="36.4181">
    <comp name="--.HHE">
      <acc value="2.2653656860" flag="0"/>
      <vel value="0.3354967251" flag="0"/>
      <psa03 value="1.8792305727" flag="0"/>
      <psa10 value="0.8561902465" flag="0"/>
      <psa30 value="0.0917504214" flag="0"/>
    </comp>
    <comp name="--.HHN">
      <acc value="2.0841844098" flag="0"/>
      <vel value="0.3339217908" flag="0"/>
      <psa03 value="2.3067102418" flag="0"/>
      <psa10 value="0.5321627331" flag="0"/>
      <psa30 value="0.1678302232" flag="0"/>
    </comp>
    <comp name="--.HHZ">
      <acc value="1.9047275189" flag="0"/>
      <vel value="0.3394175287" flag="0"/>
      <psa03 value="2.0153860184" flag="0"/>
      <psa10 value="0.7541565845" flag="0"/>
      <psa30 value="0.1532829169" flag="0"/>
    </comp>
  </station>
  <station code="SVSK" name="SVSK" netid="KO" insttype="CMG-3T" lat="39.9157" lon="36.9925">
    <comp name="--.HHE">
      <acc value="0.0782594456" flag="0"/>
      <vel value="0.1554301207" flag="0"/>
      <psa03 value="0.2449038150" flag="0"/>
      <psa10 value="0.1413112066" flag="0"/>
      <psa30 value="0.0531765089" flag="0"/>
    </comp>
    <comp name="--.HHN">
      <acc value="0.0459114705" flag="0"/>
      <vel value="0.0745497165" flag="0"/>
      <psa03 value="0.1550913798" flag="0"/>
      <psa10 value="0.0851769488" flag="0"/>
      <psa30 value="0.0200245536" flag="0"/>
    </comp>
    <comp name="--.HHZ">
      <acc value="0.0583957395" flag="0"/>
      <vel value="0.0689029397" flag="0"/>
      <psa03 value="0.1665184676" flag="0"/>
      <psa10 value="0.0857231711" flag="0"/>
      <psa30 value="0.0167248706" flag="0"/>
    </comp>
  </station>
</stationlist>
