<?xml version="1.0" encoding="UTF-8" standalone="yes"?>
<!DOCTYPE earthquake SYSTEM "stationlist.dtd">
<stationlist created="" xmlns="ch.ethz.sed.shakemap.usgs.xml">
  <station code="ARPRA" name="ARPRA" netid="KO" insttype="CMG-5T" lat="39.0929" lon="38.3356">
    <comp name="--.HNE">
      <acc value="0.2488089751" flag="0"/>
      <vel value="0.3370658935" flag="0"/>
      <psa03 value="0.4732335058" flag="0"/>
      <psa10 value="0.7378204631" flag="0"/>
      <psa30 value="0.0546882021" flag="0"/>
    </comp>
    <comp name="--.HNN">
      <acc value="0.2597120952" flag="0"/>
      <vel value="0.4795483755" flag="0"/>
      <psa03 value="0.5487283967" flag="0"/>
      <psa10 value="1.0834658726" flag="0"/>
      <psa30 value="0.1729268074" flag="0"/>
    </comp>
    <comp name="--.HNZ">
      <acc value="0.1573774129" flag="0"/>
      <vel value="0.2232448708" flag="0"/>
      <psa03 value="0.2681862919" flag="0"/>
      <psa10 value="0.3964140724" flag="0"/>
      <psa30 value="0.0691473353" flag="0"/>
    </comp>
  </station>
  <station code="CMRD" name="CMRD" netid="KO" insttype="CMG-5T" lat="37.6623" lon="34.9902">
    <comp name="--.HNN">
      <acc value="0.2451939922" flag="0"/>
      <vel value="0.3157285010" flag="0"/>
      <psa03 value="0.3950718265" flag="0"/>
      <psa10 value="0.3295379797" flag="0"/>
      <psa30 value="0.0836623639" flag="0"/>
    </comp>
    <comp name="--.HNE">
      <acc value="0.2572231336" flag="0"/>
      <vel value="0.2698154072" flag="0"/>
      <psa03 value="0.4299811233" flag="0"/>
      <psa10 value="0.4824212944" flag="0"/>
      <psa30 value="0.0397932963" flag="0"/>
    </comp>
    <comp name="--.HNZ">
      <acc value="0.1381083216" flag="0"/>
      <vel value="0.1530532563" flag="0"/>
      <psa03 value="0.3909644856" flag="0"/>
      <psa10 value="0.2103067641" flag="0"/>
      <psa30 value="0.0721279312" flag="0"/>
    </comp>
  </station>
  <station code="GAZ" name="GAZ" netid="KO" insttype="CMG-3T" lat="37.1721" lon="37.2096">
    <comp name="--.HHE">
      <acc value="0.2385690677" flag="0"/>
      <vel value="0.4046796953" flag="0"/>
      <psa03 value="0.5756817503" flag="0"/>
      <psa10 value="0.3769428318" flag="0"/>
      <psa30 value="0.0873431678" flag="0"/>
    </comp>
    <comp name="--.HHZ">
      <acc value="0.1896139225" flag="0"/>
      <vel value="0.1645429342" flag="0"/>
      <psa03 value="0.4985962085" flag="0"/>
      <psa10 value="0.1800467229" flag="0"/>
      <psa30 value="0.0728619339" flag="0"/>
    </comp>
    <comp name="--.HHN">
      <acc value="0.8113356047" flag="0"/>
      <vel value="0.3178688606" flag="0"/>
      <psa03 value="0.4698113261" flag="0"/>
      <psa10 value="0.5699841542" flag="0"/>
      <psa30 value="0.0833484693" flag="0"/>
    </comp>
  </station>
  <station code="GULA" name="GULA" netid="KO" insttype="CMG-6T" lat="38.3444" lon="34.236">
    <comp name="--.HHN">
      <acc value="0.1190772304" flag="0"/>
      <vel value="0.1417107274" flag="0"/>
      <psa03 value="0.2865613235" flag="0"/>
      <psa10 value="0.1411173920" flag="0"/>
      <psa30 value="0.0458193065" flag="0"/>
    </comp>
    <comp name="--.HHE">
      <acc value="0.0737796219" flag="0"/>
      <vel value="0.1058144364" flag="0"/>
      <psa03 value="0.2181923620" flag="0"/>
      <psa10 value="0.1116895665" flag="0"/>
      <psa30 value="0.0447539522" flag="0"/>
    </comp>
    <comp name="--.HHZ">
      <acc value="0.0439817317" flag="0"/>
      <vel value="0.0709609467" flag="0"/>
      <psa03 value="0.1094000529" flag="0"/>
      <psa10 value="0.1006492901" flag="0"/>
      <psa30 value="0.0377509225" flag="0"/>
    </comp>
  </station>
  <station code="KOZK" name="KOZK" netid="KO" insttype="CMG-5T" lat="39.2101" lon="34.868">
    <comp name="--.HNZ">
      <acc value="0.1444659694" flag="0"/>
      <vel value="0.1436898221" flag="0"/>
      <psa03 value="0.4189745090" flag="0"/>
      <psa10 value="0.1806232415" flag="0"/>
      <psa30 value="0.0358487746" flag="0"/>
    </comp>
    <comp name="--.HNN">
      <acc value="0.3070355009" flag="0"/>
      <vel value="0.3482110440" flag="0"/>
      <psa03 value="0.7412276672" flag="0"/>
      <psa10 value="0.6459812127" flag="0"/>
      <psa30 value="0.0559492047" flag="0"/>
    </comp>
    <comp name="--.HNE">
      <acc value="0.2717153869" flag="0"/>
      <vel value="0.3108836986" flag="0"/>
      <psa03 value="0.6182274148" flag="0"/>
      <psa10 value="0.6846351136" flag="0"/>
      <psa30 value="0.0655039312" flag="0"/>
    </comp>
  </station>
  <station code="MERS" name="MERS" netid="KO" insttype="CMG-3T" lat="36.8678" lon="34.522">
    <comp name="--.HHZ">
      <acc value="0.0834548787" flag="0"/>
      <vel value="0.1109911703" flag="0"/>
      <psa03 value="0.1441389019" flag="0"/>
      <psa10 value="0.2305373871" flag="0"/>
      <psa30 value="0.0354127575" flag="0"/>
    </comp>
    <comp name="--.HHE">
      <acc value="0.1350633280" flag="0"/>
      <vel value="0.1944502789" flag="0"/>
      <psa03 value="0.2907696767" flag="0"/>
      <psa10 value="0.2402865840" flag="0"/>
      <psa30 value="0.0566218154" flag="0"/>
    </comp>
    <comp name="--.HHN">
      <acc value="0.1233662872" flag="0"/>
      <vel value="0.1859022739" flag="0"/>
      <psa03 value="0.2652514980" flag="0"/>
      <psa10 value="0.2396513337" flag="0"/>
      <psa30 value="0.0506540968" flag="0"/>
    </comp>
  </station>
  <station code="SVSK" name="SVSK" netid="KO" insttype="CMG-3T" lat="39.9157" lon="36.9925">
    <comp name="--.HHN">
      <acc value="0.0459114704" flag="0"/>
      <vel value="0.0745496505" flag="0"/>
      <psa03 value="0.1550913798" flag="0"/>
      <psa10 value="0.0851769488" flag="0"/>
      <psa30 value="0.0200249200" flag="0"/>
    </comp>
    <comp name="--.HHZ">
      <acc value="0.0583957394" flag="0"/>
      <vel value="0.0689029489" flag="0"/>
      <psa03 value="0.1665184676" flag="0"/>
      <psa10 value="0.0857231709" flag="0"/>
      <psa30 value="0.0167248804" flag="0"/>
    </comp>
    <comp name="--.HHE">
      <acc value="0.0782594456" flag="0"/>
      <vel value="0.1554301435" flag="0"/>
      <psa03 value="0.2449038150" flag="0"/>
      <psa10 value="0.1413112063" flag="0"/>
      <psa30 value="0.0531765909" flag="0"/>
    </comp>
  </station>
  <station code="YOZ" name="YOZ" netid="KO" insttype="CMG-3T" lat="39.6376" lon="35.3152">
    <comp name="--.HHE">
      <acc value="0.1839008605" flag="0"/>
      <vel value="0.1469266836" flag="0"/>
      <psa03 value="0.4333792106" flag="0"/>
      <psa10 value="0.1472697276" flag="0"/>
      <psa30 value="0.0431263177" flag="0"/>
    </comp>
    <comp name="--.HHN">
      <acc value="0.1183252317" flag="0"/>
      <vel value="0.1018323736" flag="0"/>
      <psa03 value="0.3693524910" flag="0"/>
      <psa10 value="0.1667360542" flag="0"/>
      <psa30 value="0.0470467298" flag="0"/>
    </comp>
    <comp name="--.HHZ">
      <acc value="0.0895546956" flag="0"/>
      <vel value="0.1179112935" flag="0"/>
      <psa03 value="0.2383057235" flag="0"/>
      <psa10 value="0.1011921741" flag="0"/>
      <psa30 value="0.0343248373" flag="0"/>
    </comp>
  </station>
</stationlist>
