<stationlist created="1631873547">
	<station code="KSS1" name="KSS1" netid="HI" source="ITSAK Strong Motion Network" insttype="" lat="35.4189" lon="26.9207">
		<comp name="--.HNE" depth="0.0">
			<acc value="0.051982872" flag="0"/>
			<vel value="0.015075" flag="0"/>
			<psa03 value="0.0473819968087" flag="0"/>
			<psa10 value="0.0156441125441" flag="0"/>
			<psa30 value="0.000818782381114" flag="0"/>
		</comp>
		<comp name="--.HNN" depth="0.0">
			<acc value="-0.075108618" flag="0"/>
			<vel value="-0.017523" flag="0"/>
			<psa03 value="0.0771355642099" flag="0"/>
			<psa10 value="0.0113153040538" flag="0"/>
			<psa30 value="0.00130557758912" flag="0"/>
		</comp>
		<comp name="--.HNZ" depth="0.0">
			<acc value="0.041507166" flag="0"/>
			<vel value="-0.009283" flag="0"/>
			<psa03 value="0.0252346045327" flag="0"/>
			<psa10 value="0.00800124880955" flag="0"/>
			<psa30 value="0.000660394969686" flag="0"/>
		</comp>
	</station>
	<station code="IACM" name="IACM" netid="HL" source="National Observatory of Athens Seismic Network" insttype="" lat="35.3058" lon="25.0709">
		<comp name="--.HNE" depth="0.0">
			<acc value="0.0661725" flag="0"/>
			<vel value="-0.031118" flag="0"/>
			<psa03 value="0.166217297587" flag="0"/>
			<psa10 value="0.0223245714143" flag="0"/>
			<psa30 value="0.0013534517502" flag="0"/>
		</comp>
		<comp name="--.HNN" depth="0.0">
			<acc value="-0.087793236" flag="0"/>
			<vel value="0.036312" flag="0"/>
			<psa03 value="0.374537011602" flag="0"/>
			<psa10 value="0.0237178437283" flag="0"/>
			<psa30 value="0.00124517561019" flag="0"/>
		</comp>
		<comp name="--.HNZ" depth="0.0">
			<acc value="-0.054221262" flag="0"/>
			<vel value="0.025184" flag="0"/>
			<psa03 value="0.116329737208" flag="0"/>
			<psa10 value="0.0110052405619" flag="0"/>
			<psa30 value="0.000700215533576" flag="0"/>
		</comp>
	</station>
	<station code="IMMV" name="IMMV" netid="HL" source="National Observatory of Athens Seismic Network" insttype="" lat="35.4606" lon="23.9811">
		<comp name="--.HNE" depth="0.0">
			<acc value="-0.003885996" flag="0"/>
			<vel value="-0.002277" flag="0"/>
			<psa03 value="0.0110960672413" flag="0"/>
			<psa10 value="0.00465095237797" flag="0"/>
			<psa30 value="0.000173152339613" flag="0"/>
		</comp>
		<comp name="--.HNN" depth="0.0">
			<acc value="0.00444771" flag="0"/>
			<vel value="0.002036" flag="0"/>
			<psa03 value="0.0245187292268" flag="0"/>
			<psa10 value="0.00272211585066" flag="0"/>
			<psa30 value="0.000225500721356" flag="0"/>
		</comp>
		<comp name="--.HNZ" depth="0.0">
			<acc value="-0.003517164" flag="0"/>
			<vel value="-0.001875" flag="0"/>
			<psa03 value="0.0192391488459" flag="0"/>
			<psa10 value="0.00153823706354" flag="0"/>
			<psa30 value="8.45627705085e-05" flag="0"/>
		</comp>
	</station>
	<station code="KARP" name="KARP" netid="HL" source="National Observatory of Athens Seismic Network" insttype="" lat="35.5471" lon="27.16106">
		<comp name="--.HNE" depth="0.0">
			<acc value="0.048525276" flag="0"/>
			<vel value="0.014665" flag="0"/>
			<psa03 value="0.0339593348233" flag="0"/>
			<psa10 value="0.0103287383978" flag="0"/>
			<psa30 value="0.000656815593156" flag="0"/>
		</comp>
		<comp name="--.HNN" depth="0.0">
			<acc value="-0.041520834" flag="0"/>
			<vel value="-0.008677" flag="0"/>
			<psa03 value="0.0272032616239" flag="0"/>
			<psa10 value="0.0106830966742" flag="0"/>
			<psa30 value="0.00057896415364" flag="0"/>
		</comp>
		<comp name="--.HNZ" depth="0.0">
			<acc value="0.032917848" flag="0"/>
			<vel value="-0.005703" flag="0"/>
			<psa03 value="0.0244292448136" flag="0"/>
			<psa10 value="0.00461068439201" flag="0"/>
			<psa30 value="0.000345857257159" flag="0"/>
		</comp>
	</station>
	<station code="SIVA" name="SIVA" netid="HL" source="National Observatory of Athens Seismic Network" insttype="" lat="35.01777" lon="24.81204">
		<comp name="--.HNE" depth="0.0">
			<acc value="0.011213064" flag="0"/>
			<vel value="0.006495" flag="0"/>
			<psa03 value="0.0351226321953" flag="0"/>
			<psa10 value="0.00666837847439" flag="0"/>
			<psa30 value="0.000377624223858" flag="0"/>
		</comp>
		<comp name="--.HNN" depth="0.0">
			<acc value="-0.017177922" flag="0"/>
			<vel value="-0.008641" flag="0"/>
			<psa03 value="0.0519904440904" flag="0"/>
			<psa10 value="0.0112106072903" flag="0"/>
			<psa30 value="0.000421024164278" flag="0"/>
		</comp>
		<comp name="--.HNZ" depth="0.0">
			<acc value="0.008682138" flag="0"/>
			<vel value="0.005019" flag="0"/>
			<psa03 value="0.0331539751041" flag="0"/>
			<psa10 value="0.00276641063521" flag="0"/>
			<psa30 value="0.000246529558467" flag="0"/>
		</comp>
	</station>
</stationlist>
