<?xml version="1.0" encoding="UTF-8" standalone="yes"?>
<!DOCTYPE earthquake SYSTEM "stationlist.dtd">
<stationlist created="" xmlns="ch.ethz.sed.shakemap.usgs.xml">
  <station code="KARP" name="KARP" netid="GE" insttype="STS-2/N" lat="35.5471" lon="27.1611">
    <comp name="--.HHE">
      <acc value="0.0688918188" flag="0"/>
      <vel value="0.0185219083" flag="0"/>
      <psa03 value="0.0409285822" flag="0"/>
      <psa10 value="0.0115303883" flag="0"/>
      <psa30 value="0.0007556294" flag="0"/>
    </comp>
    <comp name="--.HHN">
      <acc value="0.0605186124" flag="0"/>
      <vel value="0.0118040578" flag="0"/>
      <psa03 value="0.0324021246" flag="0"/>
      <psa10 value="0.0138867709" flag="0"/>
      <psa30 value="0.0007330602" flag="0"/>
    </comp>
    <comp name="--.HHZ">
      <acc value="0.0429279312" flag="0"/>
      <vel value="0.0074564087" flag="0"/>
      <psa03 value="0.0307579241" flag="0"/>
      <psa10 value="0.0057504295" flag="0"/>
      <psa30 value="0.0004123518" flag="0"/>
    </comp>
  </station>
  <station code="THERA" name="THERA" netid="GE" insttype="STS-2/N" lat="36.367" lon="25.4753">
    <comp name="--.HHN">
      <acc value="0.0121565690" flag="0"/>
      <vel value="0.0051223611" flag="0"/>
      <psa03 value="0.0230802290" flag="0"/>
      <psa10 value="0.0028110024" flag="0"/>
      <psa30 value="0.0002515258" flag="0"/>
    </comp>
    <comp name="--.HHZ">
      <acc value="0.0112526393" flag="0"/>
      <vel value="0.0060666205" flag="0"/>
      <psa03 value="0.0205439762" flag="0"/>
      <psa10 value="0.0046251156" flag="0"/>
      <psa30 value="0.0004801482" flag="0"/>
    </comp>
    <comp name="--.HHE">
      <acc value="0.0199023954" flag="0"/>
      <vel value="0.0090086050" flag="0"/>
      <psa03 value="0.0405394319" flag="0"/>
      <psa10 value="0.0112275918" flag="0"/>
      <psa30 value="0.0009357264" flag="0"/>
    </comp>
  </station>
  <station code="ZKR" name="ZKR" netid="GE" insttype="STS-2/N" lat="35.1147" lon="26.2169">
    <comp name="--.HHN">
      <acc value="0.0478407281" flag="0"/>
      <vel value="0.0099973275" flag="0"/>
      <psa03 value="0.0654351527" flag="0"/>
      <psa10 value="0.0057100680" flag="0"/>
      <psa30 value="0.0003656815" flag="0"/>
    </comp>
    <comp name="--.HHE">
      <acc value="0.0646953423" flag="0"/>
      <vel value="0.0192097939" flag="0"/>
      <psa03 value="0.0801679738" flag="0"/>
      <psa10 value="0.0132141709" flag="0"/>
      <psa30 value="0.0009649171" flag="0"/>
    </comp>
    <comp name="--.HHZ">
      <acc value="0.0534141255" flag="0"/>
      <vel value="0.0137132342" flag="0"/>
      <psa03 value="0.0697950190" flag="0"/>
      <psa10 value="0.0092956569" flag="0"/>
      <psa30 value="0.0005511207" flag="0"/>
    </comp>
  </station>
  <station code="SNT5" name="SNT5" netid="HA" insttype="1s-100Hz," lat="36.4037" lon="25.3953">
    <comp name="--.HHZ">
      <acc value="0.0109785042" flag="0"/>
      <vel value="0.0049133052" flag="0"/>
      <psa03 value="0.0179165032" flag="0"/>
      <psa10 value="0.0079343440" flag="0"/>
      <psa30 value="0.0005299380" flag="0"/>
    </comp>
    <comp name="--.HHN">
      <acc value="0.0220971387" flag="0"/>
      <vel value="0.0081870931" flag="0"/>
      <psa03 value="0.0492044204" flag="0"/>
      <psa10 value="0.0110655700" flag="0"/>
      <psa30 value="0.0010985713" flag="0"/>
    </comp>
    <comp name="--.HHE">
      <acc value="0.0498268507" flag="0"/>
      <vel value="0.0170699120" flag="0"/>
      <psa03 value="0.0745518438" flag="0"/>
      <psa10 value="0.0132764539" flag="0"/>
      <psa30 value="0.0019368760" flag="0"/>
    </comp>
  </station>
  <station code="SIT2" name="SIT2" netid="HI" insttype="CMG-5TD,ACCELEROMETER,GURALP" lat="35.2059" lon="26.107">
    <comp name="--.HNE">
      <acc value="0.1655766488" flag="0"/>
      <vel value="0.0818814301" flag="0"/>
      <psa03 value="0.7049787317" flag="0"/>
      <psa10 value="0.0345046438" flag="0"/>
      <psa30 value="0.0034984099" flag="0"/>
    </comp>
    <comp name="--.HNN">
      <acc value="0.2022866937" flag="0"/>
      <vel value="0.1041607157" flag="0"/>
      <psa03 value="0.7947785382" flag="0"/>
      <psa10 value="0.0323315411" flag="0"/>
      <psa30 value="0.0030333391" flag="0"/>
    </comp>
    <comp name="--.HNZ">
      <acc value="0.1640688837" flag="0"/>
      <vel value="0.0624452538" flag="0"/>
      <psa03 value="0.4364512260" flag="0"/>
      <psa10 value="0.0193753577" flag="0"/>
      <psa30 value="0.0015031529" flag="0"/>
    </comp>
  </station>
  <station code="IACM" name="IACM" netid="HL" insttype="120" lat="35.3058" lon="25.0709">
    <comp name="--.HHN">
      <acc value="0.0887283545" flag="0"/>
      <vel value="0.0365001568" flag="0"/>
      <psa03 value="0.3627874312" flag="0"/>
      <psa10 value="0.0234856580" flag="0"/>
      <psa30 value="0.0012775098" flag="0"/>
    </comp>
    <comp name="--.HHE">
      <acc value="0.0680506594" flag="0"/>
      <vel value="0.0314037485" flag="0"/>
      <psa03 value="0.1748521609" flag="0"/>
      <psa10 value="0.0223417868" flag="0"/>
      <psa30 value="0.0013208038" flag="0"/>
    </comp>
    <comp name="--.HHZ">
      <acc value="0.0546286180" flag="0"/>
      <vel value="0.0250456855" flag="0"/>
      <psa03 value="0.1119003846" flag="0"/>
      <psa10 value="0.0112287811" flag="0"/>
      <psa30 value="0.0007358261" flag="0"/>
    </comp>
  </station>
  <station code="KARP" name="KARP" netid="HL" insttype="120" lat="35.5471" lon="27.1611">
    <comp name="--.HHE">
      <acc value="0.0592477994" flag="0"/>
      <vel value="0.0176461349" flag="0"/>
      <psa03 value="0.0399787259" flag="0"/>
      <psa10 value="0.0114366610" flag="0"/>
      <psa30 value="0.0007471296" flag="0"/>
    </comp>
    <comp name="--.HHZ">
      <acc value="0.0375348440" flag="0"/>
      <vel value="0.0070731075" flag="0"/>
      <psa03 value="0.0298445960" flag="0"/>
      <psa10 value="0.0057115179" flag="0"/>
      <psa30 value="0.0004104547" flag="0"/>
    </comp>
    <comp name="--.HHN">
      <acc value="0.0503882435" flag="0"/>
      <vel value="0.0115878781" flag="0"/>
      <psa03 value="0.0314320587" flag="0"/>
      <psa10 value="0.0137828203" flag="0"/>
      <psa30 value="0.0007269694" flag="0"/>
    </comp>
  </station>
  <station code="NPS" name="NPS" netid="HL" insttype="CMG3ESPC-120s" lat="35.2613" lon="25.6104">
    <comp name="--.HHE">
      <acc value="0.0438674578" flag="0"/>
      <vel value="0.0130579283" flag="0"/>
      <psa03 value="0.0934243443" flag="0"/>
      <psa10 value="0.0052550287" flag="0"/>
      <psa30 value="0.0003471339" flag="0"/>
    </comp>
    <comp name="--.HHN">
      <acc value="0.0832602265" flag="0"/>
      <vel value="0.0287938302" flag="0"/>
      <psa03 value="0.1566386326" flag="0"/>
      <psa10 value="0.0109266095" flag="0"/>
      <psa30 value="0.0006820400" flag="0"/>
    </comp>
    <comp name="--.HHZ">
      <acc value="0.0811767524" flag="0"/>
      <vel value="0.0233672101" flag="0"/>
      <psa03 value="0.0675137759" flag="0"/>
      <psa10 value="0.0104774803" flag="0"/>
      <psa30 value="0.0007502203" flag="0"/>
    </comp>
  </station>
  <station code="THERA" name="THERA" netid="HL" insttype="120" lat="36.367" lon="25.4753">
    <comp name="--.HHZ">
      <acc value="0.0110279939" flag="0"/>
      <vel value="0.0059578112" flag="0"/>
      <psa03 value="0.0199915908" flag="0"/>
      <psa10 value="0.0045983487" flag="0"/>
      <psa30 value="0.0004796071" flag="0"/>
    </comp>
    <comp name="--.HHE">
      <acc value="0.0194293927" flag="0"/>
      <vel value="0.0088238154" flag="0"/>
      <psa03 value="0.0394258116" flag="0"/>
      <psa10 value="0.0111182254" flag="0"/>
      <psa30 value="0.0009354832" flag="0"/>
    </comp>
    <comp name="--.HHN">
      <acc value="0.0117910661" flag="0"/>
      <vel value="0.0050064569" flag="0"/>
      <psa03 value="0.0224296893" flag="0"/>
      <psa10 value="0.0027886639" flag="0"/>
      <psa30 value="0.0002512432" flag="0"/>
    </comp>
  </station>
  <station code="ZKR" name="ZKR" netid="HL" insttype="120" lat="35.1147" lon="26.2169">
    <comp name="--.HHN">
      <acc value="0.0462216445" flag="0"/>
      <vel value="0.0096277276" flag="0"/>
      <psa03 value="0.0636379146" flag="0"/>
      <psa10 value="0.0056689238" flag="0"/>
      <psa30 value="0.0003614944" flag="0"/>
    </comp>
    <comp name="--.HHZ">
      <acc value="0.0522503433" flag="0"/>
      <vel value="0.0133561743" flag="0"/>
      <psa03 value="0.0677337055" flag="0"/>
      <psa10 value="0.0092433346" flag="0"/>
      <psa30 value="0.0005502315" flag="0"/>
    </comp>
    <comp name="--.HHE">
      <acc value="0.0637268564" flag="0"/>
      <vel value="0.0188898742" flag="0"/>
      <psa03 value="0.0782090965" flag="0"/>
      <psa10 value="0.0131613812" flag="0"/>
      <psa30 value="0.0009517852" flag="0"/>
    </comp>
  </station>
  <station code="CMBO" name="CMBO" netid="HT" insttype="120P," lat="36.4709" lon="25.4056">
    <comp name="--.HHN">
      <acc value="0.0875309990" flag="0"/>
      <vel value="0.0445529837" flag="0"/>
      <psa03 value="0.1170752470" flag="0"/>
      <psa10 value="0.0420733873" flag="0"/>
      <psa30 value="0.0019329288" flag="0"/>
    </comp>
    <comp name="--.HHE">
      <acc value="0.0545226176" flag="0"/>
      <vel value="0.0284790938" flag="0"/>
      <psa03 value="0.0970353426" flag="0"/>
      <psa10 value="0.0374123583" flag="0"/>
      <psa30 value="0.0016869017" flag="0"/>
    </comp>
    <comp name="--.HHZ">
      <acc value="0.0381921013" flag="0"/>
      <vel value="0.0180142734" flag="0"/>
      <psa03 value="0.1038136893" flag="0"/>
      <psa10 value="0.0098663134" flag="0"/>
      <psa30 value="0.0007969644" flag="0"/>
    </comp>
  </station>
</stationlist>
