<stationlist xmlns:esm="https://esm-db.eu/esmws/shakemap/1/" created="1781574866">
	<station code="KIAS" name="KIAS" netid="HA" source="Hellenic Seismological Network, University of Athens, Seismological Laboratory (HA)" insttype="" lat="37.9875" lon="22.7543" esm:processing="automatic (Paolucci et al 2011)" esm:quality="best">
		<comp name="--.HNE" depth="0.0">
			<acc value="0.0161130458794463" flag="0"/>
			<vel value="0.0138802520910105" flag="0"/>
			<psa03 value="0.0355770755566382" flag="0"/>
			<psa10 value="0.0239223397375936" flag="0"/>
			<psa30 value="0.00276564196020547" flag="0"/>
		</comp>
		<comp name="--.HNN" depth="0.0">
			<acc value="0.0184908178308895" flag="0"/>
			<vel value="0.0144859323382416" flag="0"/>
			<psa03 value="0.0303937243725855" flag="0"/>
			<psa10 value="0.0291106565631355" flag="0"/>
			<psa30 value="0.0027830983249386" flag="0"/>
		</comp>
		<comp name="--.HNZ" depth="0.0">
			<acc value="0.0107296732638435" flag="0"/>
			<vel value="0.0110732821572603" flag="0"/>
			<psa03 value="0.0184785066624488" flag="0"/>
			<psa10 value="0.0160798633370463" flag="0"/>
			<psa30 value="0.00221748439745872" flag="0"/>
		</comp>
	</station>
	<station code="AKR1" name="AKR1" netid="HI" source="ITSAK Strong Motion Network" insttype="" lat="38.153583" lon="22.31326" esm:processing="automatic (Paolucci et al 2011)" esm:quality="best">
		<comp name="--.HNE" depth="0.0">
			<acc value="0.0172172349806821" flag="0"/>
			<vel value="0.0128737197526442" flag="0"/>
			<psa03 value="0.0433154866259286" flag="0"/>
			<psa10 value="0.0236525806173946" flag="0"/>
			<psa30 value="0.00222852596224056" flag="0"/>
		</comp>
		<comp name="--.HNN" depth="0.0">
			<acc value="0.0119700694706693" flag="0"/>
			<vel value="0.00985170685743737" flag="0"/>
			<psa03 value="0.0343714956929236" flag="0"/>
			<psa10 value="0.012516946373779" flag="0"/>
			<psa30 value="0.00103571027738965" flag="0"/>
		</comp>
		<comp name="--.HNZ" depth="0.0">
			<acc value="0.00539223444509054" flag="0"/>
			<vel value="0.00549092810173905" flag="0"/>
			<psa03 value="0.0146974567072797" flag="0"/>
			<psa10 value="0.0132758053944614" flag="0"/>
			<psa30 value="0.000777154763940766" flag="0"/>
		</comp>
	</station>
	<station code="AOL1" name="AOL1" netid="HI" source="ITSAK Strong Motion Network" insttype="" lat="37.642378" lon="21.624555" esm:processing="automatic (Paolucci et al 2011)" esm:quality="best">
		<comp name="--.HNE" depth="0.0">
			<acc value="0.0358460937109364" flag="0"/>
			<vel value="0.0207001005677675" flag="0"/>
			<psa03 value="0.11142831907947" flag="0"/>
			<psa10 value="0.0187134509242708" flag="0"/>
			<psa30 value="0.00324927774870519" flag="0"/>
		</comp>
		<comp name="--.HNN" depth="0.0">
			<acc value="0.027543051100361" flag="0"/>
			<vel value="0.0183551382839027" flag="0"/>
			<psa03 value="0.0845712743067295" flag="0"/>
			<psa10 value="0.0316881554347819" flag="0"/>
			<psa30 value="0.00239686086360367" flag="0"/>
		</comp>
		<comp name="--.HNZ" depth="0.0">
			<acc value="0.0184228331881668" flag="0"/>
			<vel value="0.0117658591213697" flag="0"/>
			<psa03 value="0.0373952454806312" flag="0"/>
			<psa10 value="0.0177966651917174" flag="0"/>
			<psa30 value="0.00120778448896194" flag="0"/>
		</comp>
	</station>
	<station code="ARE2" name="ARE2" netid="HI" source="ITSAK Strong Motion Network" insttype="" lat="36.66629" lon="22.382635" esm:processing="automatic (Paolucci et al 2011)" esm:quality="best">
		<comp name="--.HNE" depth="0.0">
			<acc value="0.0972879216896815" flag="0"/>
			<vel value="0.0485000403344679" flag="0"/>
			<psa03 value="0.254986058241551" flag="0"/>
			<psa10 value="0.0516580708437136" flag="0"/>
			<psa30 value="0.00236730432229456" flag="0"/>
		</comp>
		<comp name="--.HNN" depth="0.0">
			<acc value="0.0998088727020091" flag="0"/>
			<vel value="0.0476346107037677" flag="0"/>
			<psa03 value="0.309496460955021" flag="0"/>
			<psa10 value="0.0215549054066792" flag="0"/>
			<psa30 value="0.00211309727399226" flag="0"/>
		</comp>
		<comp name="--.HNZ" depth="0.0">
			<acc value="0.0518688671353395" flag="0"/>
			<vel value="0.0197588768251974" flag="0"/>
			<psa03 value="0.0775593670942895" flag="0"/>
			<psa10 value="0.0120548988903776" flag="0"/>
			<psa30 value="0.00123386684178793" flag="0"/>
		</comp>
	</station>
	<station code="AST1" name="AST1" netid="HI" source="ITSAK Strong Motion Network" insttype="" lat="38.5416" lon="21.0895" esm:processing="automatic (Paolucci et al 2011)" esm:quality="best">
		<comp name="--.HNE" depth="0.0">
			<acc value="0.00355219473023136" flag="0"/>
			<vel value="0.00275757553815104" flag="0"/>
			<psa03 value="0.00853040494120628" flag="0"/>
			<psa10 value="0.00555038502952712" flag="0"/>
			<psa30 value="0.000677299190663271" flag="0"/>
		</comp>
		<comp name="--.HNN" depth="0.0">
			<acc value="0.00385750246904314" flag="0"/>
			<vel value="0.00278641323314571" flag="0"/>
			<psa03 value="0.00634139078913852" flag="0"/>
			<psa10 value="0.00571590177542775" flag="0"/>
			<psa30 value="0.000344148553360959" flag="0"/>
		</comp>
		<comp name="--.HNZ" depth="0.0">
			<acc value="0.00302798116379717" flag="0"/>
			<vel value="0.00206263933036931" flag="0"/>
			<psa03 value="0.00576896810332979" flag="0"/>
			<psa10 value="0.0033620304523921" flag="0"/>
			<psa30 value="0.000227202264576725" flag="0"/>
		</comp>
	</station>
	<station code="GTH2" name="GTH2" netid="HI" source="ITSAK Strong Motion Network" insttype="" lat="36.7603" lon="22.5659" esm:processing="automatic (Paolucci et al 2011)" esm:quality="best">
		<comp name="--.HNE" depth="0.0">
			<acc value="0.127038985440952" flag="0"/>
			<vel value="0.0809077419431732" flag="0"/>
			<psa03 value="0.335500016896167" flag="0"/>
			<psa10 value="0.0520511718848443" flag="0"/>
			<psa30 value="0.0037078181247553" flag="0"/>
		</comp>
		<comp name="--.HNN" depth="0.0">
			<acc value="0.121431357764509" flag="0"/>
			<vel value="0.0735526629617072" flag="0"/>
			<psa03 value="0.347062470352161" flag="0"/>
			<psa10 value="0.0611674482933607" flag="0"/>
			<psa30 value="0.00418944878041991" flag="0"/>
		</comp>
		<comp name="--.HNZ" depth="0.0">
			<acc value="0.0759240046793604" flag="0"/>
			<vel value="0.0370241655056974" flag="0"/>
			<psa03 value="0.135283607708195" flag="0"/>
			<psa10 value="0.0203247845422127" flag="0"/>
			<psa30 value="0.00238266117294169" flag="0"/>
		</comp>
	</station>
	<station code="KLV1" name="KLV1" netid="HI" source="ITSAK Strong Motion Network" insttype="" lat="38.03256" lon="22.10797" esm:processing="automatic (Paolucci et al 2011)" esm:quality="best">
		<comp name="--.HNE" depth="0.0">
			<acc value="0.0151193067168656" flag="0"/>
			<vel value="0.0107668080039273" flag="0"/>
			<psa03 value="0.0628958592502775" flag="0"/>
			<psa10 value="0.0197476456846223" flag="0"/>
			<psa30 value="0.000715339575238119" flag="0"/>
		</comp>
		<comp name="--.HNN" depth="0.0">
			<acc value="0.0169879950088232" flag="0"/>
			<vel value="0.0134598781710293" flag="0"/>
			<psa03 value="0.0389955129488659" flag="0"/>
			<psa10 value="0.0188621801518708" flag="0"/>
			<psa30 value="0.00109417956735879" flag="0"/>
		</comp>
		<comp name="--.HNZ" depth="0.0">
			<acc value="0.00757327823274609" flag="0"/>
			<vel value="0.00598562548281601" flag="0"/>
			<psa03 value="0.0145540005894294" flag="0"/>
			<psa10 value="0.0129132426264417" flag="0"/>
			<psa30 value="0.000749028890320962" flag="0"/>
		</comp>
	</station>
	<station code="KOR2" name="KOR2" netid="HI" source="ITSAK Strong Motion Network" insttype="" lat="37.9401" lon="22.9495" esm:processing="automatic (Paolucci et al 2011)" esm:quality="best">
		<comp name="--.HNE" depth="0.0">
			<acc value="0.0169893015706188" flag="0"/>
			<vel value="0.019177001911062" flag="0"/>
			<psa03 value="0.0485621284611206" flag="0"/>
			<psa10 value="0.0317170811009733" flag="0"/>
			<psa30 value="0.00156923437074326" flag="0"/>
		</comp>
		<comp name="--.HNN" depth="0.0">
			<acc value="0.0154359303269534" flag="0"/>
			<vel value="0.0129278092892804" flag="0"/>
			<psa03 value="0.0440343597685669" flag="0"/>
			<psa10 value="0.0249011789558824" flag="0"/>
			<psa30 value="0.00160731428918289" flag="0"/>
		</comp>
		<comp name="--.HNZ" depth="0.0">
			<acc value="0.0158513788949129" flag="0"/>
			<vel value="0.0134634687129491" flag="0"/>
			<psa03 value="0.0299827804828966" flag="0"/>
			<psa10 value="0.0208642484040782" flag="0"/>
			<psa30 value="0.000695022135557323" flag="0"/>
		</comp>
	</station>
	<station code="KYP2" name="KYP2" netid="HI" source="ITSAK Strong Motion Network" insttype="" lat="37.2497" lon="21.667" esm:processing="automatic (Paolucci et al 2011)" esm:quality="best">
		<comp name="--.HNE" depth="0.0">
			<acc value="0.205379948754532" flag="0"/>
			<vel value="0.0458143887396076" flag="0"/>
			<psa03 value="0.268869873809758" flag="0"/>
			<psa10 value="0.0202980321450219" flag="0"/>
			<psa30 value="0.0023003198849019" flag="0"/>
		</comp>
		<comp name="--.HNN" depth="0.0">
			<acc value="0.175479348212908" flag="0"/>
			<vel value="0.0425374089424517" flag="0"/>
			<psa03 value="0.199987789876203" flag="0"/>
			<psa10 value="0.0291037936085047" flag="0"/>
			<psa30 value="0.00243923575406537" flag="0"/>
		</comp>
		<comp name="--.HNZ" depth="0.0">
			<acc value="0.139240817067561" flag="0"/>
			<vel value="0.0304263782877886" flag="0"/>
			<psa03 value="0.18634369852225" flag="0"/>
			<psa10 value="0.012933641165269" flag="0"/>
			<psa30 value="0.00122634832289161" flag="0"/>
		</comp>
	</station>
	<station code="LEO1" name="LEO1" netid="HI" source="ITSAK Strong Motion Network" insttype="" lat="37.1689" lon="22.8637" esm:processing="automatic (Paolucci et al 2011)" esm:quality="best">
		<comp name="--.HNE" depth="0.0">
			<acc value="0.0319683802008145" flag="0"/>
			<vel value="0.0106275983421609" flag="0"/>
			<psa03 value="0.052186040402301" flag="0"/>
			<psa10 value="0.0145975851433568" flag="0"/>
			<psa30 value="0.000875379552099426" flag="0"/>
		</comp>
		<comp name="--.HNN" depth="0.0">
			<acc value="0.0276642520781048" flag="0"/>
			<vel value="0.0128859948967656" flag="0"/>
			<psa03 value="0.0468336858352673" flag="0"/>
			<psa10 value="0.0135912537913647" flag="0"/>
			<psa30 value="0.00109256237689545" flag="0"/>
		</comp>
		<comp name="--.HNZ" depth="0.0">
			<acc value="0.0257627397279263" flag="0"/>
			<vel value="0.00791084151906354" flag="0"/>
			<psa03 value="0.0352109263010535" flag="0"/>
			<psa10 value="0.00662463056802356" flag="0"/>
			<psa30 value="0.00108726963044459" flag="0"/>
		</comp>
	</station>
	<station code="LXR2" name="LXR2" netid="HI" source="ITSAK Strong Motion Network" insttype="" lat="38.206718" lon="20.436386" esm:processing="automatic (Paolucci et al 2011)" esm:quality="best">
		<comp name="--.HNE" depth="0.0">
			<acc value="0.00475675445987277" flag="0"/>
			<vel value="0.00380983274420274" flag="0"/>
			<psa03 value="0.00886906930315511" flag="0"/>
			<psa10 value="0.0101480541337888" flag="0"/>
			<psa30 value="0.00078615384966607" flag="0"/>
		</comp>
		<comp name="--.HNN" depth="0.0">
			<acc value="0.00602010119860104" flag="0"/>
			<vel value="0.0080156219427509" flag="0"/>
			<psa03 value="0.00928580003450262" flag="0"/>
			<psa10 value="0.016859990016604" flag="0"/>
			<psa30 value="0.00133885431752953" flag="0"/>
		</comp>
		<comp name="--.HNZ" depth="0.0">
			<acc value="0.0163759275345038" flag="0"/>
			<vel value="0.00322981818717296" flag="0"/>
			<psa03 value="0.00918471846855863" flag="0"/>
			<psa10 value="0.00448174517488614" flag="0"/>
			<psa30 value="0.000385500277084684" flag="0"/>
		</comp>
	</station>
	<station code="NMA1" name="NMA1" netid="HI" source="ITSAK Strong Motion Network" insttype="" lat="37.81873" lon="22.662702" esm:processing="automatic (Paolucci et al 2011)" esm:quality="best">
		<comp name="--.HNE" depth="0.0">
			<acc value="0.0132965431063585" flag="0"/>
			<vel value="0.011442352529846" flag="0"/>
			<psa03 value="0.0456041668855767" flag="0"/>
			<psa10 value="0.018322841923343" flag="0"/>
			<psa30 value="0.00116351082688345" flag="0"/>
		</comp>
		<comp name="--.HNN" depth="0.0">
			<acc value="0.0223874230406135" flag="0"/>
			<vel value="0.0124816931889984" flag="0"/>
			<psa03 value="0.0495400161580286" flag="0"/>
			<psa10 value="0.0162008407261916" flag="0"/>
			<psa30 value="0.00130482195888373" flag="0"/>
		</comp>
		<comp name="--.HNZ" depth="0.0">
			<acc value="0.013761432023106" flag="0"/>
			<vel value="0.010711918713091" flag="0"/>
			<psa03 value="0.0294293714264206" flag="0"/>
			<psa10 value="0.0112920786697829" flag="0"/>
			<psa30 value="0.00160381968268326" flag="0"/>
		</comp>
	</station>
	<station code="PET1" name="PET1" netid="HI" source="ITSAK Strong Motion Network" insttype="" lat="36.963862" lon="21.92538" esm:processing="automatic (Paolucci et al 2011)" esm:quality="best">
		<comp name="--.HNE" depth="0.0">
			<acc value="0.501379251665947" flag="0"/>
			<vel value="0.155312070431573" flag="0"/>
			<psa03 value="0.444247512550872" flag="0"/>
			<psa10 value="0.0870859890193957" flag="0"/>
			<psa30 value="0.00432265343790926" flag="0"/>
		</comp>
		<comp name="--.HNN" depth="0.0">
			<acc value="0.490640047563831" flag="0"/>
			<vel value="0.157431104211018" flag="0"/>
			<psa03 value="0.477072562049717" flag="0"/>
			<psa10 value="0.06589091995005" flag="0"/>
			<psa30 value="0.00490910353735899" flag="0"/>
		</comp>
		<comp name="--.HNZ" depth="0.0">
			<acc value="0.325725576716634" flag="0"/>
			<vel value="0.0645645372899741" flag="0"/>
			<psa03 value="0.280961383146055" flag="0"/>
			<psa10 value="0.0269087019444604" flag="0"/>
			<psa30 value="0.00228160322835038" flag="0"/>
		</comp>
	</station>
	<station code="PYL1" name="PYL1" netid="HI" source="ITSAK Strong Motion Network" insttype="" lat="36.914188" lon="21.695161" esm:processing="automatic (Paolucci et al 2011)" esm:quality="best">
		<comp name="--.HNE" depth="0.0">
			<acc value="0.432725997767651" flag="0"/>
			<vel value="0.252737796984265" flag="0"/>
			<psa03 value="0.429713591416714" flag="0"/>
			<psa10 value="0.146135375751447" flag="0"/>
			<psa30 value="0.0101385324613318" flag="0"/>
		</comp>
		<comp name="--.HNN" depth="0.0">
			<acc value="0.695476798575558" flag="0"/>
			<vel value="0.204101320317653" flag="0"/>
			<psa03 value="0.626915530074974" flag="0"/>
			<psa10 value="0.0981372661120738" flag="0"/>
			<psa30 value="0.0106389597788549" flag="0"/>
		</comp>
		<comp name="--.HNZ" depth="0.0">
			<acc value="0.336758079787067" flag="0"/>
			<vel value="0.126335070806683" flag="0"/>
			<psa03 value="0.32640889382056" flag="0"/>
			<psa10 value="0.0476311665808472" flag="0"/>
			<psa30 value="0.00208955883968479" flag="0"/>
		</comp>
	</station>
	<station code="PYR2" name="PYR2" netid="HI" source="ITSAK Strong Motion Network" insttype="" lat="37.6671" lon="21.4506" esm:processing="automatic (Paolucci et al 2011)" esm:quality="best">
		<comp name="--.HNE" depth="0.0">
			<acc value="0.0365796181347531" flag="0"/>
			<vel value="0.0253230128462844" flag="0"/>
			<psa03 value="0.114559724435965" flag="0"/>
			<psa10 value="0.019621393571017" flag="0"/>
			<psa30 value="0.0022469961441323" flag="0"/>
		</comp>
		<comp name="--.HNN" depth="0.0">
			<acc value="0.0463607856642614" flag="0"/>
			<vel value="0.0288406834677698" flag="0"/>
			<psa03 value="0.0922824361753801" flag="0"/>
			<psa10 value="0.0293466615723017" flag="0"/>
			<psa30 value="0.00267508429454045" flag="0"/>
		</comp>
		<comp name="--.HNZ" depth="0.0">
			<acc value="0.0239576205838829" flag="0"/>
			<vel value="0.00889090120357215" flag="0"/>
			<psa03 value="0.0353336010943381" flag="0"/>
			<psa10 value="0.0125623571945014" flag="0"/>
			<psa30 value="0.0015036535680045" flag="0"/>
		</comp>
	</station>
	<station code="TRP1" name="TRP1" netid="HI" source="ITSAK Strong Motion Network" insttype="" lat="37.511219" lon="22.363399" esm:processing="automatic (Paolucci et al 2011)" esm:quality="best">
		<comp name="--.HNE" depth="0.0">
			<acc value="0.018506322714217" flag="0"/>
			<vel value="0.0124120716948479" flag="0"/>
			<psa03 value="0.0618313772754973" flag="0"/>
			<psa10 value="0.0135681616366356" flag="0"/>
			<psa30 value="0.00105522469512266" flag="0"/>
		</comp>
		<comp name="--.HNN" depth="0.0">
			<acc value="0.021026018649149" flag="0"/>
			<vel value="0.0160685238713501" flag="0"/>
			<psa03 value="0.0561850761522547" flag="0"/>
			<psa10 value="0.0230160021971701" flag="0"/>
			<psa30 value="0.00136296706071169" flag="0"/>
		</comp>
		<comp name="--.HNZ" depth="0.0">
			<acc value="0.0110598918864111" flag="0"/>
			<vel value="0.00710011663756196" flag="0"/>
			<psa03 value="0.021726521306666" flag="0"/>
			<psa10 value="0.00804515388946903" flag="0"/>
			<psa30 value="0.000936850915941752" flag="0"/>
		</comp>
	</station>
	<station code="VSK1" name="VSK1" netid="HI" source="ITSAK Strong Motion Network" insttype="" lat="38.4091" lon="20.564" esm:processing="automatic (Paolucci et al 2011)" esm:quality="best">
		<comp name="--.HNE" depth="0.0">
			<acc value="0.00273450186793165" flag="0"/>
			<vel value="0.00174261656362023" flag="0"/>
			<psa03 value="0.00279587336393047" flag="0"/>
			<psa10 value="0.00482568467791657" flag="0"/>
			<psa30 value="0.000373764161082958" flag="0"/>
		</comp>
		<comp name="--.HNN" depth="0.0">
			<acc value="0.00238114143121107" flag="0"/>
			<vel value="0.00183010217814403" flag="0"/>
			<psa03 value="0.00345842343951805" flag="0"/>
			<psa10 value="0.00275017859208502" flag="0"/>
			<psa30 value="0.000554186035023285" flag="0"/>
		</comp>
		<comp name="--.HNZ" depth="0.0">
			<acc value="0.00180823740890976" flag="0"/>
			<vel value="0.000908035988680348" flag="0"/>
			<psa03 value="0.00230326683793804" flag="0"/>
			<psa10 value="0.00207694782197545" flag="0"/>
			<psa30 value="0.000312359572497237" flag="0"/>
		</comp>
	</station>
	<station code="AMT" name="AMT" netid="HP" source="University of Patras, Seismological Laboratory (PSLNET)" insttype="" lat="37.5324" lon="21.7089" esm:processing="automatic (Paolucci et al 2011)" esm:quality="best">
		<comp name="--.HNE" depth="0.0">
			<acc value="0.0512631839137163" flag="0"/>
			<vel value="0.0395049265645772" flag="0"/>
			<psa03 value="0.119090555831531" flag="0"/>
			<psa10 value="0.0530462628045389" flag="0"/>
			<psa30 value="0.00318155742923365" flag="0"/>
		</comp>
		<comp name="--.HNN" depth="0.0">
			<acc value="0.0556397641444734" flag="0"/>
			<vel value="0.0374564683334734" flag="0"/>
			<psa03 value="0.0942653592005974" flag="0"/>
			<psa10 value="0.0469510102738298" flag="0"/>
			<psa30 value="0.00160326537512748" flag="0"/>
		</comp>
		<comp name="--.HNZ" depth="0.0">
			<acc value="0.0421128050013041" flag="0"/>
			<vel value="0.0240772261443563" flag="0"/>
			<psa03 value="0.139048377939409" flag="0"/>
			<psa10 value="0.0130874838565686" flag="0"/>
			<psa30 value="0.00148301313817748" flag="0"/>
		</comp>
	</station>
	<station code="DSF" name="DSF" netid="HP" source="University of Patras, Seismological Laboratory (PSLNET)" insttype="" lat="38.4112" lon="22.5271" esm:processing="automatic (Paolucci et al 2011)" esm:quality="best">
		<comp name="--.HNE" depth="1.0">
			<acc value="0.00454725652902493" flag="0"/>
			<vel value="0.00377942198243414" flag="0"/>
			<psa03 value="0.00996047298347486" flag="0"/>
			<psa10 value="0.00504796190270206" flag="0"/>
			<psa30 value="0.000701449696764453" flag="0"/>
		</comp>
		<comp name="--.HNN" depth="1.0">
			<acc value="0.00800617682269633" flag="0"/>
			<vel value="0.00305696017447072" flag="0"/>
			<psa03 value="0.0117752214568787" flag="0"/>
			<psa10 value="0.0044803393005045" flag="0"/>
			<psa30 value="0.000458733305496492" flag="0"/>
		</comp>
		<comp name="--.HNZ" depth="1.0">
			<acc value="0.00410927258699648" flag="0"/>
			<vel value="0.00248133758208771" flag="0"/>
