<?xml version="1.0" encoding="UTF-8" standalone="yes"?>
<!DOCTYPE earthquake SYSTEM "stationlist.dtd">
<stationlist created="" xmlns="ch.ethz.sed.shakemap.usgs.xml">
  <station code="RP05B" name="RP05B" netid="5B" insttype="Compact" commtype="DIG" lat="37.6182" lon="21.6541">
    <comp name="--.HHZ">
      <acc value="0.0549461826" flag="0"/>
      <vel value="0.0233755160" flag="0"/>
      <psa03 value="0.0878886690" flag="0"/>
      <psa10 value="0.0193837016" flag="0"/>
      <psa30 value="0.0017620821" flag="0"/>
    </comp>
    <comp name="--.HHE">
      <acc value="0.0989525709" flag="0"/>
      <vel value="0.0507431752" flag="0"/>
      <psa03 value="0.2241036031" flag="0"/>
      <psa10 value="0.0444977866" flag="0"/>
      <psa30 value="0.0041501333" flag="0"/>
    </comp>
    <comp name="--.HHN">
      <acc value="0.1207083355" flag="0"/>
      <vel value="0.0515880444" flag="0"/>
      <psa03 value="0.3659099026" flag="0"/>
      <psa10 value="0.0359426215" flag="0"/>
      <psa30 value="0.0039332201" flag="0"/>
    </comp>
  </station>
  <station code="KTHA" name="KTHA" netid="GE" insttype="STS-2/N" commtype="DIG" lat="36.2566" lon="23.0621">
    <comp name="--.HHE">
      <acc value="0.0197466722" flag="0"/>
      <vel value="0.0091498381" flag="0"/>
      <psa03 value="0.0414611233" flag="0"/>
      <psa10 value="0.0163509879" flag="0"/>
      <psa30 value="0.0009578902" flag="0"/>
    </comp>
    <comp name="--.HHN">
      <acc value="0.0128696905" flag="0"/>
      <vel value="0.0059834549" flag="0"/>
      <psa03 value="0.0300470887" flag="0"/>
      <psa10 value="0.0095750814" flag="0"/>
      <psa30 value="0.0006941410" flag="0"/>
    </comp>
    <comp name="--.HHZ">
      <acc value="0.0112183085" flag="0"/>
      <vel value="0.0038850929" flag="0"/>
      <psa03 value="0.0177623880" flag="0"/>
      <psa10 value="0.0048088626" flag="0"/>
      <psa30 value="0.0003815088" flag="0"/>
    </comp>
  </station>
  <station code="ACOR" name="ACOR" netid="HA" insttype="Horizon,120s,1200" commtype="DIG" lat="37.8905" lon="22.8694">
    <comp name="--.HHE">
      <acc value="0.0052970604" flag="0"/>
      <vel value="0.0046206414" flag="0"/>
      <psa03 value="0.0123329625" flag="0"/>
      <psa10 value="0.0048628364" flag="0"/>
      <psa30 value="0.0005716653" flag="0"/>
    </comp>
    <comp name="--.HHN">
      <acc value="0.0040842054" flag="0"/>
      <vel value="0.0046670550" flag="0"/>
      <psa03 value="0.0095702272" flag="0"/>
      <psa10 value="0.0111757964" flag="0"/>
      <psa30 value="0.0006698211" flag="0"/>
    </comp>
    <comp name="--.HHZ">
      <acc value="0.0053633167" flag="0"/>
      <vel value="0.0039586391" flag="0"/>
      <psa03 value="0.0119586785" flag="0"/>
      <psa10 value="0.0070632375" flag="0"/>
      <psa30 value="0.0005653956" flag="0"/>
    </comp>
  </station>
  <station code="EPID" name="EPID" netid="HA" insttype="30" commtype="DIG" lat="37.6144" lon="23.1189">
    <comp name="--.HHZ">
      <acc value="0.0112948575" flag="0"/>
      <vel value="0.0045414440" flag="0"/>
      <psa03 value="0.0159352140" flag="0"/>
      <psa10 value="0.0036069895" flag="0"/>
      <psa30 value="0.0012417867" flag="0"/>
    </comp>
    <comp name="--.HHE">
      <acc value="0.0124671852" flag="0"/>
      <vel value="0.0041969486" flag="0"/>
      <psa03 value="0.0217991268" flag="0"/>
      <psa10 value="0.0066808963" flag="0"/>
      <psa30 value="0.0008282676" flag="0"/>
    </comp>
    <comp name="--.HHN">
      <acc value="0.0163714800" flag="0"/>
      <vel value="0.0065797411" flag="0"/>
      <psa03 value="0.0287066250" flag="0"/>
      <psa10 value="0.0045905309" flag="0"/>
      <psa30 value="0.0010283634" flag="0"/>
    </comp>
  </station>
  <station code="AOL1" name="AOL1" netid="HI" insttype="unknown" commtype="DIG" lat="37.6424" lon="21.6246">
    <comp name="--.HNE">
      <acc value="0.0359082756" flag="0"/>
      <vel value="0.0207467226" flag="0"/>
      <psa03 value="0.1127782465" flag="0"/>
      <psa10 value="0.0186678123" flag="0"/>
      <psa30 value="0.0029566179" flag="0"/>
    </comp>
    <comp name="--.HNN">
      <acc value="0.0274264448" flag="0"/>
      <vel value="0.0181279249" flag="0"/>
      <psa03 value="0.0843329522" flag="0"/>
      <psa10 value="0.0316847451" flag="0"/>
      <psa30 value="0.0022940634" flag="0"/>
    </comp>
    <comp name="--.HNZ">
      <acc value="0.0185430106" flag="0"/>
      <vel value="0.0116068697" flag="0"/>
      <psa03 value="0.0375499495" flag="0"/>
      <psa10 value="0.0177895279" flag="0"/>
      <psa30 value="0.0011229509" flag="0"/>
    </comp>
  </station>
  <station code="ARE2" name="ARE2" netid="HI" insttype="unknown" commtype="DIG" lat="36.6663" lon="22.3826">
    <comp name="--.HNE">
      <acc value="0.0980798046" flag="0"/>
      <vel value="0.0482222596" flag="0"/>
      <psa03 value="0.2582844099" flag="0"/>
      <psa10 value="0.0516304458" flag="0"/>
      <psa30 value="0.0022856673" flag="0"/>
    </comp>
    <comp name="--.HNZ">
      <acc value="0.0525893570" flag="0"/>
      <vel value="0.0199809074" flag="0"/>
      <psa03 value="0.0768595519" flag="0"/>
      <psa10 value="0.0120572683" flag="0"/>
      <psa30 value="0.0011865796" flag="0"/>
    </comp>
    <comp name="--.HNN">
      <acc value="0.1007870033" flag="0"/>
      <vel value="0.0472781548" flag="0"/>
      <psa03 value="0.3065579790" flag="0"/>
      <psa10 value="0.0214646727" flag="0"/>
      <psa30 value="0.0020916702" flag="0"/>
    </comp>
  </station>
  <station code="GTH2" name="GTH2" netid="HI" insttype="unknown" commtype="DIG" lat="36.7603" lon="22.5659">
    <comp name="--.HNE">
      <acc value="0.1268912966" flag="0"/>
      <vel value="0.0806200761" flag="0"/>
      <psa03 value="0.3392163874" flag="0"/>
      <psa10 value="0.0519544920" flag="0"/>
      <psa30 value="0.0036994432" flag="0"/>
    </comp>
    <comp name="--.HNZ">
      <acc value="0.0761825589" flag="0"/>
      <vel value="0.0360013395" flag="0"/>
      <psa03 value="0.1330480451" flag="0"/>
      <psa10 value="0.0203313497" flag="0"/>
      <psa30 value="0.0022982355" flag="0"/>
    </comp>
    <comp name="--.HNN">
      <acc value="0.1225819085" flag="0"/>
      <vel value="0.0732022977" flag="0"/>
      <psa03 value="0.3455348270" flag="0"/>
      <psa10 value="0.0610185096" flag="0"/>
      <psa30 value="0.0040879311" flag="0"/>
    </comp>
  </station>
  <station code="KYP2" name="KYP2" netid="HI" insttype="unknown" commtype="DIG" lat="37.2497" lon="21.667">
    <comp name="--.HNE">
      <acc value="0.2100676931" flag="0"/>
      <vel value="0.0449834252" flag="0"/>
      <psa03 value="0.2655253636" flag="0"/>
      <psa10 value="0.0202228597" flag="0"/>
      <psa30 value="0.0021911257" flag="0"/>
    </comp>
    <comp name="--.HNZ">
      <acc value="0.1364859616" flag="0"/>
      <vel value="0.0294225678" flag="0"/>
      <psa03 value="0.1856348728" flag="0"/>
      <psa10 value="0.0128701237" flag="0"/>
      <psa30 value="0.0012019881" flag="0"/>
    </comp>
    <comp name="--.HNN">
      <acc value="0.1781383276" flag="0"/>
      <vel value="0.0418252972" flag="0"/>
      <psa03 value="0.1958458380" flag="0"/>
      <psa10 value="0.0289768373" flag="0"/>
      <psa30 value="0.0023915773" flag="0"/>
    </comp>
  </station>
  <station code="LEO1" name="LEO1" netid="HI" insttype="unknown" commtype="DIG" lat="37.1689" lon="22.8637">
    <comp name="--.HNE">
      <acc value="0.0318130607" flag="0"/>
      <vel value="0.0106635633" flag="0"/>
      <psa03 value="0.0506785658" flag="0"/>
      <psa10 value="0.0145985575" flag="0"/>
      <psa30 value="0.0008689997" flag="0"/>
    </comp>
    <comp name="--.HNN">
      <acc value="0.0279238545" flag="0"/>
      <vel value="0.0129547637" flag="0"/>
      <psa03 value="0.0475984665" flag="0"/>
      <psa10 value="0.0135728039" flag="0"/>
      <psa30 value="0.0010445857" flag="0"/>
    </comp>
    <comp name="--.HNZ">
      <acc value="0.0256959108" flag="0"/>
      <vel value="0.0076652994" flag="0"/>
      <psa03 value="0.0343321569" flag="0"/>
      <psa10 value="0.0066208128" flag="0"/>
      <psa30 value="0.0009970557" flag="0"/>
    </comp>
  </station>
  <station code="PET1" name="PET1" netid="HI" insttype="unknown" commtype="DIG" lat="36.9639" lon="21.9254">
    <comp name="--.HNE">
      <acc value="0.5005115061" flag="0"/>
      <vel value="0.1536660689" flag="0"/>
      <psa03 value="0.4421888171" flag="0"/>
      <psa10 value="0.0870641766" flag="0"/>
      <psa30 value="0.0043716379" flag="0"/>
    </comp>
    <comp name="--.HNN">
      <acc value="0.4871125270" flag="0"/>
      <vel value="0.1548754157" flag="0"/>
      <psa03 value="0.4689617542" flag="0"/>
      <psa10 value="0.0657515057" flag="0"/>
      <psa30 value="0.0046707802" flag="0"/>
    </comp>
    <comp name="--.HNZ">
      <acc value="0.3506521440" flag="0"/>
      <vel value="0.0635546485" flag="0"/>
      <psa03 value="0.2815937470" flag="0"/>
      <psa10 value="0.0269120516" flag="0"/>
      <psa30 value="0.0023292814" flag="0"/>
    </comp>
  </station>
  <station code="PYL1" name="PYL1" netid="HI" insttype="unknown" commtype="DIG" lat="36.9142" lon="21.6952">
    <comp name="--.HNE">
      <acc value="0.4305485744" flag="0"/>
      <vel value="0.2491479910" flag="0"/>
      <psa03 value="0.4221086196" flag="0"/>
      <psa10 value="0.1457551561" flag="0"/>
      <psa30 value="0.0101951193" flag="0"/>
    </comp>
    <comp name="--.HNN">
      <acc value="0.6942800116" flag="0"/>
      <vel value="0.2009796542" flag="0"/>
      <psa03 value="0.6144611015" flag="0"/>
      <psa10 value="0.0982537821" flag="0"/>
      <psa30 value="0.0111474995" flag="0"/>
    </comp>
    <comp name="--.HNZ">
      <acc value="0.3352220480" flag="0"/>
      <vel value="0.1252198694" flag="0"/>
      <psa03 value="0.3192739983" flag="0"/>
      <psa10 value="0.0475749392" flag="0"/>
      <psa30 value="0.0020285592" flag="0"/>
    </comp>
  </station>
  <station code="PYR2" name="PYR2" netid="HI" insttype="unknown" commtype="DIG" lat="37.6671" lon="21.4506">
    <comp name="--.HNZ">
      <acc value="0.0239169236" flag="0"/>
      <vel value="0.0090036155" flag="0"/>
      <psa03 value="0.0347140954" flag="0"/>
      <psa10 value="0.0124903757" flag="0"/>
      <psa30 value="0.0013016444" flag="0"/>
    </comp>
    <comp name="--.HNE">
      <acc value="0.0365394955" flag="0"/>
      <vel value="0.0256465456" flag="0"/>
      <psa03 value="0.1122333116" flag="0"/>
      <psa10 value="0.0196535701" flag="0"/>
      <psa30 value="0.0020149039" flag="0"/>
    </comp>
    <comp name="--.HNN">
      <acc value="0.0465226558" flag="0"/>
      <vel value="0.0289993924" flag="0"/>
      <psa03 value="0.0912357964" flag="0"/>
      <psa10 value="0.0293227177" flag="0"/>
      <psa30 value="0.0025622056" flag="0"/>
    </comp>
  </station>
  <station code="TRP1" name="TRP1" netid="HI" insttype="unknown" commtype="DIG" lat="37.5112" lon="22.3634">
    <comp name="--.HNN">
      <acc value="0.0209415257" flag="0"/>
      <vel value="0.0160709157" flag="0"/>
      <psa03 value="0.0555968408" flag="0"/>
      <psa10 value="0.0229706417" flag="0"/>
      <psa30 value="0.0013063748" flag="0"/>
    </comp>
    <comp name="--.HNE">
      <acc value="0.0185375124" flag="0"/>
      <vel value="0.0121465551" flag="0"/>
      <psa03 value="0.0617755507" flag="0"/>
      <psa10 value="0.0135688865" flag="0"/>
      <psa30 value="0.0010225212" flag="0"/>
    </comp>
    <comp name="--.HNZ">
      <acc value="0.0111715325" flag="0"/>
      <vel value="0.0070072449" flag="0"/>
      <psa03 value="0.0216316813" flag="0"/>
      <psa10 value="0.0080456522" flag="0"/>
      <psa30 value="0.0008740983" flag="0"/>
    </comp>
  </station>
  <station code="ITM" name="ITM" netid="HL" insttype="DR24" commtype="DIG" lat="37.1787" lon="21.9252">
    <comp name="--.HHZ">
      <acc value="0.1339082786" flag="0"/>
      <vel value="0.0179602153" flag="0"/>
      <psa03 value="0.0605877780" flag="0"/>
      <psa10 value="0.0165029799" flag="0"/>
      <psa30 value="0.0010660902" flag="0"/>
    </comp>
    <comp name="--.HHN">
      <acc value="0.0963246405" flag="0"/>
      <vel value="0.0258057709" flag="0"/>
      <psa03 value="0.1412350671" flag="0"/>
      <psa10 value="0.0128367941" flag="0"/>
      <psa30 value="0.0012795924" flag="0"/>
    </comp>
    <comp name="--.HHE">
      <acc value="0.0973939153" flag="0"/>
      <vel value="0.0283344717" flag="0"/>
      <psa03 value="0.1503168705" flag="0"/>
      <psa10 value="0.0191541707" flag="0"/>
      <psa30 value="0.0014190779" flag="0"/>
    </comp>
  </station>
  <station code="KLV" name="KLV" netid="HL" insttype="120" commtype="DIG" lat="38.0435" lon="22.1504">
    <comp name="--.HHE">
      <acc value="0.0066070391" flag="0"/>
      <vel value="0.0059509924" flag="0"/>
      <psa03 value="0.0115578018" flag="0"/>
      <psa10 value="0.0139233477" flag="0"/>
      <psa30 value="0.0007089344" flag="0"/>
    </comp>
    <comp name="--.HHN">
      <acc value="0.0041982448" flag="0"/>
      <vel value="0.0042883264" flag="0"/>
      <psa03 value="0.0135338516" flag="0"/>
      <psa10 value="0.0084138682" flag="0"/>
      <psa30 value="0.0007950575" flag="0"/>
    </comp>
    <comp name="--.HHZ">
      <acc value="0.0047539964" flag="0"/>
      <vel value="0.0054854335" flag="0"/>
      <psa03 value="0.0112229253" flag="0"/>
      <psa10 value="0.0058190337" flag="0"/>
      <psa30 value="0.0009038744" flag="0"/>
    </comp>
  </station>
  <station code="VLI" name="VLI" netid="HL" insttype="60" commtype="DIG" lat="36.718" lon="22.9469">
    <comp name="--.HHE">
      <acc value="0.0307401339" flag="0"/>
      <vel value="0.0240632948" flag="0"/>
      <psa03 value="0.0555593966" flag="0"/>
      <psa10 value="0.0329562106" flag="0"/>
      <psa30 value="0.0013426319" flag="0"/>
    </comp>
    <comp name="--.HHN">
      <acc value="0.0230355011" flag="0"/>
      <vel value="0.0132998456" flag="0"/>
      <psa03 value="0.0767329407" flag="0"/>
      <psa10 value="0.0174617407" flag="0"/>
      <psa30 value="0.0016890726" flag="0"/>
    </comp>
    <comp name="--.HHZ">
      <acc value="0.0217443728" flag="0"/>
      <vel value="0.0084731912" flag="0"/>
      <psa03 value="0.0583248382" flag="0"/>
      <psa10 value="0.0074045358" flag="0"/>
      <psa30 value="0.0006716692" flag="0"/>
    </comp>
  </station>
  <station code="ZARA" name="ZARA" netid="HL" insttype="CMG-5" commtype="DIG" lat="37.4865" lon="21.6491">
    <comp name="00.HNE">
      <acc value="0.1255868886" flag="0"/>
      <vel value="0.0806136949" flag="0"/>
      <psa03 value="0.3084341657" flag="0"/>
      <psa10 value="0.0393575804" flag="0"/>
      <psa30 value="0.0038397309" flag="0"/>
    </comp>
    <comp name="00.HNZ">
      <acc value="0.0329058220" flag="0"/>
      <vel value="0.0152705345" flag="0"/>
      <psa03 value="0.0603797032" flag="0"/>
      <psa10 value="0.0174604614" flag="0"/>
      <psa30 value="0.0017345696" flag="0"/>
    </comp>
    <comp name="00.HNN">
      <acc value="0.0709966744" flag="0"/>
      <vel value="0.0391850390" flag="0"/>
      <psa03 value="0.2216423917" flag="0"/>
      <psa10 value="0.0326291069" flag="0"/>
      <psa30 value="0.0017582387" flag="0"/>
    </comp>
  </station>
  <station code="AMT" name="AMT" netid="HP" insttype="CMG-3T," commtype="DIG" lat="37.5324" lon="21.7089">
    <comp name="00.HHE">
      <acc value="0.0507684743" flag="0"/>
      <vel value="0.0389041785" flag="0"/>
      <psa03 value="0.1200241529" flag="0"/>
      <psa10 value="0.0525245673" flag="0"/>
      <psa30 value="0.0030452981" flag="0"/>
    </comp>
    <comp name="00.HHN">
      <acc value="0.0548727784" flag="0"/>
      <vel value="0.0364361786" flag="0"/>
      <psa03 value="0.0938886573" flag="0"/>
      <psa10 value="0.0464303270" flag="0"/>
      <psa30 value="0.0015689396" flag="0"/>
    </comp>
    <comp name="00.HHZ">
      <acc value="0.0422328213" flag="0"/>
      <vel value="0.0235680823" flag="0"/>
      <psa03 value="0.1368988722" flag="0"/>
      <psa10 value="0.0130821125" flag="0"/>
      <psa30 value="0.0013645386" flag="0"/>
    </comp>
  </station>
  <station code="DRO" name="DRO" netid="HP" insttype="120P," commtype="DIG" lat="37.952" lon="21.71">
    <comp name="--.HHE">
      <acc value="0.0272997780" flag="0"/>
      <vel value="0.0224999871" flag="0"/>
      <psa03 value="0.0758363412" flag="0"/>
      <psa10 value="0.0366318328" flag="0"/>
      <psa30 value="0.0020426087" flag="0"/>
    </comp>
    <comp name="--.HHN">
      <acc value="0.0263726874" flag="0"/>
      <vel value="0.0211724637" flag="0"/>
      <psa03 value="0.0677579439" flag="0"/>
      <psa10 value="0.0158398063" flag="0"/>
      <psa30 value="0.0016596773" flag="0"/>
    </comp>
    <comp name="--.HHZ">
      <acc value="0.0157285177" flag="0"/>
      <vel value="0.0142731911" flag="0"/>
      <psa03 value="0.0450695023" flag="0"/>
      <psa10 value="0.0219771489" flag="0"/>
      <psa30 value="0.0012829306" flag="0"/>
    </comp>
  </station>
  <station code="GUR" name="GUR" netid="HP" insttype="40," commtype="DIG" lat="37.9363" lon="22.3423">
    <comp name="--.HHZ">
      <acc value="0.0094447108" flag="0"/>
      <vel value="0.0070653014" flag="0"/>
      <psa03 value="0.0202810407" flag="0"/>
      <psa10 value="0.0134897645" flag="0"/>
      <psa30 value="0.0010386640" flag="0"/>
    </comp>
    <comp name="--.HHE">
      <acc value="0.0229224824" flag="0"/>
      <vel value="0.0179616983" flag="0"/>
      <psa03 value="0.0457284703" flag="0"/>
      <psa10 value="0.0327231868" flag="0"/>
      <psa30 value="0.0015130239" flag="0"/>
    </comp>
    <comp name="--.HHN">
      <acc value="0.0242976538" flag="0"/>
      <vel value="0.0170429847" flag="0"/>
      <psa03 value="0.0796287180" flag="0"/>
      <psa10 value="0.0206687324" flag="0"/>
      <psa30 value="0.0010691933" flag="0"/>
    </comp>
  </station>
  <station code="PYL" name="PYL" netid="HP" insttype="Horizon" commtype="DIG" lat="36.8955" lon="21.742">
    <comp name="--.HHE">
      <acc value="0.8678622310" flag="0"/>
      <vel value="0.1852847928" flag="0"/>
      <psa03 value="0.5283462702" flag="0"/>
      <psa10 value="0.1228923178" flag="0"/>
      <psa30 value="0.0095758548" flag="0"/>
    </comp>
    <comp name="--.HHN">
      <acc value="0.8441623443" flag="0"/>
      <vel value="0.2627002116" flag="0"/>
      <psa03 value="0.7443842297" flag="0"/>
      <psa10 value="0.1370568297" flag="0"/>
      <psa30 value="0.0113410379" flag="0"/>
    </comp>
    <comp name="--.HHZ">
      <acc value="0.3169392300" flag="0"/>
      <vel value="0.0824218977" flag="0"/>
      <psa03 value="0.1956731425" flag="0"/>
      <psa10 value="0.0317060322" flag="0"/>
      <psa30 value="0.0017102209" flag="0"/>
    </comp>
  </station>
  <station code="VALY" name="VALY" netid="HP" insttype="DC_100" commtype="DIG" lat="37.1641" lon="21.9836">
    <comp name="--.HNE">
      <acc value="0.0781693050" flag="0"/>
      <vel value="0.0272301031" flag="0"/>
      <psa03 value="0.1130830982" flag="0"/>
      <psa10 value="0.0267621590" flag="0"/>
      <psa30 value="0.0015947239" flag="0"/>
    </comp>
    <comp name="--.HNZ">
      <acc value="0.0656947005" flag="0"/>
      <vel value="0.0225265102" flag="0"/>
      <psa03 value="0.0489821525" flag="0"/>
      <psa10 value="0.0149002625" flag="0"/>
      <psa30 value="0.0010858576" flag="0"/>
    </comp>
    <comp name="--.HNN">
      <acc value="0.1082651317" flag="0"/>
      <vel value="0.0357561993" flag="0"/>
      <psa03 value="0.1150708744" flag="0"/>
      <psa10 value="0.0146888005" flag="0"/>
      <psa30 value="0.0011455252" flag="0"/>
    </comp>
  </station>
  <station code="VLX" name="VLX" netid="HP" insttype="40," commtype="DIG" lat="37.3703" lon="22.3793">
    <comp name="--.HHE">
