<?xml version="1.0" encoding="UTF-8" standalone="yes"?>
<!DOCTYPE earthquake SYSTEM "stationlist.dtd">
<stationlist created="" xmlns="ch.ethz.sed.shakemap.usgs.xml">
  <station code="KTHA" name="KTHA" netid="GE" insttype="STS-2/N" commtype="DIG" lat="36.2566" lon="23.0621">
    <comp name="--.HHZ">
      <acc value="0.0112183085" flag="0"/>
      <vel value="0.0038850923" flag="0"/>
      <psa03 value="0.0177623880" flag="0"/>
      <psa10 value="0.0048088625" flag="0"/>
      <psa30 value="0.0003815406" flag="0"/>
    </comp>
    <comp name="--.HHN">
      <acc value="0.0128696907" flag="0"/>
      <vel value="0.0059834539" flag="0"/>
      <psa03 value="0.0300470887" flag="0"/>
      <psa10 value="0.0095750813" flag="0"/>
      <psa30 value="0.0006941314" flag="0"/>
    </comp>
    <comp name="--.HHE">
      <acc value="0.0197466721" flag="0"/>
      <vel value="0.0091498377" flag="0"/>
      <psa03 value="0.0414611233" flag="0"/>
      <psa10 value="0.0163509878" flag="0"/>
      <psa30 value="0.0009578932" flag="0"/>
    </comp>
  </station>
</stationlist>
