<stationlist created="1779846963">
	<station code="AGRP" name="AGRP" netid="CL" source="Corinth Riff Laboratory (CRLNET)" insttype="" lat="38.3959" lon="21.72277">
		<comp name="00.HNE" depth="0.0">
			<acc value="0.00339717512007822" flag="0"/>
			<vel value="0.00316975733295547" flag="0"/>
			<psa03 value="0.00987274516676435" flag="0"/>
			<psa10 value="0.00485488364345218" flag="0"/>
			<psa30 value="0.000570730099734016" flag="0"/>
		</comp>
		<comp name="00.HNN" depth="0.0">
			<acc value="0.00424346779004375" flag="0"/>
			<vel value="0.00415989761035997" flag="0"/>
			<psa03 value="0.0131106745074132" flag="0"/>
			<psa10 value="0.00557711820672767" flag="0"/>
			<psa30 value="0.000530533061879389" flag="0"/>
		</comp>
		<comp name="00.HNZ" depth="0.0">
			<acc value="0.00210334918557153" flag="0"/>
			<vel value="0.0019536955836431" flag="0"/>
			<psa03 value="0.00460512114738426" flag="0"/>
			<psa10 value="0.00229300994753219" flag="0"/>
			<psa30 value="0.000495444279087267" flag="0"/>
		</comp>
	</station>
	<station code="MALA" name="MALA" netid="CL" source="Corinth Riff Laboratory (CRLNET)" insttype="" lat="38.39341" lon="21.87263">
		<comp name="01.HNE" depth="0.0">
			<acc value="0.00957221846283322" flag="0"/>
			<vel value="0.01144948252993" flag="0"/>
			<psa03 value="0.0147682999419555" flag="0"/>
			<psa10 value="0.0165903152769629" flag="0"/>
			<psa30 value="0.00229243019558104" flag="0"/>
		</comp>
		<comp name="01.HNN" depth="0.0">
			<acc value="0.0076470761061857" flag="0"/>
			<vel value="0.0105759903749801" flag="0"/>
			<psa03 value="0.0133083373411812" flag="0"/>
			<psa10 value="0.0233359846444613" flag="0"/>
			<psa30 value="0.00142400891693627" flag="0"/>
		</comp>
		<comp name="01.HNZ" depth="0.0">
			<acc value="0.00775134424428544" flag="0"/>
			<vel value="0.00317254717002442" flag="0"/>
			<psa03 value="0.00648103936310255" flag="0"/>
			<psa10 value="0.00620632691993264" flag="0"/>
			<psa30 value="0.000520480833468313" flag="0"/>
		</comp>
	</station>
	<station code="TRIZ" name="TRIZ" netid="CL" source="Corinth Riff Laboratory (CRLNET)" insttype="" lat="38.36543" lon="22.07272">
		<comp name="00.HNE" depth="0.0">
			<acc value="0.00465250316410038" flag="0"/>
			<vel value="0.00502536919614268" flag="0"/>
			<psa03 value="0.00992188514079889" flag="0"/>
			<psa10 value="0.00662509747395162" flag="0"/>
			<psa30 value="0.00105796654342289" flag="0"/>
		</comp>
		<comp name="00.HNN" depth="0.0">
			<acc value="0.00613938949486934" flag="0"/>
			<vel value="0.00473912509288916" flag="0"/>
			<psa03 value="0.0160232854223732" flag="0"/>
			<psa10 value="0.00623850170763023" flag="0"/>
			<psa30 value="0.00166015445625048" flag="0"/>
		</comp>
		<comp name="00.HNZ" depth="0.0">
			<acc value="0.00271258151656793" flag="0"/>
			<vel value="0.00282194432522255" flag="0"/>
			<psa03 value="0.00692340069860717" flag="0"/>
			<psa10 value="0.00397337368525584" flag="0"/>
			<psa30 value="0.00122867649795286" flag="0"/>
		</comp>
	</station>
	<station code="KTHA" name="KTHA" netid="GE" source="GEOFON" insttype="" lat="36.2566" lon="23.0621">
		<comp name="--.HNE" depth="0.0">
			<acc value="0.0186212796753732" flag="0"/>
			<vel value="0.00871196361880159" flag="0"/>
			<psa03 value="0.0410234050992586" flag="0"/>
			<psa10 value="0.0165556967336393" flag="0"/>
			<psa30 value="0.00206702484691839" flag="0"/>
		</comp>
		<comp name="--.HNN" depth="0.0">
			<acc value="0.0120100117265604" flag="0"/>
			<vel value="0.00531697392267314" flag="0"/>
			<psa03 value="0.0313674867962094" flag="0"/>
			<psa10 value="0.00754197790025786" flag="0"/>
			<psa30 value="0.00316458484654909" flag="0"/>
		</comp>
		<comp name="--.HNZ" depth="0.0">
			<acc value="0.0105969067499645" flag="0"/>
			<vel value="0.00381519396494313" flag="0"/>
			<psa03 value="0.017946414122273" flag="0"/>
			<psa10 value="0.00538362460744398" flag="0"/>
			<psa30 value="0.00077306574306083" flag="0"/>
		</comp>
	</station>
	<station code="ATHU" name="ATHU" netid="HA" source="Hellenic Seismological Network, University of Athens, Seismological Laboratory (HA)" insttype="" lat="37.9665" lon="23.7845">
		<comp name="--.HNE" depth="0.0">
			<acc value="0.000133137566384229" flag="0"/>
			<vel value="0.000367235144488115" flag="0"/>
			<psa03 value="0.000173123895366033" flag="0"/>
			<psa10 value="9.2978642288994e-05" flag="0"/>
			<psa30 value="5.27441483378434e-05" flag="0"/>
		</comp>
		<comp name="--.HNN" depth="0.0">
			<acc value="0.000197324021898474" flag="0"/>
			<vel value="0.000368365369663942" flag="0"/>
			<psa03 value="0.000244001454426044" flag="0"/>
			<psa10 value="7.93821898328311e-05" flag="0"/>
			<psa30 value="5.0966644519138e-05" flag="0"/>
		</comp>
		<comp name="--.HNZ" depth="0.0">
			<acc value="0.000153801955687459" flag="0"/>
			<vel value="0.000285105413752777" flag="0"/>
			<psa03 value="0.000234777515748997" flag="0"/>
			<psa10 value="0.00014476572771439" flag="0"/>
			<psa30 value="5.43229020112771e-05" flag="0"/>
		</comp>
	</station>
	<station code="KIAS" name="KIAS" netid="HA" source="Hellenic Seismological Network, University of Athens, Seismological Laboratory (HA)" insttype="" lat="37.9875" lon="22.7543">
		<comp name="--.HNE" depth="0.0">
			<acc value="0.0161130458794463" flag="0"/>
			<vel value="0.0138802520910105" flag="0"/>
			<psa03 value="0.0355770755566382" flag="0"/>
			<psa10 value="0.0239223397375936" flag="0"/>
			<psa30 value="0.00276564196020547" flag="0"/>
		</comp>
		<comp name="--.HNN" depth="0.0">
			<acc value="0.0184908178308895" flag="0"/>
			<vel value="0.0144859323382416" flag="0"/>
			<psa03 value="0.0303937243725855" flag="0"/>
			<psa10 value="0.0291106565631355" flag="0"/>
			<psa30 value="0.0027830983249386" flag="0"/>
		</comp>
		<comp name="--.HNZ" depth="0.0">
			<acc value="0.0107296732638435" flag="0"/>
			<vel value="0.0110732821572603" flag="0"/>
			<psa03 value="0.0184785066624488" flag="0"/>
			<psa10 value="0.0160798633370463" flag="0"/>
			<psa30 value="0.00221748439745872" flag="0"/>
		</comp>
	</station>
	<station code="AGR3" name="AGR3" netid="HI" source="ITSAK Strong Motion Network" insttype="" lat="38.5893" lon="21.4162">
		<comp name="--.HNE" depth="0.0">
			<acc value="0.00920956601228028" flag="0"/>
			<vel value="0.010169634532081" flag="0"/>
			<psa03 value="0.0126377864100949" flag="0"/>
			<psa10 value="0.0140872166464788" flag="0"/>
			<psa30 value="0.00199983206239369" flag="0"/>
		</comp>
		<comp name="--.HNN" depth="0.0">
			<acc value="0.0068162399999723" flag="0"/>
			<vel value="0.00630400032275223" flag="0"/>
			<psa03 value="0.0147386964183944" flag="0"/>
			<psa10 value="0.0142736621225835" flag="0"/>
			<psa30 value="0.00129821131262976" flag="0"/>
		</comp>
		<comp name="--.HNZ" depth="0.0">
			<acc value="0.00605713548198453" flag="0"/>
			<vel value="0.00488384673056457" flag="0"/>
			<psa03 value="0.00833054990490494" flag="0"/>
			<psa10 value="0.00998762131840262" flag="0"/>
			<psa30 value="0.00102810654451342" flag="0"/>
		</comp>
	</station>
	<station code="AIG2" name="AIG2" netid="HI" source="ITSAK Strong Motion Network" insttype="" lat="38.2417" lon="22.0726">
		<comp name="--.HNE" depth="0.0">
			<acc value="0.00663502124940017" flag="0"/>
			<vel value="0.00872008562529209" flag="0"/>
			<psa03 value="0.0123413149473647" flag="0"/>
			<psa10 value="0.0110556864474489" flag="0"/>
			<psa30 value="0.00185928379342779" flag="0"/>
		</comp>
		<comp name="--.HNN" depth="0.0">
			<acc value="0.00933073787470583" flag="0"/>
			<vel value="0.00826332254655" flag="0"/>
			<psa03 value="0.0212919339236106" flag="0"/>
			<psa10 value="0.0107905288820842" flag="0"/>
			<psa30 value="0.00111611799983881" flag="0"/>
		</comp>
		<comp name="--.HNZ" depth="0.0">
			<acc value="0.00471555669737608" flag="0"/>
			<vel value="0.00425646202593169" flag="0"/>
			<psa03 value="0.00758423679347511" flag="0"/>
			<psa10 value="0.00608152755884586" flag="0"/>
			<psa30 value="0.00124255981348754" flag="0"/>
		</comp>
	</station>
	<station code="AKR1" name="AKR1" netid="HI" source="ITSAK Strong Motion Network" insttype="" lat="38.153583" lon="22.31326">
		<comp name="--.HNE" depth="0.0">
			<acc value="0.0172172349806821" flag="0"/>
			<vel value="0.0128737197526442" flag="0"/>
			<psa03 value="0.0433154866259286" flag="0"/>
			<psa10 value="0.0236525806173946" flag="0"/>
			<psa30 value="0.00222852596224056" flag="0"/>
		</comp>
		<comp name="--.HNN" depth="0.0">
			<acc value="0.0119700694706693" flag="0"/>
			<vel value="0.00985170685743737" flag="0"/>
			<psa03 value="0.0343714956929236" flag="0"/>
			<psa10 value="0.012516946373779" flag="0"/>
			<psa30 value="0.00103571027738965" flag="0"/>
		</comp>
		<comp name="--.HNZ" depth="0.0">
			<acc value="0.00539223444509054" flag="0"/>
			<vel value="0.00549092810173905" flag="0"/>
			<psa03 value="0.0146974567072797" flag="0"/>
			<psa10 value="0.0132758053944614" flag="0"/>
			<psa30 value="0.000777154763940766" flag="0"/>
		</comp>
	</station>
	<station code="AOL1" name="AOL1" netid="HI" source="ITSAK Strong Motion Network" insttype="" lat="37.642378" lon="21.624555">
		<comp name="--.HNE" depth="0.0">
			<acc value="0.0358460937109364" flag="0"/>
			<vel value="0.0207001005677675" flag="0"/>
			<psa03 value="0.11142831907947" flag="0"/>
			<psa10 value="0.0187134509242708" flag="0"/>
			<psa30 value="0.00324927774870519" flag="0"/>
		</comp>
		<comp name="--.HNN" depth="0.0">
			<acc value="0.027543051100361" flag="0"/>
			<vel value="0.0183551382839027" flag="0"/>
			<psa03 value="0.0845712743067295" flag="0"/>
			<psa10 value="0.0316881554347819" flag="0"/>
			<psa30 value="0.00239686086360367" flag="0"/>
		</comp>
		<comp name="--.HNZ" depth="0.0">
			<acc value="0.0184228331881668" flag="0"/>
			<vel value="0.0117658591213697" flag="0"/>
			<psa03 value="0.0373952454806312" flag="0"/>
			<psa10 value="0.0177966651917174" flag="0"/>
			<psa30 value="0.00120778448896194" flag="0"/>
		</comp>
	</station>
	<station code="ARE2" name="ARE2" netid="HI" source="ITSAK Strong Motion Network" insttype="" lat="36.66629" lon="22.382635">
		<comp name="--.HNE" depth="0.0">
			<acc value="0.0972879216896815" flag="0"/>
			<vel value="0.0485000403344679" flag="0"/>
			<psa03 value="0.254986058241551" flag="0"/>
			<psa10 value="0.0516580708437136" flag="0"/>
			<psa30 value="0.00236730432229456" flag="0"/>
		</comp>
		<comp name="--.HNN" depth="0.0">
			<acc value="0.0998088727020091" flag="0"/>
			<vel value="0.0476346107037677" flag="0"/>
			<psa03 value="0.309496460955021" flag="0"/>
			<psa10 value="0.0215549054066792" flag="0"/>
			<psa30 value="0.00211309727399226" flag="0"/>
		</comp>
		<comp name="--.HNZ" depth="0.0">
			<acc value="0.0518688671353395" flag="0"/>
			<vel value="0.0197588768251974" flag="0"/>
			<psa03 value="0.0775593670942895" flag="0"/>
			<psa10 value="0.0120548988903776" flag="0"/>
			<psa30 value="0.00123386684178793" flag="0"/>
		</comp>
	</station>
	<station code="ARG2" name="ARG2" netid="HI" source="ITSAK Strong Motion Network" insttype="" lat="38.1783" lon="20.4878">
		<comp name="--.HNE" depth="0.0">
			<acc value="0.00824362463718502" flag="0"/>
			<vel value="0.00319473497194938" flag="0"/>
			<psa03 value="0.00884868318703724" flag="0"/>
			<psa10 value="0.00424431319618877" flag="0"/>
			<psa30 value="0.000309745987901738" flag="0"/>
		</comp>
		<comp name="--.HNN" depth="0.0">
			<acc value="0.0069380878246652" flag="0"/>
			<vel value="0.00375461767973411" flag="0"/>
			<psa03 value="0.00998636792807856" flag="0"/>
			<psa10 value="0.00483859772086224" flag="0"/>
			<psa30 value="0.000424197736434895" flag="0"/>
		</comp>
		<comp name="--.HNZ" depth="0.0">
			<acc value="0.0115932042568679" flag="0"/>
			<vel value="0.00149445422200742" flag="0"/>
			<psa03 value="0.00692762168133252" flag="0"/>
			<psa10 value="0.00250921856716412" flag="0"/>
			<psa30 value="0.000293940565869852" flag="0"/>
		</comp>
	</station>
	<station code="ARS1" name="ARS1" netid="HI" source="ITSAK Strong Motion Network" insttype="" lat="37.6349" lon="22.7293">
		<comp name="--.HNE" depth="0.0">
			<acc value="0.0275144266954822" flag="0"/>
			<vel value="0.0268990074485825" flag="0"/>
			<psa03 value="0.0526002813854189" flag="0"/>
			<psa10 value="0.0327747299149939" flag="0"/>
			<psa30 value="0.00181561652568362" flag="0"/>
		</comp>
		<comp name="--.HNN" depth="0.0">
			<acc value="0.0179430400475326" flag="0"/>
			<vel value="0.0175350219752217" flag="0"/>
			<psa03 value="0.0548848285590329" flag="0"/>
			<psa10 value="0.0302440453945729" flag="0"/>
			<psa30 value="0.0022921943466271" flag="0"/>
		</comp>
		<comp name="--.HNZ" depth="0.0">
			<acc value="0.0150381557028483" flag="0"/>
			<vel value="0.00903866365396579" flag="0"/>
			<psa03 value="0.0414330390063092" flag="0"/>
			<psa10 value="0.012025732270746" flag="0"/>
			<psa30 value="0.00192593779226012" flag="0"/>
		</comp>
	</station>
	<station code="AST1" name="AST1" netid="HI" source="ITSAK Strong Motion Network" insttype="" lat="38.5416" lon="21.0895">
		<comp name="--.HNE" depth="0.0">
			<acc value="0.00355219473023136" flag="0"/>
			<vel value="0.00275757553815104" flag="0"/>
			<psa03 value="0.00853040494120628" flag="0"/>
			<psa10 value="0.00555038502952712" flag="0"/>
			<psa30 value="0.000677299190663271" flag="0"/>
		</comp>
		<comp name="--.HNN" depth="0.0">
			<acc value="0.00385750246904314" flag="0"/>
			<vel value="0.00278641323314571" flag="0"/>
			<psa03 value="0.00634139078913852" flag="0"/>
			<psa10 value="0.00571590177542775" flag="0"/>
			<psa30 value="0.000344148553360959" flag="0"/>
		</comp>
		<comp name="--.HNZ" depth="0.0">
			<acc value="0.00302798116379717" flag="0"/>
			<vel value="0.00206263933036931" flag="0"/>
			<psa03 value="0.00576896810332979" flag="0"/>
			<psa10 value="0.0033620304523921" flag="0"/>
			<psa30 value="0.000227202264576725" flag="0"/>
		</comp>
	</station>
	<station code="ATH5" name="ATH5" netid="HI" source="ITSAK Strong Motion Network" insttype="" lat="37.975421" lon="23.737098">
		<comp name="--.HNE" depth="0.0">
			<acc value="0.00272497980406381" flag="0"/>
			<vel value="0.002319337588214" flag="0"/>
			<psa03 value="0.00669616559330671" flag="0"/>
			<psa10 value="0.00229913269688275" flag="0"/>
			<psa30 value="0.000482350078325033" flag="0"/>
		</comp>
		<comp name="--.HNN" depth="0.0">
			<acc value="0.00292452877319795" flag="0"/>
			<vel value="0.00218610216115517" flag="0"/>
			<psa03 value="0.00710257011978385" flag="0"/>
			<psa10 value="0.00352199894014493" flag="0"/>
			<psa30 value="0.000324201138192804" flag="0"/>
		</comp>
		<comp name="--.HNZ" depth="0.0">
			<acc value="0.00247715397911206" flag="0"/>
			<vel value="0.00138006663993941" flag="0"/>
			<psa03 value="0.0035767730764754" flag="0"/>
			<psa10 value="0.0027106962109456" flag="0"/>
			<psa30 value="0.00038527877803649" flag="0"/>
		</comp>
	</station>
	<station code="GTH2" name="GTH2" netid="HI" source="ITSAK Strong Motion Network" insttype="" lat="36.7603" lon="22.5659">
		<comp name="--.HNE" depth="0.0">
			<acc value="0.127038985440952" flag="0"/>
			<vel value="0.0809077419431732" flag="0"/>
			<psa03 value="0.335500016896167" flag="0"/>
			<psa10 value="0.0520511718848443" flag="0"/>
			<psa30 value="0.0037078181247553" flag="0"/>
		</comp>
		<comp name="--.HNN" depth="0.0">
			<acc value="0.121431357764509" flag="0"/>
			<vel value="0.0735526629617072" flag="0"/>
			<psa03 value="0.347062470352161" flag="0"/>
			<psa10 value="0.0611674482933607" flag="0"/>
			<psa30 value="0.00418944878041991" flag="0"/>
		</comp>
		<comp name="--.HNZ" depth="0.0">
			<acc value="0.0759240046793604" flag="0"/>
			<vel value="0.0370241655056974" flag="0"/>
			<psa03 value="0.135283607708195" flag="0"/>
			<psa10 value="0.0203247845422127" flag="0"/>
			<psa30 value="0.00238266117294169" flag="0"/>
		</comp>
	</station>
	<station code="KAC1" name="KAC1" netid="HI" source="ITSAK Strong Motion Network" insttype="" lat="38.143412" lon="21.549694">
		<comp name="--.HNE" depth="0.0">
			<acc value="0.0154188913802619" flag="0"/>
			<vel value="0.018580120959684" flag="0"/>
			<psa03 value="0.0391293004574299" flag="0"/>
			<psa10 value="0.0319910667511528" flag="0"/>
			<psa30 value="0.00273892519035239" flag="0"/>
		</comp>
		<comp name="--.HNN" depth="0.0">
			<acc value="0.0176701979910446" flag="0"/>
			<vel value="0.0181284802509833" flag="0"/>
			<psa03 value="0.058345745327401" flag="0"/>
			<psa10 value="0.0320320307148445" flag="0"/>
			<psa30 value="0.00360217612648995" flag="0"/>
		</comp>
		<comp name="--.HNZ" depth="0.0">
			<acc value="0.00739565580784189" flag="0"/>
			<vel value="0.00879396569654922" flag="0"/>
			<psa03 value="0.016282370293808" flag="0"/>
			<psa10 value="0.021324585774169" flag="0"/>
			<psa30 value="0.00218000899822989" flag="0"/>
		</comp>
	</station>
	<station code="KIF1" name="KIF1" netid="HI" source="ITSAK Strong Motion Network" insttype="" lat="38.077273" lon="23.814551">
		<comp name="--.HNE" depth="0.0">
			<acc value="0.00504885213319032" flag="0"/>
			<vel value="0.0026231023919979" flag="0"/>
			<psa03 value="0.00613412510567397" flag="0"/>
			<psa10 value="0.00652846388495366" flag="0"/>
			<psa30 value="0.000519391438382784" flag="0"/>
		</comp>
		<comp name="--.HNN" depth="0.0">
			<acc value="0.00296392941063651" flag="0"/>
			<vel value="0.00249006583098947" flag="0"/>
			<psa03 value="0.00570554593314522" flag="0"/>
			<psa10 value="0.00582662129754862" flag="0"/>
			<psa30 value="0.000816512579532256" flag="0"/>
		</comp>
		<comp name="--.HNZ" depth="0.0">
			<acc value="0.00613757812706565" flag="0"/>
			<vel value="0.00193611317566376" flag="0"/>
			<psa03 value="0.00480882214157506" flag="0"/>
			<psa10 value="0.00335117113926639" flag="0"/>
			<psa30 value="0.000288082651770397" flag="0"/>
		</comp>
	</station>
	<station code="KLV1" name="KLV1" netid="HI" source="ITSAK Strong Motion Network" insttype="" lat="38.03256" lon="22.10797">
		<comp name="--.HNE" depth="0.0">
			<acc value="0.0151193067168656" flag="0"/>
			<vel value="0.0107668080039273" flag="0"/>
			<psa03 value="0.0628958592502775" flag="0"/>
			<psa10 value="0.0197476456846223" flag="0"/>
			<psa30 value="0.000715339575238119" flag="0"/>
		</comp>
		<comp name="--.HNN" depth="0.0">
			<acc value="0.0169879950088232" flag="0"/>
			<vel value="0.0134598781710293" flag="0"/>
			<psa03 value="0.0389955129488659" flag="0"/>
			<psa10 value="0.0188621801518708" flag="0"/>
			<psa30 value="0.00109417956735879" flag="0"/>
		</comp>
		<comp name="--.HNZ" depth="0.0">
			<acc value="0.00757327823274609" flag="0"/>
			<vel value="0.00598562548281601" flag="0"/>
			<psa03 value="0.0145540005894294" flag="0"/>
			<psa10 value="0.0129132426264417" flag="0"/>
			<psa30 value="0.000749028890320962" flag="0"/>
		</comp>
	</station>
	<station code="KOR2" name="KOR2" netid="HI" source="ITSAK Strong Motion Network" insttype="" lat="37.9401" lon="22.9495">
		<comp name="--.HNE" depth="0.0">
			<acc value="0.0169893015706188" flag="0"/>
			<vel value="0.019177001911062" flag="0"/>
			<psa03 value="0.0485621284611206" flag="0"/>
			<psa10 value="0.0317170811009733" flag="0"/>
			<psa30 value="0.00156923437074326" flag="0"/>
		</comp>
		<comp name="--.HNN" depth="0.0">
			<acc value="0.0154359303269534" flag="0"/>
			<vel value="0.0129278092892804" flag="0"/>
			<psa03 value="0.0440343597685669" flag="0"/>
			<psa10 value="0.0249011789558824" flag="0"/>
			<psa30 value="0.00160731428918289" flag="0"/>
		</comp>
		<comp name="--.HNZ" depth="0.0">
			<acc value="0.0158513788949129" flag="0"/>
			<vel value="0.0134634687129491" flag="0"/>
			<psa03 value="0.0299827804828966" flag="0"/>
			<psa10 value="0.0208642484040782" flag="0"/>
			<psa30 value="0.000695022135557323" flag="0"/>
		</comp>
	</station>
