<stationlist xmlns:esm="https://esm-db.eu/esmws/shakemap/1/" created="1781747640">
	<station code="TRIZ" name="TRIZ" netid="CL" source="Corinth Riff Laboratory (CRLNET)" insttype="" lat="38.36543" lon="22.07272" esm:processing="automatic (Paolucci et al 2011)" esm:quality="best">
		<comp name="00.HNE" depth="0.0">
			<acc value="0.0394376509333827" flag="0"/>
			<vel value="0.0356509089803768" flag="0"/>
			<psa03 value="0.0959788164588841" flag="0"/>
			<psa10 value="0.0650738233214293" flag="0"/>
			<psa30 value="0.00904861942662869" flag="0"/>
		</comp>
		<comp name="00.HNN" depth="0.0">
			<acc value="0.0443549106530065" flag="0"/>
			<vel value="0.0470014087191977" flag="0"/>
			<psa03 value="0.163560762181113" flag="0"/>
			<psa10 value="0.0773928193944606" flag="0"/>
			<psa30 value="0.0094899761643465" flag="0"/>
		</comp>
		<comp name="00.HNZ" depth="0.0">
			<acc value="0.027208491909611" flag="0"/>
			<vel value="0.0267485073463746" flag="0"/>
			<psa03 value="0.0555961569308782" flag="0"/>
			<psa10 value="0.0471076093979304" flag="0"/>
			<psa30 value="0.00633294202632877" flag="0"/>
		</comp>
	</station>
	<station code="AIG2" name="AIG2" netid="HI" source="ITSAK Strong Motion Network" insttype="" lat="38.2417" lon="22.0726" esm:processing="automatic (Paolucci et al 2011)" esm:quality="best">
		<comp name="--.HNE" depth="0.0">
			<acc value="0.0817732255120188" flag="0"/>
			<vel value="0.0660061496391273" flag="0"/>
			<psa03 value="0.312243184578568" flag="0"/>
			<psa10 value="0.0634617565299159" flag="0"/>
			<psa30 value="0.0115479608290638" flag="0"/>
		</comp>
		<comp name="--.HNN" depth="0.0">
			<acc value="0.1140248736208" flag="0"/>
			<vel value="0.101560510260385" flag="0"/>
			<psa03 value="0.23349332195332" flag="0"/>
			<psa10 value="0.155681168113344" flag="0"/>
			<psa30 value="0.0142437019086803" flag="0"/>
		</comp>
		<comp name="--.HNZ" depth="0.0">
			<acc value="0.0434039421199617" flag="0"/>
			<vel value="0.0327109909228027" flag="0"/>
			<psa03 value="0.138345623051895" flag="0"/>
			<psa10 value="0.0705696098903175" flag="0"/>
			<psa30 value="0.00626959949686373" flag="0"/>
		</comp>
	</station>
	<station code="AKR1" name="AKR1" netid="HI" source="ITSAK Strong Motion Network" insttype="" lat="38.153583" lon="22.31326" esm:processing="manual (Paolucci et al 2011)" esm:quality="good">
		<comp name="--.HNE" depth="0.0">
			<acc value="0.107619924715891" flag="0"/>
			<vel value="0.0873155021655136" flag="0"/>
			<psa03 value="0.360257115265836" flag="0"/>
			<psa10 value="0.165666084565055" flag="0"/>
			<psa30 value="0.0085756830969179" flag="0"/>
		</comp>
		<comp name="--.HNN" depth="0.0">
			<acc value="0.119806421521439" flag="0"/>
			<vel value="0.0858286857337187" flag="0"/>
			<psa03 value="0.450964874209695" flag="0"/>
			<psa10 value="0.0995008789449051" flag="0"/>
			<psa30 value="0.00855540008660134" flag="0"/>
		</comp>
		<comp name="--.HNZ" depth="0.0">
			<acc value="0.0420583433555078" flag="0"/>
			<vel value="0.0431320266568797" flag="0"/>
			<psa03 value="0.152087960497641" flag="0"/>
			<psa10 value="0.0404770764076608" flag="0"/>
			<psa30 value="0.00372560096944659" flag="0"/>
		</comp>
	</station>
	<station code="ARE2" name="ARE2" netid="HI" source="ITSAK Strong Motion Network" insttype="" lat="36.66629" lon="22.382635" esm:processing="manual (Paolucci et al 2011)" esm:quality="good">
		<comp name="--.HNE" depth="0.0">
			<acc value="0.318039458631708" flag="0"/>
			<vel value="0.126189984727714" flag="0"/>
			<psa03 value="0.952590854469035" flag="0"/>
			<psa10 value="0.0788082081570197" flag="0"/>
			<psa30 value="0.00658630006005509" flag="0"/>
		</comp>
		<comp name="--.HNN" depth="0.0">
			<acc value="0.431159363090404" flag="0"/>
			<vel value="0.149954058944897" flag="0"/>
			<psa03 value="1.06364004426619" flag="0"/>
			<psa10 value="0.0743876328155984" flag="0"/>
			<psa30 value="0.00832182377998403" flag="0"/>
		</comp>
		<comp name="--.HNZ" depth="0.0">
			<acc value="0.138057479534089" flag="0"/>
			<vel value="0.0515921819706571" flag="0"/>
			<psa03 value="0.309172918688521" flag="0"/>
			<psa10 value="0.0316920256911656" flag="0"/>
			<psa30 value="0.00660135980768946" flag="0"/>
		</comp>
	</station>
	<station code="ARG2" name="ARG2" netid="HI" source="ITSAK Strong Motion Network" insttype="" lat="38.1783" lon="20.4878" esm:processing="automatic (Paolucci et al 2011)" esm:quality="best">
		<comp name="--.HNE" depth="0.0">
			<acc value="0.0399956136055356" flag="0"/>
			<vel value="0.0268964590451109" flag="0"/>
			<psa03 value="0.0873670897242521" flag="0"/>
			<psa10 value="0.0308287353774192" flag="0"/>
			<psa30 value="0.00560141606632407" flag="0"/>
		</comp>
		<comp name="--.HNN" depth="0.0">
			<acc value="0.0409274422739748" flag="0"/>
			<vel value="0.0332933988259432" flag="0"/>
			<psa03 value="0.088283535850977" flag="0"/>
			<psa10 value="0.035519566746976" flag="0"/>
			<psa30 value="0.00494461213962068" flag="0"/>
		</comp>
		<comp name="--.HNZ" depth="0.0">
			<acc value="0.0235567617650412" flag="0"/>
			<vel value="0.0167615649282601" flag="0"/>
			<psa03 value="0.0805141774191109" flag="0"/>
			<psa10 value="0.0278828027238387" flag="0"/>
			<psa30 value="0.00410072790309825" flag="0"/>
		</comp>
	</station>
	<station code="ARS1" name="ARS1" netid="HI" source="ITSAK Strong Motion Network" insttype="" lat="37.6349" lon="22.7293" esm:processing="manual (Paolucci et al 2011)" esm:quality="good">
		<comp name="--.HNE" depth="0.0">
			<acc value="0.134114641878507" flag="0"/>
			<vel value="0.116078473121253" flag="0"/>
			<psa03 value="0.415021826492517" flag="0"/>
			<psa10 value="0.198125579847315" flag="0"/>
			<psa30 value="0.0130838017376531" flag="0"/>
		</comp>
		<comp name="--.HNN" depth="0.0">
			<acc value="0.135814627130497" flag="0"/>
			<vel value="0.130503609064947" flag="0"/>
			<psa03 value="0.351756010442696" flag="0"/>
			<psa10 value="0.303160062866332" flag="0"/>
			<psa30 value="0.0217838697411273" flag="0"/>
		</comp>
		<comp name="--.HNZ" depth="0.0">
			<acc value="0.0752146803600935" flag="0"/>
			<vel value="0.0590518018394989" flag="0"/>
			<psa03 value="0.218727864647572" flag="0"/>
			<psa10 value="0.0641786540208564" flag="0"/>
			<psa30 value="0.00907786886426038" flag="0"/>
		</comp>
	</station>
	<station code="CH01" name="CH01" netid="HI" source="ITSAK Strong Motion Network" insttype="" lat="35.517" lon="24.0208" esm:processing="automatic (Paolucci et al 2011)" esm:quality="best">
		<comp name="--.HNE" depth="0.0">
			<acc value="0.0110988141970959" flag="0"/>
			<vel value="0.0130437212973152" flag="0"/>
			<psa03 value="0.0394638773090264" flag="0"/>
			<psa10 value="0.0148198614305877" flag="0"/>
			<psa30 value="0.00463158598650763" flag="0"/>
		</comp>
		<comp name="--.HNN" depth="0.0">
			<acc value="0.00997625127199267" flag="0"/>
			<vel value="0.0114425533236915" flag="0"/>
			<psa03 value="0.027864384941251" flag="0"/>
			<psa10 value="0.0169428648816471" flag="0"/>
			<psa30 value="0.0053099771765946" flag="0"/>
		</comp>
		<comp name="--.HNZ" depth="0.0">
			<acc value="0.00718150195969176" flag="0"/>
			<vel value="0.00770395857970579" flag="0"/>
			<psa03 value="0.0206760011940232" flag="0"/>
			<psa10 value="0.0137541992731997" flag="0"/>
			<psa30 value="0.00164311155640997" flag="0"/>
		</comp>
	</station>
	<station code="GTH2" name="GTH2" netid="HI" source="ITSAK Strong Motion Network" insttype="" lat="36.7603" lon="22.5659" esm:processing="manual (Paolucci et al 2011)" esm:quality="good">
		<comp name="--.HNE" depth="0.0">
			<acc value="0.373555337979418" flag="0"/>
			<vel value="0.230882270638856" flag="0"/>
			<psa03 value="0.8094599560828" flag="0"/>
			<psa10 value="0.135180120019522" flag="0"/>
			<psa30 value="0.0115736875333317" flag="0"/>
		</comp>
		<comp name="--.HNN" depth="0.0">
			<acc value="0.30929255219171" flag="0"/>
			<vel value="0.198299551980711" flag="0"/>
			<psa03 value="0.85234171345544" flag="0"/>
			<psa10 value="0.112256801462169" flag="0"/>
			<psa30 value="0.0126439217644304" flag="0"/>
		</comp>
		<comp name="--.HNZ" depth="0.0">
			<acc value="0.163112361534712" flag="0"/>
			<vel value="0.0870815748493691" flag="0"/>
			<psa03 value="0.366505987556291" flag="0"/>
			<psa10 value="0.0626628486061868" flag="0"/>
			<psa30 value="0.00484973460444961" flag="0"/>
		</comp>
	</station>
	<station code="KAC1" name="KAC1" netid="HI" source="ITSAK Strong Motion Network" insttype="" lat="38.143412" lon="21.549694" esm:processing="manual (Paolucci et al 2011)" esm:quality="good">
		<comp name="--.HNE" depth="0.0">
			<acc value="0.158113797274002" flag="0"/>
			<vel value="0.209407139424297" flag="0"/>
			<psa03 value="0.470418912944286" flag="0"/>
			<psa10 value="0.316624624827482" flag="0"/>
			<psa30 value="0.021605419586347" flag="0"/>
		</comp>
		<comp name="--.HNN" depth="0.0">
			<acc value="0.194198630968804" flag="0"/>
			<vel value="0.161648585995122" flag="0"/>
			<psa03 value="0.726249277117029" flag="0"/>
			<psa10 value="0.252782465597754" flag="0"/>
			<psa30 value="0.0341281474889455" flag="0"/>
		</comp>
		<comp name="--.HNZ" depth="0.0">
			<acc value="0.0820478868353622" flag="0"/>
			<vel value="0.124873292625724" flag="0"/>
			<psa03 value="0.214767831481476" flag="0"/>
			<psa10 value="0.228089044779814" flag="0"/>
			<psa30 value="0.0214385835342774" flag="0"/>
		</comp>
	</station>
	<station code="KAL3" name="KAL3" netid="HI" source="ITSAK Strong Motion Network" insttype="" lat="37.0246" lon="22.103" esm:processing="manual (Paolucci et al 2011)" esm:quality="good">
		<comp name="--.HNE" depth="0.0">
			<acc value="1.75394629326949" flag="0"/>
			<vel value="0.997936341059263" flag="0"/>
			<psa03 value="5.67457391267235" flag="0"/>
			<psa10 value="0.984434153931345" flag="0"/>
			<psa30 value="0.0873603005245009" flag="0"/>
		</comp>
		<comp name="--.HNN" depth="0.0">
			<acc value="1.33068325767436" flag="0"/>
			<vel value="0.797304869348748" flag="0"/>
			<psa03 value="3.41556526443604" flag="0"/>
			<psa10 value="0.910542258955946" flag="0"/>
			<psa30 value="0.0760965743579219" flag="0"/>
		</comp>
		<comp name="--.HNZ" depth="0.0">
			<acc value="0.662115658370829" flag="0"/>
			<vel value="0.329974778527429" flag="0"/>
			<psa03 value="1.74425171478243" flag="0"/>
			<psa10 value="0.429720116848784" flag="0"/>
			<psa30 value="0.0489719108154165" flag="0"/>
		</comp>
	</station>
	<station code="KLV1" name="KLV1" netid="HI" source="ITSAK Strong Motion Network" insttype="" lat="38.03256" lon="22.10797" esm:processing="manual (Paolucci et al 2011)" esm:quality="good">
		<comp name="--.HNE" depth="0.0">
			<acc value="0.175700349753732" flag="0"/>
			<vel value="0.105762943183697" flag="0"/>
			<psa03 value="0.724978526269355" flag="0"/>
			<psa10 value="0.0884831440740421" flag="0"/>
			<psa30 value="0.0072984668209412" flag="0"/>
		</comp>
		<comp name="--.HNN" depth="0.0">
			<acc value="0.168101586866478" flag="0"/>
			<vel value="0.0986504213690503" flag="0"/>
			<psa03 value="0.537096580012492" flag="0"/>
			<psa10 value="0.0924719083100969" flag="0"/>
			<psa30 value="0.0088817767074507" flag="0"/>
		</comp>
		<comp name="--.HNZ" depth="0.0">
			<acc value="0.0577372936577154" flag="0"/>
			<vel value="0.0521666831343759" flag="0"/>
			<psa03 value="0.154388675408712" flag="0"/>
			<psa10 value="0.0873303327059467" flag="0"/>
			<psa30 value="0.00581509605490796" flag="0"/>
		</comp>
	</station>
	<station code="KOR2" name="KOR2" netid="HI" source="ITSAK Strong Motion Network" insttype="" lat="37.9401" lon="22.9495" esm:processing="automatic (Paolucci et al 2011)" esm:quality="best">
		<comp name="--.HNE" depth="0.0">
			<acc value="0.134048558501296" flag="0"/>
			<vel value="0.117897990654347" flag="0"/>
			<psa03 value="0.317815407877681" flag="0"/>
			<psa10 value="0.131361662065422" flag="0"/>
			<psa30 value="0.0183921850586626" flag="0"/>
		</comp>
		<comp name="--.HNN" depth="0.0">
			<acc value="0.100963608871341" flag="0"/>
			<vel value="0.0761918931394594" flag="0"/>
			<psa03 value="0.295932583247945" flag="0"/>
			<psa10 value="0.13243370808321" flag="0"/>
			<psa30 value="0.0111710733621188" flag="0"/>
		</comp>
		<comp name="--.HNZ" depth="0.0">
			<acc value="0.0637362683495367" flag="0"/>
			<vel value="0.048157260177776" flag="0"/>
			<psa03 value="0.217559808102892" flag="0"/>
			<psa10 value="0.0643555232375739" flag="0"/>
			<psa30 value="0.00537656867128764" flag="0"/>
		</comp>
	</station>
	<station code="KRI1" name="KRI1" netid="HI" source="ITSAK Strong Motion Network" insttype="" lat="37.6621" lon="20.8172" esm:processing="automatic (Paolucci et al 2011)" esm:quality="best">
		<comp name="--.HNE" depth="0.0">
			<acc value="0.106061156579447" flag="0"/>
			<vel value="0.0672752064581634" flag="0"/>
			<psa03 value="0.212448198650519" flag="0"/>
			<psa10 value="0.10123114606661" flag="0"/>
			<psa30 value="0.00648726016581483" flag="0"/>
		</comp>
		<comp name="--.HNN" depth="0.0">
			<acc value="0.110852093035168" flag="0"/>
			<vel value="0.0729979668152659" flag="0"/>
			<psa03 value="0.255891680734664" flag="0"/>
			<psa10 value="0.108117067225093" flag="0"/>
			<psa30 value="0.00790052670445373" flag="0"/>
		</comp>
		<comp name="--.HNZ" depth="0.0">
			<acc value="0.0665291731207654" flag="0"/>
			<vel value="0.0304518392718453" flag="0"/>
			<psa03 value="0.135915368309446" flag="0"/>
			<psa10 value="0.0527477467793516" flag="0"/>
			<psa30 value="0.00393906844395246" flag="0"/>
		</comp>
	</station>
	<station code="KYP2" name="KYP2" netid="HI" source="ITSAK Strong Motion Network" insttype="" lat="37.2497" lon="21.667" esm:processing="manual (Paolucci et al 2011)" esm:quality="good">
		<comp name="--.HNE" depth="0.0">
			<acc value="0.947634535657557" flag="0"/>
			<vel value="0.275787079914041" flag="0"/>
			<psa03 value="1.5952566779258" flag="0"/>
			<psa10 value="0.203254944642559" flag="0"/>
			<psa30 value="0.0210946907530683" flag="0"/>
		</comp>
		<comp name="--.HNN" depth="0.0">
			<acc value="1.20703365168763" flag="0"/>
			<vel value="0.244934062780208" flag="0"/>
			<psa03 value="1.77554862138223" flag="0"/>
			<psa10 value="0.171627479478211" flag="0"/>
			<psa30 value="0.0127511672022477" flag="0"/>
		</comp>
		<comp name="--.HNZ" depth="0.0">
			<acc value="1.13780158291262" flag="0"/>
			<vel value="0.266213480673599" flag="0"/>
			<psa03 value="1.2034397219754" flag="0"/>
			<psa10 value="0.16228939087567" flag="0"/>
			<psa30 value="0.0114570464731006" flag="0"/>
		</comp>
	</station>
	<station code="LEO1" name="LEO1" netid="HI" source="ITSAK Strong Motion Network" insttype="" lat="37.1689" lon="22.8637" esm:processing="automatic (Paolucci et al 2011)" esm:quality="best">
		<comp name="--.HNE" depth="0.0">
			<acc value="0.0818306687590143" flag="0"/>
			<vel value="0.040736844391046" flag="0"/>
			<psa03 value="0.228982418961469" flag="0"/>
			<psa10 value="0.0513516230430059" flag="0"/>
			<psa30 value="0.00626032304901126" flag="0"/>
		</comp>
		<comp name="--.HNN" depth="0.0">
			<acc value="0.0687460934890017" flag="0"/>
			<vel value="0.0424962354266367" flag="0"/>
			<psa03 value="0.158590453755906" flag="0"/>
			<psa10 value="0.0382122863764362" flag="0"/>
			<psa30 value="0.006543809328586" flag="0"/>
		</comp>
		<comp name="--.HNZ" depth="0.0">
			<acc value="0.0551133899203341" flag="0"/>
			<vel value="0.0243380556228284" flag="0"/>
			<psa03 value="0.122445382238976" flag="0"/>
			<psa10 value="0.0252834549048027" flag="0"/>
			<psa30 value="0.00605913263780057" flag="0"/>
		</comp>
	</station>
	<station code="MSL1" name="MSL1" netid="HI" source="ITSAK Strong Motion Network" insttype="" lat="38.3727" lon="21.4243" esm:processing="manual (Paolucci et al 2011)" esm:quality="good">
		<comp name="--.HNE" depth="0.0">
			<acc value="0.0843701798069743" flag="0"/>
			<vel value="0.122240003643022" flag="0"/>
			<psa03 value="0.237748374663013" flag="0"/>
			<psa10 value="0.261687775530832" flag="0"/>
			<psa30 value="0.0307895029867992" flag="0"/>
		</comp>
		<comp name="--.HNN" depth="0.0">
			<acc value="0.0836779631168155" flag="0"/>
			<vel value="0.0931344323687311" flag="0"/>
			<psa03 value="0.228199367088125" flag="0"/>
			<psa10 value="0.223845953695853" flag="0"/>
			<psa30 value="0.0189582825598438" flag="0"/>
		</comp>
		<comp name="--.HNZ" depth="0.0">
			<acc value="0.0541162522936431" flag="0"/>
			<vel value="0.0565469316679287" flag="0"/>
			<psa03 value="0.0829527608382945" flag="0"/>
			<psa10 value="0.126197344954759" flag="0"/>
			<psa30 value="0.00708146077868924" flag="0"/>
		</comp>
	</station>
	<station code="NMA1" name="NMA1" netid="HI" source="ITSAK Strong Motion Network" insttype="" lat="37.81873" lon="22.662702" esm:processing="automatic (Paolucci et al 2011)" esm:quality="best">
		<comp name="--.HNE" depth="0.0">
			<acc value="0.126266298027322" flag="0"/>
			<vel value="0.075215208793405" flag="0"/>
			<psa03 value="0.431819397582497" flag="0"/>
			<psa10 value="0.120660905692829" flag="0"/>
			<psa30 value="0.0150908413608448" flag="0"/>
		</comp>
		<comp name="--.HNN" depth="0.0">
			<acc value="0.0972471080098569" flag="0"/>
			<vel value="0.101804105563795" flag="0"/>
			<psa03 value="0.356716089023559" flag="0"/>
			<psa10 value="0.141871118265318" flag="0"/>
			<psa30 value="0.0212262444678563" flag="0"/>
		</comp>
		<comp name="--.HNZ" depth="0.0">
			<acc value="0.0781433895756871" flag="0"/>
			<vel value="0.0763190910996994" flag="0"/>
			<psa03 value="0.318703654219642" flag="0"/>
			<psa10 value="0.0894505656609744" flag="0"/>
			<psa30 value="0.0107879596493822" flag="0"/>
		</comp>
	</station>
	<station code="PAT5" name="PAT5" netid="HI" source="ITSAK Strong Motion Network" insttype="" lat="38.29595" lon="21.795083" esm:processing="manual (Paolucci et al 2011)" esm:quality="good">
		<comp name="--.HNE" depth="0.0">
			<acc value="0.0719419950826869" flag="0"/>
			<vel value="0.0679338629617592" flag="0"/>
			<psa03 value="0.195803866878558" flag="0"/>
			<psa10 value="0.131461523680764" flag="0"/>
			<psa30 value="0.0160213763375535" flag="0"/>
		</comp>
		<comp name="--.HNN" depth="0.0">
			<acc value="0.0781729411297018" flag="0"/>
			<vel value="0.079548457710975" flag="0"/>
			<psa03 value="0.332878947429915" flag="0"/>
			<psa10 value="0.13632412580429" flag="0"/>
			<psa30 value="0.0166213610835984" flag="0"/>
		</comp>
		<comp name="--.HNZ" depth="0.0">
			<acc value="0.0726578847607626" flag="0"/>
			<vel value="0.0755773017988608" flag="0"/>
			<psa03 value="0.194560242827902" flag="0"/>
			<psa10 value="0.134265479429071" flag="0"/>
			<psa30 value="0.0173500226871869" flag="0"/>
		</comp>
	</station>
	<station code="PYL1" name="PYL1" netid="HI" source="ITSAK Strong Motion Network" insttype="" lat="36.914188" lon="21.695161" esm:processing="automatic (Paolucci et al 2011)" esm:quality="best">
		<comp name="--.HNE" depth="0.0">
			<acc value="1.29297076796378" flag="0"/>
			<vel value="0.593927985884217" flag="0"/>
			<psa03 value="2.92598116522556" flag="0"/>
			<psa10 value="0.409995010157272" flag="0"/>
			<psa30 value="0.0491896485728077" flag="0"/>
		</comp>
		<comp name="--.HNN" depth="0.0">
			<acc value="1.1329173731819" flag="0"/>
			<vel value="0.73734440342274" flag="0"/>
			<psa03 value="2.10957358222991" flag="0"/>
			<psa10 value="0.726111281308817" flag="0"/>
			<psa30 value="0.0534642650785058" flag="0"/>
		</comp>
		<comp name="--.HNZ" depth="0.0">
			<acc value="1.36197996390019" flag="0"/>
			<vel value="0.67905905484604" flag="0"/>
			<psa03 value="2.91049780619568" flag="0"/>
			<psa10 value="0.493255295742571" flag="0"/>
			<psa30 value="0.0503126396321206" flag="0"/>
		</comp>
	</station>
