<stationlist xmlns:esm="https://esm-db.eu/esmws/shakemap/1/" created="1784166832">
	<station code="ROD3" name="ROD3" netid="CL" source="Corinth Riff Laboratory (CRLNET)" insttype="" lat="38.30811" lon="21.89204" esm:processing="automatic (Paolucci et al 2011)" esm:quality="good">
		<comp name="00.HNE" depth="0.0">
			<acc value="0.145846212801584" flag="0"/>
			<vel value="0.109344998848407" flag="0"/>
			<psa03 value="0.628751901727735" flag="0"/>
			<psa10 value="0.136234599873637" flag="0"/>
			<psa30 value="0.0126145056490905" flag="0"/>
		</comp>
		<comp name="00.HNN" depth="0.0">
			<acc value="0.167107331364267" flag="0"/>
			<vel value="0.0978112793082108" flag="0"/>
			<psa03 value="0.611042770251353" flag="0"/>
			<psa10 value="0.0777139681689908" flag="0"/>
			<psa30 value="0.00913158158913146" flag="0"/>
		</comp>
		<comp name="00.HNZ" depth="0.0">
			<acc value="0.0514433233408822" flag="0"/>
			<vel value="0.0448965126405345" flag="0"/>
			<psa03 value="0.129411656220438" flag="0"/>
			<psa10 value="0.0355287661063884" flag="0"/>
			<psa30 value="0.0065812243071447" flag="0"/>
		</comp>
	</station>
	<station code="TRIZ" name="TRIZ" netid="CL" source="Corinth Riff Laboratory (CRLNET)" insttype="" lat="38.36543" lon="22.07272" esm:processing="automatic (Paolucci et al 2011)" esm:quality="best">
		<comp name="00.HNE" depth="0.0">
			<acc value="0.0394376509333827" flag="0"/>
			<vel value="0.0356509089803768" flag="0"/>
			<psa03 value="0.0959788164588841" flag="0"/>
			<psa10 value="0.0650738233214293" flag="0"/>
			<psa30 value="0.00904861942662869" flag="0"/>
		</comp>
		<comp name="00.HNN" depth="0.0">
			<acc value="0.0443549106530065" flag="0"/>
			<vel value="0.0470014087191977" flag="0"/>
			<psa03 value="0.163560762181113" flag="0"/>
			<psa10 value="0.0773928193944606" flag="0"/>
			<psa30 value="0.0094899761643465" flag="0"/>
		</comp>
		<comp name="00.HNZ" depth="0.0">
			<acc value="0.027208491909611" flag="0"/>
			<vel value="0.0267485073463746" flag="0"/>
			<psa03 value="0.0555961569308782" flag="0"/>
			<psa10 value="0.0471076093979304" flag="0"/>
			<psa30 value="0.00633294202632877" flag="0"/>
		</comp>
	</station>
	<station code="KTHA" name="KTHA" netid="GE" source="GEOFON" insttype="" lat="36.2566" lon="23.0621" esm:processing="automatic (Paolucci et al 2011)" esm:quality="good">
		<comp name="--.HNE" depth="0.0">
			<acc value="0.0637393870554518" flag="0"/>
			<vel value="0.0363029840773669" flag="0"/>
			<psa03 value="0.211955791030931" flag="0"/>
			<psa10 value="0.0359928631005366" flag="0"/>
			<psa30 value="0.00217419215455986" flag="0"/>
		</comp>
		<comp name="--.HNN" depth="0.0">
			<acc value="0.0380981890237109" flag="0"/>
			<vel value="0.0231467069927722" flag="0"/>
			<psa03 value="0.134153064065439" flag="0"/>
			<psa10 value="0.0208781299486445" flag="0"/>
			<psa30 value="0.0021744355040139" flag="0"/>
		</comp>
		<comp name="--.HNZ" depth="0.0">
			<acc value="0.0238206714928234" flag="0"/>
			<vel value="0.0138051369570448" flag="0"/>
			<psa03 value="0.0908961776756757" flag="0"/>
			<psa10 value="0.0151780560967264" flag="0"/>
			<psa30 value="0.00195710756543789" flag="0"/>
		</comp>
	</station>
	<station code="ATEI" name="ATEI" netid="HC" source="Seismological Network of Crete (HC)" insttype="" lat="35.5193" lon="24.0432" esm:processing="automatic (Paolucci et al 2011)" esm:quality="good">
		<comp name="--.HNE" depth="0.0">
			<acc value="0.0129852129937238" flag="0"/>
			<vel value="0.0103343829087869" flag="0"/>
			<psa03 value="0.0265372944238506" flag="0"/>
			<psa10 value="0.0178180959864124" flag="0"/>
			<psa30 value="0.00242132060894045" flag="0"/>
		</comp>
		<comp name="--.HNN" depth="0.0">
			<acc value="0.00984438677904455" flag="0"/>
			<vel value="0.011092407214377" flag="0"/>
			<psa03 value="0.030665104329332" flag="0"/>
			<psa10 value="0.0179807198844475" flag="0"/>
			<psa30 value="0.00220219671805808" flag="0"/>
		</comp>
		<comp name="--.HNZ" depth="0.0">
			<acc value="0.0068587937056251" flag="0"/>
			<vel value="0.00592435843778558" flag="0"/>
			<psa03 value="0.0215994712235472" flag="0"/>
			<psa10 value="0.011675631578291" flag="0"/>
			<psa30 value="0.00137296272287557" flag="0"/>
		</comp>
	</station>
	<station code="AGR3" name="AGR3" netid="HI" source="ITSAK Strong Motion Network" insttype="" lat="38.5893" lon="21.4162" esm:processing="automatic (Paolucci et al 2011)" esm:quality="good">
		<comp name="--.HNE" depth="0.0">
			<acc value="0.0546097315554582" flag="0"/>
			<vel value="0.0679160095097029" flag="0"/>
			<psa03 value="0.118987080226773" flag="0"/>
			<psa10 value="0.135211322086505" flag="0"/>
			<psa30 value="0.0274660311564345" flag="0"/>
		</comp>
		<comp name="--.HNN" depth="0.0">
			<acc value="0.0403334087756838" flag="0"/>
			<vel value="0.0656038885307109" flag="0"/>
			<psa03 value="0.0931289610032799" flag="0"/>
			<psa10 value="0.0860356269380437" flag="0"/>
			<psa30 value="0.020863023739599" flag="0"/>
		</comp>
		<comp name="--.HNZ" depth="0.0">
			<acc value="0.027301249770596" flag="0"/>
			<vel value="0.037424820818633" flag="0"/>
			<psa03 value="0.0596562383913491" flag="0"/>
			<psa10 value="0.0737982887744481" flag="0"/>
			<psa30 value="0.0143022824560207" flag="0"/>
		</comp>
	</station>
	<station code="AIG2" name="AIG2" netid="HI" source="ITSAK Strong Motion Network" insttype="" lat="38.2417" lon="22.0726" esm:processing="automatic (Paolucci et al 2011)" esm:quality="best">
		<comp name="--.HNE" depth="0.0">
			<acc value="0.0817732255120188" flag="0"/>
			<vel value="0.0660061496391273" flag="0"/>
			<psa03 value="0.312243184578568" flag="0"/>
			<psa10 value="0.0634617565299159" flag="0"/>
			<psa30 value="0.0115479608290638" flag="0"/>
		</comp>
		<comp name="--.HNN" depth="0.0">
			<acc value="0.1140248736208" flag="0"/>
			<vel value="0.101560510260385" flag="0"/>
			<psa03 value="0.23349332195332" flag="0"/>
			<psa10 value="0.155681168113344" flag="0"/>
			<psa30 value="0.0142437019086803" flag="0"/>
		</comp>
		<comp name="--.HNZ" depth="0.0">
			<acc value="0.0434039421199617" flag="0"/>
			<vel value="0.0327109909228027" flag="0"/>
			<psa03 value="0.138345623051895" flag="0"/>
			<psa10 value="0.0705696098903175" flag="0"/>
			<psa30 value="0.00626959949686373" flag="0"/>
		</comp>
	</station>
	<station code="AKR1" name="AKR1" netid="HI" source="ITSAK Strong Motion Network" insttype="" lat="38.153583" lon="22.31326" esm:processing="manual (Paolucci et al 2011)" esm:quality="good">
		<comp name="--.HNE" depth="0.0">
			<acc value="0.107619924715891" flag="0"/>
			<vel value="0.0873155021655136" flag="0"/>
			<psa03 value="0.360257115265836" flag="0"/>
			<psa10 value="0.165666084565055" flag="0"/>
			<psa30 value="0.0085756830969179" flag="0"/>
		</comp>
		<comp name="--.HNN" depth="0.0">
			<acc value="0.119806421521439" flag="0"/>
			<vel value="0.0858286857337187" flag="0"/>
			<psa03 value="0.450964874209695" flag="0"/>
			<psa10 value="0.0995008789449051" flag="0"/>
			<psa30 value="0.00855540008660134" flag="0"/>
		</comp>
		<comp name="--.HNZ" depth="0.0">
			<acc value="0.0420583433555078" flag="0"/>
			<vel value="0.0431320266568797" flag="0"/>
			<psa03 value="0.152087960497641" flag="0"/>
			<psa10 value="0.0404770764076608" flag="0"/>
			<psa30 value="0.00372560096944659" flag="0"/>
		</comp>
	</station>
	<station code="ARE2" name="ARE2" netid="HI" source="ITSAK Strong Motion Network" insttype="" lat="36.66629" lon="22.382635" esm:processing="manual (Paolucci et al 2011)" esm:quality="good">
		<comp name="--.HNE" depth="0.0">
			<acc value="0.318039458631708" flag="0"/>
			<vel value="0.126189984727714" flag="0"/>
			<psa03 value="0.952590854469035" flag="0"/>
			<psa10 value="0.0788082081570197" flag="0"/>
			<psa30 value="0.00658630006005509" flag="0"/>
		</comp>
		<comp name="--.HNN" depth="0.0">
			<acc value="0.431159363090404" flag="0"/>
			<vel value="0.149954058944897" flag="0"/>
			<psa03 value="1.06364004426619" flag="0"/>
			<psa10 value="0.0743876328155984" flag="0"/>
			<psa30 value="0.00832182377998403" flag="0"/>
		</comp>
		<comp name="--.HNZ" depth="0.0">
			<acc value="0.138057479534089" flag="0"/>
			<vel value="0.0515921819706571" flag="0"/>
			<psa03 value="0.309172918688521" flag="0"/>
			<psa10 value="0.0316920256911656" flag="0"/>
			<psa30 value="0.00660135980768946" flag="0"/>
		</comp>
	</station>
	<station code="ARG2" name="ARG2" netid="HI" source="ITSAK Strong Motion Network" insttype="" lat="38.1783" lon="20.4878" esm:processing="automatic (Paolucci et al 2011)" esm:quality="best">
		<comp name="--.HNE" depth="0.0">
			<acc value="0.0399956136055356" flag="0"/>
			<vel value="0.0268964590451109" flag="0"/>
			<psa03 value="0.0873670897242521" flag="0"/>
			<psa10 value="0.0308287353774192" flag="0"/>
			<psa30 value="0.00560141606632407" flag="0"/>
		</comp>
		<comp name="--.HNN" depth="0.0">
			<acc value="0.0409274422739748" flag="0"/>
			<vel value="0.0332933988259432" flag="0"/>
			<psa03 value="0.088283535850977" flag="0"/>
			<psa10 value="0.035519566746976" flag="0"/>
			<psa30 value="0.00494461213962068" flag="0"/>
		</comp>
		<comp name="--.HNZ" depth="0.0">
			<acc value="0.0235567617650412" flag="0"/>
			<vel value="0.0167615649282601" flag="0"/>
			<psa03 value="0.0805141774191109" flag="0"/>
			<psa10 value="0.0278828027238387" flag="0"/>
			<psa30 value="0.00410072790309825" flag="0"/>
		</comp>
	</station>
	<station code="ARS1" name="ARS1" netid="HI" source="ITSAK Strong Motion Network" insttype="" lat="37.6349" lon="22.7293" esm:processing="manual (Paolucci et al 2011)" esm:quality="good">
		<comp name="--.HNE" depth="0.0">
			<acc value="0.134114641878507" flag="0"/>
			<vel value="0.116078473121253" flag="0"/>
			<psa03 value="0.415021826492517" flag="0"/>
			<psa10 value="0.198125579847315" flag="0"/>
			<psa30 value="0.0130838017376531" flag="0"/>
		</comp>
		<comp name="--.HNN" depth="0.0">
			<acc value="0.135814627130497" flag="0"/>
			<vel value="0.130503609064947" flag="0"/>
			<psa03 value="0.351756010442696" flag="0"/>
			<psa10 value="0.303160062866332" flag="0"/>
			<psa30 value="0.0217838697411273" flag="0"/>
		</comp>
		<comp name="--.HNZ" depth="0.0">
			<acc value="0.0752146803600935" flag="0"/>
			<vel value="0.0590518018394989" flag="0"/>
			<psa03 value="0.218727864647572" flag="0"/>
			<psa10 value="0.0641786540208564" flag="0"/>
			<psa30 value="0.00907786886426038" flag="0"/>
		</comp>
	</station>
	<station code="AST1" name="AST1" netid="HI" source="ITSAK Strong Motion Network" insttype="" lat="38.5416" lon="21.0895" esm:processing="automatic (Paolucci et al 2011)" esm:quality="good">
		<comp name="--.HNE" depth="0.0">
			<acc value="0.0289143898029164" flag="0"/>
			<vel value="0.0386288121192555" flag="0"/>
			<psa03 value="0.065755595568828" flag="0"/>
			<psa10 value="0.0764601026065509" flag="0"/>
			<psa30 value="0.00637892298900856" flag="0"/>
		</comp>
		<comp name="--.HNN" depth="0.0">
			<acc value="0.0273898441794435" flag="0"/>
			<vel value="0.0285791940492488" flag="0"/>
			<psa03 value="0.061968662411425" flag="0"/>
			<psa10 value="0.0526305440152437" flag="0"/>
			<psa30 value="0.0047791690964977" flag="0"/>
		</comp>
		<comp name="--.HNZ" depth="0.0">
			<acc value="0.0160550755981925" flag="0"/>
			<vel value="0.0181742531559231" flag="0"/>
			<psa03 value="0.0552821673806115" flag="0"/>
			<psa10 value="0.0318360202300971" flag="0"/>
			<psa30 value="0.00433555929285866" flag="0"/>
		</comp>
	</station>
	<station code="ATH5" name="ATH5" netid="HI" source="ITSAK Strong Motion Network" insttype="" lat="37.975421" lon="23.737098" esm:processing="automatic (Paolucci et al 2011)" esm:quality="good">
		<comp name="--.HNE" depth="0.0">
			<acc value="0.0131705233386441" flag="0"/>
			<vel value="0.0199105905566795" flag="0"/>
			<psa03 value="0.0297714852356193" flag="0"/>
			<psa10 value="0.0321257194212468" flag="0"/>
			<psa30 value="0.00328741694190526" flag="0"/>
		</comp>
		<comp name="--.HNN" depth="0.0">
			<acc value="0.0130649813990797" flag="0"/>
			<vel value="0.0172119099365691" flag="0"/>
			<psa03 value="0.0331180350531207" flag="0"/>
			<psa10 value="0.0418312048620252" flag="0"/>
			<psa30 value="0.00379262957642951" flag="0"/>
		</comp>
		<comp name="--.HNZ" depth="0.0">
			<acc value="0.0112369328997386" flag="0"/>
			<vel value="0.0144242043435829" flag="0"/>
			<psa03 value="0.0309060343522636" flag="0"/>
			<psa10 value="0.0446706492112781" flag="0"/>
			<psa30 value="0.00300975250633244" flag="0"/>
		</comp>
	</station>
	<station code="CH01" name="CH01" netid="HI" source="ITSAK Strong Motion Network" insttype="" lat="35.517" lon="24.0208" esm:processing="automatic (Paolucci et al 2011)" esm:quality="best">
		<comp name="--.HNE" depth="0.0">
			<acc value="0.0110988141970959" flag="0"/>
			<vel value="0.0130437212973152" flag="0"/>
			<psa03 value="0.0394638773090264" flag="0"/>
			<psa10 value="0.0148198614305877" flag="0"/>
			<psa30 value="0.00463158598650763" flag="0"/>
		</comp>
		<comp name="--.HNN" depth="0.0">
			<acc value="0.00997625127199267" flag="0"/>
			<vel value="0.0114425533236915" flag="0"/>
			<psa03 value="0.027864384941251" flag="0"/>
			<psa10 value="0.0169428648816471" flag="0"/>
			<psa30 value="0.0053099771765946" flag="0"/>
		</comp>
		<comp name="--.HNZ" depth="0.0">
			<acc value="0.00718150195969176" flag="0"/>
			<vel value="0.00770395857970579" flag="0"/>
			<psa03 value="0.0206760011940232" flag="0"/>
			<psa10 value="0.0137541992731997" flag="0"/>
			<psa30 value="0.00164311155640997" flag="0"/>
		</comp>
	</station>
	<station code="CH02" name="CH02" netid="HI" source="ITSAK Strong Motion Network" insttype="" lat="35.5145" lon="24.0315" esm:processing="automatic (Paolucci et al 2011)" esm:quality="good">
		<comp name="--.HNE" depth="0.0">
			<acc value="0.0119223161281263" flag="0"/>
			<vel value="0.014020908410961" flag="0"/>
			<psa03 value="0.0358270608669523" flag="0"/>
			<psa10 value="0.0187174036861339" flag="0"/>
			<psa30 value="0.0042948932656006" flag="0"/>
		</comp>
		<comp name="--.HNN" depth="0.0">
			<acc value="0.0132331201975475" flag="0"/>
			<vel value="0.0116566146394326" flag="0"/>
			<psa03 value="0.0328051627643671" flag="0"/>
			<psa10 value="0.0235928166583161" flag="0"/>
			<psa30 value="0.00327022871993658" flag="0"/>
		</comp>
		<comp name="--.HNZ" depth="0.0">
			<acc value="0.00580946232616844" flag="0"/>
			<vel value="0.00745265851255363" flag="0"/>
			<psa03 value="0.0177728114761192" flag="0"/>
			<psa10 value="0.0115095480760741" flag="0"/>
			<psa30 value="0.00176118416980781" flag="0"/>
		</comp>
	</station>
	<station code="GTH2" name="GTH2" netid="HI" source="ITSAK Strong Motion Network" insttype="" lat="36.7603" lon="22.5659" esm:processing="manual (Paolucci et al 2011)" esm:quality="good">
		<comp name="--.HNE" depth="0.0">
			<acc value="0.373555337979418" flag="0"/>
			<vel value="0.230882270638856" flag="0"/>
			<psa03 value="0.8094599560828" flag="0"/>
			<psa10 value="0.135180120019522" flag="0"/>
			<psa30 value="0.0115736875333317" flag="0"/>
		</comp>
		<comp name="--.HNN" depth="0.0">
			<acc value="0.30929255219171" flag="0"/>
			<vel value="0.198299551980711" flag="0"/>
			<psa03 value="0.85234171345544" flag="0"/>
			<psa10 value="0.112256801462169" flag="0"/>
			<psa30 value="0.0126439217644304" flag="0"/>
		</comp>
		<comp name="--.HNZ" depth="0.0">
			<acc value="0.163112361534712" flag="0"/>
			<vel value="0.0870815748493691" flag="0"/>
			<psa03 value="0.366505987556291" flag="0"/>
			<psa10 value="0.0626628486061868" flag="0"/>
			<psa30 value="0.00484973460444961" flag="0"/>
		</comp>
	</station>
	<station code="KAC1" name="KAC1" netid="HI" source="ITSAK Strong Motion Network" insttype="" lat="38.143412" lon="21.549694" esm:processing="manual (Paolucci et al 2011)" esm:quality="good">
		<comp name="--.HNE" depth="0.0">
			<acc value="0.158113797274002" flag="0"/>
			<vel value="0.209407139424297" flag="0"/>
			<psa03 value="0.470418912944286" flag="0"/>
			<psa10 value="0.316624624827482" flag="0"/>
			<psa30 value="0.021605419586347" flag="0"/>
		</comp>
		<comp name="--.HNN" depth="0.0">
			<acc value="0.194198630968804" flag="0"/>
			<vel value="0.161648585995122" flag="0"/>
			<psa03 value="0.726249277117029" flag="0"/>
			<psa10 value="0.252782465597754" flag="0"/>
			<psa30 value="0.0341281474889455" flag="0"/>
		</comp>
		<comp name="--.HNZ" depth="0.0">
			<acc value="0.0820478868353622" flag="0"/>
			<vel value="0.124873292625724" flag="0"/>
			<psa03 value="0.214767831481476" flag="0"/>
			<psa10 value="0.228089044779814" flag="0"/>
			<psa30 value="0.0214385835342774" flag="0"/>
		</comp>
	</station>
	<station code="KAL3" name="KAL3" netid="HI" source="ITSAK Strong Motion Network" insttype="" lat="37.0246" lon="22.103" esm:processing="manual (Paolucci et al 2011)" esm:quality="good">
		<comp name="--.HNE" depth="0.0">
			<acc value="1.75394629326949" flag="0"/>
			<vel value="0.997936341059263" flag="0"/>
			<psa03 value="5.67457391267235" flag="0"/>
			<psa10 value="0.984434153931345" flag="0"/>
			<psa30 value="0.0873603005245009" flag="0"/>
		</comp>
		<comp name="--.HNN" depth="0.0">
			<acc value="1.33068325767436" flag="0"/>
			<vel value="0.797304869348748" flag="0"/>
			<psa03 value="3.41556526443604" flag="0"/>
			<psa10 value="0.910542258955946" flag="0"/>
			<psa30 value="0.0760965743579219" flag="0"/>
		</comp>
		<comp name="--.HNZ" depth="0.0">
			<acc value="0.662115658370829" flag="0"/>
			<vel value="0.329974778527429" flag="0"/>
			<psa03 value="1.74425171478243" flag="0"/>
			<psa10 value="0.429720116848784" flag="0"/>
			<psa30 value="0.0489719108154165" flag="0"/>
		</comp>
	</station>
	<station code="KIF1" name="KIF1" netid="HI" source="ITSAK Strong Motion Network" insttype="" lat="38.077273" lon="23.814551" esm:processing="automatic (Paolucci et al 2011)" esm:quality="good">
		<comp name="--.HNE" depth="0.0">
			<acc value="0.0146371965961314" flag="0"/>
			<vel value="0.0208600281160207" flag="0"/>
			<psa03 value="0.0405487226122036" flag="0"/>
			<psa10 value="0.0324392776929434" flag="0"/>
			<psa30 value="0.00434683837337572" flag="0"/>
		</comp>
		<comp name="--.HNN" depth="0.0">
			<acc value="0.0174735834810999" flag="0"/>
			<vel value="0.0197064835082801" flag="0"/>
			<psa03 value="0.0343482832176905" flag="0"/>
			<psa10 value="0.0251992205746917" flag="0"/>
			<psa30 value="0.00387109269089243" flag="0"/>
		</comp>
		<comp name="--.HNZ" depth="0.0">
			<acc value="0.0101091712731843" flag="0"/>
			<vel value="0.0113835063892778" flag="0"/>
			<psa03 value="0.0229031422207693" flag="0"/>
			<psa10 value="0.0313623282253266" flag="0"/>
			<psa30 value="0.00220839317020929" flag="0"/>
		</comp>
	</station>
	<station code="KLV1" name="KLV1" netid="HI" source="ITSAK Strong Motion Network" insttype="" lat="38.03256" lon="22.10797" esm:processing="manual (Paolucci et al 2011)" esm:quality="good">
		<comp name="--.HNE" depth="0.0">
			<acc value="0.175700349753732" flag="0"/>
			<vel value="0.105762943183697" flag="0"/>
			<psa03 value="0.724978526269355" flag="0"/>
			<psa10 value="0.0884831440740421" flag="0"/>
			<psa30 value="0.0072984668209412" flag="0"/>
		</comp>
		<comp name="--.HNN" depth="0.0">
			<acc value="0.168101586866478" flag="0"/>
			<vel value="0.0986504213690503" flag="0"/>
			<psa03 value="0.537096580012492" flag="0"/>
			<psa10 value="0.0924719083100969" flag="0"/>
			<psa30 value="0.0088817767074507" flag="0"/>
		</comp>
		<comp name="--.HNZ" depth="0.0">
			<acc value="0.0577372936577154" flag="0"/>
			<vel value="0.0521666831343759" flag="0"/>
			<psa03 value="0.154388675408712" flag="0"/>
			<psa10 value="0.0873303327059467" flag="0"/>
			<psa30 value="0.00581509605490796" flag="0"/>
		</comp>
	</station>
