<?xml version="1.0" encoding="UTF-8" standalone="yes"?>
<!DOCTYPE earthquake SYSTEM "stationlist.dtd">
<stationlist created="" xmlns="ch.ethz.sed.shakemap.usgs.xml">
  <station code="KTHA" name="KTHA" netid="GE" insttype="STS-2/N" commtype="DIG" lat="36.2566" lon="23.0621">
    <comp name="--.HHE">
      <acc value="0.0647626405" flag="0"/>
      <vel value="0.0403888156" flag="0"/>
      <psa03 value="0.2136524421" flag="0"/>
      <psa10 value="0.0372330792" flag="0"/>
      <psa30 value="0.0048607757" flag="0"/>
    </comp>
    <comp name="--.HHN">
      <acc value="0.0403109262" flag="0"/>
      <vel value="0.0229217132" flag="0"/>
      <psa03 value="0.1315539371" flag="0"/>
      <psa10 value="0.0225478305" flag="0"/>
      <psa30 value="0.0058395831" flag="0"/>
    </comp>
    <comp name="--.HHZ">
      <acc value="0.0240563457" flag="0"/>
      <vel value="0.0136878986" flag="0"/>
      <psa03 value="0.0939672139" flag="0"/>
      <psa10 value="0.0155705463" flag="0"/>
      <psa30 value="0.0025352508" flag="0"/>
    </comp>
  </station>
</stationlist>
