<?xml version="1.0" encoding="UTF-8" standalone="yes"?>
<!DOCTYPE earthquake SYSTEM "stationlist.dtd">
<stationlist created="" xmlns="ch.ethz.sed.shakemap.usgs.xml">
  <station code="RP03B" name="RP03B" netid="5B" insttype="Compact" commtype="DIG" lat="37.2463" lon="21.832">
    <comp name="--.HHN">
      <acc value="0.6058540391" flag="0"/>
      <vel value="0.3205786052" flag="0"/>
      <psa03 value="1.7168031067" flag="0"/>
      <psa10 value="0.2200739775" flag="0"/>
      <psa30 value="0.0229561716" flag="0"/>
    </comp>
    <comp name="--.HHZ">
      <acc value="0.2550622404" flag="0"/>
      <vel value="0.1489971851" flag="0"/>
      <psa03 value="0.7214589535" flag="0"/>
      <psa10 value="0.1796037219" flag="0"/>
      <psa30 value="0.0272169041" flag="0"/>
    </comp>
    <comp name="--.HHE">
      <acc value="0.7289351284" flag="0"/>
      <vel value="0.2472999710" flag="0"/>
      <psa03 value="1.6014810531" flag="0"/>
      <psa10 value="0.2011320472" flag="0"/>
      <psa30 value="0.0252894058" flag="0"/>
    </comp>
  </station>
  <station code="RP05B" name="RP05B" netid="5B" insttype="Compact" commtype="DIG" lat="37.6182" lon="21.6541">
    <comp name="--.HHN">
      <acc value="1.3933363460" flag="0"/>
      <vel value="0.7545193525" flag="0"/>
      <psa03 value="4.1163091799" flag="0"/>
      <psa10 value="0.7856827815" flag="0"/>
      <psa30 value="0.0420310504" flag="0"/>
    </comp>
    <comp name="--.HHE">
      <acc value="0.8657768432" flag="0"/>
      <vel value="0.5024594794" flag="0"/>
      <psa03 value="3.4690453964" flag="0"/>
      <psa10 value="0.4925403202" flag="0"/>
      <psa30 value="0.0273146530" flag="0"/>
    </comp>
    <comp name="--.HHZ">
      <acc value="0.6239484437" flag="0"/>
      <vel value="0.2675572161" flag="0"/>
      <psa03 value="1.9543321941" flag="0"/>
      <psa10 value="0.3127651881" flag="0"/>
      <psa30 value="0.0184552143" flag="0"/>
    </comp>
  </station>
  <station code="RP08B" name="RP08B" netid="5B" insttype="Compact" commtype="DIG" lat="37.5664" lon="21.9493">
    <comp name="--.HHN">
      <acc value="0.6975577672" flag="0"/>
      <vel value="0.3696694690" flag="0"/>
      <psa03 value="2.3290990928" flag="0"/>
      <psa10 value="0.2221781706" flag="0"/>
      <psa30 value="0.0158009612" flag="0"/>
    </comp>
    <comp name="--.HHZ">
      <acc value="0.2219470299" flag="0"/>
      <vel value="0.1231927505" flag="0"/>
      <psa03 value="0.8752614485" flag="0"/>
      <psa10 value="0.1091232928" flag="0"/>
      <psa30 value="0.0094167603" flag="0"/>
    </comp>
    <comp name="--.HHE">
      <acc value="0.3218943933" flag="0"/>
      <vel value="0.2148184830" flag="0"/>
      <psa03 value="0.9238065876" flag="0"/>
      <psa10 value="0.1310592129" flag="0"/>
      <psa30 value="0.0142242898" flag="0"/>
    </comp>
  </station>
  <station code="KTHA" name="KTHA" netid="GE" insttype="STS-2/N" commtype="DIG" lat="36.2566" lon="23.0621">
    <comp name="--.HHE">
      <acc value="0.0647626405" flag="0"/>
      <vel value="0.0403888156" flag="0"/>
      <psa03 value="0.2136524421" flag="0"/>
      <psa10 value="0.0372330792" flag="0"/>
      <psa30 value="0.0048607757" flag="0"/>
    </comp>
    <comp name="--.HHN">
      <acc value="0.0403109262" flag="0"/>
      <vel value="0.0229217132" flag="0"/>
      <psa03 value="0.1315539371" flag="0"/>
      <psa10 value="0.0225478305" flag="0"/>
      <psa30 value="0.0058395831" flag="0"/>
    </comp>
    <comp name="--.HHZ">
      <acc value="0.0240563457" flag="0"/>
      <vel value="0.0136878986" flag="0"/>
      <psa03 value="0.0939672139" flag="0"/>
      <psa10 value="0.0155705463" flag="0"/>
      <psa30 value="0.0025352508" flag="0"/>
    </comp>
  </station>
  <station code="ACOR" name="ACOR" netid="HA" insttype="Horizon,120s,1200" commtype="DIG" lat="37.8905" lon="22.8694">
    <comp name="--.HHE">
      <acc value="0.0502105386" flag="0"/>
      <vel value="0.0399521147" flag="0"/>
      <psa03 value="0.0753326719" flag="0"/>
      <psa10 value="0.0473197622" flag="0"/>
      <psa30 value="0.0055852529" flag="0"/>
    </comp>
    <comp name="--.HHN">
      <acc value="0.0219603997" flag="0"/>
      <vel value="0.0324406842" flag="0"/>
      <psa03 value="0.0622645884" flag="0"/>
      <psa10 value="0.0751990297" flag="0"/>
      <psa30 value="0.0140063554" flag="0"/>
    </comp>
    <comp name="--.HHZ">
      <acc value="0.0248300902" flag="0"/>
      <vel value="0.0251653225" flag="0"/>
      <psa03 value="0.0638139041" flag="0"/>
      <psa10 value="0.0311238753" flag="0"/>
      <psa30 value="0.0050119692" flag="0"/>
    </comp>
  </station>
  <station code="EPID" name="EPID" netid="HA" insttype="30" commtype="DIG" lat="37.6144" lon="23.1189">
    <comp name="--.HHE">
      <acc value="0.0470938730" flag="0"/>
      <vel value="0.0445601150" flag="0"/>
      <psa03 value="0.1445980699" flag="0"/>
      <psa10 value="0.0590790056" flag="0"/>
      <psa30 value="0.0095882058" flag="0"/>
    </comp>
    <comp name="--.HHZ">
      <acc value="0.0265286940" flag="0"/>
      <vel value="0.0299123491" flag="0"/>
      <psa03 value="0.0887498299" flag="0"/>
      <psa10 value="0.0321074658" flag="0"/>
      <psa30 value="0.0059776383" flag="0"/>
    </comp>
    <comp name="--.HHN">
      <acc value="0.0519408936" flag="0"/>
      <vel value="0.0506429986" flag="0"/>
      <psa03 value="0.1093357701" flag="0"/>
      <psa10 value="0.0503162279" flag="0"/>
      <psa30 value="0.0121771311" flag="0"/>
    </comp>
  </station>
  <station code="LAKA" name="LAKA" netid="HA" insttype="120s," commtype="DIG" lat="38.2401" lon="21.9785">
    <comp name="--.HHN">
      <acc value="0.0397101232" flag="0"/>
      <vel value="0.0450133083" flag="0"/>
      <psa03 value="0.1044968953" flag="0"/>
      <psa10 value="0.1104604019" flag="0"/>
      <psa30 value="0.0069403119" flag="0"/>
    </comp>
    <comp name="--.HHZ">
      <acc value="0.0291745315" flag="0"/>
      <vel value="0.0287211319" flag="0"/>
      <psa03 value="0.0770458519" flag="0"/>
      <psa10 value="0.0647870970" flag="0"/>
      <psa30 value="0.0055736823" flag="0"/>
    </comp>
    <comp name="--.HHE">
      <acc value="0.0443117079" flag="0"/>
      <vel value="0.0553323989" flag="0"/>
      <psa03 value="0.1364727463" flag="0"/>
      <psa10 value="0.0988402551" flag="0"/>
      <psa30 value="0.0081024112" flag="0"/>
    </comp>
  </station>
  <station code="THAL" name="THAL" netid="HA" insttype="30" commtype="DIG" lat="38.0357" lon="22.6634">
    <comp name="--.HHN">
      <acc value="0.1194881260" flag="0"/>
      <vel value="0.1033879491" flag="0"/>
      <psa03 value="0.3438046478" flag="0"/>
      <psa10 value="0.1403151695" flag="0"/>
      <psa30 value="0.0182244400" flag="0"/>
    </comp>
    <comp name="--.HHE">
      <acc value="0.1884523595" flag="0"/>
      <vel value="0.1059592471" flag="0"/>
      <psa03 value="0.3797064706" flag="0"/>
      <psa10 value="0.1816764820" flag="0"/>
      <psa30 value="0.0154015500" flag="0"/>
    </comp>
    <comp name="--.HHZ">
      <acc value="0.0716177920" flag="0"/>
      <vel value="0.0463210743" flag="0"/>
      <psa03 value="0.2212771817" flag="0"/>
      <psa10 value="0.0880479984" flag="0"/>
      <psa30 value="0.0086513464" flag="0"/>
    </comp>
  </station>
  <station code="AIG2" name="AIG2" netid="HI" insttype="unknown" commtype="DIG" lat="38.2417" lon="22.0726">
    <comp name="--.HNZ">
      <acc value="0.0362106922" flag="0"/>
      <vel value="0.0227749538" flag="0"/>
      <psa03 value="0.0922924731" flag="0"/>
      <psa10 value="0.0315376359" flag="0"/>
      <psa30 value="0.0022400012" flag="0"/>
    </comp>
    <comp name="--.HNE">
      <acc value="0.0819233123" flag="0"/>
      <vel value="0.0657029201" flag="0"/>
      <psa03 value="0.3138193534" flag="0"/>
      <psa10 value="0.0633226921" flag="0"/>
      <psa30 value="0.0113491430" flag="0"/>
    </comp>
    <comp name="--.HNN">
      <acc value="0.1137635387" flag="0"/>
      <vel value="0.1012781972" flag="0"/>
      <psa03 value="0.2363138097" flag="0"/>
      <psa10 value="0.1555555799" flag="0"/>
      <psa30 value="0.0142081815" flag="0"/>
    </comp>
  </station>
  <station code="AKR1" name="AKR1" netid="HI" insttype="unknown" commtype="DIG" lat="38.1536" lon="22.3133">
    <comp name="--.HNE">
      <acc value="0.1070460075" flag="0"/>
      <vel value="0.0878224598" flag="0"/>
      <psa03 value="0.3629971207" flag="0"/>
      <psa10 value="0.1652850279" flag="0"/>
      <psa30 value="0.0084791808" flag="0"/>
    </comp>
    <comp name="--.HNZ">
      <acc value="0.0419430010" flag="0"/>
      <vel value="0.0378442906" flag="0"/>
      <psa03 value="0.1563740126" flag="0"/>
      <psa10 value="0.0400901138" flag="0"/>
      <psa30 value="0.0036250470" flag="0"/>
    </comp>
    <comp name="--.HNN">
      <acc value="0.1194892349" flag="0"/>
      <vel value="0.0843924948" flag="0"/>
      <psa03 value="0.4553446740" flag="0"/>
      <psa10 value="0.0992069457" flag="0"/>
      <psa30 value="0.0082572242" flag="0"/>
    </comp>
  </station>
  <station code="ARE2" name="ARE2" netid="HI" insttype="unknown" commtype="DIG" lat="36.6663" lon="22.3826">
    <comp name="--.HNZ">
      <acc value="0.1366059421" flag="0"/>
      <vel value="0.0508932315" flag="0"/>
      <psa03 value="0.3071053971" flag="0"/>
      <psa10 value="0.0316537429" flag="0"/>
      <psa30 value="0.0065930103" flag="0"/>
    </comp>
    <comp name="--.HNE">
      <acc value="0.3161462315" flag="0"/>
      <vel value="0.1255778804" flag="0"/>
      <psa03 value="0.9576631850" flag="0"/>
      <psa10 value="0.0789114274" flag="0"/>
      <psa30 value="0.0066555214" flag="0"/>
    </comp>
    <comp name="--.HNN">
      <acc value="0.4274919272" flag="0"/>
      <vel value="0.1486785947" flag="0"/>
      <psa03 value="1.0699565989" flag="0"/>
      <psa10 value="0.0742824753" flag="0"/>
      <psa30 value="0.0083470211" flag="0"/>
    </comp>
  </station>
  <station code="ARS1" name="ARS1" netid="HI" insttype="CMG-5TD,ACCELEROMETER,GURALP" commtype="DIG" lat="37.6349" lon="22.7293">
    <comp name="--.HNE">
      <acc value="0.1339879292" flag="0"/>
      <vel value="0.1161850194" flag="0"/>
      <psa03 value="0.4097399146" flag="0"/>
      <psa10 value="0.1974957505" flag="0"/>
      <psa30 value="0.0132086166" flag="0"/>
    </comp>
    <comp name="--.HNN">
      <acc value="0.1348573076" flag="0"/>
      <vel value="0.1312364076" flag="0"/>
      <psa03 value="0.3555906280" flag="0"/>
      <psa10 value="0.3025969277" flag="0"/>
      <psa30 value="0.0215528902" flag="0"/>
    </comp>
    <comp name="--.HNZ">
      <acc value="0.0761824819" flag="0"/>
      <vel value="0.0584342429" flag="0"/>
      <psa03 value="0.2189488164" flag="0"/>
      <psa10 value="0.0640380541" flag="0"/>
      <psa30 value="0.0089197907" flag="0"/>
    </comp>
  </station>
  <station code="GTH2" name="GTH2" netid="HI" insttype="unknown" commtype="DIG" lat="36.7603" lon="22.5659">
    <comp name="--.HNN">
      <acc value="0.3091673008" flag="0"/>
      <vel value="0.1982405608" flag="0"/>
      <psa03 value="0.8617404902" flag="0"/>
      <psa10 value="0.1120520036" flag="0"/>
      <psa30 value="0.0127397167" flag="0"/>
    </comp>
    <comp name="--.HNE">
      <acc value="0.3735671640" flag="0"/>
      <vel value="0.2304929573" flag="0"/>
      <psa03 value="0.8111378108" flag="0"/>
      <psa10 value="0.1351517670" flag="0"/>
      <psa30 value="0.0116311208" flag="0"/>
    </comp>
    <comp name="--.HNZ">
      <acc value="0.1633002999" flag="0"/>
      <vel value="0.0866673976" flag="0"/>
      <psa03 value="0.3588509909" flag="0"/>
      <psa10 value="0.0624724782" flag="0"/>
      <psa30 value="0.0048282034" flag="0"/>
    </comp>
  </station>
  <station code="KAC1" name="KAC1" netid="HI" insttype="unknown" commtype="DIG" lat="38.1434" lon="21.5497">
    <comp name="--.HNE">
      <acc value="0.1578727271" flag="0"/>
      <vel value="0.2082695999" flag="0"/>
      <psa03 value="0.4782048642" flag="0"/>
      <psa10 value="0.3166009022" flag="0"/>
      <psa30 value="0.0218722020" flag="0"/>
    </comp>
    <comp name="--.HNN">
      <acc value="0.1940355689" flag="0"/>
      <vel value="0.1624951969" flag="0"/>
      <psa03 value="0.7211081500" flag="0"/>
      <psa10 value="0.2525979078" flag="0"/>
      <psa30 value="0.0340519118" flag="0"/>
    </comp>
    <comp name="--.HNZ">
      <acc value="0.0817876535" flag="0"/>
      <vel value="0.1237781731" flag="0"/>
      <psa03 value="0.2144440675" flag="0"/>
      <psa10 value="0.2282405638" flag="0"/>
      <psa30 value="0.0215811024" flag="0"/>
    </comp>
  </station>
  <station code="KAL3" name="KAL3" netid="HI" insttype="unknown" commtype="DIG" lat="37.0246" lon="22.103">
    <comp name="--.HNE">
      <acc value="1.7558401100" flag="0"/>
      <vel value="0.9927562737" flag="0"/>
      <psa03 value="5.6508676889" flag="0"/>
      <psa10 value="0.9837345719" flag="0"/>
      <psa30 value="0.0871901861" flag="0"/>
    </comp>
    <comp name="--.HNN">
      <acc value="1.3302939303" flag="0"/>
      <vel value="0.7967974374" flag="0"/>
      <psa03 value="3.3614261911" flag="0"/>
      <psa10 value="0.9080892506" flag="0"/>
      <psa30 value="0.0759535681" flag="0"/>
    </comp>
    <comp name="--.HNZ">
      <acc value="0.6702466530" flag="0"/>
      <vel value="0.3268946876" flag="0"/>
      <psa03 value="1.7258899649" flag="0"/>
      <psa10 value="0.4291631601" flag="0"/>
      <psa30 value="0.0488675972" flag="0"/>
    </comp>
  </station>
  <station code="KLV1" name="KLV1" netid="HI" insttype="CMG-5TD,ACCELEROMETER,GURALP" commtype="DIG" lat="38.0326" lon="22.108">
    <comp name="--.HNE">
      <acc value="0.1759115861" flag="0"/>
      <vel value="0.1053840182" flag="0"/>
      <psa03 value="0.7226322986" flag="0"/>
      <psa10 value="0.0882167840" flag="0"/>
      <psa30 value="0.0072225728" flag="0"/>
    </comp>
    <comp name="--.HNN">
      <acc value="0.1680420410" flag="0"/>
      <vel value="0.0972148415" flag="0"/>
      <psa03 value="0.5415540875" flag="0"/>
      <psa10 value="0.0924460193" flag="0"/>
      <psa30 value="0.0086486642" flag="0"/>
    </comp>
    <comp name="--.HNZ">
      <acc value="0.0431148077" flag="0"/>
      <vel value="0.0248912002" flag="0"/>
      <psa03 value="0.1255809689" flag="0"/>
      <psa10 value="0.0313274922" flag="0"/>
      <psa30 value="0.0017160249" flag="0"/>
    </comp>
  </station>
  <station code="KOR2" name="KOR2" netid="HI" insttype="unknown" commtype="DIG" lat="37.9401" lon="22.9495">
    <comp name="--.HNE">
      <acc value="0.1340615365" flag="0"/>
      <vel value="0.1185122095" flag="0"/>
      <psa03 value="0.3194391896" flag="0"/>
      <psa10 value="0.1314327943" flag="0"/>
      <psa30 value="0.0182662059" flag="0"/>
    </comp>
    <comp name="--.HNN">
      <acc value="0.1006910378" flag="0"/>
      <vel value="0.0759824783" flag="0"/>
      <psa03 value="0.2949856233" flag="0"/>
      <psa10 value="0.1321095742" flag="0"/>
      <psa30 value="0.0113570113" flag="0"/>
    </comp>
    <comp name="--.HNZ">
      <acc value="0.0644612084" flag="0"/>
      <vel value="0.0482126882" flag="0"/>
      <psa03 value="0.2196616888" flag="0"/>
      <psa10 value="0.0643412880" flag="0"/>
      <psa30 value="0.0053761985" flag="0"/>
    </comp>
  </station>
  <station code="KRI1" name="KRI1" netid="HI" insttype="CMG-5TD,ACCELEROMETER,GURALP" commtype="DIG" lat="37.6621" lon="20.8172">
    <comp name="--.HNZ">
      <acc value="0.0666801360" flag="0"/>
      <vel value="0.0311292742" flag="0"/>
      <psa03 value="0.1332460139" flag="0"/>
      <psa10 value="0.0528244973" flag="0"/>
      <psa30 value="0.0039582787" flag="0"/>
    </comp>
    <comp name="--.HNE">
      <acc value="0.1062971276" flag="0"/>
      <vel value="0.0669995731" flag="0"/>
      <psa03 value="0.2104903711" flag="0"/>
      <psa10 value="0.1011164755" flag="0"/>
      <psa30 value="0.0063957977" flag="0"/>
    </comp>
    <comp name="--.HNN">
      <acc value="0.1107678483" flag="0"/>
      <vel value="0.0724391843" flag="0"/>
      <psa03 value="0.2566180806" flag="0"/>
      <psa10 value="0.1079202654" flag="0"/>
      <psa30 value="0.0076072891" flag="0"/>
    </comp>
  </station>
  <station code="KYP2" name="KYP2" netid="HI" insttype="unknown" commtype="DIG" lat="37.2497" lon="21.667">
    <comp name="--.HNE">
      <acc value="0.9709600146" flag="0"/>
      <vel value="0.2770435324" flag="0"/>
      <psa03 value="1.5702700600" flag="0"/>
      <psa10 value="0.2032550262" flag="0"/>
      <psa30 value="0.0261073606" flag="0"/>
    </comp>
    <comp name="--.HNN">
      <acc value="1.2205363625" flag="0"/>
      <vel value="0.2398322462" flag="0"/>
      <psa03 value="1.7627044955" flag="0"/>
      <psa10 value="0.1720858496" flag="0"/>
      <psa30 value="0.0161703809" flag="0"/>
    </comp>
    <comp name="--.HNZ">
      <acc value="1.1989917401" flag="0"/>
      <vel value="0.2670748771" flag="0"/>
      <psa03 value="1.1841833593" flag="0"/>
      <psa10 value="0.1621293828" flag="0"/>
      <psa30 value="0.0132165097" flag="0"/>
    </comp>
  </station>
  <station code="LEO1" name="LEO1" netid="HI" insttype="unknown" commtype="DIG" lat="37.1689" lon="22.8637">
    <comp name="--.HNE">
      <acc value="0.0823294340" flag="0"/>
      <vel value="0.0399229559" flag="0"/>
      <psa03 value="0.2287059830" flag="0"/>
      <psa10 value="0.0513135762" flag="0"/>
      <psa30 value="0.0062613065" flag="0"/>
    </comp>
    <comp name="--.HNZ">
      <acc value="0.0551245416" flag="0"/>
      <vel value="0.0247728742" flag="0"/>
      <psa03 value="0.1226080052" flag="0"/>
      <psa10 value="0.0252803581" flag="0"/>
      <psa30 value="0.0059823101" flag="0"/>
    </comp>
    <comp name="--.HNN">
      <acc value="0.0690510490" flag="0"/>
      <vel value="0.0402986408" flag="0"/>
      <psa03 value="0.1576674199" flag="0"/>
      <psa10 value="0.0378434734" flag="0"/>
      <psa30 value="0.0064643694" flag="0"/>
    </comp>
  </station>
  <station code="NMA1" name="NMA1" netid="HI" insttype="unknown" commtype="DIG" lat="37.8187" lon="22.6627">
    <comp name="--.HNE">
      <acc value="0.1264355043" flag="0"/>
      <vel value="0.0741725000" flag="0"/>
      <psa03 value="0.4245205528" flag="0"/>
      <psa10 value="0.1205128419" flag="0"/>
      <psa30 value="0.0150280097" flag="0"/>
    </comp>
    <comp name="--.HNZ">
      <acc value="0.0788324510" flag="0"/>
      <vel value="0.0777252519" flag="0"/>
      <psa03 value="0.3223589073" flag="0"/>
      <psa10 value="0.0895160200" flag="0"/>
      <psa30 value="0.0107771498" flag="0"/>
    </comp>
    <comp name="--.HNN">
      <acc value="0.0975629338" flag="0"/>
      <vel value="0.1035120337" flag="0"/>
      <psa03 value="0.3530194549" flag="0"/>
      <psa10 value="0.1419325692" flag="0"/>
      <psa30 value="0.0211335895" flag="0"/>
    </comp>
  </station>
  <station code="PET1" name="PET1" netid="HI" insttype="unknown" commtype="DIG" lat="36.9639" lon="21.9254">
    <comp name="--.HNN">
      <acc value="2.5029557164" flag="0"/>
      <vel value="1.3341313101" flag="0"/>
      <psa03 value="9.1781185191" flag="0"/>
      <psa10 value="0.8566122876" flag="0"/>
      <psa30 value="0.0573512597" flag="0"/>
    </comp>
    <comp name="--.HNE">
      <acc value="1.3698559691" flag="0"/>
      <vel value="0.7157063518" flag="0"/>
      <psa03 value="3.2010698241" flag="0"/>
      <psa10 value="0.7267493033" flag="0"/>
      <psa30 value="0.0568372672" flag="0"/>
    </comp>
    <comp name="--.HNZ">
      <acc value="0.9553501092" flag="0"/>
      <vel value="0.4625805747" flag="0"/>
      <psa03 value="2.5031412118" flag="0"/>
      <psa10 value="0.2715804744" flag="0"/>
      <psa30 value="0.0255950755" flag="0"/>
    </comp>
  </station>
