<stationlist xmlns:esm="https://esm-db.eu/esmws/shakemap/1/" created="1781468642">
	<station code="AIG2" name="AIG2" netid="HI" source="ITSAK Strong Motion Network" insttype="" lat="38.2417" lon="22.0726" esm:processing="automatic (Paolucci et al 2011)" esm:quality="best">
		<comp name="--.HNE" depth="0.0">
			<acc value="0.0817732255120188" flag="0"/>
			<vel value="0.0660061496391273" flag="0"/>
			<psa03 value="0.312243184578568" flag="0"/>
			<psa10 value="0.0634617565299159" flag="0"/>
			<psa30 value="0.0115479608290638" flag="0"/>
		</comp>
		<comp name="--.HNN" depth="0.0">
			<acc value="0.1140248736208" flag="0"/>
			<vel value="0.101560510260385" flag="0"/>
			<psa03 value="0.23349332195332" flag="0"/>
			<psa10 value="0.155681168113344" flag="0"/>
			<psa30 value="0.0142437019086803" flag="0"/>
		</comp>
		<comp name="--.HNZ" depth="0.0">
			<acc value="0.0434039421199617" flag="0"/>
			<vel value="0.0327109909228027" flag="0"/>
			<psa03 value="0.138345623051895" flag="0"/>
			<psa10 value="0.0705696098903175" flag="0"/>
			<psa30 value="0.00626959949686373" flag="0"/>
		</comp>
	</station>
	<station code="ARG2" name="ARG2" netid="HI" source="ITSAK Strong Motion Network" insttype="" lat="38.1783" lon="20.4878" esm:processing="automatic (Paolucci et al 2011)" esm:quality="best">
		<comp name="--.HNE" depth="0.0">
			<acc value="0.0399956136055356" flag="0"/>
			<vel value="0.0268964590451109" flag="0"/>
			<psa03 value="0.0873670897242521" flag="0"/>
			<psa10 value="0.0308287353774192" flag="0"/>
			<psa30 value="0.00560141606632407" flag="0"/>
		</comp>
		<comp name="--.HNN" depth="0.0">
			<acc value="0.0409274422739748" flag="0"/>
			<vel value="0.0332933988259432" flag="0"/>
			<psa03 value="0.088283535850977" flag="0"/>
			<psa10 value="0.035519566746976" flag="0"/>
			<psa30 value="0.00494461213962068" flag="0"/>
		</comp>
		<comp name="--.HNZ" depth="0.0">
			<acc value="0.0235567617650412" flag="0"/>
			<vel value="0.0167615649282601" flag="0"/>
			<psa03 value="0.0805141774191109" flag="0"/>
			<psa10 value="0.0278828027238387" flag="0"/>
			<psa30 value="0.00410072790309825" flag="0"/>
		</comp>
	</station>
	<station code="CH01" name="CH01" netid="HI" source="ITSAK Strong Motion Network" insttype="" lat="35.517" lon="24.0208" esm:processing="automatic (Paolucci et al 2011)" esm:quality="best">
		<comp name="--.HNE" depth="0.0">
			<acc value="0.0110988141970959" flag="0"/>
			<vel value="0.0130437212973152" flag="0"/>
			<psa03 value="0.0394638773090264" flag="0"/>
			<psa10 value="0.0148198614305877" flag="0"/>
			<psa30 value="0.00463158598650763" flag="0"/>
		</comp>
		<comp name="--.HNN" depth="0.0">
			<acc value="0.00997625127199267" flag="0"/>
			<vel value="0.0114425533236915" flag="0"/>
			<psa03 value="0.027864384941251" flag="0"/>
			<psa10 value="0.0169428648816471" flag="0"/>
			<psa30 value="0.0053099771765946" flag="0"/>
		</comp>
		<comp name="--.HNZ" depth="0.0">
			<acc value="0.00718150195969176" flag="0"/>
			<vel value="0.00770395857970579" flag="0"/>
			<psa03 value="0.0206760011940232" flag="0"/>
			<psa10 value="0.0137541992731997" flag="0"/>
			<psa30 value="0.00164311155640997" flag="0"/>
		</comp>
	</station>
	<station code="KOR2" name="KOR2" netid="HI" source="ITSAK Strong Motion Network" insttype="" lat="37.9401" lon="22.9495" esm:processing="automatic (Paolucci et al 2011)" esm:quality="best">
		<comp name="--.HNE" depth="0.0">
			<acc value="0.134048558501296" flag="0"/>
			<vel value="0.117897990654347" flag="0"/>
			<psa03 value="0.317815407877681" flag="0"/>
			<psa10 value="0.131361662065422" flag="0"/>
			<psa30 value="0.0183921850586626" flag="0"/>
		</comp>
		<comp name="--.HNN" depth="0.0">
			<acc value="0.100963608871341" flag="0"/>
			<vel value="0.0761918931394594" flag="0"/>
			<psa03 value="0.295932583247945" flag="0"/>
			<psa10 value="0.13243370808321" flag="0"/>
			<psa30 value="0.0111710733621188" flag="0"/>
		</comp>
		<comp name="--.HNZ" depth="0.0">
			<acc value="0.0637362683495367" flag="0"/>
			<vel value="0.048157260177776" flag="0"/>
			<psa03 value="0.217559808102892" flag="0"/>
			<psa10 value="0.0643555232375739" flag="0"/>
			<psa30 value="0.00537656867128764" flag="0"/>
		</comp>
	</station>
	<station code="KRI1" name="KRI1" netid="HI" source="ITSAK Strong Motion Network" insttype="" lat="37.6621" lon="20.8172" esm:processing="automatic (Paolucci et al 2011)" esm:quality="best">
		<comp name="--.HNE" depth="0.0">
			<acc value="0.106061156579447" flag="0"/>
			<vel value="0.0672752064581634" flag="0"/>
			<psa03 value="0.212448198650519" flag="0"/>
			<psa10 value="0.10123114606661" flag="0"/>
			<psa30 value="0.00648726016581483" flag="0"/>
		</comp>
		<comp name="--.HNN" depth="0.0">
			<acc value="0.110852093035168" flag="0"/>
			<vel value="0.0729979668152659" flag="0"/>
			<psa03 value="0.255891680734664" flag="0"/>
			<psa10 value="0.108117067225093" flag="0"/>
			<psa30 value="0.00790052670445373" flag="0"/>
		</comp>
		<comp name="--.HNZ" depth="0.0">
			<acc value="0.0665291731207654" flag="0"/>
			<vel value="0.0304518392718453" flag="0"/>
			<psa03 value="0.135915368309446" flag="0"/>
			<psa10 value="0.0527477467793516" flag="0"/>
			<psa30 value="0.00393906844395246" flag="0"/>
		</comp>
	</station>
	<station code="LEO1" name="LEO1" netid="HI" source="ITSAK Strong Motion Network" insttype="" lat="37.1689" lon="22.8637" esm:processing="automatic (Paolucci et al 2011)" esm:quality="best">
		<comp name="--.HNE" depth="0.0">
			<acc value="0.0818306687590143" flag="0"/>
			<vel value="0.040736844391046" flag="0"/>
			<psa03 value="0.228982418961469" flag="0"/>
			<psa10 value="0.0513516230430059" flag="0"/>
			<psa30 value="0.00626032304901126" flag="0"/>
		</comp>
		<comp name="--.HNN" depth="0.0">
			<acc value="0.0687460934890017" flag="0"/>
			<vel value="0.0424962354266367" flag="0"/>
			<psa03 value="0.158590453755906" flag="0"/>
			<psa10 value="0.0382122863764362" flag="0"/>
			<psa30 value="0.006543809328586" flag="0"/>
		</comp>
		<comp name="--.HNZ" depth="0.0">
			<acc value="0.0551133899203341" flag="0"/>
			<vel value="0.0243380556228284" flag="0"/>
			<psa03 value="0.122445382238976" flag="0"/>
			<psa10 value="0.0252834549048027" flag="0"/>
			<psa30 value="0.00605913263780057" flag="0"/>
		</comp>
	</station>
	<station code="NMA1" name="NMA1" netid="HI" source="ITSAK Strong Motion Network" insttype="" lat="37.81873" lon="22.662702" esm:processing="automatic (Paolucci et al 2011)" esm:quality="best">
		<comp name="--.HNE" depth="0.0">
			<acc value="0.126266298027322" flag="0"/>
			<vel value="0.075215208793405" flag="0"/>
			<psa03 value="0.431819397582497" flag="0"/>
			<psa10 value="0.120660905692829" flag="0"/>
			<psa30 value="0.0150908413608448" flag="0"/>
		</comp>
		<comp name="--.HNN" depth="0.0">
			<acc value="0.0972471080098569" flag="0"/>
			<vel value="0.101804105563795" flag="0"/>
			<psa03 value="0.356716089023559" flag="0"/>
			<psa10 value="0.141871118265318" flag="0"/>
			<psa30 value="0.0212262444678563" flag="0"/>
		</comp>
		<comp name="--.HNZ" depth="0.0">
			<acc value="0.0781433895756871" flag="0"/>
			<vel value="0.0763190910996994" flag="0"/>
			<psa03 value="0.318703654219642" flag="0"/>
			<psa10 value="0.0894505656609744" flag="0"/>
			<psa30 value="0.0107879596493822" flag="0"/>
		</comp>
	</station>
	<station code="PYL1" name="PYL1" netid="HI" source="ITSAK Strong Motion Network" insttype="" lat="36.914188" lon="21.695161" esm:processing="automatic (Paolucci et al 2011)" esm:quality="best">
		<comp name="--.HNE" depth="0.0">
			<acc value="1.29297076796378" flag="0"/>
			<vel value="0.593927985884217" flag="0"/>
			<psa03 value="2.92598116522556" flag="0"/>
			<psa10 value="0.409995010157272" flag="0"/>
			<psa30 value="0.0491896485728077" flag="0"/>
		</comp>
		<comp name="--.HNN" depth="0.0">
			<acc value="1.1329173731819" flag="0"/>
			<vel value="0.73734440342274" flag="0"/>
			<psa03 value="2.10957358222991" flag="0"/>
			<psa10 value="0.726111281308817" flag="0"/>
			<psa30 value="0.0534642650785058" flag="0"/>
		</comp>
		<comp name="--.HNZ" depth="0.0">
			<acc value="1.36197996390019" flag="0"/>
			<vel value="0.67905905484604" flag="0"/>
			<psa03 value="2.91049780619568" flag="0"/>
			<psa10 value="0.493255295742571" flag="0"/>
			<psa30 value="0.0503126396321206" flag="0"/>
		</comp>
	</station>
	<station code="SFH1" name="SFH1" netid="HI" source="ITSAK Strong Motion Network" insttype="" lat="38.074232" lon="20.797566" esm:processing="automatic (Paolucci et al 2011)" esm:quality="best">
		<comp name="--.HNE" depth="0.0">
			<acc value="0.049106670554794" flag="0"/>
			<vel value="0.0433212133263952" flag="0"/>
			<psa03 value="0.115611981643056" flag="0"/>
			<psa10 value="0.0678241355161143" flag="0"/>
			<psa30 value="0.00573890517430271" flag="0"/>
		</comp>
		<comp name="--.HNN" depth="0.0">
			<acc value="0.0533609257592772" flag="0"/>
			<vel value="0.0465774714440224" flag="0"/>
			<psa03 value="0.134134875360526" flag="0"/>
			<psa10 value="0.0622406193855732" flag="0"/>
			<psa30 value="0.00479288875535776" flag="0"/>
		</comp>
		<comp name="--.HNZ" depth="0.0">
			<acc value="0.0285837074735925" flag="0"/>
			<vel value="0.0217265662686372" flag="0"/>
			<psa03 value="0.0682259206740759" flag="0"/>
			<psa10 value="0.0239971421928984" flag="0"/>
			<psa30 value="0.00499706686448877" flag="0"/>
		</comp>
	</station>
	<station code="TRP1" name="TRP1" netid="HI" source="ITSAK Strong Motion Network" insttype="" lat="37.511219" lon="22.363399" esm:processing="automatic (Paolucci et al 2011)" esm:quality="best">
		<comp name="--.HNE" depth="0.0">
			<acc value="0.141278240081382" flag="0"/>
			<vel value="0.113092488696823" flag="0"/>
			<psa03 value="0.342735808731935" flag="0"/>
			<psa10 value="0.0898261455412982" flag="0"/>
			<psa30 value="0.00719894189456994" flag="0"/>
		</comp>
		<comp name="--.HNN" depth="0.0">
			<acc value="0.167771568980143" flag="0"/>
			<vel value="0.12845286210747" flag="0"/>
			<psa03 value="0.458294568099277" flag="0"/>
			<psa10 value="0.152546260441096" flag="0"/>
			<psa30 value="0.0081862247972169" flag="0"/>
		</comp>
		<comp name="--.HNZ" depth="0.0">
			<acc value="0.0760956541751213" flag="0"/>
			<vel value="0.0553332006751053" flag="0"/>
			<psa03 value="0.25820906341656" flag="0"/>
			<psa10 value="0.0927947296954294" flag="0"/>
			<psa30 value="0.00485344943387216" flag="0"/>
		</comp>
	</station>
	<station code="ZAK2" name="ZAK2" netid="HI" source="ITSAK Strong Motion Network" insttype="" lat="37.787501" lon="20.899999" esm:processing="automatic (Paolucci et al 2011)" esm:quality="best">
		<comp name="--.HNE" depth="0.0">
			<acc value="0.140359203431465" flag="0"/>
			<vel value="0.114689555334411" flag="0"/>
			<psa03 value="0.481747413401844" flag="0"/>
			<psa10 value="0.280690434363719" flag="0"/>
			<psa30 value="0.019761637444829" flag="0"/>
		</comp>
		<comp name="--.HNN" depth="0.0">
			<acc value="0.13957514432186" flag="0"/>
			<vel value="0.092013410104181" flag="0"/>
			<psa03 value="0.470083515725867" flag="0"/>
			<psa10 value="0.159134966910564" flag="0"/>
			<psa30 value="0.0140421885594099" flag="0"/>
		</comp>
		<comp name="--.HNZ" depth="0.0">
			<acc value="0.0662479557273404" flag="0"/>
			<vel value="0.0490867231233455" flag="0"/>
			<psa03 value="0.175357991606332" flag="0"/>
			<psa10 value="0.0974329469545596" flag="0"/>
			<psa30 value="0.00983790837981488" flag="0"/>
		</comp>
	</station>
	<station code="ATHP" name="ATHP" netid="HL" source="National Observatory of Athens Seismic Network" insttype="" lat="38.000799" lon="23.773487" esm:processing="automatic (Paolucci et al 2011)" esm:quality="best">
		<comp name="00.HNE" depth="0.0">
			<acc value="0.0120097271212471" flag="0"/>
			<vel value="0.0191778577673936" flag="0"/>
			<psa03 value="0.0349779889951079" flag="0"/>
			<psa10 value="0.021966519549114" flag="0"/>
			<psa30 value="0.00326136854966045" flag="0"/>
		</comp>
		<comp name="00.HNN" depth="0.0">
			<acc value="0.0159058167289459" flag="0"/>
			<vel value="0.0163905180727254" flag="0"/>
			<psa03 value="0.0403180198292764" flag="0"/>
			<psa10 value="0.0400031987655927" flag="0"/>
			<psa30 value="0.00224025298909927" flag="0"/>
		</comp>
		<comp name="00.HNZ" depth="0.0">
			<acc value="0.00947057765719288" flag="0"/>
			<vel value="0.0101754417160543" flag="0"/>
			<psa03 value="0.0262312897775446" flag="0"/>
			<psa10 value="0.0218505862441015" flag="0"/>
			<psa30 value="0.00285925420322514" flag="0"/>
		</comp>
	</station>
	<station code="IMMV" name="IMMV" netid="HL" source="National Observatory of Athens Seismic Network" insttype="" lat="35.4606" lon="23.9811" esm:processing="automatic (Paolucci et al 2011)" esm:quality="best">
		<comp name="--.HNE" depth="0.0">
			<acc value="0.008182633914952" flag="0"/>
			<vel value="0.00963033954390132" flag="0"/>
			<psa03 value="0.0245930223962041" flag="0"/>
			<psa10 value="0.0181040561798718" flag="0"/>
			<psa30 value="0.00176972556896691" flag="0"/>
		</comp>
		<comp name="--.HNN" depth="0.0">
			<acc value="0.00878045821854964" flag="0"/>
			<vel value="0.00767540991370393" flag="0"/>
			<psa03 value="0.0363479391225804" flag="0"/>
			<psa10 value="0.0102443380121167" flag="0"/>
			<psa30 value="0.00216613537083748" flag="0"/>
		</comp>
		<comp name="--.HNZ" depth="0.0">
			<acc value="0.00548650933946373" flag="0"/>
			<vel value="0.0046708309750314" flag="0"/>
			<psa03 value="0.020075857270767" flag="0"/>
			<psa10 value="0.00876588413430317" flag="0"/>
			<psa30 value="0.0013165291927645" flag="0"/>
		</comp>
	</station>
	<station code="LKR" name="LKR" netid="HL" source="National Observatory of Athens Seismic Network" insttype="" lat="38.64957" lon="22.998812" esm:processing="automatic (Paolucci et al 2011)" esm:quality="best">
		<comp name="--.HNE" depth="0.0">
			<acc value="0.010505403231425" flag="0"/>
			<vel value="0.00679194627707909" flag="0"/>
			<psa03 value="0.0282449414012488" flag="0"/>
			<psa10 value="0.00863332222772744" flag="0"/>
			<psa30 value="0.0016724104764863" flag="0"/>
		</comp>
		<comp name="--.HNN" depth="0.0">
			<acc value="0.00847019228927885" flag="0"/>
			<vel value="0.00684907073223832" flag="0"/>
			<psa03 value="0.0235772728161128" flag="0"/>
			<psa10 value="0.00908359580614218" flag="0"/>
			<psa30 value="0.00206611499497845" flag="0"/>
		</comp>
		<comp name="--.HNZ" depth="0.0">
			<acc value="0.00505365809201215" flag="0"/>
			<vel value="0.00651397428406554" flag="0"/>
			<psa03 value="0.0131702995510421" flag="0"/>
			<psa10 value="0.00925975528834333" flag="0"/>
			<psa30 value="0.00215565550993146" flag="0"/>
		</comp>
	</station>
	<station code="LXRA" name="LXRA" netid="HL" source="National Observatory of Athens Seismic Network" insttype="" lat="38.20006" lon="20.43718" esm:processing="automatic (Paolucci et al 2011)" esm:quality="best">
		<comp name="00.HNE" depth="0.0">
			<acc value="0.0431588551971297" flag="0"/>
			<vel value="0.0478389203506639" flag="0"/>
			<psa03 value="0.10853032501806" flag="0"/>
			<psa10 value="0.0674564911614801" flag="0"/>
			<psa30 value="0.0113961399383416" flag="0"/>
		</comp>
		<comp name="00.HNN" depth="0.0">
			<acc value="0.0472547593208" flag="0"/>
			<vel value="0.0462076278127381" flag="0"/>
			<psa03 value="0.169007664678338" flag="0"/>
			<psa10 value="0.0791428803274086" flag="0"/>
			<psa30 value="0.0171306664892486" flag="0"/>
		</comp>
		<comp name="00.HNZ" depth="0.0">
			<acc value="0.0212482361248176" flag="0"/>
			<vel value="0.0282543275233418" flag="0"/>
			<psa03 value="0.0473283800645703" flag="0"/>
			<psa10 value="0.0355721002270612" flag="0"/>
			<psa30 value="0.0075194047903307" flag="0"/>
		</comp>
	</station>
	<station code="MET1" name="MET1" netid="HL" source="National Observatory of Athens Seismic Network" insttype="" lat="37.578529" lon="23.385876" esm:processing="automatic (Paolucci et al 2011)" esm:quality="best">
		<comp name="00.HNE" depth="0.0">
			<acc value="0.0289805578632456" flag="0"/>
			<vel value="0.0318528519125463" flag="0"/>
			<psa03 value="0.0576540276297125" flag="0"/>
			<psa10 value="0.0509821223153961" flag="0"/>
			<psa30 value="0.00934659583276987" flag="0"/>
		</comp>
		<comp name="00.HNN" depth="0.0">
			<acc value="0.0363489868076571" flag="0"/>
			<vel value="0.0510973178295842" flag="0"/>
			<psa03 value="0.0679400788217893" flag="0"/>
			<psa10 value="0.0458564290133704" flag="0"/>
			<psa30 value="0.00974412133355001" flag="0"/>
		</comp>
		<comp name="00.HNZ" depth="0.0">
			<acc value="0.0247910830081933" flag="0"/>
			<vel value="0.021935451396212" flag="0"/>
			<psa03 value="0.0732666087615899" flag="0"/>
			<psa10 value="0.0233295079654074" flag="0"/>
			<psa30 value="0.00481509605981603" flag="0"/>
		</comp>
	</station>
	<station code="MNVA" name="MNVA" netid="HL" source="National Observatory of Athens Seismic Network" insttype="" lat="36.68709" lon="23.03734" esm:processing="automatic (Paolucci et al 2011)" esm:quality="best">
		<comp name="00.HNE" depth="0.0">
			<acc value="0.0204953046341608" flag="0"/>
			<vel value="0.0211061222897057" flag="0"/>
			<psa03 value="0.0622372479122296" flag="0"/>
			<psa10 value="0.0282261248422442" flag="0"/>
			<psa30 value="0.00325866649566263" flag="0"/>
		</comp>
		<comp name="00.HNN" depth="0.0">
			<acc value="0.0253424245038849" flag="0"/>
			<vel value="0.01488464768965" flag="0"/>
			<psa03 value="0.0575832521078482" flag="0"/>
			<psa10 value="0.0179363788220698" flag="0"/>
			<psa30 value="0.0037902415015646" flag="0"/>
		</comp>
		<comp name="00.HNZ" depth="0.0">
			<acc value="0.0363302845358442" flag="0"/>
			<vel value="0.0165093669516958" flag="0"/>
			<psa03 value="0.0645354939097477" flag="0"/>
			<psa10 value="0.0176873266985889" flag="0"/>
			<psa30 value="0.00237814191523057" flag="0"/>
		</comp>
	</station>
	<station code="SMHA" name="SMHA" netid="HL" source="National Observatory of Athens Seismic Network" insttype="" lat="38.25123" lon="20.6477" esm:processing="automatic (Paolucci et al 2011)" esm:quality="best">
		<comp name="00.HNE" depth="0.0">
			<acc value="0.0596105076826436" flag="0"/>
			<vel value="0.0526229377082558" flag="0"/>
			<psa03 value="0.177718397971669" flag="0"/>
			<psa10 value="0.0630626100884231" flag="0"/>
			<psa30 value="0.00591102615980661" flag="0"/>
		</comp>
		<comp name="00.HNN" depth="0.0">
			<acc value="0.0686531021316523" flag="0"/>
			<vel value="0.0591930538067198" flag="0"/>
			<psa03 value="0.182678872412089" flag="0"/>
			<psa10 value="0.0559768681927975" flag="0"/>
			<psa30 value="0.00416229406488765" flag="0"/>
		</comp>
		<comp name="00.HNZ" depth="0.0">
			<acc value="0.0254810647300126" flag="0"/>
			<vel value="0.0176702338719155" flag="0"/>
			<psa03 value="0.0719960454263379" flag="0"/>
			<psa10 value="0.0205051133631264" flag="0"/>
			<psa30 value="0.00256704047049945" flag="0"/>
		</comp>
	</station>
	<station code="AMT" name="AMT" netid="HP" source="University of Patras, Seismological Laboratory (PSLNET)" insttype="" lat="37.5324" lon="21.7089" esm:processing="manual (Paolucci et al 2011)" esm:quality="good">
		<comp name="--.HNE" depth="0.0">
			<acc value="0.940660396706904" flag="0"/>
			<vel value="0.429751932435534" flag="0"/>
			<psa03 value="4.18574228488382" flag="0"/>
			<psa10 value="0.324101720148351" flag="0"/>
			<psa30 value="0.0252222708516594" flag="0"/>
		</comp>
		<comp name="--.HNN" depth="0.0">
			<acc value="0.904298612344037" flag="0"/>
			<vel value="0.594815581089599" flag="0"/>
			<psa03 value="1.77702205232313" flag="0"/>
			<psa10 value="0.604119419946707" flag="0"/>
			<psa30 value="0.0298855297696767" flag="0"/>
		</comp>
		<comp name="--.HNZ" depth="0.0">
			<acc value="0.445807765643905" flag="0"/>
			<vel value="0.261984563199156" flag="0"/>
			<psa03 value="0.977389080563144" flag="0"/>
