<?xml version="1.0" encoding="UTF-8" standalone="yes"?>
<!DOCTYPE earthquake SYSTEM "stationlist.dtd">
<stationlist created="" xmlns="ch.ethz.sed.shakemap.usgs.xml">
  <station code="KTHA" name="KTHA" netid="GE" insttype="STS-2/N" commtype="DIG" lat="36.2566" lon="23.0621">
    <comp name="--.HHN">
      <acc value="0.0402960634" flag="0"/>
      <vel value="0.0227153480" flag="0"/>
      <psa03 value="0.1314438433" flag="0"/>
      <psa10 value="0.0224004187" flag="0"/>
      <psa30 value="0.0048600280" flag="0"/>
    </comp>
    <comp name="--.HHZ">
      <acc value="0.0240381272" flag="0"/>
      <vel value="0.0132277362" flag="0"/>
      <psa03 value="0.0939239450" flag="0"/>
      <psa10 value="0.0155877506" flag="0"/>
      <psa30 value="0.0022410799" flag="0"/>
    </comp>
    <comp name="--.HHE">
      <acc value="0.0647120919" flag="0"/>
      <vel value="0.0388741552" flag="0"/>
      <psa03 value="0.2134597249" flag="0"/>
      <psa10 value="0.0371592522" flag="0"/>
      <psa30 value="0.0042092015" flag="0"/>
    </comp>
  </station>
</stationlist>
