<?xml version="1.0" encoding="UTF-8" standalone="yes"?>
<!DOCTYPE earthquake SYSTEM "stationlist.dtd">
<stationlist created="" xmlns="ch.ethz.sed.shakemap.usgs.xml">
  <station code="DST" name="DST" netid="KO" insttype="CMG-5T" commtype="DIG" lat="39.6041" lon="28.6267">
    <comp name="--.HNE">
      <acc value="0.0424434677" flag="0"/>
      <vel value="0.0108944921" flag="0"/>
      <psa03 value="0.0441326526" flag="0"/>
      <psa10 value="0.0129688819" flag="0"/>
      <psa30 value="0.0007355166" flag="0"/>
    </comp>
    <comp name="--.HNN">
      <acc value="0.0354535918" flag="0"/>
      <vel value="0.0084644955" flag="0"/>
      <psa03 value="0.0558713696" flag="0"/>
      <psa10 value="0.0076371800" flag="0"/>
      <psa30 value="0.0011197409" flag="0"/>
    </comp>
    <comp name="--.HNZ">
      <acc value="0.0411427244" flag="0"/>
      <vel value="0.0075523330" flag="0"/>
      <psa03 value="0.0414336184" flag="0"/>
      <psa10 value="0.0037741762" flag="0"/>
      <psa30 value="0.0003863574" flag="0"/>
    </comp>
  </station>
  <station code="GEDZ" name="GEDZ" netid="KO" insttype="CMG-6T" commtype="DIG" lat="39.0445" lon="29.4105">
    <comp name="--.HHZ">
      <acc value="0.1227689782" flag="0"/>
      <vel value="0.0232767377" flag="0"/>
      <psa03 value="0.0572572209" flag="0"/>
      <psa10 value="0.0166233636" flag="0"/>
      <psa30 value="0.0006024991" flag="0"/>
    </comp>
    <comp name="--.HHN">
      <acc value="0.2687693360" flag="0"/>
      <vel value="0.0637292871" flag="0"/>
      <psa03 value="0.2112200251" flag="0"/>
      <psa10 value="0.0716629180" flag="0"/>
      <psa30 value="0.0029640036" flag="0"/>
    </comp>
    <comp name="--.HHE">
      <acc value="0.1835071938" flag="0"/>
      <vel value="0.0474475981" flag="0"/>
      <psa03 value="0.1855999000" flag="0"/>
      <psa10 value="0.0616750916" flag="0"/>
      <psa30 value="0.0023484830" flag="0"/>
    </comp>
  </station>
  <station code="GORD" name="GORD" netid="KO" insttype="CMG-5T" commtype="DIG" lat="38.9088" lon="28.1769">
    <comp name="--.HNN">
      <acc value="0.0208403214" flag="0"/>
      <vel value="0.0162873921" flag="0"/>
      <psa03 value="0.0341305125" flag="0"/>
      <psa10 value="0.0271121712" flag="0"/>
      <psa30 value="0.0017235922" flag="0"/>
    </comp>
    <comp name="--.HNE">
      <acc value="0.0290308499" flag="0"/>
      <vel value="0.0163748953" flag="0"/>
      <psa03 value="0.0349889297" flag="0"/>
      <psa10 value="0.0270189756" flag="0"/>
      <psa30 value="0.0010507710" flag="0"/>
    </comp>
    <comp name="--.HNZ">
      <acc value="0.0169476485" flag="0"/>
      <vel value="0.0116605586" flag="0"/>
      <psa03 value="0.0254618015" flag="0"/>
      <psa10 value="0.0114270809" flag="0"/>
      <psa30 value="0.0008554187" flag="0"/>
    </comp>
  </station>
  <station code="KULA" name="KULA" netid="KO" insttype="CMG-3T" commtype="DIG" lat="38.5145" lon="28.6607">
    <comp name="--.HHE">
      <acc value="0.0220619347" flag="0"/>
      <vel value="0.0053219316" flag="0"/>
      <psa03 value="0.0178959132" flag="0"/>
      <psa10 value="0.0061467638" flag="0"/>
      <psa30 value="0.0003132130" flag="0"/>
    </comp>
    <comp name="--.HHN">
      <acc value="0.0210780570" flag="0"/>
      <vel value="0.0069712248" flag="0"/>
      <psa03 value="0.0206753174" flag="0"/>
      <psa10 value="0.0051570171" flag="0"/>
      <psa30 value="0.0003979846" flag="0"/>
    </comp>
  </station>
  <station code="ORLT" name="ORLT" netid="KO" insttype="CMG-5T" commtype="DIG" lat="40.0452" lon="28.8914">
    <comp name="--.HNN">
      <acc value="0.0393091925" flag="0"/>
      <vel value="0.0122333666" flag="0"/>
      <psa03 value="0.1197579859" flag="0"/>
      <psa10 value="0.0149591202" flag="0"/>
      <psa30 value="0.0005379779" flag="0"/>
    </comp>
    <comp name="--.HNZ">
      <acc value="0.0150324207" flag="0"/>
      <vel value="0.0048443834" flag="0"/>
      <psa03 value="0.0225389382" flag="0"/>
      <psa10 value="0.0058037630" flag="0"/>
      <psa30 value="0.0004960385" flag="0"/>
    </comp>
    <comp name="--.HNE">
      <acc value="0.0507617259" flag="0"/>
      <vel value="0.0243572523" flag="0"/>
      <psa03 value="0.0904338387" flag="0"/>
      <psa10 value="0.0136109308" flag="0"/>
      <psa30 value="0.0008230744" flag="0"/>
    </comp>
  </station>
  <station code="SHAP" name="SHAP" netid="KO" insttype="CMG-5T" commtype="DIG" lat="39.0231" lon="29.222">
    <comp name="--.HNE">
      <acc value="0.7122816663" flag="0"/>
      <vel value="0.1128671422" flag="0"/>
      <psa03 value="0.4070206540" flag="0"/>
      <psa10 value="0.0264618214" flag="0"/>
      <psa30 value="0.0025581813" flag="0"/>
    </comp>
    <comp name="--.HNZ">
      <acc value="0.3425039316" flag="0"/>
      <vel value="0.0503695748" flag="0"/>
      <psa03 value="0.0985950301" flag="0"/>
      <psa10 value="0.0178359260" flag="0"/>
      <psa30 value="0.0013248901" flag="0"/>
    </comp>
    <comp name="--.HNN">
      <acc value="0.6727322698" flag="0"/>
      <vel value="0.1384032167" flag="0"/>
      <psa03 value="0.3518210767" flag="0"/>
      <psa10 value="0.0413644403" flag="0"/>
      <psa30 value="0.0032844533" flag="0"/>
    </comp>
  </station>
  <station code="SIMA" name="SIMA" netid="KO" insttype="CMG-6T" commtype="DIG" lat="39.0833" lon="28.9825">
    <comp name="--.HHN">
      <acc value="0.3168962691" flag="0"/>
      <vel value="0.1049466383" flag="0"/>
      <psa03 value="0.3623533569" flag="0"/>
      <psa10 value="0.0389236253" flag="0"/>
      <psa30 value="0.0034122071" flag="0"/>
    </comp>
    <comp name="--.HHZ">
      <acc value="0.8956769578" flag="0"/>
      <vel value="0.0843436786" flag="0"/>
      <psa03 value="0.1227213827" flag="0"/>
      <psa10 value="0.0237633039" flag="0"/>
      <psa30 value="0.0018628221" flag="0"/>
    </comp>
    <comp name="--.HHE">
      <acc value="0.6878426585" flag="0"/>
      <vel value="0.0918762362" flag="0"/>
      <psa03 value="0.2899420178" flag="0"/>
      <psa10 value="0.0486785434" flag="0"/>
      <psa30 value="0.0037183280" flag="0"/>
    </comp>
  </station>
  <station code="SMAA" name="SMAA" netid="KO" insttype="CMG-5T" commtype="DIG" lat="39.1005" lon="28.9805">
    <comp name="--.HNZ">
      <acc value="1.1254423385" flag="0"/>
      <vel value="0.1347706352" flag="0"/>
      <psa03 value="0.2236347823" flag="0"/>
      <psa10 value="0.2168523446" flag="0"/>
      <psa30 value="0.0076557341" flag="0"/>
    </comp>
    <comp name="--.HNE">
      <acc value="0.4237442782" flag="0"/>
      <vel value="0.2805048037" flag="0"/>
      <psa03 value="0.5826991800" flag="0"/>
      <psa10 value="0.3218285784" flag="0"/>
      <psa30 value="0.0159245229" flag="0"/>
    </comp>
    <comp name="--.HNN">
      <acc value="0.3786829208" flag="0"/>
      <vel value="0.2228270278" flag="0"/>
      <psa03 value="0.6092660964" flag="0"/>
      <psa10 value="0.4144729287" flag="0"/>
      <psa30 value="0.0232398601" flag="0"/>
    </comp>
  </station>
  <station code="SUSR" name="SUSR" netid="KO" insttype="CMG-5T" commtype="DIG" lat="39.9627" lon="28.0835">
    <comp name="--.HNE">
      <acc value="0.0392928769" flag="0"/>
      <vel value="0.0144115018" flag="0"/>
      <psa03 value="0.0764300966" flag="0"/>
      <psa10 value="0.0070855727" flag="0"/>
      <psa30 value="0.0005488223" flag="0"/>
    </comp>
    <comp name="--.HNN">
      <acc value="0.0738415506" flag="0"/>
      <vel value="0.0201177292" flag="0"/>
      <psa03 value="0.1431554596" flag="0"/>
      <psa10 value="0.0134250877" flag="0"/>
      <psa30 value="0.0009537255" flag="0"/>
    </comp>
    <comp name="--.HNZ">
      <acc value="0.0357083401" flag="0"/>
      <vel value="0.0113383746" flag="0"/>
      <psa03 value="0.0332462423" flag="0"/>
      <psa10 value="0.0052944769" flag="0"/>
      <psa30 value="0.0004070457" flag="0"/>
    </comp>
  </station>
  <station code="TVSB" name="TVSB" netid="KO" insttype="CMG-3T" commtype="DIG" lat="39.4497" lon="29.4615">
    <comp name="--.HHE">
      <acc value="0.1544977700" flag="0"/>
      <vel value="0.0327214717" flag="0"/>
      <psa03 value="0.1324091236" flag="0"/>
      <psa10 value="0.0207426643" flag="0"/>
      <psa30 value="0.0013995433" flag="0"/>
    </comp>
    <comp name="--.HHZ">
      <acc value="0.0548320650" flag="0"/>
      <vel value="0.0197056610" flag="0"/>
      <psa03 value="0.0563984189" flag="0"/>
      <psa10 value="0.0239340689" flag="0"/>
      <psa30 value="0.0013909882" flag="0"/>
    </comp>
    <comp name="--.HHN">
      <acc value="0.1894432137" flag="0"/>
      <vel value="0.0574012538" flag="0"/>
      <psa03 value="0.1147836615" flag="0"/>
      <psa10 value="0.0253827378" flag="0"/>
      <psa30 value="0.0019024097" flag="0"/>
    </comp>
  </station>
</stationlist>
