<stationlist created="1745836314">
	<station code="MYT1" name="MYT1" netid="HI" source="ITSAK Strong Motion Network" insttype="" lat="39.085" lon="26.5694">
		<comp name=".HNE" depth="0.0">
			<acc value="0.0030515042644704" flag="0"/>
			<vel value="0.00329807408444" flag="0"/>
			<psa03 value="0.00409465015672822" flag="0"/>
			<psa10 value="0.00740329652582701" flag="0"/>
			<psa30 value="0.000501163095428696" flag="0"/>
		</comp>
		<comp name=".HNN" depth="0.0">
			<acc value="0.0024811738050252" flag="0"/>
			<vel value="0.00234043960538" flag="0"/>
			<psa03 value="0.0044036305861" flag="0"/>
			<psa10 value="0.00679737451145423" flag="0"/>
			<psa30 value="0.000511832135533371" flag="0"/>
		</comp>
		<comp name=".HNZ" depth="0.0">
			<acc value="0.001923862449069" flag="0"/>
			<vel value="0.00128458541007" flag="0"/>
			<psa03 value="0.00263189065843099" flag="0"/>
			<psa10 value="0.00469218708435047" flag="0"/>
			<psa30 value="0.000376874835899975" flag="0"/>
		</comp>
	</station>
	<station code="AKS" name="AKS" netid="KO" source="Bogazici University Kandilli Observatory And Earthquake Research Institute (KOERI)" insttype="" lat="38.8785" lon="27.8129">
		<comp name=".HNE" depth="0.0">
			<acc value="0.017623512739116" flag="0"/>
			<vel value="0.00848034279982" flag="0"/>
			<psa03 value="0.0290708034022256" flag="0"/>
			<psa10 value="0.0106811707001269" flag="0"/>
			<psa30 value="0.000665800876872749" flag="0"/>
		</comp>
		<comp name=".HNN" depth="0.0">
			<acc value="0.025341476433066" flag="0"/>
			<vel value="0.0118625069214" flag="0"/>
			<psa03 value="0.0293812406338405" flag="0"/>
			<psa10 value="0.0085642426515354" flag="0"/>
			<psa30 value="0.000807296916958974" flag="0"/>
		</comp>
		<comp name=".HNZ" depth="0.0">
			<acc value="0.01053506029062" flag="0"/>
			<vel value="0.00393108018029" flag="0"/>
			<psa03 value="0.0113950764824684" flag="0"/>
			<psa10 value="0.00470931071872455" flag="0"/>
			<psa30 value="0.000602654297889242" flag="0"/>
		</comp>
	</station>
	<station code="ALT" name="ALT" netid="KO" source="Bogazici University Kandilli Observatory And Earthquake Research Institute (KOERI)" insttype="" lat="39.0541" lon="30.1104">
		<comp name=".HNE" depth="0.0">
			<acc value="0.015660117936" flag="0"/>
			<vel value="0.00394212440964" flag="0"/>
			<psa03 value="0.0174795329332594" flag="0"/>
			<psa10 value="0.00208245060838197" flag="0"/>
			<psa30 value="0.000340282984786041" flag="0"/>
		</comp>
		<comp name=".HNN" depth="0.0">
			<acc value="0.022670516576472" flag="0"/>
			<vel value="0.00930645939745" flag="0"/>
			<psa03 value="0.0373205348022767" flag="0"/>
			<psa10 value="0.00276485050152484" flag="0"/>
			<psa30 value="0.000603662906370439" flag="0"/>
		</comp>
		<comp name=".HNZ" depth="0.0">
			<acc value="0.01506539958537" flag="0"/>
			<vel value="0.00390241570058" flag="0"/>
			<psa03 value="0.0197247623978694" flag="0"/>
			<psa10 value="0.00310884086732617" flag="0"/>
			<psa30 value="0.000633019538605541" flag="0"/>
		</comp>
	</station>
	<station code="ARMT" name="ARMT" netid="KO" source="Bogazici University Kandilli Observatory And Earthquake Research Institute (KOERI)" insttype="" lat="40.5683" lon="28.866">
		<comp name=".HNE" depth="0.0">
			<acc value="0.016419267637974" flag="0"/>
			<vel value="0.00517173425171" flag="0"/>
			<psa03 value="0.0222942190700884" flag="0"/>
			<psa10 value="0.00538860540616995" flag="0"/>
			<psa30 value="0.000505620057348072" flag="0"/>
		</comp>
		<comp name=".HNN" depth="0.0">
			<acc value="0.024235021606182" flag="0"/>
			<vel value="0.010143660855" flag="0"/>
			<psa03 value="0.0333618116187877" flag="0"/>
			<psa10 value="0.00629986233494965" flag="0"/>
			<psa30 value="0.000353511152753712" flag="0"/>
		</comp>
		<comp name=".HNZ" depth="0.0">
			<acc value="0.011079961294428" flag="0"/>
			<vel value="0.0054236287313" flag="0"/>
			<psa03 value="0.0196456191342056" flag="0"/>
			<psa10 value="0.00256626570563439" flag="0"/>
			<psa30 value="0.000297479133616096" flag="0"/>
		</comp>
	</station>
	<station code="ARMU" name="ARMU" netid="KO" source="Bogazici University Kandilli Observatory And Earthquake Research Institute (KOERI)" insttype="" lat="40.5088" lon="28.838">
		<comp name=".HNE" depth="0.0">
			<acc value="0.0303039157566" flag="0"/>
			<vel value="0.0147780521891" flag="0"/>
			<psa03 value="0.130468580403137" flag="0"/>
			<psa10 value="0.0051084852870775" flag="0"/>
			<psa30 value="0.000651565610939568" flag="0"/>
		</comp>
		<comp name=".HNN" depth="0.0">
			<acc value="0.029188134220668" flag="0"/>
			<vel value="0.0113501952841" flag="0"/>
			<psa03 value="0.0921919093447911" flag="0"/>
			<psa10 value="0.00437510826693706" flag="0"/>
			<psa30 value="0.000787112506923202" flag="0"/>
		</comp>
		<comp name=".HNZ" depth="0.0">
			<acc value="0.018889038478704" flag="0"/>
			<vel value="0.00222374849397" flag="0"/>
			<psa03 value="0.0134052435003327" flag="0"/>
			<psa10 value="0.00170690670700666" flag="0"/>
			<psa30 value="0.00028675032392644" flag="0"/>
		</comp>
	</station>
	<station code="ATAM" name="ATAM" netid="KO" source="Bogazici University Kandilli Observatory And Earthquake Research Institute (KOERI)" insttype="" lat="40.9688" lon="28.875">
		<comp name=".HNE" depth="0.0">
			<acc value="0.0089634280733442" flag="0"/>
			<vel value="0.00691805063026" flag="0"/>
			<psa03 value="0.0199198052664054" flag="0"/>
			<psa10 value="0.00841102343900586" flag="0"/>
			<psa30 value="0.00105041979348723" flag="0"/>
		</comp>
		<comp name=".HNN" depth="0.0">
			<acc value="0.0082447760747862" flag="0"/>
			<vel value="0.00474526801106" flag="0"/>
			<psa03 value="0.0351819269841699" flag="0"/>
			<psa10 value="0.00608803752137224" flag="0"/>
			<psa30 value="0.000655474932415436" flag="0"/>
		</comp>
		<comp name=".HNZ" depth="0.0">
			<acc value="0.0053043588236478" flag="0"/>
			<vel value="0.00428802494907" flag="0"/>
			<psa03 value="0.0112773694662275" flag="0"/>
			<psa10 value="0.00314635718072222" flag="0"/>
			<psa30 value="0.000228034559295287" flag="0"/>
		</comp>
	</station>
	<station code="BASM" name="BASM" netid="KO" source="Bogazici University Kandilli Observatory And Earthquake Research Institute (KOERI)" insttype="" lat="37.9194" lon="30.035">
		<comp name=".HNE" depth="0.0">
			<acc value="0.0046695150094116" flag="0"/>
			<vel value="0.00465015687744" flag="0"/>
			<psa03 value="0.0103179966677001" flag="0"/>
			<psa10 value="0.0133646937828666" flag="0"/>
			<psa30 value="0.000792347749567088" flag="0"/>
		</comp>
		<comp name=".HNN" depth="0.0">
			<acc value="0.0047521255944036" flag="0"/>
			<vel value="0.00445377619494" flag="0"/>
			<psa03 value="0.0122873465284843" flag="0"/>
			<psa10 value="0.00691109845136274" flag="0"/>
			<psa30 value="0.000777082102874619" flag="0"/>
		</comp>
		<comp name=".HNZ" depth="0.0">
			<acc value="0.0022406311140222" flag="0"/>
			<vel value="0.00198682629121" flag="0"/>
			<psa03 value="0.00555422796637806" flag="0"/>
			<psa10 value="0.00267687670494519" flag="0"/>
			<psa30 value="0.000338666679796928" flag="0"/>
		</comp>
	</station>
	<station code="BIGA" name="BIGA" netid="KO" source="Bogazici University Kandilli Observatory And Earthquake Research Institute (KOERI)" insttype="" lat="40.28134" lon="27.15048">
		<comp name=".HNE" depth="0.0">
			<acc value="0.01151642240655" flag="0"/>
			<vel value="0.003558737359" flag="0"/>
			<psa03 value="0.0134845000527849" flag="0"/>
			<psa10 value="0.00291176718716107" flag="0"/>
			<psa30 value="0.000464490301454537" flag="0"/>
		</comp>
		<comp name=".HNN" depth="0.0">
			<acc value="0.013860830588124" flag="0"/>
			<vel value="0.00502775894299" flag="0"/>
			<psa03 value="0.0247565358323285" flag="0"/>
			<psa10 value="0.00518234174218975" flag="0"/>
			<psa30 value="0.000684005989122832" flag="0"/>
		</comp>
		<comp name=".HNZ" depth="0.0">
			<acc value="0.004735366489065" flag="0"/>
			<vel value="0.00159276699783" flag="0"/>
			<psa03 value="0.00452517737495137" flag="0"/>
			<psa10 value="0.00198562224085275" flag="0"/>
			<psa30 value="0.000367640604385678" flag="0"/>
		</comp>
	</station>
	<station code="BMYO" name="BMYO" netid="KO" source="Bogazici University Kandilli Observatory And Earthquake Research Institute (KOERI)" insttype="" lat="39.8098" lon="26.6009">
		<comp name=".HNE" depth="0.0">
			<acc value="0.0053681758964304" flag="0"/>
			<vel value="0.00240916323583" flag="0"/>
			<psa03 value="0.00767343541076627" flag="0"/>
			<psa10 value="0.00362180617688241" flag="0"/>
			<psa30 value="0.000585135429018287" flag="0"/>
		</comp>
		<comp name=".HNN" depth="0.0">
			<acc value="0.0071888240505036" flag="0"/>
			<vel value="0.00264368498709" flag="0"/>
			<psa03 value="0.00468635536993197" flag="0"/>
			<psa10 value="0.00256821653799334" flag="0"/>
			<psa30 value="0.000900303599029708" flag="0"/>
		</comp>
		<comp name=".HNZ" depth="0.0">
			<acc value="0.0026093104043346" flag="0"/>
			<vel value="0.00112284699205" flag="0"/>
			<psa03 value="0.00485548506351798" flag="0"/>
			<psa10 value="0.00284399011913682" flag="0"/>
			<psa30 value="0.000345905284318982" flag="0"/>
		</comp>
	</station>
	<station code="BOTS" name="BOTS" netid="KO" source="Bogazici University Kandilli Observatory And Earthquake Research Institute (KOERI)" insttype="" lat="40.9902" lon="27.981">
		<comp name=".HNE" depth="0.0">
			<acc value="0.0036829969919226" flag="0"/>
			<vel value="0.0022452350518" flag="0"/>
			<psa03 value="0.0120850622948343" flag="0"/>
			<psa10 value="0.00346619899367114" flag="0"/>
			<psa30 value="0.000467460602387943" flag="0"/>
		</comp>
		<comp name=".HNN" depth="0.0">
			<acc value="0.0043082171875548" flag="0"/>
			<vel value="0.00245984315642" flag="0"/>
			<psa03 value="0.0125681255453648" flag="0"/>
			<psa10 value="0.00292002171835668" flag="0"/>
			<psa30 value="0.00036546303825759" flag="0"/>
		</comp>
		<comp name=".HNZ" depth="0.0">
			<acc value="0.0022669312951074" flag="0"/>
			<vel value="0.00102383893634" flag="0"/>
			<psa03 value="0.00417099766229204" flag="0"/>
			<psa10 value="0.000822294121387444" flag="0"/>
			<psa30 value="0.000423202410082649" flag="0"/>
		</comp>
	</station>
	<station code="BRGA" name="BRGA" netid="KO" source="Bogazici University Kandilli Observatory And Earthquake Research Institute (KOERI)" insttype="" lat="40.8846" lon="29.065">
		<comp name=".HNE" depth="0.0">
			<acc value="0.0042169623572262" flag="0"/>
			<vel value="0.00247157605586" flag="0"/>
			<psa03 value="0.00991017277637249" flag="0"/>
			<psa10 value="0.00218191563495346" flag="0"/>
			<psa30 value="0.000449062091909485" flag="0"/>
		</comp>
		<comp name=".HNN" depth="0.0">
			<acc value="0.0044240272783998" flag="0"/>
			<vel value="0.00286004544303" flag="0"/>
			<psa03 value="0.0130990591546499" flag="0"/>
			<psa10 value="0.00312209658920148" flag="0"/>
			<psa30 value="0.000412972044871174" flag="0"/>
		</comp>
		<comp name=".HNZ" depth="0.0">
			<acc value="0.0027297089183004" flag="0"/>
			<vel value="0.00126954901551" flag="0"/>
			<psa03 value="0.00586499594907307" flag="0"/>
			<psa10 value="0.00107822478647577" flag="0"/>
			<psa30 value="0.000509665273240865" flag="0"/>
		</comp>
	</station>
	<station code="BUYA" name="BUYA" netid="KO" source="Bogazici University Kandilli Observatory And Earthquake Research Institute (KOERI)" insttype="" lat="40.8694" lon="29.1278">
		<comp name=".HNE" depth="0.0">
			<acc value="0.011109433284894" flag="0"/>
			<vel value="0.00430399887617" flag="0"/>
			<psa03 value="0.0125320033608196" flag="0"/>
			<psa10 value="0.00346731703648777" flag="0"/>
			<psa30 value="0.000452902502566223" flag="0"/>
		</comp>
		<comp name=".HNN" depth="0.0">
			<acc value="0.0065784652902246" flag="0"/>
			<vel value="0.00294161478081" flag="0"/>
			<psa03 value="0.0143319129605498" flag="0"/>
			<psa10 value="0.00187368787262734" flag="0"/>
			<psa30 value="0.000461580785793127" flag="0"/>
		</comp>
		<comp name=".HNZ" depth="0.0">
			<acc value="0.0087092700924936" flag="0"/>
			<vel value="0.00248356353581" flag="0"/>
			<psa03 value="0.0107196905956504" flag="0"/>
			<psa10 value="0.00147647093395393" flag="0"/>
			<psa30 value="0.000602955151153132" flag="0"/>
		</comp>
	</station>
	<station code="BUYK" name="BUYK" netid="KO" source="Bogazici University Kandilli Observatory And Earthquake Research Institute (KOERI)" insttype="" lat="41.0168" lon="28.5828">
		<comp name=".HNE" depth="0.0">
			<acc value="0.0057664319058924" flag="0"/>
			<vel value="0.00648936902696" flag="0"/>
			<psa03 value="0.0146332740700954" flag="0"/>
			<psa10 value="0.0124396659418074" flag="0"/>
			<psa30 value="0.000963266103317978" flag="0"/>
		</comp>
		<comp name=".HNN" depth="0.0">
			<acc value="0.0059607500993586" flag="0"/>
			<vel value="0.00648125120018" flag="0"/>
			<psa03 value="0.0150684070621684" flag="0"/>
			<psa10 value="0.0121548017584717" flag="0"/>
			<psa30 value="0.00132469223352442" flag="0"/>
		</comp>
		<comp name=".HNZ" depth="0.0">
			<acc value="0.0101180902209714" flag="0"/>
			<vel value="0.00643214287801" flag="0"/>
			<psa03 value="0.0172971406423504" flag="0"/>
			<psa10 value="0.00764313663280821" flag="0"/>
			<psa30 value="0.000323372229114779" flag="0"/>
		</comp>
	</station>
	<station code="BYKA" name="BYKA" netid="KO" source="Bogazici University Kandilli Observatory And Earthquake Research Institute (KOERI)" insttype="" lat="40.8738" lon="29.1251">
		<comp name=".HNE" depth="0.0">
			<acc value="0.0068298919796514" flag="0"/>
			<vel value="0.00270891789786" flag="0"/>
			<psa03 value="0.013975920627831" flag="0"/>
			<psa10 value="0.00168205099793755" flag="0"/>
			<psa30 value="0.000252260356843968" flag="0"/>
		</comp>
		<comp name=".HNN" depth="0.0">
			<acc value="0.0080946283457784" flag="0"/>
			<vel value="0.00293473350731" flag="0"/>
			<psa03 value="0.0135109471172921" flag="0"/>
			<psa10 value="0.00239973522068118" flag="0"/>
			<psa30 value="0.000147349005940132" flag="0"/>
		</comp>
		<comp name=".HNZ" depth="0.0">
			<acc value="0.0045958186978242" flag="0"/>
			<vel value="0.00153554184931" flag="0"/>
			<psa03 value="0.00608264969046618" flag="0"/>
			<psa10 value="0.00184080745227244" flag="0"/>
			<psa30 value="0.000204076019034739" flag="0"/>
		</comp>
	</station>
	<station code="CADB" name="CADB" netid="KO" source="Bogazici University Kandilli Observatory And Earthquake Research Institute (KOERI)" insttype="" lat="40.9534" lon="29.083">
		<comp name=".HNE" depth="0.0">
			<acc value="0.020737112218296" flag="0"/>
			<vel value="0.00412498133933" flag="0"/>
			<psa03 value="0.0147848700500801" flag="0"/>
			<psa10 value="0.000929879842165039" flag="0"/>
			<psa30 value="0.000208500517865347" flag="0"/>
		</comp>
		<comp name=".HNN" depth="0.0">
			<acc value="0.012067845777714" flag="0"/>
			<vel value="0.00278043809979" flag="0"/>
			<psa03 value="0.00904583166381625" flag="0"/>
			<psa10 value="0.00101495422792496" flag="0"/>
			<psa30 value="0.000151329660264105" flag="0"/>
		</comp>
		<comp name=".HNZ" depth="0.0">
			<acc value="0.0035363963392206" flag="0"/>
			<vel value="0.00107980172806" flag="0"/>
			<psa03 value="0.00344242498386516" flag="0"/>
			<psa10 value="0.00146458276360728" flag="0"/>
			<psa30 value="9.57958316805682e-05" flag="0"/>
		</comp>
	</station>
	<station code="CANM" name="CANM" netid="KO" source="Bogazici University Kandilli Observatory And Earthquake Research Institute (KOERI)" insttype="" lat="40.0113" lon="27.0529">
		<comp name=".HNE" depth="0.0">
			<acc value="0.0055911311952462" flag="0"/>
			<vel value="0.00297651950087" flag="0"/>
			<psa03 value="0.00908211987505724" flag="0"/>
			<psa10 value="0.0047615333969834" flag="0"/>
			<psa30 value="0.000270829998449857" flag="0"/>
		</comp>
		<comp name=".HNN" depth="0.0">
			<acc value="0.0073421531038092" flag="0"/>
			<vel value="0.00327758470832" flag="0"/>
			<psa03 value="0.00841567598681933" flag="0"/>
			<psa10 value="0.00407103249842456" flag="0"/>
			<psa30 value="0.000404803482910624" flag="0"/>
		</comp>
		<comp name=".HNZ" depth="0.0">
			<acc value="0.0060407366110122" flag="0"/>
			<vel value="0.00216611615415" flag="0"/>
			<psa03 value="0.00936094042886617" flag="0"/>
			<psa10 value="0.00266453276221694" flag="0"/>
			<psa30 value="0.000206468924948746" flag="0"/>
		</comp>
	</station>
	<station code="CYAG" name="CYAG" netid="KO" source="Bogazici University Kandilli Observatory And Earthquake Research Institute (KOERI)" insttype="" lat="40.4924" lon="27.9761">
		<comp name=".HNE" depth="0.0">
			<acc value="0.023102571045426" flag="0"/>
			<vel value="0.00605761206997" flag="0"/>
			<psa03 value="0.0257782337231186" flag="0"/>
			<psa10 value="0.00474632426445847" flag="0"/>
			<psa30 value="0.000374278179509402" flag="0"/>
		</comp>
		<comp name=".HNN" depth="0.0">
			<acc value="0.017304704511192" flag="0"/>
			<vel value="0.00582383067478" flag="0"/>
			<psa03 value="0.0214361739475604" flag="0"/>
			<psa10 value="0.00380090796337494" flag="0"/>
			<psa30 value="0.000551474813747818" flag="0"/>
		</comp>
		<comp name=".HNZ" depth="0.0">
			<acc value="0.019533820067148" flag="0"/>
			<vel value="0.00455136315156" flag="0"/>
			<psa03 value="0.0121598263621401" flag="0"/>
			<psa10 value="0.00332850721601652" flag="0"/>
			<psa30 value="0.000298539125710442" flag="0"/>
		</comp>
	</station>
	<station code="DEGR" name="DEGR" netid="KO" source="Bogazici University Kandilli Observatory And Earthquake Research Institute (KOERI)" insttype="" lat="40.4518" lon="27.1547">
		<comp name=".HNE" depth="0.0">
			<acc value="0.017335700447448" flag="0"/>
			<vel value="0.00757737945062" flag="0"/>
			<psa03 value="0.0622072407158985" flag="0"/>
			<psa10 value="0.00630400167165341" flag="0"/>
			<psa30 value="0.00165029474059266" flag="0"/>
		</comp>
		<comp name=".HNN" depth="0.0">
			<acc value="0.015017073754866" flag="0"/>
			<vel value="0.00686364462922" flag="0"/>
			<psa03 value="0.0446498901277398" flag="0"/>
			<psa10 value="0.00784264000514617" flag="0"/>
			<psa30 value="0.00302507206284661" flag="0"/>
		</comp>
		<comp name=".HNZ" depth="0.0">
			<acc value="0.0037351333979436" flag="0"/>
			<vel value="0.0028103973328" flag="0"/>
			<psa03 value="0.00949589077489713" flag="0"/>
			<psa10 value="0.00461018133940645" flag="0"/>
			<psa30 value="0.000307572666846206" flag="0"/>
		</comp>
	</station>
	<station code="DGNL" name="DGNL" netid="KO" source="Bogazici University Kandilli Observatory And Earthquake Research Institute (KOERI)" insttype="" lat="40.5209" lon="27.7484">
		<comp name=".HNE" depth="0.0">
			<acc value="0.0088566031135494" flag="0"/>
			<vel value="0.00318842296626" flag="0"/>
			<psa03 value="0.00858490008771408" flag="0"/>
			<psa10 value="0.00384848361502607" flag="0"/>
			<psa30 value="0.000301446974590877" flag="0"/>
		</comp>
		<comp name=".HNN" depth="0.0">
			<acc value="0.0090573452637108" flag="0"/>
			<vel value="0.00323105686022" flag="0"/>
			<psa03 value="0.00629201512242115" flag="0"/>
			<psa10 value="0.00431303368605216" flag="0"/>
			<psa30 value="0.000409206326660878" flag="0"/>
		</comp>
		<comp name=".HNZ" depth="0.0">
			<acc value="0.005213810076477" flag="0"/>
			<vel value="0.00172417719382" flag="0"/>
			<psa03 value="0.00384039731112201" flag="0"/>
			<psa10 value="0.001686154824483" flag="0"/>
			<psa30 value="0.000286616565065774" flag="0"/>
		</comp>
	</station>
	<station code="DST" name="DST" netid="KO" source="Bogazici University Kandilli Observatory And Earthquake Research Institute (KOERI)" insttype="" lat="39.6041" lon="28.6267">
		<comp name=".HNE" depth="0.0">
			<acc value="0.037779414505644" flag="0"/>
			<vel value="0.0105934286658" flag="0"/>
			<psa03 value="0.0442023917331871" flag="0"/>
			<psa10 value="0.013019051198242" flag="0"/>
			<psa30 value="0.000747704948449732" flag="0"/>
		</comp>
		<comp name=".HNN" depth="0.0">
