<?xml version="1.0" encoding="UTF-8" standalone="yes"?>
<!DOCTYPE earthquake SYSTEM "stationlist.dtd">
<stationlist created="" xmlns="ch.ethz.sed.shakemap.usgs.xml">
  <station code="DST" name="DST" netid="KO" insttype="CMG-5T" commtype="DIG" lat="39.6041" lon="28.6267">
    <comp name="--.HNN">
      <acc value="0.0354536039" flag="0"/>
      <vel value="0.0084644886" flag="0"/>
      <psa03 value="0.0558713696" flag="0"/>
      <psa10 value="0.0076371812" flag="0"/>
      <psa30 value="0.0011838157" flag="0"/>
    </comp>
    <comp name="--.HNZ">
      <acc value="0.0411427305" flag="0"/>
      <vel value="0.0075523408" flag="0"/>
      <psa03 value="0.0414336184" flag="0"/>
      <psa10 value="0.0037741789" flag="0"/>
      <psa30 value="0.0003856325" flag="0"/>
    </comp>
    <comp name="--.HNE">
      <acc value="0.0424434551" flag="0"/>
      <vel value="0.0108944967" flag="0"/>
      <psa03 value="0.0441326526" flag="0"/>
      <psa10 value="0.0129688812" flag="0"/>
      <psa30 value="0.0007366379" flag="0"/>
    </comp>
  </station>
  <station code="GEDZ" name="GEDZ" netid="KO" insttype="CMG-6T" commtype="DIG" lat="39.0445" lon="29.4105">
    <comp name="--.HHE">
      <acc value="0.1835071806" flag="0"/>
      <vel value="0.0474475988" flag="0"/>
      <psa03 value="0.1855999000" flag="0"/>
      <psa10 value="0.0616750911" flag="0"/>
      <psa30 value="0.0023485105" flag="0"/>
    </comp>
    <comp name="--.HHN">
      <acc value="0.2687693541" flag="0"/>
      <vel value="0.0637292869" flag="0"/>
      <psa03 value="0.2112200251" flag="0"/>
      <psa10 value="0.0716629181" flag="0"/>
      <psa30 value="0.0029640202" flag="0"/>
    </comp>
    <comp name="--.HHZ">
      <acc value="0.1227689520" flag="0"/>
      <vel value="0.0232767368" flag="0"/>
      <psa03 value="0.0572572209" flag="0"/>
      <psa10 value="0.0166233636" flag="0"/>
      <psa30 value="0.0006023810" flag="0"/>
    </comp>
  </station>
  <station code="GORD" name="GORD" netid="KO" insttype="CMG-5T" commtype="DIG" lat="38.9088" lon="28.1769">
    <comp name="--.HNE">
      <acc value="0.0290308669" flag="0"/>
      <vel value="0.0163748943" flag="0"/>
      <psa03 value="0.0349889297" flag="0"/>
      <psa10 value="0.0270189757" flag="0"/>
      <psa30 value="0.0010510225" flag="0"/>
    </comp>
    <comp name="--.HNN">
      <acc value="0.0208403180" flag="0"/>
      <vel value="0.0162873908" flag="0"/>
      <psa03 value="0.0341305125" flag="0"/>
      <psa10 value="0.0271121702" flag="0"/>
      <psa30 value="0.0017235104" flag="0"/>
    </comp>
    <comp name="--.HNZ">
      <acc value="0.0169476513" flag="0"/>
      <vel value="0.0116605563" flag="0"/>
      <psa03 value="0.0254618015" flag="0"/>
      <psa10 value="0.0114270812" flag="0"/>
      <psa30 value="0.0008558442" flag="0"/>
    </comp>
  </station>
  <station code="KULA" name="KULA" netid="KO" insttype="CMG-3T" commtype="DIG" lat="38.5145" lon="28.6607">
    <comp name="--.HHE">
      <acc value="0.0220619352" flag="0"/>
      <vel value="0.0053219316" flag="0"/>
      <psa03 value="0.0178959132" flag="0"/>
      <psa10 value="0.0061467638" flag="0"/>
      <psa30 value="0.0003132059" flag="0"/>
    </comp>
    <comp name="--.HHN">
      <acc value="0.0210780568" flag="0"/>
      <vel value="0.0069712249" flag="0"/>
      <psa03 value="0.0206753174" flag="0"/>
      <psa10 value="0.0051570171" flag="0"/>
      <psa30 value="0.0003980256" flag="0"/>
    </comp>
    <comp name="--.HHZ">
      <acc value="0.0164723421" flag="0"/>
      <vel value="0.0049362671" flag="0"/>
      <psa03 value="0.0171945074" flag="0"/>
      <psa10 value="0.0077862572" flag="0"/>
      <psa30 value="0.0005566923" flag="0"/>
    </comp>
  </station>
  <station code="ORLT" name="ORLT" netid="KO" insttype="CMG-5T" commtype="DIG" lat="40.0452" lon="28.8914">
    <comp name="--.HNE">
      <acc value="0.0507617361" flag="0"/>
      <vel value="0.0243572380" flag="0"/>
      <psa03 value="0.0904338386" flag="0"/>
      <psa10 value="0.0136109321" flag="0"/>
      <psa30 value="0.0008213003" flag="0"/>
    </comp>
    <comp name="--.HNN">
      <acc value="0.0393092014" flag="0"/>
      <vel value="0.0122333801" flag="0"/>
      <psa03 value="0.1197579859" flag="0"/>
      <psa10 value="0.0149591210" flag="0"/>
      <psa30 value="0.0005380122" flag="0"/>
    </comp>
    <comp name="--.HNZ">
      <acc value="0.0150323937" flag="0"/>
      <vel value="0.0048443899" flag="0"/>
      <psa03 value="0.0225389382" flag="0"/>
      <psa10 value="0.0058037613" flag="0"/>
      <psa30 value="0.0004963952" flag="0"/>
    </comp>
  </station>
  <station code="SHAP" name="SHAP" netid="KO" insttype="CMG-5T" commtype="DIG" lat="39.0231" lon="29.222">
    <comp name="--.HNZ">
      <acc value="0.3425039235" flag="0"/>
      <vel value="0.0503695751" flag="0"/>
      <psa03 value="0.0985950301" flag="0"/>
      <psa10 value="0.0178359394" flag="0"/>
      <psa30 value="0.0013259716" flag="0"/>
    </comp>
    <comp name="--.HNN">
      <acc value="0.6727322700" flag="0"/>
      <vel value="0.1384032184" flag="0"/>
      <psa03 value="0.3518210767" flag="0"/>
      <psa10 value="0.0413644401" flag="0"/>
      <psa30 value="0.0032843241" flag="0"/>
    </comp>
    <comp name="--.HNE">
      <acc value="0.7122816618" flag="0"/>
      <vel value="0.1128671405" flag="0"/>
      <psa03 value="0.4070206540" flag="0"/>
      <psa10 value="0.0264618208" flag="0"/>
      <psa30 value="0.0025581581" flag="0"/>
    </comp>
  </station>
  <station code="SIMA" name="SIMA" netid="KO" insttype="CMG-6T" commtype="DIG" lat="39.0833" lon="28.9825">
    <comp name="--.HHE">
      <acc value="0.6878427018" flag="0"/>
      <vel value="0.0918762373" flag="0"/>
      <psa03 value="0.2899420178" flag="0"/>
      <psa10 value="0.0486785445" flag="0"/>
      <psa30 value="0.0037185954" flag="0"/>
    </comp>
    <comp name="--.HHZ">
      <acc value="0.8956769221" flag="0"/>
      <vel value="0.0843436786" flag="0"/>
      <psa03 value="0.1227213827" flag="0"/>
      <psa10 value="0.0237633032" flag="0"/>
      <psa30 value="0.0018626416" flag="0"/>
    </comp>
    <comp name="--.HHN">
      <acc value="0.3168962433" flag="0"/>
      <vel value="0.1049466382" flag="0"/>
      <psa03 value="0.3623533569" flag="0"/>
      <psa10 value="0.0389236275" flag="0"/>
      <psa30 value="0.0034122177" flag="0"/>
    </comp>
  </station>
  <station code="SMAA" name="SMAA" netid="KO" insttype="CMG-5T" commtype="DIG" lat="39.1005" lon="28.9805">
    <comp name="--.HNE">
      <acc value="0.4237442735" flag="0"/>
      <vel value="0.2805048207" flag="0"/>
      <psa03 value="0.5826991800" flag="0"/>
      <psa10 value="0.3218285847" flag="0"/>
      <psa30 value="0.0159255949" flag="0"/>
    </comp>
    <comp name="--.HNN">
      <acc value="0.3786829256" flag="0"/>
      <vel value="0.2228270239" flag="0"/>
      <psa03 value="0.6092660964" flag="0"/>
      <psa10 value="0.4144729281" flag="0"/>
      <psa30 value="0.0232383579" flag="0"/>
    </comp>
    <comp name="--.HNZ">
      <acc value="1.1254422827" flag="0"/>
      <vel value="0.1347706277" flag="0"/>
      <psa03 value="0.2236347823" flag="0"/>
      <psa10 value="0.2168523574" flag="0"/>
      <psa30 value="0.0076553179" flag="0"/>
    </comp>
  </station>
  <station code="TVSB" name="TVSB" netid="KO" insttype="CMG-3T" commtype="DIG" lat="39.4497" lon="29.4615">
    <comp name="--.HHN">
      <acc value="0.1894432127" flag="0"/>
      <vel value="0.0574012540" flag="0"/>
      <psa03 value="0.1147836615" flag="0"/>
      <psa10 value="0.0253827375" flag="0"/>
      <psa30 value="0.0019024161" flag="0"/>
    </comp>
    <comp name="--.HHZ">
      <acc value="0.0548320651" flag="0"/>
      <vel value="0.0197056610" flag="0"/>
      <psa03 value="0.0563984189" flag="0"/>
      <psa10 value="0.0239340692" flag="0"/>
      <psa30 value="0.0013910201" flag="0"/>
    </comp>
    <comp name="--.HHE">
      <acc value="0.1544977710" flag="0"/>
      <vel value="0.0327214708" flag="0"/>
      <psa03 value="0.1324091236" flag="0"/>
      <psa10 value="0.0207426649" flag="0"/>
      <psa30 value="0.0013994411" flag="0"/>
    </comp>
  </station>
</stationlist>
