<?xml version="1.0" encoding="UTF-8" standalone="yes"?>
<!DOCTYPE earthquake SYSTEM "stationlist.dtd">
<stationlist created="" xmlns="ch.ethz.sed.shakemap.usgs.xml">
  <station code="MYT1" name="MYT1" netid="HI" insttype="CMG-5TD,ACCELEROMETER,GURALP" lat="39.085" lon="26.5694">
    <comp name="--.HNE">
      <acc value="0.4990369901" flag="0"/>
      <vel value="0.2960069859" flag="0"/>
      <psa03 value="1.0373455952" flag="0"/>
      <psa10 value="0.1665983671" flag="0"/>
      <psa30 value="0.0464287539" flag="0"/>
    </comp>
    <comp name="--.HNN">
      <acc value="0.4452856601" flag="0"/>
      <vel value="0.2531302508" flag="0"/>
      <psa03 value="1.2096046709" flag="0"/>
      <psa10 value="0.3738983573" flag="0"/>
      <psa30 value="0.0428910053" flag="0"/>
    </comp>
    <comp name="--.HNZ">
      <acc value="0.4308765614" flag="0"/>
      <vel value="0.2467800845" flag="0"/>
      <psa03 value="0.9469685503" flag="0"/>
      <psa10 value="0.3122676103" flag="0"/>
      <psa30 value="0.0234826834" flag="0"/>
    </comp>
  </station>
  <station code="EFSA" name="EFSA" netid="HL" insttype="CMG-5" lat="39.5401" lon="24.9886">
    <comp name="00.HNZ">
      <acc value="0.0474361019" flag="0"/>
      <vel value="0.0250144627" flag="0"/>
      <psa03 value="0.0994458693" flag="0"/>
      <psa10 value="0.0343860568" flag="0"/>
      <psa30 value="0.0034821921" flag="0"/>
    </comp>
    <comp name="00.HNN">
      <acc value="0.0437864032" flag="0"/>
      <vel value="0.0524692616" flag="0"/>
      <psa03 value="0.1097783712" flag="0"/>
      <psa10 value="0.0509945475" flag="0"/>
      <psa30 value="0.0070349416" flag="0"/>
    </comp>
    <comp name="00.HNE">
      <acc value="0.0542882272" flag="0"/>
      <vel value="0.0313866678" flag="0"/>
      <psa03 value="0.0941526395" flag="0"/>
      <psa10 value="0.0432353049" flag="0"/>
      <psa30 value="0.0067156632" flag="0"/>
    </comp>
  </station>
  <station code="LIA" name="LIA" netid="HL" insttype="P6C" lat="39.8972" lon="25.1806">
    <comp name="--.HHZ">
      <acc value="0.0497271226" flag="0"/>
      <vel value="0.0214326449" flag="0"/>
      <psa03 value="0.1269188491" flag="0"/>
      <psa10 value="0.0245005385" flag="0"/>
      <psa30 value="0.0042005605" flag="0"/>
    </comp>
    <comp name="--.HHN">
      <acc value="0.0713413009" flag="0"/>
      <vel value="0.0360423979" flag="0"/>
      <psa03 value="0.2386066916" flag="0"/>
      <psa10 value="0.0378536245" flag="0"/>
      <psa30 value="0.0086649603" flag="0"/>
    </comp>
    <comp name="--.HHE">
      <acc value="0.0700638684" flag="0"/>
      <vel value="0.0450423665" flag="0"/>
      <psa03 value="0.2320157872" flag="0"/>
      <psa10 value="0.0444130515" flag="0"/>
      <psa30 value="0.0060573635" flag="0"/>
    </comp>
  </station>
  <station code="PRK" name="PRK" netid="HL" insttype="120" lat="39.2456" lon="26.265">
    <comp name="--.HHZ">
      <acc value="1.2311695276" flag="0"/>
      <vel value="0.5468944345" flag="0"/>
      <psa03 value="2.8225792685" flag="0"/>
      <psa10 value="0.6583711375" flag="0"/>
      <psa30 value="0.0563250288" flag="0"/>
    </comp>
    <comp name="--.HHE">
      <acc value="1.7756176973" flag="0"/>
      <vel value="0.8685126415" flag="0"/>
      <psa03 value="6.8294791887" flag="0"/>
      <psa10 value="0.9381406063" flag="0"/>
      <psa30 value="0.0797598453" flag="0"/>
    </comp>
    <comp name="--.HHN">
      <acc value="1.5816644471" flag="0"/>
      <vel value="1.0407227420" flag="0"/>
      <psa03 value="4.1484947320" flag="0"/>
      <psa10 value="1.1155622250" flag="0"/>
      <psa30 value="0.0929657477" flag="0"/>
    </comp>
  </station>
  <station code="SMTH" name="SMTH" netid="HL" insttype="CMG3ESPC60_P6C" lat="40.4709" lon="25.5304">
    <comp name="--.HHE">
      <acc value="0.0485635872" flag="0"/>
      <vel value="0.0299968057" flag="0"/>
      <psa03 value="0.0989549097" flag="0"/>
      <psa10 value="0.0380607595" flag="0"/>
      <psa30 value="0.0078470814" flag="0"/>
    </comp>
    <comp name="--.HHN">
      <acc value="0.0534733694" flag="0"/>
      <vel value="0.0298376267" flag="0"/>
      <psa03 value="0.0986143212" flag="0"/>
      <psa10 value="0.0382323783" flag="0"/>
      <psa30 value="0.0061465638" flag="0"/>
    </comp>
    <comp name="--.HHZ">
      <acc value="0.0422104801" flag="0"/>
      <vel value="0.0296105969" flag="0"/>
      <psa03 value="0.0600980506" flag="0"/>
      <psa10 value="0.0332611644" flag="0"/>
      <psa30 value="0.0019942559" flag="0"/>
    </comp>
  </station>
  <station code="CHOS" name="CHOS" netid="HT" insttype="100" lat="38.3869" lon="26.0506">
    <comp name="--.HHZ">
      <acc value="0.0479016928" flag="0"/>
      <vel value="0.0369707119" flag="0"/>
      <psa03 value="0.0957867312" flag="0"/>
      <psa10 value="0.0247974904" flag="0"/>
      <psa30 value="0.0054361718" flag="0"/>
    </comp>
    <comp name="--.HHN">
      <acc value="0.1217887052" flag="0"/>
      <vel value="0.0654242052" flag="0"/>
      <psa03 value="0.2759377119" flag="0"/>
      <psa10 value="0.0540092329" flag="0"/>
      <psa30 value="0.0099216464" flag="0"/>
    </comp>
    <comp name="--.HHE">
      <acc value="0.1354000494" flag="0"/>
      <vel value="0.0648973254" flag="0"/>
      <psa03 value="0.2717184756" flag="0"/>
      <psa10 value="0.0365648841" flag="0"/>
      <psa30 value="0.0075532764" flag="0"/>
    </comp>
  </station>
  <station code="SIGR" name="SIGR" netid="HT" insttype="100" lat="39.2114" lon="25.8553">
    <comp name="--.HHE">
      <acc value="0.3736265759" flag="0"/>
      <vel value="0.1540433320" flag="0"/>
      <psa03 value="0.7081229691" flag="0"/>
      <psa10 value="0.1584078604" flag="0"/>
      <psa30 value="0.0121897708" flag="0"/>
    </comp>
    <comp name="--.HHN">
      <acc value="0.4953835920" flag="0"/>
      <vel value="0.4259001303" flag="0"/>
      <psa03 value="0.8697373620" flag="0"/>
      <psa10 value="0.3114436641" flag="0"/>
      <psa30 value="0.0338288416" flag="0"/>
    </comp>
    <comp name="--.HHZ">
      <acc value="0.2592294309" flag="0"/>
      <vel value="0.0985508921" flag="0"/>
      <psa03 value="0.3925379978" flag="0"/>
      <psa10 value="0.1075000508" flag="0"/>
      <psa30 value="0.0099732099" flag="0"/>
    </comp>
  </station>
  <station code="AKS" name="AKS" netid="KO" insttype="CMG-5T" lat="38.8785" lon="27.8129">
    <comp name="--.HNZ">
      <acc value="0.0195402216" flag="0"/>
      <vel value="0.0099984537" flag="0"/>
      <psa03 value="0.0451694001" flag="0"/>
      <psa10 value="0.0101224484" flag="0"/>
      <psa30 value="0.0026775748" flag="0"/>
    </comp>
    <comp name="--.HNN">
      <acc value="0.0518847271" flag="0"/>
      <vel value="0.0191183976" flag="0"/>
      <psa03 value="0.0966233448" flag="0"/>
      <psa10 value="0.0231742421" flag="0"/>
      <psa30 value="0.0043507682" flag="0"/>
    </comp>
    <comp name="--.HNE">
      <acc value="0.0323253314" flag="0"/>
      <vel value="0.0223141674" flag="0"/>
      <psa03 value="0.0894419155" flag="0"/>
      <psa10 value="0.0369400612" flag="0"/>
      <psa30 value="0.0032587516" flag="0"/>
    </comp>
  </station>
  <station code="BIGA" name="BIGA" netid="KO" insttype="CMG-5T" lat="40.2813" lon="27.1505">
    <comp name="--.HNZ">
      <acc value="0.0586712658" flag="0"/>
      <vel value="0.0273100272" flag="0"/>
      <psa03 value="0.1007879492" flag="0"/>
      <psa10 value="0.0634018342" flag="0"/>
      <psa30 value="0.0040500196" flag="0"/>
    </comp>
    <comp name="--.HNN">
      <acc value="0.1226768995" flag="0"/>
      <vel value="0.0769720444" flag="0"/>
      <psa03 value="0.2736449751" flag="0"/>
      <psa10 value="0.1011684419" flag="0"/>
      <psa30 value="0.0063814779" flag="0"/>
    </comp>
    <comp name="--.HNE">
      <acc value="0.0851628488" flag="0"/>
      <vel value="0.0583333162" flag="0"/>
      <psa03 value="0.1721146988" flag="0"/>
      <psa10 value="0.0646379265" flag="0"/>
      <psa30 value="0.0057758997" flag="0"/>
    </comp>
  </station>
  <station code="BLCB" name="BLCB" netid="KO" insttype="CMG-3T" lat="38.3853" lon="27.042">
    <comp name="--.HHE">
      <acc value="0.1028114362" flag="0"/>
      <vel value="0.0514420091" flag="0"/>
      <psa03 value="0.2029336513" flag="0"/>
      <psa10 value="0.0544129978" flag="0"/>
      <psa30 value="0.0048458716" flag="0"/>
    </comp>
    <comp name="--.HHN">
      <acc value="0.0000711402" flag="0"/>
      <vel value="0.0000229268" flag="0"/>
      <psa03 value="0.0001199158" flag="0"/>
      <psa10 value="0.0000143524" flag="0"/>
      <psa30 value="0.0000017453" flag="0"/>
    </comp>
    <comp name="--.HHZ">
      <acc value="0.0597323340" flag="0"/>
      <vel value="0.0278861816" flag="0"/>
      <psa03 value="0.1034529537" flag="0"/>
      <psa10 value="0.0180686003" flag="0"/>
      <psa30 value="0.0024905769" flag="0"/>
    </comp>
  </station>
  <station code="CANM" name="CANM" netid="KO" insttype="CMG-5T" lat="40.0113" lon="27.0529">
    <comp name="--.HNE">
      <acc value="0.2168955467" flag="0"/>
      <vel value="0.0966344180" flag="0"/>
      <psa03 value="0.3321464644" flag="0"/>
      <psa10 value="0.1151322973" flag="0"/>
      <psa30 value="0.0080992480" flag="0"/>
    </comp>
    <comp name="--.HNZ">
      <acc value="0.1501971468" flag="0"/>
      <vel value="0.0395761512" flag="0"/>
      <psa03 value="0.1945418588" flag="0"/>
      <psa10 value="0.0630201407" flag="0"/>
      <psa30 value="0.0061111070" flag="0"/>
    </comp>
    <comp name="--.HNN">
      <acc value="0.1835018936" flag="0"/>
      <vel value="0.1206840486" flag="0"/>
      <psa03 value="0.3248890363" flag="0"/>
      <psa10 value="0.1724041153" flag="0"/>
      <psa30 value="0.0098040890" flag="0"/>
    </comp>
  </station>
  <station code="ERIK" name="ERIK" netid="KO" insttype="120s," lat="40.6708" lon="26.5132">
    <comp name="--.HHE">
      <acc value="0.0595546111" flag="0"/>
      <vel value="0.0385722044" flag="0"/>
      <psa03 value="0.1907720464" flag="0"/>
      <psa10 value="0.0704794963" flag="0"/>
      <psa30 value="0.0043695396" flag="0"/>
    </comp>
    <comp name="--.HHZ">
      <acc value="0.0387609935" flag="0"/>
      <vel value="0.0233532143" flag="0"/>
      <psa03 value="0.0941870887" flag="0"/>
      <psa10 value="0.0401257351" flag="0"/>
      <psa30 value="0.0023995932" flag="0"/>
    </comp>
  </station>
  <station code="EZN" name="EZN" netid="KO" insttype="120s," lat="39.8255" lon="26.3247">
    <comp name="--.HHE">
      <acc value="0.3598512164" flag="0"/>
      <vel value="0.1618660581" flag="0"/>
      <psa03 value="0.6515829822" flag="0"/>
      <psa10 value="0.1451773147" flag="0"/>
      <psa30 value="0.0086723193" flag="0"/>
    </comp>
    <comp name="--.HHN">
      <acc value="0.4106033647" flag="0"/>
      <vel value="0.1618678314" flag="0"/>
      <psa03 value="0.9545302287" flag="0"/>
      <psa10 value="0.1350472660" flag="0"/>
      <psa30 value="0.0094789318" flag="0"/>
    </comp>
  </station>
  <station code="EZNE" name="EZNE" netid="KO" insttype="CMG-5T" lat="39.756" lon="26.3655">
    <comp name="--.HNE">
      <acc value="0.4031433370" flag="0"/>
      <vel value="0.1351084205" flag="0"/>
      <psa03 value="1.1838719519" flag="0"/>
      <psa10 value="0.1441981511" flag="0"/>
      <psa30 value="0.0119639658" flag="0"/>
    </comp>
    <comp name="--.HNN">
      <acc value="0.3962787614" flag="0"/>
      <vel value="0.1391938320" flag="0"/>
      <psa03 value="0.6835433225" flag="0"/>
      <psa10 value="0.1441315962" flag="0"/>
      <psa30 value="0.0220036004" flag="0"/>
    </comp>
    <comp name="--.HNZ">
      <acc value="0.4383660451" flag="0"/>
      <vel value="0.1548680949" flag="0"/>
      <psa03 value="0.5902710458" flag="0"/>
      <psa10 value="0.0971388480" flag="0"/>
      <psa30 value="0.0104725571" flag="0"/>
    </comp>
  </station>
  <station code="GELI" name="GELI" netid="KO" insttype="30s," lat="40.398" lon="26.4742">
    <comp name="--.HHN">
      <acc value="0.0310551662" flag="0"/>
      <vel value="0.0195635810" flag="0"/>
      <psa03 value="0.0693599147" flag="0"/>
      <psa10 value="0.0243920283" flag="0"/>
      <psa30 value="0.0040926965" flag="0"/>
    </comp>
    <comp name="--.HHE">
      <acc value="0.0409402917" flag="0"/>
      <vel value="0.0198553666" flag="0"/>
      <psa03 value="0.0923955235" flag="0"/>
      <psa10 value="0.0297772667" flag="0"/>
      <psa30 value="0.0067540427" flag="0"/>
    </comp>
    <comp name="--.HHZ">
      <acc value="0.0675761314" flag="0"/>
      <vel value="0.0141290767" flag="0"/>
      <psa03 value="0.0685011725" flag="0"/>
      <psa10 value="0.0290059630" flag="0"/>
      <psa30 value="0.0038035197" flag="0"/>
    </comp>
  </station>
  <station code="GONE" name="GONE" netid="KO" insttype="CMG-5T" lat="40.0466" lon="27.686">
    <comp name="--.HNE">
      <acc value="0.1135461872" flag="0"/>
      <vel value="0.1230900471" flag="0"/>
      <psa03 value="0.1840711211" flag="0"/>
      <psa10 value="0.1707842183" flag="0"/>
      <psa30 value="0.0133110644" flag="0"/>
    </comp>
    <comp name="--.HNZ">
      <acc value="0.0630281212" flag="0"/>
      <vel value="0.0515572104" flag="0"/>
      <psa03 value="0.0801003250" flag="0"/>
      <psa10 value="0.0930687259" flag="0"/>
      <psa30 value="0.0049264158" flag="0"/>
    </comp>
    <comp name="--.HNN">
      <acc value="0.1363422056" flag="0"/>
      <vel value="0.1380153460" flag="0"/>
      <psa03 value="0.2652658272" flag="0"/>
      <psa10 value="0.2781356475" flag="0"/>
      <psa30 value="0.0131905592" flag="0"/>
    </comp>
  </station>
  <station code="GPNR" name="GPNR" netid="KO" insttype="CMG-5T" lat="39.456" lon="26.1331">
    <comp name="--.HNE">
      <acc value="3.6241030237" flag="0"/>
      <vel value="1.3915574977" flag="0"/>
      <psa03 value="9.0971956390" flag="0"/>
      <psa10 value="0.9288053485" flag="0"/>
      <psa30 value="0.0982936465" flag="0"/>
    </comp>
    <comp name="--.HNN">
      <acc value="2.5088479285" flag="0"/>
      <vel value="1.1089527807" flag="0"/>
      <psa03 value="6.5228006178" flag="0"/>
      <psa10 value="0.6206129801" flag="0"/>
      <psa30 value="0.0871199240" flag="0"/>
    </comp>
    <comp name="--.HNZ">
      <acc value="1.5960512811" flag="0"/>
      <vel value="0.5546096834" flag="0"/>
      <psa03 value="5.3930815093" flag="0"/>
      <psa10 value="0.2868576961" flag="0"/>
      <psa30 value="0.0292898433" flag="0"/>
    </comp>
  </station>
  <station code="KRBG" name="KRBG" netid="KO" insttype="30s," lat="40.3932" lon="27.2977">
    <comp name="--.HHE">
      <acc value="0.0866324512" flag="0"/>
      <vel value="0.0668989142" flag="0"/>
      <psa03 value="0.1635130752" flag="0"/>
      <psa10 value="0.1127839743" flag="0"/>
      <psa30 value="0.0069424632" flag="0"/>
    </comp>
    <comp name="--.HHZ">
      <acc value="0.0331691680" flag="0"/>
      <vel value="0.0170939661" flag="0"/>
      <psa03 value="0.0948059027" flag="0"/>
      <psa10 value="0.0198681768" flag="0"/>
      <psa30 value="0.0023958886" flag="0"/>
    </comp>
  </station>
  <station code="LAP" name="LAP" netid="KO" insttype="30s," lat="40.3703" lon="26.7593">
    <comp name="--.HHN">
      <acc value="0.0833084064" flag="0"/>
      <vel value="0.0591611199" flag="0"/>
      <psa03 value="0.2047546820" flag="0"/>
      <psa10 value="0.1104415040" flag="0"/>
      <psa30 value="0.0139042503" flag="0"/>
    </comp>
    <comp name="--.HHE">
      <acc value="0.0930808046" flag="0"/>
      <vel value="0.0426845148" flag="0"/>
      <psa03 value="0.2197905230" flag="0"/>
      <psa10 value="0.0629497396" flag="0"/>
      <psa30 value="0.0051638615" flag="0"/>
    </comp>
    <comp name="--.HHZ">
      <acc value="0.0678557451" flag="0"/>
      <vel value="0.0361706999" flag="0"/>
      <psa03 value="0.1454929852" flag="0"/>
      <psa10 value="0.0454417328" flag="0"/>
      <psa30 value="0.0045937107" flag="0"/>
    </comp>
  </station>
  <station code="LAPK" name="LAPK" netid="KO" insttype="CMG-5T" lat="40.3151" lon="26.6425">
    <comp name="--.HNZ">
      <acc value="0.2616395737" flag="0"/>
      <vel value="0.0898256239" flag="0"/>
      <psa03 value="0.4215442472" flag="0"/>
      <psa10 value="0.0670250745" flag="0"/>
      <psa30 value="0.0041754420" flag="0"/>
    </comp>
    <comp name="--.HNN">
      <acc value="0.2408128762" flag="0"/>
      <vel value="0.1800544620" flag="0"/>
      <psa03 value="0.6968829298" flag="0"/>
      <psa10 value="0.2481480022" flag="0"/>
      <psa30 value="0.0166877588" flag="0"/>
    </comp>
    <comp name="--.HNE">
      <acc value="0.2999051271" flag="0"/>
      <vel value="0.1033560636" flag="0"/>
      <psa03 value="0.6100707313" flag="0"/>
      <psa10 value="0.1644570019" flag="0"/>
      <psa30 value="0.0153804914" flag="0"/>
    </comp>
  </station>
  <station code="SOMA" name="SOMA" netid="KO" insttype="CMG-5T" lat="39.1564" lon="27.5341">
    <comp name="--.HNE">
      <acc value="0.0858688527" flag="0"/>
      <vel value="0.0498938224" flag="0"/>
      <psa03 value="0.1774179564" flag="0"/>
      <psa10 value="0.0825390228" flag="0"/>
      <psa30 value="0.0068650775" flag="0"/>
    </comp>
    <comp name="--.HNN">
      <acc value="0.0771055322" flag="0"/>
      <vel value="0.0553672582" flag="0"/>
      <psa03 value="0.2714261706" flag="0"/>
      <psa10 value="0.0431519933" flag="0"/>
      <psa30 value="0.0099204702" flag="0"/>
    </comp>
    <comp name="--.HNZ">
      <acc value="0.0591422854" flag="0"/>
      <vel value="0.0331638344" flag="0"/>
      <psa03 value="0.1294320416" flag="0"/>
      <psa10 value="0.0465377171" flag="0"/>
      <psa30 value="0.0054389078" flag="0"/>
    </comp>
  </station>
</stationlist>
