<?xml version="1.0" encoding="UTF-8" standalone="yes"?>
<!DOCTYPE earthquake SYSTEM "stationlist.dtd">
<stationlist created="" xmlns="ch.ethz.sed.shakemap.usgs.xml">
  <station code="MYT1" name="MYT1" netid="HI" insttype="CMG-5TD,ACCELEROMETER,GURALP" lat="39.085" lon="26.5694">
    <comp name="--.HNN">
      <acc value="0.4443171691" flag="0"/>
      <vel value="0.2654413565" flag="0"/>
      <psa03 value="1.2089484945" flag="0"/>
      <psa10 value="0.3721386206" flag="0"/>
      <psa30 value="0.0492977533" flag="0"/>
    </comp>
    <comp name="--.HNZ">
      <acc value="0.4306416185" flag="0"/>
      <vel value="0.2439323418" flag="0"/>
      <psa03 value="0.9465446668" flag="0"/>
      <psa10 value="0.3113125968" flag="0"/>
      <psa30 value="0.0237929528" flag="0"/>
    </comp>
    <comp name="--.HNE">
      <acc value="0.4993401609" flag="0"/>
      <vel value="0.3018467390" flag="0"/>
      <psa03 value="1.0364087273" flag="0"/>
      <psa10 value="0.1677047633" flag="0"/>
      <psa30 value="0.0542748588" flag="0"/>
    </comp>
  </station>
  <station code="EFSA" name="EFSA" netid="HL" insttype="CMG-5" lat="39.5401" lon="24.9886">
    <comp name="00.HNZ">
      <acc value="0.0475644547" flag="0"/>
      <vel value="0.0252215114" flag="0"/>
      <psa03 value="0.0994360050" flag="0"/>
      <psa10 value="0.0345225998" flag="0"/>
      <psa30 value="0.0039378570" flag="0"/>
    </comp>
    <comp name="00.HNE">
      <acc value="0.0541932761" flag="0"/>
      <vel value="0.0332813468" flag="0"/>
      <psa03 value="0.0942973533" flag="0"/>
      <psa10 value="0.0433226016" flag="0"/>
      <psa30 value="0.0078768142" flag="0"/>
    </comp>
    <comp name="00.HNN">
      <acc value="0.0437092111" flag="0"/>
      <vel value="0.0540185423" flag="0"/>
      <psa03 value="0.1097839326" flag="0"/>
      <psa10 value="0.0510708623" flag="0"/>
      <psa30 value="0.0074177545" flag="0"/>
    </comp>
  </station>
  <station code="LIA" name="LIA" netid="HL" insttype="P6C" lat="39.8972" lon="25.1806">
    <comp name="--.HHE">
      <acc value="0.0702059262" flag="0"/>
      <vel value="0.0470774578" flag="0"/>
      <psa03 value="0.2317479945" flag="0"/>
      <psa10 value="0.0443864492" flag="0"/>
      <psa30 value="0.0061684933" flag="0"/>
    </comp>
    <comp name="--.HHN">
      <acc value="0.0716802307" flag="0"/>
      <vel value="0.0370876337" flag="0"/>
      <psa03 value="0.2385149531" flag="0"/>
      <psa10 value="0.0378860675" flag="0"/>
      <psa30 value="0.0099498348" flag="0"/>
    </comp>
    <comp name="--.HHZ">
      <acc value="0.0497874108" flag="0"/>
      <vel value="0.0220056866" flag="0"/>
      <psa03 value="0.1269477701" flag="0"/>
      <psa10 value="0.0245717191" flag="0"/>
      <psa30 value="0.0050706221" flag="0"/>
    </comp>
  </station>
  <station code="PRK" name="PRK" netid="HL" insttype="120" lat="39.2456" lon="26.265">
    <comp name="--.HHE">
      <acc value="1.7778580753" flag="0"/>
      <vel value="0.8784083193" flag="0"/>
      <psa03 value="6.8271627315" flag="0"/>
      <psa10 value="0.9398002317" flag="0"/>
      <psa30 value="0.0893589530" flag="0"/>
    </comp>
    <comp name="--.HHN">
      <acc value="1.5866094954" flag="0"/>
      <vel value="1.0781022341" flag="0"/>
      <psa03 value="4.1521084965" flag="0"/>
      <psa10 value="1.1101832487" flag="0"/>
      <psa30 value="0.1020897602" flag="0"/>
    </comp>
    <comp name="--.HHZ">
      <acc value="1.2297146908" flag="0"/>
      <vel value="0.5445153624" flag="0"/>
      <psa03 value="2.8240097544" flag="0"/>
      <psa10 value="0.6589585388" flag="0"/>
      <psa30 value="0.0612859298" flag="0"/>
    </comp>
  </station>
  <station code="SMTH" name="SMTH" netid="HL" insttype="CMG3ESPC60_P6C" lat="40.4709" lon="25.5304">
    <comp name="--.HHE">
      <acc value="0.0486483683" flag="0"/>
      <vel value="0.0294188167" flag="0"/>
      <psa03 value="0.0989823112" flag="0"/>
      <psa10 value="0.0379892865" flag="0"/>
      <psa30 value="0.0098110934" flag="0"/>
    </comp>
    <comp name="--.HHN">
      <acc value="0.0531423656" flag="0"/>
      <vel value="0.0307196281" flag="0"/>
      <psa03 value="0.0981403476" flag="0"/>
      <psa10 value="0.0387755881" flag="0"/>
      <psa30 value="0.0075226447" flag="0"/>
    </comp>
    <comp name="--.HHZ">
      <acc value="0.0422389871" flag="0"/>
      <vel value="0.0297835712" flag="0"/>
      <psa03 value="0.0600674015" flag="0"/>
      <psa10 value="0.0333113605" flag="0"/>
      <psa30 value="0.0023134980" flag="0"/>
    </comp>
  </station>
  <station code="ALN" name="ALN" netid="HT" insttype="100" lat="40.885" lon="26.046">
    <comp name="--.HHE">
      <acc value="0.0252035259" flag="0"/>
      <vel value="0.0247385247" flag="0"/>
      <psa03 value="0.0895728781" flag="0"/>
      <psa10 value="0.0360466252" flag="0"/>
      <psa30 value="0.0102410629" flag="0"/>
    </comp>
    <comp name="--.HHN">
      <acc value="0.0271601880" flag="0"/>
      <vel value="0.0194667025" flag="0"/>
      <psa03 value="0.0702354845" flag="0"/>
      <psa10 value="0.0204419041" flag="0"/>
      <psa30 value="0.0045699515" flag="0"/>
    </comp>
    <comp name="--.HHZ">
      <acc value="0.0168576740" flag="0"/>
      <vel value="0.0131535971" flag="0"/>
      <psa03 value="0.0517284081" flag="0"/>
      <psa10 value="0.0195984094" flag="0"/>
      <psa30 value="0.0023084185" flag="0"/>
    </comp>
  </station>
  <station code="CHOS" name="CHOS" netid="HT" insttype="100" lat="38.3869" lon="26.0506">
    <comp name="--.HHE">
      <acc value="0.1355354695" flag="0"/>
      <vel value="0.0654911904" flag="0"/>
      <psa03 value="0.2716653088" flag="0"/>
      <psa10 value="0.0365795462" flag="0"/>
      <psa30 value="0.0078020625" flag="0"/>
    </comp>
    <comp name="--.HHZ">
      <acc value="0.0478821590" flag="0"/>
      <vel value="0.0372263898" flag="0"/>
      <psa03 value="0.0958695530" flag="0"/>
      <psa10 value="0.0248514949" flag="0"/>
      <psa30 value="0.0060447994" flag="0"/>
    </comp>
    <comp name="--.HHN">
      <acc value="0.1217831296" flag="0"/>
      <vel value="0.0667053756" flag="0"/>
      <psa03 value="0.2761573938" flag="0"/>
      <psa10 value="0.0540129655" flag="0"/>
      <psa30 value="0.0105949643" flag="0"/>
    </comp>
  </station>
  <station code="SIGR" name="SIGR" netid="HT" insttype="100" lat="39.2114" lon="25.8553">
    <comp name="--.HHE">
      <acc value="0.3734549936" flag="0"/>
      <vel value="0.1541060831" flag="0"/>
      <psa03 value="0.7081856493" flag="0"/>
      <psa10 value="0.1581721727" flag="0"/>
      <psa30 value="0.0132707918" flag="0"/>
    </comp>
    <comp name="--.HHN">
      <acc value="0.4962563977" flag="0"/>
      <vel value="0.4326234610" flag="0"/>
      <psa03 value="0.8703747818" flag="0"/>
      <psa10 value="0.3124366588" flag="0"/>
      <psa30 value="0.0381013534" flag="0"/>
    </comp>
    <comp name="--.HHZ">
      <acc value="0.2593220744" flag="0"/>
      <vel value="0.0983731909" flag="0"/>
      <psa03 value="0.3922531432" flag="0"/>
      <psa10 value="0.1072859922" flag="0"/>
      <psa30 value="0.0101370927" flag="0"/>
    </comp>
  </station>
  <station code="AKS" name="AKS" netid="KO" insttype="CMG-5T" lat="38.8785" lon="27.8129">
    <comp name="--.HNE">
      <acc value="0.0321797030" flag="0"/>
      <vel value="0.0220904501" flag="0"/>
      <psa03 value="0.0892849764" flag="0"/>
      <psa10 value="0.0368028240" flag="0"/>
      <psa30 value="0.0038303945" flag="0"/>
    </comp>
    <comp name="--.HNZ">
      <acc value="0.0197034895" flag="0"/>
      <vel value="0.0105029120" flag="0"/>
      <psa03 value="0.0451536142" flag="0"/>
      <psa10 value="0.0101742585" flag="0"/>
      <psa30 value="0.0031172935" flag="0"/>
    </comp>
    <comp name="--.HNN">
      <acc value="0.0518129265" flag="0"/>
      <vel value="0.0196182962" flag="0"/>
      <psa03 value="0.0965743015" flag="0"/>
      <psa10 value="0.0233403432" flag="0"/>
      <psa30 value="0.0051102949" flag="0"/>
    </comp>
  </station>
  <station code="BIGA" name="BIGA" netid="KO" insttype="CMG-5T" lat="40.2813" lon="27.1505">
    <comp name="--.HNZ">
      <acc value="0.0586368645" flag="0"/>
      <vel value="0.0266079457" flag="0"/>
      <psa03 value="0.1008724222" flag="0"/>
      <psa10 value="0.0632669886" flag="0"/>
      <psa30 value="0.0047351188" flag="0"/>
    </comp>
    <comp name="--.HNN">
      <acc value="0.1225644680" flag="0"/>
      <vel value="0.0783392584" flag="0"/>
      <psa03 value="0.2733483871" flag="0"/>
      <psa10 value="0.1013043960" flag="0"/>
      <psa30 value="0.0078651147" flag="0"/>
    </comp>
    <comp name="--.HNE">
      <acc value="0.0851382098" flag="0"/>
      <vel value="0.0568369783" flag="0"/>
      <psa03 value="0.1721194580" flag="0"/>
      <psa10 value="0.0645363672" flag="0"/>
      <psa30 value="0.0062542439" flag="0"/>
    </comp>
  </station>
  <station code="BLCB" name="BLCB" netid="KO" insttype="CMG-3T" lat="38.3853" lon="27.042">
    <comp name="--.HHZ">
      <acc value="0.0595435400" flag="0"/>
      <vel value="0.0275833574" flag="0"/>
      <psa03 value="0.1036905812" flag="0"/>
      <psa10 value="0.0178599970" flag="0"/>
      <psa30 value="0.0032026817" flag="0"/>
    </comp>
    <comp name="--.HHN">
      <acc value="0.0000709542" flag="0"/>
      <vel value="0.0000231050" flag="0"/>
      <psa03 value="0.0001197363" flag="0"/>
      <psa10 value="0.0000145549" flag="0"/>
      <psa30 value="0.0000023074" flag="0"/>
    </comp>
    <comp name="--.HHE">
      <acc value="0.1032791086" flag="0"/>
      <vel value="0.0506647046" flag="0"/>
      <psa03 value="0.2033330092" flag="0"/>
      <psa10 value="0.0538503610" flag="0"/>
      <psa30 value="0.0064322693" flag="0"/>
    </comp>
  </station>
  <station code="CANM" name="CANM" netid="KO" insttype="CMG-5T" lat="40.0113" lon="27.0529">
    <comp name="--.HNE">
      <acc value="0.2164554488" flag="0"/>
      <vel value="0.0979661017" flag="0"/>
      <psa03 value="0.3328762601" flag="0"/>
      <psa10 value="0.1159933732" flag="0"/>
      <psa30 value="0.0106385470" flag="0"/>
    </comp>
    <comp name="--.HNZ">
      <acc value="0.1500055483" flag="0"/>
      <vel value="0.0403815879" flag="0"/>
      <psa03 value="0.1943043584" flag="0"/>
      <psa10 value="0.0629833457" flag="0"/>
      <psa30 value="0.0066222433" flag="0"/>
    </comp>
    <comp name="--.HNN">
      <acc value="0.1837160985" flag="0"/>
      <vel value="0.1202698028" flag="0"/>
      <psa03 value="0.3251115172" flag="0"/>
      <psa10 value="0.1721868605" flag="0"/>
      <psa30 value="0.0102852295" flag="0"/>
    </comp>
  </station>
  <station code="EDC" name="EDC" netid="KO" insttype="120s," lat="40.3465" lon="27.8618">
    <comp name="--.HHZ">
      <acc value="0.0361034693" flag="0"/>
      <vel value="0.0281581720" flag="0"/>
      <psa03 value="0.0714667448" flag="0"/>
      <psa10 value="0.0534268525" flag="0"/>
      <psa30 value="0.0024592862" flag="0"/>
    </comp>
    <comp name="--.HHE">
      <acc value="0.0693000166" flag="0"/>
      <vel value="0.0601568786" flag="0"/>
      <psa03 value="0.1815481690" flag="0"/>
      <psa10 value="0.1322022693" flag="0"/>
      <psa30 value="0.0040059023" flag="0"/>
    </comp>
    <comp name="--.HHN">
      <acc value="0.1227680766" flag="0"/>
      <vel value="0.1095023466" flag="0"/>
      <psa03 value="0.2513858689" flag="0"/>
      <psa10 value="0.1547846334" flag="0"/>
      <psa30 value="0.0077195666" flag="0"/>
    </comp>
  </station>
  <station code="ENEZ" name="ENEZ" netid="KO" insttype="120s," lat="40.7362" lon="26.153">
    <comp name="--.HHZ">
      <acc value="0.0434387556" flag="0"/>
      <vel value="0.0421179440" flag="0"/>
      <psa03 value="0.0922856501" flag="0"/>
      <psa10 value="0.0477984645" flag="0"/>
      <psa30 value="0.0071239508" flag="0"/>
    </comp>
    <comp name="--.HHE">
      <acc value="0.0680175991" flag="0"/>
      <vel value="0.0664763264" flag="0"/>
      <psa03 value="0.1774148979" flag="0"/>
      <psa10 value="0.1293731795" flag="0"/>
      <psa30 value="0.0199156817" flag="0"/>
    </comp>
  </station>
  <station code="ERIK" name="ERIK" netid="KO" insttype="120s," lat="40.6708" lon="26.5132">
    <comp name="--.HHE">
      <acc value="0.0595776740" flag="0"/>
      <vel value="0.0383429713" flag="0"/>
      <psa03 value="0.1908824569" flag="0"/>
      <psa10 value="0.0706329419" flag="0"/>
      <psa30 value="0.0042847684" flag="0"/>
    </comp>
    <comp name="--.HHZ">
      <acc value="0.0388310030" flag="0"/>
      <vel value="0.0226087151" flag="0"/>
      <psa03 value="0.0940879375" flag="0"/>
      <psa10 value="0.0402376318" flag="0"/>
      <psa30 value="0.0025928208" flag="0"/>
    </comp>
  </station>
  <station code="EZN" name="EZN" netid="KO" insttype="120s," lat="39.8255" lon="26.3247">
    <comp name="--.HHE">
      <acc value="0.3599705172" flag="0"/>
      <vel value="0.1622671187" flag="0"/>
      <psa03 value="0.6514277393" flag="0"/>
      <psa10 value="0.1452501470" flag="0"/>
      <psa30 value="0.0083930350" flag="0"/>
    </comp>
    <comp name="--.HHN">
      <acc value="0.4112595664" flag="0"/>
      <vel value="0.1596586072" flag="0"/>
      <psa03 value="0.9546612549" flag="0"/>
      <psa10 value="0.1352385722" flag="0"/>
      <psa30 value="0.0108300731" flag="0"/>
    </comp>
    <comp name="--.HHZ">
      <acc value="0.2459423099" flag="0"/>
      <vel value="0.0809514067" flag="0"/>
      <psa03 value="0.5223655951" flag="0"/>
      <psa10 value="0.0607058720" flag="0"/>
      <psa30 value="0.0108995854" flag="0"/>
    </comp>
  </station>
  <station code="EZNE" name="EZNE" netid="KO" insttype="CMG-5T" lat="39.756" lon="26.3655">
    <comp name="--.HNZ">
      <acc value="0.4382065762" flag="0"/>
      <vel value="0.1545637583" flag="0"/>
      <psa03 value="0.5901168644" flag="0"/>
      <psa10 value="0.0978328977" flag="0"/>
      <psa30 value="0.0118206289" flag="0"/>
    </comp>
    <comp name="--.HNN">
      <acc value="0.3961358221" flag="0"/>
      <vel value="0.1418095646" flag="0"/>
      <psa03 value="0.6844611479" flag="0"/>
      <psa10 value="0.1448829165" flag="0"/>
      <psa30 value="0.0242615625" flag="0"/>
    </comp>
    <comp name="--.HNE">
      <acc value="0.4031533617" flag="0"/>
      <vel value="0.1354017577" flag="0"/>
      <psa03 value="1.1836692667" flag="0"/>
      <psa10 value="0.1441404858" flag="0"/>
      <psa30 value="0.0145252539" flag="0"/>
    </comp>
  </station>
  <station code="GELI" name="GELI" netid="KO" insttype="30s," lat="40.398" lon="26.4742">
    <comp name="--.HHE">
      <acc value="0.0410061153" flag="0"/>
      <vel value="0.0191445276" flag="0"/>
      <psa03 value="0.0924030445" flag="0"/>
      <psa10 value="0.0298106392" flag="0"/>
      <psa30 value="0.0079255231" flag="0"/>
    </comp>
    <comp name="--.HHN">
      <acc value="0.0311453967" flag="0"/>
      <vel value="0.0197206847" flag="0"/>
      <psa03 value="0.0693385914" flag="0"/>
      <psa10 value="0.0241665586" flag="0"/>
      <psa30 value="0.0045685050" flag="0"/>
    </comp>
    <comp name="--.HHZ">
      <acc value="0.0674570658" flag="0"/>
      <vel value="0.0142603014" flag="0"/>
      <psa03 value="0.0685665431" flag="0"/>
      <psa10 value="0.0288592230" flag="0"/>
      <psa30 value="0.0043427120" flag="0"/>
    </comp>
  </station>
  <station code="GONE" name="GONE" netid="KO" insttype="CMG-5T" lat="40.0466" lon="27.686">
    <comp name="--.HNE">
      <acc value="0.1138168216" flag="0"/>
      <vel value="0.1217787654" flag="0"/>
      <psa03 value="0.1842750272" flag="0"/>
      <psa10 value="0.1704628953" flag="0"/>
      <psa30 value="0.0135791806" flag="0"/>
    </comp>
    <comp name="--.HNN">
      <acc value="0.1367885135" flag="0"/>
      <vel value="0.1393682579" flag="0"/>
      <psa03 value="0.2647764846" flag="0"/>
      <psa10 value="0.2780144237" flag="0"/>
      <psa30 value="0.0138518124" flag="0"/>
    </comp>
    <comp name="--.HNZ">
      <acc value="0.0630501692" flag="0"/>
      <vel value="0.0512554843" flag="0"/>
      <psa03 value="0.0800726442" flag="0"/>
      <psa10 value="0.0930289051" flag="0"/>
      <psa30 value="0.0051012350" flag="0"/>
    </comp>
  </station>
  <station code="GORD" name="GORD" netid="KO" insttype="CMG-5T" lat="38.9088" lon="28.1769">
    <comp name="--.HNZ">
      <acc value="0.0103024857" flag="0"/>
      <vel value="0.0139729415" flag="0"/>
      <psa03 value="0.0209311944" flag="0"/>
      <psa10 value="0.0257016228" flag="0"/>
      <psa30 value="0.0034056709" flag="0"/>
    </comp>
    <comp name="--.HNE">
      <acc value="0.0185015707" flag="0"/>
      <vel value="0.0189516083" flag="0"/>
      <psa03 value="0.0353313445" flag="0"/>
      <psa10 value="0.0331419116" flag="0"/>
      <psa30 value="0.0059888395" flag="0"/>
    </comp>
    <comp name="--.HNN">
      <acc value="0.0221787308" flag="0"/>
      <vel value="0.0192948454" flag="0"/>
      <psa03 value="0.0298497606" flag="0"/>
      <psa10 value="0.0291756226" flag="0"/>
      <psa30 value="0.0044284514" flag="0"/>
    </comp>
  </station>
  <station code="GPNR" name="GPNR" netid="KO" insttype="CMG-5T" lat="39.456" lon="26.1331">
    <comp name="--.HNN">
      <acc value="2.5130853593" flag="0"/>
      <vel value="1.1416876426" flag="0"/>
      <psa03 value="6.5229282180" flag="0"/>
      <psa10 value="0.6164552597" flag="0"/>
      <psa30 value="0.0983754368" flag="0"/>
    </comp>
    <comp name="--.HNE">
      <acc value="3.6268474473" flag="0"/>
      <vel value="1.3902491357" flag="0"/>
      <psa03 value="9.0976297308" flag="0"/>
      <psa10 value="0.9312086497" flag="0"/>
      <psa30 value="0.1008731453" flag="0"/>
    </comp>
    <comp name="--.HNZ">
      <acc value="1.5962242537" flag="0"/>
      <vel value="0.5538759968" flag="0"/>
      <psa03 value="5.3926418671" flag="0"/>
      <psa10 value="0.2866572599" flag="0"/>
      <psa30 value="0.0307550759" flag="0"/>
    </comp>
  </station>
  <station code="KRBG" name="KRBG" netid="KO" insttype="30s," lat="40.3932" lon="27.2977">
    <comp name="--.HHE">
      <acc value="0.0866882865" flag="0"/>
      <vel value="0.0681432224" flag="0"/>
      <psa03 value="0.1635383934" flag="0"/>
      <psa10 value="0.1130072990" flag="0"/>
      <psa30 value="0.0070801212" flag="0"/>
    </comp>
    <comp name="--.HHZ">
      <acc value="0.0331885687" flag="0"/>
      <vel value="0.0173993395" flag="0"/>
      <psa03 value="0.0947840857" flag="0"/>
      <psa10 value="0.0199246324" flag="0"/>
      <psa30 value="0.0027903300" flag="0"/>
    </comp>
  </station>
  <station code="LAP" name="LAP" netid="KO" insttype="30s," lat="40.3703" lon="26.7593">
    <comp name="--.HHN">
      <acc value="0.0835076075" flag="0"/>
      <vel value="0.0608592912" flag="0"/>
      <psa03 value="0.2049956778" flag="0"/>
      <psa10 value="0.1104923456" flag="0"/>
      <psa30 value="0.0161103122" flag="0"/>
    </comp>
    <comp name="--.HHZ">
      <acc value="0.0679632611" flag="0"/>
      <vel value="0.0370087244" flag="0"/>
      <psa03 value="0.1456164334" flag="0"/>
      <psa10 value="0.0453694449" flag="0"/>
      <psa30 value="0.0052105753" flag="0"/>
    </comp>
    <comp name="--.HHE">
      <acc value="0.0929911677" flag="0"/>
      <vel value="0.0421886505" flag="0"/>
      <psa03 value="0.2197017503" flag="0"/>
      <psa10 value="0.0629428334" flag="0"/>
      <psa30 value="0.0069593547" flag="0"/>
    </comp>
  </station>
  <station code="LAPK" name="LAPK" netid="KO" insttype="CMG-5T" lat="40.3151" lon="26.6425">
    <comp name="--.HNE">
      <acc value="0.2998380990" flag="0"/>
      <vel value="0.1046370414" flag="0"/>
      <psa03 value="0.6098746146" flag="0"/>
      <psa10 value="0.1640676328" flag="0"/>
      <psa30 value="0.0168328891" flag="0"/>
    </comp>
    <comp name="--.HNN">
