<?xml version="1.0" encoding="UTF-8" standalone="yes"?>
<!DOCTYPE earthquake SYSTEM "stationlist.dtd">
<stationlist created="" xmlns="ch.ethz.sed.shakemap.usgs.xml">
  <station code="ANDN" name="ANDN" netid="TU" insttype="T" lat="37.58" lon="36.3452">
    <comp name="--.HHE">
      <acc value="0.1240114353" flag="0"/>
      <vel value="0.0479943214" flag="0"/>
      <psa03 value="0.0756206897" flag="0"/>
      <psa10 value="0.0343681819" flag="0"/>
      <psa30 value="0.0037689487" flag="0"/>
    </comp>
    <comp name="--.HHN">
      <acc value="0.2021479829" flag="0"/>
      <vel value="0.0650729902" flag="0"/>
      <psa03 value="0.1703425359" flag="0"/>
      <psa10 value="0.0467919226" flag="0"/>
      <psa30 value="0.0032048252" flag="0"/>
    </comp>
    <comp name="--.HHZ">
      <acc value="0.0505369438" flag="0"/>
      <vel value="0.0212016606" flag="0"/>
      <psa03 value="0.0511609916" flag="0"/>
      <psa10 value="0.0284223591" flag="0"/>
      <psa30 value="0.0016193349" flag="0"/>
    </comp>
  </station>
</stationlist>
