<?xml version="1.0" encoding="UTF-8" standalone="yes"?>
<!DOCTYPE earthquake SYSTEM "stationlist.dtd">
<stationlist created="" xmlns="ch.ethz.sed.shakemap.usgs.xml">
  <station code="URFA" name="URFA" netid="KO" insttype="CMG-3ESP" lat="37.4409" lon="38.8213">
    <comp name="--.HHE">
      <acc value="0.0356847704" flag="0"/>
      <vel value="0.0103433348" flag="0"/>
      <psa03 value="0.0547515331" flag="0"/>
      <psa10 value="0.0068857133" flag="0"/>
      <psa30 value="0.0007782811" flag="0"/>
    </comp>
    <comp name="--.HHN">
      <acc value="0.0349952359" flag="0"/>
      <vel value="0.0082742769" flag="0"/>
      <psa03 value="0.0568544473" flag="0"/>
      <psa10 value="0.0060307009" flag="0"/>
      <psa30 value="0.0005575630" flag="0"/>
    </comp>
    <comp name="--.HHZ">
      <acc value="0.0207621497" flag="0"/>
      <vel value="0.0041554924" flag="0"/>
      <psa03 value="0.0299147337" flag="0"/>
      <psa10 value="0.0031513582" flag="0"/>
      <psa30 value="0.0002793712" flag="0"/>
    </comp>
  </station>
</stationlist>
