<stationlist created="1663941618">
	<station code="FIVI" name="FIVI" netid="GU" source="Regional Seismic Network of North Western Italy (RSNI)" insttype="" lat="44.2394" lon="10.1271">
		<comp name=".HNE" depth="0.0">
			<acc value="0.0637393624721" flag="0"/>
			<vel value="0.0194061393496" flag="0"/>
			<psa03 value="0.0707797096416" flag="0"/>
			<psa10 value="0.0101273302609" flag="0"/>
			<psa30 value="0.000921084767347" flag="0"/>
		</comp>
		<comp name=".HNN" depth="0.0">
			<acc value="0.0710148811429" flag="0"/>
			<vel value="0.0315196572147" flag="0"/>
			<psa03 value="0.153151572624" flag="0"/>
			<psa10 value="0.0159083644761" flag="0"/>
			<psa30 value="0.0010902165965" flag="0"/>
		</comp>
		<comp name=".HNZ" depth="0.0">
			<acc value="0.104377208639" flag="0"/>
			<vel value="0.0214427697569" flag="0"/>
			<psa03 value="0.0559539358404" flag="0"/>
			<psa10 value="0.0118525082955" flag="0"/>
			<psa30 value="0.00131747935988" flag="0"/>
		</comp>
	</station>
	<station code="AUL" name="AUL" netid="IT" source="Italian Strong Motion Network (RAN)" insttype="" lat="44.208759" lon="9.97307">
		<comp name="00.HNE" depth="0.0">
			<acc value="0.0389074268038" flag="0"/>
			<vel value="0.016169597368" flag="0"/>
			<psa03 value="0.0757784574509" flag="0"/>
			<psa10 value="0.026297465828" flag="0"/>
			<psa30 value="0.000895234304881" flag="0"/>
		</comp>
		<comp name="00.HNN" depth="0.0">
			<acc value="0.0206204252119" flag="0"/>
			<vel value="0.00925776583009" flag="0"/>
			<psa03 value="0.0739317674083" flag="0"/>
			<psa10 value="0.0117522050884" flag="0"/>
			<psa30 value="0.00103912196173" flag="0"/>
		</comp>
		<comp name="00.HNZ" depth="0.0">
			<acc value="0.0143639930581" flag="0"/>
			<vel value="0.00592150312389" flag="0"/>
			<psa03 value="0.023247774426" flag="0"/>
			<psa10 value="0.00931614308627" flag="0"/>
			<psa30 value="0.00080639868037" flag="0"/>
		</comp>
	</station>
	<station code="BDG" name="BDG" netid="IT" source="Italian Strong Motion Network (RAN)" insttype="" lat="44.506794" lon="9.622965">
		<comp name="00.HGE" depth="0.0">
			<acc value="0.0136027060118" flag="0"/>
			<vel value="0.0114130204892" flag="0"/>
			<psa03 value="0.0401331482074" flag="0"/>
			<psa10 value="0.012290314173" flag="0"/>
			<psa30 value="0.000802986735598" flag="0"/>
		</comp>
		<comp name="00.HGN" depth="0.0">
			<acc value="0.0104893761072" flag="0"/>
			<vel value="0.00693046683431" flag="0"/>
			<psa03 value="0.0213693257692" flag="0"/>
			<psa10 value="0.00680906356705" flag="0"/>
			<psa30 value="0.000553229461236" flag="0"/>
		</comp>
		<comp name="00.HGZ" depth="0.0">
			<acc value="0.00567544653589" flag="0"/>
			<vel value="0.00290957201112" flag="0"/>
			<psa03 value="0.0108422918163" flag="0"/>
			<psa10 value="0.00415624329946" flag="0"/>
			<psa30 value="0.00044544633155" flag="0"/>
		</comp>
	</station>
	<station code="BGL" name="BGL" netid="IT" source="Italian Strong Motion Network (RAN)" insttype="" lat="43.995831" lon="10.576916">
		<comp name="00.HNE" depth="0.0">
			<acc value="0.404963974365" flag="0"/>
			<vel value="0.171182187571" flag="0"/>
			<psa03 value="1.27479061529" flag="0"/>
			<psa10 value="0.0559651899192" flag="0"/>
			<psa30 value="0.00403885797118" flag="0"/>
		</comp>
		<comp name="00.HNN" depth="0.0">
			<acc value="0.348830688101" flag="0"/>
			<vel value="0.114842241353" flag="0"/>
			<psa03 value="0.569355633683" flag="0"/>
			<psa10 value="0.0434317958932" flag="0"/>
			<psa30 value="0.00391857250286" flag="0"/>
		</comp>
		<comp name="00.HNZ" depth="0.0">
			<acc value="0.322407781239" flag="0"/>
			<vel value="0.114968629096" flag="0"/>
			<psa03 value="0.914269149179" flag="0"/>
			<psa10 value="0.0304098963814" flag="0"/>
			<psa30 value="0.0035595049664" flag="0"/>
		</comp>
	</station>
	<station code="BGN" name="BGN" netid="IT" source="Italian Strong Motion Network (RAN)" insttype="" lat="44.322445" lon="9.991797">
		<comp name="00.HGE" depth="0.0">
			<acc value="0.0207076196127" flag="0"/>
			<vel value="0.00650644342181" flag="0"/>
			<psa03 value="0.0176619812175" flag="0"/>
			<psa10 value="0.00690804199888" flag="0"/>
			<psa30 value="0.000922957808092" flag="0"/>
		</comp>
		<comp name="00.HGN" depth="0.0">
			<acc value="0.0272481354843" flag="0"/>
			<vel value="0.0109843567759" flag="0"/>
			<psa03 value="0.03173890463" flag="0"/>
			<psa10 value="0.013293648139" flag="0"/>
			<psa30 value="0.000765611395079" flag="0"/>
		</comp>
		<comp name="00.HGZ" depth="0.0">
			<acc value="0.0179737142328" flag="0"/>
			<vel value="0.00599632170345" flag="0"/>
			<psa03 value="0.0181499080715" flag="0"/>
			<psa10 value="0.00784256031239" flag="0"/>
			<psa30 value="0.000698692639125" flag="0"/>
		</comp>
	</station>
	<station code="BRB" name="BRB" netid="IT" source="Italian Strong Motion Network (RAN)" insttype="" lat="43.954205" lon="11.212867">
		<comp name="00.HNE" depth="0.0">
			<acc value="0.196398324114" flag="0"/>
			<vel value="0.0764495916809" flag="0"/>
			<psa03 value="0.449704165693" flag="0"/>
			<psa10 value="0.0257673063326" flag="0"/>
			<psa30 value="0.00211145883212" flag="0"/>
		</comp>
		<comp name="00.HNN" depth="0.0">
			<acc value="0.230557383071" flag="0"/>
			<vel value="0.0935983934393" flag="0"/>
			<psa03 value="0.380831644894" flag="0"/>
			<psa10 value="0.0379197782492" flag="0"/>
			<psa30 value="0.00212215349892" flag="0"/>
		</comp>
		<comp name="00.HNZ" depth="0.0">
			<acc value="0.0760855318943" flag="0"/>
			<vel value="0.0302068589766" flag="0"/>
			<psa03 value="0.306136259191" flag="0"/>
			<psa10 value="0.0252349116891" flag="0"/>
			<psa30 value="0.00142679139293" flag="0"/>
		</comp>
	</station>
	<station code="BRM" name="BRM" netid="IT" source="Italian Strong Motion Network (RAN)" insttype="" lat="44.129344" lon="11.117683">
		<comp name="00.HGE" depth="0.0">
			<acc value="0.0745269331901" flag="0"/>
			<vel value="0.0158765755498" flag="0"/>
			<psa03 value="0.0900087959741" flag="0"/>
			<psa10 value="0.00857161282727" flag="0"/>
			<psa30 value="0.000630083198251" flag="0"/>
		</comp>
		<comp name="00.HGN" depth="0.0">
			<acc value="0.108370813447" flag="0"/>
			<vel value="0.0167457210262" flag="0"/>
			<psa03 value="0.0772387573135" flag="0"/>
			<psa10 value="0.0140322351917" flag="0"/>
			<psa30 value="0.000749988745573" flag="0"/>
		</comp>
		<comp name="00.HGZ" depth="0.0">
			<acc value="0.0482130477845" flag="0"/>
			<vel value="0.0118264325625" flag="0"/>
			<psa03 value="0.0722041008758" flag="0"/>
			<psa10 value="0.00570728557967" flag="0"/>
			<psa30 value="0.000684272621368" flag="0"/>
		</comp>
	</station>
	<station code="BRR" name="BRR" netid="IT" source="Italian Strong Motion Network (RAN)" insttype="" lat="44.506389" lon="9.987298">
		<comp name="00.HGE" depth="0.0">
			<acc value="0.0200980492944" flag="0"/>
			<vel value="0.0131443913772" flag="0"/>
			<psa03 value="0.0665809210757" flag="0"/>
			<psa10 value="0.0104903889993" flag="0"/>
			<psa30 value="0.000705210935514" flag="0"/>
		</comp>
		<comp name="00.HGN" depth="0.0">
			<acc value="0.0176409273778" flag="0"/>
			<vel value="0.0119023499437" flag="0"/>
			<psa03 value="0.0492520127042" flag="0"/>
			<psa10 value="0.0193577023528" flag="0"/>
			<psa30 value="0.00105549242119" flag="0"/>
		</comp>
		<comp name="00.HGZ" depth="0.0">
			<acc value="0.0125788719823" flag="0"/>
			<vel value="0.00637863397059" flag="0"/>
			<psa03 value="0.0309418179728" flag="0"/>
			<psa10 value="0.00603863127967" flag="0"/>
			<psa30 value="0.000524294888214" flag="0"/>
		</comp>
	</station>
	<station code="BSZ" name="BSZ" netid="IT" source="Italian Strong Motion Network (RAN)" insttype="" lat="44.031513" lon="11.467336">
		<comp name="00.HNE" depth="0.0">
			<acc value="0.013692782345" flag="0"/>
			<vel value="0.0060650722381" flag="0"/>
			<psa03 value="0.0416852510266" flag="0"/>
			<psa10 value="0.00556487692705" flag="0"/>
			<psa30 value="0.00035390485071" flag="0"/>
		</comp>
		<comp name="00.HNN" depth="0.0">
			<acc value="0.0217881410187" flag="0"/>
			<vel value="0.00844891350341" flag="0"/>
			<psa03 value="0.0401402450317" flag="0"/>
			<psa10 value="0.00941125126171" flag="0"/>
			<psa30 value="0.000416999473127" flag="0"/>
		</comp>
		<comp name="00.HNZ" depth="0.0">
			<acc value="0.0159365228237" flag="0"/>
			<vel value="0.00555010901639" flag="0"/>
			<psa03 value="0.0270200060886" flag="0"/>
			<psa10 value="0.00441803407933" flag="0"/>
			<psa30 value="0.000283677542245" flag="0"/>
		</comp>
	</station>
	<station code="BVT" name="BVT" netid="IT" source="Italian Strong Motion Network (RAN)" insttype="" lat="44.5304" lon="9.7428">
		<comp name="00.HNE" depth="0.0">
			<acc value="0.0165052212031" flag="0"/>
			<vel value="0.0138575906949" flag="0"/>
			<psa03 value="0.0267382764879" flag="0"/>
			<psa10 value="0.0116280709276" flag="0"/>
			<psa30 value="0.000736585201404" flag="0"/>
		</comp>
		<comp name="00.HNN" depth="0.0">
			<acc value="0.0157389309456" flag="0"/>
			<vel value="0.0117050094846" flag="0"/>
			<psa03 value="0.0344832192399" flag="0"/>
			<psa10 value="0.0176102947206" flag="0"/>
			<psa30 value="0.000620753569796" flag="0"/>
		</comp>
		<comp name="00.HNZ" depth="0.0">
			<acc value="0.0066070973595" flag="0"/>
			<vel value="0.00690650153071" flag="0"/>
			<psa03 value="0.0156083959588" flag="0"/>
			<psa10 value="0.0115889277096" flag="0"/>
			<psa30 value="0.000604679223697" flag="0"/>
		</comp>
	</station>
	<station code="CAR" name="CAR" netid="IT" source="Italian Strong Motion Network (RAN)" insttype="" lat="44.2473" lon="9.6198">
		<comp name="00.HNE" depth="0.0">
			<acc value="0.0216497691876" flag="0"/>
			<vel value="0.00787784127893" flag="0"/>
			<psa03 value="0.0312467418183" flag="0"/>
			<psa10 value="0.00385991273152" flag="0"/>
			<psa30 value="0.000308364854742" flag="0"/>
		</comp>
		<comp name="00.HNN" depth="0.0">
			<acc value="0.020673384574" flag="0"/>
			<vel value="0.00867209756797" flag="0"/>
			<psa03 value="0.0430035623166" flag="0"/>
			<psa10 value="0.0049524983912" flag="0"/>
			<psa30 value="0.00030735064693" flag="0"/>
		</comp>
		<comp name="00.HNZ" depth="0.0">
			<acc value="0.0116802743822" flag="0"/>
			<vel value="0.00614343528962" flag="0"/>
			<psa03 value="0.0267153713248" flag="0"/>
			<psa10 value="0.00667578770693" flag="0"/>
			<psa30 value="0.000387585597519" flag="0"/>
		</comp>
	</station>
	<station code="CLL" name="CLL" netid="IT" source="Italian Strong Motion Network (RAN)" insttype="" lat="43.478798" lon="11.269104">
		<comp name="00.HNE" depth="0.0">
			<acc value="0.00723008143565" flag="0"/>
			<vel value="0.00430578480116" flag="0"/>
			<psa03 value="0.0172799324711" flag="0"/>
			<psa10 value="0.00873349886394" flag="0"/>
			<psa30 value="0.000522344498591" flag="0"/>
		</comp>
		<comp name="00.HNN" depth="0.0">
			<acc value="0.00903184810219" flag="0"/>
			<vel value="0.00472141073893" flag="0"/>
			<psa03 value="0.0288446946736" flag="0"/>
			<psa10 value="0.00669943583598" flag="0"/>
			<psa30 value="0.000664571837123" flag="0"/>
		</comp>
		<comp name="00.HNZ" depth="0.0">
			<acc value="0.00407149027111" flag="0"/>
			<vel value="0.00258286796992" flag="0"/>
			<psa03 value="0.0105847949407" flag="0"/>
			<psa10 value="0.00464764210224" flag="0"/>
			<psa30 value="0.000565733883345" flag="0"/>
		</comp>
	</station>
	<station code="CME" name="CME" netid="IT" source="Italian Strong Motion Network (RAN)" insttype="" lat="43.9543" lon="10.3012">
		<comp name="00.HNE" depth="0.0">
			<acc value="0.109002102182" flag="0"/>
			<vel value="0.0293726585539" flag="0"/>
			<psa03 value="0.181123477708" flag="0"/>
			<psa10 value="0.0266911987859" flag="0"/>
			<psa30 value="0.00201661900778" flag="0"/>
		</comp>
		<comp name="00.HNN" depth="0.0">
			<acc value="0.148895064669" flag="0"/>
			<vel value="0.046799789963" flag="0"/>
			<psa03 value="0.220805106421" flag="0"/>
			<psa10 value="0.030890605101" flag="0"/>
			<psa30 value="0.00227752733334" flag="0"/>
		</comp>
		<comp name="00.HNZ" depth="0.0">
			<acc value="0.073989933101" flag="0"/>
			<vel value="0.0206324741013" flag="0"/>
			<psa03 value="0.0806766986022" flag="0"/>
			<psa10 value="0.00996558110835" flag="0"/>
			<psa30 value="0.00106344086441" flag="0"/>
		</comp>
	</station>
	<station code="CNF" name="CNF" netid="IT" source="Italian Strong Motion Network (RAN)" insttype="" lat="44.110523" lon="10.411119">
		<comp name="00.HNE" depth="0.0">
			<acc value="0.469188505669" flag="0"/>
			<vel value="0.126947632276" flag="0"/>
			<psa03 value="0.40996078289" flag="0"/>
			<psa10 value="0.0564939974499" flag="0"/>
			<psa30 value="0.00437261299748" flag="0"/>
		</comp>
		<comp name="00.HNN" depth="0.0">
			<acc value="0.665754499252" flag="0"/>
			<vel value="0.17498945883" flag="0"/>
			<psa03 value="0.349214883772" flag="0"/>
			<psa10 value="0.0845380177288" flag="0"/>
			<psa30 value="0.0068712706046" flag="0"/>
		</comp>
		<comp name="00.HNZ" depth="0.0">
			<acc value="0.419445961271" flag="0"/>
			<vel value="0.0651899665729" flag="0"/>
			<psa03 value="0.137637180288" flag="0"/>
			<psa10 value="0.0249645600296" flag="0"/>
			<psa30 value="0.00198507233463" flag="0"/>
		</comp>
	</station>
	<station code="CNT" name="CNT" netid="IT" source="Italian Strong Motion Network (RAN)" insttype="" lat="44.7234" lon="11.2867">
		<comp name="00.HNE" depth="0.0">
			<acc value="0.0323931376077" flag="0"/>
			<vel value="0.0183538555731" flag="0"/>
			<psa03 value="0.116092523893" flag="0"/>
			<psa10 value="0.0136780579792" flag="0"/>
			<psa30 value="0.00133635331851" flag="0"/>
		</comp>
		<comp name="00.HNN" depth="0.0">
			<acc value="0.0316471288646" flag="0"/>
			<vel value="0.0210484755261" flag="0"/>
			<psa03 value="0.128165052806" flag="0"/>
			<psa10 value="0.0174580646361" flag="0"/>
			<psa30 value="0.00198756666654" flag="0"/>
		</comp>
		<comp name="00.HNZ" depth="0.0">
			<acc value="0.0438779690133" flag="0"/>
			<vel value="0.00567553829002" flag="0"/>
			<psa03 value="0.0254457038822" flag="0"/>
			<psa10 value="0.00468653170972" flag="0"/>
			<psa30 value="0.000703557336389" flag="0"/>
		</comp>
	</station>
	<station code="CRP" name="CRP" netid="IT" source="Italian Strong Motion Network (RAN)" insttype="" lat="44.7823" lon="10.8703">
		<comp name="00.HNE" depth="0.0">
			<acc value="0.0392372223356" flag="0"/>
			<vel value="0.0240534426396" flag="0"/>
			<psa03 value="0.109189170747" flag="0"/>
			<psa10 value="0.0201879586032" flag="0"/>
			<psa30 value="0.00217456384585" flag="0"/>
		</comp>
		<comp name="00.HNN" depth="0.0">
			<acc value="0.024766635159" flag="0"/>
			<vel value="0.0151160642851" flag="0"/>
			<psa03 value="0.0568257071327" flag="0"/>
			<psa10 value="0.0148057286194" flag="0"/>
			<psa30 value="0.00229957046026" flag="0"/>
		</comp>
		<comp name="00.HNZ" depth="0.0">
			<acc value="0.0198368043252" flag="0"/>
			<vel value="0.00555320316739" flag="0"/>
			<psa03 value="0.0397362625407" flag="0"/>
			<psa10 value="0.00551249861347" flag="0"/>
			<psa30 value="0.00088790850708" flag="0"/>
		</comp>
	</station>
	<station code="CRR" name="CRR" netid="IT" source="Italian Strong Motion Network (RAN)" insttype="" lat="44.09" lon="10.105">
		<comp name="00.HNE" depth="0.0">
			<acc value="0.164136435013" flag="0"/>
			<vel value="0.0346651337019" flag="0"/>
			<psa03 value="0.0807239777756" flag="0"/>
			<psa10 value="0.0139043189054" flag="0"/>
			<psa30 value="0.000828613172806" flag="0"/>
		</comp>
		<comp name="00.HNN" depth="0.0">
			<acc value="0.357011841946" flag="0"/>
			<vel value="0.0679353132127" flag="0"/>
			<psa03 value="0.0840657199832" flag="0"/>
			<psa10 value="0.00929743122169" flag="0"/>
			<psa30 value="0.00129503828993" flag="0"/>
		</comp>
		<comp name="00.HNZ" depth="0.0">
			<acc value="0.148573569916" flag="0"/>
			<vel value="0.040660201228" flag="0"/>
			<psa03 value="0.0877174879363" flag="0"/>
			<psa10 value="0.0157889940684" flag="0"/>
			<psa30 value="0.000827465388438" flag="0"/>
		</comp>
	</station>
	<station code="DCM" name="DCM" netid="IT" source="Italian Strong Motion Network (RAN)" insttype="" lat="43.891235" lon="11.518011">
		<comp name="00.HNE" depth="0.0">
			<acc value="0.0718814707746" flag="0"/>
			<vel value="0.00732598246797" flag="0"/>
			<psa03 value="0.0577709572507" flag="0"/>
			<psa10 value="0.00662474448181" flag="0"/>
			<psa30 value="0.000508009382295" flag="0"/>
		</comp>
		<comp name="00.HNN" depth="0.0">
			<acc value="0.0800033687072" flag="0"/>
			<vel value="0.00932351815657" flag="0"/>
			<psa03 value="0.0478014634874" flag="0"/>
			<psa10 value="0.00945118390703" flag="0"/>
			<psa30 value="0.000661791757122" flag="0"/>
		</comp>
		<comp name="00.HNZ" depth="0.0">
			<acc value="0.0400329827866" flag="0"/>
			<vel value="0.00541095994573" flag="0"/>
			<psa03 value="0.0400989740686" flag="0"/>
			<psa10 value="0.00789700501282" flag="0"/>
			<psa30 value="0.000313257053826" flag="0"/>
		</comp>
	</station>
	<station code="FGV" name="FGV" netid="IT" source="Italian Strong Motion Network (RAN)" insttype="" lat="43.601456" lon="11.411619">
		<comp name="00.HNE" depth="0.0">
			<acc value="0.00715653242386" flag="0"/>
			<vel value="0.00324613707413" flag="0"/>
			<psa03 value="0.0199231505401" flag="0"/>
			<psa10 value="0.00411250321442" flag="0"/>
			<psa30 value="0.000330827202137" flag="0"/>
		</comp>
		<comp name="00.HNN" depth="0.0">
			<acc value="0.00551880387154" flag="0"/>
			<vel value="0.00330307856553" flag="0"/>
			<psa03 value="0.0151833287377" flag="0"/>
			<psa10 value="0.00383464238561" flag="0"/>
			<psa30 value="0.000591466890113" flag="0"/>
		</comp>
		<comp name="00.HNZ" depth="0.0">
			<acc value="0.00325663706655" flag="0"/>
			<vel value="0.00222430410711" flag="0"/>
			<psa03 value="0.00855523796649" flag="0"/>
			<psa10 value="0.00413075145452" flag="0"/>
			<psa30 value="0.00030149242031" flag="0"/>
		</comp>
	</station>
	<station code="FIE" name="FIE" netid="IT" source="Italian Strong Motion Network (RAN)" insttype="" lat="43.807251" lon="11.294385">
		<comp name="00.HGE" depth="0.0">
			<acc value="0.0133120954638" flag="0"/>
			<vel value="0.00683848654541" flag="0"/>
			<psa03 value="0.0290927137078" flag="0"/>
			<psa10 value="0.00410454284334" flag="0"/>
			<psa30 value="0.000423881934265" flag="0"/>
		</comp>
		<comp name="00.HGN" depth="0.0">
			<acc value="0.015207002392" flag="0"/>
			<vel value="0.00665115667894" flag="0"/>
			<psa03 value="0.0171308731175" flag="0"/>
			<psa10 value="0.00751721876012" flag="0"/>
			<psa30 value="0.000545520721403" flag="0"/>
		</comp>
		<comp name="00.HGZ" depth="0.0">
			<acc value="0.0134765754505" flag="0"/>
			<vel value="0.006824817015" flag="0"/>
			<psa03 value="0.028341882719" flag="0"/>
			<psa10 value="0.00391319579252" flag="0"/>
			<psa30 value="0.000388788593878" flag="0"/>
		</comp>
	</station>
	<station code="FRE" name="FRE" netid="IT" source="Italian Strong Motion Network (RAN)" insttype="" lat="44.1214" lon="11.39785">
		<comp name="00.HNE" depth="0.0">
			<acc value="0.0165982487909" flag="0"/>
			<vel value="0.0050060372525" flag="0"/>
			<psa03 value="0.0265975718544" flag="0"/>
			<psa10 value="0.00339226753358" flag="0"/>
			<psa30 value="0.000351609698667" flag="0"/>
		</comp>
		<comp name="00.HNN" depth="0.0">
			<acc value="0.0218718887852" flag="0"/>
			<vel value="0.00884573518226" flag="0"/>
			<psa03 value="0.0346740834462" flag="0"/>
			<psa10 value="0.0062605812953" flag="0"/>
			<psa30 value="0.000467525919213" flag="0"/>
		</comp>
		<comp name="00.HNZ" depth="0.0">
			<acc value="0.0127423820835" flag="0"/>
			<vel value="0.00557144807149" flag="0"/>
			<psa03 value="0.0323824238225" flag="0"/>
			<psa10 value="0.00322782570261" flag="0"/>
			<psa30 value="0.00034880891417" flag="0"/>
		</comp>
	</station>
