<stationlist created="1663923623">
	<station code="FIVI" name="FIVI" netid="GU" source="Regional Seismic Network of North Western Italy (RSNI)" insttype="" lat="44.2394" lon="10.1271">
		<comp name=".HNE" depth="0.0">
			<acc value="0.0637393624721" flag="0"/>
			<vel value="0.0194061393496" flag="0"/>
			<psa03 value="0.0707797096416" flag="0"/>
			<psa10 value="0.0101273302609" flag="0"/>
			<psa30 value="0.000921084767347" flag="0"/>
		</comp>
		<comp name=".HNN" depth="0.0">
			<acc value="0.0710148811429" flag="0"/>
			<vel value="0.0315196572147" flag="0"/>
			<psa03 value="0.153151572624" flag="0"/>
			<psa10 value="0.0159083644761" flag="0"/>
			<psa30 value="0.0010902165965" flag="0"/>
		</comp>
		<comp name=".HNZ" depth="0.0">
			<acc value="0.104377208639" flag="0"/>
			<vel value="0.0214427697569" flag="0"/>
			<psa03 value="0.0559539358404" flag="0"/>
			<psa10 value="0.0118525082955" flag="0"/>
			<psa30 value="0.00131747935988" flag="0"/>
		</comp>
	</station>
	<station code="APEC" name="APEC" netid="IV" source="Italian National Seismic Network (INSN)" insttype="" lat="43.55846" lon="12.41991">
		<comp name=".HHE" depth="0.0">
			<acc value="0.00307396534558" flag="0"/>
			<vel value="0.00204269196323" flag="0"/>
			<psa03 value="0.00881300764663" flag="0"/>
			<psa10 value="0.00184150347494" flag="0"/>
			<psa30 value="0.000240229117125" flag="0"/>
		</comp>
		<comp name=".HHN" depth="0.0">
			<acc value="0.00309921394888" flag="0"/>
			<vel value="0.00180711328848" flag="0"/>
			<psa03 value="0.00762238385177" flag="0"/>
			<psa10 value="0.00183186545366" flag="0"/>
			<psa30 value="0.000206892507697" flag="0"/>
		</comp>
		<comp name=".HHZ" depth="0.0">
			<acc value="0.00182852757747" flag="0"/>
			<vel value="0.00101843044236" flag="0"/>
			<psa03 value="0.00738045441366" flag="0"/>
			<psa10 value="0.00117258408419" flag="0"/>
			<psa30 value="0.000167665573167" flag="0"/>
		</comp>
		<comp name=".HNE" depth="0.0">
			<acc value="0.00301707710863" flag="0"/>
			<vel value="0.00260377159798" flag="0"/>
			<psa03 value="0.00741805260749" flag="0"/>
			<psa10 value="0.00229199316143" flag="0"/>
			<psa30 value="0.000602817642044" flag="0"/>
		</comp>
		<comp name=".HNN" depth="0.0">
			<acc value="0.00370508555418" flag="0"/>
			<vel value="0.00209658389888" flag="0"/>
			<psa03 value="0.00849511093647" flag="0"/>
			<psa10 value="0.00231177736265" flag="0"/>
			<psa30 value="0.000637593747871" flag="0"/>
		</comp>
		<comp name=".HNZ" depth="0.0">
			<acc value="0.00230198784132" flag="0"/>
			<vel value="0.00281192130909" flag="0"/>
			<psa03 value="0.00754902873194" flag="0"/>
			<psa10 value="0.00160645477912" flag="0"/>
			<psa30 value="0.00131201628964" flag="0"/>
		</comp>
	</station>
	<station code="ARCI" name="ARCI" netid="IV" source="Italian National Seismic Network (INSN)" insttype="" lat="42.8519" lon="11.4754">
		<comp name=".HHE" depth="0.0">
			<acc value="0.000712839340486" flag="0"/>
			<vel value="0.000541363459794" flag="0"/>
			<psa03 value="0.00191604831552" flag="0"/>
			<psa10 value="0.0013307795248" flag="0"/>
			<psa30 value="0.000118173935214" flag="0"/>
		</comp>
		<comp name=".HHN" depth="0.0">
			<acc value="0.000940104103036" flag="0"/>
			<vel value="0.000663728763341" flag="0"/>
			<psa03 value="0.00294318488041" flag="0"/>
			<psa10 value="0.00109109399837" flag="0"/>
			<psa30 value="0.000223545694222" flag="0"/>
		</comp>
		<comp name=".HHZ" depth="0.0">
			<acc value="0.00100523922344" flag="0"/>
			<vel value="0.000470126316533" flag="0"/>
			<psa03 value="0.00244732781356" flag="0"/>
			<psa10 value="0.000511153060598" flag="0"/>
			<psa30 value="9.99186503701e-05" flag="0"/>
		</comp>
		<comp name=".HNE" depth="0.0">
			<acc value="0.000706886610193" flag="0"/>
			<vel value="0.000541468565651" flag="0"/>
			<psa03 value="0.00192844057525" flag="0"/>
			<psa10 value="0.00133243830656" flag="0"/>
			<psa30 value="0.000102275141111" flag="0"/>
		</comp>
		<comp name=".HNN" depth="0.0">
			<acc value="0.000865638322472" flag="0"/>
			<vel value="0.000611723899821" flag="0"/>
			<psa03 value="0.00284964450413" flag="0"/>
			<psa10 value="0.00103077922156" flag="0"/>
			<psa30 value="0.000230874018229" flag="0"/>
		</comp>
		<comp name=".HNZ" depth="0.0">
			<acc value="0.000961511787354" flag="0"/>
			<vel value="0.000475184097442" flag="0"/>
			<psa03 value="0.00236055595207" flag="0"/>
			<psa10 value="0.000482857582649" flag="0"/>
			<psa30 value="8.7304741844e-05" flag="0"/>
		</comp>
	</station>
	<station code="BAG8" name="BAG8" netid="IV" source="Italian National Seismic Network (INSN)" insttype="" lat="45.8228" lon="10.4664">
		<comp name=".EHE" depth="0.0">
			<acc value="0.00355063186265" flag="0"/>
			<vel value="0.00201265124737" flag="0"/>
			<psa03 value="0.00616488235155" flag="0"/>
			<psa10 value="0.00268098791479" flag="0"/>
			<psa30 value="0.000105870450898" flag="0"/>
		</comp>
		<comp name=".EHN" depth="0.0">
			<acc value="0.00439071932061" flag="0"/>
			<vel value="0.00131326423879" flag="0"/>
			<psa03 value="0.00986995787275" flag="0"/>
			<psa10 value="0.00125400678273" flag="0"/>
			<psa30 value="0.000126363566279" flag="0"/>
		</comp>
		<comp name=".EHZ" depth="0.0">
			<acc value="0.00254994007588" flag="0"/>
			<vel value="0.00155761365263" flag="0"/>
			<psa03 value="0.00814365926914" flag="0"/>
			<psa10 value="0.00147176976315" flag="0"/>
			<psa30 value="8.90330334184e-05" flag="0"/>
		</comp>
		<comp name=".HNE" depth="0.0">
			<acc value="0.00397771231858" flag="0"/>
			<vel value="0.00184770498916" flag="0"/>
			<psa03 value="0.00663646241954" flag="0"/>
			<psa10 value="0.00240431591475" flag="0"/>
			<psa30 value="0.000577741293358" flag="0"/>
		</comp>
		<comp name=".HNN" depth="0.0">
			<acc value="0.00434344286935" flag="0"/>
			<vel value="0.00131430449671" flag="0"/>
			<psa03 value="0.00992533198371" flag="0"/>
			<psa10 value="0.00137577793541" flag="0"/>
			<psa30 value="0.0001612877939" flag="0"/>
		</comp>
		<comp name=".HNZ" depth="0.0">
			<acc value="0.00304772411987" flag="0"/>
			<vel value="0.0016311789698" flag="0"/>
			<psa03 value="0.00810720633347" flag="0"/>
			<psa10 value="0.00155482206183" flag="0"/>
			<psa30 value="8.78759124936e-05" flag="0"/>
		</comp>
	</station>
	<station code="BOB" name="BOB" netid="IV" source="Italian National Seismic Network (INSN)" insttype="" lat="44.76792" lon="9.44782">
		<comp name=".HHE" depth="0.0">
			<acc value="0.00519542657023" flag="0"/>
			<vel value="0.00267898646225" flag="0"/>
			<psa03 value="0.00846818597576" flag="0"/>
			<psa10 value="0.00445368440975" flag="0"/>
			<psa30 value="0.000391216515132" flag="0"/>
		</comp>
		<comp name=".HHN" depth="0.0">
			<acc value="0.00447124940223" flag="0"/>
			<vel value="0.00301812083532" flag="0"/>
			<psa03 value="0.00925412736344" flag="0"/>
			<psa10 value="0.0049766949941" flag="0"/>
			<psa30 value="0.000362523989394" flag="0"/>
		</comp>
		<comp name=".HHZ" depth="0.0">
			<acc value="0.00280918860392" flag="0"/>
			<vel value="0.00224585242965" flag="0"/>
			<psa03 value="0.00623337256575" flag="0"/>
			<psa10 value="0.00451306396833" flag="0"/>
			<psa30 value="0.000206219754797" flag="0"/>
		</comp>
		<comp name=".HNE" depth="0.0">
			<acc value="0.00573117072563" flag="0"/>
			<vel value="0.00272339663815" flag="0"/>
			<psa03 value="0.00807781441245" flag="0"/>
			<psa10 value="0.00405105445623" flag="0"/>
			<psa30 value="0.00035099455375" flag="0"/>
		</comp>
		<comp name=".HNN" depth="0.0">
			<acc value="0.00602683812974" flag="0"/>
			<vel value="0.00322703084038" flag="0"/>
			<psa03 value="0.00885843057755" flag="0"/>
			<psa10 value="0.0048208163867" flag="0"/>
			<psa30 value="0.000328506032746" flag="0"/>
		</comp>
		<comp name=".HNZ" depth="0.0">
			<acc value="0.00327842910652" flag="0"/>
			<vel value="0.00226663354861" flag="0"/>
			<psa03 value="0.00593755739652" flag="0"/>
			<psa10 value="0.00438218498574" flag="0"/>
			<psa30 value="0.000216849261033" flag="0"/>
		</comp>
	</station>
	<station code="BOSL" name="BOSL" netid="IV" source="Italian National Seismic Network (INSN)" insttype="" lat="43.93096" lon="11.374336">
		<comp name=".HHE" depth="0.0">
			<acc value="0.0181844466636" flag="0"/>
			<vel value="0.00616377956603" flag="0"/>
			<psa03 value="0.0374341517038" flag="0"/>
			<psa10 value="0.00249997514234" flag="0"/>
			<psa30 value="0.000188808588372" flag="0"/>
		</comp>
		<comp name=".HHN" depth="0.0">
			<acc value="0.019467246013" flag="0"/>
			<vel value="0.00586531935171" flag="0"/>
			<psa03 value="0.0408508103324" flag="0"/>
			<psa10 value="0.00287755507703" flag="0"/>
			<psa30 value="0.000163662690808" flag="0"/>
		</comp>
		<comp name=".HHZ" depth="0.0">
			<acc value="0.00993187509636" flag="0"/>
			<vel value="0.0030296358776" flag="0"/>
			<psa03 value="0.0175527396058" flag="0"/>
			<psa10 value="0.0026981103772" flag="0"/>
			<psa30 value="0.000162063795827" flag="0"/>
		</comp>
	</station>
	<station code="BRIS" name="BRIS" netid="IV" source="Italian National Seismic Network (INSN)" insttype="" lat="44.22454" lon="11.76657">
		<comp name=".HHE" depth="0.0">
			<acc value="0.00288196881554" flag="0"/>
			<vel value="0.00244392297838" flag="0"/>
			<psa03 value="0.0106906684908" flag="0"/>
			<psa10 value="0.00327920926277" flag="0"/>
			<psa30 value="0.000364657281755" flag="0"/>
		</comp>
		<comp name=".HHN" depth="0.0">
			<acc value="0.00397781853368" flag="0"/>
			<vel value="0.00272051144974" flag="0"/>
			<psa03 value="0.0136121504361" flag="0"/>
			<psa10 value="0.00184544170458" flag="0"/>
			<psa30 value="0.000200827223089" flag="0"/>
		</comp>
		<comp name=".HHZ" depth="0.0">
			<acc value="0.00214596674322" flag="0"/>
			<vel value="0.001466426329" flag="0"/>
			<psa03 value="0.00819122557118" flag="0"/>
			<psa10 value="0.00234750293242" flag="0"/>
			<psa30 value="0.000120704167934" flag="0"/>
		</comp>
		<comp name=".HNE" depth="0.0">
			<acc value="0.0066058083006" flag="0"/>
			<vel value="0.00586806567564" flag="0"/>
			<psa03 value="0.0268066039309" flag="0"/>
			<psa10 value="0.0081793649678" flag="0"/>
			<psa30 value="0.000852348807678" flag="0"/>
		</comp>
		<comp name=".HNN" depth="0.0">
			<acc value="0.0100319044366" flag="0"/>
			<vel value="0.00663304474167" flag="0"/>
			<psa03 value="0.0319240887725" flag="0"/>
			<psa10 value="0.0051156796699" flag="0"/>
			<psa30 value="0.000604384308328" flag="0"/>
		</comp>
		<comp name=".HNZ" depth="0.0">
			<acc value="0.00524373536897" flag="0"/>
			<vel value="0.00374063770142" flag="0"/>
			<psa03 value="0.0211749444028" flag="0"/>
			<psa10 value="0.00578209647303" flag="0"/>
			<psa30 value="0.000304347192758" flag="0"/>
		</comp>
	</station>
	<station code="CADC" name="CADC" netid="IV" source="Italian National Seismic Network (INSN)" insttype="" lat="45.455464" lon="10.128662">
		<comp name=".EHE" depth="0.0">
			<acc value="0.00744904720838" flag="0"/>
			<vel value="0.00337325482616" flag="0"/>
			<psa03 value="0.0102537189721" flag="0"/>
			<psa10 value="0.00500846616132" flag="0"/>
			<psa30 value="0.000461087888558" flag="0"/>
		</comp>
		<comp name=".EHN" depth="0.0">
			<acc value="0.00439272738243" flag="0"/>
			<vel value="0.00409979056227" flag="0"/>
			<psa03 value="0.0093339829139" flag="0"/>
			<psa10 value="0.00669363654559" flag="0"/>
			<psa30 value="0.000730625483685" flag="0"/>
		</comp>
		<comp name=".EHZ" depth="0.0">
			<acc value="0.0154435413819" flag="0"/>
			<vel value="0.00281280086613" flag="0"/>
			<psa03 value="0.00716991833126" flag="0"/>
			<psa10 value="0.00416570423872" flag="0"/>
			<psa30 value="0.000379478914658" flag="0"/>
		</comp>
		<comp name=".HNE" depth="0.0">
			<acc value="0.00804555551317" flag="0"/>
			<vel value="0.00373762886588" flag="0"/>
			<psa03 value="0.0112069611562" flag="0"/>
			<psa10 value="0.00562505013196" flag="0"/>
			<psa30 value="0.000538329203336" flag="0"/>
		</comp>
		<comp name=".HNN" depth="0.0">
			<acc value="0.00514679447743" flag="0"/>
			<vel value="0.00417147690662" flag="0"/>
			<psa03 value="0.00962202738604" flag="0"/>
			<psa10 value="0.0068723785426" flag="0"/>
			<psa30 value="0.000918684712521" flag="0"/>
		</comp>
		<comp name=".HNZ" depth="0.0">
			<acc value="0.0201668613431" flag="0"/>
			<vel value="0.00285265731126" flag="0"/>
			<psa03 value="0.00713601309044" flag="0"/>
			<psa10 value="0.00430861683097" flag="0"/>
			<psa30 value="0.000401315803952" flag="0"/>
		</comp>
	</station>
	<station code="CAFI" name="CAFI" netid="IV" source="Italian National Seismic Network (INSN)" insttype="" lat="43.3292" lon="11.9663">
		<comp name=".HHE" depth="0.0">
			<acc value="0.00188279800268" flag="0"/>
			<vel value="0.00116773118356" flag="0"/>
			<psa03 value="0.00392023951434" flag="0"/>
			<psa10 value="0.00119979459769" flag="0"/>
			<psa30 value="0.000170755856008" flag="0"/>
		</comp>
		<comp name=".HHN" depth="0.0">
			<acc value="0.00175920801712" flag="0"/>
			<vel value="0.00108945131597" flag="0"/>
			<psa03 value="0.00548828544698" flag="0"/>
			<psa10 value="0.00131358170584" flag="0"/>
			<psa30 value="0.000238708547645" flag="0"/>
		</comp>
		<comp name=".HHZ" depth="0.0">
			<acc value="0.00120710875743" flag="0"/>
			<vel value="0.000802480042405" flag="0"/>
			<psa03 value="0.00317272710468" flag="0"/>
			<psa10 value="0.00100833117199" flag="0"/>
			<psa30 value="0.000109375227343" flag="0"/>
		</comp>
		<comp name=".HNE" depth="0.0">
			<acc value="0.00174289191626" flag="0"/>
			<vel value="0.00110686450861" flag="0"/>
			<psa03 value="0.00361930356318" flag="0"/>
			<psa10 value="0.00115486966851" flag="0"/>
			<psa30 value="0.000171516192835" flag="0"/>
		</comp>
		<comp name=".HNN" depth="0.0">
			<acc value="0.00180370852071" flag="0"/>
			<vel value="0.00108416417664" flag="0"/>
			<psa03 value="0.00528750391703" flag="0"/>
			<psa10 value="0.00126832323894" flag="0"/>
			<psa30 value="0.000220467677819" flag="0"/>
		</comp>
		<comp name=".HNZ" depth="0.0">
			<acc value="0.00127224971909" flag="0"/>
			<vel value="0.00178430668558" flag="0"/>
			<psa03 value="0.0030186488639" flag="0"/>
			<psa10 value="0.0013427653188" flag="0"/>
			<psa30 value="0.00064341246667" flag="0"/>
		</comp>
	</station>
	<station code="CAPR" name="CAPR" netid="IV" source="Italian National Seismic Network (INSN)" insttype="" lat="45.6372" lon="9.9345">
		<comp name=".HNE" depth="0.0">
			<acc value="0.00493800660952" flag="0"/>
			<vel value="0.00105645481708" flag="0"/>
			<psa03 value="0.00203176773266" flag="0"/>
			<psa10 value="0.00142051253948" flag="0"/>
			<psa30 value="0.000190388185199" flag="0"/>
		</comp>
		<comp name=".HNN" depth="0.0">
			<acc value="0.00568593011137" flag="0"/>
			<vel value="0.000965314245662" flag="0"/>
			<psa03 value="0.00334528899179" flag="0"/>
			<psa10 value="0.00178541100909" flag="0"/>
			<psa30 value="0.000155077590837" flag="0"/>
		</comp>
		<comp name=".HNZ" depth="0.0">
			<acc value="0.00566138565601" flag="0"/>
			<vel value="0.00116961202128" flag="0"/>
			<psa03 value="0.00244261330854" flag="0"/>
			<psa10 value="0.0012254509848" flag="0"/>
			<psa30 value="0.000280785189182" flag="0"/>
		</comp>
	</station>
	<station code="CDCA" name="CDCA" netid="IV" source="Italian National Seismic Network (INSN)" insttype="" lat="43.4584" lon="12.2336">
		<comp name=".HNE" depth="0.0">
			<acc value="0.013849367138" flag="0"/>
			<vel value="0.00314965589335" flag="0"/>
			<psa03 value="0.0164261050759" flag="0"/>
			<psa10 value="0.0053969501777" flag="0"/>
			<psa30 value="0.000490802617433" flag="0"/>
		</comp>
		<comp name=".HNN" depth="0.0">
			<acc value="0.017186417894" flag="0"/>
			<vel value="0.00523920979425" flag="0"/>
			<psa03 value="0.0313666377817" flag="0"/>
			<psa10 value="0.00720519949659" flag="0"/>
			<psa30 value="0.000623110444674" flag="0"/>
		</comp>
		<comp name=".HNZ" depth="0.0">
			<acc value="0.00618538026511" flag="0"/>
			<vel value="0.00285760380056" flag="0"/>
			<psa03 value="0.0177393483218" flag="0"/>
			<psa10 value="0.00462562111222" flag="0"/>
			<psa30 value="0.000507450178586" flag="0"/>
		</comp>
	</station>
	<station code="CNCS" name="CNCS" netid="IV" source="Italian National Seismic Network (INSN)" insttype="" lat="45.606" lon="10.217">
		<comp name=".EHE" depth="0.0">
			<acc value="0.0113039904015" flag="0"/>
			<vel value="0.00697582871052" flag="0"/>
			<psa03 value="0.0302498997407" flag="0"/>
			<psa10 value="0.00408278624579" flag="0"/>
			<psa30 value="0.000267597414516" flag="0"/>
		</comp>
		<comp name=".EHN" depth="0.0">
			<acc value="0.0123885920462" flag="0"/>
			<vel value="0.00629430414299" flag="0"/>
			<psa03 value="0.0510286564399" flag="0"/>
			<psa10 value="0.00429945169256" flag="0"/>
			<psa30 value="0.000259603577671" flag="0"/>
		</comp>
		<comp name=".EHZ" depth="0.0">
			<acc value="0.00759476495294" flag="0"/>
			<vel value="0.00217868909958" flag="0"/>
			<psa03 value="0.0103074250038" flag="0"/>
			<psa10 value="0.00179702763801" flag="0"/>
			<psa30 value="0.000139195991885" flag="0"/>
		</comp>
		<comp name=".HNE" depth="0.0">
			<acc value="0.011776566527" flag="0"/>
			<vel value="0.00733155905802" flag="0"/>
			<psa03 value="0.0310496636587" flag="0"/>
			<psa10 value="0.00422120041507" flag="0"/>
			<psa30 value="0.000317681956329" flag="0"/>
		</comp>
		<comp name=".HNN" depth="0.0">
			<acc value="0.0132540101973" flag="0"/>
			<vel value="0.00643197157013" flag="0"/>
			<psa03 value="0.0528822531898" flag="0"/>
			<psa10 value="0.00453207210253" flag="0"/>
			<psa30 value="0.000258921970018" flag="0"/>
		</comp>
		<comp name=".HNZ" depth="0.0">
			<acc value="0.0110696393959" flag="0"/>
			<vel value="0.00211272850729" flag="0"/>
			<psa03 value="0.0106386266318" flag="0"/>
			<psa10 value="0.00187763383715" flag="0"/>
			<psa30 value="0.000112664937458" flag="0"/>
		</comp>
	</station>
	<station code="CPGN" name="CPGN" netid="IV" source="Italian National Seismic Network (INSN)" insttype="" lat="43.8011" lon="12.3205">
		<comp name=".EHE" depth="1.0">
			<acc value="0.00156912366877" flag="0"/>
			<vel value="0.00158244049163" flag="0"/>
			<psa03 value="0.00541999706903" flag="0"/>
			<psa10 value="0.00323982134101" flag="0"/>
			<psa30 value="0.000378573906788" flag="0"/>
		</comp>
		<comp name=".EHN" depth="1.0">
			<acc value="0.00172160062499" flag="0"/>
			<vel value="0.00178399413007" flag="0"/>
			<psa03 value="0.00593266709861" flag="0"/>
			<psa10 value="0.00266233581981" flag="0"/>
			<psa30 value="0.000273685083419" flag="0"/>
		</comp>
		<comp name=".EHZ" depth="1.0">
			<acc value="0.00121765879067" flag="0"/>
			<vel value="0.00100552328634" flag="0"/>
			<psa03 value="0.00436308525695" flag="0"/>
			<psa10 value="0.00163099863159" flag="0"/>
			<psa30 value="0.000393928074968" flag="0"/>
		</comp>
		<comp name=".HNE" depth="1.0">
			<acc value="0.00227081701351" flag="0"/>
			<vel value="0.00173410621486" flag="0"/>
			<psa03 value="0.00624363366217" flag="0"/>
			<psa10 value="0.00230949814917" flag="0"/>
			<psa30 value="0.00021826776646" flag="0"/>
		</comp>
		<comp name=".HNN" depth="1.0">
			<acc value="0.00210998131804" flag="0"/>
			<vel value="0.00167666382914" flag="0"/>
			<psa03 value="0.00564577374439" flag="0"/>
			<psa10 value="0.00338261955069" flag="0"/>
			<psa30 value="0.000358438171853" flag="0"/>
		</comp>
		<comp name=".HNZ" depth="1.0">
			<acc value="0.00127125997432" flag="0"/>
			<vel value="0.00104922410353" flag="0"/>
			<psa03 value="0.00429733513309" flag="0"/>
			<psa10 value="0.00160196116113" flag="0"/>
			<psa30 value="0.000371142320732" flag="0"/>
		</comp>
	</station>
	<station code="CRMI" name="CRMI" netid="IV" source="Italian National Seismic Network (INSN)" insttype="" lat="43.7955972222" lon="10.9795055556">
		<comp name=".HNE" depth="0.0">
			<acc value="0.0284398442165" flag="0"/>
			<vel value="0.00938691518889" flag="0"/>
