<?xml version="1.0" encoding="UTF-8" standalone="yes"?>
<!DOCTYPE earthquake SYSTEM "stationlist.dtd">
<stationlist created="" xmlns="ch.ethz.sed.shakemap.usgs.xml">
  <station code="CARD" name="CARD" netid="GU" insttype="" lat="44.0261" lon="10.4821">
    <comp name="--.HHE">
      <acc value="0.6710216730" flag="0"/>
      <vel value="0.1742576281" flag="0"/>
      <psa03 value="0.3364436175" flag="0"/>
      <psa10 value="0.0554724839" flag="0"/>
      <psa30 value="0.0033039287" flag="0"/>
    </comp>
    <comp name="--.HHN">
      <acc value="1.1812891788" flag="0"/>
      <vel value="0.2011446392" flag="0"/>
      <psa03 value="0.5890468720" flag="0"/>
      <psa10 value="0.0625943558" flag="0"/>
      <psa30 value="0.0056524277" flag="0"/>
    </comp>
    <comp name="--.HHZ">
      <acc value="0.3270743697" flag="0"/>
      <vel value="0.0698260318" flag="0"/>
      <psa03 value="0.2611269620" flag="0"/>
      <psa10 value="0.0301453283" flag="0"/>
      <psa30 value="0.0022957028" flag="0"/>
    </comp>
  </station>
  <station code="EQUI" name="EQUI" netid="GU" insttype="" lat="44.166" lon="10.153">
    <comp name="--.HHE">
      <acc value="0.0632521739" flag="0"/>
      <vel value="0.0074737917" flag="0"/>
      <psa03 value="0.0218991511" flag="0"/>
      <psa10 value="0.0074805921" flag="0"/>
      <psa30 value="0.0004694844" flag="0"/>
    </comp>
    <comp name="--.HHN">
      <acc value="0.0504949168" flag="0"/>
      <vel value="0.0069515525" flag="0"/>
      <psa03 value="0.0233012955" flag="0"/>
      <psa10 value="0.0063238716" flag="0"/>
      <psa30 value="0.0006624616" flag="0"/>
    </comp>
    <comp name="--.HHZ">
      <acc value="0.0428116963" flag="0"/>
      <vel value="0.0079870486" flag="0"/>
      <psa03 value="0.0304900113" flag="0"/>
      <psa10 value="0.0062851781" flag="0"/>
      <psa30 value="0.0005545974" flag="0"/>
    </comp>
  </station>
  <station code="FIVI" name="FIVI" netid="GU" insttype="" lat="44.2394" lon="10.1271">
    <comp name="--.HNE">
      <acc value="0.0660767708" flag="0"/>
      <vel value="0.0192799184" flag="0"/>
      <psa03 value="0.0709545415" flag="0"/>
      <psa10 value="0.0101054405" flag="0"/>
      <psa30 value="0.0008925546" flag="0"/>
    </comp>
    <comp name="--.HNN">
      <acc value="0.0716350399" flag="0"/>
      <vel value="0.0314758456" flag="0"/>
      <psa03 value="0.1527318303" flag="0"/>
      <psa10 value="0.0159066713" flag="0"/>
      <psa30 value="0.0011013933" flag="0"/>
    </comp>
    <comp name="--.HNZ">
      <acc value="0.1050426165" flag="0"/>
      <vel value="0.0214724569" flag="0"/>
      <psa03 value="0.0560501361" flag="0"/>
      <psa10 value="0.0118516270" flag="0"/>
      <psa30 value="0.0012383405" flag="0"/>
    </comp>
  </station>
  <station code="GORR" name="GORR" netid="GU" insttype="" lat="44.6071" lon="9.2926">
    <comp name="--.HHE">
      <acc value="0.0036925554" flag="0"/>
      <vel value="0.0023057886" flag="0"/>
      <psa03 value="0.0133512016" flag="0"/>
      <psa10 value="0.0032224276" flag="0"/>
      <psa30 value="0.0002171482" flag="0"/>
    </comp>
    <comp name="--.HHN">
      <acc value="0.0040910079" flag="0"/>
      <vel value="0.0027304225" flag="0"/>
      <psa03 value="0.0109212708" flag="0"/>
      <psa10 value="0.0022273834" flag="0"/>
      <psa30 value="0.0002694908" flag="0"/>
    </comp>
    <comp name="--.HHZ">
      <acc value="0.0031972955" flag="0"/>
      <vel value="0.0019811292" flag="0"/>
      <psa03 value="0.0088868322" flag="0"/>
      <psa10 value="0.0030602531" flag="0"/>
      <psa30 value="0.0001467616" flag="0"/>
    </comp>
  </station>
  <station code="GRAM" name="GRAM" netid="GU" insttype="" lat="44.4904" lon="10.065">
    <comp name="--.HHE">
      <acc value="0.0671038269" flag="0"/>
      <vel value="0.0280849707" flag="0"/>
      <psa03 value="0.1876249364" flag="0"/>
      <psa10 value="0.0130034831" flag="0"/>
      <psa30 value="0.0009064204" flag="0"/>
    </comp>
    <comp name="--.HHN">
      <acc value="0.0502468522" flag="0"/>
      <vel value="0.0235755111" flag="0"/>
      <psa03 value="0.1274025877" flag="0"/>
      <psa10 value="0.0154303600" flag="0"/>
      <psa30 value="0.0012168334" flag="0"/>
    </comp>
    <comp name="--.HHZ">
      <acc value="0.0435643741" flag="0"/>
      <vel value="0.0109984580" flag="0"/>
      <psa03 value="0.0318243599" flag="0"/>
      <psa10 value="0.0087818682" flag="0"/>
      <psa30 value="0.0006225698" flag="0"/>
    </comp>
  </station>
  <station code="GSCL" name="GSCL" netid="GU" insttype="" lat="44.3506" lon="10.588">
    <comp name="--.HHE">
      <acc value="1.0941122884" flag="0"/>
      <vel value="0.4934393158" flag="0"/>
      <psa03 value="2.2188175283" flag="0"/>
      <psa10 value="0.1265288113" flag="0"/>
      <psa30 value="0.0099219323" flag="0"/>
    </comp>
    <comp name="--.HHZ">
      <acc value="0.3181799493" flag="0"/>
      <vel value="0.0916270724" flag="0"/>
      <psa03 value="0.4818406673" flag="0"/>
      <psa10 value="0.1027090931" flag="0"/>
      <psa30 value="0.0047324712" flag="0"/>
    </comp>
    <comp name="--.HHN">
      <acc value="1.7354890709" flag="0"/>
      <vel value="0.5170841102" flag="0"/>
      <psa03 value="1.5688642410" flag="0"/>
      <psa10 value="0.1444905099" flag="0"/>
      <psa30 value="0.0166377449" flag="0"/>
    </comp>
  </station>
  <station code="MAIM" name="MAIM" netid="GU" insttype="" lat="43.9142" lon="10.4915">
    <comp name="--.HHE">
      <acc value="0.0611840698" flag="0"/>
      <vel value="0.0208701501" flag="0"/>
      <psa03 value="0.0894741493" flag="0"/>
      <psa10 value="0.0092886524" flag="0"/>
      <psa30 value="0.0007481778" flag="0"/>
    </comp>
    <comp name="--.HHN">
      <acc value="0.1047128360" flag="0"/>
      <vel value="0.0346762249" flag="0"/>
      <psa03 value="0.1093786503" flag="0"/>
      <psa10 value="0.0176969975" flag="0"/>
      <psa30 value="0.0009452425" flag="0"/>
    </comp>
    <comp name="--.HHZ">
      <acc value="0.0980863820" flag="0"/>
      <vel value="0.0309389136" flag="0"/>
      <psa03 value="0.1184441411" flag="0"/>
      <psa10 value="0.0148067362" flag="0"/>
      <psa30 value="0.0010546428" flag="0"/>
    </comp>
  </station>
  <station code="POPM" name="POPM" netid="GU" insttype="" lat="44.045" lon="10.757">
    <comp name="--.HHN">
      <acc value="1.1370479421" flag="0"/>
      <vel value="0.2329066206" flag="0"/>
      <psa03 value="0.8946705662" flag="0"/>
      <psa10 value="0.0662955176" flag="0"/>
      <psa30 value="0.0057745976" flag="0"/>
    </comp>
    <comp name="--.HHE">
      <acc value="1.2039852029" flag="0"/>
      <vel value="0.2322829486" flag="0"/>
      <psa03 value="0.9671490294" flag="0"/>
      <psa10 value="0.0564235278" flag="0"/>
      <psa30 value="0.0044262666" flag="0"/>
    </comp>
    <comp name="--.HHZ">
      <acc value="1.0701624141" flag="0"/>
      <vel value="0.1811516949" flag="0"/>
      <psa03 value="0.5772817616" flag="0"/>
      <psa10 value="0.0374771495" flag="0"/>
      <psa30 value="0.0026016391" flag="0"/>
    </comp>
  </station>
  <station code="BOB" name="BOB" netid="IV" insttype="" lat="44.7679" lon="9.44782">
    <comp name="--.HHE">
      <acc value="0.0065212430" flag="0"/>
      <vel value="0.0026236722" flag="0"/>
      <psa03 value="0.0083930824" flag="0"/>
      <psa10 value="0.0044666873" flag="0"/>
      <psa30 value="0.0003564228" flag="0"/>
    </comp>
    <comp name="--.HHN">
      <acc value="0.0052393875" flag="0"/>
      <vel value="0.0029435670" flag="0"/>
      <psa03 value="0.0092632312" flag="0"/>
      <psa10 value="0.0049783047" flag="0"/>
      <psa30 value="0.0003294254" flag="0"/>
    </comp>
    <comp name="--.HHZ">
      <acc value="0.0027618635" flag="0"/>
      <vel value="0.0022601599" flag="0"/>
      <psa03 value="0.0060986814" flag="0"/>
      <psa10 value="0.0045054600" flag="0"/>
      <psa30 value="0.0001994667" flag="0"/>
    </comp>
  </station>
  <station code="BOSL" name="BOSL" netid="IV" insttype="" lat="43.931" lon="11.3743">
    <comp name="--.HHE">
      <acc value="0.0197159990" flag="0"/>
      <vel value="0.0059622738" flag="0"/>
      <psa03 value="0.0364897653" flag="0"/>
      <psa10 value="0.0024152878" flag="0"/>
      <psa30 value="0.0001778767" flag="0"/>
    </comp>
    <comp name="--.HHN">
      <acc value="0.0284769416" flag="0"/>
      <vel value="0.0061027519" flag="0"/>
      <psa03 value="0.0394791660" flag="0"/>
      <psa10 value="0.0028674591" flag="0"/>
      <psa30 value="0.0001618747" flag="0"/>
    </comp>
    <comp name="--.HHZ">
      <acc value="0.0128907183" flag="0"/>
      <vel value="0.0031962110" flag="0"/>
      <psa03 value="0.0175597828" flag="0"/>
      <psa10 value="0.0026939620" flag="0"/>
      <psa30 value="0.0001516648" flag="0"/>
    </comp>
  </station>
  <station code="BRIS" name="BRIS" netid="IV" insttype="" lat="44.2245" lon="11.7666">
    <comp name="--.HHN">
      <acc value="0.0039731465" flag="0"/>
      <vel value="0.0026896776" flag="0"/>
      <psa03 value="0.0134902967" flag="0"/>
      <psa10 value="0.0018410810" flag="0"/>
      <psa30 value="0.0001878964" flag="0"/>
    </comp>
    <comp name="--.HHE">
      <acc value="0.0028797478" flag="0"/>
      <vel value="0.0024325745" flag="0"/>
      <psa03 value="0.0109170267" flag="0"/>
      <psa10 value="0.0032750595" flag="0"/>
      <psa30 value="0.0003434058" flag="0"/>
    </comp>
    <comp name="--.HHZ">
      <acc value="0.0021523669" flag="0"/>
      <vel value="0.0014640252" flag="0"/>
      <psa03 value="0.0081809699" flag="0"/>
      <psa10 value="0.0023450509" flag="0"/>
      <psa30 value="0.0001164887" flag="0"/>
    </comp>
  </station>
  <station code="CRE" name="CRE" netid="IV" insttype="" lat="43.6189" lon="11.9517">
    <comp name="--.HHE">
      <acc value="0.0084309077" flag="0"/>
      <vel value="0.0035614702" flag="0"/>
      <psa03 value="0.0237818586" flag="0"/>
      <psa10 value="0.0024788803" flag="0"/>
      <psa30 value="0.0002003544" flag="0"/>
    </comp>
    <comp name="--.HHZ">
      <acc value="0.0047817714" flag="0"/>
      <vel value="0.0021857334" flag="0"/>
      <psa03 value="0.0190448953" flag="0"/>
      <psa10 value="0.0017697815" flag="0"/>
      <psa30 value="0.0002500100" flag="0"/>
    </comp>
    <comp name="--.HHN">
      <acc value="0.0133095633" flag="0"/>
      <vel value="0.0059181781" flag="0"/>
      <psa03 value="0.0313202996" flag="0"/>
      <psa10 value="0.0030090698" flag="0"/>
      <psa30 value="0.0002893630" flag="0"/>
    </comp>
  </station>
  <station code="CRMI" name="CRMI" netid="IV" insttype="" lat="43.7956" lon="10.9795">
    <comp name="--.HHE">
      <acc value="0.0196201036" flag="0"/>
      <vel value="0.0064745612" flag="0"/>
      <psa03 value="0.0368599834" flag="0"/>
      <psa10 value="0.0029459658" flag="0"/>
      <psa30 value="0.0002953149" flag="0"/>
    </comp>
    <comp name="--.HHN">
      <acc value="0.0506647808" flag="0"/>
      <vel value="0.0181637029" flag="0"/>
      <psa03 value="0.0747241714" flag="0"/>
      <psa10 value="0.0064152096" flag="0"/>
      <psa30 value="0.0005375591" flag="0"/>
    </comp>
    <comp name="--.HHZ">
      <acc value="0.0250150532" flag="0"/>
      <vel value="0.0084310523" flag="0"/>
      <psa03 value="0.0462111795" flag="0"/>
      <psa10 value="0.0030407694" flag="0"/>
      <psa30 value="0.0002726510" flag="0"/>
    </comp>
  </station>
  <station code="CSNT" name="CSNT" netid="IV" insttype="" lat="43.4731" lon="11.2902">
    <comp name="--.HHE">
      <acc value="0.0081820219" flag="0"/>
      <vel value="0.0050288170" flag="0"/>
      <psa03 value="0.0380221048" flag="0"/>
      <psa10 value="0.0065796316" flag="0"/>
      <psa30 value="0.0005479461" flag="0"/>
    </comp>
    <comp name="--.HHZ">
      <acc value="0.0069332938" flag="0"/>
      <vel value="0.0045316775" flag="0"/>
      <psa03 value="0.0231189096" flag="0"/>
      <psa10 value="0.0031805650" flag="0"/>
      <psa30 value="0.0004358802" flag="0"/>
    </comp>
    <comp name="--.HHN">
      <acc value="0.0120219212" flag="0"/>
      <vel value="0.0103848337" flag="0"/>
      <psa03 value="0.0240924840" flag="0"/>
      <psa10 value="0.0104504042" flag="0"/>
      <psa30 value="0.0007845980" flag="0"/>
    </comp>
  </station>
  <station code="FNVD" name="FNVD" netid="IV" insttype="" lat="44.1678" lon="11.1229">
    <comp name="--.HHE">
      <acc value="0.1071321114" flag="0"/>
      <vel value="0.0344860043" flag="0"/>
      <psa03 value="0.1378862326" flag="0"/>
      <psa10 value="0.0249742692" flag="0"/>
      <psa30 value="0.0015914194" flag="0"/>
    </comp>
    <comp name="--.HHZ">
      <acc value="0.0397529506" flag="0"/>
      <vel value="0.0130859451" flag="0"/>
      <psa03 value="0.0633342210" flag="0"/>
      <psa10 value="0.0113009390" flag="0"/>
      <psa30 value="0.0009357195" flag="0"/>
    </comp>
    <comp name="--.HHN">
      <acc value="0.1466199742" flag="0"/>
      <vel value="0.0336812562" flag="0"/>
      <psa03 value="0.1288217699" flag="0"/>
      <psa10 value="0.0387064159" flag="0"/>
      <psa30 value="0.0015299540" flag="0"/>
    </comp>
  </station>
  <station code="LMD" name="LMD" netid="IV" insttype="" lat="44.0775" lon="11.7073">
    <comp name="--.HHN">
      <acc value="0.0077460742" flag="0"/>
      <vel value="0.0027177027" flag="0"/>
      <psa03 value="0.0161606599" flag="0"/>
      <psa10 value="0.0029850534" flag="0"/>
      <psa30 value="0.0004154265" flag="0"/>
    </comp>
    <comp name="--.HHE">
      <acc value="0.0060881377" flag="0"/>
      <vel value="0.0033098019" flag="0"/>
      <psa03 value="0.0198788275" flag="0"/>
      <psa10 value="0.0028081161" flag="0"/>
      <psa30 value="0.0003459354" flag="0"/>
    </comp>
    <comp name="--.HHZ">
      <acc value="0.0038090363" flag="0"/>
      <vel value="0.0019675938" flag="0"/>
      <psa03 value="0.0090543177" flag="0"/>
      <psa10 value="0.0027605345" flag="0"/>
      <psa30 value="0.0003640631" flag="0"/>
    </comp>
  </station>
  <station code="MSSA" name="MSSA" netid="IV" insttype="" lat="44.3162" lon="9.51739">
    <comp name="--.HHN">
      <acc value="0.0825911133" flag="0"/>
      <vel value="0.0127016415" flag="0"/>
      <psa03 value="0.0306829475" flag="0"/>
      <psa10 value="0.0035044918" flag="0"/>
      <psa30 value="0.0003369338" flag="0"/>
    </comp>
    <comp name="--.HHE">
      <acc value="0.0904251371" flag="0"/>
      <vel value="0.0150169092" flag="0"/>
      <psa03 value="0.0277858230" flag="0"/>
      <psa10 value="0.0035533273" flag="0"/>
      <psa30 value="0.0003699040" flag="0"/>
    </comp>
    <comp name="--.HHZ">
      <acc value="0.0149017297" flag="0"/>
      <vel value="0.0033658253" flag="0"/>
      <psa03 value="0.0080450862" flag="0"/>
      <psa10 value="0.0040051946" flag="0"/>
      <psa30 value="0.0002666599" flag="0"/>
    </comp>
  </station>
  <station code="NEVI" name="NEVI" netid="IV" insttype="" lat="44.5834" lon="10.3163">
    <comp name="--.HNE">
      <acc value="0.0318103959" flag="0"/>
      <vel value="0.0224914174" flag="0"/>
      <psa03 value="0.1217666985" flag="0"/>
      <psa10 value="0.0254594508" flag="0"/>
      <psa30 value="0.0033972375" flag="0"/>
    </comp>
    <comp name="--.HNZ">
      <acc value="0.0160949750" flag="0"/>
      <vel value="0.0144322354" flag="0"/>
      <psa03 value="0.0536995121" flag="0"/>
      <psa10 value="0.0227654992" flag="0"/>
      <psa30 value="0.0019035096" flag="0"/>
    </comp>
    <comp name="--.HNN">
      <acc value="0.0501063486" flag="0"/>
      <vel value="0.0299812819" flag="0"/>
      <psa03 value="0.1923316456" flag="0"/>
      <psa10 value="0.0520956527" flag="0"/>
      <psa30 value="0.0027731623" flag="0"/>
    </comp>
  </station>
  <station code="OSSC" name="OSSC" netid="IV" insttype="" lat="43.5236" lon="11.2458">
    <comp name="--.HHE">
      <acc value="0.0162721922" flag="0"/>
      <vel value="0.0097709789" flag="0"/>
      <psa03 value="0.0354681338" flag="0"/>
      <psa10 value="0.0132427686" flag="0"/>
      <psa30 value="0.0008152155" flag="0"/>
    </comp>
    <comp name="--.HHN">
      <acc value="0.0167798797" flag="0"/>
      <vel value="0.0079559779" flag="0"/>
      <psa03 value="0.0394217332" flag="0"/>
      <psa10 value="0.0092196520" flag="0"/>
      <psa30 value="0.0011610148" flag="0"/>
    </comp>
    <comp name="--.HHZ">
      <acc value="0.0111214437" flag="0"/>
      <vel value="0.0054221950" flag="0"/>
      <psa03 value="0.0348695327" flag="0"/>
      <psa10 value="0.0057452728" flag="0"/>
      <psa30 value="0.0005466207" flag="0"/>
    </comp>
  </station>
  <station code="PCN" name="PCN" netid="IV" insttype="" lat="45.0353" lon="9.7247">
    <comp name="--.HNN">
      <acc value="0.0085446766" flag="0"/>
      <vel value="0.0045057449" flag="0"/>
      <psa03 value="0.0155470526" flag="0"/>
      <psa10 value="0.0060491042" flag="0"/>
      <psa30 value="0.0010166249" flag="0"/>
    </comp>
    <comp name="--.HNE">
      <acc value="0.0057265496" flag="0"/>
      <vel value="0.0042411402" flag="0"/>
      <psa03 value="0.0147460955" flag="0"/>
      <psa10 value="0.0062549535" flag="0"/>
      <psa30 value="0.0006829812" flag="0"/>
    </comp>
    <comp name="--.HNZ">
      <acc value="0.0082041181" flag="0"/>
      <vel value="0.0044172270" flag="0"/>
      <psa03 value="0.0104220437" flag="0"/>
      <psa10 value="0.0028538260" flag="0"/>
      <psa30 value="0.0003632632" flag="0"/>
    </comp>
  </station>
  <station code="PII" name="PII" netid="IV" insttype="" lat="43.7219" lon="10.525">
    <comp name="--.HHE">
      <acc value="0.2481823406" flag="0"/>
      <vel value="0.1025458748" flag="0"/>
      <psa03 value="0.7863216653" flag="0"/>
      <psa10 value="0.0258802143" flag="0"/>
      <psa30 value="0.0024378611" flag="0"/>
    </comp>
    <comp name="--.HHN">
      <acc value="0.1349366548" flag="0"/>
      <vel value="0.0598430502" flag="0"/>
      <psa03 value="0.3161068854" flag="0"/>
      <psa10 value="0.0264063288" flag="0"/>
      <psa30 value="0.0015889881" flag="0"/>
    </comp>
    <comp name="--.HHZ">
      <acc value="0.1043231858" flag="0"/>
      <vel value="0.0442799598" flag="0"/>
      <psa03 value="0.2108037512" flag="0"/>
      <psa10 value="0.0243093278" flag="0"/>
      <psa30 value="0.0012074403" flag="0"/>
    </comp>
  </station>
  <station code="PLMA" name="PLMA" netid="IV" insttype="" lat="44.0498" lon="9.85365">
    <comp name="--.HHE">
      <acc value="0.0236786750" flag="0"/>
      <vel value="0.0045139917" flag="0"/>
      <psa03 value="0.0145622129" flag="0"/>
      <psa10 value="0.0032864266" flag="0"/>
      <psa30 value="0.0002834596" flag="0"/>
    </comp>
    <comp name="--.HHZ">
      <acc value="0.0145448494" flag="0"/>
      <vel value="0.0031680860" flag="0"/>
      <psa03 value="0.0119660132" flag="0"/>
      <psa10 value="0.0032712789" flag="0"/>
      <psa30 value="0.0002297198" flag="0"/>
    </comp>
    <comp name="--.HHN">
      <acc value="0.0264861525" flag="0"/>
      <vel value="0.0052690746" flag="0"/>
      <psa03 value="0.0214901310" flag="0"/>
      <psa10 value="0.0033283574" flag="0"/>
      <psa30 value="0.0003309736" flag="0"/>
    </comp>
  </station>
  <station code="SEI" name="SEI" netid="IV" insttype="" lat="44.0543" lon="11.3585">
    <comp name="--.HHE">
      <acc value="0.0883699026" flag="0"/>
      <vel value="0.0451227709" flag="0"/>
      <psa03 value="0.3601088024" flag="0"/>
      <psa10 value="0.0157594177" flag="0"/>
      <psa30 value="0.0014256165" flag="0"/>
    </comp>
    <comp name="--.HHN">
      <acc value="0.1083916816" flag="0"/>
      <vel value="0.0543923037" flag="0"/>
      <psa03 value="0.3837432625" flag="0"/>
      <psa10 value="0.0301669401" flag="0"/>
      <psa30 value="0.0015608172" flag="0"/>
    </comp>
    <comp name="--.HHZ">
