<?xml version="1.0" encoding="UTF-8" standalone="yes"?>
<!DOCTYPE earthquake SYSTEM "stationlist.dtd">
<stationlist created="" xmlns="ch.ethz.sed.shakemap.usgs.xml">
  <station code="UPC" name="UPC" netid="CZ" insttype="" commtype="DIG" lat="50.5074" lon="16.0121">
    <comp name="--.HHE">
      <acc value="0.0086135737" flag="0"/>
      <vel value="0.0044216731" flag="0"/>
      <psa03 value="0.0167829694" flag="0"/>
      <psa10 value="0.0044187517" flag="0"/>
      <psa30 value="0.0004523151" flag="0"/>
    </comp>
    <comp name="--.HHN">
      <acc value="0.0121900199" flag="0"/>
      <vel value="0.0067620403" flag="0"/>
      <psa03 value="0.0149921301" flag="0"/>
      <psa10 value="0.0061897163" flag="0"/>
      <psa30 value="0.0003940280" flag="0"/>
    </comp>
    <comp name="--.HHZ">
      <acc value="0.0057142697" flag="0"/>
      <vel value="0.0039032992" flag="0"/>
      <psa03 value="0.0078781727" flag="0"/>
      <psa10 value="0.0031680485" flag="0"/>
      <psa30 value="0.0003058844" flag="0"/>
    </comp>
  </station>
</stationlist>
