<stationlist created="1778069604">
	<station code="KARP" name="KARP" netid="GE" source="GEOFON" insttype="" lat="35.5471" lon="27.16106">
		<comp name="--.HNE" depth="0.0">
			<acc value="0.0129063577884345" flag="0"/>
			<vel value="0.00327961300353105" flag="0"/>
			<psa03 value="0.0101117386957294" flag="0"/>
			<psa10 value="0.00128454875201058" flag="0"/>
			<psa30 value="0.000234449162679744" flag="0"/>
		</comp>
		<comp name="--.HNN" depth="0.0">
			<acc value="0.00836996758586105" flag="0"/>
			<vel value="0.00245462177847485" flag="0"/>
			<psa03 value="0.00993276986925633" flag="0"/>
			<psa10 value="0.00246842753913005" flag="0"/>
			<psa30 value="0.000208051260774964" flag="0"/>
		</comp>
		<comp name="--.HNZ" depth="0.0">
			<acc value="0.0176983540461537" flag="0"/>
			<vel value="0.00406956884991971" flag="0"/>
			<psa03 value="0.00787462836481583" flag="0"/>
			<psa10 value="0.00171541620174454" flag="0"/>
			<psa30 value="0.000150333814237393" flag="0"/>
		</comp>
	</station>
	<station code="CAME" name="CAME" netid="KO" source="Bogazici University Kandilli Observatory And Earthquake Research Institute (KOERI)" insttype="" lat="36.9435" lon="29.3023">
		<comp name="--.HNE" depth="0.0">
			<acc value="0.0112723792941401" flag="0"/>
			<vel value="0.00425465811256776" flag="0"/>
			<psa03 value="0.0112302938611862" flag="0"/>
			<psa10 value="0.000954351267167736" flag="0"/>
			<psa30 value="0.000223711033091359" flag="0"/>
		</comp>
		<comp name="--.HNN" depth="0.0">
			<acc value="0.00917003093164018" flag="0"/>
			<vel value="0.00273084490832673" flag="0"/>
			<psa03 value="0.0151228658369759" flag="0"/>
			<psa10 value="0.0012322003702672" flag="0"/>
			<psa30 value="0.000120356535803151" flag="0"/>
		</comp>
		<comp name="--.HNZ" depth="0.0">
			<acc value="0.00703644578204206" flag="0"/>
			<vel value="0.00153883142746518" flag="0"/>
			<psa03 value="0.00621916671993977" flag="0"/>
			<psa10 value="0.00089394928823307" flag="0"/>
			<psa30 value="0.000119014269604603" flag="0"/>
		</comp>
	</station>
</stationlist>
