<?xml version="1.0" encoding="UTF-8" standalone="yes"?>
<!DOCTYPE earthquake SYSTEM "stationlist.dtd">
<stationlist created="" xmlns="ch.ethz.sed.shakemap.usgs.xml">
  <station code="KSL" name="KSL" netid="HL" insttype="60" lat="36.1503" lon="29.5856">
    <comp name="--.HHN">
      <acc value="0.0112118943" flag="0"/>
      <vel value="0.0025078362" flag="0"/>
      <psa03 value="0.0080003979" flag="0"/>
      <psa10 value="0.0025159667" flag="0"/>
      <psa30 value="0.0006155651" flag="0"/>
    </comp>
    <comp name="--.HHZ">
      <acc value="0.0223966820" flag="0"/>
      <vel value="0.0052639255" flag="0"/>
      <psa03 value="0.0123676193" flag="0"/>
      <psa10 value="0.0021177066" flag="0"/>
      <psa30 value="0.0003030416" flag="0"/>
    </comp>
    <comp name="--.HHE">
      <acc value="0.0118325990" flag="0"/>
      <vel value="0.0028071999" flag="0"/>
      <psa03 value="0.0119890328" flag="0"/>
      <psa10 value="0.0036297562" flag="0"/>
      <psa30 value="0.0008629748" flag="0"/>
    </comp>
  </station>
</stationlist>
