<?xml version="1.0" encoding="UTF-8" standalone="yes"?>
<!DOCTYPE earthquake SYSTEM "stationlist.dtd">
<stationlist created="" xmlns="ch.ethz.sed.shakemap.usgs.xml">
  <station code="CEYT" name="CEYT" netid="KO" insttype="CMG-3ESP" commtype="DIG" lat="37.0105" lon="35.7478">
    <comp name="--.HHE">
      <acc value="0.0026742801" flag="0"/>
      <vel value="0.0010900332" flag="0"/>
      <psa03 value="0.0047154163" flag="0"/>
      <psa10 value="0.0012021569" flag="0"/>
      <psa30 value="0.0000808227" flag="0"/>
    </comp>
    <comp name="--.HHN">
      <acc value="0.0023742841" flag="0"/>
      <vel value="0.0016493879" flag="0"/>
      <psa03 value="0.0057543061" flag="0"/>
      <psa10 value="0.0028713963" flag="0"/>
      <psa30 value="0.0001688979" flag="0"/>
    </comp>
    <comp name="--.HHZ">
      <acc value="0.0038212329" flag="0"/>
      <vel value="0.0030221071" flag="0"/>
      <psa03 value="0.0071366217" flag="0"/>
      <psa10 value="0.0033089922" flag="0"/>
      <psa30 value="0.0006519045" flag="0"/>
    </comp>
  </station>
  <station code="GAZ" name="GAZ" netid="KO" insttype="CMG-3T" commtype="DIG" lat="37.1721" lon="37.2096">
    <comp name="--.HHN">
      <acc value="0.0253068433" flag="0"/>
      <vel value="0.0149748695" flag="0"/>
      <psa03 value="0.0686492485" flag="0"/>
      <psa10 value="0.0122741504" flag="0"/>
      <psa30 value="0.0010166475" flag="0"/>
    </comp>
    <comp name="--.HHZ">
      <acc value="0.0157096667" flag="0"/>
      <vel value="0.0126651142" flag="0"/>
      <psa03 value="0.0384144484" flag="0"/>
      <psa10 value="0.0052419207" flag="0"/>
      <psa30 value="0.0004136540" flag="0"/>
    </comp>
    <comp name="--.HHE">
      <acc value="0.0265367063" flag="0"/>
      <vel value="0.0167947996" flag="0"/>
      <psa03 value="0.0642257650" flag="0"/>
      <psa10 value="0.0168449582" flag="0"/>
      <psa30 value="0.0008713721" flag="0"/>
    </comp>
  </station>
  <station code="KMRS" name="KMRS" netid="KO" insttype="CMG-3T" commtype="DIG" lat="37.5087" lon="36.9">
    <comp name="--.HHE">
      <acc value="0.0186721317" flag="0"/>
      <vel value="0.0098741129" flag="0"/>
      <psa03 value="0.0532234610" flag="0"/>
      <psa10 value="0.0083289808" flag="0"/>
      <psa30 value="0.0005906834" flag="0"/>
    </comp>
    <comp name="--.HHN">
      <acc value="0.0261598098" flag="0"/>
      <vel value="0.0120399761" flag="0"/>
      <psa03 value="0.0389770576" flag="0"/>
      <psa10 value="0.0089226839" flag="0"/>
      <psa30 value="0.0009635876" flag="0"/>
    </comp>
    <comp name="--.HHZ">
      <acc value="0.0135460503" flag="0"/>
      <vel value="0.0048002866" flag="0"/>
      <psa03 value="0.0259097042" flag="0"/>
      <psa10 value="0.0050976357" flag="0"/>
      <psa30 value="0.0005383205" flag="0"/>
    </comp>
  </station>
  <station code="KOZT" name="KOZT" netid="KO" insttype="CMG-3T" commtype="DIG" lat="37.4795" lon="35.8264">
    <comp name="--.HHZ">
      <acc value="0.0225038662" flag="0"/>
      <vel value="0.0166008785" flag="0"/>
      <psa03 value="0.0489494838" flag="0"/>
      <psa10 value="0.0213916223" flag="0"/>
      <psa30 value="0.0009716748" flag="0"/>
    </comp>
    <comp name="--.HHN">
      <acc value="0.0251414884" flag="0"/>
      <vel value="0.0158160309" flag="0"/>
      <psa03 value="0.0590858698" flag="0"/>
      <psa10 value="0.0242135567" flag="0"/>
      <psa30 value="0.0014837401" flag="0"/>
    </comp>
    <comp name="--.HHE">
      <acc value="0.0386935479" flag="0"/>
      <vel value="0.0256912701" flag="0"/>
      <psa03 value="0.0996364378" flag="0"/>
      <psa10 value="0.0333677055" flag="0"/>
      <psa30 value="0.0013332594" flag="0"/>
    </comp>
  </station>
  <station code="NURH" name="NURH" netid="KO" insttype="CMG-6T" commtype="DIG" lat="37.9693" lon="37.4363">
    <comp name="--.HHN">
      <acc value="0.0239937969" flag="0"/>
      <vel value="0.0140913318" flag="0"/>
      <psa03 value="0.0900338444" flag="0"/>
      <psa10 value="0.0085760307" flag="0"/>
      <psa30 value="0.0005292899" flag="0"/>
    </comp>
    <comp name="--.HHZ">
      <acc value="0.0120210412" flag="0"/>
      <vel value="0.0063858264" flag="0"/>
      <psa03 value="0.0198850523" flag="0"/>
      <psa10 value="0.0074374329" flag="0"/>
      <psa30 value="0.0003387742" flag="0"/>
    </comp>
    <comp name="--.HHE">
      <acc value="0.0173405399" flag="0"/>
      <vel value="0.0109139469" flag="0"/>
      <psa03 value="0.0324257020" flag="0"/>
      <psa10 value="0.0104237251" flag="0"/>
      <psa30 value="0.0005110977" flag="0"/>
    </comp>
  </station>
  <station code="SARI" name="SARI" netid="KO" insttype="CMG-3T" commtype="DIG" lat="38.4072" lon="36.4181">
    <comp name="--.HHN">
      <acc value="0.0524919341" flag="0"/>
      <vel value="0.0153765473" flag="0"/>
      <psa03 value="0.0681186310" flag="0"/>
      <psa10 value="0.0129358349" flag="0"/>
      <psa30 value="0.0005682645" flag="0"/>
    </comp>
  </station>
  <station code="ANDN" name="ANDN" netid="TU" insttype="T" commtype="DIG" lat="37.58" lon="36.3452">
    <comp name="--.HHZ">
      <acc value="0.1876525971" flag="0"/>
      <vel value="0.0648054503" flag="0"/>
      <psa03 value="0.2113828638" flag="0"/>
      <psa10 value="0.1382630009" flag="0"/>
      <psa30 value="0.0074258675" flag="0"/>
    </comp>
    <comp name="--.HHE">
      <acc value="0.2203223443" flag="0"/>
      <vel value="0.0943210839" flag="0"/>
      <psa03 value="0.4039348671" flag="0"/>
      <psa10 value="0.0620610260" flag="0"/>
      <psa30 value="0.0068028456" flag="0"/>
    </comp>
    <comp name="--.HHN">
      <acc value="0.2554619937" flag="0"/>
      <vel value="0.0889294601" flag="0"/>
      <psa03 value="0.4644111455" flag="0"/>
      <psa10 value="0.0821993098" flag="0"/>
      <psa30 value="0.0045336535" flag="0"/>
    </comp>
  </station>
</stationlist>
