<?xml version="1.0" encoding="UTF-8" standalone="yes"?>
<!DOCTYPE earthquake SYSTEM "stationlist.dtd">
<stationlist created="" xmlns="ch.ethz.sed.shakemap.usgs.xml">
  <station code="CEYT" name="CEYT" netid="KO" insttype="CMG-3ESP" commtype="DIG" lat="37.0105" lon="35.7478">
    <comp name="--.HHN">
      <acc value="0.0023742842" flag="0"/>
      <vel value="0.0016493882" flag="0"/>
      <psa03 value="0.0057543061" flag="0"/>
      <psa10 value="0.0028713968" flag="0"/>
      <psa30 value="0.0001687901" flag="0"/>
    </comp>
    <comp name="--.HHZ">
      <acc value="0.0038212329" flag="0"/>
      <vel value="0.0030221070" flag="0"/>
      <psa03 value="0.0071366217" flag="0"/>
      <psa10 value="0.0033089921" flag="0"/>
      <psa30 value="0.0006519033" flag="0"/>
    </comp>
    <comp name="--.HHE">
      <acc value="0.0026742800" flag="0"/>
      <vel value="0.0010900302" flag="0"/>
      <psa03 value="0.0047154163" flag="0"/>
      <psa10 value="0.0012021554" flag="0"/>
      <psa30 value="0.0000808516" flag="0"/>
    </comp>
  </station>
  <station code="GAZ" name="GAZ" netid="KO" insttype="CMG-3T" commtype="DIG" lat="37.1721" lon="37.2096">
    <comp name="--.HHE">
      <acc value="0.0265367061" flag="0"/>
      <vel value="0.0167947997" flag="0"/>
      <psa03 value="0.0642257650" flag="0"/>
      <psa10 value="0.0168449582" flag="0"/>
      <psa30 value="0.0008713935" flag="0"/>
    </comp>
    <comp name="--.HHZ">
      <acc value="0.0157096671" flag="0"/>
      <vel value="0.0126651150" flag="0"/>
      <psa03 value="0.0384144484" flag="0"/>
      <psa10 value="0.0052419207" flag="0"/>
      <psa30 value="0.0004136659" flag="0"/>
    </comp>
    <comp name="--.HHN">
      <acc value="0.0253068427" flag="0"/>
      <vel value="0.0149748707" flag="0"/>
      <psa03 value="0.0686492485" flag="0"/>
      <psa10 value="0.0122741504" flag="0"/>
      <psa30 value="0.0010166198" flag="0"/>
    </comp>
  </station>
  <station code="KMRS" name="KMRS" netid="KO" insttype="CMG-3T" commtype="DIG" lat="37.5087" lon="36.9">
    <comp name="--.HHN">
      <acc value="0.0261598098" flag="0"/>
      <vel value="0.0120399761" flag="0"/>
      <psa03 value="0.0389770576" flag="0"/>
      <psa10 value="0.0089226840" flag="0"/>
      <psa30 value="0.0009636054" flag="0"/>
    </comp>
    <comp name="--.HHE">
      <acc value="0.0186721317" flag="0"/>
      <vel value="0.0098741128" flag="0"/>
      <psa03 value="0.0532234610" flag="0"/>
      <psa10 value="0.0083289807" flag="0"/>
      <psa30 value="0.0005906619" flag="0"/>
    </comp>
    <comp name="--.HHZ">
      <acc value="0.0135460504" flag="0"/>
      <vel value="0.0048002864" flag="0"/>
      <psa03 value="0.0259097042" flag="0"/>
      <psa10 value="0.0050976356" flag="0"/>
      <psa30 value="0.0005383381" flag="0"/>
    </comp>
  </station>
  <station code="KOZT" name="KOZT" netid="KO" insttype="CMG-3T" commtype="DIG" lat="37.4795" lon="35.8264">
    <comp name="--.HHZ">
      <acc value="0.0225038663" flag="0"/>
      <vel value="0.0166008784" flag="0"/>
      <psa03 value="0.0489494838" flag="0"/>
      <psa10 value="0.0213916223" flag="0"/>
      <psa30 value="0.0009716974" flag="0"/>
    </comp>
    <comp name="--.HHE">
      <acc value="0.0386935480" flag="0"/>
      <vel value="0.0256912700" flag="0"/>
      <psa03 value="0.0996364378" flag="0"/>
      <psa10 value="0.0333677057" flag="0"/>
      <psa30 value="0.0013332036" flag="0"/>
    </comp>
    <comp name="--.HHN">
      <acc value="0.0251414883" flag="0"/>
      <vel value="0.0158160308" flag="0"/>
      <psa03 value="0.0590858698" flag="0"/>
      <psa10 value="0.0242135568" flag="0"/>
      <psa30 value="0.0014837251" flag="0"/>
    </comp>
  </station>
  <station code="NURH" name="NURH" netid="KO" insttype="CMG-6T" commtype="DIG" lat="37.9693" lon="37.4363">
    <comp name="--.HHN">
      <acc value="0.0239938081" flag="0"/>
      <vel value="0.0140913333" flag="0"/>
      <psa03 value="0.0900338444" flag="0"/>
      <psa10 value="0.0085760307" flag="0"/>
      <psa30 value="0.0005292856" flag="0"/>
    </comp>
    <comp name="--.HHE">
      <acc value="0.0173405365" flag="0"/>
      <vel value="0.0109139443" flag="0"/>
      <psa03 value="0.0324257020" flag="0"/>
      <psa10 value="0.0104237250" flag="0"/>
      <psa30 value="0.0005111059" flag="0"/>
    </comp>
    <comp name="--.HHZ">
      <acc value="0.0120210399" flag="0"/>
      <vel value="0.0063858259" flag="0"/>
      <psa03 value="0.0198850523" flag="0"/>
      <psa10 value="0.0074374330" flag="0"/>
      <psa30 value="0.0003387795" flag="0"/>
    </comp>
  </station>
  <station code="SARI" name="SARI" netid="KO" insttype="CMG-3T" commtype="DIG" lat="38.4072" lon="36.4181">
    <comp name="--.HHN">
      <acc value="0.0524919346" flag="0"/>
      <vel value="0.0153765473" flag="0"/>
      <psa03 value="0.0681186310" flag="0"/>
      <psa10 value="0.0129358349" flag="0"/>
      <psa30 value="0.0005682682" flag="0"/>
    </comp>
  </station>
  <station code="ANDN" name="ANDN" netid="TU" insttype="T" commtype="DIG" lat="37.58" lon="36.3452">
    <comp name="--.HHZ">
      <acc value="0.1876525970" flag="0"/>
      <vel value="0.0648054506" flag="0"/>
      <psa03 value="0.2113828638" flag="0"/>
      <psa10 value="0.1382630009" flag="0"/>
      <psa30 value="0.0074258847" flag="0"/>
    </comp>
    <comp name="--.HHE">
      <acc value="0.2203223444" flag="0"/>
      <vel value="0.0943210841" flag="0"/>
      <psa03 value="0.4039348671" flag="0"/>
      <psa10 value="0.0620610287" flag="0"/>
      <psa30 value="0.0068027196" flag="0"/>
    </comp>
    <comp name="--.HHN">
      <acc value="0.2554619936" flag="0"/>
      <vel value="0.0889294603" flag="0"/>
      <psa03 value="0.4644111455" flag="0"/>
      <psa10 value="0.0821993098" flag="0"/>
      <psa30 value="0.0045336909" flag="0"/>
    </comp>
  </station>
</stationlist>
