<stationlist created="1684742468">
	<station code="ARPRA" name="ARPRA" netid="KO" source="Bogazici University Kandilli Observatory And Earthquake Research Institute (KOERI)" insttype="" lat="39.0929" lon="38.3356">
		<comp name=".HNE" depth="0.0">
			<acc value="0.00176800375648" flag="0"/>
			<vel value="0.0015639268262" flag="0"/>
			<psa03 value="0.00460043919662" flag="0"/>
			<psa10 value="0.00320748763656" flag="0"/>
			<psa30 value="0.000399325750246" flag="0"/>
		</comp>
		<comp name=".HNN" depth="0.0">
			<acc value="0.00198967317975" flag="0"/>
			<vel value="0.00258438263492" flag="0"/>
			<psa03 value="0.0047973265884" flag="0"/>
			<psa10 value="0.00531751100901" flag="0"/>
			<psa30 value="0.000519043238236" flag="0"/>
		</comp>
		<comp name=".HNZ" depth="0.0">
			<acc value="0.0014835320762" flag="0"/>
			<vel value="0.0016908691038" flag="0"/>
			<psa03 value="0.00285742529301" flag="0"/>
			<psa10 value="0.00299902843654" flag="0"/>
			<psa30 value="0.000346951681763" flag="0"/>
		</comp>
	</station>
	<station code="KOZK" name="KOZK" netid="KO" source="Bogazici University Kandilli Observatory And Earthquake Research Institute (KOERI)" insttype="" lat="39.2101" lon="34.868">
		<comp name=".HNE" depth="0.0">
			<acc value="0.0041740670053" flag="0"/>
			<vel value="0.00353822745265" flag="0"/>
			<psa03 value="0.00928663342307" flag="0"/>
			<psa10 value="0.00702293414117" flag="0"/>
			<psa30 value="0.00047201955023" flag="0"/>
		</comp>
		<comp name=".HNN" depth="0.0">
			<acc value="0.00278910765551" flag="0"/>
			<vel value="0.00361299840025" flag="0"/>
			<psa03 value="0.00614426835577" flag="0"/>
			<psa10 value="0.00789067740616" flag="0"/>
			<psa30 value="0.000495144519645" flag="0"/>
		</comp>
		<comp name=".HNZ" depth="0.0">
			<acc value="0.00228565181875" flag="0"/>
			<vel value="0.00153001931935" flag="0"/>
			<psa03 value="0.00633580252834" flag="0"/>
			<psa10 value="0.00224713456476" flag="0"/>
			<psa30 value="0.000376800612233" flag="0"/>
		</comp>
	</station>
</stationlist>
