<?xml version="1.0" encoding="UTF-8" standalone="yes"?>
<!DOCTYPE earthquake SYSTEM "stationlist.dtd">
<stationlist created="" xmlns="ch.ethz.sed.shakemap.usgs.xml">
  <station code="BNN" name="BNN" netid="KO" insttype="CMG-3T" lat="38.8521" lon="35.8472">
    <comp name="--.HHZ">
      <acc value="0.0026905437" flag="0"/>
      <vel value="0.0014876497" flag="0"/>
      <psa03 value="0.0081761939" flag="0"/>
      <psa10 value="0.0022744553" flag="0"/>
      <psa30 value="0.0004797249" flag="0"/>
    </comp>
  </station>
  <station code="CEYT" name="CEYT" netid="KO" insttype="CMG-3ESP" lat="37.0105" lon="35.7478">
    <comp name="--.HHN">
      <acc value="0.0013053564" flag="0"/>
      <vel value="0.0013369689" flag="0"/>
      <psa03 value="0.0037881893" flag="0"/>
      <psa10 value="0.0015611666" flag="0"/>
      <psa30 value="0.0004408172" flag="0"/>
    </comp>
    <comp name="--.HHZ">
      <acc value="0.0012028159" flag="0"/>
      <vel value="0.0010229490" flag="0"/>
      <psa03 value="0.0026250151" flag="0"/>
      <psa10 value="0.0019687299" flag="0"/>
      <psa30 value="0.0006040624" flag="0"/>
    </comp>
    <comp name="--.HHE">
      <acc value="0.0025230400" flag="0"/>
      <vel value="0.0018320045" flag="0"/>
      <psa03 value="0.0053491874" flag="0"/>
      <psa10 value="0.0030944115" flag="0"/>
      <psa30 value="0.0004349174" flag="0"/>
    </comp>
  </station>
  <station code="GAZ" name="GAZ" netid="KO" insttype="CMG-3T" lat="37.1721" lon="37.2096">
    <comp name="--.HHN">
      <acc value="0.0087344662" flag="0"/>
      <vel value="0.0046690917" flag="0"/>
      <psa03 value="0.0367920508" flag="0"/>
      <psa10 value="0.0062991035" flag="0"/>
      <psa30 value="0.0004817744" flag="0"/>
    </comp>
    <comp name="--.HHZ">
      <acc value="0.0068781024" flag="0"/>
      <vel value="0.0038242136" flag="0"/>
      <psa03 value="0.0250119522" flag="0"/>
      <psa10 value="0.0028508433" flag="0"/>
      <psa30 value="0.0004122411" flag="0"/>
    </comp>
  </station>
  <station code="KMRS" name="KMRS" netid="KO" insttype="CMG-3T" lat="37.5053" lon="36.9">
    <comp name="--.HHE">
      <acc value="0.0050359614" flag="0"/>
      <vel value="0.0036918243" flag="0"/>
      <psa03 value="0.0134507867" flag="0"/>
      <psa10 value="0.0038760103" flag="0"/>
      <psa30 value="0.0009324888" flag="0"/>
    </comp>
    <comp name="--.HHZ">
      <acc value="0.0037664052" flag="0"/>
      <vel value="0.0020394337" flag="0"/>
      <psa03 value="0.0083497337" flag="0"/>
      <psa10 value="0.0029844750" flag="0"/>
      <psa30 value="0.0012317076" flag="0"/>
    </comp>
  </station>
  <station code="SARI" name="SARI" netid="KO" insttype="CMG-3T" lat="38.4072" lon="36.4181">
    <comp name="--.HHZ">
      <acc value="0.0454789897" flag="0"/>
      <vel value="0.0151238893" flag="0"/>
      <psa03 value="0.0800670950" flag="0"/>
      <psa10 value="0.0175543503" flag="0"/>
      <psa30 value="0.0012120426" flag="0"/>
    </comp>
    <comp name="--.HHE">
      <acc value="0.0964892435" flag="0"/>
      <vel value="0.0231432307" flag="0"/>
      <psa03 value="0.1206023305" flag="0"/>
      <psa10 value="0.0150578095" flag="0"/>
      <psa30 value="0.0010794617" flag="0"/>
    </comp>
  </station>
  <station code="ANDN" name="ANDN" netid="TU" insttype="T" lat="37.58" lon="36.3452">
    <comp name="--.HHE">
      <acc value="0.0871341197" flag="0"/>
      <vel value="0.0358224477" flag="0"/>
      <psa03 value="0.1283188969" flag="0"/>
      <psa10 value="0.0410166624" flag="0"/>
      <psa30 value="0.0037455417" flag="0"/>
    </comp>
    <comp name="--.HHN">
      <acc value="0.0973876533" flag="0"/>
      <vel value="0.0284839491" flag="0"/>
      <psa03 value="0.1426207917" flag="0"/>
      <psa10 value="0.0258585466" flag="0"/>
      <psa30 value="0.0066973586" flag="0"/>
    </comp>
    <comp name="--.HHZ">
      <acc value="0.0490475828" flag="0"/>
      <vel value="0.0193301788" flag="0"/>
      <psa03 value="0.0821012226" flag="0"/>
      <psa10 value="0.0204572298" flag="0"/>
      <psa30 value="0.0037870693" flag="0"/>
    </comp>
  </station>
</stationlist>
