<?xml version="1.0" encoding="UTF-8" standalone="yes"?>
<!DOCTYPE earthquake SYSTEM "stationlist.dtd">
<stationlist created="" xmlns="ch.ethz.sed.shakemap.usgs.xml">
  <station code="BNN" name="BNN" netid="KO" insttype="CMG-3T" lat="38.8521" lon="35.8472">
    <comp name="--.HHZ">
      <acc value="0.0026905437" flag="0"/>
      <vel value="0.0014876498" flag="0"/>
      <psa03 value="0.0081761939" flag="0"/>
      <psa10 value="0.0022744553" flag="0"/>
      <psa30 value="0.0004797235" flag="0"/>
    </comp>
  </station>
  <station code="CEYT" name="CEYT" netid="KO" insttype="CMG-3ESP" lat="37.0105" lon="35.7478">
    <comp name="--.HHN">
      <acc value="0.0013053564" flag="0"/>
      <vel value="0.0013369678" flag="0"/>
      <psa03 value="0.0037881893" flag="0"/>
      <psa10 value="0.0015611666" flag="0"/>
      <psa30 value="0.0004408156" flag="0"/>
    </comp>
    <comp name="--.HHZ">
      <acc value="0.0012028159" flag="0"/>
      <vel value="0.0010229491" flag="0"/>
      <psa03 value="0.0026250151" flag="0"/>
      <psa10 value="0.0019687299" flag="0"/>
      <psa30 value="0.0006040621" flag="0"/>
    </comp>
    <comp name="--.HHE">
      <acc value="0.0025230401" flag="0"/>
      <vel value="0.0018320050" flag="0"/>
      <psa03 value="0.0053491874" flag="0"/>
      <psa10 value="0.0030944115" flag="0"/>
      <psa30 value="0.0004349169" flag="0"/>
    </comp>
  </station>
  <station code="GAZ" name="GAZ" netid="KO" insttype="CMG-3T" lat="37.1721" lon="37.2096">
    <comp name="--.HHN">
      <acc value="0.0087344664" flag="0"/>
      <vel value="0.0046690919" flag="0"/>
      <psa03 value="0.0367920508" flag="0"/>
      <psa10 value="0.0062991035" flag="0"/>
      <psa30 value="0.0004817846" flag="0"/>
    </comp>
    <comp name="--.HHZ">
      <acc value="0.0068781021" flag="0"/>
      <vel value="0.0038242140" flag="0"/>
      <psa03 value="0.0250119522" flag="0"/>
      <psa10 value="0.0028508433" flag="0"/>
      <psa30 value="0.0004122428" flag="0"/>
    </comp>
  </station>
  <station code="KMRS" name="KMRS" netid="KO" insttype="CMG-3T" lat="37.5053" lon="36.9">
    <comp name="--.HHE">
      <acc value="0.0050359612" flag="0"/>
      <vel value="0.0036918241" flag="0"/>
      <psa03 value="0.0134507867" flag="0"/>
      <psa10 value="0.0038760106" flag="0"/>
      <psa30 value="0.0009324940" flag="0"/>
    </comp>
    <comp name="--.HHZ">
      <acc value="0.0037664052" flag="0"/>
      <vel value="0.0020394337" flag="0"/>
      <psa03 value="0.0083497337" flag="0"/>
      <psa10 value="0.0029844749" flag="0"/>
      <psa30 value="0.0012317051" flag="0"/>
    </comp>
  </station>
  <station code="SARI" name="SARI" netid="KO" insttype="CMG-3T" lat="38.4072" lon="36.4181">
    <comp name="--.HHZ">
      <acc value="0.0454789897" flag="0"/>
      <vel value="0.0151238890" flag="0"/>
      <psa03 value="0.0800670950" flag="0"/>
      <psa10 value="0.0175543504" flag="0"/>
      <psa30 value="0.0012120348" flag="0"/>
    </comp>
    <comp name="--.HHE">
      <acc value="0.0964892435" flag="0"/>
      <vel value="0.0231432308" flag="0"/>
      <psa03 value="0.1206023305" flag="0"/>
      <psa10 value="0.0150578096" flag="0"/>
      <psa30 value="0.0010794107" flag="0"/>
    </comp>
    <comp name="--.HHN">
      <acc value="0.0715417203" flag="0"/>
      <vel value="0.0261546936" flag="0"/>
      <psa03 value="0.1325636726" flag="0"/>
      <psa10 value="0.0141004246" flag="0"/>
      <psa30 value="0.0011421614" flag="0"/>
    </comp>
  </station>
  <station code="ANDN" name="ANDN" netid="TU" insttype="T" lat="37.58" lon="36.3452">
    <comp name="--.HHE">
      <acc value="0.0871341193" flag="0"/>
      <vel value="0.0358224478" flag="0"/>
      <psa03 value="0.1283188969" flag="0"/>
      <psa10 value="0.0410166629" flag="0"/>
      <psa30 value="0.0037455053" flag="0"/>
    </comp>
    <comp name="--.HHN">
      <acc value="0.0973876532" flag="0"/>
      <vel value="0.0284839495" flag="0"/>
      <psa03 value="0.1426207917" flag="0"/>
      <psa10 value="0.0258585463" flag="0"/>
      <psa30 value="0.0066973889" flag="0"/>
    </comp>
    <comp name="--.HHZ">
      <acc value="0.0490475829" flag="0"/>
      <vel value="0.0193301789" flag="0"/>
      <psa03 value="0.0821012226" flag="0"/>
      <psa10 value="0.0204572297" flag="0"/>
      <psa30 value="0.0037870858" flag="0"/>
    </comp>
  </station>
</stationlist>
