<?xml version="1.0" encoding="UTF-8" standalone="yes"?>
<!DOCTYPE earthquake SYSTEM "stationlist.dtd">
<stationlist created="" xmlns="ch.ethz.sed.shakemap.usgs.xml">
  <station code="T1813" name="T1813" netid="3Q" insttype="" lat="39.3147" lon="16.7512">
    <comp name="00.HNE">
      <acc value="0.0525625478" flag="0"/>
      <vel value="0.0145847085" flag="0"/>
      <psa03 value="0.0633568484" flag="0"/>
      <psa10 value="0.0066054197" flag="0"/>
      <psa30 value="0.0004763003" flag="0"/>
    </comp>
    <comp name="00.HNN">
      <acc value="0.0535518302" flag="0"/>
      <vel value="0.0090909746" flag="0"/>
      <psa03 value="0.0512911379" flag="0"/>
      <psa10 value="0.0055983708" flag="0"/>
      <psa30 value="0.0005498205" flag="0"/>
    </comp>
    <comp name="00.HNZ">
      <acc value="0.0542884268" flag="0"/>
      <vel value="0.0097509039" flag="0"/>
      <psa03 value="0.0471687600" flag="0"/>
      <psa10 value="0.0045454190" flag="0"/>
      <psa30 value="0.0006741216" flag="0"/>
    </comp>
  </station>
  <station code="CELI" name="CELI" netid="IV" insttype="" lat="39.4027" lon="16.5088">
    <comp name="--.HHE">
      <acc value="0.0044877902" flag="0"/>
      <vel value="0.0021657677" flag="0"/>
      <psa03 value="0.0147937202" flag="0"/>
      <psa10 value="0.0044616247" flag="0"/>
      <psa30 value="0.0003290955" flag="0"/>
    </comp>
    <comp name="--.HHN">
      <acc value="0.0038909784" flag="0"/>
      <vel value="0.0035749579" flag="0"/>
      <psa03 value="0.0120377310" flag="0"/>
      <psa10 value="0.0041935916" flag="0"/>
      <psa30 value="0.0003233275" flag="0"/>
    </comp>
    <comp name="--.HHZ">
      <acc value="0.0059211558" flag="0"/>
      <vel value="0.0014868553" flag="0"/>
      <psa03 value="0.0087222085" flag="0"/>
      <psa10 value="0.0017006228" flag="0"/>
      <psa30 value="0.0002118628" flag="0"/>
    </comp>
  </station>
  <station code="CET2" name="CET2" netid="IV" insttype="" lat="39.5288" lon="15.9546">
    <comp name="--.HHE">
      <acc value="0.0028906599" flag="0"/>
      <vel value="0.0016895168" flag="0"/>
      <psa03 value="0.0047624933" flag="0"/>
      <psa10 value="0.0040285691" flag="0"/>
      <psa30 value="0.0001769650" flag="0"/>
    </comp>
    <comp name="--.HHN">
      <acc value="0.0048980238" flag="0"/>
      <vel value="0.0035256141" flag="0"/>
      <psa03 value="0.0093541029" flag="0"/>
      <psa10 value="0.0051400017" flag="0"/>
      <psa30 value="0.0002935556" flag="0"/>
    </comp>
  </station>
  <station code="MMN" name="MMN" netid="IV" insttype="" lat="39.891" lon="15.9904">
    <comp name="--.HHE">
      <acc value="0.0026452775" flag="0"/>
      <vel value="0.0016528162" flag="0"/>
      <psa03 value="0.0105979020" flag="0"/>
      <psa10 value="0.0021470251" flag="0"/>
      <psa30 value="0.0002174713" flag="0"/>
    </comp>
    <comp name="--.HHN">
      <acc value="0.0029258528" flag="0"/>
      <vel value="0.0016954629" flag="0"/>
      <psa03 value="0.0067945777" flag="0"/>
      <psa10 value="0.0019053445" flag="0"/>
      <psa30 value="0.0001997803" flag="0"/>
    </comp>
    <comp name="--.HHZ">
      <acc value="0.0018518388" flag="0"/>
      <vel value="0.0008076893" flag="0"/>
      <psa03 value="0.0040729083" flag="0"/>
      <psa10 value="0.0013299457" flag="0"/>
      <psa30 value="0.0001973723" flag="0"/>
    </comp>
  </station>
  <station code="PIPA" name="PIPA" netid="IV" insttype="" lat="39.4851" lon="16.8158">
    <comp name="--.HHE">
      <acc value="0.0280183707" flag="0"/>
      <vel value="0.0135026059" flag="0"/>
      <psa03 value="0.0621759771" flag="0"/>
      <psa10 value="0.0110566644" flag="0"/>
      <psa30 value="0.0008316285" flag="0"/>
    </comp>
    <comp name="--.HHZ">
      <acc value="0.0177774795" flag="0"/>
      <vel value="0.0064087962" flag="0"/>
      <psa03 value="0.0354617387" flag="0"/>
      <psa10 value="0.0061748264" flag="0"/>
      <psa30 value="0.0004311822" flag="0"/>
    </comp>
    <comp name="--.HHN">
      <acc value="0.0188410239" flag="0"/>
      <vel value="0.0085481100" flag="0"/>
      <psa03 value="0.0485084679" flag="0"/>
      <psa10 value="0.0082868614" flag="0"/>
      <psa30 value="0.0005982829" flag="0"/>
    </comp>
  </station>
  <station code="SELL" name="SELL" netid="IV" insttype="" lat="38.983" lon="16.6279">
    <comp name="--.HHE">
      <acc value="0.0080329009" flag="0"/>
      <vel value="0.0052762364" flag="0"/>
      <psa03 value="0.0183515742" flag="0"/>
      <psa10 value="0.0041041162" flag="0"/>
      <psa30 value="0.0003200662" flag="0"/>
    </comp>
    <comp name="--.HHN">
      <acc value="0.0060118407" flag="0"/>
      <vel value="0.0043282628" flag="0"/>
      <psa03 value="0.0134280616" flag="0"/>
      <psa10 value="0.0032920898" flag="0"/>
      <psa30 value="0.0002157816" flag="0"/>
    </comp>
    <comp name="--.HHZ">
      <acc value="0.0113201584" flag="0"/>
      <vel value="0.0027992053" flag="0"/>
      <psa03 value="0.0172046650" flag="0"/>
      <psa10 value="0.0015427032" flag="0"/>
      <psa30 value="0.0001741885" flag="0"/>
    </comp>
  </station>
  <station code="SERS" name="SERS" netid="IV" insttype="" lat="39.0359" lon="16.6886">
    <comp name="--.HHE">
      <acc value="0.0308819345" flag="0"/>
      <vel value="0.0099483371" flag="0"/>
      <psa03 value="0.0485487722" flag="0"/>
      <psa10 value="0.0080653015" flag="0"/>
      <psa30 value="0.0005868482" flag="0"/>
    </comp>
    <comp name="--.HHN">
      <acc value="0.0542029704" flag="0"/>
      <vel value="0.0218049898" flag="0"/>
      <psa03 value="0.1181826081" flag="0"/>
      <psa10 value="0.0132994030" flag="0"/>
      <psa30 value="0.0013859728" flag="0"/>
    </comp>
    <comp name="--.HHZ">
      <acc value="0.0355874779" flag="0"/>
      <vel value="0.0069611638" flag="0"/>
      <psa03 value="0.0386948319" flag="0"/>
      <psa10 value="0.0031385131" flag="0"/>
      <psa30 value="0.0003296302" flag="0"/>
    </comp>
  </station>
  <station code="SPS2" name="SPS2" netid="IV" insttype="" lat="39.291" lon="16.3388">
    <comp name="--.HHN">
      <acc value="0.0038067133" flag="0"/>
      <vel value="0.0017151627" flag="0"/>
      <psa03 value="0.0127194694" flag="0"/>
      <psa10 value="0.0014653933" flag="0"/>
      <psa30 value="0.0000813294" flag="0"/>
    </comp>
    <comp name="--.HHE">
      <acc value="0.0019738763" flag="0"/>
      <vel value="0.0011397399" flag="0"/>
      <psa03 value="0.0068766444" flag="0"/>
      <psa10 value="0.0009232895" flag="0"/>
      <psa30 value="0.0000781679" flag="0"/>
    </comp>
    <comp name="--.HHZ">
      <acc value="0.0024803419" flag="0"/>
      <vel value="0.0007761943" flag="0"/>
      <psa03 value="0.0048379788" flag="0"/>
      <psa10 value="0.0005632550" flag="0"/>
      <psa30 value="0.0000532313" flag="0"/>
    </comp>
  </station>
  <station code="TDS" name="TDS" netid="IV" insttype="" lat="39.6601" lon="16.3376">
    <comp name="--.HHE">
      <acc value="0.0013529439" flag="0"/>
      <vel value="0.0014441189" flag="0"/>
      <psa03 value="0.0036081488" flag="0"/>
      <psa10 value="0.0019407781" flag="0"/>
      <psa30 value="0.0003440058" flag="0"/>
    </comp>
    <comp name="--.HHN">
      <acc value="0.0013965085" flag="0"/>
      <vel value="0.0013245200" flag="0"/>
      <psa03 value="0.0033468724" flag="0"/>
      <psa10 value="0.0027835670" flag="0"/>
      <psa30 value="0.0001627320" flag="0"/>
    </comp>
    <comp name="--.HHZ">
      <acc value="0.0012125558" flag="0"/>
      <vel value="0.0007339482" flag="0"/>
      <psa03 value="0.0032561792" flag="0"/>
      <psa10 value="0.0015736522" flag="0"/>
      <psa30 value="0.0001658788" flag="0"/>
    </comp>
  </station>
  <station code="CHCE" name="CHCE" netid="IY" insttype="" lat="38.684" lon="16.4142">
    <comp name="00.HHE">
      <acc value="0.0092563654" flag="0"/>
      <vel value="0.0043390026" flag="0"/>
      <psa03 value="0.0291730457" flag="0"/>
      <psa10 value="0.0020826183" flag="0"/>
      <psa30 value="0.0001730053" flag="0"/>
    </comp>
    <comp name="00.HHN">
      <acc value="0.0065781734" flag="0"/>
      <vel value="0.0040228324" flag="0"/>
      <psa03 value="0.0179206397" flag="0"/>
      <psa10 value="0.0026282654" flag="0"/>
      <psa30 value="0.0001852062" flag="0"/>
    </comp>
    <comp name="00.HHZ">
      <acc value="0.0037077831" flag="0"/>
      <vel value="0.0011220344" flag="0"/>
      <psa03 value="0.0070274853" flag="0"/>
      <psa10 value="0.0011078886" flag="0"/>
      <psa30 value="0.0001420583" flag="0"/>
    </comp>
  </station>
  <station code="CIRK" name="CIRK" netid="IY" insttype="" lat="39.3884" lon="17.0614">
    <comp name="00.HHE">
      <acc value="0.0358899932" flag="0"/>
      <vel value="0.0174982940" flag="0"/>
      <psa03 value="0.1220174023" flag="0"/>
      <psa10 value="0.0184834979" flag="0"/>
      <psa30 value="0.0010355310" flag="0"/>
    </comp>
    <comp name="00.HHN">
      <acc value="0.0389967127" flag="0"/>
      <vel value="0.0156250153" flag="0"/>
      <psa03 value="0.1298094614" flag="0"/>
      <psa10 value="0.0162985071" flag="0"/>
      <psa30 value="0.0013545626" flag="0"/>
    </comp>
    <comp name="00.HHZ">
      <acc value="0.0296070205" flag="0"/>
      <vel value="0.0091267734" flag="0"/>
      <psa03 value="0.0723710349" flag="0"/>
      <psa10 value="0.0068947098" flag="0"/>
      <psa30 value="0.0007032393" flag="0"/>
    </comp>
  </station>
  <station code="CMPN" name="CMPN" netid="IY" insttype="" lat="39.4076" lon="16.8303">
    <comp name="00.HHE">
      <acc value="0.0221044621" flag="0"/>
      <vel value="0.0138708315" flag="0"/>
      <psa03 value="0.0691994820" flag="0"/>
      <psa10 value="0.0053566048" flag="0"/>
      <psa30 value="0.0007041784" flag="0"/>
    </comp>
    <comp name="00.HHZ">
      <acc value="0.0183960842" flag="0"/>
      <vel value="0.0073911981" flag="0"/>
      <psa03 value="0.0419472182" flag="0"/>
      <psa10 value="0.0048293934" flag="0"/>
      <psa30 value="0.0003705828" flag="0"/>
    </comp>
    <comp name="00.HHN">
      <acc value="0.0243320197" flag="0"/>
      <vel value="0.0147446305" flag="0"/>
      <psa03 value="0.0580702472" flag="0"/>
      <psa10 value="0.0081103844" flag="0"/>
      <psa30 value="0.0005584367" flag="0"/>
    </comp>
  </station>
  <station code="MCDA" name="MCDA" netid="IY" insttype="" lat="39.0216" lon="16.8403">
    <comp name="00.HHE">
      <acc value="0.0951527831" flag="0"/>
      <vel value="0.0222533604" flag="0"/>
      <psa03 value="0.1004678667" flag="0"/>
      <psa10 value="0.0195364274" flag="0"/>
      <psa30 value="0.0015318543" flag="0"/>
    </comp>
    <comp name="00.HHN">
      <acc value="0.0755143179" flag="0"/>
      <vel value="0.0232541474" flag="0"/>
      <psa03 value="0.0925598093" flag="0"/>
      <psa10 value="0.0331853228" flag="0"/>
      <psa30 value="0.0031428349" flag="0"/>
    </comp>
    <comp name="00.HHZ">
      <acc value="0.0927577594" flag="0"/>
      <vel value="0.0206233378" flag="0"/>
      <psa03 value="0.0937612413" flag="0"/>
      <psa10 value="0.0170966641" flag="0"/>
      <psa30 value="0.0008268502" flag="0"/>
    </comp>
  </station>
  <station code="ROI" name="ROI" netid="IY" insttype="" lat="39.5724" lon="16.5691">
    <comp name="00.HHE">
      <acc value="0.0085383145" flag="0"/>
      <vel value="0.0044116205" flag="0"/>
      <psa03 value="0.0208178527" flag="0"/>
      <psa10 value="0.0073189173" flag="0"/>
      <psa30 value="0.0005570934" flag="0"/>
    </comp>
    <comp name="00.HHN">
      <acc value="0.0108820177" flag="0"/>
      <vel value="0.0052631718" flag="0"/>
      <psa03 value="0.0225487718" flag="0"/>
      <psa10 value="0.0087791949" flag="0"/>
      <psa30 value="0.0004454535" flag="0"/>
    </comp>
    <comp name="00.HHZ">
      <acc value="0.0076893241" flag="0"/>
      <vel value="0.0027027996" flag="0"/>
      <psa03 value="0.0099994123" flag="0"/>
      <psa10 value="0.0028925695" flag="0"/>
      <psa30 value="0.0003087932" flag="0"/>
    </comp>
  </station>
  <station code="SPDC" name="SPDC" netid="IY" insttype="" lat="38.5264" lon="16.1322">
    <comp name="--.HHN">
      <acc value="0.0059418533" flag="0"/>
      <vel value="0.0049895345" flag="0"/>
      <psa03 value="0.0201717119" flag="0"/>
      <psa10 value="0.0048552997" flag="0"/>
      <psa30 value="0.0003249696" flag="0"/>
    </comp>
    <comp name="--.HHE">
      <acc value="0.0075213925" flag="0"/>
      <vel value="0.0060065998" flag="0"/>
      <psa03 value="0.0238795491" flag="0"/>
      <psa10 value="0.0065808466" flag="0"/>
      <psa30 value="0.0003882558" flag="0"/>
    </comp>
    <comp name="--.HHZ">
      <acc value="0.0056297244" flag="0"/>
      <vel value="0.0029527940" flag="0"/>
      <psa03 value="0.0160958888" flag="0"/>
      <psa10 value="0.0020588764" flag="0"/>
      <psa30 value="0.0002244725" flag="0"/>
    </comp>
  </station>
  <station code="BIDON" name="BIDON" netid="XE" insttype="" lat="39.9457" lon="16.4559">
    <comp name="--.HHE">
      <acc value="0.0037671298" flag="0"/>
      <vel value="0.0019191328" flag="0"/>
      <psa03 value="0.0123033375" flag="0"/>
      <psa10 value="0.0023162557" flag="0"/>
      <psa30 value="0.0002341539" flag="0"/>
    </comp>
    <comp name="--.HHN">
      <acc value="0.0029015543" flag="0"/>
      <vel value="0.0017562565" flag="0"/>
      <psa03 value="0.0086753861" flag="0"/>
      <psa10 value="0.0016895918" flag="0"/>
      <psa30 value="0.0001671559" flag="0"/>
    </comp>
    <comp name="--.HHZ">
      <acc value="0.0014872933" flag="0"/>
      <vel value="0.0008439358" flag="0"/>
      <psa03 value="0.0047751820" flag="0"/>
      <psa10 value="0.0010945056" flag="0"/>
      <psa30 value="0.0001376358" flag="0"/>
    </comp>
  </station>
  <station code="MORMA" name="MORMA" netid="XE" insttype="" lat="39.8699" lon="15.9721">
    <comp name="--.HHN">
      <acc value="0.0015600856" flag="0"/>
      <vel value="0.0006679938" flag="0"/>
      <psa03 value="0.0031461377" flag="0"/>
      <psa10 value="0.0010480773" flag="0"/>
      <psa30 value="0.0000931325" flag="0"/>
    </comp>
    <comp name="--.HHE">
      <acc value="0.0020756031" flag="0"/>
      <vel value="0.0021842015" flag="0"/>
      <psa03 value="0.0069978837" flag="0"/>
      <psa10 value="0.0029680483" flag="0"/>
      <psa30 value="0.0003396270" flag="0"/>
    </comp>
    <comp name="--.HHZ">
      <acc value="0.0014422428" flag="0"/>
      <vel value="0.0009077712" flag="0"/>
      <psa03 value="0.0027804153" flag="0"/>
      <psa10 value="0.0008324033" flag="0"/>
      <psa30 value="0.0001120187" flag="0"/>
    </comp>
  </station>
  <station code="SHEVA" name="SHEVA" netid="XE" insttype="" lat="39.8153" lon="16.1677">
    <comp name="--.HHN">
      <acc value="0.0019063214" flag="0"/>
      <vel value="0.0016940980" flag="0"/>
      <psa03 value="0.0045069250" flag="0"/>
      <psa10 value="0.0030977154" flag="0"/>
      <psa30 value="0.0001678441" flag="0"/>
    </comp>
    <comp name="--.HHE">
      <acc value="0.0016879074" flag="0"/>
      <vel value="0.0015858548" flag="0"/>
      <psa03 value="0.0050274527" flag="0"/>
      <psa10 value="0.0030443527" flag="0"/>
      <psa30 value="0.0001984914" flag="0"/>
    </comp>
    <comp name="--.HHZ">
      <acc value="0.0008082185" flag="0"/>
      <vel value="0.0004812717" flag="0"/>
      <psa03 value="0.0024271700" flag="0"/>
      <psa10 value="0.0006920410" flag="0"/>
      <psa30 value="0.0000541199" flag="0"/>
    </comp>
  </station>
  <station code="T0702" name="T0702" netid="XE" insttype="" lat="39.7209" lon="16.0835">
    <comp name="--.HHE">
      <acc value="0.0012883172" flag="0"/>
      <vel value="0.0009671809" flag="0"/>
      <psa03 value="0.0050318676" flag="0"/>
      <psa10 value="0.0016398121" flag="0"/>
      <psa30 value="0.0001559262" flag="0"/>
    </comp>
    <comp name="--.HHN">
      <acc value="0.0010081401" flag="0"/>
      <vel value="0.0008360089" flag="0"/>
      <psa03 value="0.0027445313" flag="0"/>
      <psa10 value="0.0010402873" flag="0"/>
      <psa30 value="0.0001797945" flag="0"/>
    </comp>
    <comp name="--.HHZ">
      <acc value="0.0011685380" flag="0"/>
      <vel value="0.0005798239" flag="0"/>
      <psa03 value="0.0029047038" flag="0"/>
      <psa10 value="0.0012607503" flag="0"/>
      <psa30 value="0.0001889130" flag="0"/>
    </comp>
  </station>
</stationlist>
