<stationlist xmlns:esm="https://esm-db.eu/esmws/shakemap/1/" created="1784080730">
	<station code="T1813" name="T1813" netid="3Q" source="XVIII-INGV SISMIKO Emergency Seismic Network (XVIII-ISESN) (XVIII-ISESN)" insttype="" lat="39.31469" lon="16.75119" esm:processing="automatic (Paolucci et al 2011)" esm:quality="best">
		<comp name="00.HNE" depth="0.0">
			<acc value="0.0530410092280646" flag="0"/>
			<vel value="0.014696313946919" flag="0"/>
			<psa03 value="0.0636674259878971" flag="0"/>
			<psa10 value="0.00659791192301566" flag="0"/>
			<psa30 value="0.00047504615697542" flag="0"/>
		</comp>
		<comp name="00.HNN" depth="0.0">
			<acc value="0.0530385003089906" flag="0"/>
			<vel value="0.0091951534589088" flag="0"/>
			<psa03 value="0.0515503316229731" flag="0"/>
			<psa10 value="0.00558768265655979" flag="0"/>
			<psa30 value="0.000572216760719986" flag="0"/>
		</comp>
		<comp name="00.HNZ" depth="0.0">
			<acc value="0.0543176365389671" flag="0"/>
			<vel value="0.0098148260545227" flag="0"/>
			<psa03 value="0.0471843548984063" flag="0"/>
			<psa10 value="0.00454069814272163" flag="0"/>
			<psa30 value="0.000683664664430172" flag="0"/>
		</comp>
	</station>
	<station code="T1886" name="T1886" netid="3Q" source="XVIII-INGV SISMIKO Emergency Seismic Network (XVIII-ISESN) (XVIII-ISESN)" insttype="" lat="39.287" lon="16.97583" esm:processing="automatic (Paolucci et al 2011)" esm:quality="good">
		<comp name="00.HNE" depth="0.0">
			<acc value="0.126396998805297" flag="0"/>
			<vel value="0.0309828934973485" flag="0"/>
			<psa03 value="0.214122580403293" flag="0"/>
			<psa10 value="0.0285773337330996" flag="0"/>
			<psa30 value="0.00312926604852012" flag="0"/>
		</comp>
		<comp name="00.HNN" depth="0.0">
			<acc value="0.0696571986627459" flag="0"/>
			<vel value="0.0253477775949404" flag="0"/>
			<psa03 value="0.198246695370411" flag="0"/>
			<psa10 value="0.0149320932403925" flag="0"/>
			<psa30 value="0.0032043660235214" flag="0"/>
		</comp>
		<comp name="00.HNZ" depth="0.0">
			<acc value="0.0502602876460644" flag="0"/>
			<vel value="0.0117012962824921" flag="0"/>
			<psa03 value="0.038984223138474" flag="0"/>
			<psa10 value="0.00744290852490993" flag="0"/>
			<psa30 value="0.00322627601662002" flag="0"/>
		</comp>
	</station>
	<station code="CELI" name="CELI" netid="IV" source="Italian National Seismic Network (INSN)" insttype="" lat="39.4027" lon="16.5088" esm:processing="automatic (Paolucci et al 2011)" esm:quality="best">
		<comp name="--.HNE" depth="0.0">
			<acc value="0.00454229828391212" flag="0"/>
			<vel value="0.00221090526880172" flag="0"/>
			<psa03 value="0.0153383233803118" flag="0"/>
			<psa10 value="0.0045425254512538" flag="0"/>
			<psa30 value="0.000334073224461359" flag="0"/>
		</comp>
		<comp name="--.HNN" depth="0.0">
			<acc value="0.00380088215319081" flag="0"/>
			<vel value="0.00357311650116075" flag="0"/>
			<psa03 value="0.0119626778853611" flag="0"/>
			<psa10 value="0.00425805926304046" flag="0"/>
			<psa30 value="0.000318224388095486" flag="0"/>
		</comp>
		<comp name="--.HNZ" depth="0.0">
			<acc value="0.00516640811414733" flag="0"/>
			<vel value="0.00148877934049019" flag="0"/>
			<psa03 value="0.00892651256162064" flag="0"/>
			<psa10 value="0.00174580932317406" flag="0"/>
			<psa30 value="0.000222224330646366" flag="0"/>
		</comp>
	</station>
	<station code="SERS" name="SERS" netid="IV" source="Italian National Seismic Network (INSN)" insttype="" lat="39.0359" lon="16.6886" esm:processing="manual (Paolucci et al 2011)" esm:quality="good">
		<comp name="--.HNE" depth="0.0">
			<acc value="0.0390102594935633" flag="0"/>
			<vel value="0.0229412821971346" flag="0"/>
			<psa03 value="0.120001637019402" flag="0"/>
			<psa10 value="0.0138806398367743" flag="0"/>
			<psa30 value="0.00144438557928987" flag="0"/>
		</comp>
		<comp name="--.HNN" depth="0.0">
			<acc value="0.0322470788955708" flag="0"/>
			<vel value="0.0107008537386301" flag="0"/>
			<psa03 value="0.0425588531693362" flag="0"/>
			<psa10 value="0.00760758240250948" flag="0"/>
			<psa30 value="0.000337915015419646" flag="0"/>
		</comp>
		<comp name="--.HNZ" depth="0.0">
			<acc value="0.031398553031453" flag="0"/>
			<vel value="0.00676612637240827" flag="0"/>
			<psa03 value="0.0365785195015785" flag="0"/>
			<psa10 value="0.00309249142487963" flag="0"/>
			<psa30 value="0.000353293508127603" flag="0"/>
		</comp>
	</station>
	<station code="BIDON" name="BIDON" netid="XE" source="POLLINO - Near Fault Observatories (POLLINO-NFO)" insttype="" lat="39.9457" lon="16.4559" esm:processing="automatic (Paolucci et al 2011)" esm:quality="good">
		<comp name="--.HNE" depth="1.0">
			<acc value="0.00378554472195094" flag="0"/>
			<vel value="0.00219948811109838" flag="0"/>
			<psa03 value="0.0125238921464043" flag="0"/>
			<psa10 value="0.00245982170111365" flag="0"/>
			<psa30 value="0.000232616086757671" flag="0"/>
		</comp>
		<comp name="--.HNN" depth="1.0">
			<acc value="0.00286704678813226" flag="0"/>
			<vel value="0.0017930515685398" flag="0"/>
			<psa03 value="0.0100314438307985" flag="0"/>
			<psa10 value="0.0016230806851906" flag="0"/>
			<psa30 value="0.000200610672285013" flag="0"/>
		</comp>
		<comp name="--.HNZ" depth="1.0">
			<acc value="0.00148358457078915" flag="0"/>
			<vel value="0.000842435484668051" flag="0"/>
			<psa03 value="0.00481359198880568" flag="0"/>
			<psa10 value="0.00117235192037481" flag="0"/>
			<psa30 value="0.000130997922761078" flag="0"/>
		</comp>
	</station>
	<station code="SHEVA" name="SHEVA" netid="XE" source="POLLINO - Near Fault Observatories (POLLINO-NFO)" insttype="" lat="39.8153" lon="16.16773" esm:processing="automatic (Paolucci et al 2011)" esm:quality="good">
		<comp name="--.HNE" depth="1.0">
			<acc value="0.00173674326008509" flag="0"/>
			<vel value="0.0015056750786065" flag="0"/>
			<psa03 value="0.00468235217504269" flag="0"/>
			<psa10 value="0.00285040632542962" flag="0"/>
			<psa30 value="0.000232258823507137" flag="0"/>
		</comp>
		<comp name="--.HNN" depth="1.0">
			<acc value="0.00198283986775348" flag="0"/>
			<vel value="0.00176425543264895" flag="0"/>
			<psa03 value="0.00477205082546327" flag="0"/>
			<psa10 value="0.00318846497015749" flag="0"/>
			<psa30 value="0.000189546684141857" flag="0"/>
		</comp>
		<comp name="--.HNZ" depth="1.0">
			<acc value="0.000869969804813826" flag="0"/>
			<vel value="0.000637126262246839" flag="0"/>
			<psa03 value="0.00301376833225496" flag="0"/>
			<psa10 value="0.00101013761978557" flag="0"/>
			<psa30 value="0.000199179405595539" flag="0"/>
		</comp>
	</station>
	<station code="T0702" name="T0702" netid="XE" source="POLLINO - Near Fault Observatories (POLLINO-NFO)" insttype="" lat="39.7209" lon="16.0835" esm:processing="automatic (Paolucci et al 2011)" esm:quality="good">
		<comp name="--.HNE" depth="1.0">
			<acc value="0.00126721356984168" flag="0"/>
			<vel value="0.000965641077959226" flag="0"/>
			<psa03 value="0.0049964283195832" flag="0"/>
			<psa10 value="0.00169875964386565" flag="0"/>
			<psa30 value="0.000188275974963293" flag="0"/>
		</comp>
		<comp name="--.HNN" depth="1.0">
			<acc value="0.00101191850216406" flag="0"/>
			<vel value="0.000826292201769641" flag="0"/>
			<psa03 value="0.00276349035934094" flag="0"/>
			<psa10 value="0.00107478252719369" flag="0"/>
			<psa30 value="0.00017448447540701" flag="0"/>
		</comp>
		<comp name="--.HNZ" depth="1.0">
			<acc value="0.00110431641461757" flag="0"/>
			<vel value="0.000606229577224798" flag="0"/>
			<psa03 value="0.00290444500939386" flag="0"/>
			<psa10 value="0.00125382700519866" flag="0"/>
			<psa30 value="0.000187438028828873" flag="0"/>
		</comp>
	</station>
	<station code="T1811" name="T1811" netid="3Q" source="XVIII-INGV SISMIKO Emergency Seismic Network (XVIII-ISESN) (XVIII-ISESN)" insttype="" lat="39.56904" lon="16.77169" esm:processing="automatic (Paolucci et al 2011)" esm:quality="bad">
		<comp name="00.HNE" depth="0.0">
			<acc value="0" flag="1"/>
			<vel value="0" flag="1"/>
			<psa03 value="0" flag="1"/>
			<psa10 value="0" flag="1"/>
			<psa30 value="0" flag="1"/>
		</comp>
		<comp name="00.HNN" depth="0.0">
			<acc value="0" flag="1"/>
			<vel value="0" flag="1"/>
			<psa03 value="0" flag="1"/>
			<psa10 value="0" flag="1"/>
			<psa30 value="0" flag="1"/>
		</comp>
		<comp name="00.HNZ" depth="0.0">
			<acc value="0" flag="1"/>
			<vel value="0" flag="1"/>
			<psa03 value="0" flag="1"/>
			<psa10 value="0" flag="1"/>
			<psa30 value="0" flag="1"/>
		</comp>
	</station>
	<station code="T1812" name="T1812" netid="3Q" source="XVIII-INGV SISMIKO Emergency Seismic Network (XVIII-ISESN) (XVIII-ISESN)" insttype="" lat="39.48464" lon="16.50149" esm:processing="automatic (Paolucci et al 2011)" esm:quality="bad">
		<comp name="01.HNE" depth="0.0">
			<acc value="0" flag="1"/>
			<vel value="0" flag="1"/>
			<psa03 value="0" flag="1"/>
			<psa10 value="0" flag="1"/>
			<psa30 value="0" flag="1"/>
		</comp>
		<comp name="01.HNN" depth="0.0">
			<acc value="0" flag="1"/>
			<vel value="0" flag="1"/>
			<psa03 value="0" flag="1"/>
			<psa10 value="0" flag="1"/>
			<psa30 value="0" flag="1"/>
		</comp>
		<comp name="01.HNZ" depth="0.0">
			<acc value="0" flag="1"/>
			<vel value="0" flag="1"/>
			<psa03 value="0" flag="1"/>
			<psa10 value="0" flag="1"/>
			<psa30 value="0" flag="1"/>
		</comp>
	</station>
	<station code="CSMBE" name="CSMBE" netid="7C" source="Urban Seismic Network (RUSN-CAL-INGV)" insttype="" lat="39.2895" lon="16.2642" esm:processing="automatic (Paolucci et al 2011)" esm:quality="bad">
		<comp name="--.HNE" depth="0.0">
			<acc value="0" flag="1"/>
			<vel value="0" flag="1"/>
			<psa03 value="0" flag="1"/>
			<psa10 value="0" flag="1"/>
			<psa30 value="0" flag="1"/>
		</comp>
		<comp name="--.HNN" depth="0.0">
			<acc value="0" flag="1"/>
			<vel value="0" flag="1"/>
			<psa03 value="0" flag="1"/>
			<psa10 value="0" flag="1"/>
			<psa30 value="0" flag="1"/>
		</comp>
		<comp name="--.HNZ" depth="0.0">
			<acc value="0" flag="1"/>
			<vel value="0" flag="1"/>
			<psa03 value="0" flag="1"/>
			<psa10 value="0" flag="1"/>
			<psa30 value="0" flag="1"/>
		</comp>
	</station>
	<station code="BRICA" name="BRICA" netid="IV" source="Italian National Seismic Network (INSN)" insttype="" lat="38.72384" lon="16.02905" esm:processing="automatic (Paolucci et al 2011)" esm:quality="bad">
		<comp name="--.HNE" depth="0.0">
			<acc value="0" flag="1"/>
			<vel value="0" flag="1"/>
			<psa03 value="0" flag="1"/>
			<psa10 value="0" flag="1"/>
			<psa30 value="0" flag="1"/>
		</comp>
		<comp name="--.HNN" depth="0.0">
			<acc value="0" flag="1"/>
			<vel value="0" flag="1"/>
			<psa03 value="0" flag="1"/>
			<psa10 value="0" flag="1"/>
			<psa30 value="0" flag="1"/>
		</comp>
		<comp name="--.HNZ" depth="0.0">
			<acc value="0" flag="1"/>
			<vel value="0" flag="1"/>
			<psa03 value="0" flag="1"/>
			<psa10 value="0" flag="1"/>
			<psa30 value="0" flag="1"/>
		</comp>
	</station>
	<station code="NICCA" name="NICCA" netid="IV" source="Italian National Seismic Network (INSN)" insttype="" lat="38.55694" lon="15.93858" esm:processing="automatic (Paolucci et al 2011)" esm:quality="bad">
		<comp name="--.HNE" depth="0.0">
			<acc value="0" flag="1"/>
			<vel value="0" flag="1"/>
			<psa03 value="0" flag="1"/>
			<psa10 value="0" flag="1"/>
			<psa30 value="0" flag="1"/>
		</comp>
		<comp name="--.HNN" depth="0.0">
			<acc value="0" flag="1"/>
			<vel value="0" flag="1"/>
			<psa03 value="0" flag="1"/>
			<psa10 value="0" flag="1"/>
			<psa30 value="0" flag="1"/>
		</comp>
		<comp name="--.HNZ" depth="0.0">
			<acc value="0" flag="1"/>
			<vel value="0" flag="1"/>
			<psa03 value="0" flag="1"/>
			<psa10 value="0" flag="1"/>
			<psa30 value="0" flag="1"/>
		</comp>
	</station>
	<station code="PIPA" name="PIPA" netid="IV" source="Italian National Seismic Network (INSN)" insttype="" lat="39.48514" lon="16.8158" esm:processing="automatic (Paolucci et al 2011)" esm:quality="bad">
		<comp name="--.HNE" depth="0.0">
			<acc value="0" flag="1"/>
			<vel value="0" flag="1"/>
			<psa03 value="0" flag="1"/>
			<psa10 value="0" flag="1"/>
			<psa30 value="0" flag="1"/>
		</comp>
		<comp name="--.HNN" depth="0.0">
			<acc value="0" flag="1"/>
			<vel value="0" flag="1"/>
			<psa03 value="0" flag="1"/>
			<psa10 value="0" flag="1"/>
			<psa30 value="0" flag="1"/>
		</comp>
		<comp name="--.HNZ" depth="0.0">
			<acc value="0" flag="1"/>
			<vel value="0" flag="1"/>
			<psa03 value="0" flag="1"/>
			<psa10 value="0" flag="1"/>
			<psa30 value="0" flag="1"/>
		</comp>
	</station>
	<station code="SALB" name="SALB" netid="IV" source="Italian National Seismic Network (INSN)" insttype="" lat="39.8772" lon="16.3459" esm:processing="automatic (Paolucci et al 2011)" esm:quality="bad">
		<comp name="--.HNE" depth="0.0">
			<acc value="0" flag="1"/>
			<vel value="0" flag="1"/>
			<psa03 value="0" flag="1"/>
			<psa10 value="0" flag="1"/>
			<psa30 value="0" flag="1"/>
		</comp>
		<comp name="--.HNN" depth="0.0">
			<acc value="0" flag="1"/>
			<vel value="0" flag="1"/>
			<psa03 value="0" flag="1"/>
			<psa10 value="0" flag="1"/>
			<psa30 value="0" flag="1"/>
		</comp>
		<comp name="--.HNZ" depth="0.0">
			<acc value="0" flag="1"/>
			<vel value="0" flag="1"/>
			<psa03 value="0" flag="1"/>
			<psa10 value="0" flag="1"/>
			<psa30 value="0" flag="1"/>
		</comp>
	</station>
	<station code="SELL" name="SELL" netid="IV" source="Italian National Seismic Network (INSN)" insttype="" lat="38.983001" lon="16.627906" esm:processing="automatic (Paolucci et al 2011)" esm:quality="bad">
		<comp name="--.HNE" depth="0.0">
			<acc value="0" flag="1"/>
			<vel value="0" flag="1"/>
			<psa03 value="0" flag="1"/>
			<psa10 value="0" flag="1"/>
			<psa30 value="0" flag="1"/>
		</comp>
		<comp name="--.HNN" depth="0.0">
			<acc value="0" flag="1"/>
			<vel value="0" flag="1"/>
			<psa03 value="0" flag="1"/>
			<psa10 value="0" flag="1"/>
			<psa30 value="0" flag="1"/>
		</comp>
		<comp name="--.HNZ" depth="0.0">
			<acc value="0" flag="1"/>
			<vel value="0" flag="1"/>
			<psa03 value="0" flag="1"/>
			<psa10 value="0" flag="1"/>
			<psa30 value="0" flag="1"/>
		</comp>
	</station>
	<station code="FRASC" name="FRASC" netid="XE" source="POLLINO - Near Fault Observatories (POLLINO-NFO)" insttype="" lat="39.838096" lon="16.266299" esm:processing="automatic (Paolucci et al 2011)" esm:quality="bad">
		<comp name="--.HNE" depth="1.0">
			<acc value="0" flag="1"/>
			<vel value="0" flag="1"/>
			<psa03 value="0" flag="1"/>
			<psa10 value="0" flag="1"/>
			<psa30 value="0" flag="1"/>
		</comp>
		<comp name="--.HNN" depth="1.0">
			<acc value="0" flag="1"/>
			<vel value="0" flag="1"/>
			<psa03 value="0" flag="1"/>
			<psa10 value="0" flag="1"/>
			<psa30 value="0" flag="1"/>
		</comp>
		<comp name="--.HNZ" depth="1.0">
			<acc value="0" flag="1"/>
			<vel value="0" flag="1"/>
			<psa03 value="0" flag="1"/>
			<psa10 value="0" flag="1"/>
			<psa30 value="0" flag="1"/>
		</comp>
	</station>
	<station code="ZIDIL" name="ZIDIL" netid="XE" source="POLLINO - Near Fault Observatories (POLLINO-NFO)" insttype="" lat="39.78218" lon="16.25963" esm:processing="automatic (Paolucci et al 2011)" esm:quality="bad">
		<comp name="--.HNE" depth="1.0">
			<acc value="0" flag="1"/>
			<vel value="0" flag="1"/>
			<psa03 value="0" flag="1"/>
			<psa10 value="0" flag="1"/>
			<psa30 value="0" flag="1"/>
		</comp>
		<comp name="--.HNN" depth="1.0">
			<acc value="0" flag="1"/>
			<vel value="0" flag="1"/>
			<psa03 value="0" flag="1"/>
			<psa10 value="0" flag="1"/>
			<psa30 value="0" flag="1"/>
		</comp>
		<comp name="--.HNZ" depth="1.0">
			<acc value="0" flag="1"/>
			<vel value="0" flag="1"/>
			<psa03 value="0" flag="1"/>
			<psa10 value="0" flag="1"/>
			<psa30 value="0" flag="1"/>
		</comp>
	</station>
</stationlist>
