<?xml version="1.0" encoding="UTF-8" standalone="yes"?>
<!DOCTYPE earthquake SYSTEM "stationlist.dtd">
<stationlist created="" xmlns="ch.ethz.sed.shakemap.usgs.xml">
  <station code="TAHT" name="TAHT" netid="KO" insttype="CMG-3ESPC" lat="36.3755" lon="36.1855">
    <comp name="--.HHN">
      <acc value="1.6558179251" flag="0"/>
      <vel value="0.2884163429" flag="0"/>
      <psa03 value="1.9691171294" flag="0"/>
      <psa10 value="0.0712789495" flag="0"/>
      <psa30 value="0.0057363580" flag="0"/>
    </comp>
  </station>
</stationlist>
