<stationlist created="1675692169">
	<station code="KRTS" name="KRTS" netid="KO" source="Bogazici University Kandilli Observatory And Earthquake Research Institute (KOERI)" insttype="" lat="36.573" lon="35.375">
		<comp name=".HNE" depth="0.0">
			<acc value="0.0496755429284" flag="0"/>
			<vel value="0.0232105805953" flag="0"/>
			<psa03 value="0.0669641964663" flag="0"/>
			<psa10 value="0.00884557691354" flag="0"/>
			<psa30 value="0.000841641900481" flag="0"/>
		</comp>
		<comp name=".HNN" depth="0.0">
			<acc value="0.0364925412665" flag="0"/>
			<vel value="0.0132967256375" flag="0"/>
			<psa03 value="0.102992708178" flag="0"/>
			<psa10 value="0.00723321854023" flag="0"/>
			<psa30 value="0.000688900323767" flag="0"/>
		</comp>
		<comp name=".HNZ" depth="0.0">
			<acc value="0.0226726873487" flag="0"/>
			<vel value="0.00856702331744" flag="0"/>
			<psa03 value="0.0555500705446" flag="0"/>
			<psa10 value="0.00359723267401" flag="0"/>
			<psa30 value="0.000607539361085" flag="0"/>
		</comp>
	</station>
	<station code="SLFK" name="SLFK" netid="KO" source="Bogazici University Kandilli Observatory And Earthquake Research Institute (KOERI)" insttype="" lat="36.3925" lon="33.9464">
		<comp name=".HNE" depth="0.0">
			<acc value="0.0116387346687" flag="0"/>
			<vel value="0.00410197516005" flag="0"/>
			<psa03 value="0.0198257742977" flag="0"/>
			<psa10 value="0.00252262500215" flag="0"/>
			<psa30 value="0.000485835986331" flag="0"/>
		</comp>
		<comp name=".HNN" depth="0.0">
			<acc value="0.0128443564802" flag="0"/>
			<vel value="0.00495081251378" flag="0"/>
			<psa03 value="0.0276723956604" flag="0"/>
			<psa10 value="0.00223530510924" flag="0"/>
			<psa30 value="0.000417749600944" flag="0"/>
		</comp>
		<comp name=".HNZ" depth="0.0">
			<acc value="0.00514234816501" flag="0"/>
			<vel value="0.00215615748933" flag="0"/>
			<psa03 value="0.016892956315" flag="0"/>
			<psa10 value="0.00207388925999" flag="0"/>
			<psa30 value="0.000384032549647" flag="0"/>
		</comp>
	</station>
</stationlist>
