<?xml version="1.0" encoding="UTF-8" standalone="yes"?>
<!DOCTYPE earthquake SYSTEM "stationlist.dtd">
<stationlist created="" xmlns="ch.ethz.sed.shakemap.usgs.xml">
  <station code="BNGB" name="BNGB" netid="KO" insttype="CMG-3ESPC" lat="38.9913" lon="40.6792">
    <comp name="--.HHE">
      <acc value="0.0448237541" flag="0"/>
      <vel value="0.0180070558" flag="0"/>
      <psa03 value="0.0953039243" flag="0"/>
      <psa10 value="0.0178276280" flag="0"/>
      <psa30 value="0.0014506983" flag="0"/>
    </comp>
    <comp name="--.HHN">
      <acc value="0.0440578813" flag="0"/>
      <vel value="0.0191401236" flag="0"/>
      <psa03 value="0.1885845950" flag="0"/>
      <psa10 value="0.0132827889" flag="0"/>
      <psa30 value="0.0012678654" flag="0"/>
    </comp>
    <comp name="--.HHZ">
      <acc value="0.0317558767" flag="0"/>
      <vel value="0.0168025465" flag="0"/>
      <psa03 value="0.0731014248" flag="0"/>
      <psa10 value="0.0124706901" flag="0"/>
      <psa30 value="0.0013592147" flag="0"/>
    </comp>
  </station>
  <station code="GURO" name="GURO" netid="KO" insttype="CMG-3T" lat="38.5509" lon="42.0322">
    <comp name="--.HHN">
      <acc value="0.0132239785" flag="0"/>
      <vel value="0.0049854099" flag="0"/>
      <psa03 value="0.0348415178" flag="0"/>
      <psa10 value="0.0028401689" flag="0"/>
      <psa30 value="0.0001663439" flag="0"/>
    </comp>
    <comp name="--.HHE">
      <acc value="0.0192948088" flag="0"/>
      <vel value="0.0084048543" flag="0"/>
      <psa03 value="0.0596406574" flag="0"/>
      <psa10 value="0.0038150782" flag="0"/>
      <psa30 value="0.0002767230" flag="0"/>
    </comp>
    <comp name="--.HHZ">
      <acc value="0.0224312188" flag="0"/>
      <vel value="0.0087480810" flag="0"/>
      <psa03 value="0.0555936217" flag="0"/>
      <psa10 value="0.0026770917" flag="0"/>
      <psa30 value="0.0001911582" flag="0"/>
    </comp>
  </station>
  <station code="KOPR" name="KOPR" netid="KO" insttype="CMG-3T" lat="39.9917" lon="41.8535">
    <comp name="--.HHN">
      <acc value="0.0045915306" flag="0"/>
      <vel value="0.0029548496" flag="0"/>
      <psa03 value="0.0132037281" flag="0"/>
      <psa10 value="0.0058285443" flag="0"/>
      <psa30 value="0.0005397593" flag="0"/>
    </comp>
    <comp name="--.HHE">
      <acc value="0.0039844355" flag="0"/>
      <vel value="0.0030832051" flag="0"/>
      <psa03 value="0.0110565112" flag="0"/>
      <psa10 value="0.0067353921" flag="0"/>
      <psa30 value="0.0006080940" flag="0"/>
    </comp>
    <comp name="--.HHZ">
      <acc value="0.0039970002" flag="0"/>
      <vel value="0.0024279555" flag="0"/>
      <psa03 value="0.0126396832" flag="0"/>
      <psa10 value="0.0054081849" flag="0"/>
      <psa30 value="0.0006884976" flag="0"/>
    </comp>
  </station>
  <station code="SVAN" name="SVAN" netid="KO" insttype="CMG-3T" lat="38.1511" lon="41.1984">
    <comp name="--.HHN">
      <acc value="0.0052247294" flag="0"/>
      <vel value="0.0019126470" flag="0"/>
      <psa03 value="0.0069300441" flag="0"/>
      <psa10 value="0.0019277149" flag="0"/>
      <psa30 value="0.0002892190" flag="0"/>
    </comp>
    <comp name="--.HHZ">
      <acc value="0.0038215718" flag="0"/>
      <vel value="0.0022815451" flag="0"/>
      <psa03 value="0.0108028405" flag="0"/>
      <psa10 value="0.0026131015" flag="0"/>
      <psa30 value="0.0006947157" flag="0"/>
    </comp>
    <comp name="--.HHE">
      <acc value="0.0049604040" flag="0"/>
      <vel value="0.0032911917" flag="0"/>
      <psa03 value="0.0189457375" flag="0"/>
      <psa10 value="0.0026198353" flag="0"/>
      <psa30 value="0.0004871588" flag="0"/>
    </comp>
  </station>
  <station code="YEDI" name="YEDI" netid="KO" insttype="CMG-3T" lat="39.4377" lon="40.5443">
    <comp name="--.HHE">
      <acc value="0.1492242273" flag="0"/>
      <vel value="0.0439959848" flag="0"/>
      <psa03 value="0.1839074637" flag="0"/>
      <psa10 value="0.0188702174" flag="0"/>
      <psa30 value="0.0023652522" flag="0"/>
    </comp>
    <comp name="--.HHZ">
      <acc value="0.0000327220" flag="0"/>
      <vel value="0.0000031290" flag="0"/>
      <psa03 value="0.0000103465" flag="0"/>
      <psa10 value="0.0000033344" flag="0"/>
      <psa30 value="0.0000006277" flag="0"/>
    </comp>
    <comp name="--.HHN">
      <acc value="0.0005120389" flag="0"/>
      <vel value="0.0001889265" flag="0"/>
      <psa03 value="0.0015199649" flag="0"/>
      <psa10 value="0.0000994105" flag="0"/>
      <psa30 value="0.0000103830" flag="0"/>
    </comp>
  </station>
</stationlist>
