<?xml version="1.0" encoding="UTF-8" standalone="yes"?>
<!DOCTYPE earthquake SYSTEM "stationlist.dtd">
<stationlist created="" xmlns="ch.ethz.sed.shakemap.usgs.xml">
  <station code="BNGB" name="BNGB" netid="KO" insttype="CMG-3ESPC" lat="38.9913" lon="40.6792">
    <comp name="--.HHZ">
      <acc value="0.0317558767" flag="0"/>
      <vel value="0.0168025461" flag="0"/>
      <psa03 value="0.0731014248" flag="0"/>
      <psa10 value="0.0124706901" flag="0"/>
      <psa30 value="0.0013592278" flag="0"/>
    </comp>
    <comp name="--.HHN">
      <acc value="0.0440578814" flag="0"/>
      <vel value="0.0191401237" flag="0"/>
      <psa03 value="0.1885845950" flag="0"/>
      <psa10 value="0.0132827889" flag="0"/>
      <psa30 value="0.0012678646" flag="0"/>
    </comp>
    <comp name="--.HHE">
      <acc value="0.0448237540" flag="0"/>
      <vel value="0.0180070558" flag="0"/>
      <psa03 value="0.0953039243" flag="0"/>
      <psa10 value="0.0178276279" flag="0"/>
      <psa30 value="0.0014506287" flag="0"/>
    </comp>
  </station>
  <station code="GURO" name="GURO" netid="KO" insttype="CMG-3T" lat="38.5509" lon="42.0322">
    <comp name="--.HHN">
      <acc value="0.0132239792" flag="0"/>
      <vel value="0.0049854100" flag="0"/>
      <psa03 value="0.0348415178" flag="0"/>
      <psa10 value="0.0028401688" flag="0"/>
      <psa30 value="0.0001663339" flag="0"/>
    </comp>
    <comp name="--.HHE">
      <acc value="0.0192948083" flag="0"/>
      <vel value="0.0084048544" flag="0"/>
      <psa03 value="0.0596406574" flag="0"/>
      <psa10 value="0.0038150782" flag="0"/>
      <psa30 value="0.0002767320" flag="0"/>
    </comp>
    <comp name="--.HHZ">
      <acc value="0.0224312179" flag="0"/>
      <vel value="0.0087480812" flag="0"/>
      <psa03 value="0.0555936217" flag="0"/>
      <psa10 value="0.0026770917" flag="0"/>
      <psa30 value="0.0001911260" flag="0"/>
    </comp>
  </station>
  <station code="KOPR" name="KOPR" netid="KO" insttype="CMG-3T" lat="39.9917" lon="41.8535">
    <comp name="--.HHE">
      <acc value="0.0039844360" flag="0"/>
      <vel value="0.0030832053" flag="0"/>
      <psa03 value="0.0110565112" flag="0"/>
      <psa10 value="0.0067353921" flag="0"/>
      <psa30 value="0.0006080879" flag="0"/>
    </comp>
    <comp name="--.HHN">
      <acc value="0.0045915304" flag="0"/>
      <vel value="0.0029548501" flag="0"/>
      <psa03 value="0.0132037281" flag="0"/>
      <psa10 value="0.0058285443" flag="0"/>
      <psa30 value="0.0005401640" flag="0"/>
    </comp>
    <comp name="--.HHZ">
      <acc value="0.0039970004" flag="0"/>
      <vel value="0.0024279552" flag="0"/>
      <psa03 value="0.0126396832" flag="0"/>
      <psa10 value="0.0054081849" flag="0"/>
      <psa30 value="0.0006884965" flag="0"/>
    </comp>
  </station>
  <station code="SVAN" name="SVAN" netid="KO" insttype="CMG-3T" lat="38.1511" lon="41.1984">
    <comp name="--.HHN">
      <acc value="0.0052247292" flag="0"/>
      <vel value="0.0019126466" flag="0"/>
      <psa03 value="0.0069300441" flag="0"/>
      <psa10 value="0.0019277149" flag="0"/>
      <psa30 value="0.0002892189" flag="0"/>
    </comp>
    <comp name="--.HHE">
      <acc value="0.0049604041" flag="0"/>
      <vel value="0.0032911923" flag="0"/>
      <psa03 value="0.0189457375" flag="0"/>
      <psa10 value="0.0026198353" flag="0"/>
      <psa30 value="0.0004871543" flag="0"/>
    </comp>
    <comp name="--.HHZ">
      <acc value="0.0038215715" flag="0"/>
      <vel value="0.0022815453" flag="0"/>
      <psa03 value="0.0108028405" flag="0"/>
      <psa10 value="0.0026131015" flag="0"/>
      <psa30 value="0.0006947269" flag="0"/>
    </comp>
  </station>
  <station code="YEDI" name="YEDI" netid="KO" insttype="CMG-3T" lat="39.4377" lon="40.5443">
    <comp name="--.HHN">
      <acc value="0.0005120377" flag="0"/>
      <vel value="0.0001889265" flag="0"/>
      <psa03 value="0.0015199649" flag="0"/>
      <psa10 value="0.0000994105" flag="0"/>
      <psa30 value="0.0000103830" flag="0"/>
    </comp>
    <comp name="--.HHZ">
      <acc value="0.0000327215" flag="0"/>
      <vel value="0.0000031290" flag="0"/>
      <psa03 value="0.0000103465" flag="0"/>
      <psa10 value="0.0000033344" flag="0"/>
      <psa30 value="0.0000006286" flag="0"/>
    </comp>
    <comp name="--.HHE">
      <acc value="0.1492242277" flag="0"/>
      <vel value="0.0439959847" flag="0"/>
      <psa03 value="0.1839074637" flag="0"/>
      <psa10 value="0.0188702174" flag="0"/>
      <psa30 value="0.0023652919" flag="0"/>
    </comp>
  </station>
</stationlist>
