<?xml version="1.0" encoding="UTF-8" standalone="yes"?>
<!DOCTYPE earthquake SYSTEM "stationlist.dtd">
<stationlist created="" xmlns="ch.ethz.sed.shakemap.usgs.xml">
  <station code="GAZ" name="GAZ" netid="KO" insttype="CMG-3T" lat="37.1721" lon="37.2096">
    <comp name="--.HHE">
      <acc value="0.0563374051" flag="0"/>
      <vel value="0.0148796597" flag="0"/>
      <psa03 value="0.0656433529" flag="0"/>
      <psa10 value="0.0071942620" flag="0"/>
      <psa30 value="0.0005856720" flag="0"/>
    </comp>
    <comp name="--.HHN">
      <acc value="0.0329919957" flag="0"/>
      <vel value="0.0080696218" flag="0"/>
      <psa03 value="0.0463379719" flag="0"/>
      <psa10 value="0.0073332275" flag="0"/>
      <psa30 value="0.0004346595" flag="0"/>
    </comp>
    <comp name="--.HHZ">
      <acc value="0.0308491358" flag="0"/>
      <vel value="0.0098270432" flag="0"/>
      <psa03 value="0.0584198403" flag="0"/>
      <psa10 value="0.0058135716" flag="0"/>
      <psa30 value="0.0004506785" flag="0"/>
    </comp>
  </station>
</stationlist>
