<?xml version="1.0" encoding="UTF-8" standalone="yes"?>
<!DOCTYPE earthquake SYSTEM "stationlist.dtd">
<stationlist created="" xmlns="ch.ethz.sed.shakemap.usgs.xml">
  <station code="APE" name="APE" netid="GE" insttype="STS-2/N" lat="37.0727" lon="25.523">
    <comp name="--.HHE">
      <acc value="0.0216927733" flag="0"/>
      <vel value="0.0065454017" flag="0"/>
      <psa03 value="0.0239225794" flag="0"/>
      <psa10 value="0.0048945147" flag="0"/>
      <psa30 value="0.0004692887" flag="0"/>
    </comp>
    <comp name="--.HHZ">
      <acc value="0.0090367557" flag="0"/>
      <vel value="0.0040733965" flag="0"/>
      <psa03 value="0.0204520156" flag="0"/>
      <psa10 value="0.0043603513" flag="0"/>
      <psa30 value="0.0005680029" flag="0"/>
    </comp>
    <comp name="--.HHN">
      <acc value="0.0193377468" flag="0"/>
      <vel value="0.0065769254" flag="0"/>
      <psa03 value="0.0355313004" flag="0"/>
      <psa10 value="0.0025153285" flag="0"/>
      <psa30 value="0.0003674751" flag="0"/>
    </comp>
  </station>
  <station code="THERA" name="THERA" netid="GE" insttype="STS-2/N" lat="36.367" lon="25.4753">
    <comp name="--.HHN">
      <acc value="0.1146136899" flag="0"/>
      <vel value="0.0293489959" flag="0"/>
      <psa03 value="0.1257927511" flag="0"/>
      <psa10 value="0.0067146348" flag="0"/>
      <psa30 value="0.0025000357" flag="0"/>
    </comp>
    <comp name="--.HHZ">
      <acc value="0.1220336225" flag="0"/>
      <vel value="0.0328840649" flag="0"/>
      <psa03 value="0.3024437507" flag="0"/>
      <psa10 value="0.0143187721" flag="0"/>
      <psa30 value="0.0027720620" flag="0"/>
    </comp>
    <comp name="--.HHE">
      <acc value="0.1314207232" flag="0"/>
      <vel value="0.0352126158" flag="0"/>
      <psa03 value="0.2122461576" flag="0"/>
      <psa10 value="0.0100571649" flag="0"/>
      <psa30 value="0.0024571956" flag="0"/>
    </comp>
  </station>
  <station code="IDI" name="IDI" netid="MN" insttype="" lat="35.288" lon="24.89">
    <comp name="--.HHN">
      <acc value="0.0277443500" flag="0"/>
      <vel value="0.0079961838" flag="0"/>
      <psa03 value="0.0444636210" flag="0"/>
      <psa10 value="0.0033053746" flag="0"/>
      <psa30 value="0.0003577141" flag="0"/>
    </comp>
    <comp name="--.HHE">
      <acc value="0.0281546565" flag="0"/>
      <vel value="0.0132698436" flag="0"/>
      <psa03 value="0.0526355158" flag="0"/>
      <psa10 value="0.0050587349" flag="0"/>
      <psa30 value="0.0007125918" flag="0"/>
    </comp>
    <comp name="--.HHZ">
      <acc value="0.0265709352" flag="0"/>
      <vel value="0.0084092042" flag="0"/>
      <psa03 value="0.0499277637" flag="0"/>
      <psa10 value="0.0057438645" flag="0"/>
      <psa30 value="0.0003328486" flag="0"/>
    </comp>
  </station>
</stationlist>
