<stationlist created="1778138917">
	<station code="KTHA" name="KTHA" netid="GE" source="GEOFON" insttype="" lat="36.2566" lon="23.0621">
		<comp name="--.HNE" depth="0.0">
			<acc value="0.0104288353916655" flag="0"/>
			<vel value="0.00539923116977282" flag="0"/>
			<psa03 value="0.029783702190765" flag="0"/>
			<psa10 value="0.00395222556554903" flag="0"/>
			<psa30 value="0.000605281919872878" flag="0"/>
		</comp>
		<comp name="--.HNN" depth="0.0">
			<acc value="0.00742437819267582" flag="0"/>
			<vel value="0.00404775404283907" flag="0"/>
			<psa03 value="0.0211072420011771" flag="0"/>
			<psa10 value="0.00476797913646139" flag="0"/>
			<psa30 value="0.00223247768235758" flag="0"/>
		</comp>
		<comp name="--.HNZ" depth="0.0">
			<acc value="0.0046536744908032" flag="0"/>
			<vel value="0.00200207540222669" flag="0"/>
			<psa03 value="0.0135917167907701" flag="0"/>
			<psa10 value="0.00366416077954308" flag="0"/>
			<psa30 value="0.00080646441389251" flag="0"/>
		</comp>
	</station>
	<station code="ABEA" name="ABEA" netid="HC" source="Seismological Network of Crete (HC)" insttype="" lat="35.5163" lon="24.0113">
		<comp name="--.HNE" depth="0.0">
			<acc value="0.0313712596703851" flag="0"/>
			<vel value="0.0130815832592283" flag="0"/>
			<psa03 value="0.0824819536081419" flag="0"/>
			<psa10 value="0.0117389151455001" flag="0"/>
			<psa30 value="0.00102095034128153" flag="0"/>
		</comp>
		<comp name="--.HNN" depth="0.0">
			<acc value="0.0544594940728249" flag="0"/>
			<vel value="0.0192370579339118" flag="0"/>
			<psa03 value="0.110042341848387" flag="0"/>
			<psa10 value="0.0137349267464761" flag="0"/>
			<psa30 value="0.00167589820753212" flag="0"/>
		</comp>
		<comp name="--.HNZ" depth="0.0">
			<acc value="0.021059322681052" flag="0"/>
			<vel value="0.00721360217156084" flag="0"/>
			<psa03 value="0.0331162588937864" flag="0"/>
			<psa10 value="0.00932988680920732" flag="0"/>
			<psa30 value="0.000705136972279501" flag="0"/>
		</comp>
	</station>
	<station code="ATEI" name="ATEI" netid="HC" source="Seismological Network of Crete (HC)" insttype="" lat="35.5193" lon="24.0432">
		<comp name="--.HNE" depth="0.0">
			<acc value="0.0371629292468685" flag="0"/>
			<vel value="0.013968957823448" flag="0"/>
			<psa03 value="0.0856608360681643" flag="0"/>
			<psa10 value="0.0112190894595997" flag="0"/>
			<psa30 value="0.00115381258025207" flag="0"/>
		</comp>
		<comp name="--.HNN" depth="0.0">
			<acc value="0.028068376830015" flag="0"/>
			<vel value="0.0172003327451388" flag="0"/>
			<psa03 value="0.0689532344799876" flag="0"/>
			<psa10 value="0.00871857475027201" flag="0"/>
			<psa30 value="0.00116436702943592" flag="0"/>
		</comp>
		<comp name="--.HNZ" depth="0.0">
			<acc value="0.0211287218378329" flag="0"/>
			<vel value="0.00769498162831045" flag="0"/>
			<psa03 value="0.037401555794519" flag="0"/>
			<psa10 value="0.008262892376069" flag="0"/>
			<psa30 value="0.00056775584020256" flag="0"/>
		</comp>
	</station>
	<station code="G0LD" name="G0LD" netid="HC" source="Seismological Network of Crete (HC)" insttype="" lat="35.4955" lon="24.0306">
		<comp name="--.HNE" depth="0.0">
			<acc value="0.0891565649549563" flag="0"/>
			<vel value="0.0315958200906981" flag="0"/>
			<psa03 value="0.17394101232186" flag="0"/>
			<psa10 value="0.0509684076570194" flag="0"/>
			<psa30 value="0.00226161919617062" flag="0"/>
		</comp>
		<comp name="--.HNN" depth="0.0">
			<acc value="0.0640605857638084" flag="0"/>
			<vel value="0.0253320701945475" flag="0"/>
			<psa03 value="0.177513363555764" flag="0"/>
			<psa10 value="0.0243870442719951" flag="0"/>
			<psa30 value="0.00197300632698584" flag="0"/>
		</comp>
		<comp name="--.HNZ" depth="0.0">
			<acc value="0.0380001142333324" flag="0"/>
			<vel value="0.0183270952132872" flag="0"/>
			<psa03 value="0.137768616078233" flag="0"/>
			<psa10 value="0.0234479126841419" flag="0"/>
			<psa30 value="0.0018903387673348" flag="0"/>
		</comp>
	</station>
	<station code="LENT" name="LENT" netid="HC" source="Seismological Network of Crete (HC)" insttype="" lat="35.5074" lon="24.0402">
		<comp name="--.HNE" depth="0.0">
			<acc value="0.0253549112402876" flag="0"/>
			<vel value="0.00973115371113985" flag="0"/>
			<psa03 value="0.0461435932447304" flag="0"/>
			<psa10 value="0.00972568146615923" flag="0"/>
			<psa30 value="0.00105514885676478" flag="0"/>
		</comp>
		<comp name="--.HNN" depth="0.0">
			<acc value="0.0495351725471622" flag="0"/>
			<vel value="0.0167812733284922" flag="0"/>
			<psa03 value="0.0972102626195173" flag="0"/>
			<psa10 value="0.0154656373350785" flag="0"/>
			<psa30 value="0.00103717079080636" flag="0"/>
		</comp>
		<comp name="--.HNZ" depth="0.0">
			<acc value="0.029154181822706" flag="0"/>
			<vel value="0.0109782915980706" flag="0"/>
			<psa03 value="0.0702704571563345" flag="0"/>
			<psa10 value="0.0128274163158753" flag="0"/>
			<psa30 value="0.00112542267872789" flag="0"/>
		</comp>
	</station>
	<station code="MULT" name="MULT" netid="HC" source="Seismological Network of Crete (HC)" insttype="" lat="35.5091" lon="24.0118">
		<comp name="--.HNE" depth="0.0">
			<acc value="0.0699668404091132" flag="0"/>
			<vel value="0.017579873540778" flag="0"/>
			<psa03 value="0.076269250380032" flag="0"/>
			<psa10 value="0.0127948425955361" flag="0"/>
			<psa30 value="0.00207873166410311" flag="0"/>
		</comp>
		<comp name="--.HNN" depth="0.0">
			<acc value="0.0545502780533359" flag="0"/>
			<vel value="0.0173140049763375" flag="0"/>
			<psa03 value="0.066290021597143" flag="0"/>
			<psa10 value="0.0141583457334259" flag="0"/>
			<psa30 value="0.00274082219101896" flag="0"/>
		</comp>
		<comp name="--.HNZ" depth="0.0">
			<acc value="0.0399332874670068" flag="0"/>
			<vel value="0.00876278583837794" flag="0"/>
			<psa03 value="0.0475698908553413" flag="0"/>
			<psa10 value="0.00649629097237511" flag="0"/>
			<psa30 value="0.00416190445574681" flag="0"/>
		</comp>
	</station>
	<station code="NERO" name="NERO" netid="HC" source="Seismological Network of Crete (HC)" insttype="" lat="35.474" lon="24.0423">
		<comp name="--.HNE" depth="0.0">
			<acc value="0.0189938101358456" flag="0"/>
			<vel value="0.00802070461888836" flag="0"/>
			<psa03 value="0.0343812307127988" flag="0"/>
			<psa10 value="0.00868809648125198" flag="0"/>
			<psa30 value="0.000831540397969529" flag="0"/>
		</comp>
		<comp name="--.HNN" depth="0.0">
			<acc value="0.0210065934145406" flag="0"/>
			<vel value="0.0089735364518895" flag="0"/>
			<psa03 value="0.0479205182491685" flag="0"/>
			<psa10 value="0.00910141604913848" flag="0"/>
			<psa30 value="0.00118846320902187" flag="0"/>
		</comp>
		<comp name="--.HNZ" depth="0.0">
			<acc value="0.0188200810767649" flag="0"/>
			<vel value="0.00640365093078631" flag="0"/>
			<psa03 value="0.0342429559277523" flag="0"/>
			<psa10 value="0.00812028074123016" flag="0"/>
			<psa30 value="0.000954712203331515" flag="0"/>
		</comp>
	</station>
	<station code="PASK" name="PASK" netid="HC" source="Seismological Network of Crete (HC)" insttype="" lat="35.4996" lon="24.0121">
		<comp name="--.HNE" depth="0.0">
			<acc value="0.0369420485342658" flag="0"/>
			<vel value="0.0187363896179373" flag="0"/>
			<psa03 value="0.114032793696383" flag="0"/>
			<psa10 value="0.0213521932280151" flag="0"/>
			<psa30 value="0.0015466707926849" flag="0"/>
		</comp>
		<comp name="--.HNN" depth="0.0">
			<acc value="0.0458167999119506" flag="0"/>
			<vel value="0.0187599442099406" flag="0"/>
			<psa03 value="0.0783961152328618" flag="0"/>
			<psa10 value="0.0193561272484261" flag="0"/>
			<psa30 value="0.00120831410737885" flag="0"/>
		</comp>
		<comp name="--.HNZ" depth="0.0">
			<acc value="0.0340985217159802" flag="0"/>
			<vel value="0.0145101468905372" flag="0"/>
			<psa03 value="0.0791173192590532" flag="0"/>
			<psa10 value="0.0122419209671959" flag="0"/>
			<psa30 value="0.000705915305092887" flag="0"/>
		</comp>
	</station>
	<station code="POLY" name="POLY" netid="HC" source="Seismological Network of Crete (HC)" insttype="" lat="35.5226" lon="24.0602">
		<comp name="--.HNE" depth="0.0">
			<acc value="0.0244480417028632" flag="0"/>
			<vel value="0.00906365116659699" flag="0"/>
			<psa03 value="0.0476394215030244" flag="0"/>
			<psa10 value="0.0104510901459379" flag="0"/>
			<psa30 value="0.00090561374246749" flag="0"/>
		</comp>
		<comp name="--.HNN" depth="0.0">
			<acc value="0.027952572200402" flag="0"/>
			<vel value="0.0105629478793513" flag="0"/>
			<psa03 value="0.0803593390367556" flag="0"/>
			<psa10 value="0.00850594410205485" flag="0"/>
			<psa30 value="0.000831462997007972" flag="0"/>
		</comp>
		<comp name="--.HNZ" depth="0.0">
			<acc value="0.0215472715668859" flag="0"/>
			<vel value="0.00915456854948181" flag="0"/>
			<psa03 value="0.0548168709318997" flag="0"/>
			<psa10 value="0.00419550980695148" flag="0"/>
			<psa30 value="0.000837758830742786" flag="0"/>
		</comp>
	</station>
	<station code="SOUD" name="SOUD" netid="HC" source="Seismological Network of Crete (HC)" insttype="" lat="35.4878" lon="24.0678">
		<comp name="--.HNE" depth="0.0">
			<acc value="0.079604804362686" flag="0"/>
			<vel value="0.0275348101117766" flag="0"/>
			<psa03 value="0.171918409584351" flag="0"/>
			<psa10 value="0.0188453846642538" flag="0"/>
			<psa30 value="0.00101234904232306" flag="0"/>
		</comp>
		<comp name="--.HNN" depth="0.0">
			<acc value="0.0807554722622306" flag="0"/>
			<vel value="0.0356377788763437" flag="0"/>
			<psa03 value="0.124245730669847" flag="0"/>
			<psa10 value="0.0245640822498928" flag="0"/>
			<psa30 value="0.00144683532490407" flag="0"/>
		</comp>
		<comp name="--.HNZ" depth="0.0">
			<acc value="0.00731156552904269" flag="0"/>
			<vel value="0.00388441088556241" flag="0"/>
			<psa03 value="0.00733204105028481" flag="0"/>
			<psa10 value="0.00415942913551415" flag="0"/>
			<psa30 value="0.0027234791671273" flag="0"/>
		</comp>
	</station>
	<station code="CH01" name="CH01" netid="HI" source="ITSAK Strong Motion Network" insttype="" lat="35.517" lon="24.0208">
		<comp name="--.HNE" depth="0.0">
			<acc value="0.0308648959225378" flag="0"/>
			<vel value="0.0119435089358322" flag="0"/>
			<psa03 value="0.0565503816019027" flag="0"/>
			<psa10 value="0.00894061852209348" flag="0"/>
			<psa30 value="0.000900893742287651" flag="0"/>
		</comp>
		<comp name="--.HNN" depth="0.0">
			<acc value="0.0368862045133451" flag="0"/>
			<vel value="0.0180946541223716" flag="0"/>
			<psa03 value="0.0881915818425901" flag="0"/>
			<psa10 value="0.0136379387590143" flag="0"/>
			<psa30 value="0.000809408098479136" flag="0"/>
		</comp>
		<comp name="--.HNZ" depth="0.0">
			<acc value="0.0193956388490371" flag="0"/>
			<vel value="0.00674317587881637" flag="0"/>
			<psa03 value="0.0379202281748277" flag="0"/>
			<psa10 value="0.00925140629775189" flag="0"/>
			<psa30 value="0.000383249841546127" flag="0"/>
		</comp>
	</station>
	<station code="KSS1" name="KSS1" netid="HI" source="ITSAK Strong Motion Network" insttype="" lat="35.4189" lon="26.9207">
		<comp name="--.HNE" depth="0.0">
			<acc value="0.0025307545689677" flag="0"/>
			<vel value="0.00157014838825806" flag="0"/>
			<psa03 value="0.00933599932349982" flag="0"/>
			<psa10 value="0.00203636661804587" flag="0"/>
			<psa30 value="0.000227290004763805" flag="0"/>
		</comp>
		<comp name="--.HNN" depth="0.0">
			<acc value="0.00342342394563834" flag="0"/>
			<vel value="0.00233409017936372" flag="0"/>
			<psa03 value="0.0169499366521992" flag="0"/>
			<psa10 value="0.00269102076691923" flag="0"/>
			<psa30 value="0.000305294911789665" flag="0"/>
		</comp>
		<comp name="--.HNZ" depth="0.0">
			<acc value="0.00193932799329023" flag="0"/>
			<vel value="0.00183877447904189" flag="0"/>
			<psa03 value="0.00334303884272782" flag="0"/>
			<psa10 value="0.00224452275111784" flag="0"/>
			<psa30 value="0.000331626499878087" flag="0"/>
		</comp>
	</station>
	<station code="NAX1" name="NAX1" netid="HI" source="ITSAK Strong Motion Network" insttype="" lat="37.101394" lon="25.374103">
		<comp name="--.HNE" depth="0.0">
			<acc value="0.0184711203028391" flag="0"/>
			<vel value="0.00712586187748727" flag="0"/>
			<psa03 value="0.0297458793727089" flag="0"/>
			<psa10 value="0.00579823847984772" flag="0"/>
			<psa30 value="0.000628191406266107" flag="0"/>
		</comp>
		<comp name="--.HNN" depth="0.0">
			<acc value="0.0244543437806471" flag="0"/>
			<vel value="0.00683678401353885" flag="0"/>
			<psa03 value="0.0361187676911124" flag="0"/>
			<psa10 value="0.00406831684977352" flag="0"/>
			<psa30 value="0.000737872109574134" flag="0"/>
		</comp>
		<comp name="--.HNZ" depth="0.0">
			<acc value="0.0160244629451133" flag="0"/>
			<vel value="0.00718852325153459" flag="0"/>
			<psa03 value="0.0287566445699263" flag="0"/>
			<psa10 value="0.00251239948101205" flag="0"/>
			<psa30 value="0.000755741105804488" flag="0"/>
		</comp>
	</station>
	<station code="SIT2" name="SIT2" netid="HI" source="ITSAK Strong Motion Network" insttype="" lat="35.2059" lon="26.107">
		<comp name="--.HNE" depth="0.0">
			<acc value="0.0575742094946899" flag="0"/>
			<vel value="0.0398372507459949" flag="0"/>
			<psa03 value="0.111136060135314" flag="0"/>
			<psa10 value="0.0301592691535649" flag="0"/>
			<psa30 value="0.00149341330630013" flag="0"/>
		</comp>
		<comp name="--.HNN" depth="0.0">
			<acc value="0.0353115880018869" flag="0"/>
			<vel value="0.0292669628305149" flag="0"/>
			<psa03 value="0.136695232471425" flag="0"/>
			<psa10 value="0.0278261102182243" flag="0"/>
			<psa30 value="0.00108451330201822" flag="0"/>
		</comp>
		<comp name="--.HNZ" depth="0.0">
			<acc value="0.025168743839738" flag="0"/>
			<vel value="0.00868855069027736" flag="0"/>
			<psa03 value="0.0692857929685686" flag="0"/>
			<psa10 value="0.00697090741341307" flag="0"/>
			<psa30 value="0.000463945265347495" flag="0"/>
		</comp>
	</station>
	<station code="IACM" name="IACM" netid="HL" source="National Observatory of Athens Seismic Network" insttype="" lat="35.3058" lon="25.0709">
		<comp name="--.HNE" depth="0.0">
			<acc value="0.109257669987849" flag="0"/>
			<vel value="0.0519279543910898" flag="0"/>
			<psa03 value="0.241239855956543" flag="0"/>
			<psa10 value="0.0543463089261099" flag="0"/>
			<psa30 value="0.00348541526665448" flag="0"/>
		</comp>
		<comp name="--.HNN" depth="0.0">
			<acc value="0.0914500002226901" flag="0"/>
			<vel value="0.0405261034937841" flag="0"/>
			<psa03 value="0.233060397440963" flag="0"/>
			<psa10 value="0.0406228035613208" flag="0"/>
			<psa30 value="0.001960101513774" flag="0"/>
		</comp>
		<comp name="--.HNZ" depth="0.0">
			<acc value="0.0747321961610392" flag="0"/>
			<vel value="0.0265157242618357" flag="0"/>
			<psa03 value="0.147668126038499" flag="0"/>
			<psa10 value="0.0257064904288501" flag="0"/>
			<psa30 value="0.000886357050139779" flag="0"/>
		</comp>
	</station>
	<station code="IMMV" name="IMMV" netid="HL" source="National Observatory of Athens Seismic Network" insttype="" lat="35.4606" lon="23.9811">
		<comp name="--.HNE" depth="0.0">
			<acc value="0.0208260305239508" flag="0"/>
			<vel value="0.00781715266740744" flag="0"/>
			<psa03 value="0.0561525687906258" flag="0"/>
			<psa10 value="0.00905521017573094" flag="0"/>
			<psa30 value="0.000692934653518688" flag="0"/>
		</comp>
		<comp name="--.HNN" depth="0.0">
			<acc value="0.0244591644796638" flag="0"/>
			<vel value="0.00895834203656237" flag="0"/>
			<psa03 value="0.0655740991705484" flag="0"/>
			<psa10 value="0.0189741869467521" flag="0"/>
			<psa30 value="0.000547000246499435" flag="0"/>
		</comp>
		<comp name="--.HNZ" depth="0.0">
			<acc value="0.0159241977607155" flag="0"/>
			<vel value="0.00741218484122639" flag="0"/>
			<psa03 value="0.0452793172407201" flag="0"/>
			<psa10 value="0.00369992994595102" flag="0"/>
			<psa30 value="0.000291216531249218" flag="0"/>
		</comp>
	</station>
	<station code="KARP" name="KARP" netid="HL" source="National Observatory of Athens Seismic Network" insttype="" lat="35.5471" lon="27.16106">
		<comp name="--.HNE" depth="0.0">
			<acc value="0.00790651385285777" flag="0"/>
			<vel value="0.00243807879670532" flag="0"/>
			<psa03 value="0.00999322189771816" flag="0"/>
			<psa10 value="0.00462347503252274" flag="0"/>
			<psa30 value="0.000408139745588473" flag="0"/>
		</comp>
		<comp name="--.HNN" depth="0.0">
			<acc value="0.00816525697520228" flag="0"/>
			<vel value="0.00249414812117464" flag="0"/>
			<psa03 value="0.00752456877827037" flag="0"/>
			<psa10 value="0.00334324123894951" flag="0"/>
			<psa30 value="0.000535965713429629" flag="0"/>
		</comp>
		<comp name="--.HNZ" depth="0.0">
			<acc value="0.00307431336285462" flag="0"/>
			<vel value="0.0017655499037313" flag="0"/>
			<psa03 value="0.00771402794358006" flag="0"/>
			<psa10 value="0.00209311959640225" flag="0"/>
			<psa30 value="0.000314452237167498" flag="0"/>
		</comp>
	</station>
	<station code="KLNA" name="KLNA" netid="HL" source="National Observatory of Athens Seismic Network" insttype="" lat="36.95708" lon="26.97274">
		<comp name="00.HNE" depth="0.0">
			<acc value="0.00426390367506864" flag="0"/>
			<vel value="0.00223055550571847" flag="0"/>
			<psa03 value="0.0155135420189175" flag="0"/>
			<psa10 value="0.00135481357787431" flag="0"/>
			<psa30 value="0.000207440070011672" flag="0"/>
		</comp>
		<comp name="00.HNN" depth="0.0">
			<acc value="0.00498070162974537" flag="0"/>
			<vel value="0.00226225983982794" flag="0"/>
			<psa03 value="0.0169027694650958" flag="0"/>
			<psa10 value="0.00166754784967387" flag="0"/>
			<psa30 value="0.000303218263805225" flag="0"/>
		</comp>
		<comp name="00.HNZ" depth="0.0">
			<acc value="0.00455116293296334" flag="0"/>
			<vel value="0.00151958875658552" flag="0"/>
			<psa03 value="0.00728145111041504" flag="0"/>
			<psa10 value="0.00136250498582966" flag="0"/>
			<psa30 value="0.00046761681065257" flag="0"/>
		</comp>
	</station>
	<station code="KSTE" name="KSTE" netid="HL" source="National Observatory of Athens Seismic Network" insttype="" lat="35.1801" lon="25.3372">
		<comp name="--.HNE" depth="0.0">
			<acc value="0.0113555077908738" flag="0"/>
			<vel value="0.00598911088161515" flag="0"/>
			<psa03 value="0.018673898512456" flag="0"/>
			<psa10 value="0.00615773026315274" flag="0"/>
			<psa30 value="0.000845416265094574" flag="0"/>
		</comp>
		<comp name="--.HNN" depth="0.0">
			<acc value="0.01467414709435" flag="0"/>
			<vel value="0.00729024779826109" flag="0"/>
			<psa03 value="0.0245202623678734" flag="0"/>
			<psa10 value="0.00782867783024192" flag="0"/>
			<psa30 value="0.000510312555701542" flag="0"/>
		</comp>
		<comp name="--.HNZ" depth="0.0">
			<acc value="0.0135530300817715" flag="0"/>
			<vel value="0.00521188238055946" flag="0"/>
			<psa03 value="0.029210372543829" flag="0"/>
			<psa10 value="0.00583939980032105" flag="0"/>
			<psa30 value="0.000657829515476916" flag="0"/>
		</comp>
	</station>
	<station code="MNVA" name="MNVA" netid="HL" source="National Observatory of Athens Seismic Network" insttype="" lat="36.68709" lon="23.03734">
		<comp name="00.HNE" depth="0.0">
			<acc value="0.00255953830726594" flag="0"/>
			<vel value="0.00159330818057734" flag="0"/>
			<psa03 value="0.00779222973864498" flag="0"/>
			<psa10 value="0.00217167792550295" flag="0"/>
			<psa30 value="0.00031390194029641" flag="0"/>
		</comp>
		<comp name="00.HNN" depth="0.0">
			<acc value="0.0023574415127606" flag="0"/>
			<vel value="0.00113090662612836" flag="0"/>
			<psa03 value="0.00572841398451914" flag="0"/>
			<psa10 value="0.000822971861598794" flag="0"/>
			<psa30 value="0.000198002322411359" flag="0"/>
		</comp>
		<comp name="00.HNZ" depth="0.0">
			<acc value="0.00197512831820217" flag="0"/>
			<vel value="0.00131385683923924" flag="0"/>
			<psa03 value="0.00513558825437866" flag="0"/>
			<psa10 value="0.00133488358573439" flag="0"/>
			<psa30 value="0.000320331793325983" flag="0"/>
		</comp>
	</station>
