<?xml version="1.0" encoding="UTF-8" standalone="yes"?>
<!DOCTYPE earthquake SYSTEM "stationlist.dtd">
<stationlist created="" xmlns="ch.ethz.sed.shakemap.usgs.xml">
  <station code="APE" name="APE" netid="GE" insttype="STS-2/N" lat="37.0727" lon="25.523">
    <comp name="--.HHE">
      <acc value="0.0216927731" flag="0"/>
      <vel value="0.0065454013" flag="0"/>
      <psa03 value="0.0239225794" flag="0"/>
      <psa10 value="0.0048945147" flag="0"/>
      <psa30 value="0.0004692711" flag="0"/>
    </comp>
    <comp name="--.HHN">
      <acc value="0.0193377465" flag="0"/>
      <vel value="0.0065769256" flag="0"/>
      <psa03 value="0.0355313004" flag="0"/>
      <psa10 value="0.0025153285" flag="0"/>
      <psa30 value="0.0003673259" flag="0"/>
    </comp>
    <comp name="--.HHZ">
      <acc value="0.0090367556" flag="0"/>
      <vel value="0.0040733968" flag="0"/>
      <psa03 value="0.0204520156" flag="0"/>
      <psa10 value="0.0043603513" flag="0"/>
      <psa30 value="0.0005680113" flag="0"/>
    </comp>
  </station>
  <station code="THERA" name="THERA" netid="GE" insttype="STS-2/N" lat="36.367" lon="25.4753">
    <comp name="--.HHE">
      <acc value="0.1314207230" flag="0"/>
      <vel value="0.0352126160" flag="0"/>
      <psa03 value="0.2122461576" flag="0"/>
      <psa10 value="0.0100571649" flag="0"/>
      <psa30 value="0.0024571952" flag="0"/>
    </comp>
    <comp name="--.HHZ">
      <acc value="0.1220336227" flag="0"/>
      <vel value="0.0328840648" flag="0"/>
      <psa03 value="0.3024437507" flag="0"/>
      <psa10 value="0.0143187721" flag="0"/>
      <psa30 value="0.0027720447" flag="0"/>
    </comp>
    <comp name="--.HHN">
      <acc value="0.1146136898" flag="0"/>
      <vel value="0.0293489959" flag="0"/>
      <psa03 value="0.1257927511" flag="0"/>
      <psa10 value="0.0067146338" flag="0"/>
      <psa30 value="0.0025000434" flag="0"/>
    </comp>
  </station>
  <station code="SNT5" name="SNT5" netid="HA" insttype="1s-100Hz," lat="36.4037" lon="25.3953">
    <comp name="--.HHN">
      <acc value="0.3912491827" flag="0"/>
      <vel value="0.0941462125" flag="0"/>
      <psa03 value="0.4358848313" flag="0"/>
      <psa10 value="0.0279862842" flag="0"/>
      <psa30 value="0.0136103319" flag="0"/>
    </comp>
    <comp name="--.HHZ">
      <acc value="0.2083319356" flag="0"/>
      <vel value="0.0378016204" flag="0"/>
      <psa03 value="0.1016123606" flag="0"/>
      <psa10 value="0.0104535411" flag="0"/>
      <psa30 value="0.0025417128" flag="0"/>
    </comp>
    <comp name="--.HHE">
      <acc value="0.5378462029" flag="0"/>
      <vel value="0.1521965813" flag="0"/>
      <psa03 value="0.6212209723" flag="0"/>
      <psa10 value="0.0383443101" flag="0"/>
      <psa30 value="0.0075199262" flag="0"/>
    </comp>
  </station>
  <station code="KNSS" name="KNSS" netid="HC" insttype="60" lat="35.3042" lon="25.1802">
    <comp name="--.HHZ">
      <acc value="0.0368381339" flag="0"/>
      <vel value="0.0133296907" flag="0"/>
      <psa03 value="0.0759816930" flag="0"/>
      <psa10 value="0.0081046908" flag="0"/>
      <psa30 value="0.0006277511" flag="0"/>
    </comp>
    <comp name="--.HHE">
      <acc value="0.0336716842" flag="0"/>
      <vel value="0.0177719788" flag="0"/>
      <psa03 value="0.1118546665" flag="0"/>
      <psa10 value="0.0116722860" flag="0"/>
      <psa30 value="0.0008071893" flag="0"/>
    </comp>
    <comp name="--.HHN">
      <acc value="0.0395358208" flag="0"/>
      <vel value="0.0143637381" flag="0"/>
      <psa03 value="0.1173224894" flag="0"/>
      <psa10 value="0.0092854720" flag="0"/>
      <psa30 value="0.0006858429" flag="0"/>
    </comp>
  </station>
  <station code="APE" name="APE" netid="HL" insttype="120" lat="37.0727" lon="25.523">
    <comp name="--.HHN">
      <acc value="0.0186600849" flag="0"/>
      <vel value="0.0062584326" flag="0"/>
      <psa03 value="0.0347535430" flag="0"/>
      <psa10 value="0.0024922716" flag="0"/>
      <psa30 value="0.0003667409" flag="0"/>
    </comp>
    <comp name="--.HHE">
      <acc value="0.0205678739" flag="0"/>
      <vel value="0.0063365686" flag="0"/>
      <psa03 value="0.0232719830" flag="0"/>
      <psa10 value="0.0048482025" flag="0"/>
      <psa30 value="0.0004671357" flag="0"/>
    </comp>
    <comp name="--.HHZ">
      <acc value="0.0087888476" flag="0"/>
      <vel value="0.0040228289" flag="0"/>
      <psa03 value="0.0198603007" flag="0"/>
      <psa10 value="0.0043386239" flag="0"/>
      <psa30 value="0.0005660809" flag="0"/>
    </comp>
  </station>
  <station code="CRE1" name="CRE1" netid="HL" insttype="LE3D20_SMART24" lat="35.2267" lon="25.2497">
    <comp name="--.HHE">
      <acc value="0.0587161292" flag="0"/>
      <vel value="0.0231037922" flag="0"/>
      <psa03 value="0.0945892065" flag="0"/>
      <psa10 value="0.0167756030" flag="0"/>
      <psa30 value="0.0010012571" flag="0"/>
    </comp>
    <comp name="--.HHZ">
      <acc value="0.0394584732" flag="0"/>
      <vel value="0.0128305795" flag="0"/>
      <psa03 value="0.0477396281" flag="0"/>
      <psa10 value="0.0127161249" flag="0"/>
      <psa30 value="0.0008685467" flag="0"/>
    </comp>
    <comp name="--.HHN">
      <acc value="0.0760089947" flag="0"/>
      <vel value="0.0197211483" flag="0"/>
      <psa03 value="0.0957614732" flag="0"/>
      <psa10 value="0.0150788450" flag="0"/>
      <psa30 value="0.0008381373" flag="0"/>
    </comp>
  </station>
  <station code="CRE3" name="CRE3" netid="HL" insttype="LE3D20_SMART24" lat="35.0769" lon="25.2462">
    <comp name="--.HHZ">
      <acc value="0.0488161872" flag="0"/>
      <vel value="0.0179852391" flag="0"/>
      <psa03 value="0.1131821714" flag="0"/>
      <psa10 value="0.0234606250" flag="0"/>
      <psa30 value="0.0019018367" flag="0"/>
    </comp>
    <comp name="--.HHN">
      <acc value="0.1139893140" flag="0"/>
      <vel value="0.0386836473" flag="0"/>
      <psa03 value="0.2327848720" flag="0"/>
      <psa10 value="0.0264725570" flag="0"/>
      <psa30 value="0.0026420955" flag="0"/>
    </comp>
    <comp name="--.HHE">
      <acc value="0.1073554484" flag="0"/>
      <vel value="0.0467111540" flag="0"/>
      <psa03 value="0.2461555979" flag="0"/>
      <psa10 value="0.0463034339" flag="0"/>
      <psa30 value="0.0022198394" flag="0"/>
    </comp>
  </station>
  <station code="IACM" name="IACM" netid="HL" insttype="120" lat="35.3058" lon="25.0709">
    <comp name="--.HHN">
      <acc value="0.0613755237" flag="0"/>
      <vel value="0.0276688827" flag="0"/>
      <psa03 value="0.1737602621" flag="0"/>
      <psa10 value="0.0226244871" flag="0"/>
      <psa30 value="0.0015813329" flag="0"/>
    </comp>
    <comp name="--.HHE">
      <acc value="0.0291779040" flag="0"/>
      <vel value="0.0019543717" flag="0"/>
      <psa03 value="0.0077410252" flag="0"/>
      <psa10 value="0.0009490921" flag="0"/>
      <psa30 value="0.0001739149" flag="0"/>
    </comp>
    <comp name="--.HHZ">
      <acc value="0.0510646968" flag="0"/>
      <vel value="0.0224025888" flag="0"/>
      <psa03 value="0.1420649689" flag="0"/>
      <psa10 value="0.0183615937" flag="0"/>
      <psa30 value="0.0012860826" flag="0"/>
    </comp>
  </station>
  <station code="IDI" name="IDI" netid="HL" insttype="120" lat="35.288" lon="24.89">
    <comp name="--.HHN">
      <acc value="0.0260247670" flag="0"/>
      <vel value="0.0078438320" flag="0"/>
      <psa03 value="0.0439466252" flag="0"/>
      <psa10 value="0.0032917494" flag="0"/>
      <psa30 value="0.0003574177" flag="0"/>
    </comp>
    <comp name="--.HHZ">
      <acc value="0.0253249282" flag="0"/>
      <vel value="0.0082274336" flag="0"/>
      <psa03 value="0.0487511001" flag="0"/>
      <psa10 value="0.0057901320" flag="0"/>
      <psa30 value="0.0003340064" flag="0"/>
    </comp>
    <comp name="--.HHE">
      <acc value="0.0268547364" flag="0"/>
      <vel value="0.0131033668" flag="0"/>
      <psa03 value="0.0517492927" flag="0"/>
      <psa10 value="0.0050409522" flag="0"/>
      <psa30 value="0.0007154764" flag="0"/>
    </comp>
  </station>
  <station code="KSTE" name="KSTE" netid="HL" insttype="60" lat="35.1801" lon="25.3372">
    <comp name="--.HHZ">
      <acc value="0.0141793443" flag="0"/>
      <vel value="0.0055032620" flag="0"/>
      <psa03 value="0.0306688429" flag="0"/>
      <psa10 value="0.0060223372" flag="0"/>
      <psa30 value="0.0003982233" flag="0"/>
    </comp>
    <comp name="--.HHN">
      <acc value="0.0149653914" flag="0"/>
      <vel value="0.0074964884" flag="0"/>
      <psa03 value="0.0249870750" flag="0"/>
      <psa10 value="0.0077864266" flag="0"/>
      <psa30 value="0.0004516409" flag="0"/>
    </comp>
    <comp name="--.HHE">
      <acc value="0.0117176295" flag="0"/>
      <vel value="0.0061195360" flag="0"/>
      <psa03 value="0.0178155182" flag="0"/>
      <psa10 value="0.0064412639" flag="0"/>
      <psa30 value="0.0007260013" flag="0"/>
    </comp>
  </station>
  <station code="MHLO" name="MHLO" netid="HL" insttype="20" lat="36.6898" lon="24.4017">
    <comp name="--.HHN">
      <acc value="0.0797388830" flag="0"/>
      <vel value="0.0390226556" flag="0"/>
      <psa03 value="0.1142272503" flag="0"/>
      <psa10 value="0.0474792702" flag="0"/>
      <psa30 value="0.0018136832" flag="0"/>
    </comp>
    <comp name="--.HHE">
      <acc value="0.0983467274" flag="0"/>
      <vel value="0.0389472036" flag="0"/>
      <psa03 value="0.1438952099" flag="0"/>
      <psa10 value="0.0295075346" flag="0"/>
      <psa30 value="0.0014552960" flag="0"/>
    </comp>
    <comp name="--.HHZ">
      <acc value="0.0369965075" flag="0"/>
      <vel value="0.0198771303" flag="0"/>
      <psa03 value="0.0710926729" flag="0"/>
      <psa10 value="0.0159307958" flag="0"/>
      <psa30 value="0.0007223108" flag="0"/>
    </comp>
  </station>
  <station code="NPS" name="NPS" netid="HL" insttype="CMG3ESPC-120s" lat="35.2613" lon="25.6104">
    <comp name="--.HHE">
      <acc value="0.0117839011" flag="0"/>
      <vel value="0.0048027084" flag="0"/>
      <psa03 value="0.0267886259" flag="0"/>
      <psa10 value="0.0039020222" flag="0"/>
      <psa30 value="0.0002418579" flag="0"/>
    </comp>
    <comp name="--.HHN">
      <acc value="0.0277551563" flag="0"/>
      <vel value="0.0128881779" flag="0"/>
      <psa03 value="0.0557511696" flag="0"/>
      <psa10 value="0.0146703026" flag="0"/>
      <psa30 value="0.0006513082" flag="0"/>
    </comp>
    <comp name="--.HHZ">
      <acc value="0.0202177522" flag="0"/>
      <vel value="0.0069379548" flag="0"/>
      <psa03 value="0.0340740933" flag="0"/>
      <psa10 value="0.0083021352" flag="0"/>
      <psa30 value="0.0004420180" flag="0"/>
    </comp>
  </station>
  <station code="SAP3" name="SAP3" netid="HL" insttype="LE3D20_SMART24" lat="36.4356" lon="25.3454">
    <comp name="--.HHE">
      <acc value="0.5108895247" flag="0"/>
      <vel value="0.1545556995" flag="0"/>
      <psa03 value="1.0993009926" flag="0"/>
      <psa10 value="0.1308849183" flag="0"/>
      <psa30 value="0.0258722702" flag="0"/>
    </comp>
    <comp name="--.HHZ">
      <acc value="0.4899361653" flag="0"/>
      <vel value="0.1522813027" flag="0"/>
      <psa03 value="0.5797967573" flag="0"/>
      <psa10 value="0.0480042094" flag="0"/>
      <psa30 value="0.0057500969" flag="0"/>
    </comp>
    <comp name="--.HHN">
      <acc value="0.6468831526" flag="0"/>
      <vel value="0.2042705553" flag="0"/>
      <psa03 value="0.9270773347" flag="0"/>
      <psa10 value="0.0998817780" flag="0"/>
      <psa30 value="0.0361312160" flag="0"/>
    </comp>
  </station>
  <station code="THERA" name="THERA" netid="HL" insttype="120" lat="36.367" lon="25.4753">
    <comp name="--.HHN">
      <acc value="0.1143004658" flag="0"/>
      <vel value="0.0285108614" flag="0"/>
      <psa03 value="0.1224400615" flag="0"/>
      <psa10 value="0.0066150706" flag="0"/>
      <psa30 value="0.0024991288" flag="0"/>
    </comp>
    <comp name="--.HHE">
      <acc value="0.1315259351" flag="0"/>
      <vel value="0.0347823745" flag="0"/>
      <psa03 value="0.2064034956" flag="0"/>
      <psa10 value="0.0099917252" flag="0"/>
      <psa30 value="0.0024579557" flag="0"/>
    </comp>
    <comp name="--.HHZ">
      <acc value="0.1224068203" flag="0"/>
      <vel value="0.0320226894" flag="0"/>
      <psa03 value="0.2941755924" flag="0"/>
      <psa10 value="0.0142427867" flag="0"/>
      <psa30 value="0.0027733574" flag="0"/>
    </comp>
  </station>
  <station code="THRA" name="THRA" netid="HL" insttype="CMG-5" lat="36.415" lon="25.4324">
    <comp name="00.HNE">
      <acc value="0.2672782583" flag="0"/>
      <vel value="0.0718136839" flag="0"/>
      <psa03 value="0.3895381632" flag="0"/>
      <psa10 value="0.0711377739" flag="0"/>
      <psa30 value="0.0093677429" flag="0"/>
    </comp>
    <comp name="00.HNZ">
      <acc value="0.1860678558" flag="0"/>
      <vel value="0.0390948208" flag="0"/>
      <psa03 value="0.2570219638" flag="0"/>
      <psa10 value="0.0239169408" flag="0"/>
      <psa30 value="0.0030835261" flag="0"/>
    </comp>
    <comp name="00.HNN">
      <acc value="0.2680858682" flag="0"/>
      <vel value="0.0743080853" flag="0"/>
      <psa03 value="0.3802725634" flag="0"/>
      <psa10 value="0.0498191722" flag="0"/>
      <psa30 value="0.0083158871" flag="0"/>
    </comp>
  </station>
  <station code="CMBO" name="CMBO" netid="HT" insttype="120P," lat="36.4709" lon="25.4056">
    <comp name="--.HHE">
      <acc value="0.1631255291" flag="0"/>
      <vel value="0.0624956817" flag="0"/>
      <psa03 value="0.2811401962" flag="0"/>
      <psa10 value="0.0361495747" flag="0"/>
      <psa30 value="0.0104990533" flag="0"/>
    </comp>
    <comp name="--.HHN">
      <acc value="0.1728851485" flag="0"/>
      <vel value="0.0583968561" flag="0"/>
      <psa03 value="0.2778456566" flag="0"/>
      <psa10 value="0.0509917691" flag="0"/>
      <psa30 value="0.0147665718" flag="0"/>
    </comp>
    <comp name="--.HHZ">
      <acc value="0.2254895041" flag="0"/>
      <vel value="0.0581808770" flag="0"/>
      <psa03 value="0.3370632552" flag="0"/>
      <psa10 value="0.0224974177" flag="0"/>
      <psa30 value="0.0072643296" flag="0"/>
    </comp>
  </station>
  <station code="IDI" name="IDI" netid="MN" insttype="" lat="35.288" lon="24.89">
    <comp name="--.HHE">
      <acc value="0.0281546565" flag="0"/>
      <vel value="0.0132698435" flag="0"/>
      <psa03 value="0.0526355158" flag="0"/>
      <psa10 value="0.0050587349" flag="0"/>
      <psa30 value="0.0007125886" flag="0"/>
    </comp>
    <comp name="--.HHN">
      <acc value="0.0277443500" flag="0"/>
      <vel value="0.0079961839" flag="0"/>
      <psa03 value="0.0444636210" flag="0"/>
      <psa10 value="0.0033053747" flag="0"/>
      <psa30 value="0.0003577143" flag="0"/>
    </comp>
    <comp name="--.HHZ">
      <acc value="0.0265709352" flag="0"/>
      <vel value="0.0084092043" flag="0"/>
      <psa03 value="0.0499277637" flag="0"/>
      <psa10 value="0.0057438645" flag="0"/>
      <psa30 value="0.0003328523" flag="0"/>
    </comp>
  </station>
</stationlist>
