<?xml version="1.0" encoding="UTF-8" standalone="yes"?>
<!DOCTYPE earthquake SYSTEM "stationlist.dtd">
<stationlist created="" xmlns="ch.ethz.sed.shakemap.usgs.xml">
  <station code="GRAM" name="GRAM" netid="GU" insttype="" lat="44.4904" lon="10.065">
    <comp name="--.HHE">
      <acc value="0.0239982945" flag="0"/>
      <vel value="0.0073659577" flag="0"/>
      <psa03 value="0.0703570374" flag="0"/>
      <psa10 value="0.0021899585" flag="0"/>
      <psa30 value="0.0001752283" flag="0"/>
    </comp>
    <comp name="--.HHN">
      <acc value="0.0385502325" flag="0"/>
      <vel value="0.0182815804" flag="0"/>
      <psa03 value="0.1139064311" flag="0"/>
      <psa10 value="0.0054369306" flag="0"/>
      <psa30 value="0.0005576250" flag="0"/>
    </comp>
    <comp name="--.HHZ">
      <acc value="0.0212949999" flag="0"/>
      <vel value="0.0060011518" flag="0"/>
      <psa03 value="0.0335578277" flag="0"/>
      <psa10 value="0.0020212423" flag="0"/>
      <psa30 value="0.0001763825" flag="0"/>
    </comp>
  </station>
  <station code="MSSA" name="MSSA" netid="IV" insttype="" lat="44.3162" lon="9.51739">
    <comp name="--.HHN">
      <acc value="0.0085225234" flag="0"/>
      <vel value="0.0015080108" flag="0"/>
      <psa03 value="0.0024206446" flag="0"/>
      <psa10 value="0.0001691405" flag="0"/>
      <psa30 value="0.0000203196" flag="0"/>
    </comp>
    <comp name="--.HHZ">
      <acc value="0.0000635859" flag="0"/>
      <vel value="0.0000097579" flag="0"/>
      <psa03 value="0.0000183206" flag="0"/>
      <psa10 value="0.0000038372" flag="0"/>
      <psa30 value="0.0000007463" flag="0"/>
    </comp>
    <comp name="--.HHE">
      <acc value="0.0049105302" flag="0"/>
      <vel value="0.0008689715" flag="0"/>
      <psa03 value="0.0013947776" flag="0"/>
      <psa10 value="0.0000974383" flag="0"/>
      <psa30 value="0.0000117052" flag="0"/>
    </comp>
  </station>
  <station code="NEVI" name="NEVI" netid="IV" insttype="" lat="44.5834" lon="10.3163">
    <comp name="--.HNE">
      <acc value="0.0298582239" flag="0"/>
      <vel value="0.0095855763" flag="0"/>
      <psa03 value="0.0317365178" flag="0"/>
      <psa10 value="0.0042162179" flag="0"/>
      <psa30 value="0.0003650094" flag="0"/>
    </comp>
    <comp name="--.HNN">
      <acc value="0.0249981321" flag="0"/>
      <vel value="0.0083601387" flag="0"/>
      <psa03 value="0.0488768537" flag="0"/>
      <psa10 value="0.0103392573" flag="0"/>
      <psa30 value="0.0004438767" flag="0"/>
    </comp>
    <comp name="--.HNZ">
      <acc value="0.0086425891" flag="0"/>
      <vel value="0.0025023923" flag="0"/>
      <psa03 value="0.0136296848" flag="0"/>
      <psa10 value="0.0018051400" flag="0"/>
      <psa30 value="0.0001338115" flag="0"/>
    </comp>
  </station>
  <station code="PRMA" name="PRMA" netid="IV" insttype="" lat="44.7637" lon="10.3131">
    <comp name="--.HHE">
      <acc value="0.0442119685" flag="0"/>
      <vel value="0.0165501737" flag="0"/>
      <psa03 value="0.0571070162" flag="0"/>
      <psa10 value="0.0044941309" flag="0"/>
      <psa30 value="0.0003571995" flag="0"/>
    </comp>
    <comp name="--.HHN">
      <acc value="0.0239265706" flag="0"/>
      <vel value="0.0090997651" flag="0"/>
      <psa03 value="0.0440771907" flag="0"/>
      <psa10 value="0.0037057536" flag="0"/>
      <psa30 value="0.0003563475" flag="0"/>
    </comp>
    <comp name="--.HHZ">
      <acc value="0.0438323198" flag="0"/>
      <vel value="0.0088585543" flag="0"/>
      <psa03 value="0.0274380075" flag="0"/>
      <psa10 value="0.0017050677" flag="0"/>
      <psa30 value="0.0002192476" flag="0"/>
    </comp>
  </station>
  <station code="BALD" name="BALD" netid="OX" insttype="" lat="45.683" lon="10.8187">
    <comp name="--.HHE">
      <acc value="0.0050340893" flag="0"/>
      <vel value="0.0018977257" flag="0"/>
      <psa03 value="0.0143090913" flag="0"/>
      <psa10 value="0.0004882301" flag="0"/>
      <psa30 value="0.0000446011" flag="0"/>
    </comp>
    <comp name="--.HHN">
      <acc value="0.0069268887" flag="0"/>
      <vel value="0.0021869335" flag="0"/>
      <psa03 value="0.0086875757" flag="0"/>
      <psa10 value="0.0005275695" flag="0"/>
      <psa30 value="0.0000318090" flag="0"/>
    </comp>
    <comp name="--.HHZ">
      <acc value="0.0026870323" flag="0"/>
      <vel value="0.0006688896" flag="0"/>
      <psa03 value="0.0038130528" flag="0"/>
      <psa10 value="0.0004477233" flag="0"/>
      <psa30 value="0.0000272531" flag="0"/>
    </comp>
  </station>
</stationlist>
