<?xml version="1.0" encoding="UTF-8" standalone="yes"?>
<!DOCTYPE earthquake SYSTEM "stationlist.dtd">
<stationlist created="" xmlns="ch.ethz.sed.shakemap.usgs.xml">
  <station code="THERA" name="THERA" netid="GE" insttype="STS-2/N" lat="36.367" lon="25.4753">
    <comp name="--.HHE">
      <acc value="0.1553338327" flag="0"/>
      <vel value="0.0364910201" flag="0"/>
      <psa03 value="0.1897026195" flag="0"/>
      <psa10 value="0.0205900714" flag="0"/>
      <psa30 value="0.0014501659" flag="0"/>
    </comp>
    <comp name="--.HHN">
      <acc value="0.1075929609" flag="0"/>
      <vel value="0.0199250001" flag="0"/>
      <psa03 value="0.1351440475" flag="0"/>
      <psa10 value="0.0121895116" flag="0"/>
      <psa30 value="0.0007626163" flag="0"/>
    </comp>
    <comp name="--.HHZ">
      <acc value="0.1029732008" flag="0"/>
      <vel value="0.0299434596" flag="0"/>
      <psa03 value="0.1350293627" flag="0"/>
      <psa10 value="0.0202775594" flag="0"/>
      <psa30 value="0.0013502442" flag="0"/>
    </comp>
  </station>
</stationlist>
