<?xml version="1.0" encoding="UTF-8" standalone="yes"?>
<!DOCTYPE earthquake SYSTEM "stationlist.dtd">
<stationlist created="" xmlns="ch.ethz.sed.shakemap.usgs.xml">
  <station code="CEYT" name="CEYT" netid="KO" insttype="CMG-3ESP" lat="37.0105" lon="35.7478">
    <comp name="--.HHE">
      <acc value="0.0052005799" flag="0"/>
      <vel value="0.0047697652" flag="0"/>
      <psa03 value="0.0156686924" flag="0"/>
      <psa10 value="0.0058968868" flag="0"/>
      <psa30 value="0.0014980989" flag="0"/>
    </comp>
    <comp name="--.HHZ">
      <acc value="0.0051209978" flag="0"/>
      <vel value="0.0050182971" flag="0"/>
      <psa03 value="0.0111644512" flag="0"/>
      <psa10 value="0.0090129211" flag="0"/>
      <psa30 value="0.0009431528" flag="0"/>
    </comp>
    <comp name="--.HHN">
      <acc value="0.0063645405" flag="0"/>
      <vel value="0.0076894952" flag="0"/>
      <psa03 value="0.0150092256" flag="0"/>
      <psa10 value="0.0121687546" flag="0"/>
      <psa30 value="0.0020783358" flag="0"/>
    </comp>
  </station>
</stationlist>
