<?xml version="1.0" encoding="UTF-8" standalone="yes"?>
<!DOCTYPE earthquake SYSTEM "stationlist.dtd">
<stationlist created="" xmlns="ch.ethz.sed.shakemap.usgs.xml">
  <station code="DARE" name="DARE" netid="KO" insttype="CMG-3ESP" lat="38.5712" lon="37.4832">
    <comp name="--.HHN">
      <acc value="0.0043436105" flag="0"/>
      <vel value="0.0015063470" flag="0"/>
      <psa03 value="0.0086925057" flag="0"/>
      <psa10 value="0.0011721863" flag="0"/>
      <psa30 value="0.0000823118" flag="0"/>
    </comp>
    <comp name="--.HHE">
      <acc value="0.0036548416" flag="0"/>
      <vel value="0.0013151158" flag="0"/>
      <psa03 value="0.0075920891" flag="0"/>
      <psa10 value="0.0013146466" flag="0"/>
      <psa30 value="0.0001542929" flag="0"/>
    </comp>
    <comp name="--.HHZ">
      <acc value="0.0028615073" flag="0"/>
      <vel value="0.0011786151" flag="0"/>
      <psa03 value="0.0068562411" flag="0"/>
      <psa10 value="0.0014815455" flag="0"/>
      <psa30 value="0.0001241299" flag="0"/>
    </comp>
  </station>
  <station code="URFA" name="URFA" netid="KO" insttype="CMG-3ESP" lat="37.4409" lon="38.8213">
    <comp name="--.HHE">
      <acc value="0.0577886409" flag="0"/>
      <vel value="0.0105846880" flag="0"/>
      <psa03 value="0.0325223036" flag="0"/>
      <psa10 value="0.0023434337" flag="0"/>
      <psa30 value="0.0008847059" flag="0"/>
    </comp>
    <comp name="--.HHN">
      <acc value="0.0674023492" flag="0"/>
      <vel value="0.0097353442" flag="0"/>
      <psa03 value="0.0213410127" flag="0"/>
      <psa10 value="0.0021257243" flag="0"/>
      <psa30 value="0.0007340866" flag="0"/>
    </comp>
    <comp name="--.HHZ">
      <acc value="0.0376619934" flag="0"/>
      <vel value="0.0060367733" flag="0"/>
      <psa03 value="0.0153579047" flag="0"/>
      <psa10 value="0.0030592480" flag="0"/>
      <psa30 value="0.0002351109" flag="0"/>
    </comp>
  </station>
</stationlist>
