<?xml version="1.0" encoding="UTF-8" standalone="yes"?>
<!DOCTYPE earthquake SYSTEM "stationlist.dtd">
<stationlist created="" xmlns="ch.ethz.sed.shakemap.usgs.xml">
  <station code="GAZ" name="GAZ" netid="KO" insttype="CMG-3T" lat="37.1721" lon="37.2096">
    <comp name="--.HHE">
      <acc value="0.0297973602" flag="0"/>
      <vel value="0.0223009246" flag="0"/>
      <psa03 value="0.0767404589" flag="0"/>
      <psa10 value="0.0175815981" flag="0"/>
      <psa30 value="0.0011398210" flag="0"/>
    </comp>
    <comp name="--.HHZ">
      <acc value="0.0243303960" flag="0"/>
      <vel value="0.0122730199" flag="0"/>
      <psa03 value="0.0794391965" flag="0"/>
      <psa10 value="0.0089115892" flag="0"/>
      <psa30 value="0.0010204543" flag="0"/>
    </comp>
    <comp name="--.HHN">
      <acc value="0.0338742919" flag="0"/>
      <vel value="0.0227209896" flag="0"/>
      <psa03 value="0.0772591811" flag="0"/>
      <psa10 value="0.0168099971" flag="0"/>
      <psa30 value="0.0017523296" flag="0"/>
    </comp>
  </station>
  <station code="KMRS" name="KMRS" netid="KO" insttype="CMG-3T" lat="37.5053" lon="36.9">
    <comp name="--.HHZ">
      <acc value="0.0119004839" flag="0"/>
      <vel value="0.0059651471" flag="0"/>
      <psa03 value="0.0263457406" flag="0"/>
      <psa10 value="0.0056039941" flag="0"/>
      <psa30 value="0.0017419275" flag="0"/>
    </comp>
  </station>
  <station code="ANDN" name="ANDN" netid="TU" insttype="T" lat="37.58" lon="36.3452">
    <comp name="--.HHZ">
      <acc value="0.1819690106" flag="0"/>
      <vel value="0.0780017672" flag="0"/>
      <psa03 value="0.3308912274" flag="0"/>
      <psa10 value="0.1016934234" flag="0"/>
      <psa30 value="0.0079042785" flag="0"/>
    </comp>
    <comp name="--.HHE">
      <acc value="0.3507644201" flag="0"/>
      <vel value="0.1612151793" flag="0"/>
      <psa03 value="0.6012107678" flag="0"/>
      <psa10 value="0.1105589365" flag="0"/>
      <psa30 value="0.0073697482" flag="0"/>
    </comp>
    <comp name="--.HHN">
      <acc value="0.5047056341" flag="0"/>
      <vel value="0.1407192698" flag="0"/>
      <psa03 value="0.5779323292" flag="0"/>
      <psa10 value="0.0465995630" flag="0"/>
      <psa30 value="0.0112135573" flag="0"/>
    </comp>
  </station>
</stationlist>
