<?xml version="1.0" encoding="UTF-8" standalone="yes"?>
<!DOCTYPE earthquake SYSTEM "stationlist.dtd">
<stationlist created="" xmlns="ch.ethz.sed.shakemap.usgs.xml">
  <station code="CMRD" name="CMRD" netid="KO" insttype="CMG-5T" lat="37.6623" lon="34.9902">
    <comp name="--.HNE">
      <acc value="0.0084617569" flag="0"/>
      <vel value="0.0033496249" flag="0"/>
      <psa03 value="0.0153299537" flag="0"/>
      <psa10 value="0.0051625232" flag="0"/>
      <psa30 value="0.0004656347" flag="0"/>
    </comp>
    <comp name="--.HNZ">
      <acc value="0.0058683279" flag="0"/>
      <vel value="0.0032623181" flag="0"/>
      <psa03 value="0.0120385542" flag="0"/>
      <psa10 value="0.0036545623" flag="0"/>
      <psa30 value="0.0005171582" flag="0"/>
    </comp>
    <comp name="--.HNN">
      <acc value="0.0080976148" flag="0"/>
      <vel value="0.0038373913" flag="0"/>
      <psa03 value="0.0219295070" flag="0"/>
      <psa10 value="0.0033855509" flag="0"/>
      <psa30 value="0.0007071132" flag="0"/>
    </comp>
  </station>
  <station code="GAZ" name="GAZ" netid="KO" insttype="CMG-3T" lat="37.1721" lon="37.2096">
    <comp name="--.HHE">
      <acc value="0.0297973601" flag="0"/>
      <vel value="0.0223009248" flag="0"/>
      <psa03 value="0.0767404589" flag="0"/>
      <psa10 value="0.0175815981" flag="0"/>
      <psa30 value="0.0011399374" flag="0"/>
    </comp>
    <comp name="--.HHN">
      <acc value="0.0338742918" flag="0"/>
      <vel value="0.0227209898" flag="0"/>
      <psa03 value="0.0772591811" flag="0"/>
      <psa10 value="0.0168099971" flag="0"/>
      <psa30 value="0.0017523420" flag="0"/>
    </comp>
    <comp name="--.HHZ">
      <acc value="0.0243303961" flag="0"/>
      <vel value="0.0122730196" flag="0"/>
      <psa03 value="0.0794391965" flag="0"/>
      <psa10 value="0.0089115892" flag="0"/>
      <psa30 value="0.0010204589" flag="0"/>
    </comp>
  </station>
  <station code="KMRS" name="KMRS" netid="KO" insttype="CMG-3T" lat="37.5053" lon="36.9">
    <comp name="--.HHZ">
      <acc value="0.0119004840" flag="0"/>
      <vel value="0.0059651463" flag="0"/>
      <psa03 value="0.0263457406" flag="0"/>
      <psa10 value="0.0056039945" flag="0"/>
      <psa30 value="0.0017419082" flag="0"/>
    </comp>
  </station>
  <station code="SARI" name="SARI" netid="KO" insttype="CMG-3T" lat="38.4072" lon="36.4181">
    <comp name="--.HHZ">
      <acc value="0.0563196633" flag="0"/>
      <vel value="0.0177502512" flag="0"/>
      <psa03 value="0.1015781817" flag="0"/>
      <psa10 value="0.0202582729" flag="0"/>
      <psa30 value="0.0023818238" flag="0"/>
    </comp>
    <comp name="--.HHE">
      <acc value="0.0990074865" flag="0"/>
      <vel value="0.0286885101" flag="0"/>
      <psa03 value="0.0728518414" flag="0"/>
      <psa10 value="0.0177402005" flag="0"/>
      <psa30 value="0.0017508926" flag="0"/>
    </comp>
    <comp name="--.HHN">
      <acc value="0.0823374836" flag="0"/>
      <vel value="0.0217389322" flag="0"/>
      <psa03 value="0.1182462959" flag="0"/>
      <psa10 value="0.0154025136" flag="0"/>
      <psa30 value="0.0025199134" flag="0"/>
    </comp>
  </station>
  <station code="ANDN" name="ANDN" netid="TU" insttype="T" lat="37.58" lon="36.3452">
    <comp name="--.HHN">
      <acc value="0.5047056340" flag="0"/>
      <vel value="0.1407192679" flag="0"/>
      <psa03 value="0.5779323292" flag="0"/>
      <psa10 value="0.0465995630" flag="0"/>
      <psa30 value="0.0112134648" flag="0"/>
    </comp>
    <comp name="--.HHZ">
      <acc value="0.1819690103" flag="0"/>
      <vel value="0.0780017674" flag="0"/>
      <psa03 value="0.3308912274" flag="0"/>
      <psa10 value="0.1016934235" flag="0"/>
      <psa30 value="0.0079038837" flag="0"/>
    </comp>
    <comp name="--.HHE">
      <acc value="0.3507644204" flag="0"/>
      <vel value="0.1612151783" flag="0"/>
      <psa03 value="0.6012107678" flag="0"/>
      <psa10 value="0.1105589353" flag="0"/>
      <psa30 value="0.0073699067" flag="0"/>
    </comp>
  </station>
</stationlist>
