<?xml version="1.0" encoding="UTF-8" standalone="yes"?>
<!DOCTYPE earthquake SYSTEM "stationlist.dtd">
<stationlist created="" xmlns="ch.ethz.sed.shakemap.usgs.xml">
  <station code="BODM" name="BODM" netid="KO" insttype="ACEBOX" lat="37.031" lon="27.4247">
    <comp name="--.HNZ">
      <acc value="0.0049383207" flag="0"/>
      <vel value="0.0058866725" flag="0"/>
      <psa03 value="0.0086634791" flag="0"/>
      <psa10 value="0.0060393645" flag="0"/>
      <psa30 value="0.0017677864" flag="0"/>
    </comp>
    <comp name="--.HNE">
      <acc value="0.0209040061" flag="0"/>
      <vel value="0.0152399029" flag="0"/>
      <psa03 value="0.0593094853" flag="0"/>
      <psa10 value="0.0173404619" flag="0"/>
      <psa30 value="0.0017657186" flag="0"/>
    </comp>
    <comp name="--.HNN">
      <acc value="0.0333919886" flag="0"/>
      <vel value="0.0241681347" flag="0"/>
      <psa03 value="0.0810196284" flag="0"/>
      <psa10 value="0.0232769257" flag="0"/>
      <psa30 value="0.0023158580" flag="0"/>
    </comp>
  </station>
  <station code="BODT" name="BODT" netid="KO" insttype="CMG-3ESP" lat="37.0622" lon="27.3103">
    <comp name="--.HHE">
      <acc value="0.0243311876" flag="0"/>
      <vel value="0.0182733412" flag="0"/>
      <psa03 value="0.0588796920" flag="0"/>
      <psa10 value="0.0303140942" flag="0"/>
      <psa30 value="0.0026280524" flag="0"/>
    </comp>
    <comp name="--.HHN">
      <acc value="0.0264657626" flag="0"/>
      <vel value="0.0171993481" flag="0"/>
      <psa03 value="0.0497615604" flag="0"/>
      <psa10 value="0.0325112415" flag="0"/>
      <psa30 value="0.0028195952" flag="0"/>
    </comp>
    <comp name="--.HHZ">
      <acc value="0.0136846979" flag="0"/>
      <vel value="0.0126445255" flag="0"/>
      <psa03 value="0.0319172101" flag="0"/>
      <psa10 value="0.0220145624" flag="0"/>
      <psa30 value="0.0026726568" flag="0"/>
    </comp>
  </station>
  <station code="IDI" name="IDI" netid="MN" insttype="" lat="35.288" lon="24.89">
    <comp name="--.HHE">
      <acc value="0.0377355439" flag="0"/>
      <vel value="0.0174813644" flag="0"/>
      <psa03 value="0.0679792674" flag="0"/>
      <psa10 value="0.0113670306" flag="0"/>
      <psa30 value="0.0021193308" flag="0"/>
    </comp>
    <comp name="--.HHZ">
      <acc value="0.0310841295" flag="0"/>
      <vel value="0.0127220344" flag="0"/>
      <psa03 value="0.0691071010" flag="0"/>
      <psa10 value="0.0120264916" flag="0"/>
      <psa30 value="0.0010952302" flag="0"/>
    </comp>
    <comp name="--.HHN">
      <acc value="0.0306609802" flag="0"/>
      <vel value="0.0168743480" flag="0"/>
      <psa03 value="0.0853018249" flag="0"/>
      <psa10 value="0.0095218327" flag="0"/>
      <psa30 value="0.0021894196" flag="0"/>
    </comp>
  </station>
</stationlist>
