<?xml version="1.0" encoding="UTF-8" standalone="yes"?>
<!DOCTYPE earthquake SYSTEM "stationlist.dtd">
<stationlist created="" xmlns="ch.ethz.sed.shakemap.usgs.xml">
  <station code="APE" name="APE" netid="GE" insttype="STS-2/N" lat="37.0727" lon="25.523">
    <comp name="--.HHE">
      <acc value="0.4897710084" flag="0"/>
      <vel value="0.1506546292" flag="0"/>
      <psa03 value="0.6615016909" flag="0"/>
      <psa10 value="0.0930426859" flag="0"/>
      <psa30 value="0.0214469555" flag="0"/>
    </comp>
    <comp name="--.HHN">
      <acc value="0.5455308464" flag="0"/>
      <vel value="0.1355671108" flag="0"/>
      <psa03 value="0.4368423878" flag="0"/>
      <psa10 value="0.1006897226" flag="0"/>
      <psa30 value="0.0209030746" flag="0"/>
    </comp>
    <comp name="--.HHZ">
      <acc value="0.2334553214" flag="0"/>
      <vel value="0.1005309027" flag="0"/>
      <psa03 value="0.4715508716" flag="0"/>
      <psa10 value="0.0705569800" flag="0"/>
      <psa30 value="0.0212577855" flag="0"/>
    </comp>
  </station>
  <station code="THERA" name="THERA" netid="GE" insttype="STS-2/N" lat="36.367" lon="25.4753">
    <comp name="--.HHE">
      <acc value="0.3416087602" flag="0"/>
      <vel value="0.1297815746" flag="0"/>
      <psa03 value="0.4282600593" flag="0"/>
      <psa10 value="0.0621606075" flag="0"/>
      <psa30 value="0.0165393409" flag="0"/>
    </comp>
    <comp name="--.HHZ">
      <acc value="0.3184937072" flag="0"/>
      <vel value="0.0806997278" flag="0"/>
      <psa03 value="0.3375733904" flag="0"/>
      <psa10 value="0.0482967916" flag="0"/>
      <psa30 value="0.0117298431" flag="0"/>
    </comp>
    <comp name="--.HHN">
      <acc value="0.2506021085" flag="0"/>
      <vel value="0.0594382719" flag="0"/>
      <psa03 value="0.3022073116" flag="0"/>
      <psa10 value="0.0338920621" flag="0"/>
      <psa30 value="0.0064433247" flag="0"/>
    </comp>
  </station>
</stationlist>
