<?xml version="1.0" encoding="UTF-8" standalone="yes"?>
<!DOCTYPE earthquake SYSTEM "stationlist.dtd">
<stationlist created="" xmlns="ch.ethz.sed.shakemap.usgs.xml">
  <station code="BEHE" name="BEHE" netid="HU" insttype="" lat="46.4703" lon="16.7755">
    <comp name="--.HHN">
      <acc value="0.0073576465" flag="0"/>
      <vel value="0.0059700076" flag="0"/>
      <psa03 value="0.0186543242" flag="0"/>
      <psa10 value="0.0041617433" flag="0"/>
      <psa30 value="0.0002568158" flag="0"/>
    </comp>
    <comp name="--.HHZ">
      <acc value="0.0038307970" flag="0"/>
      <vel value="0.0026588753" flag="0"/>
      <psa03 value="0.0145783369" flag="0"/>
      <psa10 value="0.0014965151" flag="0"/>
      <psa30 value="0.0001155644" flag="0"/>
    </comp>
    <comp name="--.HHE">
      <acc value="0.0083152878" flag="0"/>
      <vel value="0.0046023629" flag="0"/>
      <psa03 value="0.0353012303" flag="0"/>
      <psa10 value="0.0035966108" flag="0"/>
      <psa30 value="0.0001989189" flag="0"/>
    </comp>
  </station>
  <station code="BLY" name="BLY" netid="MN" insttype="" lat="44.7488" lon="17.1839">
    <comp name="--.HHN">
      <acc value="0.0068529471" flag="0"/>
      <vel value="0.0032595194" flag="0"/>
      <psa03 value="0.0156050469" flag="0"/>
      <psa10 value="0.0022842810" flag="0"/>
      <psa30 value="0.0002310476" flag="0"/>
    </comp>
    <comp name="--.HHE">
      <acc value="0.0121236103" flag="0"/>
      <vel value="0.0058488392" flag="0"/>
      <psa03 value="0.0348237782" flag="0"/>
      <psa10 value="0.0035136438" flag="0"/>
      <psa30 value="0.0002902157" flag="0"/>
    </comp>
    <comp name="--.HHZ">
      <acc value="0.0092115100" flag="0"/>
      <vel value="0.0038417294" flag="0"/>
      <psa03 value="0.0152914456" flag="0"/>
      <psa10 value="0.0020591876" flag="0"/>
      <psa30 value="0.0001922273" flag="0"/>
    </comp>
  </station>
</stationlist>
