<?xml version="1.0" encoding="UTF-8" standalone="yes"?>
<!DOCTYPE earthquake SYSTEM "stationlist.dtd">
<stationlist created="" xmlns="ch.ethz.sed.shakemap.usgs.xml">
  <station code="UPC" name="UPC" netid="CZ" insttype="" lat="50.5074" lon="16.0121">
    <comp name="--.HHN">
      <acc value="0.0163208807" flag="0"/>
      <vel value="0.0087942937" flag="0"/>
      <psa03 value="0.0416319484" flag="0"/>
      <psa10 value="0.0075909378" flag="0"/>
      <psa30 value="0.0006794919" flag="0"/>
    </comp>
    <comp name="--.HHZ">
      <acc value="0.0073893085" flag="0"/>
      <vel value="0.0026422363" flag="0"/>
      <psa03 value="0.0139412084" flag="0"/>
      <psa10 value="0.0026203107" flag="0"/>
      <psa30 value="0.0004093321" flag="0"/>
    </comp>
    <comp name="--.HHE">
      <acc value="0.0153829410" flag="0"/>
      <vel value="0.0065178847" flag="0"/>
      <psa03 value="0.0607256836" flag="0"/>
      <psa10 value="0.0046475964" flag="0"/>
      <psa30 value="0.0005713444" flag="0"/>
    </comp>
  </station>
  <station code="KSP" name="KSP" netid="PL" insttype="STS-2/N" lat="50.8428" lon="16.2931">
    <comp name="--.HHZ">
      <acc value="0.0051702608" flag="0"/>
      <vel value="0.0086485432" flag="0"/>
      <psa03 value="0.0065124956" flag="0"/>
      <psa10 value="0.0047296808" flag="0"/>
      <psa30 value="0.0027355869" flag="0"/>
    </comp>
    <comp name="--.HHE">
      <acc value="0.0058838415" flag="0"/>
      <vel value="0.0043218544" flag="0"/>
      <psa03 value="0.0128960240" flag="0"/>
      <psa10 value="0.0029368808" flag="0"/>
      <psa30 value="0.0010619704" flag="0"/>
    </comp>
    <comp name="--.HHN">
      <acc value="0.0075695174" flag="0"/>
      <vel value="0.0102281075" flag="0"/>
      <psa03 value="0.0109027973" flag="0"/>
      <psa10 value="0.0048389902" flag="0"/>
      <psa30 value="0.0026995199" flag="0"/>
    </comp>
  </station>
</stationlist>
