<?xml version="1.0" encoding="UTF-8" standalone="yes"?>
<!DOCTYPE earthquake SYSTEM "stationlist.dtd">
<stationlist created="" xmlns="ch.ethz.sed.shakemap.usgs.xml">
  <station code="ADVT" name="ADVT" netid="KO" insttype="CMG-3ESP" commtype="DIG" lat="40.4332" lon="29.7383">
    <comp name="--.HHE">
      <acc value="0.1119001800" flag="0"/>
      <vel value="0.0554869918" flag="0"/>
      <psa03 value="0.3567851349" flag="0"/>
      <psa10 value="0.0522230146" flag="0"/>
      <psa30 value="0.0075586328" flag="0"/>
    </comp>
  </station>
  <station code="BALB" name="BALB" netid="KO" insttype="CMG-5T" commtype="DIG" lat="39.6507" lon="27.8642">
    <comp name="--.HNE">
      <acc value="0.3451196710" flag="0"/>
      <vel value="0.2120972791" flag="0"/>
      <psa03 value="0.8509255626" flag="0"/>
      <psa10 value="0.2204529074" flag="0"/>
      <psa30 value="0.0120441200" flag="0"/>
    </comp>
    <comp name="--.HNN">
      <acc value="0.2320664885" flag="0"/>
      <vel value="0.1434175075" flag="0"/>
      <psa03 value="0.8473151087" flag="0"/>
      <psa10 value="0.1773670554" flag="0"/>
      <psa30 value="0.0099276132" flag="0"/>
    </comp>
    <comp name="--.HNZ">
      <acc value="0.1248550162" flag="0"/>
      <vel value="0.0828225684" flag="0"/>
      <psa03 value="0.3072069735" flag="0"/>
      <psa10 value="0.0718181978" flag="0"/>
      <psa30 value="0.0073138931" flag="0"/>
    </comp>
  </station>
  <station code="BIGA" name="BIGA" netid="KO" insttype="CMG-5T" commtype="DIG" lat="40.2813" lon="27.1505">
    <comp name="--.HNE">
      <acc value="0.6372236167" flag="0"/>
      <vel value="0.1829067222" flag="0"/>
      <psa03 value="1.0400748154" flag="0"/>
      <psa10 value="0.0886729058" flag="0"/>
      <psa30 value="0.0069633364" flag="0"/>
    </comp>
    <comp name="--.HNN">
      <acc value="0.8521540942" flag="0"/>
      <vel value="0.2569706355" flag="0"/>
      <psa03 value="1.2886248214" flag="0"/>
      <psa10 value="0.0980530058" flag="0"/>
      <psa30 value="0.0089484863" flag="0"/>
    </comp>
    <comp name="--.HNZ">
      <acc value="0.2727066271" flag="0"/>
      <vel value="0.0637034811" flag="0"/>
      <psa03 value="0.2584259611" flag="0"/>
      <psa10 value="0.0260642753" flag="0"/>
      <psa30 value="0.0037300570" flag="0"/>
    </comp>
  </station>
  <station code="BMYO" name="BMYO" netid="KO" insttype="CMG-5T" commtype="DIG" lat="39.8098" lon="26.6009">
    <comp name="--.HNE">
      <acc value="0.1792938533" flag="0"/>
      <vel value="0.1064438969" flag="0"/>
      <psa03 value="0.3755513813" flag="0"/>
      <psa10 value="0.0734394055" flag="0"/>
      <psa30 value="0.0154731548" flag="0"/>
    </comp>
    <comp name="--.HNN">
      <acc value="0.1541827498" flag="0"/>
      <vel value="0.1044285666" flag="0"/>
      <psa03 value="0.3710032908" flag="0"/>
      <psa10 value="0.0734196790" flag="0"/>
      <psa30 value="0.0199104161" flag="0"/>
    </comp>
    <comp name="--.HNZ">
      <acc value="0.0904499026" flag="0"/>
      <vel value="0.0827356244" flag="0"/>
      <psa03 value="0.1391442157" flag="0"/>
      <psa10 value="0.0623183997" flag="0"/>
      <psa30 value="0.0098703156" flag="0"/>
    </comp>
  </station>
  <station code="BOTS" name="BOTS" netid="KO" insttype="CMG-6T" commtype="DIG" lat="40.9902" lon="27.981">
    <comp name="--.HHE">
      <acc value="3.5795950270" flag="0"/>
      <vel value="0.3882161659" flag="0"/>
      <psa03 value="2.0579836267" flag="0"/>
      <psa10 value="0.2816564659" flag="0"/>
      <psa30 value="0.0937793897" flag="0"/>
    </comp>
    <comp name="--.HHN">
      <acc value="2.0700006117" flag="0"/>
      <vel value="0.3853705189" flag="0"/>
      <psa03 value="2.2241691864" flag="0"/>
      <psa10 value="0.2443669575" flag="0"/>
      <psa30 value="0.0834101273" flag="0"/>
    </comp>
    <comp name="--.HHZ">
      <acc value="0.4106348497" flag="0"/>
      <vel value="0.1363389512" flag="0"/>
      <psa03 value="0.7224491956" flag="0"/>
      <psa10 value="0.1844459748" flag="0"/>
      <psa30 value="0.0188042479" flag="0"/>
    </comp>
  </station>
  <station code="BUYK" name="BUYK" netid="KO" insttype="SA10" commtype="DIG" lat="41.0168" lon="28.5828">
    <comp name="--.HNE">
      <acc value="0.5254821649" flag="0"/>
      <vel value="0.3276949080" flag="0"/>
      <psa03 value="1.7382950353" flag="0"/>
      <psa10 value="0.3973659212" flag="0"/>
      <psa30 value="0.0599241015" flag="0"/>
    </comp>
    <comp name="--.HNN">
      <acc value="0.6604389874" flag="0"/>
      <vel value="0.4402547906" flag="0"/>
      <psa03 value="2.0001679801" flag="0"/>
      <psa10 value="0.3396655587" flag="0"/>
      <psa30 value="0.0532809495" flag="0"/>
    </comp>
    <comp name="--.HNZ">
      <acc value="0.3474278886" flag="0"/>
      <vel value="0.1920244415" flag="0"/>
      <psa03 value="0.7401771984" flag="0"/>
      <psa10 value="0.2612534967" flag="0"/>
      <psa30 value="0.0170394845" flag="0"/>
    </comp>
  </station>
  <station code="CANM" name="CANM" netid="KO" insttype="CMG-5T" commtype="DIG" lat="40.0113" lon="27.0529">
    <comp name="--.HNE">
      <acc value="0.5360890812" flag="0"/>
      <vel value="0.2198736426" flag="0"/>
      <psa03 value="1.3772235176" flag="0"/>
      <psa10 value="0.1213564044" flag="0"/>
      <psa30 value="0.0162429713" flag="0"/>
    </comp>
    <comp name="--.HNN">
      <acc value="0.7493415985" flag="0"/>
      <vel value="0.3362330057" flag="0"/>
      <psa03 value="1.8441931638" flag="0"/>
      <psa10 value="0.1107566527" flag="0"/>
      <psa30 value="0.0105672646" flag="0"/>
    </comp>
    <comp name="--.HNZ">
      <acc value="0.4249676357" flag="0"/>
      <vel value="0.1501332682" flag="0"/>
      <psa03 value="0.8558024740" flag="0"/>
      <psa10 value="0.0732653562" flag="0"/>
      <psa30 value="0.0101414858" flag="0"/>
    </comp>
  </station>
  <station code="CRLU" name="CRLU" netid="KO" insttype="SA10" commtype="DIG" lat="41.1428" lon="27.8215">
    <comp name="--.HNE">
      <acc value="0.3523342023" flag="0"/>
      <vel value="0.2478620621" flag="0"/>
      <psa03 value="1.2935280315" flag="0"/>
      <psa10 value="0.3185502214" flag="0"/>
      <psa30 value="0.0617832036" flag="0"/>
    </comp>
    <comp name="--.HNN">
      <acc value="0.5005241742" flag="0"/>
      <vel value="0.3206659357" flag="0"/>
      <psa03 value="1.0738922074" flag="0"/>
      <psa10 value="0.6063255077" flag="0"/>
      <psa30 value="0.0622576216" flag="0"/>
    </comp>
    <comp name="--.HNZ">
      <acc value="0.4122583373" flag="0"/>
      <vel value="0.2428749985" flag="0"/>
      <psa03 value="0.7778515823" flag="0"/>
      <psa10 value="0.1628405172" flag="0"/>
      <psa30 value="0.0275364240" flag="0"/>
    </comp>
  </station>
  <station code="CTYL" name="CTYL" netid="KO" insttype="CMG-3T" commtype="DIG" lat="41.476" lon="28.2897">
    <comp name="--.HHE">
      <acc value="0.3218571471" flag="0"/>
      <vel value="0.1020160139" flag="0"/>
      <psa03 value="0.5209536711" flag="0"/>
      <psa10 value="0.0635773765" flag="0"/>
      <psa30 value="0.0068030460" flag="0"/>
    </comp>
    <comp name="--.HHN">
      <acc value="0.3195355844" flag="0"/>
      <vel value="0.1074126664" flag="0"/>
      <psa03 value="0.5508595977" flag="0"/>
      <psa10 value="0.0843447856" flag="0"/>
      <psa30 value="0.0069033516" flag="0"/>
    </comp>
    <comp name="--.HHZ">
      <acc value="0.2737546845" flag="0"/>
      <vel value="0.0580853365" flag="0"/>
      <psa03 value="0.3245674570" flag="0"/>
      <psa10 value="0.0297129996" flag="0"/>
      <psa30 value="0.0035980907" flag="0"/>
    </comp>
  </station>
  <station code="DST" name="DST" netid="KO" insttype="CMG-5T" commtype="DIG" lat="39.6041" lon="28.6267">
    <comp name="--.HNE">
      <acc value="0.3119664111" flag="0"/>
      <vel value="0.1225813865" flag="0"/>
      <psa03 value="0.7562060180" flag="0"/>
      <psa10 value="0.0734262095" flag="0"/>
      <psa30 value="0.0074634032" flag="0"/>
    </comp>
    <comp name="--.HNN">
      <acc value="0.3087596887" flag="0"/>
      <vel value="0.1500502174" flag="0"/>
      <psa03 value="0.7895772091" flag="0"/>
      <psa10 value="0.0567001974" flag="0"/>
      <psa30 value="0.0082763004" flag="0"/>
    </comp>
    <comp name="--.HNZ">
      <acc value="0.2844167392" flag="0"/>
      <vel value="0.1553649927" flag="0"/>
      <psa03 value="0.7331787579" flag="0"/>
      <psa10 value="0.0540689948" flag="0"/>
      <psa30 value="0.0054539478" flag="0"/>
    </comp>
  </station>
  <station code="EDC" name="EDC" netid="KO" insttype="CMG-3T" commtype="DIG" lat="40.3465" lon="27.8618">
    <comp name="--.HHE">
      <acc value="0.3780170221" flag="0"/>
      <vel value="0.1597044456" flag="0"/>
      <psa03 value="0.7073798185" flag="0"/>
      <psa10 value="0.1772480517" flag="0"/>
      <psa30 value="0.0222740918" flag="0"/>
    </comp>
    <comp name="--.HHN">
      <acc value="0.7187109215" flag="0"/>
      <vel value="0.2152279415" flag="0"/>
      <psa03 value="1.9188698408" flag="0"/>
      <psa10 value="0.0828872709" flag="0"/>
      <psa30 value="0.0141594344" flag="0"/>
    </comp>
    <comp name="--.HHZ">
      <acc value="0.2310887035" flag="0"/>
      <vel value="0.0926660039" flag="0"/>
      <psa03 value="0.4559287080" flag="0"/>
      <psa10 value="0.0926494442" flag="0"/>
      <psa30 value="0.0101988250" flag="0"/>
    </comp>
  </station>
  <station code="ESKY" name="ESKY" netid="KO" insttype="CMG-5T" commtype="DIG" lat="40.5918" lon="28.9071">
    <comp name="--.HNE">
      <acc value="1.2513164968" flag="0"/>
      <vel value="0.8269559000" flag="0"/>
      <psa03 value="3.0167410173" flag="0"/>
      <psa10 value="0.4947504969" flag="0"/>
      <psa30 value="0.0335869165" flag="0"/>
    </comp>
    <comp name="--.HNN">
      <acc value="0.6889967153" flag="0"/>
      <vel value="0.4025034781" flag="0"/>
      <psa03 value="2.2205431312" flag="0"/>
      <psa10 value="0.3193905546" flag="0"/>
      <psa30 value="0.0225922926" flag="0"/>
    </comp>
    <comp name="--.HNZ">
      <acc value="0.4650908559" flag="0"/>
      <vel value="0.3219608981" flag="0"/>
      <psa03 value="2.2276415315" flag="0"/>
      <psa10 value="0.2618168889" flag="0"/>
      <psa30 value="0.0128816526" flag="0"/>
    </comp>
  </station>
  <station code="EZN" name="EZN" netid="KO" insttype="CMG-3ESP" commtype="DIG" lat="39.8255" lon="26.3246">
    <comp name="--.HHE">
      <acc value="0.0978040150" flag="0"/>
      <vel value="0.0378874169" flag="0"/>
      <psa03 value="0.2917055080" flag="0"/>
      <psa10 value="0.0135460031" flag="0"/>
      <psa30 value="0.0025724232" flag="0"/>
    </comp>
    <comp name="--.HHN">
      <acc value="0.1041351092" flag="0"/>
      <vel value="0.0364486006" flag="0"/>
      <psa03 value="0.2080043350" flag="0"/>
      <psa10 value="0.0292121279" flag="0"/>
      <psa30 value="0.0034432910" flag="0"/>
    </comp>
    <comp name="--.HHZ">
      <acc value="0.0650736306" flag="0"/>
      <vel value="0.0384404940" flag="0"/>
      <psa03 value="0.1800190312" flag="0"/>
      <psa10 value="0.0313131296" flag="0"/>
      <psa30 value="0.0037454680" flag="0"/>
    </comp>
  </station>
  <station code="EZNE" name="EZNE" netid="KO" insttype="CMG-5T" commtype="DIG" lat="39.756" lon="26.3655">
    <comp name="--.HNE">
      <acc value="0.0919390106" flag="0"/>
      <vel value="0.0446902984" flag="0"/>
      <psa03 value="0.1928262758" flag="0"/>
      <psa10 value="0.0382636711" flag="0"/>
      <psa30 value="0.0053464117" flag="0"/>
    </comp>
    <comp name="--.HNN">
      <acc value="0.1398883400" flag="0"/>
      <vel value="0.0862735360" flag="0"/>
      <psa03 value="0.3978693110" flag="0"/>
      <psa10 value="0.0503473052" flag="0"/>
      <psa30 value="0.0081546781" flag="0"/>
    </comp>
    <comp name="--.HNZ">
      <acc value="0.0918135955" flag="0"/>
      <vel value="0.0444077868" flag="0"/>
      <psa03 value="0.1790753320" flag="0"/>
      <psa10 value="0.0251205892" flag="0"/>
      <psa30 value="0.0072581462" flag="0"/>
    </comp>
  </station>
  <station code="GAZK" name="GAZK" netid="KO" insttype="CMG-6T" commtype="DIG" lat="40.7479" lon="27.3275">
    <comp name="--.HHZ">
      <acc value="0.1721815066" flag="0"/>
      <vel value="0.0465089975" flag="0"/>
      <psa03 value="0.3042460356" flag="0"/>
      <psa10 value="0.0543753724" flag="0"/>
      <psa30 value="0.0080920462" flag="0"/>
    </comp>
    <comp name="--.HHE">
      <acc value="0.2973367432" flag="0"/>
      <vel value="0.1259574195" flag="0"/>
      <psa03 value="0.5348674561" flag="0"/>
      <psa10 value="0.0769901411" flag="0"/>
      <psa30 value="0.0158610039" flag="0"/>
    </comp>
    <comp name="--.HHN">
      <acc value="0.4041201898" flag="0"/>
      <vel value="0.1013403285" flag="0"/>
      <psa03 value="0.5702913619" flag="0"/>
      <psa10 value="0.0589771594" flag="0"/>
      <psa30 value="0.0125149108" flag="0"/>
    </comp>
  </station>
  <station code="GONE" name="GONE" netid="KO" insttype="CMG-5T" commtype="DIG" lat="40.0466" lon="27.686">
    <comp name="--.HNE">
      <acc value="0.2369776429" flag="0"/>
      <vel value="0.2089534340" flag="0"/>
      <psa03 value="0.5611987944" flag="0"/>
      <psa10 value="0.3266862339" flag="0"/>
      <psa30 value="0.0119302954" flag="0"/>
    </comp>
    <comp name="--.HNN">
      <acc value="0.2475027128" flag="0"/>
      <vel value="0.1804645721" flag="0"/>
      <psa03 value="0.8125015816" flag="0"/>
      <psa10 value="0.1933819525" flag="0"/>
      <psa30 value="0.0101196197" flag="0"/>
    </comp>
    <comp name="--.HNZ">
      <acc value="0.2005571341" flag="0"/>
      <vel value="0.0648251249" flag="0"/>
      <psa03 value="0.2599367462" flag="0"/>
      <psa10 value="0.0742293733" flag="0"/>
      <psa30 value="0.0056741058" flag="0"/>
    </comp>
  </station>
  <station code="GUZE" name="GUZE" netid="KO" insttype="SA10" commtype="DIG" lat="40.9998" lon="28.5074">
    <comp name="--.HNE">
      <acc value="1.6372572368" flag="0"/>
      <vel value="0.7223334694" flag="0"/>
      <psa03 value="2.5745138738" flag="0"/>
      <psa10 value="0.2471939484" flag="0"/>
      <psa30 value="0.0469904830" flag="0"/>
    </comp>
    <comp name="--.HNN">
      <acc value="1.4374350679" flag="0"/>
      <vel value="0.6511887858" flag="0"/>
      <psa03 value="4.5975900821" flag="0"/>
      <psa10 value="0.2500073367" flag="0"/>
      <psa30 value="0.0848726275" flag="0"/>
    </comp>
    <comp name="--.HNZ">
      <acc value="0.5326229785" flag="0"/>
      <vel value="0.1942446160" flag="0"/>
      <psa03 value="1.2583181395" flag="0"/>
      <psa10 value="0.1031281402" flag="0"/>
      <psa30 value="0.0304020084" flag="0"/>
    </comp>
  </station>
  <station code="ISK" name="ISK" netid="KO" insttype="CMG-3T" commtype="DIG" lat="41.0615" lon="29.0592">
    <comp name="--.HHN">
      <acc value="0.2547161855" flag="0"/>
      <vel value="0.1359833609" flag="0"/>
      <psa03 value="0.4004084101" flag="0"/>
      <psa10 value="0.1258522306" flag="0"/>
      <psa30 value="0.0083944532" flag="0"/>
    </comp>
    <comp name="--.HHE">
      <acc value="0.2486389726" flag="0"/>
      <vel value="0.0784841474" flag="0"/>
      <psa03 value="0.4254837925" flag="0"/>
      <psa10 value="0.0449553406" flag="0"/>
      <psa30 value="0.0046113161" flag="0"/>
    </comp>
    <comp name="--.HHZ">
      <acc value="0.1943975669" flag="0"/>
      <vel value="0.0613807446" flag="0"/>
      <psa03 value="0.2833235503" flag="0"/>
      <psa10 value="0.0678909274" flag="0"/>
      <psa30 value="0.0043444569" flag="0"/>
    </comp>
  </station>
  <station code="IZI" name="IZI" netid="KO" insttype="CMG-5T" commtype="DIG" lat="40.3483" lon="29.4612">
    <comp name="--.HNZ">
      <acc value="0.3075406875" flag="0"/>
      <vel value="0.1338939044" flag="0"/>
      <psa03 value="0.7014227739" flag="0"/>
      <psa10 value="0.1055980337" flag="0"/>
      <psa30 value="0.0124320800" flag="0"/>
    </comp>
    <comp name="--.HNE">
      <acc value="0.4758772577" flag="0"/>
      <vel value="0.2613762522" flag="0"/>
      <psa03 value="1.0613095392" flag="0"/>
      <psa10 value="0.1393296197" flag="0"/>
      <psa30 value="0.0123295028" flag="0"/>
    </comp>
  </station>
  <station code="KAVV" name="KAVV" netid="KO" insttype="CMG-3ESPC" commtype="DIG" lat="41.0638" lon="29.06">
    <comp name="--.HHE">
      <acc value="0.6124648408" flag="0"/>
      <vel value="0.1826546443" flag="0"/>
      <psa03 value="1.3339638395" flag="0"/>
      <psa10 value="0.0785312576" flag="0"/>
      <psa30 value="0.0065393346" flag="0"/>
    </comp>
    <comp name="--.HHN">
      <acc value="0.5532412712" flag="0"/>
      <vel value="0.2029529362" flag="0"/>
      <psa03 value="0.8987475791" flag="0"/>
      <psa10 value="0.1488336032" flag="0"/>
      <psa30 value="0.0097376641" flag="0"/>
    </comp>
    <comp name="--.HHZ">
      <acc value="0.3581073980" flag="0"/>
      <vel value="0.1080698177" flag="0"/>
      <psa03 value="0.4062930772" flag="0"/>
      <psa10 value="0.0788473113" flag="0"/>
      <psa30 value="0.0042279645" flag="0"/>
    </comp>
  </station>
  <station code="KCTX" name="KCTX" netid="KO" insttype="CMG-3ESP" commtype="DIG" lat="40.2626" lon="28.3353">
    <comp name="--.HHE">
      <acc value="0.2450023584" flag="0"/>
      <vel value="0.1109387947" flag="0"/>
      <psa03 value="0.5072555542" flag="0"/>
      <psa10 value="0.0489065050" flag="0"/>
      <psa30 value="0.0079464052" flag="0"/>
    </comp>
    <comp name="--.HHZ">
      <acc value="0.2375340318" flag="0"/>
      <vel value="0.0656596724" flag="0"/>
      <psa03 value="0.3093668814" flag="0"/>
      <psa10 value="0.0230210562" flag="0"/>
      <psa30 value="0.0075140288" flag="0"/>
    </comp>
    <comp name="--.HHN">
      <acc value="0.2922357696" flag="0"/>
      <vel value="0.0709509482" flag="0"/>
      <psa03 value="0.4719480277" flag="0"/>
      <psa10 value="0.0428358795" flag="0"/>
      <psa30 value="0.0053938309" flag="0"/>
    </comp>
  </station>
  <station code="KOUK" name="KOUK" netid="KO" insttype="SA10" commtype="DIG" lat="40.6572" lon="29.1918">
    <comp name="--.HNE">
      <acc value="0.7403806005" flag="0"/>
      <vel value="0.6578807993" flag="0"/>
      <psa03 value="2.6472568840" flag="0"/>
      <psa10 value="0.9910588945" flag="0"/>
      <psa30 value="0.0708994915" flag="0"/>
    </comp>
    <comp name="--.HNZ">
      <acc value="0.4708689685" flag="0"/>
      <vel value="0.2769092644" flag="0"/>
      <psa03 value="1.6311647695" flag="0"/>
      <psa10 value="0.2748506845" flag="0"/>
      <psa30 value="0.0282821359" flag="0"/>
    </comp>
    <comp name="--.HNN">
      <acc value="0.6518951556" flag="0"/>
      <vel value="0.5828422443" flag="0"/>
      <psa03 value="1.8102708278" flag="0"/>
      <psa10 value="1.0042295689" flag="0"/>
      <psa30 value="0.0537664776" flag="0"/>
    </comp>
  </station>
  <station code="KRBG" name="KRBG" netid="KO" insttype="CMG-3ESP" commtype="DIG" lat="40.3932" lon="27.2977">
    <comp name="--.HHN">
      <acc value="0.3576707335" flag="0"/>
      <vel value="0.1335221654" flag="0"/>
      <psa03 value="0.7752237725" flag="0"/>
      <psa10 value="0.0476428946" flag="0"/>
      <psa30 value="0.0058259152" flag="0"/>
    </comp>
    <comp name="--.HHZ">
      <acc value="0.1948193946" flag="0"/>
      <vel value="0.0658524361" flag="0"/>
      <psa03 value="0.3797705883" flag="0"/>
      <psa10 value="0.0315553131" flag="0"/>
      <psa30 value="0.0050393263" flag="0"/>
    </comp>
    <comp name="--.HHE">
      <acc value="0.4955175030" flag="0"/>
      <vel value="0.1286047776" flag="0"/>
      <psa03 value="1.0008450840" flag="0"/>
      <psa10 value="0.0633185008" flag="0"/>
      <psa30 value="0.0049184334" flag="0"/>
    </comp>
  </station>
