<?xml version="1.0" encoding="UTF-8" standalone="yes"?>
<!DOCTYPE earthquake SYSTEM "stationlist.dtd">
<stationlist created="" xmlns="ch.ethz.sed.shakemap.usgs.xml">
  <station code="MYT1" name="MYT1" netid="HI" insttype="CMG-5TD,ACCELEROMETER,GURALP" commtype="DIG" lat="39.085" lon="26.5694">
    <comp name="--.HNE">
      <acc value="0.0562344481" flag="0"/>
      <vel value="0.0450591429" flag="0"/>
      <psa03 value="0.0901825622" flag="0"/>
      <psa10 value="0.0830616898" flag="0"/>
      <psa30 value="0.0099872938" flag="0"/>
    </comp>
    <comp name="--.HNZ">
      <acc value="0.0250060614" flag="0"/>
      <vel value="0.0242547363" flag="0"/>
      <psa03 value="0.0499595381" flag="0"/>
      <psa10 value="0.0398824482" flag="0"/>
      <psa30 value="0.0053437050" flag="0"/>
    </comp>
    <comp name="--.HNN">
      <acc value="0.0609781894" flag="0"/>
      <vel value="0.0653147712" flag="0"/>
      <psa03 value="0.0799851391" flag="0"/>
      <psa10 value="0.1191808693" flag="0"/>
      <psa30 value="0.0126036127" flag="0"/>
    </comp>
  </station>
  <station code="AKS" name="AKS" netid="KO" insttype="CMG-5T" commtype="DIG" lat="38.8785" lon="27.8129">
    <comp name="--.HNN">
      <acc value="0.2733150506" flag="0"/>
      <vel value="0.1122085020" flag="0"/>
      <psa03 value="0.4534805855" flag="0"/>
      <psa10 value="0.0708648947" flag="0"/>
      <psa30 value="0.0186313733" flag="0"/>
    </comp>
    <comp name="--.HNE">
      <acc value="0.2582547518" flag="0"/>
      <vel value="0.0711238603" flag="0"/>
      <psa03 value="0.4334371803" flag="0"/>
      <psa10 value="0.0816786101" flag="0"/>
      <psa30 value="0.0137768539" flag="0"/>
    </comp>
    <comp name="--.HNZ">
      <acc value="0.1962288220" flag="0"/>
      <vel value="0.0678777002" flag="0"/>
      <psa03 value="0.1806200895" flag="0"/>
      <psa10 value="0.0392321389" flag="0"/>
      <psa30 value="0.0134511319" flag="0"/>
    </comp>
  </station>
  <station code="AYDB" name="AYDB" netid="KO" insttype="CMG-3ESPC" commtype="DIG" lat="37.9467" lon="27.8908">
    <comp name="--.HHE">
      <acc value="0.0911268180" flag="0"/>
      <vel value="0.0570174942" flag="0"/>
      <psa03 value="0.4117495725" flag="0"/>
      <psa10 value="0.0456292764" flag="0"/>
      <psa30 value="0.0056574516" flag="0"/>
    </comp>
    <comp name="--.HHZ">
      <acc value="0.0563767552" flag="0"/>
      <vel value="0.0328484224" flag="0"/>
      <psa03 value="0.1250060670" flag="0"/>
      <psa10 value="0.0312639213" flag="0"/>
      <psa30 value="0.0028268995" flag="0"/>
    </comp>
    <comp name="--.HHN">
      <acc value="0.0685033519" flag="0"/>
      <vel value="0.0403901587" flag="0"/>
      <psa03 value="0.2049042819" flag="0"/>
      <psa10 value="0.0346685899" flag="0"/>
      <psa30 value="0.0050592206" flag="0"/>
    </comp>
  </station>
  <station code="AYVL" name="AYVL" netid="KO" insttype="CMG-6T" commtype="DIG" lat="39.2907" lon="26.69">
    <comp name="--.HHE">
      <acc value="0.1286907505" flag="0"/>
      <vel value="0.0556519605" flag="0"/>
      <psa03 value="0.2218270474" flag="0"/>
      <psa10 value="0.0450869682" flag="0"/>
      <psa30 value="0.0020467297" flag="0"/>
    </comp>
    <comp name="--.HHN">
      <acc value="0.2319077470" flag="0"/>
      <vel value="0.0777820233" flag="0"/>
      <psa03 value="0.2363246930" flag="0"/>
      <psa10 value="0.0505289521" flag="0"/>
      <psa30 value="0.0023396340" flag="0"/>
    </comp>
    <comp name="--.HHZ">
      <acc value="0.0487529717" flag="0"/>
      <vel value="0.0218786345" flag="0"/>
      <psa03 value="0.0823692690" flag="0"/>
      <psa10 value="0.0219270571" flag="0"/>
      <psa30 value="0.0008865908" flag="0"/>
    </comp>
  </station>
  <station code="BALB" name="BALB" netid="KO" insttype="CMG-5T" commtype="DIG" lat="39.6507" lon="27.8642">
    <comp name="--.HNE">
      <acc value="0.1274581662" flag="0"/>
      <vel value="0.0729534843" flag="0"/>
      <psa03 value="0.2422575879" flag="0"/>
      <psa10 value="0.1217181184" flag="0"/>
      <psa30 value="0.0083567155" flag="0"/>
    </comp>
    <comp name="--.HNN">
      <acc value="0.1406411999" flag="0"/>
      <vel value="0.0801810010" flag="0"/>
      <psa03 value="0.4222048441" flag="0"/>
      <psa10 value="0.1096035360" flag="0"/>
      <psa30 value="0.0158509509" flag="0"/>
    </comp>
    <comp name="--.HNZ">
      <acc value="0.0862387622" flag="0"/>
      <vel value="0.0394423887" flag="0"/>
      <psa03 value="0.1432658931" flag="0"/>
      <psa10 value="0.0385200648" flag="0"/>
      <psa30 value="0.0077295620" flag="0"/>
    </comp>
  </station>
  <station code="CANM" name="CANM" netid="KO" insttype="CMG-5T" commtype="DIG" lat="40.0113" lon="27.0529">
    <comp name="--.HNE">
      <acc value="0.0437659991" flag="0"/>
      <vel value="0.0331032588" flag="0"/>
      <psa03 value="0.0718175601" flag="0"/>
      <psa10 value="0.0440095782" flag="0"/>
      <psa30 value="0.0041668484" flag="0"/>
    </comp>
    <comp name="--.HNZ">
      <acc value="0.0291349374" flag="0"/>
      <vel value="0.0206862527" flag="0"/>
      <psa03 value="0.0540830852" flag="0"/>
      <psa10 value="0.0225945381" flag="0"/>
      <psa30 value="0.0039536491" flag="0"/>
    </comp>
    <comp name="--.HNN">
      <acc value="0.0475865173" flag="0"/>
      <vel value="0.0377506653" flag="0"/>
      <psa03 value="0.0813235210" flag="0"/>
      <psa10 value="0.0716358770" flag="0"/>
      <psa30 value="0.0042782230" flag="0"/>
    </comp>
  </station>
  <station code="DST" name="DST" netid="KO" insttype="CMG-5T" commtype="DIG" lat="39.6041" lon="28.6267">
    <comp name="--.HNE">
      <acc value="0.2085233743" flag="0"/>
      <vel value="0.0916463036" flag="0"/>
      <psa03 value="0.3801391917" flag="0"/>
      <psa10 value="0.1294816872" flag="0"/>
      <psa30 value="0.0071146305" flag="0"/>
    </comp>
    <comp name="--.HNZ">
      <acc value="0.2388325925" flag="0"/>
      <vel value="0.0868494191" flag="0"/>
      <psa03 value="0.3020586002" flag="0"/>
      <psa10 value="0.0731303452" flag="0"/>
      <psa30 value="0.0098792306" flag="0"/>
    </comp>
    <comp name="--.HNN">
      <acc value="0.2243613826" flag="0"/>
      <vel value="0.1706368451" flag="0"/>
      <psa03 value="0.5478210398" flag="0"/>
      <psa10 value="0.1250026872" flag="0"/>
      <psa30 value="0.0135989825" flag="0"/>
    </comp>
  </station>
  <station code="EDC" name="EDC" netid="KO" insttype="CMG-3T" commtype="DIG" lat="40.3465" lon="27.8618">
    <comp name="--.HHN">
      <acc value="0.1094578141" flag="0"/>
      <vel value="0.0758520362" flag="0"/>
      <psa03 value="0.3940082699" flag="0"/>
      <psa10 value="0.0948820323" flag="0"/>
      <psa30 value="0.0080149344" flag="0"/>
    </comp>
    <comp name="--.HHE">
      <acc value="0.0788760328" flag="0"/>
      <vel value="0.0800739704" flag="0"/>
      <psa03 value="0.1955557505" flag="0"/>
      <psa10 value="0.0684024173" flag="0"/>
      <psa30 value="0.0101119093" flag="0"/>
    </comp>
    <comp name="--.HHZ">
      <acc value="0.0524431362" flag="0"/>
      <vel value="0.0396414967" flag="0"/>
      <psa03 value="0.1144583104" flag="0"/>
      <psa10 value="0.0371241432" flag="0"/>
      <psa30 value="0.0053540804" flag="0"/>
    </comp>
  </station>
  <station code="GOMA" name="GOMA" netid="KO" insttype="CMG-5T" commtype="DIG" lat="38.7077" lon="27.9175">
    <comp name="--.HNE">
      <acc value="0.3186568026" flag="0"/>
      <vel value="0.1774699395" flag="0"/>
      <psa03 value="0.9524143366" flag="0"/>
      <psa10 value="0.0839519846" flag="0"/>
      <psa30 value="0.0057087398" flag="0"/>
    </comp>
  </station>
  <station code="GONE" name="GONE" netid="KO" insttype="CMG-5T" commtype="DIG" lat="40.0466" lon="27.686">
    <comp name="--.HNZ">
      <acc value="0.0454325838" flag="0"/>
      <vel value="0.0182230889" flag="0"/>
      <psa03 value="0.0943154805" flag="0"/>
      <psa10 value="0.0283561779" flag="0"/>
      <psa30 value="0.0044346587" flag="0"/>
    </comp>
    <comp name="--.HNN">
      <acc value="0.1014327895" flag="0"/>
      <vel value="0.0837441655" flag="0"/>
      <psa03 value="0.3141148558" flag="0"/>
      <psa10 value="0.1008818929" flag="0"/>
      <psa30 value="0.0071419969" flag="0"/>
    </comp>
    <comp name="--.HNE">
      <acc value="0.0937655007" flag="0"/>
      <vel value="0.0459504989" flag="0"/>
      <psa03 value="0.2083956226" flag="0"/>
      <psa10 value="0.0718888011" flag="0"/>
      <psa30 value="0.0044232142" flag="0"/>
    </comp>
  </station>
  <station code="GORD" name="GORD" netid="KO" insttype="CMG-5T" commtype="DIG" lat="38.9088" lon="28.1769">
    <comp name="--.HNE">
      <acc value="0.3010346759" flag="0"/>
      <vel value="0.2138674088" flag="0"/>
      <psa03 value="0.4264899811" flag="0"/>
      <psa10 value="0.2500069474" flag="0"/>
      <psa30 value="0.0324287214" flag="0"/>
    </comp>
    <comp name="--.HNZ">
      <acc value="0.3082901252" flag="0"/>
      <vel value="0.2073687952" flag="0"/>
      <psa03 value="0.5546417559" flag="0"/>
      <psa10 value="0.2444280674" flag="0"/>
      <psa30 value="0.0429780650" flag="0"/>
    </comp>
    <comp name="--.HNN">
      <acc value="0.3997824621" flag="0"/>
      <vel value="0.3044088252" flag="0"/>
      <psa03 value="0.8695807575" flag="0"/>
      <psa10 value="0.3982064369" flag="0"/>
      <psa30 value="0.0263581400" flag="0"/>
    </comp>
  </station>
  <station code="KCTX" name="KCTX" netid="KO" insttype="CMG-3ESP" commtype="DIG" lat="40.2626" lon="28.3353">
    <comp name="--.HHN">
      <acc value="0.1118786704" flag="0"/>
      <vel value="0.0539957785" flag="0"/>
      <psa03 value="0.2137877146" flag="0"/>
      <psa10 value="0.0820304471" flag="0"/>
      <psa30 value="0.0054064199" flag="0"/>
    </comp>
    <comp name="--.HHE">
      <acc value="0.0812182501" flag="0"/>
      <vel value="0.0609406699" flag="0"/>
      <psa03 value="0.1245027989" flag="0"/>
      <psa10 value="0.0926631226" flag="0"/>
      <psa30 value="0.0057566726" flag="0"/>
    </comp>
    <comp name="--.HHZ">
      <acc value="0.0619394349" flag="0"/>
      <vel value="0.0379331442" flag="0"/>
      <psa03 value="0.1560933179" flag="0"/>
      <psa10 value="0.0365497138" flag="0"/>
      <psa30 value="0.0038792563" flag="0"/>
    </comp>
  </station>
  <station code="KULA" name="KULA" netid="KO" insttype="CMG-3T" commtype="DIG" lat="38.5145" lon="28.6607">
    <comp name="--.HHZ">
      <acc value="0.3647182743" flag="0"/>
      <vel value="0.1020113157" flag="0"/>
      <psa03 value="0.4082083306" flag="0"/>
      <psa10 value="0.0706291008" flag="0"/>
      <psa30 value="0.0075091265" flag="0"/>
    </comp>
  </station>
  <station code="MDNY" name="MDNY" netid="KO" insttype="CMG-5T" commtype="DIG" lat="40.3709" lon="28.8846">
    <comp name="--.HNZ">
      <acc value="0.1497468042" flag="0"/>
      <vel value="0.1062223955" flag="0"/>
      <psa03 value="0.1799194851" flag="0"/>
      <psa10 value="0.0766815876" flag="0"/>
      <psa30 value="0.0137545301" flag="0"/>
    </comp>
    <comp name="--.HNN">
      <acc value="0.2782173679" flag="0"/>
      <vel value="0.1172841158" flag="0"/>
      <psa03 value="0.6096248875" flag="0"/>
      <psa10 value="0.1132026820" flag="0"/>
      <psa30 value="0.0091026458" flag="0"/>
    </comp>
    <comp name="--.HNE">
      <acc value="0.2949242124" flag="0"/>
      <vel value="0.1417194608" flag="0"/>
      <psa03 value="0.6129620229" flag="0"/>
      <psa10 value="0.1029403675" flag="0"/>
      <psa30 value="0.0092977561" flag="0"/>
    </comp>
  </station>
  <station code="NAZL" name="NAZL" netid="KO" insttype="CMG-5T" commtype="DIG" lat="37.9641" lon="28.2922">
    <comp name="--.HNE">
      <acc value="0.0986616286" flag="0"/>
      <vel value="0.0691652133" flag="0"/>
      <psa03 value="0.3395858069" flag="0"/>
      <psa10 value="0.1007164245" flag="0"/>
      <psa30 value="0.0099377731" flag="0"/>
    </comp>
    <comp name="--.HNN">
      <acc value="0.0605658515" flag="0"/>
      <vel value="0.0450045612" flag="0"/>
      <psa03 value="0.1666102072" flag="0"/>
      <psa10 value="0.0442350739" flag="0"/>
      <psa30 value="0.0034655197" flag="0"/>
    </comp>
    <comp name="--.HNZ">
      <acc value="0.0357105975" flag="0"/>
      <vel value="0.0298227688" flag="0"/>
      <psa03 value="0.0947972804" flag="0"/>
      <psa10 value="0.0361724694" flag="0"/>
      <psa30 value="0.0029134049" flag="0"/>
    </comp>
  </station>
  <station code="ORLT" name="ORLT" netid="KO" insttype="CMG-5T" commtype="DIG" lat="40.0452" lon="28.8914">
    <comp name="--.HNE">
      <acc value="0.2316031925" flag="0"/>
      <vel value="0.1340749897" flag="0"/>
      <psa03 value="0.6030829846" flag="0"/>
      <psa10 value="0.1824607551" flag="0"/>
      <psa30 value="0.0105181644" flag="0"/>
    </comp>
    <comp name="--.HNN">
      <acc value="0.1970734165" flag="0"/>
      <vel value="0.1580779389" flag="0"/>
      <psa03 value="0.4999119393" flag="0"/>
      <psa10 value="0.2991578700" flag="0"/>
      <psa30 value="0.0117800320" flag="0"/>
    </comp>
    <comp name="--.HNZ">
      <acc value="0.0930412273" flag="0"/>
      <vel value="0.0921626867" flag="0"/>
      <psa03 value="0.2347117916" flag="0"/>
      <psa10 value="0.1698964515" flag="0"/>
      <psa30 value="0.0083666872" flag="0"/>
    </comp>
  </station>
  <station code="SHAP" name="SHAP" netid="KO" insttype="CMG-5T" commtype="DIG" lat="39.0231" lon="29.222">
    <comp name="--.HNE">
      <acc value="0.4803694523" flag="0"/>
      <vel value="0.2029915317" flag="0"/>
      <psa03 value="1.4198193350" flag="0"/>
      <psa10 value="0.0866435235" flag="0"/>
      <psa30 value="0.0064306254" flag="0"/>
    </comp>
    <comp name="--.HNN">
      <acc value="0.4280767284" flag="0"/>
      <vel value="0.1803518220" flag="0"/>
      <psa03 value="1.2233574398" flag="0"/>
      <psa10 value="0.0866776737" flag="0"/>
      <psa30 value="0.0069024957" flag="0"/>
    </comp>
    <comp name="--.HNZ">
      <acc value="0.3267223310" flag="0"/>
      <vel value="0.0876380538" flag="0"/>
      <psa03 value="0.3068321202" flag="0"/>
      <psa10 value="0.0644788840" flag="0"/>
      <psa30 value="0.0041596491" flag="0"/>
    </comp>
  </station>
  <station code="SIMA" name="SIMA" netid="KO" insttype="CMG-6T" commtype="DIG" lat="39.0833" lon="28.9825">
    <comp name="--.HHN">
      <acc value="0.4161707788" flag="0"/>
      <vel value="0.1574104566" flag="0"/>
      <psa03 value="0.7536110674" flag="0"/>
      <psa10 value="0.0682037032" flag="0"/>
      <psa30 value="0.0143139540" flag="0"/>
    </comp>
    <comp name="--.HHZ">
      <acc value="0.2630236993" flag="0"/>
      <vel value="0.0565451226" flag="0"/>
      <psa03 value="0.1748841834" flag="0"/>
      <psa10 value="0.0573625165" flag="0"/>
      <psa30 value="0.0068915674" flag="0"/>
    </comp>
    <comp name="--.HHE">
      <acc value="0.3777459710" flag="0"/>
      <vel value="0.0801211925" flag="0"/>
      <psa03 value="0.4157812380" flag="0"/>
      <psa10 value="0.0471346734" flag="0"/>
      <psa30 value="0.0065381203" flag="0"/>
    </comp>
  </station>
  <station code="SMAA" name="SMAA" netid="KO" insttype="CMG-5T" commtype="DIG" lat="39.1005" lon="28.9805">
    <comp name="--.HNE">
      <acc value="0.4872106509" flag="0"/>
      <vel value="0.2515062600" flag="0"/>
      <psa03 value="0.7987021951" flag="0"/>
      <psa10 value="0.2708745814" flag="0"/>
      <psa30 value="0.0283324924" flag="0"/>
    </comp>
    <comp name="--.HNN">
      <acc value="0.4940441617" flag="0"/>
      <vel value="0.2476995430" flag="0"/>
      <psa03 value="0.9360246674" flag="0"/>
      <psa10 value="0.3594327819" flag="0"/>
      <psa30 value="0.0254077881" flag="0"/>
    </comp>
    <comp name="--.HNZ">
      <acc value="0.1861180416" flag="0"/>
      <vel value="0.1455899295" flag="0"/>
      <psa03 value="0.2418550443" flag="0"/>
      <psa10 value="0.3869030821" flag="0"/>
      <psa30 value="0.0157805099" flag="0"/>
    </comp>
  </station>
  <station code="SOMA" name="SOMA" netid="KO" insttype="CMG-5T" commtype="DIG" lat="39.1564" lon="27.5341">
    <comp name="--.HNE">
      <acc value="0.1601603942" flag="0"/>
      <vel value="0.0553184293" flag="0"/>
      <psa03 value="0.1911735130" flag="0"/>
      <psa10 value="0.0701512791" flag="0"/>
      <psa30 value="0.0081120571" flag="0"/>
    </comp>
    <comp name="--.HNN">
      <acc value="0.1965444524" flag="0"/>
      <vel value="0.0929312407" flag="0"/>
      <psa03 value="0.3276027684" flag="0"/>
      <psa10 value="0.0687927829" flag="0"/>
      <psa30 value="0.0082312756" flag="0"/>
    </comp>
    <comp name="--.HNZ">
      <acc value="0.1434916716" flag="0"/>
      <vel value="0.0433886660" flag="0"/>
      <psa03 value="0.1153438402" flag="0"/>
      <psa10 value="0.0453331547" flag="0"/>
      <psa30 value="0.0066682636" flag="0"/>
    </comp>
  </station>
  <station code="SUSR" name="SUSR" netid="KO" insttype="CMG-5T" commtype="DIG" lat="39.9627" lon="28.0835">
    <comp name="--.HNE">
      <acc value="0.0902734204" flag="0"/>
      <vel value="0.0313962999" flag="0"/>
      <psa03 value="0.1499272864" flag="0"/>
      <psa10 value="0.0267753570" flag="0"/>
      <psa30 value="0.0050363323" flag="0"/>
    </comp>
    <comp name="--.HNN">
      <acc value="0.1135740450" flag="0"/>
      <vel value="0.0439218936" flag="0"/>
      <psa03 value="0.2513875335" flag="0"/>
      <psa10 value="0.0181673771" flag="0"/>
      <psa30 value="0.0058875135" flag="0"/>
    </comp>
    <comp name="--.HNZ">
      <acc value="0.0805739600" flag="0"/>
      <vel value="0.0308765403" flag="0"/>
      <psa03 value="0.1522002212" flag="0"/>
      <psa10 value="0.0255154798" flag="0"/>
      <psa30 value="0.0080984640" flag="0"/>
    </comp>
  </station>
  <station code="TVSB" name="TVSB" netid="KO" insttype="CMG-3T" commtype="DIG" lat="39.4497" lon="29.4615">
    <comp name="--.HHN">
      <acc value="0.1579090192" flag="0"/>
      <vel value="0.0757338097" flag="0"/>
      <psa03 value="0.4967438007" flag="0"/>
      <psa10 value="0.0736373111" flag="0"/>
      <psa30 value="0.0040750512" flag="0"/>
    </comp>
    <comp name="--.HHE">
      <acc value="0.1942912836" flag="0"/>
      <vel value="0.1365880392" flag="0"/>
      <psa03 value="0.7392715108" flag="0"/>
      <psa10 value="0.0852756295" flag="0"/>
      <psa30 value="0.0064823052" flag="0"/>
    </comp>
    <comp name="--.HHZ">
      <acc value="0.0793024600" flag="0"/>
      <vel value="0.0385689230" flag="0"/>
      <psa03 value="0.1927006167" flag="0"/>
      <psa10 value="0.0499763018" flag="0"/>
      <psa30 value="0.0062511695" flag="0"/>
    </comp>
  </station>
  <station code="YAYO" name="YAYO" netid="KO" insttype="CMG-6T" commtype="DIG" lat="39.6113" lon="27.0726">
    <comp name="--.HHE">
      <acc value="0.0711851702" flag="0"/>
      <vel value="0.0437150067" flag="0"/>
      <psa03 value="0.1398213832" flag="0"/>
      <psa10 value="0.0498854620" flag="0"/>
      <psa30 value="0.0031580630" flag="0"/>
    </comp>
    <comp name="--.HHZ">
      <acc value="0.0422783282" flag="0"/>
      <vel value="0.0208582459" flag="0"/>
      <psa03 value="0.1142527045" flag="0"/>
      <psa10 value="0.0219594931" flag="0"/>
      <psa30 value="0.0034457779" flag="0"/>
    </comp>
    <comp name="--.HHN">
      <acc value="0.0616030963" flag="0"/>
      <vel value="0.0452369630" flag="0"/>
      <psa03 value="0.1798202301" flag="0"/>
      <psa10 value="0.0359889841" flag="0"/>
      <psa30 value="0.0033759782" flag="0"/>
    </comp>
  </station>
  <station code="YENI" name="YENI" netid="KO" insttype="CMG-5T" commtype="DIG" lat="39.9364" lon="27.2422">
    <comp name="--.HNE">
      <acc value="0.1270074801" flag="0"/>
      <vel value="0.0987654981" flag="0"/>
      <psa03 value="0.1916657706" flag="0"/>
