<?xml version="1.0" encoding="UTF-8" standalone="yes"?>
<!DOCTYPE earthquake SYSTEM "stationlist.dtd">
<stationlist created="" xmlns="ch.ethz.sed.shakemap.usgs.xml">
  <station code="MYT1" name="MYT1" netid="HI" insttype="CMG-5TD,ACCELEROMETER,GURALP" commtype="DIG" lat="39.085" lon="26.5694">
    <comp name="--.HNN">
      <acc value="0.0609781896" flag="0"/>
      <vel value="0.0653147701" flag="0"/>
      <psa03 value="0.0799851391" flag="0"/>
      <psa10 value="0.1191808692" flag="0"/>
      <psa30 value="0.0126035670" flag="0"/>
    </comp>
    <comp name="--.HNZ">
      <acc value="0.0250060633" flag="0"/>
      <vel value="0.0242547366" flag="0"/>
      <psa03 value="0.0499595381" flag="0"/>
      <psa10 value="0.0398824482" flag="0"/>
      <psa30 value="0.0053436970" flag="0"/>
    </comp>
    <comp name="--.HNE">
      <acc value="0.0562344479" flag="0"/>
      <vel value="0.0450591410" flag="0"/>
      <psa03 value="0.0901825622" flag="0"/>
      <psa10 value="0.0830616898" flag="0"/>
      <psa30 value="0.0099872710" flag="0"/>
    </comp>
  </station>
  <station code="AKS" name="AKS" netid="KO" insttype="CMG-5T" commtype="DIG" lat="38.8785" lon="27.8129">
    <comp name="--.HNE">
      <acc value="0.2582547507" flag="0"/>
      <vel value="0.0711238640" flag="0"/>
      <psa03 value="0.4334371803" flag="0"/>
      <psa10 value="0.0816785762" flag="0"/>
      <psa30 value="0.0137768582" flag="0"/>
    </comp>
    <comp name="--.HNN">
      <acc value="0.2733150499" flag="0"/>
      <vel value="0.1122085051" flag="0"/>
      <psa03 value="0.4534805855" flag="0"/>
      <psa10 value="0.0708648836" flag="0"/>
      <psa30 value="0.0186306383" flag="0"/>
    </comp>
    <comp name="--.HNZ">
      <acc value="0.1962288299" flag="0"/>
      <vel value="0.0678777054" flag="0"/>
      <psa03 value="0.1806200895" flag="0"/>
      <psa10 value="0.0392318816" flag="0"/>
      <psa30 value="0.0134507370" flag="0"/>
    </comp>
  </station>
  <station code="AYDB" name="AYDB" netid="KO" insttype="CMG-3ESPC" commtype="DIG" lat="37.9467" lon="27.8908">
    <comp name="--.HHN">
      <acc value="0.0685033519" flag="0"/>
      <vel value="0.0403901598" flag="0"/>
      <psa03 value="0.2049042819" flag="0"/>
      <psa10 value="0.0346685899" flag="0"/>
      <psa30 value="0.0050592408" flag="0"/>
    </comp>
    <comp name="--.HHE">
      <acc value="0.0911268179" flag="0"/>
      <vel value="0.0570174929" flag="0"/>
      <psa03 value="0.4117495725" flag="0"/>
      <psa10 value="0.0456292764" flag="0"/>
      <psa30 value="0.0056574512" flag="0"/>
    </comp>
    <comp name="--.HHZ">
      <acc value="0.0563767552" flag="0"/>
      <vel value="0.0328484226" flag="0"/>
      <psa03 value="0.1250060670" flag="0"/>
      <psa10 value="0.0312639213" flag="0"/>
      <psa30 value="0.0028269062" flag="0"/>
    </comp>
  </station>
  <station code="AYVL" name="AYVL" netid="KO" insttype="CMG-6T" commtype="DIG" lat="39.2907" lon="26.69">
    <comp name="--.HHN">
      <acc value="0.2319077288" flag="0"/>
      <vel value="0.0777820209" flag="0"/>
      <psa03 value="0.2363246930" flag="0"/>
      <psa10 value="0.0505289522" flag="0"/>
      <psa30 value="0.0023396443" flag="0"/>
    </comp>
    <comp name="--.HHZ">
      <acc value="0.0487529704" flag="0"/>
      <vel value="0.0218786348" flag="0"/>
      <psa03 value="0.0823692690" flag="0"/>
      <psa10 value="0.0219270571" flag="0"/>
      <psa30 value="0.0008865895" flag="0"/>
    </comp>
    <comp name="--.HHE">
      <acc value="0.1286907446" flag="0"/>
      <vel value="0.0556519649" flag="0"/>
      <psa03 value="0.2218270474" flag="0"/>
      <psa10 value="0.0450869681" flag="0"/>
      <psa30 value="0.0020467396" flag="0"/>
    </comp>
  </station>
  <station code="BALB" name="BALB" netid="KO" insttype="CMG-5T" commtype="DIG" lat="39.6507" lon="27.8642">
    <comp name="--.HNE">
      <acc value="0.1274581669" flag="0"/>
      <vel value="0.0729534821" flag="0"/>
      <psa03 value="0.2422575879" flag="0"/>
      <psa10 value="0.1217181204" flag="0"/>
      <psa30 value="0.0083571589" flag="0"/>
    </comp>
    <comp name="--.HNZ">
      <acc value="0.0862387633" flag="0"/>
      <vel value="0.0394423882" flag="0"/>
      <psa03 value="0.1432658931" flag="0"/>
      <psa10 value="0.0385200677" flag="0"/>
      <psa30 value="0.0077297929" flag="0"/>
    </comp>
    <comp name="--.HNN">
      <acc value="0.1406412006" flag="0"/>
      <vel value="0.0801810024" flag="0"/>
      <psa03 value="0.4222048441" flag="0"/>
      <psa10 value="0.1096035443" flag="0"/>
      <psa30 value="0.0158494419" flag="0"/>
    </comp>
  </station>
  <station code="CANM" name="CANM" netid="KO" insttype="CMG-5T" commtype="DIG" lat="40.0113" lon="27.0529">
    <comp name="--.HNE">
      <acc value="0.0437660016" flag="0"/>
      <vel value="0.0331032579" flag="0"/>
      <psa03 value="0.0718175601" flag="0"/>
      <psa10 value="0.0440095783" flag="0"/>
      <psa30 value="0.0041668468" flag="0"/>
    </comp>
    <comp name="--.HNN">
      <acc value="0.0475865177" flag="0"/>
      <vel value="0.0377506639" flag="0"/>
      <psa03 value="0.0813235210" flag="0"/>
      <psa10 value="0.0716358770" flag="0"/>
      <psa30 value="0.0042781887" flag="0"/>
    </comp>
    <comp name="--.HNZ">
      <acc value="0.0291349373" flag="0"/>
      <vel value="0.0206862500" flag="0"/>
      <psa03 value="0.0540830852" flag="0"/>
      <psa10 value="0.0225945381" flag="0"/>
      <psa30 value="0.0039536255" flag="0"/>
    </comp>
  </station>
  <station code="DST" name="DST" netid="KO" insttype="CMG-5T" commtype="DIG" lat="39.6041" lon="28.6267">
    <comp name="--.HNZ">
      <acc value="0.2388325962" flag="0"/>
      <vel value="0.0868494146" flag="0"/>
      <psa03 value="0.3020586002" flag="0"/>
      <psa10 value="0.0731303468" flag="0"/>
      <psa30 value="0.0098816932" flag="0"/>
    </comp>
    <comp name="--.HNN">
      <acc value="0.2243613792" flag="0"/>
      <vel value="0.1706368528" flag="0"/>
      <psa03 value="0.5478210398" flag="0"/>
      <psa10 value="0.1250026883" flag="0"/>
      <psa30 value="0.0135974330" flag="0"/>
    </comp>
    <comp name="--.HNE">
      <acc value="0.2085233687" flag="0"/>
      <vel value="0.0916462888" flag="0"/>
      <psa03 value="0.3801391917" flag="0"/>
      <psa10 value="0.1294816710" flag="0"/>
      <psa30 value="0.0071136029" flag="0"/>
    </comp>
  </station>
  <station code="EDC" name="EDC" netid="KO" insttype="CMG-3T" commtype="DIG" lat="40.3465" lon="27.8618">
    <comp name="--.HHE">
      <acc value="0.0788760340" flag="0"/>
      <vel value="0.0800739703" flag="0"/>
      <psa03 value="0.1955557505" flag="0"/>
      <psa10 value="0.0684024173" flag="0"/>
      <psa30 value="0.0101118891" flag="0"/>
    </comp>
    <comp name="--.HHN">
      <acc value="0.1094578144" flag="0"/>
      <vel value="0.0758520374" flag="0"/>
      <psa03 value="0.3940082699" flag="0"/>
      <psa10 value="0.0948820322" flag="0"/>
      <psa30 value="0.0080149939" flag="0"/>
    </comp>
    <comp name="--.HHZ">
      <acc value="0.0524431361" flag="0"/>
      <vel value="0.0396414964" flag="0"/>
      <psa03 value="0.1144583104" flag="0"/>
      <psa10 value="0.0371241432" flag="0"/>
      <psa30 value="0.0053540840" flag="0"/>
    </comp>
  </station>
  <station code="GOMA" name="GOMA" netid="KO" insttype="CMG-5T" commtype="DIG" lat="38.7077" lon="27.9175">
    <comp name="--.HNE">
      <acc value="0.3186568081" flag="0"/>
      <vel value="0.1774699267" flag="0"/>
      <psa03 value="0.9524143366" flag="0"/>
      <psa10 value="0.0839519796" flag="0"/>
      <psa30 value="0.0057079602" flag="0"/>
    </comp>
  </station>
  <station code="GONE" name="GONE" netid="KO" insttype="CMG-5T" commtype="DIG" lat="40.0466" lon="27.686">
    <comp name="--.HNZ">
      <acc value="0.0454325861" flag="0"/>
      <vel value="0.0182230903" flag="0"/>
      <psa03 value="0.0943154805" flag="0"/>
      <psa10 value="0.0283561778" flag="0"/>
      <psa30 value="0.0044348834" flag="0"/>
    </comp>
    <comp name="--.HNE">
      <acc value="0.0937654992" flag="0"/>
      <vel value="0.0459504992" flag="0"/>
      <psa03 value="0.2083956226" flag="0"/>
      <psa10 value="0.0718888009" flag="0"/>
      <psa30 value="0.0044231506" flag="0"/>
    </comp>
    <comp name="--.HNN">
      <acc value="0.1014327898" flag="0"/>
      <vel value="0.0837441650" flag="0"/>
      <psa03 value="0.3141148558" flag="0"/>
      <psa10 value="0.1008818929" flag="0"/>
      <psa30 value="0.0071419546" flag="0"/>
    </comp>
  </station>
  <station code="GORD" name="GORD" netid="KO" insttype="CMG-5T" commtype="DIG" lat="38.9088" lon="28.1769">
    <comp name="--.HNE">
      <acc value="0.3010346752" flag="0"/>
      <vel value="0.2138674088" flag="0"/>
      <psa03 value="0.4264899811" flag="0"/>
      <psa10 value="0.2500069481" flag="0"/>
      <psa30 value="0.0324287138" flag="0"/>
    </comp>
    <comp name="--.HNN">
      <acc value="0.3997824608" flag="0"/>
      <vel value="0.3044088255" flag="0"/>
      <psa03 value="0.8695807575" flag="0"/>
      <psa10 value="0.3982064385" flag="0"/>
      <psa30 value="0.0263583033" flag="0"/>
    </comp>
    <comp name="--.HNZ">
      <acc value="0.3082901247" flag="0"/>
      <vel value="0.2073687961" flag="0"/>
      <psa03 value="0.5546417559" flag="0"/>
      <psa10 value="0.2444280676" flag="0"/>
      <psa30 value="0.0429778884" flag="0"/>
    </comp>
  </station>
  <station code="KCTX" name="KCTX" netid="KO" insttype="CMG-3ESP" commtype="DIG" lat="40.2626" lon="28.3353">
    <comp name="--.HHN">
      <acc value="0.1118786704" flag="0"/>
      <vel value="0.0539957771" flag="0"/>
      <psa03 value="0.2137877146" flag="0"/>
      <psa10 value="0.0820304471" flag="0"/>
      <psa30 value="0.0054064044" flag="0"/>
    </comp>
    <comp name="--.HHE">
      <acc value="0.0812182502" flag="0"/>
      <vel value="0.0609406698" flag="0"/>
      <psa03 value="0.1245027989" flag="0"/>
      <psa10 value="0.0926631226" flag="0"/>
      <psa30 value="0.0057566624" flag="0"/>
    </comp>
    <comp name="--.HHZ">
      <acc value="0.0619394348" flag="0"/>
      <vel value="0.0379331457" flag="0"/>
      <psa03 value="0.1560933179" flag="0"/>
      <psa10 value="0.0365497139" flag="0"/>
      <psa30 value="0.0038792578" flag="0"/>
    </comp>
  </station>
  <station code="KULA" name="KULA" netid="KO" insttype="CMG-3T" commtype="DIG" lat="38.5145" lon="28.6607">
    <comp name="--.HHZ">
      <acc value="0.3647182743" flag="0"/>
      <vel value="0.1020113158" flag="0"/>
      <psa03 value="0.4082083306" flag="0"/>
      <psa10 value="0.0706291008" flag="0"/>
      <psa30 value="0.0075091434" flag="0"/>
    </comp>
  </station>
  <station code="MDNY" name="MDNY" netid="KO" insttype="CMG-5T" commtype="DIG" lat="40.3709" lon="28.8846">
    <comp name="--.HNE">
      <acc value="0.2949242108" flag="0"/>
      <vel value="0.1417194616" flag="0"/>
      <psa03 value="0.6129620229" flag="0"/>
      <psa10 value="0.1029403676" flag="0"/>
      <psa30 value="0.0092977795" flag="0"/>
    </comp>
    <comp name="--.HNN">
      <acc value="0.2782173679" flag="0"/>
      <vel value="0.1172841168" flag="0"/>
      <psa03 value="0.6096248875" flag="0"/>
      <psa10 value="0.1132026819" flag="0"/>
      <psa30 value="0.0091025687" flag="0"/>
    </comp>
    <comp name="--.HNZ">
      <acc value="0.1497468034" flag="0"/>
      <vel value="0.1062223959" flag="0"/>
      <psa03 value="0.1799194851" flag="0"/>
      <psa10 value="0.0766815876" flag="0"/>
      <psa30 value="0.0137546457" flag="0"/>
    </comp>
  </station>
  <station code="NAZL" name="NAZL" netid="KO" insttype="CMG-5T" commtype="DIG" lat="37.9641" lon="28.2922">
    <comp name="--.HNE">
      <acc value="0.0986616287" flag="0"/>
      <vel value="0.0691652119" flag="0"/>
      <psa03 value="0.3395858069" flag="0"/>
      <psa10 value="0.1007164244" flag="0"/>
      <psa30 value="0.0099376716" flag="0"/>
    </comp>
    <comp name="--.HNN">
      <acc value="0.0605658517" flag="0"/>
      <vel value="0.0450045595" flag="0"/>
      <psa03 value="0.1666102072" flag="0"/>
      <psa10 value="0.0442350738" flag="0"/>
      <psa30 value="0.0034655724" flag="0"/>
    </comp>
    <comp name="--.HNZ">
      <acc value="0.0357105969" flag="0"/>
      <vel value="0.0298227694" flag="0"/>
      <psa03 value="0.0947972804" flag="0"/>
      <psa10 value="0.0361724692" flag="0"/>
      <psa30 value="0.0029133753" flag="0"/>
    </comp>
  </station>
  <station code="ORLT" name="ORLT" netid="KO" insttype="CMG-5T" commtype="DIG" lat="40.0452" lon="28.8914">
    <comp name="--.HNE">
      <acc value="0.2316031922" flag="0"/>
      <vel value="0.1340749862" flag="0"/>
      <psa03 value="0.6030829846" flag="0"/>
      <psa10 value="0.1824607550" flag="0"/>
      <psa30 value="0.0105168874" flag="0"/>
    </comp>
    <comp name="--.HNZ">
      <acc value="0.0930412412" flag="0"/>
      <vel value="0.0921626995" flag="0"/>
      <psa03 value="0.2347117916" flag="0"/>
      <psa10 value="0.1698964511" flag="0"/>
      <psa30 value="0.0083672148" flag="0"/>
    </comp>
    <comp name="--.HNN">
      <acc value="0.1970734161" flag="0"/>
      <vel value="0.1580779312" flag="0"/>
      <psa03 value="0.4999119393" flag="0"/>
      <psa10 value="0.2991578722" flag="0"/>
      <psa30 value="0.0117781479" flag="0"/>
    </comp>
  </station>
  <station code="SHAP" name="SHAP" netid="KO" insttype="CMG-5T" commtype="DIG" lat="39.0231" lon="29.222">
    <comp name="--.HNE">
      <acc value="0.4803694514" flag="0"/>
      <vel value="0.2029915323" flag="0"/>
      <psa03 value="1.4198193350" flag="0"/>
      <psa10 value="0.0866435247" flag="0"/>
      <psa30 value="0.0064307714" flag="0"/>
    </comp>
    <comp name="--.HNZ">
      <acc value="0.3267223303" flag="0"/>
      <vel value="0.0876380541" flag="0"/>
      <psa03 value="0.3068321202" flag="0"/>
      <psa10 value="0.0644788844" flag="0"/>
      <psa30 value="0.0041598611" flag="0"/>
    </comp>
    <comp name="--.HNN">
      <acc value="0.4280767296" flag="0"/>
      <vel value="0.1803518228" flag="0"/>
      <psa03 value="1.2233574398" flag="0"/>
      <psa10 value="0.0866776696" flag="0"/>
      <psa30 value="0.0069022355" flag="0"/>
    </comp>
  </station>
  <station code="SIMA" name="SIMA" netid="KO" insttype="CMG-6T" commtype="DIG" lat="39.0833" lon="28.9825">
    <comp name="--.HHE">
      <acc value="0.3777459707" flag="0"/>
      <vel value="0.0801211919" flag="0"/>
      <psa03 value="0.4157812380" flag="0"/>
      <psa10 value="0.0471346734" flag="0"/>
      <psa30 value="0.0065380688" flag="0"/>
    </comp>
    <comp name="--.HHN">
      <acc value="0.4161707811" flag="0"/>
      <vel value="0.1574104556" flag="0"/>
      <psa03 value="0.7536110674" flag="0"/>
      <psa10 value="0.0682037034" flag="0"/>
      <psa30 value="0.0143138796" flag="0"/>
    </comp>
    <comp name="--.HHZ">
      <acc value="0.2630236912" flag="0"/>
      <vel value="0.0565451186" flag="0"/>
      <psa03 value="0.1748841834" flag="0"/>
      <psa10 value="0.0573625165" flag="0"/>
      <psa30 value="0.0068915912" flag="0"/>
    </comp>
  </station>
  <station code="SMAA" name="SMAA" netid="KO" insttype="CMG-5T" commtype="DIG" lat="39.1005" lon="28.9805">
    <comp name="--.HNN">
      <acc value="0.4940441582" flag="0"/>
      <vel value="0.2476995413" flag="0"/>
      <psa03 value="0.9360246674" flag="0"/>
      <psa10 value="0.3594327814" flag="0"/>
      <psa30 value="0.0254120777" flag="0"/>
    </comp>
    <comp name="--.HNZ">
      <acc value="0.1861180407" flag="0"/>
      <vel value="0.1455899210" flag="0"/>
      <psa03 value="0.2418550443" flag="0"/>
      <psa10 value="0.3869030868" flag="0"/>
      <psa30 value="0.0157810718" flag="0"/>
    </comp>
    <comp name="--.HNE">
      <acc value="0.4872106480" flag="0"/>
      <vel value="0.2515062639" flag="0"/>
      <psa03 value="0.7987021951" flag="0"/>
      <psa10 value="0.2708745880" flag="0"/>
      <psa30 value="0.0283325724" flag="0"/>
    </comp>
  </station>
  <station code="SOMA" name="SOMA" netid="KO" insttype="CMG-5T" commtype="DIG" lat="39.1564" lon="27.5341">
    <comp name="--.HNE">
      <acc value="0.1601603923" flag="0"/>
      <vel value="0.0553184256" flag="0"/>
      <psa03 value="0.1911735130" flag="0"/>
      <psa10 value="0.0701512790" flag="0"/>
      <psa30 value="0.0081122287" flag="0"/>
    </comp>
    <comp name="--.HNN">
      <acc value="0.1965444520" flag="0"/>
      <vel value="0.0929312382" flag="0"/>
      <psa03 value="0.3276027684" flag="0"/>
      <psa10 value="0.0687927872" flag="0"/>
      <psa30 value="0.0082312586" flag="0"/>
    </comp>
    <comp name="--.HNZ">
      <acc value="0.1434916705" flag="0"/>
      <vel value="0.0433886672" flag="0"/>
      <psa03 value="0.1153438402" flag="0"/>
      <psa10 value="0.0453331554" flag="0"/>
      <psa30 value="0.0066684408" flag="0"/>
    </comp>
  </station>
  <station code="SUSR" name="SUSR" netid="KO" insttype="CMG-5T" commtype="DIG" lat="39.9627" lon="28.0835">
    <comp name="--.HNE">
      <acc value="0.0902734182" flag="0"/>
      <vel value="0.0313963021" flag="0"/>
      <psa03 value="0.1499272864" flag="0"/>
      <psa10 value="0.0267753578" flag="0"/>
      <psa30 value="0.0050363361" flag="0"/>
    </comp>
    <comp name="--.HNZ">
      <acc value="0.0805739582" flag="0"/>
      <vel value="0.0308765372" flag="0"/>
      <psa03 value="0.1522002212" flag="0"/>
      <psa10 value="0.0255154787" flag="0"/>
      <psa30 value="0.0080983805" flag="0"/>
    </comp>
    <comp name="--.HNN">
      <acc value="0.1135740439" flag="0"/>
      <vel value="0.0439218918" flag="0"/>
      <psa03 value="0.2513875335" flag="0"/>
      <psa10 value="0.0181673773" flag="0"/>
      <psa30 value="0.0058874833" flag="0"/>
    </comp>
  </station>
  <station code="TVSB" name="TVSB" netid="KO" insttype="CMG-3T" commtype="DIG" lat="39.4497" lon="29.4615">
    <comp name="--.HHE">
      <acc value="0.1942912838" flag="0"/>
      <vel value="0.1365880397" flag="0"/>
      <psa03 value="0.7392715108" flag="0"/>
      <psa10 value="0.0852756295" flag="0"/>
      <psa30 value="0.0064823136" flag="0"/>
    </comp>
    <comp name="--.HHN">
      <acc value="0.1579090191" flag="0"/>
      <vel value="0.0757338095" flag="0"/>
      <psa03 value="0.4967438007" flag="0"/>
      <psa10 value="0.0736373111" flag="0"/>
      <psa30 value="0.0040750423" flag="0"/>
    </comp>
    <comp name="--.HHZ">
      <acc value="0.0793024596" flag="0"/>
      <vel value="0.0385689227" flag="0"/>
      <psa03 value="0.1927006167" flag="0"/>
      <psa10 value="0.0499763018" flag="0"/>
      <psa30 value="0.0062511799" flag="0"/>
    </comp>
  </station>
  <station code="YAYO" name="YAYO" netid="KO" insttype="CMG-6T" commtype="DIG" lat="39.6113" lon="27.0726">
    <comp name="--.HHN">
      <acc value="0.0616030952" flag="0"/>
      <vel value="0.0452369637" flag="0"/>
      <psa03 value="0.1798202301" flag="0"/>
      <psa10 value="0.0359889841" flag="0"/>
      <psa30 value="0.0033759592" flag="0"/>
    </comp>
    <comp name="--.HHZ">
      <acc value="0.0422783296" flag="0"/>
      <vel value="0.0208582446" flag="0"/>
      <psa03 value="0.1142527045" flag="0"/>
      <psa10 value="0.0219594931" flag="0"/>
      <psa30 value="0.0034457822" flag="0"/>
    </comp>
    <comp name="--.HHE">
      <acc value="0.0711851698" flag="0"/>
      <vel value="0.0437150069" flag="0"/>
      <psa03 value="0.1398213832" flag="0"/>
      <psa10 value="0.0498854620" flag="0"/>
      <psa30 value="0.0031580647" flag="0"/>
    </comp>
  </station>
  <station code="YENI" name="YENI" netid="KO" insttype="CMG-5T" commtype="DIG" lat="39.9364" lon="27.2422">
    <comp name="--.HNZ">
      <acc value="0.0334805836" flag="0"/>
      <vel value="0.0269687221" flag="0"/>
      <psa03 value="0.0661588874" flag="0"/>
