<?xml version="1.0" encoding="UTF-8" standalone="yes"?>
<!DOCTYPE earthquake SYSTEM "stationlist.dtd">
<stationlist created="" xmlns="ch.ethz.sed.shakemap.usgs.xml">
  <station code="ARPRA" name="ARPRA" netid="KO" insttype="CMG-5T" lat="39.0929" lon="38.3356">
    <comp name="--.HNE">
      <acc value="0.0203927578" flag="0"/>
      <vel value="0.0094476383" flag="0"/>
      <psa03 value="0.0663117988" flag="0"/>
      <psa10 value="0.0099532595" flag="0"/>
      <psa30 value="0.0011396200" flag="0"/>
    </comp>
    <comp name="--.HNZ">
      <acc value="0.0101778858" flag="0"/>
      <vel value="0.0060003647" flag="0"/>
      <psa03 value="0.0222896149" flag="0"/>
      <psa10 value="0.0132741230" flag="0"/>
      <psa30 value="0.0018301997" flag="0"/>
    </comp>
    <comp name="--.HNN">
      <acc value="0.0182637342" flag="0"/>
      <vel value="0.0102167932" flag="0"/>
      <psa03 value="0.0600789783" flag="0"/>
      <psa10 value="0.0244499470" flag="0"/>
      <psa30 value="0.0009338545" flag="0"/>
    </comp>
  </station>
  <station code="DARE" name="DARE" netid="KO" insttype="CMG-3ESP" lat="38.5712" lon="37.4832">
    <comp name="--.HHZ">
      <acc value="0.0102571785" flag="0"/>
      <vel value="0.0088262443" flag="0"/>
      <psa03 value="0.0246688906" flag="0"/>
      <psa10 value="0.0194197801" flag="0"/>
      <psa30 value="0.0029044516" flag="0"/>
    </comp>
    <comp name="--.HHN">
      <acc value="0.0091803444" flag="0"/>
      <vel value="0.0104663064" flag="0"/>
      <psa03 value="0.0247968128" flag="0"/>
      <psa10 value="0.0323331865" flag="0"/>
      <psa30 value="0.0023070744" flag="0"/>
    </comp>
    <comp name="--.HHE">
      <acc value="0.0112141132" flag="0"/>
      <vel value="0.0090716799" flag="0"/>
      <psa03 value="0.0173426437" flag="0"/>
      <psa10 value="0.0224344049" flag="0"/>
      <psa30 value="0.0035918261" flag="0"/>
    </comp>
  </station>
  <station code="SVRC" name="SVRC" netid="KO" insttype="CMG-3T" lat="38.3775" lon="39.306">
    <comp name="--.HHE">
      <acc value="0.0148981876" flag="0"/>
      <vel value="0.0080997235" flag="0"/>
      <psa03 value="0.0626625706" flag="0"/>
      <psa10 value="0.0050637415" flag="0"/>
      <psa30 value="0.0010286879" flag="0"/>
    </comp>
    <comp name="--.HHN">
      <acc value="0.0126294842" flag="0"/>
      <vel value="0.0057595085" flag="0"/>
      <psa03 value="0.0473704194" flag="0"/>
      <psa10 value="0.0036108765" flag="0"/>
      <psa30 value="0.0008654744" flag="0"/>
    </comp>
    <comp name="--.HHZ">
      <acc value="0.0098716123" flag="0"/>
      <vel value="0.0044780058" flag="0"/>
      <psa03 value="0.0251304057" flag="0"/>
      <psa10 value="0.0033843447" flag="0"/>
      <psa30 value="0.0009557642" flag="0"/>
    </comp>
  </station>
  <station code="URFA" name="URFA" netid="KO" insttype="CMG-3ESP" lat="37.4409" lon="38.8213">
    <comp name="--.HHN">
      <acc value="0.0383277236" flag="0"/>
      <vel value="0.0093612255" flag="0"/>
      <psa03 value="0.0448691517" flag="0"/>
      <psa10 value="0.0115482113" flag="0"/>
      <psa30 value="0.0022480798" flag="0"/>
    </comp>
    <comp name="--.HHE">
      <acc value="0.0453527623" flag="0"/>
      <vel value="0.0124084716" flag="0"/>
      <psa03 value="0.0768623236" flag="0"/>
      <psa10 value="0.0109965132" flag="0"/>
      <psa30 value="0.0027877941" flag="0"/>
    </comp>
  </station>
</stationlist>
