<?xml version="1.0" encoding="UTF-8" standalone="yes"?>
<!DOCTYPE earthquake SYSTEM "stationlist.dtd">
<stationlist created="" xmlns="ch.ethz.sed.shakemap.usgs.xml">
  <station code="ARPRA" name="ARPRA" netid="KO" insttype="CMG-5T" lat="39.0929" lon="38.3356">
    <comp name="--.HNE">
      <acc value="0.0203927576" flag="0"/>
      <vel value="0.0094476377" flag="0"/>
      <psa03 value="0.0663117988" flag="0"/>
      <psa10 value="0.0099532595" flag="0"/>
      <psa30 value="0.0011395812" flag="0"/>
    </comp>
    <comp name="--.HNZ">
      <acc value="0.0101778881" flag="0"/>
      <vel value="0.0060003642" flag="0"/>
      <psa03 value="0.0222896149" flag="0"/>
      <psa10 value="0.0132741230" flag="0"/>
      <psa30 value="0.0018302200" flag="0"/>
    </comp>
    <comp name="--.HNN">
      <acc value="0.0182637360" flag="0"/>
      <vel value="0.0102167924" flag="0"/>
      <psa03 value="0.0600789783" flag="0"/>
      <psa10 value="0.0244499470" flag="0"/>
      <psa30 value="0.0009338442" flag="0"/>
    </comp>
  </station>
  <station code="DARE" name="DARE" netid="KO" insttype="CMG-3ESP" lat="38.5712" lon="37.4832">
    <comp name="--.HHE">
      <acc value="0.0112141132" flag="0"/>
      <vel value="0.0090716797" flag="0"/>
      <psa03 value="0.0173426437" flag="0"/>
      <psa10 value="0.0224344049" flag="0"/>
      <psa30 value="0.0035918256" flag="0"/>
    </comp>
    <comp name="--.HHN">
      <acc value="0.0091803444" flag="0"/>
      <vel value="0.0104663064" flag="0"/>
      <psa03 value="0.0247968128" flag="0"/>
      <psa10 value="0.0323331865" flag="0"/>
      <psa30 value="0.0023070742" flag="0"/>
    </comp>
    <comp name="--.HHZ">
      <acc value="0.0102571785" flag="0"/>
      <vel value="0.0088262441" flag="0"/>
      <psa03 value="0.0246688906" flag="0"/>
      <psa10 value="0.0194197801" flag="0"/>
      <psa30 value="0.0029044525" flag="0"/>
    </comp>
  </station>
  <station code="SVRC" name="SVRC" netid="KO" insttype="CMG-3T" lat="38.3775" lon="39.306">
    <comp name="--.HHE">
      <acc value="0.0148981877" flag="0"/>
      <vel value="0.0080997238" flag="0"/>
      <psa03 value="0.0626625706" flag="0"/>
      <psa10 value="0.0050637415" flag="0"/>
      <psa30 value="0.0010286703" flag="0"/>
    </comp>
    <comp name="--.HHN">
      <acc value="0.0126294840" flag="0"/>
      <vel value="0.0057595086" flag="0"/>
      <psa03 value="0.0473704194" flag="0"/>
      <psa10 value="0.0036108765" flag="0"/>
      <psa30 value="0.0008654762" flag="0"/>
    </comp>
    <comp name="--.HHZ">
      <acc value="0.0098716123" flag="0"/>
      <vel value="0.0044780058" flag="0"/>
      <psa03 value="0.0251304057" flag="0"/>
      <psa10 value="0.0033843447" flag="0"/>
      <psa30 value="0.0009557679" flag="0"/>
    </comp>
  </station>
  <station code="URFA" name="URFA" netid="KO" insttype="CMG-3ESP" lat="37.4409" lon="38.8213">
    <comp name="--.HHE">
      <acc value="0.0453527623" flag="0"/>
      <vel value="0.0124084702" flag="0"/>
      <psa03 value="0.0768623236" flag="0"/>
      <psa10 value="0.0109965132" flag="0"/>
      <psa30 value="0.0027877928" flag="0"/>
    </comp>
    <comp name="--.HHN">
      <acc value="0.0383277235" flag="0"/>
      <vel value="0.0093612261" flag="0"/>
      <psa03 value="0.0448691517" flag="0"/>
      <psa10 value="0.0115482113" flag="0"/>
      <psa30 value="0.0022480794" flag="0"/>
    </comp>
  </station>
</stationlist>
