<?xml version="1.0" encoding="UTF-8" standalone="yes"?>
<!DOCTYPE earthquake SYSTEM "stationlist.dtd">
<stationlist created="" xmlns="ch.ethz.sed.shakemap.usgs.xml">
  <station code="ARPRA" name="ARPRA" netid="KO" insttype="CMG-5T" lat="39.0929" lon="38.3356">
    <comp name="--.HNN">
      <acc value="0.0182637351" flag="0"/>
      <vel value="0.0102167787" flag="0"/>
      <psa03 value="0.0600789783" flag="0"/>
      <psa10 value="0.0244499471" flag="0"/>
      <psa30 value="0.0009337288" flag="0"/>
    </comp>
    <comp name="--.HNZ">
      <acc value="0.0101778892" flag="0"/>
      <vel value="0.0060003523" flag="0"/>
      <psa03 value="0.0222896149" flag="0"/>
      <psa10 value="0.0132741229" flag="0"/>
      <psa30 value="0.0018297962" flag="0"/>
    </comp>
    <comp name="--.HNE">
      <acc value="0.0203927581" flag="0"/>
      <vel value="0.0094476560" flag="0"/>
      <psa03 value="0.0663117988" flag="0"/>
      <psa10 value="0.0099532595" flag="0"/>
      <psa30 value="0.0011392812" flag="0"/>
    </comp>
  </station>
  <station code="DARE" name="DARE" netid="KO" insttype="CMG-3ESP" lat="38.5712" lon="37.4832">
    <comp name="--.HHN">
      <acc value="0.0091803442" flag="0"/>
      <vel value="0.0104663060" flag="0"/>
      <psa03 value="0.0247968128" flag="0"/>
      <psa10 value="0.0323331865" flag="0"/>
      <psa30 value="0.0023070896" flag="0"/>
    </comp>
    <comp name="--.HHE">
      <acc value="0.0112141128" flag="0"/>
      <vel value="0.0090716795" flag="0"/>
      <psa03 value="0.0173426437" flag="0"/>
      <psa10 value="0.0224344049" flag="0"/>
      <psa30 value="0.0035918274" flag="0"/>
    </comp>
    <comp name="--.HHZ">
      <acc value="0.0102571783" flag="0"/>
      <vel value="0.0088262439" flag="0"/>
      <psa03 value="0.0246688906" flag="0"/>
      <psa10 value="0.0194197801" flag="0"/>
      <psa30 value="0.0029044363" flag="0"/>
    </comp>
  </station>
  <station code="SVRC" name="SVRC" netid="KO" insttype="CMG-3T" lat="38.3775" lon="39.306">
    <comp name="--.HHE">
      <acc value="0.0148981878" flag="0"/>
      <vel value="0.0080997242" flag="0"/>
      <psa03 value="0.0626625706" flag="0"/>
      <psa10 value="0.0050637416" flag="0"/>
      <psa30 value="0.0010286657" flag="0"/>
    </comp>
    <comp name="--.HHN">
      <acc value="0.0126294840" flag="0"/>
      <vel value="0.0057595082" flag="0"/>
      <psa03 value="0.0473704194" flag="0"/>
      <psa10 value="0.0036108765" flag="0"/>
      <psa30 value="0.0008654790" flag="0"/>
    </comp>
    <comp name="--.HHZ">
      <acc value="0.0098716122" flag="0"/>
      <vel value="0.0044780057" flag="0"/>
      <psa03 value="0.0251304057" flag="0"/>
      <psa10 value="0.0033843447" flag="0"/>
      <psa30 value="0.0009557653" flag="0"/>
    </comp>
  </station>
  <station code="URFA" name="URFA" netid="KO" insttype="CMG-3ESP" lat="37.4409" lon="38.8213">
    <comp name="--.HHE">
      <acc value="0.0453527623" flag="0"/>
      <vel value="0.0124084708" flag="0"/>
      <psa03 value="0.0768623236" flag="0"/>
      <psa10 value="0.0109965132" flag="0"/>
      <psa30 value="0.0027877923" flag="0"/>
    </comp>
    <comp name="--.HHN">
      <acc value="0.0383277234" flag="0"/>
      <vel value="0.0093612266" flag="0"/>
      <psa03 value="0.0448691517" flag="0"/>
      <psa10 value="0.0115482113" flag="0"/>
      <psa30 value="0.0022480838" flag="0"/>
    </comp>
  </station>
</stationlist>
