<stationlist xmlns:esm="https://esm-db.eu/esmws/shakemap/1/" created="1784598854">
	<station code="CGAU" name="CGAU" netid="2I" source="INGV temporary seismic network of Osservatorio Vesuviano (Mobile_Seismic_Network_OV)" insttype="" lat="40.852368" lon="14.112998" esm:processing="manual (Paolucci et al 2011)" esm:quality="good">
		<comp name="--.HNE" depth="0.0">
			<acc value="40.2367452182514" flag="0"/>
			<vel value="9.09707878435915" flag="0"/>
			<psa03 value="24.8349278587538" flag="0"/>
			<psa10 value="2.54493370936836" flag="0"/>
			<psa30 value="0.191528327811745" flag="0"/>
		</comp>
		<comp name="--.HNN" depth="0.0">
			<acc value="38.8501100889971" flag="0"/>
			<vel value="7.54573051179391" flag="0"/>
			<psa03 value="19.7064374547672" flag="0"/>
			<psa10 value="2.24367607252841" flag="0"/>
			<psa30 value="0.302087158458347" flag="0"/>
		</comp>
		<comp name="--.HNZ" depth="0.0">
			<acc value="22.7908822500152" flag="0"/>
			<vel value="4.71465168722445" flag="0"/>
			<psa03 value="10.7028690125451" flag="0"/>
			<psa10 value="2.78997746231438" flag="0"/>
			<psa30 value="0.148206351276746" flag="0"/>
		</comp>
	</station>
	<station code="BAIP" name="BAIP" netid="IT" source="Italian Strong Motion Network (RAN)" insttype="" lat="40.8183" lon="14.0705" esm:processing="manual (Paolucci et al 2011)" esm:quality="good">
		<comp name="--.HNE" depth="0.0">
			<acc value="4.30587013613094" flag="0"/>
			<vel value="1.1376468733113" flag="0"/>
			<psa03 value="4.82124971746565" flag="0"/>
			<psa10 value="0.441313154830655" flag="0"/>
			<psa30 value="0.0643408756005732" flag="0"/>
		</comp>
		<comp name="--.HNN" depth="0.0">
			<acc value="7.78982705259607" flag="0"/>
			<vel value="1.7334719719959" flag="0"/>
			<psa03 value="7.0097123590419" flag="0"/>
			<psa10 value="0.634245255635471" flag="0"/>
			<psa30 value="0.055467031085258" flag="0"/>
		</comp>
		<comp name="--.HNZ" depth="0.0">
			<acc value="4.63256389689811" flag="0"/>
			<vel value="0.852539523695193" flag="0"/>
			<psa03 value="1.94319472711397" flag="0"/>
			<psa10 value="0.498889879006059" flag="0"/>
			<psa30 value="0.0397645608736702" flag="0"/>
		</comp>
	</station>
	<station code="BAN" name="BAN" netid="IT" source="Italian Strong Motion Network (RAN)" insttype="" lat="40.8138" lon="14.1652" esm:processing="automatic (Paolucci et al 2011)" esm:quality="best">
		<comp name="--.HNE" depth="0.0">
			<acc value="2.43096851124054" flag="0"/>
			<vel value="1.35448896004764" flag="0"/>
			<psa03 value="4.22685500839998" flag="0"/>
			<psa10 value="1.18951591959183" flag="0"/>
			<psa30 value="0.115569042548552" flag="0"/>
		</comp>
		<comp name="--.HNN" depth="0.0">
			<acc value="2.57430327389113" flag="0"/>
			<vel value="0.940696584987291" flag="0"/>
			<psa03 value="3.23709277484284" flag="0"/>
			<psa10 value="0.916189113032315" flag="0"/>
			<psa30 value="0.141550003659718" flag="0"/>
		</comp>
		<comp name="--.HNZ" depth="0.0">
			<acc value="2.16524272410487" flag="0"/>
			<vel value="0.717708634629483" flag="0"/>
			<psa03 value="4.71428063128867" flag="0"/>
			<psa10 value="0.653459908511924" flag="0"/>
			<psa30 value="0.0376568145791558" flag="0"/>
		</comp>
	</station>
	<station code="BCLI" name="BCLI" netid="IT" source="Italian Strong Motion Network (RAN)" insttype="" lat="40.7968" lon="14.0777" esm:processing="manual (Paolucci et al 2011)" esm:quality="good">
		<comp name="--.HNE" depth="0.0">
			<acc value="4.32908299611473" flag="0"/>
			<vel value="1.49206286320895" flag="0"/>
			<psa03 value="6.17475971419358" flag="0"/>
			<psa10 value="1.02379994172159" flag="0"/>
			<psa30 value="0.0932951536793957" flag="0"/>
		</comp>
		<comp name="--.HNN" depth="0.0">
			<acc value="3.43760439348428" flag="0"/>
			<vel value="1.09922495269433" flag="0"/>
			<psa03 value="5.36154050907898" flag="0"/>
			<psa10 value="1.18982602013447" flag="0"/>
			<psa30 value="0.0850154385222346" flag="0"/>
		</comp>
		<comp name="--.HNZ" depth="0.0">
			<acc value="2.93424214506197" flag="0"/>
			<vel value="1.04922005924543" flag="0"/>
			<psa03 value="4.86290981057569" flag="0"/>
			<psa10 value="0.810473209872558" flag="0"/>
			<psa30 value="0.0501000155468185" flag="0"/>
		</comp>
	</station>
	<station code="CML" name="CML" netid="IT" source="Italian Strong Motion Network (RAN)" insttype="" lat="40.7469" lon="13.9012" esm:processing="automatic (Paolucci et al 2011)" esm:quality="best">
		<comp name="--.HGE" depth="0.0">
			<acc value="0.0919444724701586" flag="0"/>
			<vel value="0.0597845589080202" flag="0"/>
			<psa03 value="0.244515010419423" flag="0"/>
			<psa10 value="0.0824995926931289" flag="0"/>
			<psa30 value="0.00771634033634411" flag="0"/>
		</comp>
		<comp name="--.HGN" depth="0.0">
			<acc value="0.0851515743588578" flag="0"/>
			<vel value="0.0592592236697689" flag="0"/>
			<psa03 value="0.169257316633222" flag="0"/>
			<psa10 value="0.0879222794195113" flag="0"/>
			<psa30 value="0.0103344462730134" flag="0"/>
		</comp>
		<comp name="--.HGZ" depth="0.0">
			<acc value="0.0544827087724819" flag="0"/>
			<vel value="0.0241393613205104" flag="0"/>
			<psa03 value="0.146179506591567" flag="0"/>
			<psa10 value="0.0273659266083328" flag="0"/>
			<psa30 value="0.0035013231954781" flag="0"/>
		</comp>
	</station>
	<station code="FORN" name="FORN" netid="IT" source="Italian Strong Motion Network (RAN)" insttype="" lat="41.606" lon="14.1415" esm:processing="automatic (Paolucci et al 2011)" esm:quality="good">
		<comp name="--.HNE" depth="0.0">
			<acc value="0.00620041495175268" flag="0"/>
			<vel value="0.00540675773033359" flag="0"/>
			<psa03 value="0.00891761353458962" flag="0"/>
			<psa10 value="0.0103958002332455" flag="0"/>
			<psa30 value="0.00133229607057611" flag="0"/>
		</comp>
		<comp name="--.HNN" depth="0.0">
			<acc value="0.00937728264521304" flag="0"/>
			<vel value="0.00511837420473013" flag="0"/>
			<psa03 value="0.0135454884679665" flag="0"/>
			<psa10 value="0.00915980272947685" flag="0"/>
			<psa30 value="0.00138422263545619" flag="0"/>
		</comp>
		<comp name="--.HNZ" depth="0.0">
			<acc value="0.0051149079069427" flag="0"/>
			<vel value="0.00483947707755475" flag="0"/>
			<psa03 value="0.00900033450923989" flag="0"/>
			<psa10 value="0.00571554737696327" flag="0"/>
			<psa30 value="0.00162153762724304" flag="0"/>
		</comp>
	</station>
	<station code="ITR" name="ITR" netid="IT" source="Italian Strong Motion Network (RAN)" insttype="" lat="41.279" lon="13.5193" esm:processing="automatic (Paolucci et al 2011)" esm:quality="good">
		<comp name="--.HGE" depth="0.0">
			<acc value="0.0188586966685637" flag="0"/>
			<vel value="0.00607771161014128" flag="0"/>
			<psa03 value="0.0359138452618259" flag="0"/>
			<psa10 value="0.00338301801459047" flag="0"/>
			<psa30 value="0.000254121782237575" flag="0"/>
		</comp>
		<comp name="--.HGN" depth="0.0">
			<acc value="0.0210977015182444" flag="0"/>
			<vel value="0.00563115500827189" flag="0"/>
			<psa03 value="0.0233391033927241" flag="0"/>
			<psa10 value="0.00328810883669823" flag="0"/>
			<psa30 value="0.00024815365250327" flag="0"/>
		</comp>
		<comp name="--.HGZ" depth="0.0">
			<acc value="0.0110762637083049" flag="0"/>
			<vel value="0.00342650893098818" flag="0"/>
			<psa03 value="0.0119247287568399" flag="0"/>
			<psa10 value="0.00210541689541147" flag="0"/>
			<psa30 value="0.0001759045694811" flag="0"/>
		</comp>
	</station>
	<station code="MPCD" name="MPCD" netid="IT" source="Italian Strong Motion Network (RAN)" insttype="" lat="40.7944" lon="14.0552" esm:processing="automatic (Paolucci et al 2011)" esm:quality="best">
		<comp name="--.HNE" depth="0.0">
			<acc value="5.4821840465515" flag="0"/>
			<vel value="1.00165199927658" flag="0"/>
			<psa03 value="2.88634420613821" flag="0"/>
			<psa10 value="0.805556844187459" flag="0"/>
			<psa30 value="0.0456188453579526" flag="0"/>
		</comp>
		<comp name="--.HNN" depth="0.0">
			<acc value="4.1206890891293" flag="0"/>
			<vel value="0.635470223316512" flag="0"/>
			<psa03 value="2.88301565230452" flag="0"/>
			<psa10 value="0.568095073510554" flag="0"/>
			<psa30 value="0.0515346172488073" flag="0"/>
		</comp>
		<comp name="--.HNZ" depth="0.0">
			<acc value="2.42136883623188" flag="0"/>
			<vel value="0.545517815121749" flag="0"/>
			<psa03 value="1.86444534368713" flag="0"/>
			<psa10 value="0.265907825088404" flag="0"/>
			<psa30 value="0.0338609797903967" flag="0"/>
		</comp>
	</station>
	<station code="MRL" name="MRL" netid="IT" source="Italian Strong Motion Network (RAN)" insttype="" lat="40.7582" lon="15.4785" esm:processing="automatic (Paolucci et al 2011)" esm:quality="good">
		<comp name="--.HNE" depth="0.0">
			<acc value="0.00339006349074983" flag="0"/>
			<vel value="0.00442375360947793" flag="0"/>
			<psa03 value="0.00456263330675183" flag="0"/>
			<psa10 value="0.00983532747967624" flag="0"/>
			<psa30 value="0.00114330282153422" flag="0"/>
		</comp>
		<comp name="--.HNN" depth="0.0">
			<acc value="0.00248639935444819" flag="0"/>
			<vel value="0.00316579118600806" flag="0"/>
			<psa03 value="0.00521562382979427" flag="0"/>
			<psa10 value="0.00516830315596936" flag="0"/>
			<psa30 value="0.00113663498398937" flag="0"/>
		</comp>
		<comp name="--.HNZ" depth="0.0">
			<acc value="0.0019233237985778" flag="0"/>
			<vel value="0.00194431884686219" flag="0"/>
			<psa03 value="0.00376490598206494" flag="0"/>
			<psa10 value="0.00237234575001307" flag="0"/>
			<psa30 value="0.0006087833497425" flag="0"/>
		</comp>
	</station>
	<station code="MTC" name="MTC" netid="IT" source="Italian Strong Motion Network (RAN)" insttype="" lat="41.4908" lon="13.815" esm:processing="automatic (Paolucci et al 2011)" esm:quality="good">
		<comp name="--.HNE" depth="0.0">
			<acc value="0.00901736859393546" flag="0"/>
			<vel value="0.00439799055005079" flag="0"/>
			<psa03 value="0.0158341205473598" flag="0"/>
			<psa10 value="0.00653104968123865" flag="0"/>
			<psa30 value="0.000686075136610718" flag="0"/>
		</comp>
		<comp name="--.HNN" depth="0.0">
			<acc value="0.0123811937147042" flag="0"/>
			<vel value="0.00446917608243703" flag="0"/>
			<psa03 value="0.019939833936972" flag="0"/>
			<psa10 value="0.00548653095574932" flag="0"/>
			<psa30 value="0.000571232945545843" flag="0"/>
		</comp>
		<comp name="--.HNZ" depth="0.0">
			<acc value="0.00345059868752996" flag="0"/>
			<vel value="0.00160443245116807" flag="0"/>
			<psa03 value="0.0062944599458298" flag="0"/>
			<psa10 value="0.00367188090033899" flag="0"/>
			<psa30 value="0.000485384654351206" flag="0"/>
		</comp>
	</station>
	<station code="NAAG" name="NAAG" netid="IT" source="Italian Strong Motion Network (RAN)" insttype="" lat="40.8334" lon="14.1657" esm:processing="manual (Paolucci et al 2011)" esm:quality="good">
		<comp name="--.HNE" depth="0.0">
			<acc value="2.51897625059303" flag="0"/>
			<vel value="1.81086699442029" flag="0"/>
			<psa03 value="7.0242219869002" flag="0"/>
			<psa10 value="0.999039961494415" flag="0"/>
			<psa30 value="0.130858535402417" flag="0"/>
		</comp>
		<comp name="--.HNN" depth="0.0">
			<acc value="2.32903926678934" flag="0"/>
			<vel value="1.17867549421154" flag="0"/>
			<psa03 value="7.32282043424856" flag="0"/>
			<psa10 value="1.11466972139853" flag="0"/>
			<psa30 value="0.096454989669689" flag="0"/>
		</comp>
		<comp name="--.HNZ" depth="0.0">
			<acc value="1.31797606494478" flag="0"/>
			<vel value="0.557494789293922" flag="0"/>
			<psa03 value="2.14864233700984" flag="0"/>
			<psa10 value="0.516918043283465" flag="0"/>
			<psa30 value="0.0456559511493625" flag="0"/>
		</comp>
	</station>
	<station code="NABA" name="NABA" netid="IT" source="Italian Strong Motion Network (RAN)" insttype="" lat="40.8188" lon="14.1611" esm:processing="automatic (Paolucci et al 2011)" esm:quality="best">
		<comp name="--.HNE" depth="0.0">
			<acc value="7.59705529723369" flag="0"/>
			<vel value="1.63444769671326" flag="0"/>
			<psa03 value="5.29899069879436" flag="0"/>
			<psa10 value="1.1169331913423" flag="0"/>
			<psa30 value="0.100956334528361" flag="0"/>
		</comp>
		<comp name="--.HNN" depth="0.0">
			<acc value="4.57400434316236" flag="0"/>
			<vel value="1.7477586805602" flag="0"/>
			<psa03 value="8.75438860194723" flag="0"/>
			<psa10 value="1.2168372894985" flag="0"/>
			<psa30 value="0.127715713872581" flag="0"/>
		</comp>
		<comp name="--.HNZ" depth="0.0">
			<acc value="4.10241834013477" flag="0"/>
			<vel value="0.779455816677408" flag="0"/>
			<psa03 value="6.02480511377058" flag="0"/>
			<psa10 value="0.374653388948314" flag="0"/>
			<psa30 value="0.0404852952854544" flag="0"/>
		</comp>
	</station>
	<station code="NACO" name="NACO" netid="IT" source="Italian Strong Motion Network (RAN)" insttype="" lat="40.8049" lon="14.1744" esm:processing="manual (Paolucci et al 2011)" esm:quality="good">
		<comp name="--.HNE" depth="0.0">
			<acc value="1.10378885228064" flag="0"/>
			<vel value="0.925788692780402" flag="0"/>
			<psa03 value="2.76632058849592" flag="0"/>
			<psa10 value="2.02035687872782" flag="0"/>
			<psa30 value="0.113282704423205" flag="0"/>
		</comp>
		<comp name="--.HNN" depth="0.0">
			<acc value="1.1329754287173" flag="0"/>
			<vel value="0.769237028366408" flag="0"/>
			<psa03 value="3.87137745975697" flag="0"/>
			<psa10 value="1.20569407131498" flag="0"/>
			<psa30 value="0.0775081745361726" flag="0"/>
		</comp>
		<comp name="--.HNZ" depth="0.0">
			<acc value="0.670694034155128" flag="0"/>
			<vel value="0.494626114993591" flag="0"/>
			<psa03 value="1.29768771544243" flag="0"/>
			<psa10 value="0.981641688944245" flag="0"/>
			<psa30 value="0.0460578011032831" flag="0"/>
		</comp>
	</station>
	<station code="NAFG" name="NAFG" netid="IT" source="Italian Strong Motion Network (RAN)" insttype="" lat="40.8202" lon="14.1786" esm:processing="automatic (Paolucci et al 2011)" esm:quality="best">
		<comp name="--.HNE" depth="0.0">
			<acc value="1.48469876779524" flag="0"/>
			<vel value="1.20220582668618" flag="0"/>
			<psa03 value="2.12115534946514" flag="0"/>
			<psa10 value="1.64502025451852" flag="0"/>
			<psa30 value="0.127309953659625" flag="0"/>
		</comp>
		<comp name="--.HNN" depth="0.0">
			<acc value="1.45086590204401" flag="0"/>
			<vel value="0.96079478332582" flag="0"/>
			<psa03 value="3.8819828289773" flag="0"/>
			<psa10 value="1.87327393520466" flag="0"/>
			<psa30 value="0.102394536468848" flag="0"/>
		</comp>
		<comp name="--.HNZ" depth="0.0">
			<acc value="0.957420118394926" flag="0"/>
			<vel value="0.474030904820885" flag="0"/>
			<psa03 value="1.67864470197314" flag="0"/>
			<psa10 value="0.604973576530389" flag="0"/>
			<psa30 value="0.0334687771422294" flag="0"/>
		</comp>
	</station>
	<station code="NAP" name="NAP" netid="IT" source="Italian Strong Motion Network (RAN)" insttype="" lat="40.7992" lon="14.1796" esm:processing="automatic (Paolucci et al 2011)" esm:quality="best">
		<comp name="--.HGE" depth="0.0">
			<acc value="1.53041656758439" flag="0"/>
			<vel value="0.870246037159722" flag="0"/>
			<psa03 value="2.20846079968942" flag="0"/>
			<psa10 value="1.1045028878957" flag="0"/>
			<psa30 value="0.105941164748899" flag="0"/>
		</comp>
		<comp name="--.HGN" depth="0.0">
			<acc value="1.32307503171483" flag="0"/>
			<vel value="0.879399566693877" flag="0"/>
			<psa03 value="1.9939577565822" flag="0"/>
			<psa10 value="0.981552643045391" flag="0"/>
			<psa30 value="0.107003421784881" flag="0"/>
		</comp>
		<comp name="--.HGZ" depth="0.0">
			<acc value="0.772941822249293" flag="0"/>
			<vel value="0.519391918720307" flag="0"/>
			<psa03 value="1.88536572956002" flag="0"/>
			<psa10 value="0.627668819978885" flag="0"/>
			<psa30 value="0.0455340930768632" flag="0"/>
		</comp>
	</station>
	<station code="PGGS" name="PGGS" netid="IT" source="Italian Strong Motion Network (RAN)" insttype="" lat="41.7812" lon="14.4173" esm:processing="automatic (Paolucci et al 2011)" esm:quality="good">
		<comp name="--.HNE" depth="0.0">
			<acc value="0.00621098605028483" flag="0"/>
			<vel value="0.00282719998795594" flag="0"/>
			<psa03 value="0.0130992062997965" flag="0"/>
			<psa10 value="0.00221109045826639" flag="0"/>
			<psa30 value="0.000862828512321065" flag="0"/>
		</comp>
		<comp name="--.HNN" depth="0.0">
			<acc value="0.00452009768078278" flag="0"/>
			<vel value="0.00246144451328002" flag="0"/>
			<psa03 value="0.00942301745782747" flag="0"/>
			<psa10 value="0.00254090090033955" flag="0"/>
			<psa30 value="0.000422134943534945" flag="0"/>
		</comp>
		<comp name="--.HNZ" depth="0.0">
			<acc value="0.00306491721088576" flag="0"/>
			<vel value="0.0013366150105041" flag="0"/>
			<psa03 value="0.00624578093983456" flag="0"/>
			<psa10 value="0.00115078025698179" flag="0"/>
			<psa30 value="0.000401845943238248" flag="0"/>
		</comp>
	</station>
	<station code="POZB" name="POZB" netid="IT" source="Italian Strong Motion Network (RAN)" insttype="" lat="40.8401" lon="14.1012" esm:processing="manual (Paolucci et al 2011)" esm:quality="good">
		<comp name="--.HNE" depth="0.0">
			<acc value="10.4753893189623" flag="0"/>
			<vel value="4.48848901475692" flag="0"/>
			<psa03 value="15.7393786565911" flag="0"/>
			<psa10 value="1.97749555937576" flag="0"/>
			<psa30 value="0.0984303738625305" flag="0"/>
		</comp>
		<comp name="--.HNN" depth="0.0">
			<acc value="24.6526496216631" flag="0"/>
			<vel value="6.72895076597313" flag="0"/>
			<psa03 value="15.2876127293156" flag="0"/>
			<psa10 value="2.17171570550726" flag="0"/>
			<psa30 value="0.137492521538107" flag="0"/>
		</comp>
		<comp name="--.HNZ" depth="0.0">
			<acc value="12.249921969162" flag="0"/>
			<vel value="3.09255854134851" flag="0"/>
			<psa03 value="9.74529424458295" flag="0"/>
			<psa10 value="0.824145175573187" flag="0"/>
			<psa30 value="0.0564720076600239" flag="0"/>
		</comp>
	</station>
	<station code="POZL" name="POZL" netid="IT" source="Italian Strong Motion Network (RAN)" insttype="" lat="40.8321" lon="14.0843" esm:processing="manual (Paolucci et al 2011)" esm:quality="good">
		<comp name="--.HNE" depth="0.0">
			<acc value="9.25795764196705" flag="0"/>
			<vel value="1.32813599717316" flag="0"/>
			<psa03 value="4.89075765535874" flag="0"/>
			<psa10 value="1.33252219305561" flag="0"/>
			<psa30 value="0.16791560358465" flag="0"/>
		</comp>
		<comp name="--.HNN" depth="0.0">
			<acc value="6.97177237194558" flag="0"/>
			<vel value="1.54019835014006" flag="0"/>
			<psa03 value="5.04204834429105" flag="0"/>
			<psa10 value="0.732180743380892" flag="0"/>
			<psa30 value="0.11086586431941" flag="0"/>
		</comp>
		<comp name="--.HNZ" depth="0.0">
			<acc value="9.92894744324285" flag="0"/>
			<vel value="1.17800554529852" flag="0"/>
			<psa03 value="3.44941584020389" flag="0"/>
			<psa10 value="0.810762789055757" flag="0"/>
			<psa30 value="0.0550493434154998" flag="0"/>
		</comp>
	</station>
	<station code="POZM" name="POZM" netid="IT" source="Italian Strong Motion Network (RAN)" insttype="" lat="40.8239" lon="14.1435" esm:processing="manual (Paolucci et al 2011)" esm:quality="good">
		<comp name="--.HNE" depth="0.0">
			<acc value="5.40573628664378" flag="0"/>
			<vel value="2.56172333377166" flag="0"/>
			<psa03 value="7.99704109805864" flag="0"/>
			<psa10 value="1.64229811419008" flag="0"/>
			<psa30 value="0.129568009911436" flag="0"/>
		</comp>
		<comp name="--.HNN" depth="0.0">
			<acc value="6.15717577295137" flag="0"/>
			<vel value="1.60440695633418" flag="0"/>
			<psa03 value="9.3322142133915" flag="0"/>
			<psa10 value="1.14155054212098" flag="0"/>
			<psa30 value="0.0666401079134299" flag="0"/>
		</comp>
		<comp name="--.HNZ" depth="0.0">
			<acc value="6.55828162203604" flag="0"/>
			<vel value="1.95459746564592" flag="0"/>
			<psa03 value="5.81462719051466" flag="0"/>
			<psa10 value="0.857227827136492" flag="0"/>
			<psa30 value="0.0842972309445073" flag="0"/>
		</comp>
	</station>
