<?xml version="1.0" encoding="UTF-8" standalone="yes"?>
<!DOCTYPE earthquake SYSTEM "stationlist.dtd">
<stationlist created="" xmlns="ch.ethz.sed.shakemap.usgs.xml">
  <station code="ARPRA" name="ARPRA" netid="KO" insttype="CMG-5T" lat="39.0929" lon="38.3356">
    <comp name="--.HNE">
      <acc value="0.0254555191" flag="0"/>
      <vel value="0.0137743551" flag="0"/>
      <psa03 value="0.0895273761" flag="0"/>
      <psa10 value="0.0166835328" flag="0"/>
      <psa30 value="0.0016037046" flag="0"/>
    </comp>
    <comp name="--.HNZ">
      <acc value="0.0124933909" flag="0"/>
      <vel value="0.0071135397" flag="0"/>
      <psa03 value="0.0355105817" flag="0"/>
      <psa10 value="0.0159811638" flag="0"/>
      <psa30 value="0.0012244389" flag="0"/>
    </comp>
    <comp name="--.HNN">
      <acc value="0.0254080759" flag="0"/>
      <vel value="0.0108873536" flag="0"/>
      <psa03 value="0.0778631916" flag="0"/>
      <psa10 value="0.0131104511" flag="0"/>
      <psa30 value="0.0009061855" flag="0"/>
    </comp>
  </station>
  <station code="DARE" name="DARE" netid="KO" insttype="CMG-3ESP" lat="38.5712" lon="37.4832">
    <comp name="--.HHN">
      <acc value="0.0554189042" flag="0"/>
      <vel value="0.0184096379" flag="0"/>
      <psa03 value="0.0813134743" flag="0"/>
      <psa10 value="0.0141063720" flag="0"/>
      <psa30 value="0.0021160182" flag="0"/>
    </comp>
    <comp name="--.HHZ">
      <acc value="0.0697294342" flag="0"/>
      <vel value="0.0261307014" flag="0"/>
      <psa03 value="0.1257310256" flag="0"/>
      <psa10 value="0.0107554958" flag="0"/>
      <psa30 value="0.0014002399" flag="0"/>
    </comp>
    <comp name="--.HHE">
      <acc value="0.0647145030" flag="0"/>
      <vel value="0.0307151271" flag="0"/>
      <psa03 value="0.1193509913" flag="0"/>
      <psa10 value="0.0207525392" flag="0"/>
      <psa30 value="0.0025861515" flag="0"/>
    </comp>
  </station>
  <station code="GAZ" name="GAZ" netid="KO" insttype="CMG-3T" lat="37.1721" lon="37.2096">
    <comp name="--.HHE">
      <acc value="0.0290462332" flag="0"/>
      <vel value="0.0125357679" flag="0"/>
      <psa03 value="0.0739824332" flag="0"/>
      <psa10 value="0.0145495652" flag="0"/>
      <psa30 value="0.0015814171" flag="0"/>
    </comp>
    <comp name="--.HHZ">
      <acc value="0.0216439036" flag="0"/>
      <vel value="0.0105081519" flag="0"/>
      <psa03 value="0.0407305763" flag="0"/>
      <psa10 value="0.0072389232" flag="0"/>
      <psa30 value="0.0007039831" flag="0"/>
    </comp>
    <comp name="--.HHN">
      <acc value="0.0221554449" flag="0"/>
      <vel value="0.0138574414" flag="0"/>
      <psa03 value="0.0467169497" flag="0"/>
      <psa10 value="0.0088327458" flag="0"/>
      <psa30 value="0.0009246554" flag="0"/>
    </comp>
  </station>
  <station code="KMRS" name="KMRS" netid="KO" insttype="CMG-3T" lat="37.5053" lon="36.9">
    <comp name="--.HHN">
      <acc value="0.0397941854" flag="0"/>
      <vel value="0.0201232650" flag="0"/>
      <psa03 value="0.0941589368" flag="0"/>
      <psa10 value="0.0117315827" flag="0"/>
      <psa30 value="0.0015513558" flag="0"/>
    </comp>
    <comp name="--.HHZ">
      <acc value="0.0174435761" flag="0"/>
      <vel value="0.0088729743" flag="0"/>
      <psa03 value="0.0703720317" flag="0"/>
      <psa10 value="0.0076389795" flag="0"/>
      <psa30 value="0.0009078476" flag="0"/>
    </comp>
    <comp name="--.HHE">
      <acc value="0.0373443776" flag="0"/>
      <vel value="0.0193351557" flag="0"/>
      <psa03 value="0.1235423959" flag="0"/>
      <psa10 value="0.0119823266" flag="0"/>
      <psa30 value="0.0006764418" flag="0"/>
    </comp>
  </station>
  <station code="URFA" name="URFA" netid="KO" insttype="CMG-3ESP" lat="37.4409" lon="38.8213">
    <comp name="--.HHN">
      <acc value="0.0285546449" flag="0"/>
      <vel value="0.0151077102" flag="0"/>
      <psa03 value="0.0498218074" flag="0"/>
      <psa10 value="0.0229217216" flag="0"/>
      <psa30 value="0.0016869209" flag="0"/>
    </comp>
    <comp name="--.HHE">
      <acc value="0.0384408531" flag="0"/>
      <vel value="0.0133164239" flag="0"/>
      <psa03 value="0.0455331835" flag="0"/>
      <psa10 value="0.0140232811" flag="0"/>
      <psa30 value="0.0016248235" flag="0"/>
    </comp>
    <comp name="--.HHZ">
      <acc value="0.0192201754" flag="0"/>
      <vel value="0.0080402915" flag="0"/>
      <psa03 value="0.0323211696" flag="0"/>
      <psa10 value="0.0083308252" flag="0"/>
      <psa30 value="0.0009474224" flag="0"/>
    </comp>
  </station>
</stationlist>
