<?xml version="1.0" encoding="UTF-8" standalone="yes"?>
<!DOCTYPE earthquake SYSTEM "stationlist.dtd">
<stationlist created="" xmlns="ch.ethz.sed.shakemap.usgs.xml">
  <station code="ARPRA" name="ARPRA" netid="KO" insttype="CMG-5T" lat="39.0929" lon="38.3356">
    <comp name="--.HNZ">
      <acc value="0.0124933917" flag="0"/>
      <vel value="0.0071135055" flag="0"/>
      <psa03 value="0.0355105817" flag="0"/>
      <psa10 value="0.0159811638" flag="0"/>
      <psa30 value="0.0012249060" flag="0"/>
    </comp>
    <comp name="--.HNN">
      <acc value="0.0254080755" flag="0"/>
      <vel value="0.0108873579" flag="0"/>
      <psa03 value="0.0778631916" flag="0"/>
      <psa10 value="0.0131104510" flag="0"/>
      <psa30 value="0.0009064462" flag="0"/>
    </comp>
    <comp name="--.HNE">
      <acc value="0.0254555153" flag="0"/>
      <vel value="0.0137743501" flag="0"/>
      <psa03 value="0.0895273761" flag="0"/>
      <psa10 value="0.0166835328" flag="0"/>
      <psa30 value="0.0016036091" flag="0"/>
    </comp>
  </station>
  <station code="DARE" name="DARE" netid="KO" insttype="CMG-3ESP" lat="38.5712" lon="37.4832">
    <comp name="--.HHZ">
      <acc value="0.0697294343" flag="0"/>
      <vel value="0.0261307057" flag="0"/>
      <psa03 value="0.1257310256" flag="0"/>
      <psa10 value="0.0107554958" flag="0"/>
      <psa30 value="0.0014002248" flag="0"/>
    </comp>
    <comp name="--.HHN">
      <acc value="0.0554189040" flag="0"/>
      <vel value="0.0184096383" flag="0"/>
      <psa03 value="0.0813134743" flag="0"/>
      <psa10 value="0.0141063720" flag="0"/>
      <psa30 value="0.0021160168" flag="0"/>
    </comp>
    <comp name="--.HHE">
      <acc value="0.0647145029" flag="0"/>
      <vel value="0.0307151256" flag="0"/>
      <psa03 value="0.1193509913" flag="0"/>
      <psa10 value="0.0207525391" flag="0"/>
      <psa30 value="0.0025862246" flag="0"/>
    </comp>
  </station>
  <station code="GAZ" name="GAZ" netid="KO" insttype="CMG-3T" lat="37.1721" lon="37.2096">
    <comp name="--.HHN">
      <acc value="0.0221554449" flag="0"/>
      <vel value="0.0138574410" flag="0"/>
      <psa03 value="0.0467169497" flag="0"/>
      <psa10 value="0.0088327458" flag="0"/>
      <psa30 value="0.0009246620" flag="0"/>
    </comp>
    <comp name="--.HHZ">
      <acc value="0.0216439037" flag="0"/>
      <vel value="0.0105081519" flag="0"/>
      <psa03 value="0.0407305763" flag="0"/>
      <psa10 value="0.0072389232" flag="0"/>
      <psa30 value="0.0007039759" flag="0"/>
    </comp>
    <comp name="--.HHE">
      <acc value="0.0290462332" flag="0"/>
      <vel value="0.0125357683" flag="0"/>
      <psa03 value="0.0739824332" flag="0"/>
      <psa10 value="0.0145495652" flag="0"/>
      <psa30 value="0.0015814174" flag="0"/>
    </comp>
  </station>
  <station code="KMRS" name="KMRS" netid="KO" insttype="CMG-3T" lat="37.5053" lon="36.9">
    <comp name="--.HHN">
      <acc value="0.0397941854" flag="0"/>
      <vel value="0.0201232651" flag="0"/>
      <psa03 value="0.0941589368" flag="0"/>
      <psa10 value="0.0117315828" flag="0"/>
      <psa30 value="0.0015513549" flag="0"/>
    </comp>
    <comp name="--.HHE">
      <acc value="0.0373443777" flag="0"/>
      <vel value="0.0193351557" flag="0"/>
      <psa03 value="0.1235423959" flag="0"/>
      <psa10 value="0.0119823266" flag="0"/>
      <psa30 value="0.0006764357" flag="0"/>
    </comp>
    <comp name="--.HHZ">
      <acc value="0.0174435761" flag="0"/>
      <vel value="0.0088729744" flag="0"/>
      <psa03 value="0.0703720317" flag="0"/>
      <psa10 value="0.0076389795" flag="0"/>
      <psa30 value="0.0009078493" flag="0"/>
    </comp>
  </station>
  <station code="URFA" name="URFA" netid="KO" insttype="CMG-3ESP" lat="37.4409" lon="38.8213">
    <comp name="--.HHE">
      <acc value="0.0384408532" flag="0"/>
      <vel value="0.0133164208" flag="0"/>
      <psa03 value="0.0455331835" flag="0"/>
      <psa10 value="0.0140232811" flag="0"/>
      <psa30 value="0.0016248251" flag="0"/>
    </comp>
    <comp name="--.HHN">
      <acc value="0.0285546450" flag="0"/>
      <vel value="0.0151077126" flag="0"/>
      <psa03 value="0.0498218074" flag="0"/>
      <psa10 value="0.0229217216" flag="0"/>
      <psa30 value="0.0016869191" flag="0"/>
    </comp>
    <comp name="--.HHZ">
      <acc value="0.0192201752" flag="0"/>
      <vel value="0.0080402909" flag="0"/>
      <psa03 value="0.0323211696" flag="0"/>
      <psa10 value="0.0083308252" flag="0"/>
      <psa30 value="0.0009474217" flag="0"/>
    </comp>
  </station>
</stationlist>
