<?xml version="1.0" encoding="UTF-8" standalone="yes"?>
<!DOCTYPE earthquake SYSTEM "stationlist.dtd">
<stationlist created="" xmlns="ch.ethz.sed.shakemap.usgs.xml">
  <station code="AGRB" name="AGRB" netid="KO" insttype="120s," lat="39.5755" lon="42.992">
    <comp name="--.HHN">
      <acc value="0.0110913898" flag="0"/>
      <vel value="0.0293962221" flag="0"/>
      <psa03 value="0.0286826132" flag="0"/>
      <psa10 value="0.0393961555" flag="0"/>
      <psa30 value="0.0095984199" flag="0"/>
    </comp>
    <comp name="--.HHE">
      <acc value="0.0000000000" flag="0"/>
      <vel value="0.0000000000" flag="0"/>
    </comp>
    <comp name="--.HHZ">
      <acc value="0.0107932665" flag="0"/>
      <vel value="0.0179035287" flag="0"/>
      <psa03 value="0.0288868811" flag="0"/>
      <psa10 value="0.0229865637" flag="0"/>
      <psa30 value="0.0081073812" flag="0"/>
    </comp>
  </station>
  <station code="ERCV" name="ERCV" netid="KO" insttype="100" lat="39.0198" lon="43.3381">
    <comp name="--.HNE">
      <acc value="0.8534862340" flag="0"/>
      <vel value="1.1482220894" flag="0"/>
      <psa03 value="1.9231769634" flag="0"/>
      <psa10 value="2.2186817069" flag="0"/>
      <psa30 value="0.5935656115" flag="0"/>
    </comp>
  </station>
  <station code="MLAZ" name="MLAZ" netid="KO" insttype="120s," lat="39.141" lon="42.5496">
    <comp name="--.HHE">
      <acc value="0.0390563407" flag="0"/>
      <vel value="0.1045342423" flag="0"/>
      <psa03 value="0.0706005019" flag="0"/>
      <psa10 value="0.1081207727" flag="0"/>
      <psa30 value="0.0574631500" flag="0"/>
    </comp>
    <comp name="--.HHN">
      <acc value="0.0485495964" flag="0"/>
      <vel value="0.1264264238" flag="0"/>
      <psa03 value="0.0891735041" flag="0"/>
      <psa10 value="0.1444461836" flag="0"/>
      <psa30 value="0.0884962739" flag="0"/>
    </comp>
    <comp name="--.HHZ">
      <acc value="0.0362693590" flag="0"/>
      <vel value="0.0690523660" flag="0"/>
      <psa03 value="0.0523763271" flag="0"/>
      <psa10 value="0.0684806849" flag="0"/>
      <psa30 value="0.0274189114" flag="0"/>
    </comp>
  </station>
  <station code="TASB" name="TASB" netid="KO" insttype="120s," lat="39.9839" lon="44.2384">
    <comp name="--.HHZ">
      <acc value="0.0118839580" flag="0"/>
      <vel value="0.0223238036" flag="0"/>
      <psa03 value="0.0262332771" flag="0"/>
      <psa10 value="0.0216648137" flag="0"/>
      <psa30 value="0.0205728238" flag="0"/>
    </comp>
    <comp name="--.HHN">
      <acc value="0.0210544532" flag="0"/>
      <vel value="0.0519541688" flag="0"/>
      <psa03 value="0.0293924559" flag="0"/>
      <psa10 value="0.0359240148" flag="0"/>
      <psa30 value="0.0336294761" flag="0"/>
    </comp>
  </station>
</stationlist>
