<stationlist created="1778069675">
	<station code="ERCV" name="ERCV" netid="KO" source="Bogazici University Kandilli Observatory And Earthquake Research Institute (KOERI)" insttype="" lat="39.0198" lon="43.3381">
		<comp name="--.HNE" depth="0.0">
			<acc value="0.848707617426862" flag="0"/>
			<vel value="1.19340350889943" flag="0"/>
			<psa03 value="1.92655467477616" flag="0"/>
			<psa10 value="2.21965594868973" flag="0"/>
			<psa30 value="0.597196602837382" flag="0"/>
		</comp>
		<comp name="--.HNN" depth="0.0">
			<acc value="1.08142985505551" flag="0"/>
			<vel value="1.38128721192681" flag="0"/>
			<psa03 value="2.94417142210214" flag="0"/>
			<psa10 value="2.00129876804232" flag="0"/>
			<psa30 value="0.844254119342155" flag="0"/>
		</comp>
		<comp name="--.HNZ" depth="0.0">
			<acc value="0.670689201269832" flag="0"/>
			<vel value="0.821512299438855" flag="0"/>
			<psa03 value="0.865940666890032" flag="0"/>
			<psa10 value="1.69229432420835" flag="0"/>
			<psa30 value="0.163687573224682" flag="0"/>
		</comp>
	</station>
</stationlist>
