<?xml version="1.0" encoding="UTF-8" standalone="yes"?>
<!DOCTYPE earthquake SYSTEM "stationlist.dtd">
<stationlist created="" xmlns="ch.ethz.sed.shakemap.usgs.xml">
  <station code="BERA" name="BERA" netid="AC" insttype="" lat="40.7081" lon="19.9455">
    <comp name="00.HHE">
      <acc value="0.0263834827" flag="0"/>
      <vel value="0.0108452056" flag="0"/>
      <psa03 value="0.0600331463" flag="0"/>
      <psa10 value="0.0085209133" flag="0"/>
      <psa30 value="0.0006709026" flag="0"/>
    </comp>
    <comp name="00.HHZ">
      <acc value="0.0172271370" flag="0"/>
      <vel value="0.0064331133" flag="0"/>
      <psa03 value="0.0341049260" flag="0"/>
      <psa10 value="0.0045386903" flag="0"/>
      <psa30 value="0.0004382242" flag="0"/>
    </comp>
    <comp name="00.HHN">
      <acc value="0.0251181594" flag="0"/>
      <vel value="0.0116259067" flag="0"/>
      <psa03 value="0.0712062619" flag="0"/>
      <psa10 value="0.0080101220" flag="0"/>
      <psa30 value="0.0009541107" flag="0"/>
    </comp>
  </station>
  <station code="VLO" name="VLO" netid="AC" insttype="" lat="40.4686" lon="19.4955">
    <comp name="--.HHE">
      <acc value="0.0533627213" flag="0"/>
      <vel value="0.0173760427" flag="0"/>
      <psa03 value="0.0999830618" flag="0"/>
      <psa10 value="0.0179600426" flag="0"/>
      <psa30 value="0.0009705294" flag="0"/>
    </comp>
    <comp name="--.HHN">
      <acc value="0.0600674286" flag="0"/>
      <vel value="0.0199607201" flag="0"/>
      <psa03 value="0.1065083546" flag="0"/>
      <psa10 value="0.0139272565" flag="0"/>
      <psa30 value="0.0012414987" flag="0"/>
    </comp>
    <comp name="--.HHZ">
      <acc value="0.0284239532" flag="0"/>
      <vel value="0.0101177775" flag="0"/>
      <psa03 value="0.0848083547" flag="0"/>
      <psa10 value="0.0076503025" flag="0"/>
      <psa30 value="0.0005904979" flag="0"/>
    </comp>
  </station>
  <station code="ATHR" name="ATHR" netid="HA" insttype="GEOtiny," lat="38.3172" lon="20.4165">
    <comp name="--.HHZ">
      <acc value="0.0041032687" flag="0"/>
      <vel value="0.0020492354" flag="0"/>
      <psa03 value="0.0121356818" flag="0"/>
      <psa10 value="0.0026744615" flag="0"/>
      <psa30 value="0.0002214905" flag="0"/>
    </comp>
    <comp name="--.HHE">
      <acc value="0.0051341252" flag="0"/>
      <vel value="0.0032011844" flag="0"/>
      <psa03 value="0.0152379370" flag="0"/>
      <psa10 value="0.0049971642" flag="0"/>
      <psa30 value="0.0004099840" flag="0"/>
    </comp>
    <comp name="--.HHN">
      <acc value="0.0049234676" flag="0"/>
      <vel value="0.0033624285" flag="0"/>
      <psa03 value="0.0160491427" flag="0"/>
      <psa10 value="0.0066177992" flag="0"/>
      <psa30 value="0.0003945929" flag="0"/>
    </comp>
  </station>
  <station code="HAVD" name="HAVD" netid="HA" insttype="GEOtiny," lat="38.2036" lon="20.3848">
    <comp name="--.HHN">
      <acc value="0.0085187172" flag="0"/>
      <vel value="0.0039542266" flag="0"/>
      <psa03 value="0.0166683950" flag="0"/>
      <psa10 value="0.0049437805" flag="0"/>
      <psa30 value="0.0003941212" flag="0"/>
    </comp>
    <comp name="--.HHE">
      <acc value="0.0068420668" flag="0"/>
      <vel value="0.0031182356" flag="0"/>
      <psa03 value="0.0203523091" flag="0"/>
      <psa10 value="0.0031022234" flag="0"/>
      <psa30 value="0.0003076076" flag="0"/>
    </comp>
    <comp name="--.HHZ">
      <acc value="0.0068531494" flag="0"/>
      <vel value="0.0026323157" flag="0"/>
      <psa03 value="0.0248820256" flag="0"/>
      <psa10 value="0.0021016169" flag="0"/>
      <psa30 value="0.0002776663" flag="0"/>
    </comp>
  </station>
  <station code="VAS2" name="VAS2" netid="HI" insttype="CMG-5TD,ACCELEROMETER,GURALP" lat="38.6306" lon="20.6081">
    <comp name="--.HNZ">
      <acc value="0.0186604342" flag="0"/>
      <vel value="0.0105512665" flag="0"/>
      <psa03 value="0.0408699314" flag="0"/>
      <psa10 value="0.0118529006" flag="0"/>
      <psa30 value="0.0007530831" flag="0"/>
    </comp>
    <comp name="--.HNN">
      <acc value="0.0319489599" flag="0"/>
      <vel value="0.0242663556" flag="0"/>
      <psa03 value="0.1219090876" flag="0"/>
      <psa10 value="0.0463265932" flag="0"/>
      <psa30 value="0.0022722096" flag="0"/>
    </comp>
    <comp name="--.HNE">
      <acc value="0.0348650152" flag="0"/>
      <vel value="0.0291714061" flag="0"/>
      <psa03 value="0.0882997746" flag="0"/>
      <psa10 value="0.0519005571" flag="0"/>
      <psa30 value="0.0020077594" flag="0"/>
    </comp>
  </station>
  <station code="EVR" name="EVR" netid="HL" insttype="DR24" lat="38.9166" lon="21.8105">
    <comp name="--.HHN">
      <acc value="0.0028353621" flag="0"/>
      <vel value="0.0035837105" flag="0"/>
      <psa03 value="0.0076357183" flag="0"/>
      <psa10 value="0.0039635575" flag="0"/>
      <psa30 value="0.0004096102" flag="0"/>
    </comp>
    <comp name="--.HHE">
      <acc value="0.0030394125" flag="0"/>
      <vel value="0.0034255627" flag="0"/>
      <psa03 value="0.0092928412" flag="0"/>
      <psa10 value="0.0036654141" flag="0"/>
      <psa30 value="0.0003876482" flag="0"/>
    </comp>
    <comp name="--.HHZ">
      <acc value="0.0025869580" flag="0"/>
      <vel value="0.0018751127" flag="0"/>
      <psa03 value="0.0047971347" flag="0"/>
      <psa10 value="0.0027178550" flag="0"/>
      <psa30 value="0.0003465222" flag="0"/>
    </comp>
  </station>
  <station code="JAN" name="JAN" netid="HL" insttype="CMG3EPSC60_DR24" lat="39.6562" lon="20.8487">
    <comp name="--.HHE">
      <acc value="0.1719763516" flag="0"/>
      <vel value="0.0497677734" flag="0"/>
      <psa03 value="0.3685253657" flag="0"/>
      <psa10 value="0.0275049673" flag="0"/>
      <psa30 value="0.0017345125" flag="0"/>
    </comp>
    <comp name="--.HHZ">
      <acc value="0.0001569777" flag="0"/>
      <vel value="0.0000259958" flag="0"/>
      <psa03 value="0.0001331035" flag="0"/>
      <psa10 value="0.0000149691" flag="0"/>
      <psa30 value="0.0000017976" flag="0"/>
    </comp>
  </station>
  <station code="KEK" name="KEK" netid="HL" insttype="120" lat="39.7127" lon="19.7962">
    <comp name="--.HHN">
      <acc value="0.0556781003" flag="0"/>
      <vel value="0.0140273283" flag="0"/>
      <psa03 value="0.0607909322" flag="0"/>
      <psa10 value="0.0084937706" flag="0"/>
      <psa30 value="0.0008508594" flag="0"/>
    </comp>
    <comp name="--.HHZ">
      <acc value="0.0381702080" flag="0"/>
      <vel value="0.0153083498" flag="0"/>
      <psa03 value="0.0656570761" flag="0"/>
      <psa10 value="0.0137739937" flag="0"/>
      <psa30 value="0.0007129580" flag="0"/>
    </comp>
    <comp name="--.HHE">
      <acc value="0.0896119693" flag="0"/>
      <vel value="0.0221030399" flag="0"/>
      <psa03 value="0.1304084601" flag="0"/>
      <psa10 value="0.0094268261" flag="0"/>
      <psa30 value="0.0005514585" flag="0"/>
    </comp>
  </station>
  <station code="KZN" name="KZN" netid="HL" insttype="120" lat="40.3033" lon="21.7821">
    <comp name="--.HHE">
      <acc value="0.0055566436" flag="0"/>
      <vel value="0.0033356976" flag="0"/>
      <psa03 value="0.0193745673" flag="0"/>
      <psa10 value="0.0053719204" flag="0"/>
      <psa30 value="0.0003169154" flag="0"/>
    </comp>
    <comp name="--.HHZ">
      <acc value="0.0023135415" flag="0"/>
      <vel value="0.0014791253" flag="0"/>
      <psa03 value="0.0071537674" flag="0"/>
      <psa10 value="0.0022631392" flag="0"/>
      <psa30 value="0.0001158245" flag="0"/>
    </comp>
    <comp name="--.HHN">
      <acc value="0.0042206208" flag="0"/>
      <vel value="0.0029999343" flag="0"/>
      <psa03 value="0.0114239750" flag="0"/>
      <psa10 value="0.0044943062" flag="0"/>
      <psa30 value="0.0002859046" flag="0"/>
    </comp>
  </station>
  <station code="OTHN" name="OTHN" netid="HL" insttype="30" lat="39.8416" lon="19.4057">
    <comp name="--.HHZ">
      <acc value="0.0990660255" flag="0"/>
      <vel value="0.0273024768" flag="0"/>
      <psa03 value="0.2211757322" flag="0"/>
      <psa10 value="0.0108791042" flag="0"/>
      <psa30 value="0.0005665221" flag="0"/>
    </comp>
    <comp name="--.HHE">
      <acc value="0.1755347722" flag="0"/>
      <vel value="0.0559617974" flag="0"/>
      <psa03 value="0.3129121961" flag="0"/>
      <psa10 value="0.0226940273" flag="0"/>
      <psa30 value="0.0012269894" flag="0"/>
    </comp>
    <comp name="--.HHN">
      <acc value="0.1934415433" flag="0"/>
      <vel value="0.0480547401" flag="0"/>
      <psa03 value="0.3389638266" flag="0"/>
      <psa10 value="0.0183280837" flag="0"/>
      <psa30 value="0.0014745213" flag="0"/>
    </comp>
  </station>
  <station code="TETR" name="TETR" netid="HL" insttype="60" lat="39.3445" lon="21.2747">
    <comp name="--.HHE">
      <acc value="0.0245504094" flag="0"/>
      <vel value="0.0117815879" flag="0"/>
      <psa03 value="0.0837398508" flag="0"/>
      <psa10 value="0.0099885271" flag="0"/>
      <psa30 value="0.0008523191" flag="0"/>
    </comp>
    <comp name="--.HHZ">
      <acc value="0.0191924739" flag="0"/>
      <vel value="0.0065752214" flag="0"/>
      <psa03 value="0.0293488142" flag="0"/>
      <psa10 value="0.0045045712" flag="0"/>
      <psa30 value="0.0005226750" flag="0"/>
    </comp>
    <comp name="--.HHN">
      <acc value="0.0361625988" flag="0"/>
      <vel value="0.0101012472" flag="0"/>
      <psa03 value="0.0449020640" flag="0"/>
      <psa10 value="0.0094975418" flag="0"/>
      <psa30 value="0.0011233477" flag="0"/>
    </comp>
  </station>
  <station code="THL" name="THL" netid="HL" insttype="120" lat="39.5647" lon="22.0144">
    <comp name="--.HHE">
      <acc value="0.0028326529" flag="0"/>
      <vel value="0.0020728910" flag="0"/>
      <psa03 value="0.0094438205" flag="0"/>
      <psa10 value="0.0022699178" flag="0"/>
      <psa30 value="0.0002291943" flag="0"/>
    </comp>
    <comp name="--.HHN">
      <acc value="0.0029973211" flag="0"/>
      <vel value="0.0019600216" flag="0"/>
      <psa03 value="0.0051098602" flag="0"/>
      <psa10 value="0.0017707058" flag="0"/>
      <psa30 value="0.0001484874" flag="0"/>
    </comp>
    <comp name="--.HHZ">
      <acc value="0.0014243545" flag="0"/>
      <vel value="0.0011730140" flag="0"/>
      <psa03 value="0.0035914285" flag="0"/>
      <psa10 value="0.0013175891" flag="0"/>
      <psa30 value="0.0001963011" flag="0"/>
    </comp>
  </station>
  <station code="VLS" name="VLS" netid="HL" insttype="120P," lat="38.1768" lon="20.5886">
    <comp name="--.HHE">
      <acc value="0.0119195444" flag="0"/>
      <vel value="0.0050857247" flag="0"/>
      <psa03 value="0.0271744762" flag="0"/>
      <psa10 value="0.0026484576" flag="0"/>
      <psa30 value="0.0002186852" flag="0"/>
    </comp>
    <comp name="--.HHN">
      <acc value="0.0121569223" flag="0"/>
      <vel value="0.0057176359" flag="0"/>
      <psa03 value="0.0291846766" flag="0"/>
      <psa10 value="0.0032852140" flag="0"/>
      <psa30 value="0.0001959040" flag="0"/>
    </comp>
    <comp name="--.HHZ">
      <acc value="0.0081939571" flag="0"/>
      <vel value="0.0028073014" flag="0"/>
      <psa03 value="0.0140245343" flag="0"/>
      <psa10 value="0.0026249528" flag="0"/>
      <psa30 value="0.0002452243" flag="0"/>
    </comp>
  </station>
  <station code="AMPL" name="AMPL" netid="HP" insttype="Compact," lat="38.9224" lon="21.2135">
    <comp name="--.HHN">
      <acc value="0.0135875952" flag="0"/>
      <vel value="0.0049765926" flag="0"/>
      <psa03 value="0.0281791222" flag="0"/>
      <psa10 value="0.0063684936" flag="0"/>
      <psa30 value="0.0004594692" flag="0"/>
    </comp>
    <comp name="--.HHZ">
      <acc value="0.0089468340" flag="0"/>
      <vel value="0.0052002392" flag="0"/>
      <psa03 value="0.0169494103" flag="0"/>
      <psa10 value="0.0043178314" flag="0"/>
      <psa30 value="0.0003081811" flag="0"/>
    </comp>
    <comp name="--.HHE">
      <acc value="0.0136699463" flag="0"/>
      <vel value="0.0045064594" flag="0"/>
      <psa03 value="0.0228968414" flag="0"/>
      <psa10 value="0.0044691126" flag="0"/>
      <psa30 value="0.0006855052" flag="0"/>
    </comp>
  </station>
  <station code="FSK" name="FSK" netid="HP" insttype="40," lat="38.4593" lon="20.5623">
    <comp name="--.HHN">
      <acc value="0.0079714429" flag="0"/>
      <vel value="0.0060862152" flag="0"/>
      <psa03 value="0.0300854461" flag="0"/>
      <psa10 value="0.0059999404" flag="0"/>
      <psa30 value="0.0004190278" flag="0"/>
    </comp>
    <comp name="--.HHE">
      <acc value="0.0185737525" flag="0"/>
      <vel value="0.0089936102" flag="0"/>
      <psa03 value="0.0800449715" flag="0"/>
      <psa10 value="0.0042579721" flag="0"/>
      <psa30 value="0.0006286288" flag="0"/>
    </comp>
    <comp name="--.HHZ">
      <acc value="0.0053010650" flag="0"/>
      <vel value="0.0033006961" flag="0"/>
      <psa03 value="0.0166074742" flag="0"/>
      <psa10 value="0.0037772400" flag="0"/>
      <psa30 value="0.0002925860" flag="0"/>
    </comp>
  </station>
  <station code="KSTR" name="KSTR" netid="HP" insttype="Compact," lat="39.2492" lon="20.576">
    <comp name="--.HHE">
      <acc value="0.1800079027" flag="0"/>
      <vel value="0.0288277084" flag="0"/>
      <psa03 value="0.1146391869" flag="0"/>
      <psa10 value="0.0111192975" flag="0"/>
      <psa30 value="0.0011071463" flag="0"/>
    </comp>
    <comp name="--.HHN">
      <acc value="0.1425717466" flag="0"/>
      <vel value="0.0252437382" flag="0"/>
      <psa03 value="0.1076506642" flag="0"/>
      <psa10 value="0.0092218612" flag="0"/>
      <psa30 value="0.0007840454" flag="0"/>
    </comp>
    <comp name="--.HHZ">
      <acc value="0.1209302309" flag="0"/>
      <vel value="0.0191849419" flag="0"/>
      <psa03 value="0.0670483793" flag="0"/>
      <psa10 value="0.0123623122" flag="0"/>
      <psa30 value="0.0007701272" flag="0"/>
    </comp>
  </station>
  <station code="PDO" name="PDO" netid="HP" insttype="120s" lat="38.5986" lon="21.1833">
    <comp name="--.HHE">
      <acc value="0.0095642345" flag="0"/>
      <vel value="0.0061399104" flag="0"/>
      <psa03 value="0.0250400267" flag="0"/>
      <psa10 value="0.0052517114" flag="0"/>
      <psa30 value="0.0007369222" flag="0"/>
    </comp>
    <comp name="--.HHN">
      <acc value="0.0105379348" flag="0"/>
      <vel value="0.0066148945" flag="0"/>
      <psa03 value="0.0313308557" flag="0"/>
      <psa10 value="0.0042981321" flag="0"/>
      <psa30 value="0.0005576635" flag="0"/>
    </comp>
    <comp name="--.HHZ">
      <acc value="0.0071752860" flag="0"/>
      <vel value="0.0029549196" flag="0"/>
      <psa03 value="0.0156421909" flag="0"/>
      <psa10 value="0.0037079818" flag="0"/>
      <psa30 value="0.0004188977" flag="0"/>
    </comp>
  </station>
  <station code="PLEV" name="PLEV" netid="HP" insttype="Compact," lat="38.4124" lon="21.4073">
    <comp name="--.HHE">
      <acc value="0.0027108661" flag="0"/>
      <vel value="0.0025495010" flag="0"/>
      <psa03 value="0.0152544122" flag="0"/>
      <psa10 value="0.0043618668" flag="0"/>
      <psa30 value="0.0004233814" flag="0"/>
    </comp>
    <comp name="--.HHZ">
      <acc value="0.0018456775" flag="0"/>
      <vel value="0.0016610684" flag="0"/>
      <psa03 value="0.0039453452" flag="0"/>
      <psa10 value="0.0021467033" flag="0"/>
      <psa30 value="0.0002752391" flag="0"/>
    </comp>
    <comp name="--.HHN">
      <acc value="0.0041108521" flag="0"/>
      <vel value="0.0026761189" flag="0"/>
      <psa03 value="0.0145162285" flag="0"/>
      <psa10 value="0.0055435345" flag="0"/>
      <psa30 value="0.0002105722" flag="0"/>
    </comp>
  </station>
  <station code="PRMD" name="PRMD" netid="HP" insttype="120P," lat="39.5299" lon="21.0965">
    <comp name="--.HHE">
      <acc value="0.0184685738" flag="0"/>
      <vel value="0.0087019625" flag="0"/>
      <psa03 value="0.0483991027" flag="0"/>
      <psa10 value="0.0102572107" flag="0"/>
      <psa30 value="0.0005885128" flag="0"/>
    </comp>
    <comp name="--.HHN">
      <acc value="0.0017796631" flag="0"/>
      <vel value="0.0007740461" flag="0"/>
      <psa03 value="0.0045767086" flag="0"/>
      <psa10 value="0.0011931177" flag="0"/>
      <psa30 value="0.0000753392" flag="0"/>
    </comp>
    <comp name="--.HHZ">
      <acc value="0.0046202058" flag="0"/>
      <vel value="0.0023433210" flag="0"/>
      <psa03 value="0.0124503953" flag="0"/>
      <psa10 value="0.0041808836" flag="0"/>
      <psa30 value="0.0002191812" flag="0"/>
    </comp>
  </station>
  <station code="PVO" name="PVO" netid="HP" insttype="120P," lat="38.616" lon="21.525">
    <comp name="--.HHE">
      <acc value="0.0057436763" flag="0"/>
      <vel value="0.0037039456" flag="0"/>
      <psa03 value="0.0175578358" flag="0"/>
      <psa10 value="0.0061799167" flag="0"/>
      <psa30 value="0.0010280629" flag="0"/>
    </comp>
    <comp name="--.HHN">
      <acc value="0.0071944814" flag="0"/>
      <vel value="0.0059004338" flag="0"/>
      <psa03 value="0.0134588062" flag="0"/>
      <psa10 value="0.0046850983" flag="0"/>
      <psa30 value="0.0007777146" flag="0"/>
    </comp>
    <comp name="--.HHZ">
      <acc value="0.0032544757" flag="0"/>
      <vel value="0.0033485010" flag="0"/>
      <psa03 value="0.0080099547" flag="0"/>
      <psa10 value="0.0055591832" flag="0"/>
      <psa30 value="0.0004272591" flag="0"/>
    </comp>
  </station>
  <station code="DMLN" name="DMLN" netid="HT" insttype="1s-100Hz," lat="38.2385" lon="20.3734">
    <comp name="--.HHE">
      <acc value="0.0165661446" flag="0"/>
      <vel value="0.0062817071" flag="0"/>
      <psa03 value="0.0358327067" flag="0"/>
      <psa10 value="0.0073021246" flag="0"/>
      <psa30 value="0.0005998727" flag="0"/>
    </comp>
    <comp name="--.HHN">
      <acc value="0.0174306540" flag="0"/>
      <vel value="0.0054239497" flag="0"/>
      <psa03 value="0.0339849141" flag="0"/>
      <psa10 value="0.0076667648" flag="0"/>
      <psa30 value="0.0004107239" flag="0"/>
    </comp>
    <comp name="--.HHZ">
      <acc value="0.0107664316" flag="0"/>
      <vel value="0.0045822439" flag="0"/>
      <psa03 value="0.0278176938" flag="0"/>
      <psa10 value="0.0030114228" flag="0"/>
      <psa30 value="0.0003357898" flag="0"/>
    </comp>
  </station>
  <station code="DRAG" name="DRAG" netid="HT" insttype="30s-100Hz," lat="38.6839" lon="20.5746">
    <comp name="--.HHE">
      <acc value="0.0000903827" flag="0"/>
      <vel value="0.0000269439" flag="0"/>
      <psa03 value="0.0002091587" flag="0"/>
      <psa10 value="0.0000131669" flag="0"/>
      <psa30 value="0.0000008930" flag="0"/>
    </comp>
    <comp name="--.HHZ">
      <acc value="0.0000327554" flag="0"/>
      <vel value="0.0000116960" flag="0"/>
      <psa03 value="0.0000570222" flag="0"/>
      <psa10 value="0.0000064851" flag="0"/>
      <psa30 value="0.0000002584" flag="0"/>
    </comp>
    <comp name="--.HHN">
      <acc value="0.0000134059" flag="0"/>
      <vel value="0.0000017284" flag="0"/>
      <psa03 value="0.0000082256" flag="0"/>
      <psa10 value="0.0000009158" flag="0"/>
      <psa30 value="0.0000000925" flag="0"/>
    </comp>
  </station>
  <station code="EVGI" name="EVGI" netid="HT" insttype="30" lat="38.621" lon="20.656">
    <comp name="--.HHE">
      <acc value="0.0296541898" flag="0"/>
      <vel value="0.0079575666" flag="0"/>
      <psa03 value="0.0480198901" flag="0"/>
      <psa10 value="0.0036425707" flag="0"/>
      <psa30 value="0.0001774446" flag="0"/>
    </comp>
    <comp name="--.HHN">
      <acc value="0.0332201283" flag="0"/>
      <vel value="0.0086317818" flag="0"/>
      <psa03 value="0.0463798940" flag="0"/>
      <psa10 value="0.0076729321" flag="0"/>
      <psa30 value="0.0005419298" flag="0"/>
    </comp>
    <comp name="--.HHZ">
      <acc value="0.0244904325" flag="0"/>
      <vel value="0.0066530428" flag="0"/>
