<?xml version="1.0" encoding="UTF-8" standalone="yes"?>
<!DOCTYPE earthquake SYSTEM "stationlist.dtd">
<stationlist created="" xmlns="ch.ethz.sed.shakemap.usgs.xml">
  <station code="KRK1" name="KRK1" netid="HI" insttype="CMG-5TD,ACCELEROMETER,GURALP" lat="39.6189" lon="19.9202">
    <comp name="--.HNZ">
      <acc value="0.1520559740" flag="0"/>
      <vel value="0.0324728755" flag="0"/>
      <psa03 value="0.1446906505" flag="0"/>
      <psa10 value="0.0068256280" flag="0"/>
      <psa30 value="0.0005042201" flag="0"/>
    </comp>
    <comp name="--.HNE">
      <acc value="0.4368408103" flag="0"/>
      <vel value="0.1216210811" flag="0"/>
      <psa03 value="0.4345510281" flag="0"/>
      <psa10 value="0.0162795256" flag="0"/>
      <psa30 value="0.0016386703" flag="0"/>
    </comp>
    <comp name="--.HNN">
      <acc value="0.2523851107" flag="0"/>
      <vel value="0.0583462638" flag="0"/>
      <psa03 value="0.2247240126" flag="0"/>
      <psa10 value="0.0163402488" flag="0"/>
      <psa30 value="0.0010791557" flag="0"/>
    </comp>
  </station>
  <station code="VAS2" name="VAS2" netid="HI" insttype="CMG-5TD,ACCELEROMETER,GURALP" lat="38.6306" lon="20.6081">
    <comp name="--.HNE">
      <acc value="0.0348650154" flag="0"/>
      <vel value="0.0291714068" flag="0"/>
      <psa03 value="0.0882997746" flag="0"/>
      <psa10 value="0.0519005570" flag="0"/>
      <psa30 value="0.0020081118" flag="0"/>
    </comp>
    <comp name="--.HNN">
      <acc value="0.0319489615" flag="0"/>
      <vel value="0.0242663546" flag="0"/>
      <psa03 value="0.1219090876" flag="0"/>
      <psa10 value="0.0463265932" flag="0"/>
      <psa30 value="0.0022723220" flag="0"/>
    </comp>
    <comp name="--.HNZ">
      <acc value="0.0186604307" flag="0"/>
      <vel value="0.0105512731" flag="0"/>
      <psa03 value="0.0408699314" flag="0"/>
      <psa10 value="0.0118528998" flag="0"/>
      <psa30 value="0.0007531726" flag="0"/>
    </comp>
  </station>
  <station code="JAN" name="JAN" netid="HL" insttype="CMG3EPSC60_DR24" lat="39.6562" lon="20.8487">
    <comp name="--.HHN">
      <acc value="0.1039189189" flag="0"/>
      <vel value="0.0406611432" flag="0"/>
      <psa03 value="0.2150121710" flag="0"/>
      <psa10 value="0.0327768742" flag="0"/>
      <psa30 value="0.0018982214" flag="0"/>
    </comp>
    <comp name="--.HHZ">
      <acc value="0.0001569796" flag="0"/>
      <vel value="0.0000259957" flag="0"/>
      <psa03 value="0.0001331035" flag="0"/>
      <psa10 value="0.0000149691" flag="0"/>
      <psa30 value="0.0000018304" flag="0"/>
    </comp>
    <comp name="--.HHE">
      <acc value="0.1719763505" flag="0"/>
      <vel value="0.0497677735" flag="0"/>
      <psa03 value="0.3685253657" flag="0"/>
      <psa10 value="0.0275049675" flag="0"/>
      <psa30 value="0.0017342183" flag="0"/>
    </comp>
  </station>
  <station code="KEK" name="KEK" netid="HL" insttype="120" lat="39.7127" lon="19.7962">
    <comp name="--.HHE">
      <acc value="0.0896119696" flag="0"/>
      <vel value="0.0221030404" flag="0"/>
      <psa03 value="0.1304084601" flag="0"/>
      <psa10 value="0.0094268261" flag="0"/>
      <psa30 value="0.0005514523" flag="0"/>
    </comp>
    <comp name="--.HHZ">
      <acc value="0.0381702081" flag="0"/>
      <vel value="0.0153083503" flag="0"/>
      <psa03 value="0.0656570761" flag="0"/>
      <psa10 value="0.0137739937" flag="0"/>
      <psa30 value="0.0007129520" flag="0"/>
    </comp>
    <comp name="--.HHN">
      <acc value="0.0556781003" flag="0"/>
      <vel value="0.0140273286" flag="0"/>
      <psa03 value="0.0607909322" flag="0"/>
      <psa10 value="0.0084937707" flag="0"/>
      <psa30 value="0.0008508572" flag="0"/>
    </comp>
  </station>
  <station code="OTHN" name="OTHN" netid="HL" insttype="30" lat="39.8416" lon="19.4057">
    <comp name="--.HHE">
      <acc value="0.1755347731" flag="0"/>
      <vel value="0.0559617946" flag="0"/>
      <psa03 value="0.3129121961" flag="0"/>
      <psa10 value="0.0226940272" flag="0"/>
      <psa30 value="0.0012271025" flag="0"/>
    </comp>
    <comp name="--.HHZ">
      <acc value="0.0990660265" flag="0"/>
      <vel value="0.0273024774" flag="0"/>
      <psa03 value="0.2211757322" flag="0"/>
      <psa10 value="0.0108791040" flag="0"/>
      <psa30 value="0.0005666281" flag="0"/>
    </comp>
    <comp name="--.HHN">
      <acc value="0.1934415436" flag="0"/>
      <vel value="0.0480547359" flag="0"/>
      <psa03 value="0.3389638266" flag="0"/>
      <psa10 value="0.0183280836" flag="0"/>
      <psa30 value="0.0014745506" flag="0"/>
    </comp>
  </station>
  <station code="TETR" name="TETR" netid="HL" insttype="60" lat="39.3445" lon="21.2747">
    <comp name="--.HHZ">
      <acc value="0.0191924746" flag="0"/>
      <vel value="0.0065752211" flag="0"/>
      <psa03 value="0.0293488142" flag="0"/>
      <psa10 value="0.0045045711" flag="0"/>
      <psa30 value="0.0005226512" flag="0"/>
    </comp>
    <comp name="--.HHN">
      <acc value="0.0361625990" flag="0"/>
      <vel value="0.0101012475" flag="0"/>
      <psa03 value="0.0449020640" flag="0"/>
      <psa10 value="0.0094975418" flag="0"/>
      <psa30 value="0.0011233763" flag="0"/>
    </comp>
    <comp name="--.HHE">
      <acc value="0.0245504098" flag="0"/>
      <vel value="0.0117815876" flag="0"/>
      <psa03 value="0.0837398508" flag="0"/>
      <psa10 value="0.0099885271" flag="0"/>
      <psa30 value="0.0008523168" flag="0"/>
    </comp>
  </station>
  <station code="AMPL" name="AMPL" netid="HP" insttype="Compact," lat="38.9224" lon="21.2135">
    <comp name="--.HHE">
      <acc value="0.0136699443" flag="0"/>
      <vel value="0.0045064590" flag="0"/>
      <psa03 value="0.0228968414" flag="0"/>
      <psa10 value="0.0044691126" flag="0"/>
      <psa30 value="0.0006855198" flag="0"/>
    </comp>
    <comp name="--.HHZ">
      <acc value="0.0089468331" flag="0"/>
      <vel value="0.0052002396" flag="0"/>
      <psa03 value="0.0169494103" flag="0"/>
      <psa10 value="0.0043178314" flag="0"/>
      <psa30 value="0.0003081600" flag="0"/>
    </comp>
    <comp name="--.HHN">
      <acc value="0.0135875983" flag="0"/>
      <vel value="0.0049765929" flag="0"/>
      <psa03 value="0.0281791222" flag="0"/>
      <psa10 value="0.0063684936" flag="0"/>
      <psa30 value="0.0004594555" flag="0"/>
    </comp>
  </station>
  <station code="FSK" name="FSK" netid="HP" insttype="40," lat="38.4593" lon="20.5623">
    <comp name="--.HHE">
      <acc value="0.0185737515" flag="0"/>
      <vel value="0.0089936105" flag="0"/>
      <psa03 value="0.0800449715" flag="0"/>
      <psa10 value="0.0042579722" flag="0"/>
      <psa30 value="0.0006286549" flag="0"/>
    </comp>
    <comp name="--.HHN">
      <acc value="0.0079714424" flag="0"/>
      <vel value="0.0060862145" flag="0"/>
      <psa03 value="0.0300854461" flag="0"/>
      <psa10 value="0.0059999404" flag="0"/>
      <psa30 value="0.0004190153" flag="0"/>
    </comp>
    <comp name="--.HHZ">
      <acc value="0.0053010656" flag="0"/>
      <vel value="0.0033006953" flag="0"/>
      <psa03 value="0.0166074742" flag="0"/>
      <psa10 value="0.0037772400" flag="0"/>
      <psa30 value="0.0002925985" flag="0"/>
    </comp>
  </station>
  <station code="KSTR" name="KSTR" netid="HP" insttype="Compact," lat="39.2492" lon="20.576">
    <comp name="--.HHE">
      <acc value="0.1800079017" flag="0"/>
      <vel value="0.0288277085" flag="0"/>
      <psa03 value="0.1146391869" flag="0"/>
      <psa10 value="0.0111192975" flag="0"/>
      <psa30 value="0.0011071912" flag="0"/>
    </comp>
    <comp name="--.HHN">
      <acc value="0.1425717463" flag="0"/>
      <vel value="0.0252437384" flag="0"/>
      <psa03 value="0.1076506642" flag="0"/>
      <psa10 value="0.0092218612" flag="0"/>
      <psa30 value="0.0007839416" flag="0"/>
    </comp>
    <comp name="--.HHZ">
      <acc value="0.1209302318" flag="0"/>
      <vel value="0.0191849411" flag="0"/>
      <psa03 value="0.0670483793" flag="0"/>
      <psa10 value="0.0123623119" flag="0"/>
      <psa30 value="0.0007695478" flag="0"/>
    </comp>
  </station>
  <station code="PDO" name="PDO" netid="HP" insttype="120s" lat="38.5986" lon="21.1833">
    <comp name="--.HHE">
      <acc value="0.0095642336" flag="0"/>
      <vel value="0.0061399101" flag="0"/>
      <psa03 value="0.0250400267" flag="0"/>
      <psa10 value="0.0052517114" flag="0"/>
      <psa30 value="0.0007369312" flag="0"/>
    </comp>
    <comp name="--.HHN">
      <acc value="0.0105379349" flag="0"/>
      <vel value="0.0066148947" flag="0"/>
      <psa03 value="0.0313308557" flag="0"/>
      <psa10 value="0.0042981321" flag="0"/>
      <psa30 value="0.0005576478" flag="0"/>
    </comp>
    <comp name="--.HHZ">
      <acc value="0.0071752872" flag="0"/>
      <vel value="0.0029549195" flag="0"/>
      <psa03 value="0.0156421909" flag="0"/>
      <psa10 value="0.0037079818" flag="0"/>
      <psa30 value="0.0004188680" flag="0"/>
    </comp>
  </station>
  <station code="PRMD" name="PRMD" netid="HP" insttype="120P," lat="39.5299" lon="21.0965">
    <comp name="--.HHE">
      <acc value="0.0184685739" flag="0"/>
      <vel value="0.0087019627" flag="0"/>
      <psa03 value="0.0483991027" flag="0"/>
      <psa10 value="0.0102572107" flag="0"/>
      <psa30 value="0.0005884036" flag="0"/>
    </comp>
    <comp name="--.HHN">
      <acc value="0.0017796634" flag="0"/>
      <vel value="0.0007740463" flag="0"/>
      <psa03 value="0.0045767086" flag="0"/>
      <psa10 value="0.0011931177" flag="0"/>
      <psa30 value="0.0000753496" flag="0"/>
    </comp>
    <comp name="--.HHZ">
      <acc value="0.0046202054" flag="0"/>
      <vel value="0.0023433212" flag="0"/>
      <psa03 value="0.0124503953" flag="0"/>
      <psa10 value="0.0041808836" flag="0"/>
      <psa30 value="0.0002192020" flag="0"/>
    </comp>
  </station>
  <station code="DRAG" name="DRAG" netid="HT" insttype="30s-100Hz," lat="38.6839" lon="20.5746">
    <comp name="--.HHN">
      <acc value="0.0000134060" flag="0"/>
      <vel value="0.0000017285" flag="0"/>
      <psa03 value="0.0000082256" flag="0"/>
      <psa10 value="0.0000009158" flag="0"/>
      <psa30 value="0.0000000924" flag="0"/>
    </comp>
    <comp name="--.HHZ">
      <acc value="0.0000327548" flag="0"/>
      <vel value="0.0000116960" flag="0"/>
      <psa03 value="0.0000570222" flag="0"/>
      <psa10 value="0.0000064851" flag="0"/>
      <psa30 value="0.0000002598" flag="0"/>
    </comp>
    <comp name="--.HHE">
      <acc value="0.0000903839" flag="0"/>
      <vel value="0.0000269438" flag="0"/>
      <psa03 value="0.0002091587" flag="0"/>
      <psa10 value="0.0000131669" flag="0"/>
      <psa30 value="0.0000008935" flag="0"/>
    </comp>
  </station>
  <station code="EVGI" name="EVGI" netid="HT" insttype="30" lat="38.621" lon="20.656">
    <comp name="--.HHN">
      <acc value="0.0332201296" flag="0"/>
      <vel value="0.0086317883" flag="0"/>
      <psa03 value="0.0463798940" flag="0"/>
      <psa10 value="0.0076729320" flag="0"/>
      <psa30 value="0.0005418955" flag="0"/>
    </comp>
    <comp name="--.HHE">
      <acc value="0.0296541878" flag="0"/>
      <vel value="0.0079575671" flag="0"/>
      <psa03 value="0.0480198901" flag="0"/>
      <psa10 value="0.0036425707" flag="0"/>
      <psa30 value="0.0001774457" flag="0"/>
    </comp>
    <comp name="--.HHZ">
      <acc value="0.0244904316" flag="0"/>
      <vel value="0.0066530445" flag="0"/>
      <psa03 value="0.0285151892" flag="0"/>
      <psa10 value="0.0037559297" flag="0"/>
      <psa30 value="0.0003880721" flag="0"/>
    </comp>
  </station>
  <station code="IGT" name="IGT" netid="HT" insttype="100" lat="39.5315" lon="20.3299">
    <comp name="--.HHE">
      <acc value="0.8356944297" flag="0"/>
      <vel value="0.1580953908" flag="0"/>
      <psa03 value="0.5666546255" flag="0"/>
      <psa10 value="0.0306767588" flag="0"/>
      <psa30 value="0.0029226432" flag="0"/>
    </comp>
    <comp name="--.HHN">
      <acc value="1.4674616193" flag="0"/>
      <vel value="0.1556987678" flag="0"/>
      <psa03 value="0.3461090100" flag="0"/>
      <psa10 value="0.0173897327" flag="0"/>
      <psa30 value="0.0016303575" flag="0"/>
    </comp>
    <comp name="--.HHZ">
      <acc value="0.7451837420" flag="0"/>
      <vel value="0.1206281938" flag="0"/>
      <psa03 value="0.4614043595" flag="0"/>
      <psa10 value="0.0302388374" flag="0"/>
      <psa30 value="0.0023757388" flag="0"/>
    </comp>
  </station>
  <station code="KPRO" name="KPRO" netid="HT" insttype="100" lat="39.9549" lon="21.3632">
    <comp name="--.HHE">
      <acc value="0.0099228361" flag="0"/>
      <vel value="0.0066594436" flag="0"/>
      <psa03 value="0.0282075763" flag="0"/>
      <psa10 value="0.0098317281" flag="0"/>
      <psa30 value="0.0006209147" flag="0"/>
    </comp>
    <comp name="--.HHN">
      <acc value="0.0101334986" flag="0"/>
      <vel value="0.0080012770" flag="0"/>
      <psa03 value="0.0342633274" flag="0"/>
      <psa10 value="0.0099040314" flag="0"/>
      <psa30 value="0.0008187443" flag="0"/>
    </comp>
    <comp name="--.HHZ">
      <acc value="0.0066506956" flag="0"/>
      <vel value="0.0035346583" flag="0"/>
      <psa03 value="0.0140010670" flag="0"/>
      <psa10 value="0.0040883428" flag="0"/>
      <psa30 value="0.0003174917" flag="0"/>
    </comp>
  </station>
  <station code="LKD2" name="LKD2" netid="HT" insttype="100" lat="38.7889" lon="20.6578">
    <comp name="--.HHN">
      <acc value="0.0180808320" flag="0"/>
      <vel value="0.0070410017" flag="0"/>
      <psa03 value="0.0415325525" flag="0"/>
      <psa10 value="0.0043901347" flag="0"/>
      <psa30 value="0.0003737425" flag="0"/>
    </comp>
    <comp name="--.HHE">
      <acc value="0.0162977235" flag="0"/>
      <vel value="0.0078008304" flag="0"/>
      <psa03 value="0.0322324922" flag="0"/>
      <psa10 value="0.0054337358" flag="0"/>
      <psa30 value="0.0003382027" flag="0"/>
    </comp>
    <comp name="--.HHZ">
      <acc value="0.0110795853" flag="0"/>
      <vel value="0.0038493355" flag="0"/>
      <psa03 value="0.0207325913" flag="0"/>
      <psa10 value="0.0040347335" flag="0"/>
      <psa30 value="0.0002381011" flag="0"/>
    </comp>
  </station>
  <station code="NEST" name="NEST" netid="HT" insttype="120P," lat="40.4147" lon="21.0489">
    <comp name="--.HHE">
      <acc value="0.0116234295" flag="0"/>
      <vel value="0.0059186106" flag="0"/>
      <psa03 value="0.0389538839" flag="0"/>
      <psa10 value="0.0067596435" flag="0"/>
      <psa30 value="0.0003811709" flag="0"/>
    </comp>
    <comp name="--.HHN">
      <acc value="0.0086710907" flag="0"/>
      <vel value="0.0049659579" flag="0"/>
      <psa03 value="0.0281762736" flag="0"/>
      <psa10 value="0.0042423184" flag="0"/>
      <psa30 value="0.0003279828" flag="0"/>
    </comp>
    <comp name="--.HHZ">
      <acc value="0.0100675192" flag="0"/>
      <vel value="0.0074371476" flag="0"/>
      <psa03 value="0.0301137392" flag="0"/>
      <psa10 value="0.0063584464" flag="0"/>
      <psa30 value="0.0006079025" flag="0"/>
    </comp>
  </station>
  <station code="NYDR" name="NYDR" netid="HT" insttype="1s-100Hz," lat="38.7135" lon="20.6983">
    <comp name="--.HHE">
      <acc value="0.0151632241" flag="0"/>
      <vel value="0.0071814624" flag="0"/>
      <psa03 value="0.0329765155" flag="0"/>
      <psa10 value="0.0080336445" flag="0"/>
      <psa30 value="0.0003683479" flag="0"/>
    </comp>
    <comp name="--.HHN">
      <acc value="0.0202790458" flag="0"/>
      <vel value="0.0073400381" flag="0"/>
      <psa03 value="0.0426566145" flag="0"/>
      <psa10 value="0.0059397940" flag="0"/>
      <psa30 value="0.0005046202" flag="0"/>
    </comp>
    <comp name="--.HHZ">
      <acc value="0.0111529367" flag="0"/>
      <vel value="0.0037734837" flag="0"/>
      <psa03 value="0.0143223655" flag="0"/>
      <psa10 value="0.0038441565" flag="0"/>
      <psa30 value="0.0003254221" flag="0"/>
    </comp>
  </station>
  <station code="TSLK" name="TSLK" netid="HT" insttype="1s-100Hz," lat="38.8249" lon="20.6554">
    <comp name="--.HHE">
      <acc value="0.0222998938" flag="0"/>
      <vel value="0.0078641320" flag="0"/>
      <psa03 value="0.0560853615" flag="0"/>
      <psa10 value="0.0068399826" flag="0"/>
      <psa30 value="0.0004737540" flag="0"/>
    </comp>
    <comp name="--.HHN">
      <acc value="0.0207077751" flag="0"/>
      <vel value="0.0102702038" flag="0"/>
      <psa03 value="0.0627817152" flag="0"/>
      <psa10 value="0.0090160282" flag="0"/>
      <psa30 value="0.0006050191" flag="0"/>
    </comp>
    <comp name="--.HHZ">
      <acc value="0.0137722927" flag="0"/>
      <vel value="0.0043421801" flag="0"/>
      <psa03 value="0.0237018546" flag="0"/>
      <psa10 value="0.0026516118" flag="0"/>
      <psa30 value="0.0005456373" flag="0"/>
    </comp>
  </station>
  <station code="KEK" name="KEK" netid="MN" insttype="" lat="39.7127" lon="19.7962">
    <comp name="--.HHE">
      <acc value="0.0896119075" flag="0"/>
      <vel value="0.0221030251" flag="0"/>
      <psa03 value="0.1304083698" flag="0"/>
      <psa10 value="0.0094268195" flag="0"/>
      <psa30 value="0.0005514519" flag="0"/>
    </comp>
    <comp name="--.HHN">
      <acc value="0.0556780617" flag="0"/>
      <vel value="0.0140273189" flag="0"/>
      <psa03 value="0.0607908901" flag="0"/>
      <psa10 value="0.0084937648" flag="0"/>
      <psa30 value="0.0008508566" flag="0"/>
    </comp>
    <comp name="--.HHZ">
      <acc value="0.0381701816" flag="0"/>
      <vel value="0.0153083397" flag="0"/>
      <psa03 value="0.0656570307" flag="0"/>
      <psa10 value="0.0137739842" flag="0"/>
      <psa30 value="0.0007129515" flag="0"/>
    </comp>
  </station>
</stationlist>
