<?xml version="1.0" encoding="UTF-8" standalone="yes"?>
<!DOCTYPE earthquake SYSTEM "stationlist.dtd">
<stationlist created="" xmlns="ch.ethz.sed.shakemap.usgs.xml">
  <station code="KEK" name="KEK" netid="MN" insttype="" lat="39.7127" lon="19.7962">
    <comp name="--.HHE">
      <acc value="0.0896119075" flag="0"/>
      <vel value="0.0221030251" flag="0"/>
      <psa03 value="0.1304083698" flag="0"/>
      <psa10 value="0.0094268195" flag="0"/>
      <psa30 value="0.0005514519" flag="0"/>
    </comp>
    <comp name="--.HHN">
      <acc value="0.0556780617" flag="0"/>
      <vel value="0.0140273189" flag="0"/>
      <psa03 value="0.0607908901" flag="0"/>
      <psa10 value="0.0084937648" flag="0"/>
      <psa30 value="0.0008508566" flag="0"/>
    </comp>
    <comp name="--.HHZ">
      <acc value="0.0381701816" flag="0"/>
      <vel value="0.0153083397" flag="0"/>
      <psa03 value="0.0656570307" flag="0"/>
      <psa10 value="0.0137739842" flag="0"/>
      <psa30 value="0.0007129515" flag="0"/>
    </comp>
  </station>
</stationlist>
