<?xml version="1.0" encoding="UTF-8" standalone="yes"?>
<!DOCTYPE earthquake SYSTEM "stationlist.dtd">
<stationlist created="" xmlns="ch.ethz.sed.shakemap.usgs.xml">
  <station code="BZK" name="BZK" netid="KO" insttype="CMG-3T" lat="41.96" lon="34.0035">
    <comp name="--.HHZ">
      <acc value="0.0109189776" flag="0"/>
      <vel value="0.0042757198" flag="0"/>
      <psa03 value="0.0281436372" flag="0"/>
      <psa10 value="0.0024120576" flag="0"/>
      <psa30 value="0.0002421425" flag="0"/>
    </comp>
    <comp name="--.HHN">
      <acc value="0.0202856891" flag="0"/>
      <vel value="0.0056608817" flag="0"/>
      <psa03 value="0.0253901906" flag="0"/>
      <psa10 value="0.0031781902" flag="0"/>
      <psa30 value="0.0002585088" flag="0"/>
    </comp>
    <comp name="--.HHE">
      <acc value="0.0203378272" flag="0"/>
      <vel value="0.0067489994" flag="0"/>
      <psa03 value="0.0255488281" flag="0"/>
      <psa10 value="0.0038667313" flag="0"/>
      <psa30 value="0.0003093221" flag="0"/>
    </comp>
  </station>
  <station code="KDZE" name="KDZE" netid="KO" insttype="CMG-3T" lat="41.3132" lon="31.443">
    <comp name="--.HHE">
      <acc value="0.0176220038" flag="0"/>
      <vel value="0.0027343661" flag="0"/>
      <psa03 value="0.0122460155" flag="0"/>
      <psa10 value="0.0006523109" flag="0"/>
      <psa30 value="0.0000587424" flag="0"/>
    </comp>
    <comp name="--.HHN">
      <acc value="0.0181721971" flag="0"/>
      <vel value="0.0036676467" flag="0"/>
      <psa03 value="0.0168758145" flag="0"/>
      <psa10 value="0.0008023493" flag="0"/>
      <psa30 value="0.0000933821" flag="0"/>
    </comp>
    <comp name="--.HHZ">
      <acc value="0.0122270297" flag="0"/>
      <vel value="0.0018653576" flag="0"/>
      <psa03 value="0.0059787840" flag="0"/>
      <psa10 value="0.0010017232" flag="0"/>
      <psa30 value="0.0000594975" flag="0"/>
    </comp>
  </station>
  <station code="SAFT" name="SAFT" netid="KO" insttype="CMG-5T" lat="41.2398" lon="32.6871">
    <comp name="--.HNE">
      <acc value="0.0242109658" flag="0"/>
      <vel value="0.0057693687" flag="0"/>
      <psa03 value="0.0176496216" flag="0"/>
      <psa10 value="0.0042869365" flag="0"/>
      <psa30 value="0.0003616911" flag="0"/>
    </comp>
    <comp name="--.HNN">
      <acc value="0.0341464104" flag="0"/>
      <vel value="0.0075642252" flag="0"/>
      <psa03 value="0.0236496680" flag="0"/>
      <psa10 value="0.0042655722" flag="0"/>
      <psa30 value="0.0004057637" flag="0"/>
    </comp>
    <comp name="--.HNZ">
      <acc value="0.0202506299" flag="0"/>
      <vel value="0.0040340507" flag="0"/>
      <psa03 value="0.0135855625" flag="0"/>
      <psa10 value="0.0035906409" flag="0"/>
      <psa30 value="0.0005032914" flag="0"/>
    </comp>
  </station>
</stationlist>
