<stationlist created="1778138841">
	<station code="KSS1" name="KSS1" netid="HI" source="ITSAK Strong Motion Network" insttype="" lat="35.4189" lon="26.9207">
		<comp name="--.HNE" depth="0.0">
			<acc value="0.757640621705566" flag="0"/>
			<vel value="0.324739169064159" flag="0"/>
			<psa03 value="1.77183804224093" flag="0"/>
			<psa10 value="0.239640965037954" flag="0"/>
			<psa30 value="0.0189369594806179" flag="0"/>
		</comp>
		<comp name="--.HNN" depth="0.0">
			<acc value="0.498874324877701" flag="0"/>
			<vel value="0.168266541766318" flag="0"/>
			<psa03 value="1.23740663878425" flag="0"/>
			<psa10 value="0.104099823602217" flag="0"/>
			<psa30 value="0.00679164866340076" flag="0"/>
		</comp>
		<comp name="--.HNZ" depth="0.0">
			<acc value="0.353277370746017" flag="0"/>
			<vel value="0.123146479004249" flag="0"/>
			<psa03 value="0.573070504773207" flag="0"/>
			<psa10 value="0.0527706682979196" flag="0"/>
			<psa30 value="0.00399047643281352" flag="0"/>
		</comp>
	</station>
	<station code="RDI1" name="RDI1" netid="HI" source="ITSAK Strong Motion Network" insttype="" lat="36.4514" lon="28.224">
		<comp name="--.HNE" depth="0.0">
			<acc value="0.0203583384405295" flag="0"/>
			<vel value="0.0169662227516495" flag="0"/>
			<psa03 value="0.060857146070549" flag="0"/>
			<psa10 value="0.0204393658826955" flag="0"/>
			<psa30 value="0.00489677063700509" flag="0"/>
		</comp>
		<comp name="--.HNN" depth="0.0">
			<acc value="0.0189359253454958" flag="0"/>
			<vel value="0.0173518562237585" flag="0"/>
			<psa03 value="0.0557297386966621" flag="0"/>
			<psa10 value="0.0189462157188067" flag="0"/>
			<psa30 value="0.00472687854919355" flag="0"/>
		</comp>
		<comp name="--.HNZ" depth="0.0">
			<acc value="0.0138663144178051" flag="0"/>
			<vel value="0.00945962623448535" flag="0"/>
			<psa03 value="0.0472963466925546" flag="0"/>
			<psa10 value="0.0130908356411036" flag="0"/>
			<psa30 value="0.00220044868559219" flag="0"/>
		</comp>
	</station>
	<station code="SIT2" name="SIT2" netid="HI" source="ITSAK Strong Motion Network" insttype="" lat="35.2059" lon="26.107">
		<comp name="--.HNE" depth="0.0">
			<acc value="0.124869052736183" flag="0"/>
			<vel value="0.0952845155269473" flag="0"/>
			<psa03 value="0.35358875685294" flag="0"/>
			<psa10 value="0.0582556616517692" flag="0"/>
			<psa30 value="0.00468572082266928" flag="0"/>
		</comp>
		<comp name="--.HNN" depth="0.0">
			<acc value="0.115341650753267" flag="0"/>
			<vel value="0.0934479206980755" flag="0"/>
			<psa03 value="0.331946573164872" flag="0"/>
			<psa10 value="0.0595389441628676" flag="0"/>
			<psa30 value="0.00335312691986999" flag="0"/>
		</comp>
		<comp name="--.HNZ" depth="0.0">
			<acc value="0.0743327345954773" flag="0"/>
			<vel value="0.0298425423107176" flag="0"/>
			<psa03 value="0.188976539601516" flag="0"/>
			<psa10 value="0.0172107807547512" flag="0"/>
			<psa30 value="0.00162193546609771" flag="0"/>
		</comp>
	</station>
	<station code="KARP" name="KARP" netid="HL" source="National Observatory of Athens Seismic Network" insttype="" lat="35.5471" lon="27.16106">
		<comp name="--.HNE" depth="0.0">
			<acc value="0.465133482360904" flag="0"/>
			<vel value="0.111201716403895" flag="0"/>
			<psa03 value="0.67688713211685" flag="0"/>
			<psa10 value="0.102011242744024" flag="0"/>
			<psa30 value="0.004643143418815" flag="0"/>
		</comp>
		<comp name="--.HNN" depth="0.0">
			<acc value="0.410192815319791" flag="0"/>
			<vel value="0.115028848032721" flag="0"/>
			<psa03 value="0.519142182287936" flag="0"/>
			<psa10 value="0.0721767638562426" flag="0"/>
			<psa30 value="0.00345658710693021" flag="0"/>
		</comp>
		<comp name="--.HNZ" depth="0.0">
			<acc value="0.271798486616158" flag="0"/>
			<vel value="0.0621027115125884" flag="0"/>
			<psa03 value="0.382391914921186" flag="0"/>
			<psa10 value="0.0490133581442537" flag="0"/>
			<psa30 value="0.00302044383958119" flag="0"/>
		</comp>
	</station>
	<station code="KSTE" name="KSTE" netid="HL" source="National Observatory of Athens Seismic Network" insttype="" lat="35.1801" lon="25.3372">
		<comp name="--.HNE" depth="0.0">
			<acc value="0.00438133144056572" flag="0"/>
			<vel value="0.00559304577605893" flag="0"/>
			<psa03 value="0.0126576015248297" flag="0"/>
			<psa10 value="0.00942379021736159" flag="0"/>
			<psa30 value="0.000796324992204743" flag="0"/>
		</comp>
		<comp name="--.HNN" depth="0.0">
			<acc value="0.00686365378193842" flag="0"/>
			<vel value="0.00875063337607979" flag="0"/>
			<psa03 value="0.0171441187866294" flag="0"/>
			<psa10 value="0.0134325404648843" flag="0"/>
			<psa30 value="0.00139331073749646" flag="0"/>
		</comp>
		<comp name="--.HNZ" depth="0.0">
			<acc value="0.00591513959214937" flag="0"/>
			<vel value="0.00449249454150217" flag="0"/>
			<psa03 value="0.0160667427282525" flag="0"/>
			<psa10 value="0.00717526454482017" flag="0"/>
			<psa30 value="0.00110540062319814" flag="0"/>
		</comp>
	</station>
	<station code="NISR" name="NISR" netid="HL" source="National Observatory of Athens Seismic Network" insttype="" lat="36.6106" lon="27.131">
		<comp name="--.HNE" depth="0.0">
			<acc value="0.0250907703908682" flag="0"/>
			<vel value="0.0138116741687046" flag="0"/>
			<psa03 value="0.0749390633034602" flag="0"/>
			<psa10 value="0.0104101899364947" flag="0"/>
			<psa30 value="0.00180046656373813" flag="0"/>
		</comp>
		<comp name="--.HNN" depth="0.0">
			<acc value="0.0156362896841379" flag="0"/>
			<vel value="0.0113150991751076" flag="0"/>
			<psa03 value="0.0445867244850283" flag="0"/>
			<psa10 value="0.0112457902908963" flag="0"/>
			<psa30 value="0.0016300258978833" flag="0"/>
		</comp>
		<comp name="--.HNZ" depth="0.0">
			<acc value="0.00853379094684681" flag="0"/>
			<vel value="0.00516029715736025" flag="0"/>
			<psa03 value="0.0353727234776598" flag="0"/>
			<psa10 value="0.00781884467884648" flag="0"/>
			<psa30 value="0.000597908045975813" flag="0"/>
		</comp>
	</station>
</stationlist>
