<?xml version="1.0" encoding="UTF-8" standalone="yes"?>
<!DOCTYPE earthquake SYSTEM "stationlist.dtd">
<stationlist created="" xmlns="ch.ethz.sed.shakemap.usgs.xml">
  <station code="KARP" name="KARP" netid="GE" insttype="STS-2/N" lat="35.5471" lon="27.1611">
    <comp name="--.HHN">
      <acc value="0.4332795520" flag="0"/>
      <vel value="0.1291262482" flag="0"/>
      <psa03 value="0.4877984694" flag="0"/>
      <psa10 value="0.0797119701" flag="0"/>
      <psa30 value="0.0036649857" flag="0"/>
    </comp>
    <comp name="--.HHZ">
      <acc value="0.2749836664" flag="0"/>
      <vel value="0.0639350091" flag="0"/>
      <psa03 value="0.3865876556" flag="0"/>
      <psa10 value="0.0495981031" flag="0"/>
      <psa30 value="0.0028461879" flag="0"/>
    </comp>
    <comp name="--.HHE">
      <acc value="0.4799965930" flag="0"/>
      <vel value="0.1109017739" flag="0"/>
      <psa03 value="0.6577179230" flag="0"/>
      <psa10 value="0.0960789659" flag="0"/>
      <psa30 value="0.0043260405" flag="0"/>
    </comp>
  </station>
  <station code="ZKR" name="ZKR" netid="GE" insttype="STS-2/N" lat="35.1147" lon="26.2169">
    <comp name="--.HHE">
      <acc value="0.0447461105" flag="0"/>
      <vel value="0.0261972152" flag="0"/>
      <psa03 value="0.1225994599" flag="0"/>
      <psa10 value="0.0188463710" flag="0"/>
      <psa30 value="0.0016126278" flag="0"/>
    </comp>
    <comp name="--.HHN">
      <acc value="0.0215911226" flag="0"/>
      <vel value="0.0168212030" flag="0"/>
      <psa03 value="0.0527362620" flag="0"/>
      <psa10 value="0.0119307844" flag="0"/>
      <psa30 value="0.0007960439" flag="0"/>
    </comp>
    <comp name="--.HHZ">
      <acc value="0.0233501851" flag="0"/>
      <vel value="0.0135542380" flag="0"/>
      <psa03 value="0.0546730112" flag="0"/>
      <psa10 value="0.0171720807" flag="0"/>
      <psa30 value="0.0013762243" flag="0"/>
    </comp>
  </station>
</stationlist>
