<stationlist xmlns:esm="https://esm-db.eu/esmws/shakemap/1/" created="1784080469">
	<station code="AGN1" name="AGN1" netid="HI" source="ITSAK Strong Motion Network" insttype="" lat="35.1879" lon="25.7155" esm:processing="automatic (Paolucci et al 2011)" esm:quality="best">
		<comp name="--.HNE" depth="0.0">
			<acc value="0.0259885420265057" flag="0"/>
			<vel value="0.0201430432273616" flag="0"/>
			<psa03 value="0.0795367376685245" flag="0"/>
			<psa10 value="0.0329389007905216" flag="0"/>
			<psa30 value="0.00165048516987568" flag="0"/>
		</comp>
		<comp name="--.HNN" depth="0.0">
			<acc value="0.0224973940591569" flag="0"/>
			<vel value="0.0142161612659936" flag="0"/>
			<psa03 value="0.0569992186268297" flag="0"/>
			<psa10 value="0.0206176564435532" flag="0"/>
			<psa30 value="0.00123057558209296" flag="0"/>
		</comp>
		<comp name="--.HNZ" depth="0.0">
			<acc value="0.010067375430708" flag="0"/>
			<vel value="0.00459211107878281" flag="0"/>
			<psa03 value="0.0317659454838225" flag="0"/>
			<psa10 value="0.00710583900821064" flag="0"/>
			<psa30 value="0.00107333026952939" flag="0"/>
		</comp>
	</station>
	<station code="ARK1" name="ARK1" netid="HI" source="ITSAK Strong Motion Network" insttype="" lat="35.148777" lon="25.264194" esm:processing="automatic (Paolucci et al 2011)" esm:quality="best">
		<comp name="--.HNE" depth="0.0">
			<acc value="0.00997215182608629" flag="0"/>
			<vel value="0.0134109972577786" flag="0"/>
			<psa03 value="0.0347166852266823" flag="0"/>
			<psa10 value="0.0179335455093767" flag="0"/>
			<psa30 value="0.00233589640833973" flag="0"/>
		</comp>
		<comp name="--.HNN" depth="0.0">
			<acc value="0.0123025490759132" flag="0"/>
			<vel value="0.0130007989812563" flag="0"/>
			<psa03 value="0.0265720154739498" flag="0"/>
			<psa10 value="0.0256285040126127" flag="0"/>
			<psa30 value="0.00324802266556112" flag="0"/>
		</comp>
		<comp name="--.HNZ" depth="0.0">
			<acc value="0.00918913628716923" flag="0"/>
			<vel value="0.00920343432657902" flag="0"/>
			<psa03 value="0.0194179777519776" flag="0"/>
			<psa10 value="0.016949855344731" flag="0"/>
			<psa30 value="0.00165047777355237" flag="0"/>
		</comp>
	</station>
	<station code="HER1" name="HER1" netid="HI" source="ITSAK Strong Motion Network" insttype="" lat="35.317672" lon="25.10217" esm:processing="manual (Paolucci et al 2011)" esm:quality="good">
		<comp name="--.HNE" depth="0.0">
			<acc value="0.027561997814898" flag="0"/>
			<vel value="0.0345277797389561" flag="0"/>
			<psa03 value="0.0440724664596065" flag="0"/>
			<psa10 value="0.0642257421402132" flag="0"/>
			<psa30 value="0.00412222016018814" flag="0"/>
		</comp>
		<comp name="--.HNN" depth="0.0">
			<acc value="0.022750009759275" flag="0"/>
			<vel value="0.0409035983721249" flag="0"/>
			<psa03 value="0.0455447879520129" flag="0"/>
			<psa10 value="0.0633959771723563" flag="0"/>
			<psa30 value="0.00466422148178235" flag="0"/>
		</comp>
		<comp name="--.HNZ" depth="0.0">
			<acc value="0.0188211742312236" flag="0"/>
			<vel value="0.0187015696984354" flag="0"/>
			<psa03 value="0.0482485972744443" flag="0"/>
			<psa10 value="0.0399411171529905" flag="0"/>
			<psa30 value="0.00129412604199904" flag="0"/>
		</comp>
	</station>
	<station code="HER2" name="HER2" netid="HI" source="ITSAK Strong Motion Network" insttype="" lat="35.337866" lon="25.135624" esm:processing="manual (Paolucci et al 2011)" esm:quality="good">
		<comp name="--.HNE" depth="0.0">
			<acc value="0.0169383101377002" flag="0"/>
			<vel value="0.018151470232823" flag="0"/>
			<psa03 value="0.0515651086437125" flag="0"/>
			<psa10 value="0.0266353238344846" flag="0"/>
			<psa30 value="0.0010075949773889" flag="0"/>
		</comp>
		<comp name="--.HNN" depth="0.0">
			<acc value="0.017363733172212" flag="0"/>
			<vel value="0.0132753723806477" flag="0"/>
			<psa03 value="0.039833761187018" flag="0"/>
			<psa10 value="0.0269440124085877" flag="0"/>
			<psa30 value="0.00163898117862605" flag="0"/>
		</comp>
		<comp name="--.HNZ" depth="0.0">
			<acc value="0.0104039648346339" flag="0"/>
			<vel value="0.00619736767137968" flag="0"/>
			<psa03 value="0.0366105398519233" flag="0"/>
			<psa10 value="0.0106247041470064" flag="0"/>
			<psa30 value="0.00077396892789303" flag="0"/>
		</comp>
	</station>
	<station code="HER3" name="HER3" netid="HI" source="ITSAK Strong Motion Network" insttype="" lat="35.3296" lon="25.1065" esm:processing="manual (Paolucci et al 2011)" esm:quality="good">
		<comp name="--.HNE" depth="0.0">
			<acc value="0.0215698282669286" flag="0"/>
			<vel value="0.0327929064402768" flag="0"/>
			<psa03 value="0.0682609802882699" flag="0"/>
			<psa10 value="0.0697012173635745" flag="0"/>
			<psa30 value="0.00288760587305079" flag="0"/>
		</comp>
		<comp name="--.HNN" depth="0.0">
			<acc value="0.0216294884531338" flag="0"/>
			<vel value="0.0314943623350026" flag="0"/>
			<psa03 value="0.0530388104358904" flag="0"/>
			<psa10 value="0.0808937438135217" flag="0"/>
			<psa30 value="0.00346607648555655" flag="0"/>
		</comp>
		<comp name="--.HNZ" depth="0.0">
			<acc value="0.0184759970497855" flag="0"/>
			<vel value="0.0135803410373113" flag="0"/>
			<psa03 value="0.0545621092636284" flag="0"/>
			<psa10 value="0.021884919768529" flag="0"/>
			<psa30 value="0.00106532369746662" flag="0"/>
		</comp>
	</station>
	<station code="KOS2" name="KOS2" netid="HI" source="ITSAK Strong Motion Network" insttype="" lat="36.8941" lon="27.2888" esm:processing="manual (Paolucci et al 2011)" esm:quality="good">
		<comp name="--.HNE" depth="0.0">
			<acc value="0.0137808988914854" flag="0"/>
			<vel value="0.0102601485281539" flag="0"/>
			<psa03 value="0.0463305431294371" flag="0"/>
			<psa10 value="0.0128641349983097" flag="0"/>
			<psa30 value="0.00149583263323745" flag="0"/>
		</comp>
		<comp name="--.HNN" depth="0.0">
			<acc value="0.0158919849004416" flag="0"/>
			<vel value="0.0089881451060946" flag="0"/>
			<psa03 value="0.0563616347233585" flag="0"/>
			<psa10 value="0.0138853154590036" flag="0"/>
			<psa30 value="0.00118573813266532" flag="0"/>
		</comp>
		<comp name="--.HNZ" depth="0.0">
			<acc value="0.00633770938592142" flag="0"/>
			<vel value="0.00478569189628569" flag="0"/>
			<psa03 value="0.01469881617235" flag="0"/>
			<psa10 value="0.00635421187285172" flag="0"/>
			<psa30 value="0.000719025496493682" flag="0"/>
		</comp>
	</station>
	<station code="KSS1" name="KSS1" netid="HI" source="ITSAK Strong Motion Network" insttype="" lat="35.4189" lon="26.9207" esm:processing="manual (Paolucci et al 2011)" esm:quality="good">
		<comp name="--.HNE" depth="0.0">
			<acc value="0.757640621705566" flag="0"/>
			<vel value="0.324739169064159" flag="0"/>
			<psa03 value="1.77183804224093" flag="0"/>
			<psa10 value="0.239640965037954" flag="0"/>
			<psa30 value="0.0189369594806179" flag="0"/>
		</comp>
		<comp name="--.HNN" depth="0.0">
			<acc value="0.498874324877701" flag="0"/>
			<vel value="0.168266541766318" flag="0"/>
			<psa03 value="1.23740663878425" flag="0"/>
			<psa10 value="0.104099823602217" flag="0"/>
			<psa30 value="0.00679164866340076" flag="0"/>
		</comp>
		<comp name="--.HNZ" depth="0.0">
			<acc value="0.353277370746017" flag="0"/>
			<vel value="0.123146479004249" flag="0"/>
			<psa03 value="0.573070504773207" flag="0"/>
			<psa10 value="0.0527706682979196" flag="0"/>
			<psa30 value="0.00399047643281352" flag="0"/>
		</comp>
	</station>
	<station code="KTL1" name="KTL1" netid="HI" source="ITSAK Strong Motion Network" insttype="" lat="35.20778" lon="25.34272" esm:processing="automatic (Paolucci et al 2011)" esm:quality="best">
		<comp name="--.HNE" depth="0.0">
			<acc value="0.0148411085118163" flag="0"/>
			<vel value="0.0118925138099817" flag="0"/>
			<psa03 value="0.0333205771163717" flag="0"/>
			<psa10 value="0.0221758509162898" flag="0"/>
			<psa30 value="0.00115470805624171" flag="0"/>
		</comp>
		<comp name="--.HNN" depth="0.0">
			<acc value="0.0134717643417783" flag="0"/>
			<vel value="0.00849386624951916" flag="0"/>
			<psa03 value="0.0398814388245942" flag="0"/>
			<psa10 value="0.0164811230435165" flag="0"/>
			<psa30 value="0.00105989125426058" flag="0"/>
		</comp>
		<comp name="--.HNZ" depth="0.0">
			<acc value="0.00700406191526024" flag="0"/>
			<vel value="0.00703971641270258" flag="0"/>
			<psa03 value="0.0159938602960008" flag="0"/>
			<psa10 value="0.00865269038577285" flag="0"/>
			<psa30 value="0.00122820000805617" flag="0"/>
		</comp>
	</station>
	<station code="RDI1" name="RDI1" netid="HI" source="ITSAK Strong Motion Network" insttype="" lat="36.4514" lon="28.224" esm:processing="manual (Paolucci et al 2011)" esm:quality="good">
		<comp name="--.HNE" depth="0.0">
			<acc value="0.0203583384405295" flag="0"/>
			<vel value="0.0169662227516495" flag="0"/>
			<psa03 value="0.060857146070549" flag="0"/>
			<psa10 value="0.0204393658826955" flag="0"/>
			<psa30 value="0.00489677063700509" flag="0"/>
		</comp>
		<comp name="--.HNN" depth="0.0">
			<acc value="0.0189359253454958" flag="0"/>
			<vel value="0.0173518562237585" flag="0"/>
			<psa03 value="0.0557297386966621" flag="0"/>
			<psa10 value="0.0189462157188067" flag="0"/>
			<psa30 value="0.00472687854919355" flag="0"/>
		</comp>
		<comp name="--.HNZ" depth="0.0">
			<acc value="0.0138663144178051" flag="0"/>
			<vel value="0.00945962623448535" flag="0"/>
			<psa03 value="0.0472963466925546" flag="0"/>
			<psa10 value="0.0130908356411036" flag="0"/>
			<psa30 value="0.00220044868559219" flag="0"/>
		</comp>
	</station>
	<station code="RKL1" name="RKL1" netid="HI" source="ITSAK Strong Motion Network" insttype="" lat="36.336699" lon="28.171224" esm:processing="automatic (Paolucci et al 2011)" esm:quality="best">
		<comp name="--.HNE" depth="0.0">
			<acc value="0.0342699171452664" flag="0"/>
			<vel value="0.0254593235724067" flag="0"/>
			<psa03 value="0.131680285672672" flag="0"/>
			<psa10 value="0.0353201510366639" flag="0"/>
			<psa30 value="0.00181771020604696" flag="0"/>
		</comp>
		<comp name="--.HNN" depth="0.0">
			<acc value="0.0509247105533841" flag="0"/>
			<vel value="0.0301135986548537" flag="0"/>
			<psa03 value="0.094358750804152" flag="0"/>
			<psa10 value="0.033089188246328" flag="0"/>
			<psa30 value="0.0029084893398113" flag="0"/>
		</comp>
		<comp name="--.HNZ" depth="0.0">
			<acc value="0.0270691940956465" flag="0"/>
			<vel value="0.0181658163758493" flag="0"/>
			<psa03 value="0.0745310154389936" flag="0"/>
			<psa10 value="0.0198181334790806" flag="0"/>
			<psa30 value="0.00113392272098193" flag="0"/>
		</comp>
	</station>
	<station code="RKT1" name="RKT1" netid="HI" source="ITSAK Strong Motion Network" insttype="" lat="35.954336" lon="27.767327" esm:processing="automatic (Paolucci et al 2011)" esm:quality="best">
		<comp name="--.HNE" depth="0.0">
			<acc value="0.0484614541092679" flag="0"/>
			<vel value="0.0296877376654778" flag="0"/>
			<psa03 value="0.16400695840609" flag="0"/>
			<psa10 value="0.0386389446404523" flag="0"/>
			<psa30 value="0.00214380972520636" flag="0"/>
		</comp>
		<comp name="--.HNN" depth="0.0">
			<acc value="0.0598485917446489" flag="0"/>
			<vel value="0.0283791061451282" flag="0"/>
			<psa03 value="0.19018364039947" flag="0"/>
			<psa10 value="0.0333570384900921" flag="0"/>
			<psa30 value="0.00310057373112619" flag="0"/>
		</comp>
		<comp name="--.HNZ" depth="0.0">
			<acc value="0.02967266972236" flag="0"/>
			<vel value="0.0128084479876683" flag="0"/>
			<psa03 value="0.0426772959114048" flag="0"/>
			<psa10 value="0.0239281826246654" flag="0"/>
			<psa30 value="0.00115640993981648" flag="0"/>
		</comp>
	</station>
	<station code="RPN1" name="RPN1" netid="HI" source="ITSAK Strong Motion Network" insttype="" lat="36.448678" lon="28.218047" esm:processing="automatic (Paolucci et al 2011)" esm:quality="best">
		<comp name="--.HNE" depth="0.0">
			<acc value="0.0203611189367171" flag="0"/>
			<vel value="0.015327173881867" flag="0"/>
			<psa03 value="0.0960988660782489" flag="0"/>
			<psa10 value="0.0225841329629716" flag="0"/>
			<psa30 value="0.00527264762036137" flag="0"/>
		</comp>
		<comp name="--.HNN" depth="0.0">
			<acc value="0.0261305727317244" flag="0"/>
			<vel value="0.0216622430056584" flag="0"/>
			<psa03 value="0.0667477915052727" flag="0"/>
			<psa10 value="0.0305897901734721" flag="0"/>
			<psa30 value="0.0050250466346779" flag="0"/>
		</comp>
		<comp name="--.HNZ" depth="0.0">
			<acc value="0.0178349447063117" flag="0"/>
			<vel value="0.0111710984667646" flag="0"/>
			<psa03 value="0.0576483918397024" flag="0"/>
			<psa10 value="0.0156440216521576" flag="0"/>
			<psa30 value="0.00228958584049189" flag="0"/>
		</comp>
	</station>
	<station code="RSO1" name="RSO1" netid="HI" source="ITSAK Strong Motion Network" insttype="" lat="36.3632" lon="28.0016" esm:processing="manual (Paolucci et al 2011)" esm:quality="good">
		<comp name="--.HNE" depth="0.0">
			<acc value="0.0439061226341857" flag="0"/>
			<vel value="0.0231465226958391" flag="0"/>
			<psa03 value="0.13015155940206" flag="0"/>
			<psa10 value="0.0409889703181201" flag="0"/>
			<psa30 value="0.00270464854469236" flag="0"/>
		</comp>
		<comp name="--.HNN" depth="0.0">
			<acc value="0.0355845251242787" flag="0"/>
			<vel value="0.0187572923079559" flag="0"/>
			<psa03 value="0.106794324599885" flag="0"/>
			<psa10 value="0.0369139353670539" flag="0"/>
			<psa30 value="0.00288788380812929" flag="0"/>
		</comp>
		<comp name="--.HNZ" depth="0.0">
			<acc value="0.0183684873839011" flag="0"/>
			<vel value="0.0148031465718702" flag="0"/>
			<psa03 value="0.0530373155451946" flag="0"/>
			<psa10 value="0.0260051658396101" flag="0"/>
			<psa30 value="0.00158847356191099" flag="0"/>
		</comp>
	</station>
	<station code="SIT2" name="SIT2" netid="HI" source="ITSAK Strong Motion Network" insttype="" lat="35.2059" lon="26.107" esm:processing="manual (Paolucci et al 2011)" esm:quality="best">
		<comp name="--.HNE" depth="0.0">
			<acc value="0.124869052736183" flag="0"/>
			<vel value="0.0952845155269473" flag="0"/>
			<psa03 value="0.35358875685294" flag="0"/>
			<psa10 value="0.0582556616517692" flag="0"/>
			<psa30 value="0.00468572082266928" flag="0"/>
		</comp>
		<comp name="--.HNN" depth="0.0">
			<acc value="0.115341650753267" flag="0"/>
			<vel value="0.0934479206980755" flag="0"/>
			<psa03 value="0.331946573164872" flag="0"/>
			<psa10 value="0.0595389441628676" flag="0"/>
			<psa30 value="0.00335312691986999" flag="0"/>
		</comp>
		<comp name="--.HNZ" depth="0.0">
			<acc value="0.0743327345954773" flag="0"/>
			<vel value="0.0298425423107176" flag="0"/>
			<psa03 value="0.188976539601516" flag="0"/>
			<psa10 value="0.0172107807547512" flag="0"/>
			<psa30 value="0.00162193546609771" flag="0"/>
		</comp>
	</station>
	<station code="KARP" name="KARP" netid="HL" source="National Observatory of Athens Seismic Network" insttype="" lat="35.5471" lon="27.16106" esm:processing="manual (Paolucci et al 2011)" esm:quality="best">
		<comp name="--.HNE" depth="0.0">
			<acc value="0.465133482360904" flag="0"/>
			<vel value="0.111201716403895" flag="0"/>
			<psa03 value="0.67688713211685" flag="0"/>
			<psa10 value="0.102011242744024" flag="0"/>
			<psa30 value="0.004643143418815" flag="0"/>
		</comp>
		<comp name="--.HNN" depth="0.0">
			<acc value="0.410192815319791" flag="0"/>
			<vel value="0.115028848032721" flag="0"/>
			<psa03 value="0.519142182287936" flag="0"/>
			<psa10 value="0.0721767638562426" flag="0"/>
			<psa30 value="0.00345658710693021" flag="0"/>
		</comp>
		<comp name="--.HNZ" depth="0.0">
			<acc value="0.271798486616158" flag="0"/>
			<vel value="0.0621027115125884" flag="0"/>
			<psa03 value="0.382391914921186" flag="0"/>
			<psa10 value="0.0490133581442537" flag="0"/>
			<psa30 value="0.00302044383958119" flag="0"/>
		</comp>
	</station>
	<station code="KSTE" name="KSTE" netid="HL" source="National Observatory of Athens Seismic Network" insttype="" lat="35.1801" lon="25.3372" esm:processing="manual (Paolucci et al 2011)" esm:quality="best">
		<comp name="--.HNE" depth="0.0">
			<acc value="0.00438133144056572" flag="0"/>
			<vel value="0.00559304577605893" flag="0"/>
			<psa03 value="0.0126576015248297" flag="0"/>
			<psa10 value="0.00942379021736159" flag="0"/>
			<psa30 value="0.000796324992204743" flag="0"/>
		</comp>
		<comp name="--.HNN" depth="0.0">
			<acc value="0.00686365378193842" flag="0"/>
			<vel value="0.00875063337607979" flag="0"/>
			<psa03 value="0.0171441187866294" flag="0"/>
			<psa10 value="0.0134325404648843" flag="0"/>
			<psa30 value="0.00139331073749646" flag="0"/>
		</comp>
		<comp name="--.HNZ" depth="0.0">
			<acc value="0.00591513959214937" flag="0"/>
			<vel value="0.00449249454150217" flag="0"/>
			<psa03 value="0.0160667427282525" flag="0"/>
			<psa10 value="0.00717526454482017" flag="0"/>
			<psa30 value="0.00110540062319814" flag="0"/>
		</comp>
	</station>
	<station code="NISR" name="NISR" netid="HL" source="National Observatory of Athens Seismic Network" insttype="" lat="36.6106" lon="27.131" esm:processing="manual (Paolucci et al 2011)" esm:quality="best">
		<comp name="--.HNE" depth="0.0">
			<acc value="0.0250907703908682" flag="0"/>
			<vel value="0.0138116741687046" flag="0"/>
			<psa03 value="0.0749390633034602" flag="0"/>
			<psa10 value="0.0104101899364947" flag="0"/>
			<psa30 value="0.00180046656373813" flag="0"/>
		</comp>
		<comp name="--.HNN" depth="0.0">
			<acc value="0.0156362896841379" flag="0"/>
			<vel value="0.0113150991751076" flag="0"/>
			<psa03 value="0.0445867244850283" flag="0"/>
			<psa10 value="0.0112457902908963" flag="0"/>
			<psa30 value="0.0016300258978833" flag="0"/>
		</comp>
		<comp name="--.HNZ" depth="0.0">
			<acc value="0.00853379094684681" flag="0"/>
			<vel value="0.00516029715736025" flag="0"/>
			<psa03 value="0.0353727234776598" flag="0"/>
			<psa10 value="0.00781884467884648" flag="0"/>
			<psa30 value="0.000597908045975813" flag="0"/>
		</comp>
	</station>
	<station code="SFR2" name="SFR2" netid="HI" source="ITSAK Strong Motion Network" insttype="" lat="36.399841" lon="25.438209" esm:processing="automatic (Paolucci et al 2011)" esm:quality="bad">
		<comp name="--.HNE" depth="0.0">
			<acc value="0" flag="1"/>
			<vel value="0" flag="1"/>
			<psa03 value="0" flag="1"/>
			<psa10 value="0" flag="1"/>
			<psa30 value="0" flag="1"/>
		</comp>
		<comp name="--.HNN" depth="0.0">
			<acc value="0" flag="1"/>
			<vel value="0" flag="1"/>
			<psa03 value="0" flag="1"/>
			<psa10 value="0" flag="1"/>
			<psa30 value="0" flag="1"/>
		</comp>
		<comp name="--.HNZ" depth="0.0">
			<acc value="0" flag="1"/>
			<vel value="0" flag="1"/>
			<psa03 value="0" flag="1"/>
			<psa10 value="0" flag="1"/>
			<psa30 value="0" flag="1"/>
		</comp>
	</station>
	<station code="IACM" name="IACM" netid="HL" source="National Observatory of Athens Seismic Network" insttype="" lat="35.3058" lon="25.0709" esm:processing="discarded" esm:quality="good">
		<comp name="--.HNE" depth="0.0">
			<acc value="0" flag="1"/>
			<vel value="0" flag="1"/>
			<psa03 value="0" flag="1"/>
			<psa10 value="0" flag="1"/>
			<psa30 value="0" flag="1"/>
		</comp>
		<comp name="--.HNN" depth="0.0">
			<acc value="0" flag="1"/>
			<vel value="0" flag="1"/>
			<psa03 value="0" flag="1"/>
			<psa10 value="0" flag="1"/>
			<psa30 value="0" flag="1"/>
		</comp>
		<comp name="--.HNZ" depth="0.0">
			<acc value="0" flag="1"/>
			<vel value="0" flag="1"/>
			<psa03 value="0" flag="1"/>
			<psa10 value="0" flag="1"/>
			<psa30 value="0" flag="1"/>
		</comp>
	</station>
	<station code="KLNA" name="KLNA" netid="HL" source="National Observatory of Athens Seismic Network" insttype="" lat="36.95708" lon="26.97274" esm:processing="discarded" esm:quality="good">
		<comp name="00.HNE" depth="0.0">
			<acc value="0" flag="1"/>
			<vel value="0" flag="1"/>
			<psa03 value="0" flag="1"/>
			<psa10 value="0" flag="1"/>
			<psa30 value="0" flag="1"/>
		</comp>
		<comp name="00.HNN" depth="0.0">
			<acc value="0" flag="1"/>
			<vel value="0" flag="1"/>
