<stationlist created="1778136885">
	<station code="KRL1" name="KRL1" netid="HI" source="ITSAK Strong Motion Network" insttype="" lat="37.7951" lon="26.7065">
		<comp name="--.HNE" depth="0.0">
			<acc value="0.00631538010837922" flag="0"/>
			<vel value="0.00783014003627716" flag="0"/>
			<psa03 value="0.0212338180945681" flag="0"/>
			<psa10 value="0.00851234671367426" flag="0"/>
			<psa30 value="0.00114953667199835" flag="0"/>
		</comp>
		<comp name="--.HNN" depth="0.0">
			<acc value="0.00687332003616932" flag="0"/>
			<vel value="0.00695316079353421" flag="0"/>
			<psa03 value="0.0123785934585804" flag="0"/>
			<psa10 value="0.0108959830554207" flag="0"/>
			<psa30 value="0.00100935707328485" flag="0"/>
		</comp>
		<comp name="--.HNZ" depth="0.0">
			<acc value="0.00232267773693867" flag="0"/>
			<vel value="0.00314036030938255" flag="0"/>
			<psa03 value="0.0071864682557749" flag="0"/>
			<psa10 value="0.00442600523237445" flag="0"/>
			<psa30 value="0.000668612104769627" flag="0"/>
		</comp>
	</station>
	<station code="KSS1" name="KSS1" netid="HI" source="ITSAK Strong Motion Network" insttype="" lat="35.4189" lon="26.9207">
		<comp name="--.HNE" depth="0.0">
			<acc value="0.00619789239453761" flag="0"/>
			<vel value="0.00256032487897273" flag="0"/>
			<psa03 value="0.0188594225212762" flag="0"/>
			<psa10 value="0.00107827143018859" flag="0"/>
			<psa30 value="0.000109452628303545" flag="0"/>
		</comp>
		<comp name="--.HNN" depth="0.0">
			<acc value="0.00538021550604031" flag="0"/>
			<vel value="0.00224579197582968" flag="0"/>
			<psa03 value="0.0213422093895254" flag="0"/>
			<psa10 value="0.00107757247763981" flag="0"/>
			<psa30 value="8.07093309722346e-05" flag="0"/>
		</comp>
		<comp name="--.HNZ" depth="0.0">
			<acc value="0.00323349223324698" flag="0"/>
			<vel value="0.00111944147857467" flag="0"/>
			<psa03 value="0.00504945071224458" flag="0"/>
			<psa10 value="0.0007052358004413" flag="0"/>
			<psa30 value="7.64853467266883e-05" flag="0"/>
		</comp>
	</station>
	<station code="NAX1" name="NAX1" netid="HI" source="ITSAK Strong Motion Network" insttype="" lat="37.101394" lon="25.374103">
		<comp name="--.HNE" depth="0.0">
			<acc value="0.00321472344540214" flag="0"/>
			<vel value="0.00183117470946221" flag="0"/>
			<psa03 value="0.00960599898049063" flag="0"/>
			<psa10 value="0.00223434762394026" flag="0"/>
			<psa30 value="0.000382143778691556" flag="0"/>
		</comp>
		<comp name="--.HNN" depth="0.0">
			<acc value="0.00467552592424622" flag="0"/>
			<vel value="0.00317566018274131" flag="0"/>
			<psa03 value="0.0124478766940755" flag="0"/>
			<psa10 value="0.00258231794088855" flag="0"/>
			<psa30 value="0.000790065879651683" flag="0"/>
		</comp>
		<comp name="--.HNZ" depth="0.0">
			<acc value="0.002734834650562" flag="0"/>
			<vel value="0.00253302467587027" flag="0"/>
			<psa03 value="0.0111804099181248" flag="0"/>
			<psa10 value="0.0020792992277434" flag="0"/>
			<psa30 value="0.000549275709738007" flag="0"/>
		</comp>
	</station>
	<station code="KLNA" name="KLNA" netid="HL" source="National Observatory of Athens Seismic Network" insttype="" lat="36.95708" lon="26.97274">
		<comp name="00.HNE" depth="0.0">
			<acc value="0.0436941311725962" flag="0"/>
			<vel value="0.0174842884545131" flag="0"/>
			<psa03 value="0.119064710369258" flag="0"/>
			<psa10 value="0.00900459025991605" flag="0"/>
			<psa30 value="0.00112627398512278" flag="0"/>
		</comp>
		<comp name="00.HNN" depth="0.0">
			<acc value="0.0358578344747038" flag="0"/>
			<vel value="0.0134759924442419" flag="0"/>
			<psa03 value="0.0876086786450335" flag="0"/>
			<psa10 value="0.00484115164003351" flag="0"/>
			<psa30 value="0.00097549795528635" flag="0"/>
		</comp>
		<comp name="00.HNZ" depth="0.0">
			<acc value="0.0397470914568711" flag="0"/>
			<vel value="0.00996368088107074" flag="0"/>
			<psa03 value="0.038711647790007" flag="0"/>
			<psa10 value="0.00340440193116837" flag="0"/>
			<psa30 value="0.00140763418635473" flag="0"/>
		</comp>
	</station>
	<station code="NISR" name="NISR" netid="HL" source="National Observatory of Athens Seismic Network" insttype="" lat="36.6106" lon="27.131">
		<comp name="--.HNE" depth="0.0">
			<acc value="2.51929711124104" flag="0"/>
			<vel value="0.712909902993567" flag="0"/>
			<psa03 value="3.32276478352458" flag="0"/>
			<psa10 value="0.314148920824194" flag="0"/>
			<psa30 value="0.0272848391533636" flag="0"/>
		</comp>
		<comp name="--.HNN" depth="0.0">
			<acc value="1.29522036121935" flag="0"/>
			<vel value="0.379586680221848" flag="0"/>
			<psa03 value="1.21300535565297" flag="0"/>
			<psa10 value="0.163538118597803" flag="0"/>
			<psa30 value="0.0197686195740214" flag="0"/>
		</comp>
		<comp name="--.HNZ" depth="0.0">
			<acc value="0.399961459921452" flag="0"/>
			<vel value="0.136584344470052" flag="0"/>
			<psa03 value="0.558982779863624" flag="0"/>
			<psa10 value="0.193269593162192" flag="0"/>
			<psa30 value="0.00574468555720513" flag="0"/>
		</comp>
	</station>
	<station code="CAME" name="CAME" netid="KO" source="Bogazici University Kandilli Observatory And Earthquake Research Institute (KOERI)" insttype="" lat="36.9435" lon="29.3023">
		<comp name="--.HNE" depth="0.0">
			<acc value="0.00241945540314476" flag="0"/>
			<vel value="0.00259191089517518" flag="0"/>
			<psa03 value="0.0065944889358807" flag="0"/>
			<psa10 value="0.00390371703959729" flag="0"/>
			<psa30 value="0.000411008294990652" flag="0"/>
		</comp>
		<comp name="--.HNN" depth="0.0">
			<acc value="0.0015858998731337" flag="0"/>
			<vel value="0.00169385013447181" flag="0"/>
			<psa03 value="0.0084031849249574" flag="0"/>
			<psa10 value="0.00253124283866373" flag="0"/>
			<psa30 value="0.000379914360170113" flag="0"/>
		</comp>
		<comp name="--.HNZ" depth="0.0">
			<acc value="0.00105633461697966" flag="0"/>
			<vel value="0.00131847441819656" flag="0"/>
			<psa03 value="0.00499581402107724" flag="0"/>
			<psa10 value="0.00289514467975017" flag="0"/>
			<psa30 value="0.000614842449043752" flag="0"/>
		</comp>
	</station>
</stationlist>
