<?xml version="1.0" encoding="UTF-8" standalone="yes"?>
<!DOCTYPE earthquake SYSTEM "stationlist.dtd">
<stationlist created="" xmlns="ch.ethz.sed.shakemap.usgs.xml">
  <station code="ARG" name="ARG" netid="HL" insttype="LE3D20_DR24" lat="36.2136" lon="28.1212">
    <comp name="--.HHN">
      <acc value="0.0322459407" flag="0"/>
      <vel value="0.0131206497" flag="0"/>
      <psa03 value="0.0617948695" flag="0"/>
      <psa10 value="0.0228939574" flag="0"/>
      <psa30 value="0.0016718803" flag="0"/>
    </comp>
    <comp name="--.HHZ">
      <acc value="0.0172049899" flag="0"/>
      <vel value="0.0096379181" flag="0"/>
      <psa03 value="0.0193979672" flag="0"/>
      <psa10 value="0.0133645642" flag="0"/>
      <psa30 value="0.0014474776" flag="0"/>
    </comp>
    <comp name="--.HHE">
      <acc value="0.0648161567" flag="0"/>
      <vel value="0.0363645258" flag="0"/>
      <psa03 value="0.1072417113" flag="0"/>
      <psa10 value="0.0326522031" flag="0"/>
      <psa30 value="0.0038335040" flag="0"/>
    </comp>
  </station>
  <station code="KLNA" name="KLNA" netid="HL" insttype="CMG-5" lat="36.9571" lon="26.9727">
    <comp name="00.HNN">
      <acc value="0.0360177766" flag="0"/>
      <vel value="0.0133794570" flag="0"/>
      <psa03 value="0.0879443207" flag="0"/>
      <psa10 value="0.0048389894" flag="0"/>
      <psa30 value="0.0008106744" flag="0"/>
    </comp>
    <comp name="00.HNE">
      <acc value="0.0449841027" flag="0"/>
      <vel value="0.0177492769" flag="0"/>
      <psa03 value="0.1188330357" flag="0"/>
      <psa10 value="0.0089511981" flag="0"/>
      <psa30 value="0.0010240988" flag="0"/>
    </comp>
    <comp name="00.HNZ">
      <acc value="0.0419746007" flag="0"/>
      <vel value="0.0094986903" flag="0"/>
      <psa03 value="0.0385852855" flag="0"/>
      <psa10 value="0.0034515997" flag="0"/>
      <psa30 value="0.0011179499" flag="0"/>
    </comp>
  </station>
  <station code="NISR" name="NISR" netid="HL" insttype="65535" lat="36.6106" lon="27.131">
    <comp name="--.HHE">
      <acc value="2.8463673702" flag="0"/>
      <vel value="0.8097140141" flag="0"/>
      <psa03 value="3.5208255551" flag="0"/>
      <psa10 value="0.3235749811" flag="0"/>
      <psa30 value="0.0200389333" flag="0"/>
    </comp>
    <comp name="--.HHN">
      <acc value="1.3688742390" flag="0"/>
      <vel value="0.3035155973" flag="0"/>
      <psa03 value="1.1730561055" flag="0"/>
      <psa10 value="0.2297644235" flag="0"/>
      <psa30 value="0.1108720006" flag="0"/>
    </comp>
    <comp name="--.HHZ">
      <acc value="0.5234239903" flag="0"/>
      <vel value="0.1761504181" flag="0"/>
      <psa03 value="0.7149908161" flag="0"/>
      <psa10 value="0.1835579967" flag="0"/>
      <psa30 value="0.0053994532" flag="0"/>
    </comp>
  </station>
</stationlist>
