<stationlist created="1675692131">
	<station code="RFHY" name="RFHY" netid="KO" source="Bogazici University Kandilli Observatory And Earthquake Research Institute (KOERI)" insttype="" lat="39.927" lon="38.833">
		<comp name=".HNE" depth="0.0">
			<acc value="0.00142755049008" flag="0"/>
			<vel value="0.00378131458303" flag="0"/>
			<psa03 value="0.00155520963308" flag="0"/>
			<psa10 value="0.00122616833701" flag="0"/>
			<psa30 value="0.00113360374152" flag="0"/>
		</comp>
		<comp name=".HNN" depth="0.0">
			<acc value="0.00243650109951" flag="0"/>
			<vel value="0.00383521402797" flag="0"/>
			<psa03 value="0.00402669773855" flag="0"/>
			<psa10 value="0.00588867618964" flag="0"/>
			<psa30 value="0.000803157423989" flag="0"/>
		</comp>
		<comp name=".HNZ" depth="0.0">
			<acc value="0.0016055936406" flag="0"/>
			<vel value="0.00231144792038" flag="0"/>
			<psa03 value="0.0026850549876" flag="0"/>
			<psa10 value="0.00538386556092" flag="0"/>
			<psa30 value="0.000598780551689" flag="0"/>
		</comp>
	</station>
</stationlist>
