<?xml version="1.0" encoding="UTF-8" standalone="yes"?>
<!DOCTYPE earthquake SYSTEM "stationlist.dtd">
<stationlist created="" xmlns="ch.ethz.sed.shakemap.usgs.xml">
  <station code="DARE" name="DARE" netid="KO" insttype="CMG-3ESP" lat="38.5712" lon="37.4832">
    <comp name="--.HHE">
      <acc value="0.0112645811" flag="0"/>
      <vel value="0.0069226385" flag="0"/>
      <psa03 value="0.0349419257" flag="0"/>
      <psa10 value="0.0112790668" flag="0"/>
      <psa30 value="0.0008719631" flag="0"/>
    </comp>
    <comp name="--.HHZ">
      <acc value="0.0116763078" flag="0"/>
      <vel value="0.0071897146" flag="0"/>
      <psa03 value="0.0266494675" flag="0"/>
      <psa10 value="0.0110774731" flag="0"/>
      <psa30 value="0.0008415566" flag="0"/>
    </comp>
    <comp name="--.HHN">
      <acc value="0.0108969443" flag="0"/>
      <vel value="0.0072523062" flag="0"/>
      <psa03 value="0.0254105642" flag="0"/>
      <psa10 value="0.0141163868" flag="0"/>
      <psa30 value="0.0007367388" flag="0"/>
    </comp>
  </station>
  <station code="URFA" name="URFA" netid="KO" insttype="CMG-3ESP" lat="37.4409" lon="38.8213">
    <comp name="--.HHN">
      <acc value="0.0833741415" flag="0"/>
      <vel value="0.0296997368" flag="0"/>
      <psa03 value="0.0802073517" flag="0"/>
      <psa10 value="0.0388339724" flag="0"/>
      <psa30 value="0.0020718213" flag="0"/>
    </comp>
    <comp name="--.HHZ">
      <acc value="0.0642924020" flag="0"/>
      <vel value="0.0124664207" flag="0"/>
      <psa03 value="0.0506186313" flag="0"/>
      <psa10 value="0.0106930061" flag="0"/>
      <psa30 value="0.0017077801" flag="0"/>
    </comp>
    <comp name="--.HHE">
      <acc value="0.0927996977" flag="0"/>
      <vel value="0.0217675853" flag="0"/>
      <psa03 value="0.1183325025" flag="0"/>
      <psa10 value="0.0142552306" flag="0"/>
      <psa30 value="0.0028838030" flag="0"/>
    </comp>
  </station>
</stationlist>
