<?xml version="1.0" encoding="UTF-8" standalone="yes"?>
<!DOCTYPE earthquake SYSTEM "stationlist.dtd">
<stationlist created="" xmlns="ch.ethz.sed.shakemap.usgs.xml">
  <station code="KMRS" name="KMRS" netid="KO" insttype="CMG-3T" lat="37.5053" lon="36.9">
    <comp name="--.HHE">
      <acc value="0.0114109918" flag="0"/>
      <vel value="0.0042583603" flag="0"/>
      <psa03 value="0.0185763241" flag="0"/>
      <psa10 value="0.0061256673" flag="0"/>
      <psa30 value="0.0006096510" flag="0"/>
    </comp>
    <comp name="--.HHN">
      <acc value="0.0118995961" flag="0"/>
      <vel value="0.0059835400" flag="0"/>
      <psa03 value="0.0304895318" flag="0"/>
      <psa10 value="0.0059895076" flag="0"/>
      <psa30 value="0.0014395233" flag="0"/>
    </comp>
    <comp name="--.HHZ">
      <acc value="0.0069495531" flag="0"/>
      <vel value="0.0036371032" flag="0"/>
      <psa03 value="0.0151491835" flag="0"/>
      <psa10 value="0.0045448283" flag="0"/>
      <psa30 value="0.0006148453" flag="0"/>
    </comp>
  </station>
  <station code="ANDN" name="ANDN" netid="TU" insttype="T" lat="37.58" lon="36.3452">
    <comp name="--.HHZ">
      <acc value="0.0217332908" flag="0"/>
      <vel value="0.0080652752" flag="0"/>
      <psa03 value="0.0350269209" flag="0"/>
      <psa10 value="0.0090267979" flag="0"/>
      <psa30 value="0.0008289444" flag="0"/>
    </comp>
    <comp name="--.HHN">
      <acc value="0.0549836401" flag="0"/>
      <vel value="0.0200785460" flag="0"/>
      <psa03 value="0.0770415468" flag="0"/>
      <psa10 value="0.0073148844" flag="0"/>
      <psa30 value="0.0008350746" flag="0"/>
    </comp>
    <comp name="--.HHE">
      <acc value="0.0318912184" flag="0"/>
      <vel value="0.0107522664" flag="0"/>
      <psa03 value="0.0688364663" flag="0"/>
      <psa10 value="0.0090414219" flag="0"/>
      <psa30 value="0.0015474835" flag="0"/>
    </comp>
  </station>
</stationlist>
