<?xml version="1.0" encoding="UTF-8" standalone="yes"?>
<!DOCTYPE earthquake SYSTEM "stationlist.dtd">
<stationlist created="" xmlns="ch.ethz.sed.shakemap.usgs.xml">
  <station code="DARE" name="DARE" netid="KO" insttype="CMG-3ESP" lat="38.5712" lon="37.4832">
    <comp name="--.HHZ">
      <acc value="0.0468294093" flag="0"/>
      <vel value="0.0158260370" flag="0"/>
      <psa03 value="0.0830036512" flag="0"/>
      <psa10 value="0.0147797941" flag="0"/>
      <psa30 value="0.0010688747" flag="0"/>
    </comp>
    <comp name="--.HHE">
      <acc value="0.0430825221" flag="0"/>
      <vel value="0.0136307478" flag="0"/>
      <psa03 value="0.0539581016" flag="0"/>
      <psa10 value="0.0091040026" flag="0"/>
      <psa30 value="0.0004957644" flag="0"/>
    </comp>
  </station>
  <station code="KMRS" name="KMRS" netid="KO" insttype="CMG-3T" lat="37.5053" lon="36.9">
    <comp name="--.HHE">
      <acc value="0.0114109918" flag="0"/>
      <vel value="0.0042583607" flag="0"/>
      <psa03 value="0.0185763241" flag="0"/>
      <psa10 value="0.0061256674" flag="0"/>
      <psa30 value="0.0006096469" flag="0"/>
    </comp>
    <comp name="--.HHN">
      <acc value="0.0118995964" flag="0"/>
      <vel value="0.0059835404" flag="0"/>
      <psa03 value="0.0304895318" flag="0"/>
      <psa10 value="0.0059895076" flag="0"/>
      <psa30 value="0.0014395036" flag="0"/>
    </comp>
    <comp name="--.HHZ">
      <acc value="0.0069495528" flag="0"/>
      <vel value="0.0036371028" flag="0"/>
      <psa03 value="0.0151491835" flag="0"/>
      <psa10 value="0.0045448283" flag="0"/>
      <psa30 value="0.0006148495" flag="0"/>
    </comp>
  </station>
  <station code="ANDN" name="ANDN" netid="TU" insttype="T" lat="37.58" lon="36.3452">
    <comp name="--.HHN">
      <acc value="0.0549836403" flag="0"/>
      <vel value="0.0200785465" flag="0"/>
      <psa03 value="0.0770415468" flag="0"/>
      <psa10 value="0.0073148845" flag="0"/>
      <psa30 value="0.0008350799" flag="0"/>
    </comp>
    <comp name="--.HHZ">
      <acc value="0.0217332917" flag="0"/>
      <vel value="0.0080652752" flag="0"/>
      <psa03 value="0.0350269209" flag="0"/>
      <psa10 value="0.0090267978" flag="0"/>
      <psa30 value="0.0008289415" flag="0"/>
    </comp>
    <comp name="--.HHE">
      <acc value="0.0318912184" flag="0"/>
      <vel value="0.0107522665" flag="0"/>
      <psa03 value="0.0688364663" flag="0"/>
      <psa10 value="0.0090414219" flag="0"/>
      <psa30 value="0.0015474904" flag="0"/>
    </comp>
  </station>
</stationlist>
