<?xml version="1.0" encoding="UTF-8" standalone="yes"?>
<!DOCTYPE earthquake SYSTEM "stationlist.dtd">
<stationlist created="" xmlns="ch.ethz.sed.shakemap.usgs.xml">
  <station code="BIR" name="BIR" netid="RO" insttype="MBB2/Quanterra" lat="46.2334" lon="27.6436">
    <comp name="--.HHN">
      <acc value="0.0468224404" flag="0"/>
      <vel value="0.0167002243" flag="0"/>
      <psa03 value="0.0724750506" flag="0"/>
      <psa10 value="0.0049093885" flag="0"/>
      <psa30 value="0.0003850455" flag="0"/>
    </comp>
    <comp name="--.HHZ">
      <acc value="0.0212337651" flag="0"/>
      <vel value="0.0060065390" flag="0"/>
      <psa03 value="0.0314839860" flag="0"/>
      <psa10 value="0.0015639983" flag="0"/>
      <psa30 value="0.0001202567" flag="0"/>
    </comp>
    <comp name="--.HHE">
      <acc value="0.0335361747" flag="0"/>
      <vel value="0.0098344569" flag="0"/>
      <psa03 value="0.0641260670" flag="0"/>
      <psa10 value="0.0038949458" flag="0"/>
      <psa30 value="0.0003980978" flag="0"/>
    </comp>
  </station>
  <station code="BISRR" name="BISRR" netid="RO" insttype="CMG40T.1to100/Basalt" lat="45.5481" lon="26.7099">
    <comp name="--.HHZ">
      <acc value="0.1516343882" flag="0"/>
      <vel value="0.0322542406" flag="0"/>
      <psa03 value="0.1895014455" flag="0"/>
      <psa10 value="0.0237476575" flag="0"/>
      <psa30 value="0.0012262682" flag="0"/>
    </comp>
    <comp name="--.HHN">
      <acc value="0.0775597853" flag="0"/>
      <vel value="0.0531829969" flag="0"/>
      <psa03 value="0.1776605650" flag="0"/>
      <psa10 value="0.0501579952" flag="0"/>
      <psa30 value="0.0024851521" flag="0"/>
    </comp>
    <comp name="--.HHE">
      <acc value="0.1076645408" flag="0"/>
      <vel value="0.0512001547" flag="0"/>
      <psa03 value="0.3310292374" flag="0"/>
      <psa10 value="0.0514786730" flag="0"/>
      <psa30 value="0.0023254333" flag="0"/>
    </comp>
  </station>
  <station code="BOSR" name="BOSR" netid="RO" insttype="Seismometer/Basalt" lat="46.0749" lon="25.6611">
    <comp name="--.HHE">
      <acc value="0.0523330326" flag="0"/>
      <vel value="0.0187410934" flag="0"/>
      <psa03 value="0.1270471172" flag="0"/>
      <psa10 value="0.0102245794" flag="0"/>
      <psa30 value="0.0007262109" flag="0"/>
    </comp>
    <comp name="--.HHN">
      <acc value="0.0570833201" flag="0"/>
      <vel value="0.0190683917" flag="0"/>
      <psa03 value="0.0964528273" flag="0"/>
      <psa10 value="0.0071513427" flag="0"/>
      <psa30 value="0.0005375529" flag="0"/>
    </comp>
    <comp name="--.HHZ">
      <acc value="0.0680065562" flag="0"/>
      <vel value="0.0154223205" flag="0"/>
      <psa03 value="0.0423833697" flag="0"/>
      <psa10 value="0.0027491153" flag="0"/>
      <psa30 value="0.0003115654" flag="0"/>
    </comp>
  </station>
  <station code="COPR" name="COPR" netid="RO" insttype="200" lat="45.8442" lon="26.1687">
    <comp name="--.HNE">
      <acc value="0.0610665222" flag="0"/>
      <vel value="0.0322541533" flag="0"/>
      <psa03 value="0.1718484937" flag="0"/>
      <psa10 value="0.0322946625" flag="0"/>
      <psa30 value="0.0017853274" flag="0"/>
    </comp>
    <comp name="--.HNN">
      <acc value="0.0539143983" flag="0"/>
      <vel value="0.0294875915" flag="0"/>
      <psa03 value="0.1724483050" flag="0"/>
      <psa10 value="0.0192516376" flag="0"/>
      <psa30 value="0.0011887924" flag="0"/>
    </comp>
    <comp name="--.HNZ">
      <acc value="0.0457644757" flag="0"/>
      <vel value="0.0201674220" flag="0"/>
      <psa03 value="0.1191891384" flag="0"/>
      <psa10 value="0.0100591197" flag="0"/>
      <psa30 value="0.0005255893" flag="0"/>
    </comp>
  </station>
  <station code="DOPR" name="DOPR" netid="RO" insttype="330" lat="45.9675" lon="25.3886">
    <comp name="--.HHZ">
      <acc value="0.0241496794" flag="0"/>
      <vel value="0.0077821464" flag="0"/>
      <psa03 value="0.0228123967" flag="0"/>
      <psa10 value="0.0019449386" flag="0"/>
      <psa30 value="0.0001305127" flag="0"/>
    </comp>
    <comp name="--.HHN">
      <acc value="0.0162968917" flag="0"/>
      <vel value="0.0046171760" flag="0"/>
      <psa03 value="0.0253058337" flag="0"/>
      <psa10 value="0.0050756080" flag="0"/>
      <psa30 value="0.0003449759" flag="0"/>
    </comp>
    <comp name="--.HHE">
      <acc value="0.0296141694" flag="0"/>
      <vel value="0.0061563130" flag="0"/>
      <psa03 value="0.0328012267" flag="0"/>
      <psa10 value="0.0021850641" flag="0"/>
      <psa30 value="0.0001933162" flag="0"/>
    </comp>
  </station>
  <station code="GIRR" name="GIRR" netid="RO" insttype="CMG40T.1to100/Quanterra" lat="46.9551" lon="26.5009">
    <comp name="--.HHZ">
      <acc value="0.0101046042" flag="0"/>
      <vel value="0.0017683358" flag="0"/>
      <psa03 value="0.0078195458" flag="0"/>
      <psa10 value="0.0007543716" flag="0"/>
      <psa30 value="0.0000373091" flag="0"/>
    </comp>
    <comp name="--.HHN">
      <acc value="0.0262682287" flag="0"/>
      <vel value="0.0050016555" flag="0"/>
      <psa03 value="0.0175197845" flag="0"/>
      <psa10 value="0.0012000842" flag="0"/>
      <psa30 value="0.0000760201" flag="0"/>
    </comp>
    <comp name="--.HHE">
      <acc value="0.0247525365" flag="0"/>
      <vel value="0.0051783763" flag="0"/>
      <psa03 value="0.0281798633" flag="0"/>
      <psa10 value="0.0013714576" flag="0"/>
      <psa30 value="0.0000814231" flag="0"/>
    </comp>
  </station>
  <station code="IZVR" name="IZVR" netid="RO" insttype="200" lat="45.5442" lon="27.7655">
    <comp name="--.HNE">
      <acc value="0.0162164390" flag="0"/>
      <vel value="0.0041473789" flag="0"/>
      <psa03 value="0.0135047383" flag="0"/>
      <psa10 value="0.0008551629" flag="0"/>
      <psa30 value="0.0000809407" flag="0"/>
    </comp>
    <comp name="--.HNN">
      <acc value="0.0089391797" flag="0"/>
      <vel value="0.0026793000" flag="0"/>
      <psa03 value="0.0175718261" flag="0"/>
      <psa10 value="0.0011254908" flag="0"/>
      <psa30 value="0.0000963117" flag="0"/>
    </comp>
    <comp name="--.HNZ">
      <acc value="0.0062200715" flag="0"/>
      <vel value="0.0024447779" flag="0"/>
      <psa03 value="0.0113446549" flag="0"/>
      <psa10 value="0.0007749588" flag="0"/>
      <psa30 value="0.0000556559" flag="0"/>
    </comp>
  </station>
  <station code="MLR" name="MLR" netid="RO" insttype="330HR" lat="45.4909" lon="25.945">
    <comp name="--.HHE">
      <acc value="0.0199665447" flag="0"/>
      <vel value="0.0127406162" flag="0"/>
      <psa03 value="0.0607852292" flag="0"/>
      <psa10 value="0.0094891568" flag="0"/>
      <psa30 value="0.0007993291" flag="0"/>
    </comp>
    <comp name="--.HHZ">
      <acc value="0.0186897706" flag="0"/>
      <vel value="0.0103379225" flag="0"/>
      <psa03 value="0.0461631276" flag="0"/>
      <psa10 value="0.0036214094" flag="0"/>
      <psa30 value="0.0002844194" flag="0"/>
    </comp>
    <comp name="--.HHN">
      <acc value="0.0150213680" flag="0"/>
      <vel value="0.0096585280" flag="0"/>
      <psa03 value="0.0608418050" flag="0"/>
      <psa10 value="0.0080580541" flag="0"/>
      <psa30 value="0.0005001406" flag="0"/>
    </comp>
  </station>
  <station code="NARR" name="NARR" netid="RO" insttype="OBS-SIO/Centaur" lat="45.8165" lon="26.7368">
    <comp name="--.HHZ">
      <acc value="0.0668206606" flag="0"/>
      <vel value="0.0170216542" flag="0"/>
      <psa03 value="0.1381008480" flag="0"/>
      <psa10 value="0.0047389123" flag="0"/>
      <psa30 value="0.0003101065" flag="0"/>
    </comp>
    <comp name="--.HHN">
      <acc value="0.0989671076" flag="0"/>
      <vel value="0.0422879533" flag="0"/>
      <psa03 value="0.3939692168" flag="0"/>
      <psa10 value="0.0144660962" flag="0"/>
      <psa30 value="0.0013160947" flag="0"/>
    </comp>
    <comp name="--.HHE">
      <acc value="0.1235456673" flag="0"/>
      <vel value="0.0481001393" flag="0"/>
      <psa03 value="0.4333492272" flag="0"/>
      <psa10 value="0.0135735466" flag="0"/>
      <psa30 value="0.0011479303" flag="0"/>
    </comp>
  </station>
  <station code="NEGRR" name="NEGRR" netid="RO" insttype="CMG40T.1to100/Quanterra" lat="45.5373" lon="27.8771">
    <comp name="--.HHE">
      <acc value="0.0428975492" flag="0"/>
      <vel value="0.0100878280" flag="0"/>
      <psa03 value="0.0505102643" flag="0"/>
      <psa10 value="0.0019863179" flag="0"/>
      <psa30 value="0.0001456955" flag="0"/>
    </comp>
    <comp name="--.HHZ">
      <acc value="0.0379153397" flag="0"/>
      <vel value="0.0060027525" flag="0"/>
      <psa03 value="0.0384663162" flag="0"/>
      <psa10 value="0.0010912412" flag="0"/>
      <psa30 value="0.0001207214" flag="0"/>
    </comp>
    <comp name="--.HHN">
      <acc value="0.0389849832" flag="0"/>
      <vel value="0.0124346456" flag="0"/>
      <psa03 value="0.0582162792" flag="0"/>
      <psa10 value="0.0036751641" flag="0"/>
      <psa30 value="0.0001995533" flag="0"/>
    </comp>
  </station>
  <station code="NEHR" name="NEHR" netid="RO" insttype="Seismometer/Basalt" lat="45.4272" lon="26.2952">
    <comp name="--.HHZ">
      <acc value="0.0032224039" flag="0"/>
      <vel value="0.0011777480" flag="0"/>
      <psa03 value="0.0075859349" flag="0"/>
      <psa10 value="0.0003919763" flag="0"/>
      <psa30 value="0.0000386720" flag="0"/>
    </comp>
    <comp name="--.HHN">
      <acc value="0.0062025355" flag="0"/>
      <vel value="0.0028025592" flag="0"/>
      <psa03 value="0.0126565616" flag="0"/>
      <psa10 value="0.0011056855" flag="0"/>
      <psa30 value="0.0001968664" flag="0"/>
    </comp>
    <comp name="--.HHE">
      <acc value="0.0040942828" flag="0"/>
      <vel value="0.0016743405" flag="0"/>
      <psa03 value="0.0128648648" flag="0"/>
      <psa10 value="0.0012245552" flag="0"/>
      <psa30 value="0.0000671779" flag="0"/>
    </comp>
  </station>
  <station code="ODBI" name="ODBI" netid="RO" insttype="200" lat="45.7633" lon="27.0558">
    <comp name="--.HNE">
      <acc value="0.0649847964" flag="0"/>
      <vel value="0.0398578422" flag="0"/>
      <psa03 value="0.1314660900" flag="0"/>
      <psa10 value="0.0276701105" flag="0"/>
      <psa30 value="0.0019843778" flag="0"/>
    </comp>
    <comp name="--.HNZ">
      <acc value="0.0761127162" flag="0"/>
      <vel value="0.0293192154" flag="0"/>
      <psa03 value="0.1130545761" flag="0"/>
      <psa10 value="0.0081499298" flag="0"/>
      <psa30 value="0.0006278188" flag="0"/>
    </comp>
    <comp name="--.HNN">
      <acc value="0.0382624941" flag="0"/>
      <vel value="0.0258596728" flag="0"/>
      <psa03 value="0.0941435332" flag="0"/>
      <psa10 value="0.0151198037" flag="0"/>
      <psa30 value="0.0013768331" flag="0"/>
    </comp>
  </station>
  <station code="ODSR" name="ODSR" netid="RO" insttype="CMG40T.1to100/Quanterra" lat="46.2969" lon="25.2919">
    <comp name="--.HHE">
      <acc value="0.0325972800" flag="0"/>
      <vel value="0.0079535806" flag="0"/>
      <psa03 value="0.0262962149" flag="0"/>
      <psa10 value="0.0016825105" flag="0"/>
      <psa30 value="0.0001121606" flag="0"/>
    </comp>
    <comp name="--.HHN">
      <acc value="0.0164077159" flag="0"/>
      <vel value="0.0040027317" flag="0"/>
      <psa03 value="0.0150067735" flag="0"/>
      <psa10 value="0.0019622885" flag="0"/>
      <psa30 value="0.0001195809" flag="0"/>
    </comp>
    <comp name="--.HHZ">
      <acc value="0.0182756829" flag="0"/>
      <vel value="0.0044192933" flag="0"/>
      <psa03 value="0.0157633721" flag="0"/>
      <psa10 value="0.0010521176" flag="0"/>
      <psa30 value="0.0000968741" flag="0"/>
    </comp>
  </station>
  <station code="PANC" name="PANC" netid="RO" insttype="Seismometer/Basalt" lat="45.8723" lon="27.1477">
    <comp name="--.HHE">
      <acc value="0.0464585017" flag="0"/>
      <vel value="0.0156149157" flag="0"/>
      <psa03 value="0.0737629969" flag="0"/>
      <psa10 value="0.0088344750" flag="0"/>
      <psa30 value="0.0005663037" flag="0"/>
    </comp>
    <comp name="--.HHN">
      <acc value="0.0501255540" flag="0"/>
      <vel value="0.0161442991" flag="0"/>
      <psa03 value="0.0867041143" flag="0"/>
      <psa10 value="0.0077956674" flag="0"/>
      <psa30 value="0.0005159381" flag="0"/>
    </comp>
    <comp name="--.HHZ">
      <acc value="0.0474485915" flag="0"/>
      <vel value="0.0125387382" flag="0"/>
      <psa03 value="0.0520414474" flag="0"/>
      <psa10 value="0.0036706368" flag="0"/>
      <psa30 value="0.0002018853" flag="0"/>
    </comp>
  </station>
  <station code="PLAR" name="PLAR" netid="RO" insttype="200" lat="44.9142" lon="26.0274">
    <comp name="--.HNZ">
      <acc value="0.0156376109" flag="0"/>
      <vel value="0.0028860890" flag="0"/>
      <psa03 value="0.0169256450" flag="0"/>
      <psa10 value="0.0009788699" flag="0"/>
      <psa30 value="0.0000900424" flag="0"/>
    </comp>
    <comp name="--.HNE">
      <acc value="0.0174371440" flag="0"/>
      <vel value="0.0060924836" flag="0"/>
      <psa03 value="0.0328099230" flag="0"/>
      <psa10 value="0.0019455823" flag="0"/>
      <psa30 value="0.0002013562" flag="0"/>
    </comp>
    <comp name="--.HNN">
      <acc value="0.0107645018" flag="0"/>
      <vel value="0.0046584853" flag="0"/>
      <psa03 value="0.0217735886" flag="0"/>
      <psa10 value="0.0039082473" flag="0"/>
      <psa30 value="0.0003443655" flag="0"/>
    </comp>
  </station>
  <station code="PLOR" name="PLOR" netid="RO" insttype="MBB2/Quanterra" lat="45.8512" lon="26.6498">
    <comp name="--.HHE">
      <acc value="0.0902454677" flag="0"/>
      <vel value="0.0260534721" flag="0"/>
      <psa03 value="0.1096402100" flag="0"/>
      <psa10 value="0.0077074335" flag="0"/>
      <psa30 value="0.0006625780" flag="0"/>
    </comp>
    <comp name="--.HHN">
      <acc value="0.0885416121" flag="0"/>
      <vel value="0.0314081534" flag="0"/>
      <psa03 value="0.1012982702" flag="0"/>
      <psa10 value="0.0088676155" flag="0"/>
      <psa30 value="0.0006028277" flag="0"/>
    </comp>
    <comp name="--.HHZ">
      <acc value="0.0373082652" flag="0"/>
      <vel value="0.0136489725" flag="0"/>
      <psa03 value="0.0569495285" flag="0"/>
      <psa10 value="0.0045887767" flag="0"/>
      <psa30 value="0.0003272778" flag="0"/>
    </comp>
  </station>
  <station code="PLOR4" name="PLOR4" netid="RO" insttype="MBB2/Quanterra" lat="45.8512" lon="26.6498">
    <comp name="--.HHE">
      <acc value="0.0902454677" flag="0"/>
      <vel value="0.0260534721" flag="0"/>
      <psa03 value="0.1096402100" flag="0"/>
      <psa10 value="0.0077074335" flag="0"/>
      <psa30 value="0.0006625780" flag="0"/>
    </comp>
    <comp name="--.HHN">
      <acc value="0.0885416121" flag="0"/>
      <vel value="0.0314081534" flag="0"/>
      <psa03 value="0.1012982702" flag="0"/>
      <psa10 value="0.0088676155" flag="0"/>
      <psa30 value="0.0006028277" flag="0"/>
    </comp>
    <comp name="--.HHZ">
      <acc value="0.0373082652" flag="0"/>
      <vel value="0.0136489725" flag="0"/>
      <psa03 value="0.0569495285" flag="0"/>
      <psa10 value="0.0045887767" flag="0"/>
      <psa30 value="0.0003272778" flag="0"/>
    </comp>
  </station>
  <station code="SCHLR" name="SCHLR" netid="RO" insttype="CMG40T.1to100/Quanterra" lat="45.4702" lon="27.8314">
    <comp name="--.HHE">
      <acc value="0.0347497097" flag="0"/>
      <vel value="0.0088272617" flag="0"/>
      <psa03 value="0.0496015396" flag="0"/>
      <psa10 value="0.0023523253" flag="0"/>
      <psa30 value="0.0002846662" flag="0"/>
    </comp>
    <comp name="--.HHN">
      <acc value="0.0337217790" flag="0"/>
      <vel value="0.0103928070" flag="0"/>
      <psa03 value="0.0663832205" flag="0"/>
      <psa10 value="0.0031974985" flag="0"/>
      <psa30 value="0.0002162717" flag="0"/>
    </comp>
    <comp name="--.HHZ">
      <acc value="0.0259744168" flag="0"/>
      <vel value="0.0050389611" flag="0"/>
      <psa03 value="0.0360999228" flag="0"/>
      <psa10 value="0.0012911874" flag="0"/>
      <psa30 value="0.0001137012" flag="0"/>
    </comp>
  </station>
  <station code="SCTR" name="SCTR" netid="RO" insttype="MBB2/Basalt" lat="45.6741" lon="27.9949">
    <comp name="--.HHE">
      <acc value="0.0310797863" flag="0"/>
      <vel value="0.0097382165" flag="0"/>
      <psa03 value="0.0808009597" flag="0"/>
      <psa10 value="0.0060777918" flag="0"/>
      <psa30 value="0.0004612379" flag="0"/>
    </comp>
    <comp name="--.HHN">
      <acc value="0.0390016032" flag="0"/>
      <vel value="0.0113447561" flag="0"/>
      <psa03 value="0.0685110622" flag="0"/>
      <psa10 value="0.0087131820" flag="0"/>
      <psa30 value="0.0003656959" flag="0"/>
    </comp>
    <comp name="--.HHZ">
      <acc value="0.0333203090" flag="0"/>
      <vel value="0.0071541127" flag="0"/>
      <psa03 value="0.0408044248" flag="0"/>
      <psa10 value="0.0037911257" flag="0"/>
      <psa30 value="0.0002770065" flag="0"/>
    </comp>
  </station>
  <station code="TATR" name="TATR" netid="RO" insttype="MBB2/Basalt" lat="45.5977" lon="28.0498">
    <comp name="--.HHE">
      <acc value="0.0803375208" flag="0"/>
      <vel value="0.0229825748" flag="0"/>
      <psa03 value="0.1137158453" flag="0"/>
      <psa10 value="0.0091605393" flag="0"/>
      <psa30 value="0.0005695699" flag="0"/>
    </comp>
    <comp name="--.HHN">
      <acc value="0.0665245417" flag="0"/>
      <vel value="0.0273082421" flag="0"/>
      <psa03 value="0.1106826573" flag="0"/>
      <psa10 value="0.0063746388" flag="0"/>
      <psa30 value="0.0005289035" flag="0"/>
    </comp>
    <comp name="--.HHZ">
      <acc value="0.0533221605" flag="0"/>
      <vel value="0.0102572503" flag="0"/>
      <psa03 value="0.0483156806" flag="0"/>
      <psa10 value="0.0026743734" flag="0"/>
      <psa30 value="0.0002742461" flag="0"/>
    </comp>
  </station>
  <station code="TESR" name="TESR" netid="RO" insttype="330" lat="46.5118" lon="26.6489">
    <comp name="--.HHE">
      <acc value="0.0217191135" flag="0"/>
      <vel value="0.0095364484" flag="0"/>
      <psa03 value="0.0691084079" flag="0"/>
      <psa10 value="0.0040770146" flag="0"/>
      <psa30 value="0.0003409025" flag="0"/>
    </comp>
    <comp name="--.HHN">
      <acc value="0.0195434726" flag="0"/>
      <vel value="0.0080879441" flag="0"/>
      <psa03 value="0.0575164005" flag="0"/>
      <psa10 value="0.0020098972" flag="0"/>
      <psa30 value="0.0001837646" flag="0"/>
    </comp>
    <comp name="--.HHZ">
      <acc value="0.0172671194" flag="0"/>
      <vel value="0.0030805110" flag="0"/>
      <psa03 value="0.0128287405" flag="0"/>
      <psa10 value="0.0015090589" flag="0"/>
      <psa30 value="0.0000729543" flag="0"/>
    </comp>
  </station>
  <station code="TUDR" name="TUDR" netid="RO" insttype="CMG40T.1to100/Quanterra" lat="45.5939" lon="27.6687">
    <comp name="--.HHE">
      <acc value="0.0893790653" flag="0"/>
      <vel value="0.0347729232" flag="0"/>
      <psa03 value="0.1891173620" flag="0"/>
      <psa10 value="0.0117500251" flag="0"/>
      <psa30 value="0.0011934210" flag="0"/>
    </comp>
    <comp name="--.HHN">
      <acc value="0.0539151152" flag="0"/>
      <vel value="0.0180526445" flag="0"/>
      <psa03 value="0.0706315815" flag="0"/>
      <psa10 value="0.0081616343" flag="0"/>
      <psa30 value="0.0005243770" flag="0"/>
    </comp>
    <comp name="--.HHZ">
      <acc value="0.0756802891" flag="0"/>
      <vel value="0.0122062734" flag="0"/>
      <psa03 value="0.0348068399" flag="0"/>
      <psa10 value="0.0022662380" flag="0"/>
      <psa30 value="0.0001747883" flag="0"/>
    </comp>
  </station>
  <station code="VARL" name="VARL" netid="RO" insttype="MBB2/Quanterra" lat="45.8996" lon="27.8487">
    <comp name="--.HHE">
      <acc value="0.0833357280" flag="0"/>
      <vel value="0.0365615077" flag="0"/>
      <psa03 value="0.1538953203" flag="0"/>
      <psa10 value="0.0303296769" flag="0"/>
