<?xml version="1.0" encoding="UTF-8" standalone="yes"?>
<!DOCTYPE earthquake SYSTEM "stationlist.dtd">
<stationlist created="" xmlns="ch.ethz.sed.shakemap.usgs.xml">
  <station code="ARPRA" name="ARPRA" netid="KO" insttype="CMG-5T" lat="39.0929" lon="38.3356">
    <comp name="--.HNN">
      <acc value="0.0218480491" flag="0"/>
      <vel value="0.0095483342" flag="0"/>
      <psa03 value="0.0847993961" flag="0"/>
      <psa10 value="0.0114702760" flag="0"/>
      <psa30 value="0.0005569933" flag="0"/>
    </comp>
    <comp name="--.HNE">
      <acc value="0.0269832370" flag="0"/>
      <vel value="0.0122181693" flag="0"/>
      <psa03 value="0.1020107889" flag="0"/>
      <psa10 value="0.0142245015" flag="0"/>
      <psa30 value="0.0006158030" flag="0"/>
    </comp>
    <comp name="--.HNZ">
      <acc value="0.0141079150" flag="0"/>
      <vel value="0.0051903279" flag="0"/>
      <psa03 value="0.0327175141" flag="0"/>
      <psa10 value="0.0061412794" flag="0"/>
      <psa30 value="0.0003809062" flag="0"/>
    </comp>
  </station>
  <station code="DARE" name="DARE" netid="KO" insttype="CMG-3ESP" lat="38.5712" lon="37.4832">
    <comp name="--.HHE">
      <acc value="0.0200477245" flag="0"/>
      <vel value="0.0085741472" flag="0"/>
      <psa03 value="0.0423238667" flag="0"/>
      <psa10 value="0.0076149731" flag="0"/>
      <psa30 value="0.0006673950" flag="0"/>
    </comp>
    <comp name="--.HHZ">
      <acc value="0.0192068784" flag="0"/>
      <vel value="0.0083460796" flag="0"/>
      <psa03 value="0.0625333414" flag="0"/>
      <psa10 value="0.0053528225" flag="0"/>
      <psa30 value="0.0005506302" flag="0"/>
    </comp>
    <comp name="--.HHN">
      <acc value="0.0339937168" flag="0"/>
      <vel value="0.0106253240" flag="0"/>
      <psa03 value="0.0417202666" flag="0"/>
      <psa10 value="0.0101139677" flag="0"/>
      <psa30 value="0.0005398537" flag="0"/>
    </comp>
  </station>
  <station code="SVRC" name="SVRC" netid="KO" insttype="CMG-3T" lat="38.3775" lon="39.306">
    <comp name="--.HHN">
      <acc value="0.0124918728" flag="0"/>
      <vel value="0.0071893513" flag="0"/>
      <psa03 value="0.0535762467" flag="0"/>
      <psa10 value="0.0047000315" flag="0"/>
      <psa30 value="0.0002674494" flag="0"/>
    </comp>
    <comp name="--.HHE">
      <acc value="0.0184485615" flag="0"/>
      <vel value="0.0086180546" flag="0"/>
      <psa03 value="0.0720589352" flag="0"/>
      <psa10 value="0.0056739895" flag="0"/>
      <psa30 value="0.0004041281" flag="0"/>
    </comp>
    <comp name="--.HHZ">
      <acc value="0.0090878218" flag="0"/>
      <vel value="0.0042994058" flag="0"/>
      <psa03 value="0.0244195012" flag="0"/>
      <psa10 value="0.0025373906" flag="0"/>
      <psa30 value="0.0002925797" flag="0"/>
    </comp>
  </station>
</stationlist>
