<?xml version="1.0" encoding="UTF-8" standalone="yes"?>
<!DOCTYPE earthquake SYSTEM "stationlist.dtd">
<stationlist created="" xmlns="ch.ethz.sed.shakemap.usgs.xml">
  <station code="ARPRA" name="ARPRA" netid="KO" insttype="CMG-5T" lat="39.0929" lon="38.3356">
    <comp name="--.HNE">
      <acc value="0.0269832383" flag="0"/>
      <vel value="0.0122181634" flag="0"/>
      <psa03 value="0.1020107889" flag="0"/>
      <psa10 value="0.0142245017" flag="0"/>
      <psa30 value="0.0006155427" flag="0"/>
    </comp>
    <comp name="--.HNN">
      <acc value="0.0218480436" flag="0"/>
      <vel value="0.0095483337" flag="0"/>
      <psa03 value="0.0847993961" flag="0"/>
      <psa10 value="0.0114702763" flag="0"/>
      <psa30 value="0.0005570336" flag="0"/>
    </comp>
    <comp name="--.HNZ">
      <acc value="0.0141079229" flag="0"/>
      <vel value="0.0051903080" flag="0"/>
      <psa03 value="0.0327175141" flag="0"/>
      <psa10 value="0.0061412795" flag="0"/>
      <psa30 value="0.0003784546" flag="0"/>
    </comp>
  </station>
  <station code="DARE" name="DARE" netid="KO" insttype="CMG-3ESP" lat="38.5712" lon="37.4832">
    <comp name="--.HHE">
      <acc value="0.0200477244" flag="0"/>
      <vel value="0.0085741473" flag="0"/>
      <psa03 value="0.0423238667" flag="0"/>
      <psa10 value="0.0076149732" flag="0"/>
      <psa30 value="0.0006673796" flag="0"/>
    </comp>
    <comp name="--.HHZ">
      <acc value="0.0192068785" flag="0"/>
      <vel value="0.0083460797" flag="0"/>
      <psa03 value="0.0625333414" flag="0"/>
      <psa10 value="0.0053528225" flag="0"/>
      <psa30 value="0.0005506455" flag="0"/>
    </comp>
    <comp name="--.HHN">
      <acc value="0.0339937168" flag="0"/>
      <vel value="0.0106253244" flag="0"/>
      <psa03 value="0.0417202666" flag="0"/>
      <psa10 value="0.0101139677" flag="0"/>
      <psa30 value="0.0005398316" flag="0"/>
    </comp>
  </station>
  <station code="SVRC" name="SVRC" netid="KO" insttype="CMG-3T" lat="38.3775" lon="39.306">
    <comp name="--.HHE">
      <acc value="0.0184485615" flag="0"/>
      <vel value="0.0086180544" flag="0"/>
      <psa03 value="0.0720589352" flag="0"/>
      <psa10 value="0.0056739895" flag="0"/>
      <psa30 value="0.0004041383" flag="0"/>
    </comp>
    <comp name="--.HHN">
      <acc value="0.0124918728" flag="0"/>
      <vel value="0.0071893513" flag="0"/>
      <psa03 value="0.0535762467" flag="0"/>
      <psa10 value="0.0047000315" flag="0"/>
      <psa30 value="0.0002674342" flag="0"/>
    </comp>
    <comp name="--.HHZ">
      <acc value="0.0090878220" flag="0"/>
      <vel value="0.0042994054" flag="0"/>
      <psa03 value="0.0244195012" flag="0"/>
      <psa10 value="0.0025373906" flag="0"/>
      <psa30 value="0.0002925912" flag="0"/>
    </comp>
  </station>
</stationlist>
