<stationlist created="1778550942">
	<station code="0904" name="0904" netid="TK" source="Turkish National Strong Motion Network (TNSMN)" insttype="" lat="37.85716" lon="28.05025">
		<comp name="00.HNE" depth="None">
			<acc value="0.595126389613696" flag="0"/>
			<vel value="0.683464289212189" flag="0"/>
			<psa03 value="1.14374502778288" flag="0"/>
			<psa10 value="1.3671826859918" flag="0"/>
			<psa30 value="0.162847314584391" flag="0"/>
		</comp>
		<comp name="00.HNN" depth="None">
			<acc value="0.787273691043968" flag="0"/>
			<vel value="0.658108198607714" flag="0"/>
			<psa03 value="1.49698474903414" flag="0"/>
			<psa10 value="0.940793036296202" flag="0"/>
			<psa30 value="0.195149398074519" flag="0"/>
		</comp>
		<comp name="00.HNZ" depth="None">
			<acc value="0.320931998800255" flag="0"/>
			<vel value="0.420891677741558" flag="0"/>
			<psa03 value="0.829296799669667" flag="0"/>
			<psa10 value="0.771679575674921" flag="0"/>
			<psa30 value="0.0688090395582401" flag="0"/>
		</comp>
	</station>
	<station code="0908" name="0908" netid="TK" source="Turkish National Strong Motion Network (TNSMN)" insttype="" lat="37.91333" lon="28.34308">
		<comp name="00.HNE" depth="None">
			<acc value="0.681824769839179" flag="0"/>
			<vel value="0.936663233210996" flag="0"/>
			<psa03 value="1.85935188043552" flag="0"/>
			<psa10 value="1.59251428180687" flag="0"/>
			<psa30 value="0.240494729638005" flag="0"/>
		</comp>
		<comp name="00.HNN" depth="None">
			<acc value="1.12584595323221" flag="0"/>
			<vel value="0.955277963004476" flag="0"/>
			<psa03 value="3.33571047221863" flag="0"/>
			<psa10 value="2.39885251299451" flag="0"/>
			<psa30 value="0.35108135720399" flag="0"/>
		</comp>
		<comp name="00.HNZ" depth="None">
			<acc value="0.314130929103631" flag="0"/>
			<vel value="0.391486814780556" flag="0"/>
			<psa03 value="0.755293189923046" flag="0"/>
			<psa10 value="0.805673809419352" flag="0"/>
			<psa30 value="0.115639812381453" flag="0"/>
		</comp>
	</station>
	<station code="0909" name="0909" netid="TK" source="Turkish National Strong Motion Network (TNSMN)" insttype="" lat="37.88405" lon="28.15056">
		<comp name="00.HNE" depth="None">
			<acc value="0.743288153039611" flag="0"/>
			<vel value="0.964180599289725" flag="0"/>
			<psa03 value="2.08476311737837" flag="0"/>
			<psa10 value="1.51174878237403" flag="0"/>
			<psa30 value="0.188097578889413" flag="0"/>
		</comp>
		<comp name="00.HNN" depth="None">
			<acc value="0.859554042349138" flag="0"/>
			<vel value="1.09148092284501" flag="0"/>
			<psa03 value="2.56202823537548" flag="0"/>
			<psa10 value="1.44588243774508" flag="0"/>
			<psa30 value="0.246327771114829" flag="0"/>
		</comp>
		<comp name="00.HNZ" depth="None">
			<acc value="0.295754877088634" flag="0"/>
			<vel value="0.314967103908348" flag="0"/>
			<psa03 value="0.78003563018295" flag="0"/>
			<psa10 value="0.783304943220547" flag="0"/>
			<psa30 value="0.0660488928319589" flag="0"/>
		</comp>
	</station>
	<station code="1001" name="1001" netid="TK" source="Turkish National Strong Motion Network (TNSMN)" insttype="" lat="39.65003" lon="27.85686">
		<comp name="00.HNE" depth="None">
			<acc value="0.286887355732872" flag="0"/>
			<vel value="0.169697894285824" flag="0"/>
			<psa03 value="0.906521848292804" flag="0"/>
			<psa10 value="0.184226035750734" flag="0"/>
			<psa30 value="0.0544051809816199" flag="0"/>
		</comp>
		<comp name="00.HNN" depth="None">
			<acc value="0.349642185924752" flag="0"/>
			<vel value="0.288276067719185" flag="0"/>
			<psa03 value="1.0142610818296" flag="0"/>
			<psa10 value="0.248240053025694" flag="0"/>
			<psa30 value="0.0479828846436332" flag="0"/>
		</comp>
		<comp name="00.HNZ" depth="None">
			<acc value="0.167734049806142" flag="0"/>
			<vel value="0.11554192628975" flag="0"/>
			<psa03 value="0.552074087462855" flag="0"/>
			<psa10 value="0.0920204015076671" flag="0"/>
			<psa30 value="0.025307534329493" flag="0"/>
		</comp>
	</station>
	<station code="1007" name="1007" netid="TK" source="Turkish National Strong Motion Network (TNSMN)" insttype="" lat="40.34135" lon="27.94225">
		<comp name="00.HNE" depth="None">
			<acc value="0.208035245991042" flag="0"/>
			<vel value="0.163300085450502" flag="0"/>
			<psa03 value="0.669253926596109" flag="0"/>
			<psa10 value="0.278360506521114" flag="0"/>
			<psa30 value="0.0807171778496932" flag="0"/>
		</comp>
		<comp name="00.HNN" depth="None">
			<acc value="0.127848693288255" flag="0"/>
			<vel value="0.141644201996452" flag="0"/>
			<psa03 value="0.500307354405515" flag="0"/>
			<psa10 value="0.311042003923365" flag="0"/>
			<psa30 value="0.0256484699439243" flag="0"/>
		</comp>
		<comp name="00.HNZ" depth="None">
			<acc value="0.0812424429424332" flag="0"/>
			<vel value="0.0920692549064438" flag="0"/>
			<psa03 value="0.1718995578274" flag="0"/>
			<psa10 value="0.149084164406545" flag="0"/>
			<psa30 value="0.0152893068455958" flag="0"/>
		</comp>
	</station>
	<station code="1601" name="1601" netid="TK" source="Turkish National Strong Motion Network (TNSMN)" insttype="" lat="40.22566" lon="29.07518">
		<comp name="00.HNE" depth="None">
			<acc value="0.2691936393101" flag="0"/>
			<vel value="0.588913488890275" flag="0"/>
			<psa03 value="0.460218337275543" flag="0"/>
			<psa10 value="0.955168707282652" flag="0"/>
			<psa30 value="0.223236318279139" flag="0"/>
		</comp>
		<comp name="00.HNN" depth="None">
			<acc value="0.319378836783002" flag="0"/>
			<vel value="0.6768732096271" flag="0"/>
			<psa03 value="0.465497917656499" flag="0"/>
			<psa10 value="0.777832523929066" flag="0"/>
			<psa30 value="0.209825289267378" flag="0"/>
		</comp>
		<comp name="00.HNZ" depth="None">
			<acc value="0.17854618156749" flag="0"/>
			<vel value="0.387503742314883" flag="0"/>
			<psa03 value="0.22004217214866" flag="0"/>
			<psa10 value="0.33391019314803" flag="0"/>
			<psa30 value="0.136773793677593" flag="0"/>
		</comp>
	</station>
	<station code="1608" name="1608" netid="TK" source="Turkish National Strong Motion Network (TNSMN)" insttype="" lat="40.41049" lon="29.17928">
		<comp name="00.HNE" depth="None">
			<acc value="0.0968471444421565" flag="0"/>
			<vel value="0.11361645837362" flag="0"/>
			<psa03 value="0.266171387172099" flag="0"/>
			<psa10 value="0.225214818655799" flag="0"/>
			<psa30 value="0.0444724111123636" flag="0"/>
		</comp>
		<comp name="00.HNN" depth="None">
			<acc value="0.105783600125084" flag="0"/>
			<vel value="0.157393837959373" flag="0"/>
			<psa03 value="0.277491165446521" flag="0"/>
			<psa10 value="0.242433409450775" flag="0"/>
			<psa30 value="0.0803485020671586" flag="0"/>
		</comp>
		<comp name="00.HNZ" depth="None">
			<acc value="0.0420775533789708" flag="0"/>
			<vel value="0.0703501536121534" flag="0"/>
			<psa03 value="0.101922746676423" flag="0"/>
			<psa10 value="0.0816836095126478" flag="0"/>
			<psa30 value="0.0264242998066851" flag="0"/>
		</comp>
	</station>
	<station code="1609" name="1609" netid="TK" source="Turkish National Strong Motion Network (TNSMN)" insttype="" lat="40.42539" lon="29.16658">
		<comp name="00.HNE" depth="None">
			<acc value="0.3376480767532" flag="0"/>
			<vel value="0.417394977918904" flag="0"/>
			<psa03 value="0.700394502402426" flag="0"/>
			<psa10 value="1.04818372804344" flag="0"/>
			<psa30 value="0.0719669445013577" flag="0"/>
		</comp>
		<comp name="00.HNN" depth="None">
			<acc value="0.283588263388308" flag="0"/>
			<vel value="0.46484795393644" flag="0"/>
			<psa03 value="0.709969334618736" flag="0"/>
			<psa10 value="1.60361616553507" flag="0"/>
			<psa30 value="0.0888705501617408" flag="0"/>
		</comp>
		<comp name="00.HNZ" depth="None">
			<acc value="0.150051934195409" flag="0"/>
			<vel value="0.172999401124847" flag="0"/>
			<psa03 value="0.490911491015678" flag="0"/>
			<psa10 value="0.236087174864039" flag="0"/>
			<psa30 value="0.0290314281863318" flag="0"/>
		</comp>
	</station>
	<station code="1615" name="1615" netid="TK" source="Turkish National Strong Motion Network (TNSMN)" insttype="" lat="40.42236" lon="29.2907">
		<comp name="00.HNE" depth="None">
			<acc value="0.157923245010648" flag="0"/>
			<vel value="0.288326175437552" flag="0"/>
			<psa03 value="0.362367131401383" flag="0"/>
			<psa10 value="0.373135238268202" flag="0"/>
			<psa30 value="0.0563259639117423" flag="0"/>
		</comp>
		<comp name="00.HNN" depth="None">
			<acc value="0.137481144451401" flag="0"/>
			<vel value="0.297021941997241" flag="0"/>
			<psa03 value="0.27261426492513" flag="0"/>
			<psa10 value="0.251171562403323" flag="0"/>
			<psa30 value="0.0896338522066485" flag="0"/>
		</comp>
		<comp name="00.HNZ" depth="None">
			<acc value="0.0963571523164729" flag="0"/>
			<vel value="0.12973591934569" flag="0"/>
			<psa03 value="0.206037861477141" flag="0"/>
			<psa10 value="0.388763243617899" flag="0"/>
			<psa30 value="0.0293473081650568" flag="0"/>
		</comp>
	</station>
	<station code="2007" name="2007" netid="TK" source="Turkish National Strong Motion Network (TNSMN)" insttype="" lat="37.93252" lon="28.92294">
		<comp name="00.HNE" depth="None">
			<acc value="0.467134834623403" flag="0"/>
			<vel value="0.569514137728122" flag="0"/>
			<psa03 value="1.25779291245286" flag="0"/>
			<psa10 value="1.40723322482408" flag="0"/>
			<psa30 value="0.268472926280543" flag="0"/>
		</comp>
		<comp name="00.HNN" depth="None">
			<acc value="0.480601734246917" flag="0"/>
			<vel value="0.587849791883272" flag="0"/>
			<psa03 value="1.2990452269549" flag="0"/>
			<psa10 value="1.00293459222419" flag="0"/>
			<psa30 value="0.187802280325732" flag="0"/>
		</comp>
		<comp name="00.HNZ" depth="None">
			<acc value="0.181181751084892" flag="0"/>
			<vel value="0.368461254481129" flag="0"/>
			<psa03 value="0.361830224921964" flag="0"/>
			<psa10 value="0.592728646084482" flag="0"/>
			<psa30 value="0.0857381482763956" flag="0"/>
		</comp>
	</station>
	<station code="3502" name="3502" netid="TK" source="Turkish National Strong Motion Network (TNSMN)" insttype="" lat="38.45514" lon="27.22673">
		<comp name="00.HNE" depth="None">
			<acc value="3.77825508616166" flag="0"/>
			<vel value="3.82176535323345" flag="0"/>
			<psa03 value="6.99902338129625" flag="0"/>
			<psa10 value="5.37090369888462" flag="0"/>
			<psa30 value="0.581143099102746" flag="0"/>
		</comp>
		<comp name="00.HNN" depth="None">
			<acc value="8.02742107830994" flag="0"/>
			<vel value="6.21819889034128" flag="0"/>
			<psa03 value="17.6159463319526" flag="0"/>
			<psa10 value="5.02733724270424" flag="0"/>
			<psa30 value="0.493443899910272" flag="0"/>
		</comp>
		<comp name="00.HNZ" depth="None">
			<acc value="1.77777519781399" flag="0"/>
			<vel value="1.64934307148026" flag="0"/>
			<psa03 value="5.18835102166141" flag="0"/>
			<psa10 value="1.63019706306492" flag="0"/>
			<psa30 value="0.181330320138399" flag="0"/>
		</comp>
	</station>
	<station code="4302" name="4302" netid="TK" source="Turkish National Strong Motion Network (TNSMN)" insttype="" lat="39.4193" lon="29.99716">
		<comp name="00.HNE" depth="None">
			<acc value="0.37305835099239" flag="0"/>
			<vel value="0.743466101901691" flag="0"/>
			<psa03 value="0.731087656142561" flag="0"/>
			<psa10 value="1.20963419093721" flag="0"/>
			<psa30 value="0.233191906673771" flag="0"/>
		</comp>
		<comp name="00.HNN" depth="None">
			<acc value="0.253184837272145" flag="0"/>
			<vel value="0.498541791839204" flag="0"/>
			<psa03 value="0.389704619645147" flag="0"/>
			<psa10 value="0.84690017344156" flag="0"/>
			<psa30 value="0.20643651453811" flag="0"/>
		</comp>
		<comp name="00.HNZ" depth="None">
			<acc value="0.18670683860487" flag="0"/>
			<vel value="0.359848400635945" flag="0"/>
			<psa03 value="0.265052832006642" flag="0"/>
			<psa10 value="0.640124065555217" flag="0"/>
			<psa30 value="0.0616869751087436" flag="0"/>
		</comp>
	</station>
	<station code="4802" name="4802" netid="TK" source="Turkish National Strong Motion Network (TNSMN)" insttype="" lat="37.03304" lon="27.43997">
		<comp name="00.HNE" depth="None">
			<acc value="0.231559050516049" flag="0"/>
			<vel value="0.229593001764563" flag="0"/>
			<psa03 value="0.43569960804873" flag="0"/>
			<psa10 value="0.393547080349524" flag="0"/>
			<psa30 value="0.0557340245181826" flag="0"/>
		</comp>
		<comp name="00.HNN" depth="None">
			<acc value="0.120617345598777" flag="0"/>
			<vel value="0.140846100758461" flag="0"/>
			<psa03 value="0.341517263117268" flag="0"/>
			<psa10 value="0.318129169451699" flag="0"/>
			<psa30 value="0.01708212706479" flag="0"/>
		</comp>
		<comp name="00.HNZ" depth="None">
			<acc value="0.109131236834243" flag="0"/>
			<vel value="0.0912393839541559" flag="0"/>
			<psa03 value="0.187067165870994" flag="0"/>
			<psa10 value="0.124001235954275" flag="0"/>
			<psa30 value="0.0288739356190355" flag="0"/>
		</comp>
	</station>
</stationlist>
