<?xml version="1.0" encoding="UTF-8" standalone="yes"?>
<!DOCTYPE earthquake SYSTEM "stationlist.dtd">
<stationlist created="" xmlns="ch.ethz.sed.shakemap.usgs.xml">
  <station code="GAZ" name="GAZ" netid="KO" insttype="CMG-3T" lat="37.1721" lon="37.2096">
    <comp name="--.HHN">
      <acc value="0.3908983655" flag="0"/>
      <vel value="0.2898979805" flag="0"/>
      <psa03 value="0.7616599902" flag="0"/>
      <psa10 value="0.2088669820" flag="0"/>
      <psa30 value="0.0213030494" flag="0"/>
    </comp>
    <comp name="--.HHZ">
      <acc value="0.2703554358" flag="0"/>
      <vel value="0.1851025520" flag="0"/>
      <psa03 value="0.6197947643" flag="0"/>
      <psa10 value="0.0665260637" flag="0"/>
      <psa30 value="0.0138472756" flag="0"/>
    </comp>
    <comp name="--.HHE">
      <acc value="0.4504899549" flag="0"/>
      <vel value="0.3292516421" flag="0"/>
      <psa03 value="0.9701843886" flag="0"/>
      <psa10 value="0.1750243774" flag="0"/>
      <psa30 value="0.0240227929" flag="0"/>
    </comp>
  </station>
  <station code="KMRS" name="KMRS" netid="KO" insttype="CMG-3T" lat="37.5053" lon="36.9">
    <comp name="--.HHE">
      <acc value="0.0542219011" flag="0"/>
      <vel value="0.0405942329" flag="0"/>
      <psa03 value="0.0999509714" flag="0"/>
      <psa10 value="0.0387371714" flag="0"/>
      <psa30 value="0.0104921297" flag="0"/>
    </comp>
    <comp name="--.HHZ">
      <acc value="0.0371510945" flag="0"/>
      <vel value="0.0215454679" flag="0"/>
      <psa03 value="0.1073921101" flag="0"/>
      <psa10 value="0.0261865587" flag="0"/>
      <psa30 value="0.0037130262" flag="0"/>
    </comp>
    <comp name="--.HHN">
      <acc value="0.0293101842" flag="0"/>
      <vel value="0.0179799925" flag="0"/>
      <psa03 value="0.0642543602" flag="0"/>
      <psa10 value="0.0302228928" flag="0"/>
      <psa30 value="0.0031591024" flag="0"/>
    </comp>
  </station>
</stationlist>
