<?xml version="1.0" encoding="UTF-8" standalone="yes"?>
<!DOCTYPE earthquake SYSTEM "stationlist.dtd">
<stationlist created="" xmlns="ch.ethz.sed.shakemap.usgs.xml">
  <station code="GAZ" name="GAZ" netid="KO" insttype="CMG-3T" lat="37.1721" lon="37.2096">
    <comp name="--.HHN">
      <acc value="0.3908983648" flag="0"/>
      <vel value="0.2898979783" flag="0"/>
      <psa03 value="0.7616599902" flag="0"/>
      <psa10 value="0.2088669486" flag="0"/>
      <psa30 value="0.0213026119" flag="0"/>
    </comp>
    <comp name="--.HHZ">
      <acc value="0.2703554348" flag="0"/>
      <vel value="0.1851025826" flag="0"/>
      <psa03 value="0.6197947643" flag="0"/>
      <psa10 value="0.0665260866" flag="0"/>
      <psa30 value="0.0138477622" flag="0"/>
    </comp>
    <comp name="--.HHE">
      <acc value="0.4504899544" flag="0"/>
      <vel value="0.3292516457" flag="0"/>
      <psa03 value="0.9701843886" flag="0"/>
      <psa10 value="0.1750244561" flag="0"/>
      <psa30 value="0.0240214960" flag="0"/>
    </comp>
  </station>
  <station code="KHMN" name="KHMN" netid="KO" insttype="CMG-5T" lat="37.3916" lon="37.1574">
    <comp name="--.HNN">
      <acc value="1.3638619508" flag="0"/>
      <vel value="0.1895207816" flag="0"/>
      <psa03 value="0.5618313194" flag="0"/>
      <psa10 value="0.1099613471" flag="0"/>
      <psa30 value="0.0094962366" flag="0"/>
    </comp>
    <comp name="--.HNE">
      <acc value="1.1785662383" flag="0"/>
      <vel value="0.2690856699" flag="0"/>
      <psa03 value="1.5251996614" flag="0"/>
      <psa10 value="0.2308450553" flag="0"/>
      <psa30 value="0.0235682665" flag="0"/>
    </comp>
    <comp name="--.HNZ">
      <acc value="0.5979821800" flag="0"/>
      <vel value="0.1150339563" flag="0"/>
      <psa03 value="0.6326228004" flag="0"/>
      <psa10 value="0.0605945948" flag="0"/>
      <psa30 value="0.0101883540" flag="0"/>
    </comp>
  </station>
  <station code="KMRS" name="KMRS" netid="KO" insttype="CMG-3T" lat="37.5053" lon="36.9">
    <comp name="--.HHE">
      <acc value="0.0542219009" flag="0"/>
      <vel value="0.0405942371" flag="0"/>
      <psa03 value="0.0999509714" flag="0"/>
      <psa10 value="0.0387371874" flag="0"/>
      <psa30 value="0.0104911680" flag="0"/>
    </comp>
    <comp name="--.HHN">
      <acc value="0.0293101844" flag="0"/>
      <vel value="0.0179799918" flag="0"/>
      <psa03 value="0.0642543602" flag="0"/>
      <psa10 value="0.0302228858" flag="0"/>
      <psa30 value="0.0031587706" flag="0"/>
    </comp>
    <comp name="--.HHZ">
      <acc value="0.0371510946" flag="0"/>
      <vel value="0.0215454656" flag="0"/>
      <psa03 value="0.1073921101" flag="0"/>
      <psa10 value="0.0261865519" flag="0"/>
      <psa30 value="0.0037128592" flag="0"/>
    </comp>
  </station>
</stationlist>
