<?xml version="1.0" encoding="UTF-8" standalone="yes"?>
<!DOCTYPE earthquake SYSTEM "stationlist.dtd">
<stationlist created="" xmlns="ch.ethz.sed.shakemap.usgs.xml">
  <station code="GAZ" name="GAZ" netid="KO" insttype="CMG-3T" lat="37.1721" lon="37.2096">
    <comp name="--.HHE">
      <acc value="0.4504899545" flag="0"/>
      <vel value="0.3292516475" flag="0"/>
      <psa03 value="0.9701843886" flag="0"/>
      <psa10 value="0.1750244493" flag="0"/>
      <psa30 value="0.0240216010" flag="0"/>
    </comp>
    <comp name="--.HHN">
      <acc value="0.3908983650" flag="0"/>
      <vel value="0.2898979791" flag="0"/>
      <psa03 value="0.7616599902" flag="0"/>
      <psa10 value="0.2088669427" flag="0"/>
      <psa30 value="0.0213028431" flag="0"/>
    </comp>
    <comp name="--.HHZ">
      <acc value="0.2703554348" flag="0"/>
      <vel value="0.1851025824" flag="0"/>
      <psa03 value="0.6197947643" flag="0"/>
      <psa10 value="0.0665260864" flag="0"/>
      <psa30 value="0.0138478748" flag="0"/>
    </comp>
  </station>
  <station code="KHMN" name="KHMN" netid="KO" insttype="CMG-5T" lat="37.3916" lon="37.1574">
    <comp name="--.HNE">
      <acc value="1.1785662912" flag="0"/>
      <vel value="0.2690856675" flag="0"/>
      <psa03 value="1.5251996614" flag="0"/>
      <psa10 value="0.2308450413" flag="0"/>
      <psa30 value="0.0235694234" flag="0"/>
    </comp>
    <comp name="--.HNN">
      <acc value="1.3638622133" flag="0"/>
      <vel value="0.1895207654" flag="0"/>
      <psa03 value="0.5618313193" flag="0"/>
      <psa10 value="0.1099613261" flag="0"/>
      <psa30 value="0.0095002453" flag="0"/>
    </comp>
    <comp name="--.HNZ">
      <acc value="0.5979806449" flag="0"/>
      <vel value="0.1150339593" flag="0"/>
      <psa03 value="0.6326228004" flag="0"/>
      <psa10 value="0.0605945878" flag="0"/>
      <psa30 value="0.0101892973" flag="0"/>
    </comp>
  </station>
  <station code="KMRS" name="KMRS" netid="KO" insttype="CMG-3T" lat="37.5053" lon="36.9">
    <comp name="--.HHE">
      <acc value="0.0542219009" flag="0"/>
      <vel value="0.0405942363" flag="0"/>
      <psa03 value="0.0999509714" flag="0"/>
      <psa10 value="0.0387371872" flag="0"/>
      <psa30 value="0.0104912287" flag="0"/>
    </comp>
    <comp name="--.HHN">
      <acc value="0.0293101844" flag="0"/>
      <vel value="0.0179799922" flag="0"/>
      <psa03 value="0.0642543602" flag="0"/>
      <psa10 value="0.0302228852" flag="0"/>
      <psa30 value="0.0031586857" flag="0"/>
    </comp>
    <comp name="--.HHZ">
      <acc value="0.0371510947" flag="0"/>
      <vel value="0.0215454653" flag="0"/>
      <psa03 value="0.1073921101" flag="0"/>
      <psa10 value="0.0261865527" flag="0"/>
      <psa30 value="0.0037127855" flag="0"/>
    </comp>
  </station>
</stationlist>
