<?xml version="1.0" encoding="UTF-8" standalone="yes"?>
<!DOCTYPE earthquake SYSTEM "stationlist.dtd">
<stationlist created="" xmlns="ch.ethz.sed.shakemap.usgs.xml">
  <station code="PLN1" name="PLN1" netid="HI" insttype="CMG-5TD,ACCELEROMETER,GURALP" lat="39.998" lon="23.575">
    <comp name="--.HNE">
      <acc value="0.0685688404" flag="0"/>
      <vel value="0.0350796398" flag="0"/>
      <psa03 value="0.1774008792" flag="0"/>
      <psa10 value="0.0490294614" flag="0"/>
      <psa30 value="0.0054766626" flag="0"/>
    </comp>
    <comp name="--.HNN">
      <acc value="0.1041619431" flag="0"/>
      <vel value="0.0485464085" flag="0"/>
      <psa03 value="0.2035048150" flag="0"/>
      <psa10 value="0.0693902979" flag="0"/>
      <psa30 value="0.0061450054" flag="0"/>
    </comp>
    <comp name="--.HNZ">
      <acc value="0.1139206809" flag="0"/>
      <vel value="0.0269999041" flag="0"/>
      <psa03 value="0.0764242452" flag="0"/>
      <psa10 value="0.0214884052" flag="0"/>
      <psa30 value="0.0023124810" flag="0"/>
    </comp>
  </station>
  <station code="KVLA" name="KVLA" netid="HL" insttype="CMG-5" lat="40.937" lon="24.3859">
    <comp name="00.HNN">
      <acc value="0.1011195552" flag="0"/>
      <vel value="0.0219364337" flag="0"/>
      <psa03 value="0.0841273618" flag="0"/>
      <psa10 value="0.0115624652" flag="0"/>
      <psa30 value="0.0013870053" flag="0"/>
    </comp>
    <comp name="00.HNE">
      <acc value="0.1278348970" flag="0"/>
      <vel value="0.0383215924" flag="0"/>
      <psa03 value="0.0918438703" flag="0"/>
      <psa10 value="0.0289894708" flag="0"/>
      <psa30 value="0.0013247352" flag="0"/>
    </comp>
    <comp name="00.HNZ">
      <acc value="0.0728885239" flag="0"/>
      <vel value="0.0145327301" flag="0"/>
      <psa03 value="0.0736187327" flag="0"/>
      <psa10 value="0.0088466831" flag="0"/>
      <psa30 value="0.0010826994" flag="0"/>
    </comp>
  </station>
  <station code="NEO" name="NEO" netid="HL" insttype="120" lat="39.3057" lon="23.2219">
    <comp name="--.HHN">
      <acc value="0.0077032769" flag="0"/>
      <vel value="0.0048483014" flag="0"/>
      <psa03 value="0.0286749362" flag="0"/>
      <psa10 value="0.0068598305" flag="0"/>
      <psa30 value="0.0010947548" flag="0"/>
    </comp>
    <comp name="--.HHZ">
      <acc value="0.0075665337" flag="0"/>
      <vel value="0.0033194943" flag="0"/>
      <psa03 value="0.0114685043" flag="0"/>
      <psa10 value="0.0026348519" flag="0"/>
      <psa30 value="0.0005808067" flag="0"/>
    </comp>
    <comp name="--.HHE">
      <acc value="0.0098421336" flag="0"/>
      <vel value="0.0049124924" flag="0"/>
      <psa03 value="0.0245040701" flag="0"/>
      <psa10 value="0.0042790711" flag="0"/>
      <psa30 value="0.0011308258" flag="0"/>
    </comp>
  </station>
  <station code="PLG" name="PLG" netid="HL" insttype="120" lat="40.3733" lon="23.4444">
    <comp name="--.HHE">
      <acc value="0.1386175946" flag="0"/>
      <vel value="0.0443496221" flag="0"/>
      <psa03 value="0.2001508244" flag="0"/>
      <psa10 value="0.0222754800" flag="0"/>
      <psa30 value="0.0026938787" flag="0"/>
    </comp>
    <comp name="--.HHZ">
      <acc value="0.1068146060" flag="0"/>
      <vel value="0.0347505075" flag="0"/>
      <psa03 value="0.2450471138" flag="0"/>
      <psa10 value="0.0253937502" flag="0"/>
      <psa30 value="0.0013647103" flag="0"/>
    </comp>
    <comp name="--.HHN">
      <acc value="0.1000415377" flag="0"/>
      <vel value="0.0459217435" flag="0"/>
      <psa03 value="0.1245373629" flag="0"/>
      <psa10 value="0.0507634177" flag="0"/>
      <psa30 value="0.0037358008" flag="0"/>
    </comp>
  </station>
  <station code="PRAS" name="PRAS" netid="HL" insttype="120" lat="41.3524" lon="24.55">
    <comp name="--.HHE">
      <acc value="0.0304543143" flag="0"/>
      <vel value="0.0107305213" flag="0"/>
      <psa03 value="0.0456871871" flag="0"/>
      <psa10 value="0.0099630610" flag="0"/>
      <psa30 value="0.0017286045" flag="0"/>
    </comp>
    <comp name="--.HHN">
      <acc value="0.0360187132" flag="0"/>
      <vel value="0.0140710262" flag="0"/>
      <psa03 value="0.0625699502" flag="0"/>
      <psa10 value="0.0120644934" flag="0"/>
      <psa30 value="0.0020485791" flag="0"/>
    </comp>
    <comp name="--.HHZ">
      <acc value="0.0258992706" flag="0"/>
      <vel value="0.0103500189" flag="0"/>
      <psa03 value="0.0297468608" flag="0"/>
      <psa10 value="0.0119921236" flag="0"/>
      <psa30 value="0.0019231433" flag="0"/>
    </comp>
  </station>
  <station code="HORT" name="HORT" netid="HT" insttype="100" lat="40.5978" lon="23.0996">
    <comp name="--.HHN">
      <acc value="0.0000134536" flag="0"/>
      <vel value="0.0000019801" flag="0"/>
      <psa03 value="0.0000093237" flag="0"/>
      <psa10 value="0.0000024121" flag="0"/>
      <psa30 value="0.0000007909" flag="0"/>
    </comp>
    <comp name="--.HHE">
      <acc value="0.0504031425" flag="0"/>
      <vel value="0.0139397260" flag="0"/>
      <psa03 value="0.0490825651" flag="0"/>
      <psa10 value="0.0081272208" flag="0"/>
      <psa30 value="0.0015388955" flag="0"/>
    </comp>
    <comp name="--.HHZ">
      <acc value="0.0349318601" flag="0"/>
      <vel value="0.0083533105" flag="0"/>
      <psa03 value="0.0223357994" flag="0"/>
      <psa10 value="0.0123874079" flag="0"/>
      <psa30 value="0.0007634764" flag="0"/>
    </comp>
  </station>
  <station code="KAVA" name="KAVA" netid="HT" insttype="Compact," lat="40.9967" lon="24.5137">
    <comp name="--.HHE">
      <acc value="0.3222352292" flag="0"/>
      <vel value="0.0954798067" flag="0"/>
      <psa03 value="0.2373333769" flag="0"/>
      <psa10 value="0.0781998353" flag="0"/>
      <psa30 value="0.0046598083" flag="0"/>
    </comp>
    <comp name="--.HHN">
      <acc value="0.2045464400" flag="0"/>
      <vel value="0.0416655188" flag="0"/>
      <psa03 value="0.1680227860" flag="0"/>
      <psa10 value="0.0152483842" flag="0"/>
      <psa30 value="0.0033049687" flag="0"/>
    </comp>
    <comp name="--.HHZ">
      <acc value="0.1703640661" flag="0"/>
      <vel value="0.0373579330" flag="0"/>
      <psa03 value="0.1296068462" flag="0"/>
      <psa10 value="0.0449737877" flag="0"/>
      <psa30 value="0.0035789627" flag="0"/>
    </comp>
  </station>
  <station code="KNT" name="KNT" netid="HT" insttype="100" lat="41.162" lon="22.898">
    <comp name="--.HHZ">
      <acc value="0.0267166294" flag="0"/>
      <vel value="0.0137732514" flag="0"/>
      <psa03 value="0.0856993422" flag="0"/>
      <psa10 value="0.0105277259" flag="0"/>
      <psa30 value="0.0013433087" flag="0"/>
    </comp>
    <comp name="--.HHE">
      <acc value="0.0310881151" flag="0"/>
      <vel value="0.0149029116" flag="0"/>
      <psa03 value="0.0641801477" flag="0"/>
      <psa10 value="0.0129499553" flag="0"/>
      <psa30 value="0.0022634447" flag="0"/>
    </comp>
    <comp name="--.HHN">
      <acc value="0.0402656421" flag="0"/>
      <vel value="0.0195485376" flag="0"/>
      <psa03 value="0.1191252587" flag="0"/>
      <psa10 value="0.0151491885" flag="0"/>
      <psa30 value="0.0013250637" flag="0"/>
    </comp>
  </station>
  <station code="KOKK" name="KOKK" netid="HT" insttype="Compact," lat="40.8178" lon="23.9992">
    <comp name="--.HHZ">
      <acc value="0.0669125983" flag="0"/>
      <vel value="0.0166684245" flag="0"/>
      <psa03 value="0.0704582560" flag="0"/>
      <psa10 value="0.0153836059" flag="0"/>
      <psa30 value="0.0008334244" flag="0"/>
    </comp>
    <comp name="--.HHE">
      <acc value="0.0918861756" flag="0"/>
      <vel value="0.0215298644" flag="0"/>
      <psa03 value="0.1110532382" flag="0"/>
      <psa10 value="0.0141150635" flag="0"/>
      <psa30 value="0.0009872012" flag="0"/>
    </comp>
    <comp name="--.HHN">
      <acc value="0.1024023279" flag="0"/>
      <vel value="0.0223003011" flag="0"/>
      <psa03 value="0.0881438610" flag="0"/>
      <psa10 value="0.0213376223" flag="0"/>
      <psa30 value="0.0012272040" flag="0"/>
    </comp>
  </station>
  <station code="NESN" name="NESN" netid="HT" insttype="1s-100Hz," lat="39.7267" lon="22.5399">
    <comp name="--.HHN">
      <acc value="0.0218431416" flag="0"/>
      <vel value="0.0239395872" flag="0"/>
      <psa03 value="0.0469110680" flag="0"/>
      <psa10 value="0.0372655169" flag="0"/>
      <psa30 value="0.0039694473" flag="0"/>
    </comp>
    <comp name="--.HHZ">
      <acc value="0.0109303815" flag="0"/>
      <vel value="0.0074228518" flag="0"/>
      <psa03 value="0.0220700693" flag="0"/>
      <psa10 value="0.0113064843" flag="0"/>
      <psa30 value="0.0011076923" flag="0"/>
    </comp>
    <comp name="--.HHE">
      <acc value="0.0176740446" flag="0"/>
      <vel value="0.0148501183" flag="0"/>
      <psa03 value="0.0371841069" flag="0"/>
      <psa10 value="0.0348067854" flag="0"/>
      <psa30 value="0.0022938708" flag="0"/>
    </comp>
  </station>
  <station code="OUR" name="OUR" netid="HT" insttype="100" lat="40.3325" lon="23.9791">
    <comp name="--.HHN">
      <acc value="3.3049524038" flag="0"/>
      <vel value="0.8681677441" flag="0"/>
      <psa03 value="4.0628174092" flag="0"/>
      <psa10 value="0.8771605035" flag="0"/>
      <psa30 value="0.0562039137" flag="0"/>
    </comp>
    <comp name="--.HHE">
      <acc value="2.7846463390" flag="0"/>
      <vel value="0.7539309188" flag="0"/>
      <psa03 value="2.4884104425" flag="0"/>
      <psa10 value="0.3811186778" flag="0"/>
      <psa30 value="0.0251703599" flag="0"/>
    </comp>
    <comp name="--.HHZ">
      <acc value="1.8672304400" flag="0"/>
      <vel value="0.3921377542" flag="0"/>
      <psa03 value="1.9102715927" flag="0"/>
      <psa10 value="0.2316125697" flag="0"/>
      <psa30 value="0.0177494964" flag="0"/>
    </comp>
  </station>
  <station code="PAIG" name="PAIG" netid="HT" insttype="100" lat="39.9363" lon="23.6768">
    <comp name="--.HHE">
      <acc value="0.1094449433" flag="0"/>
      <vel value="0.0252197026" flag="0"/>
      <psa03 value="0.1034517415" flag="0"/>
      <psa10 value="0.0149318287" flag="0"/>
      <psa30 value="0.0025599789" flag="0"/>
    </comp>
    <comp name="--.HHN">
      <acc value="0.1117765302" flag="0"/>
      <vel value="0.0260898211" flag="0"/>
      <psa03 value="0.0862932239" flag="0"/>
      <psa10 value="0.0169763295" flag="0"/>
      <psa30 value="0.0022222583" flag="0"/>
    </comp>
    <comp name="--.HHZ">
      <acc value="0.0879980546" flag="0"/>
      <vel value="0.0130597653" flag="0"/>
      <psa03 value="0.0426505600" flag="0"/>
      <psa10 value="0.0078733157" flag="0"/>
      <psa30 value="0.0034388705" flag="0"/>
    </comp>
  </station>
  <station code="SOH" name="SOH" netid="HT" insttype="120P," lat="40.8217" lon="23.3539">
    <comp name="--.HHE">
      <acc value="0.0884793581" flag="0"/>
      <vel value="0.0596449755" flag="0"/>
      <psa03 value="0.3002468589" flag="0"/>
      <psa10 value="0.0591695322" flag="0"/>
      <psa30 value="0.0048159720" flag="0"/>
    </comp>
    <comp name="--.HHZ">
      <acc value="0.0649311885" flag="0"/>
      <vel value="0.0312581969" flag="0"/>
      <psa03 value="0.2321410118" flag="0"/>
      <psa10 value="0.0292136380" flag="0"/>
      <psa30 value="0.0019712002" flag="0"/>
    </comp>
    <comp name="--.HHN">
      <acc value="0.0927497132" flag="0"/>
      <vel value="0.0446447182" flag="0"/>
      <psa03 value="0.3093993069" flag="0"/>
      <psa10 value="0.0306277203" flag="0"/>
      <psa30 value="0.0037064178" flag="0"/>
    </comp>
  </station>
  <station code="THAS" name="THAS" netid="HT" insttype="100" lat="40.6064" lon="24.7194">
    <comp name="--.HHE">
      <acc value="0.1950402404" flag="0"/>
      <vel value="0.0643761804" flag="0"/>
      <psa03 value="0.2818628714" flag="0"/>
      <psa10 value="0.0211741709" flag="0"/>
      <psa30 value="0.0023769759" flag="0"/>
    </comp>
    <comp name="--.HHN">
      <acc value="0.2072866007" flag="0"/>
      <vel value="0.0560720002" flag="0"/>
      <psa03 value="0.2907924179" flag="0"/>
      <psa10 value="0.0210514989" flag="0"/>
      <psa30 value="0.0020699970" flag="0"/>
    </comp>
    <comp name="--.HHZ">
      <acc value="0.1589327867" flag="0"/>
      <vel value="0.0288510804" flag="0"/>
      <psa03 value="0.1760998627" flag="0"/>
      <psa10 value="0.0127881685" flag="0"/>
      <psa30 value="0.0014931563" flag="0"/>
    </comp>
  </station>
  <station code="THE" name="THE" netid="HT" insttype="30s-100Hz," lat="40.6319" lon="22.9628">
    <comp name="--.HHZ">
      <acc value="0.0137977098" flag="0"/>
      <vel value="0.0046368419" flag="0"/>
      <psa03 value="0.0156714026" flag="0"/>
      <psa10 value="0.0082410408" flag="0"/>
      <psa30 value="0.0006192670" flag="0"/>
    </comp>
    <comp name="--.HHN">
      <acc value="0.0177326694" flag="0"/>
      <vel value="0.0111301666" flag="0"/>
      <psa03 value="0.0209030648" flag="0"/>
      <psa10 value="0.0193183685" flag="0"/>
      <psa30 value="0.0012219960" flag="0"/>
    </comp>
    <comp name="--.HHE">
      <acc value="0.0147918921" flag="0"/>
      <vel value="0.0065873251" flag="0"/>
      <psa03 value="0.0259895029" flag="0"/>
      <psa10 value="0.0152138005" flag="0"/>
      <psa30 value="0.0009169168" flag="0"/>
    </comp>
  </station>
  <station code="XOR" name="XOR" netid="HT" insttype="Compact," lat="39.366" lon="23.1918">
    <comp name="--.HHE">
      <acc value="0.0048676629" flag="0"/>
      <vel value="0.0032365926" flag="0"/>
      <psa03 value="0.0120962499" flag="0"/>
      <psa10 value="0.0023728468" flag="0"/>
      <psa30 value="0.0008318224" flag="0"/>
    </comp>
    <comp name="--.HHN">
      <acc value="0.0097750058" flag="0"/>
      <vel value="0.0053788401" flag="0"/>
      <psa03 value="0.0256343792" flag="0"/>
      <psa10 value="0.0043337133" flag="0"/>
      <psa30 value="0.0008037514" flag="0"/>
    </comp>
    <comp name="--.HHZ">
      <acc value="0.0045566302" flag="0"/>
      <vel value="0.0028968245" flag="0"/>
      <psa03 value="0.0124057721" flag="0"/>
      <psa10 value="0.0024770926" flag="0"/>
      <psa30 value="0.0005395613" flag="0"/>
    </comp>
  </station>
</stationlist>
