<stationlist created="1723532492">
	<station code="MMAA" name="MMAA" netid="EG" source="EUROSEISTEST Strong Motion Network" insttype="" lat="40.630855" lon="22.943725">
		<comp name=".EN1" depth="0.0">
			<acc value="0.037212185451936" flag="0"/>
			<vel value="0.0431846230489" flag="0"/>
			<psa03 value="0.109124781064624" flag="0"/>
			<psa10 value="0.0566187157121099" flag="0"/>
			<psa30 value="0.00305671020038392" flag="0"/>
		</comp>
		<comp name=".EN2" depth="0.0">
			<acc value="0.033099799637976" flag="0"/>
			<vel value="0.0310200218461" flag="0"/>
			<psa03 value="0.105682250930676" flag="0"/>
			<psa10 value="0.0445260583826467" flag="0"/>
			<psa30 value="0.00207285689992801" flag="0"/>
		</comp>
		<comp name=".EN3" depth="0.0">
			<acc value="0.042333732490386" flag="0"/>
			<vel value="0.0139163972785" flag="0"/>
			<psa03 value="0.0522973186074702" flag="0"/>
			<psa10 value="0.01563159520396" flag="0"/>
			<psa30 value="0.000837378336789589" flag="0"/>
		</comp>
	</station>
	<station code="STC" name="STC" netid="EG" source="EUROSEISTEST Strong Motion Network" insttype="" lat="40.64865" lon="23.304856">
		<comp name=".EN1" depth="0.0">
			<acc value="0.20153891894574" flag="0"/>
			<vel value="0.125916583077" flag="0"/>
			<psa03 value="0.655958162340708" flag="0"/>
			<psa10 value="0.102556251348256" flag="0"/>
			<psa30 value="0.00855929451127354" flag="0"/>
		</comp>
		<comp name=".EN2" depth="0.0">
			<acc value="0.13806817711716" flag="0"/>
			<vel value="0.115974682725" flag="0"/>
			<psa03 value="0.354392976795228" flag="0"/>
			<psa10 value="0.107632887650474" flag="0"/>
			<psa30 value="0.00625025154847788" flag="0"/>
		</comp>
		<comp name=".EN3" depth="0.0">
			<acc value="0.089890976072994" flag="0"/>
			<vel value="0.0541609131412" flag="0"/>
			<psa03 value="0.244326914625736" flag="0"/>
			<psa10 value="0.0696864488852895" flag="0"/>
			<psa30 value="0.00329086633707746" flag="0"/>
		</comp>
	</station>
	<station code="DRA2" name="DRA2" netid="HI" source="ITSAK Strong Motion Network" insttype="" lat="41.1593" lon="24.1485">
		<comp name=".HNE" depth="0.0">
			<acc value="0.06405463542309" flag="0"/>
			<vel value="0.0258872625669" flag="0"/>
			<psa03 value="0.226022931243439" flag="0"/>
			<psa10 value="0.0136243797357896" flag="0"/>
			<psa30 value="0.00100074629453109" flag="0"/>
		</comp>
		<comp name=".HNN" depth="0.0">
			<acc value="0.062468856496242" flag="0"/>
			<vel value="0.0196145436119" flag="0"/>
			<psa03 value="0.159925500529741" flag="0"/>
			<psa10 value="0.00993280581215187" flag="0"/>
			<psa30 value="0.00115972911802864" flag="0"/>
		</comp>
		<comp name=".HNZ" depth="0.0">
			<acc value="0.051429494785482" flag="0"/>
			<vel value="0.0124600793644" flag="0"/>
			<psa03 value="0.0586983155584868" flag="0"/>
			<psa10 value="0.0085300000706251" flag="0"/>
			<psa30 value="0.000584743944750529" flag="0"/>
		</comp>
	</station>
	<station code="LAM2" name="LAM2" netid="HI" source="ITSAK Strong Motion Network" insttype="" lat="38.90203" lon="22.431301">
		<comp name=".HNE" depth="0.0">
			<acc value="0.0031227865580616" flag="0"/>
			<vel value="0.00185325810986" flag="0"/>
			<psa03 value="0.00391168100467013" flag="0"/>
			<psa10 value="0.00239798362027128" flag="0"/>
			<psa30 value="0.000535738979662275" flag="0"/>
		</comp>
		<comp name=".HNN" depth="0.0">
			<acc value="0.0026927616980106" flag="0"/>
			<vel value="0.00250599901378" flag="0"/>
			<psa03 value="0.003490165451126" flag="0"/>
			<psa10 value="0.00199673493014062" flag="0"/>
			<psa30 value="0.00111386910086261" flag="0"/>
		</comp>
		<comp name=".HNZ" depth="0.0">
			<acc value="0.008344098425907" flag="0"/>
			<vel value="0.00147171732801" flag="0"/>
			<psa03 value="0.0029448204054199" flag="0"/>
			<psa10 value="0.00142142619376101" flag="0"/>
			<psa30 value="0.00043852285207011" flag="0"/>
		</comp>
	</station>
	<station code="PLN1" name="PLN1" netid="HI" source="ITSAK Strong Motion Network" insttype="" lat="39.998" lon="23.575">
		<comp name=".HNE" depth="0.0">
			<acc value="0.068205600156858" flag="0"/>
			<vel value="0.0347233917317" flag="0"/>
			<psa03 value="0.182426751543519" flag="0"/>
			<psa10 value="0.0495325612891449" flag="0"/>
			<psa30 value="0.00584064774756329" flag="0"/>
		</comp>
		<comp name=".HNN" depth="0.0">
			<acc value="0.10379176479912" flag="0"/>
			<vel value="0.0491053637657" flag="0"/>
			<psa03 value="0.204670933444998" flag="0"/>
			<psa10 value="0.0692744165902842" flag="0"/>
			<psa30 value="0.00690804137383233" flag="0"/>
		</comp>
		<comp name=".HNZ" depth="0.0">
			<acc value="0.113407606407" flag="0"/>
			<vel value="0.0279640292761" flag="0"/>
			<psa03 value="0.0785014920054068" flag="0"/>
			<psa10 value="0.0217080299254559" flag="0"/>
			<psa30 value="0.00271973496076056" flag="0"/>
		</comp>
	</station>
	<station code="SKY1" name="SKY1" netid="HI" source="ITSAK Strong Motion Network" insttype="" lat="38.904483" lon="24.564572">
		<comp name=".HNE" depth="0.0">
			<acc value="0.0051144814864548" flag="0"/>
			<vel value="0.00283193039906" flag="0"/>
			<psa03 value="0.0244134532089746" flag="0"/>
			<psa10 value="0.00373177752444697" flag="0"/>
			<psa30 value="0.000507572999217943" flag="0"/>
		</comp>
		<comp name=".HNN" depth="0.0">
			<acc value="0.0048258212533746" flag="0"/>
			<vel value="0.00323308988913" flag="0"/>
			<psa03 value="0.0183819729238235" flag="0"/>
			<psa10 value="0.00389281928642265" flag="0"/>
			<psa30 value="0.000307287569834937" flag="0"/>
		</comp>
		<comp name=".HNZ" depth="0.0">
			<acc value="0.0032749496412888" flag="0"/>
			<vel value="0.00148280879635" flag="0"/>
			<psa03 value="0.00950065150693223" flag="0"/>
			<psa10 value="0.00133067803370349" flag="0"/>
			<psa30 value="0.000368552201232849" flag="0"/>
		</comp>
	</station>
	<station code="VOL2" name="VOL2" netid="HI" source="ITSAK Strong Motion Network" insttype="" lat="39.366" lon="22.9506">
		<comp name=".HNE" depth="0.0">
			<acc value="0.011158513897956" flag="0"/>
			<vel value="0.00836007288268" flag="0"/>
			<psa03 value="0.0310750976352295" flag="0"/>
			<psa10 value="0.00792271296585061" flag="0"/>
			<psa30 value="0.000843349826121071" flag="0"/>
		</comp>
		<comp name=".HNN" depth="0.0">
			<acc value="0.013677085197528" flag="0"/>
			<vel value="0.0066934672468" flag="0"/>
			<psa03 value="0.0331056097508542" flag="0"/>
			<psa10 value="0.00663885057251982" flag="0"/>
			<psa30 value="0.00182011682380814" flag="0"/>
		</comp>
		<comp name=".HNZ" depth="0.0">
			<acc value="0.0078185143677186" flag="0"/>
			<vel value="0.00459941760114" flag="0"/>
			<psa03 value="0.0120318113713751" flag="0"/>
			<psa10 value="0.0025664025897024" flag="0"/>
			<psa30 value="0.00113290390349166" flag="0"/>
		</comp>
	</station>
	<station code="ALNA" name="ALNA" netid="HL" source="National Observatory of Athens Seismic Network" insttype="" lat="39.14804" lon="23.86669">
		<comp name="00.HNE" depth="0.0">
			<acc value="0.0038828932195374" flag="0"/>
			<vel value="0.00478766871216" flag="0"/>
			<psa03 value="0.00871584365791325" flag="0"/>
			<psa10 value="0.00750444635150155" flag="0"/>
			<psa30 value="0.000848797791188164" flag="0"/>
		</comp>
		<comp name="00.HNN" depth="0.0">
			<acc value="0.0038102449147938" flag="0"/>
			<vel value="0.00380952665025" flag="0"/>
			<psa03 value="0.00799773423771763" flag="0"/>
			<psa10 value="0.00772572601018243" flag="0"/>
			<psa30 value="0.000669097032728754" flag="0"/>
		</comp>
		<comp name="00.HNZ" depth="0.0">
			<acc value="0.005827513855611" flag="0"/>
			<vel value="0.00352057496566" flag="0"/>
			<psa03 value="0.00736740862758286" flag="0"/>
			<psa10 value="0.00588959593806648" flag="0"/>
			<psa30 value="0.0004706987335661" flag="0"/>
		</comp>
	</station>
	<station code="EFSA" name="EFSA" netid="HL" source="National Observatory of Athens Seismic Network" insttype="" lat="39.54015" lon="24.98864">
		<comp name="00.HNE" depth="0.0">
			<acc value="0.013229700225984" flag="0"/>
			<vel value="0.0111907159866" flag="0"/>
			<psa03 value="0.0338725615992986" flag="0"/>
			<psa10 value="0.0181307391974887" flag="0"/>
			<psa30 value="0.00345840597742226" flag="0"/>
		</comp>
		<comp name="00.HNN" depth="0.0">
			<acc value="0.0098240316176136" flag="0"/>
			<vel value="0.00808211166974" flag="0"/>
			<psa03 value="0.0244498462448075" flag="0"/>
			<psa10 value="0.00718811617743628" flag="0"/>
			<psa30 value="0.00145104518712399" flag="0"/>
		</comp>
		<comp name="00.HNZ" depth="0.0">
			<acc value="0.0098582393984442" flag="0"/>
			<vel value="0.00420240581107" flag="0"/>
			<psa03 value="0.0288900310102897" flag="0"/>
			<psa10 value="0.00776093568641236" flag="0"/>
			<psa30 value="0.00054239952505591" flag="0"/>
		</comp>
	</station>
	<station code="GINA" name="GINA" netid="HL" source="National Observatory of Athens Seismic Network" insttype="" lat="39.66886" lon="22.389">
		<comp name="00.HNE" depth="0.0">
			<acc value="0.0084156482256774" flag="0"/>
			<vel value="0.0119721399007" flag="0"/>
			<psa03 value="0.0175038691808596" flag="0"/>
			<psa10 value="0.0130534147246522" flag="0"/>
			<psa30 value="0.00279928731404796" flag="0"/>
		</comp>
		<comp name="00.HNN" depth="0.0">
			<acc value="0.011267115653034" flag="0"/>
			<vel value="0.0150038016352" flag="0"/>
			<psa03 value="0.018510247046371" flag="0"/>
			<psa10 value="0.0150470533559269" flag="0"/>
			<psa30 value="0.00552261042916385" flag="0"/>
		</comp>
		<comp name="00.HNZ" depth="0.0">
			<acc value="0.005210161210536" flag="0"/>
			<vel value="0.00507164573532" flag="0"/>
			<psa03 value="0.00839252276029813" flag="0"/>
			<psa10 value="0.0105626019080251" flag="0"/>
			<psa30 value="0.00121856291131452" flag="0"/>
		</comp>
	</station>
	<station code="KVLA" name="KVLA" netid="HL" source="National Observatory of Athens Seismic Network" insttype="" lat="40.93704" lon="24.38591">
		<comp name="00.HNE" depth="0.0">
			<acc value="0.12808935976176" flag="0"/>
			<vel value="0.0379824833758" flag="0"/>
			<psa03 value="0.0919019422194986" flag="0"/>
			<psa10 value="0.0290572267736764" flag="0"/>
			<psa30 value="0.0012565104251488" flag="0"/>
		</comp>
		<comp name="00.HNN" depth="0.0">
			<acc value="0.09892160655777" flag="0"/>
			<vel value="0.0220960194835" flag="0"/>
			<psa03 value="0.0845671438247814" flag="0"/>
			<psa10 value="0.0115391628504057" flag="0"/>
			<psa30 value="0.00151856486830408" flag="0"/>
		</comp>
		<comp name="00.HNZ" depth="0.0">
			<acc value="0.071215342785504" flag="0"/>
			<vel value="0.0143002925838" flag="0"/>
			<psa03 value="0.0734747840103851" flag="0"/>
			<psa10 value="0.008853858399671" flag="0"/>
			<psa30 value="0.00115954389742733" flag="0"/>
		</comp>
	</station>
	<station code="LIA" name="LIA" netid="HL" source="National Observatory of Athens Seismic Network" insttype="" lat="39.89725" lon="25.18055">
		<comp name="00.HNE" depth="0.0">
			<acc value="0.020008881745314" flag="0"/>
			<vel value="0.00717854712149" flag="0"/>
			<psa03 value="0.0437819628401653" flag="0"/>
			<psa10 value="0.0110749758503073" flag="0"/>
			<psa30 value="0.000876789958029915" flag="0"/>
		</comp>
		<comp name="00.HNN" depth="0.0">
			<acc value="0.020433579821676" flag="0"/>
			<vel value="0.00896944865536" flag="0"/>
			<psa03 value="0.0451026909569032" flag="0"/>
			<psa10 value="0.00719971147679625" flag="0"/>
			<psa30 value="0.00201937877393289" flag="0"/>
		</comp>
		<comp name="00.HNZ" depth="0.0">
			<acc value="0.015013676232684" flag="0"/>
			<vel value="0.00524996107553" flag="0"/>
			<psa03 value="0.0226680745653563" flag="0"/>
			<psa10 value="0.00798751725881957" flag="0"/>
			<psa30 value="0.000928911014961389" flag="0"/>
		</comp>
	</station>
	<station code="NGRA" name="NGRA" netid="HL" source="National Observatory of Athens Seismic Network" insttype="" lat="40.90747" lon="23.49933">
		<comp name="00.HNE" depth="0.0">
			<acc value="0.072825803176428" flag="0"/>
			<vel value="0.0664066756731" flag="0"/>
			<psa03 value="0.263568939315402" flag="0"/>
			<psa10 value="0.0710184321227574" flag="0"/>
			<psa30 value="0.0054247293617146" flag="0"/>
		</comp>
		<comp name="00.HNN" depth="0.0">
			<acc value="0.09243114894501" flag="0"/>
			<vel value="0.0513623141425" flag="0"/>
			<psa03 value="0.216824759409451" flag="0"/>
			<psa10 value="0.0655101422253584" flag="0"/>
			<psa30 value="0.0039967951847325" flag="0"/>
		</comp>
		<comp name="00.HNZ" depth="0.0">
			<acc value="0.060381977475558" flag="0"/>
			<vel value="0.0362794331853" flag="0"/>
			<psa03 value="0.128400214217248" flag="0"/>
			<psa10 value="0.0651019726860329" flag="0"/>
			<psa30 value="0.00269348301336547" flag="0"/>
		</comp>
	</station>
	<station code="NVR" name="NVR" netid="HL" source="National Observatory of Athens Seismic Network" insttype="" lat="41.34846" lon="23.86517">
		<comp name="00.HNE" depth="0.0">
			<acc value="0.30993637122348" flag="0"/>
			<vel value="0.0794409556161" flag="0"/>
			<psa03 value="0.271593512570587" flag="0"/>
			<psa10 value="0.0896643748248417" flag="0"/>
			<psa30 value="0.00374338006389015" flag="0"/>
		</comp>
		<comp name="00.HNN" depth="0.0">
			<acc value="0.20855573639052" flag="0"/>
			<vel value="0.0634426193714" flag="0"/>
			<psa03 value="0.254516902162155" flag="0"/>
			<psa10 value="0.0712578629836604" flag="0"/>
			<psa30 value="0.00343559238279919" flag="0"/>
		</comp>
		<comp name="00.HNZ" depth="0.0">
			<acc value="0.16282607322954" flag="0"/>
			<vel value="0.0646180876276" flag="0"/>
			<psa03 value="0.294847844722725" flag="0"/>
			<psa10 value="0.0761103844396075" flag="0"/>
			<psa30 value="0.00426165523040966" flag="0"/>
		</comp>
	</station>
	<station code="PLG" name="PLG" netid="HL" source="National Observatory of Athens Seismic Network" insttype="" lat="40.37328" lon="23.44443">
		<comp name=".HNE" depth="0.0">
			<acc value="0.12953458465374" flag="0"/>
			<vel value="0.0412379881052" flag="0"/>
			<psa03 value="0.187328034563067" flag="0"/>
			<psa10 value="0.0210445397224797" flag="0"/>
			<psa30 value="0.00274732178825256" flag="0"/>
		</comp>
		<comp name=".HNN" depth="0.0">
			<acc value="0.091231832018136" flag="0"/>
			<vel value="0.0437653220923" flag="0"/>
			<psa03 value="0.121213175611358" flag="0"/>
			<psa10 value="0.0485928577881742" flag="0"/>
			<psa30 value="0.00388870135737842" flag="0"/>
		</comp>
		<comp name=".HNZ" depth="0.0">
			<acc value="0.095971133391954" flag="0"/>
			<vel value="0.0339805465993" flag="0"/>
			<psa03 value="0.232245280943197" flag="0"/>
			<psa10 value="0.0241655133466791" flag="0"/>
			<psa30 value="0.0014363941123929" flag="0"/>
		</comp>
	</station>
	<station code="PRK" name="PRK" netid="HL" source="National Observatory of Athens Seismic Network" insttype="" lat="39.24565" lon="26.26499">
		<comp name=".HNE" depth="0.0">
			<acc value="0.0064860927329004" flag="0"/>
			<vel value="0.00781818614646" flag="0"/>
			<psa03 value="0.0138766367070163" flag="0"/>
			<psa10 value="0.0157078490054015" flag="0"/>
			<psa30 value="0.000650985572516598" flag="0"/>
		</comp>
		<comp name=".HNN" depth="0.0">
			<acc value="0.0029655393908328" flag="0"/>
			<vel value="0.00483447984756" flag="0"/>
			<psa03 value="0.00705513663901278" flag="0"/>
			<psa10 value="0.0123106405194998" flag="0"/>
			<psa30 value="0.000601562350551649" flag="0"/>
		</comp>
		<comp name=".HNZ" depth="0.0">
			<acc value="0.0024214042097466" flag="0"/>
			<vel value="0.00185043337018" flag="0"/>
			<psa03 value="0.00498899423336494" flag="0"/>
			<psa10 value="0.00337823879174073" flag="0"/>
			<psa30 value="0.000387566038931422" flag="0"/>
		</comp>
	</station>
	<station code="TRKA" name="TRKA" netid="HL" source="National Observatory of Athens Seismic Network" insttype="" lat="39.55381" lon="21.76624">
		<comp name="00.HNE" depth="0.0">
			<acc value="0.006819944707224" flag="0"/>
			<vel value="0.00638863873379" flag="0"/>
			<psa03 value="0.00646477135833909" flag="0"/>
			<psa10 value="0.0150743382884132" flag="0"/>
			<psa30 value="0.00117279144167782" flag="0"/>
		</comp>
		<comp name="00.HNN" depth="0.0">
			<acc value="0.0039882304962354" flag="0"/>
			<vel value="0.00441933771583" flag="0"/>
			<psa03 value="0.00454995082598994" flag="0"/>
			<psa10 value="0.00855272657617608" flag="0"/>
			<psa30 value="0.00177273410160294" flag="0"/>
		</comp>
		<comp name="00.HNZ" depth="0.0">
			<acc value="0.011141019983526" flag="0"/>
			<vel value="0.00201488474524" flag="0"/>
			<psa03 value="0.0046988955886693" flag="0"/>
			<psa10 value="0.00404881883937903" flag="0"/>
			<psa30 value="0.000458484695277768" flag="0"/>
		</comp>
	</station>
	<station code="ENZZ" name="ENZZ" netid="KO" source="Bogazici University Kandilli Observatory And Earthquake Research Institute (KOERI)" insttype="" lat="40.607" lon="26.1406">
		<comp name=".HNE" depth="0.0">
			<acc value="0.034090674796452" flag="0"/>
			<vel value="0.0130969257319" flag="0"/>
			<psa03 value="0.0625982718283247" flag="0"/>
			<psa10 value="0.0175956293741006" flag="0"/>
			<psa30 value="0.00236387847034742" flag="0"/>
		</comp>
		<comp name=".HNN" depth="0.0">
			<acc value="0.029920340542266" flag="0"/>
			<vel value="0.0132643167301" flag="0"/>
			<psa03 value="0.0752064195559851" flag="0"/>
			<psa10 value="0.0158644471917726" flag="0"/>
			<psa30 value="0.00208626778833739" flag="0"/>
		</comp>
		<comp name=".HNZ" depth="0.0">
			<acc value="0.053894379833964" flag="0"/>
			<vel value="0.00831145199885" flag="0"/>
			<psa03 value="0.0330246095933126" flag="0"/>
			<psa10 value="0.00515553824786435" flag="0"/>
			<psa30 value="0.00129727687572502" flag="0"/>
		</comp>
	</station>
	<station code="EZNE" name="EZNE" netid="KO" source="Bogazici University Kandilli Observatory And Earthquake Research Institute (KOERI)" insttype="" lat="39.756" lon="26.3655">
		<comp name=".HNE" depth="0.0">
			<acc value="0.002903482248531" flag="0"/>
			<vel value="0.00164449851755" flag="0"/>
			<psa03 value="0.00986682875919207" flag="0"/>
			<psa10 value="0.00196566974722401" flag="0"/>
			<psa30 value="0.000484197388198495" flag="0"/>
		</comp>
		<comp name=".HNN" depth="0.0">
			<acc value="0.0048905642780568" flag="0"/>
			<vel value="0.00266214261004" flag="0"/>
			<psa03 value="0.0241684057257667" flag="0"/>
			<psa10 value="0.00235139311200276" flag="0"/>
			<psa30 value="0.00039822786501657" flag="0"/>
		</comp>
		<comp name=".HNZ" depth="0.0">
			<acc value="0.0044214460253244" flag="0"/>
			<vel value="0.00158139511353" flag="0"/>
			<psa03 value="0.00864942649766088" flag="0"/>
			<psa10 value="0.00191381424173886" flag="0"/>
			<psa30 value="0.000374925748449058" flag="0"/>
		</comp>
	</station>
	<station code="GOKC" name="GOKC" netid="KO" source="Bogazici University Kandilli Observatory And Earthquake Research Institute (KOERI)" insttype="" lat="40.1998" lon="25.9183">
		<comp name=".HNE" depth="0.0">
			<acc value="0.01906654762143" flag="0"/>
			<vel value="0.0120384335966" flag="0"/>
			<psa03 value="0.0345814705402201" flag="0"/>
			<psa10 value="0.0137023642768914" flag="0"/>
			<psa30 value="0.00629766135583422" flag="0"/>
		</comp>
		<comp name=".HNN" depth="0.0">
			<acc value="0.016088035579122" flag="0"/>
			<vel value="0.0114365204745" flag="0"/>
			<psa03 value="0.0275974167350974" flag="0"/>
			<psa10 value="0.010382964070419" flag="0"/>
			<psa30 value="0.00492646385405981" flag="0"/>
		</comp>
		<comp name=".HNZ" depth="0.0">
			<acc value="0.018872191995606" flag="0"/>
			<vel value="0.0164801335571" flag="0"/>
			<psa03 value="0.0306022512072678" flag="0"/>
			<psa10 value="0.0134538071862003" flag="0"/>
			<psa30 value="0.00839619954034295" flag="0"/>
		</comp>
	</station>
	<station code="GPNR" name="GPNR" netid="KO" source="Bogazici University Kandilli Observatory And Earthquake Research Institute (KOERI)" insttype="" lat="39.456" lon="26.1331">
		<comp name=".HNE" depth="0.0">
