<stationlist xmlns:esm="https://esm-db.eu/esmws/shakemap/1/" created="1783994147">
	<station code="AGR3" name="AGR3" netid="HI" source="ITSAK Strong Motion Network" insttype="" lat="38.5893" lon="21.4162" esm:processing="automatic (Paolucci et al 2011)" esm:quality="best">
		<comp name="--.HNE" depth="0.0">
			<acc value="0.00958088650531672" flag="0"/>
			<vel value="0.00771159445602757" flag="0"/>
			<psa03 value="0.0300560457530237" flag="0"/>
			<psa10 value="0.0134922987985786" flag="0"/>
			<psa30 value="0.00154096166448096" flag="0"/>
		</comp>
		<comp name="--.HNN" depth="0.0">
			<acc value="0.0103359498059941" flag="0"/>
			<vel value="0.0111858004328561" flag="0"/>
			<psa03 value="0.0301512004940583" flag="0"/>
			<psa10 value="0.0241604655122668" flag="0"/>
			<psa30 value="0.00229942336717976" flag="0"/>
		</comp>
		<comp name="--.HNZ" depth="0.0">
			<acc value="0.00505859861121627" flag="0"/>
			<vel value="0.00642297033778638" flag="0"/>
			<psa03 value="0.0114638219219408" flag="0"/>
			<psa10 value="0.0139388736944738" flag="0"/>
			<psa30 value="0.00116166445456896" flag="0"/>
		</comp>
	</station>
	<station code="AKR1" name="AKR1" netid="HI" source="ITSAK Strong Motion Network" insttype="" lat="38.153583" lon="22.31326" esm:processing="automatic (Paolucci et al 2011)" esm:quality="best">
		<comp name="--.HNE" depth="0.0">
			<acc value="0.00411285565516023" flag="0"/>
			<vel value="0.00364119395940435" flag="0"/>
			<psa03 value="0.0123231483793513" flag="0"/>
			<psa10 value="0.00561004585675533" flag="0"/>
			<psa30 value="0.000465859298392199" flag="0"/>
		</comp>
		<comp name="--.HNN" depth="0.0">
			<acc value="0.00385690563139122" flag="0"/>
			<vel value="0.0029849603494629" flag="0"/>
			<psa03 value="0.0103463481552047" flag="0"/>
			<psa10 value="0.00316874780461565" flag="0"/>
			<psa30 value="0.000306402250770369" flag="0"/>
		</comp>
		<comp name="--.HNZ" depth="0.0">
			<acc value="0.00172366433517511" flag="0"/>
			<vel value="0.0018446842934233" flag="0"/>
			<psa03 value="0.00388750557504046" flag="0"/>
			<psa10 value="0.00417950937198392" flag="0"/>
			<psa30 value="0.000265177853189682" flag="0"/>
		</comp>
	</station>
	<station code="AOL1" name="AOL1" netid="HI" source="ITSAK Strong Motion Network" insttype="" lat="37.642378" lon="21.624555" esm:processing="automatic (Paolucci et al 2011)" esm:quality="best">
		<comp name="--.HNE" depth="0.0">
			<acc value="0.0563878487244883" flag="0"/>
			<vel value="0.0153475446793266" flag="0"/>
			<psa03 value="0.0554018784358814" flag="0"/>
			<psa10 value="0.0176617143768983" flag="0"/>
			<psa30 value="0.0018662613389879" flag="0"/>
		</comp>
		<comp name="--.HNN" depth="0.0">
			<acc value="0.0392193687893647" flag="0"/>
			<vel value="0.0173912361720061" flag="0"/>
			<psa03 value="0.0688029484826696" flag="0"/>
			<psa10 value="0.0150654567625731" flag="0"/>
			<psa30 value="0.00207745553790043" flag="0"/>
		</comp>
		<comp name="--.HNZ" depth="0.0">
			<acc value="0.0401070902468657" flag="0"/>
			<vel value="0.0103330968946244" flag="0"/>
			<psa03 value="0.0700065542573119" flag="0"/>
			<psa10 value="0.0110503892215534" flag="0"/>
			<psa30 value="0.000764017279061802" flag="0"/>
		</comp>
	</station>
	<station code="ARG2" name="ARG2" netid="HI" source="ITSAK Strong Motion Network" insttype="" lat="38.1783" lon="20.4878" esm:processing="manual (Paolucci et al 2011)" esm:quality="good">
		<comp name="--.HNE" depth="0.0">
			<acc value="0.0842038002763531" flag="0"/>
			<vel value="0.0304356161845413" flag="0"/>
			<psa03 value="0.195836638368175" flag="0"/>
			<psa10 value="0.0164011506800599" flag="0"/>
			<psa30 value="0.00127515288862074" flag="0"/>
		</comp>
		<comp name="--.HNN" depth="0.0">
			<acc value="0.0881265569685246" flag="0"/>
			<vel value="0.0465230576600121" flag="0"/>
			<psa03 value="0.206216830303615" flag="0"/>
			<psa10 value="0.0179756289309569" flag="0"/>
			<psa30 value="0.00136150534739401" flag="0"/>
		</comp>
		<comp name="--.HNZ" depth="0.0">
			<acc value="0.0377392459415844" flag="0"/>
			<vel value="0.0200314833454124" flag="0"/>
			<psa03 value="0.137403316524713" flag="0"/>
			<psa10 value="0.0106226946953101" flag="0"/>
			<psa30 value="0.000854128724342808" flag="0"/>
		</comp>
	</station>
	<station code="ART2" name="ART2" netid="HI" source="ITSAK Strong Motion Network" insttype="" lat="39.1474" lon="20.9937" esm:processing="manual (Paolucci et al 2011)" esm:quality="bad">
		<comp name="--.HNE" depth="0.0">
			<acc value="0.00152672901540057" flag="0"/>
			<vel value="0.00126187203305602" flag="0"/>
			<psa03 value="0.0032657440087857" flag="0"/>
			<psa10 value="0.0020441301010854" flag="0"/>
			<psa30 value="0.000211939456615299" flag="0"/>
		</comp>
		<comp name="--.HNN" depth="0.0">
			<acc value="0.00157312698717763" flag="0"/>
			<vel value="0.00126087063132617" flag="0"/>
			<psa03 value="0.00368520343653786" flag="0"/>
			<psa10 value="0.00169488223856771" flag="0"/>
			<psa30 value="0.000241744998794951" flag="0"/>
		</comp>
		<comp name="--.HNZ" depth="0.0">
			<acc value="0.00128908730713681" flag="0"/>
			<vel value="0.00123983770235311" flag="0"/>
			<psa03 value="0.00350188595411057" flag="0"/>
			<psa10 value="0.00185779701524901" flag="0"/>
			<psa30 value="0.000302936760781948" flag="0"/>
		</comp>
	</station>
	<station code="AST1" name="AST1" netid="HI" source="ITSAK Strong Motion Network" insttype="" lat="38.5416" lon="21.0895" esm:processing="manual (Paolucci et al 2011)" esm:quality="good">
		<comp name="--.HNE" depth="0.0">
			<acc value="0.00731401484605608" flag="0"/>
			<vel value="0.00456156924309148" flag="0"/>
			<psa03 value="0.0172488913523156" flag="0"/>
			<psa10 value="0.00577959927633725" flag="0"/>
			<psa30 value="0.000983542446526773" flag="0"/>
		</comp>
		<comp name="--.HNN" depth="0.0">
			<acc value="0.00879768248647796" flag="0"/>
			<vel value="0.0051365032688807" flag="0"/>
			<psa03 value="0.0240007774337153" flag="0"/>
			<psa10 value="0.00488926029574935" flag="0"/>
			<psa30 value="0.000660776012751257" flag="0"/>
		</comp>
		<comp name="--.HNZ" depth="0.0">
			<acc value="0.00592734624573811" flag="0"/>
			<vel value="0.00376081334102145" flag="0"/>
			<psa03 value="0.0131890612105766" flag="0"/>
			<psa10 value="0.00582105358498175" flag="0"/>
			<psa30 value="0.000493905895924974" flag="0"/>
		</comp>
	</station>
	<station code="ITC1" name="ITC1" netid="HI" source="ITSAK Strong Motion Network" insttype="" lat="38.3647" lon="20.7156" esm:processing="automatic (Paolucci et al 2011)" esm:quality="best">
		<comp name="--.HNE" depth="0.0">
			<acc value="0.0195685741334441" flag="0"/>
			<vel value="0.00896355173994383" flag="0"/>
			<psa03 value="0.0626458843573886" flag="0"/>
			<psa10 value="0.00651864573453806" flag="0"/>
			<psa30 value="0.000382941331525501" flag="0"/>
		</comp>
		<comp name="--.HNN" depth="0.0">
			<acc value="0.0175759816315353" flag="0"/>
			<vel value="0.0100569022406404" flag="0"/>
			<psa03 value="0.0616412657230012" flag="0"/>
			<psa10 value="0.00637321766314205" flag="0"/>
			<psa30 value="0.000436723488079424" flag="0"/>
		</comp>
		<comp name="--.HNZ" depth="0.0">
			<acc value="0.0122491797504958" flag="0"/>
			<vel value="0.00763269746201951" flag="0"/>
			<psa03 value="0.0231883746576851" flag="0"/>
			<psa10 value="0.00652334807729519" flag="0"/>
			<psa30 value="0.000305595869226549" flag="0"/>
		</comp>
	</station>
	<station code="KAC1" name="KAC1" netid="HI" source="ITSAK Strong Motion Network" insttype="" lat="38.143412" lon="21.549694" esm:processing="automatic (Paolucci et al 2011)" esm:quality="best">
		<comp name="--.HNE" depth="0.0">
			<acc value="0.0108525809454626" flag="0"/>
			<vel value="0.0112192487441114" flag="0"/>
			<psa03 value="0.032347843406704" flag="0"/>
			<psa10 value="0.0158757073126955" flag="0"/>
			<psa30 value="0.00205424608372133" flag="0"/>
		</comp>
		<comp name="--.HNN" depth="0.0">
			<acc value="0.0144334241720507" flag="0"/>
			<vel value="0.00907835217061237" flag="0"/>
			<psa03 value="0.056078011768063" flag="0"/>
			<psa10 value="0.0191990012146067" flag="0"/>
			<psa30 value="0.00138826873682388" flag="0"/>
		</comp>
		<comp name="--.HNZ" depth="0.0">
			<acc value="0.00717752113917925" flag="0"/>
			<vel value="0.00511146113166435" flag="0"/>
			<psa03 value="0.0192386963442142" flag="0"/>
			<psa10 value="0.0091002215950191" flag="0"/>
			<psa30 value="0.00100216680529914" flag="0"/>
		</comp>
	</station>
	<station code="KRI1" name="KRI1" netid="HI" source="ITSAK Strong Motion Network" insttype="" lat="37.6621" lon="20.8172" esm:processing="manual (Paolucci et al 2011)" esm:quality="good">
		<comp name="--.HNE" depth="0.0">
			<acc value="0.27145667884783" flag="0"/>
			<vel value="0.150512323909085" flag="0"/>
			<psa03 value="0.607151743809948" flag="0"/>
			<psa10 value="0.0927854932408396" flag="0"/>
			<psa30 value="0.00799095810202333" flag="0"/>
		</comp>
		<comp name="--.HNN" depth="0.0">
			<acc value="0.188279431575073" flag="0"/>
			<vel value="0.0900738512729905" flag="0"/>
			<psa03 value="0.426035291419184" flag="0"/>
			<psa10 value="0.125177061144204" flag="0"/>
			<psa30 value="0.00653594154279714" flag="0"/>
		</comp>
		<comp name="--.HNZ" depth="0.0">
			<acc value="0.132180832498773" flag="0"/>
			<vel value="0.0462289464710628" flag="0"/>
			<psa03 value="0.299862268755657" flag="0"/>
			<psa10 value="0.0284573856754194" flag="0"/>
			<psa30 value="0.00545675951916442" flag="0"/>
		</comp>
	</station>
	<station code="LEF2" name="LEF2" netid="HI" source="ITSAK Strong Motion Network" insttype="" lat="38.830093" lon="20.708346" esm:processing="manual (Paolucci et al 2011)" esm:quality="good">
		<comp name="--.HNE" depth="0.0">
			<acc value="0.0166751661207521" flag="0"/>
			<vel value="0.0135949198482592" flag="0"/>
			<psa03 value="0.0493297991070927" flag="0"/>
			<psa10 value="0.025083474782101" flag="0"/>
			<psa30 value="0.00228754049666457" flag="0"/>
		</comp>
		<comp name="--.HNN" depth="0.0">
			<acc value="0.0158565109993427" flag="0"/>
			<vel value="0.0117505730665072" flag="0"/>
			<psa03 value="0.067053895116468" flag="0"/>
			<psa10 value="0.0231777110346057" flag="0"/>
			<psa30 value="0.00152698532195019" flag="0"/>
		</comp>
		<comp name="--.HNZ" depth="0.0">
			<acc value="0.0102613248661534" flag="0"/>
			<vel value="0.0108351149570295" flag="0"/>
			<psa03 value="0.0232431360978618" flag="0"/>
			<psa10 value="0.0166780598396127" flag="0"/>
			<psa30 value="0.00131151677738324" flag="0"/>
		</comp>
	</station>
	<station code="LXR1" name="LXR1" netid="HI" source="ITSAK Strong Motion Network" insttype="" lat="38.201" lon="20.4374" esm:processing="automatic (Paolucci et al 2011)" esm:quality="best">
		<comp name="--.HNE" depth="0.0">
			<acc value="0.125987342858585" flag="0"/>
			<vel value="0.0625721138068004" flag="0"/>
			<psa03 value="0.587720850288614" flag="0"/>
			<psa10 value="0.0228408749708696" flag="0"/>
			<psa30 value="0.00287155272627526" flag="0"/>
		</comp>
		<comp name="--.HNN" depth="0.0">
			<acc value="0.161087993658343" flag="0"/>
			<vel value="0.078510651263654" flag="0"/>
			<psa03 value="0.50672110945331" flag="0"/>
			<psa10 value="0.0348644771005019" flag="0"/>
			<psa30 value="0.00391844499441681" flag="0"/>
		</comp>
		<comp name="--.HNZ" depth="0.0">
			<acc value="0.10191481932481" flag="0"/>
			<vel value="0.0371879360163574" flag="0"/>
			<psa03 value="0.325075909683627" flag="0"/>
			<psa10 value="0.0139495337756519" flag="0"/>
			<psa30 value="0.00194982916661302" flag="0"/>
		</comp>
	</station>
	<station code="MGP1" name="MGP1" netid="HI" source="ITSAK Strong Motion Network" insttype="" lat="37.403248" lon="22.140703" esm:processing="manual (Paolucci et al 2011)" esm:quality="good">
		<comp name="--.HNE" depth="0.0">
			<acc value="0.00875313858381833" flag="0"/>
			<vel value="0.0104352959284911" flag="0"/>
			<psa03 value="0.0299584351201317" flag="0"/>
			<psa10 value="0.0167385907244867" flag="0"/>
			<psa30 value="0.00232919929802238" flag="0"/>
		</comp>
		<comp name="--.HNN" depth="0.0">
			<acc value="0.0132559684796943" flag="0"/>
			<vel value="0.0115166391678152" flag="0"/>
			<psa03 value="0.025774316796994" flag="0"/>
			<psa10 value="0.0211449544994615" flag="0"/>
			<psa30 value="0.00257755366694712" flag="0"/>
		</comp>
		<comp name="--.HNZ" depth="0.0">
			<acc value="0.00523152763023254" flag="0"/>
			<vel value="0.00546317656526311" flag="0"/>
			<psa03 value="0.0149243636658479" flag="0"/>
			<psa10 value="0.00807898675572295" flag="0"/>
			<psa30 value="0.00176467919300261" flag="0"/>
		</comp>
	</station>
	<station code="MSL1" name="MSL1" netid="HI" source="ITSAK Strong Motion Network" insttype="" lat="38.3727" lon="21.4243" esm:processing="manual (Paolucci et al 2011)" esm:quality="good">
		<comp name="--.HNE" depth="0.0">
			<acc value="0.0143196930604463" flag="0"/>
			<vel value="0.0153487815370284" flag="0"/>
			<psa03 value="0.0381651022453858" flag="0"/>
			<psa10 value="0.0259285561573547" flag="0"/>
			<psa30 value="0.00242636986490888" flag="0"/>
		</comp>
		<comp name="--.HNN" depth="0.0">
			<acc value="0.0141612554192094" flag="0"/>
			<vel value="0.0143866151677629" flag="0"/>
			<psa03 value="0.0444290111719439" flag="0"/>
			<psa10 value="0.0293271741720786" flag="0"/>
			<psa30 value="0.00213420325569156" flag="0"/>
		</comp>
		<comp name="--.HNZ" depth="0.0">
			<acc value="0.0086512012037724" flag="0"/>
			<vel value="0.00660730017387993" flag="0"/>
			<psa03 value="0.0157939989362499" flag="0"/>
			<psa10 value="0.0148870744080976" flag="0"/>
			<psa30 value="0.000697978423245039" flag="0"/>
		</comp>
	</station>
	<station code="PYL1" name="PYL1" netid="HI" source="ITSAK Strong Motion Network" insttype="" lat="36.914188" lon="21.695161" esm:processing="manual (Paolucci et al 2011)" esm:quality="best">
		<comp name="--.HNE" depth="0.0">
			<acc value="0.0119244018135407" flag="0"/>
			<vel value="0.00404158379272782" flag="0"/>
			<psa03 value="0.0293956297482045" flag="0"/>
			<psa10 value="0.00365633312484517" flag="0"/>
			<psa30 value="0.000446527222050352" flag="0"/>
		</comp>
		<comp name="--.HNN" depth="0.0">
			<acc value="0.0124920853410874" flag="0"/>
			<vel value="0.00371704984665415" flag="0"/>
			<psa03 value="0.0153465768700672" flag="0"/>
			<psa10 value="0.00361203834029308" flag="0"/>
			<psa30 value="0.000335119127570855" flag="0"/>
		</comp>
		<comp name="--.HNZ" depth="0.0">
			<acc value="0.0109724498279061" flag="0"/>
			<vel value="0.00336115423835413" flag="0"/>
			<psa03 value="0.00988802766263806" flag="0"/>
			<psa10 value="0.0021100424641177" flag="0"/>
			<psa30 value="0.000313195446327902" flag="0"/>
		</comp>
	</station>
	<station code="PYR2" name="PYR2" netid="HI" source="ITSAK Strong Motion Network" insttype="" lat="37.6671" lon="21.4506" esm:processing="automatic (Paolucci et al 2011)" esm:quality="best">
		<comp name="--.HNE" depth="0.0">
			<acc value="0.0608453777705981" flag="0"/>
			<vel value="0.0212297928544517" flag="0"/>
			<psa03 value="0.157753314966237" flag="0"/>
			<psa10 value="0.016748262615202" flag="0"/>
			<psa30 value="0.00256998337378569" flag="0"/>
		</comp>
		<comp name="--.HNN" depth="0.0">
			<acc value="0.066313349166674" flag="0"/>
			<vel value="0.0260542574975508" flag="0"/>
			<psa03 value="0.0844080187003192" flag="0"/>
			<psa10 value="0.0188873424437426" flag="0"/>
			<psa30 value="0.00292570568864325" flag="0"/>
		</comp>
		<comp name="--.HNZ" depth="0.0">
			<acc value="0.0413508004072189" flag="0"/>
			<vel value="0.00963620455893212" flag="0"/>
			<psa03 value="0.0564863565272326" flag="0"/>
			<psa10 value="0.00969726677133188" flag="0"/>
			<psa30 value="0.00298141979609611" flag="0"/>
		</comp>
	</station>
	<station code="PYR3" name="PYR3" netid="HI" source="ITSAK Strong Motion Network" insttype="" lat="37.6788" lon="21.46209" esm:processing="automatic (Paolucci et al 2011)" esm:quality="best">
		<comp name="--.HNE" depth="0.0">
			<acc value="0.107899592894716" flag="0"/>
			<vel value="0.0313213786196029" flag="0"/>
			<psa03 value="0.210792943164633" flag="0"/>
			<psa10 value="0.0263420300302095" flag="0"/>
			<psa30 value="0.00365748270694601" flag="0"/>
		</comp>
		<comp name="--.HNN" depth="0.0">
			<acc value="0.0736508824633461" flag="0"/>
			<vel value="0.0404963526499269" flag="0"/>
			<psa03 value="0.153089266412577" flag="0"/>
			<psa10 value="0.0239465457161301" flag="0"/>
			<psa30 value="0.00265212194006259" flag="0"/>
		</comp>
		<comp name="--.HNZ" depth="0.0">
			<acc value="0.0392774599303839" flag="0"/>
			<vel value="0.0144244144605258" flag="0"/>
			<psa03 value="0.0861137462797333" flag="0"/>
			<psa10 value="0.0113431429900538" flag="0"/>
			<psa30 value="0.00224105783408297" flag="0"/>
		</comp>
	</station>
	<station code="VSK1" name="VSK1" netid="HI" source="ITSAK Strong Motion Network" insttype="" lat="38.4091" lon="20.564" esm:processing="automatic (Paolucci et al 2011)" esm:quality="best">
		<comp name="--.HNE" depth="0.0">
			<acc value="0.0196831850613012" flag="0"/>
			<vel value="0.0110659150294187" flag="0"/>
			<psa03 value="0.0463086510541946" flag="0"/>
			<psa10 value="0.00836163266712743" flag="0"/>
			<psa30 value="0.000777598022469402" flag="0"/>
		</comp>
		<comp name="--.HNN" depth="0.0">
			<acc value="0.0227782450609636" flag="0"/>
			<vel value="0.0126113205695787" flag="0"/>
			<psa03 value="0.0480192956260021" flag="0"/>
			<psa10 value="0.0137376719283443" flag="0"/>
			<psa30 value="0.000845760662909806" flag="0"/>
		</comp>
		<comp name="--.HNZ" depth="0.0">
			<acc value="0.0127738250361983" flag="0"/>
			<vel value="0.00667729674970192" flag="0"/>
			<psa03 value="0.0291001178441579" flag="0"/>
			<psa10 value="0.00649322514429871" flag="0"/>
			<psa30 value="0.000476844349014558" flag="0"/>
		</comp>
	</station>
	<station code="ZAK2" name="ZAK2" netid="HI" source="ITSAK Strong Motion Network" insttype="" lat="37.787501" lon="20.899999" esm:processing="automatic (Paolucci et al 2011)" esm:quality="best">
		<comp name="--.HNE" depth="0.0">
			<acc value="0.252768873907696" flag="0"/>
			<vel value="0.144648533681586" flag="0"/>
			<psa03 value="0.551293853845541" flag="0"/>
			<psa10 value="0.169388131132374" flag="0"/>
			<psa30 value="0.00958213393601325" flag="0"/>
		</comp>
		<comp name="--.HNN" depth="0.0">
			<acc value="0.387325555943271" flag="0"/>
			<vel value="0.201769806548427" flag="0"/>
			<psa03 value="1.30029597155993" flag="0"/>
			<psa10 value="0.119928377166409" flag="0"/>
			<psa30 value="0.00852187869930728" flag="0"/>
		</comp>
		<comp name="--.HNZ" depth="0.0">
			<acc value="0.141470241768687" flag="0"/>
			<vel value="0.0720793060131445" flag="0"/>
			<psa03 value="0.397808561198169" flag="0"/>
			<psa10 value="0.0731500208298783" flag="0"/>
			<psa30 value="0.00398904883824163" flag="0"/>
		</comp>
	</station>
	<station code="LXRA" name="LXRA" netid="HL" source="National Observatory of Athens Seismic Network" insttype="" lat="38.20006" lon="20.43718" esm:processing="manual (Paolucci et al 2011)" esm:quality="good">
		<comp name="00.HNE" depth="0.0">
			<acc value="0.0857487236703372" flag="0"/>
			<vel value="0.0366118020358648" flag="0"/>
			<psa03 value="0.226395565488455" flag="0"/>
			<psa10 value="0.0197192327228709" flag="0"/>
			<psa30 value="0.00220355367594988" flag="0"/>
		</comp>
		<comp name="00.HNN" depth="0.0">
			<acc value="0.102490876779547" flag="0"/>
			<vel value="0.0524709772728278" flag="0"/>
			<psa03 value="0.312569055435246" flag="0"/>
			<psa10 value="0.0346022803323728" flag="0"/>
			<psa30 value="0.00377042575172176" flag="0"/>
		</comp>
		<comp name="00.HNZ" depth="0.0">
			<acc value="0.0728694973208782" flag="0"/>
			<vel value="0.0192992884280076" flag="0"/>
			<psa03 value="0.160087615280176" flag="0"/>
			<psa10 value="0.0123985128759893" flag="0"/>
