<?xml version="1.0" encoding="UTF-8" standalone="yes"?>
<!DOCTYPE earthquake SYSTEM "stationlist.dtd">
<stationlist created="" xmlns="ch.ethz.sed.shakemap.usgs.xml">
  <station code="MG02" name="MG02" netid="CL" source="RESIF" insttype="40" lat="38.415" lon="21.947">
    <comp name="02.HHE">
      <acc value="0.0070140509" flag="0"/>
      <vel value="0.0043604706" flag="0"/>
      <psa03 value="0.0155926137" flag="0"/>
      <psa10 value="0.0029773750" flag="0"/>
      <psa30 value="0.0006156649" flag="0"/>
    </comp>
    <comp name="02.HHN">
      <acc value="0.0066595885" flag="0"/>
      <vel value="0.0060937413" flag="0"/>
      <psa03 value="0.0248984665" flag="0"/>
      <psa10 value="0.0072239049" flag="0"/>
      <psa30 value="0.0007179029" flag="0"/>
    </comp>
    <comp name="02.HHZ">
      <acc value="0.0038247168" flag="0"/>
      <vel value="0.0020374544" flag="0"/>
      <psa03 value="0.0139806894" flag="0"/>
      <psa10 value="0.0020660965" flag="0"/>
      <psa30 value="0.0002028695" flag="0"/>
    </comp>
  </station>
  <station code="ROD3" name="ROD3" netid="CL" source="RESIF" insttype="30" lat="38.3081" lon="21.892">
    <comp name="00.HHE">
      <acc value="0.0105621193" flag="0"/>
      <vel value="0.0055003033" flag="0"/>
      <psa03 value="0.0381046377" flag="0"/>
      <psa10 value="0.0092321352" flag="0"/>
      <psa30 value="0.0006923728" flag="0"/>
    </comp>
    <comp name="00.HHN">
      <acc value="0.0090165591" flag="0"/>
      <vel value="0.0058836284" flag="0"/>
      <psa03 value="0.0339972410" flag="0"/>
      <psa10 value="0.0080809567" flag="0"/>
      <psa30 value="0.0010381359" flag="0"/>
    </comp>
    <comp name="00.HHZ">
      <acc value="0.0055176385" flag="0"/>
      <vel value="0.0030279515" flag="0"/>
      <psa03 value="0.0109994919" flag="0"/>
      <psa10 value="0.0038611614" flag="0"/>
      <psa30 value="0.0004207505" flag="0"/>
    </comp>
  </station>
  <station code="AMT" name="AMT" netid="HP" source="NOA" insttype="CMG-3T," lat="37.5324" lon="21.7089">
    <comp name="00.HHE">
      <acc value="0.0158344918" flag="0"/>
      <vel value="0.0091653098" flag="0"/>
      <psa03 value="0.0443311281" flag="0"/>
      <psa10 value="0.0139492437" flag="0"/>
      <psa30 value="0.0008173914" flag="0"/>
    </comp>
    <comp name="00.HHN">
      <acc value="0.0181062440" flag="0"/>
      <vel value="0.0144919892" flag="0"/>
      <psa03 value="0.0469316307" flag="0"/>
      <psa10 value="0.0177481951" flag="0"/>
      <psa30 value="0.0012621073" flag="0"/>
    </comp>
    <comp name="00.HHZ">
      <acc value="0.0091019160" flag="0"/>
      <vel value="0.0042906869" flag="0"/>
      <psa03 value="0.0313346716" flag="0"/>
      <psa10 value="0.0070928848" flag="0"/>
      <psa30 value="0.0003983479" flag="0"/>
    </comp>
  </station>
  <station code="DRO" name="DRO" netid="HP" source="NOA" insttype="120P," lat="37.952" lon="21.71">
    <comp name="--.HHE">
      <acc value="0.0164948198" flag="0"/>
      <vel value="0.0077751556" flag="0"/>
      <psa03 value="0.0391238227" flag="0"/>
      <psa10 value="0.0099012625" flag="0"/>
      <psa30 value="0.0006386804" flag="0"/>
    </comp>
    <comp name="--.HHN">
      <acc value="0.0190517455" flag="0"/>
      <vel value="0.0056595370" flag="0"/>
      <psa03 value="0.0391319497" flag="0"/>
      <psa10 value="0.0087227754" flag="0"/>
      <psa30 value="0.0005689644" flag="0"/>
    </comp>
    <comp name="--.HHZ">
      <acc value="0.0079412212" flag="0"/>
      <vel value="0.0041293538" flag="0"/>
      <psa03 value="0.0182235652" flag="0"/>
      <psa10 value="0.0070155333" flag="0"/>
      <psa30 value="0.0005816649" flag="0"/>
    </comp>
  </station>
  <station code="GUR" name="GUR" netid="HP" source="NOA" insttype="40," lat="37.9363" lon="22.3423">
    <comp name="--.HHE">
      <acc value="0.0033128930" flag="0"/>
      <vel value="0.0026569983" flag="0"/>
      <psa03 value="0.0081692012" flag="0"/>
      <psa10 value="0.0028705058" flag="0"/>
      <psa30 value="0.0002457855" flag="0"/>
    </comp>
    <comp name="--.HHN">
      <acc value="0.0044522455" flag="0"/>
      <vel value="0.0027355946" flag="0"/>
      <psa03 value="0.0135820489" flag="0"/>
      <psa10 value="0.0042287624" flag="0"/>
      <psa30 value="0.0002659732" flag="0"/>
    </comp>
    <comp name="--.HHZ">
      <acc value="0.0023724674" flag="0"/>
      <vel value="0.0009929000" flag="0"/>
      <psa03 value="0.0043860180" flag="0"/>
      <psa10 value="0.0014707395" flag="0"/>
      <psa30 value="0.0001005183" flag="0"/>
    </comp>
  </station>
  <station code="LTHK" name="LTHK" netid="HP" source="NOA" insttype="40," lat="37.7095" lon="20.8367">
    <comp name="--.HHE">
      <acc value="0.3546507010" flag="0"/>
      <vel value="0.0834119880" flag="0"/>
      <psa03 value="0.3625176236" flag="0"/>
      <psa10 value="0.0505275996" flag="0"/>
      <psa30 value="0.0046684426" flag="0"/>
    </comp>
    <comp name="--.HHN">
      <acc value="0.3257654210" flag="0"/>
      <vel value="0.1275788918" flag="0"/>
      <psa03 value="0.8039649674" flag="0"/>
      <psa10 value="0.0545084932" flag="0"/>
      <psa30 value="0.0046803831" flag="0"/>
    </comp>
    <comp name="--.HHZ">
      <acc value="0.1762230380" flag="0"/>
      <vel value="0.0377032432" flag="0"/>
      <psa03 value="0.2205148589" flag="0"/>
      <psa10 value="0.0374643066" flag="0"/>
      <psa30 value="0.0024104690" flag="0"/>
    </comp>
  </station>
  <station code="PVO" name="PVO" netid="HP" source="NOA" insttype="120P," lat="38.616" lon="21.525">
    <comp name="--.HHE">
      <acc value="0.0083178969" flag="0"/>
      <vel value="0.0042425632" flag="0"/>
      <psa03 value="0.0254241411" flag="0"/>
      <psa10 value="0.0066742725" flag="0"/>
      <psa30 value="0.0011447474" flag="0"/>
    </comp>
    <comp name="--.HHN">
      <acc value="0.0057453345" flag="0"/>
      <vel value="0.0034811422" flag="0"/>
      <psa03 value="0.0152062577" flag="0"/>
      <psa10 value="0.0031385735" flag="0"/>
      <psa30 value="0.0004336716" flag="0"/>
    </comp>
    <comp name="--.HHZ">
      <acc value="0.0082002574" flag="0"/>
      <vel value="0.0025145909" flag="0"/>
      <psa03 value="0.0090466727" flag="0"/>
      <psa10 value="0.0035576100" flag="0"/>
      <psa30 value="0.0007104747" flag="0"/>
    </comp>
  </station>
  <station code="DMLN" name="DMLN" netid="HT" source="NOA" insttype="1s-100Hz," lat="38.2385" lon="20.3734">
    <comp name="--.HHE">
      <acc value="0.0634904858" flag="0"/>
      <vel value="0.0296421792" flag="0"/>
      <psa03 value="0.1673277539" flag="0"/>
      <psa10 value="0.0220083237" flag="0"/>
      <psa30 value="0.0012318598" flag="0"/>
    </comp>
    <comp name="--.HHN">
      <acc value="0.0946827971" flag="0"/>
      <vel value="0.0372662502" flag="0"/>
      <psa03 value="0.1655025479" flag="0"/>
      <psa10 value="0.0354244703" flag="0"/>
      <psa30 value="0.0014318171" flag="0"/>
    </comp>
    <comp name="--.HHZ">
      <acc value="0.0598234941" flag="0"/>
      <vel value="0.0157742130" flag="0"/>
      <psa03 value="0.0797288056" flag="0"/>
      <psa10 value="0.0146505833" flag="0"/>
      <psa30 value="0.0009402420" flag="0"/>
    </comp>
  </station>
  <station code="EVGI" name="EVGI" netid="HT" source="NOA" insttype="30" lat="38.621" lon="20.656">
    <comp name="--.HHE">
      <acc value="0.0198873189" flag="0"/>
      <vel value="0.0058436686" flag="0"/>
      <psa03 value="0.0245736524" flag="0"/>
      <psa10 value="0.0047271462" flag="0"/>
      <psa30 value="0.0006874524" flag="0"/>
    </comp>
    <comp name="--.HHN">
      <acc value="nan" flag="0"/>
      <vel value="-100.0000000000" flag="0"/>
      <psa03 value="0.0000000000" flag="0"/>
      <psa10 value="0.0000000000" flag="0"/>
      <psa30 value="0.0000000000" flag="0"/>
    </comp>
    <comp name="--.HHZ">
      <acc value="0.0135817911" flag="0"/>
      <vel value="0.0061826353" flag="0"/>
      <psa03 value="0.0224095727" flag="0"/>
      <psa10 value="0.0034263902" flag="0"/>
      <psa30 value="0.0003355774" flag="0"/>
    </comp>
  </station>
  <station code="NYDR" name="NYDR" netid="HT" source="NOA" insttype="1s-100Hz," lat="38.7135" lon="20.6983">
    <comp name="--.HHE">
      <acc value="0.0072550539" flag="0"/>
      <vel value="0.0051052315" flag="0"/>
      <psa03 value="0.0155553311" flag="0"/>
      <psa10 value="0.0044094480" flag="0"/>
      <psa30 value="0.0005770039" flag="0"/>
    </comp>
    <comp name="--.HHN">
      <acc value="0.0063226186" flag="0"/>
      <vel value="0.0036106979" flag="0"/>
      <psa03 value="0.0130863217" flag="0"/>
      <psa10 value="0.0057009596" flag="0"/>
      <psa30 value="0.0002693213" flag="0"/>
    </comp>
    <comp name="--.HHZ">
      <acc value="0.0044855736" flag="0"/>
      <vel value="0.0029105438" flag="0"/>
      <psa03 value="0.0086160039" flag="0"/>
      <psa10 value="0.0028148936" flag="0"/>
      <psa30 value="0.0002514542" flag="0"/>
    </comp>
  </station>
  <station code="PSDA" name="PSDA" netid="HT" source="NOA" insttype="30" lat="38.114" lon="20.5841">
    <comp name="--.HHE">
      <acc value="0.1042755600" flag="0"/>
      <vel value="0.0616526558" flag="0"/>
      <psa03 value="0.2873658671" flag="0"/>
      <psa10 value="0.0199401676" flag="0"/>
      <psa30 value="0.0013991952" flag="0"/>
    </comp>
    <comp name="--.HHN">
      <acc value="0.1189803910" flag="0"/>
      <vel value="0.0643749948" flag="0"/>
      <psa03 value="0.3677543406" flag="0"/>
      <psa10 value="0.0219524004" flag="0"/>
      <psa30 value="0.0016965902" flag="0"/>
    </comp>
    <comp name="--.HHZ">
      <acc value="0.0966130245" flag="0"/>
      <vel value="0.0266628409" flag="0"/>
      <psa03 value="0.1434077546" flag="0"/>
      <psa10 value="0.0070715814" flag="0"/>
      <psa30 value="0.0005382461" flag="0"/>
    </comp>
  </station>
  <station code="TSLK" name="TSLK" netid="HT" source="NOA" insttype="1s-100Hz," lat="38.8249" lon="20.6554">
    <comp name="--.HHE">
      <acc value="0.0074412916" flag="0"/>
      <vel value="0.0051501225" flag="0"/>
      <psa03 value="0.0195314689" flag="0"/>
      <psa10 value="0.0088535578" flag="0"/>
      <psa30 value="0.0013463516" flag="0"/>
    </comp>
    <comp name="--.HHN">
      <acc value="0.0076093113" flag="0"/>
      <vel value="0.0068908667" flag="0"/>
      <psa03 value="0.0252043505" flag="0"/>
      <psa10 value="0.0093836762" flag="0"/>
      <psa30 value="0.0009481832" flag="0"/>
    </comp>
    <comp name="--.HHZ">
      <acc value="0.0022846341" flag="0"/>
      <vel value="0.0011728886" flag="0"/>
      <psa03 value="0.0066185160" flag="0"/>
      <psa10 value="0.0011856114" flag="0"/>
      <psa30 value="0.0002820219" flag="0"/>
    </comp>
  </station>
</stationlist>
