<?xml version="1.0" encoding="UTF-8" standalone="yes"?>
<!DOCTYPE earthquake SYSTEM "stationlist.dtd">
<stationlist created="" xmlns="ch.ethz.sed.shakemap.usgs.xml">
  <station code="DRA2" name="DRA2" netid="HI" insttype="CMG-5TD,ACCELEROMETER,GURALP" lat="41.1593" lon="24.1485">
    <comp name="--.HNZ">
      <acc value="0.0383477544" flag="0"/>
      <vel value="0.0113666597" flag="0"/>
      <psa03 value="0.0508756892" flag="0"/>
      <psa10 value="0.0063072120" flag="0"/>
      <psa30 value="0.0004066405" flag="0"/>
    </comp>
    <comp name="--.HNN">
      <acc value="0.0601780770" flag="0"/>
      <vel value="0.0244523040" flag="0"/>
      <psa03 value="0.2000881857" flag="0"/>
      <psa10 value="0.0083990911" flag="0"/>
      <psa30 value="0.0007010279" flag="0"/>
    </comp>
    <comp name="--.HNE">
      <acc value="0.0635060028" flag="0"/>
      <vel value="0.0241467271" flag="0"/>
      <psa03 value="0.2539717089" flag="0"/>
      <psa10 value="0.0144109867" flag="0"/>
      <psa30 value="0.0009153938" flag="0"/>
    </comp>
  </station>
  <station code="PLN1" name="PLN1" netid="HI" insttype="CMG-5TD,ACCELEROMETER,GURALP" lat="39.998" lon="23.575">
    <comp name="--.HNE">
      <acc value="0.0430655010" flag="0"/>
      <vel value="0.0255568514" flag="0"/>
      <psa03 value="0.0697651837" flag="0"/>
      <psa10 value="0.0410896834" flag="0"/>
      <psa30 value="0.0045103733" flag="0"/>
    </comp>
    <comp name="--.HNZ">
      <acc value="0.0639552531" flag="0"/>
      <vel value="0.0175032026" flag="0"/>
      <psa03 value="0.0668324061" flag="0"/>
      <psa10 value="0.0186465327" flag="0"/>
      <psa30 value="0.0019717459" flag="0"/>
    </comp>
    <comp name="--.HNN">
      <acc value="0.0439998923" flag="0"/>
      <vel value="0.0376616584" flag="0"/>
      <psa03 value="0.1087862746" flag="0"/>
      <psa10 value="0.0430440393" flag="0"/>
      <psa30 value="0.0045433165" flag="0"/>
    </comp>
  </station>
  <station code="PLG" name="PLG" netid="HL" insttype="120" lat="40.3733" lon="23.4444">
    <comp name="--.HHE">
      <acc value="0.0952260462" flag="0"/>
      <vel value="0.0169575902" flag="0"/>
      <psa03 value="0.0650677230" flag="0"/>
      <psa10 value="0.0109517721" flag="0"/>
      <psa30 value="0.0020814109" flag="0"/>
    </comp>
    <comp name="--.HHN">
      <acc value="0.0821824758" flag="0"/>
      <vel value="0.0276420838" flag="0"/>
      <psa03 value="0.0722334236" flag="0"/>
      <psa10 value="0.0270500485" flag="0"/>
      <psa30 value="0.0019009718" flag="0"/>
    </comp>
    <comp name="--.HHZ">
      <acc value="0.0594863537" flag="0"/>
      <vel value="0.0188604843" flag="0"/>
      <psa03 value="0.0753502902" flag="0"/>
      <psa10 value="0.0145484767" flag="0"/>
      <psa30 value="0.0009518674" flag="0"/>
    </comp>
  </station>
  <station code="HORT" name="HORT" netid="HT" insttype="100" lat="40.5978" lon="23.0996">
    <comp name="--.HHE">
      <acc value="0.0409513400" flag="0"/>
      <vel value="0.0084907042" flag="0"/>
      <psa03 value="0.0336017312" flag="0"/>
      <psa10 value="0.0074745201" flag="0"/>
      <psa30 value="0.0011850195" flag="0"/>
    </comp>
    <comp name="--.HHZ">
      <acc value="0.0298604644" flag="0"/>
      <vel value="0.0046697703" flag="0"/>
      <psa03 value="0.0140448266" flag="0"/>
      <psa10 value="0.0036355195" flag="0"/>
      <psa30 value="0.0004487323" flag="0"/>
    </comp>
    <comp name="--.HHN">
      <acc value="0.0000103722" flag="0"/>
      <vel value="0.0000019721" flag="0"/>
      <psa03 value="0.0000092595" flag="0"/>
      <psa10 value="0.0000018979" flag="0"/>
      <psa30 value="0.0000003682" flag="0"/>
    </comp>
  </station>
  <station code="KAVA" name="KAVA" netid="HT" insttype="Compact," lat="40.9967" lon="24.5137">
    <comp name="--.HHE">
      <acc value="0.1726634364" flag="0"/>
      <vel value="0.0300955109" flag="0"/>
      <psa03 value="0.1254862761" flag="0"/>
      <psa10 value="0.0237646489" flag="0"/>
      <psa30 value="0.0020280399" flag="0"/>
    </comp>
    <comp name="--.HHN">
      <acc value="0.1495108337" flag="0"/>
      <vel value="0.0281424183" flag="0"/>
      <psa03 value="0.1344221084" flag="0"/>
      <psa10 value="0.0103078530" flag="0"/>
      <psa30 value="0.0018651083" flag="0"/>
    </comp>
    <comp name="--.HHZ">
      <acc value="0.1196405045" flag="0"/>
      <vel value="0.0217337870" flag="0"/>
      <psa03 value="0.0982018667" flag="0"/>
      <psa10 value="0.0155635313" flag="0"/>
      <psa30 value="0.0019112867" flag="0"/>
    </comp>
  </station>
  <station code="OUR" name="OUR" netid="HT" insttype="100" lat="40.3325" lon="23.9791">
    <comp name="--.HHZ">
      <acc value="0.9757903783" flag="0"/>
      <vel value="0.2203082324" flag="0"/>
      <psa03 value="0.5859151343" flag="0"/>
      <psa10 value="0.1353930449" flag="0"/>
      <psa30 value="0.0092934316" flag="0"/>
    </comp>
    <comp name="--.HHN">
      <acc value="1.0582418179" flag="0"/>
      <vel value="0.2661243798" flag="0"/>
      <psa03 value="0.9117432046" flag="0"/>
      <psa10 value="0.3142226203" flag="0"/>
      <psa30 value="0.0179224215" flag="0"/>
    </comp>
    <comp name="--.HHE">
      <acc value="0.9985411290" flag="0"/>
      <vel value="0.2749371893" flag="0"/>
      <psa03 value="1.1924066261" flag="0"/>
      <psa10 value="0.2592282364" flag="0"/>
      <psa30 value="0.0176828387" flag="0"/>
    </comp>
  </station>
  <station code="PAIG" name="PAIG" netid="HT" insttype="100" lat="39.9363" lon="23.6768">
    <comp name="--.HHE">
      <acc value="0.0748041876" flag="0"/>
      <vel value="0.0144510508" flag="0"/>
      <psa03 value="0.0427268490" flag="0"/>
      <psa10 value="0.0126338422" flag="0"/>
      <psa30 value="0.0016007580" flag="0"/>
    </comp>
    <comp name="--.HHZ">
      <acc value="0.0664253816" flag="0"/>
      <vel value="0.0084869954" flag="0"/>
      <psa03 value="0.0244972454" flag="0"/>
      <psa10 value="0.0048094553" flag="0"/>
      <psa30 value="0.0024996866" flag="0"/>
    </comp>
    <comp name="--.HHN">
      <acc value="0.0715180027" flag="0"/>
      <vel value="0.0130815430" flag="0"/>
      <psa03 value="0.0475361059" flag="0"/>
      <psa10 value="0.0104531631" flag="0"/>
      <psa30 value="0.0017674815" flag="0"/>
    </comp>
  </station>
  <station code="SOH" name="SOH" netid="HT" insttype="120P," lat="40.8217" lon="23.3539">
    <comp name="--.HHE">
      <acc value="0.0346691859" flag="0"/>
      <vel value="0.0328658568" flag="0"/>
      <psa03 value="0.1074353279" flag="0"/>
      <psa10 value="0.0358462336" flag="0"/>
      <psa30 value="0.0024524195" flag="0"/>
    </comp>
    <comp name="--.HHN">
      <acc value="0.0348423866" flag="0"/>
      <vel value="0.0164052617" flag="0"/>
      <psa03 value="0.1371748221" flag="0"/>
      <psa10 value="0.0179176188" flag="0"/>
      <psa30 value="0.0025368407" flag="0"/>
    </comp>
    <comp name="--.HHZ">
      <acc value="0.0209359881" flag="0"/>
      <vel value="0.0094971325" flag="0"/>
      <psa03 value="0.0698962367" flag="0"/>
      <psa10 value="0.0096794604" flag="0"/>
      <psa30 value="0.0009763871" flag="0"/>
    </comp>
  </station>
  <station code="SRS" name="SRS" netid="HT" insttype="100" lat="41.1087" lon="23.595">
    <comp name="--.HHE">
      <acc value="0.0359364493" flag="0"/>
      <vel value="0.0121565855" flag="0"/>
      <psa03 value="0.0407814860" flag="0"/>
      <psa10 value="0.0120492922" flag="0"/>
      <psa30 value="0.0018724514" flag="0"/>
    </comp>
    <comp name="--.HHN">
      <acc value="0.0349813744" flag="0"/>
      <vel value="0.0095071955" flag="0"/>
      <psa03 value="0.0341468450" flag="0"/>
      <psa10 value="0.0073749794" flag="0"/>
      <psa30 value="0.0009005313" flag="0"/>
    </comp>
    <comp name="--.HHZ">
      <acc value="0.0219941283" flag="0"/>
      <vel value="0.0076439689" flag="0"/>
      <psa03 value="0.0192067051" flag="0"/>
      <psa10 value="0.0074228777" flag="0"/>
      <psa30 value="0.0004964924" flag="0"/>
    </comp>
  </station>
  <station code="THAS" name="THAS" netid="HT" insttype="100" lat="40.6064" lon="24.7194">
    <comp name="--.HHZ">
      <acc value="0.1380476691" flag="0"/>
      <vel value="0.0490575862" flag="0"/>
      <psa03 value="0.2272343394" flag="0"/>
      <psa10 value="0.0293173026" flag="0"/>
      <psa30 value="0.0019770807" flag="0"/>
    </comp>
    <comp name="--.HHE">
      <acc value="0.1592317542" flag="0"/>
      <vel value="0.0666813365" flag="0"/>
      <psa03 value="0.2255371887" flag="0"/>
      <psa10 value="0.0389847021" flag="0"/>
      <psa30 value="0.0028703797" flag="0"/>
    </comp>
    <comp name="--.HHN">
      <acc value="0.1897068895" flag="0"/>
      <vel value="0.0582764877" flag="0"/>
      <psa03 value="0.2541286643" flag="0"/>
      <psa10 value="0.0209302519" flag="0"/>
      <psa30 value="0.0025473231" flag="0"/>
    </comp>
  </station>
  <station code="THE" name="THE" netid="HT" insttype="30s-100Hz," lat="40.6319" lon="22.9628">
    <comp name="--.HHE">
      <acc value="0.0113883287" flag="0"/>
      <vel value="0.0032408002" flag="0"/>
      <psa03 value="0.0124942933" flag="0"/>
      <psa10 value="0.0048446602" flag="0"/>
      <psa30 value="0.0005485320" flag="0"/>
    </comp>
    <comp name="--.HHZ">
      <acc value="0.0065017291" flag="0"/>
      <vel value="0.0026625903" flag="0"/>
      <psa03 value="0.0112561122" flag="0"/>
      <psa10 value="0.0034906136" flag="0"/>
      <psa30 value="0.0004231581" flag="0"/>
    </comp>
    <comp name="--.HHN">
      <acc value="0.0078282171" flag="0"/>
      <vel value="0.0039516794" flag="0"/>
      <psa03 value="0.0102087246" flag="0"/>
      <psa10 value="0.0055413521" flag="0"/>
      <psa30 value="0.0006488735" flag="0"/>
    </comp>
  </station>
</stationlist>
