<?xml version="1.0" encoding="UTF-8" standalone="yes"?>
<!DOCTYPE earthquake SYSTEM "stationlist.dtd">
<stationlist created="" xmlns="ch.ethz.sed.shakemap.usgs.xml">
  <station code="DRA2" name="DRA2" netid="HI" insttype="CMG-5TD,ACCELEROMETER,GURALP" lat="41.1593" lon="24.1485">
    <comp name="--.HNE">
      <acc value="0.0635060070" flag="0"/>
      <vel value="0.0241467312" flag="0"/>
      <psa03 value="0.2539717089" flag="0"/>
      <psa10 value="0.0144109858" flag="0"/>
      <psa30 value="0.0009166939" flag="0"/>
    </comp>
    <comp name="--.HNN">
      <acc value="0.0601780756" flag="0"/>
      <vel value="0.0244523060" flag="0"/>
      <psa03 value="0.2000881857" flag="0"/>
      <psa10 value="0.0083990912" flag="0"/>
      <psa30 value="0.0007010358" flag="0"/>
    </comp>
    <comp name="--.HNZ">
      <acc value="0.0383477499" flag="0"/>
      <vel value="0.0113666615" flag="0"/>
      <psa03 value="0.0508756892" flag="0"/>
      <psa10 value="0.0063072121" flag="0"/>
      <psa30 value="0.0004078490" flag="0"/>
    </comp>
  </station>
  <station code="PLN1" name="PLN1" netid="HI" insttype="CMG-5TD,ACCELEROMETER,GURALP" lat="39.998" lon="23.575">
    <comp name="--.HNN">
      <acc value="0.0439998947" flag="0"/>
      <vel value="0.0376616587" flag="0"/>
      <psa03 value="0.1087862746" flag="0"/>
      <psa10 value="0.0430440377" flag="0"/>
      <psa30 value="0.0045430162" flag="0"/>
    </comp>
    <comp name="--.HNE">
      <acc value="0.0430654990" flag="0"/>
      <vel value="0.0255568488" flag="0"/>
      <psa03 value="0.0697651837" flag="0"/>
      <psa10 value="0.0410896838" flag="0"/>
      <psa30 value="0.0045099843" flag="0"/>
    </comp>
    <comp name="--.HNZ">
      <acc value="0.0639552550" flag="0"/>
      <vel value="0.0175032030" flag="0"/>
      <psa03 value="0.0668324061" flag="0"/>
      <psa10 value="0.0186465364" flag="0"/>
      <psa30 value="0.0019717305" flag="0"/>
    </comp>
  </station>
  <station code="HORT" name="HORT" netid="HT" insttype="100" lat="40.5978" lon="23.0996">
    <comp name="--.HHN">
      <acc value="0.0000103741" flag="0"/>
      <vel value="0.0000019721" flag="0"/>
      <psa03 value="0.0000092596" flag="0"/>
      <psa10 value="0.0000019125" flag="0"/>
      <psa30 value="0.0000003924" flag="0"/>
    </comp>
    <comp name="--.HHE">
      <acc value="0.0409513402" flag="0"/>
      <vel value="0.0084907042" flag="0"/>
      <psa03 value="0.0336017312" flag="0"/>
      <psa10 value="0.0074745201" flag="0"/>
      <psa30 value="0.0011850544" flag="0"/>
    </comp>
    <comp name="--.HHZ">
      <acc value="0.0298604651" flag="0"/>
      <vel value="0.0046697710" flag="0"/>
      <psa03 value="0.0140448266" flag="0"/>
      <psa10 value="0.0036355195" flag="0"/>
      <psa30 value="0.0004487185" flag="0"/>
    </comp>
  </station>
  <station code="KAVA" name="KAVA" netid="HT" insttype="Compact," lat="40.9967" lon="24.5137">
    <comp name="--.HHE">
      <acc value="0.1726634366" flag="0"/>
      <vel value="0.0300955116" flag="0"/>
      <psa03 value="0.1254862761" flag="0"/>
      <psa10 value="0.0237646488" flag="0"/>
      <psa30 value="0.0020281409" flag="0"/>
    </comp>
    <comp name="--.HHN">
      <acc value="0.1495108341" flag="0"/>
      <vel value="0.0281424199" flag="0"/>
      <psa03 value="0.1344221084" flag="0"/>
      <psa10 value="0.0103078534" flag="0"/>
      <psa30 value="0.0018645965" flag="0"/>
    </comp>
    <comp name="--.HHZ">
      <acc value="0.1196405042" flag="0"/>
      <vel value="0.0217337864" flag="0"/>
      <psa03 value="0.0982018667" flag="0"/>
      <psa10 value="0.0155635316" flag="0"/>
      <psa30 value="0.0019108673" flag="0"/>
    </comp>
  </station>
  <station code="OUR" name="OUR" netid="HT" insttype="100" lat="40.3325" lon="23.9791">
    <comp name="--.HHE">
      <acc value="0.9985411292" flag="0"/>
      <vel value="0.2749370767" flag="0"/>
      <psa03 value="1.1924066260" flag="0"/>
      <psa10 value="0.2592282440" flag="0"/>
      <psa30 value="0.0176839816" flag="0"/>
    </comp>
    <comp name="--.HHN">
      <acc value="1.0582418182" flag="0"/>
      <vel value="0.2661243843" flag="0"/>
      <psa03 value="0.9117432046" flag="0"/>
      <psa10 value="0.3142226157" flag="0"/>
      <psa30 value="0.0179214830" flag="0"/>
    </comp>
    <comp name="--.HHZ">
      <acc value="0.8606882978" flag="0"/>
      <vel value="0.1536408299" flag="0"/>
      <psa03 value="0.5859151340" flag="0"/>
      <psa10 value="0.1353930031" flag="0"/>
      <psa30 value="0.0093173542" flag="0"/>
    </comp>
  </station>
  <station code="PAIG" name="PAIG" netid="HT" insttype="100" lat="39.9363" lon="23.6768">
    <comp name="--.HHN">
      <acc value="0.0715180028" flag="0"/>
      <vel value="0.0130815448" flag="0"/>
      <psa03 value="0.0475361059" flag="0"/>
      <psa10 value="0.0104531636" flag="0"/>
      <psa30 value="0.0017675396" flag="0"/>
    </comp>
    <comp name="--.HHE">
      <acc value="0.0748041885" flag="0"/>
      <vel value="0.0144510466" flag="0"/>
      <psa03 value="0.0427268491" flag="0"/>
      <psa10 value="0.0126338429" flag="0"/>
      <psa30 value="0.0016008473" flag="0"/>
    </comp>
    <comp name="--.HHZ">
      <acc value="0.0664253810" flag="0"/>
      <vel value="0.0084869933" flag="0"/>
      <psa03 value="0.0244972454" flag="0"/>
      <psa10 value="0.0048094556" flag="0"/>
      <psa30 value="0.0024995432" flag="0"/>
    </comp>
  </station>
  <station code="SOH" name="SOH" netid="HT" insttype="120P," lat="40.8217" lon="23.3539">
    <comp name="--.HHZ">
      <acc value="0.0209359883" flag="0"/>
      <vel value="0.0094971323" flag="0"/>
      <psa03 value="0.0698962367" flag="0"/>
      <psa10 value="0.0096794604" flag="0"/>
      <psa30 value="0.0009763511" flag="0"/>
    </comp>
    <comp name="--.HHE">
      <acc value="0.0346691861" flag="0"/>
      <vel value="0.0328658575" flag="0"/>
      <psa03 value="0.1074353279" flag="0"/>
      <psa10 value="0.0358462336" flag="0"/>
      <psa30 value="0.0024523440" flag="0"/>
    </comp>
    <comp name="--.HHN">
      <acc value="0.0348423868" flag="0"/>
      <vel value="0.0164052643" flag="0"/>
      <psa03 value="0.1371748221" flag="0"/>
      <psa10 value="0.0179176188" flag="0"/>
      <psa30 value="0.0025368176" flag="0"/>
    </comp>
  </station>
  <station code="SRS" name="SRS" netid="HT" insttype="100" lat="41.1087" lon="23.595">
    <comp name="--.HHZ">
      <acc value="0.0219941284" flag="0"/>
      <vel value="0.0076439690" flag="0"/>
      <psa03 value="0.0192067051" flag="0"/>
      <psa10 value="0.0074228777" flag="0"/>
      <psa30 value="0.0004964756" flag="0"/>
    </comp>
    <comp name="--.HHE">
      <acc value="0.0359364489" flag="0"/>
      <vel value="0.0121565852" flag="0"/>
      <psa03 value="0.0407814860" flag="0"/>
      <psa10 value="0.0120492922" flag="0"/>
      <psa30 value="0.0018724535" flag="0"/>
    </comp>
    <comp name="--.HHN">
      <acc value="0.0349813744" flag="0"/>
      <vel value="0.0095071949" flag="0"/>
      <psa03 value="0.0341468450" flag="0"/>
      <psa10 value="0.0073749794" flag="0"/>
      <psa30 value="0.0009005488" flag="0"/>
    </comp>
  </station>
  <station code="THE" name="THE" netid="HT" insttype="30s-100Hz," lat="40.6319" lon="22.9628">
    <comp name="--.HHE">
      <acc value="0.0113883290" flag="0"/>
      <vel value="0.0032408020" flag="0"/>
      <psa03 value="0.0124942933" flag="0"/>
      <psa10 value="0.0048446604" flag="0"/>
      <psa30 value="0.0005485001" flag="0"/>
    </comp>
    <comp name="--.HHZ">
      <acc value="0.0065017297" flag="0"/>
      <vel value="0.0026625907" flag="0"/>
      <psa03 value="0.0112561122" flag="0"/>
      <psa10 value="0.0034906137" flag="0"/>
      <psa30 value="0.0004231170" flag="0"/>
    </comp>
    <comp name="--.HHN">
      <acc value="0.0078282171" flag="0"/>
      <vel value="0.0039516785" flag="0"/>
      <psa03 value="0.0102087246" flag="0"/>
      <psa10 value="0.0055413521" flag="0"/>
      <psa30 value="0.0006488716" flag="0"/>
    </comp>
  </station>
</stationlist>
