<stationlist created="1778136512">
	<station code="KRL1" name="KRL1" netid="HI" source="ITSAK Strong Motion Network" insttype="" lat="37.7951" lon="26.7065">
		<comp name="--.HNE" depth="0.0">
			<acc value="0.0107700604361017" flag="0"/>
			<vel value="0.00752388169216783" flag="0"/>
			<psa03 value="0.0438473624859063" flag="0"/>
			<psa10 value="0.00765897092891576" flag="0"/>
			<psa30 value="0.000762407200775351" flag="0"/>
		</comp>
		<comp name="--.HNN" depth="0.0">
			<acc value="0.00816346474894362" flag="0"/>
			<vel value="0.00491833863500029" flag="0"/>
			<psa03 value="0.0285902700290757" flag="0"/>
			<psa10 value="0.0103730331823801" flag="0"/>
			<psa30 value="0.00060088783488339" flag="0"/>
		</comp>
		<comp name="--.HNZ" depth="0.0">
			<acc value="0.00423491121793312" flag="0"/>
			<vel value="0.0028404753543348" flag="0"/>
			<psa03 value="0.0120356535803151" flag="0"/>
			<psa10 value="0.00493282827966446" flag="0"/>
			<psa30 value="0.000494401383131903" flag="0"/>
		</comp>
	</station>
	<station code="RDI1" name="RDI1" netid="HI" source="ITSAK Strong Motion Network" insttype="" lat="36.4514" lon="28.224">
		<comp name="--.HNE" depth="0.0">
			<acc value="0.010230216652743" flag="0"/>
			<vel value="0.0103135466341175" flag="0"/>
			<psa03 value="0.0297088251945324" flag="0"/>
			<psa10 value="0.0155635765721658" flag="0"/>
			<psa30 value="0.00315387814452198" flag="0"/>
		</comp>
		<comp name="--.HNN" depth="0.0">
			<acc value="0.0113915212880027" flag="0"/>
			<vel value="0.0092115369923054" flag="0"/>
			<psa03 value="0.0289929498886401" flag="0"/>
			<psa10 value="0.0147864044432064" flag="0"/>
			<psa30 value="0.00247737598045371" flag="0"/>
		</comp>
		<comp name="--.HNZ" depth="0.0">
			<acc value="0.00988656351977418" flag="0"/>
			<vel value="0.00695889608536706" flag="0"/>
			<psa03 value="0.0210288371105877" flag="0"/>
			<psa10 value="0.0137112492181694" flag="0"/>
			<psa30 value="0.00127560031068693" flag="0"/>
		</comp>
	</station>
	<station code="SIT2" name="SIT2" netid="HI" source="ITSAK Strong Motion Network" insttype="" lat="35.2059" lon="26.107">
		<comp name="--.HNE" depth="0.0">
			<acc value="0.0067727460684131" flag="0"/>
			<vel value="0.00547747011654001" flag="0"/>
			<psa03 value="0.0186575001598193" flag="0"/>
			<psa10 value="0.00596368872014944" flag="0"/>
			<psa30 value="0.000528852882227972" flag="0"/>
		</comp>
		<comp name="--.HNN" depth="0.0">
			<acc value="0.00798165797672616" flag="0"/>
			<vel value="0.0057817389884038" flag="0"/>
			<psa03 value="0.0245634714334312" flag="0"/>
			<psa10 value="0.00856902741153141" flag="0"/>
			<psa30 value="0.000355253120549078" flag="0"/>
		</comp>
		<comp name="--.HNZ" depth="0.0">
			<acc value="0.00467549187904938" flag="0"/>
			<vel value="0.00209111286935404" flag="0"/>
			<psa03 value="0.0127067866795892" flag="0"/>
			<psa10 value="0.00198923850624836" flag="0"/>
			<psa30 value="0.000172257495480346" flag="0"/>
		</comp>
	</station>
	<station code="KLNA" name="KLNA" netid="HL" source="National Observatory of Athens Seismic Network" insttype="" lat="36.95708" lon="26.97274">
		<comp name="00.HNE" depth="0.0">
			<acc value="0.0536576209950556" flag="0"/>
			<vel value="0.0179291625234232" flag="0"/>
			<psa03 value="0.126396733696618" flag="0"/>
			<psa10 value="0.00858513460591399" flag="0"/>
			<psa30 value="0.000776724706893197" flag="0"/>
		</comp>
		<comp name="00.HNN" depth="0.0">
			<acc value="0.0435866911982195" flag="0"/>
			<vel value="0.0148978256325932" flag="0"/>
			<psa03 value="0.12375694350614" flag="0"/>
			<psa10 value="0.00408720057457912" flag="0"/>
			<psa30 value="0.000517667330573404" flag="0"/>
		</comp>
		<comp name="00.HNZ" depth="0.0">
			<acc value="0.0513157901336057" flag="0"/>
			<vel value="0.013295825623795" flag="0"/>
			<psa03 value="0.0488584896271528" flag="0"/>
			<psa10 value="0.00313284930741139" flag="0"/>
			<psa30 value="0.000634444489847093" flag="0"/>
		</comp>
	</station>
	<station code="NISR" name="NISR" netid="HL" source="National Observatory of Athens Seismic Network" insttype="" lat="36.6106" lon="27.131">
		<comp name="--.HNE" depth="0.0">
			<acc value="1.22274284190741" flag="0"/>
			<vel value="0.519578635078279" flag="0"/>
			<psa03 value="1.59300152443695" flag="0"/>
			<psa10 value="0.263340547759361" flag="0"/>
			<psa30 value="0.0264077451902363" flag="0"/>
		</comp>
		<comp name="--.HNN" depth="0.0">
			<acc value="1.33841187635407" flag="0"/>
			<vel value="0.276224613315996" flag="0"/>
			<psa03 value="0.765360186412157" flag="0"/>
			<psa10 value="0.131845439618591" flag="0"/>
			<psa30 value="0.0145242151124234" flag="0"/>
		</comp>
		<comp name="--.HNZ" depth="0.0">
			<acc value="1.47679781296653" flag="0"/>
			<vel value="0.202843006151893" flag="0"/>
			<psa03 value="0.497264884355472" flag="0"/>
			<psa10 value="0.148822422497828" flag="0"/>
			<psa30 value="0.00790102626672061" flag="0"/>
		</comp>
	</station>
	<station code="RODB" name="RODB" netid="HL" source="National Observatory of Athens Seismic Network" insttype="" lat="36.4471" lon="28.22116">
		<comp name="00.HNE" depth="0.0">
			<acc value="0.0100742441722878" flag="0"/>
			<vel value="0.00959417512846298" flag="0"/>
			<psa03 value="0.0291719187151132" flag="0"/>
			<psa10 value="0.0175085202938621" flag="0"/>
			<psa30 value="0.00210154144486022" flag="0"/>
		</comp>
		<comp name="00.HNN" depth="0.0">
			<acc value="0.0141743906417745" flag="0"/>
			<vel value="0.0134315651317288" flag="0"/>
			<psa03 value="0.0405364391961542" flag="0"/>
			<psa10 value="0.0142105722440293" flag="0"/>
			<psa30 value="0.0024205533780485" flag="0"/>
		</comp>
		<comp name="00.HNZ" depth="0.0">
			<acc value="0.0124877719259469" flag="0"/>
			<vel value="0.00650614549075432" flag="0"/>
			<psa03 value="0.0229527519951734" flag="0"/>
			<psa10 value="0.00904418964581745" flag="0"/>
			<psa30 value="0.00126217764870145" flag="0"/>
		</comp>
	</station>
	<station code="SMG" name="SMG" netid="HL" source="National Observatory of Athens Seismic Network" insttype="" lat="37.70425" lon="26.83772">
		<comp name="00.HNE" depth="0.0">
			<acc value="0.00903972455518963" flag="0"/>
			<vel value="0.00487255369580879" flag="0"/>
			<psa03 value="0.0419681898079389" flag="0"/>
			<psa10 value="0.00411136136615299" flag="0"/>
			<psa30 value="0.000588360017030273" flag="0"/>
		</comp>
		<comp name="00.HNN" depth="0.0">
			<acc value="0.0110019543032468" flag="0"/>
			<vel value="0.00493820390591595" flag="0"/>
			<psa03 value="0.0276506836900919" flag="0"/>
			<psa10 value="0.00268587466329485" flag="0"/>
			<psa30 value="0.000526168349830876" flag="0"/>
		</comp>
		<comp name="00.HNZ" depth="0.0">
			<acc value="0.00466944003425675" flag="0"/>
			<vel value="0.00206927811031292" flag="0"/>
			<psa03 value="0.0137805996384277" flag="0"/>
			<psa10 value="0.00228319480373041" flag="0"/>
			<psa30 value="0.000254583155657966" flag="0"/>
		</comp>
	</station>
</stationlist>
