<?xml version="1.0" encoding="UTF-8" standalone="yes"?>
<!DOCTYPE earthquake SYSTEM "stationlist.dtd">
<stationlist created="" xmlns="ch.ethz.sed.shakemap.usgs.xml">
  <station code="RDI1" name="RDI1" netid="HI" insttype="CMG-5TD,ACCELEROMETER,GURALP" lat="36.4514" lon="28.224">
    <comp name="--.HNE">
      <acc value="0.0103251095" flag="0"/>
      <vel value="0.0094612516" flag="0"/>
      <psa03 value="0.0300047777" flag="0"/>
      <psa10 value="0.0155596011" flag="0"/>
      <psa30 value="0.0028667614" flag="0"/>
    </comp>
    <comp name="--.HNZ">
      <acc value="0.0097748274" flag="0"/>
      <vel value="0.0070879016" flag="0"/>
      <psa03 value="0.0212728687" flag="0"/>
      <psa10 value="0.0136929307" flag="0"/>
      <psa30 value="0.0011446252" flag="0"/>
    </comp>
    <comp name="--.HNN">
      <acc value="0.0114532796" flag="0"/>
      <vel value="0.0089362393" flag="0"/>
      <psa03 value="0.0292125116" flag="0"/>
      <psa10 value="0.0147590921" flag="0"/>
      <psa30 value="0.0019520891" flag="0"/>
    </comp>
  </station>
  <station code="ARG" name="ARG" netid="HL" insttype="LE3D20_DR24" lat="36.2136" lon="28.1212">
    <comp name="--.HHN">
      <acc value="0.0250437959" flag="0"/>
      <vel value="0.0097068842" flag="0"/>
      <psa03 value="0.0328357153" flag="0"/>
      <psa10 value="0.0069796231" flag="0"/>
      <psa30 value="0.0008888760" flag="0"/>
    </comp>
    <comp name="--.HHE">
      <acc value="0.0558842935" flag="0"/>
      <vel value="0.0230940671" flag="0"/>
      <psa03 value="0.0706135190" flag="0"/>
      <psa10 value="0.0092991684" flag="0"/>
      <psa30 value="0.0015598088" flag="0"/>
    </comp>
    <comp name="--.HHZ">
      <acc value="0.0155976360" flag="0"/>
      <vel value="0.0091856720" flag="0"/>
      <psa03 value="0.0214997026" flag="0"/>
      <psa10 value="0.0059126539" flag="0"/>
      <psa30 value="0.0010216928" flag="0"/>
    </comp>
  </station>
  <station code="NISR" name="NISR" netid="HL" insttype="65535" lat="36.6106" lon="27.131">
    <comp name="--.HHZ">
      <acc value="1.3586641425" flag="0"/>
      <vel value="0.1855385346" flag="0"/>
      <psa03 value="0.5642910401" flag="0"/>
      <psa10 value="0.1455774553" flag="0"/>
      <psa30 value="0.0076983767" flag="0"/>
    </comp>
    <comp name="--.HHE">
      <acc value="1.3816239745" flag="0"/>
      <vel value="0.5405657327" flag="0"/>
      <psa03 value="1.7395391438" flag="0"/>
      <psa10 value="0.2601270751" flag="0"/>
      <psa30 value="0.0252317342" flag="0"/>
    </comp>
    <comp name="--.HHN">
      <acc value="1.4215989047" flag="0"/>
      <vel value="0.2588443519" flag="0"/>
      <psa03 value="0.7873977282" flag="0"/>
      <psa10 value="0.1124616276" flag="0"/>
      <psa30 value="0.0121724077" flag="0"/>
    </comp>
  </station>
  <station code="DATC" name="DATC" netid="KO" insttype="CMG-5T" lat="36.7584" lon="27.6602">
    <comp name="--.HNZ">
      <acc value="0.2270669836" flag="0"/>
      <vel value="0.0614717700" flag="0"/>
      <psa03 value="0.1621296644" flag="0"/>
      <psa10 value="0.0382203433" flag="0"/>
      <psa30 value="0.0020290210" flag="0"/>
    </comp>
    <comp name="--.HNE">
      <acc value="0.0859016793" flag="0"/>
      <vel value="0.0625686890" flag="0"/>
      <psa03 value="0.2340094076" flag="0"/>
      <psa10 value="0.0738670042" flag="0"/>
      <psa30 value="0.0047673519" flag="0"/>
    </comp>
    <comp name="--.HNN">
      <acc value="0.1160382446" flag="0"/>
      <vel value="0.0364357214" flag="0"/>
      <psa03 value="0.2282093584" flag="0"/>
      <psa10 value="0.0439762044" flag="0"/>
      <psa30 value="0.0036804054" flag="0"/>
    </comp>
  </station>
</stationlist>
