<?xml version="1.0" encoding="UTF-8" standalone="yes"?>
<!DOCTYPE earthquake SYSTEM "stationlist.dtd">
<stationlist created="" xmlns="ch.ethz.sed.shakemap.usgs.xml">
  <station code="CI18" name="CI18" netid="8C" insttype="" lat="45.8997" lon="6.76995">
    <comp name="00.HHE">
      <acc value="0.2862073422" flag="0"/>
      <vel value="0.0159705264" flag="0"/>
      <psa03 value="0.0425622013" flag="0"/>
      <psa10 value="0.0073870955" flag="0"/>
      <psa30 value="0.0009515731" flag="0"/>
    </comp>
    <comp name="00.HHN">
      <acc value="0.2848830847" flag="0"/>
      <vel value="0.0191508136" flag="0"/>
      <psa03 value="0.0330700162" flag="0"/>
      <psa10 value="0.0047363090" flag="0"/>
      <psa30 value="0.0005683458" flag="0"/>
    </comp>
    <comp name="00.HHZ">
      <acc value="0.0899446496" flag="0"/>
      <vel value="0.0114105040" flag="0"/>
      <psa03 value="0.0361205632" flag="0"/>
      <psa10 value="0.0061526713" flag="0"/>
      <psa30 value="0.0003578397" flag="0"/>
    </comp>
  </station>
  <station code="CI19" name="CI19" netid="8C" insttype="" lat="45.9449" lon="6.89867">
    <comp name="00.HHE">
      <acc value="0.0654420718" flag="0"/>
      <vel value="0.0112960047" flag="0"/>
      <psa03 value="0.0162909737" flag="0"/>
      <psa10 value="0.0049615256" flag="0"/>
      <psa30 value="0.0004136521" flag="0"/>
    </comp>
    <comp name="00.HHN">
      <acc value="0.0509045551" flag="0"/>
      <vel value="0.0105644823" flag="0"/>
      <psa03 value="0.0193634364" flag="0"/>
      <psa10 value="0.0036445414" flag="0"/>
      <psa30 value="0.0003266734" flag="0"/>
    </comp>
    <comp name="00.HHZ">
      <acc value="0.0314629173" flag="0"/>
      <vel value="0.0056554150" flag="0"/>
      <psa03 value="0.0196637911" flag="0"/>
      <psa10 value="0.0032642271" flag="0"/>
      <psa30 value="0.0002084023" flag="0"/>
    </comp>
  </station>
  <station code="CI20" name="CI20" netid="8C" insttype="" lat="45.8203" lon="6.96349">
    <comp name="00.HHE">
      <acc value="0.1023145913" flag="0"/>
      <vel value="0.0182831946" flag="0"/>
      <psa03 value="0.0623347970" flag="0"/>
      <psa10 value="0.0095461498" flag="0"/>
      <psa30 value="0.0005874141" flag="0"/>
    </comp>
    <comp name="00.HHN">
      <acc value="0.2563758069" flag="0"/>
      <vel value="0.0493706087" flag="0"/>
      <psa03 value="0.1140760356" flag="0"/>
      <psa10 value="0.0132388084" flag="0"/>
      <psa30 value="0.0008180428" flag="0"/>
    </comp>
    <comp name="00.HHZ">
      <acc value="0.1445393603" flag="0"/>
      <vel value="0.0290629055" flag="0"/>
      <psa03 value="0.0758727961" flag="0"/>
      <psa10 value="0.0047967295" flag="0"/>
      <psa30 value="0.0004603013" flag="0"/>
    </comp>
  </station>
  <station code="OG02" name="OG02" netid="FR" insttype="TRILLIUM-120QA" lat="46.1542" lon="6.22021">
    <comp name="00.HHE">
      <acc value="0.0321075702" flag="0"/>
      <vel value="0.0091030183" flag="0"/>
      <psa03 value="0.0266563575" flag="0"/>
      <psa10 value="0.0063202647" flag="0"/>
      <psa30 value="0.0007856313" flag="0"/>
    </comp>
    <comp name="00.HHN">
      <acc value="0.0330467888" flag="0"/>
      <vel value="0.0073098612" flag="0"/>
      <psa03 value="0.0206898406" flag="0"/>
      <psa10 value="0.0055617797" flag="0"/>
      <psa30 value="0.0006529901" flag="0"/>
    </comp>
    <comp name="00.HHZ">
      <acc value="0.0267113430" flag="0"/>
      <vel value="0.0066343269" flag="0"/>
      <psa03 value="0.0143114792" flag="0"/>
      <psa10 value="0.0052094781" flag="0"/>
      <psa30 value="0.0010871127" flag="0"/>
    </comp>
  </station>
  <station code="OGAG" name="OGAG" netid="FR" insttype="TRILLIUM-240" lat="44.7878" lon="6.53974">
    <comp name="00.HHE">
      <acc value="0.0136459904" flag="0"/>
      <vel value="0.0089110910" flag="0"/>
      <psa03 value="0.0370251547" flag="0"/>
      <psa10 value="0.0066557892" flag="0"/>
      <psa30 value="0.0004818726" flag="0"/>
    </comp>
    <comp name="00.HHN">
      <acc value="0.0130159080" flag="0"/>
      <vel value="0.0089980378" flag="0"/>
      <psa03 value="0.0333970017" flag="0"/>
      <psa10 value="0.0066871474" flag="0"/>
      <psa30 value="0.0003060770" flag="0"/>
    </comp>
    <comp name="00.HHZ">
      <acc value="0.0105572141" flag="0"/>
      <vel value="0.0057365017" flag="0"/>
      <psa03 value="0.0204385643" flag="0"/>
      <psa10 value="0.0053221960" flag="0"/>
      <psa30 value="0.0002334553" flag="0"/>
    </comp>
  </station>
  <station code="OGCN" name="OGCN" netid="FR" insttype="TRILLIUM-120PH" lat="45.1539" lon="5.08896">
    <comp name="00.HHE">
      <acc value="0.0609643661" flag="0"/>
      <vel value="0.0155088732" flag="0"/>
      <psa03 value="0.1031780781" flag="0"/>
      <psa10 value="0.0094029154" flag="0"/>
      <psa30 value="0.0008872263" flag="0"/>
    </comp>
    <comp name="00.HHN">
      <acc value="0.0490091402" flag="0"/>
      <vel value="0.0173478060" flag="0"/>
      <psa03 value="0.0874633306" flag="0"/>
      <psa10 value="0.0075723998" flag="0"/>
      <psa30 value="0.0007207257" flag="0"/>
    </comp>
    <comp name="00.HHZ">
      <acc value="0.0367020454" flag="0"/>
      <vel value="0.0111746687" flag="0"/>
      <psa03 value="0.0433495872" flag="0"/>
      <psa10 value="0.0042520098" flag="0"/>
      <psa30 value="0.0004463066" flag="0"/>
    </comp>
  </station>
  <station code="OGCY" name="OGCY" netid="FR" insttype="TRILLIUM-120PH" lat="45.4724" lon="6.71235">
    <comp name="00.HHE">
      <acc value="0.0449899889" flag="0"/>
      <vel value="0.0227135603" flag="0"/>
      <psa03 value="0.0997142798" flag="0"/>
      <psa10 value="0.0130101321" flag="0"/>
      <psa30 value="0.0010815299" flag="0"/>
    </comp>
    <comp name="00.HHN">
      <acc value="0.0363784160" flag="0"/>
      <vel value="0.0167903166" flag="0"/>
      <psa03 value="0.0895019324" flag="0"/>
      <psa10 value="0.0172040985" flag="0"/>
      <psa30 value="0.0017119567" flag="0"/>
    </comp>
    <comp name="00.HHZ">
      <acc value="0.0282834512" flag="0"/>
      <vel value="0.0126838533" flag="0"/>
      <psa03 value="0.0606952885" flag="0"/>
      <psa10 value="0.0124982556" flag="0"/>
      <psa30 value="0.0009297139" flag="0"/>
    </comp>
  </station>
  <station code="OGMO" name="OGMO" netid="FR" insttype="TRILLIUM-Compact" lat="45.2086" lon="6.68308">
    <comp name="00.HHE">
      <acc value="0.1345677617" flag="0"/>
      <vel value="0.0521677368" flag="0"/>
      <psa03 value="0.3365576260" flag="0"/>
      <psa10 value="0.0112732177" flag="0"/>
      <psa30 value="0.0010353500" flag="0"/>
    </comp>
    <comp name="00.HHN">
      <acc value="0.0787324415" flag="0"/>
      <vel value="0.0329276848" flag="0"/>
      <psa03 value="0.2935503396" flag="0"/>
      <psa10 value="0.0099452642" flag="0"/>
      <psa30 value="0.0009117629" flag="0"/>
    </comp>
    <comp name="00.HHZ">
      <acc value="0.1435085628" flag="0"/>
      <vel value="0.0387087035" flag="0"/>
      <psa03 value="0.1680149227" flag="0"/>
      <psa10 value="0.0123053874" flag="0"/>
      <psa30 value="0.0008766238" flag="0"/>
    </comp>
  </station>
  <station code="OGMY" name="OGMY" netid="FR" insttype="TRILLIUM-120PH" lat="45.881" lon="5.88932">
    <comp name="00.HHE">
      <acc value="0.0507767734" flag="0"/>
      <vel value="0.0250125905" flag="0"/>
      <psa03 value="0.1359207121" flag="0"/>
      <psa10 value="0.0137957256" flag="0"/>
      <psa30 value="0.0011290621" flag="0"/>
    </comp>
    <comp name="00.HHN">
      <acc value="0.0821449658" flag="0"/>
      <vel value="0.0380304959" flag="0"/>
      <psa03 value="0.1562159873" flag="0"/>
      <psa10 value="0.0216491469" flag="0"/>
      <psa30 value="0.0011757569" flag="0"/>
    </comp>
    <comp name="00.HHZ">
      <acc value="0.0361110532" flag="0"/>
      <vel value="0.0118146133" flag="0"/>
      <psa03 value="0.0611960642" flag="0"/>
      <psa10 value="0.0107205465" flag="0"/>
      <psa30 value="0.0016712363" flag="0"/>
    </comp>
  </station>
  <station code="OGS1" name="OGS1" netid="FR" insttype="TRILLIUM-Compact" lat="45.0608" lon="5.80467">
    <comp name="00.HHE">
      <acc value="0.0825111895" flag="0"/>
      <vel value="0.0212869189" flag="0"/>
      <psa03 value="0.0945238970" flag="0"/>
      <psa10 value="0.0047425666" flag="0"/>
      <psa30 value="0.0004303499" flag="0"/>
    </comp>
    <comp name="00.HHN">
      <acc value="0.0619895351" flag="0"/>
      <vel value="0.0172949224" flag="0"/>
      <psa03 value="0.0600841208" flag="0"/>
      <psa10 value="0.0045881538" flag="0"/>
      <psa30 value="0.0003885118" flag="0"/>
    </comp>
    <comp name="00.HHZ">
      <acc value="0.0344513071" flag="0"/>
      <vel value="0.0073747923" flag="0"/>
      <psa03 value="0.0290757485" flag="0"/>
      <psa10 value="0.0025718924" flag="0"/>
      <psa30 value="0.0003784646" flag="0"/>
    </comp>
  </station>
  <station code="OGS2" name="OGS2" netid="FR" insttype="TRILLIUM-Compact" lat="45.0645" lon="5.80132">
    <comp name="00.HHE">
      <acc value="0.0394904037" flag="0"/>
      <vel value="0.0082488218" flag="0"/>
      <psa03 value="0.0447161355" flag="0"/>
      <psa10 value="0.0057208212" flag="0"/>
      <psa30 value="0.0003961955" flag="0"/>
    </comp>
    <comp name="00.HHN">
      <acc value="0.0405865982" flag="0"/>
      <vel value="0.0126834907" flag="0"/>
      <psa03 value="0.0514561376" flag="0"/>
      <psa10 value="0.0051497176" flag="0"/>
      <psa30 value="0.0004557745" flag="0"/>
    </comp>
    <comp name="00.HHZ">
      <acc value="0.0266775382" flag="0"/>
      <vel value="0.0061284226" flag="0"/>
      <psa03 value="0.0293066061" flag="0"/>
      <psa10 value="0.0025756984" flag="0"/>
      <psa30 value="0.0003196479" flag="0"/>
    </comp>
  </station>
  <station code="OGS3" name="OGS3" netid="FR" insttype="" lat="45.0695" lon="5.80607">
    <comp name="00.HNE">
      <acc value="0.0190668059" flag="0"/>
      <vel value="0.0043677856" flag="0"/>
      <psa03 value="0.0142544024" flag="0"/>
      <psa10 value="0.0035645462" flag="0"/>
      <psa30 value="0.0003407265" flag="0"/>
    </comp>
    <comp name="00.HNN">
      <acc value="0.0175450431" flag="0"/>
      <vel value="0.0035438514" flag="0"/>
      <psa03 value="0.0169080929" flag="0"/>
      <psa10 value="0.0037358751" flag="0"/>
      <psa30 value="0.0004893422" flag="0"/>
    </comp>
    <comp name="00.HNZ">
      <acc value="0.0158316831" flag="0"/>
      <vel value="0.0028659530" flag="0"/>
      <psa03 value="0.0163130369" flag="0"/>
      <psa10 value="0.0025891282" flag="0"/>
      <psa30 value="0.0003066317" flag="0"/>
    </comp>
  </station>
  <station code="OGSA" name="OGSA" netid="FR" insttype="TRILLIUM-120PH" lat="45.0368" lon="6.40093">
    <comp name="00.HHE">
      <acc value="0.0247164144" flag="0"/>
      <vel value="0.0102434827" flag="0"/>
      <psa03 value="0.0425636307" flag="0"/>
      <psa10 value="0.0052107911" flag="0"/>
      <psa30 value="0.0003854829" flag="0"/>
    </comp>
    <comp name="00.HHN">
      <acc value="0.0215972949" flag="0"/>
      <vel value="0.0069886516" flag="0"/>
      <psa03 value="0.0351097967" flag="0"/>
      <psa10 value="0.0034512505" flag="0"/>
      <psa30 value="0.0002756347" flag="0"/>
    </comp>
    <comp name="00.HHZ">
      <acc value="0.0251445620" flag="0"/>
      <vel value="0.0078454544" flag="0"/>
      <psa03 value="0.0536770594" flag="0"/>
      <psa10 value="0.0035880387" flag="0"/>
      <psa30 value="0.0001917135" flag="0"/>
    </comp>
  </station>
  <station code="OGSI" name="OGSI" netid="FR" insttype="TRILLIUM-Compact" lat="46.0565" lon="6.75688">
    <comp name="00.HHE">
      <acc value="0.0308948312" flag="0"/>
      <vel value="0.0060945759" flag="0"/>
      <psa03 value="0.0248215567" flag="0"/>
      <psa10 value="0.0023055440" flag="0"/>
      <psa30 value="0.0003146383" flag="0"/>
    </comp>
    <comp name="00.HHN">
      <acc value="0.0238898516" flag="0"/>
      <vel value="0.0052527416" flag="0"/>
      <psa03 value="0.0184561962" flag="0"/>
      <psa10 value="0.0024000912" flag="0"/>
      <psa30 value="0.0002730343" flag="0"/>
    </comp>
    <comp name="00.HHZ">
      <acc value="0.0314836934" flag="0"/>
      <vel value="0.0057945650" flag="0"/>
      <psa03 value="0.0269075007" flag="0"/>
      <psa10 value="0.0037651219" flag="0"/>
      <psa30 value="0.0004188066" flag="0"/>
    </comp>
  </station>
  <station code="OGSM" name="OGSM" netid="FR" insttype="TRILLIUM-120QA" lat="45.6092" lon="5.69722">
    <comp name="00.HHE">
      <acc value="0.0795703243" flag="0"/>
      <vel value="0.0206726079" flag="0"/>
      <psa03 value="0.0916275290" flag="0"/>
      <psa10 value="0.0092151212" flag="0"/>
      <psa30 value="0.0004547747" flag="0"/>
    </comp>
    <comp name="00.HHN">
      <acc value="0.1775794756" flag="0"/>
      <vel value="0.0351735746" flag="0"/>
      <psa03 value="0.1349232262" flag="0"/>
      <psa10 value="0.0106813327" flag="0"/>
      <psa30 value="0.0011615728" flag="0"/>
    </comp>
    <comp name="00.HHZ">
      <acc value="0.1488423688" flag="0"/>
      <vel value="0.0365986255" flag="0"/>
      <psa03 value="0.1962286384" flag="0"/>
      <psa10 value="0.0094361908" flag="0"/>
      <psa30 value="0.0008067722" flag="0"/>
    </comp>
  </station>
  <station code="BHB" name="BHB" netid="GU" insttype="" lat="44.8355" lon="7.263">
    <comp name="--.HHN">
      <acc value="0.0081870547" flag="0"/>
      <vel value="0.0047127872" flag="0"/>
      <psa03 value="0.0219441275" flag="0"/>
      <psa10 value="0.0039129728" flag="0"/>
      <psa30 value="0.0002083522" flag="0"/>
    </comp>
    <comp name="--.HHE">
      <acc value="0.0093034566" flag="0"/>
      <vel value="0.0063912127" flag="0"/>
      <psa03 value="0.0140539798" flag="0"/>
      <psa10 value="0.0055500840" flag="0"/>
      <psa30 value="0.0002852370" flag="0"/>
    </comp>
    <comp name="--.HHZ">
      <acc value="0.0070288405" flag="0"/>
      <vel value="0.0062371907" flag="0"/>
      <psa03 value="0.0145199635" flag="0"/>
      <psa10 value="0.0056797894" flag="0"/>
      <psa30 value="0.0003142152" flag="0"/>
    </comp>
  </station>
  <station code="BLANC" name="BLANC" netid="GU" insttype="" lat="45.8444" lon="6.934">
    <comp name="--.HHE">
      <acc value="0.0629019057" flag="0"/>
      <vel value="0.0330749668" flag="0"/>
      <psa03 value="0.1278969528" flag="0"/>
      <psa10 value="0.0183540558" flag="0"/>
      <psa30 value="0.0012050426" flag="0"/>
    </comp>
    <comp name="--.HHN">
      <acc value="0.0618247531" flag="0"/>
      <vel value="0.0187629790" flag="0"/>
      <psa03 value="0.0395358291" flag="0"/>
      <psa10 value="0.0159356610" flag="0"/>
      <psa30 value="0.0013550427" flag="0"/>
    </comp>
    <comp name="--.HHZ">
      <acc value="0.0323569352" flag="0"/>
      <vel value="0.0106577900" flag="0"/>
      <psa03 value="0.0593637710" flag="0"/>
      <psa10 value="0.0083482879" flag="0"/>
      <psa30 value="0.0006700050" flag="0"/>
    </comp>
  </station>
  <station code="MRGE" name="MRGE" netid="IV" insttype="" lat="45.7698" lon="7.06101">
    <comp name="--.HHE">
      <acc value="0.0585131312" flag="0"/>
      <vel value="0.0097997257" flag="0"/>
      <psa03 value="0.0381683486" flag="0"/>
      <psa10 value="0.0078838981" flag="0"/>
      <psa30 value="0.0005430882" flag="0"/>
    </comp>
    <comp name="--.HHN">
      <acc value="0.0630465934" flag="0"/>
      <vel value="0.0073215904" flag="0"/>
      <psa03 value="0.0213088456" flag="0"/>
      <psa10 value="0.0082901386" flag="0"/>
      <psa30 value="0.0003566887" flag="0"/>
    </comp>
    <comp name="--.HHZ">
      <acc value="0.0465513330" flag="0"/>
      <vel value="0.0066480761" flag="0"/>
      <psa03 value="0.0302139626" flag="0"/>
      <psa10 value="0.0031172235" flag="0"/>
      <psa30 value="0.0004401495" flag="0"/>
    </comp>
  </station>
  <station code="BNI" name="BNI" netid="MN" insttype="" lat="45.052" lon="6.678">
    <comp name="--.HNE">
      <acc value="0.0160342888" flag="0"/>
      <vel value="0.0060421092" flag="0"/>
      <psa03 value="0.0304378250" flag="0"/>
      <psa10 value="0.0032403085" flag="0"/>
      <psa30 value="0.0004260916" flag="0"/>
    </comp>
    <comp name="--.HNN">
      <acc value="0.0283678477" flag="0"/>
      <vel value="0.0080710378" flag="0"/>
      <psa03 value="0.0224542482" flag="0"/>
      <psa10 value="0.0026143399" flag="0"/>
      <psa30 value="0.0002356776" flag="0"/>
    </comp>
    <comp name="--.HNZ">
      <acc value="0.0225264452" flag="0"/>
      <vel value="0.0070532956" flag="0"/>
      <psa03 value="0.0309353964" flag="0"/>
      <psa10 value="0.0035402990" flag="0"/>
      <psa30 value="0.0008048263" flag="0"/>
    </comp>
  </station>
  <station code="AVM" name="AVM" netid="MT" insttype="CMG40-T" lat="44.9425" lon="5.67542">
    <comp name="02.HHE">
      <acc value="0.0609283801" flag="0"/>
      <vel value="0.0121479046" flag="0"/>
      <psa03 value="0.0629045138" flag="0"/>
      <psa10 value="0.0079636987" flag="0"/>
      <psa30 value="0.0003414265" flag="0"/>
    </comp>
    <comp name="02.HHN">
      <acc value="0.0445514764" flag="0"/>
      <vel value="0.0130251358" flag="0"/>
      <psa03 value="0.0835433482" flag="0"/>
      <psa10 value="0.0055869817" flag="0"/>
      <psa30 value="0.0003423575" flag="0"/>
    </comp>
    <comp name="02.HHZ">
      <acc value="0.0615038863" flag="0"/>
      <vel value="0.0548858804" flag="0"/>
      <psa03 value="0.0474836348" flag="0"/>
      <psa10 value="0.0260953279" flag="0"/>
      <psa30 value="0.0198729253" flag="0"/>
    </comp>
  </station>
  <station code="AVP" name="AVP" netid="MT" insttype="CMG40-T" lat="44.9414" lon="5.67237">
    <comp name="00.HHE">
      <acc value="0.0467949035" flag="0"/>
      <vel value="0.0137441579" flag="0"/>
      <psa03 value="0.0670460778" flag="0"/>
      <psa10 value="0.0177126810" flag="0"/>
      <psa30 value="0.0006802018" flag="0"/>
    </comp>
    <comp name="00.HHN">
      <acc value="0.0331306481" flag="0"/>
      <vel value="0.0133896340" flag="0"/>
      <psa03 value="0.0726785905" flag="0"/>
      <psa10 value="0.0140865843" flag="0"/>
      <psa30 value="0.0006224355" flag="0"/>
    </comp>
    <comp name="00.HHZ">
      <acc value="0.0307316988" flag="0"/>
      <vel value="0.0083392200" flag="0"/>
      <psa03 value="0.0407205566" flag="0"/>
      <psa10 value="0.0051618578" flag="0"/>
      <psa30 value="0.0002986413" flag="0"/>
    </comp>
  </station>
  <station code="OGAN" name="OGAN" netid="RA" insttype="" lat="45.8918" lon="6.13555">
    <comp name="00.HNE">
      <acc value="0.2856264778" flag="0"/>
      <vel value="0.0606729484" flag="0"/>
      <psa03 value="0.1767830172" flag="0"/>
      <psa10 value="0.0117783931" flag="0"/>
      <psa30 value="0.0015063364" flag="0"/>
    </comp>
    <comp name="00.HNN">
      <acc value="0.3544612021" flag="0"/>
      <vel value="0.0782879556" flag="0"/>
      <psa03 value="0.3035020004" flag="0"/>
      <psa10 value="0.0329619526" flag="0"/>
      <psa30 value="0.0032320003" flag="0"/>
    </comp>
    <comp name="00.HNZ">
      <acc value="0.1634929862" flag="0"/>
      <vel value="0.0348122255" flag="0"/>
      <psa03 value="0.1636935909" flag="0"/>
      <psa10 value="0.0162495871" flag="0"/>
      <psa30 value="0.0016612874" flag="0"/>
    </comp>
  </station>
  <station code="OGAP" name="OGAP" netid="RA" insttype="" lat="45.9036" lon="6.13282">
    <comp name="00.HNE">
      <acc value="0.8372397529" flag="0"/>
      <vel value="0.1844369970" flag="0"/>
      <psa03 value="0.7868468548" flag="0"/>
      <psa10 value="0.1289076249" flag="0"/>
      <psa30 value="0.0057775225" flag="0"/>
    </comp>
    <comp name="00.HNN">
      <acc value="0.7145726425" flag="0"/>
