<?xml version="1.0" encoding="UTF-8" standalone="yes"?>
<!DOCTYPE earthquake SYSTEM "stationlist.dtd">
<stationlist created="" xmlns="ch.ethz.sed.shakemap.usgs.xml">
  <station code="TILO" name="TILO" netid="Z3" source="GFZ" insttype="CMG-3ESP/60" lat="36.4485" lon="27.3535">
    <comp name="--.HHE">
      <acc value="0.0571547543" flag="0"/>
      <vel value="0.0222642473" flag="0"/>
      <psa03 value="0.0833887120" flag="0"/>
      <psa10 value="0.0137074408" flag="0"/>
      <psa30 value="0.0012867889" flag="0"/>
    </comp>
    <comp name="--.HHN">
      <acc value="0.0560739357" flag="0"/>
      <vel value="0.0210950502" flag="0"/>
      <psa03 value="0.0963375827" flag="0"/>
      <psa10 value="0.0200809478" flag="0"/>
      <psa30 value="0.0015867783" flag="0"/>
    </comp>
    <comp name="--.HHZ">
      <acc value="0.0349296327" flag="0"/>
      <vel value="0.0103621022" flag="0"/>
      <psa03 value="0.0359336454" flag="0"/>
      <psa10 value="0.0107662277" flag="0"/>
      <psa30 value="0.0017931675" flag="0"/>
    </comp>
  </station>
</stationlist>
