<stationlist xmlns:esm="https://esm-db.eu/esmws/shakemap/1/" created="1784339632">
	<station code="BLY" name="BLY" netid="MN" source="Mediterranean Very Broadband Seismographic Network (MedNet)" insttype="" lat="44.7488" lon="17.1839" esm:processing="manual (Paolucci et al 2011)" esm:quality="best">
		<comp name="--.HNE" depth="1.0">
			<acc value="0.00616094612064343" flag="0"/>
			<vel value="0.00343897621904698" flag="0"/>
			<psa03 value="0.0170020385149433" flag="0"/>
			<psa10 value="0.00241607915738667" flag="0"/>
			<psa30 value="0.000289482076820218" flag="0"/>
		</comp>
		<comp name="--.HNN" depth="1.0">
			<acc value="0.00502635565213481" flag="0"/>
			<vel value="0.00273538777543673" flag="0"/>
			<psa03 value="0.022550072135609" flag="0"/>
			<psa10 value="0.00261339228857325" flag="0"/>
			<psa30 value="0.000167335852752336" flag="0"/>
		</comp>
		<comp name="--.HNZ" depth="1.0">
			<acc value="0.00537793680354286" flag="0"/>
			<vel value="0.00268342343526196" flag="0"/>
			<psa03 value="0.0170467807215615" flag="0"/>
			<psa10 value="0.00150602267477103" flag="0"/>
			<psa30 value="0.000199550241517492" flag="0"/>
		</comp>
	</station>
	<station code="BOJS" name="BOJS" netid="SL" source="Seismic Network of the Republic of Slovenia (SNRS)" insttype="" lat="45.5043" lon="15.2518" esm:processing="manual (Paolucci et al 2011)" esm:quality="best">
		<comp name="--.HNE" depth="0.0">
			<acc value="0.0219140900198375" flag="0"/>
			<vel value="0.00558219267930913" flag="0"/>
			<psa03 value="0.0345857257159241" flag="0"/>
			<psa10 value="0.00244829354615183" flag="0"/>
			<psa30 value="0.000216104857966253" flag="0"/>
		</comp>
		<comp name="--.HNN" depth="0.0">
			<acc value="0.018027758406425" flag="0"/>
			<vel value="0.00702762245277702" flag="0"/>
			<psa03 value="0.0387020087248051" flag="0"/>
			<psa10 value="0.00210198886692641" flag="0"/>
			<psa30 value="0.000193733754657117" flag="0"/>
		</comp>
		<comp name="--.HNZ" depth="0.0">
			<acc value="0.022029147437051" flag="0"/>
			<vel value="0.00568173717868865" flag="0"/>
			<psa03 value="0.0204919306311685" flag="0"/>
			<psa10 value="0.00204561368658738" flag="0"/>
			<psa30 value="0.000169125541017067" flag="0"/>
		</comp>
	</station>
	<station code="CADS" name="CADS" netid="SL" source="Seismic Network of the Republic of Slovenia (SNRS)" insttype="" lat="46.2281" lon="13.7368" esm:processing="manual (Paolucci et al 2011)" esm:quality="best">
		<comp name="--.HNE" depth="0.0">
			<acc value="0.00486786989017233" flag="0"/>
			<vel value="0.00196306674731514" flag="0"/>
			<psa03 value="0.0133618539072642" flag="0"/>
			<psa10 value="0.00156249214024752" flag="0"/>
			<psa30 value="9.19290911533455e-05" flag="0"/>
		</comp>
		<comp name="--.HNN" depth="0.0">
			<acc value="0.00400105755045054" flag="0"/>
			<vel value="0.00193223776160225" flag="0"/>
			<psa03 value="0.0123664337988872" flag="0"/>
			<psa10 value="0.00126365605476014" flag="0"/>
			<psa30 value="8.56934567188501e-05" flag="0"/>
		</comp>
		<comp name="--.HNZ" depth="0.0">
			<acc value="0.0032338396198408" flag="0"/>
			<vel value="0.0014069210438918" flag="0"/>
			<psa03 value="0.00637038685062392" flag="0"/>
			<psa10 value="0.00161151409864821" flag="0"/>
			<psa30 value="5.59394348796077e-05" flag="0"/>
		</comp>
	</station>
	<station code="CEY" name="CEY" netid="SL" source="Seismic Network of the Republic of Slovenia (SNRS)" insttype="" lat="45.7381" lon="14.4221" esm:processing="manual (Paolucci et al 2011)" esm:quality="best">
		<comp name="--.HNE" depth="0.0">
			<acc value="0.0121665331512151" flag="0"/>
			<vel value="0.00348989109498772" flag="0"/>
			<psa03 value="0.0236686273010658" flag="0"/>
			<psa10 value="0.00172346979893583" flag="0"/>
			<psa30 value="9.9775120758746e-05" flag="0"/>
		</comp>
		<comp name="--.HNN" depth="0.0">
			<acc value="0.00727304479585587" flag="0"/>
			<vel value="0.00314327576377133" flag="0"/>
			<psa03 value="0.0130199821259171" flag="0"/>
			<psa10 value="0.00249661512929956" flag="0"/>
			<psa30 value="0.000162861632090509" flag="0"/>
		</comp>
		<comp name="--.HNZ" depth="0.0">
			<acc value="0.00935253897254852" flag="0"/>
			<vel value="0.00317039714853807" flag="0"/>
			<psa03 value="0.0183890469201097" flag="0"/>
			<psa10 value="0.00295969696779868" flag="0"/>
			<psa30 value="0.000199550241517492" flag="0"/>
		</comp>
	</station>
	<station code="CRES" name="CRES" netid="SL" source="Seismic Network of the Republic of Slovenia (SNRS)" insttype="" lat="45.826" lon="15.4569" esm:processing="manual (Paolucci et al 2011)" esm:quality="best">
		<comp name="--.HNE" depth="0.0">
			<acc value="0.04200613441187" flag="0"/>
			<vel value="0.0122412626823727" flag="0"/>
			<psa03 value="0.0849207081614798" flag="0"/>
			<psa10 value="0.00401471819985752" flag="0"/>
			<psa30 value="0.000290376920952584" flag="0"/>
		</comp>
		<comp name="--.HNN" depth="0.0">
			<acc value="0.0358582082924843" flag="0"/>
			<vel value="0.0102988370288932" flag="0"/>
			<psa03 value="0.0557040472397483" flag="0"/>
			<psa10 value="0.00272211585065565" flag="0"/>
			<psa30 value="0.000240265649540119" flag="0"/>
		</comp>
		<comp name="--.HNZ" depth="0.0">
			<acc value="0.0196826570577953" flag="0"/>
			<vel value="0.00567600282907191" flag="0"/>
			<psa03 value="0.0323038731783922" flag="0"/>
			<psa10 value="0.00246842753913005" flag="0"/>
			<psa30 value="0.000272480038305275" flag="0"/>
		</comp>
	</station>
	<station code="CRNS" name="CRNS" netid="SL" source="Seismic Network of the Republic of Slovenia (SNRS)" insttype="" lat="46.0807" lon="14.2613" esm:processing="manual (Paolucci et al 2011)" esm:quality="good">
		<comp name="--.HNE" depth="0.0">
			<acc value="0.0191633466191877" flag="0"/>
			<vel value="0.00661936262737305" flag="0"/>
			<psa03 value="0.0267558395577265" flag="0"/>
			<psa10 value="0.00382545866586223" flag="0"/>
			<psa30 value="0.000234896584745927" flag="0"/>
		</comp>
		<comp name="--.HNN" depth="0.0">
			<acc value="0.0156561271207022" flag="0"/>
			<vel value="0.00579668825599971" flag="0"/>
			<psa03 value="0.0246082136400495" flag="0"/>
			<psa10 value="0.00280667862116419" flag="0"/>
			<psa30 value="0.000197313131186578" flag="0"/>
		</comp>
		<comp name="--.HNZ" depth="0.0">
			<acc value="0.00629244522557882" flag="0"/>
			<vel value="0.00210599818378036" flag="0"/>
			<psa03 value="0.00912741015012744" flag="0"/>
			<psa10 value="0.00195299731888756" flag="0"/>
			<psa30 value="0.000132436931590084" flag="0"/>
		</comp>
	</station>
	<station code="DOBS" name="DOBS" netid="SL" source="Seismic Network of the Republic of Slovenia (SNRS)" insttype="" lat="46.1495" lon="15.4695" esm:processing="manual (Paolucci et al 2011)" esm:quality="best">
		<comp name="--.HNE" depth="0.0">
			<acc value="0.0592498724650833" flag="0"/>
			<vel value="0.0149188420412426" flag="0"/>
			<psa03 value="0.0680732543108909" flag="0"/>
			<psa10 value="0.00603513464181133" flag="0"/>
			<psa30 value="0.000348148219360821" flag="0"/>
		</comp>
		<comp name="--.HNN" depth="0.0">
			<acc value="0.0478673773833992" flag="0"/>
			<vel value="0.0120993595647147" flag="0"/>
			<psa03 value="0.0601173366451551" flag="0"/>
			<psa10 value="0.00307199912986704" flag="0"/>
			<psa30 value="0.000366608478721047" flag="0"/>
		</comp>
		<comp name="--.HNZ" depth="0.0">
			<acc value="0.0296730653932366" flag="0"/>
			<vel value="0.00779202499446897" flag="0"/>
			<psa03 value="0.0235003328234049" flag="0"/>
			<psa10 value="0.00480081396787102" flag="0"/>
			<psa30 value="0.000271755788945532" flag="0"/>
		</comp>
	</station>
	<station code="GBAS" name="GBAS" netid="SL" source="Seismic Network of the Republic of Slovenia (SNRS)" insttype="" lat="45.9348" lon="14.4434" esm:processing="manual (Paolucci et al 2011)" esm:quality="best">
		<comp name="--.HNE" depth="0.0">
			<acc value="0.00498886242564464" flag="0"/>
			<vel value="0.00221405800922752" flag="0"/>
			<psa03 value="0.00872473029056299" flag="0"/>
			<psa10 value="0.0014134063070712" flag="0"/>
			<psa30 value="0.000101564809023477" flag="0"/>
		</comp>
		<comp name="--.HNN" depth="0.0">
			<acc value="0.00681671719439047" flag="0"/>
			<vel value="0.00228599721414454" flag="0"/>
			<psa03 value="0.00854576146408991" flag="0"/>
			<psa10 value="0.00299191135656383" flag="0"/>
			<psa30 value="0.000196865709120396" flag="0"/>
		</comp>
		<comp name="--.HNZ" depth="0.0">
			<acc value="0.00427261320735359" flag="0"/>
			<vel value="0.00171850159667152" flag="0"/>
			<psa03 value="0.00899318353027262" flag="0"/>
			<psa10 value="0.00146575468881458" flag="0"/>
			<psa30 value="0.000142727639112287" flag="0"/>
		</comp>
	</station>
	<station code="GBRS" name="GBRS" netid="SL" source="Seismic Network of the Republic of Slovenia (SNRS)" insttype="" lat="45.5311" lon="14.8101" esm:processing="manual (Paolucci et al 2011)" esm:quality="best">
		<comp name="--.HNE" depth="0.0">
			<acc value="0.0229483763533763" flag="0"/>
			<vel value="0.00534863394399737" flag="0"/>
			<psa03 value="0.0189373287238384" flag="0"/>
			<psa10 value="0.00152845488544739" flag="0"/>
			<psa30 value="0.000129893578770442" flag="0"/>
		</comp>
		<comp name="--.HNN" depth="0.0">
			<acc value="0.0222410667123375" flag="0"/>
			<vel value="0.00409873998209139" flag="0"/>
			<psa03 value="0.026133059311925" flag="0"/>
			<psa10 value="0.00218457971768493" flag="0"/>
			<psa30 value="0.000123784879828284" flag="0"/>
		</comp>
		<comp name="--.HNZ" depth="0.0">
			<acc value="0.0107141494368924" flag="0"/>
			<vel value="0.00326590169793711" flag="0"/>
			<psa03 value="0.0164915312850947" flag="0"/>
			<psa10 value="0.00143359071053637" flag="0"/>
			<psa30 value="0.000124948863186469" flag="0"/>
		</comp>
	</station>
	<station code="GCIS" name="GCIS" netid="SL" source="Seismic Network of the Republic of Slovenia (SNRS)" insttype="" lat="45.8672" lon="15.6275" esm:processing="manual (Paolucci et al 2011)" esm:quality="best">
		<comp name="--.HNE" depth="0.0">
			<acc value="0.0375280294935492" flag="0"/>
			<vel value="0.00996030736242189" flag="0"/>
			<psa03 value="0.0528085139299821" flag="0"/>
			<psa10 value="0.003137805911118" flag="0"/>
			<psa30 value="0.000188547946105082" flag="0"/>
		</comp>
		<comp name="--.HNN" depth="0.0">
			<acc value="0.0417658555767215" flag="0"/>
			<vel value="0.0107907092937238" flag="0"/>
			<psa03 value="0.0287738201868608" flag="0"/>
			<psa10 value="0.00295095868965699" flag="0"/>
			<psa30 value="0.00019729982795765" flag="0"/>
		</comp>
		<comp name="--.HNZ" depth="0.0">
			<acc value="0.0285443874448203" flag="0"/>
			<vel value="0.00745011426480335" flag="0"/>
			<psa03 value="0.0234988353283263" flag="0"/>
			<psa10 value="0.0030424206860639" flag="0"/>
			<psa30 value="0.000161064393684003" flag="0"/>
		</comp>
	</station>
	<station code="GOLS" name="GOLS" netid="SL" source="Seismic Network of the Republic of Slovenia (SNRS)" insttype="" lat="46.0108" lon="15.6245" esm:processing="manual (Paolucci et al 2011)" esm:quality="good">
		<comp name="--.HNE" depth="0.0">
			<acc value="0.0651721801448867" flag="0"/>
			<vel value="0.0162764517135117" flag="0"/>
			<psa03 value="0.0873355251332529" flag="0"/>
			<psa10 value="0.00664377980530612" flag="0"/>
			<psa30 value="0.000484897851269558" flag="0"/>
		</comp>
		<comp name="--.HNN" depth="0.0">
			<acc value="0.0626346828882564" flag="0"/>
			<vel value="0.0136401509366288" flag="0"/>
			<psa03 value="0.0569266461109234" flag="0"/>
			<psa10 value="0.00450496577562341" flag="0"/>
			<psa30 value="0.000347935158371665" flag="0"/>
		</comp>
		<comp name="--.HNZ" depth="0.0">
			<acc value="0.0196018838142402" flag="0"/>
			<vel value="0.00649357101187614" flag="0"/>
			<psa03 value="0.0294015492708439" flag="0"/>
			<psa10 value="0.00423328090283395" flag="0"/>
			<psa30 value="0.000238483246261316" flag="0"/>
		</comp>
	</station>
	<station code="GORS" name="GORS" netid="SL" source="Seismic Network of the Republic of Slovenia (SNRS)" insttype="" lat="46.3174" lon="13.9999" esm:processing="manual (Paolucci et al 2011)" esm:quality="best">
		<comp name="--.HNE" depth="0.0">
			<acc value="0.00302033746894925" flag="0"/>
			<vel value="0.00136519627136921" flag="0"/>
			<psa03 value="0.00809833939790719" flag="0"/>
			<psa10 value="0.00127649515481929" flag="0"/>
			<psa30 value="9.26163676998225e-05" flag="0"/>
		</comp>
		<comp name="--.HNN" depth="0.0">
			<acc value="0.00447446815542477" flag="0"/>
			<vel value="0.00131515220154388" flag="0"/>
			<psa03 value="0.00648761995964941" flag="0"/>
			<psa10 value="0.00133689713375396" flag="0"/>
			<psa30 value="9.26163676998225e-05" flag="0"/>
		</comp>
		<comp name="--.HNZ" depth="0.0">
			<acc value="0.00227103490482014" flag="0"/>
			<vel value="0.000984707096045327" flag="0"/>
			<psa03 value="0.00572700244713878" flag="0"/>
			<psa10 value="0.00121206637728898" flag="0"/>
			<psa30 value="0.000114540048942776" flag="0"/>
		</comp>
	</station>
	<station code="GROS" name="GROS" netid="SL" source="Seismic Network of the Republic of Slovenia (SNRS)" insttype="" lat="46.461" lon="15.5018" esm:processing="manual (Paolucci et al 2011)" esm:quality="bad">
		<comp name="--.HNE" depth="0.0">
			<acc value="0.0218271334659352" flag="0"/>
			<vel value="0.00831854017318246" flag="0"/>
			<psa03 value="0.0426711080014854" flag="0"/>
			<psa10 value="0.00291843137863068" flag="0"/>
			<psa30 value="0.000261587120529633" flag="0"/>
		</comp>
		<comp name="--.HNN" depth="0.0">
			<acc value="0.023020793460729" flag="0"/>
			<vel value="0.00591683871103368" flag="0"/>
			<psa03 value="0.0251792461264836" flag="0"/>
			<psa10 value="0.0033061651109628" flag="0"/>
			<psa30 value="0.000175866467998737" flag="0"/>
		</comp>
		<comp name="--.HNZ" depth="0.0">
			<acc value="0.017202579143299" flag="0"/>
			<vel value="0.0068027620735752" flag="0"/>
			<psa03 value="0.0238581950716839" flag="0"/>
			<psa10 value="0.00567041266826424" flag="0"/>
			<psa30 value="0.000293367038292969" flag="0"/>
		</comp>
	</station>
	<station code="JAVS" name="JAVS" netid="SL" source="Seismic Network of the Republic of Slovenia (SNRS)" insttype="" lat="45.8934" lon="14.0643" esm:processing="manual (Paolucci et al 2011)" esm:quality="best">
		<comp name="--.HNE" depth="0.0">
			<acc value="0.00577658080890754" flag="0"/>
			<vel value="0.00265808251826142" flag="0"/>
			<psa03 value="0.0141801034247602" flag="0"/>
			<psa10 value="0.00225265211777163" flag="0"/>
			<psa30 value="0.000110457720927829" flag="0"/>
		</comp>
		<comp name="--.HNN" depth="0.0">
			<acc value="0.00422796823544537" flag="0"/>
			<vel value="0.00193178117829713" flag="0"/>
			<psa03 value="0.00829341723672819" flag="0"/>
			<psa10 value="0.00133553132395663" flag="0"/>
			<psa30 value="8.10118900774941e-05" flag="0"/>
		</comp>
		<comp name="--.HNZ" depth="0.0">
			<acc value="0.00288856261464699" flag="0"/>
			<vel value="0.00185956616936022" flag="0"/>
			<psa03 value="0.00613495003013098" flag="0"/>
			<psa10 value="0.00176694877043319" flag="0"/>
			<psa30 value="7.96318442294684e-05" flag="0"/>
		</comp>
	</station>
	<station code="KNDS" name="KNDS" netid="SL" source="Seismic Network of the Republic of Slovenia (SNRS)" insttype="" lat="45.5278" lon="14.3807" esm:processing="manual (Paolucci et al 2011)" esm:quality="best">
		<comp name="--.HNE" depth="0.0">
			<acc value="0.00999701124280821" flag="0"/>
			<vel value="0.00351248570460891" flag="0"/>
			<psa03 value="0.0154277173230616" flag="0"/>
			<psa10 value="0.00255255432857342" flag="0"/>
			<psa30 value="0.000159682739656107" flag="0"/>
		</comp>
		<comp name="--.HNN" depth="0.0">
			<acc value="0.0105603486833897" flag="0"/>
			<vel value="0.0041251123383289" flag="0"/>
			<psa03 value="0.0193926193012589" flag="0"/>
			<psa10 value="0.00209495135837233" flag="0"/>
			<psa30 value="0.000163001865782023" flag="0"/>
		</comp>
		<comp name="--.HNZ" depth="0.0">
			<acc value="0.0063922139874252" flag="0"/>
			<vel value="0.0023408096534558" flag="0"/>
			<psa03 value="0.0139873797202721" flag="0"/>
			<psa10 value="0.00232648794653423" flag="0"/>
			<psa30 value="0.000153200109692749" flag="0"/>
		</comp>
	</station>
	<station code="KOGS" name="KOGS" netid="SL" source="Seismic Network of the Republic of Slovenia (SNRS)" insttype="" lat="46.4481" lon="16.2504" esm:processing="manual (Paolucci et al 2011)" esm:quality="best">
		<comp name="--.HNE" depth="0.0">
			<acc value="0.0667423583706808" flag="0"/>
			<vel value="0.01798360900704" flag="0"/>
			<psa03 value="0.0604467211412851" flag="0"/>
			<psa10 value="0.00721199628479922" flag="0"/>
			<psa30 value="0.000638471288442738" flag="0"/>
		</comp>
		<comp name="--.HNN" depth="0.0">
			<acc value="0.0566876136023721" flag="0"/>
			<vel value="0.0203548385070649" flag="0"/>
			<psa03 value="0.078209377168739" flag="0"/>
			<psa10 value="0.00564557163109353" flag="0"/>
			<psa30 value="0.000716770150024713" flag="0"/>
		</comp>
		<comp name="--.HNZ" depth="0.0">
			<acc value="0.030873792602384" flag="0"/>
			<vel value="0.00991701867410837" flag="0"/>
			<psa03 value="0.0369570626666925" flag="0"/>
			<psa10 value="0.00445766604537841" flag="0"/>
			<psa30 value="0.000482768409411152" flag="0"/>
		</comp>
	</station>
	<station code="LEGS" name="LEGS" netid="SL" source="Seismic Network of the Republic of Slovenia (SNRS)" insttype="" lat="45.9488" lon="15.3177" esm:processing="manual (Paolucci et al 2011)" esm:quality="good">
		<comp name="--.HNE" depth="0.0">
			<acc value="0.0670126805219482" flag="0"/>
			<vel value="0.0289572061581574" flag="0"/>
			<psa03 value="0.0894570927601815" flag="0"/>
			<psa10 value="0.0141809934837359" flag="0"/>
			<psa30 value="0.000786593410034385" flag="0"/>
		</comp>
		<comp name="--.HNN" depth="0.0">
			<acc value="0.034050274329705" flag="0"/>
			<vel value="0.0186684718765563" flag="0"/>
			<psa03 value="0.064777098456676" flag="0"/>
			<psa10 value="0.00983895959528922" flag="0"/>
			<psa30 value="0.000677723593776889" flag="0"/>
		</comp>
		<comp name="--.HNZ" depth="0.0">
			<acc value="0.0178111230197349" flag="0"/>
			<vel value="0.0082130402669891" flag="0"/>
			<psa03 value="0.0331795391274636" flag="0"/>
			<psa10 value="0.00473446175987105" flag="0"/>
			<psa30 value="0.00036083278360919" flag="0"/>
		</comp>
	</station>
	<station code="LJU" name="LJU" netid="SL" source="Seismic Network of the Republic of Slovenia (SNRS)" insttype="" lat="46.0438" lon="14.5278" esm:processing="manual (Paolucci et al 2011)" esm:quality="best">
		<comp name="--.HNE" depth="0.0">
			<acc value="0.0109597312164439" flag="0"/>
			<vel value="0.00601268418313338" flag="0"/>
			<psa03 value="0.0221026500694262" flag="0"/>
			<psa10 value="0.00819050834354083" flag="0"/>
			<psa30 value="0.00039507368443934" flag="0"/>
		</comp>
		<comp name="--.HNN" depth="0.0">
			<acc value="0.0146065478334127" flag="0"/>
			<vel value="0.00621874911054425" flag="0"/>
			<psa03 value="0.0255030577724149" flag="0"/>
			<psa10 value="0.00546839249288517" flag="0"/>
			<psa30 value="0.000285455278224574" flag="0"/>
		</comp>
		<comp name="--.HNZ" depth="0.0">
			<acc value="0.0059972525002741" flag="0"/>
			<vel value="0.00382653339159602" flag="0"/>
			<psa03 value="0.00841153484423509" flag="0"/>
			<psa10 value="0.00441739805942197" flag="0"/>
			<psa30 value="0.000347646945423971" flag="0"/>
		</comp>
	</station>
	<station code="MOZS" name="MOZS" netid="SL" source="Seismic Network of the Republic of Slovenia (SNRS)" insttype="" lat="46.2941" lon="14.4433" esm:processing="manual (Paolucci et al 2011)" esm:quality="good">
		<comp name="--.HNE" depth="0.0">
			<acc value="0.0108501404221044" flag="0"/>
			<vel value="0.00531113073300027" flag="0"/>
			<psa03 value="0.018925953399529" flag="0"/>
			<psa10 value="0.00169930900736196" flag="0"/>
			<psa30 value="0.000225053299289907" flag="0"/>
		</comp>
