<?xml version="1.0" encoding="UTF-8" standalone="yes"?>
<!DOCTYPE earthquake SYSTEM "stationlist.dtd">
<stationlist created="" xmlns="ch.ethz.sed.shakemap.usgs.xml">
  <station code="BEHE" name="BEHE" netid="HU" insttype="" lat="46.4703" lon="16.7755">
    <comp name="--.HHE">
      <acc value="0.0117999386" flag="0"/>
      <vel value="0.0048336665" flag="0"/>
      <psa03 value="0.0314649666" flag="0"/>
      <psa10 value="0.0034930330" flag="0"/>
      <psa30 value="0.0002105471" flag="0"/>
    </comp>
    <comp name="--.HHZ">
      <acc value="0.0068578055" flag="0"/>
      <vel value="0.0029583064" flag="0"/>
      <psa03 value="0.0195251938" flag="0"/>
      <psa10 value="0.0016574254" flag="0"/>
      <psa30 value="0.0001763039" flag="0"/>
    </comp>
    <comp name="--.HHN">
      <acc value="0.0129957726" flag="0"/>
      <vel value="0.0048533241" flag="0"/>
      <psa03 value="0.0268869038" flag="0"/>
      <psa10 value="0.0034327786" flag="0"/>
      <psa30 value="0.0003455145" flag="0"/>
    </comp>
  </station>
  <station code="BLY" name="BLY" netid="MN" insttype="" lat="44.7488" lon="17.1839">
    <comp name="--.HHZ">
      <acc value="0.0054533627" flag="0"/>
      <vel value="0.0026854344" flag="0"/>
      <psa03 value="0.0170325163" flag="0"/>
      <psa10 value="0.0015495481" flag="0"/>
      <psa30 value="0.0001887850" flag="0"/>
    </comp>
    <comp name="--.HHN">
      <acc value="0.0050952582" flag="0"/>
      <vel value="0.0026752230" flag="0"/>
      <psa03 value="0.0224138722" flag="0"/>
      <psa10 value="0.0025382962" flag="0"/>
      <psa30 value="0.0001600261" flag="0"/>
    </comp>
    <comp name="--.HHE">
      <acc value="0.0063982311" flag="0"/>
      <vel value="0.0034729799" flag="0"/>
      <psa03 value="0.0176475902" flag="0"/>
      <psa10 value="0.0024531870" flag="0"/>
      <psa30 value="0.0002611556" flag="0"/>
    </comp>
  </station>
</stationlist>
