<?xml version="1.0" encoding="UTF-8" standalone="yes"?>
<!DOCTYPE earthquake SYSTEM "stationlist.dtd">
<stationlist created="" xmlns="ch.ethz.sed.shakemap.usgs.xml">
  <station code="BAYT" name="BAYT" netid="KO" insttype="CMG-3ESPC" commtype="DIG" lat="40.3937" lon="40.141">
    <comp name="--.HHE">
      <acc value="0.0220628977" flag="0"/>
      <vel value="0.0102477601" flag="0"/>
      <psa03 value="0.0568927378" flag="0"/>
      <psa10 value="0.0057785920" flag="0"/>
      <psa30 value="0.0004383374" flag="0"/>
    </comp>
    <comp name="--.HHZ">
      <acc value="0.0023843981" flag="0"/>
      <vel value="0.0010432296" flag="0"/>
      <psa03 value="0.0134338766" flag="0"/>
      <psa10 value="0.0002643152" flag="0"/>
      <psa30 value="0.0000315554" flag="0"/>
    </comp>
    <comp name="--.HHN">
      <acc value="0.0220814478" flag="0"/>
      <vel value="0.0103228382" flag="0"/>
      <psa03 value="0.0810128117" flag="0"/>
      <psa10 value="0.0074293970" flag="0"/>
      <psa30 value="0.0004746621" flag="0"/>
    </comp>
  </station>
  <station code="BNGB" name="BNGB" netid="KO" insttype="CMG-3ESPC" commtype="DIG" lat="38.9913" lon="40.6792">
    <comp name="--.HHN">
      <acc value="0.0080311352" flag="0"/>
      <vel value="0.0030740712" flag="0"/>
      <psa03 value="0.0216263639" flag="0"/>
      <psa10 value="0.0023027192" flag="0"/>
      <psa30 value="0.0002797831" flag="0"/>
    </comp>
    <comp name="--.HHZ">
      <acc value="0.0069686098" flag="0"/>
      <vel value="0.0028407758" flag="0"/>
      <psa03 value="0.0136382990" flag="0"/>
      <psa10 value="0.0022283339" flag="0"/>
      <psa30 value="0.0002515707" flag="0"/>
    </comp>
  </station>
  <station code="ERZN" name="ERZN" netid="KO" insttype="CMG-3ESP" commtype="DIG" lat="39.5867" lon="39.722">
    <comp name="--.HHE">
      <acc value="0.0102991218" flag="0"/>
      <vel value="0.0038065500" flag="0"/>
      <psa03 value="0.0206652841" flag="0"/>
      <psa10 value="0.0018144796" flag="0"/>
      <psa30 value="0.0002451656" flag="0"/>
    </comp>
  </station>
  <station code="KARO" name="KARO" netid="KO" insttype="CMG-3T" commtype="DIG" lat="39.3089" lon="41.0493">
    <comp name="--.HHE">
      <acc value="0.1750590401" flag="0"/>
      <vel value="0.0840108492" flag="0"/>
      <psa03 value="0.7012025766" flag="0"/>
      <psa10 value="0.0493467967" flag="0"/>
      <psa30 value="0.0028650837" flag="0"/>
    </comp>
    <comp name="--.HHN">
      <acc value="0.1269184649" flag="0"/>
      <vel value="0.0545676310" flag="0"/>
      <psa03 value="0.5388734873" flag="0"/>
      <psa10 value="0.0184363896" flag="0"/>
      <psa30 value="0.0018028217" flag="0"/>
    </comp>
    <comp name="--.HHZ">
      <acc value="0.0716732972" flag="0"/>
      <vel value="0.0293963905" flag="0"/>
      <psa03 value="0.2449953222" flag="0"/>
      <psa10 value="0.0124509581" flag="0"/>
      <psa30 value="0.0009363565" flag="0"/>
    </comp>
  </station>
  <station code="KOPR" name="KOPR" netid="KO" insttype="CMG-3T" commtype="DIG" lat="39.9917" lon="41.8535">
    <comp name="--.HHE">
      <acc value="0.0076581623" flag="0"/>
      <vel value="0.0059062907" flag="0"/>
      <psa03 value="0.0236303145" flag="0"/>
      <psa10 value="0.0066870173" flag="0"/>
      <psa30 value="0.0013765633" flag="0"/>
    </comp>
    <comp name="--.HHN">
      <acc value="0.0109948057" flag="0"/>
      <vel value="0.0075631408" flag="0"/>
      <psa03 value="0.0236824992" flag="0"/>
      <psa10 value="0.0064693463" flag="0"/>
      <psa30 value="0.0012332211" flag="0"/>
    </comp>
    <comp name="--.HHZ">
      <acc value="0.0068122250" flag="0"/>
      <vel value="0.0043880084" flag="0"/>
      <psa03 value="0.0271115627" flag="0"/>
      <psa10 value="0.0082258789" flag="0"/>
      <psa30 value="0.0012103296" flag="0"/>
    </comp>
  </station>
  <station code="VRTB" name="VRTB" netid="KO" insttype="CMG-40T" commtype="DIG" lat="39.1603" lon="41.4558">
    <comp name="--.HHE">
      <acc value="0.0052818292" flag="0"/>
      <vel value="0.0045127106" flag="0"/>
      <psa03 value="0.0187030203" flag="0"/>
      <psa10 value="0.0070819959" flag="0"/>
      <psa30 value="0.0008469023" flag="0"/>
    </comp>
    <comp name="--.HHN">
      <acc value="0.0016243210" flag="0"/>
      <vel value="0.0012631963" flag="0"/>
      <psa03 value="0.0057677611" flag="0"/>
      <psa10 value="0.0027752061" flag="0"/>
      <psa30 value="0.0003135216" flag="0"/>
    </comp>
    <comp name="--.HHZ">
      <acc value="0.0041484432" flag="0"/>
      <vel value="0.0019577004" flag="0"/>
      <psa03 value="0.0093976701" flag="0"/>
      <psa10 value="0.0037053539" flag="0"/>
      <psa30 value="0.0003922591" flag="0"/>
    </comp>
  </station>
  <station code="YEDI" name="YEDI" netid="KO" insttype="CMG-3T" commtype="DIG" lat="39.4377" lon="40.5443">
    <comp name="--.HHZ">
      <acc value="0.0057359004" flag="0"/>
      <vel value="0.0004673571" flag="0"/>
      <psa03 value="0.0011007494" flag="0"/>
      <psa10 value="0.0001497281" flag="0"/>
      <psa30 value="0.0000411616" flag="0"/>
    </comp>
    <comp name="--.HHN">
      <acc value="0.1712091549" flag="0"/>
      <vel value="0.0500291811" flag="0"/>
      <psa03 value="0.2582776096" flag="0"/>
      <psa10 value="0.0096596178" flag="0"/>
      <psa30 value="0.0008817949" flag="0"/>
    </comp>
    <comp name="--.HHE">
      <acc value="0.2373168571" flag="0"/>
      <vel value="0.0646254851" flag="0"/>
      <psa03 value="0.1883989669" flag="0"/>
      <psa10 value="0.0246604537" flag="0"/>
      <psa30 value="0.0014233931" flag="0"/>
    </comp>
  </station>
</stationlist>
