<?xml version="1.0" encoding="UTF-8" standalone="yes"?>
<!DOCTYPE earthquake SYSTEM "stationlist.dtd">
<stationlist created="" xmlns="ch.ethz.sed.shakemap.usgs.xml">
  <station code="KOSP" name="KOSP" netid="HC" insttype="60" lat="36.881" lon="27.281">
    <comp name="--.HHE">
      <acc value="0.0337897247" flag="0"/>
      <vel value="0.0327283400" flag="0"/>
      <psa03 value="0.0723941891" flag="0"/>
      <psa10 value="0.0301604914" flag="0"/>
      <psa30 value="0.0040426043" flag="0"/>
    </comp>
    <comp name="--.HHN">
      <acc value="0.0280534340" flag="0"/>
      <vel value="0.0178116810" flag="0"/>
      <psa03 value="0.0709908790" flag="0"/>
      <psa10 value="0.0228009917" flag="0"/>
      <psa30 value="0.0028405613" flag="0"/>
    </comp>
    <comp name="--.HHZ">
      <acc value="0.0258745814" flag="0"/>
      <vel value="0.0111356637" flag="0"/>
      <psa03 value="0.0337899415" flag="0"/>
      <psa10 value="0.0136148026" flag="0"/>
      <psa30 value="0.0026043362" flag="0"/>
    </comp>
  </station>
  <station code="KRL1" name="KRL1" netid="HI" insttype="CMG-5TD,ACCELEROMETER,GURALP" lat="37.7951" lon="26.7065">
    <comp name="--.HNZ">
      <acc value="0.2158482930" flag="0"/>
      <vel value="0.0352651598" flag="0"/>
      <psa03 value="0.1367239702" flag="0"/>
      <psa10 value="0.0482205887" flag="0"/>
      <psa30 value="0.0021407580" flag="0"/>
    </comp>
    <comp name="--.HNN">
      <acc value="0.2998076491" flag="0"/>
      <vel value="0.0948597138" flag="0"/>
      <psa03 value="0.3773876967" flag="0"/>
      <psa10 value="0.0783967772" flag="0"/>
      <psa30 value="0.0040856982" flag="0"/>
    </comp>
    <comp name="--.HNE">
      <acc value="0.7965506454" flag="0"/>
      <vel value="0.1411861947" flag="0"/>
      <psa03 value="0.5024987505" flag="0"/>
      <psa10 value="0.0826677033" flag="0"/>
      <psa30 value="0.0048617438" flag="0"/>
    </comp>
  </station>
  <station code="KLNA" name="KLNA" netid="HL" insttype="CMG-5" lat="36.9571" lon="26.9727">
    <comp name="00.HNE">
      <acc value="0.1344317336" flag="0"/>
      <vel value="0.0448729618" flag="0"/>
      <psa03 value="0.3448273156" flag="0"/>
      <psa10 value="0.0196370877" flag="0"/>
      <psa30 value="0.0022107301" flag="0"/>
    </comp>
    <comp name="00.HNN">
      <acc value="0.1051972057" flag="0"/>
      <vel value="0.0427553628" flag="0"/>
      <psa03 value="0.2547033807" flag="0"/>
      <psa10 value="0.0169339064" flag="0"/>
      <psa30 value="0.0016637101" flag="0"/>
    </comp>
    <comp name="00.HNZ">
      <acc value="0.1326948790" flag="0"/>
      <vel value="0.0464434687" flag="0"/>
      <psa03 value="0.1380098625" flag="0"/>
      <psa10 value="0.0269267666" flag="0"/>
      <psa30 value="0.0013503081" flag="0"/>
    </comp>
  </station>
  <station code="SMG" name="SMG" netid="HL" insttype="120" lat="37.7043" lon="26.8377">
    <comp name="--.HHZ">
      <acc value="0.3500133414" flag="0"/>
      <vel value="0.0968851893" flag="0"/>
      <psa03 value="0.3367965363" flag="0"/>
      <psa10 value="0.0657085335" flag="0"/>
      <psa30 value="0.0044123507" flag="0"/>
    </comp>
    <comp name="--.HHN">
      <acc value="0.6158794102" flag="0"/>
      <vel value="0.1838050915" flag="0"/>
      <psa03 value="0.5055679054" flag="0"/>
      <psa10 value="0.1184268680" flag="0"/>
      <psa30 value="0.0081577756" flag="0"/>
    </comp>
    <comp name="--.HHE">
      <acc value="0.4804889234" flag="0"/>
      <vel value="0.1121519332" flag="0"/>
      <psa03 value="0.5610929595" flag="0"/>
      <psa10 value="0.0486976040" flag="0"/>
      <psa30 value="0.0048419929" flag="0"/>
    </comp>
  </station>
  <station code="AYDB" name="AYDB" netid="KO" insttype="CMG-3ESPC" lat="37.9467" lon="27.8908">
    <comp name="--.HHE">
      <acc value="0.1398210611" flag="0"/>
      <vel value="0.0315777521" flag="0"/>
      <psa03 value="0.2102225289" flag="0"/>
      <psa10 value="0.0220150598" flag="0"/>
      <psa30 value="0.0022125425" flag="0"/>
    </comp>
    <comp name="--.HHZ">
      <acc value="0.0689416701" flag="0"/>
      <vel value="0.0204769880" flag="0"/>
      <psa03 value="0.0895897449" flag="0"/>
      <psa10 value="0.0122943546" flag="0"/>
      <psa30 value="0.0008171959" flag="0"/>
    </comp>
  </station>
  <station code="BLCB" name="BLCB" netid="KO" insttype="CMG-3T" lat="38.3853" lon="27.042">
    <comp name="--.HHE">
      <acc value="0.1318146737" flag="0"/>
      <vel value="0.0382627247" flag="0"/>
      <psa03 value="0.2423896688" flag="0"/>
      <psa10 value="0.0307410199" flag="0"/>
      <psa30 value="0.0015780372" flag="0"/>
    </comp>
    <comp name="--.HHN">
      <acc value="0.0000634408" flag="0"/>
      <vel value="0.0000159821" flag="0"/>
      <psa03 value="0.0000988229" flag="0"/>
      <psa10 value="0.0000113398" flag="0"/>
      <psa30 value="0.0000012190" flag="0"/>
    </comp>
    <comp name="--.HHZ">
      <acc value="0.0566398785" flag="0"/>
      <vel value="0.0201976427" flag="0"/>
      <psa03 value="0.0973783445" flag="0"/>
      <psa10 value="0.0120882151" flag="0"/>
      <psa30 value="0.0010579153" flag="0"/>
    </comp>
  </station>
  <station code="BODM" name="BODM" netid="KO" insttype="ACEBOX" lat="37.031" lon="27.4247">
    <comp name="--.HNN">
      <acc value="0.0843063888" flag="0"/>
      <vel value="0.0516037849" flag="0"/>
      <psa03 value="0.1995645868" flag="0"/>
      <psa10 value="0.0217203299" flag="0"/>
      <psa30 value="0.0019995576" flag="0"/>
    </comp>
    <comp name="--.HNZ">
      <acc value="0.0233637269" flag="0"/>
      <vel value="0.0112680659" flag="0"/>
      <psa03 value="0.0374979523" flag="0"/>
      <psa10 value="0.0110741408" flag="0"/>
      <psa30 value="0.0006678720" flag="0"/>
    </comp>
    <comp name="--.HNE">
      <acc value="0.0867925948" flag="0"/>
      <vel value="0.0514802625" flag="0"/>
      <psa03 value="0.2202002358" flag="0"/>
      <psa10 value="0.0273771328" flag="0"/>
      <psa30 value="0.0026021818" flag="0"/>
    </comp>
  </station>
  <station code="BODT" name="BODT" netid="KO" insttype="CMG-3ESP" lat="37.0622" lon="27.3103">
    <comp name="--.HHE">
      <acc value="0.0472807821" flag="0"/>
      <vel value="0.0289443612" flag="0"/>
      <psa03 value="0.1183013470" flag="0"/>
      <psa10 value="0.0416810365" flag="0"/>
      <psa30 value="0.0032271609" flag="0"/>
    </comp>
    <comp name="--.HHN">
      <acc value="0.0411727706" flag="0"/>
      <vel value="0.0192631581" flag="0"/>
      <psa03 value="0.0787399022" flag="0"/>
      <psa10 value="0.0180447483" flag="0"/>
      <psa30 value="0.0018469762" flag="0"/>
    </comp>
    <comp name="--.HHZ">
      <acc value="0.0339356959" flag="0"/>
      <vel value="0.0125146068" flag="0"/>
      <psa03 value="0.0444691575" flag="0"/>
      <psa10 value="0.0096545123" flag="0"/>
      <psa30 value="0.0008920383" flag="0"/>
    </comp>
  </station>
  <station code="DAT" name="DAT" netid="KO" insttype="CMG-3T" lat="36.7308" lon="27.5767">
    <comp name="--.HHZ">
      <acc value="0.0000281971" flag="0"/>
      <vel value="0.0000028799" flag="0"/>
      <psa03 value="0.0000096325" flag="0"/>
      <psa10 value="0.0000022300" flag="0"/>
      <psa30 value="0.0000006540" flag="0"/>
    </comp>
    <comp name="--.HHE">
      <acc value="0.0145609032" flag="0"/>
      <vel value="0.0128518109" flag="0"/>
      <psa03 value="0.0379061955" flag="0"/>
      <psa10 value="0.0117039435" flag="0"/>
      <psa30 value="0.0032322061" flag="0"/>
    </comp>
    <comp name="--.HHN">
      <acc value="0.0169889266" flag="0"/>
      <vel value="0.0108037435" flag="0"/>
      <psa03 value="0.0546547285" flag="0"/>
      <psa10 value="0.0088895993" flag="0"/>
      <psa30 value="0.0014467205" flag="0"/>
    </comp>
  </station>
  <station code="DIDI" name="DIDI" netid="KO" insttype="CMG-5T" lat="37.3767" lon="27.2398">
    <comp name="--.HNE">
      <acc value="0.1845576176" flag="0"/>
      <vel value="0.1165562340" flag="0"/>
      <psa03 value="0.7385565991" flag="0"/>
      <psa10 value="0.1196572596" flag="0"/>
      <psa30 value="0.0126771411" flag="0"/>
    </comp>
    <comp name="--.HNN">
      <acc value="0.1827706470" flag="0"/>
      <vel value="0.1043467900" flag="0"/>
      <psa03 value="0.5900873464" flag="0"/>
      <psa10 value="0.0766512625" flag="0"/>
      <psa30 value="0.0081463202" flag="0"/>
    </comp>
    <comp name="--.HNZ">
      <acc value="0.3772373143" flag="0"/>
      <vel value="0.0866086362" flag="0"/>
      <psa03 value="0.3453023718" flag="0"/>
      <psa10 value="0.0492330701" flag="0"/>
      <psa30 value="0.0043507970" flag="0"/>
    </comp>
  </station>
  <station code="GMLD" name="GMLD" netid="KO" insttype="CMG-5T" lat="38.0766" lon="26.9157">
    <comp name="--.HNE">
      <acc value="0.5119816303" flag="0"/>
      <vel value="0.2005195631" flag="0"/>
      <psa03 value="0.7641016184" flag="0"/>
      <psa10 value="0.1033415740" flag="0"/>
      <psa30 value="0.0075962862" flag="0"/>
    </comp>
    <comp name="--.HNN">
      <acc value="0.4474914310" flag="0"/>
      <vel value="0.2617942515" flag="0"/>
      <psa03 value="0.9852137239" flag="0"/>
      <psa10 value="0.1438791711" flag="0"/>
      <psa30 value="0.0089926576" flag="0"/>
    </comp>
    <comp name="--.HNZ">
      <acc value="0.3710349532" flag="0"/>
      <vel value="0.0929318939" flag="0"/>
      <psa03 value="0.6362148972" flag="0"/>
      <psa10 value="0.0294343519" flag="0"/>
      <psa30 value="0.0028595086" flag="0"/>
    </comp>
  </station>
  <station code="KUSD" name="KUSD" netid="KO" insttype="CMG-5T" lat="37.8606" lon="27.2868">
    <comp name="--.HNE">
      <acc value="0.4253381575" flag="0"/>
      <vel value="0.1354638951" flag="0"/>
      <psa03 value="1.1434422644" flag="0"/>
      <psa10 value="0.0873510551" flag="0"/>
      <psa30 value="0.0077642138" flag="0"/>
    </comp>
    <comp name="--.HNN">
      <acc value="0.6120036522" flag="0"/>
      <vel value="0.2591121615" flag="0"/>
      <psa03 value="1.1481036510" flag="0"/>
      <psa10 value="0.1225474768" flag="0"/>
      <psa30 value="0.0132847816" flag="0"/>
    </comp>
    <comp name="--.HNZ">
      <acc value="0.2998260254" flag="0"/>
      <vel value="0.0776759885" flag="0"/>
      <psa03 value="0.4538264673" flag="0"/>
      <psa10 value="0.0431037766" flag="0"/>
      <psa30 value="0.0028245439" flag="0"/>
    </comp>
  </station>
  <station code="NAZL" name="NAZL" netid="KO" insttype="CMG-5T" lat="37.9641" lon="28.2922">
    <comp name="--.HNN">
      <acc value="0.0906808939" flag="0"/>
      <vel value="0.0354095189" flag="0"/>
      <psa03 value="0.1790784145" flag="0"/>
      <psa10 value="0.0371607976" flag="0"/>
      <psa30 value="0.0039719774" flag="0"/>
    </comp>
    <comp name="--.HNE">
      <acc value="0.0670939637" flag="0"/>
      <vel value="0.0428567043" flag="0"/>
      <psa03 value="0.2805125542" flag="0"/>
      <psa10 value="0.0286970370" flag="0"/>
      <psa30 value="0.0019668114" flag="0"/>
    </comp>
    <comp name="--.HNZ">
      <acc value="0.0212960447" flag="0"/>
      <vel value="0.0120443560" flag="0"/>
      <psa03 value="0.0467975540" flag="0"/>
      <psa10 value="0.0119419739" flag="0"/>
      <psa30 value="0.0013608459" flag="0"/>
    </comp>
  </station>
  <station code="ODEM" name="ODEM" netid="KO" insttype="CMG-5T" lat="38.2762" lon="28.0747">
    <comp name="--.HNE">
      <acc value="0.0235058430" flag="0"/>
      <vel value="0.0108894048" flag="0"/>
      <psa03 value="0.0464951080" flag="0"/>
      <psa10 value="0.0108692793" flag="0"/>
      <psa30 value="0.0011054295" flag="0"/>
    </comp>
    <comp name="--.HNN">
      <acc value="0.0287434971" flag="0"/>
      <vel value="0.0171191189" flag="0"/>
      <psa03 value="0.0910465701" flag="0"/>
      <psa10 value="0.0100492497" flag="0"/>
      <psa30 value="0.0010594247" flag="0"/>
    </comp>
    <comp name="--.HNZ">
      <acc value="0.0168966511" flag="0"/>
      <vel value="0.0118225394" flag="0"/>
      <psa03 value="0.0460685217" flag="0"/>
      <psa10 value="0.0101619651" flag="0"/>
      <psa30 value="0.0012710221" flag="0"/>
    </comp>
  </station>
  <station code="YER" name="YER" netid="KO" insttype="CMG-3T" lat="37.1336" lon="28.284">
    <comp name="--.HHE">
      <acc value="0.0094495208" flag="0"/>
      <vel value="0.0066189305" flag="0"/>
      <psa03 value="0.0316441712" flag="0"/>
      <psa10 value="0.0057481926" flag="0"/>
      <psa30 value="0.0006899366" flag="0"/>
    </comp>
    <comp name="--.HHN">
      <acc value="0.0126913893" flag="0"/>
      <vel value="0.0087353565" flag="0"/>
      <psa03 value="0.0422289307" flag="0"/>
      <psa10 value="0.0047332495" flag="0"/>
      <psa30 value="0.0012063880" flag="0"/>
    </comp>
    <comp name="--.HHZ">
      <acc value="0.0090758685" flag="0"/>
      <vel value="0.0070867059" flag="0"/>
      <psa03 value="0.0210398934" flag="0"/>
      <psa10 value="0.0066182760" flag="0"/>
      <psa30 value="0.0007505215" flag="0"/>
    </comp>
  </station>
  <station code="YKAV" name="YKAV" netid="KO" insttype="CMG-5T" lat="37.1246" lon="27.2801">
    <comp name="--.HNN">
      <acc value="0.0426422688" flag="0"/>
      <vel value="0.0194966754" flag="0"/>
      <psa03 value="0.0651219810" flag="0"/>
      <psa10 value="0.0171965196" flag="0"/>
      <psa30 value="0.0019937469" flag="0"/>
    </comp>
    <comp name="--.HNZ">
      <acc value="0.0236816877" flag="0"/>
      <vel value="0.0090753015" flag="0"/>
      <psa03 value="0.0437648460" flag="0"/>
      <psa10 value="0.0101168671" flag="0"/>
      <psa30 value="0.0009526531" flag="0"/>
    </comp>
    <comp name="--.HNE">
      <acc value="0.0508631369" flag="0"/>
      <vel value="0.0315142021" flag="0"/>
      <psa03 value="0.1031326142" flag="0"/>
      <psa10 value="0.0355973001" flag="0"/>
      <psa30 value="0.0041545115" flag="0"/>
    </comp>
  </station>
  <station code="AYDN" name="AYDN" netid="TU" insttype="T" lat="37.6608" lon="27.8792">
    <comp name="--.HHN">
      <acc value="0.1310566270" flag="0"/>
      <vel value="0.0469127905" flag="0"/>
      <psa03 value="0.2810049794" flag="0"/>
      <psa10 value="0.0248312680" flag="0"/>
      <psa30 value="0.0032871939" flag="0"/>
    </comp>
    <comp name="--.HHE">
      <acc value="0.1814483132" flag="0"/>
      <vel value="0.0545308200" flag="0"/>
      <psa03 value="0.3607414829" flag="0"/>
      <psa10 value="0.0252417055" flag="0"/>
      <psa30 value="0.0024471755" flag="0"/>
    </comp>
    <comp name="--.HHZ">
      <acc value="0.1806675158" flag="0"/>
      <vel value="0.0231432212" flag="0"/>
      <psa03 value="0.0927587261" flag="0"/>
      <psa10 value="0.0127787104" flag="0"/>
      <psa30 value="0.0018843523" flag="0"/>
    </comp>
  </station>
</stationlist>
