<?xml version="1.0" encoding="UTF-8" standalone="yes"?>
<!DOCTYPE earthquake SYSTEM "stationlist.dtd">
<stationlist created="" xmlns="ch.ethz.sed.shakemap.usgs.xml">
  <station code="KOSP" name="KOSP" netid="HC" insttype="60" lat="36.881" lon="27.281">
    <comp name="--.HHE">
      <acc value="0.0337897247" flag="0"/>
      <vel value="0.0327283521" flag="0"/>
      <psa03 value="0.0723941890" flag="0"/>
      <psa10 value="0.0301604914" flag="0"/>
      <psa30 value="0.0040426429" flag="0"/>
    </comp>
    <comp name="--.HHZ">
      <acc value="0.0258745815" flag="0"/>
      <vel value="0.0111356614" flag="0"/>
      <psa03 value="0.0337899415" flag="0"/>
      <psa10 value="0.0136148026" flag="0"/>
      <psa30 value="0.0026044807" flag="0"/>
    </comp>
    <comp name="--.HHN">
      <acc value="0.0280534339" flag="0"/>
      <vel value="0.0178116766" flag="0"/>
      <psa03 value="0.0709908790" flag="0"/>
      <psa10 value="0.0228009916" flag="0"/>
      <psa30 value="0.0028403257" flag="0"/>
    </comp>
  </station>
  <station code="KRL1" name="KRL1" netid="HI" insttype="CMG-5TD,ACCELEROMETER,GURALP" lat="37.7951" lon="26.7065">
    <comp name="--.HNE">
      <acc value="0.7965506453" flag="0"/>
      <vel value="0.1411861946" flag="0"/>
      <psa03 value="0.5024987505" flag="0"/>
      <psa10 value="0.0826677035" flag="0"/>
      <psa30 value="0.0048617196" flag="0"/>
    </comp>
    <comp name="--.HNN">
      <acc value="0.2998076490" flag="0"/>
      <vel value="0.0948597138" flag="0"/>
      <psa03 value="0.3773876967" flag="0"/>
      <psa10 value="0.0783967771" flag="0"/>
      <psa30 value="0.0040856895" flag="0"/>
    </comp>
    <comp name="--.HNZ">
      <acc value="0.2158482930" flag="0"/>
      <vel value="0.0352651597" flag="0"/>
      <psa03 value="0.1367239702" flag="0"/>
      <psa10 value="0.0482205887" flag="0"/>
      <psa30 value="0.0021407596" flag="0"/>
    </comp>
  </station>
  <station code="KLNA" name="KLNA" netid="HL" insttype="CMG-5" lat="36.9571" lon="26.9727">
    <comp name="00.HNE">
      <acc value="0.1344317274" flag="0"/>
      <vel value="0.0448729642" flag="0"/>
      <psa03 value="0.3448273156" flag="0"/>
      <psa10 value="0.0196370876" flag="0"/>
      <psa30 value="0.0022108183" flag="0"/>
    </comp>
    <comp name="00.HNZ">
      <acc value="0.1326948773" flag="0"/>
      <vel value="0.0464434697" flag="0"/>
      <psa03 value="0.1380098625" flag="0"/>
      <psa10 value="0.0269267669" flag="0"/>
      <psa30 value="0.0013503767" flag="0"/>
    </comp>
    <comp name="00.HNN">
      <acc value="0.1051972069" flag="0"/>
      <vel value="0.0427553613" flag="0"/>
      <psa03 value="0.2547033807" flag="0"/>
      <psa10 value="0.0169339071" flag="0"/>
      <psa30 value="0.0016635861" flag="0"/>
    </comp>
  </station>
  <station code="SMG" name="SMG" netid="HL" insttype="120" lat="37.7043" lon="26.8377">
    <comp name="--.HHE">
      <acc value="0.4804889233" flag="0"/>
      <vel value="0.1121519334" flag="0"/>
      <psa03 value="0.5610929595" flag="0"/>
      <psa10 value="0.0486976039" flag="0"/>
      <psa30 value="0.0048419952" flag="0"/>
    </comp>
    <comp name="--.HHN">
      <acc value="0.6158794102" flag="0"/>
      <vel value="0.1838050916" flag="0"/>
      <psa03 value="0.5055679054" flag="0"/>
      <psa10 value="0.1184268682" flag="0"/>
      <psa30 value="0.0081577661" flag="0"/>
    </comp>
    <comp name="--.HHZ">
      <acc value="0.3500133414" flag="0"/>
      <vel value="0.0968851895" flag="0"/>
      <psa03 value="0.3367965363" flag="0"/>
      <psa10 value="0.0657085337" flag="0"/>
      <psa30 value="0.0044123541" flag="0"/>
    </comp>
  </station>
  <station code="AYDB" name="AYDB" netid="KO" insttype="CMG-3ESPC" lat="37.9467" lon="27.8908">
    <comp name="--.HHZ">
      <acc value="0.0689416702" flag="0"/>
      <vel value="0.0204769884" flag="0"/>
      <psa03 value="0.0895897449" flag="0"/>
      <psa10 value="0.0122943546" flag="0"/>
      <psa30 value="0.0008171921" flag="0"/>
    </comp>
  </station>
  <station code="BLCB" name="BLCB" netid="KO" insttype="CMG-3T" lat="38.3853" lon="27.042">
    <comp name="--.HHZ">
      <acc value="0.0566398785" flag="0"/>
      <vel value="0.0201976426" flag="0"/>
      <psa03 value="0.0973783445" flag="0"/>
      <psa10 value="0.0120882151" flag="0"/>
      <psa30 value="0.0010579109" flag="0"/>
    </comp>
    <comp name="--.HHN">
      <acc value="0.0000634408" flag="0"/>
      <vel value="0.0000159821" flag="0"/>
      <psa03 value="0.0000988229" flag="0"/>
      <psa10 value="0.0000113398" flag="0"/>
      <psa30 value="0.0000012190" flag="0"/>
    </comp>
    <comp name="--.HHE">
      <acc value="0.1318146737" flag="0"/>
      <vel value="0.0382627247" flag="0"/>
      <psa03 value="0.2423896688" flag="0"/>
      <psa10 value="0.0307410199" flag="0"/>
      <psa30 value="0.0015780373" flag="0"/>
    </comp>
  </station>
  <station code="BODM" name="BODM" netid="KO" insttype="ACEBOX" lat="37.031" lon="27.4247">
    <comp name="--.HNE">
      <acc value="0.0867925937" flag="0"/>
      <vel value="0.0514802614" flag="0"/>
      <psa03 value="0.2202002358" flag="0"/>
      <psa10 value="0.0273771336" flag="0"/>
      <psa30 value="0.0026037941" flag="0"/>
    </comp>
    <comp name="--.HNZ">
      <acc value="0.0233637283" flag="0"/>
      <vel value="0.0112680636" flag="0"/>
      <psa03 value="0.0374979523" flag="0"/>
      <psa10 value="0.0110741421" flag="0"/>
      <psa30 value="0.0006691314" flag="0"/>
    </comp>
    <comp name="--.HNN">
      <acc value="0.0843063893" flag="0"/>
      <vel value="0.0516037816" flag="0"/>
      <psa03 value="0.1995645868" flag="0"/>
      <psa10 value="0.0217203287" flag="0"/>
      <psa30 value="0.0019983795" flag="0"/>
    </comp>
  </station>
  <station code="BODT" name="BODT" netid="KO" insttype="CMG-3ESP" lat="37.0622" lon="27.3103">
    <comp name="--.HHE">
      <acc value="0.0472807821" flag="0"/>
      <vel value="0.0289443605" flag="0"/>
      <psa03 value="0.1183013470" flag="0"/>
      <psa10 value="0.0416810365" flag="0"/>
      <psa30 value="0.0032270142" flag="0"/>
    </comp>
    <comp name="--.HHN">
      <acc value="0.0411727707" flag="0"/>
      <vel value="0.0192631599" flag="0"/>
      <psa03 value="0.0787399022" flag="0"/>
      <psa10 value="0.0180447479" flag="0"/>
      <psa30 value="0.0018469209" flag="0"/>
    </comp>
    <comp name="--.HHZ">
      <acc value="0.0339356958" flag="0"/>
      <vel value="0.0125146062" flag="0"/>
      <psa03 value="0.0444691575" flag="0"/>
      <psa10 value="0.0096545122" flag="0"/>
      <psa30 value="0.0008920098" flag="0"/>
    </comp>
  </station>
  <station code="DAT" name="DAT" netid="KO" insttype="CMG-3T" lat="36.7308" lon="27.5767">
    <comp name="--.HHZ">
      <acc value="0.0000281967" flag="0"/>
      <vel value="0.0000028861" flag="0"/>
      <psa03 value="0.0000096325" flag="0"/>
      <psa10 value="0.0000022320" flag="0"/>
      <psa30 value="0.0000006523" flag="0"/>
    </comp>
    <comp name="--.HHN">
      <acc value="0.0169889265" flag="0"/>
      <vel value="0.0108037425" flag="0"/>
      <psa03 value="0.0546547285" flag="0"/>
      <psa10 value="0.0088895992" flag="0"/>
      <psa30 value="0.0014466487" flag="0"/>
    </comp>
    <comp name="--.HHE">
      <acc value="0.0145609030" flag="0"/>
      <vel value="0.0128518101" flag="0"/>
      <psa03 value="0.0379061955" flag="0"/>
      <psa10 value="0.0117039434" flag="0"/>
      <psa30 value="0.0032321911" flag="0"/>
    </comp>
  </station>
  <station code="DIDI" name="DIDI" netid="KO" insttype="CMG-5T" lat="37.3767" lon="27.2398">
    <comp name="--.HNE">
      <acc value="0.1845576074" flag="0"/>
      <vel value="0.1165562347" flag="0"/>
      <psa03 value="0.7385565991" flag="0"/>
      <psa10 value="0.1196572659" flag="0"/>
      <psa30 value="0.0126774705" flag="0"/>
    </comp>
    <comp name="--.HNN">
      <acc value="0.1827706547" flag="0"/>
      <vel value="0.1043468350" flag="0"/>
      <psa03 value="0.5900873464" flag="0"/>
      <psa10 value="0.0766512630" flag="0"/>
      <psa30 value="0.0081467367" flag="0"/>
    </comp>
    <comp name="--.HNZ">
      <acc value="0.3772373058" flag="0"/>
      <vel value="0.0866086385" flag="0"/>
      <psa03 value="0.3453023718" flag="0"/>
      <psa10 value="0.0492330696" flag="0"/>
      <psa30 value="0.0043482386" flag="0"/>
    </comp>
  </station>
  <station code="GMLD" name="GMLD" netid="KO" insttype="CMG-5T" lat="38.0766" lon="26.9157">
    <comp name="--.HNE">
      <acc value="0.5119816303" flag="0"/>
      <vel value="0.2005195625" flag="0"/>
      <psa03 value="0.7641016184" flag="0"/>
      <psa10 value="0.1033415751" flag="0"/>
      <psa30 value="0.0075964013" flag="0"/>
    </comp>
    <comp name="--.HNZ">
      <acc value="0.3710349533" flag="0"/>
      <vel value="0.0929318941" flag="0"/>
      <psa03 value="0.6362148972" flag="0"/>
      <psa10 value="0.0294343518" flag="0"/>
      <psa30 value="0.0028593085" flag="0"/>
    </comp>
    <comp name="--.HNN">
      <acc value="0.4474914311" flag="0"/>
      <vel value="0.2617942514" flag="0"/>
      <psa03 value="0.9852137239" flag="0"/>
      <psa10 value="0.1438791713" flag="0"/>
      <psa30 value="0.0089927069" flag="0"/>
    </comp>
  </station>
  <station code="KUSD" name="KUSD" netid="KO" insttype="CMG-5T" lat="37.8606" lon="27.2868">
    <comp name="--.HNE">
      <acc value="0.4253381310" flag="0"/>
      <vel value="0.1354638895" flag="0"/>
      <psa03 value="1.1434422644" flag="0"/>
      <psa10 value="0.0873511098" flag="0"/>
      <psa30 value="0.0077595376" flag="0"/>
    </comp>
    <comp name="--.HNN">
      <acc value="0.6120036396" flag="0"/>
      <vel value="0.2591121506" flag="0"/>
      <psa03 value="1.1481036510" flag="0"/>
      <psa10 value="0.1225474143" flag="0"/>
      <psa30 value="0.0132834716" flag="0"/>
    </comp>
    <comp name="--.HNZ">
      <acc value="0.2998260740" flag="0"/>
      <vel value="0.0776759940" flag="0"/>
      <psa03 value="0.4538264673" flag="0"/>
      <psa10 value="0.0431037799" flag="0"/>
      <psa30 value="0.0028258472" flag="0"/>
    </comp>
  </station>
  <station code="NAZL" name="NAZL" netid="KO" insttype="CMG-5T" lat="37.9641" lon="28.2922">
    <comp name="--.HNE">
      <acc value="0.0670939647" flag="0"/>
      <vel value="0.0428567112" flag="0"/>
      <psa03 value="0.2805125542" flag="0"/>
      <psa10 value="0.0286970372" flag="0"/>
      <psa30 value="0.0019670231" flag="0"/>
    </comp>
    <comp name="--.HNZ">
      <acc value="0.0212960429" flag="0"/>
      <vel value="0.0120443535" flag="0"/>
      <psa03 value="0.0467975540" flag="0"/>
      <psa10 value="0.0119419731" flag="0"/>
      <psa30 value="0.0013608791" flag="0"/>
    </comp>
    <comp name="--.HNN">
      <acc value="0.0906808940" flag="0"/>
      <vel value="0.0354095188" flag="0"/>
      <psa03 value="0.1790784145" flag="0"/>
      <psa10 value="0.0371607970" flag="0"/>
      <psa30 value="0.0039718198" flag="0"/>
    </comp>
  </station>
  <station code="ODEM" name="ODEM" netid="KO" insttype="CMG-5T" lat="38.2762" lon="28.0747">
    <comp name="--.HNN">
      <acc value="0.0287434943" flag="0"/>
      <vel value="0.0171191195" flag="0"/>
      <psa03 value="0.0910465701" flag="0"/>
      <psa10 value="0.0100492497" flag="0"/>
      <psa30 value="0.0010592155" flag="0"/>
    </comp>
    <comp name="--.HNE">
      <acc value="0.0235058424" flag="0"/>
      <vel value="0.0108894091" flag="0"/>
      <psa03 value="0.0464951080" flag="0"/>
      <psa10 value="0.0108692789" flag="0"/>
      <psa30 value="0.0011057769" flag="0"/>
    </comp>
    <comp name="--.HNZ">
      <acc value="0.0168966511" flag="0"/>
      <vel value="0.0118225423" flag="0"/>
      <psa03 value="0.0460685217" flag="0"/>
      <psa10 value="0.0101619653" flag="0"/>
      <psa30 value="0.0012711960" flag="0"/>
    </comp>
  </station>
  <station code="YKAV" name="YKAV" netid="KO" insttype="CMG-5T" lat="37.1246" lon="27.2801">
    <comp name="--.HNN">
      <acc value="0.0426421323" flag="0"/>
      <vel value="0.0194966643" flag="0"/>
      <psa03 value="0.0651219810" flag="0"/>
      <psa10 value="0.0171965152" flag="0"/>
      <psa30 value="0.0019909422" flag="0"/>
    </comp>
    <comp name="--.HNE">
      <acc value="0.0508629608" flag="0"/>
      <vel value="0.0315142160" flag="0"/>
      <psa03 value="0.1031326142" flag="0"/>
      <psa10 value="0.0355973031" flag="0"/>
      <psa30 value="0.0041547220" flag="0"/>
    </comp>
    <comp name="--.HNZ">
      <acc value="0.0236817224" flag="0"/>
      <vel value="0.0090753112" flag="0"/>
      <psa03 value="0.0437648460" flag="0"/>
      <psa10 value="0.0101168669" flag="0"/>
      <psa30 value="0.0009531294" flag="0"/>
    </comp>
  </station>
  <station code="AYDN" name="AYDN" netid="TU" insttype="T" lat="37.6608" lon="27.8792">
    <comp name="--.HHE">
      <acc value="0.1814483132" flag="0"/>
      <vel value="0.0545308194" flag="0"/>
      <psa03 value="0.3607414829" flag="0"/>
      <psa10 value="0.0252417056" flag="0"/>
      <psa30 value="0.0024471979" flag="0"/>
    </comp>
    <comp name="--.HHZ">
      <acc value="0.1806675160" flag="0"/>
      <vel value="0.0231432212" flag="0"/>
      <psa03 value="0.0927587261" flag="0"/>
      <psa10 value="0.0127787105" flag="0"/>
      <psa30 value="0.0018842143" flag="0"/>
    </comp>
    <comp name="--.HHN">
      <acc value="0.1310566277" flag="0"/>
      <vel value="0.0469127843" flag="0"/>
      <psa03 value="0.2810049794" flag="0"/>
      <psa10 value="0.0248312677" flag="0"/>
      <psa30 value="0.0032872213" flag="0"/>
    </comp>
  </station>
</stationlist>
