<?xml version="1.0" encoding="UTF-8" standalone="yes"?>
<!DOCTYPE earthquake SYSTEM "stationlist.dtd">
<stationlist created="" xmlns="ch.ethz.sed.shakemap.usgs.xml">
  <station code="AYDB" name="AYDB" netid="KO" insttype="CMG-3ESPC" lat="37.9467" lon="27.8908">
    <comp name="--.HHE">
      <acc value="0.1398210611" flag="0"/>
      <vel value="0.0315777522" flag="0"/>
      <psa03 value="0.2102225289" flag="0"/>
      <psa10 value="0.0220150598" flag="0"/>
      <psa30 value="0.0022125425" flag="0"/>
    </comp>
  </station>
  <station code="BLCB" name="BLCB" netid="KO" insttype="CMG-3T" lat="38.3853" lon="27.042">
    <comp name="--.HHN">
      <acc value="0.0000634408" flag="0"/>
      <vel value="0.0000159821" flag="0"/>
      <psa03 value="0.0000988229" flag="0"/>
      <psa10 value="0.0000113398" flag="0"/>
      <psa30 value="0.0000012184" flag="0"/>
    </comp>
    <comp name="--.HHZ">
      <acc value="0.0566398784" flag="0"/>
      <vel value="0.0201976427" flag="0"/>
      <psa03 value="0.0973783445" flag="0"/>
      <psa10 value="0.0120882151" flag="0"/>
      <psa30 value="0.0010578974" flag="0"/>
    </comp>
    <comp name="--.HHE">
      <acc value="0.1318146737" flag="0"/>
      <vel value="0.0382627246" flag="0"/>
      <psa03 value="0.2423896688" flag="0"/>
      <psa10 value="0.0307410199" flag="0"/>
      <psa30 value="0.0015780375" flag="0"/>
    </comp>
  </station>
  <station code="BODM" name="BODM" netid="KO" insttype="ACEBOX" lat="37.031" lon="27.4247">
    <comp name="--.HNE">
      <acc value="0.0867925920" flag="0"/>
      <vel value="0.0514802633" flag="0"/>
      <psa03 value="0.2202002358" flag="0"/>
      <psa10 value="0.0273771313" flag="0"/>
      <psa30 value="0.0026031424" flag="0"/>
    </comp>
    <comp name="--.HNN">
      <acc value="0.0843063892" flag="0"/>
      <vel value="0.0516037790" flag="0"/>
      <psa03 value="0.1995645868" flag="0"/>
      <psa10 value="0.0217203268" flag="0"/>
      <psa30 value="0.0019979317" flag="0"/>
    </comp>
    <comp name="--.HNZ">
      <acc value="0.0233637282" flag="0"/>
      <vel value="0.0112680632" flag="0"/>
      <psa03 value="0.0374979523" flag="0"/>
      <psa10 value="0.0110741430" flag="0"/>
      <psa30 value="0.0006695692" flag="0"/>
    </comp>
  </station>
  <station code="BODT" name="BODT" netid="KO" insttype="CMG-3ESP" lat="37.0622" lon="27.3103">
    <comp name="--.HHE">
      <acc value="0.0472807821" flag="0"/>
      <vel value="0.0289443603" flag="0"/>
      <psa03 value="0.1183013470" flag="0"/>
      <psa10 value="0.0416810370" flag="0"/>
      <psa30 value="0.0032270078" flag="0"/>
    </comp>
    <comp name="--.HHN">
      <acc value="0.0411727707" flag="0"/>
      <vel value="0.0192631568" flag="0"/>
      <psa03 value="0.0787399022" flag="0"/>
      <psa10 value="0.0180447477" flag="0"/>
      <psa30 value="0.0018470206" flag="0"/>
    </comp>
    <comp name="--.HHZ">
      <acc value="0.0339356959" flag="0"/>
      <vel value="0.0125146088" flag="0"/>
      <psa03 value="0.0444691575" flag="0"/>
      <psa10 value="0.0096545118" flag="0"/>
      <psa30 value="0.0008920026" flag="0"/>
    </comp>
  </station>
  <station code="DAT" name="DAT" netid="KO" insttype="CMG-3T" lat="36.7308" lon="27.5767">
    <comp name="--.HHZ">
      <acc value="0.0000281964" flag="0"/>
      <vel value="0.0000028852" flag="0"/>
      <psa03 value="0.0000096325" flag="0"/>
      <psa10 value="0.0000024325" flag="0"/>
      <psa30 value="0.0000006523" flag="0"/>
    </comp>
    <comp name="--.HHE">
      <acc value="0.0145609031" flag="0"/>
      <vel value="0.0128518104" flag="0"/>
      <psa03 value="0.0379061955" flag="0"/>
      <psa10 value="0.0117039434" flag="0"/>
      <psa30 value="0.0032321401" flag="0"/>
    </comp>
    <comp name="--.HHN">
      <acc value="0.0169889265" flag="0"/>
      <vel value="0.0108037428" flag="0"/>
      <psa03 value="0.0546547285" flag="0"/>
      <psa10 value="0.0088895992" flag="0"/>
      <psa30 value="0.0014466443" flag="0"/>
    </comp>
  </station>
  <station code="DIDI" name="DIDI" netid="KO" insttype="CMG-5T" lat="37.3767" lon="27.2398">
    <comp name="--.HNE">
      <acc value="0.1845575862" flag="0"/>
      <vel value="0.1165562281" flag="0"/>
      <psa03 value="0.7385565991" flag="0"/>
      <psa10 value="0.1196572669" flag="0"/>
      <psa30 value="0.0126775281" flag="0"/>
    </comp>
    <comp name="--.HNN">
      <acc value="0.1827706878" flag="0"/>
      <vel value="0.1043468353" flag="0"/>
      <psa03 value="0.5900873464" flag="0"/>
      <psa10 value="0.0766512631" flag="0"/>
      <psa30 value="0.0081464015" flag="0"/>
    </comp>
    <comp name="--.HNZ">
      <acc value="0.3772373159" flag="0"/>
      <vel value="0.0866086294" flag="0"/>
      <psa03 value="0.3453023718" flag="0"/>
      <psa10 value="0.0492330695" flag="0"/>
      <psa30 value="0.0043492917" flag="0"/>
    </comp>
  </station>
  <station code="GMLD" name="GMLD" netid="KO" insttype="CMG-5T" lat="38.0766" lon="26.9157">
    <comp name="--.HNE">
      <acc value="0.5119816288" flag="0"/>
      <vel value="0.2005195661" flag="0"/>
      <psa03 value="0.7641016184" flag="0"/>
      <psa10 value="0.1033415771" flag="0"/>
      <psa30 value="0.0075867085" flag="0"/>
    </comp>
    <comp name="--.HNN">
      <acc value="0.4474914308" flag="0"/>
      <vel value="0.2617942492" flag="0"/>
      <psa03 value="0.9852137239" flag="0"/>
      <psa10 value="0.1438791631" flag="0"/>
      <psa30 value="0.0089898093" flag="0"/>
    </comp>
    <comp name="--.HNZ">
      <acc value="0.3710349472" flag="0"/>
      <vel value="0.0929318966" flag="0"/>
      <psa03 value="0.6362148972" flag="0"/>
      <psa10 value="0.0294343650" flag="0"/>
      <psa30 value="0.0028676481" flag="0"/>
    </comp>
  </station>
  <station code="GOMA" name="GOMA" netid="KO" insttype="CMG-5T" lat="38.7077" lon="27.9175">
    <comp name="--.HNN">
      <acc value="0.0206147761" flag="0"/>
      <vel value="0.0110512078" flag="0"/>
      <psa03 value="0.0605050042" flag="0"/>
      <psa10 value="0.0088625574" flag="0"/>
      <psa30 value="0.0006295172" flag="0"/>
    </comp>
    <comp name="--.HNZ">
      <acc value="0.0144865859" flag="0"/>
      <vel value="0.0082178731" flag="0"/>
      <psa03 value="0.0370190041" flag="0"/>
      <psa10 value="0.0050957207" flag="0"/>
      <psa30 value="0.0005272345" flag="0"/>
    </comp>
    <comp name="--.HNE">
      <acc value="0.0313259550" flag="0"/>
      <vel value="0.0154117018" flag="0"/>
      <psa03 value="0.1152699396" flag="0"/>
      <psa10 value="0.0068538908" flag="0"/>
      <psa30 value="0.0010781402" flag="0"/>
    </comp>
  </station>
  <station code="KUSD" name="KUSD" netid="KO" insttype="CMG-5T" lat="37.8606" lon="27.2868">
    <comp name="--.HNE">
      <acc value="0.4253381431" flag="0"/>
      <vel value="0.1354638978" flag="0"/>
      <psa03 value="1.1434422644" flag="0"/>
      <psa10 value="0.0873511210" flag="0"/>
      <psa30 value="0.0077605500" flag="0"/>
    </comp>
    <comp name="--.HNZ">
      <acc value="0.2998260677" flag="0"/>
      <vel value="0.0776760014" flag="0"/>
      <psa03 value="0.4538264673" flag="0"/>
      <psa10 value="0.0431037656" flag="0"/>
      <psa30 value="0.0028263956" flag="0"/>
    </comp>
    <comp name="--.HNN">
      <acc value="0.6120036165" flag="0"/>
      <vel value="0.2591121523" flag="0"/>
      <psa03 value="1.1481036510" flag="0"/>
      <psa10 value="0.1225473762" flag="0"/>
      <psa30 value="0.0132763664" flag="0"/>
    </comp>
  </station>
  <station code="NAZL" name="NAZL" netid="KO" insttype="CMG-5T" lat="37.9641" lon="28.2922">
    <comp name="--.HNE">
      <acc value="0.0670939655" flag="0"/>
      <vel value="0.0428567088" flag="0"/>
      <psa03 value="0.2805125542" flag="0"/>
      <psa10 value="0.0286970373" flag="0"/>
      <psa30 value="0.0019672273" flag="0"/>
    </comp>
    <comp name="--.HNZ">
      <acc value="0.0212960427" flag="0"/>
      <vel value="0.0120443558" flag="0"/>
      <psa03 value="0.0467975540" flag="0"/>
      <psa10 value="0.0119419729" flag="0"/>
      <psa30 value="0.0013607702" flag="0"/>
    </comp>
    <comp name="--.HNN">
      <acc value="0.0906808931" flag="0"/>
      <vel value="0.0354095161" flag="0"/>
      <psa03 value="0.1790784145" flag="0"/>
      <psa10 value="0.0371607970" flag="0"/>
      <psa30 value="0.0039718207" flag="0"/>
    </comp>
  </station>
  <station code="ODEM" name="ODEM" netid="KO" insttype="CMG-5T" lat="38.2762" lon="28.0747">
    <comp name="--.HNN">
      <acc value="0.0287434931" flag="0"/>
      <vel value="0.0171191208" flag="0"/>
      <psa03 value="0.0910465701" flag="0"/>
      <psa10 value="0.0100492496" flag="0"/>
      <psa30 value="0.0010590875" flag="0"/>
    </comp>
    <comp name="--.HNE">
      <acc value="0.0235058414" flag="0"/>
      <vel value="0.0108894119" flag="0"/>
      <psa03 value="0.0464951080" flag="0"/>
      <psa10 value="0.0108692786" flag="0"/>
      <psa30 value="0.0011056141" flag="0"/>
    </comp>
    <comp name="--.HNZ">
      <acc value="0.0168966511" flag="0"/>
      <vel value="0.0118225444" flag="0"/>
      <psa03 value="0.0460685217" flag="0"/>
      <psa10 value="0.0101619652" flag="0"/>
      <psa30 value="0.0012713588" flag="0"/>
    </comp>
  </station>
  <station code="YKAV" name="YKAV" netid="KO" insttype="CMG-5T" lat="37.1246" lon="27.2801">
    <comp name="--.HNE">
      <acc value="0.0508628646" flag="0"/>
      <vel value="0.0315142140" flag="0"/>
      <psa03 value="0.1031326142" flag="0"/>
      <psa10 value="0.0355973033" flag="0"/>
      <psa30 value="0.0041554179" flag="0"/>
    </comp>
    <comp name="--.HNN">
      <acc value="0.0426420551" flag="0"/>
      <vel value="0.0194966511" flag="0"/>
      <psa03 value="0.0651219810" flag="0"/>
      <psa10 value="0.0171965132" flag="0"/>
      <psa30 value="0.0019898808" flag="0"/>
    </comp>
    <comp name="--.HNZ">
      <acc value="0.0236817235" flag="0"/>
      <vel value="0.0090753005" flag="0"/>
      <psa03 value="0.0437648460" flag="0"/>
      <psa10 value="0.0101168667" flag="0"/>
      <psa30 value="0.0009535311" flag="0"/>
    </comp>
  </station>
  <station code="AYDN" name="AYDN" netid="TU" insttype="T" lat="37.6608" lon="27.8792">
    <comp name="--.HHE">
      <acc value="0.1814483133" flag="0"/>
      <vel value="0.0545308200" flag="0"/>
      <psa03 value="0.3607414829" flag="0"/>
      <psa10 value="0.0252417058" flag="0"/>
      <psa30 value="0.0024471792" flag="0"/>
    </comp>
    <comp name="--.HHZ">
      <acc value="0.1806675162" flag="0"/>
      <vel value="0.0231432082" flag="0"/>
      <psa03 value="0.0927587261" flag="0"/>
      <psa10 value="0.0127787104" flag="0"/>
      <psa30 value="0.0018845330" flag="0"/>
    </comp>
    <comp name="--.HHN">
      <acc value="0.1310566280" flag="0"/>
      <vel value="0.0469127848" flag="0"/>
      <psa03 value="0.2810049794" flag="0"/>
      <psa10 value="0.0248312679" flag="0"/>
      <psa30 value="0.0032872237" flag="0"/>
    </comp>
  </station>
</stationlist>
