<?xml version="1.0" encoding="UTF-8" standalone="yes"?>
<!DOCTYPE earthquake SYSTEM "stationlist.dtd">
<stationlist created="" xmlns="ch.ethz.sed.shakemap.usgs.xml">
  <station code="CEYT" name="CEYT" netid="KO" insttype="CMG-3ESP" lat="37.0105" lon="35.7478">
    <comp name="--.HHE">
      <acc value="0.0123802990" flag="0"/>
      <vel value="0.0051040868" flag="0"/>
      <psa03 value="0.0220424282" flag="0"/>
      <psa10 value="0.0040063535" flag="0"/>
      <psa30 value="0.0005871845" flag="0"/>
    </comp>
    <comp name="--.HHN">
      <acc value="0.0105098326" flag="0"/>
      <vel value="0.0045987541" flag="0"/>
      <psa03 value="0.0155904125" flag="0"/>
      <psa10 value="0.0027122737" flag="0"/>
      <psa30 value="0.0003728225" flag="0"/>
    </comp>
    <comp name="--.HHZ">
      <acc value="0.0068954912" flag="0"/>
      <vel value="0.0032813400" flag="0"/>
      <psa03 value="0.0147134018" flag="0"/>
      <psa10 value="0.0029839456" flag="0"/>
      <psa30 value="0.0005086513" flag="0"/>
    </comp>
  </station>
  <station code="GAZ" name="GAZ" netid="KO" insttype="CMG-3T" lat="37.1721" lon="37.2096">
    <comp name="--.HHN">
      <acc value="0.0501930304" flag="0"/>
      <vel value="0.0157337744" flag="0"/>
      <psa03 value="0.0799994815" flag="0"/>
      <psa10 value="0.0153393737" flag="0"/>
      <psa30 value="0.0012430693" flag="0"/>
    </comp>
    <comp name="--.HHZ">
      <acc value="0.0298145454" flag="0"/>
      <vel value="0.0165746224" flag="0"/>
      <psa03 value="0.0666392461" flag="0"/>
      <psa10 value="0.0119409471" flag="0"/>
      <psa30 value="0.0012890629" flag="0"/>
    </comp>
    <comp name="--.HHE">
      <acc value="0.0370599990" flag="0"/>
      <vel value="0.0155465833" flag="0"/>
      <psa03 value="0.0806232179" flag="0"/>
      <psa10 value="0.0081544832" flag="0"/>
      <psa30 value="0.0015889639" flag="0"/>
    </comp>
  </station>
  <station code="KHMN" name="KHMN" netid="KO" insttype="CMG-5T" lat="37.3916" lon="37.1574">
    <comp name="--.HNE">
      <acc value="0.0802272296" flag="0"/>
      <vel value="0.0200405634" flag="0"/>
      <psa03 value="0.1009382387" flag="0"/>
      <psa10 value="0.0092259995" flag="0"/>
      <psa30 value="0.0009746277" flag="0"/>
    </comp>
    <comp name="--.HNZ">
      <acc value="0.0531069516" flag="0"/>
      <vel value="0.0099222145" flag="0"/>
      <psa03 value="0.0597213444" flag="0"/>
      <psa10 value="0.0049737477" flag="0"/>
      <psa30 value="0.0005324543" flag="0"/>
    </comp>
    <comp name="--.HNN">
      <acc value="0.0856244706" flag="0"/>
      <vel value="0.0237315916" flag="0"/>
      <psa03 value="0.0903670155" flag="0"/>
      <psa10 value="0.0085581880" flag="0"/>
      <psa30 value="0.0006391700" flag="0"/>
    </comp>
  </station>
  <station code="KMRS" name="KMRS" netid="KO" insttype="CMG-3T" lat="37.5053" lon="36.9">
    <comp name="--.HHE">
      <acc value="0.0201417653" flag="0"/>
      <vel value="0.0074724568" flag="0"/>
      <psa03 value="0.0339333705" flag="0"/>
      <psa10 value="0.0046439898" flag="0"/>
      <psa30 value="0.0005722731" flag="0"/>
    </comp>
    <comp name="--.HHN">
      <acc value="0.0259235977" flag="0"/>
      <vel value="0.0079316187" flag="0"/>
      <psa03 value="0.0255834069" flag="0"/>
      <psa10 value="0.0058307299" flag="0"/>
      <psa30 value="0.0008524930" flag="0"/>
    </comp>
    <comp name="--.HHZ">
      <acc value="0.0208891086" flag="0"/>
      <vel value="0.0062985647" flag="0"/>
      <psa03 value="0.0284250868" flag="0"/>
      <psa10 value="0.0076981149" flag="0"/>
      <psa30 value="0.0008100997" flag="0"/>
    </comp>
  </station>
  <station code="ANDN" name="ANDN" netid="TU" insttype="T" lat="37.58" lon="36.3452">
    <comp name="--.HHN">
      <acc value="0.0983122391" flag="0"/>
      <vel value="0.0251917981" flag="0"/>
      <psa03 value="0.1739154457" flag="0"/>
      <psa10 value="0.0130098329" flag="0"/>
      <psa30 value="0.0010709524" flag="0"/>
    </comp>
    <comp name="--.HHE">
      <acc value="0.0477703681" flag="0"/>
      <vel value="0.0287903035" flag="0"/>
      <psa03 value="0.1760974402" flag="0"/>
      <psa10 value="0.0154025411" flag="0"/>
      <psa30 value="0.0011029058" flag="0"/>
    </comp>
    <comp name="--.HHZ">
      <acc value="0.0262896395" flag="0"/>
      <vel value="0.0105782728" flag="0"/>
      <psa03 value="0.0590937764" flag="0"/>
      <psa10 value="0.0135055349" flag="0"/>
      <psa30 value="0.0007361194" flag="0"/>
    </comp>
  </station>
</stationlist>
