<stationlist xmlns:esm="https://esm-db.eu/esmws/shakemap/1/" created="1781661305">
	<station code="ASOL" name="ASOL" netid="IV" source="Italian National Seismic Network (INSN)" insttype="" lat="45.8003" lon="11.9023" esm:processing="manual (Paolucci et al 2011)" esm:quality="good">
		<comp name="--.HNE" depth="0.0">
			<acc value="0.504998186274002" flag="0"/>
			<vel value="0.251534972882323" flag="0"/>
			<psa03 value="2.14219691003054" flag="0"/>
			<psa10 value="0.135462528727665" flag="0"/>
			<psa30 value="0.00849873383276106" flag="0"/>
		</comp>
		<comp name="--.HNN" depth="0.0">
			<acc value="0.408910461565906" flag="0"/>
			<vel value="0.207033112604647" flag="0"/>
			<psa03 value="1.03207028625734" flag="0"/>
			<psa10 value="0.18757020560556" flag="0"/>
			<psa30 value="0.00939071542214677" flag="0"/>
		</comp>
		<comp name="--.HNZ" depth="0.0">
			<acc value="0.103317938326172" flag="0"/>
			<vel value="0.0510884189639074" flag="0"/>
			<psa03 value="0.408516270531213" flag="0"/>
			<psa10 value="0.0431479095873137" flag="0"/>
			<psa30 value="0.0038275368888681" flag="0"/>
		</comp>
	</station>
	<station code="ATBU" name="ATBU" netid="IV" source="Italian National Seismic Network (INSN)" insttype="" lat="43.47571" lon="12.54828" esm:processing="manual (Paolucci et al 2011)" esm:quality="good">
		<comp name="--.HNE" depth="1.0">
			<acc value="0.0303062168888673" flag="0"/>
			<vel value="0.0329360538189851" flag="0"/>
			<psa03 value="0.110232635704527" flag="0"/>
			<psa10 value="0.0377855718586951" flag="0"/>
			<psa30 value="0.00326950263016973" flag="0"/>
		</comp>
		<comp name="--.HNN" depth="1.0">
			<acc value="0.0267957892133839" flag="0"/>
			<vel value="0.0306891483707282" flag="0"/>
			<psa03 value="0.0896511785339925" flag="0"/>
			<psa10 value="0.0599756530928164" flag="0"/>
			<psa30 value="0.00316653997606679" flag="0"/>
		</comp>
		<comp name="--.HNZ" depth="1.0">
			<acc value="0.0144557584632637" flag="0"/>
			<vel value="0.0189179283898193" flag="0"/>
			<psa03 value="0.0239912143001851" flag="0"/>
			<psa10 value="0.0302328284015049" flag="0"/>
			<psa30 value="0.00378211888014917" flag="0"/>
		</comp>
	</station>
	<station code="ATCC" name="ATCC" netid="IV" source="Italian National Seismic Network (INSN)" insttype="" lat="43.18514" lon="12.63994" esm:processing="manual (Paolucci et al 2011)" esm:quality="good">
		<comp name="--.HNE" depth="1.0">
			<acc value="0.0285985505944243" flag="0"/>
			<vel value="0.0232102214322566" flag="0"/>
			<psa03 value="0.0551924947737576" flag="0"/>
			<psa10 value="0.0359354805492344" flag="0"/>
			<psa30 value="0.00407439657544235" flag="0"/>
		</comp>
		<comp name="--.HNN" depth="1.0">
			<acc value="0.0543713488697718" flag="0"/>
			<vel value="0.0441809383423759" flag="0"/>
			<psa03 value="0.127473871601848" flag="0"/>
			<psa10 value="0.0246363457869964" flag="0"/>
			<psa30 value="0.00405295223819691" flag="0"/>
		</comp>
		<comp name="--.HNZ" depth="1.0">
			<acc value="0.0136400283359216" flag="0"/>
			<vel value="0.0128994933607474" flag="0"/>
			<psa03 value="0.0289547931129194" flag="0"/>
			<psa10 value="0.0216498016931002" flag="0"/>
			<psa30 value="0.00253683034422596" flag="0"/>
		</comp>
	</station>
	<station code="ATFO" name="ATFO" netid="IV" source="Italian National Seismic Network (INSN)" insttype="" lat="43.3666" lon="12.5715" esm:processing="automatic (Paolucci et al 2011)" esm:quality="best">
		<comp name="--.HNE" depth="1.0">
			<acc value="0.0363367968547441" flag="0"/>
			<vel value="0.0306617577865115" flag="0"/>
			<psa03 value="0.0916558425830789" flag="0"/>
			<psa10 value="0.0310309412725682" flag="0"/>
			<psa30 value="0.00248813545176145" flag="0"/>
		</comp>
		<comp name="--.HNN" depth="1.0">
			<acc value="0.0338268438102759" flag="0"/>
			<vel value="0.0344127188814543" flag="0"/>
			<psa03 value="0.0937167811935454" flag="0"/>
			<psa10 value="0.0620663190889319" flag="0"/>
			<psa30 value="0.00456473697477618" flag="0"/>
		</comp>
		<comp name="--.HNZ" depth="1.0">
			<acc value="0.0132237063802686" flag="0"/>
			<vel value="0.0123907247652189" flag="0"/>
			<psa03 value="0.0336068252455679" flag="0"/>
			<psa10 value="0.0253087484553854" flag="0"/>
			<psa30 value="0.00215525590012582" flag="0"/>
		</comp>
	</station>
	<station code="ATPC" name="ATPC" netid="IV" source="Italian National Seismic Network (INSN)" insttype="" lat="43.4807" lon="12.457" esm:processing="manual (Paolucci et al 2011)" esm:quality="bad">
		<comp name="--.HNE" depth="1.0">
			<acc value="0.0169557620311513" flag="0"/>
			<vel value="0.0128856181928233" flag="0"/>
			<psa03 value="0.0480359008927422" flag="0"/>
			<psa10 value="0.0204442243295219" flag="0"/>
			<psa30 value="0.00258693928869916" flag="0"/>
		</comp>
		<comp name="--.HNN" depth="1.0">
			<acc value="0.0136908725081293" flag="0"/>
			<vel value="0.0131766062338239" flag="0"/>
			<psa03 value="0.0400905334052334" flag="0"/>
			<psa10 value="0.0182109757627516" flag="0"/>
			<psa30 value="0.0022316803378692" flag="0"/>
		</comp>
		<comp name="--.HNZ" depth="1.0">
			<acc value="0.0101700804867424" flag="0"/>
			<vel value="0.00852383250233978" flag="0"/>
			<psa03 value="0.0227119134069574" flag="0"/>
			<psa10 value="0.00845007852624574" flag="0"/>
			<psa30 value="0.00183298163436873" flag="0"/>
		</comp>
	</station>
	<station code="ATPI" name="ATPI" netid="IV" source="Italian National Seismic Network (INSN)" insttype="" lat="43.45068" lon="12.40222" esm:processing="manual (Paolucci et al 2011)" esm:quality="good">
		<comp name="--.HNE" depth="1.0">
			<acc value="0.0115740799364142" flag="0"/>
			<vel value="0.0100679245473923" flag="0"/>
			<psa03 value="0.030468169408361" flag="0"/>
			<psa10 value="0.0181202403769838" flag="0"/>
			<psa30 value="0.00212268165890682" flag="0"/>
		</comp>
		<comp name="--.HNN" depth="1.0">
			<acc value="0.0105666678572759" flag="0"/>
			<vel value="0.0121045021103059" flag="0"/>
			<psa03 value="0.0304374460189114" flag="0"/>
			<psa10 value="0.021553915341091" flag="0"/>
			<psa30 value="0.00302481412909027" flag="0"/>
		</comp>
		<comp name="--.HNZ" depth="1.0">
			<acc value="0.00634989663042764" flag="0"/>
			<vel value="0.00759489375371033" flag="0"/>
			<psa03 value="0.0179045884348719" flag="0"/>
			<psa10 value="0.0128201014563089" flag="0"/>
			<psa30 value="0.0026168046004638" flag="0"/>
		</comp>
	</station>
	<station code="BRIS" name="BRIS" netid="IV" source="Italian National Seismic Network (INSN)" insttype="" lat="44.22454" lon="11.76657" esm:processing="automatic (Paolucci et al 2011)" esm:quality="best">
		<comp name="--.HNE" depth="0.0">
			<acc value="0.0129389800216426" flag="0"/>
			<vel value="0.0118684113099268" flag="0"/>
			<psa03 value="0.0290929663287273" flag="0"/>
			<psa10 value="0.0161696255333375" flag="0"/>
			<psa30 value="0.00289642312381868" flag="0"/>
		</comp>
		<comp name="--.HNN" depth="0.0">
			<acc value="0.0122906725242337" flag="0"/>
			<vel value="0.0143301283328362" flag="0"/>
			<psa03 value="0.0320288691512282" flag="0"/>
			<psa10 value="0.0224851264042789" flag="0"/>
			<psa30 value="0.00375986490593255" flag="0"/>
		</comp>
		<comp name="--.HNZ" depth="0.0">
			<acc value="0.0109613260360142" flag="0"/>
			<vel value="0.00798676564638231" flag="0"/>
			<psa03 value="0.0262042749671304" flag="0"/>
			<psa10 value="0.0119628152903196" flag="0"/>
			<psa30 value="0.00149864219435606" flag="0"/>
		</comp>
	</station>
	<station code="CAFI" name="CAFI" netid="IV" source="Italian National Seismic Network (INSN)" insttype="" lat="43.3292" lon="11.9663" esm:processing="automatic (Paolucci et al 2011)" esm:quality="best">
		<comp name="--.HNE" depth="0.0">
			<acc value="0.00542902154772758" flag="0"/>
			<vel value="0.00615114226644002" flag="0"/>
			<psa03 value="0.0121652889636044" flag="0"/>
			<psa10 value="0.0093993610990566" flag="0"/>
			<psa30 value="0.00243104979511834" flag="0"/>
		</comp>
		<comp name="--.HNN" depth="0.0">
			<acc value="0.00800893657736983" flag="0"/>
			<vel value="0.00633006692104779" flag="0"/>
			<psa03 value="0.0227336804739225" flag="0"/>
			<psa10 value="0.00857431956908982" flag="0"/>
			<psa30 value="0.00112089237861828" flag="0"/>
		</comp>
		<comp name="--.HNZ" depth="0.0">
			<acc value="0.00385758221709479" flag="0"/>
			<vel value="0.00398563285291481" flag="0"/>
			<psa03 value="0.00843365959999706" flag="0"/>
			<psa10 value="0.00495769670434073" flag="0"/>
			<psa30 value="0.0012093702190098" flag="0"/>
		</comp>
	</station>
	<station code="CIMA" name="CIMA" netid="IV" source="Italian National Seismic Network (INSN)" insttype="" lat="43.305297" lon="13.670091" esm:processing="manual (Paolucci et al 2011)" esm:quality="best">
		<comp name="--.HNE" depth="0.0">
			<acc value="0.0536986078333655" flag="0"/>
			<vel value="0.0574693928994085" flag="0"/>
			<psa03 value="0.137961576777491" flag="0"/>
			<psa10 value="0.0967853840567326" flag="0"/>
			<psa30 value="0.00941694799327604" flag="0"/>
		</comp>
		<comp name="--.HNN" depth="0.0">
			<acc value="0.0436359971544175" flag="0"/>
			<vel value="0.0451056761563528" flag="0"/>
			<psa03 value="0.123335712052113" flag="0"/>
			<psa10 value="0.0684638228922998" flag="0"/>
			<psa30 value="0.0102230488935002" flag="0"/>
		</comp>
		<comp name="--.HNZ" depth="0.0">
			<acc value="0.035341538947568" flag="0"/>
			<vel value="0.0176832784643731" flag="0"/>
			<psa03 value="0.0377791380991354" flag="0"/>
			<psa10 value="0.033797208899205" flag="0"/>
			<psa30 value="0.00476155667978076" flag="0"/>
		</comp>
	</station>
	<station code="CRND" name="CRND" netid="IV" source="Italian National Seismic Network (INSN)" insttype="" lat="45.8361" lon="12.0131" esm:processing="manual (Paolucci et al 2011)" esm:quality="bad">
		<comp name="--.HNE" depth="0.0">
			<acc value="0.0360485449192031" flag="0"/>
			<vel value="0.0196614799162258" flag="0"/>
			<psa03 value="0.0940115819724372" flag="0"/>
			<psa10 value="0.0167602259077211" flag="0"/>
			<psa30 value="0.00181437227659057" flag="0"/>
		</comp>
		<comp name="--.HNN" depth="0.0">
			<acc value="0.0365694062994659" flag="0"/>
			<vel value="0.0158322890482458" flag="0"/>
			<psa03 value="0.0699433573623731" flag="0"/>
			<psa10 value="0.0208479104467539" flag="0"/>
			<psa30 value="0.00233264181773956" flag="0"/>
		</comp>
		<comp name="--.HNZ" depth="0.0">
			<acc value="0.0169118832108299" flag="0"/>
			<vel value="0.0106033872376108" flag="0"/>
			<psa03 value="0.0419127400549991" flag="0"/>
			<psa10 value="0.0148704241551061" flag="0"/>
			<psa30 value="0.0022495486048866" flag="0"/>
		</comp>
	</station>
	<station code="FANO" name="FANO" netid="IV" source="Italian National Seismic Network (INSN)" insttype="" lat="43.843471" lon="13.018354" esm:processing="manual (Paolucci et al 2011)" esm:quality="bad">
		<comp name="--.HNE" depth="0.0">
			<acc value="0.0554622365006813" flag="0"/>
			<vel value="0.0513596396845518" flag="0"/>
			<psa03 value="0.137189619388954" flag="0"/>
			<psa10 value="0.0909580005212833" flag="0"/>
			<psa30 value="0.00806560263994245" flag="0"/>
		</comp>
		<comp name="--.HNN" depth="0.0">
			<acc value="0.0543449443531367" flag="0"/>
			<vel value="0.0552924085052055" flag="0"/>
			<psa03 value="0.162219142055278" flag="0"/>
			<psa10 value="0.0607158246253" flag="0"/>
			<psa30 value="0.00743421414687775" flag="0"/>
		</comp>
		<comp name="--.HNZ" depth="0.0">
			<acc value="0.0260779239248433" flag="0"/>
			<vel value="0.0170087951231758" flag="0"/>
			<psa03 value="0.0624122542971715" flag="0"/>
			<psa10 value="0.0194421523221738" flag="0"/>
			<psa30 value="0.00297644905014194" flag="0"/>
		</comp>
	</station>
	<station code="FEMA" name="FEMA" netid="IV" source="Italian National Seismic Network (INSN)" insttype="" lat="42.9621" lon="13.04976" esm:processing="automatic (Paolucci et al 2011)" esm:quality="best">
		<comp name="--.HNE" depth="0.0">
			<acc value="0.0189009303955554" flag="0"/>
			<vel value="0.013327837579692" flag="0"/>
			<psa03 value="0.0467697388905868" flag="0"/>
			<psa10 value="0.0149710442582039" flag="0"/>
			<psa30 value="0.0015895871773487" flag="0"/>
		</comp>
		<comp name="--.HNN" depth="0.0">
			<acc value="0.0174202455899271" flag="0"/>
			<vel value="0.0116863416471661" flag="0"/>
			<psa03 value="0.0558134265324254" flag="0"/>
			<psa10 value="0.0157673307582945" flag="0"/>
			<psa30 value="0.00157811547990496" flag="0"/>
		</comp>
		<comp name="--.HNZ" depth="0.0">
			<acc value="0.00877851465881861" flag="0"/>
			<vel value="0.00686027600936261" flag="0"/>
			<psa03 value="0.016133079153967" flag="0"/>
			<psa10 value="0.0113789231728035" flag="0"/>
			<psa30 value="0.00231976638147313" flag="0"/>
		</comp>
	</station>
	<station code="FOSV" name="FOSV" netid="IV" source="Italian National Seismic Network (INSN)" insttype="" lat="43.29483" lon="12.76117" esm:processing="automatic (Paolucci et al 2011)" esm:quality="best">
		<comp name="--.HNE" depth="0.0">
			<acc value="0.0235353586145147" flag="0"/>
			<vel value="0.0135751828705363" flag="0"/>
			<psa03 value="0.0579167846195979" flag="0"/>
			<psa10 value="0.0189311040927534" flag="0"/>
			<psa30 value="0.00197972281358726" flag="0"/>
		</comp>
		<comp name="--.HNN" depth="0.0">
			<acc value="0.0300923289020343" flag="0"/>
			<vel value="0.0289193948609032" flag="0"/>
			<psa03 value="0.0659527023762585" flag="0"/>
			<psa10 value="0.0317591026346995" flag="0"/>
			<psa30 value="0.00150502126277399" flag="0"/>
		</comp>
		<comp name="--.HNZ" depth="0.0">
			<acc value="0.0133241042477727" flag="0"/>
			<vel value="0.00996820066726316" flag="0"/>
			<psa03 value="0.0359729403223953" flag="0"/>
			<psa10 value="0.0120528925074944" flag="0"/>
			<psa30 value="0.0013043171337745" flag="0"/>
		</comp>
	</station>
	<station code="FREG" name="FREG" netid="IV" source="Italian National Seismic Network (INSN)" insttype="" lat="46.011092" lon="12.312986" esm:processing="manual (Paolucci et al 2011)" esm:quality="best">
		<comp name="--.HNE" depth="0.0">
			<acc value="0.10466529600218" flag="0"/>
			<vel value="0.050788952477423" flag="0"/>
			<psa03 value="0.435844539228543" flag="0"/>
			<psa10 value="0.036898068065916" flag="0"/>
			<psa30 value="0.00280453016135916" flag="0"/>
		</comp>
		<comp name="--.HNN" depth="0.0">
			<acc value="0.0911491598325467" flag="0"/>
			<vel value="0.0497162690764484" flag="0"/>
			<psa03 value="0.324792849265541" flag="0"/>
			<psa10 value="0.0322294437924608" flag="0"/>
			<psa30 value="0.00232024328806287" flag="0"/>
		</comp>
		<comp name="--.HNZ" depth="0.0">
			<acc value="0.0601383501107495" flag="0"/>
			<vel value="0.0255107379044784" flag="0"/>
			<psa03 value="0.181283009109442" flag="0"/>
			<psa10 value="0.0207981165231285" flag="0"/>
			<psa30 value="0.00125351241404694" flag="0"/>
		</comp>
	</station>
	<station code="MML1" name="MML1" netid="IV" source="Italian National Seismic Network (INSN)" insttype="" lat="43.1135" lon="12.9717" esm:processing="automatic (Paolucci et al 2011)" esm:quality="best">
		<comp name="--.HNE" depth="0.0">
			<acc value="0.0129010296216149" flag="0"/>
			<vel value="0.00955886893274425" flag="0"/>
			<psa03 value="0.0410258844301603" flag="0"/>
			<psa10 value="0.0127769632860974" flag="0"/>
			<psa30 value="0.00147925143064606" flag="0"/>
		</comp>
		<comp name="--.HNN" depth="0.0">
			<acc value="0.012842058654974" flag="0"/>
			<vel value="0.0118877121775214" flag="0"/>
			<psa03 value="0.0519484100772317" flag="0"/>
			<psa10 value="0.0114973663316079" flag="0"/>
			<psa30 value="0.00208161268828975" flag="0"/>
		</comp>
		<comp name="--.HNZ" depth="0.0">
			<acc value="0.00687489330319967" flag="0"/>
			<vel value="0.00548351954763702" flag="0"/>
			<psa03 value="0.0208676102413682" flag="0"/>
			<psa10 value="0.00980922481301984" flag="0"/>
			<psa30 value="0.00211016749657203" flag="0"/>
		</comp>
	</station>
	<station code="MNTP" name="MNTP" netid="IV" source="Italian National Seismic Network (INSN)" insttype="" lat="43.137378" lon="13.469252" esm:processing="automatic (Paolucci et al 2011)" esm:quality="best">
		<comp name="--.HNE" depth="0.0">
			<acc value="0.0382757804449271" flag="0"/>
			<vel value="0.0213752825441495" flag="0"/>
			<psa03 value="0.124103419159207" flag="0"/>
			<psa10 value="0.0279296733287802" flag="0"/>
			<psa30 value="0.00445392838422827" flag="0"/>
		</comp>
		<comp name="--.HNN" depth="0.0">
			<acc value="0.0308278199882193" flag="0"/>
			<vel value="0.0261692107009255" flag="0"/>
			<psa03 value="0.0770308789594784" flag="0"/>
			<psa10 value="0.0277874714086181" flag="0"/>
			<psa30 value="0.00495266475638679" flag="0"/>
		</comp>
		<comp name="--.HNZ" depth="0.0">
			<acc value="0.0195850353197771" flag="0"/>
			<vel value="0.00990031455876487" flag="0"/>
			<psa03 value="0.0415477913997959" flag="0"/>
			<psa10 value="0.0186170095354973" flag="0"/>
			<psa30 value="0.00316553699295611" flag="0"/>
		</comp>
	</station>
	<station code="MOMA" name="MOMA" netid="IV" source="Italian National Seismic Network (INSN)" insttype="" lat="42.80387" lon="12.570071" esm:processing="automatic (Paolucci et al 2011)" esm:quality="best">
		<comp name="--.HNE" depth="0.0">
			<acc value="0.010687452619998" flag="0"/>
			<vel value="0.0089165743064422" flag="0"/>
			<psa03 value="0.0330940438805106" flag="0"/>
			<psa10 value="0.016946105096307" flag="0"/>
			<psa30 value="0.0016394929833628" flag="0"/>
		</comp>
		<comp name="--.HNN" depth="0.0">
			<acc value="0.00995714270758636" flag="0"/>
			<vel value="0.00913536585216504" flag="0"/>
			<psa03 value="0.0384864037020287" flag="0"/>
			<psa10 value="0.0130086105065883" flag="0"/>
			<psa30 value="0.00191816290221113" flag="0"/>
		</comp>
		<comp name="--.HNZ" depth="0.0">
			<acc value="0.00617229118152269" flag="0"/>
			<vel value="0.00369128163062465" flag="0"/>
			<psa03 value="0.0181238321253419" flag="0"/>
			<psa10 value="0.00589318211312502" flag="0"/>
			<psa30 value="0.000766578021616907" flag="0"/>
		</comp>
	</station>
	<station code="MURB" name="MURB" netid="IV" source="Italian National Seismic Network (INSN)" insttype="" lat="43.263" lon="12.5246" esm:processing="manual (Paolucci et al 2011)" esm:quality="good">
		<comp name="--.HNE" depth="0.0">
			<acc value="0.078419696206485" flag="0"/>
			<vel value="0.0477506425750416" flag="0"/>
			<psa03 value="0.235992612519072" flag="0"/>
			<psa10 value="0.0383648652340555" flag="0"/>
			<psa30 value="0.00354422020386135" flag="0"/>
		</comp>
		<comp name="--.HNN" depth="0.0">
			<acc value="0.0434863056692592" flag="0"/>
			<vel value="0.0323706573864239" flag="0"/>
			<psa03 value="0.203966074251576" flag="0"/>
			<psa10 value="0.0337570774907" flag="0"/>
			<psa30 value="0.00380465120613862" flag="0"/>
		</comp>
		<comp name="--.HNZ" depth="0.0">
			<acc value="0.0162480374111073" flag="0"/>
			<vel value="0.0183723243390229" flag="0"/>
			<psa03 value="0.0403169416328558" flag="0"/>
			<psa10 value="0.037058177422383" flag="0"/>
			<psa30 value="0.00324980611703826" flag="0"/>
		</comp>
	</station>
	<station code="NRCA" name="NRCA" netid="IV" source="Italian National Seismic Network (INSN)" insttype="" lat="42.83355" lon="13.11427" esm:processing="manual (Paolucci et al 2011)" esm:quality="good">
		<comp name="--.HNE" depth="0.0">
			<acc value="0.0219686219122664" flag="0"/>
			<vel value="0.00947130336937688" flag="0"/>
			<psa03 value="0.023243479870639" flag="0"/>
			<psa10 value="0.0130502091998045" flag="0"/>
			<psa30 value="0.00129033183231715" flag="0"/>
		</comp>
		<comp name="--.HNN" depth="0.0">
			<acc value="0.0187297755540162" flag="0"/>
			<vel value="0.00767767770856807" flag="0"/>
			<psa03 value="0.0368529022614141" flag="0"/>
			<psa10 value="0.00943163761222352" flag="0"/>
			<psa30 value="0.000785668557102701" flag="0"/>
		</comp>
		<comp name="--.HNZ" depth="0.0">
			<acc value="0.00719535004285078" flag="0"/>
