<stationlist created="1676593858">
	<station code="APEC" name="APEC" netid="IV" source="Italian National Seismic Network (INSN)" insttype="" lat="43.55846" lon="12.41991">
		<comp name=".HHE" depth="0.0">
			<acc value="0.0151065135322" flag="0"/>
			<vel value="0.00842518650035" flag="0"/>
			<psa03 value="0.0528036177724" flag="0"/>
			<psa10 value="0.0119558463911" flag="0"/>
			<psa30 value="0.00187011096901" flag="0"/>
		</comp>
		<comp name=".HHN" depth="0.0">
			<acc value="0.0132411597271" flag="0"/>
			<vel value="0.0111960822529" flag="0"/>
			<psa03 value="0.0485375591249" flag="0"/>
			<psa10 value="0.0147534745328" flag="0"/>
			<psa30 value="0.00253052638495" flag="0"/>
		</comp>
		<comp name=".HHZ" depth="0.0">
			<acc value="0.0112438805735" flag="0"/>
			<vel value="0.00869523447767" flag="0"/>
			<psa03 value="0.0335898683931" flag="0"/>
			<psa10 value="0.00863880415338" flag="0"/>
			<psa30 value="0.00201950086535" flag="0"/>
		</comp>
		<comp name=".HNE" depth="0.0">
			<acc value="0.0163721402595" flag="0"/>
			<vel value="0.0101288842351" flag="0"/>
			<psa03 value="0.0556407380093" flag="0"/>
			<psa10 value="0.0115820910067" flag="0"/>
			<psa30 value="0.00297043281826" flag="0"/>
		</comp>
		<comp name=".HNN" depth="0.0">
			<acc value="0.0134067620213" flag="0"/>
			<vel value="0.0102084055065" flag="0"/>
			<psa03 value="0.0446024130243" flag="0"/>
			<psa10 value="0.012455374795" flag="0"/>
			<psa30 value="0.00167298395198" flag="0"/>
		</comp>
		<comp name=".HNZ" depth="0.0">
			<acc value="0.011447336453" flag="0"/>
			<vel value="0.00945902893747" flag="0"/>
			<psa03 value="0.0336975265666" flag="0"/>
			<psa10 value="0.00942694230116" flag="0"/>
			<psa30 value="0.0024717106137" flag="0"/>
		</comp>
	</station>
	<station code="ASCOL" name="ASCOL" netid="IV" source="Italian National Seismic Network (INSN)" insttype="" lat="42.851223" lon="13.58969">
		<comp name=".EHE" depth="0.0">
			<acc value="0.0165449555177" flag="0"/>
			<vel value="0.00736076637779" flag="0"/>
			<psa03 value="0.0188948493473" flag="0"/>
			<psa10 value="0.01896902848" flag="0"/>
			<psa30 value="0.00138533489664" flag="0"/>
		</comp>
		<comp name=".EHN" depth="0.0">
			<acc value="0.0118694255576" flag="0"/>
			<vel value="0.00885971997338" flag="0"/>
			<psa03 value="0.0154031336633" flag="0"/>
			<psa10 value="0.0111356267431" flag="0"/>
			<psa30 value="0.00170658669883" flag="0"/>
		</comp>
		<comp name=".EHZ" depth="0.0">
			<acc value="0.017374263616" flag="0"/>
			<vel value="0.0054685483777" flag="0"/>
			<psa03 value="0.0133335108838" flag="0"/>
			<psa10 value="0.00710629747608" flag="0"/>
			<psa30 value="0.000701866963993" flag="0"/>
		</comp>
		<comp name=".HNE" depth="0.0">
			<acc value="0.0109981337991" flag="0"/>
			<vel value="0.00345778117892" flag="0"/>
			<psa03 value="0.00886718897027" flag="0"/>
			<psa10 value="0.00928109701464" flag="0"/>
			<psa30 value="0.000720139320281" flag="0"/>
		</comp>
		<comp name=".HNN" depth="0.0">
			<acc value="0.0060386365185" flag="0"/>
			<vel value="0.0044033666131" flag="0"/>
			<psa03 value="0.00818822016378" flag="0"/>
			<psa10 value="0.0055112736886" flag="0"/>
			<psa30 value="0.00082700863943" flag="0"/>
		</comp>
		<comp name=".HNZ" depth="0.0">
			<acc value="0.00861762071723" flag="0"/>
			<vel value="0.00282797762164" flag="0"/>
			<psa03 value="0.00674676139297" flag="0"/>
			<psa10 value="0.00354274742401" flag="0"/>
			<psa30 value="0.000351363171919" flag="0"/>
		</comp>
	</station>
	<station code="ASOL" name="ASOL" netid="IV" source="Italian National Seismic Network (INSN)" insttype="" lat="45.8003" lon="11.9023">
		<comp name=".EHE" depth="0.0">
			<acc value="0.25066589934" flag="0"/>
			<vel value="0.125761770612" flag="0"/>
			<psa03 value="1.06832327117" flag="0"/>
			<psa10 value="0.0670406411137" flag="0"/>
			<psa30 value="0.00407625878214" flag="0"/>
		</comp>
		<comp name=".EHN" depth="0.0">
			<acc value="0.201695097197" flag="0"/>
			<vel value="0.102129760209" flag="0"/>
			<psa03 value="0.498814669025" flag="0"/>
			<psa10 value="0.0913539142486" flag="0"/>
			<psa30 value="0.00470971449548" flag="0"/>
		</comp>
		<comp name=".EHZ" depth="0.0">
			<acc value="0.052058635834" flag="0"/>
			<vel value="0.024809887034" flag="0"/>
			<psa03 value="0.2066673782" flag="0"/>
			<psa10 value="0.0190066022191" flag="0"/>
			<psa30 value="0.00136771445854" flag="0"/>
		</comp>
		<comp name=".HNE" depth="0.0">
			<acc value="0.504998178586" flag="0"/>
			<vel value="0.251536583963" flag="0"/>
			<psa03 value="2.14219691003" flag="0"/>
			<psa10 value="0.135462528728" flag="0"/>
			<psa30 value="0.00849873383276" flag="0"/>
		</comp>
		<comp name=".HNN" depth="0.0">
			<acc value="0.408910461083" flag="0"/>
			<vel value="0.207033018882" flag="0"/>
			<psa03 value="1.03207028626" flag="0"/>
			<psa10 value="0.187570205606" flag="0"/>
			<psa30 value="0.00939071542215" flag="0"/>
		</comp>
		<comp name=".HNZ" depth="0.0">
			<acc value="0.103317952644" flag="0"/>
			<vel value="0.051087138598" flag="0"/>
			<psa03 value="0.408516270531" flag="0"/>
			<psa10 value="0.0431479095873" flag="0"/>
			<psa30 value="0.00382753688887" flag="0"/>
		</comp>
	</station>
	<station code="ATBU" name="ATBU" netid="IV" source="Italian National Seismic Network (INSN)" insttype="" lat="43.47571" lon="12.54828">
		<comp name=".EHE" depth="1.0">
			<acc value="0.0301958930242" flag="0"/>
			<vel value="0.0329547824769" flag="0"/>
			<psa03 value="0.109856694133" flag="0"/>
			<psa10 value="0.0390940372881" flag="0"/>
			<psa30 value="0.00323904186229" flag="0"/>
		</comp>
		<comp name=".EHN" depth="1.0">
			<acc value="0.0266253672291" flag="0"/>
			<vel value="0.0302197645114" flag="0"/>
			<psa03 value="0.0903417763661" flag="0"/>
			<psa10 value="0.0591681008463" flag="0"/>
			<psa30 value="0.00316343456201" flag="0"/>
		</comp>
		<comp name=".EHZ" depth="1.0">
			<acc value="0.0146454408649" flag="0"/>
			<vel value="0.0191072202716" flag="0"/>
			<psa03 value="0.0249440716932" flag="0"/>
			<psa10 value="0.0306696929667" flag="0"/>
			<psa30 value="0.00382194360167" flag="0"/>
		</comp>
		<comp name=".HNE" depth="1.0">
			<acc value="0.0303062172739" flag="0"/>
			<vel value="0.0329361089472" flag="0"/>
			<psa03 value="0.110232635705" flag="0"/>
			<psa10 value="0.0377855718587" flag="0"/>
			<psa30 value="0.00326950263017" flag="0"/>
		</comp>
		<comp name=".HNN" depth="1.0">
			<acc value="0.0267957890618" flag="0"/>
			<vel value="0.0306891099962" flag="0"/>
			<psa03 value="0.089651178534" flag="0"/>
			<psa10 value="0.0599756530928" flag="0"/>
			<psa30 value="0.00316653997607" flag="0"/>
		</comp>
		<comp name=".HNZ" depth="1.0">
			<acc value="0.0144557586939" flag="0"/>
			<vel value="0.0189178648807" flag="0"/>
			<psa03 value="0.0239912143002" flag="0"/>
			<psa10 value="0.0302328284015" flag="0"/>
			<psa30 value="0.00378211888015" flag="0"/>
		</comp>
	</station>
	<station code="ATCC" name="ATCC" netid="IV" source="Italian National Seismic Network (INSN)" insttype="" lat="43.18514" lon="12.63994">
		<comp name=".EHE" depth="1.0">
			<acc value="0.0424215292856" flag="0"/>
			<vel value="0.0289010561045" flag="0"/>
			<psa03 value="0.0828691042549" flag="0"/>
			<psa10 value="0.0319404758998" flag="0"/>
			<psa30 value="0.00374687821229" flag="0"/>
		</comp>
		<comp name=".EHN" depth="1.0">
			<acc value="0.043434543043" flag="0"/>
			<vel value="0.0369431824727" flag="0"/>
			<psa03 value="0.106221640829" flag="0"/>
			<psa10 value="0.0270145320802" flag="0"/>
			<psa30 value="0.00455810611882" flag="0"/>
		</comp>
		<comp name=".EHZ" depth="1.0">
			<acc value="0.0131802225493" flag="0"/>
			<vel value="0.0126136221902" flag="0"/>
			<psa03 value="0.0275344464178" flag="0"/>
			<psa10 value="0.0217194100543" flag="0"/>
			<psa30 value="0.00244153778156" flag="0"/>
		</comp>
		<comp name=".HNE" depth="1.0">
			<acc value="0.0285985502183" flag="0"/>
			<vel value="0.0232104088483" flag="0"/>
			<psa03 value="0.0551924947738" flag="0"/>
			<psa10 value="0.0359354805492" flag="0"/>
			<psa30 value="0.00407439657544" flag="0"/>
		</comp>
		<comp name=".HNN" depth="1.0">
			<acc value="0.0543713488448" flag="0"/>
			<vel value="0.0441809381062" flag="0"/>
			<psa03 value="0.127473871602" flag="0"/>
			<psa10 value="0.024636345787" flag="0"/>
			<psa30 value="0.0040529522382" flag="0"/>
		</comp>
		<comp name=".HNZ" depth="1.0">
			<acc value="0.0136400284302" flag="0"/>
			<vel value="0.012899478138" flag="0"/>
			<psa03 value="0.0289547931129" flag="0"/>
			<psa10 value="0.0216498016931" flag="0"/>
			<psa30 value="0.00253683034423" flag="0"/>
		</comp>
	</station>
	<station code="ATFO" name="ATFO" netid="IV" source="Italian National Seismic Network (INSN)" insttype="" lat="43.3666" lon="12.5715">
		<comp name=".HHE" depth="1.0">
			<acc value="0.0379723265965" flag="0"/>
			<vel value="0.0316709539367" flag="0"/>
			<psa03 value="0.0934767027892" flag="0"/>
			<psa10 value="0.0326142117815" flag="0"/>
			<psa30 value="0.00258823854144" flag="0"/>
		</comp>
		<comp name=".HHN" depth="1.0">
			<acc value="0.0339056661756" flag="0"/>
			<vel value="0.0349998629024" flag="0"/>
			<psa03 value="0.0962607518023" flag="0"/>
			<psa10 value="0.0621883409222" flag="0"/>
			<psa30 value="0.00462214411102" flag="0"/>
		</comp>
		<comp name=".HHZ" depth="1.0">
			<acc value="0.0134277484596" flag="0"/>
			<vel value="0.0124903391398" flag="0"/>
			<psa03 value="0.0346391306099" flag="0"/>
			<psa10 value="0.0257801715598" flag="0"/>
			<psa30 value="0.00221153629509" flag="0"/>
		</comp>
		<comp name=".HNE" depth="1.0">
			<acc value="0.0368436244135" flag="0"/>
			<vel value="0.0305789150175" flag="0"/>
			<psa03 value="0.0916558425831" flag="0"/>
			<psa10 value="0.0310309412726" flag="0"/>
			<psa30 value="0.00248813545176" flag="0"/>
		</comp>
		<comp name=".HNN" depth="1.0">
			<acc value="0.0347014548941" flag="0"/>
			<vel value="0.0343969637895" flag="0"/>
			<psa03 value="0.0937167811935" flag="0"/>
			<psa10 value="0.0620663190889" flag="0"/>
			<psa30 value="0.00456473697478" flag="0"/>
		</comp>
		<comp name=".HNZ" depth="1.0">
			<acc value="0.0134436353796" flag="0"/>
			<vel value="0.0123682637216" flag="0"/>
			<psa03 value="0.0336068252456" flag="0"/>
			<psa10 value="0.0253087484554" flag="0"/>
			<psa30 value="0.00215525590013" flag="0"/>
		</comp>
	</station>
	<station code="ATLO" name="ATLO" netid="IV" source="Italian National Seismic Network (INSN)" insttype="" lat="43.31516" lon="12.40726">
		<comp name=".EHE" depth="1.0">
			<acc value="0.0131401661298" flag="0"/>
			<vel value="0.0142358949609" flag="0"/>
			<psa03 value="0.0390241632843" flag="0"/>
			<psa10 value="0.0201476415574" flag="0"/>
			<psa30 value="0.00143535227254" flag="0"/>
		</comp>
		<comp name=".EHN" depth="1.0">
			<acc value="0.0165585579486" flag="0"/>
			<vel value="0.0145730739974" flag="0"/>
			<psa03 value="0.0359203613185" flag="0"/>
			<psa10 value="0.0150064494161" flag="0"/>
			<psa30 value="0.00232090854047" flag="0"/>
		</comp>
		<comp name=".EHZ" depth="1.0">
			<acc value="0.00700198632898" flag="0"/>
			<vel value="0.0111739489044" flag="0"/>
			<psa03 value="0.0148365284201" flag="0"/>
			<psa10 value="0.0124645160255" flag="0"/>
			<psa30 value="0.00274572001547" flag="0"/>
		</comp>
		<comp name=".HNE" depth="1.0">
			<acc value="0.0134361517323" flag="0"/>
			<vel value="0.014185617263" flag="0"/>
			<psa03 value="0.0395524482806" flag="0"/>
			<psa10 value="0.0204471326472" flag="0"/>
			<psa30 value="0.00142371691842" flag="0"/>
		</comp>
		<comp name=".HNN" depth="1.0">
			<acc value="0.0168013586024" flag="0"/>
			<vel value="0.014790709907" flag="0"/>
			<psa03 value="0.0358838380657" flag="0"/>
			<psa10 value="0.0154922847253" flag="0"/>
			<psa30 value="0.00242536566857" flag="0"/>
		</comp>
		<comp name=".HNZ" depth="1.0">
			<acc value="0.00178107431311" flag="0"/>
			<vel value="0.00283248142248" flag="0"/>
			<psa03 value="0.00381809114594" flag="0"/>
			<psa10 value="0.00318561525013" flag="0"/>
			<psa30 value="0.000710858080442" flag="0"/>
		</comp>
	</station>
	<station code="ATPC" name="ATPC" netid="IV" source="Italian National Seismic Network (INSN)" insttype="" lat="43.4807" lon="12.457">
		<comp name=".HHE" depth="1.0">
			<acc value="0.0173117343595" flag="0"/>
			<vel value="0.0130693798532" flag="0"/>
			<psa03 value="0.0488292346973" flag="0"/>
			<psa10 value="0.0207214801964" flag="0"/>
			<psa30 value="0.00264588548526" flag="0"/>
		</comp>
		<comp name=".HHN" depth="1.0">
			<acc value="0.0137915889887" flag="0"/>
			<vel value="0.0132891055081" flag="0"/>
			<psa03 value="0.0408671473521" flag="0"/>
			<psa10 value="0.0181877954772" flag="0"/>
			<psa30 value="0.00230371823503" flag="0"/>
		</comp>
		<comp name=".HHZ" depth="1.0">
			<acc value="0.0103244380707" flag="0"/>
			<vel value="0.00856137276543" flag="0"/>
			<psa03 value="0.0230864616565" flag="0"/>
			<psa10 value="0.00852367808933" flag="0"/>
			<psa30 value="0.00186087723232" flag="0"/>
		</comp>
		<comp name=".HNE" depth="1.0">
			<acc value="0.0169557623092" flag="0"/>
			<vel value="0.0128855566011" flag="0"/>
			<psa03 value="0.0480359008927" flag="0"/>
			<psa10 value="0.0204442243295" flag="0"/>
			<psa30 value="0.0025869392887" flag="0"/>
		</comp>
		<comp name=".HNN" depth="1.0">
			<acc value="0.0136908730775" flag="0"/>
			<vel value="0.0131767685175" flag="0"/>
			<psa03 value="0.0400905334052" flag="0"/>
			<psa10 value="0.0182109757628" flag="0"/>
			<psa30 value="0.00223168033787" flag="0"/>
		</comp>
		<comp name=".HNZ" depth="1.0">
			<acc value="0.0101700806767" flag="0"/>
			<vel value="0.00852387883335" flag="0"/>
			<psa03 value="0.022711913407" flag="0"/>
			<psa10 value="0.00845007852625" flag="0"/>
			<psa30 value="0.00183298163437" flag="0"/>
		</comp>
	</station>
	<station code="ATPI" name="ATPI" netid="IV" source="Italian National Seismic Network (INSN)" insttype="" lat="43.45068" lon="12.40222">
		<comp name=".EHE" depth="1.0">
			<acc value="0.00768699654072" flag="0"/>
			<vel value="0.00663470634802" flag="0"/>
			<psa03 value="0.0200737047844" flag="0"/>
			<psa10 value="0.0121315980338" flag="0"/>
			<psa30 value="0.00152012507583" flag="0"/>
		</comp>
		<comp name=".EHN" depth="1.0">
			<acc value="0.0071211002459" flag="0"/>
			<vel value="0.00819916658085" flag="0"/>
			<psa03 value="0.0206001237717" flag="0"/>
			<psa10 value="0.0149957330812" flag="0"/>
			<psa30 value="0.001965081427" flag="0"/>
		</comp>
		<comp name=".EHZ" depth="1.0">
			<acc value="0.00423859293821" flag="0"/>
			<vel value="0.00517165792268" flag="0"/>
			<psa03 value="0.012111008024" flag="0"/>
			<psa10 value="0.00864884263087" flag="0"/>
			<psa30 value="0.00178755258325" flag="0"/>
		</comp>
		<comp name=".HNE" depth="1.0">
			<acc value="0.0115740798692" flag="0"/>
			<vel value="0.0100678843047" flag="0"/>
			<psa03 value="0.0304681694084" flag="0"/>
			<psa10 value="0.018120240377" flag="0"/>
			<psa30 value="0.00212268165891" flag="0"/>
		</comp>
		<comp name=".HNN" depth="1.0">
			<acc value="0.0105666676791" flag="0"/>
			<vel value="0.0121045328922" flag="0"/>
			<psa03 value="0.0304374460189" flag="0"/>
			<psa10 value="0.0215539153411" flag="0"/>
			<psa30 value="0.00302481412909" flag="0"/>
		</comp>
		<comp name=".HNZ" depth="1.0">
			<acc value="0.00634989621368" flag="0"/>
			<vel value="0.00759475582206" flag="0"/>
			<psa03 value="0.0179045884349" flag="0"/>
			<psa10 value="0.0128201014563" flag="0"/>
			<psa30 value="0.00261680460046" flag="0"/>
		</comp>
	</station>
	<station code="ATVO" name="ATVO" netid="IV" source="Italian National Seismic Network (INSN)" insttype="" lat="43.38211" lon="12.40663">
		<comp name=".HHE" depth="1.0">
			<acc value="0.0108852937386" flag="0"/>
			<vel value="0.0114475546615" flag="0"/>
			<psa03 value="0.0255307199307" flag="0"/>
			<psa10 value="0.0184119065735" flag="0"/>
			<psa30 value="0.00175973824069" flag="0"/>
		</comp>
		<comp name=".HHN" depth="1.0">
			<acc value="0.0107305624334" flag="0"/>
			<vel value="0.00910559488103" flag="0"/>
			<psa03 value="0.0207773946296" flag="0"/>
			<psa10 value="0.0167257723753" flag="0"/>
			<psa30 value="0.00201753260997" flag="0"/>
		</comp>
		<comp name=".HHZ" depth="1.0">
			<acc value="0.00582469433285" flag="0"/>
			<vel value="0.00701759905314" flag="0"/>
			<psa03 value="0.0156100145556" flag="0"/>
			<psa10 value="0.0126859231926" flag="0"/>
			<psa30 value="0.00339655417171" flag="0"/>
		</comp>
		<comp name=".HNE" depth="1.0">
			<acc value="0.0138565425269" flag="0"/>
			<vel value="0.0112541185819" flag="0"/>
			<psa03 value="0.0242347825188" flag="0"/>
			<psa10 value="0.0179181751162" flag="0"/>
			<psa30 value="0.00172416202977" flag="0"/>
		</comp>
		<comp name=".HNN" depth="1.0">
			<acc value="0.0146701229292" flag="0"/>
			<vel value="0.0090790518174" flag="0"/>
			<psa03 value="0.0205409831352" flag="0"/>
			<psa10 value="0.0167867870422" flag="0"/>
			<psa30 value="0.00194712211228" flag="0"/>
		</comp>
		<comp name=".HNZ" depth="1.0">
			<acc value="0.00690083710561" flag="0"/>
			<vel value="0.00690935528461" flag="0"/>
			<psa03 value="0.0151838782533" flag="0"/>
			<psa10 value="0.0123023327817" flag="0"/>
			<psa30 value="0.00329792242951" flag="0"/>
		</comp>
	</station>
	<station code="BRIS" name="BRIS" netid="IV" source="Italian National Seismic Network (INSN)" insttype="" lat="44.22454" lon="11.76657">
		<comp name=".HHE" depth="0.0">
			<acc value="0.00509349909997" flag="0"/>
			<vel value="0.00486313301234" flag="0"/>
			<psa03 value="0.0124516660076" flag="0"/>
			<psa10 value="0.00748338261236" flag="0"/>
			<psa30 value="0.00102176477024" flag="0"/>
		</comp>
		<comp name=".HHN" depth="0.0">
			<acc value="0.00484026918721" flag="0"/>
			<vel value="0.00575298815032" flag="0"/>
			<psa03 value="0.0119813770407" flag="0"/>
			<psa10 value="0.00824708507892" flag="0"/>
			<psa30 value="0.00140233456445" flag="0"/>
		</comp>
		<comp name=".HHZ" depth="0.0">
			<acc value="0.00433109157366" flag="0"/>
			<vel value="0.00319556260298" flag="0"/>
			<psa03 value="0.0105658906936" flag="0"/>
			<psa10 value="0.0047873824531" flag="0"/>
			<psa30 value="0.000611994499965" flag="0"/>
		</comp>
		<comp name=".HNE" depth="0.0">
			<acc value="0.0129989608311" flag="0"/>
			<vel value="0.0118727909311" flag="0"/>
			<psa03 value="0.0290929663287" flag="0"/>
			<psa10 value="0.0161696255333" flag="0"/>
			<psa30 value="0.00289642312382" flag="0"/>
		</comp>
		<comp name=".HNN" depth="0.0">
			<acc value="0.012728906874" flag="0"/>
			<vel value="0.0143358697576" flag="0"/>
			<psa03 value="0.0320288691512" flag="0"/>
			<psa10 value="0.0224851264043" flag="0"/>
			<psa30 value="0.00375986490593" flag="0"/>
		</comp>
		<comp name=".HNZ" depth="0.0">
			<acc value="0.0109680192595" flag="0"/>
			<vel value="0.00798115778244" flag="0"/>
			<psa03 value="0.0262042749671" flag="0"/>
			<psa10 value="0.0119628152903" flag="0"/>
			<psa30 value="0.00149864219436" flag="0"/>
		</comp>
	</station>
	<station code="BRSN" name="BRSN" netid="IV" source="Italian National Seismic Network (INSN)" insttype="" lat="44.28418" lon="12.08023">
		<comp name=".EHE" depth="0.0">
			<acc value="0.0154964639196" flag="0"/>
			<vel value="0.0156009270418" flag="0"/>
			<psa03 value="0.0473269685129" flag="0"/>
			<psa10 value="0.0279017077262" flag="0"/>
			<psa30 value="0.00412147552753" flag="0"/>
		</comp>
		<comp name=".EHN" depth="0.0">
			<acc value="0.019411255416" flag="0"/>
			<vel value="0.0249021689584" flag="0"/>
			<psa03 value="0.0466726647517" flag="0"/>
			<psa10 value="0.0398406517476" flag="0"/>
			<psa30 value="0.0106153732164" flag="0"/>
		</comp>
		<comp name=".EHZ" depth="0.0">
			<acc value="0.00819981009471" flag="0"/>
			<vel value="0.00832667333829" flag="0"/>
			<psa03 value="0.0202158001351" flag="0"/>
