<?xml version="1.0" encoding="UTF-8" standalone="yes"?>
<!DOCTYPE earthquake SYSTEM "stationlist.dtd">
<stationlist created="" xmlns="ch.ethz.sed.shakemap.usgs.xml">
  <station code="TRI" name="TRI" netid="MN" insttype="" lat="45.709" lon="13.764">
    <comp name="--.HHE">
      <acc value="0.1111974491" flag="0"/>
      <vel value="0.0630408605" flag="0"/>
      <psa03 value="0.1894336110" flag="0"/>
      <psa10 value="0.0270302051" flag="0"/>
      <psa30 value="0.0102496369" flag="0"/>
    </comp>
    <comp name="--.HHN">
      <acc value="0.0580624924" flag="0"/>
      <vel value="0.0342907064" flag="0"/>
      <psa03 value="0.1292369638" flag="0"/>
      <psa10 value="0.0233689133" flag="0"/>
      <psa30 value="0.0052247321" flag="0"/>
    </comp>
    <comp name="--.HHZ">
      <acc value="0.1577937024" flag="0"/>
      <vel value="0.0394121858" flag="0"/>
      <psa03 value="0.2381001116" flag="0"/>
      <psa10 value="0.0218039632" flag="0"/>
      <psa30 value="0.0110921358" flag="0"/>
    </comp>
  </station>
  <station code="DST2" name="DST2" netid="NI" insttype="" lat="45.6589" lon="13.8013">
    <comp name="--.HHE">
      <acc value="0.1257494169" flag="0"/>
      <vel value="0.0587638827" flag="0"/>
      <psa03 value="0.4618707620" flag="0"/>
      <psa10 value="0.0331253484" flag="0"/>
      <psa30 value="0.0103129878" flag="0"/>
    </comp>
    <comp name="--.HHN">
      <acc value="0.1230577610" flag="0"/>
      <vel value="0.0401466036" flag="0"/>
      <psa03 value="0.1988577599" flag="0"/>
      <psa10 value="0.0263272923" flag="0"/>
      <psa30 value="0.0047527792" flag="0"/>
    </comp>
    <comp name="--.HHZ">
      <acc value="0.0583974220" flag="0"/>
      <vel value="0.0278322325" flag="0"/>
      <psa03 value="0.1220636284" flag="0"/>
      <psa10 value="0.0215904947" flag="0"/>
      <psa30 value="0.0087760593" flag="0"/>
    </comp>
  </station>
  <station code="VINO" name="VINO" netid="NI" insttype="" lat="46.2538" lon="13.2755">
    <comp name="--.HHE">
      <acc value="0.0580282798" flag="0"/>
      <vel value="0.0381263528" flag="0"/>
      <psa03 value="0.1624208190" flag="0"/>
      <psa10 value="0.0455782421" flag="0"/>
      <psa30 value="0.0075709703" flag="0"/>
    </comp>
    <comp name="--.HHZ">
      <acc value="0.0516755179" flag="0"/>
      <vel value="0.0265441477" flag="0"/>
      <psa03 value="0.1640133708" flag="0"/>
      <psa10 value="0.0318574826" flag="0"/>
      <psa30 value="0.0052285738" flag="0"/>
    </comp>
    <comp name="--.HHN">
      <acc value="0.0766216763" flag="0"/>
      <vel value="0.0368573552" flag="0"/>
      <psa03 value="0.2410148360" flag="0"/>
      <psa10 value="0.0474675303" flag="0"/>
      <psa30 value="0.0071578088" flag="0"/>
    </comp>
  </station>
  <station code="BAD" name="BAD" netid="OX" insttype="" lat="46.234" lon="13.2438">
    <comp name="--.HHE">
      <acc value="0.0766287977" flag="0"/>
      <vel value="0.0392870609" flag="0"/>
      <psa03 value="0.2169092757" flag="0"/>
      <psa10 value="0.0580235640" flag="0"/>
      <psa30 value="0.0060084932" flag="0"/>
    </comp>
    <comp name="--.HHN">
      <acc value="0.0912476417" flag="0"/>
      <vel value="0.0454125857" flag="0"/>
      <psa03 value="0.1706880652" flag="0"/>
      <psa10 value="0.0300510129" flag="0"/>
      <psa30 value="0.0098133358" flag="0"/>
    </comp>
    <comp name="--.HHZ">
      <acc value="0.0230817966" flag="0"/>
      <vel value="0.0095716098" flag="0"/>
      <psa03 value="0.0515781097" flag="0"/>
      <psa10 value="0.0058475135" flag="0"/>
      <psa30 value="0.0012391075" flag="0"/>
    </comp>
  </station>
  <station code="DRE" name="DRE" netid="OX" insttype="" lat="46.1733" lon="13.645">
    <comp name="--.HHE">
      <acc value="0.1918116266" flag="0"/>
      <vel value="0.0780854688" flag="0"/>
      <psa03 value="0.5268993763" flag="0"/>
      <psa10 value="0.0541123868" flag="0"/>
      <psa30 value="0.0073298237" flag="0"/>
    </comp>
    <comp name="--.HHN">
      <acc value="0.1488594813" flag="0"/>
      <vel value="0.0558473174" flag="0"/>
      <psa03 value="0.4276042339" flag="0"/>
      <psa10 value="0.0372374280" flag="0"/>
      <psa30 value="0.0087096427" flag="0"/>
    </comp>
    <comp name="--.HHZ">
      <acc value="0.0767095029" flag="0"/>
      <vel value="0.0360886110" flag="0"/>
      <psa03 value="0.2008227258" flag="0"/>
      <psa10 value="0.0288122001" flag="0"/>
      <psa30 value="0.0088581248" flag="0"/>
    </comp>
  </station>
  <station code="SABO" name="SABO" netid="OX" insttype="" lat="45.9875" lon="13.6336">
    <comp name="--.HHE">
      <acc value="0.1625951689" flag="0"/>
      <vel value="0.0840318775" flag="0"/>
      <psa03 value="0.4469541900" flag="0"/>
      <psa10 value="0.0752412235" flag="0"/>
      <psa30 value="0.0117419767" flag="0"/>
    </comp>
    <comp name="--.HHN">
      <acc value="0.1097133573" flag="0"/>
      <vel value="0.0777570798" flag="0"/>
      <psa03 value="0.4110117302" flag="0"/>
      <psa10 value="0.1101810954" flag="0"/>
      <psa30 value="0.0094613604" flag="0"/>
    </comp>
    <comp name="--.HHZ">
      <acc value="0.0544322223" flag="0"/>
      <vel value="0.0433234700" flag="0"/>
      <psa03 value="0.1422482599" flag="0"/>
      <psa10 value="0.0375134100" flag="0"/>
      <psa30 value="0.0125855727" flag="0"/>
    </comp>
  </station>
  <station code="BH09A" name="BH09A" netid="Y5" insttype="STS2_gen3" lat="44.7856" lon="16.6156">
    <comp name="--.HHZ">
      <acc value="0.0696685739" flag="0"/>
      <vel value="0.0567993287" flag="0"/>
      <psa03 value="0.2092482130" flag="0"/>
      <psa10 value="0.0785521791" flag="0"/>
      <psa30 value="0.0030113166" flag="0"/>
    </comp>
    <comp name="--.HH1">
      <acc value="0.0382724317" flag="0"/>
      <vel value="0.0149284582" flag="0"/>
      <psa03 value="0.0857037980" flag="0"/>
      <psa10 value="0.0081123019" flag="0"/>
      <psa30 value="0.0004737439" flag="0"/>
    </comp>
    <comp name="--.HH2">
      <acc value="0.0337537903" flag="0"/>
      <vel value="0.0146400461" flag="0"/>
      <psa03 value="0.0907999959" flag="0"/>
      <psa10 value="0.0097847511" flag="0"/>
      <psa30 value="0.0007229994" flag="0"/>
    </comp>
  </station>
  <station code="BH11A" name="BH11A" netid="Y5" insttype="STS2_gen3" lat="44.4818" lon="16.5313">
    <comp name="--.HH2">
      <acc value="0.0467637556" flag="0"/>
      <vel value="0.0247789692" flag="0"/>
      <psa03 value="0.1278285199" flag="0"/>
      <psa10 value="0.0223397226" flag="0"/>
      <psa30 value="0.0036295947" flag="0"/>
    </comp>
    <comp name="--.HH1">
      <acc value="0.0335988970" flag="0"/>
      <vel value="0.0230923813" flag="0"/>
      <psa03 value="0.0880638923" flag="0"/>
      <psa10 value="0.0253760377" flag="0"/>
      <psa30 value="0.0029462086" flag="0"/>
    </comp>
    <comp name="--.HHZ">
      <acc value="0.0152607500" flag="0"/>
      <vel value="0.0053737677" flag="0"/>
      <psa03 value="0.0304621131" flag="0"/>
      <psa10 value="0.0042023191" flag="0"/>
      <psa30 value="0.0001845285" flag="0"/>
    </comp>
  </station>
  <station code="BH13A" name="BH13A" netid="Y5" insttype="STS2_gen2" lat="44.8908" lon="16.3202">
    <comp name="--.HH1">
      <acc value="0.0568127850" flag="0"/>
      <vel value="0.0383736906" flag="0"/>
      <psa03 value="0.1336217363" flag="0"/>
      <psa10 value="0.0453003925" flag="0"/>
      <psa30 value="0.0032684892" flag="0"/>
    </comp>
    <comp name="--.HH2">
      <acc value="0.0743046581" flag="0"/>
      <vel value="0.0280836124" flag="0"/>
      <psa03 value="0.2882143454" flag="0"/>
      <psa10 value="0.0276991695" flag="0"/>
      <psa30 value="0.0022032742" flag="0"/>
    </comp>
    <comp name="--.HHZ">
      <acc value="0.0621857300" flag="0"/>
      <vel value="0.0242209860" flag="0"/>
      <psa03 value="0.1216340981" flag="0"/>
      <psa10 value="0.0277075483" flag="0"/>
      <psa30 value="0.0025328885" flag="0"/>
    </comp>
  </station>
</stationlist>
