<?xml version="1.0" encoding="UTF-8" standalone="yes"?>
<!DOCTYPE earthquake SYSTEM "stationlist.dtd">
<stationlist created="" xmlns="ch.ethz.sed.shakemap.usgs.xml">
  <station code="TRI" name="TRI" netid="MN" insttype="" lat="45.709" lon="13.764">
    <comp name="--.HHN">
      <acc value="0.0579544527" flag="0"/>
      <vel value="0.0329310979" flag="0"/>
      <psa03 value="0.1292153355" flag="0"/>
      <psa10 value="0.0234031243" flag="0"/>
      <psa30 value="0.0043354332" flag="0"/>
    </comp>
    <comp name="--.HHE">
      <acc value="0.1114119979" flag="0"/>
      <vel value="0.0588759570" flag="0"/>
      <psa03 value="0.1893114575" flag="0"/>
      <psa10 value="0.0270921209" flag="0"/>
      <psa30 value="0.0089184241" flag="0"/>
    </comp>
    <comp name="--.HHZ">
      <acc value="0.1581906063" flag="0"/>
      <vel value="0.0369480527" flag="0"/>
      <psa03 value="0.2378343219" flag="0"/>
      <psa10 value="0.0217230959" flag="0"/>
      <psa30 value="0.0095847523" flag="0"/>
    </comp>
  </station>
  <station code="DST2" name="DST2" netid="NI" insttype="" lat="45.6589" lon="13.8013">
    <comp name="--.HHE">
      <acc value="0.1260816957" flag="0"/>
      <vel value="0.0577316090" flag="0"/>
      <psa03 value="0.4621585663" flag="0"/>
      <psa10 value="0.0325521846" flag="0"/>
      <psa30 value="0.0085932895" flag="0"/>
    </comp>
    <comp name="--.HHN">
      <acc value="0.1228354047" flag="0"/>
      <vel value="0.0385250386" flag="0"/>
      <psa03 value="0.1985903221" flag="0"/>
      <psa10 value="0.0262263381" flag="0"/>
      <psa30 value="0.0044349029" flag="0"/>
    </comp>
    <comp name="--.HHZ">
      <acc value="0.0580591965" flag="0"/>
      <vel value="0.0272419037" flag="0"/>
      <psa03 value="0.1222075667" flag="0"/>
      <psa10 value="0.0215292225" flag="0"/>
      <psa30 value="0.0076769249" flag="0"/>
    </comp>
  </station>
  <station code="SABO" name="SABO" netid="OX" insttype="" lat="45.9875" lon="13.6336">
    <comp name="--.HHE">
      <acc value="0.1619990155" flag="0"/>
      <vel value="0.0782290441" flag="0"/>
      <psa03 value="0.4461142006" flag="0"/>
      <psa10 value="0.0745430292" flag="0"/>
      <psa30 value="0.0102013308" flag="0"/>
    </comp>
    <comp name="--.HHN">
      <acc value="0.1097065638" flag="0"/>
      <vel value="0.0770429425" flag="0"/>
      <psa03 value="0.4110037226" flag="0"/>
      <psa10 value="0.1099259038" flag="0"/>
      <psa30 value="0.0087278954" flag="0"/>
    </comp>
    <comp name="--.HHZ">
      <acc value="0.0546026727" flag="0"/>
      <vel value="0.0425283375" flag="0"/>
      <psa03 value="0.1422719383" flag="0"/>
      <psa10 value="0.0369299565" flag="0"/>
      <psa30 value="0.0109448493" flag="0"/>
    </comp>
  </station>
  <station code="BH09A" name="BH09A" netid="Y5" insttype="STS2_gen3" lat="44.7856" lon="16.6156">
    <comp name="--.HHZ">
      <acc value="0.0695839929" flag="0"/>
      <vel value="0.0570413745" flag="0"/>
      <psa03 value="0.2093548105" flag="0"/>
      <psa10 value="0.0784726749" flag="0"/>
      <psa30 value="0.0029922353" flag="0"/>
    </comp>
    <comp name="--.HH1">
      <acc value="0.0382742320" flag="0"/>
      <vel value="0.0149480455" flag="0"/>
      <psa03 value="0.0857032886" flag="0"/>
      <psa10 value="0.0081148727" flag="0"/>
      <psa30 value="0.0004715057" flag="0"/>
    </comp>
    <comp name="--.HH2">
      <acc value="0.0337490380" flag="0"/>
      <vel value="0.0146424870" flag="0"/>
      <psa03 value="0.0908045591" flag="0"/>
      <psa10 value="0.0097829134" flag="0"/>
      <psa30 value="0.0006988702" flag="0"/>
    </comp>
  </station>
  <station code="BH13A" name="BH13A" netid="Y5" insttype="STS2_gen2" lat="44.8908" lon="16.3202">
    <comp name="--.HHZ">
      <acc value="0.0622509429" flag="0"/>
      <vel value="0.0241339296" flag="0"/>
      <psa03 value="0.1216640189" flag="0"/>
      <psa10 value="0.0277454721" flag="0"/>
      <psa30 value="0.0022618096" flag="0"/>
    </comp>
    <comp name="--.HH1">
      <acc value="0.0564877894" flag="0"/>
      <vel value="0.0376066025" flag="0"/>
      <psa03 value="0.1333087920" flag="0"/>
      <psa10 value="0.0454215161" flag="0"/>
      <psa30 value="0.0025362389" flag="0"/>
    </comp>
    <comp name="--.HH2">
      <acc value="0.0743006723" flag="0"/>
      <vel value="0.0278808017" flag="0"/>
      <psa03 value="0.2882086240" flag="0"/>
      <psa10 value="0.0276512445" flag="0"/>
      <psa30 value="0.0020524177" flag="0"/>
    </comp>
  </station>
</stationlist>
