<?xml version="1.0" encoding="UTF-8" standalone="yes"?>
<!DOCTYPE earthquake SYSTEM "stationlist.dtd">
<stationlist created="" xmlns="ch.ethz.sed.shakemap.usgs.xml">
  <station code="BULG" name="BULG" netid="IV" insttype="" lat="40.0783" lon="15.3776">
    <comp name="--.HHE">
      <acc value="0.0009932548" flag="0"/>
      <vel value="0.0002966767" flag="0"/>
      <psa03 value="0.0016562400" flag="0"/>
      <psa10 value="0.0001277906" flag="0"/>
      <psa30 value="0.0000242672" flag="0"/>
    </comp>
    <comp name="--.HHN">
      <acc value="0.0013485514" flag="0"/>
      <vel value="0.0003774835" flag="0"/>
      <psa03 value="0.0024380506" flag="0"/>
      <psa10 value="0.0002048305" flag="0"/>
      <psa30 value="0.0000399436" flag="0"/>
    </comp>
    <comp name="--.HHZ">
      <acc value="0.0006398368" flag="0"/>
      <vel value="0.0001878057" flag="0"/>
      <psa03 value="0.0007582137" flag="0"/>
      <psa10 value="0.0000968071" flag="0"/>
      <psa30 value="0.0000133153" flag="0"/>
    </comp>
  </station>
  <station code="CELI" name="CELI" netid="IV" insttype="" lat="39.4027" lon="16.5088">
    <comp name="--.HHE">
      <acc value="0.0031565800" flag="0"/>
      <vel value="0.0006825140" flag="0"/>
      <psa03 value="0.0039038406" flag="0"/>
      <psa10 value="0.0001688251" flag="0"/>
      <psa30 value="0.0000241299" flag="0"/>
    </comp>
    <comp name="--.HHZ">
      <acc value="0.0071531106" flag="0"/>
      <vel value="0.0017761837" flag="0"/>
      <psa03 value="0.0077735318" flag="0"/>
      <psa10 value="0.0004596047" flag="0"/>
      <psa30 value="0.0000485014" flag="0"/>
    </comp>
    <comp name="--.HHN">
      <acc value="0.0036814199" flag="0"/>
      <vel value="0.0007515490" flag="0"/>
      <psa03 value="0.0020071396" flag="0"/>
      <psa10 value="0.0001362868" flag="0"/>
      <psa30 value="0.0000201316" flag="0"/>
    </comp>
  </station>
  <station code="CET2" name="CET2" netid="IV" insttype="" lat="39.5288" lon="15.9546">
    <comp name="--.HHN">
      <acc value="0.0182603156" flag="0"/>
      <vel value="0.0027597939" flag="0"/>
      <psa03 value="0.0103096656" flag="0"/>
      <psa10 value="0.0014668896" flag="0"/>
      <psa30 value="0.0000865586" flag="0"/>
    </comp>
    <comp name="--.HHE">
      <acc value="0.0140167704" flag="0"/>
      <vel value="0.0018980655" flag="0"/>
      <psa03 value="0.0050829928" flag="0"/>
      <psa10 value="0.0014318351" flag="0"/>
      <psa30 value="0.0000780086" flag="0"/>
    </comp>
    <comp name="--.HHZ">
      <acc value="0.0240372836" flag="0"/>
      <vel value="0.0031852674" flag="0"/>
      <psa03 value="0.0077437385" flag="0"/>
      <psa10 value="0.0005485866" flag="0"/>
      <psa30 value="0.0000498733" flag="0"/>
    </comp>
  </station>
  <station code="JOPP" name="JOPP" netid="IV" insttype="" lat="38.6068" lon="15.8856">
    <comp name="--.HHE">
      <acc value="0.0048307596" flag="0"/>
      <vel value="0.0007440308" flag="0"/>
      <psa03 value="0.0019924974" flag="0"/>
      <psa10 value="0.0001532810" flag="0"/>
      <psa30 value="0.0000226095" flag="0"/>
    </comp>
    <comp name="--.HHN">
      <acc value="0.0034060902" flag="0"/>
      <vel value="0.0006804115" flag="0"/>
      <psa03 value="0.0025784264" flag="0"/>
      <psa10 value="0.0001178524" flag="0"/>
      <psa30 value="0.0000213506" flag="0"/>
    </comp>
    <comp name="--.HHZ">
      <acc value="0.0083492390" flag="0"/>
      <vel value="0.0011776371" flag="0"/>
      <psa03 value="0.0027641746" flag="0"/>
      <psa10 value="0.0003087592" flag="0"/>
      <psa30 value="0.0000234573" flag="0"/>
    </comp>
  </station>
  <station code="MGR" name="MGR" netid="IV" insttype="" lat="40.1376" lon="15.5535">
    <comp name="--.HHE">
      <acc value="0.0006656393" flag="0"/>
      <vel value="0.0001998996" flag="0"/>
      <psa03 value="0.0010583942" flag="0"/>
      <psa10 value="0.0001298532" flag="0"/>
      <psa30 value="0.0000177534" flag="0"/>
    </comp>
    <comp name="--.HHN">
      <acc value="0.0010207462" flag="0"/>
      <vel value="0.0002578128" flag="0"/>
      <psa03 value="0.0011083738" flag="0"/>
      <psa10 value="0.0001358002" flag="0"/>
      <psa30 value="0.0000200510" flag="0"/>
    </comp>
    <comp name="--.HHZ">
      <acc value="0.0012241195" flag="0"/>
      <vel value="0.0003532442" flag="0"/>
      <psa03 value="0.0016610529" flag="0"/>
      <psa10 value="0.0002087598" flag="0"/>
      <psa30 value="0.0000182941" flag="0"/>
    </comp>
  </station>
  <station code="MMN" name="MMN" netid="IV" insttype="" lat="39.891" lon="15.9904">
    <comp name="--.HHE">
      <acc value="0.0055223475" flag="0"/>
      <vel value="0.0009527842" flag="0"/>
      <psa03 value="0.0025214061" flag="0"/>
      <psa10 value="0.0002189334" flag="0"/>
      <psa30 value="0.0000205584" flag="0"/>
    </comp>
    <comp name="--.HHN">
      <acc value="0.0067367920" flag="0"/>
      <vel value="0.0010743678" flag="0"/>
      <psa03 value="0.0034321004" flag="0"/>
      <psa10 value="0.0002923498" flag="0"/>
      <psa30 value="0.0000290810" flag="0"/>
    </comp>
    <comp name="--.HHZ">
      <acc value="0.0034151893" flag="0"/>
      <vel value="0.0005983110" flag="0"/>
      <psa03 value="0.0024811453" flag="0"/>
      <psa10 value="0.0001941028" flag="0"/>
      <psa30 value="0.0000184147" flag="0"/>
    </comp>
  </station>
  <station code="SPS2" name="SPS2" netid="IV" insttype="" lat="39.291" lon="16.3388">
    <comp name="--.HHE">
      <acc value="0.0021286632" flag="0"/>
      <vel value="0.0004276793" flag="0"/>
      <psa03 value="0.0021499720" flag="0"/>
      <psa10 value="0.0001129117" flag="0"/>
      <psa30 value="0.0000093216" flag="0"/>
    </comp>
    <comp name="--.HHN">
      <acc value="0.0033381142" flag="0"/>
      <vel value="0.0006623709" flag="0"/>
      <psa03 value="0.0030640065" flag="0"/>
      <psa10 value="0.0001023895" flag="0"/>
      <psa30 value="0.0000090109" flag="0"/>
    </comp>
    <comp name="--.HHZ">
      <acc value="0.0056604861" flag="0"/>
      <vel value="0.0010031973" flag="0"/>
      <psa03 value="0.0037793077" flag="0"/>
      <psa10 value="0.0001465555" flag="0"/>
      <psa30 value="0.0000137425" flag="0"/>
    </comp>
  </station>
  <station code="TDS" name="TDS" netid="IV" insttype="" lat="39.6601" lon="16.3376">
    <comp name="--.HHE">
      <acc value="0.0070041841" flag="0"/>
      <vel value="0.0014145088" flag="0"/>
      <psa03 value="0.0019977548" flag="0"/>
      <psa10 value="0.0002704748" flag="0"/>
      <psa30 value="0.0000289335" flag="0"/>
    </comp>
    <comp name="--.HHN">
      <acc value="0.0029952508" flag="0"/>
      <vel value="0.0005013927" flag="0"/>
      <psa03 value="0.0013126409" flag="0"/>
      <psa10 value="0.0001546714" flag="0"/>
      <psa30 value="0.0000154330" flag="0"/>
    </comp>
    <comp name="--.HHZ">
      <acc value="0.0181937779" flag="0"/>
      <vel value="0.0026592763" flag="0"/>
      <psa03 value="0.0045291797" flag="0"/>
      <psa10 value="0.0004875220" flag="0"/>
      <psa30 value="0.0000404787" flag="0"/>
    </comp>
  </station>
</stationlist>
