<?xml version="1.0" encoding="UTF-8" standalone="yes"?>
<!DOCTYPE earthquake SYSTEM "stationlist.dtd">
<stationlist created="" xmlns="ch.ethz.sed.shakemap.usgs.xml">
  <station code="KSS1" name="KSS1" netid="HI" insttype="CMG-5TD,ACCELEROMETER,GURALP" lat="35.4189" lon="26.9207">
    <comp name="--.HNZ">
      <acc value="0.0272005439" flag="0"/>
      <vel value="0.0083995366" flag="0"/>
      <psa03 value="0.0436621957" flag="0"/>
      <psa10 value="0.0043737281" flag="0"/>
      <psa30 value="0.0002798657" flag="0"/>
    </comp>
    <comp name="--.HNE">
      <acc value="0.0592755671" flag="0"/>
      <vel value="0.0215671152" flag="0"/>
      <psa03 value="0.1626542435" flag="0"/>
      <psa10 value="0.0079121388" flag="0"/>
      <psa30 value="0.0004836603" flag="0"/>
    </comp>
    <comp name="--.HNN">
      <acc value="0.0440226931" flag="0"/>
      <vel value="0.0154223329" flag="0"/>
      <psa03 value="0.1492737193" flag="0"/>
      <psa10 value="0.0060314113" flag="0"/>
      <psa30 value="0.0004704386" flag="0"/>
    </comp>
  </station>
  <station code="ARG" name="ARG" netid="HL" insttype="LE3D20_DR24" lat="36.2136" lon="28.1212">
    <comp name="--.HHZ">
      <acc value="0.0040360536" flag="0"/>
      <vel value="0.0032037618" flag="0"/>
      <psa03 value="0.0127148470" flag="0"/>
      <psa10 value="0.0047312995" flag="0"/>
      <psa30 value="0.0004605045" flag="0"/>
    </comp>
    <comp name="--.HHN">
      <acc value="0.0069363624" flag="0"/>
      <vel value="0.0045056746" flag="0"/>
      <psa03 value="0.0127194484" flag="0"/>
      <psa10 value="0.0097031114" flag="0"/>
      <psa30 value="0.0004780219" flag="0"/>
    </comp>
    <comp name="--.HHE">
      <acc value="0.0079123961" flag="0"/>
      <vel value="0.0041061155" flag="0"/>
      <psa03 value="0.0302099485" flag="0"/>
      <psa10 value="0.0055614248" flag="0"/>
      <psa30 value="0.0009020691" flag="0"/>
    </comp>
  </station>
</stationlist>
