<?xml version="1.0" encoding="UTF-8" standalone="yes"?>
<!DOCTYPE earthquake SYSTEM "stationlist.dtd">
<stationlist created="" xmlns="ch.ethz.sed.shakemap.usgs.xml">
  <station code="KSS1" name="KSS1" netid="HI" insttype="CMG-5TD,ACCELEROMETER,GURALP" lat="35.4189" lon="26.9207">
    <comp name="--.HNZ">
      <acc value="0.0272005463" flag="0"/>
      <vel value="0.0083995387" flag="0"/>
      <psa03 value="0.0436621957" flag="0"/>
      <psa10 value="0.0043737281" flag="0"/>
      <psa30 value="0.0002805832" flag="0"/>
    </comp>
    <comp name="--.HNN">
      <acc value="0.0440226904" flag="0"/>
      <vel value="0.0154223344" flag="0"/>
      <psa03 value="0.1492737193" flag="0"/>
      <psa10 value="0.0060314111" flag="0"/>
      <psa30 value="0.0004706131" flag="0"/>
    </comp>
    <comp name="--.HNE">
      <acc value="0.0592755673" flag="0"/>
      <vel value="0.0215671154" flag="0"/>
      <psa03 value="0.1626542435" flag="0"/>
      <psa10 value="0.0079121367" flag="0"/>
      <psa30 value="0.0004835220" flag="0"/>
    </comp>
  </station>
  <station code="ARG" name="ARG" netid="HL" insttype="LE3D20_DR24" lat="36.2136" lon="28.1212">
    <comp name="--.HHN">
      <acc value="0.0069363631" flag="0"/>
      <vel value="0.0045056888" flag="0"/>
      <psa03 value="0.0127194485" flag="0"/>
      <psa10 value="0.0097031113" flag="0"/>
      <psa30 value="0.0004781424" flag="0"/>
    </comp>
    <comp name="--.HHE">
      <acc value="0.0079123950" flag="0"/>
      <vel value="0.0041061143" flag="0"/>
      <psa03 value="0.0302099485" flag="0"/>
      <psa10 value="0.0055614248" flag="0"/>
      <psa30 value="0.0009020592" flag="0"/>
    </comp>
    <comp name="--.HHZ">
      <acc value="0.0040360540" flag="0"/>
      <vel value="0.0032037554" flag="0"/>
      <psa03 value="0.0127148470" flag="0"/>
      <psa10 value="0.0047312995" flag="0"/>
      <psa30 value="0.0004607205" flag="0"/>
    </comp>
  </station>
</stationlist>
