<stationlist xmlns:esm="https://esm-db.eu/esmws/shakemap/1/" created="1784080559">
	<station code="KSS1" name="KSS1" netid="HI" source="ITSAK Strong Motion Network" insttype="" lat="35.4189" lon="26.9207" esm:processing="manual (Paolucci et al 2011)" esm:quality="best">
		<comp name="--.HNE" depth="0.0">
			<acc value="0.0588439968096933" flag="0"/>
			<vel value="0.0217746966226197" flag="0"/>
			<psa03 value="0.162500139836583" flag="0"/>
			<psa10 value="0.00794097948841684" flag="0"/>
			<psa30 value="0.000497279140220252" flag="0"/>
		</comp>
		<comp name="--.HNN" depth="0.0">
			<acc value="0.0443442838024398" flag="0"/>
			<vel value="0.0154836916353976" flag="0"/>
			<psa03 value="0.151181442111953" flag="0"/>
			<psa10 value="0.00606996694926855" flag="0"/>
			<psa30 value="0.000524526830662942" flag="0"/>
		</comp>
		<comp name="--.HNZ" depth="0.0">
			<acc value="0.0276448068920711" flag="0"/>
			<vel value="0.00844404953020617" flag="0"/>
			<psa03 value="0.0438759221894916" flag="0"/>
			<psa10 value="0.00440712554419283" flag="0"/>
			<psa30 value="0.000283868336134047" flag="0"/>
		</comp>
	</station>
	<station code="RDI1" name="RDI1" netid="HI" source="ITSAK Strong Motion Network" insttype="" lat="36.4514" lon="28.224" esm:processing="manual (Paolucci et al 2011)" esm:quality="good">
		<comp name="--.HNE" depth="0.0">
			<acc value="0.00611644705902923" flag="0"/>
			<vel value="0.0068781823021384" flag="0"/>
			<psa03 value="0.021962913268549" flag="0"/>
			<psa10 value="0.0122059767110533" flag="0"/>
			<psa30 value="0.00172766955379564" flag="0"/>
		</comp>
		<comp name="--.HNN" depth="0.0">
			<acc value="0.0081140874439086" flag="0"/>
			<vel value="0.0102646843866934" flag="0"/>
			<psa03 value="0.0216207799268109" flag="0"/>
			<psa10 value="0.0123770058533946" flag="0"/>
			<psa30 value="0.00159189035075648" flag="0"/>
		</comp>
		<comp name="--.HNZ" depth="0.0">
			<acc value="0.00502009046715536" flag="0"/>
			<vel value="0.00554436027361236" flag="0"/>
			<psa03 value="0.0166726422411401" flag="0"/>
			<psa10 value="0.00874998214337431" flag="0"/>
			<psa30 value="0.000888306033415133" flag="0"/>
		</comp>
	</station>
	<station code="RKL1" name="RKL1" netid="HI" source="ITSAK Strong Motion Network" insttype="" lat="36.336699" lon="28.171224" esm:processing="manual (Paolucci et al 2011)" esm:quality="good">
		<comp name="--.HNE" depth="0.0">
			<acc value="0.0136274419393753" flag="0"/>
			<vel value="0.0107302674688781" flag="0"/>
			<psa03 value="0.0350653307185684" flag="0"/>
			<psa10 value="0.0173634102407132" flag="0"/>
			<psa30 value="0.00112545372245234" flag="0"/>
		</comp>
		<comp name="--.HNN" depth="0.0">
			<acc value="0.0163147338622763" flag="0"/>
			<vel value="0.0121813766544961" flag="0"/>
			<psa03 value="0.0511492477616367" flag="0"/>
			<psa10 value="0.0177968883315094" flag="0"/>
			<psa30 value="0.000816768638163785" flag="0"/>
		</comp>
		<comp name="--.HNZ" depth="0.0">
			<acc value="0.00836965171466706" flag="0"/>
			<vel value="0.00559629379045327" flag="0"/>
			<psa03 value="0.0217133615807244" flag="0"/>
			<psa10 value="0.00538050486954146" flag="0"/>
			<psa30 value="0.000349836221807787" flag="0"/>
		</comp>
	</station>
	<station code="RKT1" name="RKT1" netid="HI" source="ITSAK Strong Motion Network" insttype="" lat="35.954336" lon="27.767327" esm:processing="automatic (Paolucci et al 2011)" esm:quality="best">
		<comp name="--.HNE" depth="0.0">
			<acc value="0.0311210435049596" flag="0"/>
			<vel value="0.0150945815216273" flag="0"/>
			<psa03 value="0.0696010430191825" flag="0"/>
			<psa10 value="0.0154176266546001" flag="0"/>
			<psa30 value="0.00104977891770125" flag="0"/>
		</comp>
		<comp name="--.HNN" depth="0.0">
			<acc value="0.0393305097110882" flag="0"/>
			<vel value="0.0190237731786411" flag="0"/>
			<psa03 value="0.142094819334416" flag="0"/>
			<psa10 value="0.0135575521837952" flag="0"/>
			<psa30 value="0.000811090032817384" flag="0"/>
		</comp>
		<comp name="--.HNZ" depth="0.0">
			<acc value="0.018430716629385" flag="0"/>
			<vel value="0.00769282157532579" flag="0"/>
			<psa03 value="0.0369464579381813" flag="0"/>
			<psa10 value="0.00977341931606423" flag="0"/>
			<psa30 value="0.000625916724327813" flag="0"/>
		</comp>
	</station>
	<station code="RPN1" name="RPN1" netid="HI" source="ITSAK Strong Motion Network" insttype="" lat="36.448678" lon="28.218047" esm:processing="manual (Paolucci et al 2011)" esm:quality="good">
		<comp name="--.HNE" depth="0.0">
			<acc value="0.0108060460273573" flag="0"/>
			<vel value="0.00916857618772145" flag="0"/>
			<psa03 value="0.0329307856696014" flag="0"/>
			<psa10 value="0.0141438078953589" flag="0"/>
			<psa30 value="0.00198105956880723" flag="0"/>
		</comp>
		<comp name="--.HNN" depth="0.0">
			<acc value="0.00969506213017257" flag="0"/>
			<vel value="0.00912706663272185" flag="0"/>
			<psa03 value="0.0331847243667938" flag="0"/>
			<psa10 value="0.013283381833855" flag="0"/>
			<psa30 value="0.00171126336279934" flag="0"/>
		</comp>
		<comp name="--.HNZ" depth="0.0">
			<acc value="0.00612572458138248" flag="0"/>
			<vel value="0.00474048429054745" flag="0"/>
			<psa03 value="0.0122326202468901" flag="0"/>
			<psa10 value="0.00770932945524098" flag="0"/>
			<psa30 value="0.000667608236185862" flag="0"/>
		</comp>
	</station>
	<station code="AGNA" name="AGNA" netid="HL" source="National Observatory of Athens Seismic Network" insttype="" lat="35.1895" lon="25.71853" esm:processing="discarded" esm:quality="bad">
		<comp name="00.HNE" depth="0.0">
			<acc value="0" flag="1"/>
			<vel value="0" flag="1"/>
			<psa03 value="0" flag="1"/>
			<psa10 value="0" flag="1"/>
			<psa30 value="0" flag="1"/>
		</comp>
		<comp name="00.HNN" depth="0.0">
			<acc value="0" flag="1"/>
			<vel value="0" flag="1"/>
			<psa03 value="0" flag="1"/>
			<psa10 value="0" flag="1"/>
			<psa30 value="0" flag="1"/>
		</comp>
		<comp name="00.HNZ" depth="0.0">
			<acc value="0" flag="1"/>
			<vel value="0" flag="1"/>
			<psa03 value="0" flag="1"/>
			<psa10 value="0" flag="1"/>
			<psa30 value="0" flag="1"/>
		</comp>
	</station>
	<station code="KLNA" name="KLNA" netid="HL" source="National Observatory of Athens Seismic Network" insttype="" lat="36.95708" lon="26.97274" esm:processing="discarded" esm:quality="bad">
		<comp name="00.HNE" depth="0.0">
			<acc value="0" flag="1"/>
			<vel value="0" flag="1"/>
			<psa03 value="0" flag="1"/>
			<psa10 value="0" flag="1"/>
			<psa30 value="0" flag="1"/>
		</comp>
		<comp name="00.HNN" depth="0.0">
			<acc value="0" flag="1"/>
			<vel value="0" flag="1"/>
			<psa03 value="0" flag="1"/>
			<psa10 value="0" flag="1"/>
			<psa30 value="0" flag="1"/>
		</comp>
		<comp name="00.HNZ" depth="0.0">
			<acc value="0" flag="1"/>
			<vel value="0" flag="1"/>
			<psa03 value="0" flag="1"/>
			<psa10 value="0" flag="1"/>
			<psa30 value="0" flag="1"/>
		</comp>
	</station>
	<station code="KSTE" name="KSTE" netid="HL" source="National Observatory of Athens Seismic Network" insttype="" lat="35.1801" lon="25.3372" esm:processing="discarded" esm:quality="bad">
		<comp name="--.HNE" depth="0.0">
			<acc value="0" flag="1"/>
			<vel value="0" flag="1"/>
			<psa03 value="0" flag="1"/>
			<psa10 value="0" flag="1"/>
			<psa30 value="0" flag="1"/>
		</comp>
		<comp name="--.HNN" depth="0.0">
			<acc value="0" flag="1"/>
			<vel value="0" flag="1"/>
			<psa03 value="0" flag="1"/>
			<psa10 value="0" flag="1"/>
			<psa30 value="0" flag="1"/>
		</comp>
		<comp name="--.HNZ" depth="0.0">
			<acc value="0" flag="1"/>
			<vel value="0" flag="1"/>
			<psa03 value="0" flag="1"/>
			<psa10 value="0" flag="1"/>
			<psa30 value="0" flag="1"/>
		</comp>
	</station>
	<station code="NISR" name="NISR" netid="HL" source="National Observatory of Athens Seismic Network" insttype="" lat="36.6106" lon="27.131" esm:processing="discarded" esm:quality="bad">
		<comp name="--.HNE" depth="0.0">
			<acc value="0" flag="1"/>
			<vel value="0" flag="1"/>
			<psa03 value="0" flag="1"/>
			<psa10 value="0" flag="1"/>
			<psa30 value="0" flag="1"/>
		</comp>
		<comp name="--.HNN" depth="0.0">
			<acc value="0" flag="1"/>
			<vel value="0" flag="1"/>
			<psa03 value="0" flag="1"/>
			<psa10 value="0" flag="1"/>
			<psa30 value="0" flag="1"/>
		</comp>
		<comp name="--.HNZ" depth="0.0">
			<acc value="0" flag="1"/>
			<vel value="0" flag="1"/>
			<psa03 value="0" flag="1"/>
			<psa10 value="0" flag="1"/>
			<psa30 value="0" flag="1"/>
		</comp>
	</station>
	<station code="RODB" name="RODB" netid="HL" source="National Observatory of Athens Seismic Network" insttype="" lat="36.4471" lon="28.22116" esm:processing="discarded" esm:quality="bad">
		<comp name="00.HNE" depth="0.0">
			<acc value="0" flag="1"/>
			<vel value="0" flag="1"/>
			<psa03 value="0" flag="1"/>
			<psa10 value="0" flag="1"/>
			<psa30 value="0" flag="1"/>
		</comp>
		<comp name="00.HNN" depth="0.0">
			<acc value="0" flag="1"/>
			<vel value="0" flag="1"/>
			<psa03 value="0" flag="1"/>
			<psa10 value="0" flag="1"/>
			<psa30 value="0" flag="1"/>
		</comp>
		<comp name="00.HNZ" depth="0.0">
			<acc value="0" flag="1"/>
			<vel value="0" flag="1"/>
			<psa03 value="0" flag="1"/>
			<psa10 value="0" flag="1"/>
			<psa30 value="0" flag="1"/>
		</comp>
	</station>
	<station code="BODA" name="BODA" netid="KO" source="Bogazici University Kandilli Observatory And Earthquake Research Institute (KOERI)" insttype="" lat="37.0348" lon="27.4304" esm:processing="automatic (Paolucci et al 2011)" esm:quality="bad">
		<comp name="--.HNE" depth="0.0">
			<acc value="0" flag="1"/>
			<vel value="0" flag="1"/>
			<psa03 value="0" flag="1"/>
			<psa10 value="0" flag="1"/>
			<psa30 value="0" flag="1"/>
		</comp>
		<comp name="--.HNN" depth="0.0">
			<acc value="0" flag="1"/>
			<vel value="0" flag="1"/>
			<psa03 value="0" flag="1"/>
			<psa10 value="0" flag="1"/>
			<psa30 value="0" flag="1"/>
		</comp>
		<comp name="--.HNZ" depth="0.0">
			<acc value="0" flag="1"/>
			<vel value="0" flag="1"/>
			<psa03 value="0" flag="1"/>
			<psa10 value="0" flag="1"/>
			<psa30 value="0" flag="1"/>
		</comp>
	</station>
	<station code="DATC" name="DATC" netid="KO" source="Bogazici University Kandilli Observatory And Earthquake Research Institute (KOERI)" insttype="" lat="36.7584" lon="27.6602" esm:processing="automatic (Paolucci et al 2011)" esm:quality="bad">
		<comp name="--.HNE" depth="0.0">
			<acc value="0" flag="1"/>
			<vel value="0" flag="1"/>
			<psa03 value="0" flag="1"/>
			<psa10 value="0" flag="1"/>
			<psa30 value="0" flag="1"/>
		</comp>
		<comp name="--.HNN" depth="0.0">
			<acc value="0" flag="1"/>
			<vel value="0" flag="1"/>
			<psa03 value="0" flag="1"/>
			<psa10 value="0" flag="1"/>
			<psa30 value="0" flag="1"/>
		</comp>
		<comp name="--.HNZ" depth="0.0">
			<acc value="0" flag="1"/>
			<vel value="0" flag="1"/>
			<psa03 value="0" flag="1"/>
			<psa10 value="0" flag="1"/>
			<psa30 value="0" flag="1"/>
		</comp>
	</station>
	<station code="FETI" name="FETI" netid="KO" source="Bogazici University Kandilli Observatory And Earthquake Research Institute (KOERI)" insttype="" lat="36.6903" lon="29.096" esm:processing="automatic (Paolucci et al 2011)" esm:quality="bad">
		<comp name="--.HNE" depth="0.0">
			<acc value="0" flag="1"/>
			<vel value="0" flag="1"/>
			<psa03 value="0" flag="1"/>
			<psa10 value="0" flag="1"/>
			<psa30 value="0" flag="1"/>
		</comp>
		<comp name="--.HNN" depth="0.0">
			<acc value="0" flag="1"/>
			<vel value="0" flag="1"/>
			<psa03 value="0" flag="1"/>
			<psa10 value="0" flag="1"/>
			<psa30 value="0" flag="1"/>
		</comp>
		<comp name="--.HNZ" depth="0.0">
			<acc value="0" flag="1"/>
			<vel value="0" flag="1"/>
			<psa03 value="0" flag="1"/>
			<psa10 value="0" flag="1"/>
			<psa30 value="0" flag="1"/>
		</comp>
	</station>
	<station code="YKAV" name="YKAV" netid="KO" source="Bogazici University Kandilli Observatory And Earthquake Research Institute (KOERI)" insttype="" lat="37.1246" lon="27.2801" esm:processing="automatic (Paolucci et al 2011)" esm:quality="bad">
		<comp name="--.HNE" depth="0.0">
			<acc value="0" flag="1"/>
			<vel value="0" flag="1"/>
			<psa03 value="0" flag="1"/>
			<psa10 value="0" flag="1"/>
			<psa30 value="0" flag="1"/>
		</comp>
		<comp name="--.HNN" depth="0.0">
			<acc value="0" flag="1"/>
			<vel value="0" flag="1"/>
			<psa03 value="0" flag="1"/>
			<psa10 value="0" flag="1"/>
			<psa30 value="0" flag="1"/>
		</comp>
		<comp name="--.HNZ" depth="0.0">
			<acc value="0" flag="1"/>
			<vel value="0" flag="1"/>
			<psa03 value="0" flag="1"/>
			<psa10 value="0" flag="1"/>
			<psa30 value="0" flag="1"/>
		</comp>
	</station>
</stationlist>
