<?xml version="1.0" encoding="UTF-8" standalone="yes"?>
<!DOCTYPE earthquake SYSTEM "stationlist.dtd">
<stationlist created="" xmlns="ch.ethz.sed.shakemap.usgs.xml">
  <station code="KARP" name="KARP" netid="GE" insttype="STS-2/N" lat="35.5471" lon="27.1611">
    <comp name="--.HHE">
      <acc value="0.0685555726" flag="0"/>
      <vel value="0.0131645420" flag="0"/>
      <psa03 value="0.0369030753" flag="0"/>
      <psa10 value="0.0121897410" flag="0"/>
      <psa30 value="0.0005994479" flag="0"/>
    </comp>
    <comp name="--.HHN">
      <acc value="0.0598425073" flag="0"/>
      <vel value="0.0104396270" flag="0"/>
      <psa03 value="0.0377045818" flag="0"/>
      <psa10 value="0.0111902561" flag="0"/>
      <psa30 value="0.0005867068" flag="0"/>
    </comp>
    <comp name="--.HHZ">
      <acc value="0.0334416563" flag="0"/>
      <vel value="0.0072209861" flag="0"/>
      <psa03 value="0.0307664120" flag="0"/>
      <psa10 value="0.0053630097" flag="0"/>
      <psa30 value="0.0005193310" flag="0"/>
    </comp>
  </station>
  <station code="THERA" name="THERA" netid="GE" insttype="STS-2/N" lat="36.367" lon="25.4753">
    <comp name="--.HHN">
      <acc value="0.0105120241" flag="0"/>
      <vel value="0.0034490272" flag="0"/>
      <psa03 value="0.0198060979" flag="0"/>
      <psa10 value="0.0022913899" flag="0"/>
      <psa30 value="0.0002398102" flag="0"/>
    </comp>
    <comp name="--.HHE">
      <acc value="0.0164063356" flag="0"/>
      <vel value="0.0073521829" flag="0"/>
      <psa03 value="0.0302813644" flag="0"/>
      <psa10 value="0.0092880076" flag="0"/>
      <psa30 value="0.0006628497" flag="0"/>
    </comp>
    <comp name="--.HHZ">
      <acc value="0.0124583013" flag="0"/>
      <vel value="0.0040379576" flag="0"/>
      <psa03 value="0.0222267226" flag="0"/>
      <psa10 value="0.0030434207" flag="0"/>
      <psa30 value="0.0004241830" flag="0"/>
    </comp>
  </station>
  <station code="ZKR" name="ZKR" netid="GE" insttype="STS-2/N" lat="35.1147" lon="26.2169">
    <comp name="--.HHE">
      <acc value="0.0748622850" flag="0"/>
      <vel value="0.0221988690" flag="0"/>
      <psa03 value="0.0649853667" flag="0"/>
      <psa10 value="0.0186527492" flag="0"/>
      <psa30 value="0.0010601881" flag="0"/>
    </comp>
    <comp name="--.HHN">
      <acc value="0.0379245875" flag="0"/>
      <vel value="0.0103482238" flag="0"/>
      <psa03 value="0.0400703571" flag="0"/>
      <psa10 value="0.0047806600" flag="0"/>
      <psa30 value="0.0003384321" flag="0"/>
    </comp>
    <comp name="--.HHZ">
      <acc value="0.0502099088" flag="0"/>
      <vel value="0.0127698342" flag="0"/>
      <psa03 value="0.0454608036" flag="0"/>
      <psa10 value="0.0101290448" flag="0"/>
      <psa30 value="0.0005865623" flag="0"/>
    </comp>
  </station>
  <station code="SNT5" name="SNT5" netid="HA" insttype="1s-100Hz," lat="36.4037" lon="25.3953">
    <comp name="--.HHZ">
      <acc value="0.0137866851" flag="0"/>
      <vel value="0.0042704633" flag="0"/>
      <psa03 value="0.0235248985" flag="0"/>
      <psa10 value="0.0031962209" flag="0"/>
      <psa30 value="0.0004938850" flag="0"/>
    </comp>
    <comp name="--.HHE">
      <acc value="0.0547791284" flag="0"/>
      <vel value="0.0187455515" flag="0"/>
      <psa03 value="0.0897799973" flag="0"/>
      <psa10 value="0.0105901380" flag="0"/>
      <psa30 value="0.0013707961" flag="0"/>
    </comp>
    <comp name="--.HHN">
      <acc value="0.0392962152" flag="0"/>
      <vel value="0.0129893306" flag="0"/>
      <psa03 value="0.0605992102" flag="0"/>
      <psa10 value="0.0052240442" flag="0"/>
      <psa30 value="0.0007576721" flag="0"/>
    </comp>
  </station>
  <station code="SIT2" name="SIT2" netid="HI" insttype="CMG-5TD,ACCELEROMETER,GURALP" lat="35.2059" lon="26.107">
    <comp name="--.HNE">
      <acc value="0.1010280045" flag="0"/>
      <vel value="0.0385087043" flag="0"/>
      <psa03 value="0.2306784351" flag="0"/>
      <psa10 value="0.0256066305" flag="0"/>
      <psa30 value="0.0018182935" flag="0"/>
    </comp>
    <comp name="--.HNN">
      <acc value="0.1081905053" flag="0"/>
      <vel value="0.0447660528" flag="0"/>
      <psa03 value="0.2400662689" flag="0"/>
      <psa10 value="0.0292874810" flag="0"/>
      <psa30 value="0.0021310351" flag="0"/>
    </comp>
    <comp name="--.HNZ">
      <acc value="0.1003332594" flag="0"/>
      <vel value="0.0277309503" flag="0"/>
      <psa03 value="0.1615915940" flag="0"/>
      <psa10 value="0.0127253898" flag="0"/>
      <psa30 value="0.0009035094" flag="0"/>
    </comp>
  </station>
  <station code="IACM" name="IACM" netid="HL" insttype="120" lat="35.3058" lon="25.0709">
    <comp name="--.HHZ">
      <acc value="0.0562215020" flag="0"/>
      <vel value="0.0165054798" flag="0"/>
      <psa03 value="0.0877846161" flag="0"/>
      <psa10 value="0.0137405604" flag="0"/>
      <psa30 value="0.0004789874" flag="0"/>
    </comp>
    <comp name="--.HHN">
      <acc value="0.0571347545" flag="0"/>
      <vel value="0.0266187779" flag="0"/>
      <psa03 value="0.1726361017" flag="0"/>
      <psa10 value="0.0292075808" flag="0"/>
      <psa30 value="0.0012748463" flag="0"/>
    </comp>
    <comp name="--.HHE">
      <acc value="0.0562876524" flag="0"/>
      <vel value="0.0317462458" flag="0"/>
      <psa03 value="0.1495187909" flag="0"/>
      <psa10 value="0.0428472377" flag="0"/>
      <psa30 value="0.0016087621" flag="0"/>
    </comp>
  </station>
  <station code="KARP" name="KARP" netid="HL" insttype="120" lat="35.5471" lon="27.1611">
    <comp name="--.HHN">
      <acc value="0.0531882156" flag="0"/>
      <vel value="0.0097145065" flag="0"/>
      <psa03 value="0.0365658222" flag="0"/>
      <psa10 value="0.0111048737" flag="0"/>
      <psa30 value="0.0005822893" flag="0"/>
    </comp>
    <comp name="--.HHE">
      <acc value="0.0603193882" flag="0"/>
      <vel value="0.0128584421" flag="0"/>
      <psa03 value="0.0357070962" flag="0"/>
      <psa10 value="0.0121185633" flag="0"/>
      <psa30 value="0.0005974173" flag="0"/>
    </comp>
    <comp name="--.HHZ">
      <acc value="0.0297634591" flag="0"/>
      <vel value="0.0069145940" flag="0"/>
      <psa03 value="0.0301115660" flag="0"/>
      <psa10 value="0.0053338563" flag="0"/>
      <psa30 value="0.0005167091" flag="0"/>
    </comp>
  </station>
  <station code="NPS" name="NPS" netid="HL" insttype="CMG3ESPC-120s" lat="35.2613" lon="25.6104">
    <comp name="--.HHE">
      <acc value="0.0396824682" flag="0"/>
      <vel value="0.0162692922" flag="0"/>
      <psa03 value="0.0721054588" flag="0"/>
      <psa10 value="0.0046734635" flag="0"/>
      <psa30 value="0.0003903155" flag="0"/>
    </comp>
    <comp name="--.HHN">
      <acc value="0.0845406206" flag="0"/>
      <vel value="0.0271730113" flag="0"/>
      <psa03 value="0.1408833187" flag="0"/>
      <psa10 value="0.0118143197" flag="0"/>
      <psa30 value="0.0009074333" flag="0"/>
    </comp>
    <comp name="--.HHZ">
      <acc value="0.0725346703" flag="0"/>
      <vel value="0.0236003243" flag="0"/>
      <psa03 value="0.0621971399" flag="0"/>
      <psa10 value="0.0078679997" flag="0"/>
      <psa30 value="0.0006868787" flag="0"/>
    </comp>
  </station>
  <station code="THERA" name="THERA" netid="HL" insttype="120" lat="36.367" lon="25.4753">
    <comp name="--.HHE">
      <acc value="0.0157898515" flag="0"/>
      <vel value="0.0071649948" flag="0"/>
      <psa03 value="0.0293223446" flag="0"/>
      <psa10 value="0.0092230685" flag="0"/>
      <psa30 value="0.0006592526" flag="0"/>
    </comp>
    <comp name="--.HHZ">
      <acc value="0.0121594393" flag="0"/>
      <vel value="0.0039470692" flag="0"/>
      <psa03 value="0.0215730957" flag="0"/>
      <psa10 value="0.0030195123" flag="0"/>
      <psa30 value="0.0004244314" flag="0"/>
    </comp>
    <comp name="--.HHN">
      <acc value="0.0102835087" flag="0"/>
      <vel value="0.0033327794" flag="0"/>
      <psa03 value="0.0192522495" flag="0"/>
      <psa10 value="0.0022770159" flag="0"/>
      <psa30 value="0.0002391377" flag="0"/>
    </comp>
  </station>
  <station code="ZKR" name="ZKR" netid="HL" insttype="120" lat="35.1147" lon="26.2169">
    <comp name="--.HHE">
      <acc value="0.0725596886" flag="0"/>
      <vel value="0.0217351195" flag="0"/>
      <psa03 value="0.0632517499" flag="0"/>
      <psa10 value="0.0185026094" flag="0"/>
      <psa30 value="0.0010576540" flag="0"/>
    </comp>
    <comp name="--.HHN">
      <acc value="0.0368359182" flag="0"/>
      <vel value="0.0100361432" flag="0"/>
      <psa03 value="0.0390271605" flag="0"/>
      <psa10 value="0.0047571838" flag="0"/>
      <psa30 value="0.0003354505" flag="0"/>
    </comp>
    <comp name="--.HHZ">
      <acc value="0.0508212240" flag="0"/>
      <vel value="0.0124332716" flag="0"/>
      <psa03 value="0.0439398285" flag="0"/>
      <psa10 value="0.0100750007" flag="0"/>
      <psa30 value="0.0005857103" flag="0"/>
    </comp>
  </station>
  <station code="CMBO" name="CMBO" netid="HT" insttype="120P," lat="36.4709" lon="25.4056">
    <comp name="--.HHE">
      <acc value="0.0421603293" flag="0"/>
      <vel value="0.0232457237" flag="0"/>
      <psa03 value="0.1039805656" flag="0"/>
      <psa10 value="0.0304534621" flag="0"/>
      <psa30 value="0.0015598434" flag="0"/>
    </comp>
    <comp name="--.HHZ">
      <acc value="0.0417669388" flag="0"/>
      <vel value="0.0193234203" flag="0"/>
      <psa03 value="0.1098727533" flag="0"/>
      <psa10 value="0.0073892440" flag="0"/>
      <psa30 value="0.0007355883" flag="0"/>
    </comp>
    <comp name="--.HHN">
      <acc value="0.0585633263" flag="0"/>
      <vel value="0.0274793726" flag="0"/>
      <psa03 value="0.1848782629" flag="0"/>
      <psa10 value="0.0207179415" flag="0"/>
      <psa30 value="0.0012523121" flag="0"/>
    </comp>
  </station>
</stationlist>
