<stationlist created="1631873548">
	<station code="KSS1" name="KSS1" netid="HI" source="ITSAK Strong Motion Network" insttype="" lat="35.4189" lon="26.9207">
		<comp name="--.HNE" depth="0.0">
			<acc value="-0.065004906" flag="0"/>
			<vel value="-0.018134" flag="0"/>
			<psa03 value="0.139371973616" flag="0"/>
			<psa10 value="0.0137313832111" flag="0"/>
			<psa30 value="0.000715427883826" flag="0"/>
		</comp>
		<comp name="--.HNN" depth="0.0">
			<acc value="0.077842932" flag="0"/>
			<vel value="0.025347" flag="0"/>
			<psa03 value="0.120043340357" flag="0"/>
			<psa10 value="0.0131917921993" flag="0"/>
			<psa30 value="0.0014156434174" flag="0"/>
		</comp>
		<comp name="--.HNZ" depth="0.0">
			<acc value="0.057937836" flag="0"/>
			<vel value="0.012147" flag="0"/>
			<psa03 value="0.0527958038096" flag="0"/>
			<psa10 value="0.00768715851909" flag="0"/>
			<psa30 value="0.000761064934577" flag="0"/>
		</comp>
	</station>
	<station code="SIT2" name="SIT2" netid="HI" source="ITSAK Strong Motion Network" insttype="" lat="35.2059" lon="26.107">
		<comp name="--.HNE" depth="0.0">
			<acc value="-0.101151462" flag="0"/>
			<vel value="-0.038356" flag="0"/>
			<psa03 value="0.227603605067" flag="0"/>
			<psa10 value="0.0257392966234" flag="0"/>
			<psa30 value="0.00196507771467" flag="0"/>
		</comp>
		<comp name="--.HNN" depth="0.0">
			<acc value="0.106897122" flag="0"/>
			<vel value="-0.044949" flag="0"/>
			<psa03 value="0.237939054796" flag="0"/>
			<psa10 value="0.0293754957552" flag="0"/>
			<psa30 value="0.00217805061818" flag="0"/>
		</comp>
		<comp name="--.HNZ" depth="0.0">
			<acc value="0.099500388" flag="0"/>
			<vel value="0.028285" flag="0"/>
			<psa03 value="0.163801218429" flag="0"/>
			<psa10 value="0.0127327371594" flag="0"/>
			<psa30 value="0.000940928605182" flag="0"/>
		</comp>
	</station>
	<station code="IACM" name="IACM" netid="HL" source="National Observatory of Athens Seismic Network" insttype="" lat="35.3058" lon="25.0709">
		<comp name="--.HNE" depth="0.0">
			<acc value="-0.054414756" flag="0"/>
			<vel value="-0.031175" flag="0"/>
			<psa03 value="0.1419670216" flag="0"/>
			<psa10 value="0.0423015192472" flag="0"/>
			<psa30 value="0.00156642465371" flag="0"/>
		</comp>
		<comp name="--.HNN" depth="0.0">
			<acc value="0.058300752" flag="0"/>
			<vel value="0.027457" flag="0"/>
			<psa03 value="0.171317909141" flag="0"/>
			<psa10 value="0.0294399245328" flag="0"/>
			<psa30 value="0.00133152806896" flag="0"/>
		</comp>
		<comp name="--.HNZ" depth="0.0">
			<acc value="0.054855498" flag="0"/>
			<vel value="0.016609" flag="0"/>
			<psa03 value="0.0861734899468" flag="0"/>
			<psa10 value="0.0132803817684" flag="0"/>
			<psa30 value="0.000532432258757" flag="0"/>
		</comp>
	</station>
	<station code="KARP" name="KARP" netid="HL" source="National Observatory of Athens Seismic Network" insttype="" lat="35.5471" lon="27.16106">
		<comp name="--.HNE" depth="0.0">
			<acc value="-0.049672062" flag="0"/>
			<vel value="0.010955" flag="0"/>
			<psa03 value="0.0314985134593" flag="0"/>
			<psa10 value="0.0112106072903" flag="0"/>
			<psa30 value="0.000574937355045" flag="0"/>
		</comp>
		<comp name="--.HNN" depth="0.0">
			<acc value="-0.040587534" flag="0"/>
			<vel value="0.008318" flag="0"/>
			<psa03 value="0.0310958335997" flag="0"/>
			<psa10 value="0.0086012418003" flag="0"/>
			<psa30 value="0.000467556059161" flag="0"/>
		</comp>
		<comp name="--.HNZ" depth="0.0">
			<acc value="-0.024860766" flag="0"/>
			<vel value="-0.005888" flag="0"/>
			<psa03 value="0.0244739870202" flag="0"/>
			<psa10 value="0.00435296928189" flag="0"/>
			<psa30 value="0.000448764332381" flag="0"/>
		</comp>
	</station>
	<station code="SIVA" name="SIVA" netid="HL" source="National Observatory of Athens Seismic Network" insttype="" lat="35.01777" lon="24.81204">
		<comp name="--.HNE" depth="0.0">
			<acc value="0.011668902" flag="0"/>
			<vel value="-0.006316" flag="0"/>
			<psa03 value="0.0336908815836" flag="0"/>
			<psa10 value="0.00530732054906" flag="0"/>
			<psa30 value="0.000269795505908" flag="0"/>
		</comp>
		<comp name="--.HNN" depth="0.0">
			<acc value="0.010715712" flag="0"/>
			<vel value="0.007286" flag="0"/>
			<psa03 value="0.0468450903293" flag="0"/>
			<psa10 value="0.00877036734131" flag="0"/>
			<psa30 value="0.000399100483035" flag="0"/>
		</comp>
		<comp name="--.HNZ" depth="0.0">
			<acc value="0.008497008" flag="0"/>
			<vel value="-0.00366" flag="0"/>
			<psa03 value="0.0199102819451" flag="0"/>
			<psa10 value="0.00289526819027" flag="0"/>
			<psa30 value="0.000191944066392" flag="0"/>
		</comp>
	</station>
	<station code="THRA" name="THRA" netid="HL" source="National Observatory of Athens Seismic Network" insttype="" lat="36.41502" lon="25.43244">
		<comp name="--.HNE" depth="0.0">
			<acc value="-0.045368376" flag="0"/>
			<vel value="-0.024178" flag="0"/>
			<psa03 value="0.0957483221631" flag="0"/>
			<psa10 value="0.0394787334317" flag="0"/>
			<psa30 value="0.00242681728698" flag="0"/>
		</comp>
		<comp name="--.HNN" depth="0.0">
			<acc value="-0.04118913" flag="0"/>
			<vel value="0.021648" flag="0"/>
			<psa03 value="0.10451779466" flag="0"/>
			<psa10 value="0.0300842123081" flag="0"/>
			<psa30 value="0.00146083304609" flag="0"/>
		</comp>
		<comp name="--.HNZ" depth="0.0">
			<acc value="0.026456148" flag="0"/>
			<vel value="-0.011636" flag="0"/>
			<psa03 value="0.0617889873398" flag="0"/>
			<psa10 value="0.0142025186468" flag="0"/>
			<psa30 value="0.000636234178112" flag="0"/>
		</comp>
	</station>
</stationlist>
