<?xml version="1.0" encoding="UTF-8" standalone="yes"?>
<!DOCTYPE earthquake SYSTEM "stationlist.dtd">
<stationlist created="" xmlns="ch.ethz.sed.shakemap.usgs.xml">
  <station code="KARP" name="KARP" netid="GE" insttype="STS-2/N" lat="35.5471" lon="27.1611">
    <comp name="--.HHN">
      <acc value="0.0566036981" flag="0"/>
      <vel value="0.0367229604" flag="0"/>
      <psa03 value="0.1107068923" flag="0"/>
      <psa10 value="0.0449269477" flag="0"/>
      <psa30 value="0.0023910489" flag="0"/>
    </comp>
    <comp name="--.HHE">
      <acc value="0.0787378856" flag="0"/>
      <vel value="0.0273982491" flag="0"/>
      <psa03 value="0.1249052666" flag="0"/>
      <psa10 value="0.0226578792" flag="0"/>
      <psa30 value="0.0011393720" flag="0"/>
    </comp>
    <comp name="--.HHZ">
      <acc value="0.0533517287" flag="0"/>
      <vel value="0.0207311450" flag="0"/>
      <psa03 value="0.1230712646" flag="0"/>
      <psa10 value="0.0145085988" flag="0"/>
      <psa30 value="0.0016393236" flag="0"/>
    </comp>
  </station>
  <station code="ARG" name="ARG" netid="HL" insttype="LE3D20_DR24" lat="36.2136" lon="28.1212">
    <comp name="--.HHN">
      <acc value="0.0718867861" flag="0"/>
      <vel value="0.0271422717" flag="0"/>
      <psa03 value="0.1632466862" flag="0"/>
      <psa10 value="0.0232715198" flag="0"/>
      <psa30 value="0.0022246346" flag="0"/>
    </comp>
    <comp name="--.HHE">
      <acc value="0.0718772610" flag="0"/>
      <vel value="0.0483283665" flag="0"/>
      <psa03 value="0.2499681106" flag="0"/>
      <psa10 value="0.0311438912" flag="0"/>
      <psa30 value="0.0059828858" flag="0"/>
    </comp>
    <comp name="--.HHZ">
      <acc value="0.0317167473" flag="0"/>
      <vel value="0.0149244167" flag="0"/>
      <psa03 value="0.0878825622" flag="0"/>
      <psa10 value="0.0192461528" flag="0"/>
      <psa30 value="0.0033722746" flag="0"/>
    </comp>
  </station>
  <station code="KARP" name="KARP" netid="HL" insttype="120" lat="35.5471" lon="27.1611">
    <comp name="--.HHN">
      <acc value="0.0539771452" flag="0"/>
      <vel value="0.0359625882" flag="0"/>
      <psa03 value="0.1082376475" flag="0"/>
      <psa10 value="0.0445835090" flag="0"/>
      <psa30 value="0.0023800468" flag="0"/>
    </comp>
    <comp name="--.HHE">
      <acc value="0.0720836158" flag="0"/>
      <vel value="0.0267625751" flag="0"/>
      <psa03 value="0.1224235252" flag="0"/>
      <psa10 value="0.0224413124" flag="0"/>
      <psa30 value="0.0011328464" flag="0"/>
    </comp>
    <comp name="--.HHZ">
      <acc value="0.0517014137" flag="0"/>
      <vel value="0.0202779689" flag="0"/>
      <psa03 value="0.1201766713" flag="0"/>
      <psa10 value="0.0143479193" flag="0"/>
      <psa30 value="0.0016301391" flag="0"/>
    </comp>
  </station>
  <station code="KLNA" name="KLNA" netid="HL" insttype="CMG-5" lat="36.9571" lon="26.9727">
    <comp name="00.HNE">
      <acc value="0.0748729168" flag="0"/>
      <vel value="0.0260471971" flag="0"/>
      <psa03 value="0.2504325187" flag="0"/>
      <psa10 value="0.0106612669" flag="0"/>
      <psa30 value="0.0012982577" flag="0"/>
    </comp>
    <comp name="00.HNN">
      <acc value="0.0528095185" flag="0"/>
      <vel value="0.0182226043" flag="0"/>
      <psa03 value="0.1377540731" flag="0"/>
      <psa10 value="0.0146115765" flag="0"/>
      <psa30 value="0.0012597767" flag="0"/>
    </comp>
    <comp name="00.HNZ">
      <acc value="0.0625323474" flag="0"/>
      <vel value="0.0153356575" flag="0"/>
      <psa03 value="0.0504783454" flag="0"/>
      <psa10 value="0.0065749144" flag="0"/>
      <psa30 value="0.0018539077" flag="0"/>
    </comp>
  </station>
  <station code="NISR" name="NISR" netid="HL" insttype="65535" lat="36.6106" lon="27.131">
    <comp name="--.HHN">
      <acc value="0.8985053379" flag="0"/>
      <vel value="0.2728884567" flag="0"/>
      <psa03 value="1.5660280378" flag="0"/>
      <psa10 value="0.1204536897" flag="0"/>
      <psa30 value="0.1297723832" flag="0"/>
    </comp>
    <comp name="--.HHZ">
      <acc value="0.4355383745" flag="0"/>
      <vel value="0.2125745458" flag="0"/>
      <psa03 value="1.2109114059" flag="0"/>
      <psa10 value="0.0625812906" flag="0"/>
      <psa30 value="0.0056600640" flag="0"/>
    </comp>
    <comp name="--.HHE">
      <acc value="1.7234596693" flag="0"/>
      <vel value="0.9937771673" flag="0"/>
      <psa03 value="6.3409024103" flag="0"/>
      <psa10 value="0.2920383101" flag="0"/>
      <psa30 value="0.0251765666" flag="0"/>
    </comp>
  </station>
</stationlist>
