<stationlist created="1778136879">
	<station code="KRL1" name="KRL1" netid="HI" source="ITSAK Strong Motion Network" insttype="" lat="37.7951" lon="26.7065">
		<comp name="--.HNE" depth="0.0">
			<acc value="0.0154804208624196" flag="0"/>
			<vel value="0.0163134386650925" flag="0"/>
			<psa03 value="0.0423151651511863" flag="0"/>
			<psa10 value="0.024573825395333" flag="0"/>
			<psa30 value="0.00222543200728415" flag="0"/>
		</comp>
		<comp name="--.HNN" depth="0.0">
			<acc value="0.00937422837734361" flag="0"/>
			<vel value="0.0089921447812408" flag="0"/>
			<psa03 value="0.0186033743093105" flag="0"/>
			<psa10 value="0.0207365993229268" flag="0"/>
			<psa30 value="0.00160666747549974" flag="0"/>
		</comp>
		<comp name="--.HNZ" depth="0.0">
			<acc value="0.00530773340061575" flag="0"/>
			<vel value="0.0038075482922079" flag="0"/>
			<psa03 value="0.0202195829377153" flag="0"/>
			<psa10 value="0.00893316396575641" flag="0"/>
			<psa30 value="0.000936791953704388" flag="0"/>
		</comp>
	</station>
	<station code="KSS1" name="KSS1" netid="HI" source="ITSAK Strong Motion Network" insttype="" lat="35.4189" lon="26.9207">
		<comp name="--.HNE" depth="0.0">
			<acc value="0.016672963548591" flag="0"/>
			<vel value="0.00743604754500542" flag="0"/>
			<psa03 value="0.0637072567512207" flag="0"/>
			<psa10 value="0.00380723088223405" flag="0"/>
			<psa30 value="0.000895519532108377" flag="0"/>
		</comp>
		<comp name="--.HNN" depth="0.0">
			<acc value="0.0175462933297474" flag="0"/>
			<vel value="0.00879498814339125" flag="0"/>
			<psa03 value="0.0850915848167156" flag="0"/>
			<psa10 value="0.00481984694745649" flag="0"/>
			<psa30 value="0.000769496339940584" flag="0"/>
		</comp>
		<comp name="--.HNZ" depth="0.0">
			<acc value="0.0113245259949972" flag="0"/>
			<vel value="0.00514465110722475" flag="0"/>
			<psa03 value="0.0179517373915843" flag="0"/>
			<psa10 value="0.00334676272223225" flag="0"/>
			<psa30 value="0.000644208508985272" flag="0"/>
		</comp>
	</station>
	<station code="NAX1" name="NAX1" netid="HI" source="ITSAK Strong Motion Network" insttype="" lat="37.101394" lon="25.374103">
		<comp name="--.HNE" depth="0.0">
			<acc value="0.00265587319179535" flag="0"/>
			<vel value="0.00198761138952174" flag="0"/>
			<psa03 value="0.00638431420550542" flag="0"/>
			<psa10 value="0.00344355827508576" flag="0"/>
			<psa30 value="0.000811641475596391" flag="0"/>
		</comp>
		<comp name="--.HNN" depth="0.0">
			<acc value="0.00688140925457478" flag="0"/>
			<vel value="0.00555750133149575" flag="0"/>
			<psa03 value="0.0165135900380624" flag="0"/>
			<psa10 value="0.00450648697015582" flag="0"/>
			<psa30 value="0.000969191183325852" flag="0"/>
		</comp>
		<comp name="--.HNZ" depth="0.0">
			<acc value="0.00285826158366333" flag="0"/>
			<vel value="0.00261082056621442" flag="0"/>
			<psa03 value="0.00833796120315676" flag="0"/>
			<psa10 value="0.00328628012180452" flag="0"/>
			<psa30 value="0.00124348435390386" flag="0"/>
		</comp>
	</station>
	<station code="RDI1" name="RDI1" netid="HI" source="ITSAK Strong Motion Network" insttype="" lat="36.4514" lon="28.224">
		<comp name="--.HNE" depth="0.0">
			<acc value="0.0184027106095515" flag="0"/>
			<vel value="0.0238515887936252" flag="0"/>
			<psa03 value="0.0525250732783341" flag="0"/>
			<psa10 value="0.0219965759152027" flag="0"/>
			<psa30 value="0.0144364663450404" flag="0"/>
		</comp>
		<comp name="--.HNN" depth="0.0">
			<acc value="0.0177289215454169" flag="0"/>
			<vel value="0.0215287366861245" flag="0"/>
			<psa03 value="0.0430051301288068" flag="0"/>
			<psa10 value="0.0372573268650569" flag="0"/>
			<psa30 value="0.0100742848719309" flag="0"/>
		</comp>
		<comp name="--.HNZ" depth="0.0">
			<acc value="0.0127343369947469" flag="0"/>
			<vel value="0.0117450448811148" flag="0"/>
			<psa03 value="0.0412637152894417" flag="0"/>
			<psa10 value="0.0220325501733329" flag="0"/>
			<psa30 value="0.00423279498522577" flag="0"/>
		</comp>
	</station>
	<station code="AGNA" name="AGNA" netid="HL" source="National Observatory of Athens Seismic Network" insttype="" lat="35.1895" lon="25.71853">
		<comp name="00.HNE" depth="0.0">
			<acc value="0.00514725444245502" flag="0"/>
			<vel value="0.00346997457316151" flag="0"/>
			<psa03 value="0.0124119459284127" flag="0"/>
			<psa10 value="0.0039378485193867" flag="0"/>
			<psa30 value="0.000775823946610706" flag="0"/>
		</comp>
		<comp name="00.HNN" depth="0.0">
			<acc value="0.00834449105657825" flag="0"/>
			<vel value="0.00751478357998939" flag="0"/>
			<psa03 value="0.0168634165977552" flag="0"/>
			<psa10 value="0.00897785473879657" flag="0"/>
			<psa30 value="0.00100950541644673" flag="0"/>
		</comp>
		<comp name="00.HNZ" depth="0.0">
			<acc value="0.0083245326757291" flag="0"/>
			<vel value="0.00238385430424908" flag="0"/>
			<psa03 value="0.00905820357713721" flag="0"/>
			<psa10 value="0.00180504531758102" flag="0"/>
			<psa30 value="0.000674095436765838" flag="0"/>
		</comp>
	</station>
	<station code="KARP" name="KARP" netid="HL" source="National Observatory of Athens Seismic Network" insttype="" lat="35.5471" lon="27.16106">
		<comp name="--.HNE" depth="0.0">
			<acc value="0.0591019367963214" flag="0"/>
			<vel value="0.0218295990296052" flag="0"/>
			<psa03 value="0.0977869466552756" flag="0"/>
			<psa10 value="0.0170024638297912" flag="0"/>
			<psa30 value="0.00108241389210998" flag="0"/>
		</comp>
		<comp name="--.HNN" depth="0.0">
			<acc value="0.0478840026838125" flag="0"/>
			<vel value="0.0317095590309735" flag="0"/>
			<psa03 value="0.103301811988253" flag="0"/>
			<psa10 value="0.0381890723386192" flag="0"/>
			<psa30 value="0.0021875507478347" flag="0"/>
		</comp>
		<comp name="--.HNZ" depth="0.0">
			<acc value="0.0405095949449323" flag="0"/>
			<vel value="0.0162199764955538" flag="0"/>
			<psa03 value="0.0982613426649558" flag="0"/>
			<psa10 value="0.0114045973736102" flag="0"/>
			<psa30 value="0.00136552129241622" flag="0"/>
		</comp>
	</station>
	<station code="KLNA" name="KLNA" netid="HL" source="National Observatory of Athens Seismic Network" insttype="" lat="36.95708" lon="26.97274">
		<comp name="00.HNE" depth="0.0">
			<acc value="0.0749356084187182" flag="0"/>
			<vel value="0.0274715473456699" flag="0"/>
			<psa03 value="0.250563181914583" flag="0"/>
			<psa10 value="0.0106292428851617" flag="0"/>
			<psa30 value="0.00120942751447022" flag="0"/>
		</comp>
		<comp name="00.HNN" depth="0.0">
			<acc value="0.0518921799330327" flag="0"/>
			<vel value="0.0180964770460077" flag="0"/>
			<psa03 value="0.137882654882472" flag="0"/>
			<psa10 value="0.014668752670365" flag="0"/>
			<psa30 value="0.00144903880420952" flag="0"/>
		</comp>
		<comp name="00.HNZ" depth="0.0">
			<acc value="0.0626939040718884" flag="0"/>
			<vel value="0.0165008310213466" flag="0"/>
			<psa03 value="0.0504037139987709" flag="0"/>
			<psa10 value="0.00669494069445741" flag="0"/>
			<psa30 value="0.00213997884643014" flag="0"/>
		</comp>
	</station>
	<station code="NISR" name="NISR" netid="HL" source="National Observatory of Athens Seismic Network" insttype="" lat="36.6106" lon="27.131">
		<comp name="--.HNE" depth="0.0">
			<acc value="1.61446294316034" flag="0"/>
			<vel value="0.941471654400977" flag="0"/>
			<psa03 value="6.01163490799582" flag="0"/>
			<psa10 value="0.291384972824579" flag="0"/>
			<psa30 value="0.0248374686937435" flag="0"/>
		</comp>
		<comp name="--.HNN" depth="0.0">
			<acc value="0.831332285590582" flag="0"/>
			<vel value="0.290553838693024" flag="0"/>
			<psa03 value="1.38189062680578" flag="0"/>
			<psa10 value="0.085023854913186" flag="0"/>
			<psa30 value="0.0193336240910355" flag="0"/>
		</comp>
		<comp name="--.HNZ" depth="0.0">
			<acc value="0.400830136452061" flag="0"/>
			<vel value="0.200586705025792" flag="0"/>
			<psa03 value="0.867473215841047" flag="0"/>
			<psa10 value="0.0646359818165513" flag="0"/>
			<psa30 value="0.00629561913718627" flag="0"/>
		</comp>
	</station>
	<station code="RODB" name="RODB" netid="HL" source="National Observatory of Athens Seismic Network" insttype="" lat="36.4471" lon="28.22116">
		<comp name="00.HNE" depth="0.0">
			<acc value="0.0170363635817516" flag="0"/>
			<vel value="0.0231688513940436" flag="0"/>
			<psa03 value="0.0464518949182508" flag="0"/>
			<psa10 value="0.0349045222533154" flag="0"/>
			<psa30 value="0.0116773910698664" flag="0"/>
		</comp>
		<comp name="00.HNN" depth="0.0">
			<acc value="0.0187589139000621" flag="0"/>
			<vel value="0.0226709968965972" flag="0"/>
			<psa03 value="0.0550714815485344" flag="0"/>
			<psa10 value="0.0338549139719005" flag="0"/>
			<psa30 value="0.013969756261142" flag="0"/>
		</comp>
		<comp name="00.HNZ" depth="0.0">
			<acc value="0.00988884365537912" flag="0"/>
			<vel value="0.0114490564641152" flag="0"/>
			<psa03 value="0.0236700211477356" flag="0"/>
			<psa10 value="0.0204447606150556" flag="0"/>
			<psa30 value="0.00347140017155861" flag="0"/>
		</comp>
	</station>
	<station code="THRA" name="THRA" netid="HL" source="National Observatory of Athens Seismic Network" insttype="" lat="36.41502" lon="25.43244">
		<comp name="00.HNE" depth="0.0">
			<acc value="0.0249188869481792" flag="0"/>
			<vel value="0.0258718126022405" flag="0"/>
			<psa03 value="0.0674636983056826" flag="0"/>
			<psa10 value="0.0291918456915255" flag="0"/>
			<psa30 value="0.0058286040330928" flag="0"/>
		</comp>
		<comp name="00.HNN" depth="0.0">
			<acc value="0.0260465496882813" flag="0"/>
			<vel value="0.0185617169924324" flag="0"/>
			<psa03 value="0.0585559207092228" flag="0"/>
			<psa10 value="0.027378144917748" flag="0"/>
			<psa30 value="0.00531748184042009" flag="0"/>
		</comp>
		<comp name="00.HNZ" depth="0.0">
			<acc value="0.0265151163269731" flag="0"/>
			<vel value="0.0133010278143178" flag="0"/>
			<psa03 value="0.0728279494943638" flag="0"/>
			<psa10 value="0.00819653641783096" flag="0"/>
			<psa30 value="0.00125787343210729" flag="0"/>
		</comp>
	</station>
	<station code="CAME" name="CAME" netid="KO" source="Bogazici University Kandilli Observatory And Earthquake Research Institute (KOERI)" insttype="" lat="36.9435" lon="29.3023">
		<comp name="--.HNE" depth="0.0">
			<acc value="0.00346133281169132" flag="0"/>
			<vel value="0.0030343606326349" flag="0"/>
			<psa03 value="0.00980328548724551" flag="0"/>
			<psa10 value="0.00527525039695823" flag="0"/>
			<psa30 value="0.00116816884378739" flag="0"/>
		</comp>
		<comp name="--.HNN" depth="0.0">
			<acc value="0.00302477753599424" flag="0"/>
			<vel value="0.00276681532936452" flag="0"/>
			<psa03 value="0.0124713027251055" flag="0"/>
			<psa10 value="0.0037253507705794" flag="0"/>
			<psa30 value="0.000684961312826066" flag="0"/>
		</comp>
		<comp name="--.HNZ" depth="0.0">
			<acc value="0.00257893007794041" flag="0"/>
			<vel value="0.00216348103498414" flag="0"/>
			<psa03 value="0.00663888836149223" flag="0"/>
			<psa10 value="0.00267909263298844" flag="0"/>
			<psa30 value="0.00112488389303552" flag="0"/>
		</comp>
	</station>
</stationlist>
