<?xml version="1.0" encoding="UTF-8" standalone="yes"?>
<!DOCTYPE earthquake SYSTEM "stationlist.dtd">
<stationlist created="" xmlns="ch.ethz.sed.shakemap.usgs.xml">
  <station code="IMMV" name="IMMV" netid="GE" insttype="STS-2/N" commtype="DIG" lat="35.4606" lon="23.9811">
    <comp name="--.HHZ">
      <acc value="0.0135952581" flag="0"/>
      <vel value="0.0055802339" flag="0"/>
      <psa03 value="0.0354808389" flag="0"/>
      <psa10 value="0.0066662547" flag="0"/>
      <psa30 value="0.0007408097" flag="0"/>
    </comp>
    <comp name="--.HHN">
      <acc value="0.0171585530" flag="0"/>
      <vel value="0.0143190560" flag="0"/>
      <psa03 value="0.0522320350" flag="0"/>
      <psa10 value="0.0142264218" flag="0"/>
      <psa30 value="0.0010590689" flag="0"/>
    </comp>
    <comp name="--.HHE">
      <acc value="0.0151169278" flag="0"/>
      <vel value="0.0110838739" flag="0"/>
      <psa03 value="0.0408333594" flag="0"/>
      <psa10 value="0.0120269676" flag="0"/>
      <psa30 value="0.0008386790" flag="0"/>
    </comp>
  </station>
  <station code="KTHA" name="KTHA" netid="GE" insttype="STS-2/N" commtype="DIG" lat="36.2566" lon="23.0621">
    <comp name="--.HHZ">
      <acc value="0.0029882491" flag="0"/>
      <vel value="0.0014610018" flag="0"/>
      <psa03 value="0.0076789639" flag="0"/>
      <psa10 value="0.0016887544" flag="0"/>
      <psa30 value="0.0001750730" flag="0"/>
    </comp>
    <comp name="--.HHN">
      <acc value="0.0040652319" flag="0"/>
      <vel value="0.0016906457" flag="0"/>
      <psa03 value="0.0103708071" flag="0"/>
      <psa10 value="0.0018382961" flag="0"/>
      <psa30 value="0.0001649195" flag="0"/>
    </comp>
    <comp name="--.HHE">
      <acc value="0.0072373369" flag="0"/>
      <vel value="0.0045146793" flag="0"/>
      <psa03 value="0.0168591271" flag="0"/>
      <psa10 value="0.0035795987" flag="0"/>
      <psa30 value="0.0003043411" flag="0"/>
    </comp>
  </station>
  <station code="CHAN" name="CHAN" netid="HC" insttype="120" commtype="DIG" lat="35.5193" lon="24.0428">
    <comp name="--.HHZ">
      <acc value="0.0154327708" flag="0"/>
      <vel value="0.0109978860" flag="0"/>
      <psa03 value="0.0360045483" flag="0"/>
      <psa10 value="0.0151005322" flag="0"/>
      <psa30 value="0.0011248318" flag="0"/>
    </comp>
    <comp name="--.HHN">
      <acc value="0.0250729307" flag="0"/>
      <vel value="0.0185353309" flag="0"/>
      <psa03 value="0.0597657557" flag="0"/>
      <psa10 value="0.0262854755" flag="0"/>
      <psa30 value="0.0017960465" flag="0"/>
    </comp>
    <comp name="--.HHE">
      <acc value="0.0295119298" flag="0"/>
      <vel value="0.0195143449" flag="0"/>
      <psa03 value="0.0615035223" flag="0"/>
      <psa10 value="0.0447064653" flag="0"/>
      <psa30 value="0.0016358082" flag="0"/>
    </comp>
  </station>
  <station code="IPPL" name="IPPL" netid="HC" insttype="60" commtype="DIG" lat="35.3486" lon="24.4632">
    <comp name="--.HHZ">
      <acc value="0.0044611452" flag="0"/>
      <vel value="0.0029384365" flag="0"/>
      <psa03 value="0.0126028258" flag="0"/>
      <psa10 value="0.0032849913" flag="0"/>
      <psa30 value="0.0003553421" flag="0"/>
    </comp>
    <comp name="--.HHE">
      <acc value="0.0000000000" flag="0"/>
      <vel value="-100.0000000000" flag="0"/>
      <psa03 value="0.0000000000" flag="0"/>
      <psa10 value="0.0000000000" flag="0"/>
      <psa30 value="0.0000000000" flag="0"/>
    </comp>
    <comp name="--.HHN">
      <acc value="0.0000000000" flag="0"/>
      <vel value="-100.0000000000" flag="0"/>
      <psa03 value="0.0000000000" flag="0"/>
      <psa10 value="0.0000000000" flag="0"/>
      <psa30 value="0.0000000000" flag="0"/>
    </comp>
  </station>
  <station code="KNDR" name="KNDR" netid="HC" insttype="120" commtype="DIG" lat="35.2348" lon="23.6248">
    <comp name="--.HHE">
      <acc value="0.0481592367" flag="0"/>
      <vel value="0.0350355555" flag="0"/>
      <psa03 value="0.1158661038" flag="0"/>
      <psa10 value="0.0406174598" flag="0"/>
      <psa30 value="0.0013949558" flag="0"/>
    </comp>
    <comp name="--.HHZ">
      <acc value="0.0226015882" flag="0"/>
      <vel value="0.0122454391" flag="0"/>
      <psa03 value="0.0917420937" flag="0"/>
      <psa10 value="0.0072191412" flag="0"/>
      <psa30 value="0.0004976665" flag="0"/>
    </comp>
    <comp name="--.HHN">
      <acc value="0.0420047483" flag="0"/>
      <vel value="0.0299007645" flag="0"/>
      <psa03 value="0.1377934698" flag="0"/>
      <psa10 value="0.0267655767" flag="0"/>
      <psa30 value="0.0011086031" flag="0"/>
    </comp>
  </station>
  <station code="LENT" name="LENT" netid="HC" insttype="DC" commtype="DIG" lat="35.5074" lon="24.0402">
    <comp name="--.HNN">
      <acc value="0.1883637329" flag="0"/>
      <vel value="0.0017014669" flag="0"/>
      <psa03 value="0.0013793312" flag="0"/>
      <psa10 value="0.0008871060" flag="0"/>
      <psa30 value="0.0006216987" flag="0"/>
    </comp>
    <comp name="--.HNE">
      <acc value="0.5759033351" flag="0"/>
      <vel value="0.0062503152" flag="0"/>
      <psa03 value="0.0027874769" flag="0"/>
      <psa10 value="0.0011044784" flag="0"/>
      <psa30 value="0.0007463358" flag="0"/>
    </comp>
    <comp name="--.HNZ">
      <acc value="0.1161979871" flag="0"/>
      <vel value="0.0042033992" flag="0"/>
      <psa03 value="0.0058157353" flag="0"/>
      <psa10 value="0.0006790946" flag="0"/>
      <psa30 value="0.0005581265" flag="0"/>
    </comp>
  </station>
  <station code="ANKY" name="ANKY" netid="HL" insttype="60" commtype="DIG" lat="35.867" lon="23.3012">
    <comp name="--.HHZ">
      <acc value="0.0086573366" flag="0"/>
      <vel value="0.0051774594" flag="0"/>
      <psa03 value="0.0236546110" flag="0"/>
      <psa10 value="0.0036697647" flag="0"/>
      <psa30 value="0.0004216001" flag="0"/>
    </comp>
    <comp name="--.HHE">
      <acc value="0.0082134133" flag="0"/>
      <vel value="0.0064490906" flag="0"/>
      <psa03 value="0.0223998807" flag="0"/>
      <psa10 value="0.0076649640" flag="0"/>
      <psa30 value="0.0005075974" flag="0"/>
    </comp>
    <comp name="--.HHN">
      <acc value="0.0096910917" flag="0"/>
      <vel value="0.0068817422" flag="0"/>
      <psa03 value="0.0254081755" flag="0"/>
      <psa10 value="0.0066669106" flag="0"/>
      <psa30 value="0.0004167075" flag="0"/>
    </comp>
  </station>
  <station code="IMMV" name="IMMV" netid="HL" insttype="120" commtype="DIG" lat="35.4606" lon="23.9811">
    <comp name="--.HHE">
      <acc value="0.0148270217" flag="0"/>
      <vel value="0.0108685555" flag="0"/>
      <psa03 value="0.0397747034" flag="0"/>
      <psa10 value="0.0119126918" flag="0"/>
      <psa30 value="0.0008372325" flag="0"/>
    </comp>
    <comp name="--.HHN">
      <acc value="0.0166701727" flag="0"/>
      <vel value="0.0140658922" flag="0"/>
      <psa03 value="0.0509291034" flag="0"/>
      <psa10 value="0.0141268747" flag="0"/>
      <psa30 value="0.0010550227" flag="0"/>
    </comp>
    <comp name="--.HHZ">
      <acc value="0.0131375574" flag="0"/>
      <vel value="0.0054438898" flag="0"/>
      <psa03 value="0.0344323413" flag="0"/>
      <psa10 value="0.0065908292" flag="0"/>
      <psa30 value="0.0007402531" flag="0"/>
    </comp>
  </station>
  <station code="VAM" name="VAM" netid="HL" insttype="CMG3ESPC-120s" commtype="DIG" lat="35.407" lon="24.1997">
    <comp name="--.HHE">
      <acc value="0.0082904545" flag="0"/>
      <vel value="0.0067112515" flag="0"/>
      <psa03 value="0.0285646846" flag="0"/>
      <psa10 value="0.0090151396" flag="0"/>
      <psa30 value="0.0005511143" flag="0"/>
    </comp>
    <comp name="--.HHN">
      <acc value="0.0111508788" flag="0"/>
      <vel value="0.0069080579" flag="0"/>
      <psa03 value="0.0374485903" flag="0"/>
      <psa10 value="0.0073433816" flag="0"/>
      <psa30 value="0.0007005131" flag="0"/>
    </comp>
    <comp name="--.HHZ">
      <acc value="0.0063258127" flag="0"/>
      <vel value="0.0042100136" flag="0"/>
      <psa03 value="0.0184933905" flag="0"/>
      <psa10 value="0.0044943929" flag="0"/>
      <psa30 value="0.0009004797" flag="0"/>
    </comp>
  </station>
</stationlist>
