<?xml version="1.0" encoding="UTF-8" standalone="yes"?>
<!DOCTYPE earthquake SYSTEM "stationlist.dtd">
<stationlist created="" xmlns="ch.ethz.sed.shakemap.usgs.xml">
  <station code="XLND" name="XLND" netid="ML" insttype="" lat="36.0323" lon="14.2201">
    <comp name="--.HHE">
      <acc value="0.0080446537" flag="0"/>
      <vel value="0.0066762900" flag="0"/>
      <psa03 value="0.0242966979" flag="0"/>
      <psa10 value="0.0107574407" flag="0"/>
      <psa30 value="0.0015020285" flag="0"/>
    </comp>
    <comp name="--.HHZ">
      <acc value="0.0078884892" flag="0"/>
      <vel value="0.0059643310" flag="0"/>
      <psa03 value="0.0232919145" flag="0"/>
      <psa10 value="0.0053584715" flag="0"/>
      <psa30 value="0.0023501008" flag="0"/>
    </comp>
    <comp name="--.HHN">
      <acc value="0.0083070499" flag="0"/>
      <vel value="0.0079457810" flag="0"/>
      <psa03 value="0.0260749994" flag="0"/>
      <psa10 value="0.0120505443" flag="0"/>
      <psa30 value="0.0020414797" flag="0"/>
    </comp>
  </station>
</stationlist>
