<?xml version="1.0" encoding="UTF-8" standalone="yes"?>
<!DOCTYPE earthquake SYSTEM "stationlist.dtd">
<stationlist created="" xmlns="ch.ethz.sed.shakemap.usgs.xml">
  <station code="GIL" name="GIL" netid="VI" source="ODC" insttype="CMG-3ESP" lat="66.0773" lon="-16.3513">
    <comp name="--.HHZ">
      <acc value="0.0760871703" flag="0"/>
      <vel value="0.0181580597" flag="0"/>
      <psa03 value="0.1062040330" flag="0"/>
      <psa10 value="0.0123425711" flag="0"/>
      <psa30 value="0.0007858821" flag="0"/>
    </comp>
    <comp name="--.HHE">
      <acc value="0.0542025987" flag="0"/>
      <vel value="0.0239062030" flag="0"/>
      <psa03 value="0.1353789255" flag="0"/>
      <psa10 value="0.0334487013" flag="0"/>
      <psa30 value="0.0014061310" flag="0"/>
    </comp>
    <comp name="--.HHN">
      <acc value="0.1754888452" flag="0"/>
      <vel value="0.0570913134" flag="0"/>
      <psa03 value="0.1965907086" flag="0"/>
      <psa10 value="0.0261556777" flag="0"/>
      <psa30 value="0.0020440839" flag="0"/>
    </comp>
  </station>
</stationlist>
