<stationlist created="1778205394">
	<station code="3502" name="3502" netid="TK" source="Turkish National Strong Motion Network (TNSMN)" insttype="" lat="38.45514" lon="27.22673">
		<comp name="00.HNE" depth="None">
			<acc value="0.0997598386656678" flag="0"/>
			<vel value="0.0754189375243803" flag="0"/>
			<psa03 value="0.361651256095491" flag="0"/>
			<psa10 value="0.082190986135699" flag="0"/>
			<psa30 value="0.00415565615070508" flag="0"/>
		</comp>
		<comp name="00.HNN" depth="None">
			<acc value="0.0982359515044819" flag="0"/>
			<vel value="0.0595946391025486" flag="0"/>
			<psa03 value="0.355521573788787" flag="0"/>
			<psa10 value="0.0395431622092286" flag="0"/>
			<psa30 value="0.00488808607304619" flag="0"/>
		</comp>
		<comp name="00.HNZ" depth="None">
			<acc value="0.114598299567084" flag="0"/>
			<vel value="0.0336612952779121" flag="0"/>
			<psa03 value="0.16335379636331" flag="0"/>
			<psa10 value="0.0249540708972087" flag="0"/>
			<psa30 value="0.00125278178531161" flag="0"/>
		</comp>
	</station>
</stationlist>
