<stationlist xmlns:esm="https://esm-db.eu/esmws/shakemap/1/" created="1783994034">
	<station code="ROD3" name="ROD3" netid="CL" source="Corinth Riff Laboratory (CRLNET)" insttype="" lat="38.30811" lon="21.89204" esm:processing="manual (Paolucci et al 2011)" esm:quality="good">
		<comp name="00.HNE" depth="0.0">
			<acc value="0.0250379367831068" flag="0"/>
			<vel value="0.0204513379011752" flag="0"/>
			<psa03 value="0.104607279073519" flag="0"/>
			<psa10 value="0.0210158618706684" flag="0"/>
			<psa30 value="0.00211183215238243" flag="0"/>
		</comp>
		<comp name="00.HNN" depth="0.0">
			<acc value="0.023660561788189" flag="0"/>
			<vel value="0.0143277177622779" flag="0"/>
			<psa03 value="0.0748537116723687" flag="0"/>
			<psa10 value="0.0161313551741517" flag="0"/>
			<psa30 value="0.00149931134377829" flag="0"/>
		</comp>
		<comp name="00.HNZ" depth="0.0">
			<acc value="0.0106156684263148" flag="0"/>
			<vel value="0.00836162065485768" flag="0"/>
			<psa03 value="0.0259057376319793" flag="0"/>
			<psa10 value="0.00994216573264617" flag="0"/>
			<psa30 value="0.00103354497288208" flag="0"/>
		</comp>
	</station>
	<station code="ARG2" name="ARG2" netid="HI" source="ITSAK Strong Motion Network" insttype="" lat="38.1783" lon="20.4878" esm:processing="manual (Paolucci et al 2011)" esm:quality="best">
		<comp name="--.HNE" depth="0.0">
			<acc value="0.0273168150774588" flag="0"/>
			<vel value="0.0111435155097609" flag="0"/>
			<psa03 value="0.0442685836180846" flag="0"/>
			<psa10 value="0.0107914814451709" flag="0"/>
			<psa30 value="0.00129445637638388" flag="0"/>
		</comp>
		<comp name="--.HNN" depth="0.0">
			<acc value="0.0204881534079349" flag="0"/>
			<vel value="0.0123159608870619" flag="0"/>
			<psa03 value="0.0402589117469705" flag="0"/>
			<psa10 value="0.0171661809252258" flag="0"/>
			<psa30 value="0.00196738928821605" flag="0"/>
		</comp>
		<comp name="--.HNZ" depth="0.0">
			<acc value="0.0151419625436076" flag="0"/>
			<vel value="0.00439552035467703" flag="0"/>
			<psa03 value="0.0336114609693541" flag="0"/>
			<psa10 value="0.00688821162273166" flag="0"/>
			<psa30 value="0.0012181622597713" flag="0"/>
		</comp>
	</station>
	<station code="KLV1" name="KLV1" netid="HI" source="ITSAK Strong Motion Network" insttype="" lat="38.03256" lon="22.10797" esm:processing="manual (Paolucci et al 2011)" esm:quality="good">
		<comp name="--.HNE" depth="0.0">
			<acc value="0.0273246526436533" flag="0"/>
			<vel value="0.0168387852074407" flag="0"/>
			<psa03 value="0.0816397884438145" flag="0"/>
			<psa10 value="0.0174505885158284" flag="0"/>
			<psa30 value="0.00189066878919306" flag="0"/>
		</comp>
		<comp name="--.HNN" depth="0.0">
			<acc value="0.0329490895696112" flag="0"/>
			<vel value="0.0262263754774187" flag="0"/>
			<psa03 value="0.0898987261825791" flag="0"/>
			<psa10 value="0.0240795820291247" flag="0"/>
			<psa30 value="0.00173195181663899" flag="0"/>
		</comp>
		<comp name="--.HNZ" depth="0.0">
			<acc value="0.00951772342077608" flag="0"/>
			<vel value="0.00820318244526429" flag="0"/>
			<psa03 value="0.022026229962988" flag="0"/>
			<psa10 value="0.0153785846932813" flag="0"/>
			<psa30 value="0.00130818707763879" flag="0"/>
		</comp>
	</station>
	<station code="KRI1" name="KRI1" netid="HI" source="ITSAK Strong Motion Network" insttype="" lat="37.6621" lon="20.8172" esm:processing="manual (Paolucci et al 2011)" esm:quality="best">
		<comp name="--.HNE" depth="0.0">
			<acc value="0.032956283782903" flag="0"/>
			<vel value="0.0224605741377911" flag="0"/>
			<psa03 value="0.105412638792648" flag="0"/>
			<psa10 value="0.0206896911844212" flag="0"/>
			<psa30 value="0.00385812047669357" flag="0"/>
		</comp>
		<comp name="--.HNN" depth="0.0">
			<acc value="0.0306902075324466" flag="0"/>
			<vel value="0.0263640232237913" flag="0"/>
			<psa03 value="0.11883530077813" flag="0"/>
			<psa10 value="0.0310788315611839" flag="0"/>
			<psa30 value="0.00395431622092286" flag="0"/>
		</comp>
		<comp name="--.HNZ" depth="0.0">
			<acc value="0.0218998350069001" flag="0"/>
			<vel value="0.0114437312359761" flag="0"/>
			<psa03 value="0.0614310496868871" flag="0"/>
			<psa10 value="0.013409239323496" flag="0"/>
			<psa30 value="0.0012608353825029" flag="0"/>
		</comp>
	</station>
	<station code="MSL1" name="MSL1" netid="HI" source="ITSAK Strong Motion Network" insttype="" lat="38.3727" lon="21.4243" esm:processing="manual (Paolucci et al 2011)" esm:quality="good">
		<comp name="--.HNE" depth="0.0">
			<acc value="0.0186551563778052" flag="0"/>
			<vel value="0.0308593801212278" flag="0"/>
			<psa03 value="0.0431821053942291" flag="0"/>
			<psa10 value="0.0457871881764306" flag="0"/>
			<psa30 value="0.00515667368765135" flag="0"/>
		</comp>
		<comp name="--.HNN" depth="0.0">
			<acc value="0.0164490654788511" flag="0"/>
			<vel value="0.0225878418897098" flag="0"/>
			<psa03 value="0.0500724837228613" flag="0"/>
			<psa10 value="0.0442248271778027" flag="0"/>
			<psa30 value="0.00495856139703115" flag="0"/>
		</comp>
		<comp name="--.HNZ" depth="0.0">
			<acc value="0.00997847742493892" flag="0"/>
			<vel value="0.0114107855574933" flag="0"/>
			<psa03 value="0.0155802235196165" flag="0"/>
			<psa10 value="0.0254043479133771" flag="0"/>
			<psa30 value="0.00198577800637937" flag="0"/>
		</comp>
	</station>
	<station code="NPS1" name="NPS1" netid="HI" source="ITSAK Strong Motion Network" insttype="" lat="36.51263" lon="23.06248" esm:processing="manual (Paolucci et al 2011)" esm:quality="good">
		<comp name="--.HNE" depth="0.0">
			<acc value="0.0170447500274855" flag="0"/>
			<vel value="0.0137452113506652" flag="0"/>
			<psa03 value="0.0571727613731847" flag="0"/>
			<psa10 value="0.019300237295989" flag="0"/>
			<psa30 value="0.00236111474559583" flag="0"/>
		</comp>
		<comp name="--.HNN" depth="0.0">
			<acc value="0.0275309692337752" flag="0"/>
			<vel value="0.0192649924728103" flag="0"/>
			<psa03 value="0.0483403585615046" flag="0"/>
			<psa10 value="0.0137742659150147" flag="0"/>
			<psa30 value="0.00179155388998768" flag="0"/>
		</comp>
		<comp name="--.HNZ" depth="0.0">
			<acc value="0.0104861311988706" flag="0"/>
			<vel value="0.00806442772655684" flag="0"/>
			<psa03 value="0.0282540722144642" flag="0"/>
			<psa10 value="0.00616996497991539" flag="0"/>
			<psa30 value="0.00127092158815015" flag="0"/>
		</comp>
	</station>
	<station code="PYL1" name="PYL1" netid="HI" source="ITSAK Strong Motion Network" insttype="" lat="36.914188" lon="21.695161" esm:processing="manual (Paolucci et al 2011)" esm:quality="best">
		<comp name="--.HNE" depth="0.0">
			<acc value="0.192726789430419" flag="0"/>
			<vel value="0.135089340677701" flag="0"/>
			<psa03 value="0.404335321209322" flag="0"/>
			<psa10 value="0.0631563091740877" flag="0"/>
			<psa30 value="0.0138942448432381" flag="0"/>
		</comp>
		<comp name="--.HNN" depth="0.0">
			<acc value="0.240610004834941" flag="0"/>
			<vel value="0.121523804355365" flag="0"/>
			<psa03 value="0.561962115125493" flag="0"/>
			<psa10 value="0.0600597010540371" flag="0"/>
			<psa30 value="0.0120920287606541" flag="0"/>
		</comp>
		<comp name="--.HNZ" depth="0.0">
			<acc value="0.154932538186498" flag="0"/>
			<vel value="0.0457731543450281" flag="0"/>
			<psa03 value="0.247782340251989" flag="0"/>
			<psa10 value="0.0339136977725176" flag="0"/>
			<psa30 value="0.0051672774423442" flag="0"/>
		</comp>
	</station>
	<station code="VAS2" name="VAS2" netid="HI" source="ITSAK Strong Motion Network" insttype="" lat="38.630558" lon="20.608081" esm:processing="manual (Paolucci et al 2011)" esm:quality="best">
		<comp name="--.HNE" depth="0.0">
			<acc value="0.0177959896406801" flag="0"/>
			<vel value="0.0286577029652477" flag="0"/>
			<psa03 value="0.0577331109935011" flag="0"/>
			<psa10 value="0.0574040064835409" flag="0"/>
			<psa30 value="0.00335591002090082" flag="0"/>
		</comp>
		<comp name="--.HNN" depth="0.0">
			<acc value="0.0291346037580265" flag="0"/>
			<vel value="0.0303090053918647" flag="0"/>
			<psa03 value="0.0612668711296891" flag="0"/>
			<psa10 value="0.076025711330388" flag="0"/>
			<psa30 value="0.00443891738982712" flag="0"/>
		</comp>
		<comp name="--.HNZ" depth="0.0">
			<acc value="0.0110715841773188" flag="0"/>
			<vel value="0.00981400254360334" flag="0"/>
			<psa03 value="0.0225422927954375" flag="0"/>
			<psa10 value="0.0173306949485049" flag="0"/>
			<psa30 value="0.00144334051005788" flag="0"/>
		</comp>
	</station>
	<station code="ANKY" name="ANKY" netid="HL" source="National Observatory of Athens Seismic Network" insttype="" lat="35.86704" lon="23.30117" esm:processing="manual (Paolucci et al 2011)" esm:quality="bad">
		<comp name="00.HNE" depth="0.0">
			<acc value="0.00362234565575372" flag="0"/>
			<vel value="0.00453995059245605" flag="0"/>
			<psa03 value="0.00975380104278324" flag="0"/>
			<psa10 value="0.00477980993302997" flag="0"/>
			<psa30 value="0.00117358807959727" flag="0"/>
		</comp>
		<comp name="00.HNN" depth="0.0">
			<acc value="0.004908683863771" flag="0"/>
			<vel value="0.00348724581192378" flag="0"/>
			<psa03 value="0.0109618406214766" flag="0"/>
			<psa10 value="0.00663213728702642" flag="0"/>
			<psa30 value="0.000899765775093445" flag="0"/>
		</comp>
		<comp name="00.HNZ" depth="0.0">
			<acc value="0.00333579341504155" flag="0"/>
			<vel value="0.00168000639064282" flag="0"/>
			<psa03 value="0.00671133099274076" flag="0"/>
			<psa10 value="0.00283083941273805" flag="0"/>
			<psa30 value="0.000460844728168199" flag="0"/>
		</comp>
	</station>
	<station code="DLFA" name="DLFA" netid="HL" source="National Observatory of Athens Seismic Network" insttype="" lat="38.47836" lon="22.49583" esm:processing="manual (Paolucci et al 2011)" esm:quality="bad">
		<comp name="00.HNE" depth="0.0">
			<acc value="0.0031229886814179" flag="0"/>
			<vel value="0.00252959992033612" flag="0"/>
			<psa03 value="0.00774040174496101" flag="0"/>
			<psa10 value="0.00407109338019655" flag="0"/>
			<psa30 value="0.000615652763067419" flag="0"/>
		</comp>
		<comp name="00.HNN" depth="0.0">
			<acc value="0.00400466120071856" flag="0"/>
			<vel value="0.00394635090877239" flag="0"/>
			<psa03 value="0.0076061751251062" flag="0"/>
			<psa10 value="0.0067569680434914" flag="0"/>
			<psa30 value="0.000781198927555025" flag="0"/>
		</comp>
		<comp name="00.HNZ" depth="0.0">
			<acc value="0.00353928584111742" flag="0"/>
			<vel value="0.00299733745839743" flag="0"/>
			<psa03 value="0.00881421470379954" flag="0"/>
			<psa10 value="0.00641469016286162" flag="0"/>
			<psa30 value="0.000731535078208743" flag="0"/>
		</comp>
	</station>
	<station code="ITM" name="ITM" netid="HL" source="National Observatory of Athens Seismic Network" insttype="" lat="37.17872" lon="21.92522" esm:processing="manual (Paolucci et al 2011)" esm:quality="best">
		<comp name="00.HNE" depth="0.0">
			<acc value="0.141999208396927" flag="0"/>
			<vel value="0.0964478582505363" flag="0"/>
			<psa03 value="0.319235644221369" flag="0"/>
			<psa10 value="0.106428286882883" flag="0"/>
			<psa30 value="0.013607447298815" flag="0"/>
		</comp>
		<comp name="00.HNN" depth="0.0">
			<acc value="0.16250408818212" flag="0"/>
			<vel value="0.0856129838744615" flag="0"/>
			<psa03 value="0.446750933083444" flag="0"/>
			<psa10 value="0.0526946864226034" flag="0"/>
			<psa30 value="0.00910996068954631" flag="0"/>
		</comp>
		<comp name="00.HNZ" depth="0.0">
			<acc value="0.0893170898669183" flag="0"/>
			<vel value="0.0348005337993762" flag="0"/>
			<psa03 value="0.138969293756352" flag="0"/>
			<psa10 value="0.0442706237605152" flag="0"/>
			<psa30 value="0.00603393398454013" flag="0"/>
		</comp>
	</station>
	<station code="KIAA" name="KIAA" netid="HL" source="National Observatory of Athens Seismic Network" insttype="" lat="38.0139" lon="22.7495" esm:processing="manual (Paolucci et al 2011)" esm:quality="good">
		<comp name="00.HNE" depth="0.0">
			<acc value="0.0317605588153252" flag="0"/>
			<vel value="0.0462340643593486" flag="0"/>
			<psa03 value="0.0705865405953225" flag="0"/>
			<psa10 value="0.0976177966999576" flag="0"/>
			<psa30 value="0.00767232742071228" flag="0"/>
		</comp>
		<comp name="00.HNN" depth="0.0">
			<acc value="0.0326349176003525" flag="0"/>
			<vel value="0.0321491535636812" flag="0"/>
			<psa03 value="0.0676025512540419" flag="0"/>
			<psa10 value="0.0551186050871992" flag="0"/>
			<psa30 value="0.00635151992369367" flag="0"/>
		</comp>
		<comp name="00.HNZ" depth="0.0">
			<acc value="0.017440872369567" flag="0"/>
			<vel value="0.0239099706853772" flag="0"/>
			<psa03 value="0.038129577980746" flag="0"/>
			<psa10 value="0.0398099672149315" flag="0"/>
			<psa30 value="0.00226655514815429" flag="0"/>
		</comp>
	</station>
	<station code="LXRA" name="LXRA" netid="HL" source="National Observatory of Athens Seismic Network" insttype="" lat="38.20006" lon="20.43718" esm:processing="manual (Paolucci et al 2011)" esm:quality="bad">
		<comp name="00.HNE" depth="0.0">
			<acc value="0.0184524605297613" flag="0"/>
			<vel value="0.0168230084449681" flag="0"/>
			<psa03 value="0.0619679561663064" flag="0"/>
			<psa10 value="0.0247446773702352" flag="0"/>
			<psa30 value="0.00383530195131825" flag="0"/>
		</comp>
		<comp name="00.HNN" depth="0.0">
			<acc value="0.0174121157787241" flag="0"/>
			<vel value="0.0202858631041349" flag="0"/>
			<psa03 value="0.0428182917336861" flag="0"/>
			<psa10 value="0.0347512718804117" flag="0"/>
			<psa30 value="0.0054133595787447" flag="0"/>
		</comp>
		<comp name="00.HNZ" depth="0.0">
			<acc value="0.0146040188728868" flag="0"/>
			<vel value="0.00843679842420827" flag="0"/>
			<psa03 value="0.0212078059370608" flag="0"/>
			<psa10 value="0.0139689643282906" flag="0"/>
			<psa30 value="0.00346304679225423" flag="0"/>
		</comp>
	</station>
	<station code="MNVA" name="MNVA" netid="HL" source="National Observatory of Athens Seismic Network" insttype="" lat="36.68709" lon="23.03734" esm:processing="manual (Paolucci et al 2011)" esm:quality="good">
		<comp name="00.HNE" depth="0.0">
			<acc value="0.00629533567145306" flag="0"/>
			<vel value="0.00662739056271423" flag="0"/>
			<psa03 value="0.0252346045327053" flag="0"/>
			<psa10 value="0.00626972541341842" flag="0"/>
			<psa30 value="0.00205993119270523" flag="0"/>
		</comp>
		<comp name="00.HNN" depth="0.0">
			<acc value="0.00545294832699921" flag="0"/>
			<vel value="0.00370158639654143" flag="0"/>
			<psa03 value="0.0157045145230134" flag="0"/>
			<psa10 value="0.00454222881588695" flag="0"/>
			<psa30 value="0.00153152573254344" flag="0"/>
		</comp>
		<comp name="00.HNZ" depth="0.0">
			<acc value="0.00546828266096984" flag="0"/>
			<vel value="0.00525882723942213" flag="0"/>
			<psa03 value="0.0105591607619121" flag="0"/>
			<psa10 value="0.00606435868504055" flag="0"/>
			<psa30 value="0.00117179839133254" flag="0"/>
		</comp>
	</station>
	<station code="PATC" name="PATC" netid="HL" source="National Observatory of Athens Seismic Network" insttype="" lat="38.26933" lon="21.76001" esm:processing="manual (Paolucci et al 2011)" esm:quality="good">
		<comp name="00.HNE" depth="0.0">
			<acc value="0.0356972041418367" flag="0"/>
			<vel value="0.0311080644793708" flag="0"/>
			<psa03 value="0.104921815138638" flag="0"/>
			<psa10 value="0.047708249187197" flag="0"/>
			<psa30 value="0.00743110310742741" flag="0"/>
		</comp>
		<comp name="00.HNN" depth="0.0">
			<acc value="0.0410653213917129" flag="0"/>
			<vel value="0.0317781328501629" flag="0"/>
			<psa03 value="0.0776544567266085" flag="0"/>
			<psa10 value="0.0411163962594928" flag="0"/>
			<psa30 value="0.00639327435640145" flag="0"/>
		</comp>
		<comp name="00.HNZ" depth="0.0">
			<acc value="0.0158004599187986" flag="0"/>
			<vel value="0.0155410786797467" flag="0"/>
			<psa03 value="0.0315549835919606" flag="0"/>
			<psa10 value="0.0358483772790623" flag="0"/>
			<psa30 value="0.00167661523419816" flag="0"/>
		</comp>
	</station>
	<station code="SMHA" name="SMHA" netid="HL" source="National Observatory of Athens Seismic Network" insttype="" lat="38.25123" lon="20.6477" esm:processing="manual (Paolucci et al 2011)" esm:quality="good">
		<comp name="00.HNE" depth="0.0">
			<acc value="0.0261076191941472" flag="0"/>
			<vel value="0.0184791992502801" flag="0"/>
			<psa03 value="0.0852505015942196" flag="0"/>
			<psa10 value="0.0173204961478509" flag="0"/>
			<psa30 value="0.00176331118571035" flag="0"/>
		</comp>
		<comp name="00.HNN" depth="0.0">
			<acc value="0.0327670651913035" flag="0"/>
			<vel value="0.0151468968169208" flag="0"/>
			<psa03 value="0.0801794052421372" flag="0"/>
			<psa10 value="0.0301045192766414" flag="0"/>
			<psa30 value="0.00211986813919331" flag="0"/>
		</comp>
		<comp name="00.HNZ" depth="0.0">
			<acc value="0.0158150830728679" flag="0"/>
			<vel value="0.00823596456625332" flag="0"/>
			<psa03 value="0.0371936904619523" flag="0"/>
			<psa10 value="0.00927817557109452" flag="0"/>
			<psa30 value="0.000976759601361844" flag="0"/>
		</comp>
	</station>
	<station code="ARS1" name="ARS1" netid="HI" source="ITSAK Strong Motion Network" insttype="" lat="37.6349" lon="22.7293" esm:processing="discarded" esm:quality="good">
		<comp name="--.HNE" depth="0.0">
			<acc value="0" flag="1"/>
			<vel value="0" flag="1"/>
			<psa03 value="0" flag="1"/>
			<psa10 value="0" flag="1"/>
			<psa30 value="0" flag="1"/>
		</comp>
		<comp name="--.HNN" depth="0.0">
			<acc value="0" flag="1"/>
			<vel value="0" flag="1"/>
			<psa03 value="0" flag="1"/>
			<psa10 value="0" flag="1"/>
			<psa30 value="0" flag="1"/>
		</comp>
		<comp name="--.HNZ" depth="0.0">
			<acc value="0" flag="1"/>
			<vel value="0" flag="1"/>
			<psa03 value="0" flag="1"/>
			<psa10 value="0" flag="1"/>
			<psa30 value="0" flag="1"/>
		</comp>
	</station>
	<station code="PATG" name="PATG" netid="HL" source="National Observatory of Athens Seismic Network" insttype="" lat="38.23865" lon="21.72657" esm:processing="discarded" esm:quality="good">
		<comp name="00.HNE" depth="0.0">
			<acc value="0" flag="1"/>
			<vel value="0" flag="1"/>
			<psa03 value="0" flag="1"/>
			<psa10 value="0" flag="1"/>
			<psa30 value="0" flag="1"/>
		</comp>
		<comp name="00.HNN" depth="0.0">
			<acc value="0" flag="1"/>
			<vel value="0" flag="1"/>
			<psa03 value="0" flag="1"/>
			<psa10 value="0" flag="1"/>
			<psa30 value="0" flag="1"/>
		</comp>
		<comp name="00.HNZ" depth="0.0">
			<acc value="0" flag="1"/>
			<vel value="0" flag="1"/>
			<psa03 value="0" flag="1"/>
			<psa10 value="0" flag="1"/>
			<psa30 value="0" flag="1"/>
		</comp>
	</station>
	<station code="RIOA" name="RIOA" netid="HL" source="National Observatory of Athens Seismic Network" insttype="" lat="38.29585" lon="21.79118" esm:processing="discarded" esm:quality="bad">
		<comp name="00.HNE" depth="0.0">
			<acc value="0" flag="1"/>
			<vel value="0" flag="1"/>
			<psa03 value="0" flag="1"/>
			<psa10 value="0" flag="1"/>
			<psa30 value="0" flag="1"/>
		</comp>
		<comp name="00.HNN" depth="0.0">
			<acc value="0" flag="1"/>
			<vel value="0" flag="1"/>
			<psa03 value="0" flag="1"/>
			<psa10 value="0" flag="1"/>
			<psa30 value="0" flag="1"/>
		</comp>
		<comp name="00.HNZ" depth="0.0">
			<acc value="0" flag="1"/>
			<vel value="0" flag="1"/>
			<psa03 value="0" flag="1"/>
			<psa10 value="0" flag="1"/>
			<psa30 value="0" flag="1"/>
		</comp>
	</station>
	<station code="YDRA" name="YDRA" netid="HL" source="National Observatory of Athens Seismic Network" insttype="" lat="37.34923" lon="23.46525" esm:processing="discarded" esm:quality="good">
		<comp name="00.HNE" depth="0.0">
			<acc value="0" flag="1"/>
			<vel value="0" flag="1"/>
			<psa03 value="0" flag="1"/>
			<psa10 value="0" flag="1"/>
			<psa30 value="0" flag="1"/>
		</comp>
		<comp name="00.HNN" depth="0.0">
			<acc value="0" flag="1"/>
			<vel value="0" flag="1"/>
			<psa03 value="0" flag="1"/>
			<psa10 value="0" flag="1"/>
			<psa30 value="0" flag="1"/>
		</comp>
		<comp name="00.HNZ" depth="0.0">
