<?xml version="1.0" encoding="UTF-8" standalone="yes"?>
<!DOCTYPE earthquake SYSTEM "stationlist.dtd">
<stationlist created="" xmlns="ch.ethz.sed.shakemap.usgs.xml">
  <station code="KLMT" name="KLMT" netid="HC" source="NOA" insttype="120" lat="37.0616" lon="22.0635">
    <comp name="--.HHE">
      <acc value="0.5680299619" flag="0"/>
      <vel value="0.4627659872" flag="0"/>
      <psa03 value="1.3678725191" flag="0"/>
      <psa10 value="0.7595086581" flag="0"/>
      <psa30 value="0.0456512936" flag="0"/>
    </comp>
    <comp name="--.HHN">
      <acc value="0.3197549638" flag="0"/>
      <vel value="0.3029971700" flag="0"/>
      <psa03 value="0.9507702030" flag="0"/>
      <psa10 value="0.4329573165" flag="0"/>
      <psa30 value="0.0262422848" flag="0"/>
    </comp>
    <comp name="--.HHZ">
      <acc value="0.2066011355" flag="0"/>
      <vel value="0.2042648977" flag="0"/>
      <psa03 value="0.4175331186" flag="0"/>
      <psa10 value="0.2515869759" flag="0"/>
      <psa30 value="0.0313434876" flag="0"/>
    </comp>
  </station>
  <station code="ITM" name="ITM" netid="HL" source="NOA" insttype="CMG-5" lat="37.1787" lon="21.9252">
    <comp name="00.HNE">
      <acc value="0.1420949844" flag="0"/>
      <vel value="0.0967506232" flag="0"/>
      <psa03 value="0.3204326807" flag="0"/>
      <psa10 value="0.1059302675" flag="0"/>
      <psa30 value="0.0117920480" flag="0"/>
    </comp>
    <comp name="00.HNN">
      <acc value="0.1621011320" flag="0"/>
      <vel value="0.0828962709" flag="0"/>
      <psa03 value="0.4463363935" flag="0"/>
      <psa10 value="0.0522959854" flag="0"/>
      <psa30 value="0.0082174734" flag="0"/>
    </comp>
    <comp name="00.HNZ">
      <acc value="0.0983316216" flag="0"/>
      <vel value="0.0323144055" flag="0"/>
      <psa03 value="0.1381238757" flag="0"/>
      <psa10 value="0.0441840612" flag="0"/>
      <psa30 value="0.0051897024" flag="0"/>
    </comp>
  </station>
  <station code="KLV" name="KLV" netid="HL" source="NOA" insttype="120" lat="38.0435" lon="22.1504">
    <comp name="--.HHE">
      <acc value="0.0069368483" flag="0"/>
      <vel value="0.0073510777" flag="0"/>
      <psa03 value="0.0130145384" flag="0"/>
      <psa10 value="0.0140020990" flag="0"/>
      <psa30 value="0.0007029074" flag="0"/>
    </comp>
    <comp name="--.HHN">
      <acc value="0.0074674916" flag="0"/>
      <vel value="0.0087119772" flag="0"/>
      <psa03 value="0.0178543711" flag="0"/>
      <psa10 value="0.0137074827" flag="0"/>
      <psa30 value="0.0015110415" flag="0"/>
    </comp>
    <comp name="--.HHZ">
      <acc value="0.0074608569" flag="0"/>
      <vel value="0.0062586835" flag="0"/>
      <psa03 value="0.0170392038" flag="0"/>
      <psa10 value="0.0068709894" flag="0"/>
      <psa30 value="0.0017314658" flag="0"/>
    </comp>
  </station>
  <station code="RLS" name="RLS" netid="HL" source="NOA" insttype="120" lat="38.0559" lon="21.4647">
    <comp name="--.HHE">
      <acc value="0.0151339511" flag="0"/>
      <vel value="0.0132151951" flag="0"/>
      <psa03 value="0.0418320368" flag="0"/>
      <psa10 value="0.0265555056" flag="0"/>
      <psa30 value="0.0021962165" flag="0"/>
    </comp>
    <comp name="--.HHN">
      <acc value="0.0157413742" flag="0"/>
      <vel value="0.0151845792" flag="0"/>
      <psa03 value="0.0354992392" flag="0"/>
      <psa10 value="0.0189213970" flag="0"/>
      <psa30 value="0.0033458688" flag="0"/>
    </comp>
    <comp name="--.HHZ">
      <acc value="0.0086477057" flag="0"/>
      <vel value="0.0109817490" flag="0"/>
      <psa03 value="0.0214939420" flag="0"/>
      <psa10 value="0.0114341209" flag="0"/>
      <psa30 value="0.0028580436" flag="0"/>
    </comp>
  </station>
  <station code="VLI" name="VLI" netid="HL" source="NOA" insttype="60" lat="36.718" lon="22.9469">
    <comp name="--.HHE">
      <acc value="0.0134177850" flag="0"/>
      <vel value="0.0124068031" flag="0"/>
      <psa03 value="0.0312818812" flag="0"/>
      <psa10 value="0.0143929655" flag="0"/>
      <psa30 value="0.0020683537" flag="0"/>
    </comp>
    <comp name="--.HHN">
      <acc value="0.0134767481" flag="0"/>
      <vel value="0.0128328274" flag="0"/>
      <psa03 value="0.0284193304" flag="0"/>
      <psa10 value="0.0177291343" flag="0"/>
      <psa30 value="0.0021432201" flag="0"/>
    </comp>
    <comp name="--.HHZ">
      <acc value="0.0097155627" flag="0"/>
      <vel value="0.0060875544" flag="0"/>
      <psa03 value="0.0282722618" flag="0"/>
      <psa10 value="0.0075665868" flag="0"/>
      <psa30 value="0.0018659346" flag="0"/>
    </comp>
  </station>
  <station code="DRO" name="DRO" netid="HP" source="NOA" insttype="120P," lat="37.952" lon="21.71">
    <comp name="--.HHE">
      <acc value="0.0451685078" flag="0"/>
      <vel value="0.0332219010" flag="0"/>
      <psa03 value="0.1446484854" flag="0"/>
      <psa10 value="0.0351938256" flag="0"/>
      <psa30 value="0.0038838292" flag="0"/>
    </comp>
    <comp name="--.HHN">
      <acc value="0.0354978532" flag="0"/>
      <vel value="0.0252504664" flag="0"/>
      <psa03 value="0.1047057630" flag="0"/>
      <psa10 value="0.0317562760" flag="0"/>
      <psa30 value="0.0027291835" flag="0"/>
    </comp>
    <comp name="--.HHZ">
      <acc value="0.0199666656" flag="0"/>
      <vel value="0.0160941273" flag="0"/>
      <psa03 value="0.0608759471" flag="0"/>
      <psa10 value="0.0200013648" flag="0"/>
      <psa30 value="0.0027019219" flag="0"/>
    </comp>
  </station>
  <station code="LTHK" name="LTHK" netid="HP" source="NOA" insttype="40," lat="37.7095" lon="20.8367">
    <comp name="--.HHE">
      <acc value="0.0430094438" flag="0"/>
      <vel value="0.0171862247" flag="0"/>
      <psa03 value="0.0907896774" flag="0"/>
      <psa10 value="0.0181890916" flag="0"/>
      <psa30 value="0.0027282720" flag="0"/>
    </comp>
    <comp name="--.HHN">
      <acc value="0.0402616128" flag="0"/>
      <vel value="0.0216074006" flag="0"/>
      <psa03 value="0.0995861200" flag="0"/>
      <psa10 value="0.0191810360" flag="0"/>
      <psa30 value="0.0025131252" flag="0"/>
    </comp>
    <comp name="--.HHZ">
      <acc value="0.0241335875" flag="0"/>
      <vel value="0.0094895290" flag="0"/>
      <psa03 value="0.0552469775" flag="0"/>
      <psa10 value="0.0123240483" flag="0"/>
      <psa30 value="0.0014809992" flag="0"/>
    </comp>
  </station>
  <station code="KLV" name="KLV" netid="MN" source="INGV" insttype="" lat="38.0437" lon="22.1504">
    <comp name="--.HHE">
      <acc value="0.0070669722" flag="0"/>
      <vel value="0.0073945991" flag="0"/>
      <psa03 value="0.0132238516" flag="0"/>
      <psa10 value="0.0140885234" flag="0"/>
      <psa30 value="0.0007061091" flag="0"/>
    </comp>
    <comp name="--.HHN">
      <acc value="0.0076305035" flag="0"/>
      <vel value="0.0087590750" flag="0"/>
      <psa03 value="0.0182311754" flag="0"/>
      <psa10 value="0.0137842493" flag="0"/>
      <psa30 value="0.0015130982" flag="0"/>
    </comp>
    <comp name="--.HHZ">
      <acc value="0.0076304234" flag="0"/>
      <vel value="0.0063154465" flag="0"/>
      <psa03 value="0.0174233490" flag="0"/>
      <psa10 value="0.0069153212" flag="0"/>
      <psa30 value="0.0017358932" flag="0"/>
    </comp>
  </station>
</stationlist>
