<?xml version="1.0" encoding="UTF-8" standalone="yes"?>
<!DOCTYPE earthquake SYSTEM "stationlist.dtd">
<stationlist created="" xmlns="ch.ethz.sed.shakemap.usgs.xml">
  <station code="CEYT" name="CEYT" netid="KO" insttype="CMG-3ESP" lat="37.0105" lon="35.7478">
    <comp name="--.HHN">
      <acc value="0.0018562660" flag="0"/>
      <vel value="0.0010292665" flag="0"/>
      <psa03 value="0.0051455650" flag="0"/>
      <psa10 value="0.0017497392" flag="0"/>
      <psa30 value="0.0001691486" flag="0"/>
    </comp>
    <comp name="--.HHZ">
      <acc value="0.0012588353" flag="0"/>
      <vel value="0.0008811992" flag="0"/>
      <psa03 value="0.0030389881" flag="0"/>
      <psa10 value="0.0019705194" flag="0"/>
      <psa30 value="0.0001528916" flag="0"/>
    </comp>
    <comp name="--.HHE">
      <acc value="0.0023515824" flag="0"/>
      <vel value="0.0012004488" flag="0"/>
      <psa03 value="0.0071137902" flag="0"/>
      <psa10 value="0.0017684450" flag="0"/>
      <psa30 value="0.0002337035" flag="0"/>
    </comp>
  </station>
  <station code="DARE" name="DARE" netid="KO" insttype="CMG-3ESP" lat="38.5712" lon="37.4832">
    <comp name="--.HHN">
      <acc value="0.0019507744" flag="0"/>
      <vel value="0.0015363169" flag="0"/>
      <psa03 value="0.0066501237" flag="0"/>
      <psa10 value="0.0015990434" flag="0"/>
      <psa30 value="0.0001541683" flag="0"/>
    </comp>
    <comp name="--.HHE">
      <acc value="0.0017224683" flag="0"/>
      <vel value="0.0015009139" flag="0"/>
      <psa03 value="0.0052123011" flag="0"/>
      <psa10 value="0.0016647925" flag="0"/>
      <psa30 value="0.0001386721" flag="0"/>
    </comp>
  </station>
  <station code="GAZ" name="GAZ" netid="KO" insttype="CMG-3T" lat="37.1721" lon="37.2096">
    <comp name="--.HHN">
      <acc value="0.0118683682" flag="0"/>
      <vel value="0.0042989178" flag="0"/>
      <psa03 value="0.0280523415" flag="0"/>
      <psa10 value="0.0040249892" flag="0"/>
      <psa30 value="0.0002708476" flag="0"/>
    </comp>
    <comp name="--.HHE">
      <acc value="0.0149622854" flag="0"/>
      <vel value="0.0045601864" flag="0"/>
      <psa03 value="0.0260891977" flag="0"/>
      <psa10 value="0.0035636428" flag="0"/>
      <psa30 value="0.0002438012" flag="0"/>
    </comp>
    <comp name="--.HHZ">
      <acc value="0.0090264785" flag="0"/>
      <vel value="0.0042622736" flag="0"/>
      <psa03 value="0.0197234574" flag="0"/>
      <psa10 value="0.0015378399" flag="0"/>
      <psa30 value="0.0003503465" flag="0"/>
    </comp>
  </station>
  <station code="KMRS" name="KMRS" netid="KO" insttype="CMG-3T" lat="37.5053" lon="36.9">
    <comp name="--.HHE">
      <acc value="0.0291849446" flag="0"/>
      <vel value="0.0129593721" flag="0"/>
      <psa03 value="0.0646866515" flag="0"/>
      <psa10 value="0.0052814766" flag="0"/>
      <psa30 value="0.0009417774" flag="0"/>
    </comp>
    <comp name="--.HHN">
      <acc value="0.0460640225" flag="0"/>
      <vel value="0.0220491767" flag="0"/>
      <psa03 value="0.0575866223" flag="0"/>
      <psa10 value="0.0093136264" flag="0"/>
      <psa30 value="0.0007459369" flag="0"/>
    </comp>
    <comp name="--.HHZ">
      <acc value="0.0182453168" flag="0"/>
      <vel value="0.0078491572" flag="0"/>
      <psa03 value="0.0412567709" flag="0"/>
      <psa10 value="0.0044976663" flag="0"/>
      <psa30 value="0.0008623577" flag="0"/>
    </comp>
  </station>
  <station code="SARI" name="SARI" netid="KO" insttype="CMG-3T" lat="38.4072" lon="36.4181">
    <comp name="--.HHN">
      <acc value="0.0247096919" flag="0"/>
      <vel value="0.0094271769" flag="0"/>
      <psa03 value="0.0314492162" flag="0"/>
      <psa10 value="0.0034980532" flag="0"/>
      <psa30 value="0.0002644225" flag="0"/>
    </comp>
    <comp name="--.HHZ">
      <acc value="0.0137260132" flag="0"/>
      <vel value="0.0071549075" flag="0"/>
      <psa03 value="0.0376079097" flag="0"/>
      <psa10 value="0.0043663499" flag="0"/>
      <psa30 value="0.0002896810" flag="0"/>
    </comp>
    <comp name="--.HHE">
      <acc value="0.0231043837" flag="0"/>
      <vel value="0.0062908513" flag="0"/>
      <psa03 value="0.0332740115" flag="0"/>
      <psa10 value="0.0046202344" flag="0"/>
      <psa30 value="0.0004115199" flag="0"/>
    </comp>
  </station>
  <station code="ANDN" name="ANDN" netid="TU" insttype="T" lat="37.58" lon="36.3452">
    <comp name="--.HHE">
      <acc value="0.0976925213" flag="0"/>
      <vel value="0.0348245083" flag="0"/>
      <psa03 value="0.2303210611" flag="0"/>
      <psa10 value="0.0342590851" flag="0"/>
      <psa30 value="0.0018040947" flag="0"/>
    </comp>
    <comp name="--.HHN">
      <acc value="0.1633420075" flag="0"/>
      <vel value="0.0302581830" flag="0"/>
      <psa03 value="0.1501342558" flag="0"/>
      <psa10 value="0.0225029868" flag="0"/>
      <psa30 value="0.0022172702" flag="0"/>
    </comp>
    <comp name="--.HHZ">
      <acc value="0.0574638370" flag="0"/>
      <vel value="0.0231206288" flag="0"/>
      <psa03 value="0.0761721790" flag="0"/>
      <psa10 value="0.0242884280" flag="0"/>
      <psa30 value="0.0012765763" flag="0"/>
    </comp>
  </station>
</stationlist>
