<?xml version="1.0" encoding="UTF-8" standalone="yes"?>
<!DOCTYPE earthquake SYSTEM "stationlist.dtd">
<stationlist created="" xmlns="ch.ethz.sed.shakemap.usgs.xml">
  <station code="ARPRA" name="ARPRA" netid="KO" insttype="CMG-5T" lat="39.0929" lon="38.3356">
    <comp name="--.HNZ">
      <acc value="0.0122033941" flag="0"/>
      <vel value="0.0059552819" flag="0"/>
      <psa03 value="0.0260353268" flag="0"/>
      <psa10 value="0.0085324610" flag="0"/>
      <psa30 value="0.0004248739" flag="0"/>
    </comp>
    <comp name="--.HNN">
      <acc value="0.0225942436" flag="0"/>
      <vel value="0.0125456712" flag="0"/>
      <psa03 value="0.0851727450" flag="0"/>
      <psa10 value="0.0122507764" flag="0"/>
      <psa30 value="0.0010727302" flag="0"/>
    </comp>
    <comp name="--.HNE">
      <acc value="0.0246825672" flag="0"/>
      <vel value="0.0118162380" flag="0"/>
      <psa03 value="0.0471946180" flag="0"/>
      <psa10 value="0.0140898179" flag="0"/>
      <psa30 value="0.0013554584" flag="0"/>
    </comp>
  </station>
  <station code="DARE" name="DARE" netid="KO" insttype="CMG-3ESP" lat="38.5712" lon="37.4832">
    <comp name="--.HHE">
      <acc value="0.0538473546" flag="0"/>
      <vel value="0.0222545302" flag="0"/>
      <psa03 value="0.0793688754" flag="0"/>
      <psa10 value="0.0163509191" flag="0"/>
      <psa30 value="0.0014419067" flag="0"/>
    </comp>
    <comp name="--.HHN">
      <acc value="0.0506996883" flag="0"/>
      <vel value="0.0200588496" flag="0"/>
      <psa03 value="0.0617226007" flag="0"/>
      <psa10 value="0.0128534147" flag="0"/>
      <psa30 value="0.0009906616" flag="0"/>
    </comp>
    <comp name="--.HHZ">
      <acc value="0.0360154144" flag="0"/>
      <vel value="0.0134424529" flag="0"/>
      <psa03 value="0.0588603155" flag="0"/>
      <psa10 value="0.0143435617" flag="0"/>
      <psa30 value="0.0007940249" flag="0"/>
    </comp>
  </station>
  <station code="GAZ" name="GAZ" netid="KO" insttype="CMG-3T" lat="37.1721" lon="37.2096">
    <comp name="--.HHE">
      <acc value="0.0190897478" flag="0"/>
      <vel value="0.0145527548" flag="0"/>
      <psa03 value="0.0434401383" flag="0"/>
      <psa10 value="0.0212720690" flag="0"/>
      <psa30 value="0.0007995129" flag="0"/>
    </comp>
    <comp name="--.HHN">
      <acc value="0.0102093950" flag="0"/>
      <vel value="0.0084166972" flag="0"/>
      <psa03 value="0.0302715965" flag="0"/>
      <psa10 value="0.0132635368" flag="0"/>
      <psa30 value="0.0010078235" flag="0"/>
    </comp>
    <comp name="--.HHZ">
      <acc value="0.0099111057" flag="0"/>
      <vel value="0.0051642724" flag="0"/>
      <psa03 value="0.0220456185" flag="0"/>
      <psa10 value="0.0049913041" flag="0"/>
      <psa30 value="0.0003623930" flag="0"/>
    </comp>
  </station>
  <station code="KMRS" name="KMRS" netid="KO" insttype="CMG-3T" lat="37.5053" lon="36.9">
    <comp name="--.HHZ">
      <acc value="0.0091618136" flag="0"/>
      <vel value="0.0038469055" flag="0"/>
      <psa03 value="0.0197203099" flag="0"/>
      <psa10 value="0.0063789422" flag="0"/>
      <psa30 value="0.0008217551" flag="0"/>
    </comp>
    <comp name="--.HHE">
      <acc value="0.0135304887" flag="0"/>
      <vel value="0.0074721724" flag="0"/>
      <psa03 value="0.0290764525" flag="0"/>
      <psa10 value="0.0073370220" flag="0"/>
      <psa30 value="0.0009429525" flag="0"/>
    </comp>
    <comp name="--.HHN">
      <acc value="0.0150794077" flag="0"/>
      <vel value="0.0084046682" flag="0"/>
      <psa03 value="0.0279367550" flag="0"/>
      <psa10 value="0.0132469217" flag="0"/>
      <psa30 value="0.0012462494" flag="0"/>
    </comp>
  </station>
  <station code="URFA" name="URFA" netid="KO" insttype="CMG-3ESP" lat="37.4409" lon="38.8213">
    <comp name="--.HHZ">
      <acc value="0.0301436117" flag="0"/>
      <vel value="0.0141834235" flag="0"/>
      <psa03 value="0.0575172712" flag="0"/>
      <psa10 value="0.0070788208" flag="0"/>
      <psa30 value="0.0006136524" flag="0"/>
    </comp>
    <comp name="--.HHE">
      <acc value="0.0592901079" flag="0"/>
      <vel value="0.0200825499" flag="0"/>
      <psa03 value="0.0835933947" flag="0"/>
      <psa10 value="0.0154933429" flag="0"/>
      <psa30 value="0.0011340184" flag="0"/>
    </comp>
    <comp name="--.HHN">
      <acc value="0.0407606143" flag="0"/>
      <vel value="0.0135676815" flag="0"/>
      <psa03 value="0.0564123994" flag="0"/>
      <psa10 value="0.0136593984" flag="0"/>
      <psa30 value="0.0010794916" flag="0"/>
    </comp>
  </station>
</stationlist>
