<?xml version="1.0" encoding="UTF-8" standalone="yes"?>
<!DOCTYPE earthquake SYSTEM "stationlist.dtd">
<stationlist created="" xmlns="ch.ethz.sed.shakemap.usgs.xml">
  <station code="BNN" name="BNN" netid="KO" insttype="CMG-3T" commtype="DIG" lat="38.8521" lon="35.8472">
    <comp name="--.HHZ">
      <acc value="0.0044950122" flag="0"/>
      <vel value="0.0020290239" flag="0"/>
      <psa03 value="0.0107390591" flag="0"/>
      <psa10 value="0.0025371254" flag="0"/>
      <psa30 value="0.0001699110" flag="0"/>
    </comp>
    <comp name="--.HHN">
      <acc value="0.0078332078" flag="0"/>
      <vel value="0.0037619792" flag="0"/>
      <psa03 value="0.0175821074" flag="0"/>
      <psa10 value="0.0033097206" flag="0"/>
      <psa30 value="0.0002810485" flag="0"/>
    </comp>
  </station>
  <station code="DARE" name="DARE" netid="KO" insttype="CMG-3ESP" commtype="DIG" lat="38.5712" lon="37.4832">
    <comp name="--.HHZ">
      <acc value="0.0109384231" flag="0"/>
      <vel value="0.0038425104" flag="0"/>
      <psa03 value="0.0096080325" flag="0"/>
      <psa10 value="0.0029928735" flag="0"/>
      <psa30 value="0.0002084639" flag="0"/>
    </comp>
    <comp name="--.HHE">
      <acc value="0.0143907388" flag="0"/>
      <vel value="0.0038586415" flag="0"/>
      <psa03 value="0.0104739160" flag="0"/>
      <psa10 value="0.0028700328" flag="0"/>
      <psa30 value="0.0002052757" flag="0"/>
    </comp>
    <comp name="--.HHN">
      <acc value="0.0148074593" flag="0"/>
      <vel value="0.0037036762" flag="0"/>
      <psa03 value="0.0123598609" flag="0"/>
      <psa10 value="0.0039998567" flag="0"/>
      <psa30 value="0.0001747384" flag="0"/>
    </comp>
  </station>
  <station code="GAZ" name="GAZ" netid="KO" insttype="CMG-3T" commtype="DIG" lat="37.1721" lon="37.2096">
    <comp name="--.HHN">
      <acc value="0.0059547961" flag="0"/>
      <vel value="0.0041676857" flag="0"/>
      <psa03 value="0.0138938162" flag="0"/>
      <psa10 value="0.0057233472" flag="0"/>
      <psa30 value="0.0004676434" flag="0"/>
    </comp>
    <comp name="--.HHZ">
      <acc value="0.0060054216" flag="0"/>
      <vel value="0.0025785224" flag="0"/>
      <psa03 value="0.0104964710" flag="0"/>
      <psa10 value="0.0028537457" flag="0"/>
      <psa30 value="0.0001808674" flag="0"/>
    </comp>
  </station>
  <station code="KOZT" name="KOZT" netid="KO" insttype="CMG-3T" commtype="DIG" lat="37.4795" lon="35.8264">
    <comp name="--.HHE">
      <acc value="0.0150707032" flag="0"/>
      <vel value="0.0091017542" flag="0"/>
      <psa03 value="0.0561948670" flag="0"/>
      <psa10 value="0.0114635800" flag="0"/>
      <psa30 value="0.0006316512" flag="0"/>
    </comp>
    <comp name="--.HHN">
      <acc value="0.0104975828" flag="0"/>
      <vel value="0.0057223726" flag="0"/>
      <psa03 value="0.0379537281" flag="0"/>
      <psa10 value="0.0076273491" flag="0"/>
      <psa30 value="0.0003956695" flag="0"/>
    </comp>
    <comp name="--.HHZ">
      <acc value="0.0077386237" flag="0"/>
      <vel value="0.0060006323" flag="0"/>
      <psa03 value="0.0260496588" flag="0"/>
      <psa10 value="0.0065116357" flag="0"/>
      <psa30 value="0.0002776569" flag="0"/>
    </comp>
  </station>
  <station code="NURH" name="NURH" netid="KO" insttype="CMG-6T" commtype="DIG" lat="37.9693" lon="37.4363">
    <comp name="--.HHZ">
      <acc value="0.0239247963" flag="0"/>
      <vel value="0.0079272871" flag="0"/>
      <psa03 value="0.0237677901" flag="0"/>
      <psa10 value="0.0081767586" flag="0"/>
      <psa30 value="0.0003488796" flag="0"/>
    </comp>
    <comp name="--.HHE">
      <acc value="0.0332687062" flag="0"/>
      <vel value="0.0118945925" flag="0"/>
      <psa03 value="0.0375419755" flag="0"/>
      <psa10 value="0.0080481889" flag="0"/>
      <psa30 value="0.0005596232" flag="0"/>
    </comp>
    <comp name="--.HHN">
      <acc value="0.0498534234" flag="0"/>
      <vel value="0.0193385422" flag="0"/>
      <psa03 value="0.0833577331" flag="0"/>
      <psa10 value="0.0071770096" flag="0"/>
      <psa30 value="0.0006353110" flag="0"/>
    </comp>
  </station>
  <station code="ANDN" name="ANDN" netid="TU" insttype="T" commtype="DIG" lat="37.58" lon="36.3452">
    <comp name="--.HHE">
      <acc value="0.0620159710" flag="0"/>
      <vel value="0.0255541952" flag="0"/>
      <psa03 value="0.1526130367" flag="0"/>
      <psa10 value="0.0404140256" flag="0"/>
      <psa30 value="0.0022823396" flag="0"/>
    </comp>
    <comp name="--.HHN">
      <acc value="0.0971005178" flag="0"/>
      <vel value="0.0268889318" flag="0"/>
      <psa03 value="0.1482499453" flag="0"/>
      <psa10 value="0.0313877103" flag="0"/>
      <psa30 value="0.0011097049" flag="0"/>
    </comp>
    <comp name="--.HHZ">
      <acc value="0.0451179840" flag="0"/>
      <vel value="0.0296600655" flag="0"/>
      <psa03 value="0.0848090622" flag="0"/>
      <psa10 value="0.0345989179" flag="0"/>
      <psa30 value="0.0017810848" flag="0"/>
    </comp>
  </station>
</stationlist>
