<stationlist created="1778069732">
	<station code="ROD3" name="ROD3" netid="CL" source="Corinth Riff Laboratory (CRLNET)" insttype="" lat="38.30811" lon="21.89204">
		<comp name="00.HNE" depth="0.0">
			<acc value="0.109825381146388" flag="0"/>
			<vel value="0.0509398415972264" flag="0"/>
			<psa03 value="0.28218909714144" flag="0"/>
			<psa10 value="0.018801122643064" flag="0"/>
			<psa30 value="0.00149081032452081" flag="0"/>
		</comp>
		<comp name="00.HNN" depth="0.0">
			<acc value="0.0630009177639615" flag="0"/>
			<vel value="0.0293182866418543" flag="0"/>
			<psa03 value="0.187559330143795" flag="0"/>
			<psa10 value="0.0110777229366179" flag="0"/>
			<psa30 value="0.00107291811470616" flag="0"/>
		</comp>
		<comp name="00.HNZ" depth="0.0">
			<acc value="0.0364435947175265" flag="0"/>
			<vel value="0.010000042778546" flag="0"/>
			<psa03 value="0.0540933278014906" flag="0"/>
			<psa10 value="0.00783212326852847" flag="0"/>
			<psa30 value="0.000354358276416712" flag="0"/>
		</comp>
	</station>
	<station code="KLV1" name="KLV1" netid="HI" source="ITSAK Strong Motion Network" insttype="" lat="38.03256" lon="22.10797">
		<comp name="--.HNE" depth="0.0">
			<acc value="0.0244424377085918" flag="0"/>
			<vel value="0.0104275362744948" flag="0"/>
			<psa03 value="0.0624153782324891" flag="0"/>
			<psa10 value="0.00973277220567265" flag="0"/>
			<psa30 value="0.000604467211412851" flag="0"/>
		</comp>
		<comp name="--.HNN" depth="0.0">
			<acc value="0.0236421284578241" flag="0"/>
			<vel value="0.013061941222526" flag="0"/>
			<psa03 value="0.0489927162470076" flag="0"/>
			<psa10 value="0.0138038655858692" flag="0"/>
			<psa30 value="0.000736904143002936" flag="0"/>
		</comp>
		<comp name="--.HNZ" depth="0.0">
			<acc value="0.0126362452696125" flag="0"/>
			<vel value="0.00510068864785227" flag="0"/>
			<psa03 value="0.0273822304503823" flag="0"/>
			<psa10 value="0.0105139711332277" flag="0"/>
			<psa30 value="0.000419234476013206" flag="0"/>
		</comp>
	</station>
	<station code="LAM2" name="LAM2" netid="HI" source="ITSAK Strong Motion Network" insttype="" lat="38.90203" lon="22.431301">
		<comp name="--.HNE" depth="0.0">
			<acc value="0.12764362315586" flag="0"/>
			<vel value="0.0323087502183044" flag="0"/>
			<psa03 value="0.195926122781412" flag="0"/>
			<psa10 value="0.0108320882222836" flag="0"/>
			<psa30 value="0.00110781703586841" flag="0"/>
		</comp>
		<comp name="--.HNN" depth="0.0">
			<acc value="0.133229309338692" flag="0"/>
			<vel value="0.0460693221295501" flag="0"/>
			<psa03 value="0.197939522079234" flag="0"/>
			<psa10 value="0.0137797047942953" flag="0"/>
			<psa30 value="0.00107068100437524" flag="0"/>
		</comp>
		<comp name="--.HNZ" depth="0.0">
			<acc value="0.0602741579371163" flag="0"/>
			<vel value="0.0127072204426838" flag="0"/>
			<psa03 value="0.0529747726360338" flag="0"/>
			<psa10 value="0.00410733456755735" flag="0"/>
			<psa30 value="0.000412075722954283" flag="0"/>
		</comp>
	</station>
	<station code="MSL1" name="MSL1" netid="HI" source="ITSAK Strong Motion Network" insttype="" lat="38.3727" lon="21.4243">
		<comp name="--.HNE" depth="0.0">
			<acc value="0.0635154963499629" flag="0"/>
			<vel value="0.0457893041705717" flag="0"/>
			<psa03 value="0.148812579212372" flag="0"/>
			<psa10 value="0.0389874640030296" flag="0"/>
			<psa30 value="0.00215075787214032" flag="0"/>
		</comp>
		<comp name="--.HNN" depth="0.0">
			<acc value="0.0654448216811317" flag="0"/>
			<vel value="0.0401282897358259" flag="0"/>
			<psa03 value="0.190467573573983" flag="0"/>
			<psa10 value="0.0205205656434042" flag="0"/>
			<psa30 value="0.00160042873073558" flag="0"/>
		</comp>
		<comp name="--.HNZ" depth="0.0">
			<acc value="0.025543256422045" flag="0"/>
			<vel value="0.0114521947565117" flag="0"/>
			<psa03 value="0.0804017452930343" flag="0"/>
			<psa10 value="0.0165622226238857" flag="0"/>
			<psa30 value="0.000766881421437178" flag="0"/>
		</comp>
	</station>
	<station code="VAS2" name="VAS2" netid="HI" source="ITSAK Strong Motion Network" insttype="" lat="38.630558" lon="20.608081">
		<comp name="--.HNE" depth="0.0">
			<acc value="0.0304010407049564" flag="0"/>
			<vel value="0.0188709265012495" flag="0"/>
			<psa03 value="0.115390150868523" flag="0"/>
			<psa10 value="0.0304828653690285" flag="0"/>
			<psa30 value="0.00111989743165534" flag="0"/>
		</comp>
		<comp name="--.HNN" depth="0.0">
			<acc value="0.0507185696953797" flag="0"/>
			<vel value="0.0301940082428527" flag="0"/>
			<psa03 value="0.145054233856437" flag="0"/>
			<psa10 value="0.0475323306229872" flag="0"/>
			<psa30 value="0.00236015139911383" flag="0"/>
		</comp>
		<comp name="--.HNZ" depth="0.0">
			<acc value="0.0192464927989541" flag="0"/>
			<vel value="0.0107672349301378" flag="0"/>
			<psa03 value="0.0648314573898758" flag="0"/>
			<psa10 value="0.0123703252858198" flag="0"/>
			<psa30 value="0.00057627962124334" flag="0"/>
		</comp>
	</station>
	<station code="PATC" name="PATC" netid="HL" source="National Observatory of Athens Seismic Network" insttype="" lat="38.26933" lon="21.76001">
		<comp name="00.HNE" depth="0.0">
			<acc value="0.0249155633451249" flag="0"/>
			<vel value="0.0126201746591196" flag="0"/>
			<psa03 value="0.115658604108233" flag="0"/>
			<psa10 value="0.0142468134313901" flag="0"/>
			<psa30 value="0.00152570924568307" flag="0"/>
		</comp>
		<comp name="00.HNN" depth="0.0">
			<acc value="0.0215987555558661" flag="0"/>
			<vel value="0.0186085477904532" flag="0"/>
			<psa03 value="0.0875604983519578" flag="0"/>
			<psa10 value="0.0225903401215654" flag="0"/>
			<psa30 value="0.00213778263222102" flag="0"/>
		</comp>
		<comp name="00.HNZ" depth="0.0">
			<acc value="0.0264165025473932" flag="0"/>
			<vel value="0.0125752619263416" flag="0"/>
			<psa03 value="0.0631312535383814" flag="0"/>
			<psa10 value="0.0136548740378304" flag="0"/>
			<psa30 value="0.000732877344407291" flag="0"/>
		</comp>
	</station>
	<station code="PATG" name="PATG" netid="HL" source="National Observatory of Athens Seismic Network" insttype="" lat="38.23865" lon="21.72657">
		<comp name="00.HNE" depth="0.0">
			<acc value="0.0411607081643452" flag="0"/>
			<vel value="0.0233818316623759" flag="0"/>
			<psa03 value="0.0845627705085336" flag="0"/>
			<psa10 value="0.01474613645725" flag="0"/>
			<psa30 value="0.00135568886053363" flag="0"/>
		</comp>
		<comp name="00.HNN" depth="0.0">
			<acc value="0.0327969136404033" flag="0"/>
			<vel value="0.0169783191401221" flag="0"/>
			<psa03 value="0.104473052453665" flag="0"/>
			<psa10 value="0.0177662354039833" flag="0"/>
			<psa30 value="0.00138387645070314" flag="0"/>
		</comp>
		<comp name="00.HNZ" depth="0.0">
			<acc value="0.019821875084154" flag="0"/>
			<vel value="0.00919993103164578" flag="0"/>
			<psa03 value="0.0494401383131903" flag="0"/>
			<psa10 value="0.00882271572305701" flag="0"/>
			<psa30 value="0.00067337020960499" flag="0"/>
		</comp>
	</station>
	<station code="LTHK" name="LTHK" netid="HP" source="University of Patras, Seismological Laboratory (PSLNET)" insttype="" lat="37.7095" lon="20.8367">
		<comp name="--.HNE" depth="0.0">
			<acc value="0.0120297360680746" flag="0"/>
			<vel value="0.00437386591886519" flag="0"/>
			<psa03 value="0.0173599761678894" flag="0"/>
			<psa10 value="0.00154629066072747" flag="0"/>
			<psa30 value="0.000144517327377018" flag="0"/>
		</comp>
		<comp name="--.HNN" depth="0.0">
			<acc value="0.0102901032042069" flag="0"/>
			<vel value="0.0033678763087308" flag="0"/>
			<psa03 value="0.0157045145230134" flag="0"/>
			<psa10 value="0.00135703112673218" flag="0"/>
			<psa30 value="0.000119014269604603" flag="0"/>
		</comp>
		<comp name="--.HNZ" depth="0.0">
			<acc value="0.00875122778052159" flag="0"/>
			<vel value="0.00249336217647464" flag="0"/>
			<psa03 value="0.0096643166295467" flag="0"/>
			<psa10 value="0.000797306121937603" flag="0"/>
			<psa30 value="0.000135121463987181" flag="0"/>
		</comp>
	</station>
	<station code="PVO" name="PVO" netid="HP" source="University of Patras, Seismological Laboratory (PSLNET)" insttype="" lat="38.616" lon="21.525">
		<comp name="--.HNE" depth="0.0">
			<acc value="0.089600689063108" flag="0"/>
			<vel value="0.0364402936808166" flag="0"/>
			<psa03 value="0.156418754337478" flag="0"/>
			<psa10 value="0.0104173279669322" flag="0"/>
			<psa30 value="0.000933769852123331" flag="0"/>
		</comp>
		<comp name="--.HNN" depth="0.0">
			<acc value="0.150793804302724" flag="0"/>
			<vel value="0.0457057254487927" flag="0"/>
			<psa03 value="0.223845259711214" flag="0"/>
			<psa10 value="0.013964937529695" flag="0"/>
			<psa30 value="0.00175076254497297" flag="0"/>
		</comp>
		<comp name="--.HNZ" depth="0.0">
			<acc value="0.0773552897747604" flag="0"/>
			<vel value="0.0287969093404769" flag="0"/>
			<psa03 value="0.15248144015507" flag="0"/>
			<psa10 value="0.00689790599433896" flag="0"/>
			<psa30 value="0.000612968230670323" flag="0"/>
		</comp>
	</station>
	<station code="SERG" name="SERG" netid="HP" source="University of Patras, Seismological Laboratory (PSLNET)" insttype="" lat="38.4133" lon="22.0566">
		<comp name="--.HNE" depth="0.0">
			<acc value="0.0620290703571034" flag="0"/>
			<vel value="0.0222293389970023" flag="0"/>
			<psa03 value="0.109126241941965" flag="0"/>
			<psa10 value="0.0123743520844154" flag="0"/>
			<psa30 value="0.000625943470589622" flag="0"/>
		</comp>
		<comp name="--.HNN" depth="0.0">
			<acc value="0.0677527444907267" flag="0"/>
			<vel value="0.0262929739520217" flag="0"/>
			<psa03 value="0.111989743165534" flag="0"/>
			<psa10 value="0.0354559616346495" flag="0"/>
			<psa30 value="0.00118208909885474" flag="0"/>
		</comp>
		<comp name="--.HNZ" depth="0.0">
			<acc value="0.0290502063153549" flag="0"/>
			<vel value="0.0112689514108866" flag="0"/>
			<psa03 value="0.0582990952236081" flag="0"/>
			<psa10 value="0.00670461966174802" flag="0"/>
			<psa30 value="0.000584780640500812" flag="0"/>
		</comp>
	</station>
</stationlist>
