<?xml version="1.0" encoding="UTF-8" standalone="yes"?>
<!DOCTYPE earthquake SYSTEM "stationlist.dtd">
<stationlist created="" xmlns="ch.ethz.sed.shakemap.usgs.xml">
  <station code="AGRP" name="AGRP" netid="CL" insttype="CMG40-T" lat="38.3959" lon="21.7228">
    <comp name="00.HHE">
      <acc value="0.0247031398" flag="0"/>
      <vel value="0.0107994400" flag="0"/>
      <psa03 value="0.0730571300" flag="0"/>
      <psa10 value="0.0064479803" flag="0"/>
      <psa30 value="0.0004820157" flag="0"/>
    </comp>
    <comp name="00.HHN">
      <acc value="0.0252773954" flag="0"/>
      <vel value="0.0155196290" flag="0"/>
      <psa03 value="0.0595939465" flag="0"/>
      <psa10 value="0.0104891568" flag="0"/>
      <psa30 value="0.0011846875" flag="0"/>
    </comp>
    <comp name="00.HHZ">
      <acc value="0.0138578253" flag="0"/>
      <vel value="0.0064939233" flag="0"/>
      <psa03 value="0.0436269636" flag="0"/>
      <psa10 value="0.0069943911" flag="0"/>
      <psa30 value="0.0004854082" flag="0"/>
    </comp>
  </station>
  <station code="MG00" name="MG00" netid="CL" insttype="TRILLIUM-40" lat="38.4145" lon="21.9467">
    <comp name="00.HHE">
      <acc value="0.0595402129" flag="0"/>
      <vel value="0.0276531862" flag="0"/>
      <psa03 value="0.2683961942" flag="0"/>
      <psa10 value="0.0125060968" flag="0"/>
      <psa30 value="0.0007327518" flag="0"/>
    </comp>
    <comp name="00.HHN">
      <acc value="0.0509898812" flag="0"/>
      <vel value="0.0348552750" flag="0"/>
      <psa03 value="0.2317445154" flag="0"/>
      <psa10 value="0.0136833712" flag="0"/>
      <psa30 value="0.0012170440" flag="0"/>
    </comp>
    <comp name="00.HHZ">
      <acc value="0.0355893272" flag="0"/>
      <vel value="0.0124815990" flag="0"/>
      <psa03 value="0.0734445628" flag="0"/>
      <psa10 value="0.0055743090" flag="0"/>
      <psa30 value="0.0003918393" flag="0"/>
    </comp>
  </station>
  <station code="MG02" name="MG02" netid="CL" insttype="TRILLIUM-40" lat="38.415" lon="21.947">
    <comp name="02.HHE">
      <acc value="0.0503603488" flag="0"/>
      <vel value="0.0251205514" flag="0"/>
      <psa03 value="0.1211764519" flag="0"/>
      <psa10 value="0.0147792630" flag="0"/>
      <psa30 value="0.0007744984" flag="0"/>
    </comp>
    <comp name="02.HHN">
      <acc value="0.0354924426" flag="0"/>
      <vel value="0.0176932486" flag="0"/>
      <psa03 value="0.1078119684" flag="0"/>
      <psa10 value="0.0087901732" flag="0"/>
      <psa30 value="0.0006823850" flag="0"/>
    </comp>
    <comp name="02.HHZ">
      <acc value="0.0304777108" flag="0"/>
      <vel value="0.0146960741" flag="0"/>
      <psa03 value="0.1292793761" flag="0"/>
      <psa10 value="0.0093997346" flag="0"/>
      <psa30 value="0.0005309372" flag="0"/>
    </comp>
  </station>
  <station code="MG03" name="MG03" netid="CL" insttype="TRILLIUM-40" lat="38.4141" lon="21.946">
    <comp name="03.HHE">
      <acc value="0.0373146105" flag="0"/>
      <vel value="0.0214451817" flag="0"/>
      <psa03 value="0.1588618829" flag="0"/>
      <psa10 value="0.0097083862" flag="0"/>
      <psa30 value="0.0006624706" flag="0"/>
    </comp>
    <comp name="03.HHN">
      <acc value="0.0204972311" flag="0"/>
      <vel value="0.0105970988" flag="0"/>
      <psa03 value="0.0705328285" flag="0"/>
      <psa10 value="0.0050220905" flag="0"/>
      <psa30 value="0.0004494116" flag="0"/>
    </comp>
    <comp name="03.HHZ">
      <acc value="0.0205929588" flag="0"/>
      <vel value="0.0071709077" flag="0"/>
      <psa03 value="0.0383013640" flag="0"/>
      <psa10 value="0.0055548992" flag="0"/>
      <psa30 value="0.0002715458" flag="0"/>
    </comp>
  </station>
  <station code="MG04" name="MG04" netid="CL" insttype="TRILLIUM-40" lat="38.4142" lon="21.9481">
    <comp name="04.HHE">
      <acc value="0.0562056315" flag="0"/>
      <vel value="0.0244887429" flag="0"/>
      <psa03 value="0.1196317052" flag="0"/>
      <psa10 value="0.0107610552" flag="0"/>
      <psa30 value="0.0007691982" flag="0"/>
    </comp>
    <comp name="04.HHN">
      <acc value="0.0538234220" flag="0"/>
      <vel value="0.0230156245" flag="0"/>
      <psa03 value="0.1239263434" flag="0"/>
      <psa10 value="0.0111954807" flag="0"/>
      <psa30 value="0.0008692438" flag="0"/>
    </comp>
    <comp name="04.HHZ">
      <acc value="0.0219352448" flag="0"/>
      <vel value="0.0075074676" flag="0"/>
      <psa03 value="0.0439039577" flag="0"/>
      <psa10 value="0.0056074274" flag="0"/>
      <psa30 value="0.0002607089" flag="0"/>
    </comp>
  </station>
  <station code="MG05" name="MG05" netid="CL" insttype="CMG40-T" lat="38.4155" lon="21.9458">
    <comp name="05.HHE">
      <acc value="0.0952846981" flag="0"/>
      <vel value="0.0504274292" flag="0"/>
      <psa03 value="0.3310007158" flag="0"/>
      <psa10 value="0.0226399352" flag="0"/>
      <psa30 value="0.0016813804" flag="0"/>
    </comp>
    <comp name="05.HHN">
      <acc value="0.0954942865" flag="0"/>
      <vel value="0.0554375870" flag="0"/>
      <psa03 value="0.3597318011" flag="0"/>
      <psa10 value="0.0400406005" flag="0"/>
      <psa30 value="0.0023255915" flag="0"/>
    </comp>
    <comp name="05.HHZ">
      <acc value="0.0616010058" flag="0"/>
      <vel value="0.0229022876" flag="0"/>
      <psa03 value="0.1489338547" flag="0"/>
      <psa10 value="0.0149475304" flag="0"/>
      <psa30 value="0.0008211631" flag="0"/>
    </comp>
  </station>
  <station code="MG06" name="MG06" netid="CL" insttype="TRILLIUM-40" lat="38.4129" lon="21.9462">
    <comp name="06.HHE">
      <acc value="0.0298613571" flag="0"/>
      <vel value="0.0102872527" flag="0"/>
      <psa03 value="0.0538072363" flag="0"/>
      <psa10 value="0.0073922861" flag="0"/>
      <psa30 value="0.0007333711" flag="0"/>
    </comp>
    <comp name="06.HHN">
      <acc value="0.0255376050" flag="0"/>
      <vel value="0.0111473491" flag="0"/>
      <psa03 value="0.0723192861" flag="0"/>
      <psa10 value="0.0065737942" flag="0"/>
      <psa30 value="0.0005494560" flag="0"/>
    </comp>
    <comp name="06.HHZ">
      <acc value="0.0121014160" flag="0"/>
      <vel value="0.0066550230" flag="0"/>
      <psa03 value="0.0387462786" flag="0"/>
      <psa10 value="0.0050567184" flag="0"/>
      <psa30 value="0.0002254643" flag="0"/>
    </comp>
  </station>
  <station code="MG07" name="MG07" netid="CL" insttype="TRILLIUM-40" lat="38.4155" lon="21.9488">
    <comp name="07.HHE">
      <acc value="0.0475422806" flag="0"/>
      <vel value="0.0232071018" flag="0"/>
      <psa03 value="0.1194218765" flag="0"/>
      <psa10 value="0.0175658227" flag="0"/>
      <psa30 value="0.0011520651" flag="0"/>
    </comp>
    <comp name="07.HHN">
      <acc value="0.0495884013" flag="0"/>
      <vel value="0.0265072934" flag="0"/>
      <psa03 value="0.1198046739" flag="0"/>
      <psa10 value="0.0208924980" flag="0"/>
      <psa30 value="0.0010722650" flag="0"/>
    </comp>
    <comp name="07.HHZ">
      <acc value="0.0369066556" flag="0"/>
      <vel value="0.0145970782" flag="0"/>
      <psa03 value="0.1129283718" flag="0"/>
      <psa10 value="0.0070233345" flag="0"/>
      <psa30 value="0.0005072675" flag="0"/>
    </comp>
  </station>
  <station code="PSAM" name="PSAM" netid="CL" insttype="CMG40-T" lat="38.3218" lon="22.1842">
    <comp name="00.HHE">
      <acc value="0.0311757279" flag="0"/>
      <vel value="0.0166776601" flag="0"/>
      <psa03 value="0.0566794940" flag="0"/>
      <psa10 value="0.0267324586" flag="0"/>
      <psa30 value="0.0013634427" flag="0"/>
    </comp>
    <comp name="00.HHN">
      <acc value="0.0299353668" flag="0"/>
      <vel value="0.0203237234" flag="0"/>
      <psa03 value="0.0811240326" flag="0"/>
      <psa10 value="0.0164332432" flag="0"/>
      <psa30 value="0.0012161027" flag="0"/>
    </comp>
    <comp name="00.HHZ">
      <acc value="0.0143300651" flag="0"/>
      <vel value="0.0060150164" flag="0"/>
      <psa03 value="0.0255335839" flag="0"/>
      <psa10 value="0.0094225728" flag="0"/>
      <psa30 value="0.0004131859" flag="0"/>
    </comp>
  </station>
  <station code="ATAL" name="ATAL" netid="HA" insttype="120" lat="38.6926" lon="23.0213">
    <comp name="--.HHZ">
      <acc value="0.0041061316" flag="0"/>
      <vel value="0.0016556798" flag="0"/>
      <psa03 value="0.0081482454" flag="0"/>
      <psa10 value="0.0011710912" flag="0"/>
      <psa30 value="0.0001328552" flag="0"/>
    </comp>
    <comp name="--.HHN">
      <acc value="0.0050913932" flag="0"/>
      <vel value="0.0019026789" flag="0"/>
      <psa03 value="0.0070303768" flag="0"/>
      <psa10 value="0.0037963006" flag="0"/>
      <psa30 value="0.0001882047" flag="0"/>
    </comp>
    <comp name="--.HHE">
      <acc value="0.0050463189" flag="0"/>
      <vel value="0.0015447557" flag="0"/>
      <psa03 value="0.0078377056" flag="0"/>
      <psa10 value="0.0015267536" flag="0"/>
      <psa30 value="0.0001463771" flag="0"/>
    </comp>
  </station>
  <station code="AXAR" name="AXAR" netid="HA" insttype="30" lat="38.7664" lon="22.659">
    <comp name="--.HHE">
      <acc value="0.1148416152" flag="0"/>
      <vel value="0.0360839229" flag="0"/>
      <psa03 value="0.3038097632" flag="0"/>
      <psa10 value="0.0195832280" flag="0"/>
      <psa30 value="0.0014886086" flag="0"/>
    </comp>
    <comp name="--.HHN">
      <acc value="0.0816805311" flag="0"/>
      <vel value="0.0287707543" flag="0"/>
      <psa03 value="0.2891688538" flag="0"/>
      <psa10 value="0.0143084005" flag="0"/>
      <psa30 value="0.0008109011" flag="0"/>
    </comp>
    <comp name="--.HHZ">
      <acc value="0.0492290001" flag="0"/>
      <vel value="0.0193070842" flag="0"/>
      <psa03 value="0.1079757232" flag="0"/>
      <psa10 value="0.0072550619" flag="0"/>
      <psa30 value="0.0005740788" flag="0"/>
    </comp>
  </station>
  <station code="KALE" name="KALE" netid="HA" insttype="40," lat="38.3911" lon="22.1398">
    <comp name="--.HHN">
      <acc value="0.0575722909" flag="0"/>
      <vel value="0.0217363273" flag="0"/>
      <psa03 value="0.1072051434" flag="0"/>
      <psa10 value="0.0079031552" flag="0"/>
      <psa30 value="0.0007971001" flag="0"/>
    </comp>
    <comp name="--.HHE">
      <acc value="0.0442265401" flag="0"/>
      <vel value="0.0217961212" flag="0"/>
      <psa03 value="0.0771985049" flag="0"/>
      <psa10 value="0.0140971687" flag="0"/>
      <psa30 value="0.0008210911" flag="0"/>
    </comp>
    <comp name="--.HHZ">
      <acc value="0.0228432538" flag="0"/>
      <vel value="0.0086910889" flag="0"/>
      <psa03 value="0.0478403875" flag="0"/>
      <psa10 value="0.0103969687" flag="0"/>
      <psa30 value="0.0003166441" flag="0"/>
    </comp>
  </station>
  <station code="THAL" name="THAL" netid="HA" insttype="30" lat="38.0357" lon="22.6634">
    <comp name="--.HHN">
      <acc value="0.0217244442" flag="0"/>
      <vel value="0.0104573939" flag="0"/>
      <psa03 value="0.0798315172" flag="0"/>
      <psa10 value="0.0059190260" flag="0"/>
      <psa30 value="0.0003828355" flag="0"/>
    </comp>
    <comp name="--.HHE">
      <acc value="0.0264397106" flag="0"/>
      <vel value="0.0103206541" flag="0"/>
      <psa03 value="0.0671668442" flag="0"/>
      <psa10 value="0.0063798086" flag="0"/>
      <psa30 value="0.0003800629" flag="0"/>
    </comp>
    <comp name="--.HHZ">
      <acc value="0.0156023739" flag="0"/>
      <vel value="0.0056085871" flag="0"/>
      <psa03 value="0.0319185702" flag="0"/>
      <psa10 value="0.0039642251" flag="0"/>
      <psa30 value="0.0002005285" flag="0"/>
    </comp>
  </station>
  <station code="KLV1" name="KLV1" netid="HI" insttype="CMG-5TD,ACCELEROMETER,GURALP" lat="38.0326" lon="22.108">
    <comp name="--.HNN">
      <acc value="0.0236638505" flag="0"/>
      <vel value="0.0129939106" flag="0"/>
      <psa03 value="0.0484051127" flag="0"/>
      <psa10 value="0.0137727998" flag="0"/>
      <psa30 value="0.0007253545" flag="0"/>
    </comp>
    <comp name="--.HNE">
      <acc value="0.0246277871" flag="0"/>
      <vel value="0.0105162416" flag="0"/>
      <psa03 value="0.0612389893" flag="0"/>
      <psa10 value="0.0096982852" flag="0"/>
      <psa30 value="0.0005459835" flag="0"/>
    </comp>
    <comp name="--.HNZ">
      <acc value="0.0126401959" flag="0"/>
      <vel value="0.0049522418" flag="0"/>
      <psa03 value="0.0273155022" flag="0"/>
      <psa10 value="0.0104906026" flag="0"/>
      <psa30 value="0.0004049777" flag="0"/>
    </comp>
  </station>
  <station code="LAM2" name="LAM2" netid="HI" insttype="CMG-5TD,ACCELEROMETER,GURALP" lat="38.902" lon="22.4313">
    <comp name="--.HNE">
      <acc value="0.1273095978" flag="0"/>
      <vel value="0.0319650417" flag="0"/>
      <psa03 value="0.1927856642" flag="0"/>
      <psa10 value="0.0107715212" flag="0"/>
      <psa30 value="0.0010958585" flag="0"/>
    </comp>
    <comp name="--.HNN">
      <acc value="0.1336656767" flag="0"/>
      <vel value="0.0452771571" flag="0"/>
      <psa03 value="0.1955646024" flag="0"/>
      <psa10 value="0.0137013597" flag="0"/>
      <psa30 value="0.0010547357" flag="0"/>
    </comp>
    <comp name="--.HNZ">
      <acc value="0.0613964347" flag="0"/>
      <vel value="0.0119738654" flag="0"/>
      <psa03 value="0.0523279290" flag="0"/>
      <psa10 value="0.0041073452" flag="0"/>
      <psa30 value="0.0003725892" flag="0"/>
    </comp>
  </station>
  <station code="MSL1" name="MSL1" netid="HI" insttype="CMG-5TD,ACCELEROMETER,GURALP" lat="38.3727" lon="21.4243">
    <comp name="--.HNN">
      <acc value="0.0654373961" flag="0"/>
      <vel value="0.0397693732" flag="0"/>
      <psa03 value="0.1878883304" flag="0"/>
      <psa10 value="0.0204631206" flag="0"/>
      <psa30 value="0.0015802812" flag="0"/>
    </comp>
    <comp name="--.HNE">
      <acc value="0.0633010552" flag="0"/>
      <vel value="0.0453734775" flag="0"/>
      <psa03 value="0.1485187279" flag="0"/>
      <psa10 value="0.0389350807" flag="0"/>
      <psa30 value="0.0020052194" flag="0"/>
    </comp>
    <comp name="--.HNZ">
      <acc value="0.0254214279" flag="0"/>
      <vel value="0.0114924514" flag="0"/>
      <psa03 value="0.0782222050" flag="0"/>
      <psa10 value="0.0165233422" flag="0"/>
      <psa30 value="0.0007280591" flag="0"/>
    </comp>
  </station>
  <station code="EVR" name="EVR" netid="HL" insttype="DR24" lat="38.9166" lon="21.8105">
    <comp name="--.HHE">
      <acc value="0.1949116281" flag="0"/>
      <vel value="0.0686388455" flag="0"/>
      <psa03 value="0.5722164827" flag="0"/>
      <psa10 value="0.0225166268" flag="0"/>
      <psa30 value="0.0024678187" flag="0"/>
    </comp>
    <comp name="--.HHZ">
      <acc value="0.1368585950" flag="0"/>
      <vel value="0.0300306616" flag="0"/>
      <psa03 value="0.1232944055" flag="0"/>
      <psa10 value="0.0126478951" flag="0"/>
      <psa30 value="0.0008638016" flag="0"/>
    </comp>
    <comp name="--.HHN">
      <acc value="0.2757049166" flag="0"/>
      <vel value="0.0971996215" flag="0"/>
      <psa03 value="0.4761201733" flag="0"/>
      <psa10 value="0.0153780508" flag="0"/>
      <psa30 value="0.0017380202" flag="0"/>
    </comp>
  </station>
  <station code="JAN" name="JAN" netid="HL" insttype="CMG3EPSC60_DR24" lat="39.6562" lon="20.8487">
    <comp name="--.HHE">
      <acc value="0.0082917142" flag="0"/>
      <vel value="0.0037130040" flag="0"/>
      <psa03 value="0.0235286034" flag="0"/>
      <psa10 value="0.0042130756" flag="0"/>
      <psa30 value="0.0002875398" flag="0"/>
    </comp>
    <comp name="--.HHN">
      <acc value="0.0079175387" flag="0"/>
      <vel value="0.0041311279" flag="0"/>
      <psa03 value="0.0233157501" flag="0"/>
      <psa10 value="0.0029597030" flag="0"/>
      <psa30 value="0.0004593007" flag="0"/>
    </comp>
    <comp name="--.HHZ">
      <acc value="0.0061253004" flag="0"/>
      <vel value="0.0023577916" flag="0"/>
      <psa03 value="0.0134246610" flag="0"/>
      <psa10 value="0.0020967558" flag="0"/>
      <psa30 value="0.0002821044" flag="0"/>
    </comp>
  </station>
  <station code="KLV" name="KLV" netid="HL" insttype="120" lat="38.0435" lon="22.1504">
    <comp name="--.HHZ">
      <acc value="0.0065828126" flag="0"/>
      <vel value="0.0034839780" flag="0"/>
      <psa03 value="0.0148957954" flag="0"/>
      <psa10 value="0.0050355372" flag="0"/>
      <psa30 value="0.0003498099" flag="0"/>
    </comp>
    <comp name="--.HHE">
      <acc value="0.0048236664" flag="0"/>
      <vel value="0.0029270389" flag="0"/>
      <psa03 value="0.0128979022" flag="0"/>
      <psa10 value="0.0055980286" flag="0"/>
      <psa30 value="0.0003052500" flag="0"/>
    </comp>
    <comp name="--.HHN">
      <acc value="0.0052888633" flag="0"/>
      <vel value="0.0050023763" flag="0"/>
      <psa03 value="0.0150866319" flag="0"/>
      <psa10 value="0.0076534243" flag="0"/>
      <psa30 value="0.0003550062" flag="0"/>
    </comp>
  </station>
  <station code="LKR" name="LKR" netid="HL" insttype="30" lat="38.6496" lon="22.9989">
    <comp name="--.HHE">
      <acc value="0.0226803389" flag="0"/>
      <vel value="0.0076820336" flag="0"/>
      <psa03 value="0.0320120226" flag="0"/>
      <psa10 value="0.0017051771" flag="0"/>
      <psa30 value="0.0001399375" flag="0"/>
    </comp>
    <comp name="--.HHZ">
      <acc value="0.0124333202" flag="0"/>
      <vel value="0.0029154429" flag="0"/>
      <psa03 value="0.0113290420" flag="0"/>
      <psa10 value="0.0012362455" flag="0"/>
      <psa30 value="0.0001349834" flag="0"/>
    </comp>
    <comp name="--.HHN">
      <acc value="0.0169246058" flag="0"/>
      <vel value="0.0052269293" flag="0"/>
      <psa03 value="0.0345003780" flag="0"/>
      <psa10 value="0.0016309864" flag="0"/>
      <psa30 value="0.0001655418" flag="0"/>
    </comp>
  </station>
  <station code="RLS" name="RLS" netid="HL" insttype="CMG3ESPC-120s" lat="38.0559" lon="21.4647">
    <comp name="--.HHZ">
      <acc value="0.0066511895" flag="0"/>
      <vel value="0.0019305926" flag="0"/>
      <psa03 value="0.0128886163" flag="0"/>
      <psa10 value="0.0013398431" flag="0"/>
      <psa30 value="0.0001094026" flag="0"/>
    </comp>
    <comp name="--.HHN">
      <acc value="0.0079386086" flag="0"/>
      <vel value="0.0027110066" flag="0"/>
      <psa03 value="0.0183998389" flag="0"/>
      <psa10 value="0.0016427073" flag="0"/>
      <psa30 value="0.0001655829" flag="0"/>
    </comp>
    <comp name="--.HHE">
      <acc value="0.0098114027" flag="0"/>
      <vel value="0.0044254779" flag="0"/>
      <psa03 value="0.0305799593" flag="0"/>
      <psa10 value="0.0025416398" flag="0"/>
      <psa30 value="0.0001224784" flag="0"/>
    </comp>
  </station>
  <station code="TETR" name="TETR" netid="HL" insttype="60" lat="39.3445" lon="21.2747">
    <comp name="--.HHN">
      <acc value="0.0490665609" flag="0"/>
      <vel value="0.0169654808" flag="0"/>
      <psa03 value="0.1327807238" flag="0"/>
      <psa10 value="0.0075141968" flag="0"/>
      <psa30 value="0.0009735404" flag="0"/>
    </comp>
    <comp name="--.HHE">
      <acc value="0.0386309039" flag="0"/>
      <vel value="0.0157540664" flag="0"/>
      <psa03 value="0.0991678445" flag="0"/>
      <psa10 value="0.0118532737" flag="0"/>
      <psa30 value="0.0006835239" flag="0"/>
    </comp>
    <comp name="--.HHZ">
      <acc value="0.0216092223" flag="0"/>
      <vel value="0.0081687639" flag="0"/>
      <psa03 value="0.0477679812" flag="0"/>
      <psa10 value="0.0073916633" flag="0"/>
      <psa30 value="0.0004452951" flag="0"/>
    </comp>
  </station>
  <station code="THL" name="THL" netid="HL" insttype="120" lat="39.5647" lon="22.0144">
    <comp name="--.HHZ">
      <acc value="0.0063170210" flag="0"/>
      <vel value="0.0025423439" flag="0"/>
      <psa03 value="0.0139123538" flag="0"/>
      <psa10 value="0.0015953583" flag="0"/>
      <psa30 value="0.0001092638" flag="0"/>
    </comp>
    <comp name="--.HHE">
