<?xml version="1.0" encoding="UTF-8" standalone="yes"?>
<!DOCTYPE earthquake SYSTEM "stationlist.dtd">
<stationlist created="" xmlns="ch.ethz.sed.shakemap.usgs.xml">
  <station code="BCI" name="BCI" netid="AC" insttype="" lat="42.3666" lon="20.0675">
    <comp name="--.HHE">
      <acc value="0.0942691850" flag="0"/>
      <vel value="0.0207286079" flag="0"/>
      <psa03 value="0.0871650345" flag="0"/>
      <psa10 value="0.0150921325" flag="0"/>
      <psa30 value="0.0008153501" flag="0"/>
    </comp>
    <comp name="--.HHN">
      <acc value="0.1302774619" flag="0"/>
      <vel value="0.0268432914" flag="0"/>
      <psa03 value="0.1304342782" flag="0"/>
      <psa10 value="0.0175156503" flag="0"/>
      <psa30 value="0.0007661838" flag="0"/>
    </comp>
    <comp name="--.HHZ">
      <acc value="0.0671228217" flag="0"/>
      <vel value="0.0146557007" flag="0"/>
      <psa03 value="0.0684414714" flag="0"/>
      <psa10 value="0.0090819466" flag="0"/>
      <psa30 value="0.0006489887" flag="0"/>
    </comp>
  </station>
  <station code="PHP" name="PHP" netid="AC" insttype="" lat="41.6847" lon="20.4408">
    <comp name="--.HHE">
      <acc value="0.0840549871" flag="0"/>
      <vel value="0.0100929289" flag="0"/>
      <psa03 value="0.0487500342" flag="0"/>
      <psa10 value="0.0039286821" flag="0"/>
      <psa30 value="0.0004921769" flag="0"/>
    </comp>
    <comp name="--.HHN">
      <acc value="0.0406993890" flag="0"/>
      <vel value="0.0081434804" flag="0"/>
      <psa03 value="0.0314254026" flag="0"/>
      <psa10 value="0.0068185111" flag="0"/>
      <psa30 value="0.0003012115" flag="0"/>
    </comp>
    <comp name="--.HHZ">
      <acc value="0.0246537367" flag="0"/>
      <vel value="0.0049298738" flag="0"/>
      <psa03 value="0.0266123725" flag="0"/>
      <psa10 value="0.0024750127" flag="0"/>
      <psa30 value="0.0001395360" flag="0"/>
    </comp>
  </station>
  <station code="PUK" name="PUK" netid="AC" insttype="" lat="42.0426" lon="19.8926">
    <comp name="--.HHE">
      <acc value="0.0739397872" flag="0"/>
      <vel value="0.0156482784" flag="0"/>
      <psa03 value="0.0551742531" flag="0"/>
      <psa10 value="0.0037079935" flag="0"/>
      <psa30 value="0.0002397681" flag="0"/>
    </comp>
    <comp name="--.HHN">
      <acc value="0.1049822982" flag="0"/>
      <vel value="0.0204821859" flag="0"/>
      <psa03 value="0.0641616935" flag="0"/>
      <psa10 value="0.0037010987" flag="0"/>
      <psa30 value="0.0003452136" flag="0"/>
    </comp>
    <comp name="--.HHZ">
      <acc value="0.0483358973" flag="0"/>
      <vel value="0.0090896397" flag="0"/>
      <psa03 value="0.0458182152" flag="0"/>
      <psa10 value="0.0017980791" flag="0"/>
      <psa30 value="0.0001993261" flag="0"/>
    </comp>
  </station>
  <station code="PDG" name="PDG" netid="MN" insttype="" lat="42.4297" lon="19.2608">
    <comp name="--.HHE">
      <acc value="0.0096684756" flag="0"/>
      <vel value="0.0025022423" flag="0"/>
      <psa03 value="0.0172580245" flag="0"/>
      <psa10 value="0.0010763364" flag="0"/>
      <psa30 value="0.0000856531" flag="0"/>
    </comp>
    <comp name="--.HHN">
      <acc value="0.0092360016" flag="0"/>
      <vel value="0.0027222219" flag="0"/>
      <psa03 value="0.0113766149" flag="0"/>
      <psa10 value="0.0010972785" flag="0"/>
      <psa30 value="0.0000970731" flag="0"/>
    </comp>
    <comp name="--.HHZ">
      <acc value="0.0088167446" flag="0"/>
      <vel value="0.0021855759" flag="0"/>
      <psa03 value="0.0128275421" flag="0"/>
      <psa10 value="0.0008078525" flag="0"/>
      <psa30 value="0.0000833620" flag="0"/>
    </comp>
  </station>
</stationlist>
