<stationlist created="1651737611">
	<station code="LSK" name="LSK" netid="AC" source="Albanian Seismological Network (AC)" insttype="" lat="40.149899" lon="20.5987">
		<comp name=".HHE" depth="0.0">
			<acc value="0.028349872098" flag="0"/>
			<vel value="0.00485861031885" flag="0"/>
			<psa03 value="0.0185463783461" flag="0"/>
			<psa10 value="0.00281206401982" flag="0"/>
			<psa30 value="0.000461481404211" flag="0"/>
		</comp>
		<comp name=".HHN" depth="0.0">
			<acc value="0.00115520202806" flag="0"/>
			<vel value="0.0011353003233" flag="0"/>
			<psa03 value="0.0023401459086" flag="0"/>
			<psa10 value="0.00305486565111" flag="0"/>
			<psa30 value="0.000104498107382" flag="0"/>
		</comp>
		<comp name=".HHZ" depth="0.0">
			<acc value="0.000578692864468" flag="0"/>
			<vel value="0.000570456960121" flag="0"/>
			<psa03 value="0.00158022414824" flag="0"/>
			<psa10 value="0.000758700748483" flag="0"/>
			<psa30 value="9.01025248398e-05" flag="0"/>
		</comp>
	</station>
	<station code="VLO" name="VLO" netid="AC" source="Albanian Seismological Network (AC)" insttype="" lat="40.468601" lon="19.495501">
		<comp name=".HHE" depth="0.0">
			<acc value="0.0346546606918" flag="0"/>
			<vel value="0.00293992463233" flag="0"/>
			<psa03 value="0.00239052994291" flag="0"/>
			<psa10 value="0.000815777654546" flag="0"/>
			<psa30 value="9.60808375403e-05" flag="0"/>
		</comp>
		<comp name=".HHN" depth="0.0">
			<acc value="0.0469859370449" flag="0"/>
			<vel value="0.00433497506715" flag="0"/>
			<psa03 value="0.00316375906268" flag="0"/>
			<psa10 value="0.000674751085668" flag="0"/>
			<psa30 value="9.09437654637e-05" flag="0"/>
		</comp>
		<comp name=".HHZ" depth="0.0">
			<acc value="0.0125346262317" flag="0"/>
			<vel value="0.00125703394588" flag="0"/>
			<psa03 value="0.00150767425753" flag="0"/>
			<psa10 value="0.000387780962023" flag="0"/>
			<psa30 value="6.00357999937e-05" flag="0"/>
		</comp>
	</station>
	<station code="LMS2" name="LMS2" netid="HI" source="ITSAK Strong Motion Network" insttype="" lat="40.834985" lon="21.141815">
		<comp name=".HNE" depth="0.0">
			<acc value="0.00314458614061" flag="0"/>
			<vel value="0.00110893828215" flag="0"/>
			<psa03 value="0.00711276350339" flag="0"/>
			<psa10 value="0.000488786403139" flag="0"/>
			<psa30 value="3.70805228089e-05" flag="0"/>
		</comp>
		<comp name=".HNN" depth="0.0">
			<acc value="0.00432421517159" flag="0"/>
			<vel value="0.00140216095036" flag="0"/>
			<psa03 value="0.00763838295851" flag="0"/>
			<psa10 value="0.000525877707912" flag="0"/>
			<psa30 value="3.28989599936e-05" flag="0"/>
		</comp>
		<comp name=".HNZ" depth="0.0">
			<acc value="0.00163141631803" flag="0"/>
			<vel value="0.000635336377058" flag="0"/>
			<psa03 value="0.00398635489676" flag="0"/>
			<psa10 value="0.000247235889883" flag="0"/>
			<psa30 value="3.04826996678e-05" flag="0"/>
		</comp>
	</station>
</stationlist>
