<stationlist created="1778070063">
	<station code="LMS2" name="LMS2" netid="HI" source="ITSAK Strong Motion Network" insttype="" lat="40.834985" lon="21.141815">
		<comp name="--.HNE" depth="0.0">
			<acc value="0.00316782068058856" flag="0"/>
			<vel value="0.00111390528957738" flag="0"/>
			<psa03 value="0.00711276350338708" flag="0"/>
			<psa10 value="0.000488786403138957" flag="0"/>
			<psa30 value="3.70805228089232e-05" flag="0"/>
		</comp>
		<comp name="--.HNN" depth="0.0">
			<acc value="0.00434532428512745" flag="0"/>
			<vel value="0.00140978369976633" flag="0"/>
			<psa03 value="0.00763838295851169" flag="0"/>
			<psa10 value="0.000525877707912124" flag="0"/>
			<psa30 value="3.28989599936171e-05" flag="0"/>
		</comp>
		<comp name="--.HNZ" depth="0.0">
			<acc value="0.00164405996292645" flag="0"/>
			<vel value="0.000637003786950309" flag="0"/>
			<psa03 value="0.00398635489676086" flag="0"/>
			<psa10 value="0.00024723588988299" flag="0"/>
			<psa30 value="3.04826996677876e-05" flag="0"/>
		</comp>
	</station>
	<station code="AMYA" name="AMYA" netid="HL" source="National Observatory of Athens Seismic Network" insttype="" lat="40.6901" lon="21.67899">
		<comp name="00.HNE" depth="0.0">
			<acc value="0.00543528951554111" flag="0"/>
			<vel value="0.000590098038378907" flag="0"/>
			<psa03 value="0.000681658030847495" flag="0"/>
			<psa10 value="0.000172549706938301" flag="0"/>
			<psa30 value="5.29909680736808e-05" flag="0"/>
		</comp>
		<comp name="00.HNN" depth="0.0">
			<acc value="0.00405201732596556" flag="0"/>
			<vel value="0.000446566902667772" flag="0"/>
			<psa03 value="0.000949958926211565" flag="0"/>
			<psa10 value="0.000190253780136934" flag="0"/>
			<psa30 value="0.000115357329357096" flag="0"/>
		</comp>
		<comp name="00.HNZ" depth="0.0">
			<acc value="0.00776123747016962" flag="0"/>
			<vel value="0.000830610509815885" flag="0"/>
			<psa03 value="0.000995303808339586" flag="0"/>
			<psa10 value="0.000146192477502761" flag="0"/>
			<psa30 value="5.47923081069911e-05" flag="0"/>
		</comp>
	</station>
	<station code="NASA" name="NASA" netid="HL" source="National Observatory of Athens Seismic Network" insttype="" lat="40.63111" lon="22.06706">
		<comp name="00.HNE" depth="0.0">
			<acc value="0.00323652339508253" flag="0"/>
			<vel value="0.000581485516754841" flag="0"/>
			<psa03 value="0.00292306929003572" flag="0"/>
			<psa10 value="0.000465482740245886" flag="0"/>
			<psa30 value="4.54015818508769e-05" flag="0"/>
		</comp>
		<comp name="00.HNN" depth="0.0">
			<acc value="0.00334325810731313" flag="0"/>
			<vel value="0.000530395942860895" flag="0"/>
			<psa03 value="0.00305053932284035" flag="0"/>
			<psa10 value="0.000669713564454707" flag="0"/>
			<psa30 value="5.65437131912139e-05" flag="0"/>
		</comp>
		<comp name="00.HNZ" depth="0.0">
			<acc value="0.00461263411090082" flag="0"/>
			<vel value="0.000390281519057347" flag="0"/>
			<psa03 value="0.00186839867458782" flag="0"/>
			<psa10 value="0.000642064799267035" flag="0"/>
			<psa30 value="4.20304828809335e-05" flag="0"/>
		</comp>
	</station>
</stationlist>
