<?xml version="1.0" encoding="UTF-8" standalone="yes"?>
<!DOCTYPE earthquake SYSTEM "stationlist.dtd">
<stationlist created="" xmlns="ch.ethz.sed.shakemap.usgs.xml">
  <station code="BCI" name="BCI" netid="AC" insttype="" lat="42.3666" lon="20.0675">
    <comp name="--.HHE">
      <acc value="0.0942691892" flag="0"/>
      <vel value="0.0207286075" flag="0"/>
      <psa03 value="0.0871650345" flag="0"/>
      <psa10 value="0.0150921327" flag="0"/>
      <psa30 value="0.0008153023" flag="0"/>
    </comp>
    <comp name="--.HHN">
      <acc value="0.1302774671" flag="0"/>
      <vel value="0.0268432916" flag="0"/>
      <psa03 value="0.1304342782" flag="0"/>
      <psa10 value="0.0175156511" flag="0"/>
      <psa30 value="0.0007660730" flag="0"/>
    </comp>
    <comp name="--.HHZ">
      <acc value="0.0671228158" flag="0"/>
      <vel value="0.0146557011" flag="0"/>
      <psa03 value="0.0684414714" flag="0"/>
      <psa10 value="0.0090819481" flag="0"/>
      <psa30 value="0.0006487132" flag="0"/>
    </comp>
  </station>
  <station code="PUK" name="PUK" netid="AC" insttype="" lat="42.0426" lon="19.8926">
    <comp name="--.HHZ">
      <acc value="0.0483358972" flag="0"/>
      <vel value="0.0090896397" flag="0"/>
      <psa03 value="0.0458182152" flag="0"/>
      <psa10 value="0.0017980793" flag="0"/>
      <psa30 value="0.0001993233" flag="0"/>
    </comp>
    <comp name="--.HHE">
      <acc value="0.0739397873" flag="0"/>
      <vel value="0.0156482778" flag="0"/>
      <psa03 value="0.0551742531" flag="0"/>
      <psa10 value="0.0037079939" flag="0"/>
      <psa30 value="0.0002398307" flag="0"/>
    </comp>
    <comp name="--.HHN">
      <acc value="0.1049822981" flag="0"/>
      <vel value="0.0204821857" flag="0"/>
      <psa03 value="0.0641616935" flag="0"/>
      <psa10 value="0.0037010984" flag="0"/>
      <psa30 value="0.0003452252" flag="0"/>
    </comp>
  </station>
  <station code="PDG" name="PDG" netid="MN" insttype="" lat="42.4297" lon="19.2608">
    <comp name="--.HHE">
      <acc value="0.0096684751" flag="0"/>
      <vel value="0.0025022415" flag="0"/>
      <psa03 value="0.0172580245" flag="0"/>
      <psa10 value="0.0010763365" flag="0"/>
      <psa30 value="0.0000856492" flag="0"/>
    </comp>
    <comp name="--.HHN">
      <acc value="0.0092360016" flag="0"/>
      <vel value="0.0027222218" flag="0"/>
      <psa03 value="0.0113766149" flag="0"/>
      <psa10 value="0.0010972785" flag="0"/>
      <psa30 value="0.0000970952" flag="0"/>
    </comp>
    <comp name="--.HHZ">
      <acc value="0.0088167441" flag="0"/>
      <vel value="0.0021855760" flag="0"/>
      <psa03 value="0.0128275421" flag="0"/>
      <psa10 value="0.0008078525" flag="0"/>
      <psa30 value="0.0000833883" flag="0"/>
    </comp>
  </station>
</stationlist>
