<stationlist created="1778070018">
	<station code="RDI1" name="RDI1" netid="HI" source="ITSAK Strong Motion Network" insttype="" lat="36.4514" lon="28.224">
		<comp name="--.HNE" depth="0.0">
			<acc value="0.0505129129909422" flag="0"/>
			<vel value="0.0513565858366661" flag="0"/>
			<psa03 value="0.0972401395988996" flag="0"/>
			<psa10 value="0.0493639276179521" flag="0"/>
			<psa30 value="0.0218585196863323" flag="0"/>
		</comp>
		<comp name="--.HNN" depth="0.0">
			<acc value="0.0397407447462197" flag="0"/>
			<vel value="0.0413939930439483" flag="0"/>
			<psa03 value="0.095272905112553" flag="0"/>
			<psa10 value="0.052839144084145" flag="0"/>
			<psa30 value="0.0195491817040301" flag="0"/>
		</comp>
		<comp name="--.HNZ" depth="0.0">
			<acc value="0.0267446232254794" flag="0"/>
			<vel value="0.0258635332411225" flag="0"/>
			<psa03 value="0.0799966900128979" flag="0"/>
			<psa10 value="0.03707954258773" flag="0"/>
			<psa30 value="0.00887953405889013" flag="0"/>
		</comp>
	</station>
	<station code="KLNA" name="KLNA" netid="HL" source="National Observatory of Athens Seismic Network" insttype="" lat="36.95708" lon="26.97274">
		<comp name="00.HNE" depth="0.0">
			<acc value="0.211651375496561" flag="0"/>
			<vel value="0.0805798760570929" flag="0"/>
			<psa03 value="0.749602074126022" flag="0"/>
			<psa10 value="0.0175409620026562" flag="0"/>
			<psa30 value="0.00382787191106168" flag="0"/>
		</comp>
		<comp name="00.HNN" depth="0.0">
			<acc value="0.195444293736396" flag="0"/>
			<vel value="0.0869411986178332" flag="0"/>
			<psa03 value="0.705584158156049" flag="0"/>
			<psa10 value="0.0193580267492827" flag="0"/>
			<psa30 value="0.00278209659191176" flag="0"/>
		</comp>
		<comp name="00.HNZ" depth="0.0">
			<acc value="0.1448362552287" flag="0"/>
			<vel value="0.0345339372712096" flag="0"/>
			<psa03 value="0.138134161126871" flag="0"/>
			<psa10 value="0.0068524178453119" flag="0"/>
			<psa30 value="0.00212658816769519" flag="0"/>
		</comp>
	</station>
	<station code="NISR" name="NISR" netid="HL" source="National Observatory of Athens Seismic Network" insttype="" lat="36.6106" lon="27.131">
		<comp name="--.HNE" depth="0.0">
			<acc value="3.05177489266866" flag="0"/>
			<vel value="1.28043248562286" flag="0"/>
			<psa03 value="6.34109806660739" flag="0"/>
			<psa10 value="0.599676305611683" flag="0"/>
			<psa30 value="0.0623256554354602" flag="0"/>
		</comp>
		<comp name="--.HNN" depth="0.0">
			<acc value="3.67492207563606" flag="0"/>
			<vel value="0.887256701413018" flag="0"/>
			<psa03 value="3.74544845091248" flag="0"/>
			<psa10 value="0.21742266318425" flag="0"/>
			<psa30 value="0.0443304333403301" flag="0"/>
		</comp>
		<comp name="--.HNZ" depth="0.0">
			<acc value="1.41340678297012" flag="0"/>
			<vel value="0.334697843747128" flag="0"/>
			<psa03 value="2.04150190614783" flag="0"/>
			<psa10 value="0.235595572050272" flag="0"/>
			<psa30 value="0.0151338492099185" flag="0"/>
		</comp>
	</station>
	<station code="RODB" name="RODB" netid="HL" source="National Observatory of Athens Seismic Network" insttype="" lat="36.4471" lon="28.22116">
		<comp name="00.HNE" depth="0.0">
			<acc value="0.0451753080938583" flag="0"/>
			<vel value="0.041511582832761" flag="0"/>
			<psa03 value="0.11387425194358" flag="0"/>
			<psa10 value="0.0635474047036137" flag="0"/>
			<psa30 value="0.0192763236284857" flag="0"/>
		</comp>
		<comp name="00.HNN" depth="0.0">
			<acc value="0.0509028235937263" flag="0"/>
			<vel value="0.0516946034648028" flag="0"/>
			<psa03 value="0.170340284207828" flag="0"/>
			<psa10 value="0.0476753332568287" flag="0"/>
			<psa30 value="0.0179140217160349" flag="0"/>
		</comp>
		<comp name="00.HNZ" depth="0.0">
			<acc value="0.0300643676765147" flag="0"/>
			<vel value="0.0291463756000745" flag="0"/>
			<psa03 value="0.0863254478038013" flag="0"/>
			<psa10 value="0.0406487440299565" flag="0"/>
			<psa30 value="0.00823735151742722" flag="0"/>
		</comp>
	</station>
	<station code="SMG" name="SMG" netid="HL" source="National Observatory of Athens Seismic Network" insttype="" lat="37.70425" lon="26.83772">
		<comp name="00.HNE" depth="0.0">
			<acc value="0.0125844819334046" flag="0"/>
			<vel value="0.00947823944176768" flag="0"/>
			<psa03 value="0.0702932867934369" flag="0"/>
			<psa10 value="0.0126595223812354" flag="0"/>
			<psa30 value="0.00303596924306462" flag="0"/>
		</comp>
		<comp name="00.HNN" depth="0.0">
			<acc value="0.015837054267167" flag="0"/>
			<vel value="0.00813822914552316" flag="0"/>
			<psa03 value="0.0631428912400112" flag="0"/>
			<psa10 value="0.00430914936626185" flag="0"/>
			<psa30 value="0.00157062550456332" flag="0"/>
		</comp>
		<comp name="00.HNZ" depth="0.0">
			<acc value="0.00675723727925431" flag="0"/>
			<vel value="0.00435267521956191" flag="0"/>
			<psa03 value="0.0267400526472533" flag="0"/>
			<psa10 value="0.00547618073886763" flag="0"/>
			<psa30 value="0.0011187316104783" flag="0"/>
		</comp>
	</station>
	<station code="CAME" name="CAME" netid="KO" source="Bogazici University Kandilli Observatory And Earthquake Research Institute (KOERI)" insttype="" lat="36.9435" lon="29.3023">
		<comp name="--.HNE" depth="0.0">
			<acc value="0.0110634917910029" flag="0"/>
			<vel value="0.00916525541946649" flag="0"/>
			<psa03 value="0.0240458090626656" flag="0"/>
			<psa10 value="0.00798644468775226" flag="0"/>
			<psa30 value="0.0015955651775303" flag="0"/>
		</comp>
		<comp name="--.HNN" depth="0.0">
			<acc value="0.00828910029294023" flag="0"/>
			<vel value="0.00607735272899398" flag="0"/>
			<psa03 value="0.0220555287788784" flag="0"/>
			<psa10 value="0.00564728488615274" flag="0"/>
			<psa30 value="0.00191482580614436" flag="0"/>
		</comp>
		<comp name="--.HNZ" depth="0.0">
			<acc value="0.00516732755521576" flag="0"/>
			<vel value="0.00486214311313149" flag="0"/>
			<psa03 value="0.0118357723430671" flag="0"/>
			<psa10 value="0.00475754172628611" flag="0"/>
			<psa30 value="0.00209518379564174" flag="0"/>
		</comp>
	</station>
	<station code="DATC" name="DATC" netid="KO" source="Bogazici University Kandilli Observatory And Earthquake Research Institute (KOERI)" insttype="" lat="36.7584" lon="27.6602">
		<comp name="--.HNE" depth="0.0">
			<acc value="0.347468729370082" flag="0"/>
			<vel value="0.153359918536436" flag="0"/>
			<psa03 value="0.55318018714071" flag="0"/>
			<psa10 value="0.0968400026750419" flag="0"/>
			<psa30 value="0.0135969732327637" flag="0"/>
		</comp>
		<comp name="--.HNN" depth="0.0">
			<acc value="0.24439055734568" flag="0"/>
			<vel value="0.0824152623795404" flag="0"/>
			<psa03 value="0.401722320465615" flag="0"/>
			<psa10 value="0.0692684686962789" flag="0"/>
			<psa30 value="0.00603023280665953" flag="0"/>
		</comp>
		<comp name="--.HNZ" depth="0.0">
			<acc value="0.335409043266592" flag="0"/>
			<vel value="0.104499986852435" flag="0"/>
			<psa03 value="0.426329575575475" flag="0"/>
			<psa10 value="0.064068996756436" flag="0"/>
			<psa30 value="0.00595204762728417" flag="0"/>
		</comp>
	</station>
	<station code="NAZL" name="NAZL" netid="KO" source="Bogazici University Kandilli Observatory And Earthquake Research Institute (KOERI)" insttype="" lat="37.9641" lon="28.2922">
		<comp name="--.HNE" depth="0.0">
			<acc value="0.00981750263326114" flag="0"/>
			<vel value="0.00746221357252855" flag="0"/>
			<psa03 value="0.0235850910423684" flag="0"/>
			<psa10 value="0.00537774468668483" flag="0"/>
			<psa30 value="0.00147677939188737" flag="0"/>
		</comp>
		<comp name="--.HNN" depth="0.0">
			<acc value="0.0133482952790164" flag="0"/>
			<vel value="0.00836193884171775" flag="0"/>
			<psa03 value="0.0268376554671254" flag="0"/>
			<psa10 value="0.00642940060372245" flag="0"/>
			<psa30 value="0.00126238664775428" flag="0"/>
		</comp>
		<comp name="--.HNZ" depth="0.0">
			<acc value="0.00355525498037925" flag="0"/>
			<vel value="0.00270123715885021" flag="0"/>
			<psa03 value="0.0146499314235543" flag="0"/>
			<psa10 value="0.00343345909043845" flag="0"/>
			<psa30 value="0.00102922213924813" flag="0"/>
		</comp>
	</station>
	<station code="YKAV" name="YKAV" netid="KO" source="Bogazici University Kandilli Observatory And Earthquake Research Institute (KOERI)" insttype="" lat="37.1246" lon="27.2801">
		<comp name="--.HNE" depth="0.0">
			<acc value="0.0528316406722726" flag="0"/>
			<vel value="0.0214765436545698" flag="0"/>
			<psa03 value="0.128416798649456" flag="0"/>
			<psa10 value="0.0282078798836233" flag="0"/>
			<psa30 value="0.00197389138561731" flag="0"/>
		</comp>
		<comp name="--.HNN" depth="0.0">
			<acc value="0.0325710192387769" flag="0"/>
			<vel value="0.0143470829822735" flag="0"/>
			<psa03 value="0.0645416922371679" flag="0"/>
			<psa10 value="0.0114518992571132" flag="0"/>
			<psa30 value="0.0019401385246549" flag="0"/>
		</comp>
		<comp name="--.HNZ" depth="0.0">
			<acc value="0.0259176845653635" flag="0"/>
			<vel value="0.0144731353943825" flag="0"/>
			<psa03 value="0.07364747774238" flag="0"/>
			<psa10 value="0.027889286903402" flag="0"/>
			<psa30 value="0.0017632288885957" flag="0"/>
		</comp>
	</station>
</stationlist>
