<?xml version="1.0" encoding="UTF-8" standalone="yes"?>
<!DOCTYPE earthquake SYSTEM "stationlist.dtd">
<stationlist created="" xmlns="ch.ethz.sed.shakemap.usgs.xml">
  <station code="KARP" name="KARP" netid="GE" insttype="STS-2/N" lat="35.5471" lon="27.1611">
    <comp name="--.HHE">
      <acc value="0.0705939109" flag="0"/>
      <vel value="0.0271023840" flag="0"/>
      <psa03 value="0.0694643896" flag="0"/>
      <psa10 value="0.0412352989" flag="0"/>
      <psa30 value="0.0031742347" flag="0"/>
    </comp>
    <comp name="--.HHN">
      <acc value="0.0591762973" flag="0"/>
      <vel value="0.0195987060" flag="0"/>
      <psa03 value="0.0732299454" flag="0"/>
      <psa10 value="0.0225093776" flag="0"/>
      <psa30 value="0.0021348197" flag="0"/>
    </comp>
    <comp name="--.HHZ">
      <acc value="0.0340699126" flag="0"/>
      <vel value="0.0154435523" flag="0"/>
      <psa03 value="0.0715297151" flag="0"/>
      <psa10 value="0.0156128167" flag="0"/>
      <psa30 value="0.0020405920" flag="0"/>
    </comp>
  </station>
  <station code="THERA" name="THERA" netid="GE" insttype="STS-2/N" lat="36.367" lon="25.4753">
    <comp name="--.HHE">
      <acc value="0.0122334284" flag="0"/>
      <vel value="0.0102701606" flag="0"/>
      <psa03 value="0.0411886993" flag="0"/>
      <psa10 value="0.0084601520" flag="0"/>
      <psa30 value="0.0019478370" flag="0"/>
    </comp>
    <comp name="--.HHZ">
      <acc value="0.0119469256" flag="0"/>
      <vel value="0.0060909439" flag="0"/>
      <psa03 value="0.0303883381" flag="0"/>
      <psa10 value="0.0085274741" flag="0"/>
      <psa30 value="0.0018333806" flag="0"/>
    </comp>
    <comp name="--.HHN">
      <acc value="0.0091447605" flag="0"/>
      <vel value="0.0053827916" flag="0"/>
      <psa03 value="0.0469795047" flag="0"/>
      <psa10 value="0.0065251106" flag="0"/>
      <psa30 value="0.0009684751" flag="0"/>
    </comp>
  </station>
  <station code="DATC" name="DATC" netid="KO" insttype="CMG-5T" lat="36.7584" lon="27.6602">
    <comp name="--.HNE">
      <acc value="0.3428051273" flag="0"/>
      <vel value="0.1526554474" flag="0"/>
      <psa03 value="0.5440767604" flag="0"/>
      <psa10 value="0.0970494051" flag="0"/>
      <psa30 value="0.0134735459" flag="0"/>
    </comp>
    <comp name="--.HNZ">
      <acc value="0.3373195611" flag="0"/>
      <vel value="0.1019355963" flag="0"/>
      <psa03 value="0.4195195780" flag="0"/>
      <psa10 value="0.0640897223" flag="0"/>
      <psa30 value="0.0057743875" flag="0"/>
    </comp>
    <comp name="--.HNN">
      <acc value="0.2445883899" flag="0"/>
      <vel value="0.0806827079" flag="0"/>
      <psa03 value="0.3939954577" flag="0"/>
      <psa10 value="0.0694245763" flag="0"/>
      <psa30 value="0.0058246853" flag="0"/>
    </comp>
  </station>
  <station code="YKAV" name="YKAV" netid="KO" insttype="CMG-5T" lat="37.1246" lon="27.2801">
    <comp name="--.HNE">
      <acc value="0.0527891570" flag="0"/>
      <vel value="0.0214235857" flag="0"/>
      <psa03 value="0.1289845606" flag="0"/>
      <psa10 value="0.0282063292" flag="0"/>
      <psa30 value="0.0018673989" flag="0"/>
    </comp>
    <comp name="--.HNN">
      <acc value="0.0325767139" flag="0"/>
      <vel value="0.0141440539" flag="0"/>
      <psa03 value="0.0645143884" flag="0"/>
      <psa10 value="0.0114633138" flag="0"/>
      <psa30 value="0.0018396702" flag="0"/>
    </comp>
    <comp name="--.HNZ">
      <acc value="0.0260441291" flag="0"/>
      <vel value="0.0144634631" flag="0"/>
      <psa03 value="0.0719733567" flag="0"/>
      <psa10 value="0.0278462395" flag="0"/>
      <psa30 value="0.0016810772" flag="0"/>
    </comp>
  </station>
</stationlist>
