<?xml version="1.0" encoding="UTF-8" standalone="yes"?>
<!DOCTYPE earthquake SYSTEM "stationlist.dtd">
<stationlist created="" xmlns="ch.ethz.sed.shakemap.usgs.xml">
  <station code="MYT1" name="MYT1" netid="HI" insttype="CMG-5TD,ACCELEROMETER,GURALP" lat="39.085" lon="26.5694">
    <comp name="--.HNE">
      <acc value="0.0280103083" flag="0"/>
      <vel value="0.0092537981" flag="0"/>
      <psa03 value="0.0477707093" flag="0"/>
      <psa10 value="0.0119320177" flag="0"/>
      <psa30 value="0.0005817022" flag="0"/>
    </comp>
    <comp name="--.HNN">
      <acc value="0.0225460130" flag="0"/>
      <vel value="0.0088125726" flag="0"/>
      <psa03 value="0.0326900267" flag="0"/>
      <psa10 value="0.0079346142" flag="0"/>
      <psa30 value="0.0007675988" flag="0"/>
    </comp>
    <comp name="--.HNZ">
      <acc value="0.0243010084" flag="0"/>
      <vel value="0.0061391419" flag="0"/>
      <psa03 value="0.0259554660" flag="0"/>
      <psa10 value="0.0050319060" flag="0"/>
      <psa30 value="0.0003669126" flag="0"/>
    </comp>
  </station>
  <station code="PRK" name="PRK" netid="HL" insttype="120" lat="39.2456" lon="26.265">
    <comp name="--.HHN">
      <acc value="0.0595318948" flag="0"/>
      <vel value="0.0229775898" flag="0"/>
      <psa03 value="0.0988852980" flag="0"/>
      <psa10 value="0.0258691735" flag="0"/>
      <psa30 value="0.0013342380" flag="0"/>
    </comp>
    <comp name="--.HHE">
      <acc value="0.0666110263" flag="0"/>
      <vel value="0.0316793283" flag="0"/>
      <psa03 value="0.1837859102" flag="0"/>
      <psa10 value="0.0371622368" flag="0"/>
      <psa30 value="0.0019519874" flag="0"/>
    </comp>
    <comp name="--.HHZ">
      <acc value="0.0705469490" flag="0"/>
      <vel value="0.0253143729" flag="0"/>
      <psa03 value="0.0775040380" flag="0"/>
      <psa10 value="0.0121770630" flag="0"/>
      <psa30 value="0.0010940392" flag="0"/>
    </comp>
  </station>
  <station code="CHOS" name="CHOS" netid="HT" insttype="100" lat="38.3869" lon="26.0506">
    <comp name="--.HHN">
      <acc value="0.0442865484" flag="0"/>
      <vel value="0.0134965320" flag="0"/>
      <psa03 value="0.0668442059" flag="0"/>
      <psa10 value="0.0050623508" flag="0"/>
      <psa30 value="0.0004190832" flag="0"/>
    </comp>
    <comp name="--.HHE">
      <acc value="0.0765121589" flag="0"/>
      <vel value="0.0267370096" flag="0"/>
      <psa03 value="0.1709621732" flag="0"/>
      <psa10 value="0.0082954728" flag="0"/>
      <psa30 value="0.0006551693" flag="0"/>
    </comp>
    <comp name="--.HHZ">
      <acc value="0.0340270701" flag="0"/>
      <vel value="0.0083134971" flag="0"/>
      <psa03 value="0.0535029813" flag="0"/>
      <psa10 value="0.0036177887" flag="0"/>
      <psa30 value="0.0004561015" flag="0"/>
    </comp>
  </station>
  <station code="EZN" name="EZN" netid="KO" insttype="120s," lat="39.8255" lon="26.3247">
    <comp name="--.HHN">
      <acc value="0.0381157577" flag="0"/>
      <vel value="0.0144531148" flag="0"/>
      <psa03 value="0.0869514936" flag="0"/>
      <psa10 value="0.0099104331" flag="0"/>
      <psa30 value="0.0007055995" flag="0"/>
    </comp>
    <comp name="--.HHE">
      <acc value="0.0282546471" flag="0"/>
      <vel value="0.0093662154" flag="0"/>
      <psa03 value="0.0336271301" flag="0"/>
      <psa10 value="0.0046474375" flag="0"/>
      <psa30 value="0.0003575898" flag="0"/>
    </comp>
    <comp name="--.HHZ">
      <acc value="0.0199571973" flag="0"/>
      <vel value="0.0067382210" flag="0"/>
      <psa03 value="0.0388431815" flag="0"/>
      <psa10 value="0.0033334351" flag="0"/>
      <psa30 value="0.0003771037" flag="0"/>
    </comp>
  </station>
</stationlist>
