<stationlist created="1778136184">
	<station code="MYT1" name="MYT1" netid="HI" source="ITSAK Strong Motion Network" insttype="" lat="39.085" lon="26.5694">
		<comp name="--.HNE" depth="0.0">
			<acc value="0.028005914121038" flag="0"/>
			<vel value="0.00935455005780619" flag="0"/>
			<psa03 value="0.0482768409411152" flag="0"/>
			<psa10 value="0.0119394578360858" flag="0"/>
			<psa30 value="0.000591939393559735" flag="0"/>
		</comp>
		<comp name="--.HNN" depth="0.0">
			<acc value="0.0220880115162565" flag="0"/>
			<vel value="0.00890893617512727" flag="0"/>
			<psa03 value="0.0330197484842846" flag="0"/>
			<psa10 value="0.00796500762218474" flag="0"/>
			<psa30 value="0.000792831901275775" flag="0"/>
		</comp>
		<comp name="--.HNZ" depth="0.0">
			<acc value="0.0244403165637566" flag="0"/>
			<vel value="0.00621639288319887" flag="0"/>
			<psa03 value="0.0263979019047803" flag="0"/>
			<psa10 value="0.00502141784876864" flag="0"/>
			<psa30 value="0.000381651022453858" flag="0"/>
		</comp>
	</station>
	<station code="PRK" name="PRK" netid="HL" source="National Observatory of Athens Seismic Network" insttype="" lat="39.24565" lon="26.26499">
		<comp name="--.HNE" depth="0.0">
			<acc value="0.0559489710598336" flag="0"/>
			<vel value="0.0279974128884809" flag="0"/>
			<psa03 value="0.165814617727315" flag="0"/>
			<psa10 value="0.036684135206321" flag="0"/>
			<psa30 value="0.00194315403343154" flag="0"/>
		</comp>
		<comp name="--.HNN" depth="0.0">
			<acc value="0.0725876132202103" flag="0"/>
			<vel value="0.0315443737607274" flag="0"/>
			<psa03 value="0.117493034579582" flag="0"/>
			<psa10 value="0.0250466872649085" flag="0"/>
			<psa30 value="0.00196328802640976" flag="0"/>
		</comp>
		<comp name="--.HNZ" depth="0.0">
			<acc value="0.0714118251744024" flag="0"/>
			<vel value="0.0257999074934965" flag="0"/>
			<psa03 value="0.0761512356642985" flag="0"/>
			<psa10 value="0.0122213337377809" flag="0"/>
			<psa30 value="0.00110244797107422" flag="0"/>
		</comp>
	</station>
	<station code="EZNE" name="EZNE" netid="KO" source="Bogazici University Kandilli Observatory And Earthquake Research Institute (KOERI)" insttype="" lat="39.756" lon="26.3655">
		<comp name="--.HNE" depth="0.0">
			<acc value="0.330144588551577" flag="0"/>
			<vel value="0.106103687151749" flag="0"/>
			<psa03 value="0.690551216946406" flag="0"/>
			<psa10 value="0.049730962656209" flag="0"/>
			<psa30 value="0.00350510446647541" flag="0"/>
		</comp>
		<comp name="--.HNN" depth="0.0">
			<acc value="0.363452144879907" flag="0"/>
			<vel value="0.220742918787464" flag="0"/>
			<psa03 value="1.06307482925014" flag="0"/>
			<psa10 value="0.121810657518245" flag="0"/>
			<psa30 value="0.0108370098650116" flag="0"/>
		</comp>
		<comp name="--.HNZ" depth="0.0">
			<acc value="0.192028745830462" flag="0"/>
			<vel value="0.0887187975901274" flag="0"/>
			<psa03 value="0.32438099798247" flag="0"/>
			<psa10 value="0.0404532186918442" flag="0"/>
			<psa30 value="0.00267155715717701" flag="0"/>
		</comp>
	</station>
	<station code="GONE" name="GONE" netid="KO" source="Bogazici University Kandilli Observatory And Earthquake Research Institute (KOERI)" insttype="" lat="40.0466" lon="27.686">
		<comp name="--.HNE" depth="0.0">
			<acc value="0.0181344033028824" flag="0"/>
			<vel value="0.01087470382475" flag="0"/>
			<psa03 value="0.0399547905101167" flag="0"/>
			<psa10 value="0.0217688732080539" flag="0"/>
			<psa30 value="0.000990592454528536" flag="0"/>
		</comp>
		<comp name="--.HNN" depth="0.0">
			<acc value="0.0277657865607888" flag="0"/>
			<vel value="0.0148703061048773" flag="0"/>
			<psa03 value="0.0491269428668624" flag="0"/>
			<psa10 value="0.0173112071626755" flag="0"/>
			<psa30 value="0.00157761020536026" flag="0"/>
		</comp>
		<comp name="--.HNZ" depth="0.0">
			<acc value="0.0109257323203977" flag="0"/>
			<vel value="0.00486345272313676" flag="0"/>
			<psa03 value="0.0249661512929956" flag="0"/>
			<psa10 value="0.00584288476228011" flag="0"/>
			<psa30 value="0.000821019491445287" flag="0"/>
		</comp>
	</station>
	<station code="SOMA" name="SOMA" netid="KO" source="Bogazici University Kandilli Observatory And Earthquake Research Institute (KOERI)" insttype="" lat="39.1564" lon="27.5341">
		<comp name="--.HNE" depth="0.0">
			<acc value="0.0182558753421419" flag="0"/>
			<vel value="0.00972479899303461" flag="0"/>
			<psa03 value="0.0529747726360338" flag="0"/>
			<psa10 value="0.0124387808619457" flag="0"/>
			<psa30 value="0.00105323154379412" flag="0"/>
		</comp>
		<comp name="--.HNN" depth="0.0">
			<acc value="0.0219513556938065" flag="0"/>
			<vel value="0.00875387254640925" flag="0"/>
			<psa03 value="0.0561962115125493" flag="0"/>
			<psa10 value="0.00821064233651905" flag="0"/>
			<psa30 value="0.00118924785191366" flag="0"/>
		</comp>
		<comp name="--.HNZ" depth="0.0">
			<acc value="0.0182357875093641" flag="0"/>
			<vel value="0.00665659516970146" flag="0"/>
			<psa03 value="0.0366886094269828" flag="0"/>
			<psa10 value="0.00781601607414589" flag="0"/>
			<psa30 value="0.000856365834673721" flag="0"/>
		</comp>
	</station>
</stationlist>
