<stationlist created="1779587670">
	<station code="MARCO" name="MARCO" netid="GE" source="GEOFON" insttype="" lat="40.29724" lon="15.80632">
		<comp name="--.HLE" depth="1.0">
			<acc value="0.000653014344211824" flag="0"/>
			<vel value="0.00113276550988535" flag="0"/>
			<psa03 value="0.00204930942205631" flag="0"/>
			<psa10 value="0.0019387570268881" flag="0"/>
			<psa30 value="0.00065500682848778" flag="0"/>
		</comp>
		<comp name="--.HLN" depth="1.0">
			<acc value="0.00100815938755862" flag="0"/>
			<vel value="0.00112142506819117" flag="0"/>
			<psa03 value="0.00314185657007833" flag="0"/>
			<psa10 value="0.00266866061379356" flag="0"/>
			<psa30 value="0.000391307198223113" flag="0"/>
		</comp>
		<comp name="--.HLZ" depth="1.0">
			<acc value="0.0002395453010427" flag="0"/>
			<vel value="0.000535540647820851" flag="0"/>
			<psa03 value="0.000694184820972924" flag="0"/>
			<psa10 value="0.000598227324936829" flag="0"/>
			<psa30 value="0.000182591197333212" flag="0"/>
		</comp>
	</station>
	<station code="BSSO" name="BSSO" netid="IV" source="Italian National Seismic Network (INSN)" insttype="" lat="41.5461" lon="14.5938">
		<comp name="--.HNE" depth="0.0">
			<acc value="0.0110459632283349" flag="0"/>
			<vel value="0.00334713932069355" flag="0"/>
			<psa03 value="0.00962249030734146" flag="0"/>
			<psa10 value="0.00387730122717749" flag="0"/>
			<psa30 value="0.00177269993267058" flag="0"/>
		</comp>
		<comp name="--.HNN" depth="0.0">
			<acc value="0.0093261446855549" flag="0"/>
			<vel value="0.00288835179763102" flag="0"/>
			<psa03 value="0.00675111324374465" flag="0"/>
			<psa10 value="0.00309253174005042" flag="0"/>
			<psa30 value="0.00158296048836359" flag="0"/>
		</comp>
		<comp name="--.HNZ" depth="0.0">
			<acc value="0.00114536645447709" flag="0"/>
			<vel value="0.00182393709657723" flag="0"/>
			<psa03 value="0.00133616077971912" flag="0"/>
			<psa10 value="0.00190562217561683" flag="0"/>
			<psa30 value="0.000827552998408058" flag="0"/>
		</comp>
	</station>
	<station code="CAAM" name="CAAM" netid="IV" source="Italian National Seismic Network (INSN)" insttype="" lat="40.820065" lon="14.142049">
		<comp name="--.HNE" depth="0.0">
			<acc value="1.29580117367634" flag="0"/>
			<vel value="0.70093399555132" flag="0"/>
			<psa03 value="2.49007978889867" flag="0"/>
			<psa10 value="0.790225048531242" flag="0"/>
			<psa30 value="0.17967604932313" flag="0"/>
		</comp>
		<comp name="--.HNN" depth="0.0">
			<acc value="2.31928723269396" flag="0"/>
			<vel value="0.64377050231163" flag="0"/>
			<psa03 value="2.25037657640391" flag="0"/>
			<psa10 value="0.652718319385284" flag="0"/>
			<psa30 value="0.172449437262214" flag="0"/>
		</comp>
		<comp name="--.HNZ" depth="0.0">
			<acc value="1.66696418786849" flag="0"/>
			<vel value="0.552074203649717" flag="0"/>
			<psa03 value="4.05837651419325" flag="0"/>
			<psa10 value="0.634338801832448" flag="0"/>
			<psa30 value="0.10666837958998" flag="0"/>
		</comp>
	</station>
	<station code="CAFE" name="CAFE" netid="IV" source="Italian National Seismic Network (INSN)" insttype="" lat="41.028" lon="15.2366">
		<comp name="--.HNE" depth="0.0">
			<acc value="0.00232966491572816" flag="0"/>
			<vel value="0.00463475670880204" flag="0"/>
			<psa03 value="0.00544956836392985" flag="0"/>
			<psa10 value="0.0060334934393295" flag="0"/>
			<psa30 value="0.00226146210243227" flag="0"/>
		</comp>
		<comp name="--.HNN" depth="0.0">
			<acc value="0.0020638361696243" flag="0"/>
			<vel value="0.00336769639839873" flag="0"/>
			<psa03 value="0.00414512941218865" flag="0"/>
			<psa10 value="0.00466753810774255" flag="0"/>
			<psa30 value="0.00160714594469804" flag="0"/>
		</comp>
		<comp name="--.HNZ" depth="0.0">
			<acc value="0.00146247431428621" flag="0"/>
			<vel value="0.00237300211426761" flag="0"/>
			<psa03 value="0.00368225239469126" flag="0"/>
			<psa10 value="0.00299023363517802" flag="0"/>
			<psa30 value="0.00103367805943174" flag="0"/>
		</comp>
	</station>
	<station code="CAPA" name="CAPA" netid="IV" source="Italian National Seismic Network (INSN)" insttype="" lat="41.158295" lon="15.816928">
		<comp name="--.HNE" depth="0.0">
			<acc value="0.000756218404783154" flag="0"/>
			<vel value="0.00158856743004447" flag="0"/>
			<psa03 value="0.00245628104338724" flag="0"/>
			<psa10 value="0.00185893849711474" flag="0"/>
			<psa30 value="0.000812381264188458" flag="0"/>
		</comp>
		<comp name="--.HNN" depth="0.0">
			<acc value="0.00064243594728657" flag="0"/>
			<vel value="0.00197275709397427" flag="0"/>
			<psa03 value="0.00152624938127065" flag="0"/>
			<psa10 value="0.00190956626501839" flag="0"/>
			<psa30 value="0.00104137971546199" flag="0"/>
		</comp>
		<comp name="--.HNZ" depth="0.0">
			<acc value="0.000594161762957253" flag="0"/>
			<vel value="0.000747968477709718" flag="0"/>
			<psa03 value="0.00162652132327386" flag="0"/>
			<psa10 value="0.00102792082908515" flag="0"/>
			<psa30 value="0.000391266258011025" flag="0"/>
		</comp>
	</station>
	<station code="CAWE" name="CAWE" netid="IV" source="Italian National Seismic Network (INSN)" insttype="" lat="40.840439" lon="14.139376">
		<comp name="--.HNE" depth="0.0">
			<acc value="4.10882806991739" flag="0"/>
			<vel value="1.48727624820258" flag="0"/>
			<psa03 value="8.23030255048507" flag="0"/>
			<psa10 value="0.921074996698129" flag="0"/>
			<psa30 value="0.123709461811377" flag="0"/>
		</comp>
		<comp name="--.HNN" depth="0.0">
			<acc value="3.40931710820343" flag="0"/>
			<vel value="1.75348896966135" flag="0"/>
			<psa03 value="7.6683426567334" flag="0"/>
			<psa10 value="1.32545312476453" flag="0"/>
			<psa30 value="0.268361404292651" flag="0"/>
		</comp>
		<comp name="--.HNZ" depth="0.0">
			<acc value="3.33569627997215" flag="0"/>
			<vel value="0.996869465754592" flag="0"/>
			<psa03 value="4.21567826799578" flag="0"/>
			<psa10 value="0.962820302119738" flag="0"/>
			<psa30 value="0.14327309113914" flag="0"/>
		</comp>
	</station>
	<station code="CBAC" name="CBAC" netid="IV" source="Italian National Seismic Network (INSN)" insttype="" lat="40.810901" lon="14.08057">
		<comp name="--.HNE" depth="0.0">
			<acc value="16.7092561730538" flag="0"/>
			<vel value="3.83901388082298" flag="0"/>
			<psa03 value="6.26777320921447" flag="0"/>
			<psa10 value="2.76779759300689" flag="0"/>
			<psa30 value="0.181529332094018" flag="0"/>
		</comp>
		<comp name="--.HNN" depth="0.0">
			<acc value="21.4232456763103" flag="0"/>
			<vel value="5.49881419394453" flag="0"/>
			<psa03 value="16.8558166151267" flag="0"/>
			<psa10 value="3.52160976936405" flag="0"/>
			<psa30 value="0.306886036360457" flag="0"/>
		</comp>
		<comp name="--.HNZ" depth="0.0">
			<acc value="8.40973519377293" flag="0"/>
			<vel value="1.77058144192243" flag="0"/>
			<psa03 value="7.90632575527905" flag="0"/>
			<psa10 value="1.17484926799814" flag="0"/>
			<psa30 value="0.130663042451968" flag="0"/>
		</comp>
	</station>
	<station code="CDRU" name="CDRU" netid="IV" source="Italian National Seismic Network (INSN)" insttype="" lat="40.4896" lon="15.3046">
		<comp name="--.HNE" depth="0.0">
			<acc value="0.00227839601610933" flag="0"/>
			<vel value="0.00108904195947871" flag="0"/>
			<psa03 value="0.00470765821341932" flag="0"/>
			<psa10 value="0.0011979669375553" flag="0"/>
			<psa30 value="0.000302953688986742" flag="0"/>
		</comp>
		<comp name="--.HNN" depth="0.0">
			<acc value="0.000973915135989025" flag="0"/>
			<vel value="0.00106966918637423" flag="0"/>
			<psa03 value="0.00273246128558745" flag="0"/>
			<psa10 value="0.00119873269140773" flag="0"/>
			<psa30 value="0.000430766400743291" flag="0"/>
		</comp>
		<comp name="--.HNZ" depth="0.0">
			<acc value="0.00124691257848151" flag="0"/>
			<vel value="0.000606346715914091" flag="0"/>
			<psa03 value="0.00293080385189238" flag="0"/>
			<psa10 value="0.000833827014291236" flag="0"/>
			<psa30 value="0.000225981871231574" flag="0"/>
		</comp>
	</station>
	<station code="CERA" name="CERA" netid="IV" source="Italian National Seismic Network (INSN)" insttype="" lat="41.5978" lon="14.0183">
		<comp name="--.HNE" depth="0.0">
			<acc value="0.00292525046925794" flag="0"/>
			<vel value="0.00390419313716027" flag="0"/>
			<psa03 value="0.0109039736368228" flag="0"/>
			<psa10 value="0.0072661504093042" flag="0"/>
			<psa30 value="0.00101630003322279" flag="0"/>
		</comp>
		<comp name="--.HNN" depth="0.0">
			<acc value="0.00270702701930584" flag="0"/>
			<vel value="0.00434663285567431" flag="0"/>
			<psa03 value="0.00912162965382293" flag="0"/>
			<psa10 value="0.00522876044221787" flag="0"/>
			<psa30 value="0.000989506487448547" flag="0"/>
		</comp>
		<comp name="--.HNZ" depth="0.0">
			<acc value="0.00292630624144486" flag="0"/>
			<vel value="0.00288246665749314" flag="0"/>
			<psa03 value="0.00477836732463425" flag="0"/>
			<psa10 value="0.00480112617604646" flag="0"/>
			<psa30 value="0.000870732942200751" flag="0"/>
		</comp>
	</station>
	<station code="CERT" name="CERT" netid="IV" source="Italian National Seismic Network (INSN)" insttype="" lat="41.94903" lon="12.98176">
		<comp name="--.HNE" depth="0.0">
			<acc value="0.0010718044020589" flag="0"/>
			<vel value="0.00095744467998904" flag="0"/>
			<psa03 value="0.00323279651367412" flag="0"/>
			<psa10 value="0.00150366515731207" flag="0"/>
			<psa30 value="0.000222881822118535" flag="0"/>
		</comp>
		<comp name="--.HNN" depth="0.0">
			<acc value="0.000696905945064098" flag="0"/>
			<vel value="0.000590520203741336" flag="0"/>
			<psa03 value="0.00187977947408134" flag="0"/>
			<psa10 value="0.00100108534042823" flag="0"/>
			<psa30 value="0.000235688061094017" flag="0"/>
		</comp>
		<comp name="--.HNZ" depth="0.0">
			<acc value="0.00251099224596325" flag="0"/>
			<vel value="0.0008887149948651" flag="0"/>
			<psa03 value="0.00257720246529632" flag="0"/>
			<psa10 value="0.000984128123345821" flag="0"/>
			<psa30 value="0.000374813136822494" flag="0"/>
		</comp>
	</station>
	<station code="CFMN" name="CFMN" netid="IV" source="Italian National Seismic Network (INSN)" insttype="" lat="40.832942" lon="14.090403">
		<comp name="--.HNE" depth="0.0">
			<acc value="7.69411464757645" flag="0"/>
			<vel value="2.38505731982593" flag="0"/>
			<psa03 value="9.29753124914867" flag="0"/>
			<psa10 value="1.09868514249862" flag="0"/>
			<psa30 value="0.113980857339076" flag="0"/>
		</comp>
		<comp name="--.HNN" depth="0.0">
			<acc value="10.4827117411116" flag="0"/>
			<vel value="1.6871751192668" flag="0"/>
			<psa03 value="5.36823461919759" flag="0"/>
			<psa10 value="0.815442319051654" flag="0"/>
			<psa30 value="0.234091294066038" flag="0"/>
		</comp>
		<comp name="--.HNZ" depth="0.0">
			<acc value="8.67782114325204" flag="0"/>
			<vel value="1.48662852428315" flag="0"/>
			<psa03 value="4.85718043103242" flag="0"/>
			<psa10 value="0.765624618873509" flag="0"/>
			<psa30 value="0.0541480970456842" flag="0"/>
		</comp>
	</station>
	<station code="CIGN" name="CIGN" netid="IV" source="Italian National Seismic Network (INSN)" insttype="" lat="41.65418" lon="14.90502">
		<comp name="--.HNE" depth="0.0">
			<acc value="0.000703634397023391" flag="0"/>
			<vel value="0.00239367849094427" flag="0"/>
			<psa03 value="0.00127383121123798" flag="0"/>
			<psa10 value="0.00179699458894733" flag="0"/>
			<psa30 value="0.00197948071421586" flag="0"/>
		</comp>
		<comp name="--.HNN" depth="0.0">
			<acc value="0.00072508018509648" flag="0"/>
			<vel value="0.00168738506573139" flag="0"/>
			<psa03 value="0.00113799652926319" flag="0"/>
			<psa10 value="0.00148053936752949" flag="0"/>
			<psa30 value="0.000953261690575301" flag="0"/>
		</comp>
		<comp name="--.HNZ" depth="0.0">
			<acc value="0.000583523974229342" flag="0"/>
			<vel value="0.00164556806000205" flag="0"/>
			<psa03 value="0.00164612092894322" flag="0"/>
			<psa10 value="0.00168968732411767" flag="0"/>
			<psa30 value="0.00141723690582291" flag="0"/>
		</comp>
	</station>
	<station code="CMIS" name="CMIS" netid="IV" source="Italian National Seismic Network (INSN)" insttype="" lat="40.778154" lon="14.089047">
		<comp name="--.HNE" depth="0.0">
			<acc value="4.65418500777646" flag="0"/>
			<vel value="2.02557889286882" flag="0"/>
			<psa03 value="8.75772815650967" flag="0"/>
			<psa10 value="1.49540178302907" flag="0"/>
			<psa30 value="0.0757814734840354" flag="0"/>
		</comp>
		<comp name="--.HNN" depth="0.0">
			<acc value="3.80203913318089" flag="0"/>
			<vel value="1.39602741149967" flag="0"/>
			<psa03 value="6.87102517169638" flag="0"/>
			<psa10 value="1.64275174424085" flag="0"/>
			<psa30 value="0.224130367536874" flag="0"/>
		</comp>
		<comp name="--.HNZ" depth="0.0">
			<acc value="2.11793773658764" flag="0"/>
			<vel value="0.6078858162597" flag="0"/>
			<psa03 value="3.55087322792457" flag="0"/>
			<psa10 value="0.327945094753056" flag="0"/>
			<psa30 value="0.0943546171969875" flag="0"/>
		</comp>
	</station>
	<station code="CMPR" name="CMPR" netid="IV" source="Italian National Seismic Network (INSN)" insttype="" lat="40.3181" lon="15.303">
		<comp name="--.HNE" depth="0.0">
			<acc value="0.00135294606325312" flag="0"/>
			<vel value="0.000981995917418463" flag="0"/>
			<psa03 value="0.00300066655287012" flag="0"/>
			<psa10 value="0.00161513273680465" flag="0"/>
			<psa30 value="0.000309359269575019" flag="0"/>
		</comp>
		<comp name="--.HNN" depth="0.0">
			<acc value="0.00106587913053333" flag="0"/>
			<vel value="0.000778888262346482" flag="0"/>
			<psa03 value="0.00375283975304899" flag="0"/>
			<psa10 value="0.00158937778847822" flag="0"/>
			<psa30 value="0.000424796708405471" flag="0"/>
		</comp>
		<comp name="--.HNZ" depth="0.0">
			<acc value="0.000840865801087168" flag="0"/>
			<vel value="0.000778908089253618" flag="0"/>
			<psa03 value="0.00300942136460426" flag="0"/>
			<psa10 value="0.00157411509771237" flag="0"/>
			<psa30 value="0.000313069254926675" flag="0"/>
		</comp>
	</station>
	<station code="CNIS" name="CNIS" netid="IV" source="Italian National Seismic Network (INSN)" insttype="" lat="40.79817" lon="14.163176">
		<comp name="--.HNE" depth="0.0">
			<acc value="0.444339319513592" flag="0"/>
			<vel value="0.35176138006031" flag="0"/>
			<psa03 value="0.857029023966757" flag="0"/>
			<psa10 value="0.641142592550192" flag="0"/>
			<psa30 value="0.0616288559425808" flag="0"/>
		</comp>
		<comp name="--.HNN" depth="0.0">
			<acc value="0.391222757417282" flag="0"/>
			<vel value="0.299202677895353" flag="0"/>
			<psa03 value="0.786157662420207" flag="0"/>
			<psa10 value="0.401208388086682" flag="0"/>
			<psa30 value="0.156625469001977" flag="0"/>
		</comp>
		<comp name="--.HNZ" depth="0.0">
			<acc value="0.731652191025697" flag="0"/>
			<vel value="0.272538182181923" flag="0"/>
			<psa03 value="0.613742740777817" flag="0"/>
			<psa10 value="0.548281880983787" flag="0"/>
			<psa30 value="0.0421682434391768" flag="0"/>
		</comp>
	</station>
	<station code="COLB" name="COLB" netid="IV" source="Italian National Seismic Network (INSN)" insttype="" lat="40.819016" lon="14.144606">
		<comp name="--.HNE" depth="0.0">
			<acc value="1.94356389910504" flag="0"/>
			<vel value="0.558478911864464" flag="0"/>
			<psa03 value="1.87416315411104" flag="0"/>
			<psa10 value="0.65263881411845" flag="0"/>
			<psa30 value="0.139518229064622" flag="0"/>
		</comp>
		<comp name="--.HNN" depth="0.0">
			<acc value="2.00111991549279" flag="0"/>
			<vel value="0.840377543399198" flag="0"/>
			<psa03 value="3.60521182759012" flag="0"/>
			<psa10 value="0.408038820569312" flag="0"/>
			<psa30 value="0.126075538552349" flag="0"/>
		</comp>
		<comp name="--.HNZ" depth="0.0">
			<acc value="1.59923819402417" flag="0"/>
			<vel value="0.491527939880172" flag="0"/>
			<psa03 value="2.50622219158696" flag="0"/>
			<psa10 value="0.550634996866166" flag="0"/>
			<psa30 value="0.0973431218374197" flag="0"/>
		</comp>
	</station>
	<station code="CPOZ" name="CPOZ" netid="IV" source="Italian National Seismic Network (INSN)" insttype="" lat="40.821072" lon="14.11911">
		<comp name="--.HNE" depth="0.0">
			<acc value="4.03523650177772" flag="0"/>
			<vel value="1.73066997526738" flag="0"/>
			<psa03 value="6.38067402167254" flag="0"/>
			<psa10 value="1.56013035097903" flag="0"/>
			<psa30 value="0.170756218428109" flag="0"/>
		</comp>
		<comp name="--.HNN" depth="0.0">
			<acc value="3.61080317876412" flag="0"/>
			<vel value="2.12079154891187" flag="0"/>
			<psa03 value="4.14866149513014" flag="0"/>
			<psa10 value="2.0444710361724" flag="0"/>
			<psa30 value="0.224785664280401" flag="0"/>
		</comp>
		<comp name="--.HNZ" depth="0.0">
			<acc value="4.89502428685914" flag="0"/>
			<vel value="1.0546385990707" flag="0"/>
			<psa03 value="3.02902765821666" flag="0"/>
			<psa10 value="1.02958576500399" flag="0"/>
			<psa30 value="0.124606241218612" flag="0"/>
		</comp>
	</station>
	<station code="CQUE" name="CQUE" netid="IV" source="Italian National Seismic Network (INSN)" insttype="" lat="40.885355" lon="14.155414">
		<comp name="--.HNE" depth="0.0">
			<acc value="0.693165886892975" flag="0"/>
			<vel value="0.289660361109899" flag="0"/>
			<psa03 value="1.930044022611" flag="0"/>
			<psa10 value="0.242934928246733" flag="0"/>
			<psa30 value="0.0322117305357277" flag="0"/>
		</comp>
		<comp name="--.HNN" depth="0.0">
			<acc value="0.43749849917315" flag="0"/>
			<vel value="0.328359181005877" flag="0"/>
			<psa03 value="1.41714221204991" flag="0"/>
			<psa10 value="0.795088490710417" flag="0"/>
			<psa30 value="0.0737981754336064" flag="0"/>
		</comp>
		<comp name="--.HNZ" depth="0.0">
			<acc value="0.582912668008387" flag="0"/>
			<vel value="0.25364257540395" flag="0"/>
			<psa03 value="0.996575934931415" flag="0"/>
			<psa10 value="0.312194351343606" flag="0"/>
			<psa30 value="0.0375402101880205" flag="0"/>
		</comp>
	</station>
	<station code="CSOB" name="CSOB" netid="IV" source="Italian National Seismic Network (INSN)" insttype="" lat="40.826469" lon="14.143963">
		<comp name="--.HNE" depth="0.0">
			<acc value="2.32728553799614" flag="0"/>
			<vel value="0.633907664179909" flag="0"/>
			<psa03 value="3.00531975435105" flag="0"/>
			<psa10 value="0.651113633082692" flag="0"/>
			<psa30 value="0.128577450958434" flag="0"/>
		</comp>
		<comp name="--.HNN" depth="0.0">
			<acc value="1.80502373228157" flag="0"/>
			<vel value="0.630909081150943" flag="0"/>
			<psa03 value="4.28962349983782" flag="0"/>
			<psa10 value="0.955534859494919" flag="0"/>
			<psa30 value="0.145999165061492" flag="0"/>
		</comp>
		<comp name="--.HNZ" depth="0.0">
			<acc value="1.51376760846713" flag="0"/>
			<vel value="0.543343732552342" flag="0"/>
			<psa03 value="2.54029044844178" flag="0"/>
			<psa10 value="0.649466283953896" flag="0"/>
			<psa30 value="0.0882594734236259" flag="0"/>
		</comp>
	</station>
	<station code="CSTH" name="CSTH" netid="IV" source="Italian National Seismic Network (INSN)" insttype="" lat="40.829447" lon="14.149329">
		<comp name="--.HNE" depth="0.0">
			<acc value="2.56425067574253" flag="0"/>
			<vel value="0.857118730887112" flag="0"/>
			<psa03 value="3.53906744584944" flag="0"/>
			<psa10 value="0.685685403292798" flag="0"/>
			<psa30 value="0.11377369694905" flag="0"/>
		</comp>
		<comp name="--.HNN" depth="0.0">
			<acc value="3.48130437248756" flag="0"/>
			<vel value="0.751027720839489" flag="0"/>
			<psa03 value="2.78468280490264" flag="0"/>
			<psa10 value="0.395716554279645" flag="0"/>
			<psa30 value="0.13334344668226" flag="0"/>
		</comp>
		<comp name="--.HNZ" depth="0.0">
			<acc value="2.22609899773396" flag="0"/>
			<vel value="0.543968054965621" flag="0"/>
			<psa03 value="3.09922264162314" flag="0"/>
			<psa10 value="0.487798414250953" flag="0"/>
			<psa30 value="0.107354225023874" flag="0"/>
		</comp>
	</station>
	<station code="CUMA" name="CUMA" netid="IV" source="Italian National Seismic Network (INSN)" insttype="" lat="40.847947" lon="14.053389">
		<comp name="--.HNE" depth="0.0">
			<acc value="1.32429493866912" flag="0"/>
