<?xml version="1.0" encoding="UTF-8" standalone="yes"?>
<!DOCTYPE earthquake SYSTEM "stationlist.dtd">
<stationlist created="" xmlns="ch.ethz.sed.shakemap.usgs.xml">
  <station code="CLAC" name="CLAC" netid="2I" insttype="" commtype="DIG" lat="40.8836" lon="14.0706">
    <comp name="--.HHZ">
      <acc value="0.9561764736" flag="0"/>
      <vel value="0.2825928899" flag="0"/>
      <psa03 value="1.7158849236" flag="0"/>
      <psa10 value="0.2683141380" flag="0"/>
      <psa30 value="0.0308548890" flag="0"/>
    </comp>
    <comp name="--.HHE">
      <acc value="1.0094645852" flag="0"/>
      <vel value="0.4598529492" flag="0"/>
      <psa03 value="1.4960660290" flag="0"/>
      <psa10 value="0.5614460582" flag="0"/>
      <psa30 value="0.0420568022" flag="0"/>
    </comp>
    <comp name="--.HHN">
      <acc value="1.1856111308" flag="0"/>
      <vel value="0.6752943569" flag="0"/>
      <psa03 value="1.7581171911" flag="0"/>
      <psa10 value="0.5161877540" flag="0"/>
      <psa30 value="0.0490421203" flag="0"/>
    </comp>
  </station>
  <station code="CAMPI" name="CAMPI" netid="GX" insttype="Trillium Compact" commtype="DIG" lat="40.7071" lon="15.2738">
    <comp name="--.HHE">
      <acc value="0.0026750407" flag="0"/>
      <vel value="0.0054127066" flag="0"/>
      <psa03 value="0.0067019678" flag="0"/>
      <psa10 value="0.0096743604" flag="0"/>
      <psa30 value="0.0018642728" flag="0"/>
    </comp>
    <comp name="--.HHZ">
      <acc value="0.0016919800" flag="0"/>
      <vel value="0.0024709013" flag="0"/>
      <psa03 value="0.0060157614" flag="0"/>
      <psa10 value="0.0058967659" flag="0"/>
      <psa30 value="0.0005406840" flag="0"/>
    </comp>
    <comp name="--.HHN">
      <acc value="0.0031997389" flag="0"/>
      <vel value="0.0052811757" flag="0"/>
      <psa03 value="0.0090105625" flag="0"/>
      <psa10 value="0.0097384059" flag="0"/>
      <psa30 value="0.0016617117" flag="0"/>
    </comp>
  </station>
  <station code="BSSO" name="BSSO" netid="IV" insttype="" commtype="DIG" lat="41.5461" lon="14.5938">
    <comp name="--.HHE">
      <acc value="0.0017149469" flag="0"/>
      <vel value="0.0029179393" flag="0"/>
      <psa03 value="0.0056243229" flag="0"/>
      <psa10 value="0.0040567271" flag="0"/>
      <psa30 value="0.0020935524" flag="0"/>
    </comp>
    <comp name="--.HHN">
      <acc value="0.0019711298" flag="0"/>
      <vel value="0.0030526810" flag="0"/>
      <psa03 value="0.0036624495" flag="0"/>
      <psa10 value="0.0039623320" flag="0"/>
      <psa30 value="0.0015316153" flag="0"/>
    </comp>
    <comp name="--.HHZ">
      <acc value="0.0011026990" flag="0"/>
      <vel value="0.0030193903" flag="0"/>
      <psa03 value="0.0024689136" flag="0"/>
      <psa10 value="0.0025518018" flag="0"/>
      <psa30 value="0.0014093975" flag="0"/>
    </comp>
  </station>
  <station code="CAAM" name="CAAM" netid="IV" insttype="" commtype="DIG" lat="40.8201" lon="14.142">
    <comp name="--.HNE">
      <acc value="1.2834082307" flag="0"/>
      <vel value="0.7088572395" flag="0"/>
      <psa03 value="2.4983624588" flag="0"/>
      <psa10 value="0.7854061375" flag="0"/>
      <psa30 value="0.1660398052" flag="0"/>
    </comp>
    <comp name="--.HNN">
      <acc value="2.3490396544" flag="0"/>
      <vel value="0.5822987804" flag="0"/>
      <psa03 value="2.2393141478" flag="0"/>
      <psa10 value="0.6538762582" flag="0"/>
      <psa30 value="0.1508238937" flag="0"/>
    </comp>
    <comp name="--.HNZ">
      <acc value="1.7817745377" flag="0"/>
      <vel value="0.5565314157" flag="0"/>
      <psa03 value="4.0582365029" flag="0"/>
      <psa10 value="0.6304955615" flag="0"/>
      <psa30 value="0.0900151056" flag="0"/>
    </comp>
  </station>
  <station code="CAFE" name="CAFE" netid="IV" insttype="" commtype="DIG" lat="41.028" lon="15.2366">
    <comp name="--.HHE">
      <acc value="0.0023181710" flag="0"/>
      <vel value="0.0048415288" flag="0"/>
      <psa03 value="0.0055313783" flag="0"/>
      <psa10 value="0.0062001915" flag="0"/>
      <psa30 value="0.0024968116" flag="0"/>
    </comp>
    <comp name="--.HHN">
      <acc value="0.0026156157" flag="0"/>
      <vel value="0.0036378871" flag="0"/>
      <psa03 value="0.0044283072" flag="0"/>
      <psa10 value="0.0048166063" flag="0"/>
      <psa30 value="0.0018664221" flag="0"/>
    </comp>
    <comp name="--.HHZ">
      <acc value="0.0015453450" flag="0"/>
      <vel value="0.0018441977" flag="0"/>
      <psa03 value="0.0037670763" flag="0"/>
      <psa10 value="0.0030823464" flag="0"/>
      <psa30 value="0.0006841575" flag="0"/>
    </comp>
  </station>
  <station code="CAWE" name="CAWE" netid="IV" insttype="" commtype="DIG" lat="40.8405" lon="14.1393">
    <comp name="--.HNZ">
      <acc value="3.4534926795" flag="0"/>
      <vel value="0.9929844730" flag="0"/>
      <psa03 value="4.2166228041" flag="0"/>
      <psa10 value="0.9638618300" flag="0"/>
      <psa30 value="0.1335443644" flag="0"/>
    </comp>
    <comp name="--.HNE">
      <acc value="4.0626198779" flag="0"/>
      <vel value="1.5108554449" flag="0"/>
      <psa03 value="8.2277514646" flag="0"/>
      <psa10 value="0.9209001959" flag="0"/>
      <psa30 value="0.1146831089" flag="0"/>
    </comp>
    <comp name="--.HNN">
      <acc value="3.4685667136" flag="0"/>
      <vel value="1.7340048139" flag="0"/>
      <psa03 value="7.6978944017" flag="0"/>
      <psa10 value="1.3197257069" flag="0"/>
      <psa30 value="0.2512304582" flag="0"/>
    </comp>
  </station>
  <station code="CBAC" name="CBAC" netid="IV" insttype="" commtype="DIG" lat="40.8109" lon="14.0806">
    <comp name="--.HNN">
      <acc value="22.7370226974" flag="0"/>
      <vel value="5.4579047445" flag="0"/>
      <psa03 value="16.8420656255" flag="0"/>
      <psa10 value="3.5081257416" flag="0"/>
      <psa30 value="0.3117121474" flag="0"/>
    </comp>
    <comp name="--.HNE">
      <acc value="19.3441648951" flag="0"/>
      <vel value="3.7587420112" flag="0"/>
      <psa03 value="6.2759264787" flag="0"/>
      <psa10 value="2.7700002832" flag="0"/>
      <psa30 value="0.1767759014" flag="0"/>
    </comp>
    <comp name="--.HNZ">
      <acc value="9.9450351379" flag="0"/>
      <vel value="1.7787741033" flag="0"/>
      <psa03 value="7.9229286449" flag="0"/>
      <psa10 value="1.1701895895" flag="0"/>
      <psa30 value="0.1205191491" flag="0"/>
    </comp>
  </station>
  <station code="CDRU" name="CDRU" netid="IV" insttype="" commtype="DIG" lat="40.4896" lon="15.3046">
    <comp name="--.HHE">
      <acc value="0.0025298382" flag="0"/>
      <vel value="0.0011281276" flag="0"/>
      <psa03 value="0.0048486264" flag="0"/>
      <psa10 value="0.0012057482" flag="0"/>
      <psa30 value="0.0003292913" flag="0"/>
    </comp>
    <comp name="--.HHN">
      <acc value="0.0009203387" flag="0"/>
      <vel value="0.0011774088" flag="0"/>
      <psa03 value="0.0025629540" flag="0"/>
      <psa10 value="0.0012610257" flag="0"/>
      <psa30 value="0.0004815729" flag="0"/>
    </comp>
    <comp name="--.HHZ">
      <acc value="0.0012645363" flag="0"/>
      <vel value="0.0006661172" flag="0"/>
      <psa03 value="0.0030871445" flag="0"/>
      <psa10 value="0.0008602985" flag="0"/>
      <psa30 value="0.0002455285" flag="0"/>
    </comp>
  </station>
  <station code="CERA" name="CERA" netid="IV" insttype="" commtype="DIG" lat="41.5978" lon="14.0183">
    <comp name="--.HHN">
      <acc value="0.0031251431" flag="0"/>
      <vel value="0.0041035333" flag="0"/>
      <psa03 value="0.0094250461" flag="0"/>
      <psa10 value="0.0053196400" flag="0"/>
      <psa30 value="0.0008117436" flag="0"/>
    </comp>
    <comp name="--.HHE">
      <acc value="0.0031753983" flag="0"/>
      <vel value="0.0037315123" flag="0"/>
      <psa03 value="0.0112761522" flag="0"/>
      <psa10 value="0.0074372659" flag="0"/>
      <psa30 value="0.0007639133" flag="0"/>
    </comp>
    <comp name="--.HHZ">
      <acc value="0.0031127013" flag="0"/>
      <vel value="0.0031974337" flag="0"/>
      <psa03 value="0.0049101301" flag="0"/>
      <psa10 value="0.0049141292" flag="0"/>
      <psa30 value="0.0007737880" flag="0"/>
    </comp>
  </station>
  <station code="CFMN" name="CFMN" netid="IV" insttype="" commtype="DIG" lat="40.8329" lon="14.0904">
    <comp name="--.HNE">
      <acc value="7.6707950489" flag="0"/>
      <vel value="2.3501014969" flag="0"/>
      <psa03 value="9.2482621564" flag="0"/>
      <psa10 value="1.0981765857" flag="0"/>
      <psa30 value="0.1052051727" flag="0"/>
    </comp>
    <comp name="--.HNN">
      <acc value="10.5396173805" flag="0"/>
      <vel value="1.6867879264" flag="0"/>
      <psa03 value="5.3393500605" flag="0"/>
      <psa10 value="0.8108639894" flag="0"/>
      <psa30 value="0.2053410301" flag="0"/>
    </comp>
    <comp name="--.HNZ">
      <acc value="8.5209556709" flag="0"/>
      <vel value="1.4802396637" flag="0"/>
      <psa03 value="4.8526522973" flag="0"/>
      <psa10 value="0.6430763230" flag="0"/>
      <psa30 value="0.0470807540" flag="0"/>
    </comp>
  </station>
  <station code="CIGN" name="CIGN" netid="IV" insttype="SS08" commtype="DIG" lat="41.6542" lon="14.905">
    <comp name="--.HHN">
      <acc value="0.0007030248" flag="0"/>
      <vel value="0.0017369225" flag="0"/>
      <psa03 value="0.0012726494" flag="0"/>
      <psa10 value="0.0014946174" flag="0"/>
      <psa30 value="0.0010627315" flag="0"/>
    </comp>
    <comp name="--.HHE">
      <acc value="0.0004918672" flag="0"/>
      <vel value="0.0019829783" flag="0"/>
      <psa03 value="0.0013070391" flag="0"/>
      <psa10 value="0.0017928668" flag="0"/>
      <psa30 value="0.0013948041" flag="0"/>
    </comp>
    <comp name="--.HHZ">
      <acc value="0.0005944234" flag="0"/>
      <vel value="0.0017600883" flag="0"/>
      <psa03 value="0.0016249588" flag="0"/>
      <psa10 value="0.0017046766" flag="0"/>
      <psa30 value="0.0013121329" flag="0"/>
    </comp>
  </station>
  <station code="CMIS" name="CMIS" netid="IV" insttype="" commtype="DIG" lat="40.7782" lon="14.089">
    <comp name="--.HNE">
      <acc value="4.6502723895" flag="0"/>
      <vel value="2.0264993832" flag="0"/>
      <psa03 value="8.7551897044" flag="0"/>
      <psa10 value="1.4953668328" flag="0"/>
      <psa30 value="0.0732746294" flag="0"/>
    </comp>
    <comp name="--.HNN">
      <acc value="3.7918186816" flag="0"/>
      <vel value="1.3478642722" flag="0"/>
      <psa03 value="6.8384211323" flag="0"/>
      <psa10 value="1.6411445301" flag="0"/>
      <psa30 value="0.1922421116" flag="0"/>
    </comp>
    <comp name="--.HNZ">
      <acc value="2.1047104320" flag="0"/>
      <vel value="0.5859330449" flag="0"/>
      <psa03 value="3.5390015456" flag="0"/>
      <psa10 value="0.3276998222" flag="0"/>
      <psa30 value="0.0861472947" flag="0"/>
    </comp>
  </station>
  <station code="CMPR" name="CMPR" netid="IV" insttype="" commtype="DIG" lat="40.3181" lon="15.303">
    <comp name="--.HHN">
      <acc value="0.0011069963" flag="0"/>
      <vel value="0.0008911275" flag="0"/>
      <psa03 value="0.0039097193" flag="0"/>
      <psa10 value="0.0017049777" flag="0"/>
      <psa30 value="0.0004481944" flag="0"/>
    </comp>
    <comp name="--.HHE">
      <acc value="0.0014563699" flag="0"/>
      <vel value="0.0010496173" flag="0"/>
      <psa03 value="0.0032760867" flag="0"/>
      <psa10 value="0.0016748938" flag="0"/>
      <psa30 value="0.0003224242" flag="0"/>
    </comp>
    <comp name="--.HHZ">
      <acc value="0.0008682745" flag="0"/>
      <vel value="0.0008431116" flag="0"/>
      <psa03 value="0.0031146150" flag="0"/>
      <psa10 value="0.0016335008" flag="0"/>
      <psa30 value="0.0003433265" flag="0"/>
    </comp>
  </station>
  <station code="CMSN" name="CMSN" netid="IV" insttype="" commtype="DIG" lat="40.8382" lon="14.1818">
    <comp name="--.HHN">
      <acc value="0.5133612609" flag="0"/>
      <vel value="0.3420051035" flag="0"/>
      <psa03 value="1.0717330053" flag="0"/>
      <psa10 value="0.4710482891" flag="0"/>
      <psa30 value="0.0676332723" flag="0"/>
    </comp>
    <comp name="--.HHE">
      <acc value="0.4947586201" flag="0"/>
      <vel value="0.3269929642" flag="0"/>
      <psa03 value="0.9254398691" flag="0"/>
      <psa10 value="0.6633704569" flag="0"/>
      <psa30 value="0.0614158145" flag="0"/>
    </comp>
    <comp name="--.HHZ">
      <acc value="0.3587186855" flag="0"/>
      <vel value="0.2699443707" flag="0"/>
      <psa03 value="0.9432425100" flag="0"/>
      <psa10 value="0.2926475875" flag="0"/>
      <psa30 value="0.0546144642" flag="0"/>
    </comp>
  </station>
  <station code="CNIS" name="CNIS" netid="IV" insttype="" commtype="DIG" lat="40.7982" lon="14.1632">
    <comp name="--.HHN">
      <acc value="0.4179969443" flag="0"/>
      <vel value="0.2959664927" flag="0"/>
      <psa03 value="0.7834126263" flag="0"/>
      <psa10 value="0.3929337182" flag="0"/>
      <psa30 value="0.1302882117" flag="0"/>
    </comp>
    <comp name="--.HHE">
      <acc value="0.4325517973" flag="0"/>
      <vel value="0.3250106891" flag="0"/>
      <psa03 value="0.8628266254" flag="0"/>
      <psa10 value="0.6426968320" flag="0"/>
      <psa30 value="0.0503394911" flag="0"/>
    </comp>
    <comp name="--.HHZ">
      <acc value="0.7123423507" flag="0"/>
      <vel value="0.2777845862" flag="0"/>
      <psa03 value="0.6171630345" flag="0"/>
      <psa10 value="0.5470800774" flag="0"/>
      <psa30 value="0.0365629645" flag="0"/>
    </comp>
  </station>
  <station code="COLB" name="COLB" netid="IV" insttype="" commtype="DIG" lat="40.819" lon="14.1446">
    <comp name="--.HNE">
      <acc value="2.1315210066" flag="0"/>
      <vel value="0.5723570800" flag="0"/>
      <psa03 value="1.8741956693" flag="0"/>
      <psa10 value="0.6509048483" flag="0"/>
      <psa30 value="0.1272929066" flag="0"/>
    </comp>
    <comp name="--.HNN">
      <acc value="2.7336195437" flag="0"/>
      <vel value="0.7864171497" flag="0"/>
      <psa03 value="3.6007194537" flag="0"/>
      <psa10 value="0.4073066348" flag="0"/>
      <psa30 value="0.1097387419" flag="0"/>
    </comp>
    <comp name="--.HNZ">
      <acc value="2.6027234606" flag="0"/>
      <vel value="0.4871169128" flag="0"/>
      <psa03 value="2.5153995790" flag="0"/>
      <psa10 value="0.5513581297" flag="0"/>
      <psa30 value="0.0803703101" flag="0"/>
    </comp>
  </station>
  <station code="CPOZ" name="CPOZ" netid="IV" insttype="" commtype="DIG" lat="40.8211" lon="14.1191">
    <comp name="--.HNE">
      <acc value="4.0095849790" flag="0"/>
      <vel value="1.7231233461" flag="0"/>
      <psa03 value="6.3798819528" flag="0"/>
      <psa10 value="1.5637085687" flag="0"/>
      <psa30 value="0.1514933137" flag="0"/>
    </comp>
    <comp name="--.HNN">
      <acc value="3.6765094783" flag="0"/>
      <vel value="2.0862131501" flag="0"/>
      <psa03 value="4.1283387823" flag="0"/>
      <psa10 value="2.0568341446" flag="0"/>
      <psa30 value="0.1843302297" flag="0"/>
    </comp>
    <comp name="--.HNZ">
      <acc value="4.8977529077" flag="0"/>
      <vel value="1.0911593412" flag="0"/>
      <psa03 value="3.0179863285" flag="0"/>
      <psa10 value="1.0292121098" flag="0"/>
      <psa30 value="0.1197185414" flag="0"/>
    </comp>
  </station>
  <station code="CQUE" name="CQUE" netid="IV" insttype="" commtype="DIG" lat="40.8854" lon="14.1554">
    <comp name="--.HHE">
      <acc value="0.6941999185" flag="0"/>
      <vel value="0.2977839835" flag="0"/>
      <psa03 value="1.9251382934" flag="0"/>
      <psa10 value="0.2488982743" flag="0"/>
      <psa30 value="0.0308418795" flag="0"/>
    </comp>
    <comp name="--.HHN">
      <acc value="0.4647463992" flag="0"/>
      <vel value="0.3364570686" flag="0"/>
      <psa03 value="1.4623616697" flag="0"/>
      <psa10 value="0.8301822497" flag="0"/>
      <psa30 value="0.0677247025" flag="0"/>
    </comp>
    <comp name="--.HHZ">
      <acc value="0.5972888419" flag="0"/>
      <vel value="0.2526881247" flag="0"/>
      <psa03 value="1.0068132116" flag="0"/>
      <psa10 value="0.3089789768" flag="0"/>
      <psa30 value="0.0364461465" flag="0"/>
    </comp>
  </station>
  <station code="CRTO" name="CRTO" netid="IV" insttype="" commtype="DIG" lat="40.8212" lon="14.4223">
    <comp name="--.HHN">
      <acc value="0.0441319707" flag="0"/>
      <vel value="0.0205721527" flag="0"/>
      <psa03 value="0.1310414810" flag="0"/>
      <psa10 value="0.0442819625" flag="0"/>
      <psa30 value="0.0034314679" flag="0"/>
    </comp>
    <comp name="--.HHZ">
      <acc value="0.0746001962" flag="0"/>
      <vel value="0.0210059981" flag="0"/>
      <psa03 value="0.1207335231" flag="0"/>
      <psa10 value="0.0213651424" flag="0"/>
      <psa30 value="0.0060918880" flag="0"/>
    </comp>
    <comp name="--.HHE">
      <acc value="0.0015921866" flag="0"/>
      <vel value="0.0001620547" flag="0"/>
      <psa03 value="0.0002940661" flag="0"/>
      <psa10 value="0.0000447858" flag="0"/>
      <psa30 value="0.0000081041" flag="0"/>
    </comp>
  </station>
  <station code="CSFT" name="CSFT" netid="IV" insttype="" commtype="DIG" lat="40.8292" lon="14.1396">
    <comp name="--.HHE">
      <acc value="8.6993933469" flag="0"/>
      <vel value="1.9676382018" flag="0"/>
      <psa03 value="18.7340501010" flag="0"/>
      <psa10 value="0.7085336192" flag="0"/>
      <psa30 value="0.1400578258" flag="0"/>
    </comp>
    <comp name="--.HHN">
      <acc value="8.2600239297" flag="0"/>
      <vel value="2.7692301775" flag="0"/>
      <psa03 value="26.6264212053" flag="0"/>
      <psa10 value="0.5907549864" flag="0"/>
      <psa30 value="0.1729976132" flag="0"/>
    </comp>
    <comp name="--.HHZ">
      <acc value="4.4937598527" flag="0"/>
      <vel value="1.1045019686" flag="0"/>
      <psa03 value="4.2368174963" flag="0"/>
      <psa10 value="0.3890632569" flag="0"/>
      <psa30 value="0.0933811782" flag="0"/>
    </comp>
  </station>
  <station code="CSOB" name="CSOB" netid="IV" insttype="" commtype="DIG" lat="40.8265" lon="14.144">
    <comp name="--.HNE">
      <acc value="2.4850824754" flag="0"/>
      <vel value="0.6478975877" flag="0"/>
      <psa03 value="3.0025518384" flag="0"/>
      <psa10 value="0.6536816926" flag="0"/>
      <psa30 value="0.1416920309" flag="0"/>
    </comp>
    <comp name="--.HNN">
      <acc value="1.8489867499" flag="0"/>
      <vel value="0.6245931520" flag="0"/>
      <psa03 value="4.2772050286" flag="0"/>
      <psa10 value="0.9581753461" flag="0"/>
      <psa30 value="0.1611382778" flag="0"/>
    </comp>
    <comp name="--.HNZ">
      <acc value="1.5273965419" flag="0"/>
      <vel value="0.5396854708" flag="0"/>
      <psa03 value="2.5371729058" flag="0"/>
      <psa10 value="0.6517588717" flag="0"/>
      <psa30 value="0.0957395776" flag="0"/>
    </comp>
  </station>
  <station code="CSTH" name="CSTH" netid="IV" insttype="" commtype="DIG" lat="40.8294" lon="14.1493">
    <comp name="--.HNZ">
      <acc value="2.2115516878" flag="0"/>
      <vel value="0.5316681171" flag="0"/>
      <psa03 value="3.0962207851" flag="0"/>
      <psa10 value="0.4815843853" flag="0"/>
      <psa30 value="0.0915361615" flag="0"/>
    </comp>
    <comp name="--.HNN">
      <acc value="3.6039743394" flag="0"/>
      <vel value="0.7265857059" flag="0"/>
      <psa03 value="2.7709826865" flag="0"/>
      <psa10 value="0.3974846400" flag="0"/>
      <psa30 value="0.1131407978" flag="0"/>
    </comp>
    <comp name="--.HNE">
      <acc value="2.5749559414" flag="0"/>
      <vel value="0.7936532513" flag="0"/>
      <psa03 value="3.5290482956" flag="0"/>
      <psa10 value="0.6850963960" flag="0"/>
      <psa30 value="0.1077017776" flag="0"/>
    </comp>
  </station>
  <station code="CUMA" name="CUMA" netid="IV" insttype="" commtype="DIG" lat="40.8479" lon="14.0534">
    <comp name="--.HHE">
      <acc value="1.4086283793" flag="0"/>
      <vel value="0.4501416786" flag="0"/>
