<?xml version="1.0" encoding="UTF-8" standalone="yes"?>
<!DOCTYPE earthquake SYSTEM "stationlist.dtd">
<stationlist created="" xmlns="ch.ethz.sed.shakemap.usgs.xml">
  <station code="CLAC" name="CLAC" netid="2I" insttype="" commtype="DIG" lat="40.8836" lon="14.0706">
    <comp name="--.HHE">
      <acc value="1.0094645850" flag="0"/>
      <vel value="0.4598529448" flag="0"/>
      <psa03 value="1.4960660290" flag="0"/>
      <psa10 value="0.5614460593" flag="0"/>
      <psa30 value="0.0420567118" flag="0"/>
    </comp>
    <comp name="--.HHN">
      <acc value="1.1856111305" flag="0"/>
      <vel value="0.6752943484" flag="0"/>
      <psa03 value="1.7581171912" flag="0"/>
      <psa10 value="0.5161877640" flag="0"/>
      <psa30 value="0.0490426312" flag="0"/>
    </comp>
    <comp name="--.HHZ">
      <acc value="0.9561764736" flag="0"/>
      <vel value="0.2825928945" flag="0"/>
      <psa03 value="1.7158849235" flag="0"/>
      <psa10 value="0.2683141367" flag="0"/>
      <psa30 value="0.0308548571" flag="0"/>
    </comp>
  </station>
  <station code="CAMPI" name="CAMPI" netid="GX" insttype="Trillium Compact" commtype="DIG" lat="40.7071" lon="15.2738">
    <comp name="--.HHE">
      <acc value="0.0026750408" flag="0"/>
      <vel value="0.0054127069" flag="0"/>
      <psa03 value="0.0067019678" flag="0"/>
      <psa10 value="0.0096743604" flag="0"/>
      <psa30 value="0.0018642572" flag="0"/>
    </comp>
    <comp name="--.HHN">
      <acc value="0.0031997390" flag="0"/>
      <vel value="0.0052811764" flag="0"/>
      <psa03 value="0.0090105625" flag="0"/>
      <psa10 value="0.0097384059" flag="0"/>
      <psa30 value="0.0016617053" flag="0"/>
    </comp>
    <comp name="--.HHZ">
      <acc value="0.0016919800" flag="0"/>
      <vel value="0.0024709013" flag="0"/>
      <psa03 value="0.0060157614" flag="0"/>
      <psa10 value="0.0058967659" flag="0"/>
      <psa30 value="0.0005406831" flag="0"/>
    </comp>
  </station>
  <station code="BSSO" name="BSSO" netid="IV" insttype="" commtype="DIG" lat="41.5461" lon="14.5938">
    <comp name="--.HHE">
      <acc value="0.0017149472" flag="0"/>
      <vel value="0.0029179397" flag="0"/>
      <psa03 value="0.0056243229" flag="0"/>
      <psa10 value="0.0040567271" flag="0"/>
      <psa30 value="0.0020963066" flag="0"/>
    </comp>
    <comp name="--.HHN">
      <acc value="0.0019711297" flag="0"/>
      <vel value="0.0030526788" flag="0"/>
      <psa03 value="0.0036624495" flag="0"/>
      <psa10 value="0.0039623320" flag="0"/>
      <psa30 value="0.0015316264" flag="0"/>
    </comp>
    <comp name="--.HHZ">
      <acc value="0.0011026991" flag="0"/>
      <vel value="0.0030193899" flag="0"/>
      <psa03 value="0.0024689136" flag="0"/>
      <psa10 value="0.0025518018" flag="0"/>
      <psa30 value="0.0014093989" flag="0"/>
    </comp>
  </station>
  <station code="CAAM" name="CAAM" netid="IV" insttype="" commtype="DIG" lat="40.8201" lon="14.142">
    <comp name="--.HNN">
      <acc value="2.3490396543" flag="0"/>
      <vel value="0.5822987825" flag="0"/>
      <psa03 value="2.2393141478" flag="0"/>
      <psa10 value="0.6538762558" flag="0"/>
      <psa30 value="0.1508238035" flag="0"/>
    </comp>
    <comp name="--.HNZ">
      <acc value="1.7817745383" flag="0"/>
      <vel value="0.5565314088" flag="0"/>
      <psa03 value="4.0582365029" flag="0"/>
      <psa10 value="0.6304955634" flag="0"/>
      <psa30 value="0.0900145395" flag="0"/>
    </comp>
    <comp name="--.HNE">
      <acc value="1.2834082308" flag="0"/>
      <vel value="0.7088572408" flag="0"/>
      <psa03 value="2.4983624588" flag="0"/>
      <psa10 value="0.7854061948" flag="0"/>
      <psa30 value="0.1660387096" flag="0"/>
    </comp>
  </station>
  <station code="CAFE" name="CAFE" netid="IV" insttype="" commtype="DIG" lat="41.028" lon="15.2366">
    <comp name="--.HHE">
      <acc value="0.0023181709" flag="0"/>
      <vel value="0.0048415283" flag="0"/>
      <psa03 value="0.0055313783" flag="0"/>
      <psa10 value="0.0062001915" flag="0"/>
      <psa30 value="0.0024981389" flag="0"/>
    </comp>
    <comp name="--.HHN">
      <acc value="0.0026230276" flag="0"/>
      <vel value="0.0036378867" flag="0"/>
      <psa03 value="0.0044283072" flag="0"/>
      <psa10 value="0.0048166063" flag="0"/>
      <psa30 value="0.0018662927" flag="0"/>
    </comp>
    <comp name="--.HHZ">
      <acc value="0.0015453449" flag="0"/>
      <vel value="0.0018441980" flag="0"/>
      <psa03 value="0.0037670763" flag="0"/>
      <psa10 value="0.0030823464" flag="0"/>
      <psa30 value="0.0006841878" flag="0"/>
    </comp>
  </station>
  <station code="CAWE" name="CAWE" netid="IV" insttype="" commtype="DIG" lat="40.8405" lon="14.1393">
    <comp name="--.HNE">
      <acc value="4.0626198783" flag="0"/>
      <vel value="1.5108554451" flag="0"/>
      <psa03 value="8.2277514646" flag="0"/>
      <psa10 value="0.9209001370" flag="0"/>
      <psa30 value="0.1146821028" flag="0"/>
    </comp>
    <comp name="--.HNN">
      <acc value="3.4685667133" flag="0"/>
      <vel value="1.7340048120" flag="0"/>
      <psa03 value="7.6978944017" flag="0"/>
      <psa10 value="1.3197257721" flag="0"/>
      <psa30 value="0.2512301166" flag="0"/>
    </comp>
    <comp name="--.HNZ">
      <acc value="3.4534926798" flag="0"/>
      <vel value="0.9929844725" flag="0"/>
      <psa03 value="4.2166228041" flag="0"/>
      <psa10 value="0.9638618259" flag="0"/>
      <psa30 value="0.1335437978" flag="0"/>
    </comp>
  </station>
  <station code="CBAC" name="CBAC" netid="IV" insttype="" commtype="DIG" lat="40.8109" lon="14.0806">
    <comp name="--.HNE">
      <acc value="19.3441648951" flag="0"/>
      <vel value="3.7587420088" flag="0"/>
      <psa03 value="6.2759264787" flag="0"/>
      <psa10 value="2.7700003266" flag="0"/>
      <psa30 value="0.1767796376" flag="0"/>
    </comp>
    <comp name="--.HNZ">
      <acc value="9.9450351382" flag="0"/>
      <vel value="1.7787741046" flag="0"/>
      <psa03 value="7.9229286449" flag="0"/>
      <psa10 value="1.1701895916" flag="0"/>
      <psa30 value="0.1205199378" flag="0"/>
    </comp>
    <comp name="--.HNN">
      <acc value="22.7370226973" flag="0"/>
      <vel value="5.4579047418" flag="0"/>
      <psa03 value="16.8420656255" flag="0"/>
      <psa10 value="3.5081258460" flag="0"/>
      <psa30 value="0.3117139028" flag="0"/>
    </comp>
  </station>
  <station code="CDRU" name="CDRU" netid="IV" insttype="" commtype="DIG" lat="40.4896" lon="15.3046">
    <comp name="--.HHE">
      <acc value="0.0025298382" flag="0"/>
      <vel value="0.0011281275" flag="0"/>
      <psa03 value="0.0048486264" flag="0"/>
      <psa10 value="0.0012057482" flag="0"/>
      <psa30 value="0.0003292867" flag="0"/>
    </comp>
    <comp name="--.HHN">
      <acc value="0.0009203388" flag="0"/>
      <vel value="0.0011774090" flag="0"/>
      <psa03 value="0.0025629540" flag="0"/>
      <psa10 value="0.0012610257" flag="0"/>
      <psa30 value="0.0004815778" flag="0"/>
    </comp>
    <comp name="--.HHZ">
      <acc value="0.0012645363" flag="0"/>
      <vel value="0.0006661174" flag="0"/>
      <psa03 value="0.0030871445" flag="0"/>
      <psa10 value="0.0008602985" flag="0"/>
      <psa30 value="0.0002452065" flag="0"/>
    </comp>
  </station>
  <station code="CERA" name="CERA" netid="IV" insttype="" commtype="DIG" lat="41.5978" lon="14.0183">
    <comp name="--.HHE">
      <acc value="0.0031753984" flag="0"/>
      <vel value="0.0037315124" flag="0"/>
      <psa03 value="0.0112761522" flag="0"/>
      <psa10 value="0.0074372659" flag="0"/>
      <psa30 value="0.0007636134" flag="0"/>
    </comp>
    <comp name="--.HHN">
      <acc value="0.0031251431" flag="0"/>
      <vel value="0.0041035337" flag="0"/>
      <psa03 value="0.0094250461" flag="0"/>
      <psa10 value="0.0053196400" flag="0"/>
      <psa30 value="0.0008117440" flag="0"/>
    </comp>
    <comp name="--.HHZ">
      <acc value="0.0031127013" flag="0"/>
      <vel value="0.0031974333" flag="0"/>
      <psa03 value="0.0049101301" flag="0"/>
      <psa10 value="0.0049141292" flag="0"/>
      <psa30 value="0.0007737867" flag="0"/>
    </comp>
  </station>
  <station code="CFMN" name="CFMN" netid="IV" insttype="" commtype="DIG" lat="40.8329" lon="14.0904">
    <comp name="--.HNE">
      <acc value="7.6707950495" flag="0"/>
      <vel value="2.3501014989" flag="0"/>
      <psa03 value="9.2482621564" flag="0"/>
      <psa10 value="1.0981765618" flag="0"/>
      <psa30 value="0.1052064594" flag="0"/>
    </comp>
    <comp name="--.HNZ">
      <acc value="8.5209556712" flag="0"/>
      <vel value="1.4802396634" flag="0"/>
      <psa03 value="4.8526522973" flag="0"/>
      <psa10 value="0.6430763186" flag="0"/>
      <psa30 value="0.0470772821" flag="0"/>
    </comp>
    <comp name="--.HNN">
      <acc value="10.5396173803" flag="0"/>
      <vel value="1.6867879249" flag="0"/>
      <psa03 value="5.3393500605" flag="0"/>
      <psa10 value="0.8108639953" flag="0"/>
      <psa30 value="0.2053412169" flag="0"/>
    </comp>
  </station>
  <station code="CIGN" name="CIGN" netid="IV" insttype="SS08" commtype="DIG" lat="41.6542" lon="14.905">
    <comp name="--.HHE">
      <acc value="0.0004918680" flag="0"/>
      <vel value="0.0020473730" flag="0"/>
      <psa03 value="0.0013070391" flag="0"/>
      <psa10 value="0.0017928668" flag="0"/>
      <psa30 value="0.0016643825" flag="0"/>
    </comp>
    <comp name="--.HHN">
      <acc value="0.0007030249" flag="0"/>
      <vel value="0.0017369174" flag="0"/>
      <psa03 value="0.0012726494" flag="0"/>
      <psa10 value="0.0014931577" flag="0"/>
      <psa30 value="0.0010627293" flag="0"/>
    </comp>
    <comp name="--.HHZ">
      <acc value="0.0005944235" flag="0"/>
      <vel value="0.0017600884" flag="0"/>
      <psa03 value="0.0016249588" flag="0"/>
      <psa10 value="0.0017046766" flag="0"/>
      <psa30 value="0.0013246462" flag="0"/>
    </comp>
  </station>
  <station code="CMIS" name="CMIS" netid="IV" insttype="" commtype="DIG" lat="40.7782" lon="14.089">
    <comp name="--.HNE">
      <acc value="4.6502723901" flag="0"/>
      <vel value="2.0264993661" flag="0"/>
      <psa03 value="8.7551897044" flag="0"/>
      <psa10 value="1.4953666116" flag="0"/>
      <psa30 value="0.0732761770" flag="0"/>
    </comp>
    <comp name="--.HNN">
      <acc value="3.7918186818" flag="0"/>
      <vel value="1.3478642729" flag="0"/>
      <psa03 value="6.8384211323" flag="0"/>
      <psa10 value="1.6411445478" flag="0"/>
      <psa30 value="0.1922424264" flag="0"/>
    </comp>
    <comp name="--.HNZ">
      <acc value="2.1047104322" flag="0"/>
      <vel value="0.5859330448" flag="0"/>
      <psa03 value="3.5390015456" flag="0"/>
      <psa10 value="0.3276998256" flag="0"/>
      <psa30 value="0.0861474700" flag="0"/>
    </comp>
  </station>
  <station code="CMPR" name="CMPR" netid="IV" insttype="" commtype="DIG" lat="40.3181" lon="15.303">
    <comp name="--.HHE">
      <acc value="0.0014563699" flag="0"/>
      <vel value="0.0010496169" flag="0"/>
      <psa03 value="0.0032760867" flag="0"/>
      <psa10 value="0.0016748938" flag="0"/>
      <psa30 value="0.0003224271" flag="0"/>
    </comp>
    <comp name="--.HHZ">
      <acc value="0.0008682744" flag="0"/>
      <vel value="0.0008431121" flag="0"/>
      <psa03 value="0.0031146150" flag="0"/>
      <psa10 value="0.0016335008" flag="0"/>
      <psa30 value="0.0003433251" flag="0"/>
    </comp>
    <comp name="--.HHN">
      <acc value="0.0011069964" flag="0"/>
      <vel value="0.0008911279" flag="0"/>
      <psa03 value="0.0039097193" flag="0"/>
      <psa10 value="0.0017049777" flag="0"/>
      <psa30 value="0.0004481982" flag="0"/>
    </comp>
  </station>
  <station code="CMSN" name="CMSN" netid="IV" insttype="" commtype="DIG" lat="40.8382" lon="14.1818">
    <comp name="--.HHE">
      <acc value="0.4947586192" flag="0"/>
      <vel value="0.3269929621" flag="0"/>
      <psa03 value="0.9254398691" flag="0"/>
      <psa10 value="0.6633704574" flag="0"/>
      <psa30 value="0.0614153975" flag="0"/>
    </comp>
    <comp name="--.HHN">
      <acc value="0.5133612616" flag="0"/>
      <vel value="0.3420050980" flag="0"/>
      <psa03 value="1.0717330054" flag="0"/>
      <psa10 value="0.4710483088" flag="0"/>
      <psa30 value="0.0676318008" flag="0"/>
    </comp>
    <comp name="--.HHZ">
      <acc value="0.3587186839" flag="0"/>
      <vel value="0.2699443684" flag="0"/>
      <psa03 value="0.9432425100" flag="0"/>
      <psa10 value="0.2926475826" flag="0"/>
      <psa30 value="0.0546135932" flag="0"/>
    </comp>
  </station>
  <station code="CNIS" name="CNIS" netid="IV" insttype="" commtype="DIG" lat="40.7982" lon="14.1632">
    <comp name="--.HHZ">
      <acc value="0.7123423505" flag="0"/>
      <vel value="0.2777845871" flag="0"/>
      <psa03 value="0.6171630345" flag="0"/>
      <psa10 value="0.5470800785" flag="0"/>
      <psa30 value="0.0365621733" flag="0"/>
    </comp>
    <comp name="--.HHE">
      <acc value="0.4325517975" flag="0"/>
      <vel value="0.3250106940" flag="0"/>
      <psa03 value="0.8628266254" flag="0"/>
      <psa10 value="0.6426968357" flag="0"/>
      <psa30 value="0.0503381681" flag="0"/>
    </comp>
    <comp name="--.HHN">
      <acc value="0.4179969441" flag="0"/>
      <vel value="0.2959664977" flag="0"/>
      <psa03 value="0.7834126263" flag="0"/>
      <psa10 value="0.3929337181" flag="0"/>
      <psa30 value="0.1302880503" flag="0"/>
    </comp>
  </station>
  <station code="COLB" name="COLB" netid="IV" insttype="" commtype="DIG" lat="40.819" lon="14.1446">
    <comp name="--.HNN">
      <acc value="2.7336195436" flag="0"/>
      <vel value="0.7864171492" flag="0"/>
      <psa03 value="3.6007194537" flag="0"/>
      <psa10 value="0.4073066393" flag="0"/>
      <psa30 value="0.1097386709" flag="0"/>
    </comp>
    <comp name="--.HNE">
      <acc value="2.1315210069" flag="0"/>
      <vel value="0.5723570805" flag="0"/>
      <psa03 value="1.8741956693" flag="0"/>
      <psa10 value="0.6509048752" flag="0"/>
      <psa30 value="0.1272912017" flag="0"/>
    </comp>
    <comp name="--.HNZ">
      <acc value="2.6027234601" flag="0"/>
      <vel value="0.4871169056" flag="0"/>
      <psa03 value="2.5153995790" flag="0"/>
      <psa10 value="0.5513581465" flag="0"/>
      <psa30 value="0.0803697850" flag="0"/>
    </comp>
  </station>
  <station code="CPOZ" name="CPOZ" netid="IV" insttype="" commtype="DIG" lat="40.8211" lon="14.1191">
    <comp name="--.HNE">
      <acc value="4.0095849790" flag="0"/>
      <vel value="1.7231233437" flag="0"/>
      <psa03 value="6.3798819528" flag="0"/>
      <psa10 value="1.5637085580" flag="0"/>
      <psa30 value="0.1514886473" flag="0"/>
    </comp>
    <comp name="--.HNN">
      <acc value="3.6765094779" flag="0"/>
      <vel value="2.0862131531" flag="0"/>
      <psa03 value="4.1283387823" flag="0"/>
      <psa10 value="2.0568342652" flag="0"/>
      <psa30 value="0.1843352361" flag="0"/>
    </comp>
    <comp name="--.HNZ">
      <acc value="4.8977529082" flag="0"/>
      <vel value="1.0911593479" flag="0"/>
      <psa03 value="3.0179863285" flag="0"/>
      <psa10 value="1.0292120718" flag="0"/>
      <psa30 value="0.1197177584" flag="0"/>
    </comp>
  </station>
  <station code="CQUE" name="CQUE" netid="IV" insttype="" commtype="DIG" lat="40.8854" lon="14.1554">
    <comp name="--.HHE">
      <acc value="0.6941999185" flag="0"/>
      <vel value="0.2977839814" flag="0"/>
      <psa03 value="1.9251382933" flag="0"/>
      <psa10 value="0.2488982740" flag="0"/>
      <psa30 value="0.0308425039" flag="0"/>
    </comp>
    <comp name="--.HHZ">
      <acc value="0.5972888418" flag="0"/>
      <vel value="0.2526881259" flag="0"/>
      <psa03 value="1.0068132116" flag="0"/>
      <psa10 value="0.3089789786" flag="0"/>
      <psa30 value="0.0364462444" flag="0"/>
    </comp>
    <comp name="--.HHN">
      <acc value="0.4647463994" flag="0"/>
      <vel value="0.3364570672" flag="0"/>
      <psa03 value="1.4623616697" flag="0"/>
      <psa10 value="0.8301822515" flag="0"/>
      <psa30 value="0.0677249944" flag="0"/>
    </comp>
  </station>
  <station code="CRTO" name="CRTO" netid="IV" insttype="" commtype="DIG" lat="40.8212" lon="14.4223">
    <comp name="--.HHE">
      <acc value="0.0016166306" flag="0"/>
      <vel value="0.0001620546" flag="0"/>
      <psa03 value="0.0002940661" flag="0"/>
      <psa10 value="0.0000447858" flag="0"/>
      <psa30 value="0.0000080558" flag="0"/>
    </comp>
    <comp name="--.HHN">
      <acc value="0.0441319746" flag="0"/>
      <vel value="0.0205721505" flag="0"/>
      <psa03 value="0.1310414810" flag="0"/>
      <psa10 value="0.0442819625" flag="0"/>
      <psa30 value="0.0034314693" flag="0"/>
    </comp>
    <comp name="--.HHZ">
      <acc value="0.0746001838" flag="0"/>
      <vel value="0.0210059959" flag="0"/>
      <psa03 value="0.1207335231" flag="0"/>
      <psa10 value="0.0213651424" flag="0"/>
      <psa30 value="0.0060915411" flag="0"/>
    </comp>
  </station>
  <station code="CSFT" name="CSFT" netid="IV" insttype="" commtype="DIG" lat="40.8292" lon="14.1396">
    <comp name="--.HHE">
      <acc value="8.6993933474" flag="0"/>
      <vel value="1.9676382046" flag="0"/>
      <psa03 value="18.7340501010" flag="0"/>
      <psa10 value="0.7085336279" flag="0"/>
      <psa30 value="0.1400577778" flag="0"/>
    </comp>
    <comp name="--.HHN">
      <acc value="8.2600239297" flag="0"/>
      <vel value="2.7692301674" flag="0"/>
      <psa03 value="26.6264212053" flag="0"/>
      <psa10 value="0.5907549820" flag="0"/>
      <psa30 value="0.1729976339" flag="0"/>
    </comp>
    <comp name="--.HHZ">
      <acc value="4.4937598544" flag="0"/>
      <vel value="1.1045019823" flag="0"/>
      <psa03 value="4.2368174963" flag="0"/>
      <psa10 value="0.3890632590" flag="0"/>
      <psa30 value="0.0933806872" flag="0"/>
    </comp>
  </station>
  <station code="CSOB" name="CSOB" netid="IV" insttype="" commtype="DIG" lat="40.8265" lon="14.144">
    <comp name="--.HNE">
      <acc value="2.4850824759" flag="0"/>
      <vel value="0.6478975890" flag="0"/>
      <psa03 value="3.0025518384" flag="0"/>
      <psa10 value="0.6536816909" flag="0"/>
      <psa30 value="0.1416916914" flag="0"/>
    </comp>
    <comp name="--.HNZ">
      <acc value="1.5273965419" flag="0"/>
      <vel value="0.5396854748" flag="0"/>
      <psa03 value="2.5371729058" flag="0"/>
      <psa10 value="0.6517588726" flag="0"/>
      <psa30 value="0.0957401075" flag="0"/>
    </comp>
    <comp name="--.HNN">
      <acc value="1.8489867500" flag="0"/>
      <vel value="0.6245931513" flag="0"/>
      <psa03 value="4.2772050286" flag="0"/>
      <psa10 value="0.9581753188" flag="0"/>
      <psa30 value="0.1611379059" flag="0"/>
    </comp>
  </station>
  <station code="CSTH" name="CSTH" netid="IV" insttype="" commtype="DIG" lat="40.8294" lon="14.1493">
    <comp name="--.HNE">
      <acc value="2.5749559411" flag="0"/>
      <vel value="0.7936532504" flag="0"/>
      <psa03 value="3.5290482956" flag="0"/>
      <psa10 value="0.6850964020" flag="0"/>
      <psa30 value="0.1077002321" flag="0"/>
    </comp>
    <comp name="--.HNN">
      <acc value="3.6039743385" flag="0"/>
      <vel value="0.7265857019" flag="0"/>
      <psa03 value="2.7709826865" flag="0"/>
      <psa10 value="0.3974846399" flag="0"/>
      <psa30 value="0.1131400920" flag="0"/>
    </comp>
    <comp name="--.HNZ">
      <acc value="2.2115516878" flag="0"/>
      <vel value="0.5316681195" flag="0"/>
      <psa03 value="3.0962207851" flag="0"/>
      <psa10 value="0.4815844139" flag="0"/>
      <psa30 value="0.0915384754" flag="0"/>
    </comp>
  </station>
  <station code="CUMA" name="CUMA" netid="IV" insttype="" commtype="DIG" lat="40.8479" lon="14.0534">
    <comp name="--.HHE">
      <acc value="1.4086283795" flag="0"/>
      <vel value="0.4501416771" flag="0"/>
