<stationlist xmlns:esm="https://esm-db.eu/esmws/shakemap/1/" created="1780019666">
	<station code="BAIP" name="BAIP" netid="IT" source="Italian Strong Motion Network (RAN)" insttype="" lat="40.8183" lon="14.0705" esm:processing="manual (Paolucci et al 2011)" esm:quality="good">
		<comp name="--.HNE" depth="0.0">
			<acc value="25.3237622472397" flag="0"/>
			<vel value="6.56440510446561" flag="0"/>
			<psa03 value="27.2647048195527" flag="0"/>
			<psa10 value="1.32505577844228" flag="0"/>
			<psa30 value="0.181806097095008" flag="0"/>
		</comp>
		<comp name="--.HNN" depth="0.0">
			<acc value="19.4412880441193" flag="0"/>
			<vel value="6.82157680258459" flag="0"/>
			<psa03 value="32.0416506021001" flag="0"/>
			<psa10 value="2.24438171927405" flag="0"/>
			<psa30 value="0.239333427998351" flag="0"/>
		</comp>
		<comp name="--.HNZ" depth="0.0">
			<acc value="10.6024474734695" flag="0"/>
			<vel value="1.69810696459935" flag="0"/>
			<psa03 value="7.12787418668307" flag="0"/>
			<psa10 value="0.644366546121293" flag="0"/>
			<psa30 value="0.0758236829468719" flag="0"/>
		</comp>
	</station>
	<station code="BAN" name="BAN" netid="IT" source="Italian Strong Motion Network (RAN)" insttype="" lat="40.8138" lon="14.1652" esm:processing="manual (Paolucci et al 2011)" esm:quality="good">
		<comp name="--.HNE" depth="0.0">
			<acc value="1.13425608700621" flag="0"/>
			<vel value="0.604781609173209" flag="0"/>
			<psa03 value="1.97757283782841" flag="0"/>
			<psa10 value="0.573178430257991" flag="0"/>
			<psa30 value="0.0702201850759718" flag="0"/>
		</comp>
		<comp name="--.HNN" depth="0.0">
			<acc value="1.50182344393915" flag="0"/>
			<vel value="0.436261890182571" flag="0"/>
			<psa03 value="2.30364027152897" flag="0"/>
			<psa10 value="0.922263015398538" flag="0"/>
			<psa30 value="0.101915951431605" flag="0"/>
		</comp>
		<comp name="--.HNZ" depth="0.0">
			<acc value="1.55255052526012" flag="0"/>
			<vel value="0.478068705669806" flag="0"/>
			<psa03 value="2.18618665747014" flag="0"/>
			<psa10 value="0.696666850759799" flag="0"/>
			<psa30 value="0.0677827636087618" flag="0"/>
		</comp>
	</station>
	<station code="CML" name="CML" netid="IT" source="Italian Strong Motion Network (RAN)" insttype="" lat="40.7469" lon="13.9012" esm:processing="automatic (Paolucci et al 2011)" esm:quality="best">
		<comp name="--.HGE" depth="0.0">
			<acc value="0.266418093980742" flag="0"/>
			<vel value="0.119116773492725" flag="0"/>
			<psa03 value="0.395349273282415" flag="0"/>
			<psa10 value="0.146358710546282" flag="0"/>
			<psa30 value="0.0213687172393115" flag="0"/>
		</comp>
		<comp name="--.HGN" depth="0.0">
			<acc value="0.155325097093031" flag="0"/>
			<vel value="0.12127335701228" flag="0"/>
			<psa03 value="0.291200415598396" flag="0"/>
			<psa10 value="0.14867826920566" flag="0"/>
			<psa30 value="0.0211753160941015" flag="0"/>
		</comp>
		<comp name="--.HGZ" depth="0.0">
			<acc value="0.151337969915108" flag="0"/>
			<vel value="0.0499616742497258" flag="0"/>
			<psa03 value="0.312986233801933" flag="0"/>
			<psa10 value="0.0319231047490191" flag="0"/>
			<psa30 value="0.00955762814595826" flag="0"/>
		</comp>
	</station>
	<station code="CNC" name="CNC" netid="IT" source="Italian Strong Motion Network (RAN)" insttype="" lat="41.0777" lon="14.025" esm:processing="manual (Paolucci et al 2011)" esm:quality="good">
		<comp name="--.HGE" depth="0.0">
			<acc value="0.0596051201989552" flag="0"/>
			<vel value="0.0672510399301544" flag="0"/>
			<psa03 value="0.10701704768753" flag="0"/>
			<psa10 value="0.141894849837418" flag="0"/>
			<psa30 value="0.0255933237654273" flag="0"/>
		</comp>
		<comp name="--.HGN" depth="0.0">
			<acc value="0.0539389954154851" flag="0"/>
			<vel value="0.0617339163992382" flag="0"/>
			<psa03 value="0.12805814989062" flag="0"/>
			<psa10 value="0.134083382366035" flag="0"/>
			<psa30 value="0.0346197333874321" flag="0"/>
		</comp>
		<comp name="--.HGZ" depth="0.0">
			<acc value="0.0365229860700296" flag="0"/>
			<vel value="0.0317365714789646" flag="0"/>
			<psa03 value="0.109187264370401" flag="0"/>
			<psa10 value="0.047966862569236" flag="0"/>
			<psa30 value="0.0306056174719529" flag="0"/>
		</comp>
	</station>
	<station code="FORN" name="FORN" netid="IT" source="Italian Strong Motion Network (RAN)" insttype="" lat="41.606" lon="14.1415" esm:processing="manual (Paolucci et al 2011)" esm:quality="good">
		<comp name="--.HNE" depth="0.0">
			<acc value="0.00399676088646966" flag="0"/>
			<vel value="0.00680688170643573" flag="0"/>
			<psa03 value="0.0132366489984507" flag="0"/>
			<psa10 value="0.0113233894939817" flag="0"/>
			<psa30 value="0.00200839679643106" flag="0"/>
		</comp>
		<comp name="--.HNN" depth="0.0">
			<acc value="0.00408535749113648" flag="0"/>
			<vel value="0.00583489268563173" flag="0"/>
			<psa03 value="0.0114000260291093" flag="0"/>
			<psa10 value="0.00623376983165759" flag="0"/>
			<psa30 value="0.00217445946393446" flag="0"/>
		</comp>
		<comp name="--.HNZ" depth="0.0">
			<acc value="0.00316439900038412" flag="0"/>
			<vel value="0.00396190942239306" flag="0"/>
			<psa03 value="0.0109968886461529" flag="0"/>
			<psa10 value="0.00493311616973576" flag="0"/>
			<psa30 value="0.00289303394096698" flag="0"/>
		</comp>
	</station>
	<station code="MPCD" name="MPCD" netid="IT" source="Italian Strong Motion Network (RAN)" insttype="" lat="40.7944" lon="14.0552" esm:processing="manual (Paolucci et al 2011)" esm:quality="good">
		<comp name="--.HNE" depth="0.0">
			<acc value="21.3416916909466" flag="0"/>
			<vel value="3.79780457778807" flag="0"/>
			<psa03 value="8.36785166243868" flag="0"/>
			<psa10 value="1.93804042566679" flag="0"/>
			<psa30 value="0.204835982711905" flag="0"/>
		</comp>
		<comp name="--.HNN" depth="0.0">
			<acc value="15.9540220544674" flag="0"/>
			<vel value="2.68046735625913" flag="0"/>
			<psa03 value="9.22210291905865" flag="0"/>
			<psa10 value="0.993458211730887" flag="0"/>
			<psa30 value="0.0706567739978452" flag="0"/>
		</comp>
		<comp name="--.HNZ" depth="0.0">
			<acc value="10.4034677778974" flag="0"/>
			<vel value="1.61830546589762" flag="0"/>
			<psa03 value="5.80915949497333" flag="0"/>
			<psa10 value="0.95881941708074" flag="0"/>
			<psa30 value="0.0992240864420935" flag="0"/>
		</comp>
	</station>
	<station code="MTC" name="MTC" netid="IT" source="Italian Strong Motion Network (RAN)" insttype="" lat="41.4908" lon="13.815" esm:processing="manual (Paolucci et al 2011)" esm:quality="good">
		<comp name="--.HNE" depth="0.0">
			<acc value="0.00583148672264543" flag="0"/>
			<vel value="0.00383214008651148" flag="0"/>
			<psa03 value="0.0198460334523169" flag="0"/>
			<psa10 value="0.00592330832760661" flag="0"/>
			<psa30 value="0.00120908561682156" flag="0"/>
		</comp>
		<comp name="--.HNN" depth="0.0">
			<acc value="0.00840711041986271" flag="0"/>
			<vel value="0.00551163576793726" flag="0"/>
			<psa03 value="0.024354071671058" flag="0"/>
			<psa10 value="0.00544096028066574" flag="0"/>
			<psa30 value="0.00111724005333707" flag="0"/>
		</comp>
		<comp name="--.HNZ" depth="0.0">
			<acc value="0.00262879575068264" flag="0"/>
			<vel value="0.00193824301361477" flag="0"/>
			<psa03 value="0.00620391032757032" flag="0"/>
			<psa10 value="0.00235731967648444" flag="0"/>
			<psa30 value="0.000876484000263457" flag="0"/>
		</comp>
	</station>
	<station code="NAAG" name="NAAG" netid="IT" source="Italian Strong Motion Network (RAN)" insttype="" lat="40.8334" lon="14.1657" esm:processing="manual (Paolucci et al 2011)" esm:quality="good">
		<comp name="--.HNE" depth="0.0">
			<acc value="1.15810260319521" flag="0"/>
			<vel value="0.858337778254688" flag="0"/>
			<psa03 value="3.94639342919679" flag="0"/>
			<psa10 value="0.566578473043216" flag="0"/>
			<psa30 value="0.0696125581570038" flag="0"/>
		</comp>
		<comp name="--.HNN" depth="0.0">
			<acc value="1.28965673882608" flag="0"/>
			<vel value="0.778224251836205" flag="0"/>
			<psa03 value="4.14967956257212" flag="0"/>
			<psa10 value="0.751953793248405" flag="0"/>
			<psa30 value="0.120470833934841" flag="0"/>
		</comp>
		<comp name="--.HNZ" depth="0.0">
			<acc value="0.685238906332193" flag="0"/>
			<vel value="0.303756953475032" flag="0"/>
			<psa03 value="1.67117804067681" flag="0"/>
			<psa10 value="0.217581568711092" flag="0"/>
			<psa30 value="0.0453611649545572" flag="0"/>
		</comp>
	</station>
	<station code="NABA" name="NABA" netid="IT" source="Italian Strong Motion Network (RAN)" insttype="" lat="40.8188" lon="14.1611" esm:processing="manual (Paolucci et al 2011)" esm:quality="good">
		<comp name="--.HNE" depth="0.0">
			<acc value="1.97543553944968" flag="0"/>
			<vel value="0.887242473318244" flag="0"/>
			<psa03 value="4.67047206251932" flag="0"/>
			<psa10 value="0.689807376353284" flag="0"/>
			<psa30 value="0.116389856923476" flag="0"/>
		</comp>
		<comp name="--.HNN" depth="0.0">
			<acc value="1.87398155228178" flag="0"/>
			<vel value="0.785996972796973" flag="0"/>
			<psa03 value="4.49090050011794" flag="0"/>
			<psa10 value="0.857250988670829" flag="0"/>
			<psa30 value="0.164651040656711" flag="0"/>
		</comp>
		<comp name="--.HNZ" depth="0.0">
			<acc value="1.70089183292568" flag="0"/>
			<vel value="0.51774595602641" flag="0"/>
			<psa03 value="1.50986918809032" flag="0"/>
			<psa10 value="0.358051429149956" flag="0"/>
			<psa30 value="0.0875156841512369" flag="0"/>
		</comp>
	</station>
	<station code="NACO" name="NACO" netid="IT" source="Italian Strong Motion Network (RAN)" insttype="" lat="40.8049" lon="14.1744" esm:processing="manual (Paolucci et al 2011)" esm:quality="good">
		<comp name="--.HNE" depth="0.0">
			<acc value="0.752940806721558" flag="0"/>
			<vel value="0.565036172791321" flag="0"/>
			<psa03 value="2.26295440962363" flag="0"/>
			<psa10 value="0.844931032534199" flag="0"/>
			<psa30 value="0.0789255350960203" flag="0"/>
		</comp>
		<comp name="--.HNN" depth="0.0">
			<acc value="0.891641939085818" flag="0"/>
			<vel value="0.691420189188737" flag="0"/>
			<psa03 value="2.10005445163422" flag="0"/>
			<psa10 value="0.698683464350552" flag="0"/>
			<psa30 value="0.0703704950332688" flag="0"/>
		</comp>
		<comp name="--.HNZ" depth="0.0">
			<acc value="0.667908420470415" flag="0"/>
			<vel value="0.276168789344825" flag="0"/>
			<psa03 value="1.84090728440622" flag="0"/>
			<psa10 value="0.455304671699981" flag="0"/>
			<psa30 value="0.0377426635995654" flag="0"/>
		</comp>
	</station>
	<station code="NAFG" name="NAFG" netid="IT" source="Italian Strong Motion Network (RAN)" insttype="" lat="40.8202" lon="14.1786" esm:processing="manual (Paolucci et al 2011)" esm:quality="good">
		<comp name="--.HNE" depth="0.0">
			<acc value="0.65794095898802" flag="0"/>
			<vel value="0.464991584713308" flag="0"/>
			<psa03 value="1.16760843166161" flag="0"/>
			<psa10 value="0.727038762749911" flag="0"/>
			<psa30 value="0.0809209606165013" flag="0"/>
		</comp>
		<comp name="--.HNN" depth="0.0">
			<acc value="0.928010920622334" flag="0"/>
			<vel value="0.46482740616297" flag="0"/>
			<psa03 value="2.0309338727351" flag="0"/>
			<psa10 value="0.829894156414953" flag="0"/>
			<psa30 value="0.0666749435544535" flag="0"/>
		</comp>
		<comp name="--.HNZ" depth="0.0">
			<acc value="0.560965644284215" flag="0"/>
			<vel value="0.285940174877515" flag="0"/>
			<psa03 value="0.924808430686475" flag="0"/>
			<psa10 value="0.386498803648904" flag="0"/>
			<psa30 value="0.0388329224905329" flag="0"/>
		</comp>
	</station>
	<station code="NAP" name="NAP" netid="IT" source="Italian Strong Motion Network (RAN)" insttype="" lat="40.7992" lon="14.1796" esm:processing="manual (Paolucci et al 2011)" esm:quality="good">
		<comp name="--.HGE" depth="0.0">
			<acc value="1.39979192895232" flag="0"/>
			<vel value="0.524171814508244" flag="0"/>
			<psa03 value="2.35348890708977" flag="0"/>
			<psa10 value="0.534975039470843" flag="0"/>
			<psa30 value="0.0521911674086998" flag="0"/>
		</comp>
		<comp name="--.HGN" depth="0.0">
			<acc value="1.36758424929865" flag="0"/>
			<vel value="0.524647383815555" flag="0"/>
			<psa03 value="2.0380441770912" flag="0"/>
			<psa10 value="0.53632086862542" flag="0"/>
			<psa30 value="0.0837726895295463" flag="0"/>
		</comp>
		<comp name="--.HGZ" depth="0.0">
			<acc value="0.97812865591674" flag="0"/>
			<vel value="0.286692228936047" flag="0"/>
			<psa03 value="1.76938204621022" flag="0"/>
			<psa10 value="0.318863313129595" flag="0"/>
			<psa30 value="0.0406322150181657" flag="0"/>
		</comp>
	</station>
	<station code="PDM" name="PDM" netid="IT" source="Italian Strong Motion Network (RAN)" insttype="" lat="41.3553" lon="14.3853" esm:processing="manual (Paolucci et al 2011)" esm:quality="good">
		<comp name="--.HNE" depth="0.0">
			<acc value="0.00345937654974104" flag="0"/>
			<vel value="0.00331661225104916" flag="0"/>
			<psa03 value="0.00958543186281805" flag="0"/>
			<psa10 value="0.00356523649192032" flag="0"/>
			<psa30 value="0.000760739509842344" flag="0"/>
		</comp>
		<comp name="--.HNN" depth="0.0">
			<acc value="0.00413589937054818" flag="0"/>
			<vel value="0.0034284693878568" flag="0"/>
			<psa03 value="0.00997711275767173" flag="0"/>
			<psa10 value="0.00418235252907913" flag="0"/>
			<psa30 value="0.00169287089438857" flag="0"/>
		</comp>
		<comp name="--.HNZ" depth="0.0">
			<acc value="0.00392241905498771" flag="0"/>
			<vel value="0.00333474711136589" flag="0"/>
			<psa03 value="0.00769641544870976" flag="0"/>
			<psa10 value="0.0029103840486598" flag="0"/>
			<psa30 value="0.00143214060145293" flag="0"/>
		</comp>
	</station>
	<station code="PGGS" name="PGGS" netid="IT" source="Italian Strong Motion Network (RAN)" insttype="" lat="41.7812" lon="14.4173" esm:processing="manual (Paolucci et al 2011)" esm:quality="good">
		<comp name="--.HNE" depth="0.0">
			<acc value="0.00437106687875381" flag="0"/>
			<vel value="0.00280860418157081" flag="0"/>
			<psa03 value="0.0169022707341508" flag="0"/>
			<psa10 value="0.00182125447729587" flag="0"/>
			<psa30 value="0.000922356101565039" flag="0"/>
		</comp>
		<comp name="--.HNN" depth="0.0">
			<acc value="0.00367763561443425" flag="0"/>
			<vel value="0.00195146595408633" flag="0"/>
			<psa03 value="0.0113186091773091" flag="0"/>
			<psa10 value="0.00200161939433644" flag="0"/>
			<psa30 value="0.000879682024616875" flag="0"/>
		</comp>
		<comp name="--.HNZ" depth="0.0">
			<acc value="0.0023588261303054" flag="0"/>
			<vel value="0.00124784611618291" flag="0"/>
			<psa03 value="0.0070053468823505" flag="0"/>
			<psa10 value="0.00116929019411178" flag="0"/>
			<psa30 value="0.000828299714541004" flag="0"/>
		</comp>
	</station>
	<station code="POZB" name="POZB" netid="IT" source="Italian Strong Motion Network (RAN)" insttype="" lat="40.8401" lon="14.1012" esm:processing="manual (Paolucci et al 2011)" esm:quality="good">
		<comp name="--.HNE" depth="0.0">
			<acc value="5.26212050190811" flag="0"/>
			<vel value="1.83581324607647" flag="0"/>
			<psa03 value="6.07166421795626" flag="0"/>
			<psa10 value="1.40066006685535" flag="0"/>
			<psa30 value="0.0846904703280199" flag="0"/>
		</comp>
		<comp name="--.HNN" depth="0.0">
			<acc value="5.62661535138747" flag="0"/>
			<vel value="1.93020632739852" flag="0"/>
			<psa03 value="7.48038487211929" flag="0"/>
			<psa10 value="1.41586411404885" flag="0"/>
			<psa30 value="0.174683118565971" flag="0"/>
		</comp>
		<comp name="--.HNZ" depth="0.0">
			<acc value="5.55623631956248" flag="0"/>
			<vel value="1.3366945598086" flag="0"/>
			<psa03 value="7.51395909624686" flag="0"/>
			<psa10 value="0.587998031983874" flag="0"/>
			<psa30 value="0.0838561750600529" flag="0"/>
		</comp>
	</station>
	<station code="POZL" name="POZL" netid="IT" source="Italian Strong Motion Network (RAN)" insttype="" lat="40.8321" lon="14.0843" esm:processing="manual (Paolucci et al 2011)" esm:quality="good">
		<comp name="--.HNE" depth="0.0">
			<acc value="11.9375198075013" flag="0"/>
			<vel value="2.13922806256021" flag="0"/>
			<psa03 value="2.58790310254644" flag="0"/>
			<psa10 value="1.44493687997692" flag="0"/>
			<psa30 value="0.113798725273721" flag="0"/>
		</comp>
		<comp name="--.HNN" depth="0.0">
			<acc value="12.3300999497049" flag="0"/>
			<vel value="1.95910874209923" flag="0"/>
			<psa03 value="4.79020566094926" flag="0"/>
			<psa10 value="1.06576276155246" flag="0"/>
			<psa30 value="0.261931351666555" flag="0"/>
		</comp>
		<comp name="--.HNZ" depth="0.0">
			<acc value="14.3479708461447" flag="0"/>
			<vel value="1.99482078945095" flag="0"/>
			<psa03 value="4.01859121194557" flag="0"/>
			<psa10 value="0.725618588670348" flag="0"/>
			<psa30 value="0.0633982331551374" flag="0"/>
		</comp>
	</station>
	<station code="POZM" name="POZM" netid="IT" source="Italian Strong Motion Network (RAN)" insttype="" lat="40.8239" lon="14.1435" esm:processing="manual (Paolucci et al 2011)" esm:quality="good">
		<comp name="--.HNE" depth="0.0">
			<acc value="1.28036345731296" flag="0"/>
			<vel value="0.687829623327103" flag="0"/>
			<psa03 value="3.63104453888046" flag="0"/>
			<psa10 value="0.555243242139799" flag="0"/>
			<psa30 value="0.17448699890734" flag="0"/>
		</comp>
		<comp name="--.HNN" depth="0.0">
			<acc value="1.46738840178612" flag="0"/>
			<vel value="0.53931174553153" flag="0"/>
			<psa03 value="2.17043994766123" flag="0"/>
			<psa10 value="0.501941591167013" flag="0"/>
			<psa30 value="0.166206383690554" flag="0"/>
		</comp>
		<comp name="--.HNZ" depth="0.0">
			<acc value="1.32389733550265" flag="0"/>
			<vel value="0.493812812441087" flag="0"/>
			<psa03 value="2.23714036623661" flag="0"/>
			<psa10 value="0.402077545664106" flag="0"/>
			<psa30 value="0.106849078227044" flag="0"/>
		</comp>
	</station>
	<station code="POZT" name="POZT" netid="IT" source="Italian Strong Motion Network (RAN)" insttype="" lat="40.8208" lon="14.121" esm:processing="manual (Paolucci et al 2011)" esm:quality="good">
		<comp name="--.HNE" depth="0.0">
			<acc value="10.2468420674801" flag="0"/>
			<vel value="4.15369683939295" flag="0"/>
			<psa03 value="18.8206907783969" flag="0"/>
			<psa10 value="1.64870233843851" flag="0"/>
			<psa30 value="0.230612210260477" flag="0"/>
		</comp>
		<comp name="--.HNN" depth="0.0">
			<acc value="8.70146734337759" flag="0"/>
			<vel value="3.4107104873507" flag="0"/>
			<psa03 value="9.81376611384157" flag="0"/>
			<psa10 value="1.89387461989891" flag="0"/>
			<psa30 value="0.242467688961091" flag="0"/>
		</comp>
		<comp name="--.HNZ" depth="0.0">
			<acc value="5.93643416143844" flag="0"/>
			<vel value="1.82641465323238" flag="0"/>
			<psa03 value="5.98597320801406" flag="0"/>
			<psa10 value="0.977004881778526" flag="0"/>
			<psa30 value="0.138716255937838" flag="0"/>
		</comp>
	</station>
	<station code="POZU" name="POZU" netid="IT" source="Italian Strong Motion Network (RAN)" insttype="" lat="40.8558" lon="14.1208" esm:processing="manual (Paolucci et al 2011)" esm:quality="good">
		<comp name="--.HNE" depth="0.0">
			<acc value="5.02925395773015" flag="0"/>
			<vel value="1.86583170445846" flag="0"/>
			<psa03 value="9.73916250505196" flag="0"/>
			<psa10 value="1.72702504693356" flag="0"/>
			<psa30 value="0.0763878336524207" flag="0"/>
		</comp>
		<comp name="--.HNN" depth="0.0">
			<acc value="5.36524322589852" flag="0"/>
			<vel value="2.0211926317823" flag="0"/>
			<psa03 value="8.66109308824399" flag="0"/>
			<psa10 value="1.73438957479739" flag="0"/>
			<psa30 value="0.165373368507386" flag="0"/>
		</comp>
		<comp name="--.HNZ" depth="0.0">
			<acc value="5.63643421224394" flag="0"/>
			<vel value="1.66028751341615" flag="0"/>
			<psa03 value="6.30233349866404" flag="0"/>
			<psa10 value="0.764623032523329" flag="0"/>
			<psa30 value="0.065247542329461" flag="0"/>
		</comp>
	</station>
	<station code="CAAM" name="CAAM" netid="IV" source="Italian National Seismic Network (INSN)" insttype="" lat="40.820065" lon="14.142049" esm:processing="manual (Paolucci et al 2011)" esm:quality="good">
