<?xml version="1.0" encoding="UTF-8" standalone="yes"?>
<!DOCTYPE earthquake SYSTEM "stationlist.dtd">
<stationlist created="" xmlns="ch.ethz.sed.shakemap.usgs.xml">
  <station code="ATHR" name="ATHR" netid="HA" insttype="GEOtiny," lat="38.3172" lon="20.4165">
    <comp name="--.HHN">
      <acc value="0.0257093180" flag="0"/>
      <vel value="0.0205505846" flag="0"/>
      <psa03 value="0.0767562932" flag="0"/>
      <psa10 value="0.0387187226" flag="0"/>
      <psa30 value="0.0024625710" flag="0"/>
    </comp>
    <comp name="--.HHE">
      <acc value="0.0266514245" flag="0"/>
      <vel value="0.0296876817" flag="0"/>
      <psa03 value="0.0638247944" flag="0"/>
      <psa10 value="0.0371144568" flag="0"/>
      <psa30 value="0.0035532279" flag="0"/>
    </comp>
    <comp name="--.HHZ">
      <acc value="0.0172212144" flag="0"/>
      <vel value="0.0168454300" flag="0"/>
      <psa03 value="0.0458558595" flag="0"/>
      <psa10 value="0.0218259337" flag="0"/>
      <psa30 value="0.0022667384" flag="0"/>
    </comp>
  </station>
  <station code="HAVD" name="HAVD" netid="HA" insttype="GEOtiny," lat="38.2036" lon="20.3848">
    <comp name="--.HHE">
      <acc value="0.0424102341" flag="0"/>
      <vel value="0.0259138288" flag="0"/>
      <psa03 value="0.1144084103" flag="0"/>
      <psa10 value="0.0402093058" flag="0"/>
      <psa30 value="0.0043238852" flag="0"/>
    </comp>
    <comp name="--.HHN">
      <acc value="0.0561190093" flag="0"/>
      <vel value="0.0419084312" flag="0"/>
      <psa03 value="0.1710464422" flag="0"/>
      <psa10 value="0.0854844842" flag="0"/>
      <psa30 value="0.0053138059" flag="0"/>
    </comp>
    <comp name="--.HHZ">
      <acc value="0.0352188291" flag="0"/>
      <vel value="0.0136986457" flag="0"/>
      <psa03 value="0.0742161367" flag="0"/>
      <psa10 value="0.0165690742" flag="0"/>
      <psa30 value="0.0021376279" flag="0"/>
    </comp>
  </station>
  <station code="LAKA" name="LAKA" netid="HA" insttype="120s," lat="38.2401" lon="21.9785">
    <comp name="--.HHE">
      <acc value="0.0040948219" flag="0"/>
      <vel value="0.0053994947" flag="0"/>
      <psa03 value="0.0077779931" flag="0"/>
      <psa10 value="0.0094856366" flag="0"/>
      <psa30 value="0.0007484827" flag="0"/>
    </comp>
    <comp name="--.HHN">
      <acc value="0.0030145083" flag="0"/>
      <vel value="0.0058079502" flag="0"/>
      <psa03 value="0.0065417743" flag="0"/>
      <psa10 value="0.0072005980" flag="0"/>
      <psa30 value="0.0018313817" flag="0"/>
    </comp>
    <comp name="--.HHZ">
      <acc value="0.0025689102" flag="0"/>
      <vel value="0.0021155781" flag="0"/>
      <psa03 value="0.0052321201" flag="0"/>
      <psa10 value="0.0045803956" flag="0"/>
      <psa30 value="0.0006447042" flag="0"/>
    </comp>
  </station>
  <station code="KTRS" name="KTRS" netid="HC" insttype="60" lat="36.9261" lon="22.136">
    <comp name="--.HHN">
      <acc value="0.0088434069" flag="0"/>
      <vel value="0.0044608732" flag="0"/>
      <psa03 value="0.0128334820" flag="0"/>
      <psa10 value="0.0056896174" flag="0"/>
      <psa30 value="0.0010498266" flag="0"/>
    </comp>
    <comp name="--.HHE">
      <acc value="0.0069137534" flag="0"/>
      <vel value="0.0040053468" flag="0"/>
      <psa03 value="0.0104249276" flag="0"/>
      <psa10 value="0.0049648544" flag="0"/>
      <psa30 value="0.0009583859" flag="0"/>
    </comp>
    <comp name="--.HHZ">
      <acc value="0.0044353365" flag="0"/>
      <vel value="0.0027899283" flag="0"/>
      <psa03 value="0.0105026989" flag="0"/>
      <psa10 value="0.0046120746" flag="0"/>
      <psa30 value="0.0009379038" flag="0"/>
    </comp>
  </station>
  <station code="ARG2" name="ARG2" netid="HI" insttype="CMG-5TD,ACCELEROMETER,GURALP" lat="38.1783" lon="20.4878">
    <comp name="--.HNZ">
      <acc value="0.0546106801" flag="0"/>
      <vel value="0.0300081016" flag="0"/>
      <psa03 value="0.1613434957" flag="0"/>
      <psa10 value="0.0271849550" flag="0"/>
      <psa30 value="0.0026767274" flag="0"/>
    </comp>
    <comp name="--.HNN">
      <acc value="0.1219322234" flag="0"/>
      <vel value="0.0782457288" flag="0"/>
      <psa03 value="0.2075527800" flag="0"/>
      <psa10 value="0.0874184545" flag="0"/>
      <psa30 value="0.0062708285" flag="0"/>
    </comp>
    <comp name="--.HNE">
      <acc value="0.1151106212" flag="0"/>
      <vel value="0.0733245745" flag="0"/>
      <psa03 value="0.2956211100" flag="0"/>
      <psa10 value="0.0514111768" flag="0"/>
      <psa30 value="0.0036507686" flag="0"/>
    </comp>
  </station>
  <station code="MSL1" name="MSL1" netid="HI" insttype="CMG-5TD,ACCELEROMETER,GURALP" lat="38.3727" lon="21.4243">
    <comp name="--.HNZ">
      <acc value="0.0200438321" flag="0"/>
      <vel value="0.0148808666" flag="0"/>
      <psa03 value="0.0519781785" flag="0"/>
      <psa10 value="0.0461388443" flag="0"/>
      <psa30 value="0.0015975083" flag="0"/>
    </comp>
    <comp name="--.HNN">
      <acc value="0.0445675145" flag="0"/>
      <vel value="0.0360981163" flag="0"/>
      <psa03 value="0.1336156927" flag="0"/>
      <psa10 value="0.0694813097" flag="0"/>
      <psa30 value="0.0064177212" flag="0"/>
    </comp>
    <comp name="--.HNE">
      <acc value="0.0498049069" flag="0"/>
      <vel value="0.0469262348" flag="0"/>
      <psa03 value="0.1656247108" flag="0"/>
      <psa10 value="0.0813986674" flag="0"/>
      <psa30 value="0.0064130472" flag="0"/>
    </comp>
  </station>
  <station code="VAS2" name="VAS2" netid="HI" insttype="CMG-5TD,ACCELEROMETER,GURALP" lat="38.6306" lon="20.6081">
    <comp name="--.HNE">
      <acc value="0.0521795324" flag="0"/>
      <vel value="0.0667371829" flag="0"/>
      <psa03 value="0.1139466637" flag="0"/>
      <psa10 value="0.1127771918" flag="0"/>
      <psa30 value="0.0103752304" flag="0"/>
    </comp>
    <comp name="--.HNN">
      <acc value="0.0717568691" flag="0"/>
      <vel value="0.0722483939" flag="0"/>
      <psa03 value="0.1619141906" flag="0"/>
      <psa10 value="0.1650047083" flag="0"/>
      <psa30 value="0.0094460684" flag="0"/>
    </comp>
    <comp name="--.HNZ">
      <acc value="0.0350077221" flag="0"/>
      <vel value="0.0301250180" flag="0"/>
      <psa03 value="0.0757155621" flag="0"/>
      <psa10 value="0.0507979180" flag="0"/>
      <psa30 value="0.0032377834" flag="0"/>
    </comp>
  </station>
  <station code="ITM" name="ITM" netid="HL" insttype="DR24" lat="37.1787" lon="21.9252">
    <comp name="--.HHZ">
      <acc value="0.0102998610" flag="0"/>
      <vel value="0.0106056154" flag="0"/>
      <psa03 value="0.0155323915" flag="0"/>
      <psa10 value="0.0119843586" flag="0"/>
      <psa30 value="0.0020662501" flag="0"/>
    </comp>
    <comp name="--.HHE">
      <acc value="0.0178648812" flag="0"/>
      <vel value="0.0147316652" flag="0"/>
      <psa03 value="0.0343967764" flag="0"/>
      <psa10 value="0.0137770053" flag="0"/>
      <psa30 value="0.0036324272" flag="0"/>
    </comp>
    <comp name="--.HHN">
      <acc value="0.0208948351" flag="0"/>
      <vel value="0.0165426965" flag="0"/>
      <psa03 value="0.0507465745" flag="0"/>
      <psa10 value="0.0146662119" flag="0"/>
      <psa30 value="0.0026731003" flag="0"/>
    </comp>
  </station>
  <station code="KLV" name="KLV" netid="HL" insttype="120" lat="38.0435" lon="22.1504">
    <comp name="--.HHZ">
      <acc value="0.0064552136" flag="0"/>
      <vel value="0.0074656181" flag="0"/>
      <psa03 value="0.0151564618" flag="0"/>
      <psa10 value="0.0105181915" flag="0"/>
      <psa30 value="0.0010057526" flag="0"/>
    </comp>
    <comp name="--.HHE">
      <acc value="0.0077755496" flag="0"/>
      <vel value="0.0069947131" flag="0"/>
      <psa03 value="0.0197087840" flag="0"/>
      <psa10 value="0.0102523122" flag="0"/>
      <psa30 value="0.0010332489" flag="0"/>
    </comp>
    <comp name="--.HHN">
      <acc value="0.0072055099" flag="0"/>
      <vel value="0.0060192579" flag="0"/>
      <psa03 value="0.0205923775" flag="0"/>
      <psa10 value="0.0120349638" flag="0"/>
      <psa30 value="0.0011999477" flag="0"/>
    </comp>
  </station>
  <station code="ORTH" name="ORTH" netid="HL" insttype="30" lat="37.8511" lon="20.6963">
    <comp name="--.HHZ">
      <acc value="0.0579039209" flag="0"/>
      <vel value="0.0271084196" flag="0"/>
      <psa03 value="0.1231015602" flag="0"/>
      <psa10 value="0.0517924441" flag="0"/>
      <psa30 value="0.0045847879" flag="0"/>
    </comp>
    <comp name="--.HHN">
      <acc value="0.1774764660" flag="0"/>
      <vel value="0.0763232768" flag="0"/>
      <psa03 value="0.3820235968" flag="0"/>
      <psa10 value="0.0787648510" flag="0"/>
      <psa30 value="0.0080204508" flag="0"/>
    </comp>
    <comp name="--.HHE">
      <acc value="0.2022103573" flag="0"/>
      <vel value="0.0803530773" flag="0"/>
      <psa03 value="0.4461398773" flag="0"/>
      <psa10 value="0.0471897812" flag="0"/>
      <psa30 value="0.0071458011" flag="0"/>
    </comp>
  </station>
  <station code="RLS" name="RLS" netid="HL" insttype="CMG3ESPC-120s" lat="38.0559" lon="21.4647">
    <comp name="--.HHN">
      <acc value="0.0315572215" flag="0"/>
      <vel value="0.0182293169" flag="0"/>
      <psa03 value="0.0763817470" flag="0"/>
      <psa10 value="0.0267715075" flag="0"/>
      <psa30 value="0.0023404584" flag="0"/>
    </comp>
    <comp name="--.HHE">
      <acc value="0.0247596976" flag="0"/>
      <vel value="0.0150021077" flag="0"/>
      <psa03 value="0.0759628616" flag="0"/>
      <psa10 value="0.0261755239" flag="0"/>
      <psa30 value="0.0028578549" flag="0"/>
    </comp>
    <comp name="--.HHZ">
      <acc value="0.0173376247" flag="0"/>
      <vel value="0.0107867227" flag="0"/>
      <psa03 value="0.0296886344" flag="0"/>
      <psa10 value="0.0151426465" flag="0"/>
      <psa30 value="0.0016368019" flag="0"/>
    </comp>
  </station>
  <station code="VLS" name="VLS" netid="HL" insttype="120P," lat="38.1768" lon="20.5886">
    <comp name="--.HHZ">
      <acc value="0.0401283315" flag="0"/>
      <vel value="0.0165407648" flag="0"/>
      <psa03 value="0.0962731962" flag="0"/>
      <psa10 value="0.0178757143" flag="0"/>
      <psa30 value="0.0011987854" flag="0"/>
    </comp>
    <comp name="--.HHE">
      <acc value="0.0693754267" flag="0"/>
      <vel value="0.0316999276" flag="0"/>
      <psa03 value="0.1042769266" flag="0"/>
      <psa10 value="0.0300912716" flag="0"/>
      <psa30 value="0.0022191626" flag="0"/>
    </comp>
    <comp name="--.HHN">
      <acc value="0.0530792830" flag="0"/>
      <vel value="0.0244302587" flag="0"/>
      <psa03 value="0.1043630513" flag="0"/>
      <psa10 value="0.0272991227" flag="0"/>
      <psa30 value="0.0021364082" flag="0"/>
    </comp>
  </station>
  <station code="AMT" name="AMT" netid="HP" insttype="CMG-3T," lat="37.5324" lon="21.7089">
    <comp name="00.HHE">
      <acc value="0.0589922311" flag="0"/>
      <vel value="0.0583380507" flag="0"/>
      <psa03 value="0.2645710801" flag="0"/>
      <psa10 value="0.0560203427" flag="0"/>
      <psa30 value="0.0051323057" flag="0"/>
    </comp>
    <comp name="00.HHN">
      <acc value="0.0627647829" flag="0"/>
      <vel value="0.0611151370" flag="0"/>
      <psa03 value="0.1888556579" flag="0"/>
      <psa10 value="0.0445803571" flag="0"/>
      <psa30 value="0.0059868730" flag="0"/>
    </comp>
    <comp name="00.HHZ">
      <acc value="0.0413022959" flag="0"/>
      <vel value="0.0239913256" flag="0"/>
      <psa03 value="0.1294195581" flag="0"/>
      <psa10 value="0.0331450791" flag="0"/>
      <psa30 value="0.0023503560" flag="0"/>
    </comp>
  </station>
  <station code="AXS" name="AXS" netid="HP" insttype="Compact," lat="38.1962" lon="21.3763">
    <comp name="--.HHZ">
      <acc value="0.0075044142" flag="0"/>
      <vel value="0.0076858467" flag="0"/>
      <psa03 value="0.0179850330" flag="0"/>
      <psa10 value="0.0098446500" flag="0"/>
      <psa30 value="0.0009044490" flag="0"/>
    </comp>
    <comp name="--.HHE">
      <acc value="0.0122039996" flag="0"/>
      <vel value="0.0080957913" flag="0"/>
      <psa03 value="0.0255677162" flag="0"/>
      <psa10 value="0.0100237414" flag="0"/>
      <psa30 value="0.0015339492" flag="0"/>
    </comp>
    <comp name="--.HHN">
      <acc value="0.0132577511" flag="0"/>
      <vel value="0.0108617784" flag="0"/>
      <psa03 value="0.0345100362" flag="0"/>
      <psa10 value="0.0131689069" flag="0"/>
      <psa30 value="0.0012396999" flag="0"/>
    </comp>
  </station>
  <station code="DRO" name="DRO" netid="HP" insttype="120P," lat="37.952" lon="21.71">
    <comp name="--.HHE">
      <acc value="0.0843603985" flag="0"/>
      <vel value="0.0420434975" flag="0"/>
      <psa03 value="0.2182011113" flag="0"/>
      <psa10 value="0.0402190656" flag="0"/>
      <psa30 value="0.0036241075" flag="0"/>
    </comp>
    <comp name="--.HHZ">
      <acc value="0.0349202363" flag="0"/>
      <vel value="0.0210215147" flag="0"/>
      <psa03 value="0.1029266190" flag="0"/>
      <psa10 value="0.0236641638" flag="0"/>
      <psa30 value="0.0021055505" flag="0"/>
    </comp>
    <comp name="--.HHN">
      <acc value="0.0837475005" flag="0"/>
      <vel value="0.0391565538" flag="0"/>
      <psa03 value="0.2087105975" flag="0"/>
      <psa10 value="0.0485780390" flag="0"/>
      <psa30 value="0.0027706848" flag="0"/>
    </comp>
  </station>
  <station code="FSK" name="FSK" netid="HP" insttype="40," lat="38.4593" lon="20.5623">
    <comp name="--.HHE">
      <acc value="0.0199075044" flag="0"/>
      <vel value="0.0190036461" flag="0"/>
      <psa03 value="0.0414621601" flag="0"/>
      <psa10 value="0.0383692712" flag="0"/>
      <psa30 value="0.0037162893" flag="0"/>
    </comp>
    <comp name="--.HHN">
      <acc value="0.0196682959" flag="0"/>
      <vel value="0.0281147130" flag="0"/>
      <psa03 value="0.0326595796" flag="0"/>
      <psa10 value="0.0521463252" flag="0"/>
      <psa30 value="0.0038573517" flag="0"/>
    </comp>
    <comp name="--.HHZ">
      <acc value="0.0133268855" flag="0"/>
      <vel value="0.0086865420" flag="0"/>
      <psa03 value="0.0325808848" flag="0"/>
      <psa10 value="0.0178614445" flag="0"/>
      <psa30 value="0.0021848545" flag="0"/>
    </comp>
  </station>
  <station code="GUR" name="GUR" netid="HP" insttype="40," lat="37.9363" lon="22.3423">
    <comp name="--.HHN">
      <acc value="0.0155879049" flag="0"/>
      <vel value="0.0151486965" flag="0"/>
      <psa03 value="0.0518847759" flag="0"/>
      <psa10 value="0.0190956282" flag="0"/>
      <psa30 value="0.0012905859" flag="0"/>
    </comp>
    <comp name="--.HHE">
      <acc value="0.0159224283" flag="0"/>
      <vel value="0.0103239881" flag="0"/>
      <psa03 value="0.0359841395" flag="0"/>
      <psa10 value="0.0145018736" flag="0"/>
      <psa30 value="0.0015710966" flag="0"/>
    </comp>
    <comp name="--.HHZ">
      <acc value="0.0112007158" flag="0"/>
      <vel value="0.0077263053" flag="0"/>
      <psa03 value="0.0241372053" flag="0"/>
      <psa10 value="0.0120563614" flag="0"/>
      <psa30 value="0.0011185901" flag="0"/>
    </comp>
  </station>
  <station code="LTHK" name="LTHK" netid="HP" insttype="40," lat="37.7095" lon="20.8367">
    <comp name="--.HHN">
      <acc value="0.3427011311" flag="0"/>
      <vel value="0.1390698353" flag="0"/>
      <psa03 value="0.8802811553" flag="0"/>
      <psa10 value="0.1752058188" flag="0"/>
      <psa30 value="0.0117354694" flag="0"/>
    </comp>
    <comp name="--.HHE">
      <acc value="0.3212363963" flag="0"/>
      <vel value="0.1136180636" flag="0"/>
      <psa03 value="0.5601947006" flag="0"/>
      <psa10 value="0.1301084162" flag="0"/>
      <psa30 value="0.0228829466" flag="0"/>
    </comp>
    <comp name="--.HHZ">
      <acc value="0.1299257767" flag="0"/>
      <vel value="0.0609630128" flag="0"/>
      <psa03 value="0.3637645396" flag="0"/>
      <psa10 value="0.0955224052" flag="0"/>
      <psa30 value="0.0047245560" flag="0"/>
    </comp>
  </station>
  <station code="PDO" name="PDO" netid="HP" insttype="120s" lat="38.5986" lon="21.1833">
    <comp name="--.HHE">
      <acc value="0.0352952196" flag="0"/>
      <vel value="0.0186683223" flag="0"/>
      <psa03 value="0.1185055820" flag="0"/>
      <psa10 value="0.0175723557" flag="0"/>
      <psa30 value="0.0018954380" flag="0"/>
    </comp>
    <comp name="--.HHN">
      <acc value="0.0476524041" flag="0"/>
      <vel value="0.0352167738" flag="0"/>
      <psa03 value="0.1855432179" flag="0"/>
      <psa10 value="0.0532225531" flag="0"/>
      <psa30 value="0.0017081678" flag="0"/>
    </comp>
    <comp name="--.HHZ">
      <acc value="0.0198600287" flag="0"/>
      <vel value="0.0101880221" flag="0"/>
      <psa03 value="0.0591973217" flag="0"/>
      <psa10 value="0.0124617578" flag="0"/>
      <psa30 value="0.0013658403" flag="0"/>
    </comp>
  </station>
  <station code="PLEV" name="PLEV" netid="HP" insttype="Compact," lat="38.4124" lon="21.4073">
    <comp name="--.HHE">
      <acc value="0.0099128932" flag="0"/>
      <vel value="0.0101380441" flag="0"/>
      <psa03 value="0.0294887312" flag="0"/>
      <psa10 value="0.0177949569" flag="0"/>
      <psa30 value="0.0019665306" flag="0"/>
    </comp>
    <comp name="--.HHZ">
      <acc value="0.0071562777" flag="0"/>
      <vel value="0.0069836822" flag="0"/>
      <psa03 value="0.0165958002" flag="0"/>
      <psa10 value="0.0085845072" flag="0"/>
      <psa30 value="0.0014462077" flag="0"/>
    </comp>
    <comp name="--.HHN">
      <acc value="0.0088610816" flag="0"/>
      <vel value="0.0077090741" flag="0"/>
      <psa03 value="0.0221226102" flag="0"/>
      <psa10 value="0.0112297468" flag="0"/>
      <psa30 value="0.0019228897" flag="0"/>
    </comp>
  </station>
  <station code="PYL" name="PYL" netid="HP" insttype="DC_100" lat="36.8955" lon="21.742">
    <comp name="--.HNN">
      <acc value="0.0224272870" flag="0"/>
      <vel value="0.0132716452" flag="0"/>
      <psa03 value="0.0294165746" flag="0"/>
      <psa10 value="0.0188504380" flag="0"/>
      <psa30 value="0.0018857790" flag="0"/>
    </comp>
    <comp name="--.HNZ">
      <acc value="0.0154201205" flag="0"/>
      <vel value="0.0045745323" flag="0"/>
      <psa03 value="0.0155494633" flag="0"/>
      <psa10 value="0.0057630729" flag="0"/>
      <psa30 value="0.0010592347" flag="0"/>
    </comp>
    <comp name="--.HNE">
      <acc value="0.0285001178" flag="0"/>
      <vel value="0.0109656069" flag="0"/>
      <psa03 value="0.0327645002" flag="0"/>
      <psa10 value="0.0111950932" flag="0"/>
      <psa30 value="0.0017022235" flag="0"/>
    </comp>
  </station>
  <station code="UPR" name="UPR" netid="HP" insttype="Horizon" lat="38.2836" lon="21.7864">
    <comp name="--.HHZ">
      <acc value="0.0262383615" flag="0"/>
      <vel value="0.0275241319" flag="0"/>
      <psa03 value="0.0429230066" flag="0"/>
      <psa10 value="0.0507503496" flag="0"/>
      <psa30 value="0.0027946077" flag="0"/>
    </comp>
    <comp name="--.HHE">
      <acc value="0.0212772053" flag="0"/>
      <vel value="0.0304025393" flag="0"/>
      <psa03 value="0.0609268689" flag="0"/>
      <psa10 value="0.0479491338" flag="0"/>
      <psa30 value="0.0051581560" flag="0"/>
    </comp>
    <comp name="--.HHN">
      <acc value="0.0233125750" flag="0"/>
      <vel value="0.0327957589" flag="0"/>
      <psa03 value="0.0494782912" flag="0"/>
      <psa10 value="0.0624603347" flag="0"/>
      <psa30 value="0.0067986148" flag="0"/>
    </comp>
  </station>
  <station code="VALY" name="VALY" netid="HP" insttype="DC_100" lat="37.1641" lon="21.9836">
    <comp name="--.HNE">
      <acc value="0.0159952853" flag="0"/>
      <vel value="0.0120821896" flag="0"/>
      <psa03 value="0.0392838487" flag="0"/>
      <psa10 value="0.0166249212" flag="0"/>
      <psa30 value="0.0021978577" flag="0"/>
    </comp>
    <comp name="--.HNN">
      <acc value="0.0209621930" flag="0"/>
