<?xml version="1.0" encoding="UTF-8" standalone="yes"?>
<!DOCTYPE earthquake SYSTEM "stationlist.dtd">
<stationlist created="" xmlns="ch.ethz.sed.shakemap.usgs.xml">
  <station code="KLV" name="KLV" netid="MN" insttype="" lat="38.0437" lon="22.1504">
    <comp name="--.HHE">
      <acc value="0.0079146854" flag="0"/>
      <vel value="0.0070372117" flag="0"/>
      <psa03 value="0.0202554619" flag="0"/>
      <psa10 value="0.0103116255" flag="0"/>
      <psa30 value="0.0010351734" flag="0"/>
    </comp>
    <comp name="--.HHZ">
      <acc value="0.0065948273" flag="0"/>
      <vel value="0.0075241237" flag="0"/>
      <psa03 value="0.0154844921" flag="0"/>
      <psa10 value="0.0105806277" flag="0"/>
      <psa30 value="0.0010074884" flag="0"/>
    </comp>
    <comp name="--.HHN">
      <acc value="0.0073577348" flag="0"/>
      <vel value="0.0061228861" flag="0"/>
      <psa03 value="0.0211858646" flag="0"/>
      <psa10 value="0.0121056089" flag="0"/>
      <psa30 value="0.0012028564" flag="0"/>
    </comp>
  </station>
</stationlist>
