<?xml version="1.0" encoding="UTF-8" standalone="yes"?>
<!DOCTYPE earthquake SYSTEM "stationlist.dtd">
<stationlist created="" xmlns="ch.ethz.sed.shakemap.usgs.xml">
  <station code="CALF" name="CALF" netid="FR" insttype="TRILLIUM-HORIZON" commtype="DIG" lat="43.7528" lon="6.9218">
    <comp name="00.HHE">
      <acc value="0.10863403480" flag="0"/>
      <vel value="0.0297794900" flag="0"/>
      <psa03 value="0.1107395555" flag="0"/>
      <psa10 value="0.0154929008" flag="0"/>
      <psa30 value="0.0010995191" flag="0"/>
    </comp>
    <comp name="00.HHN">
      <acc value="0.1356467203" flag="0"/>
      <vel value="0.0265924513" flag="0"/>
      <psa03 value="0.1121592300" flag="0"/>
      <psa10 value="0.0095084628" flag="0"/>
      <psa30 value="0.0006440443" flag="0"/>
    </comp>
    <comp name="00.HHZ">
      <acc value="0.1785229329" flag="0"/>
      <vel value="0.0314796828" flag="0"/>
      <psa03 value="0.0871924764" flag="0"/>
      <psa10 value="0.0065088664" flag="0"/>
      <psa30 value="0.0007058523" flag="0"/>
    </comp>
  </station>
  <station code="ENAUX" name="ENAUX" netid="FR" insttype="TRILLIUM-120PH" commtype="DIG" lat="44.1095" lon="6.7775">
    <comp name="00.HHN">
      <acc value="0.1641611890" flag="0"/>
      <vel value="0.0447023918" flag="0"/>
      <psa03 value="0.1337922883" flag="0"/>
      <psa10 value="0.0066217243" flag="0"/>
      <psa30 value="0.0007148298" flag="0"/>
    </comp>
    <comp name="00.HHZ">
      <acc value="0.2001075320" flag="0"/>
      <vel value="0.0372526902" flag="0"/>
      <psa03 value="0.0953820082" flag="0"/>
      <psa10 value="0.0067909313" flag="0"/>
      <psa30 value="0.0005898123" flag="0"/>
    </comp>
    <comp name="00.HHE">
      <acc value="0.1793331590" flag="0"/>
      <vel value="0.0500029576" flag="0"/>
      <psa03 value="0.1120883064" flag="0"/>
      <psa10 value="0.0057026672" flag="0"/>
      <psa30 value="0.0005933510" flag="0"/>
    </comp>
  </station>
  <station code="NIMR" name="NIMR" netid="FR" insttype="CMG40-T" commtype="DIG" lat="43.6802" lon="7.20276">
    <comp name="00.HHE">
      <acc value="0.5252975345" flag="0"/>
      <vel value="0.1623962827" flag="0"/>
      <psa03 value="0.8847562518" flag="0"/>
      <psa10 value="0.0357272877" flag="0"/>
      <psa30 value="0.0029964245" flag="0"/>
    </comp>
    <comp name="00.HHN">
      <acc value="0.7913874085" flag="0"/>
      <vel value="0.3021738995" flag="0"/>
      <psa03 value="0.9814412339" flag="0"/>
      <psa10 value="0.0883548147" flag="0"/>
      <psa30 value="0.0059522290" flag="0"/>
    </comp>
    <comp name="00.HHZ">
      <acc value="0.6799980289" flag="0"/>
      <vel value="0.1358101131" flag="0"/>
      <psa03 value="0.7258512268" flag="0"/>
      <psa10 value="0.0208846539" flag="0"/>
      <psa30 value="0.0024023362" flag="0"/>
    </comp>
  </station>
  <station code="OGAG" name="OGAG" netid="FR" insttype="TRILLIUM-120QA" commtype="DIG" lat="44.7878" lon="6.53974">
    <comp name="00.HHE">
      <acc value="0.0077376110" flag="0"/>
      <vel value="0.0041194787" flag="0"/>
      <psa03 value="0.0261389015" flag="0"/>
      <psa10 value="0.0028263720" flag="0"/>
      <psa30 value="0.0001232834" flag="0"/>
    </comp>
    <comp name="00.HHZ">
      <acc value="0.0059691913" flag="0"/>
      <vel value="0.0027778004" flag="0"/>
      <psa03 value="0.0226523098" flag="0"/>
      <psa10 value="0.0021724100" flag="0"/>
      <psa30 value="0.0001470741" flag="0"/>
    </comp>
    <comp name="00.HHN">
      <acc value="0.0066945008" flag="0"/>
      <vel value="0.0026788758" flag="0"/>
      <psa03 value="0.0170104918" flag="0"/>
      <psa10 value="0.0011814685" flag="0"/>
      <psa30 value="0.0000833579" flag="0"/>
    </comp>
  </station>
  <station code="OGDI" name="OGDI" netid="FR" insttype="TRILLIUM-120PA" commtype="DIG" lat="44.1093" lon="6.2253">
    <comp name="00.HHN">
      <acc value="0.0286909148" flag="0"/>
      <vel value="0.0094095016" flag="0"/>
      <psa03 value="0.0436373746" flag="0"/>
      <psa10 value="0.0031111971" flag="0"/>
      <psa30 value="0.0002778811" flag="0"/>
    </comp>
    <comp name="00.HHE">
      <acc value="0.0218971723" flag="0"/>
      <vel value="0.0059973400" flag="0"/>
      <psa03 value="0.0324574906" flag="0"/>
      <psa10 value="0.0027956602" flag="0"/>
      <psa30 value="0.0003005407" flag="0"/>
    </comp>
    <comp name="00.HHZ">
      <acc value="0.0297478698" flag="0"/>
      <vel value="0.0067564053" flag="0"/>
      <psa03 value="0.0387365466" flag="0"/>
      <psa10 value="0.0035114964" flag="0"/>
      <psa30 value="0.0004584250" flag="0"/>
    </comp>
  </station>
  <station code="OGLC" name="OGLC" netid="FR" insttype="TRILLIUM-120PH" commtype="DIG" lat="44.3703" lon="6.07404">
    <comp name="00.HHE">
      <acc value="0.0185889373" flag="0"/>
      <vel value="0.0071453537" flag="0"/>
      <psa03 value="0.0623015144" flag="0"/>
      <psa10 value="0.0042686658" flag="0"/>
      <psa30 value="0.0004025000" flag="0"/>
    </comp>
    <comp name="00.HHN">
      <acc value="0.0188597428" flag="0"/>
      <vel value="0.0066182666" flag="0"/>
      <psa03 value="0.0531309860" flag="0"/>
      <psa10 value="0.0068223133" flag="0"/>
      <psa30 value="0.0002274702" flag="0"/>
    </comp>
    <comp name="00.HHZ">
      <acc value="0.0083963741" flag="0"/>
      <vel value="0.0026767529" flag="0"/>
      <psa03 value="0.0178696446" flag="0"/>
      <psa10 value="0.0025644753" flag="0"/>
      <psa30 value="0.0002014183" flag="0"/>
    </comp>
  </station>
  <station code="SURF" name="SURF" netid="FR" insttype="TRILLIUM-120PA" commtype="DIG" lat="44.4809" lon="6.8117">
    <comp name="00.HHN">
      <acc value="0.0840062220" flag="0"/>
      <vel value="0.0292856614" flag="0"/>
      <psa03 value="0.1458275359" flag="0"/>
      <psa10 value="0.0075528743" flag="0"/>
      <psa30 value="0.0006196052" flag="0"/>
    </comp>
    <comp name="00.HHZ">
      <acc value="0.0505831543" flag="0"/>
      <vel value="0.0170634827" flag="0"/>
      <psa03 value="0.0956958797" flag="0"/>
      <psa10 value="0.0055743437" flag="0"/>
      <psa30 value="0.0003366736" flag="0"/>
    </comp>
    <comp name="00.HHE">
      <acc value="0.0791669813" flag="0"/>
      <vel value="0.0302702507" flag="0"/>
      <psa03 value="0.1216378589" flag="0"/>
      <psa10 value="0.0064816280" flag="0"/>
      <psa30 value="0.0005705910" flag="0"/>
    </comp>
  </station>
  <station code="TRIGF" name="TRIGF" netid="FR" insttype="TRILLIUM-120PH" commtype="DIG" lat="43.7471" lon="6.4074">
    <comp name="00.HHZ">
      <acc value="0.0533935195" flag="0"/>
      <vel value="0.0115961159" flag="0"/>
      <psa03 value="0.0545398450" flag="0"/>
      <psa10 value="0.0028680228" flag="0"/>
      <psa30 value="0.0002323150" flag="0"/>
    </comp>
    <comp name="00.HHE">
      <acc value="0.0559396702" flag="0"/>
      <vel value="0.0124568405" flag="0"/>
      <psa03 value="0.0524209576" flag="0"/>
      <psa10 value="0.0032146900" flag="0"/>
      <psa30 value="0.0004038264" flag="0"/>
    </comp>
    <comp name="00.HHN">
      <acc value="0.0626479387" flag="0"/>
      <vel value="0.0130606314" flag="0"/>
      <psa03 value="0.0749973990" flag="0"/>
      <psa10 value="0.0056711978" flag="0"/>
      <psa30 value="0.0003628226" flag="0"/>
    </comp>
  </station>
  <station code="BHB" name="BHB" netid="GU" insttype="" commtype="DIG" lat="44.8355" lon="7.263">
    <comp name="--.HHE">
      <acc value="0.0154529399" flag="0"/>
      <vel value="0.0017287297" flag="0"/>
      <psa03 value="0.0054908778" flag="0"/>
      <psa10 value="0.0010625542" flag="0"/>
      <psa30 value="0.0000691244" flag="0"/>
    </comp>
    <comp name="--.HHN">
      <acc value="0.0128709671" flag="0"/>
      <vel value="0.0016168882" flag="0"/>
      <psa03 value="0.0074008666" flag="0"/>
      <psa10 value="0.0007791521" flag="0"/>
      <psa30 value="0.0000892360" flag="0"/>
    </comp>
    <comp name="--.HHZ">
      <acc value="0.0125820074" flag="0"/>
      <vel value="0.0022287008" flag="0"/>
      <psa03 value="0.0063876752" flag="0"/>
      <psa10 value="0.0012377771" flag="0"/>
      <psa30 value="0.0001152893" flag="0"/>
    </comp>
  </station>
  <station code="BURY" name="BURY" netid="GU" insttype="" commtype="DIG" lat="43.7825" lon="7.557">
    <comp name="--.HHE">
      <acc value="0.3308708153" flag="0"/>
      <vel value="0.0671911689" flag="0"/>
      <psa03 value="0.1438677892" flag="0"/>
      <psa10 value="0.0080533266" flag="0"/>
      <psa30 value="0.0009879620" flag="0"/>
    </comp>
    <comp name="--.HHN">
      <acc value="0.2475362085" flag="0"/>
      <vel value="0.0673813923" flag="0"/>
      <psa03 value="0.2534097609" flag="0"/>
      <psa10 value="0.0189957755" flag="0"/>
      <psa30 value="0.0022240412" flag="0"/>
    </comp>
    <comp name="--.HHZ">
      <acc value="0.2276191034" flag="0"/>
      <vel value="0.0319946398" flag="0"/>
      <psa03 value="0.1080321566" flag="0"/>
      <psa10 value="0.0112028731" flag="0"/>
      <psa30 value="0.0010892383" flag="0"/>
    </comp>
  </station>
  <station code="CANO" name="CANO" netid="GU" insttype="" commtype="DIG" lat="44.2075" lon="8.2372">
    <comp name="--.HHE">
      <acc value="0.0484520884" flag="0"/>
      <vel value="0.0145470846" flag="0"/>
      <psa03 value="0.0506943165" flag="0"/>
      <psa10 value="0.0063012826" flag="0"/>
      <psa30 value="0.0004069969" flag="0"/>
    </comp>
    <comp name="--.HHN">
      <acc value="0.0406954327" flag="0"/>
      <vel value="0.0132404287" flag="0"/>
      <psa03 value="0.0662719172" flag="0"/>
      <psa10 value="0.0027898793" flag="0"/>
      <psa30 value="0.0003057001" flag="0"/>
    </comp>
    <comp name="--.HHZ">
      <acc value="0.0294223611" flag="0"/>
      <vel value="0.0073559200" flag="0"/>
      <psa03 value="0.0347426055" flag="0"/>
      <psa10 value="0.0060704248" flag="0"/>
      <psa30 value="0.0002546382" flag="0"/>
    </comp>
  </station>
  <station code="ENR" name="ENR" netid="GU" insttype="" commtype="DIG" lat="44.2294" lon="7.4182">
    <comp name="--.HHE">
      <acc value="0.7322421442" flag="0"/>
      <vel value="0.1066317662" flag="0"/>
      <psa03 value="0.3047077597" flag="0"/>
      <psa10 value="0.0177826677" flag="0"/>
      <psa30 value="0.0020708421" flag="0"/>
    </comp>
    <comp name="--.HHN">
      <acc value="0.7264801003" flag="0"/>
      <vel value="0.1171046716" flag="0"/>
      <psa03 value="0.3331941547" flag="0"/>
      <psa10 value="0.0159178937" flag="0"/>
      <psa30 value="0.0016323351" flag="0"/>
    </comp>
    <comp name="--.HHZ">
      <acc value="0.3495554100" flag="0"/>
      <vel value="0.0457777835" flag="0"/>
      <psa03 value="0.0972782798" flag="0"/>
      <psa10 value="0.0082968410" flag="0"/>
      <psa30 value="0.0013265915" flag="0"/>
    </comp>
  </station>
  <station code="IMI" name="IMI" netid="GU" insttype="" commtype="DIG" lat="43.9105" lon="7.89317">
    <comp name="--.HHE">
      <acc value="0.1565701690" flag="0"/>
      <vel value="0.0361940968" flag="0"/>
      <psa03 value="0.1477689056" flag="0"/>
      <psa10 value="0.0070812948" flag="0"/>
      <psa30 value="0.0005437556" flag="0"/>
    </comp>
    <comp name="--.HHN">
      <acc value="0.1977082709" flag="0"/>
      <vel value="0.0505165075" flag="0"/>
      <psa03 value="0.2587834853" flag="0"/>
      <psa10 value="0.0149780187" flag="0"/>
      <psa30 value="0.0011500031" flag="0"/>
    </comp>
    <comp name="--.HHZ">
      <acc value="0.1169155880" flag="0"/>
      <vel value="0.0234974114" flag="0"/>
      <psa03 value="0.0890065495" flag="0"/>
      <psa10 value="0.0060076190" flag="0"/>
      <psa30 value="0.0006356953" flag="0"/>
    </comp>
  </station>
  <station code="MGRO" name="MGRO" netid="GU" insttype="" commtype="DIG" lat="44.0426" lon="7.8082">
    <comp name="--.HHE">
      <acc value="0.1303463519" flag="0"/>
      <vel value="0.0289693667" flag="0"/>
      <psa03 value="0.0722531647" flag="0"/>
      <psa10 value="0.0054563426" flag="0"/>
      <psa30 value="0.0004621699" flag="0"/>
    </comp>
    <comp name="--.HHN">
      <acc value="0.1113962643" flag="0"/>
      <vel value="0.0219001348" flag="0"/>
      <psa03 value="0.1127045544" flag="0"/>
      <psa10 value="0.0081714849" flag="0"/>
      <psa30 value="0.0008521630" flag="0"/>
    </comp>
    <comp name="--.HHZ">
      <acc value="0.0558178142" flag="0"/>
      <vel value="0.0136005832" flag="0"/>
      <psa03 value="0.0641548076" flag="0"/>
      <psa10 value="0.0065735165" flag="0"/>
      <psa30 value="0.0005732232" flag="0"/>
    </comp>
  </station>
  <station code="PCP" name="PCP" netid="GU" insttype="" commtype="DIG" lat="44.5413" lon="8.54517">
    <comp name="--.HHE">
      <acc value="0.0096690884" flag="0"/>
      <vel value="0.0024348745" flag="0"/>
      <psa03 value="0.0153115307" flag="0"/>
      <psa10 value="0.0013536245" flag="0"/>
      <psa30 value="0.0000885645" flag="0"/>
    </comp>
    <comp name="--.HHZ">
      <acc value="0.0063582531" flag="0"/>
      <vel value="0.0015085960" flag="0"/>
      <psa03 value="0.0081780301" flag="0"/>
      <psa10 value="0.0011707485" flag="0"/>
      <psa30 value="0.0001028038" flag="0"/>
    </comp>
    <comp name="--.HHN">
      <acc value="0.0070521272" flag="0"/>
      <vel value="0.0022450298" flag="0"/>
      <psa03 value="0.0162583527" flag="0"/>
      <psa10 value="0.0013771191" flag="0"/>
      <psa30 value="0.0000826732" flag="0"/>
    </comp>
  </station>
  <station code="PZZ" name="PZZ" netid="GU" insttype="" commtype="DIG" lat="44.5068" lon="7.116">
    <comp name="--.HHN">
      <acc value="0.0460310491" flag="0"/>
      <vel value="0.0119915743" flag="0"/>
      <psa03 value="0.0512810392" flag="0"/>
      <psa10 value="0.0070016380" flag="0"/>
      <psa30 value="0.0004269708" flag="0"/>
    </comp>
    <comp name="--.HHE">
      <acc value="0.0538409019" flag="0"/>
      <vel value="0.0131188288" flag="0"/>
      <psa03 value="0.0450225615" flag="0"/>
      <psa10 value="0.0058617015" flag="0"/>
      <psa30 value="0.0003175146" flag="0"/>
    </comp>
    <comp name="--.HHZ">
      <acc value="0.0487423559" flag="0"/>
      <vel value="0.0100300124" flag="0"/>
      <psa03 value="0.0593643469" flag="0"/>
      <psa10 value="0.0027669992" flag="0"/>
      <psa30 value="0.0002857177" flag="0"/>
    </comp>
  </station>
  <station code="RORO" name="RORO" netid="GU" insttype="" commtype="DIG" lat="44.1125" lon="8.0667">
    <comp name="--.HHE">
      <acc value="0.0935914721" flag="0"/>
      <vel value="0.0170805740" flag="0"/>
      <psa03 value="0.0675904563" flag="0"/>
      <psa10 value="0.0030389148" flag="0"/>
      <psa30 value="0.0002797787" flag="0"/>
    </comp>
    <comp name="--.HHZ">
      <acc value="0.0680205257" flag="0"/>
      <vel value="0.0114761767" flag="0"/>
      <psa03 value="0.0658998345" flag="0"/>
      <psa10 value="0.0035727597" flag="0"/>
      <psa30 value="0.0002674226" flag="0"/>
    </comp>
    <comp name="--.HHN">
      <acc value="0.0902753954" flag="0"/>
      <vel value="0.0205721065" flag="0"/>
      <psa03 value="0.0516509854" flag="0"/>
      <psa10 value="0.0038134862" flag="0"/>
      <psa30 value="0.0002252063" flag="0"/>
    </comp>
  </station>
  <station code="RRL" name="RRL" netid="GU" insttype="" commtype="DIG" lat="44.921" lon="6.79">
    <comp name="--.HHE">
      <acc value="0.0041019957" flag="0"/>
      <vel value="0.0019180551" flag="0"/>
      <psa03 value="0.0085727865" flag="0"/>
      <psa10 value="0.0017067287" flag="0"/>
      <psa30 value="0.0001074119" flag="0"/>
    </comp>
    <comp name="--.HHN">
      <acc value="0.0050290218" flag="0"/>
      <vel value="0.0015130053" flag="0"/>
      <psa03 value="0.0088409482" flag="0"/>
      <psa10 value="0.0014985417" flag="0"/>
      <psa30 value="0.0001135411" flag="0"/>
    </comp>
    <comp name="--.HHZ">
      <acc value="0.0034896696" flag="0"/>
      <vel value="0.0015200660" flag="0"/>
      <psa03 value="0.0065304380" flag="0"/>
      <psa10 value="0.0016047075" flag="0"/>
      <psa30 value="0.0000923972" flag="0"/>
    </comp>
  </station>
  <station code="STV" name="STV" netid="GU" insttype="" commtype="DIG" lat="44.2455" lon="7.326">
    <comp name="--.HHE">
      <acc value="0.1927554897" flag="0"/>
      <vel value="0.0563304890" flag="0"/>
      <psa03 value="0.1519807805" flag="0"/>
      <psa10 value="0.0071911950" flag="0"/>
      <psa30 value="0.0008434466" flag="0"/>
    </comp>
    <comp name="--.HHN">
      <acc value="0.1194984932" flag="0"/>
      <vel value="0.0190419580" flag="0"/>
      <psa03 value="0.0841368542" flag="0"/>
      <psa10 value="0.0085827453" flag="0"/>
      <psa30 value="0.0005747448" flag="0"/>
    </comp>
    <comp name="--.HHZ">
      <acc value="0.0884507856" flag="0"/>
      <vel value="0.0223018659" flag="0"/>
      <psa03 value="0.0657369056" flag="0"/>
      <psa10 value="0.0104586759" flag="0"/>
      <psa30 value="0.0005955062" flag="0"/>
    </comp>
  </station>
  <station code="QLNO" name="QLNO" netid="IV" insttype="" commtype="DIG" lat="44.3242" lon="8.34592">
    <comp name="--.HHN">
      <acc value="0.0170931127" flag="0"/>
      <vel value="0.0049341406" flag="0"/>
      <psa03 value="0.0226484578" flag="0"/>
      <psa10 value="0.0023323074" flag="0"/>
      <psa30 value="0.0002040254" flag="0"/>
    </comp>
    <comp name="--.HHZ">
      <acc value="0.0102090546" flag="0"/>
      <vel value="0.0035200844" flag="0"/>
      <psa03 value="0.0224649757" flag="0"/>
      <psa10 value="0.0012821860" flag="0"/>
      <psa30 value="0.0001509114" flag="0"/>
    </comp>
    <comp name="--.HHE">
      <acc value="0.0205607074" flag="0"/>
      <vel value="0.0060456474" flag="0"/>
      <psa03 value="0.0371044554" flag="0"/>
      <psa10 value="0.0018752330" flag="0"/>
      <psa30 value="0.0002052198" flag="0"/>
    </comp>
  </station>
  <station code="IRPV" name="IRPV" netid="RA" insttype="" commtype="DIG" lat="43.8034" lon="5.75908">
    <comp name="00.HNN">
      <acc value="0.0713117185" flag="0"/>
      <vel value="0.0172802707" flag="0"/>
      <psa03 value="0.0623893019" flag="0"/>
      <psa10 value="0.0048901425" flag="0"/>
      <psa30 value="0.0003937141" flag="0"/>
    </comp>
    <comp name="00.HNE">
      <acc value="0.1224018199" flag="0"/>
      <vel value="0.0204327593" flag="0"/>
      <psa03 value="0.0735166444" flag="0"/>
      <psa10 value="0.0054127944" flag="0"/>
      <psa30 value="0.0004459902" flag="0"/>
    </comp>
    <comp name="00.HNZ">
      <acc value="0.0581135760" flag="0"/>
      <vel value="0.0081853400" flag="0"/>
      <psa03 value="0.0399107580" flag="0"/>
      <psa10 value="0.0047317034" flag="0"/>
      <psa30 value="0.0002057013" flag="0"/>
    </comp>
  </station>
</stationlist>
