<?xml version="1.0" encoding="UTF-8" standalone="yes"?>
<!DOCTYPE earthquake SYSTEM "stationlist.dtd">
<stationlist created="" xmlns="ch.ethz.sed.shakemap.usgs.xml">
  <station code="CALF" name="CALF" netid="FR" insttype="TRILLIUM-HORIZON" commtype="DIG" lat="43.7528" lon="6.9218">
    <comp name="00.HHE">
      <acc value="0.1086340354" flag="0"/>
      <vel value="0.0297794898" flag="0"/>
      <psa03 value="0.1107395555" flag="0"/>
      <psa10 value="0.0154929015" flag="0"/>
      <psa30 value="0.0010995657" flag="0"/>
    </comp>
    <comp name="00.HHZ">
      <acc value="0.1785229330" flag="0"/>
      <vel value="0.0314796830" flag="0"/>
      <psa03 value="0.0871924764" flag="0"/>
      <psa10 value="0.0065088664" flag="0"/>
      <psa30 value="0.0007059298" flag="0"/>
    </comp>
    <comp name="00.HHN">
      <acc value="0.1356467194" flag="0"/>
      <vel value="0.0265924505" flag="0"/>
      <psa03 value="0.1121592300" flag="0"/>
      <psa10 value="0.0095084628" flag="0"/>
      <psa30 value="0.0006440874" flag="0"/>
    </comp>
  </station>
  <station code="ENAUX" name="ENAUX" netid="FR" insttype="TRILLIUM-120PH" commtype="DIG" lat="44.1095" lon="6.7775">
    <comp name="00.HHZ">
      <acc value="0.2001075347" flag="0"/>
      <vel value="0.0372526919" flag="0"/>
      <psa03 value="0.0953820082" flag="0"/>
      <psa10 value="0.0067909307" flag="0"/>
      <psa30 value="0.0005899703" flag="0"/>
    </comp>
    <comp name="00.HHE">
      <acc value="0.1793331576" flag="0"/>
      <vel value="0.0500029610" flag="0"/>
      <psa03 value="0.1120883064" flag="0"/>
      <psa10 value="0.0057026676" flag="0"/>
      <psa30 value="0.0005935595" flag="0"/>
    </comp>
    <comp name="00.HHN">
      <acc value="0.1641611899" flag="0"/>
      <vel value="0.0447023945" flag="0"/>
      <psa03 value="0.1337922883" flag="0"/>
      <psa10 value="0.0066217240" flag="0"/>
      <psa30 value="0.0007148916" flag="0"/>
    </comp>
  </station>
  <station code="NIMR" name="NIMR" netid="FR" insttype="CMG40-T" commtype="DIG" lat="43.6802" lon="7.20276">
    <comp name="00.HHE">
      <acc value="0.5252975390" flag="0"/>
      <vel value="0.1623962833" flag="0"/>
      <psa03 value="0.8847562518" flag="0"/>
      <psa10 value="0.0357272958" flag="0"/>
      <psa30 value="0.0029968750" flag="0"/>
    </comp>
    <comp name="00.HHN">
      <acc value="0.7913874086" flag="0"/>
      <vel value="0.3021738978" flag="0"/>
      <psa03 value="0.9814412339" flag="0"/>
      <psa10 value="0.0883548263" flag="0"/>
      <psa30 value="0.0059526167" flag="0"/>
    </comp>
    <comp name="00.HHZ">
      <acc value="0.6799980214" flag="0"/>
      <vel value="0.1358101076" flag="0"/>
      <psa03 value="0.7258512268" flag="0"/>
      <psa10 value="0.0208846584" flag="0"/>
      <psa30 value="0.0024024761" flag="0"/>
    </comp>
  </station>
  <station code="OGDI" name="OGDI" netid="FR" insttype="TRILLIUM-120PA" commtype="DIG" lat="44.1093" lon="6.2253">
    <comp name="00.HHN">
      <acc value="0.0286909153" flag="0"/>
      <vel value="0.0094095015" flag="0"/>
      <psa03 value="0.0436373746" flag="0"/>
      <psa10 value="0.0031111971" flag="0"/>
      <psa30 value="0.0002779194" flag="0"/>
    </comp>
    <comp name="00.HHE">
      <acc value="0.0218971720" flag="0"/>
      <vel value="0.0059973417" flag="0"/>
      <psa03 value="0.0324574906" flag="0"/>
      <psa10 value="0.0027956601" flag="0"/>
      <psa30 value="0.0003005454" flag="0"/>
    </comp>
    <comp name="00.HHZ">
      <acc value="0.0297478707" flag="0"/>
      <vel value="0.0067564036" flag="0"/>
      <psa03 value="0.0387365466" flag="0"/>
      <psa10 value="0.0035114964" flag="0"/>
      <psa30 value="0.0004583822" flag="0"/>
    </comp>
  </station>
  <station code="SURF" name="SURF" netid="FR" insttype="TRILLIUM-120PA" commtype="DIG" lat="44.4809" lon="6.8117">
    <comp name="00.HHE">
      <acc value="0.0791669812" flag="0"/>
      <vel value="0.0302702511" flag="0"/>
      <psa03 value="0.1216378589" flag="0"/>
      <psa10 value="0.0064816278" flag="0"/>
      <psa30 value="0.0005704082" flag="0"/>
    </comp>
    <comp name="00.HHZ">
      <acc value="0.0505831547" flag="0"/>
      <vel value="0.0170634822" flag="0"/>
      <psa03 value="0.0956958797" flag="0"/>
      <psa10 value="0.0055743434" flag="0"/>
      <psa30 value="0.0003365568" flag="0"/>
    </comp>
    <comp name="00.HHN">
      <acc value="0.0840062221" flag="0"/>
      <vel value="0.0292856621" flag="0"/>
      <psa03 value="0.1458275359" flag="0"/>
      <psa10 value="0.0075528745" flag="0"/>
      <psa30 value="0.0006195636" flag="0"/>
    </comp>
  </station>
  <station code="TRIGF" name="TRIGF" netid="FR" insttype="TRILLIUM-120PH" commtype="DIG" lat="43.7471" lon="6.4074">
    <comp name="00.HHN">
      <acc value="0.0626479390" flag="0"/>
      <vel value="0.0130606306" flag="0"/>
      <psa03 value="0.0749973990" flag="0"/>
      <psa10 value="0.0056711978" flag="0"/>
      <psa30 value="0.0003628237" flag="0"/>
    </comp>
    <comp name="00.HHE">
      <acc value="0.0559396681" flag="0"/>
      <vel value="0.0124568405" flag="0"/>
      <psa03 value="0.0524209576" flag="0"/>
      <psa10 value="0.0032146900" flag="0"/>
      <psa30 value="0.0004038224" flag="0"/>
    </comp>
    <comp name="00.HHZ">
      <acc value="0.0533935198" flag="0"/>
      <vel value="0.0115961159" flag="0"/>
      <psa03 value="0.0545398450" flag="0"/>
      <psa10 value="0.0028680228" flag="0"/>
      <psa30 value="0.0002323047" flag="0"/>
    </comp>
  </station>
  <station code="BURY" name="BURY" netid="GU" insttype="" commtype="DIG" lat="43.7825" lon="7.557">
    <comp name="--.HHN">
      <acc value="0.2475362085" flag="0"/>
      <vel value="0.0673813864" flag="0"/>
      <psa03 value="0.2534097609" flag="0"/>
      <psa10 value="0.0189957755" flag="0"/>
      <psa30 value="0.0022239250" flag="0"/>
    </comp>
    <comp name="--.HHZ">
      <acc value="0.2276191035" flag="0"/>
      <vel value="0.0319946416" flag="0"/>
      <psa03 value="0.1080321566" flag="0"/>
      <psa10 value="0.0112028731" flag="0"/>
      <psa30 value="0.0010891871" flag="0"/>
    </comp>
    <comp name="--.HHE">
      <acc value="0.3308708155" flag="0"/>
      <vel value="0.0671911723" flag="0"/>
      <psa03 value="0.1438677892" flag="0"/>
      <psa10 value="0.0080533267" flag="0"/>
      <psa30 value="0.0009878606" flag="0"/>
    </comp>
  </station>
  <station code="CANO" name="CANO" netid="GU" insttype="" commtype="DIG" lat="44.2075" lon="8.2372">
    <comp name="--.HHE">
      <acc value="0.0484520882" flag="0"/>
      <vel value="0.0145470814" flag="0"/>
      <psa03 value="0.0506943165" flag="0"/>
      <psa10 value="0.0063012823" flag="0"/>
      <psa30 value="0.0004071145" flag="0"/>
    </comp>
    <comp name="--.HHN">
      <acc value="0.0406954331" flag="0"/>
      <vel value="0.0132404314" flag="0"/>
      <psa03 value="0.0662719172" flag="0"/>
      <psa10 value="0.0027898794" flag="0"/>
      <psa30 value="0.0003058980" flag="0"/>
    </comp>
    <comp name="--.HHZ">
      <acc value="0.0294223620" flag="0"/>
      <vel value="0.0073559219" flag="0"/>
      <psa03 value="0.0347426055" flag="0"/>
      <psa10 value="0.0060704250" flag="0"/>
      <psa30 value="0.0002544509" flag="0"/>
    </comp>
  </station>
  <station code="ENR" name="ENR" netid="GU" insttype="" commtype="DIG" lat="44.2294" lon="7.4182">
    <comp name="--.HHE">
      <acc value="0.7322421437" flag="0"/>
      <vel value="0.1066317642" flag="0"/>
      <psa03 value="0.3047077597" flag="0"/>
      <psa10 value="0.0177826700" flag="0"/>
      <psa30 value="0.0020711890" flag="0"/>
    </comp>
    <comp name="--.HHN">
      <acc value="0.7264801006" flag="0"/>
      <vel value="0.1171046706" flag="0"/>
      <psa03 value="0.3331941547" flag="0"/>
      <psa10 value="0.0159178963" flag="0"/>
      <psa30 value="0.0016326931" flag="0"/>
    </comp>
    <comp name="--.HHZ">
      <acc value="0.3495554097" flag="0"/>
      <vel value="0.0457777801" flag="0"/>
      <psa03 value="0.0972782798" flag="0"/>
      <psa10 value="0.0082968438" flag="0"/>
      <psa30 value="0.0013277892" flag="0"/>
    </comp>
  </station>
  <station code="IMI" name="IMI" netid="GU" insttype="" commtype="DIG" lat="43.9105" lon="7.89317">
    <comp name="--.HHE">
      <acc value="0.1565701693" flag="0"/>
      <vel value="0.0361940971" flag="0"/>
      <psa03 value="0.1477689056" flag="0"/>
      <psa10 value="0.0070812951" flag="0"/>
      <psa30 value="0.0005439127" flag="0"/>
    </comp>
    <comp name="--.HHN">
      <acc value="0.1977082711" flag="0"/>
      <vel value="0.0505165093" flag="0"/>
      <psa03 value="0.2587834853" flag="0"/>
      <psa10 value="0.0149780185" flag="0"/>
      <psa30 value="0.0011502228" flag="0"/>
    </comp>
    <comp name="--.HHZ">
      <acc value="0.1169155879" flag="0"/>
      <vel value="0.0234974128" flag="0"/>
      <psa03 value="0.0890065495" flag="0"/>
      <psa10 value="0.0060076185" flag="0"/>
      <psa30 value="0.0006357767" flag="0"/>
    </comp>
  </station>
  <station code="MGRO" name="MGRO" netid="GU" insttype="" commtype="DIG" lat="44.0426" lon="7.8082">
    <comp name="--.HHE">
      <acc value="0.1303463523" flag="0"/>
      <vel value="0.0289693684" flag="0"/>
      <psa03 value="0.0722531647" flag="0"/>
      <psa10 value="0.0054563439" flag="0"/>
      <psa30 value="0.0004621594" flag="0"/>
    </comp>
    <comp name="--.HHN">
      <acc value="0.1113962648" flag="0"/>
      <vel value="0.0219001316" flag="0"/>
      <psa03 value="0.1127045544" flag="0"/>
      <psa10 value="0.0081714846" flag="0"/>
      <psa30 value="0.0008521928" flag="0"/>
    </comp>
    <comp name="--.HHZ">
      <acc value="0.0558178141" flag="0"/>
      <vel value="0.0136005827" flag="0"/>
      <psa03 value="0.0641548076" flag="0"/>
      <psa10 value="0.0065735171" flag="0"/>
      <psa30 value="0.0005727871" flag="0"/>
    </comp>
  </station>
  <station code="PZZ" name="PZZ" netid="GU" insttype="" commtype="DIG" lat="44.5068" lon="7.116">
    <comp name="--.HHE">
      <acc value="0.0538409019" flag="0"/>
      <vel value="0.0131188292" flag="0"/>
      <psa03 value="0.0450225615" flag="0"/>
      <psa10 value="0.0058617015" flag="0"/>
      <psa30 value="0.0003177707" flag="0"/>
    </comp>
    <comp name="--.HHN">
      <acc value="0.0460310492" flag="0"/>
      <vel value="0.0119915741" flag="0"/>
      <psa03 value="0.0512810392" flag="0"/>
      <psa10 value="0.0070016382" flag="0"/>
      <psa30 value="0.0004270279" flag="0"/>
    </comp>
    <comp name="--.HHZ">
      <acc value="0.0487423550" flag="0"/>
      <vel value="0.0100300134" flag="0"/>
      <psa03 value="0.0593643469" flag="0"/>
      <psa10 value="0.0027669993" flag="0"/>
      <psa30 value="0.0002856393" flag="0"/>
    </comp>
  </station>
  <station code="RORO" name="RORO" netid="GU" insttype="" commtype="DIG" lat="44.1125" lon="8.0667">
    <comp name="--.HHE">
      <acc value="0.0935914727" flag="0"/>
      <vel value="0.0170805738" flag="0"/>
      <psa03 value="0.0675904563" flag="0"/>
      <psa10 value="0.0030389146" flag="0"/>
      <psa30 value="0.0002797514" flag="0"/>
    </comp>
    <comp name="--.HHN">
      <acc value="0.0902753950" flag="0"/>
      <vel value="0.0205721081" flag="0"/>
      <psa03 value="0.0516509854" flag="0"/>
      <psa10 value="0.0038134862" flag="0"/>
      <psa30 value="0.0002249819" flag="0"/>
    </comp>
    <comp name="--.HHZ">
      <acc value="0.0680205262" flag="0"/>
      <vel value="0.0114761755" flag="0"/>
      <psa03 value="0.0658998345" flag="0"/>
      <psa10 value="0.0035727598" flag="0"/>
      <psa30 value="0.0002675720" flag="0"/>
    </comp>
  </station>
  <station code="STV" name="STV" netid="GU" insttype="" commtype="DIG" lat="44.2455" lon="7.326">
    <comp name="--.HHE">
      <acc value="0.1927554903" flag="0"/>
      <vel value="0.0563304887" flag="0"/>
      <psa03 value="0.1519807805" flag="0"/>
      <psa10 value="0.0071911951" flag="0"/>
      <psa30 value="0.0008434989" flag="0"/>
    </comp>
    <comp name="--.HHN">
      <acc value="0.1194984941" flag="0"/>
      <vel value="0.0190419573" flag="0"/>
      <psa03 value="0.0841368542" flag="0"/>
      <psa10 value="0.0085827445" flag="0"/>
      <psa30 value="0.0005750597" flag="0"/>
    </comp>
    <comp name="--.HHZ">
      <acc value="0.0884507866" flag="0"/>
      <vel value="0.0223018651" flag="0"/>
      <psa03 value="0.0657369056" flag="0"/>
      <psa10 value="0.0104586768" flag="0"/>
      <psa30 value="0.0005952786" flag="0"/>
    </comp>
  </station>
  <station code="QLNO" name="QLNO" netid="IV" insttype="" commtype="DIG" lat="44.3242" lon="8.34592">
    <comp name="--.HHE">
      <acc value="0.0205607076" flag="0"/>
      <vel value="0.0060456473" flag="0"/>
      <psa03 value="0.0371044554" flag="0"/>
      <psa10 value="0.0018752330" flag="0"/>
      <psa30 value="0.0002052198" flag="0"/>
    </comp>
    <comp name="--.HHN">
      <acc value="0.0170931123" flag="0"/>
      <vel value="0.0049341406" flag="0"/>
      <psa03 value="0.0226484578" flag="0"/>
      <psa10 value="0.0023323074" flag="0"/>
      <psa30 value="0.0002040254" flag="0"/>
    </comp>
    <comp name="--.HHZ">
      <acc value="0.0102090550" flag="0"/>
      <vel value="0.0035200842" flag="0"/>
      <psa03 value="0.0224649757" flag="0"/>
      <psa10 value="0.0012821860" flag="0"/>
      <psa30 value="0.0001509114" flag="0"/>
    </comp>
  </station>
</stationlist>
