<?xml version="1.0" encoding="UTF-8" standalone="yes"?>
<!DOCTYPE earthquake SYSTEM "stationlist.dtd">
<stationlist created="" xmlns="ch.ethz.sed.shakemap.usgs.xml">
  <station code="KBS" name="KBS" netid="GE" insttype="" lat="78.9154" lon="11.9385">
    <comp name="20.HN2">
      <acc value="0.0129365519" flag="0"/>
      <vel value="0.0042095203" flag="0"/>
      <psa03 value="0.0253394072" flag="0"/>
      <psa10 value="0.0032214086" flag="0"/>
      <psa30 value="0.0003138078" flag="0"/>
    </comp>
    <comp name="20.HN1">
      <acc value="0.0168660536" flag="0"/>
      <vel value="0.0067941563" flag="0"/>
      <psa03 value="0.0318729481" flag="0"/>
      <psa10 value="0.0042303969" flag="0"/>
      <psa30 value="0.0004597788" flag="0"/>
    </comp>
    <comp name="20.HNZ">
      <acc value="0.0120965066" flag="0"/>
      <vel value="0.0048568963" flag="0"/>
      <psa03 value="0.0203987517" flag="0"/>
      <psa10 value="0.0030334720" flag="0"/>
      <psa30 value="0.0002788847" flag="0"/>
    </comp>
  </station>
</stationlist>
