<?xml version="1.0" encoding="UTF-8" standalone="yes"?>
<!DOCTYPE earthquake SYSTEM "stationlist.dtd">
<stationlist created="" xmlns="ch.ethz.sed.shakemap.usgs.xml">
  <station code="KBS" name="KBS" netid="GE" insttype="" lat="78.9154" lon="11.9385">
    <comp name="20.HN1">
      <acc value="0.0168660562" flag="0"/>
      <vel value="0.0067941551" flag="0"/>
      <psa03 value="0.0318729481" flag="0"/>
      <psa10 value="0.0042303970" flag="0"/>
      <psa30 value="0.0004597806" flag="0"/>
    </comp>
    <comp name="20.HN2">
      <acc value="0.0129365500" flag="0"/>
      <vel value="0.0042095171" flag="0"/>
      <psa03 value="0.0253394072" flag="0"/>
      <psa10 value="0.0032214085" flag="0"/>
      <psa30 value="0.0003138413" flag="0"/>
    </comp>
    <comp name="20.HNZ">
      <acc value="0.0120965044" flag="0"/>
      <vel value="0.0048568925" flag="0"/>
      <psa03 value="0.0203987517" flag="0"/>
      <psa10 value="0.0030334720" flag="0"/>
      <psa30 value="0.0002788586" flag="0"/>
    </comp>
  </station>
</stationlist>
