<?xml version="1.0" encoding="UTF-8" standalone="yes"?>
<!DOCTYPE earthquake SYSTEM "stationlist.dtd">
<stationlist created="" xmlns="ch.ethz.sed.shakemap.usgs.xml">
  <station code="ZKR" name="ZKR" netid="GE" insttype="STS-2/N" lat="35.1147" lon="26.2169">
    <comp name="--.HHE">
      <acc value="0.0090914829" flag="0"/>
      <vel value="0.0063638278" flag="0"/>
      <psa03 value="0.0239101181" flag="0"/>
      <psa10 value="0.0094048166" flag="0"/>
      <psa30 value="0.0013722713" flag="0"/>
    </comp>
    <comp name="--.HHN">
      <acc value="0.0054509956" flag="0"/>
      <vel value="0.0028332407" flag="0"/>
      <psa03 value="0.0142490013" flag="0"/>
      <psa10 value="0.0027877480" flag="0"/>
      <psa30 value="0.0005568813" flag="0"/>
    </comp>
    <comp name="--.HHZ">
      <acc value="0.0070122179" flag="0"/>
      <vel value="0.0040469597" flag="0"/>
      <psa03 value="0.0158805497" flag="0"/>
      <psa10 value="0.0064284995" flag="0"/>
      <psa30 value="0.0011078690" flag="0"/>
    </comp>
  </station>
  <station code="IACM" name="IACM" netid="HL" insttype="120" lat="35.3058" lon="25.0709">
    <comp name="--.HHE">
      <acc value="0.0152614637" flag="0"/>
      <vel value="0.0191585961" flag="0"/>
      <psa03 value="0.0295137338" flag="0"/>
      <psa10 value="0.0388273604" flag="0"/>
      <psa30 value="0.0030312619" flag="0"/>
    </comp>
    <comp name="--.HHN">
      <acc value="0.0147196524" flag="0"/>
      <vel value="0.0167348320" flag="0"/>
      <psa03 value="0.0300980771" flag="0"/>
      <psa10 value="0.0327159262" flag="0"/>
      <psa30 value="0.0025164080" flag="0"/>
    </comp>
    <comp name="--.HHZ">
      <acc value="0.0122495129" flag="0"/>
      <vel value="0.0080833915" flag="0"/>
      <psa03 value="0.0191580579" flag="0"/>
      <psa10 value="0.0119152527" flag="0"/>
      <psa30 value="0.0010073311" flag="0"/>
    </comp>
  </station>
  <station code="NPS" name="NPS" netid="HL" insttype="CMG3ESPC-120s" lat="35.2613" lon="25.6104">
    <comp name="--.HHE">
      <acc value="0.0018583396" flag="0"/>
      <vel value="0.0015588859" flag="0"/>
      <psa03 value="0.0048307942" flag="0"/>
      <psa10 value="0.0020950529" flag="0"/>
      <psa30 value="0.0003077929" flag="0"/>
    </comp>
    <comp name="--.HHN">
      <acc value="0.0036282613" flag="0"/>
      <vel value="0.0033485836" flag="0"/>
      <psa03 value="0.0075468898" flag="0"/>
      <psa10 value="0.0044202548" flag="0"/>
      <psa30 value="0.0009363472" flag="0"/>
    </comp>
    <comp name="--.HHZ">
      <acc value="0.0029327438" flag="0"/>
      <vel value="0.0027094015" flag="0"/>
      <psa03 value="0.0058097521" flag="0"/>
      <psa10 value="0.0042403424" flag="0"/>
      <psa30 value="0.0008501398" flag="0"/>
    </comp>
  </station>
  <station code="ZKR" name="ZKR" netid="HL" insttype="120" lat="35.1147" lon="26.2169">
    <comp name="--.HHE">
      <acc value="0.0088054293" flag="0"/>
      <vel value="0.0063315048" flag="0"/>
      <psa03 value="0.0233064606" flag="0"/>
      <psa10 value="0.0093613507" flag="0"/>
      <psa30 value="0.0013731610" flag="0"/>
    </comp>
    <comp name="--.HHN">
      <acc value="0.0053363590" flag="0"/>
      <vel value="0.0028220019" flag="0"/>
      <psa03 value="0.0138551445" flag="0"/>
      <psa10 value="0.0027767585" flag="0"/>
      <psa30 value="0.0005562762" flag="0"/>
    </comp>
    <comp name="--.HHZ">
      <acc value="0.0068500822" flag="0"/>
      <vel value="0.0040277966" flag="0"/>
      <psa03 value="0.0154436705" flag="0"/>
      <psa10 value="0.0063907817" flag="0"/>
      <psa30 value="0.0011076021" flag="0"/>
    </comp>
  </station>
</stationlist>
