<stationlist created="1676372449">
	<station code="CMRD" name="CMRD" netid="KO" source="Bogazici University Kandilli Observatory And Earthquake Research Institute (KOERI)" insttype="" lat="37.6623" lon="34.9902">
		<comp name=".HNE" depth="0.0">
			<acc value="0.00928555907003" flag="0"/>
			<vel value="0.00515992683749" flag="0"/>
			<psa03 value="0.0282813761065" flag="0"/>
			<psa10 value="0.00820976448162" flag="0"/>
			<psa30 value="0.000943048930699" flag="0"/>
		</comp>
		<comp name=".HNN" depth="0.0">
			<acc value="0.00816992381643" flag="0"/>
			<vel value="0.0066804566233" flag="0"/>
			<psa03 value="0.0207743696896" flag="0"/>
			<psa10 value="0.00969638640051" flag="0"/>
			<psa30 value="0.00103686306209" flag="0"/>
		</comp>
		<comp name=".HNZ" depth="0.0">
			<acc value="0.00651769025754" flag="0"/>
			<vel value="0.00562116245687" flag="0"/>
			<psa03 value="0.016604429389" flag="0"/>
			<psa10 value="0.00697971909088" flag="0"/>
			<psa30 value="0.000829054608298" flag="0"/>
		</comp>
	</station>
	<station code="KHMN" name="KHMN" netid="KO" source="Bogazici University Kandilli Observatory And Earthquake Research Institute (KOERI)" insttype="" lat="37.3916" lon="37.1574">
		<comp name=".HNE" depth="0.0">
			<acc value="0.115886522551" flag="0"/>
			<vel value="0.0351620121847" flag="0"/>
			<psa03 value="0.117334970783" flag="0"/>
			<psa10 value="0.0185295068639" flag="0"/>
			<psa30 value="0.0022975815785" flag="0"/>
		</comp>
		<comp name=".HNN" depth="0.0">
			<acc value="0.0953312277372" flag="0"/>
			<vel value="0.0210575471924" flag="0"/>
			<psa03 value="0.136498406933" flag="0"/>
			<psa10 value="0.0176723857088" flag="0"/>
			<psa30 value="0.00231119873057" flag="0"/>
		</comp>
		<comp name=".HNZ" depth="0.0">
			<acc value="0.0536756723752" flag="0"/>
			<vel value="0.0151929176398" flag="0"/>
			<psa03 value="0.0465502139316" flag="0"/>
			<psa10 value="0.017443843694" flag="0"/>
			<psa30 value="0.00187946638042" flag="0"/>
		</comp>
	</station>
	<station code="KRTS" name="KRTS" netid="KO" source="Bogazici University Kandilli Observatory And Earthquake Research Institute (KOERI)" insttype="" lat="36.573" lon="35.375">
		<comp name=".HNE" depth="0.0">
			<acc value="0.0900419755696" flag="0"/>
			<vel value="0.0449146247231" flag="0"/>
			<psa03 value="0.255861407896" flag="0"/>
			<psa10 value="0.0314017189598" flag="0"/>
			<psa30 value="0.00274103032981" flag="0"/>
		</comp>
		<comp name=".HNN" depth="0.0">
			<acc value="0.0924887874317" flag="0"/>
			<vel value="0.0536659677416" flag="0"/>
			<psa03 value="0.254176900472" flag="0"/>
			<psa10 value="0.0421038666747" flag="0"/>
			<psa30 value="0.00440556226355" flag="0"/>
		</comp>
		<comp name=".HNZ" depth="0.0">
			<acc value="0.0617604522174" flag="0"/>
			<vel value="0.0353599691303" flag="0"/>
			<psa03 value="0.267765342306" flag="0"/>
			<psa10 value="0.0313318724578" flag="0"/>
			<psa30 value="0.00246903939507" flag="0"/>
		</comp>
	</station>
</stationlist>
