<?xml version="1.0" encoding="UTF-8" standalone="yes"?>
<!DOCTYPE earthquake SYSTEM "stationlist.dtd">
<stationlist created="" xmlns="ch.ethz.sed.shakemap.usgs.xml">
  <station code="CEYT" name="CEYT" netid="KO" insttype="CMG-3ESP" lat="37.0105" lon="35.7478">
    <comp name="--.HHN">
      <acc value="0.0762940248" flag="0"/>
      <vel value="0.0458650644" flag="0"/>
      <psa03 value="0.1964890150" flag="0"/>
      <psa10 value="0.0312254544" flag="0"/>
      <psa30 value="0.0022499569" flag="0"/>
    </comp>
    <comp name="--.HHE">
      <acc value="0.1080070686" flag="0"/>
      <vel value="0.0470245754" flag="0"/>
      <psa03 value="0.3568097979" flag="0"/>
      <psa10 value="0.0298888506" flag="0"/>
      <psa30 value="0.0034916678" flag="0"/>
    </comp>
  </station>
  <station code="GAZ" name="GAZ" netid="KO" insttype="CMG-3T" lat="37.1721" lon="37.2096">
    <comp name="--.HHN">
      <acc value="0.0437261644" flag="0"/>
      <vel value="0.0134070552" flag="0"/>
      <psa03 value="0.0546565083" flag="0"/>
      <psa10 value="0.0203270878" flag="0"/>
      <psa30 value="0.0025249508" flag="0"/>
    </comp>
  </station>
  <station code="KHMN" name="KHMN" netid="KO" insttype="CMG-5T" lat="37.3916" lon="37.1574">
    <comp name="--.HNZ">
      <acc value="0.0541249290" flag="0"/>
      <vel value="0.0147655167" flag="0"/>
      <psa03 value="0.0459442794" flag="0"/>
      <psa10 value="0.0174539753" flag="0"/>
      <psa30 value="0.0017407051" flag="0"/>
    </comp>
    <comp name="--.HNE">
      <acc value="0.1141596261" flag="0"/>
      <vel value="0.0336262623" flag="0"/>
      <psa03 value="0.1173926119" flag="0"/>
      <psa10 value="0.0185041140" flag="0"/>
      <psa30 value="0.0020834111" flag="0"/>
    </comp>
    <comp name="--.HNN">
      <acc value="0.0953931562" flag="0"/>
      <vel value="0.0208585064" flag="0"/>
      <psa03 value="0.1363180908" flag="0"/>
      <psa10 value="0.0175987749" flag="0"/>
      <psa30 value="0.0020890454" flag="0"/>
    </comp>
  </station>
  <station code="KMRS" name="KMRS" netid="KO" insttype="CMG-3T" lat="37.5053" lon="36.9">
    <comp name="--.HHN">
      <acc value="0.0311467438" flag="0"/>
      <vel value="0.0139212826" flag="0"/>
      <psa03 value="0.0513524629" flag="0"/>
      <psa10 value="0.0108325057" flag="0"/>
      <psa30 value="0.0013745379" flag="0"/>
    </comp>
    <comp name="--.HHZ">
      <acc value="0.0254438353" flag="0"/>
      <vel value="0.0113923744" flag="0"/>
      <psa03 value="0.0433818446" flag="0"/>
      <psa10 value="0.0151916493" flag="0"/>
      <psa30 value="0.0012271570" flag="0"/>
    </comp>
  </station>
  <station code="ANDN" name="ANDN" netid="TU" insttype="T" lat="37.58" lon="36.3452">
    <comp name="--.HHE">
      <acc value="0.1245243735" flag="0"/>
      <vel value="0.0431262921" flag="0"/>
      <psa03 value="0.1729273957" flag="0"/>
      <psa10 value="0.0536199365" flag="0"/>
      <psa30 value="0.0045933834" flag="0"/>
    </comp>
    <comp name="--.HHN">
      <acc value="0.1730636491" flag="0"/>
      <vel value="0.0607561044" flag="0"/>
      <psa03 value="0.3727377784" flag="0"/>
      <psa10 value="0.0618582232" flag="0"/>
      <psa30 value="0.0040987290" flag="0"/>
    </comp>
    <comp name="--.HHZ">
      <acc value="0.0706753976" flag="0"/>
      <vel value="0.0290365292" flag="0"/>
      <psa03 value="0.0855347233" flag="0"/>
      <psa10 value="0.0387143977" flag="0"/>
      <psa30 value="0.0025657806" flag="0"/>
    </comp>
  </station>
</stationlist>
