<?xml version="1.0" encoding="UTF-8" standalone="yes"?>
<!DOCTYPE earthquake SYSTEM "stationlist.dtd">
<stationlist created="" xmlns="ch.ethz.sed.shakemap.usgs.xml">
  <station code="APE" name="APE" netid="GE" insttype="STS-2/N" lat="37.0727" lon="25.523">
    <comp name="--.HHZ">
      <acc value="0.0471817006" flag="0"/>
      <vel value="0.0072738010" flag="0"/>
      <psa03 value="0.0369641648" flag="0"/>
      <psa10 value="0.0037263391" flag="0"/>
      <psa30 value="0.0003275784" flag="0"/>
    </comp>
    <comp name="--.HHE">
      <acc value="0.0983877642" flag="0"/>
      <vel value="0.0170119905" flag="0"/>
      <psa03 value="0.0576288781" flag="0"/>
      <psa10 value="0.0044380556" flag="0"/>
      <psa30 value="0.0003869963" flag="0"/>
    </comp>
    <comp name="--.HHN">
      <acc value="0.1029081316" flag="0"/>
      <vel value="0.0212697713" flag="0"/>
      <psa03 value="0.0517779553" flag="0"/>
      <psa10 value="0.0044802039" flag="0"/>
      <psa30 value="0.0003579697" flag="0"/>
    </comp>
  </station>
  <station code="THERA" name="THERA" netid="GE" insttype="STS-2/N" lat="36.367" lon="25.4753">
    <comp name="--.HHN">
      <acc value="0.0392932182" flag="0"/>
      <vel value="0.0122640192" flag="0"/>
      <psa03 value="0.1062499974" flag="0"/>
      <psa10 value="0.0045109266" flag="0"/>
      <psa30 value="0.0003054783" flag="0"/>
    </comp>
    <comp name="--.HHE">
      <acc value="0.0698122525" flag="0"/>
      <vel value="0.0171142935" flag="0"/>
      <psa03 value="0.1475300561" flag="0"/>
      <psa10 value="0.0057198328" flag="0"/>
      <psa30 value="0.0005522527" flag="0"/>
    </comp>
    <comp name="--.HHZ">
      <acc value="0.0494024507" flag="0"/>
      <vel value="0.0151006134" flag="0"/>
      <psa03 value="0.1003489794" flag="0"/>
      <psa10 value="0.0047534626" flag="0"/>
      <psa30 value="0.0004815527" flag="0"/>
    </comp>
  </station>
  <station code="SNT1" name="SNT1" netid="HA" insttype="30" lat="36.4159" lon="25.4282">
    <comp name="--.HHZ">
      <acc value="0.0447913625" flag="0"/>
      <vel value="0.0117344508" flag="0"/>
      <psa03 value="0.0805753425" flag="0"/>
      <psa10 value="0.0089547808" flag="0"/>
      <psa30 value="0.0004376704" flag="0"/>
    </comp>
    <comp name="--.HHE">
      <acc value="0.0754232505" flag="0"/>
      <vel value="0.0216947724" flag="0"/>
      <psa03 value="0.1153314042" flag="0"/>
      <psa10 value="0.0108804073" flag="0"/>
      <psa30 value="0.0012579161" flag="0"/>
    </comp>
    <comp name="--.HHN">
      <acc value="0.0609699685" flag="0"/>
      <vel value="0.0261291687" flag="0"/>
      <psa03 value="0.0839911960" flag="0"/>
      <psa10 value="0.0139930143" flag="0"/>
      <psa30 value="0.0007315936" flag="0"/>
    </comp>
  </station>
  <station code="NAX1" name="NAX1" netid="HI" insttype="CMG-5TD,ACCELEROMETER,GURALP" lat="37.1014" lon="25.3741">
    <comp name="--.HNE">
      <acc value="0.0959875217" flag="0"/>
      <vel value="0.0264666033" flag="0"/>
      <psa03 value="0.1350128997" flag="0"/>
      <psa10 value="0.0080896082" flag="0"/>
      <psa30 value="0.0007959393" flag="0"/>
    </comp>
    <comp name="--.HNN">
      <acc value="0.0862084445" flag="0"/>
      <vel value="0.0227448503" flag="0"/>
      <psa03 value="0.0559503978" flag="0"/>
      <psa10 value="0.0051949454" flag="0"/>
      <psa30 value="0.0003318776" flag="0"/>
    </comp>
    <comp name="--.HNZ">
      <acc value="0.0559037600" flag="0"/>
      <vel value="0.0106267402" flag="0"/>
      <psa03 value="0.0550849409" flag="0"/>
      <psa10 value="0.0056085382" flag="0"/>
      <psa30 value="0.0003515456" flag="0"/>
    </comp>
  </station>
  <station code="APE" name="APE" netid="HL" insttype="120" lat="37.0727" lon="25.523">
    <comp name="--.HHN">
      <acc value="0.0956633840" flag="0"/>
      <vel value="0.0205355364" flag="0"/>
      <psa03 value="0.0504650907" flag="0"/>
      <psa10 value="0.0043833321" flag="0"/>
      <psa30 value="0.0003558632" flag="0"/>
    </comp>
    <comp name="--.HHE">
      <acc value="0.0851673643" flag="0"/>
      <vel value="0.0158910483" flag="0"/>
      <psa03 value="0.0556947228" flag="0"/>
      <psa10 value="0.0043644289" flag="0"/>
      <psa30 value="0.0003826190" flag="0"/>
    </comp>
    <comp name="--.HHZ">
      <acc value="0.0426930352" flag="0"/>
      <vel value="0.0071583599" flag="0"/>
      <psa03 value="0.0360070085" flag="0"/>
      <psa10 value="0.0036578796" flag="0"/>
      <psa30 value="0.0003224392" flag="0"/>
    </comp>
  </station>
  <station code="MHLO" name="MHLO" netid="HL" insttype="20" lat="36.6898" lon="24.4017">
    <comp name="--.HHZ">
      <acc value="0.0127393424" flag="0"/>
      <vel value="0.0063795779" flag="0"/>
      <psa03 value="0.0280222722" flag="0"/>
      <psa10 value="0.0096097404" flag="0"/>
      <psa30 value="0.0005007258" flag="0"/>
    </comp>
    <comp name="--.HHN">
      <acc value="0.0374139279" flag="0"/>
      <vel value="0.0136783552" flag="0"/>
      <psa03 value="0.0538625553" flag="0"/>
      <psa10 value="0.0135926359" flag="0"/>
      <psa30 value="0.0006438227" flag="0"/>
    </comp>
    <comp name="--.HHE">
      <acc value="0.0300779660" flag="0"/>
      <vel value="0.0138940998" flag="0"/>
      <psa03 value="0.0922963795" flag="0"/>
      <psa10 value="0.0167264755" flag="0"/>
      <psa30 value="0.0008606087" flag="0"/>
    </comp>
  </station>
  <station code="SAP3" name="SAP3" netid="HL" insttype="LE3D20_SMART24" lat="36.4356" lon="25.3454">
    <comp name="--.HHE">
      <acc value="0.3114944500" flag="0"/>
      <vel value="0.1069541362" flag="0"/>
      <psa03 value="0.5524543125" flag="0"/>
      <psa10 value="0.0420270322" flag="0"/>
      <psa30 value="0.0041546933" flag="0"/>
    </comp>
    <comp name="--.HHZ">
      <acc value="0.2283916685" flag="0"/>
      <vel value="0.0611942375" flag="0"/>
      <psa03 value="0.3074306527" flag="0"/>
      <psa10 value="0.0168191891" flag="0"/>
      <psa30 value="0.0015229574" flag="0"/>
    </comp>
    <comp name="--.HHN">
      <acc value="0.2954564421" flag="0"/>
      <vel value="0.1082928966" flag="0"/>
      <psa03 value="0.5097089545" flag="0"/>
      <psa10 value="0.0438940506" flag="0"/>
      <psa30 value="0.0027298133" flag="0"/>
    </comp>
  </station>
  <station code="THERA" name="THERA" netid="HL" insttype="120" lat="36.367" lon="25.4753">
    <comp name="--.HHE">
      <acc value="0.0713377267" flag="0"/>
      <vel value="0.0166322588" flag="0"/>
      <psa03 value="0.1431603424" flag="0"/>
      <psa10 value="0.0056023525" flag="0"/>
      <psa30 value="0.0005523051" flag="0"/>
    </comp>
    <comp name="--.HHZ">
      <acc value="0.0475511487" flag="0"/>
      <vel value="0.0146108669" flag="0"/>
      <psa03 value="0.0973867780" flag="0"/>
      <psa10 value="0.0046876537" flag="0"/>
      <psa30 value="0.0004800146" flag="0"/>
    </comp>
    <comp name="--.HHN">
      <acc value="0.0387741196" flag="0"/>
      <vel value="0.0119571381" flag="0"/>
      <psa03 value="0.1027376556" flag="0"/>
      <psa10 value="0.0044619381" flag="0"/>
      <psa30 value="0.0003038617" flag="0"/>
    </comp>
  </station>
  <station code="THRA" name="THRA" netid="HL" insttype="CMG-5" lat="36.415" lon="25.4324">
    <comp name="00.HNE">
      <acc value="0.2281929240" flag="0"/>
      <vel value="0.0793287297" flag="0"/>
      <psa03 value="0.4922975491" flag="0"/>
      <psa10 value="0.0388150056" flag="0"/>
      <psa30 value="0.0027192594" flag="0"/>
    </comp>
    <comp name="00.HNN">
      <acc value="0.5014868289" flag="0"/>
      <vel value="0.1348568867" flag="0"/>
      <psa03 value="0.6120927461" flag="0"/>
      <psa10 value="0.0734698666" flag="0"/>
      <psa30 value="0.0036019438" flag="0"/>
    </comp>
    <comp name="00.HNZ">
      <acc value="0.1840007896" flag="0"/>
      <vel value="0.0557738743" flag="0"/>
      <psa03 value="0.4249986900" flag="0"/>
      <psa10 value="0.0189945366" flag="0"/>
      <psa30 value="0.0012606853" flag="0"/>
    </comp>
  </station>
</stationlist>
