<?xml version="1.0" encoding="UTF-8" standalone="yes"?>
<!DOCTYPE earthquake SYSTEM "stationlist.dtd">
<stationlist created="" xmlns="ch.ethz.sed.shakemap.usgs.xml">
  <station code="APE" name="APE" netid="GE" insttype="STS-2/N" lat="37.0727" lon="25.523">
    <comp name="--.HHZ">
      <acc value="0.0471817006" flag="0"/>
      <vel value="0.0072738010" flag="0"/>
      <psa03 value="0.0369641648" flag="0"/>
      <psa10 value="0.0037263391" flag="0"/>
      <psa30 value="0.0003275784" flag="0"/>
    </comp>
    <comp name="--.HHE">
      <acc value="0.0983877642" flag="0"/>
      <vel value="0.0170119905" flag="0"/>
      <psa03 value="0.0576288781" flag="0"/>
      <psa10 value="0.0044380556" flag="0"/>
      <psa30 value="0.0003869963" flag="0"/>
    </comp>
    <comp name="--.HHN">
      <acc value="0.1029081316" flag="0"/>
      <vel value="0.0212697713" flag="0"/>
      <psa03 value="0.0517779553" flag="0"/>
      <psa10 value="0.0044802039" flag="0"/>
      <psa30 value="0.0003579697" flag="0"/>
    </comp>
  </station>
  <station code="THERA" name="THERA" netid="GE" insttype="STS-2/N" lat="36.367" lon="25.4753">
    <comp name="--.HHN">
      <acc value="0.0392932182" flag="0"/>
      <vel value="0.0122640192" flag="0"/>
      <psa03 value="0.1062499974" flag="0"/>
      <psa10 value="0.0045109266" flag="0"/>
      <psa30 value="0.0003054783" flag="0"/>
    </comp>
    <comp name="--.HHE">
      <acc value="0.0698122525" flag="0"/>
      <vel value="0.0171142935" flag="0"/>
      <psa03 value="0.1475300561" flag="0"/>
      <psa10 value="0.0057198328" flag="0"/>
      <psa30 value="0.0005522527" flag="0"/>
    </comp>
    <comp name="--.HHZ">
      <acc value="0.0494024507" flag="0"/>
      <vel value="0.0151006134" flag="0"/>
      <psa03 value="0.1003489794" flag="0"/>
      <psa10 value="0.0047534626" flag="0"/>
      <psa30 value="0.0004815527" flag="0"/>
    </comp>
  </station>
</stationlist>
