<?xml version="1.0" encoding="UTF-8" standalone="yes"?>
<!DOCTYPE earthquake SYSTEM "stationlist.dtd">
<stationlist created="" xmlns="ch.ethz.sed.shakemap.usgs.xml">
  <station code="ARPRA" name="ARPRA" netid="KO" insttype="CMG-5T" lat="39.0929" lon="38.3356">
    <comp name="--.HNZ">
      <acc value="0.0481490019" flag="0"/>
      <vel value="0.0176058834" flag="0"/>
      <psa03 value="0.0899687123" flag="0"/>
      <psa10 value="0.0156406903" flag="0"/>
      <psa30 value="0.0008366620" flag="0"/>
    </comp>
    <comp name="--.HNN">
      <acc value="0.0973013866" flag="0"/>
      <vel value="0.0348070394" flag="0"/>
      <psa03 value="0.2522863960" flag="0"/>
      <psa10 value="0.0233079146" flag="0"/>
      <psa30 value="0.0011821172" flag="0"/>
    </comp>
    <comp name="--.HNE">
      <acc value="0.0916093292" flag="0"/>
      <vel value="0.0278582807" flag="0"/>
      <psa03 value="0.1894831298" flag="0"/>
      <psa10 value="0.0202017770" flag="0"/>
      <psa30 value="0.0015491874" flag="0"/>
    </comp>
  </station>
  <station code="DARE" name="DARE" netid="KO" insttype="CMG-3ESP" lat="38.5712" lon="37.4832">
    <comp name="--.HHN">
      <acc value="0.0312802121" flag="0"/>
      <vel value="0.0104553579" flag="0"/>
      <psa03 value="0.0455482814" flag="0"/>
      <psa10 value="0.0069344074" flag="0"/>
      <psa30 value="0.0006933954" flag="0"/>
    </comp>
    <comp name="--.HHZ">
      <acc value="0.0211618213" flag="0"/>
      <vel value="0.0086028315" flag="0"/>
      <psa03 value="0.0481614610" flag="0"/>
      <psa10 value="0.0088947957" flag="0"/>
      <psa30 value="0.0006180226" flag="0"/>
    </comp>
    <comp name="--.HHE">
      <acc value="0.0256761921" flag="0"/>
      <vel value="0.0098886844" flag="0"/>
      <psa03 value="0.0476517259" flag="0"/>
      <psa10 value="0.0070236357" flag="0"/>
      <psa30 value="0.0004853368" flag="0"/>
    </comp>
  </station>
  <station code="SVRC" name="SVRC" netid="KO" insttype="CMG-3T" lat="38.3775" lon="39.306">
    <comp name="--.HHE">
      <acc value="0.0441006957" flag="0"/>
      <vel value="0.0202659091" flag="0"/>
      <psa03 value="0.1658515918" flag="0"/>
      <psa10 value="0.0145238665" flag="0"/>
      <psa30 value="0.0008524423" flag="0"/>
    </comp>
    <comp name="--.HHN">
      <acc value="0.0274898082" flag="0"/>
      <vel value="0.0144919303" flag="0"/>
      <psa03 value="0.1176082526" flag="0"/>
      <psa10 value="0.0070775842" flag="0"/>
      <psa30 value="0.0010425712" flag="0"/>
    </comp>
    <comp name="--.HHZ">
      <acc value="0.0190566772" flag="0"/>
      <vel value="0.0070761625" flag="0"/>
      <psa03 value="0.0690213364" flag="0"/>
      <psa10 value="0.0070751747" flag="0"/>
      <psa30 value="0.0003801201" flag="0"/>
    </comp>
  </station>
  <station code="URFA" name="URFA" netid="KO" insttype="CMG-3ESP" lat="37.4409" lon="38.8213">
    <comp name="--.HHE">
      <acc value="0.0339315283" flag="0"/>
      <vel value="0.0131165125" flag="0"/>
      <psa03 value="0.0366376305" flag="0"/>
      <psa10 value="0.0117312027" flag="0"/>
      <psa30 value="0.0025518268" flag="0"/>
    </comp>
    <comp name="--.HHN">
      <acc value="0.0295661972" flag="0"/>
      <vel value="0.0098368035" flag="0"/>
      <psa03 value="0.0437145488" flag="0"/>
      <psa10 value="0.0078114524" flag="0"/>
      <psa30 value="0.0009957864" flag="0"/>
    </comp>
    <comp name="--.HHZ">
      <acc value="0.0253814073" flag="0"/>
      <vel value="0.0063789430" flag="0"/>
      <psa03 value="0.0336402006" flag="0"/>
      <psa10 value="0.0058714324" flag="0"/>
      <psa30 value="0.0007437009" flag="0"/>
    </comp>
  </station>
</stationlist>
