<?xml version="1.0" encoding="UTF-8" standalone="yes"?>
<!DOCTYPE earthquake SYSTEM "stationlist.dtd">
<stationlist created="" xmlns="ch.ethz.sed.shakemap.usgs.xml">
  <station code="BALB" name="BALB" netid="KO" insttype="CMG-5T" lat="39.6507" lon="27.8642">
    <comp name="--.HNE">
      <acc value="0.0795257434" flag="0"/>
      <vel value="0.0389759037" flag="0"/>
      <psa03 value="0.3122827326" flag="0"/>
      <psa10 value="0.0324430807" flag="0"/>
      <psa30 value="0.0029489647" flag="0"/>
    </comp>
    <comp name="--.HNZ">
      <acc value="0.0481327545" flag="0"/>
      <vel value="0.0226810398" flag="0"/>
      <psa03 value="0.1249646350" flag="0"/>
      <psa10 value="0.0322063352" flag="0"/>
      <psa30 value="0.0023145637" flag="0"/>
    </comp>
    <comp name="--.HNN">
      <acc value="0.0711663638" flag="0"/>
      <vel value="0.0500407802" flag="0"/>
      <psa03 value="0.2582867500" flag="0"/>
      <psa10 value="0.0554756635" flag="0"/>
      <psa30 value="0.0053991469" flag="0"/>
    </comp>
  </station>
  <station code="BIGA" name="BIGA" netid="KO" insttype="CMG-5T" lat="40.2813" lon="27.1505">
    <comp name="--.HNN">
      <acc value="0.1909412620" flag="0"/>
      <vel value="0.0643053851" flag="0"/>
      <psa03 value="0.2480431449" flag="0"/>
      <psa10 value="0.0539051254" flag="0"/>
      <psa30 value="0.0047330015" flag="0"/>
    </comp>
    <comp name="--.HNE">
      <acc value="0.1231665111" flag="0"/>
      <vel value="0.0359459803" flag="0"/>
      <psa03 value="0.2443485829" flag="0"/>
      <psa10 value="0.0396394353" flag="0"/>
      <psa30 value="0.0029753037" flag="0"/>
    </comp>
    <comp name="--.HNZ">
      <acc value="0.0962558602" flag="0"/>
      <vel value="0.0281714773" flag="0"/>
      <psa03 value="0.1414768744" flag="0"/>
      <psa10 value="0.0238565823" flag="0"/>
      <psa30 value="0.0021600768" flag="0"/>
    </comp>
  </station>
  <station code="BMYO" name="BMYO" netid="KO" insttype="CMG-5T" lat="39.8098" lon="26.6009">
    <comp name="--.HNE">
      <acc value="0.7951080976" flag="0"/>
      <vel value="0.6088097748" flag="0"/>
      <psa03 value="1.8187873729" flag="0"/>
      <psa10 value="0.6198813929" flag="0"/>
      <psa30 value="0.0408258521" flag="0"/>
    </comp>
    <comp name="--.HNZ">
      <acc value="0.5765019667" flag="0"/>
      <vel value="0.2563250528" flag="0"/>
      <psa03 value="1.1912695486" flag="0"/>
      <psa10 value="0.4770657424" flag="0"/>
      <psa30 value="0.0306760597" flag="0"/>
    </comp>
    <comp name="--.HNN">
      <acc value="1.0385228447" flag="0"/>
      <vel value="0.8920394197" flag="0"/>
      <psa03 value="2.8277020363" flag="0"/>
      <psa10 value="0.7451930816" flag="0"/>
      <psa30 value="0.0676149610" flag="0"/>
    </comp>
  </station>
  <station code="CANM" name="CANM" netid="KO" insttype="CMG-5T" lat="40.0113" lon="27.0529">
    <comp name="--.HNE">
      <acc value="0.1445489852" flag="0"/>
      <vel value="0.0623051771" flag="0"/>
      <psa03 value="0.3515661609" flag="0"/>
      <psa10 value="0.0756477085" flag="0"/>
      <psa30 value="0.0069702418" flag="0"/>
    </comp>
    <comp name="--.HNZ">
      <acc value="0.1492979262" flag="0"/>
      <vel value="0.0586481586" flag="0"/>
      <psa03 value="0.3703314916" flag="0"/>
      <psa10 value="0.0917718867" flag="0"/>
      <psa30 value="0.0041071208" flag="0"/>
    </comp>
    <comp name="--.HNN">
      <acc value="0.3471855175" flag="0"/>
      <vel value="0.1816277504" flag="0"/>
      <psa03 value="0.9273845425" flag="0"/>
      <psa10 value="0.2314060487" flag="0"/>
      <psa30 value="0.0109047456" flag="0"/>
    </comp>
  </station>
  <station code="DKL" name="DKL" netid="KO" insttype="CMG-3ESPC" lat="39.0713" lon="26.9053">
    <comp name="--.HHN">
      <acc value="0.0735839510" flag="0"/>
      <vel value="0.0559537523" flag="0"/>
      <psa03 value="0.1427825615" flag="0"/>
      <psa10 value="0.0751263492" flag="0"/>
      <psa30 value="0.0071339467" flag="0"/>
    </comp>
    <comp name="--.HHE">
      <acc value="0.0741910674" flag="0"/>
      <vel value="0.0483431042" flag="0"/>
      <psa03 value="0.1271249793" flag="0"/>
      <psa10 value="0.0469218497" flag="0"/>
      <psa30 value="0.0063627924" flag="0"/>
    </comp>
    <comp name="--.HHZ">
      <acc value="0.0630462536" flag="0"/>
      <vel value="0.0335967609" flag="0"/>
      <psa03 value="0.1633680492" flag="0"/>
      <psa10 value="0.0450873766" flag="0"/>
      <psa30 value="0.0034094717" flag="0"/>
    </comp>
  </station>
  <station code="EDC" name="EDC" netid="KO" insttype="CMG-3T" lat="40.3465" lon="27.8618">
    <comp name="--.HHE">
      <acc value="0.0978031113" flag="0"/>
      <vel value="0.0412829197" flag="0"/>
      <psa03 value="0.4717785049" flag="0"/>
      <psa10 value="0.0652706086" flag="0"/>
      <psa30 value="0.0049548749" flag="0"/>
    </comp>
    <comp name="--.HHZ">
      <acc value="0.0443247174" flag="0"/>
      <vel value="0.0231898886" flag="0"/>
      <psa03 value="0.0859272177" flag="0"/>
      <psa10 value="0.0373201043" flag="0"/>
      <psa30 value="0.0014708496" flag="0"/>
    </comp>
    <comp name="--.HHN">
      <acc value="0.1054360525" flag="0"/>
      <vel value="0.0766455582" flag="0"/>
      <psa03 value="0.3160872344" flag="0"/>
      <psa10 value="0.1233003650" flag="0"/>
      <psa30 value="0.0091992297" flag="0"/>
    </comp>
  </station>
  <station code="ENEZ" name="ENEZ" netid="KO" insttype="CMG-3T" lat="40.7362" lon="26.153">
    <comp name="--.HHE">
      <acc value="0.2633378720" flag="0"/>
      <vel value="0.0968671312" flag="0"/>
      <psa03 value="0.5185169598" flag="0"/>
      <psa10 value="0.0911218304" flag="0"/>
      <psa30 value="0.0053279706" flag="0"/>
    </comp>
    <comp name="--.HHN">
      <acc value="0.1664006391" flag="0"/>
      <vel value="0.0980798465" flag="0"/>
      <psa03 value="0.7033533947" flag="0"/>
      <psa10 value="0.0828353705" flag="0"/>
      <psa30 value="0.0048009578" flag="0"/>
    </comp>
  </station>
  <station code="ENZZ" name="ENZZ" netid="KO" insttype="CMG-5T" lat="40.607" lon="26.1406">
    <comp name="--.HNN">
      <acc value="0.6048329345" flag="0"/>
      <vel value="0.3402046959" flag="0"/>
      <psa03 value="1.0278495101" flag="0"/>
      <psa10 value="0.2510627946" flag="0"/>
      <psa30 value="0.0155851766" flag="0"/>
    </comp>
    <comp name="--.HNZ">
      <acc value="0.1930950494" flag="0"/>
      <vel value="0.1270739842" flag="0"/>
      <psa03 value="0.5964663069" flag="0"/>
      <psa10 value="0.0513785089" flag="0"/>
      <psa30 value="0.0047546083" flag="0"/>
    </comp>
  </station>
  <station code="EZNE" name="EZNE" netid="KO" insttype="CMG-5T" lat="39.756" lon="26.3655">
    <comp name="--.HNE">
      <acc value="3.7838537967" flag="0"/>
      <vel value="1.5533215688" flag="0"/>
      <psa03 value="8.5783780421" flag="0"/>
      <psa10 value="0.4433878639" flag="0"/>
      <psa30 value="0.0409141783" flag="0"/>
    </comp>
    <comp name="--.HNN">
      <acc value="8.7794387802" flag="0"/>
      <vel value="3.4186173075" flag="0"/>
      <psa03 value="15.5388145078" flag="0"/>
      <psa10 value="1.6966156043" flag="0"/>
      <psa30 value="0.1721149684" flag="0"/>
    </comp>
    <comp name="--.HNZ">
      <acc value="4.7370913568" flag="0"/>
      <vel value="0.8152827447" flag="0"/>
      <psa03 value="3.4995979061" flag="0"/>
      <psa10 value="0.2636893270" flag="0"/>
      <psa30 value="0.0337800785" flag="0"/>
    </comp>
  </station>
  <station code="GADA" name="GADA" netid="KO" insttype="CMG-3T" lat="40.1908" lon="25.8987">
    <comp name="--.HHN">
      <acc value="0.0812063382" flag="0"/>
      <vel value="0.0451340847" flag="0"/>
      <psa03 value="0.2763459367" flag="0"/>
      <psa10 value="0.0434034265" flag="0"/>
      <psa30 value="0.0032655092" flag="0"/>
    </comp>
    <comp name="--.HHZ">
      <acc value="0.0774537150" flag="0"/>
      <vel value="0.0378700045" flag="0"/>
      <psa03 value="0.2193746744" flag="0"/>
      <psa10 value="0.0334630725" flag="0"/>
      <psa30 value="0.0032760645" flag="0"/>
    </comp>
    <comp name="--.HHE">
      <acc value="0.0000805185" flag="0"/>
      <vel value="0.0000395498" flag="0"/>
      <psa03 value="0.0001163483" flag="0"/>
      <psa10 value="0.0000328530" flag="0"/>
      <psa30 value="0.0000034193" flag="0"/>
    </comp>
  </station>
  <station code="GAZK" name="GAZK" netid="KO" insttype="CMG-6T" lat="40.7479" lon="27.3275">
    <comp name="--.HHN">
      <acc value="0.2200825935" flag="0"/>
      <vel value="0.1209677933" flag="0"/>
      <psa03 value="0.8270644679" flag="0"/>
      <psa10 value="0.0897976987" flag="0"/>
      <psa30 value="0.0075499316" flag="0"/>
    </comp>
    <comp name="--.HHZ">
      <acc value="0.0968503725" flag="0"/>
      <vel value="0.0522392638" flag="0"/>
      <psa03 value="0.2640021838" flag="0"/>
      <psa10 value="0.0563329922" flag="0"/>
      <psa30 value="0.0043602278" flag="0"/>
    </comp>
    <comp name="--.HHE">
      <acc value="0.1988020044" flag="0"/>
      <vel value="0.0827978944" flag="0"/>
      <psa03 value="0.5148194438" flag="0"/>
      <psa10 value="0.0676366897" flag="0"/>
      <psa30 value="0.0112418270" flag="0"/>
    </comp>
  </station>
  <station code="GELI" name="GELI" netid="KO" insttype="CMG-3ESP" lat="40.398" lon="26.4742">
    <comp name="--.HHN">
      <acc value="0.0811058157" flag="0"/>
      <vel value="0.0469142600" flag="0"/>
      <psa03 value="0.2476362011" flag="0"/>
      <psa10 value="0.0396532494" flag="0"/>
      <psa30 value="0.0027896391" flag="0"/>
    </comp>
    <comp name="--.HHE">
      <acc value="0.1289891550" flag="0"/>
      <vel value="0.0407882695" flag="0"/>
      <psa03 value="0.2475912081" flag="0"/>
      <psa10 value="0.0400620399" flag="0"/>
      <psa30 value="0.0056348529" flag="0"/>
    </comp>
  </station>
  <station code="GONE" name="GONE" netid="KO" insttype="CMG-5T" lat="40.0466" lon="27.686">
    <comp name="--.HNZ">
      <acc value="0.0379367076" flag="0"/>
      <vel value="0.0278584681" flag="0"/>
      <psa03 value="0.0816237572" flag="0"/>
      <psa10 value="0.0357094861" flag="0"/>
      <psa30 value="0.0015850442" flag="0"/>
    </comp>
    <comp name="--.HNE">
      <acc value="0.0652203362" flag="0"/>
      <vel value="0.0403499855" flag="0"/>
      <psa03 value="0.1877720566" flag="0"/>
      <psa10 value="0.0819933087" flag="0"/>
      <psa30 value="0.0033041292" flag="0"/>
    </comp>
    <comp name="--.HNN">
      <acc value="0.0689111994" flag="0"/>
      <vel value="0.0419704394" flag="0"/>
      <psa03 value="0.1500116603" flag="0"/>
      <psa10 value="0.0684884180" flag="0"/>
      <psa30 value="0.0048356222" flag="0"/>
    </comp>
  </station>
  <station code="GPNR" name="GPNR" netid="KO" insttype="CMG-5T" lat="39.456" lon="26.1331">
    <comp name="--.HNZ">
      <acc value="0.4383387551" flag="0"/>
      <vel value="0.1617084503" flag="0"/>
      <psa03 value="1.0776620446" flag="0"/>
      <psa10 value="0.1172560289" flag="0"/>
      <psa30 value="0.0170954952" flag="0"/>
    </comp>
    <comp name="--.HNE">
      <acc value="0.7687305973" flag="0"/>
      <vel value="0.3431977434" flag="0"/>
      <psa03 value="1.7865777370" flag="0"/>
      <psa10 value="0.3389251825" flag="0"/>
      <psa30 value="0.0216704952" flag="0"/>
    </comp>
    <comp name="--.HNN">
      <acc value="1.0234146482" flag="0"/>
      <vel value="0.4960223498" flag="0"/>
      <psa03 value="2.6054532501" flag="0"/>
      <psa10 value="0.4121677169" flag="0"/>
      <psa30 value="0.0285001682" flag="0"/>
    </comp>
  </station>
  <station code="KRBG" name="KRBG" netid="KO" insttype="CMG-3ESP" lat="40.3932" lon="27.2977">
    <comp name="--.HHZ">
      <acc value="0.0742414003" flag="0"/>
      <vel value="0.0219681667" flag="0"/>
      <psa03 value="0.1150323425" flag="0"/>
      <psa10 value="0.0171611146" flag="0"/>
      <psa30 value="0.0012359888" flag="0"/>
    </comp>
    <comp name="--.HHN">
      <acc value="0.1747541380" flag="0"/>
      <vel value="0.0574585444" flag="0"/>
      <psa03 value="0.2129171006" flag="0"/>
      <psa10 value="0.0287332485" flag="0"/>
      <psa30 value="0.0020062508" flag="0"/>
    </comp>
  </station>
  <station code="KRBN" name="KRBN" netid="KO" insttype="CMG-5T" lat="38.5936" lon="26.5537">
    <comp name="--.HNZ">
      <acc value="0.0356843591" flag="0"/>
      <vel value="0.0274492828" flag="0"/>
      <psa03 value="0.1123893788" flag="0"/>
      <psa10 value="0.0371673986" flag="0"/>
      <psa30 value="0.0018914829" flag="0"/>
    </comp>
    <comp name="--.HNE">
      <acc value="0.0767363428" flag="0"/>
      <vel value="0.0343945457" flag="0"/>
      <psa03 value="0.2255884242" flag="0"/>
      <psa10 value="0.0798199552" flag="0"/>
      <psa30 value="0.0036236416" flag="0"/>
    </comp>
    <comp name="--.HNN">
      <acc value="0.0956353551" flag="0"/>
      <vel value="0.0720452583" flag="0"/>
      <psa03 value="0.1797842825" flag="0"/>
      <psa10 value="0.0766519182" flag="0"/>
      <psa30 value="0.0051937216" flag="0"/>
    </comp>
  </station>
  <station code="LAP" name="LAP" netid="KO" insttype="CMG-3ESP" lat="40.3703" lon="26.7593">
    <comp name="--.HHN">
      <acc value="0.1257816121" flag="0"/>
      <vel value="0.0577501900" flag="0"/>
      <psa03 value="0.2751067846" flag="0"/>
      <psa10 value="0.0692232951" flag="0"/>
      <psa30 value="0.0133432634" flag="0"/>
    </comp>
    <comp name="--.HHE">
      <acc value="0.1195924550" flag="0"/>
      <vel value="0.0559965556" flag="0"/>
      <psa03 value="0.2160326897" flag="0"/>
      <psa10 value="0.0684365686" flag="0"/>
      <psa30 value="0.0143847953" flag="0"/>
    </comp>
    <comp name="--.HHZ">
      <acc value="0.1296473443" flag="0"/>
      <vel value="0.0602407349" flag="0"/>
      <psa03 value="0.2400266244" flag="0"/>
      <psa10 value="0.0561399673" flag="0"/>
      <psa30 value="0.0069147513" flag="0"/>
    </comp>
  </station>
  <station code="LAPK" name="LAPK" netid="KO" insttype="CMG-5T" lat="40.3151" lon="26.6425">
    <comp name="--.HNE">
      <acc value="0.4394715667" flag="0"/>
      <vel value="0.1873830420" flag="0"/>
      <psa03 value="0.9528985354" flag="0"/>
      <psa10 value="0.2206351132" flag="0"/>
      <psa30 value="0.0323746147" flag="0"/>
    </comp>
    <comp name="--.HNN">
      <acc value="0.3934336686" flag="0"/>
      <vel value="0.2559805459" flag="0"/>
      <psa03 value="1.0368877673" flag="0"/>
      <psa10 value="0.2245031787" flag="0"/>
      <psa30 value="0.0261196739" flag="0"/>
    </comp>
    <comp name="--.HNZ">
      <acc value="0.3408524219" flag="0"/>
      <vel value="0.0846552102" flag="0"/>
      <psa03 value="0.4073628913" flag="0"/>
      <psa10 value="0.0833461882" flag="0"/>
      <psa30 value="0.0062903446" flag="0"/>
    </comp>
  </station>
  <station code="MRMT" name="MRMT" netid="KO" insttype="CMG-3T" lat="40.609" lon="27.5832">
    <comp name="--.HHE">
      <acc value="0.1050608611" flag="0"/>
      <vel value="0.0732650624" flag="0"/>
      <psa03 value="0.3705823059" flag="0"/>
      <psa10 value="0.0468856508" flag="0"/>
      <psa30 value="0.0033970928" flag="0"/>
    </comp>
    <comp name="--.HHZ">
      <acc value="0.0000284784" flag="0"/>
      <vel value="0.0000032009" flag="0"/>
      <psa03 value="0.0000121742" flag="0"/>
      <psa10 value="0.0000025184" flag="0"/>
      <psa30 value="0.0000004753" flag="0"/>
    </comp>
    <comp name="--.HHN">
      <acc value="0.1171485490" flag="0"/>
      <vel value="0.0449562990" flag="0"/>
      <psa03 value="0.3467751207" flag="0"/>
      <psa10 value="0.0284592980" flag="0"/>
      <psa30 value="0.0041552420" flag="0"/>
    </comp>
  </station>
  <station code="RKY" name="RKY" netid="KO" insttype="CMG-3ESP" lat="40.6874" lon="27.1776">
    <comp name="--.HHN">
      <acc value="0.1562542663" flag="0"/>
      <vel value="0.0627926280" flag="0"/>
      <psa03 value="0.4856199180" flag="0"/>
      <psa10 value="0.0701020520" flag="0"/>
      <psa30 value="0.0039157029" flag="0"/>
    </comp>
    <comp name="--.HHZ">
      <acc value="0.0696162732" flag="0"/>
      <vel value="0.0288364983" flag="0"/>
      <psa03 value="0.1809942199" flag="0"/>
      <psa10 value="0.0241171112" flag="0"/>
      <psa30 value="0.0020950778" flag="0"/>
    </comp>
    <comp name="--.HHE">
      <acc value="0.1344611061" flag="0"/>
      <vel value="0.0438313995" flag="0"/>
      <psa03 value="0.4589839186" flag="0"/>
      <psa10 value="0.0300972000" flag="0"/>
      <psa30 value="0.0051251329" flag="0"/>
    </comp>
  </station>
  <station code="SOMA" name="SOMA" netid="KO" insttype="CMG-5T" lat="39.1564" lon="27.5341">
    <comp name="--.HNE">
      <acc value="0.0504349312" flag="0"/>
      <vel value="0.0267075660" flag="0"/>
      <psa03 value="0.1697923115" flag="0"/>
      <psa10 value="0.0447115867" flag="0"/>
      <psa30 value="0.0021128375" flag="0"/>
    </comp>
    <comp name="--.HNZ">
      <acc value="0.0422155878" flag="0"/>
      <vel value="0.0228035072" flag="0"/>
      <psa03 value="0.1355768418" flag="0"/>
      <psa10 value="0.0164739197" flag="0"/>
      <psa30 value="0.0013979357" flag="0"/>
    </comp>
    <comp name="--.HNN">
      <acc value="0.0655938584" flag="0"/>
      <vel value="0.0347798178" flag="0"/>
      <psa03 value="0.1389551383" flag="0"/>
      <psa10 value="0.0294205175" flag="0"/>
      <psa30 value="0.0021047891" flag="0"/>
    </comp>
  </station>
  <station code="YAYO" name="YAYO" netid="KO" insttype="CMG-6T" lat="39.6113" lon="27.0726">
    <comp name="--.HHN">
      <acc value="0.1788961606" flag="0"/>
      <vel value="0.1109374380" flag="0"/>
      <psa03 value="0.5610601955" flag="0"/>
      <psa10 value="0.0923212483" flag="0"/>
      <psa30 value="0.0053883559" flag="0"/>
    </comp>
    <comp name="--.HHE">
      <acc value="0.1645376616" flag="0"/>
      <vel value="0.1061053355" flag="0"/>
      <psa03 value="0.4820957235" flag="0"/>
      <psa10 value="0.1020371397" flag="0"/>
      <psa30 value="0.0044625667" flag="0"/>
    </comp>
    <comp name="--.HHZ">
      <acc value="0.1361025525" flag="0"/>
      <vel value="0.0462507253" flag="0"/>
      <psa03 value="0.2281888799" flag="0"/>
      <psa10 value="0.0789461510" flag="0"/>
      <psa30 value="0.0029676508" flag="0"/>
    </comp>
  </station>
  <station code="YENI" name="YENI" netid="KO" insttype="CMG-5T" lat="39.9364" lon="27.2422">
    <comp name="--.HNN">
      <acc value="0.2209455573" flag="0"/>
      <vel value="0.1036680351" flag="0"/>
      <psa03 value="0.5485976010" flag="0"/>
      <psa10 value="0.0860422639" flag="0"/>
      <psa30 value="0.0048371746" flag="0"/>
    </comp>
    <comp name="--.HNE">
      <acc value="0.2819230947" flag="0"/>
      <vel value="0.1958591272" flag="0"/>
      <psa03 value="0.5976129038" flag="0"/>
      <psa10 value="0.1813856293" flag="0"/>
      <psa30 value="0.0089309930" flag="0"/>
    </comp>
    <comp name="--.HNZ">
      <acc value="0.1331655433" flag="0"/>
      <vel value="0.1002704533" flag="0"/>
      <psa03 value="0.3749580287" flag="0"/>
      <psa10 value="0.0583677052" flag="0"/>
      <psa30 value="0.0061683350" flag="0"/>
    </comp>
  </station>
</stationlist>
