<?xml version="1.0" encoding="UTF-8" standalone="yes"?>
<!DOCTYPE earthquake SYSTEM "stationlist.dtd">
<stationlist created="" xmlns="ch.ethz.sed.shakemap.usgs.xml">
  <station code="MYT1" name="MYT1" netid="HI" insttype="CMG-5TD,ACCELEROMETER,GURALP" lat="39.085" lon="26.5694">
    <comp name="--.HNN">
      <acc value="0.1691316999" flag="0"/>
      <vel value="0.0981634983" flag="0"/>
      <psa03 value="0.3753772656" flag="0"/>
      <psa10 value="0.1215954355" flag="0"/>
      <psa30 value="0.0077573352" flag="0"/>
    </comp>
    <comp name="--.HNZ">
      <acc value="0.1398739588" flag="0"/>
      <vel value="0.0754676397" flag="0"/>
      <psa03 value="0.3343587116" flag="0"/>
      <psa10 value="0.0945407981" flag="0"/>
      <psa30 value="0.0071705332" flag="0"/>
    </comp>
    <comp name="--.HNE">
      <acc value="0.1688953325" flag="0"/>
      <vel value="0.0870308320" flag="0"/>
      <psa03 value="0.3742095941" flag="0"/>
      <psa10 value="0.1048714779" flag="0"/>
      <psa30 value="0.0094739566" flag="0"/>
    </comp>
  </station>
  <station code="EFSA" name="EFSA" netid="HL" insttype="CMG-5" lat="39.5401" lon="24.9886">
    <comp name="00.HNE">
      <acc value="0.0688367071" flag="0"/>
      <vel value="0.0575170907" flag="0"/>
      <psa03 value="0.2310050562" flag="0"/>
      <psa10 value="0.0652920586" flag="0"/>
      <psa30 value="0.0077705448" flag="0"/>
    </comp>
    <comp name="00.HNN">
      <acc value="0.1062252161" flag="0"/>
      <vel value="0.0914814924" flag="0"/>
      <psa03 value="0.4117113299" flag="0"/>
      <psa10 value="0.0812929358" flag="0"/>
      <psa30 value="0.0055776087" flag="0"/>
    </comp>
    <comp name="00.HNZ">
      <acc value="0.0450613558" flag="0"/>
      <vel value="0.0342067069" flag="0"/>
      <psa03 value="0.1817742680" flag="0"/>
      <psa10 value="0.0446288556" flag="0"/>
      <psa30 value="0.0033344465" flag="0"/>
    </comp>
  </station>
  <station code="LIA" name="LIA" netid="HL" insttype="GMG5TD" lat="39.8972" lon="25.1806">
    <comp name="00.HNE">
      <acc value="0.1075461685" flag="0"/>
      <vel value="0.0447086815" flag="0"/>
      <psa03 value="0.2740811618" flag="0"/>
      <psa10 value="0.0459975729" flag="0"/>
      <psa30 value="0.0019840232" flag="0"/>
    </comp>
    <comp name="00.HNN">
      <acc value="0.0790444207" flag="0"/>
      <vel value="0.0514808981" flag="0"/>
      <psa03 value="0.2708020414" flag="0"/>
      <psa10 value="0.0477438385" flag="0"/>
      <psa30 value="0.0025264146" flag="0"/>
    </comp>
    <comp name="00.HNZ">
      <acc value="0.0762438744" flag="0"/>
      <vel value="0.0417266411" flag="0"/>
      <psa03 value="0.2078805508" flag="0"/>
      <psa10 value="0.0166038049" flag="0"/>
      <psa30 value="0.0015870564" flag="0"/>
    </comp>
  </station>
  <station code="PRK" name="PRK" netid="HL" insttype="120" lat="39.2456" lon="26.265">
    <comp name="--.HHN">
      <acc value="0.2399949613" flag="0"/>
      <vel value="0.1671153542" flag="0"/>
      <psa03 value="0.6472696977" flag="0"/>
      <psa10 value="0.3312522163" flag="0"/>
      <psa30 value="0.0121943186" flag="0"/>
    </comp>
    <comp name="--.HHE">
      <acc value="0.2640741586" flag="0"/>
      <vel value="0.1272244685" flag="0"/>
      <psa03 value="1.0274653833" flag="0"/>
      <psa10 value="0.2171323531" flag="0"/>
      <psa30 value="0.0115001305" flag="0"/>
    </comp>
    <comp name="--.HHZ">
      <acc value="0.2374046924" flag="0"/>
      <vel value="0.1328116869" flag="0"/>
      <psa03 value="0.5243592075" flag="0"/>
      <psa10 value="0.1538177440" flag="0"/>
      <psa30 value="0.0075150721" flag="0"/>
    </comp>
  </station>
  <station code="PSRA" name="PSRA" netid="HL" insttype="CMG-5" lat="38.5398" lon="25.562">
    <comp name="00.HNE">
      <acc value="0.1335032462" flag="0"/>
      <vel value="0.0615068514" flag="0"/>
      <psa03 value="0.4497127318" flag="0"/>
      <psa10 value="0.0380781514" flag="0"/>
      <psa30 value="0.0025825150" flag="0"/>
    </comp>
    <comp name="00.HNN">
      <acc value="0.1205964220" flag="0"/>
      <vel value="0.0449634495" flag="0"/>
      <psa03 value="0.3527910699" flag="0"/>
      <psa10 value="0.0278454183" flag="0"/>
      <psa30 value="0.0022742064" flag="0"/>
    </comp>
    <comp name="00.HNZ">
      <acc value="0.0497319857" flag="0"/>
      <vel value="0.0222027945" flag="0"/>
      <psa03 value="0.1025176689" flag="0"/>
      <psa10 value="0.0291462742" flag="0"/>
      <psa30 value="0.0015442758" flag="0"/>
    </comp>
  </station>
  <station code="CHOS" name="CHOS" netid="HT" insttype="100" lat="38.3869" lon="26.0506">
    <comp name="--.HHN">
      <acc value="0.0459750454" flag="0"/>
      <vel value="0.0248790716" flag="0"/>
      <psa03 value="0.1610310487" flag="0"/>
      <psa10 value="0.0318219651" flag="0"/>
      <psa30 value="0.0027680333" flag="0"/>
    </comp>
    <comp name="--.HHE">
      <acc value="0.0562437714" flag="0"/>
      <vel value="0.0332579454" flag="0"/>
      <psa03 value="0.2592615609" flag="0"/>
      <psa10 value="0.0354718796" flag="0"/>
      <psa30 value="0.0020949629" flag="0"/>
    </comp>
    <comp name="--.HHZ">
      <acc value="0.0173625154" flag="0"/>
      <vel value="0.0112872447" flag="0"/>
      <psa03 value="0.0594952931" flag="0"/>
      <psa10 value="0.0127890586" flag="0"/>
      <psa30 value="0.0022109084" flag="0"/>
    </comp>
  </station>
  <station code="LES3" name="LES3" netid="HT" insttype="" lat="39.3032" lon="26.1807">
    <comp name="--.HHZ">
      <acc value="0.3527305354" flag="0"/>
      <vel value="0.1879830924" flag="0"/>
      <psa03 value="0.8377045670" flag="0"/>
      <psa10 value="0.0838480814" flag="0"/>
      <psa30 value="0.0063379797" flag="0"/>
    </comp>
    <comp name="--.HHN">
      <acc value="0.4189177691" flag="0"/>
      <vel value="0.1487654416" flag="0"/>
      <psa03 value="0.9034802567" flag="0"/>
      <psa10 value="0.1584025659" flag="0"/>
      <psa30 value="0.0054959353" flag="0"/>
    </comp>
    <comp name="--.HHE">
      <acc value="0.4251872235" flag="0"/>
      <vel value="0.1787101476" flag="0"/>
      <psa03 value="1.2442657589" flag="0"/>
      <psa10 value="0.0897166004" flag="0"/>
      <psa30 value="0.0051187809" flag="0"/>
    </comp>
  </station>
  <station code="SIGR" name="SIGR" netid="HT" insttype="100" lat="39.2114" lon="25.8553">
    <comp name="--.HHN">
      <acc value="0.2473693463" flag="0"/>
      <vel value="0.1221256970" flag="0"/>
      <psa03 value="0.7662711862" flag="0"/>
      <psa10 value="0.1175480595" flag="0"/>
      <psa30 value="0.0064976000" flag="0"/>
    </comp>
    <comp name="--.HHE">
      <acc value="0.2013792207" flag="0"/>
      <vel value="0.0862635142" flag="0"/>
      <psa03 value="0.3882387794" flag="0"/>
      <psa10 value="0.0592060670" flag="0"/>
      <psa30 value="0.0045959277" flag="0"/>
    </comp>
    <comp name="--.HHZ">
      <acc value="0.1258383342" flag="0"/>
      <vel value="0.0504266925" flag="0"/>
      <psa03 value="0.2895171751" flag="0"/>
      <psa10 value="0.0306086434" flag="0"/>
      <psa30 value="0.0026561318" flag="0"/>
    </comp>
  </station>
  <station code="BALB" name="BALB" netid="KO" insttype="CMG-5T" lat="39.6507" lon="27.8642">
    <comp name="--.HNE">
      <acc value="0.0795257434" flag="0"/>
      <vel value="0.0389759001" flag="0"/>
      <psa03 value="0.3122827326" flag="0"/>
      <psa10 value="0.0324430806" flag="0"/>
      <psa30 value="0.0029487155" flag="0"/>
    </comp>
    <comp name="--.HNN">
      <acc value="0.0711663676" flag="0"/>
      <vel value="0.0500407840" flag="0"/>
      <psa03 value="0.2582867500" flag="0"/>
      <psa10 value="0.0554756635" flag="0"/>
      <psa30 value="0.0053985443" flag="0"/>
    </comp>
    <comp name="--.HNZ">
      <acc value="0.0481327522" flag="0"/>
      <vel value="0.0226810407" flag="0"/>
      <psa03 value="0.1249646350" flag="0"/>
      <psa10 value="0.0322063352" flag="0"/>
      <psa30 value="0.0023144000" flag="0"/>
    </comp>
  </station>
  <station code="BIGA" name="BIGA" netid="KO" insttype="CMG-5T" lat="40.2813" lon="27.1505">
    <comp name="--.HNE">
      <acc value="0.1231665142" flag="0"/>
      <vel value="0.0359459788" flag="0"/>
      <psa03 value="0.2443485829" flag="0"/>
      <psa10 value="0.0396394402" flag="0"/>
      <psa30 value="0.0029750295" flag="0"/>
    </comp>
    <comp name="--.HNN">
      <acc value="0.1909412594" flag="0"/>
      <vel value="0.0643053885" flag="0"/>
      <psa03 value="0.2480431449" flag="0"/>
      <psa10 value="0.0539051244" flag="0"/>
      <psa30 value="0.0047331313" flag="0"/>
    </comp>
    <comp name="--.HNZ">
      <acc value="0.0962558510" flag="0"/>
      <vel value="0.0281714837" flag="0"/>
      <psa03 value="0.1414768744" flag="0"/>
      <psa10 value="0.0238565823" flag="0"/>
      <psa30 value="0.0021605914" flag="0"/>
    </comp>
  </station>
  <station code="BMYO" name="BMYO" netid="KO" insttype="CMG-5T" lat="39.8098" lon="26.6009">
    <comp name="--.HNE">
      <acc value="0.7951080994" flag="0"/>
      <vel value="0.6088097659" flag="0"/>
      <psa03 value="1.8187873729" flag="0"/>
      <psa10 value="0.6198813973" flag="0"/>
      <psa30 value="0.0408296176" flag="0"/>
    </comp>
    <comp name="--.HNZ">
      <acc value="0.5765019624" flag="0"/>
      <vel value="0.2563250504" flag="0"/>
      <psa03 value="1.1912695486" flag="0"/>
      <psa10 value="0.4770657411" flag="0"/>
      <psa30 value="0.0306775242" flag="0"/>
    </comp>
    <comp name="--.HNN">
      <acc value="1.0385228465" flag="0"/>
      <vel value="0.8920394201" flag="0"/>
      <psa03 value="2.8277020363" flag="0"/>
      <psa10 value="0.7451930847" flag="0"/>
      <psa30 value="0.0676194397" flag="0"/>
    </comp>
  </station>
  <station code="CANM" name="CANM" netid="KO" insttype="CMG-5T" lat="40.0113" lon="27.0529">
    <comp name="--.HNE">
      <acc value="0.1445489844" flag="0"/>
      <vel value="0.0623051760" flag="0"/>
      <psa03 value="0.3515661609" flag="0"/>
      <psa10 value="0.0756477085" flag="0"/>
      <psa30 value="0.0069702583" flag="0"/>
    </comp>
    <comp name="--.HNN">
      <acc value="0.3471855160" flag="0"/>
      <vel value="0.1816277505" flag="0"/>
      <psa03 value="0.9273845425" flag="0"/>
      <psa10 value="0.2314060481" flag="0"/>
      <psa30 value="0.0109043415" flag="0"/>
    </comp>
    <comp name="--.HNZ">
      <acc value="0.1492979279" flag="0"/>
      <vel value="0.0586481589" flag="0"/>
      <psa03 value="0.3703314916" flag="0"/>
      <psa10 value="0.0917718870" flag="0"/>
      <psa30 value="0.0041071834" flag="0"/>
    </comp>
  </station>
  <station code="DKL" name="DKL" netid="KO" insttype="CMG-3ESPC" lat="39.0713" lon="26.9053">
    <comp name="--.HHN">
      <acc value="0.0735839510" flag="0"/>
      <vel value="0.0559537527" flag="0"/>
      <psa03 value="0.1427825615" flag="0"/>
      <psa10 value="0.0751263489" flag="0"/>
      <psa30 value="0.0071339605" flag="0"/>
    </comp>
    <comp name="--.HHE">
      <acc value="0.0741910677" flag="0"/>
      <vel value="0.0483431039" flag="0"/>
      <psa03 value="0.1271249793" flag="0"/>
      <psa10 value="0.0469218494" flag="0"/>
      <psa30 value="0.0063628391" flag="0"/>
    </comp>
    <comp name="--.HHZ">
      <acc value="0.0630462531" flag="0"/>
      <vel value="0.0335967610" flag="0"/>
      <psa03 value="0.1633680492" flag="0"/>
      <psa10 value="0.0450873767" flag="0"/>
      <psa30 value="0.0034094538" flag="0"/>
    </comp>
  </station>
  <station code="EDC" name="EDC" netid="KO" insttype="CMG-3T" lat="40.3465" lon="27.8618">
    <comp name="--.HHZ">
      <acc value="0.0443247174" flag="0"/>
      <vel value="0.0231898882" flag="0"/>
      <psa03 value="0.0859272177" flag="0"/>
      <psa10 value="0.0373201043" flag="0"/>
      <psa30 value="0.0014708503" flag="0"/>
    </comp>
    <comp name="--.HHE">
      <acc value="0.0978031116" flag="0"/>
      <vel value="0.0412829193" flag="0"/>
      <psa03 value="0.4717785049" flag="0"/>
      <psa10 value="0.0652706086" flag="0"/>
      <psa30 value="0.0049548638" flag="0"/>
    </comp>
    <comp name="--.HHN">
      <acc value="0.1054360528" flag="0"/>
      <vel value="0.0766455584" flag="0"/>
      <psa03 value="0.3160872344" flag="0"/>
      <psa10 value="0.1233003650" flag="0"/>
      <psa30 value="0.0091992213" flag="0"/>
    </comp>
  </station>
  <station code="ENEZ" name="ENEZ" netid="KO" insttype="CMG-3T" lat="40.7362" lon="26.153">
    <comp name="--.HHN">
      <acc value="0.1664006391" flag="0"/>
      <vel value="0.0980798466" flag="0"/>
      <psa03 value="0.7033533947" flag="0"/>
      <psa10 value="0.0828353705" flag="0"/>
      <psa30 value="0.0048009450" flag="0"/>
    </comp>
    <comp name="--.HHE">
      <acc value="0.2633378720" flag="0"/>
      <vel value="0.0968671312" flag="0"/>
      <psa03 value="0.5185169598" flag="0"/>
      <psa10 value="0.0911218304" flag="0"/>
      <psa30 value="0.0053279841" flag="0"/>
    </comp>
  </station>
  <station code="ENZZ" name="ENZZ" netid="KO" insttype="CMG-5T" lat="40.607" lon="26.1406">
    <comp name="--.HNZ">
      <acc value="0.1930950516" flag="0"/>
      <vel value="0.1270740088" flag="0"/>
      <psa03 value="0.5964663069" flag="0"/>
      <psa10 value="0.0513785707" flag="0"/>
      <psa30 value="0.0047361542" flag="0"/>
    </comp>
    <comp name="--.HNN">
      <acc value="0.6048329310" flag="0"/>
      <vel value="0.3402047125" flag="0"/>
      <psa03 value="1.0278495101" flag="0"/>
      <psa10 value="0.2510627937" flag="0"/>
      <psa30 value="0.0155839519" flag="0"/>
    </comp>
  </station>
  <station code="EZNE" name="EZNE" netid="KO" insttype="CMG-5T" lat="39.756" lon="26.3655">
    <comp name="--.HNZ">
      <acc value="4.7370913584" flag="0"/>
      <vel value="0.8152827355" flag="0"/>
      <psa03 value="3.4995979061" flag="0"/>
      <psa10 value="0.2636892906" flag="0"/>
      <psa30 value="0.0337810657" flag="0"/>
    </comp>
    <comp name="--.HNE">
      <acc value="3.7838537943" flag="0"/>
      <vel value="1.5533215732" flag="0"/>
      <psa03 value="8.5783780421" flag="0"/>
      <psa10 value="0.4433878395" flag="0"/>
      <psa30 value="0.0409105116" flag="0"/>
    </comp>
    <comp name="--.HNN">
      <acc value="8.7794387746" flag="0"/>
      <vel value="3.4186173076" flag="0"/>
      <psa03 value="15.5388145078" flag="0"/>
      <psa10 value="1.6966155940" flag="0"/>
      <psa30 value="0.1721162996" flag="0"/>
    </comp>
  </station>
  <station code="FOCM" name="FOCM" netid="KO" insttype="CMG-5T" lat="38.7131" lon="26.7309">
    <comp name="--.HNE">
      <acc value="0.0650012409" flag="0"/>
      <vel value="0.0590544316" flag="0"/>
      <psa03 value="0.1860227005" flag="0"/>
      <psa10 value="0.0605376387" flag="0"/>
      <psa30 value="0.0044985080" flag="0"/>
    </comp>
    <comp name="--.HNN">
      <acc value="0.0891445384" flag="0"/>
      <vel value="0.0538466113" flag="0"/>
      <psa03 value="0.2559394414" flag="0"/>
      <psa10 value="0.0361084182" flag="0"/>
      <psa30 value="0.0042483257" flag="0"/>
    </comp>
    <comp name="--.HNZ">
      <acc value="0.0408959828" flag="0"/>
      <vel value="0.0262955386" flag="0"/>
      <psa03 value="0.1263613914" flag="0"/>
      <psa10 value="0.0207562260" flag="0"/>
      <psa30 value="0.0021352307" flag="0"/>
    </comp>
  </station>
  <station code="GADA" name="GADA" netid="KO" insttype="CMG-3T" lat="40.1908" lon="25.8987">
    <comp name="--.HHE">
      <acc value="0.0000805185" flag="0"/>
      <vel value="0.0000395498" flag="0"/>
      <psa03 value="0.0001163483" flag="0"/>
      <psa10 value="0.0000328530" flag="0"/>
      <psa30 value="0.0000034181" flag="0"/>
    </comp>
    <comp name="--.HHN">
      <acc value="0.0812063382" flag="0"/>
      <vel value="0.0451340849" flag="0"/>
      <psa03 value="0.2763459367" flag="0"/>
      <psa10 value="0.0434034259" flag="0"/>
      <psa30 value="0.0032655104" flag="0"/>
    </comp>
    <comp name="--.HHZ">
      <acc value="0.0774537150" flag="0"/>
      <vel value="0.0378700047" flag="0"/>
      <psa03 value="0.2193746744" flag="0"/>
      <psa10 value="0.0334630726" flag="0"/>
      <psa30 value="0.0032760785" flag="0"/>
    </comp>
  </station>
  <station code="GAZK" name="GAZK" netid="KO" insttype="CMG-6T" lat="40.7479" lon="27.3275">
    <comp name="--.HHE">
      <acc value="0.1988020069" flag="0"/>
      <vel value="0.0827978958" flag="0"/>
      <psa03 value="0.5148194438" flag="0"/>
      <psa10 value="0.0676366897" flag="0"/>
      <psa30 value="0.0112418481" flag="0"/>
    </comp>
    <comp name="--.HHN">
      <acc value="0.2200825952" flag="0"/>
      <vel value="0.1209677904" flag="0"/>
      <psa03 value="0.8270644679" flag="0"/>
      <psa10 value="0.0897976987" flag="0"/>
      <psa30 value="0.0075499580" flag="0"/>
    </comp>
    <comp name="--.HHZ">
      <acc value="0.0968503722" flag="0"/>
      <vel value="0.0522392644" flag="0"/>
      <psa03 value="0.2640021838" flag="0"/>
      <psa10 value="0.0563329921" flag="0"/>
      <psa30 value="0.0043602003" flag="0"/>
    </comp>
  </station>
  <station code="GELI" name="GELI" netid="KO" insttype="CMG-3ESP" lat="40.398" lon="26.4742">
    <comp name="--.HHN">
      <acc value="0.0811058157" flag="0"/>
      <vel value="0.0469142604" flag="0"/>
      <psa03 value="0.2476362011" flag="0"/>
      <psa10 value="0.0396532498" flag="0"/>
      <psa30 value="0.0027896385" flag="0"/>
    </comp>
    <comp name="--.HHE">
      <acc value="0.1289891549" flag="0"/>
      <vel value="0.0407882695" flag="0"/>
      <psa03 value="0.2475912081" flag="0"/>
      <psa10 value="0.0400620399" flag="0"/>
      <psa30 value="0.0056348537" flag="0"/>
    </comp>
  </station>
  <station code="GONE" name="GONE" netid="KO" insttype="CMG-5T" lat="40.0466" lon="27.686">
    <comp name="--.HNZ">
      <acc value="0.0379367073" flag="0"/>
      <vel value="0.0278584670" flag="0"/>
      <psa03 value="0.0816237572" flag="0"/>
      <psa10 value="0.0357094859" flag="0"/>
      <psa30 value="0.0015850699" flag="0"/>
    </comp>
    <comp name="--.HNE">
      <acc value="0.0652203369" flag="0"/>
      <vel value="0.0403499832" flag="0"/>
      <psa03 value="0.1877720566" flag="0"/>
      <psa10 value="0.0819933088" flag="0"/>
      <psa30 value="0.0033041206" flag="0"/>
    </comp>
    <comp name="--.HNN">
      <acc value="0.0689111990" flag="0"/>
      <vel value="0.0419704374" flag="0"/>
      <psa03 value="0.1500116603" flag="0"/>
      <psa10 value="0.0684884179" flag="0"/>
      <psa30 value="0.0048355257" flag="0"/>
    </comp>
  </station>
  <station code="GPNR" name="GPNR" netid="KO" insttype="CMG-5T" lat="39.456" lon="26.1331">
    <comp name="--.HNE">
      <acc value="0.7687305433" flag="0"/>
      <vel value="0.3431977431" flag="0"/>
      <psa03 value="1.7865777370" flag="0"/>
      <psa10 value="0.3389251729" flag="0"/>
      <psa30 value="0.0216738359" flag="0"/>
    </comp>
    <comp name="--.HNN">
      <acc value="1.0234146009" flag="0"/>
      <vel value="0.4960223456" flag="0"/>
      <psa03 value="2.6054532501" flag="0"/>
      <psa10 value="0.4121677214" flag="0"/>
      <psa30 value="0.0284988058" flag="0"/>
    </comp>
    <comp name="--.HNZ">
      <acc value="0.4383385946" flag="0"/>
      <vel value="0.1617084365" flag="0"/>
      <psa03 value="1.0776620446" flag="0"/>
      <psa10 value="0.1172560303" flag="0"/>
      <psa30 value="0.0170880237" flag="0"/>
    </comp>
  </station>
  <station code="KRBG" name="KRBG" netid="KO" insttype="CMG-3ESP" lat="40.3932" lon="27.2977">
    <comp name="--.HHZ">
      <acc value="0.0742414003" flag="0"/>
      <vel value="0.0219681668" flag="0"/>
      <psa03 value="0.1150323425" flag="0"/>
      <psa10 value="0.0171611146" flag="0"/>
      <psa30 value="0.0012359649" flag="0"/>
    </comp>
