<?xml version="1.0" encoding="UTF-8" standalone="yes"?>
<!DOCTYPE earthquake SYSTEM "stationlist.dtd">
<stationlist created="" xmlns="ch.ethz.sed.shakemap.usgs.xml">
  <station code="MYT1" name="MYT1" netid="HI" insttype="CMG-5TD,ACCELEROMETER,GURALP" lat="39.085" lon="26.5694">
    <comp name="--.HNE">
      <acc value="0.1688953330" flag="0"/>
      <vel value="0.0870308315" flag="0"/>
      <psa03 value="0.3742095941" flag="0"/>
      <psa10 value="0.1048714778" flag="0"/>
      <psa30 value="0.0094739199" flag="0"/>
    </comp>
    <comp name="--.HNN">
      <acc value="0.1691316994" flag="0"/>
      <vel value="0.0981634981" flag="0"/>
      <psa03 value="0.3753772656" flag="0"/>
      <psa10 value="0.1215954361" flag="0"/>
      <psa30 value="0.0077574371" flag="0"/>
    </comp>
    <comp name="--.HNZ">
      <acc value="0.1398739588" flag="0"/>
      <vel value="0.0754676400" flag="0"/>
      <psa03 value="0.3343587116" flag="0"/>
      <psa10 value="0.0945407977" flag="0"/>
      <psa30 value="0.0071705310" flag="0"/>
    </comp>
  </station>
  <station code="EFSA" name="EFSA" netid="HL" insttype="CMG-5" lat="39.5401" lon="24.9886">
    <comp name="00.HNE">
      <acc value="0.0688367100" flag="0"/>
      <vel value="0.0575170924" flag="0"/>
      <psa03 value="0.2310050562" flag="0"/>
      <psa10 value="0.0652920587" flag="0"/>
      <psa30 value="0.0077703699" flag="0"/>
    </comp>
    <comp name="00.HNN">
      <acc value="0.1062252169" flag="0"/>
      <vel value="0.0914814903" flag="0"/>
      <psa03 value="0.4117113299" flag="0"/>
      <psa10 value="0.0812929359" flag="0"/>
      <psa30 value="0.0055776382" flag="0"/>
    </comp>
    <comp name="00.HNZ">
      <acc value="0.0450613563" flag="0"/>
      <vel value="0.0342067063" flag="0"/>
      <psa03 value="0.1817742680" flag="0"/>
      <psa10 value="0.0446288558" flag="0"/>
      <psa30 value="0.0033345283" flag="0"/>
    </comp>
  </station>
  <station code="LIA" name="LIA" netid="HL" insttype="GMG5TD" lat="39.8972" lon="25.1806">
    <comp name="00.HNE">
      <acc value="0.1075461721" flag="0"/>
      <vel value="0.0447086825" flag="0"/>
      <psa03 value="0.2740811618" flag="0"/>
      <psa10 value="0.0459975731" flag="0"/>
      <psa30 value="0.0019844303" flag="0"/>
    </comp>
    <comp name="00.HNZ">
      <acc value="0.0762438699" flag="0"/>
      <vel value="0.0417266435" flag="0"/>
      <psa03 value="0.2078805508" flag="0"/>
      <psa10 value="0.0166038049" flag="0"/>
      <psa30 value="0.0015871008" flag="0"/>
    </comp>
    <comp name="00.HNN">
      <acc value="0.0790444202" flag="0"/>
      <vel value="0.0514808969" flag="0"/>
      <psa03 value="0.2708020414" flag="0"/>
      <psa10 value="0.0477438385" flag="0"/>
      <psa30 value="0.0025261551" flag="0"/>
    </comp>
  </station>
  <station code="PRK" name="PRK" netid="HL" insttype="120" lat="39.2456" lon="26.265">
    <comp name="--.HHE">
      <acc value="0.2640741587" flag="0"/>
      <vel value="0.1272244684" flag="0"/>
      <psa03 value="1.0274653833" flag="0"/>
      <psa10 value="0.2171323531" flag="0"/>
      <psa30 value="0.0115001035" flag="0"/>
    </comp>
    <comp name="--.HHN">
      <acc value="0.2399949613" flag="0"/>
      <vel value="0.1671153544" flag="0"/>
      <psa03 value="0.6472696977" flag="0"/>
      <psa10 value="0.3312522164" flag="0"/>
      <psa30 value="0.0121943259" flag="0"/>
    </comp>
    <comp name="--.HHZ">
      <acc value="0.2374046925" flag="0"/>
      <vel value="0.1328116870" flag="0"/>
      <psa03 value="0.5243592075" flag="0"/>
      <psa10 value="0.1538177440" flag="0"/>
      <psa30 value="0.0075150851" flag="0"/>
    </comp>
  </station>
  <station code="PSRA" name="PSRA" netid="HL" insttype="CMG-5" lat="38.5398" lon="25.562">
    <comp name="00.HNE">
      <acc value="0.1335032461" flag="0"/>
      <vel value="0.0615068522" flag="0"/>
      <psa03 value="0.4497127318" flag="0"/>
      <psa10 value="0.0380781514" flag="0"/>
      <psa30 value="0.0025823488" flag="0"/>
    </comp>
    <comp name="00.HNZ">
      <acc value="0.0497319866" flag="0"/>
      <vel value="0.0222027970" flag="0"/>
      <psa03 value="0.1025176689" flag="0"/>
      <psa10 value="0.0291462742" flag="0"/>
      <psa30 value="0.0015443841" flag="0"/>
    </comp>
    <comp name="00.HNN">
      <acc value="0.1205964204" flag="0"/>
      <vel value="0.0449634509" flag="0"/>
      <psa03 value="0.3527910699" flag="0"/>
      <psa10 value="0.0278454184" flag="0"/>
      <psa30 value="0.0022741074" flag="0"/>
    </comp>
  </station>
  <station code="CHOS" name="CHOS" netid="HT" insttype="100" lat="38.3869" lon="26.0506">
    <comp name="--.HHE">
      <acc value="0.0562437714" flag="0"/>
      <vel value="0.0332579457" flag="0"/>
      <psa03 value="0.2592615609" flag="0"/>
      <psa10 value="0.0354718796" flag="0"/>
      <psa30 value="0.0020949637" flag="0"/>
    </comp>
    <comp name="--.HHN">
      <acc value="0.0459750454" flag="0"/>
      <vel value="0.0248790717" flag="0"/>
      <psa03 value="0.1610310487" flag="0"/>
      <psa10 value="0.0318219651" flag="0"/>
      <psa30 value="0.0027680515" flag="0"/>
    </comp>
    <comp name="--.HHZ">
      <acc value="0.0173625157" flag="0"/>
      <vel value="0.0112872445" flag="0"/>
      <psa03 value="0.0594952931" flag="0"/>
      <psa10 value="0.0127890534" flag="0"/>
      <psa30 value="0.0022109007" flag="0"/>
    </comp>
  </station>
  <station code="LES3" name="LES3" netid="HT" insttype="" lat="39.3032" lon="26.1807">
    <comp name="--.HHE">
      <acc value="0.4251872225" flag="0"/>
      <vel value="0.1787101599" flag="0"/>
      <psa03 value="1.2442657589" flag="0"/>
      <psa10 value="0.0897166008" flag="0"/>
      <psa30 value="0.0051187868" flag="0"/>
    </comp>
    <comp name="--.HHN">
      <acc value="0.4189177698" flag="0"/>
      <vel value="0.1487656801" flag="0"/>
      <psa03 value="0.9034802565" flag="0"/>
      <psa10 value="0.1584025659" flag="0"/>
      <psa30 value="0.0054959499" flag="0"/>
    </comp>
    <comp name="--.HHZ">
      <acc value="0.3527305360" flag="0"/>
      <vel value="0.1879830895" flag="0"/>
      <psa03 value="0.8377045669" flag="0"/>
      <psa10 value="0.0838480775" flag="0"/>
      <psa30 value="0.0063379467" flag="0"/>
    </comp>
  </station>
  <station code="SIGR" name="SIGR" netid="HT" insttype="100" lat="39.2114" lon="25.8553">
    <comp name="--.HHE">
      <acc value="0.2013792207" flag="0"/>
      <vel value="0.0862635141" flag="0"/>
      <psa03 value="0.3882387794" flag="0"/>
      <psa10 value="0.0592060669" flag="0"/>
      <psa30 value="0.0045959513" flag="0"/>
    </comp>
    <comp name="--.HHN">
      <acc value="0.2473693462" flag="0"/>
      <vel value="0.1221256968" flag="0"/>
      <psa03 value="0.7662711862" flag="0"/>
      <psa10 value="0.1175480594" flag="0"/>
      <psa30 value="0.0064975961" flag="0"/>
    </comp>
    <comp name="--.HHZ">
      <acc value="0.1258383342" flag="0"/>
      <vel value="0.0504266925" flag="0"/>
      <psa03 value="0.2895171751" flag="0"/>
      <psa10 value="0.0306086434" flag="0"/>
      <psa30 value="0.0026561408" flag="0"/>
    </comp>
  </station>
  <station code="BALB" name="BALB" netid="KO" insttype="CMG-5T" lat="39.6507" lon="27.8642">
    <comp name="--.HNE">
      <acc value="0.0795257430" flag="0"/>
      <vel value="0.0389759008" flag="0"/>
      <psa03 value="0.3122827325" flag="0"/>
      <psa10 value="0.0324430806" flag="0"/>
      <psa30 value="0.0029487315" flag="0"/>
    </comp>
    <comp name="--.HNZ">
      <acc value="0.0481327533" flag="0"/>
      <vel value="0.0226810403" flag="0"/>
      <psa03 value="0.1249646350" flag="0"/>
      <psa10 value="0.0322063352" flag="0"/>
      <psa30 value="0.0023144631" flag="0"/>
    </comp>
    <comp name="--.HNN">
      <acc value="0.0711663668" flag="0"/>
      <vel value="0.0500407825" flag="0"/>
      <psa03 value="0.2582867500" flag="0"/>
      <psa10 value="0.0554756635" flag="0"/>
      <psa30 value="0.0053986571" flag="0"/>
    </comp>
  </station>
  <station code="BIGA" name="BIGA" netid="KO" insttype="CMG-5T" lat="40.2813" lon="27.1505">
    <comp name="--.HNZ">
      <acc value="0.0962558558" flag="0"/>
      <vel value="0.0281714838" flag="0"/>
      <psa03 value="0.1414768744" flag="0"/>
      <psa10 value="0.0238565823" flag="0"/>
      <psa30 value="0.0021597665" flag="0"/>
    </comp>
    <comp name="--.HNN">
      <acc value="0.1909412585" flag="0"/>
      <vel value="0.0643053843" flag="0"/>
      <psa03 value="0.2480431449" flag="0"/>
      <psa10 value="0.0539051250" flag="0"/>
      <psa30 value="0.0047331226" flag="0"/>
    </comp>
    <comp name="--.HNE">
      <acc value="0.1231665136" flag="0"/>
      <vel value="0.0359459773" flag="0"/>
      <psa03 value="0.2443485829" flag="0"/>
      <psa10 value="0.0396394356" flag="0"/>
      <psa30 value="0.0029752701" flag="0"/>
    </comp>
  </station>
  <station code="BMYO" name="BMYO" netid="KO" insttype="CMG-5T" lat="39.8098" lon="26.6009">
    <comp name="--.HNZ">
      <acc value="0.5765019632" flag="0"/>
      <vel value="0.2563250437" flag="0"/>
      <psa03 value="1.1912695486" flag="0"/>
      <psa10 value="0.4770657407" flag="0"/>
      <psa30 value="0.0306774525" flag="0"/>
    </comp>
    <comp name="--.HNN">
      <acc value="1.0385228442" flag="0"/>
      <vel value="0.8920394239" flag="0"/>
      <psa03 value="2.8277020363" flag="0"/>
      <psa10 value="0.7451930877" flag="0"/>
      <psa30 value="0.0676161047" flag="0"/>
    </comp>
    <comp name="--.HNE">
      <acc value="0.7951080986" flag="0"/>
      <vel value="0.6088097732" flag="0"/>
      <psa03 value="1.8187873729" flag="0"/>
      <psa10 value="0.6198813938" flag="0"/>
      <psa30 value="0.0408269660" flag="0"/>
    </comp>
  </station>
  <station code="CANM" name="CANM" netid="KO" insttype="CMG-5T" lat="40.0113" lon="27.0529">
    <comp name="--.HNE">
      <acc value="0.1445489850" flag="0"/>
      <vel value="0.0623051759" flag="0"/>
      <psa03 value="0.3515661609" flag="0"/>
      <psa10 value="0.0756477085" flag="0"/>
      <psa30 value="0.0069702435" flag="0"/>
    </comp>
    <comp name="--.HNN">
      <acc value="0.3471855166" flag="0"/>
      <vel value="0.1816277501" flag="0"/>
      <psa03 value="0.9273845425" flag="0"/>
      <psa10 value="0.2314060483" flag="0"/>
      <psa30 value="0.0109045833" flag="0"/>
    </comp>
    <comp name="--.HNZ">
      <acc value="0.1492979271" flag="0"/>
      <vel value="0.0586481579" flag="0"/>
      <psa03 value="0.3703314916" flag="0"/>
      <psa10 value="0.0917718868" flag="0"/>
      <psa30 value="0.0041072508" flag="0"/>
    </comp>
  </station>
  <station code="DKL" name="DKL" netid="KO" insttype="CMG-3ESPC" lat="39.0713" lon="26.9053">
    <comp name="--.HHN">
      <acc value="0.0735839511" flag="0"/>
      <vel value="0.0559537524" flag="0"/>
      <psa03 value="0.1427825615" flag="0"/>
      <psa10 value="0.0751263492" flag="0"/>
      <psa30 value="0.0071339250" flag="0"/>
    </comp>
    <comp name="--.HHZ">
      <acc value="0.0630462533" flag="0"/>
      <vel value="0.0335967612" flag="0"/>
      <psa03 value="0.1633680492" flag="0"/>
      <psa10 value="0.0450873766" flag="0"/>
      <psa30 value="0.0034094671" flag="0"/>
    </comp>
    <comp name="--.HHE">
      <acc value="0.0741910676" flag="0"/>
      <vel value="0.0483431038" flag="0"/>
      <psa03 value="0.1271249793" flag="0"/>
      <psa10 value="0.0469218497" flag="0"/>
      <psa30 value="0.0063628325" flag="0"/>
    </comp>
  </station>
  <station code="EDC" name="EDC" netid="KO" insttype="CMG-3T" lat="40.3465" lon="27.8618">
    <comp name="--.HHZ">
      <acc value="0.0443247174" flag="0"/>
      <vel value="0.0231898884" flag="0"/>
      <psa03 value="0.0859272177" flag="0"/>
      <psa10 value="0.0373201043" flag="0"/>
      <psa30 value="0.0014708483" flag="0"/>
    </comp>
    <comp name="--.HHN">
      <acc value="0.1054360525" flag="0"/>
      <vel value="0.0766455589" flag="0"/>
      <psa03 value="0.3160872344" flag="0"/>
      <psa10 value="0.1233003650" flag="0"/>
      <psa30 value="0.0091992196" flag="0"/>
    </comp>
    <comp name="--.HHE">
      <acc value="0.0978031120" flag="0"/>
      <vel value="0.0412829193" flag="0"/>
      <psa03 value="0.4717785049" flag="0"/>
      <psa10 value="0.0652706086" flag="0"/>
      <psa30 value="0.0049548677" flag="0"/>
    </comp>
  </station>
  <station code="ENEZ" name="ENEZ" netid="KO" insttype="CMG-3T" lat="40.7362" lon="26.153">
    <comp name="--.HHN">
      <acc value="0.1664006391" flag="0"/>
      <vel value="0.0980798464" flag="0"/>
      <psa03 value="0.7033533947" flag="0"/>
      <psa10 value="0.0828353705" flag="0"/>
      <psa30 value="0.0048009560" flag="0"/>
    </comp>
    <comp name="--.HHE">
      <acc value="0.2633378720" flag="0"/>
      <vel value="0.0968671312" flag="0"/>
      <psa03 value="0.5185169598" flag="0"/>
      <psa10 value="0.0911218304" flag="0"/>
      <psa30 value="0.0053279727" flag="0"/>
    </comp>
  </station>
  <station code="ENZZ" name="ENZZ" netid="KO" insttype="CMG-5T" lat="40.607" lon="26.1406">
    <comp name="--.HNN">
      <acc value="0.6048329336" flag="0"/>
      <vel value="0.3402046975" flag="0"/>
      <psa03 value="1.0278495101" flag="0"/>
      <psa10 value="0.2510627945" flag="0"/>
      <psa30 value="0.0155849141" flag="0"/>
    </comp>
    <comp name="--.HNZ">
      <acc value="0.1930950487" flag="0"/>
      <vel value="0.1270739839" flag="0"/>
      <psa03 value="0.5964663069" flag="0"/>
      <psa10 value="0.0513785089" flag="0"/>
      <psa30 value="0.0047544058" flag="0"/>
    </comp>
  </station>
  <station code="EZNE" name="EZNE" netid="KO" insttype="CMG-5T" lat="39.756" lon="26.3655">
    <comp name="--.HNE">
      <acc value="3.7838538000" flag="0"/>
      <vel value="1.5533215675" flag="0"/>
      <psa03 value="8.5783780421" flag="0"/>
      <psa10 value="0.4433878785" flag="0"/>
      <psa30 value="0.0409154239" flag="0"/>
    </comp>
    <comp name="--.HNN">
      <acc value="8.7794387830" flag="0"/>
      <vel value="3.4186173083" flag="0"/>
      <psa03 value="15.5388145078" flag="0"/>
      <psa10 value="1.6966155946" flag="0"/>
      <psa30 value="0.1721159420" flag="0"/>
    </comp>
    <comp name="--.HNZ">
      <acc value="4.7370913534" flag="0"/>
      <vel value="0.8152827484" flag="0"/>
      <psa03 value="3.4995979061" flag="0"/>
      <psa10 value="0.2636893431" flag="0"/>
      <psa30 value="0.0337782744" flag="0"/>
    </comp>
  </station>
  <station code="FOCM" name="FOCM" netid="KO" insttype="CMG-5T" lat="38.7131" lon="26.7309">
    <comp name="--.HNE">
      <acc value="0.0650012322" flag="0"/>
      <vel value="0.0590544322" flag="0"/>
      <psa03 value="0.1860227005" flag="0"/>
      <psa10 value="0.0605376389" flag="0"/>
      <psa30 value="0.0045011737" flag="0"/>
    </comp>
    <comp name="--.HNN">
      <acc value="0.0891445389" flag="0"/>
      <vel value="0.0538466131" flag="0"/>
      <psa03 value="0.2559394414" flag="0"/>
      <psa10 value="0.0361084183" flag="0"/>
      <psa30 value="0.0042476413" flag="0"/>
    </comp>
    <comp name="--.HNZ">
      <acc value="0.0408959844" flag="0"/>
      <vel value="0.0262955352" flag="0"/>
      <psa03 value="0.1263613914" flag="0"/>
      <psa10 value="0.0207562972" flag="0"/>
      <psa30 value="0.0021351406" flag="0"/>
    </comp>
  </station>
  <station code="GADA" name="GADA" netid="KO" insttype="CMG-3T" lat="40.1908" lon="25.8987">
    <comp name="--.HHE">
      <acc value="0.0000805184" flag="0"/>
      <vel value="0.0000395498" flag="0"/>
      <psa03 value="0.0001163483" flag="0"/>
      <psa10 value="0.0000328530" flag="0"/>
      <psa30 value="0.0000034193" flag="0"/>
    </comp>
    <comp name="--.HHZ">
      <acc value="0.0774537150" flag="0"/>
      <vel value="0.0378700045" flag="0"/>
      <psa03 value="0.2193746744" flag="0"/>
      <psa10 value="0.0334630725" flag="0"/>
      <psa30 value="0.0032760605" flag="0"/>
    </comp>
    <comp name="--.HHN">
      <acc value="0.0812063382" flag="0"/>
      <vel value="0.0451340847" flag="0"/>
      <psa03 value="0.2763459367" flag="0"/>
      <psa10 value="0.0434034266" flag="0"/>
      <psa30 value="0.0032655129" flag="0"/>
    </comp>
  </station>
  <station code="GAZK" name="GAZK" netid="KO" insttype="CMG-6T" lat="40.7479" lon="27.3275">
    <comp name="--.HHE">
      <acc value="0.1988020046" flag="0"/>
      <vel value="0.0827978926" flag="0"/>
      <psa03 value="0.5148194438" flag="0"/>
      <psa10 value="0.0676366897" flag="0"/>
      <psa30 value="0.0112418326" flag="0"/>
    </comp>
    <comp name="--.HHN">
      <acc value="0.2200825950" flag="0"/>
      <vel value="0.1209677938" flag="0"/>
      <psa03 value="0.8270644679" flag="0"/>
      <psa10 value="0.0897976987" flag="0"/>
      <psa30 value="0.0075499559" flag="0"/>
    </comp>
    <comp name="--.HHZ">
      <acc value="0.0968503742" flag="0"/>
      <vel value="0.0522392658" flag="0"/>
      <psa03 value="0.2640021838" flag="0"/>
      <psa10 value="0.0563329922" flag="0"/>
      <psa30 value="0.0043602027" flag="0"/>
    </comp>
  </station>
  <station code="GELI" name="GELI" netid="KO" insttype="CMG-3ESP" lat="40.398" lon="26.4742">
    <comp name="--.HHE">
      <acc value="0.1289891549" flag="0"/>
      <vel value="0.0407882695" flag="0"/>
      <psa03 value="0.2475912081" flag="0"/>
      <psa10 value="0.0400620399" flag="0"/>
      <psa30 value="0.0056348532" flag="0"/>
    </comp>
    <comp name="--.HHN">
      <acc value="0.0811058157" flag="0"/>
      <vel value="0.0469142599" flag="0"/>
      <psa03 value="0.2476362011" flag="0"/>
      <psa10 value="0.0396532494" flag="0"/>
      <psa30 value="0.0027896391" flag="0"/>
    </comp>
    <comp name="--.HHZ">
      <acc value="0.2188019329" flag="0"/>
      <vel value="0.0955120931" flag="0"/>
      <psa03 value="0.4272078480" flag="0"/>
      <psa10 value="0.0377445974" flag="0"/>
      <psa30 value="0.0048503702" flag="0"/>
    </comp>
  </station>
  <station code="GONE" name="GONE" netid="KO" insttype="CMG-5T" lat="40.0466" lon="27.686">
    <comp name="--.HNN">
      <acc value="0.0689111992" flag="0"/>
      <vel value="0.0419704383" flag="0"/>
      <psa03 value="0.1500116603" flag="0"/>
      <psa10 value="0.0684884179" flag="0"/>
      <psa30 value="0.0048355630" flag="0"/>
    </comp>
    <comp name="--.HNE">
      <acc value="0.0652203363" flag="0"/>
      <vel value="0.0403499844" flag="0"/>
      <psa03 value="0.1877720566" flag="0"/>
      <psa10 value="0.0819933088" flag="0"/>
      <psa30 value="0.0033039786" flag="0"/>
    </comp>
    <comp name="--.HNZ">
      <acc value="0.0379367076" flag="0"/>
      <vel value="0.0278584675" flag="0"/>
      <psa03 value="0.0816237572" flag="0"/>
      <psa10 value="0.0357094860" flag="0"/>
      <psa30 value="0.0015850625" flag="0"/>
    </comp>
  </station>
  <station code="GPNR" name="GPNR" netid="KO" insttype="CMG-5T" lat="39.456" lon="26.1331">
    <comp name="--.HNE">
      <acc value="0.7687305946" flag="0"/>
      <vel value="0.3431977436" flag="0"/>
      <psa03 value="1.7865777370" flag="0"/>
      <psa10 value="0.3389251805" flag="0"/>
      <psa30 value="0.0216708693" flag="0"/>
    </comp>
    <comp name="--.HNN">
      <acc value="1.0234146489" flag="0"/>
      <vel value="0.4960223504" flag="0"/>
      <psa03 value="2.6054532501" flag="0"/>
      <psa10 value="0.4121677177" flag="0"/>
      <psa30 value="0.0284999064" flag="0"/>
    </comp>
    <comp name="--.HNZ">
      <acc value="0.4383387474" flag="0"/>
      <vel value="0.1617084484" flag="0"/>
      <psa03 value="1.0776620446" flag="0"/>
      <psa10 value="0.1172560298" flag="0"/>
      <psa30 value="0.0170941614" flag="0"/>
    </comp>
  </station>
  <station code="KRBG" name="KRBG" netid="KO" insttype="CMG-3ESP" lat="40.3932" lon="27.2977">
