<stationlist created="1721718090">
	<station code="KRL1" name="KRL1" netid="HI" source="ITSAK Strong Motion Network" insttype="" lat="37.7951" lon="26.7065">
		<comp name=".HNE" depth="0.0">
			<acc value="0.016512464775528" flag="0"/>
			<vel value="0.0133074298424" flag="0"/>
			<psa03 value="0.0389495541751623" flag="0"/>
			<psa10 value="0.0139537621807713" flag="0"/>
			<psa30 value="0.00363753346873978" flag="0"/>
		</comp>
		<comp name=".HNN" depth="0.0">
			<acc value="0.01451615306526" flag="0"/>
			<vel value="0.011770512293" flag="0"/>
			<psa03 value="0.0444935047680011" flag="0"/>
			<psa10 value="0.0274880534486316" flag="0"/>
			<psa30 value="0.00203373618337429" flag="0"/>
		</comp>
		<comp name=".HNZ" depth="0.0">
			<acc value="0.009292023785004" flag="0"/>
			<vel value="0.00708970172169" flag="0"/>
			<psa03 value="0.0201760357821026" flag="0"/>
			<psa10 value="0.0118905798800418" flag="0"/>
			<psa30 value="0.00125975397335092" flag="0"/>
		</comp>
	</station>
	<station code="MYT1" name="MYT1" netid="HI" source="ITSAK Strong Motion Network" insttype="" lat="39.085" lon="26.5694">
		<comp name=".HNE" depth="0.0">
			<acc value="0.16893649332732" flag="0"/>
			<vel value="0.0872909754415" flag="0"/>
			<psa03 value="0.378898933528299" flag="0"/>
			<psa10 value="0.104987139882569" flag="0"/>
			<psa30 value="0.0103446894515738" flag="0"/>
		</comp>
		<comp name=".HNN" depth="0.0">
			<acc value="0.16835936344104" flag="0"/>
			<vel value="0.0991043973656" flag="0"/>
			<psa03 value="0.374400843884911" flag="0"/>
			<psa10 value="0.121684641010129" flag="0"/>
			<psa30 value="0.00859482603171229" flag="0"/>
		</comp>
		<comp name=".HNZ" depth="0.0">
			<acc value="0.13883545659888" flag="0"/>
			<vel value="0.0773483644444" flag="0"/>
			<psa03 value="0.336842855852678" flag="0"/>
			<psa10 value="0.0947416711708927" flag="0"/>
			<psa30 value="0.00771006742080971" flag="0"/>
		</comp>
	</station>
	<station code="SKY1" name="SKY1" netid="HI" source="ITSAK Strong Motion Network" insttype="" lat="38.904483" lon="24.564572">
		<comp name=".HNE" depth="0.0">
			<acc value="0.042570255173046" flag="0"/>
			<vel value="0.0286810604777" flag="0"/>
			<psa03 value="0.138456380389034" flag="0"/>
			<psa10 value="0.0313513718745166" flag="0"/>
			<psa30 value="0.00232776066105313" flag="0"/>
		</comp>
		<comp name=".HNN" depth="0.0">
			<acc value="0.040931262768474" flag="0"/>
			<vel value="0.0334398198008" flag="0"/>
			<psa03 value="0.095143677801633" flag="0"/>
			<psa10 value="0.0290687287856027" flag="0"/>
			<psa30 value="0.00267599310474232" flag="0"/>
		</comp>
		<comp name=".HNZ" depth="0.0">
			<acc value="0.022283885232528" flag="0"/>
			<vel value="0.0168081198047" flag="0"/>
			<psa03 value="0.0725670363768596" flag="0"/>
			<psa10 value="0.0113319288096677" flag="0"/>
			<psa30 value="0.00117197065813887" flag="0"/>
		</comp>
	</station>
	<station code="EFSA" name="EFSA" netid="HL" source="National Observatory of Athens Seismic Network" insttype="" lat="39.54015" lon="24.98864">
		<comp name="00.HNE" depth="0.0">
			<acc value="0.068620025571378" flag="0"/>
			<vel value="0.0593138828868" flag="0"/>
			<psa03 value="0.230765078720701" flag="0"/>
			<psa10 value="0.0654208113077336" flag="0"/>
			<psa30 value="0.00828684979644822" flag="0"/>
		</comp>
		<comp name="00.HNN" depth="0.0">
			<acc value="0.1060584393165" flag="0"/>
			<vel value="0.0918985237283" flag="0"/>
			<psa03 value="0.412466240530874" flag="0"/>
			<psa10 value="0.0812625807471708" flag="0"/>
			<psa30 value="0.00556834637562717" flag="0"/>
		</comp>
		<comp name="00.HNZ" depth="0.0">
			<acc value="0.044457529502658" flag="0"/>
			<vel value="0.0341932238513" flag="0"/>
			<psa03 value="0.182189423321855" flag="0"/>
			<psa10 value="0.0447091942645557" flag="0"/>
			<psa30 value="0.00343125459544285" flag="0"/>
		</comp>
	</station>
	<station code="KVLA" name="KVLA" netid="HL" source="National Observatory of Athens Seismic Network" insttype="" lat="40.93704" lon="24.38591">
		<comp name="00.HNE" depth="0.0">
			<acc value="0.011318668553214" flag="0"/>
			<vel value="0.00511103223697" flag="0"/>
			<psa03 value="0.0392152749028563" flag="0"/>
			<psa10 value="0.00408994687638885" flag="0"/>
			<psa30 value="0.000407431313241715" flag="0"/>
		</comp>
		<comp name="00.HNN" depth="0.0">
			<acc value="0.011399657573214" flag="0"/>
			<vel value="0.00874126410823" flag="0"/>
			<psa03 value="0.0385102776794141" flag="0"/>
			<psa10 value="0.0070623319073185" flag="0"/>
			<psa30 value="0.00131348930388495" flag="0"/>
		</comp>
		<comp name="00.HNZ" depth="0.0">
			<acc value="0.0080078578688682" flag="0"/>
			<vel value="0.00400450901718" flag="0"/>
			<psa03 value="0.0219619574760703" flag="0"/>
			<psa10 value="0.00450792190896302" flag="0"/>
			<psa30 value="0.000768586956778961" flag="0"/>
		</comp>
	</station>
	<station code="LIA" name="LIA" netid="HL" source="National Observatory of Athens Seismic Network" insttype="" lat="39.89725" lon="25.18055">
		<comp name="00.HNE" depth="0.0">
			<acc value="0.10577745791322" flag="0"/>
			<vel value="0.0447983464286" flag="0"/>
			<psa03 value="0.274793807907976" flag="0"/>
			<psa10 value="0.0460269490596527" flag="0"/>
			<psa30 value="0.00197233482416829" flag="0"/>
		</comp>
		<comp name="00.HNN" depth="0.0">
			<acc value="0.078599303428932" flag="0"/>
			<vel value="0.0514182710121" flag="0"/>
			<psa03 value="0.270104330586327" flag="0"/>
			<psa10 value="0.0477548872769915" flag="0"/>
			<psa30 value="0.00271206820287563" flag="0"/>
		</comp>
		<comp name="00.HNZ" depth="0.0">
			<acc value="0.07654215953454" flag="0"/>
			<vel value="0.0418430287325" flag="0"/>
			<psa03 value="0.208043323516011" flag="0"/>
			<psa10 value="0.016611952335335" flag="0"/>
			<psa30 value="0.001775988483853" flag="0"/>
		</comp>
	</station>
	<station code="PRK" name="PRK" netid="HL" source="National Observatory of Athens Seismic Network" insttype="" lat="39.24565" lon="26.26499">
		<comp name=".HNE" depth="0.0">
			<acc value="0.25921427189424" flag="0"/>
			<vel value="0.126237047396" flag="0"/>
			<psa03 value="0.97201797475456" flag="0"/>
			<psa10 value="0.190865248885971" flag="0"/>
			<psa30 value="0.0112437898458945" flag="0"/>
		</comp>
		<comp name=".HNN" depth="0.0">
			<acc value="0.24515125108926" flag="0"/>
			<vel value="0.159433249077" flag="0"/>
			<psa03 value="0.632194504785154" flag="0"/>
			<psa10 value="0.344214002488225" flag="0"/>
			<psa30 value="0.0133098800475437" flag="0"/>
		</comp>
		<comp name=".HNZ" depth="0.0">
			<acc value="0.17298806718702" flag="0"/>
			<vel value="0.0978413364253" flag="0"/>
			<psa03 value="0.388593367403324" flag="0"/>
			<psa10 value="0.112262989372025" flag="0"/>
			<psa30 value="0.00613764533886751" flag="0"/>
		</comp>
	</station>
	<station code="PSRA" name="PSRA" netid="HL" source="National Observatory of Athens Seismic Network" insttype="" lat="38.53978" lon="25.56202">
		<comp name="00.HNE" depth="0.0">
			<acc value="0.13359163202418" flag="0"/>
			<vel value="0.0617815352356" flag="0"/>
			<psa03 value="0.45264523552693" flag="0"/>
			<psa10 value="0.0381041217110578" flag="0"/>
			<psa30 value="0.0026161868512062" flag="0"/>
		</comp>
		<comp name="00.HNN" depth="0.0">
			<acc value="0.12069334693542" flag="0"/>
			<vel value="0.0453038977635" flag="0"/>
			<psa03 value="0.355761984152073" flag="0"/>
			<psa10 value="0.0278340982474165" flag="0"/>
			<psa30 value="0.00236880567174875" flag="0"/>
		</comp>
		<comp name="00.HNZ" depth="0.0">
			<acc value="0.049506447777096" flag="0"/>
			<vel value="0.0219237371256" flag="0"/>
			<psa03 value="0.102738441334325" flag="0"/>
			<psa10 value="0.0291651420475101" flag="0"/>
			<psa30 value="0.00172634144498147" flag="0"/>
		</comp>
	</station>
	<station code="BIGA" name="BIGA" netid="KO" source="Bogazici University Kandilli Observatory And Earthquake Research Institute (KOERI)" insttype="" lat="40.28134" lon="27.15048">
		<comp name=".HNE" depth="0.0">
			<acc value="0.12133599257022" flag="0"/>
			<vel value="0.0365341510222" flag="0"/>
			<psa03 value="0.243432688721048" flag="0"/>
			<psa10 value="0.0397113956850562" flag="0"/>
			<psa30 value="0.0034165515381065" flag="0"/>
		</comp>
		<comp name=".HNN" depth="0.0">
			<acc value="0.18913373925732" flag="0"/>
			<vel value="0.0644071419898" flag="0"/>
			<psa03 value="0.255683687789677" flag="0"/>
			<psa10 value="0.054042118775296" flag="0"/>
			<psa30 value="0.00565103643678268" flag="0"/>
		</comp>
		<comp name=".HNZ" depth="0.0">
			<acc value="0.091379925792126" flag="0"/>
			<vel value="0.0286256255916" flag="0"/>
			<psa03 value="0.144153830733979" flag="0"/>
			<psa10 value="0.0238996788614505" flag="0"/>
			<psa30 value="0.00245645543644938" flag="0"/>
		</comp>
	</station>
	<station code="BOTS" name="BOTS" netid="KO" source="Bogazici University Kandilli Observatory And Earthquake Research Institute (KOERI)" insttype="" lat="40.9902" lon="27.981">
		<comp name=".HNE" depth="0.0">
			<acc value="0.045026404662048" flag="0"/>
			<vel value="0.0323174199027" flag="0"/>
			<psa03 value="0.126913574068172" flag="0"/>
			<psa10 value="0.0256720443969609" flag="0"/>
			<psa30 value="0.00282254114616343" flag="0"/>
		</comp>
		<comp name=".HNN" depth="0.0">
			<acc value="0.039539005457922" flag="0"/>
			<vel value="0.0250241655247" flag="0"/>
			<psa03 value="0.125054909274117" flag="0"/>
			<psa10 value="0.020733349732661" flag="0"/>
			<psa30 value="0.00323359754330311" flag="0"/>
		</comp>
		<comp name=".HNZ" depth="0.0">
			<acc value="0.01417795635369" flag="0"/>
			<vel value="0.0076272746826" flag="0"/>
			<psa03 value="0.0374524758343803" flag="0"/>
			<psa10 value="0.0096837124359271" flag="0"/>
			<psa30 value="0.00128451467612678" flag="0"/>
		</comp>
	</station>
	<station code="CANM" name="CANM" netid="KO" source="Bogazici University Kandilli Observatory And Earthquake Research Institute (KOERI)" insttype="" lat="40.0113" lon="27.0529">
		<comp name=".HNE" depth="0.0">
			<acc value="0.14480328103632" flag="0"/>
			<vel value="0.0619736286746" flag="0"/>
			<psa03 value="0.354289761624723" flag="0"/>
			<psa10 value="0.0757316093473595" flag="0"/>
			<psa30 value="0.0075640227460406" flag="0"/>
		</comp>
		<comp name=".HNN" depth="0.0">
			<acc value="0.34445080088526" flag="0"/>
			<vel value="0.181124687841" flag="0"/>
			<psa03 value="0.942242335597833" flag="0"/>
			<psa10 value="0.231624568991" flag="0"/>
			<psa30 value="0.0116200422707896" flag="0"/>
		</comp>
		<comp name=".HNZ" depth="0.0">
			<acc value="0.15079434258132" flag="0"/>
			<vel value="0.0593812977493" flag="0"/>
			<psa03 value="0.369881252817541" flag="0"/>
			<psa10 value="0.0919883437762665" flag="0"/>
			<psa30 value="0.00440344712342893" flag="0"/>
		</comp>
	</station>
	<station code="CESE" name="CESE" netid="KO" source="Bogazici University Kandilli Observatory And Earthquake Research Institute (KOERI)" insttype="" lat="38.3306" lon="26.2997">
		<comp name=".HNE" depth="0.0">
			<acc value="0.023111830151934" flag="0"/>
			<vel value="0.0131896710314" flag="0"/>
			<psa03 value="0.0604662816362651" flag="0"/>
			<psa10 value="0.0147810651105347" flag="0"/>
			<psa30 value="0.0026181680241154" flag="0"/>
		</comp>
		<comp name=".HNN" depth="0.0">
			<acc value="0.020832188377002" flag="0"/>
			<vel value="0.0164531813798" flag="0"/>
			<psa03 value="0.0668611688076508" flag="0"/>
			<psa10 value="0.0244075375045753" flag="0"/>
			<psa30 value="0.00237665410833901" flag="0"/>
		</comp>
		<comp name=".HNZ" depth="0.0">
			<acc value="0.015294260666244" flag="0"/>
			<vel value="0.0123734431687" flag="0"/>
			<psa03 value="0.0408986728780184" flag="0"/>
			<psa10 value="0.0119445018896165" flag="0"/>
			<psa30 value="0.00211608163835869" flag="0"/>
		</comp>
	</station>
	<station code="EDC" name="EDC" netid="KO" source="Bogazici University Kandilli Observatory And Earthquake Research Institute (KOERI)" insttype="" lat="40.3465" lon="27.8618">
		<comp name=".HNE" depth="0.0">
			<acc value="0.09949860833817" flag="0"/>
			<vel value="0.0409000643573" flag="0"/>
			<psa03 value="0.461233096096525" flag="0"/>
			<psa10 value="0.062865272015658" flag="0"/>
			<psa30 value="0.00434002292188554" flag="0"/>
		</comp>
		<comp name=".HNN" depth="0.0">
			<acc value="0.10995747412542" flag="0"/>
			<vel value="0.0783779920065" flag="0"/>
			<psa03 value="0.334162969990114" flag="0"/>
			<psa10 value="0.124268457175358" flag="0"/>
			<psa30 value="0.00974200952697725" flag="0"/>
		</comp>
		<comp name=".HNZ" depth="0.0">
			<acc value="0.042528086725338" flag="0"/>
			<vel value="0.0238164302661" flag="0"/>
			<psa03 value="0.0863432406491853" flag="0"/>
			<psa10 value="0.0373224236774006" flag="0"/>
			<psa30 value="0.0016474753871576" flag="0"/>
		</comp>
	</station>
	<station code="EZNE" name="EZNE" netid="KO" source="Bogazici University Kandilli Observatory And Earthquake Research Institute (KOERI)" insttype="" lat="39.756" lon="26.3655">
		<comp name=".HNE" depth="0.0">
			<acc value="3.811063239231" flag="0"/>
			<vel value="1.5616538992" flag="0"/>
			<psa03 value="8.65761685795245" flag="0"/>
			<psa10 value="0.444877780969594" flag="0"/>
			<psa30 value="0.0411332915453399" flag="0"/>
		</comp>
		<comp name=".HNN" depth="0.0">
			<acc value="8.7082676373504" flag="0"/>
			<vel value="3.43780051392" flag="0"/>
			<psa03 value="15.5919875593229" flag="0"/>
			<psa10 value="1.70337448020111" flag="0"/>
			<psa30 value="0.171251891263828" flag="0"/>
		</comp>
		<comp name=".HNZ" depth="0.0">
			<acc value="4.0344521659752" flag="0"/>
			<vel value="0.830247759055" flag="0"/>
			<psa03 value="3.5877203355312" flag="0"/>
			<psa10 value="0.264649301717326" flag="0"/>
			<psa30 value="0.0336102465138772" flag="0"/>
		</comp>
	</station>
	<station code="FOCM" name="FOCM" netid="KO" source="Bogazici University Kandilli Observatory And Earthquake Research Institute (KOERI)" insttype="" lat="38.7131" lon="26.7309">
		<comp name=".HNE" depth="0.0">
			<acc value="0.064986262158276" flag="0"/>
			<vel value="0.0599723890984" flag="0"/>
			<psa03 value="0.187156085672035" flag="0"/>
			<psa10 value="0.0606207970802648" flag="0"/>
			<psa30 value="0.00480234771528678" flag="0"/>
		</comp>
		<comp name=".HNN" depth="0.0">
			<acc value="0.088880011461066" flag="0"/>
			<vel value="0.0531500295761" flag="0"/>
			<psa03 value="0.252732804807949" flag="0"/>
			<psa10 value="0.0360252802480271" flag="0"/>
			<psa30 value="0.00463369820978239" flag="0"/>
		</comp>
		<comp name=".HNZ" depth="0.0">
			<acc value="0.040528416678432" flag="0"/>
			<vel value="0.0260611581346" flag="0"/>
			<psa03 value="0.126367464974559" flag="0"/>
			<psa10 value="0.020766753195468" flag="0"/>
			<psa30 value="0.00239269787949383" flag="0"/>
		</comp>
	</station>
	<station code="GMLD" name="GMLD" netid="KO" source="Bogazici University Kandilli Observatory And Earthquake Research Institute (KOERI)" insttype="" lat="38.0766" lon="26.9157">
		<comp name=".HNE" depth="0.0">
			<acc value="0.073838145906276" flag="0"/>
			<vel value="0.0497819255232" flag="0"/>
			<psa03 value="0.207704926098773" flag="0"/>
			<psa10 value="0.0510522557114479" flag="0"/>
			<psa30 value="0.00454884592202966" flag="0"/>
		</comp>
		<comp name=".HNN" depth="0.0">
			<acc value="0.045538014663504" flag="0"/>
			<vel value="0.0352235576088" flag="0"/>
			<psa03 value="0.136862722733559" flag="0"/>
			<psa10 value="0.0320518245260921" flag="0"/>
			<psa30 value="0.00214638697926916" flag="0"/>
		</comp>
		<comp name=".HNZ" depth="0.0">
			<acc value="0.027545095785054" flag="0"/>
			<vel value="0.0147431065079" flag="0"/>
			<psa03 value="0.0686267545190536" flag="0"/>
			<psa10 value="0.0184322047930978" flag="0"/>
			<psa30 value="0.00171851134294213" flag="0"/>
		</comp>
	</station>
	<station code="GOKC" name="GOKC" netid="KO" source="Bogazici University Kandilli Observatory And Earthquake Research Institute (KOERI)" insttype="" lat="40.1998" lon="25.9183">
		<comp name=".HNE" depth="0.0">
			<acc value="0.33306963714696" flag="0"/>
			<vel value="0.155333714661" flag="0"/>
			<psa03 value="0.638536216556717" flag="0"/>
			<psa10 value="0.114603526921302" flag="0"/>
			<psa30 value="0.018944174958607" flag="0"/>
		</comp>
		<comp name=".HNN" depth="0.0">
			<acc value="0.35025491447814" flag="0"/>
			<vel value="0.154814130538" flag="0"/>
			<psa03 value="0.759575818169853" flag="0"/>
			<psa10 value="0.163985493234294" flag="0"/>
			<psa30 value="0.0166906073374902" flag="0"/>
		</comp>
		<comp name=".HNZ" depth="0.0">
			<acc value="0.20668488145644" flag="0"/>
			<vel value="0.0882313278057" flag="0"/>
			<psa03 value="0.535248749268448" flag="0"/>
			<psa10 value="0.0657970062287814" flag="0"/>
			<psa30 value="0.0247335734778504" flag="0"/>
		</comp>
	</station>
	<station code="GOMA" name="GOMA" netid="KO" source="Bogazici University Kandilli Observatory And Earthquake Research Institute (KOERI)" insttype="" lat="38.7077" lon="27.9175">
		<comp name=".HNE" depth="0.0">
			<acc value="0.04212189790782" flag="0"/>
			<vel value="0.026355542029" flag="0"/>
			<psa03 value="0.117068609387474" flag="0"/>
			<psa10 value="0.019880256344429" flag="0"/>
			<psa30 value="0.00215093978086981" flag="0"/>
		</comp>
		<comp name=".HNN" depth="0.0">
			<acc value="0.016949470077132" flag="0"/>
			<vel value="0.0163120502438" flag="0"/>
			<psa03 value="0.0471624524061776" flag="0"/>
			<psa10 value="0.0201588135474576" flag="0"/>
			<psa30 value="0.00216557741720756" flag="0"/>
		</comp>
		<comp name=".HNZ" depth="0.0">
			<acc value="0.018475228792998" flag="0"/>
			<vel value="0.00996599822889" flag="0"/>
			<psa03 value="0.074588805725447" flag="0"/>
			<psa10 value="0.00951763174638639" flag="0"/>
			<psa30 value="0.00163906441330457" flag="0"/>
		</comp>
	</station>
	<station code="GONE" name="GONE" netid="KO" source="Bogazici University Kandilli Observatory And Earthquake Research Institute (KOERI)" insttype="" lat="40.0466" lon="27.686">
		<comp name=".HNE" depth="0.0">
			<acc value="0.065334308610924" flag="0"/>
			<vel value="0.0404564741027" flag="0"/>
			<psa03 value="0.188528280740187" flag="0"/>
			<psa10 value="0.0819503238069004" flag="0"/>
			<psa30 value="0.00341791871200512" flag="0"/>
		</comp>
		<comp name=".HNN" depth="0.0">
			<acc value="0.069274423800606" flag="0"/>
			<vel value="0.0414087782267" flag="0"/>
			<psa03 value="0.151708237426272" flag="0"/>
			<psa10 value="0.0684052515121139" flag="0"/>
			<psa30 value="0.00503964926871586" flag="0"/>
		</comp>
		<comp name=".HNZ" depth="0.0">
			<acc value="0.03802038948759" flag="0"/>
			<vel value="0.0276953035907" flag="0"/>
			<psa03 value="0.0825931068044806" flag="0"/>
			<psa10 value="0.0357561511695148" flag="0"/>
			<psa30 value="0.00180778163165999" flag="0"/>
		</comp>
	</station>
	<station code="GORD" name="GORD" netid="KO" source="Bogazici University Kandilli Observatory And Earthquake Research Institute (KOERI)" insttype="" lat="38.9088" lon="28.1769">
		<comp name=".HNE" depth="0.0">
			<acc value="0.041690573689302" flag="0"/>
			<vel value="0.0560053488579" flag="0"/>
			<psa03 value="0.101345390718313" flag="0"/>
			<psa10 value="0.0721607127930163" flag="0"/>
			<psa30 value="0.00483120337684637" flag="0"/>
		</comp>
		<comp name=".HNN" depth="0.0">
			<acc value="0.028986910275414" flag="0"/>
			<vel value="0.0310077510836" flag="0"/>
			<psa03 value="0.0701074932355061" flag="0"/>
			<psa10 value="0.0634571887274693" flag="0"/>
			<psa30 value="0.00255522031247311" flag="0"/>
		</comp>
		<comp name=".HNZ" depth="0.0">
			<acc value="0.031861747429272" flag="0"/>
			<vel value="0.0322618857137" flag="0"/>
			<psa03 value="0.0948945154627373" flag="0"/>
			<psa10 value="0.0340525745659541" flag="0"/>
			<psa30 value="0.00290559185620196" flag="0"/>
		</comp>
	</station>
