<?xml version="1.0" encoding="UTF-8" standalone="yes"?>
<!DOCTYPE earthquake SYSTEM "stationlist.dtd">
<stationlist created="" xmlns="ch.ethz.sed.shakemap.usgs.xml">
  <station code="ACOR" name="ACOR" netid="HA" insttype="30" lat="37.8902" lon="22.8692">
    <comp name="--.HHE">
      <acc value="0.0338998373" flag="0"/>
      <vel value="0.0152526300" flag="0"/>
      <psa03 value="0.0600485935" flag="0"/>
      <psa10 value="0.0182337994" flag="0"/>
      <psa30 value="0.0014904104" flag="0"/>
    </comp>
    <comp name="--.HHZ">
      <acc value="0.0275801965" flag="0"/>
      <vel value="0.0144776835" flag="0"/>
      <psa03 value="0.0805026728" flag="0"/>
      <psa10 value="0.0110051154" flag="0"/>
      <psa30 value="0.0016890210" flag="0"/>
    </comp>
    <comp name="--.HHN">
      <acc value="0.1417282061" flag="0"/>
      <vel value="0.0631054841" flag="0"/>
      <psa03 value="0.2676567088" flag="0"/>
      <psa10 value="0.0931519400" flag="0"/>
      <psa30 value="0.0082446402" flag="0"/>
    </comp>
  </station>
  <station code="ATHU" name="ATHU" netid="HA" insttype="60" lat="37.9665" lon="23.7845">
    <comp name="--.HHE">
      <acc value="0.0381692825" flag="0"/>
      <vel value="0.0095260565" flag="0"/>
      <psa03 value="0.0590774643" flag="0"/>
      <psa10 value="0.0109042718" flag="0"/>
      <psa30 value="0.0006636767" flag="0"/>
    </comp>
    <comp name="--.HHN">
      <acc value="0.0566214721" flag="0"/>
      <vel value="0.0124303781" flag="0"/>
      <psa03 value="0.0495147566" flag="0"/>
      <psa10 value="0.0102736192" flag="0"/>
      <psa30 value="0.0007518820" flag="0"/>
    </comp>
    <comp name="--.HHZ">
      <acc value="0.0456605160" flag="0"/>
      <vel value="0.0144709119" flag="0"/>
      <psa03 value="0.0430507151" flag="0"/>
      <psa10 value="0.0112385768" flag="0"/>
      <psa30 value="0.0012855870" flag="0"/>
    </comp>
  </station>
  <station code="AXAR" name="AXAR" netid="HA" insttype="30" lat="38.7664" lon="22.659">
    <comp name="--.HHN">
      <acc value="0.0201799364" flag="0"/>
      <vel value="0.0112455017" flag="0"/>
      <psa03 value="0.0793305068" flag="0"/>
      <psa10 value="0.0105097492" flag="0"/>
      <psa30 value="0.0006343242" flag="0"/>
    </comp>
    <comp name="--.HHZ">
      <acc value="0.0143143521" flag="0"/>
      <vel value="0.0067441895" flag="0"/>
      <psa03 value="0.0387532386" flag="0"/>
      <psa10 value="0.0061694571" flag="0"/>
      <psa30 value="0.0004044428" flag="0"/>
    </comp>
    <comp name="--.HHE">
      <acc value="0.0303904583" flag="0"/>
      <vel value="0.0163616919" flag="0"/>
      <psa03 value="0.0729821351" flag="0"/>
      <psa10 value="0.0151613208" flag="0"/>
      <psa30 value="0.0008053107" flag="0"/>
    </comp>
  </station>
  <station code="EPID" name="EPID" netid="HA" insttype="30" lat="37.6144" lon="23.1189">
    <comp name="--.HHE">
      <acc value="0.0538106373" flag="0"/>
      <vel value="0.0208770957" flag="0"/>
      <psa03 value="0.1329787607" flag="0"/>
      <psa10 value="0.0097532472" flag="0"/>
      <psa30 value="0.0010912614" flag="0"/>
    </comp>
    <comp name="--.HHN">
      <acc value="0.0780150780" flag="0"/>
      <vel value="0.0214482456" flag="0"/>
      <psa03 value="0.1042693778" flag="0"/>
      <psa10 value="0.0115696075" flag="0"/>
      <psa30 value="0.0014786795" flag="0"/>
    </comp>
    <comp name="--.HHZ">
      <acc value="0.0399457880" flag="0"/>
      <vel value="0.0120490091" flag="0"/>
      <psa03 value="0.0543555542" flag="0"/>
      <psa10 value="0.0132159838" flag="0"/>
      <psa30 value="0.0013792430" flag="0"/>
    </comp>
  </station>
  <station code="KALE" name="KALE" netid="HA" insttype="40," lat="38.3911" lon="22.1398">
    <comp name="--.HHZ">
      <acc value="0.0148243352" flag="0"/>
      <vel value="0.0127452035" flag="0"/>
      <psa03 value="0.0366094722" flag="0"/>
      <psa10 value="0.0171667440" flag="0"/>
      <psa30 value="0.0011456490" flag="0"/>
    </comp>
    <comp name="--.HHE">
      <acc value="0.0278718614" flag="0"/>
      <vel value="0.0177431950" flag="0"/>
      <psa03 value="0.1003620531" flag="0"/>
      <psa10 value="0.0318837625" flag="0"/>
      <psa30 value="0.0021685763" flag="0"/>
    </comp>
    <comp name="--.HHN">
      <acc value="0.0276391539" flag="0"/>
      <vel value="0.0177799505" flag="0"/>
      <psa03 value="0.0609657762" flag="0"/>
      <psa10 value="0.0165855473" flag="0"/>
      <psa30 value="0.0020731017" flag="0"/>
    </comp>
  </station>
  <station code="KIAS" name="KIAS" netid="HA" insttype="DC" lat="37.9875" lon="22.7543">
    <comp name="--.HNZ">
      <acc value="0.0788533193" flag="0"/>
      <vel value="0.0195457035" flag="0"/>
      <psa03 value="0.1179184396" flag="0"/>
      <psa10 value="0.0272723612" flag="0"/>
      <psa30 value="0.0044450214" flag="0"/>
    </comp>
    <comp name="--.HNN">
      <acc value="0.1514167633" flag="0"/>
      <vel value="0.0454289178" flag="0"/>
      <psa03 value="0.3182157877" flag="0"/>
      <psa10 value="0.0672689764" flag="0"/>
      <psa30 value="0.0056669388" flag="0"/>
    </comp>
    <comp name="--.HNE">
      <acc value="0.1948392731" flag="0"/>
      <vel value="0.0537538685" flag="0"/>
      <psa03 value="0.2386173670" flag="0"/>
      <psa10 value="0.0593351307" flag="0"/>
      <psa30 value="0.0068863894" flag="0"/>
    </comp>
  </station>
  <station code="LOUT" name="LOUT" netid="HA" insttype="30" lat="37.9879" lon="22.9743">
    <comp name="--.HHE">
      <acc value="0.2236270666" flag="0"/>
      <vel value="0.0656194300" flag="0"/>
      <psa03 value="0.3277020270" flag="0"/>
      <psa10 value="0.0964805574" flag="0"/>
      <psa30 value="0.0044606689" flag="0"/>
    </comp>
    <comp name="--.HHN">
      <acc value="0.2119944655" flag="0"/>
      <vel value="0.0809696476" flag="0"/>
      <psa03 value="0.4941536971" flag="0"/>
      <psa10 value="0.0764635990" flag="0"/>
      <psa30 value="0.0046441135" flag="0"/>
    </comp>
    <comp name="--.HHZ">
      <acc value="0.1165885229" flag="0"/>
      <vel value="0.0339466444" flag="0"/>
      <psa03 value="0.1639237615" flag="0"/>
      <psa10 value="0.0237522124" flag="0"/>
      <psa30 value="0.0038849724" flag="0"/>
    </comp>
  </station>
  <station code="LTRS" name="LTRS" netid="HA" insttype="DC" lat="37.9753" lon="22.9765">
    <comp name="--.HNE">
      <acc value="0.1163911623" flag="0"/>
      <vel value="0.0749325910" flag="0"/>
      <psa03 value="0.2641409676" flag="0"/>
      <psa10 value="0.1180802639" flag="0"/>
      <psa30 value="0.0074475278" flag="0"/>
    </comp>
    <comp name="--.HNN">
      <acc value="0.1391792183" flag="0"/>
      <vel value="0.0683838134" flag="0"/>
      <psa03 value="0.3722611224" flag="0"/>
      <psa10 value="0.0792385791" flag="0"/>
      <psa30 value="0.0065938097" flag="0"/>
    </comp>
    <comp name="--.HNZ">
      <acc value="0.1008528862" flag="0"/>
      <vel value="0.0775864079" flag="0"/>
      <psa03 value="0.1977758879" flag="0"/>
      <psa10 value="0.0929500261" flag="0"/>
      <psa30 value="0.0060501711" flag="0"/>
    </comp>
  </station>
  <station code="MDRA" name="MDRA" netid="HA" insttype="30" lat="38.0606" lon="23.4662">
    <comp name="--.HHZ">
      <acc value="0.0930756731" flag="0"/>
      <vel value="0.0260660399" flag="0"/>
      <psa03 value="0.1455447570" flag="0"/>
      <psa10 value="0.0243192020" flag="0"/>
      <psa30 value="0.0022650847" flag="0"/>
    </comp>
    <comp name="--.HHN">
      <acc value="0.1044915742" flag="0"/>
      <vel value="0.0273351003" flag="0"/>
      <psa03 value="0.1178396496" flag="0"/>
      <psa10 value="0.0233969876" flag="0"/>
      <psa30 value="0.0019465286" flag="0"/>
    </comp>
    <comp name="--.HHE">
      <acc value="0.1145984070" flag="0"/>
      <vel value="0.0362354865" flag="0"/>
      <psa03 value="0.2062526236" flag="0"/>
      <psa10 value="0.0320157756" flag="0"/>
      <psa30 value="0.0028872863" flag="0"/>
    </comp>
  </station>
  <station code="MRKA" name="MRKA" netid="HA" insttype="30" lat="38.7047" lon="23.5863">
    <comp name="--.HHZ">
      <acc value="0.0685342838" flag="0"/>
      <vel value="0.0261853616" flag="0"/>
      <psa03 value="0.1412949155" flag="0"/>
      <psa10 value="0.0242275298" flag="0"/>
      <psa30 value="0.0022646704" flag="0"/>
    </comp>
    <comp name="--.HHN">
      <acc value="0.0859318285" flag="0"/>
      <vel value="0.0484572259" flag="0"/>
      <psa03 value="0.1620391755" flag="0"/>
      <psa10 value="0.0624766347" flag="0"/>
      <psa30 value="0.0022147293" flag="0"/>
    </comp>
    <comp name="--.HHE">
      <acc value="0.1190541456" flag="0"/>
      <vel value="0.0417781858" flag="0"/>
      <psa03 value="0.1714592671" flag="0"/>
      <psa10 value="0.0332294490" flag="0"/>
      <psa30 value="0.0016483012" flag="0"/>
    </comp>
  </station>
  <station code="MRTH" name="MRTH" netid="HA" insttype="S100," lat="38.1225" lon="23.9409">
    <comp name="--.HHE">
      <acc value="0.0958666974" flag="0"/>
      <vel value="0.0429740709" flag="0"/>
      <psa03 value="0.1896576528" flag="0"/>
      <psa10 value="0.0524565243" flag="0"/>
      <psa30 value="0.0020674271" flag="0"/>
    </comp>
    <comp name="--.HHN">
      <acc value="0.0978453517" flag="0"/>
      <vel value="0.0257812058" flag="0"/>
      <psa03 value="0.0983921518" flag="0"/>
      <psa10 value="0.0190593166" flag="0"/>
      <psa30 value="0.0017854606" flag="0"/>
    </comp>
    <comp name="--.HHZ">
      <acc value="0.0935309149" flag="0"/>
      <vel value="0.0265782059" flag="0"/>
      <psa03 value="0.0869015595" flag="0"/>
      <psa10 value="0.0140977489" flag="0"/>
      <psa30 value="0.0015232163" flag="0"/>
    </comp>
  </station>
  <station code="STFN" name="STFN" netid="HA" insttype="1s-100Hz," lat="38.1766" lon="23.544">
    <comp name="--.HHN">
      <acc value="0.3068653569" flag="0"/>
      <vel value="0.0935295720" flag="0"/>
      <psa03 value="0.4364174778" flag="0"/>
      <psa10 value="0.1083499620" flag="0"/>
      <psa30 value="0.0067700631" flag="0"/>
    </comp>
    <comp name="--.HHZ">
      <acc value="0.1871825600" flag="0"/>
      <vel value="0.0565695308" flag="0"/>
      <psa03 value="0.1736162786" flag="0"/>
      <psa10 value="0.0932193306" flag="0"/>
      <psa30 value="0.0056770728" flag="0"/>
    </comp>
    <comp name="--.HHE">
      <acc value="0.2046564321" flag="0"/>
      <vel value="0.0776167197" flag="0"/>
      <psa03 value="0.4049988577" flag="0"/>
      <psa10 value="0.0656618304" flag="0"/>
      <psa30 value="0.0057529740" flag="0"/>
    </comp>
  </station>
  <station code="THAL" name="THAL" netid="HA" insttype="30" lat="38.0357" lon="22.6634">
    <comp name="--.HHZ">
      <acc value="0.1020145597" flag="0"/>
      <vel value="0.0345445959" flag="0"/>
      <psa03 value="0.1559467742" flag="0"/>
      <psa10 value="0.0166051245" flag="0"/>
      <psa30 value="0.0018351930" flag="0"/>
    </comp>
    <comp name="--.HHE">
      <acc value="0.1984521717" flag="0"/>
      <vel value="0.0631598570" flag="0"/>
      <psa03 value="0.4222342596" flag="0"/>
      <psa10 value="0.0422410648" flag="0"/>
      <psa30 value="0.0034175163" flag="0"/>
    </comp>
    <comp name="--.HHN">
      <acc value="0.2419696481" flag="0"/>
      <vel value="0.0775197203" flag="0"/>
      <psa03 value="0.6471102791" flag="0"/>
      <psa10 value="0.0339358516" flag="0"/>
      <psa30 value="0.0027250953" flag="0"/>
    </comp>
  </station>
  <station code="VILL" name="VILL" netid="HA" insttype="30" lat="38.1642" lon="23.3122">
    <comp name="--.HHE">
      <acc value="0.6656080197" flag="0"/>
      <vel value="0.3464785527" flag="0"/>
      <psa03 value="1.3434598987" flag="0"/>
      <psa10 value="0.4959548941" flag="0"/>
      <psa30 value="0.0251155941" flag="0"/>
    </comp>
    <comp name="--.HHN">
      <acc value="0.9685132993" flag="0"/>
      <vel value="0.4753840610" flag="0"/>
      <psa03 value="1.3546790084" flag="0"/>
      <psa10 value="0.4412287187" flag="0"/>
      <psa30 value="0.0219214943" flag="0"/>
    </comp>
    <comp name="--.HHZ">
      <acc value="0.3489553632" flag="0"/>
      <vel value="0.1866319504" flag="0"/>
      <psa03 value="0.6308963231" flag="0"/>
      <psa10 value="0.2527224571" flag="0"/>
      <psa30 value="0.0142855130" flag="0"/>
    </comp>
  </station>
  <station code="XLKS" name="XLKS" netid="HA" insttype="DC" lat="38.0772" lon="22.6361">
    <comp name="--.HNE">
      <acc value="0.1357065499" flag="0"/>
      <vel value="0.0653716573" flag="0"/>
      <psa03 value="0.3378559546" flag="0"/>
      <psa10 value="0.0990761504" flag="0"/>
      <psa30 value="0.0105421874" flag="0"/>
    </comp>
    <comp name="--.HNZ">
      <acc value="0.0813677802" flag="0"/>
      <vel value="0.0363207728" flag="0"/>
      <psa03 value="0.1547506510" flag="0"/>
      <psa10 value="0.0532369266" flag="0"/>
      <psa30 value="0.0027560486" flag="0"/>
    </comp>
    <comp name="--.HNN">
      <acc value="0.1316353597" flag="0"/>
      <vel value="0.0669470349" flag="0"/>
      <psa03 value="0.3463506664" flag="0"/>
      <psa10 value="0.1074750563" flag="0"/>
      <psa30 value="0.0080485317" flag="0"/>
    </comp>
  </station>
  <station code="ATH5" name="ATH5" netid="HI" insttype="CMG-5TD,ACCELEROMETER,GURALP" lat="37.9754" lon="23.7371">
    <comp name="--.HNE">
      <acc value="0.1029367861" flag="0"/>
      <vel value="0.0394866988" flag="0"/>
      <psa03 value="0.1559016284" flag="0"/>
      <psa10 value="0.0429567359" flag="0"/>
      <psa30 value="0.0029887833" flag="0"/>
    </comp>
    <comp name="--.HNN">
      <acc value="0.0683647502" flag="0"/>
      <vel value="0.0207239327" flag="0"/>
      <psa03 value="0.1608091680" flag="0"/>
      <psa10 value="0.0285679584" flag="0"/>
      <psa30 value="0.0030286691" flag="0"/>
    </comp>
    <comp name="--.HNZ">
      <acc value="0.0408144980" flag="0"/>
      <vel value="0.0233906315" flag="0"/>
      <psa03 value="0.0891658741" flag="0"/>
      <psa10 value="0.0244267690" flag="0"/>
      <psa30 value="0.0024463467" flag="0"/>
    </comp>
  </station>
  <station code="KLV1" name="KLV1" netid="HI" insttype="CMG-5TD,ACCELEROMETER,GURALP" lat="38.0326" lon="22.108">
    <comp name="--.HNE">
      <acc value="0.0372946428" flag="0"/>
      <vel value="0.0211525154" flag="0"/>
      <psa03 value="0.0944401804" flag="0"/>
      <psa10 value="0.0252876951" flag="0"/>
      <psa30 value="0.0011538254" flag="0"/>
    </comp>
    <comp name="--.HNN">
      <acc value="0.0549859333" flag="0"/>
      <vel value="0.0274052902" flag="0"/>
      <psa03 value="0.1879163295" flag="0"/>
      <psa10 value="0.0247798420" flag="0"/>
      <psa30 value="0.0018786349" flag="0"/>
    </comp>
    <comp name="--.HNZ">
      <acc value="0.0194146260" flag="0"/>
      <vel value="0.0156145512" flag="0"/>
      <psa03 value="0.0443878493" flag="0"/>
      <psa10 value="0.0205031381" flag="0"/>
      <psa30 value="0.0012543995" flag="0"/>
    </comp>
  </station>
  <station code="VOL2" name="VOL2" netid="HI" insttype="CMG-5TD,ACCELEROMETER,GURALP" lat="39.366" lon="22.9506">
    <comp name="--.HNN">
      <acc value="0.0365219923" flag="0"/>
      <vel value="0.0258213231" flag="0"/>
      <psa03 value="0.0743061009" flag="0"/>
      <psa10 value="0.0305277058" flag="0"/>
      <psa30 value="0.0021405657" flag="0"/>
    </comp>
    <comp name="--.HNE">
      <acc value="0.0438531954" flag="0"/>
      <vel value="0.0271760316" flag="0"/>
      <psa03 value="0.1295263584" flag="0"/>
      <psa10 value="0.0258504634" flag="0"/>
      <psa30 value="0.0034736729" flag="0"/>
    </comp>
    <comp name="--.HNZ">
      <acc value="0.0235589439" flag="0"/>
      <vel value="0.0085116098" flag="0"/>
      <psa03 value="0.0263084319" flag="0"/>
      <psa10 value="0.0093966910" flag="0"/>
      <psa30 value="0.0007774320" flag="0"/>
    </comp>
  </station>
  <station code="ATH" name="ATH" netid="HL" insttype="DR24" lat="37.9738" lon="23.7177">
    <comp name="--.HHE">
      <acc value="0.1184223138" flag="0"/>
      <vel value="0.0430652755" flag="0"/>
      <psa03 value="0.3688927224" flag="0"/>
      <psa10 value="0.0349360225" flag="0"/>
      <psa30 value="0.0036275408" flag="0"/>
    </comp>
    <comp name="--.HHN">
      <acc value="0.1006357505" flag="0"/>
      <vel value="0.0333619072" flag="0"/>
      <psa03 value="0.2575236558" flag="0"/>
      <psa10 value="0.0327917473" flag="0"/>
      <psa30 value="0.0033010129" flag="0"/>
    </comp>
    <comp name="--.HHZ">
      <acc value="0.0996916340" flag="0"/>
      <vel value="0.0386050134" flag="0"/>
      <psa03 value="0.2364349695" flag="0"/>
      <psa10 value="0.0281984866" flag="0"/>
      <psa30 value="0.0027824279" flag="0"/>
    </comp>
  </station>
  <station code="ATHP" name="ATHP" netid="HL" insttype="CMG-5" lat="38.0008" lon="23.7735">
    <comp name="00.HNN">
      <acc value="0.0613767327" flag="0"/>
      <vel value="0.0234594529" flag="0"/>
      <psa03 value="0.1439330054" flag="0"/>
      <psa10 value="0.0320728531" flag="0"/>
      <psa30 value="0.0024406248" flag="0"/>
    </comp>
    <comp name="00.HNZ">
      <acc value="0.0708238098" flag="0"/>
      <vel value="0.0213912383" flag="0"/>
      <psa03 value="0.0719704827" flag="0"/>
      <psa10 value="0.0318402411" flag="0"/>
      <psa30 value="0.0027319823" flag="0"/>
    </comp>
    <comp name="00.HNE">
      <acc value="0.0695629505" flag="0"/>
      <vel value="0.0344351979" flag="0"/>
      <psa03 value="0.1193750088" flag="0"/>
      <psa10 value="0.0350015940" flag="0"/>
      <psa30 value="0.0030533070" flag="0"/>
    </comp>
  </station>
  <station code="EVR" name="EVR" netid="HL" insttype="DR24" lat="38.9166" lon="21.8105">
    <comp name="--.HHE">
      <acc value="0.0048198529" flag="0"/>
      <vel value="0.0041157622" flag="0"/>
      <psa03 value="0.0123283698" flag="0"/>
      <psa10 value="0.0065356198" flag="0"/>
      <psa30 value="0.0008441756" flag="0"/>
    </comp>
    <comp name="--.HHZ">
      <acc value="0.0028933408" flag="0"/>
      <vel value="0.0042236833" flag="0"/>
      <psa03 value="0.0096928304" flag="0"/>
      <psa10 value="0.0074631561" flag="0"/>
      <psa30 value="0.0007904718" flag="0"/>
    </comp>
    <comp name="--.HHN">
      <acc value="0.0041308607" flag="0"/>
      <vel value="0.0044663783" flag="0"/>
      <psa03 value="0.0136578378" flag="0"/>
      <psa10 value="0.0087451216" flag="0"/>
      <psa30 value="0.0007485182" flag="0"/>
    </comp>
  </station>
  <station code="KLV" name="KLV" netid="HL" insttype="120" lat="38.0435" lon="22.1504">
    <comp name="--.HHE">
      <acc value="0.0117886186" flag="0"/>
      <vel value="0.0070694838" flag="0"/>
      <psa03 value="0.0177599240" flag="0"/>
      <psa10 value="0.0135742383" flag="0"/>
      <psa30 value="0.0011881294" flag="0"/>
    </comp>
    <comp name="--.HHZ">
      <acc value="0.0140197331" flag="0"/>
      <vel value="0.0100445982" flag="0"/>
      <psa03 value="0.0193235814" flag="0"/>
      <psa10 value="0.0207726433" flag="0"/>
      <psa30 value="0.0012574197" flag="0"/>
    </comp>
    <comp name="--.HHN">
      <acc value="0.0147542693" flag="0"/>
      <vel value="0.0104466678" flag="0"/>
      <psa03 value="0.0320073708" flag="0"/>
      <psa10 value="0.0231922424" flag="0"/>
      <psa30 value="0.0013822903" flag="0"/>
    </comp>
  </station>
  <station code="LKR" name="LKR" netid="HL" insttype="30" lat="38.6496" lon="22.9989">
    <comp name="--.HHE">
      <acc value="0.9887774869" flag="0"/>
      <vel value="0.2330606837" flag="0"/>
      <psa03 value="0.7295449971" flag="0"/>
      <psa10 value="0.0846529182" flag="0"/>
      <psa30 value="0.0050927442" flag="0"/>
    </comp>
    <comp name="--.HHN">
      <acc value="0.7359429396" flag="0"/>
      <vel value="0.2275982154" flag="0"/>
