<stationlist created="1778136772">
	<station code="ROD3" name="ROD3" netid="CL" source="Corinth Riff Laboratory (CRLNET)" insttype="" lat="38.30811" lon="21.89204">
		<comp name="00.HNE" depth="0.0">
			<acc value="0.0221143192717537" flag="0"/>
			<vel value="0.0109108929472862" flag="0"/>
			<psa03 value="0.0769797714070872" flag="0"/>
			<psa10 value="0.0156288725235925" flag="0"/>
			<psa30 value="0.00134666212642439" flag="0"/>
		</comp>
		<comp name="00.HNN" depth="0.0">
			<acc value="0.0241631471933426" flag="0"/>
			<vel value="0.0131744458626399" flag="0"/>
			<psa03 value="0.12024860129628" flag="0"/>
			<psa10 value="0.0137972249359299" flag="0"/>
			<psa30 value="0.00225881963571686" flag="0"/>
		</comp>
		<comp name="00.HNZ" depth="0.0">
			<acc value="0.0107820634158562" flag="0"/>
			<vel value="0.00737167718448677" flag="0"/>
			<psa03 value="0.0173750260101947" flag="0"/>
			<psa10 value="0.0111845843613401" flag="0"/>
			<psa30 value="0.000891723551473985" flag="0"/>
		</comp>
	</station>
	<station code="AIGS" name="AIGS" netid="HA" source="Hellenic Seismological Network, University of Athens, Seismological Laboratory (HA)" insttype="" lat="38.25001" lon="22.0878">
		<comp name="--.HNE" depth="0.0">
			<acc value="0.0256977703842217" flag="0"/>
			<vel value="0.0126590608609356" flag="0"/>
			<psa03 value="0.0592275172822771" flag="0"/>
			<psa10 value="0.0129684650346503" flag="0"/>
			<psa30 value="0.00251363880790175" flag="0"/>
		</comp>
		<comp name="--.HNN" depth="0.0">
			<acc value="0.021072933806258" flag="0"/>
			<vel value="0.0111116900953922" flag="0"/>
			<psa03 value="0.0483212062510179" flag="0"/>
			<psa10 value="0.0118991613860592" flag="0"/>
			<psa30 value="0.00202603963185084" flag="0"/>
		</comp>
		<comp name="--.HNZ" depth="0.0">
			<acc value="0.0148285823741898" flag="0"/>
			<vel value="0.00933431881248447" flag="0"/>
			<psa03 value="0.0262407695722019" flag="0"/>
			<psa10 value="0.0106254241946986" flag="0"/>
			<psa30 value="0.00130062491001748" flag="0"/>
		</comp>
	</station>
	<station code="KIAS" name="KIAS" netid="HA" source="Hellenic Seismological Network, University of Athens, Seismological Laboratory (HA)" insttype="" lat="37.9875" lon="22.7543">
		<comp name="--.HNE" depth="0.0">
			<acc value="0.193908021988411" flag="0"/>
			<vel value="0.0522171738158064" flag="0"/>
			<psa03 value="0.240721217432394" flag="0"/>
			<psa10 value="0.0594925648403856" flag="0"/>
			<psa30 value="0.0074730650538631" flag="0"/>
		</comp>
		<comp name="--.HNN" depth="0.0">
			<acc value="0.146018556837306" flag="0"/>
			<vel value="0.0476520831940612" flag="0"/>
			<psa03 value="0.319345655082507" flag="0"/>
			<psa10 value="0.0670943671727279" flag="0"/>
			<psa30 value="0.00669050654657577" flag="0"/>
		</comp>
		<comp name="--.HNZ" depth="0.0">
			<acc value="0.0767683918291011" flag="0"/>
			<vel value="0.0199588896059962" flag="0"/>
			<psa03 value="0.117729236484202" flag="0"/>
			<psa10 value="0.0273804456951651" flag="0"/>
			<psa30 value="0.00524929899028035" flag="0"/>
		</comp>
	</station>
	<station code="LTRS" name="LTRS" netid="HA" source="Hellenic Seismological Network, University of Athens, Seismological Laboratory (HA)" insttype="" lat="37.97528" lon="22.9765">
		<comp name="--.HNE" depth="0.0">
			<acc value="0.11545364687406" flag="0"/>
			<vel value="0.0730049191694186" flag="0"/>
			<psa03 value="0.259018075343122" flag="0"/>
			<psa10 value="0.118368243815286" flag="0"/>
			<psa30 value="0.00813600897068419" flag="0"/>
		</comp>
		<comp name="--.HNN" depth="0.0">
			<acc value="0.137770126509326" flag="0"/>
			<vel value="0.069090416553387" flag="0"/>
			<psa03 value="0.377542635346919" flag="0"/>
			<psa10 value="0.0790811287364697" flag="0"/>
			<psa30 value="0.00736595462501626" flag="0"/>
		</comp>
		<comp name="--.HNZ" depth="0.0">
			<acc value="0.0990024709360183" flag="0"/>
			<vel value="0.0799267054864339" flag="0"/>
			<psa03 value="0.19559218618902" flag="0"/>
			<psa10 value="0.0936838160930133" flag="0"/>
			<psa30 value="0.00647586899455538" flag="0"/>
		</comp>
	</station>
	<station code="XLKS" name="XLKS" netid="HA" source="Hellenic Seismological Network, University of Athens, Seismological Laboratory (HA)" insttype="" lat="38.0772" lon="22.6361">
		<comp name="--.HNE" depth="0.0">
			<acc value="0.133664243310019" flag="0"/>
			<vel value="0.0658019301205227" flag="0"/>
			<psa03 value="0.341699302568272" flag="0"/>
			<psa10 value="0.0991698595163407" flag="0"/>
			<psa30 value="0.0122617356131352" flag="0"/>
		</comp>
		<comp name="--.HNN" depth="0.0">
			<acc value="0.132465545390877" flag="0"/>
			<vel value="0.0677443387489819" flag="0"/>
			<psa03 value="0.344906285848561" flag="0"/>
			<psa10 value="0.107744382536691" flag="0"/>
			<psa30 value="0.008789217242492" flag="0"/>
		</comp>
		<comp name="--.HNZ" depth="0.0">
			<acc value="0.0795585791283657" flag="0"/>
			<vel value="0.0370311983260128" flag="0"/>
			<psa03 value="0.15565973877717" flag="0"/>
			<psa10 value="0.0533836014015282" flag="0"/>
			<psa30 value="0.00294948851413883" flag="0"/>
		</comp>
	</station>
	<station code="ARS1" name="ARS1" netid="HI" source="ITSAK Strong Motion Network" insttype="" lat="37.6349" lon="22.7293">
		<comp name="--.HNE" depth="0.0">
			<acc value="0.043944092928864" flag="0"/>
			<vel value="0.0266364620471409" flag="0"/>
			<psa03 value="0.105074783605318" flag="0"/>
			<psa10 value="0.032993005624687" flag="0"/>
			<psa30 value="0.00194760235243175" flag="0"/>
		</comp>
		<comp name="--.HNN" depth="0.0">
			<acc value="0.0426090242653145" flag="0"/>
			<vel value="0.0279081900442073" flag="0"/>
			<psa03 value="0.111176250297571" flag="0"/>
			<psa10 value="0.0356624962153574" flag="0"/>
			<psa30 value="0.00272796842285286" flag="0"/>
		</comp>
		<comp name="--.HNZ" depth="0.0">
			<acc value="0.0220969980007276" flag="0"/>
			<vel value="0.0107928259557813" flag="0"/>
			<psa03 value="0.0702400280572278" flag="0"/>
			<psa10 value="0.00727072758751955" flag="0"/>
			<psa30 value="0.00180230481051389" flag="0"/>
		</comp>
	</station>
	<station code="ATH5" name="ATH5" netid="HI" source="ITSAK Strong Motion Network" insttype="" lat="37.975421" lon="23.737098">
		<comp name="--.HNE" depth="0.0">
			<acc value="0.102343598214859" flag="0"/>
			<vel value="0.0389583535767005" flag="0"/>
			<psa03 value="0.160451181186835" flag="0"/>
			<psa10 value="0.0431108346311697" flag="0"/>
			<psa30 value="0.00337036285333037" flag="0"/>
		</comp>
		<comp name="--.HNN" depth="0.0">
			<acc value="0.0679504198678519" flag="0"/>
			<vel value="0.0203262427903965" flag="0"/>
			<psa03 value="0.161656479781889" flag="0"/>
			<psa10 value="0.0285710276903521" flag="0"/>
			<psa30 value="0.0035601516759075" flag="0"/>
		</comp>
		<comp name="--.HNZ" depth="0.0">
			<acc value="0.0416089761226914" flag="0"/>
			<vel value="0.0229061984049621" flag="0"/>
			<psa03 value="0.0906949247604083" flag="0"/>
			<psa10 value="0.0242078649022412" flag="0"/>
			<psa30 value="0.00308068324681326" flag="0"/>
		</comp>
	</station>
	<station code="KLV1" name="KLV1" netid="HI" source="ITSAK Strong Motion Network" insttype="" lat="38.03256" lon="22.10797">
		<comp name="--.HNE" depth="0.0">
			<acc value="0.0373590960078289" flag="0"/>
			<vel value="0.0216219791672526" flag="0"/>
			<psa03 value="0.0965971282525328" flag="0"/>
			<psa10 value="0.0253568941447893" flag="0"/>
			<psa30 value="0.00118642932428551" flag="0"/>
		</comp>
		<comp name="--.HNN" depth="0.0">
			<acc value="0.0552286690250302" flag="0"/>
			<vel value="0.0282628970260142" flag="0"/>
			<psa03 value="0.191817436130321" flag="0"/>
			<psa10 value="0.024822735009369" flag="0"/>
			<psa30 value="0.00218277043116039" flag="0"/>
		</comp>
		<comp name="--.HNZ" depth="0.0">
			<acc value="0.0195502342090787" flag="0"/>
			<vel value="0.0154061849179042" flag="0"/>
			<psa03 value="0.0449520976477107" flag="0"/>
			<psa10 value="0.0205224338855118" flag="0"/>
			<psa30 value="0.00138236907516722" flag="0"/>
		</comp>
	</station>
	<station code="MSL1" name="MSL1" netid="HI" source="ITSAK Strong Motion Network" insttype="" lat="38.3727" lon="21.4243">
		<comp name="--.HNE" depth="0.0">
			<acc value="0.0119717632748718" flag="0"/>
			<vel value="0.0157309638949318" flag="0"/>
			<psa03 value="0.0298571705993367" flag="0"/>
			<psa10 value="0.0202126821159788" flag="0"/>
			<psa30 value="0.00214324718793994" flag="0"/>
		</comp>
		<comp name="--.HNN" depth="0.0">
			<acc value="0.00953437717959605" flag="0"/>
			<vel value="0.0120928253050722" flag="0"/>
			<psa03 value="0.0259452135347506" flag="0"/>
			<psa10 value="0.020990626150981" flag="0"/>
			<psa30 value="0.00226950867714492" flag="0"/>
		</comp>
		<comp name="--.HNZ" depth="0.0">
			<acc value="0.00483887670055938" flag="0"/>
			<vel value="0.00518888254777703" flag="0"/>
			<psa03 value="0.0152635905650347" flag="0"/>
			<psa10 value="0.0104236833303519" flag="0"/>
			<psa30 value="0.000572893055521823" flag="0"/>
		</comp>
	</station>
	<station code="NPS1" name="NPS1" netid="HI" source="ITSAK Strong Motion Network" insttype="" lat="36.51263" lon="23.06248">
		<comp name="--.HNE" depth="0.0">
			<acc value="0.00595712958035008" flag="0"/>
			<vel value="0.00441961311604334" flag="0"/>
			<psa03 value="0.0160106752119703" flag="0"/>
			<psa10 value="0.00882161470116771" flag="0"/>
			<psa30 value="0.000587568194343159" flag="0"/>
		</comp>
		<comp name="--.HNN" depth="0.0">
			<acc value="0.00830710221088171" flag="0"/>
			<vel value="0.00598695871036853" flag="0"/>
			<psa03 value="0.023796026890832" flag="0"/>
			<psa10 value="0.00776329553024013" flag="0"/>
			<psa30 value="0.000461937007309522" flag="0"/>
		</comp>
		<comp name="--.HNZ" depth="0.0">
			<acc value="0.00423861447014669" flag="0"/>
			<vel value="0.00228472529025248" flag="0"/>
			<psa03 value="0.011606966821258" flag="0"/>
			<psa10 value="0.00443665640672364" flag="0"/>
			<psa30 value="0.000311007842326475" flag="0"/>
		</comp>
	</station>
	<station code="PYL1" name="PYL1" netid="HI" source="ITSAK Strong Motion Network" insttype="" lat="36.914188" lon="21.695161">
		<comp name="--.HNE" depth="0.0">
			<acc value="0.00133235079603819" flag="0"/>
			<vel value="0.00212408627347207" flag="0"/>
			<psa03 value="0.00231263790143415" flag="0"/>
			<psa10 value="0.00284437920741154" flag="0"/>
			<psa30 value="0.000597388844913716" flag="0"/>
		</comp>
		<comp name="--.HNN" depth="0.0">
			<acc value="0.0011207462322746" flag="0"/>
			<vel value="0.00215734258426422" flag="0"/>
			<psa03 value="0.00292721604911362" flag="0"/>
			<psa10 value="0.00204407056589499" flag="0"/>
			<psa30 value="0.00059149980895904" flag="0"/>
		</comp>
		<comp name="--.HNZ" depth="0.0">
			<acc value="0.00113410833047566" flag="0"/>
			<vel value="0.00159175498847878" flag="0"/>
			<psa03 value="0.0025181103345861" flag="0"/>
			<psa10 value="0.00214840693079066" flag="0"/>
			<psa30 value="0.000557680745696194" flag="0"/>
		</comp>
	</station>
	<station code="SKO1" name="SKO1" netid="HI" source="ITSAK Strong Motion Network" insttype="" lat="39.123383" lon="23.728705">
		<comp name="--.HNE" depth="0.0">
			<acc value="0.0291529123509261" flag="0"/>
			<vel value="0.026851729029341" flag="0"/>
			<psa03 value="0.0821073089977974" flag="0"/>
			<psa10 value="0.0476312865891097" flag="0"/>
			<psa30 value="0.00225547712262165" flag="0"/>
		</comp>
		<comp name="--.HNN" depth="0.0">
			<acc value="0.023561772812494" flag="0"/>
			<vel value="0.0207881074975738" flag="0"/>
			<psa03 value="0.0856219845363541" flag="0"/>
			<psa10 value="0.0139612701781217" flag="0"/>
			<psa30 value="0.0022686769553803" flag="0"/>
		</comp>
		<comp name="--.HNZ" depth="0.0">
			<acc value="0.0155603250976231" flag="0"/>
			<vel value="0.0144096994989759" flag="0"/>
			<psa03 value="0.0529112603198329" flag="0"/>
			<psa10 value="0.0138906117473407" flag="0"/>
			<psa30 value="0.00158193667054015" flag="0"/>
		</comp>
	</station>
	<station code="SKY1" name="SKY1" netid="HI" source="ITSAK Strong Motion Network" insttype="" lat="38.904483" lon="24.564572">
		<comp name="--.HNE" depth="0.0">
			<acc value="0.0262092183843506" flag="0"/>
			<vel value="0.0171405214912763" flag="0"/>
			<psa03 value="0.0826011594213702" flag="0"/>
			<psa10 value="0.0208297611194494" flag="0"/>
			<psa30 value="0.00184636814616355" flag="0"/>
		</comp>
		<comp name="--.HNN" depth="0.0">
			<acc value="0.0292687439149705" flag="0"/>
			<vel value="0.0175767718725546" flag="0"/>
			<psa03 value="0.08634639189962" flag="0"/>
			<psa10 value="0.0204346068174194" flag="0"/>
			<psa30 value="0.00161255494885074" flag="0"/>
		</comp>
		<comp name="--.HNZ" depth="0.0">
			<acc value="0.019093032837272" flag="0"/>
			<vel value="0.0106006835460515" flag="0"/>
			<psa03 value="0.0504180691165299" flag="0"/>
			<psa10 value="0.00887077202010924" flag="0"/>
			<psa30 value="0.000998681261899096" flag="0"/>
		</comp>
	</station>
	<station code="VOL2" name="VOL2" netid="HI" source="ITSAK Strong Motion Network" insttype="" lat="39.366" lon="22.9506">
		<comp name="--.HNE" depth="0.0">
			<acc value="0.0439057846295187" flag="0"/>
			<vel value="0.0269774287710231" flag="0"/>
			<psa03 value="0.129541789841292" flag="0"/>
			<psa10 value="0.0260556985621433" flag="0"/>
			<psa30 value="0.00397350864211325" flag="0"/>
		</comp>
		<comp name="--.HNN" depth="0.0">
			<acc value="0.0365062914634817" flag="0"/>
			<vel value="0.0263507922966896" flag="0"/>
			<psa03 value="0.0748472238864154" flag="0"/>
			<psa10 value="0.0305902308276477" flag="0"/>
			<psa30 value="0.0024542519571484" flag="0"/>
		</comp>
		<comp name="--.HNZ" depth="0.0">
			<acc value="0.0236352412086109" flag="0"/>
			<vel value="0.00904573652089912" flag="0"/>
			<psa03 value="0.0266906613544993" flag="0"/>
			<psa10 value="0.0094048298988199" flag="0"/>
			<psa30 value="0.000992243752110201" flag="0"/>
		</comp>
	</station>
	<station code="ATHP" name="ATHP" netid="HL" source="National Observatory of Athens Seismic Network" insttype="" lat="38.000799" lon="23.773487">
		<comp name="00.HNE" depth="0.0">
			<acc value="0.0694958353877074" flag="0"/>
			<vel value="0.0338259514218785" flag="0"/>
			<psa03 value="0.119960207191538" flag="0"/>
			<psa10 value="0.0347166160554162" flag="0"/>
			<psa30 value="0.00337124978708535" flag="0"/>
		</comp>
		<comp name="00.HNN" depth="0.0">
			<acc value="0.0611387517852663" flag="0"/>
			<vel value="0.0232791253256474" flag="0"/>
			<psa03 value="0.144357677570941" flag="0"/>
			<psa10 value="0.032201958221674" flag="0"/>
			<psa30 value="0.00264532211460904" flag="0"/>
		</comp>
		<comp name="00.HNZ" depth="0.0">
			<acc value="0.0714168650484216" flag="0"/>
			<vel value="0.0230247683868182" flag="0"/>
			<psa03 value="0.0723450685475649" flag="0"/>
			<psa10 value="0.0318589867515227" flag="0"/>
			<psa30 value="0.00305227949020261" flag="0"/>
		</comp>
	</station>
	<station code="DLFA" name="DLFA" netid="HL" source="National Observatory of Athens Seismic Network" insttype="" lat="38.47836" lon="22.49583">
		<comp name="00.HNE" depth="0.0">
			<acc value="0.0374728348177301" flag="0"/>
			<vel value="0.0164939038490765" flag="0"/>
			<psa03 value="0.08654237363249" flag="0"/>
			<psa10 value="0.0202358774025768" flag="0"/>
			<psa30 value="0.00200362481364299" flag="0"/>
		</comp>
		<comp name="00.HNN" depth="0.0">
			<acc value="0.0313721013205181" flag="0"/>
			<vel value="0.0147476214312612" flag="0"/>
			<psa03 value="0.0879020001593272" flag="0"/>
			<psa10 value="0.013678857719688" flag="0"/>
			<psa30 value="0.00111097568001989" flag="0"/>
		</comp>
		<comp name="00.HNZ" depth="0.0">
			<acc value="0.03300172903194" flag="0"/>
			<vel value="0.00970585355316045" flag="0"/>
			<psa03 value="0.0455176663636562" flag="0"/>
			<psa10 value="0.0109712167892486" flag="0"/>
			<psa30 value="0.00123024941465153" flag="0"/>
		</comp>
	</station>
	<station code="NOAC" name="NOAC" netid="HL" source="National Observatory of Athens Seismic Network" insttype="" lat="37.97384" lon="23.71767">
		<comp name="00.HNE" depth="0.0">
			<acc value="0.122603946644735" flag="0"/>
			<vel value="0.0436471920331842" flag="0"/>
			<psa03 value="0.388564573829183" flag="0"/>
			<psa10 value="0.0358289547424304" flag="0"/>
			<psa30 value="0.00436008883448683" flag="0"/>
		</comp>
		<comp name="00.HNN" depth="0.0">
			<acc value="0.10905612230105" flag="0"/>
			<vel value="0.0328983043833172" flag="0"/>
			<psa03 value="0.257926898891378" flag="0"/>
			<psa10 value="0.0333860429114887" flag="0"/>
			<psa30 value="0.00356691045697679" flag="0"/>
		</comp>
		<comp name="00.HNZ" depth="0.0">
			<acc value="0.093572067280735" flag="0"/>
			<vel value="0.0397084238873344" flag="0"/>
			<psa03 value="0.248970284726288" flag="0"/>
			<psa10 value="0.0283484279442068" flag="0"/>
			<psa30 value="0.00341081011609627" flag="0"/>
		</comp>
	</station>
	<station code="PATC" name="PATC" netid="HL" source="National Observatory of Athens Seismic Network" insttype="" lat="38.26933" lon="21.76001">
		<comp name="00.HNE" depth="0.0">
			<acc value="0.0144052946618913" flag="0"/>
			<vel value="0.01468625172938" flag="0"/>
			<psa03 value="0.0487830701807024" flag="0"/>
			<psa10 value="0.0212950263159722" flag="0"/>
			<psa30 value="0.00455010600551938" flag="0"/>
		</comp>
		<comp name="00.HNN" depth="0.0">
			<acc value="0.0168642240284804" flag="0"/>
			<vel value="0.0203660582576707" flag="0"/>
			<psa03 value="0.0344995562596214" flag="0"/>
			<psa10 value="0.0239097989068232" flag="0"/>
			<psa30 value="0.0039085426717713" flag="0"/>
		</comp>
		<comp name="00.HNZ" depth="0.0">
			<acc value="0.011980227535179" flag="0"/>
			<vel value="0.00963906724008579" flag="0"/>
			<psa03 value="0.0272963212681756" flag="0"/>
			<psa10 value="0.0165732347704474" flag="0"/>
			<psa30 value="0.00131115227406807" flag="0"/>
		</comp>
	</station>
	<station code="TNSA" name="TNSA" netid="HL" source="National Observatory of Athens Seismic Network" insttype="" lat="37.53942" lon="25.1631">
		<comp name="00.HNE" depth="0.0">
			<acc value="0.00598020151152912" flag="0"/>
			<vel value="0.00360486127135555" flag="0"/>
			<psa03 value="0.0139574962302277" flag="0"/>
			<psa10 value="0.00359686022746214" flag="0"/>
			<psa30 value="0.000441322100006716" flag="0"/>
		</comp>
		<comp name="00.HNN" depth="0.0">
			<acc value="0.00888811076507329" flag="0"/>
			<vel value="0.00275195510036721" flag="0"/>
			<psa03 value="0.0115741378235654" flag="0"/>
			<psa10 value="0.00214534836880199" flag="0"/>
			<psa30 value="0.000316728195230266" flag="0"/>
		</comp>
		<comp name="00.HNZ" depth="0.0">
			<acc value="0.00583659861280201" flag="0"/>
			<vel value="0.00205107288791429" flag="0"/>
			<psa03 value="0.0108128627834789" flag="0"/>
			<psa10 value="0.00214211659221134" flag="0"/>
			<psa30 value="0.000458052010363807" flag="0"/>
		</comp>
	</station>
	<station code="YDRA" name="YDRA" netid="HL" source="National Observatory of Athens Seismic Network" insttype="" lat="37.34923" lon="23.46525">
		<comp name="00.HNE" depth="0.0">
			<acc value="0.0200870632887935" flag="0"/>
			<vel value="0.0183110663109142" flag="0"/>
			<psa03 value="0.0500375699517607" flag="0"/>
			<psa10 value="0.0268303930068798" flag="0"/>
			<psa30 value="0.00281841274768088" flag="0"/>
		</comp>
		<comp name="00.HNN" depth="0.0">
			<acc value="0.0182499668687968" flag="0"/>
			<vel value="0.00949033711698019" flag="0"/>
			<psa03 value="0.049818107496777" flag="0"/>
			<psa10 value="0.00943106944958576" flag="0"/>
			<psa30 value="0.00121906648633992" flag="0"/>
		</comp>
		<comp name="00.HNZ" depth="0.0">
			<acc value="0.0153930776576029" flag="0"/>
			<vel value="0.00866906809175031" flag="0"/>
			<psa03 value="0.0451208432012206" flag="0"/>
			<psa10 value="0.01151419182121" flag="0"/>
			<psa30 value="0.0016197695934536" flag="0"/>
