<stationlist created="1778069417">
	<station code="SIT2" name="SIT2" netid="HI" source="ITSAK Strong Motion Network" insttype="" lat="35.2059" lon="26.107">
		<comp name="--.HNE" depth="0.0">
			<acc value="0.00945877790098949" flag="0"/>
			<vel value="0.00751941404530771" flag="0"/>
			<psa03 value="0.0279191369298016" flag="0"/>
			<psa10 value="0.00651536012775273" flag="0"/>
			<psa30 value="0.000740483519532397" flag="0"/>
		</comp>
		<comp name="--.HNN" depth="0.0">
			<acc value="0.012632695521157" flag="0"/>
			<vel value="0.0102466472025672" flag="0"/>
			<psa03 value="0.0317222244923547" flag="0"/>
			<psa10 value="0.00837574107894047" flag="0"/>
			<psa30 value="0.000645182619435479" flag="0"/>
		</comp>
		<comp name="--.HNZ" depth="0.0">
			<acc value="0.00526088849318556" flag="0"/>
			<vel value="0.00205921142445935" flag="0"/>
			<psa03 value="0.0107381295883852" flag="0"/>
			<psa10 value="0.00193286332590934" flag="0"/>
			<psa30 value="0.000499323025859913" flag="0"/>
		</comp>
	</station>
</stationlist>
