<?xml version="1.0" encoding="UTF-8" standalone="yes"?>
<!DOCTYPE earthquake SYSTEM "stationlist.dtd">
<stationlist created="" xmlns="ch.ethz.sed.shakemap.usgs.xml">
  <station code="ZKR" name="ZKR" netid="GE" insttype="STS-2/N" lat="35.1147" lon="26.2169">
    <comp name="--.HHE">
      <acc value="0.0027303080" flag="0"/>
      <vel value="0.0024098194" flag="0"/>
      <psa03 value="0.0084724229" flag="0"/>
      <psa10 value="0.0036599124" flag="0"/>
      <psa30 value="0.0012766962" flag="0"/>
    </comp>
    <comp name="--.HHN">
      <acc value="0.0017898880" flag="0"/>
      <vel value="0.0011369172" flag="0"/>
      <psa03 value="0.0042370018" flag="0"/>
      <psa10 value="0.0016753391" flag="0"/>
      <psa30 value="0.0001874785" flag="0"/>
    </comp>
    <comp name="--.HHZ">
      <acc value="0.0023694743" flag="0"/>
      <vel value="0.0016708186" flag="0"/>
      <psa03 value="0.0051337495" flag="0"/>
      <psa10 value="0.0017462170" flag="0"/>
      <psa30 value="0.0002665268" flag="0"/>
    </comp>
  </station>
  <station code="ZKR" name="ZKR" netid="HL" insttype="120" lat="35.1147" lon="26.2169">
    <comp name="--.HHE">
      <acc value="0.0026897773" flag="0"/>
      <vel value="0.0023761855" flag="0"/>
      <psa03 value="0.0082611271" flag="0"/>
      <psa10 value="0.0036340362" flag="0"/>
      <psa30 value="0.0012768018" flag="0"/>
    </comp>
    <comp name="--.HHN">
      <acc value="0.0017369051" flag="0"/>
      <vel value="0.0011306049" flag="0"/>
      <psa03 value="0.0041208671" flag="0"/>
      <psa10 value="0.0016662509" flag="0"/>
      <psa30 value="0.0001871249" flag="0"/>
    </comp>
    <comp name="--.HHZ">
      <acc value="0.0023028160" flag="0"/>
      <vel value="0.0016469913" flag="0"/>
      <psa03 value="0.0049918586" flag="0"/>
      <psa10 value="0.0017330651" flag="0"/>
      <psa30 value="0.0002663500" flag="0"/>
    </comp>
  </station>
</stationlist>
