<?xml version="1.0" encoding="UTF-8" standalone="yes"?>
<!DOCTYPE earthquake SYSTEM "stationlist.dtd">
<stationlist created="" xmlns="ch.ethz.sed.shakemap.usgs.xml">
  <station code="VLS" name="VLS" netid="HL" source="NOA" insttype="120P," lat="38.1768" lon="20.5886">
    <comp name="--.HHE">
      <acc value="0.1491871646" flag="0"/>
      <vel value="0.0370586968" flag="0"/>
      <psa03 value="0.1021965505" flag="0"/>
      <psa10 value="0.0152997277" flag="0"/>
      <psa30 value="0.0013030447" flag="0"/>
    </comp>
    <comp name="--.HHN">
      <acc value="0.0993088996" flag="0"/>
      <vel value="0.0267117222" flag="0"/>
      <psa03 value="0.1567072733" flag="0"/>
      <psa10 value="0.0170813755" flag="0"/>
      <psa30 value="0.0013395403" flag="0"/>
    </comp>
    <comp name="--.HHZ">
      <acc value="0.0630483943" flag="0"/>
      <vel value="0.0173416444" flag="0"/>
      <psa03 value="0.1037607074" flag="0"/>
      <psa10 value="0.0168164892" flag="0"/>
      <psa30 value="0.0013535376" flag="0"/>
    </comp>
  </station>
  <station code="FSK" name="FSK" netid="HP" source="NOA" insttype="40," lat="38.4593" lon="20.5623">
    <comp name="--.HHE">
      <acc value="0.0386638551" flag="0"/>
      <vel value="0.0165226878" flag="0"/>
      <psa03 value="0.0708258238" flag="0"/>
      <psa10 value="0.0134117417" flag="0"/>
      <psa30 value="0.0027618223" flag="0"/>
    </comp>
    <comp name="--.HHN">
      <acc value="0.0240408130" flag="0"/>
      <vel value="0.0177624471" flag="0"/>
      <psa03 value="0.0435766661" flag="0"/>
      <psa10 value="0.0207809000" flag="0"/>
      <psa30 value="0.0021484557" flag="0"/>
    </comp>
    <comp name="--.HHZ">
      <acc value="0.0235720432" flag="0"/>
      <vel value="0.0111423548" flag="0"/>
      <psa03 value="0.0510419383" flag="0"/>
      <psa10 value="0.0074338411" flag="0"/>
      <psa30 value="0.0006518119" flag="0"/>
    </comp>
  </station>
  <station code="LTHK" name="LTHK" netid="HP" source="NOA" insttype="40," lat="37.7095" lon="20.8367">
    <comp name="--.HHE">
      <acc value="1.1243008460" flag="0"/>
      <vel value="0.2389986232" flag="0"/>
      <psa03 value="1.0481329409" flag="0"/>
      <psa10 value="0.1001348843" flag="0"/>
      <psa30 value="0.0070275940" flag="0"/>
    </comp>
    <comp name="--.HHN">
      <acc value="1.2000616381" flag="0"/>
      <vel value="0.2738002426" flag="0"/>
      <psa03 value="1.0783936428" flag="0"/>
      <psa10 value="0.1481863909" flag="0"/>
      <psa30 value="0.0156979271" flag="0"/>
    </comp>
    <comp name="--.HHZ">
      <acc value="0.5333545030" flag="0"/>
      <vel value="0.0933800641" flag="0"/>
      <psa03 value="0.5494889174" flag="0"/>
      <psa10 value="0.0507027492" flag="0"/>
      <psa30 value="0.0040752672" flag="0"/>
    </comp>
  </station>
  <station code="DMLN" name="DMLN" netid="HT" source="NOA" insttype="1s-100Hz," lat="38.2385" lon="20.3734">
    <comp name="--.HHE">
      <acc value="0.1549418314" flag="0"/>
      <vel value="0.0765203205" flag="0"/>
      <psa03 value="0.2743418835" flag="0"/>
      <psa10 value="0.0712657774" flag="0"/>
      <psa30 value="0.0039434716" flag="0"/>
    </comp>
    <comp name="--.HHN">
      <acc value="0.2474137921" flag="0"/>
      <vel value="0.1009845646" flag="0"/>
      <psa03 value="0.5441483014" flag="0"/>
      <psa10 value="0.1028181252" flag="0"/>
      <psa30 value="0.0055400635" flag="0"/>
    </comp>
    <comp name="--.HHZ">
      <acc value="0.1239653327" flag="0"/>
      <vel value="0.0438319843" flag="0"/>
      <psa03 value="0.2353626364" flag="0"/>
      <psa10 value="0.0276978938" flag="0"/>
      <psa30 value="0.0023030903" flag="0"/>
    </comp>
  </station>
  <station code="PSDA" name="PSDA" netid="HT" source="NOA" insttype="30" lat="38.114" lon="20.5841">
    <comp name="--.HHE">
      <acc value="0.1346835682" flag="0"/>
      <vel value="0.0468298352" flag="0"/>
      <psa03 value="0.2564495805" flag="0"/>
      <psa10 value="0.0335638078" flag="0"/>
      <psa30 value="0.0015502849" flag="0"/>
    </comp>
    <comp name="--.HHN">
      <acc value="0.1451736666" flag="0"/>
      <vel value="0.0412776395" flag="0"/>
      <psa03 value="0.2957353753" flag="0"/>
      <psa10 value="0.0409114491" flag="0"/>
      <psa30 value="0.0025355797" flag="0"/>
    </comp>
    <comp name="--.HHZ">
      <acc value="0.1109651244" flag="0"/>
      <vel value="0.0314123366" flag="0"/>
      <psa03 value="0.0952737774" flag="0"/>
      <psa10 value="0.0204257377" flag="0"/>
      <psa30 value="0.0014623681" flag="0"/>
    </comp>
  </station>
</stationlist>
