<?xml version="1.0" encoding="UTF-8" standalone="yes"?>
<!DOCTYPE earthquake SYSTEM "stationlist.dtd">
<stationlist created="" xmlns="ch.ethz.sed.shakemap.usgs.xml">
  <station code="GAZ" name="GAZ" netid="KO" insttype="CMG-3T" lat="37.1721" lon="37.2096">
    <comp name="--.HHE">
      <acc value="0.0036524538" flag="0"/>
      <vel value="0.0011784374" flag="0"/>
      <psa03 value="0.0059657524" flag="0"/>
      <psa10 value="0.0006047374" flag="0"/>
      <psa30 value="0.0000591472" flag="0"/>
    </comp>
    <comp name="--.HHZ">
      <acc value="0.0025501556" flag="0"/>
      <vel value="0.0006313753" flag="0"/>
      <psa03 value="0.0042381623" flag="0"/>
      <psa10 value="0.0003051420" flag="0"/>
      <psa30 value="0.0000862142" flag="0"/>
    </comp>
  </station>
  <station code="ANDN" name="ANDN" netid="TU" insttype="T" lat="37.58" lon="36.3452">
    <comp name="--.HHZ">
      <acc value="0.0132964253" flag="0"/>
      <vel value="0.0040171168" flag="0"/>
      <psa03 value="0.0164307079" flag="0"/>
      <psa10 value="0.0064337382" flag="0"/>
      <psa30 value="0.0002823969" flag="0"/>
    </comp>
    <comp name="--.HHN">
      <acc value="0.0348692943" flag="0"/>
      <vel value="0.0071556008" flag="0"/>
      <psa03 value="0.0323619924" flag="0"/>
      <psa10 value="0.0054673009" flag="0"/>
      <psa30 value="0.0004611943" flag="0"/>
    </comp>
    <comp name="--.HHE">
      <acc value="0.0181854715" flag="0"/>
      <vel value="0.0040052266" flag="0"/>
      <psa03 value="0.0206270631" flag="0"/>
      <psa10 value="0.0061088998" flag="0"/>
      <psa30 value="0.0004888757" flag="0"/>
    </comp>
  </station>
</stationlist>
