<?xml version="1.0" encoding="UTF-8" standalone="yes"?>
<!DOCTYPE earthquake SYSTEM "stationlist.dtd">
<stationlist created="" xmlns="ch.ethz.sed.shakemap.usgs.xml">
  <station code="DARE" name="DARE" netid="KO" insttype="CMG-3ESP" lat="38.5712" lon="37.4832">
    <comp name="--.HHE">
      <acc value="0.0069930558" flag="0"/>
      <vel value="0.0049323985" flag="0"/>
      <psa03 value="0.0290046426" flag="0"/>
      <psa10 value="0.0053599074" flag="0"/>
      <psa30 value="0.0005352171" flag="0"/>
    </comp>
    <comp name="--.HHN">
      <acc value="0.0093710719" flag="0"/>
      <vel value="0.0042938935" flag="0"/>
      <psa03 value="0.0271079638" flag="0"/>
      <psa10 value="0.0056096585" flag="0"/>
      <psa30 value="0.0008844864" flag="0"/>
    </comp>
    <comp name="--.HHZ">
      <acc value="0.0080509737" flag="0"/>
      <vel value="0.0053936534" flag="0"/>
      <psa03 value="0.0256481015" flag="0"/>
      <psa10 value="0.0091845269" flag="0"/>
      <psa30 value="0.0007049893" flag="0"/>
    </comp>
  </station>
  <station code="URFA" name="URFA" netid="KO" insttype="CMG-3ESP" lat="37.4409" lon="38.8213">
    <comp name="--.HHE">
      <acc value="0.1437776716" flag="0"/>
      <vel value="0.0270493040" flag="0"/>
      <psa03 value="0.1144157855" flag="0"/>
      <psa10 value="0.0144541532" flag="0"/>
      <psa30 value="0.0006620072" flag="0"/>
    </comp>
    <comp name="--.HHN">
      <acc value="0.1372826939" flag="0"/>
      <vel value="0.0404993729" flag="0"/>
      <psa03 value="0.1236829899" flag="0"/>
      <psa10 value="0.0294890142" flag="0"/>
      <psa30 value="0.0014072986" flag="0"/>
    </comp>
    <comp name="--.HHZ">
      <acc value="0.1149310258" flag="0"/>
      <vel value="0.0201593832" flag="0"/>
      <psa03 value="0.0557313245" flag="0"/>
      <psa10 value="0.0080529735" flag="0"/>
      <psa30 value="0.0006684053" flag="0"/>
    </comp>
  </station>
</stationlist>
