<?xml version="1.0" encoding="UTF-8" standalone="yes"?>
<!DOCTYPE earthquake SYSTEM "stationlist.dtd">
<stationlist created="" xmlns="ch.ethz.sed.shakemap.usgs.xml">
  <station code="ARG" name="ARG" netid="HL" insttype="LE3D20_DR24" lat="36.2136" lon="28.1212">
    <comp name="--.HHE">
      <acc value="0.0373987240" flag="0"/>
      <vel value="0.0249949671" flag="0"/>
      <psa03 value="0.0917331802" flag="0"/>
      <psa10 value="0.0322393434" flag="0"/>
      <psa30 value="0.0051975176" flag="0"/>
    </comp>
    <comp name="--.HHN">
      <acc value="0.0141615666" flag="0"/>
      <vel value="0.0072851992" flag="0"/>
      <psa03 value="0.0266524292" flag="0"/>
      <psa10 value="0.0124961569" flag="0"/>
      <psa30 value="0.0012978995" flag="0"/>
    </comp>
    <comp name="--.HHZ">
      <acc value="0.0127283393" flag="0"/>
      <vel value="0.0099592646" flag="0"/>
      <psa03 value="0.0232753573" flag="0"/>
      <psa10 value="0.0141754561" flag="0"/>
      <psa30 value="0.0025184364" flag="0"/>
    </comp>
  </station>
  <station code="NISR" name="NISR" netid="HL" insttype="65535" lat="36.6106" lon="27.131">
    <comp name="--.HHN">
      <acc value="0.8118196205" flag="0"/>
      <vel value="0.2413236617" flag="0"/>
      <psa03 value="1.2693523831" flag="0"/>
      <psa10 value="0.0910996744" flag="0"/>
      <psa30 value="0.0965777074" flag="0"/>
    </comp>
    <comp name="--.HHE">
      <acc value="1.2193958849" flag="0"/>
      <vel value="0.4190845654" flag="0"/>
      <psa03 value="2.8540018547" flag="0"/>
      <psa10 value="0.0911025627" flag="0"/>
      <psa30 value="0.0083227723" flag="0"/>
    </comp>
    <comp name="--.HHZ">
      <acc value="0.3503257680" flag="0"/>
      <vel value="0.1037858199" flag="0"/>
      <psa03 value="0.6384740719" flag="0"/>
      <psa10 value="0.0526935129" flag="0"/>
      <psa30 value="0.0020424190" flag="0"/>
    </comp>
  </station>
</stationlist>
