<stationlist created="1778138293">
	<station code="KRL1" name="KRL1" netid="HI" source="ITSAK Strong Motion Network" insttype="" lat="37.7951" lon="26.7065">
		<comp name="--.HNE" depth="0.0">
			<acc value="0.00706056400405974" flag="0"/>
			<vel value="0.00742378601824802" flag="0"/>
			<psa03 value="0.0150584467669384" flag="0"/>
			<psa10 value="0.0147602737331825" flag="0"/>
			<psa30 value="0.00104801984283942" flag="0"/>
		</comp>
		<comp name="--.HNN" depth="0.0">
			<acc value="0.00572220372210078" flag="0"/>
			<vel value="0.00571619598608747" flag="0"/>
			<psa03 value="0.0126761795784455" flag="0"/>
			<psa10 value="0.0105842689683823" flag="0"/>
			<psa30 value="0.00136709254233794" flag="0"/>
		</comp>
		<comp name="--.HNZ" depth="0.0">
			<acc value="0.00272244043431716" flag="0"/>
			<vel value="0.00224585799762415" flag="0"/>
			<psa03 value="0.00741476397817046" flag="0"/>
			<psa10 value="0.00706840496590191" flag="0"/>
			<psa30 value="0.000688143086103324" flag="0"/>
		</comp>
	</station>
	<station code="KSS1" name="KSS1" netid="HI" source="ITSAK Strong Motion Network" insttype="" lat="35.4189" lon="26.9207">
		<comp name="--.HNE" depth="0.0">
			<acc value="0.0132196917898558" flag="0"/>
			<vel value="0.00418948581086374" flag="0"/>
			<psa03 value="0.0458136755561715" flag="0"/>
			<psa10 value="0.00259667998605431" flag="0"/>
			<psa30 value="0.00050364565571995" flag="0"/>
		</comp>
		<comp name="--.HNN" depth="0.0">
			<acc value="0.0123883630000273" flag="0"/>
			<vel value="0.00382304266491041" flag="0"/>
			<psa03 value="0.0293554342367929" flag="0"/>
			<psa10 value="0.00399943509919804" flag="0"/>
			<psa30 value="0.00062869946075596" flag="0"/>
		</comp>
		<comp name="--.HNZ" depth="0.0">
			<acc value="0.00699965946706" flag="0"/>
			<vel value="0.00290329113373544" flag="0"/>
			<psa03 value="0.0105076563671324" flag="0"/>
			<psa10 value="0.00418267505044695" flag="0"/>
			<psa30 value="0.000549451346370745" flag="0"/>
		</comp>
	</station>
	<station code="AGNA" name="AGNA" netid="HL" source="National Observatory of Athens Seismic Network" insttype="" lat="35.1895" lon="25.71853">
		<comp name="00.HNE" depth="0.0">
			<acc value="0.00327885412788951" flag="0"/>
			<vel value="0.00268082009330696" flag="0"/>
			<psa03 value="0.00955978888806749" flag="0"/>
			<psa10 value="0.00428712509476224" flag="0"/>
			<psa30 value="0.000652477285917818" flag="0"/>
		</comp>
		<comp name="00.HNN" depth="0.0">
			<acc value="0.00457729936072875" flag="0"/>
			<vel value="0.00434018606571152" flag="0"/>
			<psa03 value="0.00948369986317532" flag="0"/>
			<psa10 value="0.0106061966709698" flag="0"/>
			<psa30 value="0.00136687013177288" flag="0"/>
		</comp>
		<comp name="00.HNZ" depth="0.0">
			<acc value="0.0107273117517099" flag="0"/>
			<vel value="0.00166562772771711" flag="0"/>
			<psa03 value="0.00442449980712895" flag="0"/>
			<psa10 value="0.00185413899948208" flag="0"/>
			<psa30 value="0.000670503063372548" flag="0"/>
		</comp>
	</station>
	<station code="KARP" name="KARP" netid="HL" source="National Observatory of Athens Seismic Network" insttype="" lat="35.5471" lon="27.16106">
		<comp name="--.HNE" depth="0.0">
			<acc value="0.0527151154710449" flag="0"/>
			<vel value="0.0113385188614239" flag="0"/>
			<psa03 value="0.0504518317695345" flag="0"/>
			<psa10 value="0.0196054156375539" flag="0"/>
			<psa30 value="0.000669469296970485" flag="0"/>
		</comp>
		<comp name="--.HNN" depth="0.0">
			<acc value="0.0986722330652753" flag="0"/>
			<vel value="0.0239508867209815" flag="0"/>
			<psa03 value="0.0562563204550863" flag="0"/>
			<psa10 value="0.0294773277283144" flag="0"/>
			<psa30 value="0.00175207481635862" flag="0"/>
		</comp>
		<comp name="--.HNZ" depth="0.0">
			<acc value="0.0237263350463926" flag="0"/>
			<vel value="0.00962908352027734" flag="0"/>
			<psa03 value="0.0325381112193325" flag="0"/>
			<psa10 value="0.0117985909737366" flag="0"/>
			<psa30 value="0.00106747915275536" flag="0"/>
		</comp>
	</station>
	<station code="KLNA" name="KLNA" netid="HL" source="National Observatory of Athens Seismic Network" insttype="" lat="36.95708" lon="26.97274">
		<comp name="00.HNE" depth="0.0">
			<acc value="0.0257556054555798" flag="0"/>
			<vel value="0.0113316702162072" flag="0"/>
			<psa03 value="0.0735476325861978" flag="0"/>
			<psa10 value="0.00760007721779742" flag="0"/>
			<psa30 value="0.00183467112128949" flag="0"/>
		</comp>
		<comp name="00.HNN" depth="0.0">
			<acc value="0.0249533099955287" flag="0"/>
			<vel value="0.0106448733867644" flag="0"/>
			<psa03 value="0.064734439380532" flag="0"/>
			<psa10 value="0.00400243857941408" flag="0"/>
			<psa30 value="0.000871494919762427" flag="0"/>
		</comp>
		<comp name="00.HNZ" depth="0.0">
			<acc value="0.0340969873456117" flag="0"/>
			<vel value="0.00882068654089534" flag="0"/>
			<psa03 value="0.0262465017227768" flag="0"/>
			<psa10 value="0.00393893187240456" flag="0"/>
			<psa30 value="0.00113124598115965" flag="0"/>
		</comp>
	</station>
	<station code="NISR" name="NISR" netid="HL" source="National Observatory of Athens Seismic Network" insttype="" lat="36.6106" lon="27.131">
		<comp name="--.HNE" depth="0.0">
			<acc value="1.08400639485005" flag="0"/>
			<vel value="0.377301980527234" flag="0"/>
			<psa03 value="2.5733756401728" flag="0"/>
			<psa10 value="0.0841925298418195" flag="0"/>
			<psa30 value="0.0106938734166259" flag="0"/>
		</comp>
		<comp name="--.HNN" depth="0.0">
			<acc value="0.752909519425779" flag="0"/>
			<vel value="0.260196550770949" flag="0"/>
			<psa03 value="1.52144195472912" flag="0"/>
			<psa10 value="0.0540314455680365" flag="0"/>
			<psa30 value="0.0138138542667184" flag="0"/>
		</comp>
		<comp name="--.HNZ" depth="0.0">
			<acc value="0.31433598038346" flag="0"/>
			<vel value="0.0914004979692956" flag="0"/>
			<psa03 value="0.52494344159466" flag="0"/>
			<psa10 value="0.0547180072995531" flag="0"/>
			<psa30 value="0.00294921182914294" flag="0"/>
		</comp>
	</station>
	<station code="RODB" name="RODB" netid="HL" source="National Observatory of Athens Seismic Network" insttype="" lat="36.4471" lon="28.22116">
		<comp name="00.HNE" depth="0.0">
			<acc value="0.00909985385491061" flag="0"/>
			<vel value="0.0153968349879348" flag="0"/>
			<psa03 value="0.0224333845391369" flag="0"/>
			<psa10 value="0.0190413257694016" flag="0"/>
			<psa30 value="0.00672068062879592" flag="0"/>
		</comp>
		<comp name="00.HNN" depth="0.0">
			<acc value="0.00944626991852181" flag="0"/>
			<vel value="0.0165532198527575" flag="0"/>
			<psa03 value="0.0277302770989221" flag="0"/>
			<psa10 value="0.0185332946148022" flag="0"/>
			<psa30 value="0.009214993781453" flag="0"/>
		</comp>
		<comp name="00.HNZ" depth="0.0">
			<acc value="0.0071799743080039" flag="0"/>
			<vel value="0.00803470227460903" flag="0"/>
			<psa03 value="0.0127943293323778" flag="0"/>
			<psa10 value="0.0153152326839907" flag="0"/>
			<psa30 value="0.00253011594109908" flag="0"/>
		</comp>
	</station>
	<station code="SMG" name="SMG" netid="HL" source="National Observatory of Athens Seismic Network" insttype="" lat="37.70425" lon="26.83772">
		<comp name="00.HNE" depth="0.0">
			<acc value="0.00677485648747629" flag="0"/>
			<vel value="0.00413177765285089" flag="0"/>
			<psa03 value="0.0208487990993791" flag="0"/>
			<psa10 value="0.00329825021163846" flag="0"/>
			<psa30 value="0.000919869686852613" flag="0"/>
		</comp>
		<comp name="00.HNN" depth="0.0">
			<acc value="0.00510010723977744" flag="0"/>
			<vel value="0.00304831658360109" flag="0"/>
			<psa03 value="0.0138768997452409" flag="0"/>
			<psa10 value="0.00365100022022049" flag="0"/>
			<psa30 value="0.000438509517853624" flag="0"/>
		</comp>
		<comp name="00.HNZ" depth="0.0">
			<acc value="0.00231567774515146" flag="0"/>
			<vel value="0.00182258457346523" flag="0"/>
			<psa03 value="0.00634922529251347" flag="0"/>
			<psa10 value="0.00251263785617763" flag="0"/>
			<psa30 value="0.000491041956202964" flag="0"/>
		</comp>
	</station>
	<station code="THRA" name="THRA" netid="HL" source="National Observatory of Athens Seismic Network" insttype="" lat="36.41502" lon="25.43244">
		<comp name="00.HNE" depth="0.0">
			<acc value="0.0195295977089938" flag="0"/>
			<vel value="0.0157715978960349" flag="0"/>
			<psa03 value="0.0451272550842574" flag="0"/>
			<psa10 value="0.0187072405128759" flag="0"/>
			<psa30 value="0.00375782060384138" flag="0"/>
		</comp>
		<comp name="00.HNN" depth="0.0">
			<acc value="0.0199559614928077" flag="0"/>
			<vel value="0.0139849251440701" flag="0"/>
			<psa03 value="0.0470004989688465" flag="0"/>
			<psa10 value="0.024941404120621" flag="0"/>
			<psa30 value="0.00323364296297832" flag="0"/>
		</comp>
		<comp name="00.HNZ" depth="0.0">
			<acc value="0.0121367159137873" flag="0"/>
			<vel value="0.00734118016561382" flag="0"/>
			<psa03 value="0.0343577734296954" flag="0"/>
			<psa10 value="0.00512020715733469" flag="0"/>
			<psa30 value="0.000888113416489533" flag="0"/>
		</comp>
	</station>
</stationlist>
