<?xml version="1.0" encoding="UTF-8" standalone="yes"?>
<!DOCTYPE earthquake SYSTEM "stationlist.dtd">
<stationlist created="" xmlns="ch.ethz.sed.shakemap.usgs.xml">
  <station code="BNN" name="BNN" netid="KO" insttype="CMG-3T" lat="38.8521" lon="35.8472">
    <comp name="--.HHZ">
      <acc value="0.0070936161" flag="0"/>
      <vel value="0.0032357021" flag="0"/>
      <psa03 value="0.0136434412" flag="0"/>
      <psa10 value="0.0029310889" flag="0"/>
      <psa30 value="0.0003077382" flag="0"/>
    </comp>
    <comp name="--.HHN">
      <acc value="0.0084372502" flag="0"/>
      <vel value="0.0055945491" flag="0"/>
      <psa03 value="0.0244977262" flag="0"/>
      <psa10 value="0.0101654009" flag="0"/>
      <psa30 value="0.0008515904" flag="0"/>
    </comp>
    <comp name="--.HHE">
      <acc value="0.0116668436" flag="0"/>
      <vel value="0.0090764414" flag="0"/>
      <psa03 value="0.0181386993" flag="0"/>
      <psa10 value="0.0142204139" flag="0"/>
      <psa30 value="0.0008601835" flag="0"/>
    </comp>
  </station>
  <station code="DARE" name="DARE" netid="KO" insttype="CMG-3ESP" lat="38.5712" lon="37.4832">
    <comp name="--.HHE">
      <acc value="0.0245044418" flag="0"/>
      <vel value="0.0082964035" flag="0"/>
      <psa03 value="0.0496353599" flag="0"/>
      <psa10 value="0.0068621632" flag="0"/>
      <psa30 value="0.0004266842" flag="0"/>
    </comp>
    <comp name="--.HHZ">
      <acc value="0.0155693208" flag="0"/>
      <vel value="0.0083869529" flag="0"/>
      <psa03 value="0.0331579375" flag="0"/>
      <psa10 value="0.0054771217" flag="0"/>
      <psa30 value="0.0003578202" flag="0"/>
    </comp>
  </station>
  <station code="GAZ" name="GAZ" netid="KO" insttype="CMG-3T" lat="37.1721" lon="37.2096">
    <comp name="--.HHZ">
      <acc value="0.0284708204" flag="0"/>
      <vel value="0.0120568091" flag="0"/>
      <psa03 value="0.0624141494" flag="0"/>
      <psa10 value="0.0087725088" flag="0"/>
      <psa30 value="0.0007031161" flag="0"/>
    </comp>
    <comp name="--.HHE">
      <acc value="0.0447286141" flag="0"/>
      <vel value="0.0224311383" flag="0"/>
      <psa03 value="0.1265829519" flag="0"/>
      <psa10 value="0.0200112391" flag="0"/>
      <psa30 value="0.0011275692" flag="0"/>
    </comp>
  </station>
  <station code="ANDN" name="ANDN" netid="TU" insttype="T" lat="37.58" lon="36.3452">
    <comp name="--.HHN">
      <acc value="0.2163779960" flag="0"/>
      <vel value="0.0528742432" flag="0"/>
      <psa03 value="0.2609548879" flag="0"/>
      <psa10 value="0.0620652770" flag="0"/>
      <psa30 value="0.0025250571" flag="0"/>
    </comp>
    <comp name="--.HHE">
      <acc value="0.1279284111" flag="0"/>
      <vel value="0.0504789921" flag="0"/>
      <psa03 value="0.3039150540" flag="0"/>
      <psa10 value="0.0314318903" flag="0"/>
      <psa30 value="0.0017849208" flag="0"/>
    </comp>
    <comp name="--.HHZ">
      <acc value="0.1077014668" flag="0"/>
      <vel value="0.0328868167" flag="0"/>
      <psa03 value="0.1357193277" flag="0"/>
      <psa10 value="0.0301298822" flag="0"/>
      <psa30 value="0.0018458435" flag="0"/>
    </comp>
  </station>
</stationlist>
