<stationlist xmlns:esm="https://esm-db.eu/esmws/shakemap/1/" created="1780710921">
	<station code="BERA1" name="BERA1" netid="AC" source="Albanian Seismological Network (AC)" insttype="" lat="40.708161" lon="19.945463" esm:processing="manual (Paolucci et al 2011)" esm:quality="good">
		<comp name="00.HNE" depth="None">
			<acc value="1.54194858684419" flag="0"/>
			<vel value="0.910635039595001" flag="0"/>
			<psa03 value="5.32678340893834" flag="0"/>
			<psa10 value="1.00843519910584" flag="0"/>
			<psa30 value="0.148642111405156" flag="0"/>
		</comp>
		<comp name="00.HNN" depth="None">
			<acc value="1.0922240106038" flag="0"/>
			<vel value="0.676777969089913" flag="0"/>
			<psa03 value="3.29978248030416" flag="0"/>
			<psa10 value="0.894271432120721" flag="0"/>
			<psa30 value="0.103602369112873" flag="0"/>
		</comp>
		<comp name="00.HNZ" depth="None">
			<acc value="0.817215634859182" flag="0"/>
			<vel value="0.534259499846608" flag="0"/>
			<psa03 value="1.97809769680041" flag="0"/>
			<psa10 value="0.516070481219198" flag="0"/>
			<psa30 value="0.0785172035502727" flag="0"/>
		</comp>
	</station>
	<station code="ELBAS" name="ELBAS" netid="AC" source="Albanian Seismological Network (AC)" insttype="" lat="41.1161" lon="20.0799" esm:processing="manual (Paolucci et al 2011)" esm:quality="good">
		<comp name="00.HNE" depth="None">
			<acc value="1.39556276087801" flag="0"/>
			<vel value="0.872943224094169" flag="0"/>
			<psa03 value="5.83760518189915" flag="0"/>
			<psa10 value="1.67269992224194" flag="0"/>
			<psa30 value="0.13835185130502" flag="0"/>
		</comp>
		<comp name="00.HNN" depth="None">
			<acc value="2.01185042604661" flag="0"/>
			<vel value="1.7033313498393" flag="0"/>
			<psa03 value="5.32432258757434" flag="0"/>
			<psa10 value="2.86467257453866" flag="0"/>
			<psa30 value="0.314265679910211" flag="0"/>
		</comp>
		<comp name="00.HNZ" depth="None">
			<acc value="1.22370410506608" flag="0"/>
			<vel value="0.960795170353567" flag="0"/>
			<psa03 value="3.21401167021693" flag="0"/>
			<psa10 value="2.17365380153309" flag="0"/>
			<psa30 value="0.179106632469471" flag="0"/>
		</comp>
	</station>
	<station code="FIER" name="FIER" netid="AC" source="Albanian Seismological Network (AC)" insttype="" lat="40.7174" lon="19.5669" esm:processing="manual (Paolucci et al 2011)" esm:quality="good">
		<comp name="00.HNE" depth="None">
			<acc value="1.77206640794889" flag="0"/>
			<vel value="1.52503828727796" flag="0"/>
			<psa03 value="4.86419373471203" flag="0"/>
			<psa10 value="3.49481420637527" flag="0"/>
			<psa30 value="0.319251751415751" flag="0"/>
		</comp>
		<comp name="00.HNN" depth="None">
			<acc value="1.82212753246788" flag="0"/>
			<vel value="1.19034356721208" flag="0"/>
			<psa03 value="5.41121195282702" flag="0"/>
			<psa10 value="2.21113121606275" flag="0"/>
			<psa30 value="0.390220944709522" flag="0"/>
		</comp>
		<comp name="00.HNZ" depth="None">
			<acc value="0.898157069010396" flag="0"/>
			<vel value="0.752735908321406" flag="0"/>
			<psa03 value="2.02615082670844" flag="0"/>
			<psa10 value="0.967949766025228" flag="0"/>
			<psa30 value="0.183798300255463" flag="0"/>
		</comp>
	</station>
	<station code="TIR1" name="TIR1" netid="AC" source="Albanian Seismological Network (AC)" insttype="" lat="41.3357" lon="19.8078" esm:processing="manual (Paolucci et al 2011)" esm:quality="best">
		<comp name="00.HNE" depth="None">
			<acc value="11.4294068422513" flag="0"/>
			<vel value="7.59476235482097" flag="0"/>
			<psa03 value="27.6411088578756" flag="0"/>
			<psa10 value="17.7035784178351" flag="0"/>
			<psa30 value="1.27765845219137" flag="0"/>
		</comp>
		<comp name="00.HNN" depth="None">
			<acc value="11.0718212943184" flag="0"/>
			<vel value="6.65227368656236" flag="0"/>
			<psa03 value="25.2140231176609" flag="0"/>
			<psa10 value="11.0620989580668" flag="0"/>
			<psa30 value="1.04811750957765" flag="0"/>
		</comp>
		<comp name="00.HNZ" depth="None">
			<acc value="4.39595048418593" flag="0"/>
			<vel value="2.17256599229108" flag="0"/>
			<psa03 value="5.22566602198105" flag="0"/>
			<psa10 value="5.09200762815029" flag="0"/>
			<psa30 value="0.36634202903735" flag="0"/>
		</comp>
	</station>
	<station code="BLKB" name="BLKB" netid="BS" source="National Seismic Network of Bulgaria (BS)" insttype="" lat="43.6227" lon="22.675" esm:processing="manual (Paolucci et al 2011)" esm:quality="best">
		<comp name="--.HNE" depth="0.0">
			<acc value="0.0595948188790491" flag="0"/>
			<vel value="0.127587665187442" flag="0"/>
			<psa03 value="0.108589335462546" flag="0"/>
			<psa10 value="0.140470842210461" flag="0"/>
			<psa30 value="0.0460482316294591" flag="0"/>
		</comp>
		<comp name="--.HNN" depth="0.0">
			<acc value="0.0759071418025266" flag="0"/>
			<vel value="0.121493438661868" flag="0"/>
			<psa03 value="0.164740804768477" flag="0"/>
			<psa10 value="0.149454629877344" flag="0"/>
			<psa30 value="0.0716725407818095" flag="0"/>
		</comp>
		<comp name="--.HNZ" depth="0.0">
			<acc value="0.0326006625442782" flag="0"/>
			<vel value="0.138321110006473" flag="0"/>
			<psa03 value="0.118343136505329" flag="0"/>
			<psa10 value="0.127327371594278" flag="0"/>
			<psa30 value="0.0284752825580667" flag="0"/>
		</comp>
	</station>
	<station code="MNNAM" name="MNNAM" netid="BS" source="National Seismic Network of Bulgaria (BS)" insttype="" lat="43.4111" lon="23.2262" esm:processing="manual (Paolucci et al 2011)" esm:quality="good">
		<comp name="--.HNE" depth="0.0">
			<acc value="0.178453069408765" flag="0"/>
			<vel value="0.352520943820711" flag="0"/>
			<psa03 value="0.303486387491737" flag="0"/>
			<psa10 value="0.416878351412688" flag="0"/>
			<psa30 value="0.16856850054467" flag="0"/>
		</comp>
		<comp name="--.HNN" depth="0.0">
			<acc value="0.138391639951224" flag="0"/>
			<vel value="0.375341792310466" flag="0"/>
			<psa03 value="0.282323323761295" flag="0"/>
			<psa10 value="0.38761560601814" flag="0"/>
			<psa30 value="0.101581811061992" flag="0"/>
		</comp>
		<comp name="--.HNZ" depth="0.0">
			<acc value="0.0838590578748266" flag="0"/>
			<vel value="0.217311290100839" flag="0"/>
			<psa03 value="0.165009258008186" flag="0"/>
			<psa10 value="0.268543171544933" flag="0"/>
			<psa30 value="0.0453690449329937" flag="0"/>
		</comp>
	</station>
	<station code="ARG2" name="ARG2" netid="HI" source="ITSAK Strong Motion Network" insttype="" lat="38.1783" lon="20.4878" esm:processing="manual (Paolucci et al 2011)" esm:quality="good">
		<comp name="--.HNE" depth="0.0">
			<acc value="0.15894493316069" flag="0"/>
			<vel value="0.0742264469685869" flag="0"/>
			<psa03 value="0.227245667414202" flag="0"/>
			<psa10 value="0.107704782037702" flag="0"/>
			<psa30 value="0.0234198606322682" flag="0"/>
		</comp>
		<comp name="--.HNN" depth="0.0">
			<acc value="0.119134072926531" flag="0"/>
			<vel value="0.0619033300759183" flag="0"/>
			<psa03 value="0.234538647092981" flag="0"/>
			<psa10 value="0.119547596707493" flag="0"/>
			<psa30 value="0.0212265976638405" flag="0"/>
		</comp>
		<comp name="--.HNZ" depth="0.0">
			<acc value="0.0838491146638182" flag="0"/>
			<vel value="0.0493661275620325" flag="0"/>
			<psa03 value="0.171765331207545" flag="0"/>
			<psa10 value="0.0693495254141889" flag="0"/>
			<psa30 value="0.0175980047070986" flag="0"/>
		</comp>
	</station>
	<station code="ART2" name="ART2" netid="HI" source="ITSAK Strong Motion Network" insttype="" lat="39.1474" lon="20.9937" esm:processing="manual (Paolucci et al 2011)" esm:quality="good">
		<comp name="--.HNE" depth="0.0">
			<acc value="0.0460608072607749" flag="0"/>
			<vel value="0.103011237807518" flag="0"/>
			<psa03 value="0.0833547309298403" flag="0"/>
			<psa10 value="0.120912681431416" flag="0"/>
			<psa30 value="0.0310090337188594" flag="0"/>
		</comp>
		<comp name="--.HNN" depth="0.0">
			<acc value="0.056923708514458" flag="0"/>
			<vel value="0.138235106729136" flag="0"/>
			<psa03 value="0.117090354720017" flag="0"/>
			<psa10 value="0.118025466838339" flag="0"/>
			<psa30 value="0.0353262092354565" flag="0"/>
		</comp>
		<comp name="--.HNZ" depth="0.0">
			<acc value="0.0509720730685195" flag="0"/>
			<vel value="0.100757137112209" flag="0"/>
			<psa03 value="0.0860840055335549" flag="0"/>
			<psa10 value="0.138614488057869" flag="0"/>
			<psa30 value="0.0409001933359607" flag="0"/>
		</comp>
	</station>
	<station code="AST1" name="AST1" netid="HI" source="ITSAK Strong Motion Network" insttype="" lat="38.5416" lon="21.0895" esm:processing="automatic (Paolucci et al 2011)" esm:quality="best">
		<comp name="--.HNE" depth="0.0">
			<acc value="0.052922659738609" flag="0"/>
			<vel value="0.130083782201937" flag="0"/>
			<psa03 value="0.138458318017384" flag="0"/>
			<psa10 value="0.148942166687573" flag="0"/>
			<psa30 value="0.0422936517468617" flag="0"/>
		</comp>
		<comp name="--.HNN" depth="0.0">
			<acc value="0.0686659161407963" flag="0"/>
			<vel value="0.119250116937893" flag="0"/>
			<psa03 value="0.113508988163393" flag="0"/>
			<psa10 value="0.234482363305789" flag="0"/>
			<psa30 value="0.0434134525948389" flag="0"/>
		</comp>
		<comp name="--.HNZ" depth="0.0">
			<acc value="0.0405174590794835" flag="0"/>
			<vel value="0.10449870128324" flag="0"/>
			<psa03 value="0.0834680605993747" flag="0"/>
			<psa10 value="0.124018270601777" flag="0"/>
			<psa30 value="0.0327893954698612" flag="0"/>
		</comp>
	</station>
	<station code="FLO2" name="FLO2" netid="HI" source="ITSAK Strong Motion Network" insttype="" lat="40.7801" lon="21.4052" esm:processing="manual (Paolucci et al 2011)" esm:quality="good">
		<comp name="--.HNE" depth="0.0">
			<acc value="0.313146732324722" flag="0"/>
			<vel value="0.3284671480836" flag="0"/>
			<psa03 value="1.16845648784117" flag="0"/>
			<psa10 value="0.419480378516374" flag="0"/>
			<psa30 value="0.0790955596926487" flag="0"/>
		</comp>
		<comp name="--.HNN" depth="0.0">
			<acc value="0.359553174252935" flag="0"/>
			<vel value="0.379280850804067" flag="0"/>
			<psa03 value="0.644296264798834" flag="0"/>
			<psa10 value="0.629252324878313" flag="0"/>
			<psa30 value="0.069378515986192" flag="0"/>
		</comp>
		<comp name="--.HNZ" depth="0.0">
			<acc value="0.155262867266966" flag="0"/>
			<vel value="0.223520789198309" flag="0"/>
			<psa03 value="0.512629334177535" flag="0"/>
			<psa10 value="0.277925601207092" flag="0"/>
			<psa30 value="0.0566753611311933" flag="0"/>
		</comp>
	</station>
	<station code="KAR2" name="KAR2" netid="HI" source="ITSAK Strong Motion Network" insttype="" lat="39.365759" lon="21.91933" esm:processing="automatic (Paolucci et al 2011)" esm:quality="best">
		<comp name="--.HNE" depth="0.0">
			<acc value="0.186625111175283" flag="0"/>
			<vel value="0.490984262781401" flag="0"/>
			<psa03 value="0.350158446278577" flag="0"/>
			<psa10 value="0.66879470436689" flag="0"/>
			<psa30 value="0.253459697127686" flag="0"/>
		</comp>
		<comp name="--.HNN" depth="0.0">
			<acc value="0.204545252866615" flag="0"/>
			<vel value="0.717311097703803" flag="0"/>
			<psa03 value="0.24603402771353" flag="0"/>
			<psa10 value="0.673765613665235" flag="0"/>
			<psa30 value="0.325598662646778" flag="0"/>
		</comp>
		<comp name="--.HNZ" depth="0.0">
			<acc value="0.119353778499108" flag="0"/>
			<vel value="0.207612596199853" flag="0"/>
			<psa03 value="0.217969397736195" flag="0"/>
			<psa10 value="0.307687932815495" flag="0"/>
			<psa30 value="0.0509637327638452" flag="0"/>
		</comp>
	</station>
	<station code="KAS2" name="KAS2" netid="HI" source="ITSAK Strong Motion Network" insttype="" lat="40.504878" lon="21.280507" esm:processing="manual (Paolucci et al 2011)" esm:quality="good">
		<comp name="--.HNE" depth="0.0">
			<acc value="0.211149036601423" flag="0"/>
			<vel value="0.23100712600259" flag="0"/>
			<psa03 value="0.488364351741535" flag="0"/>
			<psa10 value="0.449489116447986" flag="0"/>
			<psa30 value="0.0814997722932676" flag="0"/>
		</comp>
		<comp name="--.HNN" depth="0.0">
			<acc value="0.313032137550986" flag="0"/>
			<vel value="0.409209444648512" flag="0"/>
			<psa03 value="0.452069864076518" flag="0"/>
			<psa10 value="0.56458658109015" flag="0"/>
			<psa30 value="0.0888767276470222" flag="0"/>
		</comp>
		<comp name="--.HNZ" depth="0.0">
			<acc value="0.13099777750856" flag="0"/>
			<vel value="0.269883445651606" flag="0"/>
			<psa03 value="0.272961582365206" flag="0"/>
			<psa10 value="0.343921993144164" flag="0"/>
			<psa30 value="0.0542785956905789" flag="0"/>
		</comp>
	</station>
	<station code="KLV1" name="KLV1" netid="HI" source="ITSAK Strong Motion Network" insttype="" lat="38.03256" lon="22.10797" esm:processing="manual (Paolucci et al 2011)" esm:quality="good">
		<comp name="--.HNE" depth="0.0">
			<acc value="0.0235418462797721" flag="0"/>
			<vel value="0.0793975146766726" flag="0"/>
			<psa03 value="0.0863972009798828" flag="0"/>
			<psa10 value="0.0976498659443781" flag="0"/>
			<psa30 value="0.0245379683756588" flag="0"/>
		</comp>
		<comp name="--.HNN" depth="0.0">
			<acc value="0.0236328754530344" flag="0"/>
			<vel value="0.0539436547784131" flag="0"/>
			<psa03 value="0.0562409537191676" flag="0"/>
			<psa10 value="0.0749467754621346" flag="0"/>
			<psa30 value="0.013409239323496" flag="0"/>
		</comp>
		<comp name="--.HNZ" depth="0.0">
			<acc value="0.0154313541749409" flag="0"/>
			<vel value="0.0540364992021897" flag="0"/>
			<psa03 value="0.0300667628474786" flag="0"/>
			<psa10 value="0.0602811749767975" flag="0"/>
			<psa30 value="0.0113886812726149" flag="0"/>
		</comp>
	</station>
	<station code="KRK1" name="KRK1" netid="HI" source="ITSAK Strong Motion Network" insttype="" lat="39.618861" lon="19.9202" esm:processing="manual (Paolucci et al 2011)" esm:quality="good">
		<comp name="--.HNE" depth="0.0">
			<acc value="0.635443554648282" flag="0"/>
			<vel value="0.467532055277661" flag="0"/>
			<psa03 value="1.35139360869828" flag="0"/>
			<psa10 value="0.673973334550204" flag="0"/>
			<psa30 value="0.0655008008008851" flag="0"/>
		</comp>
		<comp name="--.HNN" depth="0.0">
			<acc value="0.568361186522526" flag="0"/>
			<vel value="0.340884081418939" flag="0"/>
			<psa03 value="1.46521778233516" flag="0"/>
			<psa10 value="0.467861648432143" flag="0"/>
			<psa30 value="0.0523761219114813" flag="0"/>
		</comp>
		<comp name="--.HNZ" depth="0.0">
			<acc value="0.348464558453396" flag="0"/>
			<vel value="0.167602888545334" flag="0"/>
			<psa03 value="1.10329807299996" flag="0"/>
			<psa10 value="0.293561671219672" flag="0"/>
			<psa30 value="0.0388595012921014" flag="0"/>
		</comp>
	</station>
	<station code="LMS2" name="LMS2" netid="HI" source="ITSAK Strong Motion Network" insttype="" lat="40.834985" lon="21.141815" esm:processing="manual (Paolucci et al 2011)" esm:quality="good">
		<comp name="--.HNE" depth="0.0">
			<acc value="0.264206297978811" flag="0"/>
			<vel value="0.232283033033443" flag="0"/>
			<psa03 value="0.713682937768053" flag="0"/>
			<psa10 value="0.200840606756363" flag="0"/>
			<psa30 value="0.0762434046099321" flag="0"/>
		</comp>
		<comp name="--.HNN" depth="0.0">
			<acc value="0.418921541570008" flag="0"/>
			<vel value="0.291343992866235" flag="0"/>
			<psa03 value="1.22374409321635" flag="0"/>
			<psa10 value="0.274837057749926" flag="0"/>
			<psa30 value="0.0651746301146379" flag="0"/>
		</comp>
		<comp name="--.HNZ" depth="0.0">
			<acc value="0.122899349726166" flag="0"/>
			<vel value="0.240567011862231" flag="0"/>
			<psa03 value="0.389391424198819" flag="0"/>
			<psa10 value="0.244623987886805" flag="0"/>
			<psa30 value="0.0848741762665968" flag="0"/>
		</comp>
	</station>
	<station code="MSL1" name="MSL1" netid="HI" source="ITSAK Strong Motion Network" insttype="" lat="38.3727" lon="21.4243" esm:processing="manual (Paolucci et al 2011)" esm:quality="good">
		<comp name="--.HNE" depth="0.0">
			<acc value="0.157800566060926" flag="0"/>
			<vel value="0.35255045653463" flag="0"/>
			<psa03 value="0.252435529740289" flag="0"/>
			<psa10 value="0.449322267697796" flag="0"/>
			<psa30 value="0.142596097024829" flag="0"/>
		</comp>
		<comp name="--.HNN" depth="0.0">
			<acc value="0.221576315055098" flag="0"/>
			<vel value="0.371142531679204" flag="0"/>
			<psa03 value="0.331360782214921" flag="0"/>
			<psa10 value="0.624270559484165" flag="0"/>
			<psa30 value="0.132857955754362" flag="0"/>
		</comp>
		<comp name="--.HNZ" depth="0.0">
			<acc value="0.0564050910783345" flag="0"/>
			<vel value="0.112068443112498" flag="0"/>
			<psa03 value="0.0996408941388912" flag="0"/>
			<psa10 value="0.26805592891486" flag="0"/>
			<psa30 value="0.0283097363935791" flag="0"/>
		</comp>
	</station>
	<station code="PLN1" name="PLN1" netid="HI" source="ITSAK Strong Motion Network" insttype="" lat="39.998" lon="23.575" esm:processing="manual (Paolucci et al 2011)" esm:quality="good">
		<comp name="--.HNE" depth="0.0">
			<acc value="0.0543754443871386" flag="0"/>
			<vel value="0.10090583591015" flag="0"/>
			<psa03 value="0.135210948400417" flag="0"/>
			<psa10 value="0.0883238003968655" flag="0"/>
			<psa30 value="0.0598498601049974" flag="0"/>
		</comp>
		<comp name="--.HNN" depth="0.0">
			<acc value="0.0477873406829396" flag="0"/>
			<vel value="0.0837543162496207" flag="0"/>
			<psa03 value="0.0995514097256547" flag="0"/>
			<psa10 value="0.106081982203658" flag="0"/>
			<psa30 value="0.0471412837371435" flag="0"/>
		</comp>
		<comp name="--.HNZ" depth="0.0">
			<acc value="0.0185922293806211" flag="0"/>
			<vel value="0.0635578673068876" flag="0"/>
			<psa03 value="0.0445184955851804" flag="0"/>
			<psa10 value="0.0443994813155758" flag="0"/>
			<psa30 value="0.0155367312481949" flag="0"/>
		</comp>
	</station>
	<station code="VAS2" name="VAS2" netid="HI" source="ITSAK Strong Motion Network" insttype="" lat="38.630558" lon="20.608081" esm:processing="manual (Paolucci et al 2011)" esm:quality="good">
		<comp name="--.HNE" depth="0.0">
			<acc value="0.319439119995157" flag="0"/>
			<vel value="0.506531912643801" flag="0"/>
			<psa03 value="0.582319819136807" flag="0"/>
			<psa10 value="0.807771771487683" flag="0"/>
			<psa30 value="0.0612015221669354" flag="0"/>
		</comp>
		<comp name="--.HNN" depth="0.0">
			<acc value="0.309346140807268" flag="0"/>
			<vel value="0.509356645112537" flag="0"/>
			<psa03 value="0.692654100657465" flag="0"/>
			<psa10 value="1.08239943571063" flag="0"/>
			<psa30 value="0.0906454734982876" flag="0"/>
		</comp>
		<comp name="--.HNZ" depth="0.0">
			<acc value="0.143684218134258" flag="0"/>
			<vel value="0.241418310026551" flag="0"/>
			<psa03 value="0.261607682097035" flag="0"/>
			<psa10 value="0.374081535938179" flag="0"/>
			<psa30 value="0.0363857046881771" flag="0"/>
		</comp>
	</station>
	<station code="VOL2" name="VOL2" netid="HI" source="ITSAK Strong Motion Network" insttype="" lat="39.366" lon="22.9506" esm:processing="manual (Paolucci et al 2011)" esm:quality="good">
		<comp name="--.HNE" depth="0.0">
			<acc value="0.0238884483752104" flag="0"/>
			<vel value="0.0776296279091621" flag="0"/>
			<psa03 value="0.089887093096108" flag="0"/>
			<psa10 value="0.0524812660970342" flag="0"/>
			<psa30 value="0.0374912846137146" flag="0"/>
		</comp>
		<comp name="--.HNN" depth="0.0">
			<acc value="0.0289084742092267" flag="0"/>
			<vel value="0.0896285989621215" flag="0"/>
			<psa03 value="0.0688582559855202" flag="0"/>
			<psa10 value="0.0864795266400604" flag="0"/>
			<psa30 value="0.0300215732187942" flag="0"/>
		</comp>
		<comp name="--.HNZ" depth="0.0">
			<acc value="0.0209980039111385" flag="0"/>
			<vel value="0.0867386294675774" flag="0"/>
			<psa03 value="0.0272927460371458" flag="0"/>
			<psa10 value="0.0619764571855638" flag="0"/>
			<psa30 value="0.0393109501568797" flag="0"/>
		</comp>
	</station>
	<station code="JAN" name="JAN" netid="HL" source="National Observatory of Athens Seismic Network" insttype="" lat="39.65616" lon="20.84874" esm:processing="manual (Paolucci et al 2011)" esm:quality="good">
		<comp name="00.HNE" depth="0.0">
