<?xml version="1.0" encoding="UTF-8" standalone="yes"?>
<!DOCTYPE earthquake SYSTEM "stationlist.dtd">
<stationlist created="" xmlns="ch.ethz.sed.shakemap.usgs.xml">
  <station code="KBN" name="KBN" netid="AC" source="INGV" insttype="" lat="40.6236" lon="20.7874">
    <comp name="--.HHE">
      <acc value="0.3622819985" flag="0"/>
      <vel value="0.3650015243" flag="0"/>
      <psa03 value="0.8044268426" flag="0"/>
      <psa10 value="0.6184554052" flag="0"/>
      <psa30 value="0.0940370563" flag="0"/>
    </comp>
    <comp name="--.HHN">
      <acc value="0.3719244053" flag="0"/>
      <vel value="0.3702507412" flag="0"/>
      <psa03 value="0.8586267742" flag="0"/>
      <psa10 value="0.7515635555" flag="0"/>
      <psa30 value="0.1145309391" flag="0"/>
    </comp>
    <comp name="--.HHZ">
      <acc value="0.2031370447" flag="0"/>
      <vel value="0.2991280664" flag="0"/>
      <psa03 value="0.3431748098" flag="0"/>
      <psa10 value="0.5580406376" flag="0"/>
      <psa30 value="0.0783016265" flag="0"/>
    </comp>
  </station>
  <station code="KRK1" name="KRK1" netid="HI" source="NOA" insttype="CMG-5TD,ACCELEROMETER,GURALP" lat="39.6189" lon="19.9202">
    <comp name="--.HNE">
      <acc value="0.6354876391" flag="0"/>
      <vel value="0.4684728447" flag="0"/>
      <psa03 value="1.3523671545" flag="0"/>
      <psa10 value="0.6760853412" flag="0"/>
      <psa30 value="0.0671346276" flag="0"/>
    </comp>
    <comp name="--.HNN">
      <acc value="0.5666047957" flag="0"/>
      <vel value="0.3365843741" flag="0"/>
      <psa03 value="1.4431948910" flag="0"/>
      <psa10 value="0.4692511840" flag="0"/>
      <psa30 value="0.0504676328" flag="0"/>
    </comp>
    <comp name="--.HNZ">
      <acc value="0.3500615927" flag="0"/>
      <vel value="0.1644477689" flag="0"/>
      <psa03 value="1.1041790292" flag="0"/>
      <psa10 value="0.2930049943" flag="0"/>
      <psa30 value="0.0383268107" flag="0"/>
    </comp>
  </station>
  <station code="LMS2" name="LMS2" netid="HI" source="NOA" insttype="CMG-5TD,ACCELEROMETER,GURALP" lat="40.835" lon="21.1418">
    <comp name="--.HNE">
      <acc value="0.2650213306" flag="0"/>
      <vel value="0.2407314894" flag="0"/>
      <psa03 value="0.7032914809" flag="0"/>
      <psa10 value="0.2035957341" flag="0"/>
      <psa30 value="0.0732330529" flag="0"/>
    </comp>
    <comp name="--.HNN">
      <acc value="0.4121705767" flag="0"/>
      <vel value="0.2401467307" flag="0"/>
      <psa03 value="1.2308733232" flag="0"/>
      <psa10 value="0.2745727548" flag="0"/>
      <psa30 value="0.0642019195" flag="0"/>
    </comp>
    <comp name="--.HNZ">
      <acc value="0.1256311019" flag="0"/>
      <vel value="0.2047982250" flag="0"/>
      <psa03 value="0.3801570773" flag="0"/>
      <psa10 value="0.2467659478" flag="0"/>
      <psa30 value="0.0796879453" flag="0"/>
    </comp>
  </station>
  <station code="JAN" name="JAN" netid="HL" source="NOA" insttype="CMG3EPSC60_DR24" lat="39.6562" lon="20.8487">
    <comp name="--.HHE">
      <acc value="0.2615413160" flag="0"/>
      <vel value="0.3236812593" flag="0"/>
      <psa03 value="0.4549596593" flag="0"/>
      <psa10 value="0.3642608394" flag="0"/>
      <psa30 value="0.0821600120" flag="0"/>
    </comp>
    <comp name="--.HHN">
      <acc value="0.1432393986" flag="0"/>
      <vel value="0.1728198939" flag="0"/>
      <psa03 value="0.4253686232" flag="0"/>
      <psa10 value="0.3161201978" flag="0"/>
      <psa30 value="0.0631029030" flag="0"/>
    </comp>
    <comp name="--.HHZ">
      <acc value="0.0843498595" flag="0"/>
      <vel value="0.1323121629" flag="0"/>
      <psa03 value="0.2481006871" flag="0"/>
      <psa10 value="0.1742498151" flag="0"/>
      <psa30 value="0.0546603556" flag="0"/>
    </comp>
  </station>
  <station code="PENT" name="PENT" netid="HL" source="NOA" insttype="30" lat="40.1959" lon="21.1384">
    <comp name="--.HHE">
      <acc value="0.1313071286" flag="0"/>
      <vel value="0.1864000943" flag="0"/>
      <psa03 value="0.3061885462" flag="0"/>
      <psa10 value="0.2986613890" flag="0"/>
      <psa30 value="0.0732482287" flag="0"/>
    </comp>
    <comp name="--.HHN">
      <acc value="0.0036382990" flag="0"/>
      <vel value="0.0064556787" flag="0"/>
      <psa03 value="0.0101347481" flag="0"/>
      <psa10 value="0.0099124932" flag="0"/>
      <psa30 value="0.0032003330" flag="0"/>
    </comp>
    <comp name="--.HHZ">
      <acc value="0.0931075086" flag="0"/>
      <vel value="0.1724397076" flag="0"/>
      <psa03 value="0.2221650469" flag="0"/>
      <psa10 value="0.2095943306" flag="0"/>
      <psa30 value="0.0571803861" flag="0"/>
    </comp>
  </station>
  <station code="IGT" name="IGT" netid="HT" source="NOA" insttype="100" lat="39.5315" lon="20.3299">
    <comp name="--.HHE">
      <acc value="0.1413089123" flag="0"/>
      <vel value="0.1902506329" flag="0"/>
      <psa03 value="0.3404408311" flag="0"/>
      <psa10 value="0.4287294318" flag="0"/>
      <psa30 value="0.0621654432" flag="0"/>
    </comp>
    <comp name="--.HHN">
      <acc value="0.1562585307" flag="0"/>
      <vel value="0.1373775365" flag="0"/>
      <psa03 value="0.4119457640" flag="0"/>
      <psa10 value="0.1999129389" flag="0"/>
      <psa30 value="0.0289702909" flag="0"/>
    </comp>
    <comp name="--.HHZ">
      <acc value="0.1152083973" flag="0"/>
      <vel value="0.1382358608" flag="0"/>
      <psa03 value="0.2574681611" flag="0"/>
      <psa10 value="0.1921263717" flag="0"/>
      <psa30 value="0.0544167324" flag="0"/>
    </comp>
  </station>
  <station code="NEST" name="NEST" netid="HT" source="NOA" insttype="120P," lat="40.4147" lon="21.0489">
    <comp name="--.HHE">
      <acc value="0.2083141864" flag="0"/>
      <vel value="0.2494117998" flag="0"/>
      <psa03 value="0.4394527534" flag="0"/>
      <psa10 value="0.3291400150" flag="0"/>
      <psa30 value="0.0843966134" flag="0"/>
    </comp>
    <comp name="--.HHN">
      <acc value="0.2224192419" flag="0"/>
      <vel value="0.2566377072" flag="0"/>
      <psa03 value="0.3870596230" flag="0"/>
      <psa10 value="0.4554635189" flag="0"/>
      <psa30 value="0.1567183952" flag="0"/>
    </comp>
    <comp name="--.HHZ">
      <acc value="0.1601828255" flag="0"/>
      <vel value="0.3187697992" flag="0"/>
      <psa03 value="0.4952113955" flag="0"/>
      <psa10 value="0.3093349436" flag="0"/>
      <psa30 value="0.1642121885" flag="0"/>
    </comp>
  </station>
  <station code="MESG" name="MESG" netid="IV" source="INGV" insttype="" lat="40.5894" lon="17.8504">
    <comp name="--.HHE">
      <acc value="0.4339603012" flag="0"/>
      <vel value="0.3602036585" flag="0"/>
      <psa03 value="0.8120212574" flag="0"/>
      <psa10 value="0.6326008816" flag="0"/>
      <psa30 value="0.0896378316" flag="0"/>
    </comp>
    <comp name="--.HHN">
      <acc value="0.3913632487" flag="0"/>
      <vel value="0.3662642798" flag="0"/>
      <psa03 value="0.8060206061" flag="0"/>
      <psa10 value="0.8824890166" flag="0"/>
      <psa30 value="0.1423655941" flag="0"/>
    </comp>
    <comp name="--.HHZ">
      <acc value="0.2035549921" flag="0"/>
      <vel value="0.2702552721" flag="0"/>
      <psa03 value="0.3513927955" flag="0"/>
      <psa10 value="0.3214188329" flag="0"/>
      <psa30 value="0.1171359784" flag="0"/>
    </comp>
  </station>
  <station code="NOCI" name="NOCI" netid="IV" source="INGV" insttype="" lat="40.7888" lon="17.0644">
    <comp name="--.HHE">
      <acc value="0.2981888150" flag="0"/>
      <vel value="0.2333746981" flag="0"/>
      <psa03 value="0.7274142910" flag="0"/>
      <psa10 value="0.1848141560" flag="0"/>
      <psa30 value="0.1069903476" flag="0"/>
    </comp>
    <comp name="--.HHN">
      <acc value="0.3380520410" flag="0"/>
      <vel value="0.2350633560" flag="0"/>
      <psa03 value="0.7366057820" flag="0"/>
      <psa10 value="0.3838555720" flag="0"/>
      <psa30 value="0.0895122673" flag="0"/>
    </comp>
    <comp name="--.HHZ">
      <acc value="0.2381849592" flag="0"/>
      <vel value="0.2496750660" flag="0"/>
      <psa03 value="0.4664170657" flag="0"/>
      <psa10 value="0.3095352865" flag="0"/>
      <psa30 value="0.1778954706" flag="0"/>
    </comp>
  </station>
  <station code="KEK" name="KEK" netid="MN" source="INGV" insttype="" lat="39.7127" lon="19.7962">
    <comp name="--.HHE">
      <acc value="0.2328187879" flag="0"/>
      <vel value="0.1912899890" flag="0"/>
      <psa03 value="0.4736977836" flag="0"/>
      <psa10 value="0.4106543127" flag="0"/>
      <psa30 value="0.0646116108" flag="0"/>
    </comp>
    <comp name="--.HHN">
      <acc value="0.1804412383" flag="0"/>
      <vel value="0.2423935316" flag="0"/>
      <psa03 value="0.4478636314" flag="0"/>
      <psa10 value="0.4096600172" flag="0"/>
      <psa30 value="0.0559559530" flag="0"/>
    </comp>
    <comp name="--.HHZ">
      <acc value="0.1392386323" flag="0"/>
      <vel value="0.2106994531" flag="0"/>
      <psa03 value="0.2461221932" flag="0"/>
      <psa10 value="0.3582707948" flag="0"/>
      <psa30 value="0.0324483040" flag="0"/>
    </comp>
  </station>
  <station code="PDG" name="PDG" netid="MN" source="INGV" insttype="" lat="42.4297" lon="19.2608">
    <comp name="--.HHE">
      <acc value="1.0870464478" flag="0"/>
      <vel value="1.0614620905" flag="0"/>
      <psa03 value="2.3553127881" flag="0"/>
      <psa10 value="1.8251587765" flag="0"/>
      <psa30 value="0.2785311278" flag="0"/>
    </comp>
    <comp name="--.HHN">
      <acc value="0.9896167230" flag="0"/>
      <vel value="0.9203266659" flag="0"/>
      <psa03 value="3.0818417772" flag="0"/>
      <psa10 value="0.8776201286" flag="0"/>
      <psa30 value="0.1014087668" flag="0"/>
    </comp>
    <comp name="--.HHZ">
      <acc value="0.6769634302" flag="0"/>
      <vel value="0.7410044657" flag="0"/>
      <psa03 value="1.7342987056" flag="0"/>
      <psa10 value="0.5597091361" flag="0"/>
      <psa30 value="0.2948298983" flag="0"/>
    </comp>
  </station>
  <station code="CGL1" name="CGL1" netid="OT" source="INGV" insttype="" lat="40.6484" lon="17.5173">
    <comp name="--.HHE">
      <acc value="0.0708367097" flag="0"/>
      <vel value="0.0757993486" flag="0"/>
      <psa03 value="0.1972441037" flag="0"/>
      <psa10 value="0.0726835076" flag="0"/>
      <psa30 value="0.0241072349" flag="0"/>
    </comp>
    <comp name="--.HHN">
      <acc value="0.0787756219" flag="0"/>
      <vel value="0.0758907134" flag="0"/>
      <psa03 value="0.1369315467" flag="0"/>
      <psa10 value="0.1096975297" flag="0"/>
      <psa30 value="0.0147746353" flag="0"/>
    </comp>
    <comp name="--.HHZ">
      <acc value="0.0477229957" flag="0"/>
      <vel value="0.0562275024" flag="0"/>
      <psa03 value="0.1056551924" flag="0"/>
      <psa10 value="0.0852961545" flag="0"/>
      <psa30 value="0.0264374269" flag="0"/>
    </comp>
  </station>
  <station code="TAR1" name="TAR1" netid="OT" source="INGV" insttype="" lat="40.5259" lon="17.2846">
    <comp name="--.HHZ">
      <acc value="0.1232452100" flag="0"/>
      <vel value="0.2234755198" flag="0"/>
      <psa03 value="0.3288182165" flag="0"/>
      <psa10 value="0.3212232421" flag="0"/>
      <psa30 value="0.1474245900" flag="0"/>
    </comp>
    <comp name="--.HHN">
      <acc value="0.2427375551" flag="0"/>
      <vel value="0.2613698377" flag="0"/>
      <psa03 value="0.6305410538" flag="0"/>
      <psa10 value="0.2637802460" flag="0"/>
      <psa30 value="0.0926465050" flag="0"/>
    </comp>
    <comp name="--.HHE">
      <acc value="0.2145298158" flag="0"/>
      <vel value="0.2483116063" flag="0"/>
      <psa03 value="0.6252201145" flag="0"/>
      <psa10 value="0.4064198603" flag="0"/>
      <psa30 value="0.0731940960" flag="0"/>
    </comp>
  </station>
</stationlist>
