<?xml version="1.0" encoding="UTF-8" standalone="yes"?>
<!DOCTYPE earthquake SYSTEM "stationlist.dtd">
<stationlist created="" xmlns="ch.ethz.sed.shakemap.usgs.xml">
  <station code="ITM" name="ITM" netid="HL" source="NOA" insttype="DR24" lat="37.1787" lon="21.9252">
    <comp name="--.HHE">
      <acc value="0.0084106166" flag="0"/>
      <vel value="0.0068764084" flag="0"/>
      <psa03 value="0.0226881002" flag="0"/>
      <psa10 value="0.0044049243" flag="0"/>
      <psa30 value="0.0006367987" flag="0"/>
    </comp>
    <comp name="--.HHN">
      <acc value="0.0134987712" flag="0"/>
      <vel value="0.0088300568" flag="0"/>
      <psa03 value="0.0321184114" flag="0"/>
      <psa10 value="0.0078438309" flag="0"/>
      <psa30 value="0.0004967379" flag="0"/>
    </comp>
    <comp name="--.HHZ">
      <acc value="0.0080605936" flag="0"/>
      <vel value="0.0059435080" flag="0"/>
      <psa03 value="0.0113054497" flag="0"/>
      <psa10 value="0.0073552421" flag="0"/>
      <psa30 value="0.0003944115" flag="0"/>
    </comp>
  </station>
  <station code="VLS" name="VLS" netid="HL" source="NOA" insttype="120P," lat="38.1768" lon="20.5886">
    <comp name="--.HHE">
      <acc value="0.0686952878" flag="0"/>
      <vel value="0.0078902038" flag="0"/>
      <psa03 value="0.0270849521" flag="0"/>
      <psa10 value="0.0044672372" flag="0"/>
      <psa30 value="0.0005095529" flag="0"/>
    </comp>
    <comp name="--.HHN">
      <acc value="0.0402344877" flag="0"/>
      <vel value="0.0066265062" flag="0"/>
      <psa03 value="0.0197478209" flag="0"/>
      <psa10 value="0.0081880913" flag="0"/>
      <psa30 value="0.0003043384" flag="0"/>
    </comp>
    <comp name="--.HHZ">
      <acc value="0.0190781142" flag="0"/>
      <vel value="0.0042751356" flag="0"/>
      <psa03 value="0.0175782534" flag="0"/>
      <psa10 value="0.0044139266" flag="0"/>
      <psa30 value="0.0002585101" flag="0"/>
    </comp>
  </station>
  <station code="AMT" name="AMT" netid="HP" source="NOA" insttype="CMG-3T," lat="37.5324" lon="21.7089">
    <comp name="00.HHE">
      <acc value="0.0190993416" flag="0"/>
      <vel value="0.0126164642" flag="0"/>
      <psa03 value="0.0738068903" flag="0"/>
      <psa10 value="0.0179750535" flag="0"/>
      <psa30 value="0.0007047018" flag="0"/>
    </comp>
    <comp name="00.HHN">
      <acc value="0.0240094409" flag="0"/>
      <vel value="0.0120812057" flag="0"/>
      <psa03 value="0.0629363881" flag="0"/>
      <psa10 value="0.0152937321" flag="0"/>
      <psa30 value="0.0007665968" flag="0"/>
    </comp>
    <comp name="00.HHZ">
      <acc value="0.0131255738" flag="0"/>
      <vel value="0.0073978006" flag="0"/>
      <psa03 value="0.0397785692" flag="0"/>
      <psa10 value="0.0057193930" flag="0"/>
      <psa30 value="0.0004480175" flag="0"/>
    </comp>
  </station>
  <station code="DRO" name="DRO" netid="HP" source="NOA" insttype="120P," lat="37.952" lon="21.71">
    <comp name="--.HHE">
      <acc value="0.0267382078" flag="0"/>
      <vel value="0.0086590664" flag="0"/>
      <psa03 value="0.0447626931" flag="0"/>
      <psa10 value="0.0068853114" flag="0"/>
      <psa30 value="0.0005965802" flag="0"/>
    </comp>
    <comp name="--.HHN">
      <acc value="0.0307045323" flag="0"/>
      <vel value="0.0081599633" flag="0"/>
      <psa03 value="0.0427400112" flag="0"/>
      <psa10 value="0.0056642271" flag="0"/>
      <psa30 value="0.0004884965" flag="0"/>
    </comp>
    <comp name="--.HHZ">
      <acc value="0.0138757460" flag="0"/>
      <vel value="0.0036732170" flag="0"/>
      <psa03 value="0.0286167813" flag="0"/>
      <psa10 value="0.0043532156" flag="0"/>
      <psa30 value="0.0003359366" flag="0"/>
    </comp>
  </station>
  <station code="LTHK" name="LTHK" netid="HP" source="NOA" insttype="40," lat="37.7095" lon="20.8367">
    <comp name="--.HHE">
      <acc value="0.2618310144" flag="0"/>
      <vel value="0.0471613508" flag="0"/>
      <psa03 value="0.1959239334" flag="0"/>
      <psa10 value="0.0286713413" flag="0"/>
      <psa30 value="0.0018602149" flag="0"/>
    </comp>
    <comp name="--.HHN">
      <acc value="0.3036155638" flag="0"/>
      <vel value="0.0507521616" flag="0"/>
      <psa03 value="0.1437874294" flag="0"/>
      <psa10 value="0.0179151473" flag="0"/>
      <psa30 value="0.0013554537" flag="0"/>
    </comp>
    <comp name="--.HHZ">
      <acc value="0.1080199946" flag="0"/>
      <vel value="0.0180859647" flag="0"/>
      <psa03 value="0.0711494648" flag="0"/>
      <psa10 value="0.0072391608" flag="0"/>
      <psa30 value="0.0008789550" flag="0"/>
    </comp>
  </station>
  <station code="PYL" name="PYL" netid="HP" source="NOA" insttype="120s" lat="36.8955" lon="21.742">
    <comp name="--.HHE">
      <acc value="0.0155468748" flag="0"/>
      <vel value="0.0107798565" flag="0"/>
      <psa03 value="0.0351670400" flag="0"/>
      <psa10 value="0.0059408459" flag="0"/>
      <psa30 value="0.0003566235" flag="0"/>
    </comp>
    <comp name="--.HHN">
      <acc value="0.0008377270" flag="0"/>
      <vel value="0.0004200736" flag="0"/>
      <psa03 value="0.0026159749" flag="0"/>
      <psa10 value="0.0002889696" flag="0"/>
      <psa30 value="0.0000171578" flag="0"/>
    </comp>
    <comp name="--.HHZ">
      <acc value="0.0005091383" flag="0"/>
      <vel value="0.0001370804" flag="0"/>
      <psa03 value="0.0011382884" flag="0"/>
      <psa10 value="0.0000909351" flag="0"/>
      <psa30 value="0.0000103525" flag="0"/>
    </comp>
  </station>
  <station code="DMLN" name="DMLN" netid="HT" source="NOA" insttype="1s-100Hz," lat="38.2385" lon="20.3734">
    <comp name="--.HHE">
      <acc value="0.0388186801" flag="0"/>
      <vel value="0.0150385450" flag="0"/>
      <psa03 value="0.0456998460" flag="0"/>
      <psa10 value="0.0178802772" flag="0"/>
      <psa30 value="0.0011478197" flag="0"/>
    </comp>
    <comp name="--.HHN">
      <acc value="0.0419463536" flag="0"/>
      <vel value="0.0152163885" flag="0"/>
      <psa03 value="0.0660115904" flag="0"/>
      <psa10 value="0.0287420774" flag="0"/>
      <psa30 value="0.0011044111" flag="0"/>
    </comp>
    <comp name="--.HHZ">
      <acc value="0.0334759647" flag="0"/>
      <vel value="0.0095749187" flag="0"/>
      <psa03 value="0.0411203094" flag="0"/>
      <psa10 value="0.0091119662" flag="0"/>
      <psa30 value="0.0005066911" flag="0"/>
    </comp>
  </station>
  <station code="PSDA" name="PSDA" netid="HT" source="NOA" insttype="30" lat="38.114" lon="20.5841">
    <comp name="--.HHE">
      <acc value="0.0749809380" flag="0"/>
      <vel value="0.0154082113" flag="0"/>
      <psa03 value="0.0521917394" flag="0"/>
      <psa10 value="0.0069126196" flag="0"/>
      <psa30 value="0.0008027124" flag="0"/>
    </comp>
    <comp name="--.HHN">
      <acc value="0.0500095158" flag="0"/>
      <vel value="0.0142060514" flag="0"/>
      <psa03 value="0.0564054762" flag="0"/>
      <psa10 value="0.0097263699" flag="0"/>
      <psa30 value="0.0006203050" flag="0"/>
    </comp>
    <comp name="--.HHZ">
      <acc value="0.0563541374" flag="0"/>
      <vel value="0.0102482279" flag="0"/>
      <psa03 value="0.0256107283" flag="0"/>
      <psa10 value="0.0040025010" flag="0"/>
      <psa30 value="0.0002680330" flag="0"/>
    </comp>
  </station>
</stationlist>
