<stationlist xmlns:esm="https://esm-db.eu/esmws/shakemap/1/" created="1783994137">
	<station code="ARG2" name="ARG2" netid="HI" source="ITSAK Strong Motion Network" insttype="" lat="38.1783" lon="20.4878" esm:processing="manual (Paolucci et al 2011)" esm:quality="best">
		<comp name="--.HNE" depth="0.0">
			<acc value="0.0362416333220447" flag="0"/>
			<vel value="0.0141448424851794" flag="0"/>
			<psa03 value="0.047918903288169" flag="0"/>
			<psa10 value="0.0102683364188934" flag="0"/>
			<psa30 value="0.00096643166295467" flag="0"/>
		</comp>
		<comp name="--.HNN" depth="0.0">
			<acc value="0.0348471531602649" flag="0"/>
			<vel value="0.0146156208193023" flag="0"/>
			<psa03 value="0.0400890171299715" flag="0"/>
			<psa10 value="0.010940811784366" flag="0"/>
			<psa30 value="0.000644287775303113" flag="0"/>
		</comp>
		<comp name="--.HNZ" depth="0.0">
			<acc value="0.0287639605431551" flag="0"/>
			<vel value="0.00749725829235791" flag="0"/>
			<psa03 value="0.0328407796578115" flag="0"/>
			<psa10 value="0.00352747556978455" flag="0"/>
			<psa30 value="0.000435341670395784" flag="0"/>
		</comp>
	</station>
	<station code="ART2" name="ART2" netid="HI" source="ITSAK Strong Motion Network" insttype="" lat="39.1474" lon="20.9937" esm:processing="manual (Paolucci et al 2011)" esm:quality="bad">
		<comp name="--.HNE" depth="0.0">
			<acc value="0.00123847557080609" flag="0"/>
			<vel value="0.00107240064240576" flag="0"/>
			<psa03 value="0.00224648784874146" flag="0"/>
			<psa10 value="0.00152523998497626" flag="0"/>
			<psa30 value="0.000123459090017049" flag="0"/>
		</comp>
		<comp name="--.HNN" depth="0.0">
			<acc value="0.000922662045105138" flag="0"/>
			<vel value="0.000766042135319647" flag="0"/>
			<psa03 value="0.00208623130154216" flag="0"/>
			<psa10 value="0.00183963561683054" flag="0"/>
			<psa30 value="9.42499480235871e-05" flag="0"/>
		</comp>
		<comp name="--.HNZ" depth="0.0">
			<acc value="0.000939038188217495" flag="0"/>
			<vel value="0.000777091395118244" flag="0"/>
			<psa03 value="0.00227306822284118" flag="0"/>
			<psa10 value="0.000954306147787448" flag="0"/>
			<psa30 value="0.000100617934975446" flag="0"/>
		</comp>
	</station>
	<station code="KLV1" name="KLV1" netid="HI" source="ITSAK Strong Motion Network" insttype="" lat="38.03256" lon="22.10797" esm:processing="manual (Paolucci et al 2011)" esm:quality="best">
		<comp name="--.HNE" depth="0.0">
			<acc value="0.0060286179249325" flag="0"/>
			<vel value="0.00328627209914276" flag="0"/>
			<psa03 value="0.0168134158896149" flag="0"/>
			<psa10 value="0.00229106661566951" flag="0"/>
			<psa30 value="0.000224876303201462" flag="0"/>
		</comp>
		<comp name="--.HNN" depth="0.0">
			<acc value="0.0067790155422956" flag="0"/>
			<vel value="0.00318624416050974" flag="0"/>
			<psa03 value="0.0146610402323917" flag="0"/>
			<psa10 value="0.00437610817692032" flag="0"/>
			<psa30 value="0.000265088472268584" flag="0"/>
		</comp>
		<comp name="--.HNZ" depth="0.0">
			<acc value="0.00318577707720504" flag="0"/>
			<vel value="0.00155756580722678" flag="0"/>
			<psa03 value="0.00475431495001781" flag="0"/>
			<psa10 value="0.00243638335156449" flag="0"/>
			<psa30 value="0.000213744901738013" flag="0"/>
		</comp>
	</station>
	<station code="KRI1" name="KRI1" netid="HI" source="ITSAK Strong Motion Network" insttype="" lat="37.6621" lon="20.8172" esm:processing="manual (Paolucci et al 2011)" esm:quality="good">
		<comp name="--.HNE" depth="0.0">
			<acc value="0.209267862478629" flag="0"/>
			<vel value="0.0882522092875686" flag="0"/>
			<psa03 value="0.436370741148004" flag="0"/>
			<psa10 value="0.0209554598917338" flag="0"/>
			<psa30 value="0.00259639025005831" flag="0"/>
		</comp>
		<comp name="--.HNN" depth="0.0">
			<acc value="0.140565983468194" flag="0"/>
			<vel value="0.0417730932958159" flag="0"/>
			<psa03 value="0.227200925207584" flag="0"/>
			<psa10 value="0.0433927816666647" flag="0"/>
			<psa30 value="0.00198386944145417" flag="0"/>
		</comp>
		<comp name="--.HNZ" depth="0.0">
			<acc value="0.077700156844892" flag="0"/>
			<vel value="0.0243086156037396" flag="0"/>
			<psa03 value="0.147246601980732" flag="0"/>
			<psa10 value="0.0103206848006367" flag="0"/>
			<psa30 value="0.00104383568040428" flag="0"/>
		</comp>
	</station>
	<station code="MSL1" name="MSL1" netid="HI" source="ITSAK Strong Motion Network" insttype="" lat="38.3727" lon="21.4243" esm:processing="manual (Paolucci et al 2011)" esm:quality="good">
		<comp name="--.HNE" depth="0.0">
			<acc value="0.0110924030242264" flag="0"/>
			<vel value="0.0101605326816155" flag="0"/>
			<psa03 value="0.0224599748422839" flag="0"/>
			<psa10 value="0.015910828389293" flag="0"/>
			<psa30 value="0.00120676629651217" flag="0"/>
		</comp>
		<comp name="--.HNN" depth="0.0">
			<acc value="0.0115299984030293" flag="0"/>
			<vel value="0.00937960281848427" flag="0"/>
			<psa03 value="0.0385703571801921" flag="0"/>
			<psa10 value="0.0193564816469302" flag="0"/>
			<psa30 value="0.000893518878742191" flag="0"/>
		</comp>
		<comp name="--.HNZ" depth="0.0">
			<acc value="0.00551435390414262" flag="0"/>
			<vel value="0.00384549851845448" flag="0"/>
			<psa03 value="0.0157085627506204" flag="0"/>
			<psa10 value="0.00803194926470821" flag="0"/>
			<psa30 value="0.000457892937327279" flag="0"/>
		</comp>
	</station>
	<station code="PYL1" name="PYL1" netid="HI" source="ITSAK Strong Motion Network" insttype="" lat="36.914188" lon="21.695161" esm:processing="manual (Paolucci et al 2011)" esm:quality="best">
		<comp name="--.HNE" depth="0.0">
			<acc value="0.0301937448164191" flag="0"/>
			<vel value="0.0192173248376038" flag="0"/>
			<psa03 value="0.125949311630435" flag="0"/>
			<psa10 value="0.00598382271312766" flag="0"/>
			<psa30 value="0.000537801323551626" flag="0"/>
		</comp>
		<comp name="--.HNN" depth="0.0">
			<acc value="0.0180315446133339" flag="0"/>
			<vel value="0.00678451359073416" flag="0"/>
			<psa03 value="0.0388362353446599" flag="0"/>
			<psa10 value="0.00356371675714535" flag="0"/>
			<psa30 value="0.000323486153850105" flag="0"/>
		</comp>
		<comp name="--.HNZ" depth="0.0">
			<acc value="0.0126747122569828" flag="0"/>
			<vel value="0.00490959897185788" flag="0"/>
			<psa03 value="0.0367333516336011" flag="0"/>
			<psa10 value="0.00320130488353734" flag="0"/>
			<psa30 value="0.000226842987554638" flag="0"/>
		</comp>
	</station>
	<station code="ITM" name="ITM" netid="HL" source="National Observatory of Athens Seismic Network" insttype="" lat="37.17872" lon="21.92522" esm:processing="manual (Paolucci et al 2011)" esm:quality="good">
		<comp name="--.HNE" depth="0.0">
			<acc value="0.00827167388453612" flag="0"/>
			<vel value="0.00677784191123683" flag="0"/>
			<psa03 value="0.0217798959362156" flag="0"/>
			<psa10 value="0.00427548057335501" flag="0"/>
			<psa30 value="0.000650797278792439" flag="0"/>
		</comp>
		<comp name="--.HNN" depth="0.0">
			<acc value="0.0133197944730396" flag="0"/>
			<vel value="0.00863690239295566" flag="0"/>
			<psa03 value="0.0319211693083057" flag="0"/>
			<psa10 value="0.00771473309445556" flag="0"/>
			<psa30 value="0.000509283581287826" flag="0"/>
		</comp>
		<comp name="--.HNZ" depth="0.0">
			<acc value="0.00750176555261231" flag="0"/>
			<vel value="0.00550128541464123" flag="0"/>
			<psa03 value="0.0103537861479352" flag="0"/>
			<psa10 value="0.00679926979325472" flag="0"/>
			<psa30 value="0.000378101792179771" flag="0"/>
		</comp>
	</station>
	<station code="LXRA" name="LXRA" netid="HL" source="National Observatory of Athens Seismic Network" insttype="" lat="38.20006" lon="20.43718" esm:processing="manual (Paolucci et al 2011)" esm:quality="bad">
		<comp name="00.HNE" depth="0.0">
			<acc value="0.0461542368976013" flag="0"/>
			<vel value="0.0133041701924445" flag="0"/>
			<psa03 value="0.0649362756678266" flag="0"/>
			<psa10 value="0.015267883922391" flag="0"/>
			<psa30 value="0.00154613263203221" flag="0"/>
		</comp>
		<comp name="00.HNN" depth="0.0">
			<acc value="0.0494704429943487" flag="0"/>
			<vel value="0.0189396793197377" flag="0"/>
			<psa03 value="0.0722852104155207" flag="0"/>
			<psa10 value="0.0234544943701525" flag="0"/>
			<psa30 value="0.00191163601150219" flag="0"/>
		</comp>
		<comp name="00.HNZ" depth="0.0">
			<acc value="0.0271874623605129" flag="0"/>
			<vel value="0.00742467916605898" flag="0"/>
			<psa03 value="0.0327658971423593" flag="0"/>
			<psa10 value="0.00814185217023474" flag="0"/>
			<psa30 value="0.000719735491445588" flag="0"/>
		</comp>
	</station>
	<station code="PATC" name="PATC" netid="HL" source="National Observatory of Athens Seismic Network" insttype="" lat="38.26933" lon="21.76001" esm:processing="manual (Paolucci et al 2011)" esm:quality="good">
		<comp name="00.HNE" depth="0.0">
			<acc value="0.0102565981489339" flag="0"/>
			<vel value="0.00731704226704164" flag="0"/>
			<psa03 value="0.028659255305845" flag="0"/>
			<psa10 value="0.0093948007969455" flag="0"/>
			<psa30 value="0.00105006404075592" flag="0"/>
		</comp>
		<comp name="00.HNN" depth="0.0">
			<acc value="0.00833459317882512" flag="0"/>
			<vel value="0.00627258068647583" flag="0"/>
			<psa03 value="0.0277848640483822" flag="0"/>
			<psa10 value="0.0105366651898576" flag="0"/>
			<psa30 value="0.00117307781481473" flag="0"/>
		</comp>
		<comp name="00.HNZ" depth="0.0">
			<acc value="0.00409168441720386" flag="0"/>
			<vel value="0.00355345962155512" flag="0"/>
			<psa03 value="0.0120586373672115" flag="0"/>
			<psa10 value="0.00527890735795493" flag="0"/>
			<psa30 value="0.000513716062417947" flag="0"/>
		</comp>
	</station>
	<station code="PATG" name="PATG" netid="HL" source="National Observatory of Athens Seismic Network" insttype="" lat="38.23865" lon="21.72657" esm:processing="manual (Paolucci et al 2011)" esm:quality="good">
		<comp name="00.HNE" depth="0.0">
			<acc value="0.00992121593112646" flag="0"/>
			<vel value="0.0081688371184217" flag="0"/>
			<psa03 value="0.0204842697427555" flag="0"/>
			<psa10 value="0.0117396886342566" flag="0"/>
			<psa30 value="0.00176799899625661" flag="0"/>
		</comp>
		<comp name="00.HNN" depth="0.0">
			<acc value="0.011536449853489" flag="0"/>
			<vel value="0.00762046401983649" flag="0"/>
			<psa03 value="0.019296474911344" flag="0"/>
			<psa10 value="0.0136266626995276" flag="0"/>
			<psa30 value="0.00185046091728751" flag="0"/>
		</comp>
		<comp name="00.HNZ" depth="0.0">
			<acc value="0.00957718173812284" flag="0"/>
			<vel value="0.00487388057744209" flag="0"/>
			<psa03 value="0.0115452166368579" flag="0"/>
			<psa10 value="0.00653118469018233" flag="0"/>
			<psa30 value="0.00102100524075303" flag="0"/>
		</comp>
	</station>
	<station code="ARS1" name="ARS1" netid="HI" source="ITSAK Strong Motion Network" insttype="" lat="37.6349" lon="22.7293" esm:processing="discarded" esm:quality="bad">
		<comp name="--.HNE" depth="0.0">
			<acc value="0" flag="1"/>
			<vel value="0" flag="1"/>
			<psa03 value="0" flag="1"/>
			<psa10 value="0" flag="1"/>
			<psa30 value="0" flag="1"/>
		</comp>
		<comp name="--.HNN" depth="0.0">
			<acc value="0" flag="1"/>
			<vel value="0" flag="1"/>
			<psa03 value="0" flag="1"/>
			<psa10 value="0" flag="1"/>
			<psa30 value="0" flag="1"/>
		</comp>
		<comp name="--.HNZ" depth="0.0">
			<acc value="0" flag="1"/>
			<vel value="0" flag="1"/>
			<psa03 value="0" flag="1"/>
			<psa10 value="0" flag="1"/>
			<psa30 value="0" flag="1"/>
		</comp>
	</station>
	<station code="DLFA" name="DLFA" netid="HL" source="National Observatory of Athens Seismic Network" insttype="" lat="38.47836" lon="22.49583" esm:processing="automatic (Paolucci et al 2011)" esm:quality="bad">
		<comp name="00.HNE" depth="0.0">
			<acc value="0" flag="1"/>
			<vel value="0" flag="1"/>
			<psa03 value="0" flag="1"/>
			<psa10 value="0" flag="1"/>
			<psa30 value="0" flag="1"/>
		</comp>
		<comp name="00.HNN" depth="0.0">
			<acc value="0" flag="1"/>
			<vel value="0" flag="1"/>
			<psa03 value="0" flag="1"/>
			<psa10 value="0" flag="1"/>
			<psa30 value="0" flag="1"/>
		</comp>
		<comp name="00.HNZ" depth="0.0">
			<acc value="0" flag="1"/>
			<vel value="0" flag="1"/>
			<psa03 value="0" flag="1"/>
			<psa10 value="0" flag="1"/>
			<psa30 value="0" flag="1"/>
		</comp>
	</station>
	<station code="MNVA" name="MNVA" netid="HL" source="National Observatory of Athens Seismic Network" insttype="" lat="36.68709" lon="23.03734" esm:processing="discarded" esm:quality="bad">
		<comp name="00.HNE" depth="0.0">
			<acc value="0" flag="1"/>
			<vel value="0" flag="1"/>
			<psa03 value="0" flag="1"/>
			<psa10 value="0" flag="1"/>
			<psa30 value="0" flag="1"/>
		</comp>
		<comp name="00.HNN" depth="0.0">
			<acc value="0" flag="1"/>
			<vel value="0" flag="1"/>
			<psa03 value="0" flag="1"/>
			<psa10 value="0" flag="1"/>
			<psa30 value="0" flag="1"/>
		</comp>
		<comp name="00.HNZ" depth="0.0">
			<acc value="0" flag="1"/>
			<vel value="0" flag="1"/>
			<psa03 value="0" flag="1"/>
			<psa10 value="0" flag="1"/>
			<psa30 value="0" flag="1"/>
		</comp>
	</station>
	<station code="RIOA" name="RIOA" netid="HL" source="National Observatory of Athens Seismic Network" insttype="" lat="38.29585" lon="21.79118" esm:processing="automatic (Paolucci et al 2011)" esm:quality="bad">
		<comp name="00.HNE" depth="0.0">
			<acc value="0" flag="1"/>
			<vel value="0" flag="1"/>
			<psa03 value="0" flag="1"/>
			<psa10 value="0" flag="1"/>
			<psa30 value="0" flag="1"/>
		</comp>
		<comp name="00.HNN" depth="0.0">
			<acc value="0" flag="1"/>
			<vel value="0" flag="1"/>
			<psa03 value="0" flag="1"/>
			<psa10 value="0" flag="1"/>
			<psa30 value="0" flag="1"/>
		</comp>
		<comp name="00.HNZ" depth="0.0">
			<acc value="0" flag="1"/>
			<vel value="0" flag="1"/>
			<psa03 value="0" flag="1"/>
			<psa10 value="0" flag="1"/>
			<psa30 value="0" flag="1"/>
		</comp>
	</station>
</stationlist>
