<?xml version="1.0" encoding="UTF-8" standalone="yes"?>
<!DOCTYPE earthquake SYSTEM "stationlist.dtd">
<stationlist created="" xmlns="ch.ethz.sed.shakemap.usgs.xml">
  <station code="CSMBE" name="CSMBE" netid="7C" insttype="" lat="39.2895" lon="16.2642">
    <comp name="--.HNE">
      <acc value="0.0155141558" flag="0"/>
      <vel value="0.0062622211" flag="0"/>
      <psa03 value="0.0317568811" flag="0"/>
      <psa10 value="0.0104888643" flag="0"/>
      <psa30 value="0.0005324226" flag="0"/>
    </comp>
    <comp name="--.HNN">
      <acc value="0.0133327375" flag="0"/>
      <vel value="0.0056686288" flag="0"/>
      <psa03 value="0.0333856354" flag="0"/>
      <psa10 value="0.0091862688" flag="0"/>
      <psa30 value="0.0004700550" flag="0"/>
    </comp>
    <comp name="--.HNZ">
      <acc value="0.0150938496" flag="0"/>
      <vel value="0.0052501970" flag="0"/>
      <psa03 value="0.0242983753" flag="0"/>
      <psa10 value="0.0075485624" flag="0"/>
      <psa30 value="0.0004663811" flag="0"/>
    </comp>
  </station>
  <station code="CELI" name="CELI" netid="IV" insttype="" lat="39.4027" lon="16.5088">
    <comp name="--.HHE">
      <acc value="0.0109055752" flag="0"/>
      <vel value="0.0063908985" flag="0"/>
      <psa03 value="0.0290375755" flag="0"/>
      <psa10 value="0.0061014009" flag="0"/>
      <psa30 value="0.0009268795" flag="0"/>
    </comp>
    <comp name="--.HHN">
      <acc value="0.0138587053" flag="0"/>
      <vel value="0.0063914946" flag="0"/>
      <psa03 value="0.0360459569" flag="0"/>
      <psa10 value="0.0076538511" flag="0"/>
      <psa30 value="0.0010524103" flag="0"/>
    </comp>
    <comp name="--.HHZ">
      <acc value="0.0223248149" flag="0"/>
      <vel value="0.0041119697" flag="0"/>
      <psa03 value="0.0241823221" flag="0"/>
      <psa10 value="0.0034573085" flag="0"/>
      <psa30 value="0.0004965775" flag="0"/>
    </comp>
  </station>
  <station code="CET2" name="CET2" netid="IV" insttype="" lat="39.5288" lon="15.9546">
    <comp name="--.HHE">
      <acc value="0.0064884236" flag="0"/>
      <vel value="0.0047973077" flag="0"/>
      <psa03 value="0.0128047461" flag="0"/>
      <psa10 value="0.0111525609" flag="0"/>
      <psa30 value="0.0004273846" flag="0"/>
    </comp>
    <comp name="--.HHZ">
      <acc value="0.0074686156" flag="0"/>
      <vel value="0.0039985208" flag="0"/>
      <psa03 value="0.0121015249" flag="0"/>
      <psa10 value="0.0047533395" flag="0"/>
      <psa30 value="0.0004474820" flag="0"/>
    </comp>
    <comp name="--.HHN">
      <acc value="0.0135329792" flag="0"/>
      <vel value="0.0134578213" flag="0"/>
      <psa03 value="0.0316631368" flag="0"/>
      <psa10 value="0.0183371320" flag="0"/>
      <psa30 value="0.0007761944" flag="0"/>
    </comp>
  </station>
  <station code="GIZZ" name="GIZZ" netid="IV" insttype="" lat="38.9798" lon="16.2078">
    <comp name="--.HHE">
      <acc value="0.0095507211" flag="0"/>
      <vel value="0.0049571776" flag="0"/>
      <psa03 value="0.0334789785" flag="0"/>
      <psa10 value="0.0057785142" flag="0"/>
      <psa30 value="0.0003961854" flag="0"/>
    </comp>
    <comp name="--.HHN">
      <acc value="0.0130700299" flag="0"/>
      <vel value="0.0055589057" flag="0"/>
      <psa03 value="0.0301493961" flag="0"/>
      <psa10 value="0.0080957547" flag="0"/>
      <psa30 value="0.0003041236" flag="0"/>
    </comp>
    <comp name="--.HHZ">
      <acc value="0.0081012705" flag="0"/>
      <vel value="0.0027154069" flag="0"/>
      <psa03 value="0.0113137455" flag="0"/>
      <psa10 value="0.0040840678" flag="0"/>
      <psa30 value="0.0001829045" flag="0"/>
    </comp>
  </station>
  <station code="ORI" name="ORI" netid="IV" insttype="" lat="40.051" lon="16.4504">
    <comp name="--.HHN">
      <acc value="0.0167591757" flag="0"/>
      <vel value="0.0090326120" flag="0"/>
      <psa03 value="0.0667013157" flag="0"/>
      <psa10 value="0.0045294148" flag="0"/>
      <psa30 value="0.0004256762" flag="0"/>
    </comp>
    <comp name="--.HHE">
      <acc value="0.0194747700" flag="0"/>
      <vel value="0.0124684788" flag="0"/>
      <psa03 value="0.0578023522" flag="0"/>
      <psa10 value="0.0065709976" flag="0"/>
      <psa30 value="0.0003679958" flag="0"/>
    </comp>
    <comp name="--.HHZ">
      <acc value="0.0124473675" flag="0"/>
      <vel value="0.0033332095" flag="0"/>
      <psa03 value="0.0237834368" flag="0"/>
      <psa10 value="0.0023492150" flag="0"/>
      <psa30 value="0.0002157660" flag="0"/>
    </comp>
  </station>
  <station code="PIPA" name="PIPA" netid="IV" insttype="" lat="39.4851" lon="16.8158">
    <comp name="--.HHE">
      <acc value="0.3969436795" flag="0"/>
      <vel value="0.1460382516" flag="0"/>
      <psa03 value="0.5294871891" flag="0"/>
      <psa10 value="0.0516993733" flag="0"/>
      <psa30 value="0.0034280518" flag="0"/>
    </comp>
    <comp name="--.HHN">
      <acc value="0.2528173805" flag="0"/>
      <vel value="0.0766576031" flag="0"/>
      <psa03 value="0.3502143484" flag="0"/>
      <psa10 value="0.0258908103" flag="0"/>
      <psa30 value="0.0026517385" flag="0"/>
    </comp>
    <comp name="--.HHZ">
      <acc value="0.2584906473" flag="0"/>
      <vel value="0.0586771141" flag="0"/>
      <psa03 value="0.2435301966" flag="0"/>
      <psa10 value="0.0136825575" flag="0"/>
      <psa30 value="0.0016519357" flag="0"/>
    </comp>
  </station>
  <station code="SALB" name="SALB" netid="IV" insttype="" lat="39.8772" lon="16.3459">
    <comp name="--.HHE">
      <acc value="0.0086946853" flag="0"/>
      <vel value="0.0035149578" flag="0"/>
      <psa03 value="0.0316455616" flag="0"/>
      <psa10 value="0.0029569151" flag="0"/>
      <psa30 value="0.0002139356" flag="0"/>
    </comp>
    <comp name="--.HHN">
      <acc value="0.0071094136" flag="0"/>
      <vel value="0.0026780021" flag="0"/>
      <psa03 value="0.0168901795" flag="0"/>
      <psa10 value="0.0027807033" flag="0"/>
      <psa30 value="0.0001822346" flag="0"/>
    </comp>
    <comp name="--.HHZ">
      <acc value="0.0051630765" flag="0"/>
      <vel value="0.0018264181" flag="0"/>
      <psa03 value="0.0127055062" flag="0"/>
      <psa10 value="0.0015511548" flag="0"/>
      <psa30 value="0.0001619541" flag="0"/>
    </comp>
  </station>
  <station code="SERS" name="SERS" netid="IV" insttype="" lat="39.0359" lon="16.6886">
    <comp name="--.HHE">
      <acc value="0.0145071066" flag="0"/>
      <vel value="0.0084408093" flag="0"/>
      <psa03 value="0.0277610311" flag="0"/>
      <psa10 value="0.0076736937" flag="0"/>
      <psa30 value="0.0008143807" flag="0"/>
    </comp>
    <comp name="--.HHN">
      <acc value="0.0108367338" flag="0"/>
      <vel value="0.0057757180" flag="0"/>
      <psa03 value="0.0277080962" flag="0"/>
      <psa10 value="0.0065921746" flag="0"/>
      <psa30 value="0.0003573043" flag="0"/>
    </comp>
    <comp name="--.HHZ">
      <acc value="0.0093281057" flag="0"/>
      <vel value="0.0044134892" flag="0"/>
      <psa03 value="0.0243654863" flag="0"/>
      <psa10 value="0.0055610703" flag="0"/>
      <psa30 value="0.0003529997" flag="0"/>
    </comp>
  </station>
  <station code="SPS2" name="SPS2" netid="IV" insttype="" lat="39.291" lon="16.3388">
    <comp name="--.HHE">
      <acc value="0.0054103556" flag="0"/>
      <vel value="0.0033576696" flag="0"/>
      <psa03 value="0.0207898002" flag="0"/>
      <psa10 value="0.0042123991" flag="0"/>
      <psa30 value="0.0002480604" flag="0"/>
    </comp>
    <comp name="--.HHN">
      <acc value="0.0071845108" flag="0"/>
      <vel value="0.0033204753" flag="0"/>
      <psa03 value="0.0353982711" flag="0"/>
      <psa10 value="0.0026457882" flag="0"/>
      <psa30 value="0.0001776397" flag="0"/>
    </comp>
    <comp name="--.HHZ">
      <acc value="0.0043937844" flag="0"/>
      <vel value="0.0019149108" flag="0"/>
      <psa03 value="0.0100716165" flag="0"/>
      <psa10 value="0.0017815323" flag="0"/>
      <psa30 value="0.0001260702" flag="0"/>
    </comp>
  </station>
  <station code="TDS" name="TDS" netid="IV" insttype="" lat="39.6601" lon="16.3376">
    <comp name="--.HHE">
      <acc value="0.0034015299" flag="0"/>
      <vel value="0.0020746022" flag="0"/>
      <psa03 value="0.0081453453" flag="0"/>
      <psa10 value="0.0040705631" flag="0"/>
      <psa30 value="0.0003094699" flag="0"/>
    </comp>
    <comp name="--.HHN">
      <acc value="0.0037882850" flag="0"/>
      <vel value="0.0027619888" flag="0"/>
      <psa03 value="0.0078521101" flag="0"/>
      <psa10 value="0.0033924299" flag="0"/>
      <psa30 value="0.0003100232" flag="0"/>
    </comp>
    <comp name="--.HHZ">
      <acc value="0.0031865115" flag="0"/>
      <vel value="0.0019838304" flag="0"/>
      <psa03 value="0.0078234191" flag="0"/>
      <psa10 value="0.0025349793" flag="0"/>
      <psa30 value="0.0002914961" flag="0"/>
    </comp>
  </station>
  <station code="CHCE" name="CHCE" netid="IY" insttype="" lat="38.684" lon="16.4142">
    <comp name="00.HHE">
      <acc value="0.0062115105" flag="0"/>
      <vel value="0.0037808695" flag="0"/>
      <psa03 value="0.0247040706" flag="0"/>
      <psa10 value="0.0022177335" flag="0"/>
      <psa30 value="0.0001615281" flag="0"/>
    </comp>
    <comp name="00.HHN">
      <acc value="0.0069416436" flag="0"/>
      <vel value="0.0042020428" flag="0"/>
      <psa03 value="0.0254295606" flag="0"/>
      <psa10 value="0.0017583238" flag="0"/>
      <psa30 value="0.0002425050" flag="0"/>
    </comp>
    <comp name="00.HHZ">
      <acc value="0.0034240944" flag="0"/>
      <vel value="0.0014675169" flag="0"/>
      <psa03 value="0.0098529650" flag="0"/>
      <psa10 value="0.0013239402" flag="0"/>
      <psa30 value="0.0000873971" flag="0"/>
    </comp>
  </station>
  <station code="BIDON" name="BIDON" netid="XE" insttype="" lat="39.9457" lon="16.4559">
    <comp name="--.HHE">
      <acc value="0.0119192987" flag="0"/>
      <vel value="0.0062375855" flag="0"/>
      <psa03 value="0.0321538227" flag="0"/>
      <psa10 value="0.0074283467" flag="0"/>
      <psa30 value="0.0004415783" flag="0"/>
    </comp>
    <comp name="--.HHZ">
      <acc value="0.0070504280" flag="0"/>
      <vel value="0.0029727487" flag="0"/>
      <psa03 value="0.0159677778" flag="0"/>
      <psa10 value="0.0029466054" flag="0"/>
      <psa30 value="0.0001701300" flag="0"/>
    </comp>
    <comp name="--.HHN">
      <acc value="0.0108717706" flag="0"/>
      <vel value="0.0037975222" flag="0"/>
      <psa03 value="0.0224881612" flag="0"/>
      <psa10 value="0.0053861958" flag="0"/>
      <psa30 value="0.0002561504" flag="0"/>
    </comp>
  </station>
  <station code="CNESE" name="CNESE" netid="XE" insttype="" lat="39.8941" lon="16.0843">
    <comp name="--.HHE">
      <acc value="0.0030989475" flag="0"/>
      <vel value="0.0030986985" flag="0"/>
      <psa03 value="0.0082402352" flag="0"/>
      <psa10 value="0.0035068915" flag="0"/>
      <psa30 value="0.0006332149" flag="0"/>
    </comp>
    <comp name="--.HHZ">
      <acc value="0.0031224360" flag="0"/>
      <vel value="0.0015795909" flag="0"/>
      <psa03 value="0.0051979323" flag="0"/>
      <psa10 value="0.0030362376" flag="0"/>
      <psa30 value="0.0002239821" flag="0"/>
    </comp>
    <comp name="--.HHN">
      <acc value="0.0044985226" flag="0"/>
      <vel value="0.0028937369" flag="0"/>
      <psa03 value="0.0096229775" flag="0"/>
      <psa10 value="0.0031365651" flag="0"/>
      <psa30 value="0.0005914506" flag="0"/>
    </comp>
  </station>
  <station code="FRASC" name="FRASC" netid="XE" insttype="" lat="39.8381" lon="16.2663">
    <comp name="--.HHE">
      <acc value="0.0044918607" flag="0"/>
      <vel value="0.0029674732" flag="0"/>
      <psa03 value="0.0101660160" flag="0"/>
      <psa10 value="0.0041901813" flag="0"/>
      <psa30 value="0.0002716934" flag="0"/>
    </comp>
    <comp name="--.HHN">
      <acc value="0.0047595589" flag="0"/>
      <vel value="0.0041932056" flag="0"/>
      <psa03 value="0.0101131288" flag="0"/>
      <psa10 value="0.0032058273" flag="0"/>
      <psa30 value="0.0002233775" flag="0"/>
    </comp>
    <comp name="--.HHZ">
      <acc value="0.0032287706" flag="0"/>
      <vel value="0.0015343669" flag="0"/>
      <psa03 value="0.0086966989" flag="0"/>
      <psa10 value="0.0026133234" flag="0"/>
      <psa30 value="0.0002015113" flag="0"/>
    </comp>
  </station>
  <station code="TNOVA" name="TNOVA" netid="XE" insttype="" lat="39.9747" lon="16.2611">
    <comp name="--.HHE">
      <acc value="0.0061847954" flag="0"/>
      <vel value="0.0022090827" flag="0"/>
      <psa03 value="0.0130509278" flag="0"/>
      <psa10 value="0.0033521323" flag="0"/>
      <psa30 value="0.0001994143" flag="0"/>
    </comp>
    <comp name="--.HHN">
      <acc value="0.0062140615" flag="0"/>
      <vel value="0.0019851029" flag="0"/>
      <psa03 value="0.0093706759" flag="0"/>
      <psa10 value="0.0015844457" flag="0"/>
      <psa30 value="0.0001229977" flag="0"/>
    </comp>
    <comp name="--.HHZ">
      <acc value="0.0037290208" flag="0"/>
      <vel value="0.0012665347" flag="0"/>
      <psa03 value="0.0073235893" flag="0"/>
      <psa10 value="0.0013254689" flag="0"/>
      <psa30 value="0.0001502475" flag="0"/>
    </comp>
  </station>
  <station code="ZIDIL" name="ZIDIL" netid="XE" insttype="" lat="39.7822" lon="16.2596">
    <comp name="--.HHE">
      <acc value="0.0064416967" flag="0"/>
      <vel value="0.0038063907" flag="0"/>
      <psa03 value="0.0148587282" flag="0"/>
      <psa10 value="0.0062837253" flag="0"/>
      <psa30 value="0.0005107093" flag="0"/>
    </comp>
    <comp name="--.HHN">
      <acc value="0.0050531034" flag="0"/>
      <vel value="0.0041610640" flag="0"/>
      <psa03 value="0.0156362557" flag="0"/>
      <psa10 value="0.0050472357" flag="0"/>
      <psa30 value="0.0004984269" flag="0"/>
    </comp>
    <comp name="--.HHZ">
      <acc value="0.0059498593" flag="0"/>
      <vel value="0.0022069187" flag="0"/>
      <psa03 value="0.0106918090" flag="0"/>
      <psa10 value="0.0025370829" flag="0"/>
      <psa30 value="0.0002376917" flag="0"/>
    </comp>
  </station>
</stationlist>
