<stationlist xmlns:esm="https://esm-db.eu/esmws/shakemap/1/" created="1784080718">
	<station code="T1811" name="T1811" netid="3Q" source="XVIII-INGV SISMIKO Emergency Seismic Network (XVIII-ISESN) (XVIII-ISESN)" insttype="" lat="39.56904" lon="16.77169" esm:processing="automatic (Paolucci et al 2011)" esm:quality="best">
		<comp name="00.HNE" depth="0.0">
			<acc value="0.133726533897232" flag="0"/>
			<vel value="0.0478873552762285" flag="0"/>
			<psa03 value="0.26565664011524" flag="0"/>
			<psa10 value="0.0447443415930173" flag="0"/>
			<psa30 value="0.00212290250687269" flag="0"/>
		</comp>
		<comp name="00.HNN" depth="0.0">
			<acc value="0.153380506572646" flag="0"/>
			<vel value="0.0538918745106308" flag="0"/>
			<psa03 value="0.3656423886805" flag="0"/>
			<psa10 value="0.0292641992345843" flag="0"/>
			<psa30 value="0.00234514556271954" flag="0"/>
		</comp>
		<comp name="00.HNZ" depth="0.0">
			<acc value="0.154748843156157" flag="0"/>
			<vel value="0.0402293817510826" flag="0"/>
			<psa03 value="0.239588246545411" flag="0"/>
			<psa10 value="0.0159298027712677" flag="0"/>
			<psa30 value="0.00150666105890165" flag="0"/>
		</comp>
	</station>
	<station code="T1812" name="T1812" netid="3Q" source="XVIII-INGV SISMIKO Emergency Seismic Network (XVIII-ISESN) (XVIII-ISESN)" insttype="" lat="39.48464" lon="16.50149" esm:processing="automatic (Paolucci et al 2011)" esm:quality="good">
		<comp name="00.HNE" depth="0.0">
			<acc value="0.0243584204930112" flag="0"/>
			<vel value="0.0115369128641609" flag="0"/>
			<psa03 value="0.0526676504315086" flag="0"/>
			<psa10 value="0.0146078233215911" flag="0"/>
			<psa30 value="0.000758927046026356" flag="0"/>
		</comp>
		<comp name="00.HNN" depth="0.0">
			<acc value="0.0305052630333986" flag="0"/>
			<vel value="0.0100453853344137" flag="0"/>
			<psa03 value="0.0649984308271751" flag="0"/>
			<psa10 value="0.0121754600019698" flag="0"/>
			<psa30 value="0.000791076102825427" flag="0"/>
		</comp>
		<comp name="00.HNZ" depth="0.0">
			<acc value="0.0498703708255949" flag="0"/>
			<vel value="0.00882000240984254" flag="0"/>
			<psa03 value="0.0507608626582497" flag="0"/>
			<psa10 value="0.00508057453186186" flag="0"/>
			<psa30 value="0.000703287266411658" flag="0"/>
		</comp>
	</station>
	<station code="T1813" name="T1813" netid="3Q" source="XVIII-INGV SISMIKO Emergency Seismic Network (XVIII-ISESN) (XVIII-ISESN)" insttype="" lat="39.31469" lon="16.75119" esm:processing="automatic (Paolucci et al 2011)" esm:quality="best">
		<comp name="00.HNE" depth="0.0">
			<acc value="0.159707799389176" flag="0"/>
			<vel value="0.0386932629972388" flag="0"/>
			<psa03 value="0.149264700553858" flag="0"/>
			<psa10 value="0.0270675549676711" flag="0"/>
			<psa30 value="0.00205664978462325" flag="0"/>
		</comp>
		<comp name="00.HNN" depth="0.0">
			<acc value="0.306136212337048" flag="0"/>
			<vel value="0.0388956433841352" flag="0"/>
			<psa03 value="0.161459914676863" flag="0"/>
			<psa10 value="0.0163282141640396" flag="0"/>
			<psa30 value="0.00168299274000795" flag="0"/>
		</comp>
		<comp name="00.HNZ" depth="0.0">
			<acc value="0.248033915500473" flag="0"/>
			<vel value="0.046248807271153" flag="0"/>
			<psa03 value="0.116934944282759" flag="0"/>
			<psa10 value="0.0094644616616383" flag="0"/>
			<psa30 value="0.00105396440330428" flag="0"/>
		</comp>
	</station>
	<station code="CSMBE" name="CSMBE" netid="7C" source="Urban Seismic Network (RUSN-CAL-INGV)" insttype="" lat="39.2895" lon="16.2642" esm:processing="automatic (Paolucci et al 2011)" esm:quality="best">
		<comp name="--.HNE" depth="0.0">
			<acc value="0.0125491553393464" flag="0"/>
			<vel value="0.0063084935448177" flag="0"/>
			<psa03 value="0.0319515931987255" flag="0"/>
			<psa10 value="0.0104735269447525" flag="0"/>
			<psa30 value="0.000535304002931687" flag="0"/>
		</comp>
		<comp name="--.HNN" depth="0.0">
			<acc value="0.0103042388677199" flag="0"/>
			<vel value="0.00556621212863985" flag="0"/>
			<psa03 value="0.0333498290541621" flag="0"/>
			<psa10 value="0.00918337397846659" flag="0"/>
			<psa30 value="0.000469789715013194" flag="0"/>
		</comp>
		<comp name="--.HNZ" depth="0.0">
			<acc value="0.0122722299246677" flag="0"/>
			<vel value="0.00521438494221755" flag="0"/>
			<psa03 value="0.0244307173734653" flag="0"/>
			<psa10 value="0.00754461104347006" flag="0"/>
			<psa30 value="0.000481257610121042" flag="0"/>
		</comp>
	</station>
	<station code="CELI" name="CELI" netid="IV" source="Italian National Seismic Network (INSN)" insttype="" lat="39.4027" lon="16.5088" esm:processing="manual (Paolucci et al 2011)" esm:quality="best">
		<comp name="--.HNE" depth="0.0">
			<acc value="0.0105136168150104" flag="0"/>
			<vel value="0.00630228148646311" flag="0"/>
			<psa03 value="0.0284469079055187" flag="0"/>
			<psa10 value="0.00594814294154385" flag="0"/>
			<psa30 value="0.000931021258922035" flag="0"/>
		</comp>
		<comp name="--.HNN" depth="0.0">
			<acc value="0.0131120672187891" flag="0"/>
			<vel value="0.00635493875961563" flag="0"/>
			<psa03 value="0.0345544817731821" flag="0"/>
			<psa10 value="0.00757913536176019" flag="0"/>
			<psa30 value="0.00105504187051126" flag="0"/>
		</comp>
		<comp name="--.HNZ" depth="0.0">
			<acc value="0.0202941879734838" flag="0"/>
			<vel value="0.0041552469362444" flag="0"/>
			<psa03 value="0.0239617149501721" flag="0"/>
			<psa10 value="0.00344239218221301" flag="0"/>
			<psa30 value="0.000518019472499874" flag="0"/>
		</comp>
	</station>
	<station code="GRIS" name="GRIS" netid="IV" source="Italian National Seismic Network (INSN)" insttype="" lat="39.7405" lon="15.8531" esm:processing="manual (Paolucci et al 2011)" esm:quality="good">
		<comp name="--.HNE" depth="0.0">
			<acc value="0.00372653648580228" flag="0"/>
			<vel value="0.00353256314778965" flag="0"/>
			<psa03 value="0.0153377204757912" flag="0"/>
			<psa10 value="0.00572325788774677" flag="0"/>
			<psa30 value="0.000407676199255763" flag="0"/>
		</comp>
		<comp name="--.HNN" depth="0.0">
			<acc value="0.00551057057549423" flag="0"/>
			<vel value="0.00415035409240976" flag="0"/>
			<psa03 value="0.0145630246247431" flag="0"/>
			<psa10 value="0.00622003923457292" flag="0"/>
			<psa30 value="0.000592460132992834" flag="0"/>
		</comp>
		<comp name="--.HNZ" depth="0.0">
			<acc value="0.00357965700128467" flag="0"/>
			<vel value="0.0018539381163904" flag="0"/>
			<psa03 value="0.00974540339764713" flag="0"/>
			<psa10 value="0.00268785790114463" flag="0"/>
			<psa30 value="0.000260108480910314" flag="0"/>
		</comp>
	</station>
	<station code="SALB" name="SALB" netid="IV" source="Italian National Seismic Network (INSN)" insttype="" lat="39.8772" lon="16.3459" esm:processing="manual (Paolucci et al 2011)" esm:quality="best">
		<comp name="--.HNE" depth="0.0">
			<acc value="0.00824324201861211" flag="0"/>
			<vel value="0.00332271565163385" flag="0"/>
			<psa03 value="0.0303210398700686" flag="0"/>
			<psa10 value="0.00285186775036768" flag="0"/>
			<psa30 value="0.000163734010637" flag="0"/>
		</comp>
		<comp name="--.HNN" depth="0.0">
			<acc value="0.00636679418728098" flag="0"/>
			<vel value="0.0024722893138267" flag="0"/>
			<psa03 value="0.0161617672523387" flag="0"/>
			<psa10 value="0.00264826934109568" flag="0"/>
			<psa30 value="0.000149445095316693" flag="0"/>
		</comp>
		<comp name="--.HNZ" depth="0.0">
			<acc value="0.00487180625794532" flag="0"/>
			<vel value="0.00174856841641057" flag="0"/>
			<psa03 value="0.012245408854472" flag="0"/>
			<psa10 value="0.00147769081945195" flag="0"/>
			<psa30 value="0.000134951999803587" flag="0"/>
		</comp>
	</station>
	<station code="SERS" name="SERS" netid="IV" source="Italian National Seismic Network (INSN)" insttype="" lat="39.0359" lon="16.6886" esm:processing="manual (Paolucci et al 2011)" esm:quality="best">
		<comp name="--.HNE" depth="0.0">
			<acc value="0.00921991385899189" flag="0"/>
			<vel value="0.00508027243712806" flag="0"/>
			<psa03 value="0.0233268629985078" flag="0"/>
			<psa10 value="0.00626552177880808" flag="0"/>
			<psa30 value="0.000420378108403379" flag="0"/>
		</comp>
		<comp name="--.HNN" depth="0.0">
			<acc value="0.0133937444627151" flag="0"/>
			<vel value="0.00817027677039556" flag="0"/>
			<psa03 value="0.029337011141322" flag="0"/>
			<psa10 value="0.00681841481152263" flag="0"/>
			<psa30 value="0.000738726593260773" flag="0"/>
		</comp>
		<comp name="--.HNZ" depth="0.0">
			<acc value="0.00860165869798792" flag="0"/>
			<vel value="0.0042033472914249" flag="0"/>
			<psa03 value="0.023015714782313" flag="0"/>
			<psa10 value="0.00531043757167921" flag="0"/>
			<psa30 value="0.00033614479398477" flag="0"/>
		</comp>
	</station>
	<station code="BIDON" name="BIDON" netid="XE" source="POLLINO - Near Fault Observatories (POLLINO-NFO)" insttype="" lat="39.9457" lon="16.4559" esm:processing="automatic (Paolucci et al 2011)" esm:quality="best">
		<comp name="--.HNE" depth="1.0">
			<acc value="0.01289798767259" flag="0"/>
			<vel value="0.0068364165160292" flag="0"/>
			<psa03 value="0.0343231904095854" flag="0"/>
			<psa10 value="0.00823667720193112" flag="0"/>
			<psa30 value="0.000436724503771872" flag="0"/>
		</comp>
		<comp name="--.HNN" depth="1.0">
			<acc value="0.0106544492916437" flag="0"/>
			<vel value="0.00405839913712547" flag="0"/>
			<psa03 value="0.0195992645009207" flag="0"/>
			<psa10 value="0.0043465955968605" flag="0"/>
			<psa30 value="0.000277827727640008" flag="0"/>
		</comp>
		<comp name="--.HNZ" depth="1.0">
			<acc value="0.00687872664806309" flag="0"/>
			<vel value="0.00299969607783832" flag="0"/>
			<psa03 value="0.0159751559319255" flag="0"/>
			<psa10 value="0.00297245300417182" flag="0"/>
			<psa30 value="0.000210405982634375" flag="0"/>
		</comp>
	</station>
	<station code="CNESE" name="CNESE" netid="XE" source="POLLINO - Near Fault Observatories (POLLINO-NFO)" insttype="" lat="39.8941" lon="16.0843" esm:processing="automatic (Paolucci et al 2011)" esm:quality="best">
		<comp name="--.HNE" depth="1.0">
			<acc value="0.00298280003457577" flag="0"/>
			<vel value="0.00319706739098765" flag="0"/>
			<psa03 value="0.0077218214285975" flag="0"/>
			<psa10 value="0.0036715708016702" flag="0"/>
			<psa30 value="0.000671760802938868" flag="0"/>
		</comp>
		<comp name="--.HNN" depth="1.0">
			<acc value="0.00463328230126871" flag="0"/>
			<vel value="0.00287244142202268" flag="0"/>
			<psa03 value="0.00999341266560143" flag="0"/>
			<psa10 value="0.0031010448039988" flag="0"/>
			<psa30 value="0.000621656337930111" flag="0"/>
		</comp>
		<comp name="--.HNZ" depth="1.0">
			<acc value="0.00285050860302109" flag="0"/>
			<vel value="0.0015294151138051" flag="0"/>
			<psa03 value="0.00565070896714069" flag="0"/>
			<psa10 value="0.00275977875930021" flag="0"/>
			<psa30 value="0.000289274553644549" flag="0"/>
		</comp>
	</station>
	<station code="LAICA" name="LAICA" netid="XE" source="POLLINO - Near Fault Observatories (POLLINO-NFO)" insttype="" lat="39.948489" lon="15.975058" esm:processing="automatic (Paolucci et al 2011)" esm:quality="good">
		<comp name="--.HNE" depth="1.0">
			<acc value="0.0016769591856721" flag="0"/>
			<vel value="0.0021715291890122" flag="0"/>
			<psa03 value="0.00564899791630182" flag="0"/>
			<psa10 value="0.00362661329220652" flag="0"/>
			<psa30 value="0.00035294973535437" flag="0"/>
		</comp>
		<comp name="--.HNN" depth="1.0">
			<acc value="0.00172754314412106" flag="0"/>
			<vel value="0.00184190623912672" flag="0"/>
			<psa03 value="0.00611109102769374" flag="0"/>
			<psa10 value="0.00332451249826086" flag="0"/>
			<psa30 value="0.000256434852133874" flag="0"/>
		</comp>
		<comp name="--.HNZ" depth="1.0">
			<acc value="0.00120447833429631" flag="0"/>
			<vel value="0.00106652406800127" flag="0"/>
			<psa03 value="0.0036702063493031" flag="0"/>
			<psa10 value="0.0024930800761928" flag="0"/>
			<psa30 value="0.000121844373675148" flag="0"/>
		</comp>
	</station>
	<station code="MORMA" name="MORMA" netid="XE" source="POLLINO - Near Fault Observatories (POLLINO-NFO)" insttype="" lat="39.8699" lon="15.9721" esm:processing="automatic (Paolucci et al 2011)" esm:quality="best">
		<comp name="--.HNE" depth="1.0">
			<acc value="0.005362178407826" flag="0"/>
			<vel value="0.00425266429464126" flag="0"/>
			<psa03 value="0.0252033232423012" flag="0"/>
			<psa10 value="0.00609117413537393" flag="0"/>
			<psa30 value="0.000981990885412153" flag="0"/>
		</comp>
		<comp name="--.HNN" depth="1.0">
			<acc value="0.00463078230783506" flag="0"/>
			<vel value="0.00319641929883208" flag="0"/>
			<psa03 value="0.0147874118851286" flag="0"/>
			<psa10 value="0.00427120669646941" flag="0"/>
			<psa30 value="0.000639264900245417" flag="0"/>
		</comp>
		<comp name="--.HNZ" depth="1.0">
			<acc value="0.00433598883889644" flag="0"/>
			<vel value="0.0032750736642062" flag="0"/>
			<psa03 value="0.0106488428033545" flag="0"/>
			<psa10 value="0.00300914988828693" flag="0"/>
			<psa30 value="0.000353738042784117" flag="0"/>
		</comp>
	</station>
	<station code="T0701" name="T0701" netid="XE" source="POLLINO - Near Fault Observatories (POLLINO-NFO)" insttype="" lat="39.98617" lon="16.116141" esm:processing="automatic (Paolucci et al 2011)" esm:quality="best">
		<comp name="--.HNE" depth="1.0">
			<acc value="0.00261293752216923" flag="0"/>
			<vel value="0.00127014717618182" flag="0"/>
			<psa03 value="0.00724327931088771" flag="0"/>
			<psa10 value="0.00154815036986369" flag="0"/>
			<psa30 value="0.000118735482830578" flag="0"/>
		</comp>
		<comp name="--.HNN" depth="1.0">
			<acc value="0.00166810778793912" flag="0"/>
			<vel value="0.0010744185782611" flag="0"/>
			<psa03 value="0.00427415814199893" flag="0"/>
			<psa10 value="0.00237849779818273" flag="0"/>
			<psa30 value="0.000190168990991396" flag="0"/>
		</comp>
		<comp name="--.HNZ" depth="1.0">
			<acc value="0.00126790049077851" flag="0"/>
			<vel value="0.00064575592500993" flag="0"/>
			<psa03 value="0.0024701136654592" flag="0"/>
			<psa10 value="0.00107598319266927" flag="0"/>
			<psa30 value="8.39505678237298e-05" flag="0"/>
		</comp>
	</station>
	<station code="T0702" name="T0702" netid="XE" source="POLLINO - Near Fault Observatories (POLLINO-NFO)" insttype="" lat="39.7209" lon="16.0835" esm:processing="automatic (Paolucci et al 2011)" esm:quality="best">
		<comp name="--.HNE" depth="1.0">
			<acc value="0.00235352186695581" flag="0"/>
			<vel value="0.00169767058907607" flag="0"/>
			<psa03 value="0.005185478603674" flag="0"/>
			<psa10 value="0.00207306350215695" flag="0"/>
			<psa30 value="0.000280144131090687" flag="0"/>
		</comp>
		<comp name="--.HNN" depth="1.0">
			<acc value="0.00163280219257088" flag="0"/>
			<vel value="0.00136985994117758" flag="0"/>
			<psa03 value="0.00453735038187117" flag="0"/>
			<psa10 value="0.00128774976022779" flag="0"/>
			<psa30 value="0.000249647345203297" flag="0"/>
		</comp>
		<comp name="--.HNZ" depth="1.0">
			<acc value="0.00245386500090363" flag="0"/>
			<vel value="0.0013516919229768" flag="0"/>
			<psa03 value="0.00613121605880798" flag="0"/>
			<psa10 value="0.00131758075982145" flag="0"/>
			<psa30 value="0.000135800298186645" flag="0"/>
		</comp>
	</station>
	<station code="TNOVA" name="TNOVA" netid="XE" source="POLLINO - Near Fault Observatories (POLLINO-NFO)" insttype="" lat="39.9747" lon="16.2611" esm:processing="automatic (Paolucci et al 2011)" esm:quality="good">
		<comp name="--.HNE" depth="0.0">
			<acc value="0.104281611709886" flag="0"/>
			<vel value="0.0378596309171456" flag="0"/>
			<psa03 value="0.216513717971069" flag="0"/>
			<psa10 value="0.0536496027728341" flag="0"/>
			<psa30 value="0.00316353519367938" flag="0"/>
		</comp>
		<comp name="--.HNN" depth="0.0">
			<acc value="0.101893761520904" flag="0"/>
			<vel value="0.0329132800657227" flag="0"/>
			<psa03 value="0.153769842747518" flag="0"/>
			<psa10 value="0.0241342644015616" flag="0"/>
			<psa30 value="0.00189017750665045" flag="0"/>
		</comp>
		<comp name="--.HNZ" depth="0.0">
			<acc value="0.0618228586202199" flag="0"/>
			<vel value="0.0206132657448799" flag="0"/>
			<psa03 value="0.119484686107305" flag="0"/>
			<psa10 value="0.0211421193116478" flag="0"/>
			<psa30 value="0.00243610658843752" flag="0"/>
		</comp>
	</station>
	<station code="ZIDIL" name="ZIDIL" netid="XE" source="POLLINO - Near Fault Observatories (POLLINO-NFO)" insttype="" lat="39.78218" lon="16.25963" esm:processing="automatic (Paolucci et al 2011)" esm:quality="best">
		<comp name="--.HNE" depth="1.0">
			<acc value="0.00323132137315699" flag="0"/>
			<vel value="0.00191857853854391" flag="0"/>
			<psa03 value="0.0075786322555481" flag="0"/>
			<psa10 value="0.0031343268525222" flag="0"/>
			<psa30 value="0.000247991141737557" flag="0"/>
		</comp>
		<comp name="--.HNN" depth="1.0">
			<acc value="0.00257398084061662" flag="0"/>
			<vel value="0.00209991669757506" flag="0"/>
			<psa03 value="0.0079093898436911" flag="0"/>
			<psa10 value="0.00253830432208001" flag="0"/>
			<psa30 value="0.000254211111071834" flag="0"/>
		</comp>
		<comp name="--.HNZ" depth="1.0">
			<acc value="0.0029683829387956" flag="0"/>
			<vel value="0.00107528920638789" flag="0"/>
			<psa03 value="0.00539173543122848" flag="0"/>
			<psa10 value="0.00120287812227113" flag="0"/>
			<psa30 value="0.000109585462624228" flag="0"/>
		</comp>
	</station>
	<station code="PIPA" name="PIPA" netid="IV" source="Italian National Seismic Network (INSN)" insttype="" lat="39.48514" lon="16.8158" esm:processing="discarded" esm:quality="good">
		<comp name="--.HNE" depth="0.0">
			<acc value="0" flag="1"/>
			<vel value="0" flag="1"/>
			<psa03 value="0" flag="1"/>
			<psa10 value="0" flag="1"/>
			<psa30 value="0" flag="1"/>
		</comp>
		<comp name="--.HNN" depth="0.0">
			<acc value="0" flag="1"/>
			<vel value="0" flag="1"/>
			<psa03 value="0" flag="1"/>
			<psa10 value="0" flag="1"/>
			<psa30 value="0" flag="1"/>
		</comp>
		<comp name="--.HNZ" depth="0.0">
			<acc value="0" flag="1"/>
			<vel value="0" flag="1"/>
			<psa03 value="0" flag="1"/>
			<psa10 value="0" flag="1"/>
			<psa30 value="0" flag="1"/>
		</comp>
	</station>
	<station code="FRASC" name="FRASC" netid="XE" source="POLLINO - Near Fault Observatories (POLLINO-NFO)" insttype="" lat="39.838096" lon="16.266299" esm:processing="automatic (Paolucci et al 2011)" esm:quality="bad">
		<comp name="--.HNE" depth="1.0">
			<acc value="0" flag="1"/>
			<vel value="0" flag="1"/>
			<psa03 value="0" flag="1"/>
			<psa10 value="0" flag="1"/>
			<psa30 value="0" flag="1"/>
		</comp>
		<comp name="--.HNN" depth="1.0">
			<acc value="0" flag="1"/>
			<vel value="0" flag="1"/>
			<psa03 value="0" flag="1"/>
			<psa10 value="0" flag="1"/>
			<psa30 value="0" flag="1"/>
		</comp>
		<comp name="--.HNZ" depth="1.0">
			<acc value="0" flag="1"/>
			<vel value="0" flag="1"/>
			<psa03 value="0" flag="1"/>
			<psa10 value="0" flag="1"/>
			<psa30 value="0" flag="1"/>
		</comp>
	</station>
	<station code="SHEVA" name="SHEVA" netid="XE" source="POLLINO - Near Fault Observatories (POLLINO-NFO)" insttype="" lat="39.8153" lon="16.16773" esm:processing="automatic (Paolucci et al 2011)" esm:quality="bad">
		<comp name="--.HNE" depth="1.0">
			<acc value="0" flag="1"/>
			<vel value="0" flag="1"/>
			<psa03 value="0" flag="1"/>
			<psa10 value="0" flag="1"/>
			<psa30 value="0" flag="1"/>
		</comp>
		<comp name="--.HNN" depth="1.0">
			<acc value="0" flag="1"/>
			<vel value="0" flag="1"/>
			<psa03 value="0" flag="1"/>
			<psa10 value="0" flag="1"/>
			<psa30 value="0" flag="1"/>
		</comp>
		<comp name="--.HNZ" depth="1.0">
			<acc value="0" flag="1"/>
			<vel value="0" flag="1"/>
			<psa03 value="0" flag="1"/>
			<psa10 value="0" flag="1"/>
			<psa30 value="0" flag="1"/>
		</comp>
	</station>
</stationlist>
