<?xml version="1.0" encoding="UTF-8" standalone="yes"?>
<!DOCTYPE earthquake SYSTEM "stationlist.dtd">
<stationlist created="" xmlns="ch.ethz.sed.shakemap.usgs.xml">
  <station code="CAR1" name="CAR1" netid="IV" insttype="" commtype="DIG" lat="39.2534" lon="16.2114">
    <comp name="--.HHZ">
      <acc value="0.0185839983" flag="0"/>
      <vel value="0.0069652507" flag="0"/>
      <psa03 value="0.0603951549" flag="0"/>
      <psa10 value="0.0087416765" flag="0"/>
      <psa30 value="0.0004412581" flag="0"/>
    </comp>
    <comp name="--.HHE">
      <acc value="0.0351868698" flag="0"/>
      <vel value="0.0179663282" flag="0"/>
      <psa03 value="0.1760372660" flag="0"/>
      <psa10 value="0.0163467360" flag="0"/>
      <psa30 value="0.0011696301" flag="0"/>
    </comp>
    <comp name="--.HHN">
      <acc value="0.0220042081" flag="0"/>
      <vel value="0.0091687778" flag="0"/>
      <psa03 value="0.0783192438" flag="0"/>
      <psa10 value="0.0112362927" flag="0"/>
      <psa30 value="0.0011057678" flag="0"/>
    </comp>
  </station>
  <station code="CELI" name="CELI" netid="IV" insttype="SS08" commtype="DIG" lat="39.4027" lon="16.5088">
    <comp name="--.HHE">
      <acc value="0.0593422376" flag="0"/>
      <vel value="0.0284909677" flag="0"/>
      <psa03 value="0.0937016067" flag="0"/>
      <psa10 value="0.0190324040" flag="0"/>
      <psa30 value="0.0013618833" flag="0"/>
    </comp>
    <comp name="--.HHN">
      <acc value="0.0486180064" flag="0"/>
      <vel value="0.0185846569" flag="0"/>
      <psa03 value="0.1028801978" flag="0"/>
      <psa10 value="0.0158507733" flag="0"/>
      <psa30 value="0.0013538798" flag="0"/>
    </comp>
    <comp name="--.HHZ">
      <acc value="0.0311674968" flag="0"/>
      <vel value="0.0097542019" flag="0"/>
      <psa03 value="0.0387800158" flag="0"/>
      <psa10 value="0.0090254516" flag="0"/>
      <psa30 value="0.0008612861" flag="0"/>
    </comp>
  </station>
  <station code="CET2" name="CET2" netid="IV" insttype="" commtype="DIG" lat="39.5288" lon="15.9546">
    <comp name="--.HHN">
      <acc value="0.0221321190" flag="0"/>
      <vel value="0.0112873374" flag="0"/>
      <psa03 value="0.0284424291" flag="0"/>
      <psa10 value="0.0153758778" flag="0"/>
      <psa30 value="0.0008572733" flag="0"/>
    </comp>
    <comp name="--.HHE">
      <acc value="0.0117171369" flag="0"/>
      <vel value="0.0074543711" flag="0"/>
      <psa03 value="0.0231209485" flag="0"/>
      <psa10 value="0.0112771694" flag="0"/>
      <psa30 value="0.0004740324" flag="0"/>
    </comp>
    <comp name="--.HHZ">
      <acc value="0.0144720770" flag="0"/>
      <vel value="0.0036812497" flag="0"/>
      <psa03 value="0.0151358137" flag="0"/>
      <psa10 value="0.0043912708" flag="0"/>
      <psa30 value="0.0003479807" flag="0"/>
    </comp>
  </station>
  <station code="MMN" name="MMN" netid="IV" insttype="" commtype="DIG" lat="39.891" lon="15.9904">
    <comp name="--.HHE">
      <acc value="0.0088850022" flag="0"/>
      <vel value="0.0050003335" flag="0"/>
      <psa03 value="0.0228308546" flag="0"/>
      <psa10 value="0.0078990963" flag="0"/>
      <psa30 value="0.0004526244" flag="0"/>
    </comp>
    <comp name="--.HHZ">
      <acc value="0.0072389407" flag="0"/>
      <vel value="0.0030106175" flag="0"/>
      <psa03 value="0.0142506334" flag="0"/>
      <psa10 value="0.0038357419" flag="0"/>
      <psa30 value="0.0004917299" flag="0"/>
    </comp>
    <comp name="--.HHN">
      <acc value="0.0159616877" flag="0"/>
      <vel value="0.0071320126" flag="0"/>
      <psa03 value="0.0271473135" flag="0"/>
      <psa10 value="0.0084489622" flag="0"/>
      <psa30 value="0.0010533441" flag="0"/>
    </comp>
  </station>
  <station code="ORI" name="ORI" netid="IV" insttype="" commtype="DIG" lat="40.051" lon="16.4504">
    <comp name="--.HHE">
      <acc value="0.0759872433" flag="0"/>
      <vel value="0.0415172213" flag="0"/>
      <psa03 value="0.1948105270" flag="0"/>
      <psa10 value="0.0300582123" flag="0"/>
      <psa30 value="0.0019360466" flag="0"/>
    </comp>
    <comp name="--.HHN">
      <acc value="0.0532202369" flag="0"/>
      <vel value="0.0266749466" flag="0"/>
      <psa03 value="0.1406569974" flag="0"/>
      <psa10 value="0.0199030118" flag="0"/>
      <psa30 value="0.0013536955" flag="0"/>
    </comp>
    <comp name="--.HHZ">
      <acc value="0.0315672833" flag="0"/>
      <vel value="0.0107339357" flag="0"/>
      <psa03 value="0.0564821337" flag="0"/>
      <psa10 value="0.0141993254" flag="0"/>
      <psa30 value="0.0011541816" flag="0"/>
    </comp>
  </station>
  <station code="PIPA" name="PIPA" netid="IV" insttype="SS08" commtype="DIG" lat="39.4851" lon="16.8158">
    <comp name="--.HHE">
      <acc value="3.0945403208" flag="0"/>
      <vel value="0.6741123562" flag="0"/>
      <psa03 value="2.6779944266" flag="0"/>
      <psa10 value="0.3329392838" flag="0"/>
      <psa30 value="0.0190050171" flag="0"/>
    </comp>
    <comp name="--.HHZ">
      <acc value="2.1745843306" flag="0"/>
      <vel value="0.5630816864" flag="0"/>
      <psa03 value="1.6148883314" flag="0"/>
      <psa10 value="0.1185616888" flag="0"/>
      <psa30 value="0.0101194337" flag="0"/>
    </comp>
    <comp name="--.HHN">
      <acc value="2.4596961260" flag="0"/>
      <vel value="0.7337292770" flag="0"/>
      <psa03 value="3.2020962996" flag="0"/>
      <psa10 value="0.1928193700" flag="0"/>
      <psa30 value="0.0175797159" flag="0"/>
    </comp>
  </station>
  <station code="SALB" name="SALB" netid="IV" insttype="" commtype="DIG" lat="39.8772" lon="16.3459">
    <comp name="--.HHE">
      <acc value="0.0359280096" flag="0"/>
      <vel value="0.0145189491" flag="0"/>
      <psa03 value="0.0778613995" flag="0"/>
      <psa10 value="0.0141416959" flag="0"/>
      <psa30 value="0.0017781938" flag="0"/>
    </comp>
    <comp name="--.HHZ">
      <acc value="0.0234886384" flag="0"/>
      <vel value="0.0068988993" flag="0"/>
      <psa03 value="0.0463350760" flag="0"/>
      <psa10 value="0.0062501392" flag="0"/>
      <psa30 value="0.0007873357" flag="0"/>
    </comp>
    <comp name="--.HHN">
      <acc value="0.0199810084" flag="0"/>
      <vel value="0.0120365417" flag="0"/>
      <psa03 value="0.0453127165" flag="0"/>
      <psa10 value="0.0109328279" flag="0"/>
      <psa30 value="0.0007128664" flag="0"/>
    </comp>
  </station>
  <station code="SELL" name="SELL" netid="IV" insttype="" commtype="DIG" lat="38.983" lon="16.6279">
    <comp name="--.HHN">
      <acc value="0.0062973961" flag="0"/>
      <vel value="0.0045252873" flag="0"/>
      <psa03 value="0.0210137638" flag="0"/>
      <psa10 value="0.0026763051" flag="0"/>
      <psa30 value="0.0002314916" flag="0"/>
    </comp>
    <comp name="--.HHZ">
      <acc value="0.0048915359" flag="0"/>
      <vel value="0.0029821093" flag="0"/>
      <psa03 value="0.0180678800" flag="0"/>
      <psa10 value="0.0039010203" flag="0"/>
      <psa30 value="0.0001749152" flag="0"/>
    </comp>
    <comp name="--.HHE">
      <acc value="0.0064011340" flag="0"/>
      <vel value="0.0050341471" flag="0"/>
      <psa03 value="0.0243902596" flag="0"/>
      <psa10 value="0.0049612234" flag="0"/>
      <psa30 value="0.0003171887" flag="0"/>
    </comp>
  </station>
  <station code="SPS2" name="SPS2" netid="IV" insttype="" commtype="DIG" lat="39.291" lon="16.3388">
    <comp name="--.HHE">
      <acc value="0.0180566847" flag="0"/>
      <vel value="0.0082465189" flag="0"/>
      <psa03 value="0.0645725187" flag="0"/>
      <psa10 value="0.0070935752" flag="0"/>
      <psa30 value="0.0003736877" flag="0"/>
    </comp>
    <comp name="--.HHN">
      <acc value="0.0250716178" flag="0"/>
      <vel value="0.0118374063" flag="0"/>
      <psa03 value="0.0859702850" flag="0"/>
      <psa10 value="0.0068788535" flag="0"/>
      <psa30 value="0.0004586014" flag="0"/>
    </comp>
    <comp name="--.HHZ">
      <acc value="0.0137034147" flag="0"/>
      <vel value="0.0068133516" flag="0"/>
      <psa03 value="0.0348945263" flag="0"/>
      <psa10 value="0.0044418270" flag="0"/>
      <psa30 value="0.0002259751" flag="0"/>
    </comp>
  </station>
  <station code="TDS" name="TDS" netid="IV" insttype="" commtype="DIG" lat="39.6601" lon="16.3376">
    <comp name="--.HHE">
      <acc value="0.0102827705" flag="0"/>
      <vel value="0.0055574826" flag="0"/>
      <psa03 value="0.0227140687" flag="0"/>
      <psa10 value="0.0085665243" flag="0"/>
      <psa30 value="0.0006408300" flag="0"/>
    </comp>
    <comp name="--.HHN">
      <acc value="0.0144413759" flag="0"/>
      <vel value="0.0081688981" flag="0"/>
      <psa03 value="0.0189220231" flag="0"/>
      <psa10 value="0.0130678121" flag="0"/>
      <psa30 value="0.0007636077" flag="0"/>
    </comp>
    <comp name="--.HHZ">
      <acc value="0.0093895250" flag="0"/>
      <vel value="0.0042219815" flag="0"/>
      <psa03 value="0.0169495500" flag="0"/>
      <psa10 value="0.0060409099" flag="0"/>
      <psa30 value="0.0007323903" flag="0"/>
    </comp>
  </station>
  <station code="CIRK" name="CIRK" netid="IY" insttype="" commtype="DIG" lat="39.3884" lon="17.0614">
    <comp name="00.HHN">
      <acc value="0.1020306812" flag="0"/>
      <vel value="0.0538232040" flag="0"/>
      <psa03 value="0.2170990476" flag="0"/>
      <psa10 value="0.0355002313" flag="0"/>
      <psa30 value="0.0031019875" flag="0"/>
    </comp>
    <comp name="00.HHZ">
      <acc value="0.0644811352" flag="0"/>
      <vel value="0.0227260742" flag="0"/>
      <psa03 value="0.1210799841" flag="0"/>
      <psa10 value="0.0240961672" flag="0"/>
      <psa30 value="0.0023834700" flag="0"/>
    </comp>
    <comp name="00.HHE">
      <acc value="0.0923012294" flag="0"/>
      <vel value="0.0400632868" flag="0"/>
      <psa03 value="0.1856724204" flag="0"/>
      <psa10 value="0.0647282179" flag="0"/>
      <psa30 value="0.0043918550" flag="0"/>
    </comp>
  </station>
  <station code="CMPN" name="CMPN" netid="IY" insttype="SS08" commtype="DIG" lat="39.4076" lon="16.8303">
    <comp name="00.HHN">
      <acc value="0.1605178312" flag="0"/>
      <vel value="0.0789046984" flag="0"/>
      <psa03 value="0.3598994233" flag="0"/>
      <psa10 value="0.0564397046" flag="0"/>
      <psa30 value="0.0039423426" flag="0"/>
    </comp>
    <comp name="00.HHE">
      <acc value="0.1442600998" flag="0"/>
      <vel value="0.0521709508" flag="0"/>
      <psa03 value="0.3645220313" flag="0"/>
      <psa10 value="0.0437748671" flag="0"/>
      <psa30 value="0.0020494747" flag="0"/>
    </comp>
    <comp name="00.HHZ">
      <acc value="0.2285489114" flag="0"/>
      <vel value="0.0337278148" flag="0"/>
      <psa03 value="0.2315469631" flag="0"/>
      <psa10 value="0.0195258300" flag="0"/>
      <psa30 value="0.0015550435" flag="0"/>
    </comp>
  </station>
  <station code="CO22" name="CO22" netid="IY" insttype="SS08" commtype="DIG" lat="39.4925" lon="16.305">
    <comp name="00.HHE">
      <acc value="0.0291734345" flag="0"/>
      <vel value="0.0154877754" flag="0"/>
      <psa03 value="0.0315402144" flag="0"/>
      <psa10 value="0.0129105022" flag="0"/>
      <psa30 value="0.0006449975" flag="0"/>
    </comp>
    <comp name="00.HHN">
      <acc value="0.0255493185" flag="0"/>
      <vel value="0.0117411276" flag="0"/>
      <psa03 value="0.0430086734" flag="0"/>
      <psa10 value="0.0115726434" flag="0"/>
      <psa30 value="0.0007246505" flag="0"/>
    </comp>
    <comp name="00.HHZ">
      <acc value="0.0260032785" flag="0"/>
      <vel value="0.0136543289" flag="0"/>
      <psa03 value="0.0338287201" flag="0"/>
      <psa10 value="0.0073556007" flag="0"/>
      <psa30 value="0.0005802433" flag="0"/>
    </comp>
  </station>
  <station code="CUTR" name="CUTR" netid="IY" insttype="SS08" commtype="DIG" lat="39.0218" lon="17.0737">
    <comp name="00.HHE">
      <acc value="0.0223989411" flag="0"/>
      <vel value="0.0146948375" flag="0"/>
      <psa03 value="0.0456555808" flag="0"/>
      <psa10 value="0.0310879142" flag="0"/>
      <psa30 value="0.0026128991" flag="0"/>
    </comp>
    <comp name="00.HHN">
      <acc value="0.0225539148" flag="0"/>
      <vel value="0.0161247249" flag="0"/>
      <psa03 value="0.0699638666" flag="0"/>
      <psa10 value="0.0225636634" flag="0"/>
      <psa30 value="0.0017687554" flag="0"/>
    </comp>
    <comp name="00.HHZ">
      <acc value="0.0181638366" flag="0"/>
      <vel value="0.0090879066" flag="0"/>
      <psa03 value="0.0299183510" flag="0"/>
      <psa10 value="0.0136411032" flag="0"/>
      <psa30 value="0.0019153859" flag="0"/>
    </comp>
  </station>
  <station code="FALC" name="FALC" netid="IY" insttype="SS08" commtype="DIG" lat="39.2721" lon="16.0796">
    <comp name="00.HHE">
      <acc value="0.0106432194" flag="0"/>
      <vel value="0.0048944429" flag="0"/>
      <psa03 value="0.0183615741" flag="0"/>
      <psa10 value="0.0079300309" flag="0"/>
      <psa30 value="0.0004491774" flag="0"/>
    </comp>
    <comp name="00.HHZ">
      <acc value="0.0085049372" flag="0"/>
      <vel value="0.0039677195" flag="0"/>
      <psa03 value="0.0166947834" flag="0"/>
      <psa10 value="0.0057714133" flag="0"/>
      <psa30 value="0.0003221300" flag="0"/>
    </comp>
    <comp name="00.HHN">
      <acc value="0.0087200474" flag="0"/>
      <vel value="0.0064595725" flag="0"/>
      <psa03 value="0.0146717112" flag="0"/>
      <psa10 value="0.0165111570" flag="0"/>
      <psa30 value="0.0007044157" flag="0"/>
    </comp>
  </station>
  <station code="MCDA" name="MCDA" netid="IY" insttype="SS08" commtype="DIG" lat="39.0216" lon="16.8403">
    <comp name="00.HHZ">
      <acc value="0.0482667002" flag="0"/>
      <vel value="0.0215361231" flag="0"/>
      <psa03 value="0.0941015483" flag="0"/>
      <psa10 value="0.0213619238" flag="0"/>
      <psa30 value="0.0010764115" flag="0"/>
    </comp>
    <comp name="00.HHE">
      <acc value="0.0574049306" flag="0"/>
      <vel value="0.0378753253" flag="0"/>
      <psa03 value="0.1525156030" flag="0"/>
      <psa10 value="0.0372699834" flag="0"/>
      <psa30 value="0.0023487132" flag="0"/>
    </comp>
    <comp name="00.HHN">
      <acc value="0.0759913803" flag="0"/>
      <vel value="0.0357264410" flag="0"/>
      <psa03 value="0.1325421746" flag="0"/>
      <psa10 value="0.0387938907" flag="0"/>
      <psa30 value="0.0029617181" flag="0"/>
    </comp>
  </station>
  <station code="ROI" name="ROI" netid="IY" insttype="SS08" commtype="DIG" lat="39.5724" lon="16.5691">
    <comp name="00.HHE">
      <acc value="0.3314114378" flag="0"/>
      <vel value="0.1907488161" flag="0"/>
      <psa03 value="0.7203607466" flag="0"/>
      <psa10 value="0.0842201361" flag="0"/>
      <psa30 value="0.0049279571" flag="0"/>
    </comp>
    <comp name="00.HHZ">
      <acc value="0.1667920410" flag="0"/>
      <vel value="0.0570050706" flag="0"/>
      <psa03 value="0.2245631255" flag="0"/>
      <psa10 value="0.0611569077" flag="0"/>
      <psa30 value="0.0027684722" flag="0"/>
    </comp>
    <comp name="00.HHN">
      <acc value="0.2873002731" flag="0"/>
      <vel value="0.1087919259" flag="0"/>
      <psa03 value="0.4726154638" flag="0"/>
      <psa10 value="0.0618120110" flag="0"/>
      <psa30 value="0.0064577757" flag="0"/>
    </comp>
  </station>
  <station code="CUC" name="CUC" netid="MN" insttype="" commtype="DIG" lat="39.9938" lon="15.8155">
    <comp name="--.HHE">
      <acc value="0.0070322128" flag="0"/>
      <vel value="0.0066971656" flag="0"/>
      <psa03 value="0.0116138529" flag="0"/>
      <psa10 value="0.0092297746" flag="0"/>
      <psa30 value="0.0004109300" flag="0"/>
    </comp>
    <comp name="--.HHN">
      <acc value="0.0039194509" flag="0"/>
      <vel value="0.0043407203" flag="0"/>
      <psa03 value="0.0099441775" flag="0"/>
      <psa10 value="0.0065407813" flag="0"/>
      <psa30 value="0.0005166362" flag="0"/>
    </comp>
    <comp name="--.HHZ">
      <acc value="0.0035557660" flag="0"/>
      <vel value="0.0021824806" flag="0"/>
      <psa03 value="0.0085922710" flag="0"/>
      <psa10 value="0.0034370233" flag="0"/>
      <psa30 value="0.0003234192" flag="0"/>
    </comp>
  </station>
  <station code="BIDON" name="BIDON" netid="XE" insttype="" commtype="DIG" lat="39.9457" lon="16.4559">
    <comp name="--.HHE">
      <acc value="0.0520643548" flag="0"/>
      <vel value="0.0228160933" flag="0"/>
      <psa03 value="0.1098733612" flag="0"/>
      <psa10 value="0.0263378268" flag="0"/>
      <psa30 value="0.0023449343" flag="0"/>
    </comp>
    <comp name="--.HHN">
      <acc value="0.0455789830" flag="0"/>
      <vel value="0.0188231928" flag="0"/>
      <psa03 value="0.0923994750" flag="0"/>
      <psa10 value="0.0279848526" flag="0"/>
      <psa30 value="0.0022149600" flag="0"/>
    </comp>
    <comp name="--.HHZ">
      <acc value="0.0243292681" flag="0"/>
      <vel value="0.0100082967" flag="0"/>
      <psa03 value="0.0500278664" flag="0"/>
      <psa10 value="0.0195620072" flag="0"/>
      <psa30 value="0.0016778515" flag="0"/>
    </comp>
  </station>
  <station code="CNESE" name="CNESE" netid="XE" insttype="" commtype="DIG" lat="39.8941" lon="16.0843">
    <comp name="--.HHN">
      <acc value="0.0082398873" flag="0"/>
      <vel value="0.0044241986" flag="0"/>
      <psa03 value="0.0146278136" flag="0"/>
      <psa10 value="0.0107064792" flag="0"/>
      <psa30 value="0.0005153505" flag="0"/>
    </comp>
    <comp name="--.HHE">
      <acc value="0.0110794198" flag="0"/>
      <vel value="0.0042102685" flag="0"/>
      <psa03 value="0.0124869124" flag="0"/>
      <psa10 value="0.0064443383" flag="0"/>
      <psa30 value="0.0006612236" flag="0"/>
    </comp>
    <comp name="--.HHZ">
      <acc value="0.0045458689" flag="0"/>
      <vel value="0.0023130870" flag="0"/>
      <psa03 value="0.0081195515" flag="0"/>
      <psa10 value="0.0042455266" flag="0"/>
      <psa30 value="0.0005382141" flag="0"/>
    </comp>
  </station>
  <station code="FRASC" name="FRASC" netid="XE" insttype="" commtype="DIG" lat="39.8381" lon="16.2663">
    <comp name="--.HHE">
      <acc value="0.0150098927" flag="0"/>
      <vel value="0.0062630831" flag="0"/>
      <psa03 value="0.0207706908" flag="0"/>
      <psa10 value="0.0082571579" flag="0"/>
      <psa30 value="0.0005495924" flag="0"/>
    </comp>
    <comp name="--.HHZ">
      <acc value="0.0112742144" flag="0"/>
      <vel value="0.0044812150" flag="0"/>
      <psa03 value="0.0303699357" flag="0"/>
      <psa10 value="0.0046542379" flag="0"/>
      <psa30 value="0.0006847737" flag="0"/>
    </comp>
    <comp name="--.HHN">
      <acc value="0.0162546753" flag="0"/>
      <vel value="0.0076562966" flag="0"/>
      <psa03 value="0.0246872818" flag="0"/>
      <psa10 value="0.0075465935" flag="0"/>
      <psa30 value="0.0010427183" flag="0"/>
    </comp>
  </station>
  <station code="MORMA" name="MORMA" netid="XE" insttype="" commtype="DIG" lat="39.8699" lon="15.9721">
    <comp name="--.HHE">
      <acc value="0.0100731757" flag="0"/>
      <vel value="0.0071456814" flag="0"/>
      <psa03 value="0.0215121247" flag="0"/>
      <psa10 value="0.0128119102" flag="0"/>
      <psa30 value="0.0009007198" flag="0"/>
    </comp>
    <comp name="--.HHN">
      <acc value="0.0064691654" flag="0"/>
      <vel value="0.0060552062" flag="0"/>
      <psa03 value="0.0191776862" flag="0"/>
      <psa10 value="0.0093956388" flag="0"/>
      <psa30 value="0.0004997963" flag="0"/>
    </comp>
    <comp name="--.HHZ">
      <acc value="0.0053323828" flag="0"/>
      <vel value="0.0036972121" flag="0"/>
      <psa03 value="0.0118655895" flag="0"/>
      <psa10 value="0.0047199276" flag="0"/>
      <psa30 value="0.0004276586" flag="0"/>
    </comp>
  </station>
  <station code="SHEVA" name="SHEVA" netid="XE" insttype="" commtype="DIG" lat="39.8153" lon="16.1677">
    <comp name="--.HHN">
      <acc value="0.0073909183" flag="0"/>
      <vel value="0.0061000388" flag="0"/>
