<stationlist xmlns:esm="https://esm-db.eu/esmws/shakemap/1/" created="1784080734">
	<station code="MARCO" name="MARCO" netid="GE" source="GEOFON" insttype="" lat="40.29724" lon="15.80632" esm:processing="automatic (Paolucci et al 2011)" esm:quality="good">
		<comp name="--.HLE" depth="1.0">
			<acc value="0.00732715786685749" flag="0"/>
			<vel value="0.00424189172427916" flag="0"/>
			<psa03 value="0.0139195536125299" flag="0"/>
			<psa10 value="0.00442444934805524" flag="0"/>
			<psa30 value="0.00113648236971276" flag="0"/>
		</comp>
		<comp name="--.HLN" depth="1.0">
			<acc value="0.00716126129170898" flag="0"/>
			<vel value="0.00520977988043603" flag="0"/>
			<psa03 value="0.0199135379241569" flag="0"/>
			<psa10 value="0.00622853260971734" flag="0"/>
			<psa30 value="0.00103578778252388" flag="0"/>
		</comp>
		<comp name="--.HLZ" depth="1.0">
			<acc value="0.00173630801249282" flag="0"/>
			<vel value="0.00107613399835591" flag="0"/>
			<psa03 value="0.00535365217922418" flag="0"/>
			<psa10 value="0.00190210139550742" flag="0"/>
			<psa30 value="0.000342243479242522" flag="0"/>
		</comp>
	</station>
	<station code="ACR" name="ACR" netid="IT" source="Italian Strong Motion Network (RAN)" insttype="" lat="39.4889" lon="16.3798" esm:processing="automatic (Paolucci et al 2011)" esm:quality="best">
		<comp name="--.HNE" depth="0.0">
			<acc value="0.0818862646680138" flag="0"/>
			<vel value="0.0376789633079219" flag="0"/>
			<psa03 value="0.239924393813602" flag="0"/>
			<psa10 value="0.0103455965950009" flag="0"/>
			<psa30 value="0.00088334872585117" flag="0"/>
		</comp>
		<comp name="--.HNN" depth="0.0">
			<acc value="0.0691260793231729" flag="0"/>
			<vel value="0.0307773467752464" flag="0"/>
			<psa03 value="0.186421537011918" flag="0"/>
			<psa10 value="0.0289253024093266" flag="0"/>
			<psa30 value="0.00189464259410677" flag="0"/>
		</comp>
		<comp name="--.HNZ" depth="0.0">
			<acc value="0.0436983084109643" flag="0"/>
			<vel value="0.020063258413645" flag="0"/>
			<psa03 value="0.112768678704858" flag="0"/>
			<psa10 value="0.0103912699331354" flag="0"/>
			<psa30 value="0.000684742287899365" flag="0"/>
		</comp>
	</station>
	<station code="ALD" name="ALD" netid="IT" source="Italian Strong Motion Network (RAN)" insttype="" lat="39.9298" lon="16.4653" esm:processing="automatic (Paolucci et al 2011)" esm:quality="best">
		<comp name="--.HNE" depth="0.0">
			<acc value="0.0367568599811544" flag="0"/>
			<vel value="0.0187221884921092" flag="0"/>
			<psa03 value="0.0869211383071593" flag="0"/>
			<psa10 value="0.0248405393138185" flag="0"/>
			<psa30 value="0.00284628834430062" flag="0"/>
		</comp>
		<comp name="--.HNN" depth="0.0">
			<acc value="0.0298025117293619" flag="0"/>
			<vel value="0.0137093376604577" flag="0"/>
			<psa03 value="0.0560685788515119" flag="0"/>
			<psa10 value="0.017336337197257" flag="0"/>
			<psa30 value="0.0023299228876233" flag="0"/>
		</comp>
		<comp name="--.HNZ" depth="0.0">
			<acc value="0.0281021924551454" flag="0"/>
			<vel value="0.0101382346289729" flag="0"/>
			<psa03 value="0.0379823078081515" flag="0"/>
			<psa10 value="0.0172854913289677" flag="0"/>
			<psa30 value="0.00147008217739613" flag="0"/>
		</comp>
	</station>
	<station code="AVT" name="AVT" netid="IT" source="Italian Strong Motion Network (RAN)" insttype="" lat="40.3217" lon="17.6994" esm:processing="automatic (Paolucci et al 2011)" esm:quality="best">
		<comp name="--.HGE" depth="0.0">
			<acc value="0.0639672949855773" flag="0"/>
			<vel value="0.0303946212725366" flag="0"/>
			<psa03 value="0.150627645008906" flag="0"/>
			<psa10 value="0.0303318237094599" flag="0"/>
			<psa30 value="0.00187267968083822" flag="0"/>
		</comp>
		<comp name="--.HGN" depth="0.0">
			<acc value="0.0847584282361249" flag="0"/>
			<vel value="0.0320299658630248" flag="0"/>
			<psa03 value="0.24523234960629" flag="0"/>
			<psa10 value="0.0126441088601579" flag="0"/>
			<psa30 value="0.00193923638155967" flag="0"/>
		</comp>
		<comp name="--.HGZ" depth="0.0">
			<acc value="0.0440104705107914" flag="0"/>
			<vel value="0.0145919245947468" flag="0"/>
			<psa03 value="0.0860475439774891" flag="0"/>
			<psa10 value="0.00512406663176674" flag="0"/>
			<psa30 value="0.000512527702444931" flag="0"/>
		</comp>
	</station>
	<station code="BRDS" name="BRDS" netid="IT" source="Italian Strong Motion Network (RAN)" insttype="" lat="40.6302" lon="17.9412" esm:processing="manual (Paolucci et al 2011)" esm:quality="good">
		<comp name="--.HNE" depth="0.0">
			<acc value="0.083194391097828" flag="0"/>
			<vel value="0.0338771184325549" flag="0"/>
			<psa03 value="0.173190879295777" flag="0"/>
			<psa10 value="0.0292749905744513" flag="0"/>
			<psa30 value="0.00184088694972581" flag="0"/>
		</comp>
		<comp name="--.HNN" depth="0.0">
			<acc value="0.0639981775842662" flag="0"/>
			<vel value="0.0321242239195059" flag="0"/>
			<psa03 value="0.188267305118329" flag="0"/>
			<psa10 value="0.0301355600829578" flag="0"/>
			<psa30 value="0.00139830617258807" flag="0"/>
		</comp>
		<comp name="--.HNZ" depth="0.0">
			<acc value="0.0708942198287165" flag="0"/>
			<vel value="0.0200115298037599" flag="0"/>
			<psa03 value="0.12019698329358" flag="0"/>
			<psa10 value="0.00798262599729562" flag="0"/>
			<psa30 value="0.00042816323350457" flag="0"/>
		</comp>
	</station>
	<station code="BRO" name="BRO" netid="IT" source="Italian Strong Motion Network (RAN)" insttype="" lat="38.6021" lon="16.3493" esm:processing="manual (Paolucci et al 2011)" esm:quality="good">
		<comp name="--.HGE" depth="0.0">
			<acc value="0.00991978770230396" flag="0"/>
			<vel value="0.00512823044427005" flag="0"/>
			<psa03 value="0.0360254724482458" flag="0"/>
			<psa10 value="0.00333538235896207" flag="0"/>
			<psa30 value="0.000217210782377484" flag="0"/>
		</comp>
		<comp name="--.HGN" depth="0.0">
			<acc value="0.00823777795725554" flag="0"/>
			<vel value="0.00414246621377801" flag="0"/>
			<psa03 value="0.0290378767418236" flag="0"/>
			<psa10 value="0.00388572850419324" flag="0"/>
			<psa30 value="0.000196274890269046" flag="0"/>
		</comp>
		<comp name="--.HGZ" depth="0.0">
			<acc value="0.00612311997217335" flag="0"/>
			<vel value="0.00199850694880654" flag="0"/>
			<psa03 value="0.00706036940753109" flag="0"/>
			<psa10 value="0.00187541521361634" flag="0"/>
			<psa30 value="0.000105639035828091" flag="0"/>
		</comp>
	</station>
	<station code="CRN" name="CRN" netid="IT" source="Italian Strong Motion Network (RAN)" insttype="" lat="39.0777" lon="17.1113" esm:processing="manual (Paolucci et al 2011)" esm:quality="good">
		<comp name="--.HGE" depth="0.0">
			<acc value="0.0198718728267144" flag="0"/>
			<vel value="0.0142103516700947" flag="0"/>
			<psa03 value="0.0573424601148937" flag="0"/>
			<psa10 value="0.0188403105781123" flag="0"/>
			<psa30 value="0.00297701221244866" flag="0"/>
		</comp>
		<comp name="--.HGN" depth="0.0">
			<acc value="0.0202474375778551" flag="0"/>
			<vel value="0.0155262640275985" flag="0"/>
			<psa03 value="0.0516116690197756" flag="0"/>
			<psa10 value="0.0249952839398905" flag="0"/>
			<psa30 value="0.00278004416428213" flag="0"/>
		</comp>
		<comp name="--.HGZ" depth="0.0">
			<acc value="0.012697040378967" flag="0"/>
			<vel value="0.00756017650593454" flag="0"/>
			<psa03 value="0.0310761576012605" flag="0"/>
			<psa10 value="0.0070627191204797" flag="0"/>
			<psa30 value="0.00217855369349041" flag="0"/>
		</comp>
	</station>
	<station code="CRV" name="CRV" netid="IT" source="Italian Strong Motion Network (RAN)" insttype="" lat="40.7095" lon="17.6522" esm:processing="automatic (Paolucci et al 2011)" esm:quality="best">
		<comp name="--.HGE" depth="0.0">
			<acc value="0.0303634205271918" flag="0"/>
			<vel value="0.0173461181355649" flag="0"/>
			<psa03 value="0.064101954773241" flag="0"/>
			<psa10 value="0.0150367720498516" flag="0"/>
			<psa30 value="0.000764779464969544" flag="0"/>
		</comp>
		<comp name="--.HGN" depth="0.0">
			<acc value="0.0243770631454093" flag="0"/>
			<vel value="0.0133165072863793" flag="0"/>
			<psa03 value="0.0388470760323022" flag="0"/>
			<psa10 value="0.0129051533405736" flag="0"/>
			<psa30 value="0.000508745316463756" flag="0"/>
		</comp>
		<comp name="--.HGZ" depth="0.0">
			<acc value="0.0169113733221079" flag="0"/>
			<vel value="0.00692394104476421" flag="0"/>
			<psa03 value="0.050406860040427" flag="0"/>
			<psa10 value="0.0045847462169361" flag="0"/>
			<psa30 value="0.000251391601376492" flag="0"/>
		</comp>
	</station>
	<station code="CSL" name="CSL" netid="IT" source="Italian Strong Motion Network (RAN)" insttype="" lat="40.6323" lon="16.9283" esm:processing="automatic (Paolucci et al 2011)" esm:quality="best">
		<comp name="--.HGE" depth="0.0">
			<acc value="0.0730413385058254" flag="0"/>
			<vel value="0.0212136466352897" flag="0"/>
			<psa03 value="0.0868201472419969" flag="0"/>
			<psa10 value="0.0123682471481734" flag="0"/>
			<psa30 value="0.00100777363505743" flag="0"/>
		</comp>
		<comp name="--.HGN" depth="0.0">
			<acc value="0.0519357504175029" flag="0"/>
			<vel value="0.0190708786198319" flag="0"/>
			<psa03 value="0.10148803558428" flag="0"/>
			<psa10 value="0.0120112656874036" flag="0"/>
			<psa30 value="0.000681357636599495" flag="0"/>
		</comp>
		<comp name="--.HGZ" depth="0.0">
			<acc value="0.0381089071912394" flag="0"/>
			<vel value="0.0101348538486551" flag="0"/>
			<psa03 value="0.04913260896088" flag="0"/>
			<psa10 value="0.00559786645617982" flag="0"/>
			<psa30 value="0.000448805304065439" flag="0"/>
		</comp>
	</station>
	<station code="CSPC" name="CSPC" netid="IT" source="Italian Strong Motion Network (RAN)" insttype="" lat="39.3102" lon="16.2337" esm:processing="manual (Paolucci et al 2011)" esm:quality="good">
		<comp name="--.HNE" depth="0.0">
			<acc value="0.047186575520706" flag="0"/>
			<vel value="0.0225831089320318" flag="0"/>
			<psa03 value="0.0941632274350217" flag="0"/>
			<psa10 value="0.026277542633236" flag="0"/>
			<psa30 value="0.00155502009578304" flag="0"/>
		</comp>
		<comp name="--.HNN" depth="0.0">
			<acc value="0.0442895672239177" flag="0"/>
			<vel value="0.0202612118492658" flag="0"/>
			<psa03 value="0.12039389217116" flag="0"/>
			<psa10 value="0.0243065039365957" flag="0"/>
			<psa30 value="0.00153234661460952" flag="0"/>
		</comp>
		<comp name="--.HNZ" depth="0.0">
			<acc value="0.0216922243936203" flag="0"/>
			<vel value="0.0131221062391932" flag="0"/>
			<psa03 value="0.0640009064126163" flag="0"/>
			<psa10 value="0.0179665908234666" flag="0"/>
			<psa30 value="0.00082938369259923" flag="0"/>
		</comp>
	</station>
	<station code="CSSE" name="CSSE" netid="IT" source="Italian Strong Motion Network (RAN)" insttype="" lat="39.3023" lon="16.2494" esm:processing="manual (Paolucci et al 2011)" esm:quality="good">
		<comp name="--.HNE" depth="0.0">
			<acc value="0.0510970706215927" flag="0"/>
			<vel value="0.0197362605047063" flag="0"/>
			<psa03 value="0.114990430051647" flag="0"/>
			<psa10 value="0.0185735066536618" flag="0"/>
			<psa30 value="0.00123310314536496" flag="0"/>
		</comp>
		<comp name="--.HNN" depth="0.0">
			<acc value="0.056177835428477" flag="0"/>
			<vel value="0.0187639072545539" flag="0"/>
			<psa03 value="0.0913173409923451" flag="0"/>
			<psa10 value="0.0221563252478101" flag="0"/>
			<psa30 value="0.000904234484430174" flag="0"/>
		</comp>
		<comp name="--.HNZ" depth="0.0">
			<acc value="0.0259021645809101" flag="0"/>
			<vel value="0.0110097285850494" flag="0"/>
			<psa03 value="0.0534738705064849" flag="0"/>
			<psa10 value="0.0090184952435494" flag="0"/>
			<psa30 value="0.000784890224291984" flag="0"/>
		</comp>
	</station>
	<station code="CSST" name="CSST" netid="IT" source="Italian Strong Motion Network (RAN)" insttype="" lat="39.2911" lon="16.2545" esm:processing="manual (Paolucci et al 2011)" esm:quality="good">
		<comp name="--.HNE" depth="0.0">
			<acc value="0.0285425930726661" flag="0"/>
			<vel value="0.0123028553057008" flag="0"/>
			<psa03 value="0.0811684968062257" flag="0"/>
			<psa10 value="0.0136660506212842" flag="0"/>
			<psa30 value="0.000853498102560543" flag="0"/>
		</comp>
		<comp name="--.HNN" depth="0.0">
			<acc value="0.0380358207184838" flag="0"/>
			<vel value="0.0172135712613992" flag="0"/>
			<psa03 value="0.110770838024384" flag="0"/>
			<psa10 value="0.0138170187471816" flag="0"/>
			<psa30 value="0.000869510204950409" flag="0"/>
		</comp>
		<comp name="--.HNZ" depth="0.0">
			<acc value="0.013704967370696" flag="0"/>
			<vel value="0.00766814628390574" flag="0"/>
			<psa03 value="0.0216544904933038" flag="0"/>
			<psa10 value="0.00598266491593928" flag="0"/>
			<psa30 value="0.000614981729104712" flag="0"/>
		</comp>
	</station>
	<station code="CVL" name="CVL" netid="IT" source="Italian Strong Motion Network (RAN)" insttype="" lat="39.8168" lon="16.1947" esm:processing="automatic (Paolucci et al 2011)" esm:quality="best">
		<comp name="--.HGE" depth="0.0">
			<acc value="0.0101667324561893" flag="0"/>
			<vel value="0.0077627814535144" flag="0"/>
			<psa03 value="0.0270172454890866" flag="0"/>
			<psa10 value="0.00910618636515584" flag="0"/>
			<psa30 value="0.00078519175468356" flag="0"/>
		</comp>
		<comp name="--.HGN" depth="0.0">
			<acc value="0.0128363426402671" flag="0"/>
			<vel value="0.00875368581902293" flag="0"/>
			<psa03 value="0.0314627457108255" flag="0"/>
			<psa10 value="0.0113143654586836" flag="0"/>
			<psa30 value="0.000951058523792981" flag="0"/>
		</comp>
		<comp name="--.HGZ" depth="0.0">
			<acc value="0.00748145986132843" flag="0"/>
			<vel value="0.00357423629788837" flag="0"/>
			<psa03 value="0.0142489465269439" flag="0"/>
			<psa10 value="0.00417222076414943" flag="0"/>
			<psa30 value="0.000317233124512599" flag="0"/>
		</comp>
	</station>
	<station code="DNMI" name="DNMI" netid="IT" source="Italian Strong Motion Network (RAN)" insttype="" lat="38.5315" lon="16.1448" esm:processing="manual (Paolucci et al 2011)" esm:quality="good">
		<comp name="--.HGE" depth="0.0">
			<acc value="0.0110600214199516" flag="0"/>
			<vel value="0.0113956009073265" flag="0"/>
			<psa03 value="0.0258043734756015" flag="0"/>
			<psa10 value="0.0231381890414676" flag="0"/>
			<psa30 value="0.000985727591281889" flag="0"/>
		</comp>
		<comp name="--.HGN" depth="0.0">
			<acc value="0.00952440848778351" flag="0"/>
			<vel value="0.00941994259701969" flag="0"/>
			<psa03 value="0.0298969701108765" flag="0"/>
			<psa10 value="0.0135110406651353" flag="0"/>
			<psa30 value="0.000821919552303234" flag="0"/>
		</comp>
		<comp name="--.HGZ" depth="0.0">
			<acc value="0.00538758064795304" flag="0"/>
			<vel value="0.00398137473274935" flag="0"/>
			<psa03 value="0.018845042662423" flag="0"/>
			<psa10 value="0.00431353996960323" flag="0"/>
			<psa30 value="0.00040416617506722" flag="0"/>
		</comp>
	</station>
	<station code="GRM" name="GRM" netid="IT" source="Italian Strong Motion Network (RAN)" insttype="" lat="40.3102" lon="15.886" esm:processing="manual (Paolucci et al 2011)" esm:quality="good">
		<comp name="--.HGE" depth="0.0">
			<acc value="0.0106597352959214" flag="0"/>
			<vel value="0.00970204186459829" flag="0"/>
			<psa03 value="0.0252889903756671" flag="0"/>
			<psa10 value="0.0223165977400761" flag="0"/>
			<psa30 value="0.00120179763402847" flag="0"/>
		</comp>
		<comp name="--.HGN" depth="0.0">
			<acc value="0.00901681917445878" flag="0"/>
			<vel value="0.0116032039078513" flag="0"/>
			<psa03 value="0.026673425837722" flag="0"/>
			<psa10 value="0.013657507555348" flag="0"/>
			<psa30 value="0.00183196740051612" flag="0"/>
		</comp>
		<comp name="--.HGZ" depth="0.0">
			<acc value="0.00616811545254527" flag="0"/>
			<vel value="0.0043929558116929" flag="0"/>
			<psa03 value="0.0152899347581386" flag="0"/>
			<psa10 value="0.00800457995163735" flag="0"/>
			<psa30 value="0.000704127061628823" flag="0"/>
		</comp>
	</station>
	<station code="GRO" name="GRO" netid="IT" source="Italian Strong Motion Network (RAN)" insttype="" lat="40.6002" lon="16.3856" esm:processing="automatic (Paolucci et al 2011)" esm:quality="best">
		<comp name="--.HGE" depth="0.0">
			<acc value="0.0208578697657024" flag="0"/>
			<vel value="0.0127196142841549" flag="0"/>
			<psa03 value="0.0422727066093492" flag="0"/>
			<psa10 value="0.0213560503585262" flag="0"/>
			<psa30 value="0.0025653118143178" flag="0"/>
		</comp>
		<comp name="--.HGN" depth="0.0">
			<acc value="0.0192318570457188" flag="0"/>
			<vel value="0.0109236735372901" flag="0"/>
			<psa03 value="0.0487077110218101" flag="0"/>
			<psa10 value="0.0132625548291682" flag="0"/>
			<psa30 value="0.0036125855660641" flag="0"/>
		</comp>
		<comp name="--.HGZ" depth="0.0">
			<acc value="0.0186732044053511" flag="0"/>
			<vel value="0.00730629712031" flag="0"/>
			<psa03 value="0.0347105624252434" flag="0"/>
			<psa10 value="0.0103811001969402" flag="0"/>
			<psa30 value="0.00149380874916507" flag="0"/>
		</comp>
	</station>
	<station code="GSS" name="GSS" netid="IT" source="Italian Strong Motion Network (RAN)" insttype="" lat="40.6316" lon="16.2791" esm:processing="manual (Paolucci et al 2011)" esm:quality="good">
		<comp name="--.HGE" depth="0.0">
			<acc value="0.0280221343617411" flag="0"/>
			<vel value="0.00895604820865708" flag="0"/>
			<psa03 value="0.0334600915668527" flag="0"/>
			<psa10 value="0.0255082560467751" flag="0"/>
			<psa30 value="0.00302557105423361" flag="0"/>
		</comp>
		<comp name="--.HGN" depth="0.0">
			<acc value="0.0272949624579893" flag="0"/>
			<vel value="0.00938622456606283" flag="0"/>
			<psa03 value="0.0306623541471459" flag="0"/>
			<psa10 value="0.0101089156035467" flag="0"/>
			<psa30 value="0.00299135128734199" flag="0"/>
		</comp>
		<comp name="--.HGZ" depth="0.0">
			<acc value="0.0190590455021072" flag="0"/>
			<vel value="0.00556536955015705" flag="0"/>
			<psa03 value="0.0213918650227386" flag="0"/>
			<psa10 value="0.00962378346592353" flag="0"/>
			<psa30 value="0.0020047019683335" flag="0"/>
		</comp>
	</station>
	<station code="LCCE" name="LCCE" netid="IT" source="Italian Strong Motion Network (RAN)" insttype="" lat="40.3559" lon="18.1996" esm:processing="automatic (Paolucci et al 2011)" esm:quality="best">
		<comp name="--.HNE" depth="0.0">
			<acc value="0.071185536637739" flag="0"/>
			<vel value="0.0200458262589236" flag="0"/>
			<psa03 value="0.0907949626373428" flag="0"/>
			<psa10 value="0.0114886104390584" flag="0"/>
			<psa30 value="0.000702478723267829" flag="0"/>
		</comp>
		<comp name="--.HNN" depth="0.0">
			<acc value="0.0598618371294371" flag="0"/>
			<vel value="0.0220188352726817" flag="0"/>
			<psa03 value="0.113413273489432" flag="0"/>
			<psa10 value="0.00794355122128348" flag="0"/>
			<psa30 value="0.000622227417429337" flag="0"/>
		</comp>
		<comp name="--.HNZ" depth="0.0">
			<acc value="0.0334184250901587" flag="0"/>
			<vel value="0.0110593067762779" flag="0"/>
			<psa03 value="0.0495960407026251" flag="0"/>
			<psa10 value="0.0057971827849084" flag="0"/>
			<psa30 value="0.000561793049365716" flag="0"/>
		</comp>
	</station>
	<station code="LVRN" name="LVRN" netid="IT" source="Italian Strong Motion Network (RAN)" insttype="" lat="40.2962" lon="17.997" esm:processing="manual (Paolucci et al 2011)" esm:quality="good">
		<comp name="--.HNE" depth="0.0">
			<acc value="0.153589390836659" flag="0"/>
			<vel value="0.0716753696794371" flag="0"/>
			<psa03 value="0.273273144671346" flag="0"/>
			<psa10 value="0.0262968770390455" flag="0"/>
			<psa30 value="0.00197329092917298" flag="0"/>
		</comp>
		<comp name="--.HNN" depth="0.0">
			<acc value="0.12751891213535" flag="0"/>
			<vel value="0.0590103317057648" flag="0"/>
			<psa03 value="0.361308018216332" flag="0"/>
			<psa10 value="0.0273015517188123" flag="0"/>
			<psa30 value="0.00141001486489814" flag="0"/>
		</comp>
		<comp name="--.HNZ" depth="0.0">
			<acc value="0.059266819636526" flag="0"/>
			<vel value="0.0168696459265002" flag="0"/>
			<psa03 value="0.0958919044513902" flag="0"/>
