<?xml version="1.0" encoding="UTF-8" standalone="yes"?>
<!DOCTYPE earthquake SYSTEM "stationlist.dtd">
<stationlist created="" xmlns="ch.ethz.sed.shakemap.usgs.xml">
  <station code="MARCO" name="MARCO" netid="GE" insttype="VBB" commtype="DIG" lat="40.2972" lon="15.8063">
    <comp name="--.HHE">
      <acc value="0.0071975339" flag="0"/>
      <vel value="0.0042525449" flag="0"/>
      <psa03 value="0.0138838905" flag="0"/>
      <psa10 value="0.0042551116" flag="0"/>
      <psa30 value="0.0010267645" flag="0"/>
    </comp>
    <comp name="--.HHZ">
      <acc value="0.0035677912" flag="0"/>
      <vel value="0.0021622747" flag="0"/>
      <psa03 value="0.0111268695" flag="0"/>
      <psa10 value="0.0036936472" flag="0"/>
      <psa30 value="0.0006269832" flag="0"/>
    </comp>
    <comp name="--.HHN">
      <acc value="0.0072415354" flag="0"/>
      <vel value="0.0052830761" flag="0"/>
      <psa03 value="0.0195417701" flag="0"/>
      <psa10 value="0.0059949063" flag="0"/>
      <psa30 value="0.0009554994" flag="0"/>
    </comp>
  </station>
  <station code="MATE" name="MATE" netid="GE" insttype="STS-2/N" commtype="DIG" lat="40.6491" lon="16.7044">
    <comp name="--.HHZ">
      <acc value="0.0195336371" flag="0"/>
      <vel value="0.0051249331" flag="0"/>
      <psa03 value="0.0260484737" flag="0"/>
      <psa10 value="0.0033766188" flag="0"/>
      <psa30 value="0.0003588726" flag="0"/>
    </comp>
    <comp name="--.HHE">
      <acc value="0.0352763606" flag="0"/>
      <vel value="0.0100466683" flag="0"/>
      <psa03 value="0.0524469595" flag="0"/>
      <psa10 value="0.0061678544" flag="0"/>
      <psa30 value="0.0005567740" flag="0"/>
    </comp>
    <comp name="--.HHN">
      <acc value="0.0248478600" flag="0"/>
      <vel value="0.0087535453" flag="0"/>
      <psa03 value="0.0537893109" flag="0"/>
      <psa10 value="0.0058690956" flag="0"/>
      <psa30 value="0.0005124723" flag="0"/>
    </comp>
  </station>
  <station code="CAR1" name="CAR1" netid="IV" insttype="" commtype="DIG" lat="39.2534" lon="16.2114">
    <comp name="--.HHE">
      <acc value="0.0351868693" flag="0"/>
      <vel value="0.0179663288" flag="0"/>
      <psa03 value="0.1760372660" flag="0"/>
      <psa10 value="0.0163467360" flag="0"/>
      <psa30 value="0.0011696514" flag="0"/>
    </comp>
    <comp name="--.HHN">
      <acc value="0.0220042075" flag="0"/>
      <vel value="0.0091687780" flag="0"/>
      <psa03 value="0.0783192438" flag="0"/>
      <psa10 value="0.0112362927" flag="0"/>
      <psa30 value="0.0011057868" flag="0"/>
    </comp>
    <comp name="--.HHZ">
      <acc value="0.0185839988" flag="0"/>
      <vel value="0.0069652510" flag="0"/>
      <psa03 value="0.0603951549" flag="0"/>
      <psa10 value="0.0087416765" flag="0"/>
      <psa30 value="0.0004413191" flag="0"/>
    </comp>
  </station>
  <station code="CELI" name="CELI" netid="IV" insttype="SS08" commtype="DIG" lat="39.4027" lon="16.5088">
    <comp name="--.HHN">
      <acc value="0.0486180079" flag="0"/>
      <vel value="0.0185846570" flag="0"/>
      <psa03 value="0.1028801978" flag="0"/>
      <psa10 value="0.0158507726" flag="0"/>
      <psa30 value="0.0013538292" flag="0"/>
    </comp>
    <comp name="--.HHE">
      <acc value="0.0593422361" flag="0"/>
      <vel value="0.0284909677" flag="0"/>
      <psa03 value="0.0937016067" flag="0"/>
      <psa10 value="0.0190324038" flag="0"/>
      <psa30 value="0.0013618260" flag="0"/>
    </comp>
    <comp name="--.HHZ">
      <acc value="0.0311674967" flag="0"/>
      <vel value="0.0097542014" flag="0"/>
      <psa03 value="0.0387800158" flag="0"/>
      <psa10 value="0.0090254513" flag="0"/>
      <psa30 value="0.0008614007" flag="0"/>
    </comp>
  </station>
  <station code="CET2" name="CET2" netid="IV" insttype="" commtype="DIG" lat="39.5288" lon="15.9546">
    <comp name="--.HHE">
      <acc value="0.0117171370" flag="0"/>
      <vel value="0.0074543710" flag="0"/>
      <psa03 value="0.0231209485" flag="0"/>
      <psa10 value="0.0112771690" flag="0"/>
      <psa30 value="0.0004739576" flag="0"/>
    </comp>
    <comp name="--.HHZ">
      <acc value="0.0144720785" flag="0"/>
      <vel value="0.0036812497" flag="0"/>
      <psa03 value="0.0151358137" flag="0"/>
      <psa10 value="0.0043912709" flag="0"/>
      <psa30 value="0.0003479449" flag="0"/>
    </comp>
    <comp name="--.HHN">
      <acc value="0.0221321190" flag="0"/>
      <vel value="0.0112873380" flag="0"/>
      <psa03 value="0.0284424291" flag="0"/>
      <psa10 value="0.0153758778" flag="0"/>
      <psa30 value="0.0008572987" flag="0"/>
    </comp>
  </station>
  <station code="LTRZ" name="LTRZ" netid="IV" insttype="" commtype="DIG" lat="40.6033" lon="16.8191">
    <comp name="--.HHZ">
      <acc value="0.0301980487" flag="0"/>
      <vel value="0.0147830043" flag="0"/>
      <psa03 value="0.0620121910" flag="0"/>
      <psa10 value="0.0071978105" flag="0"/>
      <psa30 value="0.0005563298" flag="0"/>
    </comp>
    <comp name="--.HHE">
      <acc value="0.0370096462" flag="0"/>
      <vel value="0.0235062754" flag="0"/>
      <psa03 value="0.0707332259" flag="0"/>
      <psa10 value="0.0150876160" flag="0"/>
      <psa30 value="0.0011522536" flag="0"/>
    </comp>
    <comp name="--.HHN">
      <acc value="0.0468973599" flag="0"/>
      <vel value="0.0225174143" flag="0"/>
      <psa03 value="0.0920137687" flag="0"/>
      <psa10 value="0.0100587193" flag="0"/>
      <psa30 value="0.0006279786" flag="0"/>
    </comp>
  </station>
  <station code="MCEL" name="MCEL" netid="IV" insttype="" commtype="DIG" lat="40.3249" lon="15.8019">
    <comp name="--.HHN">
      <acc value="0.0022689295" flag="0"/>
      <vel value="0.0016489102" flag="0"/>
      <psa03 value="0.0038965587" flag="0"/>
      <psa10 value="0.0025059964" flag="0"/>
      <psa30 value="0.0002997336" flag="0"/>
    </comp>
    <comp name="--.HHE">
      <acc value="0.0025817249" flag="0"/>
      <vel value="0.0013676743" flag="0"/>
      <psa03 value="0.0057817482" flag="0"/>
      <psa10 value="0.0013664084" flag="0"/>
      <psa30 value="0.0002832533" flag="0"/>
    </comp>
    <comp name="--.HHZ">
      <acc value="0.0017910203" flag="0"/>
      <vel value="0.0012491654" flag="0"/>
      <psa03 value="0.0049994566" flag="0"/>
      <psa10 value="0.0011939227" flag="0"/>
      <psa30 value="0.0001776284" flag="0"/>
    </comp>
  </station>
  <station code="MGR" name="MGR" netid="IV" insttype="" commtype="DIG" lat="40.1376" lon="15.5535">
    <comp name="--.HHE">
      <acc value="0.0019570582" flag="0"/>
      <vel value="0.0012221663" flag="0"/>
      <psa03 value="0.0044464261" flag="0"/>
      <psa10 value="0.0013692054" flag="0"/>
      <psa30 value="0.0002254796" flag="0"/>
    </comp>
    <comp name="--.HHZ">
      <acc value="0.0010146454" flag="0"/>
      <vel value="0.0006786669" flag="0"/>
      <psa03 value="0.0021459785" flag="0"/>
      <psa10 value="0.0010431480" flag="0"/>
      <psa30 value="0.0002328996" flag="0"/>
    </comp>
    <comp name="--.HHN">
      <acc value="0.0013002266" flag="0"/>
      <vel value="0.0009277566" flag="0"/>
      <psa03 value="0.0040471092" flag="0"/>
      <psa10 value="0.0009890224" flag="0"/>
      <psa30 value="0.0001661466" flag="0"/>
    </comp>
  </station>
  <station code="MIGL" name="MIGL" netid="IV" insttype="" commtype="DIG" lat="40.6044" lon="16.441">
    <comp name="--.HHE">
      <acc value="0.0278865857" flag="0"/>
      <vel value="0.0139787289" flag="0"/>
      <psa03 value="0.0560789742" flag="0"/>
      <psa10 value="0.0244596306" flag="0"/>
      <psa30 value="0.0027087399" flag="0"/>
    </comp>
    <comp name="--.HHN">
      <acc value="0.0394903284" flag="0"/>
      <vel value="0.0149551661" flag="0"/>
      <psa03 value="0.0482741549" flag="0"/>
      <psa10 value="0.0318327198" flag="0"/>
      <psa30 value="0.0032362690" flag="0"/>
    </comp>
    <comp name="--.HHZ">
      <acc value="0.0350840671" flag="0"/>
      <vel value="0.0095341823" flag="0"/>
      <psa03 value="0.0359203914" flag="0"/>
      <psa10 value="0.0128444538" flag="0"/>
      <psa30 value="0.0010857666" flag="0"/>
    </comp>
  </station>
  <station code="MMN" name="MMN" netid="IV" insttype="" commtype="DIG" lat="39.891" lon="15.9904">
    <comp name="--.HHE">
      <acc value="0.0088850025" flag="0"/>
      <vel value="0.0050003324" flag="0"/>
      <psa03 value="0.0228308546" flag="0"/>
      <psa10 value="0.0078990963" flag="0"/>
      <psa30 value="0.0004526125" flag="0"/>
    </comp>
    <comp name="--.HHN">
      <acc value="0.0159616878" flag="0"/>
      <vel value="0.0071320133" flag="0"/>
      <psa03 value="0.0271473136" flag="0"/>
      <psa10 value="0.0084489622" flag="0"/>
      <psa30 value="0.0010533305" flag="0"/>
    </comp>
    <comp name="--.HHZ">
      <acc value="0.0072389397" flag="0"/>
      <vel value="0.0030106175" flag="0"/>
      <psa03 value="0.0142506334" flag="0"/>
      <psa10 value="0.0038357419" flag="0"/>
      <psa30 value="0.0004917389" flag="0"/>
    </comp>
  </station>
  <station code="MTSN" name="MTSN" netid="IV" insttype="" commtype="DIG" lat="40.2663" lon="15.7515">
    <comp name="--.HHE">
      <acc value="0.0051289829" flag="0"/>
      <vel value="0.0039676764" flag="0"/>
      <psa03 value="0.0116157853" flag="0"/>
      <psa10 value="0.0081731858" flag="0"/>
      <psa30 value="0.0007297082" flag="0"/>
    </comp>
    <comp name="--.HHN">
      <acc value="0.0065414382" flag="0"/>
      <vel value="0.0036861381" flag="0"/>
      <psa03 value="0.0169327536" flag="0"/>
      <psa10 value="0.0072907562" flag="0"/>
      <psa30 value="0.0008164068" flag="0"/>
    </comp>
    <comp name="--.HHZ">
      <acc value="0.0030154030" flag="0"/>
      <vel value="0.0021701173" flag="0"/>
      <psa03 value="0.0079445838" flag="0"/>
      <psa10 value="0.0028273492" flag="0"/>
      <psa30 value="0.0003619294" flag="0"/>
    </comp>
  </station>
  <station code="ORI" name="ORI" netid="IV" insttype="" commtype="DIG" lat="40.051" lon="16.4504">
    <comp name="--.HHE">
      <acc value="0.0759872430" flag="0"/>
      <vel value="0.0415172227" flag="0"/>
      <psa03 value="0.1948105270" flag="0"/>
      <psa10 value="0.0300582123" flag="0"/>
      <psa30 value="0.0019360542" flag="0"/>
    </comp>
    <comp name="--.HHZ">
      <acc value="0.0315672823" flag="0"/>
      <vel value="0.0107339332" flag="0"/>
      <psa03 value="0.0564821337" flag="0"/>
      <psa10 value="0.0141993254" flag="0"/>
      <psa30 value="0.0011542298" flag="0"/>
    </comp>
    <comp name="--.HHN">
      <acc value="0.0532202372" flag="0"/>
      <vel value="0.0266749488" flag="0"/>
      <psa03 value="0.1406569974" flag="0"/>
      <psa10 value="0.0199029724" flag="0"/>
      <psa30 value="0.0013536766" flag="0"/>
    </comp>
  </station>
  <station code="PIPA" name="PIPA" netid="IV" insttype="SA10, 2g" commtype="DIG" lat="39.4851" lon="16.8158">
    <comp name="--.HNN">
      <acc value="2.4545949363" flag="0"/>
      <vel value="0.7425434026" flag="0"/>
      <psa03 value="3.3060626814" flag="0"/>
      <psa10 value="0.1973045989" flag="0"/>
      <psa30 value="0.0182154814" flag="0"/>
    </comp>
    <comp name="--.HNE">
      <acc value="3.0651425562" flag="0"/>
      <vel value="0.6882834443" flag="0"/>
      <psa03 value="2.6722919666" flag="0"/>
      <psa10 value="0.3465507947" flag="0"/>
      <psa30 value="0.0197775408" flag="0"/>
    </comp>
    <comp name="--.HNZ">
      <acc value="2.2393680854" flag="0"/>
      <vel value="0.5870008745" flag="0"/>
      <psa03 value="1.6706681555" flag="0"/>
      <psa10 value="0.1225182314" flag="0"/>
      <psa30 value="0.0106054976" flag="0"/>
    </comp>
  </station>
  <station code="PTRP" name="PTRP" netid="IV" insttype="" commtype="DIG" lat="40.5215" lon="16.0612">
    <comp name="--.HHN">
      <acc value="0.0084593844" flag="0"/>
      <vel value="0.0082644330" flag="0"/>
      <psa03 value="0.0203963770" flag="0"/>
      <psa10 value="0.0125097127" flag="0"/>
      <psa30 value="0.0021522152" flag="0"/>
    </comp>
    <comp name="--.HHE">
      <acc value="0.0121872648" flag="0"/>
      <vel value="0.0089269958" flag="0"/>
      <psa03 value="0.0365419936" flag="0"/>
      <psa10 value="0.0106994184" flag="0"/>
      <psa30 value="0.0023286345" flag="0"/>
    </comp>
    <comp name="--.HHZ">
      <acc value="0.0114951218" flag="0"/>
      <vel value="0.0098710408" flag="0"/>
      <psa03 value="0.0332320825" flag="0"/>
      <psa10 value="0.0062359811" flag="0"/>
      <psa30 value="0.0004669085" flag="0"/>
    </comp>
  </station>
  <station code="SALB" name="SALB" netid="IV" insttype="" commtype="DIG" lat="39.8772" lon="16.3459">
    <comp name="--.HHE">
      <acc value="0.0359280100" flag="0"/>
      <vel value="0.0145189481" flag="0"/>
      <psa03 value="0.0778613995" flag="0"/>
      <psa10 value="0.0141416959" flag="0"/>
      <psa30 value="0.0017781247" flag="0"/>
    </comp>
    <comp name="--.HHN">
      <acc value="0.0199810088" flag="0"/>
      <vel value="0.0120365422" flag="0"/>
      <psa03 value="0.0453127165" flag="0"/>
      <psa10 value="0.0109328279" flag="0"/>
      <psa30 value="0.0007128919" flag="0"/>
    </comp>
    <comp name="--.HHZ">
      <acc value="0.0234886388" flag="0"/>
      <vel value="0.0068989006" flag="0"/>
      <psa03 value="0.0463350760" flag="0"/>
      <psa10 value="0.0062501392" flag="0"/>
      <psa30 value="0.0007873478" flag="0"/>
    </comp>
  </station>
  <station code="SELL" name="SELL" netid="IV" insttype="" commtype="DIG" lat="38.983" lon="16.6279">
    <comp name="--.HHZ">
      <acc value="0.0048915344" flag="0"/>
      <vel value="0.0029821090" flag="0"/>
      <psa03 value="0.0180678800" flag="0"/>
      <psa10 value="0.0039010203" flag="0"/>
      <psa30 value="0.0001749212" flag="0"/>
    </comp>
    <comp name="--.HHN">
      <acc value="0.0062973957" flag="0"/>
      <vel value="0.0045252870" flag="0"/>
      <psa03 value="0.0210137638" flag="0"/>
      <psa10 value="0.0026763051" flag="0"/>
      <psa30 value="0.0002314817" flag="0"/>
    </comp>
    <comp name="--.HHE">
      <acc value="0.0064011329" flag="0"/>
      <vel value="0.0050341468" flag="0"/>
      <psa03 value="0.0243902596" flag="0"/>
      <psa10 value="0.0049612234" flag="0"/>
      <psa30 value="0.0003171821" flag="0"/>
    </comp>
  </station>
  <station code="SIRI" name="SIRI" netid="IV" insttype="" commtype="DIG" lat="40.1821" lon="15.8675">
    <comp name="--.HHE">
      <acc value="0.0062043135" flag="0"/>
      <vel value="0.0030413397" flag="0"/>
      <psa03 value="0.0183451542" flag="0"/>
      <psa10 value="0.0027465219" flag="0"/>
      <psa30 value="0.0002388836" flag="0"/>
    </comp>
    <comp name="--.HHN">
      <acc value="0.0077146470" flag="0"/>
      <vel value="0.0041241145" flag="0"/>
      <psa03 value="0.0166729184" flag="0"/>
      <psa10 value="0.0035556082" flag="0"/>
      <psa30 value="0.0006079768" flag="0"/>
    </comp>
    <comp name="--.HHZ">
      <acc value="0.0052866450" flag="0"/>
      <vel value="0.0017656010" flag="0"/>
      <psa03 value="0.0059825315" flag="0"/>
      <psa10 value="0.0015705563" flag="0"/>
      <psa30 value="0.0004781752" flag="0"/>
    </comp>
  </station>
  <station code="SPS2" name="SPS2" netid="IV" insttype="" commtype="DIG" lat="39.291" lon="16.3388">
    <comp name="--.HHE">
      <acc value="0.0180566844" flag="0"/>
      <vel value="0.0082465194" flag="0"/>
      <psa03 value="0.0645725187" flag="0"/>
      <psa10 value="0.0070935751" flag="0"/>
      <psa30 value="0.0003736809" flag="0"/>
    </comp>
    <comp name="--.HHN">
      <acc value="0.0250716181" flag="0"/>
      <vel value="0.0118374099" flag="0"/>
      <psa03 value="0.0859702850" flag="0"/>
      <psa10 value="0.0068788536" flag="0"/>
      <psa30 value="0.0004585221" flag="0"/>
    </comp>
    <comp name="--.HHZ">
      <acc value="0.0137034164" flag="0"/>
      <vel value="0.0068133515" flag="0"/>
      <psa03 value="0.0348945263" flag="0"/>
      <psa10 value="0.0044418270" flag="0"/>
      <psa30 value="0.0002259126" flag="0"/>
    </comp>
  </station>
  <station code="TDS" name="TDS" netid="IV" insttype="" commtype="DIG" lat="39.6601" lon="16.3376">
    <comp name="--.HHN">
      <acc value="0.0144413772" flag="0"/>
      <vel value="0.0081688979" flag="0"/>
      <psa03 value="0.0189220231" flag="0"/>
      <psa10 value="0.0130678127" flag="0"/>
      <psa30 value="0.0007636163" flag="0"/>
    </comp>
    <comp name="--.HHE">
      <acc value="0.0102827735" flag="0"/>
      <vel value="0.0055574828" flag="0"/>
      <psa03 value="0.0227140687" flag="0"/>
      <psa10 value="0.0085665241" flag="0"/>
      <psa30 value="0.0006408367" flag="0"/>
    </comp>
    <comp name="--.HHZ">
      <acc value="0.0093895243" flag="0"/>
      <vel value="0.0042219820" flag="0"/>
      <psa03 value="0.0169495500" flag="0"/>
      <psa10 value="0.0060409101" flag="0"/>
      <psa30 value="0.0007324286" flag="0"/>
    </comp>
  </station>
  <station code="CHCE" name="CHCE" netid="IY" insttype="SS08" commtype="DIG" lat="38.684" lon="16.4142">
    <comp name="00.HHE">
      <acc value="0.0230229190" flag="0"/>
      <vel value="0.0117825841" flag="0"/>
      <psa03 value="0.0739868322" flag="0"/>
      <psa10 value="0.0053317651" flag="0"/>
      <psa30 value="0.0004781426" flag="0"/>
    </comp>
    <comp name="00.HHN">
      <acc value="0.0155381574" flag="0"/>
      <vel value="0.0104368496" flag="0"/>
      <psa03 value="0.0480705373" flag="0"/>
      <psa10 value="0.0047392169" flag="0"/>
      <psa30 value="0.0004367264" flag="0"/>
    </comp>
    <comp name="00.HHZ">
      <acc value="0.0090978063" flag="0"/>
      <vel value="0.0031406162" flag="0"/>
      <psa03 value="0.0272790504" flag="0"/>
      <psa10 value="0.0023998993" flag="0"/>
      <psa30 value="0.0002454547" flag="0"/>
    </comp>
  </station>
  <station code="CIRK" name="CIRK" netid="IY" insttype="" commtype="DIG" lat="39.3884" lon="17.0614">
    <comp name="00.HHE">
      <acc value="0.0923012272" flag="0"/>
      <vel value="0.0400632872" flag="0"/>
      <psa03 value="0.1856724204" flag="0"/>
      <psa10 value="0.0647282189" flag="0"/>
      <psa30 value="0.0043920551" flag="0"/>
    </comp>
    <comp name="00.HHN">
      <acc value="0.1020306837" flag="0"/>
      <vel value="0.0538232036" flag="0"/>
      <psa03 value="0.2170990476" flag="0"/>
      <psa10 value="0.0355002313" flag="0"/>
      <psa30 value="0.0031021128" flag="0"/>
    </comp>
    <comp name="00.HHZ">
      <acc value="0.0644811361" flag="0"/>
      <vel value="0.0227260749" flag="0"/>
      <psa03 value="0.1210799841" flag="0"/>
      <psa10 value="0.0240961687" flag="0"/>
      <psa30 value="0.0023839869" flag="0"/>
    </comp>
  </station>
  <station code="CMPN" name="CMPN" netid="IY" insttype="SS08" commtype="DIG" lat="39.4076" lon="16.8303">
    <comp name="00.HHE">
      <acc value="0.1442600978" flag="0"/>
      <vel value="0.0521709499" flag="0"/>
      <psa03 value="0.3645220313" flag="0"/>
      <psa10 value="0.0437748673" flag="0"/>
      <psa30 value="0.0020499839" flag="0"/>
    </comp>
    <comp name="00.HHN">
      <acc value="0.1605178306" flag="0"/>
      <vel value="0.0789046972" flag="0"/>
      <psa03 value="0.3598994233" flag="0"/>
      <psa10 value="0.0564397032" flag="0"/>
      <psa30 value="0.0039422604" flag="0"/>
    </comp>
    <comp name="00.HHZ">
      <acc value="0.2285489115" flag="0"/>
      <vel value="0.0337278132" flag="0"/>
      <psa03 value="0.2315469631" flag="0"/>
      <psa10 value="0.0195258276" flag="0"/>
      <psa30 value="0.0015551292" flag="0"/>
    </comp>
  </station>
  <station code="CO22" name="CO22" netid="IY" insttype="SS08" commtype="DIG" lat="39.4925" lon="16.305">
    <comp name="00.HHE">
      <acc value="0.0291734329" flag="0"/>
      <vel value="0.0154877752" flag="0"/>
