<stationlist created="1775181346">
	<station code="MARCO" name="MARCO" netid="GE" source="GEOFON" insttype="" lat="40.29724" lon="15.80632">
		<comp name="--.HLE" depth="1.0">
			<acc value="0.00732715786685749" flag="0"/>
			<vel value="0.00424189172427916" flag="0"/>
			<psa03 value="0.0139195536125299" flag="0"/>
			<psa10 value="0.00442444934805524" flag="0"/>
			<psa30 value="0.00113648236971276" flag="0"/>
		</comp>
		<comp name="--.HLN" depth="1.0">
			<acc value="0.00716126129170898" flag="0"/>
			<vel value="0.00520977988043603" flag="0"/>
			<psa03 value="0.0199135379241569" flag="0"/>
			<psa10 value="0.00622853260971734" flag="0"/>
			<psa30 value="0.00103578778252388" flag="0"/>
		</comp>
		<comp name="--.HLZ" depth="1.0">
			<acc value="0.00173630801249282" flag="0"/>
			<vel value="0.00107613399835591" flag="0"/>
			<psa03 value="0.00535365217922418" flag="0"/>
			<psa10 value="0.00190210139550742" flag="0"/>
			<psa30 value="0.000342243479242522" flag="0"/>
		</comp>
	</station>
	<station code="ACR" name="ACR" netid="IT" source="Italian Strong Motion Network (RAN)" insttype="" lat="39.4889" lon="16.3798">
		<comp name="--.HNE" depth="0.0">
			<acc value="0.0818862646680138" flag="0"/>
			<vel value="0.0376789633079219" flag="0"/>
			<psa03 value="0.239924393813602" flag="0"/>
			<psa10 value="0.0103455965950009" flag="0"/>
			<psa30 value="0.00088334872585117" flag="0"/>
		</comp>
		<comp name="--.HNN" depth="0.0">
			<acc value="0.0691260793231729" flag="0"/>
			<vel value="0.0307773467752464" flag="0"/>
			<psa03 value="0.186421537011918" flag="0"/>
			<psa10 value="0.0289253024093266" flag="0"/>
			<psa30 value="0.00189464259410677" flag="0"/>
		</comp>
		<comp name="--.HNZ" depth="0.0">
			<acc value="0.0436983084109643" flag="0"/>
			<vel value="0.020063258413645" flag="0"/>
			<psa03 value="0.112768678704858" flag="0"/>
			<psa10 value="0.0103912699331354" flag="0"/>
			<psa30 value="0.000684742287899365" flag="0"/>
		</comp>
	</station>
	<station code="ALD" name="ALD" netid="IT" source="Italian Strong Motion Network (RAN)" insttype="" lat="39.9298" lon="16.4653">
		<comp name="--.HNE" depth="0.0">
			<acc value="0.0367568599811544" flag="0"/>
			<vel value="0.0187221884921092" flag="0"/>
			<psa03 value="0.0869211383071593" flag="0"/>
			<psa10 value="0.0248405393138185" flag="0"/>
			<psa30 value="0.00284628834430062" flag="0"/>
		</comp>
		<comp name="--.HNN" depth="0.0">
			<acc value="0.0298025117293619" flag="0"/>
			<vel value="0.0137093376604577" flag="0"/>
			<psa03 value="0.0560685788515119" flag="0"/>
			<psa10 value="0.017336337197257" flag="0"/>
			<psa30 value="0.0023299228876233" flag="0"/>
		</comp>
		<comp name="--.HNZ" depth="0.0">
			<acc value="0.0281021924551454" flag="0"/>
			<vel value="0.0101382346289729" flag="0"/>
			<psa03 value="0.0379823078081515" flag="0"/>
			<psa10 value="0.0172854913289677" flag="0"/>
			<psa30 value="0.00147008217739613" flag="0"/>
		</comp>
	</station>
	<station code="ALT" name="ALT" netid="IT" source="Italian Strong Motion Network (RAN)" insttype="" lat="40.5583" lon="15.3921">
		<comp name="--.HGE" depth="0.0">
			<acc value="0.00319002968675748" flag="0"/>
			<vel value="0.00205253258429266" flag="0"/>
			<psa03 value="0.00425891429362862" flag="0"/>
			<psa10 value="0.00460106026641182" flag="0"/>
			<psa30 value="0.000997271897702199" flag="0"/>
		</comp>
		<comp name="--.HGN" depth="0.0">
			<acc value="0.00312036878001899" flag="0"/>
			<vel value="0.00177961029196845" flag="0"/>
			<psa03 value="0.00353436792359166" flag="0"/>
			<psa10 value="0.0034517000644392" flag="0"/>
			<psa30 value="0.000873421766155476" flag="0"/>
		</comp>
		<comp name="--.HGZ" depth="0.0">
			<acc value="0.00394377592540998" flag="0"/>
			<vel value="0.00143783383591927" flag="0"/>
			<psa03 value="0.00359314590588619" flag="0"/>
			<psa10 value="0.00254199503532062" flag="0"/>
			<psa30 value="0.00042125160376802" flag="0"/>
		</comp>
	</station>
	<station code="ARE" name="ARE" netid="IT" source="Italian Strong Motion Network (RAN)" insttype="" lat="38.5614" lon="16.2088">
		<comp name="--.HGE" depth="0.0">
			<acc value="0.0229427817584741" flag="0"/>
			<vel value="0.00409498438514407" flag="0"/>
			<psa03 value="0.0213193432914465" flag="0"/>
			<psa10 value="0.00348637181439748" flag="0"/>
			<psa30 value="0.00035100520549722" flag="0"/>
		</comp>
		<comp name="--.HGN" depth="0.0">
			<acc value="0.0104328826479871" flag="0"/>
			<vel value="0.0036091197024366" flag="0"/>
			<psa03 value="0.0163091389941673" flag="0"/>
			<psa10 value="0.00322212321547466" flag="0"/>
			<psa30 value="0.000294119926710012" flag="0"/>
		</comp>
		<comp name="--.HGZ" depth="0.0">
			<acc value="0.0255348994074473" flag="0"/>
			<vel value="0.00221148294693737" flag="0"/>
			<psa03 value="0.00985728320496862" flag="0"/>
			<psa10 value="0.0017183607860938" flag="0"/>
			<psa30 value="0.000176578299008208" flag="0"/>
		</comp>
	</station>
	<station code="AVT" name="AVT" netid="IT" source="Italian Strong Motion Network (RAN)" insttype="" lat="40.3217" lon="17.6994">
		<comp name="--.HGE" depth="0.0">
			<acc value="0.0639672949855773" flag="0"/>
			<vel value="0.0303946212725366" flag="0"/>
			<psa03 value="0.150627645008906" flag="0"/>
			<psa10 value="0.0303318237094599" flag="0"/>
			<psa30 value="0.00187267968083822" flag="0"/>
		</comp>
		<comp name="--.HGN" depth="0.0">
			<acc value="0.0847584282361249" flag="0"/>
			<vel value="0.0320299658630248" flag="0"/>
			<psa03 value="0.24523234960629" flag="0"/>
			<psa10 value="0.0126441088601579" flag="0"/>
			<psa30 value="0.00193923638155967" flag="0"/>
		</comp>
		<comp name="--.HGZ" depth="0.0">
			<acc value="0.0440104705107914" flag="0"/>
			<vel value="0.0145919245947468" flag="0"/>
			<psa03 value="0.0860475439774891" flag="0"/>
			<psa10 value="0.00512406663176674" flag="0"/>
			<psa30 value="0.000512527702444931" flag="0"/>
		</comp>
	</station>
	<station code="BCN" name="BCN" netid="IT" source="Italian Strong Motion Network (RAN)" insttype="" lat="40.6343" lon="15.3823">
		<comp name="--.HNE" depth="0.0">
			<acc value="0.00170282093957523" flag="0"/>
			<vel value="0.00257694989781881" flag="0"/>
			<psa03 value="0.00391487425006003" flag="0"/>
			<psa10 value="0.00269858384606084" flag="0"/>
			<psa30 value="0.000507692277955123" flag="0"/>
		</comp>
		<comp name="--.HNN" depth="0.0">
			<acc value="0.00207075842850296" flag="0"/>
			<vel value="0.00169711648989389" flag="0"/>
			<psa03 value="0.00312333190541022" flag="0"/>
			<psa10 value="0.00262986687202355" flag="0"/>
			<psa30 value="0.000422836500426312" flag="0"/>
		</comp>
		<comp name="--.HNZ" depth="0.0">
			<acc value="0.00162351892841295" flag="0"/>
			<vel value="0.00106185287193115" flag="0"/>
			<psa03 value="0.00369228170491717" flag="0"/>
			<psa10 value="0.00163351739219785" flag="0"/>
			<psa30 value="0.000274549984464049" flag="0"/>
		</comp>
	</station>
	<station code="BEL7" name="BEL7" netid="IT" source="Italian Strong Motion Network (RAN)" insttype="" lat="40.7589" lon="15.5396">
		<comp name="--.HNE" depth="0.0">
			<acc value="0.0225454607852551" flag="0"/>
			<vel value="0.0038389432025051" flag="0"/>
			<psa03 value="0.00762671617001628" flag="0"/>
			<psa10 value="0.00526231438375182" flag="0"/>
			<psa30 value="0.000549195079395367" flag="0"/>
		</comp>
		<comp name="--.HNN" depth="0.0">
			<acc value="0.0789854664331334" flag="0"/>
			<vel value="0.00540010601062737" flag="0"/>
			<psa03 value="0.00879523758924216" flag="0"/>
			<psa10 value="0.00560800712794955" flag="0"/>
			<psa30 value="0.00050576168131257" flag="0"/>
		</comp>
		<comp name="--.HNZ" depth="0.0">
			<acc value="0.0532111578626148" flag="0"/>
			<vel value="0.0035408685861564" flag="0"/>
			<psa03 value="0.0044172284921048" flag="0"/>
			<psa10 value="0.00257390941511666" flag="0"/>
			<psa30 value="0.000466627734714001" flag="0"/>
		</comp>
	</station>
	<station code="BRDS" name="BRDS" netid="IT" source="Italian Strong Motion Network (RAN)" insttype="" lat="40.6302" lon="17.9412">
		<comp name="--.HNE" depth="0.0">
			<acc value="0.0831705829798996" flag="0"/>
			<vel value="0.0339376185720805" flag="0"/>
			<psa03 value="0.173186337328227" flag="0"/>
			<psa10 value="0.02934950988599" flag="0"/>
			<psa30 value="0.00188764692234451" flag="0"/>
		</comp>
		<comp name="--.HNN" depth="0.0">
			<acc value="0.0639824053858223" flag="0"/>
			<vel value="0.0320652867006732" flag="0"/>
			<psa03 value="0.188265992531377" flag="0"/>
			<psa10 value="0.0302083542802161" flag="0"/>
			<psa30 value="0.00142655450223461" flag="0"/>
		</comp>
		<comp name="--.HNZ" depth="0.0">
			<acc value="0.070889562853757" flag="0"/>
			<vel value="0.0200032466237029" flag="0"/>
			<psa03 value="0.120204119182965" flag="0"/>
			<psa10 value="0.00800282577293162" flag="0"/>
			<psa30 value="0.000428977558282923" flag="0"/>
		</comp>
	</station>
	<station code="BRN" name="BRN" netid="IT" source="Italian Strong Motion Network (RAN)" insttype="" lat="40.4726" lon="15.6431">
		<comp name="--.HGE" depth="0.0">
			<acc value="0.00545054534745017" flag="0"/>
			<vel value="0.0043753754630208" flag="0"/>
			<psa03 value="0.0180393473619802" flag="0"/>
			<psa10 value="0.00733794704047865" flag="0"/>
			<psa30 value="0.00122566067317103" flag="0"/>
		</comp>
		<comp name="--.HGN" depth="0.0">
			<acc value="0.00661007875833581" flag="0"/>
			<vel value="0.00406945218974643" flag="0"/>
			<psa03 value="0.0174598076682364" flag="0"/>
			<psa10 value="0.00598859218359167" flag="0"/>
			<psa30 value="0.000978103648733111" flag="0"/>
		</comp>
		<comp name="--.HGZ" depth="0.0">
			<acc value="0.00415176068399575" flag="0"/>
			<vel value="0.00272760407851331" flag="0"/>
			<psa03 value="0.011699458625466" flag="0"/>
			<psa10 value="0.00431239145601984" flag="0"/>
			<psa30 value="0.000643091143298782" flag="0"/>
		</comp>
	</station>
	<station code="BRO" name="BRO" netid="IT" source="Italian Strong Motion Network (RAN)" insttype="" lat="38.6021" lon="16.3493">
		<comp name="--.HGE" depth="0.0">
			<acc value="0.00990774283681305" flag="0"/>
			<vel value="0.00528978615953513" flag="0"/>
			<psa03 value="0.0360110730568568" flag="0"/>
			<psa10 value="0.00335175570924117" flag="0"/>
			<psa30 value="0.000465962013529907" flag="0"/>
		</comp>
		<comp name="--.HGN" depth="0.0">
			<acc value="0.00821072284105032" flag="0"/>
			<vel value="0.00418623447469849" flag="0"/>
			<psa03 value="0.029033975441715" flag="0"/>
			<psa10 value="0.00390120859217309" flag="0"/>
			<psa30 value="0.000338503882554262" flag="0"/>
		</comp>
		<comp name="--.HGZ" depth="0.0">
			<acc value="0.00608884173399741" flag="0"/>
			<vel value="0.00196271777335409" flag="0"/>
			<psa03 value="0.00704638736149749" flag="0"/>
			<psa10 value="0.00189564616319246" flag="0"/>
			<psa30 value="0.000179177833193756" flag="0"/>
		</comp>
	</station>
	<station code="COP" name="COP" netid="IT" source="Italian Strong Motion Network (RAN)" insttype="" lat="40.3782" lon="16.0406">
		<comp name="--.HNE" depth="0.0">
			<acc value="0.00689107549685669" flag="0"/>
			<vel value="0.00607685732307091" flag="0"/>
			<psa03 value="0.0170067060378938" flag="0"/>
			<psa10 value="0.00848966239846879" flag="0"/>
			<psa30 value="0.00115480681278385" flag="0"/>
		</comp>
		<comp name="--.HNN" depth="0.0">
			<acc value="0.00703650994443775" flag="0"/>
			<vel value="0.00558965259909546" flag="0"/>
			<psa03 value="0.0194005573271266" flag="0"/>
			<psa10 value="0.00941340952968272" flag="0"/>
			<psa30 value="0.00191752931857328" flag="0"/>
		</comp>
		<comp name="--.HNZ" depth="0.0">
			<acc value="0.00511099013479877" flag="0"/>
			<vel value="0.00298801841386372" flag="0"/>
			<psa03 value="0.00799458819598258" flag="0"/>
			<psa10 value="0.00490003616584786" flag="0"/>
			<psa30 value="0.000995220720155087" flag="0"/>
		</comp>
	</station>
	<station code="CRN" name="CRN" netid="IT" source="Italian Strong Motion Network (RAN)" insttype="" lat="39.0777" lon="17.1113">
		<comp name="--.HGE" depth="0.0">
			<acc value="0.0198718728267144" flag="0"/>
			<vel value="0.0142103516700947" flag="0"/>
			<psa03 value="0.0573424601148937" flag="0"/>
			<psa10 value="0.0188403105781123" flag="0"/>
			<psa30 value="0.00297701221244866" flag="0"/>
		</comp>
		<comp name="--.HGN" depth="0.0">
			<acc value="0.0202474375778551" flag="0"/>
			<vel value="0.0155262640275985" flag="0"/>
			<psa03 value="0.0516116690197756" flag="0"/>
			<psa10 value="0.0249952839398905" flag="0"/>
			<psa30 value="0.00278004416428213" flag="0"/>
		</comp>
		<comp name="--.HGZ" depth="0.0">
			<acc value="0.012697040378967" flag="0"/>
			<vel value="0.00756017650593454" flag="0"/>
			<psa03 value="0.0310761576012605" flag="0"/>
			<psa10 value="0.0070627191204797" flag="0"/>
			<psa30 value="0.00217855369349041" flag="0"/>
		</comp>
	</station>
	<station code="CRV" name="CRV" netid="IT" source="Italian Strong Motion Network (RAN)" insttype="" lat="40.7095" lon="17.6522">
		<comp name="--.HGE" depth="0.0">
			<acc value="0.0303634205271918" flag="0"/>
			<vel value="0.0173461181355649" flag="0"/>
			<psa03 value="0.064101954773241" flag="0"/>
			<psa10 value="0.0150367720498516" flag="0"/>
			<psa30 value="0.000764779464969544" flag="0"/>
		</comp>
		<comp name="--.HGN" depth="0.0">
			<acc value="0.0243770631454093" flag="0"/>
			<vel value="0.0133165072863793" flag="0"/>
			<psa03 value="0.0388470760323022" flag="0"/>
			<psa10 value="0.0129051533405736" flag="0"/>
			<psa30 value="0.000508745316463756" flag="0"/>
		</comp>
		<comp name="--.HGZ" depth="0.0">
			<acc value="0.0169113733221079" flag="0"/>
			<vel value="0.00692394104476421" flag="0"/>
			<psa03 value="0.050406860040427" flag="0"/>
			<psa10 value="0.0045847462169361" flag="0"/>
			<psa30 value="0.000251391601376492" flag="0"/>
		</comp>
	</station>
	<station code="CSL" name="CSL" netid="IT" source="Italian Strong Motion Network (RAN)" insttype="" lat="40.6323" lon="16.9283">
		<comp name="--.HGE" depth="0.0">
			<acc value="0.0730413385058254" flag="0"/>
			<vel value="0.0212136466352897" flag="0"/>
			<psa03 value="0.0868201472419969" flag="0"/>
			<psa10 value="0.0123682471481734" flag="0"/>
			<psa30 value="0.00100777363505743" flag="0"/>
		</comp>
		<comp name="--.HGN" depth="0.0">
			<acc value="0.0519357504175029" flag="0"/>
			<vel value="0.0190708786198319" flag="0"/>
			<psa03 value="0.10148803558428" flag="0"/>
			<psa10 value="0.0120112656874036" flag="0"/>
			<psa30 value="0.000681357636599495" flag="0"/>
		</comp>
		<comp name="--.HGZ" depth="0.0">
			<acc value="0.0381089071912394" flag="0"/>
			<vel value="0.0101348538486551" flag="0"/>
			<psa03 value="0.04913260896088" flag="0"/>
			<psa10 value="0.00559786645617982" flag="0"/>
			<psa30 value="0.000448805304065439" flag="0"/>
		</comp>
	</station>
	<station code="CSPC" name="CSPC" netid="IT" source="Italian Strong Motion Network (RAN)" insttype="" lat="39.3102" lon="16.2337">
		<comp name="--.HNE" depth="0.0">
			<acc value="0.047186575520706" flag="0"/>
			<vel value="0.0225831089320318" flag="0"/>
			<psa03 value="0.0941632274350217" flag="0"/>
			<psa10 value="0.026277542633236" flag="0"/>
			<psa30 value="0.00155502009578304" flag="0"/>
		</comp>
		<comp name="--.HNN" depth="0.0">
			<acc value="0.0442895672239177" flag="0"/>
			<vel value="0.0202612118492658" flag="0"/>
			<psa03 value="0.12039389217116" flag="0"/>
			<psa10 value="0.0243065039365957" flag="0"/>
			<psa30 value="0.00153234661460952" flag="0"/>
		</comp>
		<comp name="--.HNZ" depth="0.0">
			<acc value="0.0216922243936203" flag="0"/>
			<vel value="0.0131221062391932" flag="0"/>
			<psa03 value="0.0640009064126163" flag="0"/>
			<psa10 value="0.0179665908234666" flag="0"/>
			<psa30 value="0.00082938369259923" flag="0"/>
		</comp>
	</station>
	<station code="CSSE" name="CSSE" netid="IT" source="Italian Strong Motion Network (RAN)" insttype="" lat="39.3023" lon="16.2494">
		<comp name="--.HNE" depth="0.0">
			<acc value="0.0510970706215927" flag="0"/>
			<vel value="0.0197362605047063" flag="0"/>
			<psa03 value="0.114990430051647" flag="0"/>
			<psa10 value="0.0185735066536618" flag="0"/>
			<psa30 value="0.00123310314536496" flag="0"/>
		</comp>
		<comp name="--.HNN" depth="0.0">
			<acc value="0.056177835428477" flag="0"/>
			<vel value="0.0187639072545539" flag="0"/>
			<psa03 value="0.0913173409923451" flag="0"/>
			<psa10 value="0.0221563252478101" flag="0"/>
			<psa30 value="0.000904234484430174" flag="0"/>
		</comp>
		<comp name="--.HNZ" depth="0.0">
			<acc value="0.0259021645809101" flag="0"/>
			<vel value="0.0110097285850494" flag="0"/>
			<psa03 value="0.0534738705064849" flag="0"/>
			<psa10 value="0.0090184952435494" flag="0"/>
			<psa30 value="0.000784890224291984" flag="0"/>
		</comp>
	</station>
	<station code="CSST" name="CSST" netid="IT" source="Italian Strong Motion Network (RAN)" insttype="" lat="39.2911" lon="16.2545">
		<comp name="--.HNE" depth="0.0">
			<acc value="0.0285425930726661" flag="0"/>
			<vel value="0.0123028553057008" flag="0"/>
			<psa03 value="0.0811684968062257" flag="0"/>
			<psa10 value="0.0136660506212842" flag="0"/>
			<psa30 value="0.000853498102560543" flag="0"/>
		</comp>
		<comp name="--.HNN" depth="0.0">
			<acc value="0.0380358207184838" flag="0"/>
			<vel value="0.0172135712613992" flag="0"/>
			<psa03 value="0.110770838024384" flag="0"/>
			<psa10 value="0.0138170187471816" flag="0"/>
			<psa30 value="0.000869510204950409" flag="0"/>
		</comp>
		<comp name="--.HNZ" depth="0.0">
			<acc value="0.013704967370696" flag="0"/>
			<vel value="0.00766814628390574" flag="0"/>
			<psa03 value="0.0216544904933038" flag="0"/>
			<psa10 value="0.00598266491593928" flag="0"/>
			<psa30 value="0.000614981729104712" flag="0"/>
		</comp>
	</station>
	<station code="CTV" name="CTV" netid="IT" source="Italian Strong Motion Network (RAN)" insttype="" lat="38.3498" lon="16.0804">
		<comp name="--.HNE" depth="0.0">
			<acc value="0.0281574428723931" flag="0"/>
			<vel value="0.00235214019911021" flag="0"/>
			<psa03 value="0.00479889342397092" flag="0"/>
			<psa10 value="0.00533586706875623" flag="0"/>
			<psa30 value="0.000417944249255349" flag="0"/>
		</comp>
		<comp name="--.HNN" depth="0.0">
			<acc value="0.060961319369559" flag="0"/>
			<vel value="0.00429090529804039" flag="0"/>
			<psa03 value="0.00319579048147694" flag="0"/>
			<psa10 value="0.00289431001508396" flag="0"/>
			<psa30 value="0.00030333051082434" flag="0"/>
		</comp>
		<comp name="--.HNZ" depth="0.0">
			<acc value="0.0464706162318459" flag="0"/>
			<vel value="0.00295362936792944" flag="0"/>
			<psa03 value="0.00374954624059912" flag="0"/>
			<psa10 value="0.00352725421015556" flag="0"/>
			<psa30 value="0.000270523884421347" flag="0"/>
		</comp>
	</station>
	<station code="CVL" name="CVL" netid="IT" source="Italian Strong Motion Network (RAN)" insttype="" lat="39.8168" lon="16.1947">
		<comp name="--.HGE" depth="0.0">
			<acc value="0.0101667324561893" flag="0"/>
			<vel value="0.0077627814535144" flag="0"/>
			<psa03 value="0.0270172454890866" flag="0"/>
			<psa10 value="0.00910618636515584" flag="0"/>
			<psa30 value="0.00078519175468356" flag="0"/>
		</comp>
		<comp name="--.HGN" depth="0.0">
			<acc value="0.0128363426402671" flag="0"/>
			<vel value="0.00875368581902293" flag="0"/>
			<psa03 value="0.0314627457108255" flag="0"/>
			<psa10 value="0.0113143654586836" flag="0"/>
			<psa30 value="0.000951058523792981" flag="0"/>
		</comp>
		<comp name="--.HGZ" depth="0.0">
			<acc value="0.00748145986132843" flag="0"/>
			<vel value="0.00357423629788837" flag="0"/>
			<psa03 value="0.0142489465269439" flag="0"/>
			<psa10 value="0.00417222076414943" flag="0"/>
			<psa30 value="0.000317233124512599" flag="0"/>
		</comp>
	</station>
	<station code="DNMI" name="DNMI" netid="IT" source="Italian Strong Motion Network (RAN)" insttype="" lat="38.5315" lon="16.1448">
