<?xml version="1.0" encoding="UTF-8" standalone="yes"?>
<!DOCTYPE earthquake SYSTEM "stationlist.dtd">
<stationlist created="" xmlns="ch.ethz.sed.shakemap.usgs.xml">
  <station code="GVD" name="GVD" netid="GE" insttype="STS-2/N" lat="34.8391" lon="24.0874">
    <comp name="--.HHE">
      <acc value="1.3795995948" flag="0"/>
      <vel value="0.1215138564" flag="0"/>
      <psa03 value="0.2087177318" flag="0"/>
      <psa10 value="0.0310693755" flag="0"/>
      <psa30 value="0.0121843573" flag="0"/>
    </comp>
    <comp name="--.HHN">
      <acc value="0.0215710733" flag="0"/>
      <vel value="0.0113268904" flag="0"/>
      <psa03 value="0.0916227979" flag="0"/>
      <psa10 value="0.0074009219" flag="0"/>
      <psa30 value="0.0005843378" flag="0"/>
    </comp>
    <comp name="--.HHZ">
      <acc value="0.0162785105" flag="0"/>
      <vel value="0.0051452898" flag="0"/>
      <psa03 value="0.0354081878" flag="0"/>
      <psa10 value="0.0052002102" flag="0"/>
      <psa30 value="0.0002524716" flag="0"/>
    </comp>
  </station>
  <station code="GVDS" name="GVDS" netid="HC" insttype="60" lat="34.8389" lon="24.0585">
    <comp name="--.HHZ">
      <acc value="0.0104209618" flag="0"/>
      <vel value="0.0033543899" flag="0"/>
      <psa03 value="0.0232026346" flag="0"/>
      <psa10 value="0.0025495569" flag="0"/>
      <psa30 value="0.0002253337" flag="0"/>
    </comp>
    <comp name="--.HHE">
      <acc value="0.0158961036" flag="0"/>
      <vel value="0.0057974328" flag="0"/>
      <psa03 value="0.0405126542" flag="0"/>
      <psa10 value="0.0041053912" flag="0"/>
      <psa30 value="0.0003447556" flag="0"/>
    </comp>
    <comp name="--.HHN">
      <acc value="0.0136172850" flag="0"/>
      <vel value="0.0056463667" flag="0"/>
      <psa03 value="0.0366319614" flag="0"/>
      <psa10 value="0.0048173230" flag="0"/>
      <psa30 value="0.0004070685" flag="0"/>
    </comp>
  </station>
  <station code="KNDR" name="KNDR" netid="HC" insttype="120" lat="35.2348" lon="23.6248">
    <comp name="--.HHN">
      <acc value="0.0066586358" flag="0"/>
      <vel value="0.0035915650" flag="0"/>
      <psa03 value="0.0263127021" flag="0"/>
      <psa10 value="0.0043230578" flag="0"/>
      <psa30 value="0.0002119528" flag="0"/>
    </comp>
    <comp name="--.HHZ">
      <acc value="0.0033920029" flag="0"/>
      <vel value="0.0018071819" flag="0"/>
      <psa03 value="0.0093193091" flag="0"/>
      <psa10 value="0.0032722912" flag="0"/>
      <psa30 value="0.0001839045" flag="0"/>
    </comp>
    <comp name="--.HHE">
      <acc value="0.0048074782" flag="0"/>
      <vel value="0.0026622950" flag="0"/>
      <psa03 value="0.0169556408" flag="0"/>
      <psa10 value="0.0062268502" flag="0"/>
      <psa30 value="0.0002124922" flag="0"/>
    </comp>
  </station>
  <station code="GVD" name="GVD" netid="HL" insttype="120" lat="34.8391" lon="24.0874">
    <comp name="--.HHE">
      <acc value="1.4902288208" flag="0"/>
      <vel value="0.1251280095" flag="0"/>
      <psa03 value="0.2030929749" flag="0"/>
      <psa10 value="0.0308979238" flag="0"/>
      <psa30 value="0.0121920871" flag="0"/>
    </comp>
    <comp name="--.HHZ">
      <acc value="0.0157598188" flag="0"/>
      <vel value="0.0049923007" flag="0"/>
      <psa03 value="0.0343916665" flag="0"/>
      <psa10 value="0.0051734959" flag="0"/>
      <psa30 value="0.0002508332" flag="0"/>
    </comp>
    <comp name="--.HHN">
      <acc value="0.0211331249" flag="0"/>
      <vel value="0.0110896214" flag="0"/>
      <psa03 value="0.0891038795" flag="0"/>
      <psa10 value="0.0073323162" flag="0"/>
      <psa30 value="0.0005818229" flag="0"/>
    </comp>
  </station>
  <station code="SIVA" name="SIVA" netid="HL" insttype="60" lat="35.0178" lon="24.812">
    <comp name="--.HHZ">
      <acc value="0.0021430478" flag="0"/>
      <vel value="0.0011366359" flag="0"/>
      <psa03 value="0.0059599711" flag="0"/>
      <psa10 value="0.0025114290" flag="0"/>
      <psa30 value="0.0001523348" flag="0"/>
    </comp>
    <comp name="--.HHE">
      <acc value="0.0056011086" flag="0"/>
      <vel value="0.0049430791" flag="0"/>
      <psa03 value="0.0163031655" flag="0"/>
      <psa10 value="0.0070258234" flag="0"/>
      <psa30 value="0.0003800541" flag="0"/>
    </comp>
    <comp name="--.HHN">
      <acc value="0.0037292203" flag="0"/>
      <vel value="0.0032475989" flag="0"/>
      <psa03 value="0.0085723835" flag="0"/>
      <psa10 value="0.0065063825" flag="0"/>
      <psa30 value="0.0002900979" flag="0"/>
    </comp>
  </station>
</stationlist>
