<?xml version="1.0" encoding="UTF-8" standalone="yes"?>
<!DOCTYPE earthquake SYSTEM "stationlist.dtd">
<stationlist created="" xmlns="ch.ethz.sed.shakemap.usgs.xml">
  <station code="KARP" name="KARP" netid="GE" insttype="STS-2/N" lat="35.5471" lon="27.1611">
    <comp name="--.HHE">
      <acc value="0.1637813630" flag="0"/>
      <vel value="0.1888947244" flag="0"/>
      <psa03 value="0.4509382476" flag="0"/>
      <psa10 value="0.3898825891" flag="0"/>
      <psa30 value="0.0418217369" flag="0"/>
    </comp>
    <comp name="--.HHN">
      <acc value="0.1532513304" flag="0"/>
      <vel value="0.1835342369" flag="0"/>
      <psa03 value="0.3123378562" flag="0"/>
      <psa10 value="0.3465369752" flag="0"/>
      <psa30 value="0.0319970377" flag="0"/>
    </comp>
    <comp name="--.HHZ">
      <acc value="0.1470763689" flag="0"/>
      <vel value="0.1648550671" flag="0"/>
      <psa03 value="0.3261765488" flag="0"/>
      <psa10 value="0.3346572058" flag="0"/>
      <psa30 value="0.0266283366" flag="0"/>
    </comp>
  </station>
  <station code="ZKR" name="ZKR" netid="GE" insttype="STS-2/N" lat="35.1147" lon="26.2169">
    <comp name="--.HHE">
      <acc value="0.0389532459" flag="0"/>
      <vel value="0.0450794452" flag="0"/>
      <psa03 value="0.1175142859" flag="0"/>
      <psa10 value="0.1010281469" flag="0"/>
      <psa30 value="0.0146220743" flag="0"/>
    </comp>
    <comp name="--.HHN">
      <acc value="0.0175957737" flag="0"/>
      <vel value="0.0277838789" flag="0"/>
      <psa03 value="0.0469566601" flag="0"/>
      <psa10 value="0.0498232944" flag="0"/>
      <psa30 value="0.0095419076" flag="0"/>
    </comp>
    <comp name="--.HHZ">
      <acc value="0.0273844904" flag="0"/>
      <vel value="0.0408590098" flag="0"/>
      <psa03 value="0.0456550621" flag="0"/>
      <psa10 value="0.0596416078" flag="0"/>
      <psa30 value="0.0220499372" flag="0"/>
    </comp>
  </station>
  <station code="RDI1" name="RDI1" netid="HI" insttype="CMG-5TD,ACCELEROMETER,GURALP" lat="36.4514" lon="28.224">
    <comp name="--.HNE">
      <acc value="0.1342406280" flag="0"/>
      <vel value="0.2570758938" flag="0"/>
      <psa03 value="0.2585002113" flag="0"/>
      <psa10 value="0.3313174452" flag="0"/>
      <psa30 value="0.1462293086" flag="0"/>
    </comp>
    <comp name="--.HNN">
      <acc value="0.1545150802" flag="0"/>
      <vel value="0.2221487187" flag="0"/>
      <psa03 value="0.2588423770" flag="0"/>
      <psa10 value="0.4205878256" flag="0"/>
      <psa30 value="0.1199525928" flag="0"/>
    </comp>
    <comp name="--.HNZ">
      <acc value="0.1007313788" flag="0"/>
      <vel value="0.1391779572" flag="0"/>
      <psa03 value="0.2024273286" flag="0"/>
      <psa10 value="0.2094024829" flag="0"/>
      <psa30 value="0.0522613734" flag="0"/>
    </comp>
  </station>
  <station code="ARG" name="ARG" netid="HL" insttype="LE3D20_DR24" lat="36.2136" lon="28.1212">
    <comp name="--.HHE">
      <acc value="0.1362823454" flag="0"/>
      <vel value="0.2082910013" flag="0"/>
      <psa03 value="0.3235051265" flag="0"/>
      <psa10 value="0.2368587205" flag="0"/>
      <psa30 value="0.1267607389" flag="0"/>
    </comp>
    <comp name="--.HHN">
      <acc value="0.1543692636" flag="0"/>
      <vel value="0.2505883872" flag="0"/>
      <psa03 value="0.2990217754" flag="0"/>
      <psa10 value="0.3102357431" flag="0"/>
      <psa30 value="0.0944725528" flag="0"/>
    </comp>
    <comp name="--.HHZ">
      <acc value="0.0958249722" flag="0"/>
      <vel value="0.1498543941" flag="0"/>
      <psa03 value="0.1909820264" flag="0"/>
      <psa10 value="0.1902300716" flag="0"/>
      <psa30 value="0.0523017988" flag="0"/>
    </comp>
  </station>
  <station code="KARP" name="KARP" netid="HL" insttype="120" lat="35.5471" lon="27.1611">
    <comp name="--.HHE">
      <acc value="0.1553890579" flag="0"/>
      <vel value="0.1872806541" flag="0"/>
      <psa03 value="0.4412474502" flag="0"/>
      <psa10 value="0.3875521064" flag="0"/>
      <psa30 value="0.0417422685" flag="0"/>
    </comp>
    <comp name="--.HHN">
      <acc value="0.1438026488" flag="0"/>
      <vel value="0.1814533906" flag="0"/>
      <psa03 value="0.3061501802" flag="0"/>
      <psa10 value="0.3446183392" flag="0"/>
      <psa30 value="0.0319555493" flag="0"/>
    </comp>
    <comp name="--.HHZ">
      <acc value="0.1422710925" flag="0"/>
      <vel value="0.1635536055" flag="0"/>
      <psa03 value="0.3198133698" flag="0"/>
      <psa10 value="0.3323695797" flag="0"/>
      <psa30 value="0.0265879489" flag="0"/>
    </comp>
  </station>
  <station code="NPS" name="NPS" netid="HL" insttype="CMG3ESPC-120s" lat="35.2613" lon="25.6104">
    <comp name="--.HHE">
      <acc value="0.0090587529" flag="0"/>
      <vel value="0.0235101344" flag="0"/>
      <psa03 value="0.0296468540" flag="0"/>
      <psa10 value="0.0242011687" flag="0"/>
      <psa30 value="0.0064818182" flag="0"/>
    </comp>
    <comp name="--.HHN">
      <acc value="0.0248089278" flag="0"/>
      <vel value="0.0371917413" flag="0"/>
      <psa03 value="0.0385617426" flag="0"/>
      <psa10 value="0.0676136033" flag="0"/>
      <psa30 value="0.0117391098" flag="0"/>
    </comp>
    <comp name="--.HHZ">
      <acc value="0.0187461048" flag="0"/>
      <vel value="0.0249892685" flag="0"/>
      <psa03 value="0.0504599464" flag="0"/>
      <psa10 value="0.0332039011" flag="0"/>
      <psa30 value="0.0104080000" flag="0"/>
    </comp>
  </station>
  <station code="RODB" name="RODB" netid="HL" insttype="CMG-5" lat="36.4471" lon="28.2212">
    <comp name="00.HNE">
      <acc value="0.1499302669" flag="0"/>
      <vel value="0.2376111670" flag="0"/>
      <psa03 value="0.2712407616" flag="0"/>
      <psa10 value="0.2926067545" flag="0"/>
      <psa30 value="0.1509717251" flag="0"/>
    </comp>
    <comp name="00.HNN">
      <acc value="0.1347855122" flag="0"/>
      <vel value="0.2404112015" flag="0"/>
      <psa03 value="0.4000513559" flag="0"/>
      <psa10 value="0.2611801633" flag="0"/>
      <psa30 value="0.1567836186" flag="0"/>
    </comp>
    <comp name="00.HNZ">
      <acc value="0.0847967772" flag="0"/>
      <vel value="0.1280114234" flag="0"/>
      <psa03 value="0.1822795539" flag="0"/>
      <psa10 value="0.2726726518" flag="0"/>
      <psa30 value="0.0486893946" flag="0"/>
    </comp>
  </station>
  <station code="ZKR" name="ZKR" netid="HL" insttype="120" lat="35.1147" lon="26.2169">
    <comp name="--.HHE">
      <acc value="0.0385043924" flag="0"/>
      <vel value="0.0448771484" flag="0"/>
      <psa03 value="0.1147974031" flag="0"/>
      <psa10 value="0.1004858378" flag="0"/>
      <psa30 value="0.0146277438" flag="0"/>
    </comp>
    <comp name="--.HHN">
      <acc value="0.0174136503" flag="0"/>
      <vel value="0.0277322790" flag="0"/>
      <psa03 value="0.0456910251" flag="0"/>
      <psa10 value="0.0495481573" flag="0"/>
      <psa30 value="0.0095453490" flag="0"/>
    </comp>
    <comp name="--.HHZ">
      <acc value="0.0271431032" flag="0"/>
      <vel value="0.0406171285" flag="0"/>
      <psa03 value="0.0444951060" flag="0"/>
      <psa10 value="0.0593041709" flag="0"/>
      <psa30 value="0.0220554543" flag="0"/>
    </comp>
  </station>
</stationlist>
