<stationlist xmlns:esm="https://esm-db.eu/esmws/shakemap/1/" created="1783994284">
	<station code="KARP" name="KARP" netid="GE" source="GEOFON" insttype="" lat="35.5471" lon="27.16106" esm:processing="manual (Paolucci et al 2011)" esm:quality="good">
		<comp name="--.HNE" depth="0.0">
			<acc value="0.140780076730133" flag="0"/>
			<vel value="0.190003708135097" flag="0"/>
			<psa03 value="0.390554721570894" flag="0"/>
			<psa10 value="0.340663134392925" flag="0"/>
			<psa30 value="0.0446330356341232" flag="0"/>
		</comp>
		<comp name="--.HNN" depth="0.0">
			<acc value="0.135595261275" flag="0"/>
			<vel value="0.163635209235996" flag="0"/>
			<psa03 value="0.276148899247973" flag="0"/>
			<psa10 value="0.300668970740985" flag="0"/>
			<psa30 value="0.0300752638667361" flag="0"/>
		</comp>
		<comp name="--.HNZ" depth="0.0">
			<acc value="0.120157598950608" flag="0"/>
			<vel value="0.186191154574148" flag="0"/>
			<psa03 value="0.270466639007453" flag="0"/>
			<psa10 value="0.272948489208568" flag="0"/>
			<psa30 value="0.0230310508567554" flag="0"/>
		</comp>
	</station>
	<station code="ARK1" name="ARK1" netid="HI" source="ITSAK Strong Motion Network" insttype="" lat="35.148777" lon="25.264194" esm:processing="automatic (Paolucci et al 2011)" esm:quality="good">
		<comp name="--.HNE" depth="0.0">
			<acc value="0.0240797526902742" flag="0"/>
			<vel value="0.0510406728079234" flag="0"/>
			<psa03 value="0.0351894222723581" flag="0"/>
			<psa10 value="0.0566863589430777" flag="0"/>
			<psa30 value="0.0238108006820212" flag="0"/>
		</comp>
		<comp name="--.HNN" depth="0.0">
			<acc value="0.0238785072513026" flag="0"/>
			<vel value="0.0585061200328194" flag="0"/>
			<psa03 value="0.0419966987418492" flag="0"/>
			<psa10 value="0.0803273362918032" flag="0"/>
			<psa30 value="0.033229671302641" flag="0"/>
		</comp>
		<comp name="--.HNZ" depth="0.0">
			<acc value="0.0173352598215351" flag="0"/>
			<vel value="0.0363144450755526" flag="0"/>
			<psa03 value="0.0364662203956343" flag="0"/>
			<psa10 value="0.0663409422618404" flag="0"/>
			<psa30 value="0.0215120600684038" flag="0"/>
		</comp>
	</station>
	<station code="GOR1" name="GOR1" netid="HI" source="ITSAK Strong Motion Network" insttype="" lat="35.0582" lon="24.9628" esm:processing="automatic (Paolucci et al 2011)" esm:quality="good">
		<comp name="--.HNE" depth="0.0">
			<acc value="0.0164196996090324" flag="0"/>
			<vel value="0.0595445911544279" flag="0"/>
			<psa03 value="0.0270641392205661" flag="0"/>
			<psa10 value="0.049136520053304" flag="0"/>
			<psa30 value="0.0340268707798606" flag="0"/>
		</comp>
		<comp name="--.HNN" depth="0.0">
			<acc value="0.0214347157785505" flag="0"/>
			<vel value="0.0633028917104289" flag="0"/>
			<psa03 value="0.0267734897581323" flag="0"/>
			<psa10 value="0.0522608370239699" flag="0"/>
			<psa30 value="0.0201477480227598" flag="0"/>
		</comp>
		<comp name="--.HNZ" depth="0.0">
			<acc value="0.0134139475738709" flag="0"/>
			<vel value="0.0349061253870677" flag="0"/>
			<psa03 value="0.0299338345321301" flag="0"/>
			<psa10 value="0.0397952849923256" flag="0"/>
			<psa30 value="0.0159055886671886" flag="0"/>
		</comp>
	</station>
	<station code="HER1" name="HER1" netid="HI" source="ITSAK Strong Motion Network" insttype="" lat="35.317672" lon="25.10217" esm:processing="automatic (Paolucci et al 2011)" esm:quality="good">
		<comp name="--.HNE" depth="0.0">
			<acc value="0.0695737849447156" flag="0"/>
			<vel value="0.150265590502891" flag="0"/>
			<psa03 value="0.117168105561962" flag="0"/>
			<psa10 value="0.222144645992568" flag="0"/>
			<psa30 value="0.0254033695152238" flag="0"/>
		</comp>
		<comp name="--.HNN" depth="0.0">
			<acc value="0.0734195014368941" flag="0"/>
			<vel value="0.134326047371958" flag="0"/>
			<psa03 value="0.0880836371920052" flag="0"/>
			<psa10 value="0.249917935836715" flag="0"/>
			<psa30 value="0.0318260816550487" flag="0"/>
		</comp>
		<comp name="--.HNZ" depth="0.0">
			<acc value="0.0480943854375614" flag="0"/>
			<vel value="0.054532916508436" flag="0"/>
			<psa03 value="0.0793486210400544" flag="0"/>
			<psa10 value="0.0848627142383337" flag="0"/>
			<psa30 value="0.0108949375694777" flag="0"/>
		</comp>
	</station>
	<station code="HER2" name="HER2" netid="HI" source="ITSAK Strong Motion Network" insttype="" lat="35.337866" lon="25.135624" esm:processing="automatic (Paolucci et al 2011)" esm:quality="good">
		<comp name="--.HNE" depth="0.0">
			<acc value="0.0304099648825302" flag="0"/>
			<vel value="0.0411364936557962" flag="0"/>
			<psa03 value="0.0708510945789634" flag="0"/>
			<psa10 value="0.0560307105095868" flag="0"/>
			<psa30 value="0.0130802165001488" flag="0"/>
		</comp>
		<comp name="--.HNN" depth="0.0">
			<acc value="0.0259658386089612" flag="0"/>
			<vel value="0.039538996236161" flag="0"/>
			<psa03 value="0.0590588915283844" flag="0"/>
			<psa10 value="0.0571437804950106" flag="0"/>
			<psa30 value="0.0145547158451606" flag="0"/>
		</comp>
		<comp name="--.HNZ" depth="0.0">
			<acc value="0.0145587102234229" flag="0"/>
			<vel value="0.0239463101058365" flag="0"/>
			<psa03 value="0.0447219157324335" flag="0"/>
			<psa10 value="0.0309073874627338" flag="0"/>
			<psa30 value="0.0109560766196397" flag="0"/>
		</comp>
	</station>
	<station code="KRL1" name="KRL1" netid="HI" source="ITSAK Strong Motion Network" insttype="" lat="37.7951" lon="26.7065" esm:processing="manual (Paolucci et al 2011)" esm:quality="good">
		<comp name="--.HNE" depth="0.0">
			<acc value="0.0153648273669882" flag="0"/>
			<vel value="0.0487917949638201" flag="0"/>
			<psa03 value="0.0234449162679744" flag="0"/>
			<psa10 value="0.0341633592854476" flag="0"/>
			<psa30 value="0.0163291157274045" flag="0"/>
		</comp>
		<comp name="--.HNN" depth="0.0">
			<acc value="0.0178969786342856" flag="0"/>
			<vel value="0.0481703414134407" flag="0"/>
			<psa03 value="0.0204471884245502" flag="0"/>
			<psa10 value="0.052517507284395" flag="0"/>
			<psa30 value="0.0138714263178628" flag="0"/>
		</comp>
		<comp name="--.HNZ" depth="0.0">
			<acc value="0.00807084909438205" flag="0"/>
			<vel value="0.0266771694188796" flag="0"/>
			<psa03 value="0.026174190871689" flag="0"/>
			<psa10 value="0.0303097130294158" flag="0"/>
			<psa30 value="0.00745360420053789" flag="0"/>
		</comp>
	</station>
	<station code="KSS1" name="KSS1" netid="HI" source="ITSAK Strong Motion Network" insttype="" lat="35.4189" lon="26.9207" esm:processing="manual (Paolucci et al 2011)" esm:quality="good">
		<comp name="--.HNE" depth="0.0">
			<acc value="0.108221213514784" flag="0"/>
			<vel value="0.139784632960414" flag="0"/>
			<psa03 value="0.403574703696811" flag="0"/>
			<psa10 value="0.108727588880996" flag="0"/>
			<psa30 value="0.0205662026941548" flag="0"/>
		</comp>
		<comp name="--.HNN" depth="0.0">
			<acc value="0.124332036650744" flag="0"/>
			<vel value="0.104194759161876" flag="0"/>
			<psa03 value="0.483260573683953" flag="0"/>
			<psa10 value="0.0875868962538626" flag="0"/>
			<psa30 value="0.0256856059754174" flag="0"/>
		</comp>
		<comp name="--.HNZ" depth="0.0">
			<acc value="0.0588894079347246" flag="0"/>
			<vel value="0.0852880749215586" flag="0"/>
			<psa03 value="0.122817357167156" flag="0"/>
			<psa10 value="0.0814581087912917" flag="0"/>
			<psa30 value="0.0161398561934092" flag="0"/>
		</comp>
	</station>
	<station code="RDI1" name="RDI1" netid="HI" source="ITSAK Strong Motion Network" insttype="" lat="36.4514" lon="28.224" esm:processing="manual (Paolucci et al 2011)" esm:quality="good">
		<comp name="--.HNE" depth="0.0">
			<acc value="0.136964421417192" flag="0"/>
			<vel value="0.308283771052227" flag="0"/>
			<psa03 value="0.25346460049251" flag="0"/>
			<psa10 value="0.33381757678033" flag="0"/>
			<psa30 value="0.182224716848699" flag="0"/>
		</comp>
		<comp name="--.HNN" depth="0.0">
			<acc value="0.156832711573894" flag="0"/>
			<vel value="0.238326759470664" flag="0"/>
			<psa03 value="0.254985835517531" flag="0"/>
			<psa10 value="0.42045414856562" flag="0"/>
			<psa30 value="0.12091805049621" flag="0"/>
		</comp>
		<comp name="--.HNZ" depth="0.0">
			<acc value="0.100521074754429" flag="0"/>
			<vel value="0.141183000055749" flag="0"/>
			<psa03 value="0.200847765509422" flag="0"/>
			<psa10 value="0.210690156121309" flag="0"/>
			<psa30 value="0.0529175026115624" flag="0"/>
		</comp>
	</station>
	<station code="RKL1" name="RKL1" netid="HI" source="ITSAK Strong Motion Network" insttype="" lat="36.336699" lon="28.171224" esm:processing="manual (Paolucci et al 2011)" esm:quality="good">
		<comp name="--.HNE" depth="0.0">
			<acc value="0.198662941868659" flag="0"/>
			<vel value="0.356737763039065" flag="0"/>
			<psa03 value="0.484111611685044" flag="0"/>
			<psa10 value="0.365656362939496" flag="0"/>
			<psa30 value="0.0672329071834722" flag="0"/>
		</comp>
		<comp name="--.HNN" depth="0.0">
			<acc value="0.21743768224284" flag="0"/>
			<vel value="0.205169922906953" flag="0"/>
			<psa03 value="0.451472199484172" flag="0"/>
			<psa10 value="0.436252689599669" flag="0"/>
			<psa30 value="0.0518046384697213" flag="0"/>
		</comp>
		<comp name="--.HNZ" depth="0.0">
			<acc value="0.130080794472919" flag="0"/>
			<vel value="0.125171932612111" flag="0"/>
			<psa03 value="0.221549718248191" flag="0"/>
			<psa10 value="0.196639641411186" flag="0"/>
			<psa30 value="0.0339134399322903" flag="0"/>
		</comp>
	</station>
	<station code="RKT1" name="RKT1" netid="HI" source="ITSAK Strong Motion Network" insttype="" lat="35.954336" lon="27.767327" esm:processing="manual (Paolucci et al 2011)" esm:quality="good">
		<comp name="--.HNE" depth="0.0">
			<acc value="0.367106025451409" flag="0"/>
			<vel value="0.307057675646961" flag="0"/>
			<psa03 value="0.968737007405759" flag="0"/>
			<psa10 value="0.39810489249533" flag="0"/>
			<psa30 value="0.0498484122126657" flag="0"/>
		</comp>
		<comp name="--.HNN" depth="0.0">
			<acc value="0.367818317253112" flag="0"/>
			<vel value="0.299211279519448" flag="0"/>
			<psa03 value="0.98823996604772" flag="0"/>
			<psa10 value="0.424614858650484" flag="0"/>
			<psa30 value="0.073291068506928" flag="0"/>
		</comp>
		<comp name="--.HNZ" depth="0.0">
			<acc value="0.206545123139029" flag="0"/>
			<vel value="0.342683570294943" flag="0"/>
			<psa03 value="0.319287359553923" flag="0"/>
			<psa10 value="0.444404949646888" flag="0"/>
			<psa30 value="0.0993813835289202" flag="0"/>
		</comp>
	</station>
	<station code="RPN1" name="RPN1" netid="HI" source="ITSAK Strong Motion Network" insttype="" lat="36.448678" lon="28.218047" esm:processing="manual (Paolucci et al 2011)" esm:quality="good">
		<comp name="--.HNE" depth="0.0">
			<acc value="0.180584813588508" flag="0"/>
			<vel value="0.316974866755391" flag="0"/>
			<psa03 value="0.362226787413616" flag="0"/>
			<psa10 value="0.323326708807653" flag="0"/>
			<psa30 value="0.170473533034923" flag="0"/>
		</comp>
		<comp name="--.HNN" depth="0.0">
			<acc value="0.149268331258758" flag="0"/>
			<vel value="0.273684638456118" flag="0"/>
			<psa03 value="0.395418694547899" flag="0"/>
			<psa10 value="0.425291283460308" flag="0"/>
			<psa30 value="0.143974430932793" flag="0"/>
		</comp>
		<comp name="--.HNZ" depth="0.0">
			<acc value="0.0996200988289525" flag="0"/>
			<vel value="0.142236773229846" flag="0"/>
			<psa03 value="0.13691265312467" flag="0"/>
			<psa10 value="0.165745799845802" flag="0"/>
			<psa30 value="0.0580802008615975" flag="0"/>
		</comp>
	</station>
	<station code="RSO1" name="RSO1" netid="HI" source="ITSAK Strong Motion Network" insttype="" lat="36.3632" lon="28.0016" esm:processing="manual (Paolucci et al 2011)" esm:quality="good">
		<comp name="--.HNE" depth="0.0">
			<acc value="0.205460432977521" flag="0"/>
			<vel value="0.414635066382446" flag="0"/>
			<psa03 value="0.628893119416047" flag="0"/>
			<psa10 value="0.498174151592631" flag="0"/>
			<psa30 value="0.0901586392340402" flag="0"/>
		</comp>
		<comp name="--.HNN" depth="0.0">
			<acc value="0.213697354342361" flag="0"/>
			<vel value="0.502658495295949" flag="0"/>
			<psa03 value="0.53406021220136" flag="0"/>
			<psa10 value="0.478328826937268" flag="0"/>
			<psa30 value="0.100888470032671" flag="0"/>
		</comp>
		<comp name="--.HNZ" depth="0.0">
			<acc value="0.148628408901805" flag="0"/>
			<vel value="0.259052988363677" flag="0"/>
			<psa03 value="0.432736458333271" flag="0"/>
			<psa10 value="0.23462535277814" flag="0"/>
			<psa30 value="0.1400103683331" flag="0"/>
		</comp>
	</station>
	<station code="SFK2" name="SFK2" netid="HI" source="ITSAK Strong Motion Network" insttype="" lat="35.211556" lon="24.188889" esm:processing="automatic (Paolucci et al 2011)" esm:quality="good">
		<comp name="--.HNE" depth="0.0">
			<acc value="0.0075264956070821" flag="0"/>
			<vel value="0.0168501438068057" flag="0"/>
			<psa03 value="0.029385654988759" flag="0"/>
			<psa10 value="0.0100990440121023" flag="0"/>
			<psa30 value="0.00885343566332895" flag="0"/>
		</comp>
		<comp name="--.HNN" depth="0.0">
			<acc value="0.00736235094743465" flag="0"/>
			<vel value="0.0280605148316446" flag="0"/>
			<psa03 value="0.0192212563868193" flag="0"/>
			<psa10 value="0.0235418770338159" flag="0"/>
			<psa30 value="0.0100265558767857" flag="0"/>
		</comp>
		<comp name="--.HNZ" depth="0.0">
			<acc value="0.00667163679851047" flag="0"/>
			<vel value="0.0169166016011077" flag="0"/>
			<psa03 value="0.0115174101073118" flag="0"/>
			<psa10 value="0.0150308288436434" flag="0"/>
			<psa30 value="0.0068428703899136" flag="0"/>
		</comp>
	</station>
	<station code="SIT2" name="SIT2" netid="HI" source="ITSAK Strong Motion Network" insttype="" lat="35.2059" lon="26.107" esm:processing="manual (Paolucci et al 2011)" esm:quality="good">
		<comp name="--.HNE" depth="0.0">
			<acc value="0.13339698712506" flag="0"/>
			<vel value="0.114114650322327" flag="0"/>
			<psa03 value="0.274090757743533" flag="0"/>
			<psa10 value="0.162630314882293" flag="0"/>
			<psa30 value="0.0243688428346417" flag="0"/>
		</comp>
		<comp name="--.HNN" depth="0.0">
			<acc value="0.115968814912269" flag="0"/>
			<vel value="0.125146142632867" flag="0"/>
			<psa03 value="0.34482818640702" flag="0"/>
			<psa10 value="0.134660171836946" flag="0"/>
			<psa30 value="0.0334474839795552" flag="0"/>
		</comp>
		<comp name="--.HNZ" depth="0.0">
			<acc value="0.0404115306892212" flag="0"/>
			<vel value="0.0464685651008403" flag="0"/>
			<psa03 value="0.124741272051742" flag="0"/>
			<psa10 value="0.0521470418135957" flag="0"/>
			<psa30 value="0.0232118093714932" flag="0"/>
		</comp>
	</station>
	<station code="KARP" name="KARP" netid="HL" source="National Observatory of Athens Seismic Network" insttype="" lat="35.5471" lon="27.16106" esm:processing="manual (Paolucci et al 2011)" esm:quality="good">
		<comp name="--.HNE" depth="0.0">
			<acc value="0.137921802774553" flag="0"/>
			<vel value="0.186146169657883" flag="0"/>
			<psa03 value="0.38263535099946" flag="0"/>
			<psa10 value="0.333745094405608" flag="0"/>
			<psa30 value="0.043726558528037" flag="0"/>
		</comp>
		<comp name="--.HNN" depth="0.0">
			<acc value="0.132842320265899" flag="0"/>
			<vel value="0.160312875600037" flag="0"/>
			<psa03 value="0.270556123420689" flag="0"/>
			<psa10 value="0.294564344069988" flag="0"/>
			<psa30 value="0.0294645327463967" flag="0"/>
		</comp>
		<comp name="--.HNZ" depth="0.0">
			<acc value="0.117718049601155" flag="0"/>
			<vel value="0.182410927029209" flag="0"/>
			<psa03 value="0.264963347593405" flag="0"/>
			<psa10 value="0.267403587542366" flag="0"/>
			<psa30 value="0.0225634947975944" flag="0"/>
		</comp>
	</station>
	<station code="RODB" name="RODB" netid="HL" source="National Observatory of Athens Seismic Network" insttype="" lat="36.4471" lon="28.22116" esm:processing="manual (Paolucci et al 2011)" esm:quality="good">
		<comp name="00.HNE" depth="0.0">
			<acc value="0.146946839744565" flag="0"/>
			<vel value="0.24680062269331" flag="0"/>
			<psa03 value="0.2713167409332" flag="0"/>
			<psa10 value="0.294906621950618" flag="0"/>
			<psa30 value="0.190199120334273" flag="0"/>
		</comp>
		<comp name="00.HNN" depth="0.0">
			<acc value="0.134718881261214" flag="0"/>
			<vel value="0.243505473486638" flag="0"/>
			<psa03 value="0.399189967448221" flag="0"/>
			<psa10 value="0.263549941286334" flag="0"/>
			<psa30 value="0.159853166117497" flag="0"/>
		</comp>
		<comp name="00.HNZ" depth="0.0">
			<acc value="0.0843818506474558" flag="0"/>
			<vel value="0.141872451046577" flag="0"/>
			<psa03 value="0.182145523142984" flag="0"/>
			<psa10 value="0.272348496217817" flag="0"/>
			<psa30 value="0.0489050215220357" flag="0"/>
		</comp>
	</station>
	<station code="CAME" name="CAME" netid="KO" source="Bogazici University Kandilli Observatory And Earthquake Research Institute (KOERI)" insttype="" lat="36.9435" lon="29.3023" esm:processing="manual (Paolucci et al 2011)" esm:quality="good">
		<comp name="--.HNE" depth="0.0">
			<acc value="0.0170973750725417" flag="0"/>
			<vel value="0.0521065349394077" flag="0"/>
			<psa03 value="0.064876199596494" flag="0"/>
			<psa10 value="0.0579858997772802" flag="0"/>
			<psa30 value="0.0153340490522141" flag="0"/>
		</comp>
		<comp name="--.HNN" depth="0.0">
			<acc value="0.019652272592836" flag="0"/>
			<vel value="0.0341000235040867" flag="0"/>
			<psa03 value="0.0580753841905167" flag="0"/>
			<psa10 value="0.0425592343573663" flag="0"/>
			<psa30 value="0.0132159529909051" flag="0"/>
		</comp>
		<comp name="--.HNZ" depth="0.0">
			<acc value="0.0126648169386593" flag="0"/>
			<vel value="0.0244819562798721" flag="0"/>
			<psa03 value="0.0255925421856514" flag="0"/>
			<psa10 value="0.0385727037476783" flag="0"/>
			<psa30 value="0.0129676337441737" flag="0"/>
		</comp>
	</station>
	<station code="DATC" name="DATC" netid="KO" source="Bogazici University Kandilli Observatory And Earthquake Research Institute (KOERI)" insttype="" lat="36.7584" lon="27.6602" esm:processing="manual (Paolucci et al 2011)" esm:quality="good">
		<comp name="--.HNE" depth="0.0">
			<acc value="0.801074520573187" flag="0"/>
			<vel value="1.09253073382036" flag="0"/>
			<psa03 value="1.45537449687914" flag="0"/>
			<psa10 value="1.07812700240066" flag="0"/>
			<psa30 value="0.613361962088564" flag="0"/>
		</comp>
		<comp name="--.HNN" depth="0.0">
			<acc value="0.583267129491776" flag="0"/>
			<vel value="0.854120733096073" flag="0"/>
			<psa03 value="1.45577717673871" flag="0"/>
			<psa10 value="1.90478445930191" flag="0"/>
			<psa30 value="0.30083362206134" flag="0"/>
		</comp>
		<comp name="--.HNZ" depth="0.0">
			<acc value="0.60319977159966" flag="0"/>
			<vel value="0.948446916563897" flag="0"/>
			<psa03 value="0.995514097256547" flag="0"/>
			<psa10 value="0.999242017911981" flag="0"/>
			<psa30 value="0.255771508665748" flag="0"/>
		</comp>
	</station>
	<station code="FETI" name="FETI" netid="KO" source="Bogazici University Kandilli Observatory And Earthquake Research Institute (KOERI)" insttype="" lat="36.6903" lon="29.096" esm:processing="manual (Paolucci et al 2011)" esm:quality="good">
		<comp name="--.HNE" depth="0.0">
			<acc value="0.0985155639327617" flag="0"/>
			<vel value="0.163358251662649" flag="0"/>
			<psa03 value="0.146038562402039" flag="0"/>
			<psa10 value="0.299215296447957" flag="0"/>
			<psa30 value="0.0818317062165543" flag="0"/>
		</comp>
		<comp name="--.HNN" depth="0.0">
			<acc value="0.0951756768845358" flag="0"/>
			<vel value="0.235638023562505" flag="0"/>
			<psa03 value="0.131452603044482" flag="0"/>
			<psa10 value="0.275694765850798" flag="0"/>
			<psa30 value="0.0834200545515029" flag="0"/>
		</comp>
		<comp name="--.HNZ" depth="0.0">
			<acc value="0.0937472346786111" flag="0"/>
			<vel value="0.164369662223057" flag="0"/>
			<psa03 value="0.142459185872577" flag="0"/>
			<psa10 value="0.267170033223818" flag="0"/>
			<psa30 value="0.0814746634077405" flag="0"/>
		</comp>
	</station>
