<?xml version="1.0" encoding="UTF-8" standalone="yes"?>
<!DOCTYPE earthquake SYSTEM "stationlist.dtd">
<stationlist created="" xmlns="ch.ethz.sed.shakemap.usgs.xml">
  <station code="AIO" name="AIO" netid="IV" insttype="" lat="37.9712" lon="15.233">
    <comp name="--.HHE">
      <acc value="0.0019251606" flag="0"/>
      <vel value="0.0003743020" flag="0"/>
      <psa03 value="0.0022113344" flag="0"/>
      <psa10 value="0.0001683439" flag="0"/>
      <psa30 value="0.0000099743" flag="0"/>
    </comp>
    <comp name="--.HHZ">
      <acc value="0.0022754002" flag="0"/>
      <vel value="0.0008291575" flag="0"/>
      <psa03 value="0.0038016378" flag="0"/>
      <psa10 value="0.0003003261" flag="0"/>
      <psa30 value="0.0000196911" flag="0"/>
    </comp>
    <comp name="--.HHN">
      <acc value="0.0024734108" flag="0"/>
      <vel value="0.0006344961" flag="0"/>
      <psa03 value="0.0036146896" flag="0"/>
      <psa10 value="0.0001789473" flag="0"/>
      <psa30 value="0.0000112033" flag="0"/>
    </comp>
  </station>
  <station code="ALJA" name="ALJA" netid="IV" insttype="" lat="37.749" lon="13.7537">
    <comp name="--.HHE">
      <acc value="0.0020785664" flag="0"/>
      <vel value="0.0004320066" flag="0"/>
      <psa03 value="0.0022655542" flag="0"/>
      <psa10 value="0.0001019568" flag="0"/>
      <psa30 value="0.0000120501" flag="0"/>
    </comp>
    <comp name="--.HHN">
      <acc value="0.0012970238" flag="0"/>
      <vel value="0.0003409142" flag="0"/>
      <psa03 value="0.0022814859" flag="0"/>
      <psa10 value="0.0000896345" flag="0"/>
      <psa30 value="0.0000134859" flag="0"/>
    </comp>
    <comp name="--.HHZ">
      <acc value="0.0018105875" flag="0"/>
      <vel value="0.0004790001" flag="0"/>
      <psa03 value="0.0024435834" flag="0"/>
      <psa10 value="0.0001209759" flag="0"/>
      <psa30 value="0.0000197725" flag="0"/>
    </comp>
  </station>
  <station code="CSLB" name="CSLB" netid="IV" insttype="" lat="37.9374" lon="14.0579">
    <comp name="--.HHE">
      <acc value="0.0013265988" flag="0"/>
      <vel value="0.0002280849" flag="0"/>
      <psa03 value="0.0006760121" flag="0"/>
      <psa10 value="0.0000420576" flag="0"/>
      <psa30 value="0.0000084799" flag="0"/>
    </comp>
    <comp name="--.HHN">
      <acc value="0.0007962109" flag="0"/>
      <vel value="0.0001554476" flag="0"/>
      <psa03 value="0.0008777051" flag="0"/>
      <psa10 value="0.0000452779" flag="0"/>
      <psa30 value="0.0000067776" flag="0"/>
    </comp>
    <comp name="--.HHZ">
      <acc value="0.0013197776" flag="0"/>
      <vel value="0.0001937487" flag="0"/>
      <psa03 value="0.0008811516" flag="0"/>
      <psa10 value="0.0000410857" flag="0"/>
      <psa30 value="0.0000063743" flag="0"/>
    </comp>
  </station>
  <station code="ECBD" name="ECBD" netid="IV" insttype="" lat="37.7802" lon="15.0865">
    <comp name="--.HHE">
      <acc value="0.0032158250" flag="0"/>
      <vel value="0.0009783251" flag="0"/>
      <psa03 value="0.0050182833" flag="0"/>
      <psa10 value="0.0005485794" flag="0"/>
      <psa30 value="0.0000256538" flag="0"/>
    </comp>
    <comp name="--.HHN">
      <acc value="0.0030245346" flag="0"/>
      <vel value="0.0006099433" flag="0"/>
      <psa03 value="0.0031735254" flag="0"/>
      <psa10 value="0.0003790418" flag="0"/>
      <psa30 value="0.0000272294" flag="0"/>
    </comp>
    <comp name="--.HHZ">
      <acc value="0.0025467725" flag="0"/>
      <vel value="0.0007061684" flag="0"/>
      <psa03 value="0.0037082128" flag="0"/>
      <psa10 value="0.0004974573" flag="0"/>
      <psa30 value="0.0000366297" flag="0"/>
    </comp>
  </station>
  <station code="ECHR" name="ECHR" netid="IV" insttype="" lat="37.6863" lon="14.9129">
    <comp name="--.HHE">
      <acc value="0.0013718809" flag="0"/>
      <vel value="0.0005255803" flag="0"/>
      <psa03 value="0.0028798337" flag="0"/>
      <psa10 value="0.0002334049" flag="0"/>
      <psa30 value="0.0000387067" flag="0"/>
    </comp>
    <comp name="--.HHN">
      <acc value="0.0013338999" flag="0"/>
      <vel value="0.0006445306" flag="0"/>
      <psa03 value="0.0036667901" flag="0"/>
      <psa10 value="0.0002901779" flag="0"/>
      <psa30 value="0.0000363825" flag="0"/>
    </comp>
    <comp name="--.HHZ">
      <acc value="0.0010902404" flag="0"/>
      <vel value="0.0005420431" flag="0"/>
      <psa03 value="0.0024659880" flag="0"/>
      <psa10 value="0.0004058048" flag="0"/>
      <psa30 value="0.0000301100" flag="0"/>
    </comp>
  </station>
  <station code="ECTS" name="ECTS" netid="IV" insttype="" lat="37.882" lon="15.121">
    <comp name="--.HHE">
      <acc value="0.0018334484" flag="0"/>
      <vel value="0.0003664308" flag="0"/>
      <psa03 value="0.0028611970" flag="0"/>
      <psa10 value="0.0002652965" flag="0"/>
      <psa30 value="0.0000147016" flag="0"/>
    </comp>
    <comp name="--.HHN">
      <acc value="0.0023921508" flag="0"/>
      <vel value="0.0007511553" flag="0"/>
      <psa03 value="0.0037571622" flag="0"/>
      <psa10 value="0.0003150660" flag="0"/>
      <psa30 value="0.0000278372" flag="0"/>
    </comp>
    <comp name="--.HHZ">
      <acc value="0.0034213958" flag="0"/>
      <vel value="0.0012422203" flag="0"/>
      <psa03 value="0.0074531421" flag="0"/>
      <psa10 value="0.0006460321" flag="0"/>
      <psa30 value="0.0000477428" flag="0"/>
    </comp>
  </station>
  <station code="ECZM" name="ECZM" netid="IV" insttype="" lat="37.7313" lon="14.9041">
    <comp name="--.HHN">
      <acc value="0.0014498817" flag="0"/>
      <vel value="0.0007624289" flag="0"/>
      <psa03 value="0.0035784581" flag="0"/>
      <psa10 value="0.0003150093" flag="0"/>
      <psa30 value="0.0000312000" flag="0"/>
    </comp>
    <comp name="--.HHE">
      <acc value="0.0009893214" flag="0"/>
      <vel value="0.0003881405" flag="0"/>
      <psa03 value="0.0027738511" flag="0"/>
      <psa10 value="0.0002801600" flag="0"/>
      <psa30 value="0.0000214493" flag="0"/>
    </comp>
    <comp name="--.HHZ">
      <acc value="0.0017178249" flag="0"/>
      <vel value="0.0005191980" flag="0"/>
      <psa03 value="0.0030903663" flag="0"/>
      <psa10 value="0.0002764983" flag="0"/>
      <psa30 value="0.0000195586" flag="0"/>
    </comp>
  </station>
  <station code="EFIU" name="EFIU" netid="IV" insttype="" lat="37.7896" lon="15.2103">
    <comp name="--.HHE">
      <acc value="0.0011549902" flag="0"/>
      <vel value="0.0001998036" flag="0"/>
      <psa03 value="0.0009108196" flag="0"/>
      <psa10 value="0.0002335625" flag="0"/>
      <psa30 value="0.0000237033" flag="0"/>
    </comp>
    <comp name="--.HHN">
      <acc value="0.0013842702" flag="0"/>
      <vel value="0.0002309987" flag="0"/>
      <psa03 value="0.0008563811" flag="0"/>
      <psa10 value="0.0002554160" flag="0"/>
      <psa30 value="0.0000420158" flag="0"/>
    </comp>
    <comp name="--.HHZ">
      <acc value="0.0013770128" flag="0"/>
      <vel value="0.0004746433" flag="0"/>
      <psa03 value="0.0031938437" flag="0"/>
      <psa10 value="0.0002650023" flag="0"/>
      <psa30 value="0.0000231261" flag="0"/>
    </comp>
  </station>
  <station code="EMFO" name="EMFO" netid="IV" insttype="" lat="37.7357" lon="15.0902">
    <comp name="--.HHE">
      <acc value="0.0040291885" flag="0"/>
      <vel value="0.0011886633" flag="0"/>
      <psa03 value="0.0076987991" flag="0"/>
      <psa10 value="0.0005901612" flag="0"/>
      <psa30 value="0.0000413160" flag="0"/>
    </comp>
    <comp name="--.HHN">
      <acc value="0.0044443712" flag="0"/>
      <vel value="0.0022116366" flag="0"/>
      <psa03 value="0.0111372910" flag="0"/>
      <psa10 value="0.0010296418" flag="0"/>
      <psa30 value="0.0000846285" flag="0"/>
    </comp>
    <comp name="--.HHZ">
      <acc value="0.0037919604" flag="0"/>
      <vel value="0.0024794535" flag="0"/>
      <psa03 value="0.0084288120" flag="0"/>
      <psa10 value="0.0010029036" flag="0"/>
      <psa30 value="0.0000803170" flag="0"/>
    </comp>
  </station>
  <station code="EMSG" name="EMSG" netid="IV" insttype="" lat="37.8208" lon="14.9498">
    <comp name="--.HHE">
      <acc value="0.0022607493" flag="0"/>
      <vel value="0.0005590592" flag="0"/>
      <psa03 value="0.0037324551" flag="0"/>
      <psa10 value="0.0002585850" flag="0"/>
      <psa30 value="0.0000186779" flag="0"/>
    </comp>
    <comp name="--.HHN">
      <acc value="0.0023082532" flag="0"/>
      <vel value="0.0005211369" flag="0"/>
      <psa03 value="0.0031045697" flag="0"/>
      <psa10 value="0.0002410876" flag="0"/>
      <psa30 value="0.0000289302" flag="0"/>
    </comp>
    <comp name="--.HHZ">
      <acc value="0.0025920151" flag="0"/>
      <vel value="0.0006630639" flag="0"/>
      <psa03 value="0.0035486033" flag="0"/>
      <psa10 value="0.0004553065" flag="0"/>
      <psa30 value="0.0000298118" flag="0"/>
    </comp>
  </station>
  <station code="EPIT" name="EPIT" netid="IV" insttype="" lat="37.8113" lon="15.0567">
    <comp name="--.HHE">
      <acc value="0.0038812454" flag="0"/>
      <vel value="0.0008864150" flag="0"/>
      <psa03 value="0.0063452109" flag="0"/>
      <psa10 value="0.0003075258" flag="0"/>
      <psa30 value="0.0000543014" flag="0"/>
    </comp>
    <comp name="--.HHN">
      <acc value="0.0054444061" flag="0"/>
      <vel value="0.0013278587" flag="0"/>
      <psa03 value="0.0074390717" flag="0"/>
      <psa10 value="0.0004329090" flag="0"/>
      <psa30 value="0.0000504691" flag="0"/>
    </comp>
    <comp name="--.HHZ">
      <acc value="0.0041948060" flag="0"/>
      <vel value="0.0010879364" flag="0"/>
      <psa03 value="0.0059286884" flag="0"/>
      <psa10 value="0.0007141120" flag="0"/>
      <psa30 value="0.0000521011" flag="0"/>
    </comp>
  </station>
  <station code="EPZF" name="EPZF" netid="IV" insttype="" lat="37.824" lon="14.857">
    <comp name="--.HHE">
      <acc value="0.0008684493" flag="0"/>
      <vel value="0.0003200630" flag="0"/>
      <psa03 value="0.0029602978" flag="0"/>
      <psa10 value="0.0002569325" flag="0"/>
      <psa30 value="0.0000250251" flag="0"/>
    </comp>
    <comp name="--.HHN">
      <acc value="0.0013900970" flag="0"/>
      <vel value="0.0005265123" flag="0"/>
      <psa03 value="0.0047493564" flag="0"/>
      <psa10 value="0.0003170551" flag="0"/>
      <psa30 value="0.0000234520" flag="0"/>
    </comp>
    <comp name="--.HHZ">
      <acc value="0.0018129022" flag="0"/>
      <vel value="0.0006175092" flag="0"/>
      <psa03 value="0.0054543917" flag="0"/>
      <psa10 value="0.0004231960" flag="0"/>
      <psa30 value="0.0000272443" flag="0"/>
    </comp>
  </station>
  <station code="ESAL" name="ESAL" netid="IV" insttype="" lat="37.7551" lon="15.1345">
    <comp name="--.HHE">
      <acc value="0.0034128659" flag="0"/>
      <vel value="0.0008081415" flag="0"/>
      <psa03 value="0.0046005089" flag="0"/>
      <psa10 value="0.0004806402" flag="0"/>
      <psa30 value="0.0000320275" flag="0"/>
    </comp>
    <comp name="--.HHN">
      <acc value="0.0046089111" flag="0"/>
      <vel value="0.0009521420" flag="0"/>
      <psa03 value="0.0062107161" flag="0"/>
      <psa10 value="0.0003859372" flag="0"/>
      <psa30 value="0.0000242975" flag="0"/>
    </comp>
    <comp name="--.HHZ">
      <acc value="0.0030803329" flag="0"/>
      <vel value="0.0009697167" flag="0"/>
      <psa03 value="0.0035061374" flag="0"/>
      <psa10 value="0.0004463043" flag="0"/>
      <psa30 value="0.0000368871" flag="0"/>
    </comp>
  </station>
  <station code="ESVO" name="ESVO" netid="IV" insttype="" lat="37.7731" lon="14.9469">
    <comp name="--.HHE">
      <acc value="0.0021474161" flag="0"/>
      <vel value="0.0007530384" flag="0"/>
      <psa03 value="0.0040208754" flag="0"/>
      <psa10 value="0.0003550256" flag="0"/>
      <psa30 value="0.0000221880" flag="0"/>
    </comp>
    <comp name="--.HHN">
      <acc value="0.0020930899" flag="0"/>
      <vel value="0.0008683513" flag="0"/>
      <psa03 value="0.0046880307" flag="0"/>
      <psa10 value="0.0004843778" flag="0"/>
      <psa30 value="0.0000332665" flag="0"/>
    </comp>
    <comp name="--.HHZ">
      <acc value="0.0014945790" flag="0"/>
      <vel value="0.0008115453" flag="0"/>
      <psa03 value="0.0037425282" flag="0"/>
      <psa10 value="0.0005438683" flag="0"/>
      <psa30 value="0.0000320729" flag="0"/>
    </comp>
  </station>
  <station code="IST3" name="IST3" netid="IV" insttype="" lat="38.7992" lon="15.2304">
    <comp name="--.HHE">
      <acc value="0.0047965888" flag="0"/>
      <vel value="0.0008236122" flag="0"/>
      <psa03 value="0.0029506480" flag="0"/>
      <psa10 value="0.0003045618" flag="0"/>
      <psa30 value="0.0000208827" flag="0"/>
    </comp>
    <comp name="--.HHN">
      <acc value="0.0070373610" flag="0"/>
      <vel value="0.0016240454" flag="0"/>
      <psa03 value="0.0044149717" flag="0"/>
      <psa10 value="0.0005684041" flag="0"/>
      <psa30 value="0.0000327476" flag="0"/>
    </comp>
    <comp name="--.HHZ">
      <acc value="0.0040615054" flag="0"/>
      <vel value="0.0010400341" flag="0"/>
      <psa03 value="0.0034607369" flag="0"/>
      <psa10 value="0.0005757687" flag="0"/>
      <psa30 value="0.0000573389" flag="0"/>
    </comp>
  </station>
  <station code="IVPL" name="IVPL" netid="IV" insttype="" lat="38.3763" lon="14.9801">
    <comp name="--.HHN">
      <acc value="0.0044449521" flag="0"/>
      <vel value="0.0006631486" flag="0"/>
      <psa03 value="0.0025106489" flag="0"/>
      <psa10 value="0.0003678353" flag="0"/>
      <psa30 value="0.0000273544" flag="0"/>
    </comp>
    <comp name="--.HHE">
      <acc value="0.0031663044" flag="0"/>
      <vel value="0.0005581026" flag="0"/>
      <psa03 value="0.0030080258" flag="0"/>
      <psa10 value="0.0003096482" flag="0"/>
      <psa30 value="0.0000217458" flag="0"/>
    </comp>
    <comp name="--.HHZ">
      <acc value="0.0027090386" flag="0"/>
      <vel value="0.0004984253" flag="0"/>
      <psa03 value="0.0020268663" flag="0"/>
      <psa10 value="0.0001163523" flag="0"/>
      <psa30 value="0.0000214078" flag="0"/>
    </comp>
  </station>
  <station code="JOPP" name="JOPP" netid="IV" insttype="" lat="38.6068" lon="15.8856">
    <comp name="--.HHE">
      <acc value="0.0087719267" flag="0"/>
      <vel value="0.0010807935" flag="0"/>
      <psa03 value="0.0026311904" flag="0"/>
      <psa10 value="0.0001846665" flag="0"/>
      <psa30 value="0.0000176607" flag="0"/>
    </comp>
    <comp name="--.HHN">
      <acc value="0.0041782955" flag="0"/>
      <vel value="0.0009914361" flag="0"/>
      <psa03 value="0.0022036056" flag="0"/>
      <psa10 value="0.0002060450" flag="0"/>
      <psa30 value="0.0000287932" flag="0"/>
    </comp>
    <comp name="--.HHZ">
      <acc value="0.0047515049" flag="0"/>
      <vel value="0.0006830807" flag="0"/>
      <psa03 value="0.0026105682" flag="0"/>
      <psa10 value="0.0001961510" flag="0"/>
      <psa30 value="0.0000196502" flag="0"/>
    </comp>
  </station>
  <station code="MILZ" name="MILZ" netid="IV" insttype="" lat="38.2713" lon="15.2313">
    <comp name="--.HHE">
      <acc value="0.0116910974" flag="0"/>
      <vel value="0.0014288895" flag="0"/>
      <psa03 value="0.0071253604" flag="0"/>
      <psa10 value="0.0005172461" flag="0"/>
      <psa30 value="0.0000572113" flag="0"/>
    </comp>
    <comp name="--.HHN">
      <acc value="0.0127537326" flag="0"/>
      <vel value="0.0019096685" flag="0"/>
      <psa03 value="0.0050493180" flag="0"/>
      <psa10 value="0.0002630639" flag="0"/>
      <psa30 value="0.0000325616" flag="0"/>
    </comp>
    <comp name="--.HHZ">
      <acc value="0.0248230533" flag="0"/>
      <vel value="0.0037372031" flag="0"/>
      <psa03 value="0.0121129407" flag="0"/>
      <psa10 value="0.0005609134" flag="0"/>
      <psa30 value="0.0000486551" flag="0"/>
    </comp>
  </station>
  <station code="MPG" name="MPG" netid="IV" insttype="" lat="38.1617" lon="13.36">
    <comp name="--.HHE">
      <acc value="0.0014263928" flag="0"/>
      <vel value="0.0005788373" flag="0"/>
      <psa03 value="0.0032159570" flag="0"/>
      <psa10 value="0.0001970519" flag="0"/>
      <psa30 value="0.0000192417" flag="0"/>
    </comp>
    <comp name="--.HHN">
      <acc value="0.0019424452" flag="0"/>
      <vel value="0.0005884255" flag="0"/>
      <psa03 value="0.0037436504" flag="0"/>
      <psa10 value="0.0001621705" flag="0"/>
      <psa30 value="0.0000132854" flag="0"/>
    </comp>
    <comp name="--.HHZ">
      <acc value="0.0019817110" flag="0"/>
      <vel value="0.0009523185" flag="0"/>
      <psa03 value="0.0041760950" flag="0"/>
      <psa10 value="0.0002808777" flag="0"/>
      <psa30 value="0.0000289389" flag="0"/>
    </comp>
  </station>
  <station code="MPNC" name="MPNC" netid="IV" insttype="" lat="38.1465" lon="15.3528">
    <comp name="--.HHE">
      <acc value="0.0041469315" flag="0"/>
      <vel value="0.0008934452" flag="0"/>
      <psa03 value="0.0036474468" flag="0"/>
      <psa10 value="0.0003760197" flag="0"/>
      <psa30 value="0.0000201752" flag="0"/>
    </comp>
    <comp name="--.HHN">
      <acc value="0.0045144612" flag="0"/>
      <vel value="0.0008064230" flag="0"/>
      <psa03 value="0.0037315267" flag="0"/>
      <psa10 value="0.0005794785" flag="0"/>
      <psa30 value="0.0000260219" flag="0"/>
    </comp>
    <comp name="--.HHZ">
      <acc value="0.0053173508" flag="0"/>
      <vel value="0.0007403359" flag="0"/>
      <psa03 value="0.0021719943" flag="0"/>
      <psa10 value="0.0002295751" flag="0"/>
      <psa30 value="0.0000191763" flag="0"/>
    </comp>
  </station>
  <station code="MSRU" name="MSRU" netid="IV" insttype="" lat="38.2639" lon="15.5083">
    <comp name="--.HHE">
      <acc value="0.0047441232" flag="0"/>
      <vel value="0.0014631259" flag="0"/>
      <psa03 value="0.0055824754" flag="0"/>
      <psa10 value="0.0008098232" flag="0"/>
      <psa30 value="0.0000379527" flag="0"/>
    </comp>
    <comp name="--.HHN">
      <acc value="0.0045934137" flag="0"/>
      <vel value="0.0009876761" flag="0"/>
      <psa03 value="0.0076845503" flag="0"/>
      <psa10 value="0.0004486883" flag="0"/>
      <psa30 value="0.0000328925" flag="0"/>
    </comp>
    <comp name="--.HHZ">
      <acc value="0.0070872899" flag="0"/>
      <vel value="0.0009463334" flag="0"/>
      <psa03 value="0.0031555363" flag="0"/>
      <psa10 value="0.0001944503" flag="0"/>
      <psa30 value="0.0000166698" flag="0"/>
    </comp>
  </station>
  <station code="MTTG" name="MTTG" netid="IV" insttype="" lat="38.0031" lon="15.6999">
    <comp name="--.HHE">
      <acc value="0.0024862005" flag="0"/>
      <vel value="0.0003292030" flag="0"/>
      <psa03 value="0.0013094983" flag="0"/>
      <psa10 value="0.0003513960" flag="0"/>
      <psa30 value="0.0000209215" flag="0"/>
    </comp>
    <comp name="--.HHN">
      <acc value="0.0035099537" flag="0"/>
      <vel value="0.0005902627" flag="0"/>
      <psa03 value="0.0018936496" flag="0"/>
      <psa10 value="0.0005002765" flag="0"/>
      <psa30 value="0.0000371893" flag="0"/>
    </comp>
    <comp name="--.HHZ">
      <acc value="0.0055675611" flag="0"/>
      <vel value="0.0008140182" flag="0"/>
      <psa03 value="0.0017978769" flag="0"/>
      <psa10 value="0.0002208789" flag="0"/>
      <psa30 value="0.0000214454" flag="0"/>
    </comp>
  </station>
  <station code="NOV" name="NOV" netid="IV" insttype="" lat="38.0286" lon="15.1356">
    <comp name="--.HHE">
      <acc value="0.0080985396" flag="0"/>
      <vel value="0.0014882745" flag="0"/>
      <psa03 value="0.0094212086" flag="0"/>
      <psa10 value="0.0008936323" flag="0"/>
      <psa30 value="0.0000436984" flag="0"/>
    </comp>
    <comp name="--.HHN">
      <acc value="0.0056938299" flag="0"/>
      <vel value="0.0014191574" flag="0"/>
      <psa03 value="0.0060516140" flag="0"/>
      <psa10 value="0.0005926440" flag="0"/>
      <psa30 value="0.0000474610" flag="0"/>
    </comp>
