<stationlist created="1778138495">
	<station code="ABEA" name="ABEA" netid="HC" source="Seismological Network of Crete (HC)" insttype="" lat="35.5163" lon="24.0113">
		<comp name="--.HNE" depth="0.0">
			<acc value="0.0345624623170644" flag="0"/>
			<vel value="0.0392388463381698" flag="0"/>
			<psa03 value="0.063094726591048" flag="0"/>
			<psa10 value="0.0697935634812017" flag="0"/>
			<psa30 value="0.00891043360583435" flag="0"/>
		</comp>
		<comp name="--.HNN" depth="0.0">
			<acc value="0.031558081730148" flag="0"/>
			<vel value="0.0313786408784208" flag="0"/>
			<psa03 value="0.0637550776274662" flag="0"/>
			<psa10 value="0.0595113985881509" flag="0"/>
			<psa30 value="0.00730210372852025" flag="0"/>
		</comp>
		<comp name="--.HNZ" depth="0.0">
			<acc value="0.0172796432891193" flag="0"/>
			<vel value="0.0207723179842224" flag="0"/>
			<psa03 value="0.0363285029391945" flag="0"/>
			<psa10 value="0.0346608986144135" flag="0"/>
			<psa30 value="0.00551160219991203" flag="0"/>
		</comp>
	</station>
	<station code="ATEI" name="ATEI" netid="HC" source="Seismological Network of Crete (HC)" insttype="" lat="35.5193" lon="24.0432">
		<comp name="--.HNE" depth="0.0">
			<acc value="0.0222942401200047" flag="0"/>
			<vel value="0.0209513006932461" flag="0"/>
			<psa03 value="0.0398389021525851" flag="0"/>
			<psa10 value="0.0394692346431081" flag="0"/>
			<psa30 value="0.00504106977945895" flag="0"/>
		</comp>
		<comp name="--.HNN" depth="0.0">
			<acc value="0.0212179663711135" flag="0"/>
			<vel value="0.0247473736863588" flag="0"/>
			<psa03 value="0.0497006830515527" flag="0"/>
			<psa10 value="0.0375398930836943" flag="0"/>
			<psa30 value="0.00447989177083331" flag="0"/>
		</comp>
		<comp name="--.HNZ" depth="0.0">
			<acc value="0.0213107354957478" flag="0"/>
			<vel value="0.0126970793900931" flag="0"/>
			<psa03 value="0.0490284145583837" flag="0"/>
			<psa10 value="0.023627202686241" flag="0"/>
			<psa30 value="0.00496968671735356" flag="0"/>
		</comp>
	</station>
	<station code="DEYA" name="DEYA" netid="HC" source="Seismological Network of Crete (HC)" insttype="" lat="35.4825" lon="24.014">
		<comp name="--.HNE" depth="0.0">
			<acc value="0.0476310200591711" flag="0"/>
			<vel value="0.0456363526245425" flag="0"/>
			<psa03 value="0.120174117195503" flag="0"/>
			<psa10 value="0.0888792453138087" flag="0"/>
			<psa30 value="0.00815763123638794" flag="0"/>
		</comp>
		<comp name="--.HNN" depth="0.0">
			<acc value="0.0426179446303372" flag="0"/>
			<vel value="0.0408049555695093" flag="0"/>
			<psa03 value="0.102243627305007" flag="0"/>
			<psa10 value="0.101376558199622" flag="0"/>
			<psa30 value="0.00695325770251807" flag="0"/>
		</comp>
		<comp name="--.HNZ" depth="0.0">
			<acc value="0.0339896285374132" flag="0"/>
			<vel value="0.0302821627369069" flag="0"/>
			<psa03 value="0.0656181802157629" flag="0"/>
			<psa10 value="0.0492361491531042" flag="0"/>
			<psa30 value="0.00454642867859057" flag="0"/>
		</comp>
	</station>
	<station code="G0LD" name="G0LD" netid="HC" source="Seismological Network of Crete (HC)" insttype="" lat="35.4955" lon="24.0306">
		<comp name="--.HNE" depth="0.0">
			<acc value="0.0827591188723169" flag="0"/>
			<vel value="0.0830400306604391" flag="0"/>
			<psa03 value="0.246989049312228" flag="0"/>
			<psa10 value="0.238508570022142" flag="0"/>
			<psa30 value="0.0121113731523868" flag="0"/>
		</comp>
		<comp name="--.HNN" depth="0.0">
			<acc value="0.0772482711571226" flag="0"/>
			<vel value="0.0994714867244644" flag="0"/>
			<psa03 value="0.163492163886915" flag="0"/>
			<psa10 value="0.169019481710975" flag="0"/>
			<psa30 value="0.01623937244538" flag="0"/>
		</comp>
		<comp name="--.HNZ" depth="0.0">
			<acc value="0.0343740233887196" flag="0"/>
			<vel value="0.044747842769543" flag="0"/>
			<psa03 value="0.0737102318996526" flag="0"/>
			<psa10 value="0.108924000680564" flag="0"/>
			<psa30 value="0.0039905239359588" flag="0"/>
		</comp>
	</station>
	<station code="MULT" name="MULT" netid="HC" source="Seismological Network of Crete (HC)" insttype="" lat="35.5091" lon="24.0118">
		<comp name="--.HNE" depth="0.0">
			<acc value="0.0477288483081841" flag="0"/>
			<vel value="0.0280913023454336" flag="0"/>
			<psa03 value="0.0634737673254276" flag="0"/>
			<psa10 value="0.0372600682966551" flag="0"/>
			<psa30 value="0.00491314547179571" flag="0"/>
		</comp>
		<comp name="--.HNN" depth="0.0">
			<acc value="0.0341392336840537" flag="0"/>
			<vel value="0.0367079066931251" flag="0"/>
			<psa03 value="0.05986666378923" flag="0"/>
			<psa10 value="0.0509461236805672" flag="0"/>
			<psa30 value="0.00809182771053295" flag="0"/>
		</comp>
		<comp name="--.HNZ" depth="0.0">
			<acc value="0.0360503892249948" flag="0"/>
			<vel value="0.0241452203088006" flag="0"/>
			<psa03 value="0.0308100488270238" flag="0"/>
			<psa10 value="0.0318810832153065" flag="0"/>
			<psa30 value="0.00440242455568799" flag="0"/>
		</comp>
	</station>
	<station code="NERO" name="NERO" netid="HC" source="Seismological Network of Crete (HC)" insttype="" lat="35.474" lon="24.0423">
		<comp name="--.HNE" depth="0.0">
			<acc value="0.0282940415085" flag="0"/>
			<vel value="0.017439557378202" flag="0"/>
			<psa03 value="0.0649441668154616" flag="0"/>
			<psa10 value="0.0259139447966786" flag="0"/>
			<psa30 value="0.0037918657758319" flag="0"/>
		</comp>
		<comp name="--.HNN" depth="0.0">
			<acc value="0.0260917113964094" flag="0"/>
			<vel value="0.02078218449641" flag="0"/>
			<psa03 value="0.0659891995856843" flag="0"/>
			<psa10 value="0.0328752853263239" flag="0"/>
			<psa30 value="0.00365066558867872" flag="0"/>
		</comp>
		<comp name="--.HNZ" depth="0.0">
			<acc value="0.0172049878572939" flag="0"/>
			<vel value="0.0153097570584711" flag="0"/>
			<psa03 value="0.042923760155138" flag="0"/>
			<psa10 value="0.0261847821133021" flag="0"/>
			<psa30 value="0.00312630001870013" flag="0"/>
		</comp>
	</station>
	<station code="PASK" name="PASK" netid="HC" source="Seismological Network of Crete (HC)" insttype="" lat="35.4996" lon="24.0121">
		<comp name="--.HNE" depth="0.0">
			<acc value="0.0474126843977715" flag="0"/>
			<vel value="0.0476455103595261" flag="0"/>
			<psa03 value="0.0780115845514313" flag="0"/>
			<psa10 value="0.0540180459306142" flag="0"/>
			<psa30 value="0.00621791023936098" flag="0"/>
		</comp>
		<comp name="--.HNN" depth="0.0">
			<acc value="0.032651426502926" flag="0"/>
			<vel value="0.0307297526786349" flag="0"/>
			<psa03 value="0.0596744010527349" flag="0"/>
			<psa10 value="0.0531364712803683" flag="0"/>
			<psa30 value="0.00905165129412983" flag="0"/>
		</comp>
		<comp name="--.HNZ" depth="0.0">
			<acc value="0.0237865382580543" flag="0"/>
			<vel value="0.0218562882686494" flag="0"/>
			<psa03 value="0.0626329147480034" flag="0"/>
			<psa10 value="0.0299963002326785" flag="0"/>
			<psa30 value="0.00388313140506526" flag="0"/>
		</comp>
	</station>
	<station code="POLY" name="POLY" netid="HC" source="Seismological Network of Crete (HC)" insttype="" lat="35.5226" lon="24.0602">
		<comp name="--.HNE" depth="0.0">
			<acc value="0.0195890382392146" flag="0"/>
			<vel value="0.0197304510850782" flag="0"/>
			<psa03 value="0.0444228230023562" flag="0"/>
			<psa10 value="0.0305567129822575" flag="0"/>
			<psa30 value="0.00424634546621469" flag="0"/>
		</comp>
		<comp name="--.HNN" depth="0.0">
			<acc value="0.0238258498271534" flag="0"/>
			<vel value="0.0290974260433572" flag="0"/>
			<psa03 value="0.064489699209215" flag="0"/>
			<psa10 value="0.0438627819442068" flag="0"/>
			<psa30 value="0.00537517399557526" flag="0"/>
		</comp>
		<comp name="--.HNZ" depth="0.0">
			<acc value="0.0145661149882333" flag="0"/>
			<vel value="0.0120874254264074" flag="0"/>
			<psa03 value="0.0424512002045007" flag="0"/>
			<psa10 value="0.016836382202691" flag="0"/>
			<psa30 value="0.00483541240566215" flag="0"/>
		</comp>
	</station>
	<station code="SOUD" name="SOUD" netid="HC" source="Seismological Network of Crete (HC)" insttype="" lat="35.4878" lon="24.0678">
		<comp name="--.HNE" depth="0.0">
			<acc value="0.0447139109221972" flag="0"/>
			<vel value="0.0472798135748148" flag="0"/>
			<psa03 value="0.114377379023434" flag="0"/>
			<psa10 value="0.0768067155678684" flag="0"/>
			<psa30 value="0.00647057156028903" flag="0"/>
		</comp>
		<comp name="--.HNN" depth="0.0">
			<acc value="0.0506553472018112" flag="0"/>
			<vel value="0.0400539812029474" flag="0"/>
			<psa03 value="0.0915552109166217" flag="0"/>
			<psa10 value="0.0555640070929091" flag="0"/>
			<psa30 value="0.0059932753584045" flag="0"/>
		</comp>
		<comp name="--.HNZ" depth="0.0">
			<acc value="0.00588835620419927" flag="0"/>
			<vel value="0.00396651147728863" flag="0"/>
			<psa03 value="0.00668581204284975" flag="0"/>
			<psa10 value="0.00385916127549402" flag="0"/>
			<psa30 value="0.00177461964317743" flag="0"/>
		</comp>
	</station>
	<station code="CH01" name="CH01" netid="HI" source="ITSAK Strong Motion Network" insttype="" lat="35.517" lon="24.0208">
		<comp name="--.HNE" depth="0.0">
			<acc value="0.0342151122256073" flag="0"/>
			<vel value="0.0291748694131158" flag="0"/>
			<psa03 value="0.083043996048951" flag="0"/>
			<psa10 value="0.037492178672836" flag="0"/>
			<psa30 value="0.00914400741229724" flag="0"/>
		</comp>
		<comp name="--.HNN" depth="0.0">
			<acc value="0.0252353124565611" flag="0"/>
			<vel value="0.0254692512788674" flag="0"/>
			<psa03 value="0.0770052262184434" flag="0"/>
			<psa10 value="0.0365057808288219" flag="0"/>
			<psa30 value="0.00627436147899043" flag="0"/>
		</comp>
		<comp name="--.HNZ" depth="0.0">
			<acc value="0.0167052393173786" flag="0"/>
			<vel value="0.0199039392997689" flag="0"/>
			<psa03 value="0.0255290713840439" flag="0"/>
			<psa10 value="0.04532189860332" flag="0"/>
			<psa30 value="0.00450410420811257" flag="0"/>
		</comp>
	</station>
	<station code="KSS1" name="KSS1" netid="HI" source="ITSAK Strong Motion Network" insttype="" lat="35.4189" lon="26.9207">
		<comp name="--.HNE" depth="0.0">
			<acc value="0.0112310409628528" flag="0"/>
			<vel value="0.00617216716405259" flag="0"/>
			<psa03 value="0.0346880192652038" flag="0"/>
			<psa10 value="0.00324869981979627" flag="0"/>
			<psa30 value="0.00109239361571707" flag="0"/>
		</comp>
		<comp name="--.HNN" depth="0.0">
			<acc value="0.00988400615581037" flag="0"/>
			<vel value="0.00624291132457363" flag="0"/>
			<psa03 value="0.0276691454451112" flag="0"/>
			<psa10 value="0.00521361365757582" flag="0"/>
			<psa30 value="0.00183016936473906" flag="0"/>
		</comp>
		<comp name="--.HNZ" depth="0.0">
			<acc value="0.00594203706489942" flag="0"/>
			<vel value="0.00462681639458763" flag="0"/>
			<psa03 value="0.00685590078438184" flag="0"/>
			<psa10 value="0.0044647002957531" flag="0"/>
			<psa30 value="0.00143485953156853" flag="0"/>
		</comp>
	</station>
	<station code="SIT2" name="SIT2" netid="HI" source="ITSAK Strong Motion Network" insttype="" lat="35.2059" lon="26.107">
		<comp name="--.HNE" depth="0.0">
			<acc value="0.0978925101968363" flag="0"/>
			<vel value="0.0835465388623911" flag="0"/>
			<psa03 value="0.230378719793067" flag="0"/>
			<psa10 value="0.0647521495122066" flag="0"/>
			<psa30 value="0.00441287691477141" flag="0"/>
		</comp>
		<comp name="--.HNN" depth="0.0">
			<acc value="0.0889874686369086" flag="0"/>
			<vel value="0.0696554577582813" flag="0"/>
			<psa03 value="0.233649478131453" flag="0"/>
			<psa10 value="0.0475007216895651" flag="0"/>
			<psa30 value="0.00426300656992951" flag="0"/>
		</comp>
		<comp name="--.HNZ" depth="0.0">
			<acc value="0.0615747866452873" flag="0"/>
			<vel value="0.0237037789975136" flag="0"/>
			<psa03 value="0.131761384795168" flag="0"/>
			<psa10 value="0.0145131332988679" flag="0"/>
			<psa30 value="0.00180971550977046" flag="0"/>
		</comp>
	</station>
	<station code="AGNA" name="AGNA" netid="HL" source="National Observatory of Athens Seismic Network" insttype="" lat="35.1895" lon="25.71853">
		<comp name="00.HNE" depth="0.0">
			<acc value="0.106190411848138" flag="0"/>
			<vel value="0.0435938728405949" flag="0"/>
			<psa03 value="0.171572053306623" flag="0"/>
			<psa10 value="0.0481014964880956" flag="0"/>
			<psa30 value="0.00520817209919003" flag="0"/>
		</comp>
		<comp name="00.HNN" depth="0.0">
			<acc value="0.0896296780438201" flag="0"/>
			<vel value="0.0524104271940087" flag="0"/>
			<psa03 value="0.210215404905488" flag="0"/>
			<psa10 value="0.0573555532740114" flag="0"/>
			<psa30 value="0.00678678625796731" flag="0"/>
		</comp>
		<comp name="00.HNZ" depth="0.0">
			<acc value="0.0717590639831005" flag="0"/>
			<vel value="0.0411145498933322" flag="0"/>
			<psa03 value="0.15589878586287" flag="0"/>
			<psa10 value="0.0387700833277664" flag="0"/>
			<psa30 value="0.00252860896626541" flag="0"/>
		</comp>
	</station>
	<station code="ANKY" name="ANKY" netid="HL" source="National Observatory of Athens Seismic Network" insttype="" lat="35.86704" lon="23.30117">
		<comp name="00.HNE" depth="0.0">
			<acc value="0.00604945352808481" flag="0"/>
			<vel value="0.00785500697529431" flag="0"/>
			<psa03 value="0.0177463722246647" flag="0"/>
			<psa10 value="0.0148474960737355" flag="0"/>
			<psa30 value="0.00306533598013022" flag="0"/>
		</comp>
		<comp name="00.HNN" depth="0.0">
			<acc value="0.00541263854275771" flag="0"/>
			<vel value="0.00648323754508452" flag="0"/>
			<psa03 value="0.0183238610012679" flag="0"/>
			<psa10 value="0.0130736126251791" flag="0"/>
			<psa30 value="0.00200176927405807" flag="0"/>
		</comp>
		<comp name="00.HNZ" depth="0.0">
			<acc value="0.00351269067854138" flag="0"/>
			<vel value="0.00343148353470462" flag="0"/>
			<psa03 value="0.00936060577125446" flag="0"/>
			<psa10 value="0.00396395587387409" flag="0"/>
			<psa30 value="0.00151050141747399" flag="0"/>
		</comp>
	</station>
	<station code="CHNB" name="CHNB" netid="HL" source="National Observatory of Athens Seismic Network" insttype="" lat="35.48765" lon="24.06605">
		<comp name="00.HNE" depth="0.0">
			<acc value="0.0676965064114789" flag="0"/>
			<vel value="0.062234641079664" flag="0"/>
			<psa03 value="0.155014883558384" flag="0"/>
			<psa10 value="0.111937820331392" flag="0"/>
			<psa30 value="0.00644272388216649" flag="0"/>
		</comp>
		<comp name="00.HNN" depth="0.0">
			<acc value="0.0749659897301736" flag="0"/>
			<vel value="0.0658217730951767" flag="0"/>
			<psa03 value="0.13836472848434" flag="0"/>
			<psa10 value="0.0989323187807394" flag="0"/>
			<psa30 value="0.00609028636823271" flag="0"/>
		</comp>
		<comp name="00.HNZ" depth="0.0">
			<acc value="0.0262736448134304" flag="0"/>
			<vel value="0.0231297321006512" flag="0"/>
			<psa03 value="0.0870111078089841" flag="0"/>
			<psa10 value="0.0334052554342251" flag="0"/>
			<psa30 value="0.0030369182642643" flag="0"/>
		</comp>
	</station>
	<station code="HERG" name="HERG" netid="HL" source="National Observatory of Athens Seismic Network" insttype="" lat="35.32622" lon="25.06586">
		<comp name="00.HNE" depth="0.0">
			<acc value="0.321789475645059" flag="0"/>
			<vel value="0.249050713922522" flag="0"/>
			<psa03 value="0.692796061003528" flag="0"/>
			<psa10 value="0.280599588345417" flag="0"/>
			<psa30 value="0.0330682439422243" flag="0"/>
		</comp>
		<comp name="00.HNN" depth="0.0">
			<acc value="0.379963052412546" flag="0"/>
			<vel value="0.255389179458312" flag="0"/>
			<psa03 value="0.737052326099569" flag="0"/>
			<psa10 value="0.349377314532509" flag="0"/>
			<psa30 value="0.0333978857793749" flag="0"/>
		</comp>
		<comp name="00.HNZ" depth="0.0">
			<acc value="0.256986812750278" flag="0"/>
			<vel value="0.124557268645187" flag="0"/>
			<psa03 value="0.396451971330733" flag="0"/>
			<psa10 value="0.142826936583771" flag="0"/>
			<psa30 value="0.0181590379471247" flag="0"/>
		</comp>
	</station>
	<station code="IACM" name="IACM" netid="HL" source="National Observatory of Athens Seismic Network" insttype="" lat="35.3058" lon="25.0709">
		<comp name="--.HNE" depth="0.0">
			<acc value="0.705355716407952" flag="0"/>
			<vel value="0.43450807722534" flag="0"/>
			<psa03 value="2.09260695827288" flag="0"/>
			<psa10 value="0.509680303818295" flag="0"/>
			<psa30 value="0.0435214697504612" flag="0"/>
		</comp>
		<comp name="--.HNN" depth="0.0">
			<acc value="0.706333450118006" flag="0"/>
			<vel value="0.394663583978499" flag="0"/>
			<psa03 value="2.65516189144386" flag="0"/>
			<psa10 value="0.380012133938727" flag="0"/>
			<psa30 value="0.0310661946496164" flag="0"/>
		</comp>
		<comp name="--.HNZ" depth="0.0">
			<acc value="0.536872376920318" flag="0"/>
			<vel value="0.198828032887146" flag="0"/>
			<psa03 value="0.827067455825205" flag="0"/>
			<psa10 value="0.198508705227541" flag="0"/>
			<psa30 value="0.0199167027171467" flag="0"/>
		</comp>
	</station>
	<station code="IMMV" name="IMMV" netid="HL" source="National Observatory of Athens Seismic Network" insttype="" lat="35.4606" lon="23.9811">
		<comp name="--.HNE" depth="0.0">
			<acc value="0.0285572182086078" flag="0"/>
			<vel value="0.0223483236917822" flag="0"/>
			<psa03 value="0.0838147762758482" flag="0"/>
			<psa10 value="0.0370902983002271" flag="0"/>
			<psa30 value="0.00248097414402991" flag="0"/>
		</comp>
		<comp name="--.HNN" depth="0.0">
			<acc value="0.0285621720637907" flag="0"/>
			<vel value="0.0270602962008559" flag="0"/>
			<psa03 value="0.122213710641905" flag="0"/>
			<psa10 value="0.0475787381080931" flag="0"/>
			<psa30 value="0.00258133662588224" flag="0"/>
		</comp>
		<comp name="--.HNZ" depth="0.0">
			<acc value="0.0260363071834073" flag="0"/>
			<vel value="0.0176419916950238" flag="0"/>
			<psa03 value="0.0732411018633534" flag="0"/>
			<psa10 value="0.0220725353221505" flag="0"/>
			<psa30 value="0.00227604306834789" flag="0"/>
		</comp>
	</station>
	<station code="KARP" name="KARP" netid="HL" source="National Observatory of Athens Seismic Network" insttype="" lat="35.5471" lon="27.16106">
		<comp name="--.HNE" depth="0.0">
			<acc value="0.0282914574634638" flag="0"/>
			<vel value="0.0051441035196004" flag="0"/>
			<psa03 value="0.0162687404846228" flag="0"/>
			<psa10 value="0.00841092780769351" flag="0"/>
			<psa30 value="0.00106532651015356" flag="0"/>
		</comp>
		<comp name="--.HNN" depth="0.0">
			<acc value="0.0268333039725398" flag="0"/>
			<vel value="0.00590431771124563" flag="0"/>
			<psa03 value="0.0164844136260664" flag="0"/>
			<psa10 value="0.00670688757964297" flag="0"/>
			<psa30 value="0.000910704600543074" flag="0"/>
		</comp>
		<comp name="--.HNZ" depth="0.0">
			<acc value="0.00959683031596751" flag="0"/>
			<vel value="0.00410162752314153" flag="0"/>
			<psa03 value="0.0191981324591579" flag="0"/>
			<psa10 value="0.00347033833038296" flag="0"/>
			<psa30 value="0.00124874001456425" flag="0"/>
		</comp>
	</station>
	<station code="SIVA" name="SIVA" netid="HL" source="National Observatory of Athens Seismic Network" insttype="" lat="35.01777" lon="24.81204">
		<comp name="00.HNE" depth="0.0">
			<acc value="0.336521164703215" flag="0"/>
			<vel value="0.138738045205839" flag="0"/>
			<psa03 value="0.606382711545628" flag="0"/>
			<psa10 value="0.133749295234381" flag="0"/>
			<psa30 value="0.00886992425562822" flag="0"/>
		</comp>
		<comp name="00.HNN" depth="0.0">
			<acc value="0.328648468379871" flag="0"/>
			<vel value="0.250685833287534" flag="0"/>
			<psa03 value="0.701897330586552" flag="0"/>
			<psa10 value="0.225100081775509" flag="0"/>
			<psa30 value="0.0136427279304173" flag="0"/>
		</comp>
		<comp name="00.HNZ" depth="0.0">
			<acc value="0.192543553379771" flag="0"/>
			<vel value="0.0853715588712607" flag="0"/>
			<psa03 value="0.383570451326421" flag="0"/>
			<psa10 value="0.0720792648973943" flag="0"/>
			<psa30 value="0.00686896795208628" flag="0"/>
		</comp>
	</station>
	<station code="THRA" name="THRA" netid="HL" source="National Observatory of Athens Seismic Network" insttype="" lat="36.41502" lon="25.43244">
		<comp name="00.HNE" depth="0.0">
