<?xml version="1.0" encoding="UTF-8" standalone="yes"?>
<!DOCTYPE earthquake SYSTEM "stationlist.dtd">
<stationlist created="" xmlns="ch.ethz.sed.shakemap.usgs.xml">
  <station code="GVD" name="GVD" netid="GE" insttype="STS-2/N" lat="34.8391" lon="24.0874">
    <comp name="--.HHE">
      <acc value="0.0266172293" flag="0"/>
      <vel value="0.0155918711" flag="0"/>
      <psa03 value="0.0918421972" flag="0"/>
      <psa10 value="0.0211408249" flag="0"/>
      <psa30 value="0.0013508694" flag="0"/>
    </comp>
    <comp name="--.HHN">
      <acc value="0.0296341937" flag="0"/>
      <vel value="0.0170178329" flag="0"/>
      <psa03 value="0.1213991460" flag="0"/>
      <psa10 value="0.0179943684" flag="0"/>
      <psa30 value="0.0023355515" flag="0"/>
    </comp>
    <comp name="--.HHZ">
      <acc value="0.0152599102" flag="0"/>
      <vel value="0.0063778164" flag="0"/>
      <psa03 value="0.0339179131" flag="0"/>
      <psa10 value="0.0071788178" flag="0"/>
      <psa30 value="0.0008768329" flag="0"/>
    </comp>
  </station>
  <station code="IMMV" name="IMMV" netid="GE" insttype="STS-2/N" lat="35.4606" lon="23.9811">
    <comp name="--.HHE">
      <acc value="0.0306683817" flag="0"/>
      <vel value="0.0236084111" flag="0"/>
      <psa03 value="0.0904058220" flag="0"/>
      <psa10 value="0.0385289186" flag="0"/>
      <psa30 value="0.0024383030" flag="0"/>
    </comp>
    <comp name="--.HHN">
      <acc value="0.0303360969" flag="0"/>
      <vel value="0.0277866921" flag="0"/>
      <psa03 value="0.1272530757" flag="0"/>
      <psa10 value="0.0486688716" flag="0"/>
      <psa30 value="0.0027239638" flag="0"/>
    </comp>
    <comp name="--.HHZ">
      <acc value="0.0270708993" flag="0"/>
      <vel value="0.0171432825" flag="0"/>
      <psa03 value="0.0751522516" flag="0"/>
      <psa10 value="0.0224189707" flag="0"/>
      <psa30 value="0.0020591882" flag="0"/>
    </comp>
  </station>
  <station code="ZKR" name="ZKR" netid="GE" insttype="STS-2/N" lat="35.1147" lon="26.2169">
    <comp name="--.HHE">
      <acc value="0.0286535583" flag="0"/>
      <vel value="0.0152439593" flag="0"/>
      <psa03 value="0.0715236017" flag="0"/>
      <psa10 value="0.0176486660" flag="0"/>
      <psa30 value="0.0036587996" flag="0"/>
    </comp>
    <comp name="--.HHZ">
      <acc value="0.0182060379" flag="0"/>
      <vel value="0.0100438984" flag="0"/>
      <psa03 value="0.0347190596" flag="0"/>
      <psa10 value="0.0094307065" flag="0"/>
      <psa30 value="0.0022959666" flag="0"/>
    </comp>
    <comp name="--.HHN">
      <acc value="0.0144319908" flag="0"/>
      <vel value="0.0068644592" flag="0"/>
      <psa03 value="0.0441723106" flag="0"/>
      <psa10 value="0.0056098370" flag="0"/>
      <psa30 value="0.0022316718" flag="0"/>
    </comp>
  </station>
  <station code="CHAN" name="CHAN" netid="HC" insttype="120" lat="35.5193" lon="24.0428">
    <comp name="--.HHZ">
      <acc value="0.0405376482" flag="0"/>
      <vel value="0.0222475177" flag="0"/>
      <psa03 value="0.0930349216" flag="0"/>
      <psa10 value="0.0441278927" flag="0"/>
      <psa30 value="0.0076328625" flag="0"/>
    </comp>
    <comp name="--.HHN">
      <acc value="0.0360610446" flag="0"/>
      <vel value="0.0457358095" flag="0"/>
      <psa03 value="0.0922477962" flag="0"/>
      <psa10 value="0.0671210946" flag="0"/>
      <psa30 value="0.0083642406" flag="0"/>
    </comp>
    <comp name="--.HHE">
      <acc value="0.0396851574" flag="0"/>
      <vel value="0.0495509394" flag="0"/>
      <psa03 value="0.0740143359" flag="0"/>
      <psa10 value="0.0829393354" flag="0"/>
      <psa30 value="0.0089938614" flag="0"/>
    </comp>
  </station>
  <station code="GVDS" name="GVDS" netid="HC" insttype="60" lat="34.8389" lon="24.0585">
    <comp name="--.HHE">
      <acc value="0.0195503796" flag="0"/>
      <vel value="0.0118290768" flag="0"/>
      <psa03 value="0.0628569493" flag="0"/>
      <psa10 value="0.0129686268" flag="0"/>
      <psa30 value="0.0013158597" flag="0"/>
    </comp>
    <comp name="--.HHN">
      <acc value="0.0192925591" flag="0"/>
      <vel value="0.0110693114" flag="0"/>
      <psa03 value="0.0465260462" flag="0"/>
      <psa10 value="0.0145207209" flag="0"/>
      <psa30 value="0.0023938967" flag="0"/>
    </comp>
    <comp name="--.HHZ">
      <acc value="0.0115381905" flag="0"/>
      <vel value="0.0069248236" flag="0"/>
      <psa03 value="0.0212075488" flag="0"/>
      <psa10 value="0.0078970674" flag="0"/>
      <psa30 value="0.0012194175" flag="0"/>
    </comp>
  </station>
  <station code="IMOD" name="IMOD" netid="HC" insttype="120" lat="34.9731" lon="24.7995">
    <comp name="--.HHE">
      <acc value="0.1923608868" flag="0"/>
      <vel value="0.0961425377" flag="0"/>
      <psa03 value="0.5980729820" flag="0"/>
      <psa10 value="0.0784700221" flag="0"/>
      <psa30 value="0.0060575366" flag="0"/>
    </comp>
    <comp name="--.HHN">
      <acc value="0.3023180143" flag="0"/>
      <vel value="0.2486536440" flag="0"/>
      <psa03 value="0.5972906852" flag="0"/>
      <psa10 value="0.1801402787" flag="0"/>
      <psa30 value="0.0137589973" flag="0"/>
    </comp>
    <comp name="--.HHZ">
      <acc value="0.0955217479" flag="0"/>
      <vel value="0.0539537408" flag="0"/>
      <psa03 value="0.1672499996" flag="0"/>
      <psa10 value="0.0614858236" flag="0"/>
      <psa30 value="0.0040320331" flag="0"/>
    </comp>
  </station>
  <station code="KNSS" name="KNSS" netid="HC" insttype="60" lat="35.3042" lon="25.1802">
    <comp name="--.HHN">
      <acc value="0.0000000000" flag="0"/>
      <vel value="-100.0000000000" flag="0"/>
      <psa03 value="0.0000000000" flag="0"/>
      <psa10 value="0.0000000000" flag="0"/>
      <psa30 value="0.0000000000" flag="0"/>
    </comp>
    <comp name="--.HHE">
      <acc value="0.7441176120" flag="0"/>
      <vel value="0.2051387283" flag="0"/>
      <psa03 value="1.4868677226" flag="0"/>
      <psa10 value="0.1029105343" flag="0"/>
      <psa30 value="0.0222270503" flag="0"/>
    </comp>
    <comp name="--.HHZ">
      <acc value="0.6612944850" flag="0"/>
      <vel value="0.1402542603" flag="0"/>
      <psa03 value="0.8957991078" flag="0"/>
      <psa10 value="0.0549069027" flag="0"/>
      <psa30 value="0.0166663672" flag="0"/>
    </comp>
  </station>
  <station code="PFKS" name="PFKS" netid="HC" insttype="120" lat="35.0429" lon="25.4733">
    <comp name="--.HHN">
      <acc value="0.7203983413" flag="0"/>
      <vel value="0.2083630708" flag="0"/>
      <psa03 value="1.4328598470" flag="0"/>
      <psa10 value="0.0861634027" flag="0"/>
      <psa30 value="0.0069913370" flag="0"/>
    </comp>
    <comp name="--.HHE">
      <acc value="0.6115548965" flag="0"/>
      <vel value="0.2190393208" flag="0"/>
      <psa03 value="1.6708705750" flag="0"/>
      <psa10 value="0.0930291615" flag="0"/>
      <psa30 value="0.0079527011" flag="0"/>
    </comp>
    <comp name="--.HHZ">
      <acc value="0.5107912947" flag="0"/>
      <vel value="0.1392923353" flag="0"/>
      <psa03 value="0.4204617724" flag="0"/>
      <psa10 value="0.0592700624" flag="0"/>
      <psa30 value="0.0112305568" flag="0"/>
    </comp>
  </station>
  <station code="STIA" name="STIA" netid="HC" insttype="120" lat="35.2021" lon="26.0909">
    <comp name="--.HHN">
      <acc value="0.0492471211" flag="0"/>
      <vel value="0.0194565995" flag="0"/>
      <psa03 value="0.0867800284" flag="0"/>
      <psa10 value="0.0233600899" flag="0"/>
      <psa30 value="0.0024870727" flag="0"/>
    </comp>
    <comp name="--.HHE">
      <acc value="0.0523467493" flag="0"/>
      <vel value="0.0251055374" flag="0"/>
      <psa03 value="0.1032940573" flag="0"/>
      <psa10 value="0.0400020630" flag="0"/>
      <psa30 value="0.0023494147" flag="0"/>
    </comp>
    <comp name="--.HHZ">
      <acc value="0.0425937060" flag="0"/>
      <vel value="0.0233221603" flag="0"/>
      <psa03 value="0.0750724342" flag="0"/>
      <psa10 value="0.0213368196" flag="0"/>
      <psa30 value="0.0018925904" flag="0"/>
    </comp>
  </station>
  <station code="SIT2" name="SIT2" netid="HI" insttype="CMG-5TD,ACCELEROMETER,GURALP" lat="35.2059" lon="26.107">
    <comp name="--.HNE">
      <acc value="0.0976550859" flag="0"/>
      <vel value="0.0824690592" flag="0"/>
      <psa03 value="0.2277519129" flag="0"/>
      <psa10 value="0.0644252893" flag="0"/>
      <psa30 value="0.0040407247" flag="0"/>
    </comp>
    <comp name="--.HNZ">
      <acc value="0.0611427433" flag="0"/>
      <vel value="0.0239103693" flag="0"/>
      <psa03 value="0.1330287921" flag="0"/>
      <psa10 value="0.0145126118" flag="0"/>
      <psa30 value="0.0016909314" flag="0"/>
    </comp>
    <comp name="--.HNN">
      <acc value="0.0886303946" flag="0"/>
      <vel value="0.0692652443" flag="0"/>
      <psa03 value="0.2377363041" flag="0"/>
      <psa10 value="0.0473889588" flag="0"/>
      <psa30 value="0.0039949921" flag="0"/>
    </comp>
  </station>
  <station code="GVD" name="GVD" netid="HL" insttype="120" lat="34.8391" lon="24.0874">
    <comp name="--.HHN">
      <acc value="0.0287194587" flag="0"/>
      <vel value="0.0167114507" flag="0"/>
      <psa03 value="0.1180079932" flag="0"/>
      <psa10 value="0.0179285880" flag="0"/>
      <psa30 value="0.0023333705" flag="0"/>
    </comp>
    <comp name="--.HHE">
      <acc value="0.0257645553" flag="0"/>
      <vel value="0.0153592617" flag="0"/>
      <psa03 value="0.0892677666" flag="0"/>
      <psa10 value="0.0209926490" flag="0"/>
      <psa30 value="0.0013464020" flag="0"/>
    </comp>
    <comp name="--.HHZ">
      <acc value="0.0147748226" flag="0"/>
      <vel value="0.0062715505" flag="0"/>
      <psa03 value="0.0330293109" flag="0"/>
      <psa10 value="0.0071107459" flag="0"/>
      <psa30 value="0.0008764830" flag="0"/>
    </comp>
  </station>
  <station code="IACM" name="IACM" netid="HL" insttype="120" lat="35.3058" lon="25.0709">
    <comp name="--.HHN">
      <acc value="0.7093748217" flag="0"/>
      <vel value="0.3789336146" flag="0"/>
      <psa03 value="2.6244946484" flag="0"/>
      <psa10 value="0.3642302383" flag="0"/>
      <psa30 value="0.0304661037" flag="0"/>
    </comp>
    <comp name="--.HHZ">
      <acc value="0.5111447410" flag="0"/>
      <vel value="0.1972880233" flag="0"/>
      <psa03 value="0.8860449926" flag="0"/>
      <psa10 value="0.2030739832" flag="0"/>
      <psa30 value="0.0186508913" flag="0"/>
    </comp>
    <comp name="--.HHE">
      <acc value="0.7019309933" flag="0"/>
      <vel value="0.4286473925" flag="0"/>
      <psa03 value="2.1283172125" flag="0"/>
      <psa10 value="0.5322866630" flag="0"/>
      <psa30 value="0.0411973999" flag="0"/>
    </comp>
  </station>
  <station code="IDI" name="IDI" netid="HL" insttype="120" lat="35.288" lon="24.89">
    <comp name="--.HHN">
      <acc value="0.1147774653" flag="0"/>
      <vel value="0.0304904588" flag="0"/>
      <psa03 value="0.1486430039" flag="0"/>
      <psa10 value="0.0339593298" flag="0"/>
      <psa30 value="0.0039824148" flag="0"/>
    </comp>
    <comp name="--.HHE">
      <acc value="0.1169876512" flag="0"/>
      <vel value="0.0299223983" flag="0"/>
      <psa03 value="0.1324980359" flag="0"/>
      <psa10 value="0.0245445088" flag="0"/>
      <psa30 value="0.0059449287" flag="0"/>
    </comp>
    <comp name="--.HHZ">
      <acc value="0.0985107826" flag="0"/>
      <vel value="0.0276224004" flag="0"/>
      <psa03 value="0.1012449964" flag="0"/>
      <psa10 value="0.0349735406" flag="0"/>
      <psa30 value="0.0084010176" flag="0"/>
    </comp>
  </station>
  <station code="IMMV" name="IMMV" netid="HL" insttype="120" lat="35.4606" lon="23.9811">
    <comp name="--.HHE">
      <acc value="0.0297568884" flag="0"/>
      <vel value="0.0233411932" flag="0"/>
      <psa03 value="0.0877718919" flag="0"/>
      <psa10 value="0.0382303211" flag="0"/>
      <psa30 value="0.0024365366" flag="0"/>
    </comp>
    <comp name="--.HHN">
      <acc value="0.0294025539" flag="0"/>
      <vel value="0.0275850910" flag="0"/>
      <psa03 value="0.1237121737" flag="0"/>
      <psa10 value="0.0484214393" flag="0"/>
      <psa30 value="0.0027158307" flag="0"/>
    </comp>
    <comp name="--.HHZ">
      <acc value="0.0264691392" flag="0"/>
      <vel value="0.0168073825" flag="0"/>
      <psa03 value="0.0730159279" flag="0"/>
      <psa10 value="0.0222830298" flag="0"/>
      <psa30 value="0.0020557039" flag="0"/>
    </comp>
  </station>
  <station code="NPS" name="NPS" netid="HL" insttype="CMG3ESPC-120s" lat="35.2613" lon="25.6104">
    <comp name="--.HHN">
      <acc value="0.2215213834" flag="0"/>
      <vel value="0.0652987209" flag="0"/>
      <psa03 value="0.1886285113" flag="0"/>
      <psa10 value="0.0727961664" flag="0"/>
      <psa30 value="0.0049011893" flag="0"/>
    </comp>
    <comp name="--.HHZ">
      <acc value="0.1414850032" flag="0"/>
      <vel value="0.0409944852" flag="0"/>
      <psa03 value="0.1663843697" flag="0"/>
      <psa10 value="0.0474598833" flag="0"/>
      <psa30 value="0.0039635238" flag="0"/>
    </comp>
    <comp name="--.HHE">
      <acc value="0.0802292375" flag="0"/>
      <vel value="0.0236047730" flag="0"/>
      <psa03 value="0.1098392092" flag="0"/>
      <psa10 value="0.0241160325" flag="0"/>
      <psa30 value="0.0017598531" flag="0"/>
    </comp>
  </station>
  <station code="SIVA" name="SIVA" netid="HL" insttype="60" lat="35.0178" lon="24.812">
    <comp name="--.HHE">
      <acc value="0.3592161046" flag="0"/>
      <vel value="0.1449212598" flag="0"/>
      <psa03 value="0.6333064278" flag="0"/>
      <psa10 value="0.1404272269" flag="0"/>
      <psa30 value="0.0085735690" flag="0"/>
    </comp>
    <comp name="--.HHN">
      <acc value="0.3191287266" flag="0"/>
      <vel value="0.2223869547" flag="0"/>
      <psa03 value="0.6557456010" flag="0"/>
      <psa10 value="0.1903242182" flag="0"/>
      <psa30 value="0.0109339893" flag="0"/>
    </comp>
    <comp name="--.HHZ">
      <acc value="0.1951892096" flag="0"/>
      <vel value="0.0878089765" flag="0"/>
      <psa03 value="0.3857211402" flag="0"/>
      <psa10 value="0.0730986888" flag="0"/>
      <psa30 value="0.0057889219" flag="0"/>
    </comp>
  </station>
  <station code="VAM" name="VAM" netid="HL" insttype="CMG3ESPC-120s" lat="35.407" lon="24.1997">
    <comp name="--.HHN">
      <acc value="0.0655179425" flag="0"/>
      <vel value="0.0337120494" flag="0"/>
      <psa03 value="0.1385777974" flag="0"/>
      <psa10 value="0.0313366867" flag="0"/>
      <psa30 value="0.0026371855" flag="0"/>
    </comp>
    <comp name="--.HHE">
      <acc value="0.0414658803" flag="0"/>
      <vel value="0.0196072239" flag="0"/>
      <psa03 value="0.1111507510" flag="0"/>
      <psa10 value="0.0245167337" flag="0"/>
      <psa30 value="0.0028571328" flag="0"/>
    </comp>
    <comp name="--.HHZ">
      <acc value="0.0346034503" flag="0"/>
      <vel value="0.0183873447" flag="0"/>
      <psa03 value="0.0444224758" flag="0"/>
      <psa10 value="0.0122376459" flag="0"/>
      <psa30 value="0.0024998893" flag="0"/>
    </comp>
  </station>
  <station code="ZKR" name="ZKR" netid="HL" insttype="120" lat="35.1147" lon="26.2169">
    <comp name="--.HHN">
      <acc value="0.0141005585" flag="0"/>
      <vel value="0.0067275079" flag="0"/>
      <psa03 value="0.0429718538" flag="0"/>
      <psa10 value="0.0055551682" flag="0"/>
      <psa30 value="0.0022304901" flag="0"/>
    </comp>
    <comp name="--.HHE">
      <acc value="0.0279994799" flag="0"/>
      <vel value="0.0150171949" flag="0"/>
      <psa03 value="0.0695594447" flag="0"/>
      <psa10 value="0.0174960565" flag="0"/>
      <psa30 value="0.0036559492" flag="0"/>
    </comp>
    <comp name="--.HHZ">
      <acc value="0.0177884380" flag="0"/>
      <vel value="0.0099196794" flag="0"/>
      <psa03 value="0.0338548488" flag="0"/>
      <psa10 value="0.0093652621" flag="0"/>
      <psa30 value="0.0022951421" flag="0"/>
    </comp>
  </station>
  <station code="IDI" name="IDI" netid="MN" insttype="" lat="35.288" lon="24.89">
    <comp name="--.HHE">
      <acc value="0.1264324847" flag="0"/>
      <vel value="0.0300225134" flag="0"/>
      <psa03 value="0.1336972302" flag="0"/>
      <psa10 value="0.0243921113" flag="0"/>
      <psa30 value="0.0058898228" flag="0"/>
    </comp>
    <comp name="--.HHN">
      <acc value="0.1317541149" flag="0"/>
      <vel value="0.0311013461" flag="0"/>
      <psa03 value="0.1506825985" flag="0"/>
      <psa10 value="0.0337172416" flag="0"/>
      <psa30 value="0.0039536452" flag="0"/>
    </comp>
    <comp name="--.HHZ">
      <acc value="0.1042951169" flag="0"/>
      <vel value="0.0279236082" flag="0"/>
      <psa03 value="0.1033434713" flag="0"/>
      <psa10 value="0.0346838758" flag="0"/>
      <psa30 value="0.0082999679" flag="0"/>
    </comp>
  </station>
</stationlist>
