<?xml version="1.0" encoding="UTF-8" standalone="yes"?>
<!DOCTYPE earthquake SYSTEM "stationlist.dtd">
<stationlist created="" xmlns="ch.ethz.sed.shakemap.usgs.xml">
  <station code="APE" name="APE" netid="GE" insttype="STS-2/N" lat="37.0727" lon="25.523">
    <comp name="--.HHZ">
      <acc value="0.1120761492" flag="0"/>
      <vel value="0.0282458820" flag="0"/>
      <psa03 value="0.0901739640" flag="0"/>
      <psa10 value="0.0206397296" flag="0"/>
      <psa30 value="0.0026421048" flag="0"/>
    </comp>
    <comp name="--.HHN">
      <acc value="0.2509276485" flag="0"/>
      <vel value="0.0475726973" flag="0"/>
      <psa03 value="0.1865115820" flag="0"/>
      <psa10 value="0.0169419138" flag="0"/>
      <psa30 value="0.0026215704" flag="0"/>
    </comp>
    <comp name="--.HHE">
      <acc value="0.1944749753" flag="0"/>
      <vel value="0.0425934902" flag="0"/>
      <psa03 value="0.2555837705" flag="0"/>
      <psa10 value="0.0280849711" flag="0"/>
      <psa30 value="0.0020969927" flag="0"/>
    </comp>
  </station>
  <station code="THERA" name="THERA" netid="GE" insttype="STS-2/N" lat="36.367" lon="25.4753">
    <comp name="--.HHE">
      <acc value="0.1613017061" flag="0"/>
      <vel value="0.0257342442" flag="0"/>
      <psa03 value="0.1108150349" flag="0"/>
      <psa10 value="0.0190113951" flag="0"/>
      <psa30 value="0.0018700476" flag="0"/>
    </comp>
    <comp name="--.HHZ">
      <acc value="0.1147192573" flag="0"/>
      <vel value="0.0183502203" flag="0"/>
      <psa03 value="0.0827095816" flag="0"/>
      <psa10 value="0.0108854440" flag="0"/>
      <psa30 value="0.0012224310" flag="0"/>
    </comp>
    <comp name="--.HHN">
      <acc value="0.0786511614" flag="0"/>
      <vel value="0.0177125639" flag="0"/>
      <psa03 value="0.0912744440" flag="0"/>
      <psa10 value="0.0103939937" flag="0"/>
      <psa30 value="0.0011166564" flag="0"/>
    </comp>
  </station>
  <station code="NAX1" name="NAX1" netid="HI" insttype="CMG-5TD,ACCELEROMETER,GURALP" lat="37.1014" lon="25.3741">
    <comp name="--.HNE">
      <acc value="0.1350416482" flag="0"/>
      <vel value="0.0401908169" flag="0"/>
      <psa03 value="0.2546430565" flag="0"/>
      <psa10 value="0.0176031653" flag="0"/>
      <psa30 value="0.0017992804" flag="0"/>
    </comp>
    <comp name="--.HNN">
      <acc value="0.1171020284" flag="0"/>
      <vel value="0.0405948008" flag="0"/>
      <psa03 value="0.1812783885" flag="0"/>
      <psa10 value="0.0129433209" flag="0"/>
      <psa30 value="0.0018190038" flag="0"/>
    </comp>
    <comp name="--.HNZ">
      <acc value="0.0613781441" flag="0"/>
      <vel value="0.0356700349" flag="0"/>
      <psa03 value="0.1239690539" flag="0"/>
      <psa10 value="0.0125311481" flag="0"/>
      <psa30 value="0.0019243454" flag="0"/>
    </comp>
  </station>
  <station code="SFR2" name="SFR2" netid="HI" insttype="unknown" lat="36.3998" lon="25.4382">
    <comp name="--.HNE">
      <acc value="0.1858348792" flag="0"/>
      <vel value="0.0604676080" flag="0"/>
      <psa03 value="0.2647548346" flag="0"/>
      <psa10 value="0.0578390525" flag="0"/>
      <psa30 value="0.0046723871" flag="0"/>
    </comp>
    <comp name="--.HNZ">
      <acc value="0.2206147215" flag="0"/>
      <vel value="0.0423891200" flag="0"/>
      <psa03 value="0.1788981843" flag="0"/>
      <psa10 value="0.0255179974" flag="0"/>
      <psa30 value="0.0023199268" flag="0"/>
    </comp>
    <comp name="--.HNN">
      <acc value="0.1829975808" flag="0"/>
      <vel value="0.0516245585" flag="0"/>
      <psa03 value="0.3214601636" flag="0"/>
      <psa10 value="0.0614668981" flag="0"/>
      <psa30 value="0.0039805559" flag="0"/>
    </comp>
  </station>
  <station code="AMGA" name="AMGA" netid="HL" insttype="SMART24" lat="36.8316" lon="25.8938">
    <comp name="--.HHE">
      <acc value="1.5815949389" flag="0"/>
      <vel value="0.4237330149" flag="0"/>
      <psa03 value="1.3305215791" flag="0"/>
      <psa10 value="0.1388667577" flag="0"/>
      <psa30 value="0.0104508983" flag="0"/>
    </comp>
    <comp name="--.HHN">
      <acc value="1.5755430239" flag="0"/>
      <vel value="0.3200754130" flag="0"/>
      <psa03 value="0.9983726767" flag="0"/>
      <psa10 value="0.1589838026" flag="0"/>
      <psa30 value="0.0101644943" flag="0"/>
    </comp>
    <comp name="--.HHZ">
      <acc value="1.5399500283" flag="0"/>
      <vel value="0.3352919802" flag="0"/>
      <psa03 value="1.3587632731" flag="0"/>
      <psa10 value="0.0972539536" flag="0"/>
      <psa30 value="0.0096220790" flag="0"/>
    </comp>
  </station>
  <station code="APE" name="APE" netid="HL" insttype="120" lat="37.0727" lon="25.523">
    <comp name="--.HHE">
      <acc value="0.1646075574" flag="0"/>
      <vel value="0.0400360339" flag="0"/>
      <psa03 value="0.2487421993" flag="0"/>
      <psa10 value="0.0277668345" flag="0"/>
      <psa30 value="0.0020820110" flag="0"/>
    </comp>
    <comp name="--.HHN">
      <acc value="0.2217173160" flag="0"/>
      <vel value="0.0454213979" flag="0"/>
      <psa03 value="0.1811415203" flag="0"/>
      <psa10 value="0.0167452128" flag="0"/>
      <psa30 value="0.0026094811" flag="0"/>
    </comp>
    <comp name="--.HHZ">
      <acc value="0.1058937745" flag="0"/>
      <vel value="0.0271075322" flag="0"/>
      <psa03 value="0.0877395406" flag="0"/>
      <psa10 value="0.0204648475" flag="0"/>
      <psa30 value="0.0026349684" flag="0"/>
    </comp>
  </station>
  <station code="ASTA" name="ASTA" netid="HL" insttype="CMG-5" lat="36.5455" lon="26.3529">
    <comp name="00.HNZ">
      <acc value="0.0795096527" flag="0"/>
      <vel value="0.0232920234" flag="0"/>
      <psa03 value="0.1403554255" flag="0"/>
      <psa10 value="0.0146470476" flag="0"/>
      <psa30 value="0.0011669315" flag="0"/>
    </comp>
    <comp name="00.HNE">
      <acc value="0.0989757230" flag="0"/>
      <vel value="0.0394602365" flag="0"/>
      <psa03 value="0.1674448206" flag="0"/>
      <psa10 value="0.0333968611" flag="0"/>
      <psa30 value="0.0017216869" flag="0"/>
    </comp>
    <comp name="00.HNN">
      <acc value="0.0952580617" flag="0"/>
      <vel value="0.0299052531" flag="0"/>
      <psa03 value="0.1552584799" flag="0"/>
      <psa10 value="0.0170778308" flag="0"/>
      <psa30 value="0.0017044081" flag="0"/>
    </comp>
  </station>
  <station code="MHLO" name="MHLO" netid="HL" insttype="20" lat="36.6898" lon="24.4017">
    <comp name="--.HHE">
      <acc value="0.0834555367" flag="0"/>
      <vel value="0.0506087583" flag="0"/>
      <psa03 value="0.2931296180" flag="0"/>
      <psa10 value="0.0457594071" flag="0"/>
      <psa30 value="0.0027651625" flag="0"/>
    </comp>
    <comp name="--.HHZ">
      <acc value="0.0440473673" flag="0"/>
      <vel value="0.0237821291" flag="0"/>
      <psa03 value="0.1384343624" flag="0"/>
      <psa10 value="0.0312141837" flag="0"/>
      <psa30 value="0.0022014742" flag="0"/>
    </comp>
    <comp name="--.HHN">
      <acc value="0.0844914566" flag="0"/>
      <vel value="0.0356760172" flag="0"/>
      <psa03 value="0.2121165886" flag="0"/>
      <psa10 value="0.0441708754" flag="0"/>
      <psa30 value="0.0031948520" flag="0"/>
    </comp>
  </station>
  <station code="MILA" name="MILA" netid="HL" insttype="CMG-5" lat="36.7429" lon="24.4282">
    <comp name="00.HNE">
      <acc value="0.0689929581" flag="0"/>
      <vel value="0.0444016641" flag="0"/>
      <psa03 value="0.1883081496" flag="0"/>
      <psa10 value="0.0286973715" flag="0"/>
      <psa30 value="0.0023107346" flag="0"/>
    </comp>
    <comp name="00.HNZ">
      <acc value="0.0735628775" flag="0"/>
      <vel value="0.0361924618" flag="0"/>
      <psa03 value="0.1538850466" flag="0"/>
      <psa10 value="0.0256642168" flag="0"/>
      <psa30 value="0.0014532312" flag="0"/>
    </comp>
    <comp name="00.HNN">
      <acc value="0.1334975098" flag="0"/>
      <vel value="0.0528516369" flag="0"/>
      <psa03 value="0.2943196209" flag="0"/>
      <psa10 value="0.0275635126" flag="0"/>
      <psa30 value="0.0024469242" flag="0"/>
    </comp>
  </station>
  <station code="NISR" name="NISR" netid="HL" insttype="65535" lat="36.6106" lon="27.131">
    <comp name="--.HHZ">
      <acc value="0.0403380078" flag="0"/>
      <vel value="0.0141253329" flag="0"/>
      <psa03 value="0.0732573398" flag="0"/>
      <psa10 value="0.0132263589" flag="0"/>
      <psa30 value="0.0009773726" flag="0"/>
    </comp>
    <comp name="--.HHN">
      <acc value="0.0719676310" flag="0"/>
      <vel value="0.0313905047" flag="0"/>
      <psa03 value="0.1502593521" flag="0"/>
      <psa10 value="0.0183812281" flag="0"/>
      <psa30 value="0.0032568536" flag="0"/>
    </comp>
    <comp name="--.HHE">
      <acc value="0.0000000000" flag="0"/>
      <vel value="-100.0000000000" flag="0"/>
      <psa03 value="0.0000000000" flag="0"/>
      <psa10 value="0.0000000000" flag="0"/>
      <psa30 value="0.0000000000" flag="0"/>
    </comp>
  </station>
  <station code="SANT" name="SANT" netid="HL" insttype="30" lat="36.3705" lon="25.4593">
    <comp name="--.HHE">
      <acc value="0.5140837028" flag="0"/>
      <vel value="0.0798091786" flag="0"/>
      <psa03 value="0.2626281686" flag="0"/>
      <psa10 value="0.0256349771" flag="0"/>
      <psa30 value="0.0020181446" flag="0"/>
    </comp>
    <comp name="--.HHN">
      <acc value="0.3650262609" flag="0"/>
      <vel value="0.0421814632" flag="0"/>
      <psa03 value="0.1411729089" flag="0"/>
      <psa10 value="0.0178545866" flag="0"/>
      <psa30 value="0.0019804960" flag="0"/>
    </comp>
    <comp name="--.HHZ">
      <acc value="0.3129297175" flag="0"/>
      <vel value="0.0464169022" flag="0"/>
      <psa03 value="0.2082790919" flag="0"/>
      <psa10 value="0.0121663973" flag="0"/>
      <psa30 value="0.0014716064" flag="0"/>
    </comp>
  </station>
  <station code="SAP3" name="SAP3" netid="HL" insttype="65535" lat="36.4356" lon="25.3454">
    <comp name="--.HHE">
      <acc value="0.0976153621" flag="0"/>
      <vel value="0.0312593418" flag="0"/>
      <psa03 value="0.2263341815" flag="0"/>
      <psa10 value="0.0366509751" flag="0"/>
      <psa30 value="0.0067937581" flag="0"/>
    </comp>
    <comp name="--.HHZ">
      <acc value="0.1187186712" flag="0"/>
      <vel value="0.0258876819" flag="0"/>
      <psa03 value="0.1040700201" flag="0"/>
      <psa10 value="0.0144012543" flag="0"/>
      <psa30 value="0.0017176443" flag="0"/>
    </comp>
    <comp name="--.HHN">
      <acc value="0.1098485375" flag="0"/>
      <vel value="0.0314331526" flag="0"/>
      <psa03 value="0.1824418500" flag="0"/>
      <psa10 value="0.0208368123" flag="0"/>
      <psa30 value="0.0044693777" flag="0"/>
    </comp>
  </station>
  <station code="THERA" name="THERA" netid="HL" insttype="120" lat="36.367" lon="25.4753">
    <comp name="--.HHE">
      <acc value="0.1647161083" flag="0"/>
      <vel value="0.0252670819" flag="0"/>
      <psa03 value="0.1080200678" flag="0"/>
      <psa10 value="0.0188016122" flag="0"/>
      <psa30 value="0.0018537834" flag="0"/>
    </comp>
    <comp name="--.HHZ">
      <acc value="0.1149204663" flag="0"/>
      <vel value="0.0180921097" flag="0"/>
      <psa03 value="0.0802602804" flag="0"/>
      <psa10 value="0.0107765217" flag="0"/>
      <psa30 value="0.0012201890" flag="0"/>
    </comp>
    <comp name="--.HHN">
      <acc value="0.1630686592" flag="0"/>
      <vel value="0.0348628936" flag="0"/>
      <psa03 value="0.1768094102" flag="0"/>
      <psa10 value="0.0206188900" flag="0"/>
      <psa30 value="0.0022291981" flag="0"/>
    </comp>
  </station>
  <station code="TNSA" name="TNSA" netid="HL" insttype="CMG-5" lat="37.5394" lon="25.1631">
    <comp name="00.HNN">
      <acc value="0.1202716538" flag="0"/>
      <vel value="0.0332525976" flag="0"/>
      <psa03 value="0.1202517953" flag="0"/>
      <psa10 value="0.0147517710" flag="0"/>
      <psa30 value="0.0015634681" flag="0"/>
    </comp>
    <comp name="00.HNE">
      <acc value="0.0515996691" flag="0"/>
      <vel value="0.0191823187" flag="0"/>
      <psa03 value="0.0479001846" flag="0"/>
      <psa10 value="0.0088434057" flag="0"/>
      <psa30 value="0.0006732669" flag="0"/>
    </comp>
    <comp name="00.HNZ">
      <acc value="0.0436085330" flag="0"/>
      <vel value="0.0125330867" flag="0"/>
      <psa03 value="0.0690055545" flag="0"/>
      <psa10 value="0.0117218798" flag="0"/>
      <psa30 value="0.0021062793" flag="0"/>
    </comp>
  </station>
  <station code="AKRO" name="AKRO" netid="HT" insttype="Compact," lat="36.3584" lon="25.3967">
    <comp name="--.HHE">
      <acc value="0.3961350443" flag="0"/>
      <vel value="0.1086176197" flag="0"/>
      <psa03 value="0.6291884998" flag="0"/>
      <psa10 value="0.0432540233" flag="0"/>
      <psa30 value="0.0028688624" flag="0"/>
    </comp>
    <comp name="--.HHZ">
      <acc value="0.3233671309" flag="0"/>
      <vel value="0.0412765312" flag="0"/>
      <psa03 value="0.2377435267" flag="0"/>
      <psa10 value="0.0232567066" flag="0"/>
      <psa30 value="0.0019001454" flag="0"/>
    </comp>
    <comp name="--.HHN">
      <acc value="0.3565637088" flag="0"/>
      <vel value="0.0647823391" flag="0"/>
      <psa03 value="0.4064726911" flag="0"/>
      <psa10 value="0.0623741174" flag="0"/>
      <psa30 value="0.0047574126" flag="0"/>
    </comp>
  </station>
  <station code="CMBO" name="CMBO" netid="HT" insttype="120P," lat="36.4709" lon="25.4056">
    <comp name="--.HHE">
      <acc value="0.1210829306" flag="0"/>
      <vel value="0.0415479616" flag="0"/>
      <psa03 value="0.2023994184" flag="0"/>
      <psa10 value="0.0379842405" flag="0"/>
      <psa30 value="0.0042938341" flag="0"/>
    </comp>
    <comp name="--.HHZ">
      <acc value="0.1309076446" flag="0"/>
      <vel value="0.0337742954" flag="0"/>
      <psa03 value="0.2389526647" flag="0"/>
      <psa10 value="0.0187024765" flag="0"/>
      <psa30 value="0.0016238895" flag="0"/>
    </comp>
    <comp name="--.HHN">
      <acc value="0.1738377227" flag="0"/>
      <vel value="0.0584621085" flag="0"/>
      <psa03 value="0.1700846480" flag="0"/>
      <psa10 value="0.0559934316" flag="0"/>
      <psa30 value="0.0043936589" flag="0"/>
    </comp>
  </station>
</stationlist>
