<stationlist xmlns:esm="https://esm-db.eu/esmws/shakemap/1/" created="1780970089">
	<station code="CH01" name="CH01" netid="HI" source="ITSAK Strong Motion Network" insttype="" lat="35.517" lon="24.0208" esm:processing="manual (Paolucci et al 2011)" esm:quality="good">
		<comp name="--.HNE" depth="0.0">
			<acc value="0.00890837829863252" flag="0"/>
			<vel value="0.00638081821782368" flag="0"/>
			<psa03 value="0.0210278942968809" flag="0"/>
			<psa10 value="0.00751198763231371" flag="0"/>
			<psa30 value="0.000556430558710361" flag="0"/>
		</comp>
		<comp name="--.HNN" depth="0.0">
			<acc value="0.0074771931110209" flag="0"/>
			<vel value="0.00725560565552503" flag="0"/>
			<psa03 value="0.0276197723827029" flag="0"/>
			<psa10 value="0.00624682116499437" flag="0"/>
			<psa30 value="0.000456124226408124" flag="0"/>
		</comp>
		<comp name="--.HNZ" depth="0.0">
			<acc value="0.00709111541461524" flag="0"/>
			<vel value="0.00460075087538197" flag="0"/>
			<psa03 value="0.0222260426787477" flag="0"/>
			<psa10 value="0.00586308121285584" flag="0"/>
			<psa30 value="0.000369747879399048" flag="0"/>
		</comp>
	</station>
	<station code="CH02" name="CH02" netid="HI" source="ITSAK Strong Motion Network" insttype="" lat="35.5145" lon="24.0315" esm:processing="manual (Paolucci et al 2011)" esm:quality="good">
		<comp name="--.HNE" depth="0.0">
			<acc value="0.00845775740095203" flag="0"/>
			<vel value="0.00595599592462368" flag="0"/>
			<psa03 value="0.029269412913292" flag="0"/>
			<psa10 value="0.00423964507442908" flag="0"/>
			<psa30 value="0.000391173152884934" flag="0"/>
		</comp>
		<comp name="--.HNN" depth="0.0">
			<acc value="0.00800409619240902" flag="0"/>
			<vel value="0.00601230749551798" flag="0"/>
			<psa03 value="0.0343629664820514" flag="0"/>
			<psa10 value="0.00945783497265029" flag="0"/>
			<psa30 value="0.000623777780549952" flag="0"/>
		</comp>
		<comp name="--.HNZ" depth="0.0">
			<acc value="0.00660774482588218" flag="0"/>
			<vel value="0.00386728557462733" flag="0"/>
			<psa03 value="0.0167765501661968" flag="0"/>
			<psa10 value="0.00594443957119779" flag="0"/>
			<psa30 value="0.000386638633745295" flag="0"/>
		</comp>
	</station>
	<station code="RTH1" name="RTH1" netid="HI" source="ITSAK Strong Motion Network" insttype="" lat="35.365393" lon="24.471773" esm:processing="manual (Paolucci et al 2011)" esm:quality="good">
		<comp name="--.HNE" depth="0.0">
			<acc value="0.00729984280581954" flag="0"/>
			<vel value="0.00434846969943876" flag="0"/>
			<psa03 value="0.0273795767834232" flag="0"/>
			<psa10 value="0.00353593040991121" flag="0"/>
			<psa30 value="0.000231745977033628" flag="0"/>
		</comp>
		<comp name="--.HNN" depth="0.0">
			<acc value="0.0104661192471684" flag="0"/>
			<vel value="0.00639648094847861" flag="0"/>
			<psa03 value="0.0460792139801145" flag="0"/>
			<psa10 value="0.0037471401827721" flag="0"/>
			<psa30 value="0.000339188641457845" flag="0"/>
		</comp>
		<comp name="--.HNZ" depth="0.0">
			<acc value="0.00629138947950687" flag="0"/>
			<vel value="0.0020249655419553" flag="0"/>
			<psa03 value="0.0109165213430468" flag="0"/>
			<psa10 value="0.00125667461571335" flag="0"/>
			<psa30 value="0.000272819192724257" flag="0"/>
		</comp>
	</station>
</stationlist>
