<?xml version="1.0" encoding="UTF-8" standalone="yes"?>
<!DOCTYPE earthquake SYSTEM "stationlist.dtd">
<stationlist created="" xmlns="ch.ethz.sed.shakemap.usgs.xml">
  <station code="CHAN" name="CHAN" netid="HC" source="NOA" insttype="120" lat="35.5193" lon="24.0428">
    <comp name="--.HHE">
      <acc value="0.0199529685" flag="0"/>
      <vel value="0.0156359548" flag="0"/>
      <psa03 value="0.0788500439" flag="0"/>
      <psa10 value="0.0171446367" flag="0"/>
      <psa30 value="0.0007270976" flag="0"/>
    </comp>
    <comp name="--.HHN">
      <acc value="0.0155645968" flag="0"/>
      <vel value="0.0109687410" flag="0"/>
      <psa03 value="0.0614756900" flag="0"/>
      <psa10 value="0.0173267591" flag="0"/>
      <psa30 value="0.0008797503" flag="0"/>
    </comp>
    <comp name="--.HHZ">
      <acc value="0.0142201539" flag="0"/>
      <vel value="0.0071606390" flag="0"/>
      <psa03 value="0.0399735798" flag="0"/>
      <psa10 value="0.0066456657" flag="0"/>
      <psa30 value="0.0006339666" flag="0"/>
    </comp>
  </station>
  <station code="GVDS" name="GVDS" netid="HC" source="NOA" insttype="60" lat="34.8389" lon="24.0585">
    <comp name="--.HHE">
      <acc value="0.0980600352" flag="0"/>
      <vel value="0.0510494096" flag="0"/>
      <psa03 value="0.2812494372" flag="0"/>
      <psa10 value="0.0182251884" flag="0"/>
      <psa30 value="0.0014407272" flag="0"/>
    </comp>
  </station>
  <station code="RODP" name="RODP" netid="HC" source="NOA" insttype="1s-100Hz," lat="35.5604" lon="23.7577">
    <comp name="--.HHE">
      <acc value="0.0042169108" flag="0"/>
      <vel value="0.0019282342" flag="0"/>
      <psa03 value="0.0128840627" flag="0"/>
      <psa10 value="0.0018548132" flag="0"/>
      <psa30 value="0.0002098907" flag="0"/>
    </comp>
    <comp name="--.HHN">
      <acc value="0.0085958383" flag="0"/>
      <vel value="0.0047584958" flag="0"/>
      <psa03 value="0.0298634363" flag="0"/>
      <psa10 value="0.0044927381" flag="0"/>
      <psa30 value="0.0003809842" flag="0"/>
    </comp>
    <comp name="--.HHZ">
      <acc value="0.0065709265" flag="0"/>
      <vel value="0.0032562668" flag="0"/>
      <psa03 value="0.0205785341" flag="0"/>
      <psa10 value="0.0030865132" flag="0"/>
      <psa30 value="0.0003429684" flag="0"/>
    </comp>
  </station>
  <station code="GVD" name="GVD" netid="HL" source="NOA" insttype="120" lat="34.8391" lon="24.0874">
    <comp name="--.HHE">
      <acc value="0.0973753988" flag="0"/>
      <vel value="0.0404824626" flag="0"/>
      <psa03 value="0.2878783854" flag="0"/>
      <psa10 value="0.0152695538" flag="0"/>
      <psa30 value="0.0008674585" flag="0"/>
    </comp>
    <comp name="--.HHN">
      <acc value="0.0887636781" flag="0"/>
      <vel value="0.0513718035" flag="0"/>
      <psa03 value="0.3884829699" flag="0"/>
      <psa10 value="0.0260715475" flag="0"/>
      <psa30 value="0.0018052522" flag="0"/>
    </comp>
    <comp name="--.HHZ">
      <acc value="0.0536129972" flag="0"/>
      <vel value="0.0245816603" flag="0"/>
      <psa03 value="0.2060911977" flag="0"/>
      <psa10 value="0.0084204820" flag="0"/>
      <psa30 value="0.0004839383" flag="0"/>
    </comp>
  </station>
  <station code="IMMV" name="IMMV" netid="HL" source="NOA" insttype="120" lat="35.4606" lon="23.9811">
    <comp name="--.HHE">
      <acc value="0.0169749859" flag="0"/>
      <vel value="0.0085811289" flag="0"/>
      <psa03 value="0.0572675256" flag="0"/>
      <psa10 value="0.0044790782" flag="0"/>
      <psa30 value="0.0003451939" flag="0"/>
    </comp>
    <comp name="--.HHN">
      <acc value="0.0204785021" flag="0"/>
      <vel value="0.0101042563" flag="0"/>
      <psa03 value="0.0598485566" flag="0"/>
      <psa10 value="0.0060921633" flag="0"/>
      <psa30 value="0.0004583174" flag="0"/>
    </comp>
    <comp name="--.HHZ">
      <acc value="0.0157256038" flag="0"/>
      <vel value="0.0086680995" flag="0"/>
      <psa03 value="0.0455796407" flag="0"/>
      <psa10 value="0.0049243073" flag="0"/>
      <psa30 value="0.0004394922" flag="0"/>
    </comp>
  </station>
</stationlist>
