<?xml version="1.0" encoding="UTF-8" standalone="yes"?>
<!DOCTYPE earthquake SYSTEM "stationlist.dtd">
<stationlist created="" xmlns="ch.ethz.sed.shakemap.usgs.xml">
  <station code="APE" name="APE" netid="GE" insttype="STS-2/N" lat="37.0727" lon="25.523">
    <comp name="--.HHZ">
      <acc value="0.0464121667" flag="0"/>
      <vel value="0.0105023674" flag="0"/>
      <psa03 value="0.0570753179" flag="0"/>
      <psa10 value="0.0044939406" flag="0"/>
      <psa30 value="0.0008073513" flag="0"/>
    </comp>
    <comp name="--.HHN">
      <acc value="0.1253503508" flag="0"/>
      <vel value="0.0318813878" flag="0"/>
      <psa03 value="0.0765308176" flag="0"/>
      <psa10 value="0.0051675863" flag="0"/>
      <psa30 value="0.0008944148" flag="0"/>
    </comp>
    <comp name="--.HHE">
      <acc value="0.1026880383" flag="0"/>
      <vel value="0.0145558280" flag="0"/>
      <psa03 value="0.1176918303" flag="0"/>
      <psa10 value="0.0059476494" flag="0"/>
      <psa30 value="0.0013346605" flag="0"/>
    </comp>
  </station>
  <station code="THERA" name="THERA" netid="GE" insttype="STS-2/N" lat="36.367" lon="25.4753">
    <comp name="--.HHZ">
      <acc value="0.0597870548" flag="0"/>
      <vel value="0.0121923674" flag="0"/>
      <psa03 value="0.0319468742" flag="0"/>
      <psa10 value="0.0034802883" flag="0"/>
      <psa30 value="0.0008579525" flag="0"/>
    </comp>
    <comp name="--.HHN">
      <acc value="0.0493823586" flag="0"/>
      <vel value="0.0106255537" flag="0"/>
      <psa03 value="0.0520262958" flag="0"/>
      <psa10 value="0.0047432884" flag="0"/>
      <psa30 value="0.0005523750" flag="0"/>
    </comp>
    <comp name="--.HHE">
      <acc value="0.0594068554" flag="0"/>
      <vel value="0.0142142208" flag="0"/>
      <psa03 value="0.0457130838" flag="0"/>
      <psa10 value="0.0059754290" flag="0"/>
      <psa30 value="0.0011261992" flag="0"/>
    </comp>
  </station>
  <station code="SNT1" name="SNT1" netid="HA" insttype="30" lat="36.4159" lon="25.4282">
    <comp name="--.HHZ">
      <acc value="0.0594065911" flag="0"/>
      <vel value="0.0107204579" flag="0"/>
      <psa03 value="0.0314037242" flag="0"/>
      <psa10 value="0.0090495661" flag="0"/>
      <psa30 value="0.0012061533" flag="0"/>
    </comp>
    <comp name="--.HHE">
      <acc value="0.0607027045" flag="0"/>
      <vel value="0.0144182291" flag="0"/>
      <psa03 value="0.0403008586" flag="0"/>
      <psa10 value="0.0107666225" flag="0"/>
      <psa30 value="0.0021876679" flag="0"/>
    </comp>
    <comp name="--.HHN">
      <acc value="0.0408534500" flag="0"/>
      <vel value="0.0126536857" flag="0"/>
      <psa03 value="0.0411310427" flag="0"/>
      <psa10 value="0.0130329387" flag="0"/>
      <psa30 value="0.0027984372" flag="0"/>
    </comp>
  </station>
  <station code="NAX1" name="NAX1" netid="HI" insttype="CMG-5TD,ACCELEROMETER,GURALP" lat="37.1014" lon="25.3741">
    <comp name="--.HNE">
      <acc value="0.0720405075" flag="0"/>
      <vel value="0.0157091378" flag="0"/>
      <psa03 value="0.0938970863" flag="0"/>
      <psa10 value="0.0063487625" flag="0"/>
      <psa30 value="0.0007591580" flag="0"/>
    </comp>
    <comp name="--.HNZ">
      <acc value="0.0454852179" flag="0"/>
      <vel value="0.0115916250" flag="0"/>
      <psa03 value="0.0441299002" flag="0"/>
      <psa10 value="0.0035691266" flag="0"/>
      <psa30 value="0.0007353848" flag="0"/>
    </comp>
    <comp name="--.HNN">
      <acc value="0.0728196722" flag="0"/>
      <vel value="0.0150680024" flag="0"/>
      <psa03 value="0.0508406037" flag="0"/>
      <psa10 value="0.0044877958" flag="0"/>
      <psa30 value="0.0006394058" flag="0"/>
    </comp>
  </station>
  <station code="AMGA" name="AMGA" netid="HL" insttype="CMG-5TD" lat="36.8316" lon="25.8938">
    <comp name="00.HNE">
      <acc value="0.1937116532" flag="0"/>
      <vel value="0.0309573097" flag="0"/>
      <psa03 value="0.0505549825" flag="0"/>
      <psa10 value="0.0109749181" flag="0"/>
      <psa30 value="0.0014940313" flag="0"/>
    </comp>
    <comp name="00.HNN">
      <acc value="0.2029074139" flag="0"/>
      <vel value="0.0353707061" flag="0"/>
      <psa03 value="0.0782581835" flag="0"/>
      <psa10 value="0.0130342661" flag="0"/>
      <psa30 value="0.0010433495" flag="0"/>
    </comp>
    <comp name="00.HNZ">
      <acc value="0.0901588860" flag="0"/>
      <vel value="0.0175898508" flag="0"/>
      <psa03 value="0.0786766177" flag="0"/>
      <psa10 value="0.0088922321" flag="0"/>
      <psa30 value="0.0011139048" flag="0"/>
    </comp>
  </station>
  <station code="APE" name="APE" netid="HL" insttype="120" lat="37.0727" lon="25.523">
    <comp name="--.HHE">
      <acc value="0.0925664648" flag="0"/>
      <vel value="0.0139067761" flag="0"/>
      <psa03 value="0.1139551933" flag="0"/>
      <psa10 value="0.0058559998" flag="0"/>
      <psa30 value="0.0013323596" flag="0"/>
    </comp>
    <comp name="--.HHN">
      <acc value="0.1078376396" flag="0"/>
      <vel value="0.0302082992" flag="0"/>
      <psa03 value="0.0746879912" flag="0"/>
      <psa10 value="0.0050003373" flag="0"/>
      <psa30 value="0.0008922720" flag="0"/>
    </comp>
    <comp name="--.HHZ">
      <acc value="0.0438547359" flag="0"/>
      <vel value="0.0101707013" flag="0"/>
      <psa03 value="0.0557543439" flag="0"/>
      <psa10 value="0.0044373818" flag="0"/>
      <psa30 value="0.0008056778" flag="0"/>
    </comp>
  </station>
  <station code="SAP3" name="SAP3" netid="HL" insttype="LE3D20_SMART24" lat="36.4356" lon="25.3454">
    <comp name="--.HHE">
      <acc value="0.3468927382" flag="0"/>
      <vel value="0.0803050242" flag="0"/>
      <psa03 value="0.4295930146" flag="0"/>
      <psa10 value="0.0527270663" flag="0"/>
      <psa30 value="0.0090224466" flag="0"/>
    </comp>
    <comp name="--.HHN">
      <acc value="0.2733290470" flag="0"/>
      <vel value="0.0617040420" flag="0"/>
      <psa03 value="0.2745149294" flag="0"/>
      <psa10 value="0.0319080667" flag="0"/>
      <psa30 value="0.0082334811" flag="0"/>
    </comp>
    <comp name="--.HHZ">
      <acc value="0.3028141265" flag="0"/>
      <vel value="0.0576445364" flag="0"/>
      <psa03 value="0.2746557405" flag="0"/>
      <psa10 value="0.0179251645" flag="0"/>
      <psa30 value="0.0032387229" flag="0"/>
    </comp>
  </station>
  <station code="THERA" name="THERA" netid="HL" insttype="120" lat="36.367" lon="25.4753">
    <comp name="--.HHE">
      <acc value="0.0593900252" flag="0"/>
      <vel value="0.0139093712" flag="0"/>
      <psa03 value="0.0442551008" flag="0"/>
      <psa10 value="0.0059405243" flag="0"/>
      <psa30 value="0.0011251618" flag="0"/>
    </comp>
    <comp name="--.HHN">
      <acc value="0.0481790006" flag="0"/>
      <vel value="0.0102931507" flag="0"/>
      <psa03 value="0.0505018172" flag="0"/>
      <psa10 value="0.0046874710" flag="0"/>
      <psa30 value="0.0005525358" flag="0"/>
    </comp>
    <comp name="--.HHZ">
      <acc value="0.0587617644" flag="0"/>
      <vel value="0.0117954903" flag="0"/>
      <psa03 value="0.0311407613" flag="0"/>
      <psa10 value="0.0034507331" flag="0"/>
      <psa30 value="0.0008562842" flag="0"/>
    </comp>
  </station>
  <station code="THRA" name="THRA" netid="HL" insttype="CMG-5" lat="36.415" lon="25.4324">
    <comp name="00.HNE">
      <acc value="0.1783384139" flag="0"/>
      <vel value="0.0459708402" flag="0"/>
      <psa03 value="0.2659551370" flag="0"/>
      <psa10 value="0.0326225121" flag="0"/>
      <psa30 value="0.0037953798" flag="0"/>
    </comp>
    <comp name="00.HNN">
      <acc value="0.1652013869" flag="0"/>
      <vel value="0.0438700196" flag="0"/>
      <psa03 value="0.2133524055" flag="0"/>
      <psa10 value="0.0448926295" flag="0"/>
      <psa30 value="0.0041891677" flag="0"/>
    </comp>
    <comp name="00.HNZ">
      <acc value="0.1261133623" flag="0"/>
      <vel value="0.0406865227" flag="0"/>
      <psa03 value="0.1367592116" flag="0"/>
      <psa10 value="0.0222139918" flag="0"/>
      <psa30 value="0.0015901308" flag="0"/>
    </comp>
  </station>
  <station code="CMBO" name="CMBO" netid="HT" insttype="120P," lat="36.4709" lon="25.4056">
    <comp name="--.HHE">
      <acc value="0.3139069037" flag="0"/>
      <vel value="0.0807183139" flag="0"/>
      <psa03 value="0.4071978515" flag="0"/>
      <psa10 value="0.0706582520" flag="0"/>
      <psa30 value="0.0059009306" flag="0"/>
    </comp>
    <comp name="--.HHN">
      <acc value="0.3575078363" flag="0"/>
      <vel value="0.1063322952" flag="0"/>
      <psa03 value="0.3418105511" flag="0"/>
      <psa10 value="0.0764556485" flag="0"/>
      <psa30 value="0.0054570060" flag="0"/>
    </comp>
    <comp name="--.HHZ">
      <acc value="0.3205581765" flag="0"/>
      <vel value="0.0693442593" flag="0"/>
      <psa03 value="0.3906141813" flag="0"/>
      <psa10 value="0.0205375252" flag="0"/>
      <psa30 value="0.0059229253" flag="0"/>
    </comp>
  </station>
</stationlist>
