<?xml version="1.0" encoding="UTF-8" standalone="yes"?>
<!DOCTYPE earthquake SYSTEM "stationlist.dtd">
<stationlist created="" xmlns="ch.ethz.sed.shakemap.usgs.xml">
  <station code="APE" name="APE" netid="GE" insttype="STS-2/N" lat="37.0727" lon="25.523">
    <comp name="--.HHE">
      <acc value="0.1026880371" flag="0"/>
      <vel value="0.0145558289" flag="0"/>
      <psa03 value="0.1176918303" flag="0"/>
      <psa10 value="0.0059476502" flag="0"/>
      <psa30 value="0.0013347515" flag="0"/>
    </comp>
    <comp name="--.HHN">
      <acc value="0.1253503505" flag="0"/>
      <vel value="0.0318813815" flag="0"/>
      <psa03 value="0.0765308176" flag="0"/>
      <psa10 value="0.0051675866" flag="0"/>
      <psa30 value="0.0008944208" flag="0"/>
    </comp>
    <comp name="--.HHZ">
      <acc value="0.0464121666" flag="0"/>
      <vel value="0.0105023667" flag="0"/>
      <psa03 value="0.0570753179" flag="0"/>
      <psa10 value="0.0044939411" flag="0"/>
      <psa30 value="0.0008074228" flag="0"/>
    </comp>
  </station>
  <station code="THERA" name="THERA" netid="GE" insttype="STS-2/N" lat="36.367" lon="25.4753">
    <comp name="--.HHE">
      <acc value="0.0594068563" flag="0"/>
      <vel value="0.0142142171" flag="0"/>
      <psa03 value="0.0457130838" flag="0"/>
      <psa10 value="0.0059754426" flag="0"/>
      <psa30 value="0.0011247878" flag="0"/>
    </comp>
    <comp name="--.HHN">
      <acc value="0.0493823585" flag="0"/>
      <vel value="0.0106255514" flag="0"/>
      <psa03 value="0.0520262958" flag="0"/>
      <psa10 value="0.0047432992" flag="0"/>
      <psa30 value="0.0005527347" flag="0"/>
    </comp>
    <comp name="--.HHZ">
      <acc value="0.0597870555" flag="0"/>
      <vel value="0.0121923645" flag="0"/>
      <psa03 value="0.0319468742" flag="0"/>
      <psa10 value="0.0034802826" flag="0"/>
      <psa30 value="0.0008565292" flag="0"/>
    </comp>
  </station>
</stationlist>
