<stationlist created="1741951766">
	<station code="BODA" name="BODA" netid="KO" source="Bogazici University Kandilli Observatory And Earthquake Research Institute (KOERI)" insttype="" lat="37.0348" lon="27.4304">
		<comp name=".HNE" depth="0.0">
			<acc value="0.0026431728460602" flag="0"/>
			<vel value="0.00124984997171" flag="0"/>
			<psa03 value="0.00920474648800975" flag="0"/>
			<psa10 value="0.00118335596964861" flag="0"/>
			<psa30 value="0.000211903360474118" flag="0"/>
		</comp>
		<comp name=".HNN" depth="0.0">
			<acc value="0.0032757238600692" flag="0"/>
			<vel value="0.00172726063837" flag="0"/>
			<psa03 value="0.0106742578984409" flag="0"/>
			<psa10 value="0.00160988192021501" flag="0"/>
			<psa30 value="0.000195274472433954" flag="0"/>
		</comp>
		<comp name=".HNZ" depth="0.0">
			<acc value="0.0073533929602818" flag="0"/>
			<vel value="0.00102738287826" flag="0"/>
			<psa03 value="0.00191034530100114" flag="0"/>
			<psa10 value="0.000835151555158595" flag="0"/>
			<psa30 value="0.000191160423856688" flag="0"/>
		</comp>
	</station>
	<station code="BODM" name="BODM" netid="KO" source="Bogazici University Kandilli Observatory And Earthquake Research Institute (KOERI)" insttype="" lat="37.031" lon="27.4247">
		<comp name=".HNE" depth="0.0">
			<acc value="0.0057329614535328" flag="0"/>
			<vel value="0.00167789938003" flag="0"/>
			<psa03 value="0.00819860757062412" flag="0"/>
			<psa10 value="0.00113236630277337" flag="0"/>
			<psa30 value="0.000213565397659627" flag="0"/>
		</comp>
		<comp name=".HNN" depth="0.0">
			<acc value="0.0055503157949904" flag="0"/>
			<vel value="0.00256009866728" flag="0"/>
			<psa03 value="0.00866743810751378" flag="0"/>
			<psa10 value="0.0021384225975023" flag="0"/>
			<psa30 value="0.000253248807740517" flag="0"/>
		</comp>
		<comp name=".HNZ" depth="0.0">
			<acc value="0.0050422296481122" flag="0"/>
			<vel value="0.000513630989609" flag="0"/>
			<psa03 value="0.00197984306894751" flag="0"/>
			<psa10 value="0.000827117175267638" flag="0"/>
			<psa30 value="0.000210574079707764" flag="0"/>
		</comp>
	</station>
	<station code="CESE" name="CESE" netid="KO" source="Bogazici University Kandilli Observatory And Earthquake Research Institute (KOERI)" insttype="" lat="38.3306" lon="26.2997">
		<comp name=".HNE" depth="0.0">
			<acc value="0.039515818128198" flag="0"/>
			<vel value="0.00263874000751" flag="0"/>
			<psa03 value="0.00204646825076973" flag="0"/>
			<psa10 value="0.000773548568015442" flag="0"/>
			<psa30 value="0.000644527228013604" flag="0"/>
		</comp>
		<comp name=".HNN" depth="0.0">
			<acc value="0.03132788204802" flag="0"/>
			<vel value="0.00273128904125" flag="0"/>
			<psa03 value="0.00361053963626212" flag="0"/>
			<psa10 value="0.00168568920769828" flag="0"/>
			<psa30 value="0.000602523507976442" flag="0"/>
		</comp>
		<comp name=".HNZ" depth="0.0">
			<acc value="0.0056535988993392" flag="0"/>
			<vel value="0.00109544361426" flag="0"/>
			<psa03 value="0.00143887852176322" flag="0"/>
			<psa10 value="0.000615321133097745" flag="0"/>
			<psa30 value="0.000387410429664719" flag="0"/>
		</comp>
	</station>
	<station code="DATC" name="DATC" netid="KO" source="Bogazici University Kandilli Observatory And Earthquake Research Institute (KOERI)" insttype="" lat="36.7584" lon="27.6602">
		<comp name=".HNE" depth="0.0">
			<acc value="0.1096056488343" flag="0"/>
			<vel value="0.00890518409817" flag="0"/>
			<psa03 value="0.0121694012152062" flag="0"/>
			<psa10 value="0.00308436346456915" flag="0"/>
			<psa30 value="0.000601686577534407" flag="0"/>
		</comp>
		<comp name=".HNN" depth="0.0">
			<acc value="0.13687273081356" flag="0"/>
			<vel value="0.0137645716096" flag="0"/>
			<psa03 value="0.0152868707530705" flag="0"/>
			<psa10 value="0.00556446486849304" flag="0"/>
			<psa30 value="0.00050461384485678" flag="0"/>
		</comp>
		<comp name=".HNZ" depth="0.0">
			<acc value="0.1334080627425" flag="0"/>
			<vel value="0.0194871607769" flag="0"/>
			<psa03 value="0.0196788023219886" flag="0"/>
			<psa10 value="0.00447410873147929" flag="0"/>
			<psa30 value="0.000536456735541276" flag="0"/>
		</comp>
	</station>
	<station code="DIDI" name="DIDI" netid="KO" source="Bogazici University Kandilli Observatory And Earthquake Research Institute (KOERI)" insttype="" lat="37.3767" lon="27.2398">
		<comp name=".HNE" depth="0.0">
			<acc value="0.038283837920436" flag="0"/>
			<vel value="0.00481398869679" flag="0"/>
			<psa03 value="0.0213748352487857" flag="0"/>
			<psa10 value="0.00393577510078467" flag="0"/>
			<psa30 value="0.00112944929963881" flag="0"/>
		</comp>
		<comp name=".HNN" depth="0.0">
			<acc value="0.035608440443886" flag="0"/>
			<vel value="0.00448247177681" flag="0"/>
			<psa03 value="0.0224760644498026" flag="0"/>
			<psa10 value="0.00542781097209487" flag="0"/>
			<psa30 value="0.00150704473015106" flag="0"/>
		</comp>
		<comp name=".HNZ" depth="0.0">
			<acc value="0.083367268548786" flag="0"/>
			<vel value="0.011294391518" flag="0"/>
			<psa03 value="0.0132242809916469" flag="0"/>
			<psa10 value="0.00339253122291706" flag="0"/>
			<psa30 value="0.000550304059111629" flag="0"/>
		</comp>
	</station>
	<station code="GMLD" name="GMLD" netid="KO" source="Bogazici University Kandilli Observatory And Earthquake Research Institute (KOERI)" insttype="" lat="38.0766" lon="26.9157">
		<comp name=".HNE" depth="0.0">
			<acc value="0.0108566870058" flag="0"/>
			<vel value="0.00535396002676" flag="0"/>
			<psa03 value="0.0272188708249596" flag="0"/>
			<psa10 value="0.0037460741746532" flag="0"/>
			<psa30 value="0.000363061759393075" flag="0"/>
		</comp>
		<comp name=".HNN" depth="0.0">
			<acc value="0.008440809956376" flag="0"/>
			<vel value="0.00453434080653" flag="0"/>
			<psa03 value="0.0155981556971088" flag="0"/>
			<psa10 value="0.00309624237648838" flag="0"/>
			<psa30 value="0.000327390568226699" flag="0"/>
		</comp>
		<comp name=".HNZ" depth="0.0">
			<acc value="0.0056219686645776" flag="0"/>
			<vel value="0.00241653107255" flag="0"/>
			<psa03 value="0.0108345113529917" flag="0"/>
			<psa10 value="0.00125968641679203" flag="0"/>
			<psa30 value="0.000523705109560006" flag="0"/>
		</comp>
	</station>
	<station code="KUSD" name="KUSD" netid="KO" source="Bogazici University Kandilli Observatory And Earthquake Research Institute (KOERI)" insttype="" lat="37.8606" lon="27.2868">
		<comp name=".HNE" depth="0.0">
			<acc value="0.0086330930962914" flag="0"/>
			<vel value="0.0012005553727" flag="0"/>
			<psa03 value="0.00322383888902396" flag="0"/>
			<psa10 value="0.00119632784459693" flag="0"/>
			<psa30 value="0.000408282984243986" flag="0"/>
		</comp>
		<comp name=".HNN" depth="0.0">
			<acc value="0.019565362252164" flag="0"/>
			<vel value="0.00175813927304" flag="0"/>
			<psa03 value="0.0039392502138042" flag="0"/>
			<psa10 value="0.00202262266070108" flag="0"/>
			<psa30 value="0.00029022362693266" flag="0"/>
		</comp>
		<comp name=".HNZ" depth="0.0">
			<acc value="0.0046345964604" flag="0"/>
			<vel value="0.000871084454424" flag="0"/>
			<psa03 value="0.00169006931557051" flag="0"/>
			<psa10 value="0.000910986031948396" flag="0"/>
			<psa30 value="0.000338192012936273" flag="0"/>
		</comp>
	</station>
	<station code="YKAV" name="YKAV" netid="KO" source="Bogazici University Kandilli Observatory And Earthquake Research Institute (KOERI)" insttype="" lat="37.1246" lon="27.2801">
		<comp name=".HNE" depth="0.0">
			<acc value="0.011331292598412" flag="0"/>
			<vel value="0.00197290990877" flag="0"/>
			<psa03 value="0.0092721878046646" flag="0"/>
			<psa10 value="0.00308807949198724" flag="0"/>
			<psa30 value="0.000410464144360066" flag="0"/>
		</comp>
		<comp name=".HNN" depth="0.0">
			<acc value="0.01540837217766" flag="0"/>
			<vel value="0.00228989245363" flag="0"/>
			<psa03 value="0.00855736831592342" flag="0"/>
			<psa10 value="0.00266834981195285" flag="0"/>
			<psa30 value="0.000631772216394034" flag="0"/>
		</comp>
		<comp name=".HNZ" depth="0.0">
			<acc value="0.015633341335518" flag="0"/>
			<vel value="0.0025874036747" flag="0"/>
			<psa03 value="0.00894257677681851" flag="0"/>
			<psa10 value="0.00256753328960473" flag="0"/>
			<psa30 value="0.000664222334803555" flag="0"/>
		</comp>
	</station>
</stationlist>
