<?xml version="1.0" encoding="UTF-8" standalone="yes"?>
<!DOCTYPE earthquake SYSTEM "stationlist.dtd">
<stationlist created="" xmlns="ch.ethz.sed.shakemap.usgs.xml">
  <station code="APE" name="APE" netid="GE" insttype="STS-2/N" lat="37.0727" lon="25.523">
    <comp name="--.HHE">
      <acc value="0.0689962413" flag="0"/>
      <vel value="0.0138628290" flag="0"/>
      <psa03 value="0.0696890371" flag="0"/>
      <psa10 value="0.0036442523" flag="0"/>
      <psa30 value="0.0014027063" flag="0"/>
    </comp>
    <comp name="--.HHN">
      <acc value="0.0754698429" flag="0"/>
      <vel value="0.0197301980" flag="0"/>
      <psa03 value="0.0664936777" flag="0"/>
      <psa10 value="0.0043015622" flag="0"/>
      <psa30 value="0.0013030932" flag="0"/>
    </comp>
    <comp name="--.HHZ">
      <acc value="0.0327766808" flag="0"/>
      <vel value="0.0075547278" flag="0"/>
      <psa03 value="0.0362511920" flag="0"/>
      <psa10 value="0.0050439392" flag="0"/>
      <psa30 value="0.0018024910" flag="0"/>
    </comp>
  </station>
  <station code="THERA" name="THERA" netid="GE" insttype="STS-2/N" lat="36.367" lon="25.4753">
    <comp name="--.HHE">
      <acc value="0.0462760010" flag="0"/>
      <vel value="0.0085353760" flag="0"/>
      <psa03 value="0.0310769385" flag="0"/>
      <psa10 value="0.0064223824" flag="0"/>
      <psa30 value="0.0013711044" flag="0"/>
    </comp>
    <comp name="--.HHZ">
      <acc value="0.0248073203" flag="0"/>
      <vel value="0.0059403532" flag="0"/>
      <psa03 value="0.0326842457" flag="0"/>
      <psa10 value="0.0051967870" flag="0"/>
      <psa30 value="0.0007325258" flag="0"/>
    </comp>
    <comp name="--.HHN">
      <acc value="0.0262811149" flag="0"/>
      <vel value="0.0067324619" flag="0"/>
      <psa03 value="0.0208612580" flag="0"/>
      <psa10 value="0.0046408585" flag="0"/>
      <psa30 value="0.0004333191" flag="0"/>
    </comp>
  </station>
  <station code="SNT1" name="SNT1" netid="HA" insttype="30" lat="36.4159" lon="25.4282">
    <comp name="--.HHE">
      <acc value="0.0271076888" flag="0"/>
      <vel value="0.0139593873" flag="0"/>
      <psa03 value="0.0328005873" flag="0"/>
      <psa10 value="0.0084893996" flag="0"/>
      <psa30 value="0.0025073875" flag="0"/>
    </comp>
    <comp name="--.HHN">
      <acc value="0.0318442858" flag="0"/>
      <vel value="0.0168054220" flag="0"/>
      <psa03 value="0.0378466951" flag="0"/>
      <psa10 value="0.0135016359" flag="0"/>
      <psa30 value="0.0023728590" flag="0"/>
    </comp>
    <comp name="--.HHZ">
      <acc value="0.0295185958" flag="0"/>
      <vel value="0.0068099105" flag="0"/>
      <psa03 value="0.0247660293" flag="0"/>
      <psa10 value="0.0052347438" flag="0"/>
      <psa30 value="0.0004957219" flag="0"/>
    </comp>
  </station>
  <station code="NAX1" name="NAX1" netid="HI" insttype="CMG-5TD,ACCELEROMETER,GURALP" lat="37.1014" lon="25.3741">
    <comp name="--.HNE">
      <acc value="0.0447227488" flag="0"/>
      <vel value="0.0128804993" flag="0"/>
      <psa03 value="0.0866005985" flag="0"/>
      <psa10 value="0.0059324047" flag="0"/>
      <psa30 value="0.0005812563" flag="0"/>
    </comp>
    <comp name="--.HNN">
      <acc value="0.0399365363" flag="0"/>
      <vel value="0.0097203300" flag="0"/>
      <psa03 value="0.0418837194" flag="0"/>
      <psa10 value="0.0049771202" flag="0"/>
      <psa30 value="0.0008798859" flag="0"/>
    </comp>
    <comp name="--.HNZ">
      <acc value="0.0255963574" flag="0"/>
      <vel value="0.0078571952" flag="0"/>
      <psa03 value="0.0310514615" flag="0"/>
      <psa10 value="0.0065244114" flag="0"/>
      <psa30 value="0.0012585168" flag="0"/>
    </comp>
  </station>
  <station code="AMGA" name="AMGA" netid="HL" insttype="SMART24" lat="36.8316" lon="25.8938">
    <comp name="--.HHZ">
      <acc value="0.2914317370" flag="0"/>
      <vel value="0.0836272051" flag="0"/>
      <psa03 value="0.3685559223" flag="0"/>
      <psa10 value="0.0297595105" flag="0"/>
      <psa30 value="0.0030198982" flag="0"/>
    </comp>
    <comp name="--.HHE">
      <acc value="0.3876618240" flag="0"/>
      <vel value="0.0950137618" flag="0"/>
      <psa03 value="0.2194862635" flag="0"/>
      <psa10 value="0.0209573874" flag="0"/>
      <psa30 value="0.0022110697" flag="0"/>
    </comp>
    <comp name="--.HHN">
      <acc value="0.3901880094" flag="0"/>
      <vel value="0.0937326606" flag="0"/>
      <psa03 value="0.2192523405" flag="0"/>
      <psa10 value="0.0262297880" flag="0"/>
      <psa30 value="0.0026228073" flag="0"/>
    </comp>
  </station>
  <station code="APE" name="APE" netid="HL" insttype="120" lat="37.0727" lon="25.523">
    <comp name="--.HHE">
      <acc value="0.0662902057" flag="0"/>
      <vel value="0.0131357643" flag="0"/>
      <psa03 value="0.0679968490" flag="0"/>
      <psa10 value="0.0035866805" flag="0"/>
      <psa30 value="0.0013998710" flag="0"/>
    </comp>
    <comp name="--.HHN">
      <acc value="0.0681341791" flag="0"/>
      <vel value="0.0181087690" flag="0"/>
      <psa03 value="0.0644198501" flag="0"/>
      <psa10 value="0.0042444636" flag="0"/>
      <psa30 value="0.0013011294" flag="0"/>
    </comp>
    <comp name="--.HHZ">
      <acc value="0.0307232905" flag="0"/>
      <vel value="0.0073494816" flag="0"/>
      <psa03 value="0.0351912888" flag="0"/>
      <psa10 value="0.0050216314" flag="0"/>
      <psa30 value="0.0017996641" flag="0"/>
    </comp>
  </station>
  <station code="THERA" name="THERA" netid="HL" insttype="120" lat="36.367" lon="25.4753">
    <comp name="--.HHE">
      <acc value="0.0448294565" flag="0"/>
      <vel value="0.0084007519" flag="0"/>
      <psa03 value="0.0302249253" flag="0"/>
      <psa10 value="0.0063769070" flag="0"/>
      <psa30 value="0.0013692744" flag="0"/>
    </comp>
    <comp name="--.HHN">
      <acc value="0.0267427173" flag="0"/>
      <vel value="0.0066267374" flag="0"/>
      <psa03 value="0.0202619261" flag="0"/>
      <psa10 value="0.0046120066" flag="0"/>
      <psa30 value="0.0004332842" flag="0"/>
    </comp>
    <comp name="--.HHZ">
      <acc value="0.0247706575" flag="0"/>
      <vel value="0.0057989951" flag="0"/>
      <psa03 value="0.0317959987" flag="0"/>
      <psa10 value="0.0051816206" flag="0"/>
      <psa30 value="0.0007322683" flag="0"/>
    </comp>
  </station>
  <station code="CMBO" name="CMBO" netid="HT" insttype="120P," lat="36.4709" lon="25.4056">
    <comp name="--.HHE">
      <acc value="0.1375059518" flag="0"/>
      <vel value="0.0651848166" flag="0"/>
      <psa03 value="0.3365228896" flag="0"/>
      <psa10 value="0.0352027050" flag="0"/>
      <psa30 value="0.0056136751" flag="0"/>
    </comp>
    <comp name="--.HHN">
      <acc value="0.2216746852" flag="0"/>
      <vel value="0.0942953896" flag="0"/>
      <psa03 value="0.4488290611" flag="0"/>
      <psa10 value="0.0632022863" flag="0"/>
      <psa30 value="0.0065180932" flag="0"/>
    </comp>
    <comp name="--.HHZ">
      <acc value="0.1529054317" flag="0"/>
      <vel value="0.0537797370" flag="0"/>
      <psa03 value="0.3307025926" flag="0"/>
      <psa10 value="0.0191593160" flag="0"/>
      <psa30 value="0.0042703549" flag="0"/>
    </comp>
  </station>
</stationlist>
