<?xml version="1.0" encoding="UTF-8" standalone="yes"?>
<!DOCTYPE earthquake SYSTEM "stationlist.dtd">
<stationlist created="" xmlns="ch.ethz.sed.shakemap.usgs.xml">
  <station code="ACB" name="ACB" netid="CH" insttype="Trillium 240s_g2" lat="47.5877" lon="8.25474">
    <comp name="--.HHZ">
      <acc value="0.0784673565" flag="0"/>
      <vel value="0.0240355882" flag="0"/>
      <psa03 value="0.1695386131" flag="0"/>
      <psa10 value="0.0046395200" flag="0"/>
      <psa30 value="0.0005591296" flag="0"/>
    </comp>
    <comp name="--.HHN">
      <acc value="0.1307255278" flag="0"/>
      <vel value="0.0497088864" flag="0"/>
      <psa03 value="0.2185392506" flag="0"/>
      <psa10 value="0.0090530457" flag="0"/>
      <psa30 value="0.0009418378" flag="0"/>
    </comp>
    <comp name="--.HHE">
      <acc value="0.1213809887" flag="0"/>
      <vel value="0.0435922794" flag="0"/>
      <psa03 value="0.1829094199" flag="0"/>
      <psa10 value="0.0103108873" flag="0"/>
      <psa30 value="0.0006985475" flag="0"/>
    </comp>
  </station>
  <station code="BERGE" name="BERGE" netid="CH" insttype="Trillium Compact 120s" lat="47.8716" lon="8.17798">
    <comp name="--.HHZ">
      <acc value="0.0880520111" flag="0"/>
      <vel value="0.0179750967" flag="0"/>
      <psa03 value="0.0302841284" flag="0"/>
      <psa10 value="0.0048082670" flag="0"/>
      <psa30 value="0.0003605099" flag="0"/>
    </comp>
    <comp name="--.HHE">
      <acc value="0.1623526368" flag="0"/>
      <vel value="0.0349349399" flag="0"/>
      <psa03 value="0.0646805912" flag="0"/>
      <psa10 value="0.0041343276" flag="0"/>
      <psa30 value="0.0003788601" flag="0"/>
    </comp>
    <comp name="--.HHN">
      <acc value="0.1535007261" flag="0"/>
      <vel value="0.0223622497" flag="0"/>
      <psa03 value="0.0637438586" flag="0"/>
      <psa10 value="0.0061209940" flag="0"/>
      <psa30 value="0.0004548064" flag="0"/>
    </comp>
  </station>
  <station code="BOBI" name="BOBI" netid="CH" insttype="EpiSensor ES-T" lat="47.5463" lon="8.33992">
    <comp name="SF.HGZ">
      <acc value="0.1422689257" flag="0"/>
      <vel value="0.0237492776" flag="0"/>
      <psa03 value="0.1065653724" flag="0"/>
      <psa10 value="0.0045015706" flag="0"/>
      <psa30 value="0.0005203717" flag="0"/>
    </comp>
    <comp name="SF.HGE">
      <acc value="0.2035822803" flag="0"/>
      <vel value="0.0355852206" flag="0"/>
      <psa03 value="0.1320059490" flag="0"/>
      <psa10 value="0.0070201215" flag="0"/>
      <psa30 value="0.0008862883" flag="0"/>
    </comp>
    <comp name="SF.HGN">
      <acc value="0.3194409288" flag="0"/>
      <vel value="0.0566486532" flag="0"/>
      <psa03 value="0.1623452315" flag="0"/>
      <psa10 value="0.0085828834" flag="0"/>
      <psa30 value="0.0007396749" flag="0"/>
    </comp>
  </station>
  <station code="BULAC" name="BULAC" netid="CH" insttype="ABBT" lat="47.5424" lon="8.52044">
    <comp name="BT.HG1">
      <acc value="0.0662773130" flag="0"/>
      <vel value="0.0123156809" flag="0"/>
      <psa03 value="0.0255184506" flag="0"/>
      <psa10 value="0.0022106514" flag="0"/>
      <psa30 value="0.0002415563" flag="0"/>
    </comp>
    <comp name="BT.HG2">
      <acc value="0.0622236528" flag="0"/>
      <vel value="0.0118431903" flag="0"/>
      <psa03 value="0.0424238334" flag="0"/>
      <psa10 value="0.0016550156" flag="0"/>
      <psa30 value="0.0002134565" flag="0"/>
    </comp>
    <comp name="BT.HGZ">
      <acc value="0.0434026082" flag="0"/>
      <vel value="0.0088356328" flag="0"/>
      <psa03 value="0.0292451485" flag="0"/>
      <psa10 value="0.0014794244" flag="0"/>
      <psa30 value="0.0001587516" flag="0"/>
    </comp>
  </station>
  <station code="EMING" name="EMING" netid="CH" insttype="Trillium Compact 120s" lat="47.8952" lon="8.84676">
    <comp name="--.HHE">
      <acc value="0.1641572011" flag="0"/>
      <vel value="0.0238517305" flag="0"/>
      <psa03 value="0.0923313617" flag="0"/>
      <psa10 value="0.0039559065" flag="0"/>
      <psa30 value="0.0004145118" flag="0"/>
    </comp>
    <comp name="--.HHZ">
      <acc value="0.0838331535" flag="0"/>
      <vel value="0.0113843229" flag="0"/>
      <psa03 value="0.0421667485" flag="0"/>
      <psa10 value="0.0017147566" flag="0"/>
      <psa30 value="0.0002342612" flag="0"/>
    </comp>
    <comp name="--.HHN">
      <acc value="0.2054649873" flag="0"/>
      <vel value="0.0358089066" flag="0"/>
      <psa03 value="0.0838057050" flag="0"/>
      <psa10 value="0.0051171582" flag="0"/>
      <psa30 value="0.0004663091" flag="0"/>
    </comp>
  </station>
  <station code="EMMET" name="EMMET" netid="CH" insttype="Trillium Compact 120s" lat="47.4376" lon="8.01358">
    <comp name="--.HHN">
      <acc value="0.0554664017" flag="0"/>
      <vel value="0.0289621147" flag="0"/>
      <psa03 value="0.0680473157" flag="0"/>
      <psa10 value="0.0213127055" flag="0"/>
      <psa30 value="0.0011381032" flag="0"/>
    </comp>
    <comp name="--.HHZ">
      <acc value="0.0402294369" flag="0"/>
      <vel value="0.0104645537" flag="0"/>
      <psa03 value="0.0571010814" flag="0"/>
      <psa10 value="0.0078680477" flag="0"/>
      <psa30 value="0.0003888989" flag="0"/>
    </comp>
    <comp name="--.HHE">
      <acc value="0.0491256453" flag="0"/>
      <vel value="0.0262031150" flag="0"/>
      <psa03 value="0.0855219517" flag="0"/>
      <psa10 value="0.0126201912" flag="0"/>
      <psa30 value="0.0007564969" flag="0"/>
    </comp>
  </station>
  <station code="HAUIG" name="HAUIG" netid="CH" insttype="Trillium Compact 120s" lat="47.6604" lon="7.70018">
    <comp name="--.HHZ">
      <acc value="0.1358927396" flag="0"/>
      <vel value="0.0233744128" flag="0"/>
      <psa03 value="0.0560110218" flag="0"/>
      <psa10 value="0.0050877764" flag="0"/>
      <psa30 value="0.0004720969" flag="0"/>
    </comp>
    <comp name="--.HHE">
      <acc value="0.2127610056" flag="0"/>
      <vel value="0.0349190353" flag="0"/>
      <psa03 value="0.1146125406" flag="0"/>
      <psa10 value="0.0090978066" flag="0"/>
      <psa30 value="0.0004939350" flag="0"/>
    </comp>
    <comp name="--.HHN">
      <acc value="0.2587006831" flag="0"/>
      <vel value="0.0547538121" flag="0"/>
      <psa03 value="0.1749151079" flag="0"/>
      <psa10 value="0.0103010586" flag="0"/>
      <psa30 value="0.0010272050" flag="0"/>
    </comp>
  </station>
  <station code="LIENZ" name="LIENZ" netid="CH" insttype="STS2.5" lat="47.2944" lon="9.49177">
    <comp name="--.HHE">
      <acc value="0.0120243753" flag="0"/>
      <vel value="0.0030986427" flag="0"/>
      <psa03 value="0.0094765564" flag="0"/>
      <psa10 value="0.0016952980" flag="0"/>
      <psa30 value="0.0001408143" flag="0"/>
    </comp>
    <comp name="--.HHZ">
      <acc value="0.0120706661" flag="0"/>
      <vel value="0.0034380411" flag="0"/>
      <psa03 value="0.0073807688" flag="0"/>
      <psa10 value="0.0021198984" flag="0"/>
      <psa30 value="0.0002027013" flag="0"/>
    </comp>
    <comp name="--.HHN">
      <acc value="0.0141003407" flag="0"/>
      <vel value="0.0034985818" flag="0"/>
      <psa03 value="0.0102848614" flag="0"/>
      <psa10 value="0.0030182984" flag="0"/>
      <psa30 value="0.0001380599" flag="0"/>
    </comp>
  </station>
  <station code="METMA" name="METMA" netid="CH" insttype="Trillium Compact 120s" lat="47.7122" lon="8.25262">
    <comp name="--.HHN">
      <acc value="0.1510485918" flag="0"/>
      <vel value="0.0255108547" flag="0"/>
      <psa03 value="0.0710864032" flag="0"/>
      <psa10 value="0.0043663427" flag="0"/>
      <psa30 value="0.0004841747" flag="0"/>
    </comp>
    <comp name="--.HHE">
      <acc value="0.1684356480" flag="0"/>
      <vel value="0.0300426469" flag="0"/>
      <psa03 value="0.0473233869" flag="0"/>
      <psa10 value="0.0056346688" flag="0"/>
      <psa30 value="0.0004858728" flag="0"/>
    </comp>
    <comp name="--.HHZ">
      <acc value="0.1039880908" flag="0"/>
      <vel value="0.0371491187" flag="0"/>
      <psa03 value="0.1384230981" flag="0"/>
      <psa10 value="0.0080162078" flag="0"/>
      <psa30 value="0.0006634851" flag="0"/>
    </comp>
  </station>
  <station code="ROMAN" name="ROMAN" netid="CH" insttype="Trillium Borehole 120s" lat="47.5643" lon="9.33595">
    <comp name="BT.HH3">
      <acc value="0.0405052048" flag="0"/>
      <vel value="0.0091715307" flag="0"/>
      <psa03 value="0.0303516378" flag="0"/>
      <psa10 value="0.0026395944" flag="0"/>
      <psa30 value="0.0002147503" flag="0"/>
    </comp>
    <comp name="BT.HH2">
      <acc value="0.0242430247" flag="0"/>
      <vel value="0.0068636160" flag="0"/>
      <psa03 value="0.0292881649" flag="0"/>
      <psa10 value="0.0017763253" flag="0"/>
      <psa30 value="0.0001469019" flag="0"/>
    </comp>
    <comp name="BT.HHZ">
      <acc value="0.0174066972" flag="0"/>
      <vel value="0.0041794161" flag="0"/>
      <psa03 value="0.0188460346" flag="0"/>
      <psa10 value="0.0011567911" flag="0"/>
      <psa30 value="0.0000935702" flag="0"/>
    </comp>
  </station>
  <station code="ROTHE" name="ROTHE" netid="CH" insttype="Trillium Compact 120s" lat="47.4761" lon="7.92093">
    <comp name="--.HHN">
      <acc value="0.0452979427" flag="0"/>
      <vel value="0.0112939572" flag="0"/>
      <psa03 value="0.0379327193" flag="0"/>
      <psa10 value="0.0052686116" flag="0"/>
      <psa30 value="0.0003114584" flag="0"/>
    </comp>
    <comp name="--.HHZ">
      <acc value="0.0287690910" flag="0"/>
      <vel value="0.0075998012" flag="0"/>
      <psa03 value="0.0379908292" flag="0"/>
      <psa10 value="0.0057942361" flag="0"/>
      <psa30 value="0.0002499767" flag="0"/>
    </comp>
    <comp name="--.HHE">
      <acc value="0.0720931314" flag="0"/>
      <vel value="0.0164841511" flag="0"/>
      <psa03 value="0.0539769711" flag="0"/>
      <psa10 value="0.0067354691" flag="0"/>
      <psa30 value="0.0003232878" flag="0"/>
    </comp>
  </station>
  <station code="SAARA" name="SAARA" netid="CH" insttype="EpiSensor ES-T" lat="47.3861" lon="8.04375">
    <comp name="--.HGE">
      <acc value="0.0434177169" flag="0"/>
      <vel value="0.0061267746" flag="0"/>
      <psa03 value="0.0093215270" flag="0"/>
      <psa10 value="0.0007583391" flag="0"/>
      <psa30 value="0.0000982509" flag="0"/>
    </comp>
    <comp name="--.HGZ">
      <acc value="0.0129935229" flag="0"/>
      <vel value="0.0014971736" flag="0"/>
      <psa03 value="0.0036139344" flag="0"/>
      <psa10 value="0.0009605367" flag="0"/>
      <psa30 value="0.0000426949" flag="0"/>
    </comp>
    <comp name="--.HGN">
      <acc value="0.0215788965" flag="0"/>
      <vel value="0.0034329560" flag="0"/>
      <psa03 value="0.0084400050" flag="0"/>
      <psa10 value="0.0013992523" flag="0"/>
      <psa30 value="0.0000738479" flag="0"/>
    </comp>
  </station>
  <station code="SAPK" name="SAPK" netid="CH" insttype="EpiSensor ES-T" lat="47.3305" lon="9.40427">
    <comp name="--.HGN">
      <acc value="0.0360600203" flag="0"/>
      <vel value="0.0122738463" flag="0"/>
      <psa03 value="0.0733408416" flag="0"/>
      <psa10 value="0.0038634448" flag="0"/>
      <psa30 value="0.0003987551" flag="0"/>
    </comp>
    <comp name="--.HGE">
      <acc value="0.0396990993" flag="0"/>
      <vel value="0.0120265462" flag="0"/>
      <psa03 value="0.0767900597" flag="0"/>
      <psa10 value="0.0037248051" flag="0"/>
      <psa30 value="0.0002878849" flag="0"/>
    </comp>
    <comp name="--.HGZ">
      <acc value="0.0195430710" flag="0"/>
      <vel value="0.0045425247" flag="0"/>
      <psa03 value="0.0260330290" flag="0"/>
      <psa10 value="0.0019134188" flag="0"/>
      <psa30 value="0.0002198412" flag="0"/>
    </comp>
  </station>
  <station code="SARE" name="SARE" netid="CH" insttype="EpiSensor ES-T" lat="47.5149" lon="9.43023">
    <comp name="--.HGZ">
      <acc value="0.0453468059" flag="0"/>
      <vel value="0.0102659959" flag="0"/>
      <psa03 value="0.0469645260" flag="0"/>
      <psa10 value="0.0039744825" flag="0"/>
      <psa30 value="0.0003175687" flag="0"/>
    </comp>
    <comp name="--.HGE">
      <acc value="0.1020378898" flag="0"/>
      <vel value="0.0222841940" flag="0"/>
      <psa03 value="0.1229915786" flag="0"/>
      <psa10 value="0.0075520768" flag="0"/>
      <psa30 value="0.0004827023" flag="0"/>
    </comp>
    <comp name="--.HGN">
      <acc value="0.1396447361" flag="0"/>
      <vel value="0.0314128311" flag="0"/>
      <psa03 value="0.0958183696" flag="0"/>
      <psa10 value="0.0074790670" flag="0"/>
      <psa30 value="0.0006458066" flag="0"/>
    </comp>
  </station>
  <station code="SCHS" name="SCHS" netid="CH" insttype="EpiSensor ES-T" lat="47.7114" lon="8.63651">
    <comp name="--.HGN">
      <acc value="0.8674120318" flag="0"/>
      <vel value="0.1298935929" flag="0"/>
      <psa03 value="0.3401411405" flag="0"/>
      <psa10 value="0.0123127729" flag="0"/>
      <psa30 value="0.0013689509" flag="0"/>
    </comp>
    <comp name="--.HGE">
      <acc value="0.8668049443" flag="0"/>
      <vel value="0.1491586366" flag="0"/>
      <psa03 value="0.3405555590" flag="0"/>
      <psa10 value="0.0150056939" flag="0"/>
      <psa30 value="0.0012525365" flag="0"/>
    </comp>
    <comp name="--.HGZ">
      <acc value="0.3097781336" flag="0"/>
      <vel value="0.0447046235" flag="0"/>
      <psa03 value="0.1072466042" flag="0"/>
      <psa10 value="0.0046363421" flag="0"/>
      <psa30 value="0.0004787002" flag="0"/>
    </comp>
  </station>
  <station code="SFEL" name="SFEL" netid="CH" insttype="EpiSensor ES-T" lat="47.5326" lon="8.23088">
    <comp name="--.HGE">
      <acc value="0.2837720625" flag="0"/>
      <vel value="0.0584656274" flag="0"/>
      <psa03 value="0.1521798578" flag="0"/>
      <psa10 value="0.0071329439" flag="0"/>
      <psa30 value="0.0007875274" flag="0"/>
    </comp>
    <comp name="--.HGZ">
      <acc value="0.1599669733" flag="0"/>
      <vel value="0.0350665609" flag="0"/>
      <psa03 value="0.1081113145" flag="0"/>
      <psa10 value="0.0042911441" flag="0"/>
      <psa30 value="0.0005624185" flag="0"/>
    </comp>
    <comp name="--.HGN">
      <acc value="0.2503557192" flag="0"/>
      <vel value="0.0553205909" flag="0"/>
      <psa03 value="0.2050012564" flag="0"/>
      <psa10 value="0.0074290088" flag="0"/>
      <psa30 value="0.0008920272" flag="0"/>
    </comp>
  </station>
  <station code="SKRK" name="SKRK" netid="CH" insttype="EpiSensor ES-T" lat="47.6481" lon="9.18059">
    <comp name="--.HGN">
      <acc value="0.0667145476" flag="0"/>
      <vel value="0.0146753094" flag="0"/>
      <psa03 value="0.0819588449" flag="0"/>
      <psa10 value="0.0073059555" flag="0"/>
      <psa30 value="0.0004357658" flag="0"/>
    </comp>
    <comp name="--.HGZ">
      <acc value="0.0609401492" flag="0"/>
      <vel value="0.0141182839" flag="0"/>
      <psa03 value="0.0359348295" flag="0"/>
      <psa10 value="0.0019788820" flag="0"/>
      <psa30 value="0.0001729420" flag="0"/>
    </comp>
    <comp name="--.HGE">
      <acc value="0.0809534126" flag="0"/>
      <vel value="0.0225075243" flag="0"/>
      <psa03 value="0.1206410714" flag="0"/>
      <psa10 value="0.0104280450" flag="0"/>
      <psa30 value="0.0006346929" flag="0"/>
    </comp>
  </station>
  <station code="SLE" name="SLE" netid="CH" insttype="STS2.5" lat="47.7645" lon="8.49236">
    <comp name="--.HHZ">
      <acc value="0.1146180125" flag="0"/>
      <vel value="0.0219208915" flag="0"/>
      <psa03 value="0.0818758662" flag="0"/>
      <psa10 value="0.0040191526" flag="0"/>
      <psa30 value="0.0003840320" flag="0"/>
    </comp>
    <comp name="--.HHN">
      <acc value="0.2247054357" flag="0"/>
      <vel value="0.0570862817" flag="0"/>
      <psa03 value="0.2084941751" flag="0"/>
      <psa10 value="0.0080757334" flag="0"/>
      <psa30 value="0.0009228202" flag="0"/>
    </comp>
    <comp name="--.HHE">
      <acc value="0.2623860149" flag="0"/>
      <vel value="0.0522274531" flag="0"/>
      <psa03 value="0.2182541619" flag="0"/>
      <psa10 value="0.0078316384" flag="0"/>
      <psa30 value="0.0006715221" flag="0"/>
    </comp>
  </station>
  <station code="SRFW" name="SRFW" netid="CH" insttype="EpiSensor ES-T" lat="47.5532" lon="7.80678">
    <comp name="--.HGN">
      <acc value="0.2791647399" flag="0"/>
      <vel value="0.0375907122" flag="0"/>
      <psa03 value="0.0923691244" flag="0"/>
      <psa10 value="0.0088513496" flag="0"/>
      <psa30 value="0.0005299066" flag="0"/>
    </comp>
    <comp name="--.HGZ">
      <acc value="0.1736307100" flag="0"/>
      <vel value="0.0280833487" flag="0"/>
      <psa03 value="0.0687551155" flag="0"/>
      <psa10 value="0.0038433979" flag="0"/>
      <psa30 value="0.0003774720" flag="0"/>
    </comp>
    <comp name="--.HGE">
      <acc value="0.3209240505" flag="0"/>
      <vel value="0.0484308794" flag="0"/>
      <psa03 value="0.0973465864" flag="0"/>
      <psa10 value="0.0054975887" flag="0"/>
      <psa30 value="0.0005656605" flag="0"/>
    </comp>
  </station>
  <station code="STGK" name="STGK" netid="CH" insttype="EpiSensor ES-T" lat="47.4241" lon="9.37849">
    <comp name="--.HGE">
      <acc value="0.1117678462" flag="0"/>
      <vel value="0.0229942844" flag="0"/>
      <psa03 value="0.0599409682" flag="0"/>
      <psa10 value="0.0032397301" flag="0"/>
      <psa30 value="0.0003236764" flag="0"/>
    </comp>
    <comp name="--.HGZ">
      <acc value="0.0984777445" flag="0"/>
      <vel value="0.0138921605" flag="0"/>
      <psa03 value="0.0488967547" flag="0"/>
      <psa10 value="0.0020646349" flag="0"/>
      <psa30 value="0.0001820875" flag="0"/>
    </comp>
    <comp name="--.HGN">
      <acc value="0.0915354719" flag="0"/>
      <vel value="0.0168305586" flag="0"/>
      <psa03 value="0.1090315634" flag="0"/>
      <psa10 value="0.0041983819" flag="0"/>
      <psa30 value="0.0003216750" flag="0"/>
    </comp>
  </station>
  <station code="STIEG" name="STIEG" netid="CH" insttype="EpiSensor ES-T" lat="47.4978" lon="8.65405">
    <comp name="SF.HGN">
      <acc value="0.2142068383" flag="0"/>
      <vel value="0.0732425397" flag="0"/>
      <psa03 value="0.3238577811" flag="0"/>
      <psa10 value="0.0222352562" flag="0"/>
      <psa30 value="0.0024879455" flag="0"/>
    </comp>
    <comp name="SF.HGZ">
      <acc value="0.1352574141" flag="0"/>
      <vel value="0.0301928923" flag="0"/>
      <psa03 value="0.0826302252" flag="0"/>
      <psa10 value="0.0066751112" flag="0"/>
      <psa30 value="0.0005409029" flag="0"/>
    </comp>
    <comp name="SF.HGE">
      <acc value="0.3234419590" flag="0"/>
      <vel value="0.0686294694" flag="0"/>
      <psa03 value="0.3093092240" flag="0"/>
      <psa10 value="0.0148528052" flag="0"/>
      <psa30 value="0.0013932688" flag="0"/>
    </comp>
  </station>
  <station code="SULZ" name="SULZ" netid="CH" insttype="STS2_gen3" lat="47.5275" lon="8.11187">
    <comp name="--.HHN">
      <acc value="0.0856602060" flag="0"/>
      <vel value="0.0164991277" flag="0"/>
      <psa03 value="0.0429992100" flag="0"/>
      <psa10 value="0.0062624054" flag="0"/>
      <psa30 value="0.0004047706" flag="0"/>
    </comp>
    <comp name="--.HHZ">
      <acc value="0.0918402732" flag="0"/>
      <vel value="0.0168905903" flag="0"/>
      <psa03 value="0.0751296202" flag="0"/>
      <psa10 value="0.0050583368" flag="0"/>
      <psa30 value="0.0004063779" flag="0"/>
    </comp>
    <comp name="--.HHE">
      <acc value="0.1008777453" flag="0"/>
      <vel value="0.0218711116" flag="0"/>
      <psa03 value="0.0648771566" flag="0"/>
      <psa10 value="0.0074537069" flag="0"/>
      <psa30 value="0.0005067028" flag="0"/>
    </comp>
  </station>
  <station code="SWIK" name="SWIK" netid="CH" insttype="EpiSensor ES-T" lat="47.4596" lon="9.03459">
    <comp name="--.HGZ">
      <acc value="0.1316354722" flag="0"/>
      <vel value="0.0263564040" flag="0"/>
      <psa03 value="0.1645254090" flag="0"/>
