<stationlist created="1778205334">
	<station code="LIENZ" name="LIENZ" netid="CH" source="Switzerland Seismological Network" insttype="" lat="47.294601" lon="9.4927">
		<comp name="--.HGE" depth="0.0">
			<acc value="0.0134644201771327" flag="0"/>
			<vel value="0.00319716584035295" flag="0"/>
			<psa03 value="0.0100973414253532" flag="0"/>
			<psa10 value="0.00157643685308059" flag="0"/>
			<psa30 value="0.000141557906162597" flag="0"/>
		</comp>
		<comp name="--.HGN" depth="0.0">
			<acc value="0.0136899503137041" flag="0"/>
			<vel value="0.00351172995071553" flag="0"/>
			<psa03 value="0.0109503998894026" flag="0"/>
			<psa10 value="0.00335958154016459" flag="0"/>
			<psa30 value="0.000146675055044245" flag="0"/>
		</comp>
		<comp name="--.HGZ" depth="0.0">
			<acc value="0.0122996871172433" flag="0"/>
			<vel value="0.00361735137287006" flag="0"/>
			<psa03 value="0.00780689542373783" flag="0"/>
			<psa10 value="0.00224265887764369" flag="0"/>
			<psa30 value="0.000191093765795134" flag="0"/>
		</comp>
	</station>
	<station code="CIEL" name="CIEL" netid="FR" source="RESIF and other broad-band and accelerometric permanent networks in metropolitan France (RESIF)" insttype="" lat="48.832627" lon="7.363752">
		<comp name="01.HNE" depth="0.0">
			<acc value="0.0866004271255542" flag="0"/>
			<vel value="0.0200970961666635" flag="0"/>
			<psa03 value="0.0823927966599837" flag="0"/>
			<psa10 value="0.00550078518128551" flag="0"/>
			<psa30 value="0.000341707089542628" flag="0"/>
		</comp>
		<comp name="01.HNN" depth="0.0">
			<acc value="0.102386653747362" flag="0"/>
			<vel value="0.0237442114014013" flag="0"/>
			<psa03 value="0.0636902399992312" flag="0"/>
			<psa10 value="0.00518433874951799" flag="0"/>
			<psa30 value="0.000368905531931114" flag="0"/>
		</comp>
		<comp name="01.HNZ" depth="0.0">
			<acc value="0.0793783581897565" flag="0"/>
			<vel value="0.0138136143170741" flag="0"/>
			<psa03 value="0.0275250603793511" flag="0"/>
			<psa10 value="0.00277708123362934" flag="0"/>
			<psa30 value="0.000172900320985036" flag="0"/>
		</comp>
	</station>
	<station code="HOHE" name="HOHE" netid="FR" source="RESIF and other broad-band and accelerometric permanent networks in metropolitan France (RESIF)" insttype="" lat="48.658742" lon="7.484304">
		<comp name="01.HNE" depth="0.0">
			<acc value="0.368084525921285" flag="0"/>
			<vel value="0.0727739189491425" flag="0"/>
			<psa03 value="0.172988220037375" flag="0"/>
			<psa10 value="0.0111212182886165" flag="0"/>
			<psa30 value="0.000964479204515393" flag="0"/>
		</comp>
		<comp name="01.HNN" depth="0.0">
			<acc value="0.326040730989171" flag="0"/>
			<vel value="0.0564314074373206" flag="0"/>
			<psa03 value="0.1880210388046" flag="0"/>
			<psa10 value="0.00694183830021285" flag="0"/>
			<psa30 value="0.000644080115062379" flag="0"/>
		</comp>
		<comp name="01.HNZ" depth="0.0">
			<acc value="0.174595705843343" flag="0"/>
			<vel value="0.0224272150205304" flag="0"/>
			<psa03 value="0.06428407621269" flag="0"/>
			<psa10 value="0.0034326354421276" flag="0"/>
			<psa30 value="0.000304795712053193" flag="0"/>
		</comp>
	</station>
	<station code="ILLF" name="ILLF" netid="FR" source="RESIF and other broad-band and accelerometric permanent networks in metropolitan France (RESIF)" insttype="" lat="47.683438" lon="7.254296">
		<comp name="01.HNE" depth="0.0">
			<acc value="0.102251857353177" flag="0"/>
			<vel value="0.0231401164884282" flag="0"/>
			<psa03 value="0.145617938140472" flag="0"/>
			<psa10 value="0.0054535203314438" flag="0"/>
			<psa30 value="0.000394593978456345" flag="0"/>
		</comp>
		<comp name="01.HNN" depth="0.0">
			<acc value="0.117010658664301" flag="0"/>
			<vel value="0.0253193671559858" flag="0"/>
			<psa03 value="0.115794879175745" flag="0"/>
			<psa10 value="0.00431450003320385" flag="0"/>
			<psa30 value="0.000503143851644774" flag="0"/>
		</comp>
		<comp name="01.HNZ" depth="0.0">
			<acc value="0.0574724163358231" flag="0"/>
			<vel value="0.0118716957524146" flag="0"/>
			<psa03 value="0.0557412759193762" flag="0"/>
			<psa10 value="0.00165509561852342" flag="0"/>
			<psa30 value="0.000195559465271496" flag="0"/>
		</comp>
	</station>
	<station code="NEEW" name="NEEW" netid="FR" source="RESIF and other broad-band and accelerometric permanent networks in metropolitan France (RESIF)" insttype="" lat="48.955972" lon="8.104039">
		<comp name="01.HNE" depth="0.0">
			<acc value="0.143528147555416" flag="0"/>
			<vel value="0.0239277361081357" flag="0"/>
			<psa03 value="0.126451376783097" flag="0"/>
			<psa10 value="0.00559042549451735" flag="0"/>
			<psa30 value="0.000654008012321891" flag="0"/>
		</comp>
		<comp name="01.HNN" depth="0.0">
			<acc value="0.183424687197438" flag="0"/>
			<vel value="0.0387278804335402" flag="0"/>
			<psa03 value="0.0859482717760495" flag="0"/>
			<psa10 value="0.00728244945777674" flag="0"/>
			<psa30 value="0.000438167411857339" flag="0"/>
		</comp>
		<comp name="01.HNZ" depth="0.0">
			<acc value="0.0629502928117371" flag="0"/>
			<vel value="0.0094454799525161" flag="0"/>
			<psa03 value="0.029660233074053" flag="0"/>
			<psa10 value="0.00189653766756085" flag="0"/>
			<psa30 value="0.000170831551126906" flag="0"/>
		</comp>
	</station>
	<station code="SZBH" name="SZBH" netid="FR" source="RESIF and other broad-band and accelerometric permanent networks in metropolitan France (RESIF)" insttype="" lat="48.932541" lon="7.863045">
		<comp name="01.HNE" depth="0.0">
			<acc value="0.104515532701257" flag="0"/>
			<vel value="0.0231030399977297" flag="0"/>
			<psa03 value="0.125911278504276" flag="0"/>
			<psa10 value="0.00672325553895239" flag="0"/>
			<psa30 value="0.000513112845372735" flag="0"/>
		</comp>
		<comp name="01.HNN" depth="0.0">
			<acc value="0.166600500404073" flag="0"/>
			<vel value="0.0267326076966126" flag="0"/>
			<psa03 value="0.0916701664488539" flag="0"/>
			<psa10 value="0.00709620368241299" flag="0"/>
			<psa30 value="0.000448054629338838" flag="0"/>
		</comp>
		<comp name="01.HNZ" depth="0.0">
			<acc value="0.0734568429958384" flag="0"/>
			<vel value="0.0099112602132428" flag="0"/>
			<psa03 value="0.0251225418492733" flag="0"/>
			<psa10 value="0.00153100692950757" flag="0"/>
			<psa30 value="0.000131548362870762" flag="0"/>
		</comp>
	</station>
	<station code="VOEL" name="VOEL" netid="FR" source="RESIF and other broad-band and accelerometric permanent networks in metropolitan France (RESIF)" insttype="" lat="48.966744" lon="7.12266">
		<comp name="01.HNE" depth="0.0">
			<acc value="0.117271219248433" flag="0"/>
			<vel value="0.0301458186939076" flag="0"/>
			<psa03 value="0.167623187546859" flag="0"/>
			<psa10 value="0.00618143417717805" flag="0"/>
			<psa30 value="0.000511774683810799" flag="0"/>
		</comp>
		<comp name="01.HNN" depth="0.0">
			<acc value="0.149559579956943" flag="0"/>
			<vel value="0.0449385275093005" flag="0"/>
			<psa03 value="0.17210753669618" flag="0"/>
			<psa10 value="0.00558821097281741" flag="0"/>
			<psa30 value="0.000620327187381475" flag="0"/>
		</comp>
		<comp name="01.HNZ" depth="0.0">
			<acc value="0.0384456487078989" flag="0"/>
			<vel value="0.00660186835350669" flag="0"/>
			<psa03 value="0.0230698016986457" flag="0"/>
			<psa10 value="0.000889583657113861" flag="0"/>
			<psa30 value="7.54471203973092e-05" flag="0"/>
		</comp>
	</station>
	<station code="WALT" name="WALT" netid="FR" source="RESIF and other broad-band and accelerometric permanent networks in metropolitan France (RESIF)" insttype="" lat="47.965735" lon="7.27652">
		<comp name="01.HNE" depth="0.0">
			<acc value="0.0906232433692484" flag="0"/>
			<vel value="0.0178565770363267" flag="0"/>
			<psa03 value="0.0617849210727949" flag="0"/>
			<psa10 value="0.00484574756951064" flag="0"/>
			<psa30 value="0.00026217223741587" flag="0"/>
		</comp>
		<comp name="01.HNN" depth="0.0">
			<acc value="0.0979970396559343" flag="0"/>
			<vel value="0.0193140199512081" flag="0"/>
			<psa03 value="0.0750167038635603" flag="0"/>
			<psa10 value="0.00410286226325344" flag="0"/>
			<psa30 value="0.00029148493444656" flag="0"/>
		</comp>
		<comp name="01.HNZ" depth="0.0">
			<acc value="0.0805937866628142" flag="0"/>
			<vel value="0.015766053415771" flag="0"/>
			<psa03 value="0.0284575075660312" flag="0"/>
			<psa10 value="0.00210007911993313" flag="0"/>
			<psa30 value="0.000157424308796188" flag="0"/>
		</comp>
	</station>
	<station code="ZELS" name="ZELS" netid="FR" source="RESIF and other broad-band and accelerometric permanent networks in metropolitan France (RESIF)" insttype="" lat="48.302306" lon="7.631582">
		<comp name="01.HNE" depth="0.0">
			<acc value="0.624216214041743" flag="0"/>
			<vel value="0.0904777609175507" flag="0"/>
			<psa03 value="0.150734683349878" flag="0"/>
			<psa10 value="0.00913951388545379" flag="0"/>
			<psa30 value="0.000853404763041892" flag="0"/>
		</comp>
		<comp name="01.HNN" depth="0.0">
			<acc value="0.696358254377969" flag="0"/>
			<vel value="0.131434728085875" flag="0"/>
			<psa03 value="0.249202883468079" flag="0"/>
			<psa10 value="0.0100820591369312" flag="0"/>
			<psa30 value="0.00141261962078494" flag="0"/>
		</comp>
		<comp name="01.HNZ" depth="0.0">
			<acc value="0.181992593573859" flag="0"/>
			<vel value="0.03491129120918" flag="0"/>
			<psa03 value="0.0493727498691169" flag="0"/>
			<psa10 value="0.00486742119278445" flag="0"/>
			<psa30 value="0.000294759864936206" flag="0"/>
		</comp>
	</station>
	<station code="ECH" name="ECH" netid="RA" source="Reseau Accelerometrique Permanent (French Accelerometrique Network) (RAP)" insttype="" lat="48.215463" lon="7.158735">
		<comp name="00.HNE" depth="0.0">
			<acc value="0.0384932074911394" flag="0"/>
			<vel value="0.00631997474213023" flag="0"/>
			<psa03 value="0.020314830132802" flag="0"/>
			<psa10 value="0.00117962564440964" flag="0"/>
			<psa30 value="7.62346660578791e-05" flag="0"/>
		</comp>
		<comp name="00.HNN" depth="0.0">
			<acc value="0.0398564000909085" flag="0"/>
			<vel value="0.00691480907913314" flag="0"/>
			<psa03 value="0.0204149461400035" flag="0"/>
			<psa10 value="0.00160613495324427" flag="0"/>
			<psa30 value="0.000164251362617343" flag="0"/>
		</comp>
		<comp name="00.HNZ" depth="0.0">
			<acc value="0.0421102022870386" flag="0"/>
			<vel value="0.00824480194063864" flag="0"/>
			<psa03 value="0.0238358941151615" flag="0"/>
			<psa10 value="0.00152287228906439" flag="0"/>
			<psa30 value="0.000106997348465854" flag="0"/>
		</comp>
	</station>
	<station code="STBO" name="STBO" netid="RA" source="Reseau Accelerometrique Permanent (French Accelerometrique Network) (RAP)" insttype="" lat="47.8609" lon="7.26216">
		<comp name="00.HNE" depth="0.0">
			<acc value="0.116274644876972" flag="0"/>
			<vel value="0.0330948589300517" flag="0"/>
			<psa03 value="0.123816775170484" flag="0"/>
			<psa10 value="0.00730290565665531" flag="0"/>
			<psa30 value="0.000486583067075677" flag="0"/>
		</comp>
		<comp name="00.HNN" depth="0.0">
			<acc value="0.205668431899763" flag="0"/>
			<vel value="0.0472073704380136" flag="0"/>
			<psa03 value="0.144100973065568" flag="0"/>
			<psa10 value="0.00962932727066244" flag="0"/>
			<psa30 value="0.000712807324153761" flag="0"/>
		</comp>
		<comp name="00.HNZ" depth="0.0">
			<acc value="0.106227553627919" flag="0"/>
			<vel value="0.0184484733515369" flag="0"/>
			<psa03 value="0.0429792039321744" flag="0"/>
			<psa10 value="0.00269848094861743" flag="0"/>
			<psa30 value="0.000240906245314705" flag="0"/>
		</comp>
	</station>
	<station code="STBR" name="STBR" netid="RA" source="Reseau Accelerometrique Permanent (French Accelerometrique Network) (RAP)" insttype="" lat="47.7267" lon="7.32445">
		<comp name="00.HNE" depth="0.0">
			<acc value="0.177375765635412" flag="0"/>
			<vel value="0.0248053474700021" flag="0"/>
			<psa03 value="0.045024847258684" flag="0"/>
			<psa10 value="0.00345895351369428" flag="0"/>
			<psa30 value="0.000273401575054223" flag="0"/>
		</comp>
		<comp name="00.HNN" depth="0.0">
			<acc value="0.208757342592905" flag="0"/>
			<vel value="0.0427647520737718" flag="0"/>
			<psa03 value="0.0819535488119545" flag="0"/>
			<psa10 value="0.00418790711580804" flag="0"/>
			<psa30 value="0.000481756028557917" flag="0"/>
		</comp>
		<comp name="00.HNZ" depth="0.0">
			<acc value="0.0491267765450596" flag="0"/>
			<vel value="0.00738605925306908" flag="0"/>
			<psa03 value="0.0169226236449222" flag="0"/>
			<psa10 value="0.00107845530955725" flag="0"/>
			<psa30 value="0.000117117341782377" flag="0"/>
		</comp>
	</station>
	<station code="STBU" name="STBU" netid="RA" source="Reseau Accelerometrique Permanent (French Accelerometrique Network) (RAP)" insttype="" lat="47.8845" lon="6.85102">
		<comp name="00.HNE" depth="0.0">
			<acc value="0.0697769651900035" flag="0"/>
			<vel value="0.0100351332413563" flag="0"/>
			<psa03 value="0.0247666484813939" flag="0"/>
			<psa10 value="0.00139524113881623" flag="0"/>
			<psa30 value="0.000135293103129258" flag="0"/>
		</comp>
		<comp name="00.HNN" depth="0.0">
			<acc value="0.0994893370172223" flag="0"/>
			<vel value="0.0173404615978079" flag="0"/>
			<psa03 value="0.0523916998596976" flag="0"/>
			<psa10 value="0.00208719209435869" flag="0"/>
			<psa30 value="0.000210060451932237" flag="0"/>
		</comp>
		<comp name="00.HNZ" depth="0.0">
			<acc value="0.0709418816219144" flag="0"/>
			<vel value="0.0115491506811504" flag="0"/>
			<psa03 value="0.0354109734073706" flag="0"/>
			<psa10 value="0.00167523539018715" flag="0"/>
			<psa30 value="0.000195225094162927" flag="0"/>
		</comp>
	</station>
	<station code="STDM" name="STDM" netid="RA" source="Reseau Accelerometrique Permanent (French Accelerometrique Network) (RAP)" insttype="" lat="47.9999" lon="6.64356">
		<comp name="00.HNE" depth="0.0">
			<acc value="0.0914321464831541" flag="0"/>
			<vel value="0.0164605991316077" flag="0"/>
			<psa03 value="0.0440090924697405" flag="0"/>
			<psa10 value="0.00174368785451188" flag="0"/>
			<psa30 value="0.000183560506336779" flag="0"/>
		</comp>
		<comp name="00.HNN" depth="0.0">
			<acc value="0.143851821955268" flag="0"/>
			<vel value="0.031889364647812" flag="0"/>
			<psa03 value="0.0892160142897119" flag="0"/>
			<psa10 value="0.00368774492000385" flag="0"/>
			<psa30 value="0.000339743235488826" flag="0"/>
		</comp>
		<comp name="00.HNZ" depth="0.0">
			<acc value="0.0578639372854929" flag="0"/>
			<vel value="0.00947475971853201" flag="0"/>
			<psa03 value="0.0226635195761078" flag="0"/>
			<psa10 value="0.00141824762381993" flag="0"/>
			<psa30 value="0.000112083206212381" flag="0"/>
		</comp>
	</station>
	<station code="STHE" name="STHE" netid="RA" source="Reseau Accelerometrique Permanent (French Accelerometrique Network) (RAP)" insttype="" lat="47.5844" lon="7.54219">
		<comp name="00.HNE" depth="0.0">
			<acc value="0.0797001381192563" flag="0"/>
			<vel value="0.0145103427801181" flag="0"/>
			<psa03 value="0.0517942436142559" flag="0"/>
			<psa10 value="0.00779166194062935" flag="0"/>
			<psa30 value="0.000384372728431897" flag="0"/>
		</comp>
		<comp name="00.HNN" depth="0.0">
			<acc value="0.0914664701541673" flag="0"/>
			<vel value="0.0193706242333615" flag="0"/>
			<psa03 value="0.0601205816519889" flag="0"/>
			<psa10 value="0.0108532752262355" flag="0"/>
			<psa30 value="0.000595513147738771" flag="0"/>
		</comp>
		<comp name="00.HNZ" depth="0.0">
			<acc value="0.240271987065402" flag="0"/>
			<vel value="0.0370244995930531" flag="0"/>
			<psa03 value="0.0398558043139223" flag="0"/>
			<psa10 value="0.00750415805112457" flag="0"/>
			<psa30 value="0.000383528063101699" flag="0"/>
		</comp>
	</station>
	<station code="STMU" name="STMU" netid="RA" source="Reseau Accelerometrique Permanent (French Accelerometrique Network) (RAP)" insttype="" lat="48.5838" lon="7.76553">
		<comp name="00.HNE" depth="0.0">
			<acc value="0.680744120870159" flag="0"/>
			<vel value="0.0825417848565635" flag="0"/>
			<psa03 value="0.0683831706742729" flag="0"/>
			<psa10 value="0.00499324905948016" flag="0"/>
			<psa30 value="0.000475515458897854" flag="0"/>
		</comp>
		<comp name="00.HNN" depth="0.0">
			<acc value="1.1210592861947" flag="0"/>
			<vel value="0.131615886291617" flag="0"/>
			<psa03 value="0.0879221160755592" flag="0"/>
			<psa10 value="0.00877475534696474" flag="0"/>
			<psa30 value="0.000756692835518389" flag="0"/>
		</comp>
		<comp name="00.HNZ" depth="0.0">
			<acc value="0.141976332825775" flag="0"/>
			<vel value="0.0169782416487304" flag="0"/>
			<psa03 value="0.0248451693080338" flag="0"/>
			<psa10 value="0.00234833244049913" flag="0"/>
			<psa30 value="0.000207791759976083" flag="0"/>
		</comp>
	</station>
	<station code="STR" name="STR" netid="RA" source="Reseau Accelerometrique Permanent (French Accelerometrique Network) (RAP)" insttype="" lat="48.5797" lon="7.76331">
		<comp name="00.HNE" depth="0.0">
			<acc value="0.563062336590375" flag="0"/>
			<vel value="0.0704947720484519" flag="0"/>
			<psa03 value="0.0696015482610545" flag="0"/>
			<psa10 value="0.00598511289061929" flag="0"/>
			<psa30 value="0.000583174830387752" flag="0"/>
		</comp>
		<comp name="00.HNN" depth="0.0">
			<acc value="0.488334550898271" flag="0"/>
			<vel value="0.0687100254385" flag="0"/>
			<psa03 value="0.119593328720892" flag="0"/>
			<psa10 value="0.0063192890906195" flag="0"/>
			<psa30 value="0.00054830861442285" flag="0"/>
		</comp>
		<comp name="00.HNZ" depth="0.0">
			<acc value="0.108241755663334" flag="0"/>
			<vel value="0.0141264609707081" flag="0"/>
			<psa03 value="0.0275697664658991" flag="0"/>
			<psa10 value="0.00224053998727623" flag="0"/>
			<psa30 value="0.00020925108842006" flag="0"/>
		</comp>
	</station>
	<station code="STRB" name="STRB" netid="RA" source="Reseau Accelerometrique Permanent (French Accelerometrique Network) (RAP)" insttype="" lat="47.723" lon="7.34136">
		<comp name="00.HNE" depth="0.0">
			<acc value="0.108094355636667" flag="0"/>
			<vel value="0.0258045367306815" flag="0"/>
			<psa03 value="0.0507990318530647" flag="0"/>
			<psa10 value="0.00250713014756955" flag="0"/>
			<psa30 value="0.000297225158458257" flag="0"/>
		</comp>
		<comp name="00.HNN" depth="0.0">
			<acc value="0.118439436758449" flag="0"/>
			<vel value="0.0281191022636379" flag="0"/>
			<psa03 value="0.049470709483568" flag="0"/>
			<psa10 value="0.00294738399972468" flag="0"/>
			<psa30 value="0.000317859988956056" flag="0"/>
		</comp>
		<comp name="00.HNZ" depth="0.0">
			<acc value="0.0809125192143948" flag="0"/>
			<vel value="0.01188870949262" flag="0"/>
			<psa03 value="0.0218694956217332" flag="0"/>
			<psa10 value="0.00128000373927957" flag="0"/>
			<psa30 value="0.000117745638612499" flag="0"/>
		</comp>
	</station>
	<station code="STRO" name="STRO" netid="RA" source="Reseau Accelerometrique Permanent (French Accelerometrique Network) (RAP)" insttype="" lat="49.0761" lon="7.02847">
		<comp name="00.HNE" depth="0.0">
			<acc value="0.0444433130940068" flag="0"/>
			<vel value="0.0102230806303512" flag="0"/>
			<psa03 value="0.0710295386917105" flag="0"/>
			<psa10 value="0.00267745963418361" flag="0"/>
			<psa30 value="0.000253320010374037" flag="0"/>
		</comp>
		<comp name="00.HNN" depth="0.0">
			<acc value="0.0538856914881803" flag="0"/>
			<vel value="0.0124397864887359" flag="0"/>
			<psa03 value="0.0572439952586883" flag="0"/>
			<psa10 value="0.00417685466485807" flag="0"/>
			<psa30 value="0.000268395045479401" flag="0"/>
		</comp>
		<comp name="00.HNZ" depth="0.0">
			<acc value="0.0182737826957747" flag="0"/>
			<vel value="0.00338763715407968" flag="0"/>
			<psa03 value="0.0185196786607526" flag="0"/>
			<psa10 value="0.000993211693837394" flag="0"/>
			<psa30 value="6.32233028169567e-05" flag="0"/>
		</comp>
	</station>
	<station code="STSF" name="STSF" netid="RA" source="Reseau Accelerometrique Permanent (French Accelerometrique Network) (RAP)" insttype="" lat="48.8314" lon="7.96376">
		<comp name="00.HNE" depth="0.0">
