<?xml version="1.0" encoding="UTF-8" standalone="yes"?>
<!DOCTYPE earthquake SYSTEM "stationlist.dtd">
<stationlist created="" xmlns="ch.ethz.sed.shakemap.usgs.xml">
  <station code="STU" name="STU" netid="GE" insttype="STS-2/N" lat="48.7719" lon="9.195">
    <comp name="--.HHE">
      <acc value="0.0560711826" flag="0"/>
      <vel value="0.0201889108" flag="0"/>
      <psa03 value="0.0937971495" flag="0"/>
      <psa10 value="0.0090383239" flag="0"/>
      <psa30 value="0.0007508520" flag="0"/>
    </comp>
    <comp name="--.HHN">
      <acc value="0.0617090284" flag="0"/>
      <vel value="0.0124995448" flag="0"/>
      <psa03 value="0.0668066627" flag="0"/>
      <psa10 value="0.0058692558" flag="0"/>
      <psa30 value="0.0003459647" flag="0"/>
    </comp>
    <comp name="--.HHZ">
      <acc value="0.0457022290" flag="0"/>
      <vel value="0.0120180437" flag="0"/>
      <psa03 value="0.0562231199" flag="0"/>
      <psa10 value="0.0069669279" flag="0"/>
      <psa30 value="0.0003331003" flag="0"/>
    </comp>
  </station>
  <station code="BFO" name="BFO" netid="GR" insttype="" lat="48.3301" lon="8.3296">
    <comp name="--.HHN">
      <acc value="0.1244750432" flag="0"/>
      <vel value="0.0165258569" flag="0"/>
      <psa03 value="0.0319068974" flag="0"/>
      <psa10 value="0.0046925724" flag="0"/>
      <psa30 value="0.0004193582" flag="0"/>
    </comp>
    <comp name="--.HHZ">
      <acc value="0.0620270469" flag="0"/>
      <vel value="0.0099568235" flag="0"/>
      <psa03 value="0.0451524108" flag="0"/>
      <psa10 value="0.0031351244" flag="0"/>
      <psa30 value="0.0002248916" flag="0"/>
    </comp>
    <comp name="--.HHE">
      <acc value="0.0725661816" flag="0"/>
      <vel value="0.0139867565" flag="0"/>
      <psa03 value="0.0362848044" flag="0"/>
      <psa10 value="0.0043837132" flag="0"/>
      <psa30 value="0.0003828304" flag="0"/>
    </comp>
  </station>
  <station code="UBR" name="UBR" netid="GR" insttype="STS-2" lat="47.6799" lon="10.1071">
    <comp name="--.HHZ">
      <acc value="0.0146105796" flag="0"/>
      <vel value="0.0043082466" flag="0"/>
      <psa03 value="0.0260349865" flag="0"/>
      <psa10 value="0.0010528897" flag="0"/>
      <psa30 value="0.0001509343" flag="0"/>
    </comp>
    <comp name="--.HHN">
      <acc value="0.0236025195" flag="0"/>
      <vel value="0.0106285129" flag="0"/>
      <psa03 value="0.0937553525" flag="0"/>
      <psa10 value="0.0042483383" flag="0"/>
      <psa30 value="0.0004247967" flag="0"/>
    </comp>
    <comp name="--.HHE">
      <acc value="0.0378797194" flag="0"/>
      <vel value="0.0166265451" flag="0"/>
      <psa03 value="0.1291654053" flag="0"/>
      <psa10 value="0.0051640686" flag="0"/>
      <psa30 value="0.0004446124" flag="0"/>
    </comp>
  </station>
</stationlist>
