<stationlist created="1778069528">
	<station code="IMMV" name="IMMV" netid="GE" source="GEOFON" insttype="" lat="35.4606" lon="23.9811">
		<comp name="--.HNE" depth="0.0">
			<acc value="0.000836019941600791" flag="0"/>
			<vel value="0.001007906365521" flag="0"/>
			<psa03 value="0.00170020385149433" flag="0"/>
			<psa10 value="0.00283889300992934" flag="0"/>
			<psa30 value="0.0003391459261665" flag="0"/>
		</comp>
		<comp name="--.HNN" depth="0.0">
			<acc value="0.000659440309830649" flag="0"/>
			<vel value="0.000887659315427158" flag="0"/>
			<psa03 value="0.00219236812429532" flag="0"/>
			<psa10 value="0.00227916800513476" flag="0"/>
			<psa30 value="0.00025682026598888" flag="0"/>
		</comp>
		<comp name="--.HNZ" depth="0.0">
			<acc value="0.00064126238655602" flag="0"/>
			<vel value="0.000646828721155665" flag="0"/>
			<psa03 value="0.00161071943825778" flag="0"/>
			<psa10 value="0.001449647494432" flag="0"/>
			<psa30 value="0.000163309054156692" flag="0"/>
		</comp>
	</station>
	<station code="KARP" name="KARP" netid="GE" source="GEOFON" insttype="" lat="35.5471" lon="27.16106">
		<comp name="--.HNE" depth="0.0">
			<acc value="0.00578412021588526" flag="0"/>
			<vel value="0.000669581045777121" flag="0"/>
			<psa03 value="0.000984328545601979" flag="0"/>
			<psa10 value="0.00106307482925014" flag="0"/>
			<psa30 value="0.000222816188958993" flag="0"/>
		</comp>
		<comp name="--.HNN" depth="0.0">
			<acc value="0.00523168665239073" flag="0"/>
			<vel value="0.000698198299788882" flag="0"/>
			<psa03 value="0.000626390892655805" flag="0"/>
			<psa10 value="0.00128454875201058" flag="0"/>
			<psa30 value="0.000203577040113136" flag="0"/>
		</comp>
		<comp name="--.HNZ" depth="0.0">
			<acc value="0.00119446706180031" flag="0"/>
			<vel value="0.00039549294217039" flag="0"/>
			<psa03 value="0.000671133099274076" flag="0"/>
			<psa10 value="0.000551671407603291" flag="0"/>
			<psa30 value="0.000222368766892811" flag="0"/>
		</comp>
	</station>
	<station code="IACM" name="IACM" netid="HL" source="National Observatory of Athens Seismic Network" insttype="" lat="35.3058" lon="25.0709">
		<comp name="--.HNE" depth="0.0">
			<acc value="0.00630472584256764" flag="0"/>
			<vel value="0.00765683274592165" flag="0"/>
			<psa03 value="0.0147201859774114" flag="0"/>
			<psa10 value="0.0129783718737621" flag="0"/>
			<psa30 value="0.00162369467817708" flag="0"/>
		</comp>
		<comp name="--.HNN" depth="0.0">
			<acc value="0.00646512895345638" flag="0"/>
			<vel value="0.0071397718823117" flag="0"/>
			<psa03 value="0.0153913190766855" flag="0"/>
			<psa10 value="0.0152253254901317" flag="0"/>
			<psa30 value="0.000970905883616497" flag="0"/>
		</comp>
		<comp name="--.HNZ" depth="0.0">
			<acc value="0.00445188958182758" flag="0"/>
			<vel value="0.00259576976257662" flag="0"/>
			<psa03 value="0.00953009000969188" flag="0"/>
			<psa10 value="0.00554087486760677" flag="0"/>
			<psa30 value="0.000461292150234382" flag="0"/>
		</comp>
	</station>
</stationlist>
