<?xml version="1.0" encoding="UTF-8" standalone="yes"?>
<!DOCTYPE earthquake SYSTEM "stationlist.dtd">
<stationlist created="" xmlns="ch.ethz.sed.shakemap.usgs.xml">
  <station code="ZKR" name="ZKR" netid="GE" insttype="STS-2/N" lat="35.1147" lon="26.2169">
    <comp name="--.HHE">
      <acc value="0.0029425792" flag="0"/>
      <vel value="0.0019755594" flag="0"/>
      <psa03 value="0.0099617203" flag="0"/>
      <psa10 value="0.0031687831" flag="0"/>
      <psa30 value="0.0005597213" flag="0"/>
    </comp>
    <comp name="--.HHN">
      <acc value="0.0016562999" flag="0"/>
      <vel value="0.0009491888" flag="0"/>
      <psa03 value="0.0056242161" flag="0"/>
      <psa10 value="0.0013900037" flag="0"/>
      <psa30 value="0.0002170313" flag="0"/>
    </comp>
    <comp name="--.HHZ">
      <acc value="0.0019581422" flag="0"/>
      <vel value="0.0010834109" flag="0"/>
      <psa03 value="0.0048029777" flag="0"/>
      <psa10 value="0.0025488187" flag="0"/>
      <psa30 value="0.0002444570" flag="0"/>
    </comp>
  </station>
</stationlist>
