<stationlist xmlns:esm="https://esm-db.eu/esmws/shakemap/1/" created="1781574884">
	<station code="AST1" name="AST1" netid="HI" source="ITSAK Strong Motion Network" insttype="" lat="38.5416" lon="21.0895" esm:processing="automatic (Paolucci et al 2011)" esm:quality="best">
		<comp name="--.HNE" depth="0.0">
			<acc value="0.0181217688033966" flag="0"/>
			<vel value="0.00640259331909834" flag="0"/>
			<psa03 value="0.0408709601046733" flag="0"/>
			<psa10 value="0.00794880719444838" flag="0"/>
			<psa30 value="0.00043664796224278" flag="0"/>
		</comp>
		<comp name="--.HNN" depth="0.0">
			<acc value="0.0202452809930114" flag="0"/>
			<vel value="0.00894922088938462" flag="0"/>
			<psa03 value="0.083087014523581" flag="0"/>
			<psa10 value="0.00370859653569395" flag="0"/>
			<psa30 value="0.000660746167023643" flag="0"/>
		</comp>
		<comp name="--.HNZ" depth="0.0">
			<acc value="0.0282696095882839" flag="0"/>
			<vel value="0.00503195225875503" flag="0"/>
			<psa03 value="0.0238335944836818" flag="0"/>
			<psa10 value="0.00407749511405439" flag="0"/>
			<psa30 value="0.000432146101516826" flag="0"/>
		</comp>
	</station>
	<station code="LXR2" name="LXR2" netid="HI" source="ITSAK Strong Motion Network" insttype="" lat="38.206718" lon="20.436386" esm:processing="automatic (Paolucci et al 2011)" esm:quality="best">
		<comp name="--.HNE" depth="0.0">
			<acc value="3.42780943288812" flag="0"/>
			<vel value="0.491579389675937" flag="0"/>
			<psa03 value="1.9849636607697" flag="0"/>
			<psa10 value="0.145750255239234" flag="0"/>
			<psa30 value="0.0153180914150553" flag="0"/>
		</comp>
		<comp name="--.HNN" depth="0.0">
			<acc value="5.18399593065718" flag="0"/>
			<vel value="1.37633844751515" flag="0"/>
			<psa03 value="3.14079572896882" flag="0"/>
			<psa10 value="0.254270384164896" flag="0"/>
			<psa30 value="0.0297995340728829" flag="0"/>
		</comp>
		<comp name="--.HNZ" depth="0.0">
			<acc value="3.52885668461616" flag="0"/>
			<vel value="0.498610357516875" flag="0"/>
			<psa03 value="0.940003853976452" flag="0"/>
			<psa10 value="0.101539776511662" flag="0"/>
			<psa30 value="0.00536202812471866" flag="0"/>
		</comp>
	</station>
	<station code="MSL1" name="MSL1" netid="HI" source="ITSAK Strong Motion Network" insttype="" lat="38.3727" lon="21.4243" esm:processing="automatic (Paolucci et al 2011)" esm:quality="best">
		<comp name="--.HNE" depth="0.0">
			<acc value="0.0198301216467646" flag="0"/>
			<vel value="0.0105981037908856" flag="0"/>
			<psa03 value="0.0733946693284052" flag="0"/>
			<psa10 value="0.0255403562982559" flag="0"/>
			<psa30 value="0.00133253619065023" flag="0"/>
		</comp>
		<comp name="--.HNN" depth="0.0">
			<acc value="0.0162124231077057" flag="0"/>
			<vel value="0.0121200680036264" flag="0"/>
			<psa03 value="0.0488886084220546" flag="0"/>
			<psa10 value="0.0199707798411419" flag="0"/>
			<psa30 value="0.0028528435702176" flag="0"/>
		</comp>
		<comp name="--.HNZ" depth="0.0">
			<acc value="0.010689145837048" flag="0"/>
			<vel value="0.0053314481437726" flag="0"/>
			<psa03 value="0.0327710302949206" flag="0"/>
			<psa10 value="0.00947630494619522" flag="0"/>
			<psa30 value="0.000590699808045318" flag="0"/>
		</comp>
	</station>
	<station code="VAS2" name="VAS2" netid="HI" source="ITSAK Strong Motion Network" insttype="" lat="38.630558" lon="20.608081" esm:processing="automatic (Paolucci et al 2011)" esm:quality="best">
		<comp name="--.HNE" depth="0.0">
			<acc value="0.0697450737707865" flag="0"/>
			<vel value="0.0621572159237267" flag="0"/>
			<psa03 value="0.106435394572556" flag="0"/>
			<psa10 value="0.088879312818255" flag="0"/>
			<psa30 value="0.00497334862661013" flag="0"/>
		</comp>
		<comp name="--.HNN" depth="0.0">
			<acc value="0.0769137292512835" flag="0"/>
			<vel value="0.0563629070380642" flag="0"/>
			<psa03 value="0.258185478520706" flag="0"/>
			<psa10 value="0.0780457751494142" flag="0"/>
			<psa30 value="0.0028596633969988" flag="0"/>
		</comp>
		<comp name="--.HNZ" depth="0.0">
			<acc value="0.0408147966012802" flag="0"/>
			<vel value="0.0243438388878064" flag="0"/>
			<psa03 value="0.0875107242394702" flag="0"/>
			<psa10 value="0.0437953787288071" flag="0"/>
			<psa30 value="0.00157429022650292" flag="0"/>
		</comp>
	</station>
	<station code="VSK1" name="VSK1" netid="HI" source="ITSAK Strong Motion Network" insttype="" lat="38.4091" lon="20.564" esm:processing="automatic (Paolucci et al 2011)" esm:quality="best">
		<comp name="--.HNE" depth="0.0">
			<acc value="0.167184086131269" flag="0"/>
			<vel value="0.0557653304251459" flag="0"/>
			<psa03 value="0.129010296299085" flag="0"/>
			<psa10 value="0.0527794926324156" flag="0"/>
			<psa30 value="0.00394150527204624" flag="0"/>
		</comp>
		<comp name="--.HNN" depth="0.0">
			<acc value="0.15456725588765" flag="0"/>
			<vel value="0.047153536818843" flag="0"/>
			<psa03 value="0.218695820858238" flag="0"/>
			<psa10 value="0.0351587140922473" flag="0"/>
			<psa30 value="0.00210760357672564" flag="0"/>
		</comp>
		<comp name="--.HNZ" depth="0.0">
			<acc value="0.0943722674443159" flag="0"/>
			<vel value="0.0267856833181216" flag="0"/>
			<psa03 value="0.10851538652867" flag="0"/>
			<psa10 value="0.0285890138818576" flag="0"/>
			<psa30 value="0.00170952564351682" flag="0"/>
		</comp>
	</station>
	<station code="ZAK2" name="ZAK2" netid="HI" source="ITSAK Strong Motion Network" insttype="" lat="37.787501" lon="20.899999" esm:processing="automatic (Paolucci et al 2011)" esm:quality="best">
		<comp name="--.HNE" depth="0.0">
			<acc value="0.0678246254348821" flag="0"/>
			<vel value="0.0346957639492437" flag="0"/>
			<psa03 value="0.157892042906065" flag="0"/>
			<psa10 value="0.0377371524011472" flag="0"/>
			<psa30 value="0.00244438838706581" flag="0"/>
		</comp>
		<comp name="--.HNN" depth="0.0">
			<acc value="0.0636718929976572" flag="0"/>
			<vel value="0.0343615774593671" flag="0"/>
			<psa03 value="0.144908547396857" flag="0"/>
			<psa10 value="0.0390159758669008" flag="0"/>
			<psa30 value="0.00197489103517408" flag="0"/>
		</comp>
		<comp name="--.HNZ" depth="0.0">
			<acc value="0.0317238487293687" flag="0"/>
			<vel value="0.0142288302690039" flag="0"/>
			<psa03 value="0.0498193054926252" flag="0"/>
			<psa10 value="0.0131622591225847" flag="0"/>
			<psa30 value="0.00161401931669222" flag="0"/>
		</comp>
	</station>
	<station code="AMT" name="AMT" netid="HP" source="University of Patras, Seismological Laboratory (PSLNET)" insttype="" lat="37.5324" lon="21.7089" esm:processing="manual (Paolucci et al 2011)" esm:quality="bad">
		<comp name="--.HNE" depth="0.0">
			<acc value="0.00455872298462194" flag="0"/>
			<vel value="0.00403272433414378" flag="0"/>
			<psa03 value="0.0133950982970168" flag="0"/>
			<psa10 value="0.00639824307095987" flag="0"/>
			<psa30 value="0.000463190371589147" flag="0"/>
		</comp>
		<comp name="--.HNN" depth="0.0">
			<acc value="0.0045590251263737" flag="0"/>
			<vel value="0.00340784393645414" flag="0"/>
			<psa03 value="0.0100333990384272" flag="0"/>
			<psa10 value="0.00748125247126288" flag="0"/>
			<psa30 value="0.000374981455264498" flag="0"/>
		</comp>
		<comp name="--.HNZ" depth="0.0">
			<acc value="0.00249757295006556" flag="0"/>
			<vel value="0.00180912749761951" flag="0"/>
			<psa03 value="0.00585267286708322" flag="0"/>
			<psa10 value="0.0021544389710103" flag="0"/>
			<psa30 value="0.000122431469859068" flag="0"/>
		</comp>
	</station>
	<station code="FSK" name="FSK" netid="HP" source="University of Patras, Seismological Laboratory (PSLNET)" insttype="" lat="38.4593" lon="20.5623" esm:processing="manual (Paolucci et al 2011)" esm:quality="good">
		<comp name="--.HNE" depth="0.0">
			<acc value="0.24669465433812" flag="0"/>
			<vel value="0.061020432467384" flag="0"/>
			<psa03 value="0.110966757253192" flag="0"/>
			<psa10 value="0.0351885023155702" flag="0"/>
			<psa30 value="0.00306110444981444" flag="0"/>
		</comp>
		<comp name="--.HNN" depth="0.0">
			<acc value="0.0758562879293329" flag="0"/>
			<vel value="0.0338751106218238" flag="0"/>
			<psa03 value="0.0719151129815852" flag="0"/>
			<psa10 value="0.0257352304577337" flag="0"/>
			<psa30 value="0.00176616637485652" flag="0"/>
		</comp>
		<comp name="--.HNZ" depth="0.0">
			<acc value="0.136753509822429" flag="0"/>
			<vel value="0.0297551802127336" flag="0"/>
			<psa03 value="0.0616578761985716" flag="0"/>
			<psa10 value="0.0164473933090783" flag="0"/>
			<psa30 value="0.00122638572120191" flag="0"/>
		</comp>
	</station>
	<station code="GUR" name="GUR" netid="HP" source="University of Patras, Seismological Laboratory (PSLNET)" insttype="" lat="37.9363" lon="22.3423" esm:processing="automatic (Paolucci et al 2011)" esm:quality="best">
		<comp name="--.HNE" depth="0.0">
			<acc value="0.00247200629460341" flag="0"/>
			<vel value="0.00177566193772021" flag="0"/>
			<psa03 value="0.00776844170446144" flag="0"/>
			<psa10 value="0.00238602689069468" flag="0"/>
			<psa30 value="0.000157324836060711" flag="0"/>
		</comp>
		<comp name="--.HNN" depth="0.0">
			<acc value="0.00273981937868123" flag="0"/>
			<vel value="0.00203240523945918" flag="0"/>
			<psa03 value="0.00828181490564723" flag="0"/>
			<psa10 value="0.00374950705831595" flag="0"/>
			<psa30 value="0.00024518259631046" flag="0"/>
		</comp>
		<comp name="--.HNZ" depth="0.0">
			<acc value="0.00137693755725039" flag="0"/>
			<vel value="0.00100691649066627" flag="0"/>
			<psa03 value="0.00440913681023594" flag="0"/>
			<psa10 value="0.00168569846612569" flag="0"/>
			<psa30 value="0.000118884659379588" flag="0"/>
		</comp>
	</station>
	<station code="LTHK" name="LTHK" netid="HP" source="University of Patras, Seismological Laboratory (PSLNET)" insttype="" lat="37.7095" lon="20.8367" esm:processing="automatic (Paolucci et al 2011)" esm:quality="best">
		<comp name="--.HNE" depth="0.0">
			<acc value="0.0337458098827681" flag="0"/>
			<vel value="0.0144010754342655" flag="0"/>
			<psa03 value="0.0615456552227606" flag="0"/>
			<psa10 value="0.0126786252091861" flag="0"/>
			<psa30 value="0.00100704900372026" flag="0"/>
		</comp>
		<comp name="--.HNN" depth="0.0">
			<acc value="0.0308826404571446" flag="0"/>
			<vel value="0.0117862113835758" flag="0"/>
			<psa03 value="0.0538116428823518" flag="0"/>
			<psa10 value="0.0109813583986111" flag="0"/>
			<psa30 value="0.000669243240331686" flag="0"/>
		</comp>
		<comp name="--.HNZ" depth="0.0">
			<acc value="0.0159603878864463" flag="0"/>
			<vel value="0.00692912492986332" flag="0"/>
			<psa03 value="0.0375334707832132" flag="0"/>
			<psa10 value="0.00630076145702309" flag="0"/>
			<psa30 value="0.000351226704545384" flag="0"/>
		</comp>
	</station>
	<station code="PDO" name="PDO" netid="HP" source="University of Patras, Seismological Laboratory (PSLNET)" insttype="" lat="38.5986" lon="21.1833" esm:processing="automatic (Paolucci et al 2011)" esm:quality="best">
		<comp name="--.HNE" depth="0.0">
			<acc value="0.0124917936765256" flag="0"/>
			<vel value="0.00498536388005998" flag="0"/>
			<psa03 value="0.03610466259003" flag="0"/>
			<psa10 value="0.0052573284284608" flag="0"/>
			<psa30 value="0.000404180082238517" flag="0"/>
		</comp>
		<comp name="--.HNN" depth="0.0">
			<acc value="0.0150899266898092" flag="0"/>
			<vel value="0.00751736104831028" flag="0"/>
			<psa03 value="0.0455500539257898" flag="0"/>
			<psa10 value="0.00883001338255583" flag="0"/>
			<psa30 value="0.000565886705966605" flag="0"/>
		</comp>
		<comp name="--.HNZ" depth="0.0">
			<acc value="0.0103121036051406" flag="0"/>
			<vel value="0.0035353891164417" flag="0"/>
			<psa03 value="0.0230523682521057" flag="0"/>
			<psa10 value="0.00292139173098814" flag="0"/>
			<psa30 value="0.00033235654824033" flag="0"/>
		</comp>
	</station>
	<station code="PVO" name="PVO" netid="HP" source="University of Patras, Seismological Laboratory (PSLNET)" insttype="" lat="38.616" lon="21.525" esm:processing="automatic (Paolucci et al 2011)" esm:quality="best">
		<comp name="--.HNE" depth="0.0">
			<acc value="0.0113819973653188" flag="0"/>
			<vel value="0.00625568503044063" flag="0"/>
			<psa03 value="0.0242086714139871" flag="0"/>
			<psa10 value="0.00826528878479846" flag="0"/>
			<psa30 value="0.000644986893883061" flag="0"/>
		</comp>
		<comp name="--.HNN" depth="0.0">
			<acc value="0.0093676715346576" flag="0"/>
			<vel value="0.00573236710420748" flag="0"/>
			<psa03 value="0.0298136052133777" flag="0"/>
			<psa10 value="0.00601535067495879" flag="0"/>
			<psa30 value="0.00060896242410685" flag="0"/>
		</comp>
		<comp name="--.HNZ" depth="0.0">
			<acc value="0.00562937553828392" flag="0"/>
			<vel value="0.00307294160836314" flag="0"/>
			<psa03 value="0.0142664060168677" flag="0"/>
			<psa10 value="0.00521812942545251" flag="0"/>
			<psa30 value="0.000286984219629366" flag="0"/>
		</comp>
	</station>
	<station code="SERG" name="SERG" netid="HP" source="University of Patras, Seismological Laboratory (PSLNET)" insttype="" lat="38.4133" lon="22.0566" esm:processing="automatic (Paolucci et al 2011)" esm:quality="best">
		<comp name="--.HNE" depth="0.0">
			<acc value="0.00280608333313809" flag="0"/>
			<vel value="0.00209037438741352" flag="0"/>
			<psa03 value="0.00767123865065749" flag="0"/>
			<psa10 value="0.00274163107272692" flag="0"/>
			<psa30 value="0.000238862646394738" flag="0"/>
		</comp>
		<comp name="--.HNN" depth="0.0">
			<acc value="0.00413048199307717" flag="0"/>
			<vel value="0.0018838888721774" flag="0"/>
			<psa03 value="0.00811424846664011" flag="0"/>
			<psa10 value="0.00193602110345976" flag="0"/>
			<psa30 value="0.000360748611366558" flag="0"/>
		</comp>
		<comp name="--.HNZ" depth="0.0">
			<acc value="0.00248736139828736" flag="0"/>
			<vel value="0.00129540820710818" flag="0"/>
			<psa03 value="0.00402427993514854" flag="0"/>
			<psa10 value="0.00288765355850335" flag="0"/>
			<psa30 value="0.000260861786021494" flag="0"/>
		</comp>
	</station>
	<station code="VVK" name="VVK" netid="HP" source="University of Patras, Seismological Laboratory (PSLNET)" insttype="" lat="38.4222" lon="21.8116" esm:processing="automatic (Paolucci et al 2011)" esm:quality="best">
		<comp name="--.HNE" depth="0.0">
			<acc value="0.0056759029127633" flag="0"/>
			<vel value="0.00371484502439438" flag="0"/>
			<psa03 value="0.0195783125921284" flag="0"/>
			<psa10 value="0.00443021113600527" flag="0"/>
			<psa30 value="0.000344510400248327" flag="0"/>
		</comp>
		<comp name="--.HNN" depth="0.0">
			<acc value="0.00421643687965838" flag="0"/>
			<vel value="0.0044091683457388" flag="0"/>
			<psa03 value="0.0116097235142886" flag="0"/>
			<psa10 value="0.00502993867749492" flag="0"/>
			<psa30 value="0.000650786653086503" flag="0"/>
		</comp>
		<comp name="--.HNZ" depth="0.0">
			<acc value="0.00234968933726757" flag="0"/>
			<vel value="0.00154161991321251" flag="0"/>
			<psa03 value="0.00672996731167152" flag="0"/>
			<psa10 value="0.00189366075822994" flag="0"/>
			<psa30 value="0.000249391755354701" flag="0"/>
		</comp>
	</station>
</stationlist>
