<?xml version="1.0" encoding="UTF-8" standalone="yes"?>
<!DOCTYPE earthquake SYSTEM "stationlist.dtd">
<stationlist created="" xmlns="ch.ethz.sed.shakemap.usgs.xml">
  <station code="ATHR" name="ATHR" netid="HA" insttype="GEOtiny," commtype="DIG" lat="38.3172" lon="20.4165">
    <comp name="--.HHE">
      <acc value="0.5343934257" flag="0"/>
      <vel value="0.1534963974" flag="0"/>
      <psa03 value="0.3316764472" flag="0"/>
      <psa10 value="0.0657721514" flag="0"/>
      <psa30 value="0.0057134189" flag="0"/>
    </comp>
    <comp name="--.HHN">
      <acc value="0.2518668726" flag="0"/>
      <vel value="0.0628691216" flag="0"/>
      <psa03 value="0.2211905512" flag="0"/>
      <psa10 value="0.0394470687" flag="0"/>
      <psa30 value="0.0031320484" flag="0"/>
    </comp>
    <comp name="--.HHZ">
      <acc value="0.2770770100" flag="0"/>
      <vel value="0.0468966942" flag="0"/>
      <psa03 value="0.1732829270" flag="0"/>
      <psa10 value="0.0293177128" flag="0"/>
      <psa30 value="0.0016650776" flag="0"/>
    </comp>
  </station>
  <station code="HAVD" name="HAVD" netid="HA" insttype="GEOtiny," commtype="DIG" lat="38.2036" lon="20.3848">
    <comp name="--.HHE">
      <acc value="1.7062129713" flag="0"/>
      <vel value="0.4054683588" flag="0"/>
      <psa03 value="1.9114237327" flag="0"/>
      <psa10 value="0.1333894106" flag="0"/>
      <psa30 value="0.0125755623" flag="0"/>
    </comp>
    <comp name="--.HHN">
      <acc value="2.8511436125" flag="0"/>
      <vel value="0.7673339115" flag="0"/>
      <psa03 value="2.9532320263" flag="0"/>
      <psa10 value="0.2172215777" flag="0"/>
      <psa30 value="0.0259881987" flag="0"/>
    </comp>
    <comp name="--.HHZ">
      <acc value="2.5756479050" flag="0"/>
      <vel value="0.3330042816" flag="0"/>
      <psa03 value="1.7069878324" flag="0"/>
      <psa10 value="0.0711936452" flag="0"/>
      <psa30 value="0.0055004882" flag="0"/>
    </comp>
  </station>
  <station code="ARG2" name="ARG2" netid="HI" insttype="CMG-5TD,ACCELEROMETER,GURALP" commtype="DIG" lat="38.1783" lon="20.4878">
    <comp name="--.HNE">
      <acc value="5.1025110935" flag="0"/>
      <vel value="0.4860030842" flag="0"/>
      <psa03 value="1.4373069279" flag="0"/>
      <psa10 value="0.0933208763" flag="0"/>
      <psa30 value="0.0096325434" flag="0"/>
    </comp>
    <comp name="--.HNN">
      <acc value="3.8286825011" flag="0"/>
      <vel value="0.6101407048" flag="0"/>
      <psa03 value="2.4473141925" flag="0"/>
      <psa10 value="0.1671273104" flag="0"/>
      <psa30 value="0.0180828926" flag="0"/>
    </comp>
    <comp name="--.HNZ">
      <acc value="2.5920921891" flag="0"/>
      <vel value="0.2637885987" flag="0"/>
      <psa03 value="0.8746063875" flag="0"/>
      <psa10 value="0.0395237479" flag="0"/>
      <psa30 value="0.0036634753" flag="0"/>
    </comp>
  </station>
  <station code="AST1" name="AST1" netid="HI" insttype="unknown" commtype="DIG" lat="38.5416" lon="21.0895">
    <comp name="--.HNE">
      <acc value="0.0183164073" flag="0"/>
      <vel value="0.0063759067" flag="0"/>
      <psa03 value="0.0408020140" flag="0"/>
      <psa10 value="0.0079339110" flag="0"/>
      <psa30 value="0.0004002016" flag="0"/>
    </comp>
    <comp name="--.HNN">
      <acc value="0.0203533424" flag="0"/>
      <vel value="0.0088239026" flag="0"/>
      <psa03 value="0.0824878587" flag="0"/>
      <psa10 value="0.0037040581" flag="0"/>
      <psa30 value="0.0006136927" flag="0"/>
    </comp>
    <comp name="--.HNZ">
      <acc value="0.0341075327" flag="0"/>
      <vel value="0.0049365402" flag="0"/>
      <psa03 value="0.0229820374" flag="0"/>
      <psa10 value="0.0040763975" flag="0"/>
      <psa30 value="0.0004148346" flag="0"/>
    </comp>
  </station>
  <station code="LXR2" name="LXR2" netid="HI" insttype="unknown" commtype="DIG" lat="38.2067" lon="20.4364">
    <comp name="--.HNE">
      <acc value="3.9201745689" flag="0"/>
      <vel value="0.4759333019" flag="0"/>
      <psa03 value="1.9933697121" flag="0"/>
      <psa10 value="0.1450680062" flag="0"/>
      <psa30 value="0.0154286766" flag="0"/>
    </comp>
    <comp name="--.HNN">
      <acc value="5.1684957690" flag="0"/>
      <vel value="1.3739590185" flag="0"/>
      <psa03 value="3.1200060638" flag="0"/>
      <psa10 value="0.2535436701" flag="0"/>
      <psa30 value="0.0300525037" flag="0"/>
    </comp>
    <comp name="--.HNZ">
      <acc value="5.0349078606" flag="0"/>
      <vel value="0.4895379177" flag="0"/>
      <psa03 value="0.9163088300" flag="0"/>
      <psa10 value="0.1013909480" flag="0"/>
      <psa30 value="0.0052640363" flag="0"/>
    </comp>
  </station>
  <station code="VAS2" name="VAS2" netid="HI" insttype="CMG-5TD,ACCELEROMETER,GURALP" commtype="DIG" lat="38.6306" lon="20.6081">
    <comp name="--.HNN">
      <acc value="0.0769684603" flag="0"/>
      <vel value="0.0563383925" flag="0"/>
      <psa03 value="0.2613355476" flag="0"/>
      <psa10 value="0.0781119224" flag="0"/>
      <psa30 value="0.0028043159" flag="0"/>
    </comp>
    <comp name="--.HNZ">
      <acc value="0.0414025386" flag="0"/>
      <vel value="0.0243463697" flag="0"/>
      <psa03 value="0.0893047060" flag="0"/>
      <psa10 value="0.0437326493" flag="0"/>
      <psa30 value="0.0015130206" flag="0"/>
    </comp>
    <comp name="--.HNE">
      <acc value="0.0699203913" flag="0"/>
      <vel value="0.0620893714" flag="0"/>
      <psa03 value="0.1047105329" flag="0"/>
      <psa10 value="0.0886882173" flag="0"/>
      <psa30 value="0.0049190848" flag="0"/>
    </comp>
  </station>
  <station code="VSK1" name="VSK1" netid="HI" insttype="unknown" commtype="DIG" lat="38.4091" lon="20.564">
    <comp name="--.HNE">
      <acc value="0.1756560055" flag="0"/>
      <vel value="0.0557667209" flag="0"/>
      <psa03 value="0.1267725689" flag="0"/>
      <psa10 value="0.0527448467" flag="0"/>
      <psa30 value="0.0040141725" flag="0"/>
    </comp>
    <comp name="--.HNN">
      <acc value="0.1542453211" flag="0"/>
      <vel value="0.0467142570" flag="0"/>
      <psa03 value="0.2170332181" flag="0"/>
      <psa10 value="0.0350690317" flag="0"/>
      <psa30 value="0.0020863307" flag="0"/>
    </comp>
    <comp name="--.HNZ">
      <acc value="0.0991659759" flag="0"/>
      <vel value="0.0264068125" flag="0"/>
      <psa03 value="0.1075396285" flag="0"/>
      <psa10 value="0.0285242837" flag="0"/>
      <psa30 value="0.0016199908" flag="0"/>
    </comp>
  </station>
  <station code="LXRA" name="LXRA" netid="HL" insttype="CMG-5" commtype="DIG" lat="38.2001" lon="20.4372">
    <comp name="00.HNN">
      <acc value="12.9140564936" flag="0"/>
      <vel value="1.9957088420" flag="0"/>
      <psa03 value="6.1302376591" flag="0"/>
      <psa10 value="0.4222611650" flag="0"/>
      <psa30 value="0.0500750910" flag="0"/>
    </comp>
    <comp name="00.HNE">
      <acc value="4.9699460419" flag="0"/>
      <vel value="0.7371063871" flag="0"/>
      <psa03 value="1.9025034801" flag="0"/>
      <psa10 value="0.1677631123" flag="0"/>
      <psa30 value="0.0198066792" flag="0"/>
    </comp>
    <comp name="00.HNZ">
      <acc value="6.3082975885" flag="0"/>
      <vel value="0.7854350488" flag="0"/>
      <psa03 value="1.2919674290" flag="0"/>
      <psa10 value="0.0621079010" flag="0"/>
      <psa30 value="0.0069266799" flag="0"/>
    </comp>
  </station>
  <station code="ORTH" name="ORTH" netid="HL" insttype="30" commtype="DIG" lat="37.8511" lon="20.6963">
    <comp name="--.HHN">
      <acc value="0.1118313760" flag="0"/>
      <vel value="0.0308026435" flag="0"/>
      <psa03 value="0.1259634694" flag="0"/>
      <psa10 value="0.0212400638" flag="0"/>
      <psa30 value="0.0015424048" flag="0"/>
    </comp>
    <comp name="--.HHE">
      <acc value="0.0987133089" flag="0"/>
      <vel value="0.0310463205" flag="0"/>
      <psa03 value="0.2318778133" flag="0"/>
      <psa10 value="0.0230381197" flag="0"/>
      <psa30 value="0.0013381570" flag="0"/>
    </comp>
    <comp name="--.HHZ">
      <acc value="0.0370616162" flag="0"/>
      <vel value="0.0146502924" flag="0"/>
      <psa03 value="0.0650192953" flag="0"/>
      <psa10 value="0.0095289363" flag="0"/>
      <psa30 value="0.0008042740" flag="0"/>
    </comp>
  </station>
  <station code="RLS" name="RLS" netid="HL" insttype="CMG3ESPC-120s" commtype="DIG" lat="38.0559" lon="21.4647">
    <comp name="--.HHN">
      <acc value="0.0056481451" flag="0"/>
      <vel value="0.0032022141" flag="0"/>
      <psa03 value="0.0124619703" flag="0"/>
      <psa10 value="0.0027607324" flag="0"/>
      <psa30 value="0.0003387380" flag="0"/>
    </comp>
    <comp name="--.HHZ">
      <acc value="0.0025750800" flag="0"/>
      <vel value="0.0011588749" flag="0"/>
      <psa03 value="0.0049481316" flag="0"/>
      <psa10 value="0.0023945408" flag="0"/>
      <psa30 value="0.0001748661" flag="0"/>
    </comp>
    <comp name="--.HHE">
      <acc value="0.0039750636" flag="0"/>
      <vel value="0.0017838625" flag="0"/>
      <psa03 value="0.0096350737" flag="0"/>
      <psa10 value="0.0027670456" flag="0"/>
      <psa30 value="0.0002227081" flag="0"/>
    </comp>
  </station>
  <station code="AMPL" name="AMPL" netid="HP" insttype="Compact," commtype="DIG" lat="38.9224" lon="21.2135">
    <comp name="--.HHN">
      <acc value="0.0047418018" flag="0"/>
      <vel value="0.0021480952" flag="0"/>
      <psa03 value="0.0129159219" flag="0"/>
      <psa10 value="0.0025969784" flag="0"/>
      <psa30 value="0.0002000313" flag="0"/>
    </comp>
    <comp name="--.HHZ">
      <acc value="0.0036502026" flag="0"/>
      <vel value="0.0016446749" flag="0"/>
      <psa03 value="0.0099266991" flag="0"/>
      <psa10 value="0.0024509506" flag="0"/>
      <psa30 value="0.0001870163" flag="0"/>
    </comp>
    <comp name="--.HHE">
      <acc value="0.0066705042" flag="0"/>
      <vel value="0.0025917781" flag="0"/>
      <psa03 value="0.0189167847" flag="0"/>
      <psa10 value="0.0032131126" flag="0"/>
      <psa30 value="0.0001946976" flag="0"/>
    </comp>
  </station>
  <station code="AXS" name="AXS" netid="HP" insttype="Compact," commtype="DIG" lat="38.1962" lon="21.3763">
    <comp name="--.HHN">
      <acc value="0.0036612587" flag="0"/>
      <vel value="0.0024547735" flag="0"/>
      <psa03 value="0.0138774514" flag="0"/>
      <psa10 value="0.0037088500" flag="0"/>
      <psa30 value="0.0004438277" flag="0"/>
    </comp>
    <comp name="--.HHE">
      <acc value="0.0033034411" flag="0"/>
      <vel value="0.0016611768" flag="0"/>
      <psa03 value="0.0067274638" flag="0"/>
      <psa10 value="0.0021675443" flag="0"/>
      <psa30 value="0.0002395918" flag="0"/>
    </comp>
    <comp name="--.HHZ">
      <acc value="0.0027258576" flag="0"/>
      <vel value="0.0010857073" flag="0"/>
      <psa03 value="0.0064068635" flag="0"/>
      <psa10 value="0.0012262872" flag="0"/>
      <psa30 value="0.0001563910" flag="0"/>
    </comp>
  </station>
  <station code="FSK" name="FSK" netid="HP" insttype="40," commtype="DIG" lat="38.4593" lon="20.5623">
    <comp name="--.HHE">
      <acc value="0.2270291576" flag="0"/>
      <vel value="0.0593589462" flag="0"/>
      <psa03 value="0.1111382590" flag="0"/>
      <psa10 value="0.0325447208" flag="0"/>
      <psa30 value="0.0029741324" flag="0"/>
    </comp>
    <comp name="--.HHZ">
      <acc value="0.1307197272" flag="0"/>
      <vel value="0.0290449200" flag="0"/>
      <psa03 value="0.0617410736" flag="0"/>
      <psa10 value="0.0164815712" flag="0"/>
      <psa30 value="0.0011892874" flag="0"/>
    </comp>
    <comp name="--.HHN">
      <acc value="0.0852928453" flag="0"/>
      <vel value="0.0362368189" flag="0"/>
      <psa03 value="0.0702689206" flag="0"/>
      <psa10 value="0.0269306718" flag="0"/>
      <psa30 value="0.0021120267" flag="0"/>
    </comp>
  </station>
  <station code="LTHK" name="LTHK" netid="HP" insttype="40," commtype="DIG" lat="37.7095" lon="20.8367">
    <comp name="--.HHZ">
      <acc value="0.0161396049" flag="0"/>
      <vel value="0.0069292855" flag="0"/>
      <psa03 value="0.0366682017" flag="0"/>
      <psa10 value="0.0062602488" flag="0"/>
      <psa30 value="0.0003140797" flag="0"/>
    </comp>
    <comp name="--.HHN">
      <acc value="0.0319322584" flag="0"/>
      <vel value="0.0118932333" flag="0"/>
      <psa03 value="0.0551881040" flag="0"/>
      <psa10 value="0.0108229067" flag="0"/>
      <psa30 value="0.0006327970" flag="0"/>
    </comp>
    <comp name="--.HHE">
      <acc value="0.0345826038" flag="0"/>
      <vel value="0.0142354586" flag="0"/>
      <psa03 value="0.0618557533" flag="0"/>
      <psa10 value="0.0125071342" flag="0"/>
      <psa30 value="0.0010413473" flag="0"/>
    </comp>
  </station>
  <station code="PDO" name="PDO" netid="HP" insttype="120s" commtype="DIG" lat="38.5986" lon="21.1833">
    <comp name="--.HHN">
      <acc value="0.0149962475" flag="0"/>
      <vel value="0.0076128332" flag="0"/>
      <psa03 value="0.0434436716" flag="0"/>
      <psa10 value="0.0084609326" flag="0"/>
      <psa30 value="0.0005315508" flag="0"/>
    </comp>
    <comp name="--.HHE">
      <acc value="0.0140393571" flag="0"/>
      <vel value="0.0055869129" flag="0"/>
      <psa03 value="0.0387166883" flag="0"/>
      <psa10 value="0.0051130680" flag="0"/>
      <psa30 value="0.0004593999" flag="0"/>
    </comp>
    <comp name="--.HHZ">
      <acc value="0.0111920561" flag="0"/>
      <vel value="0.0037190447" flag="0"/>
      <psa03 value="0.0246093893" flag="0"/>
      <psa10 value="0.0031126768" flag="0"/>
      <psa30 value="0.0003124975" flag="0"/>
    </comp>
  </station>
  <station code="PVO" name="PVO" netid="HP" insttype="120P," commtype="DIG" lat="38.616" lon="21.525">
    <comp name="--.HHN">
      <acc value="0.0093565958" flag="0"/>
      <vel value="0.0055601379" flag="0"/>
      <psa03 value="0.0294082161" flag="0"/>
      <psa10 value="0.0060352383" flag="0"/>
      <psa30 value="0.0006341015" flag="0"/>
    </comp>
    <comp name="--.HHZ">
      <acc value="0.0056323931" flag="0"/>
      <vel value="0.0030148212" flag="0"/>
      <psa03 value="0.0140834835" flag="0"/>
      <psa10 value="0.0052548333" flag="0"/>
      <psa30 value="0.0002263577" flag="0"/>
    </comp>
    <comp name="--.HHE">
      <acc value="0.0114720721" flag="0"/>
      <vel value="0.0063822379" flag="0"/>
      <psa03 value="0.0242552100" flag="0"/>
      <psa10 value="0.0083908655" flag="0"/>
      <psa30 value="0.0006704125" flag="0"/>
    </comp>
  </station>
  <station code="DRAG" name="DRAG" netid="HT" insttype="30s-100Hz," commtype="DIG" lat="38.6839" lon="20.5746">
    <comp name="--.HHE">
      <acc value="0.0412135330" flag="0"/>
      <vel value="0.0171106716" flag="0"/>
      <psa03 value="0.1198542010" flag="0"/>
      <psa10 value="0.0120935515" flag="0"/>
      <psa30 value="0.0005876909" flag="0"/>
    </comp>
    <comp name="--.HHZ">
      <acc value="0.0187849162" flag="0"/>
      <vel value="0.0055566220" flag="0"/>
      <psa03 value="0.0212510552" flag="0"/>
      <psa10 value="0.0035753046" flag="0"/>
      <psa30 value="0.0003120842" flag="0"/>
    </comp>
    <comp name="--.HHN">
      <acc value="0.0450918790" flag="0"/>
      <vel value="0.0135126294" flag="0"/>
      <psa03 value="0.0619303952" flag="0"/>
      <psa10 value="0.0085291090" flag="0"/>
      <psa30 value="0.0004759203" flag="0"/>
    </comp>
  </station>
  <station code="EVGI" name="EVGI" netid="HT" insttype="30" commtype="DIG" lat="38.621" lon="20.656">
    <comp name="--.HHZ">
      <acc value="0.0896756575" flag="0"/>
      <vel value="0.0128963995" flag="0"/>
      <psa03 value="0.0522590156" flag="0"/>
      <psa10 value="0.0118071606" flag="0"/>
      <psa30 value="0.0006721062" flag="0"/>
    </comp>
    <comp name="--.HHN">
      <acc value="0.1102796528" flag="0"/>
      <vel value="0.0217125946" flag="0"/>
      <psa03 value="0.1147699177" flag="0"/>
      <psa10 value="0.0073139322" flag="0"/>
      <psa30 value="0.0005266003" flag="0"/>
    </comp>
    <comp name="--.HHE">
      <acc value="0.1326865362" flag="0"/>
      <vel value="0.0196060752" flag="0"/>
      <psa03 value="0.0543991430" flag="0"/>
      <psa10 value="0.0065423379" flag="0"/>
      <psa30 value="0.0008126343" flag="0"/>
    </comp>
  </station>
  <station code="ITHC" name="ITHC" netid="HT" insttype="60s," commtype="DIG" lat="38.4622" lon="20.632">
    <comp name="--.HHE">
      <acc value="0.1718709425" flag="0"/>
      <vel value="0.0699196263" flag="0"/>
      <psa03 value="0.2678241545" flag="0"/>
      <psa10 value="0.0497358199" flag="0"/>
      <psa30 value="0.0023011117" flag="0"/>
    </comp>
    <comp name="--.HHN">
      <acc value="0.1127633935" flag="0"/>
      <vel value="0.0340469438" flag="0"/>
      <psa03 value="0.1497949896" flag="0"/>
      <psa10 value="0.0168593866" flag="0"/>
      <psa30 value="0.0019841770" flag="0"/>
    </comp>
    <comp name="--.HHZ">
      <acc value="0.0869248660" flag="0"/>
      <vel value="0.0238826453" flag="0"/>
      <psa03 value="0.0904640248" flag="0"/>
      <psa10 value="0.0097819606" flag="0"/>
      <psa30 value="0.0025422668" flag="0"/>
    </comp>
  </station>
  <station code="LKD2" name="LKD2" netid="HT" insttype="100" commtype="DIG" lat="38.7889" lon="20.6578">
    <comp name="--.HHE">
      <acc value="0.0229065745" flag="0"/>
      <vel value="0.0066601256" flag="0"/>
      <psa03 value="0.0280377822" flag="0"/>
      <psa10 value="0.0051147410" flag="0"/>
      <psa30 value="0.0004582022" flag="0"/>
    </comp>
    <comp name="--.HHZ">
      <acc value="0.0105612849" flag="0"/>
      <vel value="0.0061168351" flag="0"/>
      <psa03 value="0.0216681483" flag="0"/>
      <psa10 value="0.0050793105" flag="0"/>
      <psa30 value="0.0003792497" flag="0"/>
    </comp>
    <comp name="--.HHN">
      <acc value="0.0176105151" flag="0"/>
      <vel value="0.0069555964" flag="0"/>
      <psa03 value="0.0344960824" flag="0"/>
      <psa10 value="0.0083900837" flag="0"/>
      <psa30 value="0.0005054081" flag="0"/>
    </comp>
  </station>
  <station code="NYDR" name="NYDR" netid="HT" insttype="1s-100Hz," commtype="DIG" lat="38.7135" lon="20.6983">
    <comp name="--.HHE">
      <acc value="0.0155285407" flag="0"/>
      <vel value="0.0079550319" flag="0"/>
      <psa03 value="0.0289980326" flag="0"/>
      <psa10 value="0.0068234908" flag="0"/>
      <psa30 value="0.0004991129" flag="0"/>
    </comp>
    <comp name="--.HHZ">
      <acc value="0.0162369828" flag="0"/>
      <vel value="0.0060492897" flag="0"/>
      <psa03 value="0.0198772094" flag="0"/>
      <psa10 value="0.0057559901" flag="0"/>
      <psa30 value="0.0004850857" flag="0"/>
    </comp>
    <comp name="--.HHN">
      <acc value="0.0203916074" flag="0"/>
      <vel value="0.0086174783" flag="0"/>
      <psa03 value="0.0439390998" flag="0"/>
      <psa10 value="0.0103494814" flag="0"/>
      <psa30 value="0.0004665606" flag="0"/>
    </comp>
  </station>
  <station code="PSDA" name="PSDA" netid="HT" insttype="30" commtype="DIG" lat="38.114" lon="20.5841">
    <comp name="--.HHE">
      <acc value="2.4236744694" flag="0"/>
      <vel value="0.3967424796" flag="0"/>
      <psa03 value="0.7213541209" flag="0"/>
      <psa10 value="0.0826574559" flag="0"/>
      <psa30 value="0.0104050749" flag="0"/>
    </comp>
    <comp name="--.HHN">
      <acc value="1.6710563877" flag="0"/>
      <vel value="0.2363222833" flag="0"/>
      <psa03 value="0.8290164952" flag="0"/>
      <psa10 value="0.0475093594" flag="0"/>
      <psa30 value="0.0055345369" flag="0"/>
    </comp>
    <comp name="--.HHZ">
      <acc value="1.1666116971" flag="0"/>
      <vel value="0.1435001460" flag="0"/>
      <psa03 value="0.2869561564" flag="0"/>
      <psa10 value="0.0322234885" flag="0"/>
      <psa30 value="0.0026496313" flag="0"/>
    </comp>
  </station>
  <station code="RTZL" name="RTZL" netid="HT" insttype="Compact," commtype="DIG" lat="38.076" lon="20.7715">
