<?xml version="1.0" encoding="UTF-8" standalone="yes"?>
<!DOCTYPE earthquake SYSTEM "stationlist.dtd">
<stationlist created="" xmlns="ch.ethz.sed.shakemap.usgs.xml">
  <station code="RP05B" name="RP05B" netid="5B" insttype="Compact" commtype="DIG" lat="37.6182" lon="21.6541">
    <comp name="--.HHE">
      <acc value="0.0093666329" flag="0"/>
      <vel value="0.0060091764" flag="0"/>
      <psa03 value="0.0287938999" flag="0"/>
      <psa10 value="0.0078683081" flag="0"/>
      <psa30 value="0.0009391577" flag="0"/>
    </comp>
    <comp name="--.HHN">
      <acc value="0.0123171778" flag="0"/>
      <vel value="0.0080169405" flag="0"/>
      <psa03 value="0.0384656094" flag="0"/>
      <psa10 value="0.0129838040" flag="0"/>
      <psa30 value="0.0010430791" flag="0"/>
    </comp>
    <comp name="--.HHZ">
      <acc value="0.0067408461" flag="0"/>
      <vel value="0.0030543366" flag="0"/>
      <psa03 value="0.0198499935" flag="0"/>
      <psa10 value="0.0038587723" flag="0"/>
      <psa30 value="0.0004040104" flag="0"/>
    </comp>
  </station>
  <station code="HAVD" name="HAVD" netid="HA" insttype="GEOtiny," commtype="DIG" lat="38.2036" lon="20.3848">
    <comp name="--.HHE">
      <acc value="1.7062129676" flag="0"/>
      <vel value="0.4054683763" flag="0"/>
      <psa03 value="1.9114237326" flag="0"/>
      <psa10 value="0.1333894044" flag="0"/>
      <psa30 value="0.0125760913" flag="0"/>
    </comp>
    <comp name="--.HHZ">
      <acc value="2.5756479060" flag="0"/>
      <vel value="0.3330048420" flag="0"/>
      <psa03 value="1.7069878322" flag="0"/>
      <psa10 value="0.0711936572" flag="0"/>
      <psa30 value="0.0055007614" flag="0"/>
    </comp>
    <comp name="--.HHN">
      <acc value="2.8511436164" flag="0"/>
      <vel value="0.7673338205" flag="0"/>
      <psa03 value="2.9532320268" flag="0"/>
      <psa10 value="0.2172216585" flag="0"/>
      <psa30 value="0.0259895065" flag="0"/>
    </comp>
  </station>
  <station code="ARG2" name="ARG2" netid="HI" insttype="CMG-5TD,ACCELEROMETER,GURALP" commtype="DIG" lat="38.1783" lon="20.4878">
    <comp name="--.HNE">
      <acc value="5.1025111011" flag="0"/>
      <vel value="0.4860030888" flag="0"/>
      <psa03 value="1.4373069279" flag="0"/>
      <psa10 value="0.0933208589" flag="0"/>
      <psa30 value="0.0096314419" flag="0"/>
    </comp>
    <comp name="--.HNN">
      <acc value="3.8286825127" flag="0"/>
      <vel value="0.6101407029" flag="0"/>
      <psa03 value="2.4473141925" flag="0"/>
      <psa10 value="0.1671273071" flag="0"/>
      <psa30 value="0.0180838840" flag="0"/>
    </comp>
    <comp name="--.HNZ">
      <acc value="2.5920921979" flag="0"/>
      <vel value="0.2637885912" flag="0"/>
      <psa03 value="0.8746063875" flag="0"/>
      <psa10 value="0.0395237526" flag="0"/>
      <psa30 value="0.0036646778" flag="0"/>
    </comp>
  </station>
  <station code="AST1" name="AST1" netid="HI" insttype="unknown" commtype="DIG" lat="38.5416" lon="21.0895">
    <comp name="--.HNE">
      <acc value="0.0183164076" flag="0"/>
      <vel value="0.0063759070" flag="0"/>
      <psa03 value="0.0408020140" flag="0"/>
      <psa10 value="0.0079339110" flag="0"/>
      <psa30 value="0.0004001518" flag="0"/>
    </comp>
    <comp name="--.HNZ">
      <acc value="0.0341075435" flag="0"/>
      <vel value="0.0049365410" flag="0"/>
      <psa03 value="0.0229820374" flag="0"/>
      <psa10 value="0.0040763975" flag="0"/>
      <psa30 value="0.0004148026" flag="0"/>
    </comp>
    <comp name="--.HNN">
      <acc value="0.0203533461" flag="0"/>
      <vel value="0.0088238998" flag="0"/>
      <psa03 value="0.0824878587" flag="0"/>
      <psa10 value="0.0037040581" flag="0"/>
      <psa30 value="0.0006137420" flag="0"/>
    </comp>
  </station>
  <station code="LXR2" name="LXR2" netid="HI" insttype="unknown" commtype="DIG" lat="38.2067" lon="20.4364">
    <comp name="--.HNE">
      <acc value="3.9201745734" flag="0"/>
      <vel value="0.4759333116" flag="0"/>
      <psa03 value="1.9933697121" flag="0"/>
      <psa10 value="0.1450679844" flag="0"/>
      <psa30 value="0.0154317276" flag="0"/>
    </comp>
    <comp name="--.HNN">
      <acc value="5.1684957636" flag="0"/>
      <vel value="1.3739590252" flag="0"/>
      <psa03 value="3.1200060638" flag="0"/>
      <psa10 value="0.2535435161" flag="0"/>
      <psa30 value="0.0300539708" flag="0"/>
    </comp>
    <comp name="--.HNZ">
      <acc value="5.0349078548" flag="0"/>
      <vel value="0.4895379226" flag="0"/>
      <psa03 value="0.9163088300" flag="0"/>
      <psa10 value="0.1013909274" flag="0"/>
      <psa30 value="0.0052645668" flag="0"/>
    </comp>
  </station>
  <station code="VAS2" name="VAS2" netid="HI" insttype="CMG-5TD,ACCELEROMETER,GURALP" commtype="DIG" lat="38.6306" lon="20.6081">
    <comp name="--.HNE">
      <acc value="0.0699203922" flag="0"/>
      <vel value="0.0620893715" flag="0"/>
      <psa03 value="0.1047105329" flag="0"/>
      <psa10 value="0.0886882174" flag="0"/>
      <psa30 value="0.0049191175" flag="0"/>
    </comp>
    <comp name="--.HNN">
      <acc value="0.0769684566" flag="0"/>
      <vel value="0.0563383921" flag="0"/>
      <psa03 value="0.2613355476" flag="0"/>
      <psa10 value="0.0781119224" flag="0"/>
      <psa30 value="0.0028043346" flag="0"/>
    </comp>
    <comp name="--.HNZ">
      <acc value="0.0414025252" flag="0"/>
      <vel value="0.0243463694" flag="0"/>
      <psa03 value="0.0893047060" flag="0"/>
      <psa10 value="0.0437326492" flag="0"/>
      <psa30 value="0.0015131188" flag="0"/>
    </comp>
  </station>
  <station code="VSK1" name="VSK1" netid="HI" insttype="unknown" commtype="DIG" lat="38.4091" lon="20.564">
    <comp name="--.HNE">
      <acc value="0.1756560008" flag="0"/>
      <vel value="0.0557667204" flag="0"/>
      <psa03 value="0.1267725689" flag="0"/>
      <psa10 value="0.0527448464" flag="0"/>
      <psa30 value="0.0040143046" flag="0"/>
    </comp>
    <comp name="--.HNZ">
      <acc value="0.0991659762" flag="0"/>
      <vel value="0.0264068125" flag="0"/>
      <psa03 value="0.1075396285" flag="0"/>
      <psa10 value="0.0285242836" flag="0"/>
      <psa30 value="0.0016199962" flag="0"/>
    </comp>
    <comp name="--.HNN">
      <acc value="0.1542453117" flag="0"/>
      <vel value="0.0467142568" flag="0"/>
      <psa03 value="0.2170332181" flag="0"/>
      <psa10 value="0.0350690319" flag="0"/>
      <psa30 value="0.0020862891" flag="0"/>
    </comp>
  </station>
  <station code="LXRA" name="LXRA" netid="HL" insttype="CMG-5" commtype="DIG" lat="38.2001" lon="20.4372">
    <comp name="00.HNE">
      <acc value="4.9699460389" flag="0"/>
      <vel value="0.7371063792" flag="0"/>
      <psa03 value="1.9025034801" flag="0"/>
      <psa10 value="0.1677632010" flag="0"/>
      <psa30 value="0.0198088716" flag="0"/>
    </comp>
    <comp name="00.HNN">
      <acc value="12.9140565009" flag="0"/>
      <vel value="1.9957088356" flag="0"/>
      <psa03 value="6.1302376591" flag="0"/>
      <psa10 value="0.4222611774" flag="0"/>
      <psa30 value="0.0500759806" flag="0"/>
    </comp>
    <comp name="00.HNZ">
      <acc value="6.3082975890" flag="0"/>
      <vel value="0.7854350511" flag="0"/>
      <psa03 value="1.2919674290" flag="0"/>
      <psa10 value="0.0621079079" flag="0"/>
      <psa30 value="0.0069285390" flag="0"/>
    </comp>
  </station>
  <station code="ORTH" name="ORTH" netid="HL" insttype="30" commtype="DIG" lat="37.8511" lon="20.6963">
    <comp name="--.HHN">
      <acc value="0.1118313762" flag="0"/>
      <vel value="0.0308026437" flag="0"/>
      <psa03 value="0.1259634694" flag="0"/>
      <psa10 value="0.0212400638" flag="0"/>
      <psa30 value="0.0015423650" flag="0"/>
    </comp>
    <comp name="--.HHE">
      <acc value="0.0987133078" flag="0"/>
      <vel value="0.0310463094" flag="0"/>
      <psa03 value="0.2318778133" flag="0"/>
      <psa10 value="0.0230381199" flag="0"/>
      <psa30 value="0.0013381426" flag="0"/>
    </comp>
    <comp name="--.HHZ">
      <acc value="0.0370616169" flag="0"/>
      <vel value="0.0146502949" flag="0"/>
      <psa03 value="0.0650192953" flag="0"/>
      <psa10 value="0.0095289356" flag="0"/>
      <psa30 value="0.0008043267" flag="0"/>
    </comp>
  </station>
  <station code="RLS" name="RLS" netid="HL" insttype="CMG3ESPC-120s" commtype="DIG" lat="38.0559" lon="21.4647">
    <comp name="--.HHE">
      <acc value="0.0039750629" flag="0"/>
      <vel value="0.0017838625" flag="0"/>
      <psa03 value="0.0096350737" flag="0"/>
      <psa10 value="0.0027670456" flag="0"/>
      <psa30 value="0.0002227053" flag="0"/>
    </comp>
    <comp name="--.HHN">
      <acc value="0.0056481416" flag="0"/>
      <vel value="0.0032022144" flag="0"/>
      <psa03 value="0.0124619703" flag="0"/>
      <psa10 value="0.0027607324" flag="0"/>
      <psa30 value="0.0003388050" flag="0"/>
    </comp>
    <comp name="--.HHZ">
      <acc value="0.0025750799" flag="0"/>
      <vel value="0.0011588757" flag="0"/>
      <psa03 value="0.0049481316" flag="0"/>
      <psa10 value="0.0023945408" flag="0"/>
      <psa30 value="0.0001748692" flag="0"/>
    </comp>
  </station>
  <station code="AMPL" name="AMPL" netid="HP" insttype="Compact," commtype="DIG" lat="38.9224" lon="21.2135">
    <comp name="--.HHE">
      <acc value="0.0066705068" flag="0"/>
      <vel value="0.0025917782" flag="0"/>
      <psa03 value="0.0189167847" flag="0"/>
      <psa10 value="0.0032131126" flag="0"/>
      <psa30 value="0.0001947077" flag="0"/>
    </comp>
    <comp name="--.HHN">
      <acc value="0.0047418015" flag="0"/>
      <vel value="0.0021480957" flag="0"/>
      <psa03 value="0.0129159219" flag="0"/>
      <psa10 value="0.0025969784" flag="0"/>
      <psa30 value="0.0002000282" flag="0"/>
    </comp>
    <comp name="--.HHZ">
      <acc value="0.0036501996" flag="0"/>
      <vel value="0.0016446750" flag="0"/>
      <psa03 value="0.0099266991" flag="0"/>
      <psa10 value="0.0024509506" flag="0"/>
      <psa30 value="0.0001870181" flag="0"/>
    </comp>
  </station>
  <station code="AXS" name="AXS" netid="HP" insttype="Compact," commtype="DIG" lat="38.1962" lon="21.3763">
    <comp name="--.HHE">
      <acc value="0.0033034417" flag="0"/>
      <vel value="0.0016611775" flag="0"/>
      <psa03 value="0.0067274638" flag="0"/>
      <psa10 value="0.0021675443" flag="0"/>
      <psa30 value="0.0002395990" flag="0"/>
    </comp>
    <comp name="--.HHN">
      <acc value="0.0036612609" flag="0"/>
      <vel value="0.0024547736" flag="0"/>
      <psa03 value="0.0138774514" flag="0"/>
      <psa10 value="0.0037088500" flag="0"/>
      <psa30 value="0.0004438604" flag="0"/>
    </comp>
    <comp name="--.HHZ">
      <acc value="0.0027258597" flag="0"/>
      <vel value="0.0010857081" flag="0"/>
      <psa03 value="0.0064068635" flag="0"/>
      <psa10 value="0.0012262751" flag="0"/>
      <psa30 value="0.0001563796" flag="0"/>
    </comp>
  </station>
  <station code="DRO" name="DRO" netid="HP" insttype="120P," commtype="DIG" lat="37.952" lon="21.71">
    <comp name="--.HHE">
      <acc value="0.0065741262" flag="0"/>
      <vel value="0.0035698421" flag="0"/>
      <psa03 value="0.0182916319" flag="0"/>
      <psa10 value="0.0074739809" flag="0"/>
      <psa30 value="0.0003915619" flag="0"/>
    </comp>
    <comp name="--.HHN">
      <acc value="0.0068440631" flag="0"/>
      <vel value="0.0036925965" flag="0"/>
      <psa03 value="0.0214080561" flag="0"/>
      <psa10 value="0.0038149394" flag="0"/>
      <psa30 value="0.0002776932" flag="0"/>
    </comp>
    <comp name="--.HHZ">
      <acc value="0.0036362207" flag="0"/>
      <vel value="0.0020272913" flag="0"/>
      <psa03 value="0.0123731689" flag="0"/>
      <psa10 value="0.0029243646" flag="0"/>
      <psa30 value="0.0002106728" flag="0"/>
    </comp>
  </station>
  <station code="EFP" name="EFP" netid="HP" insttype="40," commtype="DIG" lat="38.4269" lon="21.9058">
    <comp name="--.HHZ">
      <acc value="0.0022002407" flag="0"/>
      <vel value="0.0013886943" flag="0"/>
      <psa03 value="0.0062240374" flag="0"/>
      <psa10 value="0.0023771187" flag="0"/>
      <psa30 value="0.0002344169" flag="0"/>
    </comp>
    <comp name="--.HHE">
      <acc value="0.0040226318" flag="0"/>
      <vel value="0.0029977312" flag="0"/>
      <psa03 value="0.0130849942" flag="0"/>
      <psa10 value="0.0050047356" flag="0"/>
      <psa30 value="0.0002969173" flag="0"/>
    </comp>
    <comp name="--.HHN">
      <acc value="0.0032502250" flag="0"/>
      <vel value="0.0032093001" flag="0"/>
      <psa03 value="0.0095717087" flag="0"/>
      <psa10 value="0.0056871389" flag="0"/>
      <psa30 value="0.0005695706" flag="0"/>
    </comp>
  </station>
  <station code="FSK" name="FSK" netid="HP" insttype="40," commtype="DIG" lat="38.4593" lon="20.5623">
    <comp name="--.HHN">
      <acc value="0.0852928463" flag="0"/>
      <vel value="0.0362368173" flag="0"/>
      <psa03 value="0.0702689206" flag="0"/>
      <psa10 value="0.0269306708" flag="0"/>
      <psa30 value="0.0021120189" flag="0"/>
    </comp>
    <comp name="--.HHZ">
      <acc value="0.1307197288" flag="0"/>
      <vel value="0.0290449199" flag="0"/>
      <psa03 value="0.0617410736" flag="0"/>
      <psa10 value="0.0164815714" flag="0"/>
      <psa30 value="0.0011892737" flag="0"/>
    </comp>
    <comp name="--.HHE">
      <acc value="0.2270291574" flag="0"/>
      <vel value="0.0593589467" flag="0"/>
      <psa03 value="0.1111382590" flag="0"/>
      <psa10 value="0.0325447217" flag="0"/>
      <psa30 value="0.0029740541" flag="0"/>
    </comp>
  </station>
  <station code="KSTR" name="KSTR" netid="HP" insttype="Compact," commtype="DIG" lat="39.2492" lon="20.576">
    <comp name="--.HHE">
      <acc value="0.0140990185" flag="0"/>
      <vel value="0.0126673466" flag="0"/>
      <psa03 value="0.0412028243" flag="0"/>
      <psa10 value="0.0129149999" flag="0"/>
      <psa30 value="0.0009503443" flag="0"/>
    </comp>
    <comp name="--.HHZ">
      <acc value="0.0069760340" flag="0"/>
      <vel value="0.0056318054" flag="0"/>
      <psa03 value="0.0114777475" flag="0"/>
      <psa10 value="0.0052744107" flag="0"/>
      <psa30 value="0.0002560019" flag="0"/>
    </comp>
    <comp name="--.HHN">
      <acc value="0.0055968468" flag="0"/>
      <vel value="0.0040282795" flag="0"/>
      <psa03 value="0.0103046372" flag="0"/>
      <psa10 value="0.0043853594" flag="0"/>
      <psa30 value="0.0004926749" flag="0"/>
    </comp>
  </station>
  <station code="LTHK" name="LTHK" netid="HP" insttype="40," commtype="DIG" lat="37.7095" lon="20.8367">
    <comp name="--.HHE">
      <acc value="0.0345826047" flag="0"/>
      <vel value="0.0142354570" flag="0"/>
      <psa03 value="0.0618557534" flag="0"/>
      <psa10 value="0.0125071341" flag="0"/>
      <psa30 value="0.0010414489" flag="0"/>
    </comp>
    <comp name="--.HHN">
      <acc value="0.0319322576" flag="0"/>
      <vel value="0.0118932320" flag="0"/>
      <psa03 value="0.0551881040" flag="0"/>
      <psa10 value="0.0108229067" flag="0"/>
      <psa30 value="0.0006327680" flag="0"/>
    </comp>
    <comp name="--.HHZ">
      <acc value="0.0161396051" flag="0"/>
      <vel value="0.0069292850" flag="0"/>
      <psa03 value="0.0366682017" flag="0"/>
      <psa10 value="0.0062602487" flag="0"/>
      <psa30 value="0.0003141054" flag="0"/>
    </comp>
  </station>
  <station code="PDO" name="PDO" netid="HP" insttype="120s" commtype="DIG" lat="38.5986" lon="21.1833">
    <comp name="--.HHE">
      <acc value="0.0140393546" flag="0"/>
      <vel value="0.0055869138" flag="0"/>
      <psa03 value="0.0387166883" flag="0"/>
      <psa10 value="0.0051130680" flag="0"/>
      <psa30 value="0.0004593763" flag="0"/>
    </comp>
    <comp name="--.HHN">
      <acc value="0.0149962475" flag="0"/>
      <vel value="0.0076128336" flag="0"/>
      <psa03 value="0.0434436716" flag="0"/>
      <psa10 value="0.0084609326" flag="0"/>
      <psa30 value="0.0005315628" flag="0"/>
    </comp>
    <comp name="--.HHZ">
      <acc value="0.0111920509" flag="0"/>
      <vel value="0.0037190442" flag="0"/>
      <psa03 value="0.0246093893" flag="0"/>
      <psa10 value="0.0031126768" flag="0"/>
      <psa30 value="0.0003125222" flag="0"/>
    </comp>
  </station>
  <station code="PLEV" name="PLEV" netid="HP" insttype="Compact," commtype="DIG" lat="38.4124" lon="21.4073">
    <comp name="--.HHE">
      <acc value="0.0046188434" flag="0"/>
      <vel value="0.0028229153" flag="0"/>
      <psa03 value="0.0219868199" flag="0"/>
      <psa10 value="0.0047798784" flag="0"/>
      <psa30 value="0.0003181174" flag="0"/>
    </comp>
    <comp name="--.HHZ">
      <acc value="0.0042775037" flag="0"/>
      <vel value="0.0016543434" flag="0"/>
      <psa03 value="0.0092882597" flag="0"/>
      <psa10 value="0.0019759777" flag="0"/>
      <psa30 value="0.0002071953" flag="0"/>
    </comp>
    <comp name="--.HHN">
      <acc value="0.0067093012" flag="0"/>
      <vel value="0.0058010275" flag="0"/>
      <psa03 value="0.0239977327" flag="0"/>
      <psa10 value="0.0046103236" flag="0"/>
      <psa30 value="0.0006181445" flag="0"/>
    </comp>
  </station>
  <station code="PVO" name="PVO" netid="HP" insttype="120P," commtype="DIG" lat="38.616" lon="21.525">
    <comp name="--.HHE">
      <acc value="0.0114720713" flag="0"/>
      <vel value="0.0063822386" flag="0"/>
      <psa03 value="0.0242552100" flag="0"/>
      <psa10 value="0.0083908655" flag="0"/>
      <psa30 value="0.0006703773" flag="0"/>
    </comp>
    <comp name="--.HHZ">
      <acc value="0.0056323923" flag="0"/>
      <vel value="0.0030148209" flag="0"/>
      <psa03 value="0.0140834835" flag="0"/>
      <psa10 value="0.0052548333" flag="0"/>
      <psa30 value="0.0002387850" flag="0"/>
    </comp>
    <comp name="--.HHN">
      <acc value="0.0093565941" flag="0"/>
      <vel value="0.0055601380" flag="0"/>
      <psa03 value="0.0294082161" flag="0"/>
      <psa10 value="0.0060352383" flag="0"/>
      <psa30 value="0.0006340685" flag="0"/>
    </comp>
  </station>
  <station code="VVK" name="VVK" netid="HP" insttype="40," commtype="DIG" lat="38.4222" lon="21.8116">
    <comp name="--.HHN">
      <acc value="0.0041342080" flag="0"/>
      <vel value="0.0042239775" flag="0"/>
      <psa03 value="0.0121463296" flag="0"/>
      <psa10 value="0.0050220656" flag="0"/>
      <psa30 value="0.0005871666" flag="0"/>
    </comp>
    <comp name="--.HHE">
      <acc value="0.0055977376" flag="0"/>
      <vel value="0.0035567856" flag="0"/>
      <psa03 value="0.0194529947" flag="0"/>
      <psa10 value="0.0043815011" flag="0"/>
      <psa30 value="0.0003245827" flag="0"/>
    </comp>
    <comp name="--.HHZ">
      <acc value="0.0022959015" flag="0"/>
      <vel value="0.0015207407" flag="0"/>
      <psa03 value="0.0065836653" flag="0"/>
      <psa10 value="0.0019109888" flag="0"/>
      <psa30 value="0.0002531825" flag="0"/>
    </comp>
  </station>
  <station code="DRAG" name="DRAG" netid="HT" insttype="30s-100Hz," commtype="DIG" lat="38.6839" lon="20.5746">
    <comp name="--.HHE">
      <acc value="0.0412135338" flag="0"/>
      <vel value="0.0171106717" flag="0"/>
      <psa03 value="0.1198542010" flag="0"/>
      <psa10 value="0.0120935515" flag="0"/>
      <psa30 value="0.0005876915" flag="0"/>
    </comp>
    <comp name="--.HHN">
      <acc value="0.0450918780" flag="0"/>
      <vel value="0.0135126326" flag="0"/>
      <psa03 value="0.0619303952" flag="0"/>
      <psa10 value="0.0085291090" flag="0"/>
      <psa30 value="0.0004759147" flag="0"/>
    </comp>
    <comp name="--.HHZ">
      <acc value="0.0187849158" flag="0"/>
      <vel value="0.0055566235" flag="0"/>
      <psa03 value="0.0212510552" flag="0"/>
      <psa10 value="0.0035753046" flag="0"/>
      <psa30 value="0.0003120833" flag="0"/>
    </comp>
  </station>
  <station code="EVGI" name="EVGI" netid="HT" insttype="30" commtype="DIG" lat="38.621" lon="20.656">
