<stationlist created="1763006545">
	<station code="AKDN" name="AKDN" netid="KO" source="Bogazici University Kandilli Observatory And Earthquake Research Institute (KOERI)" insttype="" lat="35.2977" lon="32.9677">
		<comp name="--.HNE" depth="0.0">
			<acc value="0.010583231281248" flag="0"/>
			<vel value="0.00692583260491" flag="0"/>
			<psa03 value="0.0308386600973891" flag="0"/>
			<psa10 value="0.00946264747893936" flag="0"/>
			<psa30 value="0.00132152556541746" flag="0"/>
		</comp>
		<comp name="--.HNN" depth="0.0">
			<acc value="0.010325475433314" flag="0"/>
			<vel value="0.00812401951141" flag="0"/>
			<psa03 value="0.0297293496318532" flag="0"/>
			<psa10 value="0.0106024370469174" flag="0"/>
			<psa30 value="0.00116570857664063" flag="0"/>
		</comp>
		<comp name="--.HNZ" depth="0.0">
			<acc value="0.011423052030666" flag="0"/>
			<vel value="0.00501678068933" flag="0"/>
			<psa03 value="0.0289777633846204" flag="0"/>
			<psa10 value="0.00451817368183044" flag="0"/>
			<psa30 value="0.000559057816087705" flag="0"/>
		</comp>
	</station>
	<station code="AKIN" name="AKIN" netid="KO" source="Bogazici University Kandilli Observatory And Earthquake Research Institute (KOERI)" insttype="" lat="35.0157" lon="33.4662">
		<comp name="--.HNE" depth="0.0">
			<acc value="0.0077467367863524" flag="0"/>
			<vel value="0.00426831562191" flag="0"/>
			<psa03 value="0.0113687322893769" flag="0"/>
			<psa10 value="0.00657091997870386" flag="0"/>
			<psa30 value="0.000591252240477588" flag="0"/>
		</comp>
		<comp name="--.HNN" depth="0.0">
			<acc value="0.0062560335749592" flag="0"/>
			<vel value="0.00509750847739" flag="0"/>
			<psa03 value="0.0162179311291955" flag="0"/>
			<psa10 value="0.00447073116399717" flag="0"/>
			<psa30 value="0.000585063028387577" flag="0"/>
		</comp>
		<comp name="--.HNZ" depth="0.0">
			<acc value="0.0054735941715018" flag="0"/>
			<vel value="0.00273861681112" flag="0"/>
			<psa03 value="0.0158860719055551" flag="0"/>
			<psa10 value="0.0026286628078871" flag="0"/>
			<psa30 value="0.000305856615666197" flag="0"/>
		</comp>
	</station>
	<station code="ALAN" name="ALAN" netid="KO" source="Bogazici University Kandilli Observatory And Earthquake Research Institute (KOERI)" insttype="" lat="36.557" lon="32.0327">
		<comp name="--.HNE" depth="0.0">
			<acc value="0.0032058246839892" flag="0"/>
			<vel value="0.00154584572597" flag="0"/>
			<psa03 value="0.00554919182547982" flag="0"/>
			<psa10 value="0.00142993187440787" flag="0"/>
			<psa30 value="0.00077152225539644" flag="0"/>
		</comp>
		<comp name="--.HNN" depth="0.0">
			<acc value="0.0029237313395922" flag="0"/>
			<vel value="0.00158796465746" flag="0"/>
			<psa03 value="0.00624041339674265" flag="0"/>
			<psa10 value="0.000950619946560522" flag="0"/>
			<psa30 value="0.000623754914452114" flag="0"/>
		</comp>
		<comp name="--.HNZ" depth="0.0">
			<acc value="0.011864171118648" flag="0"/>
			<vel value="0.00152753908478" flag="0"/>
			<psa03 value="0.00209399988258209" flag="0"/>
			<psa10 value="0.000730361703190192" flag="0"/>
			<psa30 value="0.000670668230561597" flag="0"/>
		</comp>
	</station>
	<station code="BOZY" name="BOZY" netid="KO" source="Bogazici University Kandilli Observatory And Earthquake Research Institute (KOERI)" insttype="" lat="36.1069" lon="32.9763">
		<comp name="--.HNE" depth="0.0">
			<acc value="0.011909651223408" flag="0"/>
			<vel value="0.00175053632654" flag="0"/>
			<psa03 value="0.0102526537973584" flag="0"/>
			<psa10 value="0.00164987445233701" flag="0"/>
			<psa30 value="0.000212390671402275" flag="0"/>
		</comp>
		<comp name="--.HNN" depth="0.0">
			<acc value="0.013652500139466" flag="0"/>
			<vel value="0.00193011758357" flag="0"/>
			<psa03 value="0.0116183191357966" flag="0"/>
			<psa10 value="0.00135331851789698" flag="0"/>
			<psa30 value="0.000217360818358279" flag="0"/>
		</comp>
		<comp name="--.HNZ" depth="0.0">
			<acc value="0.014540296006566" flag="0"/>
			<vel value="0.00134219290159" flag="0"/>
			<psa03 value="0.00685598672753891" flag="0"/>
			<psa10 value="0.0013785178434794" flag="0"/>
			<psa30 value="0.000264807880763965" flag="0"/>
		</comp>
	</station>
</stationlist>
