<?xml version="1.0" encoding="UTF-8" standalone="yes"?>
<!DOCTYPE earthquake SYSTEM "stationlist.dtd">
<stationlist created="" xmlns="ch.ethz.sed.shakemap.usgs.xml">
  <station code="LEF" name="LEF" netid="KO" insttype="CMG-6T" commtype="DIG" lat="35.1118" lon="32.8433">
    <comp name="--.HHN">
      <acc value="0.0488259779" flag="0"/>
      <vel value="0.0182881473" flag="0"/>
      <psa03 value="0.1192936260" flag="0"/>
      <psa10 value="0.0278406398" flag="0"/>
      <psa30 value="0.0009215034" flag="0"/>
    </comp>
    <comp name="--.HHZ">
      <acc value="0.0366683914" flag="0"/>
      <vel value="0.0167900654" flag="0"/>
      <psa03 value="0.0712845190" flag="0"/>
      <psa10 value="0.0254592533" flag="0"/>
      <psa30 value="0.0009803651" flag="0"/>
    </comp>
  </station>
</stationlist>
