<?xml version="1.0" encoding="UTF-8" standalone="yes"?>
<!DOCTYPE earthquake SYSTEM "stationlist.dtd">
<stationlist created="" xmlns="ch.ethz.sed.shakemap.usgs.xml">
  <station code="LEF" name="LEF" netid="KO" insttype="CMG-6T" commtype="DIG" lat="35.1118" lon="32.8433">
    <comp name="--.HHN">
      <acc value="0.0488259861" flag="0"/>
      <vel value="0.0182881473" flag="0"/>
      <psa03 value="0.1192936260" flag="0"/>
      <psa10 value="0.0278406395" flag="0"/>
      <psa30 value="0.0009214587" flag="0"/>
    </comp>
    <comp name="--.HHZ">
      <acc value="0.0366683921" flag="0"/>
      <vel value="0.0167900651" flag="0"/>
      <psa03 value="0.0712845190" flag="0"/>
      <psa10 value="0.0254592536" flag="0"/>
      <psa30 value="0.0009803688" flag="0"/>
    </comp>
  </station>
  <station code="LFK" name="LFK" netid="KO" insttype="CMG-6T" commtype="DIG" lat="35.2832" lon="33.5335">
    <comp name="--.HHE">
      <acc value="0.0807038436" flag="0"/>
      <vel value="0.0759996996" flag="0"/>
      <psa03 value="0.2135180393" flag="0"/>
      <psa10 value="0.0686277248" flag="0"/>
      <psa30 value="0.0041961287" flag="0"/>
    </comp>
    <comp name="--.HHZ">
      <acc value="0.0931503858" flag="0"/>
      <vel value="0.0270750102" flag="0"/>
      <psa03 value="0.0847240908" flag="0"/>
      <psa10 value="0.0285100786" flag="0"/>
      <psa30 value="0.0026338327" flag="0"/>
    </comp>
  </station>
</stationlist>
