<stationlist created="1778135797">
	<station code="KRL1" name="KRL1" netid="HI" source="ITSAK Strong Motion Network" insttype="" lat="37.7951" lon="26.7065">
		<comp name="--.HNE" depth="0.0">
			<acc value="0.830602448230634" flag="0"/>
			<vel value="0.311872961226393" flag="0"/>
			<psa03 value="1.43774606747154" flag="0"/>
			<psa10 value="0.20666738432426" flag="0"/>
			<psa30 value="0.0251545159828586" flag="0"/>
		</comp>
		<comp name="--.HNN" depth="0.0">
			<acc value="0.816699274947641" flag="0"/>
			<vel value="0.37686660651311" flag="0"/>
			<psa03 value="1.88181246815789" flag="0"/>
			<psa10 value="0.206900938642808" flag="0"/>
			<psa30 value="0.0256386266584683" flag="0"/>
		</comp>
		<comp name="--.HNZ" depth="0.0">
			<acc value="0.512222271174432" flag="0"/>
			<vel value="0.26965576406496" flag="0"/>
			<psa03 value="1.04374619599104" flag="0"/>
			<psa10 value="0.150014354882139" flag="0"/>
			<psa30 value="0.0141541970636903" flag="0"/>
		</comp>
	</station>
	<station code="MYT1" name="MYT1" netid="HI" source="ITSAK Strong Motion Network" insttype="" lat="39.085" lon="26.5694">
		<comp name="--.HNE" depth="0.0">
			<acc value="0.00915639252096665" flag="0"/>
			<vel value="0.00906101247360627" flag="0"/>
			<psa03 value="0.0301559377870598" flag="0"/>
			<psa10 value="0.0109181742129573" flag="0"/>
			<psa30 value="0.000571485983140758" flag="0"/>
		</comp>
		<comp name="--.HNN" depth="0.0">
			<acc value="0.0135564415972404" flag="0"/>
			<vel value="0.00970440777747726" flag="0"/>
			<psa03 value="0.0318122271955991" flag="0"/>
			<psa10 value="0.0137487126597482" flag="0"/>
			<psa30 value="0.000812803740090152" flag="0"/>
		</comp>
		<comp name="--.HNZ" depth="0.0">
			<acc value="0.00731971329353443" flag="0"/>
			<vel value="0.00639954514416109" flag="0"/>
			<psa03 value="0.015347283609283" flag="0"/>
			<psa10 value="0.0085638863779525" flag="0"/>
			<psa30 value="0.000680961047826491" flag="0"/>
		</comp>
	</station>
	<station code="KLNA" name="KLNA" netid="HL" source="National Observatory of Athens Seismic Network" insttype="" lat="36.95708" lon="26.97274">
		<comp name="00.HNE" depth="0.0">
			<acc value="0.0399066827154214" flag="0"/>
			<vel value="0.0194949406183082" flag="0"/>
			<psa03 value="0.103533466114681" flag="0"/>
			<psa10 value="0.00864150978625301" flag="0"/>
			<psa30 value="0.00105502123205885" flag="0"/>
		</comp>
		<comp name="00.HNN" depth="0.0">
			<acc value="0.0379694446499898" flag="0"/>
			<vel value="0.0175118812411275" flag="0"/>
			<psa03 value="0.0861734899467914" flag="0"/>
			<psa10 value="0.00957975385903817" flag="0"/>
			<psa30 value="0.00125859827217198" flag="0"/>
		</comp>
		<comp name="00.HNZ" depth="0.0">
			<acc value="0.0336808470663238" flag="0"/>
			<vel value="0.0111795098875658" flag="0"/>
			<psa03 value="0.0400442749233532" flag="0"/>
			<psa10 value="0.00798111481656731" flag="0"/>
			<psa30 value="0.000847417393350067" flag="0"/>
		</comp>
	</station>
	<station code="PRK" name="PRK" netid="HL" source="National Observatory of Athens Seismic Network" insttype="" lat="39.24565" lon="26.26499">
		<comp name="--.HNE" depth="0.0">
			<acc value="0.0188933988537042" flag="0"/>
			<vel value="0.0119929475231518" flag="0"/>
			<psa03 value="0.0587874985497413" flag="0"/>
			<psa10 value="0.0217973964705437" flag="0"/>
			<psa30 value="0.000818673191414559" flag="0"/>
		</comp>
		<comp name="--.HNN" depth="0.0">
			<acc value="0.013828133603336" flag="0"/>
			<vel value="0.011906181869599" flag="0"/>
			<psa03 value="0.0340131360158248" flag="0"/>
			<psa10 value="0.0211702705515439" flag="0"/>
			<psa30 value="0.000923567640157909" flag="0"/>
		</comp>
		<comp name="--.HNZ" depth="0.0">
			<acc value="0.00802823509691931" flag="0"/>
			<vel value="0.00631023372739018" flag="0"/>
			<psa03 value="0.0282984215065227" flag="0"/>
			<psa10 value="0.00716371237327852" flag="0"/>
			<psa30 value="0.000573619978676281" flag="0"/>
		</comp>
	</station>
	<station code="AKS" name="AKS" netid="KO" source="Bogazici University Kandilli Observatory And Earthquake Research Institute (KOERI)" insttype="" lat="38.8785" lon="27.8129">
		<comp name="--.HNE" depth="0.0">
			<acc value="0.0132615085590153" flag="0"/>
			<vel value="0.0101947784316215" flag="0"/>
			<psa03 value="0.0274269726570006" flag="0"/>
			<psa10 value="0.00848043784242723" flag="0"/>
			<psa30 value="0.000578964153640436" flag="0"/>
		</comp>
		<comp name="--.HNN" depth="0.0">
			<acc value="0.0153815453069927" flag="0"/>
			<vel value="0.0124713831234241" flag="0"/>
			<psa03 value="0.0349436633688702" flag="0"/>
			<psa10 value="0.00648717253758322" flag="0"/>
			<psa30 value="0.00105502123205885" flag="0"/>
		</comp>
		<comp name="--.HNZ" depth="0.0">
			<acc value="0.00285275377560954" flag="0"/>
			<vel value="0.00267655924968259" flag="0"/>
			<psa03 value="0.0093511211832188" flag="0"/>
			<psa10 value="0.00204158688799174" flag="0"/>
			<psa30 value="0.000390599463777512" flag="0"/>
		</comp>
	</station>
	<station code="DATC" name="DATC" netid="KO" source="Bogazici University Kandilli Observatory And Earthquake Research Institute (KOERI)" insttype="" lat="36.7584" lon="27.6602">
		<comp name="--.HNE" depth="0.0">
			<acc value="0.0762143486300958" flag="0"/>
			<vel value="0.071705006959291" flag="0"/>
			<psa03 value="0.0863972009798828" flag="0"/>
			<psa10 value="0.0573053708146163" flag="0"/>
			<psa30 value="0.0066612197213283" flag="0"/>
		</comp>
		<comp name="--.HNN" depth="0.0">
			<acc value="0.0958006014514143" flag="0"/>
			<vel value="0.0597555529974246" flag="0"/>
			<psa03 value="0.101296355783767" flag="0"/>
			<psa10 value="0.0506933675205681" flag="0"/>
			<psa30 value="0.00467735027987413" flag="0"/>
		</comp>
		<comp name="--.HNZ" depth="0.0">
			<acc value="0.079894736793665" flag="0"/>
			<vel value="0.0232501853930746" flag="0"/>
			<psa03 value="0.0629522847119084" flag="0"/>
			<psa10 value="0.0383592834221091" flag="0"/>
			<psa30 value="0.00339638090439301" flag="0"/>
		</comp>
	</station>
	<station code="DIDI" name="DIDI" netid="KO" source="Bogazici University Kandilli Observatory And Earthquake Research Institute (KOERI)" insttype="" lat="37.3767" lon="27.2398">
		<comp name="--.HNE" depth="0.0">
			<acc value="0.0493392306090573" flag="0"/>
			<vel value="0.0245329231370564" flag="0"/>
			<psa03 value="0.109528921801529" flag="0"/>
			<psa10 value="0.0253366167637949" flag="0"/>
			<psa30 value="0.00259236345146266" flag="0"/>
		</comp>
		<comp name="--.HNN" depth="0.0">
			<acc value="0.0636043340762849" flag="0"/>
			<vel value="0.0325203660290188" flag="0"/>
			<psa03 value="0.243039666350452" flag="0"/>
			<psa10 value="0.0339338317654958" flag="0"/>
			<psa30 value="0.00354089823177003" flag="0"/>
		</comp>
		<comp name="--.HNZ" depth="0.0">
			<acc value="0.0598109064129701" flag="0"/>
			<vel value="0.0215424410790435" flag="0"/>
			<psa03 value="0.081654527078346" flag="0"/>
			<psa10 value="0.0177541550081964" flag="0"/>
			<psa30 value="0.00124741272051742" flag="0"/>
		</comp>
	</station>
	<station code="EZNE" name="EZNE" netid="KO" source="Bogazici University Kandilli Observatory And Earthquake Research Institute (KOERI)" insttype="" lat="39.756" lon="26.3655">
		<comp name="--.HNE" depth="0.0">
			<acc value="0.0193461827279863" flag="0"/>
			<vel value="0.00216974337722644" flag="0"/>
			<psa03 value="0.0455475663374007" flag="0"/>
			<psa10 value="0.0102924972104672" flag="0"/>
			<psa30 value="0.00138342902863696" flag="0"/>
		</comp>
		<comp name="--.HNN" depth="0.0">
			<acc value="0.0299558156185524" flag="0"/>
			<vel value="0.00318842394616638" flag="0"/>
			<psa03 value="0.0484558097675883" flag="0"/>
			<psa10 value="0.0128052195341494" flag="0"/>
			<psa30 value="0.00193062621557843" flag="0"/>
		</comp>
		<comp name="--.HNZ" depth="0.0">
			<acc value="0.0294190278939566" flag="0"/>
			<vel value="0.00309210381755896" flag="0"/>
			<psa03 value="0.022550072135609" flag="0"/>
			<psa10 value="0.00793279323341958" flag="0"/>
			<psa30 value="0.00155031745932312" flag="0"/>
		</comp>
	</station>
	<station code="FOCM" name="FOCM" netid="KO" source="Bogazici University Kandilli Observatory And Earthquake Research Institute (KOERI)" insttype="" lat="38.7131" lon="26.7309">
		<comp name="--.HNE" depth="0.0">
			<acc value="0.028818817292329" flag="0"/>
			<vel value="0.0172723257461231" flag="0"/>
			<psa03 value="0.108544593255927" flag="0"/>
			<psa10 value="0.0149877443729887" flag="0"/>
			<psa30 value="0.000792384479209593" flag="0"/>
		</comp>
		<comp name="--.HNN" depth="0.0">
			<acc value="0.0187133044063333" flag="0"/>
			<vel value="0.0149093143935739" flag="0"/>
			<psa03 value="0.0749431960856052" flag="0"/>
			<psa10 value="0.02743055203353" flag="0"/>
			<psa30 value="0.0013203425173052" flag="0"/>
		</comp>
		<comp name="--.HNZ" depth="0.0">
			<acc value="0.0170439957617908" flag="0"/>
			<vel value="0.00916402675299014" flag="0"/>
			<psa03 value="0.0528405460161789" flag="0"/>
			<psa10 value="0.00605630508784926" flag="0"/>
			<psa30 value="0.000839811218224961" flag="0"/>
		</comp>
	</station>
	<station code="GMLD" name="GMLD" netid="KO" source="Bogazici University Kandilli Observatory And Earthquake Research Institute (KOERI)" insttype="" lat="38.0766" lon="26.9157">
		<comp name="--.HNE" depth="0.0">
			<acc value="1.57676762669283" flag="0"/>
			<vel value="0.8209250721175" flag="0"/>
			<psa03 value="4.67435255203071" flag="0"/>
			<psa10 value="0.420035361511673" flag="0"/>
			<psa30 value="0.0252775570510588" flag="0"/>
		</comp>
		<comp name="--.HNN" depth="0.0">
			<acc value="1.11046390305192" flag="0"/>
			<vel value="0.757249787710658" flag="0"/>
			<psa03 value="3.2624227377779" flag="0"/>
			<psa10 value="0.524252935965548" flag="0"/>
			<psa30 value="0.0287540265052985" flag="0"/>
		</comp>
		<comp name="--.HNZ" depth="0.0">
			<acc value="0.4972615463932" flag="0"/>
			<vel value="0.290876391577255" flag="0"/>
			<psa03 value="2.49831533315106" flag="0"/>
			<psa10 value="0.134849431370942" flag="0"/>
			<psa30 value="0.018029767000965" flag="0"/>
		</comp>
	</station>
	<station code="GOMA" name="GOMA" netid="KO" source="Bogazici University Kandilli Observatory And Earthquake Research Institute (KOERI)" insttype="" lat="38.7077" lon="27.9175">
		<comp name="--.HNE" depth="0.0">
			<acc value="0.0263968152471375" flag="0"/>
			<vel value="0.0162091072041782" flag="0"/>
			<psa03 value="0.0745405162260407" flag="0"/>
			<psa10 value="0.00664019088421771" flag="0"/>
			<psa30 value="0.000715427883826165" flag="0"/>
		</comp>
		<comp name="--.HNN" depth="0.0">
			<acc value="0.0192125150206394" flag="0"/>
			<vel value="0.0157563400935563" flag="0"/>
			<psa03 value="0.0698873267377405" flag="0"/>
			<psa10 value="0.00776769449099816" flag="0"/>
			<psa30 value="0.000639366132575103" flag="0"/>
		</comp>
		<comp name="--.HNZ" depth="0.0">
			<acc value="0.0102873416021568" flag="0"/>
			<vel value="0.0074783342766822" flag="0"/>
			<psa03 value="0.0222816188958993" flag="0"/>
			<psa10 value="0.00527510616029424" flag="0"/>
			<psa30 value="0.000795516433672872" flag="0"/>
		</comp>
	</station>
	<station code="GORD" name="GORD" netid="KO" source="Bogazici University Kandilli Observatory And Earthquake Research Institute (KOERI)" insttype="" lat="38.9088" lon="28.1769">
		<comp name="--.HNE" depth="0.0">
			<acc value="0.0372912840540476" flag="0"/>
			<vel value="0.0301162323756073" flag="0"/>
			<psa03 value="0.0967326507087035" flag="0"/>
			<psa10 value="0.0639898564833861" flag="0"/>
			<psa30 value="0.0030133876157406" flag="0"/>
		</comp>
		<comp name="--.HNN" depth="0.0">
			<acc value="0.0382263061377723" flag="0"/>
			<vel value="0.0292026624715658" flag="0"/>
			<psa03 value="0.0957035799564833" flag="0"/>
			<psa10 value="0.0359391774661268" flag="0"/>
			<psa30 value="0.0034872075838281" flag="0"/>
		</comp>
		<comp name="--.HNZ" depth="0.0">
			<acc value="0.0210984510529997" flag="0"/>
			<vel value="0.0148279976715372" flag="0"/>
			<psa03 value="0.0440710735189977" flag="0"/>
			<psa10 value="0.0211688802173029" flag="0"/>
			<psa30 value="0.00199505499310874" flag="0"/>
		</comp>
	</station>
	<station code="KRBN" name="KRBN" netid="KO" source="Bogazici University Kandilli Observatory And Earthquake Research Institute (KOERI)" insttype="" lat="38.5936" lon="26.5537">
		<comp name="--.HNE" depth="0.0">
			<acc value="0.130733589814264" flag="0"/>
			<vel value="0.070699921859653" flag="0"/>
			<psa03 value="0.343127982555526" flag="0"/>
			<psa10 value="0.0868862332982205" flag="0"/>
			<psa30 value="0.00540843793601669" flag="0"/>
		</comp>
		<comp name="--.HNN" depth="0.0">
			<acc value="0.152601964114712" flag="0"/>
			<vel value="0.0861491860425191" flag="0"/>
			<psa03 value="0.49189581956128" flag="0"/>
			<psa10 value="0.0678032347534614" flag="0"/>
			<psa30 value="0.0069354894478983" flag="0"/>
		</comp>
		<comp name="--.HNZ" depth="0.0">
			<acc value="0.101497856017484" flag="0"/>
			<vel value="0.0748178832716388" flag="0"/>
			<psa03 value="0.209930433452931" flag="0"/>
			<psa10 value="0.0971384625227312" flag="0"/>
			<psa30 value="0.0055815902756294" flag="0"/>
		</comp>
	</station>
	<station code="NAZL" name="NAZL" netid="KO" source="Bogazici University Kandilli Observatory And Earthquake Research Institute (KOERI)" insttype="" lat="37.9641" lon="28.2922">
		<comp name="--.HNE" depth="0.0">
			<acc value="0.0389758791919001" flag="0"/>
			<vel value="0.024624779732181" flag="0"/>
			<psa03 value="0.142817123525523" flag="0"/>
			<psa10 value="0.0190225965658244" flag="0"/>
			<psa30 value="0.00292166609217315" flag="0"/>
		</comp>
		<comp name="--.HNN" depth="0.0">
			<acc value="0.041481355439563" flag="0"/>
			<vel value="0.0206791220650651" flag="0"/>
			<psa03 value="0.103488723908063" flag="0"/>
			<psa10 value="0.0208990847113947" flag="0"/>
			<psa30 value="0.00187380361317322" flag="0"/>
		</comp>
		<comp name="--.HNZ" depth="0.0">
			<acc value="0.0155003146426033" flag="0"/>
			<vel value="0.0102105041288505" flag="0"/>
			<psa03 value="0.0481873565278787" flag="0"/>
			<psa10 value="0.0133246765529875" flag="0"/>
			<psa30 value="0.00201966320674879" flag="0"/>
		</comp>
	</station>
	<station code="SOMA" name="SOMA" netid="KO" source="Bogazici University Kandilli Observatory And Earthquake Research Institute (KOERI)" insttype="" lat="39.1564" lon="27.5341">
		<comp name="--.HNE" depth="0.0">
			<acc value="0.0635155979505111" flag="0"/>
			<vel value="0.0367416893950477" flag="0"/>
			<psa03 value="0.176060583042899" flag="0"/>
			<psa10 value="0.0339378585640915" flag="0"/>
			<psa30 value="0.00319906777320643" flag="0"/>
		</comp>
		<comp name="--.HNN" depth="0.0">
			<acc value="0.0611336536228183" flag="0"/>
			<vel value="0.0395633314116175" flag="0"/>
			<psa03 value="0.203308586873427" flag="0"/>
			<psa10 value="0.0276479991576948" flag="0"/>
			<psa30 value="0.00364112077459495" flag="0"/>
		</comp>
		<comp name="--.HNZ" depth="0.0">
			<acc value="0.0375667791828144" flag="0"/>
			<vel value="0.0195111596409214" flag="0"/>
			<psa03 value="0.105904803065449" flag="0"/>
			<psa10 value="0.0164494722632076" flag="0"/>
			<psa30 value="0.00313911321633795" flag="0"/>
		</comp>
	</station>
	<station code="YKAV" name="YKAV" netid="KO" source="Bogazici University Kandilli Observatory And Earthquake Research Institute (KOERI)" insttype="" lat="37.1246" lon="27.2801">
		<comp name="--.HNE" depth="0.0">
			<acc value="0.0165783697848545" flag="0"/>
			<vel value="0.00959826848932565" flag="0"/>
			<psa03 value="0.0424603540807399" flag="0"/>
			<psa10 value="0.00778782848397638" flag="0"/>
			<psa30 value="0.00100401511651402" flag="0"/>
		</comp>
		<comp name="--.HNN" depth="0.0">
			<acc value="0.0127825386679097" flag="0"/>
			<vel value="0.0133998067017534" flag="0"/>
			<psa03 value="0.0250556357062322" flag="0"/>
			<psa10 value="0.0141219826749251" flag="0"/>
			<psa30 value="0.000934217274189514" flag="0"/>
		</comp>
		<comp name="--.HNZ" depth="0.0">
			<acc value="0.006734101450309" flag="0"/>
			<vel value="0.00657936499302669" flag="0"/>
			<psa03 value="0.022057907862808" flag="0"/>
			<psa10 value="0.00639052937128775" flag="0"/>
			<psa30 value="0.000933769852123331" flag="0"/>
		</comp>
	</station>
</stationlist>
