<stationlist created="1631873501">
	<station code="KRL1" name="KRL1" netid="HI" source="ITSAK Strong Motion Network" insttype="" lat="37.7951" lon="26.7065">
		<comp name="--.HNE" depth="0.0">
			<acc value="-0.822406824" flag="0"/>
			<vel value="-0.311725" flag="0"/>
			<psa03 value="1.43774606747" flag="0"/>
			<psa10 value="0.206667384324" flag="0"/>
			<psa30 value="0.0251545159829" flag="0"/>
		</comp>
		<comp name="--.HNN" depth="0.0">
			<acc value="-0.811200594" flag="0"/>
			<vel value="0.375925" flag="0"/>
			<psa03 value="1.88181246816" flag="0"/>
			<psa10 value="0.206900938643" flag="0"/>
			<psa30 value="0.0256386266585" flag="0"/>
		</comp>
		<comp name="--.HNZ" depth="0.0">
			<acc value="-0.505604718" flag="0"/>
			<vel value="-0.268794" flag="0"/>
			<psa03 value="1.04374619599" flag="0"/>
			<psa10 value="0.150014354882" flag="0"/>
			<psa30 value="0.0141541970637" flag="0"/>
		</comp>
	</station>
	<station code="KLNA" name="KLNA" netid="HL" source="National Observatory of Athens Seismic Network" insttype="" lat="36.95708" lon="26.97274">
		<comp name="--.HNE" depth="0.0">
			<acc value="-0.039906684" flag="0"/>
			<vel value="0.019495" flag="0"/>
			<psa03 value="0.103533466115" flag="0"/>
			<psa10 value="0.00864150978625" flag="0"/>
			<psa30 value="0.00105502123206" flag="0"/>
		</comp>
		<comp name="--.HNN" depth="0.0">
			<acc value="0.037969398" flag="0"/>
			<vel value="0.017512" flag="0"/>
			<psa03 value="0.0861734899468" flag="0"/>
			<psa10 value="0.00957975385904" flag="0"/>
			<psa30 value="0.00125859827217" flag="0"/>
		</comp>
		<comp name="--.HNZ" depth="0.0">
			<acc value="-0.033680808" flag="0"/>
			<vel value="0.01118" flag="0"/>
			<psa03 value="0.0400442749234" flag="0"/>
			<psa10 value="0.00798111481657" flag="0"/>
			<psa30 value="0.00084741739335" flag="0"/>
		</comp>
	</station>
	<station code="DIDI" name="DIDI" netid="KO" source="Bogazici University Kandilli Observatory And Earthquake Research Institute (KOERI)" insttype="" lat="37.3767" lon="27.2398">
		<comp name="--.HNE" depth="0.0">
			<acc value="-0.048807" flag="0"/>
			<vel value="-0.02451" flag="0"/>
			<psa03 value="0.109528921802" flag="0"/>
			<psa10 value="0.0253366167638" flag="0"/>
			<psa30 value="0.00259236345146" flag="0"/>
		</comp>
		<comp name="--.HNN" depth="0.0">
			<acc value="-0.063306708" flag="0"/>
			<vel value="-0.032447" flag="0"/>
			<psa03 value="0.24303966635" flag="0"/>
			<psa10 value="0.0339338317655" flag="0"/>
			<psa30 value="0.00354089823177" flag="0"/>
		</comp>
		<comp name="--.HNZ" depth="0.0">
			<acc value="-0.059487318" flag="0"/>
			<vel value="-0.021442" flag="0"/>
			<psa03 value="0.0816545270783" flag="0"/>
			<psa10 value="0.0177541550082" flag="0"/>
			<psa30 value="0.00124741272052" flag="0"/>
		</comp>
	</station>
	<station code="GMLD" name="GMLD" netid="KO" source="Bogazici University Kandilli Observatory And Earthquake Research Institute (KOERI)" insttype="" lat="38.0766" lon="26.9157">
		<comp name="--.HNE" depth="0.0">
			<acc value="1.574824614" flag="0"/>
			<vel value="-0.819327" flag="0"/>
			<psa03 value="4.67435255203" flag="0"/>
			<psa10 value="0.420035361512" flag="0"/>
			<psa30 value="0.0252775570511" flag="0"/>
		</comp>
		<comp name="--.HNN" depth="0.0">
			<acc value="-1.105376856" flag="0"/>
			<vel value="-0.755821" flag="0"/>
			<psa03 value="3.26242273778" flag="0"/>
			<psa10 value="0.524252935966" flag="0"/>
			<psa30 value="0.0287540265053" flag="0"/>
		</comp>
		<comp name="--.HNZ" depth="0.0">
			<acc value="0.494891454" flag="0"/>
			<vel value="-0.289898" flag="0"/>
			<psa03 value="2.49831533315" flag="0"/>
			<psa10 value="0.134849431371" flag="0"/>
			<psa30 value="0.018029767001" flag="0"/>
		</comp>
	</station>
</stationlist>
