<stationlist created="1642764497">
	<station code="KRL1" name="KRL1" netid="HI" source="ITSAK Strong Motion Network" insttype="" lat="37.7951" lon="26.7065">
		<comp name=".HNE" depth="0.0">
			<acc value="0.822406824" flag="0"/>
			<vel value="0.311725" flag="0"/>
			<psa03 value="1.43774606747" flag="0"/>
			<psa10 value="0.206667384324" flag="0"/>
			<psa30 value="0.0251545159829" flag="0"/>
		</comp>
		<comp name=".HNN" depth="0.0">
			<acc value="0.811200594" flag="0"/>
			<vel value="0.375925" flag="0"/>
			<psa03 value="1.88181246816" flag="0"/>
			<psa10 value="0.206900938643" flag="0"/>
			<psa30 value="0.0256386266585" flag="0"/>
		</comp>
		<comp name=".HNZ" depth="0.0">
			<acc value="0.505604718" flag="0"/>
			<vel value="0.268794" flag="0"/>
			<psa03 value="1.04374619599" flag="0"/>
			<psa10 value="0.150014354882" flag="0"/>
			<psa30 value="0.0141541970637" flag="0"/>
		</comp>
	</station>
	<station code="MYT1" name="MYT1" netid="HI" source="ITSAK Strong Motion Network" insttype="" lat="39.085" lon="26.5694">
		<comp name=".HNE" depth="0.0">
			<acc value="0.009145014" flag="0"/>
			<vel value="0.00907" flag="0"/>
			<psa03 value="0.0302009894673" flag="0"/>
			<psa10 value="0.010904570597" flag="0"/>
			<psa30 value="0.000826388556239" flag="0"/>
		</comp>
		<comp name=".HNN" depth="0.0">
			<acc value="0.013459206" flag="0"/>
			<vel value="0.009498" flag="0"/>
			<psa03 value="0.0318564511122" flag="0"/>
			<psa10 value="0.0137313832111" flag="0"/>
			<psa30 value="0.00110468508141" flag="0"/>
		</comp>
		<comp name=".HNZ" depth="0.0">
			<acc value="0.007281372" flag="0"/>
			<vel value="0.006539" flag="0"/>
			<psa03 value="0.0153018346634" flag="0"/>
			<psa10 value="0.00855292021715" flag="0"/>
			<psa30 value="0.000902450307491" flag="0"/>
		</comp>
	</station>
	<station code="NAX1" name="NAX1" netid="HI" source="ITSAK Strong Motion Network" insttype="" lat="37.101394" lon="25.374103">
		<comp name=".HNE" depth="0.0">
			<acc value="0.005188638" flag="0"/>
			<vel value="0.002075" flag="0"/>
			<psa03 value="0.00894844132365" flag="0"/>
			<psa10 value="0.00210198886693" flag="0"/>
			<psa30 value="0.000238475961275" flag="0"/>
		</comp>
		<comp name=".HNN" depth="0.0">
			<acc value="0.007439676" flag="0"/>
			<vel value="0.001915" flag="0"/>
			<psa03 value="0.0122593646134" flag="0"/>
			<psa10 value="0.00135703112673" flag="0"/>
			<psa30 value="0.000330197484843" flag="0"/>
		</comp>
		<comp name=".HNZ" depth="0.0">
			<acc value="0.003819798" flag="0"/>
			<vel value="0.002052" flag="0"/>
			<psa03 value="0.00885895691042" flag="0"/>
			<psa10 value="0.00160266584107" flag="0"/>
			<psa30 value="0.000209393526974" flag="0"/>
		</comp>
	</station>
	<station code="RDI1" name="RDI1" netid="HI" source="ITSAK Strong Motion Network" insttype="" lat="36.4514" lon="28.224">
		<comp name=".HNE" depth="0.0">
			<acc value="0.00376839" flag="0"/>
			<vel value="0.004834" flag="0"/>
			<psa03 value="0.00541380700081" flag="0"/>
			<psa10 value="0.00727642506233" flag="0"/>
			<psa30 value="0.000833994731365" flag="0"/>
		</comp>
		<comp name=".HNN" depth="0.0">
			<acc value="0.00293913" flag="0"/>
			<vel value="0.004193" flag="0"/>
			<psa03 value="0.00550329141405" flag="0"/>
			<psa10 value="0.00519859698698" flag="0"/>
			<psa30 value="0.00193420559211" flag="0"/>
		</comp>
		<comp name=".HNZ" depth="0.0">
			<acc value="0.004373556" flag="0"/>
			<vel value="0.002008" flag="0"/>
			<psa03 value="0.00281875901695" flag="0"/>
			<psa10 value="0.00284694660712" flag="0"/>
			<psa30 value="0.000642498087038" flag="0"/>
		</comp>
	</station>
	<station code="ASTA" name="ASTA" netid="HL" source="National Observatory of Athens Seismic Network" insttype="" lat="36.54543" lon="26.3528">
		<comp name="00.HNE" depth="0.0">
			<acc value="0.003087234" flag="0"/>
			<vel value="0.002508" flag="0"/>
			<psa03 value="0.00635339333979" flag="0"/>
			<psa10 value="0.00410330776896" flag="0"/>
			<psa30 value="0.000369570626667" flag="0"/>
		</comp>
		<comp name="00.HNN" depth="0.0">
			<acc value="0.004934964" flag="0"/>
			<vel value="0.003108" flag="0"/>
			<psa03 value="0.0093063789766" flag="0"/>
			<psa10 value="0.00264157987874" flag="0"/>
			<psa30 value="0.000633997067781" flag="0"/>
		</comp>
		<comp name="00.HNZ" depth="0.0">
			<acc value="0.002654754" flag="0"/>
			<vel value="0.00156" flag="0"/>
			<psa03 value="0.00635339333979" flag="0"/>
			<psa10 value="0.0020375600894" flag="0"/>
			<psa30 value="0.000479189032882" flag="0"/>
		</comp>
	</station>
	<station code="KLNA" name="KLNA" netid="HL" source="National Observatory of Athens Seismic Network" insttype="" lat="36.95708" lon="26.97274">
		<comp name="00.HNE" depth="0.0">
			<acc value="0.039906684" flag="0"/>
			<vel value="0.019495" flag="0"/>
			<psa03 value="0.103533466115" flag="0"/>
			<psa10 value="0.00864150978625" flag="0"/>
			<psa30 value="0.00105502123206" flag="0"/>
		</comp>
		<comp name="00.HNN" depth="0.0">
			<acc value="0.037969398" flag="0"/>
			<vel value="0.017512" flag="0"/>
			<psa03 value="0.0861734899468" flag="0"/>
			<psa10 value="0.00957975385904" flag="0"/>
			<psa30 value="0.00125859827217" flag="0"/>
		</comp>
		<comp name="00.HNZ" depth="0.0">
			<acc value="0.033680808" flag="0"/>
			<vel value="0.01118" flag="0"/>
			<psa03 value="0.0400442749234" flag="0"/>
			<psa10 value="0.00798111481657" flag="0"/>
			<psa30 value="0.00084741739335" flag="0"/>
		</comp>
	</station>
	<station code="PRK" name="PRK" netid="HL" source="National Observatory of Athens Seismic Network" insttype="" lat="39.24565" lon="26.26499">
		<comp name=".HNE" depth="0.0">
			<acc value="0.018854394" flag="0"/>
			<vel value="0.011978" flag="0"/>
			<psa03 value="0.0587912594964" flag="0"/>
			<psa10 value="0.0217930339996" flag="0"/>
			<psa30 value="0.000818334959048" flag="0"/>
		</comp>
		<comp name=".HNN" depth="0.0">
			<acc value="0.013825284" flag="0"/>
			<vel value="0.011897" flag="0"/>
			<psa03 value="0.0340040770299" flag="0"/>
			<psa10 value="0.0211688802173" flag="0"/>
			<psa30 value="0.000922136878403" flag="0"/>
		</comp>
		<comp name=".HNZ" depth="0.0">
			<acc value="0.008020566" flag="0"/>
			<vel value="0.006305" flag="0"/>
			<psa03 value="0.0283218167894" flag="0"/>
			<psa10 value="0.00716367470165" flag="0"/>
			<psa30 value="0.000572700244714" flag="0"/>
		</comp>
	</station>
	<station code="RODB" name="RODB" netid="HL" source="National Observatory of Athens Seismic Network" insttype="" lat="36.4471" lon="28.22116">
		<comp name="00.HNE" depth="0.0">
			<acc value="0.002786334" flag="0"/>
			<vel value="0.00359" flag="0"/>
			<psa03 value="0.00362411873608" flag="0"/>
			<psa10 value="0.00383753906165" flag="0"/>
			<psa30 value="0.00172168011067" flag="0"/>
		</comp>
		<comp name="00.HNN" depth="0.0">
			<acc value="0.002889864" flag="0"/>
			<vel value="0.003578" flag="0"/>
			<psa03 value="0.00456370507506" flag="0"/>
			<psa10 value="0.0042563261156" flag="0"/>
			<psa30 value="0.000988355344198" flag="0"/>
		</comp>
		<comp name="00.HNZ" depth="0.0">
			<acc value="0.003969636" flag="0"/>
			<vel value="0.002217" flag="0"/>
			<psa03 value="0.00322143887652" flag="0"/>
			<psa10 value="0.00254896351104" flag="0"/>
			<psa30 value="0.000495296227264" flag="0"/>
		</comp>
	</station>
	<station code="THRA" name="THRA" netid="HL" source="National Observatory of Athens Seismic Network" insttype="" lat="36.41502" lon="25.43244">
		<comp name="00.HNE" depth="0.0">
			<acc value="0.009741204" flag="0"/>
			<vel value="0.006975" flag="0"/>
			<psa03 value="0.0207603838709" flag="0"/>
			<psa10 value="0.0105622927164" flag="0"/>
			<psa30 value="0.00133331775722" flag="0"/>
		</comp>
		<comp name="00.HNN" depth="0.0">
			<acc value="0.008281992" flag="0"/>
			<vel value="0.006255" flag="0"/>
			<psa03 value="0.0200892507716" flag="0"/>
			<psa10 value="0.00836366068315" flag="0"/>
			<psa30 value="0.00148230930526" flag="0"/>
		</comp>
		<comp name="00.HNZ" depth="0.0">
			<acc value="0.005706696" flag="0"/>
			<vel value="0.003926" flag="0"/>
			<psa03 value="0.0153018346634" flag="0"/>
			<psa10 value="0.00289124139167" flag="0"/>
			<psa30 value="0.000324828420049" flag="0"/>
		</comp>
	</station>
	<station code="TNSA" name="TNSA" netid="HL" source="National Observatory of Athens Seismic Network" insttype="" lat="37.53942" lon="25.1631">
		<comp name="00.HNE" depth="0.0">
			<acc value="0.003208104" flag="0"/>
			<vel value="0.001439" flag="0"/>
			<psa03 value="0.00604019789347" flag="0"/>
			<psa10 value="0.00264963347593" flag="0"/>
			<psa30 value="0.000216104857966" flag="0"/>
		</comp>
		<comp name="00.HNN" depth="0.0">
			<acc value="0.004081428" flag="0"/>
			<vel value="0.001464" flag="0"/>
			<psa03 value="0.00702452643907" flag="0"/>
			<psa10 value="0.000982538857337" flag="0"/>
			<psa30 value="0.00015122865837" flag="0"/>
		</comp>
		<comp name="00.HNZ" depth="0.0">
			<acc value="0.003462492" flag="0"/>
			<vel value="0.001129" flag="0"/>
			<psa03 value="0.00492164272801" flag="0"/>
			<psa10 value="0.00118790558572" flag="0"/>
			<psa30 value="0.000160177099693" flag="0"/>
		</comp>
	</station>
	<station code="AKS" name="AKS" netid="KO" source="Bogazici University Kandilli Observatory And Earthquake Research Institute (KOERI)" insttype="" lat="38.8785" lon="27.8129">
		<comp name=".HNE" depth="0.0">
			<acc value="0.013455636" flag="0"/>
			<vel value="0.01023" flag="0"/>
			<psa03 value="0.027426972657" flag="0"/>
			<psa10 value="0.00848043784243" flag="0"/>
			<psa30 value="0.00057896415364" flag="0"/>
		</comp>
		<comp name=".HNN" depth="0.0">
			<acc value="0.015489006" flag="0"/>
			<vel value="0.012691" flag="0"/>
			<psa03 value="0.0349436633689" flag="0"/>
			<psa10 value="0.00648717253758" flag="0"/>
			<psa30 value="0.00105502123206" flag="0"/>
		</comp>
		<comp name=".HNZ" depth="0.0">
			<acc value="0.002962896" flag="0"/>
			<vel value="0.002705" flag="0"/>
			<psa03 value="0.00935112118322" flag="0"/>
			<psa10 value="0.00204158688799" flag="0"/>
			<psa30 value="0.000390599463778" flag="0"/>
		</comp>
	</station>
	<station code="DATC" name="DATC" netid="KO" source="Bogazici University Kandilli Observatory And Earthquake Research Institute (KOERI)" insttype="" lat="36.7584" lon="27.6602">
		<comp name=".HNE" depth="0.0">
			<acc value="0.075794772" flag="0"/>
			<vel value="0.072461" flag="0"/>
			<psa03 value="0.0863972009799" flag="0"/>
			<psa10 value="0.0573053708146" flag="0"/>
			<psa30 value="0.00666121972133" flag="0"/>
		</comp>
		<comp name=".HNN" depth="0.0">
			<acc value="0.093179244" flag="0"/>
			<vel value="0.059278" flag="0"/>
			<psa03 value="0.101296355784" flag="0"/>
			<psa10 value="0.0506933675206" flag="0"/>
			<psa30 value="0.00467735027987" flag="0"/>
		</comp>
		<comp name=".HNZ" depth="0.0">
			<acc value="0.079765428" flag="0"/>
			<vel value="0.023742" flag="0"/>
			<psa03 value="0.0629522847119" flag="0"/>
			<psa10 value="0.0383592834221" flag="0"/>
			<psa30 value="0.00339638090439" flag="0"/>
		</comp>
	</station>
	<station code="DIDI" name="DIDI" netid="KO" source="Bogazici University Kandilli Observatory And Earthquake Research Institute (KOERI)" insttype="" lat="37.3767" lon="27.2398">
		<comp name=".HNE" depth="0.0">
			<acc value="0.048807" flag="0"/>
			<vel value="0.02451" flag="0"/>
			<psa03 value="0.109528921802" flag="0"/>
			<psa10 value="0.0253366167638" flag="0"/>
			<psa30 value="0.00259236345146" flag="0"/>
		</comp>
		<comp name=".HNN" depth="0.0">
			<acc value="0.063306708" flag="0"/>
			<vel value="0.032447" flag="0"/>
			<psa03 value="0.24303966635" flag="0"/>
			<psa10 value="0.0339338317655" flag="0"/>
			<psa30 value="0.00354089823177" flag="0"/>
		</comp>
		<comp name=".HNZ" depth="0.0">
			<acc value="0.059487318" flag="0"/>
			<vel value="0.021442" flag="0"/>
			<psa03 value="0.0816545270783" flag="0"/>
			<psa10 value="0.0177541550082" flag="0"/>
			<psa30 value="0.00124741272052" flag="0"/>
		</comp>
	</station>
	<station code="EZNE" name="EZNE" netid="KO" source="Bogazici University Kandilli Observatory And Earthquake Research Institute (KOERI)" insttype="" lat="39.756" lon="26.3655">
		<comp name=".HNE" depth="0.0">
			<acc value="0.021890628" flag="0"/>
			<vel value="0.009672" flag="0"/>
			<psa03 value="0.0455475663374" flag="0"/>
			<psa10 value="0.0102924972105" flag="0"/>
			<psa30 value="0.00138342902864" flag="0"/>
		</comp>
		<comp name=".HNN" depth="0.0">
			<acc value="0.031992912" flag="0"/>
			<vel value="0.013096" flag="0"/>
			<psa03 value="0.0484558097676" flag="0"/>
			<psa10 value="0.0128052195341" flag="0"/>
			<psa30 value="0.00193062621558" flag="0"/>
		</comp>
		<comp name=".HNZ" depth="0.0">
			<acc value="0.030699348" flag="0"/>
			<vel value="0.006977" flag="0"/>
			<psa03 value="0.0225500721356" flag="0"/>
			<psa10 value="0.00793279323342" flag="0"/>
			<psa30 value="0.00155031745932" flag="0"/>
		</comp>
	</station>
	<station code="FOCM" name="FOCM" netid="KO" source="Bogazici University Kandilli Observatory And Earthquake Research Institute (KOERI)" insttype="" lat="38.7131" lon="26.7309">
		<comp name=".HNE" depth="0.0">
			<acc value="0.029704542" flag="0"/>
			<vel value="0.017316" flag="0"/>
			<psa03 value="0.108544593256" flag="0"/>
			<psa10 value="0.014987744373" flag="0"/>
			<psa30 value="0.00079238447921" flag="0"/>
		</comp>
		<comp name=".HNN" depth="0.0">
			<acc value="0.018929466" flag="0"/>
			<vel value="0.015019" flag="0"/>
			<psa03 value="0.0749431960856" flag="0"/>
			<psa10 value="0.0274305520335" flag="0"/>
			<psa30 value="0.00132034251731" flag="0"/>
		</comp>
		<comp name=".HNZ" depth="0.0">
			<acc value="0.018004632" flag="0"/>
			<vel value="0.009147" flag="0"/>
			<psa03 value="0.0528405460162" flag="0"/>
			<psa10 value="0.00605630508785" flag="0"/>
			<psa30 value="0.000839811218225" flag="0"/>
		</comp>
	</station>
	<station code="GMLD" name="GMLD" netid="KO" source="Bogazici University Kandilli Observatory And Earthquake Research Institute (KOERI)" insttype="" lat="38.0766" lon="26.9157">
		<comp name=".HNE" depth="0.0">
			<acc value="1.574824614" flag="0"/>
			<vel value="0.819327" flag="0"/>
			<psa03 value="4.67435255203" flag="0"/>
			<psa10 value="0.420035361512" flag="0"/>
			<psa30 value="0.0252775570511" flag="0"/>
		</comp>
		<comp name=".HNN" depth="0.0">
			<acc value="1.105376856" flag="0"/>
			<vel value="0.755821" flag="0"/>
			<psa03 value="3.26242273778" flag="0"/>
			<psa10 value="0.524252935966" flag="0"/>
			<psa30 value="0.0287540265053" flag="0"/>
		</comp>
		<comp name=".HNZ" depth="0.0">
			<acc value="0.494891454" flag="0"/>
			<vel value="0.289898" flag="0"/>
			<psa03 value="2.49831533315" flag="0"/>
			<psa10 value="0.134849431371" flag="0"/>
			<psa30 value="0.018029767001" flag="0"/>
		</comp>
	</station>
	<station code="GOMA" name="GOMA" netid="KO" source="Bogazici University Kandilli Observatory And Earthquake Research Institute (KOERI)" insttype="" lat="38.7077" lon="27.9175">
		<comp name=".HNE" depth="0.0">
			<acc value="0.026398314" flag="0"/>
			<vel value="0.016185" flag="0"/>
			<psa03 value="0.074540516226" flag="0"/>
			<psa10 value="0.00664019088422" flag="0"/>
			<psa30 value="0.000715427883826" flag="0"/>
		</comp>
		<comp name=".HNN" depth="0.0">
			<acc value="0.01923414" flag="0"/>
			<vel value="0.015875" flag="0"/>
			<psa03 value="0.0698873267377" flag="0"/>
			<psa10 value="0.007767694491" flag="0"/>
			<psa30 value="0.000639366132575" flag="0"/>
		</comp>
		<comp name=".HNZ" depth="0.0">
			<acc value="0.010336986" flag="0"/>
			<vel value="0.007697" flag="0"/>
			<psa03 value="0.0222816188959" flag="0"/>
			<psa10 value="0.00527510616029" flag="0"/>
			<psa30 value="0.000795516433673" flag="0"/>
		</comp>
	</station>
	<station code="GORD" name="GORD" netid="KO" source="Bogazici University Kandilli Observatory And Earthquake Research Institute (KOERI)" insttype="" lat="38.9088" lon="28.1769">
		<comp name=".HNE" depth="0.0">
			<acc value="0.03752223" flag="0"/>
			<vel value="0.030387" flag="0"/>
			<psa03 value="0.0967326507087" flag="0"/>
			<psa10 value="0.0639898564834" flag="0"/>
			<psa30 value="0.00301338761574" flag="0"/>
		</comp>
		<comp name=".HNN" depth="0.0">
			<acc value="0.03949644" flag="0"/>
			<vel value="0.029402" flag="0"/>
			<psa03 value="0.0957035799565" flag="0"/>
			<psa10 value="0.0359391774661" flag="0"/>
			<psa30 value="0.00348720758383" flag="0"/>
		</comp>
		<comp name=".HNZ" depth="0.0">
			<acc value="0.022124922" flag="0"/>
			<vel value="0.014945" flag="0"/>
			<psa03 value="0.044071073519" flag="0"/>
			<psa10 value="0.0211688802173" flag="0"/>
			<psa30 value="0.00199505499311" flag="0"/>
		</comp>
	</station>
	<station code="KRBN" name="KRBN" netid="KO" source="Bogazici University Kandilli Observatory And Earthquake Research Institute (KOERI)" insttype="" lat="38.5936" lon="26.5537">
		<comp name=".HNE" depth="0.0">
			<acc value="0.140283558" flag="0"/>
			<vel value="0.072154" flag="0"/>
			<psa03 value="0.343127982556" flag="0"/>
			<psa10 value="0.0868862332982" flag="0"/>
			<psa30 value="0.00540843793602" flag="0"/>
		</comp>
		<comp name=".HNN" depth="0.0">
			<acc value="0.170654262" flag="0"/>
			<vel value="0.086394" flag="0"/>
			<psa03 value="0.491895819561" flag="0"/>
			<psa10 value="0.0678032347535" flag="0"/>
			<psa30 value="0.0069354894479" flag="0"/>
		</comp>
		<comp name=".HNZ" depth="0.0">
			<acc value="0.109871238" flag="0"/>
			<vel value="0.075142" flag="0"/>
			<psa03 value="0.209930433453" flag="0"/>
			<psa10 value="0.0971384625227" flag="0"/>
			<psa30 value="0.00558159027563" flag="0"/>
		</comp>
	</station>
	<station code="NAZL" name="NAZL" netid="KO" source="Bogazici University Kandilli Observatory And Earthquake Research Institute (KOERI)" insttype="" lat="37.9641" lon="28.2922">
		<comp name=".HNE" depth="0.0">
			<acc value="0.03893493" flag="0"/>
			<vel value="0.024446" flag="0"/>
			<psa03 value="0.142817123526" flag="0"/>
			<psa10 value="0.0190225965658" flag="0"/>
			<psa30 value="0.00292166609217" flag="0"/>
		</comp>
		<comp name=".HNN" depth="0.0">
			<acc value="0.041367528" flag="0"/>
			<vel value="0.020329" flag="0"/>
			<psa03 value="0.103488723908" flag="0"/>
			<psa10 value="0.0208990847114" flag="0"/>
			<psa30 value="0.00187380361317" flag="0"/>
		</comp>
		<comp name=".HNZ" depth="0.0">
			<acc value="0.015477072" flag="0"/>
			<vel value="0.010092" flag="0"/>
			<psa03 value="0.0481873565279" flag="0"/>
			<psa10 value="0.013324676553" flag="0"/>
			<psa30 value="0.00201966320675" flag="0"/>
		</comp>
	</station>
	<station code="SOMA" name="SOMA" netid="KO" source="Bogazici University Kandilli Observatory And Earthquake Research Institute (KOERI)" insttype="" lat="39.1564" lon="27.5341">
		<comp name=".HNE" depth="0.0">
			<acc value="0.063630966" flag="0"/>
			<vel value="0.036715" flag="0"/>
			<psa03 value="0.176060583043" flag="0"/>
			<psa10 value="0.0339378585641" flag="0"/>
			<psa30 value="0.00319906777321" flag="0"/>
		</comp>
		<comp name=".HNN" depth="0.0">
			<acc value="0.061269156" flag="0"/>
			<vel value="0.039349" flag="0"/>
			<psa03 value="0.203308586873" flag="0"/>
			<psa10 value="0.0276479991577" flag="0"/>
			<psa30 value="0.00364112077459" flag="0"/>
		</comp>
		<comp name=".HNZ" depth="0.0">
			<acc value="0.037561908" flag="0"/>
			<vel value="0.019444" flag="0"/>
			<psa03 value="0.105904803065" flag="0"/>
			<psa10 value="0.0164494722632" flag="0"/>
			<psa30 value="0.00313911321634" flag="0"/>
		</comp>
	</station>
	<station code="YKAV" name="YKAV" netid="KO" source="Bogazici University Kandilli Observatory And Earthquake Research Institute (KOERI)" insttype="" lat="37.1246" lon="27.2801">
		<comp name=".HNE" depth="0.0">
			<acc value="0.016541544" flag="0"/>
			<vel value="0.009605" flag="0"/>
			<psa03 value="0.0424603540807" flag="0"/>
