<?xml version="1.0" encoding="UTF-8" standalone="yes"?>
<!DOCTYPE earthquake SYSTEM "stationlist.dtd">
<stationlist created="" xmlns="ch.ethz.sed.shakemap.usgs.xml">
  <station code="KRL1" name="KRL1" netid="HI" insttype="CMG-5TD,ACCELEROMETER,GURALP" lat="37.7951" lon="26.7065">
    <comp name="--.HNZ">
      <acc value="0.5126480355" flag="0"/>
      <vel value="0.2675581561" flag="0"/>
      <psa03 value="1.0387772986" flag="0"/>
      <psa10 value="0.1500473278" flag="0"/>
      <psa30 value="0.0121572112" flag="0"/>
    </comp>
    <comp name="--.HNN">
      <acc value="0.8228102152" flag="0"/>
      <vel value="0.3748800916" flag="0"/>
      <psa03 value="1.8812879641" flag="0"/>
      <psa10 value="0.2069156335" flag="0"/>
      <psa30 value="0.0237869056" flag="0"/>
    </comp>
    <comp name="--.HNE">
      <acc value="0.8184900800" flag="0"/>
      <vel value="0.3120559787" flag="0"/>
      <psa03 value="1.4541152769" flag="0"/>
      <psa10 value="0.2056381648" flag="0"/>
      <psa30 value="0.0234877909" flag="0"/>
    </comp>
  </station>
  <station code="EAG2" name="EAG2" netid="HL" insttype="SMART24" lat="38.5438" lon="26.1079">
    <comp name="--.HHE">
      <acc value="0.3340332326" flag="0"/>
      <vel value="0.1852360843" flag="0"/>
      <psa03 value="1.1260362136" flag="0"/>
      <psa10 value="0.0768869011" flag="0"/>
      <psa30 value="0.0077110196" flag="0"/>
    </comp>
    <comp name="--.HHN">
      <acc value="0.1658706241" flag="0"/>
      <vel value="0.1214682902" flag="0"/>
      <psa03 value="0.5918113840" flag="0"/>
      <psa10 value="0.0845833422" flag="0"/>
      <psa30 value="0.0045394638" flag="0"/>
    </comp>
    <comp name="--.HHZ">
      <acc value="0.0701920638" flag="0"/>
      <vel value="0.0414799521" flag="0"/>
      <psa03 value="0.2621082637" flag="0"/>
      <psa10 value="0.0319247281" flag="0"/>
      <psa30 value="0.0017385356" flag="0"/>
    </comp>
  </station>
  <station code="GMLD" name="GMLD" netid="KO" insttype="100" lat="38.0764" lon="26.8747">
    <comp name="--.HNE">
      <acc value="0.2509204080" flag="0"/>
      <vel value="0.1304403334" flag="0"/>
      <psa03 value="0.7480189162" flag="0"/>
      <psa10 value="0.0666241205" flag="0"/>
      <psa30 value="0.0038297426" flag="0"/>
    </comp>
    <comp name="--.HNN">
      <acc value="0.1773414834" flag="0"/>
      <vel value="0.1195992780" flag="0"/>
      <psa03 value="0.5236503779" flag="0"/>
      <psa10 value="0.0833309335" flag="0"/>
      <psa30 value="0.0040769149" flag="0"/>
    </comp>
    <comp name="--.HNZ">
      <acc value="0.0793876007" flag="0"/>
      <vel value="0.0454090708" flag="0"/>
      <psa03 value="0.3981506333" flag="0"/>
      <psa10 value="0.0212583787" flag="0"/>
      <psa30 value="0.0025195671" flag="0"/>
    </comp>
  </station>
  <station code="AYDN" name="AYDN" netid="TU" source="ODC" insttype="T" lat="37.6608" lon="27.8792">
    <comp name="--.HHZ">
      <acc value="0.0109159848" flag="0"/>
      <vel value="0.0099794584" flag="0"/>
      <psa03 value="0.0172075749" flag="0"/>
      <psa10 value="0.0089006504" flag="0"/>
      <psa30 value="0.0014954919" flag="0"/>
    </comp>
    <comp name="--.HHE">
      <acc value="0.0323543970" flag="0"/>
      <vel value="0.0151174774" flag="0"/>
      <psa03 value="0.0658496608" flag="0"/>
      <psa10 value="0.0147664318" flag="0"/>
      <psa30 value="0.0013949210" flag="0"/>
    </comp>
    <comp name="--.HHN">
      <acc value="0.0249153115" flag="0"/>
      <vel value="0.0159116060" flag="0"/>
      <psa03 value="0.0708800370" flag="0"/>
      <psa10 value="0.0231510102" flag="0"/>
      <psa30 value="0.0008261204" flag="0"/>
    </comp>
  </station>
</stationlist>
