<stationlist xmlns:esm="https://esm-db.eu/esmws/shakemap/1/" created="1781661288">
	<station code="NPS1" name="NPS1" netid="HI" source="ITSAK Strong Motion Network" insttype="" lat="36.51263" lon="23.06248" esm:processing="manual (Paolucci et al 2011)" esm:quality="good">
		<comp name="--.HNE" depth="0.0">
			<acc value="0.00639888990033974" flag="0"/>
			<vel value="0.00501268312066794" flag="0"/>
			<psa03 value="0.0229527519951734" flag="0"/>
			<psa10 value="0.00415968294930073" flag="0"/>
			<psa30 value="0.00033422428343849" flag="0"/>
		</comp>
		<comp name="--.HNN" depth="0.0">
			<acc value="0.00605390903853732" flag="0"/>
			<vel value="0.00475399594190404" flag="0"/>
			<psa03 value="0.0182100780936366" flag="0"/>
			<psa10 value="0.00426840651138312" flag="0"/>
			<psa30 value="0.000361964451541818" flag="0"/>
		</comp>
		<comp name="--.HNZ" depth="0.0">
			<acc value="0.00436516653554498" flag="0"/>
			<vel value="0.00258596452351985" flag="0"/>
			<psa03 value="0.0136463730185729" flag="0"/>
			<psa10 value="0.00177179138208356" flag="0"/>
			<psa30 value="0.000217894546230983" flag="0"/>
		</comp>
	</station>
	<station code="PYL1" name="PYL1" netid="HI" source="ITSAK Strong Motion Network" insttype="" lat="36.914188" lon="21.695161" esm:processing="manual (Paolucci et al 2011)" esm:quality="best">
		<comp name="--.HNE" depth="0.0">
			<acc value="0.0289174487693606" flag="0"/>
			<vel value="0.0214291269188836" flag="0"/>
			<psa03 value="0.0786567992349217" flag="0"/>
			<psa10 value="0.0205286192405954" flag="0"/>
			<psa30 value="0.00142682896905669" flag="0"/>
		</comp>
		<comp name="--.HNN" depth="0.0">
			<acc value="0.0297670676538661" flag="0"/>
			<vel value="0.0197954485624304" flag="0"/>
			<psa03 value="0.0446527222050352" flag="0"/>
			<psa10 value="0.0240158268244235" flag="0"/>
			<psa30 value="0.00158342669222064" flag="0"/>
		</comp>
		<comp name="--.HNZ" depth="0.0">
			<acc value="0.0283479548568439" flag="0"/>
			<vel value="0.0111694046940448" flag="0"/>
			<psa03 value="0.0261294486650707" flag="0"/>
			<psa10 value="0.0121448245644637" flag="0"/>
			<psa30 value="0.000710058819031973" flag="0"/>
		</comp>
	</station>
	<station code="ITM" name="ITM" netid="HL" source="National Observatory of Athens Seismic Network" insttype="" lat="37.17872" lon="21.92522" esm:processing="manual (Paolucci et al 2011)" esm:quality="best">
		<comp name="--.HNE" depth="0.0">
			<acc value="0.0183261339809825" flag="0"/>
			<vel value="0.00505496585496179" flag="0"/>
			<psa03 value="0.0221026500694262" flag="0"/>
			<psa10 value="0.006648244481409" flag="0"/>
			<psa30 value="0.000704242332171597" flag="0"/>
		</comp>
		<comp name="--.HNN" depth="0.0">
			<acc value="0.0317792382044093" flag="0"/>
			<vel value="0.00618013718761813" flag="0"/>
			<psa03 value="0.0319011933188278" flag="0"/>
			<psa10 value="0.00631402019797051" flag="0"/>
			<psa30 value="0.000655920749023864" flag="0"/>
		</comp>
		<comp name="--.HNZ" depth="0.0">
			<acc value="0.0110279578885979" flag="0"/>
			<vel value="0.00486452811582496" flag="0"/>
			<psa03 value="0.0140490528781373" flag="0"/>
			<psa10 value="0.00947505709555141" flag="0"/>
			<psa30 value="0.000455923085440189" flag="0"/>
		</comp>
	</station>
	<station code="PYL" name="PYL" netid="HP" source="University of Patras, Seismological Laboratory (PSLNET)" insttype="" lat="36.8955" lon="21.742" esm:processing="manual (Paolucci et al 2011)" esm:quality="best">
		<comp name="--.HNE" depth="0.0">
			<acc value="0.124361339688736" flag="0"/>
			<vel value="0.0345595269426627" flag="0"/>
			<psa03 value="0.10536789658603" flag="0"/>
			<psa10 value="0.0225098041496525" flag="0"/>
			<psa30 value="0.00162503694437563" flag="0"/>
		</comp>
		<comp name="--.HNN" depth="0.0">
			<acc value="0.130081365735666" flag="0"/>
			<vel value="0.0251859161121548" flag="0"/>
			<psa03 value="0.0844732860952971" flag="0"/>
			<psa10 value="0.0280708130102375" flag="0"/>
			<psa30 value="0.00141653826153448" flag="0"/>
		</comp>
		<comp name="--.HNZ" depth="0.0">
			<acc value="0.0826554696261957" flag="0"/>
			<vel value="0.0234453997084085" flag="0"/>
			<psa03 value="0.046755605916094" flag="0"/>
			<psa10 value="0.0113394648453348" flag="0"/>
			<psa30 value="0.000933769852123331" flag="0"/>
		</comp>
	</station>
</stationlist>
