<?xml version="1.0" encoding="UTF-8" standalone="yes"?>
<!DOCTYPE earthquake SYSTEM "stationlist.dtd">
<stationlist created="" xmlns="ch.ethz.sed.shakemap.usgs.xml">
  <station code="PYL1" name="PYL1" netid="HI" source="NOA" insttype="CMG-5TD,ACCELEROMETER,GURALP" lat="36.9142" lon="21.6952">
    <comp name="--.HNE">
      <acc value="0.0285123756" flag="0"/>
      <vel value="0.0214756402" flag="0"/>
      <psa03 value="0.0790545175" flag="0"/>
      <psa10 value="0.0204764741" flag="0"/>
      <psa30 value="0.0014487313" flag="0"/>
    </comp>
    <comp name="--.HNN">
      <acc value="0.0296701813" flag="0"/>
      <vel value="0.0199645129" flag="0"/>
      <psa03 value="0.0440624752" flag="0"/>
      <psa10 value="0.0239807584" flag="0"/>
      <psa30 value="0.0015168215" flag="0"/>
    </comp>
    <comp name="--.HNZ">
      <acc value="0.0292209652" flag="0"/>
      <vel value="0.0108491942" flag="0"/>
      <psa03 value="0.0262081628" flag="0"/>
      <psa10 value="0.0121575660" flag="0"/>
      <psa30 value="0.0006934342" flag="0"/>
    </comp>
  </station>
  <station code="ITM" name="ITM" netid="HL" source="NOA" insttype="DR24" lat="37.1787" lon="21.9252">
    <comp name="--.HHZ">
      <acc value="0.0111675650" flag="0"/>
      <vel value="0.0051162793" flag="0"/>
      <psa03 value="0.0152028049" flag="0"/>
      <psa10 value="0.0103246635" flag="0"/>
      <psa30 value="0.0004751365" flag="0"/>
    </comp>
    <comp name="--.HHE">
      <acc value="0.0184694965" flag="0"/>
      <vel value="0.0050631421" flag="0"/>
      <psa03 value="0.0223660041" flag="0"/>
      <psa10 value="0.0067584519" flag="0"/>
      <psa30 value="0.0006192349" flag="0"/>
    </comp>
    <comp name="--.HHN">
      <acc value="0.0309402601" flag="0"/>
      <vel value="0.0060789895" flag="0"/>
      <psa03 value="0.0328449594" flag="0"/>
      <psa10 value="0.0064457300" flag="0"/>
      <psa30 value="0.0005910426" flag="0"/>
    </comp>
  </station>
  <station code="AMT" name="AMT" netid="HP" source="NOA" insttype="CMG-3T," lat="37.5324" lon="21.7089">
    <comp name="00.HHE">
      <acc value="0.0082452853" flag="0"/>
      <vel value="0.0056968428" flag="0"/>
      <psa03 value="0.0209706647" flag="0"/>
      <psa10 value="0.0077841641" flag="0"/>
      <psa30 value="0.0003503234" flag="0"/>
    </comp>
    <comp name="00.HHN">
      <acc value="0.0176176677" flag="0"/>
      <vel value="0.0075932009" flag="0"/>
      <psa03 value="0.0246434337" flag="0"/>
      <psa10 value="0.0081871177" flag="0"/>
      <psa30 value="0.0004084337" flag="0"/>
    </comp>
    <comp name="00.HHZ">
      <acc value="0.0077166339" flag="0"/>
      <vel value="0.0034268630" flag="0"/>
      <psa03 value="0.0121079522" flag="0"/>
      <psa10 value="0.0035664869" flag="0"/>
      <psa30 value="0.0001991510" flag="0"/>
    </comp>
  </station>
  <station code="LTHK" name="LTHK" netid="HP" source="NOA" insttype="40," lat="37.7095" lon="20.8367">
    <comp name="--.HHE">
      <acc value="0.0053381568" flag="0"/>
      <vel value="0.0016504037" flag="0"/>
      <psa03 value="0.0066552102" flag="0"/>
      <psa10 value="0.0017545561" flag="0"/>
      <psa30 value="0.0001546253" flag="0"/>
    </comp>
    <comp name="--.HHN">
      <acc value="0.0051051245" flag="0"/>
      <vel value="0.0021086252" flag="0"/>
      <psa03 value="0.0082178815" flag="0"/>
      <psa10 value="0.0021003102" flag="0"/>
      <psa30 value="0.0001620476" flag="0"/>
    </comp>
    <comp name="--.HHZ">
      <acc value="0.0026151048" flag="0"/>
      <vel value="0.0008755910" flag="0"/>
      <psa03 value="0.0047262824" flag="0"/>
      <psa10 value="0.0011298977" flag="0"/>
      <psa30 value="0.0001040571" flag="0"/>
    </comp>
  </station>
  <station code="PYL" name="PYL" netid="HP" source="NOA" insttype="120s" lat="36.8955" lon="21.742">
    <comp name="--.HHE">
      <acc value="0.0369427019" flag="0"/>
      <vel value="0.0107218867" flag="0"/>
      <psa03 value="0.0392155957" flag="0"/>
      <psa10 value="0.0084936682" flag="0"/>
      <psa30 value="0.0006086057" flag="0"/>
    </comp>
    <comp name="--.HHN">
      <acc value="0.0016539585" flag="0"/>
      <vel value="0.0005872644" flag="0"/>
      <psa03 value="0.0020851056" flag="0"/>
      <psa10 value="0.0007117044" flag="0"/>
      <psa30 value="0.0000353611" flag="0"/>
    </comp>
    <comp name="--.HHZ">
      <acc value="0.0013164178" flag="0"/>
      <vel value="0.0005009061" flag="0"/>
      <psa03 value="0.0012006014" flag="0"/>
      <psa10 value="0.0002940330" flag="0"/>
      <psa30 value="0.0000246266" flag="0"/>
    </comp>
  </station>
  <station code="VLX" name="VLX" netid="HP" source="NOA" insttype="40," lat="37.3703" lon="22.3793">
    <comp name="--.HHE">
      <acc value="0.0018643223" flag="0"/>
      <vel value="0.0015398740" flag="0"/>
      <psa03 value="0.0051606424" flag="0"/>
      <psa10 value="0.0022845124" flag="0"/>
      <psa30 value="0.0001236923" flag="0"/>
    </comp>
    <comp name="--.HHZ">
      <acc value="0.0012320646" flag="0"/>
      <vel value="0.0007141532" flag="0"/>
      <psa03 value="0.0035552318" flag="0"/>
      <psa10 value="0.0006625485" flag="0"/>
      <psa30 value="0.0000644150" flag="0"/>
    </comp>
    <comp name="--.HHN">
      <acc value="0.0014627507" flag="0"/>
      <vel value="0.0013308313" flag="0"/>
      <psa03 value="0.0042884541" flag="0"/>
      <psa10 value="0.0017702210" flag="0"/>
      <psa30 value="0.0001047201" flag="0"/>
    </comp>
  </station>
</stationlist>
