<stationlist created="1775808528">
	<station code="EALB" name="EALB" netid="ES" source="Spanish Digital Seismic Network" insttype="" lat="35.939897" lon="-3.034254">
		<comp name="--.HNE" depth="0.0">
			<acc value="0.0141218487618147" flag="0"/>
			<vel value="0.00459124244389597" flag="0"/>
			<psa03 value="0.00805133349153825" flag="0"/>
			<psa10 value="0.00357542615131024" flag="0"/>
			<psa30 value="0.000228671085837177" flag="0"/>
		</comp>
		<comp name="--.HNN" depth="0.0">
			<acc value="0.015096563127325" flag="0"/>
			<vel value="0.00605422816152249" flag="0"/>
			<psa03 value="0.0282656354804634" flag="0"/>
			<psa10 value="0.00185944466345827" flag="0"/>
			<psa30 value="0.000188241324230556" flag="0"/>
		</comp>
		<comp name="--.HNZ" depth="0.0">
			<acc value="0.0343308622105428" flag="0"/>
			<vel value="0.00494802897397398" flag="0"/>
			<psa03 value="0.0172189401494454" flag="0"/>
			<psa10 value="0.00124167959892958" flag="0"/>
			<psa30 value="0.000109343024688758" flag="0"/>
		</comp>
	</station>
	<station code="EMIJ" name="EMIJ" netid="ES" source="Spanish Digital Seismic Network" insttype="" lat="36.5645" lon="-4.7727">
		<comp name="--.HNE" depth="0.0">
			<acc value="0.0835918987956049" flag="0"/>
			<vel value="0.0172059055567338" flag="0"/>
			<psa03 value="0.0910861173415797" flag="0"/>
			<psa10 value="0.00455902701316508" flag="0"/>
			<psa30 value="0.000522977405103115" flag="0"/>
		</comp>
		<comp name="--.HNN" depth="0.0">
			<acc value="0.0808184206399237" flag="0"/>
			<vel value="0.0145431956909794" flag="0"/>
			<psa03 value="0.0556171739481525" flag="0"/>
			<psa10 value="0.00366074055297065" flag="0"/>
			<psa30 value="0.000354949503245921" flag="0"/>
		</comp>
		<comp name="--.HNZ" depth="0.0">
			<acc value="0.0554649811659117" flag="0"/>
			<vel value="0.010835796165899" flag="0"/>
			<psa03 value="0.0603013905045104" flag="0"/>
			<psa10 value="0.00226989294739271" flag="0"/>
			<psa30 value="0.000191732206526043" flag="0"/>
		</comp>
	</station>
	<station code="EMLI" name="EMLI" netid="ES" source="Spanish Digital Seismic Network" insttype="" lat="35.294878" lon="-2.957829">
		<comp name="--.HNE" depth="0.0">
			<acc value="0.0230782179842534" flag="0"/>
			<vel value="0.00434825892066886" flag="0"/>
			<psa03 value="0.0285496438779592" flag="0"/>
			<psa10 value="0.00287626592912682" flag="0"/>
			<psa30 value="0.000317726464485618" flag="0"/>
		</comp>
		<comp name="--.HNN" depth="0.0">
			<acc value="0.0168330152693882" flag="0"/>
			<vel value="0.00518267680277013" flag="0"/>
			<psa03 value="0.020432313175888" flag="0"/>
			<psa10 value="0.00258074166459466" flag="0"/>
			<psa30 value="0.000482077143578183" flag="0"/>
		</comp>
		<comp name="--.HNZ" depth="0.0">
			<acc value="0.0188361495697859" flag="0"/>
			<vel value="0.00300074988472585" flag="0"/>
			<psa03 value="0.0109399434675643" flag="0"/>
			<psa10 value="0.00169267510016817" flag="0"/>
			<psa30 value="0.000193345412351345" flag="0"/>
		</comp>
	</station>
	<station code="EXAGE" name="EXAGE" netid="ES" source="Spanish Digital Seismic Network" insttype="" lat="36.1324" lon="-5.4489">
		<comp name="--.HNE" depth="0.0">
			<acc value="0.00786695155890815" flag="0"/>
			<vel value="0.00447653669724033" flag="0"/>
			<psa03 value="0.0191445247412243" flag="0"/>
			<psa10 value="0.0117330281930351" flag="0"/>
			<psa30 value="0.000603773486613655" flag="0"/>
		</comp>
		<comp name="--.HNN" depth="0.0">
			<acc value="0.00657301902543221" flag="0"/>
			<vel value="0.00442016957066421" flag="0"/>
			<psa03 value="0.0214061641470687" flag="0"/>
			<psa10 value="0.00694370873662584" flag="0"/>
			<psa30 value="0.000427464306995786" flag="0"/>
		</comp>
		<comp name="--.HNZ" depth="0.0">
			<acc value="0.00587053579813021" flag="0"/>
			<vel value="0.00272987082551028" flag="0"/>
			<psa03 value="0.0205676945400723" flag="0"/>
			<psa10 value="0.00355093656024502" flag="0"/>
			<psa30 value="0.000342348616415678" flag="0"/>
		</comp>
	</station>
	<station code="EXANT" name="EXANT" netid="ES" source="Spanish Digital Seismic Network" insttype="" lat="37.0246" lon="-4.5705">
		<comp name="--.HNE" depth="0.0">
			<acc value="0.0296941734265632" flag="0"/>
			<vel value="0.0144476661408813" flag="0"/>
			<psa03 value="0.0843473271798038" flag="0"/>
			<psa10 value="0.00837615925444255" flag="0"/>
			<psa30 value="0.000616619493848589" flag="0"/>
		</comp>
		<comp name="--.HNN" depth="0.0">
			<acc value="0.0282991480140177" flag="0"/>
			<vel value="0.0133301409023304" flag="0"/>
			<psa03 value="0.0760865820293125" flag="0"/>
			<psa10 value="0.00626006282343926" flag="0"/>
			<psa30 value="0.000512555100093224" flag="0"/>
		</comp>
		<comp name="--.HNZ" depth="0.0">
			<acc value="0.0187823973048321" flag="0"/>
			<vel value="0.0058136112330382" flag="0"/>
			<psa03 value="0.0372091263803431" flag="0"/>
			<psa10 value="0.0038359296583891" flag="0"/>
			<psa30 value="0.00032986526341314" flag="0"/>
		</comp>
	</station>
	<station code="EXBAR" name="EXBAR" netid="ES" source="Spanish Digital Seismic Network" insttype="" lat="36.1928" lon="-5.9167">
		<comp name="--.HNE" depth="0.0">
			<acc value="0.0115073226720063" flag="0"/>
			<vel value="0.00357559596210394" flag="0"/>
			<psa03 value="0.0221411724731798" flag="0"/>
			<psa10 value="0.00306633437960386" flag="0"/>
			<psa30 value="0.000245134077471243" flag="0"/>
		</comp>
		<comp name="--.HNN" depth="0.0">
			<acc value="0.0101130258619549" flag="0"/>
			<vel value="0.00380560806427766" flag="0"/>
			<psa03 value="0.0269843761241524" flag="0"/>
			<psa10 value="0.00228331180507617" flag="0"/>
			<psa30 value="0.00033160379004033" flag="0"/>
		</comp>
		<comp name="--.HNZ" depth="0.0">
			<acc value="0.0134959614002982" flag="0"/>
			<vel value="0.00181947733847105" flag="0"/>
			<psa03 value="0.0100120421549062" flag="0"/>
			<psa10 value="0.00224084492935407" flag="0"/>
			<psa30 value="0.000211420216489246" flag="0"/>
		</comp>
	</station>
	<station code="EXCA2" name="EXCA2" netid="ES" source="Spanish Digital Seismic Network" insttype="" lat="37.0603" lon="-3.9162">
		<comp name="--.HNE" depth="0.0">
			<acc value="0.014115189259374" flag="0"/>
			<vel value="0.00532823593810095" flag="0"/>
			<psa03 value="0.0419815519051123" flag="0"/>
			<psa10 value="0.00309928828138812" flag="0"/>
			<psa30 value="0.000293032250490134" flag="0"/>
		</comp>
		<comp name="--.HNN" depth="0.0">
			<acc value="0.0113202404503432" flag="0"/>
			<vel value="0.00400843512542306" flag="0"/>
			<psa03 value="0.0214202067439885" flag="0"/>
			<psa10 value="0.00355521090589944" flag="0"/>
			<psa30 value="0.000204471448875827" flag="0"/>
		</comp>
		<comp name="--.HNZ" depth="0.0">
			<acc value="0.00685205374979641" flag="0"/>
			<vel value="0.00237446398379708" flag="0"/>
			<psa03 value="0.0109178482538648" flag="0"/>
			<psa10 value="0.00250148813318716" flag="0"/>
			<psa30 value="0.000170841109051697" flag="0"/>
		</comp>
	</station>
	<station code="EXMA2" name="EXMA2" netid="ES" source="Spanish Digital Seismic Network" insttype="" lat="36.7009" lon="-4.4484">
		<comp name="--.HNE" depth="0.0">
			<acc value="0.237887177777306" flag="0"/>
			<vel value="0.0579309395709416" flag="0"/>
			<psa03 value="0.323986149992395" flag="0"/>
			<psa10 value="0.0147183375176267" flag="0"/>
			<psa30 value="0.00173804305348909" flag="0"/>
		</comp>
		<comp name="--.HNN" depth="0.0">
			<acc value="0.346502282589387" flag="0"/>
			<vel value="0.0587352403482364" flag="0"/>
			<psa03 value="0.339479947213755" flag="0"/>
			<psa10 value="0.0156744474177152" flag="0"/>
			<psa30 value="0.00103686962502397" flag="0"/>
		</comp>
		<comp name="--.HNZ" depth="0.0">
			<acc value="0.116843446365692" flag="0"/>
			<vel value="0.0209628474238835" flag="0"/>
			<psa03 value="0.0735953128282878" flag="0"/>
			<psa10 value="0.00710415280275781" flag="0"/>
			<psa30 value="0.000457630992890676" flag="0"/>
		</comp>
	</station>
	<station code="EXMRB" name="EXMRB" netid="ES" source="Spanish Digital Seismic Network" insttype="" lat="36.5151" lon="-4.879">
		<comp name="0K.HNE" depth="0.0">
			<acc value="0.0789800516360155" flag="0"/>
			<vel value="0.0130278778935703" flag="0"/>
			<psa03 value="0.0671395362064366" flag="0"/>
			<psa10 value="0.00387149818650453" flag="0"/>
			<psa30 value="0.000228355960795023" flag="0"/>
		</comp>
		<comp name="0K.HNN" depth="0.0">
			<acc value="0.11028108620158" flag="0"/>
			<vel value="0.0143337188725595" flag="0"/>
			<psa03 value="0.0393691314492448" flag="0"/>
			<psa10 value="0.00414239831980885" flag="0"/>
			<psa30 value="0.000222701185152222" flag="0"/>
		</comp>
		<comp name="0K.HNZ" depth="0.0">
			<acc value="0.117037773427365" flag="0"/>
			<vel value="0.0139892304097442" flag="0"/>
			<psa03 value="0.0247944498022812" flag="0"/>
			<psa10 value="0.00169397397527477" flag="0"/>
			<psa30 value="0.000145337961259985" flag="0"/>
		</comp>
	</station>
	<station code="EXNER" name="EXNER" netid="ES" source="Spanish Digital Seismic Network" insttype="" lat="36.7557" lon="-3.8756">
		<comp name="--.HNE" depth="0.0">
			<acc value="0.0285683243425202" flag="0"/>
			<vel value="0.00850052945216747" flag="0"/>
			<psa03 value="0.0547325320116324" flag="0"/>
			<psa10 value="0.00367883011069007" flag="0"/>
			<psa30 value="0.000246706811865512" flag="0"/>
		</comp>
		<comp name="--.HNN" depth="0.0">
			<acc value="0.0235028854501118" flag="0"/>
			<vel value="0.00845711208200649" flag="0"/>
			<psa03 value="0.0395983054850666" flag="0"/>
			<psa10 value="0.00281256420920051" flag="0"/>
			<psa30 value="0.000215565465049952" flag="0"/>
		</comp>
		<comp name="--.HNZ" depth="0.0">
			<acc value="0.04355802776238" flag="0"/>
			<vel value="0.00932238211531994" flag="0"/>
			<psa03 value="0.0472000434378986" flag="0"/>
			<psa10 value="0.00170356277454816" flag="0"/>
			<psa30 value="0.000153684633977756" flag="0"/>
		</comp>
	</station>
	<station code="EXSAL" name="EXSAL" netid="ES" source="Spanish Digital Seismic Network" insttype="" lat="36.74413" lon="-3.58703">
		<comp name="--.HNE" depth="0.0">
			<acc value="0.032804137173216" flag="0"/>
			<vel value="0.00480295242067052" flag="0"/>
			<psa03 value="0.0121451990910842" flag="0"/>
			<psa10 value="0.00331148483836862" flag="0"/>
			<psa30 value="0.000185032739281717" flag="0"/>
		</comp>
		<comp name="--.HNN" depth="0.0">
			<acc value="0.034092075476598" flag="0"/>
			<vel value="0.00575086384341786" flag="0"/>
			<psa03 value="0.0213325095282284" flag="0"/>
			<psa10 value="0.0023295019743232" flag="0"/>
			<psa30 value="0.000156799163216699" flag="0"/>
		</comp>
		<comp name="--.HNZ" depth="0.0">
			<acc value="0.0335647657007905" flag="0"/>
			<vel value="0.00371057968262977" flag="0"/>
			<psa03 value="0.0100155749410193" flag="0"/>
			<psa10 value="0.00143808327377164" flag="0"/>
			<psa30 value="0.000105623885084845" flag="0"/>
		</comp>
	</station>
	<station code="EXTA2" name="EXTA2" netid="ES" source="Spanish Digital Seismic Network" insttype="" lat="36.0226" lon="-5.5992">
		<comp name="--.HNE" depth="0.0">
			<acc value="0.0052580706662785" flag="0"/>
			<vel value="0.00228337553136573" flag="0"/>
			<psa03 value="0.0184431840100095" flag="0"/>
			<psa10 value="0.00265063246639227" flag="0"/>
			<psa30 value="0.000182898131728609" flag="0"/>
		</comp>
		<comp name="--.HNN" depth="0.0">
			<acc value="0.00524619712094094" flag="0"/>
			<vel value="0.00283457531601663" flag="0"/>
			<psa03 value="0.019538363331098" flag="0"/>
			<psa10 value="0.00194151943644668" flag="0"/>
			<psa30 value="0.000220210994147623" flag="0"/>
		</comp>
		<comp name="--.HNZ" depth="0.0">
			<acc value="0.00925666900630175" flag="0"/>
			<vel value="0.00419318204058548" flag="0"/>
			<psa03 value="0.0121754276560783" flag="0"/>
			<psa10 value="0.00230047059801199" flag="0"/>
			<psa30 value="0.000175887159473606" flag="0"/>
		</comp>
	</station>
</stationlist>
