<?xml version="1.0" encoding="UTF-8" standalone="yes"?>
<!DOCTYPE earthquake SYSTEM "stationlist.dtd">
<stationlist created="" xmlns="ch.ethz.sed.shakemap.usgs.xml">
  <station code="KHMN" name="KHMN" netid="KO" insttype="CMG-5T" lat="37.3916" lon="37.1574">
    <comp name="--.HNE">
      <acc value="4.0828683381" flag="0"/>
      <vel value="0.9451116337" flag="0"/>
      <psa03 value="3.7905898032" flag="0"/>
      <psa10 value="0.5723792368" flag="0"/>
      <psa30 value="0.0532797365" flag="0"/>
    </comp>
    <comp name="--.HNZ">
      <acc value="3.2184278412" flag="0"/>
      <vel value="0.6361602741" flag="0"/>
      <psa03 value="1.5829483789" flag="0"/>
      <psa10 value="0.2678011930" flag="0"/>
      <psa30 value="0.0259352649" flag="0"/>
    </comp>
    <comp name="--.HNN">
      <acc value="4.6235539115" flag="0"/>
      <vel value="0.7347421813" flag="0"/>
      <psa03 value="1.9712940432" flag="0"/>
      <psa10 value="0.1812575838" flag="0"/>
      <psa30 value="0.0143165917" flag="0"/>
    </comp>
  </station>
  <station code="ANDN" name="ANDN" netid="TU" insttype="T" lat="37.58" lon="36.3452">
    <comp name="--.HHN">
      <acc value="0.3181225739" flag="0"/>
      <vel value="0.0652977480" flag="0"/>
      <psa03 value="0.2942406640" flag="0"/>
      <psa10 value="0.0425847786" flag="0"/>
      <psa30 value="0.0023999813" flag="0"/>
    </comp>
    <comp name="--.HHE">
      <acc value="0.2160110814" flag="0"/>
      <vel value="0.0567328860" flag="0"/>
      <psa03 value="0.1724090284" flag="0"/>
      <psa10 value="0.0476203102" flag="0"/>
      <psa30 value="0.0022506204" flag="0"/>
    </comp>
    <comp name="--.HHZ">
      <acc value="0.0892436171" flag="0"/>
      <vel value="0.0284099151" flag="0"/>
      <psa03 value="0.0870126613" flag="0"/>
      <psa10 value="0.0364242887" flag="0"/>
      <psa30 value="0.0014302349" flag="0"/>
    </comp>
  </station>
</stationlist>
