<?xml version="1.0" encoding="UTF-8" standalone="yes"?>
<!DOCTYPE earthquake SYSTEM "stationlist.dtd">
<stationlist created="" xmlns="ch.ethz.sed.shakemap.usgs.xml">
  <station code="IMMV" name="IMMV" netid="GE" insttype="STS-2/N" lat="35.4606" lon="23.9811">
    <comp name="--.HHN">
      <acc value="0.0223132447" flag="0"/>
      <vel value="0.0123399807" flag="0"/>
      <psa03 value="0.0443533180" flag="0"/>
      <psa10 value="0.0115111700" flag="0"/>
      <psa30 value="0.0007744675" flag="0"/>
    </comp>
    <comp name="--.HHZ">
      <acc value="0.0165667632" flag="0"/>
      <vel value="0.0079392468" flag="0"/>
      <psa03 value="0.0401037643" flag="0"/>
      <psa10 value="0.0087421084" flag="0"/>
      <psa30 value="0.0004324974" flag="0"/>
    </comp>
    <comp name="--.HHE">
      <acc value="0.0162370445" flag="0"/>
      <vel value="0.0072632140" flag="0"/>
      <psa03 value="0.0425887867" flag="0"/>
      <psa10 value="0.0119584741" flag="0"/>
      <psa30 value="0.0008446589" flag="0"/>
    </comp>
  </station>
  <station code="ZKR" name="ZKR" netid="GE" insttype="STS-2/N" lat="35.1147" lon="26.2169">
    <comp name="--.HHE">
      <acc value="0.0209779590" flag="0"/>
      <vel value="0.0137590208" flag="0"/>
      <psa03 value="0.0611087864" flag="0"/>
      <psa10 value="0.0131776678" flag="0"/>
      <psa30 value="0.0008840721" flag="0"/>
    </comp>
    <comp name="--.HHN">
      <acc value="0.0112912741" flag="0"/>
      <vel value="0.0075278434" flag="0"/>
      <psa03 value="0.0421293286" flag="0"/>
      <psa10 value="0.0046913526" flag="0"/>
      <psa30 value="0.0004733361" flag="0"/>
    </comp>
    <comp name="--.HHZ">
      <acc value="0.0168965701" flag="0"/>
      <vel value="0.0068956832" flag="0"/>
      <psa03 value="0.0334811840" flag="0"/>
      <psa10 value="0.0069643674" flag="0"/>
      <psa30 value="0.0004530171" flag="0"/>
    </comp>
  </station>
  <station code="IMOD" name="IMOD" netid="HC" insttype="120" lat="34.9731" lon="24.7995">
    <comp name="--.HHN">
      <acc value="0.0487429753" flag="0"/>
      <vel value="0.0350830509" flag="0"/>
      <psa03 value="0.1136166655" flag="0"/>
      <psa10 value="0.0409547873" flag="0"/>
      <psa30 value="0.0021284364" flag="0"/>
    </comp>
    <comp name="--.HHE">
      <acc value="0.0455820210" flag="0"/>
      <vel value="0.0204139873" flag="0"/>
      <psa03 value="0.0920709575" flag="0"/>
      <psa10 value="0.0180145155" flag="0"/>
      <psa30 value="0.0017098319" flag="0"/>
    </comp>
    <comp name="--.HHZ">
      <acc value="0.0379545199" flag="0"/>
      <vel value="0.0130577176" flag="0"/>
      <psa03 value="0.0527108064" flag="0"/>
      <psa10 value="0.0150606677" flag="0"/>
      <psa30 value="0.0007867047" flag="0"/>
    </comp>
  </station>
  <station code="KNSS" name="KNSS" netid="HC" insttype="60" lat="35.3042" lon="25.1802">
    <comp name="--.HHN">
      <acc value="1.3071387993" flag="0"/>
      <vel value="0.2375131600" flag="0"/>
      <psa03 value="1.0039727000" flag="0"/>
      <psa10 value="0.0799198296" flag="0"/>
      <psa30 value="0.0056033015" flag="0"/>
    </comp>
    <comp name="--.HHE">
      <acc value="0.9338754049" flag="0"/>
      <vel value="0.3259197012" flag="0"/>
      <psa03 value="0.9094749506" flag="0"/>
      <psa10 value="0.0854771840" flag="0"/>
      <psa30 value="0.0098055899" flag="0"/>
    </comp>
    <comp name="--.HHZ">
      <acc value="0.7608603728" flag="0"/>
      <vel value="0.1854829459" flag="0"/>
      <psa03 value="0.7551936079" flag="0"/>
      <psa10 value="0.0522592417" flag="0"/>
      <psa30 value="0.0038919746" flag="0"/>
    </comp>
  </station>
  <station code="STIA" name="STIA" netid="HC" insttype="120" lat="35.2021" lon="26.0909">
    <comp name="--.HHE">
      <acc value="0.0493280830" flag="0"/>
      <vel value="0.0172433097" flag="0"/>
      <psa03 value="0.1011784837" flag="0"/>
      <psa10 value="0.0129102432" flag="0"/>
      <psa30 value="0.0007104986" flag="0"/>
    </comp>
    <comp name="--.HHZ">
      <acc value="0.0425519501" flag="0"/>
      <vel value="0.0094120304" flag="0"/>
      <psa03 value="0.0796105174" flag="0"/>
      <psa10 value="0.0060093580" flag="0"/>
      <psa30 value="0.0008344977" flag="0"/>
    </comp>
    <comp name="--.HHN">
      <acc value="0.0432631463" flag="0"/>
      <vel value="0.0160439087" flag="0"/>
      <psa03 value="0.0617061497" flag="0"/>
      <psa10 value="0.0136597618" flag="0"/>
      <psa30 value="0.0010560728" flag="0"/>
    </comp>
  </station>
  <station code="SIT2" name="SIT2" netid="HI" insttype="CMG-5TD,ACCELEROMETER,GURALP" lat="35.2059" lon="26.107">
    <comp name="--.HNE">
      <acc value="0.0714475127" flag="0"/>
      <vel value="0.0484346791" flag="0"/>
      <psa03 value="0.1713416684" flag="0"/>
      <psa10 value="0.0246686338" flag="0"/>
      <psa30 value="0.0018629327" flag="0"/>
    </comp>
    <comp name="--.HNN">
      <acc value="0.0797867547" flag="0"/>
      <vel value="0.0413047277" flag="0"/>
      <psa03 value="0.2606460441" flag="0"/>
      <psa10 value="0.0237540522" flag="0"/>
      <psa30 value="0.0021263184" flag="0"/>
    </comp>
    <comp name="--.HNZ">
      <acc value="0.0691538082" flag="0"/>
      <vel value="0.0224408648" flag="0"/>
      <psa03 value="0.1241804688" flag="0"/>
      <psa10 value="0.0067964531" flag="0"/>
      <psa30 value="0.0007530643" flag="0"/>
    </comp>
  </station>
  <station code="IACM" name="IACM" netid="HL" insttype="120" lat="35.3058" lon="25.0709">
    <comp name="--.HHE">
      <acc value="0.7458923705" flag="0"/>
      <vel value="0.2236600255" flag="0"/>
      <psa03 value="1.0295132477" flag="0"/>
      <psa10 value="0.2969335656" flag="0"/>
      <psa30 value="0.0107304947" flag="0"/>
    </comp>
    <comp name="--.HHN">
      <acc value="0.7040067602" flag="0"/>
      <vel value="0.2137078786" flag="0"/>
      <psa03 value="0.9749382464" flag="0"/>
      <psa10 value="0.3217128946" flag="0"/>
      <psa30 value="0.0099107518" flag="0"/>
    </comp>
    <comp name="--.HHZ">
      <acc value="0.6682761188" flag="0"/>
      <vel value="0.1270397171" flag="0"/>
      <psa03 value="0.4235494805" flag="0"/>
      <psa10 value="0.1168147926" flag="0"/>
      <psa30 value="0.0048307009" flag="0"/>
    </comp>
  </station>
  <station code="IDI" name="IDI" netid="HL" insttype="120" lat="35.288" lon="24.89">
    <comp name="--.HHN">
      <acc value="0.2249668386" flag="0"/>
      <vel value="0.0289850367" flag="0"/>
      <psa03 value="0.1144661251" flag="0"/>
      <psa10 value="0.0250321900" flag="0"/>
      <psa30 value="0.0018190049" flag="0"/>
    </comp>
    <comp name="--.HHE">
      <acc value="0.1460288374" flag="0"/>
      <vel value="0.0279661082" flag="0"/>
      <psa03 value="0.0885770220" flag="0"/>
      <psa10 value="0.0140240088" flag="0"/>
      <psa30 value="0.0008899239" flag="0"/>
    </comp>
    <comp name="--.HHZ">
      <acc value="0.1177813755" flag="0"/>
      <vel value="0.0214331430" flag="0"/>
      <psa03 value="0.0807654241" flag="0"/>
      <psa10 value="0.0110973718" flag="0"/>
      <psa30 value="0.0010336910" flag="0"/>
    </comp>
  </station>
  <station code="IMMV" name="IMMV" netid="HL" insttype="120" lat="35.4606" lon="23.9811">
    <comp name="--.HHZ">
      <acc value="0.0161428956" flag="0"/>
      <vel value="0.0078522310" flag="0"/>
      <psa03 value="0.0390130622" flag="0"/>
      <psa10 value="0.0087000641" flag="0"/>
      <psa30 value="0.0004311915" flag="0"/>
    </comp>
    <comp name="--.HHE">
      <acc value="0.0157507872" flag="0"/>
      <vel value="0.0071151699" flag="0"/>
      <psa03 value="0.0413414144" flag="0"/>
      <psa10 value="0.0118491631" flag="0"/>
      <psa30 value="0.0008430780" flag="0"/>
    </comp>
    <comp name="--.HHN">
      <acc value="0.0215846894" flag="0"/>
      <vel value="0.0121533577" flag="0"/>
      <psa03 value="0.0430187522" flag="0"/>
      <psa10 value="0.0114416712" flag="0"/>
      <psa30 value="0.0007743265" flag="0"/>
    </comp>
  </station>
  <station code="NPS" name="NPS" netid="HL" insttype="CMG3ESPC-120s" lat="35.2613" lon="25.6104">
    <comp name="--.HHZ">
      <acc value="0.1644046927" flag="0"/>
      <vel value="0.0445062371" flag="0"/>
      <psa03 value="0.1458630094" flag="0"/>
      <psa10 value="0.0318674706" flag="0"/>
      <psa30 value="0.0018559243" flag="0"/>
    </comp>
    <comp name="--.HHE">
      <acc value="0.0812675516" flag="0"/>
      <vel value="0.0303214861" flag="0"/>
      <psa03 value="0.1082480201" flag="0"/>
      <psa10 value="0.0163463069" flag="0"/>
      <psa30 value="0.0010688833" flag="0"/>
    </comp>
    <comp name="--.HHN">
      <acc value="0.1493487041" flag="0"/>
      <vel value="0.0443215126" flag="0"/>
      <psa03 value="0.2227584047" flag="0"/>
      <psa10 value="0.0339300128" flag="0"/>
      <psa30 value="0.0020652090" flag="0"/>
    </comp>
  </station>
  <station code="SIVA" name="SIVA" netid="HL" insttype="60" lat="35.0178" lon="24.812">
    <comp name="--.HHE">
      <acc value="0.1607815088" flag="0"/>
      <vel value="0.0509268510" flag="0"/>
      <psa03 value="0.2092939799" flag="0"/>
      <psa10 value="0.0448574158" flag="0"/>
      <psa30 value="0.0020857207" flag="0"/>
    </comp>
    <comp name="--.HHN">
      <acc value="0.1120014820" flag="0"/>
      <vel value="0.0441570388" flag="0"/>
      <psa03 value="0.1592943277" flag="0"/>
      <psa10 value="0.0494315493" flag="0"/>
      <psa30 value="0.0024135792" flag="0"/>
    </comp>
    <comp name="--.HHZ">
      <acc value="0.1107890355" flag="0"/>
      <vel value="0.0178532702" flag="0"/>
      <psa03 value="0.0949364834" flag="0"/>
      <psa10 value="0.0151218728" flag="0"/>
      <psa30 value="0.0008716005" flag="0"/>
    </comp>
  </station>
  <station code="VAM" name="VAM" netid="HL" insttype="CMG3ESPC-120s" lat="35.407" lon="24.1997">
    <comp name="--.HHN">
      <acc value="0.0528952700" flag="0"/>
      <vel value="0.0181211483" flag="0"/>
      <psa03 value="0.0742226658" flag="0"/>
      <psa10 value="0.0153657487" flag="0"/>
      <psa30 value="0.0011665548" flag="0"/>
    </comp>
    <comp name="--.HHZ">
      <acc value="0.0251588496" flag="0"/>
      <vel value="0.0080439061" flag="0"/>
      <psa03 value="0.0409813689" flag="0"/>
      <psa10 value="0.0060862720" flag="0"/>
      <psa30 value="0.0005079807" flag="0"/>
    </comp>
    <comp name="--.HHE">
      <acc value="0.0386680492" flag="0"/>
      <vel value="0.0159488194" flag="0"/>
      <psa03 value="0.0648056562" flag="0"/>
      <psa10 value="0.0176209452" flag="0"/>
      <psa30 value="0.0009047276" flag="0"/>
    </comp>
  </station>
  <station code="ZKR" name="ZKR" netid="HL" insttype="120" lat="35.1147" lon="26.2169">
    <comp name="--.HHZ">
      <acc value="0.0165841403" flag="0"/>
      <vel value="0.0066971914" flag="0"/>
      <psa03 value="0.0326338290" flag="0"/>
      <psa10 value="0.0069091788" flag="0"/>
      <psa30 value="0.0004523143" flag="0"/>
    </comp>
    <comp name="--.HHE">
      <acc value="0.0205380041" flag="0"/>
      <vel value="0.0135206002" flag="0"/>
      <psa03 value="0.0593787259" flag="0"/>
      <psa10 value="0.0130146454" flag="0"/>
      <psa30 value="0.0008772088" flag="0"/>
    </comp>
    <comp name="--.HHN">
      <acc value="0.0109724125" flag="0"/>
      <vel value="0.0073612485" flag="0"/>
      <psa03 value="0.0409334409" flag="0"/>
      <psa10 value="0.0046583985" flag="0"/>
      <psa30 value="0.0004729875" flag="0"/>
    </comp>
  </station>
  <station code="IDI" name="IDI" netid="MN" insttype="" lat="35.288" lon="24.89">
    <comp name="--.HHE">
      <acc value="0.1758966558" flag="0"/>
      <vel value="0.0281536232" flag="0"/>
      <psa03 value="0.0894524853" flag="0"/>
      <psa10 value="0.0139838275" flag="0"/>
      <psa30 value="0.0008867515" flag="0"/>
    </comp>
    <comp name="--.HHN">
      <acc value="0.2511890934" flag="0"/>
      <vel value="0.0293876901" flag="0"/>
      <psa03 value="0.1148086202" flag="0"/>
      <psa10 value="0.0250335427" flag="0"/>
      <psa30 value="0.0018084991" flag="0"/>
    </comp>
    <comp name="--.HHZ">
      <acc value="0.1347959249" flag="0"/>
      <vel value="0.0222594177" flag="0"/>
      <psa03 value="0.0823783211" flag="0"/>
      <psa10 value="0.0109997022" flag="0"/>
      <psa30 value="0.0010299048" flag="0"/>
    </comp>
  </station>
</stationlist>
