<stationlist created="1778136744">
	<station code="ABEA" name="ABEA" netid="HC" source="Seismological Network of Crete (HC)" insttype="" lat="35.5163" lon="24.0113">
		<comp name="--.HNE" depth="0.0">
			<acc value="0.0201690672095469" flag="0"/>
			<vel value="0.0133680650110262" flag="0"/>
			<psa03 value="0.0515021617655696" flag="0"/>
			<psa10 value="0.0225082148087699" flag="0"/>
			<psa30 value="0.00227248658275012" flag="0"/>
		</comp>
		<comp name="--.HNN" depth="0.0">
			<acc value="0.0187921739217787" flag="0"/>
			<vel value="0.0112037608525391" flag="0"/>
			<psa03 value="0.0477855145140073" flag="0"/>
			<psa10 value="0.0159196189716465" flag="0"/>
			<psa30 value="0.00168958598927947" flag="0"/>
		</comp>
		<comp name="--.HNZ" depth="0.0">
			<acc value="0.0162998284377216" flag="0"/>
			<vel value="0.00516995487703576" flag="0"/>
			<psa03 value="0.0178093451463167" flag="0"/>
			<psa10 value="0.00929239463803126" flag="0"/>
			<psa30 value="0.000997645568289123" flag="0"/>
		</comp>
	</station>
	<station code="ATEI" name="ATEI" netid="HC" source="Seismological Network of Crete (HC)" insttype="" lat="35.5193" lon="24.0432">
		<comp name="--.HNE" depth="0.0">
			<acc value="0.0112648120459083" flag="0"/>
			<vel value="0.0076531333758376" flag="0"/>
			<psa03 value="0.0257394681342864" flag="0"/>
			<psa10 value="0.0114024325426854" flag="0"/>
			<psa30 value="0.0015895109222977" flag="0"/>
		</comp>
		<comp name="--.HNN" depth="0.0">
			<acc value="0.0134639493712344" flag="0"/>
			<vel value="0.00866702746067788" flag="0"/>
			<psa03 value="0.024997989327455" flag="0"/>
			<psa10 value="0.0127800703669541" flag="0"/>
			<psa30 value="0.00149198550338272" flag="0"/>
		</comp>
		<comp name="--.HNZ" depth="0.0">
			<acc value="0.0137372236770342" flag="0"/>
			<vel value="0.00671363012066594" flag="0"/>
			<psa03 value="0.0182499081856035" flag="0"/>
			<psa10 value="0.0124092598650715" flag="0"/>
			<psa30 value="0.000649822474632126" flag="0"/>
		</comp>
	</station>
	<station code="DEYA" name="DEYA" netid="HC" source="Seismological Network of Crete (HC)" insttype="" lat="35.4825" lon="24.014">
		<comp name="--.HNE" depth="0.0">
			<acc value="0.0260825193403249" flag="0"/>
			<vel value="0.0194643130934555" flag="0"/>
			<psa03 value="0.0701053785121123" flag="0"/>
			<psa10 value="0.042770248319235" flag="0"/>
			<psa30 value="0.0025908924672421" flag="0"/>
		</comp>
		<comp name="--.HNN" depth="0.0">
			<acc value="0.0252709457566253" flag="0"/>
			<vel value="0.0157837496537056" flag="0"/>
			<psa03 value="0.0618240017867153" flag="0"/>
			<psa10 value="0.0242599389768938" flag="0"/>
			<psa30 value="0.00178589330666619" flag="0"/>
		</comp>
		<comp name="--.HNZ" depth="0.0">
			<acc value="0.0219602206948237" flag="0"/>
			<vel value="0.0105026627505455" flag="0"/>
			<psa03 value="0.0281450858279801" flag="0"/>
			<psa10 value="0.0127169143081664" flag="0"/>
			<psa30 value="0.00205853678462365" flag="0"/>
		</comp>
	</station>
	<station code="G0LD" name="G0LD" netid="HC" source="Seismological Network of Crete (HC)" insttype="" lat="35.4955" lon="24.0306">
		<comp name="--.HNE" depth="0.0">
			<acc value="0.0415433365475682" flag="0"/>
			<vel value="0.0378118123167292" flag="0"/>
			<psa03 value="0.0755239197556033" flag="0"/>
			<psa10 value="0.0781632104289191" flag="0"/>
			<psa30 value="0.0038743108207446" flag="0"/>
		</comp>
		<comp name="--.HNN" depth="0.0">
			<acc value="0.0323806556377294" flag="0"/>
			<vel value="0.0310467156100225" flag="0"/>
			<psa03 value="0.0728132037256875" flag="0"/>
			<psa10 value="0.0708023803100775" flag="0"/>
			<psa30 value="0.00406363919615491" flag="0"/>
		</comp>
		<comp name="--.HNZ" depth="0.0">
			<acc value="0.0240247459678181" flag="0"/>
			<vel value="0.0185707722874903" flag="0"/>
			<psa03 value="0.0436107900424831" flag="0"/>
			<psa10 value="0.0288567872455231" flag="0"/>
			<psa30 value="0.00167463812405582" flag="0"/>
		</comp>
	</station>
	<station code="LENT" name="LENT" netid="HC" source="Seismological Network of Crete (HC)" insttype="" lat="35.5074" lon="24.0402">
		<comp name="--.HNE" depth="0.0">
			<acc value="0.0194462036852959" flag="0"/>
			<vel value="0.0118721185674903" flag="0"/>
			<psa03 value="0.0236391493109822" flag="0"/>
			<psa10 value="0.023801870507116" flag="0"/>
			<psa30 value="0.00177513321886452" flag="0"/>
		</comp>
		<comp name="--.HNN" depth="0.0">
			<acc value="0.0298728101083992" flag="0"/>
			<vel value="0.0172800864200636" flag="0"/>
			<psa03 value="0.0433519213312076" flag="0"/>
			<psa10 value="0.0199207234001672" flag="0"/>
			<psa30 value="0.00237630241837147" flag="0"/>
		</comp>
		<comp name="--.HNZ" depth="0.0">
			<acc value="0.0164268744927016" flag="0"/>
			<vel value="0.00741701459106422" flag="0"/>
			<psa03 value="0.0270823643862348" flag="0"/>
			<psa10 value="0.0128568342021823" flag="0"/>
			<psa30 value="0.00123077444943519" flag="0"/>
		</comp>
	</station>
	<station code="MULT" name="MULT" netid="HC" source="Seismological Network of Crete (HC)" insttype="" lat="35.5091" lon="24.0118">
		<comp name="--.HNE" depth="0.0">
			<acc value="0.0383421588704203" flag="0"/>
			<vel value="0.013388384444654" flag="0"/>
			<psa03 value="0.0316741685707119" flag="0"/>
			<psa10 value="0.0150113950562399" flag="0"/>
			<psa30 value="0.00176851090516743" flag="0"/>
		</comp>
		<comp name="--.HNN" depth="0.0">
			<acc value="0.0334293980972912" flag="0"/>
			<vel value="0.0160409826315842" flag="0"/>
			<psa03 value="0.0497787559314346" flag="0"/>
			<psa10 value="0.0303025061423331" flag="0"/>
			<psa30 value="0.00283663874672946" flag="0"/>
		</comp>
		<comp name="--.HNZ" depth="0.0">
			<acc value="0.0284542130026706" flag="0"/>
			<vel value="0.0124032350365429" flag="0"/>
			<psa03 value="0.0251854001800045" flag="0"/>
			<psa10 value="0.0145145387044496" flag="0"/>
			<psa30 value="0.00351245393283658" flag="0"/>
		</comp>
	</station>
	<station code="NERO" name="NERO" netid="HC" source="Seismological Network of Crete (HC)" insttype="" lat="35.474" lon="24.0423">
		<comp name="--.HNE" depth="0.0">
			<acc value="0.0129945518670056" flag="0"/>
			<vel value="0.00667724134697378" flag="0"/>
			<psa03 value="0.0253948697855076" flag="0"/>
			<psa10 value="0.0112300383099211" flag="0"/>
			<psa30 value="0.00138308933121388" flag="0"/>
		</comp>
		<comp name="--.HNN" depth="0.0">
			<acc value="0.0129771243855503" flag="0"/>
			<vel value="0.0101621940368699" flag="0"/>
			<psa03 value="0.0217517430295594" flag="0"/>
			<psa10 value="0.0163355290236462" flag="0"/>
			<psa30 value="0.00134725508236983" flag="0"/>
		</comp>
		<comp name="--.HNZ" depth="0.0">
			<acc value="0.017572847133842" flag="0"/>
			<vel value="0.00619234748776596" flag="0"/>
			<psa03 value="0.025034424032734" flag="0"/>
			<psa10 value="0.00987416411492167" flag="0"/>
			<psa30 value="0.000769352476243155" flag="0"/>
		</comp>
	</station>
	<station code="PASK" name="PASK" netid="HC" source="Seismological Network of Crete (HC)" insttype="" lat="35.4996" lon="24.0121">
		<comp name="--.HNE" depth="0.0">
			<acc value="0.0316416875342558" flag="0"/>
			<vel value="0.0182090970037844" flag="0"/>
			<psa03 value="0.0454704028160229" flag="0"/>
			<psa10 value="0.0246105553285278" flag="0"/>
			<psa30 value="0.00173115926413938" flag="0"/>
		</comp>
		<comp name="--.HNN" depth="0.0">
			<acc value="0.0203281473782095" flag="0"/>
			<vel value="0.0166902050670196" flag="0"/>
			<psa03 value="0.0429024879125935" flag="0"/>
			<psa10 value="0.0192227477876813" flag="0"/>
			<psa30 value="0.00205409690717135" flag="0"/>
		</comp>
		<comp name="--.HNZ" depth="0.0">
			<acc value="0.0202187333175878" flag="0"/>
			<vel value="0.0145680486421563" flag="0"/>
			<psa03 value="0.0417505496231659" flag="0"/>
			<psa10 value="0.0161719713137322" flag="0"/>
			<psa30 value="0.00131417862038254" flag="0"/>
		</comp>
	</station>
	<station code="POLY" name="POLY" netid="HC" source="Seismological Network of Crete (HC)" insttype="" lat="35.5226" lon="24.0602">
		<comp name="--.HNE" depth="0.0">
			<acc value="0.0116622377689967" flag="0"/>
			<vel value="0.00903916588323856" flag="0"/>
			<psa03 value="0.0264172994956231" flag="0"/>
			<psa10 value="0.0152439714007893" flag="0"/>
			<psa30 value="0.00165234091781182" flag="0"/>
		</comp>
		<comp name="--.HNN" depth="0.0">
			<acc value="0.0140641709698578" flag="0"/>
			<vel value="0.0103820094527729" flag="0"/>
			<psa03 value="0.0295158224658767" flag="0"/>
			<psa10 value="0.0158791912934885" flag="0"/>
			<psa30 value="0.00200912788652716" flag="0"/>
		</comp>
		<comp name="--.HNZ" depth="0.0">
			<acc value="0.0115902053976726" flag="0"/>
			<vel value="0.00605484180048727" flag="0"/>
			<psa03 value="0.0191954135290419" flag="0"/>
			<psa10 value="0.00986721115429532" flag="0"/>
			<psa30 value="0.0013179614751479" flag="0"/>
		</comp>
	</station>
	<station code="SOUD" name="SOUD" netid="HC" source="Seismological Network of Crete (HC)" insttype="" lat="35.4878" lon="24.0678">
		<comp name="--.HNE" depth="0.0">
			<acc value="0.026037541897619" flag="0"/>
			<vel value="0.017838485934899" flag="0"/>
			<psa03 value="0.0861452066973367" flag="0"/>
			<psa10 value="0.0319266074810525" flag="0"/>
			<psa30 value="0.00175756872196732" flag="0"/>
		</comp>
		<comp name="--.HNN" depth="0.0">
			<acc value="0.0302073400380485" flag="0"/>
			<vel value="0.0170015334384829" flag="0"/>
			<psa03 value="0.0590174252399739" flag="0"/>
			<psa10 value="0.0346058749693862" flag="0"/>
			<psa30 value="0.00148446250502195" flag="0"/>
		</comp>
		<comp name="--.HNZ" depth="0.0">
			<acc value="0.00635424419967108" flag="0"/>
			<vel value="0.00469690526136503" flag="0"/>
			<psa03 value="0.00702638603649433" flag="0"/>
			<psa10 value="0.00437512186161046" flag="0"/>
			<psa30 value="0.00210594013319638" flag="0"/>
		</comp>
	</station>
	<station code="CH01" name="CH01" netid="HI" source="ITSAK Strong Motion Network" insttype="" lat="35.517" lon="24.0208">
		<comp name="--.HNE" depth="0.0">
			<acc value="0.0201058800444284" flag="0"/>
			<vel value="0.0141666445292205" flag="0"/>
			<psa03 value="0.0322749479527236" flag="0"/>
			<psa10 value="0.0158123187385069" flag="0"/>
			<psa30 value="0.00133348969131436" flag="0"/>
		</comp>
		<comp name="--.HNN" depth="0.0">
			<acc value="0.0213026423906964" flag="0"/>
			<vel value="0.0120438573052669" flag="0"/>
			<psa03 value="0.0430903467114984" flag="0"/>
			<psa10 value="0.0167602952873267" flag="0"/>
			<psa30 value="0.00141387064115906" flag="0"/>
		</comp>
		<comp name="--.HNZ" depth="0.0">
			<acc value="0.012185972553549" flag="0"/>
			<vel value="0.00652434746400672" flag="0"/>
			<psa03 value="0.0138025588830583" flag="0"/>
			<psa10 value="0.0121501092601227" flag="0"/>
			<psa30 value="0.000748424787803275" flag="0"/>
		</comp>
	</station>
	<station code="KSS1" name="KSS1" netid="HI" source="ITSAK Strong Motion Network" insttype="" lat="35.4189" lon="26.9207">
		<comp name="--.HNE" depth="0.0">
			<acc value="0.00765300095733417" flag="0"/>
			<vel value="0.00350833249127996" flag="0"/>
			<psa03 value="0.0218598569623878" flag="0"/>
			<psa10 value="0.00244955586480515" flag="0"/>
			<psa30 value="0.000187180355508867" flag="0"/>
		</comp>
		<comp name="--.HNN" depth="0.0">
			<acc value="0.00848929401656829" flag="0"/>
			<vel value="0.00378480920626226" flag="0"/>
			<psa03 value="0.0198611894042335" flag="0"/>
			<psa10 value="0.00398028304921969" flag="0"/>
			<psa30 value="0.000220463771309353" flag="0"/>
		</comp>
		<comp name="--.HNZ" depth="0.0">
			<acc value="0.00405494430174101" flag="0"/>
			<vel value="0.0015378882540069" flag="0"/>
			<psa03 value="0.00724233654006692" flag="0"/>
			<psa10 value="0.00209786928604285" flag="0"/>
			<psa30 value="0.000211560160655713" flag="0"/>
		</comp>
	</station>
	<station code="NAX1" name="NAX1" netid="HI" source="ITSAK Strong Motion Network" insttype="" lat="37.101394" lon="25.374103">
		<comp name="--.HNE" depth="0.0">
			<acc value="0.00333897878501935" flag="0"/>
			<vel value="0.00170236299106171" flag="0"/>
			<psa03 value="0.00903943736003715" flag="0"/>
			<psa10 value="0.0022203463057953" flag="0"/>
			<psa30 value="0.000253039366782777" flag="0"/>
		</comp>
		<comp name="--.HNN" depth="0.0">
			<acc value="0.00419771157087868" flag="0"/>
			<vel value="0.00189325401301073" flag="0"/>
			<psa03 value="0.0126235211421587" flag="0"/>
			<psa10 value="0.00205399794228363" flag="0"/>
			<psa30 value="8.90418556173364e-05" flag="0"/>
		</comp>
		<comp name="--.HNZ" depth="0.0">
			<acc value="0.00322880923689867" flag="0"/>
			<vel value="0.00146891915958413" flag="0"/>
			<psa03 value="0.00747258812126918" flag="0"/>
			<psa10 value="0.00172644257147436" flag="0"/>
			<psa30 value="8.53418709281654e-05" flag="0"/>
		</comp>
	</station>
	<station code="SIT2" name="SIT2" netid="HI" source="ITSAK Strong Motion Network" insttype="" lat="35.2059" lon="26.107">
		<comp name="--.HNE" depth="0.0">
			<acc value="0.0713930583341681" flag="0"/>
			<vel value="0.048465523555552" flag="0"/>
			<psa03 value="0.173142219822208" flag="0"/>
			<psa10 value="0.0247766557068586" flag="0"/>
			<psa30 value="0.00183898015674459" flag="0"/>
		</comp>
		<comp name="--.HNN" depth="0.0">
			<acc value="0.0799451442489659" flag="0"/>
			<vel value="0.0413385703604404" flag="0"/>
			<psa03 value="0.26855137354397" flag="0"/>
			<psa10 value="0.0238100873014343" flag="0"/>
			<psa30 value="0.00221804985158226" flag="0"/>
		</comp>
		<comp name="--.HNZ" depth="0.0">
			<acc value="0.0691527386749402" flag="0"/>
			<vel value="0.0228444370699927" flag="0"/>
			<psa03 value="0.127686437766479" flag="0"/>
			<psa10 value="0.00682521073046679" flag="0"/>
			<psa30 value="0.000740115174833243" flag="0"/>
		</comp>
	</station>
	<station code="ANKY" name="ANKY" netid="HL" source="National Observatory of Athens Seismic Network" insttype="" lat="35.86704" lon="23.30117">
		<comp name="00.HNE" depth="0.0">
			<acc value="0.00285937364827999" flag="0"/>
			<vel value="0.00254744946435503" flag="0"/>
			<psa03 value="0.00952109036091276" flag="0"/>
			<psa10 value="0.00547796491954122" flag="0"/>
			<psa30 value="0.000797271044459242" flag="0"/>
		</comp>
		<comp name="00.HNN" depth="0.0">
			<acc value="0.00332609729049308" flag="0"/>
			<vel value="0.00245860429206114" flag="0"/>
			<psa03 value="0.00917047403536789" flag="0"/>
			<psa10 value="0.00412235136681239" flag="0"/>
			<psa30 value="0.000802991631755373" flag="0"/>
		</comp>
		<comp name="00.HNZ" depth="0.0">
			<acc value="0.00246679778288331" flag="0"/>
			<vel value="0.0011359084939207" flag="0"/>
			<psa03 value="0.00581708652531622" flag="0"/>
			<psa10 value="0.00183501308404674" flag="0"/>
			<psa30 value="0.00029855350166241" flag="0"/>
		</comp>
	</station>
	<station code="IACM" name="IACM" netid="HL" source="National Observatory of Athens Seismic Network" insttype="" lat="35.3058" lon="25.0709">
		<comp name="--.HNE" depth="0.0">
			<acc value="0.756438279510443" flag="0"/>
			<vel value="0.22308323758968" flag="0"/>
			<psa03 value="1.00267108870741" flag="0"/>
			<psa10 value="0.28236277514829" flag="0"/>
			<psa30 value="0.0108114020356667" flag="0"/>
		</comp>
		<comp name="--.HNN" depth="0.0">
			<acc value="0.671867070127757" flag="0"/>
			<vel value="0.217001524971634" flag="0"/>
			<psa03 value="0.971279842522995" flag="0"/>
			<psa10 value="0.333597619204956" flag="0"/>
			<psa30 value="0.0101663609715351" flag="0"/>
		</comp>
		<comp name="--.HNZ" depth="0.0">
			<acc value="0.669679114542425" flag="0"/>
			<vel value="0.132699040571553" flag="0"/>
			<psa03 value="0.430883418912055" flag="0"/>
			<psa10 value="0.114599131629964" flag="0"/>
			<psa30 value="0.00484532056203819" flag="0"/>
		</comp>
	</station>
	<station code="IMMV" name="IMMV" netid="HL" source="National Observatory of Athens Seismic Network" insttype="" lat="35.4606" lon="23.9811">
		<comp name="--.HNE" depth="0.0">
			<acc value="0.014861278875657" flag="0"/>
			<vel value="0.00673924025327338" flag="0"/>
			<psa03 value="0.0396583120643808" flag="0"/>
			<psa10 value="0.0113417057073311" flag="0"/>
			<psa30 value="0.000802459356908647" flag="0"/>
		</comp>
		<comp name="--.HNN" depth="0.0">
			<acc value="0.0210995796570062" flag="0"/>
			<vel value="0.0119544796210399" flag="0"/>
			<psa03 value="0.0428114975099257" flag="0"/>
			<psa10 value="0.0111573041166513" flag="0"/>
			<psa30 value="0.000743083027687866" flag="0"/>
		</comp>
		<comp name="--.HNZ" depth="0.0">
			<acc value="0.0159007450671566" flag="0"/>
			<vel value="0.00780911479846252" flag="0"/>
			<psa03 value="0.038675653218065" flag="0"/>
			<psa10 value="0.00867295860345167" flag="0"/>
			<psa30 value="0.000389705711924109" flag="0"/>
		</comp>
	</station>
	<station code="KARP" name="KARP" netid="HL" source="National Observatory of Athens Seismic Network" insttype="" lat="35.5471" lon="27.16106">
		<comp name="--.HNE" depth="0.0">
			<acc value="0.0116754300794778" flag="0"/>
			<vel value="0.0032183494098219" flag="0"/>
			<psa03 value="0.014598270449172" flag="0"/>
			<psa10 value="0.00564518849727408" flag="0"/>
			<psa30 value="0.000295571611418754" flag="0"/>
		</comp>
		<comp name="--.HNN" depth="0.0">
			<acc value="0.0140500999520713" flag="0"/>
			<vel value="0.00407966445231169" flag="0"/>
			<psa03 value="0.0181109015812763" flag="0"/>
			<psa10 value="0.00554964435545501" flag="0"/>
			<psa30 value="0.000365024102930295" flag="0"/>
		</comp>
		<comp name="--.HNZ" depth="0.0">
			<acc value="0.00630758827102293" flag="0"/>
			<vel value="0.00221807115566318" flag="0"/>
			<psa03 value="0.0147120540284732" flag="0"/>
			<psa10 value="0.00201776632336542" flag="0"/>
			<psa30 value="0.00017692782737107" flag="0"/>
		</comp>
	</station>
	<station code="SIVA" name="SIVA" netid="HL" source="National Observatory of Athens Seismic Network" insttype="" lat="35.01777" lon="24.81204">
		<comp name="00.HNE" depth="0.0">
			<acc value="0.147425520404429" flag="0"/>
			<vel value="0.0477258392448929" flag="0"/>
			<psa03 value="0.194365729942253" flag="0"/>
			<psa10 value="0.0422586356772135" flag="0"/>
			<psa30 value="0.0019825327914003" flag="0"/>
		</comp>
		<comp name="00.HNN" depth="0.0">
			<acc value="0.103817712454126" flag="0"/>
			<vel value="0.0472568418515041" flag="0"/>
			<psa03 value="0.173271061690651" flag="0"/>
			<psa10 value="0.0582759692468804" flag="0"/>
			<psa30 value="0.00286728515190163" flag="0"/>
		</comp>
		<comp name="00.HNZ" depth="0.0">
			<acc value="0.108140625565668" flag="0"/>
			<vel value="0.0181291608626796" flag="0"/>
			<psa03 value="0.095103310544353" flag="0"/>
			<psa10 value="0.0147699334355841" flag="0"/>
			<psa30 value="0.000830116814081131" flag="0"/>
		</comp>
	</station>
	<station code="THRA" name="THRA" netid="HL" source="National Observatory of Athens Seismic Network" insttype="" lat="36.41502" lon="25.43244">
		<comp name="00.HNE" depth="0.0">
			<acc value="0.0882560390832701" flag="0"/>
			<vel value="0.0352950699851024" flag="0"/>
			<psa03 value="0.162842891708991" flag="0"/>
			<psa10 value="0.0395539227532799" flag="0"/>
			<psa30 value="0.00259999765375028" flag="0"/>
		</comp>
		<comp name="00.HNN" depth="0.0">
			<acc value="0.0670988004987093" flag="0"/>
			<vel value="0.0352608670937575" flag="0"/>
			<psa03 value="0.216828113798452" flag="0"/>
			<psa10 value="0.0297829992275141" flag="0"/>
			<psa30 value="0.00119615371848167" flag="0"/>
		</comp>
		<comp name="00.HNZ" depth="0.0">
			<acc value="0.0680794319291834" flag="0"/>
			<vel value="0.0243037336844003" flag="0"/>
			<psa03 value="0.155946382765893" flag="0"/>
			<psa10 value="0.0114150643169706" flag="0"/>
			<psa30 value="0.000811487402890709" flag="0"/>
		</comp>
	</station>
</stationlist>
