<?xml version="1.0" encoding="UTF-8" standalone="yes"?>
<!DOCTYPE earthquake SYSTEM "stationlist.dtd">
<stationlist created="" xmlns="ch.ethz.sed.shakemap.usgs.xml">
  <station code="ARPRA" name="ARPRA" netid="KO" insttype="CMG-5T" lat="39.0929" lon="38.3356">
    <comp name="--.HNE">
      <acc value="0.1219372240" flag="0"/>
      <vel value="0.0868182800" flag="0"/>
      <psa03 value="0.2838235091" flag="0"/>
      <psa10 value="0.1499353921" flag="0"/>
      <psa30 value="0.0065690312" flag="0"/>
    </comp>
    <comp name="--.HNZ">
      <acc value="0.0785273306" flag="0"/>
      <vel value="0.0430657482" flag="0"/>
      <psa03 value="0.1090299224" flag="0"/>
      <psa10 value="0.0665629542" flag="0"/>
      <psa30 value="0.0052884983" flag="0"/>
    </comp>
  </station>
  <station code="DARE" name="DARE" netid="KO" insttype="CMG-3ESP" lat="38.5712" lon="37.4832">
    <comp name="--.HHZ">
      <acc value="0.1695232440" flag="0"/>
      <vel value="0.0717955387" flag="0"/>
      <psa03 value="0.4838384506" flag="0"/>
      <psa10 value="0.0299037524" flag="0"/>
      <psa30 value="0.0031297484" flag="0"/>
    </comp>
  </station>
  <station code="KMRS" name="KMRS" netid="KO" insttype="CMG-3T" lat="37.5053" lon="36.9">
    <comp name="--.HHE">
      <acc value="0.0161421587" flag="0"/>
      <vel value="0.0079931451" flag="0"/>
      <psa03 value="0.0278694844" flag="0"/>
      <psa10 value="0.0082780884" flag="0"/>
      <psa30 value="0.0012761978" flag="0"/>
    </comp>
    <comp name="--.HHZ">
      <acc value="0.0134906092" flag="0"/>
      <vel value="0.0095278859" flag="0"/>
      <psa03 value="0.0307428741" flag="0"/>
      <psa10 value="0.0061786988" flag="0"/>
      <psa30 value="0.0012031596" flag="0"/>
    </comp>
  </station>
  <station code="URFA" name="URFA" netid="KO" insttype="CMG-3ESP" lat="37.4409" lon="38.8213">
    <comp name="--.HHE">
      <acc value="0.0321460080" flag="0"/>
      <vel value="0.0159174160" flag="0"/>
      <psa03 value="0.0369914850" flag="0"/>
      <psa10 value="0.0174756395" flag="0"/>
      <psa30 value="0.0015026209" flag="0"/>
    </comp>
    <comp name="--.HHN">
      <acc value="0.0233274996" flag="0"/>
      <vel value="0.0091330870" flag="0"/>
      <psa03 value="0.0459074347" flag="0"/>
      <psa10 value="0.0100169998" flag="0"/>
      <psa30 value="0.0013122146" flag="0"/>
    </comp>
  </station>
</stationlist>
