<?xml version="1.0" encoding="UTF-8" standalone="yes"?>
<!DOCTYPE earthquake SYSTEM "stationlist.dtd">
<stationlist created="" xmlns="ch.ethz.sed.shakemap.usgs.xml">
  <station code="ARPRA" name="ARPRA" netid="KO" insttype="CMG-5T" lat="39.0929" lon="38.3356">
    <comp name="--.HNE">
      <acc value="0.1219372420" flag="0"/>
      <vel value="0.0868182610" flag="0"/>
      <psa03 value="0.2838235091" flag="0"/>
      <psa10 value="0.1499353933" flag="0"/>
      <psa30 value="0.0065713744" flag="0"/>
    </comp>
    <comp name="--.HNZ">
      <acc value="0.0785273226" flag="0"/>
      <vel value="0.0430657478" flag="0"/>
      <psa03 value="0.1090299224" flag="0"/>
      <psa10 value="0.0665629549" flag="0"/>
      <psa30 value="0.0052909264" flag="0"/>
    </comp>
    <comp name="--.HNN">
      <acc value="0.1437443314" flag="0"/>
      <vel value="0.0905292569" flag="0"/>
      <psa03 value="0.3811850982" flag="0"/>
      <psa10 value="0.0922405275" flag="0"/>
      <psa30 value="0.0056939727" flag="0"/>
    </comp>
  </station>
  <station code="DARE" name="DARE" netid="KO" insttype="CMG-3ESP" lat="38.5712" lon="37.4832">
    <comp name="--.HHZ">
      <acc value="0.1695232440" flag="0"/>
      <vel value="0.0717955396" flag="0"/>
      <psa03 value="0.4838384506" flag="0"/>
      <psa10 value="0.0299037527" flag="0"/>
      <psa30 value="0.0031297403" flag="0"/>
    </comp>
  </station>
  <station code="KMRS" name="KMRS" netid="KO" insttype="CMG-3T" lat="37.5053" lon="36.9">
    <comp name="--.HHZ">
      <acc value="0.0134906093" flag="0"/>
      <vel value="0.0095278857" flag="0"/>
      <psa03 value="0.0307428741" flag="0"/>
      <psa10 value="0.0061786962" flag="0"/>
      <psa30 value="0.0012031584" flag="0"/>
    </comp>
    <comp name="--.HHE">
      <acc value="0.0161421584" flag="0"/>
      <vel value="0.0079931456" flag="0"/>
      <psa03 value="0.0278694844" flag="0"/>
      <psa10 value="0.0082780885" flag="0"/>
      <psa30 value="0.0012761692" flag="0"/>
    </comp>
  </station>
  <station code="URFA" name="URFA" netid="KO" insttype="CMG-3ESP" lat="37.4409" lon="38.8213">
    <comp name="--.HHE">
      <acc value="0.0321460079" flag="0"/>
      <vel value="0.0159174155" flag="0"/>
      <psa03 value="0.0369914850" flag="0"/>
      <psa10 value="0.0174756395" flag="0"/>
      <psa30 value="0.0015026239" flag="0"/>
    </comp>
    <comp name="--.HHN">
      <acc value="0.0233274992" flag="0"/>
      <vel value="0.0091330871" flag="0"/>
      <psa03 value="0.0459074347" flag="0"/>
      <psa10 value="0.0100169998" flag="0"/>
      <psa30 value="0.0013122146" flag="0"/>
    </comp>
  </station>
</stationlist>
