<?xml version="1.0" encoding="UTF-8" standalone="yes"?>
<!DOCTYPE earthquake SYSTEM "stationlist.dtd">
<stationlist created="" xmlns="ch.ethz.sed.shakemap.usgs.xml">
  <station code="ARPRA" name="ARPRA" netid="KO" insttype="CMG-5T" lat="39.0929" lon="38.3356">
    <comp name="--.HNE">
      <acc value="0.1219372427" flag="0"/>
      <vel value="0.0868182643" flag="0"/>
      <psa03 value="0.2838235091" flag="0"/>
      <psa10 value="0.1499353936" flag="0"/>
      <psa30 value="0.0065718785" flag="0"/>
    </comp>
    <comp name="--.HNN">
      <acc value="0.1437443326" flag="0"/>
      <vel value="0.0905292697" flag="0"/>
      <psa03 value="0.3811850982" flag="0"/>
      <psa10 value="0.0922405266" flag="0"/>
      <psa30 value="0.0056927278" flag="0"/>
    </comp>
    <comp name="--.HNZ">
      <acc value="0.0785273218" flag="0"/>
      <vel value="0.0430657492" flag="0"/>
      <psa03 value="0.1090299224" flag="0"/>
      <psa10 value="0.0665629551" flag="0"/>
      <psa30 value="0.0052912655" flag="0"/>
    </comp>
  </station>
  <station code="DARE" name="DARE" netid="KO" insttype="CMG-3ESP" lat="38.5712" lon="37.4832">
    <comp name="--.HHZ">
      <acc value="0.1695232442" flag="0"/>
      <vel value="0.0717955391" flag="0"/>
      <psa03 value="0.4838384506" flag="0"/>
      <psa10 value="0.0299037524" flag="0"/>
      <psa30 value="0.0031297451" flag="0"/>
    </comp>
  </station>
  <station code="KMRS" name="KMRS" netid="KO" insttype="CMG-3T" lat="37.5053" lon="36.9">
    <comp name="--.HHE">
      <acc value="0.0161421584" flag="0"/>
      <vel value="0.0079931454" flag="0"/>
      <psa03 value="0.0278694844" flag="0"/>
      <psa10 value="0.0082780885" flag="0"/>
      <psa30 value="0.0012761815" flag="0"/>
    </comp>
    <comp name="--.HHN">
      <acc value="0.0279494652" flag="0"/>
      <vel value="0.0109447940" flag="0"/>
      <psa03 value="0.0478881952" flag="0"/>
      <psa10 value="0.0127980290" flag="0"/>
      <psa30 value="0.0019290584" flag="0"/>
    </comp>
    <comp name="--.HHZ">
      <acc value="0.0134906093" flag="0"/>
      <vel value="0.0095278861" flag="0"/>
      <psa03 value="0.0307428741" flag="0"/>
      <psa10 value="0.0061786972" flag="0"/>
      <psa30 value="0.0012031599" flag="0"/>
    </comp>
  </station>
  <station code="SARI" name="SARI" netid="KO" insttype="CMG-3T" lat="38.4072" lon="36.4181">
    <comp name="--.HHZ">
      <acc value="0.0157297522" flag="0"/>
      <vel value="0.0072847410" flag="0"/>
      <psa03 value="0.0401878812" flag="0"/>
      <psa10 value="0.0110161672" flag="0"/>
      <psa30 value="0.0004624272" flag="0"/>
    </comp>
  </station>
</stationlist>
