<stationlist created="1778550970">
	<station code="2007" name="2007" netid="TK" source="Turkish National Strong Motion Network (TNSMN)" insttype="" lat="37.93252" lon="28.92294">
		<comp name="00.HNE" depth="None">
			<acc value="0.49020706757863" flag="0"/>
			<vel value="0.586820290969284" flag="0"/>
			<psa03 value="0.929519342494596" flag="0"/>
			<psa10 value="1.07461563402525" flag="0"/>
			<psa30 value="0.179949128220093" flag="0"/>
		</comp>
		<comp name="00.HNN" depth="None">
			<acc value="0.309927334247064" flag="0"/>
			<vel value="0.550467055955466" flag="0"/>
			<psa03 value="0.713906648801144" flag="0"/>
			<psa10 value="1.32654826136315" flag="0"/>
			<psa30 value="0.158117615922774" flag="0"/>
		</comp>
		<comp name="00.HNZ" depth="None">
			<acc value="0.143189549953551" flag="0"/>
			<vel value="0.260176640236414" flag="0"/>
			<psa03 value="0.220086914355279" flag="0"/>
			<psa10 value="0.516714768994501" flag="0"/>
			<psa30 value="0.0699199885485718" flag="0"/>
		</comp>
	</station>
	<station code="4802" name="4802" netid="TK" source="Turkish National Strong Motion Network (TNSMN)" insttype="" lat="37.03304" lon="27.43997">
		<comp name="00.HNE" depth="None">
			<acc value="0.799560856311116" flag="0"/>
			<vel value="0.318354491303537" flag="0"/>
			<psa03 value="2.60677044199375" flag="0"/>
			<psa10 value="0.178814018438188" flag="0"/>
			<psa30 value="0.0157711804108746" flag="0"/>
		</comp>
		<comp name="00.HNN" depth="None">
			<acc value="0.709346685334512" flag="0"/>
			<vel value="0.272660780218385" flag="0"/>
			<psa03 value="1.79890515929423" flag="0"/>
			<psa10 value="0.136516525989538" flag="0"/>
			<psa30 value="0.0144217554592675" flag="0"/>
		</comp>
		<comp name="00.HNZ" depth="None">
			<acc value="0.526096198194514" flag="0"/>
			<vel value="0.15547510114802" flag="0"/>
			<psa03 value="1.0257598289305" flag="0"/>
			<psa10 value="0.0937277641122204" flag="0"/>
			<psa30 value="0.0198324305056151" flag="0"/>
		</comp>
	</station>
	<station code="4805" name="4805" netid="TK" source="Turkish National Strong Motion Network (TNSMN)" insttype="" lat="36.83942" lon="28.24483">
		<comp name="00.HNE" depth="None">
			<acc value="1.54557591" flag="0"/>
			<vel value="1.152515" flag="0"/>
			<psa03 value="3.90769484162662" flag="0"/>
			<psa10 value="1.23145541252701" flag="0"/>
			<psa30 value="0.290693695775441" flag="0"/>
		</comp>
		<comp name="00.HNN" depth="None">
			<acc value="1.650478728" flag="0"/>
			<vel value="1.400555" flag="0"/>
			<psa03 value="4.97564657139815" flag="0"/>
			<psa10 value="2.30413818322635" flag="0"/>
			<psa30 value="0.286873158752307" flag="0"/>
		</comp>
		<comp name="00.HNZ" depth="None">
			<acc value="0.834431706" flag="0"/>
			<vel value="0.828395" flag="0"/>
			<psa03 value="1.53067563061769" flag="0"/>
			<psa10 value="0.917417470448486" flag="0"/>
			<psa30 value="0.203396281598399" flag="0"/>
		</comp>
	</station>
</stationlist>
