<?xml version="1.0" encoding="UTF-8" standalone="yes"?>
<!DOCTYPE earthquake SYSTEM "stationlist.dtd">
<stationlist created="" xmlns="ch.ethz.sed.shakemap.usgs.xml">
  <station code="AMOE" name="AMOE" netid="ZZ" source="GFZ" insttype="L4-3D" lat="36.915" lon="25.979">
    <comp name="--.HHE">
      <acc value="0.0288189673" flag="0"/>
      <vel value="0.0223385101" flag="0"/>
      <psa03 value="0.0991530075" flag="0"/>
      <psa10 value="0.0168005354" flag="0"/>
      <psa30 value="0.0039631942" flag="0"/>
    </comp>
    <comp name="--.HHN">
      <acc value="0.0398345439" flag="0"/>
      <vel value="0.0181039590" flag="0"/>
      <psa03 value="0.1101226090" flag="0"/>
      <psa10 value="0.0210631951" flag="0"/>
      <psa30 value="0.0065018125" flag="0"/>
    </comp>
    <comp name="--.HHZ">
      <acc value="0.0245011111" flag="0"/>
      <vel value="0.0192497304" flag="0"/>
      <psa03 value="0.1073911599" flag="0"/>
      <psa10 value="0.0184596229" flag="0"/>
      <psa30 value="0.0055969191" flag="0"/>
    </comp>
  </station>
</stationlist>
