<stationlist xmlns:esm="https://esm-db.eu/esmws/shakemap/1/" created="1780710911">
	<station code="RKL1" name="RKL1" netid="HI" source="ITSAK Strong Motion Network" insttype="" lat="36.336699" lon="28.171224" esm:processing="manual (Paolucci et al 2011)" esm:quality="good">
		<comp name="--.HNE" depth="0.0">
			<acc value="0.0562376178581475" flag="0"/>
			<vel value="0.0285912586278955" flag="0"/>
			<psa03 value="0.239208033858271" flag="0"/>
			<psa10 value="0.026909401365776" flag="0"/>
			<psa30 value="0.00120348555834517" flag="0"/>
		</comp>
		<comp name="--.HNN" depth="0.0">
			<acc value="0.0463605654793925" flag="0"/>
			<vel value="0.0240607307347607" flag="0"/>
			<psa03 value="0.156404850637093" flag="0"/>
			<psa10 value="0.0181469383956081" flag="0"/>
			<psa30 value="0.000977464023027714" flag="0"/>
		</comp>
		<comp name="--.HNZ" depth="0.0">
			<acc value="0.0450290158802402" flag="0"/>
			<vel value="0.0211373755836309" flag="0"/>
			<psa03 value="0.164262329489838" flag="0"/>
			<psa10 value="0.00729671493405396" flag="0"/>
			<psa30 value="0.000540269436031965" flag="0"/>
		</comp>
	</station>
	<station code="RKT1" name="RKT1" netid="HI" source="ITSAK Strong Motion Network" insttype="" lat="35.954336" lon="27.767327" esm:processing="automatic (Paolucci et al 2011)" esm:quality="best">
		<comp name="--.HNE" depth="0.0">
			<acc value="0.34774057550803" flag="0"/>
			<vel value="0.106702093716965" flag="0"/>
			<psa03 value="0.577003265301208" flag="0"/>
			<psa10 value="0.0357334771674915" flag="0"/>
			<psa30 value="0.0031855293590196" flag="0"/>
		</comp>
		<comp name="--.HNN" depth="0.0">
			<acc value="0.452271171748072" flag="0"/>
			<vel value="0.177333777216334" flag="0"/>
			<psa03 value="0.880060299675741" flag="0"/>
			<psa10 value="0.0509322477614517" flag="0"/>
			<psa30 value="0.00332874697148355" flag="0"/>
		</comp>
		<comp name="--.HNZ" depth="0.0">
			<acc value="0.33678160166146" flag="0"/>
			<vel value="0.0719716106677736" flag="0"/>
			<psa03 value="0.221530341964607" flag="0"/>
			<psa10 value="0.0218223937514873" flag="0"/>
			<psa30 value="0.00205525760906325" flag="0"/>
		</comp>
	</station>
	<station code="RLN1" name="RLN1" netid="HI" source="ITSAK Strong Motion Network" insttype="" lat="36.089085" lon="28.086909" esm:processing="automatic (Paolucci et al 2011)" esm:quality="best">
		<comp name="--.HNE" depth="0.0">
			<acc value="0.0309891479864525" flag="0"/>
			<vel value="0.0120168211999768" flag="0"/>
			<psa03 value="0.0640448624494881" flag="0"/>
			<psa10 value="0.011743316999618" flag="0"/>
			<psa30 value="0.00122672511868532" flag="0"/>
		</comp>
		<comp name="--.HNN" depth="0.0">
			<acc value="0.0234646184204911" flag="0"/>
			<vel value="0.0118368844442077" flag="0"/>
			<psa03 value="0.0699588010938991" flag="0"/>
			<psa10 value="0.0211941727599297" flag="0"/>
			<psa30 value="0.00135503736874217" flag="0"/>
		</comp>
		<comp name="--.HNZ" depth="0.0">
			<acc value="0.0325634972137278" flag="0"/>
			<vel value="0.0101438189916965" flag="0"/>
			<psa03 value="0.0834287559122987" flag="0"/>
			<psa10 value="0.00673239208168454" flag="0"/>
			<psa30 value="0.000588570187803056" flag="0"/>
		</comp>
	</station>
	<station code="RPN1" name="RPN1" netid="HI" source="ITSAK Strong Motion Network" insttype="" lat="36.448678" lon="28.218047" esm:processing="automatic (Paolucci et al 2011)" esm:quality="best">
		<comp name="--.HNE" depth="0.0">
			<acc value="0.0579076623912798" flag="0"/>
			<vel value="0.0320040852784086" flag="0"/>
			<psa03 value="0.0929438029041312" flag="0"/>
			<psa10 value="0.0269083306698476" flag="0"/>
			<psa30 value="0.00205139339474468" flag="0"/>
		</comp>
		<comp name="--.HNN" depth="0.0">
			<acc value="0.0507304810753248" flag="0"/>
			<vel value="0.0197306522404343" flag="0"/>
			<psa03 value="0.108947946433429" flag="0"/>
			<psa10 value="0.0203896488391684" flag="0"/>
			<psa30 value="0.00139064931119191" flag="0"/>
		</comp>
		<comp name="--.HNZ" depth="0.0">
			<acc value="0.0277871468348917" flag="0"/>
			<vel value="0.0112258028871249" flag="0"/>
			<psa03 value="0.0487817784284123" flag="0"/>
			<psa10 value="0.0157515834650998" flag="0"/>
			<psa30 value="0.000668043681698657" flag="0"/>
		</comp>
	</station>
	<station code="RSO1" name="RSO1" netid="HI" source="ITSAK Strong Motion Network" insttype="" lat="36.3632" lon="28.0016" esm:processing="automatic (Paolucci et al 2011)" esm:quality="best">
		<comp name="--.HNE" depth="0.0">
			<acc value="0.0633216982926054" flag="0"/>
			<vel value="0.0204351950538142" flag="0"/>
			<psa03 value="0.127969914878817" flag="0"/>
			<psa10 value="0.0114205490553258" flag="0"/>
			<psa30 value="0.000994156170467228" flag="0"/>
		</comp>
		<comp name="--.HNN" depth="0.0">
			<acc value="0.055827228839435" flag="0"/>
			<vel value="0.0243235425767787" flag="0"/>
			<psa03 value="0.112924584866209" flag="0"/>
			<psa10 value="0.0148446130702623" flag="0"/>
			<psa30 value="0.00102576524357986" flag="0"/>
		</comp>
		<comp name="--.HNZ" depth="0.0">
			<acc value="0.0348233558084103" flag="0"/>
			<vel value="0.0123286178792213" flag="0"/>
			<psa03 value="0.0619118253129128" flag="0"/>
			<psa10 value="0.00805711999465735" flag="0"/>
			<psa30 value="0.000566721761285359" flag="0"/>
		</comp>
	</station>
	<station code="KARP" name="KARP" netid="HL" source="National Observatory of Athens Seismic Network" insttype="" lat="35.5471" lon="27.16106" esm:processing="manual (Paolucci et al 2011)" esm:quality="best">
		<comp name="--.HNE" depth="0.0">
			<acc value="0.17054285574698" flag="0"/>
			<vel value="0.027046254787685" flag="0"/>
			<psa03 value="0.0880526626247588" flag="0"/>
			<psa10 value="0.012990452269549" flag="0"/>
			<psa30 value="0.000570463134382965" flag="0"/>
		</comp>
		<comp name="--.HNN" depth="0.0">
			<acc value="0.161263544740961" flag="0"/>
			<vel value="0.0272712005769295" flag="0"/>
			<psa03 value="0.0804017452930343" flag="0"/>
			<psa10 value="0.0173112071626755" flag="0"/>
			<psa30 value="0.000770013375900457" flag="0"/>
		</comp>
		<comp name="--.HNZ" depth="0.0">
			<acc value="0.0971502669896531" flag="0"/>
			<vel value="0.0201639113959947" flag="0"/>
			<psa03 value="0.0434894248329602" flag="0"/>
			<psa10 value="0.00885493011182216" flag="0"/>
			<psa30 value="0.000545407498676733" flag="0"/>
		</comp>
	</station>
	<station code="RODB" name="RODB" netid="HL" source="National Observatory of Athens Seismic Network" insttype="" lat="36.4471" lon="28.22116" esm:processing="manual (Paolucci et al 2011)" esm:quality="good">
		<comp name="00.HNE" depth="0.0">
			<acc value="0.0271211298942616" flag="0"/>
			<vel value="0.0175936734937949" flag="0"/>
			<psa03 value="0.102504395362461" flag="0"/>
			<psa10 value="0.019831983083549" flag="0"/>
			<psa30 value="0.00145143718269674" flag="0"/>
		</comp>
		<comp name="00.HNN" depth="0.0">
			<acc value="0.0298828306009014" flag="0"/>
			<vel value="0.0203850177118134" flag="0"/>
			<psa03 value="0.0717664994157079" flag="0"/>
			<psa10 value="0.0148870744080976" flag="0"/>
			<psa30 value="0.00150647009683721" flag="0"/>
		</comp>
		<comp name="00.HNZ" depth="0.0">
			<acc value="0.0242366443431319" flag="0"/>
			<vel value="0.0103367267880372" flag="0"/>
			<psa03 value="0.0656815593156229" flag="0"/>
			<psa10 value="0.0081703743505626" flag="0"/>
			<psa30 value="0.000529300304294155" flag="0"/>
		</comp>
	</station>
	<station code="ZKR" name="ZKR" netid="HL" source="National Observatory of Athens Seismic Network" insttype="" lat="35.1147" lon="26.21691" esm:processing="manual (Paolucci et al 2011)" esm:quality="best">
		<comp name="00.HNE" depth="0.0">
			<acc value="0.0111113701866509" flag="0"/>
			<vel value="0.00597355617902208" flag="0"/>
			<psa03 value="0.031453771252645" flag="0"/>
			<psa10 value="0.00953143227589043" flag="0"/>
			<psa30 value="0.000660394969685691" flag="0"/>
		</comp>
		<comp name="00.HNN" depth="0.0">
			<acc value="0.00704288328925245" flag="0"/>
			<vel value="0.00439250860704337" flag="0"/>
			<psa03 value="0.018925953399529" flag="0"/>
			<psa10 value="0.00725226427075567" flag="0"/>
			<psa30 value="0.000398653060968801" flag="0"/>
		</comp>
		<comp name="00.HNZ" depth="0.0">
			<acc value="0.00510933289048656" flag="0"/>
			<vel value="0.00407568657392793" flag="0"/>
			<psa03 value="0.00836679263761682" flag="0"/>
			<psa10 value="0.00916096680509114" flag="0"/>
			<psa30 value="0.000388809775512781" flag="0"/>
		</comp>
	</station>
	<station code="CAME" name="CAME" netid="KO" source="Bogazici University Kandilli Observatory And Earthquake Research Institute (KOERI)" insttype="" lat="36.9435" lon="29.3023" esm:processing="automatic (Paolucci et al 2011)" esm:quality="best">
		<comp name="--.HNE" depth="0.0">
			<acc value="0.00248787545242881" flag="0"/>
			<vel value="0.0014050891200435" flag="0"/>
			<psa03 value="0.00836679263761682" flag="0"/>
			<psa10 value="0.00148186188319716" flag="0"/>
			<psa30 value="0.00014317506117847" flag="0"/>
		</comp>
		<comp name="--.HNN" depth="0.0">
			<acc value="0.00220222875475872" flag="0"/>
			<vel value="0.00143129840734315" flag="0"/>
			<psa03 value="0.0111408094479497" flag="0"/>
			<psa10 value="0.00106307482925014" flag="0"/>
			<psa30 value="0.000195523442921848" flag="0"/>
		</comp>
		<comp name="--.HNZ" depth="0.0">
			<acc value="0.00170968484331739" flag="0"/>
			<vel value="0.000877950375523066" flag="0"/>
			<psa03 value="0.00389257197578964" flag="0"/>
			<psa10 value="0.00142951350145378" flag="0"/>
			<psa30 value="0.000141832794979921" flag="0"/>
		</comp>
	</station>
</stationlist>
