<?xml version="1.0" encoding="UTF-8" standalone="yes"?>
<!DOCTYPE earthquake SYSTEM "stationlist.dtd">
<stationlist created="" xmlns="ch.ethz.sed.shakemap.usgs.xml">
  <station code="KARP" name="KARP" netid="GE" source="GFZ" insttype="STS-2/N" lat="35.5471" lon="27.1611">
    <comp name="--.HHE">
      <acc value="0.2301416534" flag="0"/>
      <vel value="0.0313673007" flag="0"/>
      <psa03 value="0.0901954942" flag="0"/>
      <psa10 value="0.0132622172" flag="0"/>
      <psa30 value="0.0007347841" flag="0"/>
    </comp>
    <comp name="--.HHN">
      <acc value="0.2108000436" flag="0"/>
      <vel value="0.0316581769" flag="0"/>
      <psa03 value="0.1075250219" flag="0"/>
      <psa10 value="0.0203576812" flag="0"/>
      <psa30 value="0.0009398324" flag="0"/>
    </comp>
    <comp name="--.HHZ">
      <acc value="0.1254854695" flag="0"/>
      <vel value="0.0252463830" flag="0"/>
      <psa03 value="0.0533182853" flag="0"/>
      <psa10 value="0.0110722912" flag="0"/>
      <psa30 value="0.0006881682" flag="0"/>
    </comp>
  </station>
</stationlist>
