<?xml version="1.0" encoding="UTF-8" standalone="yes"?>
<!DOCTYPE earthquake SYSTEM "stationlist.dtd">
<stationlist created="" xmlns="ch.ethz.sed.shakemap.usgs.xml">
  <station code="RFHY" name="RFHY" netid="KO" insttype="CMG-5T" lat="39.927" lon="38.833">
    <comp name="--.HNE">
      <acc value="0.0994773000" flag="0"/>
      <vel value="0.1318885886" flag="0"/>
      <psa03 value="0.1821434637" flag="0"/>
      <psa10 value="0.2296706822" flag="0"/>
      <psa30 value="0.0324029078" flag="0"/>
    </comp>
    <comp name="--.HNZ">
      <acc value="0.0482247220" flag="0"/>
      <vel value="0.0728927024" flag="0"/>
      <psa03 value="0.1210215443" flag="0"/>
      <psa10 value="0.1330208385" flag="0"/>
      <psa30 value="0.0282812852" flag="0"/>
    </comp>
    <comp name="--.HNN">
      <acc value="0.1123325515" flag="0"/>
      <vel value="0.1557742057" flag="0"/>
      <psa03 value="0.1790446154" flag="0"/>
      <psa10 value="0.2441125158" flag="0"/>
      <psa30 value="0.0303490520" flag="0"/>
    </comp>
  </station>
</stationlist>
