<stationlist created="1778136726">
	<station code="GUMT" name="GUMT" netid="KO" source="Bogazici University Kandilli Observatory And Earthquake Research Institute (KOERI)" insttype="" lat="40.4665" lon="39.478">
		<comp name="--.HNE" depth="0.0">
			<acc value="0.0143012291626119" flag="0"/>
			<vel value="0.017322357489449" flag="0"/>
			<psa03 value="0.0268438511900476" flag="0"/>
			<psa10 value="0.0202139365740756" flag="0"/>
			<psa30 value="0.00625650862965422" flag="0"/>
		</comp>
		<comp name="--.HNN" depth="0.0">
			<acc value="0.0127155590269227" flag="0"/>
			<vel value="0.0133678149215716" flag="0"/>
			<psa03 value="0.0240061267464221" flag="0"/>
			<psa10 value="0.0187602127720424" flag="0"/>
			<psa30 value="0.0057098436658017" flag="0"/>
		</comp>
		<comp name="--.HNZ" depth="0.0">
			<acc value="0.0114056067443154" flag="0"/>
			<vel value="0.0169867718298208" flag="0"/>
			<psa03 value="0.031673509672906" flag="0"/>
			<psa10 value="0.024603669872388" flag="0"/>
			<psa30 value="0.00401892998438608" flag="0"/>
		</comp>
	</station>
	<station code="KYHL" name="KYHL" netid="KO" source="Bogazici University Kandilli Observatory And Earthquake Research Institute (KOERI)" insttype="" lat="40.3244" lon="37.8955">
		<comp name="--.HNE" depth="0.0">
			<acc value="0.00929543031719091" flag="0"/>
			<vel value="0.0204217932180006" flag="0"/>
			<psa03 value="0.106396308649748" flag="0"/>
			<psa10 value="0.0539230896401828" flag="0"/>
			<psa30 value="0.0131427048063379" flag="0"/>
		</comp>
		<comp name="--.HNN" depth="0.0">
			<acc value="0.0101407488342391" flag="0"/>
			<vel value="0.0267905607506911" flag="0"/>
			<psa03 value="0.107061144358608" flag="0"/>
			<psa10 value="0.073901578117056" flag="0"/>
			<psa30 value="0.00695415734547581" flag="0"/>
		</comp>
		<comp name="--.HNZ" depth="0.0">
			<acc value="0.00353172490036125" flag="0"/>
			<vel value="0.00997998086199412" flag="0"/>
			<psa03 value="0.0755802307778552" flag="0"/>
			<psa10 value="0.0228003441608967" flag="0"/>
			<psa30 value="0.00699470503156518" flag="0"/>
		</comp>
	</station>
	<station code="RFHY" name="RFHY" netid="KO" source="Bogazici University Kandilli Observatory And Earthquake Research Institute (KOERI)" insttype="" lat="39.927" lon="38.833">
		<comp name="--.HNE" depth="0.0">
			<acc value="0.0990496873237612" flag="0"/>
			<vel value="0.13019930373566" flag="0"/>
			<psa03 value="0.181865401857033" flag="0"/>
			<psa10 value="0.229495642959967" flag="0"/>
			<psa30 value="0.0332992525787436" flag="0"/>
		</comp>
		<comp name="--.HNN" depth="0.0">
			<acc value="0.112099344018655" flag="0"/>
			<vel value="0.147296471275673" flag="0"/>
			<psa03 value="0.176930429105776" flag="0"/>
			<psa10 value="0.24522011962951" flag="0"/>
			<psa30 value="0.0315998800036231" flag="0"/>
		</comp>
		<comp name="--.HNZ" depth="0.0">
			<acc value="0.0483116715091198" flag="0"/>
			<vel value="0.0735059640040175" flag="0"/>
			<psa03 value="0.120127822462055" flag="0"/>
			<psa10 value="0.132862601495481" flag="0"/>
			<psa30 value="0.0281658525161621" flag="0"/>
		</comp>
	</station>
	<station code="TUNC" name="TUNC" netid="KO" source="Bogazici University Kandilli Observatory And Earthquake Research Institute (KOERI)" insttype="" lat="39.6942" lon="37.5388">
		<comp name="--.HNE" depth="0.0">
			<acc value="0.018874476540762" flag="0"/>
			<vel value="0.0327652566182833" flag="0"/>
			<psa03 value="0.0477797849679657" flag="0"/>
			<psa10 value="0.0373178746260604" flag="0"/>
			<psa30 value="0.0102845546346188" flag="0"/>
		</comp>
		<comp name="--.HNN" depth="0.0">
			<acc value="0.0241720604057655" flag="0"/>
			<vel value="0.038512144048751" flag="0"/>
			<psa03 value="0.0495359013018487" flag="0"/>
			<psa10 value="0.041252492775087" flag="0"/>
			<psa30 value="0.0186062909087952" flag="0"/>
		</comp>
		<comp name="--.HNZ" depth="0.0">
			<acc value="0.0187933892504771" flag="0"/>
			<vel value="0.0409308588033418" flag="0"/>
			<psa03 value="0.0338972559435208" flag="0"/>
			<psa10 value="0.0410425501176158" flag="0"/>
			<psa30 value="0.0255858966067317" flag="0"/>
		</comp>
	</station>
</stationlist>
