<?xml version="1.0" encoding="UTF-8" standalone="yes"?>
<!DOCTYPE earthquake SYSTEM "stationlist.dtd">
<stationlist created="" xmlns="ch.ethz.sed.shakemap.usgs.xml">
  <station code="BNN" name="BNN" netid="KO" insttype="CMG-3T" lat="38.8521" lon="35.8472">
    <comp name="--.HHZ">
      <acc value="0.0031777451" flag="0"/>
      <vel value="0.0020167325" flag="0"/>
      <psa03 value="0.0064353334" flag="0"/>
      <psa10 value="0.0028844205" flag="0"/>
      <psa30 value="0.0003090677" flag="0"/>
    </comp>
    <comp name="--.HHE">
      <acc value="0.0062137526" flag="0"/>
      <vel value="0.0035650048" flag="0"/>
      <psa03 value="0.0163218792" flag="0"/>
      <psa10 value="0.0044610802" flag="0"/>
      <psa30 value="0.0002533318" flag="0"/>
    </comp>
  </station>
  <station code="CEYT" name="CEYT" netid="KO" insttype="CMG-3ESP" lat="37.0105" lon="35.7478">
    <comp name="--.HHE">
      <acc value="0.0024020507" flag="0"/>
      <vel value="0.0018463466" flag="0"/>
      <psa03 value="0.0093814771" flag="0"/>
      <psa10 value="0.0045310186" flag="0"/>
      <psa30 value="0.0003495545" flag="0"/>
    </comp>
    <comp name="--.HHN">
      <acc value="0.0015891133" flag="0"/>
      <vel value="0.0013940566" flag="0"/>
      <psa03 value="0.0032153536" flag="0"/>
      <psa10 value="0.0017494642" flag="0"/>
      <psa30 value="0.0003456340" flag="0"/>
    </comp>
    <comp name="--.HHZ">
      <acc value="0.0015192947" flag="0"/>
      <vel value="0.0013207270" flag="0"/>
      <psa03 value="0.0034863472" flag="0"/>
      <psa10 value="0.0025776314" flag="0"/>
      <psa30 value="0.0004157222" flag="0"/>
    </comp>
  </station>
  <station code="GAZ" name="GAZ" netid="KO" insttype="CMG-3T" lat="37.1721" lon="37.2096">
    <comp name="--.HHZ">
      <acc value="0.0113963367" flag="0"/>
      <vel value="0.0065250202" flag="0"/>
      <psa03 value="0.0272478395" flag="0"/>
      <psa10 value="0.0031777219" flag="0"/>
      <psa30 value="0.0003319636" flag="0"/>
    </comp>
  </station>
  <station code="KMRS" name="KMRS" netid="KO" insttype="CMG-3T" lat="37.5053" lon="36.9">
    <comp name="--.HHE">
      <acc value="0.0087347235" flag="0"/>
      <vel value="0.0048734854" flag="0"/>
      <psa03 value="0.0217728472" flag="0"/>
      <psa10 value="0.0051292673" flag="0"/>
      <psa30 value="0.0006631249" flag="0"/>
    </comp>
    <comp name="--.HHN">
      <acc value="0.0072953173" flag="0"/>
      <vel value="0.0057377261" flag="0"/>
      <psa03 value="0.0284527636" flag="0"/>
      <psa10 value="0.0064228814" flag="0"/>
      <psa30 value="0.0007722273" flag="0"/>
    </comp>
    <comp name="--.HHZ">
      <acc value="0.0054293579" flag="0"/>
      <vel value="0.0030938940" flag="0"/>
      <psa03 value="0.0165448646" flag="0"/>
      <psa10 value="0.0023472403" flag="0"/>
      <psa30 value="0.0008148476" flag="0"/>
    </comp>
  </station>
  <station code="ANDN" name="ANDN" netid="TU" insttype="T" lat="37.58" lon="36.3452">
    <comp name="--.HHZ">
      <acc value="0.0424495766" flag="0"/>
      <vel value="0.0220199224" flag="0"/>
      <psa03 value="0.0673581154" flag="0"/>
      <psa10 value="0.0374086476" flag="0"/>
      <psa30 value="0.0038096055" flag="0"/>
    </comp>
    <comp name="--.HHE">
      <acc value="0.0934195565" flag="0"/>
      <vel value="0.0493545306" flag="0"/>
      <psa03 value="0.0891665776" flag="0"/>
      <psa10 value="0.0580890081" flag="0"/>
      <psa30 value="0.0029432545" flag="0"/>
    </comp>
    <comp name="--.HHN">
      <acc value="0.1374223947" flag="0"/>
      <vel value="0.0341148430" flag="0"/>
      <psa03 value="0.1284746001" flag="0"/>
      <psa10 value="0.0460628764" flag="0"/>
      <psa30 value="0.0050076171" flag="0"/>
    </comp>
  </station>
</stationlist>
