<?xml version="1.0" encoding="UTF-8" standalone="yes"?>
<!DOCTYPE earthquake SYSTEM "stationlist.dtd">
<stationlist created="" xmlns="ch.ethz.sed.shakemap.usgs.xml">
  <station code="CEYT" name="CEYT" netid="KO" insttype="CMG-3ESP" lat="37.0105" lon="35.7478">
    <comp name="--.HHZ">
      <acc value="0.0081376205" flag="0"/>
      <vel value="0.0039933198" flag="0"/>
      <psa03 value="0.0184343090" flag="0"/>
      <psa10 value="0.0042187038" flag="0"/>
      <psa30 value="0.0002157423" flag="0"/>
    </comp>
    <comp name="--.HHE">
      <acc value="0.0150956406" flag="0"/>
      <vel value="0.0077645294" flag="0"/>
      <psa03 value="0.0478527580" flag="0"/>
      <psa10 value="0.0036066334" flag="0"/>
      <psa30 value="0.0003759421" flag="0"/>
    </comp>
    <comp name="--.HHN">
      <acc value="0.0158358544" flag="0"/>
      <vel value="0.0065762366" flag="0"/>
      <psa03 value="0.0310464765" flag="0"/>
      <psa10 value="0.0027154570" flag="0"/>
      <psa30 value="0.0002941420" flag="0"/>
    </comp>
  </station>
</stationlist>
