<stationlist created="1777082104">
	<station code="ACB" name="ACB" netid="CH" source="Switzerland Seismological Network" insttype="" lat="47.58772" lon="8.25474">
		<comp name="--.HGE" depth="0.0">
			<acc value="0.260796732589964" flag="0"/>
			<vel value="0.0636144325829211" flag="0"/>
			<psa03 value="0.200179885935011" flag="0"/>
			<psa10 value="0.0192989715871532" flag="0"/>
			<psa30 value="0.00157012630482858" flag="0"/>
		</comp>
		<comp name="--.HGN" depth="0.0">
			<acc value="0.213902155905064" flag="0"/>
			<vel value="0.0796128761213955" flag="0"/>
			<psa03 value="0.35711769896158" flag="0"/>
			<psa10 value="0.0719510889065224" flag="0"/>
			<psa30 value="0.00394590431346194" flag="0"/>
		</comp>
		<comp name="--.HGZ" depth="0.0">
			<acc value="0.144582705063958" flag="0"/>
			<vel value="0.0327369948116417" flag="0"/>
			<psa03 value="0.174607931501864" flag="0"/>
			<psa10 value="0.0119800954975314" flag="0"/>
			<psa30 value="0.000993443935785175" flag="0"/>
		</comp>
	</station>
	<station code="BALST" name="BALST" netid="CH" source="Switzerland Seismological Network" insttype="" lat="47.33599" lon="7.69485">
		<comp name="--.HGE" depth="0.0">
			<acc value="0.0641869867252687" flag="0"/>
			<vel value="0.0180030783253498" flag="0"/>
			<psa03 value="0.132353809456984" flag="0"/>
			<psa10 value="0.00885842245201256" flag="0"/>
			<psa30 value="0.000673595403639656" flag="0"/>
		</comp>
		<comp name="--.HGN" depth="0.0">
			<acc value="0.0834892798435235" flag="0"/>
			<vel value="0.0146827147300938" flag="0"/>
			<psa03 value="0.077444812630424" flag="0"/>
			<psa10 value="0.00597080991185344" flag="0"/>
			<psa30 value="0.00080406034838529" flag="0"/>
		</comp>
		<comp name="--.HGZ" depth="0.0">
			<acc value="0.0393263624934802" flag="0"/>
			<vel value="0.0131538004671349" flag="0"/>
			<psa03 value="0.0446869550831287" flag="0"/>
			<psa10 value="0.00844669673970476" flag="0"/>
			<psa30 value="0.000425591005815443" flag="0"/>
		</comp>
	</station>
	<station code="BLOTZ" name="BLOTZ" netid="CH" source="Switzerland Seismological Network" insttype="" lat="47.620722" lon="7.44">
		<comp name="SF.HGE" depth="1.0">
			<acc value="0.0206527024687034" flag="0"/>
			<vel value="0.00694339201246507" flag="0"/>
			<psa03 value="0.0363745632821337" flag="0"/>
			<psa10 value="0.00281045047542602" flag="0"/>
			<psa30 value="0.000216956051961177" flag="0"/>
		</comp>
		<comp name="SF.HGN" depth="1.0">
			<acc value="0.0216813209624592" flag="0"/>
			<vel value="0.00585763443688892" flag="0"/>
			<psa03 value="0.0232060503077768" flag="0"/>
			<psa10 value="0.0029044084965588" flag="0"/>
			<psa30 value="0.000200819214745741" flag="0"/>
		</comp>
		<comp name="SF.HGZ" depth="1.0">
			<acc value="0.0133398018869029" flag="0"/>
			<vel value="0.00310438391856443" flag="0"/>
			<psa03 value="0.013764988685862" flag="0"/>
			<psa10 value="0.00122639616460206" flag="0"/>
			<psa30 value="0.00014239441991065" flag="0"/>
		</comp>
	</station>
	<station code="BNALP" name="BNALP" netid="CH" source="Switzerland Seismological Network" insttype="" lat="46.87034" lon="8.4249">
		<comp name="--.HGE" depth="0.0">
			<acc value="0.0220215469590045" flag="0"/>
			<vel value="0.00383821857633149" flag="0"/>
			<psa03 value="0.0210249956673659" flag="0"/>
			<psa10 value="0.00141892665317863" flag="0"/>
			<psa30 value="8.15898840961592e-05" flag="0"/>
		</comp>
		<comp name="--.HGN" depth="0.0">
			<acc value="0.0166074770529926" flag="0"/>
			<vel value="0.00599504530316922" flag="0"/>
			<psa03 value="0.0232616243017591" flag="0"/>
			<psa10 value="0.00186168707763264" flag="0"/>
			<psa30 value="0.000129404262501608" flag="0"/>
		</comp>
		<comp name="--.HGZ" depth="0.0">
			<acc value="0.0184053487489521" flag="0"/>
			<vel value="0.0050566351626523" flag="0"/>
			<psa03 value="0.0251635601915198" flag="0"/>
			<psa10 value="0.00188394046587444" flag="0"/>
			<psa30 value="0.000152996801953741" flag="0"/>
		</comp>
	</station>
	<station code="BOBI" name="BOBI" netid="CH" source="Switzerland Seismological Network" insttype="" lat="47.54631" lon="8.33985">
		<comp name="SF.HGE" depth="1.0">
			<acc value="0.570950230127913" flag="0"/>
			<vel value="0.15238904862878" flag="0"/>
			<psa03 value="0.626008219971908" flag="0"/>
			<psa10 value="0.0472389768505468" flag="0"/>
			<psa30 value="0.00360827319705683" flag="0"/>
		</comp>
		<comp name="SF.HGN" depth="1.0">
			<acc value="0.823591892893437" flag="0"/>
			<vel value="0.190298575503547" flag="0"/>
			<psa03 value="0.534809053474421" flag="0"/>
			<psa10 value="0.0399631011093034" flag="0"/>
			<psa30 value="0.00312749155596601" flag="0"/>
		</comp>
		<comp name="SF.HGZ" depth="1.0">
			<acc value="0.328742175496013" flag="0"/>
			<vel value="0.0661615004481872" flag="0"/>
			<psa03 value="0.159300792479171" flag="0"/>
			<psa10 value="0.0106212923585113" flag="0"/>
			<psa30 value="0.000728511281130715" flag="0"/>
		</comp>
	</station>
	<station code="BOURR" name="BOURR" netid="CH" source="Switzerland Seismological Network" insttype="" lat="47.39364" lon="7.2301">
		<comp name="--.HGE" depth="0.0">
			<acc value="0.0166495921923709" flag="0"/>
			<vel value="0.00617499964763211" flag="0"/>
			<psa03 value="0.0429148038326536" flag="0"/>
			<psa10 value="0.00339573979484724" flag="0"/>
			<psa30 value="0.000349691055941095" flag="0"/>
		</comp>
		<comp name="--.HGN" depth="0.0">
			<acc value="0.0205829128132869" flag="0"/>
			<vel value="0.00592655065927243" flag="0"/>
			<psa03 value="0.0293783446086568" flag="0"/>
			<psa10 value="0.00743229297794319" flag="0"/>
			<psa30 value="0.000293340942814377" flag="0"/>
		</comp>
		<comp name="--.HGZ" depth="0.0">
			<acc value="0.0293363666754253" flag="0"/>
			<vel value="0.00906502651128349" flag="0"/>
			<psa03 value="0.060919697089255" flag="0"/>
			<psa10 value="0.00369091528627298" flag="0"/>
			<psa30 value="0.00024092304330236" flag="0"/>
		</comp>
	</station>
	<station code="BULAC" name="BULAC" netid="CH" source="Switzerland Seismological Network" insttype="" lat="47.54236" lon="8.52044">
		<comp name="SF.HGE" depth="0.5">
			<acc value="0.395752455991879" flag="0"/>
			<vel value="0.0820322850809797" flag="0"/>
			<psa03 value="0.629398111202674" flag="0"/>
			<psa10 value="0.0178750697606506" flag="0"/>
			<psa30 value="0.00155098034900191" flag="0"/>
		</comp>
		<comp name="SF.HGN" depth="0.5">
			<acc value="0.659849808346917" flag="0"/>
			<vel value="0.119394013451695" flag="0"/>
			<psa03 value="0.458124723514357" flag="0"/>
			<psa10 value="0.0185026738363329" flag="0"/>
			<psa30 value="0.00188161610616548" flag="0"/>
		</comp>
		<comp name="SF.HGZ" depth="0.5">
			<acc value="0.185196096610847" flag="0"/>
			<vel value="0.0374158285767091" flag="0"/>
			<psa03 value="0.230490268849211" flag="0"/>
			<psa10 value="0.0120147618565155" flag="0"/>
			<psa30 value="0.000743664628714505" flag="0"/>
		</comp>
	</station>
	<station code="CHASS" name="CHASS" netid="CH" source="Switzerland Seismological Network" insttype="" lat="47.1609" lon="7.12129">
		<comp name="--.HGE" depth="0.0">
			<acc value="0.026622165272483" flag="0"/>
			<vel value="0.00961107748776568" flag="0"/>
			<psa03 value="0.0344126650868283" flag="0"/>
			<psa10 value="0.00356790830953979" flag="0"/>
			<psa30 value="0.000262189660444993" flag="0"/>
		</comp>
		<comp name="--.HGN" depth="0.0">
			<acc value="0.0646613744089276" flag="0"/>
			<vel value="0.0200510160536852" flag="0"/>
			<psa03 value="0.0668450375307755" flag="0"/>
			<psa10 value="0.0077650478338096" flag="0"/>
			<psa30 value="0.000501655940579448" flag="0"/>
		</comp>
		<comp name="--.HGZ" depth="0.0">
			<acc value="0.017880877002857" flag="0"/>
			<vel value="0.0047401900604011" flag="0"/>
			<psa03 value="0.0163820240307946" flag="0"/>
			<psa10 value="0.00276853160475629" flag="0"/>
			<psa30 value="0.000178481419872223" flag="0"/>
		</comp>
	</station>
	<station code="EWZT0" name="EWZT0" netid="CH" source="Switzerland Seismological Network" insttype="" lat="47.36683" lon="8.49675">
		<comp name="--.HGE" depth="0.0">
			<acc value="0.110443650253442" flag="0"/>
			<vel value="0.0308375927319628" flag="0"/>
			<psa03 value="0.225646677151673" flag="0"/>
			<psa10 value="0.0186468502623143" flag="0"/>
			<psa30 value="0.00110639079295962" flag="0"/>
		</comp>
		<comp name="--.HGN" depth="0.0">
			<acc value="0.165491971543535" flag="0"/>
			<vel value="0.0404969227609844" flag="0"/>
			<psa03 value="0.205336290021598" flag="0"/>
			<psa10 value="0.015928745201193" flag="0"/>
			<psa30 value="0.00109096643783934" flag="0"/>
		</comp>
		<comp name="--.HGZ" depth="0.0">
			<acc value="0.0938546840281004" flag="0"/>
			<vel value="0.0197589791602402" flag="0"/>
			<psa03 value="0.11158455859608" flag="0"/>
			<psa10 value="0.00428368377303163" flag="0"/>
			<psa30 value="0.000398897596882997" flag="0"/>
		</comp>
	</station>
	<station code="HAMIK" name="HAMIK" netid="CH" source="Switzerland Seismological Network" insttype="" lat="47.24508" lon="8.27061">
		<comp name="SF.HGE" depth="1.0">
			<acc value="0.0684290485241882" flag="0"/>
			<vel value="0.0126044976696552" flag="0"/>
			<psa03 value="0.0365172472133926" flag="0"/>
			<psa10 value="0.00354238482185839" flag="0"/>
			<psa30 value="0.000325932060149425" flag="0"/>
		</comp>
		<comp name="SF.HGN" depth="1.0">
			<acc value="0.0812459215932276" flag="0"/>
			<vel value="0.0117246851786931" flag="0"/>
			<psa03 value="0.0436584103846059" flag="0"/>
			<psa10 value="0.00401294583796667" flag="0"/>
			<psa30 value="0.000287977983377943" flag="0"/>
		</comp>
		<comp name="SF.HGZ" depth="1.0">
			<acc value="0.0364203449181439" flag="0"/>
			<vel value="0.00793728393565623" flag="0"/>
			<psa03 value="0.0307535086231987" flag="0"/>
			<psa10 value="0.00211229274152611" flag="0"/>
			<psa30 value="0.000241386511505026" flag="0"/>
		</comp>
	</station>
	<station code="HAUIG" name="HAUIG" netid="CH" source="Switzerland Seismological Network" insttype="" lat="47.66038" lon="7.70018">
		<comp name="--.HGE" depth="0.0">
			<acc value="0.343374532980339" flag="0"/>
			<vel value="0.0893808719746008" flag="0"/>
			<psa03 value="0.536184061227835" flag="0"/>
			<psa10 value="0.0299543293273274" flag="0"/>
			<psa30 value="0.00202163559010071" flag="0"/>
		</comp>
		<comp name="--.HGN" depth="0.0">
			<acc value="0.73108567571714" flag="0"/>
			<vel value="0.214831075932524" flag="0"/>
			<psa03 value="0.989160443691604" flag="0"/>
			<psa10 value="0.0406692616391243" flag="0"/>
			<psa30 value="0.00449991643072637" flag="0"/>
		</comp>
		<comp name="--.HGZ" depth="0.0">
			<acc value="0.671362398601441" flag="0"/>
			<vel value="0.0869423417440073" flag="0"/>
			<psa03 value="0.46095557770992" flag="0"/>
			<psa10 value="0.0227615478408486" flag="0"/>
			<psa30 value="0.00157611868095907" flag="0"/>
		</comp>
	</station>
	<station code="MTI01" name="MTI01" netid="CH" source="Switzerland Seismological Network" insttype="" lat="47.37911" lon="7.16541">
		<comp name="--.HGE" depth="0.0">
			<acc value="0.0347263160375187" flag="0"/>
			<vel value="0.0102327473787792" flag="0"/>
			<psa03 value="0.0434211733146293" flag="0"/>
			<psa10 value="0.00219032228560151" flag="0"/>
			<psa30 value="0.000301506041003758" flag="0"/>
		</comp>
		<comp name="--.HGN" depth="0.0">
			<acc value="0.0313616267355597" flag="0"/>
			<vel value="0.0100112647152737" flag="0"/>
			<psa03 value="0.0575406138664556" flag="0"/>
			<psa10 value="0.00300185612386206" flag="0"/>
			<psa30 value="0.000258382923892406" flag="0"/>
		</comp>
		<comp name="--.HGZ" depth="0.0">
			<acc value="0.0341995847563885" flag="0"/>
			<vel value="0.00975477611555076" flag="0"/>
			<psa03 value="0.0364164462650205" flag="0"/>
			<psa10 value="0.00243824136527353" flag="0"/>
			<psa30 value="0.000231329412979926" flag="0"/>
		</comp>
	</station>
	<station code="MTI03" name="MTI03" netid="CH" source="Switzerland Seismological Network" insttype="" lat="47.371595" lon="7.166948">
		<comp name="--.HGE" depth="0.0">
			<acc value="0.0830387160018279" flag="0"/>
			<vel value="0.0169959461856091" flag="0"/>
			<psa03 value="0.0617124527305716" flag="0"/>
			<psa10 value="0.0060751633872472" flag="0"/>
			<psa30 value="0.000486318674558104" flag="0"/>
		</comp>
		<comp name="--.HGN" depth="0.0">
			<acc value="0.0642588729450688" flag="0"/>
			<vel value="0.0139924384239162" flag="0"/>
			<psa03 value="0.0718910124268916" flag="0"/>
			<psa10 value="0.00645639864223152" flag="0"/>
			<psa30 value="0.000326985723699358" flag="0"/>
		</comp>
		<comp name="--.HGZ" depth="0.0">
			<acc value="0.0304472101550145" flag="0"/>
			<vel value="0.00674122932594524" flag="0"/>
			<psa03 value="0.0394846521227338" flag="0"/>
			<psa10 value="0.00436176066400761" flag="0"/>
			<psa30 value="0.000260595830903384" flag="0"/>
		</comp>
	</station>
	<station code="MUO" name="MUO" netid="CH" source="Switzerland Seismological Network" insttype="" lat="46.96765" lon="8.63706">
		<comp name="--.HGE" depth="0.0">
			<acc value="0.0253082052661093" flag="0"/>
			<vel value="0.00685356897860673" flag="0"/>
			<psa03 value="0.0483272274831374" flag="0"/>
			<psa10 value="0.00422695376493174" flag="0"/>
			<psa30 value="0.000229490202599764" flag="0"/>
		</comp>
		<comp name="--.HGN" depth="0.0">
			<acc value="0.0296954358466272" flag="0"/>
			<vel value="0.00949571340551273" flag="0"/>
			<psa03 value="0.0435003243913562" flag="0"/>
			<psa10 value="0.00452204112554945" flag="0"/>
			<psa30 value="0.000187335027213815" flag="0"/>
		</comp>
		<comp name="--.HGZ" depth="0.0">
			<acc value="0.018480710070767" flag="0"/>
			<vel value="0.00601435283277484" flag="0"/>
			<psa03 value="0.0322022243851597" flag="0"/>
			<psa10 value="0.00205271395097343" flag="0"/>
			<psa30 value="0.000114006719052446" flag="0"/>
		</comp>
	</station>
	<station code="MUTEZ" name="MUTEZ" netid="CH" source="Switzerland Seismological Network" insttype="" lat="47.50647" lon="7.64884">
		<comp name="--.HGE" depth="0.0">
			<acc value="0.539273530359808" flag="0"/>
			<vel value="0.157457132581831" flag="0"/>
			<psa03 value="0.541630672042293" flag="0"/>
			<psa10 value="0.0283439126450898" flag="0"/>
			<psa30 value="0.00303445330930653" flag="0"/>
		</comp>
		<comp name="--.HGN" depth="0.0">
			<acc value="0.321170270941803" flag="0"/>
			<vel value="0.108134772577626" flag="0"/>
			<psa03 value="0.422082669238873" flag="0"/>
			<psa10 value="0.0181988774613215" flag="0"/>
			<psa30 value="0.00173612167620766" flag="0"/>
		</comp>
		<comp name="--.HGZ" depth="0.0">
			<acc value="0.335146797553709" flag="0"/>
			<vel value="0.0535818926229925" flag="0"/>
			<psa03 value="0.161664480311692" flag="0"/>
			<psa10 value="0.0111865288651341" flag="0"/>
			<psa30 value="0.0010482715261766" flag="0"/>
		</comp>
	</station>
	<station code="OTTER" name="OTTER" netid="CH" source="Switzerland Seismological Network" insttype="" lat="47.5778" lon="7.6038">
		<comp name="--.HGE" depth="0.0">
			<acc value="0.166329407061227" flag="0"/>
			<vel value="0.0323531121422359" flag="0"/>
			<psa03 value="0.136322541116115" flag="0"/>
			<psa10 value="0.0276183502051476" flag="0"/>
			<psa30 value="0.00182558010238761" flag="0"/>
		</comp>
		<comp name="--.HGN" depth="0.0">
			<acc value="0.140724580722003" flag="0"/>
			<vel value="0.0423802895883991" flag="0"/>
			<psa03 value="0.161795968189044" flag="0"/>
			<psa10 value="0.0158230425738999" flag="0"/>
			<psa30 value="0.00126193182595799" flag="0"/>
		</comp>
		<comp name="--.HGZ" depth="0.0">
			<acc value="0.0693156309438299" flag="0"/>
			<vel value="0.0160734433893582" flag="0"/>
			<psa03 value="0.0702873176479572" flag="0"/>
			<psa10 value="0.0161177708482159" flag="0"/>
			<psa30 value="0.000654056244684605" flag="0"/>
		</comp>
	</station>
	<station code="ROMAN" name="ROMAN" netid="CH" source="Switzerland Seismological Network" insttype="" lat="47.5643" lon="9.33601">
		<comp name="SF.HGE" depth="1.0">
			<acc value="0.16870921915403" flag="0"/>
			<vel value="0.0278983902488148" flag="0"/>
			<psa03 value="0.0882969742413507" flag="0"/>
			<psa10 value="0.00592041079191956" flag="0"/>
			<psa30 value="0.00044892328063178" flag="0"/>
		</comp>
		<comp name="SF.HGN" depth="1.0">
			<acc value="0.162788512494568" flag="0"/>
			<vel value="0.0310072586209719" flag="0"/>
			<psa03 value="0.178916581512059" flag="0"/>
			<psa10 value="0.0105923995069835" flag="0"/>
			<psa30 value="0.00107159234189882" flag="0"/>
		</comp>
		<comp name="SF.HGZ" depth="1.0">
			<acc value="0.0401777423279461" flag="0"/>
			<vel value="0.00618914691349294" flag="0"/>
			<psa03 value="0.0243995772897338" flag="0"/>
			<psa10 value="0.00135729952380745" flag="0"/>
			<psa30 value="9.03945233498525e-05" flag="0"/>
		</comp>
	</station>
	<station code="SAARA" name="SAARA" netid="CH" source="Switzerland Seismological Network" insttype="" lat="47.38613" lon="8.04375">
		<comp name="--.HGE" depth="1.0">
			<acc value="0.061530825461513" flag="0"/>
			<vel value="0.00819776185114682" flag="0"/>
			<psa03 value="0.017108648989049" flag="0"/>
			<psa10 value="0.00156092945860377" flag="0"/>
			<psa30 value="0.000145894521567082" flag="0"/>
		</comp>
		<comp name="--.HGN" depth="1.0">
			<acc value="0.0823504832550238" flag="0"/>
			<vel value="0.00969995067033514" flag="0"/>
			<psa03 value="0.0226582900630166" flag="0"/>
			<psa10 value="0.00137711489898032" flag="0"/>
			<psa30 value="0.000120242171183031" flag="0"/>
		</comp>
		<comp name="--.HGZ" depth="1.0">
			<acc value="0.040332864714013" flag="0"/>
			<vel value="0.00405354374026895" flag="0"/>
			<psa03 value="0.00848920299305096" flag="0"/>
			<psa10 value="0.000725876581856156" flag="0"/>
			<psa30 value="8.1245050054787e-05" flag="0"/>
		</comp>
	</station>
	<station code="SALTS" name="SALTS" netid="CH" source="Switzerland Seismological Network" insttype="" lat="46.88204" lon="8.63821">
		<comp name="--.HGE" depth="1.0">
			<acc value="0.0769688844160253" flag="0"/>
			<vel value="0.0111769076925934" flag="0"/>
			<psa03 value="0.0393139611278347" flag="0"/>
			<psa10 value="0.00375486756967315" flag="0"/>
			<psa30 value="0.000210815944688509" flag="0"/>
		</comp>
		<comp name="--.HGN" depth="1.0">
			<acc value="0.102604710254985" flag="0"/>
			<vel value="0.0156041244202461" flag="0"/>
			<psa03 value="0.0400093900090519" flag="0"/>
			<psa10 value="0.00437968075734573" flag="0"/>
			<psa30 value="0.000288812700132193" flag="0"/>
		</comp>
		<comp name="--.HGZ" depth="1.0">
			<acc value="0.0342339449684925" flag="0"/>
			<vel value="0.00740713715923105" flag="0"/>
			<psa03 value="0.0355662206709194" flag="0"/>
			<psa10 value="0.00132716756677527" flag="0"/>
			<psa30 value="0.000139662455077035" flag="0"/>
		</comp>
	</station>
	<station code="SARE" name="SARE" netid="CH" source="Switzerland Seismological Network" insttype="" lat="47.51488" lon="9.43023">
		<comp name="--.HGE" depth="1.0">
			<acc value="0.17434888609913" flag="0"/>
			<vel value="0.0338283945718618" flag="0"/>
			<psa03 value="0.124559063926645" flag="0"/>
			<psa10 value="0.00749831235138846" flag="0"/>
			<psa30 value="0.000425437558150132" flag="0"/>
		</comp>
		<comp name="--.HGN" depth="1.0">
			<acc value="0.166464176546576" flag="0"/>
			<vel value="0.0470210447261658" flag="0"/>
			<psa03 value="0.0909056783050508" flag="0"/>
			<psa10 value="0.0106082921222889" flag="0"/>
			<psa30 value="0.000657144574270494" flag="0"/>
		</comp>
		<comp name="--.HGZ" depth="1.0">
			<acc value="0.0700661245349043" flag="0"/>
			<vel value="0.0114914975390735" flag="0"/>
			<psa03 value="0.0307848857017455" flag="0"/>
			<psa10 value="0.00396850117497623" flag="0"/>
			<psa30 value="0.000227474339891794" flag="0"/>
		</comp>
	</station>
	<station code="SARK" name="SARK" netid="CH" source="Switzerland Seismological Network" insttype="" lat="46.8914" lon="8.24316">
