<?xml version="1.0" encoding="UTF-8" standalone="yes"?>
<!DOCTYPE earthquake SYSTEM "stationlist.dtd">
<stationlist created="" xmlns="ch.ethz.sed.shakemap.usgs.xml">
  <station code="A060B" name="A060B" netid="8D" insttype="STS2.5" lat="46.993" lon="7.97764">
    <comp name="--.HHE">
      <acc value="0.1385278696" flag="0"/>
      <vel value="0.0442426450" flag="0"/>
      <psa03 value="0.2157695546" flag="0"/>
      <psa10 value="0.0094813206" flag="0"/>
      <psa30 value="0.0007712397" flag="0"/>
    </comp>
    <comp name="--.HHN">
      <acc value="0.0941105533" flag="0"/>
      <vel value="0.0198341614" flag="0"/>
      <psa03 value="0.0587062956" flag="0"/>
      <psa10 value="0.0039073167" flag="0"/>
      <psa30 value="0.0003545395" flag="0"/>
    </comp>
    <comp name="--.HHZ">
      <acc value="0.0706927716" flag="0"/>
      <vel value="0.0177214779" flag="0"/>
      <psa03 value="0.0736392494" flag="0"/>
      <psa10 value="0.0038854841" flag="0"/>
      <psa30 value="0.0004021269" flag="0"/>
    </comp>
  </station>
  <station code="ACB" name="ACB" netid="CH" insttype="Trillium 240s_g2" lat="47.5877" lon="8.25474">
    <comp name="--.HHE">
      <acc value="0.2674295649" flag="0"/>
      <vel value="0.0628337153" flag="0"/>
      <psa03 value="0.1995311181" flag="0"/>
      <psa10 value="0.0165020293" flag="0"/>
      <psa30 value="0.0017516583" flag="0"/>
    </comp>
    <comp name="--.HHN">
      <acc value="0.2157674878" flag="0"/>
      <vel value="0.0791040494" flag="0"/>
      <psa03 value="0.3410107882" flag="0"/>
      <psa10 value="0.0710899183" flag="0"/>
      <psa30 value="0.0036889864" flag="0"/>
    </comp>
    <comp name="--.HHZ">
      <acc value="0.1483361951" flag="0"/>
      <vel value="0.0334875912" flag="0"/>
      <psa03 value="0.1719391428" flag="0"/>
      <psa10 value="0.0117238391" flag="0"/>
      <psa30 value="0.0008989346" flag="0"/>
    </comp>
  </station>
  <station code="BALST" name="BALST" netid="CH" insttype="STS2_gen3" lat="47.336" lon="7.69485">
    <comp name="--.HHN">
      <acc value="0.0873072291" flag="0"/>
      <vel value="0.0134482203" flag="0"/>
      <psa03 value="0.0878985135" flag="0"/>
      <psa10 value="0.0057835507" flag="0"/>
      <psa30 value="0.0006962825" flag="0"/>
    </comp>
    <comp name="--.HHZ">
      <acc value="0.0400415787" flag="0"/>
      <vel value="0.0127577593" flag="0"/>
      <psa03 value="0.0447396400" flag="0"/>
      <psa10 value="0.0083604757" flag="0"/>
      <psa30 value="0.0004205334" flag="0"/>
    </comp>
    <comp name="--.HHE">
      <acc value="0.0675667244" flag="0"/>
      <vel value="0.0175527036" flag="0"/>
      <psa03 value="0.1226092975" flag="0"/>
      <psa10 value="0.0092413478" flag="0"/>
      <psa30 value="0.0006102937" flag="0"/>
    </comp>
  </station>
  <station code="BERGE" name="BERGE" netid="CH" insttype="Trillium Compact 120s" lat="47.8716" lon="8.17798">
    <comp name="--.HHZ">
      <acc value="0.2102424686" flag="0"/>
      <vel value="0.0253761975" flag="0"/>
      <psa03 value="0.0625864695" flag="0"/>
      <psa10 value="0.0058177818" flag="0"/>
      <psa30 value="0.0005069641" flag="0"/>
    </comp>
    <comp name="--.HHN">
      <acc value="0.2191584183" flag="0"/>
      <vel value="0.0364472643" flag="0"/>
      <psa03 value="0.1976375712" flag="0"/>
      <psa10 value="0.0174361577" flag="0"/>
      <psa30 value="0.0011266321" flag="0"/>
    </comp>
    <comp name="--.HHE">
      <acc value="0.4792585105" flag="0"/>
      <vel value="0.0680805967" flag="0"/>
      <psa03 value="0.2077009906" flag="0"/>
      <psa10 value="0.0147659700" flag="0"/>
      <psa30 value="0.0017729689" flag="0"/>
    </comp>
  </station>
  <station code="BLOTZ" name="BLOTZ" netid="CH" insttype="EpiSensor ES-T" lat="47.6207" lon="7.44006">
    <comp name="SF.HGZ">
      <acc value="0.0133574782" flag="0"/>
      <vel value="0.0030550414" flag="0"/>
      <psa03 value="0.0137183460" flag="0"/>
      <psa10 value="0.0012241897" flag="0"/>
      <psa30 value="0.0001403277" flag="0"/>
    </comp>
    <comp name="SF.HGN">
      <acc value="0.0217781616" flag="0"/>
      <vel value="0.0058210420" flag="0"/>
      <psa03 value="0.0232246868" flag="0"/>
      <psa10 value="0.0028931380" flag="0"/>
      <psa30 value="0.0001819236" flag="0"/>
    </comp>
    <comp name="SF.HGE">
      <acc value="0.0207376865" flag="0"/>
      <vel value="0.0069356225" flag="0"/>
      <psa03 value="0.0364550157" flag="0"/>
      <psa10 value="0.0028102334" flag="0"/>
      <psa30 value="0.0002056794" flag="0"/>
    </comp>
  </station>
  <station code="BNALP" name="BNALP" netid="CH" insttype="STS2_gen3" lat="46.8703" lon="8.4249">
    <comp name="--.HHE">
      <acc value="0.0205577596" flag="0"/>
      <vel value="0.0037337915" flag="0"/>
      <psa03 value="0.0209896764" flag="0"/>
      <psa10 value="0.0015681174" flag="0"/>
      <psa30 value="0.0000872278" flag="0"/>
    </comp>
    <comp name="--.HHN">
      <acc value="0.0157705902" flag="0"/>
      <vel value="0.0058378796" flag="0"/>
      <psa03 value="0.0237957317" flag="0"/>
      <psa10 value="0.0017832021" flag="0"/>
      <psa30 value="0.0001207373" flag="0"/>
    </comp>
    <comp name="--.HHZ">
      <acc value="0.0180735048" flag="0"/>
      <vel value="0.0049643929" flag="0"/>
      <psa03 value="0.0248797113" flag="0"/>
      <psa10 value="0.0018725499" flag="0"/>
      <psa30 value="0.0001540011" flag="0"/>
    </comp>
  </station>
  <station code="BOBI" name="BOBI" netid="CH" insttype="EpiSensor ES-T" lat="47.5463" lon="8.33992">
    <comp name="SF.HGE">
      <acc value="0.5694566200" flag="0"/>
      <vel value="0.1516067159" flag="0"/>
      <psa03 value="0.6258525711" flag="0"/>
      <psa10 value="0.0471481672" flag="0"/>
      <psa30 value="0.0036446899" flag="0"/>
    </comp>
    <comp name="SF.HGZ">
      <acc value="0.3312124009" flag="0"/>
      <vel value="0.0657871528" flag="0"/>
      <psa03 value="0.1588282852" flag="0"/>
      <psa10 value="0.0106219657" flag="0"/>
      <psa30 value="0.0007313620" flag="0"/>
    </comp>
    <comp name="SF.HGN">
      <acc value="0.8224118379" flag="0"/>
      <vel value="0.1883403154" flag="0"/>
      <psa03 value="0.5338781301" flag="0"/>
      <psa10 value="0.0398319413" flag="0"/>
      <psa30 value="0.0031727804" flag="0"/>
    </comp>
  </station>
  <station code="BOURR" name="BOURR" netid="CH" insttype="STS2.5" lat="47.3936" lon="7.2301">
    <comp name="--.HHZ">
      <acc value="0.0298386365" flag="0"/>
      <vel value="0.0091178471" flag="0"/>
      <psa03 value="0.0606314707" flag="0"/>
      <psa10 value="0.0036520009" flag="0"/>
      <psa30 value="0.0002431888" flag="0"/>
    </comp>
    <comp name="--.HHN">
      <acc value="0.0207661968" flag="0"/>
      <vel value="0.0058154391" flag="0"/>
      <psa03 value="0.0285793395" flag="0"/>
      <psa10 value="0.0073067828" flag="0"/>
      <psa30 value="0.0002717595" flag="0"/>
    </comp>
    <comp name="--.HHE">
      <acc value="0.0170980693" flag="0"/>
      <vel value="0.0061600578" flag="0"/>
      <psa03 value="0.0425193481" flag="0"/>
      <psa10 value="0.0033545675" flag="0"/>
      <psa30 value="0.0003509987" flag="0"/>
    </comp>
  </station>
  <station code="BULAC" name="BULAC" netid="CH" insttype="ABBT" lat="47.5424" lon="8.52044">
    <comp name="BT.HGZ">
      <acc value="0.0951546419" flag="0"/>
      <vel value="0.0203211108" flag="0"/>
      <psa03 value="0.1034294080" flag="0"/>
      <psa10 value="0.0039025799" flag="0"/>
      <psa30 value="0.0003279755" flag="0"/>
    </comp>
    <comp name="BT.HG2">
      <acc value="0.2153916685" flag="0"/>
      <vel value="0.0426759377" flag="0"/>
      <psa03 value="0.1244446749" flag="0"/>
      <psa10 value="0.0097180880" flag="0"/>
      <psa30 value="0.0005741256" flag="0"/>
    </comp>
    <comp name="BT.HG1">
      <acc value="0.2290931811" flag="0"/>
      <vel value="0.0459692777" flag="0"/>
      <psa03 value="0.1206290417" flag="0"/>
      <psa10 value="0.0075874230" flag="0"/>
      <psa30 value="0.0005472733" flag="0"/>
    </comp>
  </station>
  <station code="CHASS" name="CHASS" netid="CH" insttype="Trillium 240s_g2" lat="47.1609" lon="7.12129">
    <comp name="--.HHZ">
      <acc value="0.0175473530" flag="0"/>
      <vel value="0.0048800694" flag="0"/>
      <psa03 value="0.0164379665" flag="0"/>
      <psa10 value="0.0027692481" flag="0"/>
      <psa30 value="0.0001933040" flag="0"/>
    </comp>
    <comp name="--.HHN">
      <acc value="0.0636827494" flag="0"/>
      <vel value="0.0193662066" flag="0"/>
      <psa03 value="0.0634410967" flag="0"/>
      <psa10 value="0.0078309318" flag="0"/>
      <psa30 value="0.0005031793" flag="0"/>
    </comp>
    <comp name="--.HHE">
      <acc value="0.0294989670" flag="0"/>
      <vel value="0.0110836152" flag="0"/>
      <psa03 value="0.0352771186" flag="0"/>
      <psa10 value="0.0031513970" flag="0"/>
      <psa30 value="0.0002173075" flag="0"/>
    </comp>
  </station>
  <station code="DAGMA" name="DAGMA" netid="CH" insttype="Trillium Compact 120s" lat="47.2309" lon="8.01248">
    <comp name="--.HHN">
      <acc value="0.1328742911" flag="0"/>
      <vel value="0.0263870917" flag="0"/>
      <psa03 value="0.0396625874" flag="0"/>
      <psa10 value="0.0082180424" flag="0"/>
      <psa30 value="0.0004507063" flag="0"/>
    </comp>
    <comp name="--.HHZ">
      <acc value="0.0743335460" flag="0"/>
      <vel value="0.0091269822" flag="0"/>
      <psa03 value="0.0455297821" flag="0"/>
      <psa10 value="0.0034801078" flag="0"/>
      <psa30 value="0.0003889150" flag="0"/>
    </comp>
    <comp name="--.HHE">
      <acc value="0.0728179230" flag="0"/>
      <vel value="0.0174280826" flag="0"/>
      <psa03 value="0.0670305992" flag="0"/>
      <psa10 value="0.0064822997" flag="0"/>
      <psa30 value="0.0006734712" flag="0"/>
    </comp>
  </station>
  <station code="EMING" name="EMING" netid="CH" insttype="Trillium Compact 120s" lat="47.8952" lon="8.84676">
    <comp name="--.HHZ">
      <acc value="0.0969809000" flag="0"/>
      <vel value="0.0152834142" flag="0"/>
      <psa03 value="0.0382014117" flag="0"/>
      <psa10 value="0.0020182457" flag="0"/>
      <psa30 value="0.0002447805" flag="0"/>
    </comp>
    <comp name="--.HHN">
      <acc value="0.2543377930" flag="0"/>
      <vel value="0.0298916250" flag="0"/>
      <psa03 value="0.0964926170" flag="0"/>
      <psa10 value="0.0045977976" flag="0"/>
      <psa30 value="0.0004588294" flag="0"/>
    </comp>
    <comp name="--.HHE">
      <acc value="0.3546217425" flag="0"/>
      <vel value="0.0516562081" flag="0"/>
      <psa03 value="0.1001650958" flag="0"/>
      <psa10 value="0.0061569896" flag="0"/>
      <psa30 value="0.0005404604" flag="0"/>
    </comp>
  </station>
  <station code="EMMET" name="EMMET" netid="CH" insttype="Trillium Compact 120s" lat="47.4376" lon="8.01358">
    <comp name="--.HHN">
      <acc value="0.1528337638" flag="0"/>
      <vel value="0.0618959007" flag="0"/>
      <psa03 value="0.4410390163" flag="0"/>
      <psa10 value="0.0256466586" flag="0"/>
      <psa30 value="0.0019393422" flag="0"/>
    </comp>
    <comp name="--.HHZ">
      <acc value="0.1188566609" flag="0"/>
      <vel value="0.0360378922" flag="0"/>
      <psa03 value="0.3221992921" flag="0"/>
      <psa10 value="0.0086518938" flag="0"/>
      <psa30 value="0.0009541071" flag="0"/>
    </comp>
    <comp name="--.HHE">
      <acc value="0.1778778911" flag="0"/>
      <vel value="0.0638182993" flag="0"/>
      <psa03 value="0.2355011832" flag="0"/>
      <psa10 value="0.0349465337" flag="0"/>
      <psa30 value="0.0023594719" flag="0"/>
    </comp>
  </station>
  <station code="EWZT0" name="EWZT0" netid="CH" insttype="EpiSensor ES-T" lat="47.3668" lon="8.49677">
    <comp name="--.HGN">
      <acc value="0.1664457230" flag="0"/>
      <vel value="0.0405418759" flag="0"/>
      <psa03 value="0.2052920043" flag="0"/>
      <psa10 value="0.0159397296" flag="0"/>
      <psa30 value="0.0010824122" flag="0"/>
    </comp>
    <comp name="--.HGZ">
      <acc value="0.0938584071" flag="0"/>
      <vel value="0.0196596394" flag="0"/>
      <psa03 value="0.1117429541" flag="0"/>
      <psa10 value="0.0042840327" flag="0"/>
      <psa30 value="0.0003909908" flag="0"/>
    </comp>
    <comp name="--.HGE">
      <acc value="0.1111999033" flag="0"/>
      <vel value="0.0308694173" flag="0"/>
      <psa03 value="0.2253462605" flag="0"/>
      <psa10 value="0.0186488797" flag="0"/>
      <psa30 value="0.0010905562" flag="0"/>
    </comp>
  </station>
  <station code="FLACH" name="FLACH" netid="CH" insttype="Trillium Compact 120s" lat="47.5724" lon="8.5679">
    <comp name="01.HHZ">
      <acc value="0.1596332724" flag="0"/>
      <vel value="0.0378915821" flag="0"/>
      <psa03 value="0.1218170159" flag="0"/>
      <psa10 value="0.0070936228" flag="0"/>
      <psa30 value="0.0004814371" flag="0"/>
    </comp>
    <comp name="01.HHN">
      <acc value="0.2349617865" flag="0"/>
      <vel value="0.0606606971" flag="0"/>
      <psa03 value="0.3656999747" flag="0"/>
      <psa10 value="0.0232607050" flag="0"/>
      <psa30 value="0.0014589406" flag="0"/>
    </comp>
    <comp name="01.HHE">
      <acc value="0.3398661067" flag="0"/>
      <vel value="0.1112563293" flag="0"/>
      <psa03 value="0.3969037687" flag="0"/>
      <psa10 value="0.0267694291" flag="0"/>
      <psa30 value="0.0017451918" flag="0"/>
    </comp>
  </station>
  <station code="HAMIK" name="HAMIK" netid="CH" insttype="EpiSensor ES-T" lat="47.2451" lon="8.27061">
    <comp name="SF.HGN">
      <acc value="0.0823243667" flag="0"/>
      <vel value="0.0116624446" flag="0"/>
      <psa03 value="0.0434922772" flag="0"/>
      <psa10 value="0.0040135368" flag="0"/>
      <psa30 value="0.0002869144" flag="0"/>
    </comp>
    <comp name="SF.HGZ">
      <acc value="0.0360277177" flag="0"/>
      <vel value="0.0079056246" flag="0"/>
      <psa03 value="0.0307890829" flag="0"/>
      <psa10 value="0.0021119181" flag="0"/>
      <psa30 value="0.0002330967" flag="0"/>
    </comp>
    <comp name="SF.HGE">
      <acc value="0.0698907756" flag="0"/>
      <vel value="0.0125282471" flag="0"/>
      <psa03 value="0.0362645763" flag="0"/>
      <psa10 value="0.0035426354" flag="0"/>
      <psa30 value="0.0003201762" flag="0"/>
    </comp>
  </station>
  <station code="HASLI" name="HASLI" netid="CH" insttype="STS2_gen3" lat="46.7567" lon="8.15108">
    <comp name="--.HHN">
      <acc value="0.0661508793" flag="0"/>
      <vel value="0.0181425464" flag="0"/>
      <psa03 value="0.0691341208" flag="0"/>
      <psa10 value="0.0039998216" flag="0"/>
      <psa30 value="0.0003090632" flag="0"/>
    </comp>
    <comp name="--.HHZ">
      <acc value="0.0529859093" flag="0"/>
      <vel value="0.0143359906" flag="0"/>
      <psa03 value="0.0606766185" flag="0"/>
      <psa10 value="0.0030879281" flag="0"/>
      <psa30 value="0.0003147180" flag="0"/>
    </comp>
    <comp name="--.HHE">
      <acc value="0.0577888205" flag="0"/>
      <vel value="0.0150251652" flag="0"/>
      <psa03 value="0.0794397373" flag="0"/>
      <psa10 value="0.0056234421" flag="0"/>
      <psa30 value="0.0004902666" flag="0"/>
    </comp>
  </station>
  <station code="HAUIG" name="HAUIG" netid="CH" insttype="Trillium Compact 120s" lat="47.6604" lon="7.70018">
    <comp name="--.HHZ">
      <acc value="0.6362161238" flag="0"/>
      <vel value="0.0845468383" flag="0"/>
      <psa03 value="0.4532285098" flag="0"/>
      <psa10 value="0.0223702854" flag="0"/>
      <psa30 value="0.0015375080" flag="0"/>
    </comp>
    <comp name="--.HHN">
      <acc value="0.6670851043" flag="0"/>
      <vel value="0.2004964617" flag="0"/>
      <psa03 value="0.8682128860" flag="0"/>
      <psa10 value="0.0352685101" flag="0"/>
      <psa30 value="0.0041139240" flag="0"/>
    </comp>
    <comp name="--.HHE">
      <acc value="0.4321668992" flag="0"/>
      <vel value="0.0978971776" flag="0"/>
      <psa03 value="0.5529708802" flag="0"/>
      <psa10 value="0.0344239835" flag="0"/>
      <psa30 value="0.0023974866" flag="0"/>
    </comp>
  </station>
  <station code="LIENZ" name="LIENZ" netid="CH" insttype="STS2.5" lat="47.2944" lon="9.49177">
    <comp name="--.HHN">
      <acc value="0.0434578602" flag="0"/>
      <vel value="0.0079053581" flag="0"/>
      <psa03 value="0.0374063456" flag="0"/>
      <psa10 value="0.0030753730" flag="0"/>
      <psa30 value="0.0003890684" flag="0"/>
    </comp>
    <comp name="--.HHZ">
      <acc value="0.0239677458" flag="0"/>
      <vel value="0.0056738664" flag="0"/>
      <psa03 value="0.0160222253" flag="0"/>
      <psa10 value="0.0025860300" flag="0"/>
      <psa30 value="0.0001255983" flag="0"/>
    </comp>
    <comp name="--.HHE">
      <acc value="0.0315223776" flag="0"/>
      <vel value="0.0080243921" flag="0"/>
      <psa03 value="0.0403085964" flag="0"/>
      <psa10 value="0.0026183047" flag="0"/>
      <psa30 value="0.0002071904" flag="0"/>
    </comp>
  </station>
  <station code="METMA" name="METMA" netid="CH" insttype="Trillium Compact 120s" lat="47.7122" lon="8.25262">
    <comp name="--.HHZ">
      <acc value="0.3105166485" flag="0"/>
      <vel value="0.0365441099" flag="0"/>
      <psa03 value="0.2632059312" flag="0"/>
      <psa10 value="0.0097121496" flag="0"/>
      <psa30 value="0.0006940444" flag="0"/>
    </comp>
    <comp name="--.HHN">
      <acc value="0.2761813091" flag="0"/>
      <vel value="0.0711418348" flag="0"/>
      <psa03 value="0.3246983865" flag="0"/>
      <psa10 value="0.0191478181" flag="0"/>
      <psa30 value="0.0022493332" flag="0"/>
    </comp>
    <comp name="--.HHE">
      <acc value="0.2979261435" flag="0"/>
      <vel value="0.0301545184" flag="0"/>
      <psa03 value="0.1287447783" flag="0"/>
      <psa10 value="0.0121080559" flag="0"/>
      <psa30 value="0.0006943216" flag="0"/>
    </comp>
  </station>
  <station code="MOUTI" name="MOUTI" netid="CH" insttype="Trillium Compact 120s" lat="47.2975" lon="7.33701">
    <comp name="--.HHZ">
      <acc value="0.0437895022" flag="0"/>
      <vel value="0.0107568418" flag="0"/>
      <psa03 value="0.0284459370" flag="0"/>
      <psa10 value="0.0037179326" flag="0"/>
      <psa30 value="0.0002282580" flag="0"/>
    </comp>
    <comp name="--.HHE">
      <acc value="0.0551800817" flag="0"/>
      <vel value="0.0142357827" flag="0"/>
      <psa03 value="0.0593402458" flag="0"/>
      <psa10 value="0.0043038295" flag="0"/>
      <psa30 value="0.0003202489" flag="0"/>
    </comp>
    <comp name="--.HHN">
      <acc value="0.0648390654" flag="0"/>
      <vel value="0.0134994872" flag="0"/>
      <psa03 value="0.0583653531" flag="0"/>
      <psa10 value="0.0035935300" flag="0"/>
      <psa30 value="0.0003769820" flag="0"/>
    </comp>
  </station>
  <station code="MTI01" name="MTI01" netid="CH" insttype="EpiSensor ES-T" lat="47.3791" lon="7.16541">
    <comp name="--.HGZ">
      <acc value="0.0347415450" flag="0"/>
      <vel value="0.0096950761" flag="0"/>
      <psa03 value="0.0364394487" flag="0"/>
      <psa10 value="0.0024412651" flag="0"/>
      <psa30 value="0.0002328199" flag="0"/>
    </comp>
    <comp name="--.HGE">
      <acc value="0.0350309999" flag="0"/>
      <vel value="0.0101668400" flag="0"/>
      <psa03 value="0.0433819455" flag="0"/>
      <psa10 value="0.0021899471" flag="0"/>
      <psa30 value="0.0003025220" flag="0"/>
    </comp>
    <comp name="--.HGN">
      <acc value="0.0315460112" flag="0"/>
      <vel value="0.0100004556" flag="0"/>
      <psa03 value="0.0574045235" flag="0"/>
      <psa10 value="0.0030052241" flag="0"/>
      <psa30 value="0.0002495826" flag="0"/>
    </comp>
  </station>
  <station code="MTI02" name="MTI02" netid="CH" insttype="STS2.5" lat="47.3793" lon="7.16525">
    <comp name="--.HHZ">
      <acc value="0.0468855897" flag="0"/>
      <vel value="0.0121227908" flag="0"/>
      <psa03 value="0.0397405386" flag="0"/>
