<?xml version="1.0" encoding="UTF-8" standalone="yes"?>
<!DOCTYPE earthquake SYSTEM "stationlist.dtd">
<stationlist created="" xmlns="ch.ethz.sed.shakemap.usgs.xml">
  <station code="A060B" name="A060B" netid="8D" insttype="STS2.5" lat="46.993" lon="7.97764">
    <comp name="--.HHE">
      <acc value="0.1385278697" flag="0"/>
      <vel value="0.0442426449" flag="0"/>
      <psa03 value="0.2157695546" flag="0"/>
      <psa10 value="0.0094813206" flag="0"/>
      <psa30 value="0.0007712976" flag="0"/>
    </comp>
    <comp name="--.HHN">
      <acc value="0.0941105529" flag="0"/>
      <vel value="0.0198341614" flag="0"/>
      <psa03 value="0.0587062956" flag="0"/>
      <psa10 value="0.0039073167" flag="0"/>
      <psa30 value="0.0003546106" flag="0"/>
    </comp>
    <comp name="--.HHZ">
      <acc value="0.0706927713" flag="0"/>
      <vel value="0.0177214784" flag="0"/>
      <psa03 value="0.0736392494" flag="0"/>
      <psa10 value="0.0038854841" flag="0"/>
      <psa30 value="0.0004021834" flag="0"/>
    </comp>
  </station>
  <station code="ACB" name="ACB" netid="CH" insttype="Trillium 240s_g2" lat="47.5877" lon="8.25474">
    <comp name="--.HHN">
      <acc value="0.2157674878" flag="0"/>
      <vel value="0.0791040491" flag="0"/>
      <psa03 value="0.3410107882" flag="0"/>
      <psa10 value="0.0710899187" flag="0"/>
      <psa30 value="0.0036890128" flag="0"/>
    </comp>
    <comp name="--.HHZ">
      <acc value="0.1483361951" flag="0"/>
      <vel value="0.0334875912" flag="0"/>
      <psa03 value="0.1719391428" flag="0"/>
      <psa10 value="0.0117238390" flag="0"/>
      <psa30 value="0.0008989352" flag="0"/>
    </comp>
    <comp name="--.HHE">
      <acc value="0.2674295648" flag="0"/>
      <vel value="0.0628337153" flag="0"/>
      <psa03 value="0.1995311181" flag="0"/>
      <psa10 value="0.0165020303" flag="0"/>
      <psa30 value="0.0017516196" flag="0"/>
    </comp>
  </station>
  <station code="BALST" name="BALST" netid="CH" insttype="STS2_gen3" lat="47.336" lon="7.69485">
    <comp name="--.HHZ">
      <acc value="0.0400415783" flag="0"/>
      <vel value="0.0127577598" flag="0"/>
      <psa03 value="0.0447396400" flag="0"/>
      <psa10 value="0.0083604757" flag="0"/>
      <psa30 value="0.0004206356" flag="0"/>
    </comp>
    <comp name="--.HHN">
      <acc value="0.0873072286" flag="0"/>
      <vel value="0.0134482203" flag="0"/>
      <psa03 value="0.0878985135" flag="0"/>
      <psa10 value="0.0057835507" flag="0"/>
      <psa30 value="0.0006962403" flag="0"/>
    </comp>
    <comp name="--.HHE">
      <acc value="0.0675667240" flag="0"/>
      <vel value="0.0175527040" flag="0"/>
      <psa03 value="0.1226092975" flag="0"/>
      <psa10 value="0.0092413478" flag="0"/>
      <psa30 value="0.0006103832" flag="0"/>
    </comp>
  </station>
  <station code="BERGE" name="BERGE" netid="CH" insttype="Trillium Compact 120s" lat="47.8716" lon="8.17798">
    <comp name="--.HHZ">
      <acc value="0.2102424683" flag="0"/>
      <vel value="0.0253761977" flag="0"/>
      <psa03 value="0.0625864695" flag="0"/>
      <psa10 value="0.0058177819" flag="0"/>
      <psa30 value="0.0005069507" flag="0"/>
    </comp>
    <comp name="--.HHE">
      <acc value="0.4792585104" flag="0"/>
      <vel value="0.0680805967" flag="0"/>
      <psa03 value="0.2077009906" flag="0"/>
      <psa10 value="0.0147659702" flag="0"/>
      <psa30 value="0.0017729630" flag="0"/>
    </comp>
    <comp name="--.HHN">
      <acc value="0.2191584182" flag="0"/>
      <vel value="0.0364472643" flag="0"/>
      <psa03 value="0.1976375712" flag="0"/>
      <psa10 value="0.0174361578" flag="0"/>
      <psa30 value="0.0011266309" flag="0"/>
    </comp>
  </station>
  <station code="BLOTZ" name="BLOTZ" netid="CH" insttype="EpiSensor ES-T" lat="47.6207" lon="7.44006">
    <comp name="SF.HGE">
      <acc value="0.0207376878" flag="0"/>
      <vel value="0.0069356225" flag="0"/>
      <psa03 value="0.0364550157" flag="0"/>
      <psa10 value="0.0028102331" flag="0"/>
      <psa30 value="0.0002055969" flag="0"/>
    </comp>
    <comp name="SF.HGZ">
      <acc value="0.0133574782" flag="0"/>
      <vel value="0.0030550414" flag="0"/>
      <psa03 value="0.0137183460" flag="0"/>
      <psa10 value="0.0012241897" flag="0"/>
      <psa30 value="0.0001403363" flag="0"/>
    </comp>
    <comp name="SF.HGN">
      <acc value="0.0217781614" flag="0"/>
      <vel value="0.0058210417" flag="0"/>
      <psa03 value="0.0232246868" flag="0"/>
      <psa10 value="0.0028931380" flag="0"/>
      <psa30 value="0.0001819242" flag="0"/>
    </comp>
  </station>
  <station code="BNALP" name="BNALP" netid="CH" insttype="STS2_gen3" lat="46.8703" lon="8.4249">
    <comp name="--.HHE">
      <acc value="0.0205577596" flag="0"/>
      <vel value="0.0037337915" flag="0"/>
      <psa03 value="0.0209896764" flag="0"/>
      <psa10 value="0.0015681174" flag="0"/>
      <psa30 value="0.0000872329" flag="0"/>
    </comp>
    <comp name="--.HHN">
      <acc value="0.0157705902" flag="0"/>
      <vel value="0.0058378795" flag="0"/>
      <psa03 value="0.0237957317" flag="0"/>
      <psa10 value="0.0017832021" flag="0"/>
      <psa30 value="0.0001207276" flag="0"/>
    </comp>
    <comp name="--.HHZ">
      <acc value="0.0180735048" flag="0"/>
      <vel value="0.0049643929" flag="0"/>
      <psa03 value="0.0248797113" flag="0"/>
      <psa10 value="0.0018725499" flag="0"/>
      <psa30 value="0.0001539961" flag="0"/>
    </comp>
  </station>
  <station code="BOBI" name="BOBI" netid="CH" insttype="EpiSensor ES-T" lat="47.5463" lon="8.33992">
    <comp name="SF.HGE">
      <acc value="0.5694566199" flag="0"/>
      <vel value="0.1516067163" flag="0"/>
      <psa03 value="0.6258525711" flag="0"/>
      <psa10 value="0.0471481766" flag="0"/>
      <psa30 value="0.0036446877" flag="0"/>
    </comp>
    <comp name="SF.HGN">
      <acc value="0.8224118383" flag="0"/>
      <vel value="0.1883403154" flag="0"/>
      <psa03 value="0.5338781301" flag="0"/>
      <psa10 value="0.0398319454" flag="0"/>
      <psa30 value="0.0031726099" flag="0"/>
    </comp>
    <comp name="SF.HGZ">
      <acc value="0.3312124002" flag="0"/>
      <vel value="0.0657871519" flag="0"/>
      <psa03 value="0.1588282852" flag="0"/>
      <psa10 value="0.0106219648" flag="0"/>
      <psa30 value="0.0007311801" flag="0"/>
    </comp>
  </station>
  <station code="BOURR" name="BOURR" netid="CH" insttype="STS2.5" lat="47.3936" lon="7.2301">
    <comp name="--.HHE">
      <acc value="0.0170980697" flag="0"/>
      <vel value="0.0061600583" flag="0"/>
      <psa03 value="0.0425193481" flag="0"/>
      <psa10 value="0.0033545675" flag="0"/>
      <psa30 value="0.0003511025" flag="0"/>
    </comp>
    <comp name="--.HHN">
      <acc value="0.0207661967" flag="0"/>
      <vel value="0.0058154391" flag="0"/>
      <psa03 value="0.0285793395" flag="0"/>
      <psa10 value="0.0073067828" flag="0"/>
      <psa30 value="0.0002716319" flag="0"/>
    </comp>
    <comp name="--.HHZ">
      <acc value="0.0298386368" flag="0"/>
      <vel value="0.0091178467" flag="0"/>
      <psa03 value="0.0606314707" flag="0"/>
      <psa10 value="0.0036520009" flag="0"/>
      <psa30 value="0.0002432104" flag="0"/>
    </comp>
  </station>
  <station code="BULAC" name="BULAC" netid="CH" insttype="ABBT" lat="47.5424" lon="8.52044">
    <comp name="BT.HG1">
      <acc value="0.2290931812" flag="0"/>
      <vel value="0.0459692785" flag="0"/>
      <psa03 value="0.1206290417" flag="0"/>
      <psa10 value="0.0075874230" flag="0"/>
      <psa30 value="0.0005471699" flag="0"/>
    </comp>
    <comp name="BT.HGZ">
      <acc value="0.0951546418" flag="0"/>
      <vel value="0.0203211109" flag="0"/>
      <psa03 value="0.1034294080" flag="0"/>
      <psa10 value="0.0039025795" flag="0"/>
      <psa30 value="0.0003279454" flag="0"/>
    </comp>
    <comp name="BT.HG2">
      <acc value="0.2153916686" flag="0"/>
      <vel value="0.0426759379" flag="0"/>
      <psa03 value="0.1244446749" flag="0"/>
      <psa10 value="0.0097180881" flag="0"/>
      <psa30 value="0.0005741880" flag="0"/>
    </comp>
  </station>
  <station code="CHASS" name="CHASS" netid="CH" insttype="Trillium 240s_g2" lat="47.1609" lon="7.12129">
    <comp name="--.HHE">
      <acc value="0.0294989673" flag="0"/>
      <vel value="0.0110836146" flag="0"/>
      <psa03 value="0.0352771186" flag="0"/>
      <psa10 value="0.0031513971" flag="0"/>
      <psa30 value="0.0002172617" flag="0"/>
    </comp>
    <comp name="--.HHN">
      <acc value="0.0636827494" flag="0"/>
      <vel value="0.0193662061" flag="0"/>
      <psa03 value="0.0634410967" flag="0"/>
      <psa10 value="0.0078309319" flag="0"/>
      <psa30 value="0.0005032616" flag="0"/>
    </comp>
    <comp name="--.HHZ">
      <acc value="0.0175473540" flag="0"/>
      <vel value="0.0048800688" flag="0"/>
      <psa03 value="0.0164379665" flag="0"/>
      <psa10 value="0.0027692481" flag="0"/>
      <psa30 value="0.0001934181" flag="0"/>
    </comp>
  </station>
  <station code="DAGMA" name="DAGMA" netid="CH" insttype="Trillium Compact 120s" lat="47.2309" lon="8.01248">
    <comp name="--.HHE">
      <acc value="0.0728179221" flag="0"/>
      <vel value="0.0174280824" flag="0"/>
      <psa03 value="0.0670305992" flag="0"/>
      <psa10 value="0.0064822998" flag="0"/>
      <psa30 value="0.0006734883" flag="0"/>
    </comp>
    <comp name="--.HHZ">
      <acc value="0.0743335459" flag="0"/>
      <vel value="0.0091269828" flag="0"/>
      <psa03 value="0.0455297821" flag="0"/>
      <psa10 value="0.0034801078" flag="0"/>
      <psa30 value="0.0003889269" flag="0"/>
    </comp>
    <comp name="--.HHN">
      <acc value="0.1328742906" flag="0"/>
      <vel value="0.0263870915" flag="0"/>
      <psa03 value="0.0396625874" flag="0"/>
      <psa10 value="0.0082180423" flag="0"/>
      <psa30 value="0.0004507573" flag="0"/>
    </comp>
  </station>
  <station code="EMING" name="EMING" netid="CH" insttype="Trillium Compact 120s" lat="47.8952" lon="8.84676">
    <comp name="--.HHE">
      <acc value="0.3546217427" flag="0"/>
      <vel value="0.0516562079" flag="0"/>
      <psa03 value="0.1001650958" flag="0"/>
      <psa10 value="0.0061569895" flag="0"/>
      <psa30 value="0.0005404646" flag="0"/>
    </comp>
    <comp name="--.HHZ">
      <acc value="0.0969808999" flag="0"/>
      <vel value="0.0152834142" flag="0"/>
      <psa03 value="0.0382014117" flag="0"/>
      <psa10 value="0.0020182456" flag="0"/>
      <psa30 value="0.0002447504" flag="0"/>
    </comp>
    <comp name="--.HHN">
      <acc value="0.2543377928" flag="0"/>
      <vel value="0.0298916248" flag="0"/>
      <psa03 value="0.0964926170" flag="0"/>
      <psa10 value="0.0045977975" flag="0"/>
      <psa30 value="0.0004588490" flag="0"/>
    </comp>
  </station>
  <station code="EMMET" name="EMMET" netid="CH" insttype="Trillium Compact 120s" lat="47.4376" lon="8.01358">
    <comp name="--.HHE">
      <acc value="0.1778778917" flag="0"/>
      <vel value="0.0638182992" flag="0"/>
      <psa03 value="0.2355011832" flag="0"/>
      <psa10 value="0.0349465336" flag="0"/>
      <psa30 value="0.0023594723" flag="0"/>
    </comp>
    <comp name="--.HHN">
      <acc value="0.1528337637" flag="0"/>
      <vel value="0.0618959010" flag="0"/>
      <psa03 value="0.4410390163" flag="0"/>
      <psa10 value="0.0256466585" flag="0"/>
      <psa30 value="0.0019393706" flag="0"/>
    </comp>
    <comp name="--.HHZ">
      <acc value="0.1188566595" flag="0"/>
      <vel value="0.0360378925" flag="0"/>
      <psa03 value="0.3221992921" flag="0"/>
      <psa10 value="0.0086518938" flag="0"/>
      <psa30 value="0.0009540803" flag="0"/>
    </comp>
  </station>
  <station code="EWZT0" name="EWZT0" netid="CH" insttype="EpiSensor ES-T" lat="47.3668" lon="8.49677">
    <comp name="--.HGE">
      <acc value="0.1111999035" flag="0"/>
      <vel value="0.0308694174" flag="0"/>
      <psa03 value="0.2253462605" flag="0"/>
      <psa10 value="0.0186488795" flag="0"/>
      <psa30 value="0.0010906560" flag="0"/>
    </comp>
    <comp name="--.HGZ">
      <acc value="0.0938584067" flag="0"/>
      <vel value="0.0196596389" flag="0"/>
      <psa03 value="0.1117429541" flag="0"/>
      <psa10 value="0.0042840327" flag="0"/>
      <psa30 value="0.0003910250" flag="0"/>
    </comp>
    <comp name="--.HGN">
      <acc value="0.1664457231" flag="0"/>
      <vel value="0.0405418764" flag="0"/>
      <psa03 value="0.2052920043" flag="0"/>
      <psa10 value="0.0159397302" flag="0"/>
      <psa30 value="0.0010823034" flag="0"/>
    </comp>
  </station>
  <station code="FLACH" name="FLACH" netid="CH" insttype="Trillium Compact 120s" lat="47.5724" lon="8.5679">
    <comp name="01.HHE">
      <acc value="0.3398661053" flag="0"/>
      <vel value="0.1112563291" flag="0"/>
      <psa03 value="0.3969037687" flag="0"/>
      <psa10 value="0.0267694293" flag="0"/>
      <psa30 value="0.0017451544" flag="0"/>
    </comp>
    <comp name="01.HHN">
      <acc value="0.2349617866" flag="0"/>
      <vel value="0.0606606977" flag="0"/>
      <psa03 value="0.3656999747" flag="0"/>
      <psa10 value="0.0232607048" flag="0"/>
      <psa30 value="0.0014588953" flag="0"/>
    </comp>
    <comp name="01.HHZ">
      <acc value="0.1596332727" flag="0"/>
      <vel value="0.0378915820" flag="0"/>
      <psa03 value="0.1218170159" flag="0"/>
      <psa10 value="0.0070936218" flag="0"/>
      <psa30 value="0.0004814466" flag="0"/>
    </comp>
  </station>
  <station code="HAMIK" name="HAMIK" netid="CH" insttype="EpiSensor ES-T" lat="47.2451" lon="8.27061">
    <comp name="SF.HGE">
      <acc value="0.0698907756" flag="0"/>
      <vel value="0.0125282470" flag="0"/>
      <psa03 value="0.0362645763" flag="0"/>
      <psa10 value="0.0035426355" flag="0"/>
      <psa30 value="0.0003201650" flag="0"/>
    </comp>
    <comp name="SF.HGZ">
      <acc value="0.0360277177" flag="0"/>
      <vel value="0.0079056246" flag="0"/>
      <psa03 value="0.0307890829" flag="0"/>
      <psa10 value="0.0021119181" flag="0"/>
      <psa30 value="0.0002330944" flag="0"/>
    </comp>
    <comp name="SF.HGN">
      <acc value="0.0823243667" flag="0"/>
      <vel value="0.0116624447" flag="0"/>
      <psa03 value="0.0434922772" flag="0"/>
      <psa10 value="0.0040135368" flag="0"/>
      <psa30 value="0.0002869196" flag="0"/>
    </comp>
  </station>
  <station code="HASLI" name="HASLI" netid="CH" insttype="STS2_gen3" lat="46.7567" lon="8.15108">
    <comp name="--.HHN">
      <acc value="0.0661508792" flag="0"/>
      <vel value="0.0181425465" flag="0"/>
      <psa03 value="0.0691341208" flag="0"/>
      <psa10 value="0.0039998216" flag="0"/>
      <psa30 value="0.0003090605" flag="0"/>
    </comp>
    <comp name="--.HHE">
      <acc value="0.0577888206" flag="0"/>
      <vel value="0.0150251655" flag="0"/>
      <psa03 value="0.0794397373" flag="0"/>
      <psa10 value="0.0056234421" flag="0"/>
      <psa30 value="0.0004902586" flag="0"/>
    </comp>
    <comp name="--.HHZ">
      <acc value="0.0529859093" flag="0"/>
      <vel value="0.0143359903" flag="0"/>
      <psa03 value="0.0606766185" flag="0"/>
      <psa10 value="0.0030879281" flag="0"/>
      <psa30 value="0.0003147043" flag="0"/>
    </comp>
  </station>
  <station code="HAUIG" name="HAUIG" netid="CH" insttype="Trillium Compact 120s" lat="47.6604" lon="7.70018">
    <comp name="--.HHE">
      <acc value="0.4321669003" flag="0"/>
      <vel value="0.0978971784" flag="0"/>
      <psa03 value="0.5529708802" flag="0"/>
      <psa10 value="0.0344239887" flag="0"/>
      <psa30 value="0.0023970916" flag="0"/>
    </comp>
    <comp name="--.HHZ">
      <acc value="0.6362161218" flag="0"/>
      <vel value="0.0845468399" flag="0"/>
      <psa03 value="0.4532285098" flag="0"/>
      <psa10 value="0.0223702847" flag="0"/>
      <psa30 value="0.0015373468" flag="0"/>
    </comp>
    <comp name="--.HHN">
      <acc value="0.6670851048" flag="0"/>
      <vel value="0.2004964625" flag="0"/>
      <psa03 value="0.8682128860" flag="0"/>
      <psa10 value="0.0352685131" flag="0"/>
      <psa30 value="0.0041140965" flag="0"/>
    </comp>
  </station>
  <station code="METMA" name="METMA" netid="CH" insttype="Trillium Compact 120s" lat="47.7122" lon="8.25262">
    <comp name="--.HHE">
      <acc value="0.2979261432" flag="0"/>
      <vel value="0.0301545185" flag="0"/>
      <psa03 value="0.1287447783" flag="0"/>
      <psa10 value="0.0121080536" flag="0"/>
      <psa30 value="0.0006943120" flag="0"/>
    </comp>
    <comp name="--.HHN">
      <acc value="0.2761813101" flag="0"/>
      <vel value="0.0711418348" flag="0"/>
      <psa03 value="0.3246983865" flag="0"/>
      <psa10 value="0.0191478178" flag="0"/>
      <psa30 value="0.0022494695" flag="0"/>
    </comp>
    <comp name="--.HHZ">
      <acc value="0.3105166481" flag="0"/>
      <vel value="0.0365441100" flag="0"/>
      <psa03 value="0.2632059312" flag="0"/>
      <psa10 value="0.0097121491" flag="0"/>
      <psa30 value="0.0006939830" flag="0"/>
    </comp>
  </station>
  <station code="MOUTI" name="MOUTI" netid="CH" insttype="Trillium Compact 120s" lat="47.2975" lon="7.33701">
    <comp name="--.HHE">
      <acc value="0.0551800806" flag="0"/>
      <vel value="0.0142357810" flag="0"/>
      <psa03 value="0.0593402458" flag="0"/>
      <psa10 value="0.0043038299" flag="0"/>
      <psa30 value="0.0003203034" flag="0"/>
    </comp>
    <comp name="--.HHZ">
      <acc value="0.0437895050" flag="0"/>
      <vel value="0.0107568414" flag="0"/>
      <psa03 value="0.0284459370" flag="0"/>
      <psa10 value="0.0037179326" flag="0"/>
      <psa30 value="0.0002279849" flag="0"/>
    </comp>
    <comp name="--.HHN">
      <acc value="0.0648390645" flag="0"/>
      <vel value="0.0134994850" flag="0"/>
      <psa03 value="0.0583653531" flag="0"/>
      <psa10 value="0.0035935300" flag="0"/>
      <psa30 value="0.0003768824" flag="0"/>
    </comp>
  </station>
  <station code="MTI01" name="MTI01" netid="CH" insttype="EpiSensor ES-T" lat="47.3791" lon="7.16541">
    <comp name="--.HGZ">
      <acc value="0.0347415453" flag="0"/>
      <vel value="0.0096950747" flag="0"/>
      <psa03 value="0.0364394487" flag="0"/>
      <psa10 value="0.0024412656" flag="0"/>
      <psa30 value="0.0002328778" flag="0"/>
    </comp>
    <comp name="--.HGE">
      <acc value="0.0350310017" flag="0"/>
      <vel value="0.0101668401" flag="0"/>
      <psa03 value="0.0433819455" flag="0"/>
      <psa10 value="0.0021899470" flag="0"/>
      <psa30 value="0.0003024266" flag="0"/>
    </comp>
    <comp name="--.HGN">
      <acc value="0.0315460126" flag="0"/>
      <vel value="0.0100004563" flag="0"/>
      <psa03 value="0.0574045235" flag="0"/>
      <psa10 value="0.0030052239" flag="0"/>
      <psa30 value="0.0002495728" flag="0"/>
    </comp>
  </station>
  <station code="MTI02" name="MTI02" netid="CH" insttype="STS2.5" lat="47.3793" lon="7.16525">
    <comp name="--.HHE">
      <acc value="0.0303638464" flag="0"/>
      <vel value="0.0102528719" flag="0"/>
      <psa03 value="0.0354196517" flag="0"/>
      <psa10 value="0.0022940556" flag="0"/>
      <psa30 value="0.0002816350" flag="0"/>
    </comp>
    <comp name="--.HHN">
      <acc value="0.0374472546" flag="0"/>
      <vel value="0.0101549068" flag="0"/>
      <psa03 value="0.0645119775" flag="0"/>
      <psa10 value="0.0028840134" flag="0"/>
      <psa30 value="0.0002611462" flag="0"/>
    </comp>
    <comp name="--.HHZ">
      <acc value="0.0468855906" flag="0"/>
      <vel value="0.0121227917" flag="0"/>
      <psa03 value="0.0397405386" flag="0"/>
      <psa10 value="0.0025544369" flag="0"/>
      <psa30 value="0.0002507585" flag="0"/>
    </comp>
  </station>
  <station code="MTI03" name="MTI03" netid="CH" insttype="EpiSensor ES-T" lat="47.3716" lon="7.16695">
    <comp name="--.HGZ">
      <acc value="0.0308107345" flag="0"/>
      <vel value="0.0066701725" flag="0"/>
