<?xml version="1.0" encoding="UTF-8" standalone="yes"?>
<!DOCTYPE earthquake SYSTEM "stationlist.dtd">
<stationlist created="" xmlns="ch.ethz.sed.shakemap.usgs.xml">
  <station code="ADA" name="ADA" netid="VI" insttype="CMG-3ESP" lat="65.0188" lon="-15.5745">
    <comp name="--.HHN">
      <acc value="0.2075567591" flag="0"/>
      <vel value="0.0528123774" flag="0"/>
      <psa03 value="0.1592470977" flag="0"/>
      <psa10 value="0.0344563066" flag="0"/>
      <psa30 value="0.0030189047" flag="0"/>
    </comp>
    <comp name="--.HHE">
      <acc value="0.1373935429" flag="0"/>
      <vel value="0.0346223748" flag="0"/>
      <psa03 value="0.1263886698" flag="0"/>
      <psa10 value="0.0266556777" flag="0"/>
      <psa30 value="0.0024830990" flag="0"/>
    </comp>
    <comp name="--.HHZ">
      <acc value="0.0874840379" flag="0"/>
      <vel value="0.0230118550" flag="0"/>
      <psa03 value="0.0971035185" flag="0"/>
      <psa10 value="0.0134129951" flag="0"/>
      <psa30 value="0.0018619556" flag="0"/>
    </comp>
  </station>
  <station code="SKR" name="SKR" netid="VI" insttype="LE-3D/5s" lat="64.5601" lon="-18.3865">
    <comp name="--.HHE">
      <acc value="0.0115978653" flag="0"/>
      <vel value="0.0145082286" flag="0"/>
      <psa03 value="0.0323157225" flag="0"/>
      <psa10 value="0.0313943958" flag="0"/>
      <psa30 value="0.0036476894" flag="0"/>
    </comp>
    <comp name="--.HHN">
      <acc value="0.0108617977" flag="0"/>
      <vel value="0.0160192702" flag="0"/>
      <psa03 value="0.0260424344" flag="0"/>
      <psa10 value="0.0180428763" flag="0"/>
      <psa30 value="0.0040859402" flag="0"/>
    </comp>
    <comp name="--.HHZ">
      <acc value="0.0218026335" flag="0"/>
      <vel value="0.0148955054" flag="0"/>
      <psa03 value="0.0586303498" flag="0"/>
      <psa10 value="0.0245063944" flag="0"/>
      <psa30 value="0.0019587007" flag="0"/>
    </comp>
  </station>
</stationlist>
