<stationlist created="1775819706">
	<station code="AKS" name="AKS" netid="KO" source="Bogazici University Kandilli Observatory And Earthquake Research Institute (KOERI)" insttype="" lat="38.8785" lon="27.8129">
		<comp name="--.HNE" depth="0.0">
			<acc value="0.0736006398629369" flag="0"/>
			<vel value="0.239386795785154" flag="0"/>
			<psa03 value="0.158655864668392" flag="0"/>
			<psa10 value="0.0585697855736486" flag="0"/>
			<psa30 value="0.0789453864676096" flag="0"/>
		</comp>
		<comp name="--.HNN" depth="0.0">
			<acc value="0.0964315769959001" flag="0"/>
			<vel value="0.261802413053583" flag="0"/>
			<psa03 value="0.226664018728165" flag="0"/>
			<psa10 value="0.0574865767514203" flag="0"/>
			<psa30 value="0.0657142211264543" flag="0"/>
		</comp>
		<comp name="--.HNZ" depth="0.0">
			<acc value="0.0282118942261056" flag="0"/>
			<vel value="0.151146767837664" flag="0"/>
			<psa03 value="0.080670198532744" flag="0"/>
			<psa10 value="0.0314815114207484" flag="0"/>
			<psa30 value="0.0396308569342004" flag="0"/>
		</comp>
	</station>
	<station code="EZNE" name="EZNE" netid="KO" source="Bogazici University Kandilli Observatory And Earthquake Research Institute (KOERI)" insttype="" lat="39.756" lon="26.3655">
		<comp name="--.HNE" depth="0.0">
			<acc value="0.0069176292032355" flag="0"/>
			<vel value="0.000724967947175939" flag="0"/>
			<psa03 value="0.136061050326164" flag="0"/>
			<psa10 value="0.168666485977164" flag="0"/>
			<psa30 value="0.222364292672149" flag="0"/>
		</comp>
		<comp name="--.HNN" depth="0.0">
			<acc value="0.0117219130762459" flag="0"/>
			<vel value="0.00103325801923264" flag="0"/>
			<psa03 value="0.150199587617538" flag="0"/>
			<psa10 value="0.213114288875887" flag="0"/>
			<psa30 value="0.210019023022035" flag="0"/>
		</comp>
		<comp name="--.HNZ" depth="0.0">
			<acc value="0.0146586737706899" flag="0"/>
			<vel value="0.00121931378067684" flag="0"/>
			<psa03 value="0.0750326804988418" flag="0"/>
			<psa10 value="0.155096174709842" flag="0"/>
			<psa30 value="0.140478895807653" flag="0"/>
		</comp>
	</station>
	<station code="FOCM" name="FOCM" netid="KO" source="Bogazici University Kandilli Observatory And Earthquake Research Institute (KOERI)" insttype="" lat="38.7131" lon="26.7309">
		<comp name="--.HNE" depth="0.0">
			<acc value="0.0796501421516727" flag="0"/>
			<vel value="0.258505067616527" flag="0"/>
			<psa03 value="0.250466872649085" flag="0"/>
			<psa10 value="0.0591576981686127" flag="0"/>
			<psa30 value="0.0796500762218474" flag="0"/>
		</comp>
		<comp name="--.HNN" depth="0.0">
			<acc value="0.110673017204188" flag="0"/>
			<vel value="0.221262861917243" flag="0"/>
			<psa03 value="0.202369000534443" flag="0"/>
			<psa10 value="0.0964539067614717" flag="0"/>
			<psa30 value="0.0865708007415616" flag="0"/>
		</comp>
		<comp name="--.HNZ" depth="0.0">
			<acc value="0.0745056452295723" flag="0"/>
			<vel value="0.133081910594816" flag="0"/>
			<psa03 value="0.147470313013824" flag="0"/>
			<psa10 value="0.0352224073161021" flag="0"/>
			<psa30 value="0.0476790850606951" flag="0"/>
		</comp>
	</station>
	<station code="GOMA" name="GOMA" netid="KO" source="Bogazici University Kandilli Observatory And Earthquake Research Institute (KOERI)" insttype="" lat="38.7077" lon="27.9175">
		<comp name="--.HNE" depth="0.0">
			<acc value="0.100374292172656" flag="0"/>
			<vel value="0.174455144467865" flag="0"/>
			<psa03 value="0.460889470374817" flag="0"/>
			<psa10 value="0.0401471819985752" flag="0"/>
			<psa30 value="0.0366098631433347" flag="0"/>
		</comp>
		<comp name="--.HNN" depth="0.0">
			<acc value="0.080539991301091" flag="0"/>
			<vel value="0.171636238086852" flag="0"/>
			<psa03 value="0.229617004364971" flag="0"/>
			<psa10 value="0.0406505318230308" flag="0"/>
			<psa30 value="0.055127767618505" flag="0"/>
		</comp>
		<comp name="--.HNZ" depth="0.0">
			<acc value="0.0616573459170938" flag="0"/>
			<vel value="0.0999627821505873" flag="0"/>
			<psa03 value="0.17319708181933" flag="0"/>
			<psa10 value="0.0259084221643764" flag="0"/>
			<psa30 value="0.0394151994983003" flag="0"/>
		</comp>
	</station>
	<station code="GORD" name="GORD" netid="KO" source="Bogazici University Kandilli Observatory And Earthquake Research Institute (KOERI)" insttype="" lat="38.9088" lon="28.1769">
		<comp name="--.HNE" depth="0.0">
			<acc value="0.28769410907709" flag="0"/>
			<vel value="0.739051615690578" flag="0"/>
			<psa03 value="0.84397224344046" flag="0"/>
			<psa10 value="0.372136592216483" flag="0"/>
			<psa30 value="0.280742134179405" flag="0"/>
		</comp>
		<comp name="--.HNN" depth="0.0">
			<acc value="0.268346878934693" flag="0"/>
			<vel value="0.846050126072245" flag="0"/>
			<psa03 value="0.386751634008341" flag="0"/>
			<psa10 value="0.372108404626313" flag="0"/>
			<psa30 value="0.41704345015511" flag="0"/>
		</comp>
		<comp name="--.HNZ" depth="0.0">
			<acc value="0.173218635955408" flag="0"/>
			<vel value="0.503019442094207" flag="0"/>
			<psa03 value="0.483394800303808" flag="0"/>
			<psa10 value="0.201621805683918" flag="0"/>
			<psa30 value="0.243173892970307" flag="0"/>
		</comp>
	</station>
	<station code="NAZL" name="NAZL" netid="KO" source="Bogazici University Kandilli Observatory And Earthquake Research Institute (KOERI)" insttype="" lat="37.9641" lon="28.2922">
		<comp name="--.HNE" depth="0.0">
			<acc value="0.183618241160533" flag="0"/>
			<vel value="0.0508780389899531" flag="0"/>
			<psa03 value="1.41125868115353" flag="0"/>
			<psa10 value="0.302537405289364" flag="0"/>
			<psa30 value="0.21553081545534" flag="0"/>
		</comp>
		<comp name="--.HNN" depth="0.0">
			<acc value="0.218877893517109" flag="0"/>
			<vel value="0.0572491299511731" flag="0"/>
			<psa03 value="1.31358644410584" flag="0"/>
			<psa10 value="0.278400774507071" flag="0"/>
			<psa30 value="0.166640558861488" flag="0"/>
		</comp>
		<comp name="--.HNZ" depth="0.0">
			<acc value="0.110185855215454" flag="0"/>
			<vel value="0.0291107036471366" flag="0"/>
			<psa03 value="0.581872397070624" flag="0"/>
			<psa10 value="0.183831409488361" flag="0"/>
			<psa30 value="0.16994566566438" flag="0"/>
		</comp>
	</station>
	<station code="SOMA" name="SOMA" netid="KO" source="Bogazici University Kandilli Observatory And Earthquake Research Institute (KOERI)" insttype="" lat="39.1564" lon="27.5341">
		<comp name="--.HNE" depth="0.0">
			<acc value="0.385306126330789" flag="0"/>
			<vel value="0.828575844855522" flag="0"/>
			<psa03 value="1.09667622642046" flag="0"/>
			<psa10 value="0.361795773422868" flag="0"/>
			<psa30 value="0.314166352211519" flag="0"/>
		</comp>
		<comp name="--.HNN" depth="0.0">
			<acc value="0.447541454614522" flag="0"/>
			<vel value="1.17722314732966" flag="0"/>
			<psa03 value="1.20768164104039" flag="0"/>
			<psa10 value="0.394324252478484" flag="0"/>
			<psa30 value="0.342972279676494" flag="0"/>
		</comp>
		<comp name="--.HNZ" depth="0.0">
			<acc value="0.297987002412687" flag="0"/>
			<vel value="0.487081685933499" flag="0"/>
			<psa03 value="0.71945468242181" flag="0"/>
			<psa10 value="0.176059688198767" flag="0"/>
			<psa30 value="0.166298280980859" flag="0"/>
		</comp>
	</station>
	<station code="YKAV" name="YKAV" netid="KO" source="Bogazici University Kandilli Observatory And Earthquake Research Institute (KOERI)" insttype="" lat="37.1246" lon="27.2801">
		<comp name="--.HNE" depth="0.0">
			<acc value="0.0821371478352628" flag="0"/>
			<vel value="0.157126051400869" flag="0"/>
			<psa03 value="0.212078059370608" flag="0"/>
			<psa10 value="0.0595764852225598" flag="0"/>
			<psa30 value="0.0615227712104546" flag="0"/>
		</comp>
		<comp name="--.HNN" depth="0.0">
			<acc value="0.0668450722992442" flag="0"/>
			<vel value="0.184918159923725" flag="0"/>
			<psa03 value="0.120580246836242" flag="0"/>
			<psa10 value="0.0544262098187305" flag="0"/>
			<psa30 value="0.0865023451654357" flag="0"/>
		</comp>
		<comp name="--.HNZ" depth="0.0">
			<acc value="0.0383088129998643" flag="0"/>
			<vel value="0.0904467032131217" flag="0"/>
			<psa03 value="0.0710058819031973" flag="0"/>
			<psa10 value="0.0494571403517052" flag="0"/>
			<psa30 value="0.0381073847988482" flag="0"/>
		</comp>
	</station>
</stationlist>
