<stationlist created="1641587244">
	<station code="RDI1" name="RDI1" netid="HI" source="ITSAK Strong Motion Network" insttype="" lat="36.4514" lon="28.224">
		<comp name=".HNE" depth="0.0">
			<acc value="0.11436801" flag="0"/>
			<vel value="0.568586" flag="0"/>
			<psa03 value="0.122593646134" flag="0"/>
			<psa10 value="0.271559243693" flag="0"/>
			<psa30 value="0.443297282155" flag="0"/>
		</comp>
		<comp name=".HNN" depth="0.0">
			<acc value="0.135403368" flag="0"/>
			<vel value="0.554454" flag="0"/>
			<psa03 value="0.135434659434" flag="0"/>
			<psa10 value="0.288717432509" flag="0"/>
			<psa30 value="0.414836764525" flag="0"/>
		</comp>
		<comp name=".HNZ" depth="0.0">
			<acc value="0.0675699" flag="0"/>
			<vel value="0.237527" flag="0"/>
			<psa03 value="0.0757485558047" flag="0"/>
			<psa10 value="0.161961866315" flag="0"/>
			<psa30 value="0.114964652484" flag="0"/>
		</comp>
	</station>
	<station code="ASTA" name="ASTA" netid="HL" source="National Observatory of Athens Seismic Network" insttype="" lat="36.54543" lon="26.3528">
		<comp name="00.HNE" depth="0.0">
			<acc value="0.018492396" flag="0"/>
			<vel value="0.126705" flag="0"/>
			<psa03 value="0.0434446826263" flag="0"/>
			<psa10 value="0.0341955736742" flag="0"/>
			<psa30 value="0.036526642639" flag="0"/>
		</comp>
		<comp name="00.HNN" depth="0.0">
			<acc value="0.031758924" flag="0"/>
			<vel value="0.158735" flag="0"/>
			<psa03 value="0.0511403421647" flag="0"/>
			<psa10 value="0.033072096866" flag="0"/>
			<psa30 value="0.0625294708594" flag="0"/>
		</comp>
		<comp name="00.HNZ" depth="0.0">
			<acc value="0.02688618" flag="0"/>
			<vel value="0.131064" flag="0"/>
			<psa03 value="0.044652722205" flag="0"/>
			<psa10 value="0.0326895509994" flag="0"/>
			<psa30 value="0.0489358936446" flag="0"/>
		</comp>
	</station>
	<station code="PRK" name="PRK" netid="HL" source="National Observatory of Athens Seismic Network" insttype="" lat="39.24565" lon="26.26499">
		<comp name=".HNE" depth="0.0">
			<acc value="0.04622487" flag="0"/>
			<vel value="0.177818" flag="0"/>
			<psa03 value="0.079238447921" flag="0"/>
			<psa10 value="0.10569138274" flag="0"/>
			<psa30 value="0.0680949539406" flag="0"/>
		</comp>
		<comp name=".HNN" depth="0.0">
			<acc value="0.063850368" flag="0"/>
			<vel value="0.280406" flag="0"/>
			<psa03 value="0.0799990654335" flag="0"/>
			<psa10 value="0.111489972718" flag="0"/>
			<psa30 value="0.0987603675126" flag="0"/>
		</comp>
		<comp name=".HNZ" depth="0.0">
			<acc value="0.035108196" flag="0"/>
			<vel value="0.168185" flag="0"/>
			<psa03 value="0.0650999106296" flag="0"/>
			<psa10 value="0.0499886777663" flag="0"/>
			<psa30 value="0.0669155493742" flag="0"/>
		</comp>
	</station>
	<station code="RODB" name="RODB" netid="HL" source="National Observatory of Athens Seismic Network" insttype="" lat="36.4471" lon="28.22116">
		<comp name="00.HNE" depth="0.0">
			<acc value="0.113039052" flag="0"/>
			<vel value="0.637944" flag="0"/>
			<psa03 value="0.122414677308" flag="0"/>
			<psa10 value="0.186843454838" flag="0"/>
			<psa30 value="0.339616166758" flag="0"/>
		</comp>
		<comp name="00.HNN" depth="0.0">
			<acc value="0.156738708" flag="0"/>
			<vel value="0.700671" flag="0"/>
			<psa03 value="0.161564108099" flag="0"/>
			<psa10 value="0.225971856792" flag="0"/>
			<psa30 value="0.438895543867" flag="0"/>
		</comp>
		<comp name="00.HNZ" depth="0.0">
			<acc value="0.07291113" flag="0"/>
			<vel value="0.267254" flag="0"/>
			<psa03 value="0.0735114454738" flag="0"/>
			<psa10 value="0.132578316963" flag="0"/>
			<psa30 value="0.117901530926" flag="0"/>
		</comp>
	</station>
	<station code="THRA" name="THRA" netid="HL" source="National Observatory of Athens Seismic Network" insttype="" lat="36.41502" lon="25.43244">
		<comp name="00.HNE" depth="0.0">
			<acc value="0.115777854" flag="0"/>
			<vel value="0.539176" flag="0"/>
			<psa03 value="0.241607915739" flag="0"/>
			<psa10 value="0.255645335643" flag="0"/>
			<psa30 value="0.269038915194" flag="0"/>
		</comp>
		<comp name="00.HNN" depth="0.0">
			<acc value="0.079013994" flag="0"/>
			<vel value="0.378797" flag="0"/>
			<psa03 value="0.200624054476" flag="0"/>
			<psa10 value="0.138368853344" flag="0"/>
			<psa30 value="0.228545428516" flag="0"/>
		</comp>
		<comp name="00.HNZ" depth="0.0">
			<acc value="0.05107497" flag="0"/>
			<vel value="0.225699" flag="0"/>
			<psa03 value="0.135389917227" flag="0"/>
			<psa10 value="0.0647952162025" flag="0"/>
			<psa30 value="0.069977258573" flag="0"/>
		</comp>
	</station>
	<station code="TNSA" name="TNSA" netid="HL" source="National Observatory of Athens Seismic Network" insttype="" lat="37.53942" lon="25.1631">
		<comp name="00.HNE" depth="0.0">
			<acc value="0.027795306" flag="0"/>
			<vel value="0.111072" flag="0"/>
			<psa03 value="0.0544512654544" flag="0"/>
			<psa10 value="0.0315258062053" flag="0"/>
			<psa30 value="0.046707731755" flag="0"/>
		</comp>
		<comp name="00.HNN" depth="0.0">
			<acc value="0.02750736" flag="0"/>
			<vel value="0.138729" flag="0"/>
			<psa03 value="0.0629522847119" flag="0"/>
			<psa10 value="0.0340103409388" flag="0"/>
			<psa30 value="0.041684524218" flag="0"/>
		</comp>
		<comp name="00.HNZ" depth="0.0">
			<acc value="0.028045308" flag="0"/>
			<vel value="0.132943" flag="0"/>
			<psa03 value="0.0482320987345" flag="0"/>
			<psa10 value="0.0333137047818" flag="0"/>
			<psa30 value="0.0463927466204" flag="0"/>
		</comp>
	</station>
	<station code="AKS" name="AKS" netid="KO" source="Bogazici University Kandilli Observatory And Earthquake Research Institute (KOERI)" insttype="" lat="38.8785" lon="27.8129">
		<comp name=".HNE" depth="0.0">
			<acc value="0.073479576" flag="0"/>
			<vel value="0.239446" flag="0"/>
			<psa03 value="0.158655864668" flag="0"/>
			<psa10 value="0.0585697855736" flag="0"/>
			<psa30 value="0.0789453864676" flag="0"/>
		</comp>
		<comp name=".HNN" depth="0.0">
			<acc value="0.096180084" flag="0"/>
			<vel value="0.261457" flag="0"/>
			<psa03 value="0.226664018728" flag="0"/>
			<psa10 value="0.0574865767514" flag="0"/>
			<psa30 value="0.0657142211265" flag="0"/>
		</comp>
		<comp name=".HNZ" depth="0.0">
			<acc value="0.028085394" flag="0"/>
			<vel value="0.151333" flag="0"/>
			<psa03 value="0.0806701985327" flag="0"/>
			<psa10 value="0.0314815114207" flag="0"/>
			<psa30 value="0.0396308569342" flag="0"/>
		</comp>
	</station>
	<station code="EZNE" name="EZNE" netid="KO" source="Bogazici University Kandilli Observatory And Earthquake Research Institute (KOERI)" insttype="" lat="39.756" lon="26.3655">
		<comp name=".HNE" depth="0.0">
			<acc value="0.104843862" flag="0"/>
			<vel value="0.442851" flag="0"/>
			<psa03 value="0.136061050326" flag="0"/>
			<psa10 value="0.168666485977" flag="0"/>
			<psa30 value="0.222364292672" flag="0"/>
		</comp>
		<comp name=".HNN" depth="0.0">
			<acc value="0.110916942" flag="0"/>
			<vel value="0.621411" flag="0"/>
			<psa03 value="0.150199587618" flag="0"/>
			<psa10 value="0.213114288876" flag="0"/>
			<psa30 value="0.210019023022" flag="0"/>
		</comp>
		<comp name=".HNZ" depth="0.0">
			<acc value="0.063254892" flag="0"/>
			<vel value="0.31774" flag="0"/>
			<psa03 value="0.0750326804988" flag="0"/>
			<psa10 value="0.15509617471" flag="0"/>
			<psa30 value="0.140478895808" flag="0"/>
		</comp>
	</station>
	<station code="FOCM" name="FOCM" netid="KO" source="Bogazici University Kandilli Observatory And Earthquake Research Institute (KOERI)" insttype="" lat="38.7131" lon="26.7309">
		<comp name=".HNE" depth="0.0">
			<acc value="0.079350084" flag="0"/>
			<vel value="0.257909" flag="0"/>
			<psa03 value="0.250466872649" flag="0"/>
			<psa10 value="0.0591576981686" flag="0"/>
			<psa30 value="0.0796500762218" flag="0"/>
		</comp>
		<comp name=".HNN" depth="0.0">
			<acc value="0.11054964" flag="0"/>
			<vel value="0.219635" flag="0"/>
			<psa03 value="0.202369000534" flag="0"/>
			<psa10 value="0.0964539067615" flag="0"/>
			<psa30 value="0.0865708007416" flag="0"/>
		</comp>
		<comp name=".HNZ" depth="0.0">
			<acc value="0.07388217" flag="0"/>
			<vel value="0.133086" flag="0"/>
			<psa03 value="0.147470313014" flag="0"/>
			<psa10 value="0.0352224073161" flag="0"/>
			<psa30 value="0.0476790850607" flag="0"/>
		</comp>
	</station>
	<station code="GOMA" name="GOMA" netid="KO" source="Bogazici University Kandilli Observatory And Earthquake Research Institute (KOERI)" insttype="" lat="38.7077" lon="27.9175">
		<comp name=".HNE" depth="0.0">
			<acc value="0.100186644" flag="0"/>
			<vel value="0.174702" flag="0"/>
			<psa03 value="0.460889470375" flag="0"/>
			<psa10 value="0.0401471819986" flag="0"/>
			<psa30 value="0.0366098631433" flag="0"/>
		</comp>
		<comp name=".HNN" depth="0.0">
			<acc value="0.080275938" flag="0"/>
			<vel value="0.171497" flag="0"/>
			<psa03 value="0.229617004365" flag="0"/>
			<psa10 value="0.040650531823" flag="0"/>
			<psa30 value="0.0551277676185" flag="0"/>
		</comp>
		<comp name=".HNZ" depth="0.0">
			<acc value="0.06148407" flag="0"/>
			<vel value="0.099671" flag="0"/>
			<psa03 value="0.173197081819" flag="0"/>
			<psa10 value="0.0259084221644" flag="0"/>
			<psa30 value="0.0394151994983" flag="0"/>
		</comp>
	</station>
	<station code="GORD" name="GORD" netid="KO" source="Bogazici University Kandilli Observatory And Earthquake Research Institute (KOERI)" insttype="" lat="38.9088" lon="28.1769">
		<comp name=".HNE" depth="0.0">
			<acc value="0.287499138" flag="0"/>
			<vel value="0.738437" flag="0"/>
			<psa03 value="0.84397224344" flag="0"/>
			<psa10 value="0.372136592216" flag="0"/>
			<psa30 value="0.280742134179" flag="0"/>
		</comp>
		<comp name=".HNN" depth="0.0">
			<acc value="0.268091394" flag="0"/>
			<vel value="0.843985" flag="0"/>
			<psa03 value="0.386751634008" flag="0"/>
			<psa10 value="0.372108404626" flag="0"/>
			<psa30 value="0.417043450155" flag="0"/>
		</comp>
		<comp name=".HNZ" depth="0.0">
			<acc value="0.172908156" flag="0"/>
			<vel value="0.501295" flag="0"/>
			<psa03 value="0.483394800304" flag="0"/>
			<psa10 value="0.201621805684" flag="0"/>
			<psa30 value="0.24317389297" flag="0"/>
		</comp>
	</station>
	<station code="NAZL" name="NAZL" netid="KO" source="Bogazici University Kandilli Observatory And Earthquake Research Institute (KOERI)" insttype="" lat="37.9641" lon="28.2922">
		<comp name=".HNE" depth="0.0">
			<acc value="0.689071302" flag="0"/>
			<vel value="0.499424" flag="0"/>
			<psa03 value="1.41125868115" flag="0"/>
			<psa10 value="0.302537405289" flag="0"/>
			<psa30 value="0.215530815455" flag="0"/>
		</comp>
		<comp name=".HNN" depth="0.0">
			<acc value="0.520842906" flag="0"/>
			<vel value="0.524257" flag="0"/>
			<psa03 value="1.31358644411" flag="0"/>
			<psa10 value="0.278400774507" flag="0"/>
			<psa30 value="0.166640558861" flag="0"/>
		</comp>
		<comp name=".HNZ" depth="0.0">
			<acc value="0.333854058" flag="0"/>
			<vel value="0.540461" flag="0"/>
			<psa03 value="0.581872397071" flag="0"/>
			<psa10 value="0.183831409488" flag="0"/>
			<psa30 value="0.169945665664" flag="0"/>
		</comp>
	</station>
	<station code="SOMA" name="SOMA" netid="KO" source="Bogazici University Kandilli Observatory And Earthquake Research Institute (KOERI)" insttype="" lat="39.1564" lon="27.5341">
		<comp name=".HNE" depth="0.0">
			<acc value="0.38369952" flag="0"/>
			<vel value="0.87908" flag="0"/>
			<psa03 value="1.09667622642" flag="0"/>
			<psa10 value="0.361795773423" flag="0"/>
			<psa30 value="0.314166352212" flag="0"/>
		</comp>
		<comp name=".HNN" depth="0.0">
			<acc value="0.446876382" flag="0"/>
			<vel value="1.176622" flag="0"/>
			<psa03 value="1.20768164104" flag="0"/>
			<psa10 value="0.394324252478" flag="0"/>
			<psa30 value="0.342972279676" flag="0"/>
		</comp>
		<comp name=".HNZ" depth="0.0">
			<acc value="0.297529104" flag="0"/>
			<vel value="0.64697" flag="0"/>
			<psa03 value="0.719454682422" flag="0"/>
			<psa10 value="0.176059688199" flag="0"/>
			<psa30 value="0.166298280981" flag="0"/>
		</comp>
	</station>
	<station code="YKAV" name="YKAV" netid="KO" source="Bogazici University Kandilli Observatory And Earthquake Research Institute (KOERI)" insttype="" lat="37.1246" lon="27.2801">
		<comp name=".HNE" depth="0.0">
			<acc value="0.081829194" flag="0"/>
			<vel value="0.155098" flag="0"/>
			<psa03 value="0.212078059371" flag="0"/>
			<psa10 value="0.0595764852226" flag="0"/>
			<psa30 value="0.0615227712105" flag="0"/>
		</comp>
		<comp name=".HNN" depth="0.0">
			<acc value="0.066707796" flag="0"/>
			<vel value="0.194274" flag="0"/>
			<psa03 value="0.120580246836" flag="0"/>
			<psa10 value="0.0544262098187" flag="0"/>
			<psa30 value="0.0865023451654" flag="0"/>
		</comp>
		<comp name=".HNZ" depth="0.0">
			<acc value="0.038079456" flag="0"/>
			<vel value="0.090285" flag="0"/>
			<psa03 value="0.0710058819032" flag="0"/>
			<psa10 value="0.0494571403517" flag="0"/>
			<psa30 value="0.0381073847988" flag="0"/>
		</comp>
	</station>
</stationlist>
