<?xml version="1.0" encoding="UTF-8" standalone="yes"?>
<!DOCTYPE earthquake SYSTEM "stationlist.dtd">
<stationlist created="" xmlns="ch.ethz.sed.shakemap.usgs.xml">
  <station code="SNT1" name="SNT1" netid="HA" insttype="30" lat="36.4159" lon="25.4282">
    <comp name="--.HHE">
      <acc value="0.0734445868" flag="0"/>
      <vel value="0.0207407474" flag="0"/>
      <psa03 value="0.0961282072" flag="0"/>
      <psa10 value="0.0132217171" flag="0"/>
      <psa30 value="0.0013220007" flag="0"/>
    </comp>
    <comp name="--.HHZ">
      <acc value="0.0613057907" flag="0"/>
      <vel value="0.0161868601" flag="0"/>
      <psa03 value="0.0586321685" flag="0"/>
      <psa10 value="0.0055324657" flag="0"/>
      <psa30 value="0.0005179148" flag="0"/>
    </comp>
    <comp name="--.HHN">
      <acc value="0.0593763777" flag="0"/>
      <vel value="0.0213797499" flag="0"/>
      <psa03 value="0.0657878493" flag="0"/>
      <psa10 value="0.0179790632" flag="0"/>
      <psa30 value="0.0011857083" flag="0"/>
    </comp>
  </station>
  <station code="SAP3" name="SAP3" netid="HL" insttype="LE3D20_SMART24" lat="36.4356" lon="25.3454">
    <comp name="--.HHE">
      <acc value="0.2274784052" flag="0"/>
      <vel value="0.0818711488" flag="0"/>
      <psa03 value="0.4484566483" flag="0"/>
      <psa10 value="0.0464156127" flag="0"/>
      <psa30 value="0.0070135562" flag="0"/>
    </comp>
    <comp name="--.HHN">
      <acc value="0.2436300481" flag="0"/>
      <vel value="0.0762008351" flag="0"/>
      <psa03 value="0.3965730473" flag="0"/>
      <psa10 value="0.0375532265" flag="0"/>
      <psa30 value="0.0039654680" flag="0"/>
    </comp>
    <comp name="--.HHZ">
      <acc value="0.2374853936" flag="0"/>
      <vel value="0.0562390249" flag="0"/>
      <psa03 value="0.3051065152" flag="0"/>
      <psa10 value="0.0159469033" flag="0"/>
      <psa30 value="0.0014223145" flag="0"/>
    </comp>
  </station>
  <station code="THRA" name="THRA" netid="HL" insttype="CMG-5" lat="36.415" lon="25.4324">
    <comp name="00.HNE">
      <acc value="0.3813229974" flag="0"/>
      <vel value="0.0944929636" flag="0"/>
      <psa03 value="0.5998350996" flag="0"/>
      <psa10 value="0.0349320981" flag="0"/>
      <psa30 value="0.0027353635" flag="0"/>
    </comp>
    <comp name="00.HNN">
      <acc value="0.2155347092" flag="0"/>
      <vel value="0.0733337971" flag="0"/>
      <psa03 value="0.5637897775" flag="0"/>
      <psa10 value="0.0589451906" flag="0"/>
      <psa30 value="0.0025205879" flag="0"/>
    </comp>
    <comp name="00.HNZ">
      <acc value="0.2099425534" flag="0"/>
      <vel value="0.0585956259" flag="0"/>
      <psa03 value="0.2727050038" flag="0"/>
      <psa10 value="0.0155408222" flag="0"/>
      <psa30 value="0.0012232629" flag="0"/>
    </comp>
  </station>
  <station code="CMBO" name="CMBO" netid="HT" insttype="120P," lat="36.4709" lon="25.4056">
    <comp name="--.HHE">
      <acc value="0.3107646304" flag="0"/>
      <vel value="0.0928561024" flag="0"/>
      <psa03 value="0.4639316739" flag="0"/>
      <psa10 value="0.0433921524" flag="0"/>
      <psa30 value="0.0031799712" flag="0"/>
    </comp>
    <comp name="--.HHN">
      <acc value="0.3456255714" flag="0"/>
      <vel value="0.1302354885" flag="0"/>
      <psa03 value="0.5460906599" flag="0"/>
      <psa10 value="0.0646424700" flag="0"/>
      <psa30 value="0.0043060947" flag="0"/>
    </comp>
  </station>
</stationlist>
