<?xml version="1.0" encoding="UTF-8" standalone="yes"?>
<!DOCTYPE earthquake SYSTEM "stationlist.dtd">
<stationlist created="" xmlns="ch.ethz.sed.shakemap.usgs.xml">
  <station code="ARPRA" name="ARPRA" netid="KO" insttype="CMG-5T" lat="39.0929" lon="38.3356">
    <comp name="--.HNE">
      <acc value="0.0179216054" flag="0"/>
      <vel value="0.0073476682" flag="0"/>
      <psa03 value="0.0523058693" flag="0"/>
      <psa10 value="0.0114218116" flag="0"/>
      <psa30 value="0.0004891717" flag="0"/>
    </comp>
    <comp name="--.HNN">
      <acc value="0.0149483177" flag="0"/>
      <vel value="0.0079127439" flag="0"/>
      <psa03 value="0.0341684410" flag="0"/>
      <psa10 value="0.0093407587" flag="0"/>
      <psa30 value="0.0011103531" flag="0"/>
    </comp>
    <comp name="--.HNZ">
      <acc value="0.0078579679" flag="0"/>
      <vel value="0.0053242753" flag="0"/>
      <psa03 value="0.0122764584" flag="0"/>
      <psa10 value="0.0092263947" flag="0"/>
      <psa30 value="0.0006839675" flag="0"/>
    </comp>
  </station>
  <station code="DARE" name="DARE" netid="KO" insttype="CMG-3ESP" lat="38.5712" lon="37.4832">
    <comp name="--.HHE">
      <acc value="0.2201893640" flag="0"/>
      <vel value="0.0586635744" flag="0"/>
      <psa03 value="0.2090025545" flag="0"/>
      <psa10 value="0.0192059160" flag="0"/>
      <psa30 value="0.0019015084" flag="0"/>
    </comp>
    <comp name="--.HHZ">
      <acc value="0.1491767726" flag="0"/>
      <vel value="0.0292462905" flag="0"/>
      <psa03 value="0.0976646259" flag="0"/>
      <psa10 value="0.0218779164" flag="0"/>
      <psa30 value="0.0016292986" flag="0"/>
    </comp>
    <comp name="--.HHN">
      <acc value="0.1689128585" flag="0"/>
      <vel value="0.0369292108" flag="0"/>
      <psa03 value="0.1587939044" flag="0"/>
      <psa10 value="0.0235497548" flag="0"/>
      <psa30 value="0.0014890478" flag="0"/>
    </comp>
  </station>
  <station code="SARI" name="SARI" netid="KO" insttype="CMG-3T" lat="38.4072" lon="36.4181">
    <comp name="--.HHE">
      <acc value="0.0209781853" flag="0"/>
      <vel value="0.0043714653" flag="0"/>
      <psa03 value="0.0263574175" flag="0"/>
      <psa10 value="0.0040623140" flag="0"/>
      <psa30 value="0.0002365077" flag="0"/>
    </comp>
    <comp name="--.HHN">
      <acc value="0.0191064458" flag="0"/>
      <vel value="0.0062569149" flag="0"/>
      <psa03 value="0.0241475675" flag="0"/>
      <psa10 value="0.0045164302" flag="0"/>
      <psa30 value="0.0003434640" flag="0"/>
    </comp>
    <comp name="--.HHZ">
      <acc value="0.0139873120" flag="0"/>
      <vel value="0.0051260411" flag="0"/>
      <psa03 value="0.0164910426" flag="0"/>
      <psa10 value="0.0030988069" flag="0"/>
      <psa30 value="0.0003483089" flag="0"/>
    </comp>
  </station>
</stationlist>
