<?xml version="1.0" encoding="UTF-8" standalone="yes"?>
<!DOCTYPE earthquake SYSTEM "stationlist.dtd">
<stationlist created="" xmlns="ch.ethz.sed.shakemap.usgs.xml">
  <station code="APMY" name="APMY" netid="KO" insttype="30s," lat="37.4718" lon="29.3018">
    <comp name="--.HHZ">
      <acc value="0.0559594461" flag="0"/>
      <vel value="0.0182373274" flag="0"/>
      <psa03 value="0.1065509009" flag="0"/>
      <psa10 value="0.0122634893" flag="0"/>
      <psa30 value="0.0011570069" flag="0"/>
    </comp>
    <comp name="--.HHN">
      <acc value="0.1005892975" flag="0"/>
      <vel value="0.0290772440" flag="0"/>
      <psa03 value="0.1534057285" flag="0"/>
      <psa10 value="0.0172528380" flag="0"/>
      <psa30 value="0.0010977395" flag="0"/>
    </comp>
    <comp name="--.HHE">
      <acc value="0.0965404310" flag="0"/>
      <vel value="0.0281801487" flag="0"/>
      <psa03 value="0.1084686663" flag="0"/>
      <psa10 value="0.0192884319" flag="0"/>
      <psa30 value="0.0016163274" flag="0"/>
    </comp>
  </station>
  <station code="BABD" name="BABD" netid="KO" insttype="30s," lat="37.802" lon="28.8534">
    <comp name="--.HHE">
      <acc value="0.1635677432" flag="0"/>
      <vel value="0.0194277930" flag="0"/>
      <psa03 value="0.0843794029" flag="0"/>
      <psa10 value="0.0112016484" flag="0"/>
      <psa30 value="0.0012465931" flag="0"/>
    </comp>
    <comp name="--.HHZ">
      <acc value="0.1163258461" flag="0"/>
      <vel value="0.0199202853" flag="0"/>
      <psa03 value="0.0680757063" flag="0"/>
      <psa10 value="0.0056886740" flag="0"/>
      <psa30 value="0.0006438899" flag="0"/>
    </comp>
    <comp name="--.HHN">
      <acc value="0.1815352438" flag="0"/>
      <vel value="0.0296973261" flag="0"/>
      <psa03 value="0.1162720567" flag="0"/>
      <psa10 value="0.0121619747" flag="0"/>
      <psa30 value="0.0007345959" flag="0"/>
    </comp>
  </station>
  <station code="BAKL" name="BAKL" netid="KO" insttype="30s," lat="37.9793" lon="29.6135">
    <comp name="--.HHN">
      <acc value="0.0480614062" flag="0"/>
      <vel value="0.0189716095" flag="0"/>
      <psa03 value="0.1060306559" flag="0"/>
      <psa10 value="0.0250862058" flag="0"/>
      <psa30 value="0.0015467693" flag="0"/>
    </comp>
    <comp name="--.HHZ">
      <acc value="0.0341918615" flag="0"/>
      <vel value="0.0103184403" flag="0"/>
      <psa03 value="0.0543731180" flag="0"/>
      <psa10 value="0.0140641169" flag="0"/>
      <psa30 value="0.0012082024" flag="0"/>
    </comp>
    <comp name="--.HHE">
      <acc value="0.0755733560" flag="0"/>
      <vel value="0.0255823186" flag="0"/>
      <psa03 value="0.1373919628" flag="0"/>
      <psa10 value="0.0222793619" flag="0"/>
      <psa30 value="0.0013920540" flag="0"/>
    </comp>
  </station>
  <station code="SERH" name="SERH" netid="KO" insttype="30s," lat="37.582" lon="29.2588">
    <comp name="--.HHE">
      <acc value="0.4406108299" flag="0"/>
      <vel value="0.0821935577" flag="0"/>
      <psa03 value="0.3436386503" flag="0"/>
      <psa10 value="0.0252855477" flag="0"/>
      <psa30 value="0.0017327931" flag="0"/>
    </comp>
    <comp name="--.HHN">
      <acc value="0.4441805205" flag="0"/>
      <vel value="0.1146548078" flag="0"/>
      <psa03 value="0.4242693379" flag="0"/>
      <psa10 value="0.0227357627" flag="0"/>
      <psa30 value="0.0024311562" flag="0"/>
    </comp>
    <comp name="--.HHZ">
      <acc value="0.2147681644" flag="0"/>
      <vel value="0.0478577215" flag="0"/>
      <psa03 value="0.1554430265" flag="0"/>
      <psa10 value="0.0173104129" flag="0"/>
      <psa30 value="0.0019857997" flag="0"/>
    </comp>
  </station>
</stationlist>
