<?xml version="1.0" encoding="UTF-8" standalone="yes"?>
<!DOCTYPE earthquake SYSTEM "stationlist.dtd">
<stationlist created="" xmlns="ch.ethz.sed.shakemap.usgs.xml">
  <station code="TAHT" name="TAHT" netid="KO" insttype="CMG-3ESPC" lat="36.3755" lon="36.1855">
    <comp name="--.HHE">
      <acc value="0.1882049507" flag="0"/>
      <vel value="0.0408134739" flag="0"/>
      <psa03 value="0.2176649020" flag="0"/>
      <psa10 value="0.0226307455" flag="0"/>
      <psa30 value="0.0026042261" flag="0"/>
    </comp>
    <comp name="--.HHN">
      <acc value="0.1940874834" flag="0"/>
      <vel value="0.0366469443" flag="0"/>
      <psa03 value="0.1555022386" flag="0"/>
      <psa10 value="0.0312677659" flag="0"/>
      <psa30 value="0.0020503787" flag="0"/>
    </comp>
    <comp name="--.HHZ">
      <acc value="0.1243997719" flag="0"/>
      <vel value="0.0263726209" flag="0"/>
      <psa03 value="0.0870022726" flag="0"/>
      <psa10 value="0.0282558799" flag="0"/>
      <psa30 value="0.0021230820" flag="0"/>
    </comp>
  </station>
</stationlist>
