<stationlist xmlns:esm="https://esm-db.eu/esmws/shakemap/1/" created="1783734826">
	<station code="KOGS" name="KOGS" netid="SL" source="Seismic Network of the Republic of Slovenia (SNRS)" insttype="" lat="46.4481" lon="16.2504" esm:processing="manual (Paolucci et al 2011)" esm:quality="best">
		<comp name="--.HNE" depth="0.0">
			<acc value="0.00390002628073341" flag="0"/>
			<vel value="0.00292244884562315" flag="0"/>
			<psa03 value="0.0106259890758766" flag="0"/>
			<psa10 value="0.00393263239259565" flag="0"/>
			<psa30 value="0.0008357480725415" flag="0"/>
		</comp>
		<comp name="--.HNN" depth="0.0">
			<acc value="0.00424686820662083" flag="0"/>
			<vel value="0.00333673463038175" flag="0"/>
			<psa03 value="0.0138307599699702" flag="0"/>
			<psa10 value="0.00415948632680545" flag="0"/>
			<psa30 value="0.000376908041224629" flag="0"/>
		</comp>
		<comp name="--.HNZ" depth="0.0">
			<acc value="0.00468874673371391" flag="0"/>
			<vel value="0.00198479389685232" flag="0"/>
			<psa03 value="0.00951238731043327" flag="0"/>
			<psa10 value="0.00188409153056726" flag="0"/>
			<psa30 value="0.000246819709969457" flag="0"/>
		</comp>
	</station>
	<station code="MK09" name="MK09" netid="CR" source="Croatian Seismograph Network (CSN)" insttype="" lat="46.389518" lon="16.432027" esm:processing="automatic (Paolucci et al 2011)" esm:quality="bad">
		<comp name="--.HNE" depth="0.0">
			<acc value="0" flag="1"/>
			<vel value="0" flag="1"/>
			<psa03 value="0" flag="1"/>
			<psa10 value="0" flag="1"/>
			<psa30 value="0" flag="1"/>
		</comp>
		<comp name="--.HNN" depth="0.0">
			<acc value="0" flag="1"/>
			<vel value="0" flag="1"/>
			<psa03 value="0" flag="1"/>
			<psa10 value="0" flag="1"/>
			<psa30 value="0" flag="1"/>
		</comp>
		<comp name="--.HNZ" depth="0.0">
			<acc value="0" flag="1"/>
			<vel value="0" flag="1"/>
			<psa03 value="0" flag="1"/>
			<psa10 value="0" flag="1"/>
			<psa30 value="0" flag="1"/>
		</comp>
	</station>
	<station code="PS01" name="PS01" netid="CR" source="Croatian Seismograph Network (CSN)" insttype="" lat="46.372282" lon="16.086333" esm:processing="automatic (Paolucci et al 2011)" esm:quality="bad">
		<comp name="--.HNE" depth="0.0">
			<acc value="0" flag="1"/>
			<vel value="0" flag="1"/>
			<psa03 value="0" flag="1"/>
			<psa10 value="0" flag="1"/>
			<psa30 value="0" flag="1"/>
		</comp>
		<comp name="--.HNN" depth="0.0">
			<acc value="0" flag="1"/>
			<vel value="0" flag="1"/>
			<psa03 value="0" flag="1"/>
			<psa10 value="0" flag="1"/>
			<psa30 value="0" flag="1"/>
		</comp>
		<comp name="--.HNZ" depth="0.0">
			<acc value="0" flag="1"/>
			<vel value="0" flag="1"/>
			<psa03 value="0" flag="1"/>
			<psa10 value="0" flag="1"/>
			<psa30 value="0" flag="1"/>
		</comp>
	</station>
</stationlist>
