<?xml version="1.0" encoding="UTF-8" standalone="yes"?>
<!DOCTYPE earthquake SYSTEM "stationlist.dtd">
<stationlist created="" xmlns="ch.ethz.sed.shakemap.usgs.xml">
  <station code="JAVC" name="JAVC" netid="CZ" insttype="" commtype="DIG" lat="48.8591" lon="17.6707">
    <comp name="--.HHZ">
      <acc value="0.0145295396" flag="0"/>
      <vel value="0.0089286101" flag="0"/>
      <psa03 value="0.0462989909" flag="0"/>
      <psa10 value="0.0095660188" flag="0"/>
      <psa30 value="0.0008651642" flag="0"/>
    </comp>
    <comp name="--.HHN">
      <acc value="0.0128760350" flag="0"/>
      <vel value="0.0100872561" flag="0"/>
      <psa03 value="0.0439968881" flag="0"/>
      <psa10 value="0.0140620695" flag="0"/>
      <psa30 value="0.0009458238" flag="0"/>
    </comp>
    <comp name="--.HHE">
      <acc value="0.0126603626" flag="0"/>
      <vel value="0.0120615786" flag="0"/>
      <psa03 value="0.0263960963" flag="0"/>
      <psa10 value="0.0126832037" flag="0"/>
      <psa30 value="0.0013943390" flag="0"/>
    </comp>
  </station>
  <station code="CSBH" name="CSBH" netid="HU" insttype="" commtype="DIG" lat="47.3578" lon="18.3227">
    <comp name="--.HHE">
      <acc value="0.0239321210" flag="0"/>
      <vel value="0.0166425171" flag="0"/>
      <psa03 value="0.0392185457" flag="0"/>
      <psa10 value="0.0173965941" flag="0"/>
      <psa30 value="0.0010365607" flag="0"/>
    </comp>
    <comp name="--.HHN">
      <acc value="0.0216974250" flag="0"/>
      <vel value="0.0106290371" flag="0"/>
      <psa03 value="0.0411619139" flag="0"/>
      <psa10 value="0.0074916933" flag="0"/>
      <psa30 value="0.0006774235" flag="0"/>
    </comp>
    <comp name="--.HHZ">
      <acc value="0.0143241002" flag="0"/>
      <vel value="0.0087951118" flag="0"/>
      <psa03 value="0.0464225285" flag="0"/>
      <psa10 value="0.0078490062" flag="0"/>
      <psa30 value="0.0005796557" flag="0"/>
    </comp>
  </station>
  <station code="EGYH" name="EGYH" netid="HU" insttype="" commtype="DIG" lat="47.4162" lon="17.3317">
    <comp name="--.HHZ">
      <acc value="0.0399836927" flag="0"/>
      <vel value="0.0219802541" flag="0"/>
      <psa03 value="0.1201730959" flag="0"/>
      <psa10 value="0.0175506576" flag="0"/>
      <psa30 value="0.0010626870" flag="0"/>
    </comp>
    <comp name="--.HHN">
      <acc value="0.0424239473" flag="0"/>
      <vel value="0.0268587944" flag="0"/>
      <psa03 value="0.1832226848" flag="0"/>
      <psa10 value="0.0348338655" flag="0"/>
      <psa30 value="0.0025240231" flag="0"/>
    </comp>
    <comp name="--.HHE">
      <acc value="0.0645314443" flag="0"/>
      <vel value="0.0555610609" flag="0"/>
      <psa03 value="0.1766788092" flag="0"/>
      <psa10 value="0.0620722077" flag="0"/>
      <psa30 value="0.0046485552" flag="0"/>
    </comp>
  </station>
  <station code="MPLH" name="MPLH" netid="HU" insttype="" commtype="DIG" lat="47.1712" lon="17.5348">
    <comp name="--.HHZ">
      <acc value="0.0211728651" flag="0"/>
      <vel value="0.0061502880" flag="0"/>
      <psa03 value="0.0397979393" flag="0"/>
      <psa10 value="0.0065438261" flag="0"/>
      <psa30 value="0.0005898634" flag="0"/>
    </comp>
    <comp name="--.HHN">
      <acc value="0.0307018632" flag="0"/>
      <vel value="0.0184394985" flag="0"/>
      <psa03 value="0.1351503366" flag="0"/>
      <psa10 value="0.0189264630" flag="0"/>
      <psa30 value="0.0012620714" flag="0"/>
    </comp>
    <comp name="--.HHE">
      <acc value="0.0281737126" flag="0"/>
      <vel value="0.0215144539" flag="0"/>
      <psa03 value="0.0774377035" flag="0"/>
      <psa10 value="0.0121152177" flag="0"/>
      <psa30 value="0.0012917256" flag="0"/>
    </comp>
  </station>
  <station code="SOP" name="SOP" netid="HU" insttype="" commtype="DIG" lat="47.6807" lon="16.5567">
    <comp name="--.HHN">
      <acc value="0.0184267334" flag="0"/>
      <vel value="0.0094458948" flag="0"/>
      <psa03 value="0.0315305246" flag="0"/>
      <psa10 value="0.0073641243" flag="0"/>
      <psa30 value="0.0003750725" flag="0"/>
    </comp>
    <comp name="--.HHZ">
      <acc value="0.0195090616" flag="0"/>
      <vel value="0.0078428327" flag="0"/>
      <psa03 value="0.0277545489" flag="0"/>
      <psa10 value="0.0057022258" flag="0"/>
      <psa30 value="0.0002944974" flag="0"/>
    </comp>
    <comp name="--.HHE">
      <acc value="0.0225211940" flag="0"/>
      <vel value="0.0094046968" flag="0"/>
      <psa03 value="0.0413768515" flag="0"/>
      <psa10 value="0.0106197654" flag="0"/>
      <psa30 value="0.0005089974" flag="0"/>
    </comp>
  </station>
  <station code="CSNA" name="CSNA" netid="OE" insttype="STS-2" commtype="DIG" lat="47.9282" lon="15.8588">
    <comp name="--.HHZ">
      <acc value="0.0172239936" flag="0"/>
      <vel value="0.0137353422" flag="0"/>
      <psa03 value="0.0301415973" flag="0"/>
      <psa10 value="0.0197659274" flag="0"/>
      <psa30 value="0.0009607718" flag="0"/>
    </comp>
    <comp name="--.HHN">
      <acc value="0.0270248928" flag="0"/>
      <vel value="0.0180642133" flag="0"/>
      <psa03 value="0.0633698056" flag="0"/>
      <psa10 value="0.0198323748" flag="0"/>
      <psa30 value="0.0014757759" flag="0"/>
    </comp>
    <comp name="--.HHE">
      <acc value="0.0163489512" flag="0"/>
      <vel value="0.0108124779" flag="0"/>
      <psa03 value="0.0387884271" flag="0"/>
      <psa10 value="0.0082618664" flag="0"/>
      <psa30 value="0.0005609069" flag="0"/>
    </comp>
  </station>
  <station code="VIE" name="VIE" netid="OE" insttype="STS-2" commtype="DIG" lat="48.2483" lon="16.3617">
    <comp name="--.HHN">
      <acc value="0.0388895652" flag="0"/>
      <vel value="0.0252978082" flag="0"/>
      <psa03 value="0.1144307670" flag="0"/>
      <psa10 value="0.0329700799" flag="0"/>
      <psa30 value="0.0022467371" flag="0"/>
    </comp>
    <comp name="--.HHZ">
      <acc value="0.0264544725" flag="0"/>
      <vel value="0.0168120398" flag="0"/>
      <psa03 value="0.0685084416" flag="0"/>
      <psa10 value="0.0198050228" flag="0"/>
      <psa30 value="0.0010207743" flag="0"/>
    </comp>
    <comp name="--.HHE">
      <acc value="0.0457687875" flag="0"/>
      <vel value="0.0318495118" flag="0"/>
      <psa03 value="0.1179211120" flag="0"/>
      <psa10 value="0.0334999544" flag="0"/>
      <psa30 value="0.0038253387" flag="0"/>
    </comp>
  </station>
</stationlist>
