<stationlist created="1775808374">
	<station code="MK09" name="MK09" netid="CR" source="Croatian Seismograph Network (CSN)" insttype="" lat="46.389518" lon="16.432027">
		<comp name="--.HNE" depth="0.0">
			<acc value="0.00571469579672648" flag="0"/>
			<vel value="0.00533464521121183" flag="0"/>
			<psa03 value="0.0124459963611771" flag="0"/>
			<psa10 value="0.0123139660523172" flag="0"/>
			<psa30 value="0.00145295489696452" flag="0"/>
		</comp>
		<comp name="--.HNN" depth="0.0">
			<acc value="0.00574672731573989" flag="0"/>
			<vel value="0.00494560312446607" flag="0"/>
			<psa03 value="0.019352539823286" flag="0"/>
			<psa10 value="0.00581926237257272" flag="0"/>
			<psa30 value="0.000908198601200122" flag="0"/>
		</comp>
		<comp name="--.HNZ" depth="0.0">
			<acc value="0.00271245889646598" flag="0"/>
			<vel value="0.00193581740981296" flag="0"/>
			<psa03 value="0.00881487625999939" flag="0"/>
			<psa10 value="0.0037053303036978" flag="0"/>
			<psa30 value="0.000507165315963144" flag="0"/>
		</comp>
	</station>
	<station code="PS01" name="PS01" netid="CR" source="Croatian Seismograph Network (CSN)" insttype="" lat="46.372282" lon="16.086333">
		<comp name="--.HNE" depth="0.0">
			<acc value="0.02687052365811" flag="0"/>
			<vel value="0.00259127329231836" flag="0"/>
			<psa03 value="0.00969243699825812" flag="0"/>
			<psa10 value="0.00392338545190621" flag="0"/>
			<psa30 value="0.000457826995458217" flag="0"/>
		</comp>
		<comp name="--.HNN" depth="0.0">
			<acc value="0.0459677120965179" flag="0"/>
			<vel value="0.00260650088846813" flag="0"/>
			<psa03 value="0.0103969888796958" flag="0"/>
			<psa10 value="0.00241616880932568" flag="0"/>
			<psa30 value="0.00063221016207051" flag="0"/>
		</comp>
		<comp name="--.HNZ" depth="0.0">
			<acc value="0.0213153429222718" flag="0"/>
			<vel value="0.00246655710652883" flag="0"/>
			<psa03 value="0.00701045399150475" flag="0"/>
			<psa10 value="0.00413500845526659" flag="0"/>
			<psa30 value="0.000949250799873477" flag="0"/>
		</comp>
	</station>
	<station code="KOGS" name="KOGS" netid="SL" source="Seismic Network of the Republic of Slovenia (SNRS)" insttype="" lat="46.4481" lon="16.2504">
		<comp name="--.HNE" depth="0.0">
			<acc value="0.00389189438664699" flag="0"/>
			<vel value="0.00292248988338897" flag="0"/>
			<psa03 value="0.0106259871226222" flag="0"/>
			<psa10 value="0.00393252879198262" flag="0"/>
			<psa30 value="0.000835622751739612" flag="0"/>
		</comp>
		<comp name="--.HNN" depth="0.0">
			<acc value="0.00424532852697344" flag="0"/>
			<vel value="0.00333687369201509" flag="0"/>
			<psa03 value="0.0138307834090229" flag="0"/>
			<psa10 value="0.00415940569646408" flag="0"/>
			<psa30 value="0.000376856084657761" flag="0"/>
		</comp>
		<comp name="--.HNZ" depth="0.0">
			<acc value="0.00469888660727891" flag="0"/>
			<vel value="0.00198436264664052" flag="0"/>
			<psa03 value="0.00951239837887484" flag="0"/>
			<psa10 value="0.00188405133259184" flag="0"/>
			<psa30 value="0.000246773821512905" flag="0"/>
		</comp>
	</station>
</stationlist>
