<?xml version="1.0" encoding="UTF-8" standalone="yes"?>
<!DOCTYPE earthquake SYSTEM "stationlist.dtd">
<stationlist created="" xmlns="ch.ethz.sed.shakemap.usgs.xml">
  <station code="JAVC" name="JAVC" netid="CZ" insttype="" commtype="DIG" lat="48.8591" lon="17.6707">
    <comp name="--.HHE">
      <acc value="0.0126603627" flag="0"/>
      <vel value="0.0120615798" flag="0"/>
      <psa03 value="0.0263960963" flag="0"/>
      <psa10 value="0.0126832037" flag="0"/>
      <psa30 value="0.0013943459" flag="0"/>
    </comp>
    <comp name="--.HHZ">
      <acc value="0.0145295397" flag="0"/>
      <vel value="0.0089286102" flag="0"/>
      <psa03 value="0.0462989909" flag="0"/>
      <psa10 value="0.0095660188" flag="0"/>
      <psa30 value="0.0008651349" flag="0"/>
    </comp>
    <comp name="--.HHN">
      <acc value="0.0128760355" flag="0"/>
      <vel value="0.0100872546" flag="0"/>
      <psa03 value="0.0439968881" flag="0"/>
      <psa10 value="0.0140620695" flag="0"/>
      <psa30 value="0.0009458167" flag="0"/>
    </comp>
  </station>
  <station code="KRUC" name="KRUC" netid="CZ" insttype="" commtype="DIG" lat="49.0619" lon="16.3952">
    <comp name="--.HHN">
      <acc value="0.0071070059" flag="0"/>
      <vel value="0.0028669467" flag="0"/>
      <psa03 value="0.0142120019" flag="0"/>
      <psa10 value="0.0026858536" flag="0"/>
      <psa30 value="0.0002255065" flag="0"/>
    </comp>
    <comp name="--.HHE">
      <acc value="0.0068296590" flag="0"/>
      <vel value="0.0036419567" flag="0"/>
      <psa03 value="0.0234178391" flag="0"/>
      <psa10 value="0.0042309683" flag="0"/>
      <psa30 value="0.0004169598" flag="0"/>
    </comp>
    <comp name="--.HHZ">
      <acc value="0.0073802267" flag="0"/>
      <vel value="0.0030873522" flag="0"/>
      <psa03 value="0.0156259892" flag="0"/>
      <psa10 value="0.0025627773" flag="0"/>
      <psa30 value="0.0001430381" flag="0"/>
    </comp>
  </station>
  <station code="BUD" name="BUD" netid="HU" insttype="" commtype="DIG" lat="47.4831" lon="19.0201">
    <comp name="--.HHZ">
      <acc value="0.0077065517" flag="0"/>
      <vel value="0.0059343578" flag="0"/>
      <psa03 value="0.0192614268" flag="0"/>
      <psa10 value="0.0082421157" flag="0"/>
      <psa30 value="0.0005705871" flag="0"/>
    </comp>
    <comp name="--.HHE">
      <acc value="0.0130408282" flag="0"/>
      <vel value="0.0137756685" flag="0"/>
      <psa03 value="0.0327461383" flag="0"/>
      <psa10 value="0.0224083788" flag="0"/>
      <psa30 value="0.0010247204" flag="0"/>
    </comp>
    <comp name="--.HHN">
      <acc value="0.0103591076" flag="0"/>
      <vel value="0.0087745101" flag="0"/>
      <psa03 value="0.0261310631" flag="0"/>
      <psa10 value="0.0145434106" flag="0"/>
      <psa30 value="0.0014256340" flag="0"/>
    </comp>
  </station>
  <station code="CSBH" name="CSBH" netid="HU" insttype="" commtype="DIG" lat="47.3578" lon="18.3227">
    <comp name="--.HHN">
      <acc value="0.0216974233" flag="0"/>
      <vel value="0.0106290374" flag="0"/>
      <psa03 value="0.0411619139" flag="0"/>
      <psa10 value="0.0074916933" flag="0"/>
      <psa30 value="0.0006773994" flag="0"/>
    </comp>
    <comp name="--.HHE">
      <acc value="0.0239321222" flag="0"/>
      <vel value="0.0166425179" flag="0"/>
      <psa03 value="0.0392185457" flag="0"/>
      <psa10 value="0.0173965941" flag="0"/>
      <psa30 value="0.0010365831" flag="0"/>
    </comp>
    <comp name="--.HHZ">
      <acc value="0.0143240970" flag="0"/>
      <vel value="0.0087951133" flag="0"/>
      <psa03 value="0.0464225285" flag="0"/>
      <psa10 value="0.0078490062" flag="0"/>
      <psa30 value="0.0005796728" flag="0"/>
    </comp>
  </station>
  <station code="EGYH" name="EGYH" netid="HU" insttype="" commtype="DIG" lat="47.4162" lon="17.3317">
    <comp name="--.HHN">
      <acc value="0.0424239482" flag="0"/>
      <vel value="0.0268587917" flag="0"/>
      <psa03 value="0.1832226848" flag="0"/>
      <psa10 value="0.0348338655" flag="0"/>
      <psa30 value="0.0025240747" flag="0"/>
    </comp>
    <comp name="--.HHE">
      <acc value="0.0645314439" flag="0"/>
      <vel value="0.0555610637" flag="0"/>
      <psa03 value="0.1766788092" flag="0"/>
      <psa10 value="0.0620722077" flag="0"/>
      <psa30 value="0.0046484240" flag="0"/>
    </comp>
    <comp name="--.HHZ">
      <acc value="0.0399836934" flag="0"/>
      <vel value="0.0219802529" flag="0"/>
      <psa03 value="0.1201730959" flag="0"/>
      <psa10 value="0.0175506576" flag="0"/>
      <psa30 value="0.0010627133" flag="0"/>
    </comp>
  </station>
  <station code="MPLH" name="MPLH" netid="HU" insttype="" commtype="DIG" lat="47.1712" lon="17.5348">
    <comp name="--.HHN">
      <acc value="0.0307018631" flag="0"/>
      <vel value="0.0184394982" flag="0"/>
      <psa03 value="0.1351503366" flag="0"/>
      <psa10 value="0.0189264630" flag="0"/>
      <psa30 value="0.0012621097" flag="0"/>
    </comp>
    <comp name="--.HHE">
      <acc value="0.0281737124" flag="0"/>
      <vel value="0.0215144538" flag="0"/>
      <psa03 value="0.0774377035" flag="0"/>
      <psa10 value="0.0121152177" flag="0"/>
      <psa30 value="0.0012917277" flag="0"/>
    </comp>
    <comp name="--.HHZ">
      <acc value="0.0211728643" flag="0"/>
      <vel value="0.0061502874" flag="0"/>
      <psa03 value="0.0397979393" flag="0"/>
      <psa10 value="0.0065438261" flag="0"/>
      <psa30 value="0.0005898704" flag="0"/>
    </comp>
  </station>
  <station code="SOP" name="SOP" netid="HU" insttype="" commtype="DIG" lat="47.6807" lon="16.5567">
    <comp name="--.HHE">
      <acc value="0.0225211940" flag="0"/>
      <vel value="0.0094046971" flag="0"/>
      <psa03 value="0.0413768515" flag="0"/>
      <psa10 value="0.0106197654" flag="0"/>
      <psa30 value="0.0005089960" flag="0"/>
    </comp>
    <comp name="--.HHN">
      <acc value="0.0184267334" flag="0"/>
      <vel value="0.0094458952" flag="0"/>
      <psa03 value="0.0315305246" flag="0"/>
      <psa10 value="0.0073641243" flag="0"/>
      <psa30 value="0.0003750694" flag="0"/>
    </comp>
    <comp name="--.HHZ">
      <acc value="0.0195090615" flag="0"/>
      <vel value="0.0078428329" flag="0"/>
      <psa03 value="0.0277545489" flag="0"/>
      <psa10 value="0.0057022258" flag="0"/>
      <psa30 value="0.0002945000" flag="0"/>
    </comp>
  </station>
  <station code="TIH" name="TIH" netid="HU" insttype="" commtype="DIG" lat="46.9001" lon="17.8878">
    <comp name="--.HHZ">
      <acc value="0.0158235683" flag="0"/>
      <vel value="0.0118290704" flag="0"/>
      <psa03 value="0.0616202681" flag="0"/>
      <psa10 value="0.0167023116" flag="0"/>
      <psa30 value="0.0007691316" flag="0"/>
    </comp>
    <comp name="--.HHE">
      <acc value="0.0197598979" flag="0"/>
      <vel value="0.0150645612" flag="0"/>
      <psa03 value="0.0438137369" flag="0"/>
      <psa10 value="0.0359190931" flag="0"/>
      <psa30 value="0.0012555691" flag="0"/>
    </comp>
    <comp name="--.HHN">
      <acc value="0.0206466910" flag="0"/>
      <vel value="0.0181454302" flag="0"/>
      <psa03 value="0.0540873270" flag="0"/>
      <psa10 value="0.0456580339" flag="0"/>
      <psa30 value="0.0012158476" flag="0"/>
    </comp>
  </station>
  <station code="CSNA" name="CSNA" netid="OE" insttype="STS-2" commtype="DIG" lat="47.9282" lon="15.8588">
    <comp name="--.HHE">
      <acc value="0.0163489519" flag="0"/>
      <vel value="0.0108124780" flag="0"/>
      <psa03 value="0.0387884271" flag="0"/>
      <psa10 value="0.0082618664" flag="0"/>
      <psa30 value="0.0005609022" flag="0"/>
    </comp>
    <comp name="--.HHN">
      <acc value="0.0270248932" flag="0"/>
      <vel value="0.0180642128" flag="0"/>
      <psa03 value="0.0633698056" flag="0"/>
      <psa10 value="0.0198323748" flag="0"/>
      <psa30 value="0.0014758132" flag="0"/>
    </comp>
    <comp name="--.HHZ">
      <acc value="0.0172239939" flag="0"/>
      <vel value="0.0137353434" flag="0"/>
      <psa03 value="0.0301415973" flag="0"/>
      <psa10 value="0.0197659274" flag="0"/>
      <psa30 value="0.0009607311" flag="0"/>
    </comp>
  </station>
  <station code="VIE" name="VIE" netid="OE" insttype="STS-2" commtype="DIG" lat="48.2483" lon="16.3617">
    <comp name="--.HHN">
      <acc value="0.0388895657" flag="0"/>
      <vel value="0.0252978091" flag="0"/>
      <psa03 value="0.1144307670" flag="0"/>
      <psa10 value="0.0329700799" flag="0"/>
      <psa30 value="0.0022542821" flag="0"/>
    </comp>
    <comp name="--.HHZ">
      <acc value="0.0264544720" flag="0"/>
      <vel value="0.0168120390" flag="0"/>
      <psa03 value="0.0685084416" flag="0"/>
      <psa10 value="0.0198050229" flag="0"/>
      <psa30 value="0.0010207625" flag="0"/>
    </comp>
    <comp name="--.HHE">
      <acc value="0.0457687867" flag="0"/>
      <vel value="0.0318495110" flag="0"/>
      <psa03 value="0.1179211120" flag="0"/>
      <psa10 value="0.0334999544" flag="0"/>
      <psa30 value="0.0039442559" flag="0"/>
    </comp>
  </station>
</stationlist>
