<?xml version="1.0" encoding="UTF-8" standalone="yes"?>
<!DOCTYPE earthquake SYSTEM "stationlist.dtd">
<stationlist created="" xmlns="ch.ethz.sed.shakemap.usgs.xml">
  <station code="JAVC" name="JAVC" netid="CZ" insttype="" commtype="DIG" lat="48.8591" lon="17.6707">
    <comp name="--.HHE">
      <acc value="0.0126603630" flag="0"/>
      <vel value="0.0120615803" flag="0"/>
      <psa03 value="0.0263960963" flag="0"/>
      <psa10 value="0.0126832037" flag="0"/>
      <psa30 value="0.0013943621" flag="0"/>
    </comp>
    <comp name="--.HHN">
      <acc value="0.0128760357" flag="0"/>
      <vel value="0.0100872543" flag="0"/>
      <psa03 value="0.0439968881" flag="0"/>
      <psa10 value="0.0140620695" flag="0"/>
      <psa30 value="0.0009457839" flag="0"/>
    </comp>
    <comp name="--.HHZ">
      <acc value="0.0145295396" flag="0"/>
      <vel value="0.0089286104" flag="0"/>
      <psa03 value="0.0462989909" flag="0"/>
      <psa10 value="0.0095660188" flag="0"/>
      <psa30 value="0.0008651382" flag="0"/>
    </comp>
  </station>
  <station code="KRUC" name="KRUC" netid="CZ" insttype="" commtype="DIG" lat="49.0619" lon="16.3952">
    <comp name="--.HHE">
      <acc value="0.0068296590" flag="0"/>
      <vel value="0.0036419578" flag="0"/>
      <psa03 value="0.0234178391" flag="0"/>
      <psa10 value="0.0042309683" flag="0"/>
      <psa30 value="0.0004169503" flag="0"/>
    </comp>
    <comp name="--.HHN">
      <acc value="0.0071070060" flag="0"/>
      <vel value="0.0028669465" flag="0"/>
      <psa03 value="0.0142120019" flag="0"/>
      <psa10 value="0.0026858536" flag="0"/>
      <psa30 value="0.0002254853" flag="0"/>
    </comp>
    <comp name="--.HHZ">
      <acc value="0.0073802267" flag="0"/>
      <vel value="0.0030873527" flag="0"/>
      <psa03 value="0.0156259892" flag="0"/>
      <psa10 value="0.0025627771" flag="0"/>
      <psa30 value="0.0001429090" flag="0"/>
    </comp>
  </station>
  <station code="BUD" name="BUD" netid="HU" insttype="" commtype="DIG" lat="47.4831" lon="19.0201">
    <comp name="--.HHN">
      <acc value="0.0103591076" flag="0"/>
      <vel value="0.0087745113" flag="0"/>
      <psa03 value="0.0261310631" flag="0"/>
      <psa10 value="0.0145434106" flag="0"/>
      <psa30 value="0.0014256343" flag="0"/>
    </comp>
    <comp name="--.HHE">
      <acc value="0.0130408282" flag="0"/>
      <vel value="0.0137756690" flag="0"/>
      <psa03 value="0.0327461383" flag="0"/>
      <psa10 value="0.0224083788" flag="0"/>
      <psa30 value="0.0010247133" flag="0"/>
    </comp>
    <comp name="--.HHZ">
      <acc value="0.0077065517" flag="0"/>
      <vel value="0.0059343578" flag="0"/>
      <psa03 value="0.0192614268" flag="0"/>
      <psa10 value="0.0082421157" flag="0"/>
      <psa30 value="0.0005705874" flag="0"/>
    </comp>
  </station>
  <station code="CSBH" name="CSBH" netid="HU" insttype="" commtype="DIG" lat="47.3578" lon="18.3227">
    <comp name="--.HHN">
      <acc value="0.0216974233" flag="0"/>
      <vel value="0.0106290373" flag="0"/>
      <psa03 value="0.0411619139" flag="0"/>
      <psa10 value="0.0074916933" flag="0"/>
      <psa30 value="0.0006773945" flag="0"/>
    </comp>
    <comp name="--.HHE">
      <acc value="0.0239321222" flag="0"/>
      <vel value="0.0166425175" flag="0"/>
      <psa03 value="0.0392185457" flag="0"/>
      <psa10 value="0.0173965941" flag="0"/>
      <psa30 value="0.0010365747" flag="0"/>
    </comp>
    <comp name="--.HHZ">
      <acc value="0.0143240972" flag="0"/>
      <vel value="0.0087951134" flag="0"/>
      <psa03 value="0.0464225285" flag="0"/>
      <psa10 value="0.0078490062" flag="0"/>
      <psa30 value="0.0005796426" flag="0"/>
    </comp>
  </station>
  <station code="EGYH" name="EGYH" netid="HU" insttype="" commtype="DIG" lat="47.4162" lon="17.3317">
    <comp name="--.HHE">
      <acc value="0.0645314438" flag="0"/>
      <vel value="0.0555610646" flag="0"/>
      <psa03 value="0.1766788092" flag="0"/>
      <psa10 value="0.0620722077" flag="0"/>
      <psa30 value="0.0046483630" flag="0"/>
    </comp>
    <comp name="--.HHN">
      <acc value="0.0424239484" flag="0"/>
      <vel value="0.0268587916" flag="0"/>
      <psa03 value="0.1832226848" flag="0"/>
      <psa10 value="0.0348338655" flag="0"/>
      <psa30 value="0.0025240872" flag="0"/>
    </comp>
    <comp name="--.HHZ">
      <acc value="0.0399836934" flag="0"/>
      <vel value="0.0219802531" flag="0"/>
      <psa03 value="0.1201730959" flag="0"/>
      <psa10 value="0.0175506576" flag="0"/>
      <psa30 value="0.0010627335" flag="0"/>
    </comp>
  </station>
  <station code="MPLH" name="MPLH" netid="HU" insttype="" commtype="DIG" lat="47.1712" lon="17.5348">
    <comp name="--.HHZ">
      <acc value="0.0211728643" flag="0"/>
      <vel value="0.0061502875" flag="0"/>
      <psa03 value="0.0397979393" flag="0"/>
      <psa10 value="0.0065438261" flag="0"/>
      <psa30 value="0.0005898664" flag="0"/>
    </comp>
    <comp name="--.HHN">
      <acc value="0.0307018631" flag="0"/>
      <vel value="0.0184394984" flag="0"/>
      <psa03 value="0.1351503366" flag="0"/>
      <psa10 value="0.0189264630" flag="0"/>
      <psa30 value="0.0012621087" flag="0"/>
    </comp>
    <comp name="--.HHE">
      <acc value="0.0281737125" flag="0"/>
      <vel value="0.0215144538" flag="0"/>
      <psa03 value="0.0774377035" flag="0"/>
      <psa10 value="0.0121152177" flag="0"/>
      <psa30 value="0.0012917225" flag="0"/>
    </comp>
  </station>
  <station code="SOP" name="SOP" netid="HU" insttype="" commtype="DIG" lat="47.6807" lon="16.5567">
    <comp name="--.HHN">
      <acc value="0.0184267334" flag="0"/>
      <vel value="0.0094458950" flag="0"/>
      <psa03 value="0.0315305246" flag="0"/>
      <psa10 value="0.0073641243" flag="0"/>
      <psa30 value="0.0003750815" flag="0"/>
    </comp>
    <comp name="--.HHE">
      <acc value="0.0225211939" flag="0"/>
      <vel value="0.0094046968" flag="0"/>
      <psa03 value="0.0413768515" flag="0"/>
      <psa10 value="0.0106197654" flag="0"/>
      <psa30 value="0.0005089965" flag="0"/>
    </comp>
    <comp name="--.HHZ">
      <acc value="0.0195090615" flag="0"/>
      <vel value="0.0078428332" flag="0"/>
      <psa03 value="0.0277545489" flag="0"/>
      <psa10 value="0.0057022258" flag="0"/>
      <psa30 value="0.0002944830" flag="0"/>
    </comp>
  </station>
  <station code="TIH" name="TIH" netid="HU" insttype="" commtype="DIG" lat="46.9001" lon="17.8878">
    <comp name="--.HHN">
      <acc value="0.0206466908" flag="0"/>
      <vel value="0.0181454303" flag="0"/>
      <psa03 value="0.0540873270" flag="0"/>
      <psa10 value="0.0456580339" flag="0"/>
      <psa30 value="0.0012158450" flag="0"/>
    </comp>
    <comp name="--.HHZ">
      <acc value="0.0158235682" flag="0"/>
      <vel value="0.0118290703" flag="0"/>
      <psa03 value="0.0616202681" flag="0"/>
      <psa10 value="0.0167023116" flag="0"/>
      <psa30 value="0.0007691372" flag="0"/>
    </comp>
    <comp name="--.HHE">
      <acc value="0.0197598979" flag="0"/>
      <vel value="0.0150645618" flag="0"/>
      <psa03 value="0.0438137369" flag="0"/>
      <psa10 value="0.0359190931" flag="0"/>
      <psa30 value="0.0012555607" flag="0"/>
    </comp>
  </station>
  <station code="CSNA" name="CSNA" netid="OE" insttype="STS-2" commtype="DIG" lat="47.9282" lon="15.8588">
    <comp name="--.HHZ">
      <acc value="0.0172239940" flag="0"/>
      <vel value="0.0137353430" flag="0"/>
      <psa03 value="0.0301415973" flag="0"/>
      <psa10 value="0.0197659274" flag="0"/>
      <psa30 value="0.0009607493" flag="0"/>
    </comp>
    <comp name="--.HHE">
      <acc value="0.0163489520" flag="0"/>
      <vel value="0.0108124779" flag="0"/>
      <psa03 value="0.0387884271" flag="0"/>
      <psa10 value="0.0082618664" flag="0"/>
      <psa30 value="0.0005609035" flag="0"/>
    </comp>
    <comp name="--.HHN">
      <acc value="0.0270248932" flag="0"/>
      <vel value="0.0180642130" flag="0"/>
      <psa03 value="0.0633698056" flag="0"/>
      <psa10 value="0.0198323748" flag="0"/>
      <psa30 value="0.0014757833" flag="0"/>
    </comp>
  </station>
  <station code="VIE" name="VIE" netid="OE" insttype="STS-2" commtype="DIG" lat="48.2483" lon="16.3617">
    <comp name="--.HHN">
      <acc value="0.0388895657" flag="0"/>
      <vel value="0.0252978092" flag="0"/>
      <psa03 value="0.1144307670" flag="0"/>
      <psa10 value="0.0329700799" flag="0"/>
      <psa30 value="0.0022542825" flag="0"/>
    </comp>
    <comp name="--.HHZ">
      <acc value="0.0264544720" flag="0"/>
      <vel value="0.0168120375" flag="0"/>
      <psa03 value="0.0685084416" flag="0"/>
      <psa10 value="0.0198050228" flag="0"/>
      <psa30 value="0.0010207735" flag="0"/>
    </comp>
    <comp name="--.HHE">
      <acc value="0.0457687867" flag="0"/>
      <vel value="0.0318495110" flag="0"/>
      <psa03 value="0.1179211120" flag="0"/>
      <psa10 value="0.0334999544" flag="0"/>
      <psa30 value="0.0039442559" flag="0"/>
    </comp>
  </station>
</stationlist>
