<?xml version="1.0" encoding="UTF-8" standalone="yes"?>
<!DOCTYPE earthquake SYSTEM "stationlist.dtd">
<stationlist created="" xmlns="ch.ethz.sed.shakemap.usgs.xml">
  <station code="ZKR" name="ZKR" netid="GE" insttype="STS-2/N" lat="35.1147" lon="26.2169">
    <comp name="--.HHN">
      <acc value="0.0127257843" flag="0"/>
      <vel value="0.0040829745" flag="0"/>
      <psa03 value="0.0281318882" flag="0"/>
      <psa10 value="0.0040778984" flag="0"/>
      <psa30 value="0.0007015818" flag="0"/>
    </comp>
    <comp name="--.HHE">
      <acc value="0.0126752940" flag="0"/>
      <vel value="0.0076916891" flag="0"/>
      <psa03 value="0.0257296358" flag="0"/>
      <psa10 value="0.0114044114" flag="0"/>
      <psa30 value="0.0017635897" flag="0"/>
    </comp>
    <comp name="--.HHZ">
      <acc value="0.0111395285" flag="0"/>
      <vel value="0.0035831035" flag="0"/>
      <psa03 value="0.0155075740" flag="0"/>
      <psa10 value="0.0073846176" flag="0"/>
      <psa30 value="0.0008405570" flag="0"/>
    </comp>
  </station>
  <station code="IDI" name="IDI" netid="HL" insttype="120" lat="35.288" lon="24.89">
    <comp name="--.HHE">
      <acc value="0.0022352672" flag="0"/>
      <vel value="0.0019334779" flag="0"/>
      <psa03 value="0.0059456685" flag="0"/>
      <psa10 value="0.0036952142" flag="0"/>
      <psa30 value="0.0007595310" flag="0"/>
    </comp>
    <comp name="--.HHN">
      <acc value="0.0021627329" flag="0"/>
      <vel value="0.0018472101" flag="0"/>
      <psa03 value="0.0063466841" flag="0"/>
      <psa10 value="0.0019245077" flag="0"/>
      <psa30 value="0.0007203682" flag="0"/>
    </comp>
    <comp name="--.HHZ">
      <acc value="0.0016562610" flag="0"/>
      <vel value="0.0018763877" flag="0"/>
      <psa03 value="0.0052743638" flag="0"/>
      <psa10 value="0.0022746838" flag="0"/>
      <psa30 value="0.0006434790" flag="0"/>
    </comp>
  </station>
  <station code="ZKR" name="ZKR" netid="HL" insttype="120" lat="35.1147" lon="26.2169">
    <comp name="--.HHE">
      <acc value="0.0122706657" flag="0"/>
      <vel value="0.0076088415" flag="0"/>
      <psa03 value="0.0250014549" flag="0"/>
      <psa10 value="0.0113384558" flag="0"/>
      <psa30 value="0.0017631424" flag="0"/>
    </comp>
    <comp name="--.HHN">
      <acc value="0.0123481599" flag="0"/>
      <vel value="0.0039514623" flag="0"/>
      <psa03 value="0.0272740278" flag="0"/>
      <psa10 value="0.0040547773" flag="0"/>
      <psa30 value="0.0007010793" flag="0"/>
    </comp>
    <comp name="--.HHZ">
      <acc value="0.0108278482" flag="0"/>
      <vel value="0.0035283276" flag="0"/>
      <psa03 value="0.0150809654" flag="0"/>
      <psa10 value="0.0073408158" flag="0"/>
      <psa30 value="0.0008404384" flag="0"/>
    </comp>
  </station>
  <station code="IDI" name="IDI" netid="MN" insttype="" lat="35.288" lon="24.89">
    <comp name="--.HHN">
      <acc value="0.0021743865" flag="0"/>
      <vel value="0.0018392847" flag="0"/>
      <psa03 value="0.0064007386" flag="0"/>
      <psa10 value="0.0019089947" flag="0"/>
      <psa30 value="0.0007123351" flag="0"/>
    </comp>
    <comp name="--.HHZ">
      <acc value="0.0016677264" flag="0"/>
      <vel value="0.0018772575" flag="0"/>
      <psa03 value="0.0053515228" flag="0"/>
      <psa10 value="0.0022587989" flag="0"/>
      <psa30 value="0.0006356408" flag="0"/>
    </comp>
    <comp name="--.HHE">
      <acc value="0.0022664746" flag="0"/>
      <vel value="0.0019169882" flag="0"/>
      <psa03 value="0.0060115149" flag="0"/>
      <psa10 value="0.0036668508" flag="0"/>
      <psa30 value="0.0007503910" flag="0"/>
    </comp>
  </station>
</stationlist>
