<stationlist created="1778069482">
	<station code="SIT2" name="SIT2" netid="HI" source="ITSAK Strong Motion Network" insttype="" lat="35.2059" lon="26.107">
		<comp name="--.HNE" depth="0.0">
			<acc value="0.0297172059666899" flag="0"/>
			<vel value="0.0226819095982165" flag="0"/>
			<psa03 value="0.0708269130767242" flag="0"/>
			<psa10 value="0.0160991407853865" flag="0"/>
			<psa30 value="0.00163711734016256" flag="0"/>
		</comp>
		<comp name="--.HNN" depth="0.0">
			<acc value="0.0292831076686698" flag="0"/>
			<vel value="0.0219984631682049" flag="0"/>
			<psa03 value="0.0851891614011894" flag="0"/>
			<psa10 value="0.0139005087521647" flag="0"/>
			<psa30 value="0.00152884120014635" flag="0"/>
		</comp>
		<comp name="--.HNZ" depth="0.0">
			<acc value="0.0230795857800035" flag="0"/>
			<vel value="0.00991769975623676" flag="0"/>
			<psa03 value="0.0369123204600742" flag="0"/>
			<psa10 value="0.0045019608299305" flag="0"/>
			<psa30 value="0.00101072644750676" flag="0"/>
		</comp>
	</station>
</stationlist>
