<stationlist xmlns:esm="https://esm-db.eu/esmws/shakemap/1/" created="1780970078">
	<station code="AGR3" name="AGR3" netid="HI" source="ITSAK Strong Motion Network" insttype="" lat="38.5893" lon="21.4162" esm:processing="automatic (Paolucci et al 2011)" esm:quality="best">
		<comp name="--.HNE" depth="0.0">
			<acc value="0.0582947085366221" flag="0"/>
			<vel value="0.0316291642594675" flag="0"/>
			<psa03 value="0.0865777822281709" flag="0"/>
			<psa10 value="0.0145262751069346" flag="0"/>
			<psa30 value="0.000948027281321377" flag="0"/>
		</comp>
		<comp name="--.HNN" depth="0.0">
			<acc value="0.0605282639541898" flag="0"/>
			<vel value="0.0252939676855205" flag="0"/>
			<psa03 value="0.0821384100165492" flag="0"/>
			<psa10 value="0.0116362577199662" flag="0"/>
			<psa30 value="0.000964955798585898" flag="0"/>
		</comp>
		<comp name="--.HNZ" depth="0.0">
			<acc value="0.0234905105195328" flag="0"/>
			<vel value="0.00784572923886358" flag="0"/>
			<psa03 value="0.0433351207390712" flag="0"/>
			<psa10 value="0.00477163656625454" flag="0"/>
			<psa30 value="0.000260002119697739" flag="0"/>
		</comp>
	</station>
	<station code="AIG2" name="AIG2" netid="HI" source="ITSAK Strong Motion Network" insttype="" lat="38.2417" lon="22.0726" esm:processing="manual (Paolucci et al 2011)" esm:quality="good">
		<comp name="--.HNE" depth="0.0">
			<acc value="0.0594294164018068" flag="0"/>
			<vel value="0.0240885560573428" flag="0"/>
			<psa03 value="0.204691747323685" flag="0"/>
			<psa10 value="0.00930456419421343" flag="0"/>
			<psa30 value="0.00071209628746759" flag="0"/>
		</comp>
		<comp name="--.HNN" depth="0.0">
			<acc value="0.0570369510226537" flag="0"/>
			<vel value="0.0222310687260968" flag="0"/>
			<psa03 value="0.106158469977637" flag="0"/>
			<psa10 value="0.0163861686282525" flag="0"/>
			<psa30 value="0.00115486317068395" flag="0"/>
		</comp>
		<comp name="--.HNZ" depth="0.0">
			<acc value="0.0298733303297754" flag="0"/>
			<vel value="0.0109372509415461" flag="0"/>
			<psa03 value="0.0606666699108117" flag="0"/>
			<psa10 value="0.00680549098662824" flag="0"/>
			<psa30 value="0.000410008098524312" flag="0"/>
		</comp>
	</station>
	<station code="AKR1" name="AKR1" netid="HI" source="ITSAK Strong Motion Network" insttype="" lat="38.153583" lon="22.31326" esm:processing="automatic (Paolucci et al 2011)" esm:quality="best">
		<comp name="--.HNE" depth="0.0">
			<acc value="0.0936313022908727" flag="0"/>
			<vel value="0.0304309004323201" flag="0"/>
			<psa03 value="0.172354907250065" flag="0"/>
			<psa10 value="0.00807466740708731" flag="0"/>
			<psa30 value="0.00075584861292776" flag="0"/>
		</comp>
		<comp name="--.HNN" depth="0.0">
			<acc value="0.0711541434705704" flag="0"/>
			<vel value="0.019845511834862" flag="0"/>
			<psa03 value="0.126984776701581" flag="0"/>
			<psa10 value="0.00553536856600132" flag="0"/>
			<psa30 value="0.000468909656713468" flag="0"/>
		</comp>
		<comp name="--.HNZ" depth="0.0">
			<acc value="0.0480126164832279" flag="0"/>
			<vel value="0.0135881826112731" flag="0"/>
			<psa03 value="0.0809292101213239" flag="0"/>
			<psa10 value="0.0052470335277201" flag="0"/>
			<psa30 value="0.000317861343212338" flag="0"/>
		</comp>
	</station>
	<station code="AOL1" name="AOL1" netid="HI" source="ITSAK Strong Motion Network" insttype="" lat="37.642378" lon="21.624555" esm:processing="automatic (Paolucci et al 2011)" esm:quality="best">
		<comp name="--.HNE" depth="0.0">
			<acc value="0.014881347806287" flag="0"/>
			<vel value="0.00731618111875488" flag="0"/>
			<psa03 value="0.0471081779772627" flag="0"/>
			<psa10 value="0.00777662110048223" flag="0"/>
			<psa30 value="0.000467599726186999" flag="0"/>
		</comp>
		<comp name="--.HNN" depth="0.0">
			<acc value="0.0146764314333632" flag="0"/>
			<vel value="0.0089291019131708" flag="0"/>
			<psa03 value="0.0565189732712651" flag="0"/>
			<psa10 value="0.013906052457728" flag="0"/>
			<psa30 value="0.000662390234268844" flag="0"/>
		</comp>
		<comp name="--.HNZ" depth="0.0">
			<acc value="0.0104564575251129" flag="0"/>
			<vel value="0.00545355584358986" flag="0"/>
			<psa03 value="0.0330671045958945" flag="0"/>
			<psa10 value="0.0038314832700877" flag="0"/>
			<psa30 value="0.000343736937551806" flag="0"/>
		</comp>
	</station>
	<station code="ARS1" name="ARS1" netid="HI" source="ITSAK Strong Motion Network" insttype="" lat="37.6349" lon="22.7293" esm:processing="manual (Paolucci et al 2011)" esm:quality="good">
		<comp name="--.HNE" depth="0.0">
			<acc value="0.0113870966146439" flag="0"/>
			<vel value="0.00582349306883099" flag="0"/>
			<psa03 value="0.0325274125939481" flag="0"/>
			<psa10 value="0.00448622672175306" flag="0"/>
			<psa30 value="0.000229551352483856" flag="0"/>
		</comp>
		<comp name="--.HNN" depth="0.0">
			<acc value="0.0144251186027725" flag="0"/>
			<vel value="0.00749691611211788" flag="0"/>
			<psa03 value="0.0324963298056992" flag="0"/>
			<psa10 value="0.00566048529187036" flag="0"/>
			<psa30 value="0.00029484367257129" flag="0"/>
		</comp>
		<comp name="--.HNZ" depth="0.0">
			<acc value="0.0110518860704072" flag="0"/>
			<vel value="0.00421562118705282" flag="0"/>
			<psa03 value="0.0214638033820518" flag="0"/>
			<psa10 value="0.00145865069094959" flag="0"/>
			<psa30 value="0.000108981848418853" flag="0"/>
		</comp>
	</station>
	<station code="AST1" name="AST1" netid="HI" source="ITSAK Strong Motion Network" insttype="" lat="38.5416" lon="21.0895" esm:processing="automatic (Paolucci et al 2011)" esm:quality="best">
		<comp name="--.HNE" depth="0.0">
			<acc value="0.0150818908746105" flag="0"/>
			<vel value="0.00582660320681849" flag="0"/>
			<psa03 value="0.0278550666156244" flag="0"/>
			<psa10 value="0.00294497188680933" flag="0"/>
			<psa30 value="0.000210819851197158" flag="0"/>
		</comp>
		<comp name="--.HNN" depth="0.0">
			<acc value="0.0119737720125083" flag="0"/>
			<vel value="0.00501745906140169" flag="0"/>
			<psa03 value="0.0339727427149753" flag="0"/>
			<psa10 value="0.00438692951880069" flag="0"/>
			<psa30 value="0.000278097615310515" flag="0"/>
		</comp>
		<comp name="--.HNZ" depth="0.0">
			<acc value="0.00609073426176987" flag="0"/>
			<vel value="0.00276966167601842" flag="0"/>
			<psa03 value="0.0243436517099533" flag="0"/>
			<psa10 value="0.00326451508622805" flag="0"/>
			<psa30 value="0.00014344495825366" flag="0"/>
		</comp>
	</station>
	<station code="KAC1" name="KAC1" netid="HI" source="ITSAK Strong Motion Network" insttype="" lat="38.143412" lon="21.549694" esm:processing="manual (Paolucci et al 2011)" esm:quality="good">
		<comp name="--.HNE" depth="0.0">
			<acc value="0.0624583638898853" flag="0"/>
			<vel value="0.0302229193378794" flag="0"/>
			<psa03 value="0.199607202164189" flag="0"/>
			<psa10 value="0.0198996095014672" flag="0"/>
			<psa30 value="0.00134588613751801" flag="0"/>
		</comp>
		<comp name="--.HNN" depth="0.0">
			<acc value="0.0517055811169211" flag="0"/>
			<vel value="0.0313957851145828" flag="0"/>
			<psa03 value="0.198671119319961" flag="0"/>
			<psa10 value="0.0122794759550175" flag="0"/>
			<psa30 value="0.00128405641660244" flag="0"/>
		</comp>
		<comp name="--.HNZ" depth="0.0">
			<acc value="0.0195887461801069" flag="0"/>
			<vel value="0.00852399476830072" flag="0"/>
			<psa03 value="0.0495562203563893" flag="0"/>
			<psa10 value="0.00661921052146164" flag="0"/>
			<psa30 value="0.000903662988238022" flag="0"/>
		</comp>
	</station>
	<station code="KLV1" name="KLV1" netid="HI" source="ITSAK Strong Motion Network" insttype="" lat="38.03256" lon="22.10797" esm:processing="automatic (Paolucci et al 2011)" esm:quality="best">
		<comp name="--.HNE" depth="0.0">
			<acc value="0.116861321041905" flag="0"/>
			<vel value="0.0433514625034664" flag="0"/>
			<psa03 value="0.319915171976748" flag="0"/>
			<psa10 value="0.0184274269766001" flag="0"/>
			<psa30 value="0.00173150220352321" flag="0"/>
		</comp>
		<comp name="--.HNN" depth="0.0">
			<acc value="0.107008713524414" flag="0"/>
			<vel value="0.0424444932968425" flag="0"/>
			<psa03 value="0.323954002029417" flag="0"/>
			<psa10 value="0.0169131947911493" flag="0"/>
			<psa30 value="0.001411576009983" flag="0"/>
		</comp>
		<comp name="--.HNZ" depth="0.0">
			<acc value="0.0465368270884858" flag="0"/>
			<vel value="0.0142418865643024" flag="0"/>
			<psa03 value="0.0675096701009906" flag="0"/>
			<psa10 value="0.0102777086602584" flag="0"/>
			<psa30 value="0.00054137612392794" flag="0"/>
		</comp>
	</station>
	<station code="KMV1" name="KMV1" netid="HI" source="ITSAK Strong Motion Network" insttype="" lat="38.7794" lon="22.7846" esm:processing="manual (Paolucci et al 2011)" esm:quality="good">
		<comp name="--.HNE" depth="0.0">
			<acc value="0.00803192288511651" flag="0"/>
			<vel value="0.00351898455330726" flag="0"/>
			<psa03 value="0.0227278675888518" flag="0"/>
			<psa10 value="0.00307943681007557" flag="0"/>
			<psa30 value="0.000156196649344779" flag="0"/>
		</comp>
		<comp name="--.HNN" depth="0.0">
			<acc value="0.0103372875114801" flag="0"/>
			<vel value="0.00386302170062569" flag="0"/>
			<psa03 value="0.0307624753630184" flag="0"/>
			<psa10 value="0.00332775693193996" flag="0"/>
			<psa30 value="0.000153898801811157" flag="0"/>
		</comp>
		<comp name="--.HNZ" depth="0.0">
			<acc value="0.00570584186633627" flag="0"/>
			<vel value="0.00265639272316742" flag="0"/>
			<psa03 value="0.0129187659610929" flag="0"/>
			<psa10 value="0.0021013143580135" flag="0"/>
			<psa30 value="0.000121301967951724" flag="0"/>
		</comp>
	</station>
	<station code="KOR2" name="KOR2" netid="HI" source="ITSAK Strong Motion Network" insttype="" lat="37.9401" lon="22.9495" esm:processing="automatic (Paolucci et al 2011)" esm:quality="best">
		<comp name="--.HNE" depth="0.0">
			<acc value="0.0370002881732381" flag="0"/>
			<vel value="0.0150188690363363" flag="0"/>
			<psa03 value="0.0841466420103962" flag="0"/>
			<psa10 value="0.00614602526901094" flag="0"/>
			<psa30 value="0.000362685901160982" flag="0"/>
		</comp>
		<comp name="--.HNN" depth="0.0">
			<acc value="0.0392613699946876" flag="0"/>
			<vel value="0.0103809769945162" flag="0"/>
			<psa03 value="0.0479351754701213" flag="0"/>
			<psa10 value="0.00424545842828524" flag="0"/>
			<psa30 value="0.000387033790130799" flag="0"/>
		</comp>
		<comp name="--.HNZ" depth="0.0">
			<acc value="0.0330621914933357" flag="0"/>
			<vel value="0.00645358500265482" flag="0"/>
			<psa03 value="0.0303302644394992" flag="0"/>
			<psa10 value="0.00238263713489181" flag="0"/>
			<psa30 value="0.0001412090679494" flag="0"/>
		</comp>
	</station>
	<station code="MSL1" name="MSL1" netid="HI" source="ITSAK Strong Motion Network" insttype="" lat="38.3727" lon="21.4243" esm:processing="manual (Paolucci et al 2011)" esm:quality="good">
		<comp name="--.HNE" depth="0.0">
			<acc value="0.0232977789931409" flag="0"/>
			<vel value="0.0115178524681457" flag="0"/>
			<psa03 value="0.0404480857371712" flag="0"/>
			<psa10 value="0.0129880816466669" flag="0"/>
			<psa30 value="0.000504353567198588" flag="0"/>
		</comp>
		<comp name="--.HNN" depth="0.0">
			<acc value="0.0204966798158395" flag="0"/>
			<vel value="0.00871844293348439" flag="0"/>
			<psa03 value="0.0465564955976792" flag="0"/>
			<psa10 value="0.0150598182640502" flag="0"/>
			<psa30 value="0.000592049324528789" flag="0"/>
		</comp>
		<comp name="--.HNZ" depth="0.0">
			<acc value="0.00923904031793488" flag="0"/>
			<vel value="0.00453028708784713" flag="0"/>
			<psa03 value="0.0240538408447392" flag="0"/>
			<psa10 value="0.00628527386854726" flag="0"/>
			<psa30 value="0.000213961491607084" flag="0"/>
		</comp>
	</station>
	<station code="NMA1" name="NMA1" netid="HI" source="ITSAK Strong Motion Network" insttype="" lat="37.81873" lon="22.662702" esm:processing="automatic (Paolucci et al 2011)" esm:quality="best">
		<comp name="--.HNE" depth="0.0">
			<acc value="0.0447109023063218" flag="0"/>
			<vel value="0.0157818853913414" flag="0"/>
			<psa03 value="0.0580492413106793" flag="0"/>
			<psa10 value="0.00443287709385203" flag="0"/>
			<psa30 value="0.000325575291723569" flag="0"/>
		</comp>
		<comp name="--.HNN" depth="0.0">
			<acc value="0.0503110893995965" flag="0"/>
			<vel value="0.0183721327173728" flag="0"/>
			<psa03 value="0.0840527868346181" flag="0"/>
			<psa10 value="0.00648874500376139" flag="0"/>
			<psa30 value="0.000544130108449232" flag="0"/>
		</comp>
		<comp name="--.HNZ" depth="0.0">
			<acc value="0.0374088714228369" flag="0"/>
			<vel value="0.00947730357238616" flag="0"/>
			<psa03 value="0.0349423277785606" flag="0"/>
			<psa10 value="0.00378106844597802" flag="0"/>
			<psa30 value="0.000237505238764786" flag="0"/>
		</comp>
	</station>
	<station code="PAT4" name="PAT4" netid="HI" source="ITSAK Strong Motion Network" insttype="" lat="38.2338" lon="21.74795" esm:processing="manual (Paolucci et al 2011)" esm:quality="good">
		<comp name="--.HNE" depth="0.0">
			<acc value="0.0576233102508408" flag="0"/>
			<vel value="0.0327599393012006" flag="0"/>
			<psa03 value="0.167174366147975" flag="0"/>
			<psa10 value="0.0161278646418811" flag="0"/>
			<psa30 value="0.00185003984772705" flag="0"/>
		</comp>
		<comp name="--.HNN" depth="0.0">
			<acc value="0.0435824989171655" flag="0"/>
			<vel value="0.0219203825277666" flag="0"/>
			<psa03 value="0.145153990739508" flag="0"/>
			<psa10 value="0.0207858775873784" flag="0"/>
			<psa30 value="0.00157076186776484" flag="0"/>
		</comp>
		<comp name="--.HNZ" depth="0.0">
			<acc value="0.0297007340513191" flag="0"/>
			<vel value="0.0134728786272273" flag="0"/>
			<psa03 value="0.0734085556648756" flag="0"/>
			<psa10 value="0.011456361115199" flag="0"/>
			<psa30 value="0.000975615983937527" flag="0"/>
		</comp>
	</station>
	<station code="PAT5" name="PAT5" netid="HI" source="ITSAK Strong Motion Network" insttype="" lat="38.29595" lon="21.795083" esm:processing="manual (Paolucci et al 2011)" esm:quality="good">
		<comp name="--.HNE" depth="0.0">
			<acc value="0.0397369560047012" flag="0"/>
			<vel value="0.0134863958225035" flag="0"/>
			<psa03 value="0.0789032582036189" flag="0"/>
			<psa10 value="0.0096933768261421" flag="0"/>
			<psa30 value="0.000501887570505076" flag="0"/>
		</comp>
		<comp name="--.HNN" depth="0.0">
			<acc value="0.0504549027479414" flag="0"/>
			<vel value="0.0210547241837884" flag="0"/>
			<psa03 value="0.1201976291697" flag="0"/>
			<psa10 value="0.00724218772814417" flag="0"/>
			<psa30 value="0.000843696567840304" flag="0"/>
		</comp>
		<comp name="--.HNZ" depth="0.0">
			<acc value="0.0300479241157852" flag="0"/>
			<vel value="0.0105171386407096" flag="0"/>
			<psa03 value="0.0633274138803747" flag="0"/>
			<psa10 value="0.00563713952657799" flag="0"/>
			<psa30 value="0.000313013652284939" flag="0"/>
		</comp>
	</station>
	<station code="PYR2" name="PYR2" netid="HI" source="ITSAK Strong Motion Network" insttype="" lat="37.6671" lon="21.4506" esm:processing="manual (Paolucci et al 2011)" esm:quality="good">
		<comp name="--.HNE" depth="0.0">
			<acc value="0.0254526545759846" flag="0"/>
			<vel value="0.0127167312457612" flag="0"/>
			<psa03 value="0.112477711513042" flag="0"/>
			<psa10 value="0.00648112215503507" flag="0"/>
			<psa30 value="0.000367598700568165" flag="0"/>
		</comp>
		<comp name="--.HNN" depth="0.0">
			<acc value="0.0193801625276465" flag="0"/>
			<vel value="0.00795135978565028" flag="0"/>
			<psa03 value="0.0488256615437867" flag="0"/>
			<psa10 value="0.00508155334672025" flag="0"/>
			<psa30 value="0.000336212324499787" flag="0"/>
		</comp>
		<comp name="--.HNZ" depth="0.0">
			<acc value="0.00828960813490862" flag="0"/>
			<vel value="0.00383666068508654" flag="0"/>
			<psa03 value="0.0246728401837408" flag="0"/>
			<psa10 value="0.00263101304170167" flag="0"/>
			<psa30 value="0.000285589257428372" flag="0"/>
		</comp>
	</station>
	<station code="PYR3" name="PYR3" netid="HI" source="ITSAK Strong Motion Network" insttype="" lat="37.6788" lon="21.46209" esm:processing="manual (Paolucci et al 2011)" esm:quality="good">
		<comp name="--.HNE" depth="0.0">
			<acc value="0.0315231615623389" flag="0"/>
			<vel value="0.0155190520714531" flag="0"/>
			<psa03 value="0.0911709875471477" flag="0"/>
			<psa10 value="0.008490886854583" flag="0"/>
			<psa30 value="0.000497151788032729" flag="0"/>
		</comp>
		<comp name="--.HNN" depth="0.0">
			<acc value="0.016498347896654" flag="0"/>
			<vel value="0.00893457092746553" flag="0"/>
			<psa03 value="0.0531406140548805" flag="0"/>
			<psa10 value="0.00719876219516574" flag="0"/>
			<psa30 value="0.000370470843958569" flag="0"/>
		</comp>
		<comp name="--.HNZ" depth="0.0">
			<acc value="0.0124938179989821" flag="0"/>
			<vel value="0.00607945598088349" flag="0"/>
			<psa03 value="0.0631506782141709" flag="0"/>
			<psa10 value="0.00400220231376149" flag="0"/>
			<psa30 value="0.000322781148291946" flag="0"/>
		</comp>
	</station>
	<station code="ZAK2" name="ZAK2" netid="HI" source="ITSAK Strong Motion Network" insttype="" lat="37.787501" lon="20.899999" esm:processing="manual (Paolucci et al 2011)" esm:quality="good">
		<comp name="--.HNE" depth="0.0">
			<acc value="0.0132876505927623" flag="0"/>
			<vel value="0.00862669083350526" flag="0"/>
			<psa03 value="0.0429070038367609" flag="0"/>
			<psa10 value="0.00619317620502905" flag="0"/>
			<psa30 value="0.000488112178786314" flag="0"/>
		</comp>
		<comp name="--.HNN" depth="0.0">
			<acc value="0.0109742716544667" flag="0"/>
			<vel value="0.00548352577875494" flag="0"/>
			<psa03 value="0.0298485085672037" flag="0"/>
			<psa10 value="0.00537222478977681" flag="0"/>
			<psa30 value="0.000385210179742228" flag="0"/>
		</comp>
		<comp name="--.HNZ" depth="0.0">
			<acc value="0.00924198899425465" flag="0"/>
			<vel value="0.00396852583411154" flag="0"/>
			<psa03 value="0.0240918694056114" flag="0"/>
			<psa10 value="0.00267327224741665" flag="0"/>
			<psa30 value="0.000325364965290475" flag="0"/>
		</comp>
	</station>
</stationlist>
