<?xml version="1.0" encoding="UTF-8" standalone="yes"?>
<!DOCTYPE earthquake SYSTEM "stationlist.dtd">
<stationlist created="" xmlns="ch.ethz.sed.shakemap.usgs.xml">
  <station code="AGRP" name="AGRP" netid="CL" source="RESIF" insttype="60" lat="38.3959" lon="21.7228">
    <comp name="00.HHE">
      <acc value="0.0266790653" flag="0"/>
      <vel value="0.0091697069" flag="0"/>
      <psa03 value="0.0490349567" flag="0"/>
      <psa10 value="0.0030687316" flag="0"/>
      <psa30 value="0.0003633040" flag="0"/>
    </comp>
    <comp name="00.HHN">
      <acc value="0.0209693794" flag="0"/>
      <vel value="0.0091415290" flag="0"/>
      <psa03 value="0.0516159925" flag="0"/>
      <psa10 value="0.0062925891" flag="0"/>
      <psa30 value="0.0005063353" flag="0"/>
    </comp>
    <comp name="00.HHZ">
      <acc value="0.0128788298" flag="0"/>
      <vel value="0.0054038617" flag="0"/>
      <psa03 value="0.0239639704" flag="0"/>
      <psa10 value="0.0025270633" flag="0"/>
      <psa30 value="0.0001534439" flag="0"/>
    </comp>
  </station>
  <station code="MALA" name="MALA" netid="CL" source="RESIF" insttype="30" lat="38.3935" lon="21.8726">
    <comp name="00.HH2">
      <acc value="0.0157155410" flag="0"/>
      <vel value="0.0061438141" flag="0"/>
      <psa03 value="0.0249238007" flag="0"/>
      <psa10 value="0.0027314114" flag="0"/>
      <psa30 value="0.0006422855" flag="0"/>
    </comp>
    <comp name="00.HH3">
      <acc value="0.0113641466" flag="0"/>
      <vel value="0.0044069001" flag="0"/>
      <psa03 value="0.0209202336" flag="0"/>
      <psa10 value="0.0031047241" flag="0"/>
      <psa30 value="0.0002893509" flag="0"/>
    </comp>
    <comp name="00.HHZ">
      <acc value="0.0112307130" flag="0"/>
      <vel value="0.0029983039" flag="0"/>
      <psa03 value="0.0138988535" flag="0"/>
      <psa10 value="0.0016267220" flag="0"/>
      <psa30 value="0.0002222234" flag="0"/>
    </comp>
  </station>
  <station code="MG00" name="MG00" netid="CL" source="RESIF" insttype="40" lat="38.4145" lon="21.9467">
    <comp name="00.HHE">
      <acc value="0.0719675416" flag="0"/>
      <vel value="0.0315744532" flag="0"/>
      <psa03 value="0.2623161893" flag="0"/>
      <psa10 value="0.0141542837" flag="0"/>
      <psa30 value="0.0012789356" flag="0"/>
    </comp>
    <comp name="00.HHN">
      <acc value="0.0687786633" flag="0"/>
      <vel value="0.0246896925" flag="0"/>
      <psa03 value="0.1244576724" flag="0"/>
      <psa10 value="0.0115129798" flag="0"/>
      <psa30 value="0.0007883098" flag="0"/>
    </comp>
    <comp name="00.HHZ">
      <acc value="0.0445803211" flag="0"/>
      <vel value="0.0135641627" flag="0"/>
      <psa03 value="0.0799455739" flag="0"/>
      <psa10 value="0.0032002972" flag="0"/>
      <psa30 value="0.0002334018" flag="0"/>
    </comp>
  </station>
  <station code="ROD3" name="ROD3" netid="CL" source="RESIF" insttype="60" lat="38.3081" lon="21.892">
    <comp name="00.HHE">
      <acc value="0.1178560639" flag="0"/>
      <vel value="0.0439053166" flag="0"/>
      <psa03 value="0.3816547075" flag="0"/>
      <psa10 value="0.0163777443" flag="0"/>
      <psa30 value="0.0014808043" flag="0"/>
    </comp>
    <comp name="00.HHN">
      <acc value="0.1127958467" flag="0"/>
      <vel value="0.0389346789" flag="0"/>
      <psa03 value="0.2335924697" flag="0"/>
      <psa10 value="0.0139632230" flag="0"/>
      <psa30 value="0.0009998368" flag="0"/>
    </comp>
    <comp name="00.HHZ">
      <acc value="0.0804061258" flag="0"/>
      <vel value="0.0247280850" flag="0"/>
      <psa03 value="0.0694767419" flag="0"/>
      <psa10 value="0.0070154378" flag="0"/>
      <psa30 value="0.0004350402" flag="0"/>
    </comp>
  </station>
  <station code="LAKA" name="LAKA" netid="HA" source="NOA" insttype="120" lat="38.2401" lon="21.9785">
    <comp name="--.HHE">
      <acc value="0.0317706906" flag="0"/>
      <vel value="0.0180466446" flag="0"/>
      <psa03 value="0.0896738798" flag="0"/>
      <psa10 value="0.0077080096" flag="0"/>
      <psa30 value="0.0006558756" flag="0"/>
    </comp>
    <comp name="--.HHN">
      <acc value="0.0290242962" flag="0"/>
      <vel value="0.0109166639" flag="0"/>
      <psa03 value="0.0657338196" flag="0"/>
      <psa10 value="0.0052192627" flag="0"/>
      <psa30 value="0.0004396839" flag="0"/>
    </comp>
    <comp name="--.HHZ">
      <acc value="0.0310390639" flag="0"/>
      <vel value="0.0045083360" flag="0"/>
      <psa03 value="0.0331842598" flag="0"/>
      <psa10 value="0.0040017175" flag="0"/>
      <psa30 value="0.0003242049" flag="0"/>
    </comp>
  </station>
  <station code="EVR" name="EVR" netid="HL" source="NOA" insttype="DR24" lat="38.9166" lon="21.8105">
    <comp name="--.HHE">
      <acc value="0.0069680318" flag="0"/>
      <vel value="0.0033982190" flag="0"/>
      <psa03 value="0.0229382791" flag="0"/>
      <psa10 value="0.0020715153" flag="0"/>
      <psa30 value="0.0002441576" flag="0"/>
    </comp>
    <comp name="--.HHN">
      <acc value="0.0080714755" flag="0"/>
      <vel value="0.0033503273" flag="0"/>
      <psa03 value="0.0268022832" flag="0"/>
      <psa10 value="0.0022014101" flag="0"/>
      <psa30 value="0.0001256074" flag="0"/>
    </comp>
    <comp name="--.HHZ">
      <acc value="0.0044016415" flag="0"/>
      <vel value="0.0017834294" flag="0"/>
      <psa03 value="0.0120244141" flag="0"/>
      <psa10 value="0.0013021883" flag="0"/>
      <psa30 value="0.0001396313" flag="0"/>
    </comp>
  </station>
  <station code="KLV" name="KLV" netid="HL" source="NOA" insttype="120" lat="38.0435" lon="22.1504">
    <comp name="--.HHE">
      <acc value="0.0445847698" flag="0"/>
      <vel value="0.0179357937" flag="0"/>
      <psa03 value="0.0869531208" flag="0"/>
      <psa10 value="0.0086963891" flag="0"/>
      <psa30 value="0.0006159201" flag="0"/>
    </comp>
    <comp name="--.HHN">
      <acc value="0.0599728769" flag="0"/>
      <vel value="0.0190982410" flag="0"/>
      <psa03 value="0.1153737421" flag="0"/>
      <psa10 value="0.0074938596" flag="0"/>
      <psa30 value="0.0008415366" flag="0"/>
    </comp>
    <comp name="--.HHZ">
      <acc value="0.0306455195" flag="0"/>
      <vel value="0.0154110342" flag="0"/>
      <psa03 value="0.0542442243" flag="0"/>
      <psa10 value="0.0045456868" flag="0"/>
      <psa30 value="0.0004080720" flag="0"/>
    </comp>
  </station>
  <station code="ANX" name="ANX" netid="HP" source="NOA" insttype="120" lat="38.5933" lon="21.9209">
    <comp name="--.HHE">
      <acc value="0.0156974208" flag="0"/>
      <vel value="0.0085424742" flag="0"/>
      <psa03 value="0.0496073362" flag="0"/>
      <psa10 value="0.0066471485" flag="0"/>
      <psa30 value="0.0003577976" flag="0"/>
    </comp>
    <comp name="--.HHN">
      <acc value="0.0154463709" flag="0"/>
      <vel value="0.0095416120" flag="0"/>
      <psa03 value="0.0495069976" flag="0"/>
      <psa10 value="0.0072181786" flag="0"/>
      <psa30 value="0.0004695970" flag="0"/>
    </comp>
    <comp name="--.HHZ">
      <acc value="0.0092796235" flag="0"/>
      <vel value="0.0044061218" flag="0"/>
      <psa03 value="0.0248578666" flag="0"/>
      <psa10 value="0.0031697297" flag="0"/>
      <psa30 value="0.0002260059" flag="0"/>
    </comp>
  </station>
  <station code="DRO" name="DRO" netid="HP" source="NOA" insttype="120P," lat="37.952" lon="21.71">
    <comp name="--.HHE">
      <acc value="0.0469377712" flag="0"/>
      <vel value="0.0180181985" flag="0"/>
      <psa03 value="0.1233972007" flag="0"/>
      <psa10 value="0.0104479273" flag="0"/>
      <psa30 value="0.0007596954" flag="0"/>
    </comp>
    <comp name="--.HHN">
      <acc value="0.0351103508" flag="0"/>
      <vel value="0.0122777838" flag="0"/>
      <psa03 value="0.0931528693" flag="0"/>
      <psa10 value="0.0066491733" flag="0"/>
      <psa30 value="0.0004215967" flag="0"/>
    </comp>
    <comp name="--.HHZ">
      <acc value="0.0324841923" flag="0"/>
      <vel value="0.0164329669" flag="0"/>
      <psa03 value="0.0923589469" flag="0"/>
      <psa10 value="0.0055464532" flag="0"/>
      <psa30 value="0.0005241584" flag="0"/>
    </comp>
  </station>
  <station code="SERG" name="SERG" netid="HP" source="NOA" insttype="120" lat="38.4133" lon="22.0566">
    <comp name="--.HHE">
      <acc value="0.0707149656" flag="0"/>
      <vel value="0.0227193861" flag="0"/>
      <psa03 value="0.1752856804" flag="0"/>
      <psa10 value="0.0064939249" flag="0"/>
      <psa30 value="0.0005237909" flag="0"/>
    </comp>
    <comp name="--.HHN">
      <acc value="0.0528968244" flag="0"/>
      <vel value="0.0200470060" flag="0"/>
      <psa03 value="0.1105115810" flag="0"/>
      <psa10 value="0.0065697610" flag="0"/>
      <psa30 value="0.0006822483" flag="0"/>
    </comp>
    <comp name="--.HHZ">
      <acc value="0.0264111394" flag="0"/>
      <vel value="0.0071429155" flag="0"/>
      <psa03 value="0.0380470209" flag="0"/>
      <psa10 value="0.0024297702" flag="0"/>
      <psa30 value="0.0002312730" flag="0"/>
    </comp>
  </station>
</stationlist>
