<stationlist created="1763977661">
	<station code="MYT1" name="MYT1" netid="HI" source="ITSAK Strong Motion Network" insttype="" lat="39.085" lon="26.5694">
		<comp name="--.HNE" depth="0.0">
			<acc value="0.0062927902781088" flag="0"/>
			<vel value="0.00711571284287" flag="0"/>
			<psa03 value="0.0247718545554747" flag="0"/>
			<psa10 value="0.0145057378089415" flag="0"/>
			<psa30 value="0.00117378254899881" flag="0"/>
		</comp>
		<comp name="--.HNN" depth="0.0">
			<acc value="0.0051361578341808" flag="0"/>
			<vel value="0.0054648622296" flag="0"/>
			<psa03 value="0.015519278076024" flag="0"/>
			<psa10 value="0.0104664727274567" flag="0"/>
			<psa30 value="0.00139426152965084" flag="0"/>
		</comp>
		<comp name="--.HNZ" depth="0.0">
			<acc value="0.0040094215344588" flag="0"/>
			<vel value="0.0032632257165" flag="0"/>
			<psa03 value="0.0109859282846877" flag="0"/>
			<psa10 value="0.00515193613425375" flag="0"/>
			<psa30 value="0.000759568598943228" flag="0"/>
		</comp>
	</station>
	<station code="PRK" name="PRK" netid="HL" source="National Observatory of Athens Seismic Network" insttype="" lat="39.24565" lon="26.26499">
		<comp name="--.HNE" depth="0.0">
			<acc value="0.0054062149021272" flag="0"/>
			<vel value="0.00356373428948" flag="0"/>
			<psa03 value="0.0182552418722875" flag="0"/>
			<psa10 value="0.00817578535565879" flag="0"/>
			<psa30 value="0.000607670828126205" flag="0"/>
		</comp>
		<comp name="--.HNN" depth="0.0">
			<acc value="0.0035219974519782" flag="0"/>
			<vel value="0.00289550249559" flag="0"/>
			<psa03 value="0.00779224731794744" flag="0"/>
			<psa10 value="0.004191218585163" flag="0"/>
			<psa30 value="0.000629596343083754" flag="0"/>
		</comp>
		<comp name="--.HNZ" depth="0.0">
			<acc value="0.0027461085953148" flag="0"/>
			<vel value="0.00171111696368" flag="0"/>
			<psa03 value="0.00756822596718374" flag="0"/>
			<psa10 value="0.00267221514614079" flag="0"/>
			<psa30 value="0.000431031340169241" flag="0"/>
		</comp>
	</station>
	<station code="AKS" name="AKS" netid="KO" source="Bogazici University Kandilli Observatory And Earthquake Research Institute (KOERI)" insttype="" lat="38.8785" lon="27.8129">
		<comp name="--.HNE" depth="0.0">
			<acc value="0.082569533258652" flag="0"/>
			<vel value="0.0197965431511" flag="0"/>
			<psa03 value="0.0955168691904756" flag="0"/>
			<psa10 value="0.0247715422431187" flag="0"/>
			<psa30 value="0.00188312474777163" flag="0"/>
		</comp>
		<comp name="--.HNN" depth="0.0">
			<acc value="0.06479682943128" flag="0"/>
			<vel value="0.0234577904006" flag="0"/>
			<psa03 value="0.0695874223254056" flag="0"/>
			<psa10 value="0.0113890704075231" flag="0"/>
			<psa30 value="0.00166398220982018" flag="0"/>
		</comp>
		<comp name="--.HNZ" depth="0.0">
			<acc value="0.038699735937108" flag="0"/>
			<vel value="0.00757499972284" flag="0"/>
			<psa03 value="0.0249444076529156" flag="0"/>
			<psa10 value="0.00797511049942247" flag="0"/>
			<psa30 value="0.001938913443499" flag="0"/>
		</comp>
	</station>
	<station code="ARMT" name="ARMT" netid="KO" source="Bogazici University Kandilli Observatory And Earthquake Research Institute (KOERI)" insttype="" lat="40.5683" lon="28.866">
		<comp name="--.HNE" depth="0.0">
			<acc value="0.014186036589078" flag="0"/>
			<vel value="0.0121773580762" flag="0"/>
			<psa03 value="0.0330782563763083" flag="0"/>
			<psa10 value="0.0124557516949371" flag="0"/>
			<psa30 value="0.000628759725161557" flag="0"/>
		</comp>
		<comp name="--.HNN" depth="0.0">
			<acc value="0.016055056431366" flag="0"/>
			<vel value="0.0109049825715" flag="0"/>
			<psa03 value="0.0340267280620508" flag="0"/>
			<psa10 value="0.0158537083553871" flag="0"/>
			<psa30 value="0.000783564251036894" flag="0"/>
		</comp>
		<comp name="--.HNZ" depth="0.0">
			<acc value="0.010224733129728" flag="0"/>
			<vel value="0.00632222350812" flag="0"/>
			<psa03 value="0.0154637939317186" flag="0"/>
			<psa10 value="0.00408561393314146" flag="0"/>
			<psa30 value="0.000561538917948569" flag="0"/>
		</comp>
	</station>
	<station code="BALB" name="BALB" netid="KO" source="Bogazici University Kandilli Observatory And Earthquake Research Institute (KOERI)" insttype="" lat="39.6507" lon="27.8642">
		<comp name="--.HNE" depth="0.0">
			<acc value="0.060080042142102" flag="0"/>
			<vel value="0.0235672949243" flag="0"/>
			<psa03 value="0.117825013662403" flag="0"/>
			<psa10 value="0.0218440814381932" flag="0"/>
			<psa30 value="0.00184958273411339" flag="0"/>
		</comp>
		<comp name="--.HNN" depth="0.0">
			<acc value="0.06030146383686" flag="0"/>
			<vel value="0.0262359517632" flag="0"/>
			<psa03 value="0.145859495808923" flag="0"/>
			<psa10 value="0.0384918936490349" flag="0"/>
			<psa30 value="0.00233741463391537" flag="0"/>
		</comp>
		<comp name="--.HNZ" depth="0.0">
			<acc value="0.036646242832632" flag="0"/>
			<vel value="0.0109603557453" flag="0"/>
			<psa03 value="0.057580100857509" flag="0"/>
			<psa10 value="0.0120505645407708" flag="0"/>
			<psa30 value="0.00133036563019511" flag="0"/>
		</comp>
	</station>
	<station code="BIGA" name="BIGA" netid="KO" source="Bogazici University Kandilli Observatory And Earthquake Research Institute (KOERI)" insttype="" lat="40.28134" lon="27.15048">
		<comp name="--.HNE" depth="0.0">
			<acc value="0.014997774769488" flag="0"/>
			<vel value="0.00896320480198" flag="0"/>
			<psa03 value="0.0272350255409347" flag="0"/>
			<psa10 value="0.0105656686737018" flag="0"/>
			<psa30 value="0.000945088649151947" flag="0"/>
		</comp>
		<comp name="--.HNN" depth="0.0">
			<acc value="0.035337279287568" flag="0"/>
			<vel value="0.0142271579767" flag="0"/>
			<psa03 value="0.0912192094915281" flag="0"/>
			<psa10 value="0.0114365757420051" flag="0"/>
			<psa30 value="0.000905177880257314" flag="0"/>
		</comp>
		<comp name="--.HNZ" depth="0.0">
			<acc value="0.0083222695433214" flag="0"/>
			<vel value="0.00277046939556" flag="0"/>
			<psa03 value="0.0111254765915457" flag="0"/>
			<psa10 value="0.00286007352833552" flag="0"/>
			<psa30 value="0.000312573492918082" flag="0"/>
		</comp>
	</station>
	<station code="BMYO" name="BMYO" netid="KO" source="Bogazici University Kandilli Observatory And Earthquake Research Institute (KOERI)" insttype="" lat="39.8098" lon="26.6009">
		<comp name="--.HNE" depth="0.0">
			<acc value="0.010334284975332" flag="0"/>
			<vel value="0.00926019433792" flag="0"/>
			<psa03 value="0.0289336224396581" flag="0"/>
			<psa10 value="0.0166364227063393" flag="0"/>
			<psa30 value="0.000969345360204814" flag="0"/>
		</comp>
		<comp name="--.HNN" depth="0.0">
			<acc value="0.013492347798792" flag="0"/>
			<vel value="0.00618498489642" flag="0"/>
			<psa03 value="0.0225513116220686" flag="0"/>
			<psa10 value="0.0138542784029491" flag="0"/>
			<psa30 value="0.0012497999806155" flag="0"/>
		</comp>
		<comp name="--.HNZ" depth="0.0">
			<acc value="0.0054125742328362" flag="0"/>
			<vel value="0.00439685411075" flag="0"/>
			<psa03 value="0.00945924446707888" flag="0"/>
			<psa10 value="0.00983715010042813" flag="0"/>
			<psa30 value="0.000828562231933374" flag="0"/>
		</comp>
	</station>
	<station code="CANM" name="CANM" netid="KO" source="Bogazici University Kandilli Observatory And Earthquake Research Institute (KOERI)" insttype="" lat="40.0113" lon="27.0529">
		<comp name="--.HNE" depth="0.0">
			<acc value="0.012026827757304" flag="0"/>
			<vel value="0.00944047676294" flag="0"/>
			<psa03 value="0.0217110476253747" flag="0"/>
			<psa10 value="0.017680992528977" flag="0"/>
			<psa30 value="0.00121884313821087" flag="0"/>
		</comp>
		<comp name="--.HNN" depth="0.0">
			<acc value="0.01766369876562" flag="0"/>
			<vel value="0.0152574341042" flag="0"/>
			<psa03 value="0.0262688026792544" flag="0"/>
			<psa10 value="0.0379956495253005" flag="0"/>
			<psa30 value="0.00150291654001059" flag="0"/>
		</comp>
		<comp name="--.HNZ" depth="0.0">
			<acc value="0.0095198371244484" flag="0"/>
			<vel value="0.00483466396147" flag="0"/>
			<psa03 value="0.020069886823187" flag="0"/>
			<psa10 value="0.0101755687690011" flag="0"/>
			<psa30 value="0.000667697304584039" flag="0"/>
		</comp>
	</station>
	<station code="DST" name="DST" netid="KO" source="Bogazici University Kandilli Observatory And Earthquake Research Institute (KOERI)" insttype="" lat="39.6041" lon="28.6267">
		<comp name="--.HNE" depth="0.0">
			<acc value="0.037980514874532" flag="0"/>
			<vel value="0.0131497288021" flag="0"/>
			<psa03 value="0.0636266159926125" flag="0"/>
			<psa10 value="0.0130518686847402" flag="0"/>
			<psa30 value="0.000972006890687178" flag="0"/>
		</comp>
		<comp name="--.HNN" depth="0.0">
			<acc value="0.037529808638862" flag="0"/>
			<vel value="0.0115562809558" flag="0"/>
			<psa03 value="0.0663361809048798" flag="0"/>
			<psa10 value="0.0145519118052449" flag="0"/>
			<psa30 value="0.00130148392525744" flag="0"/>
		</comp>
		<comp name="--.HNZ" depth="0.0">
			<acc value="0.038806530907128" flag="0"/>
			<vel value="0.00978877113457" flag="0"/>
			<psa03 value="0.0426914166385084" flag="0"/>
			<psa10 value="0.00895148111669763" flag="0"/>
			<psa30 value="0.00083053762320989" flag="0"/>
		</comp>
	</station>
	<station code="GOMA" name="GOMA" netid="KO" source="Bogazici University Kandilli Observatory And Earthquake Research Institute (KOERI)" insttype="" lat="38.7077" lon="27.9175">
		<comp name="--.HNE" depth="0.0">
			<acc value="0.037757235942456" flag="0"/>
			<vel value="0.0183505248802" flag="0"/>
			<psa03 value="0.0696796211413838" flag="0"/>
			<psa10 value="0.00614109744257507" flag="0"/>
			<psa30 value="0.000616882792541347" flag="0"/>
		</comp>
		<comp name="--.HNN" depth="0.0">
			<acc value="0.036888897142068" flag="0"/>
			<vel value="0.0150101833107" flag="0"/>
			<psa03 value="0.0612918363248411" flag="0"/>
			<psa10 value="0.00593361822931867" flag="0"/>
			<psa30 value="0.00116653373546627" flag="0"/>
		</comp>
		<comp name="--.HNZ" depth="0.0">
			<acc value="0.031118562011172" flag="0"/>
			<vel value="0.00987267291876" flag="0"/>
			<psa03 value="0.0339294247411855" flag="0"/>
			<psa10 value="0.00325209356023845" flag="0"/>
			<psa30 value="0.000834403816822696" flag="0"/>
		</comp>
	</station>
	<station code="GONE" name="GONE" netid="KO" source="Bogazici University Kandilli Observatory And Earthquake Research Institute (KOERI)" insttype="" lat="40.0466" lon="27.686">
		<comp name="--.HNE" depth="0.0">
			<acc value="0.02335717684215" flag="0"/>
			<vel value="0.0121260727366" flag="0"/>
			<psa03 value="0.0375172770021464" flag="0"/>
			<psa10 value="0.018317529696462" flag="0"/>
			<psa30 value="0.000841284012187246" flag="0"/>
		</comp>
		<comp name="--.HNN" depth="0.0">
			<acc value="0.023563178930892" flag="0"/>
			<vel value="0.0101123268142" flag="0"/>
			<psa03 value="0.0465074194297803" flag="0"/>
			<psa10 value="0.017542435850284" flag="0"/>
			<psa30 value="0.00151765730818156" flag="0"/>
		</comp>
		<comp name="--.HNZ" depth="0.0">
			<acc value="0.011887889358168" flag="0"/>
			<vel value="0.00414251719152" flag="0"/>
			<psa03 value="0.0226594463895977" flag="0"/>
			<psa10 value="0.00414580260784316" flag="0"/>
			<psa30 value="0.000460094333158191" flag="0"/>
		</comp>
	</station>
	<station code="GORD" name="GORD" netid="KO" source="Bogazici University Kandilli Observatory And Earthquake Research Institute (KOERI)" insttype="" lat="38.9088" lon="28.1769">
		<comp name="--.HNE" depth="0.0">
			<acc value="0.03228607868181" flag="0"/>
			<vel value="0.0182890391782" flag="0"/>
			<psa03 value="0.0595417985186051" flag="0"/>
			<psa10 value="0.0286433249797191" flag="0"/>
			<psa30 value="0.00421737271358003" flag="0"/>
		</comp>
		<comp name="--.HNN" depth="0.0">
			<acc value="0.037528465319976" flag="0"/>
			<vel value="0.0192659063635" flag="0"/>
			<psa03 value="0.0678033978924952" flag="0"/>
			<psa10 value="0.0234041922878595" flag="0"/>
			<psa30 value="0.00315995558155088" flag="0"/>
		</comp>
		<comp name="--.HNZ" depth="0.0">
			<acc value="0.028953227299404" flag="0"/>
			<vel value="0.0130335745051" flag="0"/>
			<psa03 value="0.0643780980664315" flag="0"/>
			<psa10 value="0.0168216043487519" flag="0"/>
			<psa30 value="0.00310379269436491" flag="0"/>
		</comp>
	</station>
	<station code="KOUK" name="KOUK" netid="KO" source="Bogazici University Kandilli Observatory And Earthquake Research Institute (KOERI)" insttype="" lat="40.6572" lon="29.1918">
		<comp name="--.HNE" depth="0.0">
			<acc value="0.01753331910264" flag="0"/>
			<vel value="0.0189144918412" flag="0"/>
			<psa03 value="0.0431060196247351" flag="0"/>
			<psa10 value="0.0279808867214203" flag="0"/>
			<psa30 value="0.00316675811551843" flag="0"/>
		</comp>
		<comp name="--.HNN" depth="0.0">
			<acc value="0.013770132935172" flag="0"/>
			<vel value="0.0150761409478" flag="0"/>
			<psa03 value="0.0249911294980181" flag="0"/>
			<psa10 value="0.0360866043104448" flag="0"/>
			<psa30 value="0.0035952840032558" flag="0"/>
		</comp>
		<comp name="--.HNZ" depth="0.0">
			<acc value="0.0084177568455756" flag="0"/>
			<vel value="0.00788078691798" flag="0"/>
			<psa03 value="0.0428120496298292" flag="0"/>
			<psa10 value="0.0157445048711931" flag="0"/>
			<psa30 value="0.00186634634461728" flag="0"/>
		</comp>
	</station>
	<station code="KRBG" name="KRBG" netid="KO" source="Bogazici University Kandilli Observatory And Earthquake Research Institute (KOERI)" insttype="" lat="40.3932" lon="27.2977">
		<comp name="--.HNE" depth="0.0">
			<acc value="0.0086759055891252" flag="0"/>
			<vel value="0.00396463540096" flag="0"/>
			<psa03 value="0.0142475558098316" flag="0"/>
			<psa10 value="0.00777742459122162" flag="0"/>
			<psa30 value="0.000495037689649214" flag="0"/>
		</comp>
		<comp name="--.HNN" depth="0.0">
			<acc value="0.0063425330447748" flag="0"/>
			<vel value="0.00528627567437" flag="0"/>
			<psa03 value="0.0112127128392785" flag="0"/>
			<psa10 value="0.00798041428826782" flag="0"/>
			<psa30 value="0.000905107667274425" flag="0"/>
		</comp>
		<comp name="--.HNZ" depth="0.0">
			<acc value="0.003568630890159" flag="0"/>
			<vel value="0.00194471689715" flag="0"/>
			<psa03 value="0.00721363346679188" flag="0"/>
			<psa10 value="0.00219029603386255" flag="0"/>
			<psa30 value="0.000527171016242788" flag="0"/>
		</comp>
	</station>
	<station code="LAPK" name="LAPK" netid="KO" source="Bogazici University Kandilli Observatory And Earthquake Research Institute (KOERI)" insttype="" lat="40.3151" lon="26.6425">
		<comp name="--.HNE" depth="0.0">
			<acc value="0.020031152508444" flag="0"/>
			<vel value="0.0140962697053" flag="0"/>
			<psa03 value="0.0443963368727573" flag="0"/>
			<psa10 value="0.0193833165496001" flag="0"/>
			<psa30 value="0.00136083473195759" flag="0"/>
		</comp>
		<comp name="--.HNN" depth="0.0">
			<acc value="0.01514626748955" flag="0"/>
			<vel value="0.0138725099442" flag="0"/>
			<psa03 value="0.0433140672610334" flag="0"/>
			<psa10 value="0.0228733483720724" flag="0"/>
			<psa30 value="0.00203036283490776" flag="0"/>
		</comp>
		<comp name="--.HNZ" depth="0.0">
			<acc value="0.0082778398402938" flag="0"/>
			<vel value="0.00655716783787" flag="0"/>
			<psa03 value="0.0216072243413035" flag="0"/>
			<psa10 value="0.0130237361961149" flag="0"/>
			<psa30 value="0.000618120166175564" flag="0"/>
		</comp>
	</station>
	<station code="MDNY" name="MDNY" netid="KO" source="Bogazici University Kandilli Observatory And Earthquake Research Institute (KOERI)" insttype="" lat="40.3709" lon="28.8846">
		<comp name="--.HNE" depth="0.0">
			<acc value="0.048760088998746" flag="0"/>
			<vel value="0.023269783894" flag="0"/>
			<psa03 value="0.099279670540887" flag="0"/>
			<psa10 value="0.0130238168264347" flag="0"/>
			<psa30 value="0.00136404359035915" flag="0"/>
		</comp>
		<comp name="--.HNN" depth="0.0">
			<acc value="0.066773617919166" flag="0"/>
			<vel value="0.0229978362319" flag="0"/>
			<psa03 value="0.218971401614235" flag="0"/>
			<psa10 value="0.0112416050136554" flag="0"/>
			<psa30 value="0.000959040927590154" flag="0"/>
		</comp>
		<comp name="--.HNZ" depth="0.0">
			<acc value="0.025458524712978" flag="0"/>
			<vel value="0.00962970610232" flag="0"/>
			<psa03 value="0.0225313519664721" flag="0"/>
			<psa10 value="0.00934673667543734" flag="0"/>
			<psa30 value="0.00135254605787046" flag="0"/>
		</comp>
	</station>
	<station code="NAZL" name="NAZL" netid="KO" source="Bogazici University Kandilli Observatory And Earthquake Research Institute (KOERI)" insttype="" lat="37.9641" lon="28.2922">
		<comp name="--.HNE" depth="0.0">
			<acc value="0.011002802982348" flag="0"/>
			<vel value="0.00543177265521" flag="0"/>
			<psa03 value="0.0211085975597484" flag="0"/>
			<psa10 value="0.00603881316674404" flag="0"/>
			<psa30 value="0.000908045153535251" flag="0"/>
		</comp>
		<comp name="--.HNN" depth="0.0">
			<acc value="0.0073718107367538" flag="0"/>
			<vel value="0.00428779657213" flag="0"/>
			<psa03 value="0.020676608005047" flag="0"/>
			<psa10 value="0.00413271611590362" flag="0"/>
			<psa30 value="0.000366712678331953" flag="0"/>
		</comp>
		<comp name="--.HNZ" depth="0.0">
			<acc value="0.0075389881031196" flag="0"/>
			<vel value="0.00218185727598" flag="0"/>
			<psa03 value="0.0120899779850592" flag="0"/>
			<psa10 value="0.00176525318935946" flag="0"/>
			<psa30 value="0.000319524213785807" flag="0"/>
		</comp>
	</station>
	<station code="ORLT" name="ORLT" netid="KO" source="Bogazici University Kandilli Observatory And Earthquake Research Institute (KOERI)" insttype="" lat="40.0452" lon="28.8914">
		<comp name="--.HNE" depth="0.0">
			<acc value="0.039541277704986" flag="0"/>
			<vel value="0.0188660820032" flag="0"/>
			<psa03 value="0.106694703417079" flag="0"/>
			<psa10 value="0.0271385884233059" flag="0"/>
			<psa30 value="0.00151055079574278" flag="0"/>
		</comp>
		<comp name="--.HNN" depth="0.0">
			<acc value="0.056170271763822" flag="0"/>
			<vel value="0.0263686045405" flag="0"/>
			<psa03 value="0.0915225941728254" flag="0"/>
			<psa10 value="0.0253327369195094" flag="0"/>
			<psa30 value="0.00183973833196795" flag="0"/>
		</comp>
		<comp name="--.HNZ" depth="0.0">
			<acc value="0.018069062258502" flag="0"/>
			<vel value="0.00990297539142" flag="0"/>
			<psa03 value="0.0370400318453479" flag="0"/>
			<psa10 value="0.013712066169592" flag="0"/>
			<psa30 value="0.00166649675139777" flag="0"/>
		</comp>
	</station>
	<station code="SHAP" name="SHAP" netid="KO" source="Bogazici University Kandilli Observatory And Earthquake Research Institute (KOERI)" insttype="" lat="39.0231" lon="29.222">
		<comp name="--.HNE" depth="0.0">
			<acc value="0.052746711209502" flag="0"/>
			<vel value="0.0152882196497" flag="0"/>
			<psa03 value="0.0868752967288921" flag="0"/>
			<psa10 value="0.00634089755332566" flag="0"/>
			<psa30 value="0.0005543831314098" flag="0"/>
		</comp>
		<comp name="--.HNN" depth="0.0">
			<acc value="0.075364864259868" flag="0"/>
			<vel value="0.0240764992585" flag="0"/>
			<psa03 value="0.0842811769641663" flag="0"/>
			<psa10 value="0.00570563265764886" flag="0"/>
			<psa30 value="0.000732819483195095" flag="0"/>
		</comp>
		<comp name="--.HNZ" depth="0.0">
			<acc value="0.039647258584854" flag="0"/>
			<vel value="0.0101126434432" flag="0"/>
			<psa03 value="0.0270722335067783" flag="0"/>
			<psa10 value="0.00317450631108733" flag="0"/>
			<psa30 value="0.00041735858545797" flag="0"/>
		</comp>
	</station>
	<station code="SLVT" name="SLVT" netid="KO" source="Bogazici University Kandilli Observatory And Earthquake Research Institute (KOERI)" insttype="" lat="41.2288" lon="28.2098">
		<comp name="--.HNE" depth="0.0">
			<acc value="0.0039302612852292" flag="0"/>
			<vel value="0.00305834574888" flag="0"/>
			<psa03 value="0.00710409821580254" flag="0"/>
			<psa10 value="0.00626253564349142" flag="0"/>
			<psa30 value="0.000876443997615124" flag="0"/>
		</comp>
		<comp name="--.HNN" depth="0.0">
