<?xml version="1.0" encoding="UTF-8" standalone="yes"?>
<!DOCTYPE earthquake SYSTEM "stationlist.dtd">
<stationlist created="" xmlns="ch.ethz.sed.shakemap.usgs.xml">
  <station code="AKS" name="AKS" netid="KO" insttype="CMG-5T" commtype="DIG" lat="38.8785" lon="27.8129">
    <comp name="--.HNN">
      <acc value="0.0669595082" flag="0"/>
      <vel value="0.0227432207" flag="0"/>
      <psa03 value="0.0690655810" flag="0"/>
      <psa10 value="0.0113202515" flag="0"/>
      <psa30 value="0.0014992721" flag="0"/>
    </comp>
    <comp name="--.HNE">
      <acc value="0.0833470020" flag="0"/>
      <vel value="0.0190625424" flag="0"/>
      <psa03 value="0.0957289998" flag="0"/>
      <psa10 value="0.0246439255" flag="0"/>
      <psa30 value="0.0016590232" flag="0"/>
    </comp>
    <comp name="--.HNZ">
      <acc value="0.0407858360" flag="0"/>
      <vel value="0.0074494755" flag="0"/>
      <psa03 value="0.0248995767" flag="0"/>
      <psa10 value="0.0078500434" flag="0"/>
      <psa30 value="0.0016949536" flag="0"/>
    </comp>
  </station>
  <station code="BALB" name="BALB" netid="KO" insttype="CMG-5T" commtype="DIG" lat="39.6507" lon="27.8642">
    <comp name="--.HNZ">
      <acc value="0.0366053656" flag="0"/>
      <vel value="0.0109534552" flag="0"/>
      <psa03 value="0.0569819910" flag="0"/>
      <psa10 value="0.0120613168" flag="0"/>
      <psa30 value="0.0012398592" flag="0"/>
    </comp>
    <comp name="--.HNN">
      <acc value="0.0602543060" flag="0"/>
      <vel value="0.0259987265" flag="0"/>
      <psa03 value="0.1467581860" flag="0"/>
      <psa10 value="0.0383571453" flag="0"/>
      <psa30 value="0.0022435607" flag="0"/>
    </comp>
    <comp name="--.HNE">
      <acc value="0.0602741199" flag="0"/>
      <vel value="0.0233368913" flag="0"/>
      <psa03 value="0.1168039759" flag="0"/>
      <psa10 value="0.0219070203" flag="0"/>
      <psa30 value="0.0017020772" flag="0"/>
    </comp>
  </station>
  <station code="DKL" name="DKL" netid="KO" insttype="CMG-3ESPC" commtype="DIG" lat="39.0713" lon="26.9053">
    <comp name="--.HHN">
      <acc value="0.0061666174" flag="0"/>
      <vel value="0.0029719233" flag="0"/>
      <psa03 value="0.0123166429" flag="0"/>
      <psa10 value="0.0042661845" flag="0"/>
      <psa30 value="0.0005452862" flag="0"/>
    </comp>
    <comp name="--.HHZ">
      <acc value="0.0039010014" flag="0"/>
      <vel value="0.0020945568" flag="0"/>
      <psa03 value="0.0100073072" flag="0"/>
      <psa10 value="0.0030426518" flag="0"/>
      <psa30 value="0.0007303293" flag="0"/>
    </comp>
    <comp name="--.HHE">
      <acc value="0.0048475556" flag="0"/>
      <vel value="0.0026675407" flag="0"/>
      <psa03 value="0.0148074829" flag="0"/>
      <psa10 value="0.0024913861" flag="0"/>
      <psa30 value="0.0007220843" flag="0"/>
    </comp>
  </station>
  <station code="DST" name="DST" netid="KO" insttype="CMG-5T" commtype="DIG" lat="39.6041" lon="28.6267">
    <comp name="--.HNE">
      <acc value="0.0416887008" flag="0"/>
      <vel value="0.0130999930" flag="0"/>
      <psa03 value="0.0628765289" flag="0"/>
      <psa10 value="0.0131200595" flag="0"/>
      <psa30 value="0.0012261226" flag="0"/>
    </comp>
    <comp name="--.HNN">
      <acc value="0.0370621192" flag="0"/>
      <vel value="0.0117369545" flag="0"/>
      <psa03 value="0.0669297264" flag="0"/>
      <psa10 value="0.0145588224" flag="0"/>
      <psa30 value="0.0015333528" flag="0"/>
    </comp>
    <comp name="--.HNZ">
      <acc value="0.0419045246" flag="0"/>
      <vel value="0.0096638675" flag="0"/>
      <psa03 value="0.0426721993" flag="0"/>
      <psa10 value="0.0090000011" flag="0"/>
      <psa30 value="0.0010979075" flag="0"/>
    </comp>
  </station>
  <station code="GOMA" name="GOMA" netid="KO" insttype="CMG-5T" commtype="DIG" lat="38.7077" lon="27.9175">
    <comp name="--.HNN">
      <acc value="0.0370509639" flag="0"/>
      <vel value="0.0149214080" flag="0"/>
      <psa03 value="0.0610613778" flag="0"/>
      <psa10 value="0.0059275575" flag="0"/>
      <psa30 value="0.0015599341" flag="0"/>
    </comp>
    <comp name="--.HNE">
      <acc value="0.0381744735" flag="0"/>
      <vel value="0.0183117602" flag="0"/>
      <psa03 value="0.0696891792" flag="0"/>
      <psa10 value="0.0061743773" flag="0"/>
      <psa30 value="0.0006743756" flag="0"/>
    </comp>
    <comp name="--.HNZ">
      <acc value="0.0311099844" flag="0"/>
      <vel value="0.0098930427" flag="0"/>
      <psa03 value="0.0339192584" flag="0"/>
      <psa10 value="0.0033054739" flag="0"/>
      <psa30 value="0.0011228741" flag="0"/>
    </comp>
  </station>
  <station code="GONE" name="GONE" netid="KO" insttype="CMG-5T" commtype="DIG" lat="40.0466" lon="27.686">
    <comp name="--.HNZ">
      <acc value="0.0126025416" flag="0"/>
      <vel value="0.0042647251" flag="0"/>
      <psa03 value="0.0223815229" flag="0"/>
      <psa10 value="0.0041250527" flag="0"/>
      <psa30 value="0.0003663985" flag="0"/>
    </comp>
    <comp name="--.HNE">
      <acc value="0.0233530726" flag="0"/>
      <vel value="0.0120192110" flag="0"/>
      <psa03 value="0.0365389689" flag="0"/>
      <psa10 value="0.0182986461" flag="0"/>
      <psa30 value="0.0008287666" flag="0"/>
    </comp>
    <comp name="--.HNN">
      <acc value="0.0235302303" flag="0"/>
      <vel value="0.0099446776" flag="0"/>
      <psa03 value="0.0461980448" flag="0"/>
      <psa10 value="0.0175967440" flag="0"/>
      <psa30 value="0.0015413421" flag="0"/>
    </comp>
  </station>
  <station code="GORD" name="GORD" netid="KO" insttype="CMG-5T" commtype="DIG" lat="38.9088" lon="28.1769">
    <comp name="--.HNE">
      <acc value="0.0328688019" flag="0"/>
      <vel value="0.0168876703" flag="0"/>
      <psa03 value="0.0600376441" flag="0"/>
      <psa10 value="0.0285202830" flag="0"/>
      <psa30 value="0.0037353059" flag="0"/>
    </comp>
    <comp name="--.HNN">
      <acc value="0.0389422423" flag="0"/>
      <vel value="0.0185914336" flag="0"/>
      <psa03 value="0.0675533179" flag="0"/>
      <psa10 value="0.0232399653" flag="0"/>
      <psa30 value="0.0028318836" flag="0"/>
    </comp>
    <comp name="--.HNZ">
      <acc value="0.0305999505" flag="0"/>
      <vel value="0.0121168224" flag="0"/>
      <psa03 value="0.0630177856" flag="0"/>
      <psa10 value="0.0168354270" flag="0"/>
      <psa30 value="0.0027129462" flag="0"/>
    </comp>
  </station>
  <station code="KCTX" name="KCTX" netid="KO" insttype="CMG-3ESP" commtype="DIG" lat="40.2626" lon="28.3353">
    <comp name="--.HHZ">
      <acc value="0.0178155686" flag="0"/>
      <vel value="0.0059592324" flag="0"/>
      <psa03 value="0.0209707121" flag="0"/>
      <psa10 value="0.0051361459" flag="0"/>
      <psa30 value="0.0004569581" flag="0"/>
    </comp>
    <comp name="--.HHN">
      <acc value="0.0244804970" flag="0"/>
      <vel value="0.0122042133" flag="0"/>
      <psa03 value="0.0403456255" flag="0"/>
      <psa10 value="0.0129338714" flag="0"/>
      <psa30 value="0.0006471930" flag="0"/>
    </comp>
    <comp name="--.HHE">
      <acc value="0.0227538096" flag="0"/>
      <vel value="0.0118632049" flag="0"/>
      <psa03 value="0.0331183589" flag="0"/>
      <psa10 value="0.0198025297" flag="0"/>
      <psa30 value="0.0009913343" flag="0"/>
    </comp>
  </station>
  <station code="KULA" name="KULA" netid="KO" insttype="CMG-3T" commtype="DIG" lat="38.5145" lon="28.6607">
    <comp name="--.HHE">
      <acc value="0.0217373797" flag="0"/>
      <vel value="0.0072994141" flag="0"/>
      <psa03 value="0.0294517909" flag="0"/>
      <psa10 value="0.0041084078" flag="0"/>
      <psa30 value="0.0005360187" flag="0"/>
    </comp>
    <comp name="--.HHN">
      <acc value="0.0186398521" flag="0"/>
      <vel value="0.0057141755" flag="0"/>
      <psa03 value="0.0282713970" flag="0"/>
      <psa10 value="0.0017169243" flag="0"/>
      <psa30 value="0.0003748967" flag="0"/>
    </comp>
    <comp name="--.HHZ">
      <acc value="0.0143009180" flag="0"/>
      <vel value="0.0032746447" flag="0"/>
      <psa03 value="0.0231598403" flag="0"/>
      <psa10 value="0.0022632712" flag="0"/>
      <psa30 value="0.0003126466" flag="0"/>
    </comp>
  </station>
  <station code="ORLT" name="ORLT" netid="KO" insttype="CMG-5T" commtype="DIG" lat="40.0452" lon="28.8914">
    <comp name="--.HNE">
      <acc value="0.0398425920" flag="0"/>
      <vel value="0.0188958302" flag="0"/>
      <psa03 value="0.1058873145" flag="0"/>
      <psa10 value="0.0271897331" flag="0"/>
      <psa30 value="0.0015493284" flag="0"/>
    </comp>
    <comp name="--.HNN">
      <acc value="0.0566994660" flag="0"/>
      <vel value="0.0262336929" flag="0"/>
      <psa03 value="0.0915617354" flag="0"/>
      <psa10 value="0.0253846615" flag="0"/>
      <psa30 value="0.0020020188" flag="0"/>
    </comp>
    <comp name="--.HNZ">
      <acc value="0.0182876738" flag="0"/>
      <vel value="0.0099361067" flag="0"/>
      <psa03 value="0.0377573694" flag="0"/>
      <psa10 value="0.0137382820" flag="0"/>
      <psa30 value="0.0018239272" flag="0"/>
    </comp>
  </station>
  <station code="SHAP" name="SHAP" netid="KO" insttype="CMG-5T" commtype="DIG" lat="39.0231" lon="29.222">
    <comp name="--.HNN">
      <acc value="0.0765157392" flag="0"/>
      <vel value="0.0235913870" flag="0"/>
      <psa03 value="0.0831395856" flag="0"/>
      <psa10 value="0.0056679480" flag="0"/>
      <psa30 value="0.0006328183" flag="0"/>
    </comp>
    <comp name="--.HNE">
      <acc value="0.0529585607" flag="0"/>
      <vel value="0.0153127420" flag="0"/>
      <psa03 value="0.0855869793" flag="0"/>
      <psa10 value="0.0063184276" flag="0"/>
      <psa30 value="0.0004382830" flag="0"/>
    </comp>
    <comp name="--.HNZ">
      <acc value="0.0394362011" flag="0"/>
      <vel value="0.0098866514" flag="0"/>
      <psa03 value="0.0260652991" flag="0"/>
      <psa10 value="0.0031545058" flag="0"/>
      <psa30 value="0.0003718690" flag="0"/>
    </comp>
  </station>
  <station code="SIMA" name="SIMA" netid="KO" insttype="CMG-6T" commtype="DIG" lat="39.0833" lon="28.9825">
    <comp name="--.HHE">
      <acc value="0.0449999917" flag="0"/>
      <vel value="0.0095944208" flag="0"/>
      <psa03 value="0.0603064652" flag="0"/>
      <psa10 value="0.0034459204" flag="0"/>
      <psa30 value="0.0007943692" flag="0"/>
    </comp>
    <comp name="--.HHZ">
      <acc value="0.0332220227" flag="0"/>
      <vel value="0.0057885777" flag="0"/>
      <psa03 value="0.0278366014" flag="0"/>
      <psa10 value="0.0030818428" flag="0"/>
      <psa30 value="0.0003763662" flag="0"/>
    </comp>
    <comp name="--.HHN">
      <acc value="0.0469379149" flag="0"/>
      <vel value="0.0150893847" flag="0"/>
      <psa03 value="0.0958190958" flag="0"/>
      <psa10 value="0.0048926784" flag="0"/>
      <psa30 value="0.0007381799" flag="0"/>
    </comp>
  </station>
  <station code="SMAA" name="SMAA" netid="KO" insttype="CMG-5T" commtype="DIG" lat="39.1005" lon="28.9805">
    <comp name="--.HNE">
      <acc value="0.0462355193" flag="0"/>
      <vel value="0.0216867177" flag="0"/>
      <psa03 value="0.1141100311" flag="0"/>
      <psa10 value="0.0238899226" flag="0"/>
      <psa30 value="0.0029835286" flag="0"/>
    </comp>
    <comp name="--.HNZ">
      <acc value="0.0261429092" flag="0"/>
      <vel value="0.0075838596" flag="0"/>
      <psa03 value="0.0261902534" flag="0"/>
      <psa10 value="0.0149324273" flag="0"/>
      <psa30 value="0.0006128338" flag="0"/>
    </comp>
    <comp name="--.HNN">
      <acc value="0.0508697809" flag="0"/>
      <vel value="0.0177839967" flag="0"/>
      <psa03 value="0.1239785736" flag="0"/>
      <psa10 value="0.0175477220" flag="0"/>
      <psa30 value="0.0024517456" flag="0"/>
    </comp>
  </station>
  <station code="SOMA" name="SOMA" netid="KO" insttype="CMG-5T" commtype="DIG" lat="39.1564" lon="27.5341">
    <comp name="--.HNN">
      <acc value="0.0427862209" flag="0"/>
      <vel value="0.0160463827" flag="0"/>
      <psa03 value="0.1061425612" flag="0"/>
      <psa10 value="0.0183425484" flag="0"/>
      <psa30 value="0.0011486369" flag="0"/>
    </comp>
    <comp name="--.HNE">
      <acc value="0.0555832675" flag="0"/>
      <vel value="0.0138318189" flag="0"/>
      <psa03 value="0.0839365871" flag="0"/>
      <psa10 value="0.0164395860" flag="0"/>
      <psa30 value="0.0020182030" flag="0"/>
    </comp>
    <comp name="--.HNZ">
      <acc value="0.0401738021" flag="0"/>
      <vel value="0.0101308881" flag="0"/>
      <psa03 value="0.0569184175" flag="0"/>
      <psa10 value="0.0100411732" flag="0"/>
      <psa30 value="0.0017168844" flag="0"/>
    </comp>
  </station>
  <station code="SUSR" name="SUSR" netid="KO" insttype="CMG-5T" commtype="DIG" lat="39.9627" lon="28.0835">
    <comp name="--.HNE">
      <acc value="0.0246468691" flag="0"/>
      <vel value="0.0084870626" flag="0"/>
      <psa03 value="0.0562036103" flag="0"/>
      <psa10 value="0.0041846289" flag="0"/>
      <psa30 value="0.0004720215" flag="0"/>
    </comp>
    <comp name="--.HNZ">
      <acc value="0.0242579451" flag="0"/>
      <vel value="0.0058317215" flag="0"/>
      <psa03 value="0.0320494760" flag="0"/>
      <psa10 value="0.0047617654" flag="0"/>
      <psa30 value="0.0007495108" flag="0"/>
    </comp>
    <comp name="--.HNN">
      <acc value="0.0305845681" flag="0"/>
      <vel value="0.0099540993" flag="0"/>
      <psa03 value="0.0472222998" flag="0"/>
      <psa10 value="0.0056677916" flag="0"/>
      <psa30 value="0.0006172469" flag="0"/>
    </comp>
  </station>
  <station code="TVSB" name="TVSB" netid="KO" insttype="CMG-3T" commtype="DIG" lat="39.4497" lon="29.4615">
    <comp name="--.HHE">
      <acc value="0.0229924965" flag="0"/>
      <vel value="0.0104119020" flag="0"/>
      <psa03 value="0.0364307482" flag="0"/>
      <psa10 value="0.0058103798" flag="0"/>
      <psa30 value="0.0004501774" flag="0"/>
    </comp>
    <comp name="--.HHZ">
      <acc value="0.0098664985" flag="0"/>
      <vel value="0.0034034531" flag="0"/>
      <psa03 value="0.0159358322" flag="0"/>
      <psa10 value="0.0049239776" flag="0"/>
      <psa30 value="0.0005402064" flag="0"/>
    </comp>
    <comp name="--.HHN">
      <acc value="0.0207147000" flag="0"/>
      <vel value="0.0066745860" flag="0"/>
      <psa03 value="0.0391908351" flag="0"/>
      <psa10 value="0.0041966293" flag="0"/>
      <psa30 value="0.0003926771" flag="0"/>
    </comp>
  </station>
  <station code="YAYO" name="YAYO" netid="KO" insttype="CMG-6T" commtype="DIG" lat="39.6113" lon="27.0726">
    <comp name="--.HHZ">
      <acc value="0.0104736180" flag="0"/>
      <vel value="0.0034162681" flag="0"/>
      <psa03 value="0.0227970946" flag="0"/>
      <psa10 value="0.0034093135" flag="0"/>
      <psa30 value="0.0005198535" flag="0"/>
    </comp>
    <comp name="--.HHE">
      <acc value="0.0112583980" flag="0"/>
      <vel value="0.0049554491" flag="0"/>
      <psa03 value="0.0285232428" flag="0"/>
      <psa10 value="0.0073611496" flag="0"/>
      <psa30 value="0.0004623608" flag="0"/>
    </comp>
    <comp name="--.HHN">
      <acc value="0.0116665609" flag="0"/>
      <vel value="0.0056225225" flag="0"/>
      <psa03 value="0.0312165395" flag="0"/>
      <psa10 value="0.0061758835" flag="0"/>
      <psa30 value="0.0005632373" flag="0"/>
    </comp>
  </station>
  <station code="YENI" name="YENI" netid="KO" insttype="CMG-5T" commtype="DIG" lat="39.9364" lon="27.2422">
    <comp name="--.HNE">
      <acc value="0.0315888053" flag="0"/>
      <vel value="0.0119882130" flag="0"/>
      <psa03 value="0.0640508499" flag="0"/>
      <psa10 value="0.0111370892" flag="0"/>
      <psa30 value="0.0006633792" flag="0"/>
    </comp>
    <comp name="--.HNN">
      <acc value="0.0346132222" flag="0"/>
      <vel value="0.0204898658" flag="0"/>
      <psa03 value="0.0655735901" flag="0"/>
      <psa10 value="0.0199904742" flag="0"/>
      <psa30 value="0.0015545533" flag="0"/>
    </comp>
    <comp name="--.HNZ">
      <acc value="0.0121020317" flag="0"/>
      <vel value="0.0046704258" flag="0"/>
      <psa03 value="0.0163032669" flag="0"/>
      <psa10 value="0.0050817185" flag="0"/>
      <psa30 value="0.0005690482" flag="0"/>
    </comp>
  </station>
</stationlist>
