<?xml version="1.0" encoding="UTF-8" standalone="yes"?>
<!DOCTYPE earthquake SYSTEM "stationlist.dtd">
<stationlist created="" xmlns="ch.ethz.sed.shakemap.usgs.xml">
  <station code="APE" name="APE" netid="GE" insttype="STS-2/N" lat="37.0727" lon="25.523">
    <comp name="--.HHE">
      <acc value="0.1427872773" flag="0"/>
      <vel value="0.0402569269" flag="0"/>
      <psa03 value="0.2755846305" flag="0"/>
      <psa10 value="0.0063598169" flag="0"/>
      <psa30 value="0.0006671262" flag="0"/>
    </comp>
    <comp name="--.HHN">
      <acc value="0.2342291096" flag="0"/>
      <vel value="0.0705587009" flag="0"/>
      <psa03 value="0.2457937440" flag="0"/>
      <psa10 value="0.0143533201" flag="0"/>
      <psa30 value="0.0011007550" flag="0"/>
    </comp>
    <comp name="--.HHZ">
      <acc value="0.0546535489" flag="0"/>
      <vel value="0.0138607055" flag="0"/>
      <psa03 value="0.0869225625" flag="0"/>
      <psa10 value="0.0046181028" flag="0"/>
      <psa30 value="0.0007377989" flag="0"/>
    </comp>
  </station>
  <station code="THERA" name="THERA" netid="GE" insttype="STS-2/N" lat="36.367" lon="25.4753">
    <comp name="--.HHN">
      <acc value="0.0321750056" flag="0"/>
      <vel value="0.0087546742" flag="0"/>
      <psa03 value="0.0520762198" flag="0"/>
      <psa10 value="0.0026860270" flag="0"/>
      <psa30 value="0.0003046552" flag="0"/>
    </comp>
    <comp name="--.HHE">
      <acc value="0.0621453619" flag="0"/>
      <vel value="0.0128950128" flag="0"/>
      <psa03 value="0.0766224406" flag="0"/>
      <psa10 value="0.0055005823" flag="0"/>
      <psa30 value="0.0006103261" flag="0"/>
    </comp>
    <comp name="--.HHZ">
      <acc value="0.0406689904" flag="0"/>
      <vel value="0.0073437675" flag="0"/>
      <psa03 value="0.0313739767" flag="0"/>
      <psa10 value="0.0024060828" flag="0"/>
      <psa30 value="0.0004404728" flag="0"/>
    </comp>
  </station>
</stationlist>
