<?xml version="1.0" encoding="UTF-8" standalone="yes"?>
<!DOCTYPE earthquake SYSTEM "stationlist.dtd">
<stationlist created="" xmlns="ch.ethz.sed.shakemap.usgs.xml">
  <station code="SABO" name="SABO" netid="NI" source="INGV" insttype="" lat="45.9875" lon="13.6336">
    <comp name="--.HHE">
      <acc value="0.0384495939" flag="0"/>
      <vel value="0.0203035296" flag="0"/>
      <psa03 value="0.0844193498" flag="0"/>
      <psa10 value="0.0176949329" flag="0"/>
      <psa30 value="0.0013746123" flag="0"/>
    </comp>
    <comp name="--.HHN">
      <acc value="0.0491999534" flag="0"/>
      <vel value="0.0278187886" flag="0"/>
      <psa03 value="0.1855646860" flag="0"/>
      <psa10 value="0.0276343208" flag="0"/>
      <psa30 value="0.0011752484" flag="0"/>
    </comp>
    <comp name="--.HHZ">
      <acc value="0.0172395237" flag="0"/>
      <vel value="0.0081512336" flag="0"/>
      <psa03 value="0.0418666543" flag="0"/>
      <psa10 value="0.0066258420" flag="0"/>
      <psa30 value="0.0008670827" flag="0"/>
    </comp>
  </station>
  <station code="BOJS" name="BOJS" netid="SL" source="ODC" insttype="200" lat="45.5043" lon="15.2518">
    <comp name="--.HGE">
      <acc value="1.2869545203" flag="0"/>
      <vel value="0.5256146376" flag="0"/>
      <psa03 value="1.7567566664" flag="0"/>
      <psa10 value="0.1699819073" flag="0"/>
      <psa30 value="0.0213684635" flag="0"/>
    </comp>
    <comp name="--.HGN">
      <acc value="1.1414221318" flag="0"/>
      <vel value="0.3146106644" flag="0"/>
      <psa03 value="1.1757229886" flag="0"/>
      <psa10 value="0.1426920992" flag="0"/>
      <psa30 value="0.0101532403" flag="0"/>
    </comp>
    <comp name="--.HGZ">
      <acc value="0.9516156467" flag="0"/>
      <vel value="0.2426014479" flag="0"/>
      <psa03 value="1.0486821096" flag="0"/>
      <psa10 value="0.2076987740" flag="0"/>
      <psa30 value="0.0077909216" flag="0"/>
    </comp>
  </station>
  <station code="LJU" name="LJU" netid="SL" source="ODC" insttype="200" lat="46.0438" lon="14.5278">
    <comp name="--.HGE">
      <acc value="0.3465928525" flag="0"/>
      <vel value="0.1174829452" flag="0"/>
      <psa03 value="0.6802073018" flag="0"/>
      <psa10 value="0.0822859514" flag="0"/>
      <psa30 value="0.0056951720" flag="0"/>
    </comp>
    <comp name="--.HGN">
      <acc value="0.5930664381" flag="0"/>
      <vel value="0.2347491274" flag="0"/>
      <psa03 value="1.2852847763" flag="0"/>
      <psa10 value="0.0956350055" flag="0"/>
      <psa30 value="0.0071461382" flag="0"/>
    </comp>
    <comp name="--.HGZ">
      <acc value="0.2151491147" flag="0"/>
      <vel value="0.0602913989" flag="0"/>
      <psa03 value="0.2803743897" flag="0"/>
      <psa10 value="0.0406333956" flag="0"/>
      <psa30 value="0.0049438874" flag="0"/>
    </comp>
  </station>
  <station code="SKDS" name="SKDS" netid="SL" source="ODC" insttype="200" lat="45.5464" lon="14.0143">
    <comp name="--.HGE">
      <acc value="0.4798601910" flag="0"/>
      <vel value="0.0870926369" flag="0"/>
      <psa03 value="0.2994739094" flag="0"/>
      <psa10 value="0.0652028974" flag="0"/>
      <psa30 value="0.0047167724" flag="0"/>
    </comp>
    <comp name="--.HGN">
      <acc value="0.5299232264" flag="0"/>
      <vel value="0.1127510734" flag="0"/>
      <psa03 value="0.4277970520" flag="0"/>
      <psa10 value="0.0521793210" flag="0"/>
      <psa30 value="0.0044919007" flag="0"/>
    </comp>
    <comp name="--.HGZ">
      <acc value="0.3241982917" flag="0"/>
      <vel value="0.0665411878" flag="0"/>
      <psa03 value="0.2378027853" flag="0"/>
      <psa10 value="0.0336138484" flag="0"/>
      <psa30 value="0.0041326140" flag="0"/>
    </comp>
  </station>
</stationlist>
