<stationlist created="1779847008">
	<station code="FOC" name="FOC" netid="IT" source="Italian Strong Motion Network (RAN)" insttype="" lat="43.0263" lon="12.8965">
		<comp name="--.HGE" depth="0.0">
			<acc value="0.0135608949816331" flag="0"/>
			<vel value="0.0032290753191757" flag="0"/>
			<psa03 value="0.0157939989362499" flag="0"/>
			<psa10 value="0.00259728509419068" flag="0"/>
			<psa30 value="0.000309168647732258" flag="0"/>
		</comp>
		<comp name="--.HGN" depth="0.0">
			<acc value="0.0133440959812551" flag="0"/>
			<vel value="0.00373767872066762" flag="0"/>
			<psa03 value="0.0234896584745927" flag="0"/>
			<psa10 value="0.00297177736358561" flag="0"/>
			<psa30 value="0.000412523145020466" flag="0"/>
		</comp>
		<comp name="--.HGZ" depth="0.0">
			<acc value="0.0161430798650983" flag="0"/>
			<vel value="0.00264987573231524" flag="0"/>
			<psa03 value="0.00805359719128892" flag="0"/>
			<psa10 value="0.00140937950847556" flag="0"/>
			<psa30 value="0.000208946104907329" flag="0"/>
		</comp>
	</station>
	<station code="FOS" name="FOS" netid="IT" source="Italian Strong Motion Network (RAN)" insttype="" lat="43.0146" lon="12.8351">
		<comp name="--.HGE" depth="0.0">
			<acc value="0.00438685946027161" flag="0"/>
			<vel value="0.00276068768775285" flag="0"/>
			<psa03 value="0.00979854324940151" flag="0"/>
			<psa10 value="0.00339459121612828" flag="0"/>
			<psa30 value="0.000608941432074678" flag="0"/>
		</comp>
		<comp name="--.HGN" depth="0.0">
			<acc value="0.00440916984521808" flag="0"/>
			<vel value="0.0030939279051061" flag="0"/>
			<psa03 value="0.0140043106715191" flag="0"/>
			<psa10 value="0.00284291980852499" flag="0"/>
			<psa30 value="0.000296193407812959" flag="0"/>
		</comp>
		<comp name="--.HGZ" depth="0.0">
			<acc value="0.00254329781521301" flag="0"/>
			<vel value="0.00128161433386209" flag="0"/>
			<psa03 value="0.00572700244713878" flag="0"/>
			<psa10 value="0.00280667862116419" flag="0"/>
			<psa30 value="0.00021073579317206" flag="0"/>
		</comp>
	</station>
	<station code="MCS" name="MCS" netid="IT" source="Italian Strong Motion Network (RAN)" insttype="" lat="43.9937" lon="12.1067">
		<comp name="--.HGE" depth="0.0">
			<acc value="0.006753012" flag="0"/>
			<vel value="0.003498" flag="0"/>
			<psa03 value="0.0226842987554638" flag="0"/>
			<psa10 value="0.00352747556978455" flag="0"/>
			<psa30 value="0.000254583155657966" flag="0"/>
		</comp>
		<comp name="--.HGN" depth="0.0">
			<acc value="0.006873882" flag="0"/>
			<vel value="0.002521" flag="0"/>
			<psa03 value="0.0146754437707931" flag="0"/>
			<psa10 value="0.00287513419729014" flag="0"/>
			<psa30 value="0.000245187292268129" flag="0"/>
		</comp>
		<comp name="--.HGZ" depth="0.0">
			<acc value="0.004288692" flag="0"/>
			<vel value="0.001574" flag="0"/>
			<psa03 value="0.00876947249718126" flag="0"/>
			<psa10 value="0.00182011296523129" flag="0"/>
			<psa30 value="0.000239818227473937" flag="0"/>
		</comp>
	</station>
	<station code="PVC" name="PVC" netid="IT" source="Italian Strong Motion Network (RAN)" insttype="" lat="46.417" lon="12.3735">
		<comp name="--.HGE" depth="0.0">
			<acc value="0.00477054" flag="0"/>
			<vel value="0.003651" flag="0"/>
			<psa03 value="0.0161071943825778" flag="0"/>
			<psa10 value="0.00341069841051086" flag="0"/>
			<psa30 value="0.000460844728168199" flag="0"/>
		</comp>
		<comp name="--.HGN" depth="0.0">
			<acc value="0.005457" flag="0"/>
			<vel value="0.003474" flag="0"/>
			<psa03 value="0.0131094665391536" flag="0"/>
			<psa10 value="0.00373686909675806" flag="0"/>
			<psa30 value="0.000440263313123794" flag="0"/>
		</comp>
		<comp name="--.HGZ" depth="0.0">
			<acc value="0.003413736" flag="0"/>
			<vel value="0.003136" flag="0"/>
			<psa03 value="0.0111408094479497" flag="0"/>
			<psa10 value="0.00380532467288401" flag="0"/>
			<psa30 value="0.000212078059370608" flag="0"/>
		</comp>
	</station>
	<station code="SLD" name="SLD" netid="IT" source="Italian Strong Motion Network (RAN)" insttype="" lat="43.8739" lon="12.6739">
		<comp name="--.HGE" depth="0.0">
			<acc value="0.02642616" flag="0"/>
			<vel value="0.010554" flag="0"/>
			<psa03 value="0.0462186994366747" flag="0"/>
			<psa10 value="0.00695830797327362" flag="0"/>
			<psa30 value="0.000859050367070818" flag="0"/>
		</comp>
		<comp name="--.HGN" depth="0.0">
			<acc value="0.021924798" flag="0"/>
			<vel value="0.011659" flag="0"/>
			<psa03 value="0.0546302342809098" flag="0"/>
			<psa10 value="0.00924150277700403" flag="0"/>
			<psa30 value="0.000765986577304812" flag="0"/>
		</comp>
		<comp name="--.HGZ" depth="0.0">
			<acc value="0.0114495" flag="0"/>
			<vel value="0.004824" flag="0"/>
			<psa03 value="0.0229527519951734" flag="0"/>
			<psa10 value="0.00543617810412002" flag="0"/>
			<psa30 value="0.000350331477821068" flag="0"/>
		</comp>
	</station>
	<station code="SPP" name="SPP" netid="IT" source="Italian Strong Motion Network (RAN)" insttype="" lat="46.5725" lon="12.709">
		<comp name="--.HGE" depth="0.0">
			<acc value="0.005557878" flag="0"/>
			<vel value="0.004145" flag="0"/>
			<psa03 value="0.0142280217046104" flag="0"/>
			<psa10 value="0.00498920346000348" flag="0"/>
			<psa30 value="0.000572700244713878" flag="0"/>
		</comp>
		<comp name="--.HGN" depth="0.0">
			<acc value="0.00784635" flag="0"/>
			<vel value="0.004666" flag="0"/>
			<psa03 value="0.0241607915738668" flag="0"/>
			<psa10 value="0.00593147433138429" flag="0"/>
			<psa30 value="0.000480978721146421" flag="0"/>
		</comp>
		<comp name="--.HGZ" depth="0.0">
			<acc value="0.003609576" flag="0"/>
			<vel value="0.003613" flag="0"/>
			<psa03 value="0.0161519365891961" flag="0"/>
			<psa10 value="0.00568181281845433" flag="0"/>
			<psa30 value="0.000336461393769404" flag="0"/>
		</comp>
	</station>
	<station code="STF" name="STF" netid="IT" source="Italian Strong Motion Network (RAN)" insttype="" lat="43.9081" lon="11.7944">
		<comp name="--.HGE" depth="0.0">
			<acc value="0.00162350636365002" flag="0"/>
			<vel value="0.00148350226855143" flag="0"/>
			<psa03 value="0.00532432258757434" flag="0"/>
			<psa10 value="0.00252882951806472" flag="0"/>
			<psa30 value="0.000155702879031586" flag="0"/>
		</comp>
		<comp name="--.HGN" depth="0.0">
			<acc value="0.00165059043422112" flag="0"/>
			<vel value="0.00125449621604669" flag="0"/>
			<psa03 value="0.00536906479419261" flag="0"/>
			<psa10 value="0.00244426674755619" flag="0"/>
			<psa30 value="0.000267110973511082" flag="0"/>
		</comp>
		<comp name="--.HGZ" depth="0.0">
			<acc value="0.00113221598821615" flag="0"/>
			<vel value="0.00084139386811177" flag="0"/>
			<psa03 value="0.00393731418240792" flag="0"/>
			<psa10 value="0.00122011997448027" flag="0"/>
			<psa30 value="0.000172704917546529" flag="0"/>
		</comp>
	</station>
	<station code="VDB" name="VDB" netid="IT" source="Italian Strong Motion Network (RAN)" insttype="" lat="45.9069" lon="11.9913">
		<comp name="--.HGE" depth="0.0">
			<acc value="0.009871662" flag="0"/>
			<vel value="0.004444" flag="0"/>
			<psa03 value="0.016957296308325" flag="0"/>
			<psa10 value="0.00263755308014712" flag="0"/>
			<psa30 value="0.000394178840306974" flag="0"/>
		</comp>
		<comp name="--.HGN" depth="0.0">
			<acc value="0.012918606" flag="0"/>
			<vel value="0.003437" flag="0"/>
			<psa03 value="0.0132884353656267" flag="0"/>
			<psa10 value="0.00436504967767859" flag="0"/>
			<psa30 value="0.000333329439306125" flag="0"/>
		</comp>
		<comp name="--.HGZ" depth="0.0">
			<acc value="0.003593766" flag="0"/>
			<vel value="0.001706" flag="0"/>
			<psa03 value="0.00747194850525138" flag="0"/>
			<psa10 value="0.00167112141719245" flag="0"/>
			<psa30 value="0.000196865709120396" flag="0"/>
		</comp>
	</station>
	<station code="BLY" name="BLY" netid="MN" source="Mediterranean Very Broadband Seismographic Network (MedNet)" insttype="" lat="44.7488" lon="17.1839">
		<comp name="--.HLE" depth="1.0">
			<acc value="0.0193981150938722" flag="0"/>
			<vel value="0.01521392310863" flag="0"/>
			<psa03 value="0.0721691792752723" flag="0"/>
			<psa10 value="0.0191232665307155" flag="0"/>
			<psa30 value="0.00122817357167156" flag="0"/>
		</comp>
		<comp name="--.HLN" depth="1.0">
			<acc value="0.0143663461783231" flag="0"/>
			<vel value="0.00937040178848247" flag="0"/>
			<psa03 value="0.0395968528571705" flag="0"/>
			<psa10 value="0.0144441265625767" flag="0"/>
			<psa30 value="0.000749431960856052" flag="0"/>
		</comp>
		<comp name="--.HLZ" depth="1.0">
			<acc value="0.0119209805122378" flag="0"/>
			<vel value="0.00673920804001908" flag="0"/>
			<psa03 value="0.0435341670395784" flag="0"/>
			<psa10 value="0.00746165779772918" flag="0"/>
			<psa30 value="0.00074093094159858" flag="0"/>
		</comp>
	</station>
	<station code="BOJS" name="BOJS" netid="SL" source="Seismic Network of the Republic of Slovenia (SNRS)" insttype="" lat="45.5043" lon="15.2518">
		<comp name="--.HGE" depth="0.0">
			<acc value="1.27433394019651" flag="0"/>
			<vel value="0.527464322479306" flag="0"/>
			<psa03 value="1.75719907248133" flag="0"/>
			<psa10 value="0.169770611469819" flag="0"/>
			<psa30 value="0.0221368264561108" flag="0"/>
		</comp>
		<comp name="--.HGN" depth="0.0">
			<acc value="1.14542810224888" flag="0"/>
			<vel value="0.312658847311236" flag="0"/>
			<psa03 value="1.17563096311494" flag="0"/>
			<psa10 value="0.142894861083255" flag="0"/>
			<psa30 value="0.0105634506100935" flag="0"/>
		</comp>
		<comp name="--.HGZ" depth="0.0">
			<acc value="0.94688368813691" flag="0"/>
			<vel value="0.241492706601124" flag="0"/>
			<psa03 value="1.05000505768191" flag="0"/>
			<psa10 value="0.207535343197956" flag="0"/>
			<psa30 value="0.00796004731406867" flag="0"/>
		</comp>
	</station>
</stationlist>
