<?xml version="1.0" encoding="UTF-8" standalone="yes"?>
<!DOCTYPE earthquake SYSTEM "stationlist.dtd">
<stationlist created="" xmlns="ch.ethz.sed.shakemap.usgs.xml">
  <station code="DOPR" name="DOPR" netid="RO" insttype="330" lat="45.9675" lon="25.3886">
    <comp name="--.HHE">
      <acc value="0.0069046678" flag="0"/>
      <vel value="0.0019454241" flag="0"/>
      <psa03 value="0.0085241306" flag="0"/>
      <psa10 value="0.0019760687" flag="0"/>
      <psa30 value="0.0001202200" flag="0"/>
    </comp>
    <comp name="--.HHN">
      <acc value="0.0055897626" flag="0"/>
      <vel value="0.0014993724" flag="0"/>
      <psa03 value="0.0080799468" flag="0"/>
      <psa10 value="0.0009929236" flag="0"/>
      <psa30 value="0.0000549233" flag="0"/>
    </comp>
    <comp name="--.HHZ">
      <acc value="0.0041894364" flag="0"/>
      <vel value="0.0011520754" flag="0"/>
      <psa03 value="0.0034599205" flag="0"/>
      <psa10 value="0.0005136195" flag="0"/>
      <psa30 value="0.0000411280" flag="0"/>
    </comp>
  </station>
  <station code="MTUR" name="MTUR" netid="RO" insttype="200" lat="45.2349" lon="25.0739">
    <comp name="--.HNE">
      <acc value="0.0094797890" flag="0"/>
      <vel value="0.0029263874" flag="0"/>
      <psa03 value="0.0113665402" flag="0"/>
      <psa10 value="0.0034026742" flag="0"/>
      <psa30 value="0.0001913286" flag="0"/>
    </comp>
    <comp name="--.HNN">
      <acc value="0.0114174614" flag="0"/>
      <vel value="0.0039871863" flag="0"/>
      <psa03 value="0.0183857086" flag="0"/>
      <psa10 value="0.0020432807" flag="0"/>
      <psa30 value="0.0002145031" flag="0"/>
    </comp>
    <comp name="--.HNZ">
      <acc value="0.0135760325" flag="0"/>
      <vel value="0.0020339991" flag="0"/>
      <psa03 value="0.0133978295" flag="0"/>
      <psa10 value="0.0014051660" flag="0"/>
      <psa30 value="0.0001522854" flag="0"/>
    </comp>
  </station>
  <station code="NEGRR" name="NEGRR" netid="RO" insttype="CMG40T.1to100/Quanterra" lat="45.5373" lon="27.8771">
    <comp name="--.HHN">
      <acc value="0.0382260929" flag="0"/>
      <vel value="0.0071479818" flag="0"/>
      <psa03 value="0.0260960098" flag="0"/>
      <psa10 value="0.0012029445" flag="0"/>
      <psa30 value="0.0001414158" flag="0"/>
    </comp>
    <comp name="--.HHE">
      <acc value="0.0562287746" flag="0"/>
      <vel value="0.0096996354" flag="0"/>
      <psa03 value="0.0238691299" flag="0"/>
      <psa10 value="0.0013249591" flag="0"/>
      <psa30 value="0.0001226004" flag="0"/>
    </comp>
    <comp name="--.HHZ">
      <acc value="0.0343754518" flag="0"/>
      <vel value="0.0073452441" flag="0"/>
      <psa03 value="0.0190421800" flag="0"/>
      <psa10 value="0.0011434911" flag="0"/>
      <psa30 value="0.0001065193" flag="0"/>
    </comp>
  </station>
  <station code="PANC" name="PANC" netid="RO" insttype="Seismometer/Basalt" lat="45.8723" lon="27.1477">
    <comp name="--.HHZ">
      <acc value="0.1540697770" flag="0"/>
      <vel value="0.0331814255" flag="0"/>
      <psa03 value="0.0926535841" flag="0"/>
      <psa10 value="0.0050494152" flag="0"/>
      <psa30 value="0.0004161021" flag="0"/>
    </comp>
  </station>
  <station code="PGOR" name="PGOR" netid="RO" insttype="200" lat="44.9199" lon="26.9768">
    <comp name="--.HNE">
      <acc value="0.0553791306" flag="0"/>
      <vel value="0.0147869049" flag="0"/>
      <psa03 value="0.0880169648" flag="0"/>
      <psa10 value="0.0042210939" flag="0"/>
      <psa30 value="0.0004977309" flag="0"/>
    </comp>
    <comp name="--.HNN">
      <acc value="0.0461770484" flag="0"/>
      <vel value="0.0190424873" flag="0"/>
      <psa03 value="0.0709325946" flag="0"/>
      <psa10 value="0.0067111542" flag="0"/>
      <psa30 value="0.0004760780" flag="0"/>
    </comp>
    <comp name="--.HNZ">
      <acc value="0.0738794989" flag="0"/>
      <vel value="0.0091344467" flag="0"/>
      <psa03 value="0.0204057535" flag="0"/>
      <psa10 value="0.0010629872" flag="0"/>
      <psa30 value="0.0000817038" flag="0"/>
    </comp>
  </station>
  <station code="PLOR" name="PLOR" netid="RO" insttype="330" lat="45.8512" lon="26.6498">
    <comp name="--.HHE">
      <acc value="0.0188726357" flag="0"/>
      <vel value="0.0065345986" flag="0"/>
      <psa03 value="0.0405361079" flag="0"/>
      <psa10 value="0.0027366680" flag="0"/>
      <psa30 value="0.0001546086" flag="0"/>
    </comp>
    <comp name="--.HHN">
      <acc value="0.0146332661" flag="0"/>
      <vel value="0.0042777895" flag="0"/>
      <psa03 value="0.0308587571" flag="0"/>
      <psa10 value="0.0015957014" flag="0"/>
      <psa30 value="0.0001234414" flag="0"/>
    </comp>
    <comp name="--.HHZ">
      <acc value="0.0082096867" flag="0"/>
      <vel value="0.0020028850" flag="0"/>
      <psa03 value="0.0122214108" flag="0"/>
      <psa10 value="0.0005523207" flag="0"/>
      <psa30 value="0.0000604782" flag="0"/>
    </comp>
  </station>
  <station code="PLOR4" name="PLOR4" netid="RO" insttype="330" lat="45.8512" lon="26.6498">
    <comp name="--.HHN">
      <acc value="0.0146332661" flag="0"/>
      <vel value="0.0042777895" flag="0"/>
      <psa03 value="0.0308587571" flag="0"/>
      <psa10 value="0.0015957014" flag="0"/>
      <psa30 value="0.0001234414" flag="0"/>
    </comp>
    <comp name="--.HHE">
      <acc value="0.0188726357" flag="0"/>
      <vel value="0.0065345986" flag="0"/>
      <psa03 value="0.0405361079" flag="0"/>
      <psa10 value="0.0027366680" flag="0"/>
      <psa30 value="0.0001546086" flag="0"/>
    </comp>
    <comp name="--.HHZ">
      <acc value="0.0082096867" flag="0"/>
      <vel value="0.0020028850" flag="0"/>
      <psa03 value="0.0122214108" flag="0"/>
      <psa10 value="0.0005523207" flag="0"/>
      <psa30 value="0.0000604782" flag="0"/>
    </comp>
  </station>
  <station code="SCHL" name="SCHL" netid="RO" insttype="CMG40T.1to100/Quanterra" lat="45.5007" lon="27.8302">
    <comp name="--.HHE">
      <acc value="0.0162484176" flag="0"/>
      <vel value="0.0053886866" flag="0"/>
      <psa03 value="0.0302899226" flag="0"/>
      <psa10 value="0.0015913531" flag="0"/>
      <psa30 value="0.0001469947" flag="0"/>
    </comp>
    <comp name="--.HHN">
      <acc value="0.0146513578" flag="0"/>
      <vel value="0.0040287402" flag="0"/>
      <psa03 value="0.0184353131" flag="0"/>
      <psa10 value="0.0009768015" flag="0"/>
      <psa30 value="0.0000821936" flag="0"/>
    </comp>
    <comp name="--.HHZ">
      <acc value="0.0349628755" flag="0"/>
      <vel value="0.0050635553" flag="0"/>
      <psa03 value="0.0315896043" flag="0"/>
      <psa10 value="0.0014859259" flag="0"/>
      <psa30 value="0.0001349122" flag="0"/>
    </comp>
  </station>
  <station code="SCHLR" name="SCHLR" netid="RO" insttype="CMG40T.1to100/Quanterra" lat="45.4702" lon="27.8314">
    <comp name="--.HHE">
      <acc value="0.0777266908" flag="0"/>
      <vel value="0.0103713392" flag="0"/>
      <psa03 value="0.0110972685" flag="0"/>
      <psa10 value="0.0009601726" flag="0"/>
      <psa30 value="0.0001180713" flag="0"/>
    </comp>
    <comp name="--.HHN">
      <acc value="0.0551460996" flag="0"/>
      <vel value="0.0079601305" flag="0"/>
      <psa03 value="0.0114830847" flag="0"/>
      <psa10 value="0.0009431763" flag="0"/>
      <psa30 value="0.0001655736" flag="0"/>
    </comp>
    <comp name="--.HHZ">
      <acc value="0.0520472366" flag="0"/>
      <vel value="0.0062364941" flag="0"/>
      <psa03 value="0.0103275138" flag="0"/>
      <psa10 value="0.0007154409" flag="0"/>
      <psa30 value="0.0000697594" flag="0"/>
    </comp>
  </station>
  <station code="SCTR" name="SCTR" netid="RO" insttype="MBB2/Basalt" lat="45.6741" lon="27.9949">
    <comp name="--.HHE">
      <acc value="0.0322290436" flag="0"/>
      <vel value="0.0091111816" flag="0"/>
      <psa03 value="0.0445090159" flag="0"/>
      <psa10 value="0.0038849960" flag="0"/>
      <psa30 value="0.0002599408" flag="0"/>
    </comp>
    <comp name="--.HHN">
      <acc value="0.0417982916" flag="0"/>
      <vel value="0.0111961046" flag="0"/>
      <psa03 value="0.0533740041" flag="0"/>
      <psa10 value="0.0028819700" flag="0"/>
      <psa30 value="0.0002784090" flag="0"/>
    </comp>
    <comp name="--.HHZ">
      <acc value="0.0315589636" flag="0"/>
      <vel value="0.0082501378" flag="0"/>
      <psa03 value="0.0221243627" flag="0"/>
      <psa10 value="0.0019036033" flag="0"/>
      <psa30 value="0.0002130987" flag="0"/>
    </comp>
  </station>
  <station code="SULR" name="SULR" netid="RO" insttype="330" lat="44.6777" lon="26.2526">
    <comp name="--.HHZ">
      <acc value="0.0381416533" flag="0"/>
      <vel value="0.0079532103" flag="0"/>
      <psa03 value="0.0267572749" flag="0"/>
      <psa10 value="0.0013777641" flag="0"/>
      <psa30 value="0.0001450017" flag="0"/>
    </comp>
    <comp name="--.HHE">
      <acc value="0.0498789568" flag="0"/>
      <vel value="0.0289694206" flag="0"/>
      <psa03 value="0.1046648720" flag="0"/>
      <psa10 value="0.0116404544" flag="0"/>
      <psa30 value="0.0010226934" flag="0"/>
    </comp>
    <comp name="--.HHN">
      <acc value="0.0506768492" flag="0"/>
      <vel value="0.0183924422" flag="0"/>
      <psa03 value="0.0594994065" flag="0"/>
      <psa10 value="0.0045833496" flag="0"/>
      <psa30 value="0.0004626122" flag="0"/>
    </comp>
  </station>
  <station code="TATR" name="TATR" netid="RO" insttype="MBB2/Basalt" lat="45.5977" lon="28.0498">
    <comp name="--.HHE">
      <acc value="0.0894851907" flag="0"/>
      <vel value="0.0169777118" flag="0"/>
      <psa03 value="0.0586003656" flag="0"/>
      <psa10 value="0.0041686814" flag="0"/>
      <psa30 value="0.0003348756" flag="0"/>
    </comp>
    <comp name="--.HHN">
      <acc value="0.0792713336" flag="0"/>
      <vel value="0.0176600676" flag="0"/>
      <psa03 value="0.0463919697" flag="0"/>
      <psa10 value="0.0038503860" flag="0"/>
      <psa30 value="0.0003084667" flag="0"/>
    </comp>
    <comp name="--.HHZ">
      <acc value="0.1032831823" flag="0"/>
      <vel value="0.0204085236" flag="0"/>
      <psa03 value="0.0319760475" flag="0"/>
      <psa10 value="0.0019774511" flag="0"/>
      <psa30 value="0.0001850603" flag="0"/>
    </comp>
  </station>
  <station code="TUDR" name="TUDR" netid="RO" insttype="CMG40T.1to100/Quanterra" lat="45.5939" lon="27.6687">
    <comp name="--.HHE">
      <acc value="0.0352355411" flag="0"/>
      <vel value="0.0086060279" flag="0"/>
      <psa03 value="0.0245302517" flag="0"/>
      <psa10 value="0.0016667332" flag="0"/>
      <psa30 value="0.0001209014" flag="0"/>
    </comp>
    <comp name="--.HHN">
      <acc value="0.0274575064" flag="0"/>
      <vel value="0.0088184503" flag="0"/>
      <psa03 value="0.0331934309" flag="0"/>
      <psa10 value="0.0018729019" flag="0"/>
      <psa30 value="0.0001745039" flag="0"/>
    </comp>
    <comp name="--.HHZ">
      <acc value="0.1041176960" flag="0"/>
      <vel value="0.0206908788" flag="0"/>
      <psa03 value="0.0377388339" flag="0"/>
      <psa10 value="0.0025029808" flag="0"/>
      <psa30 value="0.0002543892" flag="0"/>
    </comp>
  </station>
  <station code="VARL" name="VARL" netid="RO" insttype="MBB2/Quanterra" lat="45.8996" lon="27.8487">
    <comp name="--.HHN">
      <acc value="0.0553335424" flag="0"/>
      <vel value="0.0090788094" flag="0"/>
      <psa03 value="0.0540165578" flag="0"/>
      <psa10 value="0.0027370947" flag="0"/>
      <psa30 value="0.0001964445" flag="0"/>
    </comp>
    <comp name="--.HHZ">
      <acc value="0.0420281080" flag="0"/>
      <vel value="0.0068728567" flag="0"/>
      <psa03 value="0.0182984339" flag="0"/>
      <psa10 value="0.0013209698" flag="0"/>
      <psa30 value="0.0000948162" flag="0"/>
    </comp>
    <comp name="--.HHE">
      <acc value="0.0533022291" flag="0"/>
      <vel value="0.0097754849" flag="0"/>
      <psa03 value="0.0274906492" flag="0"/>
      <psa10 value="0.0025470373" flag="0"/>
      <psa30 value="0.0002158446" flag="0"/>
    </comp>
  </station>
  <station code="VOIR" name="VOIR" netid="RO" insttype="330" lat="45.4371" lon="25.0495">
    <comp name="--.HHN">
      <acc value="0.0058460634" flag="0"/>
      <vel value="0.0015709125" flag="0"/>
      <psa03 value="0.0073100089" flag="0"/>
      <psa10 value="0.0004397969" flag="0"/>
      <psa30 value="0.0000344961" flag="0"/>
    </comp>
    <comp name="--.HHE">
      <acc value="0.0027823481" flag="0"/>
      <vel value="0.0010120155" flag="0"/>
      <psa03 value="0.0035974655" flag="0"/>
      <psa10 value="0.0005815684" flag="0"/>
      <psa30 value="0.0000298981" flag="0"/>
    </comp>
    <comp name="--.HHZ">
      <acc value="0.0057236061" flag="0"/>
      <vel value="0.0012479983" flag="0"/>
      <psa03 value="0.0047874619" flag="0"/>
      <psa10 value="0.0003658807" flag="0"/>
      <psa30 value="0.0000283266" flag="0"/>
    </comp>
  </station>
  <station code="VRI" name="VRI" netid="RO" insttype="Linear" lat="45.8657" lon="26.7277">
    <comp name="--.HHN">
      <acc value="0.0334448185" flag="0"/>
      <vel value="0.0111189432" flag="0"/>
      <psa03 value="0.0988590794" flag="0"/>
      <psa10 value="0.0045378278" flag="0"/>
      <psa30 value="0.0003231601" flag="0"/>
    </comp>
    <comp name="--.HHE">
      <acc value="0.0479898856" flag="0"/>
      <vel value="0.0210113204" flag="0"/>
      <psa03 value="0.2327046415" flag="0"/>
      <psa10 value="0.0049263371" flag="0"/>
      <psa30 value="0.0005570816" flag="0"/>
    </comp>
  </station>
</stationlist>
