<?xml version="1.0" encoding="UTF-8" standalone="yes"?>
<!DOCTYPE earthquake SYSTEM "stationlist.dtd">
<stationlist created="" xmlns="ch.ethz.sed.shakemap.usgs.xml">
  <station code="BIR" name="BIR" netid="RO" insttype="MBB2/Quanterra" lat="46.2334" lon="27.6436">
    <comp name="--.HHE">
      <acc value="0.0227976105" flag="0"/>
      <vel value="0.0056561524" flag="0"/>
      <psa03 value="0.0217211339" flag="0"/>
      <psa10 value="0.0011760815" flag="0"/>
      <psa30 value="0.0000948208" flag="0"/>
    </comp>
    <comp name="--.HHZ">
      <acc value="0.0714900316" flag="0"/>
      <vel value="0.0203199435" flag="0"/>
      <psa03 value="0.1283180067" flag="0"/>
      <psa10 value="0.0027619031" flag="0"/>
      <psa30 value="0.0002800169" flag="0"/>
    </comp>
    <comp name="--.HHN">
      <acc value="0.0763291232" flag="0"/>
      <vel value="0.0221678924" flag="0"/>
      <psa03 value="0.1202178435" flag="0"/>
      <psa10 value="0.0044770838" flag="0"/>
      <psa30 value="0.0004219660" flag="0"/>
    </comp>
  </station>
  <station code="DOPR" name="DOPR" netid="RO" insttype="330" lat="45.9675" lon="25.3886">
    <comp name="--.HHE">
      <acc value="0.0069046678" flag="0"/>
      <vel value="0.0019454241" flag="0"/>
      <psa03 value="0.0085241306" flag="0"/>
      <psa10 value="0.0019760687" flag="0"/>
      <psa30 value="0.0001202200" flag="0"/>
    </comp>
    <comp name="--.HHN">
      <acc value="0.0055897626" flag="0"/>
      <vel value="0.0014993724" flag="0"/>
      <psa03 value="0.0080799468" flag="0"/>
      <psa10 value="0.0009929236" flag="0"/>
      <psa30 value="0.0000549233" flag="0"/>
    </comp>
    <comp name="--.HHZ">
      <acc value="0.0041894364" flag="0"/>
      <vel value="0.0011520754" flag="0"/>
      <psa03 value="0.0034599205" flag="0"/>
      <psa10 value="0.0005136195" flag="0"/>
      <psa30 value="0.0000411280" flag="0"/>
    </comp>
  </station>
  <station code="MLR" name="MLR" netid="RO" insttype="330HR" lat="45.4909" lon="25.945">
    <comp name="--.HHE">
      <acc value="0.0118977735" flag="0"/>
      <vel value="0.0045923860" flag="0"/>
      <psa03 value="0.0348107085" flag="0"/>
      <psa10 value="0.0031797135" flag="0"/>
      <psa30 value="0.0003000610" flag="0"/>
    </comp>
    <comp name="--.HHN">
      <acc value="0.0139554123" flag="0"/>
      <vel value="0.0053893422" flag="0"/>
      <psa03 value="0.0307449631" flag="0"/>
      <psa10 value="0.0023497519" flag="0"/>
      <psa30 value="0.0003459631" flag="0"/>
    </comp>
    <comp name="--.HHZ">
      <acc value="0.0122219794" flag="0"/>
      <vel value="0.0043146755" flag="0"/>
      <psa03 value="0.0275366867" flag="0"/>
      <psa10 value="0.0018658274" flag="0"/>
      <psa30 value="0.0001186762" flag="0"/>
    </comp>
  </station>
  <station code="MTUR" name="MTUR" netid="RO" insttype="200" lat="45.2349" lon="25.0739">
    <comp name="--.HNE">
      <acc value="0.0094797890" flag="0"/>
      <vel value="0.0029263874" flag="0"/>
      <psa03 value="0.0113665402" flag="0"/>
      <psa10 value="0.0034026742" flag="0"/>
      <psa30 value="0.0001913286" flag="0"/>
    </comp>
    <comp name="--.HNN">
      <acc value="0.0114174614" flag="0"/>
      <vel value="0.0039871863" flag="0"/>
      <psa03 value="0.0183857086" flag="0"/>
      <psa10 value="0.0020432807" flag="0"/>
      <psa30 value="0.0002145031" flag="0"/>
    </comp>
    <comp name="--.HNZ">
      <acc value="0.0135760325" flag="0"/>
      <vel value="0.0020339991" flag="0"/>
      <psa03 value="0.0133978295" flag="0"/>
      <psa10 value="0.0014051660" flag="0"/>
      <psa30 value="0.0001522854" flag="0"/>
    </comp>
  </station>
  <station code="NEGRR" name="NEGRR" netid="RO" insttype="CMG40T.1to100/Quanterra" lat="45.5373" lon="27.8771">
    <comp name="--.HHN">
      <acc value="0.0382260929" flag="0"/>
      <vel value="0.0071479818" flag="0"/>
      <psa03 value="0.0260960098" flag="0"/>
      <psa10 value="0.0012029445" flag="0"/>
      <psa30 value="0.0001414158" flag="0"/>
    </comp>
    <comp name="--.HHE">
      <acc value="0.0562287746" flag="0"/>
      <vel value="0.0096996354" flag="0"/>
      <psa03 value="0.0238691299" flag="0"/>
      <psa10 value="0.0013249591" flag="0"/>
      <psa30 value="0.0001226004" flag="0"/>
    </comp>
    <comp name="--.HHZ">
      <acc value="0.0343754518" flag="0"/>
      <vel value="0.0073452441" flag="0"/>
      <psa03 value="0.0190421800" flag="0"/>
      <psa10 value="0.0011434911" flag="0"/>
      <psa30 value="0.0001065193" flag="0"/>
    </comp>
  </station>
  <station code="ODBI" name="ODBI" netid="RO" insttype="200" lat="45.7633" lon="27.0558">
    <comp name="--.HNE">
      <acc value="0.0361280502" flag="0"/>
      <vel value="0.0051260815" flag="0"/>
      <psa03 value="0.0273403044" flag="0"/>
      <psa10 value="0.0023707244" flag="0"/>
      <psa30 value="0.0001561761" flag="0"/>
    </comp>
    <comp name="--.HNN">
      <acc value="0.0334395596" flag="0"/>
      <vel value="0.0050653460" flag="0"/>
      <psa03 value="0.0241994680" flag="0"/>
      <psa10 value="0.0029186238" flag="0"/>
      <psa30 value="0.0001815289" flag="0"/>
    </comp>
    <comp name="--.HNZ">
      <acc value="0.0728275662" flag="0"/>
      <vel value="0.0125577645" flag="0"/>
      <psa03 value="0.0397918911" flag="0"/>
      <psa10 value="0.0026659977" flag="0"/>
      <psa30 value="0.0003213660" flag="0"/>
    </comp>
  </station>
  <station code="PANC" name="PANC" netid="RO" insttype="Seismometer/Basalt" lat="45.8723" lon="27.1477">
    <comp name="--.HHZ">
      <acc value="0.1540697770" flag="0"/>
      <vel value="0.0331814255" flag="0"/>
      <psa03 value="0.0926535841" flag="0"/>
      <psa10 value="0.0050494152" flag="0"/>
      <psa30 value="0.0004161021" flag="0"/>
    </comp>
    <comp name="--.HHN">
      <acc value="0.0505159501" flag="0"/>
      <vel value="0.0108234960" flag="0"/>
      <psa03 value="0.0436112778" flag="0"/>
      <psa10 value="0.0021389735" flag="0"/>
      <psa30 value="0.0002427845" flag="0"/>
    </comp>
    <comp name="--.HHE">
      <acc value="0.0430738832" flag="0"/>
      <vel value="0.0114881855" flag="0"/>
      <psa03 value="0.0505729777" flag="0"/>
      <psa10 value="0.0033030154" flag="0"/>
      <psa30 value="0.0001821571" flag="0"/>
    </comp>
  </station>
  <station code="PGOR" name="PGOR" netid="RO" insttype="CMG40T.1to100/Quanterra" lat="44.9199" lon="26.9768">
    <comp name="--.HHE">
      <acc value="0.0611570835" flag="0"/>
      <vel value="0.0142137851" flag="0"/>
      <psa03 value="0.0931995091" flag="0"/>
      <psa10 value="0.0054465960" flag="0"/>
      <psa30 value="0.0005611042" flag="0"/>
    </comp>
    <comp name="--.HHZ">
      <acc value="0.0785305395" flag="0"/>
      <vel value="0.0094945864" flag="0"/>
      <psa03 value="0.0175065437" flag="0"/>
      <psa10 value="0.0010890088" flag="0"/>
      <psa30 value="0.0000847986" flag="0"/>
    </comp>
    <comp name="--.HHN">
      <acc value="0.0450981096" flag="0"/>
      <vel value="0.0181963460" flag="0"/>
      <psa03 value="0.0747895830" flag="0"/>
      <psa10 value="0.0075528734" flag="0"/>
      <psa30 value="0.0005222984" flag="0"/>
    </comp>
  </station>
  <station code="PLAR" name="PLAR" netid="RO" insttype="200" lat="44.9142" lon="26.0274">
    <comp name="--.HNE">
      <acc value="0.0801282224" flag="0"/>
      <vel value="0.0304700939" flag="0"/>
      <psa03 value="0.1497524154" flag="0"/>
      <psa10 value="0.0092279067" flag="0"/>
      <psa30 value="0.0012684141" flag="0"/>
    </comp>
    <comp name="--.HNN">
      <acc value="0.0974639534" flag="0"/>
      <vel value="0.0264601934" flag="0"/>
      <psa03 value="0.1323212724" flag="0"/>
      <psa10 value="0.0084795628" flag="0"/>
      <psa30 value="0.0004918813" flag="0"/>
    </comp>
    <comp name="--.HNZ">
      <acc value="0.0323700404" flag="0"/>
      <vel value="0.0062529635" flag="0"/>
      <psa03 value="0.0287273631" flag="0"/>
      <psa10 value="0.0013498409" flag="0"/>
      <psa30 value="0.0001046745" flag="0"/>
    </comp>
  </station>
  <station code="PLOR" name="PLOR" netid="RO" insttype="330" lat="45.8512" lon="26.6498">
    <comp name="--.HHE">
      <acc value="0.0188726357" flag="0"/>
      <vel value="0.0065345986" flag="0"/>
      <psa03 value="0.0405361079" flag="0"/>
      <psa10 value="0.0027366680" flag="0"/>
      <psa30 value="0.0001546086" flag="0"/>
    </comp>
    <comp name="--.HHN">
      <acc value="0.0146332661" flag="0"/>
      <vel value="0.0042777895" flag="0"/>
      <psa03 value="0.0308587571" flag="0"/>
      <psa10 value="0.0015957014" flag="0"/>
      <psa30 value="0.0001234414" flag="0"/>
    </comp>
    <comp name="--.HHZ">
      <acc value="0.0082096867" flag="0"/>
      <vel value="0.0020028850" flag="0"/>
      <psa03 value="0.0122214108" flag="0"/>
      <psa10 value="0.0005523207" flag="0"/>
      <psa30 value="0.0000604782" flag="0"/>
    </comp>
  </station>
  <station code="PLOR4" name="PLOR4" netid="RO" insttype="330" lat="45.8512" lon="26.6498">
    <comp name="--.HHN">
      <acc value="0.0146332661" flag="0"/>
      <vel value="0.0042777895" flag="0"/>
      <psa03 value="0.0308587571" flag="0"/>
      <psa10 value="0.0015957014" flag="0"/>
      <psa30 value="0.0001234414" flag="0"/>
    </comp>
    <comp name="--.HHE">
      <acc value="0.0188726357" flag="0"/>
      <vel value="0.0065345986" flag="0"/>
      <psa03 value="0.0405361079" flag="0"/>
      <psa10 value="0.0027366680" flag="0"/>
      <psa30 value="0.0001546086" flag="0"/>
    </comp>
    <comp name="--.HHZ">
      <acc value="0.0082096867" flag="0"/>
      <vel value="0.0020028850" flag="0"/>
      <psa03 value="0.0122214108" flag="0"/>
      <psa10 value="0.0005523207" flag="0"/>
      <psa30 value="0.0000604782" flag="0"/>
    </comp>
  </station>
  <station code="SAHR" name="SAHR" netid="RO" insttype="2.5V" lat="45.7266" lon="26.6855">
    <comp name="--.HNZ">
      <acc value="0.0229985853" flag="0"/>
      <vel value="0.0086875025" flag="0"/>
      <psa03 value="0.0524028593" flag="0"/>
      <psa10 value="0.0037549449" flag="0"/>
      <psa30 value="0.0002402364" flag="0"/>
    </comp>
    <comp name="--.HNE">
      <acc value="0.0500103019" flag="0"/>
      <vel value="0.0194083006" flag="0"/>
      <psa03 value="0.0905232614" flag="0"/>
      <psa10 value="0.0067356837" flag="0"/>
      <psa30 value="0.0006412778" flag="0"/>
    </comp>
    <comp name="--.HNN">
      <acc value="0.0365827608" flag="0"/>
      <vel value="0.0146845626" flag="0"/>
      <psa03 value="0.0732072064" flag="0"/>
      <psa10 value="0.0067681889" flag="0"/>
      <psa30 value="0.0003924778" flag="0"/>
    </comp>
  </station>
  <station code="SCHL" name="SCHL" netid="RO" insttype="CMG40T.1to100/Quanterra" lat="45.5007" lon="27.8302">
    <comp name="--.HHE">
      <acc value="0.0162484176" flag="0"/>
      <vel value="0.0053886866" flag="0"/>
      <psa03 value="0.0302899226" flag="0"/>
      <psa10 value="0.0015913531" flag="0"/>
      <psa30 value="0.0001469947" flag="0"/>
    </comp>
    <comp name="--.HHN">
      <acc value="0.0146513578" flag="0"/>
      <vel value="0.0040287402" flag="0"/>
      <psa03 value="0.0184353131" flag="0"/>
      <psa10 value="0.0009768015" flag="0"/>
      <psa30 value="0.0000821936" flag="0"/>
    </comp>
    <comp name="--.HHZ">
      <acc value="0.0349628755" flag="0"/>
      <vel value="0.0050635553" flag="0"/>
      <psa03 value="0.0315896043" flag="0"/>
      <psa10 value="0.0014859259" flag="0"/>
      <psa30 value="0.0001349122" flag="0"/>
    </comp>
  </station>
  <station code="SCHLR" name="SCHLR" netid="RO" insttype="CMG40T.1to100/Quanterra" lat="45.4702" lon="27.8314">
    <comp name="--.HHE">
      <acc value="0.0777266908" flag="0"/>
      <vel value="0.0103713392" flag="0"/>
      <psa03 value="0.0110972685" flag="0"/>
      <psa10 value="0.0009601726" flag="0"/>
      <psa30 value="0.0001180713" flag="0"/>
    </comp>
    <comp name="--.HHN">
      <acc value="0.0551460996" flag="0"/>
      <vel value="0.0079601305" flag="0"/>
      <psa03 value="0.0114830847" flag="0"/>
      <psa10 value="0.0009431763" flag="0"/>
      <psa30 value="0.0001655736" flag="0"/>
    </comp>
    <comp name="--.HHZ">
      <acc value="0.0520472366" flag="0"/>
      <vel value="0.0062364941" flag="0"/>
      <psa03 value="0.0103275138" flag="0"/>
      <psa10 value="0.0007154409" flag="0"/>
      <psa30 value="0.0000697594" flag="0"/>
    </comp>
  </station>
  <station code="SCTR" name="SCTR" netid="RO" insttype="MBB2/Basalt" lat="45.6741" lon="27.9949">
    <comp name="--.HHE">
      <acc value="0.0322290436" flag="0"/>
      <vel value="0.0091111816" flag="0"/>
      <psa03 value="0.0445090159" flag="0"/>
      <psa10 value="0.0038849960" flag="0"/>
      <psa30 value="0.0002599408" flag="0"/>
    </comp>
    <comp name="--.HHN">
      <acc value="0.0417982916" flag="0"/>
      <vel value="0.0111961046" flag="0"/>
      <psa03 value="0.0533740041" flag="0"/>
      <psa10 value="0.0028819700" flag="0"/>
      <psa30 value="0.0002784090" flag="0"/>
    </comp>
    <comp name="--.HHZ">
      <acc value="0.0315589636" flag="0"/>
      <vel value="0.0082501378" flag="0"/>
      <psa03 value="0.0221243627" flag="0"/>
      <psa10 value="0.0019036033" flag="0"/>
      <psa30 value="0.0002130987" flag="0"/>
    </comp>
  </station>
  <station code="SULR" name="SULR" netid="RO" insttype="330" lat="44.6777" lon="26.2526">
    <comp name="--.HHZ">
      <acc value="0.0381416533" flag="0"/>
      <vel value="0.0079532103" flag="0"/>
      <psa03 value="0.0267572749" flag="0"/>
      <psa10 value="0.0013777641" flag="0"/>
      <psa30 value="0.0001450017" flag="0"/>
    </comp>
    <comp name="--.HHE">
      <acc value="0.0498789568" flag="0"/>
      <vel value="0.0289694206" flag="0"/>
      <psa03 value="0.1046648720" flag="0"/>
      <psa10 value="0.0116404544" flag="0"/>
      <psa30 value="0.0010226934" flag="0"/>
    </comp>
    <comp name="--.HHN">
      <acc value="0.0506768492" flag="0"/>
      <vel value="0.0183924422" flag="0"/>
      <psa03 value="0.0594994065" flag="0"/>
      <psa10 value="0.0045833496" flag="0"/>
      <psa30 value="0.0004626122" flag="0"/>
    </comp>
  </station>
  <station code="TATR" name="TATR" netid="RO" insttype="MBB2/Basalt" lat="45.5977" lon="28.0498">
    <comp name="--.HHE">
      <acc value="0.0894851907" flag="0"/>
      <vel value="0.0169777118" flag="0"/>
      <psa03 value="0.0586003656" flag="0"/>
      <psa10 value="0.0041686814" flag="0"/>
      <psa30 value="0.0003348756" flag="0"/>
    </comp>
    <comp name="--.HHN">
      <acc value="0.0792713336" flag="0"/>
      <vel value="0.0176600676" flag="0"/>
      <psa03 value="0.0463919697" flag="0"/>
      <psa10 value="0.0038503860" flag="0"/>
      <psa30 value="0.0003084667" flag="0"/>
    </comp>
    <comp name="--.HHZ">
      <acc value="0.1032831823" flag="0"/>
      <vel value="0.0204085236" flag="0"/>
      <psa03 value="0.0319760475" flag="0"/>
      <psa10 value="0.0019774511" flag="0"/>
      <psa30 value="0.0001850603" flag="0"/>
    </comp>
  </station>
  <station code="TUDR" name="TUDR" netid="RO" insttype="CMG40T.1to100/Quanterra" lat="45.5939" lon="27.6687">
    <comp name="--.HHE">
      <acc value="0.0352355411" flag="0"/>
      <vel value="0.0086060279" flag="0"/>
      <psa03 value="0.0245302517" flag="0"/>
      <psa10 value="0.0016667332" flag="0"/>
      <psa30 value="0.0001209014" flag="0"/>
    </comp>
    <comp name="--.HHN">
      <acc value="0.0274575064" flag="0"/>
      <vel value="0.0088184503" flag="0"/>
      <psa03 value="0.0331934309" flag="0"/>
      <psa10 value="0.0018729019" flag="0"/>
      <psa30 value="0.0001745039" flag="0"/>
    </comp>
    <comp name="--.HHZ">
      <acc value="0.1041176960" flag="0"/>
      <vel value="0.0206908788" flag="0"/>
      <psa03 value="0.0377388339" flag="0"/>
      <psa10 value="0.0025029808" flag="0"/>
      <psa30 value="0.0002543892" flag="0"/>
    </comp>
  </station>
  <station code="VARL" name="VARL" netid="RO" insttype="MBB2/Quanterra" lat="45.8996" lon="27.8487">
    <comp name="--.HHN">
      <acc value="0.0553335424" flag="0"/>
      <vel value="0.0090788094" flag="0"/>
      <psa03 value="0.0540165578" flag="0"/>
      <psa10 value="0.0027370947" flag="0"/>
      <psa30 value="0.0001964445" flag="0"/>
    </comp>
    <comp name="--.HHZ">
      <acc value="0.0420281080" flag="0"/>
      <vel value="0.0068728567" flag="0"/>
      <psa03 value="0.0182984339" flag="0"/>
      <psa10 value="0.0013209698" flag="0"/>
      <psa30 value="0.0000948162" flag="0"/>
    </comp>
    <comp name="--.HHE">
      <acc value="0.0533022291" flag="0"/>
      <vel value="0.0097754849" flag="0"/>
      <psa03 value="0.0274906492" flag="0"/>
      <psa10 value="0.0025470373" flag="0"/>
      <psa30 value="0.0002158446" flag="0"/>
    </comp>
  </station>
  <station code="VOIR" name="VOIR" netid="RO" insttype="330" lat="45.4371" lon="25.0495">
    <comp name="--.HHN">
      <acc value="0.0058460634" flag="0"/>
      <vel value="0.0015709125" flag="0"/>
      <psa03 value="0.0073100089" flag="0"/>
      <psa10 value="0.0004397969" flag="0"/>
      <psa30 value="0.0000344961" flag="0"/>
    </comp>
    <comp name="--.HHE">
      <acc value="0.0027823481" flag="0"/>
      <vel value="0.0010120155" flag="0"/>
      <psa03 value="0.0035974655" flag="0"/>
      <psa10 value="0.0005815684" flag="0"/>
      <psa30 value="0.0000298981" flag="0"/>
    </comp>
    <comp name="--.HHZ">
      <acc value="0.0057236061" flag="0"/>
      <vel value="0.0012479983" flag="0"/>
      <psa03 value="0.0047874619" flag="0"/>
      <psa10 value="0.0003658807" flag="0"/>
      <psa30 value="0.0000283266" flag="0"/>
    </comp>
  </station>
  <station code="VRI" name="VRI" netid="RO" insttype="Linear" lat="45.8657" lon="26.7277">
    <comp name="--.HHN">
      <acc value="0.0334448185" flag="0"/>
      <vel value="0.0111189432" flag="0"/>
      <psa03 value="0.0988590794" flag="0"/>
      <psa10 value="0.0045378278" flag="0"/>
      <psa30 value="0.0003231601" flag="0"/>
    </comp>
    <comp name="--.HHE">
      <acc value="0.0479898856" flag="0"/>
      <vel value="0.0210113204" flag="0"/>
      <psa03 value="0.2327046415" flag="0"/>
      <psa10 value="0.0049263371" flag="0"/>
      <psa30 value="0.0005570816" flag="0"/>
    </comp>
    <comp name="--.HHZ">
      <acc value="0.0108369852" flag="0"/>
      <vel value="0.0032699642" flag="0"/>
      <psa03 value="0.0291329004" flag="0"/>
      <psa10 value="0.0024210843" flag="0"/>
      <psa30 value="0.0001338453" flag="0"/>
    </comp>
  </station>
</stationlist>
