<?xml version="1.0" encoding="UTF-8" standalone="yes"?>
<!DOCTYPE earthquake SYSTEM "stationlist.dtd">
<stationlist created="" xmlns="ch.ethz.sed.shakemap.usgs.xml">
  <station code="BAYT" name="BAYT" netid="KO" insttype="CMG-3ESPC" lat="40.3937" lon="40.141">
    <comp name="--.HHZ">
      <acc value="0.0011319768" flag="0"/>
      <vel value="0.0004784634" flag="0"/>
      <psa03 value="0.0044421389" flag="0"/>
      <psa10 value="0.0002927495" flag="0"/>
      <psa30 value="0.0000152523" flag="0"/>
    </comp>
    <comp name="--.HHE">
      <acc value="0.0138225165" flag="0"/>
      <vel value="0.0059429837" flag="0"/>
      <psa03 value="0.0326002447" flag="0"/>
      <psa10 value="0.0041508875" flag="0"/>
      <psa30 value="0.0004363442" flag="0"/>
    </comp>
    <comp name="--.HHN">
      <acc value="0.0129484265" flag="0"/>
      <vel value="0.0067038183" flag="0"/>
      <psa03 value="0.0500315668" flag="0"/>
      <psa10 value="0.0077194183" flag="0"/>
      <psa30 value="0.0003500004" flag="0"/>
    </comp>
  </station>
  <station code="BNGB" name="BNGB" netid="KO" insttype="CMG-3ESPC" lat="38.9913" lon="40.6792">
    <comp name="--.HHE">
      <acc value="0.0110485795" flag="0"/>
      <vel value="0.0060515670" flag="0"/>
      <psa03 value="0.0289097952" flag="0"/>
      <psa10 value="0.0044407596" flag="0"/>
      <psa30 value="0.0005493518" flag="0"/>
    </comp>
    <comp name="--.HHN">
      <acc value="0.0089645092" flag="0"/>
      <vel value="0.0032821806" flag="0"/>
      <psa03 value="0.0178741902" flag="0"/>
      <psa10 value="0.0025071250" flag="0"/>
      <psa30 value="0.0005174092" flag="0"/>
    </comp>
  </station>
  <station code="ERZN" name="ERZN" netid="KO" insttype="CMG-3ESP" lat="39.5867" lon="39.722">
    <comp name="--.HHE">
      <acc value="0.2676782202" flag="0"/>
      <vel value="0.0497718505" flag="0"/>
      <psa03 value="0.1531263155" flag="0"/>
      <psa10 value="0.0314732220" flag="0"/>
      <psa30 value="0.0015308339" flag="0"/>
    </comp>
    <comp name="--.HHZ">
      <acc value="0.1670905516" flag="0"/>
      <vel value="0.0353256230" flag="0"/>
      <psa03 value="0.1179464462" flag="0"/>
      <psa10 value="0.0246705148" flag="0"/>
      <psa30 value="0.0019114891" flag="0"/>
    </comp>
    <comp name="--.HHN">
      <acc value="0.3276003514" flag="0"/>
      <vel value="0.0836414040" flag="0"/>
      <psa03 value="0.3380142236" flag="0"/>
      <psa10 value="0.0566787885" flag="0"/>
      <psa30 value="0.0047305225" flag="0"/>
    </comp>
  </station>
  <station code="GUMT" name="GUMT" netid="KO" insttype="CMG-5T" lat="40.4665" lon="39.478">
    <comp name="--.HNE">
      <acc value="0.0062203531" flag="0"/>
      <vel value="0.0056950326" flag="0"/>
      <psa03 value="0.0091387330" flag="0"/>
      <psa10 value="0.0033255179" flag="0"/>
      <psa30 value="0.0031209888" flag="0"/>
    </comp>
    <comp name="--.HNN">
      <acc value="0.0054601950" flag="0"/>
      <vel value="0.0022370784" flag="0"/>
      <psa03 value="0.0098696889" flag="0"/>
      <psa10 value="0.0029870163" flag="0"/>
      <psa30 value="0.0003069793" flag="0"/>
    </comp>
    <comp name="--.HNZ">
      <acc value="0.0051464908" flag="0"/>
      <vel value="0.0022110979" flag="0"/>
      <psa03 value="0.0090891152" flag="0"/>
      <psa10 value="0.0022032666" flag="0"/>
      <psa30 value="0.0003605932" flag="0"/>
    </comp>
  </station>
  <station code="KARO" name="KARO" netid="KO" insttype="CMG-3T" lat="39.3089" lon="41.0493">
    <comp name="--.HHE">
      <acc value="0.0274714255" flag="0"/>
      <vel value="0.0171118590" flag="0"/>
      <psa03 value="0.1015951403" flag="0"/>
      <psa10 value="0.0152401760" flag="0"/>
      <psa30 value="0.0011329286" flag="0"/>
    </comp>
    <comp name="--.HHZ">
      <acc value="0.0107881105" flag="0"/>
      <vel value="0.0093276092" flag="0"/>
      <psa03 value="0.0430257759" flag="0"/>
      <psa10 value="0.0108213919" flag="0"/>
      <psa30 value="0.0011616673" flag="0"/>
    </comp>
    <comp name="--.HHN">
      <acc value="0.0241533326" flag="0"/>
      <vel value="0.0138384688" flag="0"/>
      <psa03 value="0.0803427780" flag="0"/>
      <psa10 value="0.0190335348" flag="0"/>
      <psa30 value="0.0013713934" flag="0"/>
    </comp>
  </station>
  <station code="SINE" name="SINE" netid="KO" insttype="CMG-6T" lat="39.1636" lon="39.3871">
    <comp name="--.HHZ">
      <acc value="0.0225456687" flag="0"/>
      <vel value="0.0066339106" flag="0"/>
      <psa03 value="0.0329874185" flag="0"/>
      <psa10 value="0.0030396326" flag="0"/>
      <psa30 value="0.0001910495" flag="0"/>
    </comp>
    <comp name="--.HHE">
      <acc value="0.0269587521" flag="0"/>
      <vel value="0.0093105873" flag="0"/>
      <psa03 value="0.0560084497" flag="0"/>
      <psa10 value="0.0038398448" flag="0"/>
      <psa30 value="0.0002798245" flag="0"/>
    </comp>
    <comp name="--.HHN">
      <acc value="0.0281003898" flag="0"/>
      <vel value="0.0076201657" flag="0"/>
      <psa03 value="0.0416267416" flag="0"/>
      <psa10 value="0.0038227311" flag="0"/>
      <psa30 value="0.0002126376" flag="0"/>
    </comp>
  </station>
  <station code="YEDI" name="YEDI" netid="KO" insttype="CMG-3T" lat="39.4377" lon="40.5443">
    <comp name="--.HHE">
      <acc value="0.0512608030" flag="0"/>
      <vel value="0.0252800854" flag="0"/>
      <psa03 value="0.1597687851" flag="0"/>
      <psa10 value="0.0324160908" flag="0"/>
      <psa30 value="0.0018485926" flag="0"/>
    </comp>
    <comp name="--.HHN">
      <acc value="0.0397512919" flag="0"/>
      <vel value="0.0214347390" flag="0"/>
      <psa03 value="0.1530970012" flag="0"/>
      <psa10 value="0.0285548105" flag="0"/>
      <psa30 value="0.0026150022" flag="0"/>
    </comp>
    <comp name="--.HHZ">
      <acc value="0.0000287145" flag="0"/>
      <vel value="0.0000034173" flag="0"/>
      <psa03 value="0.0000107345" flag="0"/>
      <psa10 value="0.0000024090" flag="0"/>
      <psa30 value="0.0000005465" flag="0"/>
    </comp>
  </station>
</stationlist>
