<?xml version="1.0" encoding="UTF-8" standalone="yes"?>
<!DOCTYPE earthquake SYSTEM "stationlist.dtd">
<stationlist created="" xmlns="ch.ethz.sed.shakemap.usgs.xml">
  <station code="BAYT" name="BAYT" netid="KO" insttype="CMG-3ESPC" lat="40.3937" lon="40.141">
    <comp name="--.HHE">
      <acc value="0.0138225165" flag="0"/>
      <vel value="0.0059429837" flag="0"/>
      <psa03 value="0.0326002447" flag="0"/>
      <psa10 value="0.0041508875" flag="0"/>
      <psa30 value="0.0004363411" flag="0"/>
    </comp>
    <comp name="--.HHZ">
      <acc value="0.0011319768" flag="0"/>
      <vel value="0.0004784634" flag="0"/>
      <psa03 value="0.0044421389" flag="0"/>
      <psa10 value="0.0002927495" flag="0"/>
      <psa30 value="0.0000152513" flag="0"/>
    </comp>
    <comp name="--.HHN">
      <acc value="0.0129484265" flag="0"/>
      <vel value="0.0067038184" flag="0"/>
      <psa03 value="0.0500315668" flag="0"/>
      <psa10 value="0.0077194183" flag="0"/>
      <psa30 value="0.0003500007" flag="0"/>
    </comp>
  </station>
  <station code="BNGB" name="BNGB" netid="KO" insttype="CMG-3ESPC" lat="38.9913" lon="40.6792">
    <comp name="--.HHE">
      <acc value="0.0110485795" flag="0"/>
      <vel value="0.0060515663" flag="0"/>
      <psa03 value="0.0289097952" flag="0"/>
      <psa10 value="0.0044407596" flag="0"/>
      <psa30 value="0.0005493522" flag="0"/>
    </comp>
    <comp name="--.HHN">
      <acc value="0.0089645090" flag="0"/>
      <vel value="0.0032821804" flag="0"/>
      <psa03 value="0.0178741902" flag="0"/>
      <psa10 value="0.0025071249" flag="0"/>
      <psa30 value="0.0005174078" flag="0"/>
    </comp>
  </station>
  <station code="ERZN" name="ERZN" netid="KO" insttype="CMG-3ESP" lat="39.5867" lon="39.722">
    <comp name="--.HHE">
      <acc value="0.2676782202" flag="0"/>
      <vel value="0.0497718471" flag="0"/>
      <psa03 value="0.1531263155" flag="0"/>
      <psa10 value="0.0314732220" flag="0"/>
      <psa30 value="0.0015308274" flag="0"/>
    </comp>
    <comp name="--.HHZ">
      <acc value="0.1670905518" flag="0"/>
      <vel value="0.0353256294" flag="0"/>
      <psa03 value="0.1179464462" flag="0"/>
      <psa10 value="0.0246705148" flag="0"/>
      <psa30 value="0.0019114682" flag="0"/>
    </comp>
    <comp name="--.HHN">
      <acc value="0.3276003514" flag="0"/>
      <vel value="0.0836414155" flag="0"/>
      <psa03 value="0.3380142236" flag="0"/>
      <psa10 value="0.0566787882" flag="0"/>
      <psa30 value="0.0047303702" flag="0"/>
    </comp>
  </station>
  <station code="KARO" name="KARO" netid="KO" insttype="CMG-3T" lat="39.3089" lon="41.0493">
    <comp name="--.HHE">
      <acc value="0.0274714247" flag="0"/>
      <vel value="0.0171118584" flag="0"/>
      <psa03 value="0.1015951403" flag="0"/>
      <psa10 value="0.0152401760" flag="0"/>
      <psa30 value="0.0011329436" flag="0"/>
    </comp>
    <comp name="--.HHN">
      <acc value="0.0241533327" flag="0"/>
      <vel value="0.0138384687" flag="0"/>
      <psa03 value="0.0803427780" flag="0"/>
      <psa10 value="0.0190335348" flag="0"/>
      <psa30 value="0.0013713804" flag="0"/>
    </comp>
    <comp name="--.HHZ">
      <acc value="0.0107881101" flag="0"/>
      <vel value="0.0093276099" flag="0"/>
      <psa03 value="0.0430257759" flag="0"/>
      <psa10 value="0.0108213919" flag="0"/>
      <psa30 value="0.0011616653" flag="0"/>
    </comp>
  </station>
  <station code="SINE" name="SINE" netid="KO" insttype="CMG-6T" lat="39.1636" lon="39.3871">
    <comp name="--.HHZ">
      <acc value="0.0225456687" flag="0"/>
      <vel value="0.0066339105" flag="0"/>
      <psa03 value="0.0329874185" flag="0"/>
      <psa10 value="0.0030396327" flag="0"/>
      <psa30 value="0.0001910469" flag="0"/>
    </comp>
    <comp name="--.HHN">
      <acc value="0.0281003892" flag="0"/>
      <vel value="0.0076201659" flag="0"/>
      <psa03 value="0.0416267416" flag="0"/>
      <psa10 value="0.0038227311" flag="0"/>
      <psa30 value="0.0002126363" flag="0"/>
    </comp>
    <comp name="--.HHE">
      <acc value="0.0269587520" flag="0"/>
      <vel value="0.0093105877" flag="0"/>
      <psa03 value="0.0560084497" flag="0"/>
      <psa10 value="0.0038398448" flag="0"/>
      <psa30 value="0.0002798253" flag="0"/>
    </comp>
  </station>
  <station code="YEDI" name="YEDI" netid="KO" insttype="CMG-3T" lat="39.4377" lon="40.5443">
    <comp name="--.HHZ">
      <acc value="0.0000287160" flag="0"/>
      <vel value="0.0000034172" flag="0"/>
      <psa03 value="0.0000107345" flag="0"/>
      <psa10 value="0.0000024090" flag="0"/>
      <psa30 value="0.0000005463" flag="0"/>
    </comp>
    <comp name="--.HHE">
      <acc value="0.0512608034" flag="0"/>
      <vel value="0.0252800855" flag="0"/>
      <psa03 value="0.1597687851" flag="0"/>
      <psa10 value="0.0324160908" flag="0"/>
      <psa30 value="0.0018486045" flag="0"/>
    </comp>
    <comp name="--.HHN">
      <acc value="0.0397512918" flag="0"/>
      <vel value="0.0214347390" flag="0"/>
      <psa03 value="0.1530970012" flag="0"/>
      <psa10 value="0.0285548104" flag="0"/>
      <psa30 value="0.0026150053" flag="0"/>
    </comp>
  </station>
</stationlist>
