<?xml version="1.0" encoding="UTF-8" standalone="yes"?>
<!DOCTYPE earthquake SYSTEM "stationlist.dtd">
<stationlist created="" xmlns="ch.ethz.sed.shakemap.usgs.xml">
  <station code="SVRC" name="SVRC" netid="KO" insttype="CMG-3T" lat="38.3775" lon="39.306">
    <comp name="--.HHE">
      <acc value="0.0303415790" flag="0"/>
      <vel value="0.0168057397" flag="0"/>
      <psa03 value="0.0701724463" flag="0"/>
      <psa10 value="0.0147442237" flag="0"/>
      <psa30 value="0.0045139851" flag="0"/>
    </comp>
    <comp name="--.HHN">
      <acc value="0.0254661990" flag="0"/>
      <vel value="0.0148957708" flag="0"/>
      <psa03 value="0.0839506059" flag="0"/>
      <psa10 value="0.0149304110" flag="0"/>
      <psa30 value="0.0020310970" flag="0"/>
    </comp>
    <comp name="--.HHZ">
      <acc value="0.0190326764" flag="0"/>
      <vel value="0.0111304843" flag="0"/>
      <psa03 value="0.0527034593" flag="0"/>
      <psa10 value="0.0127779628" flag="0"/>
      <psa30 value="0.0023398362" flag="0"/>
    </comp>
  </station>
</stationlist>
