<?xml version="1.0" encoding="UTF-8" standalone="yes"?>
<!DOCTYPE earthquake SYSTEM "stationlist.dtd">
<stationlist created="" xmlns="ch.ethz.sed.shakemap.usgs.xml">
  <station code="ARPRA" name="ARPRA" netid="KO" insttype="CMG-5T" lat="39.0929" lon="38.3356">
    <comp name="--.HNN">
      <acc value="0.0623562606" flag="0"/>
      <vel value="0.0399041888" flag="0"/>
      <psa03 value="0.2646791867" flag="0"/>
      <psa10 value="0.0562639880" flag="0"/>
      <psa30 value="0.0024550353" flag="0"/>
    </comp>
    <comp name="--.HNE">
      <acc value="0.0823980661" flag="0"/>
      <vel value="0.0593515883" flag="0"/>
      <psa03 value="0.2228716619" flag="0"/>
      <psa10 value="0.0517892244" flag="0"/>
      <psa30 value="0.0032227091" flag="0"/>
    </comp>
    <comp name="--.HNZ">
      <acc value="0.0307785331" flag="0"/>
      <vel value="0.0178873393" flag="0"/>
      <psa03 value="0.0987597235" flag="0"/>
      <psa10 value="0.0195682308" flag="0"/>
      <psa30 value="0.0012188133" flag="0"/>
    </comp>
  </station>
  <station code="DYBB" name="DYBB" netid="KO" insttype="CMG-3T" lat="37.9532" lon="40.1393">
    <comp name="--.HHE">
      <acc value="0.0117948940" flag="0"/>
      <vel value="0.0124770326" flag="0"/>
      <psa03 value="0.0312440120" flag="0"/>
      <psa10 value="0.0220824709" flag="0"/>
      <psa30 value="0.0024786537" flag="0"/>
    </comp>
    <comp name="--.HHN">
      <acc value="0.0178466325" flag="0"/>
      <vel value="0.0136822195" flag="0"/>
      <psa03 value="0.0593701680" flag="0"/>
      <psa10 value="0.0236566884" flag="0"/>
      <psa30 value="0.0057459079" flag="0"/>
    </comp>
  </station>
  <station code="SVRC" name="SVRC" netid="KO" insttype="CMG-3T" lat="38.3775" lon="39.306">
    <comp name="--.HHE">
      <acc value="0.0303415792" flag="0"/>
      <vel value="0.0168057388" flag="0"/>
      <psa03 value="0.0701724463" flag="0"/>
      <psa10 value="0.0147442244" flag="0"/>
      <psa30 value="0.0045140392" flag="0"/>
    </comp>
    <comp name="--.HHZ">
      <acc value="0.0190326761" flag="0"/>
      <vel value="0.0111304849" flag="0"/>
      <psa03 value="0.0527034593" flag="0"/>
      <psa10 value="0.0127779627" flag="0"/>
      <psa30 value="0.0023398543" flag="0"/>
    </comp>
    <comp name="--.HHN">
      <acc value="0.0254661989" flag="0"/>
      <vel value="0.0148957713" flag="0"/>
      <psa03 value="0.0839506059" flag="0"/>
      <psa10 value="0.0149304115" flag="0"/>
      <psa30 value="0.0020311269" flag="0"/>
    </comp>
  </station>
</stationlist>
