<?xml version="1.0" encoding="UTF-8" standalone="yes"?>
<!DOCTYPE earthquake SYSTEM "stationlist.dtd">
<stationlist created="" xmlns="ch.ethz.sed.shakemap.usgs.xml">
  <station code="AMPE" name="AMPE" netid="HA" insttype="1s-100Hz," lat="38.3015" lon="23.2688">
    <comp name="--.HHN">
      <acc value="0.0104864175" flag="0"/>
      <vel value="0.0080547603" flag="0"/>
      <psa03 value="0.0279563201" flag="0"/>
      <psa10 value="0.0071336228" flag="0"/>
      <psa30 value="0.0011171122" flag="0"/>
    </comp>
    <comp name="--.HHZ">
      <acc value="0.0084649120" flag="0"/>
      <vel value="0.0035678279" flag="0"/>
      <psa03 value="0.0164496091" flag="0"/>
      <psa10 value="0.0043251263" flag="0"/>
      <psa30 value="0.0003785201" flag="0"/>
    </comp>
    <comp name="--.HHE">
      <acc value="0.0112799468" flag="0"/>
      <vel value="0.0065362120" flag="0"/>
      <psa03 value="0.0190799691" flag="0"/>
      <psa10 value="0.0064524052" flag="0"/>
      <psa30 value="0.0011182690" flag="0"/>
    </comp>
  </station>
  <station code="ATAL" name="ATAL" netid="HA" insttype="120" lat="38.6926" lon="23.0213">
    <comp name="--.HHZ">
      <acc value="0.0053915304" flag="0"/>
      <vel value="0.0031753075" flag="0"/>
      <psa03 value="0.0096490276" flag="0"/>
      <psa10 value="0.0040226708" flag="0"/>
      <psa30 value="0.0001874911" flag="0"/>
    </comp>
    <comp name="--.HHN">
      <acc value="0.0085598748" flag="0"/>
      <vel value="0.0063859661" flag="0"/>
      <psa03 value="0.0154712742" flag="0"/>
      <psa10 value="0.0092403719" flag="0"/>
      <psa30 value="0.0007742365" flag="0"/>
    </comp>
    <comp name="--.HHE">
      <acc value="0.0061001717" flag="0"/>
      <vel value="0.0045902046" flag="0"/>
      <psa03 value="0.0119337836" flag="0"/>
      <psa10 value="0.0051656891" flag="0"/>
      <psa30 value="0.0004979829" flag="0"/>
    </comp>
  </station>
  <station code="ATHU" name="ATHU" netid="HA" insttype="60" lat="37.9665" lon="23.7845">
    <comp name="--.HHE">
      <acc value="0.0142799554" flag="0"/>
      <vel value="0.0054624953" flag="0"/>
      <psa03 value="0.0098633332" flag="0"/>
      <psa10 value="0.0057427809" flag="0"/>
      <psa30 value="0.0005532978" flag="0"/>
    </comp>
    <comp name="--.HHN">
      <acc value="0.0133551319" flag="0"/>
      <vel value="0.0047018540" flag="0"/>
      <psa03 value="0.0139316193" flag="0"/>
      <psa10 value="0.0068691353" flag="0"/>
      <psa30 value="0.0005230575" flag="0"/>
    </comp>
    <comp name="--.HHZ">
      <acc value="0.0205040794" flag="0"/>
      <vel value="0.0048849750" flag="0"/>
      <psa03 value="0.0121985067" flag="0"/>
      <psa10 value="0.0031658424" flag="0"/>
      <psa30 value="0.0002580834" flag="0"/>
    </comp>
  </station>
  <station code="DOMV" name="DOMV" netid="HA" insttype="60" lat="38.2569" lon="22.9795">
    <comp name="--.HHE">
      <acc value="0.0182496873" flag="0"/>
      <vel value="0.0040779634" flag="0"/>
      <psa03 value="0.0223926059" flag="0"/>
      <psa10 value="0.0018869285" flag="0"/>
      <psa30 value="0.0001557337" flag="0"/>
    </comp>
    <comp name="--.HHZ">
      <acc value="0.0097470151" flag="0"/>
      <vel value="0.0039651348" flag="0"/>
      <psa03 value="0.0192479505" flag="0"/>
      <psa10 value="0.0022592134" flag="0"/>
      <psa30 value="0.0001792712" flag="0"/>
    </comp>
    <comp name="--.HHN">
      <acc value="0.0171279144" flag="0"/>
      <vel value="0.0049704151" flag="0"/>
      <psa03 value="0.0314062213" flag="0"/>
      <psa10 value="0.0032821798" flag="0"/>
      <psa30 value="0.0001157526" flag="0"/>
    </comp>
  </station>
  <station code="EPID" name="EPID" netid="HA" insttype="30" lat="37.6144" lon="23.1189">
    <comp name="--.HHN">
      <acc value="0.0191195151" flag="0"/>
      <vel value="0.0095719306" flag="0"/>
      <psa03 value="0.0237289067" flag="0"/>
      <psa10 value="0.0073897949" flag="0"/>
      <psa30 value="0.0006601071" flag="0"/>
    </comp>
    <comp name="--.HHE">
      <acc value="0.0149048488" flag="0"/>
      <vel value="0.0109385324" flag="0"/>
      <psa03 value="0.0364850446" flag="0"/>
      <psa10 value="0.0134670140" flag="0"/>
      <psa30 value="0.0008265917" flag="0"/>
    </comp>
    <comp name="--.HHZ">
      <acc value="0.0098607184" flag="0"/>
      <vel value="0.0075703851" flag="0"/>
      <psa03 value="0.0135243682" flag="0"/>
      <psa10 value="0.0041116024" flag="0"/>
      <psa30 value="0.0003634794" flag="0"/>
    </comp>
  </station>
  <station code="ERTR" name="ERTR" netid="HA" insttype="Horizon,120s,1200" lat="38.4066" lon="23.7865">
    <comp name="--.HHZ">
      <acc value="0.0233022375" flag="0"/>
      <vel value="0.0066474474" flag="0"/>
      <psa03 value="0.0331448043" flag="0"/>
      <psa10 value="0.0049289463" flag="0"/>
      <psa30 value="0.0003788006" flag="0"/>
    </comp>
    <comp name="--.HHN">
      <acc value="0.0311918747" flag="0"/>
      <vel value="0.0117975652" flag="0"/>
      <psa03 value="0.0523883816" flag="0"/>
      <psa10 value="0.0155179907" flag="0"/>
      <psa30 value="0.0012758874" flag="0"/>
    </comp>
    <comp name="--.HHE">
      <acc value="0.0261915050" flag="0"/>
      <vel value="0.0102403776" flag="0"/>
      <psa03 value="0.0392327664" flag="0"/>
      <psa10 value="0.0069962336" flag="0"/>
      <psa30 value="0.0007105812" flag="0"/>
    </comp>
  </station>
  <station code="KARY" name="KARY" netid="HA" insttype="60" lat="38.0321" lon="24.437">
    <comp name="--.HHE">
      <acc value="0.2948010744" flag="0"/>
      <vel value="0.0445842131" flag="0"/>
      <psa03 value="0.2021564066" flag="0"/>
      <psa10 value="0.0154709885" flag="0"/>
      <psa30 value="0.0012880153" flag="0"/>
    </comp>
    <comp name="--.HHZ">
      <acc value="0.2700058076" flag="0"/>
      <vel value="0.0261247256" flag="0"/>
      <psa03 value="0.0855008225" flag="0"/>
      <psa10 value="0.0126568258" flag="0"/>
      <psa30 value="0.0010672054" flag="0"/>
    </comp>
    <comp name="--.HHN">
      <acc value="0.3328420512" flag="0"/>
      <vel value="0.0494648618" flag="0"/>
      <psa03 value="0.1486467530" flag="0"/>
      <psa10 value="0.0193609008" flag="0"/>
      <psa30 value="0.0011514741" flag="0"/>
    </comp>
  </station>
  <station code="LOUT" name="LOUT" netid="HA" insttype="30" lat="37.9879" lon="22.9743">
    <comp name="--.HHE">
      <acc value="0.0275815148" flag="0"/>
      <vel value="0.0107894567" flag="0"/>
      <psa03 value="0.0581121721" flag="0"/>
      <psa10 value="0.0123902539" flag="0"/>
      <psa30 value="0.0007764054" flag="0"/>
    </comp>
    <comp name="--.HHN">
      <acc value="0.0214381293" flag="0"/>
      <vel value="0.0110573188" flag="0"/>
      <psa03 value="0.0332221030" flag="0"/>
      <psa10 value="0.0122277052" flag="0"/>
      <psa30 value="0.0008152824" flag="0"/>
    </comp>
    <comp name="--.HHZ">
      <acc value="0.0148434537" flag="0"/>
      <vel value="0.0058541464" flag="0"/>
      <psa03 value="0.0370335652" flag="0"/>
      <psa10 value="0.0068982147" flag="0"/>
      <psa30 value="0.0003509669" flag="0"/>
    </comp>
  </station>
  <station code="MDRA" name="MDRA" netid="HA" insttype="60" lat="38.0606" lon="23.4662">
    <comp name="--.HHE">
      <acc value="0.0056604321" flag="0"/>
      <vel value="0.0015895387" flag="0"/>
      <psa03 value="0.0090356844" flag="0"/>
      <psa10 value="0.0010013422" flag="0"/>
      <psa30 value="0.0001002696" flag="0"/>
    </comp>
    <comp name="--.HHZ">
      <acc value="0.0076215441" flag="0"/>
      <vel value="0.0019944099" flag="0"/>
      <psa03 value="0.0092363058" flag="0"/>
      <psa10 value="0.0014209664" flag="0"/>
      <psa30 value="0.0001576230" flag="0"/>
    </comp>
    <comp name="--.HHN">
      <acc value="0.0098913573" flag="0"/>
      <vel value="0.0032635632" flag="0"/>
      <psa03 value="0.0130209276" flag="0"/>
      <psa10 value="0.0023741954" flag="0"/>
      <psa30 value="0.0001840266" flag="0"/>
    </comp>
  </station>
  <station code="MRKA" name="MRKA" netid="HA" insttype="Horizon,120s,1200" lat="38.7047" lon="23.5863">
    <comp name="--.HHE">
      <acc value="0.0500822839" flag="0"/>
      <vel value="0.0173149597" flag="0"/>
      <psa03 value="0.1025395238" flag="0"/>
      <psa10 value="0.0106765375" flag="0"/>
      <psa30 value="0.0006747746" flag="0"/>
    </comp>
    <comp name="--.HHZ">
      <acc value="0.0276391521" flag="0"/>
      <vel value="0.0092460282" flag="0"/>
      <psa03 value="0.0451212706" flag="0"/>
      <psa10 value="0.0080607977" flag="0"/>
      <psa30 value="0.0003069543" flag="0"/>
    </comp>
    <comp name="--.HHN">
      <acc value="0.0383775212" flag="0"/>
      <vel value="0.0132634463" flag="0"/>
      <psa03 value="0.0720732726" flag="0"/>
      <psa10 value="0.0123487940" flag="0"/>
      <psa30 value="0.0011413709" flag="0"/>
    </comp>
  </station>
  <station code="MRTH" name="MRTH" netid="HA" insttype="S100," lat="38.1225" lon="23.9409">
    <comp name="--.HHZ">
      <acc value="0.1157026366" flag="0"/>
      <vel value="0.0439005045" flag="0"/>
      <psa03 value="0.2807386055" flag="0"/>
      <psa10 value="0.0153689394" flag="0"/>
      <psa30 value="0.0016932900" flag="0"/>
    </comp>
    <comp name="--.HHE">
      <acc value="0.1058403486" flag="0"/>
      <vel value="0.0500812980" flag="0"/>
      <psa03 value="0.2349825085" flag="0"/>
      <psa10 value="0.0257963497" flag="0"/>
      <psa30 value="0.0022829024" flag="0"/>
    </comp>
    <comp name="--.HHN">
      <acc value="0.1616158552" flag="0"/>
      <vel value="0.0557008514" flag="0"/>
      <psa03 value="0.3220585224" flag="0"/>
      <psa10 value="0.0410768148" flag="0"/>
      <psa30 value="0.0032970976" flag="0"/>
    </comp>
  </station>
  <station code="SERI" name="SERI" netid="HA" insttype="30" lat="37.1609" lon="24.4853">
    <comp name="--.HHE">
      <acc value="0.0103911058" flag="0"/>
      <vel value="0.0035958983" flag="0"/>
      <psa03 value="0.0121829512" flag="0"/>
      <psa10 value="0.0042915196" flag="0"/>
      <psa30 value="0.0005906256" flag="0"/>
    </comp>
    <comp name="--.HHN">
      <acc value="0.0127798564" flag="0"/>
      <vel value="0.0026380803" flag="0"/>
      <psa03 value="0.0071342608" flag="0"/>
      <psa10 value="0.0021826528" flag="0"/>
      <psa30 value="0.0002406984" flag="0"/>
    </comp>
    <comp name="--.HHZ">
      <acc value="0.0116562395" flag="0"/>
      <vel value="0.0022583958" flag="0"/>
      <psa03 value="0.0110543233" flag="0"/>
      <psa10 value="0.0022741316" flag="0"/>
      <psa30 value="0.0001732685" flag="0"/>
    </comp>
  </station>
  <station code="STFN" name="STFN" netid="HA" insttype="1s-100Hz," lat="38.1766" lon="23.544">
    <comp name="--.HHN">
      <acc value="0.0241770757" flag="0"/>
      <vel value="0.0079375732" flag="0"/>
      <psa03 value="0.0433338913" flag="0"/>
      <psa10 value="0.0042514876" flag="0"/>
      <psa30 value="0.0004935945" flag="0"/>
    </comp>
    <comp name="--.HHZ">
      <acc value="0.0204880659" flag="0"/>
      <vel value="0.0040720554" flag="0"/>
      <psa03 value="0.0199147370" flag="0"/>
      <psa10 value="0.0035291485" flag="0"/>
      <psa30 value="0.0005388889" flag="0"/>
    </comp>
    <comp name="--.HHE">
      <acc value="0.0221374159" flag="0"/>
      <vel value="0.0113617391" flag="0"/>
      <psa03 value="0.0560924375" flag="0"/>
      <psa10 value="0.0080417498" flag="0"/>
      <psa30 value="0.0005424160" flag="0"/>
    </comp>
  </station>
  <station code="THIV" name="THIV" netid="HA" insttype="25" lat="38.299" lon="23.332">
    <comp name="--.HHE">
      <acc value="0.0063235501" flag="0"/>
      <vel value="0.0032779396" flag="0"/>
      <psa03 value="0.0186254212" flag="0"/>
      <psa10 value="0.0018788685" flag="0"/>
      <psa30 value="0.0001993217" flag="0"/>
    </comp>
    <comp name="--.HHZ">
      <acc value="0.0050970492" flag="0"/>
      <vel value="0.0022195251" flag="0"/>
      <psa03 value="0.0150304326" flag="0"/>
      <psa10 value="0.0011046498" flag="0"/>
      <psa30 value="0.0001747906" flag="0"/>
    </comp>
    <comp name="--.HHN">
      <acc value="0.0082022819" flag="0"/>
      <vel value="0.0034404339" flag="0"/>
      <psa03 value="0.0149538512" flag="0"/>
      <psa10 value="0.0035703426" flag="0"/>
      <psa30 value="0.0001497092" flag="0"/>
    </comp>
  </station>
  <station code="VILL" name="VILL" netid="HA" insttype="Horizon,120s,1200" lat="38.1642" lon="23.3122">
    <comp name="--.HHZ">
      <acc value="0.0084584321" flag="0"/>
      <vel value="0.0045228936" flag="0"/>
      <psa03 value="0.0198700501" flag="0"/>
      <psa10 value="0.0033056103" flag="0"/>
      <psa30 value="0.0005509340" flag="0"/>
    </comp>
    <comp name="--.HHN">
      <acc value="0.0114946140" flag="0"/>
      <vel value="0.0059675113" flag="0"/>
      <psa03 value="0.0288605213" flag="0"/>
      <psa10 value="0.0041759224" flag="0"/>
      <psa30 value="0.0003318014" flag="0"/>
    </comp>
    <comp name="--.HHE">
      <acc value="0.0114494905" flag="0"/>
      <vel value="0.0075194593" flag="0"/>
      <psa03 value="0.0274069700" flag="0"/>
      <psa10 value="0.0098136165" flag="0"/>
      <psa30 value="0.0007901444" flag="0"/>
    </comp>
  </station>
  <station code="ATH5" name="ATH5" netid="HI" insttype="CMG-5TD,ACCELEROMETER,GURALP" lat="37.9754" lon="23.7371">
    <comp name="--.HNZ">
      <acc value="0.0129190741" flag="0"/>
      <vel value="0.0047826694" flag="0"/>
      <psa03 value="0.0258307534" flag="0"/>
      <psa10 value="0.0068403393" flag="0"/>
      <psa30 value="0.0004988092" flag="0"/>
    </comp>
    <comp name="--.HNN">
      <acc value="0.0155256334" flag="0"/>
      <vel value="0.0088621694" flag="0"/>
      <psa03 value="0.0225301717" flag="0"/>
      <psa10 value="0.0113270898" flag="0"/>
      <psa30 value="0.0009523601" flag="0"/>
    </comp>
    <comp name="--.HNE">
      <acc value="0.0226562482" flag="0"/>
      <vel value="0.0121114372" flag="0"/>
      <psa03 value="0.0413824029" flag="0"/>
      <psa10 value="0.0088446706" flag="0"/>
      <psa30 value="0.0008867367" flag="0"/>
    </comp>
  </station>
  <station code="ATH" name="ATH" netid="HL" insttype="DR24" lat="37.9738" lon="23.7177">
    <comp name="--.HHE">
      <acc value="0.0313584990" flag="0"/>
      <vel value="0.0140743562" flag="0"/>
      <psa03 value="0.0449379347" flag="0"/>
      <psa10 value="0.0103928400" flag="0"/>
      <psa30 value="0.0008669565" flag="0"/>
    </comp>
    <comp name="--.HHN">
      <acc value="0.0270378641" flag="0"/>
      <vel value="0.0141449655" flag="0"/>
      <psa03 value="0.0397645777" flag="0"/>
      <psa10 value="0.0141251584" flag="0"/>
      <psa30 value="0.0011011275" flag="0"/>
    </comp>
    <comp name="--.HHZ">
      <acc value="0.0200499197" flag="0"/>
      <vel value="0.0065734402" flag="0"/>
      <psa03 value="0.0165295698" flag="0"/>
      <psa10 value="0.0081317832" flag="0"/>
      <psa30 value="0.0004848141" flag="0"/>
    </comp>
  </station>
  <station code="ATHP" name="ATHP" netid="HL" insttype="CMG-5" lat="38.0008" lon="23.7735">
    <comp name="00.HNN">
      <acc value="0.0299092463" flag="0"/>
      <vel value="0.0178135346" flag="0"/>
      <psa03 value="0.0477659309" flag="0"/>
      <psa10 value="0.0187529829" flag="0"/>
      <psa30 value="0.0010050435" flag="0"/>
    </comp>
    <comp name="00.HNZ">
      <acc value="0.0276529805" flag="0"/>
      <vel value="0.0103231249" flag="0"/>
      <psa03 value="0.0283420214" flag="0"/>
      <psa10 value="0.0090313645" flag="0"/>
      <psa30 value="0.0005598167" flag="0"/>
    </comp>
    <comp name="00.HNE">
      <acc value="0.0249553149" flag="0"/>
      <vel value="0.0169767325" flag="0"/>
      <psa03 value="0.0367977681" flag="0"/>
      <psa10 value="0.0144420946" flag="0"/>
      <psa30 value="0.0011209936" flag="0"/>
    </comp>
  </station>
  <station code="LKR" name="LKR" netid="HL" insttype="65535" lat="38.6496" lon="22.9988">
    <comp name="--.HHN">
      <acc value="0.0203891656" flag="0"/>
      <vel value="0.0064468860" flag="0"/>
      <psa03 value="0.0298726241" flag="0"/>
      <psa10 value="0.0064592878" flag="0"/>
      <psa30 value="0.0004884385" flag="0"/>
    </comp>
    <comp name="--.HHZ">
      <acc value="0.0139325414" flag="0"/>
      <vel value="0.0039246946" flag="0"/>
      <psa03 value="0.0135364192" flag="0"/>
      <psa10 value="0.0028536338" flag="0"/>
      <psa30 value="0.0002181645" flag="0"/>
    </comp>
    <comp name="--.HHE">
      <acc value="0.0280920348" flag="0"/>
      <vel value="0.0075614399" flag="0"/>
      <psa03 value="0.0204354597" flag="0"/>
      <psa10 value="0.0040849928" flag="0"/>
      <psa30 value="0.0002962716" flag="0"/>
    </comp>
  </station>
  <station code="NOAC" name="NOAC" netid="HL" insttype="CMG-5" lat="37.9738" lon="23.7177">
    <comp name="00.HNZ">
      <acc value="0.0173263731" flag="0"/>
      <vel value="0.0067521830" flag="0"/>
      <psa03 value="0.0168344511" flag="0"/>
      <psa10 value="0.0082704532" flag="0"/>
      <psa30 value="0.0005114293" flag="0"/>
    </comp>
    <comp name="00.HNN">
      <acc value="0.0270671473" flag="0"/>
      <vel value="0.0140266030" flag="0"/>
      <psa03 value="0.0406880759" flag="0"/>
      <psa10 value="0.0141338059" flag="0"/>
      <psa30 value="0.0011096552" flag="0"/>
    </comp>
    <comp name="00.HNE">
      <acc value="0.0327099757" flag="0"/>
      <vel value="0.0148075434" flag="0"/>
      <psa03 value="0.0469745530" flag="0"/>
      <psa10 value="0.0110122801" flag="0"/>
      <psa30 value="0.0008777523" flag="0"/>
    </comp>
  </station>
  <station code="PTL" name="PTL" netid="HL" insttype="120" lat="38.0473" lon="23.8638">
    <comp name="--.HHN">
      <acc value="0.0005393081" flag="0"/>
      <vel value="0.0001226123" flag="0"/>
      <psa03 value="0.0003254104" flag="0"/>
      <psa10 value="0.0001201833" flag="0"/>
      <psa30 value="0.0000700431" flag="0"/>
    </comp>
    <comp name="--.HHZ">
      <acc value="0.0193845736" flag="0"/>
      <vel value="0.0099893927" flag="0"/>
      <psa03 value="0.0257561863" flag="0"/>
      <psa10 value="0.0081122396" flag="0"/>
      <psa30 value="0.0008243193" flag="0"/>
    </comp>
    <comp name="--.HHE">
      <acc value="0.0275538218" flag="0"/>
      <vel value="0.0115406932" flag="0"/>
      <psa03 value="0.0373164359" flag="0"/>
      <psa10 value="0.0168488110" flag="0"/>
      <psa30 value="0.0011270708" flag="0"/>
    </comp>
  </station>
  <station code="SKY" name="SKY" netid="HL" insttype="120" lat="38.8831" lon="24.5482">
    <comp name="--.HHE">
      <acc value="0.0000109236" flag="0"/>
      <vel value="0.0000082754" flag="0"/>
      <psa03 value="0.0000108624" flag="0"/>
      <psa10 value="0.0000100002" flag="0"/>
      <psa30 value="0.0000040666" flag="0"/>
    </comp>
    <comp name="--.HHN">
      <acc value="0.0488877239" flag="0"/>
      <vel value="0.0164972460" flag="0"/>
      <psa03 value="0.1262405425" flag="0"/>
      <psa10 value="0.0074643451" flag="0"/>
      <psa30 value="0.0004645602" flag="0"/>
    </comp>
    <comp name="--.HHZ">
      <acc value="0.0462899720" flag="0"/>
      <vel value="0.0103054023" flag="0"/>
      <psa03 value="0.0728410997" flag="0"/>
      <psa10 value="0.0044487439" flag="0"/>
      <psa30 value="0.0003740233" flag="0"/>
    </comp>
  </station>
  <station code="THI1" name="THI1" netid="HL" insttype="LE3D20_SMART24" lat="38.3878" lon="23.3945">
    <comp name="--.HHN">
      <acc value="0.0915597883" flag="0"/>
      <vel value="0.0342707020" flag="0"/>
      <psa03 value="0.1707182580" flag="0"/>
      <psa10 value="0.0134643496" flag="0"/>
      <psa30 value="0.0012795227" flag="0"/>
    </comp>
    <comp name="--.HHE">
      <acc value="0.0845829696" flag="0"/>
      <vel value="0.0195843239" flag="0"/>
