<?xml version="1.0" encoding="UTF-8" standalone="yes"?>
<!DOCTYPE earthquake SYSTEM "stationlist.dtd">
<stationlist created="" xmlns="ch.ethz.sed.shakemap.usgs.xml">
  <station code="AMPE" name="AMPE" netid="HA" insttype="1s-100Hz," lat="38.3015" lon="23.2688">
    <comp name="--.HHE">
      <acc value="0.0112799444" flag="0"/>
      <vel value="0.0065370351" flag="0"/>
      <psa03 value="0.0190799715" flag="0"/>
      <psa10 value="0.0064524028" flag="0"/>
      <psa30 value="0.0011182580" flag="0"/>
    </comp>
    <comp name="--.HHN">
      <acc value="0.0104864181" flag="0"/>
      <vel value="0.0080549844" flag="0"/>
      <psa03 value="0.0279563195" flag="0"/>
      <psa10 value="0.0071336222" flag="0"/>
      <psa30 value="0.0011171116" flag="0"/>
    </comp>
    <comp name="--.HHZ">
      <acc value="0.0084649117" flag="0"/>
      <vel value="0.0035679318" flag="0"/>
      <psa03 value="0.0164496094" flag="0"/>
      <psa10 value="0.0043251266" flag="0"/>
      <psa30 value="0.0003785197" flag="0"/>
    </comp>
  </station>
  <station code="ATAL" name="ATAL" netid="HA" insttype="120" lat="38.6926" lon="23.0213">
    <comp name="--.HHN">
      <acc value="0.0085598748" flag="0"/>
      <vel value="0.0063859661" flag="0"/>
      <psa03 value="0.0154712742" flag="0"/>
      <psa10 value="0.0092403719" flag="0"/>
      <psa30 value="0.0007742371" flag="0"/>
    </comp>
    <comp name="--.HHE">
      <acc value="0.0061001718" flag="0"/>
      <vel value="0.0045902046" flag="0"/>
      <psa03 value="0.0119337836" flag="0"/>
      <psa10 value="0.0051656891" flag="0"/>
      <psa30 value="0.0004979834" flag="0"/>
    </comp>
    <comp name="--.HHZ">
      <acc value="0.0053915305" flag="0"/>
      <vel value="0.0031753075" flag="0"/>
      <psa03 value="0.0096490276" flag="0"/>
      <psa10 value="0.0040226708" flag="0"/>
      <psa30 value="0.0001874933" flag="0"/>
    </comp>
  </station>
  <station code="ATHU" name="ATHU" netid="HA" insttype="60" lat="37.9665" lon="23.7845">
    <comp name="--.HHZ">
      <acc value="0.0205040795" flag="0"/>
      <vel value="0.0048849749" flag="0"/>
      <psa03 value="0.0121985067" flag="0"/>
      <psa10 value="0.0031658420" flag="0"/>
      <psa30 value="0.0002580880" flag="0"/>
    </comp>
    <comp name="--.HHN">
      <acc value="0.0133551319" flag="0"/>
      <vel value="0.0047018541" flag="0"/>
      <psa03 value="0.0139316193" flag="0"/>
      <psa10 value="0.0068691354" flag="0"/>
      <psa30 value="0.0005230617" flag="0"/>
    </comp>
    <comp name="--.HHE">
      <acc value="0.0142799554" flag="0"/>
      <vel value="0.0054624951" flag="0"/>
      <psa03 value="0.0098633332" flag="0"/>
      <psa10 value="0.0057427810" flag="0"/>
      <psa30 value="0.0005532885" flag="0"/>
    </comp>
  </station>
  <station code="DOMV" name="DOMV" netid="HA" insttype="60" lat="38.2569" lon="22.9795">
    <comp name="--.HHZ">
      <acc value="0.0097470152" flag="0"/>
      <vel value="0.0039651348" flag="0"/>
      <psa03 value="0.0192479505" flag="0"/>
      <psa10 value="0.0022592134" flag="0"/>
      <psa30 value="0.0001792712" flag="0"/>
    </comp>
    <comp name="--.HHE">
      <acc value="0.0182496873" flag="0"/>
      <vel value="0.0040779632" flag="0"/>
      <psa03 value="0.0223926059" flag="0"/>
      <psa10 value="0.0018869285" flag="0"/>
      <psa30 value="0.0001557357" flag="0"/>
    </comp>
    <comp name="--.HHN">
      <acc value="0.0171279144" flag="0"/>
      <vel value="0.0049704151" flag="0"/>
      <psa03 value="0.0314062213" flag="0"/>
      <psa10 value="0.0032821798" flag="0"/>
      <psa30 value="0.0001157521" flag="0"/>
    </comp>
  </station>
  <station code="EPID" name="EPID" netid="HA" insttype="30" lat="37.6144" lon="23.1189">
    <comp name="--.HHE">
      <acc value="0.0149048487" flag="0"/>
      <vel value="0.0109385306" flag="0"/>
      <psa03 value="0.0364850446" flag="0"/>
      <psa10 value="0.0134670140" flag="0"/>
      <psa30 value="0.0008265931" flag="0"/>
    </comp>
    <comp name="--.HHN">
      <acc value="0.0191195150" flag="0"/>
      <vel value="0.0095719298" flag="0"/>
      <psa03 value="0.0237289067" flag="0"/>
      <psa10 value="0.0073897949" flag="0"/>
      <psa30 value="0.0006601200" flag="0"/>
    </comp>
    <comp name="--.HHZ">
      <acc value="0.0098607184" flag="0"/>
      <vel value="0.0075703852" flag="0"/>
      <psa03 value="0.0135243682" flag="0"/>
      <psa10 value="0.0041116024" flag="0"/>
      <psa30 value="0.0003634762" flag="0"/>
    </comp>
  </station>
  <station code="ERTR" name="ERTR" netid="HA" insttype="Horizon,120s,1200" lat="38.4066" lon="23.7865">
    <comp name="--.HHN">
      <acc value="0.0311918747" flag="0"/>
      <vel value="0.0117975649" flag="0"/>
      <psa03 value="0.0523883816" flag="0"/>
      <psa10 value="0.0155179908" flag="0"/>
      <psa30 value="0.0012758849" flag="0"/>
    </comp>
    <comp name="--.HHE">
      <acc value="0.0261915050" flag="0"/>
      <vel value="0.0102403775" flag="0"/>
      <psa03 value="0.0392327664" flag="0"/>
      <psa10 value="0.0069962336" flag="0"/>
      <psa30 value="0.0007105816" flag="0"/>
    </comp>
    <comp name="--.HHZ">
      <acc value="0.0233022375" flag="0"/>
      <vel value="0.0066474474" flag="0"/>
      <psa03 value="0.0331448043" flag="0"/>
      <psa10 value="0.0049289463" flag="0"/>
      <psa30 value="0.0003788162" flag="0"/>
    </comp>
  </station>
  <station code="KARY" name="KARY" netid="HA" insttype="60" lat="38.0321" lon="24.437">
    <comp name="--.HHE">
      <acc value="0.2948010744" flag="0"/>
      <vel value="0.0445842130" flag="0"/>
      <psa03 value="0.2021564066" flag="0"/>
      <psa10 value="0.0154709886" flag="0"/>
      <psa30 value="0.0012880089" flag="0"/>
    </comp>
    <comp name="--.HHN">
      <acc value="0.3328420513" flag="0"/>
      <vel value="0.0494648618" flag="0"/>
      <psa03 value="0.1486467530" flag="0"/>
      <psa10 value="0.0193609005" flag="0"/>
      <psa30 value="0.0011514760" flag="0"/>
    </comp>
    <comp name="--.HHZ">
      <acc value="0.2700058076" flag="0"/>
      <vel value="0.0261247258" flag="0"/>
      <psa03 value="0.0855008225" flag="0"/>
      <psa10 value="0.0126568256" flag="0"/>
      <psa30 value="0.0010672098" flag="0"/>
    </comp>
  </station>
  <station code="LOUT" name="LOUT" netid="HA" insttype="30" lat="37.9879" lon="22.9743">
    <comp name="--.HHE">
      <acc value="0.0275815148" flag="0"/>
      <vel value="0.0107894513" flag="0"/>
      <psa03 value="0.0581121721" flag="0"/>
      <psa10 value="0.0123902539" flag="0"/>
      <psa30 value="0.0007764064" flag="0"/>
    </comp>
    <comp name="--.HHN">
      <acc value="0.0214381293" flag="0"/>
      <vel value="0.0110573186" flag="0"/>
      <psa03 value="0.0332221030" flag="0"/>
      <psa10 value="0.0122277052" flag="0"/>
      <psa30 value="0.0008152816" flag="0"/>
    </comp>
    <comp name="--.HHZ">
      <acc value="0.0148434537" flag="0"/>
      <vel value="0.0058541453" flag="0"/>
      <psa03 value="0.0370335652" flag="0"/>
      <psa10 value="0.0068982147" flag="0"/>
      <psa30 value="0.0003509656" flag="0"/>
    </comp>
  </station>
  <station code="MDRA" name="MDRA" netid="HA" insttype="60" lat="38.0606" lon="23.4662">
    <comp name="--.HHE">
      <acc value="0.0056604321" flag="0"/>
      <vel value="0.0015895388" flag="0"/>
      <psa03 value="0.0090356844" flag="0"/>
      <psa10 value="0.0010013422" flag="0"/>
      <psa30 value="0.0001002699" flag="0"/>
    </comp>
    <comp name="--.HHZ">
      <acc value="0.0076215441" flag="0"/>
      <vel value="0.0019944097" flag="0"/>
      <psa03 value="0.0092363058" flag="0"/>
      <psa10 value="0.0014209664" flag="0"/>
      <psa30 value="0.0001576218" flag="0"/>
    </comp>
    <comp name="--.HHN">
      <acc value="0.0098913573" flag="0"/>
      <vel value="0.0032635633" flag="0"/>
      <psa03 value="0.0130209276" flag="0"/>
      <psa10 value="0.0023741954" flag="0"/>
      <psa30 value="0.0001840272" flag="0"/>
    </comp>
  </station>
  <station code="MRKA" name="MRKA" netid="HA" insttype="Horizon,120s,1200" lat="38.7047" lon="23.5863">
    <comp name="--.HHZ">
      <acc value="0.0276391521" flag="0"/>
      <vel value="0.0092460282" flag="0"/>
      <psa03 value="0.0451212706" flag="0"/>
      <psa10 value="0.0080607977" flag="0"/>
      <psa30 value="0.0003069557" flag="0"/>
    </comp>
    <comp name="--.HHN">
      <acc value="0.0383775211" flag="0"/>
      <vel value="0.0132634463" flag="0"/>
      <psa03 value="0.0720732726" flag="0"/>
      <psa10 value="0.0123487940" flag="0"/>
      <psa30 value="0.0011413595" flag="0"/>
    </comp>
    <comp name="--.HHE">
      <acc value="0.0500822839" flag="0"/>
      <vel value="0.0173149598" flag="0"/>
      <psa03 value="0.1025395238" flag="0"/>
      <psa10 value="0.0106765375" flag="0"/>
      <psa30 value="0.0006747790" flag="0"/>
    </comp>
  </station>
  <station code="MRTH" name="MRTH" netid="HA" insttype="S100," lat="38.1225" lon="23.9409">
    <comp name="--.HHZ">
      <acc value="0.1157026366" flag="0"/>
      <vel value="0.0439005159" flag="0"/>
      <psa03 value="0.2807386055" flag="0"/>
      <psa10 value="0.0153689392" flag="0"/>
      <psa30 value="0.0016932919" flag="0"/>
    </comp>
    <comp name="--.HHN">
      <acc value="0.1616158553" flag="0"/>
      <vel value="0.0557008269" flag="0"/>
      <psa03 value="0.3220585225" flag="0"/>
      <psa10 value="0.0410768149" flag="0"/>
      <psa30 value="0.0032970654" flag="0"/>
    </comp>
    <comp name="--.HHE">
      <acc value="0.1058403484" flag="0"/>
      <vel value="0.0500812517" flag="0"/>
      <psa03 value="0.2349825083" flag="0"/>
      <psa10 value="0.0257963500" flag="0"/>
      <psa30 value="0.0022829136" flag="0"/>
    </comp>
  </station>
  <station code="SERI" name="SERI" netid="HA" insttype="30" lat="37.1609" lon="24.4853">
    <comp name="--.HHN">
      <acc value="0.0127798565" flag="0"/>
      <vel value="0.0026380802" flag="0"/>
      <psa03 value="0.0071342608" flag="0"/>
      <psa10 value="0.0021826539" flag="0"/>
      <psa30 value="0.0002407331" flag="0"/>
    </comp>
    <comp name="--.HHE">
      <acc value="0.0103911058" flag="0"/>
      <vel value="0.0035958985" flag="0"/>
      <psa03 value="0.0121829512" flag="0"/>
      <psa10 value="0.0042915196" flag="0"/>
      <psa30 value="0.0005906227" flag="0"/>
    </comp>
    <comp name="--.HHZ">
      <acc value="0.0116562395" flag="0"/>
      <vel value="0.0022583988" flag="0"/>
      <psa03 value="0.0110543233" flag="0"/>
      <psa10 value="0.0022741316" flag="0"/>
      <psa30 value="0.0001732721" flag="0"/>
    </comp>
  </station>
  <station code="STFN" name="STFN" netid="HA" insttype="1s-100Hz," lat="38.1766" lon="23.544">
    <comp name="--.HHE">
      <acc value="0.0221374162" flag="0"/>
      <vel value="0.0113616408" flag="0"/>
      <psa03 value="0.0560924378" flag="0"/>
      <psa10 value="0.0080417500" flag="0"/>
      <psa30 value="0.0005424112" flag="0"/>
    </comp>
    <comp name="--.HHZ">
      <acc value="0.0204880664" flag="0"/>
      <vel value="0.0040718972" flag="0"/>
      <psa03 value="0.0199147364" flag="0"/>
      <psa10 value="0.0035291492" flag="0"/>
      <psa30 value="0.0005388816" flag="0"/>
    </comp>
    <comp name="--.HHN">
      <acc value="0.0241770765" flag="0"/>
      <vel value="0.0079378181" flag="0"/>
      <psa03 value="0.0433338905" flag="0"/>
      <psa10 value="0.0042514884" flag="0"/>
      <psa30 value="0.0004935848" flag="0"/>
    </comp>
  </station>
  <station code="THIV" name="THIV" netid="HA" insttype="25" lat="38.299" lon="23.332">
    <comp name="--.HHE">
      <acc value="0.0063235501" flag="0"/>
      <vel value="0.0032779396" flag="0"/>
      <psa03 value="0.0186254212" flag="0"/>
      <psa10 value="0.0018788685" flag="0"/>
      <psa30 value="0.0001993217" flag="0"/>
    </comp>
    <comp name="--.HHN">
      <acc value="0.0082022819" flag="0"/>
      <vel value="0.0034404340" flag="0"/>
      <psa03 value="0.0149538512" flag="0"/>
      <psa10 value="0.0035703426" flag="0"/>
      <psa30 value="0.0001497080" flag="0"/>
    </comp>
    <comp name="--.HHZ">
      <acc value="0.0050970492" flag="0"/>
      <vel value="0.0022195247" flag="0"/>
      <psa03 value="0.0150304326" flag="0"/>
      <psa10 value="0.0011046498" flag="0"/>
      <psa30 value="0.0001747905" flag="0"/>
    </comp>
  </station>
  <station code="VILL" name="VILL" netid="HA" insttype="Horizon,120s,1200" lat="38.1642" lon="23.3122">
    <comp name="--.HHZ">
      <acc value="0.0084584321" flag="0"/>
      <vel value="0.0045228937" flag="0"/>
      <psa03 value="0.0198700501" flag="0"/>
      <psa10 value="0.0033056103" flag="0"/>
      <psa30 value="0.0005509364" flag="0"/>
    </comp>
    <comp name="--.HHN">
      <acc value="0.0114946141" flag="0"/>
      <vel value="0.0059675113" flag="0"/>
      <psa03 value="0.0288605213" flag="0"/>
      <psa10 value="0.0041759224" flag="0"/>
      <psa30 value="0.0003318015" flag="0"/>
    </comp>
    <comp name="--.HHE">
      <acc value="0.0114494905" flag="0"/>
      <vel value="0.0075194587" flag="0"/>
      <psa03 value="0.0274069700" flag="0"/>
      <psa10 value="0.0098136165" flag="0"/>
      <psa30 value="0.0007901534" flag="0"/>
    </comp>
  </station>
  <station code="ATH5" name="ATH5" netid="HI" insttype="CMG-5TD,ACCELEROMETER,GURALP" lat="37.9754" lon="23.7371">
    <comp name="--.HNE">
      <acc value="0.0226562474" flag="0"/>
      <vel value="0.0121114374" flag="0"/>
      <psa03 value="0.0413824029" flag="0"/>
      <psa10 value="0.0088446715" flag="0"/>
      <psa30 value="0.0008867703" flag="0"/>
    </comp>
    <comp name="--.HNN">
      <acc value="0.0155256336" flag="0"/>
      <vel value="0.0088621698" flag="0"/>
      <psa03 value="0.0225301717" flag="0"/>
      <psa10 value="0.0113270923" flag="0"/>
      <psa30 value="0.0009523186" flag="0"/>
    </comp>
    <comp name="--.HNZ">
      <acc value="0.0129190747" flag="0"/>
      <vel value="0.0047826689" flag="0"/>
      <psa03 value="0.0258307534" flag="0"/>
      <psa10 value="0.0068403393" flag="0"/>
      <psa30 value="0.0004988261" flag="0"/>
    </comp>
  </station>
  <station code="ATH" name="ATH" netid="HL" insttype="DR24" lat="37.9738" lon="23.7177">
    <comp name="--.HHE">
      <acc value="0.0313584989" flag="0"/>
      <vel value="0.0140743562" flag="0"/>
      <psa03 value="0.0449379347" flag="0"/>
      <psa10 value="0.0103928398" flag="0"/>
      <psa30 value="0.0008669810" flag="0"/>
    </comp>
    <comp name="--.HHZ">
      <acc value="0.0200499197" flag="0"/>
      <vel value="0.0065734400" flag="0"/>
      <psa03 value="0.0165295698" flag="0"/>
      <psa10 value="0.0081317829" flag="0"/>
      <psa30 value="0.0004847970" flag="0"/>
    </comp>
    <comp name="--.HHN">
      <acc value="0.0270378641" flag="0"/>
      <vel value="0.0141449658" flag="0"/>
      <psa03 value="0.0397645777" flag="0"/>
      <psa10 value="0.0141251585" flag="0"/>
      <psa30 value="0.0011011085" flag="0"/>
    </comp>
  </station>
  <station code="ATHP" name="ATHP" netid="HL" insttype="CMG-5" lat="38.0008" lon="23.7735">
    <comp name="00.HNZ">
      <acc value="0.0276529802" flag="0"/>
      <vel value="0.0103231254" flag="0"/>
      <psa03 value="0.0283420214" flag="0"/>
      <psa10 value="0.0090313648" flag="0"/>
      <psa30 value="0.0005601306" flag="0"/>
    </comp>
    <comp name="00.HNN">
      <acc value="0.0299092464" flag="0"/>
      <vel value="0.0178135346" flag="0"/>
      <psa03 value="0.0477659309" flag="0"/>
      <psa10 value="0.0187529826" flag="0"/>
      <psa30 value="0.0010047293" flag="0"/>
    </comp>
    <comp name="00.HNE">
      <acc value="0.0249553153" flag="0"/>
      <vel value="0.0169767317" flag="0"/>
      <psa03 value="0.0367977681" flag="0"/>
      <psa10 value="0.0144420933" flag="0"/>
      <psa30 value="0.0011207912" flag="0"/>
    </comp>
  </station>
  <station code="LKR" name="LKR" netid="HL" insttype="65535" lat="38.6496" lon="22.9988">
    <comp name="--.HHE">
      <acc value="0.0280920348" flag="0"/>
      <vel value="0.0075614399" flag="0"/>
      <psa03 value="0.0204354597" flag="0"/>
      <psa10 value="0.0040849928" flag="0"/>
      <psa30 value="0.0002962717" flag="0"/>
    </comp>
    <comp name="--.HHZ">
      <acc value="0.0139325414" flag="0"/>
      <vel value="0.0039246947" flag="0"/>
      <psa03 value="0.0135364192" flag="0"/>
      <psa10 value="0.0028536338" flag="0"/>
      <psa30 value="0.0002181658" flag="0"/>
    </comp>
    <comp name="--.HHN">
      <acc value="0.0203891656" flag="0"/>
      <vel value="0.0064468860" flag="0"/>
      <psa03 value="0.0298726241" flag="0"/>
      <psa10 value="0.0064592878" flag="0"/>
      <psa30 value="0.0004884381" flag="0"/>
    </comp>
  </station>
  <station code="NOAC" name="NOAC" netid="HL" insttype="CMG-5" lat="37.9738" lon="23.7177">
    <comp name="00.HNZ">
      <acc value="0.0173263732" flag="0"/>
      <vel value="0.0067521837" flag="0"/>
      <psa03 value="0.0168344511" flag="0"/>
      <psa10 value="0.0082704527" flag="0"/>
      <psa30 value="0.0005114546" flag="0"/>
    </comp>
    <comp name="00.HNN">
      <acc value="0.0270671473" flag="0"/>
      <vel value="0.0140266039" flag="0"/>
      <psa03 value="0.0406880759" flag="0"/>
      <psa10 value="0.0141338062" flag="0"/>
      <psa30 value="0.0011095813" flag="0"/>
    </comp>
    <comp name="00.HNE">
      <acc value="0.0327099756" flag="0"/>
      <vel value="0.0148075437" flag="0"/>
      <psa03 value="0.0469745530" flag="0"/>
      <psa10 value="0.0110122803" flag="0"/>
      <psa30 value="0.0008778395" flag="0"/>
    </comp>
  </station>
  <station code="PTL" name="PTL" netid="HL" insttype="120" lat="38.0473" lon="23.8638">
    <comp name="--.HHE">
      <acc value="0.0275538218" flag="0"/>
      <vel value="0.0115406931" flag="0"/>
      <psa03 value="0.0373164359" flag="0"/>
      <psa10 value="0.0168488110" flag="0"/>
      <psa30 value="0.0011270736" flag="0"/>
    </comp>
    <comp name="--.HHN">
      <acc value="0.0005393081" flag="0"/>
      <vel value="0.0001226112" flag="0"/>
      <psa03 value="0.0003254104" flag="0"/>
      <psa10 value="0.0001202139" flag="0"/>
      <psa30 value="0.0000699621" flag="0"/>
    </comp>
    <comp name="--.HHZ">
      <acc value="0.0193845735" flag="0"/>
      <vel value="0.0099893930" flag="0"/>
      <psa03 value="0.0257561863" flag="0"/>
      <psa10 value="0.0081122392" flag="0"/>
      <psa30 value="0.0008243190" flag="0"/>
    </comp>
  </station>
  <station code="SKY" name="SKY" netid="HL" insttype="120" lat="38.8831" lon="24.5482">
    <comp name="--.HHE">
      <acc value="0.0000108898" flag="0"/>
      <vel value="0.0000082759" flag="0"/>
      <psa03 value="0.0000108832" flag="0"/>
      <psa10 value="0.0000100004" flag="0"/>
      <psa30 value="0.0000040721" flag="0"/>
    </comp>
    <comp name="--.HHZ">
      <acc value="0.0462899721" flag="0"/>
      <vel value="0.0103054027" flag="0"/>
      <psa03 value="0.0728410997" flag="0"/>
      <psa10 value="0.0044487438" flag="0"/>
      <psa30 value="0.0003740133" flag="0"/>
    </comp>
    <comp name="--.HHN">
      <acc value="0.0488877238" flag="0"/>
      <vel value="0.0164972464" flag="0"/>
      <psa03 value="0.1262405425" flag="0"/>
      <psa10 value="0.0074643452" flag="0"/>
      <psa30 value="0.0004644222" flag="0"/>
    </comp>
  </station>
  <station code="THI1" name="THI1" netid="HL" insttype="LE3D20_SMART24" lat="38.3878" lon="23.3945">
    <comp name="--.HHN">
      <acc value="0.0915597883" flag="0"/>
      <vel value="0.0342707020" flag="0"/>
      <psa03 value="0.1707182580" flag="0"/>
      <psa10 value="0.0134643496" flag="0"/>
      <psa30 value="0.0012795227" flag="0"/>
    </comp>
    <comp name="--.HHE">
      <acc value="0.0845829696" flag="0"/>
      <vel value="0.0195843239" flag="0"/>
