<?xml version="1.0" encoding="UTF-8" standalone="yes"?>
<!DOCTYPE earthquake SYSTEM "stationlist.dtd">
<stationlist created="" xmlns="ch.ethz.sed.shakemap.usgs.xml">
  <station code="AKDM" name="AKDM" netid="KO" insttype="30s," lat="38.3285" lon="42.98">
    <comp name="--.HHE">
      <acc value="0.0560864618" flag="0"/>
      <vel value="0.0166319498" flag="0"/>
      <psa03 value="0.0461564948" flag="0"/>
      <psa10 value="0.0320112457" flag="0"/>
      <psa30 value="0.0014797585" flag="0"/>
    </comp>
    <comp name="--.HHZ">
      <acc value="0.0281229406" flag="0"/>
      <vel value="0.0174938194" flag="0"/>
      <psa03 value="0.0315122577" flag="0"/>
      <psa10 value="0.0181896225" flag="0"/>
      <psa30 value="0.0011772768" flag="0"/>
    </comp>
    <comp name="--.HHN">
      <acc value="0.0494995639" flag="0"/>
      <vel value="0.0184622536" flag="0"/>
      <psa03 value="0.0530062051" flag="0"/>
      <psa10 value="0.0136393110" flag="0"/>
      <psa30 value="0.0018676942" flag="0"/>
    </comp>
  </station>
  <station code="MLAZ" name="MLAZ" netid="KO" insttype="120s," lat="39.141" lon="42.5496">
    <comp name="--.HHN">
      <acc value="0.0042781850" flag="0"/>
      <vel value="0.0018700438" flag="0"/>
      <psa03 value="0.0091567957" flag="0"/>
      <psa10 value="0.0012474212" flag="0"/>
      <psa30 value="0.0001265283" flag="0"/>
    </comp>
    <comp name="--.HHZ">
      <acc value="0.0080509479" flag="0"/>
      <vel value="0.0062530155" flag="0"/>
      <psa03 value="0.0244835163" flag="0"/>
      <psa10 value="0.0094501524" flag="0"/>
      <psa30 value="0.0004143908" flag="0"/>
    </comp>
    <comp name="--.HHE">
      <acc value="0.0041532359" flag="0"/>
      <vel value="0.0014717526" flag="0"/>
      <psa03 value="0.0070556524" flag="0"/>
      <psa10 value="0.0013197746" flag="0"/>
      <psa30 value="0.0000957507" flag="0"/>
    </comp>
  </station>
  <station code="VANB" name="VANB" netid="KO" insttype="360s," lat="38.509" lon="43.4058">
    <comp name="--.HHE">
      <acc value="0.0043386145" flag="0"/>
      <vel value="0.0068302599" flag="0"/>
      <psa03 value="0.0089040715" flag="0"/>
      <psa10 value="0.0121318538" flag="0"/>
      <psa30 value="0.0014133041" flag="0"/>
    </comp>
    <comp name="--.HHN">
      <acc value="0.0042648329" flag="0"/>
      <vel value="0.0055710127" flag="0"/>
      <psa03 value="0.0079118054" flag="0"/>
      <psa10 value="0.0105040328" flag="0"/>
      <psa30 value="0.0010654568" flag="0"/>
    </comp>
    <comp name="--.HHZ">
      <acc value="0.0033619613" flag="0"/>
      <vel value="0.0045877297" flag="0"/>
      <psa03 value="0.0054779806" flag="0"/>
      <psa10 value="0.0072296312" flag="0"/>
      <psa30 value="0.0008368364" flag="0"/>
    </comp>
  </station>
</stationlist>
