<?xml version="1.0" encoding="UTF-8" standalone="yes"?>
<!DOCTYPE earthquake SYSTEM "stationlist.dtd">
<stationlist created="" xmlns="ch.ethz.sed.shakemap.usgs.xml">
  <station code="AKDM" name="AKDM" netid="KO" insttype="30s," lat="38.3285" lon="42.98">
    <comp name="--.HHN">
      <acc value="0.0307423515" flag="0"/>
      <vel value="0.0148812694" flag="0"/>
      <psa03 value="0.0537375672" flag="0"/>
      <psa10 value="0.0059864218" flag="0"/>
      <psa30 value="0.0004794975" flag="0"/>
    </comp>
    <comp name="--.HHZ">
      <acc value="0.0276311441" flag="0"/>
      <vel value="0.0086071209" flag="0"/>
      <psa03 value="0.0325035436" flag="0"/>
      <psa10 value="0.0052055330" flag="0"/>
      <psa30 value="0.0004672971" flag="0"/>
    </comp>
    <comp name="--.HHE">
      <acc value="0.0323352307" flag="0"/>
      <vel value="0.0115184797" flag="0"/>
      <psa03 value="0.0406899415" flag="0"/>
      <psa10 value="0.0115135527" flag="0"/>
      <psa30 value="0.0006103905" flag="0"/>
    </comp>
  </station>
  <station code="ERCV" name="ERCV" netid="KO" insttype="100" lat="39.0198" lon="43.3381">
    <comp name="--.HNN">
      <acc value="0.0500464936" flag="0"/>
      <vel value="0.0339815630" flag="0"/>
      <psa03 value="0.1420950805" flag="0"/>
      <psa10 value="0.0410228203" flag="0"/>
      <psa30 value="0.0067243245" flag="0"/>
    </comp>
    <comp name="--.HNZ">
      <acc value="0.0627011723" flag="0"/>
      <vel value="0.0219222509" flag="0"/>
      <psa03 value="0.0867247479" flag="0"/>
      <psa10 value="0.0254663181" flag="0"/>
      <psa30 value="0.0057102002" flag="0"/>
    </comp>
    <comp name="--.HNE">
      <acc value="0.0470886810" flag="0"/>
      <vel value="0.0311641646" flag="0"/>
      <psa03 value="0.1007992620" flag="0"/>
      <psa10 value="0.0376314323" flag="0"/>
      <psa30 value="0.0043435585" flag="0"/>
    </comp>
  </station>
  <station code="KARO" name="KARO" netid="KO" insttype="120s," lat="39.3089" lon="41.0493">
    <comp name="--.HHE">
      <acc value="0.0191015879" flag="0"/>
      <vel value="0.0137388855" flag="0"/>
      <psa03 value="0.0728332043" flag="0"/>
      <psa10 value="0.0128580360" flag="0"/>
      <psa30 value="0.0011852569" flag="0"/>
    </comp>
    <comp name="--.HHN">
      <acc value="0.0302565966" flag="0"/>
      <vel value="0.0162961976" flag="0"/>
      <psa03 value="0.0501515022" flag="0"/>
      <psa10 value="0.0196994542" flag="0"/>
      <psa30 value="0.0008506727" flag="0"/>
    </comp>
    <comp name="--.HHZ">
      <acc value="0.0109008501" flag="0"/>
      <vel value="0.0065612439" flag="0"/>
      <psa03 value="0.0305694515" flag="0"/>
      <psa10 value="0.0040935751" flag="0"/>
      <psa30 value="0.0005072560" flag="0"/>
    </comp>
  </station>
  <station code="MLAZ" name="MLAZ" netid="KO" insttype="120s," lat="39.141" lon="42.5496">
    <comp name="--.HHE">
      <acc value="0.0339948179" flag="0"/>
      <vel value="0.0273826872" flag="0"/>
      <psa03 value="0.0541468820" flag="0"/>
      <psa10 value="0.0482561430" flag="0"/>
      <psa30 value="0.0046992927" flag="0"/>
    </comp>
    <comp name="--.HHN">
      <acc value="0.0347498664" flag="0"/>
      <vel value="0.0257599097" flag="0"/>
      <psa03 value="0.0991354904" flag="0"/>
      <psa10 value="0.0428872329" flag="0"/>
      <psa30 value="0.0034797590" flag="0"/>
    </comp>
    <comp name="--.HHZ">
      <acc value="0.0207722839" flag="0"/>
      <vel value="0.0080440927" flag="0"/>
      <psa03 value="0.0480605313" flag="0"/>
      <psa10 value="0.0133144039" flag="0"/>
      <psa30 value="0.0011718572" flag="0"/>
    </comp>
  </station>
  <station code="VANB" name="VANB" netid="KO" insttype="360s," lat="38.509" lon="43.4058">
    <comp name="--.HHN">
      <acc value="0.0046419022" flag="0"/>
      <vel value="0.0042677370" flag="0"/>
      <psa03 value="0.0069830601" flag="0"/>
      <psa10 value="0.0076243506" flag="0"/>
      <psa30 value="0.0007908394" flag="0"/>
    </comp>
    <comp name="--.HHE">
      <acc value="0.0033131842" flag="0"/>
      <vel value="0.0030405383" flag="0"/>
      <psa03 value="0.0057578316" flag="0"/>
      <psa10 value="0.0027210044" flag="0"/>
      <psa30 value="0.0005625351" flag="0"/>
    </comp>
    <comp name="--.HHZ">
      <acc value="0.0066484444" flag="0"/>
      <vel value="0.0023906191" flag="0"/>
      <psa03 value="0.0056040935" flag="0"/>
      <psa10 value="0.0058778053" flag="0"/>
      <psa30 value="0.0003398186" flag="0"/>
    </comp>
  </station>
</stationlist>
