<?xml version="1.0" encoding="UTF-8" standalone="yes"?>
<!DOCTYPE earthquake SYSTEM "stationlist.dtd">
<stationlist created="" xmlns="ch.ethz.sed.shakemap.usgs.xml">
  <station code="AKS" name="AKS" netid="KO" insttype="CMG-5T" commtype="DIG" lat="38.8785" lon="27.8129">
    <comp name="--.HNZ">
      <acc value="0.2526555626" flag="0"/>
      <vel value="0.0549409722" flag="0"/>
      <psa03 value="0.3019632000" flag="0"/>
      <psa10 value="0.0272146413" flag="0"/>
      <psa30 value="0.0086697506" flag="0"/>
    </comp>
    <comp name="--.HNN">
      <acc value="0.4337823780" flag="0"/>
      <vel value="0.1159039278" flag="0"/>
      <psa03 value="0.9819635924" flag="0"/>
      <psa10 value="0.0838813796" flag="0"/>
      <psa30 value="0.0060319665" flag="0"/>
    </comp>
    <comp name="--.HNE">
      <acc value="0.4235035503" flag="0"/>
      <vel value="0.1625740667" flag="0"/>
      <psa03 value="0.8215363269" flag="0"/>
      <psa10 value="0.0511450246" flag="0"/>
      <psa30 value="0.0102639006" flag="0"/>
    </comp>
  </station>
  <station code="AYVL" name="AYVL" netid="KO" insttype="CMG-6T" commtype="DIG" lat="39.2907" lon="26.69">
    <comp name="--.HHE">
      <acc value="0.2535319008" flag="0"/>
      <vel value="0.1243781862" flag="0"/>
      <psa03 value="0.9560745442" flag="0"/>
      <psa10 value="0.0657569424" flag="0"/>
      <psa30 value="0.0034143554" flag="0"/>
    </comp>
    <comp name="--.HHZ">
      <acc value="0.0921489188" flag="0"/>
      <vel value="0.0322844559" flag="0"/>
      <psa03 value="0.2409623975" flag="0"/>
      <psa10 value="0.0332811329" flag="0"/>
      <psa30 value="0.0014383701" flag="0"/>
    </comp>
    <comp name="--.HHN">
      <acc value="0.2214848624" flag="0"/>
      <vel value="0.1036401626" flag="0"/>
      <psa03 value="0.6079673738" flag="0"/>
      <psa10 value="0.0822353571" flag="0"/>
      <psa30 value="0.0040633547" flag="0"/>
    </comp>
  </station>
  <station code="BALB" name="BALB" netid="KO" insttype="CMG-5T" commtype="DIG" lat="39.6507" lon="27.8642">
    <comp name="--.HNN">
      <acc value="0.3174448843" flag="0"/>
      <vel value="0.1248298802" flag="0"/>
      <psa03 value="0.6736264494" flag="0"/>
      <psa10 value="0.1250395694" flag="0"/>
      <psa30 value="0.0100921600" flag="0"/>
    </comp>
    <comp name="--.HNE">
      <acc value="0.2956460574" flag="0"/>
      <vel value="0.1649899477" flag="0"/>
      <psa03 value="0.7389406282" flag="0"/>
      <psa10 value="0.1730127514" flag="0"/>
      <psa30 value="0.0110852179" flag="0"/>
    </comp>
    <comp name="--.HNZ">
      <acc value="0.2125879439" flag="0"/>
      <vel value="0.1161318956" flag="0"/>
      <psa03 value="0.4388496605" flag="0"/>
      <psa10 value="0.0907980903" flag="0"/>
      <psa30 value="0.0068103762" flag="0"/>
    </comp>
  </station>
  <station code="BIGA" name="BIGA" netid="KO" insttype="CMG-5T" commtype="DIG" lat="40.2813" lon="27.1505">
    <comp name="--.HNE">
      <acc value="0.0915659584" flag="0"/>
      <vel value="0.0583200371" flag="0"/>
      <psa03 value="0.2083080009" flag="0"/>
      <psa10 value="0.0700950566" flag="0"/>
      <psa30 value="0.0039813205" flag="0"/>
    </comp>
    <comp name="--.HNN">
      <acc value="0.1191093142" flag="0"/>
      <vel value="0.0684483536" flag="0"/>
      <psa03 value="0.4080162648" flag="0"/>
      <psa10 value="0.0805434384" flag="0"/>
      <psa30 value="0.0037061417" flag="0"/>
    </comp>
    <comp name="--.HNZ">
      <acc value="0.0426628906" flag="0"/>
      <vel value="0.0212722001" flag="0"/>
      <psa03 value="0.0871424040" flag="0"/>
      <psa10 value="0.0330289680" flag="0"/>
      <psa30 value="0.0032535883" flag="0"/>
    </comp>
  </station>
  <station code="CANM" name="CANM" netid="KO" insttype="CMG-5T" commtype="DIG" lat="40.0113" lon="27.0529">
    <comp name="--.HNE">
      <acc value="0.0626020871" flag="0"/>
      <vel value="0.0540475940" flag="0"/>
      <psa03 value="0.1027550787" flag="0"/>
      <psa10 value="0.0725735985" flag="0"/>
      <psa30 value="0.0052540452" flag="0"/>
    </comp>
    <comp name="--.HNZ">
      <acc value="0.0650653877" flag="0"/>
      <vel value="0.0389162602" flag="0"/>
      <psa03 value="0.1675332854" flag="0"/>
      <psa10 value="0.0424068360" flag="0"/>
      <psa30 value="0.0042519837" flag="0"/>
    </comp>
    <comp name="--.HNN">
      <acc value="0.0739677965" flag="0"/>
      <vel value="0.0642542218" flag="0"/>
      <psa03 value="0.1637536818" flag="0"/>
      <psa10 value="0.0898612335" flag="0"/>
      <psa30 value="0.0054905666" flag="0"/>
    </comp>
  </station>
  <station code="DKL" name="DKL" netid="KO" insttype="CMG-3ESPC" commtype="DIG" lat="39.0713" lon="26.9053">
    <comp name="--.HHZ">
      <acc value="0.0369538628" flag="0"/>
      <vel value="0.0231114589" flag="0"/>
      <psa03 value="0.1337766083" flag="0"/>
      <psa10 value="0.0353339679" flag="0"/>
      <psa30 value="0.0059230131" flag="0"/>
    </comp>
  </station>
  <station code="DST" name="DST" netid="KO" insttype="CMG-5T" commtype="DIG" lat="39.6041" lon="28.6267">
    <comp name="--.HNN">
      <acc value="0.2536197039" flag="0"/>
      <vel value="0.0613566367" flag="0"/>
      <psa03 value="0.2402165760" flag="0"/>
      <psa10 value="0.0386950497" flag="0"/>
      <psa30 value="0.0096732193" flag="0"/>
    </comp>
    <comp name="--.HNZ">
      <acc value="0.1815907801" flag="0"/>
      <vel value="0.0490375628" flag="0"/>
      <psa03 value="0.2468574983" flag="0"/>
      <psa10 value="0.0367097389" flag="0"/>
      <psa30 value="0.0104595595" flag="0"/>
    </comp>
  </station>
  <station code="EDC" name="EDC" netid="KO" insttype="CMG-3T" commtype="DIG" lat="40.3465" lon="27.8618">
    <comp name="--.HHN">
      <acc value="0.1643541572" flag="0"/>
      <vel value="0.0735082444" flag="0"/>
      <psa03 value="0.2786550786" flag="0"/>
      <psa10 value="0.1020173425" flag="0"/>
      <psa30 value="0.0068436478" flag="0"/>
    </comp>
    <comp name="--.HHE">
      <acc value="0.0352627542" flag="0"/>
      <vel value="0.0107002450" flag="0"/>
      <psa03 value="0.0486447353" flag="0"/>
      <psa10 value="0.0074422028" flag="0"/>
      <psa30 value="0.0005543573" flag="0"/>
    </comp>
    <comp name="--.HHZ">
      <acc value="0.0515895626" flag="0"/>
      <vel value="0.0302814477" flag="0"/>
      <psa03 value="0.0850588373" flag="0"/>
      <psa10 value="0.0497401727" flag="0"/>
      <psa30 value="0.0039921282" flag="0"/>
    </comp>
  </station>
  <station code="GOMA" name="GOMA" netid="KO" insttype="CMG-5T" commtype="DIG" lat="38.7077" lon="27.9175">
    <comp name="--.HNE">
      <acc value="0.3716393282" flag="0"/>
      <vel value="0.1789154694" flag="0"/>
      <psa03 value="1.4244075846" flag="0"/>
      <psa10 value="0.0650991813" flag="0"/>
      <psa30 value="0.0067034484" flag="0"/>
    </comp>
    <comp name="--.HNN">
      <acc value="0.4546758255" flag="0"/>
      <vel value="0.2224325543" flag="0"/>
      <psa03 value="1.1906229449" flag="0"/>
      <psa10 value="0.1196972422" flag="0"/>
      <psa30 value="0.0128117499" flag="0"/>
    </comp>
  </station>
  <station code="GONE" name="GONE" netid="KO" insttype="CMG-5T" commtype="DIG" lat="40.0466" lon="27.686">
    <comp name="--.HNE">
      <acc value="0.1225484750" flag="0"/>
      <vel value="0.0853934372" flag="0"/>
      <psa03 value="0.2349799277" flag="0"/>
      <psa10 value="0.1442350975" flag="0"/>
      <psa30 value="0.0074022180" flag="0"/>
    </comp>
    <comp name="--.HNN">
      <acc value="0.1545925899" flag="0"/>
      <vel value="0.1483005425" flag="0"/>
      <psa03 value="0.4259182811" flag="0"/>
      <psa10 value="0.1732132111" flag="0"/>
      <psa30 value="0.0094350609" flag="0"/>
    </comp>
    <comp name="--.HNZ">
      <acc value="0.0775608492" flag="0"/>
      <vel value="0.0383086751" flag="0"/>
      <psa03 value="0.1522424474" flag="0"/>
      <psa10 value="0.0463476795" flag="0"/>
      <psa30 value="0.0066844511" flag="0"/>
    </comp>
  </station>
  <station code="GORD" name="GORD" netid="KO" insttype="CMG-5T" commtype="DIG" lat="38.9088" lon="28.1769">
    <comp name="--.HNZ">
      <acc value="0.1656435680" flag="0"/>
      <vel value="0.0944397619" flag="0"/>
      <psa03 value="0.2703816922" flag="0"/>
      <psa10 value="0.0758636754" flag="0"/>
      <psa30 value="0.0240371710" flag="0"/>
    </comp>
    <comp name="--.HNN">
      <acc value="0.2117033279" flag="0"/>
      <vel value="0.1378780656" flag="0"/>
      <psa03 value="0.3377843382" flag="0"/>
      <psa10 value="0.1769965034" flag="0"/>
      <psa30 value="0.0194938591" flag="0"/>
    </comp>
    <comp name="--.HNE">
      <acc value="0.1922823014" flag="0"/>
      <vel value="0.1143315069" flag="0"/>
      <psa03 value="0.2581143796" flag="0"/>
      <psa10 value="0.1399028823" flag="0"/>
      <psa30 value="0.0172171568" flag="0"/>
    </comp>
  </station>
  <station code="KCTX" name="KCTX" netid="KO" insttype="CMG-3ESP" commtype="DIG" lat="40.2626" lon="28.3353">
    <comp name="--.HHE">
      <acc value="0.1188867198" flag="0"/>
      <vel value="0.0864123356" flag="0"/>
      <psa03 value="0.1506804012" flag="0"/>
      <psa10 value="0.1597751434" flag="0"/>
      <psa30 value="0.0098614762" flag="0"/>
    </comp>
    <comp name="--.HHZ">
      <acc value="0.0913607385" flag="0"/>
      <vel value="0.0386086551" flag="0"/>
      <psa03 value="0.1182642341" flag="0"/>
      <psa10 value="0.0636327965" flag="0"/>
      <psa30 value="0.0063489890" flag="0"/>
    </comp>
    <comp name="--.HHN">
      <acc value="0.1329944825" flag="0"/>
      <vel value="0.0699960814" flag="0"/>
      <psa03 value="0.2465825686" flag="0"/>
      <psa10 value="0.0908945850" flag="0"/>
      <psa30 value="0.0054875443" flag="0"/>
    </comp>
  </station>
  <station code="MDNY" name="MDNY" netid="KO" insttype="CMG-5T" commtype="DIG" lat="40.3709" lon="28.8846">
    <comp name="--.HNN">
      <acc value="0.3215729027" flag="0"/>
      <vel value="0.1447025499" flag="0"/>
      <psa03 value="1.1558340282" flag="0"/>
      <psa10 value="0.0867526435" flag="0"/>
      <psa30 value="0.0078138331" flag="0"/>
    </comp>
    <comp name="--.HNZ">
      <acc value="0.0969047939" flag="0"/>
      <vel value="0.0360068113" flag="0"/>
      <psa03 value="0.1316504216" flag="0"/>
      <psa10 value="0.0405551113" flag="0"/>
      <psa30 value="0.0062923034" flag="0"/>
    </comp>
    <comp name="--.HNE">
      <acc value="0.3274302779" flag="0"/>
      <vel value="0.1021947489" flag="0"/>
      <psa03 value="0.6804209385" flag="0"/>
      <psa10 value="0.0626565098" flag="0"/>
      <psa30 value="0.0063718222" flag="0"/>
    </comp>
  </station>
  <station code="ORLT" name="ORLT" netid="KO" insttype="CMG-5T" commtype="DIG" lat="40.0452" lon="28.8914">
    <comp name="--.HNE">
      <acc value="0.2364457911" flag="0"/>
      <vel value="0.1066575163" flag="0"/>
      <psa03 value="0.4160378925" flag="0"/>
      <psa10 value="0.1358167831" flag="0"/>
      <psa30 value="0.0077602803" flag="0"/>
    </comp>
    <comp name="--.HNZ">
      <acc value="0.0699972990" flag="0"/>
      <vel value="0.0718564112" flag="0"/>
      <psa03 value="0.1378850139" flag="0"/>
      <psa10 value="0.1113631989" flag="0"/>
      <psa30 value="0.0095132277" flag="0"/>
    </comp>
    <comp name="--.HNN">
      <acc value="0.2088235160" flag="0"/>
      <vel value="0.1140098667" flag="0"/>
      <psa03 value="0.8269772318" flag="0"/>
      <psa10 value="0.1606682801" flag="0"/>
      <psa30 value="0.0101883459" flag="0"/>
    </comp>
  </station>
  <station code="SHAP" name="SHAP" netid="KO" insttype="CMG-5T" commtype="DIG" lat="39.0231" lon="29.222">
    <comp name="--.HNE">
      <acc value="0.3420397075" flag="0"/>
      <vel value="0.0839080545" flag="0"/>
      <psa03 value="0.4862745685" flag="0"/>
      <psa10 value="0.0366849947" flag="0"/>
      <psa30 value="0.0026638049" flag="0"/>
    </comp>
    <comp name="--.HNN">
      <acc value="0.3214567175" flag="0"/>
      <vel value="0.0942071601" flag="0"/>
      <psa03 value="0.3246345883" flag="0"/>
      <psa10 value="0.0590317142" flag="0"/>
      <psa30 value="0.0050254093" flag="0"/>
    </comp>
    <comp name="--.HNZ">
      <acc value="0.1740852684" flag="0"/>
      <vel value="0.0450197915" flag="0"/>
      <psa03 value="0.1654279364" flag="0"/>
      <psa10 value="0.0302517962" flag="0"/>
      <psa30 value="0.0027205945" flag="0"/>
    </comp>
  </station>
  <station code="SMAA" name="SMAA" netid="KO" insttype="CMG-5T" commtype="DIG" lat="39.1005" lon="28.9805">
    <comp name="--.HNN">
      <acc value="0.3516655403" flag="0"/>
      <vel value="0.2121964207" flag="0"/>
      <psa03 value="0.5870750793" flag="0"/>
      <psa10 value="0.2091941899" flag="0"/>
      <psa30 value="0.0229279530" flag="0"/>
    </comp>
    <comp name="--.HNZ">
      <acc value="0.1224347273" flag="0"/>
      <vel value="0.0880407837" flag="0"/>
      <psa03 value="0.1758654640" flag="0"/>
      <psa10 value="0.1543081937" flag="0"/>
      <psa30 value="0.0074551573" flag="0"/>
    </comp>
    <comp name="--.HNE">
      <acc value="0.3948675185" flag="0"/>
      <vel value="0.2357416978" flag="0"/>
      <psa03 value="0.9020815334" flag="0"/>
      <psa10 value="0.3435547300" flag="0"/>
      <psa30 value="0.0208144962" flag="0"/>
    </comp>
  </station>
  <station code="SOMA" name="SOMA" netid="KO" insttype="CMG-5T" commtype="DIG" lat="39.1564" lon="27.5341">
    <comp name="--.HNN">
      <acc value="0.3803620771" flag="0"/>
      <vel value="0.1518914369" flag="0"/>
      <psa03 value="0.5443952236" flag="0"/>
      <psa10 value="0.1884984860" flag="0"/>
      <psa30 value="0.0120840766" flag="0"/>
    </comp>
    <comp name="--.HNE">
      <acc value="0.3246505195" flag="0"/>
      <vel value="0.1509598235" flag="0"/>
      <psa03 value="0.5148400575" flag="0"/>
      <psa10 value="0.0872672776" flag="0"/>
      <psa30 value="0.0092614851" flag="0"/>
    </comp>
    <comp name="--.HNZ">
      <acc value="0.3189831251" flag="0"/>
      <vel value="0.0924966862" flag="0"/>
      <psa03 value="0.2327841743" flag="0"/>
      <psa10 value="0.0829789376" flag="0"/>
      <psa30 value="0.0099707003" flag="0"/>
    </comp>
  </station>
  <station code="SUSR" name="SUSR" netid="KO" insttype="CMG-5T" commtype="DIG" lat="39.9627" lon="28.0835">
    <comp name="--.HNE">
      <acc value="0.1520556576" flag="0"/>
      <vel value="0.0487108449" flag="0"/>
      <psa03 value="0.2195444087" flag="0"/>
      <psa10 value="0.0469835911" flag="0"/>
      <psa30 value="0.0030619801" flag="0"/>
    </comp>
    <comp name="--.HNZ">
      <acc value="0.1789869753" flag="0"/>
      <vel value="0.0416813569" flag="0"/>
      <psa03 value="0.1583689899" flag="0"/>
      <psa10 value="0.0389038931" flag="0"/>
      <psa30 value="0.0042193193" flag="0"/>
    </comp>
    <comp name="--.HNN">
      <acc value="0.1791121375" flag="0"/>
      <vel value="0.0495510808" flag="0"/>
      <psa03 value="0.2040394244" flag="0"/>
      <psa10 value="0.0359610417" flag="0"/>
      <psa30 value="0.0031421181" flag="0"/>
    </comp>
  </station>
  <station code="TVSB" name="TVSB" netid="KO" insttype="CMG-3T" commtype="DIG" lat="39.4497" lon="29.4615">
    <comp name="--.HHE">
      <acc value="0.1810916550" flag="0"/>
      <vel value="0.1088258533" flag="0"/>
      <psa03 value="0.2517872677" flag="0"/>
      <psa10 value="0.0817618704" flag="0"/>
      <psa30 value="0.0059036409" flag="0"/>
    </comp>
    <comp name="--.HHN">
      <acc value="0.1827102095" flag="0"/>
      <vel value="0.0692173541" flag="0"/>
      <psa03 value="0.2691382550" flag="0"/>
      <psa10 value="0.0292723088" flag="0"/>
      <psa30 value="0.0042337547" flag="0"/>
    </comp>
    <comp name="--.HHZ">
      <acc value="0.0662367731" flag="0"/>
      <vel value="0.0422494324" flag="0"/>
      <psa03 value="0.1230188091" flag="0"/>
      <psa10 value="0.0322091356" flag="0"/>
      <psa30 value="0.0033326799" flag="0"/>
    </comp>
  </station>
  <station code="YAYO" name="YAYO" netid="KO" insttype="CMG-6T" commtype="DIG" lat="39.6113" lon="27.0726">
    <comp name="--.HHZ">
      <acc value="0.0743060158" flag="0"/>
      <vel value="0.0410104651" flag="0"/>
      <psa03 value="0.1932025475" flag="0"/>
      <psa10 value="0.0368312654" flag="0"/>
      <psa30 value="0.0030540651" flag="0"/>
    </comp>
    <comp name="--.HHE">
      <acc value="0.0963882948" flag="0"/>
      <vel value="0.0880462084" flag="0"/>
      <psa03 value="0.3232678809" flag="0"/>
      <psa10 value="0.1097602084" flag="0"/>
      <psa30 value="0.0062861777" flag="0"/>
    </comp>
    <comp name="--.HHN">
      <acc value="0.1025572267" flag="0"/>
      <vel value="0.0546754760" flag="0"/>
      <psa03 value="0.3544895457" flag="0"/>
      <psa10 value="0.0449103785" flag="0"/>
      <psa30 value="0.0034154969" flag="0"/>
    </comp>
  </station>
  <station code="YENI" name="YENI" netid="KO" insttype="CMG-5T" commtype="DIG" lat="39.9364" lon="27.2422">
    <comp name="--.HNE">
      <acc value="0.1606443421" flag="0"/>
      <vel value="0.1079605411" flag="0"/>
      <psa03 value="0.3040184354" flag="0"/>
      <psa10 value="0.1406483746" flag="0"/>
      <psa30 value="0.0077279645" flag="0"/>
    </comp>
    <comp name="--.HNN">
      <acc value="0.1965771930" flag="0"/>
      <vel value="0.1214860051" flag="0"/>
      <psa03 value="0.4655169970" flag="0"/>
      <psa10 value="0.1320166916" flag="0"/>
      <psa30 value="0.0070982359" flag="0"/>
    </comp>
    <comp name="--.HNZ">
      <acc value="0.0505157730" flag="0"/>
      <vel value="0.0313769490" flag="0"/>
      <psa03 value="0.1190767274" flag="0"/>
      <psa10 value="0.0402229195" flag="0"/>
      <psa30 value="0.0024852493" flag="0"/>
    </comp>
  </station>
</stationlist>
