<?xml version="1.0" encoding="UTF-8" standalone="yes"?>
<!DOCTYPE earthquake SYSTEM "stationlist.dtd">
<stationlist created="" xmlns="ch.ethz.sed.shakemap.usgs.xml">
  <station code="MYT1" name="MYT1" netid="HI" insttype="CMG-5TD,ACCELEROMETER,GURALP" commtype="DIG" lat="39.085" lon="26.5694">
    <comp name="--.HNE">
      <acc value="0.1162008332" flag="0"/>
      <vel value="0.1066065060" flag="0"/>
      <psa03 value="0.2892584650" flag="0"/>
      <psa10 value="0.2239181809" flag="0"/>
      <psa30 value="0.0142202678" flag="0"/>
    </comp>
    <comp name="--.HNN">
      <acc value="0.1214871179" flag="0"/>
      <vel value="0.1205080816" flag="0"/>
      <psa03 value="0.1927124525" flag="0"/>
      <psa10 value="0.2399794077" flag="0"/>
      <psa30 value="0.0105491917" flag="0"/>
    </comp>
    <comp name="--.HNZ">
      <acc value="0.0547029393" flag="0"/>
      <vel value="0.0470137133" flag="0"/>
      <psa03 value="0.1335755404" flag="0"/>
      <psa10 value="0.1054795090" flag="0"/>
      <psa30 value="0.0057402292" flag="0"/>
    </comp>
  </station>
  <station code="AKS" name="AKS" netid="KO" insttype="CMG-5T" commtype="DIG" lat="38.8785" lon="27.8129">
    <comp name="--.HNZ">
      <acc value="0.2526555803" flag="0"/>
      <vel value="0.0549409699" flag="0"/>
      <psa03 value="0.3019632000" flag="0"/>
      <psa10 value="0.0272146064" flag="0"/>
      <psa30 value="0.0086735698" flag="0"/>
    </comp>
    <comp name="--.HNN">
      <acc value="0.4337823981" flag="0"/>
      <vel value="0.1159039325" flag="0"/>
      <psa03 value="0.9819635924" flag="0"/>
      <psa10 value="0.0838814050" flag="0"/>
      <psa30 value="0.0060312618" flag="0"/>
    </comp>
    <comp name="--.HNE">
      <acc value="0.4235035601" flag="0"/>
      <vel value="0.1625740612" flag="0"/>
      <psa03 value="0.8215363269" flag="0"/>
      <psa10 value="0.0511450213" flag="0"/>
      <psa30 value="0.0102635080" flag="0"/>
    </comp>
  </station>
  <station code="AYVL" name="AYVL" netid="KO" insttype="CMG-6T" commtype="DIG" lat="39.2907" lon="26.69">
    <comp name="--.HHN">
      <acc value="0.2214848666" flag="0"/>
      <vel value="0.1036401665" flag="0"/>
      <psa03 value="0.6079673738" flag="0"/>
      <psa10 value="0.0822353572" flag="0"/>
      <psa30 value="0.0040633332" flag="0"/>
    </comp>
    <comp name="--.HHZ">
      <acc value="0.0921489156" flag="0"/>
      <vel value="0.0322844563" flag="0"/>
      <psa03 value="0.2409623975" flag="0"/>
      <psa10 value="0.0332811329" flag="0"/>
      <psa30 value="0.0014383721" flag="0"/>
    </comp>
    <comp name="--.HHE">
      <acc value="0.2535318982" flag="0"/>
      <vel value="0.1243781904" flag="0"/>
      <psa03 value="0.9560745442" flag="0"/>
      <psa10 value="0.0657569424" flag="0"/>
      <psa30 value="0.0034143338" flag="0"/>
    </comp>
  </station>
  <station code="BALB" name="BALB" netid="KO" insttype="CMG-5T" commtype="DIG" lat="39.6507" lon="27.8642">
    <comp name="--.HNE">
      <acc value="0.2956460569" flag="0"/>
      <vel value="0.1649899498" flag="0"/>
      <psa03 value="0.7389406282" flag="0"/>
      <psa10 value="0.1730127445" flag="0"/>
      <psa30 value="0.0110850644" flag="0"/>
    </comp>
    <comp name="--.HNN">
      <acc value="0.3174448839" flag="0"/>
      <vel value="0.1248298791" flag="0"/>
      <psa03 value="0.6736264494" flag="0"/>
      <psa10 value="0.1250395694" flag="0"/>
      <psa30 value="0.0100921464" flag="0"/>
    </comp>
    <comp name="--.HNZ">
      <acc value="0.2125879441" flag="0"/>
      <vel value="0.1161318964" flag="0"/>
      <psa03 value="0.4388496605" flag="0"/>
      <psa10 value="0.0907980919" flag="0"/>
      <psa30 value="0.0068103161" flag="0"/>
    </comp>
  </station>
  <station code="BIGA" name="BIGA" netid="KO" insttype="CMG-5T" commtype="DIG" lat="40.2813" lon="27.1505">
    <comp name="--.HNN">
      <acc value="0.1191093132" flag="0"/>
      <vel value="0.0684483532" flag="0"/>
      <psa03 value="0.4080162648" flag="0"/>
      <psa10 value="0.0805434390" flag="0"/>
      <psa30 value="0.0037071787" flag="0"/>
    </comp>
    <comp name="--.HNE">
      <acc value="0.0915659633" flag="0"/>
      <vel value="0.0583200370" flag="0"/>
      <psa03 value="0.2083080009" flag="0"/>
      <psa10 value="0.0700950565" flag="0"/>
      <psa30 value="0.0039810027" flag="0"/>
    </comp>
    <comp name="--.HNZ">
      <acc value="0.0426628920" flag="0"/>
      <vel value="0.0212721890" flag="0"/>
      <psa03 value="0.0871424040" flag="0"/>
      <psa10 value="0.0330289680" flag="0"/>
      <psa30 value="0.0032534101" flag="0"/>
    </comp>
  </station>
  <station code="BMYO" name="BMYO" netid="KO" insttype="CMG-5T" commtype="DIG" lat="39.8098" lon="26.6009">
    <comp name="--.HNZ">
      <acc value="0.0450917843" flag="0"/>
      <vel value="0.0400121806" flag="0"/>
      <psa03 value="0.1181722412" flag="0"/>
      <psa10 value="0.0844795789" flag="0"/>
      <psa30 value="0.0056130537" flag="0"/>
    </comp>
    <comp name="--.HNN">
      <acc value="0.1128407025" flag="0"/>
      <vel value="0.0968064117" flag="0"/>
      <psa03 value="0.3435418874" flag="0"/>
      <psa10 value="0.0919239537" flag="0"/>
      <psa30 value="0.0140142207" flag="0"/>
    </comp>
    <comp name="--.HNE">
      <acc value="0.1509195661" flag="0"/>
      <vel value="0.1131872407" flag="0"/>
      <psa03 value="0.3644150678" flag="0"/>
      <psa10 value="0.1138673724" flag="0"/>
      <psa30 value="0.0115958919" flag="0"/>
    </comp>
  </station>
  <station code="CANM" name="CANM" netid="KO" insttype="CMG-5T" commtype="DIG" lat="40.0113" lon="27.0529">
    <comp name="--.HNZ">
      <acc value="0.0650653876" flag="0"/>
      <vel value="0.0389162611" flag="0"/>
      <psa03 value="0.1675332854" flag="0"/>
      <psa10 value="0.0424068360" flag="0"/>
      <psa30 value="0.0042518844" flag="0"/>
    </comp>
    <comp name="--.HNE">
      <acc value="0.0626020874" flag="0"/>
      <vel value="0.0540475916" flag="0"/>
      <psa03 value="0.1027550787" flag="0"/>
      <psa10 value="0.0725735986" flag="0"/>
      <psa30 value="0.0052541042" flag="0"/>
    </comp>
    <comp name="--.HNN">
      <acc value="0.0739677975" flag="0"/>
      <vel value="0.0642542201" flag="0"/>
      <psa03 value="0.1637536818" flag="0"/>
      <psa10 value="0.0898612335" flag="0"/>
      <psa30 value="0.0054906142" flag="0"/>
    </comp>
  </station>
  <station code="DKL" name="DKL" netid="KO" insttype="CMG-3ESPC" commtype="DIG" lat="39.0713" lon="26.9053">
    <comp name="--.HHZ">
      <acc value="0.0369538629" flag="0"/>
      <vel value="0.0231114587" flag="0"/>
      <psa03 value="0.1337766083" flag="0"/>
      <psa10 value="0.0353339679" flag="0"/>
      <psa30 value="0.0059230288" flag="0"/>
    </comp>
  </station>
  <station code="DST" name="DST" netid="KO" insttype="CMG-5T" commtype="DIG" lat="39.6041" lon="28.6267">
    <comp name="--.HNN">
      <acc value="0.2536197069" flag="0"/>
      <vel value="0.0613566329" flag="0"/>
      <psa03 value="0.2402165760" flag="0"/>
      <psa10 value="0.0386950471" flag="0"/>
      <psa30 value="0.0096747954" flag="0"/>
    </comp>
    <comp name="--.HNZ">
      <acc value="0.1815907764" flag="0"/>
      <vel value="0.0490375573" flag="0"/>
      <psa03 value="0.2468574983" flag="0"/>
      <psa10 value="0.0367097524" flag="0"/>
      <psa30 value="0.0104589824" flag="0"/>
    </comp>
  </station>
  <station code="EDC" name="EDC" netid="KO" insttype="CMG-3T" commtype="DIG" lat="40.3465" lon="27.8618">
    <comp name="--.HHE">
      <acc value="0.0352627583" flag="0"/>
      <vel value="0.0107002500" flag="0"/>
      <psa03 value="0.0486447353" flag="0"/>
      <psa10 value="0.0074422056" flag="0"/>
      <psa30 value="0.0005547229" flag="0"/>
    </comp>
    <comp name="--.HHN">
      <acc value="0.1643541570" flag="0"/>
      <vel value="0.0735082469" flag="0"/>
      <psa03 value="0.2786550786" flag="0"/>
      <psa10 value="0.1020173423" flag="0"/>
      <psa30 value="0.0068436513" flag="0"/>
    </comp>
    <comp name="--.HHZ">
      <acc value="0.0515895625" flag="0"/>
      <vel value="0.0302814477" flag="0"/>
      <psa03 value="0.0850588373" flag="0"/>
      <psa10 value="0.0497401727" flag="0"/>
      <psa30 value="0.0039921018" flag="0"/>
    </comp>
  </station>
  <station code="GOMA" name="GOMA" netid="KO" insttype="CMG-5T" commtype="DIG" lat="38.7077" lon="27.9175">
    <comp name="--.HNE">
      <acc value="0.3716393298" flag="0"/>
      <vel value="0.1789154620" flag="0"/>
      <psa03 value="1.4244075846" flag="0"/>
      <psa10 value="0.0650991759" flag="0"/>
      <psa30 value="0.0067044090" flag="0"/>
    </comp>
    <comp name="--.HNN">
      <acc value="0.4546758210" flag="0"/>
      <vel value="0.2224325542" flag="0"/>
      <psa03 value="1.1906229449" flag="0"/>
      <psa10 value="0.1196972478" flag="0"/>
      <psa30 value="0.0128105215" flag="0"/>
    </comp>
  </station>
  <station code="GONE" name="GONE" netid="KO" insttype="CMG-5T" commtype="DIG" lat="40.0466" lon="27.686">
    <comp name="--.HNZ">
      <acc value="0.0775608489" flag="0"/>
      <vel value="0.0383086716" flag="0"/>
      <psa03 value="0.1522424474" flag="0"/>
      <psa10 value="0.0463476795" flag="0"/>
      <psa30 value="0.0066846755" flag="0"/>
    </comp>
    <comp name="--.HNE">
      <acc value="0.1225484742" flag="0"/>
      <vel value="0.0853934361" flag="0"/>
      <psa03 value="0.2349799277" flag="0"/>
      <psa10 value="0.1442350968" flag="0"/>
      <psa30 value="0.0074024238" flag="0"/>
    </comp>
    <comp name="--.HNN">
      <acc value="0.1545925902" flag="0"/>
      <vel value="0.1483005439" flag="0"/>
      <psa03 value="0.4259182811" flag="0"/>
      <psa10 value="0.1732132119" flag="0"/>
      <psa30 value="0.0094351116" flag="0"/>
    </comp>
  </station>
  <station code="GORD" name="GORD" netid="KO" insttype="CMG-5T" commtype="DIG" lat="38.9088" lon="28.1769">
    <comp name="--.HNZ">
      <acc value="0.1656435681" flag="0"/>
      <vel value="0.0944397627" flag="0"/>
      <psa03 value="0.2703816922" flag="0"/>
      <psa10 value="0.0758636765" flag="0"/>
      <psa30 value="0.0240369724" flag="0"/>
    </comp>
    <comp name="--.HNE">
      <acc value="0.1922823007" flag="0"/>
      <vel value="0.1143315072" flag="0"/>
      <psa03 value="0.2581143796" flag="0"/>
      <psa10 value="0.1399028818" flag="0"/>
      <psa30 value="0.0172170470" flag="0"/>
    </comp>
    <comp name="--.HNN">
      <acc value="0.2117033279" flag="0"/>
      <vel value="0.1378780655" flag="0"/>
      <psa03 value="0.3377843382" flag="0"/>
      <psa10 value="0.1769964988" flag="0"/>
      <psa30 value="0.0194938987" flag="0"/>
    </comp>
  </station>
  <station code="KCTX" name="KCTX" netid="KO" insttype="CMG-3ESP" commtype="DIG" lat="40.2626" lon="28.3353">
    <comp name="--.HHE">
      <acc value="0.1188867197" flag="0"/>
      <vel value="0.0864123365" flag="0"/>
      <psa03 value="0.1506804012" flag="0"/>
      <psa10 value="0.1597751432" flag="0"/>
      <psa30 value="0.0098615118" flag="0"/>
    </comp>
    <comp name="--.HHZ">
      <acc value="0.0913607383" flag="0"/>
      <vel value="0.0386086535" flag="0"/>
      <psa03 value="0.1182642341" flag="0"/>
      <psa10 value="0.0636327966" flag="0"/>
      <psa30 value="0.0063489893" flag="0"/>
    </comp>
    <comp name="--.HHN">
      <acc value="0.1329944829" flag="0"/>
      <vel value="0.0699960809" flag="0"/>
      <psa03 value="0.2465825686" flag="0"/>
      <psa10 value="0.0908945849" flag="0"/>
      <psa30 value="0.0054875314" flag="0"/>
    </comp>
  </station>
  <station code="MDNY" name="MDNY" netid="KO" insttype="CMG-5T" commtype="DIG" lat="40.3709" lon="28.8846">
    <comp name="--.HNE">
      <acc value="0.3274302778" flag="0"/>
      <vel value="0.1021947511" flag="0"/>
      <psa03 value="0.6804209385" flag="0"/>
      <psa10 value="0.0626565097" flag="0"/>
      <psa30 value="0.0063717828" flag="0"/>
    </comp>
    <comp name="--.HNZ">
      <acc value="0.0969047928" flag="0"/>
      <vel value="0.0360068120" flag="0"/>
      <psa03 value="0.1316504216" flag="0"/>
      <psa10 value="0.0405551113" flag="0"/>
      <psa30 value="0.0062925046" flag="0"/>
    </comp>
    <comp name="--.HNN">
      <acc value="0.3215729013" flag="0"/>
      <vel value="0.1447025489" flag="0"/>
      <psa03 value="1.1558340282" flag="0"/>
      <psa10 value="0.0867526435" flag="0"/>
      <psa30 value="0.0078139038" flag="0"/>
    </comp>
  </station>
  <station code="ORLT" name="ORLT" netid="KO" insttype="CMG-5T" commtype="DIG" lat="40.0452" lon="28.8914">
    <comp name="--.HNZ">
      <acc value="0.0699972976" flag="0"/>
      <vel value="0.0718564119" flag="0"/>
      <psa03 value="0.1378850139" flag="0"/>
      <psa10 value="0.1113631988" flag="0"/>
      <psa30 value="0.0095129471" flag="0"/>
    </comp>
    <comp name="--.HNN">
      <acc value="0.2088235151" flag="0"/>
      <vel value="0.1140098584" flag="0"/>
      <psa03 value="0.8269772318" flag="0"/>
      <psa10 value="0.1606682802" flag="0"/>
      <psa30 value="0.0101905061" flag="0"/>
    </comp>
    <comp name="--.HNE">
      <acc value="0.2364457937" flag="0"/>
      <vel value="0.1066575217" flag="0"/>
      <psa03 value="0.4160378925" flag="0"/>
      <psa10 value="0.1358167845" flag="0"/>
      <psa30 value="0.0077601298" flag="0"/>
    </comp>
  </station>
  <station code="SHAP" name="SHAP" netid="KO" insttype="CMG-5T" commtype="DIG" lat="39.0231" lon="29.222">
    <comp name="--.HNE">
      <acc value="0.3420397066" flag="0"/>
      <vel value="0.0839080552" flag="0"/>
      <psa03 value="0.4862745685" flag="0"/>
      <psa10 value="0.0366849956" flag="0"/>
      <psa30 value="0.0026637096" flag="0"/>
    </comp>
    <comp name="--.HNN">
      <acc value="0.3214567181" flag="0"/>
      <vel value="0.0942071610" flag="0"/>
      <psa03 value="0.3246345883" flag="0"/>
      <psa10 value="0.0590317137" flag="0"/>
      <psa30 value="0.0050252279" flag="0"/>
    </comp>
    <comp name="--.HNZ">
      <acc value="0.1740852692" flag="0"/>
      <vel value="0.0450197918" flag="0"/>
      <psa03 value="0.1654279364" flag="0"/>
      <psa10 value="0.0302517962" flag="0"/>
      <psa30 value="0.0027194858" flag="0"/>
    </comp>
  </station>
  <station code="SMAA" name="SMAA" netid="KO" insttype="CMG-5T" commtype="DIG" lat="39.1005" lon="28.9805">
    <comp name="--.HNE">
      <acc value="0.3948675279" flag="0"/>
      <vel value="0.2357416818" flag="0"/>
      <psa03 value="0.9020815334" flag="0"/>
      <psa10 value="0.3435547140" flag="0"/>
      <psa30 value="0.0208137131" flag="0"/>
    </comp>
    <comp name="--.HNZ">
      <acc value="0.1224347355" flag="0"/>
      <vel value="0.0880407723" flag="0"/>
      <psa03 value="0.1758654640" flag="0"/>
      <psa10 value="0.1543081919" flag="0"/>
      <psa30 value="0.0074525253" flag="0"/>
    </comp>
    <comp name="--.HNN">
      <acc value="0.3516655332" flag="0"/>
      <vel value="0.2121964342" flag="0"/>
      <psa03 value="0.5870750793" flag="0"/>
      <psa10 value="0.2091941907" flag="0"/>
      <psa30 value="0.0229260163" flag="0"/>
    </comp>
  </station>
  <station code="SOMA" name="SOMA" netid="KO" insttype="CMG-5T" commtype="DIG" lat="39.1564" lon="27.5341">
    <comp name="--.HNE">
      <acc value="0.3246505211" flag="0"/>
      <vel value="0.1509598218" flag="0"/>
      <psa03 value="0.5148400575" flag="0"/>
      <psa10 value="0.0872672810" flag="0"/>
      <psa30 value="0.0092615954" flag="0"/>
    </comp>
    <comp name="--.HNZ">
      <acc value="0.3189831236" flag="0"/>
      <vel value="0.0924966830" flag="0"/>
      <psa03 value="0.2327841743" flag="0"/>
      <psa10 value="0.0829789396" flag="0"/>
      <psa30 value="0.0099711378" flag="0"/>
    </comp>
    <comp name="--.HNN">
      <acc value="0.3803620744" flag="0"/>
      <vel value="0.1518914304" flag="0"/>
      <psa03 value="0.5443952236" flag="0"/>
      <psa10 value="0.1884984838" flag="0"/>
      <psa30 value="0.0120823728" flag="0"/>
    </comp>
  </station>
  <station code="SUSR" name="SUSR" netid="KO" insttype="CMG-5T" commtype="DIG" lat="39.9627" lon="28.0835">
    <comp name="--.HNE">
      <acc value="0.1520556581" flag="0"/>
      <vel value="0.0487108442" flag="0"/>
      <psa03 value="0.2195444087" flag="0"/>
      <psa10 value="0.0469835910" flag="0"/>
      <psa30 value="0.0030619064" flag="0"/>
    </comp>
    <comp name="--.HNZ">
      <acc value="0.1789869745" flag="0"/>
      <vel value="0.0416813602" flag="0"/>
      <psa03 value="0.1583689899" flag="0"/>
      <psa10 value="0.0389038930" flag="0"/>
      <psa30 value="0.0042191290" flag="0"/>
    </comp>
    <comp name="--.HNN">
      <acc value="0.1791121362" flag="0"/>
      <vel value="0.0495510807" flag="0"/>
      <psa03 value="0.2040394244" flag="0"/>
      <psa10 value="0.0359610420" flag="0"/>
      <psa30 value="0.0031420535" flag="0"/>
    </comp>
  </station>
  <station code="TVSB" name="TVSB" netid="KO" insttype="CMG-3T" commtype="DIG" lat="39.4497" lon="29.4615">
    <comp name="--.HHE">
      <acc value="0.1810916550" flag="0"/>
      <vel value="0.1088258532" flag="0"/>
      <psa03 value="0.2517872677" flag="0"/>
      <psa10 value="0.0817618702" flag="0"/>
      <psa30 value="0.0059036520" flag="0"/>
    </comp>
    <comp name="--.HHZ">
      <acc value="0.0662367731" flag="0"/>
      <vel value="0.0422494326" flag="0"/>
      <psa03 value="0.1230188091" flag="0"/>
      <psa10 value="0.0322091357" flag="0"/>
      <psa30 value="0.0033326804" flag="0"/>
    </comp>
    <comp name="--.HHN">
      <acc value="0.1827102096" flag="0"/>
      <vel value="0.0692173541" flag="0"/>
      <psa03 value="0.2691382550" flag="0"/>
      <psa10 value="0.0292723090" flag="0"/>
      <psa30 value="0.0042337501" flag="0"/>
    </comp>
  </station>
  <station code="YAYO" name="YAYO" netid="KO" insttype="CMG-6T" commtype="DIG" lat="39.6113" lon="27.0726">
    <comp name="--.HHZ">
      <acc value="0.0743060160" flag="0"/>
      <vel value="0.0410104670" flag="0"/>
      <psa03 value="0.1932025475" flag="0"/>
      <psa10 value="0.0368312655" flag="0"/>
      <psa30 value="0.0030540375" flag="0"/>
    </comp>
    <comp name="--.HHE">
      <acc value="0.0963882946" flag="0"/>
      <vel value="0.0880462083" flag="0"/>
      <psa03 value="0.3232678809" flag="0"/>
      <psa10 value="0.1097602084" flag="0"/>
      <psa30 value="0.0062861970" flag="0"/>
    </comp>
    <comp name="--.HHN">
      <acc value="0.1025572269" flag="0"/>
      <vel value="0.0546754737" flag="0"/>
      <psa03 value="0.3544895457" flag="0"/>
      <psa10 value="0.0449103785" flag="0"/>
      <psa30 value="0.0034154992" flag="0"/>
    </comp>
  </station>
  <station code="YENI" name="YENI" netid="KO" insttype="CMG-5T" commtype="DIG" lat="39.9364" lon="27.2422">
    <comp name="--.HNZ">
      <acc value="0.0505157728" flag="0"/>
      <vel value="0.0313769575" flag="0"/>
      <psa03 value="0.1190767274" flag="0"/>
      <psa10 value="0.0402229192" flag="0"/>
      <psa30 value="0.0024841026" flag="0"/>
    </comp>
    <comp name="--.HNN">
      <acc value="0.1965771896" flag="0"/>
      <vel value="0.1214860097" flag="0"/>
      <psa03 value="0.4655169970" flag="0"/>
      <psa10 value="0.1320166900" flag="0"/>
      <psa30 value="0.0070994562" flag="0"/>
    </comp>
    <comp name="--.HNE">
      <acc value="0.1606443436" flag="0"/>
      <vel value="0.1079605402" flag="0"/>
      <psa03 value="0.3040184354" flag="0"/>
      <psa10 value="0.1406483734" flag="0"/>
      <psa30 value="0.0077272755" flag="0"/>
    </comp>
  </station>
</stationlist>
