<stationlist created="1756090954">
	<station code="KRL1" name="KRL1" netid="HI" source="ITSAK Strong Motion Network" insttype="" lat="37.7951" lon="26.7065">
		<comp name=".HNE" depth="0.0">
			<acc value="0.033461578396422" flag="0"/>
			<vel value="0.0222011879803" flag="0"/>
			<psa03 value="0.10107627914088" flag="0"/>
			<psa10 value="0.0175324751904319" flag="0"/>
			<psa30 value="0.00368457741850438" flag="0"/>
		</comp>
		<comp name=".HNN" depth="0.0">
			<acc value="0.02814072374394" flag="0"/>
			<vel value="0.0240120111192" flag="0"/>
			<psa03 value="0.0968225806876521" flag="0"/>
			<psa10 value="0.0420469829064317" flag="0"/>
			<psa30 value="0.00646322899054081" flag="0"/>
		</comp>
		<comp name=".HNZ" depth="0.0">
			<acc value="0.013921761015894" flag="0"/>
			<vel value="0.0168035702691" flag="0"/>
			<psa03 value="0.0434143733849848" flag="0"/>
			<psa10 value="0.0234975078445859" flag="0"/>
			<psa30 value="0.00319547105927324" flag="0"/>
		</comp>
	</station>
	<station code="MYT1" name="MYT1" netid="HI" source="ITSAK Strong Motion Network" insttype="" lat="39.085" lon="26.5694">
		<comp name=".HNE" depth="0.0">
			<acc value="0.1161633293349" flag="0"/>
			<vel value="0.108796293641" flag="0"/>
			<psa03 value="0.286858523802918" flag="0"/>
			<psa10 value="0.22426425640638" flag="0"/>
			<psa30 value="0.0156879342486541" flag="0"/>
		</comp>
		<comp name=".HNN" depth="0.0">
			<acc value="0.12122177021724" flag="0"/>
			<vel value="0.120942653582" flag="0"/>
			<psa03 value="0.19101990413138" flag="0"/>
			<psa10 value="0.239795130250654" flag="0"/>
			<psa30 value="0.0119859823458202" flag="0"/>
		</comp>
		<comp name=".HNZ" depth="0.0">
			<acc value="0.054335366709546" flag="0"/>
			<vel value="0.0481526842565" flag="0"/>
			<psa03 value="0.132051174825438" flag="0"/>
			<psa10 value="0.10596539218703" flag="0"/>
			<psa30 value="0.00617480405045366" flag="0"/>
		</comp>
	</station>
	<station code="PLM1" name="PLM1" netid="HI" source="ITSAK Strong Motion Network" insttype="" lat="38.9751" lon="26.3688">
		<comp name=".HNE" depth="0.0">
			<acc value="0.055391654919168" flag="0"/>
			<vel value="0.033358566985" flag="0"/>
			<psa03 value="0.163530958123198" flag="0"/>
			<psa10 value="0.0279878359317683" flag="0"/>
			<psa30 value="0.00228943270534558" flag="0"/>
		</comp>
		<comp name=".HNN" depth="0.0">
			<acc value="0.03671153414535" flag="0"/>
			<vel value="0.0188797485958" flag="0"/>
			<psa03 value="0.0779131353212235" flag="0"/>
			<psa10 value="0.0195493212965783" flag="0"/>
			<psa30 value="0.00496254041059219" flag="0"/>
		</comp>
		<comp name=".HNZ" depth="0.0">
			<acc value="0.021358649198508" flag="0"/>
			<vel value="0.0143589364782" flag="0"/>
			<psa03 value="0.0477565698883864" flag="0"/>
			<psa10 value="0.0277810284817783" flag="0"/>
			<psa30 value="0.0021723814096055" flag="0"/>
		</comp>
	</station>
	<station code="SGR1" name="SGR1" netid="HI" source="ITSAK Strong Motion Network" insttype="" lat="39.211392" lon="25.855221">
		<comp name=".HNE" depth="0.0">
			<acc value="0.041180570484054" flag="0"/>
			<vel value="0.0264470369421" flag="0"/>
			<psa03 value="0.0799614793472791" flag="0"/>
			<psa10 value="0.0319108226853734" flag="0"/>
			<psa30 value="0.00346348360545554" flag="0"/>
		</comp>
		<comp name=".HNN" depth="0.0">
			<acc value="0.04286293618716" flag="0"/>
			<vel value="0.0383663209886" flag="0"/>
			<psa03 value="0.102098273926099" flag="0"/>
			<psa10 value="0.0524735436146325" flag="0"/>
			<psa30 value="0.00586371385895006" flag="0"/>
		</comp>
		<comp name=".HNZ" depth="0.0">
			<acc value="0.026005094684544" flag="0"/>
			<vel value="0.0187563913517" flag="0"/>
			<psa03 value="0.0731749256046716" flag="0"/>
			<psa10 value="0.0120180601999969" flag="0"/>
			<psa30 value="0.00180706450082066" flag="0"/>
		</comp>
	</station>
	<station code="PRK" name="PRK" netid="HL" source="National Observatory of Athens Seismic Network" insttype="" lat="39.24565" lon="26.26499">
		<comp name=".HNE" depth="0.0">
			<acc value="0.068448450961236" flag="0"/>
			<vel value="0.0529720731911" flag="0"/>
			<psa03 value="0.157258240503125" flag="0"/>
			<psa10 value="0.0557921759577262" flag="0"/>
			<psa30 value="0.00407877936578079" flag="0"/>
		</comp>
		<comp name=".HNN" depth="0.0">
			<acc value="0.039821097842856" flag="0"/>
			<vel value="0.0281114809552" flag="0"/>
			<psa03 value="0.137147981214083" flag="0"/>
			<psa10 value="0.0557433627242147" flag="0"/>
			<psa30 value="0.00755072769867168" flag="0"/>
		</comp>
		<comp name=".HNZ" depth="0.0">
			<acc value="0.067175154158052" flag="0"/>
			<vel value="0.038087368818" flag="0"/>
			<psa03 value="0.144795279476677" flag="0"/>
			<psa10 value="0.0347024251153455" flag="0"/>
			<psa30 value="0.00301211203763995" flag="0"/>
		</comp>
	</station>
	<station code="SMG" name="SMG" netid="HL" source="National Observatory of Athens Seismic Network" insttype="" lat="37.70425" lon="26.83772">
		<comp name="00.HNE" depth="0.0">
			<acc value="0.027854791916724" flag="0"/>
			<vel value="0.0172177521738" flag="0"/>
			<psa03 value="0.117128311259151" flag="0"/>
			<psa10 value="0.0132928624619084" flag="0"/>
			<psa30 value="0.00262369443188132" flag="0"/>
		</comp>
		<comp name="00.HNN" depth="0.0">
			<acc value="0.029921846334606" flag="0"/>
			<vel value="0.0230070123824" flag="0"/>
			<psa03 value="0.110979497680194" flag="0"/>
			<psa10 value="0.0155651708036759" flag="0"/>
			<psa30 value="0.00477663851218211" flag="0"/>
		</comp>
		<comp name="00.HNZ" depth="0.0">
			<acc value="0.011641313368848" flag="0"/>
			<vel value="0.0117125581298" flag="0"/>
			<psa03 value="0.0384304182224168" flag="0"/>
			<psa10 value="0.010576738469523" flag="0"/>
			<psa30 value="0.00247923257032167" flag="0"/>
		</comp>
	</station>
	<station code="LES3" name="LES3" netid="HT" source="Aristotle University of Thessaloniki Seismological Network" insttype="" lat="39.303248" lon="26.180664">
		<comp name=".HNE" depth="0.0">
			<acc value="0.059525853209238" flag="0"/>
			<vel value="0.0319913362614" flag="0"/>
			<psa03 value="0.180976217952951" flag="0"/>
			<psa10 value="0.0238173084048073" flag="0"/>
			<psa30 value="0.00990269683838364" flag="0"/>
		</comp>
		<comp name=".HNN" depth="0.0">
			<acc value="0.063113846539944" flag="0"/>
			<vel value="0.0355847919902" flag="0"/>
			<psa03 value="0.157187256634387" flag="0"/>
			<psa10 value="0.0342110638150656" flag="0"/>
			<psa30 value="0.0102585470784" flag="0"/>
		</comp>
		<comp name=".HNZ" depth="0.0">
			<acc value="0.04987387477014" flag="0"/>
			<vel value="0.0350013883551" flag="0"/>
			<psa03 value="0.151603793007041" flag="0"/>
			<psa10 value="0.025530757537384" flag="0"/>
			<psa30 value="0.0159313653747714" flag="0"/>
		</comp>
	</station>
	<station code="AKS" name="AKS" netid="KO" source="Bogazici University Kandilli Observatory And Earthquake Research Institute (KOERI)" insttype="" lat="38.8785" lon="27.8129">
		<comp name=".HNE" depth="0.0">
			<acc value="0.40552367008038" flag="0"/>
			<vel value="0.173140096463" flag="0"/>
			<psa03 value="0.831071554413105" flag="0"/>
			<psa10 value="0.0519908303872165" flag="0"/>
			<psa30 value="0.0122771999709112" flag="0"/>
		</comp>
		<comp name=".HNN" depth="0.0">
			<acc value="0.42858977693436" flag="0"/>
			<vel value="0.128780370586" flag="0"/>
			<psa03 value="0.997848769248618" flag="0"/>
			<psa10 value="0.0834948336227945" flag="0"/>
			<psa30 value="0.00759603903363008" flag="0"/>
		</comp>
		<comp name=".HNZ" depth="0.0">
			<acc value="0.2554171083399" flag="0"/>
			<vel value="0.0559397024802" flag="0"/>
			<psa03 value="0.309344117529809" flag="0"/>
			<psa10 value="0.0261522412076265" flag="0"/>
			<psa30 value="0.0109835017697686" flag="0"/>
		</comp>
	</station>
	<station code="ALT" name="ALT" netid="KO" source="Bogazici University Kandilli Observatory And Earthquake Research Institute (KOERI)" insttype="" lat="39.0541" lon="30.1104">
		<comp name=".HNE" depth="0.0">
			<acc value="0.013593514074354" flag="0"/>
			<vel value="0.00848725910221" flag="0"/>
			<psa03 value="0.027283453228212" flag="0"/>
			<psa10 value="0.00571126318689192" flag="0"/>
			<psa30 value="0.00237624512291105" flag="0"/>
		</comp>
		<comp name=".HNN" depth="0.0">
			<acc value="0.016114207474848" flag="0"/>
			<vel value="0.00960972578271" flag="0"/>
			<psa03 value="0.0328712817277436" flag="0"/>
			<psa10 value="0.00797490329820545" flag="0"/>
			<psa30 value="0.00306395422193218" flag="0"/>
		</comp>
		<comp name=".HNZ" depth="0.0">
			<acc value="0.0093422578238478" flag="0"/>
			<vel value="0.00769173856679" flag="0"/>
			<psa03 value="0.015372949372045" flag="0"/>
			<psa10 value="0.00613902308640547" flag="0"/>
			<psa30 value="0.00391427971848589" flag="0"/>
		</comp>
	</station>
	<station code="ARMT" name="ARMT" netid="KO" source="Bogazici University Kandilli Observatory And Earthquake Research Institute (KOERI)" insttype="" lat="40.5683" lon="28.866">
		<comp name=".HNE" depth="0.0">
			<acc value="0.067884856666716" flag="0"/>
			<vel value="0.0395163339274" flag="0"/>
			<psa03 value="0.212210141213729" flag="0"/>
			<psa10 value="0.0491694509846357" flag="0"/>
			<psa30 value="0.00481576485411531" flag="0"/>
		</comp>
		<comp name=".HNN" depth="0.0">
			<acc value="0.077938931092446" flag="0"/>
			<vel value="0.0432136147162" flag="0"/>
			<psa03 value="0.248238340404985" flag="0"/>
			<psa10 value="0.0326232723816693" flag="0"/>
			<psa30 value="0.00397998490446509" flag="0"/>
		</comp>
		<comp name=".HNZ" depth="0.0">
			<acc value="0.049553180743878" flag="0"/>
			<vel value="0.0291548477274" flag="0"/>
			<psa03 value="0.158783539463668" flag="0"/>
			<psa10 value="0.0169950289622443" flag="0"/>
			<psa30 value="0.00699805191993814" flag="0"/>
		</comp>
	</station>
	<station code="ASYA" name="ASYA" netid="KO" source="Bogazici University Kandilli Observatory And Earthquake Research Institute (KOERI)" insttype="" lat="40.8956" lon="27.465">
		<comp name=".HNE" depth="0.0">
			<acc value="0.07285116824532" flag="0"/>
			<vel value="0.0679101301767" flag="0"/>
			<psa03 value="0.107638807625879" flag="0"/>
			<psa10 value="0.0604735735774773" flag="0"/>
			<psa30 value="0.00701905331115012" flag="0"/>
		</comp>
		<comp name=".HNN" depth="0.0">
			<acc value="0.068825454181338" flag="0"/>
			<vel value="0.0705769642629" flag="0"/>
			<psa03 value="0.136998596318067" flag="0"/>
			<psa10 value="0.0823707491578159" flag="0"/>
			<psa30 value="0.00468812306516504" flag="0"/>
		</comp>
		<comp name=".HNZ" depth="0.0">
			<acc value="0.07514546426937" flag="0"/>
			<vel value="0.0285693069741" flag="0"/>
			<psa03 value="0.157901231014835" flag="0"/>
			<psa10 value="0.0129347428007216" flag="0"/>
			<psa30 value="0.0022154644719821" flag="0"/>
		</comp>
	</station>
	<station code="AVCI" name="AVCI" netid="KO" source="Bogazici University Kandilli Observatory And Earthquake Research Institute (KOERI)" insttype="" lat="40.9958" lon="28.7225">
		<comp name=".HNE" depth="0.0">
			<acc value="0.048631430233254" flag="0"/>
			<vel value="0.0749401768255" flag="0"/>
			<psa03 value="0.0994825589814382" flag="0"/>
			<psa10 value="0.160031846324478" flag="0"/>
			<psa30 value="0.0181552176940803" flag="0"/>
		</comp>
		<comp name=".HNN" depth="0.0">
			<acc value="0.039452630786922" flag="0"/>
			<vel value="0.0568018629684" flag="0"/>
			<psa03 value="0.0935677504875747" flag="0"/>
			<psa10 value="0.111668117464804" flag="0"/>
			<psa30 value="0.0176170670442293" flag="0"/>
		</comp>
		<comp name=".HNZ" depth="0.0">
			<acc value="0.020253169782834" flag="0"/>
			<vel value="0.0241304519472" flag="0"/>
			<psa03 value="0.0501454729332727" flag="0"/>
			<psa10 value="0.0399531441997295" flag="0"/>
			<psa30 value="0.00648610675607418" flag="0"/>
		</comp>
	</station>
	<station code="BALB" name="BALB" netid="KO" source="Bogazici University Kandilli Observatory And Earthquake Research Institute (KOERI)" insttype="" lat="39.6507" lon="27.8642">
		<comp name=".HNE" depth="0.0">
			<acc value="0.2949901447197" flag="0"/>
			<vel value="0.165622178489" flag="0"/>
			<psa03 value="0.743031055494122" flag="0"/>
			<psa10 value="0.17298689953307" flag="0"/>
			<psa30 value="0.0129171523646017" flag="0"/>
		</comp>
		<comp name=".HNN" depth="0.0">
			<acc value="0.31295452908438" flag="0"/>
			<vel value="0.126210118464" flag="0"/>
			<psa03 value="0.678005039504639" flag="0"/>
			<psa10 value="0.124819781197892" flag="0"/>
			<psa30 value="0.0108349719303852" flag="0"/>
		</comp>
		<comp name=".HNZ" depth="0.0">
			<acc value="0.2084686711224" flag="0"/>
			<vel value="0.119074795898" flag="0"/>
			<psa03 value="0.442561692540291" flag="0"/>
			<psa10 value="0.0902776529513996" flag="0"/>
			<psa30 value="0.00768542578841018" flag="0"/>
		</comp>
	</station>
	<station code="BASM" name="BASM" netid="KO" source="Bogazici University Kandilli Observatory And Earthquake Research Institute (KOERI)" insttype="" lat="37.9194" lon="30.035">
		<comp name=".HNE" depth="0.0">
			<acc value="0.0080133239088426" flag="0"/>
			<vel value="0.00664737939454" flag="0"/>
			<psa03 value="0.0153953063218282" flag="0"/>
			<psa10 value="0.0127895894350255" flag="0"/>
			<psa30 value="0.00179123824407781" flag="0"/>
		</comp>
		<comp name=".HNN" depth="0.0">
			<acc value="0.006608545511913" flag="0"/>
			<vel value="0.00727981079793" flag="0"/>
			<psa03 value="0.0190987625951414" flag="0"/>
			<psa10 value="0.00950643162942995" flag="0"/>
			<psa30 value="0.00193471983235993" flag="0"/>
		</comp>
		<comp name=".HNZ" depth="0.0">
			<acc value="0.005953859716176" flag="0"/>
			<vel value="0.00403957974856" flag="0"/>
			<psa03 value="0.0108205872535084" flag="0"/>
			<psa10 value="0.00669104981171021" flag="0"/>
			<psa30 value="0.00104814078834821" flag="0"/>
		</comp>
	</station>
	<station code="BIGA" name="BIGA" netid="KO" source="Bogazici University Kandilli Observatory And Earthquake Research Institute (KOERI)" insttype="" lat="40.28134" lon="27.15048">
		<comp name=".HNE" depth="0.0">
			<acc value="0.091163304681366" flag="0"/>
			<vel value="0.0583686700942" flag="0"/>
			<psa03 value="0.207625941699786" flag="0"/>
			<psa10 value="0.0700968460721481" flag="0"/>
			<psa30 value="0.00416969747199569" flag="0"/>
		</comp>
		<comp name=".HNN" depth="0.0">
			<acc value="0.11802213456018" flag="0"/>
			<vel value="0.0680257811803" flag="0"/>
			<psa03 value="0.409883236085961" flag="0"/>
			<psa10 value="0.0804590450168008" flag="0"/>
			<psa30 value="0.00374180995987898" flag="0"/>
		</comp>
		<comp name=".HNZ" depth="0.0">
			<acc value="0.042700860660456" flag="0"/>
			<vel value="0.0213275603237" flag="0"/>
			<psa03 value="0.0866570999826121" flag="0"/>
			<psa10 value="0.0330944423443792" flag="0"/>
			<psa30 value="0.00344226469980922" flag="0"/>
		</comp>
	</station>
	<station code="BMYO" name="BMYO" netid="KO" source="Bogazici University Kandilli Observatory And Earthquake Research Institute (KOERI)" insttype="" lat="39.8098" lon="26.6009">
		<comp name=".HNE" depth="0.0">
			<acc value="0.15112940905008" flag="0"/>
			<vel value="0.111609374711" flag="0"/>
			<psa03 value="0.360804776545771" flag="0"/>
			<psa10 value="0.1140662288278" flag="0"/>
			<psa30 value="0.0123972420897611" flag="0"/>
		</comp>
		<comp name=".HNN" depth="0.0">
			<acc value="0.11319095527866" flag="0"/>
			<vel value="0.100567198166" flag="0"/>
			<psa03 value="0.345618374687725" flag="0"/>
			<psa10 value="0.092461055091131" flag="0"/>
			<psa30 value="0.0159638941963287" flag="0"/>
		</comp>
		<comp name=".HNZ" depth="0.0">
			<acc value="0.044893604170644" flag="0"/>
			<vel value="0.0409603661924" flag="0"/>
			<psa03 value="0.117058389960551" flag="0"/>
			<psa10 value="0.0845003727350619" flag="0"/>
			<psa30 value="0.00585397738061318" flag="0"/>
		</comp>
	</station>
	<station code="BOTS" name="BOTS" netid="KO" source="Bogazici University Kandilli Observatory And Earthquake Research Institute (KOERI)" insttype="" lat="40.9902" lon="27.981">
		<comp name=".HNE" depth="0.0">
			<acc value="0.036012662370924" flag="0"/>
			<vel value="0.026388596431" flag="0"/>
			<psa03 value="0.0824396018438441" flag="0"/>
			<psa10 value="0.0407227589329492" flag="0"/>
			<psa30 value="0.00636830353554332" flag="0"/>
		</comp>
		<comp name=".HNN" depth="0.0">
			<acc value="0.033828394558896" flag="0"/>
			<vel value="0.0302458799128" flag="0"/>
			<psa03 value="0.0992678885102946" flag="0"/>
			<psa10 value="0.057018750962435" flag="0"/>
			<psa30 value="0.00598424267672268" flag="0"/>
		</comp>
		<comp name=".HNZ" depth="0.0">
			<acc value="0.0096841481975862" flag="0"/>
			<vel value="0.00991093071022" flag="0"/>
			<psa03 value="0.0256260986449575" flag="0"/>
			<psa10 value="0.0100944583958119" flag="0"/>
			<psa30 value="0.00398562277794898" flag="0"/>
		</comp>
	</station>
	<station code="BRGA" name="BRGA" netid="KO" source="Bogazici University Kandilli Observatory And Earthquake Research Institute (KOERI)" insttype="" lat="40.8846" lon="29.065">
		<comp name=".HNE" depth="0.0">
			<acc value="0.02977129998459" flag="0"/>
			<vel value="0.0298593891671" flag="0"/>
			<psa03 value="0.0903968737657949" flag="0"/>
			<psa10 value="0.0430659704093773" flag="0"/>
			<psa30 value="0.00575993740090896" flag="0"/>
		</comp>
		<comp name=".HNN" depth="0.0">
			<acc value="0.037536462344784" flag="0"/>
			<vel value="0.0271391723659" flag="0"/>
			<psa03 value="0.115814515893101" flag="0"/>
			<psa10 value="0.0380136807197837" flag="0"/>
			<psa30 value="0.00529320814904657" flag="0"/>
		</comp>
		<comp name=".HNZ" depth="0.0">
			<acc value="0.018586422809226" flag="0"/>
			<vel value="0.012758379371" flag="0"/>
			<psa03 value="0.0458632152964531" flag="0"/>
			<psa10 value="0.0225250534242454" flag="0"/>
			<psa30 value="0.00360365830801147" flag="0"/>
		</comp>
	</station>
	<station code="BUYK" name="BUYK" netid="KO" source="Bogazici University Kandilli Observatory And Earthquake Research Institute (KOERI)" insttype="" lat="41.0168" lon="28.5828">
		<comp name=".HNE" depth="0.0">
			<acc value="0.052731755047014" flag="0"/>
			<vel value="0.0938513297394" flag="0"/>
			<psa03 value="0.114140009132012" flag="0"/>
			<psa10 value="0.146453381817639" flag="0"/>
			<psa30 value="0.0174505493465723" flag="0"/>
		</comp>
		<comp name=".HNN" depth="0.0">
			<acc value="0.09302555733039" flag="0"/>
			<vel value="0.105729615182" flag="0"/>
			<psa03 value="0.133246691522686" flag="0"/>
			<psa10 value="0.195400004291446" flag="0"/>
			<psa30 value="0.0161288017872919" flag="0"/>
		</comp>
		<comp name=".HNZ" depth="0.0">
			<acc value="0.0304805266962" flag="0"/>
			<vel value="0.0410540566001" flag="0"/>
			<psa03 value="0.0522641549519422" flag="0"/>
			<psa10 value="0.113115323334874" flag="0"/>
			<psa30 value="0.00394507592525032" flag="0"/>
		</comp>
	</station>
	<station code="CANM" name="CANM" netid="KO" source="Bogazici University Kandilli Observatory And Earthquake Research Institute (KOERI)" insttype="" lat="40.0113" lon="27.0529">
		<comp name=".HNE" depth="0.0">
			<acc value="0.062862238010568" flag="0"/>
			<vel value="0.0548729582401" flag="0"/>
			<psa03 value="0.103911414871213" flag="0"/>
			<psa10 value="0.0728598716089147" flag="0"/>
			<psa30 value="0.00517646833228966" flag="0"/>
		</comp>
		<comp name=".HNN" depth="0.0">
			<acc value="0.07339554599433" flag="0"/>
			<vel value="0.0650072236876" flag="0"/>
			<psa03 value="0.161922580743038" flag="0"/>
			<psa10 value="0.0898312683806582" flag="0"/>
			<psa30 value="0.00571656286090839" flag="0"/>
		</comp>
		<comp name=".HNZ" depth="0.0">
			<acc value="0.064639323189294" flag="0"/>
			<vel value="0.0384838666032" flag="0"/>
			<psa03 value="0.167298541040569" flag="0"/>
			<psa10 value="0.0425092572795987" flag="0"/>
			<psa30 value="0.0046528194764707" flag="0"/>
		</comp>
	</station>
