<?xml version="1.0" encoding="UTF-8" standalone="yes"?>
<!DOCTYPE earthquake SYSTEM "stationlist.dtd">
<stationlist created="" xmlns="ch.ethz.sed.shakemap.usgs.xml">
  <station code="BALB" name="BALB" netid="KO" insttype="CMG-5T" lat="39.6507" lon="27.8642">
    <comp name="--.HNE">
      <acc value="0.0133844594" flag="0"/>
      <vel value="0.0076088585" flag="0"/>
      <psa03 value="0.0335718325" flag="0"/>
      <psa10 value="0.0057064453" flag="0"/>
      <psa30 value="0.0007977409" flag="0"/>
    </comp>
    <comp name="--.HNN">
      <acc value="0.0165757498" flag="0"/>
      <vel value="0.0067472585" flag="0"/>
      <psa03 value="0.0303092916" flag="0"/>
      <psa10 value="0.0047921623" flag="0"/>
      <psa30 value="0.0010661216" flag="0"/>
    </comp>
    <comp name="--.HNZ">
      <acc value="0.0104771144" flag="0"/>
      <vel value="0.0036737448" flag="0"/>
      <psa03 value="0.0161302650" flag="0"/>
      <psa10 value="0.0027171937" flag="0"/>
      <psa30 value="0.0008583417" flag="0"/>
    </comp>
  </station>
  <station code="DST" name="DST" netid="KO" insttype="CMG-5T" lat="39.6041" lon="28.6267">
    <comp name="--.HNZ">
      <acc value="0.2726122946" flag="0"/>
      <vel value="0.1362731020" flag="0"/>
      <psa03 value="0.8336971720" flag="0"/>
      <psa10 value="0.0485070042" flag="0"/>
      <psa30 value="0.0048868778" flag="0"/>
    </comp>
    <comp name="--.HNE">
      <acc value="0.4281648954" flag="0"/>
      <vel value="0.2124176367" flag="0"/>
      <psa03 value="0.7561467436" flag="0"/>
      <psa10 value="0.1256343307" flag="0"/>
      <psa30 value="0.0109859856" flag="0"/>
    </comp>
    <comp name="--.HNN">
      <acc value="0.3166589602" flag="0"/>
      <vel value="0.1527634475" flag="0"/>
      <psa03 value="0.5735218442" flag="0"/>
      <psa10 value="0.2096705143" flag="0"/>
      <psa30 value="0.0141272201" flag="0"/>
    </comp>
  </station>
  <station code="EDC" name="EDC" netid="KO" insttype="CMG-5T" lat="40.3465" lon="27.8618">
    <comp name="--.HNN">
      <acc value="0.0236809198" flag="0"/>
      <vel value="0.0107806070" flag="0"/>
      <psa03 value="0.0607716152" flag="0"/>
      <psa10 value="0.0089970971" flag="0"/>
      <psa30 value="0.0006256323" flag="0"/>
    </comp>
    <comp name="--.HNZ">
      <acc value="0.0148533448" flag="0"/>
      <vel value="0.0036169266" flag="0"/>
      <psa03 value="0.0167190285" flag="0"/>
      <psa10 value="0.0022305453" flag="0"/>
      <psa30 value="0.0002016710" flag="0"/>
    </comp>
    <comp name="--.HNE">
      <acc value="0.0209157307" flag="0"/>
      <vel value="0.0143627821" flag="0"/>
      <psa03 value="0.0639064550" flag="0"/>
      <psa10 value="0.0106383991" flag="0"/>
      <psa30 value="0.0004223303" flag="0"/>
    </comp>
  </station>
  <station code="GEDZ" name="GEDZ" netid="KO" insttype="CMG-6T" lat="39.0445" lon="29.4105">
    <comp name="--.HHE">
      <acc value="0.0177825902" flag="0"/>
      <vel value="0.0094071494" flag="0"/>
      <psa03 value="0.0381003980" flag="0"/>
      <psa10 value="0.0134969959" flag="0"/>
      <psa30 value="0.0020813174" flag="0"/>
    </comp>
    <comp name="--.HHZ">
      <acc value="0.0088351099" flag="0"/>
      <vel value="0.0036987625" flag="0"/>
      <psa03 value="0.0219835820" flag="0"/>
      <psa10 value="0.0048320168" flag="0"/>
      <psa30 value="0.0009617052" flag="0"/>
    </comp>
    <comp name="--.HHN">
      <acc value="0.0159049474" flag="0"/>
      <vel value="0.0099298353" flag="0"/>
      <psa03 value="0.0563682458" flag="0"/>
      <psa10 value="0.0164035498" flag="0"/>
      <psa30 value="0.0027463274" flag="0"/>
    </comp>
  </station>
  <station code="GONE" name="GONE" netid="KO" insttype="CMG-5T" lat="40.0466" lon="27.686">
    <comp name="--.HNE">
      <acc value="0.0133287174" flag="0"/>
      <vel value="0.0039611501" flag="0"/>
      <psa03 value="0.0153952237" flag="0"/>
      <psa10 value="0.0028081518" flag="0"/>
      <psa30 value="0.0002743023" flag="0"/>
    </comp>
    <comp name="--.HNN">
      <acc value="0.0123327497" flag="0"/>
      <vel value="0.0052665448" flag="0"/>
      <psa03 value="0.0303876919" flag="0"/>
      <psa10 value="0.0032939418" flag="0"/>
      <psa30 value="0.0008328394" flag="0"/>
    </comp>
    <comp name="--.HNZ">
      <acc value="0.0147342924" flag="0"/>
      <vel value="0.0036822452" flag="0"/>
      <psa03 value="0.0132671910" flag="0"/>
      <psa10 value="0.0029037966" flag="0"/>
      <psa30 value="0.0004000979" flag="0"/>
    </comp>
  </station>
  <station code="GORD" name="GORD" netid="KO" insttype="CMG-5T" lat="38.9088" lon="28.1769">
    <comp name="--.HNE">
      <acc value="0.0063232859" flag="0"/>
      <vel value="0.0052646505" flag="0"/>
      <psa03 value="0.0162627862" flag="0"/>
      <psa10 value="0.0070691387" flag="0"/>
      <psa30 value="0.0008088863" flag="0"/>
    </comp>
    <comp name="--.HNN">
      <acc value="0.0060365712" flag="0"/>
      <vel value="0.0044612000" flag="0"/>
      <psa03 value="0.0148501928" flag="0"/>
      <psa10 value="0.0047583060" flag="0"/>
      <psa30 value="0.0005467667" flag="0"/>
    </comp>
    <comp name="--.HNZ">
      <acc value="0.0067498035" flag="0"/>
      <vel value="0.0032221438" flag="0"/>
      <psa03 value="0.0141328806" flag="0"/>
      <psa10 value="0.0033808046" flag="0"/>
      <psa30 value="0.0004669509" flag="0"/>
    </comp>
  </station>
  <station code="IZI" name="IZI" netid="KO" insttype="CMG-5T" lat="40.3483" lon="29.4612">
    <comp name="--.HNZ">
      <acc value="0.0098001099" flag="0"/>
      <vel value="0.0048069522" flag="0"/>
      <psa03 value="0.0295081023" flag="0"/>
      <psa10 value="0.0040735259" flag="0"/>
      <psa30 value="0.0004658296" flag="0"/>
    </comp>
    <comp name="--.HNN">
      <acc value="0.0098442580" flag="0"/>
      <vel value="0.0058590901" flag="0"/>
      <psa03 value="0.0291627464" flag="0"/>
      <psa10 value="0.0053529880" flag="0"/>
      <psa30 value="0.0008137289" flag="0"/>
    </comp>
    <comp name="--.HNE">
      <acc value="0.0144421771" flag="0"/>
      <vel value="0.0059437660" flag="0"/>
      <psa03 value="0.0528044218" flag="0"/>
      <psa10 value="0.0056300523" flag="0"/>
      <psa30 value="0.0004284326" flag="0"/>
    </comp>
  </station>
  <station code="KCTX" name="KCTX" netid="KO" insttype="CMG-3ESP" lat="40.2626" lon="28.3353">
    <comp name="--.HHN">
      <acc value="0.0308470937" flag="0"/>
      <vel value="0.0107280698" flag="0"/>
      <psa03 value="0.0921096631" flag="0"/>
      <psa10 value="0.0044091400" flag="0"/>
      <psa30 value="0.0003722215" flag="0"/>
    </comp>
    <comp name="--.HHE">
      <acc value="0.0176543386" flag="0"/>
      <vel value="0.0053540305" flag="0"/>
      <psa03 value="0.0294624501" flag="0"/>
      <psa10 value="0.0031999718" flag="0"/>
      <psa30 value="0.0003460849" flag="0"/>
    </comp>
    <comp name="--.HHZ">
      <acc value="0.0253415021" flag="0"/>
      <vel value="0.0057493804" flag="0"/>
      <psa03 value="0.0299809021" flag="0"/>
      <psa10 value="0.0033120695" flag="0"/>
      <psa30 value="0.0003594015" flag="0"/>
    </comp>
  </station>
  <station code="MDNY" name="MDNY" netid="KO" insttype="CMG-5T" lat="40.3709" lon="28.8846">
    <comp name="--.HNN">
      <acc value="0.0491615202" flag="0"/>
      <vel value="0.0167333379" flag="0"/>
      <psa03 value="0.1702905031" flag="0"/>
      <psa10 value="0.0062098585" flag="0"/>
      <psa30 value="0.0006393979" flag="0"/>
    </comp>
    <comp name="--.HNE">
      <acc value="0.0457555768" flag="0"/>
      <vel value="0.0185457114" flag="0"/>
      <psa03 value="0.1573966243" flag="0"/>
      <psa10 value="0.0079915151" flag="0"/>
      <psa30 value="0.0009224094" flag="0"/>
    </comp>
    <comp name="--.HNZ">
      <acc value="0.0412936125" flag="0"/>
      <vel value="0.0090553106" flag="0"/>
      <psa03 value="0.0331514776" flag="0"/>
      <psa10 value="0.0079781984" flag="0"/>
      <psa30 value="0.0004325556" flag="0"/>
    </comp>
  </station>
  <station code="ORLT" name="ORLT" netid="KO" insttype="CMG-5T" lat="40.0452" lon="28.8914">
    <comp name="--.HNE">
      <acc value="0.0561537257" flag="0"/>
      <vel value="0.0399531140" flag="0"/>
      <psa03 value="0.2201653682" flag="0"/>
      <psa10 value="0.0348670614" flag="0"/>
      <psa30 value="0.0034015629" flag="0"/>
    </comp>
    <comp name="--.HNN">
      <acc value="0.0789839336" flag="0"/>
      <vel value="0.0440993106" flag="0"/>
      <psa03 value="0.2172402636" flag="0"/>
      <psa10 value="0.0385090888" flag="0"/>
      <psa30 value="0.0024080687" flag="0"/>
    </comp>
    <comp name="--.HNZ">
      <acc value="0.0248497596" flag="0"/>
      <vel value="0.0111326307" flag="0"/>
      <psa03 value="0.0779425057" flag="0"/>
      <psa10 value="0.0138357508" flag="0"/>
      <psa30 value="0.0017515585" flag="0"/>
    </comp>
  </station>
  <station code="SHAP" name="SHAP" netid="KO" insttype="CMG-5T" lat="39.0231" lon="29.222">
    <comp name="--.HNE">
      <acc value="0.0180503859" flag="0"/>
      <vel value="0.0063808487" flag="0"/>
      <psa03 value="0.0304674396" flag="0"/>
      <psa10 value="0.0047185289" flag="0"/>
      <psa30 value="0.0016159635" flag="0"/>
    </comp>
    <comp name="--.HNN">
      <acc value="0.0162441729" flag="0"/>
      <vel value="0.0060747483" flag="0"/>
      <psa03 value="0.0242056290" flag="0"/>
      <psa10 value="0.0079512981" flag="0"/>
      <psa30 value="0.0011438461" flag="0"/>
    </comp>
    <comp name="--.HNZ">
      <acc value="0.0109832594" flag="0"/>
      <vel value="0.0028658738" flag="0"/>
      <psa03 value="0.0177514627" flag="0"/>
      <psa10 value="0.0037283368" flag="0"/>
      <psa30 value="0.0003190706" flag="0"/>
    </comp>
  </station>
  <station code="SMAA" name="SMAA" netid="KO" insttype="CMG-5T" lat="39.1005" lon="28.9805">
    <comp name="--.HNN">
      <acc value="0.0213149609" flag="0"/>
      <vel value="0.0202848453" flag="0"/>
      <psa03 value="0.0608667286" flag="0"/>
      <psa10 value="0.0378779057" flag="0"/>
      <psa30 value="0.0026695307" flag="0"/>
    </comp>
    <comp name="--.HNE">
      <acc value="0.0315467087" flag="0"/>
      <vel value="0.0211898608" flag="0"/>
      <psa03 value="0.0660425117" flag="0"/>
      <psa10 value="0.0494017693" flag="0"/>
      <psa30 value="0.0103750372" flag="0"/>
    </comp>
    <comp name="--.HNZ">
      <acc value="0.0144029892" flag="0"/>
      <vel value="0.0070403628" flag="0"/>
      <psa03 value="0.0162301118" flag="0"/>
      <psa10 value="0.0206861736" flag="0"/>
      <psa30 value="0.0010371028" flag="0"/>
    </comp>
  </station>
  <station code="SOMA" name="SOMA" netid="KO" insttype="CMG-5T" lat="39.1564" lon="27.5341">
    <comp name="--.HNE">
      <acc value="0.0097379127" flag="0"/>
      <vel value="0.0050930941" flag="0"/>
      <psa03 value="0.0223002843" flag="0"/>
      <psa10 value="0.0076349314" flag="0"/>
      <psa30 value="0.0008892721" flag="0"/>
    </comp>
    <comp name="--.HNN">
      <acc value="0.0129023351" flag="0"/>
      <vel value="0.0059016857" flag="0"/>
      <psa03 value="0.0206459996" flag="0"/>
      <psa10 value="0.0064528303" flag="0"/>
      <psa30 value="0.0008114946" flag="0"/>
    </comp>
    <comp name="--.HNZ">
      <acc value="0.0082975138" flag="0"/>
      <vel value="0.0036565891" flag="0"/>
      <psa03 value="0.0147579242" flag="0"/>
      <psa10 value="0.0060797678" flag="0"/>
      <psa30 value="0.0006084001" flag="0"/>
    </comp>
  </station>
  <station code="SUSR" name="SUSR" netid="KO" insttype="CMG-5T" lat="39.9627" lon="28.0835">
    <comp name="--.HNZ">
      <acc value="0.0194346411" flag="0"/>
      <vel value="0.0059558383" flag="0"/>
      <psa03 value="0.0451658175" flag="0"/>
      <psa10 value="0.0022227612" flag="0"/>
      <psa30 value="0.0003460483" flag="0"/>
    </comp>
    <comp name="--.HNN">
      <acc value="0.0393162484" flag="0"/>
      <vel value="0.0149487730" flag="0"/>
      <psa03 value="0.1089650734" flag="0"/>
      <psa10 value="0.0034040335" flag="0"/>
      <psa30 value="0.0005540547" flag="0"/>
    </comp>
    <comp name="--.HNE">
      <acc value="0.0324916738" flag="0"/>
      <vel value="0.0072403422" flag="0"/>
      <psa03 value="0.0454768396" flag="0"/>
      <psa10 value="0.0034776779" flag="0"/>
      <psa30 value="0.0006094052" flag="0"/>
    </comp>
  </station>
</stationlist>
