<?xml version="1.0" encoding="UTF-8" standalone="yes"?>
<!DOCTYPE earthquake SYSTEM "stationlist.dtd">
<stationlist created="" xmlns="ch.ethz.sed.shakemap.usgs.xml">
  <station code="BALB" name="BALB" netid="KO" insttype="CMG-5T" lat="39.6507" lon="27.8642">
    <comp name="--.HNE">
      <acc value="0.0133844596" flag="0"/>
      <vel value="0.0076088585" flag="0"/>
      <psa03 value="0.0335718325" flag="0"/>
      <psa10 value="0.0057064452" flag="0"/>
      <psa30 value="0.0007977426" flag="0"/>
    </comp>
    <comp name="--.HNN">
      <acc value="0.0165757501" flag="0"/>
      <vel value="0.0067472584" flag="0"/>
      <psa03 value="0.0303092916" flag="0"/>
      <psa10 value="0.0047921623" flag="0"/>
      <psa30 value="0.0010661026" flag="0"/>
    </comp>
    <comp name="--.HNZ">
      <acc value="0.0104771146" flag="0"/>
      <vel value="0.0036737449" flag="0"/>
      <psa03 value="0.0161302650" flag="0"/>
      <psa10 value="0.0027171937" flag="0"/>
      <psa30 value="0.0008583567" flag="0"/>
    </comp>
  </station>
  <station code="DST" name="DST" netid="KO" insttype="CMG-5T" lat="39.6041" lon="28.6267">
    <comp name="--.HNZ">
      <acc value="0.2726122937" flag="0"/>
      <vel value="0.1362731021" flag="0"/>
      <psa03 value="0.8336971720" flag="0"/>
      <psa10 value="0.0485070082" flag="0"/>
      <psa30 value="0.0048856099" flag="0"/>
    </comp>
    <comp name="--.HNE">
      <acc value="0.4281648953" flag="0"/>
      <vel value="0.2124176260" flag="0"/>
      <psa03 value="0.7561467436" flag="0"/>
      <psa10 value="0.1256342991" flag="0"/>
      <psa30 value="0.0109879220" flag="0"/>
    </comp>
    <comp name="--.HNN">
      <acc value="0.3166589609" flag="0"/>
      <vel value="0.1527634447" flag="0"/>
      <psa03 value="0.5735218442" flag="0"/>
      <psa10 value="0.2096705237" flag="0"/>
      <psa30 value="0.0141286344" flag="0"/>
    </comp>
  </station>
  <station code="EDC" name="EDC" netid="KO" insttype="CMG-5T" lat="40.3465" lon="27.8618">
    <comp name="--.HNE">
      <acc value="0.0209157308" flag="0"/>
      <vel value="0.0143627824" flag="0"/>
      <psa03 value="0.0639064550" flag="0"/>
      <psa10 value="0.0106383991" flag="0"/>
      <psa30 value="0.0004222905" flag="0"/>
    </comp>
    <comp name="--.HNZ">
      <acc value="0.0148533445" flag="0"/>
      <vel value="0.0036169267" flag="0"/>
      <psa03 value="0.0167190285" flag="0"/>
      <psa10 value="0.0022305453" flag="0"/>
      <psa30 value="0.0002015332" flag="0"/>
    </comp>
    <comp name="--.HNN">
      <acc value="0.0236809201" flag="0"/>
      <vel value="0.0107806068" flag="0"/>
      <psa03 value="0.0607716152" flag="0"/>
      <psa10 value="0.0089970971" flag="0"/>
      <psa30 value="0.0006256243" flag="0"/>
    </comp>
  </station>
  <station code="GEDZ" name="GEDZ" netid="KO" insttype="CMG-6T" lat="39.0445" lon="29.4105">
    <comp name="--.HHN">
      <acc value="0.0159049459" flag="0"/>
      <vel value="0.0099298393" flag="0"/>
      <psa03 value="0.0563682458" flag="0"/>
      <psa10 value="0.0164035498" flag="0"/>
      <psa30 value="0.0027463442" flag="0"/>
    </comp>
    <comp name="--.HHZ">
      <acc value="0.0088351124" flag="0"/>
      <vel value="0.0036987593" flag="0"/>
      <psa03 value="0.0219835820" flag="0"/>
      <psa10 value="0.0048320168" flag="0"/>
      <psa30 value="0.0009617033" flag="0"/>
    </comp>
    <comp name="--.HHE">
      <acc value="0.0177825908" flag="0"/>
      <vel value="0.0094071492" flag="0"/>
      <psa03 value="0.0381003980" flag="0"/>
      <psa10 value="0.0134969960" flag="0"/>
      <psa30 value="0.0020813195" flag="0"/>
    </comp>
  </station>
  <station code="GONE" name="GONE" netid="KO" insttype="CMG-5T" lat="40.0466" lon="27.686">
    <comp name="--.HNN">
      <acc value="0.0123327498" flag="0"/>
      <vel value="0.0052665452" flag="0"/>
      <psa03 value="0.0303876919" flag="0"/>
      <psa10 value="0.0032939418" flag="0"/>
      <psa30 value="0.0008328291" flag="0"/>
    </comp>
    <comp name="--.HNE">
      <acc value="0.0133287176" flag="0"/>
      <vel value="0.0039611500" flag="0"/>
      <psa03 value="0.0153952237" flag="0"/>
      <psa10 value="0.0028081518" flag="0"/>
      <psa30 value="0.0002743054" flag="0"/>
    </comp>
    <comp name="--.HNZ">
      <acc value="0.0147342924" flag="0"/>
      <vel value="0.0036822455" flag="0"/>
      <psa03 value="0.0132671910" flag="0"/>
      <psa10 value="0.0029037966" flag="0"/>
      <psa30 value="0.0004000884" flag="0"/>
    </comp>
  </station>
  <station code="GORD" name="GORD" netid="KO" insttype="CMG-5T" lat="38.9088" lon="28.1769">
    <comp name="--.HNE">
      <acc value="0.0063232859" flag="0"/>
      <vel value="0.0052646506" flag="0"/>
      <psa03 value="0.0162627862" flag="0"/>
      <psa10 value="0.0070691387" flag="0"/>
      <psa30 value="0.0008088861" flag="0"/>
    </comp>
    <comp name="--.HNN">
      <acc value="0.0060365712" flag="0"/>
      <vel value="0.0044611999" flag="0"/>
      <psa03 value="0.0148501928" flag="0"/>
      <psa10 value="0.0047583060" flag="0"/>
      <psa30 value="0.0005467671" flag="0"/>
    </comp>
    <comp name="--.HNZ">
      <acc value="0.0067498036" flag="0"/>
      <vel value="0.0032221437" flag="0"/>
      <psa03 value="0.0141328806" flag="0"/>
      <psa10 value="0.0033808046" flag="0"/>
      <psa30 value="0.0004669544" flag="0"/>
    </comp>
  </station>
  <station code="IZI" name="IZI" netid="KO" insttype="CMG-5T" lat="40.3483" lon="29.4612">
    <comp name="--.HNN">
      <acc value="0.0098442585" flag="0"/>
      <vel value="0.0058590852" flag="0"/>
      <psa03 value="0.0291627464" flag="0"/>
      <psa10 value="0.0053529880" flag="0"/>
      <psa30 value="0.0008134808" flag="0"/>
    </comp>
    <comp name="--.HNE">
      <acc value="0.0144421770" flag="0"/>
      <vel value="0.0059437649" flag="0"/>
      <psa03 value="0.0528044218" flag="0"/>
      <psa10 value="0.0056300522" flag="0"/>
      <psa30 value="0.0004283688" flag="0"/>
    </comp>
    <comp name="--.HNZ">
      <acc value="0.0098001096" flag="0"/>
      <vel value="0.0048069512" flag="0"/>
      <psa03 value="0.0295081023" flag="0"/>
      <psa10 value="0.0040735259" flag="0"/>
      <psa30 value="0.0004658038" flag="0"/>
    </comp>
  </station>
  <station code="KCTX" name="KCTX" netid="KO" insttype="CMG-3ESP" lat="40.2626" lon="28.3353">
    <comp name="--.HHN">
      <acc value="0.0308470937" flag="0"/>
      <vel value="0.0107280692" flag="0"/>
      <psa03 value="0.0921096631" flag="0"/>
      <psa10 value="0.0044091400" flag="0"/>
      <psa30 value="0.0003722211" flag="0"/>
    </comp>
    <comp name="--.HHE">
      <acc value="0.0176543385" flag="0"/>
      <vel value="0.0053540302" flag="0"/>
      <psa03 value="0.0294624501" flag="0"/>
      <psa10 value="0.0031999718" flag="0"/>
      <psa30 value="0.0003460866" flag="0"/>
    </comp>
    <comp name="--.HHZ">
      <acc value="0.0253415021" flag="0"/>
      <vel value="0.0057493807" flag="0"/>
      <psa03 value="0.0299809021" flag="0"/>
      <psa10 value="0.0033120695" flag="0"/>
      <psa30 value="0.0003594010" flag="0"/>
    </comp>
  </station>
  <station code="MDNY" name="MDNY" netid="KO" insttype="CMG-5T" lat="40.3709" lon="28.8846">
    <comp name="--.HNE">
      <acc value="0.0457555768" flag="0"/>
      <vel value="0.0185457115" flag="0"/>
      <psa03 value="0.1573966243" flag="0"/>
      <psa10 value="0.0079915151" flag="0"/>
      <psa30 value="0.0009224065" flag="0"/>
    </comp>
    <comp name="--.HNZ">
      <acc value="0.0412936125" flag="0"/>
      <vel value="0.0090553106" flag="0"/>
      <psa03 value="0.0331514776" flag="0"/>
      <psa10 value="0.0079781984" flag="0"/>
      <psa30 value="0.0004325565" flag="0"/>
    </comp>
    <comp name="--.HNN">
      <acc value="0.0491615202" flag="0"/>
      <vel value="0.0167333379" flag="0"/>
      <psa03 value="0.1702905031" flag="0"/>
      <psa10 value="0.0062098585" flag="0"/>
      <psa30 value="0.0006394002" flag="0"/>
    </comp>
  </station>
  <station code="ORLT" name="ORLT" netid="KO" insttype="CMG-5T" lat="40.0452" lon="28.8914">
    <comp name="--.HNN">
      <acc value="0.0789839336" flag="0"/>
      <vel value="0.0440993097" flag="0"/>
      <psa03 value="0.2172402636" flag="0"/>
      <psa10 value="0.0385090887" flag="0"/>
      <psa30 value="0.0024079032" flag="0"/>
    </comp>
    <comp name="--.HNZ">
      <acc value="0.0248497595" flag="0"/>
      <vel value="0.0111326306" flag="0"/>
      <psa03 value="0.0779425057" flag="0"/>
      <psa10 value="0.0138357507" flag="0"/>
      <psa30 value="0.0017516205" flag="0"/>
    </comp>
    <comp name="--.HNE">
      <acc value="0.0561537258" flag="0"/>
      <vel value="0.0399531138" flag="0"/>
      <psa03 value="0.2201653682" flag="0"/>
      <psa10 value="0.0348670614" flag="0"/>
      <psa30 value="0.0034015718" flag="0"/>
    </comp>
  </station>
  <station code="SHAP" name="SHAP" netid="KO" insttype="CMG-5T" lat="39.0231" lon="29.222">
    <comp name="--.HNN">
      <acc value="0.0162441729" flag="0"/>
      <vel value="0.0060747491" flag="0"/>
      <psa03 value="0.0242056290" flag="0"/>
      <psa10 value="0.0079512981" flag="0"/>
      <psa30 value="0.0011438465" flag="0"/>
    </comp>
    <comp name="--.HNE">
      <acc value="0.0180503857" flag="0"/>
      <vel value="0.0063808486" flag="0"/>
      <psa03 value="0.0304674396" flag="0"/>
      <psa10 value="0.0047185292" flag="0"/>
      <psa30 value="0.0016159324" flag="0"/>
    </comp>
    <comp name="--.HNZ">
      <acc value="0.0109832597" flag="0"/>
      <vel value="0.0028658721" flag="0"/>
      <psa03 value="0.0177514627" flag="0"/>
      <psa10 value="0.0037283363" flag="0"/>
      <psa30 value="0.0003192417" flag="0"/>
    </comp>
  </station>
  <station code="SMAA" name="SMAA" netid="KO" insttype="CMG-5T" lat="39.1005" lon="28.9805">
    <comp name="--.HNE">
      <acc value="0.0315467081" flag="0"/>
      <vel value="0.0211898594" flag="0"/>
      <psa03 value="0.0660425117" flag="0"/>
      <psa10 value="0.0494017692" flag="0"/>
      <psa30 value="0.0103749083" flag="0"/>
    </comp>
    <comp name="--.HNN">
      <acc value="0.0213149594" flag="0"/>
      <vel value="0.0202848436" flag="0"/>
      <psa03 value="0.0608667286" flag="0"/>
      <psa10 value="0.0378779058" flag="0"/>
      <psa30 value="0.0026696458" flag="0"/>
    </comp>
    <comp name="--.HNZ">
      <acc value="0.0144029892" flag="0"/>
      <vel value="0.0070403606" flag="0"/>
      <psa03 value="0.0162301118" flag="0"/>
      <psa10 value="0.0206861741" flag="0"/>
      <psa30 value="0.0010371824" flag="0"/>
    </comp>
  </station>
  <station code="SOMA" name="SOMA" netid="KO" insttype="CMG-5T" lat="39.1564" lon="27.5341">
    <comp name="--.HNZ">
      <acc value="0.0082975140" flag="0"/>
      <vel value="0.0036565890" flag="0"/>
      <psa03 value="0.0147579242" flag="0"/>
      <psa10 value="0.0060797678" flag="0"/>
      <psa30 value="0.0006083995" flag="0"/>
    </comp>
    <comp name="--.HNN">
      <acc value="0.0129023352" flag="0"/>
      <vel value="0.0059016854" flag="0"/>
      <psa03 value="0.0206459996" flag="0"/>
      <psa10 value="0.0064528303" flag="0"/>
      <psa30 value="0.0008114934" flag="0"/>
    </comp>
    <comp name="--.HNE">
      <acc value="0.0097379128" flag="0"/>
      <vel value="0.0050930939" flag="0"/>
      <psa03 value="0.0223002843" flag="0"/>
      <psa10 value="0.0076349314" flag="0"/>
      <psa30 value="0.0008892703" flag="0"/>
    </comp>
  </station>
  <station code="SUSR" name="SUSR" netid="KO" insttype="CMG-5T" lat="39.9627" lon="28.0835">
    <comp name="--.HNE">
      <acc value="0.0324916742" flag="0"/>
      <vel value="0.0072403432" flag="0"/>
      <psa03 value="0.0454768396" flag="0"/>
      <psa10 value="0.0034776779" flag="0"/>
      <psa30 value="0.0006093611" flag="0"/>
    </comp>
    <comp name="--.HNN">
      <acc value="0.0393162481" flag="0"/>
      <vel value="0.0149487733" flag="0"/>
      <psa03 value="0.1089650734" flag="0"/>
      <psa10 value="0.0034040338" flag="0"/>
      <psa30 value="0.0005540938" flag="0"/>
    </comp>
    <comp name="--.HNZ">
      <acc value="0.0194346410" flag="0"/>
      <vel value="0.0059558391" flag="0"/>
      <psa03 value="0.0451658175" flag="0"/>
      <psa10 value="0.0022227612" flag="0"/>
      <psa30 value="0.0003460506" flag="0"/>
    </comp>
  </station>
</stationlist>
