<?xml version="1.0" encoding="UTF-8" standalone="yes"?>
<!DOCTYPE earthquake SYSTEM "stationlist.dtd">
<stationlist created="" xmlns="ch.ethz.sed.shakemap.usgs.xml">
  <station code="ARMT" name="ARMT" netid="KO" insttype="CMG-3ESP" commtype="DIG" lat="40.5683" lon="28.866">
    <comp name="--.HHZ">
      <acc value="0.0299107430" flag="0"/>
      <vel value="0.0079462677" flag="0"/>
      <psa03 value="0.0411307792" flag="0"/>
      <psa10 value="0.0055280438" flag="0"/>
      <psa30 value="0.0002915796" flag="0"/>
    </comp>
  </station>
  <station code="AVCI" name="AVCI" netid="KO" insttype="CMG-5T" commtype="DIG" lat="40.9958" lon="28.7225">
    <comp name="--.HNE">
      <acc value="0.1355978286" flag="0"/>
      <vel value="0.0542610912" flag="0"/>
      <psa03 value="0.2426487425" flag="0"/>
      <psa10 value="0.0634448726" flag="0"/>
      <psa30 value="0.0050554755" flag="0"/>
    </comp>
    <comp name="--.HNN">
      <acc value="0.1699040703" flag="0"/>
      <vel value="0.0500838453" flag="0"/>
      <psa03 value="0.3561991623" flag="0"/>
      <psa10 value="0.0306018080" flag="0"/>
      <psa30 value="0.0036730611" flag="0"/>
    </comp>
    <comp name="--.HNZ">
      <acc value="0.3133488982" flag="0"/>
      <vel value="0.1212103230" flag="0"/>
      <psa03 value="0.4552380144" flag="0"/>
      <psa10 value="0.0193954207" flag="0"/>
      <psa30 value="0.0024043482" flag="0"/>
    </comp>
  </station>
  <station code="BGKT" name="BGKT" netid="KO" insttype="CMG-3ESP" commtype="DIG" lat="41.181" lon="28.773">
    <comp name="--.HHE">
      <acc value="0.1943097733" flag="0"/>
      <vel value="0.0224328011" flag="0"/>
      <psa03 value="0.1107377726" flag="0"/>
      <psa10 value="0.0043234800" flag="0"/>
      <psa30 value="0.0003792214" flag="0"/>
    </comp>
    <comp name="--.HHN">
      <acc value="0.1700517885" flag="0"/>
      <vel value="0.0197899776" flag="0"/>
      <psa03 value="0.0925420926" flag="0"/>
      <psa10 value="0.0060783306" flag="0"/>
      <psa30 value="0.0005721677" flag="0"/>
    </comp>
    <comp name="--.HHZ">
      <acc value="0.1853051678" flag="0"/>
      <vel value="0.0358946185" flag="0"/>
      <psa03 value="0.1200676492" flag="0"/>
      <psa10 value="0.0071378084" flag="0"/>
      <psa30 value="0.0007743666" flag="0"/>
    </comp>
  </station>
  <station code="BIGA" name="BIGA" netid="KO" insttype="CMG-5T" commtype="DIG" lat="40.2813" lon="27.1505">
    <comp name="--.HNE">
      <acc value="0.0408352355" flag="0"/>
      <vel value="0.0139421512" flag="0"/>
      <psa03 value="0.0468489570" flag="0"/>
      <psa10 value="0.0081016219" flag="0"/>
      <psa30 value="0.0005883071" flag="0"/>
    </comp>
    <comp name="--.HNN">
      <acc value="0.0414431400" flag="0"/>
      <vel value="0.0119007897" flag="0"/>
      <psa03 value="0.0342927094" flag="0"/>
      <psa10 value="0.0063517102" flag="0"/>
      <psa30 value="0.0007095347" flag="0"/>
    </comp>
    <comp name="--.HNZ">
      <acc value="0.0293509953" flag="0"/>
      <vel value="0.0060355642" flag="0"/>
      <psa03 value="0.0165445690" flag="0"/>
      <psa10 value="0.0037235799" flag="0"/>
      <psa30 value="0.0003839735" flag="0"/>
    </comp>
  </station>
  <station code="BUYK" name="BUYK" netid="KO" insttype="ACEBOX" commtype="DIG" lat="41.0168" lon="28.5828">
    <comp name="--.HNE">
      <acc value="0.1416381504" flag="0"/>
      <vel value="0.0498832705" flag="0"/>
      <psa03 value="0.3402074212" flag="0"/>
      <psa10 value="0.0530971466" flag="0"/>
      <psa30 value="0.0029338099" flag="0"/>
    </comp>
  </station>
  <station code="CRLU" name="CRLU" netid="KO" insttype="ACEBOX" commtype="DIG" lat="41.1428" lon="27.8215">
    <comp name="--.HNE">
      <acc value="0.3411834667" flag="0"/>
      <vel value="0.1318247911" flag="0"/>
      <psa03 value="0.4959181970" flag="0"/>
      <psa10 value="0.1007188782" flag="0"/>
      <psa30 value="0.0154809175" flag="0"/>
    </comp>
    <comp name="--.HNZ">
      <acc value="1.0387162701" flag="0"/>
      <vel value="0.2554034856" flag="0"/>
      <psa03 value="1.2137775037" flag="0"/>
      <psa10 value="0.1057893001" flag="0"/>
      <psa30 value="0.0073747912" flag="0"/>
    </comp>
  </station>
  <station code="CTYL" name="CTYL" netid="KO" insttype="CMG-3T" commtype="DIG" lat="41.476" lon="28.2897">
    <comp name="--.HHE">
      <acc value="0.0982924560" flag="0"/>
      <vel value="0.0358374835" flag="0"/>
      <psa03 value="0.2967241470" flag="0"/>
      <psa10 value="0.0160266245" flag="0"/>
      <psa30 value="0.0014905875" flag="0"/>
    </comp>
  </station>
  <station code="EDC" name="EDC" netid="KO" insttype="CMG-5T" commtype="DIG" lat="40.3465" lon="27.8618">
    <comp name="--.HNE">
      <acc value="0.0360507143" flag="0"/>
      <vel value="0.0076900609" flag="0"/>
      <psa03 value="0.0347665323" flag="0"/>
      <psa10 value="0.0051305143" flag="0"/>
      <psa30 value="0.0005055014" flag="0"/>
    </comp>
    <comp name="--.HNN">
      <acc value="0.0547674641" flag="0"/>
      <vel value="0.0119470437" flag="0"/>
      <psa03 value="0.0606998599" flag="0"/>
      <psa10 value="0.0067925941" flag="0"/>
      <psa30 value="0.0003107179" flag="0"/>
    </comp>
    <comp name="--.HNZ">
      <acc value="0.0266824545" flag="0"/>
      <vel value="0.0060092131" flag="0"/>
      <psa03 value="0.0156447595" flag="0"/>
      <psa10 value="0.0024246083" flag="0"/>
      <psa30 value="0.0002270946" flag="0"/>
    </comp>
  </station>
  <station code="ESKY" name="ESKY" netid="KO" insttype="CMG-5T" commtype="DIG" lat="40.5918" lon="28.9071">
    <comp name="--.HNN">
      <acc value="0.0925235518" flag="0"/>
      <vel value="0.0548744402" flag="0"/>
      <psa03 value="0.2340651772" flag="0"/>
      <psa10 value="0.0351105324" flag="0"/>
      <psa30 value="0.0021097865" flag="0"/>
    </comp>
    <comp name="--.HNZ">
      <acc value="0.0579886760" flag="0"/>
      <vel value="0.0230118476" flag="0"/>
      <psa03 value="0.1496306941" flag="0"/>
      <psa10 value="0.0129538913" flag="0"/>
      <psa30 value="0.0009074154" flag="0"/>
    </comp>
    <comp name="--.HNE">
      <acc value="0.0701776088" flag="0"/>
      <vel value="0.0441224644" flag="0"/>
      <psa03 value="0.2044252172" flag="0"/>
      <psa10 value="0.0246058320" flag="0"/>
      <psa30 value="0.0018534652" flag="0"/>
    </comp>
  </station>
  <station code="GAZK" name="GAZK" netid="KO" insttype="CMG-6T" commtype="DIG" lat="40.7479" lon="27.3275">
    <comp name="--.HHZ">
      <acc value="0.0289489227" flag="0"/>
      <vel value="0.0087147387" flag="0"/>
      <psa03 value="0.0305218317" flag="0"/>
      <psa10 value="0.0070414472" flag="0"/>
      <psa30 value="0.0004639407" flag="0"/>
    </comp>
    <comp name="--.HHE">
      <acc value="0.0601131536" flag="0"/>
      <vel value="0.0191421884" flag="0"/>
      <psa03 value="0.0531443048" flag="0"/>
      <psa10 value="0.0113984098" flag="0"/>
      <psa30 value="0.0006888390" flag="0"/>
    </comp>
    <comp name="--.HHN">
      <acc value="0.0675939842" flag="0"/>
      <vel value="0.0240831445" flag="0"/>
      <psa03 value="0.0839627361" flag="0"/>
      <psa10 value="0.0143577951" flag="0"/>
      <psa30 value="0.0010679399" flag="0"/>
    </comp>
  </station>
  <station code="GEML" name="GEML" netid="KO" insttype="CMG-3T" commtype="DIG" lat="40.4646" lon="29.2116">
    <comp name="--.HHE">
      <acc value="0.1334021738" flag="0"/>
      <vel value="0.0252275814" flag="0"/>
      <psa03 value="0.1869220398" flag="0"/>
      <psa10 value="0.0064168467" flag="0"/>
      <psa30 value="0.0005279043" flag="0"/>
    </comp>
    <comp name="--.HHN">
      <acc value="0.0987613955" flag="0"/>
      <vel value="0.0210196171" flag="0"/>
      <psa03 value="0.1704659464" flag="0"/>
      <psa10 value="0.0094102554" flag="0"/>
      <psa30 value="0.0005119565" flag="0"/>
    </comp>
    <comp name="--.HHZ">
      <acc value="0.0562808115" flag="0"/>
      <vel value="0.0115434601" flag="0"/>
      <psa03 value="0.0659776028" flag="0"/>
      <psa10 value="0.0030713191" flag="0"/>
      <psa30 value="0.0002431353" flag="0"/>
    </comp>
  </station>
  <station code="GONE" name="GONE" netid="KO" insttype="CMG-5T" commtype="DIG" lat="40.0466" lon="27.686">
    <comp name="--.HNE">
      <acc value="0.0287247613" flag="0"/>
      <vel value="0.0104178470" flag="0"/>
      <psa03 value="0.0463380584" flag="0"/>
      <psa10 value="0.0091908737" flag="0"/>
      <psa30 value="0.0007617830" flag="0"/>
    </comp>
    <comp name="--.HNZ">
      <acc value="0.0148626871" flag="0"/>
      <vel value="0.0044684151" flag="0"/>
      <psa03 value="0.0216167289" flag="0"/>
      <psa10 value="0.0047946226" flag="0"/>
      <psa30 value="0.0002502080" flag="0"/>
    </comp>
    <comp name="--.HNN">
      <acc value="0.0271618348" flag="0"/>
      <vel value="0.0108654604" flag="0"/>
      <psa03 value="0.0335345170" flag="0"/>
      <psa10 value="0.0072971098" flag="0"/>
      <psa30 value="0.0006111016" flag="0"/>
    </comp>
  </station>
  <station code="HRTX" name="HRTX" netid="KO" insttype="CMG-3ESP" commtype="DIG" lat="40.8009" lon="29.6729">
    <comp name="--.HHZ">
      <acc value="0.0222180238" flag="0"/>
      <vel value="0.0106178664" flag="0"/>
      <psa03 value="0.0680177890" flag="0"/>
      <psa10 value="0.0144910049" flag="0"/>
      <psa30 value="0.0006344351" flag="0"/>
    </comp>
    <comp name="--.HHE">
      <acc value="0.0610119528" flag="0"/>
      <vel value="0.0241530702" flag="0"/>
      <psa03 value="0.2037812798" flag="0"/>
      <psa10 value="0.0079921270" flag="0"/>
      <psa30 value="0.0005649398" flag="0"/>
    </comp>
    <comp name="--.HHN">
      <acc value="0.0445286671" flag="0"/>
      <vel value="0.0201932427" flag="0"/>
      <psa03 value="0.1214140264" flag="0"/>
      <psa10 value="0.0118126427" flag="0"/>
      <psa30 value="0.0012507374" flag="0"/>
    </comp>
  </station>
  <station code="ISK" name="ISK" netid="KO" insttype="CMG-3T" commtype="DIG" lat="41.0615" lon="29.0592">
    <comp name="--.HHE">
      <acc value="0.1026456289" flag="0"/>
      <vel value="0.0186313001" flag="0"/>
      <psa03 value="0.0655007394" flag="0"/>
      <psa10 value="0.0033854579" flag="0"/>
      <psa30 value="0.0003113327" flag="0"/>
    </comp>
    <comp name="--.HHZ">
      <acc value="0.0649592008" flag="0"/>
      <vel value="0.0137858514" flag="0"/>
      <psa03 value="0.0754745528" flag="0"/>
      <psa10 value="0.0041759676" flag="0"/>
      <psa30 value="0.0003054764" flag="0"/>
    </comp>
    <comp name="--.HHN">
      <acc value="0.0802828312" flag="0"/>
      <vel value="0.0144989880" flag="0"/>
      <psa03 value="0.0883770784" flag="0"/>
      <psa10 value="0.0092871360" flag="0"/>
      <psa30 value="0.0004894987" flag="0"/>
    </comp>
  </station>
  <station code="IZI" name="IZI" netid="KO" insttype="CMG-5T" commtype="DIG" lat="40.3483" lon="29.4612">
    <comp name="--.HNE">
      <acc value="0.0247901135" flag="0"/>
      <vel value="0.0104051032" flag="0"/>
      <psa03 value="0.0753484997" flag="0"/>
      <psa10 value="0.0048978343" flag="0"/>
      <psa30 value="0.0003623114" flag="0"/>
    </comp>
    <comp name="--.HNZ">
      <acc value="0.0132010678" flag="0"/>
      <vel value="0.0057011502" flag="0"/>
      <psa03 value="0.0260977103" flag="0"/>
      <psa10 value="0.0046939348" flag="0"/>
      <psa30 value="0.0003395490" flag="0"/>
    </comp>
    <comp name="--.HNN">
      <acc value="0.0248827834" flag="0"/>
      <vel value="0.0078996583" flag="0"/>
      <psa03 value="0.0466548175" flag="0"/>
      <psa10 value="0.0067444624" flag="0"/>
      <psa30 value="0.0005305503" flag="0"/>
    </comp>
  </station>
  <station code="KAVV" name="KAVV" netid="KO" insttype="CMG-3ESPC" commtype="DIG" lat="41.0638" lon="29.06">
    <comp name="--.HHE">
      <acc value="0.1520549542" flag="0"/>
      <vel value="0.0387712982" flag="0"/>
      <psa03 value="0.1193888962" flag="0"/>
      <psa10 value="0.0074937616" flag="0"/>
      <psa30 value="0.0005329574" flag="0"/>
    </comp>
    <comp name="--.HHN">
      <acc value="0.1259923120" flag="0"/>
      <vel value="0.0322645319" flag="0"/>
      <psa03 value="0.1645766246" flag="0"/>
      <psa10 value="0.0109291194" flag="0"/>
      <psa30 value="0.0007145902" flag="0"/>
    </comp>
    <comp name="--.HHZ">
      <acc value="0.1006464909" flag="0"/>
      <vel value="0.0252658647" flag="0"/>
      <psa03 value="0.1069459092" flag="0"/>
      <psa10 value="0.0044860554" flag="0"/>
      <psa30 value="0.0003929376" flag="0"/>
    </comp>
  </station>
  <station code="KCTX" name="KCTX" netid="KO" insttype="CMG-3ESP" commtype="DIG" lat="40.2626" lon="28.3353">
    <comp name="--.HHN">
      <acc value="0.0528988942" flag="0"/>
      <vel value="0.0242210999" flag="0"/>
      <psa03 value="0.1082282576" flag="0"/>
      <psa10 value="0.0138489192" flag="0"/>
      <psa30 value="0.0010453687" flag="0"/>
    </comp>
    <comp name="--.HHE">
      <acc value="0.1140550748" flag="0"/>
      <vel value="0.0649800964" flag="0"/>
      <psa03 value="0.2686970241" flag="0"/>
      <psa10 value="0.0327332147" flag="0"/>
      <psa30 value="0.0027625692" flag="0"/>
    </comp>
    <comp name="--.HHZ">
      <acc value="0.0441581822" flag="0"/>
      <vel value="0.0143893671" flag="0"/>
      <psa03 value="0.0731609098" flag="0"/>
      <psa10 value="0.0037056107" flag="0"/>
      <psa30 value="0.0003066995" flag="0"/>
    </comp>
  </station>
  <station code="KLYT" name="KLYT" netid="KO" insttype="CMG-3T" commtype="DIG" lat="41.253" lon="29.042">
    <comp name="--.HHE">
      <acc value="0.1134483106" flag="0"/>
      <vel value="0.0252950454" flag="0"/>
      <psa03 value="0.1050140809" flag="0"/>
      <psa10 value="0.0075287638" flag="0"/>
      <psa30 value="0.0004838495" flag="0"/>
    </comp>
    <comp name="--.HHZ">
      <acc value="0.0628906230" flag="0"/>
      <vel value="0.0176956104" flag="0"/>
      <psa03 value="0.1107355280" flag="0"/>
      <psa10 value="0.0068708136" flag="0"/>
      <psa30 value="0.0005017555" flag="0"/>
    </comp>
    <comp name="--.HHN">
      <acc value="0.1029533005" flag="0"/>
      <vel value="0.0250571176" flag="0"/>
      <psa03 value="0.0856411609" flag="0"/>
      <psa10 value="0.0122911516" flag="0"/>
      <psa30 value="0.0005199157" flag="0"/>
    </comp>
  </station>
  <station code="KOUK" name="KOUK" netid="KO" insttype="CMG-5T" commtype="DIG" lat="40.6572" lon="29.1918">
    <comp name="--.HNN">
      <acc value="0.0736181770" flag="0"/>
      <vel value="0.0605792212" flag="0"/>
      <psa03 value="0.2102893378" flag="0"/>
      <psa10 value="0.0689358043" flag="0"/>
      <psa30 value="0.0034513792" flag="0"/>
    </comp>
    <comp name="--.HNZ">
      <acc value="0.0416279594" flag="0"/>
      <vel value="0.0213836986" flag="0"/>
      <psa03 value="0.1776889496" flag="0"/>
      <psa10 value="0.0168413013" flag="0"/>
      <psa30 value="0.0008677074" flag="0"/>
    </comp>
    <comp name="--.HNE">
      <acc value="0.0975222975" flag="0"/>
      <vel value="0.0660639713" flag="0"/>
      <psa03 value="0.2201292044" flag="0"/>
      <psa10 value="0.0513647806" flag="0"/>
      <psa30 value="0.0033739228" flag="0"/>
    </comp>
  </station>
  <station code="KRBG" name="KRBG" netid="KO" insttype="CMG-5T" commtype="DIG" lat="40.3932" lon="27.2977">
    <comp name="--.HNE">
      <acc value="0.0413443349" flag="0"/>
      <vel value="0.0201922234" flag="0"/>
      <psa03 value="0.0422917130" flag="0"/>
      <psa10 value="0.0109905577" flag="0"/>
      <psa30 value="0.0007416464" flag="0"/>
    </comp>
    <comp name="--.HNN">
      <acc value="0.0284764800" flag="0"/>
      <vel value="0.0074758110" flag="0"/>
      <psa03 value="0.0427277857" flag="0"/>
      <psa10 value="0.0049179528" flag="0"/>
      <psa30 value="0.0003458732" flag="0"/>
    </comp>
    <comp name="--.HNZ">
      <acc value="0.0354936973" flag="0"/>
      <vel value="0.0081681426" flag="0"/>
      <psa03 value="0.0313595613" flag="0"/>
      <psa10 value="0.0037365181" flag="0"/>
      <psa30 value="0.0002166620" flag="0"/>
    </comp>
  </station>
  <station code="KRTL" name="KRTL" netid="KO" insttype="CMG-5T" commtype="DIG" lat="40.9089" lon="29.1987">
    <comp name="--.HNE">
      <acc value="0.1104717338" flag="0"/>
      <vel value="0.0224313972" flag="0"/>
      <psa03 value="0.0593319729" flag="0"/>
      <psa10 value="0.0061420922" flag="0"/>
      <psa30 value="0.0005273774" flag="0"/>
    </comp>
    <comp name="--.HNN">
      <acc value="0.0944157834" flag="0"/>
      <vel value="0.0291904580" flag="0"/>
      <psa03 value="0.1160240874" flag="0"/>
      <psa10 value="0.0163329000" flag="0"/>
      <psa30 value="0.0014208919" flag="0"/>
    </comp>
    <comp name="--.HNZ">
      <acc value="0.0534755421" flag="0"/>
      <vel value="0.0158731979" flag="0"/>
      <psa03 value="0.0738052875" flag="0"/>
      <psa10 value="0.0039432732" flag="0"/>
      <psa30 value="0.0003073725" flag="0"/>
    </comp>
  </station>
  <station code="KUMB" name="KUMB" netid="KO" insttype="CMG-5T" commtype="DIG" lat="40.8626" lon="27.4592">
    <comp name="--.HNE">
      <acc value="0.0554492529" flag="0"/>
      <vel value="0.0154230247" flag="0"/>
      <psa03 value="0.0457181901" flag="0"/>
      <psa10 value="0.0097525550" flag="0"/>
      <psa30 value="0.0006001240" flag="0"/>
    </comp>
    <comp name="--.HNN">
      <acc value="0.0415605613" flag="0"/>
      <vel value="0.0127300979" flag="0"/>
      <psa03 value="0.0443714808" flag="0"/>
      <psa10 value="0.0085131660" flag="0"/>
      <psa30 value="0.0005085082" flag="0"/>
    </comp>
    <comp name="--.HNZ">
      <acc value="0.0008494500" flag="0"/>
      <vel value="0.0005850721" flag="0"/>
      <psa03 value="0.0011977781" flag="0"/>
      <psa10 value="0.0006190317" flag="0"/>
      <psa30 value="0.0003591221" flag="0"/>
    </comp>
  </station>
  <station code="MAEG" name="MAEG" netid="KO" insttype="CMG-5T" commtype="DIG" lat="40.9653" lon="27.9448">
    <comp name="--.HNE">
      <acc value="0.1157789729" flag="0"/>
      <vel value="0.0199426603" flag="0"/>
      <psa03 value="0.0526430784" flag="0"/>
      <psa10 value="0.0054053806" flag="0"/>
      <psa30 value="0.0007461897" flag="0"/>
    </comp>
    <comp name="--.HNN">
      <acc value="0.0920893216" flag="0"/>
      <vel value="0.0312806622" flag="0"/>
      <psa03 value="0.0914663732" flag="0"/>
      <psa10 value="0.0146212365" flag="0"/>
      <psa30 value="0.0011770376" flag="0"/>
    </comp>
    <comp name="--.HNZ">
      <acc value="0.1692454712" flag="0"/>
      <vel value="0.0188770032" flag="0"/>
      <psa03 value="0.0481947622" flag="0"/>
      <psa10 value="0.0064133173" flag="0"/>
      <psa30 value="0.0006553718" flag="0"/>
    </comp>
  </station>
  <station code="MDNY" name="MDNY" netid="KO" insttype="CMG-3ESP" commtype="DIG" lat="40.3709" lon="28.8846">
    <comp name="--.HHZ">
      <acc value="0.0662569815" flag="0"/>
      <vel value="0.0160383952" flag="0"/>
      <psa03 value="0.0362428640" flag="0"/>
      <psa10 value="0.0027100418" flag="0"/>
      <psa30 value="0.0002597885" flag="0"/>
    </comp>
  </station>
  <station code="MRMT" name="MRMT" netid="KO" insttype="CMG-3T" commtype="DIG" lat="40.609" lon="27.5832">
    <comp name="--.HHZ">
      <acc value="0.0000276409" flag="0"/>
      <vel value="0.0000028346" flag="0"/>
      <psa03 value="0.0000108086" flag="0"/>
      <psa10 value="0.0000032006" flag="0"/>
      <psa30 value="0.0000005647" flag="0"/>
    </comp>
    <comp name="--.HHN">
      <acc value="0.0000322559" flag="0"/>
      <vel value="0.0000043075" flag="0"/>
      <psa03 value="0.0000155505" flag="0"/>
      <psa10 value="0.0000046898" flag="0"/>
      <psa30 value="0.0000007788" flag="0"/>
    </comp>
    <comp name="--.HHE">
