<stationlist created="1745501515">
	<station code="AKS" name="AKS" netid="KO" source="Bogazici University Kandilli Observatory And Earthquake Research Institute (KOERI)" insttype="" lat="38.8785" lon="27.8129">
		<comp name=".HNE" depth="0.0">
			<acc value="0.0053494505955888" flag="0"/>
			<vel value="0.00308923857881" flag="0"/>
			<psa03 value="0.0163704855059929" flag="0"/>
			<psa10 value="0.00390066879078746" flag="0"/>
			<psa30 value="0.000452561125784686" flag="0"/>
		</comp>
		<comp name=".HNN" depth="0.0">
			<acc value="0.0046169198329314" flag="0"/>
			<vel value="0.00242196882869" flag="0"/>
			<psa03 value="0.0125041395357716" flag="0"/>
			<psa10 value="0.00158597150814031" flag="0"/>
			<psa30 value="0.000371449684843769" flag="0"/>
		</comp>
		<comp name=".HNZ" depth="0.0">
			<acc value="0.0013970880472086" flag="0"/>
			<vel value="0.00120725680436" flag="0"/>
			<psa03 value="0.00308121583417535" flag="0"/>
			<psa10 value="0.00115595020884225" flag="0"/>
			<psa30 value="0.000544509716927678" flag="0"/>
		</comp>
	</station>
	<station code="ARMT" name="ARMT" netid="KO" source="Bogazici University Kandilli Observatory And Earthquake Research Institute (KOERI)" insttype="" lat="40.5683" lon="28.866">
		<comp name=".HNE" depth="0.0">
			<acc value="0.048509605456644" flag="0"/>
			<vel value="0.0155173498253" flag="0"/>
			<psa03 value="0.0915973387076972" flag="0"/>
			<psa10 value="0.00922253876041158" flag="0"/>
			<psa30 value="0.000575238731743283" flag="0"/>
		</comp>
		<comp name=".HNN" depth="0.0">
			<acc value="0.059321850638328" flag="0"/>
			<vel value="0.0170505421721" flag="0"/>
			<psa03 value="0.0891305502948324" flag="0"/>
			<psa10 value="0.00704274295340926" flag="0"/>
			<psa30 value="0.000600580879283629" flag="0"/>
		</comp>
		<comp name=".HNZ" depth="0.0">
			<acc value="0.030869624598534" flag="0"/>
			<vel value="0.00808610745145" flag="0"/>
			<psa03 value="0.0410643609373584" flag="0"/>
			<psa10 value="0.00558766015505084" flag="0"/>
			<psa30 value="0.000297072856701909" flag="0"/>
		</comp>
	</station>
	<station code="ARMU" name="ARMU" netid="KO" source="Bogazici University Kandilli Observatory And Earthquake Research Institute (KOERI)" insttype="" lat="40.5088" lon="28.838">
		<comp name=".HNE" depth="0.0">
			<acc value="0.14645532671484" flag="0"/>
			<vel value="0.0504967275978" flag="0"/>
			<psa03 value="0.424766263680484" flag="0"/>
			<psa10 value="0.0133162021330345" flag="0"/>
			<psa30 value="0.00103595633535631" flag="0"/>
		</comp>
		<comp name=".HNN" depth="0.0">
			<acc value="0.14609180794278" flag="0"/>
			<vel value="0.0471898201171" flag="0"/>
			<psa03 value="0.321755148032719" flag="0"/>
			<psa10 value="0.0138228335073691" flag="0"/>
			<psa30 value="0.00110922254305076" flag="0"/>
		</comp>
		<comp name=".HNZ" depth="0.0">
			<acc value="0.087073034223948" flag="0"/>
			<vel value="0.0217135491424" flag="0"/>
			<psa03 value="0.102230928547316" flag="0"/>
			<psa10 value="0.00434929858843793" flag="0"/>
			<psa30 value="0.000499206559569491" flag="0"/>
		</comp>
	</station>
	<station code="ATAM" name="ATAM" netid="KO" source="Bogazici University Kandilli Observatory And Earthquake Research Institute (KOERI)" insttype="" lat="40.9688" lon="28.875">
		<comp name=".HNE" depth="0.0">
			<acc value="0.4350950057781" flag="0"/>
			<vel value="0.204604206983" flag="0"/>
			<psa03 value="1.18312095929249" flag="0"/>
			<psa10 value="0.0647534095957411" flag="0"/>
			<psa30 value="0.00485443283236518" flag="0"/>
		</comp>
		<comp name=".HNN" depth="0.0">
			<acc value="0.32147857102056" flag="0"/>
			<vel value="0.120727537418" flag="0"/>
			<psa03 value="0.903737034807706" flag="0"/>
			<psa10 value="0.0496633587036913" flag="0"/>
			<psa30 value="0.00344584077004174" flag="0"/>
		</comp>
		<comp name=".HNZ" depth="0.0">
			<acc value="0.1406649252492" flag="0"/>
			<vel value="0.0403964337178" flag="0"/>
			<psa03 value="0.179709071510842" flag="0"/>
			<psa10 value="0.0130741339097202" flag="0"/>
			<psa30 value="0.00102790621874181" flag="0"/>
		</comp>
	</station>
	<station code="AVCI" name="AVCI" netid="KO" source="Bogazici University Kandilli Observatory And Earthquake Research Institute (KOERI)" insttype="" lat="40.9958" lon="28.7225">
		<comp name=".HNE" depth="0.0">
			<acc value="0.13581464078322" flag="0"/>
			<vel value="0.0544369348397" flag="0"/>
			<psa03 value="0.242152749764402" flag="0"/>
			<psa10 value="0.0634278467834026" flag="0"/>
			<psa30 value="0.00525191416353245" flag="0"/>
		</comp>
		<comp name=".HNN" depth="0.0">
			<acc value="0.16885074377352" flag="0"/>
			<vel value="0.0507872557185" flag="0"/>
			<psa03 value="0.361393815566502" flag="0"/>
			<psa10 value="0.030704992180041" flag="0"/>
			<psa30 value="0.00403759913779232" flag="0"/>
		</comp>
		<comp name=".HNZ" depth="0.0">
			<acc value="0.311925665061" flag="0"/>
			<vel value="0.12179448374" flag="0"/>
			<psa03 value="0.462668316171134" flag="0"/>
			<psa10 value="0.0196030023527129" flag="0"/>
			<psa30 value="0.00242120372619596" flag="0"/>
		</comp>
	</station>
	<station code="BIGA" name="BIGA" netid="KO" source="Bogazici University Kandilli Observatory And Earthquake Research Institute (KOERI)" insttype="" lat="40.28134" lon="27.15048">
		<comp name=".HNE" depth="0.0">
			<acc value="0.04055086487403" flag="0"/>
			<vel value="0.0141736417382" flag="0"/>
			<psa03 value="0.0471673954419443" flag="0"/>
			<psa10 value="0.00814070084396666" flag="0"/>
			<psa30 value="0.000615445718175201" flag="0"/>
		</comp>
		<comp name=".HNN" depth="0.0">
			<acc value="0.040548392127096" flag="0"/>
			<vel value="0.012184873703" flag="0"/>
			<psa03 value="0.035009621298917" flag="0"/>
			<psa10 value="0.0063924372176039" flag="0"/>
			<psa30 value="0.000735335795722921" flag="0"/>
		</comp>
		<comp name=".HNZ" depth="0.0">
			<acc value="0.02923491283194" flag="0"/>
			<vel value="0.00622478444826" flag="0"/>
			<psa03 value="0.017139529940998" flag="0"/>
			<psa10 value="0.00372200461141359" flag="0"/>
			<psa30 value="0.000422906765497507" flag="0"/>
		</comp>
	</station>
	<station code="BMYO" name="BMYO" netid="KO" source="Bogazici University Kandilli Observatory And Earthquake Research Institute (KOERI)" insttype="" lat="39.8098" lon="26.6009">
		<comp name=".HNE" depth="0.0">
			<acc value="0.006112738665186" flag="0"/>
			<vel value="0.00393087177096" flag="0"/>
			<psa03 value="0.0128622452897965" flag="0"/>
			<psa10 value="0.00594655424253291" flag="0"/>
			<psa30 value="0.00058141273448972" flag="0"/>
		</comp>
		<comp name=".HNN" depth="0.0">
			<acc value="0.0069943681533348" flag="0"/>
			<vel value="0.00604474950862" flag="0"/>
			<psa03 value="0.0119874855183269" flag="0"/>
			<psa10 value="0.00750035154897551" flag="0"/>
			<psa30 value="0.000852467148849892" flag="0"/>
		</comp>
		<comp name=".HNZ" depth="0.0">
			<acc value="0.0038475936860724" flag="0"/>
			<vel value="0.00258935019091" flag="0"/>
			<psa03 value="0.00638900201606578" flag="0"/>
			<psa10 value="0.00354369084587764" flag="0"/>
			<psa30 value="0.000423891179668507" flag="0"/>
		</comp>
	</station>
	<station code="BUYK" name="BUYK" netid="KO" source="Bogazici University Kandilli Observatory And Earthquake Research Institute (KOERI)" insttype="" lat="41.0168" lon="28.5828">
		<comp name=".HNE" depth="0.0">
			<acc value="0.1405748042559" flag="0"/>
			<vel value="0.0505015174064" flag="0"/>
			<psa03 value="0.346914189696041" flag="0"/>
			<psa10 value="0.0532119750321425" flag="0"/>
			<psa30 value="0.00295199159662435" flag="0"/>
		</comp>
		<comp name=".HNN" depth="0.0">
			<acc value="0.16632722979936" flag="0"/>
			<vel value="0.0671589424975" flag="0"/>
			<psa03 value="0.471339932290242" flag="0"/>
			<psa10 value="0.0432915141002985" flag="0"/>
			<psa30 value="0.00432103791422287" flag="0"/>
		</comp>
		<comp name=".HNZ" depth="0.0">
			<acc value="0.60955742110518" flag="0"/>
			<vel value="0.165329724685" flag="0"/>
			<psa03 value="0.462846286293391" flag="0"/>
			<psa10 value="0.0272672538217523" flag="0"/>
			<psa30 value="0.00282156879008647" flag="0"/>
		</comp>
	</station>
	<station code="BYKA" name="BYKA" netid="KO" source="Bogazici University Kandilli Observatory And Earthquake Research Institute (KOERI)" insttype="" lat="40.8738" lon="29.1251">
		<comp name=".HNE" depth="0.0">
			<acc value="0.20802414877698" flag="0"/>
			<vel value="0.075904496049" flag="0"/>
			<psa03 value="0.532181421074799" flag="0"/>
			<psa10 value="0.0209073087566082" flag="0"/>
			<psa30 value="0.001482526022575" flag="0"/>
		</comp>
		<comp name=".HNN" depth="0.0">
			<acc value="0.15105146143752" flag="0"/>
			<vel value="0.0458594059549" flag="0"/>
			<psa03 value="0.179337776081058" flag="0"/>
			<psa10 value="0.0179782765975833" flag="0"/>
			<psa30 value="0.00115340380317515" flag="0"/>
		</comp>
		<comp name=".HNZ" depth="0.0">
			<acc value="0.084118770133068" flag="0"/>
			<vel value="0.0202166179996" flag="0"/>
			<psa03 value="0.0795286121303029" flag="0"/>
			<psa10 value="0.00454137600010476" flag="0"/>
			<psa30 value="0.000426626360860938" flag="0"/>
		</comp>
	</station>
	<station code="CADB" name="CADB" netid="KO" source="Bogazici University Kandilli Observatory And Earthquake Research Institute (KOERI)" insttype="" lat="40.9534" lon="29.083">
		<comp name=".HNE" depth="0.0">
			<acc value="0.9147107115123" flag="0"/>
			<vel value="0.160894450335" flag="0"/>
			<psa03 value="0.159606218962119" flag="0"/>
			<psa10 value="0.0168785706224541" flag="0"/>
			<psa30 value="0.0014542845683815" flag="0"/>
		</comp>
		<comp name=".HNN" depth="0.0">
			<acc value="0.48897771166086" flag="0"/>
			<vel value="0.0996588312218" flag="0"/>
			<psa03 value="0.185689759368421" flag="0"/>
			<psa10 value="0.0100805327858094" flag="0"/>
			<psa30 value="0.00102580566292302" flag="0"/>
		</comp>
		<comp name=".HNZ" depth="0.0">
			<acc value="0.088998890736654" flag="0"/>
			<vel value="0.0193804318204" flag="0"/>
			<psa03 value="0.0522300797782037" flag="0"/>
			<psa10 value="0.00583274123422868" flag="0"/>
			<psa30 value="0.000370529467633768" flag="0"/>
		</comp>
	</station>
	<station code="CANM" name="CANM" netid="KO" source="Bogazici University Kandilli Observatory And Earthquake Research Institute (KOERI)" insttype="" lat="40.0113" lon="27.0529">
		<comp name=".HNE" depth="0.0">
			<acc value="0.020653635089244" flag="0"/>
			<vel value="0.00784726446812" flag="0"/>
			<psa03 value="0.0278935379141792" flag="0"/>
			<psa10 value="0.00521158196046491" flag="0"/>
			<psa30 value="0.000402789234893411" flag="0"/>
		</comp>
		<comp name=".HNN" depth="0.0">
			<acc value="0.022952397811512" flag="0"/>
			<vel value="0.00930028882211" flag="0"/>
			<psa03 value="0.0325168025160954" flag="0"/>
			<psa10 value="0.0057133605133301" flag="0"/>
			<psa30 value="0.000445459457419513" flag="0"/>
		</comp>
		<comp name=".HNZ" depth="0.0">
			<acc value="0.018977632688676" flag="0"/>
			<vel value="0.00796631402777" flag="0"/>
			<psa03 value="0.0354907026473656" flag="0"/>
			<psa10 value="0.00480960126874606" flag="0"/>
			<psa30 value="0.000484530691530723" flag="0"/>
		</comp>
	</station>
	<station code="CRLU" name="CRLU" netid="KO" source="Bogazici University Kandilli Observatory And Earthquake Research Institute (KOERI)" insttype="" lat="41.1428" lon="27.8215">
		<comp name=".HNE" depth="0.0">
			<acc value="0.03407942369298" flag="0"/>
			<vel value="0.0134626049821" flag="0"/>
			<psa03 value="0.0497739587387069" flag="0"/>
			<psa10 value="0.0100535600615281" flag="0"/>
			<psa30 value="0.0012715997580755" flag="0"/>
		</comp>
		<comp name=".HNN" depth="0.0">
			<acc value="0.035795531755986" flag="0"/>
			<vel value="0.0181658113045" flag="0"/>
			<psa03 value="0.0709246098656103" flag="0"/>
			<psa10 value="0.0139267735178977" flag="0"/>
			<psa30 value="0.00164266517267148" flag="0"/>
		</comp>
		<comp name=".HNZ" depth="0.0">
			<acc value="0.10422574819956" flag="0"/>
			<vel value="0.0260152655278" flag="0"/>
			<psa03 value="0.12415755816209" flag="0"/>
			<psa10 value="0.0107188513212894" flag="0"/>
			<psa30 value="0.000912570974180406" flag="0"/>
		</comp>
	</station>
	<station code="CTYL" name="CTYL" netid="KO" source="Bogazici University Kandilli Observatory And Earthquake Research Institute (KOERI)" insttype="" lat="41.476" lon="28.2897">
		<comp name=".HNE" depth="0.0">
			<acc value="0.096727280578986" flag="0"/>
			<vel value="0.035971890574" flag="0"/>
			<psa03 value="0.303460186081497" flag="0"/>
			<psa10 value="0.0165931860921368" flag="0"/>
			<psa30 value="0.00167597446258313" flag="0"/>
		</comp>
		<comp name=".HNN" depth="0.0">
			<acc value="0.11195961696516" flag="0"/>
			<vel value="0.0330424875507" flag="0"/>
			<psa03 value="0.211867076820587" flag="0"/>
			<psa10 value="0.00982961116349292" flag="0"/>
			<psa30 value="0.000984483342191821" flag="0"/>
		</comp>
		<comp name=".HNZ" depth="0.0">
			<acc value="0.0667356320856" flag="0"/>
			<vel value="0.0241985407303" flag="0"/>
			<psa03 value="0.14566920195323" flag="0"/>
			<psa10 value="0.0110729507161533" flag="0"/>
			<psa30 value="0.000715834503854465" flag="0"/>
		</comp>
	</station>
	<station code="CYAG" name="CYAG" netid="KO" source="Bogazici University Kandilli Observatory And Earthquake Research Institute (KOERI)" insttype="" lat="40.4924" lon="27.9761">
		<comp name=".HNE" depth="0.0">
			<acc value="0.070410454843392" flag="0"/>
			<vel value="0.01141147648" flag="0"/>
			<psa03 value="0.0295177132161375" flag="0"/>
			<psa10 value="0.00230081538647889" flag="0"/>
			<psa30 value="0.00032699812035409" flag="0"/>
		</comp>
		<comp name=".HNN" depth="0.0">
			<acc value="0.06211400515317" flag="0"/>
			<vel value="0.0099940593361" flag="0"/>
			<psa03 value="0.0216651435427548" flag="0"/>
			<psa10 value="0.00343945714403096" flag="0"/>
			<psa30 value="0.000326015008352665" flag="0"/>
		</comp>
		<comp name=".HNZ" depth="0.0">
			<acc value="0.04075047958701" flag="0"/>
			<vel value="0.00741604697615" flag="0"/>
			<psa03 value="0.0154358272352997" flag="0"/>
			<psa10 value="0.00238079576290921" flag="0"/>
			<psa30 value="0.00025472010312344" flag="0"/>
		</comp>
	</station>
	<station code="DEGR" name="DEGR" netid="KO" source="Bogazici University Kandilli Observatory And Earthquake Research Institute (KOERI)" insttype="" lat="40.4518" lon="27.1547">
		<comp name=".HNE" depth="0.0">
			<acc value="0.068705084970738" flag="0"/>
			<vel value="0.0283027079956" flag="0"/>
			<psa03 value="0.115727624720711" flag="0"/>
			<psa10 value="0.0117901116620287" flag="0"/>
			<psa30 value="0.000865631562590541" flag="0"/>
		</comp>
		<comp name=".HNN" depth="0.0">
			<acc value="0.082473226690164" flag="0"/>
			<vel value="0.0295743504192" flag="0"/>
			<psa03 value="0.100363804859686" flag="0"/>
			<psa10 value="0.00745999137530407" flag="0"/>
			<psa30 value="0.00123996630834919" flag="0"/>
		</comp>
		<comp name=".HNZ" depth="0.0">
			<acc value="0.01820409109209" flag="0"/>
			<vel value="0.00635302744739" flag="0"/>
			<psa03 value="0.0172076828932767" flag="0"/>
			<psa10 value="0.0059412035755909" flag="0"/>
			<psa30 value="0.000303984382265105" flag="0"/>
		</comp>
	</station>
	<station code="DGNL" name="DGNL" netid="KO" source="Bogazici University Kandilli Observatory And Earthquake Research Institute (KOERI)" insttype="" lat="40.5209" lon="27.7484">
		<comp name=".HNE" depth="0.0">
			<acc value="0.063828257555676" flag="0"/>
			<vel value="0.00876804027626" flag="0"/>
			<psa03 value="0.0178823525868507" flag="0"/>
			<psa10 value="0.00192396522669243" flag="0"/>
			<psa30 value="0.000232061362509669" flag="0"/>
		</comp>
		<comp name=".HNN" depth="0.0">
			<acc value="0.074536416295128" flag="0"/>
			<vel value="0.0108811704975" flag="0"/>
			<psa03 value="0.0280808393844719" flag="0"/>
			<psa10 value="0.00313904560261418" flag="0"/>
			<psa30 value="0.000250864457080927" flag="0"/>
		</comp>
		<comp name=".HNZ" depth="0.0">
			<acc value="0.02790731555478" flag="0"/>
			<vel value="0.00321105007897" flag="0"/>
			<psa03 value="0.0130311405928769" flag="0"/>
			<psa10 value="0.00189548208982523" flag="0"/>
			<psa30 value="0.000186656896353338" flag="0"/>
		</comp>
	</station>
	<station code="DOGC" name="DOGC" netid="KO" source="Bogazici University Kandilli Observatory And Earthquake Research Institute (KOERI)" insttype="" lat="41.3949" lon="26.9852">
		<comp name=".HNE" depth="0.0">
			<acc value="0.022781337204054" flag="0"/>
			<vel value="0.00941998967346" flag="0"/>
			<psa03 value="0.0370803027422323" flag="0"/>
			<psa10 value="0.00592854742467772" flag="0"/>
			<psa30 value="0.000781043875742213" flag="0"/>
		</comp>
		<comp name=".HNN" depth="0.0">
			<acc value="0.021684063844338" flag="0"/>
			<vel value="0.0078289843839" flag="0"/>
			<psa03 value="0.0419621313477532" flag="0"/>
			<psa10 value="0.00884009405034832" flag="0"/>
			<psa30 value="0.000861949443668497" flag="0"/>
		</comp>
		<comp name=".HNZ" depth="0.0">
			<acc value="0.02335720146903" flag="0"/>
			<vel value="0.0076815520687" flag="0"/>
			<psa03 value="0.0200987233688625" flag="0"/>
			<psa10 value="0.00387132590946733" flag="0"/>
			<psa30 value="0.000456651084228613" flag="0"/>
		</comp>
	</station>
	<station code="DST" name="DST" netid="KO" source="Bogazici University Kandilli Observatory And Earthquake Research Institute (KOERI)" insttype="" lat="39.6041" lon="28.6267">
		<comp name=".HNE" depth="0.0">
			<acc value="0.034172164305564" flag="0"/>
			<vel value="0.0122078209619" flag="0"/>
			<psa03 value="0.0609413078958533" flag="0"/>
			<psa10 value="0.0118013689702768" flag="0"/>
			<psa30 value="0.000829068098775405" flag="0"/>
		</comp>
		<comp name=".HNN" depth="0.0">
			<acc value="0.019347988644156" flag="0"/>
			<vel value="0.00807112140486" flag="0"/>
			<psa03 value="0.0400561405018734" flag="0"/>
			<psa10 value="0.0108480117525299" flag="0"/>
			<psa30 value="0.000731895359476369" flag="0"/>
		</comp>
		<comp name=".HNZ" depth="0.0">
			<acc value="0.020484553413774" flag="0"/>
			<vel value="0.00986942947432" flag="0"/>
			<psa03 value="0.0676487418137626" flag="0"/>
			<psa10 value="0.00630602024289082" flag="0"/>
			<psa30 value="0.00045251273716429" flag="0"/>
		</comp>
	</station>
	<station code="EDC" name="EDC" netid="KO" source="Bogazici University Kandilli Observatory And Earthquake Research Institute (KOERI)" insttype="" lat="40.3465" lon="27.8618">
		<comp name=".HNE" depth="0.0">
			<acc value="0.035664439824354" flag="0"/>
			<vel value="0.00804096298545" flag="0"/>
			<psa03 value="0.0349478411646281" flag="0"/>
			<psa10 value="0.00514775085697257" flag="0"/>
			<psa30 value="0.000529177451241655" flag="0"/>
		</comp>
		<comp name=".HNN" depth="0.0">
			<acc value="0.053812019351136" flag="0"/>
			<vel value="0.0120664791391" flag="0"/>
			<psa03 value="0.0605945401325523" flag="0"/>
			<psa10 value="0.00681133528003934" flag="0"/>
			<psa30 value="0.000324228145190054" flag="0"/>
		</comp>
		<comp name=".HNZ" depth="0.0">
			<acc value="0.026364458405616" flag="0"/>
			<vel value="0.00620388056878" flag="0"/>
			<psa03 value="0.0158518547950855" flag="0"/>
			<psa10 value="0.00244929569131838" flag="0"/>
			<psa30 value="0.00023311981804389" flag="0"/>
		</comp>
	</station>
	<station code="ENZZ" name="ENZZ" netid="KO" source="Bogazici University Kandilli Observatory And Earthquake Research Institute (KOERI)" insttype="" lat="40.607" lon="26.1406">
		<comp name=".HNE" depth="0.0">
			<acc value="0.016070068536978" flag="0"/>
			<vel value="0.0134204028225" flag="0"/>
			<psa03 value="0.0262612318652374" flag="0"/>
			<psa10 value="0.0189068062331432" flag="0"/>
			<psa30 value="0.000862656990543719" flag="0"/>
		</comp>
		<comp name=".HNN" depth="0.0">
			<acc value="0.01612221219984" flag="0"/>
			<vel value="0.0116613538218" flag="0"/>
