<?xml version="1.0" encoding="UTF-8" standalone="yes"?>
<!DOCTYPE earthquake SYSTEM "stationlist.dtd">
<stationlist created="" xmlns="ch.ethz.sed.shakemap.usgs.xml">
  <station code="ARMT" name="ARMT" netid="KO" insttype="CMG-3ESP" commtype="DIG" lat="40.5683" lon="28.866">
    <comp name="--.HHN">
      <acc value="0.0612306278" flag="0"/>
      <vel value="0.0165837905" flag="0"/>
      <psa03 value="0.0873726810" flag="0"/>
      <psa10 value="0.0067673077" flag="0"/>
      <psa30 value="0.0005701708" flag="0"/>
    </comp>
    <comp name="--.HHZ">
      <acc value="0.0299107430" flag="0"/>
      <vel value="0.0079462677" flag="0"/>
      <psa03 value="0.0411307792" flag="0"/>
      <psa10 value="0.0055280444" flag="0"/>
      <psa30 value="0.0002914135" flag="0"/>
    </comp>
  </station>
  <station code="AVCI" name="AVCI" netid="KO" insttype="CMG-5T" commtype="DIG" lat="40.9958" lon="28.7225">
    <comp name="--.HNE">
      <acc value="0.1355978221" flag="0"/>
      <vel value="0.0542611011" flag="0"/>
      <psa03 value="0.2426487425" flag="0"/>
      <psa10 value="0.0634448682" flag="0"/>
      <psa30 value="0.0050538807" flag="0"/>
    </comp>
    <comp name="--.HNN">
      <acc value="0.1699040702" flag="0"/>
      <vel value="0.0500838501" flag="0"/>
      <psa03 value="0.3561991623" flag="0"/>
      <psa10 value="0.0306018074" flag="0"/>
      <psa30 value="0.0036731824" flag="0"/>
    </comp>
    <comp name="--.HNZ">
      <acc value="0.3133489079" flag="0"/>
      <vel value="0.1212103172" flag="0"/>
      <psa03 value="0.4552380144" flag="0"/>
      <psa10 value="0.0193956506" flag="0"/>
      <psa30 value="0.0024063646" flag="0"/>
    </comp>
  </station>
  <station code="BGKT" name="BGKT" netid="KO" insttype="CMG-3ESP" commtype="DIG" lat="41.181" lon="28.773">
    <comp name="--.HHN">
      <acc value="0.1700517885" flag="0"/>
      <vel value="0.0197899710" flag="0"/>
      <psa03 value="0.0925420926" flag="0"/>
      <psa10 value="0.0060783331" flag="0"/>
      <psa30 value="0.0005719465" flag="0"/>
    </comp>
    <comp name="--.HHE">
      <acc value="0.1943097731" flag="0"/>
      <vel value="0.0224327994" flag="0"/>
      <psa03 value="0.1107377726" flag="0"/>
      <psa10 value="0.0043234800" flag="0"/>
      <psa30 value="0.0003793005" flag="0"/>
    </comp>
    <comp name="--.HHZ">
      <acc value="0.1853051677" flag="0"/>
      <vel value="0.0358946181" flag="0"/>
      <psa03 value="0.1200676492" flag="0"/>
      <psa10 value="0.0071378098" flag="0"/>
      <psa30 value="0.0007744899" flag="0"/>
    </comp>
  </station>
  <station code="BIGA" name="BIGA" netid="KO" insttype="CMG-5T" commtype="DIG" lat="40.2813" lon="27.1505">
    <comp name="--.HNN">
      <acc value="0.0414431470" flag="0"/>
      <vel value="0.0119007929" flag="0"/>
      <psa03 value="0.0342927094" flag="0"/>
      <psa10 value="0.0063517115" flag="0"/>
      <psa30 value="0.0007068383" flag="0"/>
    </comp>
    <comp name="--.HNE">
      <acc value="0.0408352575" flag="0"/>
      <vel value="0.0139421413" flag="0"/>
      <psa03 value="0.0468489570" flag="0"/>
      <psa10 value="0.0081016210" flag="0"/>
      <psa30 value="0.0005851314" flag="0"/>
    </comp>
    <comp name="--.HNZ">
      <acc value="0.0293509950" flag="0"/>
      <vel value="0.0060355690" flag="0"/>
      <psa03 value="0.0165445690" flag="0"/>
      <psa10 value="0.0037235794" flag="0"/>
      <psa30 value="0.0003842335" flag="0"/>
    </comp>
  </station>
  <station code="BUYK" name="BUYK" netid="KO" insttype="ACEBOX" commtype="DIG" lat="41.0168" lon="28.5828">
    <comp name="--.HNE">
      <acc value="0.1416381482" flag="0"/>
      <vel value="0.0498832681" flag="0"/>
      <psa03 value="0.3402074212" flag="0"/>
      <psa10 value="0.0530971465" flag="0"/>
      <psa30 value="0.0029335880" flag="0"/>
    </comp>
  </station>
  <station code="CRLU" name="CRLU" netid="KO" insttype="ACEBOX" commtype="DIG" lat="41.1428" lon="27.8215">
    <comp name="--.HNZ">
      <acc value="1.0387162746" flag="0"/>
      <vel value="0.2554034922" flag="0"/>
      <psa03 value="1.2137775037" flag="0"/>
      <psa10 value="0.1057894831" flag="0"/>
      <psa30 value="0.0073915482" flag="0"/>
    </comp>
  </station>
  <station code="CTYL" name="CTYL" netid="KO" insttype="CMG-3T" commtype="DIG" lat="41.476" lon="28.2897">
    <comp name="--.HHE">
      <acc value="0.0982924558" flag="0"/>
      <vel value="0.0358374833" flag="0"/>
      <psa03 value="0.2967241470" flag="0"/>
      <psa10 value="0.0160266242" flag="0"/>
      <psa30 value="0.0014906404" flag="0"/>
    </comp>
  </station>
  <station code="EDC" name="EDC" netid="KO" insttype="CMG-5T" commtype="DIG" lat="40.3465" lon="27.8618">
    <comp name="--.HNZ">
      <acc value="0.0266824539" flag="0"/>
      <vel value="0.0060092141" flag="0"/>
      <psa03 value="0.0156447595" flag="0"/>
      <psa10 value="0.0024246092" flag="0"/>
      <psa30 value="0.0002268799" flag="0"/>
    </comp>
    <comp name="--.HNE">
      <acc value="0.0360507166" flag="0"/>
      <vel value="0.0076900596" flag="0"/>
      <psa03 value="0.0347665323" flag="0"/>
      <psa10 value="0.0051305142" flag="0"/>
      <psa30 value="0.0005055714" flag="0"/>
    </comp>
    <comp name="--.HNN">
      <acc value="0.0547674619" flag="0"/>
      <vel value="0.0119470435" flag="0"/>
      <psa03 value="0.0606998599" flag="0"/>
      <psa10 value="0.0067925952" flag="0"/>
      <psa30 value="0.0003105913" flag="0"/>
    </comp>
  </station>
  <station code="ESKY" name="ESKY" netid="KO" insttype="CMG-5T" commtype="DIG" lat="40.5918" lon="28.9071">
    <comp name="--.HNE">
      <acc value="0.0701779251" flag="0"/>
      <vel value="0.0441224646" flag="0"/>
      <psa03 value="0.2044252172" flag="0"/>
      <psa10 value="0.0246058382" flag="0"/>
      <psa30 value="0.0018545261" flag="0"/>
    </comp>
    <comp name="--.HNN">
      <acc value="0.0925234713" flag="0"/>
      <vel value="0.0548744404" flag="0"/>
      <psa03 value="0.2340651772" flag="0"/>
      <psa10 value="0.0351105270" flag="0"/>
      <psa30 value="0.0021098915" flag="0"/>
    </comp>
    <comp name="--.HNZ">
      <acc value="0.0579887846" flag="0"/>
      <vel value="0.0230118461" flag="0"/>
      <psa03 value="0.1496306941" flag="0"/>
      <psa10 value="0.0129538894" flag="0"/>
      <psa30 value="0.0009071304" flag="0"/>
    </comp>
  </station>
  <station code="GAZK" name="GAZK" netid="KO" insttype="CMG-6T" commtype="DIG" lat="40.7479" lon="27.3275">
    <comp name="--.HHN">
      <acc value="0.0675939736" flag="0"/>
      <vel value="0.0240831502" flag="0"/>
      <psa03 value="0.0839627361" flag="0"/>
      <psa10 value="0.0143577972" flag="0"/>
      <psa30 value="0.0010679008" flag="0"/>
    </comp>
    <comp name="--.HHE">
      <acc value="0.0601131622" flag="0"/>
      <vel value="0.0191421911" flag="0"/>
      <psa03 value="0.0531443048" flag="0"/>
      <psa10 value="0.0113984101" flag="0"/>
      <psa30 value="0.0006888987" flag="0"/>
    </comp>
    <comp name="--.HHZ">
      <acc value="0.0289489127" flag="0"/>
      <vel value="0.0087147389" flag="0"/>
      <psa03 value="0.0305218317" flag="0"/>
      <psa10 value="0.0070414489" flag="0"/>
      <psa30 value="0.0004637904" flag="0"/>
    </comp>
  </station>
  <station code="GEML" name="GEML" netid="KO" insttype="CMG-3T" commtype="DIG" lat="40.4646" lon="29.2116">
    <comp name="--.HHE">
      <acc value="0.1334021739" flag="0"/>
      <vel value="0.0252275822" flag="0"/>
      <psa03 value="0.1869220398" flag="0"/>
      <psa10 value="0.0064168468" flag="0"/>
      <psa30 value="0.0005278469" flag="0"/>
    </comp>
    <comp name="--.HHN">
      <acc value="0.0987613955" flag="0"/>
      <vel value="0.0210196171" flag="0"/>
      <psa03 value="0.1704659464" flag="0"/>
      <psa10 value="0.0094102554" flag="0"/>
      <psa30 value="0.0005119643" flag="0"/>
    </comp>
    <comp name="--.HHZ">
      <acc value="0.0562808114" flag="0"/>
      <vel value="0.0115434605" flag="0"/>
      <psa03 value="0.0659776028" flag="0"/>
      <psa10 value="0.0030713190" flag="0"/>
      <psa30 value="0.0002431225" flag="0"/>
    </comp>
  </station>
  <station code="GONE" name="GONE" netid="KO" insttype="CMG-5T" commtype="DIG" lat="40.0466" lon="27.686">
    <comp name="--.HNN">
      <acc value="0.0271618360" flag="0"/>
      <vel value="0.0108654610" flag="0"/>
      <psa03 value="0.0335345170" flag="0"/>
      <psa10 value="0.0072971098" flag="0"/>
      <psa30 value="0.0006112447" flag="0"/>
    </comp>
    <comp name="--.HNZ">
      <acc value="0.0148626861" flag="0"/>
      <vel value="0.0044684160" flag="0"/>
      <psa03 value="0.0216167289" flag="0"/>
      <psa10 value="0.0047946227" flag="0"/>
      <psa30 value="0.0002500297" flag="0"/>
    </comp>
    <comp name="--.HNE">
      <acc value="0.0287247594" flag="0"/>
      <vel value="0.0104178494" flag="0"/>
      <psa03 value="0.0463380584" flag="0"/>
      <psa10 value="0.0091908737" flag="0"/>
      <psa30 value="0.0007620246" flag="0"/>
    </comp>
  </station>
  <station code="HRTX" name="HRTX" netid="KO" insttype="CMG-3ESP" commtype="DIG" lat="40.8009" lon="29.6729">
    <comp name="--.HHZ">
      <acc value="0.0222180237" flag="0"/>
      <vel value="0.0106178665" flag="0"/>
      <psa03 value="0.0680177890" flag="0"/>
      <psa10 value="0.0144910049" flag="0"/>
      <psa30 value="0.0006344375" flag="0"/>
    </comp>
    <comp name="--.HHN">
      <acc value="0.0445286671" flag="0"/>
      <vel value="0.0201932428" flag="0"/>
      <psa03 value="0.1214140264" flag="0"/>
      <psa10 value="0.0118126428" flag="0"/>
      <psa30 value="0.0012507352" flag="0"/>
    </comp>
  </station>
  <station code="ISK" name="ISK" netid="KO" insttype="CMG-3T" commtype="DIG" lat="41.0615" lon="29.0592">
    <comp name="--.HHN">
      <acc value="0.0802828312" flag="0"/>
      <vel value="0.0144989877" flag="0"/>
      <psa03 value="0.0883770784" flag="0"/>
      <psa10 value="0.0092871361" flag="0"/>
      <psa30 value="0.0004894244" flag="0"/>
    </comp>
    <comp name="--.HHE">
      <acc value="0.1026456290" flag="0"/>
      <vel value="0.0186313002" flag="0"/>
      <psa03 value="0.0655007394" flag="0"/>
      <psa10 value="0.0033854578" flag="0"/>
      <psa30 value="0.0003113842" flag="0"/>
    </comp>
    <comp name="--.HHZ">
      <acc value="0.0649592008" flag="0"/>
      <vel value="0.0137858512" flag="0"/>
      <psa03 value="0.0754745528" flag="0"/>
      <psa10 value="0.0041759670" flag="0"/>
      <psa30 value="0.0003054392" flag="0"/>
    </comp>
  </station>
  <station code="IZI" name="IZI" netid="KO" insttype="CMG-5T" commtype="DIG" lat="40.3483" lon="29.4612">
    <comp name="--.HNZ">
      <acc value="0.0132010740" flag="0"/>
      <vel value="0.0057011480" flag="0"/>
      <psa03 value="0.0260977103" flag="0"/>
      <psa10 value="0.0046939340" flag="0"/>
      <psa30 value="0.0003395251" flag="0"/>
    </comp>
    <comp name="--.HNN">
      <acc value="0.0248827937" flag="0"/>
      <vel value="0.0078996614" flag="0"/>
      <psa03 value="0.0466548175" flag="0"/>
      <psa10 value="0.0067444644" flag="0"/>
      <psa30 value="0.0005320758" flag="0"/>
    </comp>
    <comp name="--.HNE">
      <acc value="0.0247901125" flag="0"/>
      <vel value="0.0104051108" flag="0"/>
      <psa03 value="0.0753484997" flag="0"/>
      <psa10 value="0.0048978328" flag="0"/>
      <psa30 value="0.0003648895" flag="0"/>
    </comp>
  </station>
  <station code="KAVV" name="KAVV" netid="KO" insttype="CMG-3ESPC" commtype="DIG" lat="41.0638" lon="29.06">
    <comp name="--.HHZ">
      <acc value="0.1006464910" flag="0"/>
      <vel value="0.0252658650" flag="0"/>
      <psa03 value="0.1069459092" flag="0"/>
      <psa10 value="0.0044860556" flag="0"/>
      <psa30 value="0.0003929968" flag="0"/>
    </comp>
    <comp name="--.HHE">
      <acc value="0.1520549541" flag="0"/>
      <vel value="0.0387712982" flag="0"/>
      <psa03 value="0.1193888962" flag="0"/>
      <psa10 value="0.0074937616" flag="0"/>
      <psa30 value="0.0005330142" flag="0"/>
    </comp>
    <comp name="--.HHN">
      <acc value="0.1259923122" flag="0"/>
      <vel value="0.0322645324" flag="0"/>
      <psa03 value="0.1645766246" flag="0"/>
      <psa10 value="0.0109291192" flag="0"/>
      <psa30 value="0.0007145249" flag="0"/>
    </comp>
  </station>
  <station code="KCTX" name="KCTX" netid="KO" insttype="CMG-3ESP" commtype="DIG" lat="40.2626" lon="28.3353">
    <comp name="--.HHE">
      <acc value="0.1140550749" flag="0"/>
      <vel value="0.0649800964" flag="0"/>
      <psa03 value="0.2686970241" flag="0"/>
      <psa10 value="0.0327332145" flag="0"/>
      <psa30 value="0.0027625549" flag="0"/>
    </comp>
    <comp name="--.HHZ">
      <acc value="0.0441581822" flag="0"/>
      <vel value="0.0143893667" flag="0"/>
      <psa03 value="0.0731609098" flag="0"/>
      <psa10 value="0.0037056099" flag="0"/>
      <psa30 value="0.0003066309" flag="0"/>
    </comp>
    <comp name="--.HHN">
      <acc value="0.0528988942" flag="0"/>
      <vel value="0.0242211007" flag="0"/>
      <psa03 value="0.1082282576" flag="0"/>
      <psa10 value="0.0138489196" flag="0"/>
      <psa30 value="0.0010452709" flag="0"/>
    </comp>
  </station>
  <station code="KLYT" name="KLYT" netid="KO" insttype="CMG-3T" commtype="DIG" lat="41.253" lon="29.042">
    <comp name="--.HHE">
      <acc value="0.1134483106" flag="0"/>
      <vel value="0.0252950448" flag="0"/>
      <psa03 value="0.1050140809" flag="0"/>
      <psa10 value="0.0075287638" flag="0"/>
      <psa30 value="0.0004837843" flag="0"/>
    </comp>
    <comp name="--.HHN">
      <acc value="0.1029533004" flag="0"/>
      <vel value="0.0250571178" flag="0"/>
      <psa03 value="0.0856411609" flag="0"/>
      <psa10 value="0.0122911513" flag="0"/>
      <psa30 value="0.0005199127" flag="0"/>
    </comp>
  </station>
  <station code="KOUK" name="KOUK" netid="KO" insttype="CMG-5T" commtype="DIG" lat="40.6572" lon="29.1918">
    <comp name="--.HNE">
      <acc value="0.0975222927" flag="0"/>
      <vel value="0.0660639821" flag="0"/>
      <psa03 value="0.2201292044" flag="0"/>
      <psa10 value="0.0513647744" flag="0"/>
      <psa30 value="0.0033747682" flag="0"/>
    </comp>
    <comp name="--.HNN">
      <acc value="0.0736181770" flag="0"/>
      <vel value="0.0605792264" flag="0"/>
      <psa03 value="0.2102893378" flag="0"/>
      <psa10 value="0.0689358025" flag="0"/>
      <psa30 value="0.0034524593" flag="0"/>
    </comp>
    <comp name="--.HNZ">
      <acc value="0.0416279859" flag="0"/>
      <vel value="0.0213837035" flag="0"/>
      <psa03 value="0.1776889496" flag="0"/>
      <psa10 value="0.0168413002" flag="0"/>
      <psa30 value="0.0008690712" flag="0"/>
    </comp>
  </station>
  <station code="KRBG" name="KRBG" netid="KO" insttype="CMG-5T" commtype="DIG" lat="40.3932" lon="27.2977">
    <comp name="--.HNN">
      <acc value="0.0284764768" flag="0"/>
      <vel value="0.0074758101" flag="0"/>
      <psa03 value="0.0427277857" flag="0"/>
      <psa10 value="0.0049179528" flag="0"/>
      <psa30 value="0.0003459397" flag="0"/>
    </comp>
    <comp name="--.HNZ">
      <acc value="0.0354936996" flag="0"/>
      <vel value="0.0081681437" flag="0"/>
      <psa03 value="0.0313595613" flag="0"/>
      <psa10 value="0.0037365181" flag="0"/>
      <psa30 value="0.0002177706" flag="0"/>
    </comp>
    <comp name="--.HNE">
      <acc value="0.0413443354" flag="0"/>
      <vel value="0.0201922250" flag="0"/>
      <psa03 value="0.0422917130" flag="0"/>
      <psa10 value="0.0109905574" flag="0"/>
      <psa30 value="0.0007419025" flag="0"/>
    </comp>
  </station>
  <station code="KRTL" name="KRTL" netid="KO" insttype="CMG-5T" commtype="DIG" lat="40.9089" lon="29.1987">
    <comp name="--.HNE">
      <acc value="0.1104717310" flag="0"/>
      <vel value="0.0224314017" flag="0"/>
      <psa03 value="0.0593319729" flag="0"/>
      <psa10 value="0.0061420955" flag="0"/>
      <psa30 value="0.0005271714" flag="0"/>
    </comp>
    <comp name="--.HNZ">
      <acc value="0.0534755456" flag="0"/>
      <vel value="0.0158731866" flag="0"/>
      <psa03 value="0.0738052875" flag="0"/>
      <psa10 value="0.0039432735" flag="0"/>
      <psa30 value="0.0003092860" flag="0"/>
    </comp>
    <comp name="--.HNN">
      <acc value="0.0944157903" flag="0"/>
      <vel value="0.0291904557" flag="0"/>
      <psa03 value="0.1160240874" flag="0"/>
      <psa10 value="0.0163329062" flag="0"/>
      <psa30 value="0.0014224259" flag="0"/>
    </comp>
  </station>
  <station code="KUMB" name="KUMB" netid="KO" insttype="CMG-5T" commtype="DIG" lat="40.8626" lon="27.4592">
    <comp name="--.HNN">
      <acc value="0.0415605835" flag="0"/>
      <vel value="0.0127300914" flag="0"/>
      <psa03 value="0.0443714808" flag="0"/>
      <psa10 value="0.0085131618" flag="0"/>
      <psa30 value="0.0005120466" flag="0"/>
    </comp>
    <comp name="--.HNZ">
      <acc value="0.0008494791" flag="0"/>
      <vel value="0.0005850492" flag="0"/>
      <psa03 value="0.0011977781" flag="0"/>
      <psa10 value="0.0006293960" flag="0"/>
      <psa30 value="0.0003590579" flag="0"/>
    </comp>
    <comp name="--.HNE">
      <acc value="0.0554492527" flag="0"/>
      <vel value="0.0154230018" flag="0"/>
      <psa03 value="0.0457181901" flag="0"/>
      <psa10 value="0.0097525454" flag="0"/>
      <psa30 value="0.0006014162" flag="0"/>
    </comp>
  </station>
  <station code="MAEG" name="MAEG" netid="KO" insttype="CMG-5T" commtype="DIG" lat="40.9653" lon="27.9448">
    <comp name="--.HNE">
      <acc value="0.1157789675" flag="0"/>
      <vel value="0.0199426725" flag="0"/>
      <psa03 value="0.0526430784" flag="0"/>
      <psa10 value="0.0054053775" flag="0"/>
      <psa30 value="0.0007477254" flag="0"/>
    </comp>
    <comp name="--.HNN">
      <acc value="0.0920893230" flag="0"/>
      <vel value="0.0312806520" flag="0"/>
      <psa03 value="0.0914663732" flag="0"/>
      <psa10 value="0.0146212418" flag="0"/>
      <psa30 value="0.0011733603" flag="0"/>
    </comp>
    <comp name="--.HNZ">
      <acc value="0.1692454638" flag="0"/>
      <vel value="0.0188770068" flag="0"/>
      <psa03 value="0.0481947622" flag="0"/>
      <psa10 value="0.0064134154" flag="0"/>
      <psa30 value="0.0006537415" flag="0"/>
    </comp>
  </station>
  <station code="MDNY" name="MDNY" netid="KO" insttype="CMG-5T" commtype="DIG" lat="40.3709" lon="28.8846">
    <comp name="--.HNE">
      <acc value="0.0902755996" flag="0"/>
      <vel value="0.0291000925" flag="0"/>
      <psa03 value="0.1887619256" flag="0"/>
      <psa10 value="0.0081390599" flag="0"/>
      <psa30 value="0.0005586245" flag="0"/>
    </comp>
    <comp name="--.HNN">
      <acc value="0.0849811969" flag="0"/>
      <vel value="0.0244458250" flag="0"/>
      <psa03 value="0.1917678663" flag="0"/>
      <psa10 value="0.0071381111" flag="0"/>
      <psa30 value="0.0005679081" flag="0"/>
    </comp>
    <comp name="--.HNZ">
      <acc value="0.0640509675" flag="0"/>
      <vel value="0.0188569171" flag="0"/>
      <psa03 value="0.0863680375" flag="0"/>
      <psa10 value="0.0033164000" flag="0"/>
      <psa30 value="0.0003902245" flag="0"/>
    </comp>
  </station>
  <station code="MRMT" name="MRMT" netid="KO" insttype="CMG-3T" commtype="DIG" lat="40.609" lon="27.5832">
    <comp name="--.HHZ">
      <acc value="0.0000276407" flag="0"/>
      <vel value="0.0000028347" flag="0"/>
      <psa03 value="0.0000108056" flag="0"/>
      <psa10 value="0.0000032008" flag="0"/>
      <psa30 value="0.0000005644" flag="0"/>
    </comp>
    <comp name="--.HHN">
      <acc value="0.0000322559" flag="0"/>
      <vel value="0.0000043074" flag="0"/>
      <psa03 value="0.0000155505" flag="0"/>
      <psa10 value="0.0000046898" flag="0"/>
      <psa30 value="0.0000007431" flag="0"/>
    </comp>
    <comp name="--.HHE">
