<?xml version="1.0" encoding="UTF-8" standalone="yes"?>
<!DOCTYPE earthquake SYSTEM "stationlist.dtd">
<stationlist created="" xmlns="ch.ethz.sed.shakemap.usgs.xml">
  <station code="DARE" name="DARE" netid="KO" insttype="CMG-3ESP" lat="38.5712" lon="37.4832">
    <comp name="--.HHE">
      <acc value="0.0165611290" flag="0"/>
      <vel value="0.0052791092" flag="0"/>
      <psa03 value="0.0244439774" flag="0"/>
      <psa10 value="0.0028134500" flag="0"/>
      <psa30 value="0.0002937762" flag="0"/>
    </comp>
    <comp name="--.HHN">
      <acc value="0.0169452113" flag="0"/>
      <vel value="0.0049372911" flag="0"/>
      <psa03 value="0.0256844269" flag="0"/>
      <psa10 value="0.0033193473" flag="0"/>
      <psa30 value="0.0002662278" flag="0"/>
    </comp>
    <comp name="--.HHZ">
      <acc value="0.0153515583" flag="0"/>
      <vel value="0.0046867041" flag="0"/>
      <psa03 value="0.0226425177" flag="0"/>
      <psa10 value="0.0037154858" flag="0"/>
      <psa30 value="0.0004235592" flag="0"/>
    </comp>
  </station>
  <station code="GAZ" name="GAZ" netid="KO" insttype="CMG-3T" lat="37.1721" lon="37.2096">
    <comp name="--.HHE">
      <acc value="0.0082657682" flag="0"/>
      <vel value="0.0045169374" flag="0"/>
      <psa03 value="0.0146607126" flag="0"/>
      <psa10 value="0.0063901919" flag="0"/>
      <psa30 value="0.0012707105" flag="0"/>
    </comp>
    <comp name="--.HHZ">
      <acc value="0.0059439125" flag="0"/>
      <vel value="0.0021209832" flag="0"/>
      <psa03 value="0.0098851758" flag="0"/>
      <psa10 value="0.0029944080" flag="0"/>
      <psa30 value="0.0002190960" flag="0"/>
    </comp>
    <comp name="--.HHN">
      <acc value="0.0060040079" flag="0"/>
      <vel value="0.0026171434" flag="0"/>
      <psa03 value="0.0139708627" flag="0"/>
      <psa10 value="0.0028022479" flag="0"/>
      <psa30 value="0.0003140210" flag="0"/>
    </comp>
  </station>
  <station code="KMRS" name="KMRS" netid="KO" insttype="CMG-3T" lat="37.5053" lon="36.9">
    <comp name="--.HHN">
      <acc value="0.0144628022" flag="0"/>
      <vel value="0.0075346590" flag="0"/>
      <psa03 value="0.0254585417" flag="0"/>
      <psa10 value="0.0049968245" flag="0"/>
      <psa30 value="0.0006868410" flag="0"/>
    </comp>
    <comp name="--.HHE">
      <acc value="0.0119513530" flag="0"/>
      <vel value="0.0074117210" flag="0"/>
      <psa03 value="0.0383709596" flag="0"/>
      <psa10 value="0.0044209165" flag="0"/>
      <psa30 value="0.0005443714" flag="0"/>
    </comp>
    <comp name="--.HHZ">
      <acc value="0.0094373191" flag="0"/>
      <vel value="0.0055524915" flag="0"/>
      <psa03 value="0.0398341216" flag="0"/>
      <psa10 value="0.0027637466" flag="0"/>
      <psa30 value="0.0005720175" flag="0"/>
    </comp>
  </station>
</stationlist>
