<?xml version="1.0" encoding="UTF-8" standalone="yes"?>
<!DOCTYPE earthquake SYSTEM "stationlist.dtd">
<stationlist created="" xmlns="ch.ethz.sed.shakemap.usgs.xml">
  <station code="GAZ" name="GAZ" netid="KO" insttype="CMG-3T" lat="37.1721" lon="37.2096">
    <comp name="--.HHN">
      <acc value="0.0060040052" flag="0"/>
      <vel value="0.0026171445" flag="0"/>
      <psa03 value="0.0139708627" flag="0"/>
      <psa10 value="0.0028022479" flag="0"/>
      <psa30 value="0.0003140497" flag="0"/>
    </comp>
    <comp name="--.HHE">
      <acc value="0.0082657700" flag="0"/>
      <vel value="0.0045169379" flag="0"/>
      <psa03 value="0.0146607126" flag="0"/>
      <psa10 value="0.0063901919" flag="0"/>
      <psa30 value="0.0012707059" flag="0"/>
    </comp>
    <comp name="--.HHZ">
      <acc value="0.0059439118" flag="0"/>
      <vel value="0.0021209833" flag="0"/>
      <psa03 value="0.0098851758" flag="0"/>
      <psa10 value="0.0029944080" flag="0"/>
      <psa30 value="0.0002190976" flag="0"/>
    </comp>
  </station>
  <station code="KMRS" name="KMRS" netid="KO" insttype="CMG-3T" lat="37.5053" lon="36.9">
    <comp name="--.HHE">
      <acc value="0.0119513539" flag="0"/>
      <vel value="0.0074117217" flag="0"/>
      <psa03 value="0.0383709596" flag="0"/>
      <psa10 value="0.0044209166" flag="0"/>
      <psa30 value="0.0005444158" flag="0"/>
    </comp>
    <comp name="--.HHN">
      <acc value="0.0144628017" flag="0"/>
      <vel value="0.0075346594" flag="0"/>
      <psa03 value="0.0254585417" flag="0"/>
      <psa10 value="0.0049968244" flag="0"/>
      <psa30 value="0.0006868181" flag="0"/>
    </comp>
    <comp name="--.HHZ">
      <acc value="0.0094373194" flag="0"/>
      <vel value="0.0055524929" flag="0"/>
      <psa03 value="0.0398341216" flag="0"/>
      <psa10 value="0.0027637468" flag="0"/>
      <psa30 value="0.0005720156" flag="0"/>
    </comp>
  </station>
  <station code="SARI" name="SARI" netid="KO" insttype="CMG-3T" lat="38.4072" lon="36.4181">
    <comp name="--.HHE">
      <acc value="0.0162802741" flag="0"/>
      <vel value="0.0066194318" flag="0"/>
      <psa03 value="0.0350947835" flag="0"/>
      <psa10 value="0.0070846186" flag="0"/>
      <psa30 value="0.0002997441" flag="0"/>
    </comp>
    <comp name="--.HHN">
      <acc value="0.0156560510" flag="0"/>
      <vel value="0.0071648115" flag="0"/>
      <psa03 value="0.0403682443" flag="0"/>
      <psa10 value="0.0082273989" flag="0"/>
      <psa30 value="0.0004275042" flag="0"/>
    </comp>
    <comp name="--.HHZ">
      <acc value="0.0101518784" flag="0"/>
      <vel value="0.0048238494" flag="0"/>
      <psa03 value="0.0243152536" flag="0"/>
      <psa10 value="0.0047438198" flag="0"/>
      <psa30 value="0.0001943029" flag="0"/>
    </comp>
  </station>
  <station code="URFA" name="URFA" netid="KO" insttype="CMG-3ESP" lat="37.4409" lon="38.8213">
    <comp name="--.HHE">
      <acc value="0.0291382090" flag="0"/>
      <vel value="0.0084746081" flag="0"/>
      <psa03 value="0.0542545135" flag="0"/>
      <psa10 value="0.0075694871" flag="0"/>
      <psa30 value="0.0005920678" flag="0"/>
    </comp>
    <comp name="--.HHN">
      <acc value="0.0235818245" flag="0"/>
      <vel value="0.0084990520" flag="0"/>
      <psa03 value="0.0439872528" flag="0"/>
      <psa10 value="0.0061738675" flag="0"/>
      <psa30 value="0.0007438881" flag="0"/>
    </comp>
  </station>
  <station code="ANDN" name="ANDN" netid="TU" insttype="T" lat="37.58" lon="36.3452">
    <comp name="--.HHZ">
      <acc value="0.0236494398" flag="0"/>
      <vel value="0.0091501485" flag="0"/>
      <psa03 value="0.0309643618" flag="0"/>
      <psa10 value="0.0106951975" flag="0"/>
      <psa30 value="0.0005408677" flag="0"/>
    </comp>
    <comp name="--.HHE">
      <acc value="0.0447200029" flag="0"/>
      <vel value="0.0128952716" flag="0"/>
      <psa03 value="0.0580900721" flag="0"/>
      <psa10 value="0.0098552535" flag="0"/>
      <psa30 value="0.0005793559" flag="0"/>
    </comp>
    <comp name="--.HHN">
      <acc value="0.0534159049" flag="0"/>
      <vel value="0.0220339966" flag="0"/>
      <psa03 value="0.0940643859" flag="0"/>
      <psa10 value="0.0187208626" flag="0"/>
      <psa30 value="0.0011037554" flag="0"/>
    </comp>
  </station>
</stationlist>
