<stationlist created="1778136253">
	<station code="AGRP" name="AGRP" netid="CL" source="Corinth Riff Laboratory (CRLNET)" insttype="" lat="38.3959" lon="21.72277">
		<comp name="00.HNE" depth="0.0">
			<acc value="0.377314654491403" flag="0"/>
			<vel value="0.126634708816299" flag="0"/>
			<psa03 value="0.90119752570523" flag="0"/>
			<psa10 value="0.0506530995346116" flag="0"/>
			<psa30 value="0.00639679328021431" flag="0"/>
		</comp>
		<comp name="00.HNN" depth="0.0">
			<acc value="0.650319808535033" flag="0"/>
			<vel value="0.322006857326545" flag="0"/>
			<psa03 value="1.50262226706804" flag="0"/>
			<psa10 value="0.116668435711607" flag="0"/>
			<psa30 value="0.0122987377552305" flag="0"/>
		</comp>
		<comp name="00.HNZ" depth="0.0">
			<acc value="0.1697742967513" flag="0"/>
			<vel value="0.0798654883318294" flag="0"/>
			<psa03 value="0.317043276097074" flag="0"/>
			<psa10 value="0.0544463438117087" flag="0"/>
			<psa30 value="0.00336237682736312" flag="0"/>
		</comp>
	</station>
	<station code="MALA" name="MALA" netid="CL" source="Corinth Riff Laboratory (CRLNET)" insttype="" lat="38.39341" lon="21.87263">
		<comp name="01.HNE" depth="0.0">
			<acc value="1.64113209259627" flag="0"/>
			<vel value="1.12060167584268" flag="0"/>
			<psa03 value="3.36474816431389" flag="0"/>
			<psa10 value="1.20133495903159" flag="0"/>
			<psa30 value="0.0819158215649966" flag="0"/>
		</comp>
		<comp name="01.HNN" depth="0.0">
			<acc value="1.27276339814315" flag="0"/>
			<vel value="0.480221120194922" flag="0"/>
			<psa03 value="2.405609481038" flag="0"/>
			<psa10 value="0.293384492081464" flag="0"/>
			<psa30 value="0.0400491965660812" flag="0"/>
		</comp>
		<comp name="01.HNZ" depth="0.0">
			<acc value="0.518002115619371" flag="0"/>
			<vel value="0.168359564950517" flag="0"/>
			<psa03 value="0.459189266523323" flag="0"/>
			<psa10 value="0.241326039836972" flag="0"/>
			<psa30 value="0.0185760693437741" flag="0"/>
		</comp>
	</station>
	<station code="AIGS" name="AIGS" netid="HA" source="Hellenic Seismological Network, University of Athens, Seismological Laboratory (HA)" insttype="" lat="38.25001" lon="22.0878">
		<comp name="--.HNE" depth="0.0">
			<acc value="0.129288343454828" flag="0"/>
			<vel value="0.0422484077843642" flag="0"/>
			<psa03 value="0.152570924568307" flag="0"/>
			<psa10 value="0.0273580696588084" flag="0"/>
			<psa30 value="0.00408585830838058" flag="0"/>
		</comp>
		<comp name="--.HNN" depth="0.0">
			<acc value="0.131777364107653" flag="0"/>
			<vel value="0.0312701612547566" flag="0"/>
			<psa03 value="0.0904239995755272" flag="0"/>
			<psa10 value="0.0188373638304248" flag="0"/>
			<psa30 value="0.00592476300039154" flag="0"/>
		</comp>
		<comp name="--.HNZ" depth="0.0">
			<acc value="0.113888278318085" flag="0"/>
			<vel value="0.026954958313804" flag="0"/>
			<psa03 value="0.0502902402389375" flag="0"/>
			<psa10 value="0.0153058614620446" flag="0"/>
			<psa30 value="0.00274851375256043" flag="0"/>
		</comp>
	</station>
	<station code="KLV1" name="KLV1" netid="HI" source="ITSAK Strong Motion Network" insttype="" lat="38.03256" lon="22.10797">
		<comp name="--.HNE" depth="0.0">
			<acc value="0.032373088900222" flag="0"/>
			<vel value="0.0119947742321899" flag="0"/>
			<psa03 value="0.0451001442712179" flag="0"/>
			<psa10 value="0.0233151638687814" flag="0"/>
			<psa30 value="0.00130020852432698" flag="0"/>
		</comp>
		<comp name="--.HNN" depth="0.0">
			<acc value="0.0318496841759025" flag="0"/>
			<vel value="0.0129552242590142" flag="0"/>
			<psa03 value="0.0415207677417562" flag="0"/>
			<psa10 value="0.0148186188319716" flag="0"/>
			<psa30 value="0.000901555463358176" flag="0"/>
		</comp>
		<comp name="--.HNZ" depth="0.0">
			<acc value="0.0207813417546087" flag="0"/>
			<vel value="0.00613642808652197" flag="0"/>
			<psa03 value="0.0217894546230983" flag="0"/>
			<psa10 value="0.0101314252666415" flag="0"/>
			<psa30 value="0.00120803957869334" flag="0"/>
		</comp>
	</station>
	<station code="LAM2" name="LAM2" netid="HI" source="ITSAK Strong Motion Network" insttype="" lat="38.90203" lon="22.431301">
		<comp name="--.HNE" depth="0.0">
			<acc value="0.0080597665956753" flag="0"/>
			<vel value="0.00336573455813111" flag="0"/>
			<psa03 value="0.0180311092671635" flag="0"/>
			<psa10 value="0.00414760255351379" flag="0"/>
			<psa30 value="0.00111497578892733" flag="0"/>
		</comp>
		<comp name="--.HNN" depth="0.0">
			<acc value="0.00780075524250422" flag="0"/>
			<vel value="0.00327081409848033" flag="0"/>
			<psa03 value="0.0157045145230134" flag="0"/>
			<psa10 value="0.00437713007346553" flag="0"/>
			<psa30 value="0.000773145330363736" flag="0"/>
		</comp>
		<comp name="--.HNZ" depth="0.0">
			<acc value="0.0141215685014154" flag="0"/>
			<vel value="0.00187996650556076" flag="0"/>
			<psa03 value="0.0058612290669936" flag="0"/>
			<psa10 value="0.00356774355574099" flag="0"/>
			<psa30 value="0.000427735495270678" flag="0"/>
		</comp>
	</station>
	<station code="MSL1" name="MSL1" netid="HI" source="ITSAK Strong Motion Network" insttype="" lat="38.3727" lon="21.4243">
		<comp name="--.HNE" depth="0.0">
			<acc value="0.0709218933746915" flag="0"/>
			<vel value="0.0368813556770032" flag="0"/>
			<psa03 value="0.299951753168894" flag="0"/>
			<psa10 value="0.0531940094484633" flag="0"/>
			<psa30 value="0.00255299030963859" flag="0"/>
		</comp>
		<comp name="--.HNN" depth="0.0">
			<acc value="0.0803181334258531" flag="0"/>
			<vel value="0.0384389210422669" flag="0"/>
			<psa03 value="0.222860931165612" flag="0"/>
			<psa10 value="0.0623549762535544" flag="0"/>
			<psa30 value="0.00297938353871072" flag="0"/>
		</comp>
		<comp name="--.HNZ" depth="0.0">
			<acc value="0.0411592377885367" flag="0"/>
			<vel value="0.0167134574194631" flag="0"/>
			<psa03 value="0.137134863285003" flag="0"/>
			<psa10 value="0.0192682312801587" flag="0"/>
			<psa30 value="0.00108634077669164" flag="0"/>
		</comp>
	</station>
	<station code="VAS2" name="VAS2" netid="HI" source="ITSAK Strong Motion Network" insttype="" lat="38.630558" lon="20.608081">
		<comp name="--.HNE" depth="0.0">
			<acc value="0.0132518538682735" flag="0"/>
			<vel value="0.0129837700040473" flag="0"/>
			<psa03 value="0.0483663253543518" flag="0"/>
			<psa10 value="0.0149716371786061" flag="0"/>
			<psa30 value="0.000918110079806936" flag="0"/>
		</comp>
		<comp name="--.HNN" depth="0.0">
			<acc value="0.0262587824964792" flag="0"/>
			<vel value="0.0128955770839961" flag="0"/>
			<psa03 value="0.0674712475803538" flag="0"/>
			<psa10 value="0.0227594656625825" flag="0"/>
			<psa30 value="0.00134674041920998" flag="0"/>
		</comp>
		<comp name="--.HNZ" depth="0.0">
			<acc value="0.00850227748397678" flag="0"/>
			<vel value="0.00619886087243464" flag="0"/>
			<psa03 value="0.0309616069798441" flag="0"/>
			<psa10 value="0.0100227017045591" flag="0"/>
			<psa30 value="0.000488137474205345" flag="0"/>
		</comp>
	</station>
	<station code="PATC" name="PATC" netid="HL" source="National Observatory of Athens Seismic Network" insttype="" lat="38.26933" lon="21.76001">
		<comp name="00.HNE" depth="0.0">
			<acc value="0.348746623147225" flag="0"/>
			<vel value="0.146942744607885" flag="0"/>
			<psa03 value="0.534400915848638" flag="0"/>
			<psa10 value="0.180593863417463" flag="0"/>
			<psa30 value="0.0425529704484397" flag="0"/>
		</comp>
		<comp name="00.HNN" depth="0.0">
			<acc value="0.292218490064204" flag="0"/>
			<vel value="0.155473184317163" flag="0"/>
			<psa03 value="0.610238956066608" flag="0"/>
			<psa10 value="0.246564904809906" flag="0"/>
			<psa30 value="0.0367776464181532" flag="0"/>
		</comp>
		<comp name="00.HNZ" depth="0.0">
			<acc value="0.254176674483811" flag="0"/>
			<vel value="0.106842859837491" flag="0"/>
			<psa03 value="0.314985134592633" flag="0"/>
			<psa10 value="0.16839266367266" flag="0"/>
			<psa30 value="0.0149286846602525" flag="0"/>
		</comp>
	</station>
	<station code="PATG" name="PATG" netid="HL" source="National Observatory of Athens Seismic Network" insttype="" lat="38.23865" lon="21.72657">
		<comp name="00.HNE" depth="0.0">
			<acc value="0.162909268352514" flag="0"/>
			<vel value="0.0895978716590167" flag="0"/>
			<psa03 value="0.259996962658777" flag="0"/>
			<psa10 value="0.0756393848205855" flag="0"/>
			<psa30 value="0.0247133578256024" flag="0"/>
		</comp>
		<comp name="00.HNN" depth="0.0">
			<acc value="0.16730998529433" flag="0"/>
			<vel value="0.0774062825000986" flag="0"/>
			<psa03 value="0.354984667309368" flag="0"/>
			<psa10 value="0.0995384344857353" flag="0"/>
			<psa30 value="0.0217268155338328" flag="0"/>
		</comp>
		<comp name="00.HNZ" depth="0.0">
			<acc value="0.127826412138664" flag="0"/>
			<vel value="0.0348540925928683" flag="0"/>
			<psa03 value="0.156418754337478" flag="0"/>
			<psa10 value="0.0406424782258395" flag="0"/>
			<psa30 value="0.00635294591772841" flag="0"/>
		</comp>
	</station>
	<station code="RIOA" name="RIOA" netid="HL" source="National Observatory of Athens Seismic Network" insttype="" lat="38.29585" lon="21.79118">
		<comp name="00.HNE" depth="0.0">
			<acc value="0.978124054160183" flag="0"/>
			<vel value="0.222505349221215" flag="0"/>
			<psa03 value="0.898781446547843" flag="0"/>
			<psa10 value="0.257831887280519" flag="0"/>
			<psa30 value="0.0233464834134142" flag="0"/>
		</comp>
		<comp name="00.HNN" depth="0.0">
			<acc value="0.604801164391864" flag="0"/>
			<vel value="0.297231596475628" flag="0"/>
			<psa03 value="0.818827123320992" flag="0"/>
			<psa10 value="0.271414278943628" flag="0"/>
			<psa30 value="0.0433162724933474" flag="0"/>
		</comp>
		<comp name="00.HNZ" depth="0.0">
			<acc value="0.71956291032826" flag="0"/>
			<vel value="0.147224742693862" flag="0"/>
			<psa03 value="0.514624860523362" flag="0"/>
			<psa10 value="0.10444307517523" flag="0"/>
			<psa30 value="0.0221652891586918" flag="0"/>
		</comp>
	</station>
	<station code="ANX" name="ANX" netid="HP" source="University of Patras, Seismological Laboratory (PSLNET)" insttype="" lat="38.5933" lon="21.9209">
		<comp name="--.HNE" depth="0.0">
			<acc value="0.174721787960584" flag="0"/>
			<vel value="0.11051597785011" flag="0"/>
			<psa03 value="0.428809308229517" flag="0"/>
			<psa10 value="0.0585415979834791" flag="0"/>
			<psa30 value="0.00449077527827594" flag="0"/>
		</comp>
		<comp name="--.HNN" depth="0.0">
			<acc value="0.118128926646071" flag="0"/>
			<vel value="0.0635926985821335" flag="0"/>
			<psa03 value="0.399816358340876" flag="0"/>
			<psa10 value="0.0475202502272002" flag="0"/>
			<psa30 value="0.00473148834988224" flag="0"/>
		</comp>
		<comp name="--.HNZ" depth="0.0">
			<acc value="0.0517362711091845" flag="0"/>
			<vel value="0.0296254224835146" flag="0"/>
			<psa03 value="0.160311326313268" flag="0"/>
			<psa10 value="0.0242856223303317" flag="0"/>
			<psa30 value="0.0024129472029234" flag="0"/>
		</comp>
	</station>
	<station code="LTK" name="LTK" netid="HP" source="University of Patras, Seismological Laboratory (PSLNET)" insttype="" lat="38.0228" lon="22.9673">
		<comp name="--.HNE" depth="0.0">
			<acc value="0.00157846587818846" flag="0"/>
			<vel value="0.00132858617848196" flag="0"/>
			<psa03 value="0.00277401681033285" flag="0"/>
			<psa10 value="0.00263755308014712" flag="0"/>
			<psa30 value="0.000573147666780061" flag="0"/>
		</comp>
		<comp name="--.HNN" depth="0.0">
			<acc value="0.00170091974831324" flag="0"/>
			<vel value="0.00139857058535544" flag="0"/>
			<psa03 value="0.00375834535593483" flag="0"/>
			<psa10 value="0.00125636116184107" flag="0"/>
			<psa30 value="0.00043131487180014" flag="0"/>
		</comp>
		<comp name="--.HNZ" depth="0.0">
			<acc value="0.00136787313949972" flag="0"/>
			<vel value="0.000868308252876629" flag="0"/>
			<psa03 value="0.00335566549637038" flag="0"/>
			<psa10 value="0.00124830756464978" flag="0"/>
			<psa30 value="0.000420129320145572" flag="0"/>
		</comp>
	</station>
	<station code="PDO" name="PDO" netid="HP" source="University of Patras, Seismological Laboratory (PSLNET)" insttype="" lat="38.5986" lon="21.1833">
		<comp name="--.HNE" depth="0.0">
			<acc value="0.037609191707276" flag="0"/>
			<vel value="0.0156298072010065" flag="0"/>
			<psa03 value="0.120580246836242" flag="0"/>
			<psa10 value="0.00419592413666152" flag="0"/>
			<psa30 value="0.000570910556449147" flag="0"/>
		</comp>
		<comp name="--.HNN" depth="0.0">
			<acc value="0.0416087009198169" flag="0"/>
			<vel value="0.0164879346516272" flag="0"/>
			<psa03 value="0.138656098310024" flag="0"/>
			<psa10 value="0.0065395209193266" flag="0"/>
			<psa30 value="0.000516772486441039" flag="0"/>
		</comp>
		<comp name="--.HNZ" depth="0.0">
			<acc value="0.0176991161373788" flag="0"/>
			<vel value="0.00735513730421844" flag="0"/>
			<psa03 value="0.0482768409411152" flag="0"/>
			<psa10 value="0.00162682663264036" flag="0"/>
			<psa30 value="0.000376729379725848" flag="0"/>
		</comp>
	</station>
	<station code="PVO" name="PVO" netid="HP" source="University of Patras, Seismological Laboratory (PSLNET)" insttype="" lat="38.616" lon="21.525">
		<comp name="--.HNE" depth="0.0">
			<acc value="0.0485489183287847" flag="0"/>
			<vel value="0.0154363098706674" flag="0"/>
			<psa03 value="0.113555720397174" flag="0"/>
			<psa10 value="0.0121206637728898" flag="0"/>
			<psa30 value="0.0020321910246019" flag="0"/>
		</comp>
		<comp name="--.HNN" depth="0.0">
			<acc value="0.0618126285454488" flag="0"/>
			<vel value="0.0232306700294514" flag="0"/>
			<psa03 value="0.123980654539231" flag="0"/>
			<psa10 value="0.00950727148431656" flag="0"/>
			<psa30 value="0.00174181410364932" flag="0"/>
		</comp>
		<comp name="--.HNZ" depth="0.0">
			<acc value="0.0390656470555828" flag="0"/>
			<vel value="0.015898994889663" flag="0"/>
			<psa03 value="0.0829967932768941" flag="0"/>
			<psa10 value="0.00994619253124181" flag="0"/>
			<psa30 value="0.00117045612513399" flag="0"/>
		</comp>
	</station>
	<station code="SERG" name="SERG" netid="HP" source="University of Patras, Seismological Laboratory (PSLNET)" insttype="" lat="38.4133" lon="22.0566">
		<comp name="--.HNE" depth="0.0">
			<acc value="0.0854739608963875" flag="0"/>
			<vel value="0.0370703096652524" flag="0"/>
			<psa03 value="0.143264545591706" flag="0"/>
			<psa10 value="0.0386894809069519" flag="0"/>
			<psa30 value="0.00316237916377945" flag="0"/>
		</comp>
		<comp name="--.HNN" depth="0.0">
			<acc value="0.136396707149927" flag="0"/>
			<vel value="0.0332552961436883" flag="0"/>
			<psa03 value="0.198029006492471" flag="0"/>
			<psa10 value="0.0185434075329427" flag="0"/>
			<psa30 value="0.00173241824025948" flag="0"/>
		</comp>
		<comp name="--.HNZ" depth="0.0">
			<acc value="0.0801504161311267" flag="0"/>
			<vel value="0.0216682666692" flag="0"/>
			<psa03 value="0.0903345151622907" flag="0"/>
			<psa10 value="0.0194655444113453" flag="0"/>
			<psa30 value="0.00430464769874392" flag="0"/>
		</comp>
	</station>
	<station code="UPR" name="UPR" netid="HP" source="University of Patras, Seismological Laboratory (PSLNET)" insttype="" lat="38.2836" lon="21.7864">
		<comp name="--.HNE" depth="2.0">
			<acc value="0.475251011323102" flag="0"/>
			<vel value="0.205545180428122" flag="0"/>
			<psa03 value="0.807865282699515" flag="0"/>
			<psa10 value="0.189847446590254" flag="0"/>
			<psa30 value="0.0243777912759654" flag="0"/>
		</comp>
		<comp name="--.HNN" depth="2.0">
			<acc value="0.588337497470633" flag="0"/>
			<vel value="0.287806982849149" flag="0"/>
			<psa03 value="0.825941134173297" flag="0"/>
			<psa10 value="0.359049496780638" flag="0"/>
			<psa30 value="0.0386223675970245" flag="0"/>
		</comp>
		<comp name="--.HNZ" depth="2.0">
			<acc value="0.376914561669293" flag="0"/>
			<vel value="0.0958784564320133" flag="0"/>
			<psa03 value="0.389167713165728" flag="0"/>
			<psa10 value="0.205813703021984" flag="0"/>
			<psa30 value="0.0109927127440432" flag="0"/>
		</comp>
	</station>
</stationlist>
