<?xml version="1.0" encoding="UTF-8" standalone="yes"?>
<!DOCTYPE earthquake SYSTEM "stationlist.dtd">
<stationlist created="" xmlns="ch.ethz.sed.shakemap.usgs.xml">
  <station code="KALE" name="KALE" netid="HA" insttype="40," lat="38.3911" lon="22.1398">
    <comp name="--.HHZ">
      <acc value="0.0273872378" flag="0"/>
      <vel value="0.0119224754" flag="0"/>
      <psa03 value="0.0340940938" flag="0"/>
      <psa10 value="0.0130831353" flag="0"/>
      <psa30 value="0.0034068355" flag="0"/>
    </comp>
    <comp name="--.HHE">
      <acc value="0.0484439837" flag="0"/>
      <vel value="0.0134992321" flag="0"/>
      <psa03 value="0.0532775585" flag="0"/>
      <psa10 value="0.0155508118" flag="0"/>
      <psa30 value="0.0016086212" flag="0"/>
    </comp>
    <comp name="--.HHN">
      <acc value="0.0452875513" flag="0"/>
      <vel value="0.0172084914" flag="0"/>
      <psa03 value="0.0719919502" flag="0"/>
      <psa10 value="0.0178405877" flag="0"/>
      <psa30 value="0.0027680830" flag="0"/>
    </comp>
  </station>
  <station code="LAKA" name="LAKA" netid="HA" insttype="120s" lat="38.2401" lon="21.9785">
    <comp name="--.HHZ">
      <acc value="0.0566602864" flag="0"/>
      <vel value="0.0151250289" flag="0"/>
      <psa03 value="0.0407002707" flag="0"/>
      <psa10 value="0.0233328866" flag="0"/>
      <psa30 value="0.0034064875" flag="0"/>
    </comp>
    <comp name="--.HHN">
      <acc value="0.0779914937" flag="0"/>
      <vel value="0.0218691469" flag="0"/>
      <psa03 value="0.0674943397" flag="0"/>
      <psa10 value="0.0241750405" flag="0"/>
      <psa30 value="0.0026339127" flag="0"/>
    </comp>
    <comp name="--.HHE">
      <acc value="0.0498207477" flag="0"/>
      <vel value="0.0218092943" flag="0"/>
      <psa03 value="0.0414321787" flag="0"/>
      <psa10 value="0.0220983958" flag="0"/>
      <psa30 value="0.0026659836" flag="0"/>
    </comp>
  </station>
  <station code="KLV1" name="KLV1" netid="HI" insttype="CMG-5TD,ACCELEROMETER,GURALP" lat="38.0326" lon="22.108">
    <comp name="--.HNE">
      <acc value="0.0318483089" flag="0"/>
      <vel value="0.0115380098" flag="0"/>
      <psa03 value="0.0440969413" flag="0"/>
      <psa10 value="0.0232685564" flag="0"/>
      <psa30 value="0.0012005137" flag="0"/>
    </comp>
    <comp name="--.HNN">
      <acc value="0.0312863582" flag="0"/>
      <vel value="0.0126504156" flag="0"/>
      <psa03 value="0.0419008350" flag="0"/>
      <psa10 value="0.0147589798" flag="0"/>
      <psa30 value="0.0009522657" flag="0"/>
    </comp>
    <comp name="--.HNZ">
      <acc value="0.0210757362" flag="0"/>
      <vel value="0.0060141704" flag="0"/>
      <psa03 value="0.0214714701" flag="0"/>
      <psa10 value="0.0100787500" flag="0"/>
      <psa30 value="0.0010462814" flag="0"/>
    </comp>
  </station>
  <station code="MSL1" name="MSL1" netid="HI" insttype="CMG-5TD,ACCELEROMETER,GURALP" lat="38.3727" lon="21.4243">
    <comp name="--.HNZ">
      <acc value="0.0412783414" flag="0"/>
      <vel value="0.0167261780" flag="0"/>
      <psa03 value="0.1342379297" flag="0"/>
      <psa10 value="0.0192441671" flag="0"/>
      <psa30 value="0.0010128206" flag="0"/>
    </comp>
    <comp name="--.HNN">
      <acc value="0.0798222567" flag="0"/>
      <vel value="0.0381271857" flag="0"/>
      <psa03 value="0.2218258724" flag="0"/>
      <psa10 value="0.0623167020" flag="0"/>
      <psa30 value="0.0020856263" flag="0"/>
    </comp>
    <comp name="--.HNE">
      <acc value="0.0707514108" flag="0"/>
      <vel value="0.0364917062" flag="0"/>
      <psa03 value="0.2963444095" flag="0"/>
      <psa10 value="0.0532364619" flag="0"/>
      <psa30 value="0.0024458576" flag="0"/>
    </comp>
  </station>
  <station code="EVR" name="EVR" netid="HL" insttype="DR24" lat="38.9166" lon="21.8105">
    <comp name="--.HHE">
      <acc value="0.0226850434" flag="0"/>
      <vel value="0.0084333427" flag="0"/>
      <psa03 value="0.0529399841" flag="0"/>
      <psa10 value="0.0087096695" flag="0"/>
      <psa30 value="0.0016623765" flag="0"/>
    </comp>
    <comp name="--.HHN">
      <acc value="0.0295002284" flag="0"/>
      <vel value="0.0081774322" flag="0"/>
      <psa03 value="0.0452256369" flag="0"/>
      <psa10 value="0.0075299839" flag="0"/>
      <psa30 value="0.0010236514" flag="0"/>
    </comp>
    <comp name="--.HHZ">
      <acc value="0.0153961827" flag="0"/>
      <vel value="0.0092025896" flag="0"/>
      <psa03 value="0.0377355517" flag="0"/>
      <psa10 value="0.0073125115" flag="0"/>
      <psa30 value="0.0011297554" flag="0"/>
    </comp>
  </station>
  <station code="KLV" name="KLV" netid="HL" insttype="120" lat="38.0435" lon="22.1504">
    <comp name="--.HHN">
      <acc value="0.0098262922" flag="0"/>
      <vel value="0.0036929368" flag="0"/>
      <psa03 value="0.0084212059" flag="0"/>
      <psa10 value="0.0044678782" flag="0"/>
      <psa30 value="0.0006118418" flag="0"/>
    </comp>
    <comp name="--.HHZ">
      <acc value="0.0112472492" flag="0"/>
      <vel value="0.0035559535" flag="0"/>
      <psa03 value="0.0069114170" flag="0"/>
      <psa10 value="0.0040495669" flag="0"/>
      <psa30 value="0.0007504145" flag="0"/>
    </comp>
    <comp name="--.HHE">
      <acc value="0.0105270270" flag="0"/>
      <vel value="0.0029943987" flag="0"/>
      <psa03 value="0.0084917079" flag="0"/>
      <psa10 value="0.0052463869" flag="0"/>
      <psa30 value="0.0007145866" flag="0"/>
    </comp>
  </station>
  <station code="LKR" name="LKR" netid="HL" insttype="30" lat="38.6496" lon="22.9989">
    <comp name="--.HHE">
      <acc value="0.0063253134" flag="0"/>
      <vel value="0.0017742769" flag="0"/>
      <psa03 value="0.0064997696" flag="0"/>
      <psa10 value="0.0019760348" flag="0"/>
      <psa30 value="0.0006359281" flag="0"/>
    </comp>
    <comp name="--.HHN">
      <acc value="0.0043635965" flag="0"/>
      <vel value="0.0015347689" flag="0"/>
      <psa03 value="0.0094333004" flag="0"/>
      <psa10 value="0.0022896536" flag="0"/>
      <psa30 value="0.0004247586" flag="0"/>
    </comp>
    <comp name="--.HHZ">
      <acc value="0.0035073474" flag="0"/>
      <vel value="0.0013867010" flag="0"/>
      <psa03 value="0.0050937740" flag="0"/>
      <psa10 value="0.0016517385" flag="0"/>
      <psa30 value="0.0007340751" flag="0"/>
    </comp>
  </station>
  <station code="PATC" name="PATC" netid="HL" insttype="CMG-5" lat="38.2693" lon="21.76">
    <comp name="00.HNE">
      <acc value="0.3478892112" flag="0"/>
      <vel value="0.1455267048" flag="0"/>
      <psa03 value="0.5307174315" flag="0"/>
      <psa10 value="0.1794959850" flag="0"/>
      <psa30 value="0.0385725935" flag="0"/>
    </comp>
    <comp name="00.HNN">
      <acc value="0.2955778185" flag="0"/>
      <vel value="0.1531948683" flag="0"/>
      <psa03 value="0.6087573342" flag="0"/>
      <psa10 value="0.2457925010" flag="0"/>
      <psa30 value="0.0339677013" flag="0"/>
    </comp>
    <comp name="00.HNZ">
      <acc value="0.2515119015" flag="0"/>
      <vel value="0.1052119168" flag="0"/>
      <psa03 value="0.3145783944" flag="0"/>
      <psa10 value="0.1686048019" flag="0"/>
      <psa30 value="0.0139905833" flag="0"/>
    </comp>
  </station>
  <station code="PATG" name="PATG" netid="HL" insttype="CMG-5" lat="38.2386" lon="21.7266">
    <comp name="00.HNZ">
      <acc value="0.1303211992" flag="0"/>
      <vel value="0.0334434502" flag="0"/>
      <psa03 value="0.1558754635" flag="0"/>
      <psa10 value="0.0406147700" flag="0"/>
      <psa30 value="0.0058525806" flag="0"/>
    </comp>
    <comp name="00.HNE">
      <acc value="0.1621658244" flag="0"/>
      <vel value="0.0855884681" flag="0"/>
      <psa03 value="0.2584613379" flag="0"/>
      <psa10 value="0.0753677369" flag="0"/>
      <psa30 value="0.0212375000" flag="0"/>
    </comp>
    <comp name="00.HNN">
      <acc value="0.1681028469" flag="0"/>
      <vel value="0.0755038501" flag="0"/>
      <psa03 value="0.3547554563" flag="0"/>
      <psa10 value="0.0993406303" flag="0"/>
      <psa30 value="0.0184777406" flag="0"/>
    </comp>
  </station>
  <station code="RIOA" name="RIOA" netid="HL" insttype="CMG-5" lat="38.2959" lon="21.7912">
    <comp name="00.HNE">
      <acc value="0.9760889382" flag="0"/>
      <vel value="0.2275983097" flag="0"/>
      <psa03 value="0.8981037578" flag="0"/>
      <psa10 value="0.2573291289" flag="0"/>
      <psa30 value="0.0216469958" flag="0"/>
    </comp>
    <comp name="00.HNN">
      <acc value="0.6074518740" flag="0"/>
      <vel value="0.3013381909" flag="0"/>
      <psa03 value="0.8160313061" flag="0"/>
      <psa10 value="0.2723406638" flag="0"/>
      <psa30 value="0.0394972711" flag="0"/>
    </comp>
    <comp name="00.HNZ">
      <acc value="0.7275117192" flag="0"/>
      <vel value="0.1473467817" flag="0"/>
      <psa03 value="0.5131964525" flag="0"/>
      <psa10 value="0.1042786237" flag="0"/>
      <psa30 value="0.0203517449" flag="0"/>
    </comp>
  </station>
  <station code="RLS" name="RLS" netid="HL" insttype="CMG3ESPC-120s" lat="38.0559" lon="21.4647">
    <comp name="--.HHN">
      <acc value="0.0239202839" flag="0"/>
      <vel value="0.0055933386" flag="0"/>
      <psa03 value="0.0235617207" flag="0"/>
      <psa10 value="0.0026904222" flag="0"/>
      <psa30 value="0.0007270484" flag="0"/>
    </comp>
    <comp name="--.HHE">
      <acc value="0.0227938975" flag="0"/>
      <vel value="0.0064866065" flag="0"/>
      <psa03 value="0.0216176505" flag="0"/>
      <psa10 value="0.0033898050" flag="0"/>
      <psa30 value="0.0004575949" flag="0"/>
    </comp>
    <comp name="--.HHZ">
      <acc value="0.0115372013" flag="0"/>
      <vel value="0.0030580665" flag="0"/>
      <psa03 value="0.0257173973" flag="0"/>
      <psa10 value="0.0029301610" flag="0"/>
      <psa30 value="0.0009412332" flag="0"/>
    </comp>
  </station>
  <station code="VLS" name="VLS" netid="HL" insttype="120P," lat="38.1768" lon="20.5886">
    <comp name="--.HHE">
      <acc value="0.0283325519" flag="0"/>
      <vel value="0.0047170555" flag="0"/>
      <psa03 value="0.0147259417" flag="0"/>
      <psa10 value="0.0015913622" flag="0"/>
      <psa30 value="0.0000876387" flag="0"/>
    </comp>
    <comp name="--.HHN">
      <acc value="0.0193597468" flag="0"/>
      <vel value="0.0045552683" flag="0"/>
      <psa03 value="0.0136978284" flag="0"/>
      <psa10 value="0.0030506260" flag="0"/>
      <psa30 value="0.0001597239" flag="0"/>
    </comp>
    <comp name="--.HHZ">
      <acc value="0.0093104948" flag="0"/>
      <vel value="0.0026777888" flag="0"/>
      <psa03 value="0.0138621370" flag="0"/>
      <psa10 value="0.0010424287" flag="0"/>
      <psa30 value="0.0001474596" flag="0"/>
    </comp>
  </station>
  <station code="AMPL" name="AMPL" netid="HP" insttype="Compact," lat="38.9224" lon="21.2135">
    <comp name="--.HHN">
      <acc value="0.0079725779" flag="0"/>
      <vel value="0.0035586013" flag="0"/>
      <psa03 value="0.0225091742" flag="0"/>
      <psa10 value="0.0031263975" flag="0"/>
      <psa30 value="0.0006335563" flag="0"/>
    </comp>
    <comp name="--.HHE">
      <acc value="0.0106847780" flag="0"/>
      <vel value="0.0045439876" flag="0"/>
      <psa03 value="0.0255100132" flag="0"/>
      <psa10 value="0.0038114210" flag="0"/>
      <psa30 value="0.0009375322" flag="0"/>
    </comp>
    <comp name="--.HHZ">
      <acc value="0.0049051504" flag="0"/>
      <vel value="0.0024910632" flag="0"/>
      <psa03 value="0.0172413447" flag="0"/>
      <psa10 value="0.0032974239" flag="0"/>
      <psa30 value="0.0002766566" flag="0"/>
    </comp>
  </station>
  <station code="AMT" name="AMT" netid="HP" insttype="CMG-3T," lat="37.5324" lon="21.7089">
    <comp name="00.HHE">
      <acc value="0.0059998953" flag="0"/>
      <vel value="0.0044724989" flag="0"/>
      <psa03 value="0.0182884310" flag="0"/>
      <psa10 value="0.0071512417" flag="0"/>
      <psa30 value="0.0004838062" flag="0"/>
    </comp>
    <comp name="00.HHN">
      <acc value="0.0074333807" flag="0"/>
      <vel value="0.0046205333" flag="0"/>
      <psa03 value="0.0160337889" flag="0"/>
      <psa10 value="0.0093111463" flag="0"/>
      <psa30 value="0.0003869250" flag="0"/>
    </comp>
    <comp name="00.HHZ">
      <acc value="0.0052850831" flag="0"/>
      <vel value="0.0028858382" flag="0"/>
      <psa03 value="0.0127889324" flag="0"/>
      <psa10 value="0.0035193830" flag="0"/>
      <psa30 value="0.0002866225" flag="0"/>
    </comp>
  </station>
  <station code="ANX" name="ANX" netid="HP" insttype="120" lat="38.5933" lon="21.9209">
    <comp name="--.HHN">
      <acc value="0.0951769915" flag="0"/>
      <vel value="0.0488792211" flag="0"/>
      <psa03 value="0.3057408830" flag="0"/>
      <psa10 value="0.0386327076" flag="0"/>
      <psa30 value="0.0032950501" flag="0"/>
    </comp>
    <comp name="--.HHZ">
      <acc value="0.0435254829" flag="0"/>
      <vel value="0.0241230280" flag="0"/>
      <psa03 value="0.1353735018" flag="0"/>
      <psa10 value="0.0195560417" flag="0"/>
      <psa30 value="0.0017516612" flag="0"/>
    </comp>
    <comp name="--.HHE">
      <acc value="0.1375295624" flag="0"/>
      <vel value="0.0882931120" flag="0"/>
      <psa03 value="0.3405356150" flag="0"/>
      <psa10 value="0.0465706895" flag="0"/>
      <psa30 value="0.0035631474" flag="0"/>
    </comp>
  </station>
  <station code="AXS" name="AXS" netid="HP" insttype="40," lat="38.1962" lon="21.3763">
    <comp name="--.HHZ">
      <acc value="0.0126968497" flag="0"/>
      <vel value="0.0027625553" flag="0"/>
      <psa03 value="0.0093453133" flag="0"/>
      <psa10 value="0.0019010572" flag="0"/>
      <psa30 value="0.0003156016" flag="0"/>
    </comp>
    <comp name="--.HHE">
      <acc value="0.0184931390" flag="0"/>
      <vel value="0.0048660004" flag="0"/>
      <psa03 value="0.0154447742" flag="0"/>
      <psa10 value="0.0018309804" flag="0"/>
      <psa30 value="0.0003467047" flag="0"/>
    </comp>
    <comp name="--.HHN">
      <acc value="0.0187090955" flag="0"/>
      <vel value="0.0049131607" flag="0"/>
      <psa03 value="0.0204138697" flag="0"/>
      <psa10 value="0.0042032314" flag="0"/>
      <psa30 value="0.0004405615" flag="0"/>
    </comp>
  </station>
  <station code="DRO" name="DRO" netid="HP" insttype="120P," lat="37.952" lon="21.71">
    <comp name="--.HHN">
      <acc value="0.0517938364" flag="0"/>
      <vel value="0.0148016047" flag="0"/>
      <psa03 value="0.0637454374" flag="0"/>
      <psa10 value="0.0089750044" flag="0"/>
      <psa30 value="0.0017568464" flag="0"/>
    </comp>
    <comp name="--.HHZ">
      <acc value="0.0307638423" flag="0"/>
      <vel value="0.0089921316" flag="0"/>
      <psa03 value="0.0229445555" flag="0"/>
      <psa10 value="0.0100276887" flag="0"/>
      <psa30 value="0.0011634489" flag="0"/>
    </comp>
    <comp name="--.HHE">
      <acc value="0.0819926394" flag="0"/>
      <vel value="0.0218895124" flag="0"/>
      <psa03 value="0.0644513772" flag="0"/>
      <psa10 value="0.0109948367" flag="0"/>
      <psa30 value="0.0015486462" flag="0"/>
    </comp>
  </station>
  <station code="EFP" name="EFP" netid="HP" insttype="40," lat="38.4269" lon="21.9058">
    <comp name="--.HHZ">
      <acc value="0.2420146540" flag="0"/>
      <vel value="0.0739769085" flag="0"/>
      <psa03 value="0.2734078687" flag="0"/>
      <psa10 value="0.0400869255" flag="0"/>
      <psa30 value="0.0044977678" flag="0"/>
    </comp>
    <comp name="--.HHN">
      <acc value="0.3862226727" flag="0"/>
      <vel value="0.1150676127" flag="0"/>
      <psa03 value="0.4416433627" flag="0"/>
      <psa10 value="0.0686492871" flag="0"/>
      <psa30 value="0.0086320243" flag="0"/>
    </comp>
    <comp name="--.HHE">
      <acc value="0.4199254526" flag="0"/>
      <vel value="0.1977514091" flag="0"/>
      <psa03 value="0.5219544955" flag="0"/>
      <psa10 value="0.1434751298" flag="0"/>
      <psa30 value="0.0124561760" flag="0"/>
    </comp>
  </station>
  <station code="FSK" name="FSK" netid="HP" insttype="40," lat="38.4593" lon="20.5623">
    <comp name="--.HHE">
      <acc value="0.0101062547" flag="0"/>
      <vel value="0.0023944164" flag="0"/>
      <psa03 value="0.0120707165" flag="0"/>
      <psa10 value="0.0020328814" flag="0"/>
      <psa30 value="0.0003271190" flag="0"/>
    </comp>
    <comp name="--.HHN">
      <acc value="0.0067679222" flag="0"/>
      <vel value="0.0017535821" flag="0"/>
      <psa03 value="0.0103080147" flag="0"/>
      <psa10 value="0.0019795102" flag="0"/>
      <psa30 value="0.0001662558" flag="0"/>
    </comp>
    <comp name="--.HHZ">
      <acc value="0.0039028141" flag="0"/>
      <vel value="0.0011590313" flag="0"/>
      <psa03 value="0.0040996476" flag="0"/>
      <psa10 value="0.0011386681" flag="0"/>
      <psa30 value="0.0001713705" flag="0"/>
    </comp>
  </station>
  <station code="GUR" name="GUR" netid="HP" insttype="40," lat="37.9363" lon="22.3423">
    <comp name="--.HHE">
      <acc value="0.0215961325" flag="0"/>
      <vel value="0.0063918990" flag="0"/>
      <psa03 value="0.0276672055" flag="0"/>
      <psa10 value="0.0048068804" flag="0"/>
      <psa30 value="0.0003912460" flag="0"/>
    </comp>
    <comp name="--.HHN">
      <acc value="0.0150788405" flag="0"/>
      <vel value="0.0057264088" flag="0"/>
      <psa03 value="0.0324008842" flag="0"/>
      <psa10 value="0.0066732729" flag="0"/>
      <psa30 value="0.0004426554" flag="0"/>
    </comp>
    <comp name="--.HHZ">
      <acc value="0.0085083281" flag="0"/>
      <vel value="0.0027999664" flag="0"/>
      <psa03 value="0.0103366808" flag="0"/>
      <psa10 value="0.0040787424" flag="0"/>
      <psa30 value="0.0003406567" flag="0"/>
    </comp>
  </station>
  <station code="LTHK" name="LTHK" netid="HP" insttype="40," lat="37.7095" lon="20.8367">
    <comp name="--.HHN">
      <acc value="0.0058177205" flag="0"/>
      <vel value="0.0023744545" flag="0"/>
      <psa03 value="0.0129387032" flag="0"/>
      <psa10 value="0.0023306549" flag="0"/>
      <psa30 value="0.0002270135" flag="0"/>
    </comp>
    <comp name="--.HHZ">
      <acc value="0.0037754443" flag="0"/>
      <vel value="0.0018109829" flag="0"/>
      <psa03 value="0.0092400386" flag="0"/>
      <psa10 value="0.0014109982" flag="0"/>
      <psa30 value="0.0000941811" flag="0"/>
    </comp>
    <comp name="--.HHE">
      <acc value="0.0091604527" flag="0"/>
      <vel value="0.0029381448" flag="0"/>
      <psa03 value="0.0124610881" flag="0"/>
      <psa10 value="0.0028286795" flag="0"/>
      <psa30 value="0.0001659123" flag="0"/>
    </comp>
  </station>
  <station code="PLEV" name="PLEV" netid="HP" insttype="Compact," lat="38.4124" lon="21.4073">
    <comp name="--.HHN">
      <acc value="0.0955485965" flag="0"/>
      <vel value="0.0248065196" flag="0"/>
      <psa03 value="0.1028429119" flag="0"/>
      <psa10 value="0.0092856391" flag="0"/>
      <psa30 value="0.0009660589" flag="0"/>
    </comp>
    <comp name="--.HHE">
      <acc value="0.0826439138" flag="0"/>
      <vel value="0.0244213389" flag="0"/>
      <psa03 value="0.1718762668" flag="0"/>
      <psa10 value="0.0063814587" flag="0"/>
      <psa30 value="0.0005541185" flag="0"/>
    </comp>
    <comp name="--.HHZ">
      <acc value="0.0375514756" flag="0"/>
      <vel value="0.0117061844" flag="0"/>
      <psa03 value="0.0620583708" flag="0"/>
      <psa10 value="0.0075326001" flag="0"/>
      <psa30 value="0.0005009706" flag="0"/>
    </comp>
  </station>
  <station code="PVO" name="PVO" netid="HP" insttype="120P," lat="38.616" lon="21.525">
    <comp name="--.HHE">
      <acc value="0.0496644540" flag="0"/>
      <vel value="0.0160429722" flag="0"/>
      <psa03 value="0.1176551361" flag="0"/>
      <psa10 value="0.0118790068" flag="0"/>
      <psa30 value="0.0017486762" flag="0"/>
    </comp>
    <comp name="--.HHN">
      <acc value="0.0623327195" flag="0"/>
      <vel value="0.0229474417" flag="0"/>
