<stationlist xmlns:esm="https://esm-db.eu/esmws/shakemap/1/" created="1783994182">
	<station code="ROD3" name="ROD3" netid="CL" source="Corinth Riff Laboratory (CRLNET)" insttype="" lat="38.30811" lon="21.89204" esm:processing="manual (Paolucci et al 2011)" esm:quality="good">
		<comp name="00.HNE" depth="0.0">
			<acc value="0.0545338126784307" flag="0"/>
			<vel value="0.0200007066772794" flag="0"/>
			<psa03 value="0.139103520376207" flag="0"/>
			<psa10 value="0.0227634924611781" flag="0"/>
			<psa30 value="0.00175165738910534" flag="0"/>
		</comp>
		<comp name="00.HNN" depth="0.0">
			<acc value="0.0536184067020525" flag="0"/>
			<vel value="0.0203902171362372" flag="0"/>
			<psa03 value="0.15637401213086" flag="0"/>
			<psa10 value="0.015414585024127" flag="0"/>
			<psa30 value="0.00127023124589273" flag="0"/>
		</comp>
		<comp name="00.HNZ" depth="0.0">
			<acc value="0.0219125719911898" flag="0"/>
			<vel value="0.0071077933745174" flag="0"/>
			<psa03 value="0.0413865411219014" flag="0"/>
			<psa10 value="0.0121246905714855" flag="0"/>
			<psa30 value="0.000838468952026413" flag="0"/>
		</comp>
	</station>
	<station code="ARG2" name="ARG2" netid="HI" source="ITSAK Strong Motion Network" insttype="" lat="38.1783" lon="20.4878" esm:processing="manual (Paolucci et al 2011)" esm:quality="good">
		<comp name="--.HNE" depth="0.0">
			<acc value="0.214558891279501" flag="0"/>
			<vel value="0.0753255031968475" flag="0"/>
			<psa03 value="0.411583558681482" flag="0"/>
			<psa10 value="0.0760541450759369" flag="0"/>
			<psa30 value="0.00366035992344081" flag="0"/>
		</comp>
		<comp name="--.HNN" depth="0.0">
			<acc value="0.255190019073879" flag="0"/>
			<vel value="0.112351073881243" flag="0"/>
			<psa03 value="0.520844027243302" flag="0"/>
			<psa10 value="0.0676059216222748" flag="0"/>
			<psa30 value="0.00393552449414318" flag="0"/>
		</comp>
		<comp name="--.HNZ" depth="0.0">
			<acc value="0.136408361230226" flag="0"/>
			<vel value="0.0482826894476677" flag="0"/>
			<psa03 value="0.358206106185884" flag="0"/>
			<psa10 value="0.0232829494800163" flag="0"/>
			<psa30 value="0.00205321986171249" flag="0"/>
		</comp>
	</station>
	<station code="KRI1" name="KRI1" netid="HI" source="ITSAK Strong Motion Network" insttype="" lat="37.6621" lon="20.8172" esm:processing="manual (Paolucci et al 2011)" esm:quality="best">
		<comp name="--.HNE" depth="0.0">
			<acc value="2.41764897508888" flag="0"/>
			<vel value="1.34623246234243" flag="0"/>
			<psa03 value="3.66980052903727" flag="0"/>
			<psa10 value="0.753112007350405" flag="0"/>
			<psa30 value="0.0785368901211848" flag="0"/>
		</comp>
		<comp name="--.HNN" depth="0.0">
			<acc value="1.52573780145622" flag="0"/>
			<vel value="0.774819300555399" flag="0"/>
			<psa03 value="5.14128222029899" flag="0"/>
			<psa10 value="0.798361143169661" flag="0"/>
			<psa30 value="0.0533617927232818" flag="0"/>
		</comp>
		<comp name="--.HNZ" depth="0.0">
			<acc value="0.894502844972724" flag="0"/>
			<vel value="0.393832289688696" flag="0"/>
			<psa03 value="1.83143274350572" flag="0"/>
			<psa10 value="0.288753673696473" flag="0"/>
			<psa30 value="0.0141685145698081" flag="0"/>
		</comp>
	</station>
	<station code="MSL1" name="MSL1" netid="HI" source="ITSAK Strong Motion Network" insttype="" lat="38.3727" lon="21.4243" esm:processing="manual (Paolucci et al 2011)" esm:quality="good">
		<comp name="--.HNE" depth="0.0">
			<acc value="0.0445371808272937" flag="0"/>
			<vel value="0.0315106159632219" flag="0"/>
			<psa03 value="0.113779431430265" flag="0"/>
			<psa10 value="0.0775279533619427" flag="0"/>
			<psa30 value="0.00385409367809793" flag="0"/>
		</comp>
		<comp name="--.HNN" depth="0.0">
			<acc value="0.0568142873393877" flag="0"/>
			<vel value="0.0396584913455202" flag="0"/>
			<psa03 value="0.144785780616727" flag="0"/>
			<psa10 value="0.0651415208817404" flag="0"/>
			<psa30 value="0.00557085214604102" flag="0"/>
		</comp>
		<comp name="--.HNZ" depth="0.0">
			<acc value="0.0392982090163997" flag="0"/>
			<vel value="0.0166418122768935" flag="0"/>
			<psa03 value="0.0619232139596881" flag="0"/>
			<psa10 value="0.0408438181556217" flag="0"/>
			<psa30 value="0.00172570690926674" flag="0"/>
		</comp>
	</station>
	<station code="PYL1" name="PYL1" netid="HI" source="ITSAK Strong Motion Network" insttype="" lat="36.914188" lon="21.695161" esm:processing="manual (Paolucci et al 2011)" esm:quality="best">
		<comp name="--.HNE" depth="0.0">
			<acc value="0.0137796197378491" flag="0"/>
			<vel value="0.00932490716990519" flag="0"/>
			<psa03 value="0.0361517029475636" flag="0"/>
			<psa10 value="0.0124750220493065" flag="0"/>
			<psa30 value="0.00161564108098579" flag="0"/>
		</comp>
		<comp name="--.HNN" depth="0.0">
			<acc value="0.00893254197467892" flag="0"/>
			<vel value="0.00799883426221407" flag="0"/>
			<psa03 value="0.0267110973511082" flag="0"/>
			<psa10 value="0.00885493011182216" flag="0"/>
			<psa30 value="0.00275343539528844" flag="0"/>
		</comp>
		<comp name="--.HNZ" depth="0.0">
			<acc value="0.00584398341758311" flag="0"/>
			<vel value="0.00424040938635172" flag="0"/>
			<psa03 value="0.0114540048942776" flag="0"/>
			<psa10 value="0.00571000040862384" flag="0"/>
			<psa30 value="0.000991039876594719" flag="0"/>
		</comp>
	</station>
	<station code="ITM" name="ITM" netid="HL" source="National Observatory of Athens Seismic Network" insttype="" lat="37.17872" lon="21.92522" esm:processing="manual (Paolucci et al 2011)" esm:quality="best">
		<comp name="--.HNE" depth="0.0">
			<acc value="0.00900307795532488" flag="0"/>
			<vel value="0.0083245302041034" flag="0"/>
			<psa03 value="0.0203649923099733" flag="0"/>
			<psa10 value="0.0119797420366314" flag="0"/>
			<psa30 value="0.00122539315545053" flag="0"/>
		</comp>
		<comp name="--.HNN" depth="0.0">
			<acc value="0.0115398567638743" flag="0"/>
			<vel value="0.0105315235447349" flag="0"/>
			<psa03 value="0.0336573832822756" flag="0"/>
			<psa10 value="0.00802782024119939" flag="0"/>
			<psa30 value="0.00154984662806732" flag="0"/>
		</comp>
		<comp name="--.HNZ" depth="0.0">
			<acc value="0.00576525822485885" flag="0"/>
			<vel value="0.00610882222889131" flag="0"/>
			<psa03 value="0.0134024086771187" flag="0"/>
			<psa10 value="0.011733311336804" flag="0"/>
			<psa30 value="0.00122529419056191" flag="0"/>
		</comp>
	</station>
	<station code="LXRA" name="LXRA" netid="HL" source="National Observatory of Athens Seismic Network" insttype="" lat="38.20006" lon="20.43718" esm:processing="manual (Paolucci et al 2011)" esm:quality="good">
		<comp name="00.HNE" depth="0.0">
			<acc value="0.259863229084941" flag="0"/>
			<vel value="0.140759029073841" flag="0"/>
			<psa03 value="0.632654801582363" flag="0"/>
			<psa10 value="0.111465811926034" flag="0"/>
			<psa30 value="0.00910056482615647" flag="0"/>
		</comp>
		<comp name="00.HNN" depth="0.0">
			<acc value="0.24195975591782" flag="0"/>
			<vel value="0.102075965068506" flag="0"/>
			<psa03 value="0.616502864993167" flag="0"/>
			<psa10 value="0.12849916998561" flag="0"/>
			<psa30 value="0.0114508729398143" flag="0"/>
		</comp>
		<comp name="00.HNZ" depth="0.0">
			<acc value="0.232503183803308" flag="0"/>
			<vel value="0.0554469136003553" flag="0"/>
			<psa03 value="0.394849973406248" flag="0"/>
			<psa10 value="0.0400746996238536" flag="0"/>
			<psa30 value="0.00460934212581436" flag="0"/>
		</comp>
	</station>
	<station code="PATC" name="PATC" netid="HL" source="National Observatory of Athens Seismic Network" insttype="" lat="38.26933" lon="21.76001" esm:processing="manual (Paolucci et al 2011)" esm:quality="best">
		<comp name="00.HNE" depth="0.0">
			<acc value="0.0327791371390477" flag="0"/>
			<vel value="0.0220937057228789" flag="0"/>
			<psa03 value="0.11093920334421" flag="0"/>
			<psa10 value="0.0392830160570107" flag="0"/>
			<psa30 value="0.00537783000486038" flag="0"/>
		</comp>
		<comp name="00.HNN" depth="0.0">
			<acc value="0.0298559507923111" flag="0"/>
			<vel value="0.0293903290893557" flag="0"/>
			<psa03 value="0.0713590605209118" flag="0"/>
			<psa10 value="0.0305043632643418" flag="0"/>
			<psa30 value="0.00690574788858953" flag="0"/>
		</comp>
		<comp name="00.HNZ" depth="0.0">
			<acc value="0.0218202206081327" flag="0"/>
			<vel value="0.0159976612245305" flag="0"/>
			<psa03 value="0.0507090623515353" flag="0"/>
			<psa10 value="0.022706932972858" flag="0"/>
			<psa30 value="0.00303583694263256" flag="0"/>
		</comp>
	</station>
	<station code="PATG" name="PATG" netid="HL" source="National Observatory of Athens Seismic Network" insttype="" lat="38.23865" lon="21.72657" esm:processing="manual (Paolucci et al 2011)" esm:quality="good">
		<comp name="00.HNE" depth="0.0">
			<acc value="0.0559967896522641" flag="0"/>
			<vel value="0.0302967378269937" flag="0"/>
			<psa03 value="0.143440898089012" flag="0"/>
			<psa10 value="0.0414177512227568" flag="0"/>
			<psa30 value="0.00563866936752146" flag="0"/>
		</comp>
		<comp name="00.HNN" depth="0.0">
			<acc value="0.0425597424936966" flag="0"/>
			<vel value="0.0271844166718191" flag="0"/>
			<psa03 value="0.110257199831882" flag="0"/>
			<psa10 value="0.0503804999610585" flag="0"/>
			<psa30 value="0.00854417517635728" flag="0"/>
		</comp>
		<comp name="00.HNZ" depth="0.0">
			<acc value="0.0337568149529852" flag="0"/>
			<vel value="0.0179406856067408" flag="0"/>
			<psa03 value="0.0574463107444116" flag="0"/>
			<psa10 value="0.0244099245377096" flag="0"/>
			<psa30 value="0.00485272105227309" flag="0"/>
		</comp>
	</station>
	<station code="SMHA" name="SMHA" netid="HL" source="National Observatory of Athens Seismic Network" insttype="" lat="38.25123" lon="20.6477" esm:processing="manual (Paolucci et al 2011)" esm:quality="good">
		<comp name="00.HNE" depth="0.0">
			<acc value="0.400581345889616" flag="0"/>
			<vel value="0.193830808552502" flag="0"/>
			<psa03 value="1.13776912162157" flag="0"/>
			<psa10 value="0.0982409004776361" flag="0"/>
			<psa30 value="0.00598551359422453" flag="0"/>
		</comp>
		<comp name="00.HNN" depth="0.0">
			<acc value="0.63595918370116" flag="0"/>
			<vel value="0.303932393036548" flag="0"/>
			<psa03 value="2.134608574008" flag="0"/>
			<psa10 value="0.0819861236784771" flag="0"/>
			<psa30 value="0.00632242841316672" flag="0"/>
		</comp>
		<comp name="00.HNZ" depth="0.0">
			<acc value="0.286631652989942" flag="0"/>
			<vel value="0.0899257513623222" flag="0"/>
			<psa03 value="0.625125286483397" flag="0"/>
			<psa10 value="0.0430223775211892" flag="0"/>
			<psa30 value="0.00280586816666341" flag="0"/>
		</comp>
	</station>
	<station code="ZARA" name="ZARA" netid="HL" source="National Observatory of Athens Seismic Network" insttype="" lat="37.4865" lon="21.6491" esm:processing="manual (Paolucci et al 2011)" esm:quality="best">
		<comp name="00.HNE" depth="0.0">
			<acc value="0.0502338474551625" flag="0"/>
			<vel value="0.0253346542698582" flag="0"/>
			<psa03 value="0.138673353095922" flag="0"/>
			<psa10 value="0.0224951976964359" flag="0"/>
			<psa30 value="0.00313344778386952" flag="0"/>
		</comp>
		<comp name="00.HNN" depth="0.0">
			<acc value="0.0546495424448139" flag="0"/>
			<vel value="0.0267815198939381" flag="0"/>
			<psa03 value="0.179852185157972" flag="0"/>
			<psa10 value="0.0300956968172241" flag="0"/>
			<psa30 value="0.00342521669546437" flag="0"/>
		</comp>
		<comp name="00.HNZ" depth="0.0">
			<acc value="0.0253227140963871" flag="0"/>
			<vel value="0.0137037495222854" flag="0"/>
			<psa03 value="0.0823713889919519" flag="0"/>
			<psa10 value="0.0166608180724211" flag="0"/>
			<psa30 value="0.00194463715600247" flag="0"/>
		</comp>
	</station>
	<station code="ANX" name="ANX" netid="HP" source="University of Patras, Seismological Laboratory (PSLNET)" insttype="" lat="38.5933" lon="21.9209" esm:processing="automatic (Paolucci et al 2011)" esm:quality="best">
		<comp name="--.HNE" depth="0.0">
			<acc value="0.0172464718757261" flag="0"/>
			<vel value="0.0128485547159476" flag="0"/>
			<psa03 value="0.0502649548063632" flag="0"/>
			<psa10 value="0.0220799589389027" flag="0"/>
			<psa30 value="0.00241184518957364" flag="0"/>
		</comp>
		<comp name="--.HNN" depth="0.0">
			<acc value="0.0146535039701633" flag="0"/>
			<vel value="0.0137754502296905" flag="0"/>
			<psa03 value="0.0388291503656384" flag="0"/>
			<psa10 value="0.0208803913484592" flag="0"/>
			<psa30 value="0.00314984011978455" flag="0"/>
		</comp>
		<comp name="--.HNZ" depth="0.0">
			<acc value="0.00881083240156596" flag="0"/>
			<vel value="0.00586634313981529" flag="0"/>
			<psa03 value="0.0372660650480897" flag="0"/>
			<psa10 value="0.0101180324575019" flag="0"/>
			<psa30 value="0.00109220631164122" flag="0"/>
		</comp>
	</station>
	<station code="FSK" name="FSK" netid="HP" source="University of Patras, Seismological Laboratory (PSLNET)" insttype="" lat="38.4593" lon="20.5623" esm:processing="manual (Paolucci et al 2011)" esm:quality="good">
		<comp name="--.HNE" depth="0.0">
			<acc value="0.0883334187754356" flag="0"/>
			<vel value="0.0312287393354993" flag="0"/>
			<psa03 value="0.164824179209624" flag="0"/>
			<psa10 value="0.0301180933008692" flag="0"/>
			<psa30 value="0.00327824820952174" flag="0"/>
		</comp>
		<comp name="--.HNN" depth="0.0">
			<acc value="0.0561902757747801" flag="0"/>
			<vel value="0.0291495686842959" flag="0"/>
			<psa03 value="0.0911887595577895" flag="0"/>
			<psa10 value="0.0289405602950866" flag="0"/>
			<psa30 value="0.00279769366680839" flag="0"/>
		</comp>
		<comp name="--.HNZ" depth="0.0">
			<acc value="0.0357528409414035" flag="0"/>
			<vel value="0.0177394100400826" flag="0"/>
			<psa03 value="0.0576445738784479" flag="0"/>
			<psa10 value="0.0209981772761908" flag="0"/>
			<psa30 value="0.00219247399064177" flag="0"/>
		</comp>
	</station>
	<station code="ARS1" name="ARS1" netid="HI" source="ITSAK Strong Motion Network" insttype="" lat="37.6349" lon="22.7293" esm:processing="discarded" esm:quality="bad">
		<comp name="--.HNE" depth="0.0">
			<acc value="0" flag="1"/>
			<vel value="0" flag="1"/>
			<psa03 value="0" flag="1"/>
			<psa10 value="0" flag="1"/>
			<psa30 value="0" flag="1"/>
		</comp>
		<comp name="--.HNN" depth="0.0">
			<acc value="0" flag="1"/>
			<vel value="0" flag="1"/>
			<psa03 value="0" flag="1"/>
			<psa10 value="0" flag="1"/>
			<psa30 value="0" flag="1"/>
		</comp>
		<comp name="--.HNZ" depth="0.0">
			<acc value="0" flag="1"/>
			<vel value="0" flag="1"/>
			<psa03 value="0" flag="1"/>
			<psa10 value="0" flag="1"/>
			<psa30 value="0" flag="1"/>
		</comp>
	</station>
	<station code="ART2" name="ART2" netid="HI" source="ITSAK Strong Motion Network" insttype="" lat="39.1474" lon="20.9937" esm:processing="discarded" esm:quality="good">
		<comp name="--.HNE" depth="0.0">
			<acc value="0" flag="1"/>
			<vel value="0" flag="1"/>
			<psa03 value="0" flag="1"/>
			<psa10 value="0" flag="1"/>
			<psa30 value="0" flag="1"/>
		</comp>
		<comp name="--.HNN" depth="0.0">
			<acc value="0" flag="1"/>
			<vel value="0" flag="1"/>
			<psa03 value="0" flag="1"/>
			<psa10 value="0" flag="1"/>
			<psa30 value="0" flag="1"/>
		</comp>
		<comp name="--.HNZ" depth="0.0">
			<acc value="0" flag="1"/>
			<vel value="0" flag="1"/>
			<psa03 value="0" flag="1"/>
			<psa10 value="0" flag="1"/>
			<psa30 value="0" flag="1"/>
		</comp>
	</station>
	<station code="KLV1" name="KLV1" netid="HI" source="ITSAK Strong Motion Network" insttype="" lat="38.03256" lon="22.10797" esm:processing="discarded" esm:quality="bad">
		<comp name="--.HNE" depth="0.0">
			<acc value="0" flag="1"/>
			<vel value="0" flag="1"/>
			<psa03 value="0" flag="1"/>
			<psa10 value="0" flag="1"/>
			<psa30 value="0" flag="1"/>
		</comp>
		<comp name="--.HNN" depth="0.0">
			<acc value="0" flag="1"/>
			<vel value="0" flag="1"/>
			<psa03 value="0" flag="1"/>
			<psa10 value="0" flag="1"/>
			<psa30 value="0" flag="1"/>
		</comp>
		<comp name="--.HNZ" depth="0.0">
			<acc value="0" flag="1"/>
			<vel value="0" flag="1"/>
			<psa03 value="0" flag="1"/>
			<psa10 value="0" flag="1"/>
			<psa30 value="0" flag="1"/>
		</comp>
	</station>
	<station code="LAM2" name="LAM2" netid="HI" source="ITSAK Strong Motion Network" insttype="" lat="38.90203" lon="22.431301" esm:processing="discarded" esm:quality="bad">
		<comp name="--.HNE" depth="0.0">
			<acc value="0" flag="1"/>
			<vel value="0" flag="1"/>
			<psa03 value="0" flag="1"/>
			<psa10 value="0" flag="1"/>
			<psa30 value="0" flag="1"/>
		</comp>
		<comp name="--.HNN" depth="0.0">
			<acc value="0" flag="1"/>
			<vel value="0" flag="1"/>
			<psa03 value="0" flag="1"/>
			<psa10 value="0" flag="1"/>
			<psa30 value="0" flag="1"/>
		</comp>
		<comp name="--.HNZ" depth="0.0">
			<acc value="0" flag="1"/>
			<vel value="0" flag="1"/>
			<psa03 value="0" flag="1"/>
			<psa10 value="0" flag="1"/>
			<psa30 value="0" flag="1"/>
		</comp>
	</station>
	<station code="ARTB" name="ARTB" netid="HL" source="National Observatory of Athens Seismic Network" insttype="" lat="39.15702" lon="20.9785" esm:processing="discarded" esm:quality="good">
		<comp name="00.HNE" depth="0.0">
			<acc value="0" flag="1"/>
			<vel value="0" flag="1"/>
			<psa03 value="0" flag="1"/>
			<psa10 value="0" flag="1"/>
			<psa30 value="0" flag="1"/>
		</comp>
		<comp name="00.HNN" depth="0.0">
			<acc value="0" flag="1"/>
			<vel value="0" flag="1"/>
			<psa03 value="0" flag="1"/>
			<psa10 value="0" flag="1"/>
			<psa30 value="0" flag="1"/>
		</comp>
		<comp name="00.HNZ" depth="0.0">
			<acc value="0" flag="1"/>
			<vel value="0" flag="1"/>
			<psa03 value="0" flag="1"/>
			<psa10 value="0" flag="1"/>
			<psa30 value="0" flag="1"/>
		</comp>
	</station>
	<station code="DLFA" name="DLFA" netid="HL" source="National Observatory of Athens Seismic Network" insttype="" lat="38.47836" lon="22.49583" esm:processing="discarded" esm:quality="bad">
		<comp name="00.HNE" depth="0.0">
			<acc value="0" flag="1"/>
			<vel value="0" flag="1"/>
			<psa03 value="0" flag="1"/>
			<psa10 value="0" flag="1"/>
			<psa30 value="0" flag="1"/>
		</comp>
		<comp name="00.HNN" depth="0.0">
			<acc value="0" flag="1"/>
			<vel value="0" flag="1"/>
			<psa03 value="0" flag="1"/>
			<psa10 value="0" flag="1"/>
			<psa30 value="0" flag="1"/>
		</comp>
		<comp name="00.HNZ" depth="0.0">
			<acc value="0" flag="1"/>
			<vel value="0" flag="1"/>
			<psa03 value="0" flag="1"/>
			<psa10 value="0" flag="1"/>
			<psa30 value="0" flag="1"/>
		</comp>
	</station>
	<station code="KIAA" name="KIAA" netid="HL" source="National Observatory of Athens Seismic Network" insttype="" lat="38.0139" lon="22.7495" esm:processing="discarded" esm:quality="good">
		<comp name="00.HNE" depth="0.0">
			<acc value="0" flag="1"/>
			<vel value="0" flag="1"/>
			<psa03 value="0" flag="1"/>
			<psa10 value="0" flag="1"/>
			<psa30 value="0" flag="1"/>
		</comp>
		<comp name="00.HNN" depth="0.0">
			<acc value="0" flag="1"/>
			<vel value="0" flag="1"/>
			<psa03 value="0" flag="1"/>
			<psa10 value="0" flag="1"/>
			<psa30 value="0" flag="1"/>
		</comp>
		<comp name="00.HNZ" depth="0.0">
			<acc value="0" flag="1"/>
			<vel value="0" flag="1"/>
			<psa03 value="0" flag="1"/>
			<psa10 value="0" flag="1"/>
			<psa30 value="0" flag="1"/>
		</comp>
	</station>
	<station code="PRGA" name="PRGA" netid="HL" source="National Observatory of Athens Seismic Network" insttype="" lat="39.28557" lon="20.40157" esm:processing="discarded" esm:quality="bad">
		<comp name="00.HNE" depth="0.0">
			<acc value="0" flag="1"/>
			<vel value="0" flag="1"/>
			<psa03 value="0" flag="1"/>
			<psa10 value="0" flag="1"/>
			<psa30 value="0" flag="1"/>
		</comp>
		<comp name="00.HNN" depth="0.0">
			<acc value="0" flag="1"/>
			<vel value="0" flag="1"/>
			<psa03 value="0" flag="1"/>
			<psa10 value="0" flag="1"/>
			<psa30 value="0" flag="1"/>
		</comp>
		<comp name="00.HNZ" depth="0.0">
			<acc value="0" flag="1"/>
			<vel value="0" flag="1"/>
			<psa03 value="0" flag="1"/>
			<psa10 value="0" flag="1"/>
