<?xml version="1.0" encoding="UTF-8" standalone="yes"?>
<!DOCTYPE earthquake SYSTEM "stationlist.dtd">
<stationlist created="" xmlns="ch.ethz.sed.shakemap.usgs.xml">
  <station code="ARG2" name="ARG2" netid="HI" source="NOA" insttype="CMG-5TD,ACCELEROMETER,GURALP" lat="38.1783" lon="20.4878">
    <comp name="--.HNE">
      <acc value="0.2136116738" flag="0"/>
      <vel value="0.0745564401" flag="0"/>
      <psa03 value="0.4050596444" flag="0"/>
      <psa10 value="0.0758354642" flag="0"/>
      <psa30 value="0.0034404680" flag="0"/>
    </comp>
    <comp name="--.HNN">
      <acc value="0.2535841149" flag="0"/>
      <vel value="0.1112765002" flag="0"/>
      <psa03 value="0.5060443043" flag="0"/>
      <psa10 value="0.0675504840" flag="0"/>
      <psa30 value="0.0036619450" flag="0"/>
    </comp>
    <comp name="--.HNZ">
      <acc value="0.1361973807" flag="0"/>
      <vel value="0.0468278230" flag="0"/>
      <psa03 value="0.3429045579" flag="0"/>
      <psa10 value="0.0231237066" flag="0"/>
      <psa30 value="0.0018993098" flag="0"/>
    </comp>
  </station>
  <station code="KRI1" name="KRI1" netid="HI" source="NOA" insttype="CMG-5TD,ACCELEROMETER,GURALP" lat="37.6621" lon="20.8172">
    <comp name="--.HNE">
      <acc value="2.4083339066" flag="0"/>
      <vel value="1.3487126227" flag="0"/>
      <psa03 value="3.6673918949" flag="0"/>
      <psa10 value="0.7502556932" flag="0"/>
      <psa30 value="0.0770456990" flag="0"/>
    </comp>
    <comp name="--.HNN">
      <acc value="1.5237882412" flag="0"/>
      <vel value="0.7686645105" flag="0"/>
      <psa03 value="5.1805597820" flag="0"/>
      <psa10 value="0.7958535669" flag="0"/>
      <psa30 value="0.0530737227" flag="0"/>
    </comp>
    <comp name="--.HNZ">
      <acc value="0.8858195244" flag="0"/>
      <vel value="0.3922481640" flag="0"/>
      <psa03 value="1.8138477307" flag="0"/>
      <psa10 value="0.2882245211" flag="0"/>
      <psa30 value="0.0145118449" flag="0"/>
    </comp>
  </station>
  <station code="ITM" name="ITM" netid="HL" source="NOA" insttype="DR24" lat="37.1787" lon="21.9252">
    <comp name="--.HHE">
      <acc value="0.0091528415" flag="0"/>
      <vel value="0.0085042992" flag="0"/>
      <psa03 value="0.0208666765" flag="0"/>
      <psa10 value="0.0120647329" flag="0"/>
      <psa30 value="0.0012026905" flag="0"/>
    </comp>
    <comp name="--.HHN">
      <acc value="0.0119907267" flag="0"/>
      <vel value="0.0105483941" flag="0"/>
      <psa03 value="0.0349114486" flag="0"/>
      <psa10 value="0.0082005276" flag="0"/>
      <psa30 value="0.0013897876" flag="0"/>
    </comp>
    <comp name="--.HHZ">
      <acc value="0.0062317138" flag="0"/>
      <vel value="0.0065871548" flag="0"/>
      <psa03 value="0.0141574373" flag="0"/>
      <psa10 value="0.0126616327" flag="0"/>
      <psa30 value="0.0011531364" flag="0"/>
    </comp>
  </station>
  <station code="RLS" name="RLS" netid="HL" source="NOA" insttype="120" lat="38.0559" lon="21.4647">
    <comp name="--.HHE">
      <acc value="0.0754954136" flag="0"/>
      <vel value="0.0248523287" flag="0"/>
      <psa03 value="0.1076376251" flag="0"/>
      <psa10 value="0.0171669691" flag="0"/>
      <psa30 value="0.0017956111" flag="0"/>
    </comp>
    <comp name="--.HHN">
      <acc value="0.0543461274" flag="0"/>
      <vel value="0.0161912275" flag="0"/>
      <psa03 value="0.0732033425" flag="0"/>
      <psa10 value="0.0204665898" flag="0"/>
      <psa30 value="0.0017412390" flag="0"/>
    </comp>
    <comp name="--.HHZ">
      <acc value="0.0239723589" flag="0"/>
      <vel value="0.0084656402" flag="0"/>
      <psa03 value="0.0512196895" flag="0"/>
      <psa10 value="0.0102475454" flag="0"/>
      <psa30 value="0.0018166148" flag="0"/>
    </comp>
  </station>
  <station code="VLS" name="VLS" netid="HL" source="NOA" insttype="120P," lat="38.1768" lon="20.5886">
    <comp name="--.HHE">
      <acc value="0.2174483257" flag="0"/>
      <vel value="0.0624381107" flag="0"/>
      <psa03 value="0.3170121604" flag="0"/>
      <psa10 value="0.0237503313" flag="0"/>
      <psa30 value="0.0023978516" flag="0"/>
    </comp>
    <comp name="--.HHN">
      <acc value="0.2078540285" flag="0"/>
      <vel value="0.0672700622" flag="0"/>
      <psa03 value="0.3930029994" flag="0"/>
      <psa10 value="0.0288252339" flag="0"/>
      <psa30 value="0.0013034625" flag="0"/>
    </comp>
    <comp name="--.HHZ">
      <acc value="0.1461351999" flag="0"/>
      <vel value="0.0420232047" flag="0"/>
      <psa03 value="0.2223339092" flag="0"/>
      <psa10 value="0.0203633194" flag="0"/>
      <psa30 value="0.0014262875" flag="0"/>
    </comp>
  </station>
  <station code="AMT" name="AMT" netid="HP" source="NOA" insttype="CMG-3T," lat="37.5324" lon="21.7089">
    <comp name="00.HHE">
      <acc value="0.0482913629" flag="0"/>
      <vel value="0.0321297644" flag="0"/>
      <psa03 value="0.1441922097" flag="0"/>
      <psa10 value="0.0293888015" flag="0"/>
      <psa30 value="0.0017713430" flag="0"/>
    </comp>
    <comp name="00.HHN">
      <acc value="0.0477496890" flag="0"/>
      <vel value="0.0256237820" flag="0"/>
      <psa03 value="0.1207669422" flag="0"/>
      <psa10 value="0.0310307611" flag="0"/>
      <psa30 value="0.0011895793" flag="0"/>
    </comp>
    <comp name="00.HHZ">
      <acc value="0.0356740379" flag="0"/>
      <vel value="0.0190362192" flag="0"/>
      <psa03 value="0.0653048240" flag="0"/>
      <psa10 value="0.0114865683" flag="0"/>
      <psa30 value="0.0008720072" flag="0"/>
    </comp>
  </station>
  <station code="AXS" name="AXS" netid="HP" source="NOA" insttype="40," lat="38.1962" lon="21.3763">
    <comp name="--.HHE">
      <acc value="0.0433768666" flag="0"/>
      <vel value="0.0164586106" flag="0"/>
      <psa03 value="0.0451947448" flag="0"/>
      <psa10 value="0.0126953981" flag="0"/>
      <psa30 value="0.0014215228" flag="0"/>
    </comp>
    <comp name="--.HHE">
      <acc value="0.0433768666" flag="0"/>
      <vel value="0.0164586106" flag="0"/>
      <psa03 value="0.0451947448" flag="0"/>
      <psa10 value="0.0126953981" flag="0"/>
      <psa30 value="0.0014215228" flag="0"/>
    </comp>
    <comp name="--.HHN">
      <acc value="0.0260107581" flag="0"/>
      <vel value="0.0144645293" flag="0"/>
      <psa03 value="0.0825388638" flag="0"/>
      <psa10 value="0.0146416959" flag="0"/>
      <psa30 value="0.0014830676" flag="0"/>
    </comp>
    <comp name="--.HHN">
      <acc value="0.0260107581" flag="0"/>
      <vel value="0.0144645293" flag="0"/>
      <psa03 value="0.0825388638" flag="0"/>
      <psa10 value="0.0146416959" flag="0"/>
      <psa30 value="0.0014830676" flag="0"/>
    </comp>
    <comp name="--.HHZ">
      <acc value="0.0157355403" flag="0"/>
      <vel value="0.0073006320" flag="0"/>
      <psa03 value="0.0301291356" flag="0"/>
      <psa10 value="0.0107778285" flag="0"/>
      <psa30 value="0.0005220071" flag="0"/>
    </comp>
    <comp name="--.HHZ">
      <acc value="0.0157355403" flag="0"/>
      <vel value="0.0073006320" flag="0"/>
      <psa03 value="0.0301291356" flag="0"/>
      <psa10 value="0.0107778285" flag="0"/>
      <psa30 value="0.0005220071" flag="0"/>
    </comp>
  </station>
  <station code="DRO" name="DRO" netid="HP" source="NOA" insttype="120P," lat="37.952" lon="21.71">
    <comp name="--.HHE">
      <acc value="0.0621495214" flag="0"/>
      <vel value="0.0228655887" flag="0"/>
      <psa03 value="0.1612824293" flag="0"/>
      <psa10 value="0.0223708580" flag="0"/>
      <psa30 value="0.0017996015" flag="0"/>
    </comp>
    <comp name="--.HHN">
      <acc value="0.0499035957" flag="0"/>
      <vel value="0.0225026237" flag="0"/>
      <psa03 value="0.1277504237" flag="0"/>
      <psa10 value="0.0238539793" flag="0"/>
      <psa30 value="0.0015202769" flag="0"/>
    </comp>
    <comp name="--.HHZ">
      <acc value="0.0256176253" flag="0"/>
      <vel value="0.0119228440" flag="0"/>
      <psa03 value="0.0911401968" flag="0"/>
      <psa10 value="0.0164215369" flag="0"/>
      <psa30 value="0.0012860045" flag="0"/>
    </comp>
  </station>
  <station code="FSK" name="FSK" netid="HP" source="NOA" insttype="40," lat="38.4593" lon="20.5623">
    <comp name="--.HHE">
      <acc value="0.0833181171" flag="0"/>
      <vel value="0.0306734176" flag="0"/>
      <psa03 value="0.1503698035" flag="0"/>
      <psa10 value="0.0314832273" flag="0"/>
      <psa30 value="0.0039521935" flag="0"/>
    </comp>
    <comp name="--.HHN">
      <acc value="0.0562571903" flag="0"/>
      <vel value="0.0244548057" flag="0"/>
      <psa03 value="0.0949027896" flag="0"/>
      <psa10 value="0.0243769283" flag="0"/>
      <psa30 value="0.0020944766" flag="0"/>
    </comp>
    <comp name="--.HHZ">
      <acc value="0.0348852121" flag="0"/>
      <vel value="0.0174623465" flag="0"/>
      <psa03 value="0.0577820784" flag="0"/>
      <psa10 value="0.0207215266" flag="0"/>
      <psa30 value="0.0023134021" flag="0"/>
    </comp>
  </station>
  <station code="LTHK" name="LTHK" netid="HP" source="NOA" insttype="40," lat="37.7095" lon="20.8367">
    <comp name="--.HHE">
      <acc value="2.1187993126" flag="0"/>
      <vel value="0.5278292318" flag="0"/>
      <psa03 value="2.1476880759" flag="0"/>
      <psa10 value="0.3619540007" flag="0"/>
      <psa30 value="0.0339435381" flag="0"/>
    </comp>
    <comp name="--.HHN">
      <acc value="2.9993760854" flag="0"/>
      <vel value="0.5811304330" flag="0"/>
      <psa03 value="4.4151320891" flag="0"/>
      <psa10 value="0.3280744785" flag="0"/>
      <psa30 value="0.0225565953" flag="0"/>
    </comp>
    <comp name="--.HHZ">
      <acc value="1.5424477749" flag="0"/>
      <vel value="0.3826593686" flag="0"/>
      <psa03 value="1.9555219204" flag="0"/>
      <psa10 value="0.1913309755" flag="0"/>
      <psa30 value="0.0129084737" flag="0"/>
    </comp>
  </station>
  <station code="DMLN" name="DMLN" netid="HT" source="NOA" insttype="1s-100Hz," lat="38.2385" lon="20.3734">
    <comp name="--.HHE">
      <acc value="0.1571965170" flag="0"/>
      <vel value="0.0736637897" flag="0"/>
      <psa03 value="0.2843917402" flag="0"/>
      <psa10 value="0.0926752397" flag="0"/>
      <psa30 value="0.0061951567" flag="0"/>
    </comp>
    <comp name="--.HHN">
      <acc value="0.2707686682" flag="0"/>
      <vel value="0.0839460533" flag="0"/>
      <psa03 value="0.3761348642" flag="0"/>
      <psa10 value="0.0852385637" flag="0"/>
      <psa30 value="0.0043440577" flag="0"/>
    </comp>
    <comp name="--.HHZ">
      <acc value="0.1216645724" flag="0"/>
      <vel value="0.0444053399" flag="0"/>
      <psa03 value="0.3043545276" flag="0"/>
      <psa10 value="0.0349403169" flag="0"/>
      <psa30 value="0.0019643384" flag="0"/>
    </comp>
  </station>
  <station code="EVGI" name="EVGI" netid="HT" source="NOA" insttype="30" lat="38.621" lon="20.656">
    <comp name="--.HHE">
      <acc value="0.0751969551" flag="0"/>
      <vel value="0.0178372917" flag="0"/>
      <psa03 value="0.1140815704" flag="0"/>
      <psa10 value="0.0110221032" flag="0"/>
      <psa30 value="0.0009376347" flag="0"/>
    </comp>
    <comp name="--.HHN">
      <acc value="nan" flag="0"/>
      <vel value="-100.0000000000" flag="0"/>
      <psa03 value="0.0000000000" flag="0"/>
      <psa10 value="0.0000000000" flag="0"/>
      <psa30 value="0.0000000000" flag="0"/>
    </comp>
    <comp name="--.HHZ">
      <acc value="0.0599488265" flag="0"/>
      <vel value="0.0128088564" flag="0"/>
      <psa03 value="0.0791230374" flag="0"/>
      <psa10 value="0.0125304172" flag="0"/>
      <psa30 value="0.0011654637" flag="0"/>
    </comp>
  </station>
  <station code="PSDA" name="PSDA" netid="HT" source="NOA" insttype="30" lat="38.114" lon="20.5841">
    <comp name="--.HHE">
      <acc value="0.3020466497" flag="0"/>
      <vel value="0.1043655238" flag="0"/>
      <psa03 value="0.5726490416" flag="0"/>
      <psa10 value="0.0428849003" flag="0"/>
      <psa30 value="0.0048489681" flag="0"/>
    </comp>
    <comp name="--.HHN">
      <acc value="0.2796710989" flag="0"/>
      <vel value="0.0917438820" flag="0"/>
      <psa03 value="0.5609808038" flag="0"/>
      <psa10 value="0.0412312164" flag="0"/>
      <psa30 value="0.0032490296" flag="0"/>
    </comp>
    <comp name="--.HHZ">
      <acc value="0.2652981649" flag="0"/>
      <vel value="0.0636090171" flag="0"/>
      <psa03 value="0.2279909036" flag="0"/>
      <psa10 value="0.0199877493" flag="0"/>
      <psa30 value="0.0019076573" flag="0"/>
    </comp>
  </station>
</stationlist>
