<?xml version="1.0" encoding="UTF-8" standalone="yes"?>
<!DOCTYPE earthquake SYSTEM "stationlist.dtd">
<stationlist created="" xmlns="ch.ethz.sed.shakemap.usgs.xml">
  <station code="VANB" name="VANB" netid="KO" insttype="CMG-3T" lat="38.509" lon="43.4056">
    <comp name="--.HHZ">
      <acc value="0.0036537824" flag="0"/>
      <vel value="0.0057427254" flag="0"/>
      <psa03 value="0.0082690619" flag="0"/>
      <psa10 value="0.0079699700" flag="0"/>
      <psa30 value="0.0017863696" flag="0"/>
    </comp>
    <comp name="--.HHN">
      <acc value="0.0042404446" flag="0"/>
      <vel value="0.0072178789" flag="0"/>
      <psa03 value="0.0117467389" flag="0"/>
      <psa10 value="0.0128985199" flag="0"/>
      <psa30 value="0.0021290488" flag="0"/>
    </comp>
    <comp name="--.HHE">
      <acc value="0.0083159995" flag="0"/>
      <vel value="0.0089104628" flag="0"/>
      <psa03 value="0.0198842243" flag="0"/>
      <psa10 value="0.0114007730" flag="0"/>
      <psa30 value="0.0020270228" flag="0"/>
    </comp>
  </station>
</stationlist>
