<?xml version="1.0" encoding="UTF-8" standalone="yes"?>
<!DOCTYPE earthquake SYSTEM "stationlist.dtd">
<stationlist created="" xmlns="ch.ethz.sed.shakemap.usgs.xml">
  <station code="PE01" name="PE01" netid="Z3" source="GFZ" insttype="CMG-3ESP/60" lat="38.017" lon="22.0283">
    <comp name="--.HHE">
      <acc value="0.0082873197" flag="0"/>
      <vel value="0.0040721602" flag="0"/>
      <psa03 value="0.0255543320" flag="0"/>
      <psa10 value="0.0037732014" flag="0"/>
      <psa30 value="0.0003384868" flag="0"/>
    </comp>
    <comp name="--.HHN">
      <acc value="0.0086255307" flag="0"/>
      <vel value="0.0046951754" flag="0"/>
      <psa03 value="0.0238850563" flag="0"/>
      <psa10 value="0.0037413855" flag="0"/>
      <psa30 value="0.0002919211" flag="0"/>
    </comp>
    <comp name="--.HHZ">
      <acc value="0.0053951206" flag="0"/>
      <vel value="0.0028238709" flag="0"/>
      <psa03 value="0.0222502797" flag="0"/>
      <psa10 value="0.0024420754" flag="0"/>
      <psa30 value="0.0002023602" flag="0"/>
    </comp>
  </station>
  <station code="PE02" name="PE02" netid="Z3" source="GFZ" insttype="CMG-3ESP/60" lat="37.8958" lon="22.4907">
    <comp name="--.HHE">
      <acc value="0.0080019397" flag="0"/>
      <vel value="0.0030303238" flag="0"/>
      <psa03 value="0.0128794798" flag="0"/>
      <psa10 value="0.0043241327" flag="0"/>
      <psa30 value="0.0002249311" flag="0"/>
    </comp>
    <comp name="--.HHN">
      <acc value="0.0056057891" flag="0"/>
      <vel value="0.0021512071" flag="0"/>
      <psa03 value="0.0083860574" flag="0"/>
      <psa10 value="0.0026022246" flag="0"/>
      <psa30 value="0.0001258282" flag="0"/>
    </comp>
    <comp name="--.HHZ">
      <acc value="0.0044879404" flag="0"/>
      <vel value="0.0018741429" flag="0"/>
      <psa03 value="0.0083917435" flag="0"/>
      <psa10 value="0.0023677218" flag="0"/>
      <psa30 value="0.0001748744" flag="0"/>
    </comp>
  </station>
  <station code="PE03" name="PE03" netid="Z3" source="GFZ" insttype="CMG-3ESP/60" lat="37.3784" lon="21.7722">
    <comp name="--.HHE">
      <acc value="0.1032244481" flag="0"/>
      <vel value="0.0375999098" flag="0"/>
      <psa03 value="0.2403784340" flag="0"/>
      <psa10 value="0.0144628931" flag="0"/>
      <psa30 value="0.0008255299" flag="0"/>
    </comp>
    <comp name="--.HHN">
      <acc value="0.0800520678" flag="0"/>
      <vel value="0.0303565678" flag="0"/>
      <psa03 value="0.2182698715" flag="0"/>
      <psa10 value="0.0128529646" flag="0"/>
      <psa30 value="0.0011034027" flag="0"/>
    </comp>
    <comp name="--.HHZ">
      <acc value="0.0629685762" flag="0"/>
      <vel value="0.0187406059" flag="0"/>
      <psa03 value="0.0873129017" flag="0"/>
      <psa10 value="0.0098569645" flag="0"/>
      <psa30 value="0.0009734281" flag="0"/>
    </comp>
  </station>
  <station code="PE05" name="PE05" netid="Z3" source="GFZ" insttype="CMG-3ESP/60" lat="37.5128" lon="22.4553">
    <comp name="--.HHE">
      <acc value="0.0102484124" flag="0"/>
      <vel value="0.0038363258" flag="0"/>
      <psa03 value="0.0201796609" flag="0"/>
      <psa10 value="0.0027797192" flag="0"/>
      <psa30 value="0.0002682967" flag="0"/>
    </comp>
    <comp name="--.HHN">
      <acc value="0.0131731769" flag="0"/>
      <vel value="0.0048054212" flag="0"/>
      <psa03 value="0.0260469279" flag="0"/>
      <psa10 value="0.0048154603" flag="0"/>
      <psa30 value="0.0002485756" flag="0"/>
    </comp>
    <comp name="--.HHZ">
      <acc value="0.0087101150" flag="0"/>
      <vel value="0.0032622585" flag="0"/>
      <psa03 value="0.0175356068" flag="0"/>
      <psa10 value="0.0038118853" flag="0"/>
      <psa30 value="0.0001974227" flag="0"/>
    </comp>
  </station>
  <station code="PE06" name="PE06" netid="Z3" source="GFZ" insttype="CMG-3ESP/60" lat="37.1787" lon="21.9252">
    <comp name="--.HHE">
      <acc value="0.1402302410" flag="0"/>
      <vel value="0.0267017950" flag="0"/>
      <psa03 value="0.0911712813" flag="0"/>
      <psa10 value="0.0117806330" flag="0"/>
      <psa30 value="0.0009124626" flag="0"/>
    </comp>
    <comp name="--.HHN">
      <acc value="0.1861733160" flag="0"/>
      <vel value="0.0436374417" flag="0"/>
      <psa03 value="0.1465291127" flag="0"/>
      <psa10 value="0.0154322776" flag="0"/>
      <psa30 value="0.0009498014" flag="0"/>
    </comp>
    <comp name="--.HHZ">
      <acc value="0.1055223765" flag="0"/>
      <vel value="0.0160576471" flag="0"/>
      <psa03 value="0.0653863978" flag="0"/>
      <psa10 value="0.0127987045" flag="0"/>
      <psa30 value="0.0007518936" flag="0"/>
    </comp>
  </station>
  <station code="PE07" name="PE07" netid="Z3" source="GFZ" insttype="CMG-3ESP/60" lat="37.1478" lon="22.8195">
    <comp name="--.HHE">
      <acc value="0.0066734675" flag="0"/>
      <vel value="0.0024338694" flag="0"/>
      <psa03 value="0.0174430756" flag="0"/>
      <psa10 value="0.0035149088" flag="0"/>
      <psa30 value="0.0001431365" flag="0"/>
    </comp>
    <comp name="--.HHN">
      <acc value="0.0081236294" flag="0"/>
      <vel value="0.0050382573" flag="0"/>
      <psa03 value="0.0165347238" flag="0"/>
      <psa10 value="0.0046733129" flag="0"/>
      <psa30 value="0.0004280138" flag="0"/>
    </comp>
    <comp name="--.HHZ">
      <acc value="0.0050966409" flag="0"/>
      <vel value="0.0021955747" flag="0"/>
      <psa03 value="0.0121338961" flag="0"/>
      <psa10 value="0.0020821570" flag="0"/>
      <psa30 value="0.0001277759" flag="0"/>
    </comp>
  </station>
  <station code="PE08" name="PE08" netid="Z3" source="GFZ" insttype="CMG-3ESP/60" lat="36.8311" lon="22.442">
    <comp name="--.HHE">
      <acc value="0.0532399262" flag="0"/>
      <vel value="0.0271262628" flag="0"/>
      <psa03 value="0.1314202791" flag="0"/>
      <psa10 value="0.0104280549" flag="0"/>
      <psa30 value="0.0006498951" flag="0"/>
    </comp>
    <comp name="--.HHN">
      <acc value="0.0385881625" flag="0"/>
      <vel value="0.0180009659" flag="0"/>
      <psa03 value="0.1229334235" flag="0"/>
      <psa10 value="0.0105360898" flag="0"/>
      <psa30 value="0.0005619674" flag="0"/>
    </comp>
    <comp name="--.HHZ">
      <acc value="0.0205259080" flag="0"/>
      <vel value="0.0092736634" flag="0"/>
      <psa03 value="0.0504036553" flag="0"/>
      <psa10 value="0.0085743743" flag="0"/>
      <psa30 value="0.0003521961" flag="0"/>
    </comp>
  </station>
  <station code="PE09" name="PE09" netid="Z3" source="GFZ" insttype="CMG-3ESP/60" lat="36.7921" lon="21.8879">
    <comp name="--.HHE">
      <acc value="0.0849153928" flag="0"/>
      <vel value="0.0518201784" flag="0"/>
      <psa03 value="0.2905014309" flag="0"/>
      <psa10 value="0.0260913282" flag="0"/>
      <psa30 value="0.0024466281" flag="0"/>
    </comp>
    <comp name="--.HHN">
      <acc value="0.0661716175" flag="0"/>
      <vel value="0.0263976065" flag="0"/>
      <psa03 value="0.1669969909" flag="0"/>
      <psa10 value="0.0138981978" flag="0"/>
      <psa30 value="0.0011698962" flag="0"/>
    </comp>
    <comp name="--.HHZ">
      <acc value="0.0302347800" flag="0"/>
      <vel value="0.0164690758" flag="0"/>
      <psa03 value="0.1030287240" flag="0"/>
      <psa10 value="0.0094920707" flag="0"/>
      <psa30 value="0.0008625984" flag="0"/>
    </comp>
  </station>
  <station code="PE11" name="PE11" netid="Z3" source="GFZ" insttype="CMG-3ESP/60" lat="36.4834" lon="22.4785">
    <comp name="--.HHE">
      <acc value="0.0290593050" flag="0"/>
      <vel value="0.0205899546" flag="0"/>
      <psa03 value="0.0911508337" flag="0"/>
      <psa10 value="0.0188019375" flag="0"/>
      <psa30 value="0.0011197940" flag="0"/>
    </comp>
    <comp name="--.HHN">
      <acc value="0.0216061758" flag="0"/>
      <vel value="0.0126310075" flag="0"/>
      <psa03 value="0.0708664515" flag="0"/>
      <psa10 value="0.0108513366" flag="0"/>
      <psa30 value="0.0005724782" flag="0"/>
    </comp>
    <comp name="--.HHZ">
      <acc value="0.0170289864" flag="0"/>
      <vel value="0.0096522618" flag="0"/>
      <psa03 value="0.0697313245" flag="0"/>
      <psa10 value="0.0063458854" flag="0"/>
      <psa30 value="0.0003455053" flag="0"/>
    </comp>
  </station>
</stationlist>
