<?xml version="1.0" encoding="UTF-8" standalone="yes"?>
<!DOCTYPE earthquake SYSTEM "stationlist.dtd">
<stationlist created="" xmlns="ch.ethz.sed.shakemap.usgs.xml">
  <station code="GAZ" name="GAZ" netid="KO" insttype="CMG-3T" lat="37.1721" lon="37.2096">
    <comp name="--.HHN">
      <acc value="0.0040671282" flag="0"/>
      <vel value="0.0030597508" flag="0"/>
      <psa03 value="0.0066270170" flag="0"/>
      <psa10 value="0.0049750077" flag="0"/>
      <psa30 value="0.0011794814" flag="0"/>
    </comp>
    <comp name="--.HHE">
      <acc value="0.0076900049" flag="0"/>
      <vel value="0.0051687108" flag="0"/>
      <psa03 value="0.0122728668" flag="0"/>
      <psa10 value="0.0057292298" flag="0"/>
      <psa30 value="0.0026803907" flag="0"/>
    </comp>
    <comp name="--.HHZ">
      <acc value="0.0031624357" flag="0"/>
      <vel value="0.0019976097" flag="0"/>
      <psa03 value="0.0060649519" flag="0"/>
      <psa10 value="0.0028025988" flag="0"/>
      <psa30 value="0.0010049139" flag="0"/>
    </comp>
  </station>
  <station code="KMRS" name="KMRS" netid="KO" insttype="CMG-3T" lat="37.5053" lon="36.9">
    <comp name="--.HHE">
      <acc value="0.0135699114" flag="0"/>
      <vel value="0.0045217607" flag="0"/>
      <psa03 value="0.0208890118" flag="0"/>
      <psa10 value="0.0058708296" flag="0"/>
      <psa30 value="0.0018122989" flag="0"/>
    </comp>
    <comp name="--.HHZ">
      <acc value="0.0082759033" flag="0"/>
      <vel value="0.0041279417" flag="0"/>
      <psa03 value="0.0225818529" flag="0"/>
      <psa10 value="0.0058940079" flag="0"/>
      <psa30 value="0.0012608632" flag="0"/>
    </comp>
    <comp name="--.HHN">
      <acc value="0.0141369322" flag="0"/>
      <vel value="0.0080762044" flag="0"/>
      <psa03 value="0.0305807348" flag="0"/>
      <psa10 value="0.0056399845" flag="0"/>
      <psa30 value="0.0013317373" flag="0"/>
    </comp>
  </station>
  <station code="SARI" name="SARI" netid="KO" insttype="CMG-3T" lat="38.4072" lon="36.4181">
    <comp name="--.HHE">
      <acc value="0.0097117859" flag="0"/>
      <vel value="0.0041713541" flag="0"/>
      <psa03 value="0.0241986509" flag="0"/>
      <psa10 value="0.0068092945" flag="0"/>
      <psa30 value="0.0004944924" flag="0"/>
    </comp>
    <comp name="--.HHZ">
      <acc value="0.0090581945" flag="0"/>
      <vel value="0.0042131375" flag="0"/>
      <psa03 value="0.0172801528" flag="0"/>
      <psa10 value="0.0039042441" flag="0"/>
      <psa30 value="0.0005086980" flag="0"/>
    </comp>
    <comp name="--.HHN">
      <acc value="0.0090495195" flag="0"/>
      <vel value="0.0056848753" flag="0"/>
      <psa03 value="0.0348280098" flag="0"/>
      <psa10 value="0.0084929801" flag="0"/>
      <psa30 value="0.0005408341" flag="0"/>
    </comp>
  </station>
  <station code="URFA" name="URFA" netid="KO" insttype="CMG-3ESP" lat="37.4409" lon="38.8213">
    <comp name="--.HHE">
      <acc value="0.0294879848" flag="0"/>
      <vel value="0.0120594018" flag="0"/>
      <psa03 value="0.0399589963" flag="0"/>
      <psa10 value="0.0109328285" flag="0"/>
      <psa30 value="0.0006564671" flag="0"/>
    </comp>
    <comp name="--.HHN">
      <acc value="0.0259317562" flag="0"/>
      <vel value="0.0110001450" flag="0"/>
      <psa03 value="0.0303477236" flag="0"/>
      <psa10 value="0.0113273943" flag="0"/>
      <psa30 value="0.0010881769" flag="0"/>
    </comp>
    <comp name="--.HHZ">
      <acc value="0.0147795978" flag="0"/>
      <vel value="0.0069419111" flag="0"/>
      <psa03 value="0.0195784023" flag="0"/>
      <psa10 value="0.0054401976" flag="0"/>
      <psa30 value="0.0007209836" flag="0"/>
    </comp>
  </station>
  <station code="ANDN" name="ANDN" netid="TU" insttype="T" lat="37.58" lon="36.3452">
    <comp name="--.HHE">
      <acc value="0.0348144333" flag="0"/>
      <vel value="0.0176956332" flag="0"/>
      <psa03 value="0.0717248214" flag="0"/>
      <psa10 value="0.0163167916" flag="0"/>
      <psa30 value="0.0013966385" flag="0"/>
    </comp>
    <comp name="--.HHZ">
      <acc value="0.0169534288" flag="0"/>
      <vel value="0.0125696232" flag="0"/>
      <psa03 value="0.0385353873" flag="0"/>
      <psa10 value="0.0160290694" flag="0"/>
      <psa30 value="0.0013482090" flag="0"/>
    </comp>
    <comp name="--.HHN">
      <acc value="0.0416023941" flag="0"/>
      <vel value="0.0203299766" flag="0"/>
      <psa03 value="0.0978224333" flag="0"/>
      <psa10 value="0.0281056198" flag="0"/>
      <psa30 value="0.0015417411" flag="0"/>
    </comp>
  </station>
</stationlist>
