<?xml version="1.0" encoding="UTF-8" standalone="yes"?>
<!DOCTYPE earthquake SYSTEM "stationlist.dtd">
<stationlist created="" xmlns="ch.ethz.sed.shakemap.usgs.xml">
  <station code="DARE" name="DARE" netid="KO" insttype="CMG-3ESP" lat="38.5712" lon="37.4832">
    <comp name="--.HHE">
      <acc value="0.0114219433" flag="0"/>
      <vel value="0.0069386299" flag="0"/>
      <psa03 value="0.0250729427" flag="0"/>
      <psa10 value="0.0130652422" flag="0"/>
      <psa30 value="0.0009608281" flag="0"/>
    </comp>
    <comp name="--.HHZ">
      <acc value="0.0093899660" flag="0"/>
      <vel value="0.0055402503" flag="0"/>
      <psa03 value="0.0127882571" flag="0"/>
      <psa10 value="0.0085507463" flag="0"/>
      <psa30 value="0.0007606119" flag="0"/>
    </comp>
    <comp name="--.HHN">
      <acc value="0.0110474540" flag="0"/>
      <vel value="0.0064455234" flag="0"/>
      <psa03 value="0.0160714890" flag="0"/>
      <psa10 value="0.0153435069" flag="0"/>
      <psa30 value="0.0007427374" flag="0"/>
    </comp>
  </station>
  <station code="GAZ" name="GAZ" netid="KO" insttype="CMG-3T" lat="37.1721" lon="37.2096">
    <comp name="--.HHE">
      <acc value="0.0076900059" flag="0"/>
      <vel value="0.0051687106" flag="0"/>
      <psa03 value="0.0122728668" flag="0"/>
      <psa10 value="0.0057292298" flag="0"/>
      <psa30 value="0.0026803936" flag="0"/>
    </comp>
    <comp name="--.HHN">
      <acc value="0.0040671291" flag="0"/>
      <vel value="0.0030597515" flag="0"/>
      <psa03 value="0.0066270170" flag="0"/>
      <psa10 value="0.0049750077" flag="0"/>
      <psa30 value="0.0011794840" flag="0"/>
    </comp>
    <comp name="--.HHZ">
      <acc value="0.0031624349" flag="0"/>
      <vel value="0.0019976094" flag="0"/>
      <psa03 value="0.0060649520" flag="0"/>
      <psa10 value="0.0028025988" flag="0"/>
      <psa30 value="0.0010049162" flag="0"/>
    </comp>
  </station>
  <station code="KMRS" name="KMRS" netid="KO" insttype="CMG-3T" lat="37.5053" lon="36.9">
    <comp name="--.HHZ">
      <acc value="0.0082759033" flag="0"/>
      <vel value="0.0041279417" flag="0"/>
      <psa03 value="0.0225818529" flag="0"/>
      <psa10 value="0.0058940080" flag="0"/>
      <psa30 value="0.0012608940" flag="0"/>
    </comp>
    <comp name="--.HHN">
      <acc value="0.0141369322" flag="0"/>
      <vel value="0.0080762043" flag="0"/>
      <psa03 value="0.0305807348" flag="0"/>
      <psa10 value="0.0056399845" flag="0"/>
      <psa30 value="0.0013317338" flag="0"/>
    </comp>
    <comp name="--.HHE">
      <acc value="0.0135699113" flag="0"/>
      <vel value="0.0045217610" flag="0"/>
      <psa03 value="0.0208890118" flag="0"/>
      <psa10 value="0.0058708290" flag="0"/>
      <psa30 value="0.0018122866" flag="0"/>
    </comp>
  </station>
  <station code="SARI" name="SARI" netid="KO" insttype="CMG-3T" lat="38.4072" lon="36.4181">
    <comp name="--.HHE">
      <acc value="0.0097117860" flag="0"/>
      <vel value="0.0041713547" flag="0"/>
      <psa03 value="0.0241986509" flag="0"/>
      <psa10 value="0.0068092945" flag="0"/>
      <psa30 value="0.0004944888" flag="0"/>
    </comp>
    <comp name="--.HHN">
      <acc value="0.0090495194" flag="0"/>
      <vel value="0.0056848747" flag="0"/>
      <psa03 value="0.0348280098" flag="0"/>
      <psa10 value="0.0084929802" flag="0"/>
      <psa30 value="0.0005407963" flag="0"/>
    </comp>
    <comp name="--.HHZ">
      <acc value="0.0090581947" flag="0"/>
      <vel value="0.0042131376" flag="0"/>
      <psa03 value="0.0172801528" flag="0"/>
      <psa10 value="0.0039042442" flag="0"/>
      <psa30 value="0.0005086868" flag="0"/>
    </comp>
  </station>
  <station code="URFA" name="URFA" netid="KO" insttype="CMG-3ESP" lat="37.4409" lon="38.8213">
    <comp name="--.HHN">
      <acc value="0.0259317561" flag="0"/>
      <vel value="0.0110001450" flag="0"/>
      <psa03 value="0.0303477236" flag="0"/>
      <psa10 value="0.0113273943" flag="0"/>
      <psa30 value="0.0010881828" flag="0"/>
    </comp>
    <comp name="--.HHE">
      <acc value="0.0294879849" flag="0"/>
      <vel value="0.0120594022" flag="0"/>
      <psa03 value="0.0399589963" flag="0"/>
      <psa10 value="0.0109328285" flag="0"/>
      <psa30 value="0.0006564498" flag="0"/>
    </comp>
    <comp name="--.HHZ">
      <acc value="0.0147795977" flag="0"/>
      <vel value="0.0069419113" flag="0"/>
      <psa03 value="0.0195784023" flag="0"/>
      <psa10 value="0.0054401976" flag="0"/>
      <psa30 value="0.0007209913" flag="0"/>
    </comp>
  </station>
  <station code="ANDN" name="ANDN" netid="TU" insttype="T" lat="37.58" lon="36.3452">
    <comp name="--.HHN">
      <acc value="0.0416023937" flag="0"/>
      <vel value="0.0203299763" flag="0"/>
      <psa03 value="0.0978224333" flag="0"/>
      <psa10 value="0.0281056197" flag="0"/>
      <psa30 value="0.0015417543" flag="0"/>
    </comp>
    <comp name="--.HHZ">
      <acc value="0.0169534285" flag="0"/>
      <vel value="0.0125696232" flag="0"/>
      <psa03 value="0.0385353873" flag="0"/>
      <psa10 value="0.0160290695" flag="0"/>
      <psa30 value="0.0013482164" flag="0"/>
    </comp>
    <comp name="--.HHE">
      <acc value="0.0348144338" flag="0"/>
      <vel value="0.0176956312" flag="0"/>
      <psa03 value="0.0717248214" flag="0"/>
      <psa10 value="0.0163167916" flag="0"/>
      <psa30 value="0.0013966398" flag="0"/>
    </comp>
  </station>
</stationlist>
