<stationlist created="1776065119">
	<station code="RDI1" name="RDI1" netid="HI" source="ITSAK Strong Motion Network" insttype="" lat="36.4514" lon="28.224">
		<comp name="--.HNE" depth="0.0">
			<acc value="0.0106814344174343" flag="0"/>
			<vel value="0.0122859560612173" flag="0"/>
			<psa03 value="0.0213601272431831" flag="0"/>
			<psa10 value="0.0241366814366885" flag="0"/>
			<psa30 value="0.00572117649986504" flag="0"/>
		</comp>
		<comp name="--.HNN" depth="0.0">
			<acc value="0.00833614866522048" flag="0"/>
			<vel value="0.0149884966376857" flag="0"/>
			<psa03 value="0.0206429911947728" flag="0"/>
			<psa10 value="0.0210401275551909" flag="0"/>
			<psa30 value="0.00479564060432092" flag="0"/>
		</comp>
		<comp name="--.HNZ" depth="0.0">
			<acc value="0.0057962792439034" flag="0"/>
			<vel value="0.00710619297780558" flag="0"/>
			<psa03 value="0.0113820131170923" flag="0"/>
			<psa10 value="0.0148684383985734" flag="0"/>
			<psa30 value="0.00191982092871453" flag="0"/>
		</comp>
	</station>
	<station code="RKL1" name="RKL1" netid="HI" source="ITSAK Strong Motion Network" insttype="" lat="36.336699" lon="28.171224">
		<comp name="--.HNE" depth="0.0">
			<acc value="0.014203463367356" flag="0"/>
			<vel value="0.0175433647890388" flag="0"/>
			<psa03 value="0.0318529121824394" flag="0"/>
			<psa10 value="0.0360844966708109" flag="0"/>
			<psa30 value="0.00204166441691432" flag="0"/>
		</comp>
		<comp name="--.HNN" depth="0.0">
			<acc value="0.0121900747003009" flag="0"/>
			<vel value="0.0134156256352803" flag="0"/>
			<psa03 value="0.0316968940345028" flag="0"/>
			<psa10 value="0.023241559014221" flag="0"/>
			<psa30 value="0.00194611642066182" flag="0"/>
		</comp>
		<comp name="--.HNZ" depth="0.0">
			<acc value="0.00752881547214684" flag="0"/>
			<vel value="0.00627868854412472" flag="0"/>
			<psa03 value="0.0159835327889375" flag="0"/>
			<psa10 value="0.011806972779001" flag="0"/>
			<psa30 value="0.000857679317045482" flag="0"/>
		</comp>
	</station>
	<station code="RLN1" name="RLN1" netid="HI" source="ITSAK Strong Motion Network" insttype="" lat="36.089085" lon="28.086909">
		<comp name="--.HNE" depth="0.0">
			<acc value="0.00465348012360926" flag="0"/>
			<vel value="0.00820283998052198" flag="0"/>
			<psa03 value="0.00774453452177886" flag="0"/>
			<psa10 value="0.0120320683154756" flag="0"/>
			<psa30 value="0.00171531540206039" flag="0"/>
		</comp>
		<comp name="--.HNN" depth="0.0">
			<acc value="0.0032154038640443" flag="0"/>
			<vel value="0.00419952636462519" flag="0"/>
			<psa03 value="0.00879551950895963" flag="0"/>
			<psa10 value="0.00695336422000423" flag="0"/>
			<psa30 value="0.00118711499470901" flag="0"/>
		</comp>
		<comp name="--.HNZ" depth="0.0">
			<acc value="0.0021532213599737" flag="0"/>
			<vel value="0.00330742374065085" flag="0"/>
			<psa03 value="0.00599548115557726" flag="0"/>
			<psa10 value="0.00503843908436196" flag="0"/>
			<psa30 value="0.000887644114566258" flag="0"/>
		</comp>
	</station>
	<station code="RPN1" name="RPN1" netid="HI" source="ITSAK Strong Motion Network" insttype="" lat="36.448678" lon="28.218047">
		<comp name="--.HNE" depth="0.0">
			<acc value="0.00836874200411711" flag="0"/>
			<vel value="0.011936736003804" flag="0"/>
			<psa03 value="0.0229746391445896" flag="0"/>
			<psa10 value="0.0159717511751301" flag="0"/>
			<psa30 value="0.00583902972372939" flag="0"/>
		</comp>
		<comp name="--.HNN" depth="0.0">
			<acc value="0.00848028602692062" flag="0"/>
			<vel value="0.0127844301246224" flag="0"/>
			<psa03 value="0.0279252874132409" flag="0"/>
			<psa10 value="0.0220769943675286" flag="0"/>
			<psa30 value="0.00521258239133473" flag="0"/>
		</comp>
		<comp name="--.HNZ" depth="0.0">
			<acc value="0.00558738299085582" flag="0"/>
			<vel value="0.00718108417149697" flag="0"/>
			<psa03 value="0.0129511899840253" flag="0"/>
			<psa10 value="0.0176439456998106" flag="0"/>
			<psa30 value="0.00227679311803681" flag="0"/>
		</comp>
	</station>
	<station code="RSO1" name="RSO1" netid="HI" source="ITSAK Strong Motion Network" insttype="" lat="36.3632" lon="28.0016">
		<comp name="--.HNE" depth="0.0">
			<acc value="0.00797475471644497" flag="0"/>
			<vel value="0.00880217039373155" flag="0"/>
			<psa03 value="0.020955130362044" flag="0"/>
			<psa10 value="0.0153866767918236" flag="0"/>
			<psa30 value="0.00265210277212614" flag="0"/>
		</comp>
		<comp name="--.HNN" depth="0.0">
			<acc value="0.00724467099816365" flag="0"/>
			<vel value="0.00896565423094348" flag="0"/>
			<psa03 value="0.018152408237125" flag="0"/>
			<psa10 value="0.0129681650147878" flag="0"/>
			<psa30 value="0.00205388168458167" flag="0"/>
		</comp>
		<comp name="--.HNZ" depth="0.0">
			<acc value="0.00501478617783735" flag="0"/>
			<vel value="0.00662480216311684" flag="0"/>
			<psa03 value="0.012491703816155" flag="0"/>
			<psa10 value="0.0114241567943208" flag="0"/>
			<psa30 value="0.00169747922050089" flag="0"/>
		</comp>
	</station>
	<station code="RODB" name="RODB" netid="HL" source="National Observatory of Athens Seismic Network" insttype="" lat="36.4471" lon="28.22116">
		<comp name="00.HNE" depth="0.0">
			<acc value="0.0111353714053027" flag="0"/>
			<vel value="0.0134613063831253" flag="0"/>
			<psa03 value="0.0274127560647211" flag="0"/>
			<psa10 value="0.0249459775485841" flag="0"/>
			<psa30 value="0.00397742056792579" flag="0"/>
		</comp>
		<comp name="00.HNN" depth="0.0">
			<acc value="0.00965502657918053" flag="0"/>
			<vel value="0.0113197122653305" flag="0"/>
			<psa03 value="0.0230094461378821" flag="0"/>
			<psa10 value="0.0141030623836687" flag="0"/>
			<psa30 value="0.00334954230740583" flag="0"/>
		</comp>
		<comp name="00.HNZ" depth="0.0">
			<acc value="0.00963306056740264" flag="0"/>
			<vel value="0.00924678700758251" flag="0"/>
			<psa03 value="0.0106052435609631" flag="0"/>
			<psa10 value="0.0197526372652779" flag="0"/>
			<psa30 value="0.00169784830745109" flag="0"/>
		</comp>
	</station>
	<station code="DEMR" name="DEMR" netid="KO" source="Bogazici University Kandilli Observatory And Earthquake Research Institute (KOERI)" insttype="" lat="36.2365" lon="29.9056">
		<comp name="--.HNE" depth="0.0">
			<acc value="0.193489889798056" flag="0"/>
			<vel value="0.100768957294857" flag="0"/>
			<psa03 value="0.557612689104032" flag="0"/>
			<psa10 value="0.13421504608811" flag="0"/>
			<psa30 value="0.00568653337159447" flag="0"/>
		</comp>
		<comp name="--.HNN" depth="0.0">
			<acc value="0.150862984316913" flag="0"/>
			<vel value="0.0890120388187258" flag="0"/>
			<psa03 value="0.373148510924197" flag="0"/>
			<psa10 value="0.100072769329836" flag="0"/>
			<psa30 value="0.00522078210119193" flag="0"/>
		</comp>
		<comp name="--.HNZ" depth="0.0">
			<acc value="0.144972990019737" flag="0"/>
			<vel value="0.0713471036559266" flag="0"/>
			<psa03 value="0.439227513333808" flag="0"/>
			<psa10 value="0.085517237597294" flag="0"/>
			<psa30 value="0.00607715674847611" flag="0"/>
		</comp>
	</station>
	<station code="KEMT" name="KEMT" netid="KO" source="Bogazici University Kandilli Observatory And Earthquake Research Institute (KOERI)" insttype="" lat="36.6037" lon="30.5558">
		<comp name="--.HNE" depth="0.0">
			<acc value="0.124354125316082" flag="0"/>
			<vel value="0.0510333793463427" flag="0"/>
			<psa03 value="0.278922893939508" flag="0"/>
			<psa10 value="0.0350210912254191" flag="0"/>
			<psa30 value="0.00179945628848117" flag="0"/>
		</comp>
		<comp name="--.HNN" depth="0.0">
			<acc value="0.122905798354842" flag="0"/>
			<vel value="0.0607136579511648" flag="0"/>
			<psa03 value="0.355668644635509" flag="0"/>
			<psa10 value="0.0397719659475533" flag="0"/>
			<psa30 value="0.00256163594580955" flag="0"/>
		</comp>
		<comp name="--.HNZ" depth="0.0">
			<acc value="0.0557021477203594" flag="0"/>
			<vel value="0.0150632715343598" flag="0"/>
			<psa03 value="0.0771525693124051" flag="0"/>
			<psa10 value="0.0303077189876404" flag="0"/>
			<psa30 value="0.000947714239750576" flag="0"/>
		</comp>
	</station>
</stationlist>
