<?xml version="1.0" encoding="UTF-8" standalone="yes"?>
<!DOCTYPE earthquake SYSTEM "stationlist.dtd">
<stationlist created="" xmlns="ch.ethz.sed.shakemap.usgs.xml">
  <station code="CAME" name="CAME" netid="KO" insttype="CMG-5T" commtype="DIG" lat="36.9435" lon="29.3023">
    <comp name="--.HNN">
      <acc value="0.0314770604" flag="0"/>
      <vel value="0.0227114672" flag="0"/>
      <psa03 value="0.0679752928" flag="0"/>
      <psa10 value="0.0470715634" flag="0"/>
      <psa30 value="0.0035464276" flag="0"/>
    </comp>
    <comp name="--.HNZ">
      <acc value="0.0137707689" flag="0"/>
      <vel value="0.0148210642" flag="0"/>
      <psa03 value="0.0471887809" flag="0"/>
      <psa10 value="0.0284516583" flag="0"/>
      <psa30 value="0.0024149242" flag="0"/>
    </comp>
  </station>
  <station code="DEMR" name="DEMR" netid="KO" insttype="CMG-5T" commtype="DIG" lat="36.2365" lon="29.9056">
    <comp name="--.HNE">
      <acc value="0.2010206331" flag="0"/>
      <vel value="0.1015834734" flag="0"/>
      <psa03 value="0.5618631455" flag="0"/>
      <psa10 value="0.1340432270" flag="0"/>
      <psa30 value="0.0054825511" flag="0"/>
    </comp>
    <comp name="--.HNN">
      <acc value="0.1500149129" flag="0"/>
      <vel value="0.0871977436" flag="0"/>
      <psa03 value="0.3661310119" flag="0"/>
      <psa10 value="0.0999310203" flag="0"/>
      <psa30 value="0.0051500331" flag="0"/>
    </comp>
    <comp name="--.HNZ">
      <acc value="0.1452883768" flag="0"/>
      <vel value="0.0683161064" flag="0"/>
      <psa03 value="0.4382387995" flag="0"/>
      <psa10 value="0.0849273855" flag="0"/>
      <psa30 value="0.0055607220" flag="0"/>
    </comp>
  </station>
  <station code="ELL" name="ELL" netid="KO" insttype="CMG-3T" commtype="DIG" lat="36.7483" lon="29.9085">
    <comp name="--.HHE">
      <acc value="0.0215882239" flag="0"/>
      <vel value="0.0204249152" flag="0"/>
      <psa03 value="0.0388016500" flag="0"/>
      <psa10 value="0.0363704815" flag="0"/>
      <psa30 value="0.0028463953" flag="0"/>
    </comp>
    <comp name="--.HHN">
      <acc value="0.0239869705" flag="0"/>
      <vel value="0.0215259844" flag="0"/>
      <psa03 value="0.0629008607" flag="0"/>
      <psa10 value="0.0266118979" flag="0"/>
      <psa30 value="0.0027167288" flag="0"/>
    </comp>
    <comp name="--.HHZ">
      <acc value="0.0121985436" flag="0"/>
      <vel value="0.0121751948" flag="0"/>
      <psa03 value="0.0359576346" flag="0"/>
      <psa10 value="0.0199262691" flag="0"/>
      <psa30 value="0.0021948209" flag="0"/>
    </comp>
  </station>
  <station code="FETY" name="FETY" netid="KO" insttype="CMG-3ESP" commtype="DIG" lat="36.6353" lon="29.0835">
    <comp name="--.HHE">
      <acc value="0.0268378630" flag="0"/>
      <vel value="0.0266002750" flag="0"/>
      <psa03 value="0.0969247782" flag="0"/>
      <psa10 value="0.0429162858" flag="0"/>
      <psa30 value="0.0040497752" flag="0"/>
    </comp>
    <comp name="--.HHN">
      <acc value="0.0306774517" flag="0"/>
      <vel value="0.0211679379" flag="0"/>
      <psa03 value="0.1044692800" flag="0"/>
      <psa10 value="0.0204474383" flag="0"/>
      <psa30 value="0.0032189630" flag="0"/>
    </comp>
    <comp name="--.HHZ">
      <acc value="0.0144480526" flag="0"/>
      <vel value="0.0205658407" flag="0"/>
      <psa03 value="0.0652119474" flag="0"/>
      <psa10 value="0.0295468770" flag="0"/>
      <psa30 value="0.0034218857" flag="0"/>
    </comp>
  </station>
  <station code="KEMT" name="KEMT" netid="KO" insttype="CMG-5T" commtype="DIG" lat="36.6037" lon="30.5558">
    <comp name="--.HNE">
      <acc value="0.1268822407" flag="0"/>
      <vel value="0.0484094059" flag="0"/>
      <psa03 value="0.2862519320" flag="0"/>
      <psa10 value="0.0414657861" flag="0"/>
      <psa30 value="0.0059029560" flag="0"/>
    </comp>
    <comp name="--.HNN">
      <acc value="0.1243365628" flag="0"/>
      <vel value="0.0681890228" flag="0"/>
      <psa03 value="0.3579613120" flag="0"/>
      <psa10 value="0.0436263102" flag="0"/>
      <psa30 value="0.0096513596" flag="0"/>
    </comp>
    <comp name="--.HNZ">
      <acc value="0.0550293044" flag="0"/>
      <vel value="0.0187003860" flag="0"/>
      <psa03 value="0.0764815682" flag="0"/>
      <psa10 value="0.0379363538" flag="0"/>
      <psa30 value="0.0037322319" flag="0"/>
    </comp>
  </station>
</stationlist>
