<stationlist xmlns:esm="https://esm-db.eu/esmws/shakemap/1/" created="1780624465">
	<station code="RKL1" name="RKL1" netid="HI" source="ITSAK Strong Motion Network" insttype="" lat="36.336699" lon="28.171224" esm:processing="manual (Paolucci et al 2011)" esm:quality="good">
		<comp name="--.HNE" depth="0.0">
			<acc value="0.0142134067403303" flag="0"/>
			<vel value="0.0175436186787369" flag="0"/>
			<psa03 value="0.031862759188922" flag="0"/>
			<psa10 value="0.0360845979275187" flag="0"/>
			<psa30 value="0.0020416696255927" flag="0"/>
		</comp>
		<comp name="--.HNN" depth="0.0">
			<acc value="0.012197886508058" flag="0"/>
			<vel value="0.0134167160811038" flag="0"/>
			<psa03 value="0.0317094469494052" flag="0"/>
			<psa10 value="0.023241748401767" flag="0"/>
			<psa30 value="0.00194609016892278" flag="0"/>
		</comp>
		<comp name="--.HNZ" depth="0.0">
			<acc value="0.00752979881946683" flag="0"/>
			<vel value="0.00628140099497799" flag="0"/>
			<psa03 value="0.0159896972598034" flag="0"/>
			<psa10 value="0.0118069737165631" flag="0"/>
			<psa30 value="0.000857666712043796" flag="0"/>
		</comp>
	</station>
	<station code="RPN1" name="RPN1" netid="HI" source="ITSAK Strong Motion Network" insttype="" lat="36.448678" lon="28.218047" esm:processing="manual (Paolucci et al 2011)" esm:quality="good">
		<comp name="--.HNE" depth="0.0">
			<acc value="0.00836874200411711" flag="0"/>
			<vel value="0.011936736003804" flag="0"/>
			<psa03 value="0.0229746391445896" flag="0"/>
			<psa10 value="0.0159717511751301" flag="0"/>
			<psa30 value="0.00583902972372939" flag="0"/>
		</comp>
		<comp name="--.HNN" depth="0.0">
			<acc value="0.00848028602692062" flag="0"/>
			<vel value="0.0127844301246224" flag="0"/>
			<psa03 value="0.0279252874132409" flag="0"/>
			<psa10 value="0.0220769943675286" flag="0"/>
			<psa30 value="0.00521258239133473" flag="0"/>
		</comp>
		<comp name="--.HNZ" depth="0.0">
			<acc value="0.00558738299085582" flag="0"/>
			<vel value="0.00718108417149697" flag="0"/>
			<psa03 value="0.0129511899840253" flag="0"/>
			<psa10 value="0.0176439456998106" flag="0"/>
			<psa30 value="0.00227679311803681" flag="0"/>
		</comp>
	</station>
	<station code="DEMR" name="DEMR" netid="KO" source="Bogazici University Kandilli Observatory And Earthquake Research Institute (KOERI)" insttype="" lat="36.2365" lon="29.9056" esm:processing="automatic (Paolucci et al 2011)" esm:quality="best">
		<comp name="--.HNE" depth="0.0">
			<acc value="0.193489889798056" flag="0"/>
			<vel value="0.100768957294857" flag="0"/>
			<psa03 value="0.557612689104032" flag="0"/>
			<psa10 value="0.13421504608811" flag="0"/>
			<psa30 value="0.00568653337159447" flag="0"/>
		</comp>
		<comp name="--.HNN" depth="0.0">
			<acc value="0.150862984316913" flag="0"/>
			<vel value="0.0890120388187258" flag="0"/>
			<psa03 value="0.373148510924197" flag="0"/>
			<psa10 value="0.100072769329836" flag="0"/>
			<psa30 value="0.00522078210119193" flag="0"/>
		</comp>
		<comp name="--.HNZ" depth="0.0">
			<acc value="0.144972990019737" flag="0"/>
			<vel value="0.0713471036559266" flag="0"/>
			<psa03 value="0.439227513333808" flag="0"/>
			<psa10 value="0.085517237597294" flag="0"/>
			<psa30 value="0.00607715674847611" flag="0"/>
		</comp>
	</station>
</stationlist>
