<?xml version="1.0" encoding="UTF-8" standalone="yes"?>
<!DOCTYPE earthquake SYSTEM "stationlist.dtd">
<stationlist created="" xmlns="ch.ethz.sed.shakemap.usgs.xml">
  <station code="CAME" name="CAME" netid="KO" insttype="CMG-5T" commtype="DIG" lat="36.9435" lon="29.3023">
    <comp name="--.HNZ">
      <acc value="0.0137707722" flag="0"/>
      <vel value="0.0148210645" flag="0"/>
      <psa03 value="0.0471887809" flag="0"/>
      <psa10 value="0.0284516582" flag="0"/>
      <psa30 value="0.0024149438" flag="0"/>
    </comp>
    <comp name="--.HNN">
      <acc value="0.0314770593" flag="0"/>
      <vel value="0.0227114673" flag="0"/>
      <psa03 value="0.0679752928" flag="0"/>
      <psa10 value="0.0470715634" flag="0"/>
      <psa30 value="0.0035463581" flag="0"/>
    </comp>
  </station>
  <station code="DEMR" name="DEMR" netid="KO" insttype="CMG-5T" commtype="DIG" lat="36.2365" lon="29.9056">
    <comp name="--.HNE">
      <acc value="0.2010206356" flag="0"/>
      <vel value="0.1015834783" flag="0"/>
      <psa03 value="0.5618631455" flag="0"/>
      <psa10 value="0.1340432317" flag="0"/>
      <psa30 value="0.0054832669" flag="0"/>
    </comp>
    <comp name="--.HNN">
      <acc value="0.1500149144" flag="0"/>
      <vel value="0.0871977457" flag="0"/>
      <psa03 value="0.3661310119" flag="0"/>
      <psa10 value="0.0999310220" flag="0"/>
      <psa30 value="0.0051518705" flag="0"/>
    </comp>
    <comp name="--.HNZ">
      <acc value="0.1452883834" flag="0"/>
      <vel value="0.0683161047" flag="0"/>
      <psa03 value="0.4382387995" flag="0"/>
      <psa10 value="0.0849273789" flag="0"/>
      <psa30 value="0.0055600319" flag="0"/>
    </comp>
  </station>
  <station code="ELL" name="ELL" netid="KO" insttype="CMG-3T" commtype="DIG" lat="36.7483" lon="29.9085">
    <comp name="--.HHN">
      <acc value="0.0239869705" flag="0"/>
      <vel value="0.0215259843" flag="0"/>
      <psa03 value="0.0629008607" flag="0"/>
      <psa10 value="0.0266118979" flag="0"/>
      <psa30 value="0.0027167267" flag="0"/>
    </comp>
    <comp name="--.HHE">
      <acc value="0.0215882240" flag="0"/>
      <vel value="0.0204249153" flag="0"/>
      <psa03 value="0.0388016500" flag="0"/>
      <psa10 value="0.0363704815" flag="0"/>
      <psa30 value="0.0028463956" flag="0"/>
    </comp>
    <comp name="--.HHZ">
      <acc value="0.0121985436" flag="0"/>
      <vel value="0.0121751947" flag="0"/>
      <psa03 value="0.0359576346" flag="0"/>
      <psa10 value="0.0199262691" flag="0"/>
      <psa30 value="0.0021948197" flag="0"/>
    </comp>
  </station>
  <station code="FETY" name="FETY" netid="KO" insttype="CMG-3ESP" commtype="DIG" lat="36.6353" lon="29.0835">
    <comp name="--.HHZ">
      <acc value="0.0144480525" flag="0"/>
      <vel value="0.0205658410" flag="0"/>
      <psa03 value="0.0652119474" flag="0"/>
      <psa10 value="0.0295468770" flag="0"/>
      <psa30 value="0.0034218833" flag="0"/>
    </comp>
    <comp name="--.HHE">
      <acc value="0.0268378629" flag="0"/>
      <vel value="0.0266002749" flag="0"/>
      <psa03 value="0.0969247782" flag="0"/>
      <psa10 value="0.0429162858" flag="0"/>
      <psa30 value="0.0040498404" flag="0"/>
    </comp>
    <comp name="--.HHN">
      <acc value="0.0306774518" flag="0"/>
      <vel value="0.0211679371" flag="0"/>
      <psa03 value="0.1044692800" flag="0"/>
      <psa10 value="0.0204474383" flag="0"/>
      <psa30 value="0.0032189719" flag="0"/>
    </comp>
  </station>
  <station code="KEMT" name="KEMT" netid="KO" insttype="CMG-5T" commtype="DIG" lat="36.6037" lon="30.5558">
    <comp name="--.HNZ">
      <acc value="0.0550293064" flag="0"/>
      <vel value="0.0187003890" flag="0"/>
      <psa03 value="0.0764815682" flag="0"/>
      <psa10 value="0.0379363535" flag="0"/>
      <psa30 value="0.0037322510" flag="0"/>
    </comp>
    <comp name="--.HNE">
      <acc value="0.1268822405" flag="0"/>
      <vel value="0.0484094064" flag="0"/>
      <psa03 value="0.2862519320" flag="0"/>
      <psa10 value="0.0414657861" flag="0"/>
      <psa30 value="0.0059026416" flag="0"/>
    </comp>
    <comp name="--.HNN">
      <acc value="0.1243365618" flag="0"/>
      <vel value="0.0681890308" flag="0"/>
      <psa03 value="0.3579613120" flag="0"/>
      <psa10 value="0.0436263082" flag="0"/>
      <psa30 value="0.0096519821" flag="0"/>
    </comp>
  </station>
</stationlist>
