<stationlist created="1775054581">
	<station code="SPAOL" name="SPAOL" netid="7C" source="Urban Seismic Network (RUSN-CAL-INGV)" insttype="" lat="37.54939" lon="15.071367">
		<comp name="--.HNE" depth="0.0">
			<acc value="0.0334370037976926" flag="0"/>
			<vel value="0.0021646527785259" flag="0"/>
			<psa03 value="0.00192871744905493" flag="0"/>
			<psa10 value="0.000678494536776933" flag="0"/>
			<psa30 value="0.000336919480720416" flag="0"/>
		</comp>
		<comp name="--.HNN" depth="0.0">
			<acc value="0.0233818184208303" flag="0"/>
			<vel value="0.00264415709845798" flag="0"/>
			<psa03 value="0.00245801960256867" flag="0"/>
			<psa10 value="0.00124094560499359" flag="0"/>
			<psa30 value="0.00070514707711651" flag="0"/>
		</comp>
		<comp name="--.HNZ" depth="0.0">
			<acc value="0.0274261783865287" flag="0"/>
			<vel value="0.00479980888337256" flag="0"/>
			<psa03 value="0.00316783550459692" flag="0"/>
			<psa10 value="0.00200567247533316" flag="0"/>
			<psa30 value="0.0013807749070611" flag="0"/>
		</comp>
	</station>
	<station code="AGR" name="AGR" netid="IT" source="Italian Strong Motion Network (RAN)" insttype="" lat="37.3231" lon="13.586">
		<comp name="--.HNE" depth="0.0">
			<acc value="0.0067728015551189" flag="0"/>
			<vel value="0.00993680696007009" flag="0"/>
			<psa03 value="0.0132663749259809" flag="0"/>
			<psa10 value="0.0132137387828447" flag="0"/>
			<psa30 value="0.0060354448185988" flag="0"/>
		</comp>
		<comp name="--.HNN" depth="0.0">
			<acc value="0.0103587083905526" flag="0"/>
			<vel value="0.0166991563040544" flag="0"/>
			<psa03 value="0.0196601383251771" flag="0"/>
			<psa10 value="0.0279985503915537" flag="0"/>
			<psa30 value="0.00703135495942462" flag="0"/>
		</comp>
		<comp name="--.HNZ" depth="0.0">
			<acc value="0.00645118081196367" flag="0"/>
			<vel value="0.00949279906612757" flag="0"/>
			<psa03 value="0.0151766121469051" flag="0"/>
			<psa10 value="0.0200089911224628" flag="0"/>
			<psa30 value="0.00409480417734716" flag="0"/>
		</comp>
	</station>
	<station code="ALC" name="ALC" netid="IT" source="Italian Strong Motion Network (RAN)" insttype="" lat="37.9734" lon="12.9597">
		<comp name="--.HGE" depth="0.0">
			<acc value="0.00275340750749558" flag="0"/>
			<vel value="0.00284332833191439" flag="0"/>
			<psa03 value="0.00468811948417856" flag="0"/>
			<psa10 value="0.00436697210296983" flag="0"/>
			<psa30 value="0.00113756639985777" flag="0"/>
		</comp>
		<comp name="--.HGN" depth="0.0">
			<acc value="0.00331116960702225" flag="0"/>
			<vel value="0.00307955796334375" flag="0"/>
			<psa03 value="0.00522219913516765" flag="0"/>
			<psa10 value="0.00440161267898799" flag="0"/>
			<psa30 value="0.00135273440368203" flag="0"/>
		</comp>
		<comp name="--.HGZ" depth="0.0">
			<acc value="0.00236951298824479" flag="0"/>
			<vel value="0.00239036527313649" flag="0"/>
			<psa03 value="0.00562621971465237" flag="0"/>
			<psa10 value="0.0031107699013641" flag="0"/>
			<psa30 value="0.00090175879959487" flag="0"/>
		</comp>
	</station>
	<station code="ARE" name="ARE" netid="IT" source="Italian Strong Motion Network (RAN)" insttype="" lat="38.5614" lon="16.2088">
		<comp name="--.HGE" depth="0.0">
			<acc value="0.0178218949370307" flag="0"/>
			<vel value="0.0135327647767629" flag="0"/>
			<psa03 value="0.0503928747389694" flag="0"/>
			<psa10 value="0.0127758419618294" flag="0"/>
			<psa30 value="0.00163136984107896" flag="0"/>
		</comp>
		<comp name="--.HGN" depth="0.0">
			<acc value="0.0167529309491241" flag="0"/>
			<vel value="0.00791090546997424" flag="0"/>
			<psa03 value="0.0444669352995645" flag="0"/>
			<psa10 value="0.0122878258831592" flag="0"/>
			<psa30 value="0.00149039539804731" flag="0"/>
		</comp>
		<comp name="--.HGZ" depth="0.0">
			<acc value="0.0256088817413388" flag="0"/>
			<vel value="0.00648003977394255" flag="0"/>
			<psa03 value="0.0303240843425981" flag="0"/>
			<psa10 value="0.00718140510784388" flag="0"/>
			<psa30 value="0.000773535201244102" flag="0"/>
		</comp>
	</station>
	<station code="ARMO" name="ARMO" netid="IT" source="Italian Strong Motion Network (RAN)" insttype="" lat="38.0761" lon="15.7125">
		<comp name="--.HNE" depth="0.0">
			<acc value="0.0434373460640227" flag="0"/>
			<vel value="0.0218821324491713" flag="0"/>
			<psa03 value="0.0932371035838618" flag="0"/>
			<psa10 value="0.0414529510545668" flag="0"/>
			<psa30 value="0.00209309678238945" flag="0"/>
		</comp>
		<comp name="--.HNN" depth="0.0">
			<acc value="0.0363217562224198" flag="0"/>
			<vel value="0.0235776295556748" flag="0"/>
			<psa03 value="0.132617358165793" flag="0"/>
			<psa10 value="0.0219373726182729" flag="0"/>
			<psa30 value="0.00299846988391408" flag="0"/>
		</comp>
		<comp name="--.HNZ" depth="0.0">
			<acc value="0.0322929282591679" flag="0"/>
			<vel value="0.0172016622659762" flag="0"/>
			<psa03 value="0.111225243126492" flag="0"/>
			<psa10 value="0.0228170777694218" flag="0"/>
			<psa30 value="0.0015803710459924" flag="0"/>
		</comp>
	</station>
	<station code="BCL" name="BCL" netid="IT" source="Italian Strong Motion Network (RAN)" insttype="" lat="38.1827" lon="15.2316">
		<comp name="--.HGE" depth="0.0">
			<acc value="0.0553760242172999" flag="0"/>
			<vel value="0.045795626601571" flag="0"/>
			<psa03 value="0.137449011572452" flag="0"/>
			<psa10 value="0.0677067902425659" flag="0"/>
			<psa30 value="0.0208063066490368" flag="0"/>
		</comp>
		<comp name="--.HGN" depth="0.0">
			<acc value="0.070798357829736" flag="0"/>
			<vel value="0.0610953450809022" flag="0"/>
			<psa03 value="0.186096098786566" flag="0"/>
			<psa10 value="0.0741890721619296" flag="0"/>
			<psa30 value="0.0284797133079021" flag="0"/>
		</comp>
		<comp name="--.HGZ" depth="0.0">
			<acc value="0.0423160612681738" flag="0"/>
			<vel value="0.043542651562692" flag="0"/>
			<psa03 value="0.0767328331736125" flag="0"/>
			<psa10 value="0.0636109339121854" flag="0"/>
			<psa30 value="0.00606656062986859" flag="0"/>
		</comp>
	</station>
	<station code="BNT" name="BNT" netid="IT" source="Italian Strong Motion Network (RAN)" insttype="" lat="37.7805" lon="14.8444">
		<comp name="--.HNE" depth="0.0">
			<acc value="0.701196413445722" flag="0"/>
			<vel value="0.473618104529589" flag="0"/>
			<psa03 value="1.72971708526789" flag="0"/>
			<psa10 value="0.563452565967213" flag="0"/>
			<psa30 value="0.065453069277946" flag="0"/>
		</comp>
		<comp name="--.HNN" depth="0.0">
			<acc value="0.443172250856256" flag="0"/>
			<vel value="0.411955949270118" flag="0"/>
			<psa03 value="1.66075635029097" flag="0"/>
			<psa10 value="0.604938474205032" flag="0"/>
			<psa30 value="0.0457663984659552" flag="0"/>
		</comp>
		<comp name="--.HNZ" depth="0.0">
			<acc value="0.244583924780151" flag="0"/>
			<vel value="0.219760517589502" flag="0"/>
			<psa03 value="0.61194107975995" flag="0"/>
			<psa10 value="0.343327083734335" flag="0"/>
			<psa30 value="0.0298225555979468" flag="0"/>
		</comp>
	</station>
	<station code="BRO" name="BRO" netid="IT" source="Italian Strong Motion Network (RAN)" insttype="" lat="38.6021" lon="16.3493">
		<comp name="--.HGE" depth="0.0">
			<acc value="0.0141711346408992" flag="0"/>
			<vel value="0.00822396180623476" flag="0"/>
			<psa03 value="0.0610891979012174" flag="0"/>
			<psa10 value="0.0078649900794934" flag="0"/>
			<psa30 value="0.00125987325208648" flag="0"/>
		</comp>
		<comp name="--.HGN" depth="0.0">
			<acc value="0.0132135744051678" flag="0"/>
			<vel value="0.00967127871591319" flag="0"/>
			<psa03 value="0.0425917407646296" flag="0"/>
			<psa10 value="0.0141881930231557" flag="0"/>
			<psa30 value="0.0014834649389384" flag="0"/>
		</comp>
		<comp name="--.HGZ" depth="0.0">
			<acc value="0.00599104781533141" flag="0"/>
			<vel value="0.00329421262176537" flag="0"/>
			<psa03 value="0.00976248135189445" flag="0"/>
			<psa10 value="0.0052674433172685" flag="0"/>
			<psa30 value="0.000722598545690655" flag="0"/>
		</comp>
	</station>
	<station code="BVM" name="BVM" netid="IT" source="Italian Strong Motion Network (RAN)" insttype="" lat="37.931" lon="15.936">
		<comp name="--.HNE" depth="0.0">
			<acc value="0.00983959894634784" flag="0"/>
			<vel value="0.00815384397735953" flag="0"/>
			<psa03 value="0.0332971302506319" flag="0"/>
			<psa10 value="0.0132362468363928" flag="0"/>
			<psa30 value="0.00253853420709941" flag="0"/>
		</comp>
		<comp name="--.HNN" depth="0.0">
			<acc value="0.0141531943129205" flag="0"/>
			<vel value="0.0112812106549316" flag="0"/>
			<psa03 value="0.0306177313994412" flag="0"/>
			<psa10 value="0.0133522279570728" flag="0"/>
			<psa30 value="0.00191259128311933" flag="0"/>
		</comp>
		<comp name="--.HNZ" depth="0.0">
			<acc value="0.00547666025414983" flag="0"/>
			<vel value="0.00426013617210283" flag="0"/>
			<psa03 value="0.0180272489042668" flag="0"/>
			<psa10 value="0.00597435999077875" flag="0"/>
			<psa30 value="0.00149853385384673" flag="0"/>
		</comp>
	</station>
	<station code="CDI1" name="CDI1" netid="IT" source="Italian Strong Motion Network (RAN)" insttype="" lat="37.5032" lon="14.6473">
		<comp name="--.HNE" depth="0.0">
			<acc value="0.0381147026820516" flag="0"/>
			<vel value="0.0671770072094229" flag="0"/>
			<psa03 value="0.0789981759497871" flag="0"/>
			<psa10 value="0.0662815908300993" flag="0"/>
			<psa30 value="0.0198864523798725" flag="0"/>
		</comp>
		<comp name="--.HNN" depth="0.0">
			<acc value="0.049766389809221" flag="0"/>
			<vel value="0.0942912075872" flag="0"/>
			<psa03 value="0.157209633116649" flag="0"/>
			<psa10 value="0.0777369721928945" flag="0"/>
			<psa30 value="0.0433172595558555" flag="0"/>
		</comp>
		<comp name="--.HNZ" depth="0.0">
			<acc value="0.0258905843880472" flag="0"/>
			<vel value="0.0562874863669349" flag="0"/>
			<psa03 value="0.05569637711164" flag="0"/>
			<psa10 value="0.0398536276072375" flag="0"/>
			<psa30 value="0.0208758912586757" flag="0"/>
		</comp>
	</station>
	<station code="CFL" name="CFL" netid="IT" source="Italian Strong Motion Network (RAN)" insttype="" lat="38.037" lon="14.0232">
		<comp name="--.HNE" depth="0.0">
			<acc value="0.00636458349001182" flag="0"/>
			<vel value="0.0134625656547569" flag="0"/>
			<psa03 value="0.0137878274384006" flag="0"/>
			<psa10 value="0.0149338549195969" flag="0"/>
			<psa30 value="0.00399608430430673" flag="0"/>
		</comp>
		<comp name="--.HNN" depth="0.0">
			<acc value="0.00846979165410579" flag="0"/>
			<vel value="0.0150850592297141" flag="0"/>
			<psa03 value="0.0132322020892815" flag="0"/>
			<psa10 value="0.0188282722806342" flag="0"/>
			<psa30 value="0.00330155496181303" flag="0"/>
		</comp>
		<comp name="--.HNZ" depth="0.0">
			<acc value="0.00594532665358905" flag="0"/>
			<vel value="0.00718744614057055" flag="0"/>
			<psa03 value="0.0132589812070166" flag="0"/>
			<psa10 value="0.0154725387297556" flag="0"/>
			<psa30 value="0.00210188986488801" flag="0"/>
		</comp>
	</station>
	<station code="CLG1" name="CLG1" netid="IT" source="Italian Strong Motion Network (RAN)" insttype="" lat="37.2214" lon="14.5182">
		<comp name="--.HNE" depth="0.0">
			<acc value="0.0511981646391429" flag="0"/>
			<vel value="0.0335770119024841" flag="0"/>
			<psa03 value="0.0984654395187915" flag="0"/>
			<psa10 value="0.0478389115931118" flag="0"/>
			<psa30 value="0.0131360501988573" flag="0"/>
		</comp>
		<comp name="--.HNN" depth="0.0">
			<acc value="0.040637826612518" flag="0"/>
			<vel value="0.0301077006245263" flag="0"/>
			<psa03 value="0.126883905436021" flag="0"/>
			<psa10 value="0.0680546332854603" flag="0"/>
			<psa30 value="0.00928028727348658" flag="0"/>
		</comp>
		<comp name="--.HNZ" depth="0.0">
			<acc value="0.0273464009760877" flag="0"/>
			<vel value="0.0174592980029801" flag="0"/>
			<psa03 value="0.0652292794529684" flag="0"/>
			<psa10 value="0.028391019515707" flag="0"/>
			<psa30 value="0.00799679891534855" flag="0"/>
		</comp>
	</station>
	<station code="CLTS" name="CLTS" netid="IT" source="Italian Strong Motion Network (RAN)" insttype="" lat="37.4787" lon="14.0537">
		<comp name="--.HNE" depth="0.0">
			<acc value="0.00835020353487245" flag="0"/>
			<vel value="0.0201539363629737" flag="0"/>
			<psa03 value="0.00874074634925661" flag="0"/>
			<psa10 value="0.0221908687861499" flag="0"/>
			<psa30 value="0.00402821643290255" flag="0"/>
		</comp>
		<comp name="--.HNN" depth="0.0">
			<acc value="0.00789651552854813" flag="0"/>
			<vel value="0.0178224354494571" flag="0"/>
			<psa03 value="0.00831069702726627" flag="0"/>
			<psa10 value="0.0218662791586801" flag="0"/>
			<psa30 value="0.00360765732292551" flag="0"/>
		</comp>
		<comp name="--.HNZ" depth="0.0">
			<acc value="0.00501690093670085" flag="0"/>
			<vel value="0.0127144062787881" flag="0"/>
			<psa03 value="0.00532742908790641" flag="0"/>
			<psa10 value="0.0168902732727111" flag="0"/>
			<psa30 value="0.00257209205514215" flag="0"/>
		</comp>
	</station>
	<station code="CLV" name="CLV" netid="IT" source="Italian Strong Motion Network (RAN)" insttype="" lat="37.8192" lon="13.8902">
		<comp name="--.HGE" depth="0.0">
			<acc value="0.0289612221986465" flag="0"/>
			<vel value="0.0287271677952434" flag="0"/>
			<psa03 value="0.0609812063723086" flag="0"/>
			<psa10 value="0.0405110761599775" flag="0"/>
			<psa30 value="0.00300737568221284" flag="0"/>
		</comp>
		<comp name="--.HGN" depth="0.0">
			<acc value="0.0247400511285073" flag="0"/>
			<vel value="0.0216594182795764" flag="0"/>
			<psa03 value="0.0764070251320954" flag="0"/>
			<psa10 value="0.0388373365329415" flag="0"/>
			<psa30 value="0.00285935379315581" flag="0"/>
		</comp>
		<comp name="--.HGZ" depth="0.0">
			<acc value="0.0136843462026359" flag="0"/>
			<vel value="0.0112163298687306" flag="0"/>
			<psa03 value="0.0305738743274587" flag="0"/>
			<psa10 value="0.0162305183171833" flag="0"/>
			<psa30 value="0.00207790931796113" flag="0"/>
		</comp>
	</station>
	<station code="CNCT" name="CNCT" netid="IT" source="Italian Strong Motion Network (RAN)" insttype="" lat="37.3597" lon="13.8517">
		<comp name="--.HNE" depth="0.0">
			<acc value="0.0132480556420311" flag="0"/>
			<vel value="0.0106393425290353" flag="0"/>
			<psa03 value="0.00598342957596926" flag="0"/>
			<psa10 value="0.00765732054115567" flag="0"/>
			<psa30 value="0.00482485670641096" flag="0"/>
		</comp>
		<comp name="--.HNN" depth="0.0">
			<acc value="0.010416609604882" flag="0"/>
			<vel value="0.00930246389283897" flag="0"/>
			<psa03 value="0.00487092228407107" flag="0"/>
			<psa10 value="0.00753805467162714" flag="0"/>
			<psa30 value="0.00650787028113382" flag="0"/>
		</comp>
		<comp name="--.HNZ" depth="0.0">
			<acc value="0.00813751106434474" flag="0"/>
			<vel value="0.00862750537847653" flag="0"/>
			<psa03 value="0.00558402095565002" flag="0"/>
			<psa10 value="0.00958059841762603" flag="0"/>
			<psa30 value="0.00337346743399471" flag="0"/>
		</comp>
	</station>
	<station code="CON" name="CON" netid="IT" source="Italian Strong Motion Network (RAN)" insttype="" lat="37.8138" lon="13.308">
		<comp name="--.HNE" depth="0.0">
			<acc value="0.00721051361624361" flag="0"/>
			<vel value="0.011927094861111" flag="0"/>
			<psa03 value="0.0159463610556593" flag="0"/>
			<psa10 value="0.0186729613670484" flag="0"/>
			<psa30 value="0.0063181277116198" flag="0"/>
		</comp>
		<comp name="--.HNN" depth="0.0">
			<acc value="0.00631662457156724" flag="0"/>
			<vel value="0.0131529526102655" flag="0"/>
			<psa03 value="0.0116913343893585" flag="0"/>
			<psa10 value="0.0164653213717333" flag="0"/>
			<psa30 value="0.00422767464603028" flag="0"/>
		</comp>
		<comp name="--.HNZ" depth="0.0">
			<acc value="0.00712460248178847" flag="0"/>
			<vel value="0.00948341092827739" flag="0"/>
			<psa03 value="0.00964717423419714" flag="0"/>
			<psa10 value="0.0141748205747967" flag="0"/>
			<psa30 value="0.00173761969211014" flag="0"/>
		</comp>
	</station>
	<station code="CRL" name="CRL" netid="IT" source="Italian Strong Motion Network (RAN)" insttype="" lat="37.813" lon="13.307">
		<comp name="--.HGE" depth="0.0">
			<acc value="0.0482995739333898" flag="0"/>
			<vel value="0.0129172675904915" flag="0"/>
			<psa03 value="0.01374811907875" flag="0"/>
			<psa10 value="0.0221173695421857" flag="0"/>
			<psa30 value="0.00606982417939606" flag="0"/>
		</comp>
		<comp name="--.HGN" depth="0.0">
			<acc value="0.0309028266620518" flag="0"/>
			<vel value="0.0128714633109493" flag="0"/>
			<psa03 value="0.020798746304451" flag="0"/>
			<psa10 value="0.0159073069060135" flag="0"/>
			<psa30 value="0.00422580285536667" flag="0"/>
		</comp>
		<comp name="--.HGZ" depth="0.0">
			<acc value="0.0754657668775858" flag="0"/>
			<vel value="0.00782562531008938" flag="0"/>
			<psa03 value="0.0172950063863769" flag="0"/>
			<psa10 value="0.0158952854846533" flag="0"/>
			<psa30 value="0.0015748927664166" flag="0"/>
		</comp>
	</station>
	<station code="CSG" name="CSG" netid="IT" source="Italian Strong Motion Network (RAN)" insttype="" lat="38.0171" lon="12.8837">
		<comp name="--.HNE" depth="0.0">
			<acc value="0.00243026690601137" flag="0"/>
			<vel value="0.00295055666992589" flag="0"/>
			<psa03 value="0.00443101195727506" flag="0"/>
			<psa10 value="0.00371870720547689" flag="0"/>
			<psa30 value="0.000996367983655663" flag="0"/>
		</comp>
		<comp name="--.HNN" depth="0.0">
			<acc value="0.00259807406786358" flag="0"/>
			<vel value="0.00251925922418571" flag="0"/>
			<psa03 value="0.00692319495581354" flag="0"/>
			<psa10 value="0.00400105661286443" flag="0"/>
			<psa30 value="0.00120877955487979" flag="0"/>
		</comp>
		<comp name="--.HNZ" depth="0.0">
			<acc value="0.00188817903550565" flag="0"/>
			<vel value="0.00203602986539484" flag="0"/>
			<psa03 value="0.00400925843223638" flag="0"/>
			<psa10 value="0.00305430545774682" flag="0"/>
			<psa30 value="0.00037795139159147" flag="0"/>
		</comp>
	</station>
	<station code="CSLA" name="CSLA" netid="IT" source="Italian Strong Motion Network (RAN)" insttype="" lat="37.789" lon="14.0412">
		<comp name="--.HNE" depth="0.0">
			<acc value="0.0294259430191146" flag="0"/>
			<vel value="0.0406266790648441" flag="0"/>
			<psa03 value="0.0642862482317781" flag="0"/>
			<psa10 value="0.0489225946317947" flag="0"/>
			<psa30 value="0.0112571607316512" flag="0"/>
		</comp>
		<comp name="--.HNN" depth="0.0">
			<acc value="0.0328701297391276" flag="0"/>
			<vel value="0.0411742574671857" flag="0"/>
			<psa03 value="0.0766817308299997" flag="0"/>
			<psa10 value="0.0730910669244714" flag="0"/>
			<psa30 value="0.0115685888622364" flag="0"/>
		</comp>
		<comp name="--.HNZ" depth="0.0">
			<acc value="0.0148122610131789" flag="0"/>
			<vel value="0.0234254659487006" flag="0"/>
			<psa03 value="0.0368145585754958" flag="0"/>
			<psa10 value="0.0315333489296089" flag="0"/>
			<psa30 value="0.0110979618521734" flag="0"/>
		</comp>
	</station>
	<station code="CSM" name="CSM" netid="IT" source="Italian Strong Motion Network (RAN)" insttype="" lat="37.5404" lon="13.6273">
		<comp name="--.HGE" depth="0.0">
			<acc value="0.0111258646777737" flag="0"/>
			<vel value="0.0137059005587325" flag="0"/>
			<psa03 value="0.0250503547755631" flag="0"/>
			<psa10 value="0.0255119894190927" flag="0"/>
			<psa30 value="0.00475276776420567" flag="0"/>
		</comp>
		<comp name="--.HGN" depth="0.0">
			<acc value="0.00948435672544818" flag="0"/>
			<vel value="0.0186612356740718" flag="0"/>
			<psa03 value="0.0203652175853011" flag="0"/>
			<psa10 value="0.0372612046219377" flag="0"/>
			<psa30 value="0.00650989958223172" flag="0"/>
		</comp>
		<comp name="--.HGZ" depth="0.0">
			<acc value="0.00547049646356462" flag="0"/>
			<vel value="0.00706379974011311" flag="0"/>
			<psa03 value="0.0121800073865463" flag="0"/>
			<psa10 value="0.0112887062588876" flag="0"/>
			<psa30 value="0.00270522274939727" flag="0"/>
		</comp>
	</station>
	<station code="CSPC" name="CSPC" netid="IT" source="Italian Strong Motion Network (RAN)" insttype="" lat="39.3102" lon="16.2337">
		<comp name="--.HNE" depth="0.0">
