<?xml version="1.0" encoding="UTF-8" standalone="yes"?>
<!DOCTYPE earthquake SYSTEM "stationlist.dtd">
<stationlist created="" xmlns="ch.ethz.sed.shakemap.usgs.xml">
  <station code="ACATE" name="ACATE" netid="IV" insttype="" commtype="DIG" lat="37.024" lon="14.5006">
    <comp name="--.HNE">
      <acc value="0.0296429714" flag="0"/>
      <vel value="0.0171503686" flag="0"/>
      <psa03 value="0.0696989721" flag="0"/>
      <psa10 value="0.0302406569" flag="0"/>
      <psa30 value="0.0055119439" flag="0"/>
    </comp>
    <comp name="--.HNZ">
      <acc value="0.0263578202" flag="0"/>
      <vel value="0.0143813883" flag="0"/>
      <psa03 value="0.0440479065" flag="0"/>
      <psa10 value="0.0200163266" flag="0"/>
      <psa30 value="0.0021440861" flag="0"/>
    </comp>
    <comp name="--.HNN">
      <acc value="0.0293589885" flag="0"/>
      <vel value="0.0312052263" flag="0"/>
      <psa03 value="0.0651269516" flag="0"/>
      <psa10 value="0.0347246189" flag="0"/>
      <psa30 value="0.0062635064" flag="0"/>
    </comp>
  </station>
  <station code="AIO" name="AIO" netid="IV" insttype="" commtype="DIG" lat="37.9712" lon="15.233">
    <comp name="--.HHE">
      <acc value="0.0168691628" flag="0"/>
      <vel value="0.0133312138" flag="0"/>
      <psa03 value="0.0612840456" flag="0"/>
      <psa10 value="0.0232327774" flag="0"/>
      <psa30 value="0.0039083204" flag="0"/>
    </comp>
    <comp name="--.HHN">
      <acc value="0.0210190559" flag="0"/>
      <vel value="0.0168630814" flag="0"/>
      <psa03 value="0.0720179752" flag="0"/>
      <psa10 value="0.0159426733" flag="0"/>
      <psa30 value="0.0025874641" flag="0"/>
    </comp>
    <comp name="--.HHZ">
      <acc value="0.0101908512" flag="0"/>
      <vel value="0.0109376331" flag="0"/>
      <psa03 value="0.0287647895" flag="0"/>
      <psa10 value="0.0165615663" flag="0"/>
      <psa30 value="0.0019284426" flag="0"/>
    </comp>
  </station>
  <station code="ALJA" name="ALJA" netid="IV" insttype="" commtype="DIG" lat="37.749" lon="13.7537">
    <comp name="--.HHE">
      <acc value="0.0179468457" flag="0"/>
      <vel value="0.0198210463" flag="0"/>
      <psa03 value="0.0333369654" flag="0"/>
      <psa10 value="0.0423829643" flag="0"/>
      <psa30 value="0.0034455058" flag="0"/>
    </comp>
    <comp name="--.HHN">
      <acc value="0.0167813790" flag="0"/>
      <vel value="0.0195658265" flag="0"/>
      <psa03 value="0.0400081670" flag="0"/>
      <psa10 value="0.0340566634" flag="0"/>
      <psa30 value="0.0050051813" flag="0"/>
    </comp>
    <comp name="--.HHZ">
      <acc value="0.0068583017" flag="0"/>
      <vel value="0.0106430060" flag="0"/>
      <psa03 value="0.0160663148" flag="0"/>
      <psa10 value="0.0211752242" flag="0"/>
      <psa30 value="0.0022312905" flag="0"/>
    </comp>
  </station>
  <station code="BASIC" name="BASIC" netid="IV" insttype="" commtype="DIG" lat="38.067" lon="15.0688">
    <comp name="--.HHE">
      <acc value="0.0001163980" flag="0"/>
      <vel value="0.0000689189" flag="0"/>
      <psa03 value="0.0004113342" flag="0"/>
      <psa10 value="0.0000211398" flag="0"/>
      <psa30 value="0.0000019910" flag="0"/>
    </comp>
    <comp name="--.HHN">
      <acc value="0.0002509029" flag="0"/>
      <vel value="0.0001479649" flag="0"/>
      <psa03 value="0.0008739762" flag="0"/>
      <psa10 value="0.0000450718" flag="0"/>
      <psa30 value="0.0000041975" flag="0"/>
    </comp>
    <comp name="--.HHZ">
      <acc value="0.0002279943" flag="0"/>
      <vel value="0.0000902671" flag="0"/>
      <psa03 value="0.0005319562" flag="0"/>
      <psa10 value="0.0000274726" flag="0"/>
      <psa30 value="0.0000026016" flag="0"/>
    </comp>
  </station>
  <station code="CIMI" name="CIMI" netid="IV" insttype="" commtype="DIG" lat="37.8815" lon="13.5726">
    <comp name="--.HHN">
      <acc value="0.0223471400" flag="0"/>
      <vel value="0.0255533974" flag="0"/>
      <psa03 value="0.0323914863" flag="0"/>
      <psa10 value="0.0374549633" flag="0"/>
      <psa30 value="0.0032144626" flag="0"/>
    </comp>
    <comp name="--.HHE">
      <acc value="0.0229993011" flag="0"/>
      <vel value="0.0259040047" flag="0"/>
      <psa03 value="0.0320470831" flag="0"/>
      <psa10 value="0.0533426080" flag="0"/>
      <psa30 value="0.0050742324" flag="0"/>
    </comp>
    <comp name="--.HHZ">
      <acc value="0.0139269928" flag="0"/>
      <vel value="0.0130444689" flag="0"/>
      <psa03 value="0.0485025395" flag="0"/>
      <psa10 value="0.0138251699" flag="0"/>
      <psa30 value="0.0032881803" flag="0"/>
    </comp>
  </station>
  <station code="CORL" name="CORL" netid="IV" insttype="" commtype="DIG" lat="37.8943" lon="13.3038">
    <comp name="--.HHE">
      <acc value="0.0117858417" flag="0"/>
      <vel value="0.0141080339" flag="0"/>
      <psa03 value="0.0416310356" flag="0"/>
      <psa10 value="0.0315154341" flag="0"/>
      <psa30 value="0.0036257091" flag="0"/>
    </comp>
    <comp name="--.HHN">
      <acc value="0.0108716771" flag="0"/>
      <vel value="0.0152249301" flag="0"/>
      <psa03 value="0.0287071366" flag="0"/>
      <psa10 value="0.0257289064" flag="0"/>
      <psa30 value="0.0038513467" flag="0"/>
    </comp>
    <comp name="--.HHZ">
      <acc value="0.0099310388" flag="0"/>
      <vel value="0.0093211232" flag="0"/>
      <psa03 value="0.0172908642" flag="0"/>
      <psa10 value="0.0134470063" flag="0"/>
      <psa30 value="0.0026709026" flag="0"/>
    </comp>
  </station>
  <station code="CSLB" name="CSLB" netid="IV" insttype="" commtype="DIG" lat="37.9374" lon="14.0579">
    <comp name="--.HHE">
      <acc value="0.0056470549" flag="0"/>
      <vel value="0.0081596350" flag="0"/>
      <psa03 value="0.0148319645" flag="0"/>
      <psa10 value="0.0123742510" flag="0"/>
      <psa30 value="0.0022133661" flag="0"/>
    </comp>
    <comp name="--.HHN">
      <acc value="0.0111371389" flag="0"/>
      <vel value="0.0097310883" flag="0"/>
      <psa03 value="0.0169387730" flag="0"/>
      <psa10 value="0.0195588702" flag="0"/>
      <psa30 value="0.0025486223" flag="0"/>
    </comp>
    <comp name="--.HHZ">
      <acc value="0.0051772498" flag="0"/>
      <vel value="0.0067085993" flag="0"/>
      <psa03 value="0.0142684595" flag="0"/>
      <psa10 value="0.0139699375" flag="0"/>
      <psa30 value="0.0018571984" flag="0"/>
    </comp>
  </station>
  <station code="EBDA" name="EBDA" netid="IV" insttype="" commtype="DIG" lat="37.6335" lon="15.1223">
    <comp name="--.HHE">
      <acc value="0.8174706454" flag="0"/>
      <vel value="0.3731097567" flag="0"/>
      <psa03 value="2.4905898819" flag="0"/>
      <psa10 value="0.5462820770" flag="0"/>
      <psa30 value="0.0342296122" flag="0"/>
    </comp>
    <comp name="--.HHN">
      <acc value="1.4650510830" flag="0"/>
      <vel value="0.4680823635" flag="0"/>
      <psa03 value="1.9949726727" flag="0"/>
      <psa10 value="0.7253341370" flag="0"/>
      <psa30 value="0.0390283347" flag="0"/>
    </comp>
    <comp name="--.HHZ">
      <acc value="0.4820219767" flag="0"/>
      <vel value="0.2636077688" flag="0"/>
      <psa03 value="1.2874833193" flag="0"/>
      <psa10 value="0.2751981352" flag="0"/>
      <psa30 value="0.0180976196" flag="0"/>
    </comp>
  </station>
  <station code="ECBD" name="ECBD" netid="IV" insttype="" commtype="DIG" lat="37.7802" lon="15.0865">
    <comp name="--.HHE">
      <acc value="0.5431803300" flag="0"/>
      <vel value="0.3356253242" flag="0"/>
      <psa03 value="1.3130543485" flag="0"/>
      <psa10 value="0.4210641933" flag="0"/>
      <psa30 value="0.0436780220" flag="0"/>
    </comp>
    <comp name="--.HHZ">
      <acc value="0.2727519862" flag="0"/>
      <vel value="0.1914485375" flag="0"/>
      <psa03 value="0.7874452494" flag="0"/>
      <psa10 value="0.2327592522" flag="0"/>
      <psa30 value="0.0153001890" flag="0"/>
    </comp>
    <comp name="--.HHN">
      <acc value="0.5429465199" flag="0"/>
      <vel value="0.4127585881" flag="0"/>
      <psa03 value="1.2045876353" flag="0"/>
      <psa10 value="0.3663608534" flag="0"/>
      <psa30 value="0.0331196381" flag="0"/>
    </comp>
  </station>
  <station code="ECHR" name="ECHR" netid="IV" insttype="" commtype="DIG" lat="37.6863" lon="14.9129">
    <comp name="--.HHE">
      <acc value="4.8423279144" flag="0"/>
      <vel value="0.7477863178" flag="0"/>
      <psa03 value="4.5954524672" flag="0"/>
      <psa10 value="0.9692698125" flag="0"/>
      <psa30 value="0.1300564421" flag="0"/>
    </comp>
    <comp name="--.HHN">
      <acc value="4.1079338776" flag="0"/>
      <vel value="0.7845954964" flag="0"/>
      <psa03 value="4.2956405297" flag="0"/>
      <psa10 value="0.4074626146" flag="0"/>
      <psa30 value="0.0744913857" flag="0"/>
    </comp>
    <comp name="--.HHZ">
      <acc value="3.2848145390" flag="0"/>
      <vel value="0.7126014721" flag="0"/>
      <psa03 value="2.7565299768" flag="0"/>
      <psa10 value="0.8759000461" flag="0"/>
      <psa30 value="0.0838683304" flag="0"/>
    </comp>
  </station>
  <station code="ECNE" name="ECNE" netid="IV" insttype="" commtype="DIG" lat="37.7653" lon="15.0018">
    <comp name="--.HHN">
      <acc value="0.9413874536" flag="0"/>
      <vel value="0.5376245733" flag="0"/>
      <psa03 value="2.7133545862" flag="0"/>
      <psa10 value="0.9085695390" flag="0"/>
      <psa30 value="0.0432571717" flag="0"/>
    </comp>
    <comp name="--.HHE">
      <acc value="0.8375611440" flag="0"/>
      <vel value="0.5785543577" flag="0"/>
      <psa03 value="1.9302206168" flag="0"/>
      <psa10 value="0.9241994230" flag="0"/>
      <psa30 value="0.0324164577" flag="0"/>
    </comp>
    <comp name="--.HHZ">
      <acc value="0.6826967374" flag="0"/>
      <vel value="0.3665048719" flag="0"/>
      <psa03 value="2.0014717959" flag="0"/>
      <psa10 value="0.3372868144" flag="0"/>
      <psa30 value="0.0187676146" flag="0"/>
    </comp>
  </station>
  <station code="ECTS" name="ECTS" netid="IV" insttype="" commtype="DIG" lat="37.882" lon="15.121">
    <comp name="--.HHE">
      <acc value="0.0815127363" flag="0"/>
      <vel value="0.0689430137" flag="0"/>
      <psa03 value="0.2383638740" flag="0"/>
      <psa10 value="0.0863067876" flag="0"/>
      <psa30 value="0.0111868523" flag="0"/>
    </comp>
    <comp name="--.HHN">
      <acc value="0.1013063987" flag="0"/>
      <vel value="0.0958203297" flag="0"/>
      <psa03 value="0.3498634786" flag="0"/>
      <psa10 value="0.1311116954" flag="0"/>
      <psa30 value="0.0083773844" flag="0"/>
    </comp>
    <comp name="--.HHZ">
      <acc value="0.0558178839" flag="0"/>
      <vel value="0.0464287053" flag="0"/>
      <psa03 value="0.2345729207" flag="0"/>
      <psa10 value="0.1062618357" flag="0"/>
      <psa30 value="0.0087380729" flag="0"/>
    </comp>
  </station>
  <station code="ECZM" name="ECZM" netid="IV" insttype="" commtype="DIG" lat="37.7313" lon="14.9041">
    <comp name="--.HHE">
      <acc value="3.1895735453" flag="0"/>
      <vel value="0.7254189326" flag="0"/>
      <psa03 value="3.4358976352" flag="0"/>
      <psa10 value="1.3074388744" flag="0"/>
      <psa30 value="0.1028861060" flag="0"/>
    </comp>
    <comp name="--.HHZ">
      <acc value="2.5100042997" flag="0"/>
      <vel value="0.5597663439" flag="0"/>
      <psa03 value="2.1103834485" flag="0"/>
      <psa10 value="0.4711497828" flag="0"/>
      <psa30 value="0.0475300519" flag="0"/>
    </comp>
  </station>
  <station code="EFIU" name="EFIU" netid="IV" insttype="" commtype="DIG" lat="37.7896" lon="15.2103">
    <comp name="--.HHE">
      <acc value="0.1513696019" flag="0"/>
      <vel value="0.1809677817" flag="0"/>
      <psa03 value="0.3545111141" flag="0"/>
      <psa10 value="0.3101235823" flag="0"/>
      <psa30 value="0.0235121980" flag="0"/>
    </comp>
    <comp name="--.HHN">
      <acc value="0.1130397566" flag="0"/>
      <vel value="0.1307501415" flag="0"/>
      <psa03 value="0.2349965722" flag="0"/>
      <psa10 value="0.3437874074" flag="0"/>
      <psa30 value="0.0425609011" flag="0"/>
    </comp>
    <comp name="--.HHZ">
      <acc value="0.1031514164" flag="0"/>
      <vel value="0.1222081856" flag="0"/>
      <psa03 value="0.2489567308" flag="0"/>
      <psa10 value="0.1721474683" flag="0"/>
      <psa30 value="0.0211701106" flag="0"/>
    </comp>
  </station>
  <station code="EMCN" name="EMCN" netid="IV" insttype="" commtype="DIG" lat="37.7912" lon="15.0336">
    <comp name="--.HHE">
      <acc value="0.5446296777" flag="0"/>
      <vel value="0.2738050773" flag="0"/>
      <psa03 value="1.3866217744" flag="0"/>
      <psa10 value="0.3643884916" flag="0"/>
      <psa30 value="0.0310623148" flag="0"/>
    </comp>
    <comp name="--.HHN">
      <acc value="0.4058744365" flag="0"/>
      <vel value="0.2818976197" flag="0"/>
      <psa03 value="1.1381102680" flag="0"/>
      <psa10 value="0.3929251783" flag="0"/>
      <psa30 value="0.0275679972" flag="0"/>
    </comp>
    <comp name="--.HHZ">
      <acc value="0.3716681222" flag="0"/>
      <vel value="0.2213536322" flag="0"/>
      <psa03 value="1.4456176705" flag="0"/>
      <psa10 value="0.3054505677" flag="0"/>
      <psa30 value="0.0176238650" flag="0"/>
    </comp>
  </station>
  <station code="EMCO" name="EMCO" netid="IV" insttype="" commtype="DIG" lat="37.9264" lon="14.9029">
    <comp name="--.HHE">
      <acc value="0.2402610001" flag="0"/>
      <vel value="0.1956077055" flag="0"/>
      <psa03 value="0.5879921149" flag="0"/>
      <psa10 value="0.2100143396" flag="0"/>
      <psa30 value="0.0394828692" flag="0"/>
    </comp>
    <comp name="--.HHN">
      <acc value="0.2023113439" flag="0"/>
      <vel value="0.1443511843" flag="0"/>
      <psa03 value="0.5327810951" flag="0"/>
      <psa10 value="0.2373248578" flag="0"/>
      <psa30 value="0.0257236299" flag="0"/>
    </comp>
    <comp name="--.HHZ">
      <acc value="0.1109344341" flag="0"/>
      <vel value="0.0807048624" flag="0"/>
      <psa03 value="0.3195106420" flag="0"/>
      <psa10 value="0.1467734986" flag="0"/>
      <psa30 value="0.0213272970" flag="0"/>
    </comp>
  </station>
  <station code="EMFO" name="EMFO" netid="IV" insttype="" commtype="DIG" lat="37.7357" lon="15.0902">
    <comp name="--.HHE">
      <acc value="1.1252120497" flag="0"/>
      <vel value="0.5458383128" flag="0"/>
      <psa03 value="2.9207551844" flag="0"/>
      <psa10 value="0.3089873570" flag="0"/>
      <psa30 value="0.0362673247" flag="0"/>
    </comp>
    <comp name="--.HHN">
      <acc value="0.6443479393" flag="0"/>
      <vel value="0.3113272078" flag="0"/>
      <psa03 value="2.4417108699" flag="0"/>
      <psa10 value="0.3408016425" flag="0"/>
      <psa30 value="0.0309367396" flag="0"/>
    </comp>
    <comp name="--.HHZ">
      <acc value="0.4308479122" flag="0"/>
      <vel value="0.2267746307" flag="0"/>
      <psa03 value="1.0033971070" flag="0"/>
      <psa10 value="0.2170053106" flag="0"/>
      <psa30 value="0.0123602041" flag="0"/>
    </comp>
  </station>
  <station code="EMNR" name="EMNR" netid="IV" insttype="" commtype="DIG" lat="37.8168" lon="15.026">
    <comp name="--.HHE">
      <acc value="0.3554870419" flag="0"/>
      <vel value="0.2559126557" flag="0"/>
      <psa03 value="1.3533039947" flag="0"/>
      <psa10 value="0.4088802096" flag="0"/>
      <psa30 value="0.0409607220" flag="0"/>
    </comp>
    <comp name="--.HHN">
      <acc value="0.3848989867" flag="0"/>
      <vel value="0.2524021521" flag="0"/>
      <psa03 value="1.1265736191" flag="0"/>
      <psa10 value="0.3685504963" flag="0"/>
      <psa30 value="0.0288695728" flag="0"/>
    </comp>
    <comp name="--.HHZ">
      <acc value="0.2396495190" flag="0"/>
      <vel value="0.1498865461" flag="0"/>
      <psa03 value="0.6808440966" flag="0"/>
      <psa10 value="0.2105882792" flag="0"/>
      <psa30 value="0.0127265014" flag="0"/>
    </comp>
  </station>
  <station code="EMPL" name="EMPL" netid="IV" insttype="" commtype="DIG" lat="37.679" lon="14.9703">
    <comp name="--.HHE">
      <acc value="23.5699090196" flag="0"/>
      <vel value="1.1122766425" flag="0"/>
      <psa03 value="5.4787022469" flag="0"/>
      <psa10 value="1.0016434593" flag="0"/>
      <psa30 value="0.0814062739" flag="0"/>
    </comp>
    <comp name="--.HHN">
      <acc value="21.8412583709" flag="0"/>
      <vel value="1.1034353358" flag="0"/>
      <psa03 value="7.4144864151" flag="0"/>
      <psa10 value="0.8453455373" flag="0"/>
      <psa30 value="0.1165409543" flag="0"/>
    </comp>
    <comp name="--.HHZ">
      <acc value="23.1022007442" flag="0"/>
      <vel value="1.1513667772" flag="0"/>
      <psa03 value="4.8710303576" flag="0"/>
      <psa10 value="0.7247860521" flag="0"/>
      <psa30 value="0.0957640546" flag="0"/>
    </comp>
  </station>
  <station code="EMSA" name="EMSA" netid="IV" insttype="" commtype="DIG" lat="37.498" lon="14.945">
    <comp name="--.HHN">
      <acc value="0.0013805796" flag="0"/>
      <vel value="0.0002608432" flag="0"/>
      <psa03 value="0.0005285788" flag="0"/>
      <psa10 value="0.0002225413" flag="0"/>
      <psa30 value="0.0000292028" flag="0"/>
    </comp>
    <comp name="--.HHZ">
      <acc value="0.4438403801" flag="0"/>
      <vel value="0.5321676198" flag="0"/>
      <psa03 value="1.1159528273" flag="0"/>
      <psa10 value="0.8776710688" flag="0"/>
      <psa30 value="0.1029650830" flag="0"/>
    </comp>
    <comp name="--.HHE">
      <acc value="1.7121021456" flag="0"/>
      <vel value="0.2484695781" flag="0"/>
      <psa03 value="0.7410601965" flag="0"/>
      <psa10 value="0.1022794151" flag="0"/>
      <psa30 value="0.0171820620" flag="0"/>
    </comp>
  </station>
  <station code="EPDN" name="EPDN" netid="IV" insttype="" commtype="DIG" lat="37.7659" lon="15.0168">
    <comp name="--.HHE">
      <acc value="0.5870590836" flag="0"/>
      <vel value="0.5447141134" flag="0"/>
      <psa03 value="1.7719384267" flag="0"/>
      <psa10 value="1.1499359939" flag="0"/>
      <psa30 value="0.0516159522" flag="0"/>
    </comp>
    <comp name="--.HHN">
      <acc value="0.6582825077" flag="0"/>
      <vel value="0.5171638931" flag="0"/>
      <psa03 value="1.4845894503" flag="0"/>
      <psa10 value="1.0707285428" flag="0"/>
      <psa30 value="0.0544693993" flag="0"/>
    </comp>
    <comp name="--.HHZ">
      <acc value="0.4044331584" flag="0"/>
      <vel value="0.2728420824" flag="0"/>
      <psa03 value="1.4023149125" flag="0"/>
      <psa10 value="0.3818687733" flag="0"/>
      <psa30 value="0.0158188750" flag="0"/>
    </comp>
  </station>
  <station code="EPMN" name="EPMN" netid="IV" insttype="" commtype="DIG" lat="37.8204" lon="15.1773">
    <comp name="--.HHE">
      <acc value="0.2878001543" flag="0"/>
      <vel value="0.1738247250" flag="0"/>
      <psa03 value="1.3043659550" flag="0"/>
      <psa10 value="0.2264958251" flag="0"/>
      <psa30 value="0.0136151782" flag="0"/>
    </comp>
    <comp name="--.HHN">
      <acc value="0.2089874375" flag="0"/>
      <vel value="0.1243880045" flag="0"/>
      <psa03 value="0.7472410046" flag="0"/>
      <psa10 value="0.1135394211" flag="0"/>
      <psa30 value="0.0141052599" flag="0"/>
    </comp>
    <comp name="--.HHZ">
      <acc value="0.1306883324" flag="0"/>
      <vel value="0.0965701967" flag="0"/>
      <psa03 value="0.4995635284" flag="0"/>
      <psa10 value="0.1432122060" flag="0"/>
      <psa30 value="0.0096091805" flag="0"/>
    </comp>
  </station>
  <station code="EPOZ" name="EPOZ" netid="IV" insttype="" commtype="DIG" lat="37.6719" lon="15.1885">
    <comp name="--.HHE">
      <acc value="0.5557391340" flag="0"/>
      <vel value="0.3580662305" flag="0"/>
      <psa03 value="1.4993553147" flag="0"/>
      <psa10 value="0.5383083649" flag="0"/>
      <psa30 value="0.0346493701" flag="0"/>
    </comp>
    <comp name="--.HHN">
      <acc value="0.3917349460" flag="0"/>
      <vel value="0.2311475141" flag="0"/>
      <psa03 value="1.2041711151" flag="0"/>
