<?xml version="1.0" encoding="UTF-8" standalone="yes"?>
<!DOCTYPE earthquake SYSTEM "stationlist.dtd">
<stationlist created="" xmlns="ch.ethz.sed.shakemap.usgs.xml">
  <station code="ACATE" name="ACATE" netid="IV" insttype="" commtype="DIG" lat="37.024" lon="14.5006">
    <comp name="--.HNE">
      <acc value="0.0296429686" flag="0"/>
      <vel value="0.0171503679" flag="0"/>
      <psa03 value="0.0696989721" flag="0"/>
      <psa10 value="0.0302406569" flag="0"/>
      <psa30 value="0.0055123595" flag="0"/>
    </comp>
    <comp name="--.HNN">
      <acc value="0.0293589902" flag="0"/>
      <vel value="0.0312052256" flag="0"/>
      <psa03 value="0.0651269516" flag="0"/>
      <psa10 value="0.0347246189" flag="0"/>
      <psa30 value="0.0062635569" flag="0"/>
    </comp>
    <comp name="--.HNZ">
      <acc value="0.0263578358" flag="0"/>
      <vel value="0.0143813902" flag="0"/>
      <psa03 value="0.0440479065" flag="0"/>
      <psa10 value="0.0200163266" flag="0"/>
      <psa30 value="0.0016164020" flag="0"/>
    </comp>
  </station>
  <station code="AIO" name="AIO" netid="IV" insttype="" commtype="DIG" lat="37.9712" lon="15.233">
    <comp name="--.HHE">
      <acc value="0.0168691628" flag="0"/>
      <vel value="0.0133312136" flag="0"/>
      <psa03 value="0.0612840456" flag="0"/>
      <psa10 value="0.0232327775" flag="0"/>
      <psa30 value="0.0039083256" flag="0"/>
    </comp>
    <comp name="--.HHZ">
      <acc value="0.0101908512" flag="0"/>
      <vel value="0.0109376339" flag="0"/>
      <psa03 value="0.0287647895" flag="0"/>
      <psa10 value="0.0165615663" flag="0"/>
      <psa30 value="0.0019284450" flag="0"/>
    </comp>
    <comp name="--.HHN">
      <acc value="0.0210190557" flag="0"/>
      <vel value="0.0168630817" flag="0"/>
      <psa03 value="0.0720179752" flag="0"/>
      <psa10 value="0.0159426733" flag="0"/>
      <psa30 value="0.0025874522" flag="0"/>
    </comp>
  </station>
  <station code="ALJA" name="ALJA" netid="IV" insttype="" commtype="DIG" lat="37.749" lon="13.7537">
    <comp name="--.HHN">
      <acc value="0.0167813787" flag="0"/>
      <vel value="0.0195658246" flag="0"/>
      <psa03 value="0.0400081670" flag="0"/>
      <psa10 value="0.0340566641" flag="0"/>
      <psa30 value="0.0050051830" flag="0"/>
    </comp>
    <comp name="--.HHE">
      <acc value="0.0179468455" flag="0"/>
      <vel value="0.0198210450" flag="0"/>
      <psa03 value="0.0333369655" flag="0"/>
      <psa10 value="0.0423829643" flag="0"/>
      <psa30 value="0.0034445210" flag="0"/>
    </comp>
    <comp name="--.HHZ">
      <acc value="0.0068583022" flag="0"/>
      <vel value="0.0106430062" flag="0"/>
      <psa03 value="0.0160663148" flag="0"/>
      <psa10 value="0.0211752242" flag="0"/>
      <psa30 value="0.0022309172" flag="0"/>
    </comp>
  </station>
  <station code="BASIC" name="BASIC" netid="IV" insttype="" commtype="DIG" lat="38.067" lon="15.0688">
    <comp name="--.HHE">
      <acc value="0.0001163967" flag="0"/>
      <vel value="0.0000689189" flag="0"/>
      <psa03 value="0.0004113342" flag="0"/>
      <psa10 value="0.0000211398" flag="0"/>
      <psa30 value="0.0000019908" flag="0"/>
    </comp>
    <comp name="--.HHZ">
      <acc value="0.0002279960" flag="0"/>
      <vel value="0.0000902671" flag="0"/>
      <psa03 value="0.0005319562" flag="0"/>
      <psa10 value="0.0000274726" flag="0"/>
      <psa30 value="0.0000026018" flag="0"/>
    </comp>
    <comp name="--.HHN">
      <acc value="0.0002509033" flag="0"/>
      <vel value="0.0001479649" flag="0"/>
      <psa03 value="0.0008739762" flag="0"/>
      <psa10 value="0.0000450718" flag="0"/>
      <psa30 value="0.0000041976" flag="0"/>
    </comp>
  </station>
  <station code="CSLB" name="CSLB" netid="IV" insttype="" commtype="DIG" lat="37.9374" lon="14.0579">
    <comp name="--.HHE">
      <acc value="0.0056470546" flag="0"/>
      <vel value="0.0081596350" flag="0"/>
      <psa03 value="0.0148319645" flag="0"/>
      <psa10 value="0.0123742510" flag="0"/>
      <psa30 value="0.0022133663" flag="0"/>
    </comp>
    <comp name="--.HHN">
      <acc value="0.0111371395" flag="0"/>
      <vel value="0.0097310882" flag="0"/>
      <psa03 value="0.0169387730" flag="0"/>
      <psa10 value="0.0195588702" flag="0"/>
      <psa30 value="0.0025486221" flag="0"/>
    </comp>
    <comp name="--.HHZ">
      <acc value="0.0051772495" flag="0"/>
      <vel value="0.0067085992" flag="0"/>
      <psa03 value="0.0142684595" flag="0"/>
      <psa10 value="0.0139699375" flag="0"/>
      <psa30 value="0.0018571986" flag="0"/>
    </comp>
  </station>
  <station code="EBDA" name="EBDA" netid="IV" insttype="" commtype="DIG" lat="37.6335" lon="15.1223">
    <comp name="--.HHE">
      <acc value="0.8174706411" flag="0"/>
      <vel value="0.3731097575" flag="0"/>
      <psa03 value="2.4905898819" flag="0"/>
      <psa10 value="0.5462820773" flag="0"/>
      <psa30 value="0.0342298555" flag="0"/>
    </comp>
    <comp name="--.HHZ">
      <acc value="0.4820219731" flag="0"/>
      <vel value="0.2636077683" flag="0"/>
      <psa03 value="1.2874833193" flag="0"/>
      <psa10 value="0.2751981378" flag="0"/>
      <psa30 value="0.0180977278" flag="0"/>
    </comp>
    <comp name="--.HHN">
      <acc value="1.4650510829" flag="0"/>
      <vel value="0.4680823651" flag="0"/>
      <psa03 value="1.9949726727" flag="0"/>
      <psa10 value="0.7253341366" flag="0"/>
      <psa30 value="0.0390281715" flag="0"/>
    </comp>
  </station>
  <station code="ECBD" name="ECBD" netid="IV" insttype="" commtype="DIG" lat="37.7802" lon="15.0865">
    <comp name="--.HHE">
      <acc value="0.5431803303" flag="0"/>
      <vel value="0.3356253287" flag="0"/>
      <psa03 value="1.3130543485" flag="0"/>
      <psa10 value="0.4210641939" flag="0"/>
      <psa30 value="0.0436784970" flag="0"/>
    </comp>
    <comp name="--.HHZ">
      <acc value="0.2727519857" flag="0"/>
      <vel value="0.1914485450" flag="0"/>
      <psa03 value="0.7874452494" flag="0"/>
      <psa10 value="0.2327592522" flag="0"/>
      <psa30 value="0.0153003622" flag="0"/>
    </comp>
    <comp name="--.HHN">
      <acc value="0.5429465199" flag="0"/>
      <vel value="0.4127585939" flag="0"/>
      <psa03 value="1.2045876353" flag="0"/>
      <psa10 value="0.3663608527" flag="0"/>
      <psa30 value="0.0331198184" flag="0"/>
    </comp>
  </station>
  <station code="ECHR" name="ECHR" netid="IV" insttype="" commtype="DIG" lat="37.6863" lon="14.9129">
    <comp name="--.HHE">
      <acc value="4.8423279145" flag="0"/>
      <vel value="0.7477863171" flag="0"/>
      <psa03 value="4.5954524672" flag="0"/>
      <psa10 value="0.9692697918" flag="0"/>
      <psa30 value="0.1300560865" flag="0"/>
    </comp>
    <comp name="--.HHN">
      <acc value="4.1079338778" flag="0"/>
      <vel value="0.7845954891" flag="0"/>
      <psa03 value="4.2956405297" flag="0"/>
      <psa10 value="0.4074626102" flag="0"/>
      <psa30 value="0.0744909631" flag="0"/>
    </comp>
    <comp name="--.HHZ">
      <acc value="3.2848145390" flag="0"/>
      <vel value="0.7126014679" flag="0"/>
      <psa03 value="2.7565299768" flag="0"/>
      <psa10 value="0.8759000097" flag="0"/>
      <psa30 value="0.0838682429" flag="0"/>
    </comp>
  </station>
  <station code="ECNE" name="ECNE" netid="IV" insttype="" commtype="DIG" lat="37.7653" lon="15.0018">
    <comp name="--.HHE">
      <acc value="0.8375611440" flag="0"/>
      <vel value="0.5785543537" flag="0"/>
      <psa03 value="1.9302206168" flag="0"/>
      <psa10 value="0.9241994048" flag="0"/>
      <psa30 value="0.0324160489" flag="0"/>
    </comp>
    <comp name="--.HHN">
      <acc value="0.9413874537" flag="0"/>
      <vel value="0.5376245741" flag="0"/>
      <psa03 value="2.7133545862" flag="0"/>
      <psa10 value="0.9085695091" flag="0"/>
      <psa30 value="0.0432570692" flag="0"/>
    </comp>
    <comp name="--.HHZ">
      <acc value="0.6826967381" flag="0"/>
      <vel value="0.3665048814" flag="0"/>
      <psa03 value="2.0014717959" flag="0"/>
      <psa10 value="0.3372868104" flag="0"/>
      <psa30 value="0.0187675816" flag="0"/>
    </comp>
  </station>
  <station code="ECTS" name="ECTS" netid="IV" insttype="" commtype="DIG" lat="37.882" lon="15.121">
    <comp name="--.HHE">
      <acc value="0.0815127364" flag="0"/>
      <vel value="0.0689430150" flag="0"/>
      <psa03 value="0.2383638740" flag="0"/>
      <psa10 value="0.0863067887" flag="0"/>
      <psa30 value="0.0111868662" flag="0"/>
    </comp>
    <comp name="--.HHZ">
      <acc value="0.0558178841" flag="0"/>
      <vel value="0.0464287041" flag="0"/>
      <psa03 value="0.2345729207" flag="0"/>
      <psa10 value="0.1062618357" flag="0"/>
      <psa30 value="0.0087380820" flag="0"/>
    </comp>
    <comp name="--.HHN">
      <acc value="0.1013063985" flag="0"/>
      <vel value="0.0958203280" flag="0"/>
      <psa03 value="0.3498634786" flag="0"/>
      <psa10 value="0.1311116978" flag="0"/>
      <psa30 value="0.0083773743" flag="0"/>
    </comp>
  </station>
  <station code="ECZM" name="ECZM" netid="IV" insttype="" commtype="DIG" lat="37.7313" lon="14.9041">
    <comp name="--.HHE">
      <acc value="3.1895735455" flag="0"/>
      <vel value="0.7254189349" flag="0"/>
      <psa03 value="3.4358976352" flag="0"/>
      <psa10 value="1.3074388765" flag="0"/>
      <psa30 value="0.1028861866" flag="0"/>
    </comp>
    <comp name="--.HHZ">
      <acc value="2.5100042998" flag="0"/>
      <vel value="0.5597663409" flag="0"/>
      <psa03 value="2.1103834486" flag="0"/>
      <psa10 value="0.4711497820" flag="0"/>
      <psa30 value="0.0475299629" flag="0"/>
    </comp>
  </station>
  <station code="EFIU" name="EFIU" netid="IV" insttype="" commtype="DIG" lat="37.7896" lon="15.2103">
    <comp name="--.HHN">
      <acc value="0.1130397563" flag="0"/>
      <vel value="0.1307501412" flag="0"/>
      <psa03 value="0.2349965722" flag="0"/>
      <psa10 value="0.3437874079" flag="0"/>
      <psa30 value="0.0425610364" flag="0"/>
    </comp>
    <comp name="--.HHE">
      <acc value="0.1513696016" flag="0"/>
      <vel value="0.1809677816" flag="0"/>
      <psa03 value="0.3545111141" flag="0"/>
      <psa10 value="0.3101235825" flag="0"/>
      <psa30 value="0.0235121999" flag="0"/>
    </comp>
    <comp name="--.HHZ">
      <acc value="0.1031514158" flag="0"/>
      <vel value="0.1222081871" flag="0"/>
      <psa03 value="0.2489567308" flag="0"/>
      <psa10 value="0.1721474665" flag="0"/>
      <psa30 value="0.0211701039" flag="0"/>
    </comp>
  </station>
  <station code="EMCN" name="EMCN" netid="IV" insttype="" commtype="DIG" lat="37.7912" lon="15.0336">
    <comp name="--.HHE">
      <acc value="0.5446296778" flag="0"/>
      <vel value="0.2738050734" flag="0"/>
      <psa03 value="1.3866217744" flag="0"/>
      <psa10 value="0.3643884938" flag="0"/>
      <psa30 value="0.0310621456" flag="0"/>
    </comp>
    <comp name="--.HHZ">
      <acc value="0.3716681219" flag="0"/>
      <vel value="0.2213536291" flag="0"/>
      <psa03 value="1.4456176705" flag="0"/>
      <psa10 value="0.3054505677" flag="0"/>
      <psa30 value="0.0176238845" flag="0"/>
    </comp>
    <comp name="--.HHN">
      <acc value="0.4058744366" flag="0"/>
      <vel value="0.2818976224" flag="0"/>
      <psa03 value="1.1381102680" flag="0"/>
      <psa10 value="0.3929251785" flag="0"/>
      <psa30 value="0.0275679077" flag="0"/>
    </comp>
  </station>
  <station code="EMCO" name="EMCO" netid="IV" insttype="" commtype="DIG" lat="37.9264" lon="14.9029">
    <comp name="--.HHZ">
      <acc value="0.1109344304" flag="0"/>
      <vel value="0.0807048623" flag="0"/>
      <psa03 value="0.3195106420" flag="0"/>
      <psa10 value="0.1467734986" flag="0"/>
      <psa30 value="0.0213273005" flag="0"/>
    </comp>
    <comp name="--.HHE">
      <acc value="0.2402610028" flag="0"/>
      <vel value="0.1956077054" flag="0"/>
      <psa03 value="0.5879921149" flag="0"/>
      <psa10 value="0.2100143397" flag="0"/>
      <psa30 value="0.0394828708" flag="0"/>
    </comp>
    <comp name="--.HHN">
      <acc value="0.2023113718" flag="0"/>
      <vel value="0.1443511843" flag="0"/>
      <psa03 value="0.5327810951" flag="0"/>
      <psa10 value="0.2373248579" flag="0"/>
      <psa30 value="0.0257236287" flag="0"/>
    </comp>
  </station>
  <station code="EMFO" name="EMFO" netid="IV" insttype="" commtype="DIG" lat="37.7357" lon="15.0902">
    <comp name="--.HHZ">
      <acc value="0.4308479120" flag="0"/>
      <vel value="0.2267746291" flag="0"/>
      <psa03 value="1.0033971070" flag="0"/>
      <psa10 value="0.2170052972" flag="0"/>
      <psa30 value="0.0123602181" flag="0"/>
    </comp>
    <comp name="--.HHE">
      <acc value="1.1252120498" flag="0"/>
      <vel value="0.5458383091" flag="0"/>
      <psa03 value="2.9207551844" flag="0"/>
      <psa10 value="0.3089874463" flag="0"/>
      <psa30 value="0.0362669053" flag="0"/>
    </comp>
    <comp name="--.HHN">
      <acc value="0.6443479397" flag="0"/>
      <vel value="0.3113272038" flag="0"/>
      <psa03 value="2.4417108699" flag="0"/>
      <psa10 value="0.3408016292" flag="0"/>
      <psa30 value="0.0309371917" flag="0"/>
    </comp>
  </station>
  <station code="EMNR" name="EMNR" netid="IV" insttype="" commtype="DIG" lat="37.8168" lon="15.026">
    <comp name="--.HHN">
      <acc value="0.3848989868" flag="0"/>
      <vel value="0.2524021501" flag="0"/>
      <psa03 value="1.1265736191" flag="0"/>
      <psa10 value="0.3685504963" flag="0"/>
      <psa30 value="0.0288697206" flag="0"/>
    </comp>
    <comp name="--.HHE">
      <acc value="0.3554870421" flag="0"/>
      <vel value="0.2559126586" flag="0"/>
      <psa03 value="1.3533039947" flag="0"/>
      <psa10 value="0.4088802096" flag="0"/>
      <psa30 value="0.0409606655" flag="0"/>
    </comp>
    <comp name="--.HHZ">
      <acc value="0.2396495192" flag="0"/>
      <vel value="0.1498865508" flag="0"/>
      <psa03 value="0.6808440966" flag="0"/>
      <psa10 value="0.2105882793" flag="0"/>
      <psa30 value="0.0127264969" flag="0"/>
    </comp>
  </station>
  <station code="EMPL" name="EMPL" netid="IV" insttype="" commtype="DIG" lat="37.679" lon="14.9703">
    <comp name="--.HHN">
      <acc value="21.8412583510" flag="0"/>
      <vel value="1.1034353358" flag="0"/>
      <psa03 value="7.4144864151" flag="0"/>
      <psa10 value="0.8453455373" flag="0"/>
      <psa30 value="0.1165409123" flag="0"/>
    </comp>
    <comp name="--.HHE">
      <acc value="23.5699090153" flag="0"/>
      <vel value="1.1122766421" flag="0"/>
      <psa03 value="5.4787022469" flag="0"/>
      <psa10 value="1.0016434592" flag="0"/>
      <psa30 value="0.0814063435" flag="0"/>
    </comp>
    <comp name="--.HHZ">
      <acc value="23.1022007382" flag="0"/>
      <vel value="1.1513667770" flag="0"/>
      <psa03 value="4.8710303576" flag="0"/>
      <psa10 value="0.7247860552" flag="0"/>
      <psa30 value="0.0957640398" flag="0"/>
    </comp>
  </station>
  <station code="EMSA" name="EMSA" netid="IV" insttype="" commtype="DIG" lat="37.498" lon="14.945">
    <comp name="--.HHE">
      <acc value="1.7121021459" flag="0"/>
      <vel value="0.2484695781" flag="0"/>
      <psa03 value="0.7410601965" flag="0"/>
      <psa10 value="0.1022794151" flag="0"/>
      <psa30 value="0.0171820619" flag="0"/>
    </comp>
    <comp name="--.HHN">
      <acc value="0.0013805805" flag="0"/>
      <vel value="0.0002608431" flag="0"/>
      <psa03 value="0.0005285788" flag="0"/>
      <psa10 value="0.0002225413" flag="0"/>
      <psa30 value="0.0000292007" flag="0"/>
    </comp>
    <comp name="--.HHZ">
      <acc value="0.4438403809" flag="0"/>
      <vel value="0.5321676211" flag="0"/>
      <psa03 value="1.1159528273" flag="0"/>
      <psa10 value="0.8776710687" flag="0"/>
      <psa30 value="0.1029651410" flag="0"/>
    </comp>
  </station>
  <station code="EPDN" name="EPDN" netid="IV" insttype="" commtype="DIG" lat="37.7659" lon="15.0168">
    <comp name="--.HHE">
      <acc value="0.5870590835" flag="0"/>
      <vel value="0.5447140949" flag="0"/>
      <psa03 value="1.7719384267" flag="0"/>
      <psa10 value="1.1499359887" flag="0"/>
      <psa30 value="0.0516171888" flag="0"/>
    </comp>
    <comp name="--.HHN">
      <acc value="0.6582825077" flag="0"/>
      <vel value="0.5171639211" flag="0"/>
      <psa03 value="1.4845894503" flag="0"/>
      <psa10 value="1.0707285484" flag="0"/>
      <psa30 value="0.0544690951" flag="0"/>
    </comp>
    <comp name="--.HHZ">
      <acc value="0.4044331585" flag="0"/>
      <vel value="0.2728420744" flag="0"/>
      <psa03 value="1.4023149125" flag="0"/>
      <psa10 value="0.3818687643" flag="0"/>
      <psa30 value="0.0158186769" flag="0"/>
    </comp>
  </station>
  <station code="EPIT" name="EPIT" netid="IV" insttype="" commtype="DIG" lat="37.8113" lon="15.0567">
    <comp name="--.HHZ">
      <acc value="0.2697403846" flag="0"/>
      <vel value="0.1911949798" flag="0"/>
      <psa03 value="1.1218303419" flag="0"/>
      <psa10 value="0.3173597566" flag="0"/>
      <psa30 value="0.0170852206" flag="0"/>
    </comp>
  </station>
  <station code="EPMN" name="EPMN" netid="IV" insttype="" commtype="DIG" lat="37.8204" lon="15.1773">
    <comp name="--.HHE">
      <acc value="0.2878001544" flag="0"/>
      <vel value="0.1738247269" flag="0"/>
      <psa03 value="1.3043659550" flag="0"/>
      <psa10 value="0.2264958244" flag="0"/>
      <psa30 value="0.0136152882" flag="0"/>
    </comp>
    <comp name="--.HHZ">
      <acc value="0.1306883326" flag="0"/>
      <vel value="0.0965701984" flag="0"/>
      <psa03 value="0.4995635283" flag="0"/>
      <psa10 value="0.1432122046" flag="0"/>
      <psa30 value="0.0096091920" flag="0"/>
    </comp>
    <comp name="--.HHN">
      <acc value="0.2089874370" flag="0"/>
      <vel value="0.1243880043" flag="0"/>
      <psa03 value="0.7472410046" flag="0"/>
      <psa10 value="0.1135394219" flag="0"/>
      <psa30 value="0.0141053454" flag="0"/>
    </comp>
  </station>
  <station code="EPOZ" name="EPOZ" netid="IV" insttype="" commtype="DIG" lat="37.6719" lon="15.1885">
    <comp name="--.HHE">
      <acc value="0.5557391337" flag="0"/>
      <vel value="0.3580662197" flag="0"/>
      <psa03 value="1.4993553147" flag="0"/>
      <psa10 value="0.5383083592" flag="0"/>
      <psa30 value="0.0346491902" flag="0"/>
    </comp>
    <comp name="--.HHN">
      <acc value="0.3917349461" flag="0"/>
      <vel value="0.2311475057" flag="0"/>
      <psa03 value="1.2041711151" flag="0"/>
      <psa10 value="0.2778469397" flag="0"/>
      <psa30 value="0.0301857349" flag="0"/>
    </comp>
    <comp name="--.HHZ">
      <acc value="0.2451618623" flag="0"/>
      <vel value="0.1565515204" flag="0"/>
      <psa03 value="0.7179582199" flag="0"/>
      <psa10 value="0.1431296474" flag="0"/>
      <psa30 value="0.0285579894" flag="0"/>
    </comp>
  </station>
  <station code="EPZF" name="EPZF" netid="IV" insttype="" commtype="DIG" lat="37.824" lon="14.857">
    <comp name="--.HHN">
      <acc value="0.4625110114" flag="0"/>
      <vel value="0.3258019831" flag="0"/>
      <psa03 value="1.5595768373" flag="0"/>
      <psa10 value="0.3598708547" flag="0"/>
      <psa30 value="0.0857607995" flag="0"/>
    </comp>
    <comp name="--.HHE">
      <acc value="0.3191387614" flag="0"/>
      <vel value="0.3266424186" flag="0"/>
      <psa03 value="1.1458813383" flag="0"/>
      <psa10 value="0.5044343066" flag="0"/>
      <psa30 value="0.0462485410" flag="0"/>
    </comp>
    <comp name="--.HHZ">
      <acc value="0.1453166101" flag="0"/>
      <vel value="0.1354779831" flag="0"/>
      <psa03 value="0.3558465379" flag="0"/>
      <psa10 value="0.3172281415" flag="0"/>
      <psa30 value="0.0396304603" flag="0"/>
    </comp>
  </station>
  <station code="ESAL" name="ESAL" netid="IV" insttype="" commtype="DIG" lat="37.7551" lon="15.1345">
    <comp name="--.HHE">
