<?xml version="1.0" encoding="UTF-8" standalone="yes"?>
<!DOCTYPE earthquake SYSTEM "stationlist.dtd">
<stationlist created="" xmlns="ch.ethz.sed.shakemap.usgs.xml">
  <station code="KARP" name="KARP" netid="GE" insttype="STS-2/N" commtype="DIG" lat="35.5471" lon="27.1611">
    <comp name="--.HHN">
      <acc value="0.3902301973" flag="0"/>
      <vel value="0.0604459137" flag="0"/>
      <psa03 value="0.1572412772" flag="0"/>
      <psa10 value="0.0340745596" flag="0"/>
      <psa30 value="0.0015490781" flag="0"/>
    </comp>
    <comp name="--.HHZ">
      <acc value="0.1952357026" flag="0"/>
      <vel value="0.0580403088" flag="0"/>
      <psa03 value="0.1964324026" flag="0"/>
      <psa10 value="0.0510491476" flag="0"/>
      <psa30 value="0.0037797122" flag="0"/>
    </comp>
    <comp name="--.HHE">
      <acc value="0.4933869855" flag="0"/>
      <vel value="0.1218326266" flag="0"/>
      <psa03 value="0.2729184402" flag="0"/>
      <psa10 value="0.0935689758" flag="0"/>
      <psa30 value="0.0045325905" flag="0"/>
    </comp>
  </station>
  <station code="ZKR" name="ZKR" netid="GE" insttype="STS-2/N" commtype="DIG" lat="35.1147" lon="26.2169">
    <comp name="--.HHN">
      <acc value="0.0037801610" flag="0"/>
      <vel value="0.0020998568" flag="0"/>
      <psa03 value="0.0098560657" flag="0"/>
      <psa10 value="0.0034349691" flag="0"/>
      <psa30 value="0.0003350656" flag="0"/>
    </comp>
    <comp name="--.HHE">
      <acc value="0.0074987310" flag="0"/>
      <vel value="0.0053873270" flag="0"/>
      <psa03 value="0.0170942917" flag="0"/>
      <psa10 value="0.0050801663" flag="0"/>
      <psa30 value="0.0004773726" flag="0"/>
    </comp>
    <comp name="--.HHZ">
      <acc value="0.0037082324" flag="0"/>
      <vel value="0.0024676942" flag="0"/>
      <psa03 value="0.0084768214" flag="0"/>
      <psa10 value="0.0043560346" flag="0"/>
      <psa30 value="0.0004647734" flag="0"/>
    </comp>
  </station>
  <station code="KSS1" name="KSS1" netid="HI" insttype="CMG-5TD,ACCELEROMETER,GURALP" commtype="DIG" lat="35.4189" lon="26.9207">
    <comp name="--.HNE">
      <acc value="0.0863186043" flag="0"/>
      <vel value="0.0180659323" flag="0"/>
      <psa03 value="0.0899973804" flag="0"/>
      <psa10 value="0.0079769581" flag="0"/>
      <psa30 value="0.0009486653" flag="0"/>
    </comp>
    <comp name="--.HNN">
      <acc value="0.1080431685" flag="0"/>
      <vel value="0.0270853203" flag="0"/>
      <psa03 value="0.1967307036" flag="0"/>
      <psa10 value="0.0069235643" flag="0"/>
      <psa30 value="0.0008696540" flag="0"/>
    </comp>
    <comp name="--.HNZ">
      <acc value="0.0789729562" flag="0"/>
      <vel value="0.0181920495" flag="0"/>
      <psa03 value="0.0584035672" flag="0"/>
      <psa10 value="0.0055827169" flag="0"/>
      <psa30 value="0.0009154810" flag="0"/>
    </comp>
  </station>
  <station code="ARG" name="ARG" netid="HL" insttype="LE3D20_DR24" commtype="DIG" lat="36.2136" lon="28.1212">
    <comp name="--.HHE">
      <acc value="0.0069529059" flag="0"/>
      <vel value="0.0040553858" flag="0"/>
      <psa03 value="0.0176022186" flag="0"/>
      <psa10 value="0.0039681259" flag="0"/>
      <psa30 value="0.0004153103" flag="0"/>
    </comp>
    <comp name="--.HHZ">
      <acc value="0.0036805487" flag="0"/>
      <vel value="0.0016840657" flag="0"/>
      <psa03 value="0.0076644651" flag="0"/>
      <psa10 value="0.0025633839" flag="0"/>
      <psa30 value="0.0002350286" flag="0"/>
    </comp>
    <comp name="--.HHN">
      <acc value="0.0048849544" flag="0"/>
      <vel value="0.0025798989" flag="0"/>
      <psa03 value="0.0088176115" flag="0"/>
      <psa10 value="0.0049721998" flag="0"/>
      <psa30 value="0.0004267450" flag="0"/>
    </comp>
  </station>
  <station code="KARP" name="KARP" netid="HL" insttype="120" commtype="DIG" lat="35.5471" lon="27.1611">
    <comp name="--.HHE">
      <acc value="0.4606929813" flag="0"/>
      <vel value="0.1157923735" flag="0"/>
      <psa03 value="0.2618134647" flag="0"/>
      <psa10 value="0.0929270997" flag="0"/>
      <psa30 value="0.0044838256" flag="0"/>
    </comp>
    <comp name="--.HHZ">
      <acc value="0.1774997342" flag="0"/>
      <vel value="0.0556408931" flag="0"/>
      <psa03 value="0.1931694256" flag="0"/>
      <psa10 value="0.0503969457" flag="0"/>
      <psa30 value="0.0037420614" flag="0"/>
    </comp>
    <comp name="--.HHN">
      <acc value="0.3636858696" flag="0"/>
      <vel value="0.0573971948" flag="0"/>
      <psa03 value="0.1511764498" flag="0"/>
      <psa10 value="0.0338266219" flag="0"/>
      <psa30 value="0.0015233430" flag="0"/>
    </comp>
  </station>
</stationlist>
