<?xml version="1.0" encoding="UTF-8" standalone="yes"?>
<!DOCTYPE earthquake SYSTEM "stationlist.dtd">
<stationlist created="" xmlns="ch.ethz.sed.shakemap.usgs.xml">
  <station code="ALIK" name="ALIK" netid="CL" insttype="TRILLIUM-40" commtype="DIG" lat="38.2605" lon="22.1114">
    <comp name="02.HHZ">
      <acc value="0.0058532835" flag="0"/>
      <vel value="0.0020966544" flag="0"/>
      <psa03 value="0.0164038767" flag="0"/>
      <psa10 value="0.0017969394" flag="0"/>
      <psa30 value="0.0001396678" flag="0"/>
    </comp>
    <comp name="02.HHN">
      <acc value="0.0097967208" flag="0"/>
      <vel value="0.0043106180" flag="0"/>
      <psa03 value="0.0296668248" flag="0"/>
      <psa10 value="0.0025342736" flag="0"/>
      <psa30 value="0.0001939821" flag="0"/>
    </comp>
    <comp name="02.HHE">
      <acc value="0.0191248577" flag="0"/>
      <vel value="0.0092666711" flag="0"/>
      <psa03 value="0.0618560205" flag="0"/>
      <psa10 value="0.0092954894" flag="0"/>
      <psa30 value="0.0004095334" flag="0"/>
    </comp>
  </station>
  <station code="MG06" name="MG06" netid="CL" insttype="TRILLIUM-40" commtype="DIG" lat="38.4129" lon="21.9462">
    <comp name="06.HHE">
      <acc value="0.0054050416" flag="0"/>
      <vel value="0.0020806333" flag="0"/>
      <psa03 value="0.0096153384" flag="0"/>
      <psa10 value="0.0021048160" flag="0"/>
      <psa30 value="0.0002332187" flag="0"/>
    </comp>
    <comp name="06.HHN">
      <acc value="0.0049095848" flag="0"/>
      <vel value="0.0016207445" flag="0"/>
      <psa03 value="0.0068082917" flag="0"/>
      <psa10 value="0.0017140965" flag="0"/>
      <psa30 value="0.0001201627" flag="0"/>
    </comp>
    <comp name="06.HHZ">
      <acc value="0.0026127384" flag="0"/>
      <vel value="0.0012223628" flag="0"/>
      <psa03 value="0.0059868865" flag="0"/>
      <psa10 value="0.0011181350" flag="0"/>
      <psa30 value="0.0001592105" flag="0"/>
    </comp>
  </station>
  <station code="PANR" name="PANR" netid="CL" insttype="TRILLIUM-40" commtype="DIG" lat="38.3735" lon="22.2497">
    <comp name="01.HHE">
      <acc value="0.0061584807" flag="0"/>
      <vel value="0.0034625614" flag="0"/>
      <psa03 value="0.0150786349" flag="0"/>
      <psa10 value="0.0033644401" flag="0"/>
      <psa30 value="0.0002288612" flag="0"/>
    </comp>
    <comp name="01.HHN">
      <acc value="0.0059002106" flag="0"/>
      <vel value="0.0036420028" flag="0"/>
      <psa03 value="0.0142481110" flag="0"/>
      <psa10 value="0.0064587875" flag="0"/>
      <psa30 value="0.0003905790" flag="0"/>
    </comp>
    <comp name="01.HHZ">
      <acc value="0.0049900475" flag="0"/>
      <vel value="0.0020343532" flag="0"/>
      <psa03 value="0.0069633541" flag="0"/>
      <psa10 value="0.0026348166" flag="0"/>
      <psa30 value="0.0002664553" flag="0"/>
    </comp>
  </station>
  <station code="PSAM" name="PSAM" netid="CL" insttype="CMG40-T" commtype="DIG" lat="38.3218" lon="22.1842">
    <comp name="00.HHE">
      <acc value="0.0073103798" flag="0"/>
      <vel value="0.0026262843" flag="0"/>
      <psa03 value="0.0165426132" flag="0"/>
      <psa10 value="0.0046524760" flag="0"/>
      <psa30 value="0.0003723402" flag="0"/>
    </comp>
    <comp name="00.HHN">
      <acc value="0.0054376262" flag="0"/>
      <vel value="0.0040860673" flag="0"/>
      <psa03 value="0.0111027935" flag="0"/>
      <psa10 value="0.0059937443" flag="0"/>
      <psa30 value="0.0002858012" flag="0"/>
    </comp>
    <comp name="00.HHZ">
      <acc value="0.0036290800" flag="0"/>
      <vel value="0.0024055284" flag="0"/>
      <psa03 value="0.0081313071" flag="0"/>
      <psa10 value="0.0026739093" flag="0"/>
      <psa30 value="0.0002008671" flag="0"/>
    </comp>
  </station>
  <station code="TRIZ" name="TRIZ" netid="CL" insttype="STS-2" commtype="DIG" lat="38.3654" lon="22.0727">
    <comp name="00.HH2">
      <acc value="0.0135695202" flag="0"/>
      <vel value="0.0047320085" flag="0"/>
      <psa03 value="0.0299458896" flag="0"/>
      <psa10 value="0.0038241820" flag="0"/>
      <psa30 value="0.0003584432" flag="0"/>
    </comp>
    <comp name="00.HH3">
      <acc value="0.0121477223" flag="0"/>
      <vel value="0.0051852871" flag="0"/>
      <psa03 value="0.0345722653" flag="0"/>
      <psa10 value="0.0035434184" flag="0"/>
      <psa30 value="0.0002309863" flag="0"/>
    </comp>
    <comp name="00.HHZ">
      <acc value="0.0057923770" flag="0"/>
      <vel value="0.0023730518" flag="0"/>
      <psa03 value="0.0094704922" flag="0"/>
      <psa10 value="0.0024879996" flag="0"/>
      <psa30 value="0.0002330527" flag="0"/>
    </comp>
  </station>
  <station code="ZIRI" name="ZIRI" netid="CL" insttype="TRILLIUM-40" commtype="DIG" lat="38.3051" lon="21.9476">
    <comp name="01.HHE">
      <acc value="0.0125046426" flag="0"/>
      <vel value="0.0063190486" flag="0"/>
      <psa03 value="0.0246576386" flag="0"/>
      <psa10 value="0.0030384852" flag="0"/>
      <psa30 value="0.0002578482" flag="0"/>
    </comp>
    <comp name="01.HHN">
      <acc value="0.0103783414" flag="0"/>
      <vel value="0.0050423362" flag="0"/>
      <psa03 value="0.0329911974" flag="0"/>
      <psa10 value="0.0037858526" flag="0"/>
      <psa30 value="0.0003825881" flag="0"/>
    </comp>
    <comp name="01.HHZ">
      <acc value="0.0076065413" flag="0"/>
      <vel value="0.0026036786" flag="0"/>
      <psa03 value="0.0241517994" flag="0"/>
      <psa10 value="0.0011356480" flag="0"/>
      <psa30 value="0.0001283589" flag="0"/>
    </comp>
  </station>
  <station code="KLV" name="KLV" netid="MN" insttype="" commtype="DIG" lat="38.0437" lon="22.1504">
    <comp name="--.HHE">
      <acc value="0.0054843800" flag="0"/>
      <vel value="0.0017705712" flag="0"/>
      <psa03 value="0.0099792326" flag="0"/>
      <psa10 value="0.0013522925" flag="0"/>
      <psa30 value="0.0001517904" flag="0"/>
    </comp>
    <comp name="--.HHZ">
      <acc value="0.0047895268" flag="0"/>
      <vel value="0.0022728081" flag="0"/>
      <psa03 value="0.0084798796" flag="0"/>
      <psa10 value="0.0025198967" flag="0"/>
      <psa30 value="0.0001485741" flag="0"/>
    </comp>
    <comp name="--.HHN">
      <acc value="0.0061605452" flag="0"/>
      <vel value="0.0017831995" flag="0"/>
      <psa03 value="0.0070302056" flag="0"/>
      <psa10 value="0.0026516758" flag="0"/>
      <psa30 value="0.0001429092" flag="0"/>
    </comp>
  </station>
</stationlist>
