<?xml version="1.0" encoding="UTF-8" standalone="yes"?>
<!DOCTYPE earthquake SYSTEM "stationlist.dtd">
<stationlist created="" xmlns="ch.ethz.sed.shakemap.usgs.xml">
  <station code="RP03B" name="RP03B" netid="5B" insttype="Compact" commtype="DIG" lat="37.2463" lon="21.832">
    <comp name="--.HHE">
      <acc value="0.0398556151" flag="0"/>
      <vel value="0.0121722331" flag="0"/>
      <psa03 value="0.0670115441" flag="0"/>
      <psa10 value="0.0113875243" flag="0"/>
      <psa30 value="0.0007075599" flag="0"/>
    </comp>
    <comp name="--.HHN">
      <acc value="0.0278058923" flag="0"/>
      <vel value="0.0144720603" flag="0"/>
      <psa03 value="0.0516628647" flag="0"/>
      <psa10 value="0.0101409917" flag="0"/>
      <psa30 value="0.0005218369" flag="0"/>
    </comp>
    <comp name="--.HHZ">
      <acc value="0.0170930615" flag="0"/>
      <vel value="0.0095726892" flag="0"/>
      <psa03 value="0.0408586755" flag="0"/>
      <psa10 value="0.0079428949" flag="0"/>
      <psa30 value="0.0005256071" flag="0"/>
    </comp>
  </station>
  <station code="RP08B" name="RP08B" netid="5B" insttype="Compact" commtype="DIG" lat="37.5664" lon="21.9493">
    <comp name="--.HHE">
      <acc value="0.0233342341" flag="0"/>
      <vel value="0.0157115930" flag="0"/>
      <psa03 value="0.0791277726" flag="0"/>
      <psa10 value="0.0108264543" flag="0"/>
      <psa30 value="0.0007738272" flag="0"/>
    </comp>
    <comp name="--.HHN">
      <acc value="0.0219167327" flag="0"/>
      <vel value="0.0117783571" flag="0"/>
      <psa03 value="0.0478426155" flag="0"/>
      <psa10 value="0.0083503095" flag="0"/>
      <psa30 value="0.0005560999" flag="0"/>
    </comp>
    <comp name="--.HHZ">
      <acc value="0.0110304665" flag="0"/>
      <vel value="0.0060765007" flag="0"/>
      <psa03 value="0.0219767427" flag="0"/>
      <psa10 value="0.0098654108" flag="0"/>
      <psa30 value="0.0004279255" flag="0"/>
    </comp>
  </station>
  <station code="KTHA" name="KTHA" netid="GE" insttype="STS-2/N" commtype="DIG" lat="36.2566" lon="23.0621">
    <comp name="--.HHE">
      <acc value="0.0239726308" flag="0"/>
      <vel value="0.0112145607" flag="0"/>
      <psa03 value="0.0256590406" flag="0"/>
      <psa10 value="0.0119917989" flag="0"/>
      <psa30 value="0.0008234192" flag="0"/>
    </comp>
    <comp name="--.HHZ">
      <acc value="0.0098501825" flag="0"/>
      <vel value="0.0052705158" flag="0"/>
      <psa03 value="0.0183889116" flag="0"/>
      <psa10 value="0.0036955331" flag="0"/>
      <psa30 value="0.0003897138" flag="0"/>
    </comp>
    <comp name="--.HHN">
      <acc value="0.0146221705" flag="0"/>
      <vel value="0.0091219553" flag="0"/>
      <psa03 value="0.0415044063" flag="0"/>
      <psa10 value="0.0084009597" flag="0"/>
      <psa30 value="0.0005801758" flag="0"/>
    </comp>
  </station>
  <station code="ARE2" name="ARE2" netid="HI" insttype="unknown" commtype="DIG" lat="36.6663" lon="22.3826">
    <comp name="--.HNE">
      <acc value="0.2933975256" flag="0"/>
      <vel value="0.1180367539" flag="0"/>
      <psa03 value="0.7383752059" flag="0"/>
      <psa10 value="0.0576854658" flag="0"/>
      <psa30 value="0.0032089606" flag="0"/>
    </comp>
    <comp name="--.HNN">
      <acc value="0.2673505243" flag="0"/>
      <vel value="0.0864189631" flag="0"/>
      <psa03 value="0.5469821638" flag="0"/>
      <psa10 value="0.0394498654" flag="0"/>
      <psa30 value="0.0029019084" flag="0"/>
    </comp>
    <comp name="--.HNZ">
      <acc value="0.1886000589" flag="0"/>
      <vel value="0.0530783093" flag="0"/>
      <psa03 value="0.2041868347" flag="0"/>
      <psa10 value="0.0262081299" flag="0"/>
      <psa30 value="0.0019131024" flag="0"/>
    </comp>
  </station>
  <station code="GTH2" name="GTH2" netid="HI" insttype="unknown" commtype="DIG" lat="36.7603" lon="22.5659">
    <comp name="--.HNE">
      <acc value="0.1052714961" flag="0"/>
      <vel value="0.0615217949" flag="0"/>
      <psa03 value="0.3301725313" flag="0"/>
      <psa10 value="0.0321400138" flag="0"/>
      <psa30 value="0.0021970210" flag="0"/>
    </comp>
    <comp name="--.HNN">
      <acc value="0.1289057503" flag="0"/>
      <vel value="0.0573418484" flag="0"/>
      <psa03 value="0.4121637748" flag="0"/>
      <psa10 value="0.0264146056" flag="0"/>
      <psa30 value="0.0018034254" flag="0"/>
    </comp>
    <comp name="--.HNZ">
      <acc value="0.0716437789" flag="0"/>
      <vel value="0.0249148726" flag="0"/>
      <psa03 value="0.1579842630" flag="0"/>
      <psa10 value="0.0093996537" flag="0"/>
      <psa30 value="0.0008314831" flag="0"/>
    </comp>
  </station>
  <station code="KAL3" name="KAL3" netid="HI" insttype="unknown" commtype="DIG" lat="37.0246" lon="22.103">
    <comp name="--.HNE">
      <acc value="0.1019326530" flag="0"/>
      <vel value="0.0515575662" flag="0"/>
      <psa03 value="0.2117822893" flag="0"/>
      <psa10 value="0.0547113793" flag="0"/>
      <psa30 value="0.0026410738" flag="0"/>
    </comp>
    <comp name="--.HNN">
      <acc value="0.1368238958" flag="0"/>
      <vel value="0.0609244823" flag="0"/>
      <psa03 value="0.1978066094" flag="0"/>
      <psa10 value="0.0284867568" flag="0"/>
      <psa30 value="0.0022808917" flag="0"/>
    </comp>
    <comp name="--.HNZ">
      <acc value="0.0517073387" flag="0"/>
      <vel value="0.0181043951" flag="0"/>
      <psa03 value="0.0958383623" flag="0"/>
      <psa10 value="0.0155171065" flag="0"/>
      <psa30 value="0.0009726678" flag="0"/>
    </comp>
  </station>
  <station code="LEO1" name="LEO1" netid="HI" insttype="unknown" commtype="DIG" lat="37.1689" lon="22.8637">
    <comp name="--.HNE">
      <acc value="0.0161039939" flag="0"/>
      <vel value="0.0070150021" flag="0"/>
      <psa03 value="0.0438486802" flag="0"/>
      <psa10 value="0.0032431483" flag="0"/>
      <psa30 value="0.0003709861" flag="0"/>
    </comp>
    <comp name="--.HNN">
      <acc value="0.0184426907" flag="0"/>
      <vel value="0.0057268941" flag="0"/>
      <psa03 value="0.0473454270" flag="0"/>
      <psa10 value="0.0032188462" flag="0"/>
      <psa30 value="0.0002760230" flag="0"/>
    </comp>
    <comp name="--.HNZ">
      <acc value="0.0133960816" flag="0"/>
      <vel value="0.0043503602" flag="0"/>
      <psa03 value="0.0250168201" flag="0"/>
      <psa10 value="0.0031893244" flag="0"/>
      <psa30 value="0.0002662524" flag="0"/>
    </comp>
  </station>
  <station code="PET1" name="PET1" netid="HI" insttype="unknown" commtype="DIG" lat="36.9639" lon="21.9254">
    <comp name="--.HNE">
      <acc value="0.1040998142" flag="0"/>
      <vel value="0.0621084123" flag="0"/>
      <psa03 value="0.2789199321" flag="0"/>
      <psa10 value="0.0508196306" flag="0"/>
      <psa30 value="0.0026788532" flag="0"/>
    </comp>
    <comp name="--.HNN">
      <acc value="0.1867922153" flag="0"/>
      <vel value="0.0700081168" flag="0"/>
      <psa03 value="0.2852980994" flag="0"/>
      <psa10 value="0.0498525996" flag="0"/>
      <psa30 value="0.0028439338" flag="0"/>
    </comp>
    <comp name="--.HNZ">
      <acc value="0.0543740888" flag="0"/>
      <vel value="0.0248401698" flag="0"/>
      <psa03 value="0.1920991788" flag="0"/>
      <psa10 value="0.0224112465" flag="0"/>
      <psa30 value="0.0010741177" flag="0"/>
    </comp>
  </station>
  <station code="PYL1" name="PYL1" netid="HI" insttype="unknown" commtype="DIG" lat="36.9142" lon="21.6952">
    <comp name="--.HNE">
      <acc value="0.0488935109" flag="0"/>
      <vel value="0.0205965826" flag="0"/>
      <psa03 value="0.1140074932" flag="0"/>
      <psa10 value="0.0160825398" flag="0"/>
      <psa30 value="0.0012735713" flag="0"/>
    </comp>
    <comp name="--.HNN">
      <acc value="0.0491674065" flag="0"/>
      <vel value="0.0177942154" flag="0"/>
      <psa03 value="0.1135473020" flag="0"/>
      <psa10 value="0.0117554186" flag="0"/>
      <psa30 value="0.0010407805" flag="0"/>
    </comp>
    <comp name="--.HNZ">
      <acc value="0.0527316122" flag="0"/>
      <vel value="0.0118585404" flag="0"/>
      <psa03 value="0.0577352688" flag="0"/>
      <psa10 value="0.0089398881" flag="0"/>
      <psa30 value="0.0011341811" flag="0"/>
    </comp>
  </station>
  <station code="TRP1" name="TRP1" netid="HI" insttype="unknown" commtype="DIG" lat="37.5112" lon="22.3634">
    <comp name="--.HNE">
      <acc value="0.0086950563" flag="0"/>
      <vel value="0.0056120936" flag="0"/>
      <psa03 value="0.0251977911" flag="0"/>
      <psa10 value="0.0069979546" flag="0"/>
      <psa30 value="0.0004514498" flag="0"/>
    </comp>
    <comp name="--.HNN">
      <acc value="0.0093135445" flag="0"/>
      <vel value="0.0078232511" flag="0"/>
      <psa03 value="0.0362928356" flag="0"/>
      <psa10 value="0.0100346089" flag="0"/>
      <psa30 value="0.0005810128" flag="0"/>
    </comp>
    <comp name="--.HNZ">
      <acc value="0.0059060240" flag="0"/>
      <vel value="0.0047273967" flag="0"/>
      <psa03 value="0.0147042473" flag="0"/>
      <psa10 value="0.0073139529" flag="0"/>
      <psa30 value="0.0003473959" flag="0"/>
    </comp>
  </station>
  <station code="ITM" name="ITM" netid="HL" insttype="DR24" commtype="DIG" lat="37.1787" lon="21.9252">
    <comp name="--.HHN">
      <acc value="0.0512932475" flag="0"/>
      <vel value="0.0174205127" flag="0"/>
      <psa03 value="0.0952648487" flag="0"/>
      <psa10 value="0.0062298402" flag="0"/>
      <psa30 value="0.0007781591" flag="0"/>
    </comp>
    <comp name="--.HHZ">
      <acc value="0.0289200056" flag="0"/>
      <vel value="0.0094452228" flag="0"/>
      <psa03 value="0.0471524113" flag="0"/>
      <psa10 value="0.0047511292" flag="0"/>
      <psa30 value="0.0004469798" flag="0"/>
    </comp>
    <comp name="--.HHE">
      <acc value="0.0418146508" flag="0"/>
      <vel value="0.0145520060" flag="0"/>
      <psa03 value="0.0897436977" flag="0"/>
      <psa10 value="0.0055296544" flag="0"/>
      <psa30 value="0.0004380181" flag="0"/>
    </comp>
  </station>
  <station code="VLI" name="VLI" netid="HL" insttype="60" commtype="DIG" lat="36.718" lon="22.9469">
    <comp name="--.HHZ">
      <acc value="0.0220146121" flag="0"/>
      <vel value="0.0086735106" flag="0"/>
      <psa03 value="0.0645072188" flag="0"/>
      <psa10 value="0.0044028897" flag="0"/>
      <psa30 value="0.0004511563" flag="0"/>
    </comp>
    <comp name="--.HHN">
      <acc value="0.0344273254" flag="0"/>
      <vel value="0.0142212882" flag="0"/>
      <psa03 value="0.0783836701" flag="0"/>
      <psa10 value="0.0099158334" flag="0"/>
      <psa30 value="0.0005495619" flag="0"/>
    </comp>
    <comp name="--.HHE">
      <acc value="0.0232189958" flag="0"/>
      <vel value="0.0128086161" flag="0"/>
      <psa03 value="0.0877432671" flag="0"/>
      <psa10 value="0.0149673098" flag="0"/>
      <psa30 value="0.0008086142" flag="0"/>
    </comp>
  </station>
  <station code="PYL" name="PYL" netid="HP" insttype="Horizon" commtype="DIG" lat="36.8955" lon="21.742">
    <comp name="--.HHE">
      <acc value="0.0824170632" flag="0"/>
      <vel value="0.0298810578" flag="0"/>
      <psa03 value="0.1556255398" flag="0"/>
      <psa10 value="0.0129463727" flag="0"/>
      <psa30 value="0.0009612021" flag="0"/>
    </comp>
    <comp name="--.HHZ">
      <acc value="0.0423431348" flag="0"/>
      <vel value="0.0184041781" flag="0"/>
      <psa03 value="0.1129666179" flag="0"/>
      <psa10 value="0.0072671869" flag="0"/>
      <psa30 value="0.0014111063" flag="0"/>
    </comp>
    <comp name="--.HHN">
      <acc value="0.0578736375" flag="0"/>
      <vel value="0.0236313094" flag="0"/>
      <psa03 value="0.1327853276" flag="0"/>
      <psa10 value="0.0145042719" flag="0"/>
      <psa30 value="0.0013860786" flag="0"/>
    </comp>
  </station>
  <station code="VALY" name="VALY" netid="HP" insttype="DC_100" commtype="DIG" lat="37.1641" lon="21.9836">
    <comp name="--.HNE">
      <acc value="0.0256257217" flag="0"/>
      <vel value="0.0125879855" flag="0"/>
      <psa03 value="0.0828329559" flag="0"/>
      <psa10 value="0.0124144990" flag="0"/>
      <psa30 value="0.0007534167" flag="0"/>
    </comp>
    <comp name="--.HNZ">
      <acc value="0.0141562755" flag="0"/>
      <vel value="0.0068251302" flag="0"/>
      <psa03 value="0.0359378040" flag="0"/>
      <psa10 value="0.0045885534" flag="0"/>
      <psa30 value="0.0003306669" flag="0"/>
    </comp>
    <comp name="--.HNN">
      <acc value="0.0346139590" flag="0"/>
      <vel value="0.0136261140" flag="0"/>
      <psa03 value="0.1036337512" flag="0"/>
      <psa10 value="0.0075120104" flag="0"/>
      <psa30 value="0.0005323836" flag="0"/>
    </comp>
  </station>
  <station code="VLX" name="VLX" netid="HP" insttype="40," commtype="DIG" lat="37.3703" lon="22.3793">
    <comp name="--.HHE">
      <acc value="0.1085709951" flag="0"/>
      <vel value="0.0530189077" flag="0"/>
      <psa03 value="0.4473558809" flag="0"/>
      <psa10 value="0.0647289436" flag="0"/>
      <psa30 value="0.0034072382" flag="0"/>
    </comp>
    <comp name="--.HHZ">
      <acc value="0.0249882461" flag="0"/>
      <vel value="0.0160328943" flag="0"/>
      <psa03 value="0.0864715066" flag="0"/>
      <psa10 value="0.0123751672" flag="0"/>
      <psa30 value="0.0007166656" flag="0"/>
    </comp>
    <comp name="--.HHN">
      <acc value="0.0446542678" flag="0"/>
      <vel value="0.0274139532" flag="0"/>
      <psa03 value="0.1211100410" flag="0"/>
      <psa10 value="0.0288798363" flag="0"/>
      <psa30 value="0.0016405512" flag="0"/>
    </comp>
  </station>
  <station code="KRND" name="KRND" netid="HT" insttype="100" commtype="DIG" lat="37.383" lon="23.1502">
    <comp name="--.HHN">
      <acc value="0.0067354272" flag="0"/>
      <vel value="0.0035207170" flag="0"/>
      <psa03 value="0.0208086382" flag="0"/>
      <psa10 value="0.0032452608" flag="0"/>
      <psa30 value="0.0003191419" flag="0"/>
    </comp>
    <comp name="--.HHZ">
      <acc value="0.0030693179" flag="0"/>
      <vel value="0.0017033674" flag="0"/>
      <psa03 value="0.0059798273" flag="0"/>
      <psa10 value="0.0022172450" flag="0"/>
      <psa30 value="0.0002532798" flag="0"/>
    </comp>
    <comp name="--.HHE">
      <acc value="0.0054811130" flag="0"/>
      <vel value="0.0037079554" flag="0"/>
      <psa03 value="0.0171562694" flag="0"/>
      <psa10 value="0.0028513866" flag="0"/>
      <psa30 value="0.0004138041" flag="0"/>
    </comp>
  </station>
</stationlist>
