<?xml version="1.0" encoding="UTF-8" standalone="yes"?>
<!DOCTYPE earthquake SYSTEM "stationlist.dtd">
<stationlist created="" xmlns="ch.ethz.sed.shakemap.usgs.xml">
  <station code="APE" name="APE" netid="GE" insttype="STS-2/N" lat="37.0727" lon="25.523">
    <comp name="--.HHE">
      <acc value="0.2002422348" flag="0"/>
      <vel value="0.0303445857" flag="0"/>
      <psa03 value="0.1497301934" flag="0"/>
      <psa10 value="0.0129740553" flag="0"/>
      <psa30 value="0.0065530655" flag="0"/>
    </comp>
    <comp name="--.HHZ">
      <acc value="0.0694508228" flag="0"/>
      <vel value="0.0196248757" flag="0"/>
      <psa03 value="0.0881651566" flag="0"/>
      <psa10 value="0.0131471652" flag="0"/>
      <psa30 value="0.0076613925" flag="0"/>
    </comp>
    <comp name="--.HHN">
      <acc value="0.1568445780" flag="0"/>
      <vel value="0.0312909296" flag="0"/>
      <psa03 value="0.1157246189" flag="0"/>
      <psa10 value="0.0149385924" flag="0"/>
      <psa30 value="0.0078334418" flag="0"/>
    </comp>
  </station>
  <station code="THERA" name="THERA" netid="GE" insttype="STS-2/N" lat="36.367" lon="25.4753">
    <comp name="--.HHE">
      <acc value="0.3315365020" flag="0"/>
      <vel value="0.1343040207" flag="0"/>
      <psa03 value="0.4512393190" flag="0"/>
      <psa10 value="0.0641933942" flag="0"/>
      <psa30 value="0.0090725583" flag="0"/>
    </comp>
    <comp name="--.HHZ">
      <acc value="0.2935404188" flag="0"/>
      <vel value="0.0780384645" flag="0"/>
      <psa03 value="0.2683965363" flag="0"/>
      <psa10 value="0.0530276480" flag="0"/>
      <psa30 value="0.0079617826" flag="0"/>
    </comp>
    <comp name="--.HHN">
      <acc value="0.2624873976" flag="0"/>
      <vel value="0.0939629815" flag="0"/>
      <psa03 value="0.3732334676" flag="0"/>
      <psa10 value="0.0311527714" flag="0"/>
      <psa30 value="0.0036637371" flag="0"/>
    </comp>
  </station>
  <station code="SERI" name="SERI" netid="HA" insttype="30" lat="37.1609" lon="24.4853">
    <comp name="--.HHE">
      <acc value="0.0519381077" flag="0"/>
      <vel value="0.0175895492" flag="0"/>
      <psa03 value="0.0536072012" flag="0"/>
      <psa10 value="0.0117570865" flag="0"/>
      <psa30 value="0.0024106661" flag="0"/>
    </comp>
    <comp name="--.HHN">
      <acc value="0.0684293464" flag="0"/>
      <vel value="0.0228551054" flag="0"/>
      <psa03 value="0.0715567868" flag="0"/>
      <psa10 value="0.0214321062" flag="0"/>
      <psa30 value="0.0026393413" flag="0"/>
    </comp>
    <comp name="--.HHZ">
      <acc value="0.0449618396" flag="0"/>
      <vel value="0.0185335971" flag="0"/>
      <psa03 value="0.0513224005" flag="0"/>
      <psa10 value="0.0124815246" flag="0"/>
      <psa30 value="0.0044428675" flag="0"/>
    </comp>
  </station>
  <station code="SNT1" name="SNT1" netid="HA" insttype="30" lat="36.4159" lon="25.4282">
    <comp name="--.HHE">
      <acc value="0.3793100609" flag="0"/>
      <vel value="0.1493506296" flag="0"/>
      <psa03 value="0.6213666636" flag="0"/>
      <psa10 value="0.1292334937" flag="0"/>
      <psa30 value="0.0222111631" flag="0"/>
    </comp>
    <comp name="--.HHN">
      <acc value="0.3005662969" flag="0"/>
      <vel value="0.2044313054" flag="0"/>
      <psa03 value="0.7502902165" flag="0"/>
      <psa10 value="0.1419344826" flag="0"/>
      <psa30 value="0.0299227806" flag="0"/>
    </comp>
    <comp name="--.HHZ">
      <acc value="0.3309789862" flag="0"/>
      <vel value="0.1155395014" flag="0"/>
      <psa03 value="0.3823969813" flag="0"/>
      <psa10 value="0.0779916092" flag="0"/>
      <psa30 value="0.0114554198" flag="0"/>
    </comp>
  </station>
  <station code="KNSS" name="KNSS" netid="HC" insttype="60" lat="35.3042" lon="25.1802">
    <comp name="--.HHE">
      <acc value="0.0000000000" flag="0"/>
      <vel value="-100.0000000000" flag="0"/>
      <psa03 value="0.0000000000" flag="0"/>
      <psa10 value="0.0000000000" flag="0"/>
      <psa30 value="0.0000000000" flag="0"/>
    </comp>
    <comp name="--.HHZ">
      <acc value="0.0289940608" flag="0"/>
      <vel value="0.0139884044" flag="0"/>
      <psa03 value="0.0752247135" flag="0"/>
      <psa10 value="0.0120539070" flag="0"/>
      <psa30 value="0.0016164495" flag="0"/>
    </comp>
    <comp name="--.HHN">
      <acc value="0.0290858468" flag="0"/>
      <vel value="0.0130552131" flag="0"/>
      <psa03 value="0.0683855357" flag="0"/>
      <psa10 value="0.0133486111" flag="0"/>
      <psa30 value="0.0022709800" flag="0"/>
    </comp>
  </station>
  <station code="HER1" name="HER1" netid="HI" insttype="unknown" lat="35.3177" lon="25.1022">
    <comp name="--.HNE">
      <acc value="0.0661796855" flag="0"/>
      <vel value="0.0531481799" flag="0"/>
      <psa03 value="0.1675222496" flag="0"/>
      <psa10 value="0.1159180884" flag="0"/>
      <psa30 value="0.0059967491" flag="0"/>
    </comp>
    <comp name="--.HNZ">
      <acc value="0.0549090825" flag="0"/>
      <vel value="0.0514634093" flag="0"/>
      <psa03 value="0.1489274660" flag="0"/>
      <psa10 value="0.0492723639" flag="0"/>
      <psa30 value="0.0025963603" flag="0"/>
    </comp>
  </station>
  <station code="NAX1" name="NAX1" netid="HI" insttype="CMG-5TD,ACCELEROMETER,GURALP" lat="37.1014" lon="25.3741">
    <comp name="--.HNE">
      <acc value="0.1918414485" flag="0"/>
      <vel value="0.0406105580" flag="0"/>
      <psa03 value="0.2155287611" flag="0"/>
      <psa10 value="0.0168995285" flag="0"/>
      <psa30 value="0.0029569915" flag="0"/>
    </comp>
    <comp name="--.HNZ">
      <acc value="0.1234572254" flag="0"/>
      <vel value="0.0244691805" flag="0"/>
      <psa03 value="0.1434750280" flag="0"/>
      <psa10 value="0.0158645397" flag="0"/>
      <psa30 value="0.0060278763" flag="0"/>
    </comp>
    <comp name="--.HNN">
      <acc value="0.2120936217" flag="0"/>
      <vel value="0.0312222188" flag="0"/>
      <psa03 value="0.1389881344" flag="0"/>
      <psa10 value="0.0115211626" flag="0"/>
      <psa30 value="0.0051245642" flag="0"/>
    </comp>
  </station>
  <station code="SFR2" name="SFR2" netid="HI" insttype="unknown" lat="36.3998" lon="25.4382">
    <comp name="--.HNE">
      <acc value="1.0045351614" flag="0"/>
      <vel value="0.4571672404" flag="0"/>
      <psa03 value="1.3143776841" flag="0"/>
      <psa10 value="0.2284455788" flag="0"/>
      <psa30 value="0.0272568313" flag="0"/>
    </comp>
    <comp name="--.HNN">
      <acc value="1.2056593439" flag="0"/>
      <vel value="0.4652364321" flag="0"/>
      <psa03 value="1.6606791423" flag="0"/>
      <psa10 value="0.3510482211" flag="0"/>
      <psa30 value="0.0203795112" flag="0"/>
    </comp>
    <comp name="--.HNZ">
      <acc value="0.7903291454" flag="0"/>
      <vel value="0.2913441657" flag="0"/>
      <psa03 value="1.4330198810" flag="0"/>
      <psa10 value="0.1687847088" flag="0"/>
      <psa30 value="0.0155452780" flag="0"/>
    </comp>
  </station>
  <station code="AMGA" name="AMGA" netid="HL" insttype="SMART24" lat="36.8316" lon="25.8938">
    <comp name="--.HHE">
      <acc value="0.3953821070" flag="0"/>
      <vel value="0.0878187240" flag="0"/>
      <psa03 value="0.3874626197" flag="0"/>
      <psa10 value="0.0579334604" flag="0"/>
      <psa30 value="0.0144189243" flag="0"/>
    </comp>
    <comp name="--.HHZ">
      <acc value="0.3955298011" flag="0"/>
      <vel value="0.1033989335" flag="0"/>
      <psa03 value="0.3492267846" flag="0"/>
      <psa10 value="0.0709860281" flag="0"/>
      <psa30 value="0.0137228058" flag="0"/>
    </comp>
    <comp name="--.HHN">
      <acc value="0.4429622253" flag="0"/>
      <vel value="0.0953604726" flag="0"/>
      <psa03 value="0.3369602447" flag="0"/>
      <psa10 value="0.0505269103" flag="0"/>
      <psa30 value="0.0139265676" flag="0"/>
    </comp>
  </station>
  <station code="APE" name="APE" netid="HL" insttype="120" lat="37.0727" lon="25.523">
    <comp name="--.HHN">
      <acc value="0.1412819020" flag="0"/>
      <vel value="0.0291078332" flag="0"/>
      <psa03 value="0.1123136996" flag="0"/>
      <psa10 value="0.0148698286" flag="0"/>
      <psa30 value="0.0078217844" flag="0"/>
    </comp>
    <comp name="--.HHE">
      <acc value="0.1781474736" flag="0"/>
      <vel value="0.0290075268" flag="0"/>
      <psa03 value="0.1459934272" flag="0"/>
      <psa10 value="0.0128759393" flag="0"/>
      <psa30 value="0.0065437865" flag="0"/>
    </comp>
    <comp name="--.HHZ">
      <acc value="0.0636725020" flag="0"/>
      <vel value="0.0190443233" flag="0"/>
      <psa03 value="0.0859998900" flag="0"/>
      <psa10 value="0.0130923912" flag="0"/>
      <psa30 value="0.0076485124" flag="0"/>
    </comp>
  </station>
  <station code="MHLO" name="MHLO" netid="HL" insttype="20" lat="36.6898" lon="24.4017">
    <comp name="--.HHE">
      <acc value="0.2202131456" flag="0"/>
      <vel value="0.1444497858" flag="0"/>
      <psa03 value="0.6213345900" flag="0"/>
      <psa10 value="0.1226036262" flag="0"/>
      <psa30 value="0.0089925175" flag="0"/>
    </comp>
    <comp name="--.HHN">
      <acc value="0.1693870909" flag="0"/>
      <vel value="0.0906530680" flag="0"/>
      <psa03 value="0.4903430105" flag="0"/>
      <psa10 value="0.1225717310" flag="0"/>
      <psa30 value="0.0071054233" flag="0"/>
    </comp>
    <comp name="--.HHZ">
      <acc value="0.1169555723" flag="0"/>
      <vel value="0.0743569958" flag="0"/>
      <psa03 value="0.2465591894" flag="0"/>
      <psa10 value="0.0648219645" flag="0"/>
      <psa30 value="0.0049925727" flag="0"/>
    </comp>
  </station>
  <station code="MILA" name="MILA" netid="HL" insttype="CMG-5" lat="36.7429" lon="24.4282">
    <comp name="00.HNE">
      <acc value="0.2587899725" flag="0"/>
      <vel value="0.1636862249" flag="0"/>
      <psa03 value="0.4798207592" flag="0"/>
      <psa10 value="0.1167971277" flag="0"/>
      <psa30 value="0.0071164088" flag="0"/>
    </comp>
    <comp name="00.HNN">
      <acc value="0.2745601648" flag="0"/>
      <vel value="0.1928776485" flag="0"/>
      <psa03 value="0.4990193128" flag="0"/>
      <psa10 value="0.1557818308" flag="0"/>
      <psa30 value="0.0109884619" flag="0"/>
    </comp>
    <comp name="00.HNZ">
      <acc value="0.1367728824" flag="0"/>
      <vel value="0.1138180820" flag="0"/>
      <psa03 value="0.3057215287" flag="0"/>
      <psa10 value="0.0928890445" flag="0"/>
      <psa30 value="0.0069662082" flag="0"/>
    </comp>
  </station>
  <station code="NISR" name="NISR" netid="HL" insttype="65535" lat="36.6106" lon="27.131">
    <comp name="--.HHE">
      <acc value="0.0000000000" flag="0"/>
      <vel value="-100.0000000000" flag="0"/>
      <psa03 value="0.0000000000" flag="0"/>
      <psa10 value="0.0000000000" flag="0"/>
      <psa30 value="0.0000000000" flag="0"/>
    </comp>
    <comp name="--.HHN">
      <acc value="0.0191371569" flag="0"/>
      <vel value="0.0198022734" flag="0"/>
      <psa03 value="0.0559877115" flag="0"/>
      <psa10 value="0.0177516840" flag="0"/>
      <psa30 value="0.0052116748" flag="0"/>
    </comp>
    <comp name="--.HHZ">
      <acc value="0.0170272116" flag="0"/>
      <vel value="0.0145111713" flag="0"/>
      <psa03 value="0.0406414395" flag="0"/>
      <psa10 value="0.0142268687" flag="0"/>
      <psa30 value="0.0014774891" flag="0"/>
    </comp>
  </station>
  <station code="NISR2" name="NISR2" netid="HL" insttype="120" lat="36.5744" lon="27.1767">
    <comp name="--.HHE">
      <acc value="0.0350720100" flag="0"/>
      <vel value="0.0364519006" flag="0"/>
      <psa03 value="0.1075825371" flag="0"/>
      <psa10 value="0.0715704496" flag="0"/>
      <psa30 value="0.0047032511" flag="0"/>
    </comp>
    <comp name="--.HHN">
      <acc value="0.0388225329" flag="0"/>
      <vel value="0.0403561389" flag="0"/>
      <psa03 value="0.1768474038" flag="0"/>
      <psa10 value="0.0620147782" flag="0"/>
      <psa30 value="0.0054985924" flag="0"/>
    </comp>
    <comp name="--.HHZ">
      <acc value="0.0138406289" flag="0"/>
      <vel value="0.0100891222" flag="0"/>
      <psa03 value="0.0564166912" flag="0"/>
      <psa10 value="0.0118332401" flag="0"/>
      <psa30 value="0.0013957274" flag="0"/>
    </comp>
  </station>
  <station code="NPS" name="NPS" netid="HL" insttype="CMG3ESPC-120s" lat="35.2613" lon="25.6104">
    <comp name="--.HHE">
      <acc value="0.0198615815" flag="0"/>
      <vel value="0.0108879941" flag="0"/>
      <psa03 value="0.0697693932" flag="0"/>
      <psa10 value="0.0132058308" flag="0"/>
      <psa30 value="0.0008290658" flag="0"/>
    </comp>
    <comp name="--.HHN">
      <acc value="0.0240599688" flag="0"/>
      <vel value="0.0155275721" flag="0"/>
      <psa03 value="0.0592136748" flag="0"/>
      <psa10 value="0.0234948436" flag="0"/>
      <psa30 value="0.0017816612" flag="0"/>
    </comp>
    <comp name="--.HHZ">
      <acc value="0.0265297604" flag="0"/>
      <vel value="0.0109452589" flag="0"/>
      <psa03 value="0.0488948937" flag="0"/>
      <psa10 value="0.0103633164" flag="0"/>
      <psa30 value="0.0014021892" flag="0"/>
    </comp>
  </station>
  <station code="SANT" name="SANT" netid="HL" insttype="30" lat="36.3705" lon="25.4593">
    <comp name="--.HHE">
      <acc value="0.7525670011" flag="0"/>
      <vel value="0.1748163841" flag="0"/>
      <psa03 value="0.6697169100" flag="0"/>
      <psa10 value="0.1064226389" flag="0"/>
      <psa30 value="0.0115708146" flag="0"/>
    </comp>
    <comp name="--.HHN">
      <acc value="0.4508220596" flag="0"/>
      <vel value="0.1021550411" flag="0"/>
      <psa03 value="0.4514427837" flag="0"/>
      <psa10 value="0.0851670765" flag="0"/>
      <psa30 value="0.0070092837" flag="0"/>
    </comp>
    <comp name="--.HHZ">
      <acc value="0.4185148286" flag="0"/>
      <vel value="0.0936797032" flag="0"/>
      <psa03 value="0.3698479485" flag="0"/>
      <psa10 value="0.0527166468" flag="0"/>
      <psa30 value="0.0067463352" flag="0"/>
    </comp>
  </station>
  <station code="SAP3" name="SAP3" netid="HL" insttype="65535" lat="36.4356" lon="25.3454">
    <comp name="--.HHE">
      <acc value="1.0546851578" flag="0"/>
      <vel value="0.3370581310" flag="0"/>
      <psa03 value="1.0646026119" flag="0"/>
      <psa10 value="0.1549283814" flag="0"/>
      <psa30 value="0.0224584622" flag="0"/>
    </comp>
    <comp name="--.HHN">
      <acc value="0.9222619649" flag="0"/>
      <vel value="0.3082507973" flag="0"/>
      <psa03 value="1.5158244298" flag="0"/>
      <psa10 value="0.1393997574" flag="0"/>
      <psa30 value="0.0208536825" flag="0"/>
    </comp>
    <comp name="--.HHZ">
      <acc value="0.8854196029" flag="0"/>
      <vel value="0.2633906132" flag="0"/>
      <psa03 value="1.3125864453" flag="0"/>
      <psa10 value="0.0606456893" flag="0"/>
      <psa30 value="0.0108593997" flag="0"/>
    </comp>
  </station>
  <station code="THERA" name="THERA" netid="HL" insttype="120" lat="36.367" lon="25.4753">
    <comp name="--.HHN">
      <acc value="0.5083021091" flag="0"/>
      <vel value="0.1845352261" flag="0"/>
      <psa03 value="0.7235382601" flag="0"/>
      <psa10 value="0.0619589142" flag="0"/>
      <psa30 value="0.0073274690" flag="0"/>
    </comp>
    <comp name="--.HHE">
      <acc value="0.3245004212" flag="0"/>
      <vel value="0.1304638952" flag="0"/>
      <psa03 value="0.4381749622" flag="0"/>
      <psa10 value="0.0638325842" flag="0"/>
      <psa30 value="0.0090691149" flag="0"/>
    </comp>
    <comp name="--.HHZ">
      <acc value="0.2854825732" flag="0"/>
      <vel value="0.0756553249" flag="0"/>
      <psa03 value="0.2610304619" flag="0"/>
      <psa10 value="0.0526265938" flag="0"/>
      <psa30 value="0.0079548467" flag="0"/>
    </comp>
  </station>
  <station code="THRA" name="THRA" netid="HL" insttype="CMG-5" lat="36.415" lon="25.4324">
    <comp name="00.HNE">
      <acc value="1.2090887480" flag="0"/>
      <vel value="0.5777540679" flag="0"/>
      <psa03 value="2.4353648246" flag="0"/>
      <psa10 value="0.3070969956" flag="0"/>
      <psa30 value="0.0381150376" flag="0"/>
    </comp>
    <comp name="00.HNN">
      <acc value="1.2623723592" flag="0"/>
      <vel value="0.4701069892" flag="0"/>
      <psa03 value="2.2880609212" flag="0"/>
      <psa10 value="0.5365996904" flag="0"/>
      <psa30 value="0.0438053180" flag="0"/>
    </comp>
    <comp name="00.HNZ">
      <acc value="0.7772309855" flag="0"/>
      <vel value="0.3063248923" flag="0"/>
      <psa03 value="1.1646016754" flag="0"/>
      <psa10 value="0.1426937851" flag="0"/>
      <psa30 value="0.0158671009" flag="0"/>
    </comp>
  </station>
  <station code="TNSA" name="TNSA" netid="HL" insttype="CMG-5" lat="37.5394" lon="25.1631">
    <comp name="00.HNE">
      <acc value="0.0812489017" flag="0"/>
      <vel value="0.0210258163" flag="0"/>
      <psa03 value="0.1014786823" flag="0"/>
      <psa10 value="0.0097165039" flag="0"/>
      <psa30 value="0.0016158957" flag="0"/>
    </comp>
    <comp name="00.HNZ">
      <acc value="0.0495238101" flag="0"/>
      <vel value="0.0205613384" flag="0"/>
      <psa03 value="0.1504184086" flag="0"/>
      <psa10 value="0.0236065918" flag="0"/>
      <psa30 value="0.0031215096" flag="0"/>
    </comp>
    <comp name="00.HNN">
      <acc value="0.1047262459" flag="0"/>
      <vel value="0.0308229353" flag="0"/>
      <psa03 value="0.0963458005" flag="0"/>
      <psa10 value="0.0141566216" flag="0"/>
      <psa30 value="0.0037757315" flag="0"/>
    </comp>
  </station>
  <station code="AKRO" name="AKRO" netid="HT" insttype="Compact," lat="36.3584" lon="25.3967">
    <comp name="--.HHE">
      <acc value="1.3802523074" flag="0"/>
      <vel value="0.7884319063" flag="0"/>
      <psa03 value="2.0875117734" flag="0"/>
      <psa10 value="0.3363484569" flag="0"/>
      <psa30 value="0.0216159183" flag="0"/>
    </comp>
    <comp name="--.HHN">
      <acc value="0.9344067523" flag="0"/>
      <vel value="0.2553963505" flag="0"/>
      <psa03 value="1.2203628399" flag="0"/>
      <psa10 value="0.1061832114" flag="0"/>
      <psa30 value="0.0143740681" flag="0"/>
    </comp>
    <comp name="--.HHZ">
      <acc value="0.6818217843" flag="0"/>
      <vel value="0.2452276620" flag="0"/>
      <psa03 value="0.8983443549" flag="0"/>
      <psa10 value="0.1135467246" flag="0"/>
      <psa30 value="0.0123537863" flag="0"/>
    </comp>
  </station>
  <station code="CMBO" name="CMBO" netid="HT" insttype="120P," lat="36.4709" lon="25.4056">
    <comp name="--.HHE">
      <acc value="1.2111745221" flag="0"/>
      <vel value="0.4161993505" flag="0"/>
      <psa03 value="1.3055558675" flag="0"/>
      <psa10 value="0.2613332798" flag="0"/>
      <psa30 value="0.0249545420" flag="0"/>
    </comp>
    <comp name="--.HHN">
      <acc value="1.3698109322" flag="0"/>
      <vel value="0.5437003933" flag="0"/>
      <psa03 value="1.2399424752" flag="0"/>
      <psa10 value="0.2320623939" flag="0"/>
      <psa30 value="0.0217288993" flag="0"/>
    </comp>
    <comp name="--.HHZ">
      <acc value="0.7840806862" flag="0"/>
      <vel value="0.2320463232" flag="0"/>
      <psa03 value="1.3945543919" flag="0"/>
      <psa10 value="0.0833134521" flag="0"/>
      <psa30 value="0.0173645369" flag="0"/>
    </comp>
  </station>
</stationlist>
