<?xml version="1.0" encoding="UTF-8" standalone="yes"?>
<!DOCTYPE earthquake SYSTEM "stationlist.dtd">
<stationlist created="" xmlns="ch.ethz.sed.shakemap.usgs.xml">
  <station code="APE" name="APE" netid="GE" insttype="STS-2/N" lat="37.0727" lon="25.523">
    <comp name="--.HHE">
      <acc value="0.2002422348" flag="0"/>
      <vel value="0.0303445867" flag="0"/>
      <psa03 value="0.1497301934" flag="0"/>
      <psa10 value="0.0129740553" flag="0"/>
      <psa30 value="0.0065529490" flag="0"/>
    </comp>
    <comp name="--.HHZ">
      <acc value="0.0694508226" flag="0"/>
      <vel value="0.0196248737" flag="0"/>
      <psa03 value="0.0881651566" flag="0"/>
      <psa10 value="0.0131471652" flag="0"/>
      <psa30 value="0.0076612513" flag="0"/>
    </comp>
    <comp name="--.HHN">
      <acc value="0.1568445777" flag="0"/>
      <vel value="0.0312909274" flag="0"/>
      <psa03 value="0.1157246189" flag="0"/>
      <psa10 value="0.0149385919" flag="0"/>
      <psa30 value="0.0078335475" flag="0"/>
    </comp>
  </station>
  <station code="THERA" name="THERA" netid="GE" insttype="STS-2/N" lat="36.367" lon="25.4753">
    <comp name="--.HHN">
      <acc value="0.2624873984" flag="0"/>
      <vel value="0.0939629819" flag="0"/>
      <psa03 value="0.3732334676" flag="0"/>
      <psa10 value="0.0311527781" flag="0"/>
      <psa30 value="0.0036640623" flag="0"/>
    </comp>
    <comp name="--.HHE">
      <acc value="0.3315365009" flag="0"/>
      <vel value="0.1343040226" flag="0"/>
      <psa03 value="0.4512393190" flag="0"/>
      <psa10 value="0.0641933920" flag="0"/>
      <psa30 value="0.0090726380" flag="0"/>
    </comp>
    <comp name="--.HHZ">
      <acc value="0.2935404186" flag="0"/>
      <vel value="0.0780384652" flag="0"/>
      <psa03 value="0.2683965363" flag="0"/>
      <psa10 value="0.0530276384" flag="0"/>
      <psa30 value="0.0079616029" flag="0"/>
    </comp>
  </station>
</stationlist>
