<?xml version="1.0" encoding="UTF-8" standalone="yes"?>
<!DOCTYPE earthquake SYSTEM "stationlist.dtd">
<stationlist created="" xmlns="ch.ethz.sed.shakemap.usgs.xml">
  <station code="APE" name="APE" netid="GE" insttype="STS-2/N" lat="37.0727" lon="25.523">
    <comp name="--.HHE">
      <acc value="0.2002422348" flag="0"/>
      <vel value="0.0303445867" flag="0"/>
      <psa03 value="0.1497301934" flag="0"/>
      <psa10 value="0.0129740553" flag="0"/>
      <psa30 value="0.0065529490" flag="0"/>
    </comp>
    <comp name="--.HHZ">
      <acc value="0.0694508226" flag="0"/>
      <vel value="0.0196248737" flag="0"/>
      <psa03 value="0.0881651566" flag="0"/>
      <psa10 value="0.0131471652" flag="0"/>
      <psa30 value="0.0076612513" flag="0"/>
    </comp>
    <comp name="--.HHN">
      <acc value="0.1568445777" flag="0"/>
      <vel value="0.0312909274" flag="0"/>
      <psa03 value="0.1157246189" flag="0"/>
      <psa10 value="0.0149385919" flag="0"/>
      <psa30 value="0.0078335475" flag="0"/>
    </comp>
  </station>
  <station code="THERA" name="THERA" netid="GE" insttype="STS-2/N" lat="36.367" lon="25.4753">
    <comp name="--.HHN">
      <acc value="0.2624873984" flag="0"/>
      <vel value="0.0939629819" flag="0"/>
      <psa03 value="0.3732334676" flag="0"/>
      <psa10 value="0.0311527781" flag="0"/>
      <psa30 value="0.0036640623" flag="0"/>
    </comp>
    <comp name="--.HHE">
      <acc value="0.3315365009" flag="0"/>
      <vel value="0.1343040226" flag="0"/>
      <psa03 value="0.4512393190" flag="0"/>
      <psa10 value="0.0641933920" flag="0"/>
      <psa30 value="0.0090726380" flag="0"/>
    </comp>
    <comp name="--.HHZ">
      <acc value="0.2935404186" flag="0"/>
      <vel value="0.0780384652" flag="0"/>
      <psa03 value="0.2683965363" flag="0"/>
      <psa10 value="0.0530276384" flag="0"/>
      <psa30 value="0.0079616029" flag="0"/>
    </comp>
  </station>
  <station code="SERI" name="SERI" netid="HA" insttype="30" lat="37.1609" lon="24.4853">
    <comp name="--.HHN">
      <acc value="0.0684293466" flag="0"/>
      <vel value="0.0228551085" flag="0"/>
      <psa03 value="0.0715567868" flag="0"/>
      <psa10 value="0.0214321062" flag="0"/>
      <psa30 value="0.0026393633" flag="0"/>
    </comp>
    <comp name="--.HHZ">
      <acc value="0.0449618395" flag="0"/>
      <vel value="0.0185336019" flag="0"/>
      <psa03 value="0.0513224005" flag="0"/>
      <psa10 value="0.0124815248" flag="0"/>
      <psa30 value="0.0044427766" flag="0"/>
    </comp>
    <comp name="--.HHE">
      <acc value="0.0519381076" flag="0"/>
      <vel value="0.0175895489" flag="0"/>
      <psa03 value="0.0536072012" flag="0"/>
      <psa10 value="0.0117570865" flag="0"/>
      <psa30 value="0.0024106583" flag="0"/>
    </comp>
  </station>
  <station code="SNT1" name="SNT1" netid="HA" insttype="30" lat="36.4159" lon="25.4282">
    <comp name="--.HHE">
      <acc value="0.3793100609" flag="0"/>
      <vel value="0.1493506173" flag="0"/>
      <psa03 value="0.6213666637" flag="0"/>
      <psa10 value="0.1292335144" flag="0"/>
      <psa30 value="0.0222100920" flag="0"/>
    </comp>
    <comp name="--.HHN">
      <acc value="0.3005662976" flag="0"/>
      <vel value="0.2044312811" flag="0"/>
      <psa03 value="0.7502902165" flag="0"/>
      <psa10 value="0.1419344888" flag="0"/>
      <psa30 value="0.0299229379" flag="0"/>
    </comp>
    <comp name="--.HHZ">
      <acc value="0.3309789862" flag="0"/>
      <vel value="0.1155395087" flag="0"/>
      <psa03 value="0.3823969813" flag="0"/>
      <psa10 value="0.0779916122" flag="0"/>
      <psa30 value="0.0114556339" flag="0"/>
    </comp>
  </station>
  <station code="KNSS" name="KNSS" netid="HC" insttype="60" lat="35.3042" lon="25.1802">
    <comp name="--.HHZ">
      <acc value="0.0289940608" flag="0"/>
      <vel value="0.0139883992" flag="0"/>
      <psa03 value="0.0752247135" flag="0"/>
      <psa10 value="0.0120539070" flag="0"/>
      <psa30 value="0.0016164499" flag="0"/>
    </comp>
    <comp name="--.HHN">
      <acc value="0.0290858469" flag="0"/>
      <vel value="0.0130552149" flag="0"/>
      <psa03 value="0.0683855357" flag="0"/>
      <psa10 value="0.0133486111" flag="0"/>
      <psa30 value="0.0022709627" flag="0"/>
    </comp>
    <comp name="--.HHE">
      <acc value="0.0000000000" flag="0"/>
      <vel value="-100.0000000000" flag="0"/>
      <psa03 value="0.0000000000" flag="0"/>
      <psa10 value="0.0000000000" flag="0"/>
      <psa30 value="0.0000000000" flag="0"/>
    </comp>
  </station>
  <station code="HER1" name="HER1" netid="HI" insttype="unknown" lat="35.3177" lon="25.1022">
    <comp name="--.HNZ">
      <acc value="0.0549090784" flag="0"/>
      <vel value="0.0514634114" flag="0"/>
      <psa03 value="0.1489274660" flag="0"/>
      <psa10 value="0.0492723644" flag="0"/>
      <psa30 value="0.0025979331" flag="0"/>
    </comp>
  </station>
  <station code="NAX1" name="NAX1" netid="HI" insttype="CMG-5TD,ACCELEROMETER,GURALP" lat="37.1014" lon="25.3741">
    <comp name="--.HNE">
      <acc value="0.1918414486" flag="0"/>
      <vel value="0.0406105580" flag="0"/>
      <psa03 value="0.2155287611" flag="0"/>
      <psa10 value="0.0168995285" flag="0"/>
      <psa30 value="0.0029569916" flag="0"/>
    </comp>
    <comp name="--.HNN">
      <acc value="0.2120936216" flag="0"/>
      <vel value="0.0312222190" flag="0"/>
      <psa03 value="0.1389881344" flag="0"/>
      <psa10 value="0.0115211627" flag="0"/>
      <psa30 value="0.0051245848" flag="0"/>
    </comp>
    <comp name="--.HNZ">
      <acc value="0.1234572253" flag="0"/>
      <vel value="0.0244691804" flag="0"/>
      <psa03 value="0.1434750280" flag="0"/>
      <psa10 value="0.0158645398" flag="0"/>
      <psa30 value="0.0060278599" flag="0"/>
    </comp>
  </station>
  <station code="SFR2" name="SFR2" netid="HI" insttype="unknown" lat="36.3998" lon="25.4382">
    <comp name="--.HNE">
      <acc value="1.0045351603" flag="0"/>
      <vel value="0.4571672367" flag="0"/>
      <psa03 value="1.3143776841" flag="0"/>
      <psa10 value="0.2284455648" flag="0"/>
      <psa30 value="0.0272557221" flag="0"/>
    </comp>
    <comp name="--.HNN">
      <acc value="1.2056593442" flag="0"/>
      <vel value="0.4652364219" flag="0"/>
      <psa03 value="1.6606791423" flag="0"/>
      <psa10 value="0.3510481853" flag="0"/>
      <psa30 value="0.0203801641" flag="0"/>
    </comp>
  </station>
  <station code="AMGA" name="AMGA" netid="HL" insttype="SMART24" lat="36.8316" lon="25.8938">
    <comp name="--.HHE">
      <acc value="0.3953821071" flag="0"/>
      <vel value="0.0878187137" flag="0"/>
      <psa03 value="0.3874626196" flag="0"/>
      <psa10 value="0.0579334605" flag="0"/>
      <psa30 value="0.0144190428" flag="0"/>
    </comp>
    <comp name="--.HHN">
      <acc value="0.4429622255" flag="0"/>
      <vel value="0.0953604663" flag="0"/>
      <psa03 value="0.3369602447" flag="0"/>
      <psa10 value="0.0505269102" flag="0"/>
      <psa30 value="0.0139266441" flag="0"/>
    </comp>
    <comp name="--.HHZ">
      <acc value="0.3955298012" flag="0"/>
      <vel value="0.1033989307" flag="0"/>
      <psa03 value="0.3492267846" flag="0"/>
      <psa10 value="0.0709860310" flag="0"/>
      <psa30 value="0.0137230946" flag="0"/>
    </comp>
  </station>
  <station code="APE" name="APE" netid="HL" insttype="120" lat="37.0727" lon="25.523">
    <comp name="--.HHE">
      <acc value="0.1781474736" flag="0"/>
      <vel value="0.0290075278" flag="0"/>
      <psa03 value="0.1459934272" flag="0"/>
      <psa10 value="0.0128759393" flag="0"/>
      <psa30 value="0.0065437722" flag="0"/>
    </comp>
    <comp name="--.HHZ">
      <acc value="0.0636725020" flag="0"/>
      <vel value="0.0190443231" flag="0"/>
      <psa03 value="0.0859998900" flag="0"/>
      <psa10 value="0.0130923912" flag="0"/>
      <psa30 value="0.0076485067" flag="0"/>
    </comp>
    <comp name="--.HHN">
      <acc value="0.1412819020" flag="0"/>
      <vel value="0.0291078333" flag="0"/>
      <psa03 value="0.1123136996" flag="0"/>
      <psa10 value="0.0148698286" flag="0"/>
      <psa30 value="0.0078217894" flag="0"/>
    </comp>
  </station>
  <station code="MHLO" name="MHLO" netid="HL" insttype="20" lat="36.6898" lon="24.4017">
    <comp name="--.HHE">
      <acc value="0.2202131457" flag="0"/>
      <vel value="0.1444497302" flag="0"/>
      <psa03 value="0.6213345899" flag="0"/>
      <psa10 value="0.1226036262" flag="0"/>
      <psa30 value="0.0089924822" flag="0"/>
    </comp>
    <comp name="--.HHN">
      <acc value="0.1693870909" flag="0"/>
      <vel value="0.0906530400" flag="0"/>
      <psa03 value="0.4903430105" flag="0"/>
      <psa10 value="0.1225717308" flag="0"/>
      <psa30 value="0.0071055080" flag="0"/>
    </comp>
    <comp name="--.HHZ">
      <acc value="0.1169555723" flag="0"/>
      <vel value="0.0743569934" flag="0"/>
      <psa03 value="0.2465591894" flag="0"/>
      <psa10 value="0.0648219644" flag="0"/>
      <psa30 value="0.0049925147" flag="0"/>
    </comp>
  </station>
  <station code="MILA" name="MILA" netid="HL" insttype="CMG-5" lat="36.7429" lon="24.4282">
    <comp name="00.HNE">
      <acc value="0.2587899724" flag="0"/>
      <vel value="0.1636862263" flag="0"/>
      <psa03 value="0.4798207592" flag="0"/>
      <psa10 value="0.1167971275" flag="0"/>
      <psa30 value="0.0071165376" flag="0"/>
    </comp>
    <comp name="00.HNN">
      <acc value="0.2745601650" flag="0"/>
      <vel value="0.1928776490" flag="0"/>
      <psa03 value="0.4990193128" flag="0"/>
      <psa10 value="0.1557818309" flag="0"/>
      <psa30 value="0.0109885988" flag="0"/>
    </comp>
    <comp name="00.HNZ">
      <acc value="0.1367728827" flag="0"/>
      <vel value="0.1138180834" flag="0"/>
      <psa03 value="0.3057215287" flag="0"/>
      <psa10 value="0.0928890444" flag="0"/>
      <psa30 value="0.0069661653" flag="0"/>
    </comp>
  </station>
  <station code="NISR" name="NISR" netid="HL" insttype="65535" lat="36.6106" lon="27.131">
    <comp name="--.HHE">
      <acc value="0.0000000000" flag="0"/>
      <vel value="-100.0000000000" flag="0"/>
      <psa03 value="0.0000000000" flag="0"/>
      <psa10 value="0.0000000000" flag="0"/>
      <psa30 value="0.0000000000" flag="0"/>
    </comp>
    <comp name="--.HHN">
      <acc value="0.0191371568" flag="0"/>
      <vel value="0.0198022763" flag="0"/>
      <psa03 value="0.0559877115" flag="0"/>
      <psa10 value="0.0177516840" flag="0"/>
      <psa30 value="0.0052116867" flag="0"/>
    </comp>
  </station>
  <station code="NISR2" name="NISR2" netid="HL" insttype="120" lat="36.5744" lon="27.1767">
    <comp name="--.HHZ">
      <acc value="0.0138406289" flag="0"/>
      <vel value="0.0100891215" flag="0"/>
      <psa03 value="0.0564166912" flag="0"/>
      <psa10 value="0.0118332401" flag="0"/>
      <psa30 value="0.0013956466" flag="0"/>
    </comp>
    <comp name="--.HHE">
      <acc value="0.0350720100" flag="0"/>
      <vel value="0.0364518986" flag="0"/>
      <psa03 value="0.1075825371" flag="0"/>
      <psa10 value="0.0715704496" flag="0"/>
      <psa30 value="0.0047031596" flag="0"/>
    </comp>
    <comp name="--.HHN">
      <acc value="0.0388225329" flag="0"/>
      <vel value="0.0403561358" flag="0"/>
      <psa03 value="0.1768474038" flag="0"/>
      <psa10 value="0.0620147782" flag="0"/>
      <psa30 value="0.0054973223" flag="0"/>
    </comp>
  </station>
  <station code="NPS" name="NPS" netid="HL" insttype="CMG3ESPC-120s" lat="35.2613" lon="25.6104">
    <comp name="--.HHN">
      <acc value="0.0240599689" flag="0"/>
      <vel value="0.0155275697" flag="0"/>
      <psa03 value="0.0592136748" flag="0"/>
      <psa10 value="0.0234948436" flag="0"/>
      <psa30 value="0.0017816698" flag="0"/>
    </comp>
    <comp name="--.HHE">
      <acc value="0.0198615812" flag="0"/>
      <vel value="0.0108879938" flag="0"/>
      <psa03 value="0.0697693932" flag="0"/>
      <psa10 value="0.0132058308" flag="0"/>
      <psa30 value="0.0008290781" flag="0"/>
    </comp>
  </station>
  <station code="SANT" name="SANT" netid="HL" insttype="30" lat="36.3705" lon="25.4593">
    <comp name="--.HHE">
      <acc value="0.7525670012" flag="0"/>
      <vel value="0.1748163812" flag="0"/>
      <psa03 value="0.6697169100" flag="0"/>
      <psa10 value="0.1064226478" flag="0"/>
      <psa30 value="0.0115713081" flag="0"/>
    </comp>
    <comp name="--.HHZ">
      <acc value="0.4185148283" flag="0"/>
      <vel value="0.0936796981" flag="0"/>
      <psa03 value="0.3698479485" flag="0"/>
      <psa10 value="0.0527166342" flag="0"/>
      <psa30 value="0.0067460798" flag="0"/>
    </comp>
  </station>
  <station code="SAP3" name="SAP3" netid="HL" insttype="65535" lat="36.4356" lon="25.3454">
    <comp name="--.HHN">
      <acc value="0.9222619651" flag="0"/>
      <vel value="0.3082507872" flag="0"/>
      <psa03 value="1.5158244298" flag="0"/>
      <psa10 value="0.1393997576" flag="0"/>
      <psa30 value="0.0208535875" flag="0"/>
    </comp>
    <comp name="--.HHZ">
      <acc value="0.8854196033" flag="0"/>
      <vel value="0.2633906146" flag="0"/>
      <psa03 value="1.3125864453" flag="0"/>
      <psa10 value="0.0606456892" flag="0"/>
      <psa30 value="0.0108593943" flag="0"/>
    </comp>
    <comp name="--.HHE">
      <acc value="1.0546851577" flag="0"/>
      <vel value="0.3370581379" flag="0"/>
      <psa03 value="1.0646026119" flag="0"/>
      <psa10 value="0.1549283812" flag="0"/>
      <psa30 value="0.0224573223" flag="0"/>
    </comp>
  </station>
  <station code="THERA" name="THERA" netid="HL" insttype="120" lat="36.367" lon="25.4753">
    <comp name="--.HHE">
      <acc value="0.3245004211" flag="0"/>
      <vel value="0.1304638957" flag="0"/>
      <psa03 value="0.4381749622" flag="0"/>
      <psa10 value="0.0638325855" flag="0"/>
      <psa30 value="0.0090691289" flag="0"/>
    </comp>
    <comp name="--.HHN">
      <acc value="0.5083021100" flag="0"/>
      <vel value="0.1845352235" flag="0"/>
      <psa03 value="0.7235382601" flag="0"/>
      <psa10 value="0.0619589251" flag="0"/>
      <psa30 value="0.0073278578" flag="0"/>
    </comp>
    <comp name="--.HHZ">
      <acc value="0.2854825731" flag="0"/>
      <vel value="0.0756553259" flag="0"/>
      <psa03 value="0.2610304619" flag="0"/>
      <psa10 value="0.0526265898" flag="0"/>
      <psa30 value="0.0079547621" flag="0"/>
    </comp>
  </station>
  <station code="THRA" name="THRA" netid="HL" insttype="CMG-5" lat="36.415" lon="25.4324">
    <comp name="00.HNE">
      <acc value="1.2090887443" flag="0"/>
      <vel value="0.5777540756" flag="0"/>
      <psa03 value="2.4353648246" flag="0"/>
      <psa10 value="0.3070969871" flag="0"/>
      <psa30 value="0.0381111216" flag="0"/>
    </comp>
    <comp name="00.HNN">
      <acc value="1.2623723612" flag="0"/>
      <vel value="0.4701069897" flag="0"/>
      <psa03 value="2.2880609212" flag="0"/>
      <psa10 value="0.5365997255" flag="0"/>
      <psa30 value="0.0438050634" flag="0"/>
    </comp>
    <comp name="00.HNZ">
      <acc value="0.7772309864" flag="0"/>
      <vel value="0.3063248921" flag="0"/>
      <psa03 value="1.1646016754" flag="0"/>
      <psa10 value="0.1426937870" flag="0"/>
      <psa30 value="0.0158675881" flag="0"/>
    </comp>
  </station>
  <station code="TNSA" name="TNSA" netid="HL" insttype="CMG-5" lat="37.5394" lon="25.1631">
    <comp name="00.HNE">
      <acc value="0.0812489017" flag="0"/>
      <vel value="0.0210258168" flag="0"/>
      <psa03 value="0.1014786823" flag="0"/>
      <psa10 value="0.0097165041" flag="0"/>
      <psa30 value="0.0016158626" flag="0"/>
    </comp>
    <comp name="00.HNN">
      <acc value="0.1047262461" flag="0"/>
      <vel value="0.0308229357" flag="0"/>
      <psa03 value="0.0963458005" flag="0"/>
      <psa10 value="0.0141566216" flag="0"/>
      <psa30 value="0.0037757194" flag="0"/>
    </comp>
    <comp name="00.HNZ">
      <acc value="0.0495238102" flag="0"/>
      <vel value="0.0205613382" flag="0"/>
      <psa03 value="0.1504184086" flag="0"/>
      <psa10 value="0.0236065918" flag="0"/>
      <psa30 value="0.0031217059" flag="0"/>
    </comp>
  </station>
  <station code="AKRO" name="AKRO" netid="HT" insttype="Compact," lat="36.3584" lon="25.3967">
    <comp name="--.HHN">
      <acc value="0.9344067525" flag="0"/>
      <vel value="0.2553963610" flag="0"/>
      <psa03 value="1.2203628399" flag="0"/>
      <psa10 value="0.1061831980" flag="0"/>
      <psa30 value="0.0143743290" flag="0"/>
    </comp>
    <comp name="--.HHE">
      <acc value="1.3802523076" flag="0"/>
      <vel value="0.7884318968" flag="0"/>
      <psa03 value="2.0875117734" flag="0"/>
      <psa10 value="0.3363484432" flag="0"/>
      <psa30 value="0.0216139120" flag="0"/>
    </comp>
    <comp name="--.HHZ">
      <acc value="0.6818217841" flag="0"/>
      <vel value="0.2452276617" flag="0"/>
      <psa03 value="0.8983443549" flag="0"/>
      <psa10 value="0.1135467364" flag="0"/>
      <psa30 value="0.0123540841" flag="0"/>
    </comp>
  </station>
  <station code="CMBO" name="CMBO" netid="HT" insttype="120P," lat="36.4709" lon="25.4056">
    <comp name="--.HHE">
      <acc value="1.2111745221" flag="0"/>
      <vel value="0.4161993434" flag="0"/>
      <psa03 value="1.3055558675" flag="0"/>
      <psa10 value="0.2613333761" flag="0"/>
      <psa30 value="0.0249552169" flag="0"/>
    </comp>
    <comp name="--.HHN">
      <acc value="1.3698109322" flag="0"/>
      <vel value="0.5437003849" flag="0"/>
      <psa03 value="1.2399424752" flag="0"/>
      <psa10 value="0.2320624449" flag="0"/>
      <psa30 value="0.0217290817" flag="0"/>
    </comp>
    <comp name="--.HHZ">
      <acc value="0.7840806862" flag="0"/>
      <vel value="0.2320463243" flag="0"/>
      <psa03 value="1.3945543919" flag="0"/>
      <psa10 value="0.0833134465" flag="0"/>
      <psa30 value="0.0173644860" flag="0"/>
    </comp>
  </station>
</stationlist>
