<?xml version="1.0" encoding="UTF-8" standalone="yes"?>
<!DOCTYPE earthquake SYSTEM "stationlist.dtd">
<stationlist created="" xmlns="ch.ethz.sed.shakemap.usgs.xml">
  <station code="BNN" name="BNN" netid="KO" insttype="CMG-3T" lat="38.8521" lon="35.8472">
    <comp name="--.HHE">
      <acc value="0.0067348245" flag="0"/>
      <vel value="0.0055752308" flag="0"/>
      <psa03 value="0.0270280666" flag="0"/>
      <psa10 value="0.0066776603" flag="0"/>
      <psa30 value="0.0002893559" flag="0"/>
    </comp>
    <comp name="--.HHZ">
      <acc value="0.0032090407" flag="0"/>
      <vel value="0.0023640755" flag="0"/>
      <psa03 value="0.0086460246" flag="0"/>
      <psa10 value="0.0030432787" flag="0"/>
      <psa30 value="0.0002017713" flag="0"/>
    </comp>
    <comp name="--.HHN">
      <acc value="0.0054580603" flag="0"/>
      <vel value="0.0052820576" flag="0"/>
      <psa03 value="0.0135399770" flag="0"/>
      <psa10 value="0.0041746173" flag="0"/>
      <psa30 value="0.0002400310" flag="0"/>
    </comp>
  </station>
  <station code="CEYT" name="CEYT" netid="KO" insttype="CMG-3ESP" lat="37.0105" lon="35.7478">
    <comp name="--.HHN">
      <acc value="0.0029970017" flag="0"/>
      <vel value="0.0016636012" flag="0"/>
      <psa03 value="0.0076384070" flag="0"/>
      <psa10 value="0.0025442759" flag="0"/>
      <psa30 value="0.0001462302" flag="0"/>
    </comp>
    <comp name="--.HHZ">
      <acc value="0.0023984258" flag="0"/>
      <vel value="0.0019020185" flag="0"/>
      <psa03 value="0.0063538589" flag="0"/>
      <psa10 value="0.0032914557" flag="0"/>
      <psa30 value="0.0002611626" flag="0"/>
    </comp>
    <comp name="--.HHE">
      <acc value="0.0040548211" flag="0"/>
      <vel value="0.0025957660" flag="0"/>
      <psa03 value="0.0108542772" flag="0"/>
      <psa10 value="0.0041469970" flag="0"/>
      <psa30 value="0.0003028356" flag="0"/>
    </comp>
  </station>
  <station code="GAZ" name="GAZ" netid="KO" insttype="CMG-3T" lat="37.1721" lon="37.2096">
    <comp name="--.HHN">
      <acc value="0.0053282677" flag="0"/>
      <vel value="0.0037645242" flag="0"/>
      <psa03 value="0.0152080764" flag="0"/>
      <psa10 value="0.0046316164" flag="0"/>
      <psa30 value="0.0002745393" flag="0"/>
    </comp>
    <comp name="--.HHE">
      <acc value="0.0053208768" flag="0"/>
      <vel value="0.0027245328" flag="0"/>
      <psa03 value="0.0128715670" flag="0"/>
      <psa10 value="0.0034711923" flag="0"/>
      <psa30 value="0.0002867843" flag="0"/>
    </comp>
    <comp name="--.HHZ">
      <acc value="0.0036851890" flag="0"/>
      <vel value="0.0020535664" flag="0"/>
      <psa03 value="0.0085827763" flag="0"/>
      <psa10 value="0.0025594335" flag="0"/>
      <psa30 value="0.0001675148" flag="0"/>
    </comp>
  </station>
  <station code="SARI" name="SARI" netid="KO" insttype="CMG-3T" lat="38.4072" lon="36.4181">
    <comp name="--.HHZ">
      <acc value="0.0263887035" flag="0"/>
      <vel value="0.0132060101" flag="0"/>
      <psa03 value="0.0534985771" flag="0"/>
      <psa10 value="0.0076921902" flag="0"/>
      <psa30 value="0.0004296889" flag="0"/>
    </comp>
  </station>
  <station code="ANDN" name="ANDN" netid="TU" insttype="T" lat="37.58" lon="36.3452">
    <comp name="--.HHN">
      <acc value="0.1597834981" flag="0"/>
      <vel value="0.0515564767" flag="0"/>
      <psa03 value="0.3171608021" flag="0"/>
      <psa10 value="0.0248803310" flag="0"/>
      <psa30 value="0.0028848666" flag="0"/>
    </comp>
    <comp name="--.HHZ">
      <acc value="0.0564704948" flag="0"/>
      <vel value="0.0219242378" flag="0"/>
      <psa03 value="0.1437870299" flag="0"/>
      <psa10 value="0.0455903327" flag="0"/>
      <psa30 value="0.0015833093" flag="0"/>
    </comp>
    <comp name="--.HHE">
      <acc value="0.1080081429" flag="0"/>
      <vel value="0.0584452202" flag="0"/>
      <psa03 value="0.2507945715" flag="0"/>
      <psa10 value="0.0436769102" flag="0"/>
      <psa30 value="0.0040135562" flag="0"/>
    </comp>
  </station>
</stationlist>
