<?xml version="1.0" encoding="UTF-8" standalone="yes"?>
<!DOCTYPE earthquake SYSTEM "stationlist.dtd">
<stationlist created="" xmlns="ch.ethz.sed.shakemap.usgs.xml">
  <station code="AIGS" name="AIGS" netid="HA" insttype="DC" lat="38.25" lon="22.0878">
    <comp name="--.HNZ">
      <acc value="0.2499997294" flag="0"/>
      <vel value="0.0433750821" flag="0"/>
      <psa03 value="0.0728278503" flag="0"/>
      <psa10 value="0.0179423699" flag="0"/>
      <psa30 value="0.0010085363" flag="0"/>
    </comp>
    <comp name="--.HNN">
      <acc value="0.5990005122" flag="0"/>
      <vel value="0.1577723907" flag="0"/>
      <psa03 value="0.6325830046" flag="0"/>
      <psa10 value="0.0312349568" flag="0"/>
      <psa30 value="0.0023782376" flag="0"/>
    </comp>
    <comp name="--.HNE">
      <acc value="0.4581501933" flag="0"/>
      <vel value="0.1060114423" flag="0"/>
      <psa03 value="0.1947575285" flag="0"/>
      <psa10 value="0.0281674662" flag="0"/>
      <psa30 value="0.0029205127" flag="0"/>
    </comp>
  </station>
  <station code="ATAL" name="ATAL" netid="HA" insttype="120" lat="38.6926" lon="23.0213">
    <comp name="--.HHE">
      <acc value="0.0055073296" flag="0"/>
      <vel value="0.0020399696" flag="0"/>
      <psa03 value="0.0066330764" flag="0"/>
      <psa10 value="0.0021687496" flag="0"/>
      <psa30 value="0.0002110306" flag="0"/>
    </comp>
    <comp name="--.HHN">
      <acc value="0.0055730008" flag="0"/>
      <vel value="0.0025595825" flag="0"/>
      <psa03 value="0.0122723450" flag="0"/>
      <psa10 value="0.0035968533" flag="0"/>
      <psa30 value="0.0002850912" flag="0"/>
    </comp>
    <comp name="--.HHZ">
      <acc value="0.0032989879" flag="0"/>
      <vel value="0.0013455308" flag="0"/>
      <psa03 value="0.0056431726" flag="0"/>
      <psa10 value="0.0012112242" flag="0"/>
      <psa30 value="0.0001747740" flag="0"/>
    </comp>
  </station>
  <station code="AXAR" name="AXAR" netid="HA" insttype="30" lat="38.7664" lon="22.659">
    <comp name="--.HHE">
      <acc value="0.0109318877" flag="0"/>
      <vel value="0.0049496303" flag="0"/>
      <psa03 value="0.0441268197" flag="0"/>
      <psa10 value="0.0013621046" flag="0"/>
      <psa30 value="0.0001361879" flag="0"/>
    </comp>
    <comp name="--.HHZ">
      <acc value="0.0064607153" flag="0"/>
      <vel value="0.0019101772" flag="0"/>
      <psa03 value="0.0104303829" flag="0"/>
      <psa10 value="0.0007393115" flag="0"/>
      <psa30 value="0.0000678169" flag="0"/>
    </comp>
    <comp name="--.HHN">
      <acc value="0.0103830553" flag="0"/>
      <vel value="0.0035569004" flag="0"/>
      <psa03 value="0.0287266426" flag="0"/>
      <psa10 value="0.0023650501" flag="0"/>
      <psa30 value="0.0001346005" flag="0"/>
    </comp>
  </station>
  <station code="CORS" name="CORS" netid="HA" insttype="DC" lat="38.2562" lon="22.0748">
    <comp name="00.HNZ">
      <acc value="0.0841809849" flag="0"/>
      <vel value="0.0200840226" flag="0"/>
      <psa03 value="0.1076631385" flag="0"/>
      <psa10 value="0.0133737790" flag="0"/>
      <psa30 value="0.0007094183" flag="0"/>
    </comp>
    <comp name="00.HNE">
      <acc value="0.1343562320" flag="0"/>
      <vel value="0.0350815639" flag="0"/>
      <psa03 value="0.1588003175" flag="0"/>
      <psa10 value="0.0433262620" flag="0"/>
      <psa30 value="0.0016846847" flag="0"/>
    </comp>
    <comp name="00.HNN">
      <acc value="0.1018097716" flag="0"/>
      <vel value="0.0396095635" flag="0"/>
      <psa03 value="0.1067945539" flag="0"/>
      <psa10 value="0.0436927092" flag="0"/>
      <psa30 value="0.0030645974" flag="0"/>
    </comp>
  </station>
  <station code="DOMV" name="DOMV" netid="HA" insttype="60" lat="38.2569" lon="22.9795">
    <comp name="--.HHZ">
      <acc value="0.0089981019" flag="0"/>
      <vel value="0.0026838995" flag="0"/>
      <psa03 value="0.0185318644" flag="0"/>
      <psa10 value="0.0020506044" flag="0"/>
      <psa30 value="0.0001121207" flag="0"/>
    </comp>
    <comp name="--.HHN">
      <acc value="0.0197444857" flag="0"/>
      <vel value="0.0055533582" flag="0"/>
      <psa03 value="0.0295516886" flag="0"/>
      <psa10 value="0.0039447873" flag="0"/>
      <psa30 value="0.0001591783" flag="0"/>
    </comp>
    <comp name="--.HHE">
      <acc value="0.0170271635" flag="0"/>
      <vel value="0.0049397771" flag="0"/>
      <psa03 value="0.0228412248" flag="0"/>
      <psa10 value="0.0028168000" flag="0"/>
      <psa30 value="0.0001216162" flag="0"/>
    </comp>
  </station>
  <station code="DRES" name="DRES" netid="HA" insttype="DC" lat="38.3197" lon="21.8532">
    <comp name="--.HNN">
      <acc value="0.1516039137" flag="0"/>
      <vel value="0.0448516000" flag="0"/>
      <psa03 value="0.1733284302" flag="0"/>
      <psa10 value="0.0310072917" flag="0"/>
      <psa30 value="0.0020601756" flag="0"/>
    </comp>
    <comp name="--.HNE">
      <acc value="0.1388719474" flag="0"/>
      <vel value="0.0440673499" flag="0"/>
      <psa03 value="0.1335136560" flag="0"/>
      <psa10 value="0.0384500589" flag="0"/>
      <psa30 value="0.0021134862" flag="0"/>
    </comp>
    <comp name="--.HNZ">
      <acc value="0.2670373893" flag="0"/>
      <vel value="0.0253141252" flag="0"/>
      <psa03 value="0.0741240011" flag="0"/>
      <psa10 value="0.0214456842" flag="0"/>
      <psa30 value="0.0014459180" flag="0"/>
    </comp>
  </station>
  <station code="LAKA" name="LAKA" netid="HA" insttype="120s" lat="38.2401" lon="21.9785">
    <comp name="--.HHE">
      <acc value="0.1281353422" flag="0"/>
      <vel value="0.0145151664" flag="0"/>
      <psa03 value="0.0266946942" flag="0"/>
      <psa10 value="0.0083970103" flag="0"/>
      <psa30 value="0.0005727160" flag="0"/>
    </comp>
    <comp name="--.HHZ">
      <acc value="0.1407596263" flag="0"/>
      <vel value="0.0122968915" flag="0"/>
      <psa03 value="0.0433910656" flag="0"/>
      <psa10 value="0.0107150021" flag="0"/>
      <psa30 value="0.0009816356" flag="0"/>
    </comp>
    <comp name="--.HHN">
      <acc value="0.1368258992" flag="0"/>
      <vel value="0.0196749332" flag="0"/>
      <psa03 value="0.0309164420" flag="0"/>
      <psa10 value="0.0102252334" flag="0"/>
      <psa30 value="0.0010043938" flag="0"/>
    </comp>
  </station>
  <station code="LOUT" name="LOUT" netid="HA" insttype="30" lat="37.9879" lon="22.9743">
    <comp name="--.HHZ">
      <acc value="0.0038239242" flag="0"/>
      <vel value="0.0013595190" flag="0"/>
      <psa03 value="0.0066420025" flag="0"/>
      <psa10 value="0.0008724183" flag="0"/>
      <psa30 value="0.0000716876" flag="0"/>
    </comp>
    <comp name="--.HHN">
      <acc value="0.0065037687" flag="0"/>
      <vel value="0.0024764707" flag="0"/>
      <psa03 value="0.0137731257" flag="0"/>
      <psa10 value="0.0022874001" flag="0"/>
      <psa30 value="0.0001312707" flag="0"/>
    </comp>
    <comp name="--.HHE">
      <acc value="0.0063173168" flag="0"/>
      <vel value="0.0025334875" flag="0"/>
      <psa03 value="0.0164164382" flag="0"/>
      <psa10 value="0.0023534310" flag="0"/>
      <psa30 value="0.0001293936" flag="0"/>
    </comp>
  </station>
  <station code="THAL" name="THAL" netid="HA" insttype="30" lat="38.0357" lon="22.6634">
    <comp name="--.HHE">
      <acc value="0.0295031152" flag="0"/>
      <vel value="0.0090561279" flag="0"/>
      <psa03 value="0.0378246956" flag="0"/>
      <psa10 value="0.0053955205" flag="0"/>
      <psa30 value="0.0003921487" flag="0"/>
    </comp>
    <comp name="--.HHN">
      <acc value="0.0364346412" flag="0"/>
      <vel value="0.0069389861" flag="0"/>
      <psa03 value="0.0487233820" flag="0"/>
      <psa10 value="0.0045537115" flag="0"/>
      <psa30 value="0.0002839762" flag="0"/>
    </comp>
    <comp name="--.HHZ">
      <acc value="0.0192072980" flag="0"/>
      <vel value="0.0048587911" flag="0"/>
      <psa03 value="0.0182225453" flag="0"/>
      <psa10 value="0.0029891454" flag="0"/>
      <psa30 value="0.0001688042" flag="0"/>
    </comp>
  </station>
  <station code="KLV1" name="KLV1" netid="HI" insttype="CMG-5TD,ACCELEROMETER,GURALP" lat="38.0326" lon="22.108">
    <comp name="--.HNN">
      <acc value="0.0577666325" flag="0"/>
      <vel value="0.0293672276" flag="0"/>
      <psa03 value="0.0952223015" flag="0"/>
      <psa10 value="0.0171942339" flag="0"/>
      <psa30 value="0.0007846550" flag="0"/>
    </comp>
    <comp name="--.HNE">
      <acc value="0.0562267227" flag="0"/>
      <vel value="0.0218575830" flag="0"/>
      <psa03 value="0.1314613903" flag="0"/>
      <psa10 value="0.0165133923" flag="0"/>
      <psa30 value="0.0006700434" flag="0"/>
    </comp>
    <comp name="--.HNZ">
      <acc value="0.0653591821" flag="0"/>
      <vel value="0.0136579200" flag="0"/>
      <psa03 value="0.0455688413" flag="0"/>
      <psa10 value="0.0132805622" flag="0"/>
      <psa30 value="0.0005603651" flag="0"/>
    </comp>
  </station>
  <station code="MSL1" name="MSL1" netid="HI" insttype="CMG-5TD,ACCELEROMETER,GURALP" lat="38.3727" lon="21.4243">
    <comp name="--.HNN">
      <acc value="0.0403366869" flag="0"/>
      <vel value="0.0105194093" flag="0"/>
      <psa03 value="0.0530602044" flag="0"/>
      <psa10 value="0.0135474367" flag="0"/>
      <psa30 value="0.0006959261" flag="0"/>
    </comp>
    <comp name="--.HNZ">
      <acc value="0.0218355508" flag="0"/>
      <vel value="0.0075526511" flag="0"/>
      <psa03 value="0.0253579287" flag="0"/>
      <psa10 value="0.0120827031" flag="0"/>
      <psa30 value="0.0003567450" flag="0"/>
    </comp>
    <comp name="--.HNE">
      <acc value="0.0347464311" flag="0"/>
      <vel value="0.0155832921" flag="0"/>
      <psa03 value="0.0507069680" flag="0"/>
      <psa10 value="0.0182185645" flag="0"/>
      <psa30 value="0.0010027500" flag="0"/>
    </comp>
  </station>
  <station code="DLFA" name="DLFA" netid="HL" insttype="CMG-5" lat="38.4784" lon="22.4958">
    <comp name="00.HNZ">
      <acc value="0.0349438739" flag="0"/>
      <vel value="0.0072632169" flag="0"/>
      <psa03 value="0.0235611691" flag="0"/>
      <psa10 value="0.0025337071" flag="0"/>
      <psa30 value="0.0001377765" flag="0"/>
    </comp>
    <comp name="00.HNN">
      <acc value="0.0385711111" flag="0"/>
      <vel value="0.0082201839" flag="0"/>
      <psa03 value="0.0425935785" flag="0"/>
      <psa10 value="0.0058751392" flag="0"/>
      <psa30 value="0.0003492059" flag="0"/>
    </comp>
    <comp name="00.HNE">
      <acc value="0.0409807466" flag="0"/>
      <vel value="0.0076331558" flag="0"/>
      <psa03 value="0.0332052118" flag="0"/>
      <psa10 value="0.0039991546" flag="0"/>
      <psa30 value="0.0003655763" flag="0"/>
    </comp>
  </station>
  <station code="EVR" name="EVR" netid="HL" insttype="DR24" lat="38.9166" lon="21.8105">
    <comp name="--.HHE">
      <acc value="0.0591603581" flag="0"/>
      <vel value="0.0164594623" flag="0"/>
      <psa03 value="0.0797217120" flag="0"/>
      <psa10 value="0.0107141090" flag="0"/>
      <psa30 value="0.0006950279" flag="0"/>
    </comp>
    <comp name="--.HHN">
      <acc value="0.0624421593" flag="0"/>
      <vel value="0.0152732144" flag="0"/>
      <psa03 value="0.0433372635" flag="0"/>
      <psa10 value="0.0104578724" flag="0"/>
      <psa30 value="0.0004835163" flag="0"/>
    </comp>
    <comp name="--.HHZ">
      <acc value="0.0302458108" flag="0"/>
      <vel value="0.0098769138" flag="0"/>
      <psa03 value="0.0425037994" flag="0"/>
      <psa10 value="0.0077661048" flag="0"/>
      <psa30 value="0.0006377342" flag="0"/>
    </comp>
  </station>
  <station code="KLV" name="KLV" netid="HL" insttype="120" lat="38.0435" lon="22.1504">
    <comp name="--.HHE">
      <acc value="0.0353477582" flag="0"/>
      <vel value="0.0055631858" flag="0"/>
      <psa03 value="0.0206759086" flag="0"/>
      <psa10 value="0.0041812685" flag="0"/>
      <psa30 value="0.0002170494" flag="0"/>
    </comp>
    <comp name="--.HHN">
      <acc value="0.0257689041" flag="0"/>
      <vel value="0.0050518311" flag="0"/>
      <psa03 value="0.0155953700" flag="0"/>
      <psa10 value="0.0027646562" flag="0"/>
      <psa30 value="0.0003413814" flag="0"/>
    </comp>
    <comp name="--.HHZ">
      <acc value="0.0219969403" flag="0"/>
      <vel value="0.0052392317" flag="0"/>
      <psa03 value="0.0153656571" flag="0"/>
      <psa10 value="0.0035534646" flag="0"/>
      <psa30 value="0.0004857226" flag="0"/>
    </comp>
  </station>
  <station code="LKR" name="LKR" netid="HL" insttype="30" lat="38.6496" lon="22.9989">
    <comp name="--.HHE">
      <acc value="0.0380405475" flag="0"/>
      <vel value="0.0108337418" flag="0"/>
      <psa03 value="0.0367573983" flag="0"/>
      <psa10 value="0.0016743000" flag="0"/>
      <psa30 value="0.0001648847" flag="0"/>
    </comp>
    <comp name="--.HHN">
      <acc value="0.0247549219" flag="0"/>
      <vel value="0.0066418558" flag="0"/>
      <psa03 value="0.0312703004" flag="0"/>
      <psa10 value="0.0023148977" flag="0"/>
      <psa30 value="0.0001758995" flag="0"/>
    </comp>
    <comp name="--.HHZ">
      <acc value="0.0129599557" flag="0"/>
      <vel value="0.0031376741" flag="0"/>
      <psa03 value="0.0172673185" flag="0"/>
      <psa10 value="0.0010707049" flag="0"/>
      <psa30 value="0.0001882057" flag="0"/>
    </comp>
  </station>
  <station code="PATC" name="PATC" netid="HL" insttype="CMG-5" lat="38.2693" lon="21.76">
    <comp name="00.HNN">
      <acc value="0.1058404059" flag="0"/>
      <vel value="0.0302415445" flag="0"/>
      <psa03 value="0.0793141461" flag="0"/>
      <psa10 value="0.0388531562" flag="0"/>
      <psa30 value="0.0023139995" flag="0"/>
    </comp>
    <comp name="00.HNZ">
      <acc value="0.1497364200" flag="0"/>
      <vel value="0.0251920174" flag="0"/>
      <psa03 value="0.0607492839" flag="0"/>
      <psa10 value="0.0332023969" flag="0"/>
      <psa30 value="0.0013431211" flag="0"/>
    </comp>
    <comp name="00.HNE">
      <acc value="0.1220436800" flag="0"/>
      <vel value="0.0269705096" flag="0"/>
      <psa03 value="0.0925742977" flag="0"/>
      <psa10 value="0.0275439358" flag="0"/>
      <psa30 value="0.0023189046" flag="0"/>
    </comp>
  </station>
  <station code="PATG" name="PATG" netid="HL" insttype="CMG-5" lat="38.2386" lon="21.7266">
    <comp name="00.HNZ">
      <acc value="0.1203011875" flag="0"/>
      <vel value="0.0225862740" flag="0"/>
      <psa03 value="0.0460924220" flag="0"/>
      <psa10 value="0.0164672878" flag="0"/>
      <psa30 value="0.0016683589" flag="0"/>
    </comp>
    <comp name="00.HNN">
      <acc value="0.1308579986" flag="0"/>
      <vel value="0.0470964714" flag="0"/>
      <psa03 value="0.1010437506" flag="0"/>
      <psa10 value="0.0274646695" flag="0"/>
      <psa30 value="0.0022112959" flag="0"/>
    </comp>
    <comp name="00.HNE">
      <acc value="0.1110259003" flag="0"/>
      <vel value="0.0333705709" flag="0"/>
      <psa03 value="0.1014084887" flag="0"/>
      <psa10 value="0.0251213160" flag="0"/>
      <psa30 value="0.0016604089" flag="0"/>
    </comp>
  </station>
  <station code="RIOA" name="RIOA" netid="HL" insttype="CMG-5" lat="38.2959" lon="21.7912">
    <comp name="00.HNE">
      <acc value="0.1324142814" flag="0"/>
      <vel value="0.0280666841" flag="0"/>
      <psa03 value="0.0727728993" flag="0"/>
      <psa10 value="0.0246626658" flag="0"/>
      <psa30 value="0.0014442342" flag="0"/>
    </comp>
    <comp name="00.HNZ">
      <acc value="0.1885851516" flag="0"/>
      <vel value="0.0235678986" flag="0"/>
      <psa03 value="0.0656848623" flag="0"/>
      <psa10 value="0.0083836188" flag="0"/>
      <psa30 value="0.0013515921" flag="0"/>
    </comp>
    <comp name="00.HNN">
      <acc value="0.1518247435" flag="0"/>
      <vel value="0.0379399791" flag="0"/>
      <psa03 value="0.0801263461" flag="0"/>
      <psa10 value="0.0247642845" flag="0"/>
      <psa30 value="0.0016253972" flag="0"/>
    </comp>
  </station>
  <station code="RLS" name="RLS" netid="HL" insttype="CMG3ESPC-120s" lat="38.0559" lon="21.4647">
    <comp name="--.HHE">
      <acc value="0.0198340140" flag="0"/>
      <vel value="0.0045476916" flag="0"/>
      <psa03 value="0.0124897658" flag="0"/>
      <psa10 value="0.0026419830" flag="0"/>
      <psa30 value="0.0001704761" flag="0"/>
    </comp>
    <comp name="--.HHZ">
      <acc value="0.0129561409" flag="0"/>
      <vel value="0.0033937517" flag="0"/>
      <psa03 value="0.0155845981" flag="0"/>
      <psa10 value="0.0016039768" flag="0"/>
      <psa30 value="0.0002062125" flag="0"/>
    </comp>
    <comp name="--.HHN">
      <acc value="0.0249543396" flag="0"/>
      <vel value="0.0072723902" flag="0"/>
      <psa03 value="0.0235119732" flag="0"/>
      <psa10 value="0.0021345233" flag="0"/>
      <psa30 value="0.0002162733" flag="0"/>
    </comp>
  </station>
  <station code="AMPL" name="AMPL" netid="HP" insttype="Compact," lat="38.9224" lon="21.2135">
    <comp name="--.HHE">
      <acc value="0.0070753987" flag="0"/>
      <vel value="0.0031283224" flag="0"/>
      <psa03 value="0.0101159260" flag="0"/>
      <psa10 value="0.0023954556" flag="0"/>
      <psa30 value="0.0001996035" flag="0"/>
    </comp>
    <comp name="--.HHN">
      <acc value="0.0065942672" flag="0"/>
      <vel value="0.0022855069" flag="0"/>
      <psa03 value="0.0116669465" flag="0"/>
      <psa10 value="0.0030727376" flag="0"/>
      <psa30 value="0.0002188586" flag="0"/>
    </comp>
    <comp name="--.HHZ">
      <acc value="0.0041646388" flag="0"/>
      <vel value="0.0018671559" flag="0"/>
      <psa03 value="0.0083106266" flag="0"/>
      <psa10 value="0.0024894268" flag="0"/>
      <psa30 value="0.0001668987" flag="0"/>
    </comp>
  </station>
  <station code="ANX" name="ANX" netid="HP" insttype="120" lat="38.5933" lon="21.9209">
    <comp name="--.HHE">
      <acc value="0.6178599444" flag="0"/>
      <vel value="0.1397019992" flag="0"/>
      <psa03 value="0.6843341378" flag="0"/>
      <psa10 value="0.0445651249" flag="0"/>
      <psa30 value="0.0028053960" flag="0"/>
    </comp>
    <comp name="--.HHN">
      <acc value="0.5106008030" flag="0"/>
      <vel value="0.1411316757" flag="0"/>
      <psa03 value="0.7136354167" flag="0"/>
      <psa10 value="0.0465232883" flag="0"/>
      <psa30 value="0.0043109799" flag="0"/>
    </comp>
    <comp name="--.HHZ">
      <acc value="0.7327754684" flag="0"/>
      <vel value="0.0920307309" flag="0"/>
      <psa03 value="0.4768239451" flag="0"/>
      <psa10 value="0.0254683070" flag="0"/>
      <psa30 value="0.0024069921" flag="0"/>
    </comp>
  </station>
  <station code="AXS" name="AXS" netid="HP" insttype="40," lat="38.1962" lon="21.3763">
    <comp name="--.HHE">
      <acc value="0.0064431004" flag="0"/>
      <vel value="0.0015540679" flag="0"/>
      <psa03 value="0.0076073951" flag="0"/>
      <psa10 value="0.0005202006" flag="0"/>
      <psa30 value="0.0000474475" flag="0"/>
    </comp>
    <comp name="--.HHN">
      <acc value="0.0084754042" flag="0"/>
      <vel value="0.0018308372" flag="0"/>
      <psa03 value="0.0040595366" flag="0"/>
      <psa10 value="0.0008822608" flag="0"/>
      <psa30 value="0.0001111661" flag="0"/>
    </comp>
    <comp name="--.HHZ">
      <acc value="0.0035383567" flag="0"/>
      <vel value="0.0009330763" flag="0"/>
      <psa03 value="0.0024843232" flag="0"/>
      <psa10 value="0.0003284840" flag="0"/>
      <psa30 value="0.0000471913" flag="0"/>
    </comp>
  </station>
  <station code="DRO" name="DRO" netid="HP" insttype="120P," lat="37.952" lon="21.71">
    <comp name="--.HHE">
      <acc value="0.0687099879" flag="0"/>
      <vel value="0.0151685563" flag="0"/>
      <psa03 value="0.0577094824" flag="0"/>
      <psa10 value="0.0053395639" flag="0"/>
      <psa30 value="0.0004226292" flag="0"/>
    </comp>
    <comp name="--.HHN">
      <acc value="0.0654550083" flag="0"/>
      <vel value="0.0113830967" flag="0"/>
