<?xml version="1.0" encoding="UTF-8" standalone="yes"?>
<!DOCTYPE earthquake SYSTEM "stationlist.dtd">
<stationlist created="" xmlns="ch.ethz.sed.shakemap.usgs.xml">
  <station code="PDG" name="PDG" netid="MN" insttype="" lat="42.4297" lon="19.2608">
    <comp name="--.HHE">
      <acc value="0.0104567485" flag="0"/>
      <vel value="0.0029334391" flag="0"/>
      <psa03 value="0.0135339821" flag="0"/>
      <psa10 value="0.0016567693" flag="0"/>
      <psa30 value="0.0002552023" flag="0"/>
    </comp>
    <comp name="--.HHN">
      <acc value="0.0110892950" flag="0"/>
      <vel value="0.0028500035" flag="0"/>
      <psa03 value="0.0128469850" flag="0"/>
      <psa10 value="0.0038379944" flag="0"/>
      <psa30 value="0.0003919322" flag="0"/>
    </comp>
    <comp name="--.HHZ">
      <acc value="0.0076445968" flag="0"/>
      <vel value="0.0024711129" flag="0"/>
      <psa03 value="0.0105797097" flag="0"/>
      <psa10 value="0.0016952836" flag="0"/>
      <psa30 value="0.0004169045" flag="0"/>
    </comp>
  </station>
  <station code="BH04A" name="BH04A" netid="Y5" insttype="STS2_gen2" lat="43.3483" lon="17.7935">
    <comp name="--.HH1">
      <acc value="0.0389649413" flag="0"/>
      <vel value="0.0119283792" flag="0"/>
      <psa03 value="0.0531676847" flag="0"/>
      <psa10 value="0.0072477302" flag="0"/>
      <psa30 value="0.0004957471" flag="0"/>
    </comp>
    <comp name="--.HHZ">
      <acc value="0.0235691992" flag="0"/>
      <vel value="0.0064281895" flag="0"/>
      <psa03 value="0.0347256321" flag="0"/>
      <psa10 value="0.0045563909" flag="0"/>
      <psa30 value="0.0004652837" flag="0"/>
    </comp>
    <comp name="--.HH2">
      <acc value="0.0363199835" flag="0"/>
      <vel value="0.0098585171" flag="0"/>
      <psa03 value="0.0490210596" flag="0"/>
      <psa10 value="0.0078399586" flag="0"/>
      <psa30 value="0.0007425284" flag="0"/>
    </comp>
  </station>
  <station code="BH05A" name="BH05A" netid="Y5" insttype="STS2_gen2" lat="43.1695" lon="18.5854">
    <comp name="--.HH2">
      <acc value="0.0369155084" flag="0"/>
      <vel value="0.0091733114" flag="0"/>
      <psa03 value="0.0433592714" flag="0"/>
      <psa10 value="0.0056104742" flag="0"/>
      <psa30 value="0.0004445139" flag="0"/>
    </comp>
    <comp name="--.HHZ">
      <acc value="0.0231926514" flag="0"/>
      <vel value="0.0083027278" flag="0"/>
      <psa03 value="0.0526480686" flag="0"/>
      <psa10 value="0.0099084014" flag="0"/>
      <psa30 value="0.0010014278" flag="0"/>
    </comp>
    <comp name="--.HH1">
      <acc value="0.0303590420" flag="0"/>
      <vel value="0.0082700919" flag="0"/>
      <psa03 value="0.0442653238" flag="0"/>
      <psa10 value="0.0069633260" flag="0"/>
      <psa30 value="0.0010562295" flag="0"/>
    </comp>
  </station>
  <station code="BH06A" name="BH06A" netid="Y5" insttype="STS2_gen3" lat="43.5022" lon="18.4463">
    <comp name="--.HH1">
      <acc value="0.0129903621" flag="0"/>
      <vel value="0.0064473884" flag="0"/>
      <psa03 value="0.0415799305" flag="0"/>
      <psa10 value="0.0060386634" flag="0"/>
      <psa30 value="0.0006347052" flag="0"/>
    </comp>
    <comp name="--.HHZ">
      <acc value="0.0079430386" flag="0"/>
      <vel value="0.0054123027" flag="0"/>
      <psa03 value="0.0295045054" flag="0"/>
      <psa10 value="0.0062834876" flag="0"/>
      <psa30 value="0.0005518641" flag="0"/>
    </comp>
    <comp name="--.HH2">
      <acc value="0.0159630427" flag="0"/>
      <vel value="0.0082984788" flag="0"/>
      <psa03 value="0.0380469020" flag="0"/>
      <psa10 value="0.0063789583" flag="0"/>
      <psa30 value="0.0005319682" flag="0"/>
    </comp>
  </station>
  <station code="BH07A" name="BH07A" netid="Y5" insttype="STS2_gen3" lat="43.7511" lon="18.0361">
    <comp name="--.HHZ">
      <acc value="0.0072700436" flag="0"/>
      <vel value="0.0022431869" flag="0"/>
      <psa03 value="0.0056580390" flag="0"/>
      <psa10 value="0.0024531550" flag="0"/>
      <psa30 value="0.0003774485" flag="0"/>
    </comp>
    <comp name="--.HH2">
      <acc value="0.0136859549" flag="0"/>
      <vel value="0.0031824547" flag="0"/>
      <psa03 value="0.0183432516" flag="0"/>
      <psa10 value="0.0027040718" flag="0"/>
      <psa30 value="0.0002315753" flag="0"/>
    </comp>
    <comp name="--.HH1">
      <acc value="0.0114646031" flag="0"/>
      <vel value="0.0029904028" flag="0"/>
      <psa03 value="0.0104875261" flag="0"/>
      <psa10 value="0.0016898221" flag="0"/>
      <psa30 value="0.0002226549" flag="0"/>
    </comp>
  </station>
</stationlist>
