<?xml version="1.0" encoding="UTF-8" standalone="yes"?>
<!DOCTYPE earthquake SYSTEM "stationlist.dtd">
<stationlist created="" xmlns="ch.ethz.sed.shakemap.usgs.xml">
  <station code="PDG" name="PDG" netid="MN" insttype="" lat="42.4297" lon="19.2608">
    <comp name="--.HHE">
      <acc value="0.0104567485" flag="0"/>
      <vel value="0.0029334392" flag="0"/>
      <psa03 value="0.0135339821" flag="0"/>
      <psa10 value="0.0016567693" flag="0"/>
      <psa30 value="0.0002552019" flag="0"/>
    </comp>
    <comp name="--.HHN">
      <acc value="0.0110892950" flag="0"/>
      <vel value="0.0028500035" flag="0"/>
      <psa03 value="0.0128469850" flag="0"/>
      <psa10 value="0.0038379944" flag="0"/>
      <psa30 value="0.0003919321" flag="0"/>
    </comp>
    <comp name="--.HHZ">
      <acc value="0.0076445968" flag="0"/>
      <vel value="0.0024711129" flag="0"/>
      <psa03 value="0.0105797097" flag="0"/>
      <psa10 value="0.0016952836" flag="0"/>
      <psa30 value="0.0004169047" flag="0"/>
    </comp>
  </station>
  <station code="BH04A" name="BH04A" netid="Y5" insttype="STS2_gen2" lat="43.3483" lon="17.7935">
    <comp name="--.HHZ">
      <acc value="0.0235691995" flag="0"/>
      <vel value="0.0064281892" flag="0"/>
      <psa03 value="0.0347256321" flag="0"/>
      <psa10 value="0.0045563909" flag="0"/>
      <psa30 value="0.0004652857" flag="0"/>
    </comp>
    <comp name="--.HH2">
      <acc value="0.0363199842" flag="0"/>
      <vel value="0.0098585169" flag="0"/>
      <psa03 value="0.0490210596" flag="0"/>
      <psa10 value="0.0078399586" flag="0"/>
      <psa30 value="0.0007425276" flag="0"/>
    </comp>
    <comp name="--.HH1">
      <acc value="0.0389649410" flag="0"/>
      <vel value="0.0119283788" flag="0"/>
      <psa03 value="0.0531676847" flag="0"/>
      <psa10 value="0.0072477302" flag="0"/>
      <psa30 value="0.0004957682" flag="0"/>
    </comp>
  </station>
  <station code="BH06A" name="BH06A" netid="Y5" insttype="STS2_gen3" lat="43.5022" lon="18.4463">
    <comp name="--.HH1">
      <acc value="0.0129903618" flag="0"/>
      <vel value="0.0064473884" flag="0"/>
      <psa03 value="0.0415799305" flag="0"/>
      <psa10 value="0.0060386634" flag="0"/>
      <psa30 value="0.0006347078" flag="0"/>
    </comp>
    <comp name="--.HH2">
      <acc value="0.0159630425" flag="0"/>
      <vel value="0.0082984790" flag="0"/>
      <psa03 value="0.0380469020" flag="0"/>
      <psa10 value="0.0063789583" flag="0"/>
      <psa30 value="0.0005319588" flag="0"/>
    </comp>
    <comp name="--.HHZ">
      <acc value="0.0079430380" flag="0"/>
      <vel value="0.0054123025" flag="0"/>
      <psa03 value="0.0295045054" flag="0"/>
      <psa10 value="0.0062834876" flag="0"/>
      <psa30 value="0.0005518611" flag="0"/>
    </comp>
  </station>
</stationlist>
