<stationlist created="1778136872">
	<station code="KRL1" name="KRL1" netid="HI" source="ITSAK Strong Motion Network" insttype="" lat="37.7951" lon="26.7065">
		<comp name="--.HNE" depth="0.0">
			<acc value="0.00440906582094984" flag="0"/>
			<vel value="0.0050055967011047" flag="0"/>
			<psa03 value="0.0174778153715794" flag="0"/>
			<psa10 value="0.00961475474282135" flag="0"/>
			<psa30 value="0.000915993180053799" flag="0"/>
		</comp>
		<comp name="--.HNN" depth="0.0">
			<acc value="0.00319812100353493" flag="0"/>
			<vel value="0.00396175728687615" flag="0"/>
			<psa03 value="0.00774783682387461" flag="0"/>
			<psa10 value="0.00782057823118535" flag="0"/>
			<psa30 value="0.000723199783435823" flag="0"/>
		</comp>
		<comp name="--.HNZ" depth="0.0">
			<acc value="0.00207806337989917" flag="0"/>
			<vel value="0.00204249575769426" flag="0"/>
			<psa03 value="0.00567532387900227" flag="0"/>
			<psa10 value="0.00270286733294654" flag="0"/>
			<psa30 value="0.000514572160798967" flag="0"/>
		</comp>
	</station>
	<station code="KSS1" name="KSS1" netid="HI" source="ITSAK Strong Motion Network" insttype="" lat="35.4189" lon="26.9207">
		<comp name="--.HNE" depth="0.0">
			<acc value="0.0108560850619316" flag="0"/>
			<vel value="0.00502632861834313" flag="0"/>
			<psa03 value="0.0283941153457876" flag="0"/>
			<psa10 value="0.00519962804360311" flag="0"/>
			<psa30 value="0.000348766958265912" flag="0"/>
		</comp>
		<comp name="--.HNN" depth="0.0">
			<acc value="0.0127267778745639" flag="0"/>
			<vel value="0.00438261999487788" flag="0"/>
			<psa03 value="0.0243245905514276" flag="0"/>
			<psa10 value="0.0051292574443992" flag="0"/>
			<psa30 value="0.000395761321412031" flag="0"/>
		</comp>
		<comp name="--.HNZ" depth="0.0">
			<acc value="0.00829374823721667" flag="0"/>
			<vel value="0.0027258672305672" flag="0"/>
			<psa03 value="0.010469052898375" flag="0"/>
			<psa10 value="0.00387448713450902" flag="0"/>
			<psa30 value="0.000350259400882773" flag="0"/>
		</comp>
	</station>
	<station code="NAX1" name="NAX1" netid="HI" source="ITSAK Strong Motion Network" insttype="" lat="37.101394" lon="25.374103">
		<comp name="--.HNE" depth="0.0">
			<acc value="0.00163849616034545" flag="0"/>
			<vel value="0.0015557463873751" flag="0"/>
			<psa03 value="0.00431903253398126" flag="0"/>
			<psa10 value="0.0020107458582968" flag="0"/>
			<psa30 value="0.000413012594432365" flag="0"/>
		</comp>
		<comp name="--.HNN" depth="0.0">
			<acc value="0.00301828096201169" flag="0"/>
			<vel value="0.00176573689071371" flag="0"/>
			<psa03 value="0.00482574611429058" flag="0"/>
			<psa10 value="0.0015638061335428" flag="0"/>
			<psa30 value="0.000511933756847328" flag="0"/>
		</comp>
		<comp name="--.HNZ" depth="0.0">
			<acc value="0.00211454567811974" flag="0"/>
			<vel value="0.00292598511121" flag="0"/>
			<psa03 value="0.00514776647000718" flag="0"/>
			<psa10 value="0.00205286396091092" flag="0"/>
			<psa30 value="0.000786799725785233" flag="0"/>
		</comp>
	</station>
	<station code="SIT2" name="SIT2" netid="HI" source="ITSAK Strong Motion Network" insttype="" lat="35.2059" lon="26.107">
		<comp name="--.HNE" depth="0.0">
			<acc value="0.0163234058117089" flag="0"/>
			<vel value="0.0122169754339771" flag="0"/>
			<psa03 value="0.0415894738485124" flag="0"/>
			<psa10 value="0.0131902603525152" flag="0"/>
			<psa30 value="0.00105476789402958" flag="0"/>
		</comp>
		<comp name="--.HNN" depth="0.0">
			<acc value="0.0267511796071038" flag="0"/>
			<vel value="0.0178381793220529" flag="0"/>
			<psa03 value="0.0643302198946585" flag="0"/>
			<psa10 value="0.01441084246008" flag="0"/>
			<psa30 value="0.000828023081632293" flag="0"/>
		</comp>
		<comp name="--.HNZ" depth="0.0">
			<acc value="0.0100135238956676" flag="0"/>
			<vel value="0.00404751374329396" flag="0"/>
			<psa03 value="0.0239894719972728" flag="0"/>
			<psa10 value="0.00435498537141309" flag="0"/>
			<psa30 value="0.000566248813288961" flag="0"/>
		</comp>
	</station>
	<station code="KARP" name="KARP" netid="HL" source="National Observatory of Athens Seismic Network" insttype="" lat="35.5471" lon="27.16106">
		<comp name="--.HNE" depth="0.0">
			<acc value="0.033201295385457" flag="0"/>
			<vel value="0.0172674474247969" flag="0"/>
			<psa03 value="0.0327543859631441" flag="0"/>
			<psa10 value="0.0369068773995001" flag="0"/>
			<psa30 value="0.00116833895922289" flag="0"/>
		</comp>
		<comp name="--.HNN" depth="0.0">
			<acc value="0.0437807001540179" flag="0"/>
			<vel value="0.0304681132590625" flag="0"/>
			<psa03 value="0.0449847664781469" flag="0"/>
			<psa10 value="0.0603674677985046" flag="0"/>
			<psa30 value="0.00248626824473788" flag="0"/>
		</comp>
		<comp name="--.HNZ" depth="0.0">
			<acc value="0.0220937183140695" flag="0"/>
			<vel value="0.0142409943792686" flag="0"/>
			<psa03 value="0.0329269677083488" flag="0"/>
			<psa10 value="0.0225087398435491" flag="0"/>
			<psa30 value="0.00146553885559103" flag="0"/>
		</comp>
	</station>
	<station code="KLNA" name="KLNA" netid="HL" source="National Observatory of Athens Seismic Network" insttype="" lat="36.95708" lon="26.97274">
		<comp name="00.HNE" depth="0.0">
			<acc value="0.0311902828080573" flag="0"/>
			<vel value="0.0105081136837631" flag="0"/>
			<psa03 value="0.0834350063262738" flag="0"/>
			<psa10 value="0.0041360979024237" flag="0"/>
			<psa30 value="0.00150946614055713" flag="0"/>
		</comp>
		<comp name="00.HNN" depth="0.0">
			<acc value="0.0276765484010172" flag="0"/>
			<vel value="0.0105065848460617" flag="0"/>
			<psa03 value="0.0763668401782218" flag="0"/>
			<psa10 value="0.00374276036137931" flag="0"/>
			<psa30 value="0.000596916574041626" flag="0"/>
		</comp>
		<comp name="00.HNZ" depth="0.0">
			<acc value="0.0358244362661736" flag="0"/>
			<vel value="0.00782791244441286" flag="0"/>
			<psa03 value="0.030433146254914" flag="0"/>
			<psa10 value="0.00215913826668794" flag="0"/>
			<psa30 value="0.000818042003768097" flag="0"/>
		</comp>
	</station>
	<station code="NISR" name="NISR" netid="HL" source="National Observatory of Athens Seismic Network" insttype="" lat="36.6106" lon="27.131">
		<comp name="--.HNE" depth="0.0">
			<acc value="0.780463781284219" flag="0"/>
			<vel value="0.193904363349945" flag="0"/>
			<psa03 value="1.02937777455749" flag="0"/>
			<psa10 value="0.0476580108591928" flag="0"/>
			<psa30 value="0.00600000997122816" flag="0"/>
		</comp>
		<comp name="--.HNN" depth="0.0">
			<acc value="0.665001614905345" flag="0"/>
			<vel value="0.131534113732944" flag="0"/>
			<psa03 value="0.615933260891254" flag="0"/>
			<psa10 value="0.0339737555945869" flag="0"/>
			<psa30 value="0.00467842325592999" flag="0"/>
		</comp>
		<comp name="--.HNZ" depth="0.0">
			<acc value="0.222321247202651" flag="0"/>
			<vel value="0.0467000350765986" flag="0"/>
			<psa03 value="0.225165291095688" flag="0"/>
			<psa10 value="0.0338829545794515" flag="0"/>
			<psa30 value="0.00268664964402212" flag="0"/>
		</comp>
	</station>
	<station code="RODB" name="RODB" netid="HL" source="National Observatory of Athens Seismic Network" insttype="" lat="36.4471" lon="28.22116">
		<comp name="00.HNE" depth="0.0">
			<acc value="0.00752276503952999" flag="0"/>
			<vel value="0.0115553329692255" flag="0"/>
			<psa03 value="0.0156430792459933" flag="0"/>
			<psa10 value="0.0150668574803694" flag="0"/>
			<psa30 value="0.00438944869610255" flag="0"/>
		</comp>
		<comp name="00.HNN" depth="0.0">
			<acc value="0.00732982166190093" flag="0"/>
			<vel value="0.0100448813377466" flag="0"/>
			<psa03 value="0.0135449702044802" flag="0"/>
			<psa10 value="0.0171949059531169" flag="0"/>
			<psa30 value="0.00506854826645822" flag="0"/>
		</comp>
		<comp name="00.HNZ" depth="0.0">
			<acc value="0.0053239725572283" flag="0"/>
			<vel value="0.00582037303055578" flag="0"/>
			<psa03 value="0.0127133213618178" flag="0"/>
			<psa10 value="0.00826696233316717" flag="0"/>
			<psa30 value="0.00161119475457975" flag="0"/>
		</comp>
	</station>
	<station code="THRA" name="THRA" netid="HL" source="National Observatory of Athens Seismic Network" insttype="" lat="36.41502" lon="25.43244">
		<comp name="00.HNE" depth="0.0">
			<acc value="0.0201094022298682" flag="0"/>
			<vel value="0.0148536175637344" flag="0"/>
			<psa03 value="0.0409595701413236" flag="0"/>
			<psa10 value="0.0230490043834166" flag="0"/>
			<psa30 value="0.003948799505254" flag="0"/>
		</comp>
		<comp name="00.HNN" depth="0.0">
			<acc value="0.017278718847633" flag="0"/>
			<vel value="0.0140831394407519" flag="0"/>
			<psa03 value="0.0416691015193137" flag="0"/>
			<psa10 value="0.0224136091666045" flag="0"/>
			<psa30 value="0.00303213440568953" flag="0"/>
		</comp>
		<comp name="00.HNZ" depth="0.0">
			<acc value="0.0156169460913204" flag="0"/>
			<vel value="0.00732864266906248" flag="0"/>
			<psa03 value="0.0370080687904251" flag="0"/>
			<psa10 value="0.00744291133758848" flag="0"/>
			<psa30 value="0.000893196149026932" flag="0"/>
		</comp>
	</station>
</stationlist>
