<?xml version="1.0" encoding="UTF-8" standalone="yes"?>
<!DOCTYPE earthquake SYSTEM "stationlist.dtd">
<stationlist created="" xmlns="ch.ethz.sed.shakemap.usgs.xml">
  <station code="KARP" name="KARP" netid="GE" insttype="STS-2/N" lat="35.5471" lon="27.1611">
    <comp name="--.HHE">
      <acc value="0.0519826361" flag="0"/>
      <vel value="0.0188093645" flag="0"/>
      <psa03 value="0.0421764423" flag="0"/>
      <psa10 value="0.0462171097" flag="0"/>
      <psa30 value="0.0013179566" flag="0"/>
    </comp>
    <comp name="--.HHN">
      <acc value="0.0551411185" flag="0"/>
      <vel value="0.0351523820" flag="0"/>
      <psa03 value="0.0558935052" flag="0"/>
      <psa10 value="0.0674427080" flag="0"/>
      <psa30 value="0.0027414191" flag="0"/>
    </comp>
    <comp name="--.HHZ">
      <acc value="0.0292670235" flag="0"/>
      <vel value="0.0175826627" flag="0"/>
      <psa03 value="0.0406853364" flag="0"/>
      <psa10 value="0.0282410346" flag="0"/>
      <psa30 value="0.0017410986" flag="0"/>
    </comp>
  </station>
  <station code="ARG" name="ARG" netid="HL" insttype="LE3D20_DR24" lat="36.2136" lon="28.1212">
    <comp name="--.HHE">
      <acc value="0.0380048967" flag="0"/>
      <vel value="0.0294829161" flag="0"/>
      <psa03 value="0.0856490201" flag="0"/>
      <psa10 value="0.0245278200" flag="0"/>
      <psa30 value="0.0047269797" flag="0"/>
    </comp>
    <comp name="--.HHZ">
      <acc value="0.0130872832" flag="0"/>
      <vel value="0.0074364240" flag="0"/>
      <psa03 value="0.0256295668" flag="0"/>
      <psa10 value="0.0151500620" flag="0"/>
      <psa30 value="0.0016042079" flag="0"/>
    </comp>
    <comp name="--.HHN">
      <acc value="0.0425906238" flag="0"/>
      <vel value="0.0156657678" flag="0"/>
      <psa03 value="0.0602693034" flag="0"/>
      <psa10 value="0.0149900539" flag="0"/>
      <psa30 value="0.0012324572" flag="0"/>
    </comp>
  </station>
  <station code="KARP" name="KARP" netid="HL" insttype="120" lat="35.5471" lon="27.1611">
    <comp name="--.HHN">
      <acc value="0.0516502439" flag="0"/>
      <vel value="0.0345502852" flag="0"/>
      <psa03 value="0.0551377808" flag="0"/>
      <psa10 value="0.0670050874" flag="0"/>
      <psa30 value="0.0027337322" flag="0"/>
    </comp>
    <comp name="--.HHZ">
      <acc value="0.0281951182" flag="0"/>
      <vel value="0.0173386591" flag="0"/>
      <psa03 value="0.0398124092" flag="0"/>
      <psa10 value="0.0281149956" flag="0"/>
      <psa30 value="0.0017306249" flag="0"/>
    </comp>
    <comp name="--.HHE">
      <acc value="0.0455769403" flag="0"/>
      <vel value="0.0186006028" flag="0"/>
      <psa03 value="0.0412044417" flag="0"/>
      <psa10 value="0.0459095731" flag="0"/>
      <psa30 value="0.0013107649" flag="0"/>
    </comp>
  </station>
  <station code="KLNA" name="KLNA" netid="HL" insttype="CMG-5" lat="36.9571" lon="26.9727">
    <comp name="00.HNN">
      <acc value="0.0277725672" flag="0"/>
      <vel value="0.0112457226" flag="0"/>
      <psa03 value="0.0760109005" flag="0"/>
      <psa10 value="0.0037541108" flag="0"/>
      <psa30 value="0.0004906942" flag="0"/>
    </comp>
    <comp name="00.HNZ">
      <acc value="0.0354516812" flag="0"/>
      <vel value="0.0078133757" flag="0"/>
      <psa03 value="0.0300966823" flag="0"/>
      <psa10 value="0.0021691196" flag="0"/>
      <psa30 value="0.0007361419" flag="0"/>
    </comp>
    <comp name="00.HNE">
      <acc value="0.0315068092" flag="0"/>
      <vel value="0.0105910336" flag="0"/>
      <psa03 value="0.0830084825" flag="0"/>
      <psa10 value="0.0041228157" flag="0"/>
      <psa30 value="0.0013752395" flag="0"/>
    </comp>
  </station>
  <station code="NISR" name="NISR" netid="HL" insttype="65535" lat="36.6106" lon="27.131">
    <comp name="--.HHE">
      <acc value="0.8685876608" flag="0"/>
      <vel value="0.2107056123" flag="0"/>
      <psa03 value="1.1216263651" flag="0"/>
      <psa10 value="0.0492078754" flag="0"/>
      <psa30 value="0.0048367381" flag="0"/>
    </comp>
    <comp name="--.HHN">
      <acc value="0.7387411137" flag="0"/>
      <vel value="0.1265644369" flag="0"/>
      <psa03 value="0.5534070837" flag="0"/>
      <psa10 value="0.0388763311" flag="0"/>
      <psa30 value="0.0142798560" flag="0"/>
    </comp>
    <comp name="--.HHZ">
      <acc value="0.2695788195" flag="0"/>
      <vel value="0.0547230446" flag="0"/>
      <psa03 value="0.2380523003" flag="0"/>
      <psa10 value="0.0332986517" flag="0"/>
      <psa30 value="0.0019165363" flag="0"/>
    </comp>
  </station>
</stationlist>
