<?xml version="1.0" encoding="UTF-8" standalone="yes"?>
<!DOCTYPE earthquake SYSTEM "stationlist.dtd">
<stationlist created="" xmlns="ch.ethz.sed.shakemap.usgs.xml">
  <station code="LMN1" name="LMN1" netid="HI" insttype="CMG-5TD,ACCELEROMETER,GURALP" lat="39.875" lon="25.0588">
    <comp name="--.HNZ">
      <acc value="0.9160554850" flag="0"/>
      <vel value="0.2165491619" flag="0"/>
      <psa03 value="0.5285596071" flag="0"/>
      <psa10 value="0.0865704004" flag="0"/>
      <psa30 value="0.0090157975" flag="0"/>
    </comp>
    <comp name="--.HNN">
      <acc value="0.6405483179" flag="0"/>
      <vel value="0.2892068914" flag="0"/>
      <psa03 value="1.6104977084" flag="0"/>
      <psa10 value="0.1076494479" flag="0"/>
      <psa30 value="0.0149002845" flag="0"/>
    </comp>
    <comp name="--.HNE">
      <acc value="0.7469903187" flag="0"/>
      <vel value="0.3067639159" flag="0"/>
      <psa03 value="2.1558220845" flag="0"/>
      <psa10 value="0.2181976118" flag="0"/>
      <psa30 value="0.0212978970" flag="0"/>
    </comp>
  </station>
  <station code="SKO1" name="SKO1" netid="HI" insttype="CMG-5TD,ACCELEROMETER,GURALP" lat="39.1234" lon="23.7287">
    <comp name="--.HNZ">
      <acc value="0.0548817352" flag="0"/>
      <vel value="0.0417586757" flag="0"/>
      <psa03 value="0.1335592544" flag="0"/>
      <psa10 value="0.0586421161" flag="0"/>
      <psa30 value="0.0091624626" flag="0"/>
    </comp>
    <comp name="--.HNE">
      <acc value="0.0899635554" flag="0"/>
      <vel value="0.0686028510" flag="0"/>
      <psa03 value="0.2502888923" flag="0"/>
      <psa10 value="0.0705399438" flag="0"/>
      <psa30 value="0.0336330278" flag="0"/>
    </comp>
    <comp name="--.HNN">
      <acc value="0.0685739008" flag="0"/>
      <vel value="0.0596078958" flag="0"/>
      <psa03 value="0.1567579076" flag="0"/>
      <psa10 value="0.0763390154" flag="0"/>
      <psa30 value="0.0293195529" flag="0"/>
    </comp>
  </station>
  <station code="THS1" name="THS1" netid="HI" insttype="CMG-5TD,ACCELEROMETER,GURALP" lat="40.7385" lon="24.5751">
    <comp name="--.HNE">
      <acc value="0.5557235942" flag="0"/>
      <vel value="0.2209418444" flag="0"/>
      <psa03 value="1.2897725016" flag="0"/>
      <psa10 value="0.2595137200" flag="0"/>
      <psa30 value="0.0230087879" flag="0"/>
    </comp>
    <comp name="--.HNZ">
      <acc value="0.6009832610" flag="0"/>
      <vel value="0.1740845095" flag="0"/>
      <psa03 value="0.9420820098" flag="0"/>
      <psa10 value="0.1213464994" flag="0"/>
      <psa30 value="0.0212216508" flag="0"/>
    </comp>
    <comp name="--.HNN">
      <acc value="0.9484759912" flag="0"/>
      <vel value="0.3498382984" flag="0"/>
      <psa03 value="2.1597055503" flag="0"/>
      <psa10 value="0.1616938696" flag="0"/>
      <psa30 value="0.0231021164" flag="0"/>
    </comp>
  </station>
  <station code="VOL2" name="VOL2" netid="HI" insttype="CMG-5TD,ACCELEROMETER,GURALP" lat="39.366" lon="22.9506">
    <comp name="--.HNZ">
      <acc value="0.0440043059" flag="0"/>
      <vel value="0.0556816836" flag="0"/>
      <psa03 value="0.1123985622" flag="0"/>
      <psa10 value="0.0589789587" flag="0"/>
      <psa30 value="0.0187984245" flag="0"/>
    </comp>
    <comp name="--.HNE">
      <acc value="0.1247593577" flag="0"/>
      <vel value="0.0874527099" flag="0"/>
      <psa03 value="0.2523301208" flag="0"/>
      <psa10 value="0.0738623287" flag="0"/>
      <psa30 value="0.0144772543" flag="0"/>
    </comp>
    <comp name="--.HNN">
      <acc value="0.1575666981" flag="0"/>
      <vel value="0.1425108854" flag="0"/>
      <psa03 value="0.3179077512" flag="0"/>
      <psa10 value="0.1010488230" flag="0"/>
      <psa30 value="0.0265838282" flag="0"/>
    </comp>
  </station>
  <station code="EFSA" name="EFSA" netid="HL" insttype="CMG-5" lat="39.5401" lon="24.9886">
    <comp name="00.HNE">
      <acc value="1.0543424212" flag="0"/>
      <vel value="0.8044497925" flag="0"/>
      <psa03 value="2.4031005418" flag="0"/>
      <psa10 value="1.0899771577" flag="0"/>
      <psa30 value="0.0939429228" flag="0"/>
    </comp>
    <comp name="00.HNN">
      <acc value="0.4356905911" flag="0"/>
      <vel value="0.2960670199" flag="0"/>
      <psa03 value="1.2255534618" flag="0"/>
      <psa10 value="0.3103242455" flag="0"/>
      <psa30 value="0.0375056413" flag="0"/>
    </comp>
    <comp name="00.HNZ">
      <acc value="0.2674878464" flag="0"/>
      <vel value="0.2431997464" flag="0"/>
      <psa03 value="0.9603835118" flag="0"/>
      <psa10 value="0.3680656827" flag="0"/>
      <psa30 value="0.0207886869" flag="0"/>
    </comp>
  </station>
  <station code="KYMI" name="KYMI" netid="HL" insttype="60" lat="38.6331" lon="24.1001">
    <comp name="--.HHE">
      <acc value="0.0863980492" flag="0"/>
      <vel value="0.0708345830" flag="0"/>
      <psa03 value="0.1591902686" flag="0"/>
      <psa10 value="0.0664144783" flag="0"/>
      <psa30 value="0.0158020291" flag="0"/>
    </comp>
    <comp name="--.HHZ">
      <acc value="0.0448880030" flag="0"/>
      <vel value="0.0406335060" flag="0"/>
      <psa03 value="0.0712088437" flag="0"/>
      <psa10 value="0.0486149632" flag="0"/>
      <psa30 value="0.0141620855" flag="0"/>
    </comp>
    <comp name="--.HHN">
      <acc value="0.0528421970" flag="0"/>
      <vel value="0.0509420806" flag="0"/>
      <psa03 value="0.1108565210" flag="0"/>
      <psa10 value="0.0697371920" flag="0"/>
      <psa30 value="0.0151510602" flag="0"/>
    </comp>
  </station>
  <station code="LIA" name="LIA" netid="HL" insttype="P6C" lat="39.8972" lon="25.1806">
    <comp name="--.HHN">
      <acc value="0.2704034197" flag="0"/>
      <vel value="0.1668257920" flag="0"/>
      <psa03 value="0.5723840312" flag="0"/>
      <psa10 value="0.1252430550" flag="0"/>
      <psa30 value="0.0150692354" flag="0"/>
    </comp>
    <comp name="--.HHE">
      <acc value="0.2920961240" flag="0"/>
      <vel value="0.1726321166" flag="0"/>
      <psa03 value="1.1492726396" flag="0"/>
      <psa10 value="0.1589951155" flag="0"/>
      <psa30 value="0.0171061690" flag="0"/>
    </comp>
    <comp name="--.HHZ">
      <acc value="0.2898796997" flag="0"/>
      <vel value="0.1562003885" flag="0"/>
      <psa03 value="0.8508557584" flag="0"/>
      <psa10 value="0.0832041664" flag="0"/>
      <psa30 value="0.0087101058" flag="0"/>
    </comp>
  </station>
  <station code="NEO" name="NEO" netid="HL" insttype="120" lat="39.3057" lon="23.2219">
    <comp name="--.HHE">
      <acc value="0.1497159251" flag="0"/>
      <vel value="0.1019400598" flag="0"/>
      <psa03 value="0.2478863447" flag="0"/>
      <psa10 value="0.0810081043" flag="0"/>
      <psa30 value="0.0243287221" flag="0"/>
    </comp>
    <comp name="--.HHN">
      <acc value="0.1144521305" flag="0"/>
      <vel value="0.1722611256" flag="0"/>
      <psa03 value="0.2158574617" flag="0"/>
      <psa10 value="0.1444684491" flag="0"/>
      <psa30 value="0.0326962425" flag="0"/>
    </comp>
    <comp name="--.HHZ">
      <acc value="0.0939318730" flag="0"/>
      <vel value="0.0508579102" flag="0"/>
      <psa03 value="0.2777463195" flag="0"/>
      <psa10 value="0.0974578928" flag="0"/>
      <psa30 value="0.0252071634" flag="0"/>
    </comp>
  </station>
  <station code="PLG" name="PLG" netid="HL" insttype="CMG3ESPC-120s" lat="40.3733" lon="23.4444">
    <comp name="--.HHZ">
      <acc value="0.2048568822" flag="0"/>
      <vel value="0.1253562140" flag="0"/>
      <psa03 value="0.6762364898" flag="0"/>
      <psa10 value="0.0987595054" flag="0"/>
      <psa30 value="0.0372889915" flag="0"/>
    </comp>
  </station>
  <station code="SMTH" name="SMTH" netid="HL" insttype="CMG3ESPC60_P6C" lat="40.4709" lon="25.5304">
    <comp name="--.HHN">
      <acc value="0.0973621254" flag="0"/>
      <vel value="0.1385501978" flag="0"/>
      <psa03 value="0.2122130193" flag="0"/>
      <psa10 value="0.1727863200" flag="0"/>
      <psa30 value="0.0199579320" flag="0"/>
    </comp>
    <comp name="--.HHE">
      <acc value="0.1486491888" flag="0"/>
      <vel value="0.0766781951" flag="0"/>
      <psa03 value="0.2207774641" flag="0"/>
      <psa10 value="0.0876657477" flag="0"/>
      <psa30 value="0.0148042422" flag="0"/>
    </comp>
    <comp name="--.HHZ">
      <acc value="0.1282085149" flag="0"/>
      <vel value="0.1041863917" flag="0"/>
      <psa03 value="0.1928555291" flag="0"/>
      <psa10 value="0.1846811961" flag="0"/>
      <psa30 value="0.0165305093" flag="0"/>
    </comp>
  </station>
  <station code="AOS2" name="AOS2" netid="HT" insttype="100" lat="39.1478" lon="23.8436">
    <comp name="--.HHE">
      <acc value="0.1641102097" flag="0"/>
      <vel value="0.1916118523" flag="0"/>
      <psa03 value="0.6545856816" flag="0"/>
      <psa10 value="0.1976908647" flag="0"/>
      <psa30 value="0.0315418801" flag="0"/>
    </comp>
    <comp name="--.HHN">
      <acc value="0.2309524058" flag="0"/>
      <vel value="0.1580604315" flag="0"/>
      <psa03 value="0.5805569660" flag="0"/>
      <psa10 value="0.1919345125" flag="0"/>
      <psa30 value="0.0215816034" flag="0"/>
    </comp>
    <comp name="--.HHZ">
      <acc value="0.1359088114" flag="0"/>
      <vel value="0.1061840719" flag="0"/>
      <psa03 value="0.2957642662" flag="0"/>
      <psa10 value="0.1370325718" flag="0"/>
      <psa30 value="0.0190017615" flag="0"/>
    </comp>
  </station>
  <station code="KAVA" name="KAVA" netid="HT" insttype="Compact," lat="40.9967" lon="24.5137">
    <comp name="--.HHZ">
      <acc value="0.2525245849" flag="0"/>
      <vel value="0.0901728323" flag="0"/>
      <psa03 value="0.3789786864" flag="0"/>
      <psa10 value="0.0601888532" flag="0"/>
      <psa30 value="0.0271928929" flag="0"/>
    </comp>
    <comp name="--.HHN">
      <acc value="0.3189343334" flag="0"/>
      <vel value="0.1065839477" flag="0"/>
      <psa03 value="0.7325704823" flag="0"/>
      <psa10 value="0.1088548057" flag="0"/>
      <psa30 value="0.0247913179" flag="0"/>
    </comp>
    <comp name="--.HHE">
      <acc value="0.3869925548" flag="0"/>
      <vel value="0.1170550489" flag="0"/>
      <psa03 value="0.6347707742" flag="0"/>
      <psa10 value="0.0973675333" flag="0"/>
      <psa30 value="0.0218314963" flag="0"/>
    </comp>
  </station>
  <station code="OUR" name="OUR" netid="HT" insttype="100" lat="40.3325" lon="23.9791">
    <comp name="--.HHN">
      <acc value="0.8432147514" flag="0"/>
      <vel value="0.3512525027" flag="0"/>
      <psa03 value="2.2004541772" flag="0"/>
      <psa10 value="0.2682403737" flag="0"/>
      <psa30 value="0.0534092046" flag="0"/>
    </comp>
    <comp name="--.HHE">
      <acc value="1.0432159512" flag="0"/>
      <vel value="0.3929384191" flag="0"/>
      <psa03 value="2.9903063597" flag="0"/>
      <psa10 value="0.2042053972" flag="0"/>
      <psa30 value="0.0558069398" flag="0"/>
    </comp>
    <comp name="--.HHZ">
      <acc value="0.8429981655" flag="0"/>
      <vel value="0.2338983554" flag="0"/>
      <psa03 value="0.8523055178" flag="0"/>
      <psa10 value="0.1483022591" flag="0"/>
      <psa30 value="0.0302488803" flag="0"/>
    </comp>
  </station>
  <station code="PAIG" name="PAIG" netid="HT" insttype="100" lat="39.9363" lon="23.6768">
    <comp name="--.HHN">
      <acc value="0.1033581681" flag="0"/>
      <vel value="0.0789155769" flag="0"/>
      <psa03 value="0.3047724559" flag="0"/>
      <psa10 value="0.0791920750" flag="0"/>
      <psa30 value="0.0117108569" flag="0"/>
    </comp>
    <comp name="--.HHZ">
      <acc value="0.0927299454" flag="0"/>
      <vel value="0.0404310267" flag="0"/>
      <psa03 value="0.1367081143" flag="0"/>
      <psa10 value="0.0625926906" flag="0"/>
      <psa30 value="0.0128272345" flag="0"/>
    </comp>
    <comp name="--.HHE">
      <acc value="0.1479811972" flag="0"/>
      <vel value="0.0542159686" flag="0"/>
      <psa03 value="0.2157261421" flag="0"/>
      <psa10 value="0.0515544449" flag="0"/>
      <psa30 value="0.0109413010" flag="0"/>
    </comp>
  </station>
  <station code="SOH" name="SOH" netid="HT" insttype="120P," lat="40.8217" lon="23.3539">
    <comp name="--.HHE">
      <acc value="0.1597383254" flag="0"/>
      <vel value="0.1137237377" flag="0"/>
      <psa03 value="0.4531141321" flag="0"/>
      <psa10 value="0.1616780394" flag="0"/>
      <psa30 value="0.0266329596" flag="0"/>
    </comp>
    <comp name="--.HHN">
      <acc value="0.1109831892" flag="0"/>
      <vel value="0.1348040629" flag="0"/>
      <psa03 value="0.2692118796" flag="0"/>
      <psa10 value="0.1243364435" flag="0"/>
      <psa30 value="0.0481548629" flag="0"/>
    </comp>
    <comp name="--.HHZ">
      <acc value="0.0879264003" flag="0"/>
      <vel value="0.0544615202" flag="0"/>
      <psa03 value="0.2516341613" flag="0"/>
      <psa10 value="0.1126302525" flag="0"/>
      <psa30 value="0.0216098108" flag="0"/>
    </comp>
  </station>
  <station code="SRS" name="SRS" netid="HT" insttype="100" lat="41.1087" lon="23.595">
    <comp name="--.HHE">
      <acc value="0.0979797016" flag="0"/>
      <vel value="0.0709438330" flag="0"/>
      <psa03 value="0.2068802024" flag="0"/>
      <psa10 value="0.0529906298" flag="0"/>
      <psa30 value="0.0368616061" flag="0"/>
    </comp>
    <comp name="--.HHZ">
      <acc value="0.0717682937" flag="0"/>
      <vel value="0.0294697388" flag="0"/>
      <psa03 value="0.1569722046" flag="0"/>
      <psa10 value="0.0308659495" flag="0"/>
      <psa30 value="0.0153606701" flag="0"/>
    </comp>
    <comp name="--.HHN">
      <acc value="0.0662777717" flag="0"/>
      <vel value="0.0526437131" flag="0"/>
      <psa03 value="0.1686000845" flag="0"/>
      <psa10 value="0.0318914942" flag="0"/>
      <psa30 value="0.0182946859" flag="0"/>
    </comp>
  </station>
  <station code="THAS" name="THAS" netid="HT" insttype="100" lat="40.6064" lon="24.7194">
    <comp name="--.HHE">
      <acc value="0.6602175453" flag="0"/>
      <vel value="0.4191986550" flag="0"/>
      <psa03 value="1.3447593499" flag="0"/>
      <psa10 value="0.4816039892" flag="0"/>
      <psa30 value="0.0679257910" flag="0"/>
    </comp>
    <comp name="--.HHN">
      <acc value="0.7073953749" flag="0"/>
      <vel value="0.2545659415" flag="0"/>
      <psa03 value="1.5389311622" flag="0"/>
      <psa10 value="0.2751125251" flag="0"/>
      <psa30 value="0.0188496962" flag="0"/>
    </comp>
    <comp name="--.HHZ">
      <acc value="0.5098356692" flag="0"/>
      <vel value="0.1694776010" flag="0"/>
      <psa03 value="0.6058915223" flag="0"/>
      <psa10 value="0.1870568439" flag="0"/>
      <psa30 value="0.0142085323" flag="0"/>
    </comp>
  </station>
  <station code="THE" name="THE" netid="HT" insttype="30s-100Hz," lat="40.6319" lon="22.9628">
    <comp name="--.HHN">
      <acc value="0.0239784580" flag="0"/>
      <vel value="0.0357281015" flag="0"/>
      <psa03 value="0.0535794286" flag="0"/>
      <psa10 value="0.0449067345" flag="0"/>
      <psa30 value="0.0102572119" flag="0"/>
    </comp>
    <comp name="--.HHZ">
      <acc value="0.0269508095" flag="0"/>
      <vel value="0.0285857327" flag="0"/>
      <psa03 value="0.0581647228" flag="0"/>
      <psa10 value="0.0397193133" flag="0"/>
      <psa30 value="0.0094625821" flag="0"/>
    </comp>
    <comp name="--.HHE">
      <acc value="0.0223198521" flag="0"/>
      <vel value="0.0335956851" flag="0"/>
      <psa03 value="0.0572142951" flag="0"/>
      <psa10 value="0.0353954274" flag="0"/>
      <psa30 value="0.0094983585" flag="0"/>
    </comp>
  </station>
  <station code="XOR" name="XOR" netid="HT" insttype="Compact," lat="39.366" lon="23.1918">
    <comp name="--.HHZ">
      <acc value="0.0623234189" flag="0"/>
      <vel value="0.0720045308" flag="0"/>
      <psa03 value="0.1354296629" flag="0"/>
      <psa10 value="0.0635642688" flag="0"/>
      <psa30 value="0.0359606931" flag="0"/>
    </comp>
    <comp name="--.HHN">
      <acc value="0.1533144474" flag="0"/>
      <vel value="0.1456254129" flag="0"/>
      <psa03 value="0.2809708369" flag="0"/>
      <psa10 value="0.1803874640" flag="0"/>
      <psa30 value="0.0268088856" flag="0"/>
    </comp>
  </station>
  <station code="ENZZ" name="ENZZ" netid="KO" insttype="100" lat="40.607" lon="26.1406">
    <comp name="--.HNN">
      <acc value="1.2561284865" flag="0"/>
      <vel value="1.1240512942" flag="0"/>
      <psa03 value="3.4682699414" flag="0"/>
      <psa10 value="1.7133963934" flag="0"/>
      <psa30 value="0.3556012610" flag="0"/>
    </comp>
    <comp name="--.HNE">
      <acc value="1.1968402102" flag="0"/>
      <vel value="1.0317522867" flag="0"/>
      <psa03 value="2.2683722184" flag="0"/>
      <psa10 value="1.6086850090" flag="0"/>
      <psa30 value="0.3045136259" flag="0"/>
    </comp>
    <comp name="--.HNZ">
      <acc value="0.5750704086" flag="0"/>
      <vel value="0.4923257000" flag="0"/>
      <psa03 value="1.8729226014" flag="0"/>
      <psa10 value="0.6787560735" flag="0"/>
      <psa30 value="0.1391835278" flag="0"/>
    </comp>
  </station>
  <station code="EZN" name="EZN" netid="KO" insttype="120s," lat="39.8255" lon="26.3247">
    <comp name="--.HHE">
      <acc value="0.0463990861" flag="0"/>
      <vel value="0.0307146659" flag="0"/>
      <psa03 value="0.1213409330" flag="0"/>
      <psa10 value="0.0458525730" flag="0"/>
      <psa30 value="0.0104581817" flag="0"/>
    </comp>
    <comp name="--.HHN">
      <acc value="0.0430340316" flag="0"/>
      <vel value="0.0397621335" flag="0"/>
      <psa03 value="0.1200866459" flag="0"/>
      <psa10 value="0.0466023331" flag="0"/>
      <psa30 value="0.0199956543" flag="0"/>
    </comp>
    <comp name="--.HHZ">
      <acc value="0.0316876506" flag="0"/>
      <vel value="0.0272992556" flag="0"/>
      <psa03 value="0.0839681339" flag="0"/>
      <psa10 value="0.0465988733" flag="0"/>
      <psa30 value="0.0066047162" flag="0"/>
    </comp>
  </station>
</stationlist>
