<stationlist created="1778069868">
	<station code="MMAA" name="MMAA" netid="EG" source="EUROSEISTEST Strong Motion Network" insttype="" lat="40.630855" lon="22.943725">
		<comp name="--.EN1" depth="0.0">
			<acc value="0.2092921352992" flag="0"/>
			<vel value="0.220861889865064" flag="0"/>
			<psa03 value="0.742646530022027" flag="0"/>
			<psa10 value="0.289161975561635" flag="0"/>
			<psa30 value="0.026093506900118" flag="0"/>
		</comp>
		<comp name="--.EN2" depth="0.0">
			<acc value="0.263661348813555" flag="0"/>
			<vel value="0.17316188836686" flag="0"/>
			<psa03 value="0.978923432204305" flag="0"/>
			<psa10 value="0.291321098593188" flag="0"/>
			<psa30 value="0.0208787247797137" flag="0"/>
		</comp>
		<comp name="--.EN3" depth="0.0">
			<acc value="0.163813946291982" flag="0"/>
			<vel value="0.0988647752308687" flag="0"/>
			<psa03 value="0.446161431005035" flag="0"/>
			<psa10 value="0.107291592541451" flag="0"/>
			<psa30 value="0.017627312722971" flag="0"/>
		</comp>
	</station>
	<station code="SHTA" name="SHTA" netid="EG" source="EUROSEISTEST Strong Motion Network" insttype="" lat="40.613764" lon="22.952972">
		<comp name="--.EN1" depth="0.0">
			<acc value="0.22426038847501" flag="0"/>
			<vel value="0.19951893770332" flag="0"/>
			<psa03 value="0.572712314380484" flag="0"/>
			<psa10 value="0.303438121286466" flag="0"/>
			<psa30 value="0.0491243209118103" flag="0"/>
		</comp>
		<comp name="--.EN2" depth="0.0">
			<acc value="0.201079498180854" flag="0"/>
			<vel value="0.17413599011585" flag="0"/>
			<psa03 value="0.623107861169968" flag="0"/>
			<psa10 value="0.290623552384088" flag="0"/>
			<psa30 value="0.0382950835279899" flag="0"/>
		</comp>
		<comp name="--.EN3" depth="0.0">
			<acc value="0.0999782163318109" flag="0"/>
			<vel value="0.121124719215405" flag="0"/>
			<psa03 value="0.290781450344009" flag="0"/>
			<psa10 value="0.185934002215213" flag="0"/>
			<psa30 value="0.0208382587656903" flag="0"/>
		</comp>
	</station>
	<station code="STC" name="STC" netid="EG" source="EUROSEISTEST Strong Motion Network" insttype="" lat="40.64865" lon="23.304856">
		<comp name="--.EN1" depth="0.0">
			<acc value="0.305215599695515" flag="0"/>
			<vel value="0.351168499827408" flag="0"/>
			<psa03 value="0.691107032448774" flag="0"/>
			<psa10 value="0.397520753798808" flag="0"/>
			<psa30 value="0.0869972364734929" flag="0"/>
		</comp>
		<comp name="--.EN2" depth="0.0">
			<acc value="0.335017511387289" flag="0"/>
			<vel value="0.263513245212428" flag="0"/>
			<psa03 value="0.899539423406639" flag="0"/>
			<psa10 value="0.415621672894823" flag="0"/>
			<psa30 value="0.0697395599033585" flag="0"/>
		</comp>
		<comp name="--.EN3" depth="0.0">
			<acc value="0.180270028610503" flag="0"/>
			<vel value="0.145095444239629" flag="0"/>
			<psa03 value="0.520297217139086" flag="0"/>
			<psa10 value="0.232678763826135" flag="0"/>
			<psa30 value="0.0579882481033141" flag="0"/>
		</comp>
	</station>
	<station code="ATH5" name="ATH5" netid="HI" source="ITSAK Strong Motion Network" insttype="" lat="37.975421" lon="23.737098">
		<comp name="--.HNE" depth="0.0">
			<acc value="0.0259287280594243" flag="0"/>
			<vel value="0.0376343670604457" flag="0"/>
			<psa03 value="0.0710058819031973" flag="0"/>
			<psa10 value="0.0562221619923879" flag="0"/>
			<psa30 value="0.0125658487287416" flag="0"/>
		</comp>
		<comp name="--.HNN" depth="0.0">
			<acc value="0.0278474314617111" flag="0"/>
			<vel value="0.0357881110797914" flag="0"/>
			<psa03 value="0.066352692414897" flag="0"/>
			<psa10 value="0.0758407247503677" flag="0"/>
			<psa30 value="0.011239689724576" flag="0"/>
		</comp>
		<comp name="--.HNZ" depth="0.0">
			<acc value="0.0187565879879726" flag="0"/>
			<vel value="0.0156457268980504" flag="0"/>
			<psa03 value="0.0408496346424821" flag="0"/>
			<psa10 value="0.0364183664990085" flag="0"/>
			<psa30 value="0.00603438140660631" flag="0"/>
		</comp>
	</station>
	<station code="KRL1" name="KRL1" netid="HI" source="ITSAK Strong Motion Network" insttype="" lat="37.7951" lon="26.7065">
		<comp name="--.HNE" depth="0.0">
			<acc value="0.00860688088494196" flag="0"/>
			<vel value="0.0133180436564971" flag="0"/>
			<psa03 value="0.0135568886053363" flag="0"/>
			<psa10 value="0.0218373287841799" flag="0"/>
			<psa30 value="0.00434625795089892" flag="0"/>
		</comp>
		<comp name="--.HNN" depth="0.0">
			<acc value="0.0121435947499664" flag="0"/>
			<vel value="0.0238104881780954" flag="0"/>
			<psa03 value="0.0164203898289057" flag="0"/>
			<psa10 value="0.0476128665949001" flag="0"/>
			<psa30 value="0.00824777836801221" flag="0"/>
		</comp>
		<comp name="--.HNZ" depth="0.0">
			<acc value="0.00753166599928679" flag="0"/>
			<vel value="0.0102791596346555" flag="0"/>
			<psa03 value="0.0141832794979921" flag="0"/>
			<psa10 value="0.0224534289693135" flag="0"/>
			<psa30 value="0.00464826784557225" flag="0"/>
		</comp>
	</station>
	<station code="LMN1" name="LMN1" netid="HI" source="ITSAK Strong Motion Network" insttype="" lat="39.875" lon="25.0588">
		<comp name="--.HNE" depth="0.0">
			<acc value="0.749342411040255" flag="0"/>
			<vel value="0.311405726014788" flag="0"/>
			<psa03 value="2.1156799821516" flag="0"/>
			<psa10 value="0.219126299179184" flag="0"/>
			<psa30 value="0.0215035519228076" flag="0"/>
		</comp>
		<comp name="--.HNN" depth="0.0">
			<acc value="0.644383512020846" flag="0"/>
			<vel value="0.288874443961014" flag="0"/>
			<psa03 value="1.59134606279207" flag="0"/>
			<psa10 value="0.107443040128985" flag="0"/>
			<psa30 value="0.0155089910800915" flag="0"/>
		</comp>
		<comp name="--.HNZ" depth="0.0">
			<acc value="0.926073338959783" flag="0"/>
			<vel value="0.226867552244028" flag="0"/>
			<psa03 value="0.529389788707392" flag="0"/>
			<psa10 value="0.0873976367198673" flag="0"/>
			<psa30 value="0.010230752965334" flag="0"/>
		</comp>
	</station>
	<station code="MYT1" name="MYT1" netid="HI" source="ITSAK Strong Motion Network" insttype="" lat="39.085" lon="26.5694">
		<comp name="--.HNE" depth="0.0">
			<acc value="0.056469147166599" flag="0"/>
			<vel value="0.0766566714778779" flag="0"/>
			<psa03 value="0.0997303785521278" flag="0"/>
			<psa10 value="0.166846373011932" flag="0"/>
			<psa30 value="0.0107748181978122" flag="0"/>
		</comp>
		<comp name="--.HNN" depth="0.0">
			<acc value="0.0548185491581809" flag="0"/>
			<vel value="0.0801582468349616" flag="0"/>
			<psa03 value="0.0684108339193375" flag="0"/>
			<psa10 value="0.19616549358682" flag="0"/>
			<psa30 value="0.0277343516164681" flag="0"/>
		</comp>
		<comp name="--.HNZ" depth="0.0">
			<acc value="0.0408424701381888" flag="0"/>
			<vel value="0.05670085483213" flag="0"/>
			<psa03 value="0.0831757621033672" flag="0"/>
			<psa10 value="0.14427214008475" flag="0"/>
			<psa30 value="0.0120159670094031" flag="0"/>
		</comp>
	</station>
	<station code="SFL1" name="SFL1" netid="HI" source="ITSAK Strong Motion Network" insttype="" lat="41.189954" lon="26.304374">
		<comp name="--.HNE" depth="0.0">
			<acc value="0.339119003937693" flag="0"/>
			<vel value="0.272464049186563" flag="0"/>
			<psa03 value="1.03036827621218" flag="0"/>
			<psa10 value="0.277885344286828" flag="0"/>
			<psa30 value="0.0205232501758013" flag="0"/>
		</comp>
		<comp name="--.HNN" depth="0.0">
			<acc value="0.248289795565595" flag="0"/>
			<vel value="0.177194845911329" flag="0"/>
			<psa03 value="0.973142993947411" flag="0"/>
			<psa10 value="0.27683032305477" flag="0"/>
			<psa30 value="0.0267119921952406" flag="0"/>
		</comp>
		<comp name="--.HNZ" depth="0.0">
			<acc value="0.162504088272021" flag="0"/>
			<vel value="0.103101579593408" flag="0"/>
			<psa03 value="0.455430921167388" flag="0"/>
			<psa10 value="0.0765373609074142" flag="0"/>
			<psa30 value="0.00741646816904473" flag="0"/>
		</comp>
	</station>
	<station code="SKO1" name="SKO1" netid="HI" source="ITSAK Strong Motion Network" insttype="" lat="39.123383" lon="23.728705">
		<comp name="--.HNE" depth="0.0">
			<acc value="0.0904671157602063" flag="0"/>
			<vel value="0.0706396489218838" flag="0"/>
			<psa03 value="0.250243161615994" flag="0"/>
			<psa10 value="0.0707548781240688" flag="0"/>
			<psa30 value="0.0335284673735343" flag="0"/>
		</comp>
		<comp name="--.HNN" depth="0.0">
			<acc value="0.0692863556706555" flag="0"/>
			<vel value="0.0639389502043517" flag="0"/>
			<psa03 value="0.15637401213086" flag="0"/>
			<psa10 value="0.0764527981369057" flag="0"/>
			<psa30 value="0.0290945146976636" flag="0"/>
		</comp>
		<comp name="--.HNZ" depth="0.0">
			<acc value="0.0552219140233537" flag="0"/>
			<vel value="0.0424573193081247" flag="0"/>
			<psa03 value="0.13462929971438" flag="0"/>
			<psa10 value="0.0588154202879829" flag="0"/>
			<psa30 value="0.00920481416757705" flag="0"/>
		</comp>
	</station>
	<station code="SKY1" name="SKY1" netid="HI" source="ITSAK Strong Motion Network" insttype="" lat="38.904483" lon="24.564572">
		<comp name="--.HNE" depth="0.0">
			<acc value="0.252235003279242" flag="0"/>
			<vel value="0.247718592309725" flag="0"/>
			<psa03 value="0.524423403772763" flag="0"/>
			<psa10 value="0.451347747391405" flag="0"/>
			<psa30 value="0.031020219270514" flag="0"/>
		</comp>
		<comp name="--.HNN" depth="0.0">
			<acc value="0.53665609315964" flag="0"/>
			<vel value="0.44152798312004" flag="0"/>
			<psa03 value="1.04034578828805" flag="0"/>
			<psa10 value="0.469617332619844" flag="0"/>
			<psa30 value="0.0334439046030258" flag="0"/>
		</comp>
		<comp name="--.HNZ" depth="0.0">
			<acc value="0.183738694803146" flag="0"/>
			<vel value="0.140556792935179" flag="0"/>
			<psa03 value="0.319146159808132" flag="0"/>
			<psa10 value="0.160359200474349" flag="0"/>
			<psa30 value="0.0174042709524415" flag="0"/>
		</comp>
	</station>
	<station code="THS1" name="THS1" netid="HI" source="ITSAK Strong Motion Network" insttype="" lat="40.738476" lon="24.575145">
		<comp name="--.HNE" depth="0.0">
			<acc value="0.563298543515029" flag="0"/>
			<vel value="0.221967363940053" flag="0"/>
			<psa03 value="1.32559306403428" flag="0"/>
			<psa10 value="0.259909707742403" flag="0"/>
			<psa30 value="0.0238859406596791" flag="0"/>
		</comp>
		<comp name="--.HNN" depth="0.0">
			<acc value="0.946755557125008" flag="0"/>
			<vel value="0.351589995267946" flag="0"/>
			<psa03 value="2.17981323526404" flag="0"/>
			<psa10 value="0.162550783191533" flag="0"/>
			<psa30 value="0.0227154514538578" flag="0"/>
		</comp>
		<comp name="--.HNZ" depth="0.0">
			<acc value="0.60506396670386" flag="0"/>
			<vel value="0.179179532041475" flag="0"/>
			<psa03 value="0.951716879907429" flag="0"/>
			<psa10 value="0.121397409482409" flag="0"/>
			<psa30 value="0.0208421523569831" flag="0"/>
		</comp>
	</station>
	<station code="VOL2" name="VOL2" netid="HI" source="ITSAK Strong Motion Network" insttype="" lat="39.366" lon="22.9506">
		<comp name="--.HNE" depth="0.0">
			<acc value="0.124591213655379" flag="0"/>
			<vel value="0.087692497798899" flag="0"/>
			<psa03 value="0.25249522656952" flag="0"/>
			<psa10 value="0.073780715110212" flag="0"/>
			<psa30 value="0.0143329661553155" flag="0"/>
		</comp>
		<comp name="--.HNN" depth="0.0">
			<acc value="0.157623176938552" flag="0"/>
			<vel value="0.13855470870413" flag="0"/>
			<psa03 value="0.315043203399272" flag="0"/>
			<psa10 value="0.101161668963964" flag="0"/>
			<psa30 value="0.0278945445433592" flag="0"/>
		</comp>
		<comp name="--.HNZ" depth="0.0">
			<acc value="0.0440917105541673" flag="0"/>
			<vel value="0.0556281559179186" flag="0"/>
			<psa03 value="0.113452255238538" flag="0"/>
			<psa10 value="0.0589665849969432" flag="0"/>
			<psa30 value="0.0186916348957255" flag="0"/>
		</comp>
	</station>
	<station code="ATHP" name="ATHP" netid="HL" source="National Observatory of Athens Seismic Network" insttype="" lat="38.000799" lon="23.773487">
		<comp name="00.HNE" depth="0.0">
			<acc value="0.0330732896807962" flag="0"/>
			<vel value="0.0388263124039495" flag="0"/>
			<psa03 value="0.07507742270546" flag="0"/>
			<psa10 value="0.0609697575366527" flag="0"/>
			<psa30 value="0.0125058941718731" flag="0"/>
		</comp>
		<comp name="00.HNN" depth="0.0">
			<acc value="0.0295824025809031" flag="0"/>
			<vel value="0.0389602330917629" flag="0"/>
			<psa03 value="0.0689477403987568" flag="0"/>
			<psa10 value="0.0752568389539993" flag="0"/>
			<psa30 value="0.0109600509332118" flag="0"/>
		</comp>
		<comp name="00.HNZ" depth="0.0">
			<acc value="0.0211446368264039" flag="0"/>
			<vel value="0.0307558385299235" flag="0"/>
			<psa03 value="0.0621469249927795" flag="0"/>
			<psa10 value="0.0398008773193498" flag="0"/>
			<psa30 value="0.00627822643267589" flag="0"/>
		</comp>
	</station>
	<station code="EFSA" name="EFSA" netid="HL" source="National Observatory of Athens Seismic Network" insttype="" lat="39.54015" lon="24.98864">
		<comp name="00.HNE" depth="0.0">
			<acc value="1.05434811958325" flag="0"/>
			<vel value="0.803739117975796" flag="0"/>
			<psa03 value="2.40417773042621" flag="0"/>
			<psa10 value="1.09022753218057" flag="0"/>
			<psa30 value="0.0939823472678784" flag="0"/>
		</comp>
		<comp name="00.HNN" depth="0.0">
			<acc value="0.435908107777697" flag="0"/>
			<vel value="0.299635733897278" flag="0"/>
			<psa03 value="1.22884470477083" flag="0"/>
			<psa10 value="0.310248724600023" flag="0"/>
			<psa30 value="0.037927968550309" flag="0"/>
		</comp>
		<comp name="00.HNZ" depth="0.0">
			<acc value="0.267003038123754" flag="0"/>
			<vel value="0.244166986551798" flag="0"/>
			<psa03 value="0.960659918300913" flag="0"/>
			<psa10 value="0.367912480489652" flag="0"/>
			<psa30 value="0.0210771586937355" flag="0"/>
		</comp>
	</station>
	<station code="KYMI" name="KYMI" netid="HL" source="National Observatory of Athens Seismic Network" insttype="" lat="38.633147" lon="24.100138">
		<comp name="--.HNE" depth="1.0">
			<acc value="0.0867256462434857" flag="0"/>
			<vel value="0.0724742839378029" flag="0"/>
			<psa03 value="0.156910918610279" flag="0"/>
			<psa10 value="0.0689589259504113" flag="0"/>
			<psa30 value="0.0155702879031586" flag="0"/>
		</comp>
		<comp name="--.HNN" depth="1.0">
			<acc value="0.0526609440174524" flag="0"/>
			<vel value="0.0516803371006319" flag="0"/>
			<psa03 value="0.110826445793459" flag="0"/>
			<psa10 value="0.0704085734448433" flag="0"/>
			<psa30 value="0.0150732019876296" flag="0"/>
		</comp>
		<comp name="--.HNZ" depth="1.0">
			<acc value="0.0435870803023758" flag="0"/>
			<vel value="0.0417513534418288" flag="0"/>
			<psa03 value="0.0702900065973049" flag="0"/>
			<psa10 value="0.0477819921359171" flag="0"/>
			<psa30 value="0.0139058778169589" flag="0"/>
		</comp>
	</station>
	<station code="LIA" name="LIA" netid="HL" source="National Observatory of Athens Seismic Network" insttype="" lat="39.89725" lon="25.18055">
		<comp name="00.HNE" depth="0.0">
			<acc value="0.295259248799839" flag="0"/>
			<vel value="0.157199345176057" flag="0"/>
			<psa03 value="1.04866783871905" flag="0"/>
			<psa10 value="0.134044071651813" flag="0"/>
			<psa30 value="0.0137452532951993" flag="0"/>
		</comp>
		<comp name="00.HNN" depth="0.0">
			<acc value="0.308221574008057" flag="0"/>
			<vel value="0.174917383885794" flag="0"/>
			<psa03 value="0.653012505593676" flag="0"/>
			<psa10 value="0.143704361482764" flag="0"/>
			<psa30 value="0.0183469892458885" flag="0"/>
		</comp>
		<comp name="00.HNZ" depth="0.0">
			<acc value="0.28456430002246" flag="0"/>
			<vel value="0.154367879393695" flag="0"/>
			<psa03 value="0.844016985647078" flag="0"/>
			<psa10 value="0.0821305841567644" flag="0"/>
			<psa30 value="0.00873725810841611" flag="0"/>
		</comp>
	</station>
	<station code="NOAC" name="NOAC" netid="HL" source="National Observatory of Athens Seismic Network" insttype="" lat="37.97384" lon="23.71767">
		<comp name="00.HNE" depth="0.0">
			<acc value="0.0349503439120427" flag="0"/>
			<vel value="0.0399678646506022" flag="0"/>
			<psa03 value="0.103309755081589" flag="0"/>
			<psa10 value="0.0773467474251387" flag="0"/>
			<psa30 value="0.0186020198236127" flag="0"/>
		</comp>
		<comp name="00.HNN" depth="0.0">
			<acc value="0.0339399848632023" flag="0"/>
			<vel value="0.0317063786794769" flag="0"/>
			<psa03 value="0.0968668773285584" flag="0"/>
			<psa10 value="0.0541805751043962" flag="0"/>
			<psa30 value="0.00917886368773845" flag="0"/>
		</comp>
		<comp name="00.HNZ" depth="0.0">
			<acc value="0.0200732818111558" flag="0"/>
			<vel value="0.0223544587640003" flag="0"/>
			<psa03 value="0.0474714812219863" flag="0"/>
			<psa10 value="0.0446370624327188" flag="0"/>
			<psa30 value="0.00616100185133602" flag="0"/>
		</comp>
	</station>
	<station code="PRK" name="PRK" netid="HL" source="National Observatory of Athens Seismic Network" insttype="" lat="39.24565" lon="26.26499">
		<comp name="--.HNE" depth="0.0">
			<acc value="0.10197117375037" flag="0"/>
			<vel value="0.104230659839655" flag="0"/>
			<psa03 value="0.253777795938837" flag="0"/>
			<psa10 value="0.183392488441436" flag="0"/>
			<psa30 value="0.0122683130547301" flag="0"/>
		</comp>
		<comp name="--.HNN" depth="0.0">
			<acc value="0.134777061796786" flag="0"/>
			<vel value="0.153820984493587" flag="0"/>
			<psa03 value="0.202592711567535" flag="0"/>
			<psa10 value="0.330483387543136" flag="0"/>
			<psa30 value="0.027312880030124" flag="0"/>
		</comp>
		<comp name="--.HNZ" depth="0.0">
			<acc value="0.0768095201617375" flag="0"/>
			<vel value="0.0661571590586331" flag="0"/>
			<psa03 value="0.145546398129238" flag="0"/>
			<psa10 value="0.100601509314985" flag="0"/>
			<psa30 value="0.00845448736258863" flag="0"/>
		</comp>
	</station>
	<station code="SMTH" name="SMTH" netid="HL" source="National Observatory of Athens Seismic Network" insttype="" lat="40.47094" lon="25.53045">
		<comp name="00.HNE" depth="0.0">
			<acc value="0.144594687778607" flag="0"/>
			<vel value="0.0748740486416596" flag="0"/>
			<psa03 value="0.214001974255194" flag="0"/>
			<psa10 value="0.0856701401223358" flag="0"/>
			<psa30 value="0.0146199634345865" flag="0"/>
		</comp>
		<comp name="00.HNN" depth="0.0">
			<acc value="0.0958494458951756" flag="0"/>
			<vel value="0.138791014810151" flag="0"/>
			<psa03 value="0.206887963402889" flag="0"/>
			<psa10 value="0.170969814773872" flag="0"/>
			<psa30 value="0.0204364502949618" flag="0"/>
		</comp>
		<comp name="00.HNZ" depth="0.0">
			<acc value="0.12497541670559" flag="0"/>
			<vel value="0.103377836802101" flag="0"/>
			<psa03 value="0.188946338548962" flag="0"/>
			<psa10 value="0.183936106251848" flag="0"/>
			<psa30 value="0.0164825814961051" flag="0"/>
		</comp>
	</station>
	<station code="ANX" name="ANX" netid="HP" source="University of Patras, Seismological Laboratory (PSLNET)" insttype="" lat="38.5933" lon="21.9209">
		<comp name="--.HNE" depth="0.0">
			<acc value="0.0119042883580098" flag="0"/>
			<vel value="0.0164808018151923" flag="0"/>
			<psa03 value="0.0261294486650707" flag="0"/>
			<psa10 value="0.0191152129335242" flag="0"/>
			<psa30 value="0.00580395904252221" flag="0"/>
		</comp>
		<comp name="--.HNN" depth="0.0">
			<acc value="0.0180245826010482" flag="0"/>
			<vel value="0.0210715122152207" flag="0"/>
			<psa03 value="0.0420576742211754" flag="0"/>
			<psa10 value="0.0273701500545954" flag="0"/>
			<psa30 value="0.00666927331851959" flag="0"/>
		</comp>
		<comp name="--.HNZ" depth="0.0">
			<acc value="0.0099199399936727" flag="0"/>
			<vel value="0.0112137848697376" flag="0"/>
			<psa03 value="0.0307378959467527" flag="0"/>
			<psa10 value="0.0147098952698892" flag="0"/>
			<psa30 value="0.00763749466973899" flag="0"/>
		</comp>
	</station>
	<station code="GUR" name="GUR" netid="HP" source="University of Patras, Seismological Laboratory (PSLNET)" insttype="" lat="37.9363" lon="22.3423">
		<comp name="--.HNE" depth="0.0">
			<acc value="0.0103279283111869" flag="0"/>
			<vel value="0.0152733347508298" flag="0"/>
			<psa03 value="0.0309168647732258" flag="0"/>
