<stationlist xmlns:esm="https://esm-db.eu/esmws/shakemap/1/" created="1780710871">
	<station code="KARP" name="KARP" netid="GE" source="GEOFON" insttype="" lat="35.5471" lon="27.16106" esm:processing="manual (Paolucci et al 2011)" esm:quality="good">
		<comp name="--.HNE" depth="0.0">
			<acc value="0.00913699848275725" flag="0"/>
			<vel value="0.00680378829884811" flag="0"/>
			<psa03 value="0.0142727639112287" flag="0"/>
			<psa10 value="0.0046469255793737" flag="0"/>
			<psa30 value="0.000890369911703608" flag="0"/>
		</comp>
		<comp name="--.HNN" depth="0.0">
			<acc value="0.00595734723670392" flag="0"/>
			<vel value="0.00357076908129432" flag="0"/>
			<psa03 value="0.0110960672413314" flag="0"/>
			<psa10 value="0.00452612162150437" flag="0"/>
			<psa30 value="0.000599098146618659" flag="0"/>
		</comp>
		<comp name="--.HNZ" depth="0.0">
			<acc value="0.00591278504182479" flag="0"/>
			<vel value="0.00429905864455352" flag="0"/>
			<psa03 value="0.0090379257368909" flag="0"/>
			<psa10 value="0.00388988744339255" flag="0"/>
			<psa30 value="0.000620574405795429" flag="0"/>
		</comp>
	</station>
	<station code="KOS2" name="KOS2" netid="HI" source="ITSAK Strong Motion Network" insttype="" lat="36.8941" lon="27.2888" esm:processing="automatic (Paolucci et al 2011)" esm:quality="best">
		<comp name="--.HNE" depth="0.0">
			<acc value="0.253839269221869" flag="0"/>
			<vel value="0.175172173531158" flag="0"/>
			<psa03 value="0.797314568177125" flag="0"/>
			<psa10 value="0.154114644338832" flag="0"/>
			<psa30 value="0.0300539875958476" flag="0"/>
		</comp>
		<comp name="--.HNN" depth="0.0">
			<acc value="0.288265658536168" flag="0"/>
			<vel value="0.164640211652113" flag="0"/>
			<psa03 value="1.07947409319422" flag="0"/>
			<psa10 value="0.136729887684024" flag="0"/>
			<psa30 value="0.0365010146797515" flag="0"/>
		</comp>
		<comp name="--.HNZ" depth="0.0">
			<acc value="0.185413796511621" flag="0"/>
			<vel value="0.0634728163094214" flag="0"/>
			<psa03 value="0.361285100031448" flag="0"/>
			<psa10 value="0.0638886023063538" flag="0"/>
			<psa30 value="0.0175396769175155" flag="0"/>
		</comp>
	</station>
	<station code="KRL1" name="KRL1" netid="HI" source="ITSAK Strong Motion Network" insttype="" lat="37.7951" lon="26.7065" esm:processing="manual (Paolucci et al 2011)" esm:quality="best">
		<comp name="--.HNE" depth="0.0">
			<acc value="0.0331158168126977" flag="0"/>
			<vel value="0.0180782143897001" flag="0"/>
			<psa03 value="0.0833709239563298" flag="0"/>
			<psa10 value="0.0161664528231534" flag="0"/>
			<psa30 value="0.00546775096167722" flag="0"/>
		</comp>
		<comp name="--.HNN" depth="0.0">
			<acc value="0.0246685882303374" flag="0"/>
			<vel value="0.0224576761684347" flag="0"/>
			<psa03 value="0.0364913210167603" flag="0"/>
			<psa10 value="0.0343514993682252" flag="0"/>
			<psa30 value="0.00275932487506344" flag="0"/>
		</comp>
		<comp name="--.HNZ" depth="0.0">
			<acc value="0.0135619851830379" flag="0"/>
			<vel value="0.0144953226135408" flag="0"/>
			<psa03 value="0.0284995025355263" flag="0"/>
			<psa10 value="0.018547791200121" flag="0"/>
			<psa30 value="0.00401645232025239" flag="0"/>
		</comp>
	</station>
	<station code="NAX1" name="NAX1" netid="HI" source="ITSAK Strong Motion Network" insttype="" lat="37.101394" lon="25.374103" esm:processing="manual (Paolucci et al 2011)" esm:quality="bad">
		<comp name="--.HNE" depth="0.0">
			<acc value="0.00171737009237549" flag="0"/>
			<vel value="0.00119612603855717" flag="0"/>
			<psa03 value="0.00408820344059944" flag="0"/>
			<psa10 value="0.00108826924093426" flag="0"/>
			<psa30 value="0.000232860399817199" flag="0"/>
		</comp>
		<comp name="--.HNN" depth="0.0">
			<acc value="0.00320465591822077" flag="0"/>
			<vel value="0.00168588964286102" flag="0"/>
			<psa03 value="0.00396140825719071" flag="0"/>
			<psa10 value="0.00192035162793144" flag="0"/>
			<psa30 value="0.000318803436871404" flag="0"/>
		</comp>
		<comp name="--.HNZ" depth="0.0">
			<acc value="0.00244522183939243" flag="0"/>
			<vel value="0.00190313688204022" flag="0"/>
			<psa03 value="0.00651630927769364" flag="0"/>
			<psa10 value="0.000929082562785071" flag="0"/>
			<psa30 value="0.000372772168285057" flag="0"/>
		</comp>
	</station>
	<station code="RDI1" name="RDI1" netid="HI" source="ITSAK Strong Motion Network" insttype="" lat="36.4514" lon="28.224" esm:processing="manual (Paolucci et al 2011)" esm:quality="best">
		<comp name="--.HNE" depth="0.0">
			<acc value="0.0234286574426577" flag="0"/>
			<vel value="0.0258028045166082" flag="0"/>
			<psa03 value="0.0655473326957681" flag="0"/>
			<psa10 value="0.054148360715631" flag="0"/>
			<psa30 value="0.0096643166295467" flag="0"/>
		</comp>
		<comp name="--.HNN" depth="0.0">
			<acc value="0.0219830222118744" flag="0"/>
			<vel value="0.024383227173923" flag="0"/>
			<psa03 value="0.0469793169491853" flag="0"/>
			<psa10 value="0.0321056652030733" flag="0"/>
			<psa30 value="0.00985268131940962" flag="0"/>
		</comp>
		<comp name="--.HNZ" depth="0.0">
			<acc value="0.0191739789698311" flag="0"/>
			<vel value="0.0184224933330371" flag="0"/>
			<psa03 value="0.0420129320145572" flag="0"/>
			<psa10 value="0.0259084221643764" flag="0"/>
			<psa30 value="0.00343217466968763" flag="0"/>
		</comp>
	</station>
	<station code="RGE1" name="RGE1" netid="HI" source="ITSAK Strong Motion Network" insttype="" lat="36.0269" lon="27.9306" esm:processing="manual (Paolucci et al 2011)" esm:quality="best">
		<comp name="--.HNE" depth="0.0">
			<acc value="0.0320251519423739" flag="0"/>
			<vel value="0.0291134466345383" flag="0"/>
			<psa03 value="0.0542722966279637" flag="0"/>
			<psa10 value="0.0252359467989038" flag="0"/>
			<psa30 value="0.00164293382702294" flag="0"/>
		</comp>
		<comp name="--.HNN" depth="0.0">
			<acc value="0.0306787414575613" flag="0"/>
			<vel value="0.0310615920898896" flag="0"/>
			<psa03 value="0.0780304083422659" flag="0"/>
			<psa10 value="0.0303298470223941" flag="0"/>
			<psa30 value="0.00349481375895321" flag="0"/>
		</comp>
		<comp name="--.HNZ" depth="0.0">
			<acc value="0.0178721310033069" flag="0"/>
			<vel value="0.0141276483670591" flag="0"/>
			<psa03 value="0.0385677821049503" flag="0"/>
			<psa10 value="0.0171219476286802" flag="0"/>
			<psa30 value="0.00213778263222102" flag="0"/>
		</comp>
	</station>
	<station code="RKL1" name="RKL1" netid="HI" source="ITSAK Strong Motion Network" insttype="" lat="36.336699" lon="28.171224" esm:processing="manual (Paolucci et al 2011)" esm:quality="good">
		<comp name="--.HNE" depth="0.0">
			<acc value="0.0413698845875691" flag="0"/>
			<vel value="0.0363892458693161" flag="0"/>
			<psa03 value="0.100209836326519" flag="0"/>
			<psa10 value="0.0775121147971956" flag="0"/>
			<psa30 value="0.00356178678422744" flag="0"/>
		</comp>
		<comp name="--.HNN" depth="0.0">
			<acc value="0.0430977704344798" flag="0"/>
			<vel value="0.0320818861596884" flag="0"/>
			<psa03 value="0.108606319635664" flag="0"/>
			<psa10 value="0.0556214683993054" flag="0"/>
			<psa30 value="0.00268307169866554" flag="0"/>
		</comp>
		<comp name="--.HNZ" depth="0.0">
			<acc value="0.0281298941601362" flag="0"/>
			<vel value="0.0178546113177542" flag="0"/>
			<psa03 value="0.0464103817516874" flag="0"/>
			<psa10 value="0.0164997880299802" flag="0"/>
			<psa30 value="0.00235897043688088" flag="0"/>
		</comp>
	</station>
	<station code="RKT1" name="RKT1" netid="HI" source="ITSAK Strong Motion Network" insttype="" lat="35.954336" lon="27.767327" esm:processing="automatic (Paolucci et al 2011)" esm:quality="best">
		<comp name="--.HNE" depth="0.0">
			<acc value="0.0201766339663042" flag="0"/>
			<vel value="0.0135070098490388" flag="0"/>
			<psa03 value="0.069976151201592" flag="0"/>
			<psa10 value="0.0162465675053632" flag="0"/>
			<psa30 value="0.00163581326043368" flag="0"/>
		</comp>
		<comp name="--.HNN" depth="0.0">
			<acc value="0.024022684996288" flag="0"/>
			<vel value="0.0142280779424914" flag="0"/>
			<psa03 value="0.0505141483977541" flag="0"/>
			<psa10 value="0.0184184732584602" flag="0"/>
			<psa30 value="0.00241919921840874" flag="0"/>
		</comp>
		<comp name="--.HNZ" depth="0.0">
			<acc value="0.0147053295197774" flag="0"/>
			<vel value="0.00827109380915798" flag="0"/>
			<psa03 value="0.0168308857969157" flag="0"/>
			<psa10 value="0.00522432717978599" flag="0"/>
			<psa30 value="0.00237441750183979" flag="0"/>
		</comp>
	</station>
	<station code="RLN1" name="RLN1" netid="HI" source="ITSAK Strong Motion Network" insttype="" lat="36.089085" lon="28.086909" esm:processing="automatic (Paolucci et al 2011)" esm:quality="best">
		<comp name="--.HNE" depth="0.0">
			<acc value="0.0125731974839194" flag="0"/>
			<vel value="0.00967567131304513" flag="0"/>
			<psa03 value="0.0313354039417249" flag="0"/>
			<psa10 value="0.0114380280257218" flag="0"/>
			<psa30 value="0.00368851309589032" flag="0"/>
		</comp>
		<comp name="--.HNN" depth="0.0">
			<acc value="0.0139607787687001" flag="0"/>
			<vel value="0.0100804291448504" flag="0"/>
			<psa03 value="0.0260092646528031" flag="0"/>
			<psa10 value="0.00952887311607865" flag="0"/>
			<psa30 value="0.0026882818354782" flag="0"/>
		</comp>
		<comp name="--.HNZ" depth="0.0">
			<acc value="0.00703717431682706" flag="0"/>
			<vel value="0.00588323588209044" flag="0"/>
			<psa03 value="0.0140153607405319" flag="0"/>
			<psa10 value="0.00649933289265706" flag="0"/>
			<psa30 value="0.00175073139402938" flag="0"/>
		</comp>
	</station>
	<station code="RPN1" name="RPN1" netid="HI" source="ITSAK Strong Motion Network" insttype="" lat="36.448678" lon="28.218047" esm:processing="automatic (Paolucci et al 2011)" esm:quality="best">
		<comp name="--.HNE" depth="0.0">
			<acc value="0.0291632034823467" flag="0"/>
			<vel value="0.0259643811469956" flag="0"/>
			<psa03 value="0.0628209324117965" flag="0"/>
			<psa10 value="0.0528269632770558" flag="0"/>
			<psa30 value="0.00794398374993638" flag="0"/>
		</comp>
		<comp name="--.HNN" depth="0.0">
			<acc value="0.033434441076093" flag="0"/>
			<vel value="0.0300149706029575" flag="0"/>
			<psa03 value="0.0532623460773629" flag="0"/>
			<psa10 value="0.0419364705853627" flag="0"/>
			<psa30 value="0.00814593629496802" flag="0"/>
		</comp>
		<comp name="--.HNZ" depth="0.0">
			<acc value="0.019218938838794" flag="0"/>
			<vel value="0.015907879404994" flag="0"/>
			<psa03 value="0.0504743645122669" flag="0"/>
			<psa10 value="0.0363048800201262" flag="0"/>
			<psa30 value="0.00377518133723596" flag="0"/>
		</comp>
	</station>
	<station code="RSO1" name="RSO1" netid="HI" source="ITSAK Strong Motion Network" insttype="" lat="36.3632" lon="28.0016" esm:processing="automatic (Paolucci et al 2011)" esm:quality="best">
		<comp name="--.HNE" depth="0.0">
			<acc value="0.0501382724112666" flag="0"/>
			<vel value="0.032399761948349" flag="0"/>
			<psa03 value="0.148784512493756" flag="0"/>
			<psa10 value="0.047847979693829" flag="0"/>
			<psa30 value="0.00370135603000501" flag="0"/>
		</comp>
		<comp name="--.HNN" depth="0.0">
			<acc value="0.0740018619912134" flag="0"/>
			<vel value="0.0554293565255305" flag="0"/>
			<psa03 value="0.10403088111865" flag="0"/>
			<psa10 value="0.0727622226401514" flag="0"/>
			<psa30 value="0.00450063356155215" flag="0"/>
		</comp>
		<comp name="--.HNZ" depth="0.0">
			<acc value="0.0394199153336195" flag="0"/>
			<vel value="0.0217265016291197" flag="0"/>
			<psa03 value="0.0837687159329817" flag="0"/>
			<psa10 value="0.029329800455337" flag="0"/>
			<psa30 value="0.00306428861908226" flag="0"/>
		</comp>
	</station>
	<station code="AMGA" name="AMGA" netid="HL" source="National Observatory of Athens Seismic Network" insttype="" lat="36.831561" lon="25.893836" esm:processing="manual (Paolucci et al 2011)" esm:quality="best">
		<comp name="00.HNE" depth="0.0">
			<acc value="0.0040299232582615" flag="0"/>
			<vel value="0.00293839188615428" flag="0"/>
			<psa03 value="0.0110065828280949" flag="0"/>
			<psa10 value="0.0015583710565144" flag="0"/>
			<psa30 value="0.00036554382807128" flag="0"/>
		</comp>
		<comp name="00.HNN" depth="0.0">
			<acc value="0.00602182039549158" flag="0"/>
			<vel value="0.00292428764141272" flag="0"/>
			<psa03 value="0.0148544125972662" flag="0"/>
			<psa10 value="0.00121609317588463" flag="0"/>
			<psa30 value="0.000647867151832575" flag="0"/>
		</comp>
		<comp name="00.HNZ" depth="0.0">
			<acc value="0.0025473805588235" flag="0"/>
			<vel value="0.00147025918450058" flag="0"/>
			<psa03 value="0.0061744245133215" flag="0"/>
			<psa10 value="0.00111139641239787" flag="0"/>
			<psa30 value="0.000502007558257009" flag="0"/>
		</comp>
	</station>
	<station code="IKRA" name="IKRA" netid="HL" source="National Observatory of Athens Seismic Network" insttype="" lat="37.61117" lon="26.29283" esm:processing="manual (Paolucci et al 2011)" esm:quality="bad">
		<comp name="00.HNE" depth="0.0">
			<acc value="0.0182224061732724" flag="0"/>
			<vel value="0.0111096316105122" flag="0"/>
			<psa03 value="0.0499260365213852" flag="0"/>
			<psa10 value="0.0119483787089306" flag="0"/>
			<psa30 value="0.00107371175313492" flag="0"/>
		</comp>
		<comp name="00.HNN" depth="0.0">
			<acc value="0.0154635508900646" flag="0"/>
			<vel value="0.00974836599418057" flag="0"/>
			<psa03 value="0.0469927849162344" flag="0"/>
			<psa10 value="0.0077413706403312" flag="0"/>
			<psa30 value="0.00223201494336966" flag="0"/>
		</comp>
		<comp name="00.HNZ" depth="0.0">
			<acc value="0.0124438176325078" flag="0"/>
			<vel value="0.00746492579166503" flag="0"/>
			<psa03 value="0.0337352842762013" flag="0"/>
			<psa10 value="0.00833154161124803" flag="0"/>
			<psa30 value="0.00115032245321689" flag="0"/>
		</comp>
	</station>
	<station code="KARP" name="KARP" netid="HL" source="National Observatory of Athens Seismic Network" insttype="" lat="35.5471" lon="27.16106" esm:processing="manual (Paolucci et al 2011)" esm:quality="good">
		<comp name="--.HNE" depth="0.0">
			<acc value="0.00891526590877251" flag="0"/>
			<vel value="0.00637605306496644" flag="0"/>
			<psa03 value="0.0139595684649008" flag="0"/>
			<psa10 value="0.0044657196425697" flag="0"/>
			<psa30 value="0.000700662955642136" flag="0"/>
		</comp>
		<comp name="--.HNN" depth="0.0">
			<acc value="0.00579998879354465" flag="0"/>
			<vel value="0.00329530138824323" flag="0"/>
			<psa03 value="0.0107828717950035" flag="0"/>
			<psa10 value="0.00435296928189166" flag="0"/>
			<psa30 value="0.000382993288652406" flag="0"/>
		</comp>
		<comp name="--.HNZ" depth="0.0">
			<acc value="0.00579459444951684" flag="0"/>
			<vel value="0.00410450366093395" flag="0"/>
			<psa03 value="0.00890369911703608" flag="0"/>
			<psa10 value="0.0037771370827145" flag="0"/>
			<psa30 value="0.000481873565278787" flag="0"/>
		</comp>
	</station>
	<station code="KLNA" name="KLNA" netid="HL" source="National Observatory of Athens Seismic Network" insttype="" lat="36.95708" lon="26.97274" esm:processing="manual (Paolucci et al 2011)" esm:quality="best">
		<comp name="00.HNE" depth="0.0">
			<acc value="0.220849860747554" flag="0"/>
			<vel value="0.0727077461440361" flag="0"/>
			<psa03 value="0.289974241093019" flag="0"/>
			<psa10 value="0.0141300362721164" flag="0"/>
			<psa30 value="0.00168812345570739" flag="0"/>
		</comp>
		<comp name="00.HNN" depth="0.0">
			<acc value="0.119277345572671" flag="0"/>
			<vel value="0.044160088593385" flag="0"/>
			<psa03 value="0.214852076180941" flag="0"/>
			<psa10 value="0.0129099162976361" flag="0"/>
			<psa30 value="0.00112750360678045" flag="0"/>
		</comp>
		<comp name="00.HNZ" depth="0.0">
			<acc value="0.179268164489202" flag="0"/>
			<vel value="0.0514545256502121" flag="0"/>
			<psa03 value="0.179192537506178" flag="0"/>
			<psa10 value="0.00968042382392928" flag="0"/>
			<psa30 value="0.00245589972127694" flag="0"/>
		</comp>
	</station>
	<station code="NISR" name="NISR" netid="HL" source="National Observatory of Athens Seismic Network" insttype="" lat="36.6106" lon="27.131" esm:processing="manual (Paolucci et al 2011)" esm:quality="good">
		<comp name="00.HNE" depth="0.0">
			<acc value="0.122613025560433" flag="0"/>
			<vel value="0.0440662959542803" flag="0"/>
			<psa03 value="0.21435991190814" flag="0"/>
			<psa10 value="0.0190427305588026" flag="0"/>
			<psa30 value="0.00701423573154646" flag="0"/>
		</comp>
		<comp name="00.HNN" depth="0.0">
			<acc value="0.0564549587389293" flag="0"/>
			<vel value="0.0198058125685684" flag="0"/>
			<psa03 value="0.089887093096108" flag="0"/>
			<psa10 value="0.0103891403767627" flag="0"/>
			<psa30 value="0.0103229219109677" flag="0"/>
		</comp>
		<comp name="00.HNZ" depth="0.0">
			<acc value="0.028453529666137" flag="0"/>
			<vel value="0.0153408082003561" flag="0"/>
			<psa03 value="0.0560172426860762" flag="0"/>
			<psa10 value="0.00978914738601168" flag="0"/>
			<psa30 value="0.00300891339507878" flag="0"/>
		</comp>
	</station>
	<station code="RODB" name="RODB" netid="HL" source="National Observatory of Athens Seismic Network" insttype="" lat="36.4471" lon="28.22116" esm:processing="manual (Paolucci et al 2011)" esm:quality="good">
		<comp name="00.HNE" depth="0.0">
			<acc value="0.0218579365048897" flag="0"/>
			<vel value="0.0211860642135257" flag="0"/>
			<psa03 value="0.0574937355044792" flag="0"/>
			<psa10 value="0.045506850929378" flag="0"/>
			<psa30 value="0.00806567758707585" flag="0"/>
		</comp>
		<comp name="00.HNN" depth="0.0">
			<acc value="0.026600332374736" flag="0"/>
			<vel value="0.0236803266362091" flag="0"/>
			<psa03 value="0.0713638195561435" flag="0"/>
			<psa10 value="0.0506329655416334" flag="0"/>
			<psa30 value="0.00573460862226389" flag="0"/>
		</comp>
		<comp name="00.HNZ" depth="0.0">
			<acc value="0.0188852443925962" flag="0"/>
			<vel value="0.0158118750673836" flag="0"/>
			<psa03 value="0.0299325362276238" flag="0"/>
			<psa10 value="0.0245836054264094" flag="0"/>
			<psa30 value="0.0027104828769349" flag="0"/>
		</comp>
	</station>
	<station code="CAME" name="CAME" netid="KO" source="Bogazici University Kandilli Observatory And Earthquake Research Institute (KOERI)" insttype="" lat="36.9435" lon="29.3023" esm:processing="manual (Paolucci et al 2011)" esm:quality="best">
		<comp name="--.HNE" depth="0.0">
			<acc value="0.00828797289679227" flag="0"/>
			<vel value="0.00475498957579253" flag="0"/>
			<psa03 value="0.0284113012026026" flag="0"/>
			<psa10 value="0.00482813151617771" flag="0"/>
			<psa30 value="0.00129349719333424" flag="0"/>
		</comp>
		<comp name="--.HNN" depth="0.0">
			<acc value="0.00641764341817742" flag="0"/>
			<vel value="0.00517147638627347" flag="0"/>
			<psa03 value="0.027829652516565" flag="0"/>
			<psa10 value="0.005561008860585" flag="0"/>
			<psa30 value="0.000846522549217701" flag="0"/>
		</comp>
		<comp name="--.HNZ" depth="0.0">
			<acc value="0.00455201353842752" flag="0"/>
			<vel value="0.00230423473805456" flag="0"/>
			<psa03 value="0.00787462836481583" flag="0"/>
			<psa10 value="0.00337043042455441" flag="0"/>
			<psa30 value="0.000649209418031123" flag="0"/>
		</comp>
	</station>
	<station code="GOMA" name="GOMA" netid="KO" source="Bogazici University Kandilli Observatory And Earthquake Research Institute (KOERI)" insttype="" lat="38.7077" lon="27.9175" esm:processing="manual (Paolucci et al 2011)" esm:quality="good">
		<comp name="--.HNE" depth="0.0">
			<acc value="0.00549554616113712" flag="0"/>
			<vel value="0.0052237680345584" flag="0"/>
			<psa03 value="0.0156150301097768" flag="0"/>
			<psa10 value="0.0102441756273195" flag="0"/>
			<psa30 value="0.000523483817433779" flag="0"/>
		</comp>
		<comp name="--.HNN" depth="0.0">
			<acc value="0.00631748354751836" flag="0"/>
			<vel value="0.00517502085386646" flag="0"/>
			<psa03 value="0.0100222542824929" flag="0"/>
			<psa10 value="0.00599187631031895" flag="0"/>
			<psa30 value="0.00110334281520658" flag="0"/>
		</comp>
		<comp name="--.HNZ" depth="0.0">
