<?xml version="1.0" encoding="UTF-8" standalone="yes"?>
<!DOCTYPE earthquake SYSTEM "stationlist.dtd">
<stationlist created="" xmlns="ch.ethz.sed.shakemap.usgs.xml">
  <station code="KOSK" name="KOSK" netid="HC" source="NOA" insttype="120" lat="36.7516" lon="26.9785">
    <comp name="--.HHE">
      <acc value="0.1866280890" flag="0"/>
      <vel value="0.1205507326" flag="0"/>
      <psa03 value="0.6206434346" flag="0"/>
      <psa10 value="0.0516089425" flag="0"/>
      <psa30 value="0.0059812906" flag="0"/>
    </comp>
    <comp name="--.HHN">
      <acc value="0.2506665342" flag="0"/>
      <vel value="0.1059915657" flag="0"/>
      <psa03 value="0.6774182927" flag="0"/>
      <psa10 value="0.0671493464" flag="0"/>
      <psa30 value="0.0056105821" flag="0"/>
    </comp>
    <comp name="--.HHZ">
      <acc value="0.1132979996" flag="0"/>
      <vel value="0.0447596882" flag="0"/>
      <psa03 value="0.4724877437" flag="0"/>
      <psa10 value="0.0262524231" flag="0"/>
      <psa30 value="0.0020500645" flag="0"/>
    </comp>
  </station>
  <station code="ARG" name="ARG" netid="HL" source="NOA" insttype="LE3D20_DR24" lat="36.2136" lon="28.1212">
    <comp name="--.HHE">
      <acc value="0.0259210124" flag="0"/>
      <vel value="0.0140102264" flag="0"/>
      <psa03 value="0.0517031539" flag="0"/>
      <psa10 value="0.0175657678" flag="0"/>
      <psa30 value="0.0016345731" flag="0"/>
    </comp>
    <comp name="--.HHN">
      <acc value="0.0217012548" flag="0"/>
      <vel value="0.0253959197" flag="0"/>
      <psa03 value="0.0514901735" flag="0"/>
      <psa10 value="0.0399830460" flag="0"/>
      <psa30 value="0.0035688112" flag="0"/>
    </comp>
    <comp name="--.HHZ">
      <acc value="0.0251403576" flag="0"/>
      <vel value="0.0152270922" flag="0"/>
      <psa03 value="0.0361042235" flag="0"/>
      <psa10 value="0.0278041608" flag="0"/>
      <psa30 value="0.0024098845" flag="0"/>
    </comp>
  </station>
  <station code="SMG" name="SMG" netid="HL" source="NOA" insttype="120P," lat="37.7043" lon="26.8377">
    <comp name="--.HHE">
      <acc value="0.0299724834" flag="0"/>
      <vel value="0.0205195791" flag="0"/>
      <psa03 value="0.1276630264" flag="0"/>
      <psa10 value="0.0104192466" flag="0"/>
      <psa30 value="0.0016733347" flag="0"/>
    </comp>
    <comp name="--.HHN">
      <acc value="0.0277801878" flag="0"/>
      <vel value="0.0129652432" flag="0"/>
      <psa03 value="0.0709416867" flag="0"/>
      <psa10 value="0.0113454047" flag="0"/>
      <psa30 value="0.0019392774" flag="0"/>
    </comp>
    <comp name="--.HHZ">
      <acc value="0.0188038956" flag="0"/>
      <vel value="0.0085934911" flag="0"/>
      <psa03 value="0.0363321302" flag="0"/>
      <psa10 value="0.0074967138" flag="0"/>
      <psa30 value="0.0032110668" flag="0"/>
    </comp>
  </station>
  <station code="AYDN" name="AYDN" netid="TU" source="ODC" insttype="T" lat="37.6608" lon="27.8792">
    <comp name="--.HHE">
      <acc value="0.1661873735" flag="0"/>
      <vel value="0.0689785032" flag="0"/>
      <psa03 value="0.2193861923" flag="0"/>
      <psa10 value="0.0444340542" flag="0"/>
      <psa30 value="0.0052888734" flag="0"/>
    </comp>
    <comp name="--.HHN">
      <acc value="0.1484623747" flag="0"/>
      <vel value="0.0877671817" flag="0"/>
      <psa03 value="0.2666241763" flag="0"/>
      <psa10 value="0.0675639060" flag="0"/>
      <psa30 value="0.0212904948" flag="0"/>
    </comp>
    <comp name="--.HHZ">
      <acc value="0.0621733878" flag="0"/>
      <vel value="0.0403695361" flag="0"/>
      <psa03 value="0.1347519553" flag="0"/>
      <psa10 value="0.0522045028" flag="0"/>
      <psa30 value="0.0186610792" flag="0"/>
    </comp>
  </station>
</stationlist>
