<?xml version="1.0" encoding="UTF-8" standalone="yes"?>
<!DOCTYPE earthquake SYSTEM "stationlist.dtd">
<stationlist created="" xmlns="ch.ethz.sed.shakemap.usgs.xml">
  <station code="THERA" name="THERA" netid="GE" insttype="STS-2/N" lat="36.367" lon="25.4753">
    <comp name="--.HHE">
      <acc value="0.0457347995" flag="0"/>
      <vel value="0.0102626826" flag="0"/>
      <psa03 value="0.0272408458" flag="0"/>
      <psa10 value="0.0064870447" flag="0"/>
      <psa30 value="0.0003496963" flag="0"/>
    </comp>
    <comp name="--.HHN">
      <acc value="0.0378248442" flag="0"/>
      <vel value="0.0055188007" flag="0"/>
      <psa03 value="0.0197252780" flag="0"/>
      <psa10 value="0.0015749675" flag="0"/>
      <psa30 value="0.0001076546" flag="0"/>
    </comp>
    <comp name="--.HHZ">
      <acc value="0.0379020740" flag="0"/>
      <vel value="0.0089205777" flag="0"/>
      <psa03 value="0.0357455807" flag="0"/>
      <psa10 value="0.0034028216" flag="0"/>
      <psa30 value="0.0002500496" flag="0"/>
    </comp>
  </station>
  <station code="ZKR" name="ZKR" netid="GE" insttype="STS-2/N" lat="35.1147" lon="26.2169">
    <comp name="--.HHZ">
      <acc value="0.0070202642" flag="0"/>
      <vel value="0.0043227529" flag="0"/>
      <psa03 value="0.0140725321" flag="0"/>
      <psa10 value="0.0041197998" flag="0"/>
      <psa30 value="0.0002244182" flag="0"/>
    </comp>
    <comp name="--.HHN">
      <acc value="0.0058015312" flag="0"/>
      <vel value="0.0023546655" flag="0"/>
      <psa03 value="0.0111139668" flag="0"/>
      <psa10 value="0.0047399530" flag="0"/>
      <psa30 value="0.0001743423" flag="0"/>
    </comp>
    <comp name="--.HHE">
      <acc value="0.0082417368" flag="0"/>
      <vel value="0.0057766881" flag="0"/>
      <psa03 value="0.0188625938" flag="0"/>
      <psa10 value="0.0049211461" flag="0"/>
      <psa30 value="0.0004578231" flag="0"/>
    </comp>
  </station>
  <station code="SNT1" name="SNT1" netid="HA" insttype="30" lat="36.4159" lon="25.4282">
    <comp name="--.HHZ">
      <acc value="0.0188221876" flag="0"/>
      <vel value="0.0042775669" flag="0"/>
      <psa03 value="0.0205176839" flag="0"/>
      <psa10 value="0.0045568689" flag="0"/>
      <psa30 value="0.0002400722" flag="0"/>
    </comp>
    <comp name="--.HHE">
      <acc value="0.0296866093" flag="0"/>
      <vel value="0.0063944351" flag="0"/>
      <psa03 value="0.0149346024" flag="0"/>
      <psa10 value="0.0184236511" flag="0"/>
      <psa30 value="0.0007134009" flag="0"/>
    </comp>
    <comp name="--.HHN">
      <acc value="0.0311377290" flag="0"/>
      <vel value="0.0084334426" flag="0"/>
      <psa03 value="0.0249200244" flag="0"/>
      <psa10 value="0.0080015533" flag="0"/>
      <psa30 value="0.0003991458" flag="0"/>
    </comp>
  </station>
  <station code="SNT5" name="SNT5" netid="HA" insttype="1s-100Hz," lat="36.4037" lon="25.3953">
    <comp name="--.HHE">
      <acc value="0.1166764555" flag="0"/>
      <vel value="0.0233094908" flag="0"/>
      <psa03 value="0.0713095264" flag="0"/>
      <psa10 value="0.0099830870" flag="0"/>
      <psa30 value="0.0010040916" flag="0"/>
    </comp>
    <comp name="--.HHZ">
      <acc value="0.0423536663" flag="0"/>
      <vel value="0.0080426509" flag="0"/>
      <psa03 value="0.0228096110" flag="0"/>
      <psa10 value="0.0043501967" flag="0"/>
      <psa30 value="0.0002527096" flag="0"/>
    </comp>
    <comp name="--.HHN">
      <acc value="0.0632652341" flag="0"/>
      <vel value="0.0119756749" flag="0"/>
      <psa03 value="0.0683798687" flag="0"/>
      <psa10 value="0.0057600234" flag="0"/>
      <psa30 value="0.0005605186" flag="0"/>
    </comp>
  </station>
  <station code="KNSS" name="KNSS" netid="HC" insttype="60" lat="35.3042" lon="25.1802">
    <comp name="--.HHE">
      <acc value="0.0298171746" flag="0"/>
      <vel value="0.0082236131" flag="0"/>
      <psa03 value="0.0498739967" flag="0"/>
      <psa10 value="0.0048645110" flag="0"/>
      <psa30 value="0.0005806355" flag="0"/>
    </comp>
    <comp name="--.HHZ">
      <acc value="0.0236268963" flag="0"/>
      <vel value="0.0091044482" flag="0"/>
      <psa03 value="0.0426624041" flag="0"/>
      <psa10 value="0.0074638436" flag="0"/>
      <psa30 value="0.0003992270" flag="0"/>
    </comp>
    <comp name="--.HHN">
      <acc value="0.0236416563" flag="0"/>
      <vel value="0.0081464226" flag="0"/>
      <psa03 value="0.0463008173" flag="0"/>
      <psa10 value="0.0050346845" flag="0"/>
      <psa30 value="0.0004513975" flag="0"/>
    </comp>
  </station>
  <station code="PFKS" name="PFKS" netid="HC" insttype="120" lat="35.0429" lon="25.4733">
    <comp name="--.HHE">
      <acc value="0.0348848137" flag="0"/>
      <vel value="0.0128854801" flag="0"/>
      <psa03 value="0.0600911889" flag="0"/>
      <psa10 value="0.0121768885" flag="0"/>
      <psa30 value="0.0005502513" flag="0"/>
    </comp>
    <comp name="--.HHN">
      <acc value="0.0464473976" flag="0"/>
      <vel value="0.0123535878" flag="0"/>
      <psa03 value="0.0514425500" flag="0"/>
      <psa10 value="0.0071012912" flag="0"/>
      <psa30 value="0.0006638271" flag="0"/>
    </comp>
    <comp name="--.HHZ">
      <acc value="0.0209023383" flag="0"/>
      <vel value="0.0065403446" flag="0"/>
      <psa03 value="0.0319323789" flag="0"/>
      <psa10 value="0.0047039092" flag="0"/>
      <psa30 value="0.0002785904" flag="0"/>
    </comp>
  </station>
  <station code="STIA" name="STIA" netid="HC" insttype="120" lat="35.2021" lon="26.0909">
    <comp name="--.HHE">
      <acc value="0.0132709776" flag="0"/>
      <vel value="0.0067799275" flag="0"/>
      <psa03 value="0.0208736147" flag="0"/>
      <psa10 value="0.0095239127" flag="0"/>
      <psa30 value="0.0005139874" flag="0"/>
    </comp>
    <comp name="--.HHN">
      <acc value="0.0000000000" flag="0"/>
      <vel value="-100.0000000000" flag="0"/>
      <psa03 value="0.0000000000" flag="0"/>
      <psa10 value="0.0000000000" flag="0"/>
      <psa30 value="0.0000000000" flag="0"/>
    </comp>
    <comp name="--.HHZ">
      <acc value="0.0204610865" flag="0"/>
      <vel value="0.0048042283" flag="0"/>
      <psa03 value="0.0214779858" flag="0"/>
      <psa10 value="0.0029681940" flag="0"/>
      <psa30 value="0.0003002368" flag="0"/>
    </comp>
  </station>
  <station code="IACM" name="IACM" netid="HL" insttype="120" lat="35.3058" lon="25.0709">
    <comp name="--.HHZ">
      <acc value="0.0569581567" flag="0"/>
      <vel value="0.0267620111" flag="0"/>
      <psa03 value="0.1054293263" flag="0"/>
      <psa10 value="0.0140232267" flag="0"/>
      <psa30 value="0.0008197557" flag="0"/>
    </comp>
    <comp name="--.HHN">
      <acc value="0.0587501416" flag="0"/>
      <vel value="0.0248382376" flag="0"/>
      <psa03 value="0.1749308870" flag="0"/>
      <psa10 value="0.0271627583" flag="0"/>
      <psa30 value="0.0016364445" flag="0"/>
    </comp>
    <comp name="--.HHE">
      <acc value="0.0697946756" flag="0"/>
      <vel value="0.0324226328" flag="0"/>
      <psa03 value="0.1513249327" flag="0"/>
      <psa10 value="0.0532064340" flag="0"/>
      <psa30 value="0.0019058830" flag="0"/>
    </comp>
  </station>
  <station code="IDI" name="IDI" netid="HL" insttype="120" lat="35.288" lon="24.89">
    <comp name="--.HHZ">
      <acc value="0.0140655805" flag="0"/>
      <vel value="0.0044323126" flag="0"/>
      <psa03 value="0.0295721705" flag="0"/>
      <psa10 value="0.0029981986" flag="0"/>
      <psa30 value="0.0001714767" flag="0"/>
    </comp>
    <comp name="--.HHE">
      <acc value="0.0147188120" flag="0"/>
      <vel value="0.0060423106" flag="0"/>
      <psa03 value="0.0204466393" flag="0"/>
      <psa10 value="0.0038621569" flag="0"/>
      <psa30 value="0.0002826033" flag="0"/>
    </comp>
    <comp name="--.HHN">
      <acc value="0.0186738170" flag="0"/>
      <vel value="0.0065640145" flag="0"/>
      <psa03 value="0.0436507370" flag="0"/>
      <psa10 value="0.0045132472" flag="0"/>
      <psa30 value="0.0003888712" flag="0"/>
    </comp>
  </station>
  <station code="THERA" name="THERA" netid="HL" insttype="120" lat="36.367" lon="25.4753">
    <comp name="--.HHZ">
      <acc value="0.0376801990" flag="0"/>
      <vel value="0.0086097341" flag="0"/>
      <psa03 value="0.0345898101" flag="0"/>
      <psa10 value="0.0033487566" flag="0"/>
      <psa30 value="0.0002478274" flag="0"/>
    </comp>
    <comp name="--.HHN">
      <acc value="0.0388362614" flag="0"/>
      <vel value="0.0053723677" flag="0"/>
      <psa03 value="0.0191757625" flag="0"/>
      <psa10 value="0.0015540027" flag="0"/>
      <psa30 value="0.0001068472" flag="0"/>
    </comp>
    <comp name="--.HHE">
      <acc value="0.0448084821" flag="0"/>
      <vel value="0.0101756722" flag="0"/>
      <psa03 value="0.0265065810" flag="0"/>
      <psa10 value="0.0064221205" flag="0"/>
      <psa30 value="0.0003476382" flag="0"/>
    </comp>
  </station>
  <station code="ZKR" name="ZKR" netid="HL" insttype="120" lat="35.1147" lon="26.2169">
    <comp name="--.HHN">
      <acc value="0.0057488254" flag="0"/>
      <vel value="0.0023060559" flag="0"/>
      <psa03 value="0.0108284584" flag="0"/>
      <psa10 value="0.0047096286" flag="0"/>
      <psa30 value="0.0001729501" flag="0"/>
    </comp>
    <comp name="--.HHZ">
      <acc value="0.0069619758" flag="0"/>
      <vel value="0.0042449241" flag="0"/>
      <psa03 value="0.0137365774" flag="0"/>
      <psa10 value="0.0040936721" flag="0"/>
      <psa30 value="0.0002225110" flag="0"/>
    </comp>
    <comp name="--.HHE">
      <acc value="0.0080816070" flag="0"/>
      <vel value="0.0057089966" flag="0"/>
      <psa03 value="0.0183014125" flag="0"/>
      <psa10 value="0.0048811510" flag="0"/>
      <psa30 value="0.0004549253" flag="0"/>
    </comp>
  </station>
  <station code="CMBO" name="CMBO" netid="HT" insttype="120P," lat="36.4709" lon="25.4056">
    <comp name="--.HHE">
      <acc value="0.0631899857" flag="0"/>
      <vel value="0.0233497405" flag="0"/>
      <psa03 value="0.0815679240" flag="0"/>
      <psa10 value="0.0338378198" flag="0"/>
      <psa30 value="0.0013006375" flag="0"/>
    </comp>
    <comp name="--.HHZ">
      <acc value="0.0743962050" flag="0"/>
      <vel value="0.0173428585" flag="0"/>
      <psa03 value="0.0939714051" flag="0"/>
      <psa10 value="0.0096085943" flag="0"/>
      <psa30 value="0.0006717260" flag="0"/>
    </comp>
    <comp name="--.HHN">
      <acc value="0.0926496263" flag="0"/>
      <vel value="0.0253375421" flag="0"/>
      <psa03 value="0.0907845845" flag="0"/>
      <psa10 value="0.0250037997" flag="0"/>
      <psa30 value="0.0010061313" flag="0"/>
    </comp>
  </station>
  <station code="IDI" name="IDI" netid="MN" insttype="" lat="35.288" lon="24.89">
    <comp name="--.HHE">
      <acc value="0.0157964470" flag="0"/>
      <vel value="0.0060879084" flag="0"/>
      <psa03 value="0.0205422365" flag="0"/>
      <psa10 value="0.0038424244" flag="0"/>
      <psa30 value="0.0002818669" flag="0"/>
    </comp>
    <comp name="--.HHN">
      <acc value="0.0195714950" flag="0"/>
      <vel value="0.0067416576" flag="0"/>
      <psa03 value="0.0440320902" flag="0"/>
      <psa10 value="0.0044952622" flag="0"/>
      <psa30 value="0.0003860750" flag="0"/>
    </comp>
    <comp name="--.HHZ">
      <acc value="0.0148538124" flag="0"/>
      <vel value="0.0045515660" flag="0"/>
      <psa03 value="0.0299777742" flag="0"/>
      <psa10 value="0.0029782484" flag="0"/>
      <psa30 value="0.0001704922" flag="0"/>
    </comp>
  </station>
</stationlist>
